<?xml version="1.0" encoding="UTF-8"?>
<osm generator="osmapis" version="0.6">
	<node id="-548862" lat="61.9000944415" lon="6.69941944668">
		<tag k="bridge" v="yes" />
		<tag k="layer" v="1" />
		<tag k="name" v="Grønnevik" />
		<tag k="ssr:stedsnr" v="47754" />
	</node>
	<node id="-548861" lat="61.8230305523" lon="6.80981110947">
		<tag k="bridge" v="yes" />
		<tag k="layer" v="1" />
		<tag k="name" v="Brynestad" />
		<tag k="ssr:stedsnr" v="47744" />
	</node>
	<node id="-548860" lat="61.9103055541" lon="7.05020554942">
		<tag k="bridge" v="yes" />
		<tag k="layer" v="1" />
		<tag k="name" v="Fossdøla Vestre" />
		<tag k="ssr:stedsnr" v="47737" />
	</node>
	<node id="-548859" lat="61.8701305593" lon="6.32353889586">
		<tag k="bridge" v="yes" />
		<tag k="layer" v="1" />
		<tag k="name" v="Randaelva" />
		<tag k="ssr:stedsnr" v="46560" />
	</node>
	<node id="-548858" lat="61.9299944439" lon="7.22726665848">
		<tag k="bridge" v="yes" />
		<tag k="layer" v="1" />
		<tag k="name" v="Skåre" />
		<tag k="ssr:stedsnr" v="46554" />
	</node>
	<node id="-549881" lat="61.9500777772" lon="7.00301945043">
		<tag k="bridge" v="yes" />
		<tag k="layer" v="1" />
		<tag k="name" v="Marsåna" />
		<tag k="ssr:stedsnr" v="533761" />
	</node>
	<node id="-549880" lat="61.840019444" lon="6.46551944833">
		<tag k="bridge" v="yes" />
		<tag k="layer" v="1" />
		<tag k="name" v="Bergseth" />
		<tag k="ssr:stedsnr" v="533743" />
	</node>
	<node id="-549879" lat="61.8026777773" lon="6.52342500825">
		<tag k="bridge" v="yes" />
		<tag k="layer" v="1" />
		<tag k="name" v="Verlo Nedre" />
		<tag k="ssr:stedsnr" v="531580" />
	</node>
	<node id="-549878" lat="61.8812833331" lon="6.55875833995">
		<tag k="bridge" v="yes" />
		<tag k="layer" v="1" />
		<tag k="name" v="Rødberg" />
		<tag k="ssr:stedsnr" v="531569" />
	</node>
	<node id="-549877" lat="61.8348055512" lon="6.80321389439">
		<tag k="bridge" v="yes" />
		<tag k="layer" v="1" />
		<tag k="name" v="Olden" />
		<tag k="ssr:stedsnr" v="531560" />
	</node>
	<node id="-549876" lat="61.8792611131" lon="6.55440000691">
		<tag k="layer" v="-1" />
		<tag k="name" v="Blakset I" />
		<tag k="ssr:stedsnr" v="529132" />
		<tag k="tunnel" v="yes" />
	</node>
	<node id="-550895" lat="61.944305556" lon="7.25959166346">
		<tag k="alt_name" v="Ospeli" />
		<tag k="layer" v="-1" />
		<tag k="name" v="Ospelitunnelen" />
		<tag k="ssr:stedsnr" v="938034" />
		<tag k="tunnel" v="yes" />
	</node>
	<node id="-548326" lat="61.7403638884" lon="6.79037499987">
		<tag k="bridge" v="yes" />
		<tag k="layer" v="1" />
		<tag k="name" v="Gytri" />
		<tag k="ssr:stedsnr" v="350740" />
	</node>
	<node id="-548325" lat="61.7922861129" lon="6.50900277878">
		<tag k="bridge" v="yes" />
		<tag k="layer" v="1" />
		<tag k="name" v="Bruland" />
		<tag k="ssr:stedsnr" v="350723" />
	</node>
	<node id="-548324" lat="61.7236138886" lon="6.79393055808">
		<tag k="bridge" v="yes" />
		<tag k="layer" v="1" />
		<tag k="name" v="Bakyri" />
		<tag k="ssr:stedsnr" v="350718" />
	</node>
	<node id="-548323" lat="61.9119194456" lon="6.74858333311">
		<tag k="bridge" v="yes" />
		<tag k="layer" v="1" />
		<tag k="name" v="Rise" />
		<tag k="ssr:stedsnr" v="349581" />
	</node>
	<node id="-548322" lat="61.822783333" lon="6.37202500313">
		<tag k="bridge" v="yes" />
		<tag k="layer" v="1" />
		<tag k="name" v="Sagelva" />
		<tag k="ssr:stedsnr" v="349580" />
	</node>
	<node id="-548321" lat="61.8067250017" lon="6.82261666648">
		<tag k="bridge" v="yes" />
		<tag k="layer" v="1" />
		<tag k="name" v="Solheim" />
		<tag k="ssr:stedsnr" v="349570" />
	</node>
	<node id="-548320" lat="61.8815111113" lon="6.7130944451">
		<tag k="layer" v="-1" />
		<tag k="name" v="Stavenes" />
		<tag k="ssr:stedsnr" v="347729" />
		<tag k="tunnel" v="yes" />
	</node>
	<node id="-549709" lat="61.9383416653" lon="6.90073055553">
		<tag k="bridge" v="yes" />
		<tag k="layer" v="1" />
		<tag k="name" v="Grønenes" />
		<tag k="ssr:stedsnr" v="472747" />
	</node>
	<node id="-549833" lat="61.8612775559" lon="6.60642181455">
		<tag k="name" v="Rognekleiva" />
		<tag k="place" v="locality" />
		<tag k="ssr:stedsnr" v="518344" />
	</node>
	<node id="-549708" lat="61.9483833347" lon="7.02878333047">
		<tag k="bridge" v="yes" />
		<tag k="layer" v="1" />
		<tag k="name" v="Flo" />
		<tag k="ssr:stedsnr" v="472730" />
	</node>
	<node id="-550731" lat="61.8035277776" lon="6.52723610589">
		<tag k="bridge" v="yes" />
		<tag k="layer" v="1" />
		<tag k="name" v="Utvik Øvre" />
		<tag k="ssr:stedsnr" v="835553" />
	</node>
	<node id="-549281" lat="61.8887944452" lon="6.58170833375">
		<tag k="bridge" v="yes" />
		<tag k="layer" v="1" />
		<tag k="name" v="Gjølvestøylen" />
		<tag k="ssr:stedsnr" v="169751" />
	</node>
	<node id="-549280" lat="61.8740805542" lon="6.84114166767">
		<tag k="bridge" v="yes" />
		<tag k="layer" v="1" />
		<tag k="name" v="Gjølsmunna" />
		<tag k="ssr:stedsnr" v="169752" />
	</node>
	<node id="-549279" lat="61.8256055521" lon="6.97093055056">
		<tag k="bridge" v="yes" />
		<tag k="layer" v="1" />
		<tag k="name" v="Hellset" />
		<tag k="ssr:stedsnr" v="169745" />
	</node>
	<node id="-549278" lat="61.8433305545" lon="6.93750277024">
		<tag k="bridge" v="yes" />
		<tag k="layer" v="1" />
		<tag k="name" v="Breng" />
		<tag k="ssr:stedsnr" v="168745" />
	</node>
	<node id="-549277" lat="61.8017305537" lon="6.52174167608">
		<tag k="bridge" v="yes" />
		<tag k="layer" v="1" />
		<tag k="name" v="Verlo Midtre" />
		<tag k="ssr:stedsnr" v="167582" />
	</node>
	<node id="-548156" lat="61.9448916689" lon="6.93936389748">
		<tag k="bridge" v="yes" />
		<tag k="layer" v="1" />
		<tag k="name" v="Lindvik" />
		<tag k="ssr:stedsnr" v="290706" />
	</node>
	<node id="-550735" lat="61.9310000029" lon="6.91121110472">
		<tag k="bridge" v="yes" />
		<tag k="layer" v="1" />
		<tag k="name" v="Dispen" />
		<tag k="ssr:stedsnr" v="836740" />
	</node>
	<node id="-550734" lat="61.9343638903" lon="6.88096389042">
		<tag k="bridge" v="yes" />
		<tag k="layer" v="1" />
		<tag k="name" v="Mindresunde" />
		<tag k="ssr:stedsnr" v="836460" />
	</node>
	<node id="-550733" lat="61.910819449" lon="7.04568889257">
		<tag k="bridge" v="yes" />
		<tag k="layer" v="1" />
		<tag k="name" v="Sandvik" />
		<tag k="ssr:stedsnr" v="835558" />
	</node>
	<node id="-550732" lat="61.9561027774" lon="7.36229166024">
		<tag k="bridge" v="yes" />
		<tag k="layer" v="1" />
		<tag k="name" v="Tystig" />
		<tag k="ssr:stedsnr" v="835554" />
	</node>
	<node id="-549707" lat="61.9099527771" lon="7.05328334051">
		<tag k="bridge" v="yes" />
		<tag k="layer" v="1" />
		<tag k="name" v="Fossdøla Østre" />
		<tag k="ssr:stedsnr" v="472728" />
	</node>
	<node id="-549706" lat="61.8077999975" lon="6.52215556476">
		<tag k="bridge" v="yes" />
		<tag k="layer" v="1" />
		<tag k="name" v="Storelva" />
		<tag k="ssr:stedsnr" v="470501" />
	</node>
	<node id="-549705" lat="61.8640980975" lon="6.75282103963">
		<tag k="layer" v="-1" />
		<tag k="loc_name" v="Gamle Vangbergstunnelen" />
		<tag k="name" v="Vanberg" />
		<tag k="ssr:stedsnr" v="469680" />
		<tag k="tunnel" v="yes" />
	</node>
	<node id="-550211" lat="61.9921527738" lon="7.31271943714">
		<tag k="bridge" v="yes" />
		<tag k="layer" v="1" />
		<tag k="name" v="Grasdøla" />
		<tag k="ssr:stedsnr" v="654762" />
	</node>
	<node id="-550210" lat="61.8178749963" lon="6.38198888742">
		<tag k="bridge" v="yes" />
		<tag k="layer" v="1" />
		<tag k="name" v="Frøyset" />
		<tag k="ssr:stedsnr" v="654752" />
	</node>
	<node id="-550209" lat="61.6751750038" lon="6.81426388738">
		<tag k="bridge" v="yes" />
		<tag k="layer" v="1" />
		<tag k="name" v="Melkevoll" />
		<tag k="ssr:stedsnr" v="654502" />
	</node>
	<node id="-550208" lat="61.7896694476" lon="6.83190832669">
		<tag k="bridge" v="yes" />
		<tag k="layer" v="1" />
		<tag k="name" v="Sandnes" />
		<tag k="ssr:stedsnr" v="652515" />
	</node>
	<node id="-550207" lat="61.8643888926" lon="6.37093333622">
		<tag k="bridge" v="yes" />
		<tag k="layer" v="1" />
		<tag k="name" v="Tvinna" />
		<tag k="ssr:stedsnr" v="652509" />
	</node>
	<node id="-550206" lat="61.95087778" lon="7.32979166071">
		<tag k="bridge" v="yes" />
		<tag k="layer" v="1" />
		<tag k="name" v="Tystig Nedre" />
		<tag k="ssr:stedsnr" v="652504" />
	</node>
	<node id="-550205" lat="61.9449277816" lon="7.29578054691">
		<tag k="bridge" v="yes" />
		<tag k="layer" v="1" />
		<tag k="name" v="Steinhus" />
		<tag k="ssr:stedsnr" v="652498" />
	</node>
	<node id="-550716" lat="61.9052555588" lon="6.69161388118">
		<tag k="highway" v="path" />
		<tag k="name" v="Lidavegen" />
		<tag k="ssr:stedsnr" v="822497" />
	</node>
	<node id="-548155" lat="61.9494888859" lon="7.01693611565">
		<tag k="bridge" v="yes" />
		<tag k="layer" v="1" />
		<tag k="name" v="Geitåna" />
		<tag k="ssr:stedsnr" v="290693" />
	</node>
	<node id="-548154" lat="61.8697305598" lon="6.7080944351">
		<tag k="bridge" v="yes" />
		<tag k="layer" v="1" />
		<tag k="name" v="Algjeld" />
		<tag k="ssr:stedsnr" v="290683" />
	</node>
	<node id="-548153" lat="61.7985638893" lon="6.52351665756">
		<tag k="bridge" v="yes" />
		<tag k="layer" v="1" />
		<tag k="name" v="Verlo Øvre" />
		<tag k="ssr:stedsnr" v="289580" />
	</node>
	<node id="-548152" lat="61.8167277748" lon="6.9886638954">
		<tag k="bridge" v="yes" />
		<tag k="layer" v="1" />
		<tag k="name" v="Raudi" />
		<tag k="ssr:stedsnr" v="289564" />
	</node>
	<node id="-548151" lat="61.9519250017" lon="6.96935554604">
		<tag k="bridge" v="yes" />
		<tag k="layer" v="1" />
		<tag k="name" v="Seljevik" />
		<tag k="ssr:stedsnr" v="289559" />
	</node>
	<node id="-548150" lat="61.8658972197" lon="6.82368055537">
		<tag k="layer" v="-1" />
		<tag k="name" v="Tyvanes" />
		<tag k="ssr:stedsnr" v="287694" />
		<tag k="tunnel" v="yes" />
	</node>
	<node id="-548149" lat="61.9163722266" lon="7.13208055039">
		<tag k="layer" v="-1" />
		<tag k="name" v="Hjelle" />
		<tag k="ssr:stedsnr" v="287520" />
		<tag k="tunnel" v="yes" />
	</node>
	<node id="-548640" lat="61.9330525586" lon="6.52237918443">
		<tag k="bridge" v="yes" />
		<tag k="layer" v="1" />
		<tag k="name" v="Øyebakken" />
		<tag k="ssr:stedsnr" v="897679" />
	</node>
	<node id="-548636" lat="61.8758237334" lon="6.54926787556">
		<tag k="layer" v="-1" />
		<tag k="name" v="Blaksettunnelen" />
		<tag k="ssr:stedsnr" v="989011" />
		<tag k="tunnel" v="yes" />
	</node>
	<node id="-549142" lat="61.9511861081" lon="7.24172499891">
		<tag k="highway" v="path" />
		<tag k="name" v="Glæra" />
		<tag k="ssr:stedsnr" v="141483" />
	</node>
	<node id="-549653" lat="61.8460555558" lon="6.45344166965">
		<tag k="highway" v="path" />
		<tag k="name" v="Indrestølsvegen" />
		<tag k="ssr:stedsnr" v="458319" />
	</node>
	<node id="-548613" lat="61.8715896797" lon="6.67336644892">
		<tag k="layer" v="-1" />
		<tag k="name" v="Holetunnelen" />
		<tag k="ssr:stedsnr" v="983196" />
		<tag k="tunnel" v="yes" />
	</node>
	<node id="-548612" lat="61.8696885574" lon="6.70219547888">
		<tag k="layer" v="-1" />
		<tag k="name" v="Agjeldstunnelen" />
		<tag k="ssr:stedsnr" v="983195" />
		<tag k="tunnel" v="yes" />
	</node>
	<node id="-548609" lat="61.7551888898" lon="6.80163888698">
		<tag k="bridge" v="yes" />
		<tag k="layer" v="1" />
		<tag k="name" v="Kroka" />
		<tag k="ssr:stedsnr" v="897717" />
	</node>
	<node id="-548608" lat="61.8450583342" lon="6.39057221666">
		<tag k="bridge" v="yes" />
		<tag k="layer" v="1" />
		<tag k="name" v="Fjellkorstad" />
		<tag k="ssr:stedsnr" v="897714" />
	</node>
	<node id="-548607" lat="61.915783336" lon="7.03527778075">
		<tag k="bridge" v="yes" />
		<tag k="layer" v="1" />
		<tag k="name" v="Bulega" />
		<tag k="ssr:stedsnr" v="897711" />
	</node>
	<node id="-548606" lat="61.8413611086" lon="6.81061945161">
		<tag k="bridge" v="yes" />
		<tag k="layer" v="1" />
		<tag k="name" v="Murvika" />
		<tag k="ssr:stedsnr" v="897465" />
	</node>
	<node id="-548605" lat="61.9013138877" lon="6.71671666558">
		<tag k="bridge" v="yes" />
		<tag k="layer" v="1" />
		<tag k="name" v="Visnes" />
		<tag k="ssr:stedsnr" v="896589" />
	</node>
	<node id="-548604" lat="61.9181555238" lon="6.772744885">
		<tag k="bridge" v="yes" />
		<tag k="layer" v="1" />
		<tag k="name" v="Ytre-Eide" />
		<tag k="ssr:stedsnr" v="896584" />
	</node>
	<node id="-548603" lat="61.8044222241" lon="6.52563332554">
		<tag k="bridge" v="yes" />
		<tag k="layer" v="1" />
		<tag k="name" v="Utvik Nedre" />
		<tag k="ssr:stedsnr" v="896558" />
	</node>
	<node id="-549072" lat="61.922505557" lon="7.19807221833">
		<tag k="bridge" v="yes" />
		<tag k="layer" v="1" />
		<tag k="name" v="Fureneset halvbru" />
		<tag k="ssr:stedsnr" v="108739" />
	</node>
	<node id="-549071" lat="61.9492222238" lon="6.94839167141">
		<tag k="bridge" v="yes" />
		<tag k="layer" v="1" />
		<tag k="name" v="Furerinden" />
		<tag k="ssr:stedsnr" v="108736" />
	</node>
	<node id="-549070" lat="61.9316444418" lon="6.90651944194">
		<tag k="bridge" v="yes" />
		<tag k="layer" v="1" />
		<tag k="name" v="Rosdøla" />
		<tag k="ssr:stedsnr" v="107539" />
	</node>
	<node id="-549069" lat="61.8388777813" lon="6.49456111511">
		<tag k="bridge" v="yes" />
		<tag k="layer" v="1" />
		<tag k="name" v="Ulvedal" />
		<tag k="ssr:stedsnr" v="107533" />
	</node>
	<node id="-549068" lat="61.8591833298" lon="6.76943889135">
		<tag k="bridge" v="yes" />
		<tag k="layer" v="1" />
		<tag k="name" v="Vanberg" />
		<tag k="ssr:stedsnr" v="107531" />
	</node>
	<node id="-548025" lat="61.9791777774" lon="7.26889167534">
		<tag k="layer" v="-1" />
		<tag k="name" v="Grasdaltunnelen" />
		<tag k="ssr:stedsnr" v="271038" />
		<tag k="tunnel" v="yes" />
	</node>
	<node id="-548024" lat="61.9041805513" lon="7.11685555839">
		<tag k="layer" v="-1" />
		<tag k="name" v="Hjelletunnelen" />
		<tag k="ssr:stedsnr" v="271032" />
		<tag k="tunnel" v="yes" />
	</node>
	<node id="-550056" lat="61.8721361077" lon="6.31330278018">
		<tag k="bridge" v="yes" />
		<tag k="layer" v="1" />
		<tag k="name" v="Hoplandselva" />
		<tag k="ssr:stedsnr" v="593684" />
	</node>
	<node id="-550055" lat="61.9660222252" lon="7.25448610269">
		<tag k="bridge" v="yes" />
		<tag k="layer" v="1" />
		<tag k="name" v="Skjæringsdalseter" />
		<tag k="ssr:stedsnr" v="592545" />
	</node>
	<node id="-550054" lat="61.9858138933" lon="7.3041027835">
		<tag k="layer" v="-1" />
		<tag k="name" v="Grasdal" />
		<tag k="ssr:stedsnr" v="590461" />
		<tag k="tunnel" v="yes" />
	</node>
	<node id="-550558" lat="61.8942500045" lon="7.09397500108">
		<tag k="bridge" v="yes" />
		<tag k="layer" v="1" />
		<tag k="name" v="Grandøla" />
		<tag k="ssr:stedsnr" v="775740" />
	</node>
	<node id="-550557" lat="61.9245388873" lon="7.02164721565">
		<tag k="bridge" v="yes" />
		<tag k="layer" v="1" />
		<tag k="name" v="Nesje" />
		<tag k="ssr:stedsnr" v="775471" />
	</node>
	<node id="-550556" lat="61.7712305558" lon="6.83410555552">
		<tag k="bridge" v="yes" />
		<tag k="layer" v="1" />
		<tag k="name" v="Ornes" />
		<tag k="ssr:stedsnr" v="774579" />
	</node>
	<node id="-550555" lat="61.9274833363" lon="7.22243334175">
		<tag k="bridge" v="yes" />
		<tag k="layer" v="1" />
		<tag k="name" v="Skåre Vest" />
		<tag k="ssr:stedsnr" v="774564" />
	</node>
	<node id="-550554" lat="61.7587694408" lon="6.82260832941">
		<tag k="bridge" v="yes" />
		<tag k="layer" v="1" />
		<tag k="name" v="Sundeelva" />
		<tag k="ssr:stedsnr" v="774561" />
	</node>
	<node id="-548501" lat="61.8991583356" lon="6.61353056267">
		<tag k="bridge" v="yes" />
		<tag k="layer" v="1" />
		<tag k="name" v="Langeset" />
		<tag k="ssr:stedsnr" v="411741" />
	</node>
	<node id="-548500" lat="61.8543333371" lon="6.6132694376">
		<tag k="bridge" v="yes" />
		<tag k="layer" v="1" />
		<tag k="name" v="Hilde" />
		<tag k="ssr:stedsnr" v="411737" />
	</node>
	<node id="-548499" lat="61.8830499959" lon="6.56060277086">
		<tag k="bridge" v="yes" />
		<tag k="layer" v="1" />
		<tag k="name" v="Dalseth" />
		<tag k="ssr:stedsnr" v="411734" />
	</node>
	<node id="-548498" lat="61.9181166649" lon="7.17274444232">
		<tag k="bridge" v="yes" />
		<tag k="layer" v="1" />
		<tag k="name" v="Folven" />
		<tag k="ssr:stedsnr" v="411725" />
	</node>
	<node id="-548497" lat="61.9371583326" lon="7.26040556326">
		<tag k="bridge" v="yes" />
		<tag k="layer" v="1" />
		<tag k="name" v="Øvstefoss" />
		<tag k="ssr:stedsnr" v="410545" />
	</node>
	<node id="-548945" lat="62.0021638924" lon="7.37197776927">
		<tag k="layer" v="-1" />
		<tag k="name" v="Oppljostunnelen" />
		<tag k="ssr:stedsnr" v="86405" />
		<tag k="tunnel" v="yes" />
	</node>
	<node id="-549479" lat="61.8776500042" lon="6.55142222347">
		<tag k="layer" v="-1" />
		<tag k="name" v="Blakset II" />
		<tag k="ssr:stedsnr" v="226145" />
		<tag k="tunnel" v="yes" />
	</node>
	<node id="-551013" lat="61.9320611124" lon="6.91968333331">
		<tag k="bridge" v="yes" />
		<tag k="layer" v="1" />
		<tag k="name" v="Meland bru" />
		<tag k="ssr:stedsnr" v="957753" />
	</node>
	<node id="-551012" lat="61.9176361099" lon="7.03222777319">
		<tag k="bridge" v="yes" />
		<tag k="layer" v="1" />
		<tag k="name" v="Bulega Kulvert" />
		<tag k="ssr:stedsnr" v="957751" />
	</node>
	<node id="-551011" lat="61.9382222251" lon="7.26245278649">
		<tag k="bridge" v="yes" />
		<tag k="layer" v="1" />
		<tag k="name" v="Ospeli" />
		<tag k="ssr:stedsnr" v="956570" />
	</node>
	<node id="-551010" lat="61.8666305535" lon="6.88188611219">
		<tag k="bridge" v="yes" />
		<tag k="layer" v="1" />
		<tag k="name" v="Tjugen" />
		<tag k="ssr:stedsnr" v="956569" />
	</node>
	<node id="-551009" lat="61.9499305539" lon="7.01225834048">
		<tag k="bridge" v="yes" />
		<tag k="layer" v="1" />
		<tag k="name" v="Stølsgrova" />
		<tag k="ssr:stedsnr" v="956561" />
	</node>
	<node id="-551006" lat="61.8304416667" lon="6.42842222905">
		<tag k="fixme" v="verify maritime location" />
		<tag k="mooring" v="yes" />
		<tag k="name" v="Lindestøa" />
		<tag k="place" v="locality" />
		<tag k="ssr:stedsnr" v="949062" />
	</node>
	<node id="-548433" lat="61.8556138851" lon="6.36839722676">
		<tag k="alt_name" v="Nos" />
		<tag k="layer" v="-1" />
		<tag k="name" v="Nostunnelen" />
		<tag k="ssr:stedsnr" v="397279" />
		<tag k="tunnel" v="yes" />
	</node>
	<node id="-550955" lat="61.8563499997" lon="6.6180277822">
		<tag k="highway" v="path" />
		<tag k="name" v="Årevegen" />
		<tag k="ssr:stedsnr" v="943348" />
	</node>
	<node id="-548386" lat="61.9163416705" lon="7.13202499245">
		<tag k="layer" v="-1" />
		<tag k="name" v="Hjelletunnelen" />
		<tag k="ssr:stedsnr" v="384488" />
		<tag k="tunnel" v="yes" />
	</node>
	<node id="-548877" lat="61.8318388853" lon="7.19290277233">
		<tag k="highway" v="path" />
		<tag k="name" v="Ulvestigen" />
		<tag k="ssr:stedsnr" v="70420" />
	</node>
	<node id="-550402" lat="61.9211333348" lon="6.55234721671">
		<tag k="bridge" v="yes" />
		<tag k="layer" v="1" />
		<tag k="name" v="Hatledal" />
		<tag k="ssr:stedsnr" v="715756" />
	</node>
</osm>
