<?xml version="1.0" encoding="UTF-8"?>
<osm generator="osmapis" version="0.6">
	<node id="-549373" lat="61.842602781" lon="6.81064445205">
		<tag k="name" v="Sandneset" />
		<tag k="natural" v="cape" />
		<tag k="ssr:stedsnr" v="215157" />
	</node>
	<node id="-548857" lat="61.8435555514" lon="6.81109165954">
		<tag k="name" v="Sandnesvika" />
		<tag k="natural" v="bay" />
		<tag k="ssr:stedsnr" v="39449" />
	</node>
	<node id="-549367" lat="61.8466472201" lon="6.28270834255">
		<tag k="name" v="Helgheimsvika" />
		<tag k="natural" v="bay" />
		<tag k="ssr:stedsnr" v="215134" />
	</node>
	<node id="-549874" lat="61.8688277802" lon="6.82364721322">
		<tag k="name" v="Engagrunnen" />
		<tag k="natural" v="shoal" />
		<tag k="place" v="locality" />
		<tag k="ssr:stedsnr" v="524434" />
	</node>
	<node id="-548849" lat="61.8705250015" lon="6.66640554706">
		<tag k="name" v="Hjellsnes" />
		<tag k="natural" v="cape" />
		<tag k="ssr:stedsnr" v="33548" />
	</node>
	<node id="-548846" lat="61.8728527736" lon="6.68891111681">
		<tag k="name" v="Treføttingen" />
		<tag k="natural" v="cape" />
		<tag k="ssr:stedsnr" v="33529" />
	</node>
	<node id="-549354" lat="61.8575416706" lon="6.81558332445">
		<tag k="name" v="Avleinsstranda" />
		<tag k="natural" v="beach" />
		<tag k="place" v="locality" />
		<tag k="ssr:stedsnr" v="209599" />
	</node>
	<node id="-549863" lat="61.8721361106" lon="6.69544444106">
		<tag k="name" v="Steinastoda" />
		<tag k="natural" v="cape" />
		<tag k="ssr:stedsnr" v="518458" />
	</node>
	<node id="-549201" lat="61.8303555592" lon="6.45346110571">
		<tag k="name" v="Meistarjobordet" />
		<tag k="natural" v="cape" />
		<tag k="ssr:stedsnr" v="154286" />
	</node>
	<node id="-550359" lat="61.8472305527" lon="6.81358333694">
		<tag k="name" v="Avleisstranda" />
		<tag k="natural" v="beach" />
		<tag k="place" v="locality" />
		<tag k="ssr:stedsnr" v="701148" />
	</node>
	<node id="-548309" lat="61.8730138877" lon="6.77726667128">
		<tag k="name" v="Kleiva" />
		<tag k="natural" v="cape" />
		<tag k="ssr:stedsnr" v="336428" />
	</node>
	<node id="-548308" lat="61.8753138916" lon="6.76990277642">
		<tag k="fixme" v="consider seamark:type=rock or natural=shoal" />
		<tag k="name" v="Skjeret" />
		<tag k="place" v="islet" />
		<tag k="ssr:stedsnr" v="336426" />
	</node>
	<node id="-549329" lat="61.871533336" lon="6.83125277083">
		<tag k="name" v="Lobukta" />
		<tag k="natural" v="bay" />
		<tag k="ssr:stedsnr" v="192388" />
	</node>
	<node id="-549828" lat="61.8052222204" lon="6.50098055884">
		<tag k="name" v="Brulandsstranda" />
		<tag k="natural" v="beach" />
		<tag k="place" v="locality" />
		<tag k="ssr:stedsnr" v="518316" />
	</node>
	<node id="-549824" lat="61.8083722206" lon="6.52597223048">
		<tag k="name" v="Utvikstranda" />
		<tag k="natural" v="beach" />
		<tag k="place" v="locality" />
		<tag k="ssr:stedsnr" v="518303" />
	</node>
	<node id="-548284" lat="61.8046972245" lon="6.47128333593">
		<tag k="name" v="Svinaneset" />
		<tag k="natural" v="cape" />
		<tag k="ssr:stedsnr" v="336318" />
	</node>
	<node id="-550331" lat="61.8665583297" lon="6.72978611017">
		<tag k="name" v="Ugla" />
		<tag k="natural" v="cape" />
		<tag k="ssr:stedsnr" v="700474" />
	</node>
	<node id="-550330" lat="61.8671166704" lon="6.72583332547">
		<tag k="name" v="Leirneset" />
		<tag k="natural" v="cape" />
		<tag k="ssr:stedsnr" v="700472" />
	</node>
	<node id="-550839" lat="61.8394499973" lon="6.33139444897">
		<tag k="name" v="Geitvika" />
		<tag k="natural" v="bay" />
		<tag k="ssr:stedsnr" v="920113" />
	</node>
	<node id="-549810" lat="61.8456750032" lon="6.37138054821">
		<tag k="name" v="Trynsvika" />
		<tag k="natural" v="bay" />
		<tag k="ssr:stedsnr" v="518238" />
	</node>
	<node id="-548783" lat="61.8419250012" lon="6.37935277912">
		<tag k="name" v="Nosanaustet" />
		<tag k="natural" v="bay" />
		<tag k="ssr:stedsnr" v="33273" />
	</node>
	<node id="-549805" lat="61.8316416649" lon="6.48437777088">
		<tag k="name" v="Opleningen" />
		<tag k="natural" v="bay" />
		<tag k="ssr:stedsnr" v="518203" />
	</node>
	<node id="-548780" lat="61.835508337" lon="6.34471944848">
		<tag k="name" v="Nautevika" />
		<tag k="natural" v="bay" />
		<tag k="ssr:stedsnr" v="33266" />
	</node>
	<node id="-548770" lat="61.8318500018" lon="6.47342499348">
		<tag k="alt_name" v="Sølvbergjekteløken" />
		<tag k="name" v="Sølvbergsjekteløken" />
		<tag k="natural" v="bay" />
		<tag k="ssr:stedsnr" v="33233" />
	</node>
	<node id="-549792" lat="61.8131722236" lon="6.41114166194">
		<tag k="name" v="Gjuvnes" />
		<tag k="natural" v="cape" />
		<tag k="ssr:stedsnr" v="518160" />
	</node>
	<node id="-549274" lat="61.8161444485" lon="6.38848888074">
		<tag k="name" v="Frøysetstranda" />
		<tag k="natural" v="beach" />
		<tag k="place" v="locality" />
		<tag k="ssr:stedsnr" v="160050" />
	</node>
	<node id="-550289" lat="61.818994443" lon="6.37908333867">
		<tag k="name" v="Åretangane" />
		<tag k="natural" v="cape" />
		<tag k="ssr:stedsnr" v="700156" />
	</node>
	<node id="-549264" lat="61.8641833299" lon="6.75225000602">
		<tag k="name" v="Vangbergshammaren" />
		<tag k="natural" v="cape" />
		<tag k="ssr:stedsnr" v="154539" />
	</node>
	<node id="-549774" lat="61.8648388901" lon="6.82267221618">
		<tag k="name" v="Avleinsvika" />
		<tag k="natural" v="bay" />
		<tag k="ssr:stedsnr" v="512615" />
	</node>
	<node id="-549612" lat="61.8788277769" lon="6.7638888816">
		<tag k="name" v="Vetlevika" />
		<tag k="natural" v="bay" />
		<tag k="ssr:stedsnr" v="458026" />
	</node>
	<node id="-550269" lat="61.8818638885" lon="6.71063333874">
		<tag k="name" v="Staveneset" />
		<tag k="natural" v="cape" />
		<tag k="ssr:stedsnr" v="678273" />
	</node>
	<node id="-550265" lat="61.8070722185" lon="6.45161943583">
		<tag k="name" v="Halvrø" />
		<tag k="natural" v="cape" />
		<tag k="ssr:stedsnr" v="678241" />
	</node>
	<node id="-550263" lat="61.8649055541" lon="6.58039721452">
		<tag k="name" v="Hildaneset" />
		<tag k="natural" v="cape" />
		<tag k="ssr:stedsnr" v="678024" />
	</node>
	<node id="-549748" lat="61.8546499961" lon="6.78513054799">
		<tag k="name" v="Sletteneset" />
		<tag k="natural" v="cape" />
		<tag k="ssr:stedsnr" v="495370" />
	</node>
	<node id="-549232" lat="61.8672722199" lon="6.54054445253">
		<tag k="name" v="Doksetøyra" />
		<tag k="place" v="islet" />
		<tag k="ssr:stedsnr" v="154421" />
	</node>
	<node id="-549231" lat="61.8695388926" lon="6.60961943533">
		<tag k="name" v="Frøholmstranda" />
		<tag k="natural" v="beach" />
		<tag k="place" v="locality" />
		<tag k="ssr:stedsnr" v="154420" />
	</node>
	<node id="-548839" lat="61.8705833359" lon="6.70318888907">
		<tag k="name" v="Areneset" />
		<tag k="natural" v="cape" />
		<tag k="ssr:stedsnr" v="33516" />
	</node>
	<node id="-549222" lat="61.8058527793" lon="6.45885278634">
		<tag k="name" v="Brulandsstranda" />
		<tag k="natural" v="beach" />
		<tag k="place" v="locality" />
		<tag k="ssr:stedsnr" v="154393" />
	</node>
	<node id="-548701" lat="61.8529222255" lon="6.81572499127">
		<tag k="name" v="Muristranda" />
		<tag k="natural" v="beach" />
		<tag k="place" v="locality" />
		<tag k="ssr:stedsnr" v="10348" />
	</node>
	<node id="-549723" lat="61.8295194482" lon="6.5647194499">
		<tag k="alt_name" v="Halrø" />
		<tag k="name" v="Halvrø" />
		<tag k="natural" v="cape" />
		<tag k="ssr:stedsnr" v="495090" />
	</node>
	<node id="-550746" lat="61.8180527771" lon="6.46308888006">
		<tag k="bay" v="fjord" />
		<tag k="name" v="Innvikfjorden" />
		<tag k="natural" v="bay" />
		<tag k="ssr:stedsnr" v="859089" />
	</node>
	<node id="-550745" lat="61.8044083296" lon="6.48395277834">
		<tag k="name" v="Saltkjelen" />
		<tag k="natural" v="cape" />
		<tag k="ssr:stedsnr" v="859072" />
	</node>
	<node id="-548177" lat="61.8326861149" lon="6.52093333493">
		<tag k="name" v="Ulvedalsneset" />
		<tag k="natural" v="cape" />
		<tag k="ssr:stedsnr" v="313141" />
	</node>
	<node id="-548176" lat="61.8297230494" lon="6.44063745464">
		<tag k="name" v="Lindestøneset" />
		<tag k="natural" v="cape" />
		<tag k="ssr:stedsnr" v="313124" />
	</node>
	<node id="-549293" lat="61.8538750038" lon="6.33139444631">
		<tag k="bay" v="fjord" />
		<tag k="name" v="Utvikfjorden" />
		<tag k="natural" v="bay" />
		<tag k="ssr:stedsnr" v="192024" />
	</node>
	<node id="-549196" lat="61.8197750029" lon="6.37623333284">
		<tag k="name" v="Hamna" />
		<tag k="natural" v="bay" />
		<tag k="ssr:stedsnr" v="154181" />
	</node>
	<node id="-549704" lat="61.8717277777" lon="6.66646388335">
		<tag k="name" v="Holvika" />
		<tag k="natural" v="bay" />
		<tag k="ssr:stedsnr" v="463892" />
	</node>
	<node id="-549699" lat="61.8718749976" lon="6.6712527719">
		<tag k="name" v="Holeneset" />
		<tag k="natural" v="cape" />
		<tag k="ssr:stedsnr" v="458548" />
	</node>
	<node id="-548490" lat="61.8714666708" lon="6.66043333425">
		<tag k="name" v="Lasen" />
		<tag k="natural" v="cape" />
		<tag k="ssr:stedsnr" v="397516" />
	</node>
	<node id="-550197" lat="61.8652027744" lon="6.74003611352">
		<tag k="name" v="Knarren" />
		<tag k="natural" v="cape" />
		<tag k="ssr:stedsnr" v="639492" />
	</node>
	<node id="-548148" lat="61.8863527744" lon="6.6693833262">
		<tag k="name" v="Lundestranda" />
		<tag k="natural" v="beach" />
		<tag k="place" v="locality" />
		<tag k="ssr:stedsnr" v="286025" />
	</node>
	<node id="-548145" lat="61.8746861154" lon="6.55046111056">
		<tag k="name" v="Dokksetstranda" />
		<tag k="natural" v="beach" />
		<tag k="place" v="locality" />
		<tag k="ssr:stedsnr" v="282104" />
	</node>
	<node id="-548144" lat="61.8107194432" lon="6.42561110283">
		<tag k="name" v="Hushamrane" />
		<tag k="natural" v="beach" />
		<tag k="place" v="locality" />
		<tag k="ssr:stedsnr" v="282076" />
	</node>
	<node id="-549167" lat="61.8965111114" lon="6.69712222344">
		<tag k="alt_name" v="Grønevik" />
		<tag k="name" v="Grønnevik" />
		<tag k="natural" v="bay" />
		<tag k="ssr:stedsnr" v="154029" />
	</node>
	<node id="-550179" lat="61.8867027761" lon="6.65461666383">
		<tag k="name" v="Lundaneset" />
		<tag k="natural" v="cape" />
		<tag k="ssr:stedsnr" v="639413" />
	</node>
	<node id="-549650" lat="61.8522944405" lon="6.35876665924">
		<tag k="name" v="Tosken" />
		<tag k="natural" v="bay" />
		<tag k="ssr:stedsnr" v="458295" />
	</node>
	<node id="-549120" lat="61.8665972262" lon="6.82176943802">
		<tag k="name" v="Tyvaneset" />
		<tag k="natural" v="cape" />
		<tag k="old_name" v="Avleinneset;Tjuaneset" />
		<tag k="ssr:stedsnr" v="131346" />
	</node>
	<node id="-549629" lat="61.8415611081" lon="6.80080000358">
		<tag k="name" v="Kvitsanden" />
		<tag k="natural" v="beach" />
		<tag k="place" v="locality" />
		<tag k="ssr:stedsnr" v="458201" />
	</node>
	<node id="-549627" lat="61.8524138911" lon="6.79154165937">
		<tag k="name" v="Råaneset" />
		<tag k="natural" v="cape" />
		<tag k="ssr:stedsnr" v="458195" />
	</node>
	<node id="-548602" lat="61.8477138922" lon="6.60845833479">
		<tag k="name" v="Bogen" />
		<tag k="natural" v="bay" />
		<tag k="ssr:stedsnr" v="888884" />
	</node>
	<node id="-550137" lat="61.8436333369" lon="6.80048333141">
		<tag k="name" v="Skarsteinneset" />
		<tag k="natural" v="cape" />
		<tag k="ssr:stedsnr" v="639188" />
	</node>
	<node id="-548088" lat="61.8051111151" lon="6.49838611311">
		<tag k="name" v="Djupevika" />
		<tag k="natural" v="bay" />
		<tag k="ssr:stedsnr" v="276361" />
	</node>
	<node id="-550132" lat="61.8242555544" lon="6.36956111752">
		<tag k="name" v="Korset" />
		<tag k="natural" v="cape" />
		<tag k="ssr:stedsnr" v="639157" />
	</node>
	<node id="-548592" lat="61.8586666702" lon="6.77136110603">
		<tag k="name" v="Søtekjelda" />
		<tag k="natural" v="beach" />
		<tag k="place" v="locality" />
		<tag k="ssr:stedsnr" v="883552" />
	</node>
	<node id="-550637" lat="61.8471805575" lon="6.28673055938">
		<tag k="name" v="Helgheimsvikneset" />
		<tag k="natural" v="cape" />
		<tag k="ssr:stedsnr" v="822135" />
	</node>
	<node id="-550124" lat="61.8863111148" lon="6.66314166556">
		<tag k="name" v="Lundehella" />
		<tag k="natural" v="cape" />
		<tag k="ssr:stedsnr" v="639062" />
	</node>
	<node id="-548586" lat="61.8835611087" lon="6.57355556516">
		<tag k="name" v="Bjørneskorvika" />
		<tag k="natural" v="bay" />
		<tag k="ssr:stedsnr" v="883528" />
	</node>
	<node id="-549093" lat="61.805291665" lon="6.46469167003">
		<tag k="alt_name" v="Uspasete" />
		<tag k="name" v="Uspaset" />
		<tag k="natural" v="cape" />
		<tag k="ssr:stedsnr" v="131083" />
	</node>
	<node id="-549587" lat="61.8462694466" lon="6.80618334015">
		<tag k="name" v="Oldebukta" />
		<tag k="natural" v="bay" />
		<tag k="ssr:stedsnr" v="435407" />
	</node>
	<node id="-549066" lat="61.8460194451" lon="6.81302500837">
		<tag k="name" v="Solstrand" />
		<tag k="natural" v="beach" />
		<tag k="place" v="locality" />
		<tag k="ssr:stedsnr" v="100481" />
	</node>
	<node id="-549577" lat="61.8767666672" lon="6.76947222029">
		<tag k="name" v="Marsåvika" />
		<tag k="natural" v="bay" />
		<tag k="ssr:stedsnr" v="435285" />
	</node>
	<node id="-549064" lat="61.8474999958" lon="6.29341944462">
		<tag k="name" v="Linda" />
		<tag k="natural" v="cape" />
		<tag k="ssr:stedsnr" v="99908" />
	</node>
	<node id="-550593" lat="61.8965111071" lon="6.70152500864">
		<tag k="name" v="Strynebukta" />
		<tag k="natural" v="bay" />
		<tag k="ssr:stedsnr" v="799297" />
	</node>
	<node id="-550591" lat="61.8781833295" lon="6.59394165977">
		<tag k="alt_name" v="Faleidsfjorden" />
		<tag k="bay" v="fjord" />
		<tag k="name" v="Faleidfjorden" />
		<tag k="natural" v="bay" />
		<tag k="ssr:stedsnr" v="799265" />
	</node>
	<node id="-550584" lat="61.8324777748" lon="6.57405833135">
		<tag k="name" v="Kollesteinane" />
		<tag k="natural" v="cape" />
		<tag k="ssr:stedsnr" v="799130" />
	</node>
	<node id="-548021" lat="61.8904193257" lon="6.69083658546">
		<tag k="alt_name" v="Hestøda" />
		<tag k="loc_name" v="Heststoda" />
		<tag k="name" v="Hestodden" />
		<tag k="natural" v="cape" />
		<tag k="ssr:stedsnr" v="270018" />
	</node>
	<node id="-548521" lat="61.863541663" lon="6.31506111063">
		<tag k="name" v="Hoplandsnausta" />
		<tag k="natural" v="beach" />
		<tag k="place" v="locality" />
		<tag k="ssr:stedsnr" v="883178" />
	</node>
	<node id="-548519" lat="61.8257027819" lon="6.36261944386">
		<tag k="loc_name" v="Vesleneset" />
		<tag k="name" v="Vilkjeneset" />
		<tag k="natural" v="cape" />
		<tag k="ssr:stedsnr" v="883157" />
	</node>
	<node id="-550052" lat="61.8930972193" lon="6.70673056323">
		<tag k="name" v="Visnestranda" />
		<tag k="natural" v="beach" />
		<tag k="place" v="locality" />
		<tag k="ssr:stedsnr" v="585023" />
	</node>
	<node id="-550553" lat="61.8528583293" lon="6.6099583395">
		<tag k="name" v="Innvikbukta" />
		<tag k="natural" v="bay" />
		<tag k="ssr:stedsnr" v="767900" />
	</node>
	<node id="-550552" lat="61.8093666654" lon="6.52250554857">
		<tag k="name" v="Kårstadbukta" />
		<tag k="natural" v="bay" />
		<tag k="ssr:stedsnr" v="767896" />
	</node>
	<node id="-550551" lat="61.8698499998" lon="6.82423889204">
		<tag k="name" v="Engasteinen" />
		<tag k="place" v="locality" />
		<tag k="seamark:type" v="rock" />
		<tag k="ssr:stedsnr" v="767497" />
	</node>
	<node id="-548889" lat="61.8603972204" lon="6.26615000832">
		<tag k="name" v="Kvalsvika" />
		<tag k="natural" v="bay" />
		<tag k="ssr:stedsnr" v="71005" />
	</node>
	<node id="-548495" lat="61.8609083318" lon="6.78720834225">
		<tag k="name" v="Djupekjegla" />
		<tag k="place" v="locality" />
		<tag k="ssr:stedsnr" v="403547" />
	</node>
	<node id="-548494" lat="61.8747944473" lon="6.83697500673">
		<tag k="name" v="Korsvika" />
		<tag k="natural" v="bay" />
		<tag k="ssr:stedsnr" v="403493" />
	</node>
	<node id="-549514" lat="61.8448083365" lon="6.30825277847">
		<tag k="name" v="Brattestøa" />
		<tag k="natural" v="cape" />
		<tag k="ssr:stedsnr" v="253015" />
	</node>
	<node id="-550524" lat="61.8695083349" lon="6.59285277217">
		<tag k="name" v="Nesagarden" />
		<tag k="natural" v="cape" />
		<tag k="ssr:stedsnr" v="761403" />
	</node>
	<node id="-550006" lat="61.8671694447" lon="6.58208612017">
		<tag k="name" v="Saltkjelen" />
		<tag k="natural" v="beach" />
		<tag k="place" v="locality" />
		<tag k="ssr:stedsnr" v="579376" />
	</node>
	<node id="-548978" lat="61.8473249978" lon="6.28966666303">
		<tag k="name" v="Benken" />
		<tag k="natural" v="cape" />
		<tag k="ssr:stedsnr" v="94156" />
	</node>
	<node id="-548968" lat="61.8868583327" lon="6.67872222461">
		<tag k="name" v="Isakestoda" />
		<tag k="natural" v="bay" />
		<tag k="ssr:stedsnr" v="94052" />
	</node>
	<node id="-549478" lat="61.8598416634" lon="6.81473889055">
		<tag k="name" v="Kråkeneset" />
		<tag k="natural" v="cape" />
		<tag k="ssr:stedsnr" v="221466" />
	</node>
	<node id="-548948" lat="61.8463999981" lon="6.26803888563">
		<tag k="name" v="Skorsvika" />
		<tag k="natural" v="bay" />
		<tag k="ssr:stedsnr" v="88925" />
	</node>
	<node id="-550481" lat="61.8229944422" lon="6.37329723087">
		<tag k="name" v="Sagebryggja" />
		<tag k="natural" v="cape" />
		<tag k="ssr:stedsnr" v="761170" />
	</node>
	<node id="-549966" lat="61.8754111069" lon="6.83615000847">
		<tag k="name" v="Toskehola" />
		<tag k="place" v="locality" />
		<tag k="ssr:stedsnr" v="579192" />
	</node>
	<node id="-549389" lat="61.8306527805" lon="6.45677499166">
		<tag k="name" v="Foreneset" />
		<tag k="natural" v="cape" />
		<tag k="ssr:stedsnr" v="215233" />
	</node>
	<node id="-549955" lat="61.816877779" lon="6.38444723108">
		<tag k="name" v="Bukta" />
		<tag k="natural" v="bay" />
		<tag k="ssr:stedsnr" v="579146" />
	</node>
	<node id="-548417" lat="61.8131027763" lon="6.40770278475">
		<tag k="name" v="Gjuvsvika" />
		<tag k="natural" v="bay" />
		<tag k="ssr:stedsnr" v="397189" />
	</node>
	<node id="-549439" lat="61.8181805592" lon="6.54365278622">
		<tag k="name" v="Brangsneset" />
		<tag k="natural" v="cape" />
		<tag k="ssr:stedsnr" v="215433" />
	</node>
	<node id="-549429" lat="61.8584111069" lon="6.59971388958">
		<tag k="name" v="Hildastranda" />
		<tag k="natural" v="beach" />
		<tag k="place" v="locality" />
		<tag k="ssr:stedsnr" v="215389" />
	</node>
	<node id="-550964" lat="61.8904027773" lon="6.62882499319">
		<tag k="name" v="Svarstadvika" />
		<tag k="natural" v="bay" />
		<tag k="ssr:stedsnr" v="943399" />
	</node>
	<node id="-549427" lat="61.8540083327" lon="6.61196388767">
		<tag k="name" v="Gamlebryggja" />
		<tag k="natural" v="cape" />
		<tag k="ssr:stedsnr" v="215379" />
	</node>
	<node id="-549423" lat="61.8060388866" lon="6.50904999591">
		<tag k="name" v="Fransøyra" />
		<tag k="natural" v="cape" />
		<tag k="ssr:stedsnr" v="215359" />
	</node>
	<node id="-548398" lat="61.8860916641" lon="6.67370832615">
		<tag k="name" v="Lundeneset" />
		<tag k="natural" v="cape" />
		<tag k="ssr:stedsnr" v="397041" />
	</node>
	<node id="-548395" lat="61.8886277763" lon="6.70702222327">
		<tag k="name" v="Skoganeset" />
		<tag k="natural" v="cape" />
		<tag k="ssr:stedsnr" v="397032" />
	</node>
	<node id="-550437" lat="61.8692583307" lon="6.79499166327">
		<tag k="name" v="Rakeneset" />
		<tag k="natural" v="cape" />
		<tag k="ssr:stedsnr" v="738366" />
	</node>
	<node id="-550939" lat="61.8394527758" lon="6.33436389328">
		<tag k="alt_name" v="Moldrheimsneset" />
		<tag k="name" v="Moldreimsneset" />
		<tag k="natural" v="cape" />
		<tag k="ssr:stedsnr" v="943251" />
	</node>
	<node id="-549295" lat="61.8831388922" lon="6.57791110994">
		<tag k="name" v="Bjørneskorneset" />
		<tag k="natural" v="cape" />
		<tag k="ssr:stedsnr" v="192059" />
	</node>
	<node id="-549391" lat="61.830908331" lon="6.44537776969">
		<tag k="alt_name" v="Sølvbergstranda" />
		<tag k="name" v="Sølvbergsstranda" />
		<tag k="natural" v="beach" />
		<tag k="place" v="locality" />
		<tag k="ssr:stedsnr" v="215236" />
	</node>
	<node id="-550925" lat="61.8596555526" lon="6.81238611075">
		<tag k="fixme" v="consider seamark:type=rock or natural=shoal" />
		<tag k="name" v="Kråka" />
		<tag k="place" v="islet" />
		<tag k="ssr:stedsnr" v="943204" />
	</node>
	<node id="-549383" lat="61.8750111092" lon="6.82171388873">
		<tag k="name" v="Hellevika" />
		<tag k="natural" v="bay" />
		<tag k="ssr:stedsnr" v="215200" />
	</node>
	<node id="-549377" lat="61.8493805533" lon="6.81388889803">
		<tag k="alt_name" v="Flåtaneset" />
		<tag k="name" v="Flataneset" />
		<tag k="natural" v="cape" />
		<tag k="ssr:stedsnr" v="215167" />
	</node>
	<node id="-550913" lat="61.8271499957" lon="6.35692222366">
		<tag k="name" v="Sagesanden" />
		<tag k="natural" v="beach" />
		<tag k="place" v="locality" />
		<tag k="ssr:stedsnr" v="943153" />
	</node>
</osm>
