<?xml version="1.0" encoding="UTF-8"?>
<osm generator="osmapis" version="0.6">
	<node id="-549205" lat="61.9306444402" lon="6.67982222811">
		<tag k="name" v="Fellesfjøsen" />
		<tag k="place" v="locality" />
		<tag k="ssr:stedsnr" v="397024" />
	</node>
	<node id="-548860" lat="61.6863944451" lon="6.81595556097">
		<tag k="name" v="Tungøy" />
		<tag k="place" v="farm" />
		<tag k="ssr:stedsnr" v="276147" />
	</node>
	<node id="-548855" lat="61.7497083341" lon="6.82989999939">
		<tag k="historic" v="shieling" />
		<tag k="name" v="Sundssetra" />
		<tag k="place" v="locality" />
		<tag k="ssr:stedsnr" v="276099" />
	</node>
	<node id="-550902" lat="61.8486916637" lon="6.77206665914">
		<tag k="historic" v="shieling" />
		<tag k="name" v="Skarsteinssætra" />
		<tag k="place" v="locality" />
		<tag k="ssr:stedsnr" v="616338" />
	</node>
	<node id="-550901" lat="61.8607222202" lon="6.89086110632">
		<tag k="name" v="Sande" />
		<tag k="place" v="farm" />
		<tag k="ssr:stedsnr" v="616332" />
	</node>
	<node id="-550895" lat="61.9322881979" lon="6.8845643498">
		<tag k="fixme" v="consider place=hamlet" />
		<tag k="name" v="Mindresunde" />
		<tag k="place" v="farm" />
		<tag k="ssr:stedsnr" v="616298" />
	</node>
	<node id="-550893" lat="61.9304241985" lon="6.92945659952">
		<tag k="fixme" v="consider place=hamlet" />
		<tag k="name" v="Berstad" />
		<tag k="place" v="farm" />
		<tag k="ssr:stedsnr" v="616294" />
	</node>
	<node id="-550892" lat="61.9256083352" lon="6.60007778413">
		<tag k="fixme" v="consider place=hamlet" />
		<tag k="name" v="Fen" />
		<tag k="place" v="farm" />
		<tag k="ssr:stedsnr" v="616290" />
	</node>
	<node id="-550888" lat="61.873166669" lon="6.80918610716">
		<tag k="name" v="Solvik" />
		<tag k="place" v="farm" />
		<tag k="ssr:stedsnr" v="616249" />
	</node>
	<node id="-550885" lat="61.8315249993" lon="6.46606111593">
		<tag k="alt_name" v="Sølvbergnausta" />
		<tag k="name" v="Sølvbergsnausta" />
		<tag k="place" v="locality" />
		<tag k="ssr:stedsnr" v="616107" />
	</node>
	<node id="-550884" lat="61.7944055522" lon="6.46556944053">
		<tag k="historic" v="shieling" />
		<tag k="name" v="Valåkerstøylen" />
		<tag k="place" v="locality" />
		<tag k="ssr:stedsnr" v="616077" />
	</node>
	<node id="-550883" lat="61.8031718317" lon="6.53468757487">
		<tag k="fixme" v="consider place=hamlet" />
		<tag k="name" v="Myklebust" />
		<tag k="place" v="farm" />
		<tag k="ssr:stedsnr" v="616074" />
	</node>
	<node id="-550881" lat="61.8629925337" lon="6.53108245075">
		<tag k="fixme" v="consider place=hamlet" />
		<tag k="name" v="Hatleim" />
		<tag k="place" v="farm" />
		<tag k="ssr:stedsnr" v="616014" />
	</node>
	<node id="-549200" lat="61.6630305565" lon="6.82235833935">
		<tag k="fixme" v="consider tourism=alpine_hut or tourism=chalet" />
		<tag k="name" v="Briksdalsbre Fjellstove" />
		<tag k="old_name" v="Brigsdal" />
		<tag k="ssr:stedsnr" v="388174" />
		<tag k="tourism" v="wilderness_hut" />
	</node>
	<node id="-550878" lat="61.8719944413" lon="6.51312500423">
		<tag k="name" v="Hellgardsvad" />
		<tag k="place" v="locality" />
		<tag k="ssr:stedsnr" v="616001" />
	</node>
	<node id="-550877" lat="61.6935953239" lon="6.80715261904">
		<tag k="fixme" v="consider place=hamlet" />
		<tag k="name" v="Høgalmane" />
		<tag k="place" v="farm" />
		<tag k="ssr:stedsnr" v="615910" />
	</node>
	<node id="-550873" lat="61.7394194434" lon="6.78791666554">
		<tag k="name" v="Gytri" />
		<tag k="place" v="farm" />
		<tag k="ssr:stedsnr" v="615876" />
	</node>
	<node id="-550866" lat="61.7376861096" lon="6.77624165851">
		<tag k="historic" v="shieling" />
		<tag k="name" v="Gytrisetra" />
		<tag k="place" v="locality" />
		<tag k="ssr:stedsnr" v="579551" />
	</node>
	<node id="-549538" lat="61.7783000006" lon="7.01594166507">
		<tag k="name" v="Sanden" />
		<tag k="place" v="locality" />
		<tag k="ssr:stedsnr" v="10576" />
	</node>
	<node id="-550903" lat="61.8447239365" lon="6.79167994395">
		<tag k="name" v="Skarstein" />
		<tag k="place" v="hamlet" />
		<tag k="ssr:stedsnr" v="616340" />
	</node>
	<node id="-550856" lat="61.9498833327" lon="7.03385555494">
		<tag k="name" v="Øvre Flo" />
		<tag k="place" v="farm" />
		<tag k="ssr:stedsnr" v="579518" />
	</node>
	<node id="-549192" lat="61.9148444428" lon="6.48539445066">
		<tag k="historic" v="shieling" />
		<tag k="name" v="Nybøstøylen" />
		<tag k="place" v="locality" />
		<tag k="ssr:stedsnr" v="374960" />
	</node>
	<node id="-550829" lat="61.896880559" lon="6.63412221527">
		<tag k="historic" v="shieling" />
		<tag k="name" v="Gamlesetra" />
		<tag k="place" v="locality" />
		<tag k="ssr:stedsnr" v="579427" />
	</node>
	<node id="-549517" lat="61.8417715879" lon="6.60421179773">
		<tag k="fixme" v="consider place=hamlet" />
		<tag k="name" v="Lyslo" />
		<tag k="place" v="farm" />
		<tag k="ssr:stedsnr" v="10331" />
	</node>
	<node id="-548840" lat="61.7029166628" lon="6.78836666063">
		<tag k="name" v="Rustøysetra" />
		<tag k="place" v="farm" />
		<tag k="ssr:stedsnr" v="276007" />
	</node>
	<node id="-550754" lat="61.6922027797" lon="6.80240833637">
		<tag k="historic" v="shieling" />
		<tag k="name" v="Gardstølane" />
		<tag k="place" v="locality" />
		<tag k="ssr:stedsnr" v="579006" />
	</node>
	<node id="-550752" lat="61.8719141748" lon="6.7926472587">
		<tag k="fixme" v="consider place=hamlet" />
		<tag k="name" v="Rake" />
		<tag k="place" v="farm" />
		<tag k="ssr:stedsnr" v="572672" />
	</node>
	<node id="-550751" lat="61.9227611143" lon="6.55031110511">
		<tag k="fixme" v="consider place=hamlet" />
		<tag k="name" v="Markane" />
		<tag k="place" v="village" />
		<tag k="ssr:stedsnr" v="570197" />
	</node>
	<node id="-550740" lat="61.7661413927" lon="6.83568934781">
		<tag k="fixme" v="consider place=hamlet" />
		<tag k="name" v="Strand" />
		<tag k="place" v="farm" />
		<tag k="ssr:stedsnr" v="556471" />
	</node>
	<node id="-550739" lat="61.7565837949" lon="6.8178628094">
		<tag k="fixme" v="consider place=hamlet" />
		<tag k="name" v="Sunde" />
		<tag k="place" v="farm" />
		<tag k="ssr:stedsnr" v="556458" />
	</node>
	<node id="-550738" lat="61.8198431128" lon="6.81611791913">
		<tag k="fixme" v="consider place=hamlet" />
		<tag k="name" v="Melein" />
		<tag k="place" v="farm" />
		<tag k="ssr:stedsnr" v="556402" />
	</node>
	<node id="-550737" lat="61.8139048101" lon="6.80822163799">
		<tag k="fixme" v="consider place=hamlet" />
		<tag k="name" v="Lauki" />
		<tag k="place" v="farm" />
		<tag k="ssr:stedsnr" v="556383" />
	</node>
	<node id="-550735" lat="61.8913480036" lon="6.67926072666">
		<tag k="fixme" v="consider place=hamlet" />
		<tag k="name" v="Nedreberg" />
		<tag k="place" v="farm" />
		<tag k="ssr:stedsnr" v="556342" />
	</node>
	<node id="-550734" lat="61.9025861123" lon="6.71790000282">
		<tag k="name" v="Stryn" />
		<tag k="place" v="village" />
		<tag k="ssr:stedsnr" v="556333" />
	</node>
	<node id="-550733" lat="61.9047612148" lon="6.69993025216">
		<tag k="fixme" v="consider place=hamlet" />
		<tag k="name" v="Vik" />
		<tag k="place" v="farm" />
		<tag k="ssr:stedsnr" v="556334" />
	</node>
	<node id="-550731" lat="61.7849861105" lon="6.5757000085">
		<tag k="historic" v="shieling" />
		<tag k="name" v="Myklebuststøylen" />
		<tag k="place" v="locality" />
		<tag k="ssr:stedsnr" v="556211" />
	</node>
	<node id="-550728" lat="61.8010962271" lon="6.5229699461">
		<tag k="fixme" v="consider place=hamlet" />
		<tag k="name" v="Verlo" />
		<tag k="place" v="farm" />
		<tag k="ssr:stedsnr" v="556097" />
	</node>
	<node id="-549516" lat="61.8274754559" lon="6.81201749774">
		<tag k="fixme" v="consider place=hamlet" />
		<tag k="name" v="Brynestad" />
		<tag k="place" v="farm" />
		<tag k="ssr:stedsnr" v="10322" />
	</node>
	<node id="-550723" lat="61.9279419695" lon="7.00364673619">
		<tag k="fixme" v="consider place=hamlet" />
		<tag k="name" v="Brekke" />
		<tag k="place" v="farm" />
		<tag k="ssr:stedsnr" v="555444" />
	</node>
	<node id="-550720" lat="61.8542529616" lon="7.16082912932">
		<tag k="alt_name" v="Erdalssetra" />
		<tag k="historic" v="shieling" />
		<tag k="name" v="Storesætra" />
		<tag k="place" v="locality" />
		<tag k="ssr:stedsnr" v="555393" />
	</node>
	<node id="-550719" lat="61.8095138869" lon="7.085488887">
		<tag k="historic" v="shieling" />
		<tag k="name" v="Bødalssætra" />
		<tag k="place" v="locality" />
		<tag k="ssr:stedsnr" v="555380" />
	</node>
	<node id="-550714" lat="61.9329638903" lon="7.10417500554">
		<tag k="alt_name" v="Glomnessetra" />
		<tag k="historic" v="shieling" />
		<tag k="name" v="Glomnessætra" />
		<tag k="place" v="locality" />
		<tag k="ssr:stedsnr" v="555321" />
	</node>
	<node id="-550713" lat="61.9368246266" lon="6.97924379264">
		<tag k="fixme" v="consider place=hamlet" />
		<tag k="name" v="Årnes" />
		<tag k="place" v="farm" />
		<tag k="ssr:stedsnr" v="555316" />
	</node>
	<node id="-550712" lat="61.8484861154" lon="6.72275833129">
		<tag k="name" v="Hornvasshytta" />
		<tag k="place" v="isolated_dwelling" />
		<tag k="ssr:stedsnr" v="555284" />
	</node>
	<node id="-550711" lat="61.8437807531" lon="6.79225074732">
		<tag k="name" v="Indre Skarstein" />
		<tag k="place" v="farm" />
		<tag k="ssr:stedsnr" v="555278" />
	</node>
	<node id="-550709" lat="61.9342519184" lon="6.83559672697">
		<tag k="fixme" v="consider place=hamlet" />
		<tag k="name" v="Skor" />
		<tag k="place" v="farm" />
		<tag k="ssr:stedsnr" v="555249" />
	</node>
	<node id="-550708" lat="61.9341784078" lon="6.86091238459">
		<tag k="fixme" v="consider place=hamlet" />
		<tag k="name" v="Tenna" />
		<tag k="place" v="farm" />
		<tag k="ssr:stedsnr" v="555248" />
	</node>
	<node id="-550707" lat="61.9403694465" lon="6.88746389567">
		<tag k="name" v="Vonheim" />
		<tag k="place" v="farm" />
		<tag k="ssr:stedsnr" v="555240" />
	</node>
	<node id="-550705" lat="61.8064222258" lon="6.51917499501">
		<tag k="fixme" v="consider place=hamlet" />
		<tag k="name" v="Utvik" />
		<tag k="place" v="village" />
		<tag k="ssr:stedsnr" v="555074" />
	</node>
	<node id="-549510" lat="61.9436741453" lon="6.92976169758">
		<tag k="fixme" v="consider place=hamlet" />
		<tag k="name" v="Ljåstad" />
		<tag k="place" v="farm" />
		<tag k="ssr:stedsnr" v="10284" />
	</node>
	<node id="-549513" lat="61.796594012" lon="6.82847762202">
		<tag k="fixme" v="consider place=hamlet" />
		<tag k="name" v="Sandnes" />
		<tag k="place" v="farm" />
		<tag k="ssr:stedsnr" v="10308" />
	</node>
	<node id="-549508" lat="61.9052673705" lon="6.70836480275">
		<tag k="fixme" v="consider place=hamlet" />
		<tag k="name" v="Tonning" />
		<tag k="place" v="farm" />
		<tag k="ssr:stedsnr" v="10265" />
	</node>
	<node id="-550676" lat="61.9078861074" lon="6.68419166101">
		<tag k="historic" v="shieling" />
		<tag k="name" v="Ryggen" />
		<tag k="place" v="locality" />
		<tag k="ssr:stedsnr" v="518440" />
	</node>
	<node id="-550654" lat="61.80628611" lon="6.5543749999">
		<tag k="historic" v="shieling" />
		<tag k="name" v="Sverkestølen" />
		<tag k="place" v="locality" />
		<tag k="ssr:stedsnr" v="518360" />
	</node>
	<node id="-550646" lat="61.8442555581" lon="6.63171389051">
		<tag k="name" v="Torvund" />
		<tag k="place" v="farm" />
		<tag k="ssr:stedsnr" v="518328" />
	</node>
	<node id="-550609" lat="61.844138889" lon="6.90144444685">
		<tag k="name" v="Vikane" />
		<tag k="place" v="farm" />
		<tag k="ssr:stedsnr" v="518162" />
	</node>
	<node id="-550605" lat="61.6616694443" lon="6.84407222748">
		<tag k="historic" v="shieling" />
		<tag k="name" v="Briksdalssetra" />
		<tag k="place" v="locality" />
		<tag k="ssr:stedsnr" v="518123" />
	</node>
	<node id="-550596" lat="61.8002166628" lon="6.81719999453">
		<tag k="historic" v="shieling" />
		<tag k="name" v="Gardstølane" />
		<tag k="place" v="locality" />
		<tag k="ssr:stedsnr" v="518077" />
	</node>
	<node id="-550589" lat="61.8092444446" lon="7.08523055645">
		<tag k="alt_name" v="Bødalseter" />
		<tag k="name" v="Bødalsseter" />
		<tag k="place" v="isolated_dwelling" />
		<tag k="ssr:stedsnr" v="511084" />
	</node>
	<node id="-550588" lat="61.822875" lon="6.37173611806">
		<tag k="fixme" v="consider place=hamlet" />
		<tag k="name" v="Tistam" />
		<tag k="place" v="village" />
		<tag k="ssr:stedsnr" v="510228" />
	</node>
	<node id="-550587" lat="61.9078388908" lon="6.51845556457">
		<tag k="name" v="Florehytta" />
		<tag k="place" v="isolated_dwelling" />
		<tag k="ssr:stedsnr" v="495998" />
	</node>
	<node id="-550585" lat="61.9200333308" lon="6.48279722528">
		<tag k="historic" v="shieling" />
		<tag k="name" v="Jutdalssætra" />
		<tag k="place" v="locality" />
		<tag k="ssr:stedsnr" v="495966" />
	</node>
	<node id="-550583" lat="61.914341666" lon="6.56439166181">
		<tag k="name" v="Kroken" />
		<tag k="place" v="farm" />
		<tag k="ssr:stedsnr" v="495947" />
	</node>
	<node id="-550857" lat="61.834777782" lon="6.80468888787">
		<tag k="alt_name" v="Oldøyra" />
		<tag k="name" v="Øyra" />
		<tag k="place" v="hamlet" />
		<tag k="ssr:stedsnr" v="579521" />
	</node>
	<node id="-550580" lat="61.9217198458" lon="7.17290592068">
		<tag k="fixme" v="consider place=hamlet" />
		<tag k="name" v="Grov" />
		<tag k="place" v="farm" />
		<tag k="ssr:stedsnr" v="495483" />
	</node>
	<node id="-550579" lat="61.9394388909" lon="7.26938055037">
		<tag k="alt_name" v="Videseter" />
		<tag k="name" v="Videsæter" />
		<tag k="ssr:stedsnr" v="495484" />
		<tag k="tourism" v="hotel" />
	</node>
	<node id="-549149" lat="61.9694888885" lon="7.04018611944">
		<tag k="historic" v="shieling" />
		<tag k="name" v="Nedre-Flosætra" />
		<tag k="place" v="locality" />
		<tag k="ssr:stedsnr" v="373387" />
	</node>
	<node id="-550570" lat="61.7688111071" lon="6.96412778116">
		<tag k="historic" v="shieling" />
		<tag k="name" v="Ruteflotsætra" />
		<tag k="place" v="locality" />
		<tag k="ssr:stedsnr" v="495420" />
	</node>
	<node id="-549509" lat="61.9164585255" lon="6.70301925853">
		<tag k="fixme" v="consider place=hamlet" />
		<tag k="name" v="Lida" />
		<tag k="place" v="farm" />
		<tag k="ssr:stedsnr" v="10274" />
	</node>
	<node id="-550559" lat="61.9342027738" lon="6.84190277429">
		<tag k="alt_name" v="Garli" />
		<tag k="name" v="Garlid" />
		<tag k="place" v="farm" />
		<tag k="ssr:stedsnr" v="495306" />
	</node>
	<node id="-550554" lat="61.8986472216" lon="6.7104277778">
		<tag k="fixme" v="consider place=suburb, village or hamlet" />
		<tag k="name" v="Visnes" />
		<tag k="place" v="quarter" />
		<tag k="ssr:stedsnr" v="495280" />
	</node>
	<node id="-550553" lat="61.8706305552" lon="6.64490000313">
		<tag k="historic" v="shieling" />
		<tag k="name" v="Frøholmsstøylen" />
		<tag k="place" v="locality" />
		<tag k="ssr:stedsnr" v="495264" />
	</node>
	<node id="-550550" lat="61.9366722207" lon="6.64559165848">
		<tag k="alt_name" v="Holesetra" />
		<tag k="historic" v="shieling" />
		<tag k="name" v="Holesætra" />
		<tag k="place" v="locality" />
		<tag k="ssr:stedsnr" v="495218" />
	</node>
	<node id="-550544" lat="61.8450999983" lon="6.46237222847">
		<tag k="name" v="Heiberg" />
		<tag k="place" v="farm" />
		<tag k="ssr:stedsnr" v="495128" />
	</node>
	<node id="-550543" lat="61.8434640568" lon="6.39787757969">
		<tag k="fixme" v="consider place=hamlet" />
		<tag k="name" v="Fjellkårstad" />
		<tag k="place" v="farm" />
		<tag k="ssr:stedsnr" v="495122" />
	</node>
	<node id="-550542" lat="61.8393416679" lon="6.40363610269">
		<tag k="name" v="Rosenlid" />
		<tag k="place" v="farm" />
		<tag k="ssr:stedsnr" v="495117" />
	</node>
	<node id="-550541" lat="61.8037847989" lon="6.50403030052">
		<tag k="fixme" v="consider place=hamlet" />
		<tag k="name" v="Bruland" />
		<tag k="place" v="farm" />
		<tag k="ssr:stedsnr" v="495111" />
	</node>
	<node id="-550538" lat="61.8162440655" lon="6.380390111">
		<tag k="fixme" v="consider place=hamlet" />
		<tag k="name" v="Frøyset" />
		<tag k="place" v="farm" />
		<tag k="ssr:stedsnr" v="495084" />
	</node>
	<node id="-550535" lat="61.8559648887" lon="6.53025993533">
		<tag k="fixme" v="consider place=hamlet" />
		<tag k="name" v="Øyestad" />
		<tag k="place" v="farm" />
		<tag k="ssr:stedsnr" v="495038" />
	</node>
	<node id="-550529" lat="61.6648888864" lon="6.78140277402">
		<tag k="name" v="Jarbu" />
		<tag k="place" v="isolated_dwelling" />
		<tag k="ssr:stedsnr" v="494926" />
	</node>
	<node id="-550526" lat="61.8452861149" lon="7.185799992">
		<tag k="fixme" v="consider tourism=alpine_hut or tourism=chalet" />
		<tag k="name" v="Vetledalseter" />
		<tag k="old_name" v="Vetledalssætra;Vetledalsseter" />
		<tag k="ssr:stedsnr" v="480323" />
		<tag k="tourism" v="wilderness_hut" />
	</node>
	<node id="-550489" lat="61.8097749986" lon="6.55314721592">
		<tag k="name" v="Gamlestølen" />
		<tag k="place" v="farm" />
		<tag k="ssr:stedsnr" v="458404" />
	</node>
	<node id="-550475" lat="61.8231499997" lon="6.9809305643">
		<tag k="historic" v="shieling" />
		<tag k="name" v="Gardsstølane" />
		<tag k="place" v="locality" />
		<tag k="ssr:stedsnr" v="458352" />
	</node>
	<node id="-550442" lat="61.8701611076" lon="6.30881388559">
		<tag k="name" v="Haugen" />
		<tag k="place" v="farm" />
		<tag k="ssr:stedsnr" v="458178" />
	</node>
	<node id="-550440" lat="61.8488944427" lon="6.8143027685">
		<tag k="fixme" v="consider place=suburb, village or hamlet" />
		<tag k="name" v="Flata" />
		<tag k="place" v="quarter" />
		<tag k="ssr:stedsnr" v="458165" />
	</node>
	<node id="-550433" lat="61.808132132" lon="6.82292064742">
		<tag k="fixme" v="consider place=hamlet" />
		<tag k="name" v="Solheim" />
		<tag k="place" v="farm" />
		<tag k="ssr:stedsnr" v="458083" />
	</node>
	<node id="-550424" lat="61.8757805544" lon="6.48992777355">
		<tag k="historic" v="shieling" />
		<tag k="name" v="Smørdalen" />
		<tag k="place" v="locality" />
		<tag k="ssr:stedsnr" v="452902" />
	</node>
	<node id="-550423" lat="61.8397944467" lon="6.39025277035">
		<tag k="name" v="Galdsnausta" />
		<tag k="place" v="locality" />
		<tag k="ssr:stedsnr" v="452900" />
	</node>
	<node id="-550422" lat="61.850755554" lon="6.84647778032">
		<tag k="historic" v="shieling" />
		<tag k="name" v="Avleinssætra" />
		<tag k="place" v="locality" />
		<tag k="ssr:stedsnr" v="451666" />
	</node>
	<node id="-550414" lat="61.9078340803" lon="7.05527891996">
		<tag k="fixme" v="consider place=hamlet" />
		<tag k="name" v="Fosnes" />
		<tag k="place" v="farm" />
		<tag k="ssr:stedsnr" v="435512" />
	</node>
	<node id="-550413" lat="61.8974701306" lon="7.08156304972">
		<tag k="fixme" v="consider place=hamlet" />
		<tag k="name" v="Mork" />
		<tag k="place" v="farm" />
		<tag k="ssr:stedsnr" v="435510" />
	</node>
	<node id="-550412" lat="61.8791861136" lon="7.1179027837">
		<tag k="name" v="Nytun" />
		<tag k="place" v="farm" />
		<tag k="ssr:stedsnr" v="435499" />
	</node>
	<node id="-550410" lat="61.7812854052" lon="6.83586197304">
		<tag k="fixme" v="consider place=hamlet" />
		<tag k="name" v="Håheim" />
		<tag k="place" v="farm" />
		<tag k="ssr:stedsnr" v="435481" />
	</node>
	<node id="-550399" lat="61.8246388861" lon="6.62191389594">
		<tag k="historic" v="shieling" />
		<tag k="name" v="Lyslostøylen" />
		<tag k="place" v="locality" />
		<tag k="ssr:stedsnr" v="435371" />
	</node>
	<node id="-550397" lat="61.9440693182" lon="6.9426579934">
		<tag k="fixme" v="consider place=hamlet" />
		<tag k="name" v="Lindvika" />
		<tag k="place" v="farm" />
		<tag k="ssr:stedsnr" v="435333" />
	</node>
	<node id="-550391" lat="61.9476236409" lon="6.93437792638">
		<tag k="alt_name" v="Solli" />
		<tag k="fixme" v="consider place=hamlet" />
		<tag k="name" v="Sollida" />
		<tag k="place" v="farm" />
		<tag k="ssr:stedsnr" v="435245" />
	</node>
	<node id="-550387" lat="61.8454452528" lon="6.38653211953">
		<tag k="fixme" v="consider place=hamlet" />
		<tag k="name" v="Gald" />
		<tag k="place" v="farm" />
		<tag k="ssr:stedsnr" v="435132" />
	</node>
	<node id="-550386" lat="61.8061527788" lon="6.43575555881">
		<tag k="name" v="Svorane" />
		<tag k="place" v="locality" />
		<tag k="ssr:stedsnr" v="435113" />
	</node>
	<node id="-550385" lat="61.8105972223" lon="6.42827778217">
		<tag k="name" v="Kristisonen" />
		<tag k="place" v="farm" />
		<tag k="ssr:stedsnr" v="435090" />
	</node>
	<node id="-550380" lat="61.8741791542" lon="6.3205929017">
		<tag k="fixme" v="consider place=hamlet" />
		<tag k="name" v="Åland" />
		<tag k="place" v="farm" />
		<tag k="ssr:stedsnr" v="435056" />
	</node>
	<node id="-550379" lat="61.8731972194" lon="6.27527777877">
		<tag k="historic" v="shieling" />
		<tag k="name" v="Utitunsstøylen" />
		<tag k="place" v="locality" />
		<tag k="ssr:stedsnr" v="435050" />
	</node>
	<node id="-550378" lat="61.8479166711" lon="6.43016943942">
		<tag k="historic" v="shieling" />
		<tag k="name" v="Ytre Sølvbergsstøylen" />
		<tag k="place" v="locality" />
		<tag k="ssr:stedsnr" v="435032" />
	</node>
	<node id="-550376" lat="61.7009000033" lon="6.83504999586">
		<tag k="historic" v="shieling" />
		<tag k="name" v="Kvamssætra" />
		<tag k="place" v="locality" />
		<tag k="ssr:stedsnr" v="434906" />
	</node>
	<node id="-551505" lat="61.9357194436" lon="6.96112222504">
		<tag k="name" v="Holmevik" />
		<tag k="place" v="farm" />
		<tag k="ssr:stedsnr" v="822394" />
	</node>
	<node id="-550372" lat="61.8289805557" lon="6.98477499276">
		<tag k="historic" v="shieling" />
		<tag k="name" v="Hogrenningssætra" />
		<tag k="place" v="locality" />
		<tag k="ssr:stedsnr" v="434399" />
	</node>
	<node id="-550370" lat="61.8004148917" lon="7.01011693324">
		<tag k="fixme" v="consider place=hamlet" />
		<tag k="name" v="Bødal" />
		<tag k="place" v="farm" />
		<tag k="ssr:stedsnr" v="434395" />
	</node>
	<node id="-550367" lat="61.8355694448" lon="6.43281667336">
		<tag k="name" v="Fjelli" />
		<tag k="place" v="farm" />
		<tag k="ssr:stedsnr" v="434100" />
	</node>
	<node id="-550358" lat="61.9247570266" lon="6.56157192283">
		<tag k="fixme" v="consider place=hamlet" />
		<tag k="name" v="Hatledal" />
		<tag k="place" v="farm" />
		<tag k="ssr:stedsnr" v="253963" />
	</node>
	<node id="-550354" lat="61.8940113045" lon="7.08953193658">
		<tag k="fixme" v="consider place=hamlet" />
		<tag k="name" v="Grønfor" />
		<tag k="place" v="farm" />
		<tag k="ssr:stedsnr" v="253519" />
	</node>
	<node id="-550353" lat="61.8860005309" lon="7.10924492294">
		<tag k="fixme" v="consider place=hamlet" />
		<tag k="name" v="Berge" />
		<tag k="place" v="farm" />
		<tag k="ssr:stedsnr" v="253512" />
	</node>
	<node id="-550349" lat="61.7586075082" lon="6.82865641701">
		<tag k="fixme" v="consider place=hamlet" />
		<tag k="name" v="Gjerdane" />
		<tag k="place" v="farm" />
		<tag k="ssr:stedsnr" v="253472" />
	</node>
	<node id="-550348" lat="61.9339805547" lon="7.10065554747">
		<tag k="historic" v="shieling" />
		<tag k="name" v="Segestadsætra" />
		<tag k="place" v="locality" />
		<tag k="ssr:stedsnr" v="253435" />
	</node>
	<node id="-550346" lat="61.8211027816" lon="6.80655556118">
		<tag k="name" v="Bruvoll" />
		<tag k="place" v="farm" />
		<tag k="ssr:stedsnr" v="253401" />
	</node>
	<node id="-550344" lat="61.8328000006" lon="6.80803888074">
		<tag k="fixme" v="consider place=hamlet" />
		<tag k="name" v="Olden" />
		<tag k="place" v="village" />
		<tag k="ssr:stedsnr" v="253391" />
	</node>
	<node id="-550340" lat="61.9309416711" lon="6.90221666143">
		<tag k="name" v="Gjerane" />
		<tag k="place" v="farm" />
		<tag k="ssr:stedsnr" v="253365" />
	</node>
	<node id="-550336" lat="61.9039787611" lon="6.73343883845">
		<tag k="fixme" v="consider place=hamlet" />
		<tag k="name" v="Årheim" />
		<tag k="place" v="farm" />
		<tag k="ssr:stedsnr" v="253313" />
	</node>
	<node id="-550334" lat="61.8481834598" lon="6.53034576565">
		<tag k="name" v="Rosetnausta" />
		<tag k="place" v="locality" />
		<tag k="ssr:stedsnr" v="253111" />
	</node>
	<node id="-550333" lat="61.8007413905" lon="6.5131467833">
		<tag k="alt_name" v="Valaker" />
		<tag k="fixme" v="consider place=hamlet" />
		<tag k="name" v="Valåker" />
		<tag k="place" v="farm" />
		<tag k="ssr:stedsnr" v="253089" />
	</node>
	<node id="-550331" lat="61.8558111092" lon="6.4451555469">
		<tag k="historic" v="shieling" />
		<tag k="name" v="Indre Sølvbergsstøylen" />
		<tag k="place" v="locality" />
		<tag k="ssr:stedsnr" v="253028" />
	</node>
	<node id="-550329" lat="61.8564694434" lon="6.45211666904">
		<tag k="historic" v="shieling" />
		<tag k="name" v="Bergsetstøylen" />
		<tag k="place" v="locality" />
		<tag k="ssr:stedsnr" v="253010" />
	</node>
	<node id="-550315" lat="61.8261060246" lon="6.96892025607">
		<tag k="fixme" v="consider place=hamlet" />
		<tag k="name" v="Hellsete" />
		<tag k="place" v="farm" />
		<tag k="ssr:stedsnr" v="252409" />
	</node>
	<node id="-550312" lat="61.8540901807" lon="6.6231224551">
		<tag k="fixme" v="consider place=hamlet" />
		<tag k="name" v="Hilde" />
		<tag k="place" v="farm" />
		<tag k="ssr:stedsnr" v="252345" />
	</node>
	<node id="-550310" lat="61.8429938947" lon="6.63401139238">
		<tag k="fixme" v="consider place=hamlet" />
		<tag k="name" v="Taraldset" />
		<tag k="place" v="farm" />
		<tag k="ssr:stedsnr" v="252318" />
	</node>
	<node id="-550293" lat="61.8996055548" lon="6.69798056224">
		<tag k="name" v="Grønevik" />
		<tag k="place" v="farm" />
		<tag k="ssr:stedsnr" v="221089" />
	</node>
	<node id="-550285" lat="61.7239805575" lon="6.78284999337">
		<tag k="historic" v="shieling" />
		<tag k="name" v="Ytre Yrisetra" />
		<tag k="place" v="locality" />
		<tag k="ssr:stedsnr" v="215528" />
	</node>
	<node id="-550265" lat="61.9224777743" lon="6.69970833554">
		<tag k="historic" v="shieling" />
		<tag k="loc_name" v="Bøanedsætra" />
		<tag k="name" v="Bø nedre seter" />
		<tag k="place" v="locality" />
		<tag k="ssr:stedsnr" v="215461" />
	</node>
	<node id="-550225" lat="61.8419972262" lon="6.5279861125">
		<tag k="name" v="Ulvedalsnausta" />
		<tag k="place" v="locality" />
		<tag k="ssr:stedsnr" v="215297" />
	</node>
	<node id="-550222" lat="61.9487861098" lon="6.87535833041">
		<tag k="historic" v="shieling" />
		<tag k="name" v="Høgesetra" />
		<tag k="place" v="locality" />
		<tag k="ssr:stedsnr" v="215286" />
	</node>
	<node id="-550198" lat="61.8402111151" lon="6.81143611726">
		<tag k="name" v="Murinausta" />
		<tag k="place" v="locality" />
		<tag k="ssr:stedsnr" v="215191" />
	</node>
	<node id="-550190" lat="61.818272221" lon="6.37267222975">
		<tag k="name" v="Skogly" />
		<tag k="place" v="farm" />
		<tag k="ssr:stedsnr" v="215158" />
	</node>
	<node id="-550160" lat="61.919030553" lon="7.15354445206">
		<tag k="alt_name" v="Grovaøyane" />
		<tag k="name" v="Grovøyane" />
		<tag k="place" v="farm" />
		<tag k="ssr:stedsnr" v="192514" />
	</node>
	<node id="-550159" lat="61.8997333365" lon="7.03886111398">
		<tag k="name" v="Fosdalssætra" />
		<tag k="place" v="locality" />
		<tag k="ssr:stedsnr" v="192508" />
	</node>
	<node id="-550154" lat="61.8454722211" lon="7.18651944499">
		<tag k="historic" v="shieling" />
		<tag k="name" v="Vesledalen" />
		<tag k="place" v="locality" />
		<tag k="ssr:stedsnr" v="192470" />
	</node>
	<node id="-550148" lat="61.9319861466" lon="7.22479581742">
		<tag k="fixme" v="consider place=hamlet" />
		<tag k="name" v="Skora" />
		<tag k="place" v="farm" />
		<tag k="ssr:stedsnr" v="192400" />
	</node>
	<node id="-550144" lat="61.8607160221" lon="6.88082792913">
		<tag k="fixme" v="consider place=hamlet" />
		<tag k="name" v="Sæten" />
		<tag k="place" v="farm" />
		<tag k="ssr:stedsnr" v="192378" />
	</node>
	<node id="-550143" lat="61.8458797373" lon="6.62852698585">
		<tag k="fixme" v="consider place=hamlet" />
		<tag k="name" v="Langvin" />
		<tag k="place" v="farm" />
		<tag k="ssr:stedsnr" v="192375" />
	</node>
	<node id="-550142" lat="61.844246983" lon="6.63821579903">
		<tag k="fixme" v="consider place=hamlet" />
		<tag k="name" v="Reme" />
		<tag k="place" v="farm" />
		<tag k="ssr:stedsnr" v="192376" />
	</node>
	<node id="-550141" lat="61.8307777775" lon="6.83175555289">
		<tag k="historic" v="shieling" />
		<tag k="name" v="Murisætra" />
		<tag k="place" v="locality" />
		<tag k="ssr:stedsnr" v="192371" />
	</node>
	<node id="-550140" lat="61.8235694476" lon="6.64852777288">
		<tag k="historic" v="shieling" />
		<tag k="name" v="Prestestøylen" />
		<tag k="place" v="locality" />
		<tag k="ssr:stedsnr" v="192367" />
	</node>
	<node id="-550138" lat="61.8010981737" lon="6.81962588246">
		<tag k="fixme" v="consider place=hamlet" />
		<tag k="name" v="Eide" />
		<tag k="place" v="farm" />
		<tag k="ssr:stedsnr" v="192352" />
	</node>
	<node id="-550136" lat="61.908769224" lon="6.7287335088">
		<tag k="alt_name" v="Bø Indre;Bø Ytre" />
		<tag k="name" v="Bø" />
		<tag k="place" v="hamlet" />
		<tag k="ssr:stedsnr" v="192322" />
	</node>
	<node id="-550134" lat="61.9210858646" lon="6.80790890281">
		<tag k="fixme" v="consider place=hamlet" />
		<tag k="name" v="Gjørven" />
		<tag k="place" v="farm" />
		<tag k="ssr:stedsnr" v="192314" />
	</node>
	<node id="-550132" lat="61.8905703441" lon="6.63817486779">
		<tag k="fixme" v="consider place=hamlet" />
		<tag k="name" v="Svarstad" />
		<tag k="place" v="farm" />
		<tag k="ssr:stedsnr" v="192297" />
	</node>
	<node id="-550129" lat="61.9032083295" lon="6.63664445423">
		<tag k="historic" v="shieling" />
		<tag k="name" v="Svarstadstøylen" />
		<tag k="place" v="locality" />
		<tag k="ssr:stedsnr" v="192286" />
	</node>
	<node id="-550128" lat="61.8765341588" lon="6.80637411044">
		<tag k="name" v="Hola" />
		<tag k="place" v="farm" />
		<tag k="ssr:stedsnr" v="192282" />
	</node>
	<node id="-550126" lat="61.889058331" lon="6.78365000462">
		<tag k="historic" v="shieling" />
		<tag k="name" v="Oppheimssætra" />
		<tag k="place" v="locality" />
		<tag k="ssr:stedsnr" v="192274" />
	</node>
	<node id="-550118" lat="61.8359333293" lon="6.44791110276">
		<tag k="name" v="Fjellvang" />
		<tag k="place" v="farm" />
		<tag k="ssr:stedsnr" v="192124" />
	</node>
	<node id="-550116" lat="61.8460666685" lon="6.52168888204">
		<tag k="name" v="Svanheim" />
		<tag k="place" v="farm" />
		<tag k="ssr:stedsnr" v="192120" />
	</node>
	<node id="-550115" lat="61.8376305546" lon="6.40058889204">
		<tag k="name" v="Skora" />
		<tag k="place" v="farm" />
		<tag k="ssr:stedsnr" v="192104" />
	</node>
	<node id="-550112" lat="61.8713732998" lon="6.32549200188">
		<tag k="fixme" v="consider place=hamlet" />
		<tag k="name" v="Rand" />
		<tag k="place" v="farm" />
		<tag k="ssr:stedsnr" v="192066" />
	</node>
	<node id="-550110" lat="61.8940916687" lon="6.57017221293">
		<tag k="historic" v="shieling" />
		<tag k="name" v="Faleidstøylen" />
		<tag k="place" v="locality" />
		<tag k="ssr:stedsnr" v="192038" />
	</node>
	<node id="-550108" lat="61.8632166806" lon="6.3299501826">
		<tag k="fixme" v="consider place=hamlet" />
		<tag k="name" v="Hammar" />
		<tag k="place" v="farm" />
		<tag k="ssr:stedsnr" v="192014" />
	</node>
	<node id="-550106" lat="61.8695222728" lon="6.5409839002">
		<tag k="fixme" v="consider place=hamlet" />
		<tag k="name" v="Dokset" />
		<tag k="place" v="farm" />
		<tag k="ssr:stedsnr" v="192006" />
	</node>
	<node id="-550103" lat="61.682034652" lon="6.80585949437">
		<tag k="fixme" v="consider place=hamlet" />
		<tag k="name" v="Myklebust" />
		<tag k="place" v="farm" />
		<tag k="ssr:stedsnr" v="191890" />
	</node>
	<node id="-550092" lat="61.8521277813" lon="6.81589722368">
		<tag k="name" v="Avlein" />
		<tag k="place" v="isolated_dwelling" />
		<tag k="ssr:stedsnr" v="160440" />
	</node>
	<node id="-550091" lat="61.8508194451" lon="6.51976665796">
		<tag k="name" v="Ekrene" />
		<tag k="place" v="farm" />
		<tag k="ssr:stedsnr" v="160052" />
	</node>
	<node id="-550068" lat="61.944033337" lon="7.0358888936">
		<tag k="name" v="Oppigardsnausta" />
		<tag k="place" v="locality" />
		<tag k="ssr:stedsnr" v="154494" />
	</node>
	<node id="-550033" lat="61.8763111103" lon="6.48951388107">
		<tag k="historic" v="shieling" />
		<tag k="name" v="Smørdalstølen" />
		<tag k="place" v="locality" />
		<tag k="ssr:stedsnr" v="154377" />
	</node>
	<node id="-550005" lat="61.8320055543" lon="6.3363888818">
		<tag k="historic" v="shieling" />
		<tag k="name" v="Nerstølen" />
		<tag k="place" v="locality" />
		<tag k="ssr:stedsnr" v="154164" />
	</node>
	<node id="-550002" lat="61.9103583303" lon="6.81308055542">
		<tag k="name" v="Nedsetra" />
		<tag k="place" v="farm" />
		<tag k="ssr:stedsnr" v="154158" />
	</node>
	<node id="-549982" lat="61.9369222224" lon="6.68474722494">
		<tag k="historic" v="shieling" />
		<tag k="name" v="Gamlesetra" />
		<tag k="place" v="locality" />
		<tag k="ssr:stedsnr" v="154025" />
	</node>
	<node id="-549965" lat="61.8129472265" lon="6.83508055518">
		<tag k="historic" v="shieling" />
		<tag k="name" v="Meleinssætra" />
		<tag k="place" v="locality" />
		<tag k="ssr:stedsnr" v="148629" />
	</node>
	<node id="-549956" lat="61.9129972187" lon="6.4850499953">
		<tag k="historic" v="shieling" />
		<tag k="name" v="Sindresætra" />
		<tag k="place" v="locality" />
		<tag k="ssr:stedsnr" v="131957" />
	</node>
	<node id="-549943" lat="61.7602830433" lon="6.81120977996">
		<tag k="fixme" v="consider place=hamlet" />
		<tag k="name" v="Mindresunde" />
		<tag k="place" v="farm" />
		<tag k="ssr:stedsnr" v="131395" />
	</node>
	<node id="-549942" lat="61.978525004" lon="7.14657499643">
		<tag k="historic" v="shieling" />
		<tag k="name" v="Stol" />
		<tag k="place" v="locality" />
		<tag k="ssr:stedsnr" v="131374" />
	</node>
	<node id="-549941" lat="61.974524999" lon="7.05150000146">
		<tag k="historic" v="shieling" />
		<tag k="name" v="Øvre-Flosætra" />
		<tag k="place" v="locality" />
		<tag k="ssr:stedsnr" v="131372" />
	</node>
	<node id="-549936" lat="61.8715111138" lon="6.84590000128">
		<tag k="fixme" v="consider place=hamlet" />
		<tag k="name" v="Loen" />
		<tag k="place" v="village" />
		<tag k="ssr:stedsnr" v="131345" />
	</node>
	<node id="-549934" lat="61.8380927088" lon="6.59603810814">
		<tag k="fixme" v="consider place=hamlet" />
		<tag k="name" v="Heggdal" />
		<tag k="place" v="farm" />
		<tag k="ssr:stedsnr" v="131340" />
	</node>
	<node id="-549933" lat="61.8271094671" lon="6.80264222328">
		<tag k="fixme" v="consider place=hamlet" />
		<tag k="name" v="Bruvoll" />
		<tag k="place" v="farm" />
		<tag k="ssr:stedsnr" v="131328" />
	</node>
	<node id="-549932" lat="61.834952947" lon="6.81368522584">
		<tag k="fixme" v="consider place=hamlet" />
		<tag k="name" v="Muri" />
		<tag k="place" v="farm" />
		<tag k="ssr:stedsnr" v="131327" />
	</node>
	<node id="-549931" lat="61.8272083339" lon="6.67974166273">
		<tag k="alt_name" v="Dragesetstølen" />
		<tag k="historic" v="shieling" />
		<tag k="name" v="Dragesetstøylen" />
		<tag k="place" v="locality" />
		<tag k="ssr:stedsnr" v="131316" />
	</node>
	<node id="-549929" lat="61.9284888879" lon="6.60507500346">
		<tag k="fixme" v="consider place=hamlet" />
		<tag k="name" v="Djupvoll" />
		<tag k="place" v="farm" />
		<tag k="ssr:stedsnr" v="131294" />
	</node>
	<node id="-549928" lat="61.9273305541" lon="6.59880278391">
		<tag k="name" v="Bakkevoll" />
		<tag k="place" v="farm" />
		<tag k="ssr:stedsnr" v="131292" />
	</node>
	<node id="-549925" lat="61.8887666675" lon="6.61739722311">
		<tag k="fixme" v="consider place=hamlet" />
		<tag k="name" v="Faleide" />
		<tag k="place" v="village" />
		<tag k="ssr:stedsnr" v="131271" />
	</node>
	<node id="-549921" lat="61.885272221" lon="6.77559166355">
		<tag k="alt_name" v="Rakesetra" />
		<tag k="historic" v="shieling" />
		<tag k="name" v="Raksætra" />
		<tag k="place" v="locality" />
		<tag k="ssr:stedsnr" v="131246" />
	</node>
	<node id="-549919" lat="61.8598499988" lon="6.53099443986">
		<tag k="name" v="Blakset" />
		<tag k="place" v="farm" />
		<tag k="ssr:stedsnr" v="131218" />
	</node>
	<node id="-549913" lat="61.9488666701" lon="6.91471667517">
		<tag k="historic" v="shieling" />
		<tag k="name" v="Skorsætra" />
		<tag k="place" v="locality" />
		<tag k="ssr:stedsnr" v="131198" />
	</node>
	<node id="-549912" lat="61.9491845389" lon="6.94185968847">
		<tag k="fixme" v="consider place=hamlet" />
		<tag k="name" v="Fure" />
		<tag k="place" v="farm" />
		<tag k="ssr:stedsnr" v="131196" />
	</node>
	<node id="-549909" lat="61.8153861135" lon="6.54174722575">
		<tag k="name" v="Innlegda" />
		<tag k="place" v="farm" />
		<tag k="ssr:stedsnr" v="131066" />
	</node>
	<node id="-549908" lat="61.8698805517" lon="6.27818334086">
		<tag k="historic" v="shieling" />
		<tag k="name" v="Holesætra" />
		<tag k="place" v="locality" />
		<tag k="ssr:stedsnr" v="131054" />
	</node>
	<node id="-549333" lat="61.863541663" lon="6.31506111063">
		<tag k="name" v="Hoplandsnausta" />
		<tag k="place" v="locality" />
		<tag k="ssr:stedsnr" v="883178" />
	</node>
	<node id="-549904" lat="61.8519138889" lon="6.49249165799">
		<tag k="name" v="Brekkene" />
		<tag k="place" v="locality" />
		<tag k="ssr:stedsnr" v="131034" />
	</node>
	<node id="-549902" lat="61.864855783" lon="6.52187426718">
		<tag k="alt_name" v="Nygard" />
		<tag k="fixme" v="consider place=hamlet" />
		<tag k="name" v="Nygård" />
		<tag k="place" v="farm" />
		<tag k="ssr:stedsnr" v="131020" />
	</node>
	<node id="-549037" lat="61.8897388849" lon="6.72369166293">
		<tag k="historic" v="shieling" />
		<tag k="name" v="Årheimssætra" />
		<tag k="place" v="locality" />
		<tag k="ssr:stedsnr" v="314312" />
	</node>
	<node id="-549894" lat="61.7026639838" lon="6.81787285012">
		<tag k="fixme" v="consider place=hamlet" />
		<tag k="name" v="Kvame" />
		<tag k="place" v="farm" />
		<tag k="ssr:stedsnr" v="130903" />
	</node>
	<node id="-549849" lat="61.8578555555" lon="6.60610833116">
		<tag k="name" v="Hilde" />
		<tag k="place" v="hamlet" />
		<tag k="ssr:stedsnr" v="94416" />
	</node>
	<node id="-549832" lat="61.8438250041" lon="6.62235833258">
		<tag k="name" v="Einebakk" />
		<tag k="place" v="farm" />
		<tag k="ssr:stedsnr" v="94400" />
	</node>
	<node id="-549821" lat="61.8046777806" lon="6.5258305604">
		<tag k="name" v="Dalen" />
		<tag k="place" v="farm" />
		<tag k="ssr:stedsnr" v="94362" />
	</node>
	<node id="-549818" lat="61.8701083306" lon="6.38563611156">
		<tag k="historic" v="shieling" />
		<tag k="name" v="Tvinnereimstølen" />
		<tag k="place" v="locality" />
		<tag k="ssr:stedsnr" v="94299" />
	</node>
	<node id="-551848" lat="61.8668075944" lon="6.31538124466">
		<tag k="fixme" v="consider place=hamlet" />
		<tag k="name" v="Hopland" />
		<tag k="place" v="farm" />
		<tag k="ssr:stedsnr" v="978024" />
	</node>
	<node id="-551847" lat="61.8881769925" lon="6.60933259172">
		<tag k="fixme" v="consider place=hamlet" />
		<tag k="name" v="Faleide" />
		<tag k="place" v="farm" />
		<tag k="ssr:stedsnr" v="978017" />
	</node>
	<node id="-551846" lat="61.8728085861" lon="6.85801794007">
		<tag k="fixme" v="consider place=hamlet" />
		<tag k="name" v="Loen" />
		<tag k="place" v="farm" />
		<tag k="ssr:stedsnr" v="977960" />
	</node>
	<node id="-551845" lat="61.9318593255" lon="6.57359364449">
		<tag k="fixme" v="consider place=hamlet" />
		<tag k="name" v="Maurset" />
		<tag k="place" v="farm" />
		<tag k="ssr:stedsnr" v="977953" />
	</node>
	<node id="-551844" lat="61.8971067967" lon="6.70758492219">
		<tag k="fixme" v="consider place=hamlet" />
		<tag k="name" v="Visnes" />
		<tag k="place" v="farm" />
		<tag k="ssr:stedsnr" v="977948" />
	</node>
	<node id="-551843" lat="61.9115617858" lon="7.11883772255">
		<tag k="fixme" v="consider place=hamlet" />
		<tag k="name" v="Hjelle" />
		<tag k="place" v="farm" />
		<tag k="ssr:stedsnr" v="977943" />
	</node>
	<node id="-551842" lat="61.9171757944" lon="7.13484598411">
		<tag k="fixme" v="consider place=hamlet" />
		<tag k="name" v="Einebakken" />
		<tag k="place" v="farm" />
		<tag k="ssr:stedsnr" v="977941" />
	</node>
	<node id="-551840" lat="61.9409485881" lon="6.94049763059">
		<tag k="name" v="Nestun" />
		<tag k="place" v="farm" />
		<tag k="ssr:stedsnr" v="975244" />
	</node>
	<node id="-549788" lat="61.9016472225" lon="6.72295833302">
		<tag k="name" v="Bruagrenda" />
		<tag k="place" v="hamlet" />
		<tag k="ssr:stedsnr" v="94066" />
	</node>
	<node id="-549783" lat="61.9334555563" lon="6.67706665775">
		<tag k="historic" v="shieling" />
		<tag k="name" v="Vikasetra" />
		<tag k="place" v="locality" />
		<tag k="ssr:stedsnr" v="94032" />
	</node>
	<node id="-551830" lat="61.7854675751" lon="6.98839810098">
		<tag k="fixme" v="consider place=hamlet" />
		<tag k="name" v="Indre Nesdal" />
		<tag k="place" v="farm" />
		<tag k="ssr:stedsnr" v="972227" />
	</node>
	<node id="-551829" lat="61.7859810685" lon="6.98247716948">
		<tag k="fixme" v="consider place=hamlet" />
		<tag k="name" v="Ytre Nesdal" />
		<tag k="place" v="farm" />
		<tag k="ssr:stedsnr" v="972226" />
	</node>
	<node id="-551818" lat="61.921494441" lon="6.91786111504">
		<tag k="historic" v="shieling" />
		<tag k="name" v="Dispasetra" />
		<tag k="place" v="locality" />
		<tag k="ssr:stedsnr" v="944385" />
	</node>
	<node id="-551810" lat="61.9589666704" lon="6.92954721349">
		<tag k="historic" v="shieling" />
		<tag k="name" v="Vikasetra" />
		<tag k="place" v="locality" />
		<tag k="ssr:stedsnr" v="944268" />
	</node>
	<node id="-549759" lat="61.9027750012" lon="7.21308889687">
		<tag k="historic" v="shieling" />
		<tag k="name" v="Almfloten" />
		<tag k="place" v="locality" />
		<tag k="ssr:stedsnr" v="81498" />
	</node>
	<node id="-549758" lat="61.9111527787" lon="6.56735000513">
		<tag k="name" v="Bruheim" />
		<tag k="place" v="farm" />
		<tag k="ssr:stedsnr" v="71998" />
	</node>
	<node id="-549751" lat="61.9181207134" lon="7.0920445157">
		<tag k="fixme" v="consider place=hamlet" />
		<tag k="name" v="Glomnes" />
		<tag k="place" v="farm" />
		<tag k="ssr:stedsnr" v="71523" />
	</node>
	<node id="-549748" lat="61.8996559932" lon="7.23933713983">
		<tag k="historic" v="shieling" />
		<tag k="name" v="Sunndalen" />
		<tag k="place" v="locality" />
		<tag k="ssr:stedsnr" v="71507" />
	</node>
	<node id="-549746" lat="61.8888796799" lon="7.10640213764">
		<tag k="fixme" v="consider place=hamlet" />
		<tag k="name" v="Rygg" />
		<tag k="place" v="farm" />
		<tag k="ssr:stedsnr" v="71502" />
	</node>
	<node id="-549744" lat="61.888325001" lon="7.28513056041">
		<tag k="historic" v="shieling" />
		<tag k="name" v="Sunndalssætra" />
		<tag k="place" v="locality" />
		<tag k="ssr:stedsnr" v="71491" />
	</node>
	<node id="-549741" lat="61.842411113" lon="6.66049999462">
		<tag k="historic" v="shieling" />
		<tag k="name" v="Remestøylen" />
		<tag k="place" v="locality" />
		<tag k="ssr:stedsnr" v="71386" />
	</node>
	<node id="-549739" lat="61.818238887" lon="6.71467222789">
		<tag k="historic" v="shieling" />
		<tag k="name" v="Hildastøylen" />
		<tag k="place" v="locality" />
		<tag k="ssr:stedsnr" v="71376" />
	</node>
	<node id="-549732" lat="61.9295699639" lon="6.83409506518">
		<tag k="fixme" v="consider place=hamlet" />
		<tag k="name" v="Øvreeide" />
		<tag k="place" v="farm" />
		<tag k="ssr:stedsnr" v="71333" />
	</node>
	<node id="-549731" lat="61.9135447903" lon="6.75255531801">
		<tag k="alt_name" v="Ytre Rise;Inste Rise" />
		<tag k="fixme" v="consider place=hamlet" />
		<tag k="name" v="Rise" />
		<tag k="place" v="farm" />
		<tag k="ssr:stedsnr" v="71321" />
	</node>
	<node id="-549730" lat="61.9255696114" lon="6.84708237887">
		<tag k="name" v="Lunde" />
		<tag k="place" v="hamlet" />
		<tag k="ssr:stedsnr" v="71312" />
	</node>
	<node id="-549729" lat="61.8901306245" lon="6.67109791387">
		<tag k="fixme" v="consider place=hamlet" />
		<tag k="name" v="Øvreberg" />
		<tag k="place" v="farm" />
		<tag k="ssr:stedsnr" v="71299" />
	</node>
	<node id="-549008" lat="61.8522555523" lon="6.61508055256">
		<tag k="name" v="Innvik" />
		<tag k="place" v="village" />
		<tag k="ssr:stedsnr" v="313372" />
	</node>
	<node id="-549726" lat="61.836655555" lon="6.43080834185">
		<tag k="name" v="Hogstad" />
		<tag k="place" v="farm" />
		<tag k="ssr:stedsnr" v="71097" />
	</node>
	<node id="-549725" lat="61.8867833332" lon="6.7273722146">
		<tag k="alt_name" v="Strandasetra" />
		<tag k="historic" v="shieling" />
		<tag k="name" v="Strandasætra" />
		<tag k="place" v="locality" />
		<tag k="ssr:stedsnr" v="71274" />
	</node>
	<node id="-549724" lat="61.887517652" lon="6.6728119857">
		<tag k="fixme" v="consider place=hamlet" />
		<tag k="name" v="Lunde" />
		<tag k="place" v="farm" />
		<tag k="ssr:stedsnr" v="71272" />
	</node>
	<node id="-551771" lat="61.7949194476" lon="6.56631943857">
		<tag k="historic" v="shieling" />
		<tag k="name" v="Gjøljestølen" />
		<tag k="place" v="locality" />
		<tag k="ssr:stedsnr" v="943362" />
	</node>
	<node id="-549722" lat="61.8556215841" lon="6.90641270642">
		<tag k="fixme" v="consider place=hamlet" />
		<tag k="name" v="Sande" />
		<tag k="place" v="farm" />
		<tag k="ssr:stedsnr" v="71241" />
	</node>
	<node id="-549007" lat="61.8582300625" lon="6.81943319879">
		<tag k="fixme" v="consider place=hamlet" />
		<tag k="name" v="Avlein" />
		<tag k="place" v="farm" />
		<tag k="ssr:stedsnr" v="313367" />
	</node>
	<node id="-549719" lat="61.935022501" lon="6.84478108924">
		<tag k="alt_name" v="Bakkeli;Bakkelia" />
		<tag k="fixme" v="consider place=hamlet" />
		<tag k="name" v="Bakkelid" />
		<tag k="place" v="farm" />
		<tag k="ssr:stedsnr" v="71224" />
	</node>
	<node id="-549006" lat="61.8644361106" lon="6.70278611085">
		<tag k="historic" v="shieling" />
		<tag k="name" v="Agjeldssætra" />
		<tag k="place" v="locality" />
		<tag k="ssr:stedsnr" v="313362" />
	</node>
	<node id="-549714" lat="61.8073962075" lon="6.5382318611">
		<tag k="fixme" v="consider place=hamlet" />
		<tag k="name" v="Berge" />
		<tag k="place" v="farm" />
		<tag k="ssr:stedsnr" v="71079" />
	</node>
	<node id="-549712" lat="61.8637836695" lon="6.34939076919">
		<tag k="fixme" v="consider place=hamlet" />
		<tag k="name" v="Tvinnereim" />
		<tag k="place" v="farm" />
		<tag k="ssr:stedsnr" v="71057" />
	</node>
	<node id="-549711" lat="61.8784777818" lon="6.53295833009">
		<tag k="historic" v="shieling" />
		<tag k="name" v="Rosetstøylen" />
		<tag k="place" v="locality" />
		<tag k="ssr:stedsnr" v="71045" />
	</node>
	<node id="-549710" lat="61.8739777775" lon="6.30311666006">
		<tag k="name" v="Brekkene" />
		<tag k="place" v="locality" />
		<tag k="ssr:stedsnr" v="71033" />
	</node>
	<node id="-549709" lat="61.8594861121" lon="6.53323056244">
		<tag k="name" v="Steinset" />
		<tag k="place" v="farm" />
		<tag k="ssr:stedsnr" v="71018" />
	</node>
	<node id="-549704" lat="61.7050669765" lon="6.80272070087">
		<tag k="fixme" v="consider place=hamlet" />
		<tag k="name" v="Rustøyane" />
		<tag k="place" v="farm" />
		<tag k="ssr:stedsnr" v="70908" />
	</node>
	<node id="-549004" lat="61.8474697131" lon="6.791073162">
		<tag k="fixme" v="consider place=hamlet" />
		<tag k="name" v="Ytre Skarstein" />
		<tag k="place" v="farm" />
		<tag k="ssr:stedsnr" v="313356" />
	</node>
	<node id="-549701" lat="61.7433530719" lon="6.78820803724">
		<tag k="fixme" v="consider place=hamlet" />
		<tag k="name" v="Gytri" />
		<tag k="place" v="farm" />
		<tag k="ssr:stedsnr" v="70880" />
	</node>
	<node id="-551748" lat="61.7808361098" lon="6.97472500235">
		<tag k="historic" v="shieling" />
		<tag k="name" v="Bakkesetra" />
		<tag k="place" v="locality" />
		<tag k="ssr:stedsnr" v="943235" />
	</node>
	<node id="-549344" lat="61.8633416624" lon="6.33853888116">
		<tag k="name" v="Gamlegarden" />
		<tag k="place" v="farm" />
		<tag k="ssr:stedsnr" v="883264" />
	</node>
	<node id="-549693" lat="61.864848106" lon="6.88727538208">
		<tag k="fixme" v="consider place=hamlet" />
		<tag k="name" v="Haugen" />
		<tag k="place" v="farm" />
		<tag k="ssr:stedsnr" v="70344" />
	</node>
	<node id="-549689" lat="61.8317222228" lon="6.46743054759">
		<tag k="name" v="Bergsetnausta" />
		<tag k="place" v="locality" />
		<tag k="ssr:stedsnr" v="70096" />
	</node>
	<node id="-549681" lat="61.8372499976" lon="6.47005555199">
		<tag k="name" v="Lillejord" />
		<tag k="old_name" v="Litlejordet" />
		<tag k="place" v="farm" />
		<tag k="ssr:stedsnr" v="53124" />
	</node>
	<node id="-548999" lat="61.9270249961" lon="6.65245000177">
		<tag k="historic" v="shieling" />
		<tag k="name" v="Øvrebergssætra" />
		<tag k="place" v="locality" />
		<tag k="ssr:stedsnr" v="313302" />
	</node>
	<node id="-551703" lat="61.8893805558" lon="6.48333611029">
		<tag k="historic" v="shieling" />
		<tag k="name" v="Raudfjell" />
		<tag k="place" v="locality" />
		<tag k="ssr:stedsnr" v="920981" />
	</node>
	<node id="-551702" lat="61.9188881454" lon="6.55313573194">
		<tag k="fixme" v="consider place=hamlet" />
		<tag k="name" v="Haugen" />
		<tag k="place" v="farm" />
		<tag k="ssr:stedsnr" v="920955" />
	</node>
	<node id="-551696" lat="61.9214153232" lon="7.14430683489">
		<tag k="fixme" v="consider place=hamlet" />
		<tag k="name" v="Bolstad" />
		<tag k="place" v="farm" />
		<tag k="ssr:stedsnr" v="920481" />
	</node>
	<node id="-551694" lat="61.9156932922" lon="7.11470223921">
		<tag k="fixme" v="consider place=hamlet" />
		<tag k="name" v="Hjelle" />
		<tag k="place" v="village" />
		<tag k="ssr:stedsnr" v="920473" />
	</node>
	<node id="-551693" lat="61.9017290715" lon="7.07341441985">
		<tag k="fixme" v="consider place=hamlet" />
		<tag k="name" v="Dårflot" />
		<tag k="place" v="farm" />
		<tag k="ssr:stedsnr" v="920464" />
	</node>
	<node id="-551692" lat="61.8993499987" lon="7.10741388426">
		<tag k="name" v="Årnes" />
		<tag k="place" v="farm" />
		<tag k="ssr:stedsnr" v="920463" />
	</node>
	<node id="-551678" lat="61.9322271682" lon="6.99864819386">
		<tag k="fixme" v="consider place=hamlet" />
		<tag k="name" v="Tunål" />
		<tag k="place" v="farm" />
		<tag k="ssr:stedsnr" v="920352" />
	</node>
	<node id="-551677" lat="61.8559545694" lon="6.77242471493">
		<tag k="fixme" v="consider place=hamlet" />
		<tag k="name" v="Heggestad" />
		<tag k="place" v="farm" />
		<tag k="ssr:stedsnr" v="920340" />
	</node>
	<node id="-551676" lat="61.8662177648" lon="6.7234537954">
		<tag k="name" v="Agjeld" />
		<tag k="place" v="farm" />
		<tag k="ssr:stedsnr" v="920338" />
	</node>
	<node id="-551675" lat="61.8690006198" lon="6.70124259202">
		<tag k="fixme" v="consider place=hamlet" />
		<tag k="name" v="Agjeld" />
		<tag k="place" v="farm" />
		<tag k="ssr:stedsnr" v="920339" />
	</node>
	<node id="-548991" lat="61.7862666668" lon="6.55209722245">
		<tag k="historic" v="shieling" />
		<tag k="name" v="Verlostøylen" />
		<tag k="place" v="locality" />
		<tag k="ssr:stedsnr" v="313181" />
	</node>
	<node id="-551672" lat="61.8226444409" lon="6.59758888261">
		<tag k="historic" v="shieling" />
		<tag k="name" v="Heggdalsstøylen" />
		<tag k="place" v="locality" />
		<tag k="ssr:stedsnr" v="920328" />
	</node>
	<node id="-551671" lat="61.8356500023" lon="6.92512499477">
		<tag k="alt_name" v="Nesbønen" />
		<tag k="name" v="Nesbøen" />
		<tag k="place" v="locality" />
		<tag k="ssr:stedsnr" v="920329" />
	</node>
	<node id="-551670" lat="61.8238111221" lon="6.80891215584">
		<tag k="name" v="Brynestad" />
		<tag k="place" v="farm" />
		<tag k="ssr:stedsnr" v="920327" />
	</node>
	<node id="-551666" lat="61.9263888866" lon="6.7536222251">
		<tag k="historic" v="shieling" />
		<tag k="name" v="Ytreeidssætra" />
		<tag k="place" v="locality" />
		<tag k="ssr:stedsnr" v="920297" />
	</node>
	<node id="-551665" lat="61.93900833" lon="6.89901388772">
		<tag k="name" v="Grønneset" />
		<tag k="place" v="farm" />
		<tag k="ssr:stedsnr" v="920292" />
	</node>
	<node id="-551660" lat="61.870984292" lon="6.67459427315">
		<tag k="fixme" v="consider place=hamlet" />
		<tag k="name" v="Årholen" />
		<tag k="place" v="farm" />
		<tag k="ssr:stedsnr" v="920252" />
	</node>
	<node id="-551656" lat="61.9411972229" lon="6.82636666795">
		<tag k="alt_name" v="Skårsetra;Kopasetra" />
		<tag k="historic" v="shieling" />
		<tag k="name" v="Kopasætra" />
		<tag k="place" v="locality" />
		<tag k="ssr:stedsnr" v="920192" />
	</node>
	<node id="-551650" lat="61.8126328165" lon="6.41039147213">
		<tag k="fixme" v="consider place=hamlet" />
		<tag k="name" v="Juv" />
		<tag k="place" v="farm" />
		<tag k="ssr:stedsnr" v="920068" />
	</node>
	<node id="-551649" lat="61.8675472183" lon="6.31337222801">
		<tag k="name" v="Hopland" />
		<tag k="place" v="hamlet" />
		<tag k="ssr:stedsnr" v="920063" />
	</node>
	<node id="-551647" lat="61.8481999969" lon="6.52739166121">
		<tag k="name" v="Solvang" />
		<tag k="place" v="farm" />
		<tag k="ssr:stedsnr" v="920032" />
	</node>
	<node id="-551645" lat="61.8635777752" lon="6.52465555933">
		<tag k="name" v="Nytun" />
		<tag k="place" v="farm" />
		<tag k="ssr:stedsnr" v="920020" />
	</node>
	<node id="-548986" lat="61.8066416692" lon="6.39381388962">
		<tag k="historic" v="shieling" />
		<tag k="name" v="Frøysetstøylen" />
		<tag k="place" v="locality" />
		<tag k="ssr:stedsnr" v="313072" />
	</node>
	<node id="-551640" lat="61.6936116845" lon="6.81537938029">
		<tag k="fixme" v="consider place=hamlet" />
		<tag k="name" v="Åberg" />
		<tag k="place" v="farm" />
		<tag k="ssr:stedsnr" v="919915" />
	</node>
	<node id="-551624" lat="61.9104805486" lon="7.04240534336">
		<tag k="fixme" v="consider place=hamlet" />
		<tag k="name" v="Sandvik" />
		<tag k="place" v="farm" />
		<tag k="ssr:stedsnr" v="860524" />
	</node>
	<node id="-551623" lat="61.8768068435" lon="7.12009300187">
		<tag k="fixme" v="consider place=hamlet" />
		<tag k="name" v="Tjellog" />
		<tag k="place" v="farm" />
		<tag k="ssr:stedsnr" v="860507" />
	</node>
	<node id="-551621" lat="61.7565361141" lon="6.82426666752">
		<tag k="name" v="Sandbrekka" />
		<tag k="place" v="farm" />
		<tag k="ssr:stedsnr" v="860480" />
	</node>
	<node id="-551619" lat="61.8533087188" lon="6.90893840964">
		<tag k="name" v="Sande" />
		<tag k="place" v="farm" />
		<tag k="ssr:stedsnr" v="860422" />
	</node>
	<node id="-551618" lat="61.8363305572" lon="6.67367500549">
		<tag k="name" v="Hestehytta" />
		<tag k="place" v="isolated_dwelling" />
		<tag k="ssr:stedsnr" v="860405" />
	</node>
	<node id="-551617" lat="61.8418138856" lon="6.94256943705">
		<tag k="historic" v="shieling" />
		<tag k="name" v="Breng" />
		<tag k="place" v="locality" />
		<tag k="ssr:stedsnr" v="860403" />
	</node>
	<node id="-549567" lat="61.7604416666" lon="6.82681943953">
		<tag k="name" v="Gjerdenausta" />
		<tag k="place" v="locality" />
		<tag k="ssr:stedsnr" v="33096" />
	</node>
	<node id="-551614" lat="61.9299747887" lon="6.91044183318">
		<tag k="fixme" v="consider place=hamlet" />
		<tag k="name" v="Dispen" />
		<tag k="place" v="farm" />
		<tag k="ssr:stedsnr" v="860372" />
	</node>
	<node id="-551613" lat="61.9304249188" lon="6.92325726941">
		<tag k="fixme" v="consider place=hamlet" />
		<tag k="name" v="Meland" />
		<tag k="place" v="farm" />
		<tag k="ssr:stedsnr" v="860370" />
	</node>
	<node id="-551612" lat="61.9078222196" lon="6.69740000463">
		<tag k="name" v="Hol" />
		<tag k="place" v="farm" />
		<tag k="ssr:stedsnr" v="860354" />
	</node>
	<node id="-551611" lat="61.912086498" lon="6.76943927982">
		<tag k="fixme" v="consider place=hamlet" />
		<tag k="name" v="Sætre" />
		<tag k="place" v="farm" />
		<tag k="ssr:stedsnr" v="860351" />
	</node>
	<node id="-551609" lat="61.9178358619" lon="6.78471632463">
		<tag k="fixme" v="consider place=hamlet" />
		<tag k="name" v="Kyrkjeeide" />
		<tag k="place" v="farm" />
		<tag k="ssr:stedsnr" v="860341" />
	</node>
	<node id="-551607" lat="61.8917250035" lon="6.67306667259">
		<tag k="name" v="Bergsida" />
		<tag k="place" v="farm" />
		<tag k="ssr:stedsnr" v="860328" />
	</node>
	<node id="-549556" lat="61.6975820704" lon="6.80977100817">
		<tag k="fixme" v="consider place=hamlet" />
		<tag k="name" v="Mykløy" />
		<tag k="place" v="farm" />
		<tag k="ssr:stedsnr" v="33010" />
	</node>
	<node id="-551602" lat="61.9472722261" lon="6.8266805491">
		<tag k="historic" v="shieling" />
		<tag k="name" v="Skorsætra" />
		<tag k="place" v="locality" />
		<tag k="ssr:stedsnr" v="860248" />
	</node>
	<node id="-551601" lat="61.9457694481" lon="6.94036110904">
		<tag k="name" v="Veslebygda" />
		<tag k="place" v="hamlet" />
		<tag k="ssr:stedsnr" v="860244" />
	</node>
	<node id="-551597" lat="61.8451666634" lon="6.46113334283">
		<tag k="name" v="Bergli" />
		<tag k="place" v="farm" />
		<tag k="ssr:stedsnr" v="860111" />
	</node>
	<node id="-551596" lat="61.8004888896" lon="6.566108333">
		<tag k="historic" v="shieling" />
		<tag k="name" v="Bergsstøylen" />
		<tag k="place" v="locality" />
		<tag k="ssr:stedsnr" v="860102" />
	</node>
	<node id="-549544" lat="61.9074999976" lon="6.53218054815">
		<tag k="historic" v="shieling" />
		<tag k="name" v="Florestøylane" />
		<tag k="place" v="locality" />
		<tag k="ssr:stedsnr" v="10996" />
	</node>
	<node id="-549541" lat="61.9187348152" lon="6.53917611237">
		<tag k="fixme" v="consider place=hamlet" />
		<tag k="name" v="Flore" />
		<tag k="place" v="farm" />
		<tag k="ssr:stedsnr" v="10960" />
	</node>
	<node id="-551587" lat="61.6783019031" lon="6.81591497162">
		<tag k="fixme" v="consider place=hamlet" />
		<tag k="name" v="Åbrekke" />
		<tag k="place" v="farm" />
		<tag k="ssr:stedsnr" v="859913" />
	</node>
	<node id="-551586" lat="61.6782855313" lon="6.80939465675">
		<tag k="fixme" v="consider place=hamlet" />
		<tag k="name" v="Melkevoll" />
		<tag k="place" v="farm" />
		<tag k="ssr:stedsnr" v="859909" />
	</node>
	<node id="-549537" lat="61.9188322967" lon="7.17664474616">
		<tag k="fixme" v="consider place=hamlet" />
		<tag k="name" v="Folva" />
		<tag k="place" v="farm" />
		<tag k="ssr:stedsnr" v="10476" />
	</node>
	<node id="-551584" lat="61.7226706271" lon="6.79314897926">
		<tag k="name" v="Yri" />
		<tag k="place" v="hamlet" />
		<tag k="ssr:stedsnr" v="859884" />
	</node>
	<node id="-549535" lat="61.8706833892" lon="7.12832004626">
		<tag k="fixme" v="consider place=hamlet" />
		<tag k="name" v="Greidung" />
		<tag k="place" v="farm" />
		<tag k="ssr:stedsnr" v="10455" />
	</node>
	<node id="-551571" lat="61.8424222239" lon="6.8116083366">
		<tag k="name" v="Muri" />
		<tag k="place" v="farm" />
		<tag k="ssr:stedsnr" v="859325" />
	</node>
	<node id="-551569" lat="61.8753240949" lon="6.79843872175">
		<tag k="name" v="Åheim" />
		<tag k="place" v="farm" />
		<tag k="ssr:stedsnr" v="859242" />
	</node>
	<node id="-549518" lat="61.862117239" lon="6.75344263428">
		<tag k="fixme" v="consider place=hamlet" />
		<tag k="name" v="Vangberg" />
		<tag k="place" v="farm" />
		<tag k="ssr:stedsnr" v="10342" />
	</node>
	<node id="-551565" lat="61.8373816903" lon="6.59574518179">
		<tag k="name" v="Heggdal" />
		<tag k="old_name" v="Heggedal" />
		<tag k="place" v="farm" />
		<tag k="ssr:stedsnr" v="859110" />
	</node>
	<node id="-551564" lat="61.8361928923" lon="6.58540393378">
		<tag k="name" v="Geilane" />
		<tag k="place" v="farm" />
		<tag k="ssr:stedsnr" v="859108" />
	</node>
	<node id="-551563" lat="61.8375916667" lon="6.41708611616">
		<tag k="name" v="Heimli" />
		<tag k="place" v="farm" />
		<tag k="ssr:stedsnr" v="859103" />
	</node>
	<node id="-551562" lat="61.827316669" lon="6.32828888035">
		<tag k="historic" v="shieling" />
		<tag k="name" v="Moldreimsstøylen" />
		<tag k="place" v="locality" />
		<tag k="ssr:stedsnr" v="859102" />
	</node>
	<node id="-551561" lat="61.8362627943" lon="6.46129535779">
		<tag k="fixme" v="consider place=hamlet" />
		<tag k="name" v="Sølvberg" />
		<tag k="place" v="farm" />
		<tag k="ssr:stedsnr" v="859097" />
	</node>
	<node id="-549511" lat="61.9221901327" lon="6.61778154921">
		<tag k="fixme" v="consider place=hamlet" />
		<tag k="name" v="Svingeset" />
		<tag k="place" v="farm" />
		<tag k="ssr:stedsnr" v="10291" />
	</node>
	<node id="-551558" lat="61.8121825483" lon="6.53758302704">
		<tag k="fixme" v="consider place=hamlet" />
		<tag k="name" v="Hammar" />
		<tag k="place" v="farm" />
		<tag k="ssr:stedsnr" v="859071" />
	</node>
	<node id="-551557" lat="61.8069841931" lon="6.52821013065">
		<tag k="fixme" v="consider place=hamlet" />
		<tag k="name" v="Hage" />
		<tag k="place" v="farm" />
		<tag k="ssr:stedsnr" v="859069" />
	</node>
	<node id="-551556" lat="61.8144055519" lon="6.58103056">
		<tag k="name" v="Svartesvad" />
		<tag k="place" v="locality" />
		<tag k="ssr:stedsnr" v="859068" />
	</node>
	<node id="-549507" lat="61.8778283958" lon="6.79535606645">
		<tag k="fixme" v="consider place=hamlet" />
		<tag k="name" v="Oppheim" />
		<tag k="place" v="farm" />
		<tag k="ssr:stedsnr" v="10254" />
	</node>
	<node id="-549506" lat="61.8011500016" lon="6.82759999929">
		<tag k="name" v="Eide" />
		<tag k="place" v="farm" />
		<tag k="ssr:stedsnr" v="10223" />
	</node>
	<node id="-549503" lat="61.8376861123" lon="6.41257499624">
		<tag k="name" v="Skor" />
		<tag k="place" v="farm" />
		<tag k="ssr:stedsnr" v="10127" />
	</node>
	<node id="-549502" lat="61.8324888428" lon="6.34539233288">
		<tag k="fixme" v="consider place=hamlet" />
		<tag k="name" v="Moldreim" />
		<tag k="place" v="farm" />
		<tag k="ssr:stedsnr" v="10125" />
	</node>
	<node id="-549495" lat="61.8651388885" lon="6.38519167508">
		<tag k="name" v="Langeskor" />
		<tag k="place" v="locality" />
		<tag k="ssr:stedsnr" v="10063" />
	</node>
	<node id="-549493" lat="61.870180558" lon="6.30899443796">
		<tag k="name" v="Nykvia" />
		<tag k="place" v="locality" />
		<tag k="ssr:stedsnr" v="10055" />
	</node>
	<node id="-549492" lat="61.8828003908" lon="6.55070990416">
		<tag k="name" v="Robjørgane" />
		<tag k="place" v="hamlet" />
		<tag k="ssr:stedsnr" v="10047" />
	</node>
	<node id="-549486" lat="61.8602305545" lon="6.49341110715">
		<tag k="historic" v="shieling" />
		<tag k="name" v="Rosetstøylen" />
		<tag k="place" v="locality" />
		<tag k="ssr:stedsnr" v="10019" />
	</node>
	<node id="-549485" lat="61.8710741056" lon="6.53138934894">
		<tag k="fixme" v="consider place=hamlet" />
		<tag k="name" v="Teigen" />
		<tag k="place" v="farm" />
		<tag k="ssr:stedsnr" v="10009" />
	</node>
	<node id="-549479" lat="61.8409884879" lon="6.61268010165">
		<tag k="name" v="Indrebø" />
		<tag k="place" v="locality" />
		<tag k="ssr:stedsnr" v="990830" />
	</node>
	<node id="-549476" lat="61.9329915619" lon="6.56948904867">
		<tag k="fixme" v="consider place=hamlet" />
		<tag k="name" v="Maurset" />
		<tag k="place" v="farm" />
		<tag k="ssr:stedsnr" v="920910" />
	</node>
	<node id="-549464" lat="61.9421444413" lon="6.55514166167">
		<tag k="historic" v="shieling" />
		<tag k="name" v="Øyesætra" />
		<tag k="place" v="locality" />
		<tag k="ssr:stedsnr" v="435947" />
	</node>
	<node id="-549463" lat="61.9322055549" lon="6.56544723127">
		<tag k="name" v="Åsen" />
		<tag k="place" v="farm" />
		<tag k="ssr:stedsnr" v="253906" />
	</node>
	<node id="-549457" lat="61.9407388866" lon="6.56222500613">
		<tag k="historic" v="shieling" />
		<tag k="name" v="Høgestølen" />
		<tag k="place" v="locality" />
		<tag k="ssr:stedsnr" v="396204" />
	</node>
	<node id="-549456" lat="61.9326520594" lon="6.5387828274">
		<tag k="alt_name" v="Øen" />
		<tag k="fixme" v="consider place=hamlet" />
		<tag k="name" v="Øyane" />
		<tag k="place" v="farm" />
		<tag k="ssr:stedsnr" v="374910" />
	</node>
	<node id="-549452" lat="61.8681399057" lon="6.96565853904">
		<tag k="fixme" v="consider tourism=alpine_hut or tourism=chalet" />
		<tag k="name" v="Skålabu" />
		<tag k="ssr:stedsnr" v="987020" />
		<tag k="tourism" v="wilderness_hut" />
	</node>
	<node id="-549446" lat="61.8268146897" lon="7.20981653383">
		<tag k="fixme" v="consider tourism=alpine_hut or tourism=chalet" />
		<tag k="name" v="Infimus" />
		<tag k="ssr:stedsnr" v="986948" />
		<tag k="tourism" v="wilderness_hut" />
	</node>
	<node id="-549429" lat="61.9255586673" lon="6.85105198329">
		<tag k="fixme" v="consider place=hamlet" />
		<tag k="name" v="Indre Lunde" />
		<tag k="place" v="farm" />
		<tag k="ssr:stedsnr" v="1072641" />
	</node>
	<node id="-549428" lat="61.9251147675" lon="6.84115311542">
		<tag k="fixme" v="consider place=hamlet" />
		<tag k="name" v="Ytre Lunde" />
		<tag k="place" v="farm" />
		<tag k="ssr:stedsnr" v="1072639" />
	</node>
	<node id="-549423" lat="61.9220838" lon="6.69122459092">
		<tag k="aerialway" v="drag_lift" />
		<tag k="fixme" v="consider the other aerialway types" />
		<tag k="name" v="Stryn Vinterski" />
		<tag k="ssr:stedsnr" v="1071914" />
	</node>
	<node id="-551458" lat="61.874487732" lon="6.78157984106">
		<tag k="fixme" v="consider place=hamlet" />
		<tag k="name" v="Marså" />
		<tag k="place" v="farm" />
		<tag k="ssr:stedsnr" v="822195" />
	</node>
	<node id="-551423" lat="61.903255558" lon="6.56169444765">
		<tag k="historic" v="shieling" />
		<tag k="name" v="Maurhaugstøylen" />
		<tag k="place" v="locality" />
		<tag k="ssr:stedsnr" v="799997" />
	</node>
	<node id="-549373" lat="61.8552138894" lon="6.61154444137">
		<tag k="name" v="Hildanausta" />
		<tag k="place" v="locality" />
		<tag k="ssr:stedsnr" v="883415" />
	</node>
	<node id="-551420" lat="61.9166291299" lon="6.59039538759">
		<tag k="fixme" v="consider place=hamlet" />
		<tag k="name" v="Dale" />
		<tag k="place" v="farm" />
		<tag k="ssr:stedsnr" v="799949" />
	</node>
	<node id="-551418" lat="61.9241189297" lon="7.00929429047">
		<tag k="fixme" v="consider place=hamlet" />
		<tag k="name" v="Åning" />
		<tag k="place" v="farm" />
		<tag k="ssr:stedsnr" v="799505" />
	</node>
	<node id="-551417" lat="61.9169972184" lon="7.1187761793">
		<tag k="fixme" v="consider place=hamlet" />
		<tag k="name" v="Vollsnes" />
		<tag k="place" v="farm" />
		<tag k="ssr:stedsnr" v="799493" />
	</node>
	<node id="-551411" lat="61.8390052349" lon="6.6381168815">
		<tag k="fixme" v="consider place=hamlet" />
		<tag k="name" v="Drageset" />
		<tag k="place" v="farm" />
		<tag k="ssr:stedsnr" v="799363" />
	</node>
	<node id="-551408" lat="61.9181994993" lon="6.77584407761">
		<tag k="fixme" v="consider place=hamlet" />
		<tag k="name" v="Ytreeide" />
		<tag k="place" v="farm" />
		<tag k="ssr:stedsnr" v="799306" />
	</node>
	<node id="-551406" lat="61.9017472198" lon="6.76418889291">
		<tag k="alt_name" v="Sætresetra" />
		<tag k="historic" v="shieling" />
		<tag k="name" v="Sætresætra" />
		<tag k="place" v="locality" />
		<tag k="ssr:stedsnr" v="799295" />
	</node>
	<node id="-551403" lat="61.9463333343" lon="6.87355278697">
		<tag k="historic" v="shieling" />
		<tag k="name" v="Utigardssætra" />
		<tag k="place" v="locality" />
		<tag k="ssr:stedsnr" v="799220" />
	</node>
	<node id="-549353" lat="61.9166305545" lon="7.01018054927">
		<tag k="historic" v="shieling" />
		<tag k="name" v="Setra" />
		<tag k="place" v="locality" />
		<tag k="ssr:stedsnr" v="883332" />
	</node>
	<node id="-551395" lat="61.8386809385" lon="6.42205130001">
		<tag k="fixme" v="consider place=hamlet" />
		<tag k="name" v="Lida" />
		<tag k="old_name" v="Jevnli" />
		<tag k="place" v="farm" />
		<tag k="ssr:stedsnr" v="799099" />
	</node>
	<node id="-551393" lat="61.8210011406" lon="6.37106751519">
		<tag k="fixme" v="consider place=hamlet" />
		<tag k="name" v="Tisthammar" />
		<tag k="place" v="farm" />
		<tag k="ssr:stedsnr" v="799068" />
	</node>
	<node id="-551392" lat="61.8681500044" lon="6.39193332608">
		<tag k="alt_name" v="Øvsteladene" />
		<tag k="name" v="Øvsteløene" />
		<tag k="place" v="locality" />
		<tag k="ssr:stedsnr" v="799050" />
	</node>
	<node id="-551391" lat="61.8785305515" lon="6.51151110448">
		<tag k="historic" v="shieling" />
		<tag k="name" v="Gamlestøylen" />
		<tag k="place" v="locality" />
		<tag k="ssr:stedsnr" v="799040" />
	</node>
	<node id="-551389" lat="61.8806083312" lon="6.36417500275">
		<tag k="historic" v="shieling" />
		<tag k="name" v="Randastøylen" />
		<tag k="place" v="locality" />
		<tag k="ssr:stedsnr" v="799035" />
	</node>
	<node id="-551387" lat="61.8907284808" lon="6.58760495247">
		<tag k="fixme" v="consider place=hamlet" />
		<tag k="name" v="Sætra" />
		<tag k="place" v="farm" />
		<tag k="ssr:stedsnr" v="799029" />
	</node>
	<node id="-551381" lat="61.6960166625" lon="6.87722499587">
		<tag k="fixme" v="consider tourism=alpine_hut or tourism=chalet" />
		<tag k="name" v="Flatsteinbu" />
		<tag k="ssr:stedsnr" v="798906" />
		<tag k="tourism" v="wilderness_hut" />
	</node>
	<node id="-551378" lat="61.8143388854" lon="6.99372499915">
		<tag k="name" v="Raudi" />
		<tag k="place" v="locality" />
		<tag k="ssr:stedsnr" v="798406" />
	</node>
	<node id="-551377" lat="61.8700250017" lon="6.90421944435">
		<tag k="fixme" v="multiple name tags, choose one and add the other to alt_name" />
		<tag k="historic" v="shieling" />
		<tag k="name" v="Haugasætra;Tyvasætra" />
		<tag k="place" v="locality" />
		<tag k="ssr:stedsnr" v="788579" />
	</node>
	<node id="-551373" lat="61.8522197974" lon="6.78174558034">
		<tag k="fixme" v="consider place=hamlet" />
		<tag k="name" v="Gildestad" />
		<tag k="place" v="farm" />
		<tag k="ssr:stedsnr" v="775895" />
	</node>
	<node id="-551358" lat="61.9364527735" lon="6.60246666791">
		<tag k="historic" v="shieling" />
		<tag k="name" v="Gamlesetra" />
		<tag k="place" v="locality" />
		<tag k="ssr:stedsnr" v="761525" />
	</node>
	<node id="-549303" lat="61.8455083316" lon="7.18612778302">
		<tag k="historic" v="shieling" />
		<tag k="name" v="Vesledalssetra" />
		<tag k="place" v="locality" />
		<tag k="ssr:stedsnr" v="397532" />
	</node>
	<node id="-549299" lat="61.7171583329" lon="6.78369445313">
		<tag k="historic" v="shieling" />
		<tag k="name" v="Indre Yrisetra" />
		<tag k="place" v="locality" />
		<tag k="ssr:stedsnr" v="397496" />
	</node>
	<node id="-551344" lat="61.9117555569" lon="7.18314722928">
		<tag k="name" v="Åsefjøsane" />
		<tag k="place" v="locality" />
		<tag k="ssr:stedsnr" v="761450" />
	</node>
	<node id="-551322" lat="61.8536194474" lon="6.45705000185">
		<tag k="historic" v="shieling" />
		<tag k="name" v="Gamlestølen" />
		<tag k="place" v="locality" />
		<tag k="ssr:stedsnr" v="761323" />
	</node>
	<node id="-551316" lat="61.8556055518" lon="6.5267611146">
		<tag k="name" v="Kleiva" />
		<tag k="place" v="farm" />
		<tag k="ssr:stedsnr" v="761296" />
	</node>
	<node id="-551297" lat="61.8525333313" lon="6.81519444309">
		<tag k="name" v="Avleinausta" />
		<tag k="place" v="locality" />
		<tag k="ssr:stedsnr" v="761175" />
	</node>
	<node id="-551278" lat="61.8683888851" lon="6.96571944047">
		<tag k="fixme" v="consider tourism=alpine_hut or tourism=chalet" />
		<tag k="name" v="Skålatårnet" />
		<tag k="ssr:stedsnr" v="756164" />
		<tag k="tourism" v="wilderness_hut" />
	</node>
	<node id="-549225" lat="61.9074083294" lon="6.8157861053">
		<tag k="name" v="Kviesetra" />
		<tag k="place" v="farm" />
		<tag k="ssr:stedsnr" v="397163" />
	</node>
	<node id="-549220" lat="61.6803583316" lon="6.82356666674">
		<tag k="historic" v="shieling" />
		<tag k="name" v="Brenndalsetra" />
		<tag k="place" v="locality" />
		<tag k="ssr:stedsnr" v="397140" />
	</node>
	<node id="-549219" lat="61.673852777" lon="6.82235555582">
		<tag k="historic" v="shieling" />
		<tag k="name" v="Setra" />
		<tag k="place" v="locality" />
		<tag k="ssr:stedsnr" v="397131" />
	</node>
	<node id="-551266" lat="61.8854333336" lon="6.30365278133">
		<tag k="historic" v="shieling" />
		<tag k="name" v="Innitunsstøylen" />
		<tag k="old_name" v="Hoplandstølen;Indre Hoplandstølen" />
		<tag k="place" v="locality" />
		<tag k="ssr:stedsnr" v="738977" />
	</node>
	<node id="-551264" lat="61.9289277818" lon="6.57464722302">
		<tag k="name" v="Arnehaugen" />
		<tag k="place" v="farm" />
		<tag k="ssr:stedsnr" v="738970" />
	</node>
	<node id="-551263" lat="61.9228628321" lon="6.51240871909">
		<tag k="fixme" v="consider place=hamlet" />
		<tag k="name" v="Nybø" />
		<tag k="place" v="farm" />
		<tag k="ssr:stedsnr" v="738967" />
	</node>
	<node id="-551260" lat="61.8902587574" lon="7.10355881084">
		<tag k="fixme" v="consider place=hamlet" />
		<tag k="name" v="Erdal" />
		<tag k="place" v="farm" />
		<tag k="ssr:stedsnr" v="738458" />
	</node>
	<node id="-551258" lat="61.8244827583" lon="6.97806900635">
		<tag k="fixme" v="consider place=hamlet" />
		<tag k="name" v="Hogrenning" />
		<tag k="old_name" v="Høgrenning" />
		<tag k="place" v="farm" />
		<tag k="ssr:stedsnr" v="738440" />
	</node>
	<node id="-551254" lat="61.9655466045" lon="7.25008515287">
		<tag k="historic" v="shieling" />
		<tag k="name" v="Skjerdingsdalssætra" />
		<tag k="place" v="locality" />
		<tag k="ssr:stedsnr" v="738383" />
	</node>
	<node id="-551253" lat="61.9470777816" lon="7.12718888738">
		<tag k="historic" v="shieling" />
		<tag k="name" v="Nos" />
		<tag k="place" v="locality" />
		<tag k="ssr:stedsnr" v="738376" />
	</node>
	<node id="-549204" lat="61.8346305538" lon="6.40209166372">
		<tag k="name" v="Kårstadnausta" />
		<tag k="place" v="locality" />
		<tag k="ssr:stedsnr" v="392916" />
	</node>
	<node id="-551251" lat="61.8480472262" lon="6.76331389801">
		<tag k="name" v="Fossen" />
		<tag k="place" v="isolated_dwelling" />
		<tag k="ssr:stedsnr" v="738362" />
	</node>
	<node id="-549202" lat="61.9469416701" lon="7.3513888907">
		<tag k="alt_name" v="Stryn sommarskisenter" />
		<tag k="landuse" v="winter_sports" />
		<tag k="name" v="Strynefjellet Sommarski" />
		<tag k="piste:type" v="downhill" />
		<tag k="ssr:stedsnr" v="389460" />
	</node>
	<node id="-549201" lat="61.8373694415" lon="6.46191111528">
		<tag k="name" v="Fjelli" />
		<tag k="place" v="hamlet" />
		<tag k="ssr:stedsnr" v="388534" />
	</node>
	<node id="-551248" lat="61.9008859389" lon="6.61202917519">
		<tag k="fixme" v="consider place=hamlet" />
		<tag k="name" v="Langeset" />
		<tag k="place" v="farm" />
		<tag k="ssr:stedsnr" v="738276" />
	</node>
	<node id="-551245" lat="61.8720687623" lon="6.6273544501">
		<tag k="fixme" v="consider place=hamlet" />
		<tag k="name" v="Frøholm" />
		<tag k="old_name" v="Freholme" />
		<tag k="place" v="farm" />
		<tag k="ssr:stedsnr" v="738267" />
	</node>
	<node id="-551243" lat="61.9324138905" lon="6.67675555634">
		<tag k="historic" v="shieling" />
		<tag k="name" v="Tonningssætra" />
		<tag k="place" v="locality" />
		<tag k="ssr:stedsnr" v="738215" />
	</node>
	<node id="-551240" lat="61.8026555528" lon="6.56817777987">
		<tag k="historic" v="shieling" />
		<tag k="name" v="Kårstadstøylen" />
		<tag k="place" v="locality" />
		<tag k="ssr:stedsnr" v="738168" />
	</node>
	<node id="-551237" lat="61.8380055554" lon="6.45940555735">
		<tag k="name" v="Øverland" />
		<tag k="place" v="farm" />
		<tag k="ssr:stedsnr" v="738107" />
	</node>
	<node id="-549188" lat="61.8961500045" lon="7.10881110884">
		<tag k="name" v="Sandbu" />
		<tag k="place" v="farm" />
		<tag k="ssr:stedsnr" v="374474" />
	</node>
	<node id="-551235" lat="61.8144861147" lon="6.33593610493">
		<tag k="historic" v="shieling" />
		<tag k="name" v="Tisthammarstøylen" />
		<tag k="place" v="locality" />
		<tag k="ssr:stedsnr" v="738073" />
	</node>
	<node id="-551234" lat="61.8671916623" lon="6.32833610896">
		<tag k="name" v="Randabygda" />
		<tag k="place" v="hamlet" />
		<tag k="ssr:stedsnr" v="738066" />
	</node>
	<node id="-549184" lat="61.9490276775" lon="7.029818832">
		<tag k="name" v="Flo" />
		<tag k="place" v="hamlet" />
		<tag k="ssr:stedsnr" v="374395" />
	</node>
	<node id="-551231" lat="61.8887831357" lon="6.56033182967">
		<tag k="fixme" v="consider place=hamlet" />
		<tag k="name" v="Haugen" />
		<tag k="place" v="farm" />
		<tag k="ssr:stedsnr" v="738033" />
	</node>
	<node id="-551230" lat="61.8606638921" lon="6.50641945066">
		<tag k="historic" v="shieling" />
		<tag k="name" v="Øyestadstøylen" />
		<tag k="place" v="locality" />
		<tag k="ssr:stedsnr" v="738019" />
	</node>
	<node id="-549180" lat="61.8255027819" lon="6.67550276912">
		<tag k="alt_name" v="Skådistølen" />
		<tag k="historic" v="shieling" />
		<tag k="name" v="Skådistøylen" />
		<tag k="place" v="locality" />
		<tag k="ssr:stedsnr" v="374360" />
	</node>
	<node id="-549176" lat="61.9069222211" lon="6.74353056043">
		<tag k="name" v="Skjolden" />
		<tag k="place" v="farm" />
		<tag k="ssr:stedsnr" v="374322" />
	</node>
	<node id="-549175" lat="61.9168049793" lon="6.80733033372">
		<tag k="fixme" v="consider place=hamlet" />
		<tag k="name" v="Stauri" />
		<tag k="place" v="farm" />
		<tag k="ssr:stedsnr" v="374320" />
	</node>
	<node id="-551221" lat="61.7570312313" lon="6.80771406523">
		<tag k="fixme" v="consider place=hamlet" />
		<tag k="name" v="Floten" />
		<tag k="place" v="farm" />
		<tag k="ssr:stedsnr" v="738419" />
	</node>
	<node id="-549169" lat="61.9472194481" lon="6.87751388248">
		<tag k="historic" v="shieling" />
		<tag k="name" v="Innigardssætra" />
		<tag k="place" v="locality" />
		<tag k="ssr:stedsnr" v="374236" />
	</node>
	<node id="-551216" lat="61.8756555575" lon="6.82898333419">
		<tag k="name" v="Hella" />
		<tag k="place" v="isolated_dwelling" />
		<tag k="ssr:stedsnr" v="706475" />
	</node>
	<node id="-549167" lat="61.7889722267" lon="6.50100278276">
		<tag k="name" v="Karistova" />
		<tag k="ssr:stedsnr" v="374182" />
		<tag k="tourism" v="hotel" />
	</node>
	<node id="-549166" lat="61.8421240418" lon="6.46879677606">
		<tag k="fixme" v="consider place=hamlet" />
		<tag k="name" v="Bergset" />
		<tag k="place" v="farm" />
		<tag k="ssr:stedsnr" v="374119" />
	</node>
	<node id="-549164" lat="61.8096295163" lon="6.53326796436">
		<tag k="fixme" v="consider place=hamlet" />
		<tag k="name" v="Kårstad" />
		<tag k="place" v="farm" />
		<tag k="ssr:stedsnr" v="374091" />
	</node>
	<node id="-549161" lat="61.8648453195" lon="6.33092296488">
		<tag k="fixme" v="consider place=hamlet" />
		<tag k="name" v="Skrede" />
		<tag k="place" v="farm" />
		<tag k="ssr:stedsnr" v="374069" />
	</node>
	<node id="-549159" lat="61.8519462897" lon="6.51897518166">
		<tag k="fixme" v="consider place=hamlet" />
		<tag k="name" v="Roset" />
		<tag k="place" v="farm" />
		<tag k="ssr:stedsnr" v="374036" />
	</node>
	<node id="-549158" lat="61.8586021005" lon="6.52780717055">
		<tag k="fixme" v="consider place=hamlet" />
		<tag k="name" v="Blakset" />
		<tag k="place" v="farm" />
		<tag k="ssr:stedsnr" v="374019" />
	</node>
	<node id="-549157" lat="61.8623444403" lon="6.49072777282">
		<tag k="historic" v="shieling" />
		<tag k="name" v="Bulægene" />
		<tag k="place" v="locality" />
		<tag k="ssr:stedsnr" v="374012" />
	</node>
	<node id="-551197" lat="61.8425570871" lon="6.90694168314">
		<tag k="historic" v="shieling" />
		<tag k="name" v="Sandsstølen" />
		<tag k="place" v="locality" />
		<tag k="ssr:stedsnr" v="701370" />
	</node>
	<node id="-549147" lat="61.8691831392" lon="6.88067841369">
		<tag k="fixme" v="consider place=hamlet" />
		<tag k="name" v="Tyva" />
		<tag k="place" v="farm" />
		<tag k="ssr:stedsnr" v="373362" />
	</node>
	<node id="-549146" lat="61.8651749201" lon="6.65190515878">
		<tag k="fixme" v="multiple name tags, choose one and add the other to alt_name" />
		<tag k="historic" v="shieling" />
		<tag k="name" v="Holhøgesætra;Holestølen" />
		<tag k="place" v="locality" />
		<tag k="ssr:stedsnr" v="373352" />
	</node>
	<node id="-551193" lat="61.9483083364" lon="7.02185555547">
		<tag k="name" v="Holen" />
		<tag k="place" v="farm" />
		<tag k="ssr:stedsnr" v="701328" />
	</node>
	<node id="-549140" lat="61.837656504" lon="6.50371887955">
		<tag k="fixme" v="consider place=hamlet" />
		<tag k="name" v="Ulvedal" />
		<tag k="place" v="farm" />
		<tag k="ssr:stedsnr" v="373101" />
	</node>
	<node id="-549131" lat="61.8365647904" lon="6.80772421297">
		<tag k="name" v="Flinta" />
		<tag k="place" v="locality" />
		<tag k="ssr:stedsnr" v="342848" />
	</node>
	<node id="-549130" lat="61.9061555598" lon="6.7029722277">
		<tag k="name" v="Sandberg" />
		<tag k="place" v="isolated_dwelling" />
		<tag k="ssr:stedsnr" v="342010" />
	</node>
	<node id="-551156" lat="61.6882055512" lon="6.79427499322">
		<tag k="historic" v="shieling" />
		<tag k="name" v="Myklebustsetra" />
		<tag k="place" v="locality" />
		<tag k="ssr:stedsnr" v="701004" />
	</node>
	<node id="-551155" lat="61.6991611128" lon="6.79251945377">
		<tag k="historic" v="shieling" />
		<tag k="name" v="Høgalmesetra" />
		<tag k="place" v="locality" />
		<tag k="ssr:stedsnr" v="701002" />
	</node>
	<node id="-551147" lat="61.8679166687" lon="6.71891388794">
		<tag k="name" v="Agjeldnausta" />
		<tag k="place" v="locality" />
		<tag k="ssr:stedsnr" v="700476" />
	</node>
	<node id="-549092" lat="61.861275002" lon="6.53441945346">
		<tag k="name" v="Blaksetnausta" />
		<tag k="place" v="locality" />
		<tag k="ssr:stedsnr" v="336290" />
	</node>
	<node id="-549090" lat="61.9525972219" lon="6.97761944082">
		<tag k="historic" v="shieling" />
		<tag k="name" v="Vikasetra" />
		<tag k="place" v="locality" />
		<tag k="ssr:stedsnr" v="336284" />
	</node>
	<node id="-549075" lat="61.8785527772" lon="6.3536944359">
		<tag k="historic" v="shieling" />
		<tag k="name" v="Nedrestølen" />
		<tag k="place" v="locality" />
		<tag k="ssr:stedsnr" v="336203" />
	</node>
	<node id="-549073" lat="61.7781805542" lon="7.01575556454">
		<tag k="historic" v="shieling" />
		<tag k="name" v="Dalefjøsane" />
		<tag k="place" v="locality" />
		<tag k="ssr:stedsnr" v="336195" />
	</node>
	<node id="-551105" lat="61.8184527808" lon="6.37767499522">
		<tag k="name" v="Utigard" />
		<tag k="place" v="farm" />
		<tag k="ssr:stedsnr" v="700159" />
	</node>
	<node id="-549055" lat="61.7060611132" lon="6.83188610164">
		<tag k="historic" v="shieling" />
		<tag k="name" v="Utforsetra" />
		<tag k="place" v="locality" />
		<tag k="ssr:stedsnr" v="336102" />
	</node>
	<node id="-551094" lat="61.7971583376" lon="7.00357777749">
		<tag k="name" v="Gjerdshaugen" />
		<tag k="place" v="isolated_dwelling" />
		<tag k="ssr:stedsnr" v="695895" />
	</node>
	<node id="-549045" lat="61.7794416624" lon="7.01041389127">
		<tag k="amenity" v="cafe" />
		<tag k="name" v="Kjenndalsbre fjellstove" />
		<tag k="ssr:stedsnr" v="331986" />
	</node>
	<node id="-549040" lat="61.9669666674" lon="7.14447500484">
		<tag k="historic" v="shieling" />
		<tag k="name" v="Midtstøylen" />
		<tag k="place" v="locality" />
		<tag k="ssr:stedsnr" v="323508" />
	</node>
	<node id="-551085" lat="61.894553502" lon="6.68217430639">
		<tag k="fixme" v="consider place=hamlet" />
		<tag k="name" v="Vinsrygg" />
		<tag k="place" v="farm" />
		<tag k="ssr:stedsnr" v="678294" />
	</node>
	<node id="-549036" lat="61.8819333318" lon="6.87975556086">
		<tag k="historic" v="shieling" />
		<tag k="name" v="Lohøgesætra" />
		<tag k="place" v="locality" />
		<tag k="ssr:stedsnr" v="314288" />
	</node>
	<node id="-549035" lat="61.8800396835" lon="6.74749202079">
		<tag k="alt_name" v="Stranda" />
		<tag k="fixme" v="consider place=hamlet" />
		<tag k="name" v="Strand" />
		<tag k="place" v="farm" />
		<tag k="ssr:stedsnr" v="314286" />
	</node>
	<node id="-549033" lat="61.921669447" lon="6.56781111649">
		<tag k="name" v="Hatledal" />
		<tag k="place" v="farm" />
		<tag k="ssr:stedsnr" v="314263" />
	</node>
	<node id="-551079" lat="61.8491495286" lon="6.37281885299">
		<tag k="fixme" v="consider place=hamlet" />
		<tag k="name" v="Nos" />
		<tag k="place" v="farm" />
		<tag k="ssr:stedsnr" v="678034" />
	</node>
	<node id="-549029" lat="61.9086364052" lon="6.57589728664">
		<tag k="fixme" v="consider place=hamlet" />
		<tag k="name" v="Maurhaugen" />
		<tag k="place" v="farm" />
		<tag k="ssr:stedsnr" v="313993" />
	</node>
	<node id="-551074" lat="61.8842111071" lon="6.32007499131">
		<tag k="historic" v="shieling" />
		<tag k="name" v="Ålandsstøylen" />
		<tag k="place" v="locality" />
		<tag k="ssr:stedsnr" v="677979" />
	</node>
	<node id="-549024" lat="61.925611867" lon="6.54085723314">
		<tag k="fixme" v="consider place=hamlet" />
		<tag k="name" v="Sindre" />
		<tag k="place" v="farm" />
		<tag k="ssr:stedsnr" v="313962" />
	</node>
	<node id="-551071" lat="61.6636175125" lon="6.82244149244">
		<tag k="fixme" v="consider place=hamlet" />
		<tag k="name" v="Briksdalen" />
		<tag k="place" v="farm" />
		<tag k="ssr:stedsnr" v="677947" />
	</node>
	<node id="-551069" lat="61.7859586602" lon="6.9836503689">
		<tag k="name" v="Nesdal" />
		<tag k="place" v="hamlet" />
		<tag k="ssr:stedsnr" v="677573" />
	</node>
	<node id="-549020" lat="61.9251328648" lon="7.08590492048">
		<tag k="fixme" v="consider place=hamlet" />
		<tag k="name" v="Segestad" />
		<tag k="place" v="farm" />
		<tag k="ssr:stedsnr" v="313486" />
	</node>
	<node id="-549019" lat="61.922538892" lon="7.19100000015">
		<tag k="name" v="Haugane" />
		<tag k="place" v="farm" />
		<tag k="ssr:stedsnr" v="313482" />
	</node>
	<node id="-549018" lat="61.9232036229" lon="7.18058209324">
		<tag k="alt_name" v="Guddal" />
		<tag k="fixme" v="consider place=hamlet" />
		<tag k="name" v="Gutdal" />
		<tag k="place" v="farm" />
		<tag k="ssr:stedsnr" v="313480" />
	</node>
	<node id="-551063" lat="61.7900497135" lon="6.82049244727">
		<tag k="fixme" v="consider place=hamlet" />
		<tag k="name" v="Beinnes" />
		<tag k="place" v="farm" />
		<tag k="ssr:stedsnr" v="677405" />
	</node>
	<node id="-551056" lat="61.8658055536" lon="6.73402499864">
		<tag k="name" v="Ugla" />
		<tag k="place" v="farm" />
		<tag k="ssr:stedsnr" v="677339" />
	</node>
	<node id="-551055" lat="61.844450905" lon="6.61285027683">
		<tag k="fixme" v="consider place=hamlet" />
		<tag k="name" v="Skåden" />
		<tag k="place" v="farm" />
		<tag k="ssr:stedsnr" v="677323" />
	</node>
	<node id="-551054" lat="61.8316194452" lon="6.81393611389">
		<tag k="name" v="Dalheim" />
		<tag k="place" v="farm" />
		<tag k="ssr:stedsnr" v="677314" />
	</node>
	<node id="-551052" lat="61.8115916634" lon="6.79364444901">
		<tag k="historic" v="shieling" />
		<tag k="name" v="Laukisætra" />
		<tag k="place" v="locality" />
		<tag k="ssr:stedsnr" v="677288" />
	</node>
	<node id="-551051" lat="61.9322250031" lon="6.68902500282">
		<tag k="historic" v="shieling" />
		<tag k="name" v="Bøasætra" />
		<tag k="place" v="locality" />
		<tag k="ssr:stedsnr" v="677276" />
	</node>
	<node id="-551050" lat="61.9412485935" lon="6.91262696599">
		<tag k="fixme" v="consider place=hamlet" />
		<tag k="name" v="Skor" />
		<tag k="place" v="farm" />
		<tag k="ssr:stedsnr" v="677273" />
	</node>
	<node id="-549000" lat="61.9269638909" lon="6.76032499661">
		<tag k="historic" v="shieling" />
		<tag k="name" v="Kyrkjeeidssætra" />
		<tag k="place" v="locality" />
		<tag k="ssr:stedsnr" v="313307" />
	</node>
	<node id="-551047" lat="61.9127694433" lon="6.67818889185">
		<tag k="historic" v="shieling" />
		<tag k="name" v="Vinsryggsætra" />
		<tag k="place" v="locality" />
		<tag k="ssr:stedsnr" v="677265" />
	</node>
	<node id="-548998" lat="61.9369828884" lon="6.87613708249">
		<tag k="fixme" v="consider place=hamlet" />
		<tag k="name" v="Storesunde" />
		<tag k="place" v="farm" />
		<tag k="ssr:stedsnr" v="313298" />
	</node>
	<node id="-551045" lat="61.921410152" lon="6.64753343282">
		<tag k="alt_name" v="Lundesetra" />
		<tag k="historic" v="shieling" />
		<tag k="name" v="Lundesætra" />
		<tag k="place" v="locality" />
		<tag k="ssr:stedsnr" v="677256" />
	</node>
	<node id="-548994" lat="61.9401222222" lon="6.60252500834">
		<tag k="historic" v="shieling" />
		<tag k="name" v="Grendalssætra" />
		<tag k="place" v="locality" />
		<tag k="ssr:stedsnr" v="313212" />
	</node>
	<node id="-551041" lat="61.790247218" lon="6.44260277733">
		<tag k="name" v="Hytteranten" />
		<tag k="place" v="locality" />
		<tag k="ssr:stedsnr" v="677164" />
	</node>
	<node id="-551039" lat="61.8333374249" lon="6.59209850299">
		<tag k="alt_name" v="Li" />
		<tag k="fixme" v="consider place=hamlet" />
		<tag k="name" v="Lid" />
		<tag k="place" v="farm" />
		<tag k="ssr:stedsnr" v="677127" />
	</node>
	<node id="-551038" lat="61.835413857" lon="6.58408596716">
		<tag k="name" v="Skogstad" />
		<tag k="place" v="farm" />
		<tag k="ssr:stedsnr" v="677126" />
	</node>
	<node id="-551037" lat="61.8356722247" lon="6.43879444437">
		<tag k="name" v="Løfteng" />
		<tag k="place" v="farm" />
		<tag k="ssr:stedsnr" v="677120" />
	</node>
	<node id="-548988" lat="61.7993666704" lon="6.43582222668">
		<tag k="historic" v="shieling" />
		<tag k="name" v="Brulandsstøylen" />
		<tag k="place" v="locality" />
		<tag k="ssr:stedsnr" v="313103" />
	</node>
	<node id="-551035" lat="61.8017277748" lon="6.41050277473">
		<tag k="historic" v="shieling" />
		<tag k="name" v="Juvsstøylen" />
		<tag k="place" v="locality" />
		<tag k="ssr:stedsnr" v="677076" />
	</node>
	<node id="-551034" lat="61.8773888889" lon="6.51392499052">
		<tag k="historic" v="shieling" />
		<tag k="name" v="Leitet" />
		<tag k="place" v="locality" />
		<tag k="ssr:stedsnr" v="677042" />
	</node>
	<node id="-548983" lat="61.8475111131" lon="6.46886388925">
		<tag k="name" v="Vangen" />
		<tag k="place" v="farm" />
		<tag k="ssr:stedsnr" v="313023" />
	</node>
	<node id="-551030" lat="61.8597416666" lon="6.34356945174">
		<tag k="name" v="Kvia" />
		<tag k="place" v="locality" />
		<tag k="ssr:stedsnr" v="677014" />
	</node>
	<node id="-548981" lat="61.8609222264" lon="6.47376667534">
		<tag k="historic" v="shieling" />
		<tag k="name" v="Ulvedalsstøylen" />
		<tag k="place" v="locality" />
		<tag k="ssr:stedsnr" v="313015" />
	</node>
	<node id="-548980" lat="61.8683667805" lon="6.53219468823">
		<tag k="fixme" v="consider place=hamlet" />
		<tag k="name" v="Steinsåker" />
		<tag k="place" v="farm" />
		<tag k="ssr:stedsnr" v="313007" />
	</node>
	<node id="-548975" lat="61.8392888926" lon="6.47252499291">
		<tag k="name" v="Lundberg" />
		<tag k="place" v="farm" />
		<tag k="ssr:stedsnr" v="71110" />
	</node>
	<node id="-548974" lat="61.8590416668" lon="6.85186944615">
		<tag k="historic" v="shieling" />
		<tag k="name" v="Losætra" />
		<tag k="place" v="locality" />
		<tag k="ssr:stedsnr" v="70320" />
	</node>
	<node id="-548882" lat="61.7711527758" lon="6.96492777986">
		<tag k="historic" v="shieling" />
		<tag k="name" v="Framsetra" />
		<tag k="place" v="locality" />
		<tag k="ssr:stedsnr" v="276277" />
	</node>
	<node id="-551016" lat="61.8219055571" lon="6.68785833551">
		<tag k="historic" v="shieling" />
		<tag k="name" v="Prestestølen" />
		<tag k="place" v="locality" />
		<tag k="ssr:stedsnr" v="639505" />
	</node>
	<node id="-551014" lat="61.8479416643" lon="6.76262222071">
		<tag k="historic" v="shieling" />
		<tag k="name" v="Øvstesetra" />
		<tag k="place" v="locality" />
		<tag k="ssr:stedsnr" v="639498" />
	</node>
	<node id="-551011" lat="61.8560305586" lon="6.75161110846">
		<tag k="historic" v="shieling" />
		<tag k="name" v="Vangbergssætra" />
		<tag k="place" v="locality" />
		<tag k="ssr:stedsnr" v="639490" />
	</node>
	<node id="-548960" lat="61.8411486376" lon="6.61025502131">
		<tag k="alt_name" v="Gjeilemyra" />
		<tag k="name" v="Geilemyra" />
		<tag k="place" v="farm" />
		<tag k="ssr:stedsnr" v="282888" />
	</node>
	<node id="-550998" lat="61.8886527748" lon="6.58004166843">
		<tag k="historic" v="shieling" />
		<tag k="name" v="Gjølvestølen" />
		<tag k="place" v="locality" />
		<tag k="ssr:stedsnr" v="639427" />
	</node>
	<node id="-548938" lat="61.9169222248" lon="6.68217221668">
		<tag k="historic" v="shieling" />
		<tag k="name" v="Vikanedsetra" />
		<tag k="place" v="locality" />
		<tag k="ssr:stedsnr" v="276506" />
	</node>
	<node id="-550976" lat="61.8358972185" lon="6.43239999676">
		<tag k="name" v="Pertun" />
		<tag k="place" v="farm" />
		<tag k="ssr:stedsnr" v="639304" />
	</node>
	<node id="-550965" lat="61.7754111145" lon="6.96895277426">
		<tag k="historic" v="shieling" />
		<tag k="name" v="Utigardsetra" />
		<tag k="place" v="locality" />
		<tag k="ssr:stedsnr" v="639241" />
	</node>
	<node id="-548908" lat="61.9373564468" lon="6.90542202245">
		<tag k="fixme" v="consider place=hamlet" />
		<tag k="name" v="Eikenes" />
		<tag k="place" v="farm" />
		<tag k="ssr:stedsnr" v="276403" />
	</node>
	<node id="-550954" lat="61.947761112" lon="7.02900000945">
		<tag k="name" v="Nedre Flo" />
		<tag k="place" v="farm" />
		<tag k="ssr:stedsnr" v="639193" />
	</node>
	<node id="-548884" lat="61.9263008309" lon="6.8585356781">
		<tag k="name" v="Hatlen" />
		<tag k="place" v="farm" />
		<tag k="ssr:stedsnr" v="276285" />
	</node>
	<node id="-550930" lat="61.9079138862" lon="6.58240556393">
		<tag k="name" v="Skogtun" />
		<tag k="place" v="farm" />
		<tag k="ssr:stedsnr" v="617997" />
	</node>
	<node id="-550929" lat="61.9088194486" lon="6.49383055389">
		<tag k="historic" v="shieling" />
		<tag k="name" v="Høgestøylane" />
		<tag k="place" v="locality" />
		<tag k="ssr:stedsnr" v="617993" />
	</node>
	<node id="-550925" lat="61.9048194422" lon="6.8315583301">
		<tag k="alt_name" v="Lundesetra" />
		<tag k="historic" v="shieling" />
		<tag k="name" v="Lundesætra" />
		<tag k="place" v="locality" />
		<tag k="ssr:stedsnr" v="617307" />
	</node>
	<node id="-550918" lat="61.9403500027" lon="6.58721666503">
		<tag k="historic" v="shieling" />
		<tag k="name" v="Maursetsætra" />
		<tag k="place" v="locality" />
		<tag k="ssr:stedsnr" v="616940" />
	</node>
	<node id="-550916" lat="61.9204276381" lon="7.02367896746">
		<tag k="fixme" v="consider place=hamlet" />
		<tag k="name" v="Nesje" />
		<tag k="place" v="farm" />
		<tag k="ssr:stedsnr" v="616486" />
	</node>
	<node id="-549206" lat="61.9373472256" lon="6.67557778644">
		<tag k="historic" v="shieling" />
		<tag k="name" v="Karisetra" />
		<tag k="place" v="locality" />
		<tag k="ssr:stedsnr" v="397025" />
	</node>
</osm>
