<?xml version="1.0" encoding="UTF-8"?>
<osm version="0.6" generator="osmapis">
	<node lat="60.122369445200015" lon="11.470047224533339" id="-15906">
		<tag k="name" v="Årnes" />
		<tag k="place" v="village" />
		<tag k="ssr:stedsnr" v="5083" />
	</node>
	<node lat="60.128933168339515" lon="11.447668962046956" id="-15907">
		<tag k="name" v="Rotnes" />
		<tag k="place" v="hamlet" />
		<tag k="ssr:stedsnr" v="5084" />
	</node>
	<node lat="60.242708921899705" lon="11.34087415902556" id="-15908">
		<tag k="fixme" v="consider place=hamlet" />
		<tag k="name" v="Øvre Valstad" />
		<tag k="place" v="farm" />
		<tag k="ssr:stedsnr" v="5324" />
	</node>
	<node lat="60.12798610696703" lon="11.550161104138812" id="-15914">
		<tag k="name" v="Holmen" />
		<tag k="place" v="farm" />
		<tag k="ssr:stedsnr" v="5661" />
	</node>
	<node lat="60.190402952374555" lon="11.489635251753006" id="-15915">
		<tag k="fixme" v="consider place=hamlet" />
		<tag k="name" v="Bollerud" />
		<tag k="place" v="farm" />
		<tag k="ssr:stedsnr" v="5804" />
	</node>
	<node lat="60.20700555663046" lon="11.521133336418075" id="-15916">
		<tag k="name" v="Frigård" />
		<tag k="place" v="farm" />
		<tag k="ssr:stedsnr" v="5774" />
	</node>
	<node lat="60.23789722090766" lon="11.580713893731778" id="-15918">
		<tag k="name" v="Dyste" />
		<tag k="place" v="farm" />
		<tag k="ssr:stedsnr" v="5956" />
	</node>
	<node lat="60.237558336518916" lon="11.53520832988221" id="-15919">
		<tag k="name" v="Kroksrud" />
		<tag k="place" v="farm" />
		<tag k="ssr:stedsnr" v="5961" />
	</node>
	<node lat="60.02598055773965" lon="11.554863883291592" id="-15922">
		<tag k="alt_name" v="Brautersæter" />
		<tag k="name" v="Brautersetra" />
		<tag k="place" v="farm" />
		<tag k="ssr:stedsnr" v="6602" />
	</node>
	<node lat="60.27106111321566" lon="11.512105550671013" id="-15924">
		<tag k="name" v="Bakken" />
		<tag k="place" v="farm" />
		<tag k="ssr:stedsnr" v="6584" />
	</node>
	<node lat="60.11672910389238" lon="11.547174973491144" id="-15926">
		<tag k="fixme" v="consider place=hamlet" />
		<tag k="name" v="Auli" />
		<tag k="place" v="farm" />
		<tag k="ssr:stedsnr" v="6705" />
	</node>
	<node lat="60.11638888770691" lon="11.631152772346004" id="-15927">
		<tag k="amenity" v="cafe" />
		<tag k="name" v="Hennivangen" />
		<tag k="ssr:stedsnr" v="6707" />
	</node>
	<node lat="60.10776389102355" lon="11.548997217577064" id="-15928">
		<tag k="alt_name" v="Rolighet" />
		<tag k="name" v="Roligheta" />
		<tag k="old_name" v="Rolighed" />
		<tag k="place" v="farm" />
		<tag k="ssr:stedsnr" v="6709" />
	</node>
	<node lat="60.11236111539546" lon="11.537538884249209" id="-15929">
		<tag k="alt_name" v="Haugland" />
		<tag k="name" v="Tomta" />
		<tag k="place" v="locality" />
		<tag k="ssr:stedsnr" v="6710" />
	</node>
	<node lat="60.10948611218174" lon="11.553827785240461" id="-15930">
		<tag k="name" v="Smedstua" />
		<tag k="place" v="farm" />
		<tag k="ssr:stedsnr" v="6717" />
	</node>
	<node lat="60.16360555162697" lon="11.508113890364973" id="-15938">
		<tag k="name" v="Ynshagen" />
		<tag k="place" v="farm" />
		<tag k="ssr:stedsnr" v="237049" />
	</node>
	<node lat="60.09738055994464" lon="11.479508340056654" id="-15939">
		<tag k="name" v="Grueberget" />
		<tag k="place" v="farm" />
		<tag k="ssr:stedsnr" v="40683" />
	</node>
	<node lat="60.17966389253892" lon="11.371286104619296" id="-15942">
		<tag k="alt_name" v="Nordby søndre" />
		<tag k="name" v="Søndre Nordby" />
		<tag k="place" v="farm" />
		<tag k="ssr:stedsnr" v="237154" />
	</node>
	<node lat="60.14217500185613" lon="11.337044450470039" id="-15943">
		<tag k="name" v="Frøystad" />
		<tag k="place" v="farm" />
		<tag k="ssr:stedsnr" v="41214" />
	</node>
	<node lat="60.182888887601024" lon="11.314777783576298" id="-15944">
		<tag k="name" v="Puttholtet" />
		<tag k="place" v="farm" />
		<tag k="ssr:stedsnr" v="237163" />
	</node>
	<node lat="60.13366388821433" lon="11.518566670604208" id="-15945">
		<tag k="name" v="Skjønhaug" />
		<tag k="place" v="farm" />
		<tag k="ssr:stedsnr" v="41313" />
	</node>
	<node lat="60.10489721800281" lon="11.359194453033815" id="-15948">
		<tag k="name" v="Nymoen" />
		<tag k="place" v="farm" />
		<tag k="ssr:stedsnr" v="41514" />
	</node>
	<node lat="60.04295277945355" lon="11.36215554675738" id="-15953">
		<tag k="name" v="Grøndalen" />
		<tag k="place" v="farm" />
		<tag k="ssr:stedsnr" v="41833" />
	</node>
	<node lat="60.03346388588544" lon="11.46218333209133" id="-15954">
		<tag k="name" v="Nordfallet" />
		<tag k="place" v="farm" />
		<tag k="ssr:stedsnr" v="41838" />
	</node>
	<node lat="60.03256388701114" lon="11.352883338688333" id="-15955">
		<tag k="name" v="Nerby" />
		<tag k="place" v="farm" />
		<tag k="ssr:stedsnr" v="41843" />
	</node>
	<node lat="60.16153500719366" lon="11.423232306463996" id="-15960">
		<tag k="name" v="Rommen" />
		<tag k="place" v="farm" />
		<tag k="ssr:stedsnr" v="237555" />
	</node>
	<node lat="60.20095555176519" lon="11.451069444310525" id="-15961">
		<tag k="name" v="Hjellum" />
		<tag k="place" v="farm" />
		<tag k="ssr:stedsnr" v="237641" />
	</node>
	<node lat="60.11190555725793" lon="11.53315555911861" id="-15968">
		<tag k="name" v="Nybråten" />
		<tag k="place" v="farm" />
		<tag k="ssr:stedsnr" v="238016" />
	</node>
	<node lat="60.12861666979699" lon="11.50190278485162" id="-15969">
		<tag k="alt_name" v="Hunstad øvre;Øvre Hunstad" />
		<tag k="name" v="Øvre Hundstad" />
		<tag k="place" v="farm" />
		<tag k="ssr:stedsnr" v="238017" />
	</node>
	<node lat="60.1677138925777" lon="11.505597214888319" id="-15970">
		<tag k="name" v="Frognerstrand camping" />
		<tag k="ssr:stedsnr" v="237948" />
		<tag k="tourism" v="camp_site" />
	</node>
	<node lat="60.23179999634896" lon="11.513252770861968" id="-15973">
		<tag k="name" v="Haugen" />
		<tag k="place" v="farm" />
		<tag k="ssr:stedsnr" v="237973" />
	</node>
	<node lat="60.0156933997326" lon="11.758435397091283" id="-15974">
		<tag k="alt_name" v="Øvre Rakeidet" />
		<tag k="loc_name" v="Gammelrakkeid" />
		<tag k="name" v="Øvre Rakei" />
		<tag k="place" v="locality" />
		<tag k="ssr:stedsnr" v="237975" />
	</node>
	<node lat="60.22737777790101" lon="11.28708888172006" id="-15976">
		<tag k="name" v="Bjørnlihytta" />
		<tag k="place" v="isolated_dwelling" />
		<tag k="ssr:stedsnr" v="238056" />
	</node>
	<node lat="60.15403333197858" lon="11.488316673903407" id="-15981">
		<tag k="name" v="Gangnes" />
		<tag k="place" v="farm" />
		<tag k="ssr:stedsnr" v="238137" />
	</node>
	<node lat="60.1602416680255" lon="11.340561108800102" id="-15991">
		<tag k="name" v="Grenimosen" />
		<tag k="place" v="isolated_dwelling" />
		<tag k="ssr:stedsnr" v="238526" />
	</node>
	<node lat="60.32366388505596" lon="11.441444446611476" id="-15997">
		<tag k="name" v="Vågstadsetra" />
		<tag k="place" v="locality" />
		<tag k="ssr:stedsnr" v="238754" />
	</node>
	<node lat="60.0987166624271" lon="11.58203056099926" id="-16001">
		<tag k="name" v="Sagstuberget" />
		<tag k="place" v="farm" />
		<tag k="ssr:stedsnr" v="238992" />
	</node>
	<node lat="60.1011527755198" lon="11.581880555886716" id="-16002">
		<tag k="name" v="Stenberg" />
		<tag k="place" v="farm" />
		<tag k="ssr:stedsnr" v="238995" />
	</node>
	<node lat="60.243005559819004" lon="11.574972218981715" id="-16004">
		<tag k="name" v="Vibekken" />
		<tag k="place" v="farm" />
		<tag k="ssr:stedsnr" v="238940" />
	</node>
	<node lat="60.09519444590647" lon="11.656394441714676" id="-16006">
		<tag k="name" v="Knausen" />
		<tag k="place" v="isolated_dwelling" />
		<tag k="ssr:stedsnr" v="238944" />
	</node>
	<node lat="60.09051111424829" lon="11.611911116283634" id="-16008">
		<tag k="name" v="Hellåsen" />
		<tag k="place" v="isolated_dwelling" />
		<tag k="ssr:stedsnr" v="238965" />
	</node>
	<node lat="60.21135833381167" lon="11.42465832785838" id="-16012">
		<tag k="name" v="Kvernhaugen" />
		<tag k="place" v="farm" />
		<tag k="ssr:stedsnr" v="55568" />
	</node>
	<node lat="60.26318333486594" lon="11.458833335103092" id="-16013">
		<tag k="name" v="Gunnerud" />
		<tag k="place" v="isolated_dwelling" />
		<tag k="ssr:stedsnr" v="55906" />
	</node>
	<node lat="60.06167500297439" lon="11.312855556206488" id="-16029">
		<tag k="name" v="Sørli" />
		<tag k="place" v="farm" />
		<tag k="ssr:stedsnr" v="66005" />
	</node>
	<node lat="60.06425548073132" lon="11.347421441774946" id="-16030">
		<tag k="fixme" v="consider place=hamlet" />
		<tag k="name" v="Flakstad" />
		<tag k="place" v="farm" />
		<tag k="ssr:stedsnr" v="66007" />
	</node>
	<node lat="60.060219442530475" lon="11.411813887109123" id="-16031">
		<tag k="name" v="Lier" />
		<tag k="place" v="farm" />
		<tag k="ssr:stedsnr" v="66013" />
	</node>
	<node lat="60.055625000502666" lon="11.410038881006097" id="-16032">
		<tag k="name" v="Ringstad" />
		<tag k="place" v="farm" />
		<tag k="ssr:stedsnr" v="66015" />
	</node>
	<node lat="60.04682577680638" lon="11.33380739115379" id="-16033">
		<tag k="name" v="Rånås" />
		<tag k="place" v="farm" />
		<tag k="ssr:stedsnr" v="66020" />
	</node>
	<node lat="60.122969440451925" lon="11.404325006281418" id="-16034">
		<tag k="name" v="Rønning" />
		<tag k="place" v="farm" />
		<tag k="ssr:stedsnr" v="66105" />
	</node>
	<node lat="60.2296784379408" lon="11.321918182398676" id="-16035">
		<tag k="fixme" v="consider place=hamlet" />
		<tag k="name" v="Våler" />
		<tag k="place" v="farm" />
		<tag k="ssr:stedsnr" v="66318" />
	</node>
	<node lat="60.175691669353576" lon="11.448805561259817" id="-16036">
		<tag k="name" v="Bjørknes" />
		<tag k="place" v="locality" />
		<tag k="ssr:stedsnr" v="66213" />
	</node>
	<node lat="60.18689444156623" lon="11.328494441836233" id="-16037">
		<tag k="name" v="Vangen" />
		<tag k="place" v="farm" />
		<tag k="ssr:stedsnr" v="66217" />
	</node>
	<node lat="60.19225000093404" lon="11.451627772632046" id="-16038">
		<tag k="name" v="Fagereng" />
		<tag k="place" v="farm" />
		<tag k="ssr:stedsnr" v="66224" />
	</node>
	<node lat="60.19488562146662" lon="11.411450604598956" id="-16039">
		<tag k="fixme" v="consider place=hamlet" />
		<tag k="name" v="Veset" />
		<tag k="place" v="farm" />
		<tag k="ssr:stedsnr" v="66252" />
	</node>
	<node lat="60.229575002344596" lon="11.403555555005525" id="-16040">
		<tag k="alt_name" v="Sydtangen" />
		<tag k="name" v="Sørtangen" />
		<tag k="place" v="farm" />
		<tag k="ssr:stedsnr" v="66300" />
	</node>
	<node lat="60.09143610792673" lon="11.515083327556104" id="-16043">
		<tag k="fixme" v="consider tourism=alpine_hut or tourism=chalet" />
		<tag k="name" v="Dragsjøhytta" />
		<tag k="ssr:stedsnr" v="66724" />
		<tag k="tourism" v="wilderness_hut" />
	</node>
	<node lat="60.12311944331101" lon="11.619358328558283" id="-16047">
		<tag k="name" v="Sjøhaugen" />
		<tag k="place" v="isolated_dwelling" />
		<tag k="ssr:stedsnr" v="66677" />
	</node>
	<node lat="60.33291944101896" lon="11.412674992498758" id="-16048">
		<tag k="name" v="Utsjøen" />
		<tag k="place" v="isolated_dwelling" />
		<tag k="ssr:stedsnr" v="67117" />
	</node>
	<node lat="60.02695277590746" lon="11.407038883457188" id="-16049">
		<tag k="name" v="Vestby" />
		<tag k="place" v="farm" />
		<tag k="ssr:stedsnr" v="66875" />
	</node>
	<node lat="60.2078222231263" lon="11.333483332237538" id="-16051">
		<tag k="fixme" v="consider place=suburb, village or hamlet" />
		<tag k="name" v="Brårud" />
		<tag k="place" v="quarter" />
		<tag k="ssr:stedsnr" v="86490" />
	</node>
	<node lat="60.21505278135455" lon="11.399947221745753" id="-16052">
		<tag k="alt_name" v="Jerpstad" />
		<tag k="amenity" v="school" />
		<tag k="name" v="Jerpstad skole" />
		<tag k="ssr:stedsnr" v="97305" />
	</node>
	<node lat="60.101544441782096" lon="11.362174995851172" id="-16054">
		<tag k="name" v="Maurdal" />
		<tag k="place" v="farm" />
		<tag k="ssr:stedsnr" v="248116" />
	</node>
	<node lat="60.10106111350607" lon="11.410086108926041" id="-16055">
		<tag k="name" v="Veststrøm" />
		<tag k="place" v="locality" />
		<tag k="ssr:stedsnr" v="248120" />
	</node>
	<node lat="60.13785277785627" lon="11.403394446430896" id="-16056">
		<tag k="name" v="Kverner" />
		<tag k="place" v="farm" />
		<tag k="ssr:stedsnr" v="248132" />
	</node>
	<node lat="60.170636112430984" lon="11.361452779812257" id="-16058">
		<tag k="name" v="Døli" />
		<tag k="place" v="isolated_dwelling" />
		<tag k="ssr:stedsnr" v="248193" />
	</node>
	<node lat="60.132538886792304" lon="11.363008334194895" id="-16059">
		<tag k="name" v="Steinsmo" />
		<tag k="place" v="farm" />
		<tag k="ssr:stedsnr" v="248146" />
	</node>
	<node lat="60.13104721791374" lon="11.35678333236072" id="-16060">
		<tag k="name" v="Delerud" />
		<tag k="place" v="farm" />
		<tag k="ssr:stedsnr" v="248147" />
	</node>
	<node lat="60.128372224560174" lon="11.426741670746502" id="-16061">
		<tag k="name" v="Tomter" />
		<tag k="place" v="farm" />
		<tag k="ssr:stedsnr" v="248150" />
	</node>
	<node lat="60.15698206551066" lon="11.422396601939974" id="-16062">
		<tag k="name" v="Vormsund" />
		<tag k="place" v="hamlet" />
		<tag k="ssr:stedsnr" v="248200" />
	</node>
	<node lat="60.22196110734801" lon="11.401336105491815" id="-16063">
		<tag k="name" v="Haugen" />
		<tag k="place" v="isolated_dwelling" />
		<tag k="ssr:stedsnr" v="248272" />
	</node>
	<node lat="60.20832777576887" lon="11.334038881550482" id="-16064">
		<tag k="name" v="Bråten" />
		<tag k="place" v="farm" />
		<tag k="ssr:stedsnr" v="248276" />
	</node>
	<node lat="60.190088891917554" lon="11.455797223691867" id="-16065">
		<tag k="name" v="Sundbyhagen" />
		<tag k="place" v="farm" />
		<tag k="ssr:stedsnr" v="248235" />
	</node>
	<node lat="60.012764122627054" lon="11.3973064457525" id="-16066">
		<tag k="fixme" v="consider place=hamlet" />
		<tag k="name" v="Huser" />
		<tag k="place" v="farm" />
		<tag k="ssr:stedsnr" v="248284" />
	</node>
	<node lat="60.1615527780694" lon="11.381405548564064" id="-16068">
		<tag k="alt_name" v="Finstad søgarn" />
		<tag k="name" v="Søgarden Finstad" />
		<tag k="place" v="farm" />
		<tag k="ssr:stedsnr" v="101262" />
	</node>
	<node lat="60.01486101953019" lon="11.761344294822248" id="-16071">
		<tag k="loc_name" v="Sørakkeid" />
		<tag k="name" v="Søndre Rakeie" />
		<tag k="old_name" v="Rakeie S" />
		<tag k="place" v="farm" />
		<tag k="ssr:stedsnr" v="248585" />
	</node>
	<node lat="60.09469444366429" lon="11.46847778492577" id="-16073">
		<tag k="name" v="Inngjerdinga" />
		<tag k="place" v="farm" />
		<tag k="ssr:stedsnr" v="101687" />
	</node>
	<node lat="60.053774996634424" lon="11.371750008201136" id="-16079">
		<tag k="name" v="Ringnes" />
		<tag k="place" v="isolated_dwelling" />
		<tag k="ssr:stedsnr" v="102223" />
	</node>
	<node lat="60.10370277673231" lon="11.501072215992611" id="-16081">
		<tag k="name" v="Høyby" />
		<tag k="place" v="quarter" />
		<tag k="ssr:stedsnr" v="248736" />
	</node>
	<node lat="60.10344444500299" lon="11.617058328853846" id="-16083">
		<tag k="alt_name" v="Høgåsseter" />
		<tag k="name" v="Høgåssæter" />
		<tag k="place" v="farm" />
		<tag k="ssr:stedsnr" v="248745" />
	</node>
	<node lat="60.172941668347306" lon="11.56194722024718" id="-16099">
		<tag k="alt_name" v="Sundsted" />
		<tag k="name" v="Sundet" />
		<tag k="place" v="isolated_dwelling" />
		<tag k="ssr:stedsnr" v="248872" />
	</node>
	<node lat="60.03012222645925" lon="11.329894437012735" id="-16100">
		<tag k="name" v="Rånåsfoss" />
		<tag k="place" v="village" />
		<tag k="ssr:stedsnr" v="248894" />
	</node>
	<node lat="60.23791102457602" lon="11.560101828606504" id="-16101">
		<tag k="name" v="Høyby" />
		<tag k="place" v="farm" />
		<tag k="ssr:stedsnr" v="248978" />
	</node>
	<node lat="60.279466266363535" lon="11.332887862677255" id="-16102">
		<tag k="name" v="Morstad" />
		<tag k="place" v="locality" />
		<tag k="ssr:stedsnr" v="249164" />
	</node>
	<node lat="60.285072223824876" lon="11.370069447679043" id="-16105">
		<tag k="name" v="Lisvangen" />
		<tag k="place" v="locality" />
		<tag k="ssr:stedsnr" v="249175" />
	</node>
	<node lat="60.2637388926384" lon="11.330874992980146" id="-16106">
		<tag k="name" v="Melby" />
		<tag k="place" v="farm" />
		<tag k="ssr:stedsnr" v="249184" />
	</node>
	<node lat="60.25559999914929" lon="11.506769449480714" id="-16108">
		<tag k="name" v="Myra" />
		<tag k="place" v="farm" />
		<tag k="ssr:stedsnr" v="249525" />
	</node>
	<node lat="60.28241549814745" lon="11.481313109323336" id="-16110">
		<tag k="name" v="Fallet" />
		<tag k="place" v="locality" />
		<tag k="ssr:stedsnr" v="249543" />
	</node>
	<node lat="60.21345555234027" lon="11.523258328540498" id="-16124">
		<tag k="name" v="Verkstaden" />
		<tag k="place" v="farm" />
		<tag k="ssr:stedsnr" v="116523" />
	</node>
	<node lat="60.10268888962564" lon="11.506197213679082" id="-16126">
		<tag k="name" v="Nestenby" />
		<tag k="place" v="farm" />
		<tag k="ssr:stedsnr" v="116770" />
	</node>
	<node lat="60.19426111018665" lon="11.5720527736203" id="-16128">
		<tag k="name" v="Glommenstrand" />
		<tag k="place" v="farm" />
		<tag k="ssr:stedsnr" v="116917" />
	</node>
	<node lat="60.17477782636708" lon="11.48763941385088" id="-16131">
		<tag k="alt_name" v="Skogerengen" />
		<tag k="fixme" v="consider place=hamlet" />
		<tag k="loc_name" v="Skauerenga" />
		<tag k="name" v="Skogerenga" />
		<tag k="old_name" v="Skouerengen" />
		<tag k="place" v="farm" />
		<tag k="ssr:stedsnr" v="116928" />
	</node>
	<node lat="60.23970833309693" lon="11.508294440574225" id="-16136">
		<tag k="name" v="Norum" />
		<tag k="place" v="farm" />
		<tag k="ssr:stedsnr" v="116825" />
	</node>
	<node lat="60.22170470474385" lon="11.380279137245935" id="-16137">
		<tag k="name" v="Myrhaug" />
		<tag k="place" v="farm" />
		<tag k="ssr:stedsnr" v="117106" />
	</node>
	<node lat="60.123341670043224" lon="11.351063895440262" id="-16144">
		<tag k="name" v="Øymo" />
		<tag k="place" v="farm" />
		<tag k="ssr:stedsnr" v="126138" />
	</node>
	<node lat="60.06715597091685" lon="11.42910315062455" id="-16145">
		<tag k="fixme" v="consider place=hamlet" />
		<tag k="name" v="Bråten" />
		<tag k="place" v="farm" />
		<tag k="ssr:stedsnr" v="126056" />
	</node>
	<node lat="60.18393784126104" lon="11.445152372244847" id="-16146">
		<tag k="fixme" v="consider place=hamlet" />
		<tag k="name" v="Bjørke" />
		<tag k="place" v="farm" />
		<tag k="ssr:stedsnr" v="126215" />
	</node>
	<node lat="60.18122499992618" lon="11.461875002789718" id="-16147">
		<tag k="name" v="Lundeby" />
		<tag k="place" v="farm" />
		<tag k="ssr:stedsnr" v="126216" />
	</node>
	<node lat="60.17086847532745" lon="11.425545815155282" id="-16148">
		<tag k="alt_name" v="Nordre Arnestad" />
		<tag k="name" v="Arnestad" />
		<tag k="place" v="farm" />
		<tag k="ssr:stedsnr" v="126224" />
	</node>
	<node lat="60.174564300222855" lon="11.453315464229458" id="-16149">
		<tag k="fixme" v="consider place=hamlet" />
		<tag k="name" v="Katterud" />
		<tag k="place" v="farm" />
		<tag k="ssr:stedsnr" v="126227" />
	</node>
	<node lat="60.17420555392409" lon="11.44537500636351" id="-16150">
		<tag k="name" v="Kårud" />
		<tag k="place" v="farm" />
		<tag k="ssr:stedsnr" v="126228" />
	</node>
	<node lat="60.17145833167397" lon="11.463491664327666" id="-16151">
		<tag k="fixme" v="multiple name tags, choose one and add the other to alt_name" />
		<tag k="name" v="Haugen;Prestilangshaugen" />
		<tag k="place" v="farm" />
		<tag k="ssr:stedsnr" v="126194" />
	</node>
	<node lat="60.239432258457775" lon="11.310685857647895" id="-16152">
		<tag k="alt_name" v="Sandaker" />
		<tag k="name" v="Sandåker" />
		<tag k="old_name" v="Sandaaker" />
		<tag k="place" v="hamlet" />
		<tag k="ssr:stedsnr" v="126310" />
	</node>
	<node lat="60.21450555347138" lon="11.376905554567015" id="-16154">
		<tag k="alt_name" v="Linset;Kjøssveen" />
		<tag k="name" v="Lindset" />
		<tag k="place" v="farm" />
		<tag k="ssr:stedsnr" v="126294" />
	</node>
	<node lat="60.195388888475115" lon="11.569488895481504" id="-16156">
		<tag k="name" v="Løkkevoll" />
		<tag k="place" v="farm" />
		<tag k="ssr:stedsnr" v="126759" />
	</node>
	<node lat="60.206950000544836" lon="11.497686106507357" id="-16157">
		<tag k="alt_name" v="Grenistua" />
		<tag k="fixme" v="multiple name tags, choose one and add the other to alt_name" />
		<tag k="name" v="Grenistuene;Kolby" />
		<tag k="place" v="farm" />
		<tag k="ssr:stedsnr" v="126770" />
	</node>
	<node lat="60.135436112240384" lon="11.506022215759685" id="-16158">
		<tag k="name" v="Bråten" />
		<tag k="place" v="farm" />
		<tag k="ssr:stedsnr" v="126651" />
	</node>
	<node lat="60.192619445608365" lon="11.558122223365416" id="-16159">
		<tag k="alt_name" v="Bjerkerud" />
		<tag k="name" v="Bjørkerud" />
		<tag k="place" v="farm" />
		<tag k="ssr:stedsnr" v="126823" />
	</node>
	<node lat="60.046049997377835" lon="11.317580560605672" id="-16160">
		<tag k="name" v="Frydensborg" />
		<tag k="place" v="farm" />
		<tag k="ssr:stedsnr" v="126892" />
	</node>
	<node lat="60.03778333147022" lon="11.332102769204301" id="-16161">
		<tag k="name" v="Simarud" />
		<tag k="place" v="farm" />
		<tag k="ssr:stedsnr" v="126894" />
	</node>
	<node lat="60.03936667070488" lon="11.38080833039441" id="-16162">
		<tag k="name" v="Aulienga" />
		<tag k="place" v="farm" />
		<tag k="ssr:stedsnr" v="126898" />
	</node>
	<node lat="60.218094444712115" lon="11.412188892405567" id="-16163">
		<tag k="name" v="Tranum" />
		<tag k="place" v="farm" />
		<tag k="ssr:stedsnr" v="127311" />
	</node>
	<node lat="60.19571110959407" lon="11.33835555891958" id="-16164">
		<tag k="alt_name" v="Fålås" />
		<tag k="name" v="Follås" />
		<tag k="place" v="farm" />
		<tag k="ssr:stedsnr" v="127291" />
	</node>
	<node lat="60.275625003799064" lon="11.518713881304716" id="-16165">
		<tag k="name" v="Målerud" />
		<tag k="place" v="isolated_dwelling" />
		<tag k="ssr:stedsnr" v="127606" />
	</node>
	<node lat="60.044219442886295" lon="11.695044443489744" id="-16166">
		<tag k="alt_name" v="Grueseter" />
		<tag k="historic" v="shieling" />
		<tag k="name" v="Gruesætra" />
		<tag k="place" v="isolated_dwelling" />
		<tag k="ssr:stedsnr" v="127607" />
	</node>
	<node lat="60.043019446419535" lon="11.76045554923728" id="-16168">
		<tag k="alt_name" v="Skøyensætra" />
		<tag k="name" v="Skøyensetra" />
		<tag k="place" v="farm" />
		<tag k="ssr:stedsnr" v="127613" />
	</node>
	<node lat="60.271687452947546" lon="11.507782077184391" id="-16170">
		<tag k="name" v="Vangen" />
		<tag k="place" v="locality" />
		<tag k="ssr:stedsnr" v="127599" />
	</node>
	<node lat="60.225222127702544" lon="11.567226868784399" id="-16171">
		<tag k="name" v="Berger" />
		<tag k="place" v="farm" />
		<tag k="ssr:stedsnr" v="127803" />
	</node>
	<node lat="60.17037499592806" lon="11.566991665178382" id="-16172">
		<tag k="fixme" v="consider place=hamlet" />
		<tag k="name" v="Seterstøa" />
		<tag k="place" v="village" />
		<tag k="ssr:stedsnr" v="146711" />
	</node>
	<node lat="60.12529444044324" lon="11.618738887446057" id="-16173">
		<tag k="name" v="Ularhøy" />
		<tag k="place" v="farm" />
		<tag k="ssr:stedsnr" v="162103" />
	</node>
	<node lat="60.06198889057437" lon="11.339830553827724" id="-16175">
		<tag k="name" v="Store Hovsrud" />
		<tag k="place" v="farm" />
		<tag k="ssr:stedsnr" v="162167" />
	</node>
	<node lat="60.12144999910985" lon="11.540477778452448" id="-16183">
		<tag k="name" v="Solhaug" />
		<tag k="place" v="farm" />
		<tag k="ssr:stedsnr" v="162060" />
	</node>
	<node lat="60.064274907286524" lon="11.403951127961758" id="-16185">
		<tag k="name" v="Finnholt" />
		<tag k="place" v="farm" />
		<tag k="ssr:stedsnr" v="162071" />
	</node>
	<node lat="60.13384166339709" lon="11.377747220168525" id="-16186">
		<tag k="name" v="Granmo" />
		<tag k="place" v="farm" />
		<tag k="ssr:stedsnr" v="162206" />
	</node>
	<node lat="60.06314517173248" lon="11.429480276238792" id="-16188">
		<tag k="alt_name" v="Søndre Finnholt" />
		<tag k="name" v="Bygningen" />
		<tag k="place" v="locality" />
		<tag k="ssr:stedsnr" v="162258" />
	</node>
	<node lat="60.150547226011156" lon="11.496975001188126" id="-16189">
		<tag k="name" v="Husmo" />
		<tag k="place" v="farm" />
		<tag k="ssr:stedsnr" v="162352" />
	</node>
	<node lat="60.09203055177432" lon="11.355416657761351" id="-16191">
		<tag k="name" v="Bergsbråten" />
		<tag k="place" v="farm" />
		<tag k="ssr:stedsnr" v="162556" />
	</node>
	<node lat="60.09705277449522" lon="11.396391675239236" id="-16192">
		<tag k="name" v="Myra" />
		<tag k="place" v="farm" />
		<tag k="ssr:stedsnr" v="162569" />
	</node>
	<node lat="60.11030277880558" lon="11.434247217728911" id="-16193">
		<tag k="name" v="Søndre Fyri" />
		<tag k="place" v="farm" />
		<tag k="ssr:stedsnr" v="162705" />
	</node>
	<node lat="60.10363521438274" lon="11.414593537996536" id="-16194">
		<tag k="alt_name" v="Veslestrøm" />
		<tag k="name" v="Vesle-Strøm" />
		<tag k="old_name" v="Lille Strøm" />
		<tag k="place" v="farm" />
		<tag k="ssr:stedsnr" v="162710" />
	</node>
	<node lat="60.02478077161613" lon="11.764203533152948" id="-16205">
		<tag k="alt_name" v="Nedre Rakeide;Nedre Rakkeiet;Nedre Rakeie" />
		<tag k="loc_name" v="Nedre Rakkeid" />
		<tag k="name" v="Nedre Rakei" />
		<tag k="place" v="farm" />
		<tag k="ssr:stedsnr" v="175969" />
	</node>
	<node lat="60.22296111257821" lon="11.345988885325752" id="-16206">
		<tag k="name" v="Elverhøy" />
		<tag k="place" v="farm" />
		<tag k="ssr:stedsnr" v="177002" />
	</node>
	<node lat="60.110013888958164" lon="11.53299166589718" id="-16207">
		<tag k="name" v="Nygård" />
		<tag k="place" v="farm" />
		<tag k="ssr:stedsnr" v="177017" />
	</node>
	<node lat="60.122205558032" lon="11.525341671421737" id="-16208">
		<tag k="name" v="Furuset" />
		<tag k="place" v="farm" />
		<tag k="ssr:stedsnr" v="177023" />
	</node>
	<node lat="60.22633611443097" lon="11.402847217956205" id="-16211">
		<tag k="name" v="Svenskerud" />
		<tag k="place" v="farm" />
		<tag k="ssr:stedsnr" v="177126" />
	</node>
	<node lat="60.225711112851606" lon="11.572188887763781" id="-16212">
		<tag k="name" v="Inngjær" />
		<tag k="place" v="farm" />
		<tag k="ssr:stedsnr" v="177054" />
	</node>
	<node lat="60.16244999983703" lon="11.453749991345205" id="-16217">
		<tag k="name" v="Myrvoll" />
		<tag k="place" v="farm" />
		<tag k="ssr:stedsnr" v="177311" />
	</node>
	<node lat="60.11538888601876" lon="11.353719439520797" id="-16223">
		<tag k="name" v="Gravdal" />
		<tag k="place" v="farm" />
		<tag k="ssr:stedsnr" v="177610" />
	</node>
	<node lat="60.29893888768276" lon="11.465447218567641" id="-16224">
		<tag k="name" v="Ilangsvangen" />
		<tag k="place" v="locality" />
		<tag k="ssr:stedsnr" v="177611" />
	</node>
	<node lat="60.20512778217837" lon="11.446074995724919" id="-16226">
		<tag k="name" v="Furuli" />
		<tag k="place" v="isolated_dwelling" />
		<tag k="ssr:stedsnr" v="177655" />
	</node>
	<node lat="60.21476110942071" lon="11.381744447205506" id="-16229">
		<tag k="name" v="Solhøy" />
		<tag k="old_name" v="Solhøi" />
		<tag k="place" v="farm" />
		<tag k="ssr:stedsnr" v="177709" />
	</node>
	<node lat="60.236318814440196" lon="11.510118182401945" id="-16235">
		<tag k="fixme" v="consider place=hamlet" />
		<tag k="name" v="Ingeborgrud" />
		<tag k="place" v="farm" />
		<tag k="ssr:stedsnr" v="177961" />
	</node>
	<node lat="60.112843235459344" lon="11.463573401755049" id="-16238">
		<tag k="fixme" v="consider place=hamlet" />
		<tag k="name" v="Fjuk" />
		<tag k="place" v="farm" />
		<tag k="ssr:stedsnr" v="187107" />
	</node>
	<node lat="60.12752221944575" lon="11.31771111661061" id="-16239">
		<tag k="name" v="Hønsedalen" />
		<tag k="place" v="farm" />
		<tag k="ssr:stedsnr" v="187131" />
	</node>
	<node lat="60.086349999509544" lon="11.453461105083457" id="-16240">
		<tag k="name" v="Sørli" />
		<tag k="place" v="isolated_dwelling" />
		<tag k="ssr:stedsnr" v="187025" />
	</node>
	<node lat="60.07427454615443" lon="11.412764263067784" id="-16241">
		<tag k="fixme" v="consider place=hamlet" />
		<tag k="name" v="Stubberud" />
		<tag k="place" v="farm" />
		<tag k="ssr:stedsnr" v="187033" />
	</node>
	<node lat="60.0788250041157" lon="11.451811104755523" id="-16242">
		<tag k="name" v="Trasopp" />
		<tag k="place" v="farm" />
		<tag k="ssr:stedsnr" v="187035" />
	</node>
	<node lat="60.08029245798145" lon="11.416061335157053" id="-16243">
		<tag k="alt_name" v="Klodsbodding" />
		<tag k="fixme" v="consider place=hamlet" />
		<tag k="name" v="Klodsbodung" />
		<tag k="place" v="farm" />
		<tag k="ssr:stedsnr" v="187083" />
	</node>
	<node lat="60.17948205136115" lon="11.409068924074566" id="-16245">
		<tag k="fixme" v="consider place=hamlet" />
		<tag k="name" v="Esval" />
		<tag k="place" v="farm" />
		<tag k="ssr:stedsnr" v="187230" />
	</node>
	<node lat="60.223922226052615" lon="11.4055972302539" id="-16246">
		<tag k="name" v="Grindertangen" />
		<tag k="place" v="farm" />
		<tag k="ssr:stedsnr" v="187276" />
	</node>
	<node lat="60.20997650839272" lon="11.38037949452146" id="-16247">
		<tag k="name" v="Fenstad" />
		<tag k="place" v="hamlet" />
		<tag k="ssr:stedsnr" v="187289" />
	</node>
	<node lat="60.21041598294452" lon="11.393773081379349" id="-16248">
		<tag k="alt_name" v="Jerpstad" />
		<tag k="fixme" v="consider place=hamlet" />
		<tag k="name" v="Jerpestad" />
		<tag k="place" v="farm" />
		<tag k="ssr:stedsnr" v="187290" />
	</node>
	<node lat="60.21123101453166" lon="11.354759659356251" id="-16249">
		<tag k="alt_name" v="Nordre Fosserud med Svindal;Fosserud med Svindal" />
		<tag k="fixme" v="consider place=hamlet" />
		<tag k="name" v="Fosserud" />
		<tag k="place" v="farm" />
		<tag k="ssr:stedsnr" v="187291" />
	</node>
	<node lat="60.22938887805783" lon="11.361115231350906" id="-16250">
		<tag k="fixme" v="consider place=hamlet" />
		<tag k="name" v="Hovin" />
		<tag k="place" v="farm" />
		<tag k="ssr:stedsnr" v="187293" />
	</node>
	<node lat="60.07324722425859" lon="11.63574999904889" id="-16253">
		<tag k="name" v="Sagbakken" />
		<tag k="place" v="farm" />
		<tag k="ssr:stedsnr" v="187474" />
	</node>
	<node lat="60.06065555414225" lon="11.660677783287209" id="-16256">
		<tag k="name" v="Kaffeholmen" />
		<tag k="place" v="farm" />
		<tag k="ssr:stedsnr" v="187488" />
	</node>
	<node lat="60.14210277420923" lon="11.481705557671864" id="-16257">
		<tag k="name" v="Inngjerd" />
		<tag k="place" v="farm" />
		<tag k="ssr:stedsnr" v="187606" />
	</node>
	<node lat="60.148938036615895" lon="11.476200571559687" id="-16258">
		<tag k="name" v="Husmo" />
		<tag k="place" v="hamlet" />
		<tag k="ssr:stedsnr" v="187608" />
	</node>
	<node lat="60.13115277341463" lon="11.489841665487305" id="-16259">
		<tag k="name" v="Flatby" />
		<tag k="place" v="farm" />
		<tag k="ssr:stedsnr" v="187637" />
	</node>
	<node lat="60.19302060054224" lon="11.468287859747564" id="-16262">
		<tag k="name" v="Sundby" />
		<tag k="place" v="hamlet" />
		<tag k="ssr:stedsnr" v="187817" />
	</node>
	<node lat="60.210005852531104" lon="11.540495724643726" id="-16264">
		<tag k="fixme" v="consider place=hamlet" />
		<tag k="name" v="Ås" />
		<tag k="place" v="farm" />
		<tag k="ssr:stedsnr" v="187781" />
	</node>
	<node lat="60.01813896797081" lon="11.407557067379372" id="-16265">
		<tag k="fixme" v="consider place=hamlet" />
		<tag k="name" v="Foss" />
		<tag k="place" v="farm" />
		<tag k="ssr:stedsnr" v="187916" />
	</node>
	<node lat="60.24851666870222" lon="11.582597230849846" id="-16266">
		<tag k="alt_name" v="Husås" />
		<tag k="name" v="Husåsen" />
		<tag k="old_name" v="Togstad" />
		<tag k="place" v="farm" />
		<tag k="ssr:stedsnr" v="187928" />
	</node>
	<node lat="60.15138889017764" lon="11.353730547081055" id="-16269">
		<tag k="name" v="Åsum" />
		<tag k="place" v="farm" />
		<tag k="ssr:stedsnr" v="188196" />
	</node>
	<node lat="60.20443333481738" lon="11.406424995089742" id="-16271">
		<tag k="name" v="Kampå" />
		<tag k="place" v="isolated_dwelling" />
		<tag k="ssr:stedsnr" v="188303" />
	</node>
	<node lat="60.01363888766814" lon="11.702352773901227" id="-16272">
		<tag k="name" v="Skillinghaug" />
		<tag k="place" v="farm" />
		<tag k="ssr:stedsnr" v="188614" />
	</node>
	<node lat="60.25699166231231" lon="11.484075001516535" id="-16274">
		<tag k="alt_name" v="Oppsalsætra" />
		<tag k="name" v="Oppsalsetra" />
		<tag k="place" v="farm" />
		<tag k="ssr:stedsnr" v="188572" />
	</node>
	<node lat="60.25336111244722" lon="11.59711389118136" id="-16277">
		<tag k="name" v="Mjølkerud" />
		<tag k="place" v="farm" />
		<tag k="ssr:stedsnr" v="188648" />
	</node>
	<node lat="60.25309167128954" lon="11.549499991493601" id="-16278">
		<tag k="name" v="Lia" />
		<tag k="place" v="farm" />
		<tag k="ssr:stedsnr" v="188649" />
	</node>
	<node lat="60.22454722651789" lon="11.510602784245922" id="-16279">
		<tag k="name" v="Åland" />
		<tag k="place" v="farm" />
		<tag k="ssr:stedsnr" v="188805" />
	</node>
	<node lat="60.230127773941774" lon="11.487833328840875" id="-16280">
		<tag k="name" v="Heimdal" />
		<tag k="place" v="farm" />
		<tag k="ssr:stedsnr" v="188806" />
	</node>
	<node lat="60.17006110953203" lon="11.567363896852482" id="-16281">
		<tag k="name" v="Munkelia" />
		<tag k="place" v="farm" />
		<tag k="ssr:stedsnr" v="188867" />
	</node>
	<node lat="60.16956834954615" lon="11.486553040289534" id="-16282">
		<tag k="fixme" v="consider place=hamlet" />
		<tag k="name" v="Oppåker" />
		<tag k="old_name" v="Oppaaker" />
		<tag k="place" v="farm" />
		<tag k="ssr:stedsnr" v="188872" />
	</node>
	<node lat="60.173831608768566" lon="11.558404452375502" id="-16283">
		<tag k="fixme" v="consider place=hamlet" />
		<tag k="name" v="Bjertnes" />
		<tag k="place" v="farm" />
		<tag k="ssr:stedsnr" v="188874" />
	</node>
	<node lat="60.136544449001" lon="11.419880549240712" id="-16285">
		<tag k="name" v="Vågstadbråten" />
		<tag k="place" v="farm" />
		<tag k="ssr:stedsnr" v="202974" />
	</node>
	<node lat="60.10104722667986" lon="11.36962500279342" id="-16286">
		<tag k="name" v="Vesle Hvam" />
		<tag k="place" v="farm" />
		<tag k="ssr:stedsnr" v="207250" />
	</node>
	<node lat="60.08916666774361" lon="11.361794452975564" id="-16287">
		<tag k="name" v="Skredderstua" />
		<tag k="old_name" v="Skrædderstuen" />
		<tag k="place" v="farm" />
		<tag k="ssr:stedsnr" v="222272" />
	</node>
	<node lat="60.121386112631875" lon="11.623830564134307" id="-16289">
		<tag k="name" v="Steinvika" />
		<tag k="place" v="isolated_dwelling" />
		<tag k="ssr:stedsnr" v="223104" />
	</node>
	<node lat="60.120283336255554" lon="11.470647218896062" id="-16291">
		<tag k="name" v="Øvre Drognes" />
		<tag k="place" v="farm" />
		<tag k="ssr:stedsnr" v="223029" />
	</node>
	<node lat="60.08148610836215" lon="11.455586115258692" id="-16292">
		<tag k="name" v="Berglund" />
		<tag k="place" v="isolated_dwelling" />
		<tag k="ssr:stedsnr" v="223073" />
	</node>
	<node lat="60.13918888489225" lon="11.384111112541772" id="-16293">
		<tag k="name" v="Furuvoll" />
		<tag k="place" v="farm" />
		<tag k="ssr:stedsnr" v="223225" />
	</node>
	<node lat="60.16846111299651" lon="11.366350003266856" id="-16295">
		<tag k="alt_name" v="Greni søstun;Søndre Greni" />
		<tag k="name" v="Sørstua Greni" />
		<tag k="place" v="farm" />
		<tag k="ssr:stedsnr" v="223307" />
	</node>
	<node lat="60.155263889154426" lon="11.426472227045625" id="-16296">
		<tag k="name" v="Vormnes" />
		<tag k="place" v="farm" />
		<tag k="ssr:stedsnr" v="223327" />
	</node>
	<node lat="60.07309722269466" lon="11.368894450920731" id="-16300">
		<tag k="name" v="Sand" />
		<tag k="place" v="farm" />
		<tag k="ssr:stedsnr" v="223806" />
	</node>
	<node lat="60.1011253768915" lon="11.45486580239275" id="-16303">
		<tag k="fixme" v="consider place=hamlet" />
		<tag k="name" v="Bergsødegården" />
		<tag k="place" v="farm" />
		<tag k="ssr:stedsnr" v="223726" />
	</node>
	<node lat="60.097119443050005" lon="11.453980562652925" id="-16304">
		<tag k="name" v="Nyheim" />
		<tag k="place" v="farm" />
		<tag k="ssr:stedsnr" v="223727" />
	</node>
	<node lat="60.093477775116476" lon="11.461372224388272" id="-16306">
		<tag k="name" v="Søgård" />
		<tag k="place" v="farm" />
		<tag k="ssr:stedsnr" v="223738" />
	</node>
	<node lat="60.036199996089984" lon="11.8074388947051" id="-16307">
		<tag k="name" v="Rugbråtan" />
		<tag k="place" v="locality" />
		<tag k="ssr:stedsnr" v="223788" />
	</node>
	<node lat="60.10991944025218" lon="11.519541660940673" id="-16312">
		<tag k="alt_name" v="Ødegården" />
		<tag k="name" v="Ødegarden" />
		<tag k="place" v="farm" />
		<tag k="ssr:stedsnr" v="230631" />
	</node>
	<node lat="60.05918055124855" lon="11.687747227868753" id="-16315">
		<tag k="name" v="Bakkebo" />
		<tag k="place" v="isolated_dwelling" />
		<tag k="ssr:stedsnr" v="231935" />
	</node>
	<node lat="60.20957500409951" lon="11.436802778473783" id="-16317">
		<tag k="name" v="Fjellstad" />
		<tag k="place" v="farm" />
		<tag k="ssr:stedsnr" v="237597" />
	</node>
	<node lat="60.19105278021282" lon="11.561102776275337" id="-16319">
		<tag k="name" v="Grønlund" />
		<tag k="place" v="farm" />
		<tag k="ssr:stedsnr" v="237930" />
	</node>
	<node lat="60.19265277621158" lon="11.454130556549392" id="-16320">
		<tag k="name" v="Vestheim" />
		<tag k="place" v="farm" />
		<tag k="ssr:stedsnr" v="237931" />
	</node>
	<node lat="60.1231750040633" lon="11.523358324846328" id="-16321">
		<tag k="name" v="Østgarden skole" />
		<tag k="place" v="farm" />
		<tag k="ssr:stedsnr" v="238129" />
	</node>
	<node lat="60.27965277410335" lon="11.385686116487332" id="-16324">
		<tag k="name" v="Vika" />
		<tag k="place" v="isolated_dwelling" />
		<tag k="ssr:stedsnr" v="237899" />
	</node>
	<node lat="60.21656111262371" lon="11.514866667072" id="-16330">
		<tag k="name" v="Steinsrud" />
		<tag k="place" v="farm" />
		<tag k="ssr:stedsnr" v="238412" />
	</node>
	<node lat="60.117233337329594" lon="11.35456944718185" id="-16331">
		<tag k="name" v="Bunes" />
		<tag k="place" v="farm" />
		<tag k="ssr:stedsnr" v="238604" />
	</node>
	<node lat="60.20847499558644" lon="11.4626944516086" id="-16334">
		<tag k="name" v="Jegerbråten" />
		<tag k="place" v="farm" />
		<tag k="ssr:stedsnr" v="238634" />
	</node>
	<node lat="60.1794416640001" lon="11.51296389127965" id="-16337">
		<tag k="amenity" v="school" />
		<tag k="loc_name" v="Oppåker skole" />
		<tag k="name" v="Opaker skole" />
		<tag k="ssr:stedsnr" v="238911" />
	</node>
	<node lat="60.10858252456145" lon="11.375715781657894" id="-16339">
		<tag k="fixme" v="consider place=hamlet" />
		<tag k="name" v="Tomter" />
		<tag k="place" v="farm" />
		<tag k="ssr:stedsnr" v="239833" />
	</node>
	<node lat="60.051424863132354" lon="11.370816116708209" id="-16341">
		<tag k="fixme" v="consider place=hamlet" />
		<tag k="name" v="Elvenga" />
		<tag k="place" v="farm" />
		<tag k="ssr:stedsnr" v="248025" />
	</node>
	<node lat="60.09230277402629" lon="11.462311102778624" id="-16343">
		<tag k="alt_name" v="Kvennum" />
		<tag k="name" v="Kvennom" />
		<tag k="place" v="farm" />
		<tag k="ssr:stedsnr" v="248076" />
	</node>
	<node lat="60.11117983236984" lon="11.401956886652648" id="-16344">
		<tag k="name" v="Mørdre" />
		<tag k="place" v="hamlet" />
		<tag k="ssr:stedsnr" v="248111" />
	</node>
	<node lat="60.15171944082534" lon="11.335033330615053" id="-16345">
		<tag k="name" v="Bryn" />
		<tag k="place" v="farm" />
		<tag k="ssr:stedsnr" v="248155" />
	</node>
	<node lat="60.15629598485763" lon="11.452578797602486" id="-16346">
		<tag k="name" v="Ullershov" />
		<tag k="place" v="hamlet" />
		<tag k="ssr:stedsnr" v="248158" />
	</node>
	<node lat="60.13755833206313" lon="11.34497777276295" id="-16347">
		<tag k="name" v="Solem" />
		<tag k="place" v="farm" />
		<tag k="ssr:stedsnr" v="248169" />
	</node>
	<node lat="60.240480553534496" lon="11.39315277648068" id="-16348">
		<tag k="name" v="Rustad" />
		<tag k="place" v="farm" />
		<tag k="ssr:stedsnr" v="248302" />
	</node>
	<node lat="60.24416944361561" lon="11.388361114787264" id="-16349">
		<tag k="name" v="Fjellhaug" />
		<tag k="place" v="farm" />
		<tag k="ssr:stedsnr" v="248323" />
	</node>
	<node lat="60.106861110494904" lon="11.480330549651292" id="-16359">
		<tag k="name" v="Heggtveit" />
		<tag k="place" v="farm" />
		<tag k="ssr:stedsnr" v="248716" />
	</node>
	<node lat="60.15636111969254" lon="11.479240705325825" id="-16360">
		<tag k="fixme" v="consider place=hamlet" />
		<tag k="name" v="Henni" />
		<tag k="place" v="farm" />
		<tag k="ssr:stedsnr" v="248651" />
	</node>
	<node lat="60.113763888190974" lon="11.522913884576719" id="-16362">
		<tag k="name" v="Sandby" />
		<tag k="place" v="farm" />
		<tag k="ssr:stedsnr" v="248701" />
	</node>
	<node lat="60.203302778224035" lon="11.468711119732474" id="-16363">
		<tag k="name" v="Oppset" />
		<tag k="place" v="farm" />
		<tag k="ssr:stedsnr" v="248809" />
	</node>
	<node lat="60.100963887860395" lon="11.57824999559419" id="-16364">
		<tag k="name" v="Sagstua" />
		<tag k="place" v="farm" />
		<tag k="ssr:stedsnr" v="248747" />
	</node>
	<node lat="60.065802776249456" lon="11.410138888355489" id="-16368">
		<tag k="alt_name" v="Søstun;Sørstuen" />
		<tag k="name" v="Søndre Finnholt" />
		<tag k="place" v="farm" />
		<tag k="ssr:stedsnr" v="283225" />
	</node>
	<node lat="60.15397499653975" lon="11.457786111921255" id="-16369">
		<tag k="name" v="Ullershovfallet" />
		<tag k="place" v="farm" />
		<tag k="ssr:stedsnr" v="283280" />
	</node>
	<node lat="60.017891617956494" lon="11.40328522484646" id="-16372">
		<tag k="alt_name" v="Skirset søndre" />
		<tag k="name" v="Søndre Skirset" />
		<tag k="place" v="farm" />
		<tag k="ssr:stedsnr" v="284473" />
	</node>
	<node lat="60.12459569012837" lon="11.39546904632156" id="-16383">
		<tag k="name" v="Vansum" />
		<tag k="old_name" v="Vansemb" />
		<tag k="place" v="farm" />
		<tag k="ssr:stedsnr" v="292910" />
	</node>
	<node lat="60.059813885337476" lon="11.691933332200547" id="-16384">
		<tag k="name" v="Seterli" />
		<tag k="place" v="isolated_dwelling" />
		<tag k="ssr:stedsnr" v="292929" />
	</node>
	<node lat="60.17054166572346" lon="11.33666111780349" id="-16390">
		<tag k="name" v="Bekkedal" />
		<tag k="place" v="locality" />
		<tag k="ssr:stedsnr" v="298489" />
	</node>
	<node lat="60.214583336996256" lon="11.523941668639933" id="-16392">
		<tag k="alt_name" v="Skårer vestre" />
		<tag k="name" v="Vestre Skårer" />
		<tag k="place" v="farm" />
		<tag k="ssr:stedsnr" v="298508" />
	</node>
	<node lat="60.21630000066354" lon="11.522936117607097" id="-16393">
		<tag k="alt_name" v="Skårer nordre" />
		<tag k="name" v="Nordre Skårer" />
		<tag k="place" v="farm" />
		<tag k="ssr:stedsnr" v="298510" />
	</node>
	<node lat="60.330347222800974" lon="11.41379166840675" id="-16398">
		<tag k="name" v="Utsjøbråtan" />
		<tag k="place" v="isolated_dwelling" />
		<tag k="ssr:stedsnr" v="298710" />
	</node>
	<node lat="60.18641388703662" lon="11.483824993668415" id="-16399">
		<tag k="name" v="Hagenga" />
		<tag k="place" v="farm" />
		<tag k="ssr:stedsnr" v="298881" />
	</node>
	<node lat="60.19704102465659" lon="11.483180535379503" id="-16404">
		<tag k="fixme" v="consider place=hamlet" />
		<tag k="name" v="Vestre Greni" />
		<tag k="place" v="farm" />
		<tag k="ssr:stedsnr" v="298903" />
	</node>
	<node lat="60.24311110786993" lon="11.5568916724835" id="-16406">
		<tag k="name" v="Vestby" />
		<tag k="place" v="farm" />
		<tag k="ssr:stedsnr" v="298918" />
	</node>
	<node lat="60.254519441634606" lon="11.591730562335687" id="-16407">
		<tag k="name" v="Fallet" />
		<tag k="place" v="farm" />
		<tag k="ssr:stedsnr" v="298923" />
	</node>
	<node lat="60.10980833076592" lon="11.590369453035693" id="-16415">
		<tag k="name" v="Felgarshorn" />
		<tag k="place" v="isolated_dwelling" />
		<tag k="ssr:stedsnr" v="465038" />
	</node>
	<node lat="60.06676815190503" lon="11.418512092560297" id="-16417">
		<tag k="name" v="Finnholt" />
		<tag k="place" v="farm" />
		<tag k="ssr:stedsnr" v="465262" />
	</node>
	<node lat="60.16476110691228" lon="11.360224997269242" id="-16418">
		<tag k="name" v="Neslerud" />
		<tag k="place" v="farm" />
		<tag k="ssr:stedsnr" v="465286" />
	</node>
	<node lat="60.13816110845515" lon="11.499205556265366" id="-16422">
		<tag k="name" v="Østre Østmo" />
		<tag k="place" v="farm" />
		<tag k="ssr:stedsnr" v="465296" />
	</node>
	<node lat="60.09001666596132" lon="11.518327785833137" id="-16424">
		<tag k="name" v="Østre Badstua" />
		<tag k="place" v="locality" />
		<tag k="ssr:stedsnr" v="465665" />
	</node>
	<node lat="60.0850750000942" lon="11.434005558578932" id="-16425">
		<tag k="name" v="Hillestad" />
		<tag k="place" v="farm" />
		<tag k="ssr:stedsnr" v="308026" />
	</node>
	<node lat="60.13538055383482" lon="11.439272230684011" id="-16426">
		<tag k="name" v="Rotnesenga" />
		<tag k="place" v="farm" />
		<tag k="ssr:stedsnr" v="308109" />
	</node>
	<node lat="60.13615833619048" lon="11.436608334197949" id="-16427">
		<tag k="name" v="Orli" />
		<tag k="place" v="farm" />
		<tag k="ssr:stedsnr" v="308111" />
	</node>
	<node lat="60.107338729572014" lon="11.359210068494585" id="-16428">
		<tag k="alt_name" v="Solbakken" />
		<tag k="name" v="Ila" />
		<tag k="place" v="farm" />
		<tag k="ssr:stedsnr" v="465484" />
	</node>
	<node lat="60.106341666883225" lon="11.395341668253009" id="-16429">
		<tag k="alt_name" v="Hesthagen" />
		<tag k="fixme" v="multiple name tags, choose one and add the other to alt_name" />
		<tag k="name" v="Hagan;Hestehagen" />
		<tag k="place" v="farm" />
		<tag k="ssr:stedsnr" v="465489" />
	</node>
	<node lat="60.10144722047033" lon="11.724391671601012" id="-16431">
		<tag k="alt_name" v="Funnisaga" />
		<tag k="name" v="Fundisaga" />
		<tag k="place" v="farm" />
		<tag k="ssr:stedsnr" v="308705" />
	</node>
	<node lat="60.097197219955646" lon="11.4590055543982" id="-16435">
		<tag k="name" v="Brauterhagan" />
		<tag k="place" v="farm" />
		<tag k="ssr:stedsnr" v="465700" />
	</node>
	<node lat="60.16042314355275" lon="11.560100106616677" id="-16436">
		<tag k="fixme" v="consider place=hamlet" />
		<tag k="name" v="Eie" />
		<tag k="place" v="farm" />
		<tag k="ssr:stedsnr" v="308843" />
	</node>
	<node lat="60.06113611052037" lon="11.315316661929183" id="-16437">
		<tag k="name" v="Langdalen" />
		<tag k="place" v="farm" />
		<tag k="ssr:stedsnr" v="309004" />
	</node>
	<node lat="60.116769189417376" lon="11.446220939351269" id="-16438">
		<tag k="fixme" v="consider place=hamlet" />
		<tag k="name" v="Tveithaug" />
		<tag k="place" v="farm" />
		<tag k="ssr:stedsnr" v="309099" />
	</node>
	<node lat="60.224292342662864" lon="11.316665914183492" id="-16440">
		<tag k="fixme" v="consider place=hamlet" />
		<tag k="name" v="Svindal" />
		<tag k="place" v="farm" />
		<tag k="ssr:stedsnr" v="309351" />
	</node>
	<node lat="60.251911108269816" lon="11.580177778472708" id="-16443">
		<tag k="alt_name" v="Husås;Skog" />
		<tag k="name" v="Husåsen" />
		<tag k="place" v="farm" />
		<tag k="ssr:stedsnr" v="309681" />
	</node>
	<node lat="60.12290000245267" lon="11.589436119098645" id="-16444">
		<tag k="name" v="Mørkholtet" />
		<tag k="place" v="farm" />
		<tag k="ssr:stedsnr" v="309692" />
	</node>
	<node lat="60.18281666812011" lon="11.550197230046296" id="-16445">
		<tag k="name" v="Iler" />
		<tag k="place" v="farm" />
		<tag k="ssr:stedsnr" v="309814" />
	</node>
	<node lat="60.03234999859994" lon="11.553322223423274" id="-16446">
		<tag k="alt_name" v="Kjensli" />
		<tag k="name" v="Tjernsli" />
		<tag k="place" v="farm" />
		<tag k="ssr:stedsnr" v="309587" />
	</node>
	<node lat="60.030858330927096" lon="11.657611107601584" id="-16448">
		<tag k="name" v="Steinhaugen" />
		<tag k="place" v="farm" />
		<tag k="ssr:stedsnr" v="309591" />
	</node>
	<node lat="60.12130555612563" lon="11.60473888759608" id="-16449">
		<tag k="name" v="Nilsstua" />
		<tag k="place" v="farm" />
		<tag k="ssr:stedsnr" v="309710" />
	</node>
	<node lat="60.14353263961919" lon="11.417677322512995" id="-16450">
		<tag k="fixme" v="consider place=hamlet" />
		<tag k="name" v="Lille Fenstad" />
		<tag k="place" v="farm" />
		<tag k="ssr:stedsnr" v="465941" />
	</node>
	<node lat="60.128413888790824" lon="11.417597219692938" id="-16451">
		<tag k="name" v="Midtbø" />
		<tag k="place" v="farm" />
		<tag k="ssr:stedsnr" v="465946" />
	</node>
	<node lat="60.2571766197395" lon="11.297936102101957" id="-16452">
		<tag k="fixme" v="consider place=hamlet" />
		<tag k="name" v="Breen" />
		<tag k="place" v="farm" />
		<tag k="ssr:stedsnr" v="310203" />
	</node>
	<node lat="60.27583055913461" lon="11.335938887779333" id="-16453">
		<tag k="name" v="Smedsrud" />
		<tag k="place" v="farm" />
		<tag k="ssr:stedsnr" v="310179" />
	</node>
	<node lat="60.07216389285327" lon="11.440836118428034" id="-16455">
		<tag k="name" v="Bergly" />
		<tag k="place" v="isolated_dwelling" />
		<tag k="ssr:stedsnr" v="466054" />
	</node>
	<node lat="60.053436111336325" lon="11.339944445665907" id="-16458">
		<tag k="name" v="Rudshaugen" />
		<tag k="place" v="farm" />
		<tag k="ssr:stedsnr" v="466183" />
	</node>
	<node lat="60.05467949448226" lon="11.341642595371425" id="-16459">
		<tag k="name" v="Høyli" />
		<tag k="place" v="farm" />
		<tag k="ssr:stedsnr" v="466186" />
	</node>
	<node lat="60.09113888575627" lon="11.361647227397588" id="-16464">
		<tag k="leisure" v="pitch" />
		<tag k="name" v="Hvam idrettsplass" />
		<tag k="ssr:stedsnr" v="466538" />
	</node>
	<node lat="60.22474444758427" lon="11.514788885591805" id="-16473">
		<tag k="name" v="Bekkeng" />
		<tag k="place" v="farm" />
		<tag k="ssr:stedsnr" v="343263" />
	</node>
	<node lat="60.08824722612784" lon="11.45909444431581" id="-16477">
		<tag k="name" v="Løvli" />
		<tag k="place" v="farm" />
		<tag k="ssr:stedsnr" v="344059" />
	</node>
	<node lat="60.15251389142763" lon="11.417152775214772" id="-16481">
		<tag k="name" v="Evjebakke" />
		<tag k="place" v="farm" />
		<tag k="ssr:stedsnr" v="344210" />
	</node>
	<node lat="60.04636049314619" lon="11.400272219912518" id="-16483">
		<tag k="alt_name" v="Auli" />
		<tag k="name" v="Nedre Auli" />
		<tag k="place" v="farm" />
		<tag k="ssr:stedsnr" v="473037" />
	</node>
	<node lat="60.12187777927221" lon="11.600336114942117" id="-16484">
		<tag k="name" v="Nilsstuåsen" />
		<tag k="place" v="isolated_dwelling" />
		<tag k="ssr:stedsnr" v="344105" />
	</node>
	<node lat="60.05423055150163" lon="11.376469443106052" id="-16486">
		<tag k="name" v="Hagahaugen" />
		<tag k="place" v="farm" />
		<tag k="ssr:stedsnr" v="344192" />
	</node>
	<node lat="60.159113886620545" lon="11.430055554293356" id="-16487">
		<tag k="amenity" v="school" />
		<tag k="name" v="Lillerommen barneskole" />
		<tag k="ssr:stedsnr" v="344297" />
	</node>
	<node lat="60.10373611521135" lon="11.416580554387576" id="-16491">
		<tag k="name" v="Nordstrøm" />
		<tag k="place" v="locality" />
		<tag k="ssr:stedsnr" v="344704" />
	</node>
	<node lat="60.103147220885326" lon="11.441905554563041" id="-16492">
		<tag k="name" v="Nordre Brauter" />
		<tag k="place" v="farm" />
		<tag k="ssr:stedsnr" v="344709" />
	</node>
	<node lat="60.10087500282296" lon="11.438861118497554" id="-16493">
		<tag k="name" v="Brauter" />
		<tag k="place" v="farm" />
		<tag k="ssr:stedsnr" v="344713" />
	</node>
	<node lat="60.055863891993106" lon="11.769236104348868" id="-16498">
		<tag k="name" v="Brenna" />
		<tag k="place" v="isolated_dwelling" />
		<tag k="ssr:stedsnr" v="344880" />
	</node>
	<node lat="60.1196999970613" lon="11.421944439729007" id="-16503">
		<tag k="name" v="Bjørneby" />
		<tag k="place" v="farm" />
		<tag k="ssr:stedsnr" v="344964" />
	</node>
	<node lat="60.16200555336421" lon="11.489119451562509" id="-16509">
		<tag k="name" v="Vesle Yn" />
		<tag k="place" v="farm" />
		<tag k="ssr:stedsnr" v="358062" />
	</node>
	<node lat="60.01571871083314" lon="11.75862796324019" id="-16511">
		<tag k="alt_name" v="Rakeiet" />
		<tag k="loc_name" v="Rakkeid" />
		<tag k="name" v="Rakkeiet" />
		<tag k="place" v="locality" />
		<tag k="ssr:stedsnr" v="358969" />
	</node>
	<node lat="60.10998055152477" lon="11.549563895868818" id="-16512">
		<tag k="building" v="industrial" />
		<tag k="name" v="Auli mølle" />
		<tag k="ssr:stedsnr" v="359017" />
	</node>
	<node lat="60.163202780998176" lon="11.56756945234659" id="-16525">
		<tag k="name" v="Nedre Slemdal" />
		<tag k="place" v="farm" />
		<tag k="ssr:stedsnr" v="359812" />
	</node>
	<node lat="60.25453888592381" lon="11.471561104457669" id="-16526">
		<tag k="name" v="Veslevangen" />
		<tag k="old_name" v="Veslevangen lerduebane" />
		<tag k="place" v="farm" />
		<tag k="ssr:stedsnr" v="359826" />
	</node>
	<node lat="60.26642777819795" lon="11.335361110997322" id="-16527">
		<tag k="alt_name" v="Manerud;Mannerud nord" />
		<tag k="name" v="Nordre Mannerud" />
		<tag k="old_name" v="Manderud" />
		<tag k="place" v="farm" />
		<tag k="ssr:stedsnr" v="359912" />
	</node>
	<node lat="60.07781944181742" lon="11.338991675380113" id="-16531">
		<tag k="alt_name" v="Horgenbråten" />
		<tag k="name" v="Bråten" />
		<tag k="place" v="farm" />
		<tag k="ssr:stedsnr" v="369025" />
	</node>
	<node lat="60.249428743827465" lon="11.339426348152495" id="-16532">
		<tag k="name" v="Ile" />
		<tag k="place" v="hamlet" />
		<tag k="ssr:stedsnr" v="369316" />
	</node>
	<node lat="60.18032919853985" lon="11.43190603618319" id="-16534">
		<tag k="fixme" v="consider place=hamlet" />
		<tag k="name" v="Girud" />
		<tag k="place" v="farm" />
		<tag k="ssr:stedsnr" v="369210" />
	</node>
	<node lat="60.18405833109357" lon="11.461822214525094" id="-16535">
		<tag k="alt_name" v="Grenaker" />
		<tag k="name" v="Grindåker" />
		<tag k="place" v="farm" />
		<tag k="ssr:stedsnr" v="369212" />
	</node>
	<node lat="60.20979166521783" lon="11.33764445093283" id="-16536">
		<tag k="name" v="Solberg" />
		<tag k="place" v="farm" />
		<tag k="ssr:stedsnr" v="369274" />
	</node>
	<node lat="60.218716667158844" lon="11.281375000132078" id="-16537">
		<tag k="alt_name" v="Vålebråten" />
		<tag k="name" v="Vålerbråten" />
		<tag k="place" v="isolated_dwelling" />
		<tag k="ssr:stedsnr" v="369290" />
	</node>
	<node lat="60.02198888563355" lon="11.60536665878284" id="-16538">
		<tag k="name" v="Brauterfallet" />
		<tag k="place" v="farm" />
		<tag k="ssr:stedsnr" v="369506" />
	</node>
	<node lat="60.027075000530736" lon="11.614077773386422" id="-16541">
		<tag k="name" v="Nybakk" />
		<tag k="place" v="farm" />
		<tag k="ssr:stedsnr" v="369517" />
	</node>
	<node lat="60.09064166598578" lon="11.489844451765695" id="-16542">
		<tag k="name" v="Grueflaen" />
		<tag k="place" v="farm" />
		<tag k="ssr:stedsnr" v="369706" />
	</node>
	<node lat="60.09036111122388" lon="11.484916658483991" id="-16543">
		<tag k="name" v="Bruvoll" />
		<tag k="place" v="farm" />
		<tag k="ssr:stedsnr" v="369708" />
	</node>
	<node lat="60.17223164786833" lon="11.425160785869899" id="-16545">
		<tag k="fixme" v="consider place=hamlet" />
		<tag k="name" v="Arnestad" />
		<tag k="place" v="farm" />
		<tag k="ssr:stedsnr" v="479090" />
	</node>
	<node lat="60.06724166704466" lon="11.508069451303806" id="-16546">
		<tag k="alt_name" v="Drognesseter" />
		<tag k="historic" v="shieling" />
		<tag k="name" v="Drognessæter" />
		<tag k="place" v="isolated_dwelling" />
		<tag k="ssr:stedsnr" v="369466" />
	</node>
	<node lat="60.13641944370174" lon="11.570072222610259" id="-16547">
		<tag k="name" v="Slolia" />
		<tag k="place" v="isolated_dwelling" />
		<tag k="ssr:stedsnr" v="369621" />
	</node>
	<node lat="60.12945945875011" lon="11.487964435845848" id="-16548">
		<tag k="fixme" v="consider place=hamlet" />
		<tag k="name" v="Runni" />
		<tag k="place" v="farm" />
		<tag k="ssr:stedsnr" v="369624" />
	</node>
	<node lat="60.1102499974609" lon="11.542200001838077" id="-16549">
		<tag k="name" v="Evenstua" />
		<tag k="place" v="farm" />
		<tag k="ssr:stedsnr" v="369665" />
	</node>
	<node lat="60.10465833703745" lon="11.55638611732592" id="-16550">
		<tag k="alt_name" v="Sagen" />
		<tag k="name" v="Saga" />
		<tag k="place" v="farm" />
		<tag k="ssr:stedsnr" v="369676" />
	</node>
	<node lat="60.1915055585209" lon="11.562041671651633" id="-16552">
		<tag k="alt_name" v="Bækken" />
		<tag k="fixme" v="multiple name tags, choose one and add the other to alt_name" />
		<tag k="name" v="Bekken;Oppåkerbekken" />
		<tag k="place" v="farm" />
		<tag k="ssr:stedsnr" v="369808" />
	</node>
	<node lat="60.17525000094341" lon="11.44898889051601" id="-16553">
		<tag k="name" v="Haugli" />
		<tag k="place" v="farm" />
		<tag k="ssr:stedsnr" v="480001" />
	</node>
	<node lat="60.207569442513375" lon="11.341605549662955" id="-16554">
		<tag k="name" v="Grinkelsrud" />
		<tag k="place" v="farm" />
		<tag k="ssr:stedsnr" v="480186" />
	</node>
	<node lat="60.126311110089134" lon="11.593699996977081" id="-16560">
		<tag k="name" v="Jensbråten" />
		<tag k="place" v="locality" />
		<tag k="ssr:stedsnr" v="480097" />
	</node>
	<node lat="60.21250278063743" lon="11.407755548755114" id="-16563">
		<tag k="name" v="Nordvang" />
		<tag k="place" v="farm" />
		<tag k="ssr:stedsnr" v="480685" />
	</node>
	<node lat="60.20039722555559" lon="11.43902777355989" id="-16564">
		<tag k="name" v="Åtopp" />
		<tag k="place" v="isolated_dwelling" />
		<tag k="ssr:stedsnr" v="480776" />
	</node>
	<node lat="60.10894167077906" lon="11.476149991749605" id="-16565">
		<tag k="name" v="Korsmo" />
		<tag k="place" v="farm" />
		<tag k="ssr:stedsnr" v="480782" />
	</node>
	<node lat="60.222738889261215" lon="11.288877786556169" id="-16569">
		<tag k="name" v="Vålerhytta" />
		<tag k="place" v="isolated_dwelling" />
		<tag k="ssr:stedsnr" v="480490" />
	</node>
	<node lat="60.21187499960693" lon="11.564316671680004" id="-16571">
		<tag k="name" v="Lystad" />
		<tag k="place" v="farm" />
		<tag k="ssr:stedsnr" v="480420" />
	</node>
	<node lat="60.31313611336697" lon="11.433561102406275" id="-16574">
		<tag k="historic" v="shieling" />
		<tag k="name" v="Dalen" />
		<tag k="place" v="isolated_dwelling" />
		<tag k="ssr:stedsnr" v="480537" />
	</node>
	<node lat="60.20964166545892" lon="11.432186114444471" id="-16576">
		<tag k="name" v="Århus" />
		<tag k="place" v="farm" />
		<tag k="ssr:stedsnr" v="480629" />
	</node>
	<node lat="60.20416666661212" lon="11.468780550732248" id="-16582">
		<tag k="name" v="Høgmoen" />
		<tag k="place" v="farm" />
		<tag k="ssr:stedsnr" v="480542" />
	</node>
	<node lat="60.244186857475064" lon="11.538323851907716" id="-16586">
		<tag k="alt_name" v="Dystland østre" />
		<tag k="fixme" v="consider place=hamlet" />
		<tag k="name" v="Østre Dystland" />
		<tag k="place" v="farm" />
		<tag k="ssr:stedsnr" v="480835" />
	</node>
	<node lat="60.258936111780066" lon="11.468419449211272" id="-16588">
		<tag k="name" v="Oppsalhytta" />
		<tag k="place" v="isolated_dwelling" />
		<tag k="ssr:stedsnr" v="480847" />
	</node>
	<node lat="60.1943504618911" lon="11.486079871407629" id="-16589">
		<tag k="fixme" v="consider place=hamlet" />
		<tag k="name" v="Østre Greni" />
		<tag k="place" v="farm" />
		<tag k="ssr:stedsnr" v="480929" />
	</node>
	<node lat="60.18776943991719" lon="11.56261389673434" id="-16590">
		<tag k="name" v="Semingsrud" />
		<tag k="place" v="farm" />
		<tag k="ssr:stedsnr" v="480931" />
	</node>
	<node lat="60.169658336118935" lon="11.514380555307827" id="-16592">
		<tag k="name" v="Hagen" />
		<tag k="place" v="farm" />
		<tag k="ssr:stedsnr" v="480942" />
	</node>
	<node lat="60.15754722350424" lon="11.41842222273494" id="-16593">
		<tag k="name" v="Vormsund øst" />
		<tag k="place" v="quarter" />
		<tag k="ssr:stedsnr" v="482046" />
	</node>
	<node lat="60.17524000929441" lon="11.355841083205505" id="-16602">
		<tag k="name" v="Aurstad" />
		<tag k="place" v="farm" />
		<tag k="ssr:stedsnr" v="405307" />
	</node>
	<node lat="60.175433334097946" lon="11.354102774544085" id="-16603">
		<tag k="alt_name" v="Aurstad" />
		<tag k="name" v="Vestre Aurstad" />
		<tag k="place" v="farm" />
		<tag k="ssr:stedsnr" v="405309" />
	</node>
	<node lat="60.150852779090336" lon="11.516402780953708" id="-16604">
		<tag k="name" v="Folberg" />
		<tag k="place" v="farm" />
		<tag k="ssr:stedsnr" v="405346" />
	</node>
	<node lat="60.14787777620386" lon="11.606191668814285" id="-16608">
		<tag k="name" v="Petterhytte" />
		<tag k="place" v="locality" />
		<tag k="ssr:stedsnr" v="405507" />
	</node>
	<node lat="60.09139722045271" lon="11.362724998885051" id="-16609">
		<tag k="amenity" v="school" />
		<tag k="name" v="Udenes skole" />
		<tag k="ssr:stedsnr" v="405544" />
	</node>
	<node lat="60.12511111404802" lon="11.355149994733107" id="-16610">
		<tag k="name" v="Lyng" />
		<tag k="place" v="farm" />
		<tag k="ssr:stedsnr" v="405794" />
	</node>
	<node lat="60.18847778202694" lon="11.450174993061083" id="-16614">
		<tag k="name" v="Sandmo" />
		<tag k="place" v="farm" />
		<tag k="ssr:stedsnr" v="405956" />
	</node>
	<node lat="60.09794444328158" lon="11.48104443646511" id="-16615">
		<tag k="name" v="Nygård" />
		<tag k="place" v="farm" />
		<tag k="ssr:stedsnr" v="405688" />
	</node>
	<node lat="60.05415833679459" lon="11.71107499989063" id="-16617">
		<tag k="name" v="Granlund" />
		<tag k="place" v="farm" />
		<tag k="ssr:stedsnr" v="412888" />
	</node>
	<node lat="60.12182499954881" lon="11.541947217438713" id="-16620">
		<tag k="name" v="Elgestad" />
		<tag k="place" v="farm" />
		<tag k="ssr:stedsnr" v="420041" />
	</node>
	<node lat="60.24689444040451" lon="11.358544445983465" id="-16622">
		<tag k="name" v="Bråten" />
		<tag k="old_name" v="Øvre Valstad" />
		<tag k="place" v="farm" />
		<tag k="ssr:stedsnr" v="420140" />
	</node>
	<node lat="60.17040833277679" lon="11.527383341522452" id="-16623">
		<tag k="name" v="Fosseidhagan" />
		<tag k="place" v="farm" />
		<tag k="ssr:stedsnr" v="420148" />
	</node>
	<node lat="60.163269440263626" lon="11.462772223511774" id="-16625">
		<tag k="name" v="Glomnes" />
		<tag k="place" v="farm" />
		<tag k="ssr:stedsnr" v="420318" />
	</node>
	<node lat="60.084666670428035" lon="11.613913892043362" id="-16627">
		<tag k="name" v="Grindbo" />
		<tag k="place" v="isolated_dwelling" />
		<tag k="ssr:stedsnr" v="420326" />
	</node>
	<node lat="60.28443888578786" lon="11.478522213608779" id="-16633">
		<tag k="name" v="Fallet" />
		<tag k="place" v="farm" />
		<tag k="ssr:stedsnr" v="420598" />
	</node>
	<node lat="60.170058330548976" lon="11.512194445865891" id="-16636">
		<tag k="name" v="Øverby" />
		<tag k="place" v="farm" />
		<tag k="ssr:stedsnr" v="420953" />
	</node>
	<node lat="60.073230551281995" lon="11.434175006412763" id="-16639">
		<tag k="name" v="Melby" />
		<tag k="place" v="farm" />
		<tag k="ssr:stedsnr" v="490050" />
	</node>
	<node lat="60.058708330184615" lon="11.37193888766213" id="-16640">
		<tag k="name" v="Bråten" />
		<tag k="place" v="farm" />
		<tag k="ssr:stedsnr" v="490014" />
	</node>
	<node lat="60.056157644091186" lon="11.41878595427782" id="-16641">
		<tag k="fixme" v="consider place=hamlet" />
		<tag k="name" v="Fjell" />
		<tag k="place" v="farm" />
		<tag k="ssr:stedsnr" v="490018" />
	</node>
	<node lat="60.17845507875739" lon="11.420139632105027" id="-16642">
		<tag k="fixme" v="consider place=hamlet" />
		<tag k="loc_name" v="Åval" />
		<tag k="name" v="Åvol" />
		<tag k="place" v="farm" />
		<tag k="ssr:stedsnr" v="490225" />
	</node>
	<node lat="60.06708098070838" lon="11.420712956168593" id="-16643">
		<tag k="alt_name" v="Finholt" />
		<tag k="fixme" v="consider place=hamlet" />
		<tag k="name" v="Finnholt" />
		<tag k="place" v="farm" />
		<tag k="ssr:stedsnr" v="490062" />
	</node>
	<node lat="60.09457222086823" lon="11.36302500031312" id="-16644">
		<tag k="name" v="Trudvang" />
		<tag k="place" v="farm" />
		<tag k="ssr:stedsnr" v="490077" />
	</node>
	<node lat="60.24550000311082" lon="11.360649993248481" id="-16646">
		<tag k="name" v="Åserud" />
		<tag k="place" v="farm" />
		<tag k="ssr:stedsnr" v="490323" />
	</node>
	<node lat="60.1407538864653" lon="11.473286282203437" id="-16652">
		<tag k="fixme" v="consider place=hamlet" />
		<tag k="name" v="Løken" />
		<tag k="place" v="farm" />
		<tag k="ssr:stedsnr" v="490665" />
	</node>
	<node lat="60.19981666746147" lon="11.561766663888033" id="-16654">
		<tag k="name" v="Hol" />
		<tag k="place" v="farm" />
		<tag k="ssr:stedsnr" v="490782" />
	</node>
	<node lat="60.21069754169842" lon="11.52913631812234" id="-16655">
		<tag k="fixme" v="consider place=hamlet" />
		<tag k="name" v="Bårhaug" />
		<tag k="place" v="farm" />
		<tag k="ssr:stedsnr" v="490797" />
	</node>
	<node lat="60.16259689567686" lon="11.491915410764316" id="-16658">
		<tag k="fixme" v="consider place=hamlet" />
		<tag k="name" v="Yn" />
		<tag k="place" v="farm" />
		<tag k="ssr:stedsnr" v="490847" />
	</node>
	<node lat="60.046447027640845" lon="11.366724548790318" id="-16659">
		<tag k="fixme" v="consider place=hamlet" />
		<tag k="name" v="Grøndalen" />
		<tag k="place" v="farm" />
		<tag k="ssr:stedsnr" v="490895" />
	</node>
	<node lat="60.05353159301093" lon="11.406891205053801" id="-16660">
		<tag k="name" v="Munkeruddalen" />
		<tag k="place" v="farm" />
		<tag k="ssr:stedsnr" v="430008" />
	</node>
	<node lat="60.08267248757744" lon="11.42786610021707" id="-16662">
		<tag k="alt_name" v="Stensbodding" />
		<tag k="fixme" v="consider place=hamlet" />
		<tag k="name" v="Stensbodung" />
		<tag k="place" v="farm" />
		<tag k="ssr:stedsnr" v="430025" />
	</node>
	<node lat="60.063677773355714" lon="11.394994442765979" id="-16663">
		<tag k="name" v="Nokken" />
		<tag k="place" v="farm" />
		<tag k="ssr:stedsnr" v="430052" />
	</node>
	<node lat="60.06604444357449" lon="11.434936106462322" id="-16664">
		<tag k="name" v="Flaen" />
		<tag k="place" v="farm" />
		<tag k="ssr:stedsnr" v="430057" />
	</node>
	<node lat="60.0964138848792" lon="11.40386667296329" id="-16665">
		<tag k="name" v="Haugerud" />
		<tag k="place" v="farm" />
		<tag k="ssr:stedsnr" v="430065" />
	</node>
	<node lat="60.15382570316715" lon="11.378028241784657" id="-16666">
		<tag k="alt_name" v="Bråten" />
		<tag k="name" v="Tesibråten" />
		<tag k="place" v="farm" />
		<tag k="ssr:stedsnr" v="430201" />
	</node>
	<node lat="60.23348889341731" lon="11.395583327455613" id="-16667">
		<tag k="name" v="Nordtangen" />
		<tag k="place" v="farm" />
		<tag k="ssr:stedsnr" v="430313" />
	</node>
	<node lat="60.2319610564643" lon="11.327915618207449" id="-16668">
		<tag k="fixme" v="consider place=hamlet" />
		<tag k="name" v="Finnskot" />
		<tag k="old_name" v="Finskot" />
		<tag k="place" v="farm" />
		<tag k="ssr:stedsnr" v="430319" />
	</node>
	<node lat="60.225930558530166" lon="11.370163884196787" id="-16669">
		<tag k="name" v="Øvre Grinder" />
		<tag k="place" v="farm" />
		<tag k="ssr:stedsnr" v="430298" />
	</node>
	<node lat="60.11006944206474" lon="11.594794450859634" id="-16672">
		<tag k="name" v="Trinborg" />
		<tag k="place" v="isolated_dwelling" />
		<tag k="ssr:stedsnr" v="430710" />
	</node>
	<node lat="60.09479444066803" lon="11.664636117676388" id="-16673">
		<tag k="alt_name" v="Rudseter" />
		<tag k="name" v="Rudsæter" />
		<tag k="place" v="farm" />
		<tag k="ssr:stedsnr" v="430719" />
	</node>
	<node lat="60.14582758101031" lon="11.495587555866589" id="-16674">
		<tag k="name" v="Folmo" />
		<tag k="place" v="hamlet" />
		<tag k="ssr:stedsnr" v="430649" />
	</node>
	<node lat="60.139266668489235" lon="11.498041673735571" id="-16675">
		<tag k="name" v="Midtgard" />
		<tag k="place" v="farm" />
		<tag k="ssr:stedsnr" v="430653" />
	</node>
	<node lat="60.137836113773" lon="11.623825002307754" id="-16676">
		<tag k="name" v="Lorthola" />
		<tag k="old_name" v="Lortholva" />
		<tag k="place" v="locality" />
		<tag k="ssr:stedsnr" v="430658" />
	</node>
	<node lat="60.18387997426193" lon="11.514742982200055" id="-16677">
		<tag k="loc_name" v="Sandum" />
		<tag k="name" v="Sannum" />
		<tag k="old_name" v="Bredestua;Fjellbu" />
		<tag k="place" v="farm" />
		<tag k="ssr:stedsnr" v="430809" />
	</node>
	<node lat="60.18486388457627" lon="11.521961107863376" id="-16678">
		<tag k="name" v="Nordby" />
		<tag k="place" v="farm" />
		<tag k="ssr:stedsnr" v="430811" />
	</node>
	<node lat="60.175488891956405" lon="11.534175002865327" id="-16679">
		<tag k="name" v="Fjellset" />
		<tag k="place" v="farm" />
		<tag k="ssr:stedsnr" v="430858" />
	</node>
	<node lat="60.11290277404172" lon="11.41646111476466" id="-16680">
		<tag k="name" v="Kollerud" />
		<tag k="place" v="farm" />
		<tag k="ssr:stedsnr" v="491115" />
	</node>
	<node lat="60.10741944412185" lon="11.357324999485236" id="-16681">
		<tag k="name" v="Brua" />
		<tag k="place" v="farm" />
		<tag k="ssr:stedsnr" v="491118" />
	</node>
	<node lat="60.23940000383367" lon="11.520208326890804" id="-16683">
		<tag k="name" v="Fjellstad" />
		<tag k="place" v="farm" />
		<tag k="ssr:stedsnr" v="430951" />
	</node>
	<node lat="60.28211944443355" lon="11.335991662625174" id="-16684">
		<tag k="name" v="Sanderud" />
		<tag k="place" v="farm" />
		<tag k="ssr:stedsnr" v="431206" />
	</node>
	<node lat="60.1483138911762" lon="11.336683335443526" id="-16686">
		<tag k="name" v="Hovnes" />
		<tag k="place" v="farm" />
		<tag k="ssr:stedsnr" v="491172" />
	</node>
	<node lat="60.20419999696898" lon="11.342191670623222" id="-16687">
		<tag k="name" v="Hunstad" />
		<tag k="place" v="farm" />
		<tag k="ssr:stedsnr" v="431306" />
	</node>
	<node lat="60.2053750038523" lon="11.354747230626225" id="-16688">
		<tag k="name" v="Jonsrud" />
		<tag k="place" v="farm" />
		<tag k="ssr:stedsnr" v="431307" />
	</node>
	<node lat="60.203566666423846" lon="11.351047228705548" id="-16689">
		<tag k="name" v="Haslerud" />
		<tag k="place" v="farm" />
		<tag k="ssr:stedsnr" v="431309" />
	</node>
	<node lat="60.195438677729825" lon="11.377466508857275" id="-16690">
		<tag k="fixme" v="consider place=hamlet" />
		<tag k="name" v="Horgen" />
		<tag k="place" v="farm" />
		<tag k="ssr:stedsnr" v="491265" />
	</node>
	<node lat="60.16659444619293" lon="11.567144439256493" id="-16692">
		<tag k="alt_name" v="Skog" />
		<tag k="name" v="Skogheim" />
		<tag k="place" v="farm" />
		<tag k="ssr:stedsnr" v="491853" />
	</node>
	<node lat="60.266689427849606" lon="11.339694454693944" id="-16694">
		<tag k="alt_name" v="Manerud" />
		<tag k="name" v="Mannerud" />
		<tag k="old_name" v="Manderud" />
		<tag k="place" v="locality" />
		<tag k="ssr:stedsnr" v="492167" />
	</node>
	<node lat="60.08128333106191" lon="11.395819442564257" id="-16697">
		<tag k="name" v="Oset" />
		<tag k="place" v="farm" />
		<tag k="ssr:stedsnr" v="672036" />
	</node>
	<node lat="60.15865000188203" lon="11.502708333890657" id="-16698">
		<tag k="name" v="Åserud" />
		<tag k="old_name" v="Aaserud" />
		<tag k="place" v="farm" />
		<tag k="ssr:stedsnr" v="672605" />
	</node>
	<node lat="60.04900000008245" lon="11.337633336157202" id="-16699">
		<tag k="name" v="Graner" />
		<tag k="place" v="isolated_dwelling" />
		<tag k="ssr:stedsnr" v="673025" />
	</node>
	<node lat="60.048575003900005" lon="11.41238333752675" id="-16700">
		<tag k="fixme" v="multiple name tags, choose one and add the other to alt_name" />
		<tag k="name" v="Askerud;Grindåker" />
		<tag k="old_name" v="Grindaaker" />
		<tag k="place" v="farm" />
		<tag k="ssr:stedsnr" v="673031" />
	</node>
	<node lat="60.10065000197963" lon="11.49913333565438" id="-16701">
		<tag k="name" v="Sandberg" />
		<tag k="place" v="farm" />
		<tag k="ssr:stedsnr" v="672700" />
	</node>
	<node lat="60.10312222232945" lon="11.479419453123642" id="-16702">
		<tag k="name" v="Moland" />
		<tag k="place" v="farm" />
		<tag k="ssr:stedsnr" v="672706" />
	</node>
	<node lat="60.165453727355015" lon="11.469863728005587" id="-16703">
		<tag k="fixme" v="consider place=hamlet" />
		<tag k="name" v="Leir" />
		<tag k="place" v="farm" />
		<tag k="ssr:stedsnr" v="672853" />
	</node>
	<node lat="60.1674111101099" lon="11.474455563430665" id="-16704">
		<tag k="name" v="Uvesund" />
		<tag k="place" v="hamlet" />
		<tag k="ssr:stedsnr" v="672855" />
	</node>
	<node lat="60.06846161210985" lon="11.392335147433851" id="-16705">
		<tag k="fixme" v="consider place=hamlet" />
		<tag k="name" v="Brandstorp" />
		<tag k="place" v="farm" />
		<tag k="ssr:stedsnr" v="673065" />
	</node>
	<node lat="60.06887222042327" lon="11.436638895926329" id="-16706">
		<tag k="name" v="Inngjerd" />
		<tag k="place" v="farm" />
		<tag k="ssr:stedsnr" v="673073" />
	</node>
	<node lat="60.11329166728935" lon="11.354469446422819" id="-16707">
		<tag k="name" v="Ormdal" />
		<tag k="place" v="farm" />
		<tag k="ssr:stedsnr" v="673120" />
	</node>
	<node lat="60.10062233125471" lon="11.414448970511438" id="-16708">
		<tag k="name" v="Strøm" />
		<tag k="place" v="hamlet" />
		<tag k="ssr:stedsnr" v="673136" />
	</node>
	<node lat="60.142359265653376" lon="11.423196672467318" id="-16710">
		<tag k="alt_name" v="Vågstad søndre" />
		<tag k="fixme" v="consider place=hamlet" />
		<tag k="name" v="Søndre Vågstad" />
		<tag k="place" v="farm" />
		<tag k="ssr:stedsnr" v="673195" />
	</node>
	<node lat="60.202149999958216" lon="11.41970000751999" id="-16711">
		<tag k="name" v="Djupdalen" />
		<tag k="place" v="farm" />
		<tag k="ssr:stedsnr" v="673273" />
	</node>
	<node lat="60.19993542437522" lon="11.35172901345316" id="-16712">
		<tag k="fixme" v="consider place=hamlet" />
		<tag k="name" v="Låvegg" />
		<tag k="place" v="farm" />
		<tag k="ssr:stedsnr" v="673302" />
	</node>
	<node lat="60.21854444722824" lon="11.328844450427843" id="-16713">
		<tag k="name" v="Vestli" />
		<tag k="place" v="farm" />
		<tag k="ssr:stedsnr" v="673337" />
	</node>
	<node lat="60.23388285966981" lon="11.311237747613728" id="-16714">
		<tag k="fixme" v="consider place=hamlet" />
		<tag k="name" v="Bjørnli" />
		<tag k="place" v="farm" />
		<tag k="ssr:stedsnr" v="673350" />
	</node>
	<node lat="60.2578416695861" lon="11.509988895828586" id="-16716">
		<tag k="alt_name" v="Kjernsli" />
		<tag k="name" v="Tjernsli" />
		<tag k="place" v="farm" />
		<tag k="ssr:stedsnr" v="673523" />
	</node>
	<node lat="60.06251388578209" lon="11.675613893011459" id="-16718">
		<tag k="name" v="Bjørndalen" />
		<tag k="place" v="farm" />
		<tag k="ssr:stedsnr" v="673534" />
	</node>
	<node lat="60.24441549593067" lon="11.562453179314662" id="-16722">
		<tag k="name" v="Iversrud" />
		<tag k="place" v="farm" />
		<tag k="ssr:stedsnr" v="673953" />
	</node>
	<node lat="60.12789105175735" lon="11.5060397687399" id="-16724">
		<tag k="alt_name" v="Vestgard" />
		<tag k="fixme" v="consider place=hamlet" />
		<tag k="name" v="Vestgarden" />
		<tag k="old_name" v="Vestgaarden" />
		<tag k="place" v="farm" />
		<tag k="ssr:stedsnr" v="673684" />
	</node>
	<node lat="60.223655552172794" lon="11.488405555477064" id="-16725">
		<tag k="name" v="Brenna" />
		<tag k="place" v="farm" />
		<tag k="ssr:stedsnr" v="673759" />
	</node>
	<node lat="60.20070000003889" lon="11.497555554879506" id="-16727">
		<tag k="name" v="Tinnbruhaugen" />
		<tag k="place" v="farm" />
		<tag k="ssr:stedsnr" v="673767" />
	</node>
	<node lat="60.18681666828857" lon="11.526369443010068" id="-16728">
		<tag k="name" v="Myrvang" />
		<tag k="place" v="farm" />
		<tag k="ssr:stedsnr" v="673836" />
	</node>
	<node lat="60.19252817740187" lon="11.497631383186933" id="-16729">
		<tag k="fixme" v="consider place=hamlet" />
		<tag k="name" v="Skarning" />
		<tag k="place" v="farm" />
		<tag k="ssr:stedsnr" v="673841" />
	</node>
	<node lat="60.16944444080218" lon="11.536663896605724" id="-16730">
		<tag k="alt_name" v="Store Heberg" />
		<tag k="name" v="Fossen" />
		<tag k="place" v="farm" />
		<tag k="ssr:stedsnr" v="673867" />
	</node>
	<node lat="60.245891664684194" lon="11.586294435508018" id="-16731">
		<tag k="name" v="Jørnstua" />
		<tag k="place" v="farm" />
		<tag k="ssr:stedsnr" v="673951" />
	</node>
	<node lat="60.26099722655439" lon="11.345802774833603" id="-16732">
		<tag k="name" v="Høybråten" />
		<tag k="place" v="farm" />
		<tag k="ssr:stedsnr" v="674208" />
	</node>
	<node lat="60.0313472229601" lon="11.35060833193398" id="-16733">
		<tag k="name" v="Kroken" />
		<tag k="place" v="farm" />
		<tag k="ssr:stedsnr" v="464415" />
	</node>
	<node lat="60.083316670272175" lon="11.44896111849226" id="-16737">
		<tag k="name" v="Øvre Lund" />
		<tag k="place" v="farm" />
		<tag k="ssr:stedsnr" v="465061" />
	</node>
	<node lat="60.13994167091606" lon="11.33330000383198" id="-16740">
		<tag k="name" v="Solvang" />
		<tag k="place" v="farm" />
		<tag k="ssr:stedsnr" v="465172" />
	</node>
	<node lat="60.149881136822536" lon="11.478003390487517" id="-16741">
		<tag k="alt_name" v="Husmo" />
		<tag k="fixme" v="consider place=hamlet" />
		<tag k="name" v="Nordre Husmo" />
		<tag k="place" v="farm" />
		<tag k="ssr:stedsnr" v="465324" />
	</node>
	<node lat="60.14138333637218" lon="11.55491388904634" id="-16743">
		<tag k="name" v="Rokkebekkløkka" />
		<tag k="place" v="locality" />
		<tag k="ssr:stedsnr" v="465329" />
	</node>
	<node lat="60.252136113468275" lon="11.589569450212027" id="-16744">
		<tag k="name" v="Heiberg" />
		<tag k="place" v="farm" />
		<tag k="ssr:stedsnr" v="674599" />
	</node>
	<node lat="60.104949995947536" lon="11.387305559491502" id="-16745">
		<tag k="name" v="Nordhaug" />
		<tag k="place" v="farm" />
		<tag k="ssr:stedsnr" v="465480" />
	</node>
	<node lat="60.08977778045312" lon="11.462355561178338" id="-16748">
		<tag k="name" v="Ellingsrud" />
		<tag k="place" v="farm" />
		<tag k="ssr:stedsnr" v="465708" />
	</node>
	<node lat="60.02897777921607" lon="11.405874996350528" id="-16753">
		<tag k="name" v="Rosenlund" />
		<tag k="place" v="farm" />
		<tag k="ssr:stedsnr" v="465869" />
	</node>
	<node lat="60.170452659083956" lon="11.489571488008096" id="-16756">
		<tag k="alt_name" v="Oppåker" />
		<tag k="name" v="Søndre Oppåker" />
		<tag k="old_name" v="Søndre Oppaaker" />
		<tag k="place" v="farm" />
		<tag k="ssr:stedsnr" v="465928" />
	</node>
	<node lat="60.06536666561717" lon="11.400563885858862" id="-16758">
		<tag k="name" v="Bjørndalen" />
		<tag k="place" v="farm" />
		<tag k="ssr:stedsnr" v="466075" />
	</node>
	<node lat="60.11543055267327" lon="11.546530550309269" id="-16767">
		<tag k="name" v="Søndre Auli" />
		<tag k="place" v="farm" />
		<tag k="ssr:stedsnr" v="480008" />
	</node>
	<node lat="60.124057862900415" lon="11.47308415326299" id="-16769">
		<tag k="fixme" v="consider place=hamlet" />
		<tag k="name" v="Årnes" />
		<tag k="place" v="farm" />
		<tag k="ssr:stedsnr" v="480028" />
	</node>
	<node lat="60.253533336400444" lon="11.305341665773685" id="-16770">
		<tag k="alt_name" v="Breen søndre" />
		<tag k="name" v="Søndre Breen" />
		<tag k="place" v="farm" />
		<tag k="ssr:stedsnr" v="480110" />
	</node>
	<node lat="60.2071055581177" lon="11.342005555137105" id="-16771">
		<tag k="alt_name" v="Grinkelsrud" />
		<tag k="name" v="Grimkelsrud" />
		<tag k="place" v="farm" />
		<tag k="ssr:stedsnr" v="480174" />
	</node>
	<node lat="60.22332222077024" lon="11.574908338335531" id="-16773">
		<tag k="name" v="Lilleåsen" />
		<tag k="place" v="farm" />
		<tag k="ssr:stedsnr" v="480063" />
	</node>
	<node lat="60.202027777040136" lon="11.474213889404234" id="-16777">
		<tag k="name" v="Teiet" />
		<tag k="place" v="farm" />
		<tag k="ssr:stedsnr" v="480557" />
	</node>
	<node lat="60.19691944211092" lon="11.488461110856838" id="-16778">
		<tag k="alt_name" v="Greni nordgarn" />
		<tag k="name" v="Nordgarden Greni" />
		<tag k="place" v="farm" />
		<tag k="ssr:stedsnr" v="480560" />
	</node>
	<node lat="60.1487305590874" lon="11.408316659392906" id="-16779">
		<tag k="name" v="Kjølstad" />
		<tag k="place" v="farm" />
		<tag k="ssr:stedsnr" v="480562" />
	</node>
	<node lat="60.203786109047776" lon="11.42173610901222" id="-16783">
		<tag k="name" v="Birkelund" />
		<tag k="place" v="farm" />
		<tag k="ssr:stedsnr" v="480619" />
	</node>
	<node lat="60.210274996599175" lon="11.414705556921511" id="-16784">
		<tag k="name" v="Helstad" />
		<tag k="place" v="farm" />
		<tag k="ssr:stedsnr" v="480620" />
	</node>
	<node lat="60.070895497673256" lon="11.399560581613597" id="-16785">
		<tag k="name" v="Haugen" />
		<tag k="place" v="locality" />
		<tag k="ssr:stedsnr" v="480667" />
	</node>
	<node lat="60.09370555740035" lon="11.60619445109747" id="-16789">
		<tag k="name" v="Fjellberg" />
		<tag k="place" v="isolated_dwelling" />
		<tag k="ssr:stedsnr" v="480979" />
	</node>
	<node lat="60.238659366907896" lon="11.311999508998387" id="-16791">
		<tag k="alt_name" v="Søndre Sandaker" />
		<tag k="fixme" v="consider place=hamlet" />
		<tag k="name" v="Søndre Sandåker" />
		<tag k="old_name" v="Søndre Sandaaker" />
		<tag k="place" v="farm" />
		<tag k="ssr:stedsnr" v="480863" />
	</node>
	<node lat="60.05064247250678" lon="11.352845591680046" id="-16794">
		<tag k="fixme" v="consider place=hamlet" />
		<tag k="name" v="Rud" />
		<tag k="place" v="farm" />
		<tag k="ssr:stedsnr" v="490035" />
	</node>
	<node lat="60.050474998634805" lon="11.40239167247551" id="-16795">
		<tag k="name" v="Mo" />
		<tag k="place" v="locality" />
		<tag k="ssr:stedsnr" v="490038" />
	</node>
	<node lat="60.088483337062335" lon="11.337930558078142" id="-16796">
		<tag k="name" v="Jagastad" />
		<tag k="place" v="isolated_dwelling" />
		<tag k="ssr:stedsnr" v="490088" />
	</node>
	<node lat="60.11116666760712" lon="11.35734166717229" id="-16798">
		<tag k="name" v="Tjernstad" />
		<tag k="place" v="farm" />
		<tag k="ssr:stedsnr" v="490101" />
	</node>
	<node lat="60.18547499989399" lon="11.3559361122657" id="-16799">
		<tag k="name" v="Korsvoll" />
		<tag k="place" v="farm" />
		<tag k="ssr:stedsnr" v="490216" />
	</node>
	<node lat="60.13178519048957" lon="11.337904484660484" id="-16800">
		<tag k="fixme" v="consider place=hamlet" />
		<tag k="name" v="Rød" />
		<tag k="place" v="farm" />
		<tag k="ssr:stedsnr" v="490134" />
	</node>
	<node lat="60.12299999812012" lon="11.358149999840737" id="-16801">
		<tag k="name" v="Vangsmo" />
		<tag k="place" v="farm" />
		<tag k="ssr:stedsnr" v="490144" />
	</node>
	<node lat="60.16429002054982" lon="11.415809845903746" id="-16802">
		<tag k="fixme" v="consider place=hamlet" />
		<tag k="name" v="Hovin" />
		<tag k="place" v="farm" />
		<tag k="ssr:stedsnr" v="490190" />
	</node>
	<node lat="60.07790000258783" lon="11.611741666660626" id="-16803">
		<tag k="name" v="Svarthus" />
		<tag k="place" v="farm" />
		<tag k="ssr:stedsnr" v="490496" />
	</node>
	<node lat="60.08106944725164" lon="11.755347227059382" id="-16805">
		<tag k="name" v="Svinesund" />
		<tag k="place" v="isolated_dwelling" />
		<tag k="ssr:stedsnr" v="490505" />
	</node>
	<node lat="60.102141666339456" lon="11.50529166557265" id="-16806">
		<tag k="name" v="Vestby" />
		<tag k="place" v="farm" />
		<tag k="ssr:stedsnr" v="490728" />
	</node>
	<node lat="60.09848611370495" lon="11.48659166858485" id="-16807">
		<tag k="name" v="Grønnerud" />
		<tag k="place" v="farm" />
		<tag k="ssr:stedsnr" v="490730" />
	</node>
	<node lat="60.34138610695577" lon="11.418302783719106" id="-16808">
		<tag k="name" v="Maurdalen" />
		<tag k="place" v="isolated_dwelling" />
		<tag k="ssr:stedsnr" v="491107" />
	</node>
	<node lat="60.14494722521127" lon="11.33423056220955" id="-16809">
		<tag k="name" v="Vestby" />
		<tag k="place" v="farm" />
		<tag k="ssr:stedsnr" v="491173" />
	</node>
	<node lat="60.15255000301609" lon="11.3545888846792" id="-16810">
		<tag k="name" v="Askim" />
		<tag k="place" v="farm" />
		<tag k="ssr:stedsnr" v="491174" />
	</node>
	<node lat="60.14465833639034" lon="11.348999992807844" id="-16811">
		<tag k="name" v="Groheim" />
		<tag k="place" v="farm" />
		<tag k="ssr:stedsnr" v="491176" />
	</node>
	<node lat="60.213230462371556" lon="11.342273080297085" id="-16812">
		<tag k="fixme" v="consider place=hamlet" />
		<tag k="name" v="Brårud" />
		<tag k="place" v="farm" />
		<tag k="ssr:stedsnr" v="491309" />
	</node>
	<node lat="60.20728703868989" lon="11.34260239850156" id="-16813">
		<tag k="fixme" v="consider place=hamlet" />
		<tag k="name" v="Grinkelsrud" />
		<tag k="place" v="farm" />
		<tag k="ssr:stedsnr" v="491314" />
	</node>
	<node lat="60.20866943993679" lon="11.437925002992484" id="-16814">
		<tag k="name" v="Stenberg" />
		<tag k="place" v="farm" />
		<tag k="ssr:stedsnr" v="491272" />
	</node>
	<node lat="60.201583330861446" lon="11.33503889631241" id="-16815">
		<tag k="name" v="Vebors" />
		<tag k="place" v="farm" />
		<tag k="ssr:stedsnr" v="491286" />
	</node>
	<node lat="60.03677500261584" lon="11.478230564208925" id="-16816">
		<tag k="alt_name" v="Skulaue" />
		<tag k="name" v="Skulauget" />
		<tag k="place" v="isolated_dwelling" />
		<tag k="ssr:stedsnr" v="491575" />
	</node>
	<node lat="60.022316669394215" lon="11.692686112436176" id="-16821">
		<tag k="name" v="Gran" />
		<tag k="place" v="farm" />
		<tag k="ssr:stedsnr" v="491592" />
	</node>
	<node lat="60.10802938658732" lon="11.470160081258108" id="-16822">
		<tag k="fixme" v="consider place=hamlet" />
		<tag k="name" v="Åserud" />
		<tag k="place" v="farm" />
		<tag k="ssr:stedsnr" v="491709" />
	</node>
	<node lat="60.12315306190367" lon="11.540380975905844" id="-16824">
		<tag k="fixme" v="consider place=hamlet" />
		<tag k="name" v="Vennevål" />
		<tag k="place" v="farm" />
		<tag k="ssr:stedsnr" v="491687" />
	</node>
	<node lat="60.1084028240822" lon="11.45407147259681" id="-16828">
		<tag k="name" v="Nedre Grue" />
		<tag k="place" v="farm" />
		<tag k="ssr:stedsnr" v="526123" />
	</node>
	<node lat="60.12246944472151" lon="11.54255555510844" id="-16829">
		<tag k="name" v="Granhaug" />
		<tag k="place" v="isolated_dwelling" />
		<tag k="ssr:stedsnr" v="526069" />
	</node>
	<node lat="60.049044445922014" lon="11.410802775801754" id="-16831">
		<tag k="name" v="Aulibråten" />
		<tag k="place" v="farm" />
		<tag k="ssr:stedsnr" v="526270" />
	</node>
	<node lat="60.16649721791873" lon="11.384630555670514" id="-16832">
		<tag k="alt_name" v="Finstad negarn;Nedgarden Finstad" />
		<tag k="name" v="Nedre Finstad" />
		<tag k="place" v="farm" />
		<tag k="ssr:stedsnr" v="526271" />
	</node>
	<node lat="60.15887777937852" lon="11.427280553177972" id="-16834">
		<tag k="amenity" v="school" />
		<tag k="name" v="Vormsund ungdomsskole" />
		<tag k="ssr:stedsnr" v="526278" />
	</node>
	<node lat="60.13320000446625" lon="11.527372219260855" id="-16836">
		<tag k="name" v="Pålstua" />
		<tag k="place" v="farm" />
		<tag k="ssr:stedsnr" v="526322" />
	</node>
	<node lat="60.091247218232965" lon="11.487502782820584" id="-16843">
		<tag k="name" v="Gruebekken" />
		<tag k="place" v="farm" />
		<tag k="ssr:stedsnr" v="526692" />
	</node>
	<node lat="60.10123888674698" lon="11.436225000480697" id="-16846">
		<tag k="amenity" v="nursing_home" />
		<tag k="name" v="Elvestad" />
		<tag k="ssr:stedsnr" v="526703" />
	</node>
	<node lat="60.09413055415098" lon="11.425608341371769" id="-16848">
		<tag k="name" v="Nordre Bodding" />
		<tag k="place" v="farm" />
		<tag k="ssr:stedsnr" v="526709" />
	</node>
	<node lat="60.09614999564907" lon="11.464144439035929" id="-16850">
		<tag k="name" v="Jonsrud" />
		<tag k="place" v="farm" />
		<tag k="ssr:stedsnr" v="526714" />
	</node>
	<node lat="60.06175833156955" lon="11.705911110121873" id="-16853">
		<tag k="name" v="Tussbråtan" />
		<tag k="place" v="locality" />
		<tag k="ssr:stedsnr" v="526916" />
	</node>
	<node lat="60.02573055378667" lon="11.487008333111266" id="-16861">
		<tag k="name" v="Langtjennsaga" />
		<tag k="place" v="locality" />
		<tag k="ssr:stedsnr" v="534815" />
	</node>
	<node lat="60.120158330771226" lon="11.543097228323827" id="-16862">
		<tag k="name" v="Vennevål" />
		<tag k="place" v="farm" />
		<tag k="ssr:stedsnr" v="541003" />
	</node>
	<node lat="60.24256666940329" lon="11.296458334498345" id="-16865">
		<tag k="name" v="Høybråten" />
		<tag k="place" v="farm" />
		<tag k="ssr:stedsnr" v="541108" />
	</node>
	<node lat="60.189172222733255" lon="11.528374998366344" id="-16870">
		<tag k="name" v="Holen" />
		<tag k="place" v="farm" />
		<tag k="ssr:stedsnr" v="541822" />
	</node>
	<node lat="60.08438611235894" lon="11.364775001004679" id="-16871">
		<tag k="alt_name" v="Frogner" />
		<tag k="name" v="Sørstua Frogner" />
		<tag k="place" v="farm" />
		<tag k="ssr:stedsnr" v="541580" />
	</node>
	<node lat="60.202136113540185" lon="11.42643334019166" id="-16873">
		<tag k="name" v="Mykjedal" />
		<tag k="place" v="farm" />
		<tag k="ssr:stedsnr" v="541773" />
	</node>
	<node lat="60.19871111371856" lon="11.394494453622885" id="-16874">
		<tag k="name" v="Nedre Holter" />
		<tag k="place" v="farm" />
		<tag k="ssr:stedsnr" v="541774" />
	</node>
	<node lat="60.13039444493809" lon="11.355025006731713" id="-16875">
		<tag k="name" v="Harby" />
		<tag k="place" v="farm" />
		<tag k="ssr:stedsnr" v="541778" />
	</node>
	<node lat="60.23410833685316" lon="11.37473333140623" id="-16880">
		<tag k="name" v="Skogstad" />
		<tag k="place" v="farm" />
		<tag k="ssr:stedsnr" v="541981" />
	</node>
	<node lat="60.11764166770187" lon="11.43187500654499" id="-16883">
		<tag k="name" v="Nygard" />
		<tag k="place" v="farm" />
		<tag k="ssr:stedsnr" v="551107" />
	</node>
	<node lat="60.116652774452575" lon="11.414216670901281" id="-16884">
		<tag k="name" v="Mo" />
		<tag k="place" v="farm" />
		<tag k="ssr:stedsnr" v="551110" />
	</node>
	<node lat="60.140499135183354" lon="11.456304030377023" id="-16885">
		<tag k="fixme" v="consider place=hamlet" />
		<tag k="name" v="Åmot" />
		<tag k="place" v="farm" />
		<tag k="ssr:stedsnr" v="551147" />
	</node>
	<node lat="60.06807276568878" lon="11.357559530210645" id="-16886">
		<tag k="fixme" v="consider place=hamlet" />
		<tag k="name" v="Horgen" />
		<tag k="place" v="farm" />
		<tag k="ssr:stedsnr" v="551050" />
	</node>
	<node lat="60.16270000191121" lon="11.36449165912365" id="-16887">
		<tag k="name" v="Ulverud" />
		<tag k="place" v="farm" />
		<tag k="ssr:stedsnr" v="551211" />
	</node>
	<node lat="60.23281987207659" lon="11.366625361095174" id="-16888">
		<tag k="name" v="Rolstad" />
		<tag k="place" v="hamlet" />
		<tag k="ssr:stedsnr" v="551305" />
	</node>
	<node lat="60.056691669661134" lon="11.769575004774632" id="-16889">
		<tag k="name" v="Håkalia" />
		<tag k="place" v="isolated_dwelling" />
		<tag k="ssr:stedsnr" v="551504" />
	</node>
	<node lat="60.06832778072418" lon="11.775761116252804" id="-16890">
		<tag k="name" v="Nettmangen" />
		<tag k="place" v="locality" />
		<tag k="ssr:stedsnr" v="551512" />
	</node>
	<node lat="60.04282777708281" lon="11.52225278029238" id="-16891">
		<tag k="alt_name" v="Folvelsæter" />
		<tag k="historic" v="shieling" />
		<tag k="name" v="Folvelsetra" />
		<tag k="place" v="isolated_dwelling" />
		<tag k="ssr:stedsnr" v="551525" />
	</node>
	<node lat="60.038424999933845" lon="11.617580549731874" id="-16892">
		<tag k="alt_name" v="Lundbergsætra" />
		<tag k="historic" v="shieling" />
		<tag k="name" v="Lundbergsetra" />
		<tag k="place" v="isolated_dwelling" />
		<tag k="ssr:stedsnr" v="551544" />
	</node>
	<node lat="60.01424166820464" lon="11.68910556103237" id="-16895">
		<tag k="name" v="Bråtesæter" />
		<tag k="place" v="farm" />
		<tag k="ssr:stedsnr" v="551558" />
	</node>
	<node lat="60.18259999626595" lon="11.333077779019236" id="-16896">
		<tag k="name" v="Ro" />
		<tag k="place" v="farm" />
		<tag k="ssr:stedsnr" v="551242" />
	</node>
	<node lat="60.10705555735396" lon="11.543866671256612" id="-16897">
		<tag k="name" v="Lier" />
		<tag k="place" v="farm" />
		<tag k="ssr:stedsnr" v="551715" />
	</node>
	<node lat="60.2160750041715" lon="11.562652771392658" id="-16899">
		<tag k="name" v="Åsland" />
		<tag k="place" v="farm" />
		<tag k="ssr:stedsnr" v="551756" />
	</node>
	<node lat="60.22118333662646" lon="11.565711105896964" id="-16901">
		<tag k="name" v="Bekkevoll" />
		<tag k="place" v="farm" />
		<tag k="ssr:stedsnr" v="551804" />
	</node>
	<node lat="60.22078888935976" lon="11.557772225625861" id="-16902">
		<tag k="name" v="Nordli" />
		<tag k="place" v="farm" />
		<tag k="ssr:stedsnr" v="551806" />
	</node>
	<node lat="60.17790833257574" lon="11.478163883232886" id="-16904">
		<tag k="alt_name" v="Hegli" />
		<tag k="name" v="Heggli" />
		<tag k="place" v="farm" />
		<tag k="ssr:stedsnr" v="551840" />
	</node>
	<node lat="60.26970833722959" lon="11.443608337585218" id="-16905">
		<tag k="name" v="Fyrivangen" />
		<tag k="place" v="isolated_dwelling" />
		<tag k="ssr:stedsnr" v="552217" />
	</node>
	<node lat="60.24007499949663" lon="11.484527786530101" id="-16907">
		<tag k="name" v="Vøyenbråten" />
		<tag k="place" v="farm" />
		<tag k="ssr:stedsnr" v="551996" />
	</node>
	<node lat="60.27948333754439" lon="11.558827786269719" id="-16908">
		<tag k="name" v="Gåsva" />
		<tag k="place" v="isolated_dwelling" />
		<tag k="ssr:stedsnr" v="552617" />
	</node>
	<node lat="60.022169440137176" lon="11.326588890714183" id="-16910">
		<tag k="name" v="Granli" />
		<tag k="place" v="farm" />
		<tag k="ssr:stedsnr" v="585152" />
	</node>
	<node lat="60.13955277411778" lon="11.390894438387322" id="-16912">
		<tag k="name" v="Myr" />
		<tag k="place" v="farm" />
		<tag k="ssr:stedsnr" v="586208" />
	</node>
	<node lat="60.14750555692441" lon="11.347563880074103" id="-16913">
		<tag k="name" v="Gladheim" />
		<tag k="place" v="farm" />
		<tag k="ssr:stedsnr" v="586200" />
	</node>
	<node lat="60.14406944673312" lon="11.499455552407673" id="-16914">
		<tag k="name" v="Søndre Folmo" />
		<tag k="place" v="farm" />
		<tag k="ssr:stedsnr" v="586342" />
	</node>
	<node lat="60.0897166635799" lon="11.46415000469682" id="-16915">
		<tag k="name" v="Danielsrud" />
		<tag k="place" v="farm" />
		<tag k="ssr:stedsnr" v="586714" />
	</node>
	<node lat="60.09808611363187" lon="11.428849995798613" id="-16916">
		<tag k="alt_name" v="Folvell søndre" />
		<tag k="name" v="Søndre Folvell" />
		<tag k="place" v="farm" />
		<tag k="ssr:stedsnr" v="586699" />
	</node>
	<node lat="60.06829444477644" lon="11.431547221494887" id="-16918">
		<tag k="name" v="Holtet" />
		<tag k="place" v="locality" />
		<tag k="ssr:stedsnr" v="587043" />
	</node>
	<node lat="60.039633329811096" lon="11.365472225603533" id="-16923">
		<tag k="name" v="Solberg" />
		<tag k="place" v="farm" />
		<tag k="ssr:stedsnr" v="587855" />
	</node>
	<node lat="60.049491666562446" lon="11.69818889639239" id="-16930">
		<tag k="name" v="Gladbakk" />
		<tag k="place" v="locality" />
		<tag k="ssr:stedsnr" v="595911" />
	</node>
	<node lat="60.227766662130584" lon="11.57137222796773" id="-16934">
		<tag k="alt_name" v="Togstad østre" />
		<tag k="name" v="Østre Togstad" />
		<tag k="place" v="farm" />
		<tag k="ssr:stedsnr" v="601058" />
	</node>
	<node lat="60.253169447296024" lon="11.292502769646395" id="-16936">
		<tag k="name" v="Nybråtan" />
		<tag k="place" v="isolated_dwelling" />
		<tag k="ssr:stedsnr" v="601107" />
	</node>
	<node lat="60.120138887498506" lon="11.615627779434014" id="-16937">
		<tag k="name" v="Sjøgløtt" />
		<tag k="place" v="isolated_dwelling" />
		<tag k="ssr:stedsnr" v="601115" />
	</node>
	<node lat="60.06506666426253" lon="11.325330552234592" id="-16940">
		<tag k="alt_name" v="Henni vestre" />
		<tag k="fixme" v="multiple name tags, choose one and add the other to alt_name" />
		<tag k="name" v="Vestre Henni;Vestigarden" />
		<tag k="place" v="farm" />
		<tag k="ssr:stedsnr" v="601152" />
	</node>
	<node lat="60.08319722312246" lon="11.549275004565024" id="-16941">
		<tag k="name" v="Pålhuken" />
		<tag k="place" v="locality" />
		<tag k="ssr:stedsnr" v="601265" />
	</node>
	<node lat="60.29078333755376" lon="11.489425003445984" id="-16942">
		<tag k="historic" v="shieling" />
		<tag k="name" v="Gusterudvangen" />
		<tag k="place" v="isolated_dwelling" />
		<tag k="ssr:stedsnr" v="601504" />
	</node>
	<node lat="60.24987777910276" lon="11.580030559827785" id="-16953">
		<tag k="alt_name" v="Husås" />
		<tag k="name" v="Husåsen" />
		<tag k="place" v="farm" />
		<tag k="ssr:stedsnr" v="601925" />
	</node>
	<node lat="60.23524722086309" lon="11.4999861107166" id="-16955">
		<tag k="name" v="Vibostad" />
		<tag k="place" v="farm" />
		<tag k="ssr:stedsnr" v="601959" />
	</node>
	<node lat="60.23556666955385" lon="11.3840694486251" id="-16959">
		<tag k="name" v="Framnes" />
		<tag k="place" v="farm" />
		<tag k="ssr:stedsnr" v="611305" />
	</node>
	<node lat="60.23657222392559" lon="11.39660556185404" id="-16960">
		<tag k="name" v="Borgesrud" />
		<tag k="place" v="farm" />
		<tag k="ssr:stedsnr" v="611308" />
	</node>
	<node lat="60.23649932237599" lon="11.324950889355343" id="-16961">
		<tag k="fixme" v="consider place=hamlet" />
		<tag k="name" v="Berg" />
		<tag k="place" v="farm" />
		<tag k="ssr:stedsnr" v="611318" />
	</node>
	<node lat="60.05793333500195" lon="11.337586112255723" id="-16964">
		<tag k="name" v="Flaen" />
		<tag k="place" v="farm" />
		<tag k="ssr:stedsnr" v="612014" />
	</node>
	<node lat="60.06303610729735" lon="11.42235277625917" id="-16965">
		<tag k="name" v="Mo" />
		<tag k="place" v="farm" />
		<tag k="ssr:stedsnr" v="612066" />
	</node>
	<node lat="60.118653722749976" lon="11.440527152407341" id="-16966">
		<tag k="fixme" v="consider place=hamlet" />
		<tag k="name" v="Bøler" />
		<tag k="place" v="farm" />
		<tag k="ssr:stedsnr" v="612126" />
	</node>
	<node lat="60.2082999993489" lon="11.412011110844626" id="-16968">
		<tag k="alt_name" v="Århus oppstun" />
		<tag k="name" v="Oppstuen Århus" />
		<tag k="place" v="farm" />
		<tag k="ssr:stedsnr" v="612281" />
	</node>
	<node lat="60.12451034299945" lon="11.510779840654546" id="-16969">
		<tag k="alt_name" v="Østgard" />
		<tag k="fixme" v="consider place=hamlet" />
		<tag k="name" v="Østgarden" />
		<tag k="old_name" v="Østgården;Østgaarden" />
		<tag k="place" v="farm" />
		<tag k="ssr:stedsnr" v="612677" />
	</node>
	<node lat="60.115519447070376" lon="11.478188887716325" id="-16970">
		<tag k="name" v="Solbakken" />
		<tag k="place" v="farm" />
		<tag k="ssr:stedsnr" v="612688" />
	</node>
	<node lat="60.18189999649979" lon="11.521766658910215" id="-16971">
		<tag k="name" v="Bråten" />
		<tag k="place" v="farm" />
		<tag k="ssr:stedsnr" v="612812" />
	</node>
	<node lat="60.10817663788976" lon="11.517907406564042" id="-16973">
		<tag k="name" v="Bjørnenga" />
		<tag k="place" v="locality" />
		<tag k="ssr:stedsnr" v="612713" />
	</node>
	<node lat="60.108291668724576" lon="11.556577769105468" id="-16974">
		<tag k="name" v="Kløfta" />
		<tag k="place" v="farm" />
		<tag k="ssr:stedsnr" v="612728" />
	</node>
	<node lat="60.221825001699116" lon="11.486877777472241" id="-16975">
		<tag k="name" v="Sannerud" />
		<tag k="place" v="farm" />
		<tag k="ssr:stedsnr" v="612762" />
	</node>
	<node lat="60.20880659267974" lon="11.369260065369117" id="-16976">
		<tag k="fixme" v="consider place=hamlet" />
		<tag k="name" v="Huser" />
		<tag k="place" v="farm" />
		<tag k="ssr:stedsnr" v="646087" />
	</node>
	<node lat="60.01046683289578" lon="11.624985899721818" id="-16980">
		<tag k="name" v="Rynjutjernlia" />
		<tag k="place" v="locality" />
		<tag k="ssr:stedsnr" v="647076" />
	</node>
	<node lat="60.01304721929237" lon="11.63120554664313" id="-16981">
		<tag k="name" v="Myrsetra" />
		<tag k="place" v="locality" />
		<tag k="ssr:stedsnr" v="647078" />
	</node>
	<node lat="60.07409319027198" lon="11.423859782902033" id="-16983">
		<tag k="fixme" v="consider place=hamlet" />
		<tag k="name" v="Hammerstad" />
		<tag k="place" v="farm" />
		<tag k="ssr:stedsnr" v="647084" />
	</node>
	<node lat="60.14995555506227" lon="11.39224444639275" id="-16989">
		<tag k="alt_name" v="Kamphus vestre" />
		<tag k="name" v="Vestre Kamphus" />
		<tag k="place" v="farm" />
		<tag k="ssr:stedsnr" v="647241" />
	</node>
	<node lat="60.14899722367928" lon="11.396191665425892" id="-16990">
		<tag k="alt_name" v="Kamphus østre" />
		<tag k="name" v="Østre Kamphus" />
		<tag k="place" v="farm" />
		<tag k="ssr:stedsnr" v="647243" />
	</node>
	<node lat="60.25038055708737" lon="11.303691658190674" id="-16992">
		<tag k="name" v="Innleggen1" />
		<tag k="place" v="farm" />
		<tag k="ssr:stedsnr" v="647126" />
	</node>
	<node lat="60.13969722669258" lon="11.507336105661985" id="-16994">
		<tag k="name" v="Vang" />
		<tag k="place" v="farm" />
		<tag k="ssr:stedsnr" v="647328" />
	</node>
	<node lat="60.09301110957725" lon="11.3538666589491" id="-17000">
		<tag k="alt_name" v="Holtløkken" />
		<tag k="name" v="Holtløkka" />
		<tag k="place" v="farm" />
		<tag k="ssr:stedsnr" v="647531" />
	</node>
	<node lat="60.10205277683097" lon="11.366152771162598" id="-17001">
		<tag k="name" v="Teie" />
		<tag k="place" v="farm" />
		<tag k="ssr:stedsnr" v="647534" />
	</node>
	<node lat="60.0994055547523" lon="11.462947222809131" id="-17002">
		<tag k="name" v="Gruestua" />
		<tag k="place" v="farm" />
		<tag k="ssr:stedsnr" v="647713" />
	</node>
	<node lat="60.11972222575514" lon="11.477066671152151" id="-17011">
		<tag k="amenity" v="nursing_home" />
		<tag k="name" v="Nes sykehjem" />
		<tag k="ssr:stedsnr" v="708036" />
	</node>
	<node lat="60.07914999807423" lon="11.418538885266084" id="-17012">
		<tag k="name" v="Smedsbodding" />
		<tag k="place" v="farm" />
		<tag k="ssr:stedsnr" v="708072" />
	</node>
	<node lat="60.127555558699214" lon="11.616650008040702" id="-17013">
		<tag k="name" v="Arstuen" />
		<tag k="place" v="farm" />
		<tag k="ssr:stedsnr" v="708132" />
	</node>
	<node lat="60.05580277935374" lon="11.396777785262401" id="-17014">
		<tag k="name" v="Bakken" />
		<tag k="place" v="farm" />
		<tag k="ssr:stedsnr" v="708101" />
	</node>
	<node lat="60.055355555846" lon="11.402188896990161" id="-17015">
		<tag k="name" v="Lundberg" />
		<tag k="place" v="farm" />
		<tag k="ssr:stedsnr" v="708105" />
	</node>
	<node lat="60.11340277596346" lon="11.639897230186396" id="-17017">
		<tag k="name" v="Arnebråten" />
		<tag k="place" v="locality" />
		<tag k="ssr:stedsnr" v="708176" />
	</node>
	<node lat="60.05301388981364" lon="11.369611109476715" id="-17018">
		<tag k="name" v="Strand" />
		<tag k="place" v="farm" />
		<tag k="ssr:stedsnr" v="708192" />
	</node>
	<node lat="60.129600004016325" lon="11.476297224293843" id="-17021">
		<tag k="amenity" v="school" />
		<tag k="name" v="Runni barneskole" />
		<tag k="ssr:stedsnr" v="708204" />
	</node>
	<node lat="60.157669808641785" lon="11.451651340415383" id="-17025">
		<tag k="alt_name" v="Ullershov" />
		<tag k="fixme" v="consider place=hamlet" />
		<tag k="name" v="Nordre Ullershov" />
		<tag k="place" v="farm" />
		<tag k="ssr:stedsnr" v="708347" />
	</node>
	<node lat="60.125486115530585" lon="11.394266666795165" id="-17029">
		<tag k="name" v="Vansum" />
		<tag k="old_name" v="Vansemb" />
		<tag k="place" v="farm" />
		<tag k="ssr:stedsnr" v="655909" />
	</node>
	<node lat="60.09771111145779" lon="11.393255564090019" id="-17032">
		<tag k="name" v="Hvamstad" />
		<tag k="place" v="farm" />
		<tag k="ssr:stedsnr" v="708543" />
	</node>
	<node lat="60.215305559497565" lon="11.416611105640335" id="-17034">
		<tag k="alt_name" v="Holen søndre" />
		<tag k="name" v="Søndre Holen" />
		<tag k="place" v="farm" />
		<tag k="ssr:stedsnr" v="708577" />
	</node>
	<node lat="60.19009166442149" lon="11.565194450941554" id="-17040">
		<tag k="alt_name" v="Bækken" />
		<tag k="fixme" v="multiple name tags, choose one and add the other to alt_name" />
		<tag k="name" v="Bekken;Oppåkerbekken" />
		<tag k="place" v="farm" />
		<tag k="ssr:stedsnr" v="708887" />
	</node>
	<node lat="60.130722221651425" lon="11.446436107170324" id="-17045">
		<tag k="alt_name" v="Rotnes vestre" />
		<tag k="name" v="Vestre Rotnes" />
		<tag k="place" v="farm" />
		<tag k="ssr:stedsnr" v="708947" />
	</node>
	<node lat="60.04030278211187" lon="11.378199991380544" id="-17046">
		<tag k="name" v="Nyslett" />
		<tag k="place" v="farm" />
		<tag k="ssr:stedsnr" v="708832" />
	</node>
	<node lat="60.03944471704419" lon="11.397114594536175" id="-17047">
		<tag k="alt_name" v="Auli østre" />
		<tag k="fixme" v="consider place=hamlet" />
		<tag k="name" v="Østre Auli" />
		<tag k="place" v="farm" />
		<tag k="ssr:stedsnr" v="708840" />
	</node>
	<node lat="60.233708333513356" lon="11.529152781900557" id="-17049">
		<tag k="name" v="Oppheim" />
		<tag k="place" v="farm" />
		<tag k="ssr:stedsnr" v="662074" />
	</node>
	<node lat="60.24153055620634" lon="11.357508333188093" id="-17051">
		<tag k="name" v="Nyjordet" />
		<tag k="place" v="farm" />
		<tag k="ssr:stedsnr" v="662140" />
	</node>
	<node lat="60.15441944823853" lon="11.465858330903773" id="-17053">
		<tag k="name" v="Hennisand" />
		<tag k="place" v="farm" />
		<tag k="ssr:stedsnr" v="662304" />
	</node>
	<node lat="60.20668889277412" lon="11.524200003318398" id="-17065">
		<tag k="alt_name" v="Sagatun østre" />
		<tag k="name" v="Østre Sagatun" />
		<tag k="place" v="farm" />
		<tag k="ssr:stedsnr" v="662536" />
	</node>
	<node lat="60.18283611128569" lon="11.52152222128809" id="-17072">
		<tag k="name" v="Haugen" />
		<tag k="place" v="farm" />
		<tag k="ssr:stedsnr" v="662903" />
	</node>
	<node lat="60.10137222497761" lon="11.58727778613886" id="-17078">
		<tag k="name" v="Fjellheim" />
		<tag k="place" v="farm" />
		<tag k="ssr:stedsnr" v="662996" />
	</node>
	<node lat="60.16184166498375" lon="11.379769436432339" id="-17088">
		<tag k="name" v="Bjørklund" />
		<tag k="place" v="isolated_dwelling" />
		<tag k="ssr:stedsnr" v="890293" />
	</node>
	<node lat="60.15181944362722" lon="11.509016666019484" id="-17089">
		<tag k="name" v="Folberg" />
		<tag k="place" v="farm" />
		<tag k="ssr:stedsnr" v="890336" />
	</node>
	<node lat="60.20972499846373" lon="11.546836115320605" id="-17092">
		<tag k="name" v="Bergly" />
		<tag k="old_name" v="Nyjordet" />
		<tag k="place" v="farm" />
		<tag k="ssr:stedsnr" v="890389" />
	</node>
	<node lat="60.09031389184073" lon="11.388850005482439" id="-17093">
		<tag k="alt_name" v="Udenesengen" />
		<tag k="name" v="Enga" />
		<tag k="place" v="farm" />
		<tag k="ssr:stedsnr" v="672073" />
	</node>
	<node lat="60.092441666902154" lon="11.365641667112833" id="-17094">
		<tag k="name" v="Holsenga" />
		<tag k="place" v="farm" />
		<tag k="ssr:stedsnr" v="672076" />
	</node>
	<node lat="60.17968610872154" lon="11.343511105712482" id="-17097">
		<tag k="alt_name" v="Melgård" />
		<tag k="name" v="Mellegard" />
		<tag k="place" v="farm" />
		<tag k="ssr:stedsnr" v="672222" />
	</node>
	<node lat="60.05597500164631" lon="11.325624994792328" id="-17101">
		<tag k="name" v="Holstad" />
		<tag k="place" v="farm" />
		<tag k="ssr:stedsnr" v="673010" />
	</node>
	<node lat="60.16140071216119" lon="11.42609554145118" id="-17102">
		<tag k="fixme" v="consider place=hamlet" />
		<tag k="name" v="Rommen" />
		<tag k="place" v="farm" />
		<tag k="ssr:stedsnr" v="673209" />
	</node>
	<node lat="60.1543715837943" lon="11.3984282765628" id="-17103">
		<tag k="alt_name" v="Henau" />
		<tag k="fixme" v="consider place=hamlet" />
		<tag k="name" v="Henu" />
		<tag k="place" v="farm" />
		<tag k="ssr:stedsnr" v="673224" />
	</node>
	<node lat="60.17564999909923" lon="11.341761106224293" id="-17106">
		<tag k="name" v="Myrstad" />
		<tag k="place" v="farm" />
		<tag k="ssr:stedsnr" v="673259" />
	</node>
	<node lat="60.14758611516668" lon="11.35081110440992" id="-17107">
		<tag k="name" v="Hellum" />
		<tag k="place" v="farm" />
		<tag k="ssr:stedsnr" v="673177" />
	</node>
	<node lat="60.14971389036072" lon="11.378583339163134" id="-17108">
		<tag k="name" v="Østli" />
		<tag k="place" v="farm" />
		<tag k="ssr:stedsnr" v="673180" />
	</node>
	<node lat="60.207138888951334" lon="11.3774388829536" id="-17109">
		<tag k="name" v="Bakkevoll" />
		<tag k="place" v="farm" />
		<tag k="ssr:stedsnr" v="673313" />
	</node>
	<node lat="60.225491662829825" lon="11.341530552802746" id="-17110">
		<tag k="name" v="Hageberg" />
		<tag k="place" v="farm" />
		<tag k="ssr:stedsnr" v="673321" />
	</node>
	<node lat="60.22551111392495" lon="11.40939444631752" id="-17111">
		<tag k="name" v="Jonsrud" />
		<tag k="place" v="farm" />
		<tag k="ssr:stedsnr" v="673325" />
	</node>
	<node lat="60.0167583317366" lon="11.696111112688559" id="-17116">
		<tag k="name" v="Gransbråten" />
		<tag k="place" v="farm" />
		<tag k="ssr:stedsnr" v="673580" />
	</node>
	<node lat="60.03023956045705" lon="11.795315210738975" id="-17117">
		<tag k="name" v="Nordre Bjørknes" />
		<tag k="place" v="farm" />
		<tag k="ssr:stedsnr" v="673581" />
	</node>
	<node lat="60.2150166652921" lon="11.511427774504739" id="-17118">
		<tag k="name" v="Sagen" />
		<tag k="place" v="farm" />
		<tag k="ssr:stedsnr" v="673756" />
	</node>
	<node lat="60.037005558709666" lon="11.372755561937637" id="-17119">
		<tag k="name" v="Nyland" />
		<tag k="place" v="farm" />
		<tag k="ssr:stedsnr" v="673919" />
	</node>
	<node lat="60.23130277694372" lon="11.548055564312344" id="-17120">
		<tag k="name" v="Kolstad" />
		<tag k="place" v="farm" />
		<tag k="ssr:stedsnr" v="673973" />
	</node>
	<node lat="60.27323888887539" lon="11.335286107461947" id="-17121">
		<tag k="name" v="Svensrud" />
		<tag k="place" v="farm" />
		<tag k="ssr:stedsnr" v="674188" />
	</node>
	<node lat="60.057325001231774" lon="11.338891668604667" id="-17127">
		<tag k="name" v="Nygård" />
		<tag k="place" v="farm" />
		<tag k="ssr:stedsnr" v="891194" />
	</node>
	<node lat="60.13551388907154" lon="11.342369435577957" id="-17128">
		<tag k="name" v="Melvoll" />
		<tag k="place" v="farm" />
		<tag k="ssr:stedsnr" v="891202" />
	</node>
	<node lat="60.01268889233048" lon="11.741916666432576" id="-17131">
		<tag k="name" v="Myrvoll" />
		<tag k="place" v="locality" />
		<tag k="ssr:stedsnr" v="891133" />
	</node>
	<node lat="60.014099999379205" lon="11.40495555052457" id="-17132">
		<tag k="name" v="Fredheim" />
		<tag k="place" v="farm" />
		<tag k="ssr:stedsnr" v="891491" />
	</node>
	<node lat="60.01042777527269" lon="11.396344447071804" id="-17134">
		<tag k="alt_name" v="Huser søstun;Søstuen Huser" />
		<tag k="name" v="Søndre Huser" />
		<tag k="place" v="farm" />
		<tag k="ssr:stedsnr" v="891513" />
	</node>
	<node lat="60.23223273450664" lon="11.569041828099959" id="-17135">
		<tag k="alt_name" v="Togstad øvre" />
		<tag k="name" v="Øvre Togstad" />
		<tag k="place" v="farm" />
		<tag k="ssr:stedsnr" v="891310" />
	</node>
	<node lat="60.21512499697377" lon="11.41130832707715" id="-17136">
		<tag k="name" v="Bentstuen" />
		<tag k="place" v="farm" />
		<tag k="ssr:stedsnr" v="891589" />
	</node>
	<node lat="60.03268055296787" lon="11.672091667069234" id="-17138">
		<tag k="name" v="Husmosetra" />
		<tag k="place" v="locality" />
		<tag k="ssr:stedsnr" v="891791" />
	</node>
	<node lat="60.13038333038633" lon="11.448283337076742" id="-17141">
		<tag k="alt_name" v="Rotnes østre" />
		<tag k="name" v="Østre Rotnes" />
		<tag k="place" v="farm" />
		<tag k="ssr:stedsnr" v="891962" />
	</node>
	<node lat="60.12447222451099" lon="11.446780550609576" id="-17142">
		<tag k="name" v="Søndre Rotnes" />
		<tag k="place" v="farm" />
		<tag k="ssr:stedsnr" v="891964" />
	</node>
	<node lat="60.10210833579989" lon="11.38510277038666" id="-17143">
		<tag k="fixme" v="multiple name tags, choose one and add the other to alt_name" />
		<tag k="name" v="Gamle Hvam museum;Store Hvam" />
		<tag k="place" v="farm" />
		<tag k="ssr:stedsnr" v="703521" />
	</node>
	<node lat="60.13411666682602" lon="11.408272222898722" id="-17151">
		<tag k="name" v="Austmo" />
		<tag k="place" v="farm" />
		<tag k="ssr:stedsnr" v="708218" />
	</node>
	<node lat="60.13376944411668" lon="11.36924166073876" id="-17152">
		<tag k="name" v="Stein" />
		<tag k="place" v="farm" />
		<tag k="ssr:stedsnr" v="708220" />
	</node>
	<node lat="60.163027775514685" lon="11.368680549439818" id="-17153">
		<tag k="name" v="Veiland" />
		<tag k="place" v="farm" />
		<tag k="ssr:stedsnr" v="708285" />
	</node>
	<node lat="60.09620000341094" lon="11.487336109168117" id="-17158">
		<tag k="name" v="Modal" />
		<tag k="place" v="farm" />
		<tag k="ssr:stedsnr" v="708670" />
	</node>
	<node lat="60.12248611225552" lon="11.465772231240335" id="-17162">
		<tag k="amenity" v="townhall" />
		<tag k="name" v="Nes rådhus" />
		<tag k="ssr:stedsnr" v="708933" />
	</node>
	<node lat="60.057588889821275" lon="11.675886103468065" id="-17175">
		<tag k="name" v="Grindalshytta" />
		<tag k="place" v="isolated_dwelling" />
		<tag k="ssr:stedsnr" v="899934" />
	</node>
	<node lat="60.177899995895814" lon="11.439702783174944" id="-17176">
		<tag k="name" v="Gurud" />
		<tag k="place" v="farm" />
		<tag k="ssr:stedsnr" v="723007" />
	</node>
	<node lat="60.12079999739085" lon="11.615302780330051" id="-17180">
		<tag k="name" v="Sjøheim" />
		<tag k="place" v="isolated_dwelling" />
		<tag k="ssr:stedsnr" v="723120" />
	</node>
	<node lat="60.192233335662024" lon="11.480113895659047" id="-17193">
		<tag k="name" v="Grenieng" />
		<tag k="place" v="farm" />
		<tag k="ssr:stedsnr" v="723879" />
	</node>
	<node lat="60.233397222426476" lon="11.430877777212945" id="-17199">
		<tag k="name" v="Riserhytta" />
		<tag k="place" v="isolated_dwelling" />
		<tag k="ssr:stedsnr" v="723942" />
	</node>
	<node lat="60.231311108650125" lon="11.389558332212287" id="-17200">
		<tag k="name" v="Åsland" />
		<tag k="place" v="farm" />
		<tag k="ssr:stedsnr" v="723978" />
	</node>
	<node lat="60.05571389013342" lon="11.344219452204204" id="-17203">
		<tag k="name" v="Engebråten" />
		<tag k="place" v="isolated_dwelling" />
		<tag k="ssr:stedsnr" v="733014" />
	</node>
	<node lat="60.06135277468432" lon="11.412761112155714" id="-17204">
		<tag k="alt_name" v="Seter" />
		<tag k="name" v="Sæter" />
		<tag k="place" v="farm" />
		<tag k="ssr:stedsnr" v="733016" />
	</node>
	<node lat="60.059344441853746" lon="11.390060484540545" id="-17205">
		<tag k="fixme" v="consider place=hamlet" />
		<tag k="name" v="Munkerud" />
		<tag k="place" v="farm" />
		<tag k="ssr:stedsnr" v="733020" />
	</node>
	<node lat="60.0599527801304" lon="11.393413895512587" id="-17206">
		<tag k="name" v="Fagernes" />
		<tag k="place" v="farm" />
		<tag k="ssr:stedsnr" v="733023" />
	</node>
	<node lat="60.077692912075385" lon="11.36451465394077" id="-17207">
		<tag k="fixme" v="consider place=hamlet" />
		<tag k="name" v="Berg" />
		<tag k="place" v="farm" />
		<tag k="ssr:stedsnr" v="733055" />
	</node>
	<node lat="60.11889721817655" lon="11.353463882047095" id="-17208">
		<tag k="name" v="Orrebekk" />
		<tag k="place" v="farm" />
		<tag k="ssr:stedsnr" v="733154" />
	</node>
	<node lat="60.1289194454753" lon="11.34447499504192" id="-17209">
		<tag k="alt_name" v="Mogård" />
		<tag k="name" v="Mogard" />
		<tag k="place" v="farm" />
		<tag k="ssr:stedsnr" v="733160" />
	</node>
	<node lat="60.132438888817006" lon="11.607294444244769" id="-17211">
		<tag k="alt_name" v="Folbergseter" />
		<tag k="name" v="Folbergsætra" />
		<tag k="old_name" v="Foldbergsætra" />
		<tag k="place" v="farm" />
		<tag k="ssr:stedsnr" v="733638" />
	</node>
	<node lat="60.20948055997043" lon="11.55881666889564" id="-17212">
		<tag k="name" v="Nes" />
		<tag k="place" v="farm" />
		<tag k="ssr:stedsnr" v="733785" />
	</node>
	<node lat="60.23385000265554" lon="11.538011111306556" id="-17213">
		<tag k="name" v="Dystlandhaugen" />
		<tag k="place" v="farm" />
		<tag k="ssr:stedsnr" v="733966" />
	</node>
	<node lat="60.25894341175635" lon="11.32754873009109" id="-17215">
		<tag k="fixme" v="consider place=hamlet" />
		<tag k="name" v="Rud" />
		<tag k="place" v="farm" />
		<tag k="ssr:stedsnr" v="734243" />
	</node>
	<node lat="60.142302777600705" lon="11.347300001219448" id="-17218">
		<tag k="name" v="Rødnes" />
		<tag k="place" v="farm" />
		<tag k="ssr:stedsnr" v="734197" />
	</node>
	<node lat="60.14462341196591" lon="11.425697932257963" id="-17219">
		<tag k="fixme" v="consider place=hamlet" />
		<tag k="name" v="Midtre Vågstad" />
		<tag k="place" v="farm" />
		<tag k="ssr:stedsnr" v="734201" />
	</node>
	<node lat="60.21322777909258" lon="11.412552773834223" id="-17220">
		<tag k="name" v="Lyrstad" />
		<tag k="place" v="farm" />
		<tag k="ssr:stedsnr" v="734307" />
	</node>
	<node lat="60.21079166660877" lon="11.435105561434966" id="-17221">
		<tag k="name" v="Bekkeland" />
		<tag k="place" v="farm" />
		<tag k="ssr:stedsnr" v="734310" />
	</node>
	<node lat="60.20182960212778" lon="11.370974158613894" id="-17222">
		<tag k="fixme" v="consider place=hamlet" />
		<tag k="name" v="Strøm" />
		<tag k="place" v="farm" />
		<tag k="ssr:stedsnr" v="734315" />
	</node>
	<node lat="60.19746440420499" lon="11.401761022610923" id="-17223">
		<tag k="name" v="Holter" />
		<tag k="place" v="hamlet" />
		<tag k="ssr:stedsnr" v="734319" />
	</node>
	<node lat="60.2011951924905" lon="11.452185282562912" id="-17225">
		<tag k="fixme" v="consider place=hamlet" />
		<tag k="name" v="Hjellum" />
		<tag k="place" v="farm" />
		<tag k="ssr:stedsnr" v="734284" />
	</node>
	<node lat="60.12126635529144" lon="11.508167403885706" id="-17229">
		<tag k="fixme" v="consider place=hamlet" />
		<tag k="name" v="Lundberg" />
		<tag k="place" v="farm" />
		<tag k="ssr:stedsnr" v="734706" />
	</node>
	<node lat="60.2229138891991" lon="11.557919451112006" id="-17230">
		<tag k="name" v="Nygard" />
		<tag k="place" v="farm" />
		<tag k="ssr:stedsnr" v="734778" />
	</node>
	<node lat="60.18510277926193" lon="11.358438884142137" id="-17233">
		<tag k="name" v="Nordbyhagen" />
		<tag k="place" v="locality" />
		<tag k="ssr:stedsnr" v="905078" />
	</node>
	<node lat="60.237786110102796" lon="11.573549998891007" id="-17234">
		<tag k="name" v="Engeflaen" />
		<tag k="place" v="farm" />
		<tag k="ssr:stedsnr" v="905083" />
	</node>
	<node lat="60.11929999714165" lon="11.531258330001814" id="-17237">
		<tag k="amenity" v="school" />
		<tag k="name" v="Østgård skole" />
		<tag k="ssr:stedsnr" v="905037" />
	</node>
	<node lat="60.176661110321014" lon="11.337563890981182" id="-17238">
		<tag k="name" v="Lyngstad" />
		<tag k="place" v="farm" />
		<tag k="ssr:stedsnr" v="905157" />
	</node>
	<node lat="60.07835833527715" lon="11.56688056312725" id="-17240">
		<tag k="name" v="Lundberghytta" />
		<tag k="place" v="isolated_dwelling" />
		<tag k="ssr:stedsnr" v="905294" />
	</node>
	<node lat="60.12993391079793" lon="11.332377191769115" id="-17245">
		<tag k="fixme" v="consider place=hamlet" />
		<tag k="name" v="Skulsrud" />
		<tag k="place" v="farm" />
		<tag k="ssr:stedsnr" v="905590" />
	</node>
	<node lat="60.20646944606497" lon="11.388255551074444" id="-17256">
		<tag k="name" v="Slåttbråten" />
		<tag k="place" v="farm" />
		<tag k="ssr:stedsnr" v="905694" />
	</node>
	<node lat="60.24585277971226" lon="11.304783338700398" id="-17258">
		<tag k="alt_name" v="Hofset;Hogset" />
		<tag k="name" v="Øvre Hogset" />
		<tag k="place" v="farm" />
		<tag k="ssr:stedsnr" v="905790" />
	</node>
	<node lat="60.10782222364587" lon="11.518299997992335" id="-17267">
		<tag k="alt_name" v="Bjørnenga østre" />
		<tag k="name" v="Østre Bjørnenga" />
		<tag k="place" v="farm" />
		<tag k="ssr:stedsnr" v="905982" />
	</node>
	<node lat="60.02318888939178" lon="11.329297216911682" id="-17271">
		<tag k="name" v="Fjellvang" />
		<tag k="place" v="farm" />
		<tag k="ssr:stedsnr" v="768153" />
	</node>
	<node lat="60.062506869474596" lon="11.42782322518191" id="-17273">
		<tag k="alt_name" v="Finnholt" />
		<tag k="name" v="Flaen" />
		<tag k="place" v="farm" />
		<tag k="ssr:stedsnr" v="768243" />
	</node>
	<node lat="60.07913611367282" lon="11.44419443584452" id="-17278">
		<tag k="name" v="Lamo" />
		<tag k="place" v="farm" />
		<tag k="ssr:stedsnr" v="769056" />
	</node>
	<node lat="60.08775230420903" lon="11.456593267715029" id="-17279">
		<tag k="name" v="Fredheim" />
		<tag k="old_name" v="Nordre Bodding" />
		<tag k="place" v="farm" />
		<tag k="ssr:stedsnr" v="769063" />
	</node>
	<node lat="60.1591416686066" lon="11.382327782203241" id="-17281">
		<tag k="name" v="Inngjerdinga" />
		<tag k="place" v="farm" />
		<tag k="ssr:stedsnr" v="769206" />
	</node>
	<node lat="60.13727222442972" lon="11.499658325399563" id="-17282">
		<tag k="name" v="Jansrud" />
		<tag k="place" v="farm" />
		<tag k="ssr:stedsnr" v="769304" />
	</node>
	<node lat="60.109172220812425" lon="11.396283327152648" id="-17283">
		<tag k="name" v="Søgård" />
		<tag k="place" v="farm" />
		<tag k="ssr:stedsnr" v="769520" />
	</node>
	<node lat="60.154427782007325" lon="11.410175000211744" id="-17285">
		<tag k="alt_name" v="Henu nedre" />
		<tag k="name" v="Nedre Henu" />
		<tag k="place" v="farm" />
		<tag k="ssr:stedsnr" v="769297" />
	</node>
	<node lat="60.09849999960069" lon="11.455666674589096" id="-17286">
		<tag k="name" v="Brauterenga" />
		<tag k="place" v="farm" />
		<tag k="ssr:stedsnr" v="769706" />
	</node>
	<node lat="60.06888055665581" lon="11.347869439674259" id="-17290">
		<tag k="name" v="Teie" />
		<tag k="place" v="farm" />
		<tag k="ssr:stedsnr" v="769765" />
	</node>
	<node lat="60.02173610930619" lon="11.383147228152314" id="-17298">
		<tag k="name" v="Rustad" />
		<tag k="place" v="farm" />
		<tag k="ssr:stedsnr" v="769827" />
	</node>
	<node lat="60.24393055840284" lon="11.350941669547677" id="-17303">
		<tag k="name" v="Valstadhagan" />
		<tag k="place" v="farm" />
		<tag k="ssr:stedsnr" v="783107" />
	</node>
	<node lat="60.159475000964115" lon="11.560591674018815" id="-17304">
		<tag k="alt_name" v="Eie lille" />
		<tag k="name" v="Lille Eie" />
		<tag k="place" v="farm" />
		<tag k="ssr:stedsnr" v="783807" />
	</node>
	<node lat="60.125197225364055" lon="11.53613888134709" id="-17305">
		<tag k="name" v="Vennevål" />
		<tag k="place" v="farm" />
		<tag k="ssr:stedsnr" v="784003" />
	</node>
	<node lat="60.126752780585626" lon="11.476858340090793" id="-17307">
		<tag k="amenity" v="nursing_home" />
		<tag k="name" v="Nes bo- og servicesenter" />
		<tag k="ssr:stedsnr" v="784017" />
	</node>
	<node lat="60.24315833298534" lon="11.274041671710568" id="-17308">
		<tag k="name" v="Amundsbråtan" />
		<tag k="place" v="locality" />
		<tag k="ssr:stedsnr" v="784107" />
	</node>
	<node lat="60.091858333275205" lon="11.403894436989692" id="-17314">
		<tag k="alt_name" v="Nordre Udenes" />
		<tag k="name" v="Udnes" />
		<tag k="place" v="farm" />
		<tag k="ssr:stedsnr" v="784226" />
	</node>
	<node lat="60.09568889072313" lon="11.701122222917512" id="-17320">
		<tag k="name" v="Barfots plass" />
		<tag k="place" v="locality" />
		<tag k="ssr:stedsnr" v="784649" />
	</node>
	<node lat="60.24443055293699" lon="11.478802780295837" id="-17325">
		<tag k="historic" v="shieling" />
		<tag k="name" v="Hagaengvangen" />
		<tag k="place" v="isolated_dwelling" />
		<tag k="ssr:stedsnr" v="784857" />
	</node>
	<node lat="60.19291666710334" lon="11.513886102772098" id="-17329">
		<tag k="name" v="Perstua" />
		<tag k="place" v="locality" />
		<tag k="ssr:stedsnr" v="784918" />
	</node>
	<node lat="60.10890833043436" lon="11.592816659595039" id="-17330">
		<tag k="name" v="Trinborg" />
		<tag k="place" v="farm" />
		<tag k="ssr:stedsnr" v="784953" />
	</node>
	<node lat="60.11797076858765" lon="11.46404095641298" id="-17334">
		<tag k="fixme" v="consider place=hamlet" />
		<tag k="name" v="Drognes" />
		<tag k="place" v="farm" />
		<tag k="ssr:stedsnr" v="794094" />
	</node>
	<node lat="60.18022267522934" lon="11.366648884959705" id="-17335">
		<tag k="fixme" v="consider place=hamlet" />
		<tag k="name" v="Nordby" />
		<tag k="place" v="farm" />
		<tag k="ssr:stedsnr" v="794219" />
	</node>
	<node lat="60.17870833292754" lon="11.334316657845008" id="-17336">
		<tag k="alt_name" v="Vaksland" />
		<tag k="name" v="Vogsland" />
		<tag k="place" v="farm" />
		<tag k="ssr:stedsnr" v="794223" />
	</node>
	<node lat="60.204375000524784" lon="11.466588883847418" id="-17337">
		<tag k="name" v="Vattum" />
		<tag k="place" v="farm" />
		<tag k="ssr:stedsnr" v="794229" />
	</node>
	<node lat="60.18968888616487" lon="11.439494451013175" id="-17338">
		<tag k="name" v="Meklenborg" />
		<tag k="place" v="locality" />
		<tag k="ssr:stedsnr" v="794242" />
	</node>
	<node lat="60.10422222005471" lon="11.37541111683652" id="-17339">
		<tag k="amenity" v="school" />
		<tag k="name" v="Hvam videregående skole" />
		<tag k="old_name" v="Hvam Landbruksskole;Akershus landbruksskole" />
		<tag k="ssr:stedsnr" v="794118" />
	</node>
	<node lat="60.103363884817824" lon="11.389452786441737" id="-17340">
		<tag k="name" v="Bjerkestad" />
		<tag k="place" v="farm" />
		<tag k="ssr:stedsnr" v="794119" />
	</node>
	<node lat="60.141849996887316" lon="11.391005546715277" id="-17341">
		<tag k="name" v="Vestheim" />
		<tag k="place" v="farm" />
		<tag k="ssr:stedsnr" v="794166" />
	</node>
	<node lat="60.1654861094917" lon="11.45889445290993" id="-17342">
		<tag k="name" v="Nyborg" />
		<tag k="place" v="farm" />
		<tag k="ssr:stedsnr" v="794178" />
	</node>
	<node lat="60.200374996028785" lon="11.5796194485821" id="-17346">
		<tag k="alt_name" v="Setra" />
		<tag k="name" v="Sætra" />
		<tag k="place" v="farm" />
		<tag k="ssr:stedsnr" v="794781" />
	</node>
	<node lat="60.043825003499975" lon="11.361602786712236" id="-17347">
		<tag k="name" v="Njøs" />
		<tag k="place" v="farm" />
		<tag k="ssr:stedsnr" v="794903" />
	</node>
	<node lat="60.233172220553165" lon="11.556586101987161" id="-17348">
		<tag k="name" v="Holen" />
		<tag k="place" v="farm" />
		<tag k="ssr:stedsnr" v="794980" />
	</node>
	<node lat="60.14050833563052" lon="11.527658325531753" id="-17349">
		<tag k="name" v="Berget" />
		<tag k="place" v="isolated_dwelling" />
		<tag k="ssr:stedsnr" v="794674" />
	</node>
	<node lat="60.13774444567764" lon="11.517941663382905" id="-17350">
		<tag k="alt_name" v="Østli" />
		<tag k="name" v="Østlia" />
		<tag k="place" v="farm" />
		<tag k="ssr:stedsnr" v="794680" />
	</node>
	<node lat="60.1764138852568" lon="11.557249997205837" id="-17351">
		<tag k="name" v="Myrli" />
		<tag k="place" v="farm" />
		<tag k="ssr:stedsnr" v="794807" />
	</node>
	<node lat="60.17807447277785" lon="11.485510799430443" id="-17352">
		<tag k="alt_name" v="Hunstad" />
		<tag k="fixme" v="consider place=hamlet" />
		<tag k="name" v="Hundstad" />
		<tag k="place" v="farm" />
		<tag k="ssr:stedsnr" v="794813" />
	</node>
	<node lat="60.03303843052293" lon="11.34271230459942" id="-17353">
		<tag k="fixme" v="consider place=hamlet" />
		<tag k="name" v="Sandnes" />
		<tag k="place" v="farm" />
		<tag k="ssr:stedsnr" v="794879" />
	</node>
	<node lat="60.0685388916995" lon="11.308052775521535" id="-17355">
		<tag k="name" v="Henniskogen" />
		<tag k="place" v="farm" />
		<tag k="ssr:stedsnr" v="915055" />
	</node>
	<node lat="60.067405551427356" lon="11.341941675204145" id="-17356">
		<tag k="name" v="Oppsal" />
		<tag k="place" v="farm" />
		<tag k="ssr:stedsnr" v="915056" />
	</node>
	<node lat="60.09462519351545" lon="11.425678473947617" id="-17357">
		<tag k="alt_name" v="Bodding" />
		<tag k="name" v="Bodung" />
		<tag k="place" v="hamlet" />
		<tag k="ssr:stedsnr" v="915067" />
	</node>
	<node lat="60.13450277826083" lon="11.404302772673296" id="-17358">
		<tag k="name" v="Myrheim" />
		<tag k="place" v="locality" />
		<tag k="ssr:stedsnr" v="915147" />
	</node>
	<node lat="60.12889167072743" lon="11.402597225300978" id="-17359">
		<tag k="name" v="Kvisler" />
		<tag k="place" v="farm" />
		<tag k="ssr:stedsnr" v="915152" />
	</node>
	<node lat="60.134225001069446" lon="11.505711114482958" id="-17360">
		<tag k="name" v="Mellom" />
		<tag k="place" v="farm" />
		<tag k="ssr:stedsnr" v="915647" />
	</node>
	<node lat="60.08255833384815" lon="11.615202783683435" id="-17361">
		<tag k="alt_name" v="Bjørkelia" />
		<tag k="name" v="Bjørkeli" />
		<tag k="place" v="farm" />
		<tag k="ssr:stedsnr" v="915488" />
	</node>
	<node lat="60.19641510161471" lon="11.468980183012553" id="-17362">
		<tag k="fixme" v="consider place=hamlet" />
		<tag k="name" v="Rustad" />
		<tag k="place" v="farm" />
		<tag k="ssr:stedsnr" v="915791" />
	</node>
	<node lat="60.20763333669592" lon="11.473191661396596" id="-17363">
		<tag k="name" v="Perstua" />
		<tag k="place" v="farm" />
		<tag k="ssr:stedsnr" v="915802" />
	</node>
	<node lat="60.13550833414257" lon="11.370208325935263" id="-17364">
		<tag k="name" v="Stein" />
		<tag k="place" v="farm" />
		<tag k="ssr:stedsnr" v="916190" />
	</node>
	<node lat="60.19205833101248" lon="11.34181388813768" id="-17365">
		<tag k="alt_name" v="Kjensdalen" />
		<tag k="name" v="Kjennsdalen" />
		<tag k="place" v="farm" />
		<tag k="ssr:stedsnr" v="916273" />
	</node>
	<node lat="60.20066111432225" lon="11.337877779050336" id="-17366">
		<tag k="name" v="Nordheim" />
		<tag k="place" v="farm" />
		<tag k="ssr:stedsnr" v="916286" />
	</node>
	<node lat="60.11000277723616" lon="11.478533335535927" id="-17367">
		<tag k="name" v="Øverheim" />
		<tag k="place" v="farm" />
		<tag k="ssr:stedsnr" v="916741" />
	</node>
	<node lat="60.1835027737184" lon="11.507516671671901" id="-17368">
		<tag k="name" v="Østby" />
		<tag k="place" v="farm" />
		<tag k="ssr:stedsnr" v="916831" />
	</node>
	<node lat="60.189427782353995" lon="11.553791659162385" id="-17369">
		<tag k="name" v="Steinbrudalen" />
		<tag k="place" v="farm" />
		<tag k="ssr:stedsnr" v="916845" />
	</node>
	<node lat="60.190330559266116" lon="11.527111113993202" id="-17370">
		<tag k="name" v="Holen" />
		<tag k="place" v="farm" />
		<tag k="ssr:stedsnr" v="916847" />
	</node>
	<node lat="60.14965555259016" lon="11.387536114149732" id="-17372">
		<tag k="name" v="Vesteng" />
		<tag k="place" v="farm" />
		<tag k="ssr:stedsnr" v="916165" />
	</node>
	<node lat="60.20036249903889" lon="11.415585916266231" id="-17373">
		<tag k="alt_name" v="Vibu" />
		<tag k="name" v="Vibo" />
		<tag k="place" v="farm" />
		<tag k="ssr:stedsnr" v="916291" />
	</node>
	<node lat="60.2545611075996" lon="11.53126667210033" id="-17376">
		<tag k="name" v="Slutten" />
		<tag k="place" v="hamlet" />
		<tag k="ssr:stedsnr" v="916543" />
	</node>
	<node lat="60.04670833737253" lon="11.716050006297815" id="-17378">
		<tag k="name" v="Haukelia" />
		<tag k="place" v="farm" />
		<tag k="ssr:stedsnr" v="916579" />
	</node>
	<node lat="60.2817111144594" lon="11.503261114263639" id="-17379">
		<tag k="name" v="Trulsholen" />
		<tag k="place" v="isolated_dwelling" />
		<tag k="ssr:stedsnr" v="916582" />
	</node>
	<node lat="60.26940737331772" lon="11.323936527309668" id="-17381">
		<tag k="fixme" v="consider place=hamlet" />
		<tag k="name" v="Bråeng" />
		<tag k="old_name" v="Braadal" />
		<tag k="place" v="farm" />
		<tag k="ssr:stedsnr" v="917165" />
	</node>
	<node lat="60.26399721907644" lon="11.364097217818244" id="-17382">
		<tag k="alt_name" v="Hansbråten" />
		<tag k="name" v="Hansbråtan" />
		<tag k="place" v="locality" />
		<tag k="ssr:stedsnr" v="917169" />
	</node>
	<node lat="60.25308517767181" lon="11.334889398686848" id="-17384">
		<tag k="fixme" v="consider place=hamlet" />
		<tag k="name" v="Li" />
		<tag k="place" v="farm" />
		<tag k="ssr:stedsnr" v="917177" />
	</node>
	<node lat="60.08250277926994" lon="11.457011115436746" id="-17385">
		<tag k="name" v="Østergløtt" />
		<tag k="place" v="isolated_dwelling" />
		<tag k="ssr:stedsnr" v="830070" />
	</node>
	<node lat="60.05989444164993" lon="11.390158331868266" id="-17386">
		<tag k="name" v="Årrestad" />
		<tag k="place" v="isolated_dwelling" />
		<tag k="ssr:stedsnr" v="830076" />
	</node>
	<node lat="60.17031110838241" lon="11.367275004784572" id="-17387">
		<tag k="alt_name" v="Greni nordgarn" />
		<tag k="name" v="Nordgarden Greni" />
		<tag k="place" v="farm" />
		<tag k="ssr:stedsnr" v="830277" />
	</node>
	<node lat="60.00797777494685" lon="11.398266658666776" id="-17389">
		<tag k="name" v="Moen" />
		<tag k="place" v="isolated_dwelling" />
		<tag k="ssr:stedsnr" v="830473" />
	</node>
	<node lat="60.134836115307614" lon="11.474008340576143" id="-17390">
		<tag k="name" v="Høie" />
		<tag k="place" v="quarter" />
		<tag k="ssr:stedsnr" v="830181" />
	</node>
	<node lat="60.13877777603603" lon="11.394494435887738" id="-17392">
		<tag k="leisure" v="pitch" />
		<tag k="name" v="Kulmoen travbane" />
		<tag k="ssr:stedsnr" v="830190" />
	</node>
	<node lat="60.13795555919896" lon="11.481988893692172" id="-17394">
		<tag k="name" v="Løkenporten" />
		<tag k="place" v="farm" />
		<tag k="ssr:stedsnr" v="830309" />
	</node>
	<node lat="60.13765555533696" lon="11.486538893806488" id="-17395">
		<tag k="name" v="Myrud" />
		<tag k="place" v="farm" />
		<tag k="ssr:stedsnr" v="830311" />
	</node>
	<node lat="60.21393055565424" lon="11.431961114975794" id="-17397">
		<tag k="alt_name" v="Inngjerdinga øvre" />
		<tag k="name" v="Øvre Inngjerdinga" />
		<tag k="place" v="farm" />
		<tag k="ssr:stedsnr" v="830555" />
	</node>
	<node lat="60.05329444164432" lon="11.695391659152637" id="-17405">
		<tag k="name" v="Gruehytta" />
		<tag k="place" v="isolated_dwelling" />
		<tag k="ssr:stedsnr" v="837930" />
	</node>
	<node lat="60.11625277483436" lon="11.6226472141283" id="-17409">
		<tag k="name" v="Tortangen" />
		<tag k="place" v="locality" />
		<tag k="ssr:stedsnr" v="845128" />
	</node>
	<node lat="60.12938333053622" lon="11.49844721549378" id="-17413">
		<tag k="alt_name" v="Hunstad nedre;Nedre Hunstad" />
		<tag k="name" v="Nedre Hundstad" />
		<tag k="place" v="farm" />
		<tag k="ssr:stedsnr" v="845027" />
	</node>
	<node lat="60.26526111514803" lon="11.336850006220539" id="-17426">
		<tag k="name" v="Ødegård" />
		<tag k="place" v="farm" />
		<tag k="ssr:stedsnr" v="845927" />
	</node>
	<node lat="60.09435833230108" lon="11.603619449398984" id="-17427">
		<tag k="name" v="Dalberg" />
		<tag k="place" v="isolated_dwelling" />
		<tag k="ssr:stedsnr" v="845976" />
	</node>
	<node lat="60.11780277770501" lon="11.412211102684788" id="-17433">
		<tag k="name" v="Bjørkerud" />
		<tag k="place" v="farm" />
		<tag k="ssr:stedsnr" v="855100" />
	</node>
	<node lat="60.18444999599397" lon="11.413941659264802" id="-17434">
		<tag k="name" v="Nyhus" />
		<tag k="place" v="farm" />
		<tag k="ssr:stedsnr" v="855223" />
	</node>
	<node lat="60.226416669983266" lon="11.325738886681945" id="-17435">
		<tag k="name" v="Bjørkomp" />
		<tag k="place" v="farm" />
		<tag k="ssr:stedsnr" v="855308" />
	</node>
	<node lat="60.22155278208163" lon="11.312913894328078" id="-17436">
		<tag k="name" v="Otterstua" />
		<tag k="place" v="farm" />
		<tag k="ssr:stedsnr" v="855309" />
	</node>
	<node lat="60.23775767440268" lon="11.340963195501693" id="-17437">
		<tag k="fixme" v="consider place=hamlet" />
		<tag k="name" v="Nedre Valstad" />
		<tag k="place" v="farm" />
		<tag k="ssr:stedsnr" v="855310" />
	</node>
	<node lat="60.15042777644673" lon="11.49420832919264" id="-17438">
		<tag k="name" v="Husmo" />
		<tag k="place" v="farm" />
		<tag k="ssr:stedsnr" v="855385" />
	</node>
	<node lat="60.06518333646298" lon="11.617474999727522" id="-17442">
		<tag k="name" v="Bekken" />
		<tag k="place" v="isolated_dwelling" />
		<tag k="ssr:stedsnr" v="855498" />
	</node>
	<node lat="60.2184000022091" lon="11.514841661067639" id="-17443">
		<tag k="name" v="Vilberg" />
		<tag k="place" v="farm" />
		<tag k="ssr:stedsnr" v="855784" />
	</node>
	<node lat="60.13419166903419" lon="11.556194438224296" id="-17445">
		<tag k="alt_name" v="Ursberget;Ulsberget" />
		<tag k="name" v="Urdsberget" />
		<tag k="place" v="farm" />
		<tag k="ssr:stedsnr" v="855687" />
	</node>
	<node lat="60.12607566201704" lon="11.49594816042158" id="-17447">
		<tag k="fixme" v="consider place=hamlet" />
		<tag k="name" v="Kjus" />
		<tag k="place" v="farm" />
		<tag k="ssr:stedsnr" v="855698" />
	</node>
	<node lat="60.18022221838646" lon="11.552936102028251" id="-17448">
		<tag k="name" v="Elverud" />
		<tag k="place" v="farm" />
		<tag k="ssr:stedsnr" v="855841" />
	</node>
	<node lat="60.17936864294941" lon="11.516017275766885" id="-17449">
		<tag k="name" v="Oppåkermoen" />
		<tag k="place" v="village" />
		<tag k="ssr:stedsnr" v="855845" />
	</node>
	<node lat="60.185115604511836" lon="11.469640590541486" id="-17450">
		<tag k="alt_name" v="Søndre Fosserud" />
		<tag k="fixme" v="consider place=hamlet" />
		<tag k="name" v="Fosserud" />
		<tag k="place" v="farm" />
		<tag k="ssr:stedsnr" v="855846" />
	</node>
	<node lat="60.03431388892325" lon="11.354463882080168" id="-17451">
		<tag k="name" v="Bråten" />
		<tag k="place" v="farm" />
		<tag k="ssr:stedsnr" v="855892" />
	</node>
	<node lat="60.27692221925668" lon="11.498011106683967" id="-17454">
		<tag k="name" v="Tostenstua" />
		<tag k="place" v="farm" />
		<tag k="ssr:stedsnr" v="856592" />
	</node>
	<node lat="60.209205555844974" lon="11.54161389135163" id="-17455">
		<tag k="alt_name" v="Nordgarden" />
		<tag k="loc_name" v="Nordgarden Østre Ås" />
		<tag k="name" v="Østre Ås" />
		<tag k="place" v="farm" />
		<tag k="ssr:stedsnr" v="889122" />
	</node>
	<node lat="60.18908055814835" lon="11.420291674022687" id="-17458">
		<tag k="name" v="Østby" />
		<tag k="old_name" v="Veset" />
		<tag k="place" v="farm" />
		<tag k="ssr:stedsnr" v="890096" />
	</node>
	<node lat="60.15010277405172" lon="11.534041660944059" id="-17459">
		<tag k="name" v="Tjernsløkka" />
		<tag k="place" v="farm" />
		<tag k="ssr:stedsnr" v="890349" />
	</node>
	<node lat="60.056272223060645" lon="11.401161115645593" id="-17461">
		<tag k="name" v="Myrvang" />
		<tag k="place" v="farm" />
		<tag k="ssr:stedsnr" v="891103" />
	</node>
	<node lat="60.05071666611344" lon="11.669219445438499" id="-17479">
		<tag k="name" v="Holmebråtan" />
		<tag k="place" v="isolated_dwelling" />
		<tag k="ssr:stedsnr" v="899607" />
	</node>
	<node lat="60.24890895378723" lon="11.337699740584782" id="-17481">
		<tag k="fixme" v="consider place=hamlet" />
		<tag k="name" v="Søndre Ile" />
		<tag k="place" v="farm" />
		<tag k="ssr:stedsnr" v="905124" />
	</node>
	<node lat="60.113511110662046" lon="11.528977784968408" id="-17484">
		<tag k="name" v="Vestre Haugland" />
		<tag k="place" v="farm" />
		<tag k="ssr:stedsnr" v="905016" />
	</node>
	<node lat="60.130055556432474" lon="11.521694447712878" id="-17485">
		<tag k="name" v="Vestgardshagen" />
		<tag k="place" v="farm" />
		<tag k="ssr:stedsnr" v="905018" />
	</node>
	<node lat="60.15943333226406" lon="11.509236110139643" id="-17486">
		<tag k="name" v="Kvernhaugen" />
		<tag k="place" v="farm" />
		<tag k="ssr:stedsnr" v="905056" />
	</node>
	<node lat="60.1554499962481" lon="11.477558334291471" id="-17487">
		<tag k="name" v="Søndre Henni" />
		<tag k="place" v="farm" />
		<tag k="ssr:stedsnr" v="905063" />
	</node>
	<node lat="60.156027778598016" lon="11.34056666933729" id="-17490">
		<tag k="name" v="Nordmo" />
		<tag k="place" v="farm" />
		<tag k="ssr:stedsnr" v="905509" />
	</node>
	<node lat="60.21708333343368" lon="11.332391670089743" id="-17493">
		<tag k="name" v="Lyngås" />
		<tag k="place" v="farm" />
		<tag k="ssr:stedsnr" v="905761" />
	</node>
	<node lat="60.16091944857702" lon="11.557891664708372" id="-17495">
		<tag k="alt_name" v="Eie store" />
		<tag k="name" v="Store Eie" />
		<tag k="place" v="farm" />
		<tag k="ssr:stedsnr" v="905804" />
	</node>
	<node lat="60.189216669624265" lon="11.454955557187674" id="-17496">
		<tag k="name" v="Knutstua" />
		<tag k="place" v="farm" />
		<tag k="ssr:stedsnr" v="905805" />
	</node>
	<node lat="60.24069340903975" lon="11.306871857166973" id="-17498">
		<tag k="alt_name" v="Nordre Sandaker" />
		<tag k="fixme" v="consider place=hamlet" />
		<tag k="name" v="Nordre Sandåker" />
		<tag k="old_name" v="Nordre Sandaaker" />
		<tag k="place" v="farm" />
		<tag k="ssr:stedsnr" v="905861" />
	</node>
	<node lat="60.17713611305986" lon="11.520886103254458" id="-17499">
		<tag k="name" v="Solheim" />
		<tag k="place" v="farm" />
		<tag k="ssr:stedsnr" v="905957" />
	</node>
	<node lat="60.217358332163485" lon="11.511191658594916" id="-17500">
		<tag k="name" v="Langgård" />
		<tag k="place" v="farm" />
		<tag k="ssr:stedsnr" v="906404" />
	</node>
	<node lat="60.211200002464224" lon="11.53926111050948" id="-17501">
		<tag k="name" v="Roland" />
		<tag k="place" v="isolated_dwelling" />
		<tag k="ssr:stedsnr" v="906457" />
	</node>
	<node lat="60.1059416706172" lon="11.47952221522704" id="-17505">
		<tag k="name" v="Myrset" />
		<tag k="place" v="isolated_dwelling" />
		<tag k="ssr:stedsnr" v="915705" />
	</node>
	<node lat="60.093388888965414" lon="11.484408327509719" id="-17506">
		<tag k="name" v="Gruehaugen" />
		<tag k="place" v="farm" />
		<tag k="ssr:stedsnr" v="915725" />
	</node>
	<node lat="60.32647777427057" lon="11.40777778473264" id="-17508">
		<tag k="name" v="Fløyta" />
		<tag k="place" v="isolated_dwelling" />
		<tag k="ssr:stedsnr" v="916122" />
	</node>
	<node lat="60.16935465727941" lon="11.368312162706149" id="-17509">
		<tag k="name" v="Greni" />
		<tag k="place" v="hamlet" />
		<tag k="ssr:stedsnr" v="916205" />
	</node>
	<node lat="60.15960833529951" lon="11.355652779785466" id="-17510">
		<tag k="name" v="Myrer" />
		<tag k="place" v="farm" />
		<tag k="ssr:stedsnr" v="916225" />
	</node>
	<node lat="60.213841666944845" lon="11.369836110881025" id="-17511">
		<tag k="name" v="Svanhaug" />
		<tag k="place" v="farm" />
		<tag k="ssr:stedsnr" v="916311" />
	</node>
	<node lat="60.22915555302397" lon="11.404913891726684" id="-17512">
		<tag k="alt_name" v="Dalbekk" />
		<tag k="name" v="Delbekk" />
		<tag k="place" v="farm" />
		<tag k="ssr:stedsnr" v="916313" />
	</node>
	<node lat="60.13174166693185" lon="11.529166672128273" id="-17517">
		<tag k="name" v="Vennevål" />
		<tag k="place" v="farm" />
		<tag k="ssr:stedsnr" v="916707" />
	</node>
	<node lat="60.114872225697276" lon="11.499419452194752" id="-17520">
		<tag k="name" v="Kjusmoen" />
		<tag k="place" v="farm" />
		<tag k="ssr:stedsnr" v="916721" />
	</node>
	<node lat="60.21433332930269" lon="11.5162138888969" id="-17521">
		<tag k="name" v="Nereng" />
		<tag k="place" v="farm" />
		<tag k="ssr:stedsnr" v="916780" />
	</node>
	<node lat="60.02803610887966" lon="11.454094445447645" id="-17522">
		<tag k="name" v="Fallet" />
		<tag k="place" v="farm" />
		<tag k="ssr:stedsnr" v="916905" />
	</node>
	<node lat="60.16987476453312" lon="11.472301806573867" id="-17523">
		<tag k="fixme" v="consider place=hamlet" />
		<tag k="name" v="Unes" />
		<tag k="place" v="farm" />
		<tag k="ssr:stedsnr" v="916877" />
	</node>
	<node lat="60.041272224522274" lon="11.796986116303332" id="-17524">
		<tag k="name" v="Butjernbråtan" />
		<tag k="place" v="locality" />
		<tag k="ssr:stedsnr" v="947730" />
	</node>
	<node lat="60.12710833744959" lon="11.617497217416672" id="-17526">
		<tag k="name" v="Solås" />
		<tag k="place" v="isolated_dwelling" />
		<tag k="ssr:stedsnr" v="951111" />
	</node>
	<node lat="60.17560555551684" lon="11.442813891899432" id="-17527">
		<tag k="name" v="Bråten" />
		<tag k="place" v="farm" />
		<tag k="ssr:stedsnr" v="951004" />
	</node>
	<node lat="60.135027778007505" lon="11.373797219435192" id="-17533">
		<tag k="name" v="Granli" />
		<tag k="place" v="farm" />
		<tag k="ssr:stedsnr" v="951213" />
	</node>
	<node lat="60.144566563406116" lon="11.417147132969069" id="-17534">
		<tag k="name" v="Fenstad" />
		<tag k="place" v="hamlet" />
		<tag k="ssr:stedsnr" v="951188" />
	</node>
	<node lat="60.139763884542106" lon="11.47612500262263" id="-17536">
		<tag k="name" v="Løken" />
		<tag k="place" v="farm" />
		<tag k="ssr:stedsnr" v="951331" />
	</node>
	<node lat="60.056502780288255" lon="11.408219435996607" id="-17539">
		<tag k="name" v="Sandberg" />
		<tag k="place" v="farm" />
		<tag k="ssr:stedsnr" v="951282" />
	</node>
	<node lat="60.1575888846921" lon="11.434844444304648" id="-17540">
		<tag k="alt_name" v="Vormnes nordre" />
		<tag k="name" v="Nordre Vormnes" />
		<tag k="place" v="farm" />
		<tag k="ssr:stedsnr" v="951299" />
	</node>
	<node lat="60.05842222450597" lon="11.698163895483464" id="-17544">
		<tag k="name" v="Romsjøhytta" />
		<tag k="place" v="isolated_dwelling" />
		<tag k="ssr:stedsnr" v="951903" />
	</node>
	<node lat="60.089688893024096" lon="11.51576667315191" id="-17547">
		<tag k="name" v="Vestre Badstua" />
		<tag k="place" v="farm" />
		<tag k="ssr:stedsnr" v="951686" />
	</node>
	<node lat="60.04242778176171" lon="11.391802771761478" id="-17552">
		<tag k="alt_name" v="Nedre Auli" />
		<tag k="name" v="Vestre Auli" />
		<tag k="place" v="farm" />
		<tag k="ssr:stedsnr" v="958928" />
	</node>
	<node lat="60.059869446072256" lon="11.694580547877367" id="-17556">
		<tag k="name" v="Bjørnebo" />
		<tag k="place" v="isolated_dwelling" />
		<tag k="ssr:stedsnr" v="959925" />
	</node>
	<node lat="60.08071944502799" lon="11.613222220592924" id="-17558">
		<tag k="name" v="Hamborg" />
		<tag k="place" v="locality" />
		<tag k="ssr:stedsnr" v="965183" />
	</node>
	<node lat="60.24708888587373" lon="11.271691660565658" id="-17559">
		<tag k="name" v="Breensetra" />
		<tag k="place" v="locality" />
		<tag k="ssr:stedsnr" v="965101" />
	</node>
	<node lat="60.16047777472302" lon="11.545330561698687" id="-17560">
		<tag k="name" v="Nyborg" />
		<tag k="place" v="isolated_dwelling" />
		<tag k="ssr:stedsnr" v="965800" />
	</node>
	<node lat="60.28016111451567" lon="11.380386103753262" id="-17561">
		<tag k="historic" v="shieling" />
		<tag k="name" v="Offervangen" />
		<tag k="place" v="isolated_dwelling" />
		<tag k="ssr:stedsnr" v="965904" />
	</node>
	<node lat="60.194699977552325" lon="11.470153880649246" id="-17573">
		<tag k="fixme" v="consider place=hamlet" />
		<tag k="name" v="Lille Sundby" />
		<tag k="place" v="farm" />
		<tag k="ssr:stedsnr" v="966919" />
	</node>
	<node lat="60.18511944120206" lon="11.5109805544393" id="-17574">
		<tag k="name" v="Vang" />
		<tag k="place" v="farm" />
		<tag k="ssr:stedsnr" v="966921" />
	</node>
	<node lat="60.27241111393959" lon="11.326599996153924" id="-17575">
		<tag k="name" v="Tveten" />
		<tag k="place" v="farm" />
		<tag k="ssr:stedsnr" v="966925" />
	</node>
	<node lat="60.17918055185755" lon="11.554822224559608" id="-17577">
		<tag k="name" v="Øvre Bjertnes" />
		<tag k="place" v="farm" />
		<tag k="ssr:stedsnr" v="966930" />
	</node>
	<node lat="60.17672221951173" lon="11.532141668494651" id="-17578">
		<tag k="name" v="Råholt" />
		<tag k="place" v="farm" />
		<tag k="ssr:stedsnr" v="966932" />
	</node>
	<node lat="60.18216388460721" lon="11.556533334149247" id="-17579">
		<tag k="name" v="Glomsås" />
		<tag k="place" v="farm" />
		<tag k="ssr:stedsnr" v="966935" />
	</node>
	<node lat="60.16430277910647" lon="11.555305546651953" id="-17585">
		<tag k="alt_name" v="Vestre Sandaker;Sandaker nordre;Vestre Sandåker" />
		<tag k="name" v="Nordre Sandaker" />
		<tag k="old_name" v="Sandaaker vestre" />
		<tag k="place" v="farm" />
		<tag k="ssr:stedsnr" v="969106" />
	</node>
	<node lat="60.19815726315508" lon="11.338887153724407" id="-17587">
		<tag k="name" v="Lundset" />
		<tag k="place" v="farm" />
		<tag k="ssr:stedsnr" v="977467" />
	</node>
	<node lat="60.206750001049045" lon="11.33757222023616" id="-17590">
		<tag k="name" v="Vestby" />
		<tag k="place" v="isolated_dwelling" />
		<tag k="ssr:stedsnr" v="6288" />
	</node>
	<node lat="60.2048500020902" lon="11.392847227413386" id="-17591">
		<tag k="alt_name" v="Farset øvre" />
		<tag k="name" v="Øvre Farset" />
		<tag k="place" v="farm" />
		<tag k="ssr:stedsnr" v="6298" />
	</node>
	<node lat="60.11988333525584" lon="11.416624993646153" id="-17592">
		<tag k="name" v="Furuset" />
		<tag k="place" v="isolated_dwelling" />
		<tag k="ssr:stedsnr" v="5091" />
	</node>
	<node lat="60.114458335262874" lon="11.355880553947596" id="-17593">
		<tag k="name" v="Elgtrå" />
		<tag k="place" v="farm" />
		<tag k="ssr:stedsnr" v="5097" />
	</node>
	<node lat="60.21241796807884" lon="11.388501360708881" id="-17594">
		<tag k="fixme" v="consider place=hamlet" />
		<tag k="name" v="Unnulstad" />
		<tag k="place" v="farm" />
		<tag k="ssr:stedsnr" v="5269" />
	</node>
	<node lat="60.072683336318086" lon="11.328200000626035" id="-17595">
		<tag k="name" v="Tangen" />
		<tag k="place" v="farm" />
		<tag k="ssr:stedsnr" v="5028" />
	</node>
	<node lat="60.14146937652935" lon="11.429382116087416" id="-17596">
		<tag k="fixme" v="consider place=hamlet" />
		<tag k="name" v="Bjørk" />
		<tag k="place" v="farm" />
		<tag k="ssr:stedsnr" v="5132" />
	</node>
	<node lat="60.13521111367383" lon="11.429444436757484" id="-17597">
		<tag k="name" v="Bjørkmoen" />
		<tag k="place" v="farm" />
		<tag k="ssr:stedsnr" v="5133" />
	</node>
	<node lat="60.125025003632764" lon="11.394880554146786" id="-17598">
		<tag k="fixme" v="consider place=hamlet" />
		<tag k="name" v="Vansum" />
		<tag k="place" v="farm" />
		<tag k="ssr:stedsnr" v="5155" />
	</node>
	<node lat="60.18346666389294" lon="11.300458341718048" id="-17599">
		<tag k="name" v="Jarnes" />
		<tag k="place" v="farm" />
		<tag k="ssr:stedsnr" v="5229" />
	</node>
	<node lat="60.17430734344028" lon="11.36797303408571" id="-17600">
		<tag k="fixme" v="consider place=hamlet" />
		<tag k="name" v="Rud" />
		<tag k="place" v="farm" />
		<tag k="ssr:stedsnr" v="5243" />
	</node>
	<node lat="60.14868306142539" lon="11.524869049270691" id="-17602">
		<tag k="name" v="Skøyen" />
		<tag k="place" v="hamlet" />
		<tag k="ssr:stedsnr" v="5631" />
	</node>
	<node lat="60.138652777387" lon="11.491025004505776" id="-17603">
		<tag k="name" v="Mo" />
		<tag k="place" v="farm" />
		<tag k="ssr:stedsnr" v="5641" />
	</node>
	<node lat="60.08399999804581" lon="11.49680555471568" id="-17606">
		<tag k="name" v="Børsonstua" />
		<tag k="place" v="farm" />
		<tag k="ssr:stedsnr" v="5732" />
	</node>
	<node lat="60.107824998054724" lon="11.644813880070501" id="-17608">
		<tag k="name" v="Langvasslia" />
		<tag k="place" v="farm" />
		<tag k="ssr:stedsnr" v="5689" />
	</node>
	<node lat="60.24284721861007" lon="11.567750002793673" id="-17609">
		<tag k="name" v="Nordby" />
		<tag k="place" v="farm" />
		<tag k="ssr:stedsnr" v="5933" />
	</node>
	<node lat="60.24194166734255" lon="11.475850003166938" id="-17610">
		<tag k="name" v="Sundbyvangen" />
		<tag k="place" v="farm" />
		<tag k="ssr:stedsnr" v="5941" />
	</node>
	<node lat="60.23734444890279" lon="11.48574444569723" id="-17612">
		<tag k="name" v="Sørbråten" />
		<tag k="place" v="farm" />
		<tag k="ssr:stedsnr" v="5994" />
	</node>
	<node lat="60.14132222468465" lon="11.344691668760106" id="-17613">
		<tag k="name" v="Frøystad" />
		<tag k="place" v="farm" />
		<tag k="ssr:stedsnr" v="6193" />
	</node>
	<node lat="60.137761107039495" lon="11.386291662372939" id="-17615">
		<tag k="name" v="Sand" />
		<tag k="place" v="farm" />
		<tag k="ssr:stedsnr" v="6144" />
	</node>
	<node lat="60.22772499585909" lon="11.551877774186195" id="-17620">
		<tag k="name" v="Bøsterud" />
		<tag k="place" v="farm" />
		<tag k="ssr:stedsnr" v="6792" />
	</node>
	<node lat="60.17409223414777" lon="11.499970471930519" id="-17621">
		<tag k="fixme" v="consider place=hamlet" />
		<tag k="name" v="Frogner" />
		<tag k="place" v="farm" />
		<tag k="ssr:stedsnr" v="6867" />
	</node>
	<node lat="60.065798398293694" lon="11.422945847335523" id="-17625">
		<tag k="name" v="Søndre Finnholt" />
		<tag k="place" v="farm" />
		<tag k="ssr:stedsnr" v="40280" />
	</node>
	<node lat="60.02872222616263" lon="11.342505560710219" id="-17626">
		<tag k="name" v="Kroken" />
		<tag k="place" v="farm" />
		<tag k="ssr:stedsnr" v="40353" />
	</node>
	<node lat="60.062544440100396" lon="11.329233340678762" id="-17629">
		<tag k="alt_name" v="Henni søndre" />
		<tag k="name" v="Søndre Henni" />
		<tag k="place" v="farm" />
		<tag k="ssr:stedsnr" v="41178" />
	</node>
	<node lat="60.065288890370134" lon="11.33871665895601" id="-17630">
		<tag k="name" v="Skogly" />
		<tag k="place" v="farm" />
		<tag k="ssr:stedsnr" v="41180" />
	</node>
	<node lat="60.06545000167698" lon="11.331127769455293" id="-17631">
		<tag k="alt_name" v="Henni nordre" />
		<tag k="name" v="Nordre Henni" />
		<tag k="place" v="farm" />
		<tag k="ssr:stedsnr" v="41181" />
	</node>
	<node lat="60.06253888823133" lon="11.400394446018671" id="-17632">
		<tag k="name" v="Nysua" />
		<tag k="place" v="farm" />
		<tag k="ssr:stedsnr" v="41078" />
	</node>
	<node lat="60.058244446752205" lon="11.38707222027538" id="-17633">
		<tag k="name" v="Rognerud" />
		<tag k="place" v="farm" />
		<tag k="ssr:stedsnr" v="41083" />
	</node>
	<node lat="60.078469447781906" lon="11.43948611500806" id="-17637">
		<tag k="name" v="Haugli" />
		<tag k="place" v="farm" />
		<tag k="ssr:stedsnr" v="41062" />
	</node>
	<node lat="60.094819441357686" lon="11.358636119825267" id="-17638">
		<tag k="name" v="Hol" />
		<tag k="place" v="farm" />
		<tag k="ssr:stedsnr" v="41538" />
	</node>
	<node lat="60.00637222229215" lon="11.401038886076597" id="-17641">
		<tag k="name" v="Mobekk" />
		<tag k="place" v="farm" />
		<tag k="ssr:stedsnr" v="41493" />
	</node>
	<node lat="60.221422221198274" lon="11.43683333650523" id="-17642">
		<tag k="name" v="Aurholen" />
		<tag k="place" v="locality" />
		<tag k="ssr:stedsnr" v="41583" />
	</node>
	<node lat="60.09950555510785" lon="11.435269440034446" id="-17644">
		<tag k="name" v="Solstad" />
		<tag k="place" v="farm" />
		<tag k="ssr:stedsnr" v="41693" />
	</node>
	<node lat="60.10159444768864" lon="11.46172499566723" id="-17645">
		<tag k="name" v="Østeng" />
		<tag k="place" v="farm" />
		<tag k="ssr:stedsnr" v="41700" />
	</node>
	<node lat="60.11476111194107" lon="11.496386104398558" id="-17649">
		<tag k="amenity" v="nursing_home" />
		<tag k="name" v="Furukollen" />
		<tag k="ssr:stedsnr" v="41961" />
	</node>
	<node lat="60.11599166383568" lon="11.50537222727984" id="-17650">
		<tag k="alt_name" v="Drakonrud" />
		<tag k="name" v="Dragonrud" />
		<tag k="place" v="farm" />
		<tag k="ssr:stedsnr" v="41962" />
	</node>
	<node lat="60.2462972265799" lon="11.34955833059925" id="-17651">
		<tag k="name" v="Gullhaug" />
		<tag k="place" v="farm" />
		<tag k="ssr:stedsnr" v="44800" />
	</node>
	<node lat="60.19672777591039" lon="11.34112222428819" id="-17660">
		<tag k="name" v="Granås" />
		<tag k="place" v="farm" />
		<tag k="ssr:stedsnr" v="55163" />
	</node>
	<node lat="60.19254721995185" lon="11.347408342122991" id="-17661">
		<tag k="name" v="Furulund" />
		<tag k="place" v="farm" />
		<tag k="ssr:stedsnr" v="55164" />
	</node>
	<node lat="60.16506389341078" lon="11.52358332499204" id="-17665">
		<tag k="alt_name" v="Funni østre" />
		<tag k="name" v="Østre Funni" />
		<tag k="place" v="farm" />
		<tag k="ssr:stedsnr" v="55736" />
	</node>
	<node lat="60.16965000001026" lon="11.508627778794404" id="-17666">
		<tag k="name" v="Sand" />
		<tag k="place" v="farm" />
		<tag k="ssr:stedsnr" v="55938" />
	</node>
	<node lat="60.22289713514443" lon="11.379154396587825" id="-17669">
		<tag k="name" v="Granmo" />
		<tag k="place" v="farm" />
		<tag k="ssr:stedsnr" v="56082" />
	</node>
	<node lat="60.24449722193103" lon="11.3619333412207" id="-17670">
		<tag k="name" v="Nygård" />
		<tag k="place" v="farm" />
		<tag k="ssr:stedsnr" v="56137" />
	</node>
	<node lat="60.241980558080556" lon="11.393549998612333" id="-17671">
		<tag k="name" v="Monsrud" />
		<tag k="place" v="farm" />
		<tag k="ssr:stedsnr" v="56142" />
	</node>
	<node lat="60.316844446676264" lon="11.449249995331387" id="-17677">
		<tag k="historic" v="shieling" />
		<tag k="name" v="Elgheim" />
		<tag k="place" v="isolated_dwelling" />
		<tag k="ssr:stedsnr" v="56551" />
	</node>
	<node lat="60.26643888704604" lon="11.402227778318496" id="-17686">
		<tag k="historic" v="shieling" />
		<tag k="name" v="Hovivangen" />
		<tag k="place" v="isolated_dwelling" />
		<tag k="ssr:stedsnr" v="56937" />
	</node>
	<node lat="60.190947424371046" lon="11.467133500436445" id="-17688">
		<tag k="alt_name" v="Store Sundby" />
		<tag k="fixme" v="consider place=hamlet" />
		<tag k="name" v="Stor-Sundby" />
		<tag k="place" v="farm" />
		<tag k="ssr:stedsnr" v="56941" />
	</node>
	<node lat="60.108502777683604" lon="11.595124997116804" id="-17691">
		<tag k="name" v="Trinborgholen" />
		<tag k="place" v="isolated_dwelling" />
		<tag k="ssr:stedsnr" v="56952" />
	</node>
	<node lat="60.107711112713844" lon="11.593766673947371" id="-17692">
		<tag k="name" v="Furuholm" />
		<tag k="place" v="isolated_dwelling" />
		<tag k="ssr:stedsnr" v="56954" />
	</node>
	<node lat="60.137313889670544" lon="11.35821667127235" id="-17695">
		<tag k="fixme" v="multiple name tags, choose one and add the other to alt_name" />
		<tag k="name" v="Holt;Hol" />
		<tag k="place" v="farm" />
		<tag k="ssr:stedsnr" v="66172" />
	</node>
	<node lat="60.14916583061513" lon="11.425046871405412" id="-17696">
		<tag k="alt_name" v="Vågstad nordre" />
		<tag k="fixme" v="consider place=hamlet" />
		<tag k="name" v="Nordre Vågstad" />
		<tag k="old_name" v="Nordre Vaagstad" />
		<tag k="place" v="farm" />
		<tag k="ssr:stedsnr" v="66175" />
	</node>
	<node lat="60.21511944561045" lon="11.332986114759612" id="-17698">
		<tag k="alt_name" v="Einerud" />
		<tag k="name" v="Enerud" />
		<tag k="place" v="farm" />
		<tag k="ssr:stedsnr" v="66293" />
	</node>
	<node lat="60.07138214699847" lon="11.36951114536903" id="-17701">
		<tag k="fixme" v="consider place=hamlet" />
		<tag k="name" v="Presterud" />
		<tag k="place" v="farm" />
		<tag k="ssr:stedsnr" v="66053" />
	</node>
	<node lat="60.07619722153518" lon="11.448650001775075" id="-17702">
		<tag k="name" v="Stensrud" />
		<tag k="place" v="farm" />
		<tag k="ssr:stedsnr" v="66041" />
	</node>
	<node lat="60.119913888833565" lon="11.435336117303555" id="-17703">
		<tag k="name" v="Sørli" />
		<tag k="place" v="farm" />
		<tag k="ssr:stedsnr" v="66108" />
	</node>
	<node lat="60.10881666692794" lon="11.384900001769962" id="-17704">
		<tag k="name" v="Nordby" />
		<tag k="place" v="farm" />
		<tag k="ssr:stedsnr" v="66116" />
	</node>
	<node lat="60.134869448135234" lon="11.357177778574963" id="-17705">
		<tag k="name" v="Skogset" />
		<tag k="place" v="farm" />
		<tag k="ssr:stedsnr" v="66137" />
	</node>
	<node lat="60.24619230351883" lon="11.30614619957687" id="-17706">
		<tag k="fixme" v="consider place=hamlet" />
		<tag k="name" v="Hogset" />
		<tag k="place" v="farm" />
		<tag k="ssr:stedsnr" v="66328" />
	</node>
	<node lat="60.07114444730705" lon="11.597113885937787" id="-17707">
		<tag k="alt_name" v="Ynseter" />
		<tag k="name" v="Ynssæter" />
		<tag k="place" v="farm" />
		<tag k="ssr:stedsnr" v="66477" />
	</node>
	<node lat="60.06405660304099" lon="11.425296024193353" id="-17708">
		<tag k="alt_name" v="Finnholt" />
		<tag k="name" v="Tajet" />
		<tag k="place" v="locality" />
		<tag k="ssr:stedsnr" v="66057" />
	</node>
	<node lat="60.09577777845559" lon="11.394358340568505" id="-17709">
		<tag k="name" v="Svingen" />
		<tag k="place" v="farm" />
		<tag k="ssr:stedsnr" v="66073" />
	</node>
	<node lat="60.09039166715645" lon="11.436411113149783" id="-17710">
		<tag k="name" v="Jerpset" />
		<tag k="place" v="isolated_dwelling" />
		<tag k="ssr:stedsnr" v="66085" />
	</node>
	<node lat="60.08611067140858" lon="11.36515954162385" id="-17711">
		<tag k="fixme" v="consider place=hamlet" />
		<tag k="name" v="Frogner" />
		<tag k="place" v="farm" />
		<tag k="ssr:stedsnr" v="66088" />
	</node>
	<node lat="60.18773889156933" lon="11.451450005305604" id="-17712">
		<tag k="name" v="Ryen" />
		<tag k="place" v="farm" />
		<tag k="ssr:stedsnr" v="66227" />
	</node>
	<node lat="60.17100618580788" lon="11.405221800674246" id="-17713">
		<tag k="fixme" v="consider place=hamlet" />
		<tag k="name" v="Rakkestad" />
		<tag k="place" v="farm" />
		<tag k="ssr:stedsnr" v="66231" />
	</node>
	<node lat="60.023980553230004" lon="11.6214277797074" id="-17714">
		<tag k="alt_name" v="Udenesseter" />
		<tag k="name" v="Udnessæter" />
		<tag k="place" v="farm" />
		<tag k="ssr:stedsnr" v="66555" />
	</node>
	<node lat="60.096644443698324" lon="11.476055557266106" id="-17719">
		<tag k="name" v="Søberg" />
		<tag k="place" v="farm" />
		<tag k="ssr:stedsnr" v="66728" />
	</node>
	<node lat="60.21295555621718" lon="11.564902783716478" id="-17721">
		<tag k="name" v="Åsvangen" />
		<tag k="place" v="farm" />
		<tag k="ssr:stedsnr" v="66739" />
	</node>
	<node lat="60.18929999795307" lon="11.52979166758934" id="-17722">
		<tag k="name" v="Delbekk" />
		<tag k="place" v="farm" />
		<tag k="ssr:stedsnr" v="66826" />
	</node>
	<node lat="60.2016909137635" lon="11.483965823863265" id="-17723">
		<tag k="name" v="Grenihagen" />
		<tag k="place" v="farm" />
		<tag k="ssr:stedsnr" v="66777" />
	</node>
	<node lat="60.19743610937147" lon="11.473741673148227" id="-17724">
		<tag k="name" v="Rotheim" />
		<tag k="place" v="farm" />
		<tag k="ssr:stedsnr" v="66778" />
	</node>
	<node lat="60.24391666901372" lon="11.554494438701287" id="-17725">
		<tag k="name" v="Holmen" />
		<tag k="place" v="farm" />
		<tag k="ssr:stedsnr" v="66939" />
	</node>
	<node lat="60.27460000260881" lon="11.335933336686042" id="-17726">
		<tag k="name" v="Bekken" />
		<tag k="place" v="farm" />
		<tag k="ssr:stedsnr" v="67222" />
	</node>
	<node lat="60.25027500162343" lon="11.54747778004" id="-17727">
		<tag k="name" v="Hauer" />
		<tag k="place" v="farm" />
		<tag k="ssr:stedsnr" v="67625" />
	</node>
	<node lat="60.256588888329496" lon="11.587880560197828" id="-17729">
		<tag k="name" v="Sørli" />
		<tag k="place" v="farm" />
		<tag k="ssr:stedsnr" v="67564" />
	</node>
	<node lat="60.27248333311326" lon="11.499519447015004" id="-17730">
		<tag k="name" v="Lia" />
		<tag k="place" v="farm" />
		<tag k="ssr:stedsnr" v="67581" />
	</node>
	<node lat="60.12219722605808" lon="11.340558326125915" id="-17733">
		<tag k="name" v="Neskollen" />
		<tag k="place" v="quarter" />
		<tag k="ssr:stedsnr" v="87981" />
	</node>
</osm>
