<?xml version="1.0" encoding="UTF-8"?>
<osm generator="osmapis" version="0.6">
	<node id="-28148" lat="60.1274333354" lon="11.4816361177">
		<tag k="bridge" v="yes" />
		<tag k="layer" v="1" />
		<tag k="name" v="Kvernstubekken" />
		<tag k="ssr:stedsnr" v="956816" />
	</node>
	<node id="-28147" lat="60.1294944427" lon="11.4850750059">
		<tag k="bridge" v="yes" />
		<tag k="layer" v="1" />
		<tag k="name" v="Østgård bru" />
		<tag k="ssr:stedsnr" v="956810" />
	</node>
	<node id="-28138" lat="60.1270833328" lon="11.4494250043">
		<tag k="junction" v="yes" />
		<tag k="name" v="Rotnes" />
		<tag k="place" v="locality" />
		<tag k="ssr:stedsnr" v="951950" />
	</node>
	<node id="-26081" lat="60.1239361123" lon="11.4650527706">
		<tag k="name" v="Årnes stasjon" />
		<tag k="railway" v="station" />
		<tag k="ssr:stedsnr" v="526952" />
		<tag k="train" v="yes" />
	</node>
	<node id="-27102" lat="60.2231194431" lon="11.3056777816">
		<tag k="highway" v="path" />
		<tag k="name" v="Midtveien" />
		<tag k="ssr:stedsnr" v="177497" />
	</node>
	<node id="-25555" lat="60.0850472212" lon="11.7341333411">
		<tag k="ford" v="yes" />
		<tag k="name" v="Løvsteinvadet" />
		<tag k="place" v="locality" />
		<tag k="ssr:stedsnr" v="298596" />
	</node>
	<node id="-27078" lat="60.2440083324" lon="11.385258331">
		<tag k="bridge" v="yes" />
		<tag k="layer" v="1" />
		<tag k="name" v="Fjellhaug" />
		<tag k="ssr:stedsnr" v="167826" />
	</node>
	<node id="-27077" lat="60.1096750035" lon="11.5512666688">
		<tag k="bridge" v="yes" />
		<tag k="layer" v="1" />
		<tag k="name" v="Auli" />
		<tag k="ssr:stedsnr" v="167768" />
	</node>
	<node id="-26563" lat="60.0542777819" lon="11.7104750092">
		<tag k="bridge" v="yes" />
		<tag k="layer" v="1" />
		<tag k="name" v="Svarverudbekken" />
		<tag k="ssr:stedsnr" v="835811" />
	</node>
	<node id="-27071" lat="60.0373111071" lon="11.4246694504">
		<tag k="highway" v="path" />
		<tag k="name" v="Fallveien" />
		<tag k="ssr:stedsnr" v="162861" />
	</node>
	<node id="-27066" lat="60.029875003" lon="11.7721416694">
		<tag k="highway" v="path" />
		<tag k="name" v="Postveien" />
		<tag k="ssr:stedsnr" v="162772" />
	</node>
	<node id="-27050" lat="60.1330083376" lon="11.4847305489">
		<tag k="junction" v="yes" />
		<tag k="name" v="Runniteiet" />
		<tag k="place" v="locality" />
		<tag k="ssr:stedsnr" v="162195" />
	</node>
	<node id="-25513" lat="60.0759555529" lon="11.6321305542">
		<tag k="bridge" v="yes" />
		<tag k="layer" v="1" />
		<tag k="name" v="Skvalafoss" />
		<tag k="ssr:stedsnr" v="289849" />
	</node>
	<node id="-25507" lat="60.052519446" lon="11.7200861107">
		<tag k="highway" v="path" />
		<tag k="name" v="Haukelistien" />
		<tag k="ssr:stedsnr" v="284924" />
	</node>
	<node id="-25503" lat="60.0485250013" lon="11.7614888965">
		<tag k="highway" v="path" />
		<tag k="name" v="Høyveien" />
		<tag k="ssr:stedsnr" v="284906" />
	</node>
	<node id="-26008" lat="60.1604750031" lon="11.5761694483">
		<tag k="highway" v="path" />
		<tag k="name" v="Merrabråtabakka" />
		<tag k="ssr:stedsnr" v="480788" />
	</node>
	<node id="-27543" lat="60.2446166706" lon="11.5062138939">
		<tag k="alt_name" v="Opsahl" />
		<tag k="bridge" v="yes" />
		<tag k="layer" v="1" />
		<tag k="name" v="Oppsalbrua" />
		<tag k="ssr:stedsnr" v="531830" />
	</node>
	<node id="-27542" lat="60.1922388863" lon="11.4595333256">
		<tag k="bridge" v="yes" />
		<tag k="layer" v="1" />
		<tag k="name" v="Ringshaug" />
		<tag k="ssr:stedsnr" v="531829" />
	</node>
	<node id="-27536" lat="60.0565861112" lon="11.7754416592">
		<tag k="highway" v="path" />
		<tag k="name" v="Veiliersveien" />
		<tag k="ssr:stedsnr" v="526882" />
	</node>
	<node id="-27544" lat="60.1825250014" lon="11.532922223">
		<tag k="bridge" v="yes" />
		<tag k="layer" v="1" />
		<tag k="loc_name" v="Oppåkermoen" />
		<tag k="name" v="Opakermoen" />
		<tag k="ssr:stedsnr" v="531831" />
	</node>
	<node id="-27524" lat="60.1434111145" lon="11.5504611144">
		<tag k="bridge" v="yes" />
		<tag k="layer" v="1" />
		<tag k="name" v="Lortkloppa" />
		<tag k="ssr:stedsnr" v="526338" />
	</node>
	<node id="-28024" lat="60.2198888852" lon="11.3928055598">
		<tag k="junction" v="yes" />
		<tag k="name" v="Heimvard" />
		<tag k="place" v="locality" />
		<tag k="ssr:stedsnr" v="845121" />
	</node>
	<node id="-27504" lat="60.0282472219" lon="11.3215750014">
		<tag k="landuse" v="industrial" />
		<tag k="name" v="Rånåsfoss kraftverk" />
		<tag k="power" v="plant" />
		<tag k="ssr:stedsnr" v="525346" />
	</node>
	<node id="-26941" lat="60.1263083375" lon="11.4788555634">
		<tag k="bridge" v="yes" />
		<tag k="layer" v="1" />
		<tag k="name" v="Jellum" />
		<tag k="ssr:stedsnr" v="107822" />
	</node>
	<node id="-26985" lat="60.2206388889" lon="11.3105055634">
		<tag k="fixme" v="consider highway=path" />
		<tag k="highway" v="track" />
		<tag k="name" v="Åsveien" />
		<tag k="ssr:stedsnr" v="117490" />
	</node>
	<node id="-26428" lat="60.0665999975" lon="11.6423444514">
		<tag k="bridge" v="yes" />
		<tag k="layer" v="1" />
		<tag k="name" v="Flombekken" />
		<tag k="ssr:stedsnr" v="896848" />
	</node>
	<node id="-28005" lat="60.0284138858" lon="11.7392694454">
		<tag k="name" v="Flavelta" />
		<tag k="place" v="locality" />
		<tag k="ssr:stedsnr" v="832706" />
	</node>
	<node id="-25443" lat="60.2094416702" lon="11.4213416692">
		<tag k="bridge" v="yes" />
		<tag k="layer" v="1" />
		<tag k="name" v="Kvernhaugen" />
		<tag k="ssr:stedsnr" v="167819" />
	</node>
	<node id="-25442" lat="60.1535333302" lon="11.416283332">
		<tag k="bridge" v="yes" />
		<tag k="layer" v="1" />
		<tag k="name" v="Vormsund" />
		<tag k="ssr:stedsnr" v="167815" />
	</node>
	<node id="-25945" lat="60.1945194473" lon="11.5041388885">
		<tag k="junction" v="yes" />
		<tag k="name" v="Skarningsteiet" />
		<tag k="place" v="locality" />
		<tag k="ssr:stedsnr" v="662898" />
	</node>
	<node id="-26960" lat="60.0751527753" lon="11.6357416655">
		<tag k="highway" v="path" />
		<tag k="name" v="Kubakken" />
		<tag k="ssr:stedsnr" v="116299" />
	</node>
	<node id="-27703" lat="60.0540055512" lon="11.6665916653">
		<tag k="highway" v="path" />
		<tag k="name" v="Holmebråtaveien" />
		<tag k="ssr:stedsnr" v="595576" />
	</node>
	<node id="-26946" lat="60.0285805575" lon="11.7354972236">
		<tag k="name" v="Brattevelta" />
		<tag k="place" v="locality" />
		<tag k="ssr:stedsnr" v="110762" />
	</node>
	<node id="-26430" lat="60.1221750031" lon="11.4640416631">
		<tag k="bridge" v="yes" />
		<tag k="layer" v="1" />
		<tag k="name" v="Drogga" />
		<tag k="ssr:stedsnr" v="896850" />
	</node>
	<node id="-26429" lat="60.0806305528" lon="11.6223694373">
		<tag k="bridge" v="yes" />
		<tag k="layer" v="1" />
		<tag k="name" v="Børåa" />
		<tag k="ssr:stedsnr" v="896849" />
	</node>
	<node id="-26940" lat="60.1688055552" lon="11.4793027822">
		<tag k="bridge" v="yes" />
		<tag k="layer" v="1" />
		<tag k="name" v="Uvesund" />
		<tag k="ssr:stedsnr" v="107812" />
	</node>
	<node id="-25915" lat="60.1316055525" lon="11.3540666689">
		<tag k="junction" v="yes" />
		<tag k="name" v="Delerud" />
		<tag k="place" v="locality" />
		<tag k="ssr:stedsnr" v="662765" />
	</node>
	<node id="-26425" lat="60.1256999997" lon="11.4775527838">
		<tag k="bridge" v="yes" />
		<tag k="layer" v="1" />
		<tag k="name" v="Dyståa" />
		<tag k="ssr:stedsnr" v="714812" />
	</node>
	<node id="-26424" lat="60.0549666692" lon="11.3769250001">
		<tag k="bridge" v="yes" />
		<tag k="layer" v="1" />
		<tag k="name" v="Hagaevja" />
		<tag k="ssr:stedsnr" v="714808" />
	</node>
	<node id="-25398" lat="60.1789416631" lon="11.5419444378">
		<tag k="highway" v="path" />
		<tag k="name" v="Gammel Kongevei" />
		<tag k="ssr:stedsnr" v="116911" />
	</node>
	<node id="-27697" lat="60.1599138867" lon="11.4335861156">
		<tag k="bridge" v="yes" />
		<tag k="layer" v="1" />
		<tag k="name" v="Rommen" />
		<tag k="ssr:stedsnr" v="592854" />
	</node>
	<node id="-26913" lat="60.0435083351" lon="11.7279472136">
		<tag k="junction" v="yes" />
		<tag k="name" v="Vegskilla" />
		<tag k="place" v="locality" />
		<tag k="ssr:stedsnr" v="102245" />
	</node>
	<node id="-27933" lat="60.0538638902" lon="11.3734250002">
		<tag k="alt_name" v="Haga" />
		<tag k="name" v="Haga stasjon" />
		<tag k="railway" v="station" />
		<tag k="ssr:stedsnr" v="794008" />
		<tag k="train" v="yes" />
	</node>
	<node id="-26908" lat="60.0604888901" lon="11.3925000034">
		<tag k="junction" v="yes" />
		<tag k="name" v="Munkerudteiet" />
		<tag k="place" v="locality" />
		<tag k="ssr:stedsnr" v="102075" />
	</node>
	<node id="-27925" lat="60.2354583366" lon="11.3710722293">
		<tag k="junction" v="yes" />
		<tag k="name" v="Rolstad" />
		<tag k="place" v="locality" />
		<tag k="ssr:stedsnr" v="784994" />
	</node>
	<node id="-25876" lat="60.08524722" lon="11.4201361102">
		<tag k="alt_name" v="Bodung" />
		<tag k="name" v="Bodung holdeplass" />
		<tag k="railway" v="halt" />
		<tag k="ssr:stedsnr" v="430022" />
		<tag k="train" v="yes" />
	</node>
	<node id="-27407" lat="60.2157194487" lon="11.3552805524">
		<tag k="bridge" v="yes" />
		<tag k="layer" v="1" />
		<tag k="name" v="Svanfossen kanal" />
		<tag k="ssr:stedsnr" v="410801" />
	</node>
	<node id="-27406" lat="60.2008111108" lon="11.4942666719">
		<tag k="alt_name" v="Timbrua" />
		<tag k="bridge" v="yes" />
		<tag k="layer" v="1" />
		<tag k="name" v="Tinnbrua" />
		<tag k="ssr:stedsnr" v="410799" />
	</node>
	<node id="-25355" lat="60.039149007" lon="11.3519479106">
		<tag k="name" v="Auli holdeplass" />
		<tag k="railway" v="halt" />
		<tag k="ssr:stedsnr" v="248914" />
		<tag k="train" v="yes" />
	</node>
	<node id="-26888" lat="60.0274972264" lon="11.322977783">
		<tag k="landuse" v="industrial" />
		<tag k="name" v="AEV" />
		<tag k="power" v="plant" />
		<tag k="ssr:stedsnr" v="100300" />
	</node>
	<node id="-27379" lat="60.0759055596" lon="11.6569277719">
		<tag k="highway" v="path" />
		<tag k="name" v="Brattkleiva" />
		<tag k="ssr:stedsnr" v="405372" />
	</node>
	<node id="-27884" lat="60.0391305578" lon="11.4229916584">
		<tag k="highway" v="path" />
		<tag k="name" v="Lintjennveien" />
		<tag k="ssr:stedsnr" v="784167" />
	</node>
	<node id="-26337" lat="60.2295055597" lon="11.5660000077">
		<tag k="junction" v="yes" />
		<tag k="name" v="Togstad" />
		<tag k="place" v="locality" />
		<tag k="ssr:stedsnr" v="662078" />
	</node>
	<node id="-27860" lat="60.0651472226" lon="11.6287250073">
		<tag k="fixme" v="consider highway=path" />
		<tag k="highway" v="track" />
		<tag k="name" v="Lundbergseterveien" />
		<tag k="ssr:stedsnr" v="777590" />
	</node>
	<node id="-27855" lat="60.1581638876" lon="11.4226305618">
		<tag k="bridge" v="yes" />
		<tag k="layer" v="1" />
		<tag k="name" v="Vormsund øst" />
		<tag k="ssr:stedsnr" v="774807" />
	</node>
	<node id="-27854" lat="60.1175222192" lon="11.5419444504">
		<tag k="bridge" v="yes" />
		<tag k="layer" v="1" />
		<tag k="name" v="Brutangen" />
		<tag k="ssr:stedsnr" v="774776" />
	</node>
	<node id="-27840" lat="60.0305166655" lon="11.798338884">
		<tag k="name" v="Ligrinda" />
		<tag k="place" v="locality" />
		<tag k="ssr:stedsnr" v="769753" />
	</node>
	<node id="-27836" lat="60.098716671" lon="11.3667944399">
		<tag k="junction" v="yes" />
		<tag k="name" v="Hvamsmoen" />
		<tag k="place" v="locality" />
		<tag k="ssr:stedsnr" v="769540" />
	</node>
	<node id="-26803" lat="60.1269277735" lon="11.4801416718">
		<tag k="bridge" v="yes" />
		<tag k="layer" v="1" />
		<tag k="name" v="Flabrua" />
		<tag k="ssr:stedsnr" v="46823" />
	</node>
	<node id="-26802" lat="60.1251583301" lon="11.4761166609">
		<tag k="bridge" v="yes" />
		<tag k="layer" v="1" />
		<tag k="name" v="Knauserud bru" />
		<tag k="ssr:stedsnr" v="46820" />
	</node>
	<node id="-26801" lat="60.1226944476" lon="11.4619527781">
		<tag k="alt_name" v="Årnes" />
		<tag k="bridge" v="yes" />
		<tag k="layer" v="1" />
		<tag k="name" v="Årnes bru" />
		<tag k="ssr:stedsnr" v="46813" />
	</node>
	<node id="-27820" lat="60.0339805542" lon="11.3291249984">
		<tag k="junction" v="yes" />
		<tag k="name" v="Neslerud" />
		<tag k="place" v="locality" />
		<tag k="ssr:stedsnr" v="768311" />
	</node>
	<node id="-27813" lat="60.0258638881" lon="11.4061749948">
		<tag k="bridge" v="yes" />
		<tag k="layer" v="1" />
		<tag k="name" v="Kjernsmo" />
		<tag k="ssr:stedsnr" v="653829" />
	</node>
	<node id="-27812" lat="60.0258000023" lon="11.7654194497">
		<tag k="bridge" v="yes" />
		<tag k="layer" v="1" />
		<tag k="name" v="Rakeiebrua" />
		<tag k="ssr:stedsnr" v="653826" />
	</node>
	<node id="-27811" lat="60.1018555583" lon="11.5774638822">
		<tag k="bridge" v="yes" />
		<tag k="layer" v="1" />
		<tag k="name" v="Sagstua" />
		<tag k="ssr:stedsnr" v="653820" />
	</node>
	<node id="-27810" lat="60.0338416634" lon="11.3390361031">
		<tag k="bridge" v="yes" />
		<tag k="layer" v="1" />
		<tag k="name" v="Sandnesenga" />
		<tag k="ssr:stedsnr" v="652028" />
	</node>
	<node id="-25245" lat="60.2274666646" lon="11.3844722144">
		<tag k="junction" v="yes" />
		<tag k="name" v="Grinder" />
		<tag k="place" v="locality" />
		<tag k="ssr:stedsnr" v="238130" />
	</node>
	<node id="-27804" lat="60.0260000016" lon="11.8087999919">
		<tag k="highway" v="path" />
		<tag k="name" v="Høgebakken" />
		<tag k="ssr:stedsnr" v="647742" />
	</node>
	<node id="-27281" lat="60.1650861107" lon="11.5277277799">
		<tag k="bridge" v="yes" />
		<tag k="layer" v="1" />
		<tag k="name" v="Funni" />
		<tag k="ssr:stedsnr" v="349835" />
	</node>
	<node id="-25737" lat="60.0337750017" lon="11.3411249999">
		<tag k="bridge" v="yes" />
		<tag k="layer" v="1" />
		<tag k="name" v="Sandnes" />
		<tag k="ssr:stedsnr" v="349052" />
	</node>
	<node id="-27245" lat="60.0292138869" lon="11.3279277701">
		<tag k="name" v="Rånåsfoss stasjon" />
		<tag k="railway" v="station" />
		<tag k="ssr:stedsnr" v="343293" />
		<tag k="train" v="yes" />
	</node>
	<node id="-25181" lat="60.0350333294" lon="11.3534555497">
		<tag k="bridge" v="yes" />
		<tag k="layer" v="1" />
		<tag k="name" v="Aulifeltet" />
		<tag k="ssr:stedsnr" v="228797" />
	</node>
	<node id="-25180" lat="60.1515972245" lon="11.5017861151">
		<tag k="bridge" v="yes" />
		<tag k="layer" v="1" />
		<tag k="name" v="Follberg" />
		<tag k="ssr:stedsnr" v="228840" />
	</node>
	<node id="-25179" lat="60.1115333298" lon="11.5103805553">
		<tag k="bridge" v="yes" />
		<tag k="layer" v="1" />
		<tag k="name" v="Skreksrud" />
		<tag k="ssr:stedsnr" v="228835" />
	</node>
	<node id="-27728" lat="60.1929749985" lon="11.5648250059">
		<tag k="alt_name" v="Bjerkerud" />
		<tag k="junction" v="yes" />
		<tag k="name" v="Bjørkerud" />
		<tag k="place" v="locality" />
		<tag k="ssr:stedsnr" v="601798" />
	</node>
	<node id="-25679" lat="60.0778305594" lon="11.6523166636">
		<tag k="highway" v="path" />
		<tag k="name" v="Vaktveien" />
		<tag k="ssr:stedsnr" v="480271" />
	</node>
	<node id="-26168" lat="60.0491944426" lon="11.3406222153">
		<tag k="bridge" v="yes" />
		<tag k="layer" v="1" />
		<tag k="name" v="Rånås" />
		<tag k="ssr:stedsnr" v="714798" />
	</node>
	<node id="-26167" lat="60.2136694454" lon="11.355291663">
		<tag k="bridge" v="yes" />
		<tag k="layer" v="1" />
		<tag k="name" v="Svanfossen" />
		<tag k="ssr:stedsnr" v="714795" />
	</node>
	<node id="-26677" lat="60.2534944413" lon="11.2882777738">
		<tag k="highway" v="path" />
		<tag k="name" v="Styggdalsveien" />
		<tag k="ssr:stedsnr" v="965121" />
	</node>
	<node id="-27699" lat="60.0944027772" lon="11.5989694476">
		<tag k="bridge" v="yes" />
		<tag k="layer" v="1" />
		<tag k="name" v="Fartjern" />
		<tag k="ssr:stedsnr" v="592868" />
	</node>
	<node id="-27698" lat="60.1794222227" lon="11.5353055585">
		<tag k="bridge" v="yes" />
		<tag k="layer" v="1" />
		<tag k="name" v="Funnefoss" />
		<tag k="ssr:stedsnr" v="592866" />
	</node>
	<node id="-25649" lat="60.1972361069" lon="11.5760833283">
		<tag k="bridge" v="yes" />
		<tag k="layer" v="1" />
		<tag k="name" v="Dysterud" />
		<tag k="ssr:stedsnr" v="471831" />
	</node>
	<node id="-25648" lat="60.2289722231" lon="11.5079888856">
		<tag k="bridge" v="yes" />
		<tag k="layer" v="1" />
		<tag k="name" v="Ingeborgrud" />
		<tag k="ssr:stedsnr" v="471822" />
	</node>
	<node id="-25647" lat="60.1244888882" lon="11.4749277688">
		<tag k="bridge" v="yes" />
		<tag k="layer" v="1" />
		<tag k="name" v="Kårstad bru" />
		<tag k="ssr:stedsnr" v="471818" />
	</node>
	<node id="-25646" lat="60.0306916628" lon="11.7950750075">
		<tag k="bridge" v="yes" />
		<tag k="layer" v="1" />
		<tag k="name" v="Bjørknes" />
		<tag k="ssr:stedsnr" v="471766" />
	</node>
	<node id="-25636" lat="60.0379416644" lon="11.8142138813">
		<tag k="highway" v="path" />
		<tag k="name" v="Fjellbuveien" />
		<tag k="ssr:stedsnr" v="466753" />
	</node>
	<node id="-25634" lat="60.0175611098" lon="11.4405055535">
		<tag k="bridge" v="yes" />
		<tag k="layer" v="1" />
		<tag k="name" v="Meyerskloppene" />
		<tag k="ssr:stedsnr" v="466487" />
	</node>
</osm>
