<?xml version="1.0" encoding="UTF-8"?>
<<<<<<< HEAD
<osm version="0.6" generator="osmapis">
	<node lat="60.03729444208474" lon="11.705830563115823" id="-15818">
		<tag k="name" v="Finnbekkmyra" />
=======
<osm generator="osmapis" version="0.6">
	<node id="-262142" lat="60.0071750041" lon="11.7808250002">
		<tag k="name" v="Ærsjømyra" />
		<tag k="natural" v="wetland" />
		<tag k="ssr:stedsnr" v="466258" />
	</node>
	<node id="-264189" lat="60.2516638866" lon="11.2892527738">
		<tag k="name" v="Selblekkmyra" />
		<tag k="natural" v="wetland" />
		<tag k="ssr:stedsnr" v="845104" />
	</node>
	<node id="-264186" lat="60.2333333333" lon="11.2761055551">
		<tag k="name" v="Finnhølkloppmyra" />
		<tag k="natural" v="wetland" />
		<tag k="ssr:stedsnr" v="845064" />
	</node>
	<node id="-262132" lat="60.0641166699" lon="11.7300805508">
		<tag k="name" v="Tallhaugmyra" />
		<tag k="natural" v="wetland" />
		<tag k="ssr:stedsnr" v="465902" />
	</node>
	<node id="-262127" lat="60.0841138866" lon="11.5117805642">
		<tag k="name" v="Stolpemyra" />
		<tag k="natural" v="wetland" />
		<tag k="ssr:stedsnr" v="465071" />
	</node>
	<node id="-262126" lat="60.087377776" lon="11.5068500025">
		<tag k="name" v="Merramyra" />
		<tag k="natural" v="wetland" />
		<tag k="ssr:stedsnr" v="465069" />
	</node>
	<node id="-262120" lat="60.2239583342" lon="11.4342416604">
		<tag k="name" v="Bonnmyra" />
		<tag k="natural" v="wetland" />
		<tag k="ssr:stedsnr" v="662984" />
	</node>
	<node id="-264166" lat="60.0472583362" lon="11.7832833266">
		<tag k="name" v="Buholmyr" />
		<tag k="natural" v="wetland" />
		<tag k="ssr:stedsnr" v="830902" />
	</node>
	<node id="-264164" lat="60.0377666683" lon="11.5502249934">
		<tag k="name" v="Kjenslimåsan" />
		<tag k="natural" v="wetland" />
		<tag k="ssr:stedsnr" v="830817" />
	</node>
	<node id="-262115" lat="60.2526888883" lon="11.5623750007">
		<tag k="name" v="Aurbergmyra" />
		<tag k="natural" v="wetland" />
		<tag k="ssr:stedsnr" v="662942" />
	</node>
	<node id="-262113" lat="60.2716277819" lon="11.4132583422">
		<tag k="name" v="Ruggestein" />
		<tag k="natural" v="stone" />
		<tag k="ssr:stedsnr" v="662901" />
	</node>
	<node id="-262110" lat="60.0963444465" lon="11.7051500009">
		<tag k="name" v="Røde stein" />
		<tag k="natural" v="stone" />
		<tag k="ssr:stedsnr" v="662651" />
	</node>
	<node id="-264155" lat="60.0817888923" lon="11.6903083397">
		<tag k="name" v="Delmyra" />
		<tag k="natural" v="wetland" />
		<tag k="ssr:stedsnr" v="830370" />
	</node>
	<node id="-262104" lat="60.2772944463" lon="11.5712833348">
		<tag k="name" v="Høgmyra" />
		<tag k="natural" v="wetland" />
		<tag k="ssr:stedsnr" v="662635" />
	</node>
	<node id="-262103" lat="60.0819749998" lon="11.7311277861">
		<tag k="name" v="Bjørkneshølet" />
		<tag k="natural" v="wetland" />
		<tag k="ssr:stedsnr" v="662634" />
	</node>
	<node id="-262102" lat="60.081977779" lon="11.7035055529">
		<tag k="name" v="Gatetjennmyra" />
		<tag k="natural" v="wetland" />
		<tag k="ssr:stedsnr" v="662632" />
	</node>
	<node id="-262099" lat="60.0863666681" lon="11.7246388972">
		<tag k="name" v="Lunnemyra" />
		<tag k="natural" v="wetland" />
		<tag k="ssr:stedsnr" v="662606" />
	</node>
	<node id="-264143" lat="60.1116527776" lon="11.6853472292">
		<tag k="name" v="Hynntjennmåsan" />
		<tag k="natural" v="wetland" />
		<tag k="ssr:stedsnr" v="830144" />
	</node>
	<node id="-264141" lat="60.1138638884" lon="11.6438055612">
		<tag k="name" v="Staurmyra" />
		<tag k="natural" v="wetland" />
		<tag k="ssr:stedsnr" v="830133" />
	</node>
	<node id="-262090" lat="60.2940111092" lon="11.499388892">
		<tag k="name" v="Sprakadalsmyra" />
		<tag k="natural" v="wetland" />
		<tag k="ssr:stedsnr" v="662523" />
	</node>
	<node id="-262088" lat="60.2528583361" lon="11.4883888891">
		<tag k="name" v="Svinmyra" />
		<tag k="natural" v="wetland" />
		<tag k="ssr:stedsnr" v="662822" />
	</node>
	<node id="-262087" lat="60.2568694481" lon="11.5134222232">
		<tag k="name" v="Vangmyra" />
		<tag k="natural" v="wetland" />
		<tag k="ssr:stedsnr" v="662817" />
	</node>
	<node id="-262085" lat="60.2446694407" lon="11.529436108">
		<tag k="name" v="Hundstadmåsan" />
		<tag k="natural" v="wetland" />
		<tag k="ssr:stedsnr" v="662812" />
	</node>
	<node id="-262072" lat="60.0140250008" lon="11.4779638978">
		<tag k="name" v="Stabbestolmyra" />
		<tag k="natural" v="wetland" />
		<tag k="ssr:stedsnr" v="662153" />
	</node>
	<node id="-264180" lat="60.123449998" lon="11.5620944487">
		<tag k="name" v="Gørtjennmåsan" />
		<tag k="natural" v="wetland" />
		<tag k="ssr:stedsnr" v="845009" />
	</node>
	<node id="-264113" lat="60.0408138925" lon="11.637169448">
		<tag k="name" v="Otermyra" />
		<tag k="natural" v="wetland" />
		<tag k="ssr:stedsnr" v="794551" />
	</node>
	<node id="-262061" lat="60.0387388907" lon="11.4842138894">
		<tag k="name" v="Brønnmyra" />
		<tag k="natural" v="wetland" />
		<tag k="ssr:stedsnr" v="655804" />
	</node>
	<node id="-264084" lat="60.2741611102" lon="11.3476138968">
		<tag k="name" v="Erikslimyra" />
		<tag k="natural" v="wetland" />
		<tag k="ssr:stedsnr" v="784932" />
	</node>
	<node id="-262034" lat="60.0704361153" lon="11.7850555579">
		<tag k="name" v="Søndre Nettmangmåsan" />
		<tag k="natural" v="wetland" />
		<tag k="ssr:stedsnr" v="420629" />
	</node>
	<node id="-262033" lat="60.0674638865" lon="11.7615083301">
		<tag k="name" v="Bergmyra" />
		<tag k="natural" v="wetland" />
		<tag k="ssr:stedsnr" v="420625" />
	</node>
	<node id="-264080" lat="60.2605333297" lon="11.4669861057">
		<tag k="name" v="Andersholen" />
		<tag k="place" v="locality" />
		<tag k="ssr:stedsnr" v="784859" />
	</node>
	<node id="-264073" lat="60.3113972265" lon="11.4992138974">
		<tag k="name" v="Steintjennmyra" />
		<tag k="natural" v="wetland" />
		<tag k="ssr:stedsnr" v="784754" />
	</node>
	<node id="-262022" lat="60.0418305579" lon="11.5834416643">
		<tag k="name" v="Fugleosmyra" />
		<tag k="natural" v="wetland" />
		<tag k="ssr:stedsnr" v="405827" />
	</node>
	<node id="-262019" lat="60.0321694452" lon="11.775744442">
		<tag k="name" v="Djupmyra" />
		<tag k="natural" v="wetland" />
		<tag k="ssr:stedsnr" v="405726" />
	</node>
	<node id="-264065" lat="60.0747000036" lon="11.6976944424">
		<tag k="name" v="Gudbrandmyra" />
		<tag k="natural" v="wetland" />
		<tag k="ssr:stedsnr" v="784628" />
	</node>
	<node id="-262012" lat="60.0800555562" lon="11.6901666689">
		<tag k="name" v="Grønneputten" />
		<tag k="natural" v="wetland" />
		<tag k="ssr:stedsnr" v="405407" />
	</node>
	<node id="-264059" lat="60.0726749986" lon="11.64994444">
		<tag k="name" v="Taumyra" />
		<tag k="natural" v="wetland" />
		<tag k="ssr:stedsnr" v="784370" />
	</node>
	<node id="-264057" lat="60.0726277736" lon="11.6285111046">
		<tag k="name" v="Tolvhusmyra" />
		<tag k="natural" v="wetland" />
		<tag k="ssr:stedsnr" v="784325" />
	</node>
	<node id="-264056" lat="60.0887472244" lon="11.5615750083">
		<tag k="alt_name" v="Gråbeinmyramyra" />
		<tag k="name" v="Gråbeinmyra" />
		<tag k="natural" v="wetland" />
		<tag k="ssr:stedsnr" v="784314" />
	</node>
	<node id="-262007" lat="60.1408611082" lon="11.5781666723">
		<tag k="name" v="Slolimyra" />
		<tag k="natural" v="wetland" />
		<tag k="ssr:stedsnr" v="405355" />
	</node>
	<node id="-264054" lat="60.0791583356" lon="11.5824611097">
		<tag k="name" v="Høgmyra" />
		<tag k="natural" v="wetland" />
		<tag k="ssr:stedsnr" v="784187" />
	</node>
	<node id="-264048" lat="60.2437472241" lon="11.4273805509">
		<tag k="name" v="Teljebrumyra" />
		<tag k="natural" v="wetland" />
		<tag k="ssr:stedsnr" v="784161" />
	</node>
	<node id="-264047" lat="60.0148472218" lon="11.4738249922">
		<tag k="name" v="Delmyra" />
		<tag k="natural" v="wetland" />
		<tag k="ssr:stedsnr" v="784156" />
	</node>
	<node id="-264036" lat="60.2797444418" lon="11.4507611153">
		<tag k="historic" v="shieling" />
		<tag k="name" v="Rommivangen" />
		<tag k="place" v="locality" />
		<tag k="ssr:stedsnr" v="783877" />
	</node>
	<node id="-261986" lat="60.2332833299" lon="11.449816663">
		<tag k="name" v="Lindbergmyra" />
		<tag k="natural" v="wetland" />
		<tag k="ssr:stedsnr" v="359975" />
	</node>
	<node id="-261984" lat="60.2335055576" lon="11.4352194409">
		<tag k="name" v="Steinlidalsmyra" />
		<tag k="natural" v="wetland" />
		<tag k="ssr:stedsnr" v="359965" />
	</node>
	<node id="-261983" lat="60.2191444448" lon="11.4816972249">
		<tag k="name" v="Søndagsmyra" />
		<tag k="natural" v="wetland" />
		<tag k="ssr:stedsnr" v="359962" />
	</node>
	<node id="-261979" lat="60.0653333313" lon="11.7850944387">
		<tag k="name" v="Gørrvika" />
		<tag k="natural" v="wetland" />
		<tag k="ssr:stedsnr" v="359607" />
	</node>
	<node id="-261977" lat="60.3188972191" lon="11.4215472172">
		<tag k="name" v="Nedre Mårramyra" />
		<tag k="natural" v="wetland" />
		<tag k="ssr:stedsnr" v="359553" />
	</node>
	<node id="-264023" lat="60.0295916666" lon="11.5716250026">
		<tag k="name" v="Grønnmyra" />
		<tag k="natural" v="wetland" />
		<tag k="ssr:stedsnr" v="776780" />
	</node>
	<node id="-261973" lat="60.0693388898" lon="11.5613083262">
		<tag k="name" v="Kjusmyra" />
		<tag k="natural" v="wetland" />
		<tag k="ssr:stedsnr" v="359313" />
	</node>
	<node id="-261972" lat="60.0717444427" lon="11.6313166636">
		<tag k="name" v="Sagbakkmyra" />
		<tag k="natural" v="wetland" />
		<tag k="ssr:stedsnr" v="359302" />
	</node>
	<node id="-261969" lat="60.2391361154" lon="11.2781166714">
		<tag k="name" v="Bergbråtemyra" />
>>>>>>> e1d4bc35ff8a6074a6f2e91616a996b547c36f15
		<tag k="natural" v="wetland" />
		<tag k="ssr:stedsnr" v="230193" />
	</node>
<<<<<<< HEAD
	<node lat="60.07006388636143" lon="11.729747228318512" id="-15824">
		<tag k="alt_name" v="Sakkhusmåsan" />
		<tag k="name" v="Sakosmåsan" />
=======
	<node id="-261966" lat="60.2728055515" lon="11.3642083282">
		<tag k="name" v="Lågsjømyra" />
>>>>>>> e1d4bc35ff8a6074a6f2e91616a996b547c36f15
		<tag k="natural" v="wetland" />
		<tag k="ssr:stedsnr" v="5502" />
	</node>
<<<<<<< HEAD
	<node lat="60.06024166406478" lon="11.63514445041387" id="-15847">
		<tag k="name" v="Smallangmyra" />
		<tag k="natural" v="wetland" />
		<tag k="ssr:stedsnr" v="231655" />
	</node>
	<node lat="60.043644441003266" lon="11.450908339225707" id="-15848">
		<tag k="name" v="Mordermyra" />
=======
	<node id="-261965" lat="60.2832750034" lon="11.4965249944">
		<tag k="name" v="Stortjennmyra" />
		<tag k="natural" v="wetland" />
		<tag k="ssr:stedsnr" v="358866" />
	</node>
	<node id="-264012" lat="60.0266611092" lon="11.4357027799">
		<tag k="name" v="Høgmåsan" />
>>>>>>> e1d4bc35ff8a6074a6f2e91616a996b547c36f15
		<tag k="natural" v="wetland" />
		<tag k="ssr:stedsnr" v="231841" />
	</node>
<<<<<<< HEAD
	<node lat="60.05774444454827" lon="11.4857527815752" id="-15850">
		<tag k="name" v="Nedre Glomsen" />
=======
	<node id="-264009" lat="60.042741663" lon="11.6151777705">
		<tag k="name" v="Flinttjennmyra" />
>>>>>>> e1d4bc35ff8a6074a6f2e91616a996b547c36f15
		<tag k="natural" v="wetland" />
		<tag k="ssr:stedsnr" v="40309" />
	</node>
<<<<<<< HEAD
	<node lat="60.070438891212625" lon="11.695638881024635" id="-15859">
		<tag k="name" v="Otermyra" />
=======
	<node id="-261772" lat="60.1092111147" lon="11.658999995">
		<tag k="name" v="Slottmyra" />
		<tag k="natural" v="wetland" />
		<tag k="ssr:stedsnr" v="465481" />
	</node>
	<node id="-261957" lat="60.1256444467" lon="11.5727583277">
		<tag k="name" v="Vindmyra" />
>>>>>>> e1d4bc35ff8a6074a6f2e91616a996b547c36f15
		<tag k="natural" v="wetland" />
		<tag k="ssr:stedsnr" v="41375" />
	</node>
<<<<<<< HEAD
	<node lat="60.03234166406221" lon="11.455833328050993" id="-15865">
		<tag k="name" v="Vangmyra" />
=======
	<node id="-264003" lat="60.1345777798" lon="11.5875444358">
		<tag k="name" v="Storrhullet" />
>>>>>>> e1d4bc35ff8a6074a6f2e91616a996b547c36f15
		<tag k="natural" v="wetland" />
		<tag k="ssr:stedsnr" v="41831" />
	</node>
<<<<<<< HEAD
	<node lat="60.05581666320162" lon="11.783447226441128" id="-15869">
		<tag k="name" v="Bukketangmyra" />
=======
	<node id="-264001" lat="60.1080833331" lon="11.6837250008">
		<tag k="name" v="Kumyra" />
>>>>>>> e1d4bc35ff8a6074a6f2e91616a996b547c36f15
		<tag k="natural" v="wetland" />
		<tag k="ssr:stedsnr" v="41886" />
	</node>
<<<<<<< HEAD
	<node lat="60.07886326954593" lon="11.757019856072354" id="-15875">
		<tag k="loc_name" v="Skyttersteinmyra" />
		<tag k="name" v="Skytterstumyra" />
=======
	<node id="-263988" lat="60.0864083335" lon="11.6582055586">
		<tag k="name" v="Nedre Sølvknattmyra" />
>>>>>>> e1d4bc35ff8a6074a6f2e91616a996b547c36f15
		<tag k="natural" v="wetland" />
		<tag k="ssr:stedsnr" v="43713" />
	</node>
<<<<<<< HEAD
	<node lat="60.275875000294704" lon="11.460363881481593" id="-15876">
		<tag k="name" v="Nevertjennsmyra" />
=======
	<node id="-263985" lat="60.1168777776" lon="11.5660277824">
		<tag k="name" v="Hvitmåsan" />
>>>>>>> e1d4bc35ff8a6074a6f2e91616a996b547c36f15
		<tag k="natural" v="wetland" />
		<tag k="ssr:stedsnr" v="237910" />
	</node>
<<<<<<< HEAD
	<node lat="60.21444721952903" lon="11.321894452916478" id="-15877">
		<tag k="name" v="Elgmyra" />
		<tag k="natural" v="wetland" />
		<tag k="ssr:stedsnr" v="237758" />
	</node>
	<node lat="60.277477778763405" lon="11.47216944995925" id="-15879">
		<tag k="name" v="Fallmyrene" />
=======
	<node id="-263981" lat="60.045808336" lon="11.6791166598">
		<tag k="name" v="Bjørkebrumyra" />
>>>>>>> e1d4bc35ff8a6074a6f2e91616a996b547c36f15
		<tag k="natural" v="wetland" />
		<tag k="ssr:stedsnr" v="237868" />
	</node>
<<<<<<< HEAD
	<node lat="60.2455694448142" lon="11.416094440962524" id="-15897">
		<tag k="name" v="Holtermyrene" />
		<tag k="natural" v="wetland" />
		<tag k="ssr:stedsnr" v="238214" />
	</node>
	<node lat="60.07119721893949" lon="11.656458339359641" id="-15902">
		<tag k="name" v="Setermyra" />
=======
	<node id="-261927" lat="60.1412444477" lon="11.5474611152">
		<tag k="name" v="Skøyimyra" />
		<tag k="natural" v="wetland" />
		<tag k="ssr:stedsnr" v="490646" />
	</node>
	<node id="-263974" lat="60.0421500013" lon="11.5992166668">
		<tag k="name" v="Gullrosmyrene" />
>>>>>>> e1d4bc35ff8a6074a6f2e91616a996b547c36f15
		<tag k="natural" v="wetland" />
		<tag k="ssr:stedsnr" v="238353" />
	</node>
	<node lat="60.32322777897745" lon="11.408663893784425" id="-15905">
		<tag k="name" v="Djupedalsvangen" />
		<tag k="place" v="locality" />
		<tag k="ssr:stedsnr" v="238570" />
	</node>
<<<<<<< HEAD
	<node lat="60.0747500039941" lon="11.749352781083793" id="-15907">
		<tag k="name" v="Delmyra" />
		<tag k="natural" v="wetland" />
		<tag k="ssr:stedsnr" v="238640" />
	</node>
	<node lat="60.288500002501976" lon="11.50486667427817" id="-15908">
		<tag k="name" v="Tretjennmyra" />
		<tag k="natural" v="wetland" />
		<tag k="ssr:stedsnr" v="238592" />
	</node>
	<node lat="60.07617777354726" lon="11.779138893227518" id="-15909">
		<tag k="name" v="Helbekkmyra" />
=======
	<node id="-263966" lat="60.061941669" lon="11.5549666695">
		<tag k="name" v="Slettfjellmåsan" />
>>>>>>> e1d4bc35ff8a6074a6f2e91616a996b547c36f15
		<tag k="natural" v="wetland" />
		<tag k="ssr:stedsnr" v="238616" />
	</node>
<<<<<<< HEAD
	<node lat="60.253219440238254" lon="11.433088896350789" id="-15913">
		<tag k="name" v="Bjønnåsmyra" />
=======
	<node id="-263965" lat="60.1428472228" lon="11.5928777701">
		<tag k="name" v="Veamyra" />
>>>>>>> e1d4bc35ff8a6074a6f2e91616a996b547c36f15
		<tag k="natural" v="wetland" />
		<tag k="ssr:stedsnr" v="238842" />
	</node>
<<<<<<< HEAD
	<node lat="60.251044443323956" lon="11.531158330345843" id="-15920">
		<tag k="name" v="Bukkeholen" />
		<tag k="place" v="locality" />
		<tag k="ssr:stedsnr" v="238949" />
	</node>
	<node lat="60.04216944699561" lon="11.727513894653551" id="-15963">
		<tag k="name" v="Bessmorhullet" />
=======
	<node id="-263961" lat="60.0834388855" lon="11.6615805624">
		<tag k="name" v="Øvre Sølvknattmyra" />
>>>>>>> e1d4bc35ff8a6074a6f2e91616a996b547c36f15
		<tag k="natural" v="wetland" />
		<tag k="ssr:stedsnr" v="82206" />
	</node>
<<<<<<< HEAD
	<node lat="60.04740833504833" lon="11.608127769460836" id="-15988">
		<tag k="name" v="Øvre Bleikmyra" />
		<tag k="natural" v="wetland" />
		<tag k="ssr:stedsnr" v="101704" />
	</node>
	<node lat="60.06995277645818" lon="11.71772777113397" id="-15999">
		<tag k="name" v="Tiurmyra" />
=======
	<node id="-261912" lat="60.1171416666" lon="11.3743277693">
		<tag k="name" v="Herremyra" />
		<tag k="natural" v="wetland" />
		<tag k="ssr:stedsnr" v="490096" />
	</node>
	<node id="-263951" lat="60.0556083361" lon="11.492291667">
		<tag k="name" v="Glomsen" />
>>>>>>> e1d4bc35ff8a6074a6f2e91616a996b547c36f15
		<tag k="natural" v="wetland" />
		<tag k="ssr:stedsnr" v="102432" />
	</node>
	<node lat="60.081455553401035" lon="11.753563886455288" id="-16001">
		<tag k="name" v="Sanddyna" />
		<tag k="natural" v="beach" />
		<tag k="ssr:stedsnr" v="102608" />
		<tag k="surface" v="sand" />
	</node>
<<<<<<< HEAD
	<node lat="60.037422221968164" lon="11.5833305627894" id="-16005">
		<tag k="name" v="Tretjennmåsan" />
=======
	<node id="-263949" lat="60.0603638911" lon="11.4629833407">
		<tag k="name" v="Svarttjennmåsan" />
>>>>>>> e1d4bc35ff8a6074a6f2e91616a996b547c36f15
		<tag k="natural" v="wetland" />
		<tag k="ssr:stedsnr" v="102817" />
	</node>
<<<<<<< HEAD
	<node lat="60.065236107758345" lon="11.69884443542699" id="-16009">
		<tag k="name" v="Mårramyra" />
=======
	<node id="-263948" lat="60.020613892" lon="11.6885444486">
		<tag k="name" v="Grangardsmyr" />
>>>>>>> e1d4bc35ff8a6074a6f2e91616a996b547c36f15
		<tag k="natural" v="wetland" />
		<tag k="ssr:stedsnr" v="102916" />
	</node>
<<<<<<< HEAD
	<node lat="60.05692500227322" lon="11.735058340312445" id="-16010">
		<tag k="name" v="Bjønnmyrbakken" />
		<tag k="place" v="locality" />
		<tag k="ssr:stedsnr" v="102922" />
	</node>
	<node lat="60.04901666617365" lon="11.733916664795284" id="-16011">
		<tag k="name" v="Snøplogmyra" />
=======
	<node id="-263947" lat="60.0079472206" lon="11.6391083264">
		<tag k="name" v="Sinkerudmyrene" />
>>>>>>> e1d4bc35ff8a6074a6f2e91616a996b547c36f15
		<tag k="natural" v="wetland" />
		<tag k="ssr:stedsnr" v="102924" />
	</node>
<<<<<<< HEAD
	<node lat="60.30652500266184" lon="11.50715832928121" id="-16026">
		<tag k="alt_name" v="Vollmyra" />
		<tag k="name" v="Vollmyrane" />
=======
	<node id="-261895" lat="60.0311416698" lon="11.6125722158">
		<tag k="name" v="Skvalermyr" />
>>>>>>> e1d4bc35ff8a6074a6f2e91616a996b547c36f15
		<tag k="natural" v="wetland" />
		<tag k="ssr:stedsnr" v="249974" />
	</node>
<<<<<<< HEAD
	<node lat="60.08335555477008" lon="11.729477779722457" id="-16032">
		<tag k="name" v="Elghølet" />
		<tag k="natural" v="wetland" />
		<tag k="ssr:stedsnr" v="116617" />
	</node>
	<node lat="60.31948611208765" lon="11.440952786888282" id="-16038">
		<tag k="name" v="Vangmyra" />
=======
	<node id="-261893" lat="60.039316668" lon="11.5997499913">
		<tag k="name" v="Fleskemyra" />
		<tag k="natural" v="wetland" />
		<tag k="ssr:stedsnr" v="344813" />
	</node>
	<node id="-263940" lat="60.0348055559" lon="11.7350944409">
		<tag k="name" v="Gamlevangmyra" />
>>>>>>> e1d4bc35ff8a6074a6f2e91616a996b547c36f15
		<tag k="natural" v="wetland" />
		<tag k="ssr:stedsnr" v="116720" />
	</node>
<<<<<<< HEAD
	<node lat="60.08809166944053" lon="11.686488888641279" id="-16042">
		<tag k="name" v="Nilsmyra" />
		<tag k="natural" v="wetland" />
		<tag k="ssr:stedsnr" v="116922" />
	</node>
	<node lat="60.25357222241307" lon="11.515808333786007" id="-16047">
		<tag k="name" v="Torvmyra" />
=======
	<node id="-264150" lat="60.0524027818" lon="11.4393583322">
		<tag k="name" v="Fjellsmyra" />
		<tag k="natural" v="wetland" />
		<tag k="ssr:stedsnr" v="830264" />
	</node>
	<node id="-261887" lat="60.1070472232" lon="11.6931805632">
		<tag k="name" v="Funnimyra" />
>>>>>>> e1d4bc35ff8a6074a6f2e91616a996b547c36f15
		<tag k="natural" v="wetland" />
		<tag k="ssr:stedsnr" v="116823" />
	</node>
<<<<<<< HEAD
	<node lat="60.19905555591503" lon="11.531627770345628" id="-16068">
		<tag k="name" v="Gulltjennmåsan" />
=======
	<node id="-261885" lat="60.1323972204" lon="11.5550444514">
		<tag k="name" v="Lokkemyra" />
>>>>>>> e1d4bc35ff8a6074a6f2e91616a996b547c36f15
		<tag k="natural" v="wetland" />
		<tag k="ssr:stedsnr" v="126757" />
	</node>
<<<<<<< HEAD
	<node lat="60.05804444315897" lon="11.502772226584332" id="-16091">
		<tag k="name" v="Bjønnemåsan" />
=======
	<node id="-261882" lat="60.1518305567" lon="11.3294583257">
		<tag k="name" v="Grenimåsan" />
>>>>>>> e1d4bc35ff8a6074a6f2e91616a996b547c36f15
		<tag k="natural" v="wetland" />
		<tag k="ssr:stedsnr" v="162317" />
	</node>
<<<<<<< HEAD
	<node lat="60.06538055915976" lon="11.489183330875614" id="-16092">
		<tag k="name" v="Karstakmyra" />
		<tag k="natural" v="wetland" />
		<tag k="ssr:stedsnr" v="162319" />
	</node>
	<node lat="60.0083250027029" lon="11.660525007620722" id="-16093">
		<tag k="name" v="Langmyra" />
		<tag k="natural" v="wetland" />
		<tag k="ssr:stedsnr" v="162001" />
	</node>
	<node lat="60.023763891532305" lon="11.818394445135828" id="-16100">
		<tag k="name" v="Raumyra" />
=======
	<node id="-264147" lat="60.0223888854" lon="11.695422225">
		<tag k="name" v="Gransmyra" />
		<tag k="natural" v="wetland" />
		<tag k="ssr:stedsnr" v="830189" />
	</node>
	<node id="-261416" lat="60.2455694448" lon="11.416094441">
		<tag k="name" v="Holtermyrene" />
		<tag k="natural" v="wetland" />
		<tag k="ssr:stedsnr" v="238214" />
	</node>
	<node id="-261865" lat="60.3219888906" lon="11.4660083305">
		<tag k="name" v="Floghavremyra" />
>>>>>>> e1d4bc35ff8a6074a6f2e91616a996b547c36f15
		<tag k="natural" v="wetland" />
		<tag k="ssr:stedsnr" v="162213" />
	</node>
<<<<<<< HEAD
	<node lat="60.138977782117685" lon="11.533833334760336" id="-16103">
		<tag k="name" v="Vennmyra" />
=======
	<node id="-261860" lat="60.2700583369" lon="11.5806972159">
		<tag k="name" v="Kølabudalsmyra" />
>>>>>>> e1d4bc35ff8a6074a6f2e91616a996b547c36f15
		<tag k="natural" v="wetland" />
		<tag k="ssr:stedsnr" v="162360" />
	</node>
<<<<<<< HEAD
	<node lat="60.0500194483342" lon="11.775844440732827" id="-16113">
		<tag k="name" v="Moltemyra" />
=======
	<node id="-261859" lat="60.2852777762" lon="11.43078334">
		<tag k="name" v="Huldertjennsmyra" />
>>>>>>> e1d4bc35ff8a6074a6f2e91616a996b547c36f15
		<tag k="natural" v="wetland" />
		<tag k="ssr:stedsnr" v="162907" />
	</node>
<<<<<<< HEAD
	<node lat="60.030097225496924" lon="11.708563887752133" id="-16117">
		<tag k="name" v="Skrangelholtet" />
=======
	<node id="-263906" lat="60.2634527748" lon="11.384016663">
		<tag k="name" v="Sagholen" />
>>>>>>> e1d4bc35ff8a6074a6f2e91616a996b547c36f15
		<tag k="place" v="locality" />
		<tag k="ssr:stedsnr" v="170762" />
	</node>
<<<<<<< HEAD
	<node lat="60.12546389013791" lon="11.582363889646853" id="-16123">
		<tag k="name" v="Jastein" />
		<tag k="natural" v="stone" />
		<tag k="ssr:stedsnr" v="177108" />
	</node>
	<node lat="60.06920833259199" lon="11.58871110711173" id="-16126">
		<tag k="name" v="Hunndalsbrenna" />
		<tag k="place" v="locality" />
		<tag k="ssr:stedsnr" v="177270" />
	</node>
	<node lat="60.08071388993722" lon="11.626258338341243" id="-16127">
		<tag k="name" v="Børåhauga" />
		<tag k="place" v="locality" />
		<tag k="ssr:stedsnr" v="177279" />
	</node>
	<node lat="60.08071666971852" lon="11.641005552697315" id="-16131">
		<tag k="name" v="Vaktmyra" />
=======
	<node id="-261852" lat="60.2903083309" lon="11.4931722161">
		<tag k="name" v="Vangmyra" />
		<tag k="natural" v="wetland" />
		<tag k="ssr:stedsnr" v="480531" />
	</node>
	<node id="-263899" lat="60.0903944403" lon="11.6863694355">
		<tag k="name" v="Grevlingmåsan" />
		<tag k="natural" v="wetland" />
		<tag k="ssr:stedsnr" v="601924" />
	</node>
	<node id="-261850" lat="60.2147027803" lon="11.4929333247">
		<tag k="name" v="Homlemyra" />
		<tag k="natural" v="wetland" />
		<tag k="ssr:stedsnr" v="480340" />
	</node>
	<node id="-262236" lat="60.0538611069" lon="11.3864694506">
		<tag k="name" v="Munkerudhagen" />
		<tag k="place" v="locality" />
		<tag k="ssr:stedsnr" v="526188" />
	</node>
	<node id="-263896" lat="60.2771666673" lon="11.4001027724">
		<tag k="name" v="Setermyra" />
>>>>>>> e1d4bc35ff8a6074a6f2e91616a996b547c36f15
		<tag k="natural" v="wetland" />
		<tag k="ssr:stedsnr" v="177315" />
	</node>
<<<<<<< HEAD
	<node lat="60.07568333697952" lon="11.587833326995902" id="-16132">
		<tag k="name" v="Sautjennmyra" />
=======
	<node id="-261847" lat="60.0850833326" lon="11.6250611144">
		<tag k="name" v="Bikkjesøla" />
>>>>>>> e1d4bc35ff8a6074a6f2e91616a996b547c36f15
		<tag k="natural" v="wetland" />
		<tag k="ssr:stedsnr" v="177319" />
	</node>
<<<<<<< HEAD
	<node lat="60.213280552813586" lon="11.553899993173783" id="-16135">
		<tag k="name" v="Rudsmyra" />
=======
	<node id="-261844" lat="60.0735777765" lon="11.6407749922">
		<tag k="name" v="Svellemyra" />
>>>>>>> e1d4bc35ff8a6074a6f2e91616a996b547c36f15
		<tag k="natural" v="wetland" />
		<tag k="ssr:stedsnr" v="177467" />
	</node>
<<<<<<< HEAD
	<node lat="60.080225003715626" lon="11.719744442407787" id="-16140">
		<tag k="name" v="Høgemyra" />
=======
	<node id="-261843" lat="60.0655722188" lon="11.7599861161">
		<tag k="name" v="Ulvemyra" />
>>>>>>> e1d4bc35ff8a6074a6f2e91616a996b547c36f15
		<tag k="natural" v="wetland" />
		<tag k="ssr:stedsnr" v="177660" />
	</node>
<<<<<<< HEAD
	<node lat="60.07911110723118" lon="11.733586116694433" id="-16141">
		<tag k="name" v="Saltblekkmyra" />
=======
	<node id="-263888" lat="60.3248499969" lon="11.440827782">
		<tag k="name" v="Finnmyra" />
>>>>>>> e1d4bc35ff8a6074a6f2e91616a996b547c36f15
		<tag k="natural" v="wetland" />
		<tag k="ssr:stedsnr" v="177662" />
	</node>
<<<<<<< HEAD
	<node lat="60.30868333617996" lon="11.487291666030744" id="-16145">
		<tag k="name" v="Stromsmyra" />
=======
	<node id="-263887" lat="60.3103416642" lon="11.4164055472">
		<tag k="name" v="Storrhølet" />
>>>>>>> e1d4bc35ff8a6074a6f2e91616a996b547c36f15
		<tag k="natural" v="wetland" />
		<tag k="ssr:stedsnr" v="177766" />
	</node>
<<<<<<< HEAD
	<node lat="60.239538891449634" lon="11.424611107464614" id="-16147">
		<tag k="name" v="Setermyra" />
=======
	<node id="-263886" lat="60.3158583343" lon="11.4520555624">
		<tag k="name" v="Lemmyra" />
>>>>>>> e1d4bc35ff8a6074a6f2e91616a996b547c36f15
		<tag k="natural" v="wetland" />
		<tag k="ssr:stedsnr" v="177960" />
	</node>
<<<<<<< HEAD
	<node lat="60.22294444199667" lon="11.412550006913115" id="-16149">
		<tag k="landuse" v="quarry" />
		<tag k="name" v="Inngjerdingsbruddet" />
		<tag k="ssr:stedsnr" v="177968" />
	</node>
	<node lat="60.230105555892614" lon="11.417844446241679" id="-16150">
		<tag k="name" v="Blekkjemyra" />
=======
	<node id="-263884" lat="60.0912833289" lon="11.7044833347">
		<tag k="name" v="Høgmyra" />
		<tag k="natural" v="wetland" />
		<tag k="ssr:stedsnr" v="601496" />
	</node>
	<node id="-263881" lat="60.0599722246" lon="11.7476749995">
		<tag k="name" v="Stakamyra" />
>>>>>>> e1d4bc35ff8a6074a6f2e91616a996b547c36f15
		<tag k="natural" v="wetland" />
		<tag k="ssr:stedsnr" v="177969" />
	</node>
<<<<<<< HEAD
	<node lat="60.25434999717273" lon="11.569633329838528" id="-16189">
		<tag k="name" v="Brennamyra" />
		<tag k="natural" v="wetland" />
		<tag k="ssr:stedsnr" v="188646" />
	</node>
	<node lat="60.08488333019277" lon="11.671408341317438" id="-16207">
		<tag k="name" v="Nederste Himmeltjennmyra" />
=======
	<node id="-263877" lat="60.0753111154" lon="11.709144437">
		<tag k="name" v="Blekktjennsmyra" />
		<tag k="natural" v="wetland" />
		<tag k="ssr:stedsnr" v="601118" />
	</node>
	<node id="-263874" lat="60.2345611096" lon="11.5445916637">
		<tag k="name" v="Liermyra" />
>>>>>>> e1d4bc35ff8a6074a6f2e91616a996b547c36f15
		<tag k="natural" v="wetland" />
		<tag k="ssr:stedsnr" v="223406" />
	</node>
<<<<<<< HEAD
	<node lat="60.02688333513513" lon="11.744977786356083" id="-16226">
		<tag k="name" v="Paddeflo" />
=======
	<node id="-263873" lat="60.0763944449" lon="11.6669638921">
		<tag k="name" v="Øvre runde myra" />
>>>>>>> e1d4bc35ff8a6074a6f2e91616a996b547c36f15
		<tag k="natural" v="wetland" />
		<tag k="ssr:stedsnr" v="231785" />
	</node>
<<<<<<< HEAD
	<node lat="60.24689444016681" lon="11.267866662733509" id="-16229">
		<tag k="name" v="Lauvbråtmyra" />
		<tag k="natural" v="wetland" />
		<tag k="ssr:stedsnr" v="237103" />
	</node>
	<node lat="60.27896944850045" lon="11.36723888964904" id="-16236">
		<tag k="name" v="Igletjennsmyra" />
=======
	<node id="-263867" lat="60.0633583376" lon="11.6468583389">
		<tag k="name" v="Galteryggmyra" />
>>>>>>> e1d4bc35ff8a6074a6f2e91616a996b547c36f15
		<tag k="natural" v="wetland" />
		<tag k="ssr:stedsnr" v="237897" />
	</node>
<<<<<<< HEAD
	<node lat="60.11583333545809" lon="11.575847227951193" id="-16238">
		<tag k="name" v="Kloppmåsan" />
=======
	<node id="-263866" lat="60.0359833332" lon="11.6988111172">
		<tag k="name" v="Hestemyra" />
>>>>>>> e1d4bc35ff8a6074a6f2e91616a996b547c36f15
		<tag k="natural" v="wetland" />
		<tag k="ssr:stedsnr" v="238011" />
	</node>
<<<<<<< HEAD
	<node lat="60.294852778241896" lon="11.439638892624329" id="-16245">
		<tag k="name" v="Hukmyra" />
=======
	<node id="-263859" lat="60.0466166662" lon="11.7344388836">
		<tag k="name" v="Morttjennhøla" />
>>>>>>> e1d4bc35ff8a6074a6f2e91616a996b547c36f15
		<tag k="natural" v="wetland" />
		<tag k="ssr:stedsnr" v="238628" />
	</node>
<<<<<<< HEAD
	<node lat="60.26094722452056" lon="11.436916659050787" id="-16248">
		<tag k="name" v="Høgmyrstrupen" />
=======
	<node id="-263856" lat="60.0277694452" lon="11.3866861167">
		<tag k="name" v="Rustadmåsan" />
>>>>>>> e1d4bc35ff8a6074a6f2e91616a996b547c36f15
		<tag k="natural" v="wetland" />
		<tag k="ssr:stedsnr" v="238839" />
	</node>
<<<<<<< HEAD
	<node lat="60.04404722395217" lon="11.821163892843872" id="-16271">
		<tag k="alt_name" v="Brandsmyrane;Brannsmyrene;Brandmyra" />
		<tag k="name" v="Brandmyrene" />
=======
	<node id="-264136" lat="60.1166138885" lon="11.5883111086">
		<tag k="name" v="Våldalsmyra" />
		<tag k="natural" v="wetland" />
		<tag k="ssr:stedsnr" v="830051" />
	</node>
	<node id="-263853" lat="60.034572223" lon="11.5352194475">
		<tag k="name" v="Åbortjennmåsan" />
>>>>>>> e1d4bc35ff8a6074a6f2e91616a996b547c36f15
		<tag k="natural" v="wetland" />
		<tag k="ssr:stedsnr" v="248568" />
	</node>
<<<<<<< HEAD
	<node lat="60.039744440501146" lon="11.680511104764104" id="-16286">
		<tag k="name" v="Gruemyra" />
=======
	<node id="-263852" lat="60.0303972254" lon="11.5974694516">
		<tag k="name" v="Øvre Vålmyr" />
>>>>>>> e1d4bc35ff8a6074a6f2e91616a996b547c36f15
		<tag k="natural" v="wetland" />
		<tag k="ssr:stedsnr" v="284815" />
	</node>
<<<<<<< HEAD
	<node lat="60.05942499916213" lon="11.766963881935489" id="-16288">
		<tag k="name" v="Storstein" />
		<tag k="natural" v="stone" />
		<tag k="ssr:stedsnr" v="284901" />
	</node>
	<node lat="60.04032222412185" lon="11.818063885041097" id="-16289">
		<tag k="name" v="Fjellbumyra" />
=======
	<node id="-261803" lat="60.025983335" lon="11.8133222293">
		<tag k="name" v="Sørensmyra" />
		<tag k="natural" v="wetland" />
		<tag k="ssr:stedsnr" v="466757" />
	</node>
	<node id="-263850" lat="60.0237944425" lon="11.6101611115">
		<tag k="name" v="Nordfallmyra" />
>>>>>>> e1d4bc35ff8a6074a6f2e91616a996b547c36f15
		<tag k="natural" v="wetland" />
		<tag k="ssr:stedsnr" v="284777" />
	</node>
<<<<<<< HEAD
	<node lat="60.055474998658454" lon="11.73879999597462" id="-16292">
		<tag k="name" v="Måsamyra" />
=======
	<node id="-261799" lat="60.0835611136" lon="11.6927722241">
		<tag k="name" v="Kloppmåsan" />
>>>>>>> e1d4bc35ff8a6074a6f2e91616a996b547c36f15
		<tag k="natural" v="wetland" />
		<tag k="ssr:stedsnr" v="284928" />
	</node>
<<<<<<< HEAD
	<node lat="60.045738889707295" lon="11.751177778725335" id="-16293">
		<tag k="name" v="Kirkestein" />
		<tag k="natural" v="stone" />
		<tag k="ssr:stedsnr" v="284935" />
	</node>
	<node lat="60.04996667088077" lon="11.68058610859107" id="-16294">
		<tag k="name" v="Heimåsan" />
=======
	<node id="-263840" lat="60.1294499968" lon="11.6016388928">
		<tag k="name" v="Flakabrumyra" />
>>>>>>> e1d4bc35ff8a6074a6f2e91616a996b547c36f15
		<tag k="natural" v="wetland" />
		<tag k="ssr:stedsnr" v="292576" />
	</node>
<<<<<<< HEAD
	<node lat="60.122866670193424" lon="11.580502782841986" id="-16298">
		<tag k="name" v="Svalemyra" />
=======
	<node id="-261787" lat="60.0397333365" lon="11.7800444375">
		<tag k="name" v="Orremyra" />
>>>>>>> e1d4bc35ff8a6074a6f2e91616a996b547c36f15
		<tag k="natural" v="wetland" />
		<tag k="ssr:stedsnr" v="298009" />
	</node>
<<<<<<< HEAD
	<node lat="60.30778610687925" lon="11.417138882764318" id="-16307">
		<tag k="name" v="Langsmalemyra" />
=======
	<node id="-261783" lat="60.1321916661" lon="11.5740111034">
		<tag k="name" v="Langholmyra" />
>>>>>>> e1d4bc35ff8a6074a6f2e91616a996b547c36f15
		<tag k="natural" v="wetland" />
		<tag k="ssr:stedsnr" v="298515" />
	</node>
<<<<<<< HEAD
	<node lat="60.322866662574256" lon="11.478663882880927" id="-16310">
		<tag k="name" v="Trondmyra" />
=======
	<node id="-263830" lat="60.1343416684" lon="11.5937027748">
		<tag k="name" v="Kirsebærmyra" />
>>>>>>> e1d4bc35ff8a6074a6f2e91616a996b547c36f15
		<tag k="natural" v="wetland" />
		<tag k="ssr:stedsnr" v="298708" />
	</node>
<<<<<<< HEAD
	<node lat="60.27983333725066" lon="11.428769438614932" id="-16314">
=======
	<node id="-261780" lat="60.2798333373" lon="11.4287694386">
>>>>>>> e1d4bc35ff8a6074a6f2e91616a996b547c36f15
		<tag k="name" v="Hjertemyra" />
		<tag k="natural" v="wetland" />
		<tag k="ssr:stedsnr" v="298890" />
	</node>
<<<<<<< HEAD
	<node lat="60.23414166657183" lon="11.422586112049913" id="-16321">
		<tag k="name" v="Torvmyra" />
=======
	<node id="-261777" lat="60.2685666657" lon="11.5687527756">
		<tag k="historic" v="shieling" />
		<tag k="name" v="Kølabuvangen" />
		<tag k="place" v="locality" />
		<tag k="ssr:stedsnr" v="298856" />
	</node>
	<node id="-261775" lat="60.2611368577" lon="11.5069968378">
		<tag k="name" v="Sjølimyra" />
>>>>>>> e1d4bc35ff8a6074a6f2e91616a996b547c36f15
		<tag k="natural" v="wetland" />
		<tag k="ssr:stedsnr" v="298954" />
	</node>
<<<<<<< HEAD
	<node lat="60.10127500240462" lon="11.34632499395489" id="-16323">
		<tag k="name" v="Grønnmyra" />
=======
	<node id="-263820" lat="60.3177749999" lon="11.3994722183">
		<tag k="name" v="Settungen" />
>>>>>>> e1d4bc35ff8a6074a6f2e91616a996b547c36f15
		<tag k="natural" v="wetland" />
		<tag k="ssr:stedsnr" v="463496" />
	</node>
<<<<<<< HEAD
	<node lat="60.26172221958913" lon="11.372322227728088" id="-16326">
		<tag k="name" v="Tobergsmyra" />
=======
	<node id="-261769" lat="60.0584999984" lon="11.4689361127">
		<tag k="name" v="Blekjemyrene" />
>>>>>>> e1d4bc35ff8a6074a6f2e91616a996b547c36f15
		<tag k="natural" v="wetland" />
		<tag k="ssr:stedsnr" v="299923" />
	</node>
<<<<<<< HEAD
	<node lat="60.046672218766794" lon="11.532358334376827" id="-16332">
=======
	<node id="-261767" lat="60.0466722188" lon="11.5323583344">
>>>>>>> e1d4bc35ff8a6074a6f2e91616a996b547c36f15
		<tag k="name" v="Veltamåsan" />
		<tag k="natural" v="wetland" />
		<tag k="ssr:stedsnr" v="465289" />
	</node>
<<<<<<< HEAD
	<node lat="60.05849999839142" lon="11.468936112729585" id="-16334">
		<tag k="name" v="Blekjemyrene" />
=======
	<node id="-263814" lat="60.2621083289" lon="11.3662194527">
		<tag k="name" v="Hansbråtamyra" />
>>>>>>> e1d4bc35ff8a6074a6f2e91616a996b547c36f15
		<tag k="natural" v="wetland" />
		<tag k="ssr:stedsnr" v="465294" />
	</node>
<<<<<<< HEAD
	<node lat="60.00717500406382" lon="11.780825000162094" id="-16370">
		<tag k="name" v="Ærsjømyra" />
=======
	<node id="-261764" lat="60.0223888889" lon="11.6821388853">
		<tag k="name" v="Storgardsmyr" />
>>>>>>> e1d4bc35ff8a6074a6f2e91616a996b547c36f15
		<tag k="natural" v="wetland" />
		<tag k="ssr:stedsnr" v="466258" />
	</node>
<<<<<<< HEAD
	<node lat="60.083561113554595" lon="11.692772224077117" id="-16373">
		<tag k="name" v="Kloppmåsan" />
=======
	<node id="-261763" lat="60.0122805541" lon="11.7002861095">
		<tag k="name" v="Skillinghaugmyra" />
>>>>>>> e1d4bc35ff8a6074a6f2e91616a996b547c36f15
		<tag k="natural" v="wetland" />
		<tag k="ssr:stedsnr" v="466388" />
	</node>
<<<<<<< HEAD
	<node lat="60.04505000413347" lon="11.8129166743137" id="-16380">
		<tag k="name" v="Søndre småmyrene" />
		<tag k="natural" v="wetland" />
		<tag k="ssr:stedsnr" v="466808" />
	</node>
	<node lat="60.02598333501121" lon="11.813322229292666" id="-16382">
		<tag k="name" v="Sørensmyra" />
=======
	<node id="-261762" lat="60.1012750024" lon="11.346324994">
		<tag k="name" v="Grønnmyra" />
		<tag k="natural" v="wetland" />
		<tag k="ssr:stedsnr" v="463496" />
	</node>
	<node id="-263809" lat="60.2249805531" lon="11.546316675">
		<tag k="name" v="Bårhaugskogen" />
		<tag k="place" v="locality" />
		<tag k="ssr:stedsnr" v="551809" />
	</node>
	<node id="-263805" lat="60.1055166695" lon="11.637105549">
		<tag k="alt_name" v="Langvasslimyra" />
		<tag k="name" v="Langvassmyrane" />
>>>>>>> e1d4bc35ff8a6074a6f2e91616a996b547c36f15
		<tag k="natural" v="wetland" />
		<tag k="ssr:stedsnr" v="466757" />
	</node>
<<<<<<< HEAD
	<node lat="60.123641670984185" lon="11.60200833205855" id="-16392">
		<tag k="name" v="Ruskemyra" />
=======
	<node id="-261752" lat="60.044047224" lon="11.8211638928">
		<tag k="alt_name" v="Brandsmyrane;Brannsmyrene;Brandmyra" />
		<tag k="name" v="Brandmyrene" />
>>>>>>> e1d4bc35ff8a6074a6f2e91616a996b547c36f15
		<tag k="natural" v="wetland" />
		<tag k="ssr:stedsnr" v="344096" />
	</node>
<<<<<<< HEAD
	<node lat="60.12703611168818" lon="11.6266027708221" id="-16393">
		<tag k="name" v="Trangsrudtjennmyr" />
=======
	<node id="-261742" lat="60.1158333355" lon="11.575847228">
		<tag k="name" v="Kloppmåsan" />
>>>>>>> e1d4bc35ff8a6074a6f2e91616a996b547c36f15
		<tag k="natural" v="wetland" />
		<tag k="ssr:stedsnr" v="344099" />
	</node>
<<<<<<< HEAD
	<node lat="60.15183055667801" lon="11.329458325663742" id="-16395">
		<tag k="name" v="Grenimåsan" />
=======
	<node id="-261741" lat="60.2758750003" lon="11.4603638815">
		<tag k="name" v="Nevertjennsmyra" />
>>>>>>> e1d4bc35ff8a6074a6f2e91616a996b547c36f15
		<tag k="natural" v="wetland" />
		<tag k="ssr:stedsnr" v="344216" />
	</node>
<<<<<<< HEAD
	<node lat="60.07414999645507" lon="11.68592777838028" id="-16402">
		<tag k="name" v="Hukholtet" />
		<tag k="place" v="locality" />
		<tag k="ssr:stedsnr" v="344400" />
	</node>
	<node lat="60.107047223190925" lon="11.693180563162931" id="-16403">
		<tag k="name" v="Funnimyra" />
=======
	<node id="-261739" lat="60.0602416641" lon="11.6351444504">
		<tag k="name" v="Smallangmyra" />
		<tag k="natural" v="wetland" />
		<tag k="ssr:stedsnr" v="231655" />
	</node>
	<node id="-261733" lat="60.2510277772" lon="11.4379500061">
		<tag k="name" v="Svartbekkmyra" />
>>>>>>> e1d4bc35ff8a6074a6f2e91616a996b547c36f15
		<tag k="natural" v="wetland" />
		<tag k="ssr:stedsnr" v="344521" />
	</node>
<<<<<<< HEAD
	<node lat="60.039316667989546" lon="11.59974999125369" id="-16408">
		<tag k="name" v="Fleskemyra" />
=======
	<node id="-261727" lat="60.3228666626" lon="11.4786638829">
		<tag k="name" v="Trondmyra" />
>>>>>>> e1d4bc35ff8a6074a6f2e91616a996b547c36f15
		<tag k="natural" v="wetland" />
		<tag k="ssr:stedsnr" v="344813" />
	</node>
<<<<<<< HEAD
	<node lat="60.03114166983234" lon="11.612572215847164" id="-16410">
		<tag k="name" v="Skvalermyr" />
=======
	<node id="-263772" lat="60.0953083339" lon="11.3417444444">
		<tag k="alt_name" v="Valermåsan" />
		<tag k="name" v="Vålermåsan" />
>>>>>>> e1d4bc35ff8a6074a6f2e91616a996b547c36f15
		<tag k="natural" v="wetland" />
		<tag k="ssr:stedsnr" v="344820" />
	</node>
<<<<<<< HEAD
	<node lat="60.02820000246837" lon="11.778266669166491" id="-16413">
		<tag k="name" v="Sandvangmyra" />
		<tag k="natural" v="wetland" />
		<tag k="ssr:stedsnr" v="344772" />
	</node>
	<node lat="60.04917222272996" lon="11.73987777471615" id="-16415">
		<tag k="name" v="Moltemyra" />
=======
	<node id="-261719" lat="60.3077861069" lon="11.4171388828">
		<tag k="name" v="Langsmalemyra" />
>>>>>>> e1d4bc35ff8a6074a6f2e91616a996b547c36f15
		<tag k="natural" v="wetland" />
		<tag k="ssr:stedsnr" v="344914" />
	</node>
<<<<<<< HEAD
	<node lat="60.051836115335995" lon="11.718305550850292" id="-16418">
		<tag k="name" v="Vangsmyra" />
		<tag k="natural" v="wetland" />
		<tag k="ssr:stedsnr" v="351923" />
	</node>
	<node lat="60.061863893432864" lon="11.669797217699438" id="-16421">
		<tag k="name" v="Askvaldstein" />
		<tag k="natural" v="stone" />
		<tag k="ssr:stedsnr" v="474928" />
	</node>
	<node lat="60.27280555154382" lon="11.36420832819077" id="-16423">
		<tag k="name" v="Lågsjømyra" />
		<tag k="natural" v="wetland" />
		<tag k="ssr:stedsnr" v="358920" />
	</node>
	<node lat="60.23913611538178" lon="11.278116671386375" id="-16426">
		<tag k="name" v="Bergbråtemyra" />
=======
	<node id="-263438" lat="60.0599083325" lon="11.5373972236">
		<tag k="name" v="Sukkermyra" />
		<tag k="natural" v="wetland" />
		<tag k="ssr:stedsnr" v="344692" />
	</node>
	<node id="-263755" lat="60.255349998" lon="11.5404027861">
		<tag k="name" v="Kudalsmyra" />
		<tag k="natural" v="wetland" />
		<tag k="ssr:stedsnr" v="541951" />
	</node>
	<node id="-261705" lat="60.2486027779" lon="11.4098472167">
		<tag k="name" v="Spyttmyra" />
		<tag k="natural" v="wetland" />
		<tag k="ssr:stedsnr" v="298153" />
	</node>
	<node id="-263752" lat="60.2490777797" lon="11.5544833284">
		<tag k="name" v="Hagamyra" />
>>>>>>> e1d4bc35ff8a6074a6f2e91616a996b547c36f15
		<tag k="natural" v="wetland" />
		<tag k="ssr:stedsnr" v="359053" />
	</node>
<<<<<<< HEAD
	<node lat="60.071744442690395" lon="11.631316663557445" id="-16428">
		<tag k="name" v="Sagbakkmyra" />
=======
	<node id="-261703" lat="60.2435305571" lon="11.2654111043">
		<tag k="name" v="Portmyra" />
>>>>>>> e1d4bc35ff8a6074a6f2e91616a996b547c36f15
		<tag k="natural" v="wetland" />
		<tag k="ssr:stedsnr" v="359302" />
	</node>
<<<<<<< HEAD
	<node lat="60.06933888984099" lon="11.561308326188438" id="-16429">
		<tag k="name" v="Kjusmyra" />
		<tag k="natural" v="wetland" />
		<tag k="ssr:stedsnr" v="359313" />
	</node>
	<node lat="60.22102221897394" lon="11.525916666204484" id="-16432">
		<tag k="name" v="Rundmyra" />
=======
	<node id="-263745" lat="60.2673166654" lon="11.5558138808">
		<tag k="name" v="Brusmyra" />
		<tag k="natural" v="wetland" />
		<tag k="ssr:stedsnr" v="541899" />
	</node>
	<node id="-263744" lat="60.2536361082" lon="11.4928388826">
		<tag k="name" v="Moholtet" />
		<tag k="place" v="locality" />
		<tag k="ssr:stedsnr" v="541845" />
	</node>
	<node id="-261695" lat="60.1228666702" lon="11.5805027828">
		<tag k="name" v="Svalemyra" />
>>>>>>> e1d4bc35ff8a6074a6f2e91616a996b547c36f15
		<tag k="natural" v="wetland" />
		<tag k="ssr:stedsnr" v="359450" />
	</node>
<<<<<<< HEAD
	<node lat="60.06533333133148" lon="11.785094438678188" id="-16433">
		<tag k="name" v="Gørrvika" />
=======
	<node id="-261690" lat="60.0389500031" lon="11.4694888872">
		<tag k="name" v="Kurvmyra" />
>>>>>>> e1d4bc35ff8a6074a6f2e91616a996b547c36f15
		<tag k="natural" v="wetland" />
		<tag k="ssr:stedsnr" v="359607" />
	</node>
<<<<<<< HEAD
	<node lat="60.31889721909746" lon="11.421547217240281" id="-16435">
		<tag k="name" v="Nedre Mårramyra" />
=======
	<node id="-261689" lat="60.0403638924" lon="11.4894722253">
		<tag k="name" v="Klingemyra" />
>>>>>>> e1d4bc35ff8a6074a6f2e91616a996b547c36f15
		<tag k="natural" v="wetland" />
		<tag k="ssr:stedsnr" v="359553" />
	</node>
<<<<<<< HEAD
	<node lat="60.21914444479385" lon="11.481697224916505" id="-16441">
		<tag k="name" v="Søndagsmyra" />
=======
	<node id="-261687" lat="60.0499666709" lon="11.6805861086">
		<tag k="name" v="Heimåsan" />
>>>>>>> e1d4bc35ff8a6074a6f2e91616a996b547c36f15
		<tag k="natural" v="wetland" />
		<tag k="ssr:stedsnr" v="359962" />
	</node>
<<<<<<< HEAD
	<node lat="60.2335055576103" lon="11.435219440868787" id="-16442">
		<tag k="name" v="Steinlidalsmyra" />
=======
	<node id="-263734" lat="60.0904222222" lon="11.7445249974">
		<tag k="name" v="Eiesetermyra" />
>>>>>>> e1d4bc35ff8a6074a6f2e91616a996b547c36f15
		<tag k="natural" v="wetland" />
		<tag k="ssr:stedsnr" v="359965" />
	</node>
<<<<<<< HEAD
	<node lat="60.24890277685569" lon="11.396511111537967" id="-16446">
		<tag k="name" v="Langmyra" />
		<tag k="natural" v="wetland" />
		<tag k="ssr:stedsnr" v="369317" />
	</node>
	<node lat="60.02502500334879" lon="11.642119439612161" id="-16452">
		<tag k="name" v="Stormyra" />
=======
	<node id="-263733" lat="60.2988777783" lon="11.38571112">
		<tag k="name" v="Rundmyra" />
		<tag k="natural" v="wetland" />
		<tag k="ssr:stedsnr" v="541652" />
	</node>
	<node id="-263731" lat="60.1209027776" lon="11.3548138833">
		<tag k="name" v="Tomtertanga" />
		<tag k="place" v="locality" />
		<tag k="ssr:stedsnr" v="541595" />
	</node>
	<node id="-263432" lat="60.0741499965" lon="11.6859277784">
		<tag k="name" v="Hukholtet" />
		<tag k="place" v="locality" />
		<tag k="ssr:stedsnr" v="344400" />
	</node>
	<node id="-263725" lat="60.247938893" lon="11.3820222263">
		<tag k="name" v="Kvernbergmyra" />
>>>>>>> e1d4bc35ff8a6074a6f2e91616a996b547c36f15
		<tag k="natural" v="wetland" />
		<tag k="ssr:stedsnr" v="369513" />
	</node>
<<<<<<< HEAD
	<node lat="60.065572218821465" lon="11.759986116088905" id="-16470">
		<tag k="name" v="Ulvemyra" />
		<tag k="natural" v="wetland" />
		<tag k="ssr:stedsnr" v="480132" />
	</node>
	<node lat="60.08508333260524" lon="11.625061114432533" id="-16479">
		<tag k="name" v="Bikkjesøla" />
=======
	<node id="-261675" lat="60.0457388897" lon="11.7511777787">
		<tag k="name" v="Kirkestein" />
		<tag k="natural" v="stone" />
		<tag k="ssr:stedsnr" v="284935" />
	</node>
	<node id="-261674" lat="60.0554749987" lon="11.738799996">
		<tag k="name" v="Måsamyra" />
>>>>>>> e1d4bc35ff8a6074a6f2e91616a996b547c36f15
		<tag k="natural" v="wetland" />
		<tag k="ssr:stedsnr" v="480284" />
	</node>
<<<<<<< HEAD
	<node lat="60.214702780289194" lon="11.492933324705486" id="-16483">
		<tag k="name" v="Homlemyra" />
=======
	<node id="-263721" lat="60.1240444406" lon="11.5983833296">
		<tag k="name" v="Sagmyra" />
>>>>>>> e1d4bc35ff8a6074a6f2e91616a996b547c36f15
		<tag k="natural" v="wetland" />
		<tag k="ssr:stedsnr" v="480340" />
	</node>
<<<<<<< HEAD
	<node lat="60.290308330890724" lon="11.493172216118639" id="-16486">
		<tag k="name" v="Vangmyra" />
=======
	<node id="-263716" lat="60.2341222185" lon="11.2859861128">
		<tag k="name" v="Gråmyra" />
>>>>>>> e1d4bc35ff8a6074a6f2e91616a996b547c36f15
		<tag k="natural" v="wetland" />
		<tag k="ssr:stedsnr" v="480531" />
	</node>
<<<<<<< HEAD
	<node lat="60.285277776196104" lon="11.430783340034917" id="-16491">
		<tag k="name" v="Huldertjennsmyra" />
=======
	<node id="-261665" lat="60.2301055559" lon="11.4178444462">
		<tag k="name" v="Blekkjemyra" />
>>>>>>> e1d4bc35ff8a6074a6f2e91616a996b547c36f15
		<tag k="natural" v="wetland" />
		<tag k="ssr:stedsnr" v="480643" />
	</node>
<<<<<<< HEAD
	<node lat="60.32198889058457" lon="11.466008330450947" id="-16492">
		<tag k="name" v="Floghavremyra" />
=======
	<node id="-263712" lat="60.0640444403" lon="11.6819249936">
		<tag k="name" v="Bjørnemyra" />
>>>>>>> e1d4bc35ff8a6074a6f2e91616a996b547c36f15
		<tag k="natural" v="wetland" />
		<tag k="ssr:stedsnr" v="480742" />
	</node>
<<<<<<< HEAD
	<node lat="60.27005833689573" lon="11.5806972158534" id="-16498">
		<tag k="name" v="Kølabudalsmyra" />
=======
	<node id="-263711" lat="60.0602499964" lon="11.6651388931">
		<tag k="name" v="Askvaldmyra" />
>>>>>>> e1d4bc35ff8a6074a6f2e91616a996b547c36f15
		<tag k="natural" v="wetland" />
		<tag k="ssr:stedsnr" v="480884" />
	</node>
<<<<<<< HEAD
	<node lat="60.09019443991149" lon="11.34201111625317" id="-16509">
		<tag k="name" v="Langmyra" />
=======
	<node id="-261662" lat="60.2395388914" lon="11.4246111075">
		<tag k="name" v="Setermyra" />
>>>>>>> e1d4bc35ff8a6074a6f2e91616a996b547c36f15
		<tag k="natural" v="wetland" />
		<tag k="ssr:stedsnr" v="402580" />
	</node>
<<<<<<< HEAD
	<node lat="60.04849167065488" lon="11.601100007394301" id="-16512">
		<tag k="name" v="Kjøltjennmyra" />
=======
	<node id="-261658" lat="60.0791111072" lon="11.7335861167">
		<tag k="name" v="Saltblekkmyra" />
>>>>>>> e1d4bc35ff8a6074a6f2e91616a996b547c36f15
		<tag k="natural" v="wetland" />
		<tag k="ssr:stedsnr" v="404679" />
	</node>
<<<<<<< HEAD
	<node lat="60.138658332061" lon="11.600294450734182" id="-16519">
		<tag k="name" v="Bjørnmyra" />
=======
	<node id="-261657" lat="60.0802250037" lon="11.7197444424">
		<tag k="name" v="Høgemyra" />
>>>>>>> e1d4bc35ff8a6074a6f2e91616a996b547c36f15
		<tag k="natural" v="wetland" />
		<tag k="ssr:stedsnr" v="405387" />
	</node>
<<<<<<< HEAD
	<node lat="60.11563611428931" lon="11.636061106179378" id="-16534">
		<tag k="name" v="Tømmerstumyra" />
=======
	<node id="-261653" lat="60.0397444405" lon="11.6805111048">
		<tag k="name" v="Gruemyra" />
>>>>>>> e1d4bc35ff8a6074a6f2e91616a996b547c36f15
		<tag k="natural" v="wetland" />
		<tag k="ssr:stedsnr" v="420100" />
	</node>
<<<<<<< HEAD
	<node lat="60.083074997688094" lon="11.583469449653508" id="-16539">
		<tag k="name" v="Gråbeinmyra" />
=======
	<node id="-263700" lat="60.0348055594" lon="11.6838805515">
		<tag k="name" v="Bikkjetua" />
>>>>>>> e1d4bc35ff8a6074a6f2e91616a996b547c36f15
		<tag k="natural" v="wetland" />
		<tag k="ssr:stedsnr" v="420324" />
	</node>
<<<<<<< HEAD
	<node lat="60.06714444643939" lon="11.683597227735605" id="-16541">
		<tag k="name" v="Bjørndalstjennmyra" />
=======
	<node id="-261650" lat="60.2132805528" lon="11.5538999932">
		<tag k="name" v="Rudsmyra" />
>>>>>>> e1d4bc35ff8a6074a6f2e91616a996b547c36f15
		<tag k="natural" v="wetland" />
		<tag k="ssr:stedsnr" v="420340" />
	</node>
<<<<<<< HEAD
	<node lat="60.21861666858197" lon="11.436011115354768" id="-16550">
		<tag k="name" v="Hunsemyra" />
		<tag k="natural" v="wetland" />
		<tag k="ssr:stedsnr" v="420987" />
	</node>
	<node lat="60.14124444768298" lon="11.547461115201274" id="-16563">
		<tag k="name" v="Skøyimyra" />
=======
	<node id="-261649" lat="60.0692083326" lon="11.5887111071">
		<tag k="name" v="Hunndalsbrenna" />
		<tag k="place" v="locality" />
		<tag k="ssr:stedsnr" v="177270" />
	</node>
	<node id="-261648" lat="60.0265888927" lon="11.7728527839">
		<tag k="name" v="Lorthølet" />
>>>>>>> e1d4bc35ff8a6074a6f2e91616a996b547c36f15
		<tag k="natural" v="wetland" />
		<tag k="ssr:stedsnr" v="490646" />
	</node>
<<<<<<< HEAD
	<node lat="60.25762499989582" lon="11.44150277837442" id="-16598">
		<tag k="name" v="Høgmyra" />
=======
	<node id="-261647" lat="60.0403222241" lon="11.818063885">
		<tag k="name" v="Fjellbumyra" />
>>>>>>> e1d4bc35ff8a6074a6f2e91616a996b547c36f15
		<tag k="natural" v="wetland" />
		<tag k="ssr:stedsnr" v="431247" />
	</node>
<<<<<<< HEAD
	<node lat="60.13776111061523" lon="11.338747217784462" id="-16622">
		<tag k="name" v="Røa" />
		<tag k="place" v="locality" />
		<tag k="ssr:stedsnr" v="673193" />
	</node>
	<node lat="60.13463333689173" lon="11.5431277737447" id="-16636">
		<tag k="name" v="Vennevålsmyra" />
=======
	<node id="-263693" lat="60.0624777805" lon="11.5242249948">
		<tag k="name" v="Merramyra" />
>>>>>>> e1d4bc35ff8a6074a6f2e91616a996b547c36f15
		<tag k="natural" v="wetland" />
		<tag k="ssr:stedsnr" v="673672" />
	</node>
<<<<<<< HEAD
	<node lat="60.0122805541149" lon="11.700286109513879" id="-16648">
		<tag k="name" v="Skillinghaugmyra" />
=======
	<node id="-261644" lat="60.075683337" lon="11.587833327">
		<tag k="name" v="Sautjennmyra" />
>>>>>>> e1d4bc35ff8a6074a6f2e91616a996b547c36f15
		<tag k="natural" v="wetland" />
		<tag k="ssr:stedsnr" v="465012" />
	</node>
<<<<<<< HEAD
	<node lat="60.02238888887626" lon="11.682138885309124" id="-16649">
		<tag k="name" v="Storgardsmyr" />
=======
	<node id="-261643" lat="60.0807166697" lon="11.6410055527">
		<tag k="name" v="Vaktmyra" />
>>>>>>> e1d4bc35ff8a6074a6f2e91616a996b547c36f15
		<tag k="natural" v="wetland" />
		<tag k="ssr:stedsnr" v="465015" />
	</node>
<<<<<<< HEAD
	<node lat="60.08737777597571" lon="11.506850002454213" id="-16651">
		<tag k="name" v="Merramyra" />
=======
	<node id="-261639" lat="60.05822222" lon="11.5600166722">
		<tag k="name" v="Rogndalsmåsan" />
>>>>>>> e1d4bc35ff8a6074a6f2e91616a996b547c36f15
		<tag k="natural" v="wetland" />
		<tag k="ssr:stedsnr" v="465069" />
	</node>
<<<<<<< HEAD
	<node lat="60.084113886550426" lon="11.511780564161867" id="-16652">
		<tag k="name" v="Stolpemyra" />
=======
	<node id="-263686" lat="60.0633500035" lon="11.5029777746">
		<tag k="name" v="Drognesmåsan" />
>>>>>>> e1d4bc35ff8a6074a6f2e91616a996b547c36f15
		<tag k="natural" v="wetland" />
		<tag k="ssr:stedsnr" v="465071" />
	</node>
<<<<<<< HEAD
	<node lat="60.13219166612625" lon="11.57401110341408" id="-16655">
		<tag k="name" v="Langholmyra" />
=======
	<node id="-263684" lat="60.0519500029" lon="11.5297972236">
		<tag k="name" v="Grønnmyrene" />
>>>>>>> e1d4bc35ff8a6074a6f2e91616a996b547c36f15
		<tag k="natural" v="wetland" />
		<tag k="ssr:stedsnr" v="465327" />
	</node>
<<<<<<< HEAD
	<node lat="60.10921111469445" lon="11.658999995019162" id="-16659">
		<tag k="name" v="Slottmyra" />
=======
	<node id="-261635" lat="60.0818111147" lon="11.6741083389">
		<tag k="name" v="Himmeltjennmyra" />
>>>>>>> e1d4bc35ff8a6074a6f2e91616a996b547c36f15
		<tag k="natural" v="wetland" />
		<tag k="ssr:stedsnr" v="465481" />
	</node>
<<<<<<< HEAD
	<node lat="60.03973333651674" lon="11.780044437489476" id="-16662">
		<tag k="name" v="Orremyra" />
=======
	<node id="-261634" lat="60.0717500041" lon="11.6864694463">
		<tag k="name" v="Otermyra" />
>>>>>>> e1d4bc35ff8a6074a6f2e91616a996b547c36f15
		<tag k="natural" v="wetland" />
		<tag k="ssr:stedsnr" v="465712" />
	</node>
<<<<<<< HEAD
	<node lat="60.064116669916295" lon="11.73008055081374" id="-16667">
		<tag k="name" v="Tallhaugmyra" />
=======
	<node id="-261632" lat="60.1439055545" lon="11.6125444477">
		<tag k="name" v="Setermyra" />
>>>>>>> e1d4bc35ff8a6074a6f2e91616a996b547c36f15
		<tag k="natural" v="wetland" />
		<tag k="ssr:stedsnr" v="465902" />
	</node>
<<<<<<< HEAD
	<node lat="60.124894442562045" lon="11.580572227531452" id="-16679">
		<tag k="name" v="Saumyra" />
		<tag k="natural" v="wetland" />
		<tag k="ssr:stedsnr" v="480003" />
	</node>
	<node lat="60.11961111462424" lon="11.579761108496688" id="-16681">
		<tag k="name" v="Postmyra" />
=======
	<node id="-261630" lat="60.0864444478" lon="11.6527750012">
		<tag k="name" v="Lindalsmyra" />
		<tag k="natural" v="wetland" />
		<tag k="ssr:stedsnr" v="284366" />
	</node>
	<node id="-261624" lat="60.0764972259" lon="11.5116694422">
		<tag k="name" v="Sjokkonhullet" />
>>>>>>> e1d4bc35ff8a6074a6f2e91616a996b547c36f15
		<tag k="natural" v="wetland" />
		<tag k="ssr:stedsnr" v="480009" />
	</node>
<<<<<<< HEAD
	<node lat="60.073577776479745" lon="11.640774992187843" id="-16687">
		<tag k="name" v="Svellemyra" />
=======
	<node id="-263666" lat="60.2576249999" lon="11.4415027784">
		<tag k="name" v="Høgmyra" />
>>>>>>> e1d4bc35ff8a6074a6f2e91616a996b547c36f15
		<tag k="natural" v="wetland" />
		<tag k="ssr:stedsnr" v="480267" />
	</node>
<<<<<<< HEAD
	<node lat="60.117141666565196" lon="11.374327769297903" id="-16710">
		<tag k="name" v="Herremyra" />
=======
	<node id="-261616" lat="60.049272222" lon="11.5467111175">
		<tag k="name" v="Fikksetmyrene" />
>>>>>>> e1d4bc35ff8a6074a6f2e91616a996b547c36f15
		<tag k="natural" v="wetland" />
		<tag k="ssr:stedsnr" v="283244" />
	</node>
<<<<<<< HEAD
	<node lat="60.125644446688334" lon="11.572758327667863" id="-16736">
		<tag k="name" v="Vindmyra" />
=======
	<node id="-261605" lat="60.0500194483" lon="11.7758444407">
		<tag k="name" v="Moltemyra" />
		<tag k="natural" v="wetland" />
		<tag k="ssr:stedsnr" v="162907" />
	</node>
	<node id="-263651" lat="60.0401083373" lon="11.5910111203">
		<tag k="name" v="Paradismyra" />
>>>>>>> e1d4bc35ff8a6074a6f2e91616a996b547c36f15
		<tag k="natural" v="wetland" />
		<tag k="ssr:stedsnr" v="491686" />
	</node>
<<<<<<< HEAD
	<node lat="60.0205499993256" lon="11.665530556841961" id="-16740">
		<tag k="name" v="Elgmyra" />
=======
	<node id="-261595" lat="60.0237638915" lon="11.8183944451">
		<tag k="name" v="Raumyra" />
>>>>>>> e1d4bc35ff8a6074a6f2e91616a996b547c36f15
		<tag k="natural" v="wetland" />
		<tag k="ssr:stedsnr" v="526022" />
	</node>
<<<<<<< HEAD
	<node lat="60.051950002937005" lon="11.529797223601209" id="-16746">
		<tag k="name" v="Grønnmyrene" />
=======
	<node id="-261593" lat="60.0653805592" lon="11.4891833309">
		<tag k="name" v="Karstakmyra" />
>>>>>>> e1d4bc35ff8a6074a6f2e91616a996b547c36f15
		<tag k="natural" v="wetland" />
		<tag k="ssr:stedsnr" v="526275" />
	</node>
<<<<<<< HEAD
	<node lat="60.06335000346275" lon="11.502977774622245" id="-16748">
		<tag k="name" v="Drognesmåsan" />
=======
	<node id="-261592" lat="60.0580444432" lon="11.5027722266">
		<tag k="name" v="Bjønnemåsan" />
>>>>>>> e1d4bc35ff8a6074a6f2e91616a996b547c36f15
		<tag k="natural" v="wetland" />
		<tag k="ssr:stedsnr" v="526307" />
	</node>
<<<<<<< HEAD
	<node lat="60.143827779662885" lon="11.601963890367578" id="-16752">
		<tag k="name" v="Kistestein" />
		<tag k="natural" v="stone" />
		<tag k="ssr:stedsnr" v="526383" />
	</node>
	<node lat="60.00571666376483" lon="11.480283340166235" id="-16754">
		<tag k="name" v="Spyttmyra" />
=======
	<node id="-261582" lat="60.0103194479" lon="11.639924993">
		<tag k="name" v="Myrsætermyrene" />
		<tag k="natural" v="wetland" />
		<tag k="ssr:stedsnr" v="162025" />
	</node>
	<node id="-263625" lat="60.2186166686" lon="11.4360111154">
		<tag k="name" v="Hunsemyra" />
>>>>>>> e1d4bc35ff8a6074a6f2e91616a996b547c36f15
		<tag k="natural" v="wetland" />
		<tag k="ssr:stedsnr" v="526472" />
	</node>
<<<<<<< HEAD
	<node lat="60.062477780545294" lon="11.524224994775368" id="-16755">
		<tag k="name" v="Merramyra" />
=======
	<node id="-263615" lat="60.3234999993" lon="11.4644555561">
		<tag k="name" v="Elgmyra" />
>>>>>>> e1d4bc35ff8a6074a6f2e91616a996b547c36f15
		<tag k="natural" v="wetland" />
		<tag k="ssr:stedsnr" v="526680" />
	</node>
<<<<<<< HEAD
	<node lat="60.05008055278108" lon="11.814205546969964" id="-16757">
		<tag k="name" v="Nordre småmyrene" />
=======
	<node id="-261566" lat="60.0880916694" lon="11.6864888886">
		<tag k="name" v="Nilsmyra" />
>>>>>>> e1d4bc35ff8a6074a6f2e91616a996b547c36f15
		<tag k="natural" v="wetland" />
		<tag k="ssr:stedsnr" v="526804" />
	</node>
<<<<<<< HEAD
	<node lat="60.034805559402905" lon="11.683880551532482" id="-16764">
		<tag k="name" v="Bikkjetua" />
=======
	<node id="-263612" lat="60.3184555552" lon="11.4147944354">
		<tag k="name" v="Mårramyra" />
>>>>>>> e1d4bc35ff8a6074a6f2e91616a996b547c36f15
		<tag k="natural" v="wetland" />
		<tag k="ssr:stedsnr" v="526790" />
	</node>
<<<<<<< HEAD
	<node lat="60.06791111474179" lon="11.738233338308165" id="-16769">
		<tag k="name" v="Villpostmyra" />
=======
	<node id="-261559" lat="60.2535722224" lon="11.5158083338">
		<tag k="name" v="Torvmyra" />
>>>>>>> e1d4bc35ff8a6074a6f2e91616a996b547c36f15
		<tag k="natural" v="wetland" />
		<tag k="ssr:stedsnr" v="529611" />
	</node>
<<<<<<< HEAD
	<node lat="60.030313886920275" lon="11.515019444146256" id="-16773">
		<tag k="name" v="Høgmåsan" />
		<tag k="natural" v="wetland" />
		<tag k="ssr:stedsnr" v="534812" />
	</node>
	<node lat="60.124044440556105" lon="11.59838332959998" id="-16777">
		<tag k="name" v="Sagmyra" />
		<tag k="natural" v="wetland" />
		<tag k="ssr:stedsnr" v="541104" />
	</node>
	<node lat="60.08183889004507" lon="11.617916660949692" id="-16780">
		<tag k="name" v="Akermyra" />
=======
	<node id="-263753" lat="60.1011972216" lon="11.6914055466">
		<tag k="name" v="Nedre Stallmyr" />
		<tag k="natural" v="wetland" />
		<tag k="ssr:stedsnr" v="541947" />
	</node>
	<node id="-261555" lat="60.3280000009" lon="11.4434555497">
		<tag k="name" v="Lauvbergmyra" />
		<tag k="natural" v="wetland" />
		<tag k="ssr:stedsnr" v="116738" />
	</node>
	<node id="-263601" lat="60.1529083347" lon="11.5901388941">
		<tag k="name" v="Haramyra" />
>>>>>>> e1d4bc35ff8a6074a6f2e91616a996b547c36f15
		<tag k="natural" v="wetland" />
		<tag k="ssr:stedsnr" v="541306" />
	</node>
<<<<<<< HEAD
	<node lat="60.0842333358442" lon="11.711747214731728" id="-16782">
		<tag k="name" v="Israelmåsan" />
=======
	<node id="-261552" lat="60.3194861121" lon="11.4409527869">
		<tag k="name" v="Vangmyra" />
>>>>>>> e1d4bc35ff8a6074a6f2e91616a996b547c36f15
		<tag k="natural" v="wetland" />
		<tag k="ssr:stedsnr" v="541624" />
	</node>
<<<<<<< HEAD
	<node lat="60.262108328884885" lon="11.36621945266919" id="-16813">
		<tag k="name" v="Hansbråtamyra" />
=======
	<node id="-263594" lat="60.0671444464" lon="11.6835972277">
		<tag k="name" v="Bjørndalstjennmyra" />
>>>>>>> e1d4bc35ff8a6074a6f2e91616a996b547c36f15
		<tag k="natural" v="wetland" />
		<tag k="ssr:stedsnr" v="551936" />
	</node>
<<<<<<< HEAD
	<node lat="60.22498055311845" lon="11.546316675043144" id="-16816">
		<tag k="name" v="Bårhaugskogen" />
=======
	<node id="-263592" lat="60.0830749977" lon="11.5834694497">
		<tag k="name" v="Gråbeinmyra" />
		<tag k="natural" v="wetland" />
		<tag k="ssr:stedsnr" v="420324" />
	</node>
	<node id="-263591" lat="60.0836055576" lon="11.5378694385">
		<tag k="name" v="Skulaumyra" />
		<tag k="natural" v="wetland" />
		<tag k="ssr:stedsnr" v="420300" />
	</node>
	<node id="-263590" lat="60.0798888864" lon="11.6197555549">
		<tag k="name" v="Sovesteinmyra" />
		<tag k="natural" v="wetland" />
		<tag k="ssr:stedsnr" v="420290" />
	</node>
	<node id="-263589" lat="60.071655554" lon="11.5830055584">
		<tag k="name" v="Slettholen" />
>>>>>>> e1d4bc35ff8a6074a6f2e91616a996b547c36f15
		<tag k="place" v="locality" />
		<tag k="ssr:stedsnr" v="551809" />
	</node>
<<<<<<< HEAD
	<node lat="60.31777499989581" lon="11.399472218286574" id="-16822">
		<tag k="name" v="Settungen" />
		<tag k="natural" v="wetland" />
		<tag k="ssr:stedsnr" v="565996" />
	</node>
	<node lat="60.12944999677369" lon="11.60163889275455" id="-16830">
		<tag k="name" v="Flakabrumyra" />
=======
	<node id="-263585" lat="60.1156361143" lon="11.6360611062">
		<tag k="name" v="Tømmerstumyra" />
>>>>>>> e1d4bc35ff8a6074a6f2e91616a996b547c36f15
		<tag k="natural" v="wetland" />
		<tag k="ssr:stedsnr" v="587114" />
	</node>
<<<<<<< HEAD
	<node lat="60.046616666241" lon="11.734438883615484" id="-16835">
		<tag k="name" v="Morttjennhøla" />
=======
	<node id="-263583" lat="60.225177779" lon="11.5387888915">
		<tag k="name" v="Høgmyra" />
>>>>>>> e1d4bc35ff8a6074a6f2e91616a996b547c36f15
		<tag k="natural" v="wetland" />
		<tag k="ssr:stedsnr" v="587920" />
	</node>
<<<<<<< HEAD
	<node lat="60.02776944516453" lon="11.386686116674499" id="-16837">
		<tag k="name" v="Rustadmåsan" />
=======
	<node id="-261534" lat="60.042169447" lon="11.7275138947">
		<tag k="name" v="Bessmorhullet" />
>>>>>>> e1d4bc35ff8a6074a6f2e91616a996b547c36f15
		<tag k="natural" v="wetland" />
		<tag k="ssr:stedsnr" v="587871" />
	</node>
<<<<<<< HEAD
	<node lat="60.016494245155485" lon="11.72249206956751" id="-16838">
		<tag k="loc_name" v="Lamsomyra" />
		<tag k="name" v="Lamsåmyra" />
=======
	<node id="-261532" lat="60.3065250027" lon="11.5071583293">
		<tag k="alt_name" v="Vollmyra" />
		<tag k="name" v="Vollmyrane" />
>>>>>>> e1d4bc35ff8a6074a6f2e91616a996b547c36f15
		<tag k="natural" v="wetland" />
		<tag k="ssr:stedsnr" v="589708" />
	</node>
<<<<<<< HEAD
	<node lat="60.06335833761117" lon="11.646858338947188" id="-16842">
		<tag k="name" v="Galteryggmyra" />
=======
	<node id="-263578" lat="60.0306388874" lon="11.6996305532">
		<tag k="name" v="Tiurmyra" />
>>>>>>> e1d4bc35ff8a6074a6f2e91616a996b547c36f15
		<tag k="natural" v="wetland" />
		<tag k="ssr:stedsnr" v="594554" />
	</node>
<<<<<<< HEAD
	<node lat="60.04833333251241" lon="11.704291667588363" id="-16844">
		<tag k="name" v="Romsjømyra" />
=======
	<node id="-263574" lat="60.0353611131" lon="11.7286416673">
		<tag k="name" v="Kroktjernmyra" />
>>>>>>> e1d4bc35ff8a6074a6f2e91616a996b547c36f15
		<tag k="natural" v="wetland" />
		<tag k="ssr:stedsnr" v="595914" />
	</node>
<<<<<<< HEAD
	<node lat="60.07531111535176" lon="11.709144437040178" id="-16851">
		<tag k="name" v="Blekktjennsmyra" />
		<tag k="natural" v="wetland" />
		<tag k="ssr:stedsnr" v="601118" />
	</node>
	<node lat="60.059972224562856" lon="11.747674999546511" id="-16852">
		<tag k="name" v="Stakamyra" />
		<tag k="natural" v="wetland" />
		<tag k="ssr:stedsnr" v="601147" />
	</node>
	<node lat="60.31585833432856" lon="11.452055562415259" id="-16856">
		<tag k="name" v="Lemmyra" />
=======
	<node id="-263568" lat="60.0242555593" lon="11.5822305504">
		<tag k="historic" v="shieling" />
		<tag k="name" v="Øvreseter" />
		<tag k="place" v="locality" />
		<tag k="ssr:stedsnr" v="405834" />
	</node>
	<node id="-263562" lat="60.0387999999" lon="11.810624997">
		<tag k="name" v="Gråbeinmyra" />
>>>>>>> e1d4bc35ff8a6074a6f2e91616a996b547c36f15
		<tag k="natural" v="wetland" />
		<tag k="ssr:stedsnr" v="601509" />
	</node>
<<<<<<< HEAD
	<node lat="60.310341664248554" lon="11.416405547202212" id="-16857">
		<tag k="name" v="Storrhølet" />
=======
	<node id="-263560" lat="60.0785749993" lon="11.7745055615">
		<tag k="name" v="Djupe myrhølet" />
>>>>>>> e1d4bc35ff8a6074a6f2e91616a996b547c36f15
		<tag k="natural" v="wetland" />
		<tag k="ssr:stedsnr" v="601512" />
	</node>
<<<<<<< HEAD
	<node lat="60.212425002991885" lon="11.446383330629551" id="-16858">
		<tag k="name" v="Rødløkmyra" />
=======
	<node id="-263557" lat="60.1386583321" lon="11.6002944507">
		<tag k="name" v="Bjørnmyra" />
>>>>>>> e1d4bc35ff8a6074a6f2e91616a996b547c36f15
		<tag k="natural" v="wetland" />
		<tag k="ssr:stedsnr" v="601557" />
	</node>
<<<<<<< HEAD
	<node lat="60.086955554894594" lon="11.697708340199403" id="-16859">
		<tag k="name" v="Skiltmyra" />
=======
	<node id="-263551" lat="60.0243277771" lon="11.8155527739">
		<tag k="name" v="Havsjømomyra" />
>>>>>>> e1d4bc35ff8a6074a6f2e91616a996b547c36f15
		<tag k="natural" v="wetland" />
		<tag k="ssr:stedsnr" v="601568" />
	</node>
<<<<<<< HEAD
	<node lat="60.251363885899934" lon="11.426533328225052" id="-16860">
		<tag k="name" v="Kallholsmyra" />
		<tag k="natural" v="wetland" />
		<tag k="ssr:stedsnr" v="601824" />
	</node>
	<node lat="60.09039444025339" lon="11.68636943549177" id="-16865">
		<tag k="name" v="Grevlingmåsan" />
=======
	<node id="-263538" lat="60.0484916707" lon="11.6011000074">
		<tag k="name" v="Kjøltjennmyra" />
>>>>>>> e1d4bc35ff8a6074a6f2e91616a996b547c36f15
		<tag k="natural" v="wetland" />
		<tag k="ssr:stedsnr" v="601924" />
	</node>
<<<<<<< HEAD
	<node lat="60.226497224825714" lon="11.436344450860238" id="-16869">
		<tag k="name" v="Merramyra" />
=======
	<node id="-263534" lat="60.0901944399" lon="11.3420111163">
		<tag k="name" v="Langmyra" />
>>>>>>> e1d4bc35ff8a6074a6f2e91616a996b547c36f15
		<tag k="natural" v="wetland" />
		<tag k="ssr:stedsnr" v="601967" />
	</node>
<<<<<<< HEAD
	<node lat="60.00794722062707" lon="11.639108326424807" id="-16890">
		<tag k="name" v="Sinkerudmyrene" />
=======
	<node id="-263528" lat="60.0207138861" lon="11.4588999932">
		<tag k="name" v="Høgmåsan" />
>>>>>>> e1d4bc35ff8a6074a6f2e91616a996b547c36f15
		<tag k="natural" v="wetland" />
		<tag k="ssr:stedsnr" v="647028" />
	</node>
<<<<<<< HEAD
	<node lat="60.020613892008825" lon="11.688544448574685" id="-16891">
		<tag k="name" v="Grangardsmyr" />
=======
	<node id="-261470" lat="60.0560722185" lon="11.7484638867">
		<tag k="alt_name" v="Nordre Svarttjennsmyra;Søndre Svarttjennsmyra" />
		<tag k="name" v="Svarttjennsmyrene" />
>>>>>>> e1d4bc35ff8a6074a6f2e91616a996b547c36f15
		<tag k="natural" v="wetland" />
		<tag k="ssr:stedsnr" v="647029" />
	</node>
<<<<<<< HEAD
	<node lat="60.01559722281218" lon="11.614055558227898" id="-16892">
		<tag k="name" v="Nilsemåsan" />
		<tag k="natural" v="wetland" />
		<tag k="ssr:stedsnr" v="647071" />
	</node>
	<node lat="60.07922222650575" lon="11.463852770131304" id="-16899">
		<tag k="name" v="Trasoppmåsan" />
=======
	<node id="-263505" lat="60.0250250033" lon="11.6421194396">
		<tag k="name" v="Stormyra" />
>>>>>>> e1d4bc35ff8a6074a6f2e91616a996b547c36f15
		<tag k="natural" v="wetland" />
		<tag k="ssr:stedsnr" v="647100" />
	</node>
<<<<<<< HEAD
	<node lat="60.08164999988735" lon="11.507563895402846" id="-16901">
		<tag k="name" v="Fallmyra" />
		<tag k="natural" v="wetland" />
		<tag k="ssr:stedsnr" v="647102" />
	</node>
	<node lat="60.05560833614457" lon="11.492291666998558" id="-16908">
		<tag k="name" v="Glomsen" />
=======
	<node id="-263500" lat="60.2489027769" lon="11.3965111115">
		<tag k="name" v="Langmyra" />
		<tag k="natural" v="wetland" />
		<tag k="ssr:stedsnr" v="369317" />
	</node>
	<node id="-261446" lat="60.2510444433" lon="11.5311583303">
		<tag k="name" v="Bukkeholen" />
		<tag k="place" v="locality" />
		<tag k="ssr:stedsnr" v="238949" />
	</node>
	<node id="-261440" lat="60.2532194402" lon="11.4330888964">
		<tag k="name" v="Bjønnåsmyra" />
>>>>>>> e1d4bc35ff8a6074a6f2e91616a996b547c36f15
		<tag k="natural" v="wetland" />
		<tag k="ssr:stedsnr" v="647332" />
	</node>
<<<<<<< HEAD
	<node lat="60.083438885456495" lon="11.661580562429782" id="-16909">
		<tag k="name" v="Øvre Sølvknattmyra" />
=======
	<node id="-261439" lat="60.2609472245" lon="11.4369166591">
		<tag k="name" v="Høgmyrstrupen" />
>>>>>>> e1d4bc35ff8a6074a6f2e91616a996b547c36f15
		<tag k="natural" v="wetland" />
		<tag k="ssr:stedsnr" v="647375" />
	</node>
<<<<<<< HEAD
	<node lat="60.047124996755656" lon="11.62021388621106" id="-16916">
		<tag k="name" v="Blåkollmyrene" />
=======
	<node id="-262257" lat="60.0771861151" lon="11.673966664">
		<tag k="name" v="Langesmalemyra" />
		<tag k="natural" v="wetland" />
		<tag k="ssr:stedsnr" v="541333" />
	</node>
	<node id="-261434" lat="60.074750004" lon="11.7493527811">
		<tag k="name" v="Delmyra" />
>>>>>>> e1d4bc35ff8a6074a6f2e91616a996b547c36f15
		<tag k="natural" v="wetland" />
		<tag k="ssr:stedsnr" v="647716" />
	</node>
<<<<<<< HEAD
	<node lat="60.061941669008796" lon="11.55496666954623" id="-16917">
		<tag k="name" v="Slettfjellmåsan" />
=======
	<node id="-263481" lat="60.0920916639" lon="11.579911119">
		<tag k="name" v="Ballrosmyra" />
>>>>>>> e1d4bc35ff8a6074a6f2e91616a996b547c36f15
		<tag k="natural" v="wetland" />
		<tag k="ssr:stedsnr" v="647692" />
	</node>
<<<<<<< HEAD
	<node lat="60.06698333094467" lon="11.76944999187256" id="-16921">
		<tag k="landuse" v="meadow" />
		<tag k="name" v="Dalajordet" />
		<tag k="ssr:stedsnr" v="649696" />
	</node>
	<node lat="60.01938412409026" lon="11.673066652140957" id="-16923">
		<tag k="name" v="Tjennshaugmyr" />
=======
	<node id="-261431" lat="60.2948527782" lon="11.4396388926">
		<tag k="name" v="Hukmyra" />
		<tag k="natural" v="wetland" />
		<tag k="ssr:stedsnr" v="238628" />
	</node>
	<node id="-261430" lat="60.0761777735" lon="11.7791388932">
		<tag k="name" v="Helbekkmyra" />
>>>>>>> e1d4bc35ff8a6074a6f2e91616a996b547c36f15
		<tag k="natural" v="wetland" />
		<tag k="ssr:stedsnr" v="708032" />
	</node>
<<<<<<< HEAD
	<node lat="60.04049722301589" lon="11.71624165951757" id="-16932">
		<tag k="name" v="Gløttemyra" />
		<tag k="natural" v="wetland" />
		<tag k="ssr:stedsnr" v="655209" />
	</node>
	<node lat="60.034805555851165" lon="11.735094440918024" id="-16933">
		<tag k="name" v="Gamlevangmyra" />
=======
	<node id="-261428" lat="60.2885000025" lon="11.5048666743">
		<tag k="name" v="Tretjennmyra" />
		<tag k="natural" v="wetland" />
		<tag k="ssr:stedsnr" v="238592" />
	</node>
	<node id="-261426" lat="60.323227779" lon="11.4086638938">
		<tag k="name" v="Djupedalsvangen" />
		<tag k="place" v="locality" />
		<tag k="ssr:stedsnr" v="238570" />
	</node>
	<node id="-263472" lat="60.2133222251" lon="11.3276472141">
		<tag k="name" v="Veslemåsan" />
>>>>>>> e1d4bc35ff8a6074a6f2e91616a996b547c36f15
		<tag k="natural" v="wetland" />
		<tag k="ssr:stedsnr" v="655199" />
	</node>
<<<<<<< HEAD
	<node lat="60.038738890736646" lon="11.484213889447117" id="-16937">
		<tag k="name" v="Brønnmyra" />
=======
	<node id="-261422" lat="60.0711972189" lon="11.6564583394">
		<tag k="name" v="Setermyra" />
>>>>>>> e1d4bc35ff8a6074a6f2e91616a996b547c36f15
		<tag k="natural" v="wetland" />
		<tag k="ssr:stedsnr" v="655804" />
	</node>
<<<<<<< HEAD
	<node lat="60.07850277357214" lon="11.766730558285037" id="-16946">
		<tag k="name" v="Ulvelitjennmåsan" />
		<tag k="natural" v="wetland" />
		<tag k="ssr:stedsnr" v="708553" />
	</node>
	<node lat="60.029902777659764" lon="11.775897214975233" id="-16948">
		<tag k="name" v="Ulvemyra" />
=======
	<node id="-263464" lat="60.3088500001" lon="11.4113694361">
		<tag k="name" v="Delmyra" />
		<tag k="natural" v="wetland" />
		<tag k="ssr:stedsnr" v="359540" />
	</node>
	<node id="-263463" lat="60.3022944462" lon="11.4733749996">
		<tag k="name" v="Bonntjennmyra" />
>>>>>>> e1d4bc35ff8a6074a6f2e91616a996b547c36f15
		<tag k="natural" v="wetland" />
		<tag k="ssr:stedsnr" v="708749" />
	</node>
<<<<<<< HEAD
	<node lat="60.04429999564078" lon="11.765033334829242" id="-16954">
		<tag k="name" v="Symåsahølet" />
=======
	<node id="-263462" lat="60.221022219" lon="11.5259166662">
		<tag k="name" v="Rundmyra" />
>>>>>>> e1d4bc35ff8a6074a6f2e91616a996b547c36f15
		<tag k="natural" v="wetland" />
		<tag k="ssr:stedsnr" v="708890" />
	</node>
<<<<<<< HEAD
	<node lat="60.07430833359339" lon="11.674613894442809" id="-16967">
		<tag k="name" v="Hvitmåsan" />
=======
	<node id="-263458" lat="60.1215916638" lon="11.5859833285">
		<tag k="name" v="Rønningmyra" />
>>>>>>> e1d4bc35ff8a6074a6f2e91616a996b547c36f15
		<tag k="natural" v="wetland" />
		<tag k="ssr:stedsnr" v="662290" />
	</node>
<<<<<<< HEAD
	<node lat="60.08636666809164" lon="11.724638897175602" id="-16969">
		<tag k="name" v="Lunnemyra" />
=======
	<node id="-263452" lat="60.0518361153" lon="11.7183055509">
		<tag k="name" v="Vangsmyra" />
>>>>>>> e1d4bc35ff8a6074a6f2e91616a996b547c36f15
		<tag k="natural" v="wetland" />
		<tag k="ssr:stedsnr" v="662606" />
	</node>
<<<<<<< HEAD
	<node lat="60.08197777903264" lon="11.703505552941364" id="-16970">
		<tag k="name" v="Gatetjennmyra" />
=======
	<node id="-263450" lat="60.0275888845" lon="11.5203222171">
		<tag k="name" v="Setermyra" />
>>>>>>> e1d4bc35ff8a6074a6f2e91616a996b547c36f15
		<tag k="natural" v="wetland" />
		<tag k="ssr:stedsnr" v="662632" />
	</node>
<<<<<<< HEAD
	<node lat="60.08197499979678" lon="11.731127786079957" id="-16971">
		<tag k="name" v="Bjørkneshølet" />
=======
	<node id="-263448" lat="60.0314027799" lon="11.7062277775">
		<tag k="name" v="Eikefurumyra" />
>>>>>>> e1d4bc35ff8a6074a6f2e91616a996b547c36f15
		<tag k="natural" v="wetland" />
		<tag k="ssr:stedsnr" v="662634" />
	</node>
<<<<<<< HEAD
	<node lat="60.27729444632798" lon="11.571283334766074" id="-16972">
		<tag k="name" v="Høgmyra" />
		<tag k="natural" v="wetland" />
		<tag k="ssr:stedsnr" v="662635" />
	</node>
	<node lat="60.24466944069399" lon="11.529436107970923" id="-16981">
		<tag k="name" v="Hundstadmåsan" />
=======
	<node id="-263444" lat="60.0524388917" lon="11.7568944429">
		<tag k="name" v="Kusprenga" />
		<tag k="natural" v="wetland" />
		<tag k="ssr:stedsnr" v="344887" />
	</node>
	<node id="-261395" lat="60.2526361128" lon="11.4438527841">
		<tag k="name" v="Lyngholtet" />
		<tag k="place" v="locality" />
		<tag k="ssr:stedsnr" v="56843" />
	</node>
	<node id="-261394" lat="60.2522916671" lon="11.4502249947">
		<tag k="name" v="Lågmyra" />
>>>>>>> e1d4bc35ff8a6074a6f2e91616a996b547c36f15
		<tag k="natural" v="wetland" />
		<tag k="ssr:stedsnr" v="662812" />
	</node>
<<<<<<< HEAD
	<node lat="60.25686944809662" lon="11.513422223195736" id="-16983">
		<tag k="name" v="Vangmyra" />
		<tag k="natural" v="wetland" />
		<tag k="ssr:stedsnr" v="662817" />
	</node>
	<node lat="60.25285833611945" lon="11.488388889099303" id="-16984">
		<tag k="name" v="Svinmyra" />
=======
	<node id="-261393" lat="60.2601638872" lon="11.4296611061">
		<tag k="name" v="Kroktjennholen" />
		<tag k="place" v="locality" />
		<tag k="ssr:stedsnr" v="56838" />
	</node>
	<node id="-261392" lat="60.2789694485" lon="11.3672388896">
		<tag k="name" v="Igletjennsmyra" />
>>>>>>> e1d4bc35ff8a6074a6f2e91616a996b547c36f15
		<tag k="natural" v="wetland" />
		<tag k="ssr:stedsnr" v="662822" />
	</node>
<<<<<<< HEAD
	<node lat="60.27638611318961" lon="11.441463891173921" id="-16987">
		<tag k="name" v="Storholtet" />
		<tag k="place" v="locality" />
		<tag k="ssr:stedsnr" v="662906" />
	</node>
	<node lat="60.10028055664313" lon="11.673733325380814" id="-16988">
		<tag k="name" v="Jordmyra" />
=======
	<node id="-263439" lat="60.0896055559" lon="11.511550003">
		<tag k="name" v="Finnmyra" />
		<tag k="natural" v="wetland" />
		<tag k="ssr:stedsnr" v="344694" />
	</node>
	<node id="-261390" lat="60.2774777788" lon="11.47216945">
		<tag k="name" v="Fallmyrene" />
>>>>>>> e1d4bc35ff8a6074a6f2e91616a996b547c36f15
		<tag k="natural" v="wetland" />
		<tag k="ssr:stedsnr" v="662927" />
	</node>
<<<<<<< HEAD
	<node lat="60.22395833423711" lon="11.434241660448127" id="-16989">
		<tag k="name" v="Bonnmyra" />
=======
	<node id="-263437" lat="60.0476333293" lon="11.5898777703">
		<tag k="name" v="Gullrosmyra" />
>>>>>>> e1d4bc35ff8a6074a6f2e91616a996b547c36f15
		<tag k="natural" v="wetland" />
		<tag k="ssr:stedsnr" v="662984" />
	</node>
<<<<<<< HEAD
	<node lat="60.117480558190344" lon="11.602330548318228" id="-16995">
		<tag k="name" v="Sagmyra" />
=======
	<node id="-263436" lat="60.0260444482" lon="11.5848833268">
		<tag k="name" v="Setermåsan" />
>>>>>>> e1d4bc35ff8a6074a6f2e91616a996b547c36f15
		<tag k="natural" v="wetland" />
		<tag k="ssr:stedsnr" v="890047" />
	</node>
<<<<<<< HEAD
	<node lat="60.13101944890462" lon="11.561241660615215" id="-16997">
		<tag k="name" v="Marihølet" />
		<tag k="natural" v="wetland" />
		<tag k="ssr:stedsnr" v="890063" />
	</node>
	<node lat="60.161305554107045" lon="11.353902778566773" id="-16999">
		<tag k="name" v="Grenitjennet" />
=======
	<node id="-263435" lat="60.0293472261" lon="11.5794694513">
		<tag k="name" v="Bukkemåsan" />
		<tag k="natural" v="wetland" />
		<tag k="ssr:stedsnr" v="344822" />
	</node>
	<node id="-261384" lat="60.2144472195" lon="11.3218944529">
		<tag k="name" v="Elgmyra" />
		<tag k="natural" v="wetland" />
		<tag k="ssr:stedsnr" v="237758" />
	</node>
	<node id="-263424" lat="60.1123972225" lon="11.663666662">
		<tag k="name" v="Gråbeinmyra" />
>>>>>>> e1d4bc35ff8a6074a6f2e91616a996b547c36f15
		<tag k="natural" v="wetland" />
		<tag k="ssr:stedsnr" v="890289" />
	</node>
<<<<<<< HEAD
	<node lat="60.04839444526945" lon="11.43159166102511" id="-17000">
		<tag k="name" v="Fuglevindmåsan" />
=======
	<node id="-263422" lat="60.1270361117" lon="11.6266027708">
		<tag k="name" v="Trangsrudtjennmyr" />
>>>>>>> e1d4bc35ff8a6074a6f2e91616a996b547c36f15
		<tag k="natural" v="wetland" />
		<tag k="ssr:stedsnr" v="890291" />
	</node>
<<<<<<< HEAD
	<node lat="60.18634721893191" lon="11.343483327084149" id="-17009">
		<tag k="name" v="Aurstadmåsan" />
=======
	<node id="-263421" lat="60.123641671" lon="11.6020083321">
		<tag k="name" v="Ruskemyra" />
>>>>>>> e1d4bc35ff8a6074a6f2e91616a996b547c36f15
		<tag k="natural" v="wetland" />
		<tag k="ssr:stedsnr" v="672210" />
	</node>
<<<<<<< HEAD
	<node lat="60.15952221900449" lon="11.334472223235075" id="-17017">
		<tag k="name" v="Grenimåsan" />
=======
	<node id="-261371" lat="60.2468944402" lon="11.2678666627">
		<tag k="name" v="Lauvbråtmyra" />
>>>>>>> e1d4bc35ff8a6074a6f2e91616a996b547c36f15
		<tag k="natural" v="wetland" />
		<tag k="ssr:stedsnr" v="673232" />
	</node>
<<<<<<< HEAD
	<node lat="60.053600000236074" lon="11.642750008040618" id="-17025">
		<tag k="alt_name" v="Holemyra" />
		<tag k="name" v="Holomyra" />
=======
	<node id="-261359" lat="60.067825004" lon="11.4554166724">
		<tag k="name" v="Korpmyra" />
>>>>>>> e1d4bc35ff8a6074a6f2e91616a996b547c36f15
		<tag k="natural" v="wetland" />
		<tag k="ssr:stedsnr" v="673560" />
	</node>
<<<<<<< HEAD
	<node lat="60.12691111452691" lon="11.640980553064162" id="-17036">
		<tag k="name" v="Rundmyra" />
=======
	<node id="-261356" lat="60.0190249979" lon="11.6115611064">
		<tag k="name" v="Delemåsan" />
>>>>>>> e1d4bc35ff8a6074a6f2e91616a996b547c36f15
		<tag k="natural" v="wetland" />
		<tag k="ssr:stedsnr" v="891154" />
	</node>
<<<<<<< HEAD
	<node lat="60.11137777405297" lon="11.671033340833338" id="-17039">
		<tag k="name" v="Langtjennmyra" />
=======
	<node id="-261353" lat="60.043644441" lon="11.4509083392">
		<tag k="name" v="Mordermyra" />
>>>>>>> e1d4bc35ff8a6074a6f2e91616a996b547c36f15
		<tag k="natural" v="wetland" />
		<tag k="ssr:stedsnr" v="891175" />
	</node>
<<<<<<< HEAD
	<node lat="60.041063889581324" lon="11.747861107994792" id="-17063">
		<tag k="name" v="Kattjennmyra" />
=======
	<node id="-261352" lat="60.0268833351" lon="11.7449777864">
		<tag k="name" v="Paddeflo" />
>>>>>>> e1d4bc35ff8a6074a6f2e91616a996b547c36f15
		<tag k="natural" v="wetland" />
		<tag k="ssr:stedsnr" v="708211" />
	</node>
<<<<<<< HEAD
	<node lat="60.084177782134276" lon="11.646172221400256" id="-17067">
		<tag k="name" v="Graulinmåsan" />
=======
	<node id="-261348" lat="60.0372944421" lon="11.7058305631">
		<tag k="name" v="Finnbekkmyra" />
>>>>>>> e1d4bc35ff8a6074a6f2e91616a996b547c36f15
		<tag k="natural" v="wetland" />
		<tag k="ssr:stedsnr" v="708360" />
	</node>
<<<<<<< HEAD
	<node lat="60.08527222352817" lon="11.661511114892297" id="-17068">
		<tag k="name" v="Lågmyra" />
		<tag k="natural" v="wetland" />
		<tag k="ssr:stedsnr" v="708361" />
	</node>
	<node lat="60.051427775052076" lon="11.606650007753258" id="-17072">
		<tag k="name" v="Nedre Bleikmyra" />
		<tag k="natural" v="wetland" />
		<tag k="ssr:stedsnr" v="708686" />
	</node>
	<node lat="60.03204999597601" lon="11.49157777492576" id="-17077">
		<tag k="name" v="Langmåsan" />
=======
	<node id="-261668" lat="60.0594249992" lon="11.7669638819">
		<tag k="name" v="Storstein" />
		<tag k="natural" v="stone" />
		<tag k="ssr:stedsnr" v="284901" />
	</node>
	<node id="-261325" lat="60.0848833302" lon="11.6714083413">
		<tag k="name" v="Nederste Himmeltjennmyra" />
>>>>>>> e1d4bc35ff8a6074a6f2e91616a996b547c36f15
		<tag k="natural" v="wetland" />
		<tag k="ssr:stedsnr" v="898801" />
	</node>
<<<<<<< HEAD
	<node lat="60.048369441876964" lon="11.661736105885735" id="-17086">
		<tag k="name" v="Glesteinmyra" />
=======
	<node id="-263367" lat="60.1738527737" lon="11.3239694403">
		<tag k="name" v="Flakstadmåsan" />
>>>>>>> e1d4bc35ff8a6074a6f2e91616a996b547c36f15
		<tag k="natural" v="wetland" />
		<tag k="ssr:stedsnr" v="899597" />
	</node>
<<<<<<< HEAD
	<node lat="60.24547221801893" lon="11.274183329526167" id="-17092">
		<tag k="name" v="Søndre Setermyr" />
=======
	<node id="-261317" lat="60.1237194423" lon="11.6492416599">
		<tag k="name" v="Klommyra" />
>>>>>>> e1d4bc35ff8a6074a6f2e91616a996b547c36f15
		<tag k="natural" v="wetland" />
		<tag k="ssr:stedsnr" v="723109" />
	</node>
<<<<<<< HEAD
	<node lat="60.07093055639637" lon="11.612555554668827" id="-17097">
		<tag k="name" v="Sovestein" />
=======
	<node id="-261316" lat="60.1123333326" lon="11.6694388848">
		<tag k="name" v="Tobakkstein" />
>>>>>>> e1d4bc35ff8a6074a6f2e91616a996b547c36f15
		<tag k="natural" v="stone" />
		<tag k="ssr:stedsnr" v="723276" />
	</node>
	<node lat="60.07401389021748" lon="11.58502499651039" id="-17098">
		<tag k="name" v="Slakteteigen" />
		<tag k="place" v="locality" />
		<tag k="ssr:stedsnr" v="723277" />
	</node>
<<<<<<< HEAD
	<node lat="60.2878916694703" lon="11.458099999723155" id="-17099">
		<tag k="name" v="Garsjømyra" />
=======
	<node id="-261314" lat="60.01407222" lon="11.7150055608">
		<tag k="name" v="Mørdrevangsmyra" />
>>>>>>> e1d4bc35ff8a6074a6f2e91616a996b547c36f15
		<tag k="natural" v="wetland" />
		<tag k="ssr:stedsnr" v="723606" />
	</node>
<<<<<<< HEAD
	<node lat="60.08954444291778" lon="11.732688886976655" id="-17101">
		<tag k="name" v="Otermyra" />
=======
	<node id="-261664" lat="60.222944442" lon="11.4125500069">
		<tag k="landuse" v="quarry" />
		<tag k="name" v="Inngjerdingsbruddet" />
		<tag k="ssr:stedsnr" v="177968" />
	</node>
	<node id="-263348" lat="60.2543499972" lon="11.5696333298">
		<tag k="name" v="Brennamyra" />
>>>>>>> e1d4bc35ff8a6074a6f2e91616a996b547c36f15
		<tag k="natural" v="wetland" />
		<tag k="ssr:stedsnr" v="723509" />
	</node>
<<<<<<< HEAD
	<node lat="60.32860555352941" lon="11.435491675448072" id="-17105">
		<tag k="name" v="Høgemyra" />
=======
	<node id="-263291" lat="60.1047083311" lon="11.5359861169">
		<tag k="name" v="Kattholsmyra" />
>>>>>>> e1d4bc35ff8a6074a6f2e91616a996b547c36f15
		<tag k="natural" v="wetland" />
		<tag k="ssr:stedsnr" v="723735" />
	</node>
<<<<<<< HEAD
	<node lat="60.268583332832556" lon="11.46021389198964" id="-17107">
		<tag k="name" v="Steinmyrene" />
=======
	<node id="-263290" lat="60.0929888906" lon="11.5623361075">
		<tag k="name" v="Langbrumyra" />
>>>>>>> e1d4bc35ff8a6074a6f2e91616a996b547c36f15
		<tag k="natural" v="wetland" />
		<tag k="ssr:stedsnr" v="723884" />
	</node>
<<<<<<< HEAD
	<node lat="60.266483335547825" lon="11.459586113476348" id="-17108">
		<tag k="name" v="Blekkjemyra" />
=======
	<node id="-263288" lat="60.2814999958" lon="11.4344472206">
		<tag k="name" v="Rognbekkmyra" />
>>>>>>> e1d4bc35ff8a6074a6f2e91616a996b547c36f15
		<tag k="natural" v="wetland" />
		<tag k="ssr:stedsnr" v="723886" />
	</node>
<<<<<<< HEAD
	<node lat="60.29314444186702" lon="11.525744448863865" id="-17157">
		<tag k="name" v="Blinkoppmyra" />
=======
	<node id="-263286" lat="60.2494305565" lon="11.5669638966">
		<tag k="name" v="Ovnsbergmyra" />
>>>>>>> e1d4bc35ff8a6074a6f2e91616a996b547c36f15
		<tag k="natural" v="wetland" />
		<tag k="ssr:stedsnr" v="905535" />
	</node>
<<<<<<< HEAD
	<node lat="60.07884444728862" lon="11.702025008025077" id="-17162">
		<tag k="name" v="Midtholmen" />
		<tag k="place" v="locality" />
		<tag k="ssr:stedsnr" v="905628" />
	</node>
	<node lat="60.317238887078425" lon="11.428777782697143" id="-17163">
		<tag k="name" v="Hvitmåsamyra" />
=======
	<node id="-263282" lat="60.2509055595" lon="11.4736888927">
		<tag k="name" v="Svartholtet" />
		<tag k="place" v="locality" />
		<tag k="ssr:stedsnr" v="177849" />
	</node>
	<node id="-263277" lat="60.098066669" lon="11.7167333332">
		<tag k="name" v="Vangstjennsmyra" />
		<tag k="natural" v="wetland" />
		<tag k="ssr:stedsnr" v="177647" />
	</node>
	<node id="-263270" lat="60.3086833362" lon="11.487291666">
		<tag k="name" v="Stromsmyra" />
		<tag k="natural" v="wetland" />
		<tag k="ssr:stedsnr" v="177766" />
	</node>
	<node id="-263266" lat="60.0807138899" lon="11.6262583383">
		<tag k="name" v="Børåhauga" />
		<tag k="place" v="locality" />
		<tag k="ssr:stedsnr" v="177279" />
	</node>
	<node id="-263262" lat="60.2887444417" lon="11.5090305584">
		<tag k="name" v="Hanamyra" />
		<tag k="natural" v="wetland" />
		<tag k="ssr:stedsnr" v="177544" />
	</node>
	<node id="-263261" lat="60.3013944444" lon="11.4869555635">
		<tag k="name" v="Skulaumyra" />
		<tag k="natural" v="wetland" />
		<tag k="ssr:stedsnr" v="177542" />
	</node>
	<node id="-263260" lat="60.0705722234" lon="11.6401388923">
		<tag k="name" v="Fleinbekkmyra" />
		<tag k="natural" v="wetland" />
		<tag k="ssr:stedsnr" v="177332" />
	</node>
	<node id="-263258" lat="60.2542888913" lon="11.3729583372">
		<tag k="name" v="Stavmyra" />
		<tag k="natural" v="wetland" />
		<tag k="ssr:stedsnr" v="177150" />
	</node>
	<node id="-263256" lat="60.1254638901" lon="11.5823638896">
		<tag k="name" v="Jastein" />
		<tag k="natural" v="stone" />
		<tag k="ssr:stedsnr" v="177108" />
	</node>
	<node id="-263248" lat="60.0566888852" lon="11.7030000056">
		<tag k="name" v="Kjeppmyra" />
		<tag k="natural" v="wetland" />
		<tag k="ssr:stedsnr" v="170920" />
	</node>
	<node id="-263247" lat="60.0332555513" lon="11.4748444358">
		<tag k="name" v="Hermansmåsan" />
		<tag k="natural" v="wetland" />
		<tag k="ssr:stedsnr" v="170826" />
	</node>
	<node id="-263246" lat="60.0300972255" lon="11.7085638878">
		<tag k="name" v="Skrangelholtet" />
		<tag k="place" v="locality" />
		<tag k="ssr:stedsnr" v="170762" />
	</node>
	<node id="-263245" lat="60.0449111138" lon="11.6688583339">
		<tag k="name" v="Gruemyra" />
		<tag k="natural" v="wetland" />
		<tag k="ssr:stedsnr" v="170579" />
	</node>
	<node id="-263241" lat="60.0443883129" lon="11.7233232268">
		<tag k="name" v="Sauetjennmyra" />
		<tag k="natural" v="wetland" />
		<tag k="ssr:stedsnr" v="162944" />
	</node>
	<node id="-263239" lat="60.0586222226" lon="11.7644722199">
		<tag k="name" v="Vendemyrene" />
		<tag k="natural" v="wetland" />
		<tag k="ssr:stedsnr" v="162891" />
	</node>
	<node id="-263234" lat="60.0309805533" lon="11.7844083319">
		<tag k="name" v="Vinvåldraga" />
		<tag k="place" v="locality" />
		<tag k="ssr:stedsnr" v="162786" />
	</node>
	<node id="-264032" lat="60.2503805587" lon="11.2740361112">
		<tag k="name" v="Nedre Setermyr" />
		<tag k="natural" v="wetland" />
		<tag k="ssr:stedsnr" v="783084" />
	</node>
	<node id="-263230" lat="60.2157333348" lon="11.423791675">
		<tag k="name" v="Klasmyra" />
		<tag k="natural" v="wetland" />
		<tag k="ssr:stedsnr" v="162597" />
	</node>
	<node id="-263226" lat="60.1432055569" lon="11.5730527755">
		<tag k="name" v="Ormemyra" />
		<tag k="natural" v="wetland" />
		<tag k="ssr:stedsnr" v="162363" />
	</node>
	<node id="-263225" lat="60.1389777821" lon="11.5338333348">
		<tag k="name" v="Vennmyra" />
		<tag k="natural" v="wetland" />
		<tag k="ssr:stedsnr" v="162360" />
	</node>
	<node id="-263223" lat="60.0573388914" lon="11.5726694526">
		<tag k="name" v="Smetti" />
		<tag k="natural" v="wetland" />
		<tag k="ssr:stedsnr" v="162294" />
	</node>
	<node id="-263222" lat="59.9977916702" lon="11.4403388866">
		<tag k="name" v="Fuglemåsan" />
		<tag k="natural" v="wetland" />
		<tag k="ssr:stedsnr" v="162732" />
	</node>
	<node id="-263219" lat="60.1030750004" lon="11.6767694518">
		<tag k="historic" v="shieling" />
		<tag k="name" v="Kroktjernsetra" />
		<tag k="place" v="locality" />
		<tag k="ssr:stedsnr" v="162540" />
	</node>
	<node id="-263210" lat="60.1140555587" lon="11.609763888">
		<tag k="name" v="Storrundmyra" />
		<tag k="natural" v="wetland" />
		<tag k="ssr:stedsnr" v="162043" />
	</node>
	<node id="-263209" lat="60.0083250027" lon="11.6605250076">
		<tag k="name" v="Langmyra" />
		<tag k="natural" v="wetland" />
		<tag k="ssr:stedsnr" v="162001" />
	</node>
	<node id="-263184" lat="60.1990555559" lon="11.5316277703">
		<tag k="name" v="Gulltjennmåsan" />
		<tag k="natural" v="wetland" />
		<tag k="ssr:stedsnr" v="126757" />
	</node>
	<node id="-263680" lat="60.0057166638" lon="11.4802833402">
		<tag k="name" v="Spyttmyra" />
		<tag k="natural" v="wetland" />
		<tag k="ssr:stedsnr" v="526472" />
	</node>
	<node id="-263678" lat="60.0631972252" lon="11.462711103">
		<tag k="name" v="Glomsen" />
		<tag k="natural" v="wetland" />
		<tag k="ssr:stedsnr" v="526247" />
	</node>
	<node id="-263143" lat="60.2732611103" lon="11.3780222203">
		<tag k="name" v="Langmyra" />
		<tag k="natural" v="wetland" />
		<tag k="ssr:stedsnr" v="116888" />
	</node>
	<node id="-263140" lat="60.0790888919" lon="11.7243250027">
		<tag k="name" v="Langesmalemyra" />
		<tag k="natural" v="wetland" />
		<tag k="ssr:stedsnr" v="116639" />
	</node>
	<node id="-263133" lat="60.3336083309" lon="11.4364277745">
		<tag k="name" v="Lauvbergmyra" />
		<tag k="natural" v="wetland" />
		<tag k="ssr:stedsnr" v="116742" />
	</node>
	<node id="-263128" lat="60.0833555548" lon="11.7294777797">
		<tag k="name" v="Elghølet" />
		<tag k="natural" v="wetland" />
		<tag k="ssr:stedsnr" v="116617" />
	</node>
	<node id="-263121" lat="60.1644555595" lon="11.4497000006">
		<tag k="name" v="Mikkelsenmyra" />
		<tag k="natural" v="wetland" />
		<tag k="ssr:stedsnr" v="116063" />
	</node>
	<node id="-264013" lat="60.0311194444" lon="11.4213805491">
		<tag k="name" v="Vestbymyra" />
		<tag k="natural" v="wetland" />
		<tag k="ssr:stedsnr" v="769822" />
	</node>
	<node id="-263109" lat="60.031497222" lon="11.7326833284">
		<tag k="name" v="Håndsjømyra" />
		<tag k="natural" v="wetland" />
		<tag k="ssr:stedsnr" v="109189" />
	</node>
	<node id="-263104" lat="60.0490166662" lon="11.7339166648">
		<tag k="name" v="Snøplogmyra" />
		<tag k="natural" v="wetland" />
		<tag k="ssr:stedsnr" v="102924" />
	</node>
	<node id="-263103" lat="60.0569250023" lon="11.7350583403">
		<tag k="name" v="Bjønnmyrbakken" />
		<tag k="place" v="locality" />
		<tag k="ssr:stedsnr" v="102922" />
	</node>
	<node id="-263102" lat="60.0652361078" lon="11.6988444354">
		<tag k="name" v="Mårramyra" />
		<tag k="natural" v="wetland" />
		<tag k="ssr:stedsnr" v="102916" />
	</node>
	<node id="-263098" lat="60.037422222" lon="11.5833305628">
		<tag k="name" v="Tretjennmåsan" />
		<tag k="natural" v="wetland" />
		<tag k="ssr:stedsnr" v="102817" />
	</node>
	<node id="-263097" lat="60.0306861085" lon="11.7612388806">
		<tag k="name" v="Rabbillmyra" />
		<tag k="natural" v="wetland" />
		<tag k="ssr:stedsnr" v="102780" />
	</node>
	<node id="-263096" lat="60.0300138896" lon="11.8199138867">
		<tag k="name" v="Handrekkesmyra" />
		<tag k="natural" v="wetland" />
		<tag k="ssr:stedsnr" v="102768" />
	</node>
	<node id="-263092" lat="60.0814555534" lon="11.7535638865">
		<tag k="name" v="Sanddyna" />
		<tag k="natural" v="beach" />
		<tag k="ssr:stedsnr" v="102608" />
		<tag k="surface" v="sand" />
	</node>
	<node id="-263088" lat="60.080502775" lon="11.6952027773">
		<tag k="name" v="Bjørkehyttemyra" />
		<tag k="natural" v="wetland" />
		<tag k="ssr:stedsnr" v="102447" />
	</node>
	<node id="-263086" lat="60.0699527765" lon="11.7177277711">
		<tag k="name" v="Tiurmyra" />
		<tag k="natural" v="wetland" />
		<tag k="ssr:stedsnr" v="102432" />
	</node>
	<node id="-262301" lat="60.0785027736" lon="11.7667305583">
		<tag k="name" v="Ulvelitjennmåsan" />
		<tag k="natural" v="wetland" />
		<tag k="ssr:stedsnr" v="708553" />
	</node>
	<node id="-263067" lat="60.047408335" lon="11.6081277695">
		<tag k="name" v="Øvre Bleikmyra" />
		<tag k="natural" v="wetland" />
		<tag k="ssr:stedsnr" v="101704" />
	</node>
	<node id="-262297" lat="60.0852722235" lon="11.6615111149">
		<tag k="name" v="Lågmyra" />
		<tag k="natural" v="wetland" />
		<tag k="ssr:stedsnr" v="708361" />
	</node>
	<node id="-262296" lat="60.0841777821" lon="11.6461722214">
		<tag k="name" v="Graulinmåsan" />
		<tag k="natural" v="wetland" />
		<tag k="ssr:stedsnr" v="708360" />
	</node>
	<node id="-262288" lat="60.0410638896" lon="11.747861108">
		<tag k="name" v="Kattjennmyra" />
		<tag k="natural" v="wetland" />
		<tag k="ssr:stedsnr" v="708211" />
	</node>
	<node id="-263006" lat="60.0920277762" lon="11.6939500084">
		<tag k="name" v="Gampmyra" />
		<tag k="natural" v="wetland" />
		<tag k="ssr:stedsnr" v="56943" />
	</node>
	<node id="-263004" lat="60.2480027772" lon="11.5720027845">
		<tag k="name" v="Vatningsmyra" />
		<tag k="natural" v="wetland" />
		<tag k="ssr:stedsnr" v="56939" />
	</node>
	<node id="-263000" lat="60.301802778" lon="11.3943611044">
		<tag k="name" v="Blåbærmyra" />
		<tag k="natural" v="wetland" />
		<tag k="ssr:stedsnr" v="56645" />
	</node>
	<node id="-262998" lat="60.2847944417" lon="11.4647444407">
		<tag k="name" v="Linnmyra" />
		<tag k="natural" v="wetland" />
		<tag k="ssr:stedsnr" v="56641" />
	</node>
	<node id="-262995" lat="60.0870972204" lon="11.7136194521">
		<tag k="name" v="Israelmyra" />
		<tag k="natural" v="wetland" />
		<tag k="ssr:stedsnr" v="56610" />
	</node>
	<node id="-262993" lat="60.3126416664" lon="11.4168277696">
		<tag k="name" v="Holmyra" />
		<tag k="natural" v="wetland" />
		<tag k="ssr:stedsnr" v="56548" />
	</node>
	<node id="-262992" lat="60.2883416689" lon="11.5132138819">
		<tag k="name" v="Dammyra" />
		<tag k="natural" v="wetland" />
		<tag k="ssr:stedsnr" v="56542" />
	</node>
	<node id="-262983" lat="60.236608329" lon="11.4638666741">
		<tag k="historic" v="shieling" />
		<tag k="name" v="Vøyensetra" />
		<tag k="place" v="locality" />
		<tag k="ssr:stedsnr" v="55970" />
	</node>
	<node id="-262977" lat="60.2506027796" lon="11.2683944363">
		<tag k="name" v="Øvre Setermyr" />
		<tag k="natural" v="wetland" />
		<tag k="ssr:stedsnr" v="55099" />
	</node>
	<node id="-262965" lat="60.0779416651" lon="11.7575305477">
		<tag k="loc_name" v="Skyttersteinmyra" />
		<tag k="name" v="Skytterstumyra" />
		<tag k="natural" v="wetland" />
		<tag k="ssr:stedsnr" v="43713" />
	</node>
	<node id="-262959" lat="60.0558166632" lon="11.7834472264">
		<tag k="name" v="Bukketangmyra" />
		<tag k="natural" v="wetland" />
		<tag k="ssr:stedsnr" v="41886" />
	</node>
	<node id="-262952" lat="60.0323416641" lon="11.4558333281">
		<tag k="name" v="Vangmyra" />
		<tag k="natural" v="wetland" />
		<tag k="ssr:stedsnr" v="41831" />
	</node>
	<node id="-262946" lat="60.0704388912" lon="11.695638881">
		<tag k="name" v="Otermyra" />
		<tag k="natural" v="wetland" />
		<tag k="ssr:stedsnr" v="41375" />
	</node>
	<node id="-262933" lat="60.0577444445" lon="11.4857527816">
		<tag k="name" v="Nedre Glomsen" />
		<tag k="natural" v="wetland" />
		<tag k="ssr:stedsnr" v="40309" />
	</node>
	<node id="-262931" lat="60.0221777749" lon="11.505408342">
		<tag k="name" v="Tresjømåsan" />
		<tag k="natural" v="wetland" />
		<tag k="ssr:stedsnr" v="40039" />
	</node>
	<node id="-262912" lat="60.2690805555" lon="11.4311999976">
		<tag k="alt_name" v="Grindermyrene" />
		<tag k="name" v="Grindermyrane" />
		<tag k="natural" v="wetland" />
		<tag k="ssr:stedsnr" v="6210" />
	</node>
	<node id="-262271" lat="60.3308694469" lon="11.4325444512">
		<tag k="name" v="Lågemyra" />
		<tag k="natural" v="wetland" />
		<tag k="ssr:stedsnr" v="541754" />
	</node>
	<node id="-262896" lat="60.0858277777" lon="11.5917749935">
		<tag k="name" v="Geitsvelta" />
		<tag k="natural" v="wetland" />
		<tag k="ssr:stedsnr" v="5715" />
	</node>
	<node id="-263975" lat="60.0669833309" lon="11.7694499919">
		<tag k="landuse" v="meadow" />
		<tag k="name" v="Dalajordet" />
		<tag k="ssr:stedsnr" v="649696" />
	</node>
	<node id="-262887" lat="60.0700638864" lon="11.7297472283">
		<tag k="alt_name" v="Sakkhusmåsan" />
		<tag k="name" v="Sakosmåsan" />
		<tag k="natural" v="wetland" />
		<tag k="ssr:stedsnr" v="5502" />
	</node>
	<node id="-262865" lat="60.2539555511" lon="11.4241944497">
		<tag k="name" v="Gammelvangsmyra" />
		<tag k="natural" v="wetland" />
		<tag k="ssr:stedsnr" v="966859" />
	</node>
	<node id="-262859" lat="60.3094194428" lon="11.4607500059">
		<tag k="name" v="Flekkemyra" />
		<tag k="natural" v="wetland" />
		<tag k="ssr:stedsnr" v="966570" />
	</node>
	<node id="-262854" lat="60.2448055572" lon="11.434830557">
		<tag k="name" v="Våla" />
		<tag k="natural" v="wetland" />
		<tag k="ssr:stedsnr" v="966167" />
	</node>
	<node id="-262853" lat="60.2566416648" lon="11.3679944373">
		<tag k="name" v="Tobergsmyra" />
		<tag k="natural" v="wetland" />
		<tag k="ssr:stedsnr" v="966157" />
	</node>
	<node id="-262851" lat="60.2408361078" lon="11.2733194378">
		<tag k="name" v="Bergbråtamyrene" />
		<tag k="natural" v="wetland" />
		<tag k="ssr:stedsnr" v="966106" />
	</node>
	<node id="-262848" lat="60.2277305566" lon="11.5452361117">
		<tag k="name" v="Bøsterudmyra" />
		<tag k="natural" v="wetland" />
		<tag k="ssr:stedsnr" v="966059" />
	</node>
	<node id="-262304" lat="60.0514277751" lon="11.6066500078">
		<tag k="name" v="Nedre Bleikmyra" />
		<tag k="natural" v="wetland" />
		<tag k="ssr:stedsnr" v="708686" />
	</node>
	<node id="-262844" lat="60.2172083369" lon="11.318677782">
		<tag k="name" v="Langmyra" />
		<tag k="natural" v="wetland" />
		<tag k="ssr:stedsnr" v="965757" />
	</node>
	<node id="-262841" lat="60.0641277802" lon="11.7351861178">
		<tag k="name" v="Villpostmyra" />
		<tag k="natural" v="wetland" />
		<tag k="ssr:stedsnr" v="951909" />
	</node>
	<node id="-262839" lat="60.0223972261" lon="11.6366361142">
		<tag k="name" v="Delemyr" />
		<tag k="natural" v="wetland" />
		<tag k="ssr:stedsnr" v="951815" />
	</node>
	<node id="-262821" lat="60.1139555557" lon="11.5850611113">
		<tag k="name" v="Tiurmyra" />
		<tag k="natural" v="wetland" />
		<tag k="ssr:stedsnr" v="951046" />
	</node>
	<node id="-262819" lat="60.0178611089" lon="11.6608444418">
		<tag k="name" v="Tiurnabbmyr" />
		<tag k="natural" v="wetland" />
		<tag k="ssr:stedsnr" v="951027" />
	</node>
	<node id="-262818" lat="60.0204083327" lon="11.6421666589">
		<tag k="name" v="Tanga" />
		<tag k="place" v="locality" />
		<tag k="ssr:stedsnr" v="951026" />
	</node>
	<node id="-262817" lat="60.0160416702" lon="11.6801166722">
		<tag k="name" v="Småmyrene" />
		<tag k="natural" v="wetland" />
		<tag k="ssr:stedsnr" v="951025" />
	</node>
	<node id="-262805" lat="60.0371500005" lon="11.6542749992">
		<tag k="name" v="Skøyimyra" />
		<tag k="natural" v="wetland" />
		<tag k="ssr:stedsnr" v="916575" />
	</node>
	<node id="-262803" lat="60.0517861102" lon="11.6071916636">
		<tag k="name" v="Bleikmyra" />
		<tag k="natural" v="wetland" />
		<tag k="ssr:stedsnr" v="916558" />
	</node>
	<node id="-263960" lat="60.0799388869" lon="11.7598916597">
		<tag k="name" v="Nybrennmyra" />
		<tag k="natural" v="wetland" />
		<tag k="ssr:stedsnr" v="647554" />
	</node>
	<node id="-262784" lat="60.2558111099" lon="11.5227055518">
		<tag k="name" v="Hyttemyra" />
		<tag k="natural" v="wetland" />
		<tag k="ssr:stedsnr" v="905823" />
	</node>
	<node id="-262779" lat="60.2814472221" lon="11.4160805629">
		<tag k="name" v="Storrkilen" />
		<tag k="natural" v="wetland" />
		<tag k="ssr:stedsnr" v="905917" />
	</node>
	<node id="-262778" lat="60.2676250029" lon="11.450847217">
		<tag k="name" v="Vivangmyra" />
		<tag k="natural" v="wetland" />
		<tag k="ssr:stedsnr" v="905911" />
	</node>
	<node id="-262776" lat="60.2776111136" lon="11.3773444518">
		<tag k="name" v="Gurimyra" />
		<tag k="natural" v="wetland" />
		<tag k="ssr:stedsnr" v="905905" />
	</node>
	<node id="-262773" lat="60.0788444473" lon="11.702025008">
		<tag k="name" v="Midtholmen" />
		<tag k="place" v="locality" />
		<tag k="ssr:stedsnr" v="905628" />
	</node>
	<node id="-262769" lat="60.0725416672" lon="11.76953889">
		<tag k="name" v="Åkermyra" />
		<tag k="natural" v="wetland" />
		<tag k="ssr:stedsnr" v="905606" />
	</node>
	<node id="-262761" lat="60.1115666696" lon="11.5794749995">
		<tag k="name" v="Lindmyra" />
		<tag k="natural" v="wetland" />
		<tag k="ssr:stedsnr" v="905014" />
	</node>
	<node id="-262750" lat="60.0574916697" lon="11.5951416665">
		<tag k="name" v="Elgmyra" />
		<tag k="natural" v="wetland" />
		<tag k="ssr:stedsnr" v="856614" />
	</node>
	<node id="-262730" lat="60.0619277811" lon="11.6550305596">
		<tag k="name" v="Holmemyra" />
		<tag k="natural" v="wetland" />
		<tag k="ssr:stedsnr" v="837573" />
	</node>
	<node id="-262727" lat="60.1319944478" lon="11.5777055585">
		<tag k="name" v="Røsåsmyra" />
		<tag k="natural" v="wetland" />
		<tag k="ssr:stedsnr" v="830323" />
	</node>
	<node id="-261899" lat="60.0491722227" lon="11.7398777747">
		<tag k="name" v="Moltemyra" />
		<tag k="natural" v="wetland" />
		<tag k="ssr:stedsnr" v="344914" />
	</node>
	<node id="-263605" lat="60.0928305561" lon="11.7257305551">
		<tag k="name" v="Puttmyra" />
		<tag k="natural" v="wetland" />
		<tag k="ssr:stedsnr" v="420654" />
	</node>
	<node id="-262238" lat="60.0205499993" lon="11.6655305568">
		<tag k="name" v="Elgmyra" />
		<tag k="natural" v="wetland" />
		<tag k="ssr:stedsnr" v="526022" />
	</node>
	<node id="-262706" lat="60.3219111086" lon="11.4516388953">
		<tag k="name" v="Merramyra" />
		<tag k="natural" v="wetland" />
		<tag k="ssr:stedsnr" v="784746" />
	</node>
	<node id="-262705" lat="60.3248694433" lon="11.4510805625">
		<tag k="name" v="Dagfinnrudmyra" />
		<tag k="natural" v="wetland" />
		<tag k="ssr:stedsnr" v="784743" />
	</node>
	<node id="-262695" lat="60.0635527754" lon="11.7512611044">
		<tag k="name" v="Runnimyra" />
		<tag k="natural" v="wetland" />
		<tag k="ssr:stedsnr" v="916538" />
	</node>
	<node id="-262694" lat="60.074036114" lon="11.5573194506">
		<tag k="name" v="Vindmyra" />
		<tag k="natural" v="wetland" />
		<tag k="ssr:stedsnr" v="916532" />
	</node>
	<node id="-262693" lat="60.221313886" lon="11.386933335">
		<tag k="name" v="Grindermåsan" />
		<tag k="natural" v="wetland" />
		<tag k="ssr:stedsnr" v="916317" />
	</node>
	<node id="-263941" lat="60.040497223" lon="11.7162416595">
		<tag k="name" v="Gløttemyra" />
		<tag k="natural" v="wetland" />
		<tag k="ssr:stedsnr" v="655209" />
	</node>
	<node id="-262679" lat="60.0553750018" lon="11.7634638873">
		<tag k="name" v="Kvernmyra" />
		<tag k="natural" v="wetland" />
		<tag k="ssr:stedsnr" v="769867" />
	</node>
	<node id="-262677" lat="60.0565333338" lon="11.7301555529">
		<tag k="name" v="Bjønnmyra" />
		<tag k="natural" v="wetland" />
		<tag k="ssr:stedsnr" v="769907" />
	</node>
	<node id="-262675" lat="60.0412861078" lon="11.7775527763">
		<tag k="name" v="Hesteskomyra" />
		<tag k="natural" v="wetland" />
		<tag k="ssr:stedsnr" v="769717" />
	</node>
	<node id="-262674" lat="60.0359416631" lon="11.7681972269">
		<tag k="name" v="Mørkeholtet" />
		<tag k="old_name" v="Mørkeholtat" />
		<tag k="place" v="locality" />
		<tag k="ssr:stedsnr" v="769716" />
	</node>
	<node id="-262667" lat="60.0537138902" lon="11.5254583263">
		<tag k="name" v="Delemyrene" />
		<tag k="natural" v="wetland" />
		<tag k="ssr:stedsnr" v="769291" />
	</node>
	<node id="-262663" lat="60.0750583315" lon="11.4649972136">
		<tag k="name" v="Blekjemyra" />
		<tag k="natural" v="wetland" />
		<tag k="ssr:stedsnr" v="769054" />
	</node>
	<node id="-262662" lat="60.0025388919" lon="11.6606333373">
		<tag k="name" v="Krokmyra" />
		<tag k="natural" v="wetland" />
		<tag k="ssr:stedsnr" v="769003" />
	</node>
	<node id="-262661" lat="60.0553527777" lon="11.6166777867">
		<tag k="name" v="Stokkmyra" />
		<tag k="natural" v="wetland" />
		<tag k="ssr:stedsnr" v="768704" />
	</node>
	<node id="-262660" lat="60.047899997" lon="11.5646944483">
		<tag k="name" v="Askedalsmyra" />
		<tag k="natural" v="wetland" />
		<tag k="ssr:stedsnr" v="768272" />
	</node>
	<node id="-262656" lat="60.2276777799" lon="11.2853194524">
		<tag k="name" v="Høgmyra" />
		<tag k="natural" v="wetland" />
		<tag k="ssr:stedsnr" v="906042" />
	</node>
	<node id="-262653" lat="60.095255555" lon="11.669872215">
		<tag k="name" v="Hestekleivmyra" />
		<tag k="natural" v="wetland" />
		<tag k="ssr:stedsnr" v="905942" />
	</node>
	<node id="-262652" lat="60.0973166676" lon="11.6892361063">
		<tag k="name" v="Øvre Stallmyr" />
		<tag k="natural" v="wetland" />
		<tag k="ssr:stedsnr" v="905938" />
	</node>
	<node id="-262651" lat="60.2464500005" lon="11.437699994">
		<tag k="name" v="Flakamyrene" />
		<tag k="natural" v="wetland" />
		<tag k="ssr:stedsnr" v="905839" />
	</node>
	<node id="-262644" lat="60.0861611126" lon="11.7437027841">
		<tag k="name" v="Eiesetermyrene" />
		<tag k="natural" v="wetland" />
		<tag k="ssr:stedsnr" v="905639" />
	</node>
	<node id="-262643" lat="60.0846333308" lon="11.7380722298">
		<tag k="name" v="Grønnemyra" />
		<tag k="natural" v="wetland" />
		<tag k="ssr:stedsnr" v="905636" />
	</node>
	<node id="-262641" lat="60.0788305564" lon="11.7449472194">
		<tag k="name" v="Korsmyra" />
		<tag k="natural" v="wetland" />
		<tag k="ssr:stedsnr" v="905660" />
	</node>
	<node id="-262639" lat="60.3058472208" lon="11.4169416644">
		<tag k="name" v="Delemyra" />
		<tag k="natural" v="wetland" />
		<tag k="ssr:stedsnr" v="905546" />
	</node>
	<node id="-262638" lat="60.3172388871" lon="11.4287777827">
		<tag k="name" v="Hvitmåsamyra" />
		<tag k="natural" v="wetland" />
		<tag k="ssr:stedsnr" v="905545" />
	</node>
	<node id="-262637" lat="60.2931444419" lon="11.5257444489">
		<tag k="name" v="Blinkoppmyra" />
		<tag k="natural" v="wetland" />
		<tag k="ssr:stedsnr" v="905535" />
	</node>
	<node id="-262617" lat="60.0483694419" lon="11.6617361059">
		<tag k="name" v="Glesteinmyra" />
		<tag k="natural" v="wetland" />
		<tag k="ssr:stedsnr" v="899597" />
	</node>
	<node id="-262615" lat="60.032049996" lon="11.4915777749">
		<tag k="name" v="Langmåsan" />
		<tag k="natural" v="wetland" />
		<tag k="ssr:stedsnr" v="898801" />
	</node>
	<node id="-261546" lat="60.0664777745" lon="11.6646333295">
		<tag k="name" v="Hundtjennmåsan" />
		<tag k="natural" v="wetland" />
		<tag k="ssr:stedsnr" v="116307" />
	</node>
	<node id="-262611" lat="60.2625555545" lon="11.4713138872">
		<tag k="name" v="Sinaimyra" />
		<tag k="natural" v="wetland" />
		<tag k="ssr:stedsnr" v="723847" />
	</node>
	<node id="-262608" lat="60.2878916695" lon="11.4580999997">
		<tag k="name" v="Garsjømyra" />
		<tag k="natural" v="wetland" />
		<tag k="ssr:stedsnr" v="723606" />
	</node>
	<node id="-262606" lat="60.0862833306" lon="11.7164666727">
		<tag k="name" v="Torpmyrene" />
		<tag k="natural" v="wetland" />
		<tag k="ssr:stedsnr" v="723577" />
	</node>
	<node id="-262605" lat="60.0865555577" lon="11.7458777857">
		<tag k="historic" v="shieling" />
		<tag k="name" v="Eieseter" />
		<tag k="place" v="locality" />
		<tag k="ssr:stedsnr" v="723575" />
	</node>
	<node id="-262580" lat="60.0331138849" lon="11.5297555529">
		<tag k="name" v="Finntjennmåsan" />
		<tag k="natural" v="wetland" />
		<tag k="ssr:stedsnr" v="891822" />
	</node>
	<node id="-262579" lat="60.0649388864" lon="11.755941664">
		<tag k="alt_name" v="Skallermyra" />
		<tag k="name" v="Skallemyra" />
		<tag k="natural" v="wetland" />
		<tag k="ssr:stedsnr" v="891821" />
	</node>
	<node id="-262577" lat="60.0425833363" lon="11.6067583424">
		<tag k="name" v="Kjøltjennmyra" />
		<tag k="natural" v="wetland" />
		<tag k="ssr:stedsnr" v="891812" />
	</node>
	<node id="-262575" lat="60.0397416653" lon="11.6065166714">
		<tag k="name" v="Ristjennmåsan" />
		<tag k="natural" v="wetland" />
		<tag k="ssr:stedsnr" v="891808" />
	</node>
	<node id="-262573" lat="60.0293388855" lon="11.7971249916">
		<tag k="landuse" v="meadow" />
		<tag k="name" v="Løenga" />
		<tag k="ssr:stedsnr" v="891776" />
	</node>
	<node id="-262570" lat="60.0289777782" lon="11.8124277851">
		<tag k="name" v="Lisbethølet" />
		<tag k="natural" v="wetland" />
		<tag k="ssr:stedsnr" v="891757" />
	</node>
	<node id="-262569" lat="60.0358222214" lon="11.7712583367">
		<tag k="name" v="Bindelormhølet" />
		<tag k="natural" v="wetland" />
		<tag k="ssr:stedsnr" v="891723" />
	</node>
	<node id="-262563" lat="60.0670388924" lon="11.7108027756">
		<tag k="name" v="Takholtmyra" />
		<tag k="natural" v="wetland" />
		<tag k="ssr:stedsnr" v="891406" />
	</node>
	<node id="-262558" lat="60.1113777741" lon="11.6710333408">
		<tag k="name" v="Langtjennmyra" />
		<tag k="natural" v="wetland" />
		<tag k="ssr:stedsnr" v="891175" />
	</node>
	<node id="-262555" lat="60.1269111145" lon="11.6409805531">
		<tag k="name" v="Rundmyra" />
		<tag k="natural" v="wetland" />
		<tag k="ssr:stedsnr" v="891154" />
	</node>
	<node id="-262550" lat="60.0207916686" lon="11.6202638909">
		<tag k="name" v="Kløvsamyra" />
		<tag k="natural" v="wetland" />
		<tag k="ssr:stedsnr" v="891005" />
	</node>
	<node id="-262546" lat="60.0932083304" lon="11.5034777769">
		<tag k="name" v="Steindalsmyra" />
		<tag k="natural" v="wetland" />
		<tag k="ssr:stedsnr" v="890704" />
	</node>
	<node id="-262537" lat="60.0483944453" lon="11.431591661">
		<tag k="name" v="Fuglevindmåsan" />
		<tag k="natural" v="wetland" />
		<tag k="ssr:stedsnr" v="890291" />
	</node>
	<node id="-262536" lat="60.1613055541" lon="11.3539027786">
		<tag k="name" v="Grenitjennet" />
		<tag k="natural" v="wetland" />
		<tag k="ssr:stedsnr" v="890289" />
	</node>
	<node id="-262533" lat="60.1310194489" lon="11.5612416606">
		<tag k="name" v="Marihølet" />
		<tag k="natural" v="wetland" />
		<tag k="ssr:stedsnr" v="890063" />
	</node>
	<node id="-262531" lat="60.1174805582" lon="11.6023305483">
		<tag k="name" v="Sagmyra" />
		<tag k="natural" v="wetland" />
		<tag k="ssr:stedsnr" v="890047" />
	</node>
	<node id="-262530" lat="60.0237638905" lon="11.6737055501">
		<tag k="name" v="Ormehaugmyr" />
		<tag k="natural" v="wetland" />
		<tag k="ssr:stedsnr" v="890023" />
	</node>
	<node id="-262518" lat="60.1002805566" lon="11.6737333254">
		<tag k="name" v="Jordmyra" />
		<tag k="natural" v="wetland" />
		<tag k="ssr:stedsnr" v="662927" />
	</node>
	<node id="-262517" lat="60.2763861132" lon="11.4414638912">
		<tag k="name" v="Storholtet" />
		<tag k="place" v="locality" />
		<tag k="ssr:stedsnr" v="662906" />
	</node>
	<node id="-262508" lat="60.3284138899" lon="11.4262749993">
		<tag k="name" v="Middagsmyra" />
		<tag k="natural" v="wetland" />
		<tag k="ssr:stedsnr" v="662742" />
	</node>
	<node id="-262505" lat="60.0743083336" lon="11.6746138944">
		<tag k="name" v="Hvitmåsan" />
		<tag k="natural" v="wetland" />
		<tag k="ssr:stedsnr" v="662290" />
	</node>
	<node id="-262501" lat="60.2216222202" lon="11.5414944371">
		<tag k="name" v="Blinningsmyra" />
		<tag k="natural" v="wetland" />
		<tag k="ssr:stedsnr" v="662060" />
	</node>
	<node id="-262499" lat="60.1188472246" lon="11.6149694514">
		<tag k="name" v="Rallerudmyra" />
		<tag k="natural" v="wetland" />
		<tag k="ssr:stedsnr" v="662107" />
	</node>
	<node id="-262488" lat="60.0300500003" lon="11.5986916605">
		<tag k="name" v="Vålmyra" />
		<tag k="natural" v="wetland" />
		<tag k="ssr:stedsnr" v="734621" />
	</node>
	<node id="-262480" lat="60.0471249968" lon="11.6202138862">
		<tag k="name" v="Blåkollmyrene" />
		<tag k="natural" v="wetland" />
		<tag k="ssr:stedsnr" v="647716" />
	</node>
	<node id="-262467" lat="60.0816499999" lon="11.5075638954">
		<tag k="name" v="Fallmyra" />
		<tag k="natural" v="wetland" />
		<tag k="ssr:stedsnr" v="647102" />
	</node>
	<node id="-262465" lat="60.0792222265" lon="11.4638527701">
		<tag k="name" v="Trasoppmåsan" />
		<tag k="natural" v="wetland" />
		<tag k="ssr:stedsnr" v="647100" />
	</node>
	<node id="-262458" lat="60.0155972228" lon="11.6140555582">
		<tag k="name" v="Nilsemåsan" />
		<tag k="natural" v="wetland" />
		<tag k="ssr:stedsnr" v="647071" />
	</node>
	<node id="-262431" lat="60.076350004" lon="11.4794000022">
		<tag k="name" v="Vindmyra" />
		<tag k="natural" v="wetland" />
		<tag k="ssr:stedsnr" v="733459" />
	</node>
	<node id="-262189" lat="60.1377611106" lon="11.3387472178">
		<tag k="name" v="Røa" />
		<tag k="place" v="locality" />
		<tag k="ssr:stedsnr" v="673193" />
	</node>
	<node id="-262411" lat="60.2651888915" lon="11.3807638899">
		<tag k="name" v="Sagvangen" />
		<tag k="place" v="locality" />
		<tag k="ssr:stedsnr" v="723898" />
	</node>
	<node id="-262410" lat="60.2664833355" lon="11.4595861135">
		<tag k="name" v="Blekkjemyra" />
		<tag k="natural" v="wetland" />
		<tag k="ssr:stedsnr" v="723886" />
	</node>
	<node id="-262409" lat="60.2685833328" lon="11.460213892">
		<tag k="name" v="Steinmyrene" />
		<tag k="natural" v="wetland" />
		<tag k="ssr:stedsnr" v="723884" />
	</node>
	<node id="-262406" lat="60.2494083341" lon="11.5184694367">
		<tag k="name" v="Langmyra" />
		<tag k="natural" v="wetland" />
		<tag k="ssr:stedsnr" v="723800" />
	</node>
	<node id="-262405" lat="60.2631281361" lon="11.5093745396">
		<tag k="name" v="Kjerringmyra" />
		<tag k="natural" v="wetland" />
		<tag k="ssr:stedsnr" v="723795" />
	</node>
	<node id="-262403" lat="60.3286055535" lon="11.4354916754">
		<tag k="name" v="Høgemyra" />
		<tag k="natural" v="wetland" />
		<tag k="ssr:stedsnr" v="723735" />
	</node>
	<node id="-262397" lat="60.0895444429" lon="11.732688887">
		<tag k="name" v="Otermyra" />
		<tag k="natural" v="wetland" />
		<tag k="ssr:stedsnr" v="723509" />
	</node>
	<node id="-262390" lat="60.0740138902" lon="11.5850249965">
		<tag k="name" v="Slakteteigen" />
		<tag k="place" v="locality" />
		<tag k="ssr:stedsnr" v="723277" />
	</node>
	<node id="-262389" lat="60.0709305564" lon="11.6125555547">
		<tag k="name" v="Sovestein" />
		<tag k="natural" v="stone" />
		<tag k="ssr:stedsnr" v="723276" />
	</node>
	<node id="-262381" lat="60.245472218" lon="11.2741833295">
		<tag k="name" v="Søndre Setermyr" />
		<tag k="natural" v="wetland" />
		<tag k="ssr:stedsnr" v="723109" />
	</node>
	<node id="-262356" lat="60.2264972248" lon="11.4363444509">
		<tag k="name" v="Merramyra" />
		<tag k="natural" v="wetland" />
		<tag k="ssr:stedsnr" v="601967" />
	</node>
	<node id="-262354" lat="60.2513638859" lon="11.4265333282">
		<tag k="name" v="Kallholsmyra" />
		<tag k="natural" v="wetland" />
		<tag k="ssr:stedsnr" v="601824" />
	</node>
	<node id="-262351" lat="60.0869555549" lon="11.6977083402">
		<tag k="name" v="Skiltmyra" />
		<tag k="natural" v="wetland" />
		<tag k="ssr:stedsnr" v="601568" />
	</node>
	<node id="-262350" lat="60.212425003" lon="11.4463833306">
		<tag k="name" v="Rødløkmyra" />
		<tag k="natural" v="wetland" />
		<tag k="ssr:stedsnr" v="601557" />
	</node>
	<node id="-262338" lat="60.0256222184" lon="11.5774722159">
		<tag k="name" v="Bakhonmyra" />
		<tag k="natural" v="wetland" />
		<tag k="ssr:stedsnr" v="716794" />
	</node>
	<node id="-262336" lat="60.0483333325" lon="11.7042916676">
		<tag k="name" v="Romsjømyra" />
		<tag k="natural" v="wetland" />
		<tag k="ssr:stedsnr" v="595914" />
	</node>
	<node id="-262332" lat="60.0164555588" lon="11.7222166608">
		<tag k="loc_name" v="Lamsomyra" />
		<tag k="name" v="Lamsåmyra" />
		<tag k="natural" v="wetland" />
		<tag k="ssr:stedsnr" v="589708" />
	</node>
	<node id="-262330" lat="60.0361750024" lon="11.5794972251">
		<tag k="name" v="Duppifumyra" />
		<tag k="natural" v="wetland" />
		<tag k="ssr:stedsnr" v="587804" />
	</node>
	<node id="-264371" lat="60.1078083326" lon="11.6044277792">
		<tag k="name" v="Syltblekmyra" />
		<tag k="natural" v="wetland" />
		<tag k="ssr:stedsnr" v="966999" />
	</node>
	<node id="-264366" lat="60.2660194408" lon="11.3574083316">
		<tag k="name" v="Maurdalsmyra" />
		<tag k="natural" v="wetland" />
		<tag k="ssr:stedsnr" v="966929" />
	</node>
	<node id="-263603" lat="60.1534833315" lon="11.5833000079">
		<tag k="name" v="Knefallmåsan" />
		<tag k="natural" v="wetland" />
		<tag k="ssr:stedsnr" v="420162" />
	</node>
	<node id="-262314" lat="60.0442999956" lon="11.7650333348">
		<tag k="name" v="Symåsahølet" />
		<tag k="natural" v="wetland" />
		<tag k="ssr:stedsnr" v="708890" />
	</node>
	<node id="-264361" lat="60.0924861072" lon="11.7381305582">
		<tag k="name" v="Flasjømyra" />
		<tag k="natural" v="wetland" />
		<tag k="ssr:stedsnr" v="966648" />
	</node>
	<node id="-264360" lat="60.2736277819" lon="11.5764916647">
		<tag k="name" v="Storrhølet" />
		<tag k="natural" v="wetland" />
		<tag k="ssr:stedsnr" v="966635" />
	</node>
	<node id="-264359" lat="60.278183334" lon="11.5633194418">
		<tag k="loc_name" v="Tørrhardmyra" />
		<tag k="name" v="Tørrhalemyra" />
		<tag k="natural" v="wetland" />
		<tag k="ssr:stedsnr" v="966631" />
	</node>
	<node id="-264356" lat="60.0862444471" lon="11.7092333261">
		<tag k="name" v="Hesmyra" />
		<tag k="natural" v="wetland" />
		<tag k="ssr:stedsnr" v="966614" />
	</node>
	<node id="-264355" lat="60.0855361073" lon="11.7283638841">
		<tag k="name" v="Neverskrukka" />
		<tag k="natural" v="wetland" />
		<tag k="ssr:stedsnr" v="966608" />
	</node>
	<node id="-262305" lat="60.0299027777" lon="11.775897215">
		<tag k="name" v="Ulvemyra" />
		<tag k="natural" v="wetland" />
		<tag k="ssr:stedsnr" v="708749" />
	</node>
	<node id="-264352" lat="60.321169441" lon="11.4626861094">
		<tag k="name" v="Lønndalsmyra" />
		<tag k="natural" v="wetland" />
		<tag k="ssr:stedsnr" v="966748" />
	</node>
	<node id="-261829" lat="60.2341416666" lon="11.422586112">
		<tag k="name" v="Torvmyra" />
		<tag k="natural" v="wetland" />
		<tag k="ssr:stedsnr" v="298954" />
	</node>
	<node id="-264348" lat="60.0903138883" lon="11.7118694406">
		<tag k="name" v="Sølvgruvemyrene" />
		<tag k="natural" v="wetland" />
		<tag k="ssr:stedsnr" v="966543" />
	</node>
	<node id="-264346" lat="60.2024638849" lon="11.5553333384">
		<tag k="name" v="Holsmyra" />
		<tag k="natural" v="wetland" />
		<tag k="ssr:stedsnr" v="966463" />
	</node>
	<node id="-264345" lat="60.0799722207" lon="11.6508166616">
		<tag k="name" v="Seljedalsmyra" />
		<tag k="natural" v="wetland" />
		<tag k="ssr:stedsnr" v="966347" />
	</node>
	<node id="-264344" lat="60.0789027736" lon="11.6641444457">
		<tag k="name" v="Blåmyra" />
		<tag k="natural" v="wetland" />
		<tag k="ssr:stedsnr" v="966343" />
	</node>
	<node id="-264338" lat="60.2262916623" lon="11.2833833397">
		<tag k="name" v="Grønnputten" />
		<tag k="natural" v="wetland" />
		<tag k="ssr:stedsnr" v="966042" />
	</node>
	<node id="-264336" lat="60.2290666634" lon="11.4383583257">
		<tag k="name" v="Skjærmyra" />
		<tag k="natural" v="wetland" />
		<tag k="ssr:stedsnr" v="965981" />
	</node>
	<node id="-261826" lat="60.0618638934" lon="11.6697972177">
		<tag k="name" v="Askvaldstein" />
		<tag k="natural" v="stone" />
		<tag k="ssr:stedsnr" v="474928" />
	</node>
	<node id="-262280" lat="60.0188194405" lon="11.6729638834">
		<tag k="name" v="Tjernshaugmyr" />
		<tag k="natural" v="wetland" />
		<tag k="ssr:stedsnr" v="708032" />
	</node>
	<node id="-264320" lat="60.0267944444" lon="11.5730750063">
		<tag k="name" v="Bukkemåsan" />
		<tag k="natural" v="wetland" />
		<tag k="ssr:stedsnr" v="959803" />
	</node>
	<node id="-264319" lat="60.0257555523" lon="11.7152805624">
		<tag k="name" v="Brattlimyra" />
		<tag k="natural" v="wetland" />
		<tag k="ssr:stedsnr" v="959732" />
	</node>
	<node id="-264316" lat="60.049469442" lon="11.6580527742">
		<tag k="name" v="Stalldalsmyra" />
		<tag k="natural" v="wetland" />
		<tag k="ssr:stedsnr" v="959556" />
	</node>
	<node id="-262266" lat="60.0945972231" lon="11.7026694407">
		<tag k="name" v="Haukestokkmyra" />
		<tag k="natural" v="wetland" />
		<tag k="ssr:stedsnr" v="541648" />
	</node>
	<node id="-262265" lat="60.2883527822" lon="11.4451805495">
		<tag k="name" v="Vangmyra" />
		<tag k="natural" v="wetland" />
		<tag k="ssr:stedsnr" v="541647" />
	</node>
	<node id="-264312" lat="60.0185000045" lon="11.7393999976">
		<tag k="loc_name" v="Lavasomyra" />
		<tag k="name" v="Lavasåmyra" />
		<tag k="natural" v="wetland" />
		<tag k="ssr:stedsnr" v="953729" />
	</node>
	<node id="-262263" lat="60.2939638879" lon="11.4479166695">
		<tag k="name" v="Sjømyra" />
		<tag k="natural" v="wetland" />
		<tag k="ssr:stedsnr" v="541639" />
	</node>
	<node id="-262262" lat="60.101374999" lon="11.7029722301">
		<tag k="name" v="Kvehaugmyra" />
		<tag k="natural" v="wetland" />
		<tag k="ssr:stedsnr" v="541635" />
	</node>
	<node id="-262261" lat="60.0842333358" lon="11.7117472147">
		<tag k="name" v="Israelmåsan" />
>>>>>>> e1d4bc35ff8a6074a6f2e91616a996b547c36f15
		<tag k="natural" v="wetland" />
		<tag k="ssr:stedsnr" v="905545" />
	</node>
<<<<<<< HEAD
	<node lat="60.305847220789325" lon="11.416941664438303" id="-17164">
		<tag k="name" v="Delemyra" />
=======
	<node id="-262260" lat="60.08745278" lon="11.6301944434">
		<tag k="name" v="Børåsmyra" />
>>>>>>> e1d4bc35ff8a6074a6f2e91616a996b547c36f15
		<tag k="natural" v="wetland" />
		<tag k="ssr:stedsnr" v="905546" />
	</node>
<<<<<<< HEAD
	<node lat="60.08463333082139" lon="11.738072229766598" id="-17165">
		<tag k="name" v="Grønnemyra" />
=======
	<node id="-262258" lat="60.0773777803" lon="11.6587527757">
		<tag k="name" v="Åkermyra" />
>>>>>>> e1d4bc35ff8a6074a6f2e91616a996b547c36f15
		<tag k="natural" v="wetland" />
		<tag k="ssr:stedsnr" v="905636" />
	</node>
<<<<<<< HEAD
	<node lat="60.08616111260875" lon="11.743702784133623" id="-17166">
		<tag k="name" v="Eiesetermyrene" />
		<tag k="natural" v="wetland" />
		<tag k="ssr:stedsnr" v="905639" />
	</node>
	<node lat="60.24645000052533" lon="11.43769999395352" id="-17172">
		<tag k="name" v="Flakamyrene" />
=======
	<node id="-264305" lat="60.0287694464" lon="11.5970722269">
		<tag k="name" v="Nedre Vålmyr" />
		<tag k="natural" v="wetland" />
		<tag k="ssr:stedsnr" v="951822" />
	</node>
	<node id="-262256" lat="60.0785777806" lon="11.6762916747">
		<tag k="name" v="Klartjennmyra" />
>>>>>>> e1d4bc35ff8a6074a6f2e91616a996b547c36f15
		<tag k="natural" v="wetland" />
		<tag k="ssr:stedsnr" v="905839" />
	</node>
<<<<<<< HEAD
	<node lat="60.27761111361096" lon="11.377344451812709" id="-17173">
		<tag k="name" v="Gurimyra" />
=======
	<node id="-262255" lat="60.07173333" lon="11.6753777756">
		<tag k="name" v="Tjennslimåsan" />
>>>>>>> e1d4bc35ff8a6074a6f2e91616a996b547c36f15
		<tag k="natural" v="wetland" />
		<tag k="ssr:stedsnr" v="905905" />
	</node>
<<<<<<< HEAD
	<node lat="60.267625002919054" lon="11.450847216951546" id="-17175">
		<tag k="name" v="Vivangmyra" />
=======
	<node id="-262253" lat="60.08183889" lon="11.6179166609">
		<tag k="name" v="Akermyra" />
>>>>>>> e1d4bc35ff8a6074a6f2e91616a996b547c36f15
		<tag k="natural" v="wetland" />
		<tag k="ssr:stedsnr" v="905911" />
	</node>
<<<<<<< HEAD
	<node lat="60.281447222066134" lon="11.416080562942813" id="-17176">
		<tag k="name" v="Storrkilen" />
=======
	<node id="-264300" lat="60.0618583323" lon="11.5438916734">
		<tag k="name" v="Brattbergmåsan" />
>>>>>>> e1d4bc35ff8a6074a6f2e91616a996b547c36f15
		<tag k="natural" v="wetland" />
		<tag k="ssr:stedsnr" v="905917" />
	</node>
<<<<<<< HEAD
	<node lat="60.097316667613505" lon="11.6892361063171" id="-17177">
		<tag k="name" v="Øvre Stallmyr" />
=======
	<node id="-264299" lat="60.0479194408" lon="11.5816361186">
		<tag k="name" v="Vassausa" />
>>>>>>> e1d4bc35ff8a6074a6f2e91616a996b547c36f15
		<tag k="natural" v="wetland" />
		<tag k="ssr:stedsnr" v="905938" />
	</node>
<<<<<<< HEAD
	<node lat="60.09525555497788" lon="11.669872214982732" id="-17178">
		<tag k="name" v="Hestekleivmyra" />
=======
	<node id="-262250" lat="60.0303138869" lon="11.5150194441">
		<tag k="name" v="Høgmåsan" />
>>>>>>> e1d4bc35ff8a6074a6f2e91616a996b547c36f15
		<tag k="natural" v="wetland" />
		<tag k="ssr:stedsnr" v="905942" />
	</node>
<<<<<<< HEAD
	<node lat="60.227677779903885" lon="11.285319452370437" id="-17181">
		<tag k="name" v="Høgmyra" />
		<tag k="natural" v="wetland" />
		<tag k="ssr:stedsnr" v="906042" />
	</node>
	<node lat="60.055352777687794" lon="11.616677786685948" id="-17187">
		<tag k="name" v="Stokkmyra" />
=======
	<node id="-262249" lat="60.0679111147" lon="11.7382333383">
		<tag k="name" v="Villpostmyra" />
		<tag k="natural" v="wetland" />
		<tag k="ssr:stedsnr" v="529611" />
	</node>
	<node id="-264296" lat="60.0392472265" lon="11.7621166682">
		<tag k="name" v="Hundstadvangen" />
		<tag k="place" v="locality" />
		<tag k="ssr:stedsnr" v="951736" />
	</node>
	<node id="-264295" lat="60.0343222233" lon="11.7724611037">
		<tag k="name" v="Høgebrenna" />
		<tag k="place" v="locality" />
		<tag k="ssr:stedsnr" v="951730" />
	</node>
	<node id="-262245" lat="60.0292305564" lon="11.6269111103">
		<tag k="name" v="Rundmyra" />
>>>>>>> e1d4bc35ff8a6074a6f2e91616a996b547c36f15
		<tag k="natural" v="wetland" />
		<tag k="ssr:stedsnr" v="768704" />
	</node>
<<<<<<< HEAD
	<node lat="60.07505833153653" lon="11.464997213620883" id="-17189">
		<tag k="name" v="Blekjemyra" />
		<tag k="natural" v="wetland" />
		<tag k="ssr:stedsnr" v="769054" />
	</node>
	<node lat="60.108083333073125" lon="11.683725000845223" id="-17197">
		<tag k="name" v="Kumyra" />
		<tag k="natural" v="wetland" />
		<tag k="ssr:stedsnr" v="769533" />
	</node>
	<node lat="60.035941663064584" lon="11.768197226911989" id="-17200">
		<tag k="name" v="Mørkeholtet" />
		<tag k="old_name" v="Mørkeholtat" />
		<tag k="place" v="locality" />
		<tag k="ssr:stedsnr" v="769716" />
	</node>
	<node lat="60.04128610780232" lon="11.777552776274208" id="-17201">
		<tag k="name" v="Hesteskomyra" />
=======
	<node id="-262244" lat="60.0500805528" lon="11.814205547">
		<tag k="name" v="Nordre småmyrene" />
		<tag k="natural" v="wetland" />
		<tag k="ssr:stedsnr" v="526804" />
	</node>
	<node id="-262242" lat="60.1438277797" lon="11.6019638904">
		<tag k="name" v="Kistestein" />
		<tag k="natural" v="stone" />
		<tag k="ssr:stedsnr" v="526383" />
	</node>
	<node id="-264286" lat="60.0126805597" lon="11.748358335">
		<tag k="name" v="Tangemyra" />
		<tag k="natural" v="wetland" />
		<tag k="ssr:stedsnr" v="951096" />
	</node>
	<node id="-264284" lat="60.08209167" lon="11.5008916674">
		<tag k="name" v="Klingemåsan" />
		<tag k="natural" v="wetland" />
		<tag k="ssr:stedsnr" v="951077" />
	</node>
	<node id="-262234" lat="60.1122555598" lon="11.6799805497">
		<tag k="name" v="Slemdalsmyra" />
		<tag k="natural" v="wetland" />
		<tag k="ssr:stedsnr" v="526156" />
	</node>
	<node id="-262157" lat="60.1248944426" lon="11.5805722275">
		<tag k="name" v="Saumyra" />
		<tag k="natural" v="wetland" />
		<tag k="ssr:stedsnr" v="480003" />
	</node>
	<node id="-264268" lat="60.1330500032" lon="11.5649444383">
		<tag k="name" v="Knøllmyra" />
>>>>>>> e1d4bc35ff8a6074a6f2e91616a996b547c36f15
		<tag k="natural" v="wetland" />
		<tag k="ssr:stedsnr" v="769717" />
	</node>
<<<<<<< HEAD
	<node lat="60.04274166304809" lon="11.615177770501573" id="-17205">
		<tag k="name" v="Flinttjennmyra" />
=======
	<node id="-262217" lat="60.1346333369" lon="11.5431277737">
		<tag k="name" v="Vennevålsmyra" />
>>>>>>> e1d4bc35ff8a6074a6f2e91616a996b547c36f15
		<tag k="natural" v="wetland" />
		<tag k="ssr:stedsnr" v="769781" />
	</node>
<<<<<<< HEAD
	<node lat="60.05653333380874" lon="11.730155552880966" id="-17207">
		<tag k="name" v="Bjønnmyra" />
=======
	<node id="-262210" lat="60.0536000002" lon="11.642750008">
		<tag k="alt_name" v="Holemyra" />
		<tag k="name" v="Holomyra" />
>>>>>>> e1d4bc35ff8a6074a6f2e91616a996b547c36f15
		<tag k="natural" v="wetland" />
		<tag k="ssr:stedsnr" v="769907" />
	</node>
<<<<<<< HEAD
	<node lat="60.02666110923106" lon="11.435702779887704" id="-17209">
		<tag k="name" v="Høgmåsan" />
		<tag k="natural" v="wetland" />
		<tag k="ssr:stedsnr" v="769820" />
	</node>
	<node lat="60.03111944444306" lon="11.421380549090058" id="-17210">
		<tag k="name" v="Vestbymyra" />
		<tag k="natural" v="wetland" />
		<tag k="ssr:stedsnr" v="769822" />
	</node>
	<node lat="60.05537500179447" lon="11.763463887293414" id="-17212">
		<tag k="name" v="Kvernmyra" />
		<tag k="natural" v="wetland" />
		<tag k="ssr:stedsnr" v="769867" />
	</node>
	<node lat="60.014847221751936" lon="11.47382499215975" id="-17222">
		<tag k="name" v="Delmyra" />
=======
	<node id="-264253" lat="60.2098333324" lon="11.3171833406">
		<tag k="alt_name" v="Skøimåsan" />
		<tag k="name" v="Skøyimåsan" />
		<tag k="natural" v="wetland" />
		<tag k="ssr:stedsnr" v="855296" />
	</node>
	<node id="-262194" lat="60.159522219" lon="11.3344722232">
		<tag k="name" v="Grenimåsan" />
		<tag k="natural" v="wetland" />
		<tag k="ssr:stedsnr" v="673232" />
	</node>
	<node id="-264237" lat="60.0925527742" lon="11.5552333318">
		<tag k="name" v="Smallangsmyra" />
		<tag k="natural" v="wetland" />
		<tag k="ssr:stedsnr" v="845983" />
	</node>
	<node id="-263441" lat="60.0282000025" lon="11.7782666692">
		<tag k="name" v="Sandvangmyra" />
		<tag k="natural" v="wetland" />
		<tag k="ssr:stedsnr" v="344772" />
	</node>
	<node id="-264224" lat="60.2550833369" lon="11.5042833322">
		<tag k="name" v="Hagamyra" />
		<tag k="natural" v="wetland" />
		<tag k="ssr:stedsnr" v="845863" />
	</node>
	<node id="-261808" lat="60.2617222196" lon="11.3723222277">
		<tag k="name" v="Tobergsmyra" />
		<tag k="natural" v="wetland" />
		<tag k="ssr:stedsnr" v="299923" />
	</node>
	<node id="-264221" lat="60.2407888882" lon="11.5294999933">
		<tag k="name" v="Garsmyra" />
>>>>>>> e1d4bc35ff8a6074a6f2e91616a996b547c36f15
		<tag k="natural" v="wetland" />
		<tag k="ssr:stedsnr" v="784156" />
	</node>
<<<<<<< HEAD
	<node lat="60.243747224111566" lon="11.42738055093758" id="-17223">
		<tag k="name" v="Teljebrumyra" />
=======
	<node id="-264219" lat="60.3286666686" lon="11.4652972268">
		<tag k="name" v="Jonsokmyra" />
>>>>>>> e1d4bc35ff8a6074a6f2e91616a996b547c36f15
		<tag k="natural" v="wetland" />
		<tag k="ssr:stedsnr" v="784161" />
	</node>
<<<<<<< HEAD
	<node lat="60.08874722442547" lon="11.561575008336764" id="-17225">
		<tag k="alt_name" v="Gråbeinmyramyra" />
		<tag k="name" v="Gråbeinmyra" />
=======
	<node id="-264216" lat="60.3353444483" lon="11.4195944538">
		<tag k="name" v="Delrøysmyra" />
>>>>>>> e1d4bc35ff8a6074a6f2e91616a996b547c36f15
		<tag k="natural" v="wetland" />
		<tag k="ssr:stedsnr" v="784314" />
	</node>
<<<<<<< HEAD
	<node lat="60.07262777364963" lon="11.62851110455188" id="-17226">
		<tag k="name" v="Tolvhusmyra" />
=======
	<node id="-264215" lat="60.0774472256" lon="11.714911108">
		<tag k="name" v="Fugleleikmyrene" />
>>>>>>> e1d4bc35ff8a6074a6f2e91616a996b547c36f15
		<tag k="natural" v="wetland" />
		<tag k="ssr:stedsnr" v="784325" />
	</node>
<<<<<<< HEAD
	<node lat="60.07470000361309" lon="11.697694442417294" id="-17230">
		<tag k="name" v="Gudbrandmyra" />
=======
	<node id="-264214" lat="60.2885583292" lon="11.4628388866">
		<tag k="name" v="Torvmyra" />
>>>>>>> e1d4bc35ff8a6074a6f2e91616a996b547c36f15
		<tag k="natural" v="wetland" />
		<tag k="ssr:stedsnr" v="784628" />
	</node>
<<<<<<< HEAD
	<node lat="60.260533329740646" lon="11.466986105676233" id="-17239">
		<tag k="name" v="Andersholen" />
=======
	<node id="-264212" lat="60.1004694434" lon="11.7209277752">
		<tag k="historic" v="shieling" />
		<tag k="name" v="Funnisetervangen" />
>>>>>>> e1d4bc35ff8a6074a6f2e91616a996b547c36f15
		<tag k="place" v="locality" />
		<tag k="ssr:stedsnr" v="784859" />
	</node>
<<<<<<< HEAD
	<node lat="60.31139722651186" lon="11.499213897428994" id="-17241">
		<tag k="name" v="Steintjennmyra" />
=======
	<node id="-264210" lat="60.0879694427" lon="11.771158327">
		<tag k="name" v="Storemåsan" />
>>>>>>> e1d4bc35ff8a6074a6f2e91616a996b547c36f15
		<tag k="natural" v="wetland" />
		<tag k="ssr:stedsnr" v="784754" />
	</node>
<<<<<<< HEAD
	<node lat="60.06355277537616" lon="11.751261104371828" id="-17288">
		<tag k="name" v="Runnimyra" />
=======
	<node id="-264209" lat="60.0770722196" lon="11.7003527862">
		<tag k="name" v="Skakkemyra" />
>>>>>>> e1d4bc35ff8a6074a6f2e91616a996b547c36f15
		<tag k="natural" v="wetland" />
		<tag k="ssr:stedsnr" v="916538" />
	</node>
<<<<<<< HEAD
	<node lat="60.051786110151625" lon="11.607191663569036" id="-17290">
		<tag k="name" v="Bleikmyra" />
=======
	<node id="-262159" lat="60.1196111146" lon="11.5797611085">
		<tag k="name" v="Postmyra" />
>>>>>>> e1d4bc35ff8a6074a6f2e91616a996b547c36f15
		<tag k="natural" v="wetland" />
		<tag k="ssr:stedsnr" v="916558" />
	</node>
<<<<<<< HEAD
	<node lat="60.02238888543011" lon="11.695422224960273" id="-17304">
		<tag k="name" v="Gransmyra" />
		<tag k="natural" v="wetland" />
		<tag k="ssr:stedsnr" v="830189" />
	</node>
	<node lat="60.13199444782346" lon="11.577705558493527" id="-17306">
		<tag k="name" v="Røsåsmyra" />
		<tag k="natural" v="wetland" />
		<tag k="ssr:stedsnr" v="830323" />
	</node>
	<node lat="60.08178889225445" lon="11.690308339700348" id="-17309">
		<tag k="name" v="Delmyra" />
=======
	<node id="-264205" lat="60.3164333348" lon="11.4018611163">
		<tag k="name" v="Måsan" />
		<tag k="natural" v="wetland" />
		<tag k="ssr:stedsnr" v="845577" />
	</node>
	<node id="-264203" lat="60.2919000042" lon="11.4917527863">
		<tag k="name" v="Vangfjellet" />
		<tag k="place" v="locality" />
		<tag k="ssr:stedsnr" v="845557" />
	</node>
	<node id="-262152" lat="60.1863472189" lon="11.3434833271">
		<tag k="name" v="Aurstadmåsan" />
>>>>>>> e1d4bc35ff8a6074a6f2e91616a996b547c36f15
		<tag k="natural" v="wetland" />
		<tag k="ssr:stedsnr" v="830370" />
	</node>
<<<<<<< HEAD
	<node lat="60.03776666825696" lon="11.55022499344371" id="-17313">
		<tag k="name" v="Kjenslimåsan" />
=======
	<node id="-264198" lat="60.0771222242" lon="11.6274472295">
		<tag k="name" v="Høgmyra" />
>>>>>>> e1d4bc35ff8a6074a6f2e91616a996b547c36f15
		<tag k="natural" v="wetland" />
		<tag k="ssr:stedsnr" v="830817" />
	</node>
	<node lat="60.25166388660397" lon="11.289252773846833" id="-17321">
		<tag k="name" v="Selblekkmyra" />
		<tag k="natural" v="wetland" />
		<tag k="ssr:stedsnr" v="845104" />
	</node>
<<<<<<< HEAD
	<node lat="60.24235555702083" lon="11.429283334865007" id="-17325">
		<tag k="name" v="Tretterholen" />
		<tag k="place" v="locality" />
		<tag k="ssr:stedsnr" v="845177" />
	</node>
	<node lat="60.31643333476368" lon="11.40186111632392" id="-17332">
		<tag k="name" v="Måsan" />
		<tag k="natural" v="wetland" />
		<tag k="ssr:stedsnr" v="845577" />
	</node>
	<node lat="60.33534444825431" lon="11.419594453750877" id="-17335">
		<tag k="name" v="Delrøysmyra" />
=======
	<node id="-262145" lat="60.0450500041" lon="11.8129166743">
		<tag k="name" v="Søndre småmyrene" />
>>>>>>> e1d4bc35ff8a6074a6f2e91616a996b547c36f15
		<tag k="natural" v="wetland" />
		<tag k="ssr:stedsnr" v="845730" />
	</node>
<<<<<<< HEAD
	<node lat="60.328666668584724" lon="11.465297226832298" id="-17337">
		<tag k="name" v="Jonsokmyra" />
		<tag k="natural" v="wetland" />
		<tag k="ssr:stedsnr" v="845789" />
	</node>
	<node lat="60.20983333239671" lon="11.317183340648855" id="-17354">
		<tag k="alt_name" v="Skøimåsan" />
		<tag k="name" v="Skøyimåsan" />
		<tag k="natural" v="wetland" />
		<tag k="ssr:stedsnr" v="855296" />
	</node>
	<node lat="60.13305000320578" lon="11.564944438334743" id="-17359">
		<tag k="name" v="Knøllmyra" />
		<tag k="natural" v="wetland" />
		<tag k="ssr:stedsnr" v="855692" />
	</node>
	<node lat="60.057491669709826" lon="11.595141666459828" id="-17366">
		<tag k="name" v="Elgmyra" />
		<tag k="natural" v="wetland" />
		<tag k="ssr:stedsnr" v="856614" />
	</node>
	<node lat="60.02376389045486" lon="11.673705550073855" id="-17370">
		<tag k="name" v="Ormehaugmyr" />
		<tag k="natural" v="wetland" />
		<tag k="ssr:stedsnr" v="890023" />
	</node>
	<node lat="60.09320833036059" lon="11.50347777685595" id="-17373">
		<tag k="name" v="Steindalsmyra" />
		<tag k="natural" v="wetland" />
		<tag k="ssr:stedsnr" v="890704" />
	</node>
	<node lat="60.020791668600076" lon="11.620263890879984" id="-17375">
		<tag k="name" v="Kløvsamyra" />
		<tag k="natural" v="wetland" />
		<tag k="ssr:stedsnr" v="891005" />
	</node>
	<node lat="60.06703889244784" lon="11.710802775550144" id="-17379">
		<tag k="name" v="Takholtmyra" />
		<tag k="natural" v="wetland" />
		<tag k="ssr:stedsnr" v="891406" />
	</node>
	<node lat="60.03582222142357" lon="11.77125833671198" id="-17380">
		<tag k="name" v="Bindelormhølet" />
		<tag k="natural" v="wetland" />
		<tag k="ssr:stedsnr" v="891723" />
	</node>
	<node lat="60.02897777821956" lon="11.812427785138615" id="-17381">
		<tag k="name" v="Lisbethølet" />
		<tag k="natural" v="wetland" />
		<tag k="ssr:stedsnr" v="891757" />
	</node>
	<node lat="60.02933888549873" lon="11.797124991566992" id="-17384">
		<tag k="landuse" v="meadow" />
		<tag k="name" v="Løenga" />
		<tag k="ssr:stedsnr" v="891776" />
	</node>
	<node lat="60.039741665301484" lon="11.606516671397268" id="-17385">
		<tag k="name" v="Ristjennmåsan" />
		<tag k="natural" v="wetland" />
		<tag k="ssr:stedsnr" v="891808" />
	</node>
	<node lat="60.04258333633832" lon="11.606758342352183" id="-17387">
		<tag k="name" v="Kjøltjennmyra" />
		<tag k="natural" v="wetland" />
		<tag k="ssr:stedsnr" v="891812" />
	</node>
	<node lat="60.06493888638754" lon="11.755941663957591" id="-17389">
		<tag k="alt_name" v="Skallermyra" />
		<tag k="name" v="Skallemyra" />
		<tag k="natural" v="wetland" />
		<tag k="ssr:stedsnr" v="891821" />
	</node>
	<node lat="60.033113884894824" lon="11.52975555291545" id="-17390">
		<tag k="name" v="Finntjennmåsan" />
		<tag k="natural" v="wetland" />
		<tag k="ssr:stedsnr" v="891822" />
	</node>
	<node lat="60.11156666959611" lon="11.57947499947831" id="-17396">
		<tag k="name" v="Lindmyra" />
		<tag k="natural" v="wetland" />
		<tag k="ssr:stedsnr" v="905014" />
	</node>
	<node lat="60.072541667248224" lon="11.769538890031008" id="-17404">
		<tag k="name" v="Åkermyra" />
		<tag k="natural" v="wetland" />
		<tag k="ssr:stedsnr" v="905606" />
	</node>
	<node lat="60.078830556372594" lon="11.744947219396865" id="-17407">
		<tag k="name" v="Korsmyra" />
		<tag k="natural" v="wetland" />
		<tag k="ssr:stedsnr" v="905660" />
	</node>
	<node lat="60.25581110989189" lon="11.522705551771416" id="-17410">
		<tag k="name" v="Hyttemyra" />
		<tag k="natural" v="wetland" />
		<tag k="ssr:stedsnr" v="905823" />
	</node>
	<node lat="60.221313885971284" lon="11.386933335012314" id="-17426">
		<tag k="name" v="Grindermåsan" />
		<tag k="natural" v="wetland" />
		<tag k="ssr:stedsnr" v="916317" />
	</node>
	<node lat="60.07403611404714" lon="11.557319450637152" id="-17427">
		<tag k="name" v="Vindmyra" />
		<tag k="natural" v="wetland" />
		<tag k="ssr:stedsnr" v="916532" />
	</node>
	<node lat="60.037150000520285" lon="11.654274999185146" id="-17429">
		<tag k="name" v="Skøyimyra" />
		<tag k="natural" v="wetland" />
		<tag k="ssr:stedsnr" v="916575" />
	</node>
	<node lat="60.02040833268596" lon="11.642166658914778" id="-17441">
		<tag k="name" v="Tanga" />
		<tag k="place" v="locality" />
		<tag k="ssr:stedsnr" v="951026" />
	</node>
	<node lat="60.0178611089295" lon="11.66084444179613" id="-17442">
		<tag k="name" v="Tiurnabbmyr" />
		<tag k="natural" v="wetland" />
		<tag k="ssr:stedsnr" v="951027" />
	</node>
	<node lat="60.08209167002157" lon="11.500891667440627" id="-17443">
		<tag k="name" v="Klingemåsan" />
		<tag k="natural" v="wetland" />
		<tag k="ssr:stedsnr" v="951077" />
	</node>
	<node lat="60.01268055969455" lon="11.748358335003774" id="-17445">
		<tag k="name" v="Tangemyra" />
		<tag k="natural" v="wetland" />
		<tag k="ssr:stedsnr" v="951096" />
	</node>
	<node lat="60.03924722648557" lon="11.7621166681809" id="-17454">
		<tag k="name" v="Hundstadvangen" />
		<tag k="place" v="locality" />
		<tag k="ssr:stedsnr" v="951736" />
	</node>
	<node lat="60.06412778022238" lon="11.73518611782542" id="-17458">
		<tag k="name" v="Villpostmyra" />
		<tag k="natural" v="wetland" />
		<tag k="ssr:stedsnr" v="951909" />
	</node>
	<node lat="60.04791944075228" lon="11.581636118600855" id="-17461">
		<tag k="name" v="Vassausa" />
		<tag k="natural" v="wetland" />
		<tag k="ssr:stedsnr" v="951687" />
	</node>
	<node lat="60.06185833229598" lon="11.54389167336825" id="-17462">
		<tag k="name" v="Brattbergmåsan" />
		<tag k="natural" v="wetland" />
		<tag k="ssr:stedsnr" v="951701" />
	</node>
	<node lat="60.02239722612986" lon="11.636636114172447" id="-17463">
		<tag k="name" v="Delemyr" />
		<tag k="natural" v="wetland" />
		<tag k="ssr:stedsnr" v="951815" />
	</node>
	<node lat="60.02679444440511" lon="11.573075006317344" id="-17466">
		<tag k="name" v="Bukkemåsan" />
		<tag k="natural" v="wetland" />
		<tag k="ssr:stedsnr" v="959803" />
	</node>
	<node lat="60.240836107795744" lon="11.273319437845608" id="-17477">
		<tag k="name" v="Bergbråtamyrene" />
		<tag k="natural" v="wetland" />
		<tag k="ssr:stedsnr" v="966106" />
	</node>
	<node lat="60.09031388826798" lon="11.711869440561584" id="-17480">
		<tag k="name" v="Sølvgruvemyrene" />
		<tag k="natural" v="wetland" />
		<tag k="ssr:stedsnr" v="966543" />
	</node>
	<node lat="60.08553610730573" lon="11.728363884121471" id="-17483">
		<tag k="name" v="Neverskrukka" />
		<tag k="natural" v="wetland" />
		<tag k="ssr:stedsnr" v="966608" />
	</node>
	<node lat="60.273627781850756" lon="11.57649166471738" id="-17484">
		<tag k="name" v="Storrhølet" />
		<tag k="natural" v="wetland" />
		<tag k="ssr:stedsnr" v="966635" />
	</node>
	<node lat="60.09248610717786" lon="11.738130558200538" id="-17485">
		<tag k="name" v="Flasjømyra" />
		<tag k="natural" v="wetland" />
		<tag k="ssr:stedsnr" v="966648" />
	</node>
	<node lat="60.26601944082415" lon="11.357408331598505" id="-17489">
		<tag k="name" v="Maurdalsmyra" />
		<tag k="natural" v="wetland" />
		<tag k="ssr:stedsnr" v="966929" />
	</node>
	<node lat="60.10780833262612" lon="11.604427779162718" id="-17494">
		<tag k="name" v="Syltblekmyra" />
		<tag k="natural" v="wetland" />
		<tag k="ssr:stedsnr" v="966999" />
	</node>
	<node lat="60.08582777770954" lon="11.591774993482925" id="-17517">
		<tag k="name" v="Geitsvelta" />
		<tag k="natural" v="wetland" />
		<tag k="ssr:stedsnr" v="5715" />
	</node>
	<node lat="60.26908055550028" lon="11.431199997629045" id="-17529">
		<tag k="alt_name" v="Grindermyrene" />
		<tag k="name" v="Grindermyrane" />
		<tag k="natural" v="wetland" />
		<tag k="ssr:stedsnr" v="6210" />
	</node>
	<node lat="60.02217777486187" lon="11.505408342013054" id="-17535">
		<tag k="name" v="Tresjømåsan" />
		<tag k="natural" v="wetland" />
		<tag k="ssr:stedsnr" v="40039" />
	</node>
	<node lat="60.01902499787835" lon="11.6115611063518" id="-17537">
		<tag k="name" v="Delemåsan" />
		<tag k="natural" v="wetland" />
		<tag k="ssr:stedsnr" v="40051" />
	</node>
	<node lat="60.06782500398555" lon="11.455416672362086" id="-17548">
		<tag k="name" v="Korpmyra" />
		<tag k="natural" v="wetland" />
		<tag k="ssr:stedsnr" v="41051" />
	</node>
	<node lat="60.250602779567956" lon="11.268394436280133" id="-17575">
		<tag k="name" v="Øvre Setermyr" />
		<tag k="natural" v="wetland" />
		<tag k="ssr:stedsnr" v="55099" />
	</node>
	<node lat="60.23660832896779" lon="11.463866674076153" id="-17580">
		<tag k="historic" v="shieling" />
		<tag k="name" v="Vøyensetra" />
		<tag k="place" v="locality" />
		<tag k="ssr:stedsnr" v="55970" />
	</node>
	<node lat="60.08709722036684" lon="11.713619452102687" id="-17587">
		<tag k="name" v="Israelmyra" />
		<tag k="natural" v="wetland" />
		<tag k="ssr:stedsnr" v="56610" />
	</node>
	<node lat="60.28834166893581" lon="11.513213881891739" id="-17588">
		<tag k="name" v="Dammyra" />
		<tag k="natural" v="wetland" />
		<tag k="ssr:stedsnr" v="56542" />
	</node>
	<node lat="60.31264166641434" lon="11.416827769622078" id="-17589">
		<tag k="name" v="Holmyra" />
		<tag k="natural" v="wetland" />
		<tag k="ssr:stedsnr" v="56548" />
	</node>
	<node lat="60.284794441748424" lon="11.464744440702063" id="-17591">
		<tag k="name" v="Linnmyra" />
		<tag k="natural" v="wetland" />
		<tag k="ssr:stedsnr" v="56641" />
	</node>
	<node lat="60.30180277802899" lon="11.39436110437575" id="-17593">
		<tag k="name" v="Blåbærmyra" />
		<tag k="natural" v="wetland" />
		<tag k="ssr:stedsnr" v="56645" />
	</node>
	<node lat="60.26016388719909" lon="11.429661106094034" id="-17595">
		<tag k="name" v="Kroktjennholen" />
		<tag k="place" v="locality" />
		<tag k="ssr:stedsnr" v="56838" />
	</node>
	<node lat="60.25229166706465" lon="11.450224994714086" id="-17596">
		<tag k="name" v="Lågmyra" />
		<tag k="natural" v="wetland" />
		<tag k="ssr:stedsnr" v="56841" />
	</node>
	<node lat="60.25263611283663" lon="11.443852784070117" id="-17597">
		<tag k="name" v="Lyngholtet" />
		<tag k="place" v="locality" />
		<tag k="ssr:stedsnr" v="56843" />
	</node>
	<node lat="60.24800277721228" lon="11.572002784492032" id="-17600">
		<tag k="name" v="Vatningsmyra" />
		<tag k="natural" v="wetland" />
		<tag k="ssr:stedsnr" v="56939" />
	</node>
	<node lat="60.092027776154666" lon="11.69395000841306" id="-17602">
		<tag k="name" v="Gampmyra" />
		<tag k="natural" v="wetland" />
		<tag k="ssr:stedsnr" v="56943" />
	</node>
	<node lat="60.056072218476864" lon="11.748463886679785" id="-17629">
		<tag k="alt_name" v="Nordre Svarttjennsmyra;Søndre Svarttjennsmyra" />
		<tag k="name" v="Svarttjennsmyrene" />
		<tag k="natural" v="wetland" />
		<tag k="old_name" v="Svartelimyra" />
		<tag k="ssr:stedsnr" v="66522" />
=======
	<node id="-264196" lat="60.242355557" lon="11.4292833349">
		<tag k="name" v="Tretterholen" />
		<tag k="place" v="locality" />
		<tag k="ssr:stedsnr" v="845177" />
	</node>
	<node id="-264195" lat="60.0406555549" lon="11.4264611045">
		<tag k="name" v="Lintjennmåsan" />
		<tag k="natural" v="wetland" />
		<tag k="ssr:stedsnr" v="845173" />
	</node>
	<node id="-263851" lat="60.0533083306" lon="11.8183250014">
		<tag k="name" v="Vasketjennsmyra" />
		<tag k="natural" v="wetland" />
		<tag k="ssr:stedsnr" v="587808" />
>>>>>>> e1d4bc35ff8a6074a6f2e91616a996b547c36f15
	</node>
</osm>
