<?xml version="1.0" encoding="UTF-8"?>
<<<<<<< HEAD
<osm version="0.6" generator="osmapis">
	<node lat="60.28544722418275" lon="11.294452772280405" id="-16776">
		<tag k="fixme" v="consider boundary=protected_area and relevant protect_class if not nature reserve" />
		<tag k="leisure" v="nature_reserve" />
		<tag k="name" v="Vorma naturreservat" />
		<tag k="ssr:stedsnr" v="541010" />
	</node>
	<node lat="60.070466667986715" lon="11.729849992193449" id="-17050">
=======
<osm generator="osmapis" version="0.6">
	<node id="-264379" lat="60.2836211119" lon="11.5410731662">
		<tag k="fixme" v="consider boundary=protected_area and relevant protect_class if not nature reserve" />
		<tag k="leisure" v="nature_reserve" />
		<tag k="name" v="Ertsrudberget naturreservat" />
		<tag k="ssr:stedsnr" v="981237" />
	</node>
	<node id="-263672" lat="60.0812361138" lon="11.404683336">
		<tag k="fixme" v="consider boundary=protected_area and relevant protect_class if not nature reserve" />
		<tag k="leisure" v="nature_reserve" />
		<tag k="name" v="Beengen fuglefredningsområde" />
		<tag k="old_name" v="Bæengen naturreservat" />
		<tag k="ssr:stedsnr" v="525856" />
	</node>
	<node id="-262071" lat="60.1870055584" lon="11.3443249951">
		<tag k="fixme" v="consider boundary=protected_area and relevant protect_class if not nature reserve" />
		<tag k="leisure" v="nature_reserve" />
		<tag k="name" v="Aurstadmåsan naturreservat" />
		<tag k="ssr:stedsnr" v="662146" />
	</node>
	<node id="-264182" lat="60.1164527794" lon="11.5670944442">
>>>>>>> e1d4bc35ff8a6074a6f2e91616a996b547c36f15
		<tag k="fixme" v="consider boundary=protected_area and relevant protect_class if not nature reserve" />
		<tag k="leisure" v="nature_reserve" />
		<tag k="name" v="Hvitmåsan naturreservat" />
		<tag k="ssr:stedsnr" v="845016" />
	</node>
<<<<<<< HEAD
	<node lat="60.283621111941244" lon="11.541073166218906" id="-17501">
=======
	<node id="-261714" lat="60.1649055534" lon="11.3338083327">
		<tag k="fixme" v="consider boundary=protected_area and relevant protect_class if not nature reserve" />
		<tag k="leisure" v="nature_reserve" />
		<tag k="name" v="Grenimåsan naturreservat" />
		<tag k="ssr:stedsnr" v="298455" />
	</node>
	<node id="-261612" lat="60.1263861073" lon="11.5728388806">
>>>>>>> e1d4bc35ff8a6074a6f2e91616a996b547c36f15
		<tag k="fixme" v="consider boundary=protected_area and relevant protect_class if not nature reserve" />
		<tag k="leisure" v="nature_reserve" />
		<tag k="name" v="Vindmyra naturreservat" />
		<tag k="ssr:stedsnr" v="283047" />
	</node>
<<<<<<< HEAD
=======
	<node id="-262866" lat="60.1086182674" lon="11.5945023355">
		<tag k="fixme" v="consider boundary=protected_area and relevant protect_class if not nature reserve" />
		<tag k="leisure" v="nature_reserve" />
		<tag k="name" v="Trinborgholen naturminne" />
		<tag k="old_name" v="Trinborgholen naturreservat" />
		<tag k="ssr:stedsnr" v="966953" />
	</node>
	<node id="-262568" lat="60.070466668" lon="11.7298499922">
		<tag k="fixme" v="consider boundary=protected_area and relevant protect_class if not nature reserve" />
		<tag k="leisure" v="nature_reserve" />
		<tag k="name" v="Sakkhusmåsan naturreservat" />
		<tag k="ssr:stedsnr" v="891645" />
	</node>
	<node id="-263714" lat="60.2854472242" lon="11.2944527723">
		<tag k="fixme" v="consider boundary=protected_area and relevant protect_class if not nature reserve" />
		<tag k="leisure" v="nature_reserve" />
		<tag k="name" v="Vorma naturreservat" />
		<tag k="ssr:stedsnr" v="541010" />
	</node>
>>>>>>> e1d4bc35ff8a6074a6f2e91616a996b547c36f15
</osm>
