<?xml version="1.0" encoding="UTF-8"?>
<osm version="0.6" generator="osmapis">
	<node lat="60.062058335151995" lon="11.651572222027243" id="-15909">
		<tag k="name" v="Galteryggen" />
		<tag k="natural" v="ridge" />
		<tag k="place" v="locality" />
		<tag k="ssr:stedsnr" v="230553" />
	</node>
	<node lat="60.093633335661295" lon="11.688050009145435" id="-15913">
		<tag k="alt_name" v="Funnihøgda" />
		<tag k="name" v="Fundihøgda" />
		<tag k="natural" v="hill" />
		<tag k="place" v="locality" />
		<tag k="ssr:stedsnr" v="5708" />
	</node>
	<node lat="60.2734805574169" lon="11.552008331773399" id="-15923">
		<tag k="alt_name" v="Nes Høgås" />
		<tag k="fixme" v="consider natural=peak for the most distinct mountains in the district" />
		<tag k="name" v="Nesbu Høgåsen" />
		<tag k="natural" v="hill" />
		<tag k="place" v="locality" />
		<tag k="ssr:stedsnr" v="6583" />
	</node>
	<node lat="60.05146111167246" lon="11.709902770437669" id="-15931">
		<tag k="name" v="Kvernåsen" />
		<tag k="natural" v="hill" />
		<tag k="place" v="locality" />
		<tag k="ssr:stedsnr" v="230925" />
	</node>
	<node lat="60.03971111483281" lon="11.740369438953088" id="-15933">
		<tag k="fixme" v="consider natural=peak for the most distinct mountains in the district" />
		<tag k="name" v="Veslerabbillhaugen" />
		<tag k="natural" v="hill" />
		<tag k="place" v="locality" />
		<tag k="ssr:stedsnr" v="231218" />
	</node>
	<node lat="60.13019444370571" lon="11.5709555606382" id="-15936">
		<tag k="name" v="Hengekåpedalen" />
		<tag k="natural" v="valley" />
		<tag k="place" v="locality" />
		<tag k="ssr:stedsnr" v="40063" />
	</node>
	<node lat="60.01270000225359" lon="11.453119438093808" id="-15949">
		<tag k="name" v="Svarvestolen" />
		<tag k="place" v="locality" />
		<tag k="ssr:stedsnr" v="41467" />
	</node>
	<node lat="60.06508055415059" lon="11.728327784110002" id="-15957">
		<tag k="name" v="Sakkhusholtet" />
		<tag k="place" v="locality" />
		<tag k="ssr:stedsnr" v="41890" />
	</node>
	<node lat="60.20105833446332" lon="11.318566666467083" id="-15959">
		<tag k="fixme" v="consider natural=peak for the most distinct mountains in the district" />
		<tag k="name" v="Låveggsåsen" />
		<tag k="natural" v="hill" />
		<tag k="place" v="locality" />
		<tag k="ssr:stedsnr" v="237797" />
	</node>
	<node lat="60.235491665438985" lon="11.478436117146558" id="-15971">
		<tag k="name" v="Svarthaugen" />
		<tag k="natural" v="hill" />
		<tag k="place" v="locality" />
		<tag k="ssr:stedsnr" v="237971" />
	</node>
	<node lat="60.2307694422062" lon="11.271069440800774" id="-15975">
		<tag k="name" v="Sandakerporten" />
		<tag k="place" v="locality" />
		<tag k="ssr:stedsnr" v="238055" />
	</node>
	<node lat="60.22055555718952" lon="11.53664443791888" id="-15978">
		<tag k="name" v="Deldalen" />
		<tag k="natural" v="valley" />
		<tag k="place" v="locality" />
		<tag k="ssr:stedsnr" v="238066" />
	</node>
	<node lat="60.112658330903955" lon="11.616294438064122" id="-15979">
		<tag k="name" v="Bærdalen" />
		<tag k="natural" v="valley" />
		<tag k="place" v="locality" />
		<tag k="ssr:stedsnr" v="238068" />
	</node>
	<node lat="60.08176111557741" lon="11.63637777922012" id="-15988">
		<tag k="fixme" v="consider natural=peak for the most distinct mountains in the district" />
		<tag k="name" v="Svenskeberget" />
		<tag k="natural" v="hill" />
		<tag k="place" v="locality" />
		<tag k="ssr:stedsnr" v="238348" />
	</node>
	<node lat="60.30775277389279" lon="11.465277776824953" id="-15993">
		<tag k="name" v="Flekkebekkdalen" />
		<tag k="natural" v="valley" />
		<tag k="place" v="locality" />
		<tag k="ssr:stedsnr" v="238576" />
	</node>
	<node lat="60.31445277348699" lon="11.475600002967937" id="-15999">
		<tag k="name" v="Kjepphelvete" />
		<tag k="natural" v="valley" />
		<tag k="place" v="locality" />
		<tag k="ssr:stedsnr" v="238757" />
	</node>
	<node lat="60.10065277590591" lon="11.687313886529882" id="-16005">
		<tag k="name" v="Svarvestolen" />
		<tag k="natural" v="ridge" />
		<tag k="place" v="locality" />
		<tag k="ssr:stedsnr" v="238941" />
	</node>
	<node lat="60.12155833706226" lon="11.574277783032656" id="-16015">
		<tag k="name" v="Vindmyrdalen" />
		<tag k="natural" v="valley" />
		<tag k="place" v="locality" />
		<tag k="ssr:stedsnr" v="56004" />
	</node>
	<node lat="60.12647222308059" lon="11.588113883570665" id="-16017">
		<tag k="name" v="St. Hansberget" />
		<tag k="place" v="locality" />
		<tag k="ssr:stedsnr" v="56094" />
	</node>
	<node lat="60.06643333373022" lon="11.609702783306636" id="-16019">
		<tag k="name" v="Seterjenta" />
		<tag k="place" v="locality" />
		<tag k="ssr:stedsnr" v="56281" />
	</node>
	<node lat="60.074911108023706" lon="11.75718888554595" id="-16020">
		<tag k="fixme" v="consider natural=peak for the most distinct mountains in the district" />
		<tag k="name" v="Langtjennsåsen" />
		<tag k="natural" v="hill" />
		<tag k="place" v="locality" />
		<tag k="ssr:stedsnr" v="56617" />
	</node>
	<node lat="60.06642499817254" lon="11.539727769644326" id="-16044">
		<tag k="alt_name" v="Dragsjøhøgda" />
		<tag k="fixme" v="consider natural=peak for the most distinct mountains in the district" />
		<tag k="name" v="Dragsjøhaugen" />
		<tag k="natural" v="hill" />
		<tag k="place" v="locality" />
		<tag k="ssr:stedsnr" v="66497" />
	</node>
	<node lat="60.155422225028225" lon="11.529747215576203" id="-16045">
		<tag k="fixme" v="consider natural=peak for the most distinct mountains in the district" />
		<tag k="name" v="Folbergåsen" />
		<tag k="natural" v="hill" />
		<tag k="place" v="locality" />
		<tag k="ssr:stedsnr" v="66616" />
	</node>
	<node lat="60.15058333159588" lon="11.607019446272098" id="-16046">
		<tag k="name" v="Storalmåsdalen" />
		<tag k="natural" v="valley" />
		<tag k="place" v="locality" />
		<tag k="ssr:stedsnr" v="66625" />
	</node>
	<node lat="60.04892222531468" lon="11.761413887159145" id="-16076">
		<tag k="name" v="Grasdalen" />
		<tag k="natural" v="valley" />
		<tag k="place" v="locality" />
		<tag k="ssr:stedsnr" v="101906" />
	</node>
	<node lat="60.08568611274081" lon="11.67756945296724" id="-16084">
		<tag k="name" v="Revrompdalen" />
		<tag k="natural" v="valley" />
		<tag k="place" v="locality" />
		<tag k="ssr:stedsnr" v="102426" />
	</node>
	<node lat="60.08410277887699" lon="11.680766675652563" id="-16085">
		<tag k="name" v="Korsfløytlia" />
		<tag k="natural" v="slope" />
		<tag k="place" v="locality" />
		<tag k="ssr:stedsnr" v="102427" />
	</node>
	<node lat="60.04253888918299" lon="11.773958324382225" id="-16090">
		<tag k="fixme" v="consider natural=peak for the most distinct mountains in the district" />
		<tag k="name" v="Tutedalskampen" />
		<tag k="natural" v="hill" />
		<tag k="place" v="locality" />
		<tag k="ssr:stedsnr" v="102745" />
	</node>
	<node lat="60.061125000714796" lon="11.702624999752441" id="-16095">
		<tag k="name" v="Sprutberget" />
		<tag k="place" v="locality" />
		<tag k="ssr:stedsnr" v="102912" />
	</node>
	<node lat="60.28225277704659" lon="11.356280561399203" id="-16103">
		<tag k="fixme" v="consider natural=peak for the most distinct mountains in the district" />
		<tag k="name" v="Grasåsen" />
		<tag k="natural" v="hill" />
		<tag k="place" v="locality" />
		<tag k="ssr:stedsnr" v="249170" />
	</node>
	<node lat="60.252508336937424" lon="11.26568888899227" id="-16115">
		<tag k="name" v="Korpenebben" />
		<tag k="natural" v="hill" />
		<tag k="place" v="locality" />
		<tag k="ssr:stedsnr" v="116109" />
	</node>
	<node lat="60.217427774798516" lon="11.459558334448245" id="-16118">
		<tag k="name" v="Grushølet" />
		<tag k="place" v="locality" />
		<tag k="ssr:stedsnr" v="116608" />
	</node>
	<node lat="60.27210277779817" lon="11.584169448566804" id="-16120">
		<tag k="name" v="Østre Kølabudalen" />
		<tag k="natural" v="valley" />
		<tag k="place" v="locality" />
		<tag k="ssr:stedsnr" v="116620" />
	</node>
	<node lat="60.271752781651564" lon="11.570233333722355" id="-16121">
		<tag k="name" v="Aurbakken" />
		<tag k="natural" v="slope" />
		<tag k="place" v="locality" />
		<tag k="ssr:stedsnr" v="116624" />
	</node>
	<node lat="60.29639166966736" lon="11.475772231470993" id="-16122">
		<tag k="fixme" v="consider natural=peak for the most distinct mountains in the district" />
		<tag k="name" v="Storrkilberget" />
		<tag k="natural" v="hill" />
		<tag k="place" v="locality" />
		<tag k="ssr:stedsnr" v="116518" />
	</node>
	<node lat="60.09023611392366" lon="11.69184166737694" id="-16130">
		<tag k="name" v="Gampen" />
		<tag k="place" v="locality" />
		<tag k="ssr:stedsnr" v="116923" />
	</node>
	<node lat="60.292311108517794" lon="11.421841660703715" id="-16138">
		<tag k="fixme" v="consider natural=peak for the most distinct mountains in the district" />
		<tag k="name" v="Tjernslidalshøgda" />
		<tag k="natural" v="hill" />
		<tag k="place" v="locality" />
		<tag k="ssr:stedsnr" v="117621" />
	</node>
	<node lat="60.287783334457274" lon="11.437174994794868" id="-16139">
		<tag k="name" v="Østvanglia" />
		<tag k="natural" v="slope" />
		<tag k="place" v="locality" />
		<tag k="ssr:stedsnr" v="117624" />
	</node>
	<node lat="60.10969166682681" lon="11.365724994732686" id="-16143">
		<tag k="name" v="Knarten" />
		<tag k="natural" v="hill" />
		<tag k="place" v="locality" />
		<tag k="ssr:stedsnr" v="126113" />
	</node>
	<node lat="60.110194444513716" lon="11.660086117146559" id="-16174">
		<tag k="name" v="Bjørkelibakka" />
		<tag k="natural" v="slope" />
		<tag k="place" v="locality" />
		<tag k="ssr:stedsnr" v="162149" />
	</node>
	<node lat="60.051097224194635" lon="11.5795305504408" id="-16176">
		<tag k="name" v="Østhøgda" />
		<tag k="natural" v="hill" />
		<tag k="place" v="locality" />
		<tag k="ssr:stedsnr" v="162304" />
	</node>
	<node lat="60.04360000131861" lon="11.776975001945859" id="-16201">
		<tag k="name" v="Tutedalen" />
		<tag k="natural" v="valley" />
		<tag k="place" v="locality" />
		<tag k="ssr:stedsnr" v="162910" />
	</node>
	<node lat="60.05543333648713" lon="11.726038892765322" id="-16202">
		<tag k="name" v="Grønneluggen" />
		<tag k="natural" v="hill" />
		<tag k="place" v="locality" />
		<tag k="ssr:stedsnr" v="162921" />
	</node>
	<node lat="60.18627777761104" lon="11.374072230570428" id="-16209">
		<tag k="name" v="Tømmerdalen" />
		<tag k="natural" v="valley" />
		<tag k="place" v="locality" />
		<tag k="ssr:stedsnr" v="177028" />
	</node>
	<node lat="60.01566110944957" lon="11.478355563595661" id="-16215">
		<tag k="fixme" v="consider natural=peak for the most distinct mountains in the district" />
		<tag k="name" v="Bjønnhøgda" />
		<tag k="natural" v="hill" />
		<tag k="place" v="locality" />
		<tag k="ssr:stedsnr" v="177157" />
	</node>
	<node lat="60.081786109046114" lon="11.590058329244435" id="-16220">
		<tag k="name" v="Geitsveltdalen" />
		<tag k="natural" v="valley" />
		<tag k="place" v="locality" />
		<tag k="ssr:stedsnr" v="177324" />
	</node>
	<node lat="60.31873888874654" lon="11.435624998019648" id="-16230">
		<tag k="name" v="Grønndalen" />
		<tag k="natural" v="valley" />
		<tag k="place" v="locality" />
		<tag k="ssr:stedsnr" v="177760" />
	</node>
	<node lat="60.23019999827769" lon="11.421499995401623" id="-16252">
		<tag k="alt_name" v="Mysudalshøgda" />
		<tag k="name" v="Mysedalshøgda" />
		<tag k="natural" v="hill" />
		<tag k="place" v="locality" />
		<tag k="ssr:stedsnr" v="187296" />
	</node>
	<node lat="60.14628258555095" lon="11.371403956950537" id="-16270">
		<tag k="fixme" v="consider natural=peak for the most distinct mountains in the district" />
		<tag k="name" v="Tesiåsen" />
		<tag k="natural" v="hill" />
		<tag k="place" v="locality" />
		<tag k="ssr:stedsnr" v="188197" />
	</node>
	<node lat="60.05681388922959" lon="11.610972223175674" id="-16273">
		<tag k="name" v="Matrikkelhaugen" />
		<tag k="natural" v="hill" />
		<tag k="place" v="locality" />
		<tag k="ssr:stedsnr" v="188624" />
	</node>
	<node lat="60.05476666939989" lon="11.605422227808903" id="-16288">
		<tag k="fixme" v="consider natural=peak for the most distinct mountains in the district" />
		<tag k="name" v="Våla" />
		<tag k="natural" v="hill" />
		<tag k="place" v="locality" />
		<tag k="ssr:stedsnr" v="222670" />
	</node>
	<node lat="60.01586388953776" lon="11.660522213983773" id="-16290">
		<tag k="name" v="Tiurnabben" />
		<tag k="natural" v="hill" />
		<tag k="place" v="locality" />
		<tag k="ssr:stedsnr" v="223024" />
	</node>
	<node lat="60.157033334734486" lon="11.443038884223762" id="-16297">
		<tag k="name" v="Vingersdalen" />
		<tag k="natural" v="valley" />
		<tag k="place" v="locality" />
		<tag k="ssr:stedsnr" v="223329" />
	</node>
	<node lat="60.14985833494323" lon="11.570113894393394" id="-16298">
		<tag k="name" v="Knefallmåsadalen" />
		<tag k="natural" v="valley" />
		<tag k="place" v="locality" />
		<tag k="ssr:stedsnr" v="223380" />
	</node>
	<node lat="60.034580552046165" lon="11.567288891737933" id="-16301">
		<tag k="fixme" v="consider natural=peak for the most distinct mountains in the district" />
		<tag k="name" v="Brennhaugen" />
		<tag k="natural" v="hill" />
		<tag k="place" v="locality" />
		<tag k="ssr:stedsnr" v="223830" />
	</node>
	<node lat="60.06404444861023" lon="11.659658340621533" id="-16314">
		<tag k="name" v="Bruhaugen" />
		<tag k="natural" v="hill" />
		<tag k="place" v="locality" />
		<tag k="ssr:stedsnr" v="231931" />
	</node>
	<node lat="60.32203333388446" lon="11.459255556585681" id="-16336">
		<tag k="name" v="Vasshellene" />
		<tag k="place" v="locality" />
		<tag k="ssr:stedsnr" v="238737" />
	</node>
	<node lat="60.06484444775939" lon="11.453919451475002" id="-16342">
		<tag k="fixme" v="consider natural=peak for the most distinct mountains in the district" />
		<tag k="name" v="Korpåsen" />
		<tag k="natural" v="hill" />
		<tag k="place" v="locality" />
		<tag k="ssr:stedsnr" v="248058" />
	</node>
	<node lat="60.14317777784973" lon="11.529850004395511" id="-16361">
		<tag k="fixme" v="consider natural=peak for the most distinct mountains in the district" />
		<tag k="name" v="Skøyenåsen" />
		<tag k="natural" v="hill" />
		<tag k="place" v="locality" />
		<tag k="ssr:stedsnr" v="248660" />
	</node>
	<node lat="60.05645277795168" lon="11.778055550936953" id="-16374">
		<tag k="name" v="Eikestøhølet" />
		<tag k="place" v="locality" />
		<tag k="ssr:stedsnr" v="284897" />
	</node>
	<node lat="60.1200138859249" lon="11.553852780657438" id="-16386">
		<tag k="name" v="Knatten" />
		<tag k="natural" v="hill" />
		<tag k="place" v="locality" />
		<tag k="ssr:stedsnr" v="298010" />
	</node>
	<node lat="60.225961112609134" lon="11.5274000075071" id="-16387">
		<tag k="fixme" v="consider natural=peak for the most distinct mountains in the district" />
		<tag k="name" v="Sagåsen" />
		<tag k="natural" v="hill" />
		<tag k="place" v="locality" />
		<tag k="ssr:stedsnr" v="298103" />
	</node>
	<node lat="60.0734055598672" lon="11.746705550409253" id="-16391">
		<tag k="name" v="Delmyrlia" />
		<tag k="natural" v="slope" />
		<tag k="place" v="locality" />
		<tag k="ssr:stedsnr" v="298606" />
	</node>
	<node lat="60.27787222588425" lon="11.535130551538273" id="-16396">
		<tag k="name" v="Skomakerdalen" />
		<tag k="natural" v="valley" />
		<tag k="place" v="locality" />
		<tag k="ssr:stedsnr" v="298599" />
	</node>
	<node lat="60.265780551688046" lon="11.419102773252378" id="-16400">
		<tag k="name" v="Vasshelldalen" />
		<tag k="natural" v="valley" />
		<tag k="place" v="locality" />
		<tag k="ssr:stedsnr" v="298882" />
	</node>
	<node lat="60.04525555156655" lon="11.576002779410958" id="-16420">
		<tag k="fixme" v="consider natural=peak for the most distinct mountains in the district" />
		<tag k="name" v="Skipsteinshøgda" />
		<tag k="natural" v="hill" />
		<tag k="place" v="locality" />
		<tag k="ssr:stedsnr" v="465293" />
	</node>
	<node lat="60.13328889055344" lon="11.597491674289596" id="-16423">
		<tag k="name" v="Tjæregravåsen" />
		<tag k="natural" v="hill" />
		<tag k="place" v="locality" />
		<tag k="ssr:stedsnr" v="465363" />
	</node>
	<node lat="60.15293596020008" lon="11.572264365689042" id="-16433">
		<tag k="fixme" v="consider natural=peak for the most distinct mountains in the district" />
		<tag k="name" v="Knefallmåsaberget" />
		<tag k="natural" v="hill" />
		<tag k="old_name" v="Knefalimosaberget;Knefalimåsaberget" />
		<tag k="place" v="locality" />
		<tag k="ssr:stedsnr" v="308614" />
	</node>
	<node lat="60.227236114844565" lon="11.455252774561512" id="-16439">
		<tag k="name" v="Vøyenhøgda" />
		<tag k="natural" v="hill" />
		<tag k="place" v="locality" />
		<tag k="ssr:stedsnr" v="309338" />
	</node>
	<node lat="60.1106888866963" lon="11.65389722384831" id="-16456">
		<tag k="name" v="Festninga" />
		<tag k="natural" v="ridge" />
		<tag k="place" v="locality" />
		<tag k="ssr:stedsnr" v="466153" />
	</node>
	<node lat="60.072122220021825" lon="11.67961666036132" id="-16462">
		<tag k="name" v="Bjørnhi" />
		<tag k="place" v="locality" />
		<tag k="ssr:stedsnr" v="466412" />
	</node>
	<node lat="60.07451110882328" lon="11.692933339959477" id="-16463">
		<tag k="name" v="Puttdalen" />
		<tag k="natural" v="valley" />
		<tag k="place" v="locality" />
		<tag k="ssr:stedsnr" v="466415" />
	</node>
	<node lat="60.06449444856241" lon="11.55572222324192" id="-16465">
		<tag k="name" v="Slettfjellet" />
		<tag k="natural" v="hill" />
		<tag k="place" v="locality" />
		<tag k="ssr:stedsnr" v="466693" />
	</node>
	<node lat="60.023511110923955" lon="11.548750005540546" id="-16475">
		<tag k="fixme" v="consider natural=peak for the most distinct mountains in the district" />
		<tag k="name" v="Øysjøhøgda" />
		<tag k="natural" v="hill" />
		<tag k="place" v="locality" />
		<tag k="ssr:stedsnr" v="344047" />
	</node>
	<node lat="60.12909721933489" lon="11.576577770169475" id="-16476">
		<tag k="name" v="Langholen" />
		<tag k="natural" v="ridge" />
		<tag k="place" v="locality" />
		<tag k="ssr:stedsnr" v="344048" />
	</node>
	<node lat="60.12271666847756" lon="11.613816673211279" id="-16478">
		<tag k="name" v="Damhaug" />
		<tag k="natural" v="hill" />
		<tag k="place" v="locality" />
		<tag k="ssr:stedsnr" v="344094" />
	</node>
	<node lat="60.02767778017223" lon="11.821113880899926" id="-16488">
		<tag k="fixme" v="consider natural=peak for the most distinct mountains in the district" />
		<tag k="name" v="Høgåsen" />
		<tag k="natural" v="hill" />
		<tag k="old_name" v="Raudmyrkollen" />
		<tag k="place" v="locality" />
		<tag k="ssr:stedsnr" v="344619" />
	</node>
	<node lat="60.04797777866608" lon="11.592455548914131" id="-16494">
		<tag k="name" v="Kjøltjennlia" />
		<tag k="natural" v="slope" />
		<tag k="place" v="locality" />
		<tag k="ssr:stedsnr" v="344718" />
	</node>
	<node lat="60.06354444724311" lon="11.69636944530038" id="-16501">
		<tag k="name" v="Kavlebrudalen" />
		<tag k="natural" v="valley" />
		<tag k="place" v="locality" />
		<tag k="ssr:stedsnr" v="344906" />
	</node>
	<node lat="60.06554722144624" lon="11.593563887174934" id="-16506">
		<tag k="name" v="Sittarfjøla" />
		<tag k="place" v="locality" />
		<tag k="ssr:stedsnr" v="352563" />
	</node>
	<node lat="60.07488888472153" lon="11.655658328960726" id="-16517">
		<tag k="name" v="Gravdalslia" />
		<tag k="natural" v="slope" />
		<tag k="place" v="locality" />
		<tag k="ssr:stedsnr" v="359324" />
	</node>
	<node lat="60.06898333264596" lon="11.668305551640817" id="-16518">
		<tag k="name" v="Sletta" />
		<tag k="place" v="locality" />
		<tag k="ssr:stedsnr" v="359356" />
	</node>
	<node lat="60.30679722517866" lon="11.440783342516097" id="-16523">
		<tag k="name" v="Hvamslia" />
		<tag k="natural" v="slope" />
		<tag k="place" v="locality" />
		<tag k="ssr:stedsnr" v="359556" />
	</node>
	<node lat="60.249111114477" lon="11.265780559038165" id="-16559">
		<tag k="name" v="Vardehøgddalen" />
		<tag k="natural" v="valley" />
		<tag k="place" v="locality" />
		<tag k="ssr:stedsnr" v="480087" />
	</node>
	<node lat="60.112622221474886" lon="11.634508332958495" id="-16562">
		<tag k="name" v="Brattberget" />
		<tag k="natural" v="cliff" />
		<tag k="ssr:stedsnr" v="480100" />
	</node>
	<node lat="60.08651944398085" lon="11.583666662672664" id="-16567">
		<tag k="name" v="Deledalen" />
		<tag k="natural" v="valley" />
		<tag k="place" v="locality" />
		<tag k="ssr:stedsnr" v="480287" />
	</node>
	<node lat="60.06793055801653" lon="11.679455548122096" id="-16568">
		<tag k="name" v="Hesteskodalen" />
		<tag k="natural" v="valley" />
		<tag k="place" v="locality" />
		<tag k="ssr:stedsnr" v="480293" />
	</node>
	<node lat="60.09210833503027" lon="11.710163897187014" id="-16572">
		<tag k="name" v="Grevlingberget" />
		<tag k="natural" v="hill" />
		<tag k="place" v="locality" />
		<tag k="ssr:stedsnr" v="480521" />
	</node>
	<node lat="60.21224444875601" lon="11.439166672791158" id="-16575">
		<tag k="fixme" v="consider natural=peak for the most distinct mountains in the district" />
		<tag k="name" v="Rødløkhøgda" />
		<tag k="natural" v="hill" />
		<tag k="place" v="locality" />
		<tag k="ssr:stedsnr" v="480599" />
	</node>
	<node lat="60.29823055951237" lon="11.417972218642282" id="-16577">
		<tag k="name" v="Traudalen" />
		<tag k="natural" v="valley" />
		<tag k="place" v="locality" />
		<tag k="ssr:stedsnr" v="480635" />
	</node>
	<node lat="60.32066388992608" lon="11.429630560039742" id="-16580">
		<tag k="name" v="Styggmannsberget" />
		<tag k="natural" v="hill" />
		<tag k="place" v="locality" />
		<tag k="ssr:stedsnr" v="480745" />
	</node>
	<node lat="60.30827777439842" lon="11.497763885517971" id="-16581">
		<tag k="name" v="Lønndalshøgda" />
		<tag k="natural" v="hill" />
		<tag k="place" v="locality" />
		<tag k="ssr:stedsnr" v="480746" />
	</node>
	<node lat="60.25606389006647" lon="11.461986113500826" id="-16587">
		<tag k="name" v="Kjusvållia" />
		<tag k="natural" v="slope" />
		<tag k="place" v="locality" />
		<tag k="ssr:stedsnr" v="480842" />
	</node>
	<node lat="60.04956111009457" lon="11.566513884202156" id="-16597">
		<tag k="name" v="Askedalen" />
		<tag k="natural" v="valley" />
		<tag k="place" v="locality" />
		<tag k="ssr:stedsnr" v="404291" />
	</node>
	<node lat="60.14381110678147" lon="11.607402784214424" id="-16605">
		<tag k="name" v="Svarttjernhøgda" />
		<tag k="natural" v="hill" />
		<tag k="place" v="locality" />
		<tag k="ssr:stedsnr" v="405386" />
	</node>
	<node lat="60.007327777766314" lon="11.431391674280233" id="-16607">
		<tag k="name" v="Nybrudalen" />
		<tag k="natural" v="valley" />
		<tag k="place" v="locality" />
		<tag k="ssr:stedsnr" v="405492" />
	</node>
	<node lat="60.06313490624864" lon="11.738771786641362" id="-16613">
		<tag k="fixme" v="consider natural=peak for the most distinct mountains in the district" />
		<tag k="name" v="Høgeberget" />
		<tag k="natural" v="hill" />
		<tag k="place" v="locality" />
		<tag k="ssr:stedsnr" v="405918" />
	</node>
	<node lat="60.03584444676712" lon="11.647152776618189" id="-16616">
		<tag k="fixme" v="consider natural=peak for the most distinct mountains in the district" />
		<tag k="name" v="Steinhaugen" />
		<tag k="natural" v="hill" />
		<tag k="place" v="locality" />
		<tag k="ssr:stedsnr" v="405802" />
	</node>
	<node lat="60.073172218696584" lon="11.673408339095634" id="-16624">
		<tag k="name" v="Tjennslimåsaberget" />
		<tag k="natural" v="hill" />
		<tag k="place" v="locality" />
		<tag k="ssr:stedsnr" v="420310" />
	</node>
	<node lat="60.08371389093113" lon="11.735713886755592" id="-16632">
		<tag k="name" v="Helvete" />
		<tag k="place" v="locality" />
		<tag k="ssr:stedsnr" v="420646" />
	</node>
	<node lat="60.10060555171109" lon="11.611183326348602" id="-16638">
		<tag k="name" v="Gørtjennlia" />
		<tag k="natural" v="slope" />
		<tag k="place" v="locality" />
		<tag k="ssr:stedsnr" v="420999" />
	</node>
	<node lat="60.19308333352776" lon="11.428161108253828" id="-16645">
		<tag k="fixme" v="consider natural=peak for the most distinct mountains in the district" />
		<tag k="name" v="Kjåsberget" />
		<tag k="natural" v="hill" />
		<tag k="place" v="locality" />
		<tag k="ssr:stedsnr" v="490254" />
	</node>
	<node lat="60.18032777787955" lon="11.540933330651807" id="-16691">
		<tag k="fixme" v="consider natural=peak for the most distinct mountains in the district" />
		<tag k="name" v="Hebergåsen" />
		<tag k="natural" v="hill" />
		<tag k="place" v="locality" />
		<tag k="ssr:stedsnr" v="491805" />
	</node>
	<node lat="60.052683329722065" lon="11.588872226990532" id="-16695">
		<tag k="name" v="Bjønnhi" />
		<tag k="place" v="locality" />
		<tag k="ssr:stedsnr" v="492532" />
	</node>
	<node lat="60.231741670300785" lon="11.449177779045746" id="-16715">
		<tag k="fixme" v="consider natural=peak for the most distinct mountains in the district" />
		<tag k="name" v="Lindberget" />
		<tag k="natural" v="hill" />
		<tag k="place" v="locality" />
		<tag k="ssr:stedsnr" v="673351" />
	</node>
	<node lat="60.01808610880111" lon="11.524911117508307" id="-16720">
		<tag k="fixme" v="consider natural=peak for the most distinct mountains in the district" />
		<tag k="name" v="Tyvknattane" />
		<tag k="natural" v="hill" />
		<tag k="place" v="locality" />
		<tag k="ssr:stedsnr" v="673583" />
	</node>
	<node lat="60.05559721894835" lon="11.622394438158095" id="-16734">
		<tag k="fixme" v="consider natural=peak for the most distinct mountains in the district" />
		<tag k="name" v="Bårsliknatten" />
		<tag k="natural" v="hill" />
		<tag k="place" v="locality" />
		<tag k="ssr:stedsnr" v="674576" />
	</node>
	<node lat="60.03798889084489" lon="11.770755546863244" id="-16750">
		<tag k="name" v="Hvileberget" />
		<tag k="natural" v="slope" />
		<tag k="place" v="locality" />
		<tag k="ssr:stedsnr" v="465713" />
	</node>
	<node lat="60.03297221968669" lon="11.613147213585346" id="-16752">
		<tag k="fixme" v="consider natural=peak for the most distinct mountains in the district" />
		<tag k="name" v="Skvalerhaugen" />
		<tag k="natural" v="hill" />
		<tag k="place" v="locality" />
		<tag k="ssr:stedsnr" v="465814" />
	</node>
	<node lat="60.06449722559517" lon="11.71294721851414" id="-16755">
		<tag k="name" v="Statenslia" />
		<tag k="natural" v="slope" />
		<tag k="place" v="locality" />
		<tag k="ssr:stedsnr" v="465903" />
	</node>
	<node lat="60.1292611146849" lon="11.584263884771065" id="-16757">
		<tag k="name" v="Kleivdalen" />
		<tag k="natural" v="valley" />
		<tag k="place" v="locality" />
		<tag k="ssr:stedsnr" v="466103" />
	</node>
	<node lat="60.145516666318095" lon="11.63449167453034" id="-16759">
		<tag k="name" v="Almåslia" />
		<tag k="natural" v="slope" />
		<tag k="place" v="locality" />
		<tag k="ssr:stedsnr" v="466160" />
	</node>
	<node lat="60.030474999073114" lon="11.723388883515604" id="-16763">
		<tag k="name" v="Skåbombakka" />
		<tag k="natural" v="slope" />
		<tag k="place" v="locality" />
		<tag k="ssr:stedsnr" v="468674" />
	</node>
	<node lat="60.04727500436674" lon="11.6612361059631" id="-16765">
		<tag k="name" v="Glesteinlia" />
		<tag k="natural" v="slope" />
		<tag k="place" v="locality" />
		<tag k="ssr:stedsnr" v="474602" />
	</node>
	<node lat="60.33712222010911" lon="11.437883325407295" id="-16781">
		<tag k="name" v="Murukollen" />
		<tag k="natural" v="hill" />
		<tag k="place" v="locality" />
		<tag k="ssr:stedsnr" v="480715" />
	</node>
	<node lat="60.23610833649842" lon="11.43498055388026" id="-16790">
		<tag k="name" v="Kollbakken" />
		<tag k="natural" v="hill" />
		<tag k="place" v="locality" />
		<tag k="ssr:stedsnr" v="480982" />
	</node>
	<node lat="60.0321944437679" lon="11.743030558919958" id="-16818">
		<tag k="fixme" v="multiple name tags, choose one and add the other to alt_name" />
		<tag k="name" v="Runnihaugen;Høgeberget" />
		<tag k="natural" v="hill" />
		<tag k="place" v="locality" />
		<tag k="ssr:stedsnr" v="491579" />
	</node>
	<node lat="60.10264721825432" lon="11.341833331257236" id="-16825">
		<tag k="name" v="Badstudalen" />
		<tag k="place" v="locality" />
		<tag k="ssr:stedsnr" v="524444" />
	</node>
	<node lat="60.132175001950316" lon="11.612911112982484" id="-16837">
		<tag k="name" v="Kleggesnurdalen" />
		<tag k="natural" v="valley" />
		<tag k="place" v="locality" />
		<tag k="ssr:stedsnr" v="526372" />
	</node>
	<node lat="59.99408333543599" lon="11.44322223009035" id="-16849">
		<tag k="name" v="Høldalen" />
		<tag k="natural" v="valley" />
		<tag k="place" v="locality" />
		<tag k="ssr:stedsnr" v="526713" />
	</node>
	<node lat="60.06516944719368" lon="11.702524994677317" id="-16852">
		<tag k="name" v="Pinkertonhaugen" />
		<tag k="natural" v="hill" />
		<tag k="place" v="locality" />
		<tag k="ssr:stedsnr" v="526906" />
	</node>
	<node lat="60.04601388929294" lon="11.781327772570492" id="-16855">
		<tag k="name" v="Steinbakken" />
		<tag k="natural" v="slope" />
		<tag k="place" v="locality" />
		<tag k="ssr:stedsnr" v="526892" />
	</node>
	<node lat="60.23709999702108" lon="11.440563881698866" id="-16866">
		<tag k="name" v="Snippen" />
		<tag k="natural" v="hill" />
		<tag k="place" v="locality" />
		<tag k="ssr:stedsnr" v="541213" />
	</node>
	<node lat="60.08933333516374" lon="11.631352782600823" id="-16877">
		<tag k="name" v="Børåsen" />
		<tag k="natural" v="hill" />
		<tag k="place" v="locality" />
		<tag k="ssr:stedsnr" v="541973" />
	</node>
	<node lat="60.226233331550695" lon="11.438527778711446" id="-16878">
		<tag k="fixme" v="consider natural=peak for the most distinct mountains in the district" />
		<tag k="name" v="Brattåsen" />
		<tag k="natural" v="hill" />
		<tag k="place" v="locality" />
		<tag k="ssr:stedsnr" v="541974" />
	</node>
	<node lat="60.10466111010524" lon="11.56921667403589" id="-16881">
		<tag k="fixme" v="consider natural=peak for the most distinct mountains in the district" />
		<tag k="name" v="Sagstuåsen" />
		<tag k="natural" v="hill" />
		<tag k="place" v="locality" />
		<tag k="ssr:stedsnr" v="541985" />
	</node>
	<node lat="60.091019448089746" lon="11.675952773248794" id="-16898">
		<tag k="name" v="Rudshøgda" />
		<tag k="natural" v="hill" />
		<tag k="place" v="locality" />
		<tag k="ssr:stedsnr" v="551744" />
	</node>
	<node lat="60.05693333266368" lon="11.721705550209" id="-16921">
		<tag k="name" v="Vesle Haukeberget" />
		<tag k="natural" v="hill" />
		<tag k="place" v="locality" />
		<tag k="ssr:stedsnr" v="587917" />
	</node>
	<node lat="60.16217777687142" lon="11.440772219974328" id="-16933">
		<tag k="name" v="Vingersdalen" />
		<tag k="natural" v="valley" />
		<tag k="place" v="locality" />
		<tag k="ssr:stedsnr" v="601051" />
	</node>
	<node lat="60.117794443160236" lon="11.560825000623334" id="-16935">
		<tag k="name" v="Leggebeindalen" />
		<tag k="natural" v="valley" />
		<tag k="place" v="locality" />
		<tag k="ssr:stedsnr" v="601010" />
	</node>
	<node lat="60.27549166353577" lon="11.5739083312551" id="-16948">
		<tag k="alt_name" v="Kalvedalen" />
		<tag k="name" v="Kalvdalen" />
		<tag k="natural" v="valley" />
		<tag k="place" v="locality" />
		<tag k="ssr:stedsnr" v="601598" />
	</node>
	<node lat="60.10718888462406" lon="11.665349992787705" id="-16962">
		<tag k="name" v="Oterhøgda" />
		<tag k="natural" v="hill" />
		<tag k="place" v="locality" />
		<tag k="ssr:stedsnr" v="611718" />
	</node>
	<node lat="60.194266665519955" lon="11.317416673152643" id="-16967">
		<tag k="alt_name" v="Låveggåsen" />
		<tag k="fixme" v="consider natural=peak for the most distinct mountains in the district" />
		<tag k="name" v="Låveggsåsen" />
		<tag k="natural" v="hill" />
		<tag k="place" v="locality" />
		<tag k="ssr:stedsnr" v="612273" />
	</node>
	<node lat="60.05640000399859" lon="11.497919442191112" id="-16972">
		<tag k="name" v="Kjerkehøgda" />
		<tag k="natural" v="hill" />
		<tag k="place" v="locality" />
		<tag k="ssr:stedsnr" v="612562" />
	</node>
	<node lat="60.12577222277769" lon="11.576552771423245" id="-16982">
		<tag k="name" v="Firebakkåsen" />
		<tag k="natural" v="hill" />
		<tag k="place" v="locality" />
		<tag k="ssr:stedsnr" v="647082" />
	</node>
	<node lat="60.11278332993388" lon="11.652394443803685" id="-16993">
		<tag k="name" v="Gråterdalen" />
		<tag k="natural" v="valley" />
		<tag k="place" v="locality" />
		<tag k="ssr:stedsnr" v="647173" />
	</node>
	<node lat="60.06903333048212" lon="11.70291388236802" id="-16997">
		<tag k="name" v="Sleppa" />
		<tag k="place" v="locality" />
		<tag k="ssr:stedsnr" v="647384" />
	</node>
	<node lat="60.14747500368952" lon="11.534413885385217" id="-16998">
		<tag k="name" v="Postløkka" />
		<tag k="place" v="locality" />
		<tag k="ssr:stedsnr" v="647387" />
	</node>
	<node lat="60.1407888882245" lon="11.608533336636548" id="-16999">
		<tag k="fixme" v="consider natural=peak for the most distinct mountains in the district" />
		<tag k="name" v="Gråtendalsberget" />
		<tag k="natural" v="hill" />
		<tag k="place" v="locality" />
		<tag k="ssr:stedsnr" v="647395" />
	</node>
	<node lat="60.04486944757637" lon="11.79599722186628" id="-17005">
		<tag k="name" v="Musehogget" />
		<tag k="place" v="locality" />
		<tag k="ssr:stedsnr" v="647900" />
	</node>
	<node lat="60.11850278056825" lon="11.649541675216238" id="-17016">
		<tag k="name" v="Lindlia" />
		<tag k="natural" v="slope" />
		<tag k="place" v="locality" />
		<tag k="ssr:stedsnr" v="708162" />
	</node>
	<node lat="60.051116663146" lon="11.4490555509368" id="-17022">
		<tag k="name" v="Kalvebrudalen" />
		<tag k="natural" v="valley" />
		<tag k="place" v="locality" />
		<tag k="ssr:stedsnr" v="708289" />
	</node>
	<node lat="60.064780555932664" lon="11.595480551241788" id="-17023">
		<tag k="name" v="Følldalen" />
		<tag k="natural" v="valley" />
		<tag k="place" v="locality" />
		<tag k="ssr:stedsnr" v="655582" />
	</node>
	<node lat="60.14999722218753" lon="11.541977782623531" id="-17030">
		<tag k="name" v="Langfolddalen" />
		<tag k="natural" v="valley" />
		<tag k="place" v="locality" />
		<tag k="ssr:stedsnr" v="708354" />
	</node>
	<node lat="60.045261115633096" lon="11.784641660809774" id="-17039">
		<tag k="name" v="Sommerfjøsåsen" />
		<tag k="natural" v="hill" />
		<tag k="place" v="locality" />
		<tag k="ssr:stedsnr" v="708886" />
	</node>
	<node lat="60.05466388915187" lon="11.714924994998102" id="-17042">
		<tag k="name" v="Haukeliberget" />
		<tag k="natural" v="cliff" />
		<tag k="ssr:stedsnr" v="708903" />
	</node>
	<node lat="60.04763611189531" lon="11.708041672457076" id="-17043">
		<tag k="name" v="Tjennsåsen" />
		<tag k="natural" v="hill" />
		<tag k="place" v="locality" />
		<tag k="ssr:stedsnr" v="708919" />
	</node>
	<node lat="60.264391663132635" lon="11.588022224623453" id="-17048">
		<tag k="name" v="Bjønnstokkbakken" />
		<tag k="natural" v="slope" />
		<tag k="place" v="locality" />
		<tag k="ssr:stedsnr" v="709063" />
	</node>
	<node lat="60.14818889063123" lon="11.59996667364318" id="-17055">
		<tag k="name" v="Tyttebærhøgda" />
		<tag k="natural" v="hill" />
		<tag k="place" v="locality" />
		<tag k="ssr:stedsnr" v="662488" />
	</node>
	<node lat="60.098838892784805" lon="11.700425003964344" id="-17060">
		<tag k="name" v="Djeveløya" />
		<tag k="old_name" v="Dleveløya" />
		<tag k="place" v="locality" />
		<tag k="ssr:stedsnr" v="662636" />
	</node>
	<node lat="60.27259166573365" lon="11.544416671518134" id="-17061">
		<tag k="name" v="Deldalen" />
		<tag k="natural" v="valley" />
		<tag k="place" v="locality" />
		<tag k="ssr:stedsnr" v="662637" />
	</node>
	<node lat="60.31816666511106" lon="11.43105554875479" id="-17066">
		<tag k="name" v="Nordre sleppa" />
		<tag k="place" v="locality" />
		<tag k="ssr:stedsnr" v="662538" />
	</node>
	<node lat="60.34382221877412" lon="11.429630558338825" id="-17067">
		<tag k="name" v="Kaffiholen" />
		<tag k="place" v="locality" />
		<tag k="ssr:stedsnr" v="662713" />
	</node>
	<node lat="60.274350002588086" lon="11.436358339809985" id="-17073">
		<tag k="name" v="Torvet" />
		<tag k="place" v="locality" />
		<tag k="ssr:stedsnr" v="662904" />
	</node>
	<node lat="60.14298333465318" lon="11.601013888384518" id="-17091">
		<tag k="fixme" v="consider natural=peak for the most distinct mountains in the district" />
		<tag k="name" v="Askedalsberget" />
		<tag k="natural" v="hill" />
		<tag k="place" v="locality" />
		<tag k="ssr:stedsnr" v="890369" />
	</node>
	<node lat="60.04506666671728" lon="11.619852784686632" id="-17099">
		<tag k="name" v="Flinttjennhaugen" />
		<tag k="natural" v="hill" />
		<tag k="place" v="locality" />
		<tag k="ssr:stedsnr" v="890728" />
	</node>
	<node lat="60.04103888445259" lon="11.724350003141197" id="-17114">
		<tag k="fixme" v="consider natural=peak for the most distinct mountains in the district" />
		<tag k="name" v="Glasshaugen" />
		<tag k="natural" v="hill" />
		<tag k="place" v="locality" />
		<tag k="ssr:stedsnr" v="673565" />
	</node>
	<node lat="60.01208888634649" lon="11.43672777159622" id="-17133">
		<tag k="name" v="Askettjennsdalen" />
		<tag k="natural" v="valley" />
		<tag k="place" v="locality" />
		<tag k="ssr:stedsnr" v="891493" />
	</node>
	<node lat="60.04951944830006" lon="11.748636106317186" id="-17139">
		<tag k="name" v="Svarttjennsbrenna" />
		<tag k="natural" v="slope" />
		<tag k="place" v="locality" />
		<tag k="ssr:stedsnr" v="891922" />
	</node>
	<node lat="60.04729722591446" lon="11.806083335425631" id="-17140">
		<tag k="name" v="Kleivtjennlia" />
		<tag k="natural" v="slope" />
		<tag k="place" v="locality" />
		<tag k="ssr:stedsnr" v="891898" />
	</node>
	<node lat="60.010763890207556" lon="11.624422220231212" id="-17147">
		<tag k="name" v="Rynjutjernlia" />
		<tag k="natural" v="slope" />
		<tag k="place" v="locality" />
		<tag k="ssr:stedsnr" v="708008" />
	</node>
	<node lat="60.01873516036545" lon="11.588344707615217" id="-17148">
		<tag k="loc_name" v="Frøyhovlia" />
		<tag k="name" v="Frøyhovdlia" />
		<tag k="natural" v="slope" />
		<tag k="place" v="locality" />
		<tag k="ssr:stedsnr" v="708013" />
	</node>
	<node lat="60.129705555295374" lon="11.592311105500857" id="-17149">
		<tag k="name" v="Tjæregråvdalen" />
		<tag k="natural" v="valley" />
		<tag k="place" v="locality" />
		<tag k="ssr:stedsnr" v="708123" />
	</node>
	<node lat="60.1466138911077" lon="11.559913889517693" id="-17156">
		<tag k="name" v="Gudmundsholtet" />
		<tag k="place" v="locality" />
		<tag k="ssr:stedsnr" v="708366" />
	</node>
	<node lat="60.049991663612296" lon="11.731088889771808" id="-17169">
		<tag k="name" v="Grevlingstokken" />
		<tag k="place" v="locality" />
		<tag k="ssr:stedsnr" v="898930" />
	</node>
	<node lat="60.050288886809746" lon="11.689502783470088" id="-17171">
		<tag k="fixme" v="consider natural=peak for the most distinct mountains in the district" />
		<tag k="name" v="Heitoppen" />
		<tag k="natural" v="hill" />
		<tag k="place" v="locality" />
		<tag k="ssr:stedsnr" v="716592" />
	</node>
	<node lat="60.04763888832398" lon="11.656127769328089" id="-17174">
		<tag k="name" v="Holeberget" />
		<tag k="natural" v="cliff" />
		<tag k="ssr:stedsnr" v="899600" />
	</node>
	<node lat="60.11889999646225" lon="11.56506944242102" id="-17177">
		<tag k="name" v="Aulikastet" />
		<tag k="place" v="locality" />
		<tag k="ssr:stedsnr" v="723010" />
	</node>
	<node lat="60.070291663633405" lon="11.689641668004038" id="-17181">
		<tag k="name" v="Tiurhaugen" />
		<tag k="natural" v="hill" />
		<tag k="place" v="locality" />
		<tag k="ssr:stedsnr" v="723313" />
	</node>
	<node lat="60.076863887941165" lon="11.676655556506315" id="-17182">
		<tag k="name" v="Klartjennåsen" />
		<tag k="natural" v="hill" />
		<tag k="place" v="locality" />
		<tag k="ssr:stedsnr" v="723315" />
	</node>
	<node lat="60.06928610900349" lon="11.62252776884057" id="-17183">
		<tag k="name" v="Kvernlia" />
		<tag k="natural" v="slope" />
		<tag k="place" v="locality" />
		<tag k="ssr:stedsnr" v="723274" />
	</node>
	<node lat="60.306266669767815" lon="11.481024999847742" id="-17191">
		<tag k="name" v="Botntjennhøgda" />
		<tag k="natural" v="hill" />
		<tag k="place" v="locality" />
		<tag k="ssr:stedsnr" v="723725" />
	</node>
	<node lat="60.26600277848882" lon="11.398036113550672" id="-17202">
		<tag k="fixme" v="consider natural=peak for the most distinct mountains in the district" />
		<tag k="name" v="Børjehøgda" />
		<tag k="natural" v="hill" />
		<tag k="place" v="locality" />
		<tag k="ssr:stedsnr" v="906935" />
	</node>
	<node lat="60.310358334975334" lon="11.435447215454687" id="-17216">
		<tag k="name" v="Migerdalen" />
		<tag k="natural" v="valley" />
		<tag k="place" v="locality" />
		<tag k="ssr:stedsnr" v="734149" />
	</node>
	<node lat="60.0738916695116" lon="11.652863885235243" id="-17241">
		<tag k="name" v="Gravdalen" />
		<tag k="natural" v="valley" />
		<tag k="place" v="locality" />
		<tag k="ssr:stedsnr" v="905297" />
	</node>
	<node lat="60.310344445681864" lon="11.466108336940405" id="-17243">
		<tag k="name" v="Gofjellet" />
		<tag k="natural" v="hill" />
		<tag k="place" v="locality" />
		<tag k="ssr:stedsnr" v="905551" />
	</node>
	<node lat="60.2734694432006" lon="11.582197225338634" id="-17254">
		<tag k="name" v="Vestre Kølabudalen" />
		<tag k="natural" v="valley" />
		<tag k="place" v="locality" />
		<tag k="ssr:stedsnr" v="905640" />
	</node>
	<node lat="60.08415277780314" lon="11.745766661817672" id="-17255">
		<tag k="name" v="Promhaugen" />
		<tag k="natural" v="hill" />
		<tag k="place" v="locality" />
		<tag k="ssr:stedsnr" v="905642" />
	</node>
	<node lat="60.31593888815788" lon="11.48971110224083" id="-17257">
		<tag k="name" v="Trettebråtalia" />
		<tag k="natural" v="slope" />
		<tag k="place" v="locality" />
		<tag k="ssr:stedsnr" v="905748" />
	</node>
	<node lat="60.261816670032694" lon="11.446255559877194" id="-17261">
		<tag k="name" v="Osmyrdalen" />
		<tag k="natural" v="valley" />
		<tag k="place" v="locality" />
		<tag k="ssr:stedsnr" v="905909" />
	</node>
	<node lat="60.290241668993026" lon="11.434897223244018" id="-17269">
		<tag k="name" v="Østvangdalen" />
		<tag k="natural" v="valley" />
		<tag k="place" v="locality" />
		<tag k="ssr:stedsnr" v="906645" />
	</node>
	<node lat="60.1119666630135" lon="11.64973610343402" id="-17275">
		<tag k="name" v="Gudbrandsdalen" />
		<tag k="natural" v="valley" />
		<tag k="place" v="locality" />
		<tag k="ssr:stedsnr" v="769137" />
	</node>
	<node lat="60.01753888702378" lon="11.70800278499862" id="-17280">
		<tag k="fixme" v="consider natural=peak for the most distinct mountains in the district" />
		<tag k="name" v="Mørdrevangshøgda" />
		<tag k="natural" v="hill" />
		<tag k="place" v="locality" />
		<tag k="ssr:stedsnr" v="769100" />
	</node>
	<node lat="60.05360555994679" lon="11.727452769939237" id="-17293">
		<tag k="name" v="Piphaugen" />
		<tag k="natural" v="hill" />
		<tag k="place" v="locality" />
		<tag k="ssr:stedsnr" v="769905" />
	</node>
	<node lat="60.047266666045424" lon="11.742000005418811" id="-17295">
		<tag k="name" v="Styggedalen" />
		<tag k="natural" v="valley" />
		<tag k="place" v="locality" />
		<tag k="ssr:stedsnr" v="769914" />
	</node>
	<node lat="60.11470555503424" lon="11.579252779802948" id="-17306">
		<tag k="name" v="Kirsebærhaugen" />
		<tag k="natural" v="hill" />
		<tag k="place" v="locality" />
		<tag k="ssr:stedsnr" v="784011" />
	</node>
	<node lat="60.01166388468932" lon="11.469677775117361" id="-17311">
		<tag k="name" v="Ringtjenndalen" />
		<tag k="natural" v="valley" />
		<tag k="place" v="locality" />
		<tag k="ssr:stedsnr" v="784162" />
	</node>
	<node lat="60.073099999356046" lon="11.704361107684864" id="-17315">
		<tag k="name" v="Ormberget" />
		<tag k="natural" v="ridge" />
		<tag k="place" v="locality" />
		<tag k="ssr:stedsnr" v="784623" />
	</node>
	<node lat="60.07083611002195" lon="11.707950008632247" id="-17316">
		<tag k="name" v="Peisberget" />
		<tag k="natural" v="hill" />
		<tag k="place" v="locality" />
		<tag k="ssr:stedsnr" v="784624" />
	</node>
	<node lat="60.270311109892155" lon="11.551472228876742" id="-17318">
		<tag k="name" v="Passoppdalen" />
		<tag k="natural" v="valley" />
		<tag k="place" v="locality" />
		<tag k="ssr:stedsnr" v="784640" />
	</node>
	<node lat="60.27056389309933" lon="11.538199997320177" id="-17319">
		<tag k="name" v="Styggdalen" />
		<tag k="natural" v="valley" />
		<tag k="place" v="locality" />
		<tag k="ssr:stedsnr" v="784641" />
	</node>
	<node lat="60.078433330339344" lon="11.740291660332193" id="-17321">
		<tag k="name" v="Korsmyrlia" />
		<tag k="natural" v="slope" />
		<tag k="place" v="locality" />
		<tag k="ssr:stedsnr" v="784650" />
	</node>
	<node lat="60.06166011417458" lon="11.738738668376474" id="-17343">
		<tag k="alt_name" v="Runniskallern" />
		<tag k="name" v="Runniskallaren" />
		<tag k="natural" v="hill" />
		<tag k="place" v="locality" />
		<tag k="ssr:stedsnr" v="794503" />
	</node>
	<node lat="60.05296111556523" lon="11.467838888335303" id="-17388">
		<tag k="name" v="Blekjemyrdalen" />
		<tag k="natural" v="valley" />
		<tag k="place" v="locality" />
		<tag k="ssr:stedsnr" v="830284" />
	</node>
	<node lat="60.04578611345465" lon="11.760091666165959" id="-17401">
		<tag k="name" v="Danserberget" />
		<tag k="natural" v="hill" />
		<tag k="place" v="locality" />
		<tag k="ssr:stedsnr" v="830903" />
	</node>
	<node lat="60.03542499735577" lon="11.777330548017694" id="-17403">
		<tag k="name" v="Rabbillberget" />
		<tag k="natural" v="slope" />
		<tag k="place" v="locality" />
		<tag k="ssr:stedsnr" v="832702" />
	</node>
	<node lat="60.269552773791844" lon="11.425583329827834" id="-17406">
		<tag k="name" v="Grinderlia" />
		<tag k="natural" v="slope" />
		<tag k="place" v="locality" />
		<tag k="ssr:stedsnr" v="844914" />
	</node>
	<node lat="60.11973055926113" lon="11.624886119545781" id="-17410">
		<tag k="name" v="Kuberget" />
		<tag k="natural" v="hill" />
		<tag k="place" v="locality" />
		<tag k="ssr:stedsnr" v="845131" />
	</node>
	<node lat="60.08544444815839" lon="11.719327775578364" id="-17417">
		<tag k="fixme" v="consider natural=peak for the most distinct mountains in the district" />
		<tag k="name" v="Lunnemyrberget" />
		<tag k="natural" v="hill" />
		<tag k="place" v="locality" />
		<tag k="ssr:stedsnr" v="845632" />
	</node>
	<node lat="60.309363886389434" lon="11.446769437695474" id="-17420">
		<tag k="name" v="Søndre sleppa" />
		<tag k="place" v="locality" />
		<tag k="ssr:stedsnr" v="845580" />
	</node>
	<node lat="60.308074998913014" lon="11.461083337371301" id="-17421">
		<tag k="fixme" v="consider natural=peak for the most distinct mountains in the district" />
		<tag k="name" v="Ilangshøgda" />
		<tag k="natural" v="hill" />
		<tag k="place" v="locality" />
		<tag k="ssr:stedsnr" v="845583" />
	</node>
	<node lat="60.311122222776305" lon="11.503305556053371" id="-17423">
		<tag k="fixme" v="consider natural=peak for the most distinct mountains in the district" />
		<tag k="name" v="Vollmyrhøgda" />
		<tag k="natural" v="hill" />
		<tag k="place" v="locality" />
		<tag k="ssr:stedsnr" v="845786" />
	</node>
	<node lat="60.07256111117797" lon="11.71452778232957" id="-17440">
		<tag k="alt_name" v="Fuglleikhaugane" />
		<tag k="name" v="Fuglleikhaugene" />
		<tag k="natural" v="hill" />
		<tag k="place" v="locality" />
		<tag k="ssr:stedsnr" v="855508" />
	</node>
	<node lat="60.05019444626195" lon="11.581561119297875" id="-17452">
		<tag k="name" v="Vestre Gullroskne" />
		<tag k="place" v="locality" />
		<tag k="ssr:stedsnr" v="856608" />
	</node>
	<node lat="60.052008337086136" lon="11.816094439270485" id="-17475">
		<tag k="name" v="Festningen" />
		<tag k="place" v="locality" />
		<tag k="ssr:stedsnr" v="891815" />
	</node>
	<node lat="60.06644444618859" lon="11.669788892102572" id="-17488">
		<tag k="name" v="Klompedalen" />
		<tag k="natural" v="valley" />
		<tag k="place" v="locality" />
		<tag k="ssr:stedsnr" v="905321" />
	</node>
	<node lat="60.326822221221065" lon="11.44403611525354" id="-17492">
		<tag k="name" v="Lauvberget" />
		<tag k="natural" v="cliff" />
		<tag k="ssr:stedsnr" v="905751" />
	</node>
	<node lat="60.08784999654873" lon="11.327474992104461" id="-17503">
		<tag k="fixme" v="consider natural=peak for the most distinct mountains in the district" />
		<tag k="name" v="Jagastadfjellet" />
		<tag k="natural" v="hill" />
		<tag k="place" v="locality" />
		<tag k="ssr:stedsnr" v="915087" />
	</node>
	<node lat="60.10383888964212" lon="11.625238894279207" id="-17504">
		<tag k="fixme" v="consider natural=peak for the most distinct mountains in the district" />
		<tag k="name" v="Høgåsen" />
		<tag k="natural" v="hill" />
		<tag k="place" v="locality" />
		<tag k="ssr:stedsnr" v="915703" />
	</node>
	<node lat="60.13183055948802" lon="11.584911104067208" id="-17519">
		<tag k="fixme" v="consider natural=peak for the most distinct mountains in the district" />
		<tag k="name" v="Røsåsen" />
		<tag k="natural" v="hill" />
		<tag k="place" v="locality" />
		<tag k="ssr:stedsnr" v="916712" />
	</node>
	<node lat="60.13533610692701" lon="11.599813881684357" id="-17537">
		<tag k="name" v="Puttdalen" />
		<tag k="natural" v="valley" />
		<tag k="place" v="locality" />
		<tag k="ssr:stedsnr" v="951383" />
	</node>
	<node lat="60.13372221886456" lon="11.626397225917088" id="-17538">
		<tag k="name" v="Ulvedalen" />
		<tag k="natural" v="valley" />
		<tag k="place" v="locality" />
		<tag k="ssr:stedsnr" v="951386" />
	</node>
	<node lat="60.039663890926526" lon="11.769694449563529" id="-17542">
		<tag k="name" v="Ormestampen" />
		<tag k="place" v="locality" />
		<tag k="ssr:stedsnr" v="951739" />
	</node>
	<node lat="60.06012221920157" lon="11.723822229307995" id="-17546">
		<tag k="name" v="Tallhaugtoppen" />
		<tag k="natural" v="hill" />
		<tag k="place" v="locality" />
		<tag k="ssr:stedsnr" v="951915" />
	</node>
	<node lat="60.04340555178788" lon="11.516230548976472" id="-17554">
		<tag k="name" v="Snauknatten" />
		<tag k="natural" v="hill" />
		<tag k="place" v="locality" />
		<tag k="ssr:stedsnr" v="959805" />
	</node>
	<node lat="60.061008331230134" lon="11.688544437597528" id="-17555">
		<tag k="name" v="Seterlia" />
		<tag k="natural" v="slope" />
		<tag k="place" v="locality" />
		<tag k="ssr:stedsnr" v="959923" />
	</node>
	<node lat="60.112766664552765" lon="11.567274990865396" id="-17563">
		<tag k="fixme" v="consider natural=peak for the most distinct mountains in the district" />
		<tag k="name" v="Nordåsen" />
		<tag k="natural" v="hill" />
		<tag k="place" v="locality" />
		<tag k="ssr:stedsnr" v="966009" />
	</node>
	<node lat="60.07539167044914" lon="11.647483341524088" id="-17565">
		<tag k="name" v="Åbortjennlia" />
		<tag k="natural" v="slope" />
		<tag k="place" v="locality" />
		<tag k="ssr:stedsnr" v="966335" />
	</node>
	<node lat="60.06609444393578" lon="11.661422220988092" id="-17566">
		<tag k="name" v="Brurehølet" />
		<tag k="natural" v="valley" />
		<tag k="place" v="locality" />
		<tag k="ssr:stedsnr" v="966338" />
	</node>
	<node lat="60.09018888990306" lon="11.53305000012582" id="-17605">
		<tag k="fixme" v="consider natural=peak for the most distinct mountains in the district" />
		<tag k="name" v="Lundbergåsen" />
		<tag k="natural" v="hill" />
		<tag k="place" v="locality" />
		<tag k="ssr:stedsnr" v="5716" />
	</node>
	<node lat="60.00412499605779" lon="11.456394449346897" id="-17611">
		<tag k="fixme" v="consider natural=peak for the most distinct mountains in the district" />
		<tag k="name" v="Steinstjennhøgdene" />
		<tag k="natural" v="hill" />
		<tag k="place" v="locality" />
		<tag k="ssr:stedsnr" v="5951" />
	</node>
	<node lat="60.04881111550973" lon="11.755991664164167" id="-17618">
		<tag k="fixme" v="multiple name tags, choose one and add the other to alt_name; consider natural=peak for the most distinct mountains in the district" />
		<tag k="name" v="Kjerkeliberget;Grasdalsberget" />
		<tag k="natural" v="hill" />
		<tag k="place" v="locality" />
		<tag k="ssr:stedsnr" v="6578" />
	</node>
	<node lat="60.29651388943949" lon="11.506638887234546" id="-17623">
		<tag k="name" v="Stygghølstoppen" />
		<tag k="natural" v="hill" />
		<tag k="place" v="locality" />
		<tag k="ssr:stedsnr" v="40046" />
	</node>
	<node lat="60.012200000639396" lon="11.64427500734372" id="-17628">
		<tag k="fixme" v="consider natural=peak for the most distinct mountains in the district" />
		<tag k="name" v="Myrsæterhøgda" />
		<tag k="natural" v="hill" />
		<tag k="place" v="locality" />
		<tag k="ssr:stedsnr" v="41029" />
	</node>
	<node lat="60.05202777609439" lon="11.559374990974927" id="-17639">
		<tag k="fixme" v="consider natural=peak for the most distinct mountains in the district" />
		<tag k="name" v="Rogndalshøgda" />
		<tag k="natural" v="hill" />
		<tag k="place" v="locality" />
		<tag k="ssr:stedsnr" v="41298" />
	</node>
	<node lat="60.03496110864976" lon="11.818755552160827" id="-17647">
		<tag k="name" v="Syltedalsberget" />
		<tag k="natural" v="slope" />
		<tag k="place" v="locality" />
		<tag k="ssr:stedsnr" v="41738" />
	</node>
	<node lat="60.05472222087018" lon="11.658547218737148" id="-17652">
		<tag k="name" v="Holmelia" />
		<tag k="natural" v="slope" />
		<tag k="place" v="locality" />
		<tag k="ssr:stedsnr" v="48541" />
	</node>
	<node lat="60.062402781968665" lon="11.585680560847724" id="-17654">
		<tag k="name" v="Nevertjennlia" />
		<tag k="natural" v="slope" />
		<tag k="place" v="locality" />
		<tag k="ssr:stedsnr" v="49610" />
	</node>
	<node lat="60.06558055419699" lon="11.688124993726978" id="-17655">
		<tag k="fixme" v="consider natural=peak for the most distinct mountains in the district" />
		<tag k="name" v="Kaffeberget" />
		<tag k="natural" v="hill" />
		<tag k="place" v="locality" />
		<tag k="ssr:stedsnr" v="49936" />
	</node>
	<node lat="60.05280832889223" lon="11.65276945279003" id="-17657">
		<tag k="name" v="Stalldalen" />
		<tag k="natural" v="slope" />
		<tag k="place" v="locality" />
		<tag k="ssr:stedsnr" v="49637" />
	</node>
	<node lat="60.07543055536163" lon="11.603113883935414" id="-17672">
		<tag k="name" v="Kattåsen" />
		<tag k="natural" v="ridge" />
		<tag k="place" v="locality" />
		<tag k="ssr:stedsnr" v="56332" />
	</node>
	<node lat="60.069211115486006" lon="11.647525003589555" id="-17673">
		<tag k="name" v="Smørbukklia" />
		<tag k="natural" v="slope" />
		<tag k="place" v="locality" />
		<tag k="ssr:stedsnr" v="56347" />
	</node>
	<node lat="60.28462222616411" lon="11.550002770178017" id="-17731">
		<tag k="alt_name" v="Ertsrudhøgda" />
		<tag k="fixme" v="consider natural=peak for the most distinct mountains in the district" />
		<tag k="name" v="Ertsrudberget" />
		<tag k="natural" v="hill" />
		<tag k="place" v="locality" />
		<tag k="ssr:stedsnr" v="67583" />
	</node>
</osm>
