<?xml version="1.0" encoding="UTF-8"?>
<osm generator="osmapis" version="0.6">
	<node id="-239609" lat="60.0777305585" lon="11.6790638944">
		<tag k="name" v="Klartjenn" />
		<tag k="natural" v="water" />
		<tag k="ssr:stedsnr" v="612542" />
	</node>
	<node id="-237555" lat="60.0883277782" lon="11.6655000025">
		<tag k="name" v="Hulderputten" />
		<tag k="natural" v="water" />
		<tag k="ssr:stedsnr" v="480936" />
	</node>
	<node id="-237551" lat="60.0919083346" lon="11.6038388844">
		<tag k="name" v="Breifløyta" />
		<tag k="natural" v="water" />
		<tag k="ssr:stedsnr" v="480978" />
		<tag k="water" v="lake" />
	</node>
	<node id="-239597" lat="60.1084669444" lon="11.5820425009">
		<tag k="fixme" v="multiple name tags, choose one and add the other to alt_name" />
		<tag k="name" v="Farsjøen;Sagstusjøen" />
		<tag k="natural" v="water" />
		<tag k="ssr:stedsnr" v="611720" />
		<tag k="water" v="lake" />
	</node>
	<node id="-237535" lat="60.2042361157" lon="11.4896666625">
		<tag k="name" v="Keiserudbekken" />
		<tag k="ssr:stedsnr" v="480544" />
		<tag k="waterway" v="stream" />
	</node>
	<node id="-237526" lat="60.083124999" lon="11.6101777744">
		<tag k="name" v="Drammensfløyta" />
		<tag k="natural" v="water" />
		<tag k="ssr:stedsnr" v="480280" />
		<tag k="water" v="lake" />
	</node>
	<node id="-239572" lat="60.1992888877" lon="11.3308194437">
		<tag k="name" v="Låveggsdammen" />
		<tag k="natural" v="water" />
		<tag k="ssr:stedsnr" v="601742" />
	</node>
	<node id="-237522" lat="60.0325694453" lon="11.5289972244">
		<tag k="name" v="Åbortjenn" />
		<tag k="natural" v="water" />
		<tag k="ssr:stedsnr" v="480129" />
	</node>
	<node id="-237516" lat="60.1697777814" lon="11.4645027721">
		<tag k="name" v="Ilangsevja" />
		<tag k="natural" v="bay" />
		<tag k="ssr:stedsnr" v="480050" />
	</node>
	<node id="-239563" lat="60.1475111125" lon="11.321766674">
		<tag k="alt_name" v="Ellingbekken" />
		<tag k="name" v="Ellingsbekken" />
		<tag k="ssr:stedsnr" v="601474" />
		<tag k="waterway" v="stream" />
	</node>
	<node id="-237513" lat="60.2368555532" lon="11.3293166604">
		<tag k="name" v="Bergevja" />
		<tag k="natural" v="bay" />
		<tag k="ssr:stedsnr" v="480080" />
	</node>
	<node id="-239560" lat="60.1718833362" lon="11.529569448">
		<tag k="name" v="Hebergsbekken" />
		<tag k="ssr:stedsnr" v="601145" />
		<tag k="waterway" v="stream" />
	</node>
	<node id="-237510" lat="60.1009055597" lon="11.6685499963">
		<tag k="name" v="Oterfløyta" />
		<tag k="natural" v="water" />
		<tag k="ssr:stedsnr" v="298955" />
		<tag k="water" v="pond" />
	</node>
	<node id="-237504" lat="60.0523305567" lon="11.6720444506">
		<tag k="name" v="Bårslibekken" />
		<tag k="ssr:stedsnr" v="474598" />
		<tag k="waterway" v="stream" />
	</node>
	<node id="-239548" lat="60.0275694427" lon="11.5615027771">
		<tag k="name" v="Puttbekken" />
		<tag k="ssr:stedsnr" v="594784" />
		<tag k="waterway" v="stream" />
	</node>
	<node id="-239534" lat="60.0648361148" lon="11.7758833383">
		<tag k="name" v="Fiskevika" />
		<tag k="natural" v="bay" />
		<tag k="ssr:stedsnr" v="587817" />
	</node>
	<node id="-237213" lat="60.3032249968" lon="11.540674991">
		<tag k="name" v="Bemla" />
		<tag k="ssr:stedsnr" v="249976" />
		<tag k="waterway" v="stream" />
	</node>
	<node id="-237484" lat="60.0717666643" lon="11.3942888838">
		<tag k="name" v="Linderudbekken" />
		<tag k="ssr:stedsnr" v="466794" />
		<tag k="waterway" v="stream" />
	</node>
	<node id="-239525" lat="60.0254611079" lon="11.789669446">
		<tag k="name" v="Sikberget" />
		<tag k="natural" v="cape" />
		<tag k="ssr:stedsnr" v="587758" />
	</node>
	<node id="-237471" lat="60.0462222261" lon="11.6191166582">
		<tag k="name" v="Blåkolltjenn" />
		<tag k="natural" v="water" />
		<tag k="ssr:stedsnr" v="465696" />
	</node>
	<node id="-237465" lat="60.150811113" lon="11.5313555628">
		<tag k="name" v="Skøyentjenn" />
		<tag k="natural" v="water" />
		<tag k="ssr:stedsnr" v="465344" />
	</node>
	<node id="-239498" lat="60.2587333366" lon="11.4301888868">
		<tag k="alt_name" v="Kroktjennet" />
		<tag k="name" v="Kroktjenn" />
		<tag k="natural" v="water" />
		<tag k="ssr:stedsnr" v="552235" />
	</node>
	<node id="-237441" lat="60.0639416677" lon="11.7795472189">
		<tag k="name" v="Nettmangtangen" />
		<tag k="natural" v="cape" />
		<tag k="ssr:stedsnr" v="286711" />
	</node>
	<node id="-237440" lat="60.0213884389" lon="11.5209273302">
		<tag k="name" v="Østre Tresjøen" />
		<tag k="natural" v="water" />
		<tag k="ssr:stedsnr" v="271562" />
		<tag k="water" v="lake" />
	</node>
	<node id="-237439" lat="60.1161450636" lon="11.6267225673">
		<tag k="alt_name" v="Langvatnet" />
		<tag k="name" v="Langvatn" />
		<tag k="natural" v="water" />
		<tag k="ssr:stedsnr" v="268404" />
		<tag k="water" v="lake" />
	</node>
	<node id="-237438" lat="60.1281583307" lon="11.5605861188">
		<tag k="name" v="Gørtjennbekken" />
		<tag k="ssr:stedsnr" v="453055" />
		<tag k="waterway" v="stream" />
	</node>
	<node id="-237437" lat="60.0127611075" lon="11.4858694476">
		<tag k="fixme" v="multiple name tags, choose one and add the other to alt_name" />
		<tag k="name" v="Butjennet;Vangstjennet" />
		<tag k="natural" v="water" />
		<tag k="ssr:stedsnr" v="248611" />
	</node>
	<node id="-237436" lat="60.0322933973" lon="11.4740034026">
		<tag k="alt_name" v="Herman" />
		<tag k="name" v="Hermanstjenna" />
		<tag k="natural" v="water" />
		<tag k="ssr:stedsnr" v="248589" />
		<tag k="water" v="lake" />
	</node>
	<node id="-237434" lat="60.0121527769" lon="11.7086916623">
		<tag k="name" v="Deletjenn" />
		<tag k="natural" v="water" />
		<tag k="ssr:stedsnr" v="248579" />
	</node>
	<node id="-237433" lat="60.0186138913" lon="11.6427166738">
		<tag k="fixme" v="multiple name tags, choose one and add the other to alt_name" />
		<tag k="name" v="Bærlibekken;Vårlibekken" />
		<tag k="ssr:stedsnr" v="248575" />
		<tag k="waterway" v="stream" />
	</node>
	<node id="-237431" lat="60.0432444481" lon="11.6145694398">
		<tag k="name" v="Flinntjenn" />
		<tag k="natural" v="water" />
		<tag k="ssr:stedsnr" v="248565" />
	</node>
	<node id="-237430" lat="60.0339861147" lon="11.6686555556">
		<tag k="fixme" v="multiple name tags, choose one and add the other to alt_name" />
		<tag k="name" v="Husmosetertjenn;Vasketjennet" />
		<tag k="natural" v="water" />
		<tag k="ssr:stedsnr" v="248559" />
	</node>
	<node id="-237429" lat="60.0397277812" lon="11.4936999954">
		<tag k="name" v="Asketjenn" />
		<tag k="natural" v="water" />
		<tag k="ssr:stedsnr" v="248556" />
	</node>
	<node id="-237428" lat="60.0390027785" lon="11.5803805599">
		<tag k="alt_name" v="Duppitu" />
		<tag k="name" v="Dupitu" />
		<tag k="natural" v="water" />
		<tag k="ssr:stedsnr" v="248553" />
	</node>
	<node id="-239474" lat="60.0413249959" lon="11.7928777751">
		<tag k="name" v="Butjennet" />
		<tag k="natural" v="water" />
		<tag k="ssr:stedsnr" v="551555" />
	</node>
	<node id="-239473" lat="60.0391888924" lon="11.6661888975">
		<tag k="name" v="Gjeddetjennet" />
		<tag k="natural" v="water" />
		<tag k="ssr:stedsnr" v="551546" />
	</node>
	<node id="-237423" lat="60.1145555512" lon="11.5746138902">
		<tag k="name" v="Sautjern" />
		<tag k="natural" v="water" />
		<tag k="ssr:stedsnr" v="238013" />
	</node>
	<node id="-239463" lat="60.2021694433" lon="11.4383444355">
		<tag k="name" v="Kampåa" />
		<tag k="ssr:stedsnr" v="551258" />
		<tag k="waterway" v="river" />
	</node>
	<node id="-237393" lat="60.0850444409" lon="11.6080805577">
		<tag k="name" v="Bjørkefossen" />
		<tag k="natural" v="waterfall" />
		<tag k="ssr:stedsnr" v="298301" />
	</node>
	<node id="-237391" lat="60.0862861092" lon="11.6056777728">
		<tag k="name" v="Skvalabekken" />
		<tag k="ssr:stedsnr" v="298266" />
		<tag k="waterway" v="stream" />
	</node>
	<node id="-237390" lat="60.0696444444" lon="11.6411250035">
		<tag k="name" v="Fleinbekken" />
		<tag k="ssr:stedsnr" v="298261" />
		<tag k="waterway" v="stream" />
	</node>
	<node id="-237389" lat="60.0770499989" lon="11.6338083408">
		<tag k="name" v="Stasbekken" />
		<tag k="ssr:stedsnr" v="298259" />
		<tag k="waterway" v="stream" />
	</node>
	<node id="-239427" lat="60.1932611154" lon="11.5620694457">
		<tag k="name" v="Oppåkerbekken" />
		<tag k="ssr:stedsnr" v="541933" />
		<tag k="waterway" v="stream" />
	</node>
	<node id="-237368" lat="60.0596166676" lon="11.6729388931">
		<tag k="name" v="Tjennstangen" />
		<tag k="natural" v="cape" />
		<tag k="ssr:stedsnr" v="292589" />
	</node>
	<node id="-239407" lat="60.2514999984" lon="11.3733166738">
		<tag k="name" v="Sanbekken" />
		<tag k="ssr:stedsnr" v="541149" />
		<tag k="waterway" v="stream" />
	</node>
	<node id="-237356" lat="60.0584527762" lon="11.7807916685">
		<tag k="name" v="Syltedalsvika" />
		<tag k="natural" v="bay" />
		<tag k="ssr:stedsnr" v="284955" />
	</node>
	<node id="-237350" lat="60.0471638856" lon="11.7911972303">
		<tag k="name" v="Sjøgapet" />
		<tag k="natural" v="bay" />
		<tag k="ssr:stedsnr" v="284907" />
	</node>
	<node id="-239379" lat="60.0225555597" lon="11.7983999993">
		<tag k="name" v="Ulvenabben" />
		<tag k="natural" v="cape" />
		<tag k="ssr:stedsnr" v="526749" />
	</node>
	<node id="-239376" lat="60.0404472208" lon="11.7896777818">
		<tag k="name" v="Vesletorva" />
		<tag k="natural" v="beach" />
		<tag k="ssr:stedsnr" v="526708" />
	</node>
	<node id="-239371" lat="60.0851194463" lon="11.6864611134">
		<tag k="name" v="Fugletjennet" />
		<tag k="natural" v="water" />
		<tag k="ssr:stedsnr" v="526341" />
	</node>
	<node id="-237321" lat="60.0740499978" lon="11.6824138907">
		<tag k="name" v="Klartjenn" />
		<tag k="natural" v="water" />
		<tag k="ssr:stedsnr" v="177310" />
	</node>
	<node id="-239356" lat="60.1276305519" lon="11.6105861048">
		<tag k="name" v="Folbergtangen" />
		<tag k="natural" v="cape" />
		<tag k="ssr:stedsnr" v="526099" />
	</node>
	<node id="-237305" lat="60.1523888915" lon="11.4508388817">
		<tag k="name" v="Vingerdalsevja" />
		<tag k="natural" v="bay" />
		<tag k="ssr:stedsnr" v="284211" />
	</node>
	<node id="-237182" lat="60.1067930275" lon="11.6861008763">
		<tag k="name" v="Klartjenna" />
		<tag k="natural" v="water" />
		<tag k="ssr:stedsnr" v="248377" />
	</node>
	<node id="-239335" lat="60.0277555562" lon="11.6440638963">
		<tag k="name" v="Lundbergsbekken" />
		<tag k="ssr:stedsnr" v="430587" />
		<tag k="waterway" v="stream" />
	</node>
	<node id="-239334" lat="60.0295077823" lon="11.6833313562">
		<tag k="name" v="Totjenna" />
		<tag k="natural" v="water" />
		<tag k="ssr:stedsnr" v="430586" />
		<tag k="water" v="lake" />
	</node>
	<node id="-239333" lat="60.0253500569" lon="11.5056427631">
		<tag k="alt_name" v="Tresjøane" />
		<tag k="name" v="Tresjøa" />
		<tag k="natural" v="water" />
		<tag k="ssr:stedsnr" v="430584" />
		<tag k="water" v="lake" />
	</node>
	<node id="-239332" lat="60.0394336261" lon="11.7115173929">
		<tag k="name" v="Handsjøen" />
		<tag k="natural" v="water" />
		<tag k="ssr:stedsnr" v="430562" />
		<tag k="water" v="lake" />
	</node>
	<node id="-239329" lat="60.0650111095" lon="11.5114416698">
		<tag k="name" v="Gorotjennet" />
		<tag k="natural" v="water" />
		<tag k="ssr:stedsnr" v="430522" />
	</node>
	<node id="-239328" lat="60.0588861084" lon="11.8182611194">
		<tag k="name" v="Store Hundtjennet" />
		<tag k="natural" v="water" />
		<tag k="ssr:stedsnr" v="430510" />
	</node>
	<node id="-239327" lat="60.075138885" lon="11.5913333261">
		<tag k="name" v="Sautjenn" />
		<tag k="natural" v="water" />
		<tag k="ssr:stedsnr" v="430482" />
	</node>
	<node id="-237278" lat="60.1663027778" lon="11.3904944365">
		<tag k="name" v="Finnstadevja" />
		<tag k="natural" v="bay" />
		<tag k="ssr:stedsnr" v="162273" />
	</node>
	<node id="-239322" lat="60.2137888862" lon="11.3562388944">
		<tag k="name" v="Svanfossen" />
		<tag k="natural" v="waterfall" />
		<tag k="ssr:stedsnr" v="430285" />
	</node>
	<node id="-237271" lat="60.0619194484" lon="11.5101111164">
		<tag k="name" v="Skulaue" />
		<tag k="natural" v="water" />
		<tag k="ssr:stedsnr" v="162314" />
		<tag k="water" v="pond" />
	</node>
	<node id="-237265" lat="60.0772055518" lon="11.5201916728">
		<tag k="loc_name" v="Myssmørkleivvika" />
		<tag k="name" v="Mysmørkleivvika" />
		<tag k="natural" v="bay" />
		<tag k="ssr:stedsnr" v="162067" />
	</node>
	<node id="-237261" lat="60.1288305532" lon="11.4857305596">
		<tag k="name" v="Dragåa" />
		<tag k="ssr:stedsnr" v="162023" />
		<tag k="waterway" v="stream" />
	</node>
	<node id="-239308" lat="60.9394388853" lon="11.516244439">
		<tag k="fixme" v="multiple name tags, choose one and add the other to alt_name" />
		<tag k="name" v="Glomma;Glåma" />
		<tag k="ssr:stedsnr" v="426301" />
		<tag k="waterway" v="river" />
	</node>
	<node id="-237257" lat="60.0435194436" lon="11.7518888844">
		<tag k="name" v="Aurputten" />
		<tag k="natural" v="water" />
		<tag k="ssr:stedsnr" v="127611" />
	</node>
	<node id="-239304" lat="60.2216805584" lon="11.4466583258">
		<tag k="name" v="Rokkalidammen" />
		<tag k="ssr:stedsnr" v="420985" />
		<tag k="waterway" v="dam" />
	</node>
	<node id="-237253" lat="60.3133999961" lon="11.4611055637">
		<tag k="alt_name" v="Butjenn" />
		<tag k="name" v="Butjennet" />
		<tag k="natural" v="water" />
		<tag k="ssr:stedsnr" v="127128" />
	</node>
	<node id="-237249" lat="60.0916916676" lon="11.660447231">
		<tag k="name" v="Hulderputtbekken" />
		<tag k="ssr:stedsnr" v="116931" />
		<tag k="waterway" v="stream" />
	</node>
	<node id="-239296" lat="60.2640972196" lon="11.5625250076">
		<tag k="name" v="Kvernbekken" />
		<tag k="ssr:stedsnr" v="420947" />
		<tag k="waterway" v="stream" />
	</node>
	<node id="-239294" lat="60.2509138911" lon="11.5052472148">
		<tag k="name" v="Oppsalfløyta" />
		<tag k="natural" v="water" />
		<tag k="ssr:stedsnr" v="420851" />
		<tag k="water" v="lake" />
	</node>
	<node id="-239280" lat="60.0122111141" lon="11.4736111147">
		<tag k="name" v="Kvernfallbekken" />
		<tag k="ssr:stedsnr" v="420156" />
		<tag k="waterway" v="stream" />
	</node>
	<node id="-239279" lat="60.1792666661" lon="11.3823111097">
		<tag k="name" v="Nordbyevja" />
		<tag k="natural" v="bay" />
		<tag k="ssr:stedsnr" v="420152" />
	</node>
	<node id="-237230" lat="60.0891833368" lon="11.7392249988">
		<tag k="name" v="Gututjennbekken" />
		<tag k="ssr:stedsnr" v="116520" />
		<tag k="waterway" v="stream" />
	</node>
	<node id="-239275" lat="60.2263222236" lon="11.4095111082">
		<tag k="name" v="Jonsrudbekken" />
		<tag k="ssr:stedsnr" v="420127" />
		<tag k="waterway" v="stream" />
	</node>
	<node id="-239261" lat="60.1836249959" lon="11.3822833263">
		<tag k="name" v="Kilen" />
		<tag k="natural" v="bay" />
		<tag k="ssr:stedsnr" v="420063" />
	</node>
	<node id="-239259" lat="60.040169444" lon="11.4542777704">
		<tag k="name" v="Finnholtsjøåa" />
		<tag k="ssr:stedsnr" v="413829" />
		<tag k="waterway" v="river" />
	</node>
	<node id="-237210" lat="60.2578638885" lon="11.5342888925">
		<tag k="name" v="Igletjennet" />
		<tag k="natural" v="water" />
		<tag k="ssr:stedsnr" v="249530" />
	</node>
	<node id="-237208" lat="60.2546555563" lon="11.4114750007">
		<tag k="alt_name" v="Langvatnet" />
		<tag k="name" v="Langvatn" />
		<tag k="natural" v="water" />
		<tag k="ssr:stedsnr" v="249193" />
	</node>
	<node id="-237205" lat="60.2806991548" lon="11.3670201718">
		<tag k="name" v="Igletjenna" />
		<tag k="natural" v="water" />
		<tag k="ssr:stedsnr" v="249172" />
		<tag k="water" v="lake" />
	</node>
	<node id="-237197" lat="60.0908055599" lon="11.7596666639">
		<tag k="name" v="Steintjennet" />
		<tag k="natural" v="water" />
		<tag k="ssr:stedsnr" v="248755" />
	</node>
	<node id="-237194" lat="60.0996194473" lon="11.7123833343">
		<tag k="name" v="Vangtjennet" />
		<tag k="natural" v="water" />
		<tag k="ssr:stedsnr" v="248741" />
	</node>
	<node id="-237192" lat="60.0956138893" lon="11.5164694508">
		<tag k="name" v="Veslesjøen" />
		<tag k="natural" v="water" />
		<tag k="ssr:stedsnr" v="248735" />
	</node>
	<node id="-237187" lat="60.0513250025" lon="11.7482305468">
		<tag k="name" v="Svarttjennet" />
		<tag k="natural" v="water" />
		<tag k="ssr:stedsnr" v="248550" />
	</node>
	<node id="-237186" lat="60.0537441392" lon="11.621150319">
		<tag k="name" v="Hanakamtjenna" />
		<tag k="natural" v="water" />
		<tag k="ssr:stedsnr" v="248546" />
		<tag k="water" v="lake" />
	</node>
	<node id="-237185" lat="60.0657138928" lon="11.7548916621">
		<tag k="name" v="Skallemyrtjennet" />
		<tag k="natural" v="water" />
		<tag k="ssr:stedsnr" v="248532" />
	</node>
	<node id="-237184" lat="60.0803124966" lon="11.7119139442">
		<tag k="name" v="Gututjenna" />
		<tag k="natural" v="water" />
		<tag k="ssr:stedsnr" v="248509" />
		<tag k="water" v="lake" />
	</node>
	<node id="-237183" lat="60.0791805596" lon="11.670874994">
		<tag k="name" v="Blekktjenn" />
		<tag k="natural" v="water" />
		<tag k="ssr:stedsnr" v="248508" />
	</node>
	<node id="-239230" lat="60.1088972255" lon="11.6861500001">
		<tag k="name" v="Kutjenn" />
		<tag k="natural" v="water" />
		<tag k="ssr:stedsnr" v="405150" />
	</node>
	<node id="-237845" lat="60.0825972196" lon="11.7178888801">
		<tag k="name" v="Kristeligtjennbekken" />
		<tag k="ssr:stedsnr" v="480616" />
		<tag k="waterway" v="stream" />
	</node>
	<node id="-239226" lat="60.0710222187" lon="11.6965694398">
		<tag k="name" v="Bjørndalstjennbekken" />
		<tag k="ssr:stedsnr" v="405374" />
		<tag k="waterway" v="stream" />
	</node>
	<node id="-239223" lat="60.0502027792" lon="11.5319805605">
		<tag k="name" v="Skulaue" />
		<tag k="natural" v="water" />
		<tag k="ssr:stedsnr" v="405295" />
	</node>
	<node id="-239211" lat="60.2640833348" lon="11.4031666636">
		<tag k="alt_name" v="Hoviputten" />
		<tag k="name" v="Hovipytten" />
		<tag k="natural" v="water" />
		<tag k="ssr:stedsnr" v="370250" />
	</node>
	<node id="-239210" lat="60.2815861132" lon="11.4595083318">
		<tag k="name" v="Rottjennet" />
		<tag k="natural" v="water" />
		<tag k="ssr:stedsnr" v="370224" />
	</node>
	<node id="-239209" lat="60.2925249968" lon="11.4537749996">
		<tag k="name" v="Garsjøen" />
		<tag k="natural" v="water" />
		<tag k="ssr:stedsnr" v="370201" />
		<tag k="water" v="lake" />
	</node>
	<node id="-237156" lat="60.0822416637" lon="11.7796805495">
		<tag k="name" v="Flaåa" />
		<tag k="ssr:stedsnr" v="66736" />
		<tag k="waterway" v="river" />
	</node>
	<node id="-237153" lat="60.1037277738" lon="11.695086114">
		<tag k="name" v="Krapptjenna" />
		<tag k="natural" v="water" />
		<tag k="ssr:stedsnr" v="66703" />
	</node>
	<node id="-239198" lat="60.0795000036" lon="11.5211333332">
		<tag k="name" v="Dragsjøen" />
		<tag k="natural" v="water" />
		<tag k="ssr:stedsnr" v="369719" />
		<tag k="water" v="lake" />
	</node>
	<node id="-239194" lat="60.0985916632" lon="11.5910722259">
		<tag k="name" v="Faltjennet" />
		<tag k="natural" v="water" />
		<tag k="old_name" v="Fartj" />
		<tag k="ssr:stedsnr" v="369698" />
	</node>
	<node id="-239193" lat="60.0973638872" lon="11.6521972224">
		<tag k="name" v="Nordre Børtjenna" />
		<tag k="natural" v="water" />
		<tag k="ssr:stedsnr" v="369692" />
	</node>
	<node id="-239192" lat="60.0986888915" lon="11.7072111164">
		<tag k="name" v="Svartputten" />
		<tag k="natural" v="water" />
		<tag k="ssr:stedsnr" v="369689" />
	</node>
	<node id="-239186" lat="60.0254833304" lon="11.5423111123">
		<tag k="alt_name" v="Grorudtjenn" />
		<tag k="name" v="Gorotjenn" />
		<tag k="natural" v="water" />
		<tag k="ssr:stedsnr" v="369516" />
	</node>
	<node id="-239183" lat="60.0491416683" lon="11.769733341">
		<tag k="name" v="Kverntjenna" />
		<tag k="natural" v="water" />
		<tag k="ssr:stedsnr" v="369486" />
	</node>
	<node id="-237128" lat="60.0943083342" lon="11.6517888802">
		<tag k="name" v="Børtjennåa" />
		<tag k="ssr:stedsnr" v="238966" />
		<tag k="waterway" v="stream" />
	</node>
	<node id="-237122" lat="60.2743333375" lon="11.3270444395">
		<tag k="name" v="Grensebekken" />
		<tag k="ssr:stedsnr" v="238923" />
		<tag k="waterway" v="stream" />
	</node>
	<node id="-237117" lat="60.3206388917" lon="11.4867888949">
		<tag k="name" v="Trettebråtatjenn" />
		<tag k="natural" v="water" />
		<tag k="ssr:stedsnr" v="238755" />
	</node>
	<node id="-237112" lat="60.2932416645" lon="11.428444445">
		<tag k="name" v="Torvtjenn" />
		<tag k="natural" v="water" />
		<tag k="ssr:stedsnr" v="238629" />
	</node>
	<node id="-239155" lat="60.3347055571" lon="11.4447888867">
		<tag k="name" v="Vesle Steinsjøen" />
		<tag k="natural" v="water" />
		<tag k="ssr:stedsnr" v="359749" />
	</node>
	<node id="-237100" lat="60.076266666" lon="11.6130138899">
		<tag k="loc_name" v="Svarthustjernet" />
		<tag k="name" v="Svarttjenn" />
		<tag k="natural" v="water" />
		<tag k="ssr:stedsnr" v="238295" />
	</node>
	<node id="-237099" lat="60.0745416706" lon="11.6307666602">
		<tag k="name" v="Sagbakktjenn" />
		<tag k="natural" v="water" />
		<tag k="ssr:stedsnr" v="238294" />
	</node>
	<node id="-237831" lat="60.082366665" lon="11.3233861164">
		<tag k="name" v="Putten" />
		<tag k="natural" v="water" />
		<tag k="ssr:stedsnr" v="672087" />
	</node>
	<node id="-239139" lat="60.0756444442" lon="11.608111118">
		<tag k="name" v="Gløtta" />
		<tag k="ssr:stedsnr" v="359346" />
		<tag k="waterway" v="stream" />
	</node>
	<node id="-239137" lat="60.1149500002" lon="11.6272055644">
		<tag k="name" v="Storholmen" />
		<tag k="place" v="islet" />
		<tag k="ssr:stedsnr" v="359105" />
	</node>
	<node id="-237086" lat="60.2268388871" lon="11.4962388966">
		<tag k="name" v="Sandbekken" />
		<tag k="ssr:stedsnr" v="238064" />
		<tag k="waterway" v="stream" />
	</node>
	<node id="-239131" lat="60.0278333317" lon="11.4749944529">
		<tag k="name" v="Langtjennveien" />
		<tag k="ssr:stedsnr" v="351821" />
		<tag k="waterway" v="river" />
	</node>
	<node id="-239129" lat="60.0288166675" lon="11.5415638895">
		<tag k="name" v="Gorotjennbekken" />
		<tag k="ssr:stedsnr" v="351803" />
		<tag k="waterway" v="stream" />
	</node>
	<node id="-239122" lat="60.031655553" lon="11.7651805537">
		<tag k="name" v="Rabbilltangen" />
		<tag k="natural" v="cape" />
		<tag k="ssr:stedsnr" v="344777" />
	</node>
	<node id="-239120" lat="60.027347222" lon="11.7981944439">
		<tag k="name" v="Løengnabben" />
		<tag k="natural" v="cape" />
		<tag k="ssr:stedsnr" v="344765" />
	</node>
	<node id="-237068" lat="60.0750138862" lon="11.5413638935">
		<tag k="name" v="Durbekken" />
		<tag k="ssr:stedsnr" v="56301" />
		<tag k="waterway" v="stream" />
	</node>
	<node id="-239113" lat="60.1459638908" lon="11.5814666608">
		<tag k="name" v="Nordre Opptjenn" />
		<tag k="natural" v="water" />
		<tag k="ssr:stedsnr" v="344480" />
	</node>
	<node id="-237062" lat="60.110327782" lon="11.5776861037">
		<tag k="name" v="Folbergtanga" />
		<tag k="natural" v="cape" />
		<tag k="ssr:stedsnr" v="56010" />
	</node>
	<node id="-237055" lat="60.1781083326" lon="11.3838500021">
		<tag k="name" v="Rudsevja" />
		<tag k="natural" v="bay" />
		<tag k="ssr:stedsnr" v="55159" />
	</node>
	<node id="-237052" lat="60.1785805596" lon="11.3845527773">
		<tag k="name" v="Rudstangen" />
		<tag k="natural" v="cape" />
		<tag k="ssr:stedsnr" v="237150" />
	</node>
	<node id="-239099" lat="60.1296499996" lon="11.6061916654">
		<tag k="name" v="Tannverkholmen" />
		<tag k="place" v="islet" />
		<tag k="ssr:stedsnr" v="344087" />
	</node>
	<node id="-237049" lat="60.0463222236" lon="11.7120861117">
		<tag k="name" v="Hauketjenn" />
		<tag k="natural" v="water" />
		<tag k="ssr:stedsnr" v="41918" />
	</node>
	<node id="-237048" lat="60.033650003" lon="11.792533328">
		<tag k="name" v="Dortetangen" />
		<tag k="natural" v="cape" />
		<tag k="ssr:stedsnr" v="41765" />
	</node>
	<node id="-237047" lat="59.9952500027" lon="11.4515416645">
		<tag k="name" v="Lille Asketjenn" />
		<tag k="natural" v="water" />
		<tag k="ssr:stedsnr" v="41727" />
	</node>
	<node id="-237045" lat="60.0905333316" lon="11.7002666616">
		<tag k="name" v="Lille Kristeligtjenn" />
		<tag k="natural" v="water" />
		<tag k="ssr:stedsnr" v="41513" />
	</node>
	<node id="-237042" lat="60.1259750038" lon="11.6089805485">
		<tag k="name" v="Sandtangen" />
		<tag k="natural" v="cape" />
		<tag k="ssr:stedsnr" v="41106" />
	</node>
	<node id="-239088" lat="60.2589027781" lon="11.562500008">
		<tag k="name" v="Fløyta" />
		<tag k="natural" v="water" />
		<tag k="ssr:stedsnr" v="310609" />
	</node>
	<node id="-239080" lat="60.0229944477" lon="11.5553305471">
		<tag k="name" v="Øysjøen" />
		<tag k="natural" v="water" />
		<tag k="ssr:stedsnr" v="309605" />
		<tag k="water" v="lake" />
	</node>
	<node id="-237820" lat="60.1163694418" lon="11.6621694489">
		<tag k="name" v="Søndre Slurpene" />
		<tag k="natural" v="water" />
		<tag k="ssr:stedsnr" v="466167" />
	</node>
	<node id="-239078" lat="60.0351305513" lon="11.7622916742">
		<tag k="alt_name" v="Rabillen" />
		<tag k="name" v="Rabbillen" />
		<tag k="natural" v="water" />
		<tag k="ssr:stedsnr" v="309589" />
		<tag k="water" v="lake" />
	</node>
	<node id="-239074" lat="60.0517722236" lon="11.8090333301">
		<tag k="name" v="Kleivtjennet" />
		<tag k="natural" v="water" />
		<tag k="ssr:stedsnr" v="309573" />
	</node>
	<node id="-239073" lat="60.0712694452" lon="11.7400222154">
		<tag k="name" v="Store Geittjennet" />
		<tag k="natural" v="water" />
		<tag k="ssr:stedsnr" v="309561" />
	</node>
	<node id="-239071" lat="60.0618638933" lon="11.7843333345">
		<tag k="name" v="Nettmangen" />
		<tag k="natural" v="water" />
		<tag k="ssr:stedsnr" v="309554" />
		<tag k="water" v="lake" />
	</node>
	<node id="-237021" lat="60.0813456705" lon="11.4043647753">
		<tag k="name" v="Beengen" />
		<tag k="natural" v="bay" />
		<tag k="old_name" v="Bæenga" />
		<tag k="ssr:stedsnr" v="223891" />
	</node>
	<node id="-239068" lat="60.0771037707" lon="11.5467175122">
		<tag k="name" v="Tretjenna" />
		<tag k="natural" v="water" />
		<tag k="ssr:stedsnr" v="309539" />
		<tag k="water" v="lake" />
	</node>
	<node id="-237017" lat="60.0234861112" lon="11.5801249977">
		<tag k="name" v="Puttjenn" />
		<tag k="natural" v="water" />
		<tag k="ssr:stedsnr" v="223832" />
	</node>
	<node id="-237014" lat="60.033480559" lon="11.7975833316">
		<tag k="name" v="Eriksbråtavika" />
		<tag k="natural" v="bay" />
		<tag k="ssr:stedsnr" v="223789" />
	</node>
	<node id="-237011" lat="60.1014555594" lon="11.4507222243">
		<tag k="name" v="Persbråtabekken" />
		<tag k="ssr:stedsnr" v="223729" />
		<tag k="waterway" v="stream" />
	</node>
	<node id="-239054" lat="60.2118527772" lon="11.5840749916">
		<tag k="name" v="Dyståa" />
		<tag k="ssr:stedsnr" v="308746" />
		<tag k="waterway" v="river" />
	</node>
	<node id="-239053" lat="60.0845250033" lon="11.7014833343">
		<tag k="name" v="Kristeligtjennet" />
		<tag k="natural" v="water" />
		<tag k="ssr:stedsnr" v="308736" />
	</node>
	<node id="-237004" lat="60.0702972222" lon="11.7004638801">
		<tag k="name" v="Vesletjenn" />
		<tag k="natural" v="water" />
		<tag k="ssr:stedsnr" v="223387" />
	</node>
	<node id="-239050" lat="60.0814444465" lon="11.6757861076">
		<tag k="name" v="Himmeltjenn" />
		<tag k="natural" v="water" />
		<tag k="ssr:stedsnr" v="308472" />
	</node>
	<node id="-239048" lat="60.1046194455" lon="11.676838889">
		<tag k="name" v="Kroktjenn" />
		<tag k="natural" v="water" />
		<tag k="ssr:stedsnr" v="308361" />
	</node>
	<node id="-239038" lat="60.3029138907" lon="11.4757583376">
		<tag k="alt_name" v="Bonntjenn" />
		<tag k="name" v="Botntjenn" />
		<tag k="natural" v="water" />
		<tag k="ssr:stedsnr" v="188969" />
	</node>
	<node id="-239025" lat="60.2862027748" lon="11.5079277767">
		<tag k="name" v="Tretjenna" />
		<tag k="natural" v="water" />
		<tag k="ssr:stedsnr" v="188593" />
		<tag k="water" v="lake" />
	</node>
	<node id="-239022" lat="60.2713305515" lon="11.3968805506">
		<tag k="name" v="Dalsjøen" />
		<tag k="natural" v="water" />
		<tag k="ssr:stedsnr" v="188224" />
	</node>
	<node id="-239021" lat="60.2989527759" lon="11.4246250064">
		<tag k="name" v="Vesle Garsjøen" />
		<tag k="natural" v="water" />
		<tag k="ssr:stedsnr" v="188199" />
	</node>
	<node id="-239018" lat="60.348183334" lon="11.424905549">
		<tag k="name" v="Murua" />
		<tag k="natural" v="water" />
		<tag k="ssr:stedsnr" v="188124" />
		<tag k="water" v="lake" />
	</node>
	<node id="-239010" lat="60.0410055522" lon="11.4250861109">
		<tag k="name" v="Lintjennet" />
		<tag k="natural" v="water" />
		<tag k="ssr:stedsnr" v="187890" />
	</node>
	<node id="-239008" lat="60.0305527775" lon="11.4608166594">
		<tag k="name" v="Falltjennet" />
		<tag k="natural" v="water" />
		<tag k="ssr:stedsnr" v="187878" />
	</node>
	<node id="-239006" lat="60.0919361125" lon="11.6455000073">
		<tag k="name" v="Søndre Børtjenna" />
		<tag k="natural" v="water" />
		<tag k="ssr:stedsnr" v="187702" />
	</node>
	<node id="-239005" lat="60.0239111082" lon="11.7878166658">
		<tag k="name" v="Vafuruodden" />
		<tag k="natural" v="cape" />
		<tag k="ssr:stedsnr" v="187698" />
	</node>
	<node id="-239004" lat="60.1090611123" lon="11.6742638977">
		<tag k="name" v="Langtjennet" />
		<tag k="natural" v="water" />
		<tag k="ssr:stedsnr" v="187679" />
	</node>
	<node id="-238996" lat="60.0766888905" lon="11.7619583322">
		<tag k="name" v="Kroktjennet" />
		<tag k="natural" v="water" />
		<tag k="ssr:stedsnr" v="187487" />
	</node>
	<node id="-238995" lat="60.0761277736" lon="11.7066222229">
		<tag k="name" v="Blekktjennet" />
		<tag k="natural" v="water" />
		<tag k="ssr:stedsnr" v="187485" />
	</node>
	<node id="-238991" lat="60.2263527775" lon="11.4425777783">
		<tag k="alt_name" v="Skjærbekken" />
		<tag k="name" v="Skjerbekken" />
		<tag k="ssr:stedsnr" v="187295" />
		<tag k="waterway" v="stream" />
	</node>
	<node id="-238965" lat="60.2434611073" lon="11.5046777687">
		<tag k="name" v="Uåa" />
		<tag k="ssr:stedsnr" v="177936" />
		<tag k="waterway" v="river" />
	</node>
	<node id="-238958" lat="60.2921138866" lon="11.4429277807">
		<tag k="name" v="Hukmyrbekken" />
		<tag k="ssr:stedsnr" v="177649" />
		<tag k="waterway" v="stream" />
	</node>
	<node id="-238954" lat="60.2155944406" lon="11.4347750008">
		<tag k="name" v="Bjørndalsbekken" />
		<tag k="ssr:stedsnr" v="177632" />
		<tag k="waterway" v="stream" />
	</node>
	<node id="-238952" lat="60.1639611075" lon="11.5491861117">
		<tag k="name" v="Saubekken" />
		<tag k="ssr:stedsnr" v="177787" />
		<tag k="waterway" v="stream" />
	</node>
	<node id="-238951" lat="60.3269555546" lon="11.4645166579">
		<tag k="name" v="Jonsoktjennet" />
		<tag k="natural" v="water" />
		<tag k="ssr:stedsnr" v="177776" />
	</node>
	<node id="-238949" lat="60.3102638898" lon="11.4843166672">
		<tag k="name" v="Bjortjennåa" />
		<tag k="ssr:stedsnr" v="177765" />
		<tag k="waterway" v="stream" />
	</node>
	<node id="-238945" lat="60.2943472234" lon="11.4674722256">
		<tag k="name" v="Bjørtjennåa" />
		<tag k="ssr:stedsnr" v="177612" />
		<tag k="waterway" v="river" />
	</node>
	<node id="-238920" lat="60.0530138894" lon="11.7808555481">
		<tag k="name" v="Eikestøa" />
		<tag k="natural" v="beach" />
		<tag k="ssr:stedsnr" v="162901" />
	</node>
	<node id="-238911" lat="60.0225388858" lon="11.7778638913">
		<tag k="name" v="Fløterfordelingshalvøya" />
		<tag k="place" v="islet" />
		<tag k="ssr:stedsnr" v="162768" />
	</node>
	<node id="-238909" lat="60.0859861121" lon="11.760811119">
		<tag k="name" v="Breie Kubekken" />
		<tag k="place" v="locality" />
		<tag k="ssr:stedsnr" v="162577" />
	</node>
	<node id="-238892" lat="60.1116055573" lon="11.5858111041">
		<tag k="name" v="Nordtangen" />
		<tag k="natural" v="cape" />
		<tag k="ssr:stedsnr" v="162047" />
	</node>
	<node id="-238875" lat="60.284997223" lon="11.5463944388">
		<tag k="alt_name" v="Blekåstjenn" />
		<tag k="name" v="Blekåstjennet" />
		<tag k="natural" v="water" />
		<tag k="ssr:stedsnr" v="127593" />
	</node>
	<node id="-238863" lat="60.0887833311" lon="11.7645333294">
		<tag k="name" v="Kubekken" />
		<tag k="ssr:stedsnr" v="126723" />
		<tag k="waterway" v="stream" />
	</node>
	<node id="-238861" lat="60.0802222229" lon="11.5452694415">
		<tag k="name" v="Stuetjennet" />
		<tag k="natural" v="water" />
		<tag k="ssr:stedsnr" v="126710" />
	</node>
	<node id="-238857" lat="60.0691833366" lon="11.6608388843">
		<tag k="name" v="Vangtjennet" />
		<tag k="natural" v="water" />
		<tag k="ssr:stedsnr" v="126508" />
	</node>
	<node id="-238840" lat="60.0522166706" lon="11.3815722315">
		<tag k="alt_name" v="Evja" />
		<tag k="name" v="Hagaevja" />
		<tag k="ssr:stedsnr" v="126026" />
		<tag k="waterway" v="river" />
	</node>
	<node id="-238838" lat="60.0011722243" lon="11.4450916616">
		<tag k="name" v="Asketjennet" />
		<tag k="natural" v="water" />
		<tag k="ssr:stedsnr" v="125496" />
	</node>
	<node id="-238837" lat="60.008197218" lon="11.7703444392">
		<tag k="name" v="Delebekken" />
		<tag k="ssr:stedsnr" v="119922" />
		<tag k="waterway" v="stream" />
	</node>
	<node id="-239484" lat="60.1067194422" lon="11.7029583256">
		<tag k="name" v="Hynntjennbekken" />
		<tag k="ssr:stedsnr" v="551721" />
		<tag k="waterway" v="stream" />
	</node>
	<node id="-238815" lat="60.1685638848" lon="11.5284666668">
		<tag k="name" v="Storholmen" />
		<tag k="place" v="islet" />
		<tag k="ssr:stedsnr" v="116753" />
	</node>
	<node id="-238804" lat="60.1789083332" lon="11.3863777855">
		<tag k="name" v="Rudsholmen" />
		<tag k="place" v="islet" />
		<tag k="ssr:stedsnr" v="116092" />
	</node>
	<node id="-238795" lat="60.2457833325" lon="11.320066667">
		<tag k="name" v="Hogsetevja" />
		<tag k="natural" v="bay" />
		<tag k="ssr:stedsnr" v="116126" />
	</node>
	<node id="-239479" lat="60.1611555543" lon="11.5074944425">
		<tag k="name" v="Sagstuåa" />
		<tag k="ssr:stedsnr" v="551670" />
		<tag k="waterway" v="river" />
	</node>
	<node id="-237089" lat="60.2327083355" lon="11.3424055594">
		<tag k="name" v="Valstadevja" />
		<tag k="natural" v="bay" />
		<tag k="ssr:stedsnr" v="238085" />
	</node>
	<node id="-238788" lat="60.032536107" lon="11.7245472258">
		<tag k="name" v="Håndsjødammen" />
		<tag k="ssr:stedsnr" v="109188" />
		<tag k="waterway" v="dam" />
	</node>
	<node id="-238780" lat="60.0686833291" lon="11.7023999978">
		<tag k="name" v="Lillebekken" />
		<tag k="ssr:stedsnr" v="102906" />
		<tag k="waterway" v="stream" />
	</node>
	<node id="-238779" lat="60.0372416696" lon="11.5383694505">
		<tag k="name" v="Skartjennbekken" />
		<tag k="ssr:stedsnr" v="102822" />
		<tag k="waterway" v="stream" />
	</node>
	<node id="-238767" lat="60.0679111071" lon="11.7121333316">
		<tag k="name" v="Furuodden" />
		<tag k="natural" v="cape" />
		<tag k="ssr:stedsnr" v="102433" />
	</node>
	<node id="-238762" lat="60.0612722232" lon="11.5750777699">
		<tag k="name" v="Nevertjernslora" />
		<tag k="place" v="locality" />
		<tag k="ssr:stedsnr" v="102352" />
	</node>
	<node id="-238755" lat="60.1214277821" lon="11.6280444367">
		<tag k="name" v="Vesle Butjenn" />
		<tag k="natural" v="water" />
		<tag k="ssr:stedsnr" v="102113" />
	</node>
	<node id="-238751" lat="60.082791666" lon="11.396597217">
		<tag k="name" v="Storholmen" />
		<tag k="place" v="islet" />
		<tag k="ssr:stedsnr" v="102030" />
	</node>
	<node id="-237081" lat="60.2328861148" lon="11.4994638883">
		<tag k="name" v="Vibekken" />
		<tag k="ssr:stedsnr" v="237972" />
		<tag k="waterway" v="stream" />
	</node>
	<node id="-238737" lat="60.1557388931" lon="11.3904833415">
		<tag k="name" v="Tesidammen" />
		<tag k="natural" v="water" />
		<tag k="ssr:stedsnr" v="101256" />
	</node>
	<node id="-238733" lat="60.0384888887" lon="11.808352774">
		<tag k="name" v="Maurtubekken" />
		<tag k="ssr:stedsnr" v="97768" />
		<tag k="waterway" v="stream" />
	</node>
	<node id="-238730" lat="60.3135166649" lon="11.4991055563">
		<tag k="name" v="Steintjennet" />
		<tag k="natural" v="water" />
		<tag k="ssr:stedsnr" v="67972" />
	</node>
	<node id="-238726" lat="60.2594527794" lon="11.5968055538">
		<tag k="name" v="Dysta" />
		<tag k="ssr:stedsnr" v="67563" />
		<tag k="waterway" v="stream" />
	</node>
	<node id="-238719" lat="60.0069277817" lon="11.4794222276">
		<tag k="name" v="Svartetjennet" />
		<tag k="natural" v="water" />
		<tag k="ssr:stedsnr" v="66572" />
	</node>
	<node id="-238717" lat="60.0121861071" lon="11.6364666625">
		<tag k="name" v="Myrsætertjenn" />
		<tag k="natural" v="water" />
		<tag k="ssr:stedsnr" v="66542" />
	</node>
	<node id="-238716" lat="60.0371027739" lon="11.740852778">
		<tag k="alt_name" v="Vesle-Rabbillen" />
		<tag k="name" v="Vesle Rabillen" />
		<tag k="natural" v="water" />
		<tag k="ssr:stedsnr" v="66532" />
	</node>
	<node id="-238713" lat="60.0747055541" lon="11.7549777752">
		<tag k="name" v="Langtjennet" />
		<tag k="natural" v="water" />
		<tag k="ssr:stedsnr" v="66488" />
	</node>
	<node id="-238711" lat="60.0743027813" lon="11.6453638977">
		<tag k="name" v="Abbortjenn" />
		<tag k="natural" v="water" />
		<tag k="ssr:stedsnr" v="66474" />
	</node>
	<node id="-238691" lat="60.0817583325" lon="11.7804694438">
		<tag k="name" v="Nedre Fålaknipa" />
		<tag k="ssr:stedsnr" v="57711" />
		<tag k="waterway" v="rapids" />
	</node>
	<node id="-238687" lat="60.1075750044" lon="11.5824361142">
		<tag k="name" v="Dansholma" />
		<tag k="place" v="islet" />
		<tag k="ssr:stedsnr" v="56945" />
	</node>
	<node id="-238682" lat="60.2667805528" lon="11.3468666741">
		<tag k="name" v="Dambekken" />
		<tag k="ssr:stedsnr" v="56931" />
		<tag k="waterway" v="stream" />
	</node>
	<node id="-238667" lat="60.1201611155" lon="11.6198611121">
		<tag k="name" v="Sjøtangen" />
		<tag k="natural" v="cape" />
		<tag k="ssr:stedsnr" v="56103" />
	</node>
	<node id="-238664" lat="60.2300888895" lon="11.55439444">
		<tag k="name" v="Sengebekken" />
		<tag k="ssr:stedsnr" v="56072" />
		<tag k="waterway" v="stream" />
	</node>
	<node id="-238659" lat="60.1660999994" lon="11.5483250019">
		<tag k="name" v="Sandakerevja" />
		<tag k="natural" v="bay" />
		<tag k="ssr:stedsnr" v="55733" />
	</node>
	<node id="-238653" lat="60.0609194405" lon="11.657752774">
		<tag k="name" v="Duppifu" />
		<tag k="natural" v="water" />
		<tag k="ssr:stedsnr" v="49630" />
	</node>
	<node id="-238642" lat="60.059041666" lon="11.786450005">
		<tag k="name" v="Anderstangen" />
		<tag k="natural" v="cape" />
		<tag k="ssr:stedsnr" v="41938" />
	</node>
	<node id="-238641" lat="60.0639472227" lon="11.7195722263">
		<tag k="name" v="Storebekken" />
		<tag k="ssr:stedsnr" v="41892" />
		<tag k="waterway" v="stream" />
	</node>
	<node id="-238636" lat="60.1062527769" lon="11.4474083266">
		<tag k="name" v="Grueevja" />
		<tag k="natural" v="bay" />
		<tag k="ssr:stedsnr" v="41689" />
	</node>
	<node id="-238627" lat="60.079833335" lon="11.6857249979">
		<tag k="name" v="Grønneputten" />
		<tag k="natural" v="water" />
		<tag k="ssr:stedsnr" v="41397" />
	</node>
	<node id="-238616" lat="60.0832805577" lon="11.3945305647">
		<tag k="name" v="Vesleholmen" />
		<tag k="place" v="islet" />
		<tag k="ssr:stedsnr" v="41028" />
	</node>
	<node id="-238610" lat="60.3312500014" lon="11.4703500058">
		<tag k="alt_name" v="Rabbtjenn" />
		<tag k="name" v="Rabbtjennet" />
		<tag k="natural" v="water" />
		<tag k="ssr:stedsnr" v="6979" />
	</node>
	<node id="-238607" lat="60.2171666677" lon="11.5353527865">
		<tag k="name" v="Bårhaugtjenn" />
		<tag k="natural" v="water" />
		<tag k="ssr:stedsnr" v="6757" />
	</node>
	<node id="-238600" lat="60.0417499991" lon="11.4716138871">
		<tag k="name" v="Vaskesjøen" />
		<tag k="natural" v="water" />
		<tag k="ssr:stedsnr" v="6592" />
		<tag k="water" v="lake" />
	</node>
	<node id="-238596" lat="60.0430083305" lon="11.5082805488">
		<tag k="name" v="Gørrtjenn" />
		<tag k="natural" v="water" />
		<tag k="ssr:stedsnr" v="6573" />
	</node>
	<node id="-238593" lat="60.1980555588" lon="11.3790166654">
		<tag k="name" v="Vorma" />
		<tag k="ssr:stedsnr" v="6274" />
		<tag k="waterway" v="river" />
	</node>
	<node id="-238589" lat="60.3397592407" lon="11.4119233322">
		<tag k="name" v="Utsjøen" />
		<tag k="natural" v="water" />
		<tag k="ssr:stedsnr" v="6114" />
		<tag k="water" v="lake" />
	</node>
	<node id="-238581" lat="60.0266472197" lon="11.4427361027">
		<tag k="name" v="Kjennsmotjennet" />
		<tag k="natural" v="water" />
		<tag k="ssr:stedsnr" v="5923" />
	</node>
	<node id="-238570" lat="60.0568194408" lon="11.6890472208">
		<tag k="name" v="Romsjøen" />
		<tag k="natural" v="water" />
		<tag k="ssr:stedsnr" v="5536" />
		<tag k="water" v="lake" />
	</node>
	<node id="-238569" lat="60.0507166686" lon="11.5984722141">
		<tag k="name" v="Kjøltjenn" />
		<tag k="natural" v="water" />
		<tag k="ssr:stedsnr" v="5528" />
	</node>
	<node id="-238568" lat="60.0554305601" lon="11.5394777711">
		<tag k="name" v="Geittjenn" />
		<tag k="natural" v="water" />
		<tag k="ssr:stedsnr" v="5525" />
	</node>
	<node id="-238566" lat="60.0779694434" lon="11.699599997">
		<tag k="fixme" v="multiple name tags, choose one and add the other to alt_name" />
		<tag k="name" v="Fugletjenna;Tretjenna" />
		<tag k="natural" v="water" />
		<tag k="ssr:stedsnr" v="5487" />
	</node>
	<node id="-238540" lat="60.3447888864" lon="11.4179944396">
		<tag k="name" v="Murutangen" />
		<tag k="natural" v="cape" />
		<tag k="ssr:stedsnr" v="966716" />
	</node>
	<node id="-238535" lat="60.08420278" lon="11.6282444466">
		<tag k="name" v="Børåa" />
		<tag k="ssr:stedsnr" v="966359" />
		<tag k="waterway" v="stream" />
	</node>
	<node id="-238530" lat="60.2853722251" lon="11.4441083295">
		<tag k="name" v="Rognbekken" />
		<tag k="ssr:stedsnr" v="965868" />
		<tag k="waterway" v="stream" />
	</node>
	<node id="-238505" lat="60.0790388878" lon="11.4329305611">
		<tag k="name" v="Korpedalsbekken" />
		<tag k="ssr:stedsnr" v="951063" />
		<tag k="waterway" v="stream" />
	</node>
	<node id="-238500" lat="60.1173499995" lon="11.6048055528">
		<tag k="name" v="Nilsstuåa" />
		<tag k="ssr:stedsnr" v="951042" />
		<tag k="waterway" v="stream" />
	</node>
	<node id="-238494" lat="60.2673250028" lon="11.3653944443">
		<tag k="name" v="Lågsjøen" />
		<tag k="natural" v="water" />
		<tag k="ssr:stedsnr" v="917170" />
	</node>
	<node id="-238488" lat="60.1272171568" lon="11.6084850574">
		<tag k="name" v="Flæman" />
		<tag k="natural" v="water" />
		<tag k="ssr:stedsnr" v="916710" />
		<tag k="water" v="lake" />
	</node>
	<node id="-238484" lat="60.0516638887" lon="11.706877781">
		<tag k="name" v="Kjeppen" />
		<tag k="natural" v="water" />
		<tag k="ssr:stedsnr" v="916566" />
	</node>
	<node id="-238482" lat="60.0130583357" lon="11.7306055503">
		<tag k="fixme" v="multiple name tags, choose one and add the other to alt_name" />
		<tag k="name" v="Lauvtjenn;Lautjennet" />
		<tag k="natural" v="water" />
		<tag k="old_name" v="BallerudsTj" />
		<tag k="ssr:stedsnr" v="916615" />
	</node>
	<node id="-238476" lat="60.322183331" lon="11.4383638838">
		<tag k="name" v="Steinsjøbekken" />
		<tag k="ssr:stedsnr" v="916118" />
		<tag k="waterway" v="stream" />
	</node>
	<node id="-238450" lat="60.0843777754" lon="11.7296888908">
		<tag k="name" v="Delingsbekken" />
		<tag k="ssr:stedsnr" v="905623" />
		<tag k="waterway" v="stream" />
	</node>
	<node id="-238447" lat="60.2468000006" lon="11.3302222213">
		<tag k="name" v="Ileevja" />
		<tag k="natural" v="bay" />
		<tag k="ssr:stedsnr" v="905125" />
	</node>
	<node id="-238445" lat="60.0714194435" lon="11.6187250044">
		<tag k="name" v="Kvernbekken" />
		<tag k="ssr:stedsnr" v="905264" />
		<tag k="waterway" v="stream" />
	</node>
	<node id="-238438" lat="60.0533944441" lon="11.3815666599">
		<tag k="name" v="Munkerudevja" />
		<tag k="place" v="locality" />
		<tag k="ssr:stedsnr" v="891226" />
	</node>
	<node id="-238437" lat="60.1376000039" lon="11.324508337">
		<tag k="name" v="Sameiebekken" />
		<tag k="ssr:stedsnr" v="891207" />
		<tag k="waterway" v="stream" />
	</node>
	<node id="-238425" lat="60.1416719236" lon="11.6055861517">
		<tag k="alt_name" v="Svarttjenn" />
		<tag k="name" v="Store Svarttjenn" />
		<tag k="natural" v="water" />
		<tag k="ssr:stedsnr" v="855676" />
	</node>
	<node id="-238424" lat="60.0821277793" lon="11.5959638813">
		<tag k="name" v="Andtjennet" />
		<tag k="natural" v="water" />
		<tag k="ssr:stedsnr" v="855762" />
	</node>
	<node id="-238412" lat="60.0693777785" lon="11.6846583357">
		<tag k="name" v="Vesle Bjørndalstjenn" />
		<tag k="natural" v="water" />
		<tag k="ssr:stedsnr" v="845318" />
	</node>
	<node id="-238411" lat="60.0306694444" lon="11.5549916699">
		<tag k="name" v="Kjenslitjenn" />
		<tag k="natural" v="water" />
		<tag k="ssr:stedsnr" v="837804" />
	</node>
	<node id="-238402" lat="60.2935388924" lon="11.4851833392">
		<tag k="alt_name" v="Vasketjenn" />
		<tag k="name" v="Vasketjennet" />
		<tag k="natural" v="water" />
		<tag k="ssr:stedsnr" v="795964" />
	</node>
	<node id="-238395" lat="60.1685000015" lon="11.5313111164">
		<tag k="name" v="Funnefoss" />
		<tag k="natural" v="waterfall" />
		<tag k="ssr:stedsnr" v="794833" />
	</node>
	<node id="-238392" lat="60.068649996" lon="11.7133083345">
		<tag k="alt_name" v="Store Takholttjenn" />
		<tag k="name" v="Takholttjennet" />
		<tag k="natural" v="water" />
		<tag k="ssr:stedsnr" v="794509" />
	</node>
	<node id="-238391" lat="60.070083331" lon="11.682255549">
		<tag k="name" v="Bjørndalstjenn" />
		<tag k="natural" v="water" />
		<tag k="ssr:stedsnr" v="794506" />
	</node>
	<node id="-238384" lat="60.1965999983" lon="11.4933916683">
		<tag k="name" v="Ua" />
		<tag k="ssr:stedsnr" v="916851" />
		<tag k="waterway" v="river" />
	</node>
	<node id="-239069" lat="60.0642861123" lon="11.5803638904">
		<tag k="name" v="Nevertjennet" />
		<tag k="natural" v="water" />
		<tag k="ssr:stedsnr" v="309549" />
	</node>
	<node id="-238316" lat="60.0658527793" lon="11.684427786">
		<tag k="name" v="Koppen" />
		<tag k="natural" v="water" />
		<tag k="ssr:stedsnr" v="905324" />
		<tag k="water" v="pond" />
	</node>
	<node id="-238306" lat="60.2624611069" lon="11.4105583372">
		<tag k="name" v="Vesleputten" />
		<tag k="natural" v="water" />
		<tag k="ssr:stedsnr" v="906937" />
		<tag k="water" v="pond" />
	</node>
	<node id="-238294" lat="60.1028222229" lon="11.5962444396">
		<tag k="name" v="Gørtjennbekken" />
		<tag k="ssr:stedsnr" v="723991" />
		<tag k="waterway" v="stream" />
	</node>
	<node id="-238289" lat="60.2919750035" lon="11.4002999945">
		<tag k="name" v="Skarningsbekken" />
		<tag k="ssr:stedsnr" v="723608" />
		<tag k="waterway" v="stream" />
	</node>
	<node id="-238273" lat="60.0642111081" lon="11.6437999995">
		<tag k="name" v="Holebekken" />
		<tag k="ssr:stedsnr" v="716612" />
		<tag k="waterway" v="stream" />
	</node>
	<node id="-238256" lat="60.0288027734" lon="11.6594805578">
		<tag k="name" v="Bikkjesøla" />
		<tag k="natural" v="water" />
		<tag k="ssr:stedsnr" v="891809" />
		<tag k="water" v="pond" />
	</node>
	<node id="-238252" lat="60.0229722249" lon="11.7829611063">
		<tag k="name" v="Nabbevika" />
		<tag k="natural" v="bay" />
		<tag k="ssr:stedsnr" v="891767" />
	</node>
	<node id="-238251" lat="60.0245388882" lon="11.7566694387">
		<tag k="name" v="Grasbråtafossen" />
		<tag k="natural" v="waterfall" />
		<tag k="ssr:stedsnr" v="891765" />
	</node>
	<node id="-238237" lat="60.1195166682" lon="11.659380547">
		<tag k="name" v="Nordre Slurpene" />
		<tag k="natural" v="water" />
		<tag k="ssr:stedsnr" v="891171" />
	</node>
	<node id="-238231" lat="60.0852750007" lon="11.4127638833">
		<tag k="name" v="Stahaugevja" />
		<tag k="natural" v="bay" />
		<tag k="ssr:stedsnr" v="891073" />
	</node>
	<node id="-238228" lat="60.0458444484" lon="11.6168416702">
		<tag k="name" v="Nordre Flinttjenn" />
		<tag k="natural" v="water" />
		<tag k="ssr:stedsnr" v="890731" />
	</node>
	<node id="-238225" lat="60.1386156314" lon="11.5951349956">
		<tag k="name" v="Søndre Opptjenn" />
		<tag k="natural" v="water" />
		<tag k="ssr:stedsnr" v="890486" />
	</node>
	<node id="-238215" lat="60.1640722215" lon="11.4069694397">
		<tag k="name" v="Hovinevja" />
		<tag k="natural" v="bay" />
		<tag k="ssr:stedsnr" v="890282" />
	</node>
	<node id="-238209" lat="60.0213222258" lon="11.4088722154">
		<tag k="name" v="Sloråa" />
		<tag k="old_name" v="Mjølukåa" />
		<tag k="ssr:stedsnr" v="889165" />
		<tag k="waterway" v="river" />
	</node>
	<node id="-238194" lat="60.2797111141" lon="11.5092249965">
		<tag k="name" v="Raubekken" />
		<tag k="ssr:stedsnr" v="662865" />
		<tag k="waterway" v="stream" />
	</node>
	<node id="-238193" lat="60.2716138923" lon="11.4865583311">
		<tag k="name" v="Kvernbekken" />
		<tag k="ssr:stedsnr" v="662859" />
		<tag k="waterway" v="stream" />
	</node>
	<node id="-238190" lat="60.3014916684" lon="11.4020861112">
		<tag k="name" v="Badstufløyta" />
		<tag k="natural" v="water" />
		<tag k="ssr:stedsnr" v="662655" />
		<tag k="water" v="lake" />
	</node>
	<node id="-238186" lat="60.1641555562" lon="11.3411472182">
		<tag k="name" v="Kortbekken" />
		<tag k="ssr:stedsnr" v="662504" />
		<tag k="waterway" v="stream" />
	</node>
	<node id="-238175" lat="60.31306111" lon="11.489944443">
		<tag k="fixme" v="multiple name tags, choose one and add the other to alt_name" />
		<tag k="name" v="Nedre Bjørtjenn;Søndre Bjørtjennet" />
		<tag k="natural" v="water" />
		<tag k="ssr:stedsnr" v="734970" />
	</node>
	<node id="-238174" lat="60.0239694448" lon="11.7743777722">
		<tag k="name" v="Rødeholmen" />
		<tag k="natural" v="cape" />
		<tag k="ssr:stedsnr" v="649721" />
	</node>
	<node id="-237669" lat="60.238347218" lon="11.4372777719">
		<tag k="name" v="Setertjennet" />
		<tag k="natural" v="water" />
		<tag k="ssr:stedsnr" v="298968" />
	</node>
	<node id="-238171" lat="60.0153249958" lon="11.7238805501">
		<tag k="alt_name" v="Svartkulpen" />
		<tag k="name" v="Svartputten" />
		<tag k="natural" v="water" />
		<tag k="ssr:stedsnr" v="734631" />
	</node>
	<node id="-238170" lat="60.0107388874" lon="11.6831805473">
		<tag k="alt_name" v="Aurpytten" />
		<tag k="name" v="Aurputten" />
		<tag k="natural" v="water" />
		<tag k="ssr:stedsnr" v="734628" />
	</node>
	<node id="-238169" lat="60.006194444" lon="11.670383327">
		<tag k="name" v="Steintjenn" />
		<tag k="natural" v="water" />
		<tag k="ssr:stedsnr" v="734627" />
	</node>
	<node id="-238167" lat="60.0317905044" lon="11.531663876">
		<tag k="name" v="Abbortjenna" />
		<tag k="natural" v="water" />
		<tag k="ssr:stedsnr" v="734620" />
		<tag k="water" v="lake" />
	</node>
	<node id="-238166" lat="60.0337249965" lon="11.6304444494">
		<tag k="alt_name" v="Gørrtjenna" />
		<tag k="name" v="Gørrtjennet" />
		<tag k="natural" v="water" />
		<tag k="ssr:stedsnr" v="734598" />
	</node>
	<node id="-238163" lat="60.050297224" lon="11.7096972256">
		<tag k="name" v="Kvennåa" />
		<tag k="ssr:stedsnr" v="647937" />
		<tag k="waterway" v="stream" />
	</node>
	<node id="-238161" lat="60.0593611112" lon="11.696549995">
		<tag k="name" v="Kavlebruvika" />
		<tag k="natural" v="bay" />
		<tag k="ssr:stedsnr" v="647917" />
	</node>
	<node id="-238154" lat="60.0044194482" lon="11.4695305637">
		<tag k="name" v="Ringtjenn" />
		<tag k="natural" v="water" />
		<tag k="ssr:stedsnr" v="647474" />
	</node>
	<node id="-238150" lat="60.1067694478" lon="11.6727305618">
		<tag k="name" v="Langtjennbekken" />
		<tag k="ssr:stedsnr" v="647520" />
		<tag k="waterway" v="stream" />
	</node>
	<node id="-238144" lat="60.0779166634" lon="11.5135749938">
		<tag k="name" v="Gorotjernbekken" />
		<tag k="ssr:stedsnr" v="647098" />
		<tag k="waterway" v="stream" />
	</node>
	<node id="-238136" lat="60.2836607508" lon="11.3850352262">
		<tag k="name" v="Netsjøen" />
		<tag k="natural" v="water" />
		<tag k="ssr:stedsnr" v="734208" />
		<tag k="water" v="lake" />
	</node>
	<node id="-238133" lat="60.2918361084" lon="11.4189305542">
		<tag k="name" v="Tjernslidalstjennet" />
		<tag k="natural" v="water" />
		<tag k="ssr:stedsnr" v="734184" />
	</node>
	<node id="-238128" lat="60.3099666663" lon="11.4033583286">
		<tag k="name" v="Hofossen" />
		<tag k="natural" v="waterfall" />
		<tag k="ssr:stedsnr" v="734154" />
	</node>
	<node id="-238120" lat="60.0467277734" lon="11.4646055596">
		<tag k="name" v="Finnholtsjøen" />
		<tag k="natural" v="water" />
		<tag k="old_name" v="Finholtsjøen" />
		<tag k="ssr:stedsnr" v="733891" />
		<tag k="water" v="lake" />
	</node>
	<node id="-238117" lat="60.0888694415" lon="11.7522388898">
		<tag k="name" v="Vangtjenn" />
		<tag k="natural" v="water" />
		<tag k="ssr:stedsnr" v="733736" />
	</node>
	<node id="-238116" lat="60.0952750035" lon="11.7561194383">
		<tag k="name" v="Flasjøen" />
		<tag k="natural" v="water" />
		<tag k="ssr:stedsnr" v="733728" />
		<tag k="water" v="lake" />
	</node>
	<node id="-238110" lat="60.2401612317" lon="11.4442116368">
		<tag k="alt_name" v="Putta" />
		<tag k="name" v="Putten" />
		<tag k="natural" v="water" />
		<tag k="ssr:stedsnr" v="733308" />
	</node>
	<node id="-238097" lat="60.0659611071" lon="11.7059694425">
		<tag k="name" v="Aurkytemeiteriet" />
		<tag k="place" v="locality" />
		<tag k="ssr:stedsnr" v="769372" />
	</node>
	<node id="-238095" lat="60.1020694481" lon="11.6706222182">
		<tag k="name" v="Kroktjennbekken" />
		<tag k="ssr:stedsnr" v="723939" />
		<tag k="waterway" v="stream" />
	</node>
	<node id="-238092" lat="60.27459167" lon="11.3944138969">
		<tag k="name" v="Dalsjøbekken" />
		<tag k="ssr:stedsnr" v="723902" />
		<tag k="waterway" v="stream" />
	</node>
	<node id="-238074" lat="60.1029000021" lon="11.7057416621">
		<tag k="name" v="Midtre Krapptjenn" />
		<tag k="natural" v="water" />
		<tag k="ssr:stedsnr" v="723599" />
	</node>
	<node id="-238073" lat="60.1073083295" lon="11.6970333376">
		<tag k="name" v="Sølvflo" />
		<tag k="natural" v="water" />
		<tag k="ssr:stedsnr" v="723591" />
		<tag k="water" v="pond" />
	</node>
	<node id="-238058" lat="60.1131444469" lon="11.6312361054">
		<tag k="name" v="Jørgenholmen" />
		<tag k="place" v="islet" />
		<tag k="ssr:stedsnr" v="723066" />
	</node>
	<node id="-238053" lat="60.01141111" lon="11.6261388806">
		<tag k="fixme" v="multiple name tags, choose one and add the other to alt_name" />
		<tag k="name" v="Aurpytten;Ørkytetjennet" />
		<tag k="natural" v="water" />
		<tag k="ssr:stedsnr" v="612605" />
		<tag k="water" v="pond" />
	</node>
	<node id="-238052" lat="60.0239888875" lon="11.7580416622">
		<tag k="name" v="Handsjøåa" />
		<tag k="ssr:stedsnr" v="612591" />
		<tag k="waterway" v="river" />
	</node>
	<node id="-238050" lat="60.04193333" lon="11.7487972221">
		<tag k="name" v="Kattjenn" />
		<tag k="natural" v="water" />
		<tag k="ssr:stedsnr" v="612582" />
	</node>
	<node id="-238049" lat="60.0366861141" lon="11.5513638839">
		<tag k="name" v="Posttjennet" />
		<tag k="natural" v="water" />
		<tag k="ssr:stedsnr" v="612572" />
	</node>
	<node id="-238041" lat="60.1059722196" lon="11.6164305544">
		<tag k="name" v="Høgåssetertjenn" />
		<tag k="natural" v="water" />
		<tag k="ssr:stedsnr" v="601998" />
	</node>
	<node id="-238040" lat="60.0998888852" lon="11.6010694426">
		<tag k="name" v="Gørtjenn" />
		<tag k="natural" v="water" />
		<tag k="ssr:stedsnr" v="601991" />
	</node>
	<node id="-238027" lat="60.0960388893" lon="11.7292694481">
		<tag k="name" v="Kvernbekken" />
		<tag k="ssr:stedsnr" v="601614" />
		<tag k="waterway" v="stream" />
	</node>
	<node id="-238019" lat="60.0584138875" lon="11.6777305623">
		<tag k="name" v="Fjugåa" />
		<tag k="ssr:stedsnr" v="716927" />
		<tag k="waterway" v="stream" />
	</node>
	<node id="-238017" lat="60.0399527808" lon="11.7203277819">
		<tag k="name" v="Glasshaugtjennet" />
		<tag k="natural" v="water" />
		<tag k="ssr:stedsnr" v="716220" />
	</node>
	<node id="-240061" lat="60.0253047856" lon="11.4935967418">
		<tag k="name" v="Langtjenn" />
		<tag k="natural" v="water" />
		<tag k="ssr:stedsnr" v="990113" />
	</node>
	<node id="-238009" lat="60.0393194443" lon="11.6142972198">
		<tag k="name" v="Lundbergsetertjenn" />
		<tag k="natural" v="water" />
		<tag k="ssr:stedsnr" v="587803" />
	</node>
	<node id="-240050" lat="60.0886722198" lon="11.6914444526">
		<tag k="name" v="Rudsputten" />
		<tag k="natural" v="water" />
		<tag k="ssr:stedsnr" v="966944" />
		<tag k="water" v="pond" />
	</node>
	<node id="-237999" lat="60.0568972258" lon="11.7846499965">
		<tag k="name" v="Bukketangen" />
		<tag k="natural" v="cape" />
		<tag k="ssr:stedsnr" v="708940" />
	</node>
	<node id="-237997" lat="60.0441666697" lon="11.722541669">
		<tag k="name" v="Sautjenn" />
		<tag k="natural" v="water" />
		<tag k="ssr:stedsnr" v="708926" />
	</node>
	<node id="-237991" lat="60.050177778" lon="11.782036109">
		<tag k="name" v="Bekkevika" />
		<tag k="natural" v="bay" />
		<tag k="ssr:stedsnr" v="708882" />
	</node>
	<node id="-237990" lat="60.0493055547" lon="11.7871916753">
		<tag k="name" v="Boholauren" />
		<tag k="natural" v="beach" />
		<tag k="ssr:stedsnr" v="708877" />
	</node>
	<node id="-240034" lat="60.1068416688" lon="11.5118027723">
		<tag k="name" v="Droggebekken" />
		<tag k="ssr:stedsnr" v="966976" />
		<tag k="waterway" v="stream" />
	</node>
	<node id="-237975" lat="60.0863638901" lon="11.6825694509">
		<tag k="name" v="Lille Fugletjennet" />
		<tag k="natural" v="water" />
		<tag k="ssr:stedsnr" v="708355" />
		<tag k="water" v="pond" />
	</node>
	<node id="-240010" lat="60.2676250019" lon="11.4419694482">
		<tag k="name" v="Fyritjennet" />
		<tag k="natural" v="water" />
		<tag k="ssr:stedsnr" v="965913" />
	</node>
	<node id="-237959" lat="60.2948805533" lon="11.4619027851">
		<tag k="name" v="Garsjøbekken" />
		<tag k="ssr:stedsnr" v="299625" />
		<tag k="waterway" v="stream" />
	</node>
	<node id="-237958" lat="60.3064361078" lon="11.4437249926">
		<tag k="name" v="Migedalsbekken" />
		<tag k="ssr:stedsnr" v="299623" />
		<tag k="waterway" v="stream" />
	</node>
	<node id="-240003" lat="60.0289861106" lon="11.4546333408">
		<tag k="name" v="Fallåa" />
		<tag k="ssr:stedsnr" v="959822" />
		<tag k="waterway" v="river" />
	</node>
	<node id="-240002" lat="60.024522221" lon="11.4791972179">
		<tag k="name" v="Langtjennåa" />
		<tag k="ssr:stedsnr" v="959818" />
		<tag k="waterway" v="river" />
	</node>
	<node id="-237632" lat="60.0369305541" lon="11.6698666712">
		<tag k="alt_name" v="Ostetjenn" />
		<tag k="name" v="Ostetjennet" />
		<tag k="natural" v="water" />
		<tag k="ssr:stedsnr" v="491577" />
	</node>
	<node id="-239988" lat="60.0528749962" lon="11.7630388812">
		<tag k="name" v="Vesle Kverntjenn" />
		<tag k="natural" v="water" />
		<tag k="ssr:stedsnr" v="951882" />
	</node>
	<node id="-239986" lat="60.064972223" lon="11.7723000077">
		<tag k="name" v="Dalavika" />
		<tag k="natural" v="bay" />
		<tag k="ssr:stedsnr" v="951831" />
	</node>
	<node id="-239983" lat="60.0494361107" lon="11.7118194449">
		<tag k="name" v="Laueputten" />
		<tag k="natural" v="water" />
		<tag k="ssr:stedsnr" v="951933" />
		<tag k="water" v="lake" />
	</node>
	<node id="-237934" lat="60.0773222264" lon="11.6200916722">
		<tag k="name" v="Sovesteinfløyta" />
		<tag k="natural" v="water" />
		<tag k="ssr:stedsnr" v="541307" />
		<tag k="water" v="lake" />
	</node>
	<node id="-239981" lat="60.0313166698" lon="11.7936666694">
		<tag k="name" v="Kvernhuskulpen" />
		<tag k="place" v="locality" />
		<tag k="ssr:stedsnr" v="951774" />
	</node>
	<node id="-237923" lat="60.0690222261" lon="11.7894861104">
		<tag k="name" v="Pålerudfløyta" />
		<tag k="natural" v="water" />
		<tag k="ssr:stedsnr" v="526569" />
		<tag k="water" v="lake" />
	</node>
	<node id="-237921" lat="60.0762583365" lon="11.6904861085">
		<tag k="name" v="Grønneputten" />
		<tag k="natural" v="water" />
		<tag k="ssr:stedsnr" v="526374" />
	</node>
	<node id="-237284" lat="60.0304527789" lon="11.5330000077">
		<tag k="name" v="Åbortjenn" />
		<tag k="natural" v="water" />
		<tag k="ssr:stedsnr" v="162827" />
	</node>
	<node id="-237901" lat="60.2018305572" lon="11.5359555485">
		<tag k="name" v="Gulltjenn" />
		<tag k="natural" v="water" />
		<tag k="ssr:stedsnr" v="673766" />
	</node>
	<node id="-239946" lat="60.0503722178" lon="11.5413722254">
		<tag k="name" v="Flolangen" />
		<tag k="natural" v="water" />
		<tag k="ssr:stedsnr" v="855549" />
		<tag k="water" v="lake" />
	</node>
	<node id="-239945" lat="60.0462444464" lon="11.5270611026">
		<tag k="name" v="Skardtjenn" />
		<tag k="natural" v="water" />
		<tag k="ssr:stedsnr" v="855536" />
	</node>
	<node id="-237893" lat="60.284494447" lon="11.4933083281">
		<tag k="alt_name" v="Stortjenn" />
		<tag k="name" v="Stortjennet" />
		<tag k="natural" v="water" />
		<tag k="ssr:stedsnr" v="673571" />
	</node>
	<node id="-237891" lat="60.0380722242" lon="11.6059194511">
		<tag k="name" v="Ristjenn" />
		<tag k="natural" v="water" />
		<tag k="ssr:stedsnr" v="673563" />
	</node>
	<node id="-237889" lat="60.0428666704" lon="11.5892166737">
		<tag k="name" v="Klartjennet" />
		<tag k="natural" v="water" />
		<tag k="ssr:stedsnr" v="673549" />
	</node>
	<node id="-237888" lat="60.0588472265" lon="11.6736694515">
		<tag k="name" v="Gørrtjenn" />
		<tag k="natural" v="water" />
		<tag k="ssr:stedsnr" v="673535" />
	</node>
	<node id="-237886" lat="60.0768861078" lon="11.7683944491">
		<tag k="alt_name" v="Ulvelitjenn" />
		<tag k="name" v="Ulvlitjenn" />
		<tag k="natural" v="water" />
		<tag k="ssr:stedsnr" v="673530" />
	</node>
	<node id="-239918" lat="60.1000833341" lon="11.553261109">
		<tag k="name" v="Gørbekken" />
		<tag k="ssr:stedsnr" v="845986" />
		<tag k="waterway" v="stream" />
	</node>
	<node id="-239911" lat="60.0955055583" lon="11.6802027703">
		<tag k="name" v="Rudsbekken" />
		<tag k="ssr:stedsnr" v="845952" />
		<tag k="waterway" v="stream" />
	</node>
	<node id="-237856" lat="60.279258337" lon="11.3836500005">
		<tag k="name" v="Merrahølen" />
		<tag k="natural" v="water" />
		<tag k="ssr:stedsnr" v="480912" />
		<tag k="water" v="lake" />
	</node>
	<node id="-239900" lat="60.3313277762" lon="11.4506249935">
		<tag k="name" v="Sjøvika" />
		<tag k="natural" v="bay" />
		<tag k="ssr:stedsnr" v="845795" />
	</node>
	<node id="-239893" lat="60.0953888873" lon="11.7483944427">
		<tag k="name" v="Sundtangen" />
		<tag k="natural" v="cape" />
		<tag k="ssr:stedsnr" v="845666" />
	</node>
	<node id="-237834" lat="60.2396888869" lon="11.4058833311">
		<tag k="name" v="Ellingsjøen" />
		<tag k="natural" v="water" />
		<tag k="ssr:stedsnr" v="672282" />
		<tag k="water" v="lake" />
	</node>
	<node id="-239879" lat="60.2013333295" lon="11.5460055635">
		<tag k="name" v="Gullbekken" />
		<tag k="ssr:stedsnr" v="845469" />
		<tag k="waterway" v="stream" />
	</node>
	<node id="-237827" lat="60.0226611127" lon="11.7856833331">
		<tag k="name" v="Bunesnabben" />
		<tag k="natural" v="cape" />
		<tag k="ssr:stedsnr" v="468703" />
	</node>
	<node id="-239874" lat="60.1781083304" lon="11.3297694374">
		<tag k="name" v="Kortbekken" />
		<tag k="ssr:stedsnr" v="845169" />
		<tag k="waterway" v="stream" />
	</node>
	<node id="-239873" lat="60.2458194468" lon="11.336963893">
		<tag k="name" v="Ilebekken" />
		<tag k="ssr:stedsnr" v="845133" />
		<tag k="waterway" v="stream" />
	</node>
	<node id="-239868" lat="60.1818194485" lon="11.3852027765">
		<tag k="name" v="Nordbyholmen" />
		<tag k="place" v="islet" />
		<tag k="ssr:stedsnr" v="845090" />
	</node>
	<node id="-239853" lat="60.0669555551" lon="11.6650499921">
		<tag k="name" v="Hundtjenn" />
		<tag k="natural" v="water" />
		<tag k="ssr:stedsnr" v="845352" />
		<tag k="water" v="pond" />
	</node>
	<node id="-237797" lat="60.106730553" lon="11.6541555551">
		<tag k="name" v="Kastholtjenn" />
		<tag k="natural" v="water" />
		<tag k="ssr:stedsnr" v="662957" />
	</node>
	<node id="-239843" lat="60.0360666692" lon="11.5845361075">
		<tag k="name" v="Tretjenn" />
		<tag k="natural" v="water" />
		<tag k="ssr:stedsnr" v="830808" />
	</node>
	<node id="-239842" lat="60.033927781" lon="11.7665194433">
		<tag k="name" v="Lomberget" />
		<tag k="place" v="islet" />
		<tag k="ssr:stedsnr" v="830769" />
	</node>
	<node id="-237605" lat="60.074794443" lon="11.7342194417">
		<tag k="name" v="Vesle Geittjennet" />
		<tag k="natural" v="water" />
		<tag k="ssr:stedsnr" v="490502" />
	</node>
	<node id="-237788" lat="60.2942194482" lon="11.4564222281">
		<tag k="name" v="Sjøvika" />
		<tag k="natural" v="bay" />
		<tag k="ssr:stedsnr" v="662641" />
	</node>
	<node id="-237603" lat="60.0737611109" lon="11.782119438">
		<tag k="name" v="Ormtjenn" />
		<tag k="natural" v="water" />
		<tag k="ssr:stedsnr" v="490484" />
	</node>
	<node id="-239820" lat="60.1231111079" lon="11.6342666619">
		<tag k="name" v="Store Butjenn" />
		<tag k="natural" v="water" />
		<tag k="ssr:stedsnr" v="830099" />
	</node>
	<node id="-237766" lat="60.2582000044" lon="11.5061833335">
		<tag k="name" v="Sjølitjennet" />
		<tag k="natural" v="water" />
		<tag k="ssr:stedsnr" v="662815" />
	</node>
	<node id="-239807" lat="60.0891916632" lon="11.5700638798">
		<tag k="name" v="Neverbekken" />
		<tag k="ssr:stedsnr" v="794725" />
		<tag k="waterway" v="stream" />
	</node>
	<node id="-239806" lat="60.0998583313" lon="11.6411333296">
		<tag k="name" v="Lisbettjenn" />
		<tag k="natural" v="water" />
		<tag k="ssr:stedsnr" v="794722" />
	</node>
	<node id="-239804" lat="60.116732695" lon="11.6470580279">
		<tag k="name" v="Lindlitjenna" />
		<tag k="natural" v="water" />
		<tag k="ssr:stedsnr" v="794707" />
		<tag k="water" v="lake" />
	</node>
	<node id="-237754" lat="60.2468972239" lon="11.3272472206">
		<tag k="name" v="Ileodden" />
		<tag k="natural" v="cape" />
		<tag k="ssr:stedsnr" v="662198" />
	</node>
	<node id="-237750" lat="60.18969722" lon="11.3384027741">
		<tag k="name" v="Kjensdalstjennet" />
		<tag k="natural" v="water" />
		<tag k="ssr:stedsnr" v="662143" />
		<tag k="water" v="pond" />
	</node>
	<node id="-239796" lat="60.0506111125" lon="11.4419222155">
		<tag k="name" v="Vesletjennet" />
		<tag k="natural" v="water" />
		<tag k="ssr:stedsnr" v="794894" />
	</node>
	<node id="-239792" lat="60.0426361078" lon="11.7400527743">
		<tag k="alt_name" v="Morttjenn" />
		<tag k="name" v="Morttjennet" />
		<tag k="natural" v="water" />
		<tag k="ssr:stedsnr" v="794550" />
	</node>
	<node id="-239791" lat="60.0588361135" lon="11.5187166704">
		<tag k="name" v="Tyrigravtjennet" />
		<tag k="natural" v="water" />
		<tag k="ssr:stedsnr" v="794534" />
	</node>
	<node id="-239790" lat="60.040780556" lon="11.5773611032">
		<tag k="name" v="Promperudtjenn" />
		<tag k="natural" v="water" />
		<tag k="ssr:stedsnr" v="794526" />
	</node>
	<node id="-237739" lat="60.0353111125" lon="11.5345749962">
		<tag k="name" v="Åbortjenn" />
		<tag k="natural" v="water" />
		<tag k="ssr:stedsnr" v="655790" />
	</node>
	<node id="-237738" lat="60.0353694438" lon="11.5548694456">
		<tag k="name" v="Fjøsdalbekken" />
		<tag k="old_name" v="Fjøsdalbekkenbekken" />
		<tag k="ssr:stedsnr" v="655788" />
		<tag k="waterway" v="stream" />
	</node>
	<node id="-239776" lat="59.9976638855" lon="11.4591416636">
		<tag k="alt_name" v="Steinstjenn;Stenstjenn" />
		<tag k="name" v="Steinstjennet" />
		<tag k="natural" v="water" />
		<tag k="ssr:stedsnr" v="793514" />
	</node>
	<node id="-237726" lat="60.0981194438" lon="11.320880559">
		<tag k="name" v="Hvamsetertjernet" />
		<tag k="natural" v="water" />
		<tag k="ssr:stedsnr" v="430109" />
	</node>
	<node id="-237718" lat="60.2681888846" lon="11.3722472231">
		<tag k="name" v="Kjerringbekken" />
		<tag k="ssr:stedsnr" v="420936" />
		<tag k="waterway" v="stream" />
	</node>
	<node id="-237716" lat="60.0932694406" lon="11.7552861072">
		<tag k="name" v="Driterbakkvika" />
		<tag k="natural" v="bay" />
		<tag k="ssr:stedsnr" v="420641" />
	</node>
	<node id="-239758" lat="60.2520555566" lon="11.4780611031">
		<tag k="name" v="Springdammen" />
		<tag k="ssr:stedsnr" v="784855" />
		<tag k="waterway" v="dam" />
	</node>
	<node id="-237709" lat="60.1886611108" lon="11.3849222252">
		<tag k="name" v="Holsholmen" />
		<tag k="place" v="islet" />
		<tag k="ssr:stedsnr" v="420018" />
	</node>
	<node id="-237707" lat="60.1254027814" lon="11.5618305615">
		<tag k="name" v="Gørtjenn" />
		<tag k="natural" v="water" />
		<tag k="ssr:stedsnr" v="420006" />
	</node>
	<node id="-237706" lat="60.1241416666" lon="11.5466999943">
		<tag k="name" v="Rokkebekken" />
		<tag k="ssr:stedsnr" v="420002" />
		<tag k="waterway" v="stream" />
	</node>
	<node id="-239752" lat="60.2147250013" lon="11.3610527714">
		<tag k="name" v="Svanvika" />
		<tag k="natural" v="bay" />
		<tag k="ssr:stedsnr" v="784697" />
	</node>
	<node id="-237703" lat="60.0442166706" lon="11.7873361181">
		<tag k="name" v="Storrkilen" />
		<tag k="natural" v="bay" />
		<tag k="ssr:stedsnr" v="405911" />
	</node>
	<node id="-239750" lat="60.0925416665" lon="11.7444861174">
		<tag k="name" v="Eiesetervika" />
		<tag k="natural" v="bay" />
		<tag k="ssr:stedsnr" v="784651" />
	</node>
	<node id="-237690" lat="60.1446722234" lon="11.6046777815">
		<tag k="name" v="Vesle Svarttjenn" />
		<tag k="natural" v="water" />
		<tag k="ssr:stedsnr" v="405403" />
	</node>
	<node id="-237679" lat="60.0009166708" lon="11.6629972202">
		<tag k="name" v="Sinkerudbekken" />
		<tag k="ssr:stedsnr" v="403707" />
		<tag k="waterway" v="stream" />
	</node>
	<node id="-237675" lat="60.2240805576" lon="11.3512333409">
		<tag k="name" v="Hovievja" />
		<tag k="natural" v="bay" />
		<tag k="ssr:stedsnr" v="299008" />
	</node>
	<node id="-237674" lat="60.2264277736" lon="11.3434388914">
		<tag k="name" v="Langtangevja" />
		<tag k="natural" v="bay" />
		<tag k="ssr:stedsnr" v="299007" />
	</node>
	<node id="-239717" lat="60.2670888861" lon="11.5192527726">
		<tag k="name" v="Skrefellbekken" />
		<tag k="ssr:stedsnr" v="783878" />
		<tag k="waterway" v="stream" />
	</node>
	<node id="-237665" lat="60.0914777747" lon="11.5878138904">
		<tag k="name" v="Åbortjenn" />
		<tag k="natural" v="water" />
		<tag k="ssr:stedsnr" v="359972" />
	</node>
	<node id="-239710" lat="60.177269441" lon="11.3930750015">
		<tag k="name" v="Brustadvika" />
		<tag k="natural" v="bay" />
		<tag k="ssr:stedsnr" v="783066" />
	</node>
	<node id="-239702" lat="60.0508944479" lon="11.7037277844">
		<tag k="name" v="Kjeppåa" />
		<tag k="ssr:stedsnr" v="776921" />
		<tag k="waterway" v="river" />
	</node>
	<node id="-239691" lat="60.0437277811" lon="11.5966666604">
		<tag k="name" v="Gullrosbekken" />
		<tag k="ssr:stedsnr" v="769786" />
		<tag k="waterway" v="stream" />
	</node>
	<node id="-237642" lat="60.2836777813" lon="11.3761388958">
		<tag k="name" v="Steinsjøen" />
		<tag k="natural" v="water" />
		<tag k="ssr:stedsnr" v="492148" />
	</node>
	<node id="-239688" lat="60.0699333329" lon="11.3998694358">
		<tag k="name" v="Mellemdalsbekken" />
		<tag k="ssr:stedsnr" v="769768" />
		<tag k="waterway" v="stream" />
	</node>
	<node id="-237635" lat="60.0181138844" lon="11.7830333364">
		<tag k="name" v="Bjørknessjøen" />
		<tag k="natural" v="water" />
		<tag k="ssr:stedsnr" v="491590" />
		<tag k="water" v="lake" />
	</node>
	<node id="-237634" lat="60.2773069808" lon="11.4916601731">
		<tag k="name" v="Fallåa" />
		<tag k="ssr:stedsnr" v="491585" />
		<tag k="waterway" v="stream" />
	</node>
	<node id="-239680" lat="60.1438194469" lon="11.585424997">
		<tag k="name" v="Midtre Opptjenn" />
		<tag k="natural" v="water" />
		<tag k="ssr:stedsnr" v="769482" />
	</node>
	<node id="-239664" lat="60.0235480876" lon="11.5087717418">
		<tag k="name" v="Vestre Tresjøen" />
		<tag k="natural" v="water" />
		<tag k="ssr:stedsnr" v="756511" />
		<tag k="water" v="lake" />
	</node>
	<node id="-237614" lat="60.0923222252" lon="11.6781444487">
		<tag k="name" v="Eltjenn" />
		<tag k="natural" v="water" />
		<tag k="ssr:stedsnr" v="490763" />
	</node>
	<node id="-237613" lat="60.0828166672" lon="11.7482750035">
		<tag k="fixme" v="multiple name tags, choose one and add the other to alt_name" />
		<tag k="name" v="Eieseterputten;Putten" />
		<tag k="natural" v="water" />
		<tag k="ssr:stedsnr" v="490762" />
	</node>
	<node id="-237612" lat="60.093500002" lon="11.727094453">
		<tag k="name" v="Kvernputten" />
		<tag k="place" v="locality" />
		<tag k="ssr:stedsnr" v="490754" />
	</node>
	<node id="-237608" lat="60.1419819563" lon="11.5915848875">
		<tag k="name" v="Opptjenna" />
		<tag k="natural" v="water" />
		<tag k="ssr:stedsnr" v="490652" />
		<tag k="water" v="lake" />
	</node>
	<node id="-239653" lat="60.0238499997" lon="11.6902083328">
		<tag k="name" v="Granstjenn" />
		<tag k="natural" v="water" />
		<tag k="ssr:stedsnr" v="647786" />
	</node>
	<node id="-239651" lat="60.0277361152" lon="11.7648527736">
		<tag k="name" v="Rabbillfløyta" />
		<tag k="ssr:stedsnr" v="647755" />
		<tag k="waterway" v="river" />
	</node>
	<node id="-237602" lat="59.9969972242" lon="11.4147249953">
		<tag k="name" v="Hauketjernbekken" />
		<tag k="ssr:stedsnr" v="490456" />
		<tag k="waterway" v="stream" />
	</node>
	<node id="-237601" lat="60.2461944436" lon="11.444144452">
		<tag k="alt_name" v="Skjærsjøen" />
		<tag k="name" v="Skjersjøen" />
		<tag k="natural" v="water" />
		<tag k="ssr:stedsnr" v="490324" />
	</node>
	<node id="-239633" lat="60.0493833298" lon="11.4761222242">
		<tag k="name" v="Svarttjenn" />
		<tag k="natural" v="water" />
		<tag k="ssr:stedsnr" v="647350" />
	</node>
	<node id="-237572" lat="60.035036112" lon="11.7697194382">
		<tag k="name" v="Brenntangen" />
		<tag k="natural" v="cape" />
		<tag k="ssr:stedsnr" v="344727" />
	</node>
</osm>
