<?xml version="1.0" encoding="UTF-8"?>
<osm version="0.6" generator="osmapis">
	<node lat="60.15549722421892" lon="11.560047215663207" id="-16736">
		<tag k="name" v="Eiehaugen" />
		<tag k="place" v="locality" />
		<tag k="ssr:stedsnr" v="237774" />
	</node>
	<node lat="60.24523611262601" lon="11.38135554665908" id="-16753">
		<tag k="name" v="Børgen sag" />
		<tag k="place" v="locality" />
		<tag k="ssr:stedsnr" v="238143" />
	</node>
	<node lat="60.04355833293484" lon="11.742374991342277" id="-16754">
		<tag k="name" v="Morttjernsaga" />
		<tag k="place" v="locality" />
		<tag k="ssr:stedsnr" v="238159" />
	</node>
	<node lat="60.16214398472675" lon="11.449346579913026" id="-16828">
		<tag k="amenity" v="place_of_worship" />
		<tag k="denomination" v="lutheran" />
		<tag k="name" v="Nes kirke" />
		<tag k="religion" v="christian" />
		<tag k="ssr:stedsnr" v="248188" />
	</node>
	<node lat="60.03724444587211" lon="11.778863894098675" id="-16862">
		<tag k="name" v="Brennefurua" />
		<tag k="place" v="locality" />
		<tag k="ssr:stedsnr" v="102746" />
	</node>
	<node lat="60.08395000214223" lon="11.609827776950581" id="-16992">
		<tag k="name" v="Drammenssaga" />
		<tag k="place" v="locality" />
		<tag k="ssr:stedsnr" v="177326" />
	</node>
	<node lat="60.264794442254136" lon="11.43333332548483" id="-17089">
		<tag k="name" v="Kloppene" />
		<tag k="place" v="locality" />
		<tag k="ssr:stedsnr" v="237903" />
	</node>
	<node lat="60.17779444044819" lon="11.39275278648337" id="-17159">
		<tag k="name" v="Brustadtjennet" />
		<tag k="place" v="locality" />
		<tag k="ssr:stedsnr" v="298089" />
	</node>
	<node lat="60.20508333263201" lon="11.523624990953145" id="-17365">
		<tag k="amenity" v="community_centre" />
		<tag k="name" v="Halmsås grendehus" />
		<tag k="ssr:stedsnr" v="482100" />
	</node>
	<node lat="60.02862500337995" lon="11.352622223714741" id="-17369">
		<tag k="name" v="Damstokken" />
		<tag k="place" v="locality" />
		<tag k="ssr:stedsnr" v="404395" />
	</node>
	<node lat="60.13240833746823" lon="11.489458332830882" id="-17371">
		<tag k="name" v="Østmo" />
		<tag k="place" v="locality" />
		<tag k="ssr:stedsnr" v="405203" />
	</node>
	<node lat="60.089313891203744" lon="11.759255562532166" id="-17401">
		<tag k="name" v="Steintjernssaga" />
		<tag k="place" v="locality" />
		<tag k="ssr:stedsnr" v="420639" />
	</node>
	<node lat="60.037274997659196" lon="11.398074995974063" id="-17453">
		<tag k="alt_name" v="Auli kapell" />
		<tag k="amenity" v="place_of_worship" />
		<tag k="denomination" v="lutheran" />
		<tag k="name" v="Auli kirke" />
		<tag k="religion" v="christian" />
		<tag k="ssr:stedsnr" v="430904" />
	</node>
	<node lat="60.092166670167174" lon="11.379994446095052" id="-17518">
		<tag k="name" v="Storbråten" />
		<tag k="place" v="locality" />
		<tag k="ssr:stedsnr" v="465512" />
	</node>
	<node lat="60.03984444832141" lon="11.77306667124276" id="-17522">
		<tag k="name" v="Brennebjørka" />
		<tag k="place" v="locality" />
		<tag k="ssr:stedsnr" v="465715" />
	</node>
	<node lat="60.329555554132966" lon="11.458011114957394" id="-17551">
		<tag k="name" v="Steinsjøberget" />
		<tag k="place" v="locality" />
		<tag k="ssr:stedsnr" v="480713" />
	</node>
	<node lat="60.27147777333601" lon="11.383825004380576" id="-17557">
		<tag k="name" v="Kølabonn" />
		<tag k="place" v="locality" />
		<tag k="ssr:stedsnr" v="480909" />
	</node>
	<node lat="60.132427778767685" lon="11.369469447500817" id="-17682">
		<tag k="name" v="Steinsmo" />
		<tag k="place" v="locality" />
		<tag k="ssr:stedsnr" v="586204" />
	</node>
	<node lat="60.02791111412532" lon="11.801330559405907" id="-17691">
		<tag k="name" v="Ruddehaugen" />
		<tag k="place" v="locality" />
		<tag k="ssr:stedsnr" v="587766" />
	</node>
	<node lat="60.060488890084486" lon="11.392500003429712" id="-17758">
		<tag k="name" v="Elstad" />
		<tag k="place" v="locality" />
		<tag k="ssr:stedsnr" v="647101" />
	</node>
	<node lat="60.04714444236713" lon="11.777127781875494" id="-17807">
		<tag k="name" v="Vedreset" />
		<tag k="place" v="locality" />
		<tag k="ssr:stedsnr" v="708875" />
	</node>
	<node lat="60.130888892533015" lon="11.580069440569382" id="-17854">
		<tag k="name" v="Røsåshenrik" />
		<tag k="place" v="locality" />
		<tag k="ssr:stedsnr" v="890061" />
	</node>
	<node lat="60.08689166689678" lon="11.492244441703205" id="-17893">
		<tag k="name" v="Torsonstusaga" />
		<tag k="place" v="locality" />
		<tag k="ssr:stedsnr" v="891097" />
	</node>
	<node lat="60.03656389299467" lon="11.62591110926961" id="-17931">
		<tag k="name" v="Lundbergseter sag" />
		<tag k="place" v="locality" />
		<tag k="ssr:stedsnr" v="708785" />
	</node>
	<node lat="60.23835277759396" lon="11.544650000358189" id="-17949">
		<tag k="amenity" v="community_centre" />
		<tag k="name" v="Fagerheim" />
		<tag k="ssr:stedsnr" v="723106" />
	</node>
	<node lat="60.21131944161747" lon="11.37680278090625" id="-17995">
		<tag k="alt_name" v="Fenstad" />
		<tag k="amenity" v="place_of_worship" />
		<tag k="denomination" v="lutheran" />
		<tag k="name" v="Fenstad kirke" />
		<tag k="religion" v="christian" />
		<tag k="ssr:stedsnr" v="734336" />
	</node>
	<node lat="60.086777780619215" lon="11.777063892830933" id="-18018">
		<tag k="name" v="Spørkposten" />
		<tag k="place" v="locality" />
		<tag k="ssr:stedsnr" v="905624" />
	</node>
	<node lat="60.0909472256116" lon="11.768852772380948" id="-18019">
		<tag k="name" v="Ferja" />
		<tag k="place" v="locality" />
		<tag k="ssr:stedsnr" v="905627" />
	</node>
	<node lat="60.094058334589064" lon="11.59729999735499" id="-18037">
		<tag k="name" v="Tobruk" />
		<tag k="place" v="locality" />
		<tag k="ssr:stedsnr" v="905980" />
	</node>
	<node lat="60.05674999619827" lon="11.759480559367015" id="-18071">
		<tag k="name" v="Folkeslaget" />
		<tag k="place" v="locality" />
		<tag k="ssr:stedsnr" v="769870" />
	</node>
	<node lat="60.320030551490035" lon="11.455716659647424" id="-18098">
		<tag k="name" v="Olbergs plass" />
		<tag k="place" v="locality" />
		<tag k="ssr:stedsnr" v="784747" />
	</node>
	<node lat="60.21696944828657" lon="11.4125805566741" id="-18169">
		<tag k="amenity" v="community_centre" />
		<tag k="name" v="Nordby forsamlingshus" />
		<tag k="ssr:stedsnr" v="830576" />
	</node>
	<node lat="60.177927778311826" lon="11.392888884512223" id="-18185">
		<tag k="alt_name" v="Brudstadkienn" />
		<tag k="name" v="Brustadtjennet" />
		<tag k="place" v="locality" />
		<tag k="ssr:stedsnr" v="845030" />
	</node>
	<node lat="60.32489166545501" lon="11.403061119625656" id="-18189">
		<tag k="name" v="Utsjøsaga" />
		<tag k="place" v="locality" />
		<tag k="ssr:stedsnr" v="845576" />
	</node>
	<node lat="60.022633330423055" lon="11.703194445778903" id="-18236">
		<tag k="name" v="Knatten" />
		<tag k="place" v="locality" />
		<tag k="ssr:stedsnr" v="891267" />
	</node>
	<node lat="60.02872777974009" lon="11.704825005731596" id="-18251">
		<tag k="name" v="Mellomholen" />
		<tag k="place" v="locality" />
		<tag k="ssr:stedsnr" v="899766" />
	</node>
	<node lat="60.04192222119894" lon="11.787933337419167" id="-18296">
		<tag k="name" v="Bjarnevelta" />
		<tag k="place" v="locality" />
		<tag k="ssr:stedsnr" v="947731" />
	</node>
	<node lat="60.03538333137267" lon="11.691738896417894" id="-18314">
		<tag k="name" v="Grandalen" />
		<tag k="place" v="locality" />
		<tag k="ssr:stedsnr" v="951790" />
	</node>
	<node lat="60.06230833584307" lon="11.749755563698198" id="-18322">
		<tag k="name" v="Gransbråtaposten" />
		<tag k="place" v="locality" />
		<tag k="ssr:stedsnr" v="951890" />
	</node>
	<node lat="60.30116944797107" lon="11.5103083280797" id="-18339">
		<tag k="name" v="Skålerudsbanen" />
		<tag k="place" v="locality" />
		<tag k="ssr:stedsnr" v="966544" />
	</node>
	<node lat="60.02578055406008" lon="11.705749993978369" id="-18429">
		<tag k="name" v="Jeggehølet" />
		<tag k="place" v="locality" />
		<tag k="ssr:stedsnr" v="49762" />
	</node>
	<node lat="60.09463889210678" lon="11.717855558693351" id="-18452">
		<tag k="name" v="Blåtorvet" />
		<tag k="place" v="locality" />
		<tag k="ssr:stedsnr" v="56646" />
	</node>
	<node lat="60.099363892026204" lon="11.650988892690872" id="-18464">
		<tag k="name" v="Messeltsaga" />
		<tag k="place" v="locality" />
		<tag k="ssr:stedsnr" v="56967" />
	</node>
	<node lat="60.15954999666763" lon="11.429222230213991" id="-18468">
		<tag k="amenity" v="community_centre" />
		<tag k="name" v="Lillerommen" />
		<tag k="ssr:stedsnr" v="66195" />
	</node>
</osm>
