<?xml version="1.0" encoding="UTF-8"?>
<osm generator="osmapis" version="0.6">
	<node id="-239103" lat="59.9317916635" lon="8.85119166464">
		<tag k="name" v="Einstavik" />
		<tag k="place" v="locality" />
		<tag k="ssr:stedsnr" v="33072" />
	</node>
	<node id="-240112" lat="60.1034888917" lon="8.8219166667">
		<tag k="name" v="Hove" />
		<tag k="place" v="locality" />
		<tag k="ssr:stedsnr" v="225756" />
	</node>
	<node id="-242666" lat="59.9213944473" lon="8.77296944043">
		<tag k="name" v="Baklengs" />
		<tag k="place" v="locality" />
		<tag k="ssr:stedsnr" v="944642" />
	</node>
	<node id="-238565" lat="59.8689777803" lon="8.47773610339">
		<tag k="name" v="Maristigen" />
		<tag k="ssr:stedsnr" v="397847" />
		<tag k="tourism" v="viewpoint" />
	</node>
	<node id="-242148" lat="59.8991611093" lon="8.93358889762">
		<tag k="name" v="Saten" />
		<tag k="place" v="locality" />
		<tag k="ssr:stedsnr" v="793541" />
	</node>
	<node id="-238555" lat="59.9700388882" lon="8.76536666361">
		<tag k="name" v="Kålabrenna" />
		<tag k="place" v="locality" />
		<tag k="ssr:stedsnr" v="397627" />
	</node>
	<node id="-242649" lat="59.9769194483" lon="8.72790833198">
		<tag k="name" v="Nepekås" />
		<tag k="place" v="locality" />
		<tag k="ssr:stedsnr" v="944195" />
	</node>
	<node id="-240600" lat="59.8794972203" lon="8.60735000543">
		<tag k="alt_name" v="Rjukan kyrkje" />
		<tag k="amenity" v="place_of_worship" />
		<tag k="denomination" v="lutheran" />
		<tag k="name" v="Rjukan" />
		<tag k="religion" v="christian" />
		<tag k="ssr:stedsnr" v="489144" />
	</node>
	<node id="-241102" lat="59.9199111104" lon="8.7419861163">
		<tag k="name" v="Bjønnflåte" />
		<tag k="place" v="locality" />
		<tag k="ssr:stedsnr" v="580611" />
	</node>
	<node id="-242122" lat="59.9884472236" lon="8.73183056276">
		<tag k="alt_name" v="Atrå kyrkje" />
		<tag k="amenity" v="place_of_worship" />
		<tag k="denomination" v="lutheran" />
		<tag k="name" v="Atrå" />
		<tag k="religion" v="christian" />
		<tag k="ssr:stedsnr" v="793092" />
	</node>
	<node id="-238537" lat="59.9890361128" lon="8.83634999116">
		<tag k="name" v="Russvingen" />
		<tag k="place" v="locality" />
		<tag k="ssr:stedsnr" v="397104" />
	</node>
	<node id="-240071" lat="60.0298888898" lon="8.74373055688">
		<tag k="name" v="Brukås" />
		<tag k="place" v="locality" />
		<tag k="ssr:stedsnr" v="218527" />
	</node>
	<node id="-241088" lat="59.9762111111" lon="8.68576110723">
		<tag k="name" v="Saten" />
		<tag k="place" v="locality" />
		<tag k="ssr:stedsnr" v="579882" />
	</node>
	<node id="-240061" lat="60.0514972253" lon="8.81261944461">
		<tag k="amenity" v="place_of_worship" />
		<tag k="fixme" v="specify religion=*, denomination=*, building=* etc" />
		<tag k="name" v="Bedehus" />
		<tag k="ssr:stedsnr" v="218196" />
	</node>
	<node id="-242106" lat="59.925769442" lon="8.90382223003">
		<tag k="alt_name" v="Skori" />
		<tag k="name" v="Skore" />
		<tag k="place" v="locality" />
		<tag k="ssr:stedsnr" v="792532" />
	</node>
	<node id="-241589" lat="60.1207805566" lon="8.71018334123">
		<tag k="amenity" v="community_centre" />
		<tag k="name" v="Fjellvang" />
		<tag k="ssr:stedsnr" v="672811" />
	</node>
	<node id="-241074" lat="59.9962694405" lon="8.69948610617">
		<tag k="name" v="Slettebakroe" />
		<tag k="place" v="locality" />
		<tag k="ssr:stedsnr" v="579622" />
	</node>
	<node id="-240042" lat="59.9746972229" lon="8.6810750066">
		<tag k="name" v="Heggjeflaten" />
		<tag k="place" v="locality" />
		<tag k="ssr:stedsnr" v="216804" />
	</node>
	<node id="-237990" lat="60.0279583352" lon="8.7691805641">
		<tag k="name" v="Hentet" />
		<tag k="place" v="locality" />
		<tag k="ssr:stedsnr" v="278712" />
	</node>
	<node id="-241051" lat="60.0063055528" lon="8.83382221802">
		<tag k="name" v="Kvennhusholet" />
		<tag k="old_name" v="Kennhusholet" />
		<tag k="place" v="locality" />
		<tag k="ssr:stedsnr" v="579032" />
	</node>
	<node id="-241049" lat="59.9555305582" lon="8.75431945208">
		<tag k="name" v="Brenna" />
		<tag k="place" v="locality" />
		<tag k="ssr:stedsnr" v="579009" />
	</node>
	<node id="-241041" lat="59.8595361082" lon="8.30150000447">
		<tag k="name" v="Hedderhaugen" />
		<tag k="place" v="locality" />
		<tag k="ssr:stedsnr" v="578516" />
	</node>
	<node id="-237967" lat="59.9257749972" lon="8.73808055556">
		<tag k="name" v="Kolbotn" />
		<tag k="place" v="locality" />
		<tag k="ssr:stedsnr" v="277462" />
	</node>
	<node id="-237965" lat="59.9497361074" lon="8.80402222104">
		<tag k="name" v="Svineholstøe" />
		<tag k="place" v="locality" />
		<tag k="ssr:stedsnr" v="277371" />
	</node>
	<node id="-237954" lat="60.0013694447" lon="8.63946110945">
		<tag k="name" v="Brenna" />
		<tag k="place" v="locality" />
		<tag k="ssr:stedsnr" v="276974" />
	</node>
	<node id="-240001" lat="59.9415666707" lon="8.74971389214">
		<tag k="name" v="Finnflåte" />
		<tag k="place" v="locality" />
		<tag k="ssr:stedsnr" v="215558" />
	</node>
	<node id="-239997" lat="59.8282416629" lon="8.35100555521">
		<tag k="amenity" v="place_of_worship" />
		<tag k="denomination" v="lutheran" />
		<tag k="name" v="Frøystaul kapell" />
		<tag k="religion" v="christian" />
		<tag k="ssr:stedsnr" v="214325" />
	</node>
	<node id="-238972" lat="59.8801916635" lon="9.06783334058">
		<tag k="amenity" v="community_centre" />
		<tag k="name" v="Lonin" />
		<tag k="ssr:stedsnr" v="3706" />
	</node>
	<node id="-242554" lat="59.8494361154" lon="9.00669166076">
		<tag k="alt_name" v="Hovin Kyrkje" />
		<tag k="amenity" v="place_of_worship" />
		<tag k="denomination" v="lutheran" />
		<tag k="name" v="Hovin" />
		<tag k="religion" v="christian" />
		<tag k="ssr:stedsnr" v="914699" />
	</node>
	<node id="-237935" lat="59.9713027807" lon="8.74708056041">
		<tag k="name" v="Åsflaten" />
		<tag k="place" v="locality" />
		<tag k="ssr:stedsnr" v="276675" />
	</node>
	<node id="-242024" lat="60.0349361068" lon="8.77082222227">
		<tag k="name" v="Stigen" />
		<tag k="place" v="locality" />
		<tag k="ssr:stedsnr" v="764580" />
	</node>
	<node id="-237926" lat="59.9970944417" lon="8.69888610598">
		<tag k="name" v="Torsteinskås" />
		<tag k="place" v="locality" />
		<tag k="ssr:stedsnr" v="276571" />
	</node>
	<node id="-239971" lat="60.0585388919" lon="8.73333889006">
		<tag k="amenity" v="community_centre" />
		<tag k="name" v="Haugatun" />
		<tag k="ssr:stedsnr" v="187850" />
	</node>
	<node id="-237922" lat="59.9296361116" lon="8.81110278659">
		<tag k="name" v="Stegleodden" />
		<tag k="place" v="locality" />
		<tag k="ssr:stedsnr" v="276355" />
	</node>
	<node id="-238564" lat="59.9202027776" lon="8.80258056412">
		<tag k="name" v="Peileflåt" />
		<tag k="place" v="locality" />
		<tag k="ssr:stedsnr" v="397843" />
	</node>
	<node id="-240466" lat="59.924336112" lon="8.75233333877">
		<tag k="amenity" v="community_centre" />
		<tag k="name" v="Onarheim" />
		<tag k="ssr:stedsnr" v="459473" />
	</node>
	<node id="-241999" lat="59.803844441" lon="9.08577222692">
		<tag k="name" v="Økse" />
		<tag k="place" v="locality" />
		<tag k="ssr:stedsnr" v="764105" />
	</node>
	<node id="-240460" lat="60.0137222191" lon="8.64771110254">
		<tag k="name" v="Brenna" />
		<tag k="place" v="locality" />
		<tag k="ssr:stedsnr" v="459317" />
	</node>
	<node id="-240451" lat="59.9757583361" lon="8.70744444304">
		<tag k="name" v="Leikvoll" />
		<tag k="place" v="locality" />
		<tag k="ssr:stedsnr" v="458890" />
	</node>
	<node id="-240450" lat="59.9767861095" lon="8.71244999689">
		<tag k="name" v="Mebu" />
		<tag k="place" v="locality" />
		<tag k="ssr:stedsnr" v="458889" />
	</node>
	<node id="-240447" lat="59.9334361143" lon="8.80460555135">
		<tag k="name" v="Barkeriet" />
		<tag k="place" v="locality" />
		<tag k="ssr:stedsnr" v="458785" />
	</node>
	<node id="-239421" lat="59.9791777778" lon="8.76799445149">
		<tag k="name" v="Beita" />
		<tag k="place" v="locality" />
		<tag k="ssr:stedsnr" v="94957" />
	</node>
	<node id="-241980" lat="59.9767611119" lon="8.70034444114">
		<tag k="name" v="Nykås" />
		<tag k="place" v="locality" />
		<tag k="ssr:stedsnr" v="762861" />
	</node>
	<node id="-239419" lat="59.9737416672" lon="8.70565278402">
		<tag k="name" v="Gofakås" />
		<tag k="place" v="locality" />
		<tag k="ssr:stedsnr" v="94866" />
	</node>
	<node id="-240442" lat="59.9729111136" lon="8.76556111567">
		<tag k="name" v="Kålaboten" />
		<tag k="place" v="locality" />
		<tag k="ssr:stedsnr" v="458672" />
	</node>
	<node id="-239417" lat="59.9372194405" lon="8.78812499274">
		<tag k="name" v="Trættekås" />
		<tag k="place" v="locality" />
		<tag k="ssr:stedsnr" v="94854" />
	</node>
	<node id="-239415" lat="59.9990583372" lon="8.69593055307">
		<tag k="name" v="Kåsabrotet" />
		<tag k="place" v="locality" />
		<tag k="ssr:stedsnr" v="94587" />
	</node>
	<node id="-239414" lat="60.0018277783" lon="8.68222777264">
		<tag k="name" v="Tjyrugrov" />
		<tag k="place" v="locality" />
		<tag k="ssr:stedsnr" v="94584" />
	</node>
	<node id="-241973" lat="59.9213888881" lon="8.77795834056">
		<tag k="name" v="Slettekåse" />
		<tag k="place" v="locality" />
		<tag k="ssr:stedsnr" v="762562" />
	</node>
	<node id="-240433" lat="60.0057888847" lon="8.7400694431">
		<tag k="name" v="Hestehagen" />
		<tag k="place" v="locality" />
		<tag k="ssr:stedsnr" v="458296" />
	</node>
	<node id="-239400" lat="60.0071861103" lon="8.74435000101">
		<tag k="name" v="Andersbusvingen" />
		<tag k="old_name" v="Anersbusvingen" />
		<tag k="place" v="locality" />
		<tag k="ssr:stedsnr" v="94298" />
	</node>
	<node id="-239397" lat="59.9823027739" lon="8.72443332659">
		<tag k="name" v="Åpålflaten" />
		<tag k="place" v="locality" />
		<tag k="ssr:stedsnr" v="94214" />
	</node>
	<node id="-241442" lat="59.7848861067" lon="9.10090556036">
		<tag k="name" v="Koppårvelta" />
		<tag k="place" v="locality" />
		<tag k="ssr:stedsnr" v="643042" />
	</node>
	<node id="-241440" lat="59.8724611097" lon="9.03405833346">
		<tag k="name" v="Høgåsbue" />
		<tag k="place" v="locality" />
		<tag k="ssr:stedsnr" v="642959" />
	</node>
	<node id="-239391" lat="59.9296861095" lon="8.8519666597">
		<tag k="name" v="Åsesplass" />
		<tag k="place" v="locality" />
		<tag k="ssr:stedsnr" v="94065" />
	</node>
	<node id="-240413" lat="60.0651500018" lon="8.95134999816">
		<tag k="amenity" v="place_of_worship" />
		<tag k="fixme" v="specify religion=*, denomination=*, building=* etc" />
		<tag k="name" v="Skirva fjellkyrkje" />
		<tag k="ssr:stedsnr" v="451224" />
	</node>
	<node id="-239379" lat="59.9356361138" lon="8.83709722364">
		<tag k="name" v="Lauvåssvingen" />
		<tag k="place" v="locality" />
		<tag k="ssr:stedsnr" v="94319" />
	</node>
	<node id="-240513" lat="59.8532277734" lon="9.02456943884">
		<tag k="name" v="Åsland" />
		<tag k="place" v="locality" />
		<tag k="ssr:stedsnr" v="461532" />
	</node>
	<node id="-241412" lat="59.8491583303" lon="9.04170832923">
		<tag k="amenity" v="community_centre" />
		<tag k="name" v="Furuvang" />
		<tag k="ssr:stedsnr" v="642551" />
	</node>
	<node id="-239871" lat="59.8711472262" lon="8.49136389574">
		<tag k="name" v="Vemork" />
		<tag k="ssr:stedsnr" v="185163" />
		<tag k="tourism" v="museum" />
	</node>
	<node id="-242428" lat="60.0761749968" lon="7.99278611459">
		<tag k="name" v="Slettebuvollen" />
		<tag k="place" v="locality" />
		<tag k="ssr:stedsnr" v="854589" />
	</node>
	<node id="-241403" lat="60.0149749966" lon="8.86223056234">
		<tag k="name" v="Grasljos" />
		<tag k="place" v="locality" />
		<tag k="ssr:stedsnr" v="642335" />
	</node>
	<node id="-241290" lat="60.0295333361" lon="8.82640277127">
		<tag k="alt_name" v="Austbygde  kyrkje;Austbygdi" />
		<tag k="amenity" v="place_of_worship" />
		<tag k="denomination" v="lutheran" />
		<tag k="name" v="Austbygde" />
		<tag k="religion" v="christian" />
		<tag k="ssr:stedsnr" v="611804" />
	</node>
	<node id="-241389" lat="59.9209805548" lon="8.9320861067">
		<tag k="amenity" v="community_centre" />
		<tag k="name" v="Heia grendehus" />
		<tag k="ssr:stedsnr" v="641365" />
	</node>
	<node id="-242727" lat="59.8702111127" lon="8.96175000741">
		<tag k="amenity" v="community_centre" />
		<tag k="name" v="Urdalen grendehus" />
		<tag k="ssr:stedsnr" v="946902" />
	</node>
	<node id="-241378" lat="59.9325888927" lon="8.74766667004">
		<tag k="name" v="Østerflåt" />
		<tag k="place" v="locality" />
		<tag k="ssr:stedsnr" v="640967" />
	</node>
	<node id="-238275" lat="60.003172219" lon="8.86010833243">
		<tag k="name" v="Vardekåse" />
		<tag k="place" v="locality" />
		<tag k="ssr:stedsnr" v="339220" />
	</node>
	<node id="-238786" lat="60.0145444472" lon="8.84947778217">
		<tag k="name" v="Trelogsflåte" />
		<tag k="place" v="locality" />
		<tag k="ssr:stedsnr" v="886142" />
	</node>
	<node id="-241341" lat="59.9798166645" lon="8.72134443758">
		<tag k="name" v="Kasen" />
		<tag k="place" v="locality" />
		<tag k="ssr:stedsnr" v="640201" />
	</node>
	<node id="-241338" lat="59.9970027803" lon="8.83762222504">
		<tag k="name" v="Bokkosvingen" />
		<tag k="place" v="locality" />
		<tag k="ssr:stedsnr" v="640097" />
	</node>
	<node id="-238772" lat="60.0308111107" lon="8.74461945008">
		<tag k="name" v="Øvre Brukås" />
		<tag k="place" v="locality" />
		<tag k="ssr:stedsnr" v="885554" />
	</node>
	<node id="-238256" lat="60.0013611139" lon="8.67023333023">
		<tag k="historic" v="heritage" />
		<tag k="name" v="Kopusteinen" />
		<tag k="place" v="locality" />
		<tag k="ssr:stedsnr" v="337947" />
	</node>
	<node id="-241437" lat="60.0436999961" lon="8.73424443553">
		<tag k="name" v="Hegtvå" />
		<tag k="place" v="locality" />
		<tag k="ssr:stedsnr" v="642930" />
	</node>
	<node id="-238244" lat="59.9874972198" lon="8.73591666001">
		<tag k="amenity" v="community_centre" />
		<tag k="name" v="Atrå samfunnshus" />
		<tag k="ssr:stedsnr" v="337694" />
	</node>
	<node id="-238751" lat="60.0128944478" lon="8.65206111552">
		<tag k="name" v="Aslakkås" />
		<tag k="place" v="locality" />
		<tag k="ssr:stedsnr" v="884306" />
	</node>
	<node id="-238233" lat="59.9976138898" lon="8.69925000406">
		<tag k="name" v="Knutskås" />
		<tag k="place" v="locality" />
		<tag k="ssr:stedsnr" v="337498" />
	</node>
	<node id="-238744" lat="59.9502055526" lon="8.56830278212">
		<tag k="name" v="Dyreskar" />
		<tag k="place" v="locality" />
		<tag k="ssr:stedsnr" v="884216" />
	</node>
	<node id="-240786" lat="59.8058972236" lon="9.08629722976">
		<tag k="name" v="Gamlesåte" />
		<tag k="place" v="locality" />
		<tag k="ssr:stedsnr" v="521103" />
	</node>
	<node id="-238223" lat="59.9981277818" lon="8.73826666696">
		<tag k="name" v="Buslåtten" />
		<tag k="place" v="locality" />
		<tag k="ssr:stedsnr" v="337345" />
	</node>
	<node id="-238731" lat="59.9364611084" lon="8.83692778342">
		<tag k="name" v="Bangåssvingen" />
		<tag k="place" v="locality" />
		<tag k="ssr:stedsnr" v="883854" />
	</node>
	<node id="-240778" lat="60.0217916672" lon="8.65672221606">
		<tag k="name" v="Brenna" />
		<tag k="place" v="locality" />
		<tag k="ssr:stedsnr" v="520247" />
	</node>
	<node id="-238726" lat="59.9898277807" lon="8.74430555053">
		<tag k="name" v="Storebrot" />
		<tag k="place" v="locality" />
		<tag k="ssr:stedsnr" v="883761" />
	</node>
	<node id="-240773" lat="59.962627781" lon="8.80065555578">
		<tag k="name" v="Gvålskåshente" />
		<tag k="place" v="locality" />
		<tag k="ssr:stedsnr" v="519984" />
	</node>
	<node id="-239745" lat="59.9770166647" lon="8.69880554724">
		<tag k="name" v="Odderkås" />
		<tag k="place" v="locality" />
		<tag k="ssr:stedsnr" v="155843" />
	</node>
	<node id="-240767" lat="59.9911749957" lon="8.76653887999">
		<tag k="name" v="Steggelflotte" />
		<tag k="place" v="locality" />
		<tag k="ssr:stedsnr" v="519720" />
	</node>
	<node id="-238718" lat="59.9672472196" lon="8.76259445116">
		<tag k="name" v="Borgebu" />
		<tag k="place" v="locality" />
		<tag k="ssr:stedsnr" v="883662" />
	</node>
	<node id="-239731" lat="59.9527555551" lon="8.82013054679">
		<tag k="name" v="Hyttekåse" />
		<tag k="place" v="locality" />
		<tag k="ssr:stedsnr" v="155426" />
	</node>
	<node id="-240754" lat="59.9908111122" lon="8.80148888671">
		<tag k="name" v="Tosandkåse" />
		<tag k="place" v="locality" />
		<tag k="ssr:stedsnr" v="519473" />
	</node>
	<node id="-238702" lat="59.981047222" lon="8.70976945264">
		<tag k="name" v="Kleive" />
		<tag k="place" v="locality" />
		<tag k="ssr:stedsnr" v="883201" />
	</node>
	<node id="-240749" lat="60.0032250015" lon="8.73215555323">
		<tag k="name" v="Romebakke" />
		<tag k="place" v="locality" />
		<tag k="ssr:stedsnr" v="519366" />
	</node>
	<node id="-240229" lat="60.0520388906" lon="8.8113333419">
		<tag k="amenity" v="community_centre" />
		<tag k="name" v="Lurheim" />
		<tag k="ssr:stedsnr" v="247774" />
	</node>
	<node id="-242274" lat="59.9387694409" lon="8.78676388423">
		<tag k="name" v="Glosimotkåse" />
		<tag k="place" v="locality" />
		<tag k="ssr:stedsnr" v="823859" />
	</node>
	<node id="-242273" lat="59.9774305559" lon="8.70970000138">
		<tag k="name" v="Steinkåse" />
		<tag k="place" v="locality" />
		<tag k="ssr:stedsnr" v="823826" />
	</node>
	<node id="-239199" lat="59.8987638914" lon="9.03362221782">
		<tag k="name" v="Torsteinkås" />
		<tag k="place" v="locality" />
		<tag k="ssr:stedsnr" v="36875" />
	</node>
	<node id="-238010" lat="59.9492611132" lon="8.8699555503">
		<tag k="name" v="Prestoddkåse" />
		<tag k="place" v="locality" />
		<tag k="ssr:stedsnr" v="279566" />
	</node>
	<node id="-239700" lat="59.8531611105" lon="8.59625833541">
		<tag k="name" v="Rabben" />
		<tag k="place" v="locality" />
		<tag k="ssr:stedsnr" v="154068" />
	</node>
	<node id="-237923" lat="59.9973666686" lon="8.74100000028">
		<tag k="name" v="Slettebakke" />
		<tag k="place" v="locality" />
		<tag k="ssr:stedsnr" v="276406" />
	</node>
	<node id="-239177" lat="59.9897416629" lon="8.89415554976">
		<tag k="name" v="Holhegna" />
		<tag k="place" v="locality" />
		<tag k="ssr:stedsnr" v="36029" />
	</node>
	<node id="-241221" lat="59.8829194442" lon="8.67489999197">
		<tag k="alt_name" v="Dal kyrkje" />
		<tag k="amenity" v="place_of_worship" />
		<tag k="denomination" v="lutheran" />
		<tag k="name" v="Dal" />
		<tag k="religion" v="christian" />
		<tag k="ssr:stedsnr" v="610156" />
	</node>
	<node id="-241732" lat="60.0332444486" lon="8.71988889315">
		<tag k="name" v="Hentet" />
		<tag k="place" v="locality" />
		<tag k="ssr:stedsnr" v="703910" />
	</node>
	<node id="-239143" lat="59.920588892" lon="8.77616110809">
		<tag k="name" v="Orekåse" />
		<tag k="place" v="locality" />
		<tag k="ssr:stedsnr" v="34569" />
	</node>
	<node id="-239142" lat="59.9210611071" lon="8.77657777941">
		<tag k="name" v="Bølekåse" />
		<tag k="place" v="locality" />
		<tag k="ssr:stedsnr" v="34566" />
	</node>
	<node id="-241699" lat="60.0066861071" lon="8.67345000429">
		<tag k="name" v="Sykån" />
		<tag k="place" v="locality" />
		<tag k="ssr:stedsnr" v="702453" />
	</node>
	<node id="-241698" lat="59.9223138859" lon="8.90355556175">
		<tag k="name" v="Nedreskor" />
		<tag k="place" v="locality" />
		<tag k="ssr:stedsnr" v="702380" />
	</node>
	<node id="-241696" lat="60.0181444431" lon="8.61901945321">
		<tag k="name" v="Bjønndalen" />
		<tag k="place" v="locality" />
		<tag k="ssr:stedsnr" v="702317" />
	</node>
	<node id="-241692" lat="59.9619222222" lon="8.81665000242">
		<tag k="name" v="Øvstekås" />
		<tag k="place" v="locality" />
		<tag k="ssr:stedsnr" v="701971" />
	</node>
	<node id="-239123" lat="59.8728500017" lon="8.48263889194">
		<tag k="name" v="Kvilingstadflåte" />
		<tag k="place" v="locality" />
		<tag k="ssr:stedsnr" v="33861" />
	</node>
	<node id="-241678" lat="59.989372221" lon="8.73971666949">
		<tag k="name" v="Sølaterolla" />
		<tag k="place" v="locality" />
		<tag k="ssr:stedsnr" v="701731" />
	</node>
	<node id="-238253" lat="59.9774999979" lon="8.71489444786">
		<tag k="name" v="Sessin" />
		<tag k="place" v="locality" />
		<tag k="ssr:stedsnr" v="337864" />
	</node>
	<node id="-239628" lat="59.8533138896" lon="8.68532777114">
		<tag k="name" v="Longefonntippen" />
		<tag k="place" v="locality" />
		<tag k="ssr:stedsnr" v="125869" />
	</node>
	<node id="-238091" lat="59.9288750017" lon="8.79290555677">
		<tag k="alt_name" v="Mæl kyrkje" />
		<tag k="amenity" v="place_of_worship" />
		<tag k="denomination" v="lutheran" />
		<tag k="name" v="Mæl" />
		<tag k="religion" v="christian" />
		<tag k="ssr:stedsnr" v="307237" />
	</node>
	<node id="-239110" lat="59.9909444461" lon="8.73976666197">
		<tag k="name" v="Kasen" />
		<tag k="place" v="locality" />
		<tag k="ssr:stedsnr" v="33384" />
	</node>
	<node id="-241157" lat="59.9515749982" lon="8.86848611627">
		<tag k="name" v="Lutufurukåse" />
		<tag k="place" v="locality" />
		<tag k="ssr:stedsnr" v="582550" />
	</node>
	<node id="-239106" lat="59.9817611136" lon="8.72204722327">
		<tag k="name" v="Sølåbrekke" />
		<tag k="place" v="locality" />
		<tag k="ssr:stedsnr" v="33196" />
	</node>
</osm>
