<?xml version="1.0" encoding="UTF-8"?>
<osm generator="osmapis" version="0.6">
	<node id="-240128" lat="59.9210250014" lon="8.86169166261">
		<tag k="bridge" v="yes" />
		<tag k="layer" v="1" />
		<tag k="name" v="Lyngflot" />
		<tag k="ssr:stedsnr" v="228269" />
	</node>
	<node id="-240127" lat="59.8827416681" lon="8.68470833404">
		<tag k="bridge" v="yes" />
		<tag k="layer" v="1" />
		<tag k="name" v="Tverrslaget" />
		<tag k="ssr:stedsnr" v="228248" />
	</node>
	<node id="-240126" lat="59.9264472258" lon="8.80318610422">
		<tag k="bridge" v="yes" />
		<tag k="layer" v="1" />
		<tag k="name" v="Skolebekken" />
		<tag k="ssr:stedsnr" v="228247" />
	</node>
	<node id="-240121" lat="60.0843722246" lon="8.38619444607">
		<tag k="highway" v="path" />
		<tag k="name" v="Grobuslepa" />
		<tag k="ssr:stedsnr" v="228172" />
	</node>
	<node id="-238577" lat="59.922452774" lon="8.74489166323">
		<tag k="name" v="Miland stasjon" />
		<tag k="railway" v="station" />
		<tag k="ssr:stedsnr" v="398430" />
		<tag k="train" v="yes" />
	</node>
	<node id="-238572" lat="60.0172000034" lon="8.61616111019">
		<tag k="bridge" v="yes" />
		<tag k="layer" v="1" />
		<tag k="name" v="Libru" />
		<tag k="ssr:stedsnr" v="398319" />
	</node>
	<node id="-238058" lat="60.1631500027" lon="8.67699721693">
		<tag k="highway" v="path" />
		<tag k="name" v="Søndre Nordmannslepa" />
		<tag k="ssr:stedsnr" v="289801" />
	</node>
	<node id="-240612" lat="59.9295972265" lon="8.81172777507">
		<tag k="name" v="Mæl" />
		<tag k="railway" v="station" />
		<tag k="ssr:stedsnr" v="489238" />
		<tag k="train" v="yes" />
	</node>
	<node id="-240099" lat="60.058652776" lon="8.69856389658">
		<tag k="highway" v="path" />
		<tag k="name" v="Nåsåbakke" />
		<tag k="ssr:stedsnr" v="218896" />
	</node>
	<node id="-238048" lat="59.8272388896" lon="8.34347778206">
		<tag k="bridge" v="yes" />
		<tag k="layer" v="1" />
		<tag k="name" v="Frøystul" />
		<tag k="ssr:stedsnr" v="289261" />
	</node>
	<node id="-238047" lat="59.8717694439" lon="8.48061110831">
		<tag k="bridge" v="yes" />
		<tag k="layer" v="1" />
		<tag k="name" v="Krokanbekk" />
		<tag k="ssr:stedsnr" v="289255" />
	</node>
	<node id="-242255" lat="59.8425444406" lon="8.68938888999">
		<tag k="highway" v="path" />
		<tag k="name" v="Kleivi" />
		<tag k="ssr:stedsnr" v="823436" />
	</node>
	<node id="-238670" lat="59.9839527751" lon="8.38781666572">
		<tag k="ford" v="yes" />
		<tag k="name" v="Kilsvae" />
		<tag k="place" v="locality" />
		<tag k="ssr:stedsnr" v="410858" />
	</node>
	<node id="-242641" lat="59.9955444485" lon="8.8277638978">
		<tag k="alt_name" v="Russ" />
		<tag k="bridge" v="yes" />
		<tag k="layer" v="1" />
		<tag k="name" v="Russbrue" />
		<tag k="ssr:stedsnr" v="944057" />
	</node>
	<node id="-239561" lat="59.942452779" lon="8.50308610249">
		<tag k="highway" v="path" />
		<tag k="name" v="Flottevegen" />
		<tag k="ssr:stedsnr" v="125060" />
	</node>
	<node id="-239560" lat="59.9561694465" lon="8.5594555635">
		<tag k="alt_name" v="Bergvad" />
		<tag k="ford" v="yes" />
		<tag k="name" v="Bergva" />
		<tag k="place" v="locality" />
		<tag k="ssr:stedsnr" v="125054" />
	</node>
	<node id="-241092" lat="59.9592749983" lon="8.51175277101">
		<tag k="highway" v="path" />
		<tag k="name" v="Skånevassvegen" />
		<tag k="ssr:stedsnr" v="580095" />
	</node>
	<node id="-238009" lat="59.8376833312" lon="9.00695556166">
		<tag k="man_made" v="quay" />
		<tag k="name" v="Gamlebrygga" />
		<tag k="place" v="locality" />
		<tag k="ssr:stedsnr" v="279546" />
	</node>
	<node id="-240562" lat="59.9305277778" lon="8.79804444741">
		<tag k="bridge" v="yes" />
		<tag k="layer" v="1" />
		<tag k="name" v="Mæl undergang" />
		<tag k="ssr:stedsnr" v="471245" />
	</node>
	<node id="-240559" lat="60.0852694424" lon="8.57027222801">
		<tag k="ford" v="yes" />
		<tag k="name" v="Vångevaet" />
		<tag k="place" v="locality" />
		<tag k="ssr:stedsnr" v="471208" />
	</node>
	<node id="-237998" lat="60.0163638887" lon="8.86045832811">
		<tag k="junction" v="yes" />
		<tag k="name" v="Kristenbuvegnarskilje" />
		<tag k="place" v="locality" />
		<tag k="ssr:stedsnr" v="279117" />
	</node>
	<node id="-237996" lat="59.7931805558" lon="9.09600554884">
		<tag k="alt_name" v="Melå" />
		<tag k="bridge" v="yes" />
		<tag k="layer" v="1" />
		<tag k="name" v="Mælebru" />
		<tag k="ssr:stedsnr" v="279108" />
	</node>
	<node id="-240043" lat="59.9251277765" lon="8.82865834122">
		<tag k="ford" v="yes" />
		<tag k="name" v="Grosetvae" />
		<tag k="place" v="locality" />
		<tag k="ssr:stedsnr" v="216816" />
	</node>
	<node id="-239525" lat="60.0222750002" lon="8.84616388115">
		<tag k="bridge" v="yes" />
		<tag k="layer" v="1" />
		<tag k="name" v="Hellebekk" />
		<tag k="ssr:stedsnr" v="107265" />
	</node>
	<node id="-239524" lat="59.8360305527" lon="8.38705555031">
		<tag k="bridge" v="yes" />
		<tag k="layer" v="1" />
		<tag k="name" v="Hylldalsbekk" />
		<tag k="ssr:stedsnr" v="107263" />
	</node>
	<node id="-239523" lat="59.9227638908" lon="8.74978889748">
		<tag k="bridge" v="yes" />
		<tag k="layer" v="1" />
		<tag k="name" v="Middøla" />
		<tag k="ssr:stedsnr" v="107260" />
	</node>
	<node id="-237983" lat="60.0582111149" lon="8.73803889353">
		<tag k="highway" v="path" />
		<tag k="name" v="Gamlevegen" />
		<tag k="ssr:stedsnr" v="278557" />
	</node>
	<node id="-240540" lat="59.9845944425" lon="8.41726666736">
		<tag k="ford" v="yes" />
		<tag k="name" v="Bergvae" />
		<tag k="place" v="locality" />
		<tag k="ssr:stedsnr" v="462866" />
	</node>
	<node id="-240534" lat="59.8524944409" lon="9.09761945307">
		<tag k="name" v="Sagvelta" />
		<tag k="place" v="locality" />
		<tag k="ssr:stedsnr" v="461863" />
	</node>
	<node id="-239509" lat="60.0810555514" lon="8.65220833166">
		<tag k="highway" v="path" />
		<tag k="name" v="Gamlevegen" />
		<tag k="ssr:stedsnr" v="107004" />
	</node>
	<node id="-239501" lat="59.8328055548" lon="9.11667500176">
		<tag k="junction" v="yes" />
		<tag k="name" v="Steinkrossen" />
		<tag k="place" v="locality" />
		<tag k="ssr:stedsnr" v="97853" />
	</node>
	<node id="-242052" lat="60.049969441" lon="8.81601667212">
		<tag k="bridge" v="yes" />
		<tag k="layer" v="1" />
		<tag k="name" v="Lure" />
		<tag k="ssr:stedsnr" v="774295" />
	</node>
	<node id="-242051" lat="59.9883777748" lon="8.84982222894">
		<tag k="bridge" v="yes" />
		<tag k="layer" v="1" />
		<tag k="name" v="Tjyrubekk" />
		<tag k="ssr:stedsnr" v="774271" />
	</node>
	<node id="-240506" lat="60.0581444465" lon="8.8832055613">
		<tag k="highway" v="path" />
		<tag k="name" v="Långeklopp" />
		<tag k="ssr:stedsnr" v="461441" />
	</node>
	<node id="-237942" lat="59.9313888862" lon="8.78725000027">
		<tag k="highway" v="path" />
		<tag k="name" v="Kyberget" />
		<tag k="ssr:stedsnr" v="276798" />
	</node>
	<node id="-240501" lat="60.0192833296" lon="8.89657777401">
		<tag k="ford" v="yes" />
		<tag k="name" v="Holtestaulvaet" />
		<tag k="place" v="locality" />
		<tag k="ssr:stedsnr" v="461148" />
	</node>
	<node id="-239476" lat="60.026366663" lon="8.94947222599">
		<tag k="ford" v="yes" />
		<tag k="name" v="Gronntjønnvadet" />
		<tag k="place" v="locality" />
		<tag k="ssr:stedsnr" v="97604" />
	</node>
	<node id="-237938" lat="59.9472055527" lon="8.47060832657">
		<tag k="highway" v="path" />
		<tag k="name" v="Løkjevegen" />
		<tag k="ssr:stedsnr" v="276760" />
	</node>
	<node id="-242033" lat="59.8461444442" lon="9.09338333627">
		<tag k="name" v="Yvjuvelta" />
		<tag k="place" v="locality" />
		<tag k="ssr:stedsnr" v="764885" />
	</node>
	<node id="-242032" lat="59.8593138909" lon="9.12121388195">
		<tag k="ford" v="yes" />
		<tag k="name" v="Barbu" />
		<tag k="place" v="locality" />
		<tag k="ssr:stedsnr" v="764878" />
	</node>
	<node id="-237934" lat="59.8816166637" lon="8.5521277821">
		<tag k="aerialway" v="gondola" />
		<tag k="name" v="Krossobanen" />
		<tag k="ssr:stedsnr" v="276665" />
	</node>
	<node id="-237933" lat="59.8892000017" lon="8.69416667053">
		<tag k="bridge" v="yes" />
		<tag k="layer" v="1" />
		<tag k="name" v="Nylandsbrue" />
		<tag k="ssr:stedsnr" v="276660" />
	</node>
	<node id="-237929" lat="59.883297221" lon="8.68423610241">
		<tag k="landuse" v="industrial" />
		<tag k="name" v="Moflåt kraftstasjon" />
		<tag k="power" v="plant" />
		<tag k="ssr:stedsnr" v="276625" />
	</node>
	<node id="-240485" lat="59.9026888889" lon="8.92710832921">
		<tag k="fixme" v="consider highway=path" />
		<tag k="highway" v="track" />
		<tag k="name" v="Svingen" />
		<tag k="ssr:stedsnr" v="460426" />
	</node>
	<node id="-240484" lat="60.0458416704" lon="8.81784166968">
		<tag k="bridge" v="yes" />
		<tag k="layer" v="1" />
		<tag k="name" v="Dalebrue" />
		<tag k="ssr:stedsnr" v="460403" />
	</node>
	<node id="-239444" lat="59.893494444" lon="8.69141943864">
		<tag k="highway" v="path" />
		<tag k="name" v="Storekåsløypa" />
		<tag k="ssr:stedsnr" v="95529" />
	</node>
	<node id="-237907" lat="59.9555055571" lon="8.52711388746">
		<tag k="ford" v="yes" />
		<tag k="name" v="Løkjeva" />
		<tag k="place" v="locality" />
		<tag k="ssr:stedsnr" v="276104" />
	</node>
	<node id="-240465" lat="59.8845249959" lon="8.67651666123">
		<tag k="landuse" v="industrial" />
		<tag k="name" v="Mår kraftverk" />
		<tag k="power" v="plant" />
		<tag k="ssr:stedsnr" v="459471" />
	</node>
	<node id="-239435" lat="59.9509111124" lon="8.57855833956">
		<tag k="man_made" v="cairn" />
		<tag k="name" v="Staven" />
		<tag k="place" v="locality" />
		<tag k="ssr:stedsnr" v="95213" />
	</node>
	<node id="-239429" lat="59.8806666657" lon="8.58992778078">
		<tag k="highway" v="path" />
		<tag k="name" v="Haddelandsvegen" />
		<tag k="ssr:stedsnr" v="94740" />
	</node>
	<node id="-239422" lat="59.9995111117" lon="8.67003611912">
		<tag k="ford" v="yes" />
		<tag k="name" v="Bjønnevad" />
		<tag k="place" v="locality" />
		<tag k="ssr:stedsnr" v="94967" />
	</node>
	<node id="-240444" lat="59.996525004" lon="8.75032778018">
		<tag k="alt_name" v="Marum" />
		<tag k="bridge" v="yes" />
		<tag k="layer" v="1" />
		<tag k="name" v="Mårembru" />
		<tag k="ssr:stedsnr" v="458725" />
	</node>
	<node id="-240950" lat="59.8376499955" lon="9.00458332918">
		<tag k="man_made" v="quay" />
		<tag k="name" v="Hovin brygge" />
		<tag k="place" v="locality" />
		<tag k="ssr:stedsnr" v="550629" />
	</node>
	<node id="-241455" lat="60.0203555592" lon="8.59704999398">
		<tag k="ford" v="yes" />
		<tag k="name" v="Breivad" />
		<tag k="place" v="locality" />
		<tag k="ssr:stedsnr" v="652507" />
	</node>
	<node id="-238376" lat="60.0369277753" lon="8.29159444835">
		<tag k="highway" v="path" />
		<tag k="name" v="Sandbekkvegen" />
		<tag k="ssr:stedsnr" v="350837" />
	</node>
	<node id="-238051" lat="60.0481166704" lon="8.58437221687">
		<tag k="highway" v="path" />
		<tag k="name" v="Staupsvegen" />
		<tag k="ssr:stedsnr" v="289361" />
	</node>
	<node id="-241433" lat="60.0342500017" lon="8.67722221968">
		<tag k="highway" v="path" />
		<tag k="name" v="Staupsvegen" />
		<tag k="ssr:stedsnr" v="642893" />
	</node>
	<node id="-238722" lat="59.8873888852" lon="8.57748333653">
		<tag k="highway" v="path" />
		<tag k="name" v="Bjønnestigen" />
		<tag k="ssr:stedsnr" v="883698" />
	</node>
	<node id="-238344" lat="59.92567222" lon="8.9627944419">
		<tag k="bridge" v="yes" />
		<tag k="layer" v="1" />
		<tag k="name" v="Fjellstulå" />
		<tag k="ssr:stedsnr" v="349322" />
	</node>
	<node id="-238343" lat="59.8790388908" lon="8.5575472218">
		<tag k="bridge" v="yes" />
		<tag k="layer" v="1" />
		<tag k="name" v="Krosso" />
		<tag k="ssr:stedsnr" v="349317" />
	</node>
	<node id="-239366" lat="60.081719448" lon="8.33924444827">
		<tag k="man_made" v="cairn" />
		<tag k="name" v="Basisen" />
		<tag k="place" v="locality" />
		<tag k="ssr:stedsnr" v="66889" />
	</node>
	<node id="-238334" lat="60.133294445" lon="8.84112777592">
		<tag k="highway" v="path" />
		<tag k="name" v="Søndre Nordmannslepa" />
		<tag k="ssr:stedsnr" v="349087" />
	</node>
	<node id="-238333" lat="59.9826472243" lon="8.41763888509">
		<tag k="ford" v="yes" />
		<tag k="name" v="Bergvaet" />
		<tag k="place" v="locality" />
		<tag k="ssr:stedsnr" v="349026" />
	</node>
	<node id="-239851" lat="59.8823861072" lon="8.67563611426">
		<tag k="bridge" v="yes" />
		<tag k="layer" v="1" />
		<tag k="name" v="Dale bru" />
		<tag k="ssr:stedsnr" v="168280" />
	</node>
	<node id="-239850" lat="60.0190333306" lon="8.8363722198">
		<tag k="bridge" v="yes" />
		<tag k="layer" v="1" />
		<tag k="name" v="Vålund" />
		<tag k="ssr:stedsnr" v="168247" />
	</node>
	<node id="-239849" lat="60.0094333335" lon="8.84690555445">
		<tag k="bridge" v="yes" />
		<tag k="layer" v="1" />
		<tag k="name" v="Øylandåa" />
		<tag k="ssr:stedsnr" v="168243" />
	</node>
	<node id="-238312" lat="59.8820805574" lon="9.04556666219">
		<tag k="highway" v="path" />
		<tag k="name" v="Brattestig" />
		<tag k="ssr:stedsnr" v="339860" />
	</node>
	<node id="-238822" lat="59.8633166673" lon="9.09856389291">
		<tag k="ford" v="yes" />
		<tag k="name" v="Hukeva" />
		<tag k="place" v="locality" />
		<tag k="ssr:stedsnr" v="886857" />
	</node>
	<node id="-238818" lat="59.9280527772" lon="9.05523888073">
		<tag k="ford" v="yes" />
		<tag k="name" v="Brennevaet" />
		<tag k="place" v="locality" />
		<tag k="ssr:stedsnr" v="886771" />
	</node>
	<node id="-238297" lat="60.0501527742" lon="8.74438054733">
		<tag k="highway" v="path" />
		<tag k="name" v="Åsvegen" />
		<tag k="ssr:stedsnr" v="339577" />
	</node>
	<node id="-240855" lat="60.1041861136" lon="8.74829166345">
		<tag k="bridge" v="yes" />
		<tag k="layer" v="1" />
		<tag k="name" v="Bjørnerud" />
		<tag k="ssr:stedsnr" v="532256" />
	</node>
	<node id="-240854" lat="60.0107777766" lon="8.83679722856">
		<tag k="bridge" v="yes" />
		<tag k="layer" v="1" />
		<tag k="name" v="Øygard" />
		<tag k="ssr:stedsnr" v="532222" />
	</node>
	<node id="-242387" lat="59.8629638849" lon="8.96084165792">
		<tag k="alt_name" v="Stodi" />
		<tag k="fixme" v="verify maritime location" />
		<tag k="mooring" v="yes" />
		<tag k="name" v="Urdalstøe" />
		<tag k="place" v="locality" />
		<tag k="ssr:stedsnr" v="853691" />
	</node>
	<node id="-238799" lat="59.9424249963" lon="9.1049749931">
		<tag k="alt_name" v="Turistslepa" />
		<tag k="highway" v="path" />
		<tag k="name" v="Normannslepa" />
		<tag k="ssr:stedsnr" v="886500" />
	</node>
	<node id="-238795" lat="60.0389000023" lon="8.84873889699">
		<tag k="highway" v="path" />
		<tag k="name" v="Svivet" />
		<tag k="ssr:stedsnr" v="886449" />
	</node>
	<node id="-238794" lat="60.0540555517" lon="8.87754443931">
		<tag k="highway" v="path" />
		<tag k="name" v="Sommarvegen" />
		<tag k="ssr:stedsnr" v="886438" />
	</node>
	<node id="-241348" lat="59.930258329" lon="8.81236111799">
		<tag k="amenity" v="ferry_terminal" />
		<tag k="name" v="Mæl ferjehamn" />
		<tag k="ssr:stedsnr" v="640310" />
	</node>
	<node id="-242371" lat="59.8985249997" lon="8.26609444329">
		<tag k="ford" v="yes" />
		<tag k="name" v="Hardingvadet" />
		<tag k="place" v="locality" />
		<tag k="ssr:stedsnr" v="853453" />
	</node>
	<node id="-240322" lat="59.8247583332" lon="8.34616110482">
		<tag k="landuse" v="industrial" />
		<tag k="name" v="Frøystaul kraftstasjon" />
		<tag k="power" v="plant" />
		<tag k="ssr:stedsnr" v="429376" />
	</node>
	<node id="-239809" lat="60.0442361155" lon="8.73188055597">
		<tag k="bridge" v="yes" />
		<tag k="layer" v="1" />
		<tag k="name" v="Reinshølbru" />
		<tag k="ssr:stedsnr" v="157932" />
	</node>
	<node id="-238264" lat="59.7904916656" lon="9.10020556069">
		<tag k="name" v="Livelta" />
		<tag k="place" v="locality" />
		<tag k="ssr:stedsnr" v="339013" />
	</node>
	<node id="-239795" lat="60.0324749969" lon="8.73564999345">
		<tag k="alt_name" v="Gauset" />
		<tag k="bridge" v="yes" />
		<tag k="layer" v="1" />
		<tag k="name" v="Gauset bru" />
		<tag k="ssr:stedsnr" v="157722" />
	</node>
	<node id="-242353" lat="60.0581305573" lon="8.42325277959">
		<tag k="ford" v="yes" />
		<tag k="name" v="Steinhoppet" />
		<tag k="place" v="locality" />
		<tag k="ssr:stedsnr" v="836415" />
	</node>
	<node id="-238768" lat="59.9049499988" lon="8.91869165871">
		<tag k="name" v="Grasdalvelta" />
		<tag k="place" v="locality" />
		<tag k="ssr:stedsnr" v="885370" />
	</node>
	<node id="-239787" lat="59.9423166623" lon="8.91164721548">
		<tag k="junction" v="yes" />
		<tag k="name" v="Moldbrekke" />
		<tag k="place" v="locality" />
		<tag k="ssr:stedsnr" v="157583" />
	</node>
	<node id="-239273" lat="59.8855972262" lon="8.54714722138">
		<tag k="aerialway" v="gondola" />
		<tag k="name" v="Gvepseborg" />
		<tag k="ssr:stedsnr" v="65126" />
	</node>
	<node id="-238755" lat="60.0111444448" lon="8.71273054935">
		<tag k="highway" v="path" />
		<tag k="name" v="Staupsvegen" />
		<tag k="ssr:stedsnr" v="884436" />
	</node>
	<node id="-238241" lat="59.8788805512" lon="8.60659444419">
		<tag k="bridge" v="yes" />
		<tag k="layer" v="1" />
		<tag k="name" v="Meland bru" />
		<tag k="ssr:stedsnr" v="337640" />
	</node>
	<node id="-238749" lat="60.0129249964" lon="8.61781665904">
		<tag k="highway" v="path" />
		<tag k="name" v="Petarsløypa" />
		<tag k="ssr:stedsnr" v="884305" />
	</node>
	<node id="-239726" lat="60.0118166629" lon="8.75806110221">
		<tag k="highway" v="path" />
		<tag k="name" v="Sauvegen" />
		<tag k="ssr:stedsnr" v="155202" />
	</node>
	<node id="-239759" lat="59.7949249996" lon="9.07855278416">
		<tag k="name" v="Vetterstå" />
		<tag k="place" v="locality" />
		<tag k="ssr:stedsnr" v="157013" />
	</node>
	<node id="-242318" lat="59.8843861137" lon="9.17832778122">
		<tag k="highway" v="path" />
		<tag k="name" v="Turistslepa" />
		<tag k="ssr:stedsnr" v="825847" />
	</node>
	<node id="-239757" lat="59.9229083339" lon="8.90140000603">
		<tag k="name" v="Hyllandsvelta" />
		<tag k="place" v="locality" />
		<tag k="ssr:stedsnr" v="156408" />
	</node>
	<node id="-239755" lat="59.931730555" lon="8.78108333897">
		<tag k="highway" v="path" />
		<tag k="name" v="Håmåren" />
		<tag k="ssr:stedsnr" v="155984" />
	</node>
	<node id="-238216" lat="59.8970611154" lon="8.85889166657">
		<tag k="highway" v="path" />
		<tag k="name" v="Bergveggin" />
		<tag k="ssr:stedsnr" v="337135" />
	</node>
	<node id="-240770" lat="59.9787416707" lon="8.77053333455">
		<tag k="man_made" v="quay" />
		<tag k="name" v="Tinn brygge" />
		<tag k="place" v="locality" />
		<tag k="ssr:stedsnr" v="519943" />
	</node>
	<node id="-238715" lat="59.8678500011" lon="8.59497500235">
		<tag k="highway" v="path" />
		<tag k="name" v="Gaustabrotet" />
		<tag k="ssr:stedsnr" v="883596" />
	</node>
	<node id="-241784" lat="59.9838361091" lon="8.38265833509">
		<tag k="ford" v="yes" />
		<tag k="name" v="Kilsvae" />
		<tag k="place" v="locality" />
		<tag k="ssr:stedsnr" v="714687" />
	</node>
	<node id="-240759" lat="59.9252638915" lon="8.75715276917">
		<tag k="name" v="Heggøyvelta" />
		<tag k="place" v="locality" />
		<tag k="ssr:stedsnr" v="519552" />
	</node>
	<node id="-241778" lat="59.9259666687" lon="8.79166945078">
		<tag k="bridge" v="yes" />
		<tag k="layer" v="1" />
		<tag k="name" v="Auståe" />
		<tag k="ssr:stedsnr" v="714243" />
	</node>
	<node id="-242289" lat="59.9775305559" lon="8.90265554817">
		<tag k="highway" v="path" />
		<tag k="name" v="Brattebakke" />
		<tag k="ssr:stedsnr" v="825054" />
	</node>
	<node id="-241776" lat="60.1230888907" lon="8.69754722826">
		<tag k="bridge" v="yes" />
		<tag k="layer" v="1" />
		<tag k="name" v="Øvå" />
		<tag k="ssr:stedsnr" v="714210" />
	</node>
	<node id="-241775" lat="59.9868805579" lon="8.73369999173">
		<tag k="bridge" v="yes" />
		<tag k="layer" v="1" />
		<tag k="name" v="Ullern" />
		<tag k="ssr:stedsnr" v="714208" />
	</node>
	<node id="-241774" lat="59.8781055581" lon="8.49793056225">
		<tag k="bridge" v="yes" />
		<tag k="layer" v="1" />
		<tag k="name" v="Våer" />
		<tag k="ssr:stedsnr" v="714206" />
	</node>
	<node id="-239210" lat="59.8746611082" lon="8.69930555894">
		<tag k="bridge" v="yes" />
		<tag k="layer" v="1" />
		<tag k="name" v="Sannesbekk" />
		<tag k="ssr:stedsnr" v="46259" />
	</node>
	<node id="-241755" lat="59.8683972266" lon="8.47656110775">
		<tag k="layer" v="-1" />
		<tag k="name" v="Maristigen" />
		<tag k="ssr:stedsnr" v="711353" />
		<tag k="tunnel" v="yes" />
	</node>
	<node id="-242266" lat="59.8774722192" lon="8.58271389345">
		<tag k="name" v="Rjukan stasjon" />
		<tag k="railway" v="station" />
		<tag k="ssr:stedsnr" v="823680" />
		<tag k="train" v="yes" />
	</node>
	<node id="-242265" lat="59.8776972217" lon="8.58758888429">
		<tag k="bridge" v="yes" />
		<tag k="layer" v="1" />
		<tag k="name" v="Birkelandsbrua" />
		<tag k="ssr:stedsnr" v="823678" />
	</node>
	<node id="-239184" lat="60.0454611118" lon="8.9180305477">
		<tag k="highway" v="path" />
		<tag k="name" v="Brattli" />
		<tag k="ssr:stedsnr" v="36377" />
	</node>
	<node id="-239695" lat="59.9035388867" lon="9.01325277644">
		<tag k="alt_name" v="Espeset" />
		<tag k="bridge" v="yes" />
		<tag k="layer" v="1" />
		<tag k="name" v="Espeset bru" />
		<tag k="ssr:stedsnr" v="148369" />
	</node>
	<node id="-239694" lat="59.8818138926" lon="8.54963056223">
		<tag k="highway" v="path" />
		<tag k="name" v="Ryes vei" />
		<tag k="ssr:stedsnr" v="147523" />
	</node>
	<node id="-239181" lat="60.0016277752" lon="8.85243332708">
		<tag k="highway" v="path" />
		<tag k="name" v="Fangekåsvegen" />
		<tag k="ssr:stedsnr" v="36184" />
	</node>
	<node id="-238663" lat="60.1605666641" lon="8.60746667102">
		<tag k="bridge" v="yes" />
		<tag k="layer" v="1" />
		<tag k="name" v="Borgeå" />
		<tag k="ssr:stedsnr" v="410286" />
	</node>
	<node id="-238662" lat="59.9261972231" lon="8.80116945302">
		<tag k="bridge" v="yes" />
		<tag k="layer" v="1" />
		<tag k="name" v="Rollag" />
		<tag k="ssr:stedsnr" v="410256" />
	</node>
	<node id="-241731" lat="60.0357055579" lon="8.73961389772">
		<tag k="highway" v="path" />
		<tag k="name" v="Kyrkjelidokke" />
		<tag k="ssr:stedsnr" v="703900" />
	</node>
	<node id="-239163" lat="60.0519583318" lon="8.75412777983">
		<tag k="bridge" v="yes" />
		<tag k="layer" v="1" />
		<tag k="name" v="Alfarkloppe" />
		<tag k="ssr:stedsnr" v="35615" />
	</node>
	<node id="-241195" lat="60.0320861117" lon="8.57173888767">
		<tag k="ford" v="yes" />
		<tag k="name" v="Golanvaet" />
		<tag k="place" v="locality" />
		<tag k="ssr:stedsnr" v="592561" />
	</node>
	<node id="-242728" lat="59.8937333338" lon="9.04890555808">
		<tag k="highway" v="path" />
		<tag k="name" v="Brattestig" />
		<tag k="ssr:stedsnr" v="946908" />
	</node>
	<node id="-241190" lat="59.8654333331" lon="8.68569166955">
		<tag k="bridge" v="yes" />
		<tag k="layer" v="1" />
		<tag k="name" v="Langfonnbekk" />
		<tag k="ssr:stedsnr" v="592289" />
	</node>
	<node id="-241189" lat="59.926483331" lon="8.79499721348">
		<tag k="bridge" v="yes" />
		<tag k="layer" v="1" />
		<tag k="name" v="Mæl" />
		<tag k="ssr:stedsnr" v="592272" />
	</node>
	<node id="-238342" lat="59.881863891" lon="8.67939166764">
		<tag k="bridge" v="yes" />
		<tag k="layer" v="1" />
		<tag k="name" v="Storebekk" />
		<tag k="ssr:stedsnr" v="349290" />
	</node>
	<node id="-241693" lat="59.9313694441" lon="8.78504999136">
		<tag k="highway" v="path" />
		<tag k="name" v="Kypa" />
		<tag k="ssr:stedsnr" v="701980" />
	</node>
	<node id="-239131" lat="60.0234777747" lon="8.62346945035">
		<tag k="highway" v="path" />
		<tag k="name" v="Bukøyrvegen" />
		<tag k="ssr:stedsnr" v="34237" />
	</node>
	<node id="-239127" lat="59.9603250023" lon="8.50125000076">
		<tag k="man_made" v="cairn" />
		<tag k="name" v="Greven" />
		<tag k="place" v="locality" />
		<tag k="ssr:stedsnr" v="34117" />
	</node>
	<node id="-241170" lat="60.0826694435" lon="8.86731388942">
		<tag k="highway" v="path" />
		<tag k="name" v="Ræpedikje" />
		<tag k="ssr:stedsnr" v="582918" />
	</node>
	<node id="-239121" lat="59.9505333298" lon="8.44510000111">
		<tag k="highway" v="path" />
		<tag k="name" v="Turistslepa" />
		<tag k="ssr:stedsnr" v="33762" />
	</node>
	<node id="-240130" lat="59.9010638888" lon="8.89191944086">
		<tag k="bridge" v="yes" />
		<tag k="layer" v="1" />
		<tag k="name" v="Gvåleviken" />
		<tag k="ssr:stedsnr" v="228277" />
	</node>
	<node id="-240129" lat="59.9694861068" lon="8.87201945111">
		<tag k="bridge" v="yes" />
		<tag k="layer" v="1" />
		<tag k="name" v="Juvsjø" />
		<tag k="ssr:stedsnr" v="228274" />
	</node>
</osm>
