<?xml version="1.0" encoding="UTF-8"?>
<<<<<<< HEAD
<osm version="0.6" generator="osmapis">
	<node lat="60.190669850303095" lon="9.69812802366214" id="-19303">
=======
<osm generator="osmapis" version="0.6">
	<node id="-284912" lat="60.2457886964" lon="9.58384182178">
		<tag k="fixme" v="consider boundary=protected_area and relevant protect_class if not nature reserve" />
		<tag k="leisure" v="nature_reserve" />
		<tag k="name" v="Surtebergflaget naturreservat" />
		<tag k="ssr:stedsnr" v="981230" />
	</node>
	<node id="-284911" lat="60.1906698503" lon="9.69812802366">
>>>>>>> e1d4bc35ff8a6074a6f2e91616a996b547c36f15
		<tag k="fixme" v="consider boundary=protected_area and relevant protect_class if not nature reserve" />
		<tag k="leisure" v="nature_reserve" />
		<tag k="name" v="KnipetjennÃ¥sen naturreservat" />
		<tag k="ssr:stedsnr" v="971497" />
	</node>
<<<<<<< HEAD
	<node lat="60.2457886964051" lon="9.583841821776169" id="-19306">
=======
	<node id="-285541" lat="60.2941099884" lon="9.53305821718">
>>>>>>> e1d4bc35ff8a6074a6f2e91616a996b547c36f15
		<tag k="fixme" v="consider boundary=protected_area and relevant protect_class if not nature reserve" />
		<tag k="leisure" v="nature_reserve" />
		<tag k="name" v="Surtebergflaget naturreservat" />
		<tag k="ssr:stedsnr" v="981230" />
	</node>
<<<<<<< HEAD
	<node lat="60.18093333726908" lon="9.777949996192064" id="-19631">
=======
	<node id="-284618" lat="60.1809333373" lon="9.77794999619">
>>>>>>> e1d4bc35ff8a6074a6f2e91616a996b547c36f15
		<tag k="fixme" v="consider boundary=protected_area and relevant protect_class if not nature reserve" />
		<tag k="leisure" v="nature_reserve" />
		<tag k="name" v="Storrmyran naturreservat" />
		<tag k="ssr:stedsnr" v="508367" />
	</node>
<<<<<<< HEAD
	<node lat="60.31680833350217" lon="9.685211113731292" id="-19805">
		<tag k="fixme" v="consider boundary=protected_area and relevant protect_class if not nature reserve" />
		<tag k="leisure" v="nature_reserve" />
		<tag k="name" v="Haverstingen naturreservat" />
		<tag k="ssr:stedsnr" v="846276" />
	</node>
	<node lat="60.29410998840016" lon="9.533058217176777" id="-19893">
		<tag k="fixme" v="consider boundary=protected_area and relevant protect_class if not nature reserve" />
		<tag k="leisure" v="nature_reserve" />
		<tag k="name" v="Laksejuv naturreservat" />
		<tag k="ssr:stedsnr" v="985572" />
	</node>
=======
>>>>>>> e1d4bc35ff8a6074a6f2e91616a996b547c36f15
</osm>
