<?xml version="1.0" encoding="UTF-8"?>
<<<<<<< HEAD
<osm version="0.6" generator="osmapis">
	<node lat="60.1577277740841" lon="9.61425278123405" id="-18824">
		<tag k="name" v="Kvennan" />
		<tag k="place" v="locality" />
		<tag k="ssr:stedsnr" v="94910" />
	</node>
	<node lat="60.29806065434211" lon="9.53786577368335" id="-18844">
		<tag k="name" v="Ringnessetra" />
=======
<osm generator="osmapis" version="0.6">
	<node id="-284537" lat="60.1607027816" lon="9.84466110909">
		<tag k="name" v="Brandbu" />
		<tag k="place" v="locality" />
		<tag k="ssr:stedsnr" v="276510" />
	</node>
	<node id="-285041" lat="60.1377555531" lon="9.74149444589">
		<tag k="name" v="Maurhaugen" />
		<tag k="place" v="locality" />
		<tag k="ssr:stedsnr" v="95040" />
	</node>
	<node id="-285295" lat="60.1698194427" lon="9.64580278006">
		<tag k="alt_name" v="Den gml mester" />
		<tag k="name" v="Den gamle mester" />
		<tag k="ssr:stedsnr" v="430745" />
		<tag k="tourism" v="attraction" />
	</node>
	<node id="-285028" lat="60.1048888913" lon="9.70611111176">
		<tag k="name" v="Syrinan" />
		<tag k="place" v="locality" />
		<tag k="ssr:stedsnr" v="95329" />
	</node>
	<node id="-285153" lat="60.1913333372" lon="9.57402221483">
		<tag k="alt_name" v="Søndre sving" />
		<tag k="name" v="Søre sving" />
		<tag k="place" v="locality" />
		<tag k="ssr:stedsnr" v="216085" />
	</node>
	<node id="-284512" lat="60.2079555594" lon="9.60384166944">
		<tag k="name" v="Snekkerplassen" />
		<tag k="place" v="locality" />
		<tag k="ssr:stedsnr" v="278363" />
	</node>
	<node id="-284892" lat="60.2580555525" lon="9.66758610412">
		<tag k="name" v="Huset" />
		<tag k="place" v="locality" />
		<tag k="ssr:stedsnr" v="885309" />
	</node>
	<node id="-284763" lat="60.1207833313" lon="9.79181388441">
		<tag k="name" v="Sundvollhovet" />
		<tag k="place" v="locality" />
		<tag k="ssr:stedsnr" v="700770" />
	</node>
	<node id="-285253" lat="60.1874638853" lon="9.58300278351">
		<tag k="name" v="Bøsetersvingen" />
		<tag k="place" v="locality" />
		<tag k="ssr:stedsnr" v="398062" />
	</node>
	<node id="-284739" lat="60.2555527739" lon="9.65133611639">
		<tag k="alt_name" v="Veikåker kirke;Veikåker" />
		<tag k="amenity" v="place_of_worship" />
		<tag k="denomination" v="lutheran" />
		<tag k="name" v="Veikåker kapell" />
		<tag k="religion" v="christian" />
		<tag k="ssr:stedsnr" v="734663" />
	</node>
	<node id="-285280" lat="60.2129861106" lon="9.5846527806">
		<tag k="name" v="Nyhus" />
		<tag k="place" v="locality" />
		<tag k="ssr:stedsnr" v="399360" />
	</node>
	<node id="-285116" lat="60.1676805535" lon="9.63105278094">
		<tag k="name" v="Villa Fridheim" />
		<tag k="ssr:stedsnr" v="181045" />
		<tag k="tourism" v="museum" />
	</node>
	<node id="-285209" lat="60.2578194484" lon="9.66506389682">
		<tag k="name" v="Gunnarplassen" />
		<tag k="place" v="locality" />
		<tag k="ssr:stedsnr" v="338238" />
	</node>
	<node id="-284724" lat="60.2940472235" lon="9.55679722036">
		<tag k="name" v="Sjåheim" />
		<tag k="place" v="locality" />
		<tag k="ssr:stedsnr" v="642858" />
	</node>
	<node id="-285106" lat="60.2994583332" lon="9.63130833206">
		<tag k="name" v="Mateaplassen" />
		<tag k="place" v="locality" />
		<tag k="ssr:stedsnr" v="156320" />
	</node>
	<node id="-285360" lat="60.2582166711" lon="9.61249444828">
		<tag k="name" v="Tavlesvingen" />
		<tag k="place" v="locality" />
		<tag k="ssr:stedsnr" v="580369" />
	</node>
	<node id="-284591" lat="60.1923444461" lon="9.71000833654">
		<tag k="name" v="Lågebekksetra" />
		<tag k="ssr:stedsnr" v="490143" />
		<tag k="tourism" v="viewpoint" />
	</node>
	<node id="-284722" lat="60.1604638847" lon="9.73904166699">
		<tag k="name" v="Sandmohovet" />
		<tag k="place" v="locality" />
		<tag k="ssr:stedsnr" v="640849" />
	</node>
	<node id="-284713" lat="60.1882722253" lon="9.73911945278">
		<tag k="name" v="Bekkehytta" />
>>>>>>> e1d4bc35ff8a6074a6f2e91616a996b547c36f15
		<tag k="place" v="locality" />
		<tag k="ssr:stedsnr" v="249061" />
	</node>
<<<<<<< HEAD
	<node lat="60.17118888529128" lon="9.637119443987933" id="-18853">
		<tag k="alt_name" v="Olberg" />
=======
	<node id="-285147" lat="60.1066388875" lon="9.80778333071">
		<tag k="name" v="Krøderbanen" />
		<tag k="ssr:stedsnr" v="206517" />
		<tag k="tourism" v="museum" />
	</node>
	<node id="-284832" lat="60.1064416659" lon="9.6979361027">
		<tag k="name" v="Inngjerdinga" />
		<tag k="place" v="locality" />
		<tag k="ssr:stedsnr" v="823363" />
	</node>
	<node id="-284575" lat="60.1219222242" lon="9.76202499459">
		<tag k="alt_name" v="Glesne" />
>>>>>>> e1d4bc35ff8a6074a6f2e91616a996b547c36f15
		<tag k="amenity" v="place_of_worship" />
		<tag k="denomination" v="lutheran" />
		<tag k="name" v="Olberg kirke" />
		<tag k="old_name" v="Krødsherad" />
		<tag k="religion" v="christian" />
<<<<<<< HEAD
		<tag k="ssr:stedsnr" v="126135" />
	</node>
	<node lat="60.16070278160414" lon="9.84466110909067" id="-18930">
		<tag k="name" v="Brandbu" />
		<tag k="place" v="locality" />
		<tag k="ssr:stedsnr" v="276510" />
	</node>
	<node lat="60.24992222416802" lon="9.608427776613349" id="-18946">
		<tag k="name" v="Jonsrud" />
		<tag k="place" v="locality" />
		<tag k="ssr:stedsnr" v="461000" />
	</node>
	<node lat="60.121922224240244" lon="9.76202499458612" id="-18955">
		<tag k="alt_name" v="Glesne" />
=======
		<tag k="ssr:stedsnr" v="308816" />
	</node>
	<node id="-284572" lat="60.2499222242" lon="9.60842777661">
		<tag k="name" v="Jonsrud" />
		<tag k="place" v="locality" />
		<tag k="ssr:stedsnr" v="461000" />
	</node>
	<node id="-285039" lat="60.1577277741" lon="9.61425278123">
		<tag k="name" v="Kvennan" />
		<tag k="place" v="locality" />
		<tag k="ssr:stedsnr" v="94910" />
	</node>
	<node id="-284693" lat="60.2415555577" lon="9.66497499761">
		<tag k="name" v="Kølbotten" />
		<tag k="place" v="locality" />
		<tag k="ssr:stedsnr" v="702986" />
	</node>
	<node id="-285065" lat="60.1711888853" lon="9.63711944399">
		<tag k="alt_name" v="Olberg" />
>>>>>>> e1d4bc35ff8a6074a6f2e91616a996b547c36f15
		<tag k="amenity" v="place_of_worship" />
		<tag k="denomination" v="lutheran" />
		<tag k="name" v="Glesne kapell" />
		<tag k="religion" v="christian" />
		<tag k="ssr:stedsnr" v="308816" />
	</node>
<<<<<<< HEAD
	<node lat="60.16981944268206" lon="9.645802780063352" id="-19019">
		<tag k="alt_name" v="Den gml mester" />
		<tag k="name" v="Den gamle mester" />
		<tag k="ssr:stedsnr" v="430745" />
		<tag k="tourism" v="attraction" />
	</node>
	<node lat="60.19234444609829" lon="9.710008336542465" id="-19062">
		<tag k="name" v="Lågebekksetra" />
		<tag k="ssr:stedsnr" v="490143" />
		<tag k="tourism" v="viewpoint" />
	</node>
	<node lat="60.208927780283496" lon="9.598699992399412" id="-19077">
=======
	<node id="-285316" lat="60.2089277803" lon="9.5986999924">
>>>>>>> e1d4bc35ff8a6074a6f2e91616a996b547c36f15
		<tag k="name" v="Gutua" />
		<tag k="place" v="locality" />
		<tag k="ssr:stedsnr" v="521324" />
	</node>
<<<<<<< HEAD
	<node lat="60.120783331330806" lon="9.791813884413223" id="-19110">
		<tag k="name" v="Sundvollhovet" />
		<tag k="place" v="locality" />
		<tag k="ssr:stedsnr" v="700770" />
	</node>
	<node lat="60.24155555768203" lon="9.664974997611163" id="-19130">
		<tag k="name" v="Kølbotten" />
		<tag k="place" v="locality" />
		<tag k="ssr:stedsnr" v="702986" />
	</node>
	<node lat="60.25805555247163" lon="9.66758610411741" id="-19279">
		<tag k="name" v="Huset" />
		<tag k="place" v="locality" />
		<tag k="ssr:stedsnr" v="885309" />
	</node>
	<node lat="60.137755553053374" lon="9.741494445893716" id="-19404">
		<tag k="name" v="Maurhaugen" />
		<tag k="place" v="locality" />
		<tag k="ssr:stedsnr" v="95040" />
	</node>
	<node lat="60.10488889130029" lon="9.706111111762935" id="-19408">
		<tag k="name" v="Syrinan" />
		<tag k="place" v="locality" />
		<tag k="ssr:stedsnr" v="95329" />
	</node>
	<node lat="60.299458333244964" lon="9.631308332061057" id="-19441">
		<tag k="name" v="Mateaplassen" />
		<tag k="place" v="locality" />
		<tag k="ssr:stedsnr" v="156320" />
	</node>
	<node lat="60.16768055351444" lon="9.631052780937122" id="-19449">
		<tag k="name" v="Villa Fridheim" />
		<tag k="ssr:stedsnr" v="181045" />
		<tag k="tourism" v="museum" />
	</node>
	<node lat="60.10663888754337" lon="9.80778333071134" id="-19477">
		<tag k="name" v="Krøderbanen" />
		<tag k="ssr:stedsnr" v="206517" />
		<tag k="tourism" v="museum" />
	</node>
	<node lat="60.191333337239215" lon="9.57402221482821" id="-19483">
		<tag k="alt_name" v="Søndre sving" />
		<tag k="name" v="Søre sving" />
		<tag k="place" v="locality" />
		<tag k="ssr:stedsnr" v="216085" />
	</node>
	<node lat="60.20795555938466" lon="9.603841669442177" id="-19523">
		<tag k="name" v="Snekkerplassen" />
		<tag k="place" v="locality" />
		<tag k="ssr:stedsnr" v="278363" />
	</node>
	<node lat="60.29053295548793" lon="9.558615751768132" id="-19540">
		<tag k="name" v="Hølsetra" />
		<tag k="place" v="locality" />
		<tag k="ssr:stedsnr" v="309065" />
	</node>
	<node lat="60.257819448407254" lon="9.665063896821252" id="-19553">
		<tag k="name" v="Gunnarplassen" />
		<tag k="place" v="locality" />
		<tag k="ssr:stedsnr" v="338238" />
	</node>
	<node lat="60.1874638853168" lon="9.583002783514921" id="-19587">
		<tag k="name" v="Bøsetersvingen" />
		<tag k="place" v="locality" />
		<tag k="ssr:stedsnr" v="398062" />
	</node>
	<node lat="60.21298611063723" lon="9.584652780596942" id="-19607">
		<tag k="name" v="Nyhus" />
		<tag k="place" v="locality" />
		<tag k="ssr:stedsnr" v="399360" />
	</node>
	<node lat="60.258216671051024" lon="9.612494448275632" id="-19674">
		<tag k="name" v="Tavlesvingen" />
		<tag k="place" v="locality" />
		<tag k="ssr:stedsnr" v="580369" />
	</node>
	<node lat="60.18827222529358" lon="9.739119452779223" id="-19683">
		<tag k="name" v="Bekkehytta" />
		<tag k="place" v="locality" />
		<tag k="ssr:stedsnr" v="580858" />
	</node>
	<node lat="60.160463884691396" lon="9.739041666986887" id="-19716">
		<tag k="name" v="Sandmohovet" />
		<tag k="place" v="locality" />
		<tag k="ssr:stedsnr" v="640849" />
	</node>
	<node lat="60.29404722347677" lon="9.556797220361172" id="-19726">
		<tag k="name" v="Sjåheim" />
		<tag k="place" v="locality" />
		<tag k="ssr:stedsnr" v="642858" />
	</node>
	<node lat="60.255552773897676" lon="9.651336116391148" id="-19739">
		<tag k="alt_name" v="Veikåker kirke;Veikåker" />
		<tag k="amenity" v="place_of_worship" />
		<tag k="denomination" v="lutheran" />
		<tag k="name" v="Veikåker kapell" />
		<tag k="religion" v="christian" />
		<tag k="ssr:stedsnr" v="734663" />
	</node>
	<node lat="60.10644166585561" lon="9.697936102702457" id="-19798">
		<tag k="name" v="Inngjerdinga" />
		<tag k="place" v="locality" />
		<tag k="ssr:stedsnr" v="823363" />
	</node>
=======
>>>>>>> e1d4bc35ff8a6074a6f2e91616a996b547c36f15
</osm>
