<?xml version="1.0" encoding="UTF-8"?>
<<<<<<< HEAD
<osm version="0.6" generator="osmapis">
	<node lat="60.19988987040856" lon="9.802004674682646" id="-18772">
		<tag k="name" v="Ørtesvatnet" />
		<tag k="natural" v="water" />
		<tag k="ssr:stedsnr" v="4176" />
		<tag k="water" v="lake" />
	</node>
	<node lat="60.28648611308232" lon="9.58123333042824" id="-18781">
		<tag k="name" v="Svartbekk" />
		<tag k="ssr:stedsnr" v="6075" />
		<tag k="waterway" v="stream" />
	</node>
	<node lat="60.20804167100472" lon="9.554116659586953" id="-18797">
		<tag k="name" v="Okseputtan" />
		<tag k="natural" v="water" />
		<tag k="ssr:stedsnr" v="35271" />
		<tag k="water" v="pond" />
	</node>
	<node lat="60.24683055392539" lon="9.726213894926127" id="-18800">
		<tag k="name" v="Blomstertjenn" />
		<tag k="natural" v="water" />
		<tag k="ssr:stedsnr" v="65003" />
	</node>
	<node lat="60.19873055334027" lon="9.653327778032427" id="-18801">
		<tag k="name" v="Sundesetertjenn" />
		<tag k="natural" v="water" />
		<tag k="ssr:stedsnr" v="65173" />
	</node>
	<node lat="60.18945603107838" lon="9.685014081489939" id="-18802">
		<tag k="name" v="Delingstjenna" />
		<tag k="natural" v="water" />
		<tag k="ssr:stedsnr" v="65175" />
		<tag k="water" v="lake" />
	</node>
	<node lat="60.19817221889816" lon="9.711305560197088" id="-18803">
		<tag k="name" v="Grensløken" />
		<tag k="ssr:stedsnr" v="65176" />
		<tag k="waterway" v="stream" />
	</node>
	<node lat="60.12153577900638" lon="9.798160085808563" id="-18806">
		<tag k="name" v="Svarttjenn" />
		<tag k="natural" v="water" />
		<tag k="ssr:stedsnr" v="65811" />
	</node>
	<node lat="60.15318889263735" lon="9.520897229619909" id="-18809">
		<tag k="name" v="Stortjenn" />
		<tag k="natural" v="water" />
		<tag k="ssr:stedsnr" v="82214" />
	</node>
	<node lat="60.20626388555824" lon="9.727677780135874" id="-18818">
		<tag k="name" v="Rishovdtjenn" />
		<tag k="natural" v="water" />
		<tag k="ssr:stedsnr" v="247164" />
	</node>
	<node lat="60.170647224542705" lon="9.735191673625705" id="-18832">
		<tag k="name" v="Slevikbekken" />
		<tag k="ssr:stedsnr" v="95815" />
		<tag k="waterway" v="stream" />
	</node>
	<node lat="60.15724999998803" lon="9.782483340738723" id="-18841">
		<tag k="name" v="Kringletjenn" />
		<tag k="natural" v="water" />
		<tag k="ssr:stedsnr" v="248786" />
	</node>
	<node lat="60.18988333502045" lon="9.718133324790317" id="-18862">
		<tag k="name" v="Lågebekk" />
		<tag k="ssr:stedsnr" v="143312" />
		<tag k="waterway" v="stream" />
	</node>
	<node lat="60.289102774905636" lon="9.679419448867453" id="-18866">
		<tag k="name" v="Fiskarvika" />
		<tag k="natural" v="bay" />
		<tag k="ssr:stedsnr" v="154600" />
	</node>
	<node lat="60.14627500008953" lon="9.582572218721413" id="-18873">
		<tag k="name" v="Puttan" />
		<tag k="natural" v="water" />
		<tag k="ssr:stedsnr" v="155306" />
		<tag k="water" v="pond" />
	</node>
	<node lat="60.24432860378138" lon="9.717806462316776" id="-18882">
		<tag k="name" v="Halvorfiskartjenn" />
		<tag k="natural" v="water" />
		<tag k="ssr:stedsnr" v="186003" />
	</node>
	<node lat="60.1201944441499" lon="9.739972220163091" id="-18883">
		<tag k="name" v="Fyranelva" />
		<tag k="ssr:stedsnr" v="187812" />
		<tag k="waterway" v="river" />
	</node>
	<node lat="60.1018833317727" lon="9.78997222751286" id="-18884">
		<tag k="name" v="Sandbekk" />
		<tag k="ssr:stedsnr" v="187826" />
		<tag k="waterway" v="stream" />
	</node>
	<node lat="60.108545024166645" lon="9.761856773204135" id="-18885">
		<tag k="name" v="Klinketjenn" />
=======
<osm generator="osmapis" version="0.6">
	<node id="-284671" lat="60.227016671" lon="9.73982777003">
		<tag k="name" v="MidtreTretjenn" />
>>>>>>> e1d4bc35ff8a6074a6f2e91616a996b547c36f15
		<tag k="natural" v="water" />
		<tag k="ssr:stedsnr" v="187827" />
	</node>
<<<<<<< HEAD
	<node lat="60.158875002687225" lon="9.755708328291796" id="-18896">
		<tag k="name" v="Haukebekken" />
		<tag k="ssr:stedsnr" v="216826" />
		<tag k="waterway" v="stream" />
	</node>
	<node lat="60.25637499682187" lon="9.64999722710429" id="-18899">
		<tag k="name" v="Stavanesodden" />
		<tag k="natural" v="cape" />
		<tag k="ssr:stedsnr" v="217711" />
	</node>
	<node lat="60.203041664985165" lon="9.558519452532792" id="-18901">
		<tag k="name" v="Svarteputt" />
		<tag k="natural" v="water" />
		<tag k="ssr:stedsnr" v="218222" />
		<tag k="water" v="pond" />
	</node>
	<node lat="60.11369722363443" lon="9.64865832846039" id="-18911">
		<tag k="name" v="Røvsåa" />
		<tag k="ssr:stedsnr" v="247817" />
		<tag k="waterway" v="stream" />
	</node>
	<node lat="60.09410039057227" lon="9.726574280467629" id="-18913">
		<tag k="name" v="Sigdalstjenna" />
=======
	<node id="-284668" lat="60.1955333344" lon="9.75879722209">
		<tag k="name" v="Midtløken" />
		<tag k="ssr:stedsnr" v="512917" />
		<tag k="waterway" v="river" />
	</node>
	<node id="-285179" lat="60.1524945241" lon="9.78670671968">
		<tag k="alt_name" v="Gjuvbekken" />
		<tag k="name" v="Juvbekken" />
		<tag k="ssr:stedsnr" v="308775" />
		<tag k="waterway" v="stream" />
	</node>
	<node id="-284663" lat="60.1382444404" lon="9.84329722776">
		<tag k="name" v="Øvre Handklevatnet" />
>>>>>>> e1d4bc35ff8a6074a6f2e91616a996b547c36f15
		<tag k="natural" v="water" />
		<tag k="ssr:stedsnr" v="247823" />
	</node>
<<<<<<< HEAD
	<node lat="60.149491665396475" lon="9.597022221940962" id="-18914">
		<tag k="name" v="Såstadbekken" />
		<tag k="ssr:stedsnr" v="247779" />
		<tag k="waterway" v="stream" />
	</node>
	<node lat="60.224623281575084" lon="9.680067679023162" id="-18915">
		<tag k="name" v="Igletjenn" />
=======
	<node id="-284660" lat="60.1461344375" lon="9.86615894925">
		<tag k="name" v="Kvigetjenn" />
>>>>>>> e1d4bc35ff8a6074a6f2e91616a996b547c36f15
		<tag k="natural" v="water" />
		<tag k="ssr:stedsnr" v="248178" />
	</node>
<<<<<<< HEAD
	<node lat="60.14697777651158" lon="9.862291661041969" id="-18916">
		<tag k="alt_name" v="Kvigetjernputten" />
		<tag k="name" v="Kvigetjennputten" />
=======
	<node id="-284657" lat="60.160863885" lon="9.87779444532">
		<tag k="name" v="Mortenvatna" />
>>>>>>> e1d4bc35ff8a6074a6f2e91616a996b547c36f15
		<tag k="natural" v="water" />
		<tag k="ssr:stedsnr" v="457733" />
	</node>
<<<<<<< HEAD
	<node lat="60.11847499827446" lon="9.670083334915812" id="-18925">
		<tag k="name" v="Grasvika" />
		<tag k="natural" v="bay" />
		<tag k="ssr:stedsnr" v="459328" />
	</node>
	<node lat="60.15856666735522" lon="9.596163886294459" id="-18936">
		<tag k="name" v="Leirskvennefossen" />
		<tag k="natural" v="waterfall" />
		<tag k="ssr:stedsnr" v="276913" />
	</node>
	<node lat="60.17402777703911" lon="9.625169448010627" id="-18949">
=======
	<node id="-284654" lat="60.1701111136" lon="9.62743888973">
		<tag k="name" v="Maritangen" />
		<tag k="natural" v="cape" />
		<tag k="ssr:stedsnr" v="672752" />
	</node>
	<node id="-284653" lat="60.1460694429" lon="9.55421111454">
		<tag k="name" v="Holløkbekken" />
		<tag k="ssr:stedsnr" v="672399" />
		<tag k="waterway" v="stream" />
	</node>
	<node id="-285164" lat="60.174027777" lon="9.62516944801">
>>>>>>> e1d4bc35ff8a6074a6f2e91616a996b547c36f15
		<tag k="name" v="Asjon" />
		<tag k="place" v="islet" />
		<tag k="ssr:stedsnr" v="308110" />
	</node>
<<<<<<< HEAD
	<node lat="60.15249452411964" lon="9.78670671968238" id="-18952">
		<tag k="alt_name" v="Gjuvbekken" />
		<tag k="name" v="Juvbekken" />
		<tag k="ssr:stedsnr" v="308775" />
		<tag k="waterway" v="stream" />
	</node>
	<node lat="60.135469441040506" lon="9.843211105258684" id="-18954">
		<tag k="name" v="Nedre Handklevatnet" />
		<tag k="natural" v="water" />
		<tag k="ssr:stedsnr" v="308804" />
	</node>
	<node lat="60.11721473293299" lon="9.606031585964374" id="-18956">
		<tag k="name" v="Øyvatnet" />
=======
	<node id="-284807" lat="60.1504305518" lon="9.84813056008">
		<tag k="name" v="Igletjenn" />
		<tag k="natural" v="water" />
		<tag k="ssr:stedsnr" v="915784" />
	</node>
	<node id="-284645" lat="60.203012901" lon="9.73534833927">
		<tag k="name" v="Vasketjenn" />
		<tag k="natural" v="water" />
		<tag k="ssr:stedsnr" v="672143" />
	</node>
	<node id="-284752" lat="60.1617555519" lon="9.62495555032">
		<tag k="name" v="Logneelva" />
		<tag k="natural" v="water" />
		<tag k="ssr:stedsnr" v="884545" />
		<tag k="water" v="lake" />
	</node>
	<node id="-285148" lat="60.120800001" lon="9.84827777336">
		<tag k="name" v="Handklevassbekken" />
		<tag k="ssr:stedsnr" v="215820" />
		<tag k="waterway" v="stream" />
	</node>
	<node id="-284634" lat="60.1870722196" lon="9.56856944832">
		<tag k="name" v="Grautåstjenn" />
		<tag k="natural" v="water" />
		<tag k="ssr:stedsnr" v="519113" />
	</node>
	<node id="-284751" lat="60.2877749997" lon="9.66973888857">
		<tag k="name" v="Blyan" />
		<tag k="natural" v="cape" />
		<tag k="ssr:stedsnr" v="884299" />
	</node>
	<node id="-284632" lat="60.1846722263" lon="9.62015833775">
		<tag k="name" v="Salsteinodden" />
		<tag k="natural" v="cape" />
		<tag k="ssr:stedsnr" v="519064" />
	</node>
	<node id="-285138" lat="60.1702235555" lon="9.84189126139">
		<tag k="name" v="Øvre Børkesettjenn" />
>>>>>>> e1d4bc35ff8a6074a6f2e91616a996b547c36f15
		<tag k="natural" v="water" />
		<tag k="ssr:stedsnr" v="308822" />
	</node>
<<<<<<< HEAD
	<node lat="60.29009167048349" lon="9.679725007738753" id="-18958">
		<tag k="name" v="Gigernes" />
=======
	<node id="-285134" lat="60.2304388913" lon="9.60528333621">
		<tag k="name" v="Bølingodden" />
>>>>>>> e1d4bc35ff8a6074a6f2e91616a996b547c36f15
		<tag k="natural" v="cape" />
		<tag k="ssr:stedsnr" v="309691" />
	</node>
<<<<<<< HEAD
	<node lat="60.25296111279594" lon="9.646436111300059" id="-18973">
		<tag k="name" v="Båtskjølen" />
		<tag k="natural" v="cape" />
		<tag k="old_name" v="Båtskjolen" />
		<tag k="ssr:stedsnr" v="338705" />
	</node>
	<node lat="60.20515277789286" lon="9.519730559319443" id="-18976">
		<tag k="name" v="Lorteputtan" />
=======
	<node id="-284620" lat="60.2965472262" lon="9.6242583347">
		<tag k="name" v="Breivikelva" />
		<tag k="ssr:stedsnr" v="508383" />
		<tag k="waterway" v="river" />
	</node>
	<node id="-285131" lat="60.1814061717" lon="9.80450678904">
		<tag k="name" v="Nedre Svarttjenn" />
>>>>>>> e1d4bc35ff8a6074a6f2e91616a996b547c36f15
		<tag k="natural" v="water" />
		<tag k="ssr:stedsnr" v="339815" />
		<tag k="water" v="pond" />
	</node>
<<<<<<< HEAD
	<node lat="60.213136107104575" lon="9.700002782862093" id="-18979">
		<tag k="name" v="Gortjenn" />
		<tag k="natural" v="water" />
		<tag k="ssr:stedsnr" v="368203" />
	</node>
	<node lat="60.11221314590828" lon="9.822302281155046" id="-18983">
		<tag k="name" v="Svanetjenn" />
=======
	<node id="-285129" lat="60.1201361074" lon="9.85381666837">
		<tag k="name" v="Sollitjenn" />
>>>>>>> e1d4bc35ff8a6074a6f2e91616a996b547c36f15
		<tag k="natural" v="water" />
		<tag k="ssr:stedsnr" v="369813" />
	</node>
<<<<<<< HEAD
	<node lat="60.12423333201527" lon="9.867958329784063" id="-18986">
=======
	<node id="-284616" lat="60.124233332" lon="9.86795832978">
>>>>>>> e1d4bc35ff8a6074a6f2e91616a996b547c36f15
		<tag k="name" v="Nedre Hundetjenn" />
		<tag k="natural" v="water" />
		<tag k="ssr:stedsnr" v="386361" />
	</node>
<<<<<<< HEAD
	<node lat="60.13968610964959" lon="9.65780555916768" id="-18989">
		<tag k="name" v="Eivindsrudtjenn" />
=======
	<node id="-284614" lat="60.2131361071" lon="9.70000278286">
		<tag k="name" v="Gortjenn" />
>>>>>>> e1d4bc35ff8a6074a6f2e91616a996b547c36f15
		<tag k="natural" v="water" />
		<tag k="ssr:stedsnr" v="398276" />
	</node>
<<<<<<< HEAD
	<node lat="60.241883336734354" lon="9.730022215522034" id="-18992">
		<tag k="name" v="Tjennmyrtjenn" />
		<tag k="natural" v="water" />
		<tag k="ssr:stedsnr" v="398628" />
	</node>
	<node lat="60.162955557917435" lon="9.710055562615421" id="-18993">
		<tag k="name" v="Skysskafferen" />
		<tag k="place" v="island" />
		<tag k="ssr:stedsnr" v="398827" />
	</node>
	<node lat="60.214524995745585" lon="9.611541662966323" id="-18996">
		<tag k="name" v="Storesanden" />
		<tag k="natural" v="cape" />
		<tag k="ssr:stedsnr" v="489195" />
	</node>
	<node lat="60.151408329312765" lon="9.745233341018412" id="-18998">
		<tag k="name" v="Skinnessund" />
		<tag k="natural" v="strait" />
		<tag k="ssr:stedsnr" v="489788" />
	</node>
	<node lat="60.189102776882144" lon="9.69404999501044" id="-19003">
		<tag k="name" v="Knipetjenn" />
=======
	<node id="-284613" lat="60.2915805575" lon="9.6449416583">
		<tag k="name" v="Storetjenn" />
		<tag k="natural" v="water" />
		<tag k="ssr:stedsnr" v="491683" />
	</node>
	<node id="-284611" lat="60.274160427" lon="9.52606104645">
		<tag k="name" v="Steintjenn" />
		<tag k="natural" v="water" />
		<tag k="ssr:stedsnr" v="491122" />
	</node>
	<node id="-284606" lat="60.100552775" lon="9.80426111958">
		<tag k="name" v="Mysutjenn" />
		<tag k="natural" v="water" />
		<tag k="ssr:stedsnr" v="490837" />
	</node>
	<node id="-285117" lat="60.2443286038" lon="9.71780646232">
		<tag k="name" v="Halvorfiskartjenn" />
>>>>>>> e1d4bc35ff8a6074a6f2e91616a996b547c36f15
		<tag k="natural" v="water" />
		<tag k="ssr:stedsnr" v="490150" />
	</node>
<<<<<<< HEAD
	<node lat="60.2425725797054" lon="9.569167062423741" id="-19004">
		<tag k="name" v="Svaratjenn" />
=======
	<node id="-284602" lat="60.1673431697" lon="9.86311635935">
		<tag k="name" v="Feletjenn" />
>>>>>>> e1d4bc35ff8a6074a6f2e91616a996b547c36f15
		<tag k="natural" v="water" />
		<tag k="ssr:stedsnr" v="490247" />
	</node>
<<<<<<< HEAD
	<node lat="60.172506523021056" lon="9.826028008129727" id="-19011">
=======
	<node id="-284601" lat="60.172506523" lon="9.82602800813">
>>>>>>> e1d4bc35ff8a6074a6f2e91616a996b547c36f15
		<tag k="name" v="Nedre Børkesettjenn" />
		<tag k="natural" v="water" />
		<tag k="ssr:stedsnr" v="490767" />
	</node>
<<<<<<< HEAD
	<node lat="60.16734316968525" lon="9.863116359351556" id="-19012">
		<tag k="name" v="Feletjenn" />
=======
	<node id="-285110" lat="60.2030777813" lon="9.5685138922">
		<tag k="name" v="Vesledamtjenn" />
>>>>>>> e1d4bc35ff8a6074a6f2e91616a996b547c36f15
		<tag k="natural" v="water" />
		<tag k="ssr:stedsnr" v="490771" />
	</node>
<<<<<<< HEAD
	<node lat="60.27416042700208" lon="9.526061046454412" id="-19021">
		<tag k="name" v="Steintjenn" />
=======
	<node id="-284597" lat="60.2425725797" lon="9.56916706242">
		<tag k="name" v="Svaratjenn" />
>>>>>>> e1d4bc35ff8a6074a6f2e91616a996b547c36f15
		<tag k="natural" v="water" />
		<tag k="ssr:stedsnr" v="491122" />
	</node>
<<<<<<< HEAD
	<node lat="60.250766427187976" lon="9.708836291824149" id="-19023">
		<tag k="alt_name" v="Lomtjenn" />
		<tag k="name" v="Nedre Lomtjenn" />
=======
	<node id="-284595" lat="60.2259321439" lon="9.7423350411">
		<tag k="name" v="Tretjenna" />
>>>>>>> e1d4bc35ff8a6074a6f2e91616a996b547c36f15
		<tag k="natural" v="water" />
		<tag k="ssr:stedsnr" v="431755" />
	</node>
<<<<<<< HEAD
	<node lat="60.28661136501762" lon="9.606816057784885" id="-19025">
		<tag k="name" v="Breiviktjenn" />
		<tag k="natural" v="water" />
		<tag k="ssr:stedsnr" v="431690" />
	</node>
	<node lat="60.20301290103482" lon="9.73534833926852" id="-19030">
		<tag k="name" v="Vasketjenn" />
		<tag k="natural" v="water" />
		<tag k="ssr:stedsnr" v="672143" />
	</node>
	<node lat="60.14606944285802" lon="9.554211114539042" id="-19037">
		<tag k="name" v="Holløkbekken" />
		<tag k="ssr:stedsnr" v="672399" />
		<tag k="waterway" v="stream" />
	</node>
	<node lat="60.16086388496578" lon="9.877794445316939" id="-19038">
		<tag k="name" v="Mortenvatna" />
		<tag k="natural" v="water" />
		<tag k="ssr:stedsnr" v="672763" />
		<tag k="water" v="lake" />
	</node>
	<node lat="60.17011111356676" lon="9.62743888973106" id="-19039">
		<tag k="name" v="Maritangen" />
=======
	<node id="-284593" lat="60.1891027769" lon="9.69404999501">
		<tag k="name" v="Knipetjenn" />
		<tag k="natural" v="water" />
		<tag k="ssr:stedsnr" v="490150" />
	</node>
	<node id="-284587" lat="60.1514083293" lon="9.74523334102">
		<tag k="name" v="Skinnessund" />
		<tag k="natural" v="strait" />
		<tag k="ssr:stedsnr" v="489788" />
	</node>
	<node id="-284584" lat="60.2145249957" lon="9.61154166297">
		<tag k="name" v="Storesanden" />
>>>>>>> e1d4bc35ff8a6074a6f2e91616a996b547c36f15
		<tag k="natural" v="cape" />
		<tag k="ssr:stedsnr" v="672752" />
	</node>
<<<<<<< HEAD
	<node lat="60.14613443745886" lon="9.86615894925287" id="-19044">
		<tag k="name" v="Kvigetjenn" />
		<tag k="natural" v="water" />
		<tag k="ssr:stedsnr" v="672794" />
	</node>
	<node lat="60.12890555664541" lon="9.848225000794633" id="-19046">
		<tag k="name" v="Nedre Handklevatn" />
		<tag k="natural" v="water" />
		<tag k="ssr:stedsnr" v="458025" />
	</node>
	<node lat="60.290602777211696" lon="9.647969447469784" id="-19049">
		<tag k="name" v="Vesletjenn" />
		<tag k="natural" v="water" />
		<tag k="ssr:stedsnr" v="459305" />
	</node>
	<node lat="60.22593214386696" lon="9.742335041100832" id="-19058">
		<tag k="name" v="Tretjenna" />
		<tag k="natural" v="water" />
		<tag k="ssr:stedsnr" v="490211" />
		<tag k="water" v="lake" />
	</node>
	<node lat="60.18707538333574" lon="9.847864311464916" id="-19060">
		<tag k="name" v="Gruvetjenn" />
		<tag k="natural" v="water" />
		<tag k="ssr:stedsnr" v="490125" />
	</node>
	<node lat="60.10055277498365" lon="9.804261119577069" id="-19065">
		<tag k="name" v="Mysutjenn" />
=======
	<node id="-285092" lat="60.1462750001" lon="9.58257221872">
		<tag k="name" v="Puttan" />
		<tag k="natural" v="water" />
		<tag k="ssr:stedsnr" v="155306" />
		<tag k="water" v="pond" />
	</node>
	<node id="-284576" lat="60.0840972244" lon="9.77343055544">
		<tag k="name" v="Kolbjørnstjenn" />
		<tag k="natural" v="water" />
		<tag k="ssr:stedsnr" v="308855" />
	</node>
	<node id="-284574" lat="60.135469441" lon="9.84321110526">
		<tag k="name" v="Nedre Handklevatnet" />
		<tag k="natural" v="water" />
		<tag k="ssr:stedsnr" v="308804" />
	</node>
	<node id="-285085" lat="60.2891027749" lon="9.67941944887">
		<tag k="name" v="Fiskarvika" />
		<tag k="natural" v="bay" />
		<tag k="ssr:stedsnr" v="154600" />
	</node>
	<node id="-285083" lat="60.1680117141" lon="9.68067686046">
		<tag k="name" v="Grensholmen" />
		<tag k="place" v="islet" />
		<tag k="ssr:stedsnr" v="143340" />
	</node>
	<node id="-285081" lat="60.189883335" lon="9.71813332479">
		<tag k="name" v="Lågebekk" />
		<tag k="ssr:stedsnr" v="143312" />
		<tag k="waterway" v="stream" />
	</node>
	<node id="-285080" lat="60.1556194404" lon="9.52125276952">
		<tag k="name" v="Langtjenn" />
>>>>>>> e1d4bc35ff8a6074a6f2e91616a996b547c36f15
		<tag k="natural" v="water" />
		<tag k="ssr:stedsnr" v="490837" />
	</node>
<<<<<<< HEAD
	<node lat="60.29158055749399" lon="9.64494165829572" id="-19067">
		<tag k="name" v="Storetjenn" />
		<tag k="natural" v="water" />
		<tag k="ssr:stedsnr" v="491683" />
	</node>
	<node lat="60.195533334352405" lon="9.758797222086505" id="-19068">
		<tag k="name" v="Midtløken" />
		<tag k="ssr:stedsnr" v="512917" />
		<tag k="waterway" v="river" />
	</node>
	<node lat="60.18707221963275" lon="9.568569448315412" id="-19071">
		<tag k="name" v="Grautåstjenn" />
=======
	<node id="-284824" lat="60.2996583337" lon="9.68159722035">
		<tag k="name" v="Miganbekken" />
		<tag k="ssr:stedsnr" v="822576" />
		<tag k="waterway" v="stream" />
	</node>
	<node id="-285070" lat="60.1531250009" lon="9.52077499824">
		<tag k="name" v="Åsvatna" />
>>>>>>> e1d4bc35ff8a6074a6f2e91616a996b547c36f15
		<tag k="natural" v="water" />
		<tag k="ssr:stedsnr" v="519113" />
	</node>
<<<<<<< HEAD
	<node lat="60.184672226347274" lon="9.62015833775379" id="-19072">
		<tag k="name" v="Salsteinodden" />
		<tag k="natural" v="cape" />
		<tag k="ssr:stedsnr" v="519064" />
	</node>
	<node lat="60.12696944101939" lon="9.613244448681682" id="-19081">
		<tag k="name" v="Gildringstjenn" />
=======
	<node id="-284557" lat="60.1184749983" lon="9.67008333492">
		<tag k="name" v="Grasvika" />
		<tag k="natural" v="bay" />
		<tag k="ssr:stedsnr" v="459328" />
	</node>
	<node id="-284556" lat="60.2906027772" lon="9.64796944747">
		<tag k="name" v="Vesletjenn" />
>>>>>>> e1d4bc35ff8a6074a6f2e91616a996b547c36f15
		<tag k="natural" v="water" />
		<tag k="ssr:stedsnr" v="550818" />
	</node>
<<<<<<< HEAD
	<node lat="60.22497222030118" lon="9.710130551984923" id="-19084">
		<tag k="name" v="Redalstjenn" />
		<tag k="natural" v="water" />
		<tag k="ssr:stedsnr" v="551219" />
	</node>
	<node lat="60.17573332949934" lon="9.802241663833358" id="-19085">
		<tag k="name" v="Øvre Svarttjenn" />
		<tag k="natural" v="water" />
		<tag k="ssr:stedsnr" v="551419" />
	</node>
	<node lat="60.165949996089" lon="9.547350008720564" id="-19087">
		<tag k="name" v="Heslibekken" />
		<tag k="ssr:stedsnr" v="551447" />
		<tag k="waterway" v="stream" />
	</node>
	<node lat="60.2431583317001" lon="9.748766673100496" id="-19093">
		<tag k="name" v="Seterelva" />
		<tag k="ssr:stedsnr" v="693326" />
		<tag k="waterway" v="river" />
	</node>
	<node lat="60.21250252062819" lon="9.749710417442026" id="-19098">
		<tag k="name" v="Igletjenn" />
		<tag k="natural" v="water" />
		<tag k="ssr:stedsnr" v="580303" />
	</node>
	<node lat="60.16486110695519" lon="9.7784111049597" id="-19112">
		<tag k="name" v="Mesteråstjenn" />
=======
	<node id="-285573" lat="60.1835278489" lon="9.86069119009">
		<tag k="name" v="Skalpelivatnet" />
		<tag k="natural" v="water" />
		<tag k="ssr:stedsnr" v="550138" />
		<tag k="water" v="lake" />
	</node>
	<node id="-285572" lat="60.1070586987" lon="9.66388205361">
		<tag k="name" v="Glessjøen" />
		<tag k="natural" v="water" />
		<tag k="ssr:stedsnr" v="369830" />
		<tag k="water" v="lake" />
	</node>
	<node id="-285571" lat="60.1172147329" lon="9.60603158596">
		<tag k="name" v="Øyvatnet" />
		<tag k="natural" v="water" />
		<tag k="ssr:stedsnr" v="308822" />
	</node>
	<node id="-285570" lat="60.1870753833" lon="9.84786431146">
		<tag k="name" v="Gruvetjenn" />
		<tag k="natural" v="water" />
		<tag k="ssr:stedsnr" v="490125" />
	</node>
	<node id="-285054" lat="60.1706472245" lon="9.73519167363">
		<tag k="name" v="Slevikbekken" />
		<tag k="ssr:stedsnr" v="95815" />
		<tag k="waterway" v="stream" />
	</node>
	<node id="-284541" lat="60.1585666674" lon="9.59616388629">
		<tag k="name" v="Leirskvennefossen" />
		<tag k="natural" v="waterfall" />
		<tag k="ssr:stedsnr" v="276913" />
	</node>
	<node id="-285270" lat="60.2418833367" lon="9.73002221552">
		<tag k="name" v="Tjennmyrtjenn" />
		<tag k="natural" v="water" />
		<tag k="ssr:stedsnr" v="398628" />
	</node>
	<node id="-284735" lat="60.3006638851" lon="9.55050277743">
		<tag k="name" v="Fiskebekk" />
		<tag k="ssr:stedsnr" v="734041" />
		<tag k="waterway" v="stream" />
	</node>
	<node id="-284532" lat="60.1289055566" lon="9.84822500079">
		<tag k="name" v="Nedre Handklevatn" />
>>>>>>> e1d4bc35ff8a6074a6f2e91616a996b547c36f15
		<tag k="natural" v="water" />
		<tag k="ssr:stedsnr" v="611785" />
	</node>
<<<<<<< HEAD
	<node lat="60.07481389259673" lon="9.756302777826999" id="-19114">
		<tag k="name" v="Medrudtjenn" />
		<tag k="natural" v="water" />
		<tag k="ssr:stedsnr" v="611905" />
	</node>
	<node lat="60.12140277393844" lon="9.692775001433837" id="-19116">
		<tag k="name" v="Jensebekken" />
		<tag k="ssr:stedsnr" v="701089" />
		<tag k="waterway" v="stream" />
	</node>
	<node lat="60.2073944450286" lon="9.752316671528055" id="-19119">
		<tag k="name" v="Vemrestadtjenn" />
=======
	<node id="-284531" lat="60.1469777765" lon="9.86229166104">
		<tag k="alt_name" v="Kvigetjernputten" />
		<tag k="name" v="Kvigetjennputten" />
		<tag k="natural" v="water" />
		<tag k="ssr:stedsnr" v="457733" />
	</node>
	<node id="-285042" lat="60.11760556" lon="9.72876111898">
		<tag k="name" v="Plommetjenn" />
		<tag k="place" v="locality" />
		<tag k="ssr:stedsnr" v="95048" />
	</node>
	<node id="-284529" lat="60.2563749968" lon="9.6499972271">
		<tag k="name" v="Stavanesodden" />
		<tag k="natural" v="cape" />
		<tag k="ssr:stedsnr" v="217711" />
	</node>
	<node id="-284527" lat="60.1588750027" lon="9.75570832829">
		<tag k="name" v="Haukebekken" />
		<tag k="ssr:stedsnr" v="216826" />
		<tag k="waterway" v="stream" />
	</node>
	<node id="-284518" lat="60.1085450242" lon="9.7618567732">
		<tag k="name" v="Klinketjenn" />
>>>>>>> e1d4bc35ff8a6074a6f2e91616a996b547c36f15
		<tag k="natural" v="water" />
		<tag k="ssr:stedsnr" v="701453" />
	</node>
<<<<<<< HEAD
	<node lat="60.12725833491361" lon="9.609538887718818" id="-19123">
		<tag k="name" v="Elgeputt" />
		<tag k="natural" v="water" />
		<tag k="ssr:stedsnr" v="701642" />
		<tag k="water" v="pond" />
	</node>
	<node lat="60.2231527734801" lon="9.587061112481178" id="-19136">
		<tag k="name" v="Djupedalsbekken" />
		<tag k="ssr:stedsnr" v="703637" />
		<tag k="waterway" v="stream" />
	</node>
	<node lat="60.22570555996021" lon="9.589572230941027" id="-19137">
		<tag k="name" v="Delingsbekken" />
		<tag k="ssr:stedsnr" v="703639" />
		<tag k="waterway" v="stream" />
	</node>
	<node lat="60.2337611088531" lon="9.670791671276795" id="-19138">
		<tag k="name" v="Nedre Setertjenn" />
=======
	<node id="-284517" lat="60.1018833318" lon="9.78997222751">
		<tag k="name" v="Sandbekk" />
		<tag k="ssr:stedsnr" v="187826" />
		<tag k="waterway" v="stream" />
	</node>
	<node id="-284516" lat="60.1201944441" lon="9.73997222016">
		<tag k="name" v="Fyranelva" />
		<tag k="ssr:stedsnr" v="187812" />
		<tag k="waterway" v="river" />
	</node>
	<node id="-285024" lat="60.2689750001" lon="9.64450277868">
		<tag k="name" v="Storekleivbekken" />
		<tag k="ssr:stedsnr" v="67671" />
		<tag k="waterway" v="stream" />
	</node>
	<node id="-285022" lat="60.2955749995" lon="9.46082499518">
		<tag k="name" v="Høgevardtjenn" />
		<tag k="natural" v="water" />
		<tag k="ssr:stedsnr" v="67080" />
	</node>
	<node id="-284901" lat="60.1217616125" lon="9.8178731428">
		<tag k="name" v="Toffetjenn" />
		<tag k="natural" v="water" />
		<tag k="ssr:stedsnr" v="915822" />
	</node>
	<node id="-285020" lat="60.1575277754" lon="9.77428889164">
		<tag k="name" v="Damtjenn" />
>>>>>>> e1d4bc35ff8a6074a6f2e91616a996b547c36f15
		<tag k="natural" v="water" />
		<tag k="ssr:stedsnr" v="703597" />
	</node>
<<<<<<< HEAD
	<node lat="60.24398888704961" lon="9.641469442703043" id="-19140">
		<tag k="name" v="Vika" />
		<tag k="natural" v="bay" />
		<tag k="ssr:stedsnr" v="703761" />
	</node>
	<node lat="60.199311107558465" lon="9.515455553099208" id="-19141">
		<tag k="name" v="Karihvilingtjenn" />
		<tag k="natural" v="water" />
		<tag k="ssr:stedsnr" v="703827" />
	</node>
	<node lat="60.199750003310065" lon="9.511286117161962" id="-19142">
		<tag k="name" v="Hesjatjenna" />
=======
	<node id="-285019" lat="60.1613416682" lon="9.63280277667">
		<tag k="name" v="Sandtangen" />
		<tag k="natural" v="cape" />
		<tag k="ssr:stedsnr" v="66771" />
	</node>
	<node id="-284504" lat="60.1255222247" lon="9.62372221484">
		<tag k="name" v="Kittiltjenn" />
		<tag k="natural" v="water" />
		<tag k="ssr:stedsnr" v="277657" />
	</node>
	<node id="-285014" lat="60.121535779" lon="9.79816008581">
		<tag k="name" v="Svarttjenn" />
>>>>>>> e1d4bc35ff8a6074a6f2e91616a996b547c36f15
		<tag k="natural" v="water" />
		<tag k="ssr:stedsnr" v="703829" />
		<tag k="water" v="lake" />
	</node>
<<<<<<< HEAD
	<node lat="60.25245277670616" lon="9.672497217246002" id="-19158">
		<tag k="name" v="Tungebekken" />
		<tag k="ssr:stedsnr" v="640979" />
		<tag k="waterway" v="stream" />
	</node>
	<node lat="60.20171111419809" lon="9.566786118021973" id="-19164">
		<tag k="name" v="Damtjenn" />
=======
	<node id="-284677" lat="60.1214027739" lon="9.69277500143">
		<tag k="name" v="Jensebekken" />
		<tag k="ssr:stedsnr" v="701089" />
		<tag k="waterway" v="stream" />
	</node>
	<node id="-285007" lat="60.1981722189" lon="9.7113055602">
		<tag k="name" v="Grensløken" />
		<tag k="ssr:stedsnr" v="65176" />
		<tag k="waterway" v="stream" />
	</node>
	<node id="-285006" lat="60.1894560311" lon="9.68501408149">
		<tag k="name" v="Delingstjenna" />
>>>>>>> e1d4bc35ff8a6074a6f2e91616a996b547c36f15
		<tag k="natural" v="water" />
		<tag k="ssr:stedsnr" v="642305" />
	</node>
<<<<<<< HEAD
	<node lat="60.13824444040721" lon="9.84329722775645" id="-19169">
		<tag k="name" v="Øvre Handklevatnet" />
=======
	<node id="-285005" lat="60.1987305533" lon="9.65332777803">
		<tag k="name" v="Sundesetertjenn" />
>>>>>>> e1d4bc35ff8a6074a6f2e91616a996b547c36f15
		<tag k="natural" v="water" />
		<tag k="ssr:stedsnr" v="672808" />
	</node>
<<<<<<< HEAD
	<node lat="60.2270166709643" lon="9.739827770025746" id="-19172">
		<tag k="name" v="MidtreTretjenn" />
		<tag k="natural" v="water" />
		<tag k="ssr:stedsnr" v="690392" />
	</node>
	<node lat="60.12055277894206" lon="9.785008338069044" id="-19174">
		<tag k="name" v="Ormstryken" />
		<tag k="ssr:stedsnr" v="701012" />
		<tag k="waterway" v="rapids" />
	</node>
	<node lat="59.97938610784472" lon="9.921963893061177" id="-19189">
		<tag k="name" v="Snarumselva" />
		<tag k="ssr:stedsnr" v="732800" />
		<tag k="waterway" v="river" />
	</node>
	<node lat="60.249180004021284" lon="9.710808329800887" id="-19190">
		<tag k="fixme" v="multiple name tags, choose one and add the other to alt_name" />
		<tag k="name" v="Øvre Lomtjenn;Lomtjenn" />
=======
	<node id="-285004" lat="60.2010416676" lon="9.76941944645">
		<tag k="name" v="Vemra" />
		<tag k="ssr:stedsnr" v="65163" />
		<tag k="waterway" v="river" />
	</node>
	<node id="-284997" lat="60.2169083342" lon="9.51180000304">
		<tag k="name" v="Svarteputt" />
>>>>>>> e1d4bc35ff8a6074a6f2e91616a996b547c36f15
		<tag k="natural" v="water" />
		<tag k="ssr:stedsnr" v="733009" />
	</node>
<<<<<<< HEAD
	<node lat="60.15301388953621" lon="9.74161944393337" id="-19193">
		<tag k="name" v="Krøderen" />
=======
	<node id="-284992" lat="60.208041671" lon="9.55411665959">
		<tag k="name" v="Okseputtan" />
>>>>>>> e1d4bc35ff8a6074a6f2e91616a996b547c36f15
		<tag k="natural" v="water" />
		<tag k="ssr:stedsnr" v="733238" />
		<tag k="water" v="lake" />
	</node>
<<<<<<< HEAD
	<node lat="60.300663885100384" lon="9.550502777428717" id="-19196">
		<tag k="name" v="Fiskebekk" />
		<tag k="ssr:stedsnr" v="734041" />
		<tag k="waterway" v="stream" />
	</node>
	<node lat="60.14679166865911" lon="9.746277780295722" id="-19203">
		<tag k="name" v="Sørøya" />
		<tag k="natural" v="cape" />
		<tag k="ssr:stedsnr" v="762055" />
	</node>
	<node lat="60.296105557178215" lon="9.551355553268804" id="-19223">
		<tag k="name" v="Ringneselva" />
		<tag k="ssr:stedsnr" v="795105" />
		<tag k="waterway" v="river" />
	</node>
	<node lat="60.27040832967117" lon="9.677816668082041" id="-19224">
		<tag k="name" v="Sundsnebbet" />
		<tag k="natural" v="cape" />
		<tag k="ssr:stedsnr" v="795663" />
	</node>
	<node lat="60.25782778214486" lon="9.563183336969765" id="-19226">
		<tag k="name" v="Kvitefosselva" />
		<tag k="ssr:stedsnr" v="795923" />
		<tag k="waterway" v="stream" />
	</node>
	<node lat="60.23966413173031" lon="9.681507461377242" id="-19227">
		<tag k="name" v="Øvre Bråtålitjenn" />
=======
	<node id="-284478" lat="60.1531888926" lon="9.52089722962">
		<tag k="name" v="Stortjenn" />
		<tag k="natural" v="water" />
		<tag k="ssr:stedsnr" v="82214" />
	</node>
	<node id="-284810" lat="60.3024527745" lon="9.5585583299">
		<tag k="name" v="Dambekken" />
		<tag k="ssr:stedsnr" v="916091" />
		<tag k="waterway" v="stream" />
	</node>
	<node id="-284986" lat="60.2554388867" lon="9.7397361199">
		<tag k="name" v="Svartebekk" />
		<tag k="ssr:stedsnr" v="34630" />
		<tag k="waterway" v="stream" />
	</node>
	<node id="-285496" lat="60.2141250004" lon="9.54753055743">
		<tag k="name" v="Seterbekken" />
		<tag k="ssr:stedsnr" v="825180" />
		<tag k="waterway" v="stream" />
	</node>
	<node id="-284470" lat="60.15725" lon="9.78248334074">
		<tag k="name" v="Kringletjenn" />
>>>>>>> e1d4bc35ff8a6074a6f2e91616a996b547c36f15
		<tag k="natural" v="water" />
		<tag k="ssr:stedsnr" v="915217" />
	</node>
<<<<<<< HEAD
	<node lat="60.15976663525795" lon="9.540114907688146" id="-19228">
=======
	<node id="-284468" lat="60.2246232816" lon="9.68006767902">
>>>>>>> e1d4bc35ff8a6074a6f2e91616a996b547c36f15
		<tag k="name" v="Igletjenn" />
		<tag k="natural" v="water" />
		<tag k="ssr:stedsnr" v="915389" />
	</node>
<<<<<<< HEAD
	<node lat="60.18465253115863" lon="9.769148929453609" id="-19230">
		<tag k="name" v="Stormyrputten" />
=======
	<node id="-284467" lat="60.0941003906" lon="9.72657428047">
		<tag k="name" v="Sigdalstjenna" />
>>>>>>> e1d4bc35ff8a6074a6f2e91616a996b547c36f15
		<tag k="natural" v="water" />
		<tag k="ssr:stedsnr" v="915150" />
	</node>
<<<<<<< HEAD
	<node lat="60.18737499775935" lon="9.54952778582473" id="-19235">
		<tag k="name" v="Fosslielva" />
		<tag k="ssr:stedsnr" v="915466" />
		<tag k="waterway" v="stream" />
	</node>
	<node lat="60.16779999630356" lon="9.63040555120126" id="-19236">
		<tag k="name" v="Bjørøya" />
		<tag k="place" v="island" />
		<tag k="ssr:stedsnr" v="915748" />
	</node>
	<node lat="60.150430551790166" lon="9.848130560084167" id="-19241">
		<tag k="name" v="Igletjenn" />
		<tag k="natural" v="water" />
		<tag k="ssr:stedsnr" v="915784" />
	</node>
	<node lat="60.13744500179668" lon="9.831686610180427" id="-19242">
		<tag k="name" v="Flåmyrtjenna" />
		<tag k="natural" v="water" />
		<tag k="ssr:stedsnr" v="915794" />
	</node>
	<node lat="60.29965833366824" lon="9.6815972203463" id="-19246">
		<tag k="name" v="Miganbekken" />
		<tag k="ssr:stedsnr" v="822576" />
		<tag k="waterway" v="stream" />
	</node>
	<node lat="60.12074444529295" lon="9.78140000067207" id="-19251">
=======
	<node id="-284465" lat="60.1136972236" lon="9.64865832846">
		<tag k="name" v="Røvsåa" />
		<tag k="ssr:stedsnr" v="247817" />
		<tag k="waterway" v="stream" />
	</node>
	<node id="-285487" lat="60.2481111104" lon="9.69968610431">
		<tag k="name" v="Bergatjenn" />
		<tag k="natural" v="water" />
		<tag k="ssr:stedsnr" v="823409" />
	</node>
	<node id="-285483" lat="60.1293944473" lon="9.65281945016">
		<tag k="name" v="Åstjenn" />
		<tag k="natural" v="water" />
		<tag k="ssr:stedsnr" v="823279" />
	</node>
	<node id="-285481" lat="60.1207444453" lon="9.78140000067">
>>>>>>> e1d4bc35ff8a6074a6f2e91616a996b547c36f15
		<tag k="name" v="Glesnetangen" />
		<tag k="natural" v="cape" />
		<tag k="ssr:stedsnr" v="823010" />
	</node>
<<<<<<< HEAD
	<node lat="60.24811111040434" lon="9.699686104312928" id="-19255">
		<tag k="name" v="Bergatjenn" />
		<tag k="natural" v="water" />
		<tag k="ssr:stedsnr" v="823409" />
	</node>
	<node lat="60.12391111405837" lon="9.696025008037383" id="-19266">
		<tag k="name" v="Søretjenn" />
		<tag k="natural" v="water" />
		<tag k="ssr:stedsnr" v="854804" />
	</node>
	<node lat="60.18880555494259" lon="9.668191671005859" id="-19275">
		<tag k="name" v="Svarteputt" />
		<tag k="natural" v="water" />
		<tag k="ssr:stedsnr" v="884066" />
		<tag k="water" v="pond" />
	</node>
	<node lat="60.28777499970816" lon="9.669738888567661" id="-19277">
		<tag k="name" v="Blyan" />
		<tag k="natural" v="cape" />
		<tag k="ssr:stedsnr" v="884299" />
	</node>
	<node lat="60.24316389233174" lon="9.638366658683497" id="-19281">
		<tag k="name" v="Killingberg" />
		<tag k="natural" v="cape" />
		<tag k="ssr:stedsnr" v="885720" />
	</node>
	<node lat="60.12582635264182" lon="9.641555004443678" id="-19287">
		<tag k="name" v="Hestetjenn" />
=======
	<node id="-284453" lat="60.2062638856" lon="9.72767778014">
		<tag k="name" v="Rishovdtjenn" />
		<tag k="natural" v="water" />
		<tag k="ssr:stedsnr" v="247164" />
	</node>
	<node id="-285475" lat="60.2578277821" lon="9.56318333697">
		<tag k="name" v="Kvitefosselva" />
		<tag k="ssr:stedsnr" v="795923" />
		<tag k="waterway" v="stream" />
	</node>
	<node id="-284961" lat="60.1798888916" lon="9.61518611776">
		<tag k="name" v="Noresund" />
		<tag k="natural" v="strait" />
		<tag k="ssr:stedsnr" v="34068" />
	</node>
	<node id="-285472" lat="60.2704083297" lon="9.67781666808">
		<tag k="name" v="Sundsnebbet" />
		<tag k="natural" v="cape" />
		<tag k="ssr:stedsnr" v="795663" />
	</node>
	<node id="-285471" lat="60.2688416648" lon="9.57366944747">
		<tag k="name" v="Østenseterelva" />
		<tag k="ssr:stedsnr" v="795135" />
		<tag k="waterway" v="river" />
	</node>
	<node id="-285469" lat="60.2961055572" lon="9.55135555327">
		<tag k="name" v="Ringneselva" />
		<tag k="ssr:stedsnr" v="795105" />
		<tag k="waterway" v="river" />
	</node>
	<node id="-285468" lat="60.2343742034" lon="9.65932117695">
		<tag k="name" v="Taltjenn" />
		<tag k="natural" v="water" />
		<tag k="ssr:stedsnr" v="794194" />
	</node>
	<node id="-285467" lat="60.2320095993" lon="9.68466150218">
		<tag k="name" v="Damtjenn" />
>>>>>>> e1d4bc35ff8a6074a6f2e91616a996b547c36f15
		<tag k="natural" v="water" />
		<tag k="ssr:stedsnr" v="915812" />
	</node>
<<<<<<< HEAD
	<node lat="60.121761612522356" lon="9.817873142804023" id="-19288">
		<tag k="name" v="Toffetjenn" />
		<tag k="natural" v="water" />
		<tag k="ssr:stedsnr" v="915822" />
	</node>
	<node lat="60.302452774548385" lon="9.558558329902773" id="-19289">
		<tag k="name" v="Dambekken" />
		<tag k="ssr:stedsnr" v="916091" />
		<tag k="waterway" v="stream" />
	</node>
	<node lat="60.202813892211715" lon="9.521597230727782" id="-19299">
		<tag k="name" v="Svarthammartjenna" />
=======
	<node id="-284442" lat="60.23862649" lon="9.72430340565">
		<tag k="name" v="Dalabottjenna" />
		<tag k="natural" v="water" />
		<tag k="ssr:stedsnr" v="65237" />
		<tag k="water" v="lake" />
	</node>
	<node id="-284441" lat="60.2468305539" lon="9.72621389493">
		<tag k="name" v="Blomstertjenn" />
		<tag k="natural" v="water" />
		<tag k="ssr:stedsnr" v="65003" />
	</node>
	<node id="-284950" lat="60.2742138889" lon="9.60113889548">
		<tag k="name" v="Heimsetertjenn" />
>>>>>>> e1d4bc35ff8a6074a6f2e91616a996b547c36f15
		<tag k="natural" v="water" />
		<tag k="ssr:stedsnr" v="946824" />
		<tag k="water" v="lake" />
	</node>
<<<<<<< HEAD
	<node lat="60.234302780954195" lon="9.582297222313052" id="-19322">
		<tag k="name" v="Storebølingen" />
		<tag k="ssr:stedsnr" v="4254" />
		<tag k="waterway" v="stream" />
	</node>
	<node lat="60.134441667002385" lon="9.550505558117928" id="-19323">
		<tag k="alt_name" v="Bjørevatnet" />
		<tag k="name" v="Bjørevatna" />
		<tag k="natural" v="water" />
		<tag k="ssr:stedsnr" v="4431" />
		<tag k="water" v="lake" />
	</node>
	<node lat="60.13185313639047" lon="9.688613804308718" id="-19325">
		<tag k="name" v="Torstenrudtjenn" />
		<tag k="natural" v="water" />
		<tag k="ssr:stedsnr" v="4831" />
	</node>
	<node lat="60.219136107987936" lon="9.654166672995709" id="-19328">
=======
	<node id="-284436" lat="60.2316749983" lon="9.73726943718">
		<tag k="name" v="Øvre Tretjenn" />
		<tag k="natural" v="water" />
		<tag k="ssr:stedsnr" v="22328" />
	</node>
	<node id="-285458" lat="60.2540138859" lon="9.6471611192">
		<tag k="name" v="Sikeberg" />
		<tag k="natural" v="cape" />
		<tag k="ssr:stedsnr" v="763733" />
	</node>
	<node id="-284943" lat="60.219136108" lon="9.654166673">
>>>>>>> e1d4bc35ff8a6074a6f2e91616a996b547c36f15
		<tag k="name" v="Trangbekken" />
		<tag k="ssr:stedsnr" v="5195" />
		<tag k="waterway" v="stream" />
	</node>
<<<<<<< HEAD
	<node lat="60.178108331236075" lon="9.652666672320882" id="-19331">
=======
	<node id="-284942" lat="60.1781083312" lon="9.65266667232">
>>>>>>> e1d4bc35ff8a6074a6f2e91616a996b547c36f15
		<tag k="name" v="Kvernbekken" />
		<tag k="ssr:stedsnr" v="5136" />
		<tag k="waterway" v="stream" />
	</node>
<<<<<<< HEAD
	<node lat="60.2742138889391" lon="9.60113889548386" id="-19334">
		<tag k="name" v="Heimsetertjenn" />
=======
	<node id="-284429" lat="60.2353416696" lon="9.66980555955">
		<tag k="name" v="Øvre Setertjenn" />
>>>>>>> e1d4bc35ff8a6074a6f2e91616a996b547c36f15
		<tag k="natural" v="water" />
		<tag k="ssr:stedsnr" v="6672" />
	</node>
<<<<<<< HEAD
	<node lat="60.30287500280304" lon="9.654247216284633" id="-19336">
		<tag k="name" v="Breivikodden" />
=======
	<node id="-285452" lat="60.1662555546" lon="9.72751667439">
		<tag k="name" v="Hamre" />
>>>>>>> e1d4bc35ff8a6074a6f2e91616a996b547c36f15
		<tag k="natural" v="cape" />
		<tag k="ssr:stedsnr" v="6841" />
	</node>
<<<<<<< HEAD
	<node lat="60.23167499832499" lon="9.737269437184251" id="-19339">
		<tag k="name" v="Øvre Tretjenn" />
=======
	<node id="-284426" lat="60.203041665" lon="9.55851945253">
		<tag k="name" v="Svarteputt" />
>>>>>>> e1d4bc35ff8a6074a6f2e91616a996b547c36f15
		<tag k="natural" v="water" />
		<tag k="ssr:stedsnr" v="22328" />
	</node>
<<<<<<< HEAD
	<node lat="60.12527652033068" lon="9.87185274520819" id="-19340">
		<tag k="name" v="Øvre Hundetjenn" />
=======
	<node id="-284937" lat="60.1318531364" lon="9.68861380431">
		<tag k="name" v="Torstenrudtjenn" />
>>>>>>> e1d4bc35ff8a6074a6f2e91616a996b547c36f15
		<tag k="natural" v="water" />
		<tag k="ssr:stedsnr" v="22353" />
	</node>
<<<<<<< HEAD
	<node lat="60.28861111261042" lon="9.679833328052633" id="-19344">
		<tag k="name" v="Furuodden" />
		<tag k="natural" v="cape" />
		<tag k="ssr:stedsnr" v="33596" />
	</node>
	<node lat="60.14918888565325" lon="9.746863888079016" id="-19346">
		<tag k="name" v="Øya" />
		<tag k="natural" v="cape" />
		<tag k="ssr:stedsnr" v="34064" />
	</node>
	<node lat="60.17988889157479" lon="9.615186117755805" id="-19347">
		<tag k="name" v="Noresund" />
		<tag k="natural" v="strait" />
		<tag k="ssr:stedsnr" v="34068" />
	</node>
	<node lat="60.139311111530496" lon="9.667869436212712" id="-19351">
		<tag k="name" v="Svarttjenn" />
		<tag k="natural" v="water" />
		<tag k="ssr:stedsnr" v="34270" />
	</node>
	<node lat="60.20547222153808" lon="9.74527499468265" id="-19355">
		<tag k="name" v="Rundingstjenn" />
		<tag k="natural" v="water" />
		<tag k="ssr:stedsnr" v="34335" />
	</node>
	<node lat="60.25543888669568" lon="9.739736119901083" id="-19362">
		<tag k="name" v="Svartebekk" />
		<tag k="ssr:stedsnr" v="34630" />
		<tag k="waterway" v="stream" />
	</node>
	<node lat="60.21690833423357" lon="9.511800003037719" id="-19368">
		<tag k="name" v="Svarteputt" />
=======
	<node id="-284930" lat="60.234302781" lon="9.58229722231">
		<tag k="name" v="Storebølingen" />
		<tag k="ssr:stedsnr" v="4254" />
		<tag k="waterway" v="stream" />
	</node>
	<node id="-284459" lat="60.1494916654" lon="9.59702222194">
		<tag k="name" v="Såstadbekken" />
		<tag k="ssr:stedsnr" v="247779" />
		<tag k="waterway" v="stream" />
	</node>
	<node id="-285433" lat="60.114872224" lon="9.67584443988">
		<tag k="name" v="Ospeliputten" />
>>>>>>> e1d4bc35ff8a6074a6f2e91616a996b547c36f15
		<tag k="natural" v="water" />
		<tag k="ssr:stedsnr" v="35791" />
		<tag k="water" v="pond" />
	</node>
<<<<<<< HEAD
	<node lat="60.2386264899744" lon="9.72430340564597" id="-19376">
		<tag k="name" v="Dalabottjenna" />
=======
	<node id="-285431" lat="60.1441333371" lon="9.57414167223">
		<tag k="name" v="Igletjenn" />
>>>>>>> e1d4bc35ff8a6074a6f2e91616a996b547c36f15
		<tag k="natural" v="water" />
		<tag k="ssr:stedsnr" v="65237" />
		<tag k="water" v="lake" />
	</node>
<<<<<<< HEAD
	<node lat="60.20104166760007" lon="9.769419446453368" id="-19377">
		<tag k="name" v="Vemra" />
		<tag k="ssr:stedsnr" v="65163" />
		<tag k="waterway" v="river" />
	</node>
	<node lat="60.16134166815202" lon="9.63280277667134" id="-19385">
		<tag k="name" v="Sandtangen" />
		<tag k="natural" v="cape" />
		<tag k="ssr:stedsnr" v="66771" />
	</node>
	<node lat="60.15752777544011" lon="9.774288891641955" id="-19386">
		<tag k="name" v="Damtjenn" />
		<tag k="natural" v="water" />
		<tag k="ssr:stedsnr" v="66773" />
	</node>
	<node lat="60.2955749994648" lon="9.460824995184812" id="-19388">
		<tag k="name" v="Høgevardtjenn" />
		<tag k="natural" v="water" />
		<tag k="ssr:stedsnr" v="67080" />
	</node>
	<node lat="60.26897500007754" lon="9.644502778676518" id="-19391">
		<tag k="name" v="Storekleivbekken" />
		<tag k="ssr:stedsnr" v="67671" />
		<tag k="waterway" v="stream" />
	</node>
	<node lat="60.11760556001797" lon="9.728761118984412" id="-19405">
		<tag k="name" v="Plommetjenn" />
		<tag k="place" v="locality" />
		<tag k="ssr:stedsnr" v="95048" />
	</node>
	<node lat="60.08914166663028" lon="9.743530559691362" id="-19409">
		<tag k="name" v="Svarteputt" />
=======
	<node id="-285427" lat="60.2059388902" lon="9.78264721831">
		<tag k="name" v="Ørteselva" />
		<tag k="ssr:stedsnr" v="754893" />
		<tag k="waterway" v="river" />
	</node>
	<node id="-285424" lat="60.1567861095" lon="9.5265500082">
		<tag k="name" v="Skoltjenn" />
>>>>>>> e1d4bc35ff8a6074a6f2e91616a996b547c36f15
		<tag k="natural" v="water" />
		<tag k="ssr:stedsnr" v="95336" />
		<tag k="water" v="pond" />
	</node>
<<<<<<< HEAD
	<node lat="60.153125000917264" lon="9.520774998242219" id="-19426">
		<tag k="name" v="Åsvatna" />
		<tag k="natural" v="water" />
		<tag k="ssr:stedsnr" v="126416" />
		<tag k="water" v="lake" />
	</node>
	<node lat="60.16801171410804" lon="9.680676860457075" id="-19432">
		<tag k="name" v="Grensholmen" />
		<tag k="place" v="islet" />
		<tag k="ssr:stedsnr" v="143340" />
	</node>
	<node lat="60.15561944044464" lon="9.521252769524832" id="-19433">
		<tag k="name" v="Langtjenn" />
=======
	<node id="-284909" lat="60.2028138922" lon="9.52159723073">
		<tag k="name" v="Svarthammartjenna" />
		<tag k="natural" v="water" />
		<tag k="ssr:stedsnr" v="946824" />
		<tag k="water" v="lake" />
	</node>
	<node id="-285420" lat="60.2017111142" lon="9.56678611802">
		<tag k="name" v="Damtjenn" />
>>>>>>> e1d4bc35ff8a6074a6f2e91616a996b547c36f15
		<tag k="natural" v="water" />
		<tag k="ssr:stedsnr" v="143184" />
	</node>
<<<<<<< HEAD
	<node lat="60.27972222354683" lon="9.630019438552418" id="-19440">
		<tag k="name" v="Storåstjenn" />
		<tag k="natural" v="water" />
		<tag k="ssr:stedsnr" v="155994" />
	</node>
	<node lat="60.20307778126423" lon="9.568513892199668" id="-19445">
		<tag k="name" v="Vesledamtjenn" />
		<tag k="natural" v="water" />
		<tag k="ssr:stedsnr" v="157296" />
	</node>
	<node lat="60.15805833737468" lon="9.86990833567248" id="-19458">
		<tag k="name" v="Grastjenn" />
=======
	<node id="-285413" lat="60.2524527767" lon="9.67249721725">
		<tag k="name" v="Tungebekken" />
		<tag k="ssr:stedsnr" v="640979" />
		<tag k="waterway" v="stream" />
	</node>
	<node id="-284900" lat="60.1258263526" lon="9.64155500444">
		<tag k="name" v="Hestetjenn" />
>>>>>>> e1d4bc35ff8a6074a6f2e91616a996b547c36f15
		<tag k="natural" v="water" />
		<tag k="ssr:stedsnr" v="186798" />
	</node>
<<<<<<< HEAD
	<node lat="60.12013610736019" lon="9.853816668367903" id="-19462">
		<tag k="name" v="Sollitjenn" />
		<tag k="natural" v="water" />
		<tag k="ssr:stedsnr" v="186836" />
	</node>
	<node lat="60.18140617165028" lon="9.804506789042907" id="-19464">
		<tag k="name" v="Nedre Svarttjenn" />
=======
	<node id="-284929" lat="60.1998898704" lon="9.80200467468">
		<tag k="name" v="Ørtesvatnet" />
		<tag k="natural" v="water" />
		<tag k="ssr:stedsnr" v="4176" />
		<tag k="water" v="lake" />
	</node>
	<node id="-284894" lat="60.2396641317" lon="9.68150746138">
		<tag k="name" v="Øvre Bråtålitjenn" />
>>>>>>> e1d4bc35ff8a6074a6f2e91616a996b547c36f15
		<tag k="natural" v="water" />
		<tag k="ssr:stedsnr" v="187161" />
	</node>
<<<<<<< HEAD
	<node lat="60.23043889127275" lon="9.605283336214937" id="-19467">
		<tag k="name" v="Bølingodden" />
		<tag k="natural" v="cape" />
		<tag k="ssr:stedsnr" v="187207" />
	</node>
	<node lat="60.17022355550538" lon="9.841891261387874" id="-19471">
		<tag k="name" v="Øvre Børkesettjenn" />
		<tag k="natural" v="water" />
		<tag k="ssr:stedsnr" v="187745" />
	</node>
	<node lat="60.12080000096972" lon="9.848277773359282" id="-19479">
		<tag k="name" v="Handklevassbekken" />
		<tag k="ssr:stedsnr" v="215820" />
		<tag k="waterway" v="stream" />
	</node>
	<node lat="60.23534166956436" lon="9.66980555954504" id="-19499">
		<tag k="name" v="Øvre Setertjenn" />
		<tag k="natural" v="water" />
		<tag k="ssr:stedsnr" v="218516" />
	</node>
	<node lat="60.12552222467383" lon="9.623722214843726" id="-19515">
		<tag k="name" v="Kittiltjenn" />
		<tag k="natural" v="water" />
		<tag k="ssr:stedsnr" v="277657" />
	</node>
	<node lat="60.08409722440146" lon="9.773430555440715" id="-19541">
		<tag k="name" v="Kolbjørnstjenn" />
		<tag k="natural" v="water" />
		<tag k="ssr:stedsnr" v="308855" />
	</node>
	<node lat="60.25720555188871" lon="9.696997229668069" id="-19544">
		<tag k="name" v="Bottolvsbekken" />
		<tag k="ssr:stedsnr" v="310754" />
		<tag k="waterway" v="stream" />
	</node>
	<node lat="60.30877222327744" lon="9.657299992809547" id="-19557">
		<tag k="name" v="Grasodden" />
=======
	<node id="-284965" lat="60.1393111115" lon="9.66786943621">
		<tag k="name" v="Svarttjenn" />
		<tag k="natural" v="water" />
		<tag k="ssr:stedsnr" v="34270" />
	</node>
	<node id="-285397" lat="60.1183222258" lon="9.64095555791">
		<tag k="name" v="Hestetjennbekken" />
		<tag k="ssr:stedsnr" v="640353" />
		<tag k="waterway" v="stream" />
	</node>
	<node id="-284884" lat="60.1279777746" lon="9.74859723023">
		<tag k="name" v="Stortangen" />
>>>>>>> e1d4bc35ff8a6074a6f2e91616a996b547c36f15
		<tag k="natural" v="cape" />
		<tag k="ssr:stedsnr" v="338382" />
	</node>
<<<<<<< HEAD
	<node lat="60.24711944420432" lon="9.652133341013712" id="-19558">
		<tag k="name" v="Hellerudbekken" />
		<tag k="ssr:stedsnr" v="338463" />
		<tag k="waterway" v="stream" />
	</node>
	<node lat="60.107058698715406" lon="9.663882053607306" id="-19565">
		<tag k="name" v="Glessjøen" />
		<tag k="natural" v="water" />
		<tag k="ssr:stedsnr" v="369830" />
		<tag k="water" v="lake" />
	</node>
	<node lat="60.15519722446023" lon="9.602488881743444" id="-19571">
		<tag k="name" v="Bjøreelva" />
		<tag k="ssr:stedsnr" v="369363" />
		<tag k="waterway" v="stream" />
	</node>
	<node lat="60.163836108254024" lon="9.800988892239925" id="-19572">
		<tag k="name" v="Børkesetelva" />
		<tag k="ssr:stedsnr" v="369744" />
		<tag k="waterway" v="stream" />
	</node>
	<node lat="60.16230808762951" lon="9.81683003361765" id="-19573">
		<tag k="name" v="Heståstjenn" />
=======
	<node id="-285389" lat="60.1459527776" lon="9.74390278045">
		<tag k="name" v="Pollen" />
		<tag k="natural" v="bay" />
		<tag k="ssr:stedsnr" v="640052" />
	</node>
	<node id="-285385" lat="60.1869806442" lon="9.84220118799">
		<tag k="name" v="Gruvetjennputten" />
>>>>>>> e1d4bc35ff8a6074a6f2e91616a996b547c36f15
		<tag k="natural" v="water" />
		<tag k="ssr:stedsnr" v="369757" />
	</node>
<<<<<<< HEAD
	<node lat="60.22502500143245" lon="9.742069441613921" id="-19581">
		<tag k="name" v="Nedre Tretjenn" />
		<tag k="natural" v="water" />
		<tag k="ssr:stedsnr" v="386334" />
	</node>
	<node lat="60.24003514315868" lon="9.674771006828328" id="-19583">
		<tag k="name" v="Nedre Bråtålitjenn" />
=======
	<node id="-285381" lat="60.2751111123" lon="9.67679999427">
		<tag k="name" v="Sandodden" />
		<tag k="natural" v="cape" />
		<tag k="ssr:stedsnr" v="613645" />
	</node>
	<node id="-285377" lat="60.1113590786" lon="9.83912580747">
		<tag k="name" v="Kroktjenn" />
>>>>>>> e1d4bc35ff8a6074a6f2e91616a996b547c36f15
		<tag k="natural" v="water" />
		<tag k="ssr:stedsnr" v="386341" />
	</node>
<<<<<<< HEAD
	<node lat="60.23969721862763" lon="9.691766658855734" id="-19596">
		<tag k="name" v="Damtjennbekken" />
		<tag k="ssr:stedsnr" v="398379" />
		<tag k="waterway" v="stream" />
	</node>
	<node lat="60.11934166531288" lon="9.60481945017432" id="-19600">
		<tag k="name" v="Brenntangen" />
=======
	<node id="-284960" lat="60.1491888857" lon="9.74686388808">
		<tag k="name" v="Øya" />
		<tag k="natural" v="cape" />
		<tag k="ssr:stedsnr" v="34064" />
	</node>
	<node id="-284862" lat="60.1469722267" lon="9.74615832942">
		<tag k="name" v="Sørøya" />
>>>>>>> e1d4bc35ff8a6074a6f2e91616a996b547c36f15
		<tag k="natural" v="cape" />
		<tag k="ssr:stedsnr" v="398642" />
	</node>
<<<<<<< HEAD
	<node lat="60.18170277999322" lon="9.749699995656137" id="-19604">
		<tag k="name" v="Trontjenn" />
=======
	<node id="-284860" lat="60.3132994768" lon="9.69487411325">
		<tag k="name" v="Medragstjenn" />
>>>>>>> e1d4bc35ff8a6074a6f2e91616a996b547c36f15
		<tag k="natural" v="water" />
		<tag k="ssr:stedsnr" v="398851" />
	</node>
<<<<<<< HEAD
	<node lat="60.196855553768835" lon="9.560500006605585" id="-19606">
		<tag k="name" v="Nyjordsputten" />
		<tag k="natural" v="water" />
		<tag k="ssr:stedsnr" v="399257" />
		<tag k="water" v="pond" />
	</node>
	<node lat="60.22058889091664" lon="9.688752783419408" id="-19618">
		<tag k="name" v="Hestetjenn" />
=======
	<node id="-284703" lat="60.1993111076" lon="9.5154555531">
		<tag k="name" v="Karihvilingtjenn" />
		<tag k="natural" v="water" />
		<tag k="ssr:stedsnr" v="703827" />
	</node>
	<node id="-285368" lat="60.2132388865" lon="9.76543889053">
		<tag k="name" v="Trytetjenn" />
		<tag k="natural" v="water" />
		<tag k="ssr:stedsnr" v="611167" />
	</node>
	<node id="-285367" lat="60.1973276109" lon="9.66779190094">
		<tag k="name" v="Feletjenn" />
>>>>>>> e1d4bc35ff8a6074a6f2e91616a996b547c36f15
		<tag k="natural" v="water" />
		<tag k="ssr:stedsnr" v="430178" />
	</node>
<<<<<<< HEAD
	<node lat="60.171499998267365" lon="9.78061944196418" id="-19622">
		<tag k="name" v="Mysutjenn" />
=======
	<node id="-284897" lat="60.1873749978" lon="9.54952778582">
		<tag k="name" v="Fosslielva" />
		<tag k="ssr:stedsnr" v="915466" />
		<tag k="waterway" v="stream" />
	</node>
	<node id="-284851" lat="60.1239111141" lon="9.69602500804">
		<tag k="name" v="Søretjenn" />
>>>>>>> e1d4bc35ff8a6074a6f2e91616a996b547c36f15
		<tag k="natural" v="water" />
		<tag k="ssr:stedsnr" v="430755" />
	</node>
<<<<<<< HEAD
	<node lat="60.16697798909072" lon="9.869735778777665" id="-19623">
		<tag k="name" v="Svarttjenn" />
=======
	<node id="-285358" lat="60.2125025206" lon="9.74971041744">
		<tag k="name" v="Igletjenn" />
>>>>>>> e1d4bc35ff8a6074a6f2e91616a996b547c36f15
		<tag k="natural" v="water" />
		<tag k="ssr:stedsnr" v="430759" />
	</node>
<<<<<<< HEAD
	<node lat="60.166319607761736" lon="9.83885106301967" id="-19625">
		<tag k="name" v="Skvalparudputten" />
		<tag k="natural" v="water" />
		<tag k="ssr:stedsnr" v="430761" />
	</node>
	<node lat="60.27459688351802" lon="9.48744785597879" id="-19627">
		<tag k="name" v="Grindefjelltjenn" />
		<tag k="natural" v="water" />
		<tag k="ssr:stedsnr" v="431136" />
	</node>
	<node lat="60.266908333817895" lon="9.694997228505507" id="-19628">
		<tag k="name" v="Enderudelva" />
		<tag k="ssr:stedsnr" v="431658" />
		<tag k="waterway" v="stream" />
	</node>
	<node lat="60.29146944635652" lon="9.521752780661533" id="-19654">
		<tag k="name" v="Laksåa" />
		<tag k="ssr:stedsnr" v="521595" />
		<tag k="waterway" v="stream" />
	</node>
	<node lat="60.18352784893651" lon="9.860691190089419" id="-19656">
		<tag k="name" v="Skalpelivatnet" />
		<tag k="natural" v="water" />
		<tag k="ssr:stedsnr" v="550138" />
		<tag k="water" v="lake" />
	</node>
	<node lat="60.18982190253669" lon="9.67519599854298" id="-19657">
		<tag k="name" v="Tutjenna" />
		<tag k="natural" v="water" />
		<tag k="ssr:stedsnr" v="550165" />
		<tag k="water" v="lake" />
	</node>
	<node lat="60.199219881670125" lon="9.664321370161456" id="-19658">
		<tag k="name" v="Steintjenn" />
=======
	<node id="-285353" lat="60.1089083375" lon="9.67350556023">
		<tag k="name" v="Breivika" />
		<tag k="natural" v="bay" />
		<tag k="ssr:stedsnr" v="580277" />
	</node>
	<node id="-284956" lat="60.2886111126" lon="9.67983332805">
		<tag k="name" v="Furuodden" />
		<tag k="natural" v="cape" />
		<tag k="ssr:stedsnr" v="33596" />
	</node>
	<node id="-285125" lat="60.1580583374" lon="9.86990833567">
		<tag k="name" v="Grastjenn" />
		<tag k="natural" v="water" />
		<tag k="ssr:stedsnr" v="186798" />
	</node>
	<node id="-285340" lat="60.3002249977" lon="9.52755278027">
		<tag k="name" v="Vollbekken" />
		<tag k="ssr:stedsnr" v="552096" />
		<tag k="waterway" v="stream" />
	</node>
	<node id="-285338" lat="60.1659499961" lon="9.54735000872">
		<tag k="name" v="Heslibekken" />
		<tag k="ssr:stedsnr" v="551447" />
		<tag k="waterway" v="stream" />
	</node>
	<node id="-285336" lat="60.1757333295" lon="9.80224166383">
		<tag k="name" v="Øvre Svarttjenn" />
		<tag k="natural" v="water" />
		<tag k="ssr:stedsnr" v="551419" />
	</node>
	<node id="-285334" lat="60.2249722203" lon="9.71013055198">
		<tag k="name" v="Redalstjenn" />
		<tag k="natural" v="water" />
		<tag k="ssr:stedsnr" v="551219" />
	</node>
	<node id="-284953" lat="60.1252765203" lon="9.87185274521">
		<tag k="name" v="Øvre Hundetjenn" />
		<tag k="natural" v="water" />
		<tag k="ssr:stedsnr" v="22353" />
	</node>
	<node id="-285332" lat="60.126969441" lon="9.61324444868">
		<tag k="name" v="Gildringstjenn" />
		<tag k="natural" v="water" />
		<tag k="ssr:stedsnr" v="550818" />
	</node>
	<node id="-284817" lat="60.2114000008" lon="9.60031388678">
		<tag k="name" v="Sandumelva" />
		<tag k="ssr:stedsnr" v="793183" />
		<tag k="waterway" v="stream" />
	</node>
	<node id="-284814" lat="60.1885987704" lon="9.78718968812">
		<tag k="name" v="Storrtjenn" />
>>>>>>> e1d4bc35ff8a6074a6f2e91616a996b547c36f15
		<tag k="natural" v="water" />
		<tag k="ssr:stedsnr" v="550171" />
	</node>
<<<<<<< HEAD
	<node lat="60.19073611070163" lon="9.667452769819265" id="-19659">
=======
	<node id="-284781" lat="60.1530138895" lon="9.74161944393">
		<tag k="name" v="Krøderen" />
		<tag k="natural" v="water" />
		<tag k="ssr:stedsnr" v="733238" />
		<tag k="water" v="lake" />
	</node>
	<node id="-285324" lat="60.1907361107" lon="9.66745276982">
>>>>>>> e1d4bc35ff8a6074a6f2e91616a996b547c36f15
		<tag k="name" v="Trytetjenn" />
		<tag k="natural" v="water" />
		<tag k="ssr:stedsnr" v="550178" />
	</node>
<<<<<<< HEAD
	<node lat="60.30022499771139" lon="9.527552780272405" id="-19665">
		<tag k="name" v="Vollbekken" />
		<tag k="ssr:stedsnr" v="552096" />
		<tag k="waterway" v="stream" />
	</node>
	<node lat="60.10890833745471" lon="9.673505560227085" id="-19673">
		<tag k="name" v="Breivika" />
		<tag k="natural" v="bay" />
		<tag k="ssr:stedsnr" v="580277" />
	</node>
	<node lat="60.16700278177267" lon="9.662441668232509" id="-19676">
		<tag k="name" v="Ingeridholmen" />
		<tag k="place" v="islet" />
		<tag k="ssr:stedsnr" v="580535" />
	</node>
	<node lat="60.19732761093459" lon="9.667791900939172" id="-19690">
		<tag k="name" v="Feletjenn" />
		<tag k="natural" v="water" />
		<tag k="ssr:stedsnr" v="611160" />
	</node>
	<node lat="60.21323888649261" lon="9.765438890530147" id="-19691">
		<tag k="name" v="Trytetjenn" />
=======
	<node id="-285323" lat="60.1992198817" lon="9.66432137016">
		<tag k="name" v="Steintjenn" />
		<tag k="natural" v="water" />
		<tag k="ssr:stedsnr" v="550171" />
	</node>
	<node id="-285322" lat="60.1898219025" lon="9.67519599854">
		<tag k="name" v="Tutjenna" />
		<tag k="natural" v="water" />
		<tag k="ssr:stedsnr" v="550165" />
		<tag k="water" v="lake" />
	</node>
	<node id="-284808" lat="60.1374450018" lon="9.83168661018">
		<tag k="name" v="Flåmyrtjenna" />
		<tag k="natural" v="water" />
		<tag k="ssr:stedsnr" v="915794" />
	</node>
	<node id="-285319" lat="60.2914694464" lon="9.52175278066">
		<tag k="name" v="Laksåa" />
		<tag k="ssr:stedsnr" v="521595" />
		<tag k="waterway" v="stream" />
	</node>
	<node id="-284804" lat="60.1677999963" lon="9.6304055512">
		<tag k="name" v="Bjørøya" />
		<tag k="place" v="island" />
		<tag k="ssr:stedsnr" v="915748" />
	</node>
	<node id="-284801" lat="60.1597666353" lon="9.54011490769">
		<tag k="name" v="Igletjenn" />
>>>>>>> e1d4bc35ff8a6074a6f2e91616a996b547c36f15
		<tag k="natural" v="water" />
		<tag k="ssr:stedsnr" v="611167" />
	</node>
<<<<<<< HEAD
	<node lat="60.111359078571574" lon="9.839125807468669" id="-19693">
		<tag k="name" v="Kroktjenn" />
=======
	<node id="-284797" lat="60.1846525312" lon="9.76914892945">
		<tag k="name" v="Stormyrputten" />
>>>>>>> e1d4bc35ff8a6074a6f2e91616a996b547c36f15
		<tag k="natural" v="water" />
		<tag k="ssr:stedsnr" v="611846" />
	</node>
<<<<<<< HEAD
	<node lat="60.27511111234018" lon="9.676799994268558" id="-19699">
		<tag k="name" v="Sandodden" />
		<tag k="natural" v="cape" />
		<tag k="ssr:stedsnr" v="613645" />
	</node>
	<node lat="60.14595277762954" lon="9.74390278045175" id="-19706">
		<tag k="name" v="Pollen" />
		<tag k="natural" v="bay" />
		<tag k="ssr:stedsnr" v="640052" />
	</node>
	<node lat="60.186980644159775" lon="9.842201187988847" id="-19710">
		<tag k="name" v="Gruvetjennputten" />
=======
	<node id="-285308" lat="60.2507664272" lon="9.70883629182">
		<tag k="alt_name" v="Lomtjenn" />
		<tag k="name" v="Nedre Lomtjenn" />
		<tag k="natural" v="water" />
		<tag k="ssr:stedsnr" v="431755" />
	</node>
	<node id="-285307" lat="60.286611365" lon="9.60681605778">
		<tag k="name" v="Breiviktjenn" />
>>>>>>> e1d4bc35ff8a6074a6f2e91616a996b547c36f15
		<tag k="natural" v="water" />
		<tag k="ssr:stedsnr" v="639454" />
		<tag k="water" v="pond" />
	</node>
<<<<<<< HEAD
	<node lat="60.11832222579202" lon="9.640955557905324" id="-19713">
		<tag k="name" v="Hestetjennbekken" />
		<tag k="ssr:stedsnr" v="640353" />
		<tag k="waterway" v="stream" />
	</node>
	<node lat="60.18686110701241" lon="9.688952772219315" id="-19731">
		<tag k="name" v="Hukedammen" />
=======
	<node id="-285305" lat="60.2669083338" lon="9.69499722851">
		<tag k="name" v="Enderudelva" />
		<tag k="ssr:stedsnr" v="431658" />
		<tag k="waterway" v="stream" />
	</node>
	<node id="-285304" lat="60.2745968835" lon="9.48744785598">
		<tag k="name" v="Grindefjelltjenn" />
>>>>>>> e1d4bc35ff8a6074a6f2e91616a996b547c36f15
		<tag k="natural" v="water" />
		<tag k="ssr:stedsnr" v="733163" />
	</node>
<<<<<<< HEAD
	<node lat="60.15678610948902" lon="9.526550008197622" id="-19741">
		<tag k="name" v="Skoltjenn" />
=======
	<node id="-284948" lat="60.2864861131" lon="9.58123333043">
		<tag k="name" v="Svartbekk" />
		<tag k="ssr:stedsnr" v="6075" />
		<tag k="waterway" v="stream" />
	</node>
	<node id="-285300" lat="60.1663196078" lon="9.83885106302">
		<tag k="name" v="Skvalparudputten" />
>>>>>>> e1d4bc35ff8a6074a6f2e91616a996b547c36f15
		<tag k="natural" v="water" />
		<tag k="ssr:stedsnr" v="750175" />
	</node>
<<<<<<< HEAD
	<node lat="60.20593889022175" lon="9.782647218314986" id="-19743">
		<tag k="name" v="Ørteselva" />
		<tag k="ssr:stedsnr" v="754893" />
		<tag k="waterway" v="river" />
	</node>
	<node lat="60.11487222398133" lon="9.675844439878023" id="-19745">
		<tag k="name" v="Ospeliputten" />
=======
	<node id="-284787" lat="60.1467916687" lon="9.7462777803">
		<tag k="name" v="Sørøya" />
		<tag k="natural" v="cape" />
		<tag k="ssr:stedsnr" v="762055" />
	</node>
	<node id="-285298" lat="60.1669779891" lon="9.86973577878">
		<tag k="name" v="Svarttjenn" />
>>>>>>> e1d4bc35ff8a6074a6f2e91616a996b547c36f15
		<tag k="natural" v="water" />
		<tag k="ssr:stedsnr" v="762333" />
		<tag k="water" v="pond" />
	</node>
<<<<<<< HEAD
	<node lat="60.14413333713359" lon="9.574141672233049" id="-19748">
		<tag k="name" v="Igletjenn" />
=======
	<node id="-285297" lat="60.1714999983" lon="9.78061944196">
		<tag k="name" v="Mysutjenn" />
>>>>>>> e1d4bc35ff8a6074a6f2e91616a996b547c36f15
		<tag k="natural" v="water" />
		<tag k="ssr:stedsnr" v="762287" />
	</node>
<<<<<<< HEAD
	<node lat="60.16625555456315" lon="9.72751667438726" id="-19756">
		<tag k="name" v="Hamre" />
		<tag k="natural" v="cape" />
		<tag k="ssr:stedsnr" v="762830" />
	</node>
	<node lat="60.254013885918035" lon="9.647161119204855" id="-19766">
		<tag k="name" v="Sikeberg" />
		<tag k="natural" v="cape" />
		<tag k="ssr:stedsnr" v="763733" />
	</node>
	<node lat="60.188598770436016" lon="9.787189688115342" id="-19770">
		<tag k="name" v="Storrtjenn" />
		<tag k="natural" v="water" />
		<tag k="ssr:stedsnr" v="793157" />
	</node>
	<node lat="60.211400000766815" lon="9.600313886776975" id="-19773">
		<tag k="name" v="Sandumelva" />
		<tag k="ssr:stedsnr" v="793183" />
		<tag k="waterway" v="stream" />
	</node>
	<node lat="60.23200959927007" lon="9.684661502182207" id="-19776">
		<tag k="name" v="Damtjenn" />
=======
	<node id="-285293" lat="60.2205888909" lon="9.68875278342">
		<tag k="name" v="Hestetjenn" />
		<tag k="natural" v="water" />
		<tag k="ssr:stedsnr" v="430178" />
	</node>
	<node id="-284780" lat="60.186861107" lon="9.68895277222">
		<tag k="name" v="Hukedammen" />
		<tag k="natural" v="water" />
		<tag k="ssr:stedsnr" v="733163" />
	</node>
	<node id="-284434" lat="60.3028750028" lon="9.65424721628">
		<tag k="name" v="Breivikodden" />
		<tag k="natural" v="cape" />
		<tag k="ssr:stedsnr" v="6841" />
	</node>
	<node id="-284775" lat="60.22570556" lon="9.58957223094">
		<tag k="name" v="Delingsbekken" />
		<tag k="ssr:stedsnr" v="703639" />
		<tag k="waterway" v="stream" />
	</node>
	<node id="-284774" lat="60.2231527735" lon="9.58706111248">
		<tag k="name" v="Djupedalsbekken" />
		<tag k="ssr:stedsnr" v="703637" />
		<tag k="waterway" v="stream" />
	</node>
	<node id="-284768" lat="60.207394445" lon="9.75231667153">
		<tag k="name" v="Vemrestadtjenn" />
>>>>>>> e1d4bc35ff8a6074a6f2e91616a996b547c36f15
		<tag k="natural" v="water" />
		<tag k="ssr:stedsnr" v="794191" />
	</node>
<<<<<<< HEAD
	<node lat="60.234374203402396" lon="9.65932117694787" id="-19777">
		<tag k="name" v="Taltjenn" />
=======
	<node id="-285279" lat="60.1968555538" lon="9.56050000661">
		<tag k="name" v="Nyjordsputten" />
>>>>>>> e1d4bc35ff8a6074a6f2e91616a996b547c36f15
		<tag k="natural" v="water" />
		<tag k="ssr:stedsnr" v="794194" />
	</node>
<<<<<<< HEAD
	<node lat="60.26884166482448" lon="9.573669447470563" id="-19783">
		<tag k="name" v="Østenseterelva" />
		<tag k="ssr:stedsnr" v="795135" />
		<tag k="waterway" v="river" />
	</node>
	<node lat="60.129394447343" lon="9.652819450159466" id="-19789">
		<tag k="name" v="Åstjenn" />
		<tag k="natural" v="water" />
		<tag k="ssr:stedsnr" v="823279" />
	</node>
	<node lat="60.214125000412515" lon="9.54753055742522" id="-19804">
		<tag k="name" v="Seterbekken" />
		<tag k="ssr:stedsnr" v="825180" />
		<tag k="waterway" v="stream" />
	</node>
	<node lat="60.137638892335374" lon="9.864111119117261" id="-19808">
		<tag k="name" v="Kroktjenna" />
=======
	<node id="-285029" lat="60.0891416666" lon="9.74353055969">
		<tag k="name" v="Svarteputt" />
		<tag k="natural" v="water" />
		<tag k="ssr:stedsnr" v="95336" />
		<tag k="water" v="pond" />
	</node>
	<node id="-285275" lat="60.18170278" lon="9.74969999566">
		<tag k="name" v="Trontjenn" />
		<tag k="natural" v="water" />
		<tag k="ssr:stedsnr" v="398851" />
	</node>
	<node id="-285274" lat="60.1629555579" lon="9.71005556262">
		<tag k="name" v="Skysskafferen" />
		<tag k="place" v="island" />
		<tag k="ssr:stedsnr" v="398827" />
	</node>
	<node id="-285271" lat="60.1193416653" lon="9.60481945017">
		<tag k="name" v="Brenntangen" />
		<tag k="natural" v="cape" />
		<tag k="ssr:stedsnr" v="398642" />
	</node>
	<node id="-284758" lat="60.2431638923" lon="9.63836665868">
		<tag k="name" v="Killingberg" />
		<tag k="natural" v="cape" />
		<tag k="ssr:stedsnr" v="885720" />
	</node>
	<node id="-284757" lat="60.2053416696" lon="9.66421666094">
		<tag k="name" v="Haratjenn" />
>>>>>>> e1d4bc35ff8a6074a6f2e91616a996b547c36f15
		<tag k="natural" v="water" />
		<tag k="ssr:stedsnr" v="854791" />
	</node>
<<<<<<< HEAD
	<node lat="60.23061666561945" lon="9.574266674801391" id="-19813">
		<tag k="name" v="Veslebølingen" />
		<tag k="ssr:stedsnr" v="854242" />
		<tag k="waterway" v="stream" />
	</node>
	<node lat="60.13894722128149" lon="9.756483338077633" id="-19819">
		<tag k="name" v="Kjenningsberg" />
		<tag k="natural" v="cape" />
		<tag k="ssr:stedsnr" v="854784" />
	</node>
	<node lat="60.31329947677318" lon="9.694874113245772" id="-19822">
		<tag k="name" v="Medragstjenn" />
=======
	<node id="-284702" lat="60.243988887" lon="9.6414694427">
		<tag k="name" v="Vika" />
		<tag k="natural" v="bay" />
		<tag k="ssr:stedsnr" v="703761" />
	</node>
	<node id="-285264" lat="60.2396972186" lon="9.69176665886">
		<tag k="name" v="Damtjennbekken" />
		<tag k="ssr:stedsnr" v="398379" />
		<tag k="waterway" v="stream" />
	</node>
	<node id="-284856" lat="60.1376388923" lon="9.86411111912">
		<tag k="name" v="Kroktjenna" />
		<tag k="natural" v="water" />
		<tag k="ssr:stedsnr" v="854791" />
	</node>
	<node id="-284746" lat="60.1888055549" lon="9.66819167101">
		<tag k="name" v="Svarteputt" />
>>>>>>> e1d4bc35ff8a6074a6f2e91616a996b547c36f15
		<tag k="natural" v="water" />
		<tag k="ssr:stedsnr" v="855858" />
	</node>
<<<<<<< HEAD
	<node lat="60.271447219691346" lon="9.726099999458562" id="-19839">
=======
	<node id="-284745" lat="60.2714472197" lon="9.72609999946">
>>>>>>> e1d4bc35ff8a6074a6f2e91616a996b547c36f15
		<tag k="name" v="Enderudtjennputtan" />
		<tag k="natural" v="water" />
		<tag k="ssr:stedsnr" v="883737" />
		<tag k="water" v="pond" />
	</node>
<<<<<<< HEAD
	<node lat="60.12797777461754" lon="9.748597230233846" id="-19845">
		<tag k="name" v="Stortangen" />
		<tag k="natural" v="cape" />
		<tag k="ssr:stedsnr" v="884027" />
	</node>
	<node lat="60.16175555189807" lon="9.624955550324517" id="-19846">
		<tag k="name" v="Logneelva" />
		<tag k="natural" v="water" />
		<tag k="ssr:stedsnr" v="884545" />
		<tag k="water" v="lake" />
	</node>
	<node lat="60.205341669594425" lon="9.664216660944286" id="-19849">
		<tag k="name" v="Haratjenn" />
=======
	<node id="-285256" lat="60.1396861096" lon="9.65780555917">
		<tag k="name" v="Eivindsrudtjenn" />
		<tag k="natural" v="water" />
		<tag k="ssr:stedsnr" v="398276" />
	</node>
	<node id="-285249" lat="60.2400351432" lon="9.67477100683">
		<tag k="name" v="Nedre Bråtålitjenn" />
		<tag k="natural" v="water" />
		<tag k="ssr:stedsnr" v="386341" />
	</node>
	<node id="-285247" lat="60.2250250014" lon="9.74206944161">
		<tag k="name" v="Nedre Tretjenn" />
		<tag k="natural" v="water" />
		<tag k="ssr:stedsnr" v="386334" />
	</node>
	<node id="-284732" lat="60.249180004" lon="9.7108083298">
		<tag k="fixme" v="multiple name tags, choose one and add the other to alt_name" />
		<tag k="name" v="Lomtjenn;Øvre Lomtjenn" />
>>>>>>> e1d4bc35ff8a6074a6f2e91616a996b547c36f15
		<tag k="natural" v="water" />
		<tag k="ssr:stedsnr" v="885122" />
	</node>
<<<<<<< HEAD
	<node lat="60.14697222669263" lon="9.746158329415499" id="-19859">
		<tag k="name" v="Sørøya" />
		<tag k="natural" v="cape" />
		<tag k="ssr:stedsnr" v="944051" />
=======
	<node id="-284730" lat="59.9793861078" lon="9.92196389306">
		<tag k="name" v="Snarumselva" />
		<tag k="ssr:stedsnr" v="732800" />
		<tag k="waterway" v="river" />
>>>>>>> e1d4bc35ff8a6074a6f2e91616a996b547c36f15
	</node>
	<node id="-285239" lat="60.1122131459" lon="9.82230228116">
		<tag k="name" v="Svanetjenn" />
		<tag k="natural" v="water" />
		<tag k="ssr:stedsnr" v="369813" />
	</node>
	<node id="-285237" lat="60.1623080876" lon="9.81683003362">
		<tag k="name" v="Heståstjenn" />
		<tag k="natural" v="water" />
		<tag k="ssr:stedsnr" v="369757" />
	</node>
	<node id="-285236" lat="60.1638361083" lon="9.80098889224">
		<tag k="name" v="Børkesetelva" />
		<tag k="ssr:stedsnr" v="369744" />
		<tag k="waterway" v="stream" />
	</node>
	<node id="-285234" lat="60.1551972245" lon="9.60248888174">
		<tag k="name" v="Bjøreelva" />
		<tag k="ssr:stedsnr" v="369363" />
		<tag k="waterway" v="stream" />
	</node>
	<node id="-284765" lat="60.1205527789" lon="9.78500833807">
		<tag k="name" v="Ormstryken" />
		<tag k="ssr:stedsnr" v="701012" />
		<tag k="waterway" v="rapids" />
	</node>
	<node id="-284715" lat="60.0748138926" lon="9.75630277783">
		<tag k="name" v="Medrudtjenn" />
		<tag k="natural" v="water" />
		<tag k="ssr:stedsnr" v="611905" />
	</node>
	<node id="-285224" lat="60.2051527779" lon="9.51973055932">
		<tag k="name" v="Lorteputtan" />
		<tag k="natural" v="water" />
		<tag k="ssr:stedsnr" v="339815" />
		<tag k="water" v="pond" />
	</node>
	<node id="-284710" lat="60.1670027818" lon="9.66244166823">
		<tag k="name" v="Ingeridholmen" />
		<tag k="place" v="islet" />
		<tag k="ssr:stedsnr" v="580535" />
	</node>
	<node id="-285105" lat="60.2797222235" lon="9.63001943855">
		<tag k="name" v="Storåstjenn" />
		<tag k="natural" v="water" />
		<tag k="ssr:stedsnr" v="155994" />
	</node>
	<node id="-284704" lat="60.1997500033" lon="9.51128611716">
		<tag k="name" v="Hesjatjenna" />
		<tag k="natural" v="water" />
		<tag k="ssr:stedsnr" v="703829" />
		<tag k="water" v="lake" />
	</node>
	<node id="-285215" lat="60.2529611128" lon="9.6464361113">
		<tag k="name" v="Båtskjølen" />
		<tag k="natural" v="cape" />
		<tag k="old_name" v="Båtskjolen" />
		<tag k="ssr:stedsnr" v="338705" />
	</node>
	<node id="-285214" lat="60.2471194442" lon="9.65213334101">
		<tag k="name" v="Hellerudbekken" />
		<tag k="ssr:stedsnr" v="338463" />
		<tag k="waterway" v="stream" />
	</node>
	<node id="-285213" lat="60.3087722233" lon="9.65729999281">
		<tag k="name" v="Grasodden" />
		<tag k="natural" v="cape" />
		<tag k="ssr:stedsnr" v="338382" />
	</node>
	<node id="-284971" lat="60.2054722215" lon="9.74527499468">
		<tag k="name" v="Rundingstjenn" />
		<tag k="natural" v="water" />
		<tag k="ssr:stedsnr" v="34335" />
	</node>
	<node id="-285502" lat="60.2306166656" lon="9.5742666748">
		<tag k="name" v="Veslebølingen" />
		<tag k="ssr:stedsnr" v="854242" />
		<tag k="waterway" v="stream" />
	</node>
	<node id="-284695" lat="60.2337611089" lon="9.67079167128">
		<tag k="name" v="Nedre Setertjenn" />
		<tag k="natural" v="water" />
		<tag k="ssr:stedsnr" v="703597" />
	</node>
	<node id="-284855" lat="60.1389472213" lon="9.75648333808">
		<tag k="name" v="Kjenningsberg" />
		<tag k="natural" v="cape" />
		<tag k="ssr:stedsnr" v="854784" />
	</node>
	<node id="-284687" lat="60.1272583349" lon="9.60953888772">
		<tag k="name" v="Elgeputt" />
		<tag k="natural" v="water" />
		<tag k="ssr:stedsnr" v="701642" />
		<tag k="water" v="pond" />
	</node>
	<node id="-285189" lat="60.2572055519" lon="9.69699722967">
		<tag k="name" v="Bottolvsbekken" />
		<tag k="ssr:stedsnr" v="310754" />
		<tag k="waterway" v="stream" />
	</node>
	<node id="-285187" lat="60.2900916705" lon="9.67972500774">
		<tag k="name" v="Gigernes" />
		<tag k="natural" v="cape" />
		<tag k="ssr:stedsnr" v="309691" />
	</node>
	<node id="-284717" lat="60.164861107" lon="9.77841110496">
		<tag k="name" v="Mesteråstjenn" />
		<tag k="natural" v="water" />
		<tag k="ssr:stedsnr" v="611785" />
	</node>
	<node id="-284673" lat="60.2431583317" lon="9.7487666731">
		<tag k="name" v="Seterelva" />
		<tag k="ssr:stedsnr" v="693326" />
		<tag k="waterway" v="river" />
	</node>
</osm>
