<?xml version="1.0" encoding="UTF-8"?>
<<<<<<< HEAD
<osm version="0.6" generator="osmapis">
	<node lat="60.20530622164224" lon="9.718895495715456" id="-18771">
		<tag k="name" v="Svartås" />
		<tag k="place" v="locality" />
		<tag k="ssr:stedsnr" v="4168" />
	</node>
	<node lat="60.14498333575328" lon="9.715527768986375" id="-18777">
		<tag k="name" v="Haugen" />
		<tag k="place" v="farm" />
		<tag k="ssr:stedsnr" v="4825" />
	</node>
	<node lat="60.2209833342368" lon="9.696927783161788" id="-18778">
		<tag k="name" v="Katrineplassen" />
		<tag k="place" v="farm" />
		<tag k="ssr:stedsnr" v="5208" />
	</node>
	<node lat="60.18416944683201" lon="9.813175008949564" id="-18779">
		<tag k="name" v="Nesleseterkoia" />
		<tag k="place" v="locality" />
		<tag k="ssr:stedsnr" v="5126" />
	</node>
	<node lat="60.23548055865102" lon="9.638341675309578" id="-18783">
		<tag k="name" v="Søre Olavsbråtan" />
		<tag k="place" v="farm" />
		<tag k="ssr:stedsnr" v="22717" />
	</node>
	<node lat="60.148733336112535" lon="9.708475005618142" id="-18785">
		<tag k="name" v="Bjørnstad" />
		<tag k="place" v="farm" />
		<tag k="ssr:stedsnr" v="34205" />
	</node>
	<node lat="60.195500001880234" lon="9.686858337051287" id="-18791">
		<tag k="name" v="Sollihytta" />
		<tag k="place" v="isolated_dwelling" />
		<tag k="ssr:stedsnr" v="34506" />
	</node>
	<node lat="60.15353611212152" lon="9.759772221816839" id="-18795">
		<tag k="name" v="Åsheim" />
		<tag k="place" v="farm" />
		<tag k="ssr:stedsnr" v="34816" />
	</node>
	<node lat="60.19311944059616" lon="9.550722230712706" id="-18796">
		<tag k="name" v="Framgarden Fosslia" />
		<tag k="place" v="farm" />
		<tag k="ssr:stedsnr" v="35268" />
	</node>
	<node lat="60.21531389207845" lon="9.593180560493785" id="-18804">
		<tag k="name" v="Skaset" />
		<tag k="place" v="farm" />
		<tag k="ssr:stedsnr" v="65177" />
	</node>
	<node lat="60.13439722089958" lon="9.790688880464632" id="-18805">
		<tag k="name" v="Tufta" />
		<tag k="place" v="farm" />
		<tag k="ssr:stedsnr" v="65810" />
	</node>
	<node lat="60.15300555718171" lon="9.758255552814115" id="-18807">
		<tag k="alt_name" v="Skårvold;Øgarden" />
		<tag k="name" v="Skårvoll" />
		<tag k="place" v="farm" />
		<tag k="ssr:stedsnr" v="65800" />
	</node>
	<node lat="60.24611944404537" lon="9.647652781313022" id="-18811">
		<tag k="name" v="Hellerud" />
		<tag k="place" v="isolated_dwelling" />
		<tag k="ssr:stedsnr" v="247006" />
	</node>
	<node lat="60.19087221913468" lon="9.785486103851479" id="-18812">
		<tag k="name" v="Tubbemyr" />
		<tag k="place" v="isolated_dwelling" />
		<tag k="ssr:stedsnr" v="247139" />
	</node>
	<node lat="60.197672222697555" lon="9.737133340734735" id="-18813">
		<tag k="name" v="Grensbråtan" />
		<tag k="place" v="farm" />
		<tag k="ssr:stedsnr" v="247140" />
	</node>
	<node lat="60.195466670263016" lon="9.752794443979388" id="-18814">
		<tag k="name" v="Løkebråtan" />
		<tag k="place" v="farm" />
		<tag k="ssr:stedsnr" v="247141" />
	</node>
	<node lat="60.19734444041766" lon="9.728061107852056" id="-18815">
		<tag k="name" v="Grenssetra" />
		<tag k="place" v="farm" />
		<tag k="ssr:stedsnr" v="247143" />
	</node>
	<node lat="60.185211113580344" lon="9.633802782048855" id="-18816">
		<tag k="name" v="Hanserud" />
		<tag k="place" v="farm" />
		<tag k="ssr:stedsnr" v="247153" />
	</node>
	<node lat="60.20793889274236" lon="9.65966389507318" id="-18817">
		<tag k="historic" v="shieling" />
		<tag k="name" v="Ørpesetra" />
		<tag k="place" v="isolated_dwelling" />
		<tag k="ssr:stedsnr" v="247162" />
	</node>
	<node lat="60.23275833290099" lon="9.633872215374925" id="-18820">
		<tag k="name" v="Bakken" />
		<tag k="place" v="farm" />
		<tag k="ssr:stedsnr" v="247202" />
	</node>
	<node lat="60.167988890280824" lon="9.566408329040039" id="-18821">
		<tag k="name" v="Løvås" />
		<tag k="place" v="farm" />
		<tag k="ssr:stedsnr" v="94610" />
	</node>
	<node lat="60.23428121674895" lon="9.703350626725015" id="-18822">
		<tag k="fixme" v="consider place=hamlet" />
		<tag k="name" v="Redalen" />
		<tag k="place" v="farm" />
		<tag k="ssr:stedsnr" v="247237" />
	</node>
	<node lat="60.14652221854839" lon="9.708819440631316" id="-18825">
		<tag k="name" v="Løvstad" />
		<tag k="place" v="farm" />
		<tag k="ssr:stedsnr" v="95165" />
	</node>
	<node lat="60.148625001120976" lon="9.701522226076806" id="-18826">
		<tag k="name" v="Klokker-Råen" />
		<tag k="place" v="farm" />
		<tag k="ssr:stedsnr" v="95168" />
	</node>
	<node lat="60.11400833431352" lon="9.649855548275985" id="-18829">
		<tag k="name" v="Stordalshytta" />
		<tag k="place" v="isolated_dwelling" />
		<tag k="ssr:stedsnr" v="95277" />
	</node>
	<node lat="60.22068611088122" lon="9.63361389318327" id="-18837">
		<tag k="alt_name" v="Søndre Ørpen" />
		<tag k="fixme" v="consider place=hamlet" />
		<tag k="name" v="Søre Ørpen" />
		<tag k="place" v="farm" />
		<tag k="ssr:stedsnr" v="96708" />
	</node>
	<node lat="60.137569443909626" lon="9.600911104913926" id="-18838">
		<tag k="name" v="Fram-Grimeli" />
		<tag k="place" v="farm" />
		<tag k="ssr:stedsnr" v="247790" />
	</node>
	<node lat="60.12889166672045" lon="9.780755561290261" id="-18839">
		<tag k="name" v="Søre Vassendrud" />
		<tag k="place" v="farm" />
		<tag k="ssr:stedsnr" v="247801" />
	</node>
	<node lat="60.22618611361959" lon="9.646311118501952" id="-18840">
		<tag k="name" v="Brattåsen" />
		<tag k="place" v="isolated_dwelling" />
		<tag k="ssr:stedsnr" v="248183" />
	</node>
	<node lat="60.15766388940832" lon="9.740911104473373" id="-18842">
		<tag k="name" v="Bergli" />
		<tag k="place" v="farm" />
		<tag k="ssr:stedsnr" v="248791" />
	</node>
	<node lat="60.26469999583594" lon="9.640127778250726" id="-18846">
		<tag k="name" v="Lindum" />
		<tag k="place" v="isolated_dwelling" />
		<tag k="ssr:stedsnr" v="249614" />
	</node>
	<node lat="60.26934632402994" lon="9.695593542508693" id="-18847">
		<tag k="alt_name" v="Søndre Enderud" />
		<tag k="fixme" v="consider place=hamlet" />
		<tag k="name" v="Enderud" />
		<tag k="place" v="farm" />
		<tag k="ssr:stedsnr" v="249616" />
	</node>
	<node lat="60.21007778119654" lon="9.76873333846485" id="-18849">
		<tag k="name" v="Tryterud" />
		<tag k="place" v="farm" />
		<tag k="ssr:stedsnr" v="125192" />
	</node>
	<node lat="60.19853888555829" lon="9.67909999585864" id="-18854">
		<tag k="historic" v="shieling" />
		<tag k="name" v="Sollisetra" />
		<tag k="place" v="isolated_dwelling" />
		<tag k="ssr:stedsnr" v="126158" />
	</node>
	<node lat="60.18256666422359" lon="9.548477784726797" id="-18855">
		<tag k="name" v="Åsen" />
		<tag k="place" v="farm" />
		<tag k="ssr:stedsnr" v="126446" />
	</node>
	<node lat="60.17592222367532" lon="9.584127771380901" id="-18856">
		<tag k="historic" v="shieling" />
		<tag k="name" v="Evjusetra" />
		<tag k="place" v="isolated_dwelling" />
		<tag k="ssr:stedsnr" v="126453" />
	</node>
	<node lat="60.15594166416577" lon="9.639108325341342" id="-18857">
		<tag k="name" v="Nordre Ødegården" />
		<tag k="place" v="farm" />
		<tag k="ssr:stedsnr" v="126743" />
	</node>
	<node lat="60.261558334051095" lon="9.690324994677683" id="-18860">
		<tag k="name" v="Bottolvsplassen" />
		<tag k="place" v="isolated_dwelling" />
		<tag k="ssr:stedsnr" v="128612" />
	</node>
	<node lat="60.26018611035068" lon="9.673791669180162" id="-18861">
		<tag k="name" v="Ekra" />
		<tag k="place" v="farm" />
		<tag k="ssr:stedsnr" v="128613" />
	</node>
	<node lat="60.13964999565166" lon="9.771022227274571" id="-18868">
		<tag k="alt_name" v="Håkonrud" />
		<tag k="name" v="Håkonsrud" />
		<tag k="place" v="farm" />
		<tag k="ssr:stedsnr" v="155003" />
	</node>
	<node lat="60.290333335401826" lon="9.684224994035525" id="-18870">
		<tag k="name" v="Gigernes" />
		<tag k="place" v="farm" />
		<tag k="ssr:stedsnr" v="154967" />
	</node>
	<node lat="60.09518888566267" lon="9.789525003665144" id="-18876">
		<tag k="name" v="Bråten" />
=======
<osm generator="osmapis" version="0.6">
	<node id="-284666" lat="60.2991944453" lon="9.52851111274">
		<tag k="historic" v="shieling" />
		<tag k="name" v="Bjøresetra" />
		<tag k="place" v="locality" />
		<tag k="ssr:stedsnr" v="673105" />
	</node>
	<node id="-284665" lat="60.0907418189" lon="9.79484415812">
		<tag k="fixme" v="consider place=hamlet" />
		<tag k="name" v="Hallerdalen" />
		<tag k="place" v="farm" />
		<tag k="ssr:stedsnr" v="672850" />
	</node>
	<node id="-284662" lat="60.1402611086" lon="9.7428388844">
		<tag k="alt_name" v="Skinnes" />
		<tag k="name" v="Øvre Skinnes" />
		<tag k="place" v="farm" />
		<tag k="ssr:stedsnr" v="672806" />
	</node>
	<node id="-284661" lat="60.1393444932" lon="9.68864968412">
		<tag k="fixme" v="consider place=hamlet" />
		<tag k="name" v="Glasrud" />
		<tag k="place" v="farm" />
		<tag k="ssr:stedsnr" v="672803" />
	</node>
	<node id="-284659" lat="60.1533222184" lon="9.63466666577">
		<tag k="name" v="Røyne" />
		<tag k="place" v="farm" />
		<tag k="ssr:stedsnr" v="672788" />
	</node>
	<node id="-284656" lat="60.1716666675" lon="9.67286667558">
		<tag k="name" v="Nordre Gren" />
		<tag k="place" v="farm" />
		<tag k="ssr:stedsnr" v="672755" />
	</node>
	<node id="-284655" lat="60.1690944482" lon="9.73244167096">
		<tag k="name" v="Slevikmoen" />
		<tag k="place" v="farm" />
		<tag k="ssr:stedsnr" v="672753" />
	</node>
	<node id="-284651" lat="60.2210861141" lon="9.57195556119">
		<tag k="name" v="Fjellhvil" />
		<tag k="ssr:stedsnr" v="672243" />
		<tag k="tourism" v="hotel" />
	</node>
	<node id="-284650" lat="60.2366111118" lon="9.63826943893">
		<tag k="name" v="Nordre Olavsbråtan" />
		<tag k="place" v="farm" />
		<tag k="ssr:stedsnr" v="672224" />
	</node>
	<node id="-284649" lat="60.2279555558" lon="9.62719444697">
		<tag k="name" v="Støa" />
		<tag k="place" v="farm" />
		<tag k="ssr:stedsnr" v="672194" />
	</node>
	<node id="-284647" lat="60.216875003" lon="9.60279445164">
		<tag k="name" v="Skaset" />
		<tag k="place" v="farm" />
		<tag k="ssr:stedsnr" v="672155" />
	</node>
	<node id="-284646" lat="60.2070500023" lon="9.77598332748">
		<tag k="name" v="Steinset" />
		<tag k="place" v="farm" />
		<tag k="ssr:stedsnr" v="672145" />
	</node>
	<node id="-284644" lat="60.2051813286" lon="9.63148959896">
		<tag k="name" v="Nedre Bratterud" />
		<tag k="place" v="farm" />
		<tag k="ssr:stedsnr" v="672139" />
	</node>
	<node id="-284643" lat="60.1795972229" lon="9.60386111378">
		<tag k="alt_name" v="Søre Bø" />
		<tag k="name" v="Søndre Bø" />
		<tag k="place" v="farm" />
		<tag k="ssr:stedsnr" v="672122" />
	</node>
	<node id="-284642" lat="60.2272277779" lon="9.52459999672">
		<tag k="historic" v="shieling" />
		<tag k="name" v="Bøsetra" />
		<tag k="place" v="locality" />
		<tag k="ssr:stedsnr" v="671261" />
	</node>
	<node id="-284641" lat="60.1683722178" lon="9.55977500342">
		<tag k="name" v="Vestgarden Rund" />
		<tag k="place" v="farm" />
		<tag k="ssr:stedsnr" v="460153" />
	</node>
	<node id="-284640" lat="60.1209115896" lon="9.63093080087">
		<tag k="historic" v="shieling" />
		<tag k="name" v="Råensetra" />
		<tag k="place" v="locality" />
		<tag k="ssr:stedsnr" v="447320" />
	</node>
	<node id="-284637" lat="60.1494055573" lon="9.6867888899">
		<tag k="name" v="Kristen-Råen" />
		<tag k="place" v="farm" />
		<tag k="ssr:stedsnr" v="519223" />
	</node>
	<node id="-284631" lat="60.1498027806" lon="9.7404250025">
		<tag k="leisure" v="pitch" />
		<tag k="name" v="Idrettsplass" />
		<tag k="ssr:stedsnr" v="519058" />
	</node>
	<node id="-284625" lat="60.2568499959" lon="9.56587499717">
		<tag k="historic" v="shieling" />
		<tag k="name" v="Surtebergsetra" />
		<tag k="place" v="locality" />
		<tag k="ssr:stedsnr" v="431921" />
	</node>
	<node id="-284622" lat="60.1820805529" lon="9.63711389562">
		<tag k="name" v="Bergheim" />
		<tag k="place" v="farm" />
		<tag k="ssr:stedsnr" v="429145" />
	</node>
	<node id="-284621" lat="60.1823166677" lon="9.6620166744">
		<tag k="name" v="Veslesetra" />
		<tag k="place" v="locality" />
		<tag k="ssr:stedsnr" v="429144" />
	</node>
	<node id="-284619" lat="60.1267194411" lon="9.66860278492">
		<tag k="name" v="Sør-Råensetra" />
		<tag k="place" v="locality" />
		<tag k="ssr:stedsnr" v="508377" />
	</node>
	<node id="-284617" lat="60.0958138878" lon="9.7533527741">
		<tag k="name" v="Juvhytta" />
		<tag k="place" v="isolated_dwelling" />
		<tag k="ssr:stedsnr" v="386365" />
	</node>
	<node id="-284615" lat="60.1556607201" lon="9.65260106156">
		<tag k="name" v="Nordre Bjørkerud" />
		<tag k="place" v="farm" />
		<tag k="ssr:stedsnr" v="386353" />
	</node>
	<node id="-284603" lat="60.1378779156" lon="9.68741348861">
		<tag k="fixme" v="consider place=hamlet" />
		<tag k="name" v="Torstenrud" />
		<tag k="place" v="farm" />
		<tag k="ssr:stedsnr" v="490798" />
	</node>
	<node id="-284598" lat="60.1859444452" lon="9.51000555191">
		<tag k="name" v="Rime" />
		<tag k="place" v="farm" />
		<tag k="ssr:stedsnr" v="490422" />
	</node>
	<node id="-284594" lat="60.2217770065" lon="9.60245459657">
		<tag k="fixme" v="consider place=hamlet" />
		<tag k="name" v="Snersrud" />
		<tag k="place" v="farm" />
		<tag k="ssr:stedsnr" v="490188" />
	</node>
	<node id="-284592" lat="60.1858166693" lon="9.62400555481">
		<tag k="name" v="Sundet" />
		<tag k="place" v="farm" />
		<tag k="ssr:stedsnr" v="490146" />
	</node>
	<node id="-284590" lat="60.1767944467" lon="9.62900832587">
		<tag k="name" v="Olbergsmoen" />
		<tag k="place" v="farm" />
		<tag k="ssr:stedsnr" v="490138" />
	</node>
	<node id="-284589" lat="60.1448888882" lon="9.65262222885">
		<tag k="alt_name" v="Hovden" />
		<tag k="name" v="Øvre Hovden" />
		<tag k="place" v="farm" />
		<tag k="ssr:stedsnr" v="489797" />
	</node>
	<node id="-284588" lat="60.1425027792" lon="9.64220000122">
		<tag k="name" v="Nilsplassen" />
		<tag k="place" v="isolated_dwelling" />
		<tag k="ssr:stedsnr" v="489796" />
	</node>
	<node id="-284586" lat="60.2292333316" lon="9.5210055547">
		<tag k="historic" v="shieling" />
		<tag k="name" v="Leirsetra" />
		<tag k="place" v="locality" />
		<tag k="ssr:stedsnr" v="489290" />
	</node>
	<node id="-284585" lat="60.2130736209" lon="9.73528797855">
		<tag k="fixme" v="consider place=hamlet" />
		<tag k="name" v="Rishovd" />
		<tag k="place" v="farm" />
		<tag k="ssr:stedsnr" v="489199" />
	</node>
	<node id="-284581" lat="60.1339222219" lon="9.58476945232">
		<tag k="name" v="Nilse-Grimeli" />
		<tag k="place" v="locality" />
		<tag k="ssr:stedsnr" v="519642" />
	</node>
	<node id="-284577" lat="60.1703027733" lon="9.57376945032">
		<tag k="name" v="Evju" />
		<tag k="place" v="isolated_dwelling" />
		<tag k="ssr:stedsnr" v="519569" />
	</node>
	<node id="-284560" lat="60.2313166655" lon="9.70159722751">
		<tag k="name" v="Nedre Redalen" />
		<tag k="place" v="farm" />
		<tag k="ssr:stedsnr" v="459390" />
	</node>
	<node id="-284549" lat="60.2695944442" lon="9.60713612">
		<tag k="name" v="Slenta" />
		<tag k="place" v="locality" />
		<tag k="ssr:stedsnr" v="277404" />
	</node>
	<node id="-284548" lat="60.1438611082" lon="9.65508611446">
		<tag k="name" v="Nedre Hovden" />
		<tag k="place" v="farm" />
		<tag k="ssr:stedsnr" v="277272" />
	</node>
	<node id="-284546" lat="60.1754638889" lon="9.60446110564">
		<tag k="alt_name" v="Søndre Lesteberg" />
		<tag k="name" v="Søre Lesteberg" />
		<tag k="place" v="farm" />
		<tag k="ssr:stedsnr" v="459052" />
	</node>
	<node id="-284540" lat="60.1552805577" lon="9.59021110775">
		<tag k="name" v="Skasetstykket" />
>>>>>>> e1d4bc35ff8a6074a6f2e91616a996b547c36f15
		<tag k="place" v="locality" />
		<tag k="ssr:stedsnr" v="276911" />
	</node>
<<<<<<< HEAD
	<node lat="60.231052780831064" lon="9.704580564292035" id="-18877">
		<tag k="name" v="Myre" />
		<tag k="place" v="farm" />
		<tag k="ssr:stedsnr" v="155566" />
	</node>
	<node lat="60.246658331272144" lon="9.610980554195994" id="-18880">
		<tag k="name" v="Flatheim" />
		<tag k="place" v="farm" />
		<tag k="ssr:stedsnr" v="157000" />
	</node>
	<node lat="60.285725001707135" lon="9.58128610505252" id="-18887">
		<tag k="name" v="Kjørestua" />
		<tag k="place" v="isolated_dwelling" />
		<tag k="ssr:stedsnr" v="188087" />
	</node>
	<node lat="60.29318610918864" lon="9.460433340230884" id="-18889">
		<tag k="fixme" v="consider tourism=alpine_hut or tourism=chalet" />
		<tag k="name" v="Høgevarde" />
		<tag k="ssr:stedsnr" v="264168" />
		<tag k="tourism" v="wilderness_hut" />
	</node>
	<node lat="60.13834999990156" lon="9.787958341815921" id="-18890">
		<tag k="name" v="Juvet" />
		<tag k="place" v="farm" />
		<tag k="ssr:stedsnr" v="216004" />
	</node>
	<node lat="60.12409999884479" lon="9.789025007652585" id="-18891">
=======
	<node id="-284538" lat="60.2345472233" lon="9.69966667506">
		<tag k="name" v="Nordgarden" />
		<tag k="place" v="farm" />
		<tag k="ssr:stedsnr" v="276661" />
	</node>
	<node id="-284525" lat="60.1143499973" lon="9.66672222008">
		<tag k="name" v="Ovestadhytta" />
		<tag k="place" v="isolated_dwelling" />
		<tag k="ssr:stedsnr" v="216311" />
	</node>
	<node id="-284524" lat="60.1222305517" lon="9.75580832976">
		<tag k="name" v="Glesne" />
		<tag k="place" v="farm" />
		<tag k="ssr:stedsnr" v="216016" />
	</node>
	<node id="-284523" lat="60.1155999967" lon="9.78911389603">
		<tag k="name" v="Stryken" />
		<tag k="place" v="farm" />
		<tag k="ssr:stedsnr" v="216011" />
	</node>
	<node id="-284522" lat="60.1240999988" lon="9.78902500765">
>>>>>>> e1d4bc35ff8a6074a6f2e91616a996b547c36f15
		<tag k="leisure" v="pitch" />
		<tag k="name" v="Idrettsplass" />
		<tag k="ssr:stedsnr" v="216008" />
	</node>
<<<<<<< HEAD
	<node lat="60.11559999668588" lon="9.789113896030189" id="-18892">
		<tag k="name" v="Stryken" />
		<tag k="place" v="farm" />
		<tag k="ssr:stedsnr" v="216011" />
	</node>
	<node lat="60.13721944133151" lon="9.592394435824977" id="-18897">
		<tag k="historic" v="shieling" />
		<tag k="name" v="Bjøresetra" />
		<tag k="place" v="isolated_dwelling" />
		<tag k="ssr:stedsnr" v="216584" />
	</node>
	<node lat="60.180763887071" lon="9.638386106413702" id="-18906">
		<tag k="name" v="Granom" />
		<tag k="place" v="farm" />
		<tag k="ssr:stedsnr" v="247129" />
	</node>
	<node lat="60.18134619761159" lon="9.502829590701264" id="-18907">
		<tag k="fixme" v="consider place=hamlet" />
		<tag k="name" v="Gutterud" />
		<tag k="place" v="farm" />
		<tag k="ssr:stedsnr" v="247420" />
	</node>
	<node lat="60.12043888720358" lon="9.719724991289905" id="-18908">
		<tag k="name" v="Flaglia" />
		<tag k="place" v="neighbourhood" />
		<tag k="ssr:stedsnr" v="247805" />
	</node>
	<node lat="60.1233916669752" lon="9.625830547507977" id="-18909">
		<tag k="historic" v="shieling" />
		<tag k="name" v="Råensetra" />
		<tag k="place" v="isolated_dwelling" />
		<tag k="ssr:stedsnr" v="247808" />
	</node>
	<node lat="60.11333332995045" lon="9.691197218385861" id="-18910">
		<tag k="name" v="Ospelia" />
		<tag k="place" v="isolated_dwelling" />
		<tag k="ssr:stedsnr" v="247816" />
	</node>
	<node lat="60.17546388892941" lon="9.604461105643473" id="-18920">
		<tag k="alt_name" v="Søndre Lesteberg" />
		<tag k="name" v="Søre Lesteberg" />
		<tag k="place" v="farm" />
		<tag k="ssr:stedsnr" v="459052" />
	</node>
	<node lat="60.231316665495925" lon="9.701597227510854" id="-18928">
		<tag k="name" v="Nedre Redalen" />
		<tag k="place" v="farm" />
		<tag k="ssr:stedsnr" v="459390" />
	</node>
	<node lat="60.1552805577174" lon="9.590211107750878" id="-18935">
		<tag k="name" v="Skasetstykket" />
		<tag k="place" v="locality" />
		<tag k="ssr:stedsnr" v="276911" />
	</node>
	<node lat="60.26959444421861" lon="9.607136119997516" id="-18940">
		<tag k="name" v="Slenta" />
		<tag k="place" v="isolated_dwelling" />
		<tag k="ssr:stedsnr" v="277404" />
	</node>
	<node lat="60.16837221782975" lon="9.559775003423539" id="-18944">
		<tag k="name" v="Vestgarden Rund" />
		<tag k="place" v="farm" />
		<tag k="ssr:stedsnr" v="460153" />
	</node>
	<node lat="60.21556944359961" lon="9.632861114288541" id="-18950">
		<tag k="name" v="Vinna" />
		<tag k="place" v="farm" />
		<tag k="ssr:stedsnr" v="308151" />
	</node>
	<node lat="60.16676666315711" lon="9.752883331701648" id="-18951">
		<tag k="name" v="Kittilsbråtan" />
		<tag k="place" v="isolated_dwelling" />
		<tag k="ssr:stedsnr" v="308755" />
	</node>
	<node lat="60.26067777787855" lon="9.682011118487106" id="-18959">
		<tag k="name" v="Spillhaug" />
		<tag k="place" v="farm" />
		<tag k="ssr:stedsnr" v="310634" />
	</node>
	<node lat="60.183888890585976" lon="9.619605563518942" id="-18965">
		<tag k="amenity" v="nursing_home" />
		<tag k="name" v="Kryllingheimen" />
		<tag k="ssr:stedsnr" v="337059" />
	</node>
	<node lat="60.24327345947958" lon="9.604369413553892" id="-18978">
		<tag k="name" v="Søre Surteberg" />
		<tag k="place" v="farm" />
		<tag k="ssr:stedsnr" v="363400" />
	</node>
	<node lat="60.24093611321508" lon="9.641633330368409" id="-18980">
		<tag k="name" v="Øvre Haugen" />
		<tag k="place" v="farm" />
		<tag k="ssr:stedsnr" v="368275" />
	</node>
	<node lat="60.17780277699902" lon="9.622844440406578" id="-18982">
		<tag k="name" v="Fagernes" />
		<tag k="place" v="farm" />
		<tag k="ssr:stedsnr" v="369124" />
	</node>
	<node lat="60.27594444554291" lon="9.697263884144682" id="-18984">
		<tag k="name" v="Kalleslåtta" />
		<tag k="place" v="farm" />
		<tag k="ssr:stedsnr" v="370667" />
	</node>
	<node lat="60.15566072007965" lon="9.652601061561636" id="-18985">
		<tag k="name" v="Nordre Bjørkerud" />
		<tag k="place" v="farm" />
		<tag k="ssr:stedsnr" v="386353" />
	</node>
	<node lat="60.095813887768045" lon="9.753352774104258" id="-18987">
		<tag k="name" v="Juvhytta" />
		<tag k="place" v="isolated_dwelling" />
		<tag k="ssr:stedsnr" v="386365" />
	</node>
	<node lat="60.14332777976674" lon="9.566822219920576" id="-18990">
		<tag k="name" v="Fiskerly" />
		<tag k="place" v="isolated_dwelling" />
		<tag k="ssr:stedsnr" v="398280" />
	</node>
	<node lat="60.21307362090953" lon="9.735287978545404" id="-18997">
		<tag k="fixme" v="consider place=hamlet" />
		<tag k="name" v="Rishovd" />
		<tag k="place" v="farm" />
		<tag k="ssr:stedsnr" v="489199" />
	</node>
	<node lat="60.14250277915204" lon="9.64220000121977" id="-18999">
		<tag k="name" v="Nilsplassen" />
		<tag k="place" v="isolated_dwelling" />
		<tag k="ssr:stedsnr" v="489796" />
	</node>
	<node lat="60.14488888818646" lon="9.652622228854604" id="-19000">
		<tag k="alt_name" v="Hovden" />
		<tag k="name" v="Øvre Hovden" />
		<tag k="place" v="farm" />
		<tag k="ssr:stedsnr" v="489797" />
	</node>
	<node lat="60.18581666933073" lon="9.624005554808521" id="-19002">
		<tag k="name" v="Sundet" />
		<tag k="place" v="farm" />
		<tag k="ssr:stedsnr" v="490146" />
	</node>
	<node lat="60.18594444520209" lon="9.51000555191137" id="-19005">
		<tag k="name" v="Rime" />
		<tag k="place" v="farm" />
		<tag k="ssr:stedsnr" v="490422" />
	</node>
	<node lat="60.13787791558057" lon="9.687413488607282" id="-19008">
		<tag k="fixme" v="consider place=hamlet" />
		<tag k="name" v="Torstenrud" />
		<tag k="place" v="farm" />
		<tag k="ssr:stedsnr" v="490798" />
	</node>
	<node lat="60.12477778166589" lon="9.783888891695051" id="-19016">
		<tag k="name" v="Krøderen" />
		<tag k="place" v="village" />
		<tag k="ssr:stedsnr" v="429821" />
	</node>
	<node lat="60.230522224084616" lon="9.696352784334245" id="-19018">
		<tag k="name" v="Haugen" />
		<tag k="place" v="isolated_dwelling" />
		<tag k="ssr:stedsnr" v="430197" />
	</node>
	<node lat="60.22722777794957" lon="9.524599996721731" id="-19028">
		<tag k="historic" v="shieling" />
		<tag k="name" v="Bøsetra" />
		<tag k="place" v="isolated_dwelling" />
		<tag k="ssr:stedsnr" v="671261" />
	</node>
	<node lat="60.205181328643064" lon="9.63148959895967" id="-19029">
		<tag k="name" v="Nedre Bratterud" />
		<tag k="place" v="farm" />
		<tag k="ssr:stedsnr" v="672139" />
	</node>
	<node lat="60.20705000226484" lon="9.775983327476387" id="-19031">
		<tag k="name" v="Steinset" />
		<tag k="place" v="farm" />
		<tag k="ssr:stedsnr" v="672145" />
	</node>
	<node lat="60.216875003042915" lon="9.602794451642847" id="-19032">
		<tag k="name" v="Skaset" />
		<tag k="place" v="farm" />
		<tag k="ssr:stedsnr" v="672155" />
	</node>
	<node lat="60.23661111175636" lon="9.63826943892817" id="-19033">
		<tag k="name" v="Nordre Olavsbråtan" />
		<tag k="place" v="farm" />
		<tag k="ssr:stedsnr" v="672224" />
	</node>
	<node lat="60.22108611405514" lon="9.571955561187439" id="-19034">
		<tag k="name" v="Fjellhvil" />
		<tag k="ssr:stedsnr" v="672243" />
		<tag k="tourism" v="hotel" />
	</node>
	<node lat="60.22795555584815" lon="9.627194446969696" id="-19035">
		<tag k="name" v="Støa" />
		<tag k="place" v="farm" />
		<tag k="ssr:stedsnr" v="672194" />
	</node>
	<node lat="60.1690944481512" lon="9.732441670961478" id="-19040">
		<tag k="name" v="Slevikmoen" />
		<tag k="place" v="farm" />
		<tag k="ssr:stedsnr" v="672753" />
	</node>
	<node lat="60.17166666752579" lon="9.672866675575127" id="-19041">
		<tag k="name" v="Nordre Gren" />
		<tag k="place" v="farm" />
		<tag k="ssr:stedsnr" v="672755" />
	</node>
	<node lat="60.153322218410345" lon="9.63466666577039" id="-19043">
		<tag k="name" v="Røyne" />
		<tag k="place" v="farm" />
		<tag k="ssr:stedsnr" v="672788" />
	</node>
	<node lat="60.09074181893574" lon="9.794844158122725" id="-19045">
		<tag k="fixme" v="consider place=hamlet" />
		<tag k="name" v="Hallerdalen" />
		<tag k="place" v="farm" />
		<tag k="ssr:stedsnr" v="672850" />
	</node>
	<node lat="60.229233331615205" lon="9.52100555470466" id="-19057">
		<tag k="historic" v="shieling" />
		<tag k="name" v="Leirsetra" />
		<tag k="place" v="isolated_dwelling" />
		<tag k="ssr:stedsnr" v="489290" />
	</node>
	<node lat="60.17679444673553" lon="9.629008325870469" id="-19061">
		<tag k="name" v="Olbergsmoen" />
		<tag k="place" v="farm" />
		<tag k="ssr:stedsnr" v="490138" />
	</node>
	<node lat="60.221777006525734" lon="9.602454596565352" id="-19063">
		<tag k="fixme" v="consider place=hamlet" />
		<tag k="name" v="Snersrud" />
		<tag k="place" v="farm" />
		<tag k="ssr:stedsnr" v="490188" />
	</node>
	<node lat="60.14940555730893" lon="9.686788889899" id="-19074">
		<tag k="name" v="Kristen-Råen" />
		<tag k="place" v="farm" />
		<tag k="ssr:stedsnr" v="519223" />
	</node>
	<node lat="60.13064768381697" lon="9.776703470166828" id="-19078">
		<tag k="fixme" v="consider place=hamlet" />
		<tag k="name" v="Vassendrud" />
		<tag k="place" v="farm" />
		<tag k="ssr:stedsnr" v="544272" />
	</node>
	<node lat="60.124158331178975" lon="9.66785834219222" id="-19080">
		<tag k="historic" v="shieling" />
		<tag k="name" v="Reiulf-Råensetra" />
		<tag k="place" v="isolated_dwelling" />
		<tag k="ssr:stedsnr" v="550815" />
	</node>
	<node lat="60.17138333254957" lon="9.61234999538074" id="-19083">
		<tag k="name" v="Nordre Leir" />
		<tag k="place" v="farm" />
		<tag k="ssr:stedsnr" v="550747" />
	</node>
	<node lat="60.158827009133795" lon="9.531129018332273" id="-19086">
		<tag k="historic" v="shieling" />
		<tag k="name" v="Åsen" />
		<tag k="place" v="isolated_dwelling" />
		<tag k="ssr:stedsnr" v="551444" />
	</node>
	<node lat="60.26375277443122" lon="9.564619438053912" id="-19088">
		<tag k="historic" v="shieling" />
		<tag k="name" v="Veikåkersetra" />
		<tag k="place" v="isolated_dwelling" />
		<tag k="ssr:stedsnr" v="552110" />
	</node>
	<node lat="60.28630363253096" lon="9.689564529441009" id="-19089">
		<tag k="alt_name" v="Nordre Ørgenvika" />
		<tag k="fixme" v="consider place=hamlet" />
		<tag k="name" v="Ørgenvika" />
		<tag k="place" v="farm" />
		<tag k="ssr:stedsnr" v="552705" />
	</node>
	<node lat="60.118125002976164" lon="9.748263894956162" id="-19096">
		<tag k="name" v="Øvre Glesne" />
		<tag k="place" v="farm" />
		<tag k="ssr:stedsnr" v="580010" />
	</node>
	<node lat="60.17194367267642" lon="9.839692684274908" id="-19106">
		<tag k="name" v="Fossen" />
		<tag k="place" v="locality" />
		<tag k="ssr:stedsnr" v="700456" />
	</node>
	<node lat="60.218544448658484" lon="9.6062722229337" id="-19108">
		<tag k="fixme" v="consider place=hamlet" />
		<tag k="name" v="Nordre Sandum" />
		<tag k="place" v="farm" />
		<tag k="ssr:stedsnr" v="611184" />
	</node>
	<node lat="60.16942222213088" lon="9.655547223723005" id="-19111">
		<tag k="name" v="Bergset" />
		<tag k="place" v="farm" />
		<tag k="ssr:stedsnr" v="611776" />
	</node>
	<node lat="60.140918624909894" lon="9.78836979066041" id="-19113">
		<tag k="fixme" v="consider place=hamlet" />
		<tag k="name" v="Steinsrud" />
		<tag k="place" v="farm" />
		<tag k="ssr:stedsnr" v="611816" />
	</node>
	<node lat="60.145958334777106" lon="9.701361108574112" id="-19118">
		<tag k="name" v="Doktor-Råen" />
		<tag k="place" v="farm" />
		<tag k="ssr:stedsnr" v="701250" />
	</node>
	<node lat="60.20831944783854" lon="9.599363890250817" id="-19135">
		<tag k="name" v="Isakplassen" />
		<tag k="place" v="locality" />
		<tag k="ssr:stedsnr" v="703375" />
	</node>
	<node lat="60.25685833453205" lon="9.65958333803425" id="-19143">
		<tag k="name" v="Løkka" />
		<tag k="place" v="isolated_dwelling" />
		<tag k="ssr:stedsnr" v="703755" />
	</node>
	<node lat="60.124736112300766" lon="9.749652778849152" id="-19147">
		<tag k="name" v="Nedre Glesne" />
		<tag k="place" v="farm" />
		<tag k="ssr:stedsnr" v="640013" />
	</node>
	<node lat="60.17301388534372" lon="9.56474999161337" id="-19148">
		<tag k="historic" v="shieling" />
		<tag k="name" v="Kvenneplassen" />
		<tag k="place" v="isolated_dwelling" />
		<tag k="ssr:stedsnr" v="640105" />
	</node>
	<node lat="60.09766944492928" lon="9.821336105931085" id="-19150">
		<tag k="building" v="industrial" />
		<tag k="industrial" v="factory" />
		<tag k="name" v="Splitkon" />
		<tag k="ssr:stedsnr" v="640312" />
	</node>
	<node lat="60.27044444255364" lon="9.696113887481031" id="-19155">
		<tag k="name" v="Nordre Enderud" />
		<tag k="place" v="farm" />
		<tag k="ssr:stedsnr" v="640692" />
	</node>
	<node lat="60.168780557567274" lon="9.563211111433395" id="-19163">
		<tag k="name" v="Framgarden Rund" />
		<tag k="place" v="farm" />
		<tag k="ssr:stedsnr" v="642129" />
	</node>
	<node lat="60.17959722293454" lon="9.603861113777363" id="-19165">
		<tag k="alt_name" v="Søre Bø" />
		<tag k="name" v="Søndre Bø" />
		<tag k="place" v="farm" />
		<tag k="ssr:stedsnr" v="672122" />
	</node>
	<node lat="60.1393444931899" lon="9.6886496841184" id="-19167">
		<tag k="fixme" v="consider place=hamlet" />
		<tag k="name" v="Glasrud" />
		<tag k="place" v="farm" />
		<tag k="ssr:stedsnr" v="672803" />
	</node>
	<node lat="60.140261108575984" lon="9.742838884397035" id="-19168">
		<tag k="alt_name" v="Skinnes" />
		<tag k="name" v="Øvre Skinnes" />
		<tag k="place" v="farm" />
		<tag k="ssr:stedsnr" v="672806" />
	</node>
	<node lat="60.2991944452511" lon="9.528511112737831" id="-19171">
		<tag k="historic" v="shieling" />
		<tag k="name" v="Bjøresetra" />
		<tag k="place" v="isolated_dwelling" />
		<tag k="ssr:stedsnr" v="673105" />
	</node>
	<node lat="60.127713889852465" lon="9.781838896180806" id="-19173">
		<tag k="amenity" v="nursing_home" />
		<tag k="name" v="Krøderheimen" />
		<tag k="ssr:stedsnr" v="701011" />
	</node>
	<node lat="60.12188333000265" lon="9.746763890417416" id="-19175">
		<tag k="name" v="Glesne" />
		<tag k="place" v="farm" />
		<tag k="ssr:stedsnr" v="701020" />
	</node>
	<node lat="60.20487499960272" lon="9.607391659984469" id="-19187">
		<tag k="name" v="Dokka" />
		<tag k="place" v="farm" />
		<tag k="ssr:stedsnr" v="732202" />
	</node>
	<node lat="60.144561108239294" lon="9.769086112179377" id="-19188">
		<tag k="name" v="Hervik" />
		<tag k="place" v="farm" />
		<tag k="ssr:stedsnr" v="732799" />
	</node>
	<node lat="60.18020050815209" lon="9.558284406046313" id="-19195">
		<tag k="fixme" v="multiple name tags, choose one and add the other to alt_name" />
		<tag k="name" v="Lesteberg;Liubråtan" />
		<tag k="place" v="farm" />
		<tag k="ssr:stedsnr" v="733415" />
	</node>
	<node lat="60.25222648415476" lon="9.651401057764787" id="-19197">
		<tag k="fixme" v="consider place=hamlet" />
		<tag k="name" v="Veikåker" />
		<tag k="place" v="farm" />
		<tag k="ssr:stedsnr" v="734743" />
	</node>
	<node lat="60.232527782193834" lon="9.70870556333725" id="-19199">
		<tag k="name" v="Nedre Bottolvsgard" />
		<tag k="place" v="farm" />
		<tag k="ssr:stedsnr" v="750313" />
	</node>
	<node lat="60.13401389105003" lon="9.736950007331549" id="-19202">
		<tag k="name" v="Fagerheim" />
		<tag k="place" v="farm" />
		<tag k="ssr:stedsnr" v="762050" />
	</node>
	<node lat="60.26613333190187" lon="9.68893333695297" id="-19210">
		<tag k="name" v="Tvenge" />
		<tag k="place" v="isolated_dwelling" />
		<tag k="ssr:stedsnr" v="762655" />
	</node>
	<node lat="60.22227777694828" lon="9.735519449409686" id="-19212">
		<tag k="name" v="Sevatbråten" />
		<tag k="place" v="isolated_dwelling" />
		<tag k="ssr:stedsnr" v="762547" />
	</node>
	<node lat="60.2252833372668" lon="9.626822223922856" id="-19214">
		<tag k="name" v="Pynten" />
		<tag k="place" v="isolated_dwelling" />
		<tag k="ssr:stedsnr" v="763595" />
	</node>
	<node lat="60.21041388989428" lon="9.605880554315567" id="-19216">
		<tag k="name" v="Tunet" />
		<tag k="place" v="isolated_dwelling" />
		<tag k="ssr:stedsnr" v="764319" />
	</node>
	<node lat="60.159128922980024" lon="9.63091355142366" id="-19217">
		<tag k="alt_name" v="Søndre Bjøre" />
		<tag k="name" v="Søre Bjøre" />
		<tag k="place" v="farm" />
		<tag k="ssr:stedsnr" v="788416" />
	</node>
	<node lat="60.1684458417214" lon="9.616000283463903" id="-19218">
		<tag k="name" v="Søre Leir" />
=======
	<node id="-284521" lat="60.1383499999" lon="9.78795834182">
		<tag k="name" v="Juvet" />
		<tag k="place" v="farm" />
		<tag k="ssr:stedsnr" v="216004" />
	</node>
	<node id="-284515" lat="60.1094305576" lon="9.7515750054">
		<tag k="name" v="Liabråtan" />
		<tag k="place" v="locality" />
		<tag k="ssr:stedsnr" v="187809" />
	</node>
	<node id="-284514" lat="60.247241671" lon="9.61273056453">
		<tag k="name" v="Maristuen" />
		<tag k="place" v="farm" />
		<tag k="ssr:stedsnr" v="181469" />
	</node>
	<node id="-284509" lat="60.1747055514" lon="9.56124166445">
		<tag k="historic" v="shieling" />
		<tag k="name" v="Fossheim" />
		<tag k="place" v="locality" />
		<tag k="ssr:stedsnr" v="278161" />
	</node>
	<node id="-284508" lat="60.1781527793" lon="9.70738611441">
		<tag k="name" v="Åsen" />
		<tag k="place" v="isolated_dwelling" />
		<tag k="ssr:stedsnr" v="277763" />
	</node>
	<node id="-284506" lat="60.1523499973" lon="9.7555277804">
		<tag k="name" v="Strømstad" />
		<tag k="place" v="farm" />
		<tag k="ssr:stedsnr" v="277860" />
	</node>
	<node id="-284503" lat="60.1396499957" lon="9.77102222727">
		<tag k="alt_name" v="Håkonrud" />
		<tag k="name" v="Håkonsrud" />
		<tag k="place" v="farm" />
		<tag k="ssr:stedsnr" v="155003" />
	</node>
	<node id="-284502" lat="60.1107861113" lon="9.65843889749">
		<tag k="name" v="Rensla" />
		<tag k="place" v="isolated_dwelling" />
		<tag k="ssr:stedsnr" v="277297" />
	</node>
	<node id="-284500" lat="60.1405472253" lon="9.7458583411">
		<tag k="name" v="Nedre Skinnes" />
		<tag k="place" v="farm" />
		<tag k="ssr:stedsnr" v="277047" />
	</node>
	<node id="-284497" lat="60.2821805514" lon="9.69652222547">
		<tag k="alt_name" v="Søndre Ormerud" />
		<tag k="name" v="Søre Ormerud" />
		<tag k="place" v="farm" />
		<tag k="ssr:stedsnr" v="276977" />
	</node>
	<node id="-284493" lat="60.2601861104" lon="9.67379166918">
		<tag k="name" v="Ekra" />
		<tag k="place" v="farm" />
		<tag k="ssr:stedsnr" v="128613" />
	</node>
	<node id="-284492" lat="60.2615583341" lon="9.69032499468">
		<tag k="name" v="Bottolvsplassen" />
		<tag k="place" v="isolated_dwelling" />
		<tag k="ssr:stedsnr" v="128612" />
	</node>
	<node id="-284489" lat="60.2931861092" lon="9.46043334023">
		<tag k="fixme" v="consider tourism=alpine_hut or tourism=chalet" />
		<tag k="name" v="Høgevarde" />
		<tag k="ssr:stedsnr" v="264168" />
		<tag k="tourism" v="wilderness_hut" />
	</node>
	<node id="-284488" lat="60.2223250004" lon="9.60592499289">
		<tag k="name" v="Halsteinsplassen" />
		<tag k="place" v="isolated_dwelling" />
		<tag k="ssr:stedsnr" v="96658" />
	</node>
	<node id="-284487" lat="60.2206861109" lon="9.63361389318">
		<tag k="alt_name" v="Søndre Ørpen" />
		<tag k="fixme" v="consider place=hamlet" />
		<tag k="name" v="Søre Ørpen" />
		<tag k="place" v="farm" />
		<tag k="ssr:stedsnr" v="96708" />
	</node>
	<node id="-284481" lat="60.2438151262" lon="9.60550887393">
		<tag k="fixme" v="consider place=hamlet" />
		<tag k="name" v="Surteberg" />
		<tag k="place" v="farm" />
		<tag k="ssr:stedsnr" v="83955" />
	</node>
	<node id="-284479" lat="60.300141671" lon="9.64777778559">
		<tag k="name" v="Breivik" />
		<tag k="place" v="isolated_dwelling" />
		<tag k="ssr:stedsnr" v="83366" />
	</node>
	<node id="-284476" lat="60.269346324" lon="9.69559354251">
		<tag k="alt_name" v="Søndre Enderud" />
		<tag k="fixme" v="consider place=hamlet" />
		<tag k="name" v="Enderud" />
		<tag k="place" v="farm" />
		<tag k="ssr:stedsnr" v="249616" />
	</node>
	<node id="-284475" lat="60.2646999958" lon="9.64012777825">
		<tag k="name" v="Lindum" />
		<tag k="place" v="isolated_dwelling" />
		<tag k="ssr:stedsnr" v="249614" />
	</node>
	<node id="-284473" lat="60.2979555589" lon="9.53800000569">
		<tag k="name" v="Ringnessetra" />
		<tag k="place" v="locality" />
		<tag k="ssr:stedsnr" v="249061" />
	</node>
	<node id="-284471" lat="60.1576638894" lon="9.74091110447">
		<tag k="name" v="Bergli" />
		<tag k="place" v="farm" />
		<tag k="ssr:stedsnr" v="248791" />
	</node>
	<node id="-284469" lat="60.2261861136" lon="9.6463111185">
		<tag k="name" v="Brattåsen" />
		<tag k="place" v="isolated_dwelling" />
		<tag k="ssr:stedsnr" v="248183" />
	</node>
	<node id="-284464" lat="60.11333333" lon="9.69119721839">
		<tag k="name" v="Ospelia" />
		<tag k="place" v="isolated_dwelling" />
		<tag k="ssr:stedsnr" v="247816" />
	</node>
	<node id="-284463" lat="60.123391667" lon="9.62583054751">
		<tag k="historic" v="shieling" />
		<tag k="name" v="Råensetra" />
		<tag k="place" v="locality" />
		<tag k="ssr:stedsnr" v="247808" />
	</node>
	<node id="-284462" lat="60.1204388872" lon="9.71972499129">
		<tag k="name" v="Flaglia" />
		<tag k="place" v="neighbourhood" />
		<tag k="ssr:stedsnr" v="247805" />
	</node>
	<node id="-284461" lat="60.1288916667" lon="9.78075556129">
		<tag k="name" v="Søre Vassendrud" />
		<tag k="place" v="farm" />
		<tag k="ssr:stedsnr" v="247801" />
	</node>
	<node id="-284460" lat="60.1375694439" lon="9.60091110491">
		<tag k="name" v="Fram-Grimeli" />
		<tag k="place" v="farm" />
		<tag k="ssr:stedsnr" v="247790" />
	</node>
	<node id="-284457" lat="60.1813461976" lon="9.5028295907">
		<tag k="fixme" v="consider place=hamlet" />
		<tag k="name" v="Gutterud" />
		<tag k="place" v="farm" />
		<tag k="ssr:stedsnr" v="247420" />
	</node>
	<node id="-284455" lat="60.2342812167" lon="9.70335062673">
		<tag k="fixme" v="consider place=hamlet" />
		<tag k="name" v="Redalen" />
		<tag k="place" v="farm" />
		<tag k="ssr:stedsnr" v="247237" />
	</node>
	<node id="-284454" lat="60.2327583329" lon="9.63387221537">
		<tag k="name" v="Bakken" />
		<tag k="place" v="farm" />
		<tag k="ssr:stedsnr" v="247202" />
	</node>
	<node id="-284452" lat="60.2079388927" lon="9.65966389507">
		<tag k="historic" v="shieling" />
		<tag k="name" v="Ørpesetra" />
		<tag k="place" v="locality" />
		<tag k="ssr:stedsnr" v="247162" />
	</node>
	<node id="-284451" lat="60.1852111136" lon="9.63380278205">
		<tag k="name" v="Hanserud" />
		<tag k="place" v="farm" />
		<tag k="ssr:stedsnr" v="247153" />
	</node>
	<node id="-284450" lat="60.1973444404" lon="9.72806110785">
		<tag k="name" v="Grenssetra" />
		<tag k="place" v="farm" />
		<tag k="ssr:stedsnr" v="247143" />
	</node>
	<node id="-284449" lat="60.1954666703" lon="9.75279444398">
		<tag k="name" v="Løkebråtan" />
		<tag k="place" v="farm" />
		<tag k="ssr:stedsnr" v="247141" />
	</node>
	<node id="-284448" lat="60.1976722227" lon="9.73713334073">
		<tag k="name" v="Grensbråtan" />
		<tag k="place" v="farm" />
		<tag k="ssr:stedsnr" v="247140" />
	</node>
	<node id="-284447" lat="60.1908722191" lon="9.78548610385">
		<tag k="name" v="Tubbemyr" />
		<tag k="place" v="isolated_dwelling" />
		<tag k="ssr:stedsnr" v="247139" />
	</node>
	<node id="-284446" lat="60.1807638871" lon="9.63838610641">
		<tag k="name" v="Granom" />
		<tag k="place" v="farm" />
		<tag k="ssr:stedsnr" v="247129" />
	</node>
	<node id="-284445" lat="60.246119444" lon="9.64765278131">
		<tag k="name" v="Hellerud" />
		<tag k="place" v="isolated_dwelling" />
		<tag k="ssr:stedsnr" v="247006" />
	</node>
	<node id="-284444" lat="60.2741388892" lon="9.55406666537">
		<tag k="historic" v="shieling" />
		<tag k="name" v="Østensetran" />
		<tag k="place" v="locality" />
		<tag k="ssr:stedsnr" v="67140" />
	</node>
	<node id="-284443" lat="60.1668055529" lon="9.58038054793">
		<tag k="name" v="Moen" />
		<tag k="place" v="farm" />
		<tag k="ssr:stedsnr" v="66433" />
	</node>
	<node id="-284437" lat="60.2354805587" lon="9.63834167531">
		<tag k="name" v="Søre Olavsbråtan" />
		<tag k="place" v="farm" />
		<tag k="ssr:stedsnr" v="22717" />
	</node>
	<node id="-284433" lat="60.2214444487" lon="9.62849999349">
		<tag k="name" v="Nedre Ørpen" />
		<tag k="place" v="farm" />
		<tag k="ssr:stedsnr" v="218693" />
	</node>
	<node id="-284424" lat="60.1698194455" lon="9.66091111949">
		<tag k="name" v="Valberg" />
		<tag k="place" v="isolated_dwelling" />
		<tag k="ssr:stedsnr" v="217547" />
	</node>
	<node id="-285552" lat="60.1830896585" lon="9.60643550954">
		<tag k="fixme" v="consider place=hamlet" />
		<tag k="name" v="Øvre Nore" />
		<tag k="place" v="farm" />
		<tag k="ssr:stedsnr" v="1073689" />
	</node>
	<node id="-285551" lat="60.2043287555" lon="9.63128052737">
		<tag k="name" v="Bratterud" />
		<tag k="place" v="locality" />
		<tag k="ssr:stedsnr" v="1072926" />
	</node>
	<node id="-285550" lat="60.1496517052" lon="9.69239321471">
		<tag k="name" v="Trulse-Råen" />
		<tag k="place" v="farm" />
		<tag k="ssr:stedsnr" v="1072924" />
	</node>
	<node id="-285549" lat="60.2213798546" lon="9.63444662242">
		<tag k="name" v="Ørpen" />
		<tag k="place" v="hamlet" />
		<tag k="ssr:stedsnr" v="1072514" />
	</node>
	<node id="-285548" lat="60.1806535333" lon="9.60453337882">
		<tag k="fixme" v="consider place=hamlet" />
		<tag k="name" v="Bø" />
		<tag k="place" v="farm" />
		<tag k="ssr:stedsnr" v="1072513" />
	</node>
	<node id="-285547" lat="60.1442727436" lon="9.65293910653">
		<tag k="fixme" v="consider place=hamlet" />
		<tag k="name" v="Hovden" />
		<tag k="place" v="farm" />
		<tag k="ssr:stedsnr" v="1072512" />
	</node>
	<node id="-285542" lat="60.1712298763" lon="9.67615765477">
		<tag k="fixme" v="consider place=hamlet" />
		<tag k="name" v="Gren" />
		<tag k="place" v="farm" />
		<tag k="ssr:stedsnr" v="986250" />
	</node>
	<node id="-285520" lat="60.1689340182" lon="9.64954983366">
		<tag k="fixme" v="consider place=hamlet" />
		<tag k="name" v="Bjertnes" />
		<tag k="place" v="farm" />
		<tag k="ssr:stedsnr" v="977409" />
	</node>
	<node id="-285519" lat="60.1416627534" lon="9.74533795713">
		<tag k="name" v="Skinnes" />
		<tag k="place" v="hamlet" />
		<tag k="ssr:stedsnr" v="977405" />
	</node>
	<node id="-285518" lat="60.2221199796" lon="9.60235699339">
		<tag k="alt_name" v="Søndre Snersrud" />
		<tag k="name" v="Søre Snersrud" />
		<tag k="place" v="farm" />
		<tag k="ssr:stedsnr" v="970661" />
	</node>
	<node id="-285516" lat="60.1551222204" lon="9.64329444953">
		<tag k="name" v="Søre Ødegården" />
		<tag k="place" v="farm" />
		<tag k="ssr:stedsnr" v="872388" />
	</node>
	<node id="-285515" lat="60.1698461746" lon="9.61471144674">
		<tag k="fixme" v="consider place=hamlet" />
		<tag k="name" v="Leir" />
		<tag k="place" v="farm" />
		<tag k="ssr:stedsnr" v="872387" />
	</node>
	<node id="-285514" lat="60.2994222197" lon="9.59789166737">
		<tag k="historic" v="shieling" />
		<tag k="name" v="Breiviksetra" />
		<tag k="place" v="locality" />
		<tag k="ssr:stedsnr" v="856848" />
	</node>
	<node id="-285513" lat="60.2502916693" lon="9.6152055496">
		<tag k="name" v="Movika" />
		<tag k="place" v="farm" />
		<tag k="ssr:stedsnr" v="856748" />
	</node>
	<node id="-285512" lat="60.2939166645" lon="9.6370111072">
		<tag k="historic" v="shieling" />
		<tag k="name" v="Setra" />
		<tag k="place" v="locality" />
		<tag k="ssr:stedsnr" v="856690" />
	</node>
	<node id="-285510" lat="60.2881027757" lon="9.66253889463">
		<tag k="name" v="Moen" />
		<tag k="place" v="isolated_dwelling" />
		<tag k="ssr:stedsnr" v="856677" />
	</node>
	<node id="-285508" lat="60.2602562334" lon="9.62612080049">
		<tag k="fixme" v="consider place=hamlet" />
		<tag k="name" v="Ringnes" />
		<tag k="place" v="farm" />
		<tag k="ssr:stedsnr" v="856648" />
	</node>
	<node id="-285507" lat="60.1599985376" lon="9.6291581888">
		<tag k="fixme" v="consider place=hamlet" />
		<tag k="name" v="Bjøre" />
		<tag k="place" v="farm" />
		<tag k="ssr:stedsnr" v="855798" />
	</node>
	<node id="-285505" lat="60.1609500043" lon="9.50228888542">
		<tag k="name" v="Kolbu" />
		<tag k="place" v="locality" />
		<tag k="ssr:stedsnr" v="855448" />
	</node>
	<node id="-285504" lat="60.1763194489" lon="9.55884722923">
		<tag k="name" v="Haugen" />
		<tag k="place" v="farm" />
		<tag k="ssr:stedsnr" v="854435" />
	</node>
	<node id="-285501" lat="60.248502776" lon="9.61369166804">
		<tag k="name" v="Surtebergmoen" />
		<tag k="place" v="farm" />
		<tag k="ssr:stedsnr" v="854007" />
	</node>
	<node id="-285500" lat="60.1771287776" lon="9.60422548104">
		<tag k="alt_name" v="Nordre Lesteberg" />
		<tag k="fixme" v="consider place=hamlet" />
		<tag k="name" v="Lesteberg" />
		<tag k="place" v="farm" />
		<tag k="ssr:stedsnr" v="854122" />
	</node>
	<node id="-285499" lat="60.1549617605" lon="9.65508836111">
		<tag k="fixme" v="consider place=hamlet" />
		<tag k="name" v="Bjørkerud" />
		<tag k="place" v="farm" />
		<tag k="ssr:stedsnr" v="849451" />
	</node>
	<node id="-285497" lat="60.2118222198" lon="9.57041388088">
		<tag k="historic" v="shieling" />
		<tag k="name" v="Gamlesetra" />
		<tag k="place" v="locality" />
		<tag k="ssr:stedsnr" v="825272" />
	</node>
	<node id="-285482" lat="60.1451333331" lon="9.72037500659">
		<tag k="name" v="Skinneslia" />
		<tag k="place" v="farm" />
		<tag k="ssr:stedsnr" v="823032" />
	</node>
	<node id="-285480" lat="60.1245750013" lon="9.78652777398">
		<tag k="amenity" v="school" />
		<tag k="name" v="Krøderen skole" />
		<tag k="ssr:stedsnr" v="823004" />
	</node>
	<node id="-285479" lat="60.0993888849" lon="9.81713610441">
		<tag k="name" v="Slettemoen" />
		<tag k="place" v="farm" />
		<tag k="ssr:stedsnr" v="822721" />
	</node>
	<node id="-285473" lat="60.2630181631" lon="9.69559361699">
		<tag k="fixme" v="consider place=hamlet" />
		<tag k="name" v="Haugerud" />
		<tag k="place" v="farm" />
		<tag k="ssr:stedsnr" v="795666" />
	</node>
	<node id="-285466" lat="60.1043416636" lon="9.69845277877">
		<tag k="name" v="Fyransetra" />
		<tag k="place" v="locality" />
		<tag k="ssr:stedsnr" v="793844" />
	</node>
	<node id="-285464" lat="60.222180557" lon="9.5632194515">
		<tag k="amenity" v="cafe" />
		<tag k="name" v="Norefjellstua" />
		<tag k="ssr:stedsnr" v="793276" />
	</node>
	<node id="-285463" lat="60.2415694411" lon="9.64034722179">
		<tag k="name" v="Nedre Haugen" />
		<tag k="place" v="farm" />
		<tag k="ssr:stedsnr" v="793256" />
	</node>
	<node id="-285460" lat="60.2104138899" lon="9.60588055432">
		<tag k="name" v="Tunet" />
		<tag k="place" v="isolated_dwelling" />
		<tag k="ssr:stedsnr" v="764319" />
	</node>
	<node id="-285456" lat="60.2252833373" lon="9.62682222392">
		<tag k="name" v="Pynten" />
		<tag k="place" v="isolated_dwelling" />
		<tag k="ssr:stedsnr" v="763595" />
	</node>
	<node id="-285454" lat="60.2021638876" lon="9.60501666876">
		<tag k="name" v="Maribråten" />
		<tag k="place" v="isolated_dwelling" />
		<tag k="ssr:stedsnr" v="763535" />
	</node>
	<node id="-285437" lat="60.1480055552" lon="9.69499721387">
		<tag k="name" v="Helge-Råen" />
		<tag k="place" v="farm" />
		<tag k="ssr:stedsnr" v="762208" />
	</node>
	<node id="-285436" lat="60.1415249983" lon="9.69497499585">
		<tag k="name" v="Hestehagen" />
>>>>>>> e1d4bc35ff8a6074a6f2e91616a996b547c36f15
		<tag k="place" v="farm" />
		<tag k="ssr:stedsnr" v="762186" />
	</node>
<<<<<<< HEAD
	<node lat="60.22218055695808" lon="9.563219451501093" id="-19219">
		<tag k="amenity" v="cafe" />
		<tag k="name" v="Norefjellstua" />
		<tag k="ssr:stedsnr" v="793276" />
	</node>
	<node lat="60.263018163105976" lon="9.695593616987535" id="-19225">
		<tag k="fixme" v="consider place=hamlet" />
		<tag k="name" v="Haugerud" />
		<tag k="place" v="farm" />
		<tag k="ssr:stedsnr" v="795666" />
	</node>
	<node lat="60.17985278024772" lon="9.62411111555918" id="-19229">
		<tag k="name" v="Noresund" />
		<tag k="place" v="village" />
		<tag k="ssr:stedsnr" v="915132" />
	</node>
	<node lat="60.20213889317289" lon="9.655669448614624" id="-19231">
		<tag k="historic" v="shieling" />
		<tag k="name" v="Sundesetra" />
		<tag k="place" v="isolated_dwelling" />
		<tag k="ssr:stedsnr" v="915154" />
	</node>
	<node lat="60.21161666647222" lon="9.670797217428044" id="-19232">
		<tag k="historic" v="shieling" />
		<tag k="name" v="Vinnasetra" />
		<tag k="place" v="isolated_dwelling" />
		<tag k="ssr:stedsnr" v="915168" />
	</node>
	<node lat="60.16616221778324" lon="9.521726634197538" id="-19234">
		<tag k="fixme" v="consider place=hamlet" />
		<tag k="name" v="Heslia" />
=======
	<node id="-285430" lat="60.1340138911" lon="9.73695000733">
		<tag k="name" v="Fagerheim" />
		<tag k="place" v="farm" />
		<tag k="ssr:stedsnr" v="762050" />
	</node>
	<node id="-285425" lat="60.2325277822" lon="9.70870556334">
		<tag k="name" v="Nedre Bottolvsgard" />
		<tag k="place" v="farm" />
		<tag k="ssr:stedsnr" v="750313" />
	</node>
	<node id="-285423" lat="60.218978025" lon="9.52702193087">
		<tag k="historic" v="shieling" />
		<tag k="name" v="Rundsetra" />
		<tag k="place" v="locality" />
		<tag k="ssr:stedsnr" v="642771" />
	</node>
	<node id="-285422" lat="60.2156750019" lon="9.63100833284">
		<tag k="name" v="Vinna" />
>>>>>>> e1d4bc35ff8a6074a6f2e91616a996b547c36f15
		<tag k="place" v="farm" />
		<tag k="ssr:stedsnr" v="642555" />
	</node>
<<<<<<< HEAD
	<node lat="60.171819041632816" lon="9.636901355107712" id="-19237">
		<tag k="fixme" v="consider place=hamlet" />
		<tag k="name" v="Olberg" />
		<tag k="place" v="farm" />
		<tag k="ssr:stedsnr" v="915749" />
	</node>
	<node lat="60.155503388833196" lon="9.66631985057768" id="-19238">
		<tag k="fixme" v="consider place=hamlet" />
		<tag k="name" v="Haslerud" />
		<tag k="place" v="farm" />
		<tag k="ssr:stedsnr" v="915757" />
	</node>
	<node lat="60.12602863923588" lon="9.740263139638126" id="-19243">
		<tag k="name" v="Søre Fyran" />
		<tag k="place" v="farm" />
		<tag k="ssr:stedsnr" v="915799" />
	</node>
	<node lat="60.25871110872661" lon="9.562455559746843" id="-19244">
		<tag k="name" v="Fjellro" />
		<tag k="place" v="isolated_dwelling" />
		<tag k="ssr:stedsnr" v="916934" />
	</node>
	<node lat="60.099388884872205" lon="9.817136104411249" id="-19247">
		<tag k="name" v="Slettemoen" />
		<tag k="place" v="farm" />
		<tag k="ssr:stedsnr" v="822721" />
	</node>
	<node lat="60.12457500125978" lon="9.786527773984655" id="-19250">
		<tag k="amenity" v="school" />
		<tag k="name" v="Krøderen skole" />
		<tag k="ssr:stedsnr" v="823004" />
	</node>
	<node lat="60.14513333310246" lon="9.720375006585675" id="-19252">
		<tag k="name" v="Skinneslia" />
		<tag k="place" v="farm" />
		<tag k="ssr:stedsnr" v="823032" />
	</node>
	<node lat="60.2118222198434" lon="9.570413880879812" id="-19262">
		<tag k="historic" v="shieling" />
		<tag k="name" v="Gamlesetra" />
		<tag k="place" v="isolated_dwelling" />
		<tag k="ssr:stedsnr" v="825272" />
	</node>
	<node lat="60.24850277599927" lon="9.613691668039552" id="-19264">
		<tag k="name" v="Surtebergmoen" />
		<tag k="place" v="farm" />
		<tag k="ssr:stedsnr" v="854007" />
	</node>
	<node lat="60.22912499752728" lon="9.669399996923271" id="-19268">
		<tag k="historic" v="shieling" />
		<tag k="name" v="Ørpesetra" />
		<tag k="place" v="isolated_dwelling" />
		<tag k="ssr:stedsnr" v="855206" />
	</node>
	<node lat="60.159998537605546" lon="9.62915818879976" id="-19269">
		<tag k="fixme" v="consider place=hamlet" />
		<tag k="name" v="Bjøre" />
		<tag k="place" v="farm" />
		<tag k="ssr:stedsnr" v="855798" />
	</node>
	<node lat="60.1288218394071" lon="9.740577443174434" id="-19270">
		<tag k="name" v="Nordre Fyran" />
		<tag k="place" v="farm" />
		<tag k="ssr:stedsnr" v="933373" />
	</node>
	<node lat="60.23142207390686" lon="9.713005240318777" id="-19271">
		<tag k="fixme" v="consider place=hamlet" />
		<tag k="name" v="Bottolvsgard" />
		<tag k="place" v="farm" />
		<tag k="ssr:stedsnr" v="933379" />
	</node>
	<node lat="60.17538611457701" lon="9.630894450627546" id="-19272">
		<tag k="name" v="Sole" />
		<tag k="ssr:stedsnr" v="934325" />
		<tag k="tourism" v="hotel" />
	</node>
	<node lat="60.14595555545754" lon="9.727788885670805" id="-19274">
		<tag k="name" v="Granbu" />
=======
	<node id="-285418" lat="60.1687805576" lon="9.56321111143">
		<tag k="name" v="Framgarden Rund" />
		<tag k="place" v="farm" />
		<tag k="ssr:stedsnr" v="642129" />
	</node>
	<node id="-285403" lat="60.2704444426" lon="9.69611388748">
		<tag k="name" v="Nordre Enderud" />
		<tag k="place" v="farm" />
		<tag k="ssr:stedsnr" v="640692" />
	</node>
	<node id="-285394" lat="60.0976694449" lon="9.82133610593">
		<tag k="building" v="industrial" />
		<tag k="industrial" v="factory" />
		<tag k="name" v="Splitkon" />
		<tag k="ssr:stedsnr" v="640312" />
	</node>
	<node id="-285393" lat="60.1730138853" lon="9.56474999161">
		<tag k="historic" v="shieling" />
		<tag k="name" v="Kvenneplassen" />
		<tag k="place" v="locality" />
		<tag k="ssr:stedsnr" v="640105" />
	</node>
	<node id="-285392" lat="60.1217861112" lon="9.74148889742">
		<tag k="name" v="Bråtastua" />
		<tag k="place" v="isolated_dwelling" />
		<tag k="ssr:stedsnr" v="640069" />
	</node>
	<node id="-285387" lat="60.1439861109" lon="9.72553055905">
		<tag k="name" v="Sørli" />
		<tag k="place" v="farm" />
		<tag k="ssr:stedsnr" v="640045" />
	</node>
	<node id="-285386" lat="60.1247361123" lon="9.74965277885">
		<tag k="name" v="Nedre Glesne" />
		<tag k="place" v="farm" />
		<tag k="ssr:stedsnr" v="640013" />
	</node>
	<node id="-285382" lat="60.2036096115" lon="9.63124744602">
		<tag k="name" v="Øvre Bratterud" />
		<tag k="place" v="farm" />
		<tag k="ssr:stedsnr" v="629663" />
	</node>
	<node id="-285380" lat="60.2809555589" lon="9.66978889569">
		<tag k="name" v="Heringrud" />
		<tag k="place" v="locality" />
		<tag k="ssr:stedsnr" v="612658" />
	</node>
	<node id="-285379" lat="60.2827527748" lon="9.69716666542">
		<tag k="alt_name" v="Nordre Ormerud" />
		<tag k="name" v="Ormerud" />
		<tag k="place" v="farm" />
		<tag k="ssr:stedsnr" v="612656" />
	</node>
	<node id="-285376" lat="60.1303555518" lon="9.69659444061">
		<tag k="name" v="Tjernli" />
>>>>>>> e1d4bc35ff8a6074a6f2e91616a996b547c36f15
		<tag k="place" v="farm" />
		<tag k="ssr:stedsnr" v="611826" />
	</node>
<<<<<<< HEAD
	<node lat="60.246013891817725" lon="9.612744445052803" id="-19282">
		<tag k="name" v="Strandheim" />
		<tag k="place" v="farm" />
		<tag k="ssr:stedsnr" v="885996" />
	</node>
	<node lat="60.23335833690279" lon="9.707994436606432" id="-19284">
		<tag k="name" v="Øvre Bottolvsgard" />
		<tag k="place" v="farm" />
		<tag k="ssr:stedsnr" v="915185" />
	</node>
	<node lat="60.22829712213051" lon="9.633665225960739" id="-19285">
		<tag k="fixme" v="consider place=hamlet" />
		<tag k="name" v="Gåran" />
		<tag k="place" v="farm" />
		<tag k="ssr:stedsnr" v="915190" />
	</node>
	<node lat="60.26036047649242" lon="9.67241902781058" id="-19290">
		<tag k="fixme" v="consider place=hamlet" />
		<tag k="name" v="Gubberud" />
		<tag k="place" v="farm" />
		<tag k="ssr:stedsnr" v="916662" />
	</node>
	<node lat="60.26766110764802" lon="9.762497217120087" id="-19291">
		<tag k="name" v="Desarud" />
		<tag k="place" v="isolated_dwelling" />
		<tag k="ssr:stedsnr" v="916670" />
	</node>
	<node lat="60.166930558361294" lon="9.574602774427776" id="-19293">
		<tag k="alt_name" v="Søndre Dannemark" />
		<tag k="name" v="Søre Dannemark" />
		<tag k="place" v="farm" />
		<tag k="ssr:stedsnr" v="944640" />
	</node>
	<node lat="60.21323333545288" lon="9.727933326222495" id="-19294">
		<tag k="name" v="Rishovd" />
		<tag k="place" v="farm" />
		<tag k="ssr:stedsnr" v="944588" />
	</node>
	<node lat="60.16575555869006" lon="9.707519453329157" id="-19295">
		<tag k="name" v="Slevika camping" />
		<tag k="ssr:stedsnr" v="944834" />
		<tag k="tourism" v="camp_site" />
	</node>
	<node lat="60.2221199795686" lon="9.602356993393485" id="-19302">
		<tag k="alt_name" v="Søndre Snersrud" />
		<tag k="name" v="Søre Snersrud" />
		<tag k="place" v="farm" />
		<tag k="ssr:stedsnr" v="970661" />
	</node>
	<node lat="60.168934018219076" lon="9.649549833658089" id="-19304">
		<tag k="fixme" v="consider place=hamlet" />
		<tag k="name" v="Bjertnes" />
		<tag k="place" v="farm" />
		<tag k="ssr:stedsnr" v="977409" />
	</node>
	<node lat="60.141662753371634" lon="9.745337957134067" id="-19305">
		<tag k="name" v="Skinnes" />
		<tag k="place" v="hamlet" />
		<tag k="ssr:stedsnr" v="977405" />
	</node>
	<node lat="60.191494445584595" lon="9.817883337712512" id="-19321">
		<tag k="name" v="Skaugum" />
		<tag k="place" v="isolated_dwelling" />
		<tag k="ssr:stedsnr" v="4143" />
	</node>
	<node lat="60.120551854592705" lon="9.747953570188091" id="-19326">
		<tag k="name" v="Glesne" />
		<tag k="place" v="hamlet" />
		<tag k="ssr:stedsnr" v="4838" />
	</node>
	<node lat="60.22026388695621" lon="9.645652784246295" id="-19329">
		<tag k="name" v="Tranga" />
		<tag k="place" v="locality" />
		<tag k="ssr:stedsnr" v="5198" />
	</node>
	<node lat="60.14246666847524" lon="9.745938891893225" id="-19345">
		<tag k="name" v="Nordre Skinnes" />
		<tag k="place" v="farm" />
		<tag k="ssr:stedsnr" v="34063" />
	</node>
	<node lat="60.120058336258204" lon="9.73735277564203" id="-19348">
		<tag k="name" v="Granli" />
		<tag k="place" v="isolated_dwelling" />
		<tag k="ssr:stedsnr" v="34077" />
	</node>
	<node lat="60.13062292805672" lon="9.73575924317177" id="-19350">
		<tag k="fixme" v="consider place=hamlet" />
		<tag k="name" v="Fyran" />
		<tag k="place" v="farm" />
		<tag k="ssr:stedsnr" v="34053" />
	</node>
	<node lat="60.188408329893136" lon="9.552538891689615" id="-19354">
		<tag k="name" v="Tørkopp" />
		<tag k="place" v="isolated_dwelling" />
		<tag k="ssr:stedsnr" v="35151" />
	</node>
	<node lat="60.15799166735547" lon="9.625444452540979" id="-19360">
		<tag k="name" v="Sandmoen" />
		<tag k="place" v="isolated_dwelling" />
		<tag k="ssr:stedsnr" v="34538" />
	</node>
	<node lat="60.15544444831337" lon="9.633758335680787" id="-19361">
		<tag k="name" v="Haug" />
		<tag k="place" v="isolated_dwelling" />
		<tag k="ssr:stedsnr" v="34547" />
	</node>
	<node lat="60.13288332935617" lon="9.589374997200494" id="-19363">
		<tag k="name" v="Solli" />
		<tag k="place" v="isolated_dwelling" />
		<tag k="ssr:stedsnr" v="34585" />
	</node>
	<node lat="60.17598888826574" lon="9.564172218601911" id="-19378">
		<tag k="name" v="Golberg" />
		<tag k="place" v="farm" />
		<tag k="ssr:stedsnr" v="65436" />
	</node>
	<node lat="60.210730559627876" lon="9.52980555334832" id="-19379">
		<tag k="historic" v="shieling" />
		<tag k="name" v="Fosslisetra" />
		<tag k="place" v="isolated_dwelling" />
		<tag k="ssr:stedsnr" v="65469" />
	</node>
	<node lat="60.194308253960095" lon="9.546506468838926" id="-19380">
		<tag k="fixme" v="consider place=hamlet" />
		<tag k="name" v="Fosslia" />
		<tag k="place" v="farm" />
		<tag k="ssr:stedsnr" v="65483" />
	</node>
	<node lat="60.16093611293343" lon="9.812688895138406" id="-19382">
		<tag k="historic" v="shieling" />
		<tag k="name" v="Huksetra" />
		<tag k="place" v="isolated_dwelling" />
		<tag k="ssr:stedsnr" v="65794" />
	</node>
	<node lat="60.16680555289227" lon="9.580380547927685" id="-19383">
		<tag k="name" v="Moen" />
		<tag k="place" v="farm" />
		<tag k="ssr:stedsnr" v="66433" />
	</node>
	<node lat="60.17144166841775" lon="9.738752771059898" id="-19384">
		<tag k="name" v="Borgerud" />
		<tag k="place" v="farm" />
		<tag k="ssr:stedsnr" v="66756" />
	</node>
	<node lat="60.078250000872636" lon="9.75830556450964" id="-19387">
		<tag k="name" v="Hagalia" />
		<tag k="place" v="farm" />
		<tag k="ssr:stedsnr" v="66861" />
	</node>
	<node lat="60.27413888924165" lon="9.55406666537092" id="-19390">
		<tag k="historic" v="shieling" />
		<tag k="name" v="Østensetran" />
		<tag k="place" v="isolated_dwelling" />
		<tag k="ssr:stedsnr" v="67140" />
	</node>
	<node lat="60.30014167098353" lon="9.647777785594727" id="-19392">
		<tag k="name" v="Breivik" />
		<tag k="place" v="isolated_dwelling" />
		<tag k="ssr:stedsnr" v="83366" />
	</node>
	<node lat="60.2438151262252" lon="9.605508873928507" id="-19394">
		<tag k="fixme" v="consider place=hamlet" />
		<tag k="name" v="Surteberg" />
		<tag k="place" v="farm" />
		<tag k="ssr:stedsnr" v="83955" />
	</node>
	<node lat="60.18326944134847" lon="9.610733335928016" id="-19403">
		<tag k="fixme" v="consider place=hamlet" />
		<tag k="name" v="Nedre Nore" />
		<tag k="place" v="farm" />
		<tag k="ssr:stedsnr" v="95030" />
	</node>
	<node lat="60.13348055851616" lon="9.683138891227378" id="-19407">
		<tag k="name" v="Humlegård" />
		<tag k="place" v="farm" />
		<tag k="ssr:stedsnr" v="95155" />
	</node>
	<node lat="60.07544722379808" lon="9.76251388738734" id="-19410">
		<tag k="name" v="Enderud" />
		<tag k="place" v="isolated_dwelling" />
		<tag k="ssr:stedsnr" v="95345" />
	</node>
	<node lat="60.15393333407901" lon="9.756997230231466" id="-19415">
		<tag k="name" v="Øverstad" />
		<tag k="place" v="farm" />
		<tag k="ssr:stedsnr" v="95846" />
	</node>
	<node lat="60.21094999886401" lon="9.568541672647322" id="-19417">
		<tag k="name" v="Noreli" />
		<tag k="place" v="isolated_dwelling" />
		<tag k="ssr:stedsnr" v="96342" />
	</node>
	<node lat="60.22232500043271" lon="9.60592499289178" id="-19419">
		<tag k="name" v="Halsteinsplassen" />
		<tag k="place" v="isolated_dwelling" />
		<tag k="ssr:stedsnr" v="96658" />
	</node>
	<node lat="60.20043333633134" lon="9.600027777816196" id="-19420">
		<tag k="alt_name" v="Heia;Søndre Heia" />
		<tag k="name" v="Søre Heia" />
		<tag k="place" v="farm" />
		<tag k="ssr:stedsnr" v="125164" />
	</node>
	<node lat="60.15202500349602" lon="9.68244444043731" id="-19421">
		<tag k="name" v="Nordheim" />
		<tag k="place" v="isolated_dwelling" />
		<tag k="ssr:stedsnr" v="125801" />
	</node>
	<node lat="60.22244166619887" lon="9.633049999746028" id="-19423">
		<tag k="alt_name" v="Ørpen" />
		<tag k="fixme" v="consider place=hamlet" />
		<tag k="name" v="Nordre Ørpen" />
		<tag k="place" v="farm" />
		<tag k="ssr:stedsnr" v="126178" />
	</node>
	<node lat="60.15625043985427" lon="9.563720447586585" id="-19424">
		<tag k="fixme" v="consider place=hamlet" />
		<tag k="name" v="Flatin" />
		<tag k="place" v="farm" />
		<tag k="ssr:stedsnr" v="126404" />
	</node>
	<node lat="60.17147221932912" lon="9.688397220218873" id="-19427">
		<tag k="name" v="Skogvoll" />
		<tag k="place" v="farm" />
		<tag k="ssr:stedsnr" v="126734" />
	</node>
	<node lat="60.13421666556456" lon="9.69876944913672" id="-19428">
		<tag k="name" v="Sørstad" />
		<tag k="place" v="farm" />
		<tag k="ssr:stedsnr" v="126785" />
	</node>
	<node lat="60.16539722139513" lon="9.614680553312038" id="-19434">
		<tag k="name" v="Leirsplassen" />
		<tag k="place" v="farm" />
		<tag k="ssr:stedsnr" v="155861" />
	</node>
	<node lat="60.156772223757244" lon="9.627974992337908" id="-19442">
		<tag k="name" v="Furuly" />
		<tag k="place" v="farm" />
		<tag k="ssr:stedsnr" v="156561" />
	</node>
	<node lat="60.21591420380784" lon="9.606690158077345" id="-19447">
		<tag k="name" v="Sandum" />
		<tag k="place" v="hamlet" />
		<tag k="ssr:stedsnr" v="163494" />
	</node>
	<node lat="60.24724167097058" lon="9.612730564534033" id="-19450">
		<tag k="name" v="Maristuen" />
		<tag k="place" v="farm" />
		<tag k="ssr:stedsnr" v="181469" />
	</node>
	<node lat="60.20137499949041" lon="9.745011107318334" id="-19452">
		<tag k="name" v="Flathus" />
		<tag k="place" v="farm" />
		<tag k="ssr:stedsnr" v="186157" />
	</node>
	<node lat="60.2134750942128" lon="9.606317462635777" id="-19453">
		<tag k="alt_name" v="Søre Sandum" />
		<tag k="fixme" v="consider place=hamlet" />
		<tag k="name" v="Søndre Sandum" />
		<tag k="place" v="farm" />
		<tag k="ssr:stedsnr" v="186169" />
	</node>
	<node lat="60.22040555963472" lon="9.514583331845978" id="-19454">
		<tag k="historic" v="shieling" />
		<tag k="name" v="Leinesetra" />
		<tag k="place" v="isolated_dwelling" />
		<tag k="ssr:stedsnr" v="186269" />
	</node>
	<node lat="60.21831388814593" lon="9.537380554107802" id="-19455">
		<tag k="historic" v="shieling" />
		<tag k="name" v="Nedre Noresetra" />
		<tag k="place" v="isolated_dwelling" />
		<tag k="ssr:stedsnr" v="186272" />
	</node>
	<node lat="60.157922225762505" lon="9.850772219759198" id="-19457">
		<tag k="name" v="Gråberglia" />
		<tag k="place" v="isolated_dwelling" />
		<tag k="ssr:stedsnr" v="186797" />
	</node>
	<node lat="60.13578333481171" lon="9.789080554871203" id="-19459">
		<tag k="name" v="Melum" />
		<tag k="place" v="farm" />
		<tag k="ssr:stedsnr" v="186817" />
	</node>
	<node lat="60.13494444426121" lon="9.696838881135806" id="-19460">
		<tag k="name" v="Skogstad" />
		<tag k="place" v="farm" />
		<tag k="ssr:stedsnr" v="186823" />
	</node>
	<node lat="60.23433888902055" lon="9.633361110778074" id="-19466">
		<tag k="name" v="Bjørka" />
		<tag k="place" v="farm" />
		<tag k="ssr:stedsnr" v="187206" />
	</node>
	<node lat="60.169074999932675" lon="9.57599999532142" id="-19468">
		<tag k="name" v="Dynge" />
		<tag k="old_name" v="Dynga" />
		<tag k="place" v="farm" />
		<tag k="ssr:stedsnr" v="187436" />
	</node>
	<node lat="60.16913889050568" lon="9.613380564409013" id="-19469">
		<tag k="name" v="Øvre Leir" />
		<tag k="place" v="farm" />
		<tag k="ssr:stedsnr" v="187738" />
	</node>
	<node lat="60.1676871482162" lon="9.736538519756845" id="-19470">
		<tag k="fixme" v="consider place=hamlet" />
		<tag k="name" v="Hamremoen" />
		<tag k="place" v="farm" />
		<tag k="ssr:stedsnr" v="187740" />
	</node>
	<node lat="60.167713888415356" lon="9.7582555624967" id="-19472">
		<tag k="name" v="Bjørnåsen" />
		<tag k="place" v="isolated_dwelling" />
		<tag k="ssr:stedsnr" v="187747" />
	</node>
	<node lat="60.155502066253305" lon="9.657928277386976" id="-19473">
		<tag k="name" v="Søre Bjørkerud" />
		<tag k="place" v="farm" />
		<tag k="ssr:stedsnr" v="187751" />
	</node>
	<node lat="60.270961107584185" lon="9.65943332576051" id="-19474">
		<tag k="name" v="Skola" />
		<tag k="place" v="farm" />
		<tag k="ssr:stedsnr" v="188683" />
	</node>
	<node lat="60.227013884742064" lon="9.634561109642698" id="-19476">
		<tag k="name" v="Gåranplassen" />
		<tag k="place" v="farm" />
		<tag k="ssr:stedsnr" v="204626" />
	</node>
	<node lat="60.12223055170131" lon="9.755808329755173" id="-19480">
		<tag k="name" v="Glesne" />
		<tag k="place" v="farm" />
		<tag k="ssr:stedsnr" v="216016" />
	</node>
	<node lat="60.11434999731317" lon="9.66672222007679" id="-19485">
		<tag k="name" v="Ovestadhytta" />
		<tag k="place" v="isolated_dwelling" />
		<tag k="ssr:stedsnr" v="216311" />
	</node>
	<node lat="60.17120555136384" lon="9.568305559283276" id="-19488">
		<tag k="name" v="Ørnelislåtta" />
		<tag k="place" v="farm" />
		<tag k="ssr:stedsnr" v="216528" />
	</node>
	<node lat="60.16959166321721" lon="9.570033337216245" id="-19489">
		<tag k="name" v="Granstad" />
		<tag k="place" v="farm" />
		<tag k="ssr:stedsnr" v="216565" />
	</node>
	<node lat="60.16888055405579" lon="9.571286108130616" id="-19490">
		<tag k="name" v="Nordre Dannemark" />
		<tag k="place" v="farm" />
		<tag k="ssr:stedsnr" v="216566" />
	</node>
	<node lat="60.16981944551538" lon="9.660911119489644" id="-19497">
		<tag k="name" v="Valberg" />
		<tag k="place" v="isolated_dwelling" />
		<tag k="ssr:stedsnr" v="217547" />
	</node>
	<node lat="60.22144444873735" lon="9.628499993492783" id="-19502">
		<tag k="name" v="Nedre Ørpen" />
		<tag k="place" v="farm" />
		<tag k="ssr:stedsnr" v="218693" />
	</node>
	<node lat="60.2345472233064" lon="9.699666675057564" id="-19504">
		<tag k="name" v="Nordgarden" />
		<tag k="place" v="farm" />
		<tag k="ssr:stedsnr" v="276661" />
	</node>
	<node lat="60.282180551423245" lon="9.696522225474668" id="-19505">
		<tag k="alt_name" v="Søndre Ormerud" />
		<tag k="name" v="Søre Ormerud" />
=======
	<node id="-285375" lat="60.1409186249" lon="9.78836979066">
		<tag k="fixme" v="consider place=hamlet" />
		<tag k="name" v="Steinsrud" />
		<tag k="place" v="farm" />
		<tag k="ssr:stedsnr" v="611816" />
	</node>
	<node id="-285374" lat="60.2380638931" lon="9.60280832731">
		<tag k="name" v="Solvik" />
		<tag k="place" v="farm" />
		<tag k="ssr:stedsnr" v="611249" />
	</node>
	<node id="-285373" lat="60.2443638908" lon="9.60547500251">
		<tag k="name" v="Nordre Surteberg" />
		<tag k="place" v="farm" />
		<tag k="ssr:stedsnr" v="611248" />
	</node>
	<node id="-285372" lat="60.185580559" lon="9.55462499269">
		<tag k="historic" v="shieling" />
		<tag k="name" v="Urda" />
		<tag k="place" v="locality" />
		<tag k="ssr:stedsnr" v="611448" />
	</node>
	<node id="-285369" lat="60.2185444487" lon="9.60627222293">
		<tag k="fixme" v="consider place=hamlet" />
		<tag k="name" v="Nordre Sandum" />
		<tag k="place" v="farm" />
		<tag k="ssr:stedsnr" v="611184" />
	</node>
	<node id="-285357" lat="60.1384555565" lon="9.58074166613">
		<tag k="name" v="Nordli" />
		<tag k="place" v="locality" />
		<tag k="ssr:stedsnr" v="580583" />
	</node>
	<node id="-285356" lat="60.1309194465" lon="9.58903333949">
		<tag k="name" v="Bruse" />
		<tag k="place" v="isolated_dwelling" />
		<tag k="ssr:stedsnr" v="580576" />
	</node>
	<node id="-285351" lat="60.118125003" lon="9.74826389496">
		<tag k="name" v="Øvre Glesne" />
		<tag k="place" v="farm" />
		<tag k="ssr:stedsnr" v="580010" />
	</node>
	<node id="-285349" lat="60.2857527813" lon="9.69181943765">
		<tag k="alt_name" v="Søndre Ørgenvika" />
		<tag k="name" v="Søre Ørgenvika" />
		<tag k="place" v="farm" />
		<tag k="ssr:stedsnr" v="579977" />
	</node>
	<node id="-285348" lat="60.1504166624" lon="9.68812499746">
		<tag k="name" v="Nordre Råen" />
		<tag k="place" v="farm" />
		<tag k="ssr:stedsnr" v="580180" />
	</node>
	<node id="-285347" lat="60.1400027736" lon="9.69746943544">
		<tag k="name" v="Skogly" />
		<tag k="place" v="farm" />
		<tag k="ssr:stedsnr" v="580162" />
	</node>
	<node id="-285344" lat="60.298427777" lon="9.63183055017">
		<tag k="name" v="Fjellstad" />
		<tag k="place" v="farm" />
		<tag k="ssr:stedsnr" v="552868" />
	</node>
	<node id="-285342" lat="60.2863036325" lon="9.68956452944">
		<tag k="alt_name" v="Nordre Ørgenvika" />
		<tag k="fixme" v="consider place=hamlet" />
		<tag k="name" v="Ørgenvika" />
		<tag k="place" v="farm" />
		<tag k="ssr:stedsnr" v="552705" />
	</node>
	<node id="-285341" lat="60.2637527744" lon="9.56461943805">
		<tag k="historic" v="shieling" />
		<tag k="name" v="Veikåkersetra" />
		<tag k="place" v="locality" />
		<tag k="ssr:stedsnr" v="552110" />
	</node>
	<node id="-285337" lat="60.1588270091" lon="9.53112901833">
		<tag k="historic" v="shieling" />
		<tag k="name" v="Åsen" />
		<tag k="place" v="locality" />
		<tag k="ssr:stedsnr" v="551444" />
	</node>
	<node id="-285335" lat="60.2349638878" lon="9.57028889412">
		<tag k="name" v="Flagsetran" />
		<tag k="place" v="locality" />
		<tag k="ssr:stedsnr" v="551272" />
	</node>
	<node id="-285331" lat="60.1241583312" lon="9.66785834219">
		<tag k="historic" v="shieling" />
		<tag k="name" v="Reiulf-Råensetra" />
		<tag k="place" v="locality" />
		<tag k="ssr:stedsnr" v="550815" />
	</node>
	<node id="-285329" lat="60.1713833325" lon="9.61234999538">
		<tag k="name" v="Nordre Leir" />
		<tag k="place" v="farm" />
		<tag k="ssr:stedsnr" v="550747" />
	</node>
	<node id="-285328" lat="60.2199305582" lon="9.52785833935">
		<tag k="historic" v="shieling" />
		<tag k="name" v="Golbergsetra" />
		<tag k="place" v="locality" />
		<tag k="ssr:stedsnr" v="550261" />
	</node>
	<node id="-285326" lat="60.2088638872" lon="9.73939444302">
		<tag k="name" v="Søre Rishovd" />
		<tag k="place" v="farm" />
		<tag k="ssr:stedsnr" v="550184" />
	</node>
	<node id="-285325" lat="60.2145388845" lon="9.70967500124">
		<tag k="name" v="Dyrhovd" />
		<tag k="place" v="farm" />
		<tag k="ssr:stedsnr" v="550182" />
	</node>
	<node id="-285321" lat="60.1686611089" lon="9.6510361109">
		<tag k="alt_name" v="Bjertnes;Søndre Bjertnes" />
		<tag k="name" v="Søre Bjertnes" />
		<tag k="old_name" v="Bjerknes" />
		<tag k="place" v="farm" />
		<tag k="ssr:stedsnr" v="551763" />
	</node>
	<node id="-285320" lat="60.1306476838" lon="9.77670347017">
		<tag k="fixme" v="consider place=hamlet" />
		<tag k="name" v="Vassendrud" />
		<tag k="place" v="farm" />
		<tag k="ssr:stedsnr" v="544272" />
	</node>
	<node id="-285318" lat="60.1992472184" lon="9.60413333152">
		<tag k="alt_name" v="Søndre Maribråten" />
		<tag k="name" v="Søre Maribråten" />
		<tag k="place" v="locality" />
		<tag k="ssr:stedsnr" v="521493" />
	</node>
	<node id="-285317" lat="60.2018694405" lon="9.60110833077">
		<tag k="name" v="Nordre Heia" />
		<tag k="place" v="farm" />
		<tag k="ssr:stedsnr" v="521487" />
	</node>
	<node id="-285313" lat="60.2372277793" lon="9.63386388003">
		<tag k="name" v="Kleiverud" />
		<tag k="place" v="isolated_dwelling" />
		<tag k="ssr:stedsnr" v="520750" />
	</node>
	<node id="-285301" lat="60.1539777739" lon="9.74918610667">
		<tag k="name" v="Sværi" />
		<tag k="place" v="farm" />
		<tag k="ssr:stedsnr" v="430767" />
	</node>
	<node id="-285296" lat="60.1635855389" lon="9.71962041236">
		<tag k="fixme" v="consider place=hamlet" />
		<tag k="name" v="Slevika" />
		<tag k="place" v="farm" />
		<tag k="ssr:stedsnr" v="430749" />
	</node>
	<node id="-285294" lat="60.2305222241" lon="9.69635278433">
		<tag k="name" v="Haugen" />
		<tag k="place" v="isolated_dwelling" />
		<tag k="ssr:stedsnr" v="430197" />
	</node>
	<node id="-285291" lat="60.1247777817" lon="9.7838888917">
		<tag k="name" v="Krøderen" />
		<tag k="place" v="village" />
		<tag k="ssr:stedsnr" v="429821" />
	</node>
	<node id="-285288" lat="60.2163083359" lon="9.54700277798">
		<tag k="historic" v="shieling" />
		<tag k="name" v="Øvre Noresetra" />
		<tag k="place" v="locality" />
		<tag k="ssr:stedsnr" v="429462" />
	</node>
	<node id="-285286" lat="60.1555633577" lon="9.64120270954">
		<tag k="name" v="Ødegården" />
		<tag k="place" v="locality" />
		<tag k="ssr:stedsnr" v="424422" />
	</node>
	<node id="-285277" lat="60.1218666639" lon="9.71569445029">
		<tag k="historic" v="shieling" />
		<tag k="name" v="Flaglia" />
		<tag k="place" v="locality" />
		<tag k="ssr:stedsnr" v="398901" />
	</node>
	<node id="-285273" lat="60.2628833322" lon="9.68363610803">
		<tag k="name" v="Nordre Roskifte" />
		<tag k="place" v="farm" />
		<tag k="ssr:stedsnr" v="398650" />
	</node>
	<node id="-285272" lat="60.2783888901" lon="9.69598056299">
		<tag k="name" v="Nygård" />
		<tag k="place" v="farm" />
		<tag k="ssr:stedsnr" v="398648" />
	</node>
	<node id="-285267" lat="60.1679611138" lon="9.68024166692">
		<tag k="name" v="Valberg" />
		<tag k="place" v="isolated_dwelling" />
		<tag k="ssr:stedsnr" v="398565" />
	</node>
	<node id="-285266" lat="60.1691277772" lon="9.64764444573">
		<tag k="name" v="Nordre Bjertnes" />
		<tag k="place" v="farm" />
		<tag k="ssr:stedsnr" v="398555" />
	</node>
	<node id="-285257" lat="60.1433277798" lon="9.56682221992">
		<tag k="name" v="Fiskerly" />
		<tag k="place" v="locality" />
		<tag k="ssr:stedsnr" v="398280" />
	</node>
	<node id="-285255" lat="60.1456555575" lon="9.61598054729">
		<tag k="alt_name" v="Jo-Bu" />
		<tag k="name" v="Jobu" />
		<tag k="place" v="locality" />
		<tag k="ssr:stedsnr" v="398273" />
	</node>
	<node id="-285252" lat="60.1439083345" lon="9.72779722664">
		<tag k="name" v="Frydenhaug" />
		<tag k="place" v="farm" />
		<tag k="ssr:stedsnr" v="398048" />
	</node>
	<node id="-285251" lat="60.1235416705" lon="9.83118888555">
		<tag k="historic" v="shieling" />
		<tag k="name" v="Råaråsbråten" />
		<tag k="place" v="locality" />
		<tag k="ssr:stedsnr" v="397800" />
	</node>
	<node id="-285245" lat="60.3018305585" lon="9.64564999365">
		<tag k="name" v="Nedre Breivik" />
		<tag k="place" v="isolated_dwelling" />
		<tag k="ssr:stedsnr" v="370847" />
	</node>
	<node id="-285243" lat="60.2759444455" lon="9.69726388414">
		<tag k="name" v="Kalleslåtta" />
		<tag k="place" v="farm" />
		<tag k="ssr:stedsnr" v="370667" />
	</node>
	<node id="-285242" lat="60.2620249984" lon="9.67782222886">
		<tag k="alt_name" v="Søndre Roskifte" />
		<tag k="name" v="Roskifte" />
		<tag k="place" v="farm" />
		<tag k="ssr:stedsnr" v="370647" />
	</node>
	<node id="-285240" lat="60.2988777785" lon="9.52893610472">
		<tag k="name" v="Fjellheim" />
		<tag k="place" v="isolated_dwelling" />
		<tag k="ssr:stedsnr" v="370092" />
	</node>
	<node id="-285238" lat="60.154875002" lon="9.74477500389">
		<tag k="name" v="Skinnessund" />
		<tag k="place" v="farm" />
		<tag k="ssr:stedsnr" v="369761" />
	</node>
	<node id="-285233" lat="60.2322999966" lon="9.60058610774">
		<tag k="name" v="Surtebergplassen" />
		<tag k="place" v="farm" />
		<tag k="ssr:stedsnr" v="369196" />
	</node>
	<node id="-285231" lat="60.177802777" lon="9.62284444041">
		<tag k="name" v="Fagernes" />
		<tag k="place" v="farm" />
		<tag k="ssr:stedsnr" v="369124" />
	</node>
	<node id="-285230" lat="60.137374996" lon="9.59583055306">
		<tag k="name" v="Mellom-Grimeli" />
		<tag k="place" v="farm" />
		<tag k="ssr:stedsnr" v="368839" />
	</node>
	<node id="-285229" lat="60.1315666702" lon="9.58582778292">
		<tag k="name" v="Vest-Grimeli" />
		<tag k="place" v="farm" />
		<tag k="ssr:stedsnr" v="368461" />
	</node>
	<node id="-285228" lat="60.2409361132" lon="9.64163333037">
		<tag k="name" v="Øvre Haugen" />
		<tag k="place" v="farm" />
		<tag k="ssr:stedsnr" v="368275" />
	</node>
	<node id="-285226" lat="60.2432734595" lon="9.60436941355">
		<tag k="name" v="Søre Surteberg" />
		<tag k="place" v="farm" />
		<tag k="ssr:stedsnr" v="363400" />
	</node>
	<node id="-285200" lat="60.1430833357" lon="9.56719166836">
		<tag k="name" v="Jegerly" />
		<tag k="place" v="locality" />
		<tag k="ssr:stedsnr" v="337328" />
	</node>
	<node id="-285197" lat="60.1838888906" lon="9.61960556352">
		<tag k="amenity" v="nursing_home" />
		<tag k="name" v="Kryllingheimen" />
		<tag k="ssr:stedsnr" v="337059" />
	</node>
	<node id="-285188" lat="60.2606777779" lon="9.68201111849">
		<tag k="name" v="Spillhaug" />
		<tag k="place" v="farm" />
		<tag k="ssr:stedsnr" v="310634" />
	</node>
	<node id="-285185" lat="60.2740694451" lon="9.59553055599">
		<tag k="name" v="Heimsetra" />
		<tag k="place" v="locality" />
		<tag k="ssr:stedsnr" v="309673" />
	</node>
	<node id="-285184" lat="60.2905527801" lon="9.5586416658">
		<tag k="name" v="Hølsetra" />
		<tag k="place" v="locality" />
		<tag k="ssr:stedsnr" v="309065" />
	</node>
	<node id="-285182" lat="60.0764416669" lon="9.76219721748">
		<tag k="name" v="Medrud" />
		<tag k="place" v="farm" />
		<tag k="ssr:stedsnr" v="308868" />
	</node>
	<node id="-285181" lat="60.1473185207" lon="9.71394020629">
		<tag k="fixme" v="consider place=hamlet" />
		<tag k="name" v="Herbrandsbråtan" />
		<tag k="place" v="farm" />
		<tag k="ssr:stedsnr" v="308785" />
	</node>
	<node id="-285180" lat="60.1488330633" lon="9.69304926962">
		<tag k="name" v="Råen" />
		<tag k="place" v="hamlet" />
		<tag k="ssr:stedsnr" v="308781" />
	</node>
	<node id="-285178" lat="60.1667666632" lon="9.7528833317">
		<tag k="name" v="Kittilsbråtan" />
		<tag k="place" v="isolated_dwelling" />
		<tag k="ssr:stedsnr" v="308755" />
	</node>
	<node id="-285177" lat="60.1640416665" lon="9.61635000432">
		<tag k="name" v="Nordre Bjøre" />
		<tag k="place" v="farm" />
		<tag k="ssr:stedsnr" v="308737" />
	</node>
	<node id="-285176" lat="60.1686694449" lon="9.56107777375">
		<tag k="name" v="Rundskogen" />
		<tag k="place" v="hamlet" />
		<tag k="ssr:stedsnr" v="308425" />
	</node>
	<node id="-285174" lat="60.1638416682" lon="9.58169721805">
		<tag k="name" v="Jokerud" />
		<tag k="place" v="locality" />
		<tag k="ssr:stedsnr" v="308371" />
	</node>
	<node id="-285172" lat="60.2363305517" lon="9.60200278607">
		<tag k="name" v="Lia" />
		<tag k="place" v="isolated_dwelling" />
		<tag k="ssr:stedsnr" v="308228" />
	</node>
	<node id="-285171" lat="60.228197225" lon="9.60266110637">
		<tag k="name" v="Hagan" />
		<tag k="place" v="farm" />
		<tag k="ssr:stedsnr" v="308188" />
	</node>
	<node id="-285170" lat="60.2191250037" lon="9.72509722156">
		<tag k="name" v="Mjellhovd" />
		<tag k="place" v="isolated_dwelling" />
		<tag k="ssr:stedsnr" v="308185" />
	</node>
	<node id="-285168" lat="60.2243888878" lon="9.64761388274">
		<tag k="name" v="Langebakke" />
		<tag k="place" v="isolated_dwelling" />
		<tag k="ssr:stedsnr" v="308169" />
	</node>
	<node id="-285167" lat="60.2155694436" lon="9.63286111429">
		<tag k="name" v="Vinna" />
		<tag k="place" v="farm" />
		<tag k="ssr:stedsnr" v="308151" />
	</node>
	<node id="-285166" lat="60.1833472383" lon="9.60847558851">
		<tag k="name" v="Nore" />
		<tag k="place" v="hamlet" />
		<tag k="ssr:stedsnr" v="308127" />
	</node>
	<node id="-285163" lat="60.1302138845" lon="9.77726667121">
		<tag k="name" v="Nordre Vassendrud" />
		<tag k="old_name" v="Nord-Vassendrud" />
		<tag k="place" v="farm" />
		<tag k="ssr:stedsnr" v="301245" />
	</node>
	<node id="-285162" lat="60.1372194413" lon="9.59239443582">
		<tag k="historic" v="shieling" />
		<tag k="name" v="Bjøresetra" />
		<tag k="place" v="locality" />
		<tag k="ssr:stedsnr" v="216584" />
	</node>
	<node id="-285161" lat="60.1688805541" lon="9.57128610813">
		<tag k="name" v="Nordre Dannemark" />
		<tag k="place" v="farm" />
		<tag k="ssr:stedsnr" v="216566" />
	</node>
	<node id="-285160" lat="60.1695916632" lon="9.57003333722">
		<tag k="name" v="Granstad" />
		<tag k="place" v="farm" />
		<tag k="ssr:stedsnr" v="216565" />
	</node>
	<node id="-285157" lat="60.1712055514" lon="9.56830555928">
		<tag k="name" v="Ørnelislåtta" />
		<tag k="place" v="farm" />
		<tag k="ssr:stedsnr" v="216528" />
	</node>
	<node id="-285146" lat="60.2270138847" lon="9.63456110964">
		<tag k="name" v="Gåranplassen" />
>>>>>>> e1d4bc35ff8a6074a6f2e91616a996b547c36f15
		<tag k="place" v="farm" />
		<tag k="ssr:stedsnr" v="204626" />
	</node>
<<<<<<< HEAD
	<node lat="60.140547225349096" lon="9.745858341099195" id="-19509">
		<tag k="name" v="Nedre Skinnes" />
		<tag k="place" v="farm" />
		<tag k="ssr:stedsnr" v="277047" />
	</node>
	<node lat="60.14386110822488" lon="9.655086114459081" id="-19512">
		<tag k="name" v="Nedre Hovden" />
		<tag k="place" v="farm" />
		<tag k="ssr:stedsnr" v="277272" />
	</node>
	<node lat="60.11078611130695" lon="9.658438897492646" id="-19514">
		<tag k="name" v="Rensla" />
		<tag k="place" v="isolated_dwelling" />
		<tag k="ssr:stedsnr" v="277297" />
	</node>
	<node lat="60.17815277934525" lon="9.70738611441026" id="-19516">
		<tag k="name" v="Åsen" />
		<tag k="place" v="isolated_dwelling" />
		<tag k="ssr:stedsnr" v="277763" />
	</node>
	<node lat="60.15234999729624" lon="9.755527780400422" id="-19518">
		<tag k="name" v="Strømstad" />
		<tag k="place" v="farm" />
		<tag k="ssr:stedsnr" v="277860" />
	</node>
	<node lat="60.174705551385884" lon="9.561241664449158" id="-19519">
		<tag k="historic" v="shieling" />
		<tag k="name" v="Fossheim" />
		<tag k="place" v="isolated_dwelling" />
		<tag k="ssr:stedsnr" v="278161" />
	</node>
	<node lat="60.13021388450059" lon="9.77726667121297" id="-19524">
		<tag k="name" v="Nordre Vassendrud" />
		<tag k="old_name" v="Nord-Vassendrud" />
		<tag k="place" v="farm" />
		<tag k="ssr:stedsnr" v="301245" />
	</node>
	<node lat="60.183347238348745" lon="9.608475588505106" id="-19526">
		<tag k="name" v="Nore" />
		<tag k="place" v="hamlet" />
		<tag k="ssr:stedsnr" v="308127" />
	</node>
	<node lat="60.22438888779685" lon="9.647613882744668" id="-19527">
		<tag k="name" v="Langebakke" />
		<tag k="place" v="isolated_dwelling" />
		<tag k="ssr:stedsnr" v="308169" />
	</node>
	<node lat="60.236330551723704" lon="9.602002786068423" id="-19528">
		<tag k="name" v="Lia" />
		<tag k="place" v="isolated_dwelling" />
		<tag k="ssr:stedsnr" v="308228" />
	</node>
	<node lat="60.168669444908026" lon="9.561077773753304" id="-19530">
		<tag k="name" v="Rundskogen" />
		<tag k="place" v="hamlet" />
		<tag k="ssr:stedsnr" v="308425" />
	</node>
	<node lat="60.21912500370282" lon="9.725097221564058" id="-19532">
		<tag k="name" v="Mjellhovd" />
		<tag k="place" v="isolated_dwelling" />
		<tag k="ssr:stedsnr" v="308185" />
	</node>
	<node lat="60.22819722498728" lon="9.602661106372112" id="-19533">
		<tag k="name" v="Hagan" />
		<tag k="place" v="farm" />
		<tag k="ssr:stedsnr" v="308188" />
	</node>
	<node lat="60.16384166816758" lon="9.581697218047253" id="-19534">
		<tag k="name" v="Jokerud" />
		<tag k="place" v="locality" />
		<tag k="ssr:stedsnr" v="308371" />
	</node>
	<node lat="60.16404166652219" lon="9.616350004321772" id="-19536">
		<tag k="name" v="Nordre Bjøre" />
		<tag k="place" v="farm" />
		<tag k="ssr:stedsnr" v="308737" />
	</node>
	<node lat="60.14883306332813" lon="9.693049269622373" id="-19537">
		<tag k="name" v="Råen" />
		<tag k="place" v="hamlet" />
		<tag k="ssr:stedsnr" v="308781" />
	</node>
	<node lat="60.147318520690305" lon="9.713940206285415" id="-19538">
		<tag k="fixme" v="consider place=hamlet" />
		<tag k="name" v="Herbrandsbråtan" />
		<tag k="place" v="farm" />
		<tag k="ssr:stedsnr" v="308785" />
	</node>
	<node lat="60.07644166688777" lon="9.76219721747927" id="-19542">
		<tag k="name" v="Medrud" />
		<tag k="place" v="farm" />
		<tag k="ssr:stedsnr" v="308868" />
	</node>
	<node lat="60.27406944511787" lon="9.595530555994912" id="-19543">
		<tag k="name" v="Heimsetra" />
		<tag k="place" v="locality" />
		<tag k="ssr:stedsnr" v="309673" />
	</node>
	<node lat="60.14304653026735" lon="9.567170543209697" id="-19549">
		<tag k="name" v="Jegerly" />
		<tag k="place" v="isolated_dwelling" />
		<tag k="ssr:stedsnr" v="337328" />
	</node>
	<node lat="60.1315666701828" lon="9.585827782923921" id="-19566">
		<tag k="name" v="Vest-Grimeli" />
		<tag k="place" v="farm" />
		<tag k="ssr:stedsnr" v="368461" />
	</node>
	<node lat="60.13737499596892" lon="9.595830553056611" id="-19567">
		<tag k="name" v="Mellom-Grimeli" />
		<tag k="place" v="farm" />
		<tag k="ssr:stedsnr" v="368839" />
	</node>
	<node lat="60.232299996558936" lon="9.600586107741966" id="-19569">
		<tag k="name" v="Surtebergplassen" />
		<tag k="place" v="farm" />
		<tag k="ssr:stedsnr" v="369196" />
	</node>
	<node lat="60.154875002039205" lon="9.744775003888922" id="-19574">
		<tag k="name" v="Skinnessund" />
		<tag k="place" v="farm" />
		<tag k="ssr:stedsnr" v="369761" />
	</node>
	<node lat="60.298877778501506" lon="9.528936104719888" id="-19576">
		<tag k="name" v="Fjellheim" />
		<tag k="place" v="isolated_dwelling" />
		<tag k="ssr:stedsnr" v="370092" />
	</node>
	<node lat="60.26202499837166" lon="9.677822228864438" id="-19577">
		<tag k="alt_name" v="Søndre Roskifte" />
		<tag k="name" v="Roskifte" />
		<tag k="place" v="farm" />
		<tag k="ssr:stedsnr" v="370647" />
	</node>
	<node lat="60.301830558460125" lon="9.645649993653828" id="-19579">
		<tag k="name" v="Nedre Breivik" />
		<tag k="place" v="isolated_dwelling" />
		<tag k="ssr:stedsnr" v="370847" />
	</node>
	<node lat="60.12354167052596" lon="9.831188885548675" id="-19584">
		<tag k="historic" v="shieling" />
		<tag k="name" v="Råaråsbråten" />
		<tag k="place" v="isolated_dwelling" />
		<tag k="ssr:stedsnr" v="397800" />
	</node>
	<node lat="60.14390833445936" lon="9.72779722664132" id="-19586">
		<tag k="name" v="Frydenhaug" />
		<tag k="place" v="farm" />
		<tag k="ssr:stedsnr" v="398048" />
	</node>
	<node lat="60.16912777720325" lon="9.647644445728352" id="-19594">
		<tag k="name" v="Nordre Bjertnes" />
		<tag k="place" v="farm" />
		<tag k="ssr:stedsnr" v="398555" />
	</node>
	<node lat="60.14562854354611" lon="9.616037433751096" id="-19595">
		<tag k="alt_name" v="Jo-Bu" />
		<tag k="name" v="Jobu" />
		<tag k="place" v="locality" />
		<tag k="ssr:stedsnr" v="398273" />
	</node>
	<node lat="60.16796111382202" lon="9.680241666923434" id="-19598">
		<tag k="name" v="Valberg" />
		<tag k="place" v="isolated_dwelling" />
		<tag k="ssr:stedsnr" v="398565" />
	</node>
	<node lat="60.2783888900913" lon="9.695980562993308" id="-19601">
		<tag k="name" v="Nygård" />
		<tag k="place" v="farm" />
		<tag k="ssr:stedsnr" v="398648" />
	</node>
	<node lat="60.26288333215048" lon="9.68363610802526" id="-19602">
		<tag k="name" v="Nordre Roskifte" />
		<tag k="place" v="farm" />
		<tag k="ssr:stedsnr" v="398650" />
	</node>
	<node lat="60.121866663893094" lon="9.715694450290878" id="-19603">
		<tag k="historic" v="shieling" />
		<tag k="name" v="Flaglia" />
		<tag k="place" v="isolated_dwelling" />
		<tag k="ssr:stedsnr" v="398901" />
	</node>
	<node lat="60.15556335773575" lon="9.641202709544348" id="-19613">
		<tag k="name" v="Ødegården" />
		<tag k="place" v="locality" />
		<tag k="ssr:stedsnr" v="424422" />
	</node>
	<node lat="60.182316667711" lon="9.662016674403702" id="-19615">
		<tag k="name" v="Veslesetra" />
		<tag k="place" v="locality" />
		<tag k="ssr:stedsnr" v="429144" />
	</node>
	<node lat="60.182080552860846" lon="9.637113895615188" id="-19616">
		<tag k="name" v="Bergheim" />
		<tag k="place" v="farm" />
		<tag k="ssr:stedsnr" v="429145" />
	</node>
	<node lat="60.21630833590487" lon="9.547002777977825" id="-19617">
		<tag k="historic" v="shieling" />
		<tag k="name" v="Øvre Noresetra" />
		<tag k="place" v="isolated_dwelling" />
		<tag k="ssr:stedsnr" v="429462" />
	</node>
	<node lat="60.163585538920096" lon="9.71962041236421" id="-19621">
		<tag k="fixme" v="consider place=hamlet" />
		<tag k="name" v="Slevika" />
		<tag k="place" v="farm" />
		<tag k="ssr:stedsnr" v="430749" />
	</node>
	<node lat="60.15397777385267" lon="9.749186106673966" id="-19626">
		<tag k="name" v="Sværi" />
		<tag k="place" v="farm" />
		<tag k="ssr:stedsnr" v="430767" />
	</node>
	<node lat="60.25684999591327" lon="9.565874997168526" id="-19629">
		<tag k="historic" v="shieling" />
		<tag k="name" v="Surtebergsetra" />
		<tag k="place" v="isolated_dwelling" />
		<tag k="ssr:stedsnr" v="431921" />
	</node>
	<node lat="60.120911589564244" lon="9.630930800869546" id="-19630">
		<tag k="historic" v="shieling" />
		<tag k="name" v="Råensetra" />
		<tag k="place" v="isolated_dwelling" />
		<tag k="ssr:stedsnr" v="447320" />
	</node>
	<node lat="60.12671944105056" lon="9.668602784915098" id="-19632">
		<tag k="name" v="Sør-Råensetra" />
		<tag k="place" v="locality" />
		<tag k="ssr:stedsnr" v="508377" />
	</node>
	<node lat="60.1498027806041" lon="9.740425002504297" id="-19636">
		<tag k="leisure" v="pitch" />
		<tag k="name" v="Idrettsplass" />
		<tag k="ssr:stedsnr" v="519058" />
	</node>
	<node lat="60.170302773344424" lon="9.57376945032029" id="-19638">
		<tag k="name" v="Evju" />
		<tag k="place" v="isolated_dwelling" />
		<tag k="ssr:stedsnr" v="519569" />
	</node>
	<node lat="60.13392222190213" lon="9.584769452320844" id="-19645">
		<tag k="name" v="Nilse-Grimeli" />
		<tag k="place" v="locality" />
		<tag k="ssr:stedsnr" v="519642" />
	</node>
	<node lat="60.237227779307176" lon="9.633863880029567" id="-19649">
		<tag k="name" v="Kleiverud" />
		<tag k="place" v="isolated_dwelling" />
		<tag k="ssr:stedsnr" v="520750" />
	</node>
	<node lat="60.201869440528384" lon="9.601108330766007" id="-19652">
		<tag k="name" v="Nordre Heia" />
		<tag k="place" v="farm" />
		<tag k="ssr:stedsnr" v="521487" />
	</node>
	<node lat="60.199247218415785" lon="9.60413333152338" id="-19653">
		<tag k="alt_name" v="Søndre Maribråten" />
		<tag k="name" v="Søre Maribråten" />
		<tag k="place" v="locality" />
		<tag k="ssr:stedsnr" v="521493" />
	</node>
	<node lat="60.2145388844933" lon="9.709675001242662" id="-19660">
		<tag k="name" v="Dyrhovd" />
		<tag k="place" v="farm" />
		<tag k="ssr:stedsnr" v="550182" />
	</node>
	<node lat="60.20886388718366" lon="9.739394443019538" id="-19661">
		<tag k="name" v="Søre Rishovd" />
		<tag k="place" v="farm" />
		<tag k="ssr:stedsnr" v="550184" />
	</node>
	<node lat="60.219930558208134" lon="9.527858339352676" id="-19663">
		<tag k="historic" v="shieling" />
		<tag k="name" v="Golbergsetra" />
		<tag k="place" v="isolated_dwelling" />
		<tag k="ssr:stedsnr" v="550261" />
	</node>
	<node lat="60.23496388782296" lon="9.570288894117668" id="-19664">
		<tag k="name" v="Flagsetran" />
		<tag k="place" v="locality" />
		<tag k="ssr:stedsnr" v="551272" />
	</node>
	<node lat="60.16866110893426" lon="9.651036110895664" id="-19666">
		<tag k="alt_name" v="Bjertnes;Søndre Bjertnes" />
		<tag k="name" v="Søre Bjertnes" />
		<tag k="old_name" v="Bjerknes" />
		<tag k="place" v="farm" />
		<tag k="ssr:stedsnr" v="551763" />
	</node>
	<node lat="60.29842777695514" lon="9.631830550168639" id="-19668">
		<tag k="name" v="Fjellstad" />
		<tag k="place" v="farm" />
		<tag k="ssr:stedsnr" v="552868" />
	</node>
	<node lat="60.28575278129388" lon="9.691819437645645" id="-19670">
		<tag k="alt_name" v="Søndre Ørgenvika" />
		<tag k="name" v="Søre Ørgenvika" />
		<tag k="place" v="farm" />
		<tag k="ssr:stedsnr" v="579977" />
	</node>
	<node lat="60.140002773637505" lon="9.6974694354447" id="-19671">
		<tag k="name" v="Skogly" />
		<tag k="place" v="farm" />
		<tag k="ssr:stedsnr" v="580162" />
	</node>
	<node lat="60.150416662371875" lon="9.68812499745964" id="-19672">
		<tag k="name" v="Nordre Råen" />
		<tag k="place" v="farm" />
		<tag k="ssr:stedsnr" v="580180" />
	</node>
	<node lat="60.154697225732626" lon="9.631011106683365" id="-19675">
		<tag k="name" v="Arnestua" />
		<tag k="place" v="locality" />
		<tag k="ssr:stedsnr" v="580532" />
	</node>
	<node lat="60.130919446488306" lon="9.589033339487955" id="-19679">
		<tag k="name" v="Bruse" />
		<tag k="place" v="isolated_dwelling" />
		<tag k="ssr:stedsnr" v="580576" />
	</node>
	<node lat="60.138403110403004" lon="9.580663360403824" id="-19680">
		<tag k="name" v="Nordli" />
		<tag k="place" v="isolated_dwelling" />
		<tag k="ssr:stedsnr" v="580583" />
	</node>
	<node lat="60.153247224125636" lon="9.75297222290608" id="-19682">
		<tag k="name" v="Nygård" />
		<tag k="place" v="farm" />
		<tag k="ssr:stedsnr" v="580852" />
	</node>
	<node lat="60.244363890840766" lon="9.605475002509944" id="-19687">
		<tag k="name" v="Nordre Surteberg" />
		<tag k="place" v="farm" />
		<tag k="ssr:stedsnr" v="611248" />
	</node>
	<node lat="60.23806389313523" lon="9.602808327305336" id="-19688">
		<tag k="name" v="Solvik" />
		<tag k="place" v="farm" />
		<tag k="ssr:stedsnr" v="611249" />
	</node>
	<node lat="60.1303555517952" lon="9.696594440610696" id="-19692">
		<tag k="name" v="Tjernli" />
		<tag k="place" v="farm" />
		<tag k="ssr:stedsnr" v="611826" />
	</node>
	<node lat="60.1855805590483" lon="9.554624992688687" id="-19695">
		<tag k="historic" v="shieling" />
		<tag k="name" v="Urda" />
		<tag k="place" v="isolated_dwelling" />
		<tag k="ssr:stedsnr" v="611448" />
	</node>
	<node lat="60.28275277481016" lon="9.697166665418116" id="-19696">
		<tag k="alt_name" v="Nordre Ormerud" />
		<tag k="name" v="Ormerud" />
		<tag k="place" v="farm" />
		<tag k="ssr:stedsnr" v="612656" />
	</node>
	<node lat="60.28109415832561" lon="9.66993024191127" id="-19697">
		<tag k="name" v="Heringrud" />
		<tag k="place" v="isolated_dwelling" />
		<tag k="ssr:stedsnr" v="612658" />
	</node>
	<node lat="60.259580556010484" lon="9.742291658380127" id="-19698">
		<tag k="name" v="Haugerudåshytta" />
		<tag k="place" v="isolated_dwelling" />
		<tag k="ssr:stedsnr" v="613738" />
	</node>
	<node lat="60.20360961145278" lon="9.631247446020621" id="-19700">
		<tag k="name" v="Øvre Bratterud" />
		<tag k="place" v="farm" />
		<tag k="ssr:stedsnr" v="629663" />
	</node>
	<node lat="60.143986110891895" lon="9.725530559047417" id="-19704">
		<tag k="name" v="Sørli" />
		<tag k="place" v="farm" />
		<tag k="ssr:stedsnr" v="640045" />
	</node>
	<node lat="60.121786111161" lon="9.741488897423409" id="-19709">
		<tag k="name" v="Bråtastua" />
		<tag k="place" v="isolated_dwelling" />
		<tag k="ssr:stedsnr" v="640069" />
	</node>
	<node lat="60.21567500190003" lon="9.631008332837188" id="-19724">
		<tag k="name" v="Vinna" />
		<tag k="place" v="farm" />
		<tag k="ssr:stedsnr" v="642555" />
	</node>
	<node lat="60.21897802501656" lon="9.527021930867283" id="-19725">
		<tag k="historic" v="shieling" />
		<tag k="name" v="Rundsetra" />
		<tag k="place" v="isolated_dwelling" />
		<tag k="ssr:stedsnr" v="642771" />
	</node>
	<node lat="60.19481666991922" lon="9.54638333842097" id="-19727">
		<tag k="name" v="Vestre Fosslia" />
		<tag k="place" v="farm" />
		<tag k="ssr:stedsnr" v="642818" />
	</node>
	<node lat="60.184788892189616" lon="9.635833332375556" id="-19729">
		<tag k="name" v="Hagan" />
		<tag k="place" v="farm" />
		<tag k="ssr:stedsnr" v="733159" />
	</node>
	<node lat="60.181674996977115" lon="9.605397221995915" id="-19730">
		<tag k="alt_name" v="Bø" />
		<tag k="name" v="Nordre Bø" />
		<tag k="place" v="farm" />
		<tag k="ssr:stedsnr" v="733161" />
	</node>
	<node lat="60.15612222453988" lon="9.685555554135528" id="-19734">
		<tag k="name" v="Hallen" />
		<tag k="place" v="farm" />
		<tag k="ssr:stedsnr" v="733754" />
	</node>
	<node lat="60.11211666678689" lon="9.694961111238369" id="-19735">
		<tag k="name" v="Brekka" />
		<tag k="place" v="isolated_dwelling" />
		<tag k="ssr:stedsnr" v="733824" />
	</node>
	<node lat="60.25869999802572" lon="9.679291664818281" id="-19740">
		<tag k="name" v="Flata" />
		<tag k="place" v="farm" />
		<tag k="ssr:stedsnr" v="734666" />
	</node>
	<node lat="60.1480055551862" lon="9.694997213867087" id="-19744">
		<tag k="name" v="Helge-Råen" />
		<tag k="place" v="farm" />
		<tag k="ssr:stedsnr" v="762208" />
	</node>
	<node lat="60.14152499827252" lon="9.694974995851437" id="-19747">
		<tag k="name" v="Hestehagen" />
		<tag k="place" v="farm" />
		<tag k="ssr:stedsnr" v="762186" />
	</node>
	<node lat="60.20216388757575" lon="9.605016668761689" id="-19761">
		<tag k="name" v="Maribråten" />
		<tag k="place" v="isolated_dwelling" />
		<tag k="ssr:stedsnr" v="763535" />
	</node>
	<node lat="60.201402774252394" lon="9.608447214404894" id="-19771">
		<tag k="name" v="Odden" />
		<tag k="place" v="farm" />
		<tag k="ssr:stedsnr" v="793163" />
	</node>
	<node lat="60.201433337465694" lon="9.627763891484225" id="-19772">
		<tag k="name" v="Kleiva" />
		<tag k="place" v="isolated_dwelling" />
		<tag k="ssr:stedsnr" v="793165" />
	</node>
	<node lat="60.24156944106201" lon="9.640347221789227" id="-19774">
		<tag k="name" v="Nedre Haugen" />
		<tag k="place" v="farm" />
		<tag k="ssr:stedsnr" v="793256" />
	</node>
	<node lat="60.10434166363248" lon="9.698452778773564" id="-19775">
		<tag k="name" v="Fyransetra" />
		<tag k="place" v="locality" />
		<tag k="ssr:stedsnr" v="793844" />
	</node>
	<node lat="60.1642277817208" lon="9.736230560158148" id="-19779">
		<tag k="name" v="Solli" />
		<tag k="place" v="farm" />
		<tag k="ssr:stedsnr" v="794758" />
	</node>
	<node lat="60.17037777661502" lon="9.68080554879614" id="-19780">
		<tag k="name" v="Søndre Gren" />
		<tag k="place" v="farm" />
		<tag k="ssr:stedsnr" v="794759" />
	</node>
	<node lat="60.150233332063856" lon="9.625658326455275" id="-19787">
		<tag k="name" v="Libekk" />
		<tag k="place" v="isolated_dwelling" />
		<tag k="ssr:stedsnr" v="823256" />
	</node>
	<node lat="60.15056215053768" lon="9.652925025801773" id="-19788">
		<tag k="name" v="Andreson" />
		<tag k="place" v="locality" />
		<tag k="ssr:stedsnr" v="823261" />
	</node>
	<node lat="60.17400555138369" lon="9.604930555746236" id="-19792">
		<tag k="name" v="Sørli" />
		<tag k="place" v="isolated_dwelling" />
		<tag k="ssr:stedsnr" v="823091" />
	</node>
	<node lat="60.232780560041704" lon="9.699524995210057" id="-19799">
		<tag k="name" v="Oppistugu" />
		<tag k="place" v="farm" />
		<tag k="ssr:stedsnr" v="823553" />
	</node>
	<node lat="60.1549617605157" lon="9.655088361114997" id="-19806">
		<tag k="fixme" v="consider place=hamlet" />
		<tag k="name" v="Bjørkerud" />
		<tag k="place" v="farm" />
		<tag k="ssr:stedsnr" v="849451" />
	</node>
	<node lat="60.177128777575575" lon="9.604225481037911" id="-19807">
		<tag k="alt_name" v="Nordre Lesteberg" />
		<tag k="fixme" v="consider place=hamlet" />
		<tag k="name" v="Lesteberg" />
		<tag k="place" v="farm" />
		<tag k="ssr:stedsnr" v="854122" />
	</node>
	<node lat="60.12966388690825" lon="9.63619165908303" id="-19809">
		<tag k="historic" v="shieling" />
		<tag k="name" v="Haslerudsetra" />
		<tag k="place" v="isolated_dwelling" />
		<tag k="ssr:stedsnr" v="854794" />
	</node>
	<node lat="60.17631944890753" lon="9.558847229225622" id="-19814">
		<tag k="name" v="Haugen" />
		<tag k="place" v="farm" />
		<tag k="ssr:stedsnr" v="854435" />
	</node>
	<node lat="60.21273333395122" lon="9.572730550743922" id="-19815">
		<tag k="name" v="Sandumseter" />
		<tag k="ssr:stedsnr" v="854465" />
		<tag k="tourism" v="hotel" />
	</node>
	<node lat="60.21040833624718" lon="9.555888890898776" id="-19816">
		<tag k="historic" v="shieling" />
		<tag k="name" v="Puttansetra" />
		<tag k="place" v="isolated_dwelling" />
		<tag k="ssr:stedsnr" v="854467" />
	</node>
	<node lat="60.14491666297892" lon="9.773488894252557" id="-19817">
		<tag k="name" v="Evenstad" />
		<tag k="place" v="farm" />
		<tag k="ssr:stedsnr" v="854771" />
	</node>
	<node lat="60.160950004266375" lon="9.50228888541934" id="-19820">
		<tag k="name" v="Kolbu" />
		<tag k="place" v="locality" />
		<tag k="ssr:stedsnr" v="855448" />
	</node>
	<node lat="60.29391666447107" lon="9.637011107204565" id="-19824">
		<tag k="historic" v="shieling" />
		<tag k="name" v="Setra" />
		<tag k="place" v="isolated_dwelling" />
		<tag k="ssr:stedsnr" v="856690" />
	</node>
	<node lat="60.26025623337886" lon="9.626120800492505" id="-19825">
		<tag k="fixme" v="consider place=hamlet" />
		<tag k="name" v="Ringnes" />
		<tag k="place" v="farm" />
		<tag k="ssr:stedsnr" v="856648" />
	</node>
	<node lat="60.27236666771061" lon="9.696338896114415" id="-19826">
		<tag k="name" v="Runningen" />
		<tag k="place" v="farm" />
		<tag k="ssr:stedsnr" v="856654" />
	</node>
	<node lat="60.2881027756735" lon="9.662538894625673" id="-19828">
		<tag k="name" v="Moen" />
		<tag k="place" v="isolated_dwelling" />
		<tag k="ssr:stedsnr" v="856677" />
	</node>
	<node lat="60.2502916692704" lon="9.61520554960009" id="-19829">
		<tag k="name" v="Movika" />
		<tag k="place" v="farm" />
		<tag k="ssr:stedsnr" v="856748" />
	</node>
	<node lat="60.299422219667015" lon="9.597891667374395" id="-19830">
		<tag k="historic" v="shieling" />
		<tag k="name" v="Breiviksetra" />
		<tag k="place" v="isolated_dwelling" />
		<tag k="ssr:stedsnr" v="856848" />
	</node>
	<node lat="60.169846174606" lon="9.61471144673629" id="-19831">
		<tag k="fixme" v="consider place=hamlet" />
		<tag k="name" v="Leir" />
		<tag k="place" v="farm" />
		<tag k="ssr:stedsnr" v="872387" />
	</node>
	<node lat="60.155122220409204" lon="9.643294449528055" id="-19832">
		<tag k="name" v="Søre Ødegården" />
		<tag k="place" v="farm" />
		<tag k="ssr:stedsnr" v="872388" />
	</node>
	<node lat="60.117530556679995" lon="9.792236110942316" id="-19840">
		<tag k="name" v="Jonsbråten" />
		<tag k="place" v="locality" />
		<tag k="ssr:stedsnr" v="884011" />
	</node>
	<node lat="60.14217777979689" lon="9.68873611716845" id="-19841">
		<tag k="name" v="Glasrud" />
		<tag k="place" v="farm" />
		<tag k="ssr:stedsnr" v="884173" />
	</node>
	<node lat="60.14488889061675" lon="9.839575006566392" id="-19854">
		<tag k="historic" v="shieling" />
		<tag k="name" v="Nyvoll" />
		<tag k="place" v="isolated_dwelling" />
		<tag k="ssr:stedsnr" v="943141" />
	</node>
	<node lat="60.142333335643265" lon="9.786436103863888" id="-19856">
		<tag k="name" v="Hellerud" />
		<tag k="place" v="farm" />
		<tag k="ssr:stedsnr" v="944009" />
	</node>
	<node lat="60.12850838089359" lon="9.612117474006482" id="-19864">
		<tag k="name" v="Gildheim" />
		<tag k="place" v="locality" />
		<tag k="ssr:stedsnr" v="944646" />
	</node>
	<node lat="60.15429722059091" lon="9.74332777414412" id="-19868">
		<tag k="name" v="Sundberg" />
		<tag k="place" v="farm" />
		<tag k="ssr:stedsnr" v="944844" />
	</node>
	<node lat="60.22426666943276" lon="9.602783336466658" id="-19873">
		<tag k="name" v="Midtre Snersrud" />
		<tag k="place" v="farm" />
		<tag k="ssr:stedsnr" v="946654" />
	</node>
	<node lat="60.171229876325924" lon="9.676157654768334" id="-19894">
		<tag k="fixme" v="consider place=hamlet" />
		<tag k="name" v="Gren" />
		<tag k="place" v="farm" />
		<tag k="ssr:stedsnr" v="986250" />
	</node>
	<node lat="60.144272743608454" lon="9.652939106530486" id="-19899">
		<tag k="fixme" v="consider place=hamlet" />
		<tag k="name" v="Hovden" />
		<tag k="place" v="farm" />
		<tag k="ssr:stedsnr" v="1072512" />
	</node>
	<node lat="60.18065353328541" lon="9.604533378816065" id="-19900">
		<tag k="fixme" v="consider place=hamlet" />
		<tag k="name" v="Bø" />
		<tag k="place" v="farm" />
		<tag k="ssr:stedsnr" v="1072513" />
	</node>
	<node lat="60.221379854592996" lon="9.63444662241582" id="-19901">
		<tag k="name" v="Ørpen" />
		<tag k="place" v="hamlet" />
		<tag k="ssr:stedsnr" v="1072514" />
	</node>
	<node lat="60.14965170523833" lon="9.692393214710018" id="-19902">
		<tag k="name" v="Trulse-Råen" />
		<tag k="place" v="farm" />
		<tag k="ssr:stedsnr" v="1072924" />
	</node>
	<node lat="60.20432875553056" lon="9.631280527371834" id="-19903">
		<tag k="name" v="Bratterud" />
		<tag k="place" v="locality" />
		<tag k="ssr:stedsnr" v="1072926" />
	</node>
	<node lat="60.183089658492904" lon="9.606435509538432" id="-19904">
		<tag k="fixme" v="consider place=hamlet" />
		<tag k="name" v="Øvre Nore" />
		<tag k="place" v="farm" />
		<tag k="ssr:stedsnr" v="1073689" />
	</node>
	<node lat="60.178922699272846" lon="9.636367282774296" id="-19921">
		<tag k="alt_name" v="Solsida" />
		<tag k="name" v="Solsia" />
		<tag k="old_name" v="Åsebu" />
		<tag k="place" v="farm" />
		<tag k="ssr:stedsnr" v="1077634" />
=======
	<node id="-285145" lat="60.2709611076" lon="9.65943332576">
		<tag k="name" v="Skola" />
		<tag k="place" v="farm" />
		<tag k="ssr:stedsnr" v="188683" />
	</node>
	<node id="-285143" lat="60.2857250017" lon="9.58128610505">
		<tag k="name" v="Kjørestua" />
		<tag k="place" v="isolated_dwelling" />
		<tag k="ssr:stedsnr" v="188087" />
	</node>
	<node id="-285140" lat="60.1555020663" lon="9.65792827739">
		<tag k="name" v="Søre Bjørkerud" />
		<tag k="place" v="farm" />
		<tag k="ssr:stedsnr" v="187751" />
	</node>
	<node id="-285139" lat="60.1677138884" lon="9.7582555625">
		<tag k="name" v="Bjørnåsen" />
		<tag k="place" v="isolated_dwelling" />
		<tag k="ssr:stedsnr" v="187747" />
	</node>
	<node id="-285137" lat="60.1676871482" lon="9.73653851976">
		<tag k="fixme" v="consider place=hamlet" />
		<tag k="name" v="Hamremoen" />
		<tag k="place" v="farm" />
		<tag k="ssr:stedsnr" v="187740" />
	</node>
	<node id="-285136" lat="60.1691388905" lon="9.61338056441">
		<tag k="name" v="Øvre Leir" />
		<tag k="place" v="farm" />
		<tag k="ssr:stedsnr" v="187738" />
	</node>
	<node id="-285135" lat="60.1690749999" lon="9.57599999532">
		<tag k="name" v="Dynge" />
		<tag k="old_name" v="Dynga" />
		<tag k="place" v="farm" />
		<tag k="ssr:stedsnr" v="187436" />
	</node>
	<node id="-285133" lat="60.234338889" lon="9.63336111078">
		<tag k="name" v="Bjørka" />
		<tag k="place" v="farm" />
		<tag k="ssr:stedsnr" v="187206" />
	</node>
	<node id="-285127" lat="60.1349444443" lon="9.69683888114">
		<tag k="name" v="Skogstad" />
		<tag k="place" v="farm" />
		<tag k="ssr:stedsnr" v="186823" />
	</node>
	<node id="-285126" lat="60.1357833348" lon="9.78908055487">
		<tag k="name" v="Melum" />
		<tag k="place" v="farm" />
		<tag k="ssr:stedsnr" v="186817" />
	</node>
	<node id="-285124" lat="60.1579222258" lon="9.85077221976">
		<tag k="name" v="Gråberglia" />
		<tag k="place" v="isolated_dwelling" />
		<tag k="ssr:stedsnr" v="186797" />
	</node>
	<node id="-285122" lat="60.2183138881" lon="9.53738055411">
		<tag k="historic" v="shieling" />
		<tag k="name" v="Nedre Noresetra" />
		<tag k="place" v="locality" />
		<tag k="ssr:stedsnr" v="186272" />
	</node>
	<node id="-285121" lat="60.2204055596" lon="9.51458333185">
		<tag k="historic" v="shieling" />
		<tag k="name" v="Leinesetra" />
		<tag k="place" v="locality" />
		<tag k="ssr:stedsnr" v="186269" />
	</node>
	<node id="-285120" lat="60.2134750942" lon="9.60631746264">
		<tag k="alt_name" v="Søre Sandum" />
		<tag k="fixme" v="consider place=hamlet" />
		<tag k="name" v="Søndre Sandum" />
		<tag k="place" v="farm" />
		<tag k="ssr:stedsnr" v="186169" />
	</node>
	<node id="-285119" lat="60.2013749995" lon="9.74501110732">
		<tag k="name" v="Flathus" />
		<tag k="place" v="farm" />
		<tag k="ssr:stedsnr" v="186157" />
	</node>
	<node id="-285114" lat="60.2159142038" lon="9.60669015808">
		<tag k="name" v="Sandum" />
		<tag k="place" v="hamlet" />
		<tag k="ssr:stedsnr" v="163494" />
	</node>
	<node id="-285109" lat="60.2466583313" lon="9.6109805542">
		<tag k="name" v="Flatheim" />
		<tag k="place" v="farm" />
		<tag k="ssr:stedsnr" v="157000" />
	</node>
	<node id="-285107" lat="60.1567722238" lon="9.62797499234">
		<tag k="name" v="Furuly" />
		<tag k="place" v="farm" />
		<tag k="ssr:stedsnr" v="156561" />
	</node>
	<node id="-285103" lat="60.1653972214" lon="9.61468055331">
		<tag k="name" v="Leirsplassen" />
		<tag k="place" v="farm" />
		<tag k="ssr:stedsnr" v="155861" />
	</node>
	<node id="-285098" lat="60.2310527808" lon="9.70458056429">
		<tag k="name" v="Myre" />
		<tag k="place" v="farm" />
		<tag k="ssr:stedsnr" v="155566" />
	</node>
	<node id="-285095" lat="60.0951888857" lon="9.78952500367">
		<tag k="name" v="Bråten" />
		<tag k="place" v="locality" />
		<tag k="ssr:stedsnr" v="155398" />
	</node>
	<node id="-285089" lat="60.2903333354" lon="9.68422499404">
		<tag k="name" v="Gigernes" />
		<tag k="place" v="farm" />
		<tag k="ssr:stedsnr" v="154967" />
	</node>
	<node id="-285076" lat="60.1342166656" lon="9.69876944914">
		<tag k="name" v="Sørstad" />
		<tag k="place" v="farm" />
		<tag k="ssr:stedsnr" v="126785" />
	</node>
	<node id="-285075" lat="60.1559416642" lon="9.63910832534">
		<tag k="name" v="Nordre Ødegården" />
		<tag k="place" v="farm" />
		<tag k="ssr:stedsnr" v="126743" />
	</node>
	<node id="-285074" lat="60.1714722193" lon="9.68839722022">
		<tag k="name" v="Skogvoll" />
		<tag k="place" v="farm" />
		<tag k="ssr:stedsnr" v="126734" />
	</node>
	<node id="-285072" lat="60.1759222237" lon="9.58412777138">
		<tag k="historic" v="shieling" />
		<tag k="name" v="Evjusetra" />
		<tag k="place" v="locality" />
		<tag k="ssr:stedsnr" v="126453" />
	</node>
	<node id="-285071" lat="60.1825666642" lon="9.54847778473">
		<tag k="name" v="Åsen" />
		<tag k="place" v="farm" />
		<tag k="ssr:stedsnr" v="126446" />
	</node>
	<node id="-285068" lat="60.1562504399" lon="9.56372044759">
		<tag k="fixme" v="consider place=hamlet" />
		<tag k="name" v="Flatin" />
		<tag k="place" v="farm" />
		<tag k="ssr:stedsnr" v="126404" />
	</node>
	<node id="-285067" lat="60.2224416662" lon="9.63304999975">
		<tag k="alt_name" v="Ørpen" />
		<tag k="fixme" v="consider place=hamlet" />
		<tag k="name" v="Nordre Ørpen" />
		<tag k="place" v="farm" />
		<tag k="ssr:stedsnr" v="126178" />
	</node>
	<node id="-285066" lat="60.1985388856" lon="9.67909999586">
		<tag k="historic" v="shieling" />
		<tag k="name" v="Sollisetra" />
		<tag k="place" v="locality" />
		<tag k="ssr:stedsnr" v="126158" />
	</node>
	<node id="-285061" lat="60.1520250035" lon="9.68244444044">
		<tag k="name" v="Nordheim" />
		<tag k="place" v="isolated_dwelling" />
		<tag k="ssr:stedsnr" v="125801" />
	</node>
	<node id="-285060" lat="60.2100777812" lon="9.76873333846">
		<tag k="name" v="Tryterud" />
		<tag k="place" v="farm" />
		<tag k="ssr:stedsnr" v="125192" />
	</node>
	<node id="-285059" lat="60.2004333363" lon="9.60002777782">
		<tag k="alt_name" v="Heia;Søndre Heia" />
		<tag k="name" v="Søre Heia" />
		<tag k="place" v="farm" />
		<tag k="ssr:stedsnr" v="125164" />
	</node>
	<node id="-285057" lat="60.2109499989" lon="9.56854167265">
		<tag k="name" v="Noreli" />
		<tag k="place" v="isolated_dwelling" />
		<tag k="ssr:stedsnr" v="96342" />
	</node>
	<node id="-285055" lat="60.1539333341" lon="9.75699723023">
		<tag k="name" v="Øverstad" />
		<tag k="place" v="farm" />
		<tag k="ssr:stedsnr" v="95846" />
	</node>
	<node id="-285047" lat="60.1140083343" lon="9.64985554828">
		<tag k="name" v="Stordalshytta" />
		<tag k="place" v="isolated_dwelling" />
		<tag k="ssr:stedsnr" v="95277" />
	</node>
	<node id="-285046" lat="60.1486250011" lon="9.70152222608">
		<tag k="name" v="Klokker-Råen" />
		<tag k="place" v="farm" />
		<tag k="ssr:stedsnr" v="95168" />
	</node>
	<node id="-285045" lat="60.1465222185" lon="9.70881944063">
		<tag k="name" v="Løvstad" />
		<tag k="place" v="farm" />
		<tag k="ssr:stedsnr" v="95165" />
	</node>
	<node id="-285044" lat="60.1334805585" lon="9.68313889123">
		<tag k="name" v="Humlegård" />
		<tag k="place" v="farm" />
		<tag k="ssr:stedsnr" v="95155" />
	</node>
	<node id="-285040" lat="60.1832694413" lon="9.61073333593">
		<tag k="fixme" v="consider place=hamlet" />
		<tag k="name" v="Nedre Nore" />
		<tag k="place" v="farm" />
		<tag k="ssr:stedsnr" v="95030" />
	</node>
	<node id="-285035" lat="60.1679888903" lon="9.56640832904">
		<tag k="name" v="Løvås" />
		<tag k="place" v="farm" />
		<tag k="ssr:stedsnr" v="94610" />
	</node>
	<node id="-285030" lat="60.0754472238" lon="9.76251388739">
		<tag k="name" v="Enderud" />
		<tag k="place" v="isolated_dwelling" />
		<tag k="ssr:stedsnr" v="95345" />
	</node>
	<node id="-285021" lat="60.0782500009" lon="9.75830556451">
		<tag k="name" v="Hagalia" />
		<tag k="place" v="farm" />
		<tag k="ssr:stedsnr" v="66861" />
	</node>
	<node id="-285018" lat="60.1714416684" lon="9.73875277106">
		<tag k="name" v="Borgerud" />
		<tag k="place" v="farm" />
		<tag k="ssr:stedsnr" v="66756" />
	</node>
	<node id="-285016" lat="60.1530055572" lon="9.75825555281">
		<tag k="alt_name" v="Skårvold;Øgarden" />
		<tag k="name" v="Skårvoll" />
		<tag k="place" v="farm" />
		<tag k="ssr:stedsnr" v="65800" />
	</node>
	<node id="-285015" lat="60.1609361129" lon="9.81268889514">
		<tag k="historic" v="shieling" />
		<tag k="name" v="Huksetra" />
		<tag k="place" v="locality" />
		<tag k="ssr:stedsnr" v="65794" />
	</node>
	<node id="-285013" lat="60.1343972209" lon="9.79068888046">
		<tag k="name" v="Tufta" />
		<tag k="place" v="farm" />
		<tag k="ssr:stedsnr" v="65810" />
	</node>
	<node id="-285011" lat="60.194308254" lon="9.54650646884">
		<tag k="fixme" v="consider place=hamlet" />
		<tag k="name" v="Fosslia" />
		<tag k="place" v="farm" />
		<tag k="ssr:stedsnr" v="65483" />
	</node>
	<node id="-285010" lat="60.2107305596" lon="9.52980555335">
		<tag k="historic" v="shieling" />
		<tag k="name" v="Fosslisetra" />
		<tag k="place" v="locality" />
		<tag k="ssr:stedsnr" v="65469" />
	</node>
	<node id="-285009" lat="60.1759888883" lon="9.5641722186">
		<tag k="name" v="Golberg" />
		<tag k="place" v="farm" />
		<tag k="ssr:stedsnr" v="65436" />
	</node>
	<node id="-285008" lat="60.2153138921" lon="9.59318056049">
		<tag k="name" v="Skaset" />
		<tag k="place" v="farm" />
		<tag k="ssr:stedsnr" v="65177" />
	</node>
	<node id="-284991" lat="60.1931194406" lon="9.55072223071">
		<tag k="name" v="Framgarden Fosslia" />
		<tag k="place" v="farm" />
		<tag k="ssr:stedsnr" v="35268" />
	</node>
	<node id="-284990" lat="60.1884083299" lon="9.55253889169">
		<tag k="name" v="Tørkopp" />
		<tag k="place" v="isolated_dwelling" />
		<tag k="ssr:stedsnr" v="35151" />
	</node>
	<node id="-284987" lat="60.1535361121" lon="9.75977222182">
		<tag k="name" v="Åsheim" />
		<tag k="place" v="farm" />
		<tag k="ssr:stedsnr" v="34816" />
	</node>
	<node id="-284984" lat="60.1328833294" lon="9.5893749972">
		<tag k="name" v="Solli" />
		<tag k="place" v="isolated_dwelling" />
		<tag k="ssr:stedsnr" v="34585" />
	</node>
	<node id="-284982" lat="60.1554444483" lon="9.63375833568">
		<tag k="name" v="Haug" />
		<tag k="place" v="isolated_dwelling" />
		<tag k="ssr:stedsnr" v="34547" />
	</node>
	<node id="-284981" lat="60.1579916674" lon="9.62544445254">
		<tag k="name" v="Sandmoen" />
		<tag k="place" v="isolated_dwelling" />
		<tag k="ssr:stedsnr" v="34538" />
	</node>
	<node id="-284979" lat="60.1955000019" lon="9.68685833705">
		<tag k="name" v="Sollihytta" />
		<tag k="place" v="isolated_dwelling" />
		<tag k="ssr:stedsnr" v="34506" />
	</node>
	<node id="-284964" lat="60.1487333361" lon="9.70847500562">
		<tag k="name" v="Bjørnstad" />
		<tag k="place" v="farm" />
		<tag k="ssr:stedsnr" v="34205" />
	</node>
	<node id="-284962" lat="60.1200583363" lon="9.73735277564">
		<tag k="name" v="Granli" />
		<tag k="place" v="isolated_dwelling" />
		<tag k="ssr:stedsnr" v="34077" />
	</node>
	<node id="-284959" lat="60.1424666685" lon="9.74593889189">
		<tag k="name" v="Nordre Skinnes" />
		<tag k="place" v="farm" />
		<tag k="ssr:stedsnr" v="34063" />
	</node>
	<node id="-284958" lat="60.1306229281" lon="9.73575924317">
		<tag k="fixme" v="consider place=hamlet" />
		<tag k="name" v="Fyran" />
		<tag k="place" v="farm" />
		<tag k="ssr:stedsnr" v="34053" />
	</node>
	<node id="-284945" lat="60.2209833342" lon="9.69692778316">
		<tag k="name" v="Katrineplassen" />
		<tag k="place" v="farm" />
		<tag k="ssr:stedsnr" v="5208" />
	</node>
	<node id="-284944" lat="60.220263887" lon="9.64565278425">
		<tag k="name" v="Tranga" />
		<tag k="place" v="locality" />
		<tag k="ssr:stedsnr" v="5198" />
	</node>
	<node id="-284940" lat="60.1841694468" lon="9.81317500895">
		<tag k="name" v="Nesleseterkoia" />
		<tag k="place" v="locality" />
		<tag k="ssr:stedsnr" v="5126" />
	</node>
	<node id="-284938" lat="60.1205518546" lon="9.74795357019">
		<tag k="name" v="Glesne" />
		<tag k="place" v="hamlet" />
		<tag k="ssr:stedsnr" v="4838" />
	</node>
	<node id="-284935" lat="60.1449833358" lon="9.71552776899">
		<tag k="name" v="Haugen" />
		<tag k="place" v="farm" />
		<tag k="ssr:stedsnr" v="4825" />
	</node>
	<node id="-284928" lat="60.205308332" lon="9.71888054987">
		<tag k="name" v="Svartås" />
		<tag k="place" v="locality" />
		<tag k="ssr:stedsnr" v="4168" />
	</node>
	<node id="-284927" lat="60.1914944456" lon="9.81788333771">
		<tag k="name" v="Skaugum" />
		<tag k="place" v="isolated_dwelling" />
		<tag k="ssr:stedsnr" v="4143" />
	</node>
	<node id="-284906" lat="60.1423333356" lon="9.78643610386">
		<tag k="name" v="Hellerud" />
		<tag k="place" v="farm" />
		<tag k="ssr:stedsnr" v="944009" />
	</node>
	<node id="-284905" lat="60.1753861146" lon="9.63089445063">
		<tag k="name" v="Sole" />
		<tag k="ssr:stedsnr" v="934325" />
		<tag k="tourism" v="hotel" />
	</node>
	<node id="-284903" lat="60.2676611076" lon="9.76249721712">
		<tag k="name" v="Desarud" />
		<tag k="place" v="isolated_dwelling" />
		<tag k="ssr:stedsnr" v="916670" />
	</node>
	<node id="-284902" lat="60.2603604765" lon="9.67241902781">
		<tag k="fixme" v="consider place=hamlet" />
		<tag k="name" v="Gubberud" />
		<tag k="place" v="farm" />
		<tag k="ssr:stedsnr" v="916662" />
	</node>
	<node id="-284898" lat="60.1555033888" lon="9.66631985058">
		<tag k="fixme" v="consider place=hamlet" />
		<tag k="name" v="Haslerud" />
		<tag k="place" v="farm" />
		<tag k="ssr:stedsnr" v="915757" />
	</node>
	<node id="-284896" lat="60.2021388932" lon="9.65566944861">
		<tag k="historic" v="shieling" />
		<tag k="name" v="Sundesetra" />
		<tag k="place" v="locality" />
		<tag k="ssr:stedsnr" v="915154" />
	</node>
	<node id="-284886" lat="60.1421777798" lon="9.68873611717">
		<tag k="name" v="Glasrud" />
		<tag k="place" v="farm" />
		<tag k="ssr:stedsnr" v="884173" />
	</node>
	<node id="-284883" lat="60.1175305567" lon="9.79223611094">
		<tag k="name" v="Jonsbråten" />
		<tag k="place" v="locality" />
		<tag k="ssr:stedsnr" v="884011" />
	</node>
	<node id="-284882" lat="60.2242666694" lon="9.60278333647">
		<tag k="name" v="Midtre Snersrud" />
		<tag k="place" v="farm" />
		<tag k="ssr:stedsnr" v="946654" />
	</node>
	<node id="-284876" lat="60.1542972206" lon="9.74332777414">
		<tag k="name" v="Sundberg" />
		<tag k="place" v="farm" />
		<tag k="ssr:stedsnr" v="944844" />
	</node>
	<node id="-284875" lat="60.1657555587" lon="9.70751945333">
		<tag k="name" v="Slevika camping" />
		<tag k="ssr:stedsnr" v="944834" />
		<tag k="tourism" v="camp_site" />
	</node>
	<node id="-284871" lat="60.1289111142" lon="9.61138055436">
		<tag k="name" v="Gildheim" />
		<tag k="place" v="locality" />
		<tag k="ssr:stedsnr" v="944646" />
	</node>
	<node id="-284870" lat="60.1669305584" lon="9.57460277443">
		<tag k="alt_name" v="Søndre Dannemark" />
		<tag k="name" v="Søre Dannemark" />
		<tag k="place" v="farm" />
		<tag k="ssr:stedsnr" v="944640" />
	</node>
	<node id="-284869" lat="60.2132333355" lon="9.72793332622">
		<tag k="name" v="Rishovd" />
		<tag k="place" v="farm" />
		<tag k="ssr:stedsnr" v="944588" />
	</node>
	<node id="-284865" lat="60.2723666677" lon="9.69633889611">
		<tag k="name" v="Runningen" />
		<tag k="place" v="farm" />
		<tag k="ssr:stedsnr" v="856654" />
	</node>
	<node id="-284859" lat="60.2291249975" lon="9.66939999692">
		<tag k="historic" v="shieling" />
		<tag k="name" v="Ørpesetra" />
		<tag k="place" v="locality" />
		<tag k="ssr:stedsnr" v="855206" />
	</node>
	<node id="-284857" lat="60.1296638869" lon="9.63619165908">
		<tag k="historic" v="shieling" />
		<tag k="name" v="Haslerudsetra" />
		<tag k="place" v="locality" />
		<tag k="ssr:stedsnr" v="854794" />
	</node>
	<node id="-284853" lat="60.144916663" lon="9.77348889425">
		<tag k="name" v="Evenstad" />
		<tag k="place" v="farm" />
		<tag k="ssr:stedsnr" v="854771" />
	</node>
	<node id="-284850" lat="60.2104083362" lon="9.5558888909">
		<tag k="historic" v="shieling" />
		<tag k="name" v="Puttansetra" />
		<tag k="place" v="locality" />
		<tag k="ssr:stedsnr" v="854467" />
	</node>
	<node id="-284849" lat="60.212733334" lon="9.57273055074">
		<tag k="name" v="Sandumseter" />
		<tag k="ssr:stedsnr" v="854465" />
		<tag k="tourism" v="hotel" />
	</node>
	<node id="-284845" lat="60.1448888906" lon="9.83957500657">
		<tag k="historic" v="shieling" />
		<tag k="name" v="Nyvoll" />
		<tag k="place" v="locality" />
		<tag k="ssr:stedsnr" v="943141" />
	</node>
	<node id="-284841" lat="60.2314220739" lon="9.71300524032">
		<tag k="fixme" v="consider place=hamlet" />
		<tag k="name" v="Bottolvsgard" />
		<tag k="place" v="farm" />
		<tag k="ssr:stedsnr" v="933379" />
	</node>
	<node id="-284840" lat="60.1288218394" lon="9.74057744317">
		<tag k="name" v="Nordre Fyran" />
		<tag k="place" v="farm" />
		<tag k="ssr:stedsnr" v="933373" />
	</node>
	<node id="-284835" lat="60.23278056" lon="9.69952499521">
		<tag k="name" v="Oppistugu" />
		<tag k="place" v="farm" />
		<tag k="ssr:stedsnr" v="823553" />
	</node>
	<node id="-284834" lat="60.1505666679" lon="9.65286110495">
		<tag k="name" v="Andreson" />
		<tag k="place" v="locality" />
		<tag k="ssr:stedsnr" v="823261" />
	</node>
	<node id="-284833" lat="60.1502333321" lon="9.62565832646">
		<tag k="name" v="Libekk" />
		<tag k="place" v="isolated_dwelling" />
		<tag k="ssr:stedsnr" v="823256" />
	</node>
	<node id="-284828" lat="60.1740055514" lon="9.60493055575">
		<tag k="name" v="Sørli" />
		<tag k="place" v="isolated_dwelling" />
		<tag k="ssr:stedsnr" v="823091" />
	</node>
	<node id="-284820" lat="60.1703777766" lon="9.6808055488">
		<tag k="name" v="Søndre Gren" />
		<tag k="place" v="farm" />
		<tag k="ssr:stedsnr" v="794759" />
	</node>
	<node id="-284819" lat="60.1642277817" lon="9.73623056016">
		<tag k="name" v="Solli" />
		<tag k="place" v="farm" />
		<tag k="ssr:stedsnr" v="794758" />
	</node>
	<node id="-284816" lat="60.2014333375" lon="9.62776389148">
		<tag k="name" v="Kleiva" />
		<tag k="place" v="isolated_dwelling" />
		<tag k="ssr:stedsnr" v="793165" />
	</node>
	<node id="-284815" lat="60.2014027743" lon="9.6084472144">
		<tag k="name" v="Odden" />
		<tag k="place" v="farm" />
		<tag k="ssr:stedsnr" v="793163" />
	</node>
	<node id="-284813" lat="60.1684458417" lon="9.61600028346">
		<tag k="name" v="Søre Leir" />
		<tag k="place" v="farm" />
		<tag k="ssr:stedsnr" v="788418" />
	</node>
	<node id="-284812" lat="60.159128923" lon="9.63091355142">
		<tag k="alt_name" v="Søndre Bjøre" />
		<tag k="name" v="Søre Bjøre" />
		<tag k="place" v="farm" />
		<tag k="ssr:stedsnr" v="788416" />
	</node>
	<node id="-284811" lat="60.2587111087" lon="9.56245555975">
		<tag k="name" v="Fjellro" />
		<tag k="place" v="isolated_dwelling" />
		<tag k="ssr:stedsnr" v="916934" />
	</node>
	<node id="-284809" lat="60.1260286392" lon="9.74026313964">
		<tag k="name" v="Søre Fyran" />
		<tag k="place" v="farm" />
		<tag k="ssr:stedsnr" v="915799" />
	</node>
	<node id="-284805" lat="60.1718190416" lon="9.63690135511">
		<tag k="fixme" v="consider place=hamlet" />
		<tag k="name" v="Olberg" />
		<tag k="place" v="farm" />
		<tag k="ssr:stedsnr" v="915749" />
	</node>
	<node id="-284803" lat="60.1661622178" lon="9.5217266342">
		<tag k="fixme" v="consider place=hamlet" />
		<tag k="name" v="Heslia" />
		<tag k="place" v="farm" />
		<tag k="ssr:stedsnr" v="915452" />
	</node>
	<node id="-284800" lat="60.2282971221" lon="9.63366522596">
		<tag k="fixme" v="consider place=hamlet" />
		<tag k="name" v="Gåran" />
		<tag k="place" v="farm" />
		<tag k="ssr:stedsnr" v="915190" />
	</node>
	<node id="-284799" lat="60.2333583369" lon="9.70799443661">
		<tag k="name" v="Øvre Bottolvsgard" />
		<tag k="place" v="farm" />
		<tag k="ssr:stedsnr" v="915185" />
	</node>
	<node id="-284796" lat="60.2116166665" lon="9.67079721743">
		<tag k="historic" v="shieling" />
		<tag k="name" v="Vinnasetra" />
		<tag k="place" v="locality" />
		<tag k="ssr:stedsnr" v="915168" />
	</node>
	<node id="-284792" lat="60.2661333319" lon="9.68893333695">
		<tag k="name" v="Tvenge" />
		<tag k="place" v="isolated_dwelling" />
		<tag k="ssr:stedsnr" v="762655" />
	</node>
	<node id="-284791" lat="60.2222777769" lon="9.73551944941">
		<tag k="name" v="Sevatbråten" />
		<tag k="place" v="isolated_dwelling" />
		<tag k="ssr:stedsnr" v="762547" />
	</node>
	<node id="-284785" lat="60.1798527802" lon="9.62411111556">
		<tag k="name" v="Noresund" />
		<tag k="place" v="village" />
		<tag k="ssr:stedsnr" v="915132" />
	</node>
	<node id="-284784" lat="60.2522264842" lon="9.65140105776">
		<tag k="fixme" v="consider place=hamlet" />
		<tag k="name" v="Veikåker" />
		<tag k="place" v="farm" />
		<tag k="ssr:stedsnr" v="734743" />
	</node>
	<node id="-284783" lat="60.1121166668" lon="9.69496111124">
		<tag k="name" v="Brekka" />
		<tag k="place" v="isolated_dwelling" />
		<tag k="ssr:stedsnr" v="733824" />
	</node>
	<node id="-284779" lat="60.181674997" lon="9.605397222">
		<tag k="alt_name" v="Bø" />
		<tag k="name" v="Nordre Bø" />
		<tag k="place" v="farm" />
		<tag k="ssr:stedsnr" v="733161" />
	</node>
	<node id="-284778" lat="60.1847888922" lon="9.63583333238">
		<tag k="name" v="Hagan" />
		<tag k="place" v="farm" />
		<tag k="ssr:stedsnr" v="733159" />
	</node>
	<node id="-284764" lat="60.1277138899" lon="9.78183889618">
		<tag k="amenity" v="nursing_home" />
		<tag k="name" v="Krøderheimen" />
		<tag k="ssr:stedsnr" v="701011" />
	</node>
	<node id="-284762" lat="60.1719249956" lon="9.83971388917">
		<tag k="name" v="Fossen" />
		<tag k="place" v="locality" />
		<tag k="ssr:stedsnr" v="700456" />
	</node>
	<node id="-284761" lat="60.2460138918" lon="9.61274444505">
		<tag k="name" v="Strandheim" />
		<tag k="place" v="farm" />
		<tag k="ssr:stedsnr" v="885996" />
	</node>
	<node id="-284747" lat="60.1459555555" lon="9.72778888567">
		<tag k="name" v="Granbu" />
		<tag k="place" v="farm" />
		<tag k="ssr:stedsnr" v="884051" />
	</node>
	<node id="-284740" lat="60.258699998" lon="9.67929166482">
		<tag k="name" v="Flata" />
		<tag k="place" v="farm" />
		<tag k="ssr:stedsnr" v="734666" />
	</node>
	<node id="-284734" lat="60.1561222245" lon="9.68555555414">
		<tag k="name" v="Hallen" />
		<tag k="place" v="farm" />
		<tag k="ssr:stedsnr" v="733754" />
	</node>
	<node id="-284733" lat="60.1802005082" lon="9.55828440605">
		<tag k="fixme" v="multiple name tags, choose one and add the other to alt_name" />
		<tag k="name" v="Lesteberg;Liubråtan" />
		<tag k="place" v="farm" />
		<tag k="ssr:stedsnr" v="733415" />
	</node>
	<node id="-284729" lat="60.1445611082" lon="9.76908611218">
		<tag k="name" v="Hervik" />
		<tag k="place" v="farm" />
		<tag k="ssr:stedsnr" v="732799" />
	</node>
	<node id="-284726" lat="60.2048749996" lon="9.60739165998">
		<tag k="name" v="Dokka" />
		<tag k="place" v="farm" />
		<tag k="ssr:stedsnr" v="732202" />
	</node>
	<node id="-284723" lat="60.1948166699" lon="9.54638333842">
		<tag k="name" v="Vestre Fosslia" />
		<tag k="place" v="farm" />
		<tag k="ssr:stedsnr" v="642818" />
	</node>
	<node id="-284718" lat="60.259580556" lon="9.74229165838">
		<tag k="name" v="Haugerudåshytta" />
		<tag k="place" v="isolated_dwelling" />
		<tag k="ssr:stedsnr" v="613738" />
	</node>
	<node id="-284716" lat="60.1694222221" lon="9.65554722372">
		<tag k="name" v="Bergset" />
		<tag k="place" v="farm" />
		<tag k="ssr:stedsnr" v="611776" />
	</node>
	<node id="-284712" lat="60.1532472241" lon="9.75297222291">
		<tag k="name" v="Nygård" />
		<tag k="place" v="farm" />
		<tag k="ssr:stedsnr" v="580852" />
	</node>
	<node id="-284709" lat="60.1546972257" lon="9.63101110668">
		<tag k="name" v="Arnestua" />
		<tag k="place" v="locality" />
		<tag k="ssr:stedsnr" v="580532" />
	</node>
	<node id="-284701" lat="60.2568583345" lon="9.65958333803">
		<tag k="name" v="Løkka" />
		<tag k="place" v="isolated_dwelling" />
		<tag k="ssr:stedsnr" v="703755" />
	</node>
	<node id="-284700" lat="60.2083194478" lon="9.59936389025">
		<tag k="name" v="Isakplassen" />
		<tag k="place" v="locality" />
		<tag k="ssr:stedsnr" v="703375" />
	</node>
	<node id="-284679" lat="60.1459583348" lon="9.70136110857">
		<tag k="name" v="Doktor-Råen" />
		<tag k="place" v="farm" />
		<tag k="ssr:stedsnr" v="701250" />
	</node>
	<node id="-284675" lat="60.12188333" lon="9.74676389042">
		<tag k="name" v="Glesne" />
		<tag k="place" v="farm" />
		<tag k="ssr:stedsnr" v="701020" />
>>>>>>> e1d4bc35ff8a6074a6f2e91616a996b547c36f15
	</node>
</osm>
