<?xml version="1.0" encoding="UTF-8"?>
<osm generator="osmapis" version="0.6">
	<node id="-28160" lat="60.3015750001" lon="9.67907500136">
		<tag k="name" v="Miganberget" />
		<tag k="place" v="locality" />
		<tag k="ssr:stedsnr" v="701567" />
	</node>
	<node id="-28159" lat="60.2877583377" lon="9.68313054768">
		<tag k="name" v="Stordalen" />
		<tag k="natural" v="valley" />
		<tag k="place" v="locality" />
		<tag k="ssr:stedsnr" v="701560" />
	</node>
	<node id="-28157" lat="60.1446888878" lon="9.82449445339">
		<tag k="name" v="Gampedalen" />
		<tag k="natural" v="valley" />
		<tag k="place" v="locality" />
		<tag k="ssr:stedsnr" v="701187" />
	</node>
	<node id="-28155" lat="60.1210222197" lon="9.68599445331">
		<tag k="name" v="Maurlidalen" />
		<tag k="natural" v="valley" />
		<tag k="place" v="locality" />
		<tag k="ssr:stedsnr" v="701082" />
	</node>
	<node id="-28591" lat="60.2902333376" lon="9.53199723125">
		<tag k="name" v="Grønnhaug" />
		<tag k="natural" v="hill" />
		<tag k="place" v="locality" />
		<tag k="ssr:stedsnr" v="157549" />
	</node>
	<node id="-28665" lat="60.2782083348" lon="9.72686389031">
		<tag k="fixme" v="consider natural=peak for the most distinct mountains in the district" />
		<tag k="name" v="Haverstingen" />
		<tag k="natural" v="hill" />
		<tag k="place" v="locality" />
		<tag k="ssr:stedsnr" v="309686" />
	</node>
	<node id="-28662" lat="60.2929472178" lon="9.48366944182">
		<tag k="name" v="Laksejuvflata" />
		<tag k="place" v="locality" />
		<tag k="ssr:stedsnr" v="309061" />
	</node>
	<node id="-28149" lat="60.2775722249" lon="9.58393611522">
		<tag k="fixme" v="consider natural=peak for the most distinct mountains in the district" />
		<tag k="name" v="Ringnesjuvet" />
		<tag k="natural" v="hill" />
		<tag k="place" v="locality" />
		<tag k="ssr:stedsnr" v="690368" />
	</node>
	<node id="-28148" lat="60.1920361119" lon="9.60626389131">
		<tag k="name" v="Høgemo" />
		<tag k="natural" v="hill" />
		<tag k="place" v="locality" />
		<tag k="ssr:stedsnr" v="520538" />
	</node>
	<node id="-28146" lat="60.2469934298" lon="9.68566971995">
		<tag k="fixme" v="consider natural=peak for the most distinct mountains in the district" />
		<tag k="name" v="Vesle Blodfjell" />
		<tag k="natural" v="hill" />
		<tag k="place" v="locality" />
		<tag k="ssr:stedsnr" v="490012" />
	</node>
	<node id="-28143" lat="60.1180972213" lon="9.81658333616">
		<tag k="name" v="Høgås" />
		<tag k="natural" v="hill" />
		<tag k="place" v="locality" />
		<tag k="ssr:stedsnr" v="672831" />
	</node>
	<node id="-28727" lat="60.1885111078" lon="9.71848333766">
		<tag k="name" v="Lågebekklia" />
		<tag k="natural" v="slope" />
		<tag k="place" v="locality" />
		<tag k="ssr:stedsnr" v="386335" />
	</node>
	<node id="-28925" lat="60.2710305553" lon="9.74415555399">
		<tag k="name" v="Jehansbråtadalen" />
		<tag k="natural" v="valley" />
		<tag k="place" v="locality" />
		<tag k="ssr:stedsnr" v="762643" />
	</node>
	<node id="-28652" lat="60.240144443" lon="9.53011666438">
		<tag k="name" v="Norefjell" />
		<tag k="natural" v="mountain_range" />
		<tag k="ssr:stedsnr" v="308234" />
	</node>
	<node id="-28137" lat="60.1450777802" lon="9.64966945004">
		<tag k="fixme" v="consider natural=peak for the most distinct mountains in the district" />
		<tag k="name" v="Hovdekollen" />
		<tag k="natural" v="hill" />
		<tag k="place" v="locality" />
		<tag k="ssr:stedsnr" v="672786" />
	</node>
	<node id="-28648" lat="60.2170555525" lon="9.67786388754">
		<tag k="fixme" v="consider natural=peak for the most distinct mountains in the district" />
		<tag k="name" v="Snauåsen" />
		<tag k="natural" v="hill" />
		<tag k="place" v="locality" />
		<tag k="ssr:stedsnr" v="308183" />
	</node>
	<node id="-28924" lat="60.2532638887" lon="9.73572778216">
		<tag k="name" v="Stillingdalen" />
		<tag k="natural" v="valley" />
		<tag k="place" v="locality" />
		<tag k="ssr:stedsnr" v="762623" />
	</node>
	<node id="-28733" lat="60.1428444411" lon="9.6258305485">
		<tag k="name" v="Farbråtabakken" />
		<tag k="natural" v="slope" />
		<tag k="place" v="locality" />
		<tag k="ssr:stedsnr" v="398271" />
	</node>
	<node id="-28644" lat="60.1728361122" lon="9.86084167035">
		<tag k="fixme" v="consider natural=peak for the most distinct mountains in the district" />
		<tag k="name" v="Primåsen" />
		<tag k="natural" v="hill" />
		<tag k="place" v="locality" />
		<tag k="ssr:stedsnr" v="308116" />
	</node>
	<node id="-28131" lat="60.1483333376" lon="9.55826945231">
		<tag k="fixme" v="consider natural=peak for the most distinct mountains in the district" />
		<tag k="name" v="Perseteråsen" />
		<tag k="natural" v="hill" />
		<tag k="place" v="locality" />
		<tag k="ssr:stedsnr" v="672398" />
	</node>
	<node id="-28673" lat="60.17966667" lon="9.85130832808">
		<tag k="name" v="Lysstupet" />
		<tag k="natural" v="slope" />
		<tag k="place" v="locality" />
		<tag k="ssr:stedsnr" v="336414" />
	</node>
	<node id="-28127" lat="60.221741671" lon="9.66054167206">
		<tag k="name" v="Varpet" />
		<tag k="place" v="locality" />
		<tag k="ssr:stedsnr" v="672177" />
	</node>
	<node id="-28637" lat="60.1189388879" lon="9.61432221511">
		<tag k="name" v="Haraklypa" />
		<tag k="natural" v="valley" />
		<tag k="place" v="locality" />
		<tag k="ssr:stedsnr" v="216625" />
	</node>
	<node id="-28634" lat="60.257149996" lon="9.5866611149">
		<tag k="name" v="Kastet" />
		<tag k="place" v="locality" />
		<tag k="ssr:stedsnr" v="216255" />
	</node>
	<node id="-28633" lat="60.2824027785" lon="9.56632500162">
		<tag k="name" v="Tunga" />
		<tag k="natural" v="slope" />
		<tag k="place" v="locality" />
		<tag k="ssr:stedsnr" v="216220" />
	</node>
	<node id="-28631" lat="60.1728527795" lon="9.59276110767">
		<tag k="name" v="Veslemyrmoen" />
		<tag k="place" v="locality" />
		<tag k="ssr:stedsnr" v="216084" />
	</node>
	<node id="-28630" lat="60.1806055563" lon="9.57594165938">
		<tag k="name" v="Harastripa" />
		<tag k="natural" v="valley" />
		<tag k="place" v="locality" />
		<tag k="ssr:stedsnr" v="216076" />
	</node>
	<node id="-28629" lat="60.288736113" lon="9.69136389325">
		<tag k="name" v="Vesleåsen" />
		<tag k="natural" v="hill" />
		<tag k="place" v="locality" />
		<tag k="ssr:stedsnr" v="215974" />
	</node>
	<node id="-28628" lat="60.1133583321" lon="9.81581666191">
		<tag k="name" v="Svanetjennbrenna" />
		<tag k="natural" v="hill" />
		<tag k="place" v="locality" />
		<tag k="ssr:stedsnr" v="215799" />
	</node>
	<node id="-28623" lat="60.2664999985" lon="9.58055278203">
		<tag k="name" v="Tunga" />
		<tag k="natural" v="ridge" />
		<tag k="place" v="locality" />
		<tag k="ssr:stedsnr" v="188123" />
	</node>
	<node id="-28621" lat="60.2898027768" lon="9.53702777593">
		<tag k="name" v="Pika" />
		<tag k="natural" v="valley" />
		<tag k="place" v="locality" />
		<tag k="ssr:stedsnr" v="188079" />
	</node>
	<node id="-28620" lat="60.1467749969" lon="9.77976389343">
		<tag k="name" v="Vollan" />
		<tag k="natural" v="slope" />
		<tag k="place" v="locality" />
		<tag k="ssr:stedsnr" v="187760" />
	</node>
	<node id="-28107" lat="60.1208500018" lon="9.76093333915">
		<tag k="name" v="Kjempehaugen" />
		<tag k="natural" v="hill" />
		<tag k="place" v="locality" />
		<tag k="ssr:stedsnr" v="519009" />
	</node>
	<node id="-28106" lat="60.14779444" lon="9.77253333762">
		<tag k="name" v="Huken" />
		<tag k="place" v="locality" />
		<tag k="ssr:stedsnr" v="519003" />
	</node>
	<node id="-28103" lat="60.2790416623" lon="9.63071665889">
		<tag k="fixme" v="consider natural=peak for the most distinct mountains in the district" />
		<tag k="name" v="Storås" />
		<tag k="natural" v="hill" />
		<tag k="place" v="locality" />
		<tag k="ssr:stedsnr" v="431609" />
	</node>
	<node id="-28102" lat="60.1389444474" lon="9.6731805472">
		<tag k="name" v="Svarttjennåsen" />
		<tag k="natural" v="hill" />
		<tag k="place" v="locality" />
		<tag k="ssr:stedsnr" v="429802" />
	</node>
	<node id="-28833" lat="60.2177805573" lon="9.70771389762">
		<tag k="fixme" v="consider natural=peak for the most distinct mountains in the district" />
		<tag k="name" v="Dyrhovdåsen" />
		<tag k="natural" v="hill" />
		<tag k="place" v="locality" />
		<tag k="ssr:stedsnr" v="580558" />
	</node>
	<node id="-28611" lat="60.2316027747" lon="9.65322221424">
		<tag k="fixme" v="consider natural=peak for the most distinct mountains in the district" />
		<tag k="name" v="Bjørnåsen" />
		<tag k="natural" v="hill" />
		<tag k="place" v="locality" />
		<tag k="ssr:stedsnr" v="187204" />
	</node>
	<node id="-28609" lat="60.1737694465" lon="9.75991388536">
		<tag k="fixme" v="consider natural=peak for the most distinct mountains in the district" />
		<tag k="name" v="Stillingsåsen" />
		<tag k="natural" v="hill" />
		<tag k="place" v="locality" />
		<tag k="ssr:stedsnr" v="187143" />
	</node>
	<node id="-28607" lat="60.1323194432" lon="9.66401667105">
		<tag k="name" v="Bårdsbråtåsen" />
		<tag k="natural" v="hill" />
		<tag k="place" v="locality" />
		<tag k="ssr:stedsnr" v="186824" />
	</node>
	<node id="-28091" lat="60.2565555551" lon="9.62715556049">
		<tag k="name" v="Ringnesmoen" />
		<tag k="place" v="locality" />
		<tag k="ssr:stedsnr" v="491637" />
	</node>
	<node id="-28602" lat="60.2132083294" lon="9.51387499421">
		<tag k="fixme" v="consider natural=peak for the most distinct mountains in the district" />
		<tag k="name" v="Fossliseteråsen" />
		<tag k="natural" v="hill" />
		<tag k="place" v="locality" />
		<tag k="ssr:stedsnr" v="186522" />
	</node>
	<node id="-28089" lat="60.3014972205" lon="9.57628889173">
		<tag k="fixme" v="consider natural=peak for the most distinct mountains in the district" />
		<tag k="name" v="Jentås" />
		<tag k="natural" v="hill" />
		<tag k="place" v="locality" />
		<tag k="ssr:stedsnr" v="491091" />
	</node>
	<node id="-28088" lat="60.2905749991" lon="9.52867222924">
		<tag k="name" v="Hansenatten" />
		<tag k="natural" v="hill" />
		<tag k="place" v="locality" />
		<tag k="ssr:stedsnr" v="491069" />
	</node>
	<node id="-28087" lat="60.0940722222" lon="9.75467777152">
		<tag k="name" v="Juvkleiva" />
		<tag k="natural" v="valley" />
		<tag k="place" v="locality" />
		<tag k="ssr:stedsnr" v="490864" />
	</node>
	<node id="-28086" lat="60.0906999982" lon="9.75605555802">
		<tag k="name" v="Dælaåsen" />
		<tag k="natural" v="hill" />
		<tag k="place" v="locality" />
		<tag k="ssr:stedsnr" v="490841" />
	</node>
	<node id="-28597" lat="60.2029916696" lon="9.71350277968">
		<tag k="name" v="Svartåskollen" />
		<tag k="natural" v="hill" />
		<tag k="place" v="locality" />
		<tag k="ssr:stedsnr" v="186153" />
	</node>
	<node id="-28084" lat="60.1144000034" lon="9.68632499894">
		<tag k="name" v="Ospeliåsen" />
		<tag k="natural" v="hill" />
		<tag k="place" v="locality" />
		<tag k="ssr:stedsnr" v="490829" />
	</node>
	<node id="-28083" lat="60.1394416652" lon="9.64909166618">
		<tag k="name" v="Bekkemyrhøgda" />
		<tag k="natural" v="hill" />
		<tag k="place" v="locality" />
		<tag k="ssr:stedsnr" v="490800" />
	</node>
	<node id="-28592" lat="60.2811333366" lon="9.55248610317">
		<tag k="name" v="Skytterhaugen" />
		<tag k="natural" v="hill" />
		<tag k="place" v="locality" />
		<tag k="ssr:stedsnr" v="157878" />
	</node>
	<node id="-28079" lat="60.1924444464" lon="9.5089638835">
		<tag k="fixme" v="consider natural=peak for the most distinct mountains in the district" />
		<tag k="name" v="Vardefjell" />
		<tag k="natural" v="hill" />
		<tag k="place" v="locality" />
		<tag k="ssr:stedsnr" v="490479" />
	</node>
	<node id="-28590" lat="60.2137305573" lon="9.65436665884">
		<tag k="fixme" v="consider natural=peak for the most distinct mountains in the district" />
		<tag k="name" v="Kastva" />
		<tag k="natural" v="hill" />
		<tag k="place" v="locality" />
		<tag k="ssr:stedsnr" v="157345" />
	</node>
	<node id="-28583" lat="60.2681444468" lon="9.67146666087">
		<tag k="name" v="Vøaberget" />
		<tag k="natural" v="hill" />
		<tag k="place" v="locality" />
		<tag k="ssr:stedsnr" v="155976" />
	</node>
	<node id="-28685" lat="60.1059388845" lon="9.80338055503">
		<tag k="alt_name" v="Søndre Elgedalen" />
		<tag k="name" v="Søre Elgedalen" />
		<tag k="natural" v="valley" />
		<tag k="place" v="locality" />
		<tag k="ssr:stedsnr" v="337595" />
	</node>
	<node id="-28579" lat="60.2258138922" lon="9.75212499393">
		<tag k="name" v="Nipedalen" />
		<tag k="natural" v="valley" />
		<tag k="place" v="locality" />
		<tag k="ssr:stedsnr" v="155586" />
	</node>
	<node id="-28578" lat="60.2301472231" lon="9.72703611179">
		<tag k="name" v="Brennkollen" />
		<tag k="natural" v="ridge" />
		<tag k="place" v="locality" />
		<tag k="ssr:stedsnr" v="155567" />
	</node>
	<node id="-28576" lat="60.2470499962" lon="9.67965278069">
		<tag k="name" v="Seterlia" />
		<tag k="natural" v="slope" />
		<tag k="place" v="locality" />
		<tag k="ssr:stedsnr" v="155416" />
	</node>
	<node id="-28575" lat="60.2568444462" lon="9.70893889159">
		<tag k="fixme" v="consider natural=peak for the most distinct mountains in the district" />
		<tag k="name" v="Nordre Oksåsen" />
		<tag k="natural" v="hill" />
		<tag k="place" v="locality" />
		<tag k="ssr:stedsnr" v="155415" />
	</node>
	<node id="-28062" lat="60.1619055574" lon="9.57825833516">
		<tag k="name" v="Bjønnsbråtaåsen" />
		<tag k="natural" v="slope" />
		<tag k="place" v="locality" />
		<tag k="ssr:stedsnr" v="337605" />
	</node>
	<node id="-28061" lat="60.1662249963" lon="9.5949500035">
		<tag k="name" v="Leirsjuvet" />
		<tag k="natural" v="gorge" />
		<tag k="ssr:stedsnr" v="337603" />
	</node>
	<node id="-28572" lat="60.2072083353" lon="9.76325554742">
		<tag k="name" v="Rognedalen" />
		<tag k="natural" v="valley" />
		<tag k="place" v="locality" />
		<tag k="ssr:stedsnr" v="155370" />
	</node>
	<node id="-28058" lat="60.1687638901" lon="9.5972055614">
		<tag k="name" v="Juvhøgda" />
		<tag k="natural" v="hill" />
		<tag k="place" v="locality" />
		<tag k="ssr:stedsnr" v="519636" />
	</node>
	<node id="-28057" lat="60.1710138853" lon="9.58451389323">
		<tag k="name" v="Stupen" />
		<tag k="place" v="locality" />
		<tag k="ssr:stedsnr" v="519572" />
	</node>
	<node id="-28567" lat="60.2845500005" lon="9.72848334015">
		<tag k="name" v="Kjerringvollia" />
		<tag k="natural" v="slope" />
		<tag k="place" v="locality" />
		<tag k="ssr:stedsnr" v="154966" />
	</node>
	<node id="-28052" lat="60.1270694453" lon="9.8515833334">
		<tag k="name" v="Handklevassåsen" />
		<tag k="natural" v="hill" />
		<tag k="place" v="locality" />
		<tag k="ssr:stedsnr" v="308802" />
	</node>
	<node id="-28563" lat="60.155191669" lon="9.79834999133">
		<tag k="name" v="Heståsen" />
		<tag k="natural" v="slope" />
		<tag k="place" v="locality" />
		<tag k="ssr:stedsnr" v="154514" />
	</node>
	<node id="-28050" lat="60.271774999" lon="9.56728056039">
		<tag k="name" v="Snauhauglia" />
		<tag k="natural" v="slope" />
		<tag k="place" v="locality" />
		<tag k="ssr:stedsnr" v="460758" />
	</node>
	<node id="-28561" lat="60.2486635968" lon="9.69607984895">
		<tag k="fixme" v="consider natural=peak for the most distinct mountains in the district" />
		<tag k="name" v="Store Blodfjell" />
		<tag k="natural" v="hill" />
		<tag k="place" v="locality" />
		<tag k="ssr:stedsnr" v="143316" />
	</node>
	<node id="-28048" lat="60.2282527788" lon="9.64505555258">
		<tag k="fixme" v="consider natural=peak for the most distinct mountains in the district" />
		<tag k="name" v="Brattåsen" />
		<tag k="natural" v="hill" />
		<tag k="place" v="locality" />
		<tag k="ssr:stedsnr" v="460612" />
	</node>
	<node id="-28047" lat="60.2359972232" lon="9.67441666612">
		<tag k="name" v="Gåranstillingdalen" />
		<tag k="natural" v="valley" />
		<tag k="place" v="locality" />
		<tag k="ssr:stedsnr" v="460588" />
	</node>
	<node id="-28557" lat="60.2974083372" lon="9.46728334143">
		<tag k="fixme" v="consider natural=peak for the most distinct mountains in the district" />
		<tag k="name" v="Høgevard" />
		<tag k="natural" v="hill" />
		<tag k="place" v="locality" />
		<tag k="ssr:stedsnr" v="127083" />
	</node>
	<node id="-28556" lat="60.2814527753" lon="9.54260832963">
		<tag k="fixme" v="consider natural=peak for the most distinct mountains in the district" />
		<tag k="name" v="Høgenatten" />
		<tag k="natural" v="hill" />
		<tag k="place" v="locality" />
		<tag k="ssr:stedsnr" v="127078" />
	</node>
	<node id="-28043" lat="60.1715666643" lon="9.74883055699">
		<tag k="fixme" v="consider natural=peak for the most distinct mountains in the district" />
		<tag k="name" v="Borgeren" />
		<tag k="natural" v="hill" />
		<tag k="place" v="locality" />
		<tag k="ssr:stedsnr" v="459832" />
	</node>
	<node id="-28042" lat="60.1723333338" lon="9.74051944311">
		<tag k="name" v="Olledalen" />
		<tag k="natural" v="valley" />
		<tag k="place" v="locality" />
		<tag k="ssr:stedsnr" v="459830" />
	</node>
	<node id="-28041" lat="60.1923499995" lon="9.68123611137">
		<tag k="name" v="Tutjenndalen" />
		<tag k="natural" v="valley" />
		<tag k="place" v="locality" />
		<tag k="ssr:stedsnr" v="459746" />
	</node>
	<node id="-28552" lat="60.1685472239" lon="9.50618611254">
		<tag k="fixme" v="consider natural=peak for the most distinct mountains in the district" />
		<tag k="name" v="Kolbuåsen" />
		<tag k="natural" v="hill" />
		<tag k="place" v="locality" />
		<tag k="ssr:stedsnr" v="126466" />
	</node>
	<node id="-28038" lat="60.2446388914" lon="9.69775833017">
		<tag k="fixme" v="consider natural=peak for the most distinct mountains in the district" />
		<tag k="name" v="Langemyråsen" />
		<tag k="natural" v="hill" />
		<tag k="place" v="locality" />
		<tag k="ssr:stedsnr" v="459387" />
	</node>
	<node id="-28548" lat="60.1581027808" lon="9.54640556412">
		<tag k="fixme" v="consider natural=peak for the most distinct mountains in the district" />
		<tag k="name" v="Toråsen" />
		<tag k="natural" v="hill" />
		<tag k="place" v="locality" />
		<tag k="ssr:stedsnr" v="126406" />
	</node>
	<node id="-28034" lat="60.1959249994" lon="9.55931388861">
		<tag k="name" v="Saghaugen" />
		<tag k="natural" v="hill" />
		<tag k="place" v="locality" />
		<tag k="ssr:stedsnr" v="278240" />
	</node>
	<node id="-28030" lat="60.1736666649" lon="9.59684445198">
		<tag k="name" v="Langebakke" />
		<tag k="natural" v="slope" />
		<tag k="place" v="locality" />
		<tag k="ssr:stedsnr" v="459101" />
	</node>
	<node id="-28541" lat="60.1866111074" lon="9.82811110552">
		<tag k="fixme" v="consider natural=peak for the most distinct mountains in the district" />
		<tag k="name" v="Nesleseterkollen" />
		<tag k="natural" v="hill" />
		<tag k="place" v="locality" />
		<tag k="ssr:stedsnr" v="126124" />
	</node>
	<node id="-29052" lat="60.2965519829" lon="9.7082886957">
		<tag k="fixme" v="consider natural=peak for the most distinct mountains in the district" />
		<tag k="name" v="Dugurdsnatten" />
		<tag k="natural" v="hill" />
		<tag k="place" v="locality" />
		<tag k="ssr:stedsnr" v="6844" />
	</node>
	<node id="-28026" lat="60.176191669" lon="9.63160834147">
		<tag k="name" v="Olbergsletta" />
		<tag k="place" v="locality" />
		<tag k="ssr:stedsnr" v="459055" />
	</node>
	<node id="-28024" lat="60.1170527782" lon="9.76354444495">
		<tag k="fixme" v="consider natural=peak for the most distinct mountains in the district" />
		<tag k="name" v="Snippåsen" />
		<tag k="natural" v="hill" />
		<tag k="place" v="locality" />
		<tag k="ssr:stedsnr" v="459011" />
	</node>
	<node id="-28535" lat="60.1851305564" lon="9.5401833353">
		<tag k="fixme" v="consider natural=peak for the most distinct mountains in the district" />
		<tag k="name" v="Åskollen" />
		<tag k="natural" v="hill" />
		<tag k="place" v="locality" />
		<tag k="ssr:stedsnr" v="96148" />
	</node>
	<node id="-28022" lat="60.1839694453" lon="9.58013610593">
		<tag k="name" v="Brennhaugen" />
		<tag k="natural" v="hill" />
		<tag k="place" v="locality" />
		<tag k="ssr:stedsnr" v="277054" />
	</node>
	<node id="-28530" lat="60.3083638846" lon="9.65301388018">
		<tag k="name" v="Haradokka" />
		<tag k="natural" v="valley" />
		<tag k="place" v="locality" />
		<tag k="ssr:stedsnr" v="95400" />
	</node>
	<node id="-28527" lat="60.2875694461" lon="9.61451389622">
		<tag k="name" v="Sløsslidalen" />
		<tag k="natural" v="valley" />
		<tag k="place" v="locality" />
		<tag k="ssr:stedsnr" v="95290" />
	</node>
	<node id="-27965" lat="60.1609222194" lon="9.49713888263">
		<tag k="name" v="Prestgrindhølet" />
		<tag k="natural" v="valley" />
		<tag k="place" v="locality" />
		<tag k="ssr:stedsnr" v="96218" />
	</node>
	<node id="-28256" lat="60.1785250003" lon="9.86408611751">
		<tag k="name" v="Skalpeli" />
		<tag k="natural" v="slope" />
		<tag k="place" v="locality" />
		<tag k="ssr:stedsnr" v="733148" />
	</node>
	<node id="-28818" lat="60.0898361141" lon="9.7389749939">
		<tag k="fixme" v="consider natural=peak for the most distinct mountains in the district" />
		<tag k="name" v="Værsåsen" />
		<tag k="natural" v="hill" />
		<tag k="place" v="locality" />
		<tag k="ssr:stedsnr" v="551876" />
	</node>
	<node id="-28893" lat="60.2495527765" lon="9.67442221825">
		<tag k="name" v="Kleiva" />
		<tag k="natural" v="slope" />
		<tag k="place" v="locality" />
		<tag k="ssr:stedsnr" v="640984" />
	</node>
	<node id="-28517" lat="60.2792944462" lon="9.73574721778">
		<tag k="name" v="Høgås" />
		<tag k="natural" v="ridge" />
		<tag k="place" v="locality" />
		<tag k="ssr:stedsnr" v="94720" />
	</node>
	<node id="-28516" lat="60.101738888" lon="9.79966944671">
		<tag k="name" v="Langerud" />
		<tag k="natural" v="slope" />
		<tag k="place" v="locality" />
		<tag k="ssr:stedsnr" v="94666" />
	</node>
	<node id="-28153" lat="60.2222333345" lon="9.5042055553">
		<tag k="name" v="Solehøgda" />
		<tag k="natural" v="hill" />
		<tag k="place" v="locality" />
		<tag k="ssr:stedsnr" v="698486" />
	</node>
	<node id="-28513" lat="60.2968722249" lon="9.68345833746">
		<tag k="name" v="Kvigeberget" />
		<tag k="place" v="locality" />
		<tag k="ssr:stedsnr" v="94589" />
	</node>
	<node id="-28512" lat="60.3033944414" lon="9.69477221341">
		<tag k="name" v="Saltberget" />
		<tag k="natural" v="slope" />
		<tag k="place" v="locality" />
		<tag k="ssr:stedsnr" v="94580" />
	</node>
	<node id="-28511" lat="60.3097027748" lon="9.68181943876">
		<tag k="name" v="Lønndokka" />
		<tag k="place" v="locality" />
		<tag k="ssr:stedsnr" v="94573" />
	</node>
	<node id="-28510" lat="60.1721000027" lon="9.81888333132">
		<tag k="fixme" v="consider natural=peak for the most distinct mountains in the district" />
		<tag k="name" v="Dritaråsen" />
		<tag k="natural" v="hill" />
		<tag k="place" v="locality" />
		<tag k="ssr:stedsnr" v="94517" />
	</node>
	<node id="-28696" lat="60.2729555513" lon="9.64243055854">
		<tag k="name" v="Handrevjuvet" />
		<tag k="natural" v="gorge" />
		<tag k="ssr:stedsnr" v="338967" />
	</node>
	<node id="-28504" lat="60.1697777744" lon="9.69482222651">
		<tag k="name" v="Grenslia" />
		<tag k="natural" v="slope" />
		<tag k="place" v="locality" />
		<tag k="ssr:stedsnr" v="83381" />
	</node>
	<node id="-28739" lat="60.300519442" lon="9.63393610254">
		<tag k="fixme" v="consider natural=peak for the most distinct mountains in the district" />
		<tag k="name" v="Skurvåsen" />
		<tag k="natural" v="hill" />
		<tag k="place" v="locality" />
		<tag k="ssr:stedsnr" v="398306" />
	</node>
	<node id="-28502" lat="60.3010749972" lon="9.52022499396">
		<tag k="name" v="Geitestein" />
		<tag k="natural" v="hill" />
		<tag k="place" v="locality" />
		<tag k="ssr:stedsnr" v="67099" />
	</node>
	<node id="-28729" lat="60.2904444419" lon="9.67878055352">
		<tag k="name" v="Gigernesberget" />
		<tag k="place" v="locality" />
		<tag k="ssr:stedsnr" v="397557" />
	</node>
	<node id="-27986" lat="60.1871444486" lon="9.75736944836">
		<tag k="name" v="Gunnarsteinlia" />
		<tag k="natural" v="slope" />
		<tag k="place" v="locality" />
		<tag k="ssr:stedsnr" v="277878" />
	</node>
	<node id="-28496" lat="60.2441249957" lon="9.57477499182">
		<tag k="alt_name" v="Surtebergflaket" />
		<tag k="fixme" v="consider natural=peak for the most distinct mountains in the district" />
		<tag k="name" v="Surtebergflaget" />
		<tag k="natural" v="hill" />
		<tag k="place" v="locality" />
		<tag k="ssr:stedsnr" v="66246" />
	</node>
	<node id="-27980" lat="60.13090278" lon="9.6593388897">
		<tag k="name" v="Gildringsdalen" />
		<tag k="natural" v="valley" />
		<tag k="place" v="locality" />
		<tag k="ssr:stedsnr" v="277291" />
	</node>
	<node id="-27978" lat="60.18592778" lon="9.66229166689">
		<tag k="name" v="Vesleseteråsen" />
		<tag k="natural" v="slope" />
		<tag k="place" v="locality" />
		<tag k="ssr:stedsnr" v="277040" />
	</node>
	<node id="-27977" lat="60.1726138909" lon="9.60595833006">
		<tag k="name" v="Skeiet" />
		<tag k="natural" v="slope" />
		<tag k="place" v="locality" />
		<tag k="ssr:stedsnr" v="277037" />
	</node>
	<node id="-28044" lat="60.1766694485" lon="9.75720555297">
		<tag k="name" v="Karlemyrhallane" />
		<tag k="natural" v="valley" />
		<tag k="place" v="locality" />
		<tag k="ssr:stedsnr" v="459865" />
	</node>
	<node id="-27974" lat="60.1019333317" lon="9.82661110261">
		<tag k="fixme" v="consider natural=peak for the most distinct mountains in the district" />
		<tag k="name" v="Sagåsen" />
		<tag k="natural" v="hill" />
		<tag k="place" v="locality" />
		<tag k="ssr:stedsnr" v="276677" />
	</node>
	<node id="-27970" lat="60.2899611135" lon="9.61166389567">
		<tag k="name" v="Hundås" />
		<tag k="natural" v="hill" />
		<tag k="place" v="locality" />
		<tag k="ssr:stedsnr" v="127710" />
	</node>
	<node id="-27969" lat="60.2746499992" lon="9.49592499488">
		<tag k="name" v="Grindefjellhaugen" />
		<tag k="natural" v="hill" />
		<tag k="place" v="locality" />
		<tag k="ssr:stedsnr" v="127119" />
	</node>
	<node id="-28480" lat="60.2606527743" lon="9.63536666562">
		<tag k="name" v="Båthusbakken" />
		<tag k="natural" v="slope" />
		<tag k="place" v="locality" />
		<tag k="ssr:stedsnr" v="35995" />
	</node>
	<node id="-28478" lat="60.2476277763" lon="9.66174167038">
		<tag k="name" v="Toredalen" />
		<tag k="natural" v="valley" />
		<tag k="place" v="locality" />
		<tag k="ssr:stedsnr" v="35979" />
	</node>
	<node id="-28477" lat="60.2016833333" lon="9.51393056252">
		<tag k="fixme" v="consider natural=peak for the most distinct mountains in the district" />
		<tag k="name" v="Bjønnliåsen" />
		<tag k="natural" v="hill" />
		<tag k="place" v="locality" />
		<tag k="ssr:stedsnr" v="35827" />
	</node>
	<node id="-28988" lat="60.2724277804" lon="9.66861666002">
		<tag k="name" v="Sundsåsen" />
		<tag k="natural" v="hill" />
		<tag k="place" v="locality" />
		<tag k="ssr:stedsnr" v="856672" />
	</node>
	<node id="-27963" lat="60.1837694463" lon="9.76321388399">
		<tag k="name" v="Stormyrbakken" />
		<tag k="natural" v="slope" />
		<tag k="place" v="locality" />
		<tag k="ssr:stedsnr" v="95863" />
	</node>
	<node id="-28474" lat="60.2260638925" lon="9.60066666779">
		<tag k="name" v="Nordre Snersrud" />
		<tag k="natural" v="valley" />
		<tag k="place" v="locality" />
		<tag k="ssr:stedsnr" v="35703" />
	</node>
	<node id="-28985" lat="60.1607722232" lon="9.5389166638">
		<tag k="name" v="Åsnatten" />
		<tag k="natural" v="hill" />
		<tag k="place" v="locality" />
		<tag k="ssr:stedsnr" v="855449" />
	</node>
	<node id="-28472" lat="60.2139777784" lon="9.59213888512">
		<tag k="name" v="Askebakke" />
		<tag k="natural" v="slope" />
		<tag k="place" v="locality" />
		<tag k="ssr:stedsnr" v="35392" />
	</node>
	<node id="-27959" lat="60.1714388904" lon="9.65394721476">
		<tag k="name" v="Kverndalen" />
		<tag k="natural" v="valley" />
		<tag k="place" v="locality" />
		<tag k="ssr:stedsnr" v="83663" />
	</node>
	<node id="-28982" lat="60.1860194448" lon="9.69072222947">
		<tag k="name" v="Knipetjennåsen" />
		<tag k="natural" v="hill" />
		<tag k="place" v="locality" />
		<tag k="ssr:stedsnr" v="854148" />
	</node>
	<node id="-28809" lat="60.1245277777" lon="9.65115555846">
		<tag k="fixme" v="consider natural=peak for the most distinct mountains in the district" />
		<tag k="name" v="Snurremyrhøgda" />
		<tag k="natural" v="hill" />
		<tag k="place" v="locality" />
		<tag k="ssr:stedsnr" v="550813" />
	</node>
	<node id="-28482" lat="60.1886555583" lon="9.65309166962">
		<tag k="name" v="Gorobakkan" />
		<tag k="natural" v="slope" />
		<tag k="place" v="locality" />
		<tag k="ssr:stedsnr" v="65146" />
	</node>
	<node id="-28464" lat="60.137527781" lon="9.5758666593">
		<tag k="name" v="Kokka" />
		<tag k="place" v="locality" />
		<tag k="ssr:stedsnr" v="34595" />
	</node>
	<node id="-27951" lat="60.3117472229" lon="9.65596666106">
		<tag k="name" v="Bukketalgberget" />
		<tag k="natural" v="hill" />
		<tag k="place" v="locality" />
		<tag k="ssr:stedsnr" v="248836" />
	</node>
	<node id="-28462" lat="60.1454972224" lon="9.60306667106">
		<tag k="name" v="Gravningan" />
		<tag k="place" v="locality" />
		<tag k="ssr:stedsnr" v="34575" />
	</node>
	<node id="-28973" lat="60.1519414131" lon="9.61982403404">
		<tag k="name" v="Hansehøl" />
		<tag k="natural" v="valley" />
		<tag k="place" v="locality" />
		<tag k="ssr:stedsnr" v="823852" />
	</node>
	<node id="-28972" lat="60.2516111122" lon="9.67423333066">
		<tag k="name" v="Svarteflaget" />
		<tag k="natural" v="slope" />
		<tag k="place" v="locality" />
		<tag k="ssr:stedsnr" v="823979" />
	</node>
	<node id="-28459" lat="60.2047583373" lon="9.77873611559">
		<tag k="name" v="Furuhaug" />
		<tag k="natural" v="hill" />
		<tag k="place" v="locality" />
		<tag k="ssr:stedsnr" v="34511" />
	</node>
	<node id="-27945" lat="60.1037527733" lon="9.81991111576">
		<tag k="fixme" v="consider natural=peak for the most distinct mountains in the district" />
		<tag k="name" v="Slettemoåsen" />
		<tag k="natural" v="hill" />
		<tag k="place" v="locality" />
		<tag k="ssr:stedsnr" v="247820" />
	</node>
	<node id="-28456" lat="60.2640623378" lon="9.59607458293">
		<tag k="name" v="Sagmatbakkflata" />
		<tag k="place" v="locality" />
		<tag k="ssr:stedsnr" v="34384" />
	</node>
	<node id="-27953" lat="60.2975138865" lon="9.55651110452">
		<tag k="name" v="Stinttoppkollen" />
		<tag k="natural" v="hill" />
		<tag k="place" v="locality" />
		<tag k="ssr:stedsnr" v="249089" />
	</node>
	<node id="-28449" lat="60.2974685771" lon="9.63467122355">
		<tag k="name" v="Brennåsen" />
		<tag k="natural" v="hill" />
		<tag k="place" v="locality" />
		<tag k="ssr:stedsnr" v="34307" />
	</node>
	<node id="-28448" lat="60.2890944401" lon="9.63845556">
		<tag k="name" v="Tjuvenborgen" />
		<tag k="natural" v="hill" />
		<tag k="place" v="locality" />
		<tag k="ssr:stedsnr" v="34306" />
	</node>
	<node id="-28447" lat="60.287094442" lon="9.65745556075">
		<tag k="name" v="Moflaget" />
		<tag k="place" v="locality" />
		<tag k="ssr:stedsnr" v="34304" />
	</node>
	<node id="-28345" lat="60.1740083378" lon="9.58283888687">
		<tag k="name" v="Kallerunningsberget" />
		<tag k="natural" v="slope" />
		<tag k="place" v="locality" />
		<tag k="ssr:stedsnr" v="944089" />
	</node>
	<node id="-28956" lat="60.2340499971" lon="9.5035416711">
		<tag k="name" v="Leppejuv" />
		<tag k="natural" v="gorge" />
		<tag k="ssr:stedsnr" v="820521" />
	</node>
	<node id="-28955" lat="60.2468249969" lon="9.58893889557">
		<tag k="name" v="Lønndalsjuvet" />
		<tag k="natural" v="gorge" />
		<tag k="ssr:stedsnr" v="810229" />
	</node>
	<node id="-28442" lat="60.1760500033" lon="9.57451667466">
		<tag k="name" v="Kallerunningen" />
		<tag k="natural" v="hill" />
		<tag k="place" v="locality" />
		<tag k="ssr:stedsnr" v="34100" />
	</node>
	<node id="-28949" lat="60.3008694467" lon="9.58634444123">
		<tag k="name" v="Dansebakkan" />
		<tag k="natural" v="slope" />
		<tag k="place" v="locality" />
		<tag k="ssr:stedsnr" v="795119" />
	</node>
	<node id="-28436" lat="60.1270527745" lon="9.84073611976">
		<tag k="name" v="Skibergheia" />
		<tag k="natural" v="hill" />
		<tag k="place" v="locality" />
		<tag k="ssr:stedsnr" v="33809" />
	</node>
	<node id="-28974" lat="60.2222388888" lon="9.58690277486">
		<tag k="name" v="Steinsethammaren" />
		<tag k="place" v="locality" />
		<tag k="ssr:stedsnr" v="824614" />
	</node>
	<node id="-28433" lat="60.3033166627" lon="9.68356111525">
		<tag k="name" v="Trolldalen" />
		<tag k="natural" v="valley" />
		<tag k="place" v="locality" />
		<tag k="ssr:stedsnr" v="33592" />
	</node>
	<node id="-28944" lat="60.1851694483" lon="9.50326666515">
		<tag k="fixme" v="consider natural=peak for the most distinct mountains in the district" />
		<tag k="name" v="Fuglenatten" />
		<tag k="natural" v="hill" />
		<tag k="place" v="locality" />
		<tag k="ssr:stedsnr" v="793472" />
	</node>
	<node id="-27919" lat="60.1827444421" lon="9.72223333612">
		<tag k="name" v="Fugleleiken" />
		<tag k="place" v="locality" />
		<tag k="ssr:stedsnr" v="65133" />
	</node>
	<node id="-28428" lat="60.2966055574" lon="9.54543889078">
		<tag k="name" v="Laksejuv" />
		<tag k="natural" v="gorge" />
		<tag k="ssr:stedsnr" v="6089" />
	</node>
	<node id="-28426" lat="60.1604194473" lon="9.77100556053">
		<tag k="fixme" v="consider natural=peak for the most distinct mountains in the district" />
		<tag k="name" v="Damtjennåsen" />
		<tag k="natural" v="hill" />
		<tag k="place" v="locality" />
		<tag k="ssr:stedsnr" v="5762" />
	</node>
	<node id="-28425" lat="60.2354722196" lon="9.66737222476">
		<tag k="fixme" v="consider natural=peak for the most distinct mountains in the district" />
		<tag k="name" v="Seteråsen" />
		<tag k="natural" v="hill" />
		<tag k="place" v="locality" />
		<tag k="ssr:stedsnr" v="5247" />
	</node>
	<node id="-27911" lat="60.215897221" lon="9.51782776972">
		<tag k="fixme" v="consider natural=peak for the most distinct mountains in the district" />
		<tag k="name" v="Skulkarås" />
		<tag k="natural" v="hill" />
		<tag k="place" v="locality" />
		<tag k="ssr:stedsnr" v="218787" />
	</node>
	<node id="-27910" lat="60.2350055557" lon="9.53276388458">
		<tag k="name" v="Fjellvegleina" />
		<tag k="natural" v="slope" />
		<tag k="place" v="locality" />
		<tag k="ssr:stedsnr" v="218783" />
	</node>
	<node id="-28932" lat="60.1967861098" lon="9.64940555652">
		<tag k="fixme" v="consider natural=peak for the most distinct mountains in the district" />
		<tag k="name" v="Oksetjennåsen" />
		<tag k="natural" v="hill" />
		<tag k="place" v="locality" />
		<tag k="ssr:stedsnr" v="763127" />
	</node>
	<node id="-28118" lat="60.0987555554" lon="9.74099445065">
		<tag k="name" v="Oddemyråsen" />
		<tag k="natural" v="ridge" />
		<tag k="place" v="locality" />
		<tag k="ssr:stedsnr" v="519425" />
	</node>
	<node id="-28418" lat="60.1216583361" lon="9.8652722191">
		<tag k="fixme" v="consider natural=peak for the most distinct mountains in the district" />
		<tag k="name" v="Gruvåsen" />
		<tag k="natural" v="hill" />
		<tag k="place" v="locality" />
		<tag k="ssr:stedsnr" v="4848" />
	</node>
	<node id="-28971" lat="60.1774638899" lon="9.71881944316">
		<tag k="name" v="Askedokk" />
		<tag k="place" v="locality" />
		<tag k="ssr:stedsnr" v="823719" />
	</node>
	<node id="-27904" lat="60.2448222261" lon="9.65193611408">
		<tag k="name" v="Klipe" />
		<tag k="place" v="locality" />
		<tag k="ssr:stedsnr" v="217728" />
	</node>
	<node id="-28415" lat="60.1260527764" lon="9.60314167169">
		<tag k="fixme" v="consider natural=peak for the most distinct mountains in the district" />
		<tag k="name" v="Herbrandkollen" />
		<tag k="natural" v="hill" />
		<tag k="place" v="locality" />
		<tag k="ssr:stedsnr" v="4827" />
	</node>
	<node id="-28926" lat="60.1514222243" lon="9.61857222662">
		<tag k="name" v="Flabergdalen" />
		<tag k="natural" v="valley" />
		<tag k="place" v="locality" />
		<tag k="ssr:stedsnr" v="762880" />
	</node>
	<node id="-28413" lat="60.1462277823" lon="9.81823611498">
		<tag k="fixme" v="consider natural=peak for the most distinct mountains in the district" />
		<tag k="name" v="Gampedalsbrenna" />
		<tag k="natural" v="hill" />
		<tag k="place" v="locality" />
		<tag k="ssr:stedsnr" v="4817" />
	</node>
	<node id="-28412" lat="60.1510971593" lon="9.77792648299">
		<tag k="name" v="Hukåsen" />
		<tag k="natural" v="hill" />
		<tag k="place" v="locality" />
		<tag k="ssr:stedsnr" v="4812" />
	</node>
	<node id="-28410" lat="60.1572666697" lon="9.82739444022">
		<tag k="name" v="Svartåsen" />
		<tag k="natural" v="hill" />
		<tag k="place" v="locality" />
		<tag k="ssr:stedsnr" v="4801" />
	</node>
	<node id="-28921" lat="60.2477083366" lon="9.68878055728">
		<tag k="name" v="Blodfjellmellom" />
		<tag k="natural" v="valley" />
		<tag k="place" v="locality" />
		<tag k="ssr:stedsnr" v="762401" />
	</node>
	<node id="-28920" lat="60.1006527752" lon="9.79425277437">
		<tag k="name" v="Tangan" />
		<tag k="place" v="locality" />
		<tag k="ssr:stedsnr" v="762372" />
	</node>
	<node id="-28918" lat="60.1023777802" lon="9.76507222746">
		<tag k="name" v="Tørrhallen" />
		<tag k="natural" v="slope" />
		<tag k="place" v="locality" />
		<tag k="ssr:stedsnr" v="762369" />
	</node>
	<node id="-28405" lat="60.248875004" lon="9.70505277543">
		<tag k="alt_name" v="Venemei" />
		<tag k="name" v="Venemøy" />
		<tag k="natural" v="hill" />
		<tag k="place" v="locality" />
		<tag k="ssr:stedsnr" v="4004" />
	</node>
	<node id="-28914" lat="60.1908083305" lon="9.56747777903">
		<tag k="fixme" v="consider natural=peak for the most distinct mountains in the district" />
		<tag k="name" v="Grautåsen" />
		<tag k="natural" v="hill" />
		<tag k="place" v="locality" />
		<tag k="ssr:stedsnr" v="762102" />
	</node>
	<node id="-28913" lat="60.2861583343" lon="9.62606667321">
		<tag k="name" v="Roterudlia" />
		<tag k="natural" v="slope" />
		<tag k="place" v="locality" />
		<tag k="ssr:stedsnr" v="762337" />
	</node>
	<node id="-28968" lat="60.1678972263" lon="9.76420833727">
		<tag k="name" v="Tørrfuruåsen" />
		<tag k="natural" v="ridge" />
		<tag k="place" v="locality" />
		<tag k="ssr:stedsnr" v="823798" />
	</node>
	<node id="-28905" lat="60.0937388869" lon="9.75911111867">
		<tag k="name" v="Juvåsen" />
		<tag k="natural" v="ridge" />
		<tag k="place" v="locality" />
		<tag k="ssr:stedsnr" v="750344" />
	</node>
	<node id="-28900" lat="60.2002527813" lon="9.57115277968">
		<tag k="name" v="Brennkollen" />
		<tag k="natural" v="hill" />
		<tag k="place" v="locality" />
		<tag k="ssr:stedsnr" v="642364" />
	</node>
	<node id="-28387" lat="60.289369446" lon="9.57715277209">
		<tag k="name" v="Brennberga" />
		<tag k="natural" v="ridge" />
		<tag k="place" v="locality" />
		<tag k="ssr:stedsnr" v="945318" />
	</node>
	<node id="-28386" lat="60.3003611094" lon="9.64223333758">
		<tag k="name" v="Roa" />
		<tag k="place" v="locality" />
		<tag k="ssr:stedsnr" v="945315" />
	</node>
	<node id="-28896" lat="60.1845138851" lon="9.61324721473">
		<tag k="name" v="Skogbakken" />
		<tag k="natural" v="slope" />
		<tag k="place" v="locality" />
		<tag k="ssr:stedsnr" v="641509" />
	</node>
	<node id="-28895" lat="60.2446194466" lon="9.59461667472">
		<tag k="name" v="Kleivflata" />
		<tag k="place" v="locality" />
		<tag k="ssr:stedsnr" v="641491" />
	</node>
	<node id="-28453" lat="60.0983999957" lon="9.7087472305">
		<tag k="fixme" v="consider natural=peak for the most distinct mountains in the district" />
		<tag k="name" v="Bråtaseteråsen" />
		<tag k="natural" v="hill" />
		<tag k="place" v="locality" />
		<tag k="ssr:stedsnr" v="34356" />
	</node>
	<node id="-28891" lat="60.2759111103" lon="9.66195555073">
		<tag k="name" v="Klypeleet" />
		<tag k="natural" v="valley" />
		<tag k="place" v="locality" />
		<tag k="ssr:stedsnr" v="640972" />
	</node>
	<node id="-28890" lat="60.2397916671" lon="9.6737694422">
		<tag k="name" v="Haran" />
		<tag k="natural" v="hill" />
		<tag k="place" v="locality" />
		<tag k="ssr:stedsnr" v="640968" />
	</node>
	<node id="-28889" lat="60.2870916661" lon="9.70021943873">
		<tag k="name" v="Goli" />
		<tag k="natural" v="slope" />
		<tag k="place" v="locality" />
		<tag k="ssr:stedsnr" v="640957" />
	</node>
	<node id="-28888" lat="60.1540805511" lon="9.61141389214">
		<tag k="fixme" v="consider natural=peak for the most distinct mountains in the district" />
		<tag k="name" v="Flintelarsåsen" />
		<tag k="natural" v="hill" />
		<tag k="place" v="locality" />
		<tag k="ssr:stedsnr" v="640883" />
	</node>
	<node id="-28930" lat="60.1758388923" lon="9.73131110557">
		<tag k="name" v="Annehullet" />
		<tag k="place" v="locality" />
		<tag k="ssr:stedsnr" v="762739" />
	</node>
	<node id="-28886" lat="60.189783332" lon="9.77377778301">
		<tag k="name" v="Skjærbenklia" />
		<tag k="natural" v="slope" />
		<tag k="place" v="locality" />
		<tag k="ssr:stedsnr" v="640862" />
	</node>
	<node id="-28885" lat="60.1233777775" lon="9.85378610988">
		<tag k="name" v="Sollidalen" />
		<tag k="natural" v="valley" />
		<tag k="place" v="locality" />
		<tag k="ssr:stedsnr" v="640795" />
	</node>
	<node id="-28372" lat="60.1893166629" lon="9.50939722432">
		<tag k="name" v="Rimeåsen" />
		<tag k="natural" v="slope" />
		<tag k="place" v="locality" />
		<tag k="ssr:stedsnr" v="885211" />
	</node>
	<node id="-28368" lat="60.2449722211" lon="9.67456944097">
		<tag k="fixme" v="consider natural=peak for the most distinct mountains in the district" />
		<tag k="name" v="Stillingåsen" />
		<tag k="natural" v="hill" />
		<tag k="place" v="locality" />
		<tag k="ssr:stedsnr" v="884958" />
	</node>
	<node id="-28879" lat="60.245241665" lon="9.72741666326">
		<tag k="name" v="Blomstertjennhaugane" />
		<tag k="natural" v="hill" />
		<tag k="place" v="locality" />
		<tag k="ssr:stedsnr" v="640488" />
	</node>
	<node id="-28878" lat="60.2405416655" lon="9.69723611127">
		<tag k="name" v="Flaget" />
		<tag k="natural" v="hill" />
		<tag k="place" v="locality" />
		<tag k="ssr:stedsnr" v="640438" />
	</node>
	<node id="-28364" lat="60.2356472226" lon="9.68268888639">
		<tag k="name" v="Damtjennåsen" />
		<tag k="natural" v="ridge" />
		<tag k="place" v="locality" />
		<tag k="ssr:stedsnr" v="883660" />
	</node>
	<node id="-28875" lat="60.137113889" lon="9.67410277072">
		<tag k="name" v="Rundtillen" />
		<tag k="natural" v="hill" />
		<tag k="place" v="locality" />
		<tag k="ssr:stedsnr" v="640346" />
	</node>
	<node id="-28874" lat="60.1399277746" lon="9.66161111451">
		<tag k="fixme" v="consider natural=peak for the most distinct mountains in the district" />
		<tag k="name" v="Hovdeåsen" />
		<tag k="natural" v="hill" />
		<tag k="place" v="locality" />
		<tag k="ssr:stedsnr" v="640328" />
	</node>
	<node id="-28360" lat="60.2220999999" lon="9.58034721834">
		<tag k="name" v="Djupedal" />
		<tag k="natural" v="valley" />
		<tag k="place" v="locality" />
		<tag k="ssr:stedsnr" v="946593" />
	</node>
	<node id="-28108" lat="60.1440166628" lon="9.72337222116">
		<tag k="name" v="Gunvaldsrønningen" />
		<tag k="natural" v="valley" />
		<tag k="place" v="locality" />
		<tag k="ssr:stedsnr" v="519043" />
	</node>
	<node id="-28358" lat="60.2454361071" lon="9.65251944307">
		<tag k="name" v="Nipa" />
		<tag k="natural" v="hill" />
		<tag k="place" v="locality" />
		<tag k="ssr:stedsnr" v="945706" />
	</node>
	<node id="-27937" lat="60.1718250021" lon="9.55647500005">
		<tag k="fixme" v="consider natural=peak for the most distinct mountains in the district" />
		<tag k="name" v="Kolhusåsen" />
		<tag k="natural" v="hill" />
		<tag k="place" v="locality" />
		<tag k="ssr:stedsnr" v="247441" />
	</node>
	<node id="-28281" lat="60.2360666706" lon="9.65521111207">
		<tag k="fixme" v="consider natural=peak for the most distinct mountains in the district" />
		<tag k="name" v="Taltjennåsen" />
		<tag k="natural" v="hill" />
		<tag k="place" v="locality" />
		<tag k="ssr:stedsnr" v="915401" />
	</node>
	<node id="-28353" lat="60.1790416696" lon="9.68649721722">
		<tag k="name" v="Djupedal" />
		<tag k="natural" v="valley" />
		<tag k="place" v="locality" />
		<tag k="ssr:stedsnr" v="944769" />
	</node>
	<node id="-28352" lat="60.1763722187" lon="9.70767500026">
		<tag k="name" v="Miganberg" />
		<tag k="natural" v="ridge" />
		<tag k="place" v="locality" />
		<tag k="ssr:stedsnr" v="944763" />
	</node>
	<node id="-28863" lat="60.0969833333" lon="9.6968250024">
		<tag k="name" v="Vardhaugane" />
		<tag k="natural" v="hill" />
		<tag k="place" v="locality" />
		<tag k="ssr:stedsnr" v="638894" />
	</node>
	<node id="-28789" lat="60.2096888897" lon="9.66775833002">
		<tag k="name" v="Bostesnår" />
		<tag k="place" v="locality" />
		<tag k="ssr:stedsnr" v="520397" />
	</node>
	<node id="-28347" lat="60.255402774" lon="9.69025834155">
		<tag k="name" v="Spillhauglia" />
		<tag k="natural" v="slope" />
		<tag k="place" v="locality" />
		<tag k="ssr:stedsnr" v="944478" />
	</node>
	<node id="-27935" lat="60.2223444409" lon="9.52405277186">
		<tag k="fixme" v="consider natural=peak for the most distinct mountains in the district" />
		<tag k="name" v="Huldrakollen" />
		<tag k="natural" v="hill" />
		<tag k="place" v="locality" />
		<tag k="ssr:stedsnr" v="247249" />
	</node>
	<node id="-28343" lat="60.1142555524" lon="9.72267221546">
		<tag k="name" v="Kviteberga" />
		<tag k="natural" v="slope" />
		<tag k="place" v="locality" />
		<tag k="ssr:stedsnr" v="944060" />
	</node>
	<node id="-28342" lat="60.147247221" lon="9.76474999208">
		<tag k="name" v="Saglia" />
		<tag k="natural" v="slope" />
		<tag k="place" v="locality" />
		<tag k="ssr:stedsnr" v="944054" />
	</node>
	<node id="-28870" lat="60.1207444435" lon="9.72723332446">
		<tag k="name" v="Vørleggingsåsen" />
		<tag k="natural" v="hill" />
		<tag k="place" v="locality" />
		<tag k="ssr:stedsnr" v="640066" />
	</node>
	<node id="-28340" lat="60.1197833346" lon="9.78134166752">
		<tag k="name" v="Hølhaugen" />
		<tag k="natural" v="hill" />
		<tag k="place" v="locality" />
		<tag k="ssr:stedsnr" v="944015" />
	</node>
	<node id="-28702" lat="60.213463891" lon="9.55106110757">
		<tag k="name" v="Puttanhaugen" />
		<tag k="natural" v="hill" />
		<tag k="place" v="locality" />
		<tag k="ssr:stedsnr" v="339237" />
	</node>
	<node id="-28337" lat="60.1324194462" lon="9.81342778473">
		<tag k="name" v="Lønndokkåsen" />
		<tag k="natural" v="hill" />
		<tag k="place" v="locality" />
		<tag k="ssr:stedsnr" v="854801" />
	</node>
	<node id="-28674" lat="60.1138944485" lon="9.80134166121">
		<tag k="name" v="Nordre Elgedalen" />
		<tag k="natural" v="valley" />
		<tag k="place" v="locality" />
		<tag k="ssr:stedsnr" v="336753" />
	</node>
	<node id="-28333" lat="60.1445166709" lon="9.80310276958">
		<tag k="name" v="Juvkollen" />
		<tag k="natural" v="hill" />
		<tag k="place" v="locality" />
		<tag k="ssr:stedsnr" v="854773" />
	</node>
	<node id="-28843" lat="60.2741638888" lon="9.65409721622">
		<tag k="name" v="Skolsflaget" />
		<tag k="natural" v="hill" />
		<tag k="place" v="locality" />
		<tag k="ssr:stedsnr" v="581976" />
	</node>
	<node id="-28842" lat="60.1586527733" lon="9.74770277545">
		<tag k="fixme" v="consider natural=peak for the most distinct mountains in the district" />
		<tag k="name" v="Sundåsen" />
		<tag k="natural" v="hill" />
		<tag k="place" v="locality" />
		<tag k="ssr:stedsnr" v="580845" />
	</node>
	<node id="-28327" lat="60.2338388878" lon="9.75298055815">
		<tag k="fixme" v="consider natural=peak for the most distinct mountains in the district" />
		<tag k="name" v="Høgnipa" />
		<tag k="natural" v="hill" />
		<tag k="place" v="locality" />
		<tag k="ssr:stedsnr" v="854208" />
	</node>
	<node id="-28838" lat="60.1069972198" lon="9.79016945268">
		<tag k="name" v="Kønngropa" />
		<tag k="place" v="locality" />
		<tag k="ssr:stedsnr" v="580330" />
	</node>
	<node id="-28699" lat="60.2434166625" lon="9.65715555891">
		<tag k="name" v="Pålseteråsen" />
		<tag k="natural" v="hill" />
		<tag k="place" v="locality" />
		<tag k="ssr:stedsnr" v="338982" />
	</node>
	<node id="-28323" lat="60.243091663" lon="9.49783610717">
		<tag k="name" v="Leppejuv" />
		<tag k="natural" v="gorge" />
		<tag k="ssr:stedsnr" v="941168" />
	</node>
	<node id="-28322" lat="60.2460055582" lon="9.67545833796">
		<tag k="name" v="Stillingdalen" />
		<tag k="natural" v="valley" />
		<tag k="place" v="locality" />
		<tag k="ssr:stedsnr" v="216968" />
	</node>
	<node id="-28321" lat="60.2686055583" lon="9.67576665811">
		<tag k="name" v="Sundsberget" />
		<tag k="natural" v="hill" />
		<tag k="place" v="locality" />
		<tag k="ssr:stedsnr" v="216958" />
	</node>
	<node id="-28318" lat="60.2300722203" lon="9.59922778071">
		<tag k="name" v="Tobakkshaugen" />
		<tag k="natural" v="hill" />
		<tag k="place" v="locality" />
		<tag k="ssr:stedsnr" v="824673" />
	</node>
	<node id="-28829" lat="60.1270111101" lon="9.78636110257">
		<tag k="name" v="Vengardslia" />
		<tag k="natural" v="slope" />
		<tag k="place" v="locality" />
		<tag k="ssr:stedsnr" v="580006" />
	</node>
	<node id="-28316" lat="60.1369305544" lon="9.61603333227">
		<tag k="name" v="Gandrudlia" />
		<tag k="natural" v="slope" />
		<tag k="place" v="locality" />
		<tag k="ssr:stedsnr" v="823576" />
	</node>
	<node id="-28315" lat="60.2210333341" lon="9.75445277681">
		<tag k="name" v="Kjellarmyrhaugan" />
		<tag k="natural" v="hill" />
		<tag k="place" v="locality" />
		<tag k="ssr:stedsnr" v="823572" />
	</node>
	<node id="-28825" lat="60.2847555554" lon="9.72119166324">
		<tag k="name" v="Gigernesberget" />
		<tag k="natural" v="hill" />
		<tag k="place" v="locality" />
		<tag k="ssr:stedsnr" v="579611" />
	</node>
	<node id="-28824" lat="60.2541500037" lon="9.50955000817">
		<tag k="name" v="Augunshaug" />
		<tag k="natural" v="hill" />
		<tag k="place" v="locality" />
		<tag k="ssr:stedsnr" v="552940" />
	</node>
	<node id="-28869" lat="60.1261972238" lon="9.73304999273">
		<tag k="name" v="Vesleåsen" />
		<tag k="natural" v="hill" />
		<tag k="place" v="locality" />
		<tag k="ssr:stedsnr" v="640065" />
	</node>
	<node id="-28822" lat="60.2784583352" lon="9.6537944448">
		<tag k="name" v="Moltemyrhølet" />
		<tag k="natural" v="valley" />
		<tag k="place" v="locality" />
		<tag k="ssr:stedsnr" v="552706" />
	</node>
	<node id="-28309" lat="60.2614944477" lon="9.59250833979">
		<tag k="name" v="Søledemma" />
		<tag k="place" v="locality" />
		<tag k="ssr:stedsnr" v="823358" />
	</node>
	<node id="-28308" lat="60.2922166643" lon="9.60105277421">
		<tag k="name" v="Trettarhaugen" />
		<tag k="natural" v="hill" />
		<tag k="place" v="locality" />
		<tag k="ssr:stedsnr" v="823318" />
	</node>
	<node id="-28306" lat="60.123758335" lon="9.69959722237">
		<tag k="name" v="Søretjennhaugen" />
		<tag k="natural" v="hill" />
		<tag k="place" v="locality" />
		<tag k="ssr:stedsnr" v="823076" />
	</node>
	<node id="-28326" lat="60.1985861152" lon="9.62543889696">
		<tag k="name" v="Storekleiv" />
		<tag k="place" v="locality" />
		<tag k="ssr:stedsnr" v="854162" />
	</node>
	<node id="-28302" lat="60.2999333294" lon="9.62179444736">
		<tag k="name" v="Matealia" />
		<tag k="natural" v="slope" />
		<tag k="place" v="locality" />
		<tag k="ssr:stedsnr" v="795840" />
	</node>
	<node id="-28301" lat="60.1558694408" lon="9.80691111926">
		<tag k="fixme" v="consider natural=peak for the most distinct mountains in the district" />
		<tag k="name" v="Teås" />
		<tag k="natural" v="hill" />
		<tag k="place" v="locality" />
		<tag k="ssr:stedsnr" v="794774" />
	</node>
	<node id="-28300" lat="60.1695777787" lon="9.70684722306">
		<tag k="name" v="Geitåsen" />
		<tag k="natural" v="hill" />
		<tag k="place" v="locality" />
		<tag k="ssr:stedsnr" v="794761" />
	</node>
	<node id="-28297" lat="60.1079500013" lon="9.76944167146">
		<tag k="name" v="Høgås" />
		<tag k="natural" v="hill" />
		<tag k="place" v="locality" />
		<tag k="ssr:stedsnr" v="794421" />
	</node>
	<node id="-28806" lat="60.2242805575" lon="9.54085277222">
		<tag k="name" v="Raudhaug" />
		<tag k="natural" v="hill" />
		<tag k="place" v="locality" />
		<tag k="ssr:stedsnr" v="550260" />
	</node>
	<node id="-28374" lat="60.2407666707" lon="9.72005000805">
		<tag k="fixme" v="consider natural=peak for the most distinct mountains in the district" />
		<tag k="name" v="Storås" />
		<tag k="natural" v="hill" />
		<tag k="place" v="locality" />
		<tag k="ssr:stedsnr" v="915220" />
	</node>
	<node id="-28285" lat="60.1556000012" lon="9.83867499793">
		<tag k="fixme" v="consider natural=peak for the most distinct mountains in the district" />
		<tag k="name" v="Reinåsen" />
		<tag k="natural" v="hill" />
		<tag k="place" v="locality" />
		<tag k="ssr:stedsnr" v="915783" />
	</node>
	<node id="-28794" lat="60.270133333" lon="9.63784166106">
		<tag k="name" v="Gråura" />
		<tag k="place" v="locality" />
		<tag k="ssr:stedsnr" v="520996" />
	</node>
	<node id="-28793" lat="60.2489083328" lon="9.65352222883">
		<tag k="fixme" v="consider natural=peak for the most distinct mountains in the district" />
		<tag k="name" v="Treåsen" />
		<tag k="natural" v="hill" />
		<tag k="place" v="locality" />
		<tag k="ssr:stedsnr" v="520987" />
	</node>
	<node id="-28791" lat="60.2381194433" lon="9.58775278268">
		<tag k="name" v="Høgrennslun" />
		<tag k="natural" v="slope" />
		<tag k="place" v="locality" />
		<tag k="ssr:stedsnr" v="520715" />
	</node>
	<node id="-28790" lat="60.2244166683" lon="9.63131945068">
		<tag k="name" v="Kvithaug" />
		<tag k="natural" v="hill" />
		<tag k="place" v="locality" />
		<tag k="ssr:stedsnr" v="520567" />
	</node>
	<node id="-28277" lat="60.2325444435" lon="9.73231388934">
		<tag k="alt_name" v="Tjernmyrdalen" />
		<tag k="name" v="Tjennmyrdalen" />
		<tag k="natural" v="valley" />
		<tag k="place" v="locality" />
		<tag k="ssr:stedsnr" v="915184" />
	</node>
	<node id="-28785" lat="60.2791083371" lon="9.64940833149">
		<tag k="name" v="Skolsåsen" />
		<tag k="natural" v="hill" />
		<tag k="place" v="locality" />
		<tag k="ssr:stedsnr" v="431686" />
	</node>
	<node id="-28911" lat="60.1205722261" lon="9.63830834069">
		<tag k="name" v="Lurenhøl" />
		<tag k="place" v="locality" />
		<tag k="ssr:stedsnr" v="762314" />
	</node>
	<node id="-28782" lat="60.2424166705" lon="9.54550556348">
		<tag k="fixme" v="consider natural=peak for the most distinct mountains in the district" />
		<tag k="name" v="Ravnås" />
		<tag k="natural" v="hill" />
		<tag k="place" v="locality" />
		<tag k="ssr:stedsnr" v="430258" />
	</node>
	<node id="-28781" lat="60.2427611138" lon="9.52923888625">
		<tag k="name" v="Dansarflata" />
		<tag k="place" v="locality" />
		<tag k="ssr:stedsnr" v="430256" />
	</node>
	<node id="-28268" lat="60.1789666639" lon="9.58246111903">
		<tag k="name" v="Gampedalen" />
		<tag k="natural" v="valley" />
		<tag k="place" v="locality" />
		<tag k="ssr:stedsnr" v="762091" />
	</node>
	<node id="-28265" lat="60.2490083312" lon="9.59270277165">
		<tag k="name" v="Stillingsjuvet" />
		<tag k="natural" v="gorge" />
		<tag k="ssr:stedsnr" v="216684" />
	</node>
	<node id="-28015" lat="60.1324777759" lon="9.80050000143">
		<tag k="name" v="Tuftåsen" />
		<tag k="natural" v="slope" />
		<tag k="place" v="locality" />
		<tag k="ssr:stedsnr" v="276270" />
	</node>
	<node id="-28977" lat="60.2066694402" lon="9.58546944489">
		<tag k="name" v="Brekkeflata" />
		<tag k="place" v="locality" />
		<tag k="ssr:stedsnr" v="825274" />
	</node>
	<node id="-28261" lat="60.2480916636" lon="9.52316388211">
		<tag k="name" v="Storelein" />
		<tag k="natural" v="valley" />
		<tag k="place" v="locality" />
		<tag k="ssr:stedsnr" v="733244" />
	</node>
	<node id="-28771" lat="60.1243527743" lon="9.83855000235">
		<tag k="fixme" v="consider natural=peak for the most distinct mountains in the district" />
		<tag k="name" v="Råaråsen" />
		<tag k="natural" v="hill" />
		<tag k="place" v="locality" />
		<tag k="ssr:stedsnr" v="429834" />
	</node>
	<node id="-28769" lat="60.1268444409" lon="9.72295277357">
		<tag k="fixme" v="consider natural=peak for the most distinct mountains in the district" />
		<tag k="name" v="Fyranflaget" />
		<tag k="natural" v="hill" />
		<tag k="place" v="locality" />
		<tag k="ssr:stedsnr" v="429817" />
	</node>
	<node id="-28768" lat="60.1634042493" lon="9.87803596189">
		<tag k="name" v="Holleia" />
		<tag k="natural" v="wood" />
		<tag k="ssr:stedsnr" v="429786" />
	</node>
	<node id="-28766" lat="60.1785361105" lon="9.58857222441">
		<tag k="name" v="Bønipa" />
		<tag k="natural" v="hill" />
		<tag k="place" v="locality" />
		<tag k="ssr:stedsnr" v="429433" />
	</node>
	<node id="-28252" lat="60.304333335" lon="9.60709166786">
		<tag k="name" v="Lutelia" />
		<tag k="natural" v="slope" />
		<tag k="place" v="locality" />
		<tag k="ssr:stedsnr" v="702417" />
	</node>
	<node id="-28763" lat="60.2097777755" lon="9.52912499538">
		<tag k="name" v="Lauhøgget" />
		<tag k="natural" v="valley" />
		<tag k="place" v="locality" />
		<tag k="ssr:stedsnr" v="399822" />
	</node>
	<node id="-28762" lat="60.2243222211" lon="9.55238610913">
		<tag k="name" v="Brennberga" />
		<tag k="natural" v="ridge" />
		<tag k="place" v="locality" />
		<tag k="ssr:stedsnr" v="399789" />
	</node>
	<node id="-28761" lat="60.2290416691" lon="9.59110278338">
		<tag k="name" v="Tømmeråsen" />
		<tag k="natural" v="slope" />
		<tag k="place" v="locality" />
		<tag k="ssr:stedsnr" v="399662" />
	</node>
	<node id="-28246" lat="60.2541166675" lon="9.72221388176">
		<tag k="alt_name" v="Søndre Oksåsen" />
		<tag k="fixme" v="consider natural=peak for the most distinct mountains in the district" />
		<tag k="name" v="Søre Oksåsen" />
		<tag k="natural" v="hill" />
		<tag k="place" v="locality" />
		<tag k="ssr:stedsnr" v="701521" />
	</node>
	<node id="-28757" lat="60.2732111102" lon="9.64085000594">
		<tag k="name" v="Svenskebakken" />
		<tag k="natural" v="slope" />
		<tag k="place" v="locality" />
		<tag k="ssr:stedsnr" v="398994" />
	</node>
	<node id="-28755" lat="60.1910222201" lon="9.77460555821">
		<tag k="fixme" v="consider natural=peak for the most distinct mountains in the district" />
		<tag k="name" v="Grååsen" />
		<tag k="natural" v="hill" />
		<tag k="place" v="locality" />
		<tag k="ssr:stedsnr" v="398857" />
	</node>
	<node id="-28239" lat="60.2398805575" lon="9.66079166307">
		<tag k="name" v="Puttehaugan" />
		<tag k="natural" v="hill" />
		<tag k="place" v="locality" />
		<tag k="ssr:stedsnr" v="885982" />
	</node>
	<node id="-28238" lat="60.2169833342" lon="9.55605833368">
		<tag k="name" v="Sjugurhaugane" />
		<tag k="natural" v="hill" />
		<tag k="place" v="locality" />
		<tag k="ssr:stedsnr" v="885782" />
	</node>
	<node id="-28687" lat="60.2482500003" lon="9.66339167354">
		<tag k="name" v="Rensleberget" />
		<tag k="natural" v="ridge" />
		<tag k="place" v="locality" />
		<tag k="ssr:stedsnr" v="337973" />
	</node>
	<node id="-28747" lat="60.2309055589" lon="9.74430277555">
		<tag k="fixme" v="consider natural=peak for the most distinct mountains in the district" />
		<tag k="name" v="Bikkjemyråsen" />
		<tag k="natural" v="hill" />
		<tag k="place" v="locality" />
		<tag k="ssr:stedsnr" v="398570" />
	</node>
	<node id="-28233" lat="60.1791083333" lon="9.70958610783">
		<tag k="name" v="Hekleberg" />
		<tag k="natural" v="ridge" />
		<tag k="place" v="locality" />
		<tag k="ssr:stedsnr" v="884713" />
	</node>
	<node id="-28744" lat="60.1994250035" lon="9.72457499543">
		<tag k="name" v="Seterlia" />
		<tag k="natural" v="slope" />
		<tag k="place" v="locality" />
		<tag k="ssr:stedsnr" v="398516" />
	</node>
	<node id="-28940" lat="60.2100777767" lon="9.59858055383">
		<tag k="name" v="Sigridlia" />
		<tag k="natural" v="slope" />
		<tag k="place" v="locality" />
		<tag k="ssr:stedsnr" v="764322" />
	</node>
	<node id="-28764" lat="60.2061944438" lon="9.52818888986">
		<tag k="name" v="Langåsen" />
		<tag k="natural" v="ridge" />
		<tag k="place" v="locality" />
		<tag k="ssr:stedsnr" v="399824" />
	</node>
	<node id="-28228" lat="60.136722223" lon="9.68220277235">
		<tag k="name" v="Djupendal" />
		<tag k="natural" v="valley" />
		<tag k="place" v="locality" />
		<tag k="ssr:stedsnr" v="884185" />
	</node>
	<node id="-28227" lat="60.2159305589" lon="9.75573610585">
		<tag k="name" v="Skutåsen" />
		<tag k="natural" v="hill" />
		<tag k="place" v="locality" />
		<tag k="ssr:stedsnr" v="884322" />
	</node>
	<node id="-28223" lat="60.1331416683" lon="9.85097500544">
		<tag k="fixme" v="consider natural=peak for the most distinct mountains in the district" />
		<tag k="name" v="Gulmyråsen" />
		<tag k="natural" v="hill" />
		<tag k="place" v="locality" />
		<tag k="ssr:stedsnr" v="882693" />
	</node>
	<node id="-28222" lat="60.1267972238" lon="9.8071888815">
		<tag k="fixme" v="consider natural=peak for the most distinct mountains in the district" />
		<tag k="name" v="Vengardsåsen" />
		<tag k="natural" v="hill" />
		<tag k="place" v="locality" />
		<tag k="ssr:stedsnr" v="882681" />
	</node>
	<node id="-28221" lat="60.2695944416" lon="9.63416945126">
		<tag k="name" v="Lunneberget" />
		<tag k="natural" v="hill" />
		<tag k="place" v="locality" />
		<tag k="ssr:stedsnr" v="674630" />
	</node>
	<node id="-28220" lat="60.2795749971" lon="9.59431389597">
		<tag k="name" v="Jønnås" />
		<tag k="natural" v="hill" />
		<tag k="place" v="locality" />
		<tag k="ssr:stedsnr" v="734689" />
	</node>
	<node id="-27914" lat="60.2614499984" lon="9.51600000155">
		<tag k="fixme" v="consider natural=peak for the most distinct mountains in the district" />
		<tag k="name" v="Anfinnskutan" />
		<tag k="natural" v="hill" />
		<tag k="place" v="locality" />
		<tag k="ssr:stedsnr" v="6934" />
	</node>
	<node id="-28217" lat="60.2707499985" lon="9.51255277517">
		<tag k="name" v="Skriuhaugen" />
		<tag k="natural" v="hill" />
		<tag k="place" v="locality" />
		<tag k="ssr:stedsnr" v="734128" />
	</node>
	<node id="-28216" lat="60.2963833346" lon="9.56783888082">
		<tag k="name" v="Brennkollen" />
		<tag k="natural" v="hill" />
		<tag k="place" v="locality" />
		<tag k="ssr:stedsnr" v="734070" />
	</node>
	<node id="-28215" lat="60.289975001" lon="9.46372499576">
		<tag k="fixme" v="consider natural=peak for the most distinct mountains in the district" />
		<tag k="name" v="Kringleåsen" />
		<tag k="natural" v="hill" />
		<tag k="place" v="locality" />
		<tag k="ssr:stedsnr" v="734067" />
	</node>
	<node id="-28725" lat="60.1876916666" lon="9.78273055253">
		<tag k="fixme" v="consider natural=peak for the most distinct mountains in the district" />
		<tag k="name" v="Storrtjennåsen" />
		<tag k="natural" v="hill" />
		<tag k="place" v="locality" />
		<tag k="ssr:stedsnr" v="386332" />
	</node>
	<node id="-28723" lat="60.3073611077" lon="9.63715833886">
		<tag k="fixme" v="consider natural=peak for the most distinct mountains in the district" />
		<tag k="name" v="Bukketalgåsen" />
		<tag k="natural" v="hill" />
		<tag k="place" v="locality" />
		<tag k="ssr:stedsnr" v="370842" />
	</node>
	<node id="-28210" lat="60.2522944415" lon="9.59367222204">
		<tag k="name" v="Vesleflaget" />
		<tag k="natural" v="hill" />
		<tag k="place" v="locality" />
		<tag k="ssr:stedsnr" v="733002" />
	</node>
	<node id="-28720" lat="60.2722750016" lon="9.56225000136">
		<tag k="name" v="Snauhaug" />
		<tag k="natural" v="hill" />
		<tag k="place" v="locality" />
		<tag k="ssr:stedsnr" v="370127" />
	</node>
	<node id="-28207" lat="60.1532972253" lon="9.86259443721">
		<tag k="fixme" v="consider natural=peak for the most distinct mountains in the district" />
		<tag k="name" v="Kvigtjennhøgda" />
		<tag k="natural" v="hill" />
		<tag k="place" v="locality" />
		<tag k="ssr:stedsnr" v="732791" />
	</node>
	<node id="-28965" lat="60.2380277756" lon="9.68261943808">
		<tag k="fixme" v="consider natural=peak for the most distinct mountains in the district" />
		<tag k="name" v="Ellingbråtaåsen" />
		<tag k="natural" v="hill" />
		<tag k="place" v="locality" />
		<tag k="ssr:stedsnr" v="823391" />
	</node>
	<node id="-28695" lat="60.241338891" lon="9.64911388781">
		<tag k="name" v="Vikbråtaåsen" />
		<tag k="natural" v="ridge" />
		<tag k="old_name" v="Viknråtaåsen" />
		<tag k="place" v="locality" />
		<tag k="ssr:stedsnr" v="338714" />
	</node>
	<node id="-28204" lat="60.2057694485" lon="9.69615556317">
		<tag k="name" v="Jammerdal" />
		<tag k="natural" v="valley" />
		<tag k="place" v="locality" />
		<tag k="ssr:stedsnr" v="732195" />
	</node>
	<node id="-28206" lat="60.1509305557" lon="9.76476944273">
		<tag k="name" v="Buaråsen" />
		<tag k="natural" v="hill" />
		<tag k="place" v="locality" />
		<tag k="ssr:stedsnr" v="732787" />
	</node>
	<node id="-28714" lat="60.1758527756" lon="9.52594445187">
		<tag k="fixme" v="consider natural=peak for the most distinct mountains in the district" />
		<tag k="name" v="Rennsla" />
		<tag k="natural" v="hill" />
		<tag k="place" v="locality" />
		<tag k="ssr:stedsnr" v="369398" />
	</node>
	<node id="-28200" lat="60.1701555531" lon="9.76190000736">
		<tag k="name" v="Bjørnestillinga" />
		<tag k="natural" v="hill" />
		<tag k="place" v="locality" />
		<tag k="ssr:stedsnr" v="629374" />
	</node>
	<node id="-28199" lat="60.1182472207" lon="9.80633055522">
		<tag k="name" v="Toffetjennkleiva" />
		<tag k="natural" v="slope" />
		<tag k="place" v="locality" />
		<tag k="ssr:stedsnr" v="629368" />
	</node>
	<node id="-28849" lat="60.2217805552" lon="9.60979999843">
		<tag k="name" v="Jutulsteinen" />
		<tag k="natural" v="hill" />
		<tag k="place" v="locality" />
		<tag k="ssr:stedsnr" v="611185" />
	</node>
	<node id="-28431" lat="60.3118972211" lon="9.69028889123">
		<tag k="name" v="Medragsjuvet" />
		<tag k="natural" v="gorge" />
		<tag k="ssr:stedsnr" v="22344" />
	</node>
	<node id="-28934" lat="60.2074444409" lon="9.63671944938">
		<tag k="name" v="Hesjaåsen" />
		<tag k="natural" v="slope" />
		<tag k="place" v="locality" />
		<tag k="ssr:stedsnr" v="763428" />
	</node>
	<node id="-28706" lat="60.2054249989" lon="9.75694445132">
		<tag k="name" v="Flathusåsen" />
		<tag k="natural" v="hill" />
		<tag k="place" v="locality" />
		<tag k="ssr:stedsnr" v="368189" />
	</node>
	<node id="-28193" lat="60.2015111102" lon="9.66844444051">
		<tag k="fixme" v="consider natural=peak for the most distinct mountains in the district" />
		<tag k="name" v="Flæa" />
		<tag k="natural" v="hill" />
		<tag k="place" v="locality" />
		<tag k="ssr:stedsnr" v="611152" />
	</node>
	<node id="-28190" lat="60.2123944442" lon="9.73100276901">
		<tag k="name" v="Ødevald" />
		<tag k="place" v="locality" />
		<tag k="ssr:stedsnr" v="580542" />
	</node>
	<node id="-28812" lat="60.0949527776" lon="9.70429443982">
		<tag k="name" v="Vardhaugtoppen" />
		<tag k="natural" v="hill" />
		<tag k="place" v="locality" />
		<tag k="ssr:stedsnr" v="550844" />
	</node>
	<node id="-28186" lat="60.1043861101" lon="9.68704999753">
		<tag k="name" v="Guttemyrhaugen" />
		<tag k="natural" v="hill" />
		<tag k="place" v="locality" />
		<tag k="ssr:stedsnr" v="580313" />
	</node>
	<node id="-28185" lat="60.1257638861" lon="9.81862499509">
		<tag k="name" v="Gampedalen" />
		<tag k="natural" v="valley" />
		<tag k="place" v="locality" />
		<tag k="ssr:stedsnr" v="578736" />
	</node>
	<node id="-28184" lat="60.2021333316" lon="9.52563055934">
		<tag k="fixme" v="consider natural=peak for the most distinct mountains in the district" />
		<tag k="name" v="Svarthammaråsen" />
		<tag k="natural" v="hill" />
		<tag k="place" v="locality" />
		<tag k="ssr:stedsnr" v="703840" />
	</node>
	<node id="-28251" lat="60.2847555554" lon="9.72119166324">
		<tag k="name" v="Grasingkollen" />
		<tag k="natural" v="hill" />
		<tag k="place" v="locality" />
		<tag k="ssr:stedsnr" v="701956" />
	</node>
	<node id="-28249" lat="60.1834166683" lon="9.74517499176">
		<tag k="name" v="Sandbakken" />
		<tag k="place" v="locality" />
		<tag k="ssr:stedsnr" v="701865" />
	</node>
	<node id="-28049" lat="60.222677774" lon="9.59296389299">
		<tag k="name" v="Steinset" />
		<tag k="place" v="locality" />
		<tag k="ssr:stedsnr" v="460707" />
	</node>
	<node id="-28078" lat="60.1999694455" lon="9.57584722814">
		<tag k="fixme" v="multiple name tags, choose one and add the other to alt_name" />
		<tag k="name" v="Norehammaren;Hammaren" />
		<tag k="place" v="locality" />
		<tag k="ssr:stedsnr" v="490472" />
	</node>
	<node id="-28176" lat="60.202788889" lon="9.57077500701">
		<tag k="name" v="Damtjennhaugen" />
		<tag k="natural" v="hill" />
		<tag k="place" v="locality" />
		<tag k="ssr:stedsnr" v="703368" />
	</node>
	<node id="-27992" lat="60.2590166631" lon="9.63178054819">
		<tag k="name" v="Ålrustflata" />
		<tag k="place" v="locality" />
		<tag k="ssr:stedsnr" v="278998" />
	</node>
	<node id="-28173" lat="60.265422224" lon="9.6444027767">
		<tag k="name" v="Storekleiv" />
		<tag k="natural" v="valley" />
		<tag k="place" v="locality" />
		<tag k="ssr:stedsnr" v="702993" />
	</node>
	<node id="-28171" lat="60.166988888" lon="9.7705833247">
		<tag k="name" v="Ellingstillingåsen" />
		<tag k="natural" v="ridge" />
		<tag k="place" v="locality" />
		<tag k="ssr:stedsnr" v="701845" />
	</node>
	<node id="-28170" lat="60.1772805576" lon="9.69215832631">
		<tag k="name" v="Rensla" />
		<tag k="natural" v="valley" />
		<tag k="place" v="locality" />
		<tag k="ssr:stedsnr" v="701783" />
	</node>
	<node id="-28168" lat="60.2555722199" lon="9.74340834115">
		<tag k="name" v="Langberget" />
		<tag k="natural" v="hill" />
		<tag k="place" v="locality" />
		<tag k="ssr:stedsnr" v="701678" />
	</node>
	<node id="-28678" lat="60.174919445" lon="9.58833333886">
		<tag k="name" v="Lestebergnipa" />
		<tag k="place" v="locality" />
		<tag k="ssr:stedsnr" v="337099" />
	</node>
	<node id="-28165" lat="60.2268055601" lon="9.74758055079">
		<tag k="name" v="Bullstubbdalen" />
		<tag k="natural" v="valley" />
		<tag k="place" v="locality" />
		<tag k="ssr:stedsnr" v="701640" />
	</node>
	<node id="-28163" lat="60.136136111" lon="9.57912777615">
		<tag k="name" v="Nerli" />
		<tag k="natural" v="slope" />
		<tag k="place" v="locality" />
		<tag k="ssr:stedsnr" v="701658" />
	</node>
	<node id="-28162" lat="60.1309861123" lon="9.60922777457">
		<tag k="name" v="Prestbråtaåsen" />
		<tag k="natural" v="ridge" />
		<tag k="place" v="locality" />
		<tag k="ssr:stedsnr" v="701654" />
	</node>
	<node id="-28331" lat="60.1059111131" lon="9.73548610871">
		<tag k="name" v="Onsåsen" />
		<tag k="natural" v="hill" />
		<tag k="place" v="locality" />
		<tag k="ssr:stedsnr" v="854832" />
	</node>
</osm>
