<?xml version="1.0" encoding="UTF-8"?>
<osm version="0.6" generator="osmapis">
	<node lat="60.248436109333646" lon="9.686805555290698" id="-32448">
		<tag k="name" v="Blodfjellmyra" />
		<tag k="natural" v="wetland" />
		<tag k="ssr:stedsnr" v="34378" />
	</node>
	<node lat="60.24333055590395" lon="9.689275006838766" id="-32449">
		<tag k="landuse" v="meadow" />
		<tag k="name" v="Blodfjellbråten" />
		<tag k="ssr:stedsnr" v="34382" />
	</node>
	<node lat="60.30745277355366" lon="9.62792222938128" id="-32452">
		<tag k="landuse" v="meadow" />
		<tag k="name" v="Jakopsbråtan" />
		<tag k="ssr:stedsnr" v="34404" />
	</node>
	<node lat="60.23886111251088" lon="9.646436117192357" id="-32458">
		<tag k="landuse" v="meadow" />
		<tag k="name" v="Grenslåtta" />
		<tag k="ssr:stedsnr" v="35760" />
	</node>
	<node lat="60.198361109112675" lon="9.77761944335735" id="-32486">
		<tag k="name" v="Steinbekkmyr" />
		<tag k="natural" v="wetland" />
		<tag k="ssr:stedsnr" v="95322" />
	</node>
	<node lat="60.199047222470426" lon="9.772022227662314" id="-32487">
		<tag k="name" v="Gampemyr" />
		<tag k="natural" v="wetland" />
		<tag k="ssr:stedsnr" v="95324" />
	</node>
	<node lat="60.194047224613605" lon="9.607258324653548" id="-32489">
		<tag k="landuse" v="quarry" />
		<tag k="name" v="Braket" />
		<tag k="ssr:stedsnr" v="95490" />
	</node>
	<node lat="60.165763887484665" lon="9.786258328309104" id="-32490">
		<tag k="name" v="Kastmyr" />
		<tag k="natural" v="wetland" />
		<tag k="ssr:stedsnr" v="95814" />
	</node>
	<node lat="60.178647221837814" lon="9.76559445107395" id="-32493">
		<tag k="historic" v="shieling" />
		<tag k="name" v="Sømosetra" />
		<tag k="place" v="locality" />
		<tag k="ssr:stedsnr" v="95870" />
	</node>
	<node lat="60.27793333189992" lon="9.746516658040749" id="-32507">
		<tag k="name" v="Mastemyr" />
		<tag k="natural" v="wetland" />
		<tag k="ssr:stedsnr" v="249632" />
	</node>
	<node lat="60.28047499956747" lon="9.607600002795724" id="-32518">
		<tag k="name" v="Jordesmyr" />
		<tag k="natural" v="wetland" />
		<tag k="ssr:stedsnr" v="127690" />
	</node>
	<node lat="60.10961944198092" lon="9.800941658102275" id="-32523">
		<tag k="name" v="Sauterudhallen" />
		<tag k="place" v="locality" />
		<tag k="ssr:stedsnr" v="154671" />
	</node>
	<node lat="60.12168333192744" lon="9.859802775260077" id="-32526">
		<tag k="alt_name" v="Vintervegmyra" />
		<tag k="name" v="Vinterveimyra" />
		<tag k="natural" v="wetland" />
		<tag k="ssr:stedsnr" v="154806" />
	</node>
	<node lat="60.19609444858393" lon="9.76950000208099" id="-32534">
		<tag k="landuse" v="meadow" />
		<tag k="name" v="Brennbråtan" />
		<tag k="ssr:stedsnr" v="155376" />
	</node>
	<node lat="60.15369166908396" lon="9.59722777053333" id="-32578">
		<tag k="landuse" v="meadow" />
		<tag k="name" v="Bakkebråten" />
		<tag k="ssr:stedsnr" v="458905" />
	</node>
	<node lat="60.15037500326271" lon="9.607513893623148" id="-32583">
		<tag k="name" v="Kloppmyr" />
		<tag k="natural" v="wetland" />
		<tag k="ssr:stedsnr" v="459293" />
	</node>
	<node lat="60.2869388886696" lon="9.640669444116034" id="-32585">
		<tag k="name" v="Tråmyr" />
		<tag k="natural" v="wetland" />
		<tag k="ssr:stedsnr" v="459331" />
	</node>
	<node lat="60.31287777979988" lon="9.676888881112117" id="-32590">
		<tag k="landuse" v="meadow" />
		<tag k="name" v="Drakonbråten" />
		<tag k="ssr:stedsnr" v="276578" />
	</node>
	<node lat="60.150902782088934" lon="9.611550006026038" id="-32596">
		<tag k="name" v="Kloppmyr" />
		<tag k="natural" v="wetland" />
		<tag k="ssr:stedsnr" v="276922" />
	</node>
	<node lat="60.26436111065637" lon="9.580327772604024" id="-32600">
		<tag k="historic" v="shieling" />
		<tag k="name" v="Gudbrandvollen" />
		<tag k="place" v="locality" />
		<tag k="ssr:stedsnr" v="277408" />
	</node>
	<node lat="60.19261388575304" lon="9.798758338416826" id="-32621">
		<tag k="name" v="Lunnemyr" />
		<tag k="natural" v="wetland" />
		<tag k="ssr:stedsnr" v="336412" />
	</node>
	<node lat="60.19650555714726" lon="9.764450003393616" id="-32626">
		<tag k="name" v="Tørjermyr" />
		<tag k="natural" v="wetland" />
		<tag k="ssr:stedsnr" v="337405" />
	</node>
	<node lat="60.20049166620292" lon="9.776338889230168" id="-32627">
		<tag k="name" v="Gutemyr" />
		<tag k="natural" v="wetland" />
		<tag k="ssr:stedsnr" v="337409" />
	</node>
	<node lat="60.09932222259248" lon="9.784127769628205" id="-32628">
		<tag k="historic" v="shieling" />
		<tag k="name" v="Jensseter" />
		<tag k="place" v="locality" />
		<tag k="ssr:stedsnr" v="337419" />
	</node>
	<node lat="60.26971111267159" lon="9.593263893681973" id="-32629">
		<tag k="historic" v="shieling" />
		<tag k="name" v="Skolsetervollen" />
		<tag k="place" v="locality" />
		<tag k="ssr:stedsnr" v="337445" />
	</node>
	<node lat="60.16379444131343" lon="9.739863897052633" id="-32631">
		<tag k="name" v="Sandmostykket" />
		<tag k="place" v="locality" />
		<tag k="ssr:stedsnr" v="337855" />
	</node>
	<node lat="60.20208333293999" lon="9.675361110487918" id="-32634">
		<tag k="historic" v="shieling" />
		<tag k="name" v="Bjertnessetra" />
		<tag k="place" v="locality" />
		<tag k="ssr:stedsnr" v="339132" />
	</node>
	<node lat="60.22072221968926" lon="9.724069450520846" id="-32651">
		<tag k="landuse" v="meadow" />
		<tag k="name" v="Steinhusbråten" />
		<tag k="ssr:stedsnr" v="398578" />
	</node>
	<node lat="60.10578055247742" lon="9.827461118416561" id="-32708">
		<tag k="name" v="Tubbemyr" />
		<tag k="natural" v="wetland" />
		<tag k="ssr:stedsnr" v="458669" />
	</node>
	<node lat="60.19151389067324" lon="9.745274995590652" id="-32712">
		<tag k="name" v="Bleikmyrstykket" />
		<tag k="natural" v="wetland" />
		<tag k="ssr:stedsnr" v="459870" />
	</node>
	<node lat="60.12805277367425" lon="9.8348444383409" id="-32735">
		<tag k="name" v="Porsmyr" />
		<tag k="natural" v="wetland" />
		<tag k="ssr:stedsnr" v="519077" />
	</node>
	<node lat="60.13546389234903" lon="9.62596665928759" id="-32737">
		<tag k="historic" v="shieling" />
		<tag k="name" v="Ødegårdsetra" />
		<tag k="place" v="locality" />
		<tag k="ssr:stedsnr" v="519320" />
	</node>
	<node lat="60.11324721813304" lon="9.78324166355663" id="-32759">
		<tag k="name" v="Strykmyra" />
		<tag k="natural" v="wetland" />
		<tag k="ssr:stedsnr" v="580011" />
	</node>
	<node lat="60.10763610720354" lon="9.706130555501675" id="-32762">
		<tag k="landuse" v="meadow" />
		<tag k="name" v="Storebråtan" />
		<tag k="ssr:stedsnr" v="580315" />
	</node>
	<node lat="60.18410000057134" lon="9.709533326742129" id="-32765">
		<tag k="name" v="Flåbergmyr" />
		<tag k="natural" v="wetland" />
		<tag k="ssr:stedsnr" v="580747" />
	</node>
	<node lat="60.200247220046684" lon="9.739252786199675" id="-32782">
		<tag k="landuse" v="meadow" />
		<tag k="name" v="Elvebråten" />
		<tag k="ssr:stedsnr" v="701597" />
	</node>
	<node lat="60.163216670049074" lon="9.589166671917567" id="-32783">
		<tag k="landuse" v="meadow" />
		<tag k="name" v="Hølbråten" />
		<tag k="ssr:stedsnr" v="701638" />
	</node>
	<node lat="60.26868055309856" lon="9.704827770196411" id="-32789">
		<tag k="landuse" v="meadow" />
		<tag k="name" v="Asbråten" />
		<tag k="ssr:stedsnr" v="701695" />
	</node>
	<node lat="60.20233888762706" lon="9.56578055381473" id="-32795">
		<tag k="name" v="Damtjennmyra" />
		<tag k="natural" v="wetland" />
		<tag k="ssr:stedsnr" v="703369" />
	</node>
	<node lat="60.21442777695715" lon="9.586219452694431" id="-32796">
		<tag k="landuse" v="meadow" />
		<tag k="name" v="Ringnesslåtta" />
		<tag k="ssr:stedsnr" v="703370" />
	</node>
	<node lat="60.21942499862545" lon="9.670069451145395" id="-32801">
		<tag k="name" v="Svendstykket" />
		<tag k="place" v="locality" />
		<tag k="ssr:stedsnr" v="703601" />
	</node>
	<node lat="60.10334444821735" lon="9.771405558434811" id="-32813">
		<tag k="name" v="Gjellemyran" />
		<tag k="natural" v="wetland" />
		<tag k="ssr:stedsnr" v="640411" />
	</node>
	<node lat="60.25138611244616" lon="9.667613882585654" id="-32822">
		<tag k="landuse" v="meadow" />
		<tag k="name" v="Jonbråtan" />
		<tag k="ssr:stedsnr" v="640985" />
	</node>
	<node lat="60.18740555391957" lon="9.678391661272373" id="-32838">
		<tag k="name" v="Delingsmyr" />
		<tag k="natural" v="wetland" />
		<tag k="ssr:stedsnr" v="701064" />
	</node>
	<node lat="60.09997777665577" lon="9.715227770332582" id="-32840">
		<tag k="name" v="Småmyran" />
		<tag k="natural" v="wetland" />
		<tag k="ssr:stedsnr" v="701473" />
	</node>
	<node lat="60.19264999945771" lon="9.767299995714529" id="-32846">
		<tag k="name" v="Fjerdingsmyr" />
		<tag k="natural" v="wetland" />
		<tag k="ssr:stedsnr" v="701869" />
	</node>
	<node lat="60.17194444480136" lon="9.797916663060432" id="-32862">
		<tag k="name" v="Hyttemyr" />
		<tag k="natural" v="wetland" />
		<tag k="ssr:stedsnr" v="761498" />
	</node>
	<node lat="60.14842777416972" lon="9.877052769196817" id="-32863">
		<tag k="name" v="Delingsmyr" />
		<tag k="natural" v="wetland" />
		<tag k="ssr:stedsnr" v="761803" />
	</node>
	<node lat="60.1809194438703" lon="9.633930553800884" id="-32866">
		<tag k="name" v="Havna" />
		<tag k="place" v="locality" />
		<tag k="ssr:stedsnr" v="762057" />
	</node>
	<node lat="60.191216670341475" lon="9.735672229443669" id="-32873">
		<tag k="name" v="Gravningsmyr" />
		<tag k="natural" v="wetland" />
		<tag k="ssr:stedsnr" v="762856" />
	</node>
	<node lat="60.24222222441566" lon="9.64766666308077" id="-32877">
		<tag k="landuse" v="meadow" />
		<tag k="name" v="Vikbråtan" />
		<tag k="ssr:stedsnr" v="763743" />
	</node>
	<node lat="60.143875001851" lon="9.85612499221417" id="-32910">
		<tag k="historic" v="shieling" />
		<tag k="name" v="Vassendrudsetra" />
		<tag k="place" v="locality" />
		<tag k="ssr:stedsnr" v="822766" />
	</node>
	<node lat="60.11101944182386" lon="9.815197215690507" id="-32911">
		<tag k="name" v="Puttemyran" />
		<tag k="natural" v="wetland" />
		<tag k="ssr:stedsnr" v="822780" />
	</node>
	<node lat="60.188836111348216" lon="9.587000008519341" id="-32915">
		<tag k="name" v="Setermyr" />
		<tag k="natural" v="wetland" />
		<tag k="ssr:stedsnr" v="823067" />
	</node>
	<node lat="60.2419583305824" lon="9.700125007276203" id="-32918">
		<tag k="name" v="Langemyr" />
		<tag k="natural" v="wetland" />
		<tag k="ssr:stedsnr" v="823412" />
	</node>
	<node lat="60.121897217850304" lon="9.610797214138488" id="-32919">
		<tag k="name" v="Stormyra" />
		<tag k="natural" v="wetland" />
		<tag k="ssr:stedsnr" v="823624" />
	</node>
	<node lat="60.09544999560805" lon="9.71004722598355" id="-32938">
		<tag k="name" v="Gørrmyr" />
		<tag k="natural" v="wetland" />
		<tag k="ssr:stedsnr" v="884357" />
	</node>
	<node lat="60.210561114189815" lon="9.67127500664666" id="-32940">
		<tag k="name" v="Venemyr" />
		<tag k="natural" v="wetland" />
		<tag k="ssr:stedsnr" v="885118" />
	</node>
	<node lat="60.20652777494724" lon="9.533161118861445" id="-32962">
		<tag k="name" v="Hekletjennmyr" />
		<tag k="natural" v="wetland" />
		<tag k="ssr:stedsnr" v="946839" />
	</node>
	<node lat="60.293762523958385" lon="9.595354509434213" id="-33076">
		<tag k="alt_name" v="Søndre Langemyr" />
		<tag k="name" v="Søre Langemyr" />
		<tag k="natural" v="wetland" />
		<tag k="ssr:stedsnr" v="6683" />
	</node>
	<node lat="60.2858250028268" lon="9.687188889483378" id="-33084">
		<tag k="name" v="Løren" />
		<tag k="place" v="locality" />
		<tag k="ssr:stedsnr" v="33593" />
	</node>
	<node lat="60.135472225596075" lon="9.665777771412447" id="-33093">
		<tag k="name" v="Oksemyr" />
		<tag k="natural" v="wetland" />
		<tag k="ssr:stedsnr" v="34285" />
	</node>
	<node lat="60.11418888897963" lon="9.645222213812856" id="-33094">
		<tag k="historic" v="shieling" />
		<tag k="name" v="Torstenrudsetra" />
		<tag k="place" v="locality" />
		<tag k="ssr:stedsnr" v="34296" />
	</node>
	<node lat="60.20253611319203" lon="9.77748889611943" id="-33097">
		<tag k="landuse" v="meadow" />
		<tag k="name" v="Storebråten" />
		<tag k="ssr:stedsnr" v="34337" />
	</node>
	<node lat="60.17974722370971" lon="9.753819439703555" id="-33105">
		<tag k="name" v="Karlemyr" />
		<tag k="natural" v="wetland" />
		<tag k="ssr:stedsnr" v="34833" />
	</node>
	<node lat="60.24435555956398" lon="9.67053610947998" id="-33106">
		<tag k="name" v="Fugleleikmyra" />
		<tag k="natural" v="wetland" />
		<tag k="ssr:stedsnr" v="34977" />
	</node>
	<node lat="60.23209722262268" lon="9.596413885758572" id="-33108">
		<tag k="landuse" v="meadow" />
		<tag k="name" v="Lyngbråten" />
		<tag k="ssr:stedsnr" v="35696" />
	</node>
	<node lat="60.24880833046663" lon="9.659277773459824" id="-33112">
		<tag k="name" v="Dammanmyra" />
		<tag k="natural" v="wetland" />
		<tag k="ssr:stedsnr" v="35982" />
	</node>
	<node lat="60.19904444029999" lon="9.509944452011954" id="-33122">
		<tag k="name" v="Hesjamyra" />
		<tag k="natural" v="wetland" />
		<tag k="ssr:stedsnr" v="65486" />
	</node>
	<node lat="60.16293610911122" lon="9.585447223984083" id="-33136">
		<tag k="name" v="Høljordet" />
		<tag k="place" v="locality" />
		<tag k="ssr:stedsnr" v="94649" />
	</node>
	<node lat="60.27005278042953" lon="9.59034722667612" id="-33142">
		<tag k="name" v="Geitemyr" />
		<tag k="natural" v="wetland" />
		<tag k="ssr:stedsnr" v="95381" />
	</node>
	<node lat="60.18274999880931" lon="9.569116668628308" id="-33147">
		<tag k="name" v="Jensrud" />
		<tag k="place" v="locality" />
		<tag k="ssr:stedsnr" v="95065" />
	</node>
	<node lat="60.12326389134912" lon="9.675055563296047" id="-33153">
		<tag k="name" v="Breskemyra" />
		<tag k="natural" v="wetland" />
		<tag k="ssr:stedsnr" v="95293" />
	</node>
	<node lat="60.250647226394086" lon="9.711002773490764" id="-33154">
		<tag k="name" v="Lomtjennstein" />
		<tag k="natural" v="stone" />
		<tag k="ssr:stedsnr" v="95357" />
	</node>
	<node lat="60.17328055126034" lon="9.683352771914134" id="-33155">
		<tag k="name" v="Heia" />
		<tag k="place" v="locality" />
		<tag k="ssr:stedsnr" v="95733" />
	</node>
	<node lat="60.20568611264296" lon="9.598886104229562" id="-33159">
		<tag k="landuse" v="meadow" />
		<tag k="name" v="Larsbråten" />
		<tag k="ssr:stedsnr" v="96348" />
	</node>
	<node lat="60.12580277751353" lon="9.706299996072639" id="-33176">
		<tag k="landuse" v="meadow" />
		<tag k="name" v="Erikbråten" />
		<tag k="ssr:stedsnr" v="155077" />
	</node>
	<node lat="60.11898611427095" lon="9.709263897704892" id="-33177">
		<tag k="name" v="Stormyra" />
		<tag k="natural" v="wetland" />
		<tag k="ssr:stedsnr" v="155078" />
	</node>
	<node lat="60.26963333597053" lon="9.750838881272994" id="-33179">
		<tag k="name" v="Jehansbråtamyr" />
		<tag k="natural" v="wetland" />
		<tag k="ssr:stedsnr" v="155638" />
	</node>
	<node lat="60.24124999787409" lon="9.658569435891117" id="-33184">
		<tag k="name" v="Treputtmyra" />
		<tag k="natural" v="wetland" />
		<tag k="ssr:stedsnr" v="156986" />
	</node>
	<node lat="60.08983333694774" lon="9.747224997194136" id="-33228">
		<tag k="name" v="Grinimyr" />
		<tag k="natural" v="wetland" />
		<tag k="ssr:stedsnr" v="216366" />
	</node>
	<node lat="60.18802499893568" lon="9.758055561934999" id="-33234">
		<tag k="name" v="Drapstein" />
		<tag k="natural" v="stone" />
		<tag k="ssr:stedsnr" v="216865" />
	</node>
	<node lat="60.292586110205114" lon="9.587975007432549" id="-33237">
		<tag k="name" v="Reinemyrene" />
		<tag k="natural" v="wetland" />
		<tag k="ssr:stedsnr" v="217350" />
	</node>
	<node lat="60.25553055820026" lon="9.616550005088857" id="-33239">
		<tag k="name" v="Møllejordet" />
		<tag k="place" v="locality" />
		<tag k="ssr:stedsnr" v="218000" />
	</node>
	<node lat="60.18372499668574" lon="9.555347214643499" id="-33241">
		<tag k="name" v="Moen" />
		<tag k="place" v="locality" />
		<tag k="ssr:stedsnr" v="218140" />
	</node>
	<node lat="60.21918055982496" lon="9.629588897071692" id="-33242">
		<tag k="name" v="Munkebakken" />
		<tag k="place" v="locality" />
		<tag k="ssr:stedsnr" v="218546" />
	</node>
	<node lat="60.24510555696618" lon="9.739941671533334" id="-33244">
		<tag k="name" v="Slåttemyr" />
		<tag k="natural" v="wetland" />
		<tag k="ssr:stedsnr" v="276716" />
	</node>
	<node lat="60.21790277960682" lon="9.764805563452374" id="-33247">
		<tag k="landuse" v="meadow" />
		<tag k="name" v="Dalabråten" />
		<tag k="ssr:stedsnr" v="277593" />
	</node>
	<node lat="60.11582778135678" lon="9.71822222560668" id="-33252">
		<tag k="name" v="Igletjennmyra" />
		<tag k="natural" v="wetland" />
		<tag k="ssr:stedsnr" v="277063" />
	</node>
	<node lat="60.158841668885316" lon="9.780436119568801" id="-33259">
		<tag k="name" v="Damtjennmyr" />
		<tag k="natural" v="wetland" />
		<tag k="ssr:stedsnr" v="277850" />
	</node>
	<node lat="60.21075000273901" lon="9.565666673288337" id="-33263">
		<tag k="name" v="Snekkermyra" />
		<tag k="natural" v="wetland" />
		<tag k="ssr:stedsnr" v="278357" />
	</node>
	<node lat="60.20590278184503" lon="9.564791661027837" id="-33264">
		<tag k="name" v="Ølløkmyra" />
		<tag k="natural" v="wetland" />
		<tag k="ssr:stedsnr" v="278359" />
	</node>
	<node lat="60.09403611275558" lon="9.73984721838928" id="-33288">
		<tag k="name" v="Flåmyran" />
		<tag k="natural" v="wetland" />
		<tag k="ssr:stedsnr" v="337424" />
	</node>
	<node lat="60.114197220621165" lon="9.836458335085842" id="-33289">
		<tag k="name" v="Kroktjennmyra" />
		<tag k="natural" v="wetland" />
		<tag k="ssr:stedsnr" v="336765" />
	</node>
	<node lat="60.183402774353596" lon="9.578405563052565" id="-33290">
		<tag k="name" v="Kloppmyr" />
		<tag k="natural" v="wetland" />
		<tag k="ssr:stedsnr" v="337071" />
	</node>
	<node lat="60.21297222657666" lon="9.66050833385656" id="-33296">
		<tag k="name" v="Hellemyr" />
		<tag k="natural" v="wetland" />
		<tag k="ssr:stedsnr" v="338341" />
	</node>
	<node lat="60.28395277566282" lon="9.644966661043288" id="-33297">
		<tag k="name" v="Tretjennmyr" />
		<tag k="natural" v="wetland" />
		<tag k="ssr:stedsnr" v="338289" />
	</node>
	<node lat="60.306199998950916" lon="9.63129444310881" id="-33298">
		<tag k="name" v="Jakopsmyr" />
		<tag k="natural" v="wetland" />
		<tag k="ssr:stedsnr" v="338380" />
	</node>
	<node lat="60.24800555355373" lon="9.653144438493957" id="-33302">
		<tag k="landuse" v="meadow" />
		<tag k="name" v="Perbråtan" />
		<tag k="ssr:stedsnr" v="338977" />
	</node>
	<node lat="60.24691389138596" lon="9.656569452866796" id="-33303">
		<tag k="landuse" v="meadow" />
		<tag k="name" v="Kallebråtan" />
		<tag k="ssr:stedsnr" v="338981" />
	</node>
	<node lat="60.20944721902703" lon="9.67794166119353" id="-33305">
		<tag k="name" v="Langemyr" />
		<tag k="natural" v="wetland" />
		<tag k="ssr:stedsnr" v="339133" />
	</node>
	<node lat="60.12469444280671" lon="9.63625000743151" id="-33331">
		<tag k="name" v="Kalenemyr" />
		<tag k="natural" v="wetland" />
		<tag k="ssr:stedsnr" v="398294" />
	</node>
	<node lat="60.11215555993811" lon="9.654983330463356" id="-33332">
		<tag k="historic" v="shieling" />
		<tag k="name" v="Glasrudsetra" />
		<tag k="place" v="locality" />
		<tag k="ssr:stedsnr" v="398297" />
	</node>
	<node lat="60.20848889054971" lon="9.779127781985949" id="-33333">
		<tag k="name" v="Svartemyr" />
		<tag k="natural" v="wetland" />
		<tag k="ssr:stedsnr" v="398339" />
	</node>
	<node lat="60.103486107961224" lon="9.708930559476071" id="-33334">
		<tag k="name" v="Persbråtamyra" />
		<tag k="natural" v="wetland" />
		<tag k="ssr:stedsnr" v="398349" />
	</node>
	<node lat="60.100575002597154" lon="9.721041661039752" id="-33335">
		<tag k="name" v="Slåttemyr" />
		<tag k="natural" v="wetland" />
		<tag k="ssr:stedsnr" v="398351" />
	</node>
	<node lat="60.198038886032826" lon="9.6035111127807" id="-33350">
		<tag k="name" v="Smedsrud" />
		<tag k="place" v="locality" />
		<tag k="ssr:stedsnr" v="399537" />
	</node>
	<node lat="60.122691664006545" lon="9.802644440977438" id="-33376">
		<tag k="name" v="Svarttjennbrenna" />
		<tag k="place" v="locality" />
		<tag k="ssr:stedsnr" v="518755" />
	</node>
	<node lat="60.180355554693485" lon="9.59673056449315" id="-33378">
		<tag k="name" v="Bergajordet" />
		<tag k="place" v="locality" />
		<tag k="ssr:stedsnr" v="519048" />
	</node>
	<node lat="60.19338055743967" lon="9.58873610545984" id="-33380">
		<tag k="landuse" v="meadow" />
		<tag k="name" v="Blåbærbråten" />
		<tag k="ssr:stedsnr" v="519130" />
	</node>
	<node lat="60.190536112044214" lon="9.589605556074698" id="-33383">
		<tag k="landuse" v="meadow" />
		<tag k="name" v="Hestebråten" />
		<tag k="ssr:stedsnr" v="519132" />
	</node>
	<node lat="60.10505833211553" lon="9.811172223055124" id="-33386">
		<tag k="name" v="Ollemyr" />
		<tag k="natural" v="wetland" />
		<tag k="ssr:stedsnr" v="519638" />
	</node>
	<node lat="60.15243888856666" lon="9.599722226344259" id="-33387">
		<tag k="name" v="Bakkebråtamyr" />
		<tag k="natural" v="wetland" />
		<tag k="ssr:stedsnr" v="519901" />
	</node>
	<node lat="60.23056110695975" lon="9.750713885677644" id="-33421">
		<tag k="name" v="Nipemyr" />
		<tag k="natural" v="wetland" />
		<tag k="ssr:stedsnr" v="580561" />
	</node>
	<node lat="60.16943888600338" lon="9.754022216585307" id="-33424">
		<tag k="name" v="Kittilbråtamyra" />
		<tag k="natural" v="wetland" />
		<tag k="ssr:stedsnr" v="580825" />
	</node>
	<node lat="60.19018333724369" lon="9.626077783326553" id="-33449">
		<tag k="landuse" v="meadow" />
		<tag k="name" v="Sundebråten" />
		<tag k="ssr:stedsnr" v="640050" />
	</node>
	<node lat="60.30128055274581" lon="9.695419447237102" id="-33455">
		<tag k="historic" v="shieling" />
		<tag k="name" v="Ørgenviksetra" />
		<tag k="place" v="locality" />
		<tag k="ssr:stedsnr" v="640538" />
	</node>
	<node lat="60.183972219401944" lon="9.727644441804328" id="-33458">
		<tag k="name" v="Bjønnemyr" />
		<tag k="natural" v="wetland" />
		<tag k="ssr:stedsnr" v="640748" />
	</node>
	<node lat="60.174386107282466" lon="9.722333327696358" id="-33459">
		<tag k="name" v="Bygningsmyr" />
		<tag k="natural" v="wetland" />
		<tag k="ssr:stedsnr" v="640754" />
	</node>
	<node lat="60.1880888878598" lon="9.756130560904065" id="-33462">
		<tag k="name" v="Delingsmyr" />
		<tag k="natural" v="wetland" />
		<tag k="ssr:stedsnr" v="640866" />
	</node>
	<node lat="60.18146389184283" lon="9.548941668781387" id="-33466">
		<tag k="name" v="Diplemyr" />
		<tag k="natural" v="wetland" />
		<tag k="old_name" v="Diolemyr" />
		<tag k="ssr:stedsnr" v="642133" />
	</node>
	<node lat="60.10080555803456" lon="9.695952773557543" id="-33495">
		<tag k="name" v="Reiersmyr" />
		<tag k="natural" v="wetland" />
		<tag k="ssr:stedsnr" v="762363" />
	</node>
	<node lat="60.09343055902662" lon="9.750949999291215" id="-33497">
		<tag k="name" v="Grisemyr" />
		<tag k="natural" v="wetland" />
		<tag k="ssr:stedsnr" v="762370" />
	</node>
	<node lat="60.179874999433174" lon="9.722663892168745" id="-33500">
		<tag k="name" v="Oppkjøringsmyr" />
		<tag k="natural" v="wetland" />
		<tag k="ssr:stedsnr" v="762730" />
	</node>
	<node lat="60.221647225068686" lon="9.756641669340853" id="-33503">
		<tag k="name" v="Kjellarmyr" />
		<tag k="natural" v="wetland" />
		<tag k="ssr:stedsnr" v="762566" />
	</node>
	<node lat="60.13653055943702" lon="9.59897499745018" id="-33504">
		<tag k="historic" v="shieling" />
		<tag k="name" v="Dalstøl" />
		<tag k="place" v="locality" />
		<tag k="ssr:stedsnr" v="762584" />
	</node>
	<node lat="60.18644444023956" lon="9.615105546990605" id="-33505">
		<tag k="name" v="Sunnelykkja" />
		<tag k="place" v="locality" />
		<tag k="ssr:stedsnr" v="762525" />
	</node>
	<node lat="60.23972500019441" lon="9.601677770270303" id="-33509">
		<tag k="name" v="Jordesjorde" />
		<tag k="place" v="locality" />
		<tag k="ssr:stedsnr" v="762882" />
	</node>
	<node lat="60.24356666795954" lon="9.675183327731176" id="-33510">
		<tag k="name" v="Stillingmyra" />
		<tag k="natural" v="wetland" />
		<tag k="ssr:stedsnr" v="762969" />
	</node>
	<node lat="60.221369443660876" lon="9.5857888867708" id="-33511">
		<tag k="landuse" v="meadow" />
		<tag k="name" v="Gulslåtta" />
		<tag k="ssr:stedsnr" v="763630" />
	</node>
	<node lat="60.205775000657226" lon="9.514286113545255" id="-33514">
		<tag k="name" v="Storrmyra" />
		<tag k="natural" v="wetland" />
		<tag k="ssr:stedsnr" v="764870" />
	</node>
	<node lat="60.29680277917361" lon="9.598219435743477" id="-33530">
		<tag k="name" v="Langemyr" />
		<tag k="natural" v="wetland" />
		<tag k="ssr:stedsnr" v="795691" />
	</node>
	<node lat="60.1354111103162" lon="9.669247230371445" id="-33536">
		<tag k="name" v="Slåttemyr" />
		<tag k="natural" v="wetland" />
		<tag k="ssr:stedsnr" v="823281" />
	</node>
	<node lat="60.18504166946392" lon="9.759247226414248" id="-33539">
		<tag k="name" v="Stormyr" />
		<tag k="natural" v="wetland" />
		<tag k="ssr:stedsnr" v="823828" />
	</node>
	<node lat="60.20226388753222" lon="9.762183324412096" id="-33541">
		<tag k="historic" v="shieling" />
		<tag k="name" v="Sleviksetra" />
		<tag k="place" v="locality" />
		<tag k="ssr:stedsnr" v="823350" />
	</node>
	<node lat="60.20758611342356" lon="9.771947225746098" id="-33543">
		<tag k="name" v="Stormyr" />
		<tag k="natural" v="wetland" />
		<tag k="ssr:stedsnr" v="823359" />
	</node>
	<node lat="60.184091666351144" lon="9.736191664665823" id="-33546">
		<tag k="name" v="Kittilbråtamyr" />
		<tag k="natural" v="wetland" />
		<tag k="ssr:stedsnr" v="823715" />
	</node>
	<node lat="60.17576388456511" lon="9.747508333342195" id="-33579">
		<tag k="landuse" v="meadow" />
		<tag k="name" v="Råenbråtan" />
		<tag k="ssr:stedsnr" v="884840" />
	</node>
	<node lat="60.245380551697906" lon="9.676861111591533" id="-33581">
		<tag k="name" v="Salfaumyr" />
		<tag k="natural" v="wetland" />
		<tag k="ssr:stedsnr" v="884976" />
	</node>
	<node lat="60.1503722220502" lon="9.588194440884271" id="-33589">
		<tag k="landuse" v="meadow" />
		<tag k="name" v="Bakkebråtan" />
		<tag k="ssr:stedsnr" v="884270" />
	</node>
	<node lat="60.11719444440995" lon="9.633000003015841" id="-33590">
		<tag k="historic" v="shieling" />
		<tag k="name" v="Hovdensetra" />
		<tag k="place" v="locality" />
		<tag k="ssr:stedsnr" v="884287" />
	</node>
	<node lat="60.17438333000728" lon="9.706441666221476" id="-33593">
		<tag k="landuse" v="meadow" />
		<tag k="name" v="Øvre Ospesnarbråten" />
		<tag k="ssr:stedsnr" v="884710" />
	</node>
	<node lat="60.144861111805994" lon="9.561908325875066" id="-33596">
		<tag k="name" v="Torkildsmyr" />
		<tag k="natural" v="wetland" />
		<tag k="ssr:stedsnr" v="885175" />
	</node>
	<node lat="60.176974996354694" lon="9.836425002589646" id="-33601">
		<tag k="historic" v="shieling" />
		<tag k="name" v="Gamlesetra" />
		<tag k="place" v="locality" />
		<tag k="ssr:stedsnr" v="943443" />
	</node>
	<node lat="60.148866670942674" lon="9.578813895967299" id="-33608">
		<tag k="historic" v="shieling" />
		<tag k="name" v="Persetra" />
		<tag k="place" v="locality" />
		<tag k="ssr:stedsnr" v="944349" />
	</node>
	<node lat="60.24899999619606" lon="9.736544441275896" id="-33611">
		<tag k="name" v="Langemyr" />
		<tag k="natural" v="wetland" />
		<tag k="ssr:stedsnr" v="944672" />
	</node>
	<node lat="60.23811666321319" lon="9.674283336662262" id="-33615">
		<tag k="name" v="Gåranstillingmyra" />
		<tag k="natural" v="wetland" />
		<tag k="ssr:stedsnr" v="944968" />
	</node>
	<node lat="60.236680557381376" lon="9.631999998739174" id="-33617">
		<tag k="landuse" v="meadow" />
		<tag k="name" v="Vinnaslåtta" />
		<tag k="ssr:stedsnr" v="945516" />
	</node>
	<node lat="60.22356944863717" lon="9.667558328480153" id="-33618">
		<tag k="name" v="Dammyra" />
		<tag k="natural" v="wetland" />
		<tag k="ssr:stedsnr" v="946542" />
	</node>
</osm>
