<?xml version="1.0" encoding="UTF-8"?>
<osm generator="osmapis" version="0.6">
	<node id="-100351" lat="64.5737333315" lon="11.0118749999">
		<tag k="name" v="Kvernalia" />
		<tag k="natural" v="slope" />
		<tag k="place" v="locality" />
		<tag k="ssr:stedsnr" v="377561" />
	</node>
	<node id="-98984" lat="64.3694083304" lon="10.8563777702">
		<tag k="name" v="Lensmarka" />
		<tag k="natural" v="slope" />
		<tag k="place" v="locality" />
		<tag k="ssr:stedsnr" v="230906" />
	</node>
	<node id="-100332" lat="64.4237222234" lon="10.6529249979">
		<tag k="name" v="Åsmulen" />
		<tag k="natural" v="hill" />
		<tag k="place" v="locality" />
		<tag k="ssr:stedsnr" v="352784" />
	</node>
	<node id="-100328" lat="64.5673138869" lon="11.0424944466">
		<tag k="name" v="Langåshaugen" />
		<tag k="natural" v="hill" />
		<tag k="place" v="locality" />
		<tag k="ssr:stedsnr" v="352359" />
	</node>
	<node id="-100327" lat="64.5583083344" lon="11.0339000003">
		<tag k="fixme" v="consider natural=peak for the most distinct mountains in the district" />
		<tag k="name" v="Gravmarknova" />
		<tag k="natural" v="hill" />
		<tag k="place" v="locality" />
		<tag k="ssr:stedsnr" v="352335" />
	</node>
	<node id="-100326" lat="64.5659972266" lon="10.9914555499">
		<tag k="fixme" v="consider natural=peak for the most distinct mountains in the district" />
		<tag k="name" v="Rørvassflauget" />
		<tag k="natural" v="hill" />
		<tag k="place" v="locality" />
		<tag k="ssr:stedsnr" v="352330" />
	</node>
	<node id="-100324" lat="64.3834888881" lon="10.8859944464">
		<tag k="fixme" v="consider natural=peak for the most distinct mountains in the district" />
		<tag k="name" v="Sukkertoppen" />
		<tag k="natural" v="hill" />
		<tag k="ssr:stedsnr" v="351968" />
	</node>
	<node id="-100322" lat="64.6062305593" lon="10.9749111143">
		<tag k="name" v="Aurstøa" />
		<tag k="natural" v="slope" />
		<tag k="place" v="locality" />
		<tag k="ssr:stedsnr" v="351943" />
	</node>
	<node id="-100320" lat="64.3356472204" lon="10.8717694383">
		<tag k="name" v="Kvitberget" />
		<tag k="natural" v="hill" />
		<tag k="place" v="locality" />
		<tag k="ssr:stedsnr" v="351897" />
	</node>
	<node id="-100316" lat="64.3230527803" lon="10.9500027824">
		<tag k="name" v="Raplia" />
		<tag k="natural" v="slope" />
		<tag k="place" v="locality" />
		<tag k="ssr:stedsnr" v="351872" />
	</node>
	<node id="-100315" lat="64.3290111143" lon="10.923950006">
		<tag k="name" v="Struphaugen" />
		<tag k="natural" v="hill" />
		<tag k="place" v="locality" />
		<tag k="ssr:stedsnr" v="351871" />
	</node>
	<node id="-100312" lat="64.5429499967" lon="10.9674666696">
		<tag k="fixme" v="consider natural=peak for the most distinct mountains in the district" />
		<tag k="name" v="Steinvikklompen" />
		<tag k="natural" v="hill" />
		<tag k="place" v="locality" />
		<tag k="ssr:stedsnr" v="351822" />
	</node>
	<node id="-100310" lat="64.3465527734" lon="10.8916944465">
		<tag k="name" v="Mursteinlia" />
		<tag k="natural" v="slope" />
		<tag k="place" v="locality" />
		<tag k="ssr:stedsnr" v="351591" />
	</node>
	<node id="-100308" lat="64.3121111115" lon="10.8873277727">
		<tag k="fixme" v="consider natural=peak for the most distinct mountains in the district" />
		<tag k="name" v="Aunakrona" />
		<tag k="natural" v="hill" />
		<tag k="ssr:stedsnr" v="351577" />
	</node>
	<node id="-100307" lat="64.4513027756" lon="10.9018972298">
		<tag k="name" v="Ratet" />
		<tag k="natural" v="slope" />
		<tag k="place" v="locality" />
		<tag k="ssr:stedsnr" v="352993" />
	</node>
	<node id="-100306" lat="64.4254972182" lon="10.9404333258">
		<tag k="name" v="Morkavesterlia" />
		<tag k="natural" v="slope" />
		<tag k="place" v="locality" />
		<tag k="ssr:stedsnr" v="352980" />
	</node>
	<node id="-100302" lat="64.434469441" lon="11.0337583301">
		<tag k="name" v="Fjellsskraparvika" />
		<tag k="natural" v="hill" />
		<tag k="place" v="locality" />
		<tag k="ssr:stedsnr" v="351044" />
	</node>
	<node id="-100299" lat="64.4082694483" lon="10.6568833319">
		<tag k="fixme" v="consider natural=peak for the most distinct mountains in the district" />
		<tag k="name" v="Kjerringfjellet" />
		<tag k="natural" v="hill" />
		<tag k="place" v="locality" />
		<tag k="ssr:stedsnr" v="349034" />
	</node>
	<node id="-100298" lat="64.5160999973" lon="10.756088887">
		<tag k="name" v="Mortberget" />
		<tag k="natural" v="hill" />
		<tag k="place" v="locality" />
		<tag k="ssr:stedsnr" v="331888" />
	</node>
	<node id="-100293" lat="64.4681388916" lon="10.8264944538">
		<tag k="name" v="Bryggberget" />
		<tag k="natural" v="hill" />
		<tag k="place" v="locality" />
		<tag k="ssr:stedsnr" v="330094" />
	</node>
	<node id="-100290" lat="64.4658222206" lon="10.8173194463">
		<tag k="name" v="Storhaugen" />
		<tag k="natural" v="hill" />
		<tag k="place" v="locality" />
		<tag k="ssr:stedsnr" v="330085" />
	</node>
	<node id="-100289" lat="64.4175944447" lon="10.5659083355">
		<tag k="name" v="Kalhammaren" />
		<tag k="natural" v="hill" />
		<tag k="place" v="locality" />
		<tag k="ssr:stedsnr" v="330142" />
	</node>
	<node id="-98976" lat="64.5014249992" lon="10.9953888889">
		<tag k="name" v="Gråfjellet" />
		<tag k="natural" v="hill" />
		<tag k="place" v="locality" />
		<tag k="ssr:stedsnr" v="439752" />
	</node>
	<node id="-100286" lat="64.484722226" lon="10.9542166642">
		<tag k="fixme" v="consider natural=peak for the most distinct mountains in the district" />
		<tag k="name" v="Storengåsen" />
		<tag k="natural" v="hill" />
		<tag k="place" v="locality" />
		<tag k="ssr:stedsnr" v="329165" />
	</node>
	<node id="-100284" lat="64.5002222197" lon="10.954055547">
		<tag k="name" v="Buknotthaugen" />
		<tag k="natural" v="hill" />
		<tag k="place" v="locality" />
		<tag k="ssr:stedsnr" v="329145" />
	</node>
	<node id="-100283" lat="64.5109805592" lon="10.9795666691">
		<tag k="name" v="Storlia" />
		<tag k="natural" v="slope" />
		<tag k="place" v="locality" />
		<tag k="ssr:stedsnr" v="329140" />
	</node>
	<node id="-100281" lat="64.4433722199" lon="10.7491500022">
		<tag k="name" v="Kilåsen" />
		<tag k="natural" v="hill" />
		<tag k="place" v="locality" />
		<tag k="ssr:stedsnr" v="329133" />
	</node>
	<node id="-100280" lat="64.4595055515" lon="10.8058694404">
		<tag k="name" v="Merraholet" />
		<tag k="place" v="locality" />
		<tag k="ssr:stedsnr" v="329120" />
	</node>
	<node id="-100253" lat="64.5030666698" lon="10.8068749996">
		<tag k="fixme" v="consider natural=peak for the most distinct mountains in the district" />
		<tag k="name" v="Einvikfjellet" />
		<tag k="natural" v="hill" />
		<tag k="place" v="locality" />
		<tag k="ssr:stedsnr" v="317679" />
	</node>
	<node id="-100246" lat="64.5694638912" lon="10.8092277734">
		<tag k="fixme" v="consider natural=peak for the most distinct mountains in the district" />
		<tag k="name" v="Lauvåsen" />
		<tag k="natural" v="hill" />
		<tag k="place" v="locality" />
		<tag k="ssr:stedsnr" v="317580" />
	</node>
	<node id="-100245" lat="64.462975003" lon="10.7715805613">
		<tag k="fixme" v="consider natural=peak for the most distinct mountains in the district" />
		<tag k="name" v="Strandafjellet" />
		<tag k="natural" v="hill" />
		<tag k="place" v="locality" />
		<tag k="ssr:stedsnr" v="317440" />
	</node>
	<node id="-100241" lat="64.40075" lon="11.0803472216">
		<tag k="fixme" v="consider natural=peak for the most distinct mountains in the district" />
		<tag k="name" v="Mefosskolvingen" />
		<tag k="natural" v="hill" />
		<tag k="place" v="locality" />
		<tag k="ssr:stedsnr" v="317276" />
	</node>
	<node id="-100238" lat="64.3143611079" lon="10.9605111072">
		<tag k="name" v="Gomholet" />
		<tag k="natural" v="valley" />
		<tag k="place" v="locality" />
		<tag k="ssr:stedsnr" v="317151" />
	</node>
	<node id="-98967" lat="64.4648638923" lon="10.8492805594">
		<tag k="name" v="Skorstadfloget" />
		<tag k="natural" v="hill" />
		<tag k="place" v="locality" />
		<tag k="ssr:stedsnr" v="439477" />
	</node>
	<node id="-100220" lat="64.3754083355" lon="10.6315222129">
		<tag k="fixme" v="multiple name tags, choose one and add the other to alt_name; consider natural=peak for the most distinct mountains in the district" />
		<tag k="name" v="Bøleroggo;Vontfjellet" />
		<tag k="natural" v="hill" />
		<tag k="place" v="locality" />
		<tag k="ssr:stedsnr" v="215764" />
	</node>
	<node id="-100215" lat="64.4849611105" lon="10.8747888915">
		<tag k="name" v="Trollskaret" />
		<tag k="natural" v="valley" />
		<tag k="place" v="locality" />
		<tag k="ssr:stedsnr" v="208185" />
	</node>
	<node id="-100213" lat="64.5028611074" lon="10.8610305466">
		<tag k="name" v="Bjønnahiet" />
		<tag k="natural" v="hill" />
		<tag k="place" v="locality" />
		<tag k="ssr:stedsnr" v="208177" />
	</node>
	<node id="-100211" lat="64.5197305597" lon="10.8317305539">
		<tag k="name" v="Møkkelmarka" />
		<tag k="place" v="locality" />
		<tag k="ssr:stedsnr" v="208171" />
	</node>
	<node id="-100209" lat="64.4970722224" lon="10.9429194352">
		<tag k="name" v="Bokkarova" />
		<tag k="natural" v="valley" />
		<tag k="place" v="locality" />
		<tag k="ssr:stedsnr" v="208164" />
	</node>
	<node id="-100204" lat="64.4932805562" lon="10.813152771">
		<tag k="name" v="Litlåsen" />
		<tag k="natural" v="hill" />
		<tag k="place" v="locality" />
		<tag k="ssr:stedsnr" v="208091" />
	</node>
	<node id="-98947" lat="64.4391234178" lon="10.5649985864">
		<tag k="name" v="Krona" />
		<tag k="natural" v="hill" />
		<tag k="place" v="locality" />
		<tag k="ssr:stedsnr" v="196603" />
	</node>
	<node id="-100198" lat="64.4717000015" lon="10.7096388976">
		<tag k="fixme" v="consider natural=peak for the most distinct mountains in the district" />
		<tag k="name" v="Nordfjellet" />
		<tag k="natural" v="hill" />
		<tag k="place" v="locality" />
		<tag k="ssr:stedsnr" v="208005" />
	</node>
	<node id="-100197" lat="64.5081972223" lon="10.9747333386">
		<tag k="name" v="Sankt-Hanshaugen" />
		<tag k="natural" v="hill" />
		<tag k="place" v="locality" />
		<tag k="ssr:stedsnr" v="207115" />
	</node>
	<node id="-100194" lat="64.5185333368" lon="10.9974277882">
		<tag k="fixme" v="consider natural=peak for the most distinct mountains in the district" />
		<tag k="name" v="Dummelfjellet" />
		<tag k="natural" v="hill" />
		<tag k="place" v="locality" />
		<tag k="ssr:stedsnr" v="197732" />
	</node>
	<node id="-100193" lat="64.5118333303" lon="10.921455553">
		<tag k="name" v="Brufjellet" />
		<tag k="natural" v="hill" />
		<tag k="place" v="locality" />
		<tag k="ssr:stedsnr" v="197725" />
	</node>
	<node id="-100190" lat="64.5188027752" lon="10.8279000009">
		<tag k="alt_name" v="Krona" />
		<tag k="name" v="Kvernøykrona" />
		<tag k="natural" v="hill" />
		<tag k="place" v="locality" />
		<tag k="ssr:stedsnr" v="197709" />
	</node>
	<node id="-98742" lat="64.4579527757" lon="10.8901666748">
		<tag k="name" v="Tårnet" />
		<tag k="natural" v="hill" />
		<tag k="place" v="locality" />
		<tag k="ssr:stedsnr" v="13504" />
	</node>
	<node id="-98959" lat="64.4559166638" lon="10.9778027859">
		<tag k="fixme" v="consider natural=peak for the most distinct mountains in the district" />
		<tag k="name" v="Hagafjellet" />
		<tag k="natural" v="hill" />
		<tag k="place" v="locality" />
		<tag k="ssr:stedsnr" v="292998" />
	</node>
	<node id="-100179" lat="64.547391667" lon="10.9201027721">
		<tag k="alt_name" v="Feøyhatten, in;Inner Feøyhatten" />
		<tag k="name" v="Indre Feøyhatten" />
		<tag k="natural" v="hill" />
		<tag k="place" v="locality" />
		<tag k="ssr:stedsnr" v="196591" />
	</node>
	<node id="-100178" lat="64.5463555513" lon="11.0344916632">
		<tag k="fixme" v="consider natural=peak for the most distinct mountains in the district" />
		<tag k="name" v="Nordfjella" />
		<tag k="natural" v="hill" />
		<tag k="place" v="locality" />
		<tag k="ssr:stedsnr" v="196588" />
	</node>
	<node id="-100177" lat="64.4521083365" lon="11.0089055608">
		<tag k="alt_name" v="Skjåliaklompen" />
		<tag k="name" v="Skjålia" />
		<tag k="natural" v="hill" />
		<tag k="place" v="locality" />
		<tag k="ssr:stedsnr" v="196439" />
	</node>
	<node id="-100176" lat="64.4430722265" lon="10.7955000034">
		<tag k="fixme" v="consider natural=peak for the most distinct mountains in the district" />
		<tag k="name" v="Tømmerfjellet" />
		<tag k="natural" v="hill" />
		<tag k="place" v="locality" />
		<tag k="ssr:stedsnr" v="196419" />
	</node>
	<node id="-100175" lat="64.4436527756" lon="10.8916305512">
		<tag k="fixme" v="consider natural=peak for the most distinct mountains in the district" />
		<tag k="name" v="Tverråfjellet" />
		<tag k="natural" v="hill" />
		<tag k="place" v="locality" />
		<tag k="ssr:stedsnr" v="196416" />
	</node>
	<node id="-100174" lat="64.3428527819" lon="10.9098777814">
		<tag k="name" v="Rislia" />
		<tag k="natural" v="slope" />
		<tag k="place" v="locality" />
		<tag k="ssr:stedsnr" v="196301" />
	</node>
	<node id="-100172" lat="64.4189611139" lon="10.9832638834">
		<tag k="fixme" v="consider natural=peak for the most distinct mountains in the district" />
		<tag k="name" v="Lennabakfjellet" />
		<tag k="natural" v="hill" />
		<tag k="place" v="locality" />
		<tag k="ssr:stedsnr" v="196279" />
	</node>
	<node id="-100170" lat="64.411333338" lon="10.9537138809">
		<tag k="name" v="Vesterlia" />
		<tag k="natural" v="slope" />
		<tag k="place" v="locality" />
		<tag k="ssr:stedsnr" v="196261" />
	</node>
	<node id="-100162" lat="64.5853361104" lon="10.9607944496">
		<tag k="name" v="Harravikfjellet" />
		<tag k="natural" v="hill" />
		<tag k="place" v="locality" />
		<tag k="ssr:stedsnr" v="195595" />
	</node>
	<node id="-100156" lat="64.4521916649" lon="10.7807166692">
		<tag k="fixme" v="consider natural=peak for the most distinct mountains in the district" />
		<tag k="name" v="Røythaugfjellet" />
		<tag k="natural" v="hill" />
		<tag k="place" v="locality" />
		<tag k="ssr:stedsnr" v="195508" />
	</node>
	<node id="-100145" lat="64.4519138872" lon="10.9073027832">
		<tag k="name" v="Småhola" />
		<tag k="natural" v="slope" />
		<tag k="place" v="locality" />
		<tag k="ssr:stedsnr" v="170997" />
	</node>
	<node id="-100143" lat="64.4356083312" lon="10.9513500026">
		<tag k="name" v="Morkalia" />
		<tag k="natural" v="slope" />
		<tag k="place" v="locality" />
		<tag k="ssr:stedsnr" v="170981" />
	</node>
	<node id="-100141" lat="64.4502638873" lon="10.9196305512">
		<tag k="name" v="Sørlia" />
		<tag k="natural" v="slope" />
		<tag k="place" v="locality" />
		<tag k="ssr:stedsnr" v="170947" />
	</node>
	<node id="-100139" lat="64.5801055547" lon="10.9821611066">
		<tag k="name" v="Haliin" />
		<tag k="natural" v="slope" />
		<tag k="place" v="locality" />
		<tag k="ssr:stedsnr" v="170888" />
	</node>
	<node id="-100137" lat="64.4830166688" lon="10.9112361156">
		<tag k="fixme" v="consider natural=peak for the most distinct mountains in the district" />
		<tag k="name" v="Rødafjellet" />
		<tag k="natural" v="hill" />
		<tag k="place" v="locality" />
		<tag k="ssr:stedsnr" v="170858" />
	</node>
	<node id="-100136" lat="64.4730749964" lon="10.8751805498">
		<tag k="name" v="Rørholklompen" />
		<tag k="natural" v="hill" />
		<tag k="place" v="locality" />
		<tag k="ssr:stedsnr" v="170855" />
	</node>
	<node id="-100133" lat="64.4655583313" lon="10.9508749896">
		<tag k="name" v="Saghaugen" />
		<tag k="natural" v="hill" />
		<tag k="place" v="locality" />
		<tag k="ssr:stedsnr" v="170802" />
	</node>
	<node id="-100132" lat="64.431130554" lon="10.7265527695">
		<tag k="name" v="Hårneslia" />
		<tag k="natural" v="slope" />
		<tag k="place" v="locality" />
		<tag k="ssr:stedsnr" v="170781" />
	</node>
	<node id="-100129" lat="64.5217305538" lon="11.0246722249">
		<tag k="name" v="Storpellelia" />
		<tag k="natural" v="slope" />
		<tag k="place" v="locality" />
		<tag k="ssr:stedsnr" v="170309" />
	</node>
	<node id="-100121" lat="64.5283416705" lon="10.9658361124">
		<tag k="name" v="Solheimflauget" />
		<tag k="place" v="locality" />
		<tag k="ssr:stedsnr" v="169811" />
	</node>
	<node id="-100119" lat="64.3405249993" lon="10.8919249933">
		<tag k="name" v="Brentklompen" />
		<tag k="natural" v="hill" />
		<tag k="place" v="locality" />
		<tag k="ssr:stedsnr" v="169598" />
	</node>
	<node id="-100118" lat="64.3763916665" lon="10.8612166673">
		<tag k="name" v="Vakkerlia" />
		<tag k="natural" v="slope" />
		<tag k="place" v="locality" />
		<tag k="ssr:stedsnr" v="169959" />
	</node>
	<node id="-100117" lat="64.3763000044" lon="10.8554166655">
		<tag k="name" v="Smoholet" />
		<tag k="natural" v="valley" />
		<tag k="place" v="locality" />
		<tag k="ssr:stedsnr" v="169956" />
	</node>
	<node id="-100116" lat="64.387358336" lon="10.8819138878">
		<tag k="name" v="Joliin" />
		<tag k="natural" v="slope" />
		<tag k="place" v="locality" />
		<tag k="ssr:stedsnr" v="169947" />
	</node>
	<node id="-100114" lat="64.4712500039" lon="11.0051972156">
		<tag k="name" v="Nordlangvasslia" />
		<tag k="natural" v="slope" />
		<tag k="place" v="locality" />
		<tag k="ssr:stedsnr" v="169471" />
	</node>
	<node id="-100113" lat="64.4640305572" lon="11.0270500094">
		<tag k="name" v="Finnhallaren" />
		<tag k="natural" v="hill" />
		<tag k="place" v="locality" />
		<tag k="ssr:stedsnr" v="169470" />
	</node>
	<node id="-100111" lat="64.496958332" lon="10.9902750026">
		<tag k="name" v="Hestmarka" />
		<tag k="natural" v="valley" />
		<tag k="place" v="locality" />
		<tag k="ssr:stedsnr" v="169464" />
	</node>
	<node id="-100110" lat="64.3090944464" lon="10.9045638908">
		<tag k="name" v="Sørlia" />
		<tag k="natural" v="slope" />
		<tag k="place" v="locality" />
		<tag k="ssr:stedsnr" v="169551" />
	</node>
	<node id="-100096" lat="64.4633305545" lon="10.7015583364">
		<tag k="name" v="Langmarkdalen" />
		<tag k="natural" v="valley" />
		<tag k="place" v="locality" />
		<tag k="ssr:stedsnr" v="147001" />
	</node>
	<node id="-100094" lat="64.460088893" lon="10.7844277845">
		<tag k="name" v="Nonshaugen" />
		<tag k="natural" v="hill" />
		<tag k="place" v="locality" />
		<tag k="ssr:stedsnr" v="146087" />
	</node>
	<node id="-100090" lat="64.4353416685" lon="10.5401250097">
		<tag k="name" v="Mauran" />
		<tag k="place" v="locality" />
		<tag k="ssr:stedsnr" v="145163" />
	</node>
	<node id="-100079" lat="64.4355055551" lon="10.6223555462">
		<tag k="fixme" v="consider natural=peak for the most distinct mountains in the district" />
		<tag k="name" v="Ramnfjellet" />
		<tag k="natural" v="hill" />
		<tag k="place" v="locality" />
		<tag k="ssr:stedsnr" v="135646" />
	</node>
	<node id="-100077" lat="64.5557722196" lon="11.0190888884">
		<tag k="alt_name" v="Klompan" />
		<tag k="name" v="Klumpan" />
		<tag k="natural" v="hill" />
		<tag k="place" v="locality" />
		<tag k="ssr:stedsnr" v="135627" />
	</node>
	<node id="-100075" lat="64.6069694422" lon="10.8757777802">
		<tag k="name" v="Tjuvholet" />
		<tag k="natural" v="valley" />
		<tag k="place" v="locality" />
		<tag k="ssr:stedsnr" v="135552" />
	</node>
	<node id="-100074" lat="64.4924388858" lon="11.0056833405">
		<tag k="fixme" v="consider natural=peak for the most distinct mountains in the district" />
		<tag k="name" v="Hemingslættfjellet" />
		<tag k="natural" v="hill" />
		<tag k="place" v="locality" />
		<tag k="ssr:stedsnr" v="135399" />
	</node>
	<node id="-100072" lat="64.4862555552" lon="10.8783833307">
		<tag k="fixme" v="consider natural=peak for the most distinct mountains in the district" />
		<tag k="name" v="Stamnesfjellet" />
		<tag k="natural" v="hill" />
		<tag k="place" v="locality" />
		<tag k="ssr:stedsnr" v="135384" />
	</node>
	<node id="-100069" lat="64.4406055587" lon="10.9991472167">
		<tag k="fixme" v="consider natural=peak for the most distinct mountains in the district" />
		<tag k="name" v="Suluhallarfjellet" />
		<tag k="natural" v="hill" />
		<tag k="place" v="locality" />
		<tag k="ssr:stedsnr" v="135448" />
	</node>
	<node id="-100068" lat="64.4161805579" lon="11.0240055598">
		<tag k="fixme" v="consider natural=peak for the most distinct mountains in the district" />
		<tag k="name" v="Litllennafjellet" />
		<tag k="natural" v="hill" />
		<tag k="place" v="locality" />
		<tag k="ssr:stedsnr" v="135292" />
	</node>
	<node id="-100066" lat="64.2868611153" lon="10.8732611028">
		<tag k="fixme" v="consider natural=peak for the most distinct mountains in the district" />
		<tag k="name" v="Langvassheia" />
		<tag k="natural" v="hill" />
		<tag k="place" v="locality" />
		<tag k="ssr:stedsnr" v="135170" />
	</node>
	<node id="-100064" lat="64.5740444459" lon="10.8335444408">
		<tag k="fixme" v="multiple name tags, choose one and add the other to alt_name; consider natural=peak for the most distinct mountains in the district" />
		<tag k="name" v="Bjørøyfjellet;Sørfjellet" />
		<tag k="natural" v="hill" />
		<tag k="place" v="locality" />
		<tag k="ssr:stedsnr" v="134599" />
	</node>
	<node id="-100062" lat="64.3836944474" lon="10.9170361013">
		<tag k="name" v="Hanakamdalen" />
		<tag k="natural" v="valley" />
		<tag k="place" v="locality" />
		<tag k="ssr:stedsnr" v="134300" />
	</node>
	<node id="-100049" lat="64.4192916686" lon="10.9770249983">
		<tag k="name" v="Skalahaugen" />
		<tag k="natural" v="hill" />
		<tag k="place" v="locality" />
		<tag k="ssr:stedsnr" v="110991" />
	</node>
	<node id="-100048" lat="64.4386111112" lon="10.962483338">
		<tag k="name" v="Morkdalan" />
		<tag k="natural" v="valley" />
		<tag k="place" v="locality" />
		<tag k="ssr:stedsnr" v="110985" />
	</node>
	<node id="-100046" lat="64.4695555512" lon="10.8862194496">
		<tag k="name" v="Djupvikklompen" />
		<tag k="natural" v="hill" />
		<tag k="place" v="locality" />
		<tag k="ssr:stedsnr" v="110851" />
	</node>
	<node id="-100043" lat="64.4317222189" lon="10.9142638838">
		<tag k="name" v="Grønliheia" />
		<tag k="natural" v="hill" />
		<tag k="place" v="locality" />
		<tag k="ssr:stedsnr" v="110789" />
	</node>
	<node id="-100042" lat="64.4250361154" lon="10.9105666638">
		<tag k="name" v="Grønlia" />
		<tag k="natural" v="slope" />
		<tag k="place" v="locality" />
		<tag k="ssr:stedsnr" v="110788" />
	</node>
	<node id="-100041" lat="64.42459167" lon="10.8467499955">
		<tag k="name" v="Bjørkheia" />
		<tag k="natural" v="hill" />
		<tag k="place" v="locality" />
		<tag k="ssr:stedsnr" v="110774" />
	</node>
	<node id="-100039" lat="64.4724750025" lon="10.9125555478">
		<tag k="name" v="Dragonsveet" />
		<tag k="place" v="locality" />
		<tag k="ssr:stedsnr" v="110844" />
	</node>
	<node id="-100036" lat="64.5659611111" lon="11.0760638834">
		<tag k="fixme" v="consider natural=peak for the most distinct mountains in the district" />
		<tag k="name" v="Finsnesfjellet" />
		<tag k="natural" v="hill" />
		<tag k="place" v="locality" />
		<tag k="ssr:stedsnr" v="110367" />
	</node>
	<node id="-100034" lat="64.5593666708" lon="11.0537249972">
		<tag k="name" v="Geitholet" />
		<tag k="natural" v="valley" />
		<tag k="place" v="locality" />
		<tag k="ssr:stedsnr" v="110245" />
	</node>
	<node id="-100026" lat="64.3445583349" lon="10.8163416735">
		<tag k="name" v="Farkdalen" />
		<tag k="natural" v="valley" />
		<tag k="place" v="locality" />
		<tag k="ssr:stedsnr" v="109881" />
	</node>
	<node id="-100022" lat="64.5909472265" lon="10.9739333419">
		<tag k="name" v="Ongskaret" />
		<tag k="natural" v="valley" />
		<tag k="place" v="locality" />
		<tag k="ssr:stedsnr" v="109865" />
	</node>
	<node id="-100017" lat="64.3058611095" lon="10.9645277797">
		<tag k="fixme" v="consider natural=peak for the most distinct mountains in the district" />
		<tag k="name" v="Bårdsbakken" />
		<tag k="natural" v="hill" />
		<tag k="place" v="locality" />
		<tag k="ssr:stedsnr" v="109848" />
	</node>
	<node id="-100011" lat="64.3509694473" lon="10.887725001">
		<tag k="name" v="Sølvfastlia" />
		<tag k="natural" v="slope" />
		<tag k="place" v="locality" />
		<tag k="ssr:stedsnr" v="109563" />
	</node>
	<node id="-100010" lat="64.3348611124" lon="10.9089555587">
		<tag k="name" v="Svartlia" />
		<tag k="natural" v="slope" />
		<tag k="place" v="locality" />
		<tag k="ssr:stedsnr" v="109560" />
	</node>
	<node id="-100008" lat="64.5022138858" lon="11.000900001">
		<tag k="name" v="Buatomtin" />
		<tag k="place" v="locality" />
		<tag k="ssr:stedsnr" v="109428" />
	</node>
	<node id="-99995" lat="64.4757944457" lon="10.8451527839">
		<tag k="name" v="Nypa" />
		<tag k="natural" v="hill" />
		<tag k="place" v="locality" />
		<tag k="ssr:stedsnr" v="87076" />
	</node>
	<node id="-99990" lat="64.4550444404" lon="10.7180194381">
		<tag k="fixme" v="consider natural=peak for the most distinct mountains in the district" />
		<tag k="name" v="Sørfjellet" />
		<tag k="natural" v="hill" />
		<tag k="place" v="locality" />
		<tag k="ssr:stedsnr" v="86122" />
	</node>
	<node id="-98926" lat="64.5149777789" lon="11.0058805557">
		<tag k="name" v="Langdalen" />
		<tag k="natural" v="valley" />
		<tag k="place" v="locality" />
		<tag k="ssr:stedsnr" v="292284" />
	</node>
	<node id="-98925" lat="64.5250805591" lon="10.9902194545">
		<tag k="name" v="Ospholet" />
		<tag k="natural" v="valley" />
		<tag k="place" v="locality" />
		<tag k="ssr:stedsnr" v="292278" />
	</node>
	<node id="-99980" lat="64.5317611075" lon="10.7996333322">
		<tag k="alt_name" v="Kvennøyfjellet" />
		<tag k="fixme" v="consider natural=peak for the most distinct mountains in the district" />
		<tag k="name" v="Kvernøyfjellet" />
		<tag k="natural" v="hill" />
		<tag k="place" v="locality" />
		<tag k="ssr:stedsnr" v="75720" />
	</node>
	<node id="-99970" lat="64.4610027748" lon="10.9326527719">
		<tag k="fixme" v="consider natural=peak for the most distinct mountains in the district" />
		<tag k="name" v="Sagfjellet" />
		<tag k="natural" v="hill" />
		<tag k="place" v="locality" />
		<tag k="ssr:stedsnr" v="75518" />
	</node>
	<node id="-99969" lat="64.46873889" lon="10.8631222199">
		<tag k="alt_name" v="Skorstadklumpen" />
		<tag k="fixme" v="consider natural=peak for the most distinct mountains in the district" />
		<tag k="name" v="Takliheia" />
		<tag k="natural" v="hill" />
		<tag k="place" v="locality" />
		<tag k="ssr:stedsnr" v="75517" />
	</node>
	<node id="-99967" lat="64.479422225" lon="10.921030552">
		<tag k="fixme" v="consider natural=peak for the most distinct mountains in the district" />
		<tag k="name" v="Rødalklumpen" />
		<tag k="natural" v="hill" />
		<tag k="place" v="locality" />
		<tag k="ssr:stedsnr" v="75410" />
	</node>
	<node id="-99966" lat="64.3199277745" lon="10.7761833432">
		<tag k="fixme" v="consider natural=peak for the most distinct mountains in the district" />
		<tag k="name" v="Krokvassheia" />
		<tag k="natural" v="hill" />
		<tag k="place" v="locality" />
		<tag k="ssr:stedsnr" v="75323" />
	</node>
	<node id="-99960" lat="64.3832083346" lon="10.971033335">
		<tag k="alt_name" v="Grønliin" />
		<tag k="name" v="Grønlia" />
		<tag k="natural" v="slope" />
		<tag k="place" v="locality" />
		<tag k="ssr:stedsnr" v="74844" />
	</node>
	<node id="-99959" lat="64.386477778" lon="11.001641658">
		<tag k="fixme" v="consider natural=peak for the most distinct mountains in the district" />
		<tag k="name" v="Middagsfjellet" />
		<tag k="natural" v="hill" />
		<tag k="place" v="locality" />
		<tag k="ssr:stedsnr" v="74834" />
	</node>
	<node id="-99955" lat="64.5579416694" lon="11.0575444361">
		<tag k="alt_name" v="Nonsklompen" />
		<tag k="name" v="Nonsklumpen" />
		<tag k="natural" v="hill" />
		<tag k="place" v="locality" />
		<tag k="ssr:stedsnr" v="74604" />
	</node>
	<node id="-98920" lat="64.578080553" lon="10.9094972177">
		<tag k="name" v="Mursteinhatten" />
		<tag k="natural" v="hill" />
		<tag k="place" v="locality" />
		<tag k="ssr:stedsnr" v="291898" />
	</node>
	<node id="-99949" lat="64.575636114" lon="10.9625388929">
		<tag k="name" v="Futdalen" />
		<tag k="natural" v="valley" />
		<tag k="place" v="locality" />
		<tag k="ssr:stedsnr" v="74564" />
	</node>
	<node id="-99948" lat="64.5759555548" lon="10.9287527694">
		<tag k="fixme" v="consider natural=peak for the most distinct mountains in the district" />
		<tag k="name" v="Mursteinen" />
		<tag k="natural" v="hill" />
		<tag k="place" v="locality" />
		<tag k="ssr:stedsnr" v="74559" />
	</node>
	<node id="-99946" lat="64.4440333377" lon="10.8072250069">
		<tag k="name" v="Smørdalen" />
		<tag k="natural" v="valley" />
		<tag k="place" v="locality" />
		<tag k="ssr:stedsnr" v="74471" />
	</node>
	<node id="-98919" lat="64.3382972263" lon="10.8410611137">
		<tag k="name" v="Sagdalen" />
		<tag k="natural" v="valley" />
		<tag k="place" v="locality" />
		<tag k="ssr:stedsnr" v="291897" />
	</node>
	<node id="-99942" lat="64.3682027797" lon="10.9920805593">
		<tag k="fixme" v="consider natural=peak for the most distinct mountains in the district" />
		<tag k="name" v="Grønlifjellet" />
		<tag k="natural" v="hill" />
		<tag k="place" v="locality" />
		<tag k="ssr:stedsnr" v="74365" />
	</node>
	<node id="-99941" lat="64.2995361117" lon="10.8661611084">
		<tag k="fixme" v="consider natural=peak for the most distinct mountains in the district" />
		<tag k="name" v="Småholmheia" />
		<tag k="natural" v="hill" />
		<tag k="place" v="locality" />
		<tag k="ssr:stedsnr" v="75176" />
	</node>
	<node id="-99915" lat="64.5754444453" lon="11.0445944494">
		<tag k="name" v="Gutormrova" />
		<tag k="natural" v="valley" />
		<tag k="place" v="locality" />
		<tag k="ssr:stedsnr" v="49962" />
	</node>
	<node id="-99914" lat="64.3822750039" lon="10.7847472226">
		<tag k="name" v="Bastrauget" />
		<tag k="natural" v="slope" />
		<tag k="place" v="locality" />
		<tag k="ssr:stedsnr" v="49951" />
	</node>
	<node id="-99913" lat="64.4002888862" lon="10.8008166569">
		<tag k="name" v="Kasperholet" />
		<tag k="natural" v="slope" />
		<tag k="place" v="locality" />
		<tag k="ssr:stedsnr" v="49949" />
	</node>
	<node id="-99911" lat="64.4353027775" lon="10.6356222166">
		<tag k="name" v="Hårnesmoen" />
		<tag k="place" v="locality" />
		<tag k="ssr:stedsnr" v="49807" />
	</node>
	<node id="-99910" lat="64.4644305522" lon="10.9813944527">
		<tag k="name" v="Kvennvasslia" />
		<tag k="natural" v="slope" />
		<tag k="place" v="locality" />
		<tag k="ssr:stedsnr" v="49792" />
	</node>
	<node id="-98913" lat="64.5807916669" lon="10.9751750105">
		<tag k="name" v="Brannfjellet" />
		<tag k="natural" v="hill" />
		<tag k="place" v="locality" />
		<tag k="ssr:stedsnr" v="291893" />
	</node>
	<node id="-99907" lat="64.4370166631" lon="10.8354277869">
		<tag k="fixme" v="consider natural=peak for the most distinct mountains in the district" />
		<tag k="name" v="Sant Hansklompen" />
		<tag k="natural" v="hill" />
		<tag k="place" v="locality" />
		<tag k="ssr:stedsnr" v="49765" />
	</node>
	<node id="-99906" lat="64.4325638887" lon="10.8131972254">
		<tag k="name" v="Hatten" />
		<tag k="natural" v="valley" />
		<tag k="place" v="locality" />
		<tag k="ssr:stedsnr" v="49763" />
	</node>
	<node id="-99905" lat="64.4404666626" lon="10.7961555547">
		<tag k="fixme" v="consider natural=peak for the most distinct mountains in the district" />
		<tag k="name" v="Tømmerfjellet" />
		<tag k="natural" v="hill" />
		<tag k="place" v="locality" />
		<tag k="ssr:stedsnr" v="49761" />
	</node>
	<node id="-99903" lat="64.5375472192" lon="11.0234527785">
		<tag k="fixme" v="consider natural=peak for the most distinct mountains in the district" />
		<tag k="name" v="Grovafjellet" />
		<tag k="natural" v="hill" />
		<tag k="place" v="locality" />
		<tag k="ssr:stedsnr" v="49318" />
	</node>
	<node id="-99902" lat="64.5410638915" lon="10.9900416687">
		<tag k="fixme" v="consider natural=peak for the most distinct mountains in the district" />
		<tag k="name" v="Moafjellet" />
		<tag k="natural" v="hill" />
		<tag k="place" v="locality" />
		<tag k="ssr:stedsnr" v="49311" />
	</node>
	<node id="-99901" lat="64.5607000007" lon="11.0597055547">
		<tag k="name" v="Rønningskaret" />
		<tag k="natural" v="valley" />
		<tag k="place" v="locality" />
		<tag k="ssr:stedsnr" v="49305" />
	</node>
	<node id="-99899" lat="64.5672333342" lon="11.0776444487">
		<tag k="name" v="Finsnesrovo" />
		<tag k="natural" v="valley" />
		<tag k="place" v="locality" />
		<tag k="ssr:stedsnr" v="49300" />
	</node>
	<node id="-99898" lat="64.3778166707" lon="10.8713138792">
		<tag k="name" v="Gammelseterhaugen" />
		<tag k="natural" v="hill" />
		<tag k="place" v="locality" />
		<tag k="ssr:stedsnr" v="48970" />
	</node>
	<node id="-98911" lat="64.4174972253" lon="10.6742694483">
		<tag k="name" v="Stokkhammaren" />
		<tag k="natural" v="hill" />
		<tag k="place" v="locality" />
		<tag k="ssr:stedsnr" v="288041" />
	</node>
	<node id="-99896" lat="64.3897805571" lon="10.8828194466">
		<tag k="name" v="Perholet" />
		<tag k="natural" v="valley" />
		<tag k="place" v="locality" />
		<tag k="ssr:stedsnr" v="48963" />
	</node>
	<node id="-99893" lat="64.5964583315" lon="10.961641664">
		<tag k="fixme" v="consider natural=peak for the most distinct mountains in the district" />
		<tag k="name" v="Oterdalsfjellet" />
		<tag k="natural" v="hill" />
		<tag k="place" v="locality" />
		<tag k="ssr:stedsnr" v="48940" />
	</node>
	<node id="-99892" lat="64.3730583361" lon="10.7101166604">
		<tag k="name" v="Gråhammeren" />
		<tag k="natural" v="hill" />
		<tag k="place" v="locality" />
		<tag k="ssr:stedsnr" v="48939" />
	</node>
	<node id="-99888" lat="64.3462861067" lon="10.8038277808">
		<tag k="name" v="Heimkjørdalen" />
		<tag k="natural" v="valley" />
		<tag k="place" v="locality" />
		<tag k="ssr:stedsnr" v="48904" />
	</node>
	<node id="-99887" lat="64.3605750001" lon="10.7906194443">
		<tag k="name" v="Mortenenget" />
		<tag k="place" v="locality" />
		<tag k="ssr:stedsnr" v="48899" />
	</node>
	<node id="-99886" lat="64.3752083329" lon="10.8390472259">
		<tag k="name" v="Bjønnadalen" />
		<tag k="natural" v="valley" />
		<tag k="place" v="locality" />
		<tag k="ssr:stedsnr" v="48892" />
	</node>
	<node id="-99883" lat="64.3562861123" lon="10.8218055555">
		<tag k="name" v="Krokengmoen" />
		<tag k="place" v="locality" />
		<tag k="ssr:stedsnr" v="48874" />
	</node>
	<node id="-101035" lat="64.5037638861" lon="10.9428472218">
		<tag k="name" v="Sankt-Hanshaugen" />
		<tag k="natural" v="hill" />
		<tag k="place" v="locality" />
		<tag k="ssr:stedsnr" v="875176" />
	</node>
	<node id="-99875" lat="64.5351500036" lon="10.7874972121">
		<tag k="name" v="Tyvhallaren" />
		<tag k="natural" v="hill" />
		<tag k="place" v="locality" />
		<tag k="ssr:stedsnr" v="48831" />
	</node>
	<node id="-99873" lat="64.5644416689" lon="10.9623000087">
		<tag k="name" v="Klubbsteinholet" />
		<tag k="natural" v="valley" />
		<tag k="place" v="locality" />
		<tag k="ssr:stedsnr" v="48810" />
	</node>
	<node id="-99870" lat="64.4082277783" lon="11.0136527705">
		<tag k="name" v="Hengrauva" />
		<tag k="natural" v="cliff" />
		<tag k="ssr:stedsnr" v="48762" />
	</node>
	<node id="-99869" lat="64.3375333312" lon="10.886486102">
		<tag k="name" v="Lian" />
		<tag k="natural" v="slope" />
		<tag k="place" v="locality" />
		<tag k="ssr:stedsnr" v="48568" />
	</node>
	<node id="-99866" lat="64.4681888888" lon="11.0235833343">
		<tag k="name" v="Finnvasslia" />
		<tag k="natural" v="slope" />
		<tag k="place" v="locality" />
		<tag k="ssr:stedsnr" v="48435" />
	</node>
	<node id="-99865" lat="64.4255305598" lon="10.9906333342">
		<tag k="name" v="Lennabakkan" />
		<tag k="natural" v="slope" />
		<tag k="place" v="locality" />
		<tag k="ssr:stedsnr" v="48180" />
	</node>
	<node id="-99863" lat="64.4038944404" lon="10.6282361042">
		<tag k="name" v="Hestbakkan" />
		<tag k="natural" v="slope" />
		<tag k="place" v="locality" />
		<tag k="ssr:stedsnr" v="45039" />
	</node>
	<node id="-99857" lat="64.5109472194" lon="10.7920583333">
		<tag k="name" v="Einvikhaugen" />
		<tag k="natural" v="hill" />
		<tag k="place" v="locality" />
		<tag k="ssr:stedsnr" v="26213" />
	</node>
	<node id="-99850" lat="64.5183583324" lon="10.8716027823">
		<tag k="name" v="Gammelbustien" />
		<tag k="natural" v="valley" />
		<tag k="place" v="locality" />
		<tag k="ssr:stedsnr" v="26182" />
	</node>
	<node id="-99845" lat="64.4625666683" lon="10.8186611161">
		<tag k="name" v="Roberthaugen" />
		<tag k="natural" v="hill" />
		<tag k="place" v="locality" />
		<tag k="ssr:stedsnr" v="26082" />
	</node>
	<node id="-99844" lat="64.4761250005" lon="10.8366916599">
		<tag k="name" v="Nausthaugen" />
		<tag k="natural" v="hill" />
		<tag k="place" v="locality" />
		<tag k="ssr:stedsnr" v="26081" />
	</node>
	<node id="-98902" lat="64.3582694402" lon="10.7862472251">
		<tag k="name" v="Liin" />
		<tag k="natural" v="slope" />
		<tag k="place" v="locality" />
		<tag k="ssr:stedsnr" v="169926" />
	</node>
	<node id="-99840" lat="64.4543444417" lon="10.8109222211">
		<tag k="name" v="Strupen" />
		<tag k="natural" v="valley" />
		<tag k="place" v="locality" />
		<tag k="ssr:stedsnr" v="25083" />
	</node>
	<node id="-99832" lat="64.4024166695" lon="10.9842916765">
		<tag k="alt_name" v="Stornonshaugen" />
		<tag k="name" v="Nonshaugen" />
		<tag k="natural" v="hill" />
		<tag k="place" v="locality" />
		<tag k="ssr:stedsnr" v="14830" />
	</node>
	<node id="-99830" lat="64.500383331" lon="10.8298444384">
		<tag k="fixme" v="consider natural=peak for the most distinct mountains in the district" />
		<tag k="name" v="Nordfjellet" />
		<tag k="natural" v="hill" />
		<tag k="place" v="locality" />
		<tag k="ssr:stedsnr" v="14693" />
	</node>
	<node id="-99823" lat="64.5460166646" lon="10.9850888982">
		<tag k="name" v="Brennaskardet" />
		<tag k="natural" v="valley" />
		<tag k="place" v="locality" />
		<tag k="ssr:stedsnr" v="14582" />
	</node>
	<node id="-99816" lat="64.358275" lon="10.7411611108">
		<tag k="name" v="Mortenholet" />
		<tag k="natural" v="valley" />
		<tag k="place" v="locality" />
		<tag k="ssr:stedsnr" v="14293" />
	</node>
	<node id="-99815" lat="64.3532527816" lon="10.7511777883">
		<tag k="name" v="Saulia" />
		<tag k="natural" v="slope" />
		<tag k="place" v="locality" />
		<tag k="ssr:stedsnr" v="14280" />
	</node>
	<node id="-99814" lat="64.3533999976" lon="10.7888638968">
		<tag k="fixme" v="consider natural=peak for the most distinct mountains in the district" />
		<tag k="name" v="Nonsfjellet" />
		<tag k="natural" v="hill" />
		<tag k="place" v="locality" />
		<tag k="ssr:stedsnr" v="14277" />
	</node>
	<node id="-99813" lat="64.3470027736" lon="10.8679749898">
		<tag k="fixme" v="consider natural=peak for the most distinct mountains in the district" />
		<tag k="name" v="Harrasfjellet" />
		<tag k="natural" v="hill" />
		<tag k="place" v="locality" />
		<tag k="ssr:stedsnr" v="14270" />
	</node>
	<node id="-99812" lat="64.3618305531" lon="10.8382083254">
		<tag k="fixme" v="consider natural=peak for the most distinct mountains in the district" />
		<tag k="name" v="Liafjellet" />
		<tag k="natural" v="hill" />
		<tag k="place" v="locality" />
		<tag k="ssr:stedsnr" v="14269" />
	</node>
	<node id="-99809" lat="64.3255472228" lon="10.9308944419">
		<tag k="name" v="Vesterlia" />
		<tag k="natural" v="slope" />
		<tag k="place" v="locality" />
		<tag k="ssr:stedsnr" v="14247" />
	</node>
	<node id="-99808" lat="64.4098888879" lon="10.7455305643">
		<tag k="fixme" v="consider natural=peak for the most distinct mountains in the district" />
		<tag k="name" v="Lurahatten" />
		<tag k="natural" v="hill" />
		<tag k="place" v="locality" />
		<tag k="ssr:stedsnr" v="14238" />
	</node>
	<node id="-99804" lat="64.4574750035" lon="10.7046999971">
		<tag k="alt_name" v="Hyttklompen" />
		<tag k="fixme" v="consider natural=peak for the most distinct mountains in the district" />
		<tag k="name" v="Hyttklumpen" />
		<tag k="natural" v="hill" />
		<tag k="place" v="locality" />
		<tag k="ssr:stedsnr" v="13677" />
	</node>
	<node id="-99796" lat="64.4512861096" lon="10.7984749923">
		<tag k="fixme" v="consider natural=peak for the most distinct mountains in the district" />
		<tag k="name" v="Trefjordfjellet" />
		<tag k="natural" v="hill" />
		<tag k="place" v="locality" />
		<tag k="ssr:stedsnr" v="13495" />
	</node>
	<node id="-99795" lat="64.3778027772" lon="10.9283694417">
		<tag k="fixme" v="consider natural=peak for the most distinct mountains in the district" />
		<tag k="name" v="Hanakammen" />
		<tag k="natural" v="hill" />
		<tag k="place" v="locality" />
		<tag k="ssr:stedsnr" v="13399" />
	</node>
	<node id="-99778" lat="64.3491416643" lon="10.8950416651">
		<tag k="name" v="Toppskarhaugen" />
		<tag k="natural" v="hill" />
		<tag k="place" v="locality" />
		<tag k="ssr:stedsnr" v="958630" />
	</node>
	<node id="-99776" lat="64.3260638912" lon="10.8247361127">
		<tag k="name" v="Bjønnavikliin" />
		<tag k="natural" v="slope" />
		<tag k="place" v="locality" />
		<tag k="ssr:stedsnr" v="958625" />
	</node>
	<node id="-99775" lat="64.3323527761" lon="10.8256472142">
		<tag k="name" v="Seterdalen" />
		<tag k="natural" v="valley" />
		<tag k="place" v="locality" />
		<tag k="ssr:stedsnr" v="958621" />
	</node>
	<node id="-99774" lat="64.3138722226" lon="10.9005666604">
		<tag k="name" v="Svartvasskleiva" />
		<tag k="natural" v="slope" />
		<tag k="place" v="locality" />
		<tag k="ssr:stedsnr" v="958614" />
	</node>
	<node id="-98889" lat="64.502255558" lon="10.8982166684">
		<tag k="name" v="Lauvsneshaugen" />
		<tag k="natural" v="hill" />
		<tag k="place" v="locality" />
		<tag k="ssr:stedsnr" v="269194" />
	</node>
	<node id="-99763" lat="64.5133305516" lon="10.97985834">
		<tag k="name" v="Knottkista" />
		<tag k="place" v="locality" />
		<tag k="ssr:stedsnr" v="936138" />
	</node>
	<node id="-99762" lat="64.5017083373" lon="10.9563583397">
		<tag k="name" v="Rundhaugen" />
		<tag k="natural" v="hill" />
		<tag k="place" v="locality" />
		<tag k="ssr:stedsnr" v="936132" />
	</node>
	<node id="-99755" lat="64.5008777736" lon="10.9471944423">
		<tag k="name" v="Trollhaugen" />
		<tag k="natural" v="hill" />
		<tag k="place" v="locality" />
		<tag k="ssr:stedsnr" v="924725" />
	</node>
	<node id="-99750" lat="64.5572611096" lon="10.9570027675">
		<tag k="name" v="Trollet" />
		<tag k="natural" v="hill" />
		<tag k="place" v="locality" />
		<tag k="ssr:stedsnr" v="924581" />
	</node>
	<node id="-99748" lat="64.5778388881" lon="10.908919439">
		<tag k="name" v="Skarven" />
		<tag k="natural" v="hill" />
		<tag k="place" v="locality" />
		<tag k="ssr:stedsnr" v="924571" />
	</node>
	<node id="-98886" lat="64.5101777748" lon="10.8707250057">
		<tag k="name" v="Fiskberget" />
		<tag k="natural" v="hill" />
		<tag k="place" v="locality" />
		<tag k="ssr:stedsnr" v="269164" />
	</node>
	<node id="-99741" lat="64.431208333" lon="10.8437749997">
		<tag k="fixme" v="consider natural=peak for the most distinct mountains in the district" />
		<tag k="name" v="Høghatten" />
		<tag k="natural" v="hill" />
		<tag k="place" v="locality" />
		<tag k="ssr:stedsnr" v="902919" />
	</node>
	<node id="-99739" lat="64.4344444483" lon="10.8328027843">
		<tag k="name" v="Sant Hansholet" />
		<tag k="natural" v="valley" />
		<tag k="place" v="locality" />
		<tag k="ssr:stedsnr" v="899767" />
	</node>
	<node id="-99737" lat="64.4627888878" lon="10.8889222234">
		<tag k="name" v="Sørfløabakken" />
		<tag k="natural" v="slope" />
		<tag k="place" v="locality" />
		<tag k="ssr:stedsnr" v="899861" />
	</node>
	<node id="-99735" lat="64.4513750032" lon="10.6200555598">
		<tag k="name" v="Fagervollen" />
		<tag k="natural" v="slope" />
		<tag k="place" v="locality" />
		<tag k="ssr:stedsnr" v="899805" />
	</node>
	<node id="-99734" lat="64.5561805517" lon="11.062841675">
		<tag k="name" v="Nordskaret" />
		<tag k="natural" v="valley" />
		<tag k="place" v="locality" />
		<tag k="ssr:stedsnr" v="899256" />
	</node>
	<node id="-99731" lat="64.3886055534" lon="10.8656722235">
		<tag k="name" v="Laukvikseterlia" />
		<tag k="natural" v="slope" />
		<tag k="place" v="locality" />
		<tag k="ssr:stedsnr" v="898968" />
	</node>
	<node id="-99728" lat="64.3318916631" lon="10.8863499904">
		<tag k="name" v="Bjønnahaugen" />
		<tag k="natural" v="hill" />
		<tag k="place" v="locality" />
		<tag k="ssr:stedsnr" v="898589" />
	</node>
	<node id="-99725" lat="64.3334472227" lon="10.9057194352">
		<tag k="name" v="Rørhola" />
		<tag k="natural" v="valley" />
		<tag k="place" v="locality" />
		<tag k="ssr:stedsnr" v="898604" />
	</node>
	<node id="-99724" lat="64.4283444482" lon="10.9861583398">
		<tag k="name" v="Morkakleiva" />
		<tag k="natural" v="slope" />
		<tag k="place" v="locality" />
		<tag k="ssr:stedsnr" v="898203" />
	</node>
	<node id="-99719" lat="64.4452277808" lon="10.6905861079">
		<tag k="name" v="Riskammen" />
		<tag k="natural" v="hill" />
		<tag k="place" v="locality" />
		<tag k="ssr:stedsnr" v="876011" />
	</node>
	<node id="-99718" lat="64.444294443" lon="10.8295805618">
		<tag k="name" v="Gråbakkan" />
		<tag k="natural" v="slope" />
		<tag k="place" v="locality" />
		<tag k="ssr:stedsnr" v="875119" />
	</node>
	<node id="-98881" lat="64.4669388853" lon="10.7119888947">
		<tag k="fixme" v="consider natural=peak for the most distinct mountains in the district" />
		<tag k="name" v="Dumersfjellet" />
		<tag k="natural" v="hill" />
		<tag k="place" v="locality" />
		<tag k="ssr:stedsnr" v="269002" />
	</node>
	<node id="-99712" lat="64.5611222216" lon="11.0175805507">
		<tag k="fixme" v="consider natural=peak for the most distinct mountains in the district" />
		<tag k="name" v="Langfjellet" />
		<tag k="natural" v="hill" />
		<tag k="place" v="locality" />
		<tag k="ssr:stedsnr" v="838373" />
	</node>
	<node id="-99710" lat="64.5302083374" lon="11.010622216">
		<tag k="name" v="Trolltrappen" />
		<tag k="natural" v="slope" />
		<tag k="place" v="locality" />
		<tag k="ssr:stedsnr" v="838305" />
	</node>
	<node id="-99692" lat="64.4116749999" lon="10.7242277687">
		<tag k="name" v="Yrviklia" />
		<tag k="natural" v="slope" />
		<tag k="place" v="locality" />
		<tag k="ssr:stedsnr" v="835018" />
	</node>
	<node id="-99690" lat="64.4838805557" lon="10.8688972125">
		<tag k="name" v="Storfjellet" />
		<tag k="natural" v="hill" />
		<tag k="place" v="locality" />
		<tag k="ssr:stedsnr" v="937200" />
	</node>
	<node id="-99685" lat="64.435316663" lon="10.6515944427">
		<tag k="name" v="Skarven" />
		<tag k="natural" v="hill" />
		<tag k="place" v="locality" />
		<tag k="ssr:stedsnr" v="934174" />
	</node>
	<node id="-99680" lat="64.393397219" lon="10.613013886">
		<tag k="name" v="Vassbakkan" />
		<tag k="natural" v="slope" />
		<tag k="place" v="locality" />
		<tag k="ssr:stedsnr" v="815020" />
	</node>
	<node id="-99679" lat="64.4595027818" lon="10.7155249973">
		<tag k="name" v="Volldalen" />
		<tag k="natural" v="valley" />
		<tag k="place" v="locality" />
		<tag k="ssr:stedsnr" v="815013" />
	</node>
	<node id="-99678" lat="64.469969443" lon="10.7090166731">
		<tag k="name" v="Tverrveggen" />
		<tag k="place" v="locality" />
		<tag k="ssr:stedsnr" v="815003" />
	</node>
	<node id="-99672" lat="64.4772833328" lon="11.011166665">
		<tag k="fixme" v="consider natural=peak for the most distinct mountains in the district" />
		<tag k="name" v="Langvassheia" />
		<tag k="natural" v="hill" />
		<tag k="place" v="locality" />
		<tag k="ssr:stedsnr" v="803404" />
	</node>
	<node id="-99668" lat="64.3884027775" lon="10.8501055606">
		<tag k="fixme" v="consider natural=peak for the most distinct mountains in the district" />
		<tag k="name" v="Laukvikfjellet" />
		<tag k="natural" v="hill" />
		<tag k="place" v="locality" />
		<tag k="ssr:stedsnr" v="802310" />
	</node>
	<node id="-99667" lat="64.384800001" lon="10.8316555507">
		<tag k="fixme" v="consider natural=peak for the most distinct mountains in the district" />
		<tag k="name" v="Kalvstrandklumpen" />
		<tag k="natural" v="hill" />
		<tag k="place" v="locality" />
		<tag k="ssr:stedsnr" v="802309" />
	</node>
	<node id="-99664" lat="64.5179388909" lon="10.9805277687">
		<tag k="fixme" v="consider natural=peak for the most distinct mountains in the district" />
		<tag k="name" v="Ramsfjellet" />
		<tag k="natural" v="hill" />
		<tag k="place" v="locality" />
		<tag k="ssr:stedsnr" v="925742" />
	</node>
	<node id="-99655" lat="64.5476555559" lon="10.7005222189">
		<tag k="fixme" v="consider natural=peak for the most distinct mountains in the district" />
		<tag k="name" v="Villafjellet" />
		<tag k="natural" v="hill" />
		<tag k="place" v="locality" />
		<tag k="ssr:stedsnr" v="924882" />
	</node>
	<node id="-99653" lat="64.4221916636" lon="10.6242305611">
		<tag k="fixme" v="consider natural=peak for the most distinct mountains in the district" />
		<tag k="name" v="Askfjellet" />
		<tag k="natural" v="hill" />
		<tag k="place" v="locality" />
		<tag k="ssr:stedsnr" v="924640" />
	</node>
	<node id="-99646" lat="64.5593249961" lon="11.0289666713">
		<tag k="name" v="Vassleidalen" />
		<tag k="natural" v="valley" />
		<tag k="place" v="locality" />
		<tag k="ssr:stedsnr" v="924598" />
	</node>
	<node id="-99640" lat="64.4481305586" lon="10.9454638819">
		<tag k="fixme" v="consider natural=peak for the most distinct mountains in the district" />
		<tag k="name" v="Fløafjellet" />
		<tag k="natural" v="hill" />
		<tag k="place" v="locality" />
		<tag k="ssr:stedsnr" v="924440" />
	</node>
	<node id="-99635" lat="64.3661138864" lon="11.0710999922">
		<tag k="name" v="Sneilia" />
		<tag k="natural" v="slope" />
		<tag k="place" v="locality" />
		<tag k="ssr:stedsnr" v="924339" />
	</node>
	<node id="-99632" lat="64.3626444482" lon="10.8578972156">
		<tag k="name" v="Gaupdalen" />
		<tag k="natural" v="valley" />
		<tag k="place" v="locality" />
		<tag k="ssr:stedsnr" v="924331" />
	</node>
	<node id="-99630" lat="64.346152779" lon="10.9108388838">
		<tag k="fixme" v="consider natural=peak for the most distinct mountains in the district" />
		<tag k="name" v="Rislihatten" />
		<tag k="natural" v="hill" />
		<tag k="place" v="locality" />
		<tag k="ssr:stedsnr" v="924323" />
	</node>
	<node id="-99629" lat="64.3487472252" lon="10.8280277848">
		<tag k="name" v="Trollengkjerringa" />
		<tag k="natural" v="hill" />
		<tag k="place" v="locality" />
		<tag k="ssr:stedsnr" v="924317" />
	</node>
	<node id="-99625" lat="64.3385666698" lon="10.8255472232">
		<tag k="fixme" v="consider natural=peak for the most distinct mountains in the district" />
		<tag k="name" v="Seterfjellet" />
		<tag k="natural" v="hill" />
		<tag k="place" v="locality" />
		<tag k="ssr:stedsnr" v="924291" />
	</node>
	<node id="-99624" lat="64.324080556" lon="10.8477416667">
		<tag k="name" v="Gammelseterdalen" />
		<tag k="natural" v="valley" />
		<tag k="place" v="locality" />
		<tag k="ssr:stedsnr" v="924280" />
	</node>
	<node id="-99615" lat="64.3146611154" lon="10.82713334">
		<tag k="name" v="Sørdalen" />
		<tag k="natural" v="valley" />
		<tag k="place" v="locality" />
		<tag k="ssr:stedsnr" v="924146" />
	</node>
	<node id="-99614" lat="64.315627775" lon="10.8312694393">
		<tag k="name" v="Henrikhaugen" />
		<tag k="natural" v="hill" />
		<tag k="place" v="locality" />
		<tag k="ssr:stedsnr" v="924145" />
	</node>
	<node id="-99613" lat="64.2970944426" lon="10.9709777824">
		<tag k="name" v="Salan" />
		<tag k="natural" v="valley" />
		<tag k="place" v="locality" />
		<tag k="ssr:stedsnr" v="924141" />
	</node>
	<node id="-99610" lat="64.5247277821" lon="11.0007527781">
		<tag k="name" v="Litl - Hanapynten" />
		<tag k="place" v="locality" />
		<tag k="ssr:stedsnr" v="777290" />
	</node>
	<node id="-99609" lat="64.5080527804" lon="11.0102638856">
		<tag k="name" v="Runhaugen" />
		<tag k="natural" v="hill" />
		<tag k="place" v="locality" />
		<tag k="ssr:stedsnr" v="777286" />
	</node>
	<node id="-99608" lat="64.5309055523" lon="10.997399992">
		<tag k="name" v="Vakkervollen" />
		<tag k="place" v="locality" />
		<tag k="ssr:stedsnr" v="777257" />
	</node>
	<node id="-99607" lat="64.5371888893" lon="10.9851472206">
		<tag k="name" v="Moamarka" />
		<tag k="natural" v="slope" />
		<tag k="place" v="locality" />
		<tag k="ssr:stedsnr" v="777256" />
	</node>
	<node id="-99596" lat="64.4625416669" lon="10.7112833232">
		<tag k="fixme" v="consider natural=peak for the most distinct mountains in the district" />
		<tag k="name" v="Steinfjellet" />
		<tag k="natural" v="hill" />
		<tag k="place" v="locality" />
		<tag k="ssr:stedsnr" v="754003" />
	</node>
	<node id="-99595" lat="64.4985388861" lon="10.8771499998">
		<tag k="name" v="Sjøvikmoen" />
		<tag k="place" v="locality" />
		<tag k="ssr:stedsnr" v="909104" />
	</node>
	<node id="-99594" lat="64.4752222183" lon="10.6609444522">
		<tag k="name" v="Rakrovo" />
		<tag k="natural" v="valley" />
		<tag k="place" v="locality" />
		<tag k="ssr:stedsnr" v="753004" />
	</node>
	<node id="-99582" lat="64.4612777765" lon="10.8041999951">
		<tag k="fixme" v="consider natural=peak for the most distinct mountains in the district" />
		<tag k="name" v="Ørnreirfjellet" />
		<tag k="natural" v="hill" />
		<tag k="place" v="locality" />
		<tag k="ssr:stedsnr" v="742469" />
	</node>
	<node id="-99581" lat="64.4358472244" lon="10.7644249927">
		<tag k="fixme" v="consider natural=peak for the most distinct mountains in the district" />
		<tag k="name" v="Middagsfjellet" />
		<tag k="natural" v="hill" />
		<tag k="place" v="locality" />
		<tag k="ssr:stedsnr" v="742421" />
	</node>
	<node id="-99580" lat="64.4400527772" lon="11.0136166704">
		<tag k="name" v="Hundstigdalen" />
		<tag k="natural" v="valley" />
		<tag k="place" v="locality" />
		<tag k="ssr:stedsnr" v="742414" />
	</node>
	<node id="-99579" lat="64.443697221" lon="11.0391999916">
		<tag k="name" v="Løysmundlia" />
		<tag k="natural" v="slope" />
		<tag k="place" v="locality" />
		<tag k="ssr:stedsnr" v="742409" />
	</node>
	<node id="-99576" lat="64.5962083337" lon="10.9613666639">
		<tag k="fixme" v="consider natural=peak for the most distinct mountains in the district" />
		<tag k="name" v="Utvordfjellet" />
		<tag k="natural" v="hill" />
		<tag k="place" v="locality" />
		<tag k="ssr:stedsnr" v="742506" />
	</node>
	<node id="-99574" lat="64.4744749993" lon="10.7641055495">
		<tag k="fixme" v="consider natural=peak for the most distinct mountains in the district" />
		<tag k="name" v="Strandafjellet" />
		<tag k="natural" v="hill" />
		<tag k="place" v="locality" />
		<tag k="ssr:stedsnr" v="742369" />
	</node>
	<node id="-99567" lat="64.4360694424" lon="10.8410305526">
		<tag k="name" v="Danielfannaskardet" />
		<tag k="natural" v="valley" />
		<tag k="place" v="locality" />
		<tag k="ssr:stedsnr" v="902651" />
	</node>
	<node id="-99563" lat="64.5536805549" lon="10.9562416663">
		<tag k="name" v="Heia" />
		<tag k="natural" v="slope" />
		<tag k="place" v="locality" />
		<tag k="ssr:stedsnr" v="899840" />
	</node>
	<node id="-99562" lat="64.441252774" lon="10.6278166617">
		<tag k="fixme" v="consider natural=peak for the most distinct mountains in the district" />
		<tag k="name" v="Harrafjellet" />
		<tag k="natural" v="hill" />
		<tag k="place" v="locality" />
		<tag k="ssr:stedsnr" v="899798" />
	</node>
	<node id="-99560" lat="64.5224583333" lon="11.004958341">
		<tag k="name" v="Dummelskaret" />
		<tag k="natural" v="valley" />
		<tag k="place" v="locality" />
		<tag k="ssr:stedsnr" v="899275" />
	</node>
	<node id="-99559" lat="64.5390888869" lon="11.0102583432">
		<tag k="name" v="Nordfjellklompan" />
		<tag k="natural" v="hill" />
		<tag k="place" v="locality" />
		<tag k="ssr:stedsnr" v="899270" />
	</node>
	<node id="-99548" lat="64.3512916679" lon="10.786002779">
		<tag k="name" v="Skogstudalen" />
		<tag k="natural" v="valley" />
		<tag k="place" v="locality" />
		<tag k="ssr:stedsnr" v="898896" />
	</node>
	<node id="-99546" lat="64.3736638874" lon="10.8955694392">
		<tag k="name" v="Brenthaugen" />
		<tag k="natural" v="hill" />
		<tag k="place" v="locality" />
		<tag k="ssr:stedsnr" v="898887" />
	</node>
	<node id="-99545" lat="64.5708916706" lon="10.9206722288">
		<tag k="name" v="Ålernakken" />
		<tag k="natural" v="slope" />
		<tag k="place" v="locality" />
		<tag k="ssr:stedsnr" v="898880" />
	</node>
	<node id="-99543" lat="64.5879000022" lon="10.9718388909">
		<tag k="name" v="Vassmoen" />
		<tag k="place" v="locality" />
		<tag k="ssr:stedsnr" v="898873" />
	</node>
	<node id="-99540" lat="64.328761108" lon="10.8945833262">
		<tag k="name" v="Litlhattskaret" />
		<tag k="natural" v="valley" />
		<tag k="place" v="locality" />
		<tag k="ssr:stedsnr" v="898594" />
	</node>
	<node id="-99539" lat="64.4358111142" lon="10.999019439">
		<tag k="fixme" v="consider natural=peak for the most distinct mountains in the district" />
		<tag k="name" v="Hallarfjellet" />
		<tag k="natural" v="hill" />
		<tag k="place" v="locality" />
		<tag k="ssr:stedsnr" v="898195" />
	</node>
	<node id="-99536" lat="64.3010305529" lon="10.8820749941">
		<tag k="name" v="Langvasskaret" />
		<tag k="natural" v="valley" />
		<tag k="place" v="locality" />
		<tag k="ssr:stedsnr" v="897533" />
	</node>
	<node id="-99534" lat="64.4313194487" lon="10.9879722299">
		<tag k="name" v="Arnhaugen" />
		<tag k="natural" v="hill" />
		<tag k="place" v="locality" />
		<tag k="ssr:stedsnr" v="897195" />
	</node>
	<node id="-99533" lat="64.4537444426" lon="10.9063583273">
		<tag k="name" v="Storrundhaugen" />
		<tag k="natural" v="hill" />
		<tag k="place" v="locality" />
		<tag k="ssr:stedsnr" v="716993" />
	</node>
	<node id="-99532" lat="64.4196611086" lon="10.9720277805">
		<tag k="name" v="Bakstjarnrovo" />
		<tag k="natural" v="valley" />
		<tag k="place" v="locality" />
		<tag k="ssr:stedsnr" v="716979" />
	</node>
	<node id="-99531" lat="64.4326083359" lon="10.9345527878">
		<tag k="name" v="Plassaseterklompen" />
		<tag k="natural" v="hill" />
		<tag k="place" v="locality" />
		<tag k="ssr:stedsnr" v="716978" />
	</node>
	<node id="-99530" lat="64.437161107" lon="10.9185388966">
		<tag k="name" v="Plassaseterlia" />
		<tag k="natural" v="slope" />
		<tag k="place" v="locality" />
		<tag k="ssr:stedsnr" v="716972" />
	</node>
	<node id="-99529" lat="64.4233000024" lon="10.9618500005">
		<tag k="name" v="Morkabakkan" />
		<tag k="natural" v="slope" />
		<tag k="place" v="locality" />
		<tag k="ssr:stedsnr" v="716970" />
	</node>
	<node id="-99527" lat="64.4326833336" lon="10.9459916712">
		<tag k="name" v="Høgreinin" />
		<tag k="natural" v="ridge" />
		<tag k="place" v="locality" />
		<tag k="ssr:stedsnr" v="716958" />
	</node>
	<node id="-99524" lat="64.475008335" lon="10.8802027828">
		<tag k="fixme" v="consider natural=peak for the most distinct mountains in the district" />
		<tag k="name" v="Finnsteinfjellet" />
		<tag k="natural" v="hill" />
		<tag k="place" v="locality" />
		<tag k="ssr:stedsnr" v="716837" />
	</node>
	<node id="-99523" lat="64.4799888882" lon="10.8677555596">
		<tag k="name" v="Kveldsøktlia" />
		<tag k="natural" v="slope" />
		<tag k="place" v="locality" />
		<tag k="ssr:stedsnr" v="716827" />
	</node>
	<node id="-99521" lat="64.40368056" lon="10.9952527734">
		<tag k="name" v="Sandbakkan" />
		<tag k="natural" v="slope" />
		<tag k="place" v="locality" />
		<tag k="ssr:stedsnr" v="715786" />
	</node>
	<node id="-99519" lat="64.3118027806" lon="10.8651499992">
		<tag k="fixme" v="consider natural=peak for the most distinct mountains in the district" />
		<tag k="name" v="Vardeheia" />
		<tag k="natural" v="hill" />
		<tag k="place" v="locality" />
		<tag k="ssr:stedsnr" v="715565" />
	</node>
	<node id="-99518" lat="64.4516333339" lon="11.031127775">
		<tag k="fixme" v="consider natural=peak for the most distinct mountains in the district" />
		<tag k="name" v="Grønnlifjellet" />
		<tag k="natural" v="hill" />
		<tag k="place" v="locality" />
		<tag k="ssr:stedsnr" v="715010" />
	</node>
	<node id="-99517" lat="64.4488333298" lon="11.040650006">
		<tag k="fixme" v="consider natural=peak for the most distinct mountains in the district" />
		<tag k="name" v="Grønliheia" />
		<tag k="natural" v="hill" />
		<tag k="place" v="locality" />
		<tag k="ssr:stedsnr" v="715009" />
	</node>
	<node id="-99516" lat="64.3849777795" lon="10.7493611013">
		<tag k="name" v="Hestdalpynten" />
		<tag k="natural" v="hill" />
		<tag k="place" v="locality" />
		<tag k="ssr:stedsnr" v="895019" />
	</node>
	<node id="-99509" lat="64.471877776" lon="10.7826666626">
		<tag k="name" v="Jamnnesfjellet" />
		<tag k="natural" v="hill" />
		<tag k="place" v="locality" />
		<tag k="ssr:stedsnr" v="694075" />
	</node>
	<node id="-99503" lat="64.482386114" lon="10.7888472212">
		<tag k="name" v="Sankt-Hanshaugen" />
		<tag k="natural" v="hill" />
		<tag k="place" v="locality" />
		<tag k="ssr:stedsnr" v="694058" />
	</node>
	<node id="-99501" lat="64.4948777737" lon="10.9591305489">
		<tag k="name" v="Stokkskaret" />
		<tag k="natural" v="valley" />
		<tag k="place" v="locality" />
		<tag k="ssr:stedsnr" v="693165" />
	</node>
	<node id="-99498" lat="64.5153972233" lon="11.0335138882">
		<tag k="alt_name" v="Joseterfjellet" />
		<tag k="fixme" v="consider natural=peak for the most distinct mountains in the district" />
		<tag k="name" v="Jofjellet" />
		<tag k="natural" v="hill" />
		<tag k="place" v="locality" />
		<tag k="ssr:stedsnr" v="682756" />
	</node>
	<node id="-99483" lat="64.4887222194" lon="10.8221833428">
		<tag k="name" v="Hanshallaren" />
		<tag k="natural" v="hill" />
		<tag k="place" v="locality" />
		<tag k="ssr:stedsnr" v="681416" />
	</node>
	<node id="-99481" lat="64.3981888931" lon="11.0188111098">
		<tag k="name" v="Eidbyggskardet" />
		<tag k="natural" v="valley" />
		<tag k="place" v="locality" />
		<tag k="ssr:stedsnr" v="681260" />
	</node>
	<node id="-98923" lat="64.5849444411" lon="11.0133722293">
		<tag k="name" v="Flaughaugen" />
		<tag k="natural" v="hill" />
		<tag k="place" v="locality" />
		<tag k="ssr:stedsnr" v="291957" />
	</node>
	<node id="-99477" lat="64.5507277765" lon="10.8644027855">
		<tag k="loc_name" v="Havsteinshauken" />
		<tag k="name" v="Havsteinhauken" />
		<tag k="natural" v="hill" />
		<tag k="place" v="locality" />
		<tag k="ssr:stedsnr" v="878799" />
	</node>
	<node id="-99468" lat="64.5841666642" lon="10.9780055478">
		<tag k="name" v="Haliskaret" />
		<tag k="natural" v="valley" />
		<tag k="place" v="locality" />
		<tag k="ssr:stedsnr" v="655886" />
	</node>
	<node id="-99466" lat="64.3666861155" lon="10.8011138966">
		<tag k="name" v="Leirvikskaret" />
		<tag k="natural" v="valley" />
		<tag k="place" v="locality" />
		<tag k="ssr:stedsnr" v="655881" />
	</node>
	<node id="-99465" lat="64.3583027804" lon="10.8234694415">
		<tag k="name" v="Kolhusdalen" />
		<tag k="natural" v="valley" />
		<tag k="place" v="locality" />
		<tag k="ssr:stedsnr" v="655878" />
	</node>
	<node id="-99464" lat="64.5604749973" lon="11.0314638877">
		<tag k="name" v="Vassleihaugen" />
		<tag k="natural" v="hill" />
		<tag k="place" v="locality" />
		<tag k="ssr:stedsnr" v="655336" />
	</node>
	<node id="-99462" lat="64.4928611072" lon="10.8576305632">
		<tag k="name" v="Furuåsen" />
		<tag k="natural" v="hill" />
		<tag k="place" v="locality" />
		<tag k="ssr:stedsnr" v="876209" />
	</node>
	<node id="-99456" lat="64.5023638917" lon="10.7858361023">
		<tag k="name" v="Kongensfjellet" />
		<tag k="natural" v="hill" />
		<tag k="place" v="locality" />
		<tag k="ssr:stedsnr" v="633119" />
	</node>
	<node id="-99450" lat="64.5062611088" lon="10.96998889">
		<tag k="name" v="Inner-Krubba" />
		<tag k="natural" v="valley" />
		<tag k="place" v="locality" />
		<tag k="ssr:stedsnr" v="632155" />
	</node>
	<node id="-98835" lat="64.320466666" lon="10.9571305513">
		<tag k="name" v="Langsteinholet" />
		<tag k="natural" v="valley" />
		<tag k="place" v="locality" />
		<tag k="ssr:stedsnr" v="257349" />
	</node>
	<node id="-98768" lat="64.3316861095" lon="10.895200003">
		<tag k="name" v="Heidalmoen" />
		<tag k="place" v="locality" />
		<tag k="ssr:stedsnr" v="230578" />
	</node>
	<node id="-99435" lat="64.4263222208" lon="10.894280547">
		<tag k="fixme" v="consider natural=peak for the most distinct mountains in the district" />
		<tag k="name" v="Honnavassheia - Tjåerviejaevrievaerie" />
		<tag k="name:no" v="Honnavassheia" />
		<tag k="name:sma" v="Tjåerviejaevrievaerie" />
		<tag k="natural" v="hill" />
		<tag k="place" v="locality" />
		<tag k="ssr:stedsnr" v="620414" />
	</node>
	<node id="-99431" lat="64.5768305529" lon="11.0383083397">
		<tag k="name" v="Småhaugan" />
		<tag k="natural" v="hill" />
		<tag k="place" v="locality" />
		<tag k="ssr:stedsnr" v="716951" />
	</node>
	<node id="-99430" lat="64.3992527792" lon="10.8083611107">
		<tag k="fixme" v="consider natural=peak for the most distinct mountains in the district" />
		<tag k="name" v="Brattvikklompen" />
		<tag k="natural" v="hill" />
		<tag k="place" v="locality" />
		<tag k="ssr:stedsnr" v="716940" />
	</node>
	<node id="-99427" lat="64.5956861117" lon="10.9927499987">
		<tag k="name" v="Kårbringdalen" />
		<tag k="natural" v="valley" />
		<tag k="place" v="locality" />
		<tag k="ssr:stedsnr" v="716917" />
	</node>
	<node id="-99424" lat="64.3421555561" lon="10.812338891">
		<tag k="name" v="Grønlia" />
		<tag k="natural" v="slope" />
		<tag k="place" v="locality" />
		<tag k="ssr:stedsnr" v="716882" />
	</node>
	<node id="-99419" lat="64.6065416659" lon="10.8887805456">
		<tag k="fixme" v="consider natural=peak for the most distinct mountains in the district" />
		<tag k="name" v="Ramsvikfjellet" />
		<tag k="natural" v="hill" />
		<tag k="place" v="locality" />
		<tag k="ssr:stedsnr" v="716852" />
	</node>
	<node id="-99418" lat="64.4724083295" lon="10.9750666634">
		<tag k="name" v="Hestmarka" />
		<tag k="natural" v="slope" />
		<tag k="place" v="locality" />
		<tag k="ssr:stedsnr" v="716789" />
	</node>
	<node id="-99417" lat="64.4369277759" lon="10.85143056">
		<tag k="name" v="Årfjordfannaskardet" />
		<tag k="natural" v="valley" />
		<tag k="place" v="locality" />
		<tag k="ssr:stedsnr" v="598615" />
	</node>
	<node id="-99414" lat="64.3524138845" lon="10.8616138946">
		<tag k="name" v="Kroklia" />
		<tag k="natural" v="slope" />
		<tag k="place" v="locality" />
		<tag k="ssr:stedsnr" v="716644" />
	</node>
	<node id="-99411" lat="64.4909055579" lon="10.9896138934">
		<tag k="fixme" v="consider natural=peak for the most distinct mountains in the district" />
		<tag k="name" v="Sagfjellet" />
		<tag k="natural" v="hill" />
		<tag k="place" v="locality" />
		<tag k="ssr:stedsnr" v="715485" />
	</node>
	<node id="-99409" lat="64.4256777809" lon="11.0024666582">
		<tag k="name" v="Middagsskaret" />
		<tag k="natural" v="valley" />
		<tag k="place" v="locality" />
		<tag k="ssr:stedsnr" v="715212" />
	</node>
	<node id="-99408" lat="64.4627361105" lon="10.8729611201">
		<tag k="fixme" v="consider natural=peak for the most distinct mountains in the district" />
		<tag k="name" v="Raudfjellet" />
		<tag k="natural" v="hill" />
		<tag k="place" v="locality" />
		<tag k="ssr:stedsnr" v="595827" />
	</node>
	<node id="-99406" lat="64.5587305553" lon="10.9604777824">
		<tag k="name" v="Bjønnaskaret" />
		<tag k="natural" v="valley" />
		<tag k="place" v="locality" />
		<tag k="ssr:stedsnr" v="595808" />
	</node>
	<node id="-99405" lat="64.4442000023" lon="11.0301083255">
		<tag k="name" v="Løysmundlidalen" />
		<tag k="natural" v="valley" />
		<tag k="place" v="locality" />
		<tag k="ssr:stedsnr" v="715053" />
	</node>
	<node id="-99403" lat="64.4456027743" lon="11.0102277822">
		<tag k="name" v="Bjønnaklompdalen" />
		<tag k="natural" v="valley" />
		<tag k="place" v="locality" />
		<tag k="ssr:stedsnr" v="715049" />
	</node>
	<node id="-98827" lat="64.4485305575" lon="10.6759166701">
		<tag k="alt_name" v="Skrottheia" />
		<tag k="fixme" v="consider natural=peak for the most distinct mountains in the district" />
		<tag k="name" v="Skrotten" />
		<tag k="natural" v="hill" />
		<tag k="place" v="locality" />
		<tag k="ssr:stedsnr" v="256621" />
	</node>
	<node id="-99383" lat="64.4561666639" lon="10.6095861061">
		<tag k="fixme" v="consider natural=peak for the most distinct mountains in the district" />
		<tag k="name" v="Smo" />
		<tag k="natural" v="hill" />
		<tag k="place" v="locality" />
		<tag k="ssr:stedsnr" v="559663" />
	</node>
	<node id="-99382" lat="64.5663055553" lon="11.031719439">
		<tag k="name" v="Rislia" />
		<tag k="natural" v="slope" />
		<tag k="place" v="locality" />
		<tag k="ssr:stedsnr" v="559621" />
	</node>
	<node id="-99380" lat="64.4457999967" lon="10.9822777759">
		<tag k="fixme" v="consider natural=peak for the most distinct mountains in the district" />
		<tag k="name" v="Dummulfjellet" />
		<tag k="natural" v="hill" />
		<tag k="place" v="locality" />
		<tag k="ssr:stedsnr" v="559457" />
	</node>
	<node id="-99376" lat="64.4136222243" lon="11.0425861028">
		<tag k="fixme" v="consider natural=peak for the most distinct mountains in the district" />
		<tag k="name" v="Nonsfjellet" />
		<tag k="natural" v="hill" />
		<tag k="place" v="locality" />
		<tag k="ssr:stedsnr" v="559271" />
	</node>
	<node id="-99371" lat="64.4854361102" lon="10.8759361167">
		<tag k="name" v="Krokskaret" />
		<tag k="natural" v="valley" />
		<tag k="place" v="locality" />
		<tag k="ssr:stedsnr" v="694146" />
	</node>
	<node id="-99369" lat="64.4875333326" lon="10.9147000074">
		<tag k="name" v="Røstdalen" />
		<tag k="natural" v="valley" />
		<tag k="place" v="locality" />
		<tag k="ssr:stedsnr" v="694176" />
	</node>
	<node id="-99366" lat="64.489925004" lon="10.9763527845">
		<tag k="name" v="Knotthaugan" />
		<tag k="natural" v="hill" />
		<tag k="place" v="locality" />
		<tag k="ssr:stedsnr" v="693190" />
	</node>
	<node id="-99365" lat="64.4970500028" lon="10.9788750051">
		<tag k="name" v="Kvalknotthammaren" />
		<tag k="place" v="locality" />
		<tag k="ssr:stedsnr" v="693188" />
	</node>
	<node id="-99364" lat="64.5133555551" lon="10.964327777">
		<tag k="name" v="Knottholet" />
		<tag k="natural" v="valley" />
		<tag k="place" v="locality" />
		<tag k="ssr:stedsnr" v="693151" />
	</node>
	<node id="-99357" lat="64.4217666625" lon="10.9625027848">
		<tag k="name" v="Nausthaugen" />
		<tag k="natural" v="hill" />
		<tag k="place" v="locality" />
		<tag k="ssr:stedsnr" v="534982" />
	</node>
	<node id="-99356" lat="64.434205556" lon="10.9408333289">
		<tag k="name" v="Liaskaret" />
		<tag k="natural" v="valley" />
		<tag k="place" v="locality" />
		<tag k="ssr:stedsnr" v="534971" />
	</node>
	<node id="-99355" lat="64.5701638872" lon="10.9983194491">
		<tag k="name" v="Tørbersskara" />
		<tag k="natural" v="valley" />
		<tag k="place" v="locality" />
		<tag k="ssr:stedsnr" v="534963" />
	</node>
	<node id="-99354" lat="64.5714944457" lon="11.0073666682">
		<tag k="fixme" v="consider natural=peak for the most distinct mountains in the district" />
		<tag k="name" v="Nonsfjellet" />
		<tag k="natural" v="hill" />
		<tag k="place" v="locality" />
		<tag k="ssr:stedsnr" v="534960" />
	</node>
	<node id="-99350" lat="64.5537472267" lon="11.0445027769">
		<tag k="fixme" v="consider natural=peak for the most distinct mountains in the district" />
		<tag k="name" v="Tiklompan" />
		<tag k="natural" v="hill" />
		<tag k="place" v="locality" />
		<tag k="ssr:stedsnr" v="534368" />
	</node>
	<node id="-99349" lat="64.5616972242" lon="11.043094444">
		<tag k="fixme" v="consider natural=peak for the most distinct mountains in the district" />
		<tag k="name" v="Lensmannsklompen" />
		<tag k="natural" v="hill" />
		<tag k="place" v="locality" />
		<tag k="ssr:stedsnr" v="534366" />
	</node>
	<node id="-99348" lat="64.5730250014" lon="11.042894451">
		<tag k="name" v="Hengrauva" />
		<tag k="natural" v="hill" />
		<tag k="place" v="locality" />
		<tag k="ssr:stedsnr" v="533964" />
	</node>
	<node id="-99346" lat="64.5467583342" lon="10.8877055568">
		<tag k="fixme" v="consider natural=peak for the most distinct mountains in the district" />
		<tag k="name" v="Havsteinfjellet" />
		<tag k="natural" v="hill" />
		<tag k="place" v="locality" />
		<tag k="ssr:stedsnr" v="533829" />
	</node>
	<node id="-99345" lat="64.3043888849" lon="10.8875083301">
		<tag k="fixme" v="consider natural=peak for the most distinct mountains in the district" />
		<tag k="name" v="Midtheia" />
		<tag k="natural" v="hill" />
		<tag k="place" v="locality" />
		<tag k="ssr:stedsnr" v="533563" />
	</node>
	<node id="-99344" lat="64.4266611151" lon="11.0266333256">
		<tag k="name" v="Langhammaren" />
		<tag k="natural" v="slope" />
		<tag k="place" v="locality" />
		<tag k="ssr:stedsnr" v="533208" />
	</node>
	<node id="-99343" lat="64.4362666646" lon="10.9854055595">
		<tag k="name" v="Hesthaugen" />
		<tag k="natural" v="hill" />
		<tag k="place" v="locality" />
		<tag k="ssr:stedsnr" v="533203" />
	</node>
	<node id="-99342" lat="64.4166138872" lon="10.6596222164">
		<tag k="fixme" v="consider natural=peak for the most distinct mountains in the district" />
		<tag k="name" v="Hyllfjellet" />
		<tag k="natural" v="hill" />
		<tag k="place" v="locality" />
		<tag k="ssr:stedsnr" v="531020" />
	</node>
	<node id="-99341" lat="64.3763583318" lon="10.7439666579">
		<tag k="fixme" v="consider natural=peak for the most distinct mountains in the district" />
		<tag k="name" v="Sørvikrabben" />
		<tag k="natural" v="hill" />
		<tag k="ssr:stedsnr" v="531018" />
	</node>
	<node id="-99340" lat="64.4046944469" lon="10.7355499979">
		<tag k="name" v="Bjønnaholdalen" />
		<tag k="natural" v="valley" />
		<tag k="place" v="locality" />
		<tag k="ssr:stedsnr" v="531006" />
	</node>
	<node id="-99336" lat="64.4752944407" lon="10.7846305524">
		<tag k="name" v="Hilstadborga" />
		<tag k="natural" v="hill" />
		<tag k="place" v="locality" />
		<tag k="ssr:stedsnr" v="512069" />
	</node>
	<node id="-99335" lat="64.4485638851" lon="10.7562361148">
		<tag k="name" v="Middagsfjellrovo" />
		<tag k="natural" v="valley" />
		<tag k="place" v="locality" />
		<tag k="ssr:stedsnr" v="511114" />
	</node>
	<node id="-99333" lat="64.4514888873" lon="10.7840333294">
		<tag k="name" v="Eittklompen" />
		<tag k="natural" v="hill" />
		<tag k="place" v="locality" />
		<tag k="ssr:stedsnr" v="511104" />
	</node>
	<node id="-99329" lat="64.3673666625" lon="10.9459166673">
		<tag k="name" v="Storbakken" />
		<tag k="natural" v="slope" />
		<tag k="place" v="locality" />
		<tag k="ssr:stedsnr" v="505459" />
	</node>
	<node id="-99325" lat="64.537405556" lon="10.9924277838">
		<tag k="fixme" v="consider natural=peak for the most distinct mountains in the district" />
		<tag k="name" v="Brennfjellet" />
		<tag k="natural" v="hill" />
		<tag k="place" v="locality" />
		<tag k="ssr:stedsnr" v="682231" />
	</node>
	<node id="-99324" lat="64.5604638922" lon="11.0664999911">
		<tag k="fixme" v="multiple name tags, choose one and add the other to alt_name; consider natural=peak for the most distinct mountains in the district" />
		<tag k="name" v="Middagsfjellet;Småvikfjellet" />
		<tag k="natural" v="hill" />
		<tag k="place" v="locality" />
		<tag k="ssr:stedsnr" v="682230" />
	</node>
	<node id="-99323" lat="64.4520305551" lon="10.6892666695">
		<tag k="fixme" v="consider natural=peak for the most distinct mountains in the district" />
		<tag k="name" v="Riskammen" />
		<tag k="natural" v="hill" />
		<tag k="place" v="locality" />
		<tag k="ssr:stedsnr" v="681652" />
	</node>
	<node id="-99320" lat="64.5662333338" lon="11.0002527879">
		<tag k="fixme" v="multiple name tags, choose one and add the other to alt_name; consider natural=peak for the most distinct mountains in the district" />
		<tag k="name" v="Middagsfjellet;Vattafjellet" />
		<tag k="natural" v="hill" />
		<tag k="place" v="locality" />
		<tag k="ssr:stedsnr" v="681619" />
	</node>
	<node id="-99315" lat="64.6023694422" lon="10.8867694534">
		<tag k="name" v="Sabben" />
		<tag k="natural" v="hill" />
		<tag k="place" v="locality" />
		<tag k="ssr:stedsnr" v="681547" />
	</node>
	<node id="-99309" lat="64.4275194481" lon="10.9564277698">
		<tag k="alt_name" v="Morkanonshaugen" />
		<tag k="name" v="Nonshaugen" />
		<tag k="natural" v="hill" />
		<tag k="place" v="locality" />
		<tag k="ssr:stedsnr" v="681435" />
	</node>
	<node id="-99308" lat="64.4887250007" lon="10.7832166674">
		<tag k="fixme" v="consider natural=peak for the most distinct mountains in the district" />
		<tag k="name" v="Glasøyfjellet" />
		<tag k="natural" v="hill" />
		<tag k="place" v="locality" />
		<tag k="ssr:stedsnr" v="681402" />
	</node>
	<node id="-99304" lat="64.4611166661" lon="10.7232166769">
		<tag k="fixme" v="consider natural=peak for the most distinct mountains in the district" />
		<tag k="name" v="Liafjellet" />
		<tag k="natural" v="hill" />
		<tag k="place" v="locality" />
		<tag k="ssr:stedsnr" v="681477" />
	</node>
	<node id="-99303" lat="64.3636055536" lon="10.9493750061">
		<tag k="fixme" v="consider natural=peak for the most distinct mountains in the district" />
		<tag k="name" v="Storbakkpynten" />
		<tag k="natural" v="hill" />
		<tag k="place" v="locality" />
		<tag k="ssr:stedsnr" v="681338" />
	</node>
	<node id="-99299" lat="64.5779499991" lon="10.9503638864">
		<tag k="fixme" v="consider natural=peak for the most distinct mountains in the district" />
		<tag k="name" v="Futdalsfjellet" />
		<tag k="natural" v="hill" />
		<tag k="place" v="locality" />
		<tag k="ssr:stedsnr" v="499524" />
	</node>
	<node id="-99282" lat="64.3377777762" lon="10.9004944493">
		<tag k="name" v="Rørholdalen" />
		<tag k="natural" v="valley" />
		<tag k="place" v="locality" />
		<tag k="ssr:stedsnr" v="473608" />
	</node>
	<node id="-99271" lat="64.5049861143" lon="10.8945916568">
		<tag k="name" v="Ytterhaugen" />
		<tag k="natural" v="hill" />
		<tag k="place" v="locality" />
		<tag k="ssr:stedsnr" v="451217" />
	</node>
	<node id="-99270" lat="64.4907277743" lon="10.906630553">
		<tag k="fixme" v="consider natural=peak for the most distinct mountains in the district" />
		<tag k="name" v="Storfjellet" />
		<tag k="natural" v="hill" />
		<tag k="place" v="locality" />
		<tag k="ssr:stedsnr" v="451216" />
	</node>
	<node id="-99269" lat="64.5015472236" lon="10.819566673">
		<tag k="name" v="Hestskrova" />
		<tag k="place" v="locality" />
		<tag k="ssr:stedsnr" v="451111" />
	</node>
	<node id="-99268" lat="64.5084194457" lon="10.9308333404">
		<tag k="name" v="Snertindalen" />
		<tag k="natural" v="valley" />
		<tag k="place" v="locality" />
		<tag k="ssr:stedsnr" v="450114" />
	</node>
	<node id="-99267" lat="64.514375001" lon="10.971458328">
		<tag k="name" v="Ospholet" />
		<tag k="natural" v="valley" />
		<tag k="place" v="locality" />
		<tag k="ssr:stedsnr" v="450111" />
	</node>
	<node id="-99260" lat="64.4530722239" lon="10.8576194504">
		<tag k="name" v="Årfjord" />
		<tag k="natural" v="slope" />
		<tag k="place" v="locality" />
		<tag k="ssr:stedsnr" v="655993" />
	</node>
	<node id="-99258" lat="64.4217555524" lon="10.9352972178">
		<tag k="name" v="Telefonskaret" />
		<tag k="natural" v="valley" />
		<tag k="place" v="locality" />
		<tag k="ssr:stedsnr" v="655975" />
	</node>
	<node id="-99257" lat="64.4261361114" lon="10.9719833354">
		<tag k="name" v="Smihaugen" />
		<tag k="natural" v="hill" />
		<tag k="place" v="locality" />
		<tag k="ssr:stedsnr" v="655973" />
	</node>
	<node id="-99255" lat="64.3785611108" lon="10.8541444482">
		<tag k="name" v="Skulin" />
		<tag k="natural" v="hill" />
		<tag k="place" v="locality" />
		<tag k="ssr:stedsnr" v="655966" />
	</node>
	<node id="-99253" lat="64.5777472196" lon="11.0336222152">
		<tag k="name" v="Tømmervikmoen" />
		<tag k="place" v="locality" />
		<tag k="ssr:stedsnr" v="655953" />
	</node>
	<node id="-99250" lat="64.6043111113" lon="10.9752277685">
		<tag k="name" v="Aurstøklompen" />
		<tag k="natural" v="hill" />
		<tag k="place" v="locality" />
		<tag k="ssr:stedsnr" v="655929" />
	</node>
	<node id="-99246" lat="64.3657722231" lon="10.8704194425">
		<tag k="name" v="Nilsholet" />
		<tag k="natural" v="valley" />
		<tag k="place" v="locality" />
		<tag k="ssr:stedsnr" v="655893" />
	</node>
	<node id="-99244" lat="64.5339194404" lon="10.8042250078">
		<tag k="name" v="Svartflauga" />
		<tag k="natural" v="slope" />
		<tag k="place" v="locality" />
		<tag k="ssr:stedsnr" v="655840" />
	</node>
	<node id="-99242" lat="64.5439583303" lon="10.98198333">
		<tag k="name" v="Brennaskaret" />
		<tag k="natural" v="valley" />
		<tag k="place" v="locality" />
		<tag k="ssr:stedsnr" v="655810" />
	</node>
	<node id="-99241" lat="64.5327500002" lon="10.9686055485">
		<tag k="name" v="Nausthaugen" />
		<tag k="natural" v="hill" />
		<tag k="place" v="locality" />
		<tag k="ssr:stedsnr" v="655808" />
	</node>
	<node id="-99240" lat="64.435100004" lon="10.5902416703">
		<tag k="fixme" v="consider natural=peak for the most distinct mountains in the district" />
		<tag k="name" v="Trolltrappfjellet" />
		<tag k="natural" v="hill" />
		<tag k="place" v="locality" />
		<tag k="ssr:stedsnr" v="655794" />
	</node>
	<node id="-99239" lat="64.4674749982" lon="10.9690138805">
		<tag k="name" v="Rabban" />
		<tag k="natural" v="ridge" />
		<tag k="place" v="locality" />
		<tag k="ssr:stedsnr" v="655774" />
	</node>
	<node id="-99235" lat="64.3702638911" lon="10.7853583362">
		<tag k="name" v="Litlenget" />
		<tag k="natural" v="slope" />
		<tag k="place" v="locality" />
		<tag k="ssr:stedsnr" v="438363" />
	</node>
	<node id="-99234" lat="64.3672027819" lon="10.9055694344">
		<tag k="fixme" v="consider natural=peak for the most distinct mountains in the district" />
		<tag k="name" v="Litlstøheia" />
		<tag k="natural" v="hill" />
		<tag k="place" v="locality" />
		<tag k="ssr:stedsnr" v="438358" />
	</node>
	<node id="-99232" lat="64.3487722205" lon="10.7715250101">
		<tag k="fixme" v="consider natural=peak for the most distinct mountains in the district" />
		<tag k="name" v="Trollfjellet" />
		<tag k="natural" v="hill" />
		<tag k="place" v="locality" />
		<tag k="ssr:stedsnr" v="438355" />
	</node>
	<node id="-99222" lat="64.5026083293" lon="10.7166333396">
		<tag k="alt_name" v="Aspøytuva" />
		<tag k="name" v="Tuva" />
		<tag k="natural" v="hill" />
		<tag k="place" v="locality" />
		<tag k="ssr:stedsnr" v="513980" />
	</node>
	<node id="-99216" lat="64.4760777738" lon="10.7478499923">
		<tag k="name" v="Geitøyhatten" />
		<tag k="natural" v="hill" />
		<tag k="place" v="locality" />
		<tag k="ssr:stedsnr" v="512096" />
	</node>
	<node id="-99214" lat="64.482974996" lon="10.7418694511">
		<tag k="name" v="Nordhaugan" />
		<tag k="natural" v="hill" />
		<tag k="place" v="locality" />
		<tag k="ssr:stedsnr" v="512088" />
	</node>
	<node id="-98795" lat="64.454147225" lon="10.9736305505">
		<tag k="name" v="Hagahammaren" />
		<tag k="place" v="locality" />
		<tag k="ssr:stedsnr" v="231998" />
	</node>
	<node id="-99190" lat="64.5186333319" lon="10.874916667">
		<tag k="name" v="Kleiva" />
		<tag k="natural" v="valley" />
		<tag k="place" v="locality" />
		<tag k="ssr:stedsnr" v="390158" />
	</node>
	<node id="-99188" lat="64.4948888931" lon="10.8263888789">
		<tag k="name" v="Kvernhusskaret" />
		<tag k="natural" v="valley" />
		<tag k="place" v="locality" />
		<tag k="ssr:stedsnr" v="390105" />
	</node>
	<node id="-99187" lat="64.4595888859" lon="10.6969888927">
		<tag k="name" v="Hatten" />
		<tag k="natural" v="hill" />
		<tag k="place" v="locality" />
		<tag k="ssr:stedsnr" v="390021" />
	</node>
	<node id="-98792" lat="64.4295416644" lon="10.7224416658">
		<tag k="name" v="Strupen" />
		<tag k="natural" v="valley" />
		<tag k="place" v="locality" />
		<tag k="ssr:stedsnr" v="231796" />
	</node>
	<node id="-99181" lat="64.5221499973" lon="11.0089055501">
		<tag k="fixme" v="consider natural=peak for the most distinct mountains in the district" />
		<tag k="name" v="Sørfjellet" />
		<tag k="natural" v="hill" />
		<tag k="place" v="locality" />
		<tag k="ssr:stedsnr" v="500731" />
	</node>
	<node id="-99170" lat="64.4627250014" lon="10.7052944531">
		<tag k="fixme" v="consider natural=peak for the most distinct mountains in the district" />
		<tag k="name" v="Selsvikfjellet" />
		<tag k="natural" v="hill" />
		<tag k="place" v="locality" />
		<tag k="ssr:stedsnr" v="499596" />
	</node>
	<node id="-99168" lat="64.5543861106" lon="10.9783916644">
		<tag k="name" v="Rørvassdalen" />
		<tag k="natural" v="valley" />
		<tag k="place" v="locality" />
		<tag k="ssr:stedsnr" v="499588" />
	</node>
	<node id="-99162" lat="64.3454027778" lon="10.7066527805">
		<tag k="name" v="Jøssundlia" />
		<tag k="natural" v="slope" />
		<tag k="place" v="locality" />
		<tag k="ssr:stedsnr" v="499691" />
	</node>
	<node id="-99160" lat="64.4618750024" lon="10.8256583297">
		<tag k="alt_name" v="Robertklumpen" />
		<tag k="name" v="Survikklumpen" />
		<tag k="natural" v="hill" />
		<tag k="place" v="locality" />
		<tag k="ssr:stedsnr" v="499418" />
	</node>
	<node id="-99157" lat="64.431208333" lon="10.8437749997">
		<tag k="fixme" v="consider natural=peak for the most distinct mountains in the district" />
		<tag k="name" v="Fannahatten" />
		<tag k="natural" v="hill" />
		<tag k="place" v="locality" />
		<tag k="ssr:stedsnr" v="499375" />
	</node>
	<node id="-99154" lat="64.4241138935" lon="10.86544999">
		<tag k="name" v="Finnkallholet" />
		<tag k="natural" v="valley" />
		<tag k="place" v="locality" />
		<tag k="ssr:stedsnr" v="499239" />
	</node>
	<node id="-99151" lat="64.3931999987" lon="10.873347224">
		<tag k="fixme" v="consider natural=peak for the most distinct mountains in the district" />
		<tag k="name" v="Rørholheia" />
		<tag k="natural" v="hill" />
		<tag k="place" v="locality" />
		<tag k="ssr:stedsnr" v="499206" />
	</node>
	<node id="-99150" lat="64.3864833333" lon="11.0161166577">
		<tag k="fixme" v="consider natural=peak for the most distinct mountains in the district" />
		<tag k="name" v="Nova" />
		<tag k="natural" v="hill" />
		<tag k="place" v="locality" />
		<tag k="ssr:stedsnr" v="499205" />
	</node>
	<node id="-99149" lat="64.3733166695" lon="10.7969277826">
		<tag k="fixme" v="consider natural=peak for the most distinct mountains in the district" />
		<tag k="name" v="Leirvikfjellet" />
		<tag k="natural" v="hill" />
		<tag k="place" v="locality" />
		<tag k="ssr:stedsnr" v="499203" />
	</node>
	<node id="-99148" lat="64.3801500032" lon="10.9099472183">
		<tag k="fixme" v="multiple name tags, choose one and add the other to alt_name; consider natural=peak for the most distinct mountains in the district" />
		<tag k="name" v="Hanekamtuva;Tuva" />
		<tag k="natural" v="hill" />
		<tag k="place" v="locality" />
		<tag k="ssr:stedsnr" v="499193" />
	</node>
	<node id="-99147" lat="64.5145250023" lon="10.9623388906">
		<tag k="fixme" v="consider natural=peak for the most distinct mountains in the district" />
		<tag k="name" v="Vikafjellet" />
		<tag k="natural" v="hill" />
		<tag k="place" v="locality" />
		<tag k="ssr:stedsnr" v="378202" />
	</node>
	<node id="-99144" lat="64.3562277768" lon="10.9166777757">
		<tag k="name" v="Storlia" />
		<tag k="natural" v="slope" />
		<tag k="place" v="locality" />
		<tag k="ssr:stedsnr" v="499279" />
	</node>
	<node id="-99140" lat="64.3775583364" lon="11.0358472218">
		<tag k="fixme" v="consider natural=peak for the most distinct mountains in the district" />
		<tag k="name" v="Beingårdsheia" />
		<tag k="natural" v="hill" />
		<tag k="place" v="locality" />
		<tag k="ssr:stedsnr" v="377239" />
	</node>
	<node id="-99135" lat="64.4619500037" lon="10.9581388803">
		<tag k="name" v="Brenthaugen" />
		<tag k="natural" v="hill" />
		<tag k="place" v="locality" />
		<tag k="ssr:stedsnr" v="352936" />
	</node>
	<node id="-99122" lat="64.4914361068" lon="10.8101083231">
		<tag k="name" v="Storåsen" />
		<tag k="natural" v="hill" />
		<tag k="place" v="locality" />
		<tag k="ssr:stedsnr" v="330118" />
	</node>
	<node id="-99119" lat="64.4924305542" lon="10.8761833379">
		<tag k="name" v="Krakan" />
		<tag k="place" v="locality" />
		<tag k="ssr:stedsnr" v="330225" />
	</node>
	<node id="-99114" lat="64.4054388872" lon="10.805394446">
		<tag k="name" v="Roggo" />
		<tag k="natural" v="valley" />
		<tag k="place" v="locality" />
		<tag k="ssr:stedsnr" v="317270" />
	</node>
	<node id="-99113" lat="64.4070083327" lon="11.0446694501">
		<tag k="name" v="Lahaugen" />
		<tag k="natural" v="hill" />
		<tag k="place" v="locality" />
		<tag k="ssr:stedsnr" v="317263" />
	</node>
	<node id="-99112" lat="64.3964194457" lon="10.9902694544">
		<tag k="name" v="Domkjerka" />
		<tag k="natural" v="hill" />
		<tag k="place" v="locality" />
		<tag k="ssr:stedsnr" v="317252" />
	</node>
	<node id="-98780" lat="64.5581833373" lon="10.8628333344">
		<tag k="name" v="Reina" />
		<tag k="natural" v="slope" />
		<tag k="place" v="locality" />
		<tag k="ssr:stedsnr" v="230845" />
	</node>
	<node id="-99104" lat="64.3474666675" lon="10.9271277782">
		<tag k="fixme" v="consider natural=peak for the most distinct mountains in the district" />
		<tag k="name" v="Litlenghatten" />
		<tag k="natural" v="hill" />
		<tag k="place" v="locality" />
		<tag k="ssr:stedsnr" v="317319" />
	</node>
	<node id="-99103" lat="64.3594861099" lon="10.7689361163">
		<tag k="name" v="Tverrelvkvolvet" />
		<tag k="natural" v="valley" />
		<tag k="place" v="locality" />
		<tag k="ssr:stedsnr" v="317311" />
	</node>
	<node id="-99102" lat="64.4540972246" lon="10.9110972227">
		<tag k="name" v="Damhaugen" />
		<tag k="natural" v="hill" />
		<tag k="place" v="locality" />
		<tag k="ssr:stedsnr" v="473993" />
	</node>
	<node id="-99100" lat="64.4542111088" lon="10.8909694489">
		<tag k="name" v="Toklompan" />
		<tag k="natural" v="hill" />
		<tag k="place" v="locality" />
		<tag k="ssr:stedsnr" v="473988" />
	</node>
	<node id="-99097" lat="64.5814027771" lon="11.0080333291">
		<tag k="name" v="Sørhaugan" />
		<tag k="natural" v="hill" />
		<tag k="place" v="locality" />
		<tag k="ssr:stedsnr" v="473958" />
	</node>
	<node id="-99096" lat="64.3842138883" lon="10.861611104">
		<tag k="name" v="Nessa" />
		<tag k="natural" v="slope" />
		<tag k="place" v="locality" />
		<tag k="ssr:stedsnr" v="473952" />
	</node>
	<node id="-99093" lat="64.5916777774" lon="10.9764055582">
		<tag k="name" v="Angskaret" />
		<tag k="natural" v="valley" />
		<tag k="place" v="locality" />
		<tag k="ssr:stedsnr" v="473935" />
	</node>
	<node id="-99091" lat="64.3590027801" lon="10.8762027834">
		<tag k="fixme" v="consider natural=peak for the most distinct mountains in the district" />
		<tag k="name" v="Lensmarkfjellet" />
		<tag k="natural" v="hill" />
		<tag k="place" v="locality" />
		<tag k="ssr:stedsnr" v="473913" />
	</node>
	<node id="-99089" lat="64.3685805519" lon="10.8941499909">
		<tag k="name" v="Litlstørabben" />
		<tag k="natural" v="ridge" />
		<tag k="place" v="locality" />
		<tag k="ssr:stedsnr" v="473906" />
	</node>
	<node id="-99088" lat="64.571944441" lon="10.9552305486">
		<tag k="name" v="Vassklompen" />
		<tag k="natural" v="hill" />
		<tag k="place" v="locality" />
		<tag k="ssr:stedsnr" v="473902" />
	</node>
	<node id="-99081" lat="64.4648694412" lon="10.8719138937">
		<tag k="name" v="Forsynskaret" />
		<tag k="natural" v="valley" />
		<tag k="place" v="locality" />
		<tag k="ssr:stedsnr" v="473856" />
	</node>
	<node id="-99076" lat="64.4297277795" lon="10.6644499909">
		<tag k="name" v="Droppen" />
		<tag k="natural" v="hill" />
		<tag k="place" v="locality" />
		<tag k="ssr:stedsnr" v="473809" />
	</node>
	<node id="-98774" lat="64.3636194452" lon="10.7988277765">
		<tag k="name" v="Sisselenget" />
		<tag k="place" v="locality" />
		<tag k="ssr:stedsnr" v="230885" />
	</node>
	<node id="-99074" lat="64.4625083369" lon="10.9684277761">
		<tag k="name" v="Brattkleiva" />
		<tag k="natural" v="slope" />
		<tag k="place" v="locality" />
		<tag k="ssr:stedsnr" v="473799" />
	</node>
	<node id="-99072" lat="64.4288972233" lon="10.8088472278">
		<tag k="name" v="Vikadalen" />
		<tag k="natural" v="valley" />
		<tag k="place" v="locality" />
		<tag k="ssr:stedsnr" v="473753" />
	</node>
	<node id="-99071" lat="64.4394666641" lon="10.790547213">
		<tag k="name" v="Bjønnaskaret" />
		<tag k="natural" v="valley" />
		<tag k="place" v="locality" />
		<tag k="ssr:stedsnr" v="473752" />
	</node>
	<node id="-99070" lat="64.463877781" lon="11.0178194421">
		<tag k="name" v="Finnhaugen" />
		<tag k="natural" v="hill" />
		<tag k="place" v="locality" />
		<tag k="ssr:stedsnr" v="473490" />
	</node>
	<node id="-98773" lat="64.5758777768" lon="10.920541667">
		<tag k="name" v="Sandhallaren" />
		<tag k="place" v="locality" />
		<tag k="ssr:stedsnr" v="230877" />
	</node>
	<node id="-99068" lat="64.5136138891" lon="11.0142777821">
		<tag k="name" v="Finnhøttdalen" />
		<tag k="natural" v="valley" />
		<tag k="place" v="locality" />
		<tag k="ssr:stedsnr" v="473327" />
	</node>
	<node id="-99067" lat="64.5264555556" lon="11.0028750033">
		<tag k="name" v="Stor - Hanapynten" />
		<tag k="place" v="locality" />
		<tag k="ssr:stedsnr" v="473313" />
	</node>
	<node id="-99066" lat="64.5203333309" lon="10.9903388973">
		<tag k="name" v="Bjørkholet" />
		<tag k="natural" v="valley" />
		<tag k="place" v="locality" />
		<tag k="ssr:stedsnr" v="473312" />
	</node>
	<node id="-99064" lat="64.530411109" lon="11.003416672">
		<tag k="name" v="Sjuklompen" />
		<tag k="natural" v="hill" />
		<tag k="place" v="locality" />
		<tag k="ssr:stedsnr" v="473296" />
	</node>
	<node id="-99063" lat="64.5459166708" lon="11.0272361053">
		<tag k="name" v="Loviserinna" />
		<tag k="natural" v="valley" />
		<tag k="place" v="locality" />
		<tag k="ssr:stedsnr" v="473294" />
	</node>
	<node id="-99062" lat="64.5329416635" lon="11.011316665">
		<tag k="name" v="Loholet" />
		<tag k="natural" v="valley" />
		<tag k="place" v="locality" />
		<tag k="ssr:stedsnr" v="473293" />
	</node>
	<node id="-99057" lat="64.3049611135" lon="10.9113361048">
		<tag k="name" v="Fonna" />
		<tag k="natural" v="slope" />
		<tag k="place" v="locality" />
		<tag k="ssr:stedsnr" v="472530" />
	</node>
	<node id="-99056" lat="64.4295138888" lon="11.0042694368">
		<tag k="name" v="Bruhaugen" />
		<tag k="natural" v="hill" />
		<tag k="place" v="locality" />
		<tag k="ssr:stedsnr" v="472207" />
	</node>
	<node id="-99055" lat="64.4345472256" lon="10.5843277727">
		<tag k="name" v="Ørsnevhaugen" />
		<tag k="natural" v="hill" />
		<tag k="old_name" v="Ørsneshaugen" />
		<tag k="place" v="locality" />
		<tag k="ssr:stedsnr" v="470012" />
	</node>
	<node id="-99054" lat="64.4129388907" lon="10.7237277818">
		<tag k="name" v="Rakeltrappan" />
		<tag k="natural" v="cliff" />
		<tag k="ssr:stedsnr" v="470003" />
	</node>
	<node id="-99048" lat="64.5844611108" lon="11.0268722276">
		<tag k="name" v="Hanekammen" />
		<tag k="natural" v="hill" />
		<tag k="place" v="locality" />
		<tag k="ssr:stedsnr" v="292966" />
	</node>
	<node id="-99047" lat="64.5817305594" lon="11.0237750045">
		<tag k="name" v="Storskarliklompen" />
		<tag k="natural" v="hill" />
		<tag k="place" v="locality" />
		<tag k="ssr:stedsnr" v="292964" />
	</node>
	<node id="-99046" lat="64.3798138849" lon="10.8479333422">
		<tag k="name" v="Johannesenget" />
		<tag k="place" v="locality" />
		<tag k="ssr:stedsnr" v="292952" />
	</node>
	<node id="-99045" lat="64.5828722223" lon="10.9644250042">
		<tag k="name" v="Harravikmoen" />
		<tag k="place" v="locality" />
		<tag k="ssr:stedsnr" v="291882" />
	</node>
	<node id="-99042" lat="64.5047694479" lon="10.9969277716">
		<tag k="name" v="Svartholet" />
		<tag k="natural" v="valley" />
		<tag k="place" v="locality" />
		<tag k="ssr:stedsnr" v="291476" />
	</node>
	<node id="-98772" lat="64.5828555549" lon="10.9457638888">
		<tag k="name" v="Rabben" />
		<tag k="place" v="locality" />
		<tag k="ssr:stedsnr" v="230874" />
	</node>
	<node id="-99039" lat="64.4895861129" lon="10.8686583348">
		<tag k="name" v="Fosshaugen" />
		<tag k="natural" v="hill" />
		<tag k="place" v="locality" />
		<tag k="ssr:stedsnr" v="269204" />
	</node>
	<node id="-99038" lat="64.4690888887" lon="10.8009944492">
		<tag k="fixme" v="consider natural=peak for the most distinct mountains in the district" />
		<tag k="name" v="Steinvegfjellet" />
		<tag k="natural" v="hill" />
		<tag k="place" v="locality" />
		<tag k="ssr:stedsnr" v="269077" />
	</node>
	<node id="-99037" lat="64.5221638909" lon="10.8270749969">
		<tag k="name" v="Stekshallarhatten" />
		<tag k="natural" v="hill" />
		<tag k="place" v="locality" />
		<tag k="ssr:stedsnr" v="269072" />
	</node>
	<node id="-101082" lat="64.4479472224" lon="10.9280027834">
		<tag k="name" v="Sautjønnrabben" />
		<tag k="place" v="locality" />
		<tag k="ssr:stedsnr" v="960000" />
	</node>
	<node id="-101081" lat="64.4457833355" lon="10.9175833297">
		<tag k="name" v="Mossaheia" />
		<tag k="natural" v="hill" />
		<tag k="place" v="locality" />
		<tag k="ssr:stedsnr" v="959997" />
	</node>
	<node id="-101078" lat="64.4287833331" lon="10.971675005">
		<tag k="name" v="Kalvhaugen" />
		<tag k="natural" v="hill" />
		<tag k="place" v="locality" />
		<tag k="ssr:stedsnr" v="959961" />
	</node>
	<node id="-101077" lat="64.5751722265" lon="11.0246611118">
		<tag k="name" v="Rislia" />
		<tag k="natural" v="slope" />
		<tag k="place" v="locality" />
		<tag k="ssr:stedsnr" v="959943" />
	</node>
	<node id="-101076" lat="64.4432305534" lon="10.9678000092">
		<tag k="name" v="Stordalen" />
		<tag k="natural" v="valley" />
		<tag k="place" v="locality" />
		<tag k="ssr:stedsnr" v="959930" />
	</node>
	<node id="-101074" lat="64.5716916627" lon="10.9771138971">
		<tag k="name" v="Småtrolla" />
		<tag k="natural" v="hill" />
		<tag k="place" v="locality" />
		<tag k="ssr:stedsnr" v="959884" />
	</node>
	<node id="-99024" lat="64.5189305552" lon="10.7313638786">
		<tag k="fixme" v="consider natural=peak for the most distinct mountains in the district" />
		<tag k="name" v="Nova" />
		<tag k="natural" v="hill" />
		<tag k="place" v="locality" />
		<tag k="ssr:stedsnr" v="257710" />
	</node>
	<node id="-99022" lat="64.3175999966" lon="10.9304611091">
		<tag k="name" v="Salahalsen" />
		<tag k="natural" v="valley" />
		<tag k="place" v="locality" />
		<tag k="ssr:stedsnr" v="257352" />
	</node>
	<node id="-98765" lat="64.4055333377" lon="10.6005666591">
		<tag k="name" v="Indre Kallhammeren" />
		<tag k="place" v="locality" />
		<tag k="ssr:stedsnr" v="227050" />
	</node>
	<node id="-101067" lat="64.3875611134" lon="10.8933972295">
		<tag k="name" v="Granheia" />
		<tag k="natural" v="hill" />
		<tag k="place" v="locality" />
		<tag k="ssr:stedsnr" v="958973" />
	</node>
	<node id="-101066" lat="64.3999499994" lon="10.8926861122">
		<tag k="name" v="Langmarkhalsen" />
		<tag k="natural" v="valley" />
		<tag k="place" v="locality" />
		<tag k="ssr:stedsnr" v="958962" />
	</node>
	<node id="-101064" lat="64.5738416625" lon="10.9392222264">
		<tag k="name" v="Langskaret" />
		<tag k="natural" v="valley" />
		<tag k="place" v="locality" />
		<tag k="ssr:stedsnr" v="958916" />
	</node>
	<node id="-98764" lat="64.387747222" lon="10.6585694453">
		<tag k="name" v="Brentberga" />
		<tag k="natural" v="hill" />
		<tag k="place" v="locality" />
		<tag k="ssr:stedsnr" v="227008" />
	</node>
	<node id="-101062" lat="64.3526472223" lon="10.8416222238">
		<tag k="name" v="Staverengkollen" />
		<tag k="natural" v="hill" />
		<tag k="place" v="locality" />
		<tag k="ssr:stedsnr" v="958901" />
	</node>
	<node id="-101061" lat="64.3552666634" lon="10.8037499995">
		<tag k="fixme" v="consider natural=peak for the most distinct mountains in the district" />
		<tag k="name" v="Nonsenfjellet" />
		<tag k="natural" v="hill" />
		<tag k="place" v="locality" />
		<tag k="ssr:stedsnr" v="958897" />
	</node>
	<node id="-101060" lat="64.3709777743" lon="10.8463000043">
		<tag k="name" v="Drossavikhaugen" />
		<tag k="natural" v="hill" />
		<tag k="place" v="locality" />
		<tag k="ssr:stedsnr" v="958894" />
	</node>
	<node id="-98771" lat="64.5444583297" lon="10.9727972278">
		<tag k="name" v="Vordskaret" />
		<tag k="natural" v="valley" />
		<tag k="place" v="locality" />
		<tag k="ssr:stedsnr" v="230794" />
	</node>
	<node id="-101056" lat="64.3225472264" lon="10.9465833383">
		<tag k="name" v="Krulirabben" />
		<tag k="natural" v="ridge" />
		<tag k="place" v="locality" />
		<tag k="ssr:stedsnr" v="958866" />
	</node>
	<node id="-99007" lat="64.4848472255" lon="10.975388892">
		<tag k="name" v="Skjeldebakken" />
		<tag k="place" v="locality" />
		<tag k="ssr:stedsnr" v="451194" />
	</node>
	<node id="-101054" lat="64.5274500038" lon="10.9686194411">
		<tag k="name" v="Tølløvhaugen" />
		<tag k="natural" v="hill" />
		<tag k="place" v="locality" />
		<tag k="ssr:stedsnr" v="958834" />
	</node>
	<node id="-101053" lat="64.4175194403" lon="10.9856194499">
		<tag k="name" v="Harraholet" />
		<tag k="place" v="locality" />
		<tag k="ssr:stedsnr" v="958803" />
	</node>
	<node id="-99004" lat="64.5187277744" lon="10.8958027693">
		<tag k="name" v="Storøyhammaren" />
		<tag k="natural" v="hill" />
		<tag k="place" v="locality" />
		<tag k="ssr:stedsnr" v="451173" />
	</node>
	<node id="-101051" lat="64.4492777777" lon="11.0114944396">
		<tag k="name" v="Finnhøttliin" />
		<tag k="natural" v="slope" />
		<tag k="place" v="locality" />
		<tag k="ssr:stedsnr" v="958056" />
	</node>
	<node id="-101049" lat="64.4130027752" lon="10.7291222176">
		<tag k="name" v="Gurutrappen" />
		<tag k="natural" v="cliff" />
		<tag k="ssr:stedsnr" v="956036" />
	</node>
	<node id="-101047" lat="64.4287750011" lon="10.5122111135">
		<tag k="name" v="Namdalsroggo" />
		<tag k="natural" v="valley" />
		<tag k="place" v="locality" />
		<tag k="ssr:stedsnr" v="956005" />
	</node>
	<node id="-98992" lat="64.5767027753" lon="10.9945250063">
		<tag k="name" v="Tørbershaugen" />
		<tag k="natural" v="hill" />
		<tag k="place" v="locality" />
		<tag k="ssr:stedsnr" v="231967" />
	</node>
	<node id="-98991" lat="64.5768388927" lon="11.0074222209">
		<tag k="name" v="Nonsrabben" />
		<tag k="natural" v="ridge" />
		<tag k="place" v="locality" />
		<tag k="ssr:stedsnr" v="231956" />
	</node>
	<node id="-101038" lat="64.5097527785" lon="10.7922222325">
		<tag k="name" v="Korsen" />
		<tag k="place" v="locality" />
		<tag k="ssr:stedsnr" v="876079" />
	</node>
	<node id="-98989" lat="64.4705638851" lon="10.9732194443">
		<tag k="name" v="Litlfjellet" />
		<tag k="natural" v="hill" />
		<tag k="place" v="locality" />
		<tag k="ssr:stedsnr" v="231823" />
	</node>
	<node id="-98988" lat="64.5677638933" lon="10.9862777861">
		<tag k="name" v="Reindalen" />
		<tag k="natural" v="valley" />
		<tag k="place" v="locality" />
		<tag k="ssr:stedsnr" v="231407" />
	</node>
	<node id="-98987" lat="64.3844638914" lon="10.8521833321">
		<tag k="name" v="Traslia" />
		<tag k="natural" v="slope" />
		<tag k="place" v="locality" />
		<tag k="ssr:stedsnr" v="230965" />
	</node>
	<node id="-101032" lat="64.4519027821" lon="10.7522333336">
		<tag k="name" v="Falldalen" />
		<tag k="natural" v="valley" />
		<tag k="place" v="locality" />
		<tag k="ssr:stedsnr" v="875131" />
	</node>
	<node id="-101031" lat="64.4448805557" lon="10.7245000041">
		<tag k="name" v="Keipen" />
		<tag k="natural" v="ridge" />
		<tag k="place" v="locality" />
		<tag k="ssr:stedsnr" v="875130" />
	</node>
	<node id="-98982" lat="64.312474998" lon="10.8255083263">
		<tag k="name" v="Jo - Larsahaugen" />
		<tag k="natural" v="hill" />
		<tag k="place" v="locality" />
		<tag k="ssr:stedsnr" v="230569" />
	</node>
	<node id="-101024" lat="64.5549055587" lon="10.9005166725">
		<tag k="alt_name" v="Feøyhatten, yt;Ytter - Feøyhatten" />
		<tag k="name" v="Ytre Feøyhatten" />
		<tag k="natural" v="hill" />
		<tag k="place" v="locality" />
		<tag k="ssr:stedsnr" v="864650" />
	</node>
	<node id="-98972" lat="64.4206722192" lon="10.5291888835">
		<tag k="fixme" v="consider natural=peak for the most distinct mountains in the district" />
		<tag k="name" v="Oksbåsheia" />
		<tag k="natural" v="hill" />
		<tag k="place" v="locality" />
		<tag k="ssr:stedsnr" v="439680" />
	</node>
	<node id="-98971" lat="64.4130083342" lon="10.701875005">
		<tag k="alt_name" v="Austviknebba" />
		<tag k="fixme" v="consider natural=peak for the most distinct mountains in the district" />
		<tag k="name" v="Nebba" />
		<tag k="natural" v="hill" />
		<tag k="place" v="locality" />
		<tag k="ssr:stedsnr" v="439672" />
	</node>
	<node id="-98970" lat="64.4276805557" lon="10.6255055543">
		<tag k="fixme" v="consider natural=peak for the most distinct mountains in the district" />
		<tag k="name" v="Håstadfjellet" />
		<tag k="natural" v="hill" />
		<tag k="place" v="locality" />
		<tag k="ssr:stedsnr" v="439658" />
	</node>
	<node id="-101017" lat="64.4673277822" lon="10.9049527824">
		<tag k="alt_name" v="Smedfjellet" />
		<tag k="name" v="Smeden" />
		<tag k="natural" v="hill" />
		<tag k="place" v="locality" />
		<tag k="ssr:stedsnr" v="864534" />
	</node>
	<node id="-98968" lat="64.54120833" lon="10.9901000012">
		<tag k="fixme" v="consider natural=peak for the most distinct mountains in the district" />
		<tag k="name" v="Kammen" />
		<tag k="natural" v="hill" />
		<tag k="place" v="locality" />
		<tag k="ssr:stedsnr" v="439620" />
	</node>
	<node id="-101015" lat="64.3306888917" lon="10.8198444463">
		<tag k="alt_name" v="Bjønnavikfjellet" />
		<tag k="fixme" v="consider natural=peak for the most distinct mountains in the district" />
		<tag k="name" v="Bjørnavikfjellet" />
		<tag k="natural" v="hill" />
		<tag k="place" v="locality" />
		<tag k="ssr:stedsnr" v="864362" />
	</node>
	<node id="-101012" lat="64.4171499981" lon="10.9271999908">
		<tag k="name" v="Grønlia" />
		<tag k="natural" v="slope" />
		<tag k="place" v="locality" />
		<tag k="ssr:stedsnr" v="864323" />
	</node>
	<node id="-101010" lat="64.4012305581" lon="11.055627768">
		<tag k="fixme" v="consider natural=peak for the most distinct mountains in the district" />
		<tag k="name" v="Dugurdsfjellet" />
		<tag k="natural" v="hill" />
		<tag k="place" v="locality" />
		<tag k="ssr:stedsnr" v="864311" />
	</node>
	<node id="-98961" lat="64.5502250022" lon="10.7057944495">
		<tag k="name" v="Loshaugen" />
		<tag k="natural" v="hill" />
		<tag k="place" v="locality" />
		<tag k="ssr:stedsnr" v="209720" />
	</node>
	<node id="-101007" lat="64.4366277742" lon="10.7132500014">
		<tag k="fixme" v="consider natural=peak for the most distinct mountains in the district" />
		<tag k="name" v="Kilfjellet" />
		<tag k="natural" v="hill" />
		<tag k="place" v="locality" />
		<tag k="ssr:stedsnr" v="863681" />
	</node>
	<node id="-98957" lat="64.4556888897" lon="10.9406111177">
		<tag k="fixme" v="consider natural=peak for the most distinct mountains in the district" />
		<tag k="name" v="Botnhatten" />
		<tag k="natural" v="hill" />
		<tag k="place" v="locality" />
		<tag k="ssr:stedsnr" v="292938" />
	</node>
	<node id="-98956" lat="64.4433833342" lon="10.9332444386">
		<tag k="name" v="Sautjønnlia" />
		<tag k="natural" v="slope" />
		<tag k="place" v="locality" />
		<tag k="ssr:stedsnr" v="292935" />
	</node>
	<node id="-98955" lat="64.4409138883" lon="10.9642277845">
		<tag k="name" v="Ratmohatten" />
		<tag k="natural" v="hill" />
		<tag k="place" v="locality" />
		<tag k="ssr:stedsnr" v="292934" />
	</node>
	<node id="-101001" lat="64.5777277818" lon="10.8376777809">
		<tag k="fixme" v="consider natural=peak for the most distinct mountains in the district" />
		<tag k="name" v="Nordfjellet" />
		<tag k="natural" v="hill" />
		<tag k="place" v="locality" />
		<tag k="ssr:stedsnr" v="863585" />
	</node>
	<node id="-100998" lat="64.4980722226" lon="10.9851666606">
		<tag k="fixme" v="consider natural=peak for the most distinct mountains in the district" />
		<tag k="name" v="Vikafjellet" />
		<tag k="natural" v="hill" />
		<tag k="place" v="locality" />
		<tag k="ssr:stedsnr" v="863437" />
	</node>
	<node id="-100997" lat="64.4936416667" lon="10.9704583355">
		<tag k="fixme" v="consider natural=peak for the most distinct mountains in the district" />
		<tag k="name" v="Kjeurdfjellet" />
		<tag k="natural" v="hill" />
		<tag k="place" v="locality" />
		<tag k="ssr:stedsnr" v="863413" />
	</node>
	<node id="-100995" lat="64.3666111144" lon="10.7389750049">
		<tag k="fixme" v="consider natural=peak for the most distinct mountains in the district" />
		<tag k="name" v="Osheia" />
		<tag k="natural" v="hill" />
		<tag k="place" v="locality" />
		<tag k="ssr:stedsnr" v="863361" />
	</node>
	<node id="-98941" lat="64.4810555564" lon="10.9010333362">
		<tag k="name" v="Ilkleiva" />
		<tag k="natural" v="slope" />
		<tag k="place" v="locality" />
		<tag k="ssr:stedsnr" v="292830" />
	</node>
	<node id="-98931" lat="64.4412555519" lon="10.6041027673">
		<tag k="name" v="Loshaugen" />
		<tag k="natural" v="hill" />
		<tag k="place" v="locality" />
		<tag k="ssr:stedsnr" v="292777" />
	</node>
	<node id="-98930" lat="64.4555472197" lon="10.8778583256">
		<tag k="name" v="Fossan" />
		<tag k="natural" v="ridge" />
		<tag k="place" v="locality" />
		<tag k="ssr:stedsnr" v="195505" />
	</node>
	<node id="-100976" lat="64.4589027735" lon="10.9677111149">
		<tag k="name" v="Kjeura" />
		<tag k="natural" v="slope" />
		<tag k="place" v="locality" />
		<tag k="ssr:stedsnr" v="838946" />
	</node>
	<node id="-100974" lat="64.5834888908" lon="11.0188888871">
		<tag k="name" v="Vardehaugen" />
		<tag k="natural" v="hill" />
		<tag k="place" v="locality" />
		<tag k="ssr:stedsnr" v="838961" />
	</node>
	<node id="-100973" lat="64.3793944439" lon="10.7906666659">
		<tag k="fixme" v="consider natural=peak for the most distinct mountains in the district" />
		<tag k="name" v="Leirvikfjellet" />
		<tag k="natural" v="hill" />
		<tag k="place" v="locality" />
		<tag k="ssr:stedsnr" v="838955" />
	</node>
	<node id="-98924" lat="64.534333337" lon="10.9864555618">
		<tag k="name" v="Halla" />
		<tag k="natural" v="ridge" />
		<tag k="place" v="locality" />
		<tag k="ssr:stedsnr" v="292246" />
	</node>
	<node id="-100971" lat="64.4702666704" lon="10.914536115">
		<tag k="name" v="Bufjellet" />
		<tag k="natural" v="slope" />
		<tag k="place" v="locality" />
		<tag k="ssr:stedsnr" v="838864" />
	</node>
	<node id="-100970" lat="64.4698444468" lon="10.9410138909">
		<tag k="name" v="Rønningen" />
		<tag k="natural" v="slope" />
		<tag k="place" v="locality" />
		<tag k="ssr:stedsnr" v="838826" />
	</node>
	<node id="-98921" lat="64.5728861075" lon="10.9314111151">
		<tag k="name" v="Slåttaskaret" />
		<tag k="natural" v="valley" />
		<tag k="place" v="locality" />
		<tag k="ssr:stedsnr" v="291900" />
	</node>
	<node id="-100968" lat="64.4807694436" lon="10.9691972315">
		<tag k="name" v="Aunaklompen" />
		<tag k="natural" v="hill" />
		<tag k="place" v="locality" />
		<tag k="ssr:stedsnr" v="838815" />
	</node>
	<node id="-100967" lat="64.4360694424" lon="10.8410305526">
		<tag k="name" v="Fannaskardet" />
		<tag k="natural" v="valley" />
		<tag k="place" v="locality" />
		<tag k="ssr:stedsnr" v="838807" />
	</node>
	<node id="-98918" lat="64.5317666689" lon="10.7856555641">
		<tag k="name" v="Ramsvikfjellet" />
		<tag k="natural" v="hill" />
		<tag k="place" v="locality" />
		<tag k="ssr:stedsnr" v="291851" />
	</node>
	<node id="-100965" lat="64.4382194462" lon="10.7906472235">
		<tag k="name" v="Bjønnaskarklompen" />
		<tag k="natural" v="hill" />
		<tag k="place" v="locality" />
		<tag k="ssr:stedsnr" v="838773" />
	</node>
	<node id="-98916" lat="64.4024666679" lon="10.9915694426">
		<tag k="name" v="Litlnonshaugen" />
		<tag k="natural" v="hill" />
		<tag k="place" v="locality" />
		<tag k="ssr:stedsnr" v="291777" />
	</node>
	<node id="-98914" lat="64.3376611095" lon="10.9520250094">
		<tag k="fixme" v="consider natural=peak for the most distinct mountains in the district" />
		<tag k="name" v="Annelirotklompen" />
		<tag k="natural" v="hill" />
		<tag k="ssr:stedsnr" v="291612" />
	</node>
	<node id="-100961" lat="64.5802333326" lon="10.9483722218">
		<tag k="fixme" v="consider natural=peak for the most distinct mountains in the district" />
		<tag k="name" v="Leirvikkrona" />
		<tag k="natural" v="hill" />
		<tag k="place" v="locality" />
		<tag k="ssr:stedsnr" v="837892" />
	</node>
	<node id="-100959" lat="64.3511888927" lon="10.8361305477">
		<tag k="name" v="Holtan" />
		<tag k="natural" v="slope" />
		<tag k="place" v="locality" />
		<tag k="ssr:stedsnr" v="837890" />
	</node>
	<node id="-98910" lat="64.4058833296" lon="10.6816916591">
		<tag k="name" v="Demmelvassliin" />
		<tag k="natural" v="slope" />
		<tag k="place" v="locality" />
		<tag k="ssr:stedsnr" v="288040" />
	</node>
	<node id="-100950" lat="64.3978777818" lon="11.0308555529">
		<tag k="fixme" v="consider natural=peak for the most distinct mountains in the district" />
		<tag k="name" v="Dursfjellet" />
		<tag k="natural" v="hill" />
		<tag k="place" v="locality" />
		<tag k="ssr:stedsnr" v="837787" />
	</node>
	<node id="-100949" lat="64.4123833317" lon="10.9889500033">
		<tag k="fixme" v="consider natural=peak for the most distinct mountains in the district" />
		<tag k="name" v="Bjørkholpynten" />
		<tag k="natural" v="hill" />
		<tag k="place" v="locality" />
		<tag k="ssr:stedsnr" v="837782" />
	</node>
	<node id="-98900" lat="64.4094388932" lon="10.74096389">
		<tag k="name" v="Nordmoan" />
		<tag k="place" v="locality" />
		<tag k="ssr:stedsnr" v="167020" />
	</node>
	<node id="-98899" lat="64.4129388859" lon="10.7348888964">
		<tag k="name" v="Larstrappen" />
		<tag k="natural" v="cliff" />
		<tag k="ssr:stedsnr" v="167017" />
	</node>
	<node id="-98898" lat="64.4402888911" lon="10.5672305607">
		<tag k="name" v="Nakken" />
		<tag k="natural" v="hill" />
		<tag k="place" v="locality" />
		<tag k="ssr:stedsnr" v="167003" />
	</node>
	<node id="-100945" lat="64.4190472263" lon="10.6707388843">
		<tag k="name" v="Hylla" />
		<tag k="place" v="locality" />
		<tag k="ssr:stedsnr" v="835026" />
	</node>
	<node id="-100941" lat="64.4969444461" lon="10.9063805468">
		<tag k="name" v="Kleppan" />
		<tag k="natural" v="hill" />
		<tag k="place" v="locality" />
		<tag k="ssr:stedsnr" v="815193" />
	</node>
	<node id="-100940" lat="64.4965111098" lon="10.9286000019">
		<tag k="name" v="Nordlia" />
		<tag k="natural" v="slope" />
		<tag k="place" v="locality" />
		<tag k="ssr:stedsnr" v="815183" />
	</node>
	<node id="-100939" lat="64.4861388881" lon="10.8799333427">
		<tag k="name" v="Soløyskaret" />
		<tag k="natural" v="valley" />
		<tag k="place" v="locality" />
		<tag k="ssr:stedsnr" v="815179" />
	</node>
	<node id="-100937" lat="64.5109444407" lon="10.8777250037">
		<tag k="name" v="Nessahaugen" />
		<tag k="natural" v="hill" />
		<tag k="place" v="locality" />
		<tag k="ssr:stedsnr" v="815164" />
	</node>
	<node id="-98887" lat="64.4851277823" lon="10.8607722195">
		<tag k="name" v="Vasslia" />
		<tag k="natural" v="slope" />
		<tag k="place" v="locality" />
		<tag k="ssr:stedsnr" v="269174" />
	</node>
	<node id="-100934" lat="64.4970694471" lon="10.824544451">
		<tag k="name" v="Finnan" />
		<tag k="place" v="locality" />
		<tag k="ssr:stedsnr" v="815090" />
	</node>
	<node id="-100931" lat="64.4811111078" lon="10.7720833425">
		<tag k="name" v="Nordhaugen" />
		<tag k="natural" v="hill" />
		<tag k="place" v="locality" />
		<tag k="ssr:stedsnr" v="815078" />
	</node>
	<node id="-98882" lat="64.4709388889" lon="10.6671916707">
		<tag k="name" v="Storvikdalen" />
		<tag k="natural" v="valley" />
		<tag k="place" v="locality" />
		<tag k="ssr:stedsnr" v="269011" />
	</node>
	<node id="-100929" lat="64.5110055546" lon="10.9645583258">
		<tag k="name" v="Hundhammaren" />
		<tag k="natural" v="hill" />
		<tag k="place" v="locality" />
		<tag k="ssr:stedsnr" v="814140" />
	</node>
	<node id="-100927" lat="64.4589222196" lon="10.7647888908">
		<tag k="name" v="Nordhaugen" />
		<tag k="natural" v="hill" />
		<tag k="place" v="locality" />
		<tag k="ssr:stedsnr" v="814127" />
	</node>
	<node id="-100926" lat="64.4494777793" lon="10.7893694451">
		<tag k="name" v="Markakleiva" />
		<tag k="natural" v="valley" />
		<tag k="place" v="locality" />
		<tag k="ssr:stedsnr" v="814114" />
	</node>
	<node id="-98877" lat="64.5071666638" lon="10.9743083279">
		<tag k="name" v="Åskeråfjellet" />
		<tag k="natural" v="hill" />
		<tag k="place" v="locality" />
		<tag k="ssr:stedsnr" v="136715" />
	</node>
	<node id="-98871" lat="64.4517750013" lon="10.7135888894">
		<tag k="fixme" v="consider natural=peak for the most distinct mountains in the district" />
		<tag k="name" v="Vikdalsfjellet" />
		<tag k="natural" v="hill" />
		<tag k="place" v="locality" />
		<tag k="ssr:stedsnr" v="135626" />
	</node>
	<node id="-98868" lat="64.5474666682" lon="11.0407305617">
		<tag k="name" v="Seterfjella" />
		<tag k="natural" v="hill" />
		<tag k="place" v="locality" />
		<tag k="ssr:stedsnr" v="135612" />
	</node>
	<node id="-98867" lat="64.4355611091" lon="10.9934416669">
		<tag k="name" v="Steinkjerringa" />
		<tag k="natural" v="hill" />
		<tag k="place" v="locality" />
		<tag k="ssr:stedsnr" v="135439" />
	</node>
	<node id="-100906" lat="64.3442027769" lon="10.8343222254">
		<tag k="fixme" v="consider natural=peak for the most distinct mountains in the district" />
		<tag k="name" v="Liafjellet" />
		<tag k="natural" v="hill" />
		<tag k="place" v="locality" />
		<tag k="ssr:stedsnr" v="803848" />
	</node>
	<node id="-100903" lat="64.4348138901" lon="10.9645722305">
		<tag k="name" v="Geitaneshatten" />
		<tag k="natural" v="hill" />
		<tag k="place" v="locality" />
		<tag k="ssr:stedsnr" v="803468" />
	</node>
	<node id="-100901" lat="64.433669448" lon="10.8099250047">
		<tag k="name" v="Vedvikhatten" />
		<tag k="natural" v="hill" />
		<tag k="place" v="locality" />
		<tag k="ssr:stedsnr" v="803458" />
	</node>
	<node id="-100897" lat="64.3485416656" lon="10.838994449">
		<tag k="name" v="Holtrabben" />
		<tag k="natural" v="hill" />
		<tag k="place" v="locality" />
		<tag k="ssr:stedsnr" v="803349" />
	</node>
	<node id="-100896" lat="64.3527083317" lon="10.9377027871">
		<tag k="name" v="Tverrlia" />
		<tag k="natural" v="slope" />
		<tag k="place" v="locality" />
		<tag k="ssr:stedsnr" v="803341" />
	</node>
	<node id="-100895" lat="64.3456472196" lon="10.9205944529">
		<tag k="name" v="Litlengdalen" />
		<tag k="natural" v="valley" />
		<tag k="place" v="locality" />
		<tag k="ssr:stedsnr" v="803335" />
	</node>
	<node id="-100894" lat="64.3273361089" lon="10.9075527843">
		<tag k="fixme" v="consider natural=peak for the most distinct mountains in the district" />
		<tag k="name" v="Heia" />
		<tag k="natural" v="hill" />
		<tag k="place" v="locality" />
		<tag k="ssr:stedsnr" v="803327" />
	</node>
	<node id="-98845" lat="64.5206444414" lon="10.9846000022">
		<tag k="fixme" v="consider natural=peak for the most distinct mountains in the district" />
		<tag k="name" v="Middagsfjellet" />
		<tag k="natural" v="hill" />
		<tag k="place" v="locality" />
		<tag k="ssr:stedsnr" v="257749" />
	</node>
	<node id="-100890" lat="64.4761666637" lon="10.9815999988">
		<tag k="name" v="Skjeldehatten" />
		<tag k="natural" v="hill" />
		<tag k="place" v="locality" />
		<tag k="ssr:stedsnr" v="803398" />
	</node>
	<node id="-98839" lat="64.462541669" lon="10.9641027849">
		<tag k="fixme" v="multiple name tags, choose one and add the other to alt_name; consider natural=peak for the most distinct mountains in the district" />
		<tag k="name" v="Hagafjellet;Vardefjellet" />
		<tag k="natural" v="hill" />
		<tag k="place" v="locality" />
		<tag k="ssr:stedsnr" v="257540" />
	</node>
	<node id="-100884" lat="64.5549916688" lon="10.9684416612">
		<tag k="fixme" v="consider natural=peak for the most distinct mountains in the district" />
		<tag k="name" v="Frøsendalfjellet" />
		<tag k="natural" v="hill" />
		<tag k="place" v="locality" />
		<tag k="ssr:stedsnr" v="802665" />
	</node>
	<node id="-100883" lat="64.5654250034" lon="10.9459611031">
		<tag k="fixme" v="consider natural=peak for the most distinct mountains in the district" />
		<tag k="name" v="Kvalfjellet" />
		<tag k="natural" v="hill" />
		<tag k="place" v="locality" />
		<tag k="ssr:stedsnr" v="802663" />
	</node>
	<node id="-98834" lat="64.3156194453" lon="10.941733335">
		<tag k="name" v="Salastrupen" />
		<tag k="natural" v="valley" />
		<tag k="place" v="locality" />
		<tag k="ssr:stedsnr" v="257182" />
	</node>
	<node id="-98833" lat="64.3276250023" lon="10.8890916629">
		<tag k="fixme" v="consider natural=peak for the most distinct mountains in the district" />
		<tag k="name" v="Hatten" />
		<tag k="natural" v="hill" />
		<tag k="place" v="locality" />
		<tag k="ssr:stedsnr" v="257340" />
	</node>
	<node id="-100879" lat="64.4423111083" lon="10.8454083318">
		<tag k="fixme" v="consider natural=peak for the most distinct mountains in the district" />
		<tag k="name" v="Lofjellet" />
		<tag k="natural" v="hill" />
		<tag k="place" v="locality" />
		<tag k="ssr:stedsnr" v="802530" />
	</node>
	<node id="-100875" lat="64.3806611082" lon="11.0862083305">
		<tag k="fixme" v="consider natural=peak for the most distinct mountains in the district" />
		<tag k="name" v="Langfjellet" />
		<tag k="natural" v="hill" />
		<tag k="place" v="locality" />
		<tag k="ssr:stedsnr" v="802290" />
	</node>
	<node id="-98819" lat="64.5238944481" lon="10.8269361011">
		<tag k="name" v="Stekshallaren" />
		<tag k="natural" v="cliff" />
		<tag k="ssr:stedsnr" v="87172" />
	</node>
	<node id="-100851" lat="64.4789666678" lon="10.9205027722">
		<tag k="fixme" v="consider natural=peak for the most distinct mountains in the district" />
		<tag k="name" v="Sagfjellet" />
		<tag k="natural" v="hill" />
		<tag k="place" v="locality" />
		<tag k="ssr:stedsnr" v="777809" />
	</node>
	<node id="-100850" lat="64.463691667" lon="10.914719442">
		<tag k="name" v="Tolvklompen" />
		<tag k="natural" v="hill" />
		<tag k="place" v="locality" />
		<tag k="ssr:stedsnr" v="777808" />
	</node>
	<node id="-100848" lat="64.4353944434" lon="10.6219555614">
		<tag k="fixme" v="multiple name tags, choose one and add the other to alt_name; consider natural=peak for the most distinct mountains in the district" />
		<tag k="name" v="Hårstadfjellet;Håstadfjellet" />
		<tag k="natural" v="hill" />
		<tag k="place" v="locality" />
		<tag k="ssr:stedsnr" v="777790" />
	</node>
	<node id="-100846" lat="64.472783336" lon="10.9812444352">
		<tag k="fixme" v="consider natural=peak for the most distinct mountains in the district" />
		<tag k="name" v="Vanhagafjellet" />
		<tag k="natural" v="hill" />
		<tag k="place" v="locality" />
		<tag k="ssr:stedsnr" v="777777" />
	</node>
	<node id="-100843" lat="64.421880558" lon="10.8120000044">
		<tag k="name" v="Bakvendtholet" />
		<tag k="natural" v="valley" />
		<tag k="place" v="locality" />
		<tag k="ssr:stedsnr" v="777747" />
	</node>
	<node id="-98794" lat="64.4505638873" lon="10.8951194475">
		<tag k="name" v="Tverrålia" />
		<tag k="natural" v="slope" />
		<tag k="place" v="locality" />
		<tag k="ssr:stedsnr" v="231993" />
	</node>
	<node id="-100840" lat="64.5506500027" lon="11.0374416723">
		<tag k="name" v="Seterklompen" />
		<tag k="natural" v="hill" />
		<tag k="place" v="locality" />
		<tag k="ssr:stedsnr" v="777331" />
	</node>
	<node id="-98791" lat="64.4269555551" lon="10.8045666571">
		<tag k="name" v="Ramnflauget" />
		<tag k="place" v="locality" />
		<tag k="ssr:stedsnr" v="231789" />
	</node>
	<node id="-98787" lat="64.5234027767" lon="11.003572229">
		<tag k="name" v="Klompan" />
		<tag k="natural" v="hill" />
		<tag k="place" v="locality" />
		<tag k="ssr:stedsnr" v="231340" />
	</node>
	<node id="-100833" lat="64.4143277761" lon="10.9897999904">
		<tag k="name" v="Bjørkholet" />
		<tag k="natural" v="valley" />
		<tag k="place" v="locality" />
		<tag k="ssr:stedsnr" v="776762" />
	</node>
	<node id="-98784" lat="64.3983333373" lon="10.8795333233">
		<tag k="name" v="Langmarka" />
		<tag k="natural" v="valley" />
		<tag k="place" v="locality" />
		<tag k="ssr:stedsnr" v="230947" />
	</node>
	<node id="-98783" lat="64.3698277753" lon="10.7114861128">
		<tag k="name" v="Sagholet" />
		<tag k="natural" v="valley" />
		<tag k="place" v="locality" />
		<tag k="ssr:stedsnr" v="230929" />
	</node>
	<node id="-100828" lat="64.5918972192" lon="10.9469666568">
		<tag k="name" v="Fiskberga" />
		<tag k="natural" v="hill" />
		<tag k="place" v="locality" />
		<tag k="ssr:stedsnr" v="776928" />
	</node>
	<node id="-98779" lat="64.6115944479" lon="10.8782583405">
		<tag k="name" v="Knubben" />
		<tag k="natural" v="hill" />
		<tag k="place" v="locality" />
		<tag k="ssr:stedsnr" v="230839" />
	</node>
	<node id="-100826" lat="64.5772861067" lon="10.8672305585">
		<tag k="name" v="Parten" />
		<tag k="natural" v="hill" />
		<tag k="place" v="locality" />
		<tag k="ssr:stedsnr" v="776898" />
	</node>
	<node id="-100825" lat="64.3708527816" lon="10.875544435">
		<tag k="name" v="Litlstømoen" />
		<tag k="place" v="locality" />
		<tag k="ssr:stedsnr" v="776893" />
	</node>
	<node id="-100823" lat="64.3240416663" lon="10.8036583239">
		<tag k="name" v="Vestigården" />
		<tag k="natural" v="slope" />
		<tag k="place" v="locality" />
		<tag k="ssr:stedsnr" v="776574" />
	</node>
	<node id="-100822" lat="64.3322694489" lon="10.8394861103">
		<tag k="name" v="Skarlia" />
		<tag k="natural" v="slope" />
		<tag k="place" v="locality" />
		<tag k="ssr:stedsnr" v="776573" />
	</node>
	<node id="-100821" lat="64.3166416698" lon="10.8152944389">
		<tag k="name" v="Krokvasslia" />
		<tag k="natural" v="slope" />
		<tag k="place" v="locality" />
		<tag k="ssr:stedsnr" v="776569" />
	</node>
	<node id="-100820" lat="64.321705554" lon="10.8457444426">
		<tag k="name" v="Julbon" />
		<tag k="natural" v="hill" />
		<tag k="place" v="locality" />
		<tag k="ssr:stedsnr" v="776566" />
	</node>
	<node id="-100819" lat="64.3151611125" lon="10.9093583258">
		<tag k="fixme" v="consider natural=peak for the most distinct mountains in the district" />
		<tag k="name" v="Svartvasshatten" />
		<tag k="natural" v="hill" />
		<tag k="ssr:stedsnr" v="776563" />
	</node>
	<node id="-100818" lat="64.4380277774" lon="11.0079277842">
		<tag k="fixme" v="consider natural=peak for the most distinct mountains in the district" />
		<tag k="name" v="Aunfjellet" />
		<tag k="natural" v="hill" />
		<tag k="place" v="locality" />
		<tag k="ssr:stedsnr" v="776192" />
	</node>
	<node id="-98769" lat="64.3516999975" lon="10.8768222203">
		<tag k="name" v="Svartdalen" />
		<tag k="natural" v="valley" />
		<tag k="place" v="locality" />
		<tag k="ssr:stedsnr" v="230587" />
	</node>
	<node id="-100816" lat="64.4439638906" lon="11.0143250051">
		<tag k="fixme" v="consider natural=peak for the most distinct mountains in the district" />
		<tag k="name" v="Alteret" />
		<tag k="natural" v="hill" />
		<tag k="place" v="locality" />
		<tag k="ssr:stedsnr" v="776006" />
	</node>
	<node id="-98767" lat="64.4061388919" lon="10.7436361212">
		<tag k="name" v="Kleiva" />
		<tag k="natural" v="slope" />
		<tag k="place" v="locality" />
		<tag k="ssr:stedsnr" v="228025" />
	</node>
	<node id="-100814" lat="64.4247277736" lon="10.5459027784">
		<tag k="fixme" v="consider natural=peak for the most distinct mountains in the district" />
		<tag k="name" v="Heia" />
		<tag k="natural" v="hill" />
		<tag k="place" v="locality" />
		<tag k="ssr:stedsnr" v="774024" />
	</node>
	<node id="-100813" lat="64.4143277792" lon="10.7383333353">
		<tag k="name" v="Hengrauva" />
		<tag k="natural" v="cliff" />
		<tag k="ssr:stedsnr" v="774018" />
	</node>
	<node id="-100812" lat="64.40971667" lon="10.7548416675">
		<tag k="name" v="Kjetrappen" />
		<tag k="natural" v="cliff" />
		<tag k="ssr:stedsnr" v="774016" />
	</node>
	<node id="-98762" lat="64.4892416698" lon="10.8179638831">
		<tag k="name" v="Hanshallaren" />
		<tag k="place" v="locality" />
		<tag k="ssr:stedsnr" v="26102" />
	</node>
	<node id="-98759" lat="64.3763472248" lon="10.6448000019">
		<tag k="fixme" v="consider natural=peak for the most distinct mountains in the district" />
		<tag k="name" v="Sørmarkfjellet" />
		<tag k="natural" v="hill" />
		<tag k="place" v="locality" />
		<tag k="ssr:stedsnr" v="26014" />
	</node>
	<node id="-98757" lat="64.4742777757" lon="10.6731305636">
		<tag k="name" v="Storheia" />
		<tag k="natural" v="hill" />
		<tag k="place" v="locality" />
		<tag k="ssr:stedsnr" v="25004" />
	</node>
	<node id="-98756" lat="64.5059749962" lon="10.9461749948">
		<tag k="name" v="Storhaugen" />
		<tag k="natural" v="hill" />
		<tag k="place" v="locality" />
		<tag k="ssr:stedsnr" v="25120" />
	</node>
	<node id="-98755" lat="64.4532222254" lon="10.73108611">
		<tag k="name" v="Karihaugen" />
		<tag k="natural" v="hill" />
		<tag k="place" v="locality" />
		<tag k="ssr:stedsnr" v="25102" />
	</node>
	<node id="-100801" lat="64.4858277802" lon="10.9018138948">
		<tag k="name" v="Litlkleiva" />
		<tag k="natural" v="valley" />
		<tag k="place" v="locality" />
		<tag k="ssr:stedsnr" v="754220" />
	</node>
	<node id="-100798" lat="64.4867083378" lon="10.9682305583">
		<tag k="name" v="Tiurhaugen" />
		<tag k="natural" v="hill" />
		<tag k="place" v="locality" />
		<tag k="ssr:stedsnr" v="754204" />
	</node>
	<node id="-98748" lat="64.464483336" lon="10.7983222225">
		<tag k="fixme" v="consider natural=peak for the most distinct mountains in the district" />
		<tag k="name" v="Jutulen" />
		<tag k="natural" v="hill" />
		<tag k="place" v="locality" />
		<tag k="ssr:stedsnr" v="14416" />
	</node>
	<node id="-100790" lat="64.4900638866" lon="10.8240194474">
		<tag k="name" v="Elvrovo" />
		<tag k="natural" v="valley" />
		<tag k="place" v="locality" />
		<tag k="ssr:stedsnr" v="754109" />
	</node>
	<node id="-100788" lat="64.4724833356" lon="10.7675333309">
		<tag k="fixme" v="consider natural=peak for the most distinct mountains in the district" />
		<tag k="name" v="Vannavikfjellet" />
		<tag k="natural" v="hill" />
		<tag k="place" v="locality" />
		<tag k="ssr:stedsnr" v="754097" />
	</node>
	<node id="-100783" lat="64.4524333304" lon="10.7095444413">
		<tag k="name" v="Jomfruskaret" />
		<tag k="natural" v="valley" />
		<tag k="place" v="locality" />
		<tag k="ssr:stedsnr" v="754015" />
	</node>
	<node id="-100782" lat="64.4455527798" lon="10.7045194417">
		<tag k="name" v="Vassbakken" />
		<tag k="natural" v="slope" />
		<tag k="place" v="locality" />
		<tag k="ssr:stedsnr" v="754014" />
	</node>
	<node id="-100761" lat="64.3480499974" lon="10.9452472127">
		<tag k="name" v="Langmarka" />
		<tag k="natural" v="valley" />
		<tag k="place" v="locality" />
		<tag k="ssr:stedsnr" v="742326" />
	</node>
	<node id="-100760" lat="64.4346888924" lon="10.8288222289">
		<tag k="name" v="Stakkholklumpen" />
		<tag k="natural" v="hill" />
		<tag k="place" v="locality" />
		<tag k="ssr:stedsnr" v="742401" />
	</node>
	<node id="-100755" lat="64.321438888" lon="10.9492416593">
		<tag k="name" v="Krulia" />
		<tag k="natural" v="slope" />
		<tag k="place" v="locality" />
		<tag k="ssr:stedsnr" v="742300" />
	</node>
	<node id="-100754" lat="64.3148583331" lon="10.7522361163">
		<tag k="name" v="Rørvassdalen" />
		<tag k="natural" v="valley" />
		<tag k="place" v="locality" />
		<tag k="ssr:stedsnr" v="742295" />
	</node>
	<node id="-100753" lat="64.4039027813" lon="10.817208339">
		<tag k="fixme" v="consider natural=peak for the most distinct mountains in the district" />
		<tag k="loc_name" v="Fosvikfjellet" />
		<tag k="name" v="Fossvikfjellet" />
		<tag k="natural" v="hill" />
		<tag k="place" v="locality" />
		<tag k="ssr:stedsnr" v="742272" />
	</node>
	<node id="-100745" lat="64.4468333321" lon="10.8146388943">
		<tag k="fixme" v="consider natural=peak for the most distinct mountains in the district" />
		<tag k="name" v="Hesa" />
		<tag k="natural" v="hill" />
		<tag k="place" v="locality" />
		<tag k="ssr:stedsnr" v="741537" />
	</node>
	<node id="-100744" lat="64.4473916657" lon="10.8295583342">
		<tag k="alt_name" v="Rompfjellet" />
		<tag k="fixme" v="consider natural=peak for the most distinct mountains in the district" />
		<tag k="name" v="Rumpfjellet" />
		<tag k="natural" v="hill" />
		<tag k="place" v="locality" />
		<tag k="ssr:stedsnr" v="741534" />
	</node>
	<node id="-100742" lat="64.339819446" lon="10.8805222242">
		<tag k="name" v="Melkmonnhaugen" />
		<tag k="natural" v="hill" />
		<tag k="place" v="locality" />
		<tag k="ssr:stedsnr" v="655618" />
	</node>
	<node id="-100741" lat="64.3310472186" lon="10.8405138964">
		<tag k="name" v="Andersdalhaugen" />
		<tag k="natural" v="hill" />
		<tag k="place" v="locality" />
		<tag k="ssr:stedsnr" v="655614" />
	</node>
	<node id="-100739" lat="64.3323888852" lon="10.9131361178">
		<tag k="name" v="Svartlia" />
		<tag k="natural" v="slope" />
		<tag k="place" v="locality" />
		<tag k="ssr:stedsnr" v="655604" />
	</node>
	<node id="-100738" lat="64.5494444418" lon="11.0129944532">
		<tag k="name" v="Stordalen" />
		<tag k="natural" v="valley" />
		<tag k="place" v="locality" />
		<tag k="ssr:stedsnr" v="655363" />
	</node>
	<node id="-100815" lat="64.290944445" lon="10.8865388938">
		<tag k="name" v="Langvassdalen" />
		<tag k="natural" v="valley" />
		<tag k="place" v="locality" />
		<tag k="ssr:stedsnr" v="775537" />
	</node>
	<node id="-100735" lat="64.5326138923" lon="11.0050027802">
		<tag k="name" v="Sørfossmoen" />
		<tag k="place" v="locality" />
		<tag k="ssr:stedsnr" v="655272" />
	</node>
	<node id="-100733" lat="64.5549388894" lon="11.0604277726">
		<tag k="name" v="Sørskaret" />
		<tag k="natural" v="valley" />
		<tag k="place" v="locality" />
		<tag k="ssr:stedsnr" v="655265" />
	</node>
	<node id="-100732" lat="64.3119333376" lon="10.9536277846">
		<tag k="name" v="Bårdsbakklia" />
		<tag k="natural" v="slope" />
		<tag k="place" v="locality" />
		<tag k="ssr:stedsnr" v="654884" />
	</node>
	<node id="-100729" lat="64.4661333346" lon="10.9934222185">
		<tag k="fixme" v="consider natural=peak for the most distinct mountains in the district" />
		<tag k="name" v="Kvennvassklompen" />
		<tag k="natural" v="hill" />
		<tag k="place" v="locality" />
		<tag k="ssr:stedsnr" v="654475" />
	</node>
	<node id="-100728" lat="64.4518194481" lon="11.0450888849">
		<tag k="name" v="Svarttjønnlia" />
		<tag k="natural" v="slope" />
		<tag k="place" v="locality" />
		<tag k="ssr:stedsnr" v="654042" />
	</node>
	<node id="-100727" lat="64.4478055564" lon="11.0126416696">
		<tag k="fixme" v="consider natural=peak for the most distinct mountains in the district" />
		<tag k="name" v="Bjønnaklompen" />
		<tag k="natural" v="hill" />
		<tag k="place" v="locality" />
		<tag k="ssr:stedsnr" v="654002" />
	</node>
	<node id="-100724" lat="64.4158361133" lon="10.5849194454">
		<tag k="name" v="Ytre Kallhammeren" />
		<tag k="place" v="locality" />
		<tag k="ssr:stedsnr" v="651005" />
	</node>
	<node id="-100719" lat="64.4732722193" lon="10.8096972213">
		<tag k="name" v="Krona" />
		<tag k="natural" v="hill" />
		<tag k="place" v="locality" />
		<tag k="ssr:stedsnr" v="633089" />
	</node>
	<node id="-100717" lat="64.5068250024" lon="10.9798194537">
		<tag k="name" v="Dylehatten" />
		<tag k="natural" v="hill" />
		<tag k="place" v="locality" />
		<tag k="ssr:stedsnr" v="632152" />
	</node>
	<node id="-100714" lat="64.3815333309" lon="10.6292444543">
		<tag k="name" v="Bøleskaret" />
		<tag k="natural" v="valley" />
		<tag k="place" v="locality" />
		<tag k="ssr:stedsnr" v="632027" />
	</node>
	<node id="-100713" lat="64.4665944468" lon="10.6957361119">
		<tag k="name" v="Steinvikhaugen" />
		<tag k="natural" v="hill" />
		<tag k="place" v="locality" />
		<tag k="ssr:stedsnr" v="632007" />
	</node>
	<node id="-100712" lat="64.5499249961" lon="11.0602361051">
		<tag k="name" v="Sølvskulen" />
		<tag k="natural" v="hill" />
		<tag k="place" v="locality" />
		<tag k="ssr:stedsnr" v="631123" />
	</node>
	<node id="-98964" lat="64.4831666645" lon="10.8685972123">
		<tag k="fixme" v="consider natural=peak for the most distinct mountains in the district" />
		<tag k="name" v="Taklifjellet" />
		<tag k="natural" v="hill" />
		<tag k="place" v="locality" />
		<tag k="ssr:stedsnr" v="439388" />
	</node>
	<node id="-100704" lat="64.5469166633" lon="11.006013883">
		<tag k="alt_name" v="Botnklompen" />
		<tag k="fixme" v="consider natural=peak for the most distinct mountains in the district" />
		<tag k="name" v="Botnklumpen" />
		<tag k="natural" v="hill" />
		<tag k="place" v="locality" />
		<tag k="ssr:stedsnr" v="621668" />
	</node>
	<node id="-100693" lat="64.5917305546" lon="10.9799777784">
		<tag k="fixme" v="multiple name tags, choose one and add the other to alt_name; consider natural=peak for the most distinct mountains in the district" />
		<tag k="name" v="Ognskardfjellet;Vordfjellet" />
		<tag k="natural" v="hill" />
		<tag k="place" v="locality" />
		<tag k="ssr:stedsnr" v="620565" />
	</node>
	<node id="-100687" lat="64.4526361147" lon="10.9924361173">
		<tag k="fixme" v="consider natural=peak for the most distinct mountains in the district" />
		<tag k="name" v="Tuvfjellet" />
		<tag k="natural" v="hill" />
		<tag k="place" v="locality" />
		<tag k="ssr:stedsnr" v="620461" />
	</node>
	<node id="-100683" lat="64.4870750043" lon="10.8368722267">
		<tag k="fixme" v="consider natural=peak for the most distinct mountains in the district" />
		<tag k="name" v="Middagsfjellet" />
		<tag k="natural" v="hill" />
		<tag k="place" v="locality" />
		<tag k="ssr:stedsnr" v="620372" />
	</node>
	<node id="-100678" lat="64.4269527782" lon="11.009702769">
		<tag k="fixme" v="consider natural=peak for the most distinct mountains in the district" />
		<tag k="name" v="Middagsfjellet" />
		<tag k="natural" v="hill" />
		<tag k="place" v="locality" />
		<tag k="ssr:stedsnr" v="620278" />
	</node>
	<node id="-100677" lat="64.4125083343" lon="10.9985555579">
		<tag k="fixme" v="consider natural=peak for the most distinct mountains in the district" />
		<tag k="name" v="Sveafjellet" />
		<tag k="natural" v="hill" />
		<tag k="place" v="locality" />
		<tag k="ssr:stedsnr" v="620268" />
	</node>
	<node id="-100673" lat="64.386291668" lon="10.7454500069">
		<tag k="name" v="Skjeftlia" />
		<tag k="natural" v="slope" />
		<tag k="place" v="locality" />
		<tag k="ssr:stedsnr" v="620260" />
	</node>
	<node id="-100672" lat="64.3960472248" lon="10.9563416671">
		<tag k="alt_name" v="Seterlia" />
		<tag k="name" v="Beingårdseterlia" />
		<tag k="natural" v="slope" />
		<tag k="place" v="locality" />
		<tag k="ssr:stedsnr" v="620254" />
	</node>
	<node id="-100671" lat="64.3002722222" lon="10.9637555651">
		<tag k="name" v="Hestbakkan" />
		<tag k="natural" v="slope" />
		<tag k="place" v="locality" />
		<tag k="ssr:stedsnr" v="620147" />
	</node>
	<node id="-100670" lat="64.3657388895" lon="10.803100002">
		<tag k="name" v="Tømmerhaugen" />
		<tag k="natural" v="hill" />
		<tag k="place" v="locality" />
		<tag k="ssr:stedsnr" v="620343" />
	</node>
	<node id="-100669" lat="64.3600694449" lon="10.8876277831">
		<tag k="fixme" v="consider natural=peak for the most distinct mountains in the district" />
		<tag k="name" v="Lensmarkfjellet" />
		<tag k="natural" v="hill" />
		<tag k="place" v="locality" />
		<tag k="ssr:stedsnr" v="620333" />
	</node>
	<node id="-100667" lat="64.3443222243" lon="10.7421">
		<tag k="name" v="Geitabura" />
		<tag k="natural" v="valley" />
		<tag k="place" v="locality" />
		<tag k="ssr:stedsnr" v="620315" />
	</node>
	<node id="-100645" lat="64.4470277749" lon="10.6212972242">
		<tag k="name" v="Eldvikhaugen" />
		<tag k="natural" v="hill" />
		<tag k="place" v="locality" />
		<tag k="ssr:stedsnr" v="595771" />
	</node>
	<node id="-100643" lat="64.4316111118" lon="10.9234388894">
		<tag k="name" v="Plassaseterdalen" />
		<tag k="natural" v="valley" />
		<tag k="place" v="locality" />
		<tag k="ssr:stedsnr" v="595746" />
	</node>
	<node id="-100642" lat="64.4335944439" lon="10.745216657">
		<tag k="name" v="Kilnesklompen" />
		<tag k="natural" v="hill" />
		<tag k="place" v="locality" />
		<tag k="ssr:stedsnr" v="595745" />
	</node>
	<node id="-100641" lat="64.4299694487" lon="10.8155777745">
		<tag k="name" v="Vikahatten" />
		<tag k="natural" v="hill" />
		<tag k="place" v="locality" />
		<tag k="ssr:stedsnr" v="595730" />
	</node>
	<node id="-100640" lat="64.5543361071" lon="11.0287666598">
		<tag k="name" v="Gravmarkholet" />
		<tag k="natural" v="hill" />
		<tag k="place" v="locality" />
		<tag k="ssr:stedsnr" v="595310" />
	</node>
	<node id="-100639" lat="64.5483861083" lon="11.0031638938">
		<tag k="name" v="Botnvasslia" />
		<tag k="natural" v="slope" />
		<tag k="place" v="locality" />
		<tag k="ssr:stedsnr" v="595308" />
	</node>
	<node id="-100637" lat="64.5616500016" lon="11.0634527847">
		<tag k="name" v="Dagsholet" />
		<tag k="natural" v="valley" />
		<tag k="place" v="locality" />
		<tag k="ssr:stedsnr" v="595227" />
	</node>
	<node id="-100636" lat="64.3826527752" lon="10.9413777789">
		<tag k="name" v="Smålia" />
		<tag k="natural" v="slope" />
		<tag k="place" v="locality" />
		<tag k="ssr:stedsnr" v="594968" />
	</node>
	<node id="-99034" lat="64.4560027817" lon="10.779141676">
		<tag k="name" v="Vikkleiva" />
		<tag k="natural" v="valley" />
		<tag k="place" v="locality" />
		<tag k="ssr:stedsnr" v="268116" />
	</node>
	<node id="-100632" lat="64.5820555553" lon="10.9799472223">
		<tag k="name" v="Halihaugen" />
		<tag k="natural" v="hill" />
		<tag k="place" v="locality" />
		<tag k="ssr:stedsnr" v="594877" />
	</node>
	<node id="-100631" lat="64.3686805583" lon="10.8112666699">
		<tag k="name" v="Hakkestadhaugen" />
		<tag k="natural" v="hill" />
		<tag k="place" v="locality" />
		<tag k="ssr:stedsnr" v="594868" />
	</node>
	<node id="-100629" lat="64.6035083361" lon="10.8738472195">
		<tag k="name" v="Rapet" />
		<tag k="natural" v="hill" />
		<tag k="place" v="locality" />
		<tag k="ssr:stedsnr" v="594848" />
	</node>
	<node id="-100625" lat="64.5672805514" lon="10.9434027818">
		<tag k="fixme" v="consider natural=peak for the most distinct mountains in the district" />
		<tag k="name" v="Vardefjellet" />
		<tag k="natural" v="hill" />
		<tag k="place" v="locality" />
		<tag k="ssr:stedsnr" v="594810" />
	</node>
	<node id="-100620" lat="64.3436916633" lon="10.8738611162">
		<tag k="name" v="Henrikhaugen" />
		<tag k="natural" v="hill" />
		<tag k="place" v="locality" />
		<tag k="ssr:stedsnr" v="594601" />
	</node>
	<node id="-100619" lat="64.3163999993" lon="10.869452781">
		<tag k="name" v="Aunaskaret" />
		<tag k="natural" v="valley" />
		<tag k="place" v="locality" />
		<tag k="ssr:stedsnr" v="594576" />
	</node>
	<node id="-100616" lat="64.4216166643" lon="11.0055777865">
		<tag k="name" v="Fosshaugen" />
		<tag k="natural" v="hill" />
		<tag k="place" v="locality" />
		<tag k="ssr:stedsnr" v="594216" />
	</node>
	<node id="-100613" lat="64.4151166633" lon="10.7450750031">
		<tag k="name" v="Langtrappen" />
		<tag k="natural" v="cliff" />
		<tag k="ssr:stedsnr" v="591017" />
	</node>
	<node id="-100736" lat="64.5682083314" lon="11.0816833241">
		<tag k="name" v="Flauga" />
		<tag k="natural" v="slope" />
		<tag k="place" v="locality" />
		<tag k="ssr:stedsnr" v="655342" />
	</node>
	<node id="-100604" lat="64.493019446" lon="10.8506805549">
		<tag k="name" v="Nordlia" />
		<tag k="natural" v="slope" />
		<tag k="place" v="locality" />
		<tag k="ssr:stedsnr" v="572230" />
	</node>
	<node id="-100603" lat="64.4892777819" lon="10.8819499908">
		<tag k="name" v="Tømtet" />
		<tag k="place" v="locality" />
		<tag k="ssr:stedsnr" v="572226" />
	</node>
	<node id="-100601" lat="64.4937555568" lon="10.9534805649">
		<tag k="name" v="Erikheia" />
		<tag k="natural" v="hill" />
		<tag k="place" v="locality" />
		<tag k="ssr:stedsnr" v="572204" />
	</node>
	<node id="-100600" lat="64.5190277749" lon="10.867130549">
		<tag k="name" v="Lauvøyfjellet" />
		<tag k="natural" v="hill" />
		<tag k="place" v="locality" />
		<tag k="ssr:stedsnr" v="572176" />
	</node>
	<node id="-100599" lat="64.4146833316" lon="10.5464222127">
		<tag k="name" v="Heia" />
		<tag k="natural" v="hill" />
		<tag k="place" v="locality" />
		<tag k="ssr:stedsnr" v="572024" />
	</node>
	<node id="-100597" lat="64.4644805597" lon="10.7119277873">
		<tag k="name" v="Kvaløyseterskaret" />
		<tag k="natural" v="valley" />
		<tag k="place" v="locality" />
		<tag k="ssr:stedsnr" v="572008" />
	</node>
	<node id="-100596" lat="64.4790027789" lon="10.846602772">
		<tag k="name" v="Åshaugen" />
		<tag k="natural" v="hill" />
		<tag k="place" v="locality" />
		<tag k="ssr:stedsnr" v="572091" />
	</node>
	<node id="-100594" lat="64.5058333335" lon="10.9509611208">
		<tag k="name" v="Klubben" />
		<tag k="natural" v="hill" />
		<tag k="place" v="locality" />
		<tag k="ssr:stedsnr" v="571130" />
	</node>
	<node id="-100591" lat="64.4523500043" lon="10.7828527707">
		<tag k="name" v="Kalvskinnrovo" />
		<tag k="natural" v="valley" />
		<tag k="place" v="locality" />
		<tag k="ssr:stedsnr" v="571113" />
	</node>
	<node id="-100590" lat="64.4543361086" lon="10.7926000096">
		<tag k="name" v="Kvithaugen" />
		<tag k="natural" v="hill" />
		<tag k="place" v="locality" />
		<tag k="ssr:stedsnr" v="571100" />
	</node>
	<node id="-100585" lat="64.3972444425" lon="10.5975250048">
		<tag k="name" v="Mårvikheia" />
		<tag k="natural" v="hill" />
		<tag k="place" v="locality" />
		<tag k="ssr:stedsnr" v="560695" />
	</node>
	<node id="-100579" lat="64.4021138878" lon="10.9400888874">
		<tag k="alt_name" v="Honnavasspynten" />
		<tag k="fixme" v="consider natural=peak for the most distinct mountains in the district" />
		<tag k="name" v="Tjåerviejaevrienvaartoe" />
		<tag k="natural" v="hill" />
		<tag k="place" v="locality" />
		<tag k="ssr:stedsnr" v="560286" />
	</node>
	<node id="-100574" lat="64.4677861081" lon="10.6620222238">
		<tag k="name" v="Trollsteinen" />
		<tag k="natural" v="hill" />
		<tag k="place" v="locality" />
		<tag k="ssr:stedsnr" v="559642" />
	</node>
	<node id="-100568" lat="64.4294111084" lon="10.5336833418">
		<tag k="name" v="Oksbåsdalen" />
		<tag k="natural" v="valley" />
		<tag k="place" v="locality" />
		<tag k="ssr:stedsnr" v="559677" />
	</node>
	<node id="-100566" lat="64.4386499962" lon="10.9405527825">
		<tag k="fixme" v="consider natural=peak for the most distinct mountains in the district" />
		<tag k="name" v="Morkaklumpen" />
		<tag k="natural" v="hill" />
		<tag k="place" v="locality" />
		<tag k="ssr:stedsnr" v="559439" />
	</node>
	<node id="-100565" lat="64.4404111135" lon="10.9743416604">
		<tag k="name" v="Saghatten" />
		<tag k="natural" v="hill" />
		<tag k="place" v="locality" />
		<tag k="ssr:stedsnr" v="559436" />
	</node>
	<node id="-100557" lat="64.3552000014" lon="10.8898416667">
		<tag k="name" v="Småsalalia" />
		<tag k="natural" v="slope" />
		<tag k="place" v="locality" />
		<tag k="ssr:stedsnr" v="559342" />
	</node>
	<node id="-100538" lat="64.3528555584" lon="10.8950027873">
		<tag k="name" v="Småsalalia" />
		<tag k="natural" v="slope" />
		<tag k="place" v="locality" />
		<tag k="ssr:stedsnr" v="534903" />
	</node>
	<node id="-100534" lat="64.5748416687" lon="10.9438194529">
		<tag k="fixme" v="consider natural=peak for the most distinct mountains in the district" />
		<tag k="name" v="Dalavikfjellet" />
		<tag k="natural" v="hill" />
		<tag k="place" v="locality" />
		<tag k="ssr:stedsnr" v="534888" />
	</node>
	<node id="-100533" lat="64.3513555563" lon="10.8023944349">
		<tag k="fixme" v="consider natural=peak for the most distinct mountains in the district" />
		<tag k="name" v="Trollengåsen" />
		<tag k="natural" v="hill" />
		<tag k="place" v="locality" />
		<tag k="ssr:stedsnr" v="534887" />
	</node>
	<node id="-100525" lat="64.5197027769" lon="11.0153416719">
		<tag k="name" v="Sørfjelldalen" />
		<tag k="natural" v="valley" />
		<tag k="place" v="locality" />
		<tag k="ssr:stedsnr" v="534289" />
	</node>
	<node id="-100524" lat="64.5230499997" lon="10.9867416613">
		<tag k="name" v="Runhaugen" />
		<tag k="natural" v="hill" />
		<tag k="place" v="locality" />
		<tag k="ssr:stedsnr" v="534287" />
	</node>
	<node id="-100523" lat="64.5161111085" lon="11.0129722165">
		<tag k="name" v="Dummeltuva" />
		<tag k="natural" v="hill" />
		<tag k="place" v="locality" />
		<tag k="ssr:stedsnr" v="534285" />
	</node>
	<node id="-100522" lat="64.5188277804" lon="10.9994638833">
		<tag k="name" v="Johandalen" />
		<tag k="natural" v="valley" />
		<tag k="place" v="locality" />
		<tag k="ssr:stedsnr" v="534283" />
	</node>
	<node id="-100521" lat="64.535447224" lon="11.0057611076">
		<tag k="name" v="Rundhaugen" />
		<tag k="natural" v="hill" />
		<tag k="place" v="locality" />
		<tag k="ssr:stedsnr" v="534269" />
	</node>
	<node id="-100520" lat="64.5281638909" lon="11.00941389">
		<tag k="name" v="Spellmøydalen" />
		<tag k="natural" v="valley" />
		<tag k="place" v="locality" />
		<tag k="ssr:stedsnr" v="534259" />
	</node>
	<node id="-100519" lat="64.3374277821" lon="10.7158">
		<tag k="fixme" v="consider natural=peak for the most distinct mountains in the district" />
		<tag k="name" v="Skrotvassklompen" />
		<tag k="natural" v="hill" />
		<tag k="place" v="locality" />
		<tag k="ssr:stedsnr" v="533929" />
	</node>
	<node id="-100518" lat="64.328869442" lon="10.9409888926">
		<tag k="name" v="Benkdalen" />
		<tag k="natural" v="valley" />
		<tag k="place" v="locality" />
		<tag k="ssr:stedsnr" v="533890" />
	</node>
	<node id="-100513" lat="64.3233972205" lon="10.7876000052">
		<tag k="fixme" v="consider natural=peak for the most distinct mountains in the district" />
		<tag k="name" v="Finnburheia" />
		<tag k="natural" v="hill" />
		<tag k="place" v="locality" />
		<tag k="ssr:stedsnr" v="439301" />
	</node>
	<node id="-100511" lat="64.4199027805" lon="11.0765638809">
		<tag k="fixme" v="consider natural=peak for the most distinct mountains in the district" />
		<tag k="name" v="Havfrulifjellet" />
		<tag k="natural" v="hill" />
		<tag k="place" v="locality" />
		<tag k="ssr:stedsnr" v="439294" />
	</node>
	<node id="-100507" lat="64.3002916662" lon="10.9099388891">
		<tag k="fixme" v="consider natural=peak for the most distinct mountains in the district" />
		<tag k="name" v="Aunkrona" />
		<tag k="natural" v="hill" />
		<tag k="place" v="locality" />
		<tag k="ssr:stedsnr" v="439130" />
	</node>
	<node id="-100503" lat="64.43170556" lon="10.6815972288">
		<tag k="name" v="Almurddalen" />
		<tag k="natural" v="valley" />
		<tag k="place" v="locality" />
		<tag k="ssr:stedsnr" v="438683" />
	</node>
	<node id="-100495" lat="64.5662999998" lon="11.017733336">
		<tag k="fixme" v="consider natural=peak for the most distinct mountains in the district" />
		<tag k="name" v="Innvordfjellet" />
		<tag k="natural" v="hill" />
		<tag k="place" v="locality" />
		<tag k="ssr:stedsnr" v="438622" />
	</node>
	<node id="-100494" lat="64.565233332" lon="10.9589944348">
		<tag k="name" v="Klubbsteinen" />
		<tag k="natural" v="hill" />
		<tag k="place" v="locality" />
		<tag k="ssr:stedsnr" v="438617" />
	</node>
	<node id="-100485" lat="64.5707805597" lon="11.0183777812">
		<tag k="fixme" v="consider natural=peak for the most distinct mountains in the district" />
		<tag k="name" v="Middagsfjellet" />
		<tag k="natural" v="hill" />
		<tag k="place" v="locality" />
		<tag k="ssr:stedsnr" v="438558" />
	</node>
	<node id="-100484" lat="64.4529333314" lon="10.8437111055">
		<tag k="fixme" v="consider natural=peak for the most distinct mountains in the district" />
		<tag k="name" v="Holøyfjellet" />
		<tag k="natural" v="hill" />
		<tag k="place" v="locality" />
		<tag k="ssr:stedsnr" v="438465" />
	</node>
	<node id="-100481" lat="64.4431999972" lon="10.8631527815">
		<tag k="fixme" v="consider natural=peak for the most distinct mountains in the district" />
		<tag k="name" v="Middagsfjellklumpen" />
		<tag k="natural" v="hill" />
		<tag k="place" v="locality" />
		<tag k="ssr:stedsnr" v="438444" />
	</node>
	<node id="-100480" lat="64.4410916685" lon="11.0571305484">
		<tag k="alt_name" v="Løysmundlifjellet" />
		<tag k="fixme" v="consider natural=peak for the most distinct mountains in the district" />
		<tag k="name" v="Løysmundliklumpen" />
		<tag k="natural" v="hill" />
		<tag k="place" v="locality" />
		<tag k="ssr:stedsnr" v="438439" />
	</node>
	<node id="-100478" lat="64.490974997" lon="10.8395833353">
		<tag k="name" v="Dyrkleppen" />
		<tag k="natural" v="hill" />
		<tag k="place" v="locality" />
		<tag k="ssr:stedsnr" v="438408" />
	</node>
	<node id="-100477" lat="64.4956805518" lon="10.9388083362">
		<tag k="fixme" v="consider natural=peak for the most distinct mountains in the district" />
		<tag k="name" v="Brennfjellet" />
		<tag k="natural" v="hill" />
		<tag k="place" v="locality" />
		<tag k="ssr:stedsnr" v="438395" />
	</node>
	<node id="-100470" lat="64.548027775" lon="10.8903166609">
		<tag k="name" v="Havsteinflauget" />
		<tag k="natural" v="cliff" />
		<tag k="ssr:stedsnr" v="421823" />
	</node>
	<node id="-100460" lat="64.5493972203" lon="10.9740083296">
		<tag k="name" v="Vordskaret" />
		<tag k="natural" v="valley" />
		<tag k="place" v="locality" />
		<tag k="ssr:stedsnr" v="413833" />
	</node>
	<node id="-100459" lat="64.4390222248" lon="10.621919439">
		<tag k="fixme" v="consider natural=peak for the most distinct mountains in the district" />
		<tag k="name" v="Liafjellet" />
		<tag k="natural" v="hill" />
		<tag k="place" v="locality" />
		<tag k="ssr:stedsnr" v="413818" />
	</node>
	<node id="-100458" lat="64.4307555525" lon="10.6538416578">
		<tag k="name" v="Hatten" />
		<tag k="natural" v="hill" />
		<tag k="place" v="locality" />
		<tag k="ssr:stedsnr" v="413812" />
	</node>
	<node id="-100455" lat="64.5533444413" lon="11.022627786">
		<tag k="fixme" v="consider natural=peak for the most distinct mountains in the district" />
		<tag k="name" v="Gravmarkfjellet" />
		<tag k="natural" v="hill" />
		<tag k="place" v="locality" />
		<tag k="ssr:stedsnr" v="413396" />
	</node>
	<node id="-100454" lat="64.5694555577" lon="10.9946194403">
		<tag k="name" v="Svarthola" />
		<tag k="natural" v="valley" />
		<tag k="place" v="locality" />
		<tag k="ssr:stedsnr" v="413395" />
	</node>
	<node id="-100453" lat="64.5167638865" lon="10.9994861017">
		<tag k="name" v="Johandalshøgda" />
		<tag k="natural" v="ridge" />
		<tag k="place" v="locality" />
		<tag k="ssr:stedsnr" v="413295" />
	</node>
	<node id="-100451" lat="64.3828388858" lon="10.8643166568">
		<tag k="name" v="Litlgranheikleiva" />
		<tag k="natural" v="slope" />
		<tag k="place" v="locality" />
		<tag k="ssr:stedsnr" v="412946" />
	</node>
	<node id="-100450" lat="64.5855500037" lon="11.0118138812">
		<tag k="name" v="Flauga" />
		<tag k="natural" v="slope" />
		<tag k="place" v="locality" />
		<tag k="ssr:stedsnr" v="412944" />
	</node>
	<node id="-100448" lat="64.403002777" lon="10.9248250021">
		<tag k="name" v="Honnavasslia" />
		<tag k="natural" v="slope" />
		<tag k="place" v="locality" />
		<tag k="ssr:stedsnr" v="412939" />
	</node>
	<node id="-100445" lat="64.2853333346" lon="10.9052944488">
		<tag k="name" v="Finnkruhaugen" />
		<tag k="natural" v="hill" />
		<tag k="place" v="locality" />
		<tag k="ssr:stedsnr" v="412892" />
	</node>
	<node id="-100441" lat="64.5735250008" lon="10.9534083284">
		<tag k="name" v="Øverdalen" />
		<tag k="natural" v="valley" />
		<tag k="place" v="locality" />
		<tag k="ssr:stedsnr" v="412868" />
	</node>
	<node id="-100438" lat="64.5615222187" lon="10.8612861055">
		<tag k="name" v="Riøyfjellet" />
		<tag k="natural" v="hill" />
		<tag k="place" v="locality" />
		<tag k="ssr:stedsnr" v="412848" />
	</node>
	<node id="-100436" lat="64.6078500032" lon="10.880513898">
		<tag k="fixme" v="consider natural=peak for the most distinct mountains in the district" />
		<tag k="name" v="Dølvikfjellet" />
		<tag k="natural" v="hill" />
		<tag k="place" v="locality" />
		<tag k="ssr:stedsnr" v="412829" />
	</node>
	<node id="-100434" lat="64.5996416653" lon="10.8829944425">
		<tag k="fixme" v="consider natural=peak for the most distinct mountains in the district" />
		<tag k="name" v="Ørnfjellet" />
		<tag k="natural" v="hill" />
		<tag k="place" v="locality" />
		<tag k="ssr:stedsnr" v="412826" />
	</node>
	<node id="-100433" lat="64.3746777743" lon="11.0794805575">
		<tag k="name" v="Eidsbyggskaret" />
		<tag k="natural" v="valley" />
		<tag k="place" v="locality" />
		<tag k="ssr:stedsnr" v="412816" />
	</node>
	<node id="-100430" lat="64.3495749988" lon="10.867622232">
		<tag k="name" v="Sveinholet" />
		<tag k="natural" v="valley" />
		<tag k="place" v="locality" />
		<tag k="ssr:stedsnr" v="412564" />
	</node>
	<node id="-100428" lat="64.4803277821" lon="10.9854944361">
		<tag k="name" v="Brenna" />
		<tag k="natural" v="slope" />
		<tag k="place" v="locality" />
		<tag k="ssr:stedsnr" v="412438" />
	</node>
	<node id="-100425" lat="64.4475249999" lon="11.0354638926">
		<tag k="name" v="Grønlia" />
		<tag k="natural" v="slope" />
		<tag k="place" v="locality" />
		<tag k="ssr:stedsnr" v="412056" />
	</node>
	<node id="-100422" lat="64.3147361138" lon="10.9562555646">
		<tag k="name" v="Gomholrabben" />
		<tag k="natural" v="ridge" />
		<tag k="place" v="locality" />
		<tag k="ssr:stedsnr" v="411868" />
	</node>
	<node id="-100421" lat="64.3107833342" lon="10.8959583362">
		<tag k="name" v="Svartskoro" />
		<tag k="natural" v="valley" />
		<tag k="place" v="locality" />
		<tag k="ssr:stedsnr" v="411533" />
	</node>
	<node id="-100420" lat="64.40199444" lon="10.5862750036">
		<tag k="fixme" v="consider natural=peak for the most distinct mountains in the district" />
		<tag k="name" v="Heia" />
		<tag k="natural" v="hill" />
		<tag k="place" v="locality" />
		<tag k="ssr:stedsnr" v="409039" />
	</node>
	<node id="-100419" lat="64.4087000035" lon="10.6834083304">
		<tag k="fixme" v="consider natural=peak for the most distinct mountains in the district" />
		<tag k="name" v="Liafjellet" />
		<tag k="natural" v="hill" />
		<tag k="place" v="locality" />
		<tag k="ssr:stedsnr" v="409036" />
	</node>
	<node id="-100418" lat="64.4074833336" lon="10.6279111066">
		<tag k="fixme" v="consider natural=peak for the most distinct mountains in the district" />
		<tag k="name" v="Loengfjellet" />
		<tag k="natural" v="hill" />
		<tag k="place" v="locality" />
		<tag k="ssr:stedsnr" v="409035" />
	</node>
	<node id="-100412" lat="64.520433334" lon="10.8156999953">
		<tag k="name" v="Lauvvasskrona" />
		<tag k="natural" v="hill" />
		<tag k="place" v="locality" />
		<tag k="ssr:stedsnr" v="390200" />
	</node>
	<node id="-100405" lat="64.4643722257" lon="10.8113305563">
		<tag k="name" v="Dalaberga" />
		<tag k="natural" v="hill" />
		<tag k="place" v="locality" />
		<tag k="ssr:stedsnr" v="390076" />
	</node>
	<node id="-100404" lat="64.4671972217" lon="10.7999083313">
		<tag k="name" v="Jutulrova" />
		<tag k="natural" v="valley" />
		<tag k="place" v="locality" />
		<tag k="ssr:stedsnr" v="390075" />
	</node>
	<node id="-100400" lat="64.4531194443" lon="10.766027775">
		<tag k="name" v="Røythaugen" />
		<tag k="natural" v="hill" />
		<tag k="place" v="locality" />
		<tag k="ssr:stedsnr" v="389116" />
	</node>
	<node id="-100398" lat="64.4582083346" lon="10.7390444449">
		<tag k="name" v="Ormtunga" />
		<tag k="place" v="locality" />
		<tag k="ssr:stedsnr" v="389105" />
	</node>
	<node id="-100392" lat="64.5208277759" lon="10.8703666564">
		<tag k="name" v="Kleivmoen" />
		<tag k="place" v="locality" />
		<tag k="ssr:stedsnr" v="378729" />
	</node>
	<node id="-100386" lat="64.5575972218" lon="11.0660083304">
		<tag k="fixme" v="consider natural=peak for the most distinct mountains in the district" />
		<tag k="name" v="Vikafjellet" />
		<tag k="natural" v="hill" />
		<tag k="place" v="locality" />
		<tag k="ssr:stedsnr" v="378669" />
	</node>
	<node id="-100381" lat="64.5981805556" lon="10.9772083422">
		<tag k="name" v="Beljarskardet" />
		<tag k="natural" v="valley" />
		<tag k="place" v="locality" />
		<tag k="ssr:stedsnr" v="378578" />
	</node>
	<node id="-100373" lat="64.330205558" lon="10.9080750056">
		<tag k="name" v="Dansarhaugen" />
		<tag k="natural" v="hill" />
		<tag k="place" v="locality" />
		<tag k="ssr:stedsnr" v="378326" />
	</node>
	<node id="-100368" lat="64.3144638864" lon="10.8399055624">
		<tag k="name" v="Middagstjønndalen" />
		<tag k="natural" v="valley" />
		<tag k="place" v="locality" />
		<tag k="ssr:stedsnr" v="378160" />
	</node>
	<node id="-100367" lat="64.3012861069" lon="10.9471333344">
		<tag k="name" v="Sølvskålholet" />
		<tag k="natural" v="valley" />
		<tag k="place" v="locality" />
		<tag k="ssr:stedsnr" v="378146" />
	</node>
	<node id="-100356" lat="64.4942472256" lon="10.8637944502">
		<tag k="alt_name" v="Kvernhusskaret" />
		<tag k="name" v="Kvernhusskardet" />
		<tag k="natural" v="valley" />
		<tag k="place" v="locality" />
		<tag k="ssr:stedsnr" v="377410" />
	</node>
	<node id="-100355" lat="64.4931166683" lon="10.9048138879">
		<tag k="alt_name" v="Aletteklumpen" />
		<tag k="name" v="Alettaklumpen" />
		<tag k="natural" v="hill" />
		<tag k="place" v="locality" />
		<tag k="ssr:stedsnr" v="377397" />
	</node>
	<node id="-100353" lat="64.3766222193" lon="10.8115611207">
		<tag k="name" v="Skjellberget" />
		<tag k="natural" v="hill" />
		<tag k="place" v="locality" />
		<tag k="ssr:stedsnr" v="377250" />
	</node>
</osm>
