<?xml version="1.0" encoding="UTF-8"?>
<osm generator="osmapis" version="0.6">
	<node id="-921563" lat="64.5376027813" lon="11.0177638872">
		<tag k="man_made" v="cairn" />
		<tag k="name" v="Nordfjellvarden" />
		<tag k="place" v="locality" />
		<tag k="ssr:stedsnr" v="716293" />
	</node>
	<node id="-922138" lat="64.3462444424" lon="10.8860416646">
		<tag k="highway" v="path" />
		<tag k="name" v="Kleivan" />
		<tag k="ssr:stedsnr" v="898606" />
	</node>
	<node id="-922936" lat="64.5173166661" lon="10.8807805477">
		<tag k="fixme" v="verify maritime location" />
		<tag k="mooring" v="yes" />
		<tag k="name" v="Bjørøystøa" />
		<tag k="place" v="locality" />
		<tag k="ssr:stedsnr" v="26175" />
	</node>
	<node id="-923447" lat="64.5513333377" lon="11.0638222175">
		<tag k="highway" v="path" />
		<tag k="name" v="Bjønnstien" />
		<tag k="ssr:stedsnr" v="899257" />
	</node>
	<node id="-922325" lat="64.4353583313" lon="10.7879833322">
		<tag k="highway" v="path" />
		<tag k="name" v="Hundstien" />
		<tag k="ssr:stedsnr" v="352730" />
	</node>
	<node id="-921549" lat="64.3453416696" lon="10.7747527713">
		<tag k="highway" v="path" />
		<tag k="name" v="Vintervegen" />
		<tag k="ssr:stedsnr" v="109913" />
	</node>
	<node id="-923530" lat="64.3490750011" lon="10.9057805582">
		<tag k="highway" v="path" />
		<tag k="name" v="Storsalakleiva" />
		<tag k="ssr:stedsnr" v="716883" />
	</node>
	<node id="-921513" lat="64.4365305581" lon="11.0256222297">
		<tag k="highway" v="path" />
		<tag k="name" v="Hundstien" />
		<tag k="ssr:stedsnr" v="837036" />
	</node>
	<node id="-922018" lat="64.5624499971" lon="10.9638055571">
		<tag k="highway" v="path" />
		<tag k="name" v="Geitastien" />
		<tag k="ssr:stedsnr" v="413834" />
	</node>
	<node id="-922497" lat="64.5433333324" lon="10.6932472292">
		<tag k="landuse" v="harbour" />
		<tag k="name" v="Villa havn" />
		<tag k="seamark:type" v="harbour" />
		<tag k="ssr:stedsnr" v="28869" />
	</node>
</osm>
