<?xml version="1.0" encoding="UTF-8"?>
<osm generator="osmapis" version="0.6">
	<node id="-765056" lat="64.3540083307" lon="10.8232250043">
		<tag k="name" v="Krokenget" />
		<tag k="natural" v="wetland" />
		<tag k="ssr:stedsnr" v="837891" />
	</node>
	<node id="-763519" lat="64.3742305521" lon="10.8026277868">
		<tag k="name" v="Øykvikmyrin" />
		<tag k="natural" v="wetland" />
		<tag k="ssr:stedsnr" v="716876" />
	</node>
	<node id="-765053" lat="64.3633972215" lon="10.811352788">
		<tag k="name" v="Osmyra" />
		<tag k="natural" v="wetland" />
		<tag k="ssr:stedsnr" v="837882" />
	</node>
	<node id="-763391" lat="64.575583336" lon="11.0470083292">
		<tag k="name" v="Skamarka" />
		<tag k="place" v="locality" />
		<tag k="ssr:stedsnr" v="499509" />
	</node>
	<node id="-765048" lat="64.4058666697" lon="11.0320027803">
		<tag k="name" v="Langmyra" />
		<tag k="natural" v="wetland" />
		<tag k="ssr:stedsnr" v="837850" />
	</node>
	<node id="-764405" lat="64.342127774" lon="10.9473638982">
		<tag k="name" v="Annelirotholet" />
		<tag k="natural" v="wetland" />
		<tag k="ssr:stedsnr" v="351584" />
	</node>
	<node id="-765043" lat="64.3194027761" lon="10.8737694513">
		<tag k="name" v="Skarmyra" />
		<tag k="natural" v="wetland" />
		<tag k="ssr:stedsnr" v="837594" />
	</node>
	<node id="-763248" lat="64.3959055555" lon="10.9014777741">
		<tag k="name" v="Morkamyrin" />
		<tag k="natural" v="wetland" />
		<tag k="ssr:stedsnr" v="499209" />
	</node>
	<node id="-764781" lat="64.4521750012" lon="10.7360638846">
		<tag k="name" v="Kilmyra" />
		<tag k="natural" v="wetland" />
		<tag k="ssr:stedsnr" v="620451" />
	</node>
	<node id="-765164" lat="64.5305444408" lon="10.9934583403">
		<tag k="name" v="Torvhusmyra" />
		<tag k="natural" v="wetland" />
		<tag k="ssr:stedsnr" v="959237" />
	</node>
	<node id="-764907" lat="64.4628222244" lon="10.6954250086">
		<tag k="name" v="Såvika" />
		<tag k="place" v="locality" />
		<tag k="ssr:stedsnr" v="768643" />
	</node>
	<node id="-763498" lat="64.5622805519" lon="10.9505805475">
		<tag k="name" v="Frøsendalmyrin" />
		<tag k="natural" v="wetland" />
		<tag k="ssr:stedsnr" v="594808" />
	</node>
	<node id="-762857" lat="64.4619416629" lon="10.7156888949">
		<tag k="name" v="Stormyra" />
		<tag k="natural" v="wetland" />
		<tag k="ssr:stedsnr" v="26020" />
	</node>
	<node id="-764136" lat="64.4261250012" lon="10.8246111013">
		<tag k="name" v="Matholmyra" />
		<tag k="natural" v="wetland" />
		<tag k="ssr:stedsnr" v="110770" />
	</node>
	<node id="-763622" lat="64.5856666692" lon="10.9869111217">
		<tag k="name" v="Utvordbrekka" />
		<tag k="natural" v="wetland" />
		<tag k="ssr:stedsnr" v="716957" />
	</node>
	<node id="-763729" lat="64.3721361139" lon="11.0819555658">
		<tag k="name" v="Eidbyggskardmyrin" />
		<tag k="natural" v="wetland" />
		<tag k="ssr:stedsnr" v="924332" />
	</node>
	<node id="-763491" lat="64.4591777763" lon="10.8144722217">
		<tag k="name" v="Erlandsmyra" />
		<tag k="natural" v="wetland" />
		<tag k="ssr:stedsnr" v="571107" />
	</node>
	<node id="-763344" lat="64.3717972184" lon="10.8717999962">
		<tag k="historic" v="shieling" />
		<tag k="name" v="Nersetern" />
		<tag k="place" v="locality" />
		<tag k="ssr:stedsnr" v="655901" />
	</node>
	<node id="-763102" lat="64.4867027789" lon="10.8740083416">
		<tag k="name" v="Litlmyra" />
		<tag k="natural" v="wetland" />
		<tag k="ssr:stedsnr" v="451188" />
	</node>
	<node id="-764125" lat="64.3426305579" lon="10.9001944462">
		<tag k="name" v="Kjerringskarmyrin" />
		<tag k="natural" v="wetland" />
		<tag k="ssr:stedsnr" v="109886" />
	</node>
	<node id="-763355" lat="64.4196333324" lon="10.9255083284">
		<tag k="name" v="Langmyra" />
		<tag k="natural" v="wetland" />
		<tag k="ssr:stedsnr" v="655984" />
	</node>
	<node id="-763098" lat="64.4482083344" lon="10.8247166727">
		<tag k="name" v="Hesamyra" />
		<tag k="natural" v="wetland" />
		<tag k="ssr:stedsnr" v="450094" />
	</node>
	<node id="-763993" lat="64.3791972262" lon="10.8652305498">
		<tag k="name" v="Sirimyrin" />
		<tag k="natural" v="wetland" />
		<tag k="ssr:stedsnr" v="48965" />
	</node>
	<node id="-764504" lat="64.4840916654" lon="10.9612194345">
		<tag k="name" v="Litlenget" />
		<tag k="natural" v="wetland" />
		<tag k="ssr:stedsnr" v="390176" />
	</node>
	<node id="-763862" lat="64.4889111112" lon="10.8721694528">
		<tag k="name" v="Stormyra" />
		<tag k="natural" v="wetland" />
		<tag k="ssr:stedsnr" v="937227" />
	</node>
	<node id="-765141" lat="64.4078250009" lon="10.5948527759">
		<tag k="name" v="Hårstadsteinen" />
		<tag k="natural" v="stone" />
		<tag k="ssr:stedsnr" v="956001" />
	</node>
	<node id="-762997" lat="64.4447166674" lon="11.0361583289">
		<tag k="name" v="Grønnlimyra" />
		<tag k="natural" v="wetland" />
		<tag k="ssr:stedsnr" v="169003" />
	</node>
	<node id="-763086" lat="64.3764083343" lon="10.8017000073">
		<tag k="name" v="Øykvikmyrin" />
		<tag k="natural" v="wetland" />
		<tag k="ssr:stedsnr" v="231955" />
	</node>
	<node id="-763089" lat="64.578027778" lon="10.9901750011">
		<tag k="name" v="Stormyra" />
		<tag k="natural" v="wetland" />
		<tag k="ssr:stedsnr" v="231969" />
	</node>
	<node id="-763129" lat="64.4511499969" lon="10.7742694359">
		<tag k="name" v="Røythaugura" />
		<tag k="natural" v="scree" />
		<tag k="ssr:stedsnr" v="268113" />
	</node>
	<node id="-764623" lat="64.4293833302" lon="10.8328444442">
		<tag k="name" v="Stakkholet" />
		<tag k="natural" v="wetland" />
		<tag k="ssr:stedsnr" v="534760" />
	</node>
	<node id="-763214" lat="64.5211305569" lon="10.8189083345">
		<tag k="name" v="Tverrmyra" />
		<tag k="natural" v="wetland" />
		<tag k="ssr:stedsnr" v="330217" />
	</node>
	<node id="-763724" lat="64.3574749992" lon="10.7806555581">
		<tag k="name" v="Stormyra" />
		<tag k="natural" v="wetland" />
		<tag k="ssr:stedsnr" v="924312" />
	</node>
	<node id="-765130" lat="64.5033277767" lon="10.9698388833">
		<tag k="name" v="LIsbetura" />
		<tag k="natural" v="scree" />
		<tag k="ssr:stedsnr" v="875168" />
	</node>
	<node id="-764744" lat="64.432472219" lon="10.9589833416">
		<tag k="name" v="Morkanesa" />
		<tag k="natural" v="wetland" />
		<tag k="ssr:stedsnr" v="595979" />
	</node>
	<node id="-763463" lat="64.4959666685" lon="10.9680638882">
		<tag k="name" v="Kjeura" />
		<tag k="natural" v="scree" />
		<tag k="ssr:stedsnr" v="693195" />
	</node>
	<node id="-763076" lat="64.4490000036" lon="11.0022055589">
		<tag k="name" v="Sjåtimyra" />
		<tag k="natural" v="wetland" />
		<tag k="ssr:stedsnr" v="230005" />
	</node>
	<node id="-763075" lat="64.302833329" lon="10.8830166625">
		<tag k="name" v="Gunnarholet" />
		<tag k="natural" v="wetland" />
		<tag k="ssr:stedsnr" v="229562" />
	</node>
	<node id="-764523" lat="64.4218472255" lon="11.007925009">
		<tag k="name" v="Fossenget" />
		<tag k="natural" v="wetland" />
		<tag k="ssr:stedsnr" v="412191" />
	</node>
	<node id="-764223" lat="64.3736638859" lon="10.8541833333">
		<tag k="name" v="Pallmyrin" />
		<tag k="natural" v="wetland" />
		<tag k="ssr:stedsnr" v="169899" />
	</node>
	<node id="-763512" lat="64.5396055596" lon="11.0031777839">
		<tag k="name" v="Gjeldtkråmyra" />
		<tag k="natural" v="wetland" />
		<tag k="ssr:stedsnr" v="716294" />
	</node>
	<node id="-763509" lat="64.3482305515" lon="10.91380556">
		<tag k="name" v="Litlenget" />
		<tag k="natural" v="wetland" />
		<tag k="ssr:stedsnr" v="716633" />
	</node>
	<node id="-763188" lat="64.3754499977" lon="10.8624972187">
		<tag k="historic" v="shieling" />
		<tag k="name" v="Skavviktømtet" />
		<tag k="place" v="locality" />
		<tag k="ssr:stedsnr" v="473918" />
	</node>
	<node id="-763985" lat="64.5745444416" lon="10.9113083276">
		<tag k="name" v="Mursteinmyrin" />
		<tag k="natural" v="wetland" />
		<tag k="ssr:stedsnr" v="48911" />
	</node>
	<node id="-764729" lat="64.5731388876" lon="10.9601027685">
		<tag k="name" v="Kjerringskarmyrin" />
		<tag k="natural" v="wetland" />
		<tag k="ssr:stedsnr" v="594879" />
	</node>
	<node id="-764743" lat="64.5703500046" lon="11.0362083233">
		<tag k="name" v="Sørbrekka" />
		<tag k="natural" v="wetland" />
		<tag k="ssr:stedsnr" v="595975" />
	</node>
	<node id="-764471" lat="64.7827555585" lon="13.4356555617">
		<tag k="name" v="Langmyra" />
		<tag k="name:no" v="Langmyra" />
		<tag k="natural" v="wetland" />
		<tag k="ssr:stedsnr" v="378342" />
	</node>
	<node id="-763828" lat="64.5487638868" lon="11.0298944543">
		<tag k="historic" v="shieling" />
		<tag k="name" v="Seterhola" />
		<tag k="place" v="locality" />
		<tag k="ssr:stedsnr" v="899354" />
	</node>
	<node id="-765107" lat="64.4024222254" lon="11.0102333333">
		<tag k="name" v="Beingårdsstormyra" />
		<tag k="natural" v="wetland" />
		<tag k="ssr:stedsnr" v="864313" />
	</node>
	<node id="-764978" lat="64.5677138851" lon="11.049950009">
		<tag k="name" v="Langåsmyra" />
		<tag k="natural" v="wetland" />
		<tag k="ssr:stedsnr" v="802654" />
	</node>
	<node id="-763861" lat="64.5197388905" lon="10.8061805511">
		<tag k="name" v="Lauvvassmyra" />
		<tag k="natural" v="wetland" />
		<tag k="ssr:stedsnr" v="937222" />
	</node>
	<node id="-764205" lat="64.4224055559" lon="10.9925555568">
		<tag k="name" v="Lennabakkmyrin" />
		<tag k="natural" v="wetland" />
		<tag k="ssr:stedsnr" v="169200" />
	</node>
	<node id="-763345" lat="64.5924694447" lon="10.9898166715">
		<tag k="alt_name" v="Kårbringmyra" />
		<tag k="name" v="Hestmarkmyra" />
		<tag k="natural" v="wetland" />
		<tag k="ssr:stedsnr" v="655919" />
	</node>
	<node id="-764843" lat="64.5572583319" lon="11.0440055622">
		<tag k="name" v="Sandmomarka" />
		<tag k="place" v="locality" />
		<tag k="ssr:stedsnr" v="741675" />
	</node>
	<node id="-763651" lat="64.3533138849" lon="10.81386666">
		<tag k="name" v="Trollenget" />
		<tag k="natural" v="wetland" />
		<tag k="ssr:stedsnr" v="898897" />
	</node>
	<node id="-762921" lat="64.5745750033" lon="11.0311444362">
		<tag k="name" v="Laugamyra" />
		<tag k="natural" v="wetland" />
		<tag k="ssr:stedsnr" v="256533" />
	</node>
	<node id="-763816" lat="64.4410388923" lon="10.6862083383">
		<tag k="name" v="Bjørklimarka" />
		<tag k="place" v="locality" />
		<tag k="ssr:stedsnr" v="876014" />
	</node>
	<node id="-763559" lat="64.5642277822" lon="11.0029305536">
		<tag k="name" v="Middagsslettet" />
		<tag k="natural" v="wetland" />
		<tag k="ssr:stedsnr" v="655332" />
	</node>
	<node id="-763430" lat="64.452763889" lon="10.8283055596">
		<tag k="name" v="Innerhagan" />
		<tag k="place" v="locality" />
		<tag k="ssr:stedsnr" v="511108" />
	</node>
	<node id="-764836" lat="64.318213887" lon="10.8849861099">
		<tag k="name" v="Stormyra" />
		<tag k="natural" v="wetland" />
		<tag k="ssr:stedsnr" v="655609" />
	</node>
	<node id="-764194" lat="64.4928361109" lon="10.8348083379">
		<tag k="name" v="Ner fjellmyra" />
		<tag k="natural" v="wetland" />
		<tag k="ssr:stedsnr" v="147097" />
	</node>
	<node id="-765088" lat="64.4233749968" lon="10.8314861132">
		<tag k="name" v="Skjåmyra" />
		<tag k="natural" v="wetland" />
		<tag k="ssr:stedsnr" v="863296" />
	</node>
	<node id="-763551" lat="64.503872218" lon="10.8158722302">
		<tag k="name" v="Stømsmyrin" />
		<tag k="natural" v="wetland" />
		<tag k="ssr:stedsnr" v="633115" />
	</node>
	<node id="-763548" lat="64.5014805532" lon="10.9222055545">
		<tag k="name" v="Kastmyra" />
		<tag k="natural" v="wetland" />
		<tag k="ssr:stedsnr" v="632163" />
	</node>
	<node id="-763547" lat="64.5126499958" lon="10.9674444485">
		<tag k="name" v="Georgmyra" />
		<tag k="natural" v="wetland" />
		<tag k="ssr:stedsnr" v="632156" />
	</node>
	<node id="-764826" lat="64.3111194458" lon="10.8751694393">
		<tag k="name" v="Gammelsetermyrin" />
		<tag k="natural" v="wetland" />
		<tag k="ssr:stedsnr" v="654564" />
	</node>
	<node id="-763823" lat="64.5677333306" lon="10.9467027813">
		<tag k="name" v="Flaugamyra" />
		<tag k="natural" v="wetland" />
		<tag k="ssr:stedsnr" v="898814" />
	</node>
	<node id="-764567" lat="64.5937055596" lon="10.9615055501">
		<tag k="name" v="Kalvskogen" />
		<tag k="place" v="locality" />
		<tag k="ssr:stedsnr" v="423867" />
	</node>
	<node id="-763847" lat="64.5640666693" lon="11.0566249969">
		<tag k="name" v="Nonsmyra" />
		<tag k="natural" v="wetland" />
		<tag k="ssr:stedsnr" v="924582" />
	</node>
	<node id="-763154" lat="64.4425416684" lon="11.0067500001">
		<tag k="name" v="Hundstimyra" />
		<tag k="natural" v="wetland" />
		<tag k="ssr:stedsnr" v="473006" />
	</node>
	<node id="-763793" lat="64.4400777773" lon="10.9867277835">
		<tag k="name" v="Fjellsmyrin" />
		<tag k="natural" v="wetland" />
		<tag k="ssr:stedsnr" v="837209" />
	</node>
	<node id="-763024" lat="64.5690888862" lon="11.0420138894">
		<tag k="name" v="Brekkamyra" />
		<tag k="natural" v="wetland" />
		<tag k="ssr:stedsnr" v="292347" />
	</node>
	<node id="-765071" lat="64.4291888919" lon="10.9430138814">
		<tag k="name" v="Høgreinmyra" />
		<tag k="natural" v="wetland" />
		<tag k="ssr:stedsnr" v="838983" />
	</node>
	<node id="-765165" lat="64.5598611088" lon="11.0370472277">
		<tag k="name" v="Skigardmyra" />
		<tag k="natural" v="wetland" />
		<tag k="ssr:stedsnr" v="959331" />
	</node>
	<node id="-762892" lat="64.4527499987" lon="10.9267527826">
		<tag k="name" v="Sautjønnmyra" />
		<tag k="natural" v="wetland" />
		<tag k="ssr:stedsnr" v="231948" />
	</node>
	<node id="-764427" lat="64.4822833344" lon="10.9651972321">
		<tag k="name" v="Aunmyra" />
		<tag k="natural" v="wetland" />
		<tag k="ssr:stedsnr" v="352774" />
	</node>
	<node id="-764938" lat="64.5691361091" lon="11.0325222199">
		<tag k="name" v="Fjellenget" />
		<tag k="natural" v="wetland" />
		<tag k="ssr:stedsnr" v="777363" />
	</node>
	<node id="-764303" lat="64.4989861097" lon="10.9290749963">
		<tag k="name" v="Stormyra" />
		<tag k="natural" v="wetland" />
		<tag k="ssr:stedsnr" v="208142" />
	</node>
	<node id="-765192" lat="64.5989861642" lon="10.9939674821">
		<tag k="name" v="Kårbringen" />
		<tag k="place" v="locality" />
		<tag k="ssr:stedsnr" v="980127" />
	</node>
	<node id="-764935" lat="64.5565749992" lon="11.0123388859">
		<tag k="name" v="Petterslettet" />
		<tag k="natural" v="wetland" />
		<tag k="ssr:stedsnr" v="777329" />
	</node>
	<node id="-763654" lat="64.5367638862" lon="11.0287361069">
		<tag k="name" v="Grova" />
		<tag k="natural" v="wetland" />
		<tag k="ssr:stedsnr" v="899259" />
	</node>
	<node id="-764545" lat="64.399474998" lon="10.973791675">
		<tag k="name" v="Raudnesa" />
		<tag k="natural" v="wetland" />
		<tag k="ssr:stedsnr" v="412940" />
	</node>
	<node id="-763314" lat="64.5060694412" lon="10.8197916678">
		<tag k="name" v="Bekkamyra" />
		<tag k="natural" v="wetland" />
		<tag k="ssr:stedsnr" v="512188" />
	</node>
	<node id="-764163" lat="64.3472388872" lon="10.8521722238">
		<tag k="name" v="Stormyra" />
		<tag k="natural" v="wetland" />
		<tag k="ssr:stedsnr" v="135329" />
	</node>
	<node id="-763307" lat="64.5174861114" lon="10.9672388961">
		<tag k="name" v="Stormyra" />
		<tag k="natural" v="wetland" />
		<tag k="ssr:stedsnr" v="511161" />
	</node>
</osm>
