<?xml version="1.0" encoding="UTF-8"?>
<<<<<<< HEAD
<osm version="0.6" generator="osmapis">
	<node lat="64.53278611253776" lon="11.026463882498591" id="-36076">
		<tag k="historic" v="shieling" />
		<tag k="name" v="Moaseteren" />
=======
<osm generator="osmapis" version="0.6">
	<node id="-790016" lat="64.4829500043" lon="10.7182027696">
		<tag k="name" v="Mariaplassen" />
		<tag k="place" v="locality" />
		<tag k="ssr:stedsnr" v="572121" />
	</node>
	<node id="-791551" lat="64.4798361091" lon="10.7236722129">
		<tag k="name" v="Olaplassen" />
		<tag k="place" v="locality" />
		<tag k="ssr:stedsnr" v="815080" />
	</node>
	<node id="-791035" lat="64.398172222" lon="10.7523388786">
		<tag k="name" v="Lurastranda" />
		<tag k="old_name" v="Dvernurstranda" />
		<tag k="place" v="farm" />
		<tag k="ssr:stedsnr" v="409006" />
	</node>
	<node id="-790010" lat="64.5919794773" lon="10.9635272291">
		<tag k="fixme" v="consider place=hamlet" />
		<tag k="name" v="Utvorda" />
		<tag k="place" v="farm" />
		<tag k="ssr:stedsnr" v="560607" />
	</node>
	<node id="-789497" lat="64.4696027812" lon="10.7219027727">
		<tag k="name" v="Mellomneset" />
		<tag k="place" v="farm" />
		<tag k="ssr:stedsnr" v="269084" />
	</node>
	<node id="-791544" lat="64.4994083345" lon="10.7212805493">
		<tag k="name" v="Aspøystranda" />
		<tag k="place" v="farm" />
		<tag k="ssr:stedsnr" v="814111" />
	</node>
	<node id="-789495" lat="64.5088555565" lon="10.9197194458">
		<tag k="name" v="Fallet" />
		<tag k="place" v="farm" />
		<tag k="ssr:stedsnr" v="136714" />
	</node>
	<node id="-791028" lat="64.48431111" lon="10.7985638949">
		<tag k="alt_name" v="Glasø Østre" />
		<tag k="name" v="Østre Glasøya" />
		<tag k="place" v="farm" />
		<tag k="ssr:stedsnr" v="390111" />
	</node>
	<node id="-791537" lat="64.5152944481" lon="10.8119361072">
		<tag k="name" v="Strandvang" />
		<tag k="place" v="farm" />
		<tag k="ssr:stedsnr" v="804710" />
	</node>
	<node id="-791022" lat="64.5129223923" lon="10.8810790224">
		<tag k="fixme" v="consider place=hamlet" />
		<tag k="name" v="Lauvøya" />
		<tag k="place" v="farm" />
		<tag k="ssr:stedsnr" v="389145" />
	</node>
	<node id="-789485" lat="64.4600527758" lon="10.8775638827">
		<tag k="name" v="Stamnesseteren" />
		<tag k="place" v="locality" />
		<tag k="ssr:stedsnr" v="134523" />
	</node>
	<node id="-789996" lat="64.4981611112" lon="10.9087555634">
		<tag k="fixme" v="consider place=hamlet" />
		<tag k="name" v="Lauvsnes" />
		<tag k="place" v="village" />
		<tag k="ssr:stedsnr" v="559412" />
	</node>
	<node id="-789993" lat="64.4793005551" lon="10.8419449477">
		<tag k="fixme" v="consider place=hamlet" />
		<tag k="name" v="Haustlandet" />
		<tag k="place" v="farm" />
		<tag k="ssr:stedsnr" v="559363" />
	</node>
	<node id="-790504" lat="64.5874555551" lon="10.943274997">
		<tag k="name" v="Stranda" />
		<tag k="place" v="farm" />
		<tag k="ssr:stedsnr" v="48883" />
	</node>
	<node id="-790503" lat="64.5706666683" lon="10.9390305637">
		<tag k="name" v="Dalavika" />
		<tag k="place" v="farm" />
		<tag k="ssr:stedsnr" v="48880" />
	</node>
	<node id="-791014" lat="64.5146790528" lon="10.7478541966">
		<tag k="fixme" v="consider place=hamlet" />
		<tag k="name" v="Halmøya" />
		<tag k="place" v="farm" />
		<tag k="ssr:stedsnr" v="378738" />
	</node>
	<node id="-790501" lat="64.3658750044" lon="10.8087527705">
		<tag k="name" v="Dølin" />
		<tag k="place" v="locality" />
		<tag k="ssr:stedsnr" v="48871" />
	</node>
	<node id="-791523" lat="64.4682369649" lon="10.9148305235">
		<tag k="fixme" v="consider place=hamlet" />
		<tag k="name" v="Fløan" />
		<tag k="place" v="farm" />
		<tag k="ssr:stedsnr" v="803498" />
	</node>
	<node id="-791010" lat="64.4057611146" lon="10.6206999927">
		<tag k="name" v="Loenget" />
		<tag k="place" v="farm" />
		<tag k="ssr:stedsnr" v="378720" />
	</node>
	<node id="-791521" lat="64.4331611081" lon="11.000638882">
		<tag k="fixme" v="consider place=hamlet" />
		<tag k="name" v="Fjell" />
		<tag k="place" v="farm" />
		<tag k="ssr:stedsnr" v="803465" />
	</node>
	<node id="-790496" lat="64.5386083351" lon="10.7959861056">
		<tag k="name" v="Bolighamn" />
		<tag k="place" v="locality" />
		<tag k="ssr:stedsnr" v="48834" />
	</node>
	<node id="-789584" lat="64.4839061512" lon="10.7845110745">
		<tag k="fixme" v="consider place=hamlet" />
		<tag k="name" v="Glasøya" />
		<tag k="place" v="farm" />
		<tag k="ssr:stedsnr" v="439391" />
	</node>
	<node id="-791517" lat="64.5362194407" lon="10.9812888884">
		<tag k="name" v="Sittermoen" />
		<tag k="place" v="farm" />
		<tag k="ssr:stedsnr" v="803635" />
	</node>
	<node id="-791512" lat="64.3346916648" lon="10.8677388898">
		<tag k="name" v="Halvmoen" />
		<tag k="place" v="farm" />
		<tag k="ssr:stedsnr" v="803323" />
	</node>
	<node id="-789463" lat="64.5139999967" lon="10.9094194469">
		<tag k="name" v="Eian" />
		<tag k="place" v="farm" />
		<tag k="ssr:stedsnr" v="257737" />
	</node>
	<node id="-790011" lat="64.5249555577" lon="10.7938444548">
		<tag k="fixme" v="consider place=hamlet" />
		<tag k="name" v="Kvernøya" />
		<tag k="place" v="farm" />
		<tag k="ssr:stedsnr" v="560659" />
	</node>
	<node id="-790995" lat="64.3389777779" lon="10.8733888982">
		<tag k="name" v="Austerbakkan" />
		<tag k="place" v="farm" />
		<tag k="ssr:stedsnr" v="378346" />
	</node>
	<node id="-789970" lat="64.3253361069" lon="10.8677833349">
		<tag k="name" v="Rønningen" />
		<tag k="place" v="farm" />
		<tag k="ssr:stedsnr" v="534615" />
	</node>
	<node id="-789457" lat="64.4784583372" lon="10.9660361188">
		<tag k="name" v="Aunet" />
		<tag k="place" v="isolated_dwelling" />
		<tag k="ssr:stedsnr" v="257442" />
	</node>
	<node id="-791504" lat="64.4748166701" lon="10.7050055619">
		<tag k="name" v="Leirvika" />
		<tag k="place" v="farm" />
		<tag k="ssr:stedsnr" v="802686" />
	</node>
	<node id="-789455" lat="64.4631416643" lon="10.7547472267">
		<tag k="name" v="Holmen" />
		<tag k="place" v="farm" />
		<tag k="ssr:stedsnr" v="257435" />
	</node>
	<node id="-790990" lat="64.4097277736" lon="11.0696972175">
		<tag k="historic" v="shieling" />
		<tag k="name" v="Mefosseteren" />
		<tag k="place" v="locality" />
		<tag k="ssr:stedsnr" v="378286" />
	</node>
	<node id="-791499" lat="64.4485305539" lon="10.7394277824">
		<tag k="name" v="Nyrud" />
		<tag k="place" v="farm" />
		<tag k="ssr:stedsnr" v="802532" />
	</node>
	<node id="-789449" lat="64.411648006" lon="10.6755447901">
		<tag k="fixme" v="consider place=hamlet" />
		<tag k="name" v="Austvika" />
		<tag k="place" v="farm" />
		<tag k="ssr:stedsnr" v="256650" />
	</node>
	<node id="-790984" lat="64.4329833827" lon="10.5780347068">
		<tag k="fixme" v="consider place=hamlet" />
		<tag k="name" v="Ørsnevet" />
		<tag k="place" v="farm" />
		<tag k="ssr:stedsnr" v="377670" />
	</node>
	<node id="-790983" lat="64.4323583346" lon="10.6488805639">
		<tag k="fixme" v="consider place=hamlet" />
		<tag k="name" v="Hårnes" />
		<tag k="place" v="farm" />
		<tag k="ssr:stedsnr" v="377664" />
	</node>
	<node id="-790689" lat="64.4425138934" lon="10.9788361012">
		<tag k="name" v="Myrvang" />
		<tag k="place" v="farm" />
		<tag k="ssr:stedsnr" v="135450" />
	</node>
	<node id="-791491" lat="64.4331611081" lon="11.000638882">
		<tag k="name" v="Fjell" />
		<tag k="place" v="farm" />
		<tag k="ssr:stedsnr" v="788599" />
	</node>
	<node id="-790978" lat="64.5577444459" lon="10.892511119">
		<tag k="name" v="Klungvika" />
		<tag k="place" v="farm" />
		<tag k="ssr:stedsnr" v="377592" />
	</node>
	<node id="-790977" lat="64.4559972227" lon="10.7591611079">
		<tag k="fixme" v="consider place=hamlet" />
		<tag k="name" v="Vik" />
		<tag k="place" v="village" />
		<tag k="ssr:stedsnr" v="377478" />
	</node>
	<node id="-790773" lat="64.4678412119" lon="10.9147375869">
		<tag k="name" v="Fløan" />
		<tag k="place" v="farm" />
		<tag k="ssr:stedsnr" v="181622" />
	</node>
	<node id="-790460" lat="64.4614444431" lon="10.7826861101">
		<tag k="name" v="Trefjordneset" />
		<tag k="place" v="farm" />
		<tag k="ssr:stedsnr" v="25100" />
	</node>
	<node id="-789435" lat="64.515313891" lon="10.7518055475">
		<tag k="name" v="Svinvika" />
>>>>>>> e1d4bc35ff8a6074a6f2e91616a996b547c36f15
		<tag k="place" v="isolated_dwelling" />
		<tag k="ssr:stedsnr" v="231297" />
	</node>
<<<<<<< HEAD
	<node lat="64.46190277546617" lon="10.788291673045954" id="-36093">
		<tag k="name" v="Trefjord" />
=======
	<node id="-789642" lat="64.52670833" lon="10.9822888988">
		<tag k="name" v="Dalen" />
		<tag k="place" v="farm" />
		<tag k="ssr:stedsnr" v="257708" />
	</node>
	<node id="-790968" lat="64.4781075824" lon="10.8440286343">
		<tag k="name" v="Haustlandet" />
>>>>>>> e1d4bc35ff8a6074a6f2e91616a996b547c36f15
		<tag k="place" v="farm" />
		<tag k="ssr:stedsnr" v="13511" />
	</node>
<<<<<<< HEAD
	<node lat="64.48561389223023" lon="10.771113880954367" id="-36100">
		<tag k="name" v="Skeian" />
		<tag k="place" v="farm" />
		<tag k="ssr:stedsnr" v="14327" />
	</node>
	<node lat="64.4951403834143" lon="10.816369778890515" id="-36102">
=======
	<node id="-790967" lat="64.4350138891" lon="10.5357055619">
		<tag k="name" v="Oksbåsen" />
		<tag k="place" v="isolated_dwelling" />
		<tag k="ssr:stedsnr" v="363502" />
	</node>
	<node id="-789430" lat="64.4981611112" lon="10.9087555634">
>>>>>>> e1d4bc35ff8a6074a6f2e91616a996b547c36f15
		<tag k="fixme" v="consider place=hamlet" />
		<tag k="name" v="Strøm" />
		<tag k="place" v="farm" />
		<tag k="ssr:stedsnr" v="14336" />
	</node>
<<<<<<< HEAD
	<node lat="64.41410066589432" lon="10.639113540712367" id="-36105">
		<tag k="fixme" v="consider place=hamlet" />
		<tag k="name" v="Uran" />
=======
	<node id="-789429" lat="64.5299555524" lon="10.9814027676">
		<tag k="name" v="Sitter" />
>>>>>>> e1d4bc35ff8a6074a6f2e91616a996b547c36f15
		<tag k="place" v="farm" />
		<tag k="ssr:stedsnr" v="14635" />
	</node>
<<<<<<< HEAD
	<node lat="64.52491110867486" lon="10.962661108292794" id="-36108">
		<tag k="name" v="Bårdvika" />
=======
	<node id="-789428" lat="64.572825385" lon="10.8471315922">
		<tag k="name" v="Bjørøya" />
>>>>>>> e1d4bc35ff8a6074a6f2e91616a996b547c36f15
		<tag k="place" v="farm" />
		<tag k="ssr:stedsnr" v="15702" />
	</node>
<<<<<<< HEAD
	<node lat="64.56421388760911" lon="10.855661110959112" id="-36114">
		<tag k="name" v="Riøya" />
=======
	<node id="-790450" lat="64.5029916696" lon="10.9466833437">
		<tag k="name" v="Vollan" />
>>>>>>> e1d4bc35ff8a6074a6f2e91616a996b547c36f15
		<tag k="place" v="farm" />
		<tag k="ssr:stedsnr" v="25182" />
	</node>
<<<<<<< HEAD
	<node lat="64.46280555841993" lon="10.765563886136679" id="-36119">
		<tag k="name" v="Nordstranda" />
		<tag k="place" v="farm" />
		<tag k="ssr:stedsnr" v="26086" />
	</node>
	<node lat="64.58139444582397" lon="11.015011120148847" id="-36145">
=======
	<node id="-790771" lat="64.5843361081" lon="10.9908916667">
		<tag k="amenity" v="school" />
		<tag k="name" v="Utvorda oppvekstsenter" />
		<tag k="ssr:stedsnr" v="180217" />
	</node>
	<node id="-790447" lat="64.4141006659" lon="10.6391135407">
>>>>>>> e1d4bc35ff8a6074a6f2e91616a996b547c36f15
		<tag k="fixme" v="consider place=hamlet" />
		<tag k="name" v="Innvorda" />
		<tag k="place" v="farm" />
		<tag k="ssr:stedsnr" v="60571" />
	</node>
<<<<<<< HEAD
	<node lat="64.45880833491381" lon="10.790133330726306" id="-36153">
=======
	<node id="-790445" lat="64.4452819966" lon="10.60065518">
>>>>>>> e1d4bc35ff8a6074a6f2e91616a996b547c36f15
		<tag k="fixme" v="consider place=hamlet" />
		<tag k="name" v="Trefjord" />
		<tag k="place" v="farm" />
		<tag k="ssr:stedsnr" v="242459" />
	</node>
<<<<<<< HEAD
	<node lat="64.57282538502145" lon="10.847131592224766" id="-36154">
		<tag k="name" v="Bjørøya" />
		<tag k="place" v="farm" />
		<tag k="ssr:stedsnr" v="242587" />
	</node>
	<node lat="64.52995555242165" lon="10.9814027675796" id="-36155">
		<tag k="name" v="Sitter" />
=======
	<node id="-790258" lat="64.4392250005" lon="10.8159638819">
		<tag k="name" v="Vedvikbakkan" />
		<tag k="place" v="farm" />
		<tag k="ssr:stedsnr" v="924429" />
	</node>
	<node id="-791466" lat="64.4788611084" lon="10.932916676">
		<tag k="historic" v="shieling" />
		<tag k="name" v="Moaseteren" />
		<tag k="place" v="locality" />
		<tag k="ssr:stedsnr" v="777780" />
	</node>
	<node id="-789831" lat="64.5256444429" lon="10.9857027855">
		<tag k="name" v="Dalamoen" />
		<tag k="place" v="locality" />
		<tag k="ssr:stedsnr" v="413313" />
	</node>
	<node id="-789404" lat="64.5327861125" lon="11.0264638825">
		<tag k="historic" v="shieling" />
		<tag k="name" v="Moaseteren" />
		<tag k="place" v="locality" />
		<tag k="ssr:stedsnr" v="231297" />
	</node>
	<node id="-789925" lat="64.4765916699" lon="10.9072861187">
		<tag k="name" v="Rødalen" />
>>>>>>> e1d4bc35ff8a6074a6f2e91616a996b547c36f15
		<tag k="place" v="farm" />
		<tag k="ssr:stedsnr" v="242593" />
	</node>
<<<<<<< HEAD
	<node lat="64.49816111119662" lon="10.908755563429077" id="-36156">
		<tag k="fixme" v="consider place=hamlet" />
		<tag k="name" v="Lauvsnes" />
		<tag k="place" v="farm" />
		<tag k="ssr:stedsnr" v="242595" />
	</node>
	<node lat="64.49631388825156" lon="10.900291659812774" id="-36158">
		<tag k="name" v="Vangen" />
=======
	<node id="-790436" lat="64.4418749991" lon="10.745491672">
		<tag k="name" v="Kilan" />
		<tag k="place" v="isolated_dwelling" />
		<tag k="ssr:stedsnr" v="14385" />
	</node>
	<node id="-790342" lat="64.3870777792" lon="10.6303666735">
		<tag k="name" v="Bølemyra" />
>>>>>>> e1d4bc35ff8a6074a6f2e91616a996b547c36f15
		<tag k="place" v="farm" />
		<tag k="ssr:stedsnr" v="876028" />
	</node>
<<<<<<< HEAD
	<node lat="64.5793916640877" lon="11.002327773357296" id="-36164">
		<tag k="name" v="Elvebakken" />
		<tag k="place" v="farm" />
		<tag k="ssr:stedsnr" v="74572" />
	</node>
	<node lat="64.4350138890618" lon="10.53570556185238" id="-36167">
		<tag k="fixme" v="consider place=hamlet" />
		<tag k="name" v="Oksbåsen" />
=======
	<node id="-789924" lat="64.507033329" lon="10.8121777744">
		<tag k="name" v="Leitet" />
		<tag k="place" v="farm" />
		<tag k="ssr:stedsnr" v="499695" />
	</node>
	<node id="-789916" lat="64.5829916667" lon="11.0016750022">
		<tag k="name" v="Brumoen" />
>>>>>>> e1d4bc35ff8a6074a6f2e91616a996b547c36f15
		<tag k="place" v="farm" />
		<tag k="ssr:stedsnr" v="74672" />
	</node>
	<node lat="64.36633889326625" lon="10.82633610842032" id="-36186">
		<tag k="name" v="Storforskottet" />
		<tag k="place" v="farm" />
		<tag k="ssr:stedsnr" v="109920" />
	</node>
<<<<<<< HEAD
	<node lat="64.35041944777117" lon="10.793430558395157" id="-36189">
=======
	<node id="-791451" lat="64.3768583349" lon="10.8942638794">
>>>>>>> e1d4bc35ff8a6074a6f2e91616a996b547c36f15
		<tag k="historic" v="shieling" />
		<tag k="name" v="Taraldlinaeteren" />
		<tag k="place" v="isolated_dwelling" />
		<tag k="ssr:stedsnr" v="109869" />
	</node>
<<<<<<< HEAD
	<node lat="64.49422924486292" lon="10.819059587947066" id="-36206">
=======
	<node id="-790426" lat="64.4951403834" lon="10.8163697789">
		<tag k="fixme" v="consider place=hamlet" />
>>>>>>> e1d4bc35ff8a6074a6f2e91616a996b547c36f15
		<tag k="name" v="Strøm" />
		<tag k="place" v="farm" />
		<tag k="ssr:stedsnr" v="121621" />
	</node>
<<<<<<< HEAD
	<node lat="64.46005277581524" lon="10.877563882658439" id="-36207">
		<tag k="name" v="Stamnesseteren" />
		<tag k="place" v="locality" />
		<tag k="ssr:stedsnr" v="134523" />
	</node>
	<node lat="64.57969444167608" lon="11.00508610766551" id="-36208">
		<tag k="name" v="Myra" />
		<tag k="place" v="farm" />
		<tag k="ssr:stedsnr" v="134611" />
	</node>
	<node lat="64.52789999740214" lon="10.785316674538478" id="-36212">
		<tag k="name" v="Bekkavika" />
=======
	<node id="-789908" lat="64.5932222223" lon="10.9573111029">
		<tag k="fixme" v="consider place=hamlet" />
		<tag k="name" v="Utvorda" />
		<tag k="place" v="village" />
		<tag k="ssr:stedsnr" v="499462" />
	</node>
	<node id="-791443" lat="64.3390111098" lon="10.873275001">
		<tag k="alt_name" v="Bakken øvre" />
		<tag k="name" v="Øvre Bakken" />
		<tag k="place" v="farm" />
		<tag k="ssr:stedsnr" v="776581" />
	</node>
	<node id="-789906" lat="64.3377388854" lon="10.8649250101">
		<tag k="fixme" v="consider place=hamlet" />
		<tag k="name" v="Oppland" />
		<tag k="place" v="farm" />
		<tag k="ssr:stedsnr" v="499258" />
	</node>
	<node id="-790680" lat="64.5796944417" lon="11.0050861077">
		<tag k="name" v="Myra" />
		<tag k="place" v="farm" />
		<tag k="ssr:stedsnr" v="134611" />
	</node>
	<node id="-789900" lat="64.5257888933" lon="10.7938555626">
		<tag k="name" v="Kvernøya" />
>>>>>>> e1d4bc35ff8a6074a6f2e91616a996b547c36f15
		<tag k="place" v="farm" />
		<tag k="ssr:stedsnr" v="135670" />
	</node>
<<<<<<< HEAD
	<node lat="64.50885555647724" lon="10.919719445810934" id="-36214">
		<tag k="name" v="Fallet" />
=======
	<node id="-789899" lat="64.5993471786" lon="10.8923250974">
		<tag k="name" v="Skingen" />
>>>>>>> e1d4bc35ff8a6074a6f2e91616a996b547c36f15
		<tag k="place" v="farm" />
		<tag k="ssr:stedsnr" v="136714" />
	</node>
<<<<<<< HEAD
	<node lat="64.38073169387863" lon="10.749723162286518" id="-36224">
=======
	<node id="-789898" lat="64.3653416668" lon="10.824372221">
>>>>>>> e1d4bc35ff8a6074a6f2e91616a996b547c36f15
		<tag k="fixme" v="consider place=hamlet" />
		<tag k="name" v="Hestdalen" />
		<tag k="place" v="farm" />
		<tag k="ssr:stedsnr" v="256254" />
	</node>
<<<<<<< HEAD
	<node lat="64.47213333603946" lon="10.834119434953923" id="-36233">
		<tag k="name" v="Risskogen" />
=======
	<node id="-789897" lat="64.4316575019" lon="10.5762351962">
		<tag k="name" v="Ørsnevet" />
>>>>>>> e1d4bc35ff8a6074a6f2e91616a996b547c36f15
		<tag k="place" v="farm" />
		<tag k="ssr:stedsnr" v="256352" />
	</node>
<<<<<<< HEAD
	<node lat="64.43143136260207" lon="10.614187783881713" id="-36235">
=======
	<node id="-789896" lat="64.3377388854" lon="10.8649250101">
>>>>>>> e1d4bc35ff8a6074a6f2e91616a996b547c36f15
		<tag k="fixme" v="consider place=hamlet" />
		<tag k="name" v="Håstad" />
		<tag k="place" v="farm" />
		<tag k="ssr:stedsnr" v="256640" />
	</node>
<<<<<<< HEAD
	<node lat="64.41164800596204" lon="10.675544790133054" id="-36237">
		<tag k="fixme" v="consider place=hamlet" />
		<tag k="name" v="Austvika" />
=======
	<node id="-789895" lat="64.4327194488" lon="10.6500888835">
		<tag k="name" v="Nedre Hårnes" />
>>>>>>> e1d4bc35ff8a6074a6f2e91616a996b547c36f15
		<tag k="place" v="farm" />
		<tag k="ssr:stedsnr" v="256650" />
	</node>
<<<<<<< HEAD
	<node lat="64.46314166429642" lon="10.754747226674274" id="-36245">
		<tag k="name" v="Holmen" />
=======
	<node id="-791429" lat="64.5031083323" lon="10.7412999905">
		<tag k="name" v="Aspøy" />
		<tag k="old_name" v="Aspø" />
>>>>>>> e1d4bc35ff8a6074a6f2e91616a996b547c36f15
		<tag k="place" v="farm" />
		<tag k="ssr:stedsnr" v="257435" />
	</node>
<<<<<<< HEAD
	<node lat="64.4784583372352" lon="10.966036118814358" id="-36247">
		<tag k="name" v="Aunet" />
		<tag k="place" v="isolated_dwelling" />
		<tag k="ssr:stedsnr" v="257442" />
	</node>
	<node lat="64.46493610870226" lon="10.901716667243873" id="-36249">
		<tag k="alt_name" v="Aunet" />
		<tag k="name" v="Fløanaunet" />
=======
	<node id="-789892" lat="64.4978722241" lon="10.9060083315">
		<tag k="amenity" v="school" />
		<tag k="name" v="Lauvsnes skole" />
		<tag k="ssr:stedsnr" v="665243" />
	</node>
	<node id="-790403" lat="64.4473199842" lon="10.5703694845">
		<tag k="name" v="Urholmen" />
>>>>>>> e1d4bc35ff8a6074a6f2e91616a996b547c36f15
		<tag k="place" v="farm" />
		<tag k="ssr:stedsnr" v="257544" />
	</node>
<<<<<<< HEAD
	<node lat="64.51399999673028" lon="10.909419446938209" id="-36261">
		<tag k="name" v="Eian" />
		<tag k="place" v="farm" />
		<tag k="ssr:stedsnr" v="257737" />
	</node>
	<node lat="64.51645833772669" lon="11.019263895501151" id="-36282">
		<tag k="historic" v="shieling" />
		<tag k="name" v="Sitterseteren" />
		<tag k="place" v="isolated_dwelling" />
		<tag k="ssr:stedsnr" v="170308" />
	</node>
	<node lat="64.58433610810481" lon="10.99089166668835" id="-36294">
		<tag k="amenity" v="school" />
		<tag k="name" v="Utvorda oppvekstsenter" />
		<tag k="ssr:stedsnr" v="180217" />
	</node>
	<node lat="64.47277777959408" lon="10.702197228626595" id="-36316">
		<tag k="name" v="Kvaløyseter" />
		<tag k="place" v="hamlet" />
		<tag k="ssr:stedsnr" v="207107" />
	</node>
	<node lat="64.38939166338409" lon="10.617736107519088" id="-36321">
		<tag k="name" v="Dragvollen" />
		<tag k="place" v="isolated_dwelling" />
		<tag k="ssr:stedsnr" v="208025" />
	</node>
	<node lat="64.46960278122796" lon="10.721902772651585" id="-36334">
		<tag k="name" v="Mellomneset" />
		<tag k="place" v="farm" />
		<tag k="ssr:stedsnr" v="269084" />
	</node>
	<node lat="64.50887778167152" lon="10.916494445636928" id="-36339">
		<tag k="name" v="Haugen" />
=======
	<node id="-789582" lat="64.475386112" lon="10.8402444495">
		<tag k="name" v="Litlrisskogen" />
		<tag k="place" v="farm" />
		<tag k="ssr:stedsnr" v="439369" />
	</node>
	<node id="-789824" lat="64.5998705643" lon="10.8924959472">
		<tag k="fixme" v="consider place=hamlet" />
		<tag k="name" v="Skingen" />
		<tag k="place" v="farm" />
		<tag k="ssr:stedsnr" v="510171" />
	</node>
	<node id="-789616" lat="64.4588083349" lon="10.7901333307">
		<tag k="fixme" v="consider place=hamlet" />
		<tag k="name" v="Trefjord" />
		<tag k="place" v="farm" />
		<tag k="ssr:stedsnr" v="242459" />
	</node>
	<node id="-789372" lat="64.5249111087" lon="10.9626611083">
		<tag k="name" v="Bårdvika" />
		<tag k="place" v="farm" />
		<tag k="ssr:stedsnr" v="15702" />
	</node>
	<node id="-789366" lat="64.4856138922" lon="10.771113881">
		<tag k="name" v="Skeian" />
>>>>>>> e1d4bc35ff8a6074a6f2e91616a996b547c36f15
		<tag k="place" v="farm" />
		<tag k="ssr:stedsnr" v="269156" />
	</node>
<<<<<<< HEAD
	<node lat="64.41194444338375" lon="10.640847219464781" id="-36382">
		<tag k="name" v="Fætta" />
		<tag k="place" v="farm" />
		<tag k="ssr:stedsnr" v="256658" />
	</node>
	<node lat="64.52670832997278" lon="10.982288898808049" id="-36386">
		<tag k="name" v="Dalen" />
		<tag k="place" v="farm" />
		<tag k="ssr:stedsnr" v="257708" />
	</node>
	<node lat="64.41238333671987" lon="10.737294447399218" id="-36396">
		<tag k="name" v="Guruvika" />
=======
	<node id="-789481" lat="64.4942292449" lon="10.8190595879">
		<tag k="name" v="Strøm" />
		<tag k="place" v="farm" />
		<tag k="ssr:stedsnr" v="121621" />
	</node>
	<node id="-790076" lat="64.5002166677" lon="10.7298750071">
		<tag k="name" v="Hansplassen" />
		<tag k="place" v="locality" />
		<tag k="ssr:stedsnr" v="633120" />
	</node>
	<node id="-790387" lat="64.4785194406" lon="10.7197194406">
		<tag k="name" v="Barsvika" />
>>>>>>> e1d4bc35ff8a6074a6f2e91616a996b547c36f15
		<tag k="place" v="locality" />
		<tag k="ssr:stedsnr" v="288033" />
	</node>
<<<<<<< HEAD
	<node lat="64.48418500752223" lon="10.784944534718939" id="-36421">
		<tag k="name" v="Glasøya" />
=======
	<node id="-789362" lat="64.4619027755" lon="10.788291673">
		<tag k="name" v="Trefjord" />
>>>>>>> e1d4bc35ff8a6074a6f2e91616a996b547c36f15
		<tag k="place" v="farm" />
		<tag k="ssr:stedsnr" v="303576" />
	</node>
<<<<<<< HEAD
	<node lat="64.59172091061396" lon="10.962620452690672" id="-36422">
		<tag k="name" v="Utvorda" />
		<tag k="place" v="farm" />
		<tag k="ssr:stedsnr" v="303592" />
	</node>
	<node lat="64.55104140789874" lon="10.908114647935028" id="-36423">
		<tag k="name" v="Feøya" />
		<tag k="place" v="farm" />
		<tag k="ssr:stedsnr" v="303598" />
	</node>
	<node lat="64.557012058668" lon="10.948075252087271" id="-36424">
		<tag k="name" v="Frøsendal" />
		<tag k="place" v="farm" />
		<tag k="ssr:stedsnr" v="303599" />
	</node>
	<node lat="64.363822225111" lon="10.820341673940897" id="-36464">
		<tag k="name" v="Moan" />
		<tag k="place" v="locality" />
		<tag k="ssr:stedsnr" v="473884" />
	</node>
	<node lat="64.4790388927528" lon="10.885236114594987" id="-36467">
		<tag k="historic" v="shieling" />
		<tag k="name" v="Finnsteinseteren" />
=======
	<node id="-789907" lat="64.3370638917" lon="10.8539249991">
		<tag k="name" v="Lia" />
		<tag k="place" v="farm" />
		<tag k="ssr:stedsnr" v="499259" />
	</node>
	<node id="-790930" lat="64.4009444444" lon="10.994166672">
		<tag k="name" v="Nonshaugen" />
		<tag k="place" v="locality" />
		<tag k="ssr:stedsnr" v="351778" />
	</node>
	<node id="-789489" lat="64.4545685359" lon="10.6940509125">
		<tag k="fixme" v="consider place=hamlet" />
		<tag k="name" v="Vikdalen" />
		<tag k="place" v="farm" />
		<tag k="ssr:stedsnr" v="135624" />
	</node>
	<node id="-791399" lat="64.5063138899" lon="10.9296305486">
		<tag k="name" v="Vågan" />
>>>>>>> e1d4bc35ff8a6074a6f2e91616a996b547c36f15
		<tag k="place" v="isolated_dwelling" />
		<tag k="ssr:stedsnr" v="473853" />
	</node>
<<<<<<< HEAD
	<node lat="64.46117777902262" lon="10.8871249992629" id="-36472">
		<tag k="historic" v="shieling" />
		<tag k="name" v="Sør-Fløanseteren" />
		<tag k="place" v="isolated_dwelling" />
		<tag k="ssr:stedsnr" v="473990" />
	</node>
	<node lat="64.4350138890618" lon="10.53570556185238" id="-36493">
		<tag k="name" v="Oksbåsen" />
		<tag k="place" v="isolated_dwelling" />
		<tag k="ssr:stedsnr" v="363502" />
	</node>
	<node lat="64.40576111456367" lon="10.62069999269144" id="-36501">
		<tag k="name" v="Loenget" />
		<tag k="place" v="farm" />
		<tag k="ssr:stedsnr" v="378720" />
	</node>
	<node lat="64.51467905275601" lon="10.747854196648358" id="-36505">
=======
	<node id="-790373" lat="64.500616664" lon="10.893969451">
		<tag k="name" v="Lauvsnes" />
		<tag k="place" v="village" />
		<tag k="ssr:stedsnr" v="924724" />
	</node>
	<node id="-790371" lat="64.5653277818" lon="11.0651944486">
>>>>>>> e1d4bc35ff8a6074a6f2e91616a996b547c36f15
		<tag k="fixme" v="consider place=hamlet" />
		<tag k="name" v="Halmøya" />
		<tag k="place" v="farm" />
		<tag k="ssr:stedsnr" v="378738" />
	</node>
<<<<<<< HEAD
	<node lat="64.51292239225307" lon="10.881079022411894" id="-36519">
		<tag k="fixme" v="consider place=hamlet" />
		<tag k="name" v="Lauvøya" />
=======
	<node id="-791393" lat="64.5247805564" lon="10.7298194406">
		<tag k="name" v="Dølvika" />
>>>>>>> e1d4bc35ff8a6074a6f2e91616a996b547c36f15
		<tag k="place" v="farm" />
		<tag k="ssr:stedsnr" v="389145" />
	</node>
<<<<<<< HEAD
	<node lat="64.44954167119057" lon="10.65927776897735" id="-36520">
		<tag k="historic" v="shieling" />
		<tag k="name" v="Vikdalsseteren" />
		<tag k="place" v="isolated_dwelling" />
		<tag k="ssr:stedsnr" v="390011" />
	</node>
	<node lat="64.48431111001497" lon="10.798563894900086" id="-36523">
		<tag k="alt_name" v="Glasø Østre" />
		<tag k="name" v="Østre Glasøya" />
=======
	<node id="-790366" lat="64.581488891" lon="10.9973416628">
		<tag k="name" v="Teigmoen" />
		<tag k="place" v="farm" />
		<tag k="ssr:stedsnr" v="924566" />
	</node>
	<node id="-789562" lat="64.4638888926" lon="10.9071555548">
		<tag k="name" v="Gjerdet" />
		<tag k="place" v="farm" />
		<tag k="ssr:stedsnr" v="292840" />
	</node>
	<node id="-789847" lat="64.397819441" lon="10.6366027779">
		<tag k="name" v="Nordre Bølestranda" />
>>>>>>> e1d4bc35ff8a6074a6f2e91616a996b547c36f15
		<tag k="place" v="farm" />
		<tag k="ssr:stedsnr" v="390111" />
	</node>
<<<<<<< HEAD
	<node lat="64.45599722272969" lon="10.75916110786667" id="-36538">
=======
	<node id="-791382" lat="64.5573210751" lon="10.948277959">
>>>>>>> e1d4bc35ff8a6074a6f2e91616a996b547c36f15
		<tag k="fixme" v="consider place=hamlet" />
		<tag k="name" v="Vik" />
		<tag k="place" v="farm" />
		<tag k="ssr:stedsnr" v="485530" />
	</node>
<<<<<<< HEAD
	<node lat="64.40449722238104" lon="10.748491663324142" id="-36539">
		<tag k="name" v="Luren" />
=======
	<node id="-790357" lat="64.477302777" lon="10.8719194347">
		<tag k="historic" v="shieling" />
		<tag k="name" v="Takliseteren" />
		<tag k="place" v="locality" />
		<tag k="ssr:stedsnr" v="899862" />
	</node>
	<node id="-790866" lat="64.4720944405" lon="10.6976611211">
		<tag k="name" v="Flottan" />
>>>>>>> e1d4bc35ff8a6074a6f2e91616a996b547c36f15
		<tag k="place" v="farm" />
		<tag k="ssr:stedsnr" v="485851" />
	</node>
<<<<<<< HEAD
	<node lat="64.39817222200982" lon="10.752338878596804" id="-36540">
		<tag k="name" v="Lurastranda" />
		<tag k="old_name" v="Dvernurstranda" />
=======
	<node id="-790863" lat="64.4634083365" lon="10.9107055609">
		<tag k="name" v="Fløaaunet" />
>>>>>>> e1d4bc35ff8a6074a6f2e91616a996b547c36f15
		<tag k="place" v="farm" />
		<tag k="ssr:stedsnr" v="409006" />
	</node>
<<<<<<< HEAD
	<node lat="64.52564444285538" lon="10.985702785534054" id="-36557">
		<tag k="name" v="Dalamoen" />
		<tag k="place" v="locality" />
		<tag k="ssr:stedsnr" v="413313" />
	</node>
	<node lat="64.39781944096617" lon="10.636602777934609" id="-36568">
		<tag k="name" v="Nordre Bølestranda" />
=======
	<node id="-789838" lat="64.4917250024" lon="10.8982111176">
		<tag k="name" v="Fløaskogen" />
		<tag k="place" v="quarter" />
		<tag k="ssr:stedsnr" v="512204" />
	</node>
	<node id="-790861" lat="64.4711583298" lon="10.8125055553">
		<tag k="name" v="Bekkjavika" />
>>>>>>> e1d4bc35ff8a6074a6f2e91616a996b547c36f15
		<tag k="place" v="farm" />
		<tag k="ssr:stedsnr" v="424017" />
	</node>
<<<<<<< HEAD
	<node lat="64.42695511670374" lon="10.971263317346658" id="-36570">
		<tag k="fixme" v="consider place=hamlet" />
		<tag k="name" v="Morka" />
=======
	<node id="-789474" lat="64.3663388933" lon="10.8263361084">
		<tag k="name" v="Storforskottet" />
		<tag k="place" v="farm" />
		<tag k="ssr:stedsnr" v="109920" />
	</node>
	<node id="-791369" lat="64.4609055551" lon="10.6926000093">
		<tag k="name" v="Selsvika" />
>>>>>>> e1d4bc35ff8a6074a6f2e91616a996b547c36f15
		<tag k="place" v="farm" />
		<tag k="ssr:stedsnr" v="424593" />
	</node>
<<<<<<< HEAD
	<node lat="64.37744722337881" lon="10.833236102608211" id="-36571">
		<tag k="name" v="Krubba" />
		<tag k="place" v="isolated_dwelling" />
		<tag k="ssr:stedsnr" v="438249" />
	</node>
	<node lat="64.32158055267439" lon="10.877005556758013" id="-36590">
		<tag k="name" v="Aunet" />
=======
	<node id="-790856" lat="64.5570120587" lon="10.9480752521">
		<tag k="name" v="Frøsendal" />
		<tag k="place" v="farm" />
		<tag k="ssr:stedsnr" v="303599" />
	</node>
	<node id="-790855" lat="64.5510414079" lon="10.9081146479">
		<tag k="name" v="Feøya" />
>>>>>>> e1d4bc35ff8a6074a6f2e91616a996b547c36f15
		<tag k="place" v="farm" />
		<tag k="ssr:stedsnr" v="439299" />
	</node>
<<<<<<< HEAD
	<node lat="64.49800833642837" lon="10.96195000043757" id="-36595">
		<tag k="name" v="Buknotten" />
		<tag k="place" v="locality" />
		<tag k="ssr:stedsnr" v="445487" />
	</node>
	<node lat="64.57276199534185" lon="10.846572996956995" id="-36599">
		<tag k="fixme" v="consider place=hamlet" />
		<tag k="name" v="Bjørøya" />
=======
	<node id="-790854" lat="64.5917209106" lon="10.9626204527">
		<tag k="name" v="Utvorda" />
		<tag k="place" v="farm" />
		<tag k="ssr:stedsnr" v="303592" />
	</node>
	<node id="-791606" lat="64.4885194421" lon="10.680322219">
		<tag k="fixme" v="consider place=hamlet" />
		<tag k="name" v="Hanøya" />
		<tag k="place" v="farm" />
		<tag k="ssr:stedsnr" v="849579" />
	</node>
	<node id="-789826" lat="64.4605638889" lon="10.7622583328">
		<tag k="name" v="Skaret" />
>>>>>>> e1d4bc35ff8a6074a6f2e91616a996b547c36f15
		<tag k="place" v="farm" />
		<tag k="ssr:stedsnr" v="450169" />
	</node>
<<<<<<< HEAD
	<node lat="64.43280833573209" lon="10.724705562513149" id="-36614">
		<tag k="historic" v="shieling" />
		<tag k="name" v="Hårnesseteren" />
		<tag k="place" v="isolated_dwelling" />
		<tag k="ssr:stedsnr" v="473769" />
	</node>
	<node lat="64.38831666666331" lon="10.90703888567002" id="-36622">
		<tag k="historic" v="shieling" />
		<tag k="name" v="Sivertseteren" />
		<tag k="place" v="isolated_dwelling" />
		<tag k="ssr:stedsnr" v="473961" />
	</node>
	<node lat="64.42938055340309" lon="10.967902775414709" id="-36623">
		<tag k="name" v="Mariplassen" />
		<tag k="place" v="locality" />
		<tag k="ssr:stedsnr" v="473963" />
	</node>
	<node lat="64.47659166994039" lon="10.907286118742118" id="-36630">
		<tag k="name" v="Rødalen" />
		<tag k="place" v="farm" />
		<tag k="ssr:stedsnr" v="681386" />
	</node>
	<node lat="64.33773888543779" lon="10.864925010091383" id="-36637">
		<tag k="fixme" v="consider place=hamlet" />
		<tag k="name" v="Oppland" />
		<tag k="place" v="farm" />
		<tag k="ssr:stedsnr" v="499258" />
	</node>
	<node lat="64.33706389167196" lon="10.853924999116948" id="-36638">
		<tag k="name" v="Lia" />
		<tag k="place" v="farm" />
		<tag k="ssr:stedsnr" v="499259" />
	</node>
	<node lat="64.45592222427588" lon="10.734619454325525" id="-36640">
		<tag k="name" v="Kiltvika" />
		<tag k="place" v="farm" />
		<tag k="ssr:stedsnr" v="499413" />
	</node>
	<node lat="64.58299166674784" lon="11.00167500222356" id="-36645">
		<tag k="name" v="Brumoen" />
=======
	<node id="-790336" lat="64.4677055559" lon="10.7686000063">
		<tag k="name" v="Vannavika" />
		<tag k="place" v="farm" />
		<tag k="ssr:stedsnr" v="864412" />
	</node>
	<node id="-791690" lat="64.4795055519" lon="10.9629055645">
		<tag k="name" v="Skjeldeaunet" />
		<tag k="place" v="isolated_dwelling" />
		<tag k="ssr:stedsnr" v="959790" />
	</node>
	<node id="-791350" lat="64.3220000031" lon="10.9566472246">
		<tag k="historic" v="shieling" />
		<tag k="name" v="Henrikseteren" />
		<tag k="place" v="locality" />
		<tag k="ssr:stedsnr" v="654870" />
	</node>
	<node id="-789812" lat="64.495888888" lon="10.8807611016">
		<tag k="name" v="Berg" />
>>>>>>> e1d4bc35ff8a6074a6f2e91616a996b547c36f15
		<tag k="place" v="farm" />
		<tag k="ssr:stedsnr" v="499514" />
	</node>
<<<<<<< HEAD
	<node lat="64.50703332895044" lon="10.812177774401187" id="-36651">
		<tag k="name" v="Leitet" />
		<tag k="place" v="farm" />
		<tag k="ssr:stedsnr" v="499695" />
	</node>
	<node lat="64.60285277474635" lon="10.963205564035643" id="-36660">
		<tag k="name" v="Vågan" />
		<tag k="place" v="locality" />
		<tag k="ssr:stedsnr" v="681539" />
	</node>
	<node lat="64.50315832998535" lon="10.727211108666019" id="-36686">
		<tag k="name" v="Plassen" />
=======
	<node id="-791344" lat="64.4311555546" lon="10.5287138867">
		<tag k="name" v="Dalen" />
		<tag k="place" v="locality" />
		<tag k="ssr:stedsnr" v="652017" />
	</node>
	<node id="-790318" lat="64.5301361073" lon="10.9714777787">
		<tag k="name" v="Solheim" />
		<tag k="place" v="farm" />
		<tag k="ssr:stedsnr" v="837817" />
	</node>
	<node id="-789805" lat="64.4495416712" lon="10.659277769">
		<tag k="historic" v="shieling" />
		<tag k="name" v="Vikdalsseteren" />
>>>>>>> e1d4bc35ff8a6074a6f2e91616a996b547c36f15
		<tag k="place" v="locality" />
		<tag k="ssr:stedsnr" v="512108" />
	</node>
<<<<<<< HEAD
	<node lat="64.49172500239044" lon="10.89821111764906" id="-36691">
		<tag k="name" v="Fløaskogen" />
		<tag k="place" v="quarter" />
		<tag k="ssr:stedsnr" v="512204" />
	</node>
	<node lat="64.3253361068831" lon="10.86778333490628" id="-36701">
		<tag k="name" v="Rønningen" />
		<tag k="place" v="farm" />
		<tag k="ssr:stedsnr" v="534615" />
	</node>
	<node lat="64.37801517309889" lon="10.841761859224599" id="-36712">
		<tag k="name" v="Laukvika" />
		<tag k="place" v="farm" />
		<tag k="ssr:stedsnr" v="545567" />
	</node>
	<node lat="64.42747551838687" lon="10.657287912667831" id="-36723">
		<tag k="name" v="Båtsvika" />
		<tag k="old_name" v="Bosviken;Båsvika" />
		<tag k="place" v="farm" />
		<tag k="ssr:stedsnr" v="559686" />
	</node>
	<node lat="64.51404999916949" lon="10.81989722049265" id="-36728">
		<tag k="name" v="Skavsanden" />
=======
	<node id="-789528" lat="64.4123833367" lon="10.7372944474">
		<tag k="name" v="Guruvika" />
		<tag k="place" v="locality" />
		<tag k="ssr:stedsnr" v="288033" />
	</node>
	<node id="-789613" lat="64.4980083364" lon="10.9619500004">
		<tag k="name" v="Buknotten" />
		<tag k="place" v="locality" />
		<tag k="ssr:stedsnr" v="445487" />
	</node>
	<node id="-790819" lat="64.3893916634" lon="10.6177361075">
		<tag k="name" v="Dragvollen" />
>>>>>>> e1d4bc35ff8a6074a6f2e91616a996b547c36f15
		<tag k="place" v="isolated_dwelling" />
		<tag k="ssr:stedsnr" v="560683" />
	</node>
<<<<<<< HEAD
	<node lat="64.43206388803048" lon="10.806824999167697" id="-36732">
		<tag k="name" v="Hattavika" />
		<tag k="place" v="isolated_dwelling" />
		<tag k="ssr:stedsnr" v="566472" />
	</node>
	<node lat="64.43974444786909" lon="10.571655550163609" id="-36756">
		<tag k="name" v="Gammelgården" />
		<tag k="place" v="locality" />
		<tag k="ssr:stedsnr" v="590010" />
	</node>
	<node lat="64.49676810302088" lon="10.867398837668798" id="-36774">
=======
	<node id="-791326" lat="64.5099888903" lon="10.8021527862">
		<tag k="name" v="Einvika" />
		<tag k="place" v="farm" />
		<tag k="ssr:stedsnr" v="621734" />
	</node>
	<node id="-790300" lat="64.4974392366" lon="10.8690500745">
		<tag k="fixme" v="consider place=hamlet" />
>>>>>>> e1d4bc35ff8a6074a6f2e91616a996b547c36f15
		<tag k="name" v="Stamnes" />
		<tag k="place" v="farm" />
		<tag k="ssr:stedsnr" v="606606" />
	</node>
<<<<<<< HEAD
	<node lat="64.51245481626273" lon="10.880868383529773" id="-36775">
		<tag k="name" v="Lauvøya" />
=======
	<node id="-790808" lat="64.5299250043" lon="10.9883166765">
		<tag k="alt_name" v="Sitter, øvre" />
		<tag k="name" v="Øvre Sitter" />
>>>>>>> e1d4bc35ff8a6074a6f2e91616a996b547c36f15
		<tag k="place" v="farm" />
		<tag k="ssr:stedsnr" v="606609" />
	</node>
<<<<<<< HEAD
	<node lat="64.42421111549758" lon="10.807330565620907" id="-36778">
		<tag k="fixme" v="multiple name tags, choose one and add the other to alt_name" />
		<tag k="name" v="Steinvika;Sjurdsvika" />
		<tag k="place" v="farm" />
		<tag k="ssr:stedsnr" v="620281" />
	</node>
	<node lat="64.46646389107347" lon="10.9581027815895" id="-36781">
		<tag k="fixme" v="consider place=hamlet" />
		<tag k="name" v="Skjelde" />
=======
	<node id="-790465" lat="64.4628055584" lon="10.7655638861">
		<tag k="name" v="Nordstranda" />
		<tag k="place" v="farm" />
		<tag k="ssr:stedsnr" v="26086" />
	</node>
	<node id="-791317" lat="64.3987472236" lon="10.6036916572">
		<tag k="name" v="Vikan" />
>>>>>>> e1d4bc35ff8a6074a6f2e91616a996b547c36f15
		<tag k="place" v="farm" />
		<tag k="ssr:stedsnr" v="620474" />
	</node>
<<<<<<< HEAD
	<node lat="64.49457222663625" lon="10.888052769594525" id="-36783">
		<tag k="name" v="Nyrud" />
		<tag k="place" v="farm" />
		<tag k="ssr:stedsnr" v="620376" />
	</node>
	<node lat="64.47293333330987" lon="10.700416670176345" id="-36785">
=======
	<node id="-791316" lat="64.4729333333" lon="10.7004166702">
>>>>>>> e1d4bc35ff8a6074a6f2e91616a996b547c36f15
		<tag k="name" v="Nordgård" />
		<tag k="place" v="farm" />
		<tag k="ssr:stedsnr" v="620602" />
	</node>
<<<<<<< HEAD
	<node lat="64.39874722358641" lon="10.603691657150119" id="-36786">
		<tag k="name" v="Vikan" />
=======
	<node id="-790803" lat="64.3938638909" lon="10.6424083426">
		<tag k="name" v="Bøleseteren" />
>>>>>>> e1d4bc35ff8a6074a6f2e91616a996b547c36f15
		<tag k="place" v="farm" />
		<tag k="ssr:stedsnr" v="620676" />
	</node>
<<<<<<< HEAD
	<node lat="64.43115555457385" lon="10.52871388673032" id="-36798">
		<tag k="name" v="Dalen" />
		<tag k="place" v="locality" />
		<tag k="ssr:stedsnr" v="652017" />
	</node>
	<node lat="64.33290277759134" lon="10.861450008040064" id="-36826">
		<tag k="name" v="Haugset" />
		<tag k="place" v="farm" />
		<tag k="ssr:stedsnr" v="681307" />
	</node>
	<node lat="64.45381666899769" lon="10.937202783338506" id="-36831">
		<tag k="alt_name" v="Botnet" />
		<tag k="name" v="Dalabotnet" />
		<tag k="place" v="farm" />
		<tag k="ssr:stedsnr" v="681468" />
	</node>
	<node lat="64.44784721804442" lon="10.565952783998231" id="-36832">
=======
	<node id="-789778" lat="64.4559222243" lon="10.7346194543">
		<tag k="name" v="Kiltvika" />
		<tag k="place" v="farm" />
		<tag k="ssr:stedsnr" v="499413" />
	</node>
	<node id="-791714" lat="64.4314169337" lon="10.633605414">
		<tag k="fixme" v="consider place=hamlet" />
		<tag k="name" v="Sørnesset" />
		<tag k="place" v="village" />
		<tag k="ssr:stedsnr" v="971979" />
	</node>
	<node id="-790288" lat="64.5704499959" lon="11.0530583342">
		<tag k="name" v="Hamn" />
		<tag k="place" v="farm" />
		<tag k="ssr:stedsnr" v="802618" />
	</node>
	<node id="-791607" lat="64.5469694473" lon="10.6929305628">
		<tag k="fixme" v="consider place=hamlet" />
		<tag k="name" v="Villa" />
		<tag k="place" v="farm" />
		<tag k="ssr:stedsnr" v="849584" />
	</node>
	<node id="-791309" lat="64.5813944458" lon="11.0150111201">
		<tag k="fixme" v="consider place=hamlet" />
		<tag k="name" v="Innvorda" />
		<tag k="place" v="village" />
		<tag k="ssr:stedsnr" v="620551" />
	</node>
	<node id="-791307" lat="64.4664638911" lon="10.9581027816">
>>>>>>> e1d4bc35ff8a6074a6f2e91616a996b547c36f15
		<tag k="fixme" v="consider place=hamlet" />
		<tag k="name" v="Urholmen" />
		<tag k="place" v="farm" />
<<<<<<< HEAD
		<tag k="ssr:stedsnr" v="681655" />
	</node>
	<node lat="64.43803611028872" lon="10.58714443485372" id="-36835">
		<tag k="name" v="Steinvika" />
		<tag k="place" v="isolated_dwelling" />
		<tag k="ssr:stedsnr" v="681671" />
	</node>
	<node lat="64.3971852044182" lon="10.637382382186187" id="-36836">
		<tag k="name" v="Bølestranda" />
=======
		<tag k="ssr:stedsnr" v="620474" />
	</node>
	<node id="-790281" lat="64.5288777785" lon="10.9861194463">
		<tag k="fixme" v="consider place=hamlet" />
		<tag k="name" v="Sitter" />
		<tag k="place" v="village" />
		<tag k="ssr:stedsnr" v="925731" />
	</node>
	<node id="-790280" lat="64.5379611104" lon="10.9772249958">
		<tag k="name" v="Brenna" />
>>>>>>> e1d4bc35ff8a6074a6f2e91616a996b547c36f15
		<tag k="place" v="farm" />
		<tag k="ssr:stedsnr" v="681703" />
	</node>
<<<<<<< HEAD
	<node lat="64.52953888816349" lon="11.013766675237179" id="-36843">
		<tag k="name" v="Fossan" />
		<tag k="place" v="locality" />
		<tag k="ssr:stedsnr" v="682715" />
	</node>
	<node lat="64.52463333764616" lon="10.802777775667247" id="-36844">
		<tag k="name" v="Bakkan" />
=======
	<node id="-791303" lat="64.4945722266" lon="10.8880527696">
		<tag k="name" v="Nyrud" />
		<tag k="place" v="farm" />
		<tag k="ssr:stedsnr" v="620376" />
	</node>
	<node id="-790788" lat="64.4267888232" lon="10.9709373329">
		<tag k="name" v="Morka" />
>>>>>>> e1d4bc35ff8a6074a6f2e91616a996b547c36f15
		<tag k="place" v="farm" />
		<tag k="ssr:stedsnr" v="682718" />
	</node>
<<<<<<< HEAD
	<node lat="64.47041110933547" lon="10.718972219673589" id="-36853">
		<tag k="name" v="Ågård" />
=======
	<node id="-791298" lat="64.4242111155" lon="10.8073305656">
		<tag k="fixme" v="multiple name tags, choose one and add the other to alt_name" />
		<tag k="name" v="Sjurdsvika;Steinvika" />
>>>>>>> e1d4bc35ff8a6074a6f2e91616a996b547c36f15
		<tag k="place" v="farm" />
		<tag k="ssr:stedsnr" v="694070" />
	</node>
<<<<<<< HEAD
	<node lat="64.30948333726255" lon="10.879519451806006" id="-36864">
		<tag k="historic" v="shieling" />
		<tag k="name" v="Gammelseteren" />
		<tag k="place" v="isolated_dwelling" />
		<tag k="ssr:stedsnr" v="897530" />
	</node>
	<node lat="64.35339444296835" lon="10.739041657720927" id="-36890">
		<tag k="historic" v="shieling" />
		<tag k="name" v="Øykvikseteren" />
		<tag k="place" v="isolated_dwelling" />
		<tag k="ssr:stedsnr" v="716919" />
	</node>
	<node lat="64.56972499906604" lon="11.052105558456274" id="-36908">
		<tag k="name" v="Hamn" />
		<tag k="place" v="farm" />
		<tag k="ssr:stedsnr" v="727493" />
	</node>
	<node lat="64.37818549064984" lon="10.843012193620183" id="-36910">
		<tag k="fixme" v="consider place=hamlet" />
		<tag k="name" v="Laukvika" />
=======
	<node id="-791294" lat="64.4162482191" lon="10.8220963912">
		<tag k="fixme" v="consider place=hamlet" />
		<tag k="name" v="Fossvika" />
		<tag k="place" v="farm" />
		<tag k="ssr:stedsnr" v="620265" />
	</node>
	<node id="-790269" lat="64.4383027808" lon="10.5520277851">
		<tag k="name" v="Småværet" />
		<tag k="place" v="hamlet" />
		<tag k="ssr:stedsnr" v="924625" />
	</node>
	<node id="-790266" lat="64.5689481992" lon="11.0569348979">
		<tag k="name" v="Sandmohavn" />
>>>>>>> e1d4bc35ff8a6074a6f2e91616a996b547c36f15
		<tag k="place" v="farm" />
		<tag k="ssr:stedsnr" v="741313" />
	</node>
<<<<<<< HEAD
	<node lat="64.46090555513535" lon="10.692600009320383" id="-36916">
		<tag k="name" v="Selsvika" />
=======
	<node id="-789753" lat="64.4044972224" lon="10.7484916633">
		<tag k="name" v="Luren" />
>>>>>>> e1d4bc35ff8a6074a6f2e91616a996b547c36f15
		<tag k="place" v="farm" />
		<tag k="ssr:stedsnr" v="741701" />
	</node>
<<<<<<< HEAD
	<node lat="64.52478055639031" lon="10.729819440624599" id="-36929">
		<tag k="name" v="Dølvika" />
=======
	<node id="-789752" lat="64.4559972227" lon="10.7591611079">
		<tag k="fixme" v="consider place=hamlet" />
		<tag k="name" v="Vik" />
>>>>>>> e1d4bc35ff8a6074a6f2e91616a996b547c36f15
		<tag k="place" v="farm" />
		<tag k="ssr:stedsnr" v="743682" />
	</node>
<<<<<<< HEAD
	<node lat="64.4529666646099" lon="10.754975008072732" id="-36956">
		<tag k="amenity" v="school" />
		<tag k="name" v="Flatanger montessoriskole" />
		<tag k="ssr:stedsnr" v="908217" />
	</node>
	<node lat="64.43316110809997" lon="11.000638881956181" id="-36978">
		<tag k="name" v="Fjell" />
=======
	<node id="-789972" lat="64.3773444462" lon="10.8392222274">
		<tag k="name" v="Ol - Nilsaplassen" />
		<tag k="place" v="locality" />
		<tag k="ssr:stedsnr" v="534956" />
	</node>
	<node id="-790774" lat="64.4118653384" lon="10.6759956557">
		<tag k="name" v="Austvika" />
		<tag k="place" v="farm" />
		<tag k="ssr:stedsnr" v="181598" />
	</node>
	<node id="-791285" lat="64.5141618289" lon="10.7471883833">
		<tag k="name" v="Halmøya" />
>>>>>>> e1d4bc35ff8a6074a6f2e91616a996b547c36f15
		<tag k="place" v="farm" />
		<tag k="ssr:stedsnr" v="788599" />
	</node>
<<<<<<< HEAD
	<node lat="64.46620832942126" lon="10.959505561253303" id="-36979">
		<tag k="name" v="Skjelde" />
=======
	<node id="-791284" lat="64.4875666634" lon="10.7325888809">
		<tag k="fixme" v="consider place=hamlet" />
		<tag k="name" v="Sandøya" />
>>>>>>> e1d4bc35ff8a6074a6f2e91616a996b547c36f15
		<tag k="place" v="farm" />
		<tag k="ssr:stedsnr" v="788606" />
	</node>
<<<<<<< HEAD
	<node lat="64.57044999593958" lon="11.053058334207385" id="-36982">
		<tag k="name" v="Hamn" />
=======
	<node id="-791283" lat="64.44488242" lon="10.5982849936">
		<tag k="name" v="Hasvåg" />
>>>>>>> e1d4bc35ff8a6074a6f2e91616a996b547c36f15
		<tag k="place" v="farm" />
		<tag k="ssr:stedsnr" v="802618" />
	</node>
<<<<<<< HEAD
	<node lat="64.33469166479276" lon="10.867738889834422" id="-36984">
		<tag k="name" v="Halvmoen" />
=======
	<node id="-791282" lat="64.4316599671" lon="10.6149309977">
		<tag k="name" v="Håstad" />
>>>>>>> e1d4bc35ff8a6074a6f2e91616a996b547c36f15
		<tag k="place" v="farm" />
		<tag k="ssr:stedsnr" v="803323" />
	</node>
<<<<<<< HEAD
	<node lat="64.43316110809997" lon="11.000638881956181" id="-36995">
		<tag k="fixme" v="consider place=hamlet" />
		<tag k="name" v="Fjell" />
=======
	<node id="-791281" lat="64.4321416676" lon="10.647394449">
		<tag k="name" v="Hårnes" />
>>>>>>> e1d4bc35ff8a6074a6f2e91616a996b547c36f15
		<tag k="place" v="farm" />
		<tag k="ssr:stedsnr" v="803465" />
	</node>
<<<<<<< HEAD
	<node lat="64.49940833451124" lon="10.72128054931033" id="-37003">
		<tag k="name" v="Aspøystranda" />
		<tag k="place" v="farm" />
		<tag k="ssr:stedsnr" v="814111" />
	</node>
	<node lat="64.47983610912782" lon="10.723672212854268" id="-37008">
		<tag k="name" v="Olaplassen" />
		<tag k="place" v="locality" />
		<tag k="ssr:stedsnr" v="815080" />
	</node>
	<node lat="64.53413055537142" lon="10.97816111037411" id="-37009">
		<tag k="name" v="Breivegen" />
		<tag k="place" v="farm" />
		<tag k="ssr:stedsnr" v="817821" />
	</node>
	<node lat="64.35417500258379" lon="10.916888881467079" id="-37034">
=======
	<node id="-789739" lat="64.4813972236" lon="10.7461083289">
		<tag k="name" v="Nordhals" />
		<tag k="place" v="locality" />
		<tag k="ssr:stedsnr" v="330107" />
	</node>
	<node id="-790250" lat="64.3653416668" lon="10.824372221">
		<tag k="fixme" v="consider place=hamlet" />
		<tag k="name" v="Jøssund" />
		<tag k="place" v="farm" />
		<tag k="ssr:stedsnr" v="924329" />
	</node>
	<node id="-789594" lat="64.5001777794" lon="10.9030527802">
		<tag k="name" v="Nordheim" />
		<tag k="place" v="farm" />
		<tag k="ssr:stedsnr" v="439750" />
	</node>
	<node id="-790246" lat="64.3541750026" lon="10.9168888815">
>>>>>>> e1d4bc35ff8a6074a6f2e91616a996b547c36f15
		<tag k="historic" v="shieling" />
		<tag k="name" v="Nordseteren" />
		<tag k="place" v="isolated_dwelling" />
		<tag k="ssr:stedsnr" v="924308" />
	</node>
<<<<<<< HEAD
	<node lat="64.36636110723514" lon="10.831263895276138" id="-37037">
		<tag k="name" v="Einan" />
		<tag k="place" v="farm" />
		<tag k="ssr:stedsnr" v="837889" />
	</node>
	<node lat="64.43830278078397" lon="10.552027785059327" id="-37048">
		<tag k="name" v="Småværet" />
		<tag k="place" v="hamlet" />
		<tag k="ssr:stedsnr" v="924625" />
	</node>
	<node lat="64.56894819918213" lon="11.056934897857197" id="-37052">
		<tag k="name" v="Sandmohavn" />
		<tag k="place" v="farm" />
		<tag k="ssr:stedsnr" v="924599" />
	</node>
	<node lat="64.50061666400764" lon="10.893969450970278" id="-37056">
		<tag k="name" v="Lauvsnes" />
		<tag k="place" v="village" />
		<tag k="ssr:stedsnr" v="924724" />
	</node>
	<node lat="64.5046888917539" lon="10.976233330476466" id="-37058">
		<tag k="fixme" v="consider place=hamlet" />
		<tag k="name" v="Knotten" />
		<tag k="place" v="farm" />
		<tag k="ssr:stedsnr" v="924726" />
	</node>
	<node lat="64.48851944209298" lon="10.680322218959414" id="-37071">
		<tag k="fixme" v="consider place=hamlet" />
		<tag k="name" v="Hanøya" />
=======
	<node id="-791263" lat="64.4352361116" lon="10.9221361168">
		<tag k="historic" v="shieling" />
		<tag k="name" v="Plassaseteren" />
		<tag k="place" v="locality" />
		<tag k="ssr:stedsnr" v="595748" />
	</node>
	<node id="-790747" lat="64.5164583377" lon="11.0192638955">
		<tag k="historic" v="shieling" />
		<tag k="name" v="Sitterseteren" />
		<tag k="place" v="locality" />
		<tag k="ssr:stedsnr" v="170308" />
	</node>
	<node id="-789720" lat="64.461177779" lon="10.8871249993">
		<tag k="historic" v="shieling" />
		<tag k="name" v="Sør-Fløanseteren" />
		<tag k="place" v="locality" />
		<tag k="ssr:stedsnr" v="473990" />
	</node>
	<node id="-790231" lat="64.4662083294" lon="10.9595055613">
		<tag k="name" v="Skjelde" />
>>>>>>> e1d4bc35ff8a6074a6f2e91616a996b547c36f15
		<tag k="place" v="farm" />
		<tag k="ssr:stedsnr" v="849579" />
	</node>
<<<<<<< HEAD
	<node lat="64.54698228518737" lon="10.692902990576927" id="-37072">
		<tag k="fixme" v="consider place=hamlet" />
		<tag k="name" v="Villa" />
		<tag k="place" v="farm" />
		<tag k="ssr:stedsnr" v="849584" />
	</node>
	<node lat="64.32038055576574" lon="10.944436108768189" id="-37080">
		<tag k="name" v="Sørseteren" />
=======
	<node id="-789718" lat="64.4293805534" lon="10.9679027754">
		<tag k="name" v="Mariplassen" />
		<tag k="place" v="locality" />
		<tag k="ssr:stedsnr" v="473963" />
	</node>
	<node id="-789717" lat="64.3883166667" lon="10.9070388857">
		<tag k="historic" v="shieling" />
		<tag k="name" v="Sivertseteren" />
>>>>>>> e1d4bc35ff8a6074a6f2e91616a996b547c36f15
		<tag k="place" v="locality" />
		<tag k="ssr:stedsnr" v="864343" />
	</node>
<<<<<<< HEAD
	<node lat="64.46770555590601" lon="10.768600006283883" id="-37081">
		<tag k="name" v="Vannavika" />
=======
	<node id="-790223" lat="64.5874361138" lon="10.9493305491">
		<tag k="name" v="Breivoll" />
>>>>>>> e1d4bc35ff8a6074a6f2e91616a996b547c36f15
		<tag k="place" v="farm" />
		<tag k="ssr:stedsnr" v="864412" />
	</node>
<<<<<<< HEAD
	<node lat="64.38707777919075" lon="10.630366673489329" id="-37088">
		<tag k="name" v="Bølemyra" />
		<tag k="place" v="farm" />
		<tag k="ssr:stedsnr" v="876028" />
	</node>
	<node lat="64.52995555242165" lon="10.9814027675796" id="-37091">
		<tag k="fixme" v="consider place=hamlet" />
		<tag k="name" v="Sitter" />
		<tag k="place" v="farm" />
		<tag k="ssr:stedsnr" v="878802" />
	</node>
	<node lat="64.47730277701781" lon="10.871919434676856" id="-37119">
		<tag k="historic" v="shieling" />
		<tag k="name" v="Takliseteren" />
		<tag k="place" v="isolated_dwelling" />
		<tag k="ssr:stedsnr" v="899862" />
	</node>
	<node lat="64.43731358838502" lon="10.80816265036659" id="-37127">
		<tag k="name" v="Vedvika" />
		<tag k="place" v="farm" />
		<tag k="ssr:stedsnr" v="910578" />
	</node>
	<node lat="64.36534166684346" lon="10.824372220986469" id="-37130">
		<tag k="fixme" v="consider place=hamlet" />
		<tag k="name" v="Jøssund" />
		<tag k="place" v="farm" />
		<tag k="ssr:stedsnr" v="924329" />
	</node>
	<node lat="64.43922500049703" lon="10.815963881886002" id="-37137">
		<tag k="name" v="Vedvikbakkan" />
=======
	<node id="-791243" lat="64.5440138887" lon="10.8797055491">
		<tag k="name" v="Sørplassen" />
		<tag k="place" v="locality" />
		<tag k="ssr:stedsnr" v="594795" />
	</node>
	<node id="-790218" lat="64.4373135884" lon="10.8081626504">
		<tag k="name" v="Vedvika" />
		<tag k="place" v="farm" />
		<tag k="ssr:stedsnr" v="910578" />
	</node>
	<node id="-791237" lat="64.3248694448" lon="10.877891668">
		<tag k="name" v="Moen" />
>>>>>>> e1d4bc35ff8a6074a6f2e91616a996b547c36f15
		<tag k="place" v="farm" />
		<tag k="ssr:stedsnr" v="924429" />
	</node>
<<<<<<< HEAD
	<node lat="64.58148889098875" lon="10.997341662771088" id="-37140">
		<tag k="name" v="Teigmoen" />
		<tag k="place" v="farm" />
		<tag k="ssr:stedsnr" v="924566" />
	</node>
	<node lat="64.56532778184483" lon="11.065194448593562" id="-37145">
		<tag k="fixme" v="consider place=hamlet" />
		<tag k="name" v="Sandmoen" />
		<tag k="place" v="farm" />
		<tag k="ssr:stedsnr" v="924586" />
	</node>
	<node lat="64.53796111037995" lon="10.977224995815225" id="-37150">
		<tag k="name" v="Brenna" />
		<tag k="place" v="farm" />
		<tag k="ssr:stedsnr" v="925725" />
	</node>
	<node lat="64.52887777849783" lon="10.98611944627497" id="-37151">
		<tag k="fixme" v="consider place=hamlet" />
		<tag k="name" v="Sitter" />
		<tag k="place" v="village" />
		<tag k="ssr:stedsnr" v="925731" />
	</node>
	<node lat="64.47851944058561" lon="10.719719440620946" id="-37156">
		<tag k="name" v="Barsvika" />
		<tag k="place" v="locality" />
		<tag k="ssr:stedsnr" v="937103" />
	</node>
	<node lat="64.33766621290921" lon="10.865167498082306" id="-37187">
		<tag k="fixme" v="consider place=hamlet" />
		<tag k="name" v="Oppland" />
		<tag k="place" v="village" />
		<tag k="ssr:stedsnr" v="970145" />
	</node>
	<node lat="64.4496775572077" lon="10.976380556985154" id="-37188">
		<tag k="name" v="Dala" />
=======
	<node id="-790211" lat="64.4529666646" lon="10.7549750081">
		<tag k="amenity" v="school" />
		<tag k="name" v="Flatanger montessoriskole" />
		<tag k="ssr:stedsnr" v="908217" />
	</node>
	<node id="-789698" lat="64.4790388928" lon="10.8852361146">
		<tag k="historic" v="shieling" />
		<tag k="name" v="Finnsteinseteren" />
		<tag k="place" v="locality" />
		<tag k="ssr:stedsnr" v="473853" />
	</node>
	<node id="-791231" lat="64.4397444479" lon="10.5716555502">
		<tag k="name" v="Gammelgården" />
		<tag k="place" v="locality" />
		<tag k="ssr:stedsnr" v="590010" />
	</node>
	<node id="-790206" lat="64.5271805553" lon="10.9866583365">
		<tag k="name" v="Elverhøy" />
>>>>>>> e1d4bc35ff8a6074a6f2e91616a996b547c36f15
		<tag k="place" v="farm" />
		<tag k="ssr:stedsnr" v="970191" />
	</node>
	<node lat="64.44187499907083" lon="10.745491672040702" id="-37204">
		<tag k="name" v="Kilan" />
		<tag k="place" v="isolated_dwelling" />
		<tag k="ssr:stedsnr" v="14385" />
	</node>
<<<<<<< HEAD
	<node lat="64.44528199655967" lon="10.600655180029124" id="-37220">
		<tag k="fixme" v="consider place=hamlet" />
		<tag k="name" v="Hasvåg" />
		<tag k="place" v="farm" />
		<tag k="ssr:stedsnr" v="14597" />
	</node>
	<node lat="64.50299166964997" lon="10.946683343694659" id="-37222">
		<tag k="name" v="Vollan" />
		<tag k="place" v="farm" />
		<tag k="ssr:stedsnr" v="14699" />
	</node>
	<node lat="64.46144444306024" lon="10.782686110090744" id="-37238">
		<tag k="name" v="Trefjordneset" />
		<tag k="place" v="farm" />
		<tag k="ssr:stedsnr" v="25100" />
	</node>
	<node lat="64.36587500437115" lon="10.808752770531088" id="-37255">
		<tag k="name" v="Dølin" />
		<tag k="place" v="locality" />
		<tag k="ssr:stedsnr" v="48871" />
	</node>
	<node lat="64.53860833509223" lon="10.79598610559506" id="-37262">
		<tag k="name" v="Bolighamn" />
		<tag k="place" v="locality" />
		<tag k="ssr:stedsnr" v="48834" />
	</node>
	<node lat="64.57066666825325" lon="10.939030563671047" id="-37265">
		<tag k="name" v="Dalavika" />
		<tag k="place" v="farm" />
		<tag k="ssr:stedsnr" v="48880" />
	</node>
	<node lat="64.58745555511823" lon="10.943274996951088" id="-37266">
		<tag k="name" v="Stranda" />
=======
	<node id="-789692" lat="64.4328083357" lon="10.7247055625">
		<tag k="historic" v="shieling" />
		<tag k="name" v="Hårnesseteren" />
		<tag k="place" v="locality" />
		<tag k="ssr:stedsnr" v="473769" />
	</node>
	<node id="-789706" lat="64.3638222251" lon="10.8203416739">
		<tag k="name" v="Moan" />
		<tag k="place" v="locality" />
		<tag k="ssr:stedsnr" v="473884" />
	</node>
	<node id="-790047" lat="64.353394443" lon="10.7390416577">
		<tag k="historic" v="shieling" />
		<tag k="name" v="Øykvikseteren" />
		<tag k="place" v="locality" />
		<tag k="ssr:stedsnr" v="716919" />
	</node>
	<node id="-790814" lat="64.4727777796" lon="10.7021972286">
		<tag k="name" v="Kvaløyseter" />
		<tag k="place" v="hamlet" />
		<tag k="ssr:stedsnr" v="207107" />
	</node>
	<node id="-790704" lat="64.5268583332" lon="10.9904916583">
		<tag k="name" v="Bjørkås" />
>>>>>>> e1d4bc35ff8a6074a6f2e91616a996b547c36f15
		<tag k="place" v="farm" />
		<tag k="ssr:stedsnr" v="48883" />
	</node>
<<<<<<< HEAD
	<node lat="64.45406746001483" lon="10.69755805478206" id="-37306">
		<tag k="name" v="Vikdalen" />
=======
	<node id="-790191" lat="64.4735305553" lon="10.7956027804">
		<tag k="name" v="Hylla" />
>>>>>>> e1d4bc35ff8a6074a6f2e91616a996b547c36f15
		<tag k="place" v="farm" />
		<tag k="ssr:stedsnr" v="60536" />
	</node>
<<<<<<< HEAD
	<node lat="64.47618611018582" lon="10.773938885445757" id="-37307">
		<tag k="name" v="Hillstad" />
		<tag k="place" v="farm" />
		<tag k="ssr:stedsnr" v="60555" />
	</node>
	<node lat="64.46079999623474" lon="10.765116661778336" id="-37311">
		<tag k="name" v="Nordstrand" />
		<tag k="place" v="farm" />
		<tag k="ssr:stedsnr" v="74480" />
	</node>
	<node lat="64.4374527767622" lon="10.780986105870134" id="-37312">
		<tag k="name" v="Floan" />
=======
	<node id="-790189" lat="64.4531777783" lon="10.8615666661">
		<tag k="historic" v="shieling" />
		<tag k="name" v="Årfjordsetran" />
		<tag k="place" v="locality" />
		<tag k="ssr:stedsnr" v="741559" />
	</node>
	<node id="-790700" lat="64.5278999974" lon="10.7853166745">
		<tag k="name" v="Bekkavika" />
>>>>>>> e1d4bc35ff8a6074a6f2e91616a996b547c36f15
		<tag k="place" v="farm" />
		<tag k="ssr:stedsnr" v="74452" />
	</node>
<<<<<<< HEAD
	<node lat="64.58343779667567" lon="10.923300373439226" id="-37314">
=======
	<node id="-790187" lat="64.3781854906" lon="10.8430121936">
>>>>>>> e1d4bc35ff8a6074a6f2e91616a996b547c36f15
		<tag k="fixme" v="consider place=hamlet" />
		<tag k="name" v="Bjørgan" />
		<tag k="place" v="farm" />
		<tag k="ssr:stedsnr" v="74582" />
	</node>
<<<<<<< HEAD
	<node lat="64.58678055903054" lon="10.936936111093752" id="-37315">
		<tag k="name" v="Leirvika" />
=======
	<node id="-789447" lat="64.4314313626" lon="10.6141877839">
		<tag k="fixme" v="consider place=hamlet" />
		<tag k="name" v="Håstad" />
		<tag k="place" v="farm" />
		<tag k="ssr:stedsnr" v="256640" />
	</node>
	<node id="-789672" lat="64.4841850075" lon="10.7849445347">
		<tag k="name" v="Glasøya" />
>>>>>>> e1d4bc35ff8a6074a6f2e91616a996b547c36f15
		<tag k="place" v="farm" />
		<tag k="ssr:stedsnr" v="74583" />
	</node>
<<<<<<< HEAD
	<node lat="64.44076944471425" lon="10.597316670161405" id="-37318">
		<tag k="name" v="Åkvika" />
		<tag k="place" v="farm" />
		<tag k="ssr:stedsnr" v="74649" />
	</node>
	<node lat="64.3857340062686" lon="10.627336797692148" id="-37333">
		<tag k="fixme" v="consider place=hamlet" />
		<tag k="name" v="Bøle" />
=======
	<node id="-791206" lat="64.432063888" lon="10.8068249992">
		<tag k="name" v="Hattavika" />
		<tag k="place" v="isolated_dwelling" />
		<tag k="ssr:stedsnr" v="566472" />
	</node>
	<node id="-789873" lat="64.3927499958" lon="10.8909833298">
		<tag k="historic" v="shieling" />
		<tag k="name" v="Laukvikseteren" />
		<tag k="place" v="locality" />
		<tag k="ssr:stedsnr" v="655965" />
	</node>
	<node id="-790180" lat="64.5653277818" lon="11.0651944486">
		<tag k="name" v="Sandmoen" />
>>>>>>> e1d4bc35ff8a6074a6f2e91616a996b547c36f15
		<tag k="place" v="farm" />
		<tag k="ssr:stedsnr" v="75738" />
	</node>
<<<<<<< HEAD
	<node lat="64.51531389097536" lon="10.751805547538554" id="-37337">
		<tag k="name" v="Svinvika" />
=======
	<node id="-791202" lat="64.5140499992" lon="10.8198972205">
		<tag k="name" v="Skavsanden" />
>>>>>>> e1d4bc35ff8a6074a6f2e91616a996b547c36f15
		<tag k="place" v="isolated_dwelling" />
		<tag k="ssr:stedsnr" v="75757" />
	</node>
<<<<<<< HEAD
	<node lat="64.5037749973553" lon="10.848644440387954" id="-37338">
		<tag k="name" v="Kjærsundet" />
		<tag k="place" v="farm" />
		<tag k="ssr:stedsnr" v="75784" />
	</node>
	<node lat="64.50408333555858" lon="10.927844441056568" id="-37347">
		<tag k="name" v="Vågan" />
=======
	<node id="-791713" lat="64.4496775572" lon="10.976380557">
		<tag k="name" v="Dala" />
		<tag k="place" v="farm" />
		<tag k="ssr:stedsnr" v="970191" />
	</node>
	<node id="-791712" lat="64.3376662129" lon="10.8651674981">
		<tag k="fixme" v="consider place=hamlet" />
		<tag k="name" v="Oppland" />
		<tag k="place" v="village" />
		<tag k="ssr:stedsnr" v="970145" />
	</node>
	<node id="-791711" lat="64.4139322414" lon="10.6411922504">
		<tag k="name" v="Uran" />
>>>>>>> e1d4bc35ff8a6074a6f2e91616a996b547c36f15
		<tag k="place" v="farm" />
		<tag k="ssr:stedsnr" v="87153" />
	</node>
<<<<<<< HEAD
	<node lat="64.46853611054928" lon="10.818302780222558" id="-37404">
		<tag k="name" v="Brandsmoen" />
		<tag k="place" v="farm" />
		<tag k="ssr:stedsnr" v="135472" />
	</node>
	<node lat="64.44251389342445" lon="10.978836101195977" id="-37409">
		<tag k="name" v="Myrvang" />
=======
	<node id="-789957" lat="64.50315833" lon="10.7272111087">
		<tag k="name" v="Plassen" />
		<tag k="place" v="locality" />
		<tag k="ssr:stedsnr" v="512108" />
	</node>
	<node id="-789531" lat="64.3090222193" lon="10.8574055593">
		<tag k="historic" v="shieling" />
		<tag k="name" v="Jørgenseteren" />
		<tag k="place" v="locality" />
		<tag k="ssr:stedsnr" v="290498" />
	</node>
	<node id="-789659" lat="64.5088777817" lon="10.9164944456">
		<tag k="name" v="Haugen" />
>>>>>>> e1d4bc35ff8a6074a6f2e91616a996b547c36f15
		<tag k="place" v="farm" />
		<tag k="ssr:stedsnr" v="135450" />
	</node>
<<<<<<< HEAD
	<node lat="64.45456853591162" lon="10.69405091246294" id="-37412">
		<tag k="fixme" v="consider place=hamlet" />
		<tag k="name" v="Vikdalen" />
		<tag k="place" v="farm" />
		<tag k="ssr:stedsnr" v="135624" />
	</node>
	<node lat="64.52685833315269" lon="10.990491658315657" id="-37423">
		<tag k="name" v="Bjørkås" />
		<tag k="place" v="farm" />
		<tag k="ssr:stedsnr" v="136677" />
	</node>
	<node lat="64.41186533836641" lon="10.675995655715852" id="-37471">
		<tag k="name" v="Austvika" />
		<tag k="place" v="farm" />
		<tag k="ssr:stedsnr" v="181598" />
	</node>
	<node lat="64.4678412119395" lon="10.914737586858111" id="-37472">
		<tag k="name" v="Fløan" />
		<tag k="place" v="farm" />
		<tag k="ssr:stedsnr" v="181622" />
	</node>
	<node lat="64.42678882318205" lon="10.970937332873207" id="-37479">
		<tag k="name" v="Morka" />
=======
	<node id="-791192" lat="64.4718388918" lon="10.7034694352">
		<tag k="name" v="Kvaløyseteren" />
		<tag k="place" v="farm" />
		<tag k="ssr:stedsnr" v="559639" />
	</node>
	<node id="-791189" lat="64.4274755184" lon="10.6572879127">
		<tag k="name" v="Båtsvika" />
		<tag k="old_name" v="Bosviken;Båsvika" />
		<tag k="place" v="farm" />
		<tag k="ssr:stedsnr" v="559686" />
	</node>
	<node id="-791699" lat="64.4606138882" lon="10.9153611045">
		<tag k="name" v="Vassbakken" />
		<tag k="place" v="isolated_dwelling" />
		<tag k="ssr:stedsnr" v="959982" />
	</node>
	<node id="-791186" lat="64.426069441" lon="10.5828333323">
		<tag k="alt_name" v="Hårstadstranda" />
		<tag k="name" v="Håstadstranda" />
		<tag k="place" v="farm" />
		<tag k="ssr:stedsnr" v="559674" />
	</node>
	<node id="-789784" lat="64.4694722189" lon="10.702386102">
		<tag k="name" v="Moen" />
		<tag k="place" v="farm" />
		<tag k="ssr:stedsnr" v="499573" />
	</node>
	<node id="-789734" lat="64.5507484012" lon="10.9085581882">
		<tag k="fixme" v="consider place=hamlet" />
		<tag k="name" v="Feøya" />
		<tag k="place" v="farm" />
		<tag k="ssr:stedsnr" v="317562" />
	</node>
	<node id="-791490" lat="64.5840659037" lon="10.9231037912">
		<tag k="name" v="Bjørgan" />
		<tag k="place" v="farm" />
		<tag k="ssr:stedsnr" v="788589" />
	</node>
	<node id="-790154" lat="64.3094833373" lon="10.8795194518">
		<tag k="historic" v="shieling" />
		<tag k="name" v="Gammelseteren" />
		<tag k="place" v="locality" />
		<tag k="ssr:stedsnr" v="897530" />
	</node>
	<node id="-790375" lat="64.5046888918" lon="10.9762333305">
		<tag k="fixme" v="consider place=hamlet" />
		<tag k="name" v="Knotten" />
		<tag k="place" v="farm" />
		<tag k="ssr:stedsnr" v="924726" />
	</node>
	<node id="-791174" lat="64.3780151731" lon="10.8417618592">
		<tag k="name" v="Laukvika" />
>>>>>>> e1d4bc35ff8a6074a6f2e91616a996b547c36f15
		<tag k="place" v="farm" />
		<tag k="ssr:stedsnr" v="196399" />
	</node>
<<<<<<< HEAD
	<node lat="64.39386389085655" lon="10.642408342573683" id="-37499">
		<tag k="name" v="Bøleseteren" />
=======
	<node id="-791173" lat="64.4990944482" lon="10.7609916581">
		<tag k="fixme" v="consider place=hamlet" />
		<tag k="name" v="Dragøya" />
>>>>>>> e1d4bc35ff8a6074a6f2e91616a996b547c36f15
		<tag k="place" v="farm" />
		<tag k="ssr:stedsnr" v="196675" />
	</node>
<<<<<<< HEAD
	<node lat="64.50336388689495" lon="10.989988897418018" id="-37501">
		<tag k="name" v="Fjellheim" />
		<tag k="place" v="farm" />
		<tag k="ssr:stedsnr" v="196732" />
	</node>
	<node lat="64.4207249998958" lon="10.567452787200349" id="-37502">
		<tag k="name" v="Sellevika" />
		<tag k="place" v="isolated_dwelling" />
		<tag k="ssr:stedsnr" v="196623" />
	</node>
	<node lat="64.52992500434726" lon="10.988316676453387" id="-37511">
		<tag k="alt_name" v="Sitter, øvre" />
		<tag k="name" v="Øvre Sitter" />
=======
	<node id="-791172" lat="64.4975388851" lon="10.8977805522">
		<tag k="name" v="Fjærasteinan" />
		<tag k="place" v="quarter" />
		<tag k="ssr:stedsnr" v="545094" />
	</node>
	<node id="-789632" lat="64.3807316939" lon="10.7497231623">
		<tag k="fixme" v="consider place=hamlet" />
		<tag k="name" v="Hestdalen" />
		<tag k="place" v="farm" />
		<tag k="ssr:stedsnr" v="256254" />
	</node>
	<node id="-789630" lat="64.472133336" lon="10.834119435">
		<tag k="name" v="Risskogen" />
>>>>>>> e1d4bc35ff8a6074a6f2e91616a996b547c36f15
		<tag k="place" v="farm" />
		<tag k="ssr:stedsnr" v="197699" />
	</node>
<<<<<<< HEAD
	<node lat="64.30902221932216" lon="10.85740555933095" id="-37530">
		<tag k="historic" v="shieling" />
		<tag k="name" v="Jørgenseteren" />
		<tag k="place" v="isolated_dwelling" />
		<tag k="ssr:stedsnr" v="290498" />
	</node>
	<node lat="64.46388889261331" lon="10.90715555476255" id="-37555">
		<tag k="name" v="Gjerdet" />
		<tag k="place" v="farm" />
		<tag k="ssr:stedsnr" v="292840" />
	</node>
	<node lat="64.4711583298328" lon="10.812505555264101" id="-37569">
		<tag k="name" v="Bekkjavika" />
		<tag k="place" v="farm" />
		<tag k="ssr:stedsnr" v="317350" />
	</node>
	<node lat="64.46340833652238" lon="10.910705560878615" id="-37575">
		<tag k="name" v="Fløaaunet" />
		<tag k="place" v="farm" />
		<tag k="ssr:stedsnr" v="317439" />
	</node>
	<node lat="64.55074840122171" lon="10.908558188188433" id="-37583">
		<tag k="fixme" v="consider place=hamlet" />
		<tag k="name" v="Feøya" />
		<tag k="place" v="farm" />
		<tag k="ssr:stedsnr" v="317562" />
	</node>
	<node lat="64.4720944405102" lon="10.697661121104245" id="-37585">
		<tag k="name" v="Flottan" />
		<tag k="place" v="farm" />
		<tag k="ssr:stedsnr" v="317584" />
	</node>
	<node lat="64.48139722361043" lon="10.746108328924294" id="-37609">
		<tag k="name" v="Nordhals" />
=======
	<node id="-791677" lat="64.3630138908" lon="10.8066944524">
		<tag k="name" v="Skjellenget" />
		<tag k="place" v="locality" />
		<tag k="ssr:stedsnr" v="958889" />
	</node>
	<node id="-791160" lat="64.3667972238" lon="10.8238305652">
		<tag k="name" v="Bakken" />
		<tag k="place" v="farm" />
		<tag k="ssr:stedsnr" v="534933" />
	</node>
	<node id="-791158" lat="64.3473666672" lon="10.7294777865">
		<tag k="historic" v="shieling" />
		<tag k="name" v="Nekolaitømtet" />
		<tag k="place" v="locality" />
		<tag k="ssr:stedsnr" v="534924" />
	</node>
	<node id="-789619" lat="64.5727619953" lon="10.846572997">
		<tag k="fixme" v="consider place=hamlet" />
		<tag k="name" v="Bjørøya" />
		<tag k="place" v="farm" />
		<tag k="ssr:stedsnr" v="450169" />
	</node>
	<node id="-790642" lat="64.3504194478" lon="10.7934305584">
		<tag k="historic" v="shieling" />
		<tag k="name" v="Taraldlinaeteren" />
		<tag k="place" v="locality" />
		<tag k="ssr:stedsnr" v="109869" />
	</node>
	<node id="-790690" lat="64.4685361105" lon="10.8183027802">
		<tag k="name" v="Brandsmoen" />
		<tag k="place" v="farm" />
		<tag k="ssr:stedsnr" v="135472" />
	</node>
	<node id="-791151" lat="64.3756805539" lon="10.8441444499">
		<tag k="name" v="Myran" />
		<tag k="place" v="farm" />
		<tag k="ssr:stedsnr" v="534882" />
	</node>
	<node id="-790461" lat="64.5642138876" lon="10.855661111">
		<tag k="name" v="Riøya" />
		<tag k="place" v="farm" />
		<tag k="ssr:stedsnr" v="25182" />
	</node>
	<node id="-791145" lat="64.5526444464" lon="11.0353999914">
		<tag k="historic" v="shieling" />
		<tag k="name" v="Sandmosetran" />
>>>>>>> e1d4bc35ff8a6074a6f2e91616a996b547c36f15
		<tag k="place" v="locality" />
		<tag k="ssr:stedsnr" v="330107" />
	</node>
<<<<<<< HEAD
	<node lat="64.40094444436431" lon="10.994166671986745" id="-37625">
		<tag k="name" v="Nonshaugen" />
		<tag k="place" v="locality" />
		<tag k="ssr:stedsnr" v="351778" />
	</node>
	<node lat="64.47810758244802" lon="10.844028634328868" id="-37661">
		<tag k="name" v="Haustlandet" />
=======
	<node id="-789436" lat="64.5037749974" lon="10.8486444404">
		<tag k="name" v="Kjærsundet" />
		<tag k="place" v="farm" />
		<tag k="ssr:stedsnr" v="75784" />
	</node>
	<node id="-790801" lat="64.5033638869" lon="10.9899888974">
		<tag k="name" v="Fjellheim" />
		<tag k="place" v="farm" />
		<tag k="ssr:stedsnr" v="196732" />
	</node>
	<node id="-790116" lat="64.5246333376" lon="10.8027777757">
		<tag k="name" v="Bakkan" />
>>>>>>> e1d4bc35ff8a6074a6f2e91616a996b547c36f15
		<tag k="place" v="farm" />
		<tag k="ssr:stedsnr" v="363529" />
	</node>
<<<<<<< HEAD
	<node lat="64.45599722272969" lon="10.75916110786667" id="-37671">
		<tag k="fixme" v="consider place=hamlet" />
		<tag k="name" v="Vik" />
		<tag k="place" v="village" />
		<tag k="ssr:stedsnr" v="377478" />
	</node>
	<node lat="64.55774444593611" lon="10.892511118957431" id="-37678">
		<tag k="name" v="Klungvika" />
=======
	<node id="-790115" lat="64.5295388882" lon="11.0137666752">
		<tag k="name" v="Fossan" />
		<tag k="place" v="locality" />
		<tag k="ssr:stedsnr" v="682715" />
	</node>
	<node id="-789459" lat="64.4649361087" lon="10.9017166672">
		<tag k="alt_name" v="Aunet" />
		<tag k="name" v="Fløanaunet" />
>>>>>>> e1d4bc35ff8a6074a6f2e91616a996b547c36f15
		<tag k="place" v="farm" />
		<tag k="ssr:stedsnr" v="377592" />
	</node>
<<<<<<< HEAD
	<node lat="64.43268069038027" lon="10.57489121484259" id="-37680">
		<tag k="fixme" v="consider place=hamlet" />
		<tag k="name" v="Ørsnevet" />
=======
	<node id="-790110" lat="64.3971852044" lon="10.6373823822">
		<tag k="name" v="Bølestranda" />
>>>>>>> e1d4bc35ff8a6074a6f2e91616a996b547c36f15
		<tag k="place" v="farm" />
		<tag k="ssr:stedsnr" v="377670" />
	</node>
<<<<<<< HEAD
	<node lat="64.4323583346198" lon="10.648880563863333" id="-37681">
		<tag k="fixme" v="consider place=hamlet" />
		<tag k="name" v="Hårnes" />
		<tag k="place" v="farm" />
		<tag k="ssr:stedsnr" v="377664" />
	</node>
	<node lat="64.40972777362879" lon="11.069697217512342" id="-37685">
		<tag k="historic" v="shieling" />
		<tag k="name" v="Mefosseteren" />
=======
	<node id="-790109" lat="64.4380361103" lon="10.5871444349">
		<tag k="name" v="Steinvika" />
>>>>>>> e1d4bc35ff8a6074a6f2e91616a996b547c36f15
		<tag k="place" v="isolated_dwelling" />
		<tag k="ssr:stedsnr" v="378286" />
	</node>
<<<<<<< HEAD
	<node lat="64.33897777794908" lon="10.873388898212774" id="-37690">
		<tag k="name" v="Austerbakkan" />
=======
	<node id="-791131" lat="64.3215805527" lon="10.8770055568">
		<tag k="name" v="Aunet" />
>>>>>>> e1d4bc35ff8a6074a6f2e91616a996b547c36f15
		<tag k="place" v="farm" />
		<tag k="ssr:stedsnr" v="378346" />
	</node>
<<<<<<< HEAD
	<node lat="64.49588888799417" lon="10.880761101608746" id="-37706">
		<tag k="name" v="Berg" />
=======
	<node id="-790106" lat="64.447847218" lon="10.565952784">
		<tag k="fixme" v="consider place=hamlet" />
		<tag k="name" v="Urholmen" />
>>>>>>> e1d4bc35ff8a6074a6f2e91616a996b547c36f15
		<tag k="place" v="farm" />
		<tag k="ssr:stedsnr" v="390169" />
	</node>
<<<<<<< HEAD
	<node lat="64.36070833329589" lon="10.809855560999193" id="-37729">
		<tag k="name" v="Haldoren" />
		<tag k="place" v="locality" />
		<tag k="ssr:stedsnr" v="412854" />
	</node>
	<node lat="64.38070414224181" lon="10.752342477071956" id="-37750">
		<tag k="name" v="Hestdalen" />
=======
	<node id="-790105" lat="64.3329027776" lon="10.861450008">
		<tag k="name" v="Haugset" />
		<tag k="place" v="farm" />
		<tag k="ssr:stedsnr" v="681307" />
	</node>
	<node id="-790104" lat="64.453816669" lon="10.9372027833">
		<tag k="alt_name" v="Botnet" />
		<tag k="name" v="Dalabotnet" />
>>>>>>> e1d4bc35ff8a6074a6f2e91616a996b547c36f15
		<tag k="place" v="farm" />
		<tag k="ssr:stedsnr" v="424566" />
	</node>
<<<<<<< HEAD
	<node lat="64.50017777936894" lon="10.903052780206014" id="-37754">
		<tag k="name" v="Nordheim" />
=======
	<node id="-791635" lat="64.3394027757" lon="10.8667305485">
		<tag k="name" v="Bakkan" />
		<tag k="place" v="farm" />
		<tag k="ssr:stedsnr" v="864366" />
	</node>
	<node id="-790613" lat="64.5040833356" lon="10.9278444411">
		<tag k="name" v="Vågan" />
>>>>>>> e1d4bc35ff8a6074a6f2e91616a996b547c36f15
		<tag k="place" v="farm" />
		<tag k="ssr:stedsnr" v="439750" />
	</node>
<<<<<<< HEAD
	<node lat="64.43869272698666" lon="10.812268063416301" id="-37756">
		<tag k="fixme" v="consider place=hamlet" />
		<tag k="name" v="Vedvika" />
		<tag k="place" v="farm" />
		<tag k="ssr:stedsnr" v="438432" />
	</node>
	<node lat="64.45976422953547" lon="10.790588915517061" id="-37761">
		<tag k="name" v="Trefjord" />
=======
	<node id="-790192" lat="64.4735361076" lon="10.7793166607">
		<tag k="fixme" v="consider place=hamlet" />
		<tag k="name" v="Hillstad" />
		<tag k="place" v="farm" />
		<tag k="ssr:stedsnr" v="742361" />
	</node>
	<node id="-790097" lat="64.5299555524" lon="10.9814027676">
		<tag k="fixme" v="consider place=hamlet" />
		<tag k="name" v="Sitter" />
>>>>>>> e1d4bc35ff8a6074a6f2e91616a996b547c36f15
		<tag k="place" v="farm" />
		<tag k="ssr:stedsnr" v="438463" />
	</node>
<<<<<<< HEAD
	<node lat="64.33485000244028" lon="10.86011110248042" id="-37763">
		<tag k="name" v="Øyan" />
		<tag k="place" v="farm" />
		<tag k="ssr:stedsnr" v="439323" />
	</node>
	<node lat="64.47538611197561" lon="10.840244449523677" id="-37781">
		<tag k="name" v="Litlrisskogen" />
=======
	<node id="-791632" lat="64.3203805558" lon="10.9444361088">
		<tag k="name" v="Sørseteren" />
		<tag k="place" v="locality" />
		<tag k="ssr:stedsnr" v="864343" />
	</node>
	<node id="-789998" lat="64.5812916699" lon="11.0131388874">
		<tag k="name" v="Bakken" />
>>>>>>> e1d4bc35ff8a6074a6f2e91616a996b547c36f15
		<tag k="place" v="farm" />
		<tag k="ssr:stedsnr" v="559570" />
	</node>
<<<<<<< HEAD
	<node lat="64.48390615121262" lon="10.784511074534201" id="-37783">
		<tag k="fixme" v="consider place=hamlet" />
		<tag k="name" v="Glasøya" />
=======
	<node id="-789581" lat="64.3348500024" lon="10.8601111025">
		<tag k="name" v="Øyan" />
>>>>>>> e1d4bc35ff8a6074a6f2e91616a996b547c36f15
		<tag k="place" v="farm" />
		<tag k="ssr:stedsnr" v="439391" />
	</node>
<<<<<<< HEAD
	<node lat="64.3438055551881" lon="10.854963882705318" id="-37805">
		<tag k="name" v="Aunan" />
=======
	<node id="-790602" lat="64.3857340063" lon="10.6273367977">
		<tag k="fixme" v="consider place=hamlet" />
		<tag k="name" v="Bøle" />
>>>>>>> e1d4bc35ff8a6074a6f2e91616a996b547c36f15
		<tag k="place" v="farm" />
		<tag k="ssr:stedsnr" v="499274" />
	</node>
<<<<<<< HEAD
	<node lat="64.59322222232487" lon="10.957311102893867" id="-37812">
		<tag k="fixme" v="consider place=hamlet" />
		<tag k="name" v="Utvorda" />
		<tag k="place" v="village" />
		<tag k="ssr:stedsnr" v="499462" />
	</node>
	<node lat="64.46947221885203" lon="10.702386101965814" id="-37817">
		<tag k="name" v="Moen" />
		<tag k="place" v="farm" />
		<tag k="ssr:stedsnr" v="499573" />
	</node>
	<node lat="64.5998705642871" lon="10.892495947163429" id="-37833">
=======
	<node id="-789431" lat="64.4963138883" lon="10.9002916598">
		<tag k="name" v="Vangen" />
		<tag k="place" v="farm" />
		<tag k="ssr:stedsnr" v="74403" />
	</node>
	<node id="-791619" lat="64.4498239922" lon="10.9759114063">
>>>>>>> e1d4bc35ff8a6074a6f2e91616a996b547c36f15
		<tag k="fixme" v="consider place=hamlet" />
		<tag k="name" v="Skingen" />
		<tag k="place" v="farm" />
		<tag k="ssr:stedsnr" v="510171" />
	</node>
<<<<<<< HEAD
	<node lat="64.46056388894989" lon="10.76225833279457" id="-37837">
		<tag k="name" v="Skaret" />
		<tag k="place" v="farm" />
		<tag k="ssr:stedsnr" v="511124" />
	</node>
	<node lat="64.37568055392819" lon="10.844144449948157" id="-37854">
		<tag k="name" v="Myran" />
		<tag k="place" v="farm" />
		<tag k="ssr:stedsnr" v="534882" />
	</node>
	<node lat="64.5526444463764" lon="11.035399991414241" id="-37865">
		<tag k="historic" v="shieling" />
		<tag k="name" v="Sandmosetran" />
=======
	<node id="-789568" lat="64.4207249999" lon="10.5674527872">
		<tag k="name" v="Sellevika" />
>>>>>>> e1d4bc35ff8a6074a6f2e91616a996b547c36f15
		<tag k="place" v="isolated_dwelling" />
		<tag k="ssr:stedsnr" v="534339" />
	</node>
<<<<<<< HEAD
	<node lat="64.34736666716626" lon="10.729477786514481" id="-37870">
		<tag k="historic" v="shieling" />
		<tag k="name" v="Nekolaitømtet" />
=======
	<node id="-790079" lat="64.4669500022" lon="10.7301222267">
		<tag k="name" v="Vikstrand" />
>>>>>>> e1d4bc35ff8a6074a6f2e91616a996b547c36f15
		<tag k="place" v="isolated_dwelling" />
		<tag k="ssr:stedsnr" v="534924" />
	</node>
<<<<<<< HEAD
	<node lat="64.36679722382723" lon="10.823830565198383" id="-37872">
		<tag k="name" v="Bakken" />
		<tag k="place" v="farm" />
		<tag k="ssr:stedsnr" v="534933" />
	</node>
	<node lat="64.37734444617232" lon="10.839222227369346" id="-37875">
		<tag k="name" v="Ol - Nilsaplassen" />
		<tag k="place" v="locality" />
		<tag k="ssr:stedsnr" v="534956" />
	</node>
	<node lat="64.49753888506662" lon="10.897780552174554" id="-37884">
		<tag k="name" v="Fjærasteinan" />
		<tag k="place" v="quarter" />
		<tag k="ssr:stedsnr" v="545094" />
	</node>
	<node lat="64.49909444822498" lon="10.760991658050699" id="-37885">
=======
	<node id="-790078" lat="64.4164572396" lon="10.8217579717">
		<tag k="name" v="Fossvika" />
		<tag k="place" v="farm" />
		<tag k="ssr:stedsnr" v="728549" />
	</node>
	<node id="-790077" lat="64.3852888905" lon="10.6260611124">
		<tag k="name" v="Bøle" />
		<tag k="place" v="farm" />
		<tag k="ssr:stedsnr" v="728531" />
	</node>
	<node id="-791612" lat="64.3613305589" lon="10.7979999915">
		<tag k="name" v="Bakkenget" />
		<tag k="place" v="farm" />
		<tag k="ssr:stedsnr" v="863342" />
	</node>
	<node id="-791098" lat="64.4369432178" lon="10.8076818246">
>>>>>>> e1d4bc35ff8a6074a6f2e91616a996b547c36f15
		<tag k="fixme" v="consider place=hamlet" />
		<tag k="name" v="Dragøya" />
		<tag k="place" v="farm" />
		<tag k="ssr:stedsnr" v="545552" />
	</node>
<<<<<<< HEAD
	<node lat="64.49816111119662" lon="10.908755563429077" id="-37886">
		<tag k="fixme" v="consider place=hamlet" />
		<tag k="name" v="Lauvsnes" />
		<tag k="place" v="village" />
		<tag k="ssr:stedsnr" v="559412" />
	</node>
	<node lat="64.47930055505842" lon="10.841944947698195" id="-37889">
		<tag k="fixme" v="consider place=hamlet" />
		<tag k="name" v="Haustlandet" />
		<tag k="place" v="farm" />
		<tag k="ssr:stedsnr" v="559363" />
	</node>
	<node lat="64.58129166993878" lon="11.01313888739318" id="-37893">
		<tag k="name" v="Bakken" />
		<tag k="place" v="farm" />
		<tag k="ssr:stedsnr" v="559570" />
	</node>
	<node lat="64.47183889176377" lon="10.703469435211895" id="-37895">
		<tag k="name" v="Kvaløyseteren" />
=======
	<node id="-791608" lat="64.5046888918" lon="10.9762333305">
		<tag k="name" v="Knotten" />
		<tag k="place" v="farm" />
		<tag k="ssr:stedsnr" v="849667" />
	</node>
	<node id="-791095" lat="64.3774472234" lon="10.8332361026">
		<tag k="name" v="Krubba" />
		<tag k="place" v="isolated_dwelling" />
		<tag k="ssr:stedsnr" v="438249" />
	</node>
	<node id="-791094" lat="64.4269551167" lon="10.9712633173">
		<tag k="fixme" v="consider place=hamlet" />
		<tag k="name" v="Morka" />
		<tag k="place" v="farm" />
		<tag k="ssr:stedsnr" v="424593" />
	</node>
	<node id="-791093" lat="64.3807041422" lon="10.7523424771">
		<tag k="name" v="Hestdalen" />
>>>>>>> e1d4bc35ff8a6074a6f2e91616a996b547c36f15
		<tag k="place" v="farm" />
		<tag k="ssr:stedsnr" v="559639" />
	</node>
<<<<<<< HEAD
	<node lat="64.42606944097054" lon="10.582833332254056" id="-37902">
		<tag k="alt_name" v="Hårstadstranda" />
		<tag k="name" v="Håstadstranda" />
=======
	<node id="-790066" lat="64.5697249991" lon="11.0521055585">
		<tag k="name" v="Hamn" />
>>>>>>> e1d4bc35ff8a6074a6f2e91616a996b547c36f15
		<tag k="place" v="farm" />
		<tag k="ssr:stedsnr" v="559674" />
	</node>
<<<<<<< HEAD
	<node lat="64.52495555772927" lon="10.793844454777805" id="-37917">
=======
	<node id="-790576" lat="64.4350138891" lon="10.5357055619">
>>>>>>> e1d4bc35ff8a6074a6f2e91616a996b547c36f15
		<tag k="fixme" v="consider place=hamlet" />
		<tag k="name" v="Kvernøya" />
		<tag k="place" v="farm" />
		<tag k="ssr:stedsnr" v="560659" />
	</node>
<<<<<<< HEAD
	<node lat="64.59197947726574" lon="10.96352722914077" id="-37918">
		<tag k="fixme" v="consider place=hamlet" />
		<tag k="name" v="Utvorda" />
=======
	<node id="-790575" lat="64.4407694447" lon="10.5973166702">
		<tag k="name" v="Åkvika" />
>>>>>>> e1d4bc35ff8a6074a6f2e91616a996b547c36f15
		<tag k="place" v="farm" />
		<tag k="ssr:stedsnr" v="560607" />
	</node>
<<<<<<< HEAD
	<node lat="64.4829500042887" lon="10.71820276955365" id="-37927">
		<tag k="name" v="Mariaplassen" />
		<tag k="place" v="locality" />
		<tag k="ssr:stedsnr" v="572121" />
	</node>
	<node lat="64.32486944481909" lon="10.877891667998576" id="-37939">
		<tag k="name" v="Moen" />
=======
	<node id="-790572" lat="64.586780559" lon="10.9369361111">
		<tag k="name" v="Leirvika" />
>>>>>>> e1d4bc35ff8a6074a6f2e91616a996b547c36f15
		<tag k="place" v="farm" />
		<tag k="ssr:stedsnr" v="594574" />
	</node>
	<node lat="64.54401388870825" lon="10.879705549118128" id="-37946">
		<tag k="name" v="Sørplassen" />
		<tag k="place" v="locality" />
		<tag k="ssr:stedsnr" v="594795" />
	</node>
	<node lat="64.43523611161501" lon="10.922136116788629" id="-37960">
		<tag k="historic" v="shieling" />
		<tag k="name" v="Plassaseteren" />
		<tag k="place" v="isolated_dwelling" />
		<tag k="ssr:stedsnr" v="595748" />
	</node>
<<<<<<< HEAD
	<node lat="64.4875666633568" lon="10.732588880894271" id="-37976">
=======
	<node id="-790571" lat="64.5834377967" lon="10.9233003734">
>>>>>>> e1d4bc35ff8a6074a6f2e91616a996b547c36f15
		<tag k="fixme" v="consider place=hamlet" />
		<tag k="name" v="Sandøya" />
		<tag k="place" v="farm" />
		<tag k="ssr:stedsnr" v="606539" />
	</node>
<<<<<<< HEAD
	<node lat="64.51416182893313" lon="10.747188383267089" id="-37977">
		<tag k="name" v="Halmøya" />
=======
	<node id="-790569" lat="64.5793916641" lon="11.0023277734">
		<tag k="name" v="Elvebakken" />
>>>>>>> e1d4bc35ff8a6074a6f2e91616a996b547c36f15
		<tag k="place" v="farm" />
		<tag k="ssr:stedsnr" v="606542" />
	</node>
<<<<<<< HEAD
	<node lat="64.43214166755006" lon="10.64739444900859" id="-37978">
		<tag k="name" v="Hårnes" />
=======
	<node id="-790125" lat="64.4704111093" lon="10.7189722197">
		<tag k="name" v="Ågård" />
		<tag k="place" v="farm" />
		<tag k="ssr:stedsnr" v="694070" />
	</node>
	<node id="-790566" lat="64.4607999962" lon="10.7651166618">
		<tag k="name" v="Nordstrand" />
>>>>>>> e1d4bc35ff8a6074a6f2e91616a996b547c36f15
		<tag k="place" v="farm" />
		<tag k="ssr:stedsnr" v="606261" />
	</node>
<<<<<<< HEAD
	<node lat="64.43165996708461" lon="10.614930997656813" id="-37979">
		<tag k="name" v="Håstad" />
=======
	<node id="-790052" lat="64.5124548163" lon="10.8808683835">
		<tag k="name" v="Lauvøya" />
>>>>>>> e1d4bc35ff8a6074a6f2e91616a996b547c36f15
		<tag k="place" v="farm" />
		<tag k="ssr:stedsnr" v="606573" />
	</node>
<<<<<<< HEAD
	<node lat="64.44488242000399" lon="10.59828499355953" id="-37980">
		<tag k="name" v="Hasvåg" />
=======
	<node id="-790051" lat="64.496768103" lon="10.8673988377">
		<tag k="name" v="Stamnes" />
>>>>>>> e1d4bc35ff8a6074a6f2e91616a996b547c36f15
		<tag k="place" v="farm" />
		<tag k="ssr:stedsnr" v="606575" />
	</node>
<<<<<<< HEAD
	<node lat="64.41624821908538" lon="10.822096391216359" id="-37984">
		<tag k="fixme" v="consider place=hamlet" />
		<tag k="name" v="Fossvika" />
=======
	<node id="-790562" lat="64.4374527768" lon="10.7809861059">
		<tag k="name" v="Floan" />
>>>>>>> e1d4bc35ff8a6074a6f2e91616a996b547c36f15
		<tag k="place" v="farm" />
		<tag k="ssr:stedsnr" v="620265" />
	</node>
<<<<<<< HEAD
	<node lat="64.58139444582397" lon="11.015011120148847" id="-37998">
		<tag k="fixme" v="consider place=hamlet" />
		<tag k="name" v="Innvorda" />
		<tag k="place" v="village" />
		<tag k="ssr:stedsnr" v="620551" />
	</node>
	<node lat="64.50998889034933" lon="10.802152786153805" id="-38013">
		<tag k="name" v="Einvika" />
=======
	<node id="-790559" lat="64.5813944458" lon="11.0150111201">
		<tag k="fixme" v="consider place=hamlet" />
		<tag k="name" v="Innvorda" />
		<tag k="place" v="farm" />
		<tag k="ssr:stedsnr" v="60571" />
	</node>
	<node id="-790558" lat="64.4316542994" lon="10.5762199743">
		<tag k="name" v="Ørsnevet" />
>>>>>>> e1d4bc35ff8a6074a6f2e91616a996b547c36f15
		<tag k="place" v="farm" />
		<tag k="ssr:stedsnr" v="621734" />
	</node>
<<<<<<< HEAD
	<node lat="64.50021666766115" lon="10.72987500707924" id="-38027">
		<tag k="name" v="Hansplassen" />
		<tag k="place" v="locality" />
		<tag k="ssr:stedsnr" v="633120" />
	</node>
	<node lat="64.46695000217404" lon="10.730122226675947" id="-38028">
		<tag k="name" v="Vikstrand" />
		<tag k="place" v="isolated_dwelling" />
		<tag k="ssr:stedsnr" v="634266" />
	</node>
	<node lat="64.32200000308507" lon="10.956647224604243" id="-38037">
		<tag k="historic" v="shieling" />
		<tag k="name" v="Henrikseteren" />
		<tag k="place" v="isolated_dwelling" />
		<tag k="ssr:stedsnr" v="654870" />
	</node>
	<node lat="64.3927499957527" lon="10.890983329804687" id="-38052">
		<tag k="historic" v="shieling" />
		<tag k="name" v="Laukvikseteren" />
		<tag k="place" v="isolated_dwelling" />
		<tag k="ssr:stedsnr" v="655965" />
	</node>
	<node lat="64.49787222411894" lon="10.906008331451117" id="-38059">
		<tag k="amenity" v="school" />
		<tag k="name" v="Lauvsnes skole" />
		<tag k="ssr:stedsnr" v="665243" />
	</node>
	<node lat="64.43271944879416" lon="10.650088883548385" id="-38060">
		<tag k="name" v="Nedre Hårnes" />
		<tag k="place" v="farm" />
		<tag k="ssr:stedsnr" v="667263" />
	</node>
	<node lat="64.33773888543779" lon="10.864925010091383" id="-38061">
		<tag k="fixme" v="consider place=hamlet" />
		<tag k="name" v="Opplandsaunet" />
=======
	<node id="-790556" lat="64.4761861102" lon="10.7739388854">
		<tag k="name" v="Hillstad" />
		<tag k="place" v="farm" />
		<tag k="ssr:stedsnr" v="60555" />
	</node>
	<node id="-790555" lat="64.45406746" lon="10.6975580548">
		<tag k="name" v="Vikdalen" />
		<tag k="place" v="farm" />
		<tag k="ssr:stedsnr" v="60536" />
	</node>
	<node id="-791577" lat="64.3663611072" lon="10.8312638953">
		<tag k="name" v="Einan" />
		<tag k="place" v="farm" />
		<tag k="ssr:stedsnr" v="837889" />
	</node>
	<node id="-790040" lat="64.3637277792" lon="10.8156194462">
		<tag k="name" v="Svea" />
		<tag k="place" v="locality" />
		<tag k="ssr:stedsnr" v="716863" />
	</node>
	<node id="-791102" lat="64.4597642295" lon="10.7905889155">
		<tag k="name" v="Trefjord" />
		<tag k="place" v="farm" />
		<tag k="ssr:stedsnr" v="438463" />
	</node>
	<node id="-789638" lat="64.4119444434" lon="10.6408472195">
		<tag k="name" v="Fætta" />
		<tag k="place" v="farm" />
		<tag k="ssr:stedsnr" v="256658" />
	</node>
	<node id="-791058" lat="64.3607083333" lon="10.809855561">
		<tag k="name" v="Haldoren" />
		<tag k="place" v="locality" />
		<tag k="ssr:stedsnr" v="412854" />
	</node>
	<node id="-790031" lat="64.3217749997" lon="10.8768833367">
		<tag k="name" v="Sollund" />
>>>>>>> e1d4bc35ff8a6074a6f2e91616a996b547c36f15
		<tag k="place" v="farm" />
		<tag k="ssr:stedsnr" v="667450" />
	</node>
<<<<<<< HEAD
	<node lat="64.43165750192868" lon="10.576235196193032" id="-38062">
		<tag k="name" v="Ørsnevet" />
		<tag k="place" v="farm" />
		<tag k="ssr:stedsnr" v="667546" />
	</node>
	<node lat="64.36534166684346" lon="10.824372220986469" id="-38063">
		<tag k="fixme" v="consider place=hamlet" />
		<tag k="name" v="Jøssund" />
		<tag k="place" v="village" />
		<tag k="ssr:stedsnr" v="667554" />
	</node>
	<node lat="64.59934717855549" lon="10.892325097360434" id="-38064">
		<tag k="name" v="Skingen" />
=======
	<node id="-789933" lat="64.6028527747" lon="10.963205564">
		<tag k="name" v="Vågan" />
		<tag k="place" v="locality" />
		<tag k="ssr:stedsnr" v="681539" />
	</node>
	<node id="-789762" lat="64.3438055552" lon="10.8549638827">
		<tag k="name" v="Aunan" />
		<tag k="place" v="farm" />
		<tag k="ssr:stedsnr" v="499274" />
	</node>
	<node id="-791562" lat="64.5341305554" lon="10.9781611104">
		<tag k="name" v="Breivegen" />
>>>>>>> e1d4bc35ff8a6074a6f2e91616a996b547c36f15
		<tag k="place" v="farm" />
		<tag k="ssr:stedsnr" v="667562" />
	</node>
<<<<<<< HEAD
	<node lat="64.52578889331349" lon="10.793855562561129" id="-38065">
		<tag k="name" v="Kvernøya" />
		<tag k="place" v="farm" />
		<tag k="ssr:stedsnr" v="667577" />
	</node>
	<node lat="64.32177499965199" lon="10.87688333674768" id="-38077">
		<tag k="name" v="Sollund" />
		<tag k="place" v="farm" />
		<tag k="ssr:stedsnr" v="716629" />
	</node>
	<node lat="64.36372777915696" lon="10.815619446239792" id="-38084">
		<tag k="name" v="Svea" />
		<tag k="place" v="locality" />
		<tag k="ssr:stedsnr" v="716863" />
	</node>
	<node lat="64.56532778184483" lon="11.065194448593562" id="-38104">
		<tag k="name" v="Sandmoen" />
		<tag k="place" v="farm" />
		<tag k="ssr:stedsnr" v="728588" />
	</node>
	<node lat="64.3852888904825" lon="10.626061112356131" id="-38105">
		<tag k="name" v="Bøle" />
		<tag k="place" v="farm" />
		<tag k="ssr:stedsnr" v="728531" />
	</node>
	<node lat="64.41645723957227" lon="10.821757971739368" id="-38106">
		<tag k="name" v="Fossvika" />
		<tag k="place" v="farm" />
		<tag k="ssr:stedsnr" v="728549" />
	</node>
	<node lat="64.45756667077126" lon="10.857183325565385" id="-38109">
		<tag k="name" v="Skorstad" />
		<tag k="place" v="isolated_dwelling" />
		<tag k="ssr:stedsnr" v="741558" />
	</node>
	<node lat="64.45317777825866" lon="10.861566666129216" id="-38110">
		<tag k="historic" v="shieling" />
		<tag k="name" v="Årfjordsetran" />
		<tag k="place" v="isolated_dwelling" />
		<tag k="ssr:stedsnr" v="741559" />
	</node>
	<node lat="64.47353055534519" lon="10.795602780437893" id="-38115">
		<tag k="name" v="Hylla" />
		<tag k="place" v="farm" />
		<tag k="ssr:stedsnr" v="742359" />
	</node>
	<node lat="64.47353610761104" lon="10.77931666068284" id="-38116">
		<tag k="fixme" v="consider place=hamlet" />
		<tag k="name" v="Hillstad" />
		<tag k="place" v="farm" />
		<tag k="ssr:stedsnr" v="742361" />
	</node>
	<node lat="64.55732107513076" lon="10.948277959047083" id="-38128">
		<tag k="fixme" v="consider place=hamlet" />
		<tag k="name" v="Frøsendal" />
		<tag k="place" v="farm" />
		<tag k="ssr:stedsnr" v="742576" />
	</node>
	<node lat="64.52718055531345" lon="10.986658336471415" id="-38137">
		<tag k="name" v="Elverhøy" />
		<tag k="place" v="farm" />
		<tag k="ssr:stedsnr" v="743674" />
	</node>
	<node lat="64.50631388988108" lon="10.929630548633249" id="-38140">
		<tag k="name" v="Vågan" />
		<tag k="place" v="isolated_dwelling" />
		<tag k="ssr:stedsnr" v="753101" />
	</node>
	<node lat="64.50310833231426" lon="10.741299990464151" id="-38155">
		<tag k="name" v="Aspøy" />
		<tag k="old_name" v="Aspø" />
		<tag k="place" v="farm" />
		<tag k="ssr:stedsnr" v="756986" />
	</node>
	<node lat="64.33901110980507" lon="10.873275001027624" id="-38165">
		<tag k="alt_name" v="Bakken øvre" />
		<tag k="name" v="Øvre Bakken" />
		<tag k="place" v="farm" />
		<tag k="ssr:stedsnr" v="776581" />
	</node>
	<node lat="64.58743611384925" lon="10.949330549051483" id="-38171">
		<tag k="name" v="Breivoll" />
		<tag k="place" v="farm" />
		<tag k="ssr:stedsnr" v="776878" />
	</node>
	<node lat="64.37685833485492" lon="10.894263879435085" id="-38177">
		<tag k="historic" v="shieling" />
		<tag k="name" v="Arneseteren" />
		<tag k="place" v="isolated_dwelling" />
		<tag k="ssr:stedsnr" v="776963" />
	</node>
	<node lat="64.47886110838584" lon="10.932916675993276" id="-38190">
		<tag k="historic" v="shieling" />
		<tag k="name" v="Moaseteren" />
		<tag k="place" v="isolated_dwelling" />
		<tag k="ssr:stedsnr" v="777780" />
	</node>
	<node lat="64.58406590369451" lon="10.923103791167978" id="-38204">
		<tag k="name" v="Bjørgan" />
		<tag k="place" v="farm" />
		<tag k="ssr:stedsnr" v="788589" />
	</node>
	<node lat="64.46823696491033" lon="10.914830523547193" id="-38210">
		<tag k="fixme" v="consider place=hamlet" />
		<tag k="name" v="Fløan" />
		<tag k="place" v="farm" />
		<tag k="ssr:stedsnr" v="803498" />
	</node>
	<node lat="64.44853055387271" lon="10.739427782353498" id="-38216">
		<tag k="name" v="Nyrud" />
		<tag k="place" v="farm" />
		<tag k="ssr:stedsnr" v="802532" />
	</node>
	<node lat="64.47481667008057" lon="10.705005561857828" id="-38225">
		<tag k="name" v="Leirvika" />
		<tag k="place" v="farm" />
		<tag k="ssr:stedsnr" v="802686" />
	</node>
	<node lat="64.5362194407163" lon="10.981288888443277" id="-38238">
		<tag k="name" v="Sittermoen" />
		<tag k="place" v="farm" />
		<tag k="ssr:stedsnr" v="803635" />
	</node>
	<node lat="64.51529444810626" lon="10.811936107243952" id="-38247">
		<tag k="name" v="Strandvang" />
		<tag k="place" v="farm" />
		<tag k="ssr:stedsnr" v="804710" />
	</node>
	<node lat="64.4974392365848" lon="10.869050074498112" id="-38256">
		<tag k="fixme" v="consider place=hamlet" />
		<tag k="name" v="Stamnes" />
		<tag k="place" v="farm" />
		<tag k="ssr:stedsnr" v="814964" />
	</node>
	<node lat="64.53013610729495" lon="10.9714777787279" id="-38272">
		<tag k="name" v="Solheim" />
		<tag k="place" v="farm" />
		<tag k="ssr:stedsnr" v="837817" />
	</node>
	<node lat="64.5046888917539" lon="10.976233330476466" id="-38306">
		<tag k="name" v="Knotten" />
		<tag k="place" v="farm" />
		<tag k="ssr:stedsnr" v="849667" />
	</node>
	<node lat="64.36133055885462" lon="10.797999991548899" id="-38312">
		<tag k="name" v="Bakkenget" />
		<tag k="place" v="farm" />
		<tag k="ssr:stedsnr" v="863342" />
	</node>
	<node lat="64.44982399220042" lon="10.97591140630583" id="-38316">
		<tag k="fixme" v="consider place=hamlet" />
		<tag k="name" v="Dala" />
		<tag k="place" v="farm" />
		<tag k="ssr:stedsnr" v="863471" />
	</node>
	<node lat="64.33940277570001" lon="10.866730548532596" id="-38331">
		<tag k="name" v="Bakkan" />
		<tag k="place" v="farm" />
		<tag k="ssr:stedsnr" v="864366" />
	</node>
	<node lat="64.3630138907768" lon="10.806694452401002" id="-38380">
		<tag k="name" v="Skjellenget" />
		<tag k="place" v="locality" />
		<tag k="ssr:stedsnr" v="958889" />
	</node>
	<node lat="64.47950555192406" lon="10.962905564519872" id="-38393">
		<tag k="name" v="Skjeldeaunet" />
		<tag k="place" v="isolated_dwelling" />
		<tag k="ssr:stedsnr" v="959790" />
	</node>
	<node lat="64.4606138882162" lon="10.915361104549508" id="-38398">
		<tag k="name" v="Vassbakken" />
		<tag k="place" v="isolated_dwelling" />
		<tag k="ssr:stedsnr" v="959982" />
	</node>
	<node lat="64.41393224144528" lon="10.641192250366347" id="-38407">
		<tag k="name" v="Uran" />
		<tag k="place" v="farm" />
		<tag k="ssr:stedsnr" v="970069" />
	</node>
	<node lat="64.43141693373143" lon="10.633605413958122" id="-38408">
		<tag k="fixme" v="consider place=hamlet" />
		<tag k="name" v="Sørnesset" />
		<tag k="place" v="village" />
		<tag k="ssr:stedsnr" v="971979" />
	</node>
	<node lat="64.44731998418024" lon="10.570369484492561" id="-38411">
		<tag k="name" v="Urholmen" />
		<tag k="place" v="farm" />
		<tag k="ssr:stedsnr" v="980991" />
=======
	<node id="-790188" lat="64.4575666708" lon="10.8571833256">
		<tag k="name" v="Skorstad" />
		<tag k="place" v="isolated_dwelling" />
		<tag k="ssr:stedsnr" v="741558" />
>>>>>>> e1d4bc35ff8a6074a6f2e91616a996b547c36f15
	</node>
</osm>
