<?xml version="1.0" encoding="UTF-8"?>
<<<<<<< HEAD
<osm version="0.6" generator="osmapis">
	<node lat="64.43326666881354" lon="10.987866672195583" id="-36061">
		<tag k="name" v="Smedneset" />
		<tag k="natural" v="cape" />
		<tag k="ssr:stedsnr" v="230213" />
	</node>
	<node lat="64.37718332925931" lon="10.952291661772193" id="-36070">
		<tag k="name" v="Djupvassbekken" />
		<tag k="ssr:stedsnr" v="230913" />
		<tag k="waterway" v="stream" />
	</node>
	<node lat="64.40809722090745" lon="10.882241657338561" id="-36074">
		<tag k="name" v="Gaulitjønna" />
=======
<osm generator="osmapis" version="0.6">
	<node id="-790523" lat="64.5146194431" lon="11.0279888812">
		<tag k="name" v="Hola" />
		<tag k="natural" v="water" />
		<tag k="ssr:stedsnr" v="49323" />
	</node>
	<node id="-790009" lat="64.4662777788" lon="10.8794055596">
		<tag k="name" v="Djupvikvatnet" />
		<tag k="natural" v="water" />
		<tag k="ssr:stedsnr" v="560503" />
	</node>
	<node id="-790008" lat="64.3151555584" lon="10.7826250042">
		<tag k="name" v="Rotmannstjønna" />
		<tag k="natural" v="water" />
		<tag k="ssr:stedsnr" v="560156" />
	</node>
	<node id="-790519" lat="64.556130555" lon="11.040966676">
		<tag k="name" v="Sandmoelva" />
		<tag k="ssr:stedsnr" v="49301" />
		<tag k="waterway" v="stream" />
	</node>
	<node id="-791717" lat="64.5021473637" lon="10.8983684814">
		<tag k="name" v="Langtjønna" />
		<tag k="natural" v="water" />
		<tag k="ssr:stedsnr" v="987358" />
	</node>
	<node id="-789929" lat="64.4407916653" lon="10.7823861119">
		<tag k="alt_name" v="Floanvatnet" />
		<tag k="name" v="Floavatnet" />
		<tag k="natural" v="water" />
		<tag k="ssr:stedsnr" v="681448" />
	</node>
	<node id="-789758" lat="64.3781027771" lon="10.9278416619">
		<tag k="name" v="Hanakamvatnet" />
		<tag k="natural" v="water" />
		<tag k="ssr:stedsnr" v="377238" />
	</node>
	<node id="-790514" lat="64.407105558" lon="10.8881888814">
		<tag k="name" v="Smørauga" />
		<tag k="natural" v="water" />
		<tag k="ssr:stedsnr" v="48962" />
	</node>
	<node id="-791025" lat="64.4686333352" lon="10.7940916741">
		<tag k="name" v="Skåran" />
		<tag k="natural" v="water" />
		<tag k="ssr:stedsnr" v="390085" />
	</node>
	<node id="-791534" lat="64.5173472202" lon="10.7157638797">
		<tag k="name" v="Grønnavågtjønna" />
		<tag k="natural" v="water" />
		<tag k="ssr:stedsnr" v="803917" />
	</node>
	<node id="-791530" lat="64.3698416682" lon="10.7057500023">
		<tag k="alt_name" v="Hestdalvatnet" />
		<tag k="name" v="Hestdalsvatnet" />
		<tag k="natural" v="water" />
		<tag k="ssr:stedsnr" v="803707" />
	</node>
	<node id="-791527" lat="64.532263889" lon="11.0042305646">
		<tag k="fixme" v="multiple name tags, choose one and add the other to alt_name" />
		<tag k="name" v="Heiaelva;Sitterelva" />
		<tag k="ssr:stedsnr" v="803680" />
		<tag k="waterway" v="stream" />
	</node>
	<node id="-791013" lat="64.5137888912" lon="10.9841527804">
		<tag k="alt_name" v="Ramsfjelltjønna" />
		<tag k="name" v="Ramsfjellvatnet" />
		<tag k="natural" v="water" />
		<tag k="ssr:stedsnr" v="378732" />
	</node>
	<node id="-791012" lat="64.5168249971" lon="11.0103694498">
		<tag k="name" v="Dummelvatnet" />
		<tag k="natural" v="water" />
		<tag k="ssr:stedsnr" v="378730" />
	</node>
	<node id="-791009" lat="64.3902972234" lon="10.6717222311">
		<tag k="name" v="Steintjønna" />
		<tag k="natural" v="water" />
		<tag k="ssr:stedsnr" v="378711" />
	</node>
	<node id="-791008" lat="64.4000555552" lon="10.7079777752">
		<tag k="name" v="Molinvatnet" />
		<tag k="natural" v="water" />
		<tag k="ssr:stedsnr" v="378709" />
	</node>
	<node id="-789982" lat="64.448811109" lon="10.7743277756">
		<tag k="name" v="Markaodden" />
		<tag k="natural" v="cape" />
		<tag k="ssr:stedsnr" v="693138" />
	</node>
	<node id="-789469" lat="64.5526777752" lon="11.014180562">
		<tag k="name" v="Sandmovatnet" />
		<tag k="natural" v="water" />
		<tag k="ssr:stedsnr" v="257688" />
		<tag k="water" v="lake" />
	</node>
	<node id="-789980" lat="64.455044441" lon="10.711888899">
		<tag k="name" v="Selsviktjønna" />
		<tag k="natural" v="water" />
		<tag k="ssr:stedsnr" v="693029" />
	</node>
	<node id="-790490" lat="64.405197225" lon="11.0179555552">
		<tag k="name" v="Kvilnesa" />
		<tag k="natural" v="cape" />
		<tag k="ssr:stedsnr" v="48767" />
	</node>
	<node id="-791511" lat="64.3300305518" lon="10.8657444372">
		<tag k="name" v="Aunavatnet" />
		<tag k="natural" v="water" />
		<tag k="ssr:stedsnr" v="803320" />
	</node>
	<node id="-790486" lat="64.3393666653" lon="10.9342666749">
		<tag k="name" v="Litlengdalstjønna" />
		<tag k="natural" v="water" />
		<tag k="ssr:stedsnr" v="48561" />
	</node>
	<node id="-790997" lat="64.484794446" lon="10.9854333275">
		<tag k="alt_name" v="Kvalknottvatnet" />
		<tag k="name" v="Knottvatnet" />
		<tag k="natural" v="water" />
		<tag k="ssr:stedsnr" v="378411" />
	</node>
	<node id="-790996" lat="64.4754083368" lon="10.8757888877">
		<tag k="name" v="Taklivatnet" />
		<tag k="natural" v="water" />
		<tag k="ssr:stedsnr" v="378405" />
	</node>
	<node id="-791507" lat="64.3929111149" lon="10.8528583257">
		<tag k="name" v="Indre Brattviktjønna" />
		<tag k="natural" v="water" />
		<tag k="ssr:stedsnr" v="803283" />
	</node>
	<node id="-791506" lat="64.3974722214" lon="10.817705555">
		<tag k="name" v="Ytre Brattviktjønna" />
		<tag k="natural" v="water" />
		<tag k="ssr:stedsnr" v="803275" />
	</node>
	<node id="-790993" lat="64.3444333315" lon="11.0070750017">
		<tag k="name" v="Oksvatnet - Stoerre Njuanajaevrie" />
		<tag k="name:no" v="Oksvatnet" />
		<tag k="name:sma" v="Stoerre Njuanajaevrie" />
		<tag k="natural" v="water" />
		<tag k="ssr:stedsnr" v="378337" />
		<tag k="water" v="lake" />
	</node>
	<node id="-790991" lat="64.4047055577" lon="10.8956527721">
		<tag k="name" v="Finnhusbukta" />
		<tag k="natural" v="bay" />
		<tag k="ssr:stedsnr" v="378298" />
	</node>
	<node id="-790989" lat="64.3903111107" lon="10.9413722249">
		<tag k="name" v="Seterlivatnet" />
		<tag k="natural" v="water" />
		<tag k="ssr:stedsnr" v="378271" />
	</node>
	<node id="-789450" lat="64.5254416699" lon="10.7173555647">
		<tag k="name" v="Midtertjønna" />
		<tag k="natural" v="water" />
		<tag k="ssr:stedsnr" v="256893" />
	</node>
	<node id="-791497" lat="64.4476999991" lon="10.8504472139">
		<tag k="name" v="Årfjordtjønna" />
		<tag k="natural" v="water" />
		<tag k="ssr:stedsnr" v="802527" />
	</node>
	<node id="-791496" lat="64.4457055584" lon="10.9339027827">
		<tag k="name" v="Sautjønna" />
		<tag k="natural" v="water" />
		<tag k="ssr:stedsnr" v="802525" />
	</node>
	<node id="-789442" lat="64.431366667" lon="10.8297361143">
		<tag k="name" v="Stakkholtjønna" />
		<tag k="natural" v="water" />
		<tag k="ssr:stedsnr" v="256401" />
	</node>
	<node id="-789441" lat="64.3675555597" lon="11.0106666698">
		<tag k="name" v="Langvatna" />
		<tag k="natural" v="water" />
		<tag k="ssr:stedsnr" v="256344" />
	</node>
	<node id="-790976" lat="64.4364444433" lon="10.8888749909">
		<tag k="name" v="Tverråa" />
		<tag k="natural" v="water" />
		<tag k="ssr:stedsnr" v="377442" />
	</node>
	<node id="-789439" lat="64.382188887" lon="10.9473499918">
		<tag k="name" v="Smålitjønna" />
		<tag k="natural" v="water" />
		<tag k="ssr:stedsnr" v="256250" />
	</node>
	<node id="-789433" lat="64.3816083327" lon="10.9953361202">
		<tag k="name" v="Middagstjønna" />
		<tag k="natural" v="water" />
		<tag k="ssr:stedsnr" v="74259" />
	</node>
	<node id="-789748" lat="64.5789944441" lon="11.0080666692">
		<tag k="name" v="Innvordelva" />
		<tag k="ssr:stedsnr" v="483895" />
		<tag k="waterway" v="river" />
	</node>
	<node id="-789577" lat="64.4513083295" lon="10.930355565">
		<tag k="name" v="Sautjønnbekken" />
		<tag k="ssr:stedsnr" v="292939" />
		<tag k="waterway" v="stream" />
	</node>
	<node id="-791472" lat="64.4376833302" lon="10.8634888879">
		<tag k="name" v="Hestskotjønna" />
		<tag k="natural" v="water" />
		<tag k="ssr:stedsnr" v="780551" />
	</node>
	<node id="-791471" lat="64.4560083353" lon="10.9665833397">
		<tag k="name" v="Storholmen" />
		<tag k="place" v="islet" />
		<tag k="ssr:stedsnr" v="777999" />
	</node>
	<node id="-790446" lat="64.4122583294" lon="10.568697217">
		<tag k="name" v="Sellevikvatnet" />
>>>>>>> e1d4bc35ff8a6074a6f2e91616a996b547c36f15
		<tag k="natural" v="water" />
		<tag k="ssr:stedsnr" v="230956" />
	</node>
<<<<<<< HEAD
	<node lat="64.53567222102568" lon="10.999802782220986" id="-36077">
		<tag k="name" v="Gjeldtkårbekken" />
		<tag k="ssr:stedsnr" v="231299" />
		<tag k="waterway" v="stream" />
	</node>
	<node lat="64.48020277390167" lon="10.975533330813798" id="-36082">
		<tag k="name" v="Sautjønna" />
		<tag k="natural" v="water" />
		<tag k="ssr:stedsnr" v="231826" />
	</node>
	<node lat="64.44013333714322" lon="10.970116665199667" id="-36088">
		<tag k="name" v="Hattjønna" />
=======
	<node id="-789917" lat="64.578033336" lon="10.9739499997">
		<tag k="name" v="Renndalsvatnet" />
		<tag k="natural" v="water" />
		<tag k="ssr:stedsnr" v="499521" />
	</node>
	<node id="-790441" lat="64.543550004" lon="11.0331750095">
		<tag k="name" v="Langvatnet" />
		<tag k="natural" v="water" />
		<tag k="ssr:stedsnr" v="14580" />
	</node>
	<node id="-790437" lat="64.4412083299" lon="11.0233472194">
		<tag k="name" v="Løysmundlitjønna" />
>>>>>>> e1d4bc35ff8a6074a6f2e91616a996b547c36f15
		<tag k="natural" v="water" />
		<tag k="ssr:stedsnr" v="231976" />
	</node>
<<<<<<< HEAD
	<node lat="64.357550002875" lon="10.765888887052887" id="-36095">
		<tag k="name" v="Tverrelva" />
		<tag k="ssr:stedsnr" v="14267" />
		<tag k="waterway" v="stream" />
	</node>
	<node lat="64.48627777494175" lon="10.858594448991346" id="-36099">
		<tag k="name" v="Stamnesvatnet" />
=======
	<node id="-791460" lat="64.557441665" lon="11.0439416629">
		<tag k="name" v="Fossan" />
		<tag k="natural" v="waterfall" />
		<tag k="ssr:stedsnr" v="777332" />
	</node>
	<node id="-789921" lat="64.343611115" lon="10.8818833347">
		<tag k="name" v="Harrasvatnet" />
>>>>>>> e1d4bc35ff8a6074a6f2e91616a996b547c36f15
		<tag k="natural" v="water" />
		<tag k="ssr:stedsnr" v="14325" />
	</node>
<<<<<<< HEAD
	<node lat="64.41225832938548" lon="10.568697217006136" id="-36104">
		<tag k="name" v="Sellevikvatnet" />
=======
	<node id="-790944" lat="64.5110972225" lon="11.0126888785">
		<tag k="name" v="Finnhøttdalstjønna" />
>>>>>>> e1d4bc35ff8a6074a6f2e91616a996b547c36f15
		<tag k="natural" v="water" />
		<tag k="ssr:stedsnr" v="14634" />
		<tag k="water" v="lake" />
	</node>
<<<<<<< HEAD
	<node lat="64.48289166972789" lon="10.661761108628596" id="-36112">
		<tag k="name" v="Lomtjønna" />
=======
	<node id="-789919" lat="64.3776916687" lon="10.706363883">
		<tag k="name" v="Daudtjønna" />
>>>>>>> e1d4bc35ff8a6074a6f2e91616a996b547c36f15
		<tag k="natural" v="water" />
		<tag k="ssr:stedsnr" v="25006" />
	</node>
<<<<<<< HEAD
	<node lat="64.55613055502428" lon="11.040966676034012" id="-36132">
		<tag k="name" v="Sandmoelva" />
		<tag k="ssr:stedsnr" v="49301" />
		<tag k="waterway" v="stream" />
	</node>
	<node lat="64.38160833265498" lon="10.995336120214885" id="-36157">
		<tag k="name" v="Middagstjønna" />
=======
	<node id="-790430" lat="64.3575500029" lon="10.7658888871">
		<tag k="name" v="Tverrelva" />
		<tag k="ssr:stedsnr" v="14267" />
		<tag k="waterway" v="stream" />
	</node>
	<node id="-790429" lat="64.3189722226" lon="10.910241666">
		<tag k="name" v="Valavatna" />
>>>>>>> e1d4bc35ff8a6074a6f2e91616a996b547c36f15
		<tag k="natural" v="water" />
		<tag k="ssr:stedsnr" v="74259" />
	</node>
<<<<<<< HEAD
	<node lat="64.44917500201024" lon="10.81248610577536" id="-36160">
		<tag k="name" v="Svarttjønna" />
		<tag k="natural" v="water" />
		<tag k="ssr:stedsnr" v="74464" />
	</node>
	<node lat="64.42144737162957" lon="10.821162163708586" id="-36170">
		<tag k="name" v="Steinviktjønna" />
		<tag k="natural" v="water" />
		<tag k="ssr:stedsnr" v="75310" />
	</node>
	<node lat="64.41861944543622" lon="10.99255833524891" id="-36171">
		<tag k="name" v="Selafossen" />
=======
	<node id="-790938" lat="64.3616861089" lon="10.821699993">
		<tag k="name" v="Jøssundfossen" />
>>>>>>> e1d4bc35ff8a6074a6f2e91616a996b547c36f15
		<tag k="natural" v="waterfall" />
		<tag k="ssr:stedsnr" v="75314" />
	</node>
<<<<<<< HEAD
	<node lat="64.46722222655809" lon="11.001194452742475" id="-36173">
		<tag k="fixme" v="multiple name tags, choose one and add the other to alt_name" />
		<tag k="name" v="Skjeldelangvatnet;Nordlangvatnet" />
		<tag k="natural" v="water" />
		<tag k="ssr:stedsnr" v="75509" />
		<tag k="water" v="lake" />
	</node>
	<node lat="64.57614722246353" lon="10.933272216453595" id="-36191">
		<tag k="name" v="Bjørgenget" />
		<tag k="ssr:stedsnr" v="109877" />
		<tag k="waterway" v="stream" />
	</node>
	<node lat="64.42478611337935" lon="10.947088886004435" id="-36200">
		<tag k="name" v="Siverthogsten" />
		<tag k="natural" v="cape" />
		<tag k="ssr:stedsnr" v="110971" />
	</node>
	<node lat="64.3844055562005" lon="10.838055565917813" id="-36222">
		<tag k="name" v="Damtjønna" />
=======
	<node id="-791449" lat="64.4129388898" lon="10.9064777814">
		<tag k="name" v="Morkaodden" />
		<tag k="natural" v="cape" />
		<tag k="ssr:stedsnr" v="776953" />
	</node>
	<node id="-789572" lat="64.4515500038" lon="10.9601472212">
		<tag k="name" v="Dalaodden" />
		<tag k="natural" v="cape" />
		<tag k="ssr:stedsnr" v="292932" />
	</node>
	<node id="-790933" lat="64.3018166674" lon="10.943766677">
		<tag k="name" v="Hestbekken" />
		<tag k="ssr:stedsnr" v="351866" />
		<tag k="waterway" v="stream" />
	</node>
	<node id="-790510" lat="64.3361555529" lon="10.7371083236">
		<tag k="name" v="Akseltjønna" />
		<tag k="natural" v="water" />
		<tag k="ssr:stedsnr" v="48938" />
	</node>
	<node id="-789905" lat="64.311897223" lon="10.9096666583">
		<tag k="name" v="Svartvatnet" />
>>>>>>> e1d4bc35ff8a6074a6f2e91616a996b547c36f15
		<tag k="natural" v="water" />
		<tag k="ssr:stedsnr" v="256270" />
	</node>
<<<<<<< HEAD
	<node lat="64.38218888702433" lon="10.947349991828355" id="-36223">
		<tag k="name" v="Smålitjønna" />
=======
	<node id="-789904" lat="64.3083418073" lon="10.85789912">
		<tag k="alt_name" v="Setertjønna" />
		<tag k="name" v="Middagstjønna" />
>>>>>>> e1d4bc35ff8a6074a6f2e91616a996b547c36f15
		<tag k="natural" v="water" />
		<tag k="ssr:stedsnr" v="256250" />
	</node>
<<<<<<< HEAD
	<node lat="64.43136666697448" lon="10.829736114261571" id="-36228">
		<tag k="name" v="Stakkholtjønna" />
		<tag k="natural" v="water" />
		<tag k="ssr:stedsnr" v="256401" />
	</node>
	<node lat="64.35262222619939" lon="10.740886120814583" id="-36231">
		<tag k="name" v="Skjørbekken" />
		<tag k="ssr:stedsnr" v="256328" />
		<tag k="waterway" v="stream" />
	</node>
	<node lat="64.36755555973208" lon="11.010666669803788" id="-36232">
		<tag k="name" v="Langvatna" />
=======
	<node id="-791436" lat="64.4327500003" lon="11.0194138829">
		<tag k="name" v="Vikan" />
		<tag k="natural" v="bay" />
		<tag k="ssr:stedsnr" v="776048" />
	</node>
	<node id="-790923" lat="64.573525002" lon="10.9962250041">
		<tag k="name" v="Tørbersbekken" />
		<tag k="ssr:stedsnr" v="352950" />
		<tag k="waterway" v="stream" />
	</node>
	<node id="-790920" lat="64.4492194453" lon="11.0275500046">
		<tag k="name" v="Grønlitjønna" />
>>>>>>> e1d4bc35ff8a6074a6f2e91616a996b547c36f15
		<tag k="natural" v="water" />
		<tag k="ssr:stedsnr" v="256344" />
	</node>
<<<<<<< HEAD
	<node lat="64.52544166991798" lon="10.717355564657716" id="-36238">
		<tag k="name" v="Midtertjønna" />
=======
	<node id="-790919" lat="64.4738055541" lon="10.9868249935">
		<tag k="name" v="Hestmarkfjellet" />
>>>>>>> e1d4bc35ff8a6074a6f2e91616a996b547c36f15
		<tag k="natural" v="water" />
		<tag k="ssr:stedsnr" v="256893" />
	</node>
<<<<<<< HEAD
	<node lat="64.29950277468232" lon="10.846175004964511" id="-36240">
		<tag k="name" v="Småholmvatnet" />
		<tag k="natural" v="water" />
		<tag k="ssr:stedsnr" v="257171" />
	</node>
	<node lat="64.39394999586303" lon="10.65429165878672" id="-36255">
		<tag k="name" v="Bølesetervatnet" />
=======
	<node id="-789569" lat="64.4206194429" lon="10.6499000069">
		<tag k="name" v="Uransvatnet" />
		<tag k="natural" v="water" />
		<tag k="ssr:stedsnr" v="196625" />
	</node>
	<node id="-789377" lat="64.4828916697" lon="10.6617611086">
		<tag k="name" v="Lomtjønna" />
>>>>>>> e1d4bc35ff8a6074a6f2e91616a996b547c36f15
		<tag k="natural" v="water" />
		<tag k="ssr:stedsnr" v="257729" />
	</node>
<<<<<<< HEAD
	<node lat="64.55267777516096" lon="11.014180561983618" id="-36257">
		<tag k="name" v="Sandmovatnet" />
=======
	<node id="-790396" lat="64.3276138874" lon="10.8392999941">
		<tag k="name" v="Lona" />
>>>>>>> e1d4bc35ff8a6074a6f2e91616a996b547c36f15
		<tag k="natural" v="water" />
		<tag k="ssr:stedsnr" v="257688" />
		<tag k="water" v="lake" />
	</node>
<<<<<<< HEAD
	<node lat="64.4822222198505" lon="10.989963895524362" id="-36272">
		<tag k="name" v="Fossen" />
		<tag k="natural" v="waterfall" />
		<tag k="ssr:stedsnr" v="169468" />
	</node>
	<node lat="64.5000222225555" lon="10.992594452985843" id="-36275">
		<tag k="name" v="Hestmarkbekken" />
		<tag k="ssr:stedsnr" v="169472" />
		<tag k="waterway" v="stream" />
	</node>
	<node lat="64.52561388937896" lon="11.023947223313662" id="-36284">
		<tag k="name" v="Sitterkleivelva" />
		<tag k="ssr:stedsnr" v="170310" />
		<tag k="waterway" v="stream" />
	</node>
	<node lat="64.42033611083377" lon="10.935722219751396" id="-36290">
		<tag k="name" v="Telefonskartjønna" />
		<tag k="natural" v="water" />
		<tag k="ssr:stedsnr" v="170976" />
	</node>
	<node lat="64.34199999647241" lon="10.789783339154361" id="-36304">
		<tag k="name" v="Andreastjønna" />
		<tag k="natural" v="water" />
		<tag k="ssr:stedsnr" v="196293" />
	</node>
	<node lat="64.29543333152397" lon="10.891111111746916" id="-36307">
		<tag k="name" v="Langvatna" />
		<tag k="natural" v="water" />
		<tag k="ssr:stedsnr" v="196838" />
		<tag k="water" v="lake" />
	</node>
	<node lat="64.52533333538234" lon="10.722102771161149" id="-36309">
		<tag k="name" v="Stortjønna" />
		<tag k="natural" v="water" />
		<tag k="ssr:stedsnr" v="197712" />
	</node>
	<node lat="64.48574444851158" lon="11.039977781314281" id="-36376">
		<tag k="name" v="Kroktjønna" />
=======
	<node id="-789994" lat="64.4177166628" lon="10.8446055642">
		<tag k="name" v="Myllåvatnet" />
		<tag k="natural" v="water" />
		<tag k="ssr:stedsnr" v="559264" />
	</node>
	<node id="-791416" lat="64.4839416707" lon="10.9304166701">
		<tag k="name" v="Mjøsundet" />
		<tag k="natural" v="strait" />
		<tag k="ssr:stedsnr" v="754198" />
	</node>
	<node id="-790391" lat="64.3100888867" lon="10.9130444533">
		<tag k="name" v="Evenodden" />
		<tag k="natural" v="cape" />
		<tag k="ssr:stedsnr" v="958574" />
	</node>
	<node id="-789365" lat="64.4862777749" lon="10.858594449">
		<tag k="name" v="Stamnesvatnet" />
		<tag k="natural" v="water" />
		<tag k="ssr:stedsnr" v="14325" />
	</node>
	<node id="-789875" lat="64.4312694442" lon="10.9609666701">
		<tag k="name" v="Geitanesbukta" />
		<tag k="natural" v="bay" />
		<tag k="ssr:stedsnr" v="655972" />
	</node>
	<node id="-789871" lat="64.4465944456" lon="10.9688249997">
		<tag k="name" v="Dalaelva" />
		<tag k="ssr:stedsnr" v="655942" />
		<tag k="waterway" v="river" />
	</node>
	<node id="-791613" lat="64.3609750039" lon="10.9356583246">
		<tag k="name" v="Nordlitjønna" />
		<tag k="natural" v="water" />
		<tag k="ssr:stedsnr" v="863344" />
	</node>
	<node id="-789866" lat="64.3754055558" lon="10.8603833425">
		<tag k="name" v="Lomtjønnbekken" />
		<tag k="ssr:stedsnr" v="655899" />
		<tag k="waterway" v="stream" />
	</node>
	<node id="-791400" lat="64.4447277772" lon="10.7114583323">
		<tag k="name" v="Jensodden" />
		<tag k="natural" v="cape" />
		<tag k="ssr:stedsnr" v="754013" />
	</node>
	<node id="-790372" lat="64.3395694429" lon="10.7091777704">
		<tag k="name" v="Rundtjønna" />
>>>>>>> e1d4bc35ff8a6074a6f2e91616a996b547c36f15
		<tag k="natural" v="water" />
		<tag k="ssr:stedsnr" v="256361" />
	</node>
<<<<<<< HEAD
	<node lat="64.44120555972385" lon="10.977955560391392" id="-36377">
		<tag k="name" v="Morkavatnet" />
=======
	<node id="-791395" lat="64.5103333348" lon="10.9992111134">
		<tag k="alt_name" v="Ramsfjellvatnet, store;Ramsfjellvatnet" />
		<tag k="name" v="Store Ramsfjellvatnet" />
>>>>>>> e1d4bc35ff8a6074a6f2e91616a996b547c36f15
		<tag k="natural" v="water" />
		<tag k="ssr:stedsnr" v="256411" />
		<tag k="water" v="lake" />
	</node>
<<<<<<< HEAD
	<node lat="64.49530833715191" lon="10.97565277533979" id="-36391">
		<tag k="name" v="Kvalknottelva" />
		<tag k="ssr:stedsnr" v="269179" />
		<tag k="waterway" v="stream" />
	</node>
	<node lat="64.45155000377521" lon="10.960147221242245" id="-36404">
		<tag k="name" v="Dalaodden" />
		<tag k="natural" v="cape" />
		<tag k="ssr:stedsnr" v="292932" />
	</node>
	<node lat="64.45130832954966" lon="10.930355565006291" id="-36408">
		<tag k="name" v="Sautjønnbekken" />
		<tag k="ssr:stedsnr" v="292939" />
		<tag k="waterway" v="stream" />
	</node>
	<node lat="64.5269583293401" lon="10.71591110729715" id="-36438">
=======
	<node id="-789857" lat="64.428986113" lon="10.9335694452">
		<tag k="name" v="Sørelva" />
		<tag k="ssr:stedsnr" v="655755" />
		<tag k="waterway" v="river" />
	</node>
	<node id="-790880" lat="64.5269583293" lon="10.7159111073">
>>>>>>> e1d4bc35ff8a6074a6f2e91616a996b547c36f15
		<tag k="name" v="Yttertjønna" />
		<tag k="natural" v="water" />
		<tag k="ssr:stedsnr" v="317890" />
	</node>
<<<<<<< HEAD
	<node lat="64.5403638907046" lon="11.031008328958615" id="-36454">
		<tag k="name" v="Grovabekken" />
		<tag k="ssr:stedsnr" v="473282" />
		<tag k="waterway" v="stream" />
	</node>
	<node lat="64.5055500001975" lon="11.001391672857956" id="-36458">
		<tag k="name" v="Slettjønna" />
=======
	<node id="-791391" lat="64.3510416709" lon="10.8425444437">
		<tag k="name" v="Storelva" />
		<tag k="ssr:stedsnr" v="742841" />
		<tag k="waterway" v="river" />
	</node>
	<node id="-791390" lat="64.5007305553" lon="11.0062527728">
		<tag k="alt_name" v="Rørvatnet, store" />
		<tag k="name" v="Store Rørvatnet" />
>>>>>>> e1d4bc35ff8a6074a6f2e91616a996b547c36f15
		<tag k="natural" v="water" />
		<tag k="ssr:stedsnr" v="473298" />
	</node>
<<<<<<< HEAD
	<node lat="64.50297222112222" lon="11.006713892959528" id="-36459">
		<tag k="name" v="Rørvatna" />
		<tag k="natural" v="water" />
		<tag k="ssr:stedsnr" v="473485" />
	</node>
	<node lat="64.34536388805303" lon="10.902155561913744" id="-36474">
		<tag k="name" v="Rislibekken" />
		<tag k="ssr:stedsnr" v="473911" />
		<tag k="waterway" v="stream" />
	</node>
	<node lat="64.45625555710984" lon="10.94541389556313" id="-36478">
		<tag k="name" v="Roparvika" />
		<tag k="natural" v="bay" />
		<tag k="ssr:stedsnr" v="473937" />
	</node>
	<node lat="64.460452778703" lon="10.963277788012265" id="-36479">
		<tag k="name" v="Skjelderoparvika" />
		<tag k="natural" v="bay" />
		<tag k="ssr:stedsnr" v="473941" />
	</node>
	<node lat="64.44921944533624" lon="11.02755000457846" id="-36481">
		<tag k="name" v="Grønlitjønna" />
=======
	<node id="-790245" lat="64.3409638864" lon="10.7475388971">
		<tag k="name" v="Nilsskrottvatnet" />
		<tag k="natural" v="water" />
		<tag k="ssr:stedsnr" v="924296" />
	</node>
	<node id="-791610" lat="64.3753777802" lon="10.88666666">
		<tag k="name" v="Austerelva" />
		<tag k="ssr:stedsnr" v="863255" />
		<tag k="waterway" v="river" />
	</node>
	<node id="-789850" lat="64.3563888888" lon="10.8175833261">
		<tag k="name" v="Trollengelva" />
		<tag k="ssr:stedsnr" v="438353" />
		<tag k="waterway" v="stream" />
	</node>
	<node id="-791385" lat="64.4439833357" lon="10.7134500022">
		<tag k="name" v="Vikdalsvatnet" />
		<tag k="natural" v="water" />
		<tag k="ssr:stedsnr" v="742624" />
	</node>
	<node id="-791384" lat="64.4416555524" lon="10.6952361177">
		<tag k="name" v="Riskamtjønna" />
		<tag k="natural" v="water" />
		<tag k="ssr:stedsnr" v="742621" />
	</node>
	<node id="-790416" lat="64.5697138869" lon="10.9669999939">
		<tag k="name" v="Trollvatnet" />
		<tag k="natural" v="water" />
		<tag k="ssr:stedsnr" v="13585" />
	</node>
	<node id="-789855" lat="64.3611055569" lon="10.7536055631">
		<tag k="name" v="Lomtjønnin" />
		<tag k="natural" v="water" />
		<tag k="ssr:stedsnr" v="438366" />
	</node>
	<node id="-790088" lat="64.3410777755" lon="10.868736113">
		<tag k="name" v="Mølnåa" />
		<tag k="ssr:stedsnr" v="655890" />
		<tag k="waterway" v="stream" />
	</node>
	<node id="-791377" lat="64.4916333295" lon="10.8535250087">
		<tag k="name" v="Nordlivatnet" />
>>>>>>> e1d4bc35ff8a6074a6f2e91616a996b547c36f15
		<tag k="natural" v="water" />
		<tag k="ssr:stedsnr" v="351002" />
	</node>
<<<<<<< HEAD
	<node lat="64.47380555409117" lon="10.986824993512585" id="-36482">
		<tag k="name" v="Hestmarkfjellet" />
=======
	<node id="-789461" lat="64.3939499959" lon="10.6542916588">
		<tag k="name" v="Bølesetervatnet" />
		<tag k="natural" v="water" />
		<tag k="ssr:stedsnr" v="257729" />
	</node>
	<node id="-790862" lat="64.4594944482" lon="11.017375">
		<tag k="fixme" v="multiple name tags, choose one and add the other to alt_name" />
		<tag k="name" v="Store Skjeldelangvatnet;Langvatnet" />
>>>>>>> e1d4bc35ff8a6074a6f2e91616a996b547c36f15
		<tag k="natural" v="water" />
		<tag k="ssr:stedsnr" v="351469" />
		<tag k="water" v="lake" />
	</node>
<<<<<<< HEAD
	<node lat="64.30181666737266" lon="10.9437666769692" id="-36484">
		<tag k="name" v="Hestbekken" />
		<tag k="ssr:stedsnr" v="351866" />
		<tag k="waterway" v="stream" />
	</node>
	<node lat="64.51109722245887" lon="11.012688878528428" id="-36488">
		<tag k="name" v="Finnhøttdalstjønna" />
=======
	<node id="-790348" lat="64.3702000011" lon="10.8541027872">
		<tag k="name" v="Austerelva" />
		<tag k="ssr:stedsnr" v="898906" />
		<tag k="waterway" v="river" />
	</node>
	<node id="-790859" lat="64.3622194417" lon="10.8948333401">
		<tag k="name" v="Litlstøa" />
		<tag k="ssr:stedsnr" v="317327" />
		<tag k="waterway" v="stream" />
	</node>
	<node id="-790858" lat="64.381477774" lon="10.8658999953">
		<tag k="name" v="Litllomtjønna" />
>>>>>>> e1d4bc35ff8a6074a6f2e91616a996b547c36f15
		<tag k="natural" v="water" />
		<tag k="ssr:stedsnr" v="352262" />
	</node>
<<<<<<< HEAD
	<node lat="64.43381111484518" lon="10.864369447673834" id="-36492">
		<tag k="loc_name" v="Fannatjønna" />
		<tag k="name" v="Langvatnet" />
=======
	<node id="-791368" lat="64.5632249989" lon="10.9904111015">
		<tag k="name" v="Rørvatnet" />
>>>>>>> e1d4bc35ff8a6074a6f2e91616a996b547c36f15
		<tag k="natural" v="water" />
		<tag k="ssr:stedsnr" v="477646" />
	</node>
<<<<<<< HEAD
	<node lat="64.39031111067412" lon="10.941372224932216" id="-36496">
		<tag k="name" v="Seterlivatnet" />
		<tag k="natural" v="water" />
		<tag k="ssr:stedsnr" v="378271" />
	</node>
	<node lat="64.47540833679909" lon="10.875788887664243" id="-36497">
		<tag k="name" v="Taklivatnet" />
		<tag k="natural" v="water" />
		<tag k="ssr:stedsnr" v="378405" />
	</node>
	<node lat="64.48479444603794" lon="10.985433327541719" id="-36498">
		<tag k="alt_name" v="Kvalknottvatnet" />
		<tag k="name" v="Knottvatnet" />
		<tag k="natural" v="water" />
		<tag k="ssr:stedsnr" v="378411" />
	</node>
	<node lat="64.40005555517656" lon="10.707977775215522" id="-36499">
		<tag k="name" v="Molinvatnet" />
		<tag k="natural" v="water" />
		<tag k="ssr:stedsnr" v="378709" />
	</node>
	<node lat="64.39029722335621" lon="10.67172223106216" id="-36500">
		<tag k="name" v="Steintjønna" />
=======
	<node id="-790924" lat="64.424127782" lon="10.9819055651">
		<tag k="name" v="Damtjønna" />
		<tag k="natural" v="water" />
		<tag k="ssr:stedsnr" v="352978" />
	</node>
	<node id="-789563" lat="64.3524138918" lon="10.763655559">
		<tag k="name" v="Skjellåa" />
		<tag k="ssr:stedsnr" v="196313" />
		<tag k="waterway" v="river" />
	</node>
	<node id="-791365" lat="64.4502750014" lon="10.7707583251">
		<tag k="name" v="Vikvatnet" />
		<tag k="natural" v="water" />
		<tag k="ssr:stedsnr" v="741544" />
		<tag k="water" v="lake" />
	</node>
	<node id="-790023" lat="64.4420000031" lon="10.9903388921">
		<tag k="name" v="Skiftesbekken" />
		<tag k="ssr:stedsnr" v="715050" />
		<tag k="waterway" v="stream" />
	</node>
	<node id="-790666" lat="64.4247861134" lon="10.947088886">
		<tag k="name" v="Siverthogsten" />
		<tag k="natural" v="cape" />
		<tag k="ssr:stedsnr" v="110971" />
	</node>
	<node id="-790330" lat="64.5547388897" lon="10.9918444373">
		<tag k="name" v="Lomtjønna" />
		<tag k="natural" v="water" />
		<tag k="ssr:stedsnr" v="838372" />
	</node>
	<node id="-791353" lat="64.5319777797" lon="11.014244444">
		<tag k="name" v="Fossan" />
		<tag k="natural" v="waterfall" />
		<tag k="ssr:stedsnr" v="655268" />
	</node>
	<node id="-790328" lat="64.3833888899" lon="10.8958583301">
		<tag k="name" v="Tuvbekken" />
		<tag k="ssr:stedsnr" v="837963" />
		<tag k="waterway" v="stream" />
	</node>
	<node id="-790327" lat="64.4050527816" lon="10.8772472203">
		<tag k="name" v="Litlsvartvatnet" />
		<tag k="natural" v="bay" />
		<tag k="ssr:stedsnr" v="837958" />
	</node>
	<node id="-790325" lat="64.3355861098" lon="10.8043972233">
		<tag k="name" v="Bjønnaviktjønna" />
>>>>>>> e1d4bc35ff8a6074a6f2e91616a996b547c36f15
		<tag k="natural" v="water" />
		<tag k="ssr:stedsnr" v="378711" />
	</node>
<<<<<<< HEAD
	<node lat="64.516824997139" lon="11.01036944978626" id="-36503">
		<tag k="name" v="Dummelvatnet" />
		<tag k="natural" v="water" />
		<tag k="ssr:stedsnr" v="378730" />
	</node>
	<node lat="64.51378889123293" lon="10.984152780429438" id="-36504">
		<tag k="alt_name" v="Ramsfjelltjønna" />
		<tag k="name" v="Ramsfjellvatnet" />
		<tag k="natural" v="water" />
		<tag k="ssr:stedsnr" v="378732" />
	</node>
	<node lat="64.5789944440742" lon="11.008066669185144" id="-36535">
		<tag k="name" v="Innvordelva" />
		<tag k="ssr:stedsnr" v="483895" />
		<tag k="waterway" v="river" />
	</node>
	<node lat="64.44260833731379" lon="11.019416659856663" id="-36541">
		<tag k="name" v="Hundstibekken" />
		<tag k="ssr:stedsnr" v="412053" />
		<tag k="waterway" v="stream" />
	</node>
	<node lat="64.36793055492075" lon="10.818347222348976" id="-36552">
		<tag k="name" v="Øra" />
		<tag k="natural" v="cape" />
		<tag k="ssr:stedsnr" v="412909" />
	</node>
	<node lat="64.45808889056948" lon="10.917961102171521" id="-36558">
		<tag k="name" v="Vassodden" />
		<tag k="natural" v="cape" />
		<tag k="ssr:stedsnr" v="413999" />
	</node>
	<node lat="64.3563888887868" lon="10.817583326095397" id="-36572">
		<tag k="name" v="Trollengelva" />
		<tag k="ssr:stedsnr" v="438353" />
		<tag k="waterway" v="stream" />
	</node>
	<node lat="64.36110555689099" lon="10.753605563125578" id="-36577">
		<tag k="name" v="Lomtjønnin" />
=======
	<node id="-790319" lat="64.5277138903" lon="10.9812249985">
		<tag k="name" v="Sitterelva" />
		<tag k="ssr:stedsnr" v="837818" />
		<tag k="waterway" v="river" />
	</node>
	<node id="-789829" lat="64.4550777769" lon="10.6632972124">
		<tag k="name" v="Skrottjønna" />
		<tag k="natural" v="water" />
		<tag k="ssr:stedsnr" v="511029" />
	</node>
	<node id="-789639" lat="64.2995027747" lon="10.846175005">
		<tag k="name" v="Småholmvatnet" />
		<tag k="natural" v="water" />
		<tag k="ssr:stedsnr" v="257171" />
	</node>
	<node id="-791633" lat="64.3439055516" lon="10.718883324">
		<tag k="name" v="Lona" />
		<tag k="place" v="locality" />
		<tag k="ssr:stedsnr" v="864351" />
	</node>
	<node id="-790810" lat="64.5253333354" lon="10.7221027712">
		<tag k="name" v="Stortjønna" />
		<tag k="natural" v="water" />
		<tag k="ssr:stedsnr" v="197712" />
	</node>
	<node id="-791318" lat="64.3846194478" lon="10.6901833248">
		<tag k="name" v="Krokvatnet" />
		<tag k="natural" v="water" />
		<tag k="ssr:stedsnr" v="620694" />
		<tag k="water" v="lake" />
	</node>
	<node id="-790804" lat="64.2954333315" lon="10.8911111117">
		<tag k="name" v="Langvatna" />
>>>>>>> e1d4bc35ff8a6074a6f2e91616a996b547c36f15
		<tag k="natural" v="water" />
		<tag k="ssr:stedsnr" v="438366" />
	</node>
<<<<<<< HEAD
	<node lat="64.56905555843727" lon="10.9558027695042" id="-36585">
		<tag k="name" v="Frøsendalvatnet" />
		<tag k="natural" v="water" />
		<tag k="ssr:stedsnr" v="438560" />
	</node>
	<node lat="64.43344166831774" lon="11.009705562050906" id="-36607">
		<tag k="name" v="Stillelva" />
=======
	<node id="-790289" lat="64.5839111157" lon="10.9702611024">
		<tag k="name" v="Utvordvatnet" />
>>>>>>> e1d4bc35ff8a6074a6f2e91616a996b547c36f15
		<tag k="natural" v="water" />
		<tag k="ssr:stedsnr" v="473221" />
		<tag k="water" v="lake" />
	</node>
<<<<<<< HEAD
	<node lat="64.32367777899992" lon="10.926908330761778" id="-36619">
		<tag k="name" v="Nesa" />
		<tag k="natural" v="cape" />
		<tag k="ssr:stedsnr" v="473874" />
	</node>
	<node lat="64.32596666850793" lon="10.92049443575996" id="-36620">
		<tag k="name" v="Merranesa" />
		<tag k="natural" v="cape" />
		<tag k="ssr:stedsnr" v="473875" />
	</node>
	<node lat="64.44079166525823" lon="10.78238611194929" id="-36628">
		<tag k="alt_name" v="Floanvatnet" />
		<tag k="name" v="Floavatnet" />
=======
	<node id="-789775" lat="64.4981749956" lon="10.9935666736">
		<tag k="name" v="Hestmarktjønna" />
>>>>>>> e1d4bc35ff8a6074a6f2e91616a996b547c36f15
		<tag k="natural" v="water" />
		<tag k="ssr:stedsnr" v="681448" />
	</node>
<<<<<<< HEAD
	<node lat="64.34361111496221" lon="10.881883334736601" id="-36632">
		<tag k="name" v="Harrasvatnet" />
=======
	<node id="-789774" lat="64.422897225" lon="10.9177166684">
		<tag k="name" v="Grønlitjønna" />
>>>>>>> e1d4bc35ff8a6074a6f2e91616a996b547c36f15
		<tag k="natural" v="water" />
		<tag k="ssr:stedsnr" v="681335" />
	</node>
<<<<<<< HEAD
	<node lat="64.4563694450341" lon="10.918936102461199" id="-36639">
		<tag k="name" v="Fløavatnet" />
=======
	<node id="-790284" lat="64.5107416624" lon="11.0064388819">
		<tag k="alt_name" v="Ramsfjellvatnet, l;Litl - Ramsfjellvatnet" />
		<tag k="name" v="Litle Ramsfjellvatnet" />
>>>>>>> e1d4bc35ff8a6074a6f2e91616a996b547c36f15
		<tag k="natural" v="water" />
		<tag k="ssr:stedsnr" v="499404" />
	</node>
<<<<<<< HEAD
	<node lat="64.48693055803933" lon="10.985227788306668" id="-36698">
		<tag k="name" v="Fiskartrappen" />
		<tag k="ssr:stedsnr" v="533469" />
		<tag k="waterway" v="stream" />
	</node>
	<node lat="64.38743888927334" lon="10.927066667302737" id="-36713">
		<tag k="name" v="Laukviktjønna" />
=======
	<node id="-789634" lat="64.4412055597" lon="10.9779555604">
		<tag k="name" v="Morkavatnet" />
		<tag k="natural" v="water" />
		<tag k="ssr:stedsnr" v="256411" />
		<tag k="water" v="lake" />
	</node>
	<node id="-790487" lat="64.3155388933" lon="10.8162416594">
		<tag k="name" v="Krokfossen" />
		<tag k="natural" v="waterfall" />
		<tag k="ssr:stedsnr" v="48564" />
	</node>
	<node id="-790792" lat="64.3419999965" lon="10.7897833392">
		<tag k="name" v="Andreastjønna" />
>>>>>>> e1d4bc35ff8a6074a6f2e91616a996b547c36f15
		<tag k="natural" v="water" />
		<tag k="ssr:stedsnr" v="559236" />
	</node>
<<<<<<< HEAD
	<node lat="64.38119166492736" lon="10.878563882553582" id="-36714">
		<tag k="name" v="Lomtjønna" />
=======
	<node id="-789548" lat="64.5665055575" lon="11.0092749941">
		<tag k="name" v="Innvordvatnet" />
>>>>>>> e1d4bc35ff8a6074a6f2e91616a996b547c36f15
		<tag k="natural" v="water" />
		<tag k="ssr:stedsnr" v="559238" />
	</node>
<<<<<<< HEAD
	<node lat="64.36862777869598" lon="10.91276667273194" id="-36717">
		<tag k="name" v="Storvatnet" />
		<tag k="natural" v="water" />
		<tag k="ssr:stedsnr" v="559346" />
	</node>
	<node lat="64.42078333754006" lon="11.001358340042287" id="-36720">
		<tag k="name" v="Lennaelva" />
		<tag k="ssr:stedsnr" v="559295" />
		<tag k="waterway" v="river" />
	</node>
	<node lat="64.32307500052447" lon="10.832850002407378" id="-36724">
		<tag k="name" v="Krokvatnet" />
=======
	<node id="-791301" lat="64.4777555542" lon="10.950024997">
		<tag k="fixme" v="multiple name tags, choose one and add the other to alt_name" />
		<tag k="name" v="Lauvsnesvatnet;Storvatnet" />
>>>>>>> e1d4bc35ff8a6074a6f2e91616a996b547c36f15
		<tag k="natural" v="water" />
		<tag k="ssr:stedsnr" v="559839" />
		<tag k="water" v="lake" />
	</node>
<<<<<<< HEAD
	<node lat="64.46627777875959" lon="10.879405559560348" id="-36726">
		<tag k="name" v="Djupvikvatnet" />
=======
	<node id="-791299" lat="64.3665638905" lon="11.0370388898">
		<tag k="name" v="Sneililangvatnet" />
>>>>>>> e1d4bc35ff8a6074a6f2e91616a996b547c36f15
		<tag k="natural" v="water" />
		<tag k="ssr:stedsnr" v="560503" />
	</node>
<<<<<<< HEAD
	<node lat="64.50981944630897" lon="11.020275010324259" id="-36731">
		<tag k="name" v="Sitterkleivvatnet" />
=======
	<node id="-790785" lat="64.3048555589" lon="10.9357944439">
		<tag k="name" v="Sølvskålholtjønna" />
>>>>>>> e1d4bc35ff8a6074a6f2e91616a996b547c36f15
		<tag k="natural" v="water" />
		<tag k="ssr:stedsnr" v="560696" />
	</node>
<<<<<<< HEAD
	<node lat="64.45504444095229" lon="10.711888898986782" id="-36733">
		<tag k="name" v="Selsviktjønna" />
=======
	<node id="-791295" lat="64.4089638869" lon="10.9589416625">
		<tag k="name" v="Vesterlitjønna" />
>>>>>>> e1d4bc35ff8a6074a6f2e91616a996b547c36f15
		<tag k="natural" v="water" />
		<tag k="ssr:stedsnr" v="693029" />
	</node>
<<<<<<< HEAD
	<node lat="64.44881110896112" lon="10.774327775575964" id="-36736">
		<tag k="name" v="Markaodden" />
		<tag k="natural" v="cape" />
		<tag k="ssr:stedsnr" v="693138" />
	</node>
	<node lat="64.4546777823327" lon="10.727824996843461" id="-36741">
		<tag k="name" v="Kilvikbekken" />
		<tag k="ssr:stedsnr" v="571115" />
		<tag k="waterway" v="stream" />
	</node>
	<node lat="64.43320555483996" lon="10.991872213579565" id="-36759">
		<tag k="name" v="Fjellselva" />
		<tag k="ssr:stedsnr" v="594204" />
		<tag k="waterway" v="river" />
	</node>
	<node lat="64.32197777540536" lon="10.91118332328525" id="-36761">
		<tag k="name" v="Litl - Valavatnet" />
		<tag k="natural" v="water" />
		<tag k="ssr:stedsnr" v="594568" />
	</node>
	<node lat="64.39861389289905" lon="10.983652784908351" id="-36766">
		<tag k="name" v="Beingårdselva" />
		<tag k="ssr:stedsnr" v="594764" />
		<tag k="waterway" v="river" />
	</node>
	<node lat="64.34107777545044" lon="10.868736113008737" id="-36813">
		<tag k="name" v="Mølnåa" />
		<tag k="ssr:stedsnr" v="655890" />
		<tag k="waterway" v="stream" />
	</node>
	<node lat="64.375405555752" lon="10.860383342523198" id="-36815">
		<tag k="name" v="Lomtjønnbekken" />
		<tag k="ssr:stedsnr" v="655899" />
		<tag k="waterway" v="stream" />
	</node>
	<node lat="64.44659444557303" lon="10.968824999731783" id="-36818">
		<tag k="name" v="Dalaelva" />
		<tag k="ssr:stedsnr" v="655942" />
		<tag k="waterway" v="river" />
	</node>
	<node lat="64.45030000110955" lon="10.956199995040976" id="-36830">
		<tag k="name" v="Dalabotnet" />
		<tag k="natural" v="bay" />
		<tag k="ssr:stedsnr" v="681456" />
	</node>
	<node lat="64.45530277887381" lon="11.04367499557699" id="-36866">
		<tag k="name" v="Svarttjønnbekken" />
		<tag k="ssr:stedsnr" v="898049" />
		<tag k="waterway" v="stream" />
	</node>
	<node lat="64.32258055129078" lon="10.828258341441266" id="-36870">
		<tag k="name" v="Langodden" />
		<tag k="natural" v="cape" />
		<tag k="ssr:stedsnr" v="898597" />
	</node>
	<node lat="64.36846111541881" lon="10.843450009793996" id="-36873">
		<tag k="name" v="Austerelva" />
		<tag k="ssr:stedsnr" v="898878" />
		<tag k="waterway" v="river" />
	</node>
	<node lat="64.57389166694244" lon="10.981205546346239" id="-36883">
		<tag k="name" v="Rørvassbekken" />
		<tag k="ssr:stedsnr" v="898890" />
		<tag k="waterway" v="stream" />
	</node>
	<node lat="64.3702000010898" lon="10.854102787225566" id="-36886">
		<tag k="name" v="Austerelva" />
		<tag k="ssr:stedsnr" v="898906" />
		<tag k="waterway" v="river" />
	</node>
	<node lat="64.4472083375035" lon="10.961063887759403" id="-36900">
		<tag k="name" v="Rotvika" />
		<tag k="natural" v="bay" />
		<tag k="ssr:stedsnr" v="899940" />
	</node>
	<node lat="64.45027500138968" lon="10.770758325140214" id="-36913">
		<tag k="name" v="Vikvatnet" />
=======
	<node id="-790270" lat="64.5516333359" lon="11.0508500083">
		<tag k="name" v="Fagervatnet" />
		<tag k="natural" v="water" />
		<tag k="ssr:stedsnr" v="924628" />
	</node>
	<node id="-789757" lat="64.3880305515" lon="10.9710972178">
		<tag k="name" v="Smålielva" />
		<tag k="ssr:stedsnr" v="377237" />
		<tag k="waterway" v="stream" />
	</node>
	<node id="-789593" lat="64.3940527769" lon="10.6769694518">
		<tag k="name" v="Bertesetervatnet" />
		<tag k="natural" v="water" />
		<tag k="ssr:stedsnr" v="439693" />
	</node>
	<node id="-789407" lat="64.4802027739" lon="10.9755333308">
		<tag k="name" v="Sautjønna" />
		<tag k="natural" v="water" />
		<tag k="ssr:stedsnr" v="231826" />
	</node>
	<node id="-790776" lat="64.3820777792" lon="10.984711101">
		<tag k="alt_name" v="Grønlibekken" />
		<tag k="name" v="Grønlielva" />
		<tag k="ssr:stedsnr" v="195295" />
		<tag k="waterway" v="stream" />
	</node>
	<node id="-791287" lat="64.3432750026" lon="10.7658250062">
		<tag k="name" v="Indre Trollengelva" />
		<tag k="ssr:stedsnr" v="620316" />
		<tag k="waterway" v="stream" />
	</node>
	<node id="-790260" lat="64.4651194485" lon="11.023174998">
		<tag k="name" v="Finntjønna" />
		<tag k="natural" v="water" />
		<tag k="ssr:stedsnr" v="924462" />
	</node>
	<node id="-789971" lat="64.3994361145" lon="10.902947217">
		<tag k="name" v="Morkamyrtjønnin" />
		<tag k="natural" v="water" />
		<tag k="ssr:stedsnr" v="534954" />
	</node>
	<node id="-790256" lat="64.4248472196" lon="11.0322777878">
		<tag k="name" v="Gårdsetervatnet" />
>>>>>>> e1d4bc35ff8a6074a6f2e91616a996b547c36f15
		<tag k="natural" v="water" />
		<tag k="ssr:stedsnr" v="741544" />
		<tag k="water" v="lake" />
	</node>
<<<<<<< HEAD
	<node lat="64.56322499894888" lon="10.99041110145579" id="-36915">
		<tag k="name" v="Rørvatnet" />
=======
	<node id="-789713" lat="64.4562555571" lon="10.9454138956">
		<tag k="name" v="Roparvika" />
		<tag k="natural" v="bay" />
		<tag k="ssr:stedsnr" v="473937" />
	</node>
	<node id="-790253" lat="64.3621555595" lon="10.985261104">
		<tag k="name" v="Djupvatna" />
>>>>>>> e1d4bc35ff8a6074a6f2e91616a996b547c36f15
		<tag k="natural" v="water" />
		<tag k="ssr:stedsnr" v="741687" />
	</node>
<<<<<<< HEAD
	<node lat="64.33656388572811" lon="10.97580000334584" id="-36919">
		<tag k="name" v="Raptjønna" />
		<tag k="natural" v="water" />
		<tag k="ssr:stedsnr" v="742312" />
	</node>
	<node lat="64.35104167085724" lon="10.842544443730802" id="-36925">
		<tag k="name" v="Storelva" />
		<tag k="ssr:stedsnr" v="742841" />
		<tag k="waterway" v="river" />
	</node>
	<node lat="64.51033333475034" lon="10.999211113390638" id="-36931">
		<tag k="alt_name" v="Ramsfjellvatnet, store;Ramsfjellvatnet" />
		<tag k="name" v="Store Ramsfjellvatnet" />
=======
	<node id="-790763" lat="64.4561722236" lon="10.9152250016">
		<tag k="name" v="Furuodden" />
		<tag k="natural" v="cape" />
		<tag k="ssr:stedsnr" v="170990" />
	</node>
	<node id="-790761" lat="64.4203361108" lon="10.9357222198">
		<tag k="name" v="Telefonskartjønna" />
>>>>>>> e1d4bc35ff8a6074a6f2e91616a996b547c36f15
		<tag k="natural" v="water" />
		<tag k="ssr:stedsnr" v="743697" />
		<tag k="water" v="lake" />
	</node>
<<<<<<< HEAD
	<node lat="64.44472777715232" lon="10.711458332333505" id="-36936">
		<tag k="name" v="Jensodden" />
		<tag k="natural" v="cape" />
		<tag k="ssr:stedsnr" v="754013" />
	</node>
	<node lat="64.53122222384393" lon="11.028236116120793" id="-36969">
		<tag k="name" v="Heiavatna" />
=======
	<node id="-789736" lat="64.4338111148" lon="10.8643694477">
		<tag k="loc_name" v="Fannatjønna" />
		<tag k="name" v="Langvatnet" />
		<tag k="natural" v="water" />
		<tag k="ssr:stedsnr" v="477646" />
	</node>
	<node id="-791269" lat="64.4367694469" lon="10.9756916738">
		<tag k="name" v="Perodden" />
		<tag k="natural" v="cape" />
		<tag k="ssr:stedsnr" v="595984" />
	</node>
	<node id="-791268" lat="64.4374361078" lon="10.9788555451">
		<tag k="name" v="Storholmen" />
		<tag k="place" v="islet" />
		<tag k="ssr:stedsnr" v="595982" />
	</node>
	<node id="-790242" lat="64.4185888912" lon="10.8770750081">
		<tag k="name" v="Honnavassøset" />
		<tag k="natural" v="bay" />
		<tag k="ssr:stedsnr" v="924275" />
	</node>
	<node id="-790241" lat="64.4114833337" lon="10.9039666596">
		<tag k="name" v="Honnavatnet - Tjåerviejaevrie" />
		<tag k="name:no" v="Honnavatnet" />
		<tag k="name:sma" v="Tjåerviejaevrie" />
>>>>>>> e1d4bc35ff8a6074a6f2e91616a996b547c36f15
		<tag k="natural" v="water" />
		<tag k="ssr:stedsnr" v="777253" />
		<tag k="water" v="lake" />
	</node>
<<<<<<< HEAD
	<node lat="64.33003055182552" lon="10.865744437243968" id="-36983">
		<tag k="name" v="Aunavatnet" />
=======
	<node id="-790240" lat="64.3986583353" lon="10.8843861053">
		<tag k="name" v="Langmarktjønnin" />
>>>>>>> e1d4bc35ff8a6074a6f2e91616a996b547c36f15
		<tag k="natural" v="water" />
		<tag k="ssr:stedsnr" v="803320" />
	</node>
<<<<<<< HEAD
	<node lat="64.3974722214303" lon="10.81770555501519" id="-36985">
		<tag k="name" v="Ytre Brattviktjønna" />
=======
	<node id="-790239" lat="64.393388891" lon="10.7334888887">
		<tag k="name" v="Hustjønna" />
>>>>>>> e1d4bc35ff8a6074a6f2e91616a996b547c36f15
		<tag k="natural" v="water" />
		<tag k="ssr:stedsnr" v="803275" />
	</node>
<<<<<<< HEAD
	<node lat="64.36984166823667" lon="10.705750002262956" id="-36991">
		<tag k="alt_name" v="Hestdalvatnet" />
		<tag k="name" v="Hestdalsvatnet" />
		<tag k="natural" v="water" />
		<tag k="ssr:stedsnr" v="803707" />
	</node>
	<node lat="64.46511944847859" lon="11.02317499802145" id="-37010">
		<tag k="name" v="Finntjønna" />
		<tag k="natural" v="water" />
		<tag k="ssr:stedsnr" v="924462" />
	</node>
	<node lat="64.3832250041151" lon="11.060983340263288" id="-37015">
=======
	<node id="-790749" lat="64.5256138894" lon="11.0239472233">
		<tag k="name" v="Sitterkleivelva" />
		<tag k="ssr:stedsnr" v="170310" />
		<tag k="waterway" v="stream" />
	</node>
	<node id="-790235" lat="64.3832250041" lon="11.0609833403">
>>>>>>> e1d4bc35ff8a6074a6f2e91616a996b547c36f15
		<tag k="name" v="Eidbyggskardvatna" />
		<tag k="natural" v="water" />
		<tag k="ssr:stedsnr" v="924231" />
	</node>
<<<<<<< HEAD
	<node lat="64.39338889104428" lon="10.73348888870462" id="-37019">
		<tag k="name" v="Hustjønna" />
		<tag k="natural" v="water" />
		<tag k="ssr:stedsnr" v="924243" />
	</node>
	<node lat="64.3986583353144" lon="10.884386105261633" id="-37020">
		<tag k="name" v="Langmarktjønnin" />
		<tag k="natural" v="water" />
		<tag k="ssr:stedsnr" v="924247" />
	</node>
	<node lat="64.41148333369622" lon="10.903966659556609" id="-37021">
		<tag k="name" v="Honnavatnet - Tjåerviejaevrie" />
		<tag k="name:no" v="Honnavatnet" />
		<tag k="name:sma" v="Tjåerviejaevrie" />
=======
	<node id="-791257" lat="64.5255499989" lon="10.9975138864">
		<tag k="name" v="Dummelelva" />
		<tag k="ssr:stedsnr" v="595267" />
		<tag k="waterway" v="stream" />
	</node>
	<node id="-790139" lat="64.4068305512" lon="10.9942666673">
		<tag k="name" v="Engan" />
		<tag k="natural" v="water" />
		<tag k="ssr:stedsnr" v="715784" />
		<tag k="water" v="lake" />
	</node>
	<node id="-790739" lat="64.4023583345" lon="11.0194805537">
		<tag k="name" v="Eidbygdskarelva" />
		<tag k="ssr:stedsnr" v="169778" />
		<tag k="waterway" v="river" />
	</node>
	<node id="-789714" lat="64.4604527787" lon="10.963277788">
		<tag k="name" v="Skjelderoparvika" />
		<tag k="natural" v="bay" />
		<tag k="ssr:stedsnr" v="473941" />
	</node>
	<node id="-790225" lat="64.5312222238" lon="11.0282361161">
		<tag k="name" v="Heiavatna" />
>>>>>>> e1d4bc35ff8a6074a6f2e91616a996b547c36f15
		<tag k="natural" v="water" />
		<tag k="ssr:stedsnr" v="924250" />
		<tag k="water" v="lake" />
	</node>
<<<<<<< HEAD
	<node lat="64.41858889123188" lon="10.877075008074552" id="-37022">
		<tag k="name" v="Honnavassøset" />
		<tag k="natural" v="bay" />
		<tag k="ssr:stedsnr" v="924275" />
	</node>
	<node lat="64.34096388639043" lon="10.747538897147983" id="-37027">
		<tag k="name" v="Nilsskrottvatnet" />
		<tag k="natural" v="water" />
		<tag k="ssr:stedsnr" v="924296" />
	</node>
	<node lat="64.41299444123595" lon="11.007336104662931" id="-37029">
		<tag k="name" v="Damtjønna" />
		<tag k="natural" v="water" />
		<tag k="ssr:stedsnr" v="837781" />
	</node>
	<node lat="64.33558610975726" lon="10.804397223262951" id="-37033">
		<tag k="name" v="Bjønnaviktjønna" />
		<tag k="natural" v="water" />
		<tag k="ssr:stedsnr" v="837910" />
	</node>
	<node lat="64.38637500461458" lon="10.902861101960603" id="-37041">
		<tag k="name" v="Middagstjønna" />
		<tag k="natural" v="water" />
		<tag k="ssr:stedsnr" v="837976" />
	</node>
	<node lat="64.3887111068097" lon="10.899166676623977" id="-37042">
		<tag k="name" v="Setertjønna" />
		<tag k="natural" v="water" />
		<tag k="ssr:stedsnr" v="837978" />
	</node>
	<node lat="64.43141944062167" lon="10.905772229039627" id="-37044">
		<tag k="name" v="Heiatjønnin" />
=======
	<node id="-790224" lat="64.35361389" lon="10.8317111111">
		<tag k="name" v="Storneset" />
		<tag k="natural" v="cape" />
		<tag k="ssr:stedsnr" v="776880" />
	</node>
	<node id="-790392" lat="64.3223861086" lon="10.8854027692">
		<tag k="name" v="Svartvasselva" />
		<tag k="ssr:stedsnr" v="958613" />
		<tag k="waterway" v="river" />
	</node>
	<node id="-790734" lat="64.5000222226" lon="10.992594453">
		<tag k="name" v="Hestmarkbekken" />
		<tag k="ssr:stedsnr" v="169472" />
		<tag k="waterway" v="stream" />
	</node>
	<node id="-789709" lat="64.3453638881" lon="10.9021555619">
		<tag k="name" v="Rislibekken" />
		<tag k="ssr:stedsnr" v="473911" />
		<tag k="waterway" v="stream" />
	</node>
	<node id="-790219" lat="64.3188555601" lon="10.9435777797">
		<tag k="name" v="Langsteinholbekken" />
		<tag k="ssr:stedsnr" v="775856" />
		<tag k="waterway" v="stream" />
	</node>
	<node id="-791242" lat="64.5400055517" lon="10.9795499917">
		<tag k="name" v="Brennabekken" />
		<tag k="ssr:stedsnr" v="594793" />
		<tag k="waterway" v="stream" />
	</node>
	<node id="-789705" lat="64.3259666685" lon="10.9204944358">
		<tag k="name" v="Merranesa" />
		<tag k="natural" v="cape" />
		<tag k="ssr:stedsnr" v="473875" />
	</node>
	<node id="-789704" lat="64.323677779" lon="10.9269083308">
		<tag k="name" v="Nesa" />
		<tag k="natural" v="cape" />
		<tag k="ssr:stedsnr" v="473874" />
	</node>
	<node id="-791236" lat="64.3219777754" lon="10.9111833233">
		<tag k="name" v="Litl - Valavatnet" />
>>>>>>> e1d4bc35ff8a6074a6f2e91616a996b547c36f15
		<tag k="natural" v="water" />
		<tag k="ssr:stedsnr" v="838794" />
	</node>
<<<<<<< HEAD
	<node lat="64.55163333590558" lon="11.050850008274733" id="-37049">
		<tag k="name" v="Fagervatnet" />
		<tag k="natural" v="water" />
		<tag k="ssr:stedsnr" v="924628" />
	</node>
	<node lat="64.50533889044517" lon="11.01052500091845" id="-37059">
		<tag k="alt_name" v="Rørvatnet, l;Rørvatnet" />
		<tag k="name" v="Litle Rørvatnet" />
		<tag k="natural" v="water" />
		<tag k="ssr:stedsnr" v="924727" />
	</node>
	<node lat="64.38297222496585" lon="10.735672226727848" id="-37073">
		<tag k="name" v="Litlvatnet" />
		<tag k="natural" v="water" />
		<tag k="ssr:stedsnr" v="863252" />
	</node>
	<node lat="64.3753777801856" lon="10.886666659985197" id="-37074">
		<tag k="name" v="Austerelva" />
		<tag k="ssr:stedsnr" v="863255" />
		<tag k="waterway" v="river" />
	</node>
	<node lat="64.43463333016469" lon="10.928722220413798" id="-37077">
		<tag k="name" v="Plassasetervatnet" />
		<tag k="natural" v="water" />
		<tag k="ssr:stedsnr" v="863459" />
	</node>
	<node lat="64.3621555594663" lon="10.985261104013645" id="-37133">
		<tag k="name" v="Djupvatna" />
		<tag k="natural" v="water" />
		<tag k="ssr:stedsnr" v="924337" />
	</node>
	<node lat="64.42484721956734" lon="11.032277787769017" id="-37135">
		<tag k="name" v="Gårdsetervatnet" />
		<tag k="natural" v="water" />
		<tag k="ssr:stedsnr" v="924423" />
		<tag k="water" v="lake" />
	</node>
	<node lat="64.43377500005029" lon="10.863947228875915" id="-37136">
		<tag k="fixme" v="multiple name tags, choose one and add the other to alt_name" />
		<tag k="loc_name" v="Fannatjønna" />
		<tag k="name" v="Småvatna;Eriktjønnin" />
=======
	<node id="-791234" lat="64.4332055548" lon="10.9918722136">
		<tag k="name" v="Fjellselva" />
		<tag k="ssr:stedsnr" v="594204" />
		<tag k="waterway" v="river" />
	</node>
	<node id="-790731" lat="64.4822222199" lon="10.9899638955">
		<tag k="name" v="Fossen" />
		<tag k="natural" v="waterfall" />
		<tag k="ssr:stedsnr" v="169468" />
	</node>
	<node id="-789761" lat="64.3328305586" lon="10.7249388839">
		<tag k="name" v="Jotjønna" />
		<tag k="natural" v="water" />
		<tag k="ssr:stedsnr" v="499268" />
	</node>
	<node id="-789405" lat="64.535672221" lon="10.9998027822">
		<tag k="name" v="Gjeldtkårbekken" />
		<tag k="ssr:stedsnr" v="231299" />
		<tag k="waterway" v="stream" />
	</node>
	<node id="-791228" lat="64.3110611079" lon="10.7564583229">
		<tag k="name" v="Vinkeltjønna" />
		<tag k="natural" v="water" />
		<tag k="ssr:stedsnr" v="579022" />
	</node>
	<node id="-791583" lat="64.5641000031" lon="11.043291667">
		<tag k="name" v="Gravmarkbekken" />
		<tag k="ssr:stedsnr" v="838398" />
		<tag k="waterway" v="stream" />
	</node>
	<node id="-790513" lat="64.4137416655" lon="10.9373944476">
		<tag k="name" v="Honnavassbekken" />
		<tag k="ssr:stedsnr" v="48958" />
		<tag k="waterway" v="stream" />
	</node>
	<node id="-790197" lat="64.3898333369" lon="11.0848749983">
		<tag k="name" v="Dugurdstjønna" />
>>>>>>> e1d4bc35ff8a6074a6f2e91616a996b547c36f15
		<tag k="natural" v="water" />
		<tag k="ssr:stedsnr" v="924426" />
	</node>
<<<<<<< HEAD
	<node lat="64.33956944286656" lon="10.709177770399341" id="-37146">
		<tag k="name" v="Rundtjønna" />
=======
	<node id="-789684" lat="64.5055500002" lon="11.0013916729">
		<tag k="name" v="Slettjønna" />
>>>>>>> e1d4bc35ff8a6074a6f2e91616a996b547c36f15
		<tag k="natural" v="water" />
		<tag k="ssr:stedsnr" v="924721" />
	</node>
<<<<<<< HEAD
	<node lat="64.51074166235105" lon="11.006438881933734" id="-37154">
		<tag k="alt_name" v="Ramsfjellvatnet, l;Litl - Ramsfjellvatnet" />
		<tag k="name" v="Litle Ramsfjellvatnet" />
=======
	<node id="-790705" lat="64.5298000043" lon="11.0258166571">
		<tag k="alt_name" v="Heiavatnet, store" />
		<tag k="name" v="Storheiavatnet" />
>>>>>>> e1d4bc35ff8a6074a6f2e91616a996b547c36f15
		<tag k="natural" v="water" />
		<tag k="ssr:stedsnr" v="925747" />
		<tag k="water" v="lake" />
	</node>
<<<<<<< HEAD
	<node lat="64.39613889216525" lon="10.731047228831677" id="-37164">
		<tag k="name" v="Hustjønna" />
		<tag k="natural" v="water" />
		<tag k="ssr:stedsnr" v="956003" />
	</node>
	<node lat="64.45324722298551" lon="11.027697220697405" id="-37167">
		<tag k="name" v="Nordbokta" />
=======
	<node id="-789680" lat="64.5403638907" lon="11.031008329">
		<tag k="name" v="Grovabekken" />
		<tag k="ssr:stedsnr" v="473282" />
		<tag k="waterway" v="stream" />
	</node>
	<node id="-790190" lat="64.3365638857" lon="10.9758000033">
		<tag k="name" v="Raptjønna" />
		<tag k="natural" v="water" />
		<tag k="ssr:stedsnr" v="742312" />
	</node>
	<node id="-791211" lat="64.4546777823" lon="10.7278249968">
		<tag k="name" v="Kilvikbekken" />
		<tag k="ssr:stedsnr" v="571115" />
		<tag k="waterway" v="stream" />
	</node>
	<node id="-790184" lat="64.4472083375" lon="10.9610638878">
		<tag k="name" v="Rotvika" />
>>>>>>> e1d4bc35ff8a6074a6f2e91616a996b547c36f15
		<tag k="natural" v="bay" />
		<tag k="ssr:stedsnr" v="958001" />
	</node>
<<<<<<< HEAD
	<node lat="64.32238610863672" lon="10.885402769187738" id="-37168">
		<tag k="name" v="Svartvasselva" />
		<tag k="ssr:stedsnr" v="958613" />
		<tag k="waterway" v="river" />
	</node>
	<node lat="64.39812777913978" lon="11.01281944287245" id="-37171">
		<tag k="name" v="Stormyrtjønna" />
		<tag k="natural" v="water" />
		<tag k="ssr:stedsnr" v="958802" />
	</node>
	<node lat="64.57940833683381" lon="10.980819449897233" id="-37172">
		<tag k="name" v="Teigmoelva" />
		<tag k="ssr:stedsnr" v="958909" />
		<tag k="waterway" v="river" />
	</node>
	<node lat="64.50214736368092" lon="10.898368481435082" id="-37190">
		<tag k="name" v="Langtjønna" />
		<tag k="natural" v="water" />
		<tag k="ssr:stedsnr" v="987358" />
	</node>
	<node lat="64.56971388691964" lon="10.966999993883695" id="-37191">
		<tag k="name" v="Trollvatnet" />
=======
	<node id="-790376" lat="64.5053388904" lon="11.0105250009">
		<tag k="alt_name" v="Rørvatnet, l;Rørvatnet" />
		<tag k="name" v="Litle Rørvatnet" />
		<tag k="natural" v="water" />
		<tag k="ssr:stedsnr" v="924727" />
	</node>
	<node id="-791205" lat="64.5098194463" lon="11.0202750103">
		<tag k="name" v="Sitterkleivvatnet" />
		<tag k="natural" v="water" />
		<tag k="ssr:stedsnr" v="560696" />
	</node>
	<node id="-791197" lat="64.4020444438" lon="10.8644583238">
		<tag k="name" v="Svartvatna" />
>>>>>>> e1d4bc35ff8a6074a6f2e91616a996b547c36f15
		<tag k="natural" v="water" />
		<tag k="ssr:stedsnr" v="13585" />
	</node>
<<<<<<< HEAD
	<node lat="64.31897222259362" lon="10.910241666040227" id="-37203">
		<tag k="name" v="Valavatna" />
=======
	<node id="-791196" lat="64.2930166666" lon="10.8301722123">
		<tag k="name" v="Småvatna" />
>>>>>>> e1d4bc35ff8a6074a6f2e91616a996b547c36f15
		<tag k="natural" v="water" />
		<tag k="ssr:stedsnr" v="14249" />
	</node>
<<<<<<< HEAD
	<node lat="64.44120832988342" lon="11.023347219383053" id="-37205">
		<tag k="name" v="Løysmundlitjønna" />
=======
	<node id="-791195" lat="64.3230750005" lon="10.8328500024">
		<tag k="name" v="Krokvatnet" />
>>>>>>> e1d4bc35ff8a6074a6f2e91616a996b547c36f15
		<tag k="natural" v="water" />
		<tag k="ssr:stedsnr" v="14392" />
	</node>
<<<<<<< HEAD
	<node lat="64.47089999902555" lon="10.786841667302498" id="-37213">
		<tag k="name" v="Hillstadvatnet" />
		<tag k="natural" v="water" />
		<tag k="ssr:stedsnr" v="14418" />
	</node>
	<node lat="64.54355000402927" lon="11.033175009527152" id="-37216">
		<tag k="name" v="Langvatnet" />
=======
	<node id="-790166" lat="64.5738916669" lon="10.9812055463">
		<tag k="name" v="Rørvassbekken" />
		<tag k="ssr:stedsnr" v="898890" />
		<tag k="waterway" v="stream" />
	</node>
	<node id="-791188" lat="64.4299222187" lon="10.6296888849">
		<tag k="name" v="Håstadvatnet" />
>>>>>>> e1d4bc35ff8a6074a6f2e91616a996b547c36f15
		<tag k="natural" v="water" />
		<tag k="ssr:stedsnr" v="14580" />
	</node>
<<<<<<< HEAD
	<node lat="64.33936666531433" lon="10.934266674949026" id="-37253">
		<tag k="name" v="Litlengdalstjønna" />
		<tag k="natural" v="water" />
		<tag k="ssr:stedsnr" v="48561" />
	</node>
	<node lat="64.31553889331164" lon="10.816241659361502" id="-37254">
		<tag k="name" v="Krokfossen" />
		<tag k="natural" v="waterfall" />
		<tag k="ssr:stedsnr" v="48564" />
	</node>
	<node lat="64.4051972249836" lon="11.017955555213634" id="-37258">
		<tag k="name" v="Kvilnesa" />
		<tag k="natural" v="cape" />
		<tag k="ssr:stedsnr" v="48767" />
	</node>
	<node lat="64.33615555294439" lon="10.73710832358823" id="-37271">
		<tag k="name" v="Akseltjønna" />
		<tag k="natural" v="water" />
		<tag k="ssr:stedsnr" v="48938" />
	</node>
	<node lat="64.4137416654584" lon="10.937394447591906" id="-37274">
		<tag k="name" v="Honnavassbekken" />
		<tag k="ssr:stedsnr" v="48958" />
		<tag k="waterway" v="stream" />
	</node>
	<node lat="64.40710555803837" lon="10.888188881439374" id="-37275">
		<tag k="name" v="Smørauga" />
=======
	<node id="-790163" lat="64.3684611154" lon="10.8434500098">
		<tag k="name" v="Austerelva" />
		<tag k="ssr:stedsnr" v="898878" />
		<tag k="waterway" v="river" />
	</node>
	<node id="-791698" lat="64.4318055512" lon="10.9714749966">
		<tag k="name" v="Geitnesodden" />
		<tag k="natural" v="cape" />
		<tag k="ssr:stedsnr" v="959968" />
	</node>
	<node id="-790160" lat="64.3225805513" lon="10.8282583414">
		<tag k="name" v="Langodden" />
		<tag k="natural" v="cape" />
		<tag k="ssr:stedsnr" v="898597" />
	</node>
	<node id="-790669" lat="64.4602166677" lon="10.9101416602">
		<tag k="name" v="Vassbukta" />
		<tag k="natural" v="bay" />
		<tag k="ssr:stedsnr" v="110994" />
	</node>
	<node id="-790156" lat="64.4553027789" lon="11.0436749956">
		<tag k="name" v="Svarttjønnbekken" />
		<tag k="ssr:stedsnr" v="898049" />
		<tag k="waterway" v="stream" />
	</node>
	<node id="-791179" lat="64.3874388893" lon="10.9270666673">
		<tag k="name" v="Laukviktjønna" />
		<tag k="natural" v="water" />
		<tag k="ssr:stedsnr" v="559236" />
	</node>
	<node id="-791178" lat="64.4548999988" lon="10.9587972282">
		<tag k="alt_name" v="Dalevatnet" />
		<tag k="name" v="Dalavatnet" />
>>>>>>> e1d4bc35ff8a6074a6f2e91616a996b547c36f15
		<tag k="natural" v="water" />
		<tag k="ssr:stedsnr" v="48962" />
	</node>
<<<<<<< HEAD
	<node lat="64.51461944305348" lon="11.027988881247198" id="-37280">
		<tag k="name" v="Hola" />
=======
	<node id="-791177" lat="64.3686277787" lon="10.9127666727">
		<tag k="name" v="Storvatnet" />
>>>>>>> e1d4bc35ff8a6074a6f2e91616a996b547c36f15
		<tag k="natural" v="water" />
		<tag k="ssr:stedsnr" v="49323" />
	</node>
<<<<<<< HEAD
	<node lat="64.46279444161806" lon="10.899477776142126" id="-37291">
		<tag k="name" v="Sørelva" />
		<tag k="ssr:stedsnr" v="49993" />
		<tag k="waterway" v="river" />
	</node>
	<node lat="64.45140278085435" lon="10.805005552312979" id="-37309">
		<tag k="name" v="Erlandstjønna" />
		<tag k="natural" v="water" />
		<tag k="ssr:stedsnr" v="74470" />
	</node>
	<node lat="64.41266944327377" lon="10.656374993055453" id="-37331">
		<tag k="name" v="Austvikvatnet" />
		<tag k="natural" v="water" />
		<tag k="ssr:stedsnr" v="75724" />
	</node>
	<node lat="64.53071388991752" lon="10.777902785743088" id="-37332">
		<tag k="alt_name" v="Kvenntjønna" />
		<tag k="name" v="Kverntjønna" />
=======
	<node id="-790664" lat="64.5755777754" lon="11.0142749986">
		<tag k="name" v="Kvennabekken" />
		<tag k="ssr:stedsnr" v="110949" />
		<tag k="waterway" v="stream" />
	</node>
	<node id="-791175" lat="64.4207833375" lon="11.00135834">
		<tag k="name" v="Lennaelva" />
		<tag k="ssr:stedsnr" v="559295" />
		<tag k="waterway" v="river" />
	</node>
	<node id="-790721" lat="64.4844055586" lon="10.9326888847">
		<tag k="name" v="Mjøsundodden" />
		<tag k="natural" v="cape" />
		<tag k="ssr:stedsnr" v="147185" />
	</node>
	<node id="-790147" lat="64.4389444426" lon="10.9787027827">
		<tag k="name" v="Bjørkneset" />
		<tag k="natural" v="cape" />
		<tag k="ssr:stedsnr" v="716964" />
	</node>
	<node id="-791682" lat="64.5794083368" lon="10.9808194499">
		<tag k="name" v="Teigmoelva" />
		<tag k="ssr:stedsnr" v="958909" />
		<tag k="waterway" v="river" />
	</node>
	<node id="-789633" lat="64.3844055562" lon="10.8380555659">
		<tag k="name" v="Damtjønna" />
>>>>>>> e1d4bc35ff8a6074a6f2e91616a996b547c36f15
		<tag k="natural" v="water" />
		<tag k="ssr:stedsnr" v="75730" />
	</node>
<<<<<<< HEAD
	<node lat="64.55597499960804" lon="10.99270000349309" id="-37335">
		<tag k="name" v="Småtrolla" />
		<tag k="natural" v="water" />
		<tag k="ssr:stedsnr" v="75689" />
	</node>
	<node lat="64.45251389096146" lon="11.021811107557166" id="-37357">
		<tag k="name" v="Sørbukta" />
		<tag k="natural" v="bay" />
		<tag k="ssr:stedsnr" v="109001" />
	</node>
	<node lat="64.38265555221717" lon="10.920572218255892" id="-37360">
=======
	<node id="-789631" lat="64.4857444485" lon="11.0399777813">
		<tag k="name" v="Kroktjønna" />
		<tag k="natural" v="water" />
		<tag k="ssr:stedsnr" v="256361" />
	</node>
	<node id="-790654" lat="64.5357638912" lon="11.0131194491">
		<tag k="name" v="Nordfjellbekken" />
		<tag k="ssr:stedsnr" v="110252" />
		<tag k="waterway" v="stream" />
	</node>
	<node id="-791573" lat="64.387411107" lon="10.95061666">
		<tag k="name" v="Finnhusdalen" />
		<tag k="natural" v="water" />
		<tag k="ssr:stedsnr" v="837975" />
	</node>
	<node id="-791676" lat="64.3308055527" lon="10.947477774">
		<tag k="name" v="Raptjønna" />
		<tag k="natural" v="water" />
		<tag k="ssr:stedsnr" v="958885" />
	</node>
	<node id="-790651" lat="64.3826555522" lon="10.9205722183">
>>>>>>> e1d4bc35ff8a6074a6f2e91616a996b547c36f15
		<tag k="name" v="Rundtjønna" />
		<tag k="natural" v="water" />
		<tag k="ssr:stedsnr" v="109900" />
	</node>
<<<<<<< HEAD
	<node lat="64.31813055445198" lon="10.818794441002755" id="-37361">
		<tag k="name" v="Litlkrokvatnet" />
=======
	<node id="-791671" lat="64.3981277791" lon="11.0128194429">
		<tag k="name" v="Stormyrtjønna" />
		<tag k="natural" v="water" />
		<tag k="ssr:stedsnr" v="958802" />
	</node>
	<node id="-791669" lat="64.453247223" lon="11.0276972207">
		<tag k="name" v="Nordbokta" />
		<tag k="natural" v="bay" />
		<tag k="ssr:stedsnr" v="958001" />
	</node>
	<node id="-790644" lat="64.5761472225" lon="10.9332722165">
		<tag k="name" v="Bjørgenget" />
		<tag k="ssr:stedsnr" v="109877" />
		<tag k="waterway" v="stream" />
	</node>
	<node id="-790257" lat="64.4337750001" lon="10.8639472289">
		<tag k="fixme" v="multiple name tags, choose one and add the other to alt_name" />
		<tag k="loc_name" v="Fannatjønna" />
		<tag k="name" v="Eriktjønnin;Småvatna" />
		<tag k="natural" v="water" />
		<tag k="ssr:stedsnr" v="924426" />
	</node>
	<node id="-791665" lat="64.3961388922" lon="10.7310472288">
		<tag k="name" v="Hustjønna" />
>>>>>>> e1d4bc35ff8a6074a6f2e91616a996b547c36f15
		<tag k="natural" v="water" />
		<tag k="ssr:stedsnr" v="109554" />
		<tag k="water" v="lake" />
	</node>
<<<<<<< HEAD
	<node lat="64.40057777626568" lon="10.86712499222964" id="-37372">
=======
	<node id="-790639" lat="64.4005777763" lon="10.8671249922">
>>>>>>> e1d4bc35ff8a6074a6f2e91616a996b547c36f15
		<tag k="name" v="Setervika" />
		<tag k="natural" v="bay" />
		<tag k="ssr:stedsnr" v="109951" />
	</node>
<<<<<<< HEAD
	<node lat="64.53576389121892" lon="11.0131194490596" id="-37379">
		<tag k="name" v="Nordfjellbekken" />
		<tag k="ssr:stedsnr" v="110252" />
		<tag k="waterway" v="stream" />
	</node>
	<node lat="64.5755777753914" lon="11.014274998630421" id="-37384">
		<tag k="name" v="Kvennabekken" />
		<tag k="ssr:stedsnr" v="110949" />
		<tag k="waterway" v="stream" />
	</node>
	<node lat="64.46021666767709" lon="10.9101416601637" id="-37386">
		<tag k="name" v="Vassbukta" />
=======
	<node id="-789368" lat="64.470899999" lon="10.7868416673">
		<tag k="name" v="Hillstadvatnet" />
		<tag k="natural" v="water" />
		<tag k="ssr:stedsnr" v="14418" />
	</node>
	<node id="-789777" lat="64.456369445" lon="10.9189361025">
		<tag k="name" v="Fløavatnet" />
		<tag k="natural" v="water" />
		<tag k="ssr:stedsnr" v="499404" />
	</node>
	<node id="-789604" lat="64.3771833293" lon="10.9522916618">
		<tag k="name" v="Djupvassbekken" />
		<tag k="ssr:stedsnr" v="230913" />
		<tag k="waterway" v="stream" />
	</node>
	<node id="-790626" lat="64.452513891" lon="11.0218111076">
		<tag k="name" v="Sørbukta" />
>>>>>>> e1d4bc35ff8a6074a6f2e91616a996b547c36f15
		<tag k="natural" v="bay" />
		<tag k="ssr:stedsnr" v="110994" />
	</node>
<<<<<<< HEAD
	<node lat="64.52980000433026" lon="11.02581665710164" id="-37424">
		<tag k="alt_name" v="Heiavatnet, store" />
		<tag k="name" v="Storheiavatnet" />
		<tag k="natural" v="water" />
		<tag k="ssr:stedsnr" v="136682" />
		<tag k="water" v="lake" />
	</node>
	<node lat="64.4844055585625" lon="10.932688884733105" id="-37436">
		<tag k="name" v="Mjøsundodden" />
		<tag k="natural" v="cape" />
		<tag k="ssr:stedsnr" v="147185" />
	</node>
	<node lat="64.44375555137744" lon="10.685333332291359" id="-37437">
		<tag k="name" v="Bjørklitjønna" />
		<tag k="natural" v="water" />
		<tag k="ssr:stedsnr" v="147013" />
	</node>
	<node lat="64.4023583345158" lon="11.019480553720404" id="-37448">
		<tag k="name" v="Eidbygdskarelva" />
		<tag k="ssr:stedsnr" v="169778" />
		<tag k="waterway" v="river" />
	</node>
	<node lat="64.45617222364233" lon="10.915225001593129" id="-37460">
		<tag k="name" v="Furuodden" />
		<tag k="natural" v="cape" />
		<tag k="ssr:stedsnr" v="170990" />
	</node>
	<node lat="64.38207777916284" lon="10.984711100993062" id="-37474">
		<tag k="alt_name" v="Grønlibekken" />
		<tag k="name" v="Grønlielva" />
		<tag k="ssr:stedsnr" v="195295" />
		<tag k="waterway" v="stream" />
	</node>
	<node lat="64.56650555753549" lon="11.009274994144803" id="-37476">
		<tag k="name" v="Innvordvatnet" />
		<tag k="natural" v="water" />
		<tag k="ssr:stedsnr" v="195622" />
	</node>
	<node lat="64.35241389181397" lon="10.763655558974195" id="-37478">
		<tag k="name" v="Skjellåa" />
		<tag k="ssr:stedsnr" v="196313" />
		<tag k="waterway" v="river" />
	</node>
	<node lat="64.30485555888119" lon="10.935794443870918" id="-37484">
		<tag k="name" v="Sølvskålholtjønna" />
=======
	<node id="-789600" lat="64.4332666688" lon="10.9878666722">
		<tag k="name" v="Smedneset" />
		<tag k="natural" v="cape" />
		<tag k="ssr:stedsnr" v="230213" />
	</node>
	<node id="-791135" lat="64.486930558" lon="10.9852277883">
		<tag k="name" v="Fiskartrappen" />
		<tag k="ssr:stedsnr" v="533469" />
		<tag k="waterway" v="stream" />
	</node>
	<node id="-791645" lat="64.551313886" lon="10.9995361069">
		<tag k="name" v="Botnvatnet" />
		<tag k="natural" v="water" />
		<tag k="ssr:stedsnr" v="864688" />
	</node>
	<node id="-791129" lat="64.4167138921" lon="10.9535777699">
		<tag k="name" v="Beingårdsvatnet" />
		<tag k="natural" v="water" />
		<tag k="ssr:stedsnr" v="439291" />
		<tag k="water" v="lake" />
	</node>
	<node id="-791128" lat="64.4043944489" lon="11.0361527709">
		<tag k="name" v="Mefosselva" />
		<tag k="ssr:stedsnr" v="439277" />
		<tag k="waterway" v="stream" />
	</node>
	<node id="-790628" lat="64.3181305545" lon="10.818794441">
		<tag k="name" v="Litlkrokvatnet" />
		<tag k="natural" v="water" />
		<tag k="ssr:stedsnr" v="109554" />
		<tag k="water" v="lake" />
	</node>
	<node id="-791180" lat="64.3811916649" lon="10.8785638826">
		<tag k="name" v="Lomtjønna" />
		<tag k="natural" v="water" />
		<tag k="ssr:stedsnr" v="559238" />
	</node>
	<node id="-789585" lat="64.4637611116" lon="10.9869222261">
		<tag k="name" v="Kvernavatnet" />
		<tag k="natural" v="water" />
		<tag k="ssr:stedsnr" v="439473" />
	</node>
	<node id="-789688" lat="64.5029722211" lon="11.006713893">
		<tag k="name" v="Rørvatna" />
		<tag k="natural" v="water" />
		<tag k="ssr:stedsnr" v="473485" />
	</node>
	<node id="-791628" lat="64.4089750027" lon="10.9378333268">
		<tag k="name" v="Litlhonnavatnet" />
>>>>>>> e1d4bc35ff8a6074a6f2e91616a996b547c36f15
		<tag k="natural" v="water" />
		<tag k="ssr:stedsnr" v="196166" />
	</node>
<<<<<<< HEAD
	<node lat="64.42061944294709" lon="10.649900006880184" id="-37503">
		<tag k="name" v="Uransvatnet" />
=======
	<node id="-791627" lat="64.3877749984" lon="10.7421583296">
		<tag k="name" v="Rundtjønna" />
>>>>>>> e1d4bc35ff8a6074a6f2e91616a996b547c36f15
		<tag k="natural" v="water" />
		<tag k="ssr:stedsnr" v="196625" />
	</node>
<<<<<<< HEAD
	<node lat="64.5390805600231" lon="11.020433323421246" id="-37505">
		<tag k="name" v="Nordfjellvatnet" />
		<tag k="natural" v="water" />
		<tag k="ssr:stedsnr" v="196641" />
	</node>
	<node lat="64.46769722134177" lon="10.976250001513016" id="-37533">
		<tag k="name" v="Nordelva" />
		<tag k="ssr:stedsnr" v="292783" />
		<tag k="waterway" v="river" />
	</node>
	<node lat="64.3814777739841" lon="10.865899995264359" id="-37564">
		<tag k="name" v="Litllomtjønna" />
=======
	<node id="-790601" lat="64.5307138899" lon="10.7779027857">
		<tag k="alt_name" v="Kvenntjønna" />
		<tag k="name" v="Kverntjønna" />
		<tag k="natural" v="water" />
		<tag k="ssr:stedsnr" v="75730" />
	</node>
	<node id="-790600" lat="64.4126694433" lon="10.6563749931">
		<tag k="name" v="Austvikvatnet" />
>>>>>>> e1d4bc35ff8a6074a6f2e91616a996b547c36f15
		<tag k="natural" v="water" />
		<tag k="ssr:stedsnr" v="317239" />
	</node>
<<<<<<< HEAD
	<node lat="64.36221944173695" lon="10.894833340146382" id="-37573">
		<tag k="name" v="Litlstøa" />
		<tag k="ssr:stedsnr" v="317327" />
		<tag k="waterway" v="stream" />
	</node>
	<node lat="64.45949444818115" lon="11.017375000011645" id="-37574">
		<tag k="fixme" v="multiple name tags, choose one and add the other to alt_name" />
		<tag k="name" v="Store Skjeldelangvatnet;Langvatnet" />
=======
	<node id="-789772" lat="64.4141249983" lon="10.8316999946">
		<tag k="name" v="Nervatnet" />
		<tag k="natural" v="water" />
		<tag k="ssr:stedsnr" v="499220" />
	</node>
	<node id="-790596" lat="64.5559749996" lon="10.9927000035">
		<tag k="name" v="Småtrolla" />
		<tag k="natural" v="water" />
		<tag k="ssr:stedsnr" v="75689" />
	</node>
	<node id="-789571" lat="64.53908056" lon="11.0204333234">
		<tag k="name" v="Nordfjellvatnet" />
>>>>>>> e1d4bc35ff8a6074a6f2e91616a996b547c36f15
		<tag k="natural" v="water" />
		<tag k="ssr:stedsnr" v="317436" />
		<tag k="water" v="lake" />
	</node>
<<<<<<< HEAD
	<node lat="64.38594444866025" lon="10.644624995405348" id="-37582">
		<tag k="name" v="Bølevatnet" />
=======
	<node id="-791618" lat="64.4346333302" lon="10.9287222204">
		<tag k="name" v="Plassasetervatnet" />
>>>>>>> e1d4bc35ff8a6074a6f2e91616a996b547c36f15
		<tag k="natural" v="water" />
		<tag k="ssr:stedsnr" v="317632" />
	</node>
<<<<<<< HEAD
	<node lat="64.36168610890962" lon="10.8216999929684" id="-37628">
		<tag k="name" v="Jøssundfossen" />
		<tag k="natural" v="waterfall" />
		<tag k="ssr:stedsnr" v="351880" />
	</node>
	<node lat="64.57352500202684" lon="10.996225004101365" id="-37635">
		<tag k="name" v="Tørbersbekken" />
		<tag k="ssr:stedsnr" v="352950" />
		<tag k="waterway" v="stream" />
	</node>
	<node lat="64.42412778200173" lon="10.98190556514197" id="-37639">
		<tag k="name" v="Damtjønna" />
=======
	<node id="-791105" lat="64.5690555584" lon="10.9558027695">
		<tag k="name" v="Frøsendalvatnet" />
		<tag k="natural" v="water" />
		<tag k="ssr:stedsnr" v="438560" />
	</node>
	<node id="-791101" lat="64.4555888889" lon="11.0025694514">
		<tag k="name" v="Skjålitjønna" />
>>>>>>> e1d4bc35ff8a6074a6f2e91616a996b547c36f15
		<tag k="natural" v="water" />
		<tag k="ssr:stedsnr" v="352978" />
	</node>
<<<<<<< HEAD
	<node lat="64.3880305514538" lon="10.971097217833023" id="-37662">
		<tag k="name" v="Smålielva" />
		<tag k="ssr:stedsnr" v="377237" />
		<tag k="waterway" v="stream" />
	</node>
	<node lat="64.37810277706845" lon="10.927841661895034" id="-37663">
		<tag k="name" v="Hanakamvatnet" />
		<tag k="natural" v="water" />
		<tag k="ssr:stedsnr" v="377238" />
	</node>
	<node lat="64.43644444330883" lon="10.88887499086032" id="-37670">
		<tag k="name" v="Tverråa" />
=======
	<node id="-790587" lat="64.4672222266" lon="11.0011944527">
		<tag k="fixme" v="multiple name tags, choose one and add the other to alt_name" />
		<tag k="name" v="Skjeldelangvatnet;Nordlangvatnet" />
		<tag k="natural" v="water" />
		<tag k="ssr:stedsnr" v="75509" />
		<tag k="water" v="lake" />
	</node>
	<node id="-789440" lat="64.3526222262" lon="10.7408861208">
		<tag k="name" v="Skjørbekken" />
		<tag k="ssr:stedsnr" v="256328" />
		<tag k="waterway" v="stream" />
	</node>
	<node id="-791609" lat="64.382972225" lon="10.7356722267">
		<tag k="name" v="Litlvatnet" />
>>>>>>> e1d4bc35ff8a6074a6f2e91616a996b547c36f15
		<tag k="natural" v="water" />
		<tag k="ssr:stedsnr" v="377442" />
	</node>
<<<<<<< HEAD
	<node lat="64.40470555769139" lon="10.895652772141032" id="-37686">
		<tag k="name" v="Finnhusbukta" />
		<tag k="natural" v="bay" />
		<tag k="ssr:stedsnr" v="378298" />
	</node>
	<node lat="64.34443333150024" lon="11.007075001716814" id="-37688">
		<tag k="name" v="Oksvatnet - Stoerre Njuanajaevrie" />
		<tag k="name:no" v="Oksvatnet" />
		<tag k="name:sma" v="Stoerre Njuanajaevrie" />
=======
	<node id="-790584" lat="64.4186194454" lon="10.9925583352">
		<tag k="name" v="Selafossen" />
		<tag k="natural" v="waterfall" />
		<tag k="ssr:stedsnr" v="75314" />
	</node>
	<node id="-790583" lat="64.4214473716" lon="10.8211621637">
		<tag k="name" v="Steinviktjønna" />
>>>>>>> e1d4bc35ff8a6074a6f2e91616a996b547c36f15
		<tag k="natural" v="water" />
		<tag k="ssr:stedsnr" v="378337" />
		<tag k="water" v="lake" />
	</node>
<<<<<<< HEAD
	<node lat="64.46863333516497" lon="10.794091674099308" id="-37705">
		<tag k="name" v="Skåran" />
		<tag k="natural" v="water" />
		<tag k="ssr:stedsnr" v="390085" />
	</node>
	<node lat="64.31736111229027" lon="10.94654165810603" id="-37718">
		<tag k="name" v="Gomholbekken" />
		<tag k="ssr:stedsnr" v="411869" />
		<tag k="waterway" v="stream" />
	</node>
	<node lat="64.42915555339773" lon="11.02609999507674" id="-37720">
		<tag k="name" v="Mjøsundodden" />
		<tag k="natural" v="cape" />
		<tag k="ssr:stedsnr" v="412188" />
	</node>
	<node lat="64.33455000005735" lon="10.846402774223634" id="-37722">
		<tag k="name" v="Krokelva" />
		<tag k="ssr:stedsnr" v="412557" />
		<tag k="waterway" v="river" />
	</node>
	<node lat="64.57484999839801" lon="10.965813886696798" id="-37732">
		<tag k="name" v="Kvennhusbekken" />
		<tag k="ssr:stedsnr" v="412874" />
		<tag k="waterway" v="stream" />
	</node>
	<node lat="64.37848055304363" lon="10.879252784882352" id="-37735">
		<tag k="name" v="Gammelsetertjønnin" />
		<tag k="natural" v="water" />
		<tag k="ssr:stedsnr" v="412950" />
	</node>
	<node lat="64.45334444262271" lon="10.948652775718026" id="-37742">
=======
	<node id="-791305" lat="64.4532000027" lon="10.8977972194">
		<tag k="alt_name" v="Tverråbekken" />
		<tag k="name" v="Tverråelva" />
		<tag k="ssr:stedsnr" v="620458" />
		<tag k="waterway" v="stream" />
	</node>
	<node id="-789605" lat="64.4080972209" lon="10.8822416573">
		<tag k="name" v="Gaulitjønna" />
		<tag k="natural" v="water" />
		<tag k="ssr:stedsnr" v="230956" />
	</node>
	<node id="-791241" lat="64.3986138929" lon="10.9836527849">
		<tag k="name" v="Beingårdselva" />
		<tag k="ssr:stedsnr" v="594764" />
		<tag k="waterway" v="river" />
	</node>
	<node id="-789412" lat="64.4401333371" lon="10.9701166652">
		<tag k="name" v="Hattjønna" />
		<tag k="natural" v="water" />
		<tag k="ssr:stedsnr" v="231976" />
	</node>
	<node id="-789552" lat="64.4676972213" lon="10.9762500015">
		<tag k="name" v="Nordelva" />
		<tag k="ssr:stedsnr" v="292783" />
		<tag k="waterway" v="river" />
	</node>
	<node id="-791048" lat="64.3345500001" lon="10.8464027742">
		<tag k="name" v="Krokelva" />
		<tag k="ssr:stedsnr" v="412557" />
		<tag k="waterway" v="river" />
	</node>
	<node id="-791596" lat="64.3804638847" lon="10.8401888978">
		<tag k="name" v="Damtjønnbekken" />
		<tag k="ssr:stedsnr" v="838951" />
		<tag k="waterway" v="stream" />
	</node>
	<node id="-791082" lat="64.4580888906" lon="10.9179611022">
		<tag k="name" v="Vassodden" />
		<tag k="natural" v="cape" />
		<tag k="ssr:stedsnr" v="413999" />
	</node>
	<node id="-791081" lat="64.4533444426" lon="10.9486527757">
>>>>>>> e1d4bc35ff8a6074a6f2e91616a996b547c36f15
		<tag k="name" v="Botnodden" />
		<tag k="natural" v="cape" />
		<tag k="ssr:stedsnr" v="413945" />
	</node>
<<<<<<< HEAD
	<node lat="64.3940527768932" lon="10.676969451822117" id="-37753">
		<tag k="name" v="Bertesetervatnet" />
=======
	<node id="-790564" lat="64.4514027809" lon="10.8050055523">
		<tag k="name" v="Erlandstjønna" />
>>>>>>> e1d4bc35ff8a6074a6f2e91616a996b547c36f15
		<tag k="natural" v="water" />
		<tag k="ssr:stedsnr" v="439693" />
	</node>
<<<<<<< HEAD
	<node lat="64.45558888887554" lon="11.002569451409174" id="-37760">
		<tag k="name" v="Skjålitjønna" />
=======
	<node id="-790563" lat="64.449175002" lon="10.8124861058">
		<tag k="name" v="Svarttjønna" />
>>>>>>> e1d4bc35ff8a6074a6f2e91616a996b547c36f15
		<tag k="natural" v="water" />
		<tag k="ssr:stedsnr" v="438456" />
	</node>
<<<<<<< HEAD
	<node lat="64.40439444886137" lon="11.036152770866781" id="-37779">
		<tag k="name" v="Mefosselva" />
		<tag k="ssr:stedsnr" v="439277" />
		<tag k="waterway" v="stream" />
	</node>
	<node lat="64.41671389212745" lon="10.953577769923783" id="-37780">
		<tag k="name" v="Beingårdsvatnet" />
		<tag k="natural" v="water" />
		<tag k="ssr:stedsnr" v="439291" />
		<tag k="water" v="lake" />
	</node>
	<node lat="64.46376111159991" lon="10.986922226087776" id="-37784">
		<tag k="name" v="Kvernavatnet" />
		<tag k="natural" v="water" />
		<tag k="ssr:stedsnr" v="439473" />
	</node>
	<node lat="64.57803333601576" lon="10.973949999705669" id="-37794">
		<tag k="name" v="Renndalsvatnet" />
		<tag k="natural" v="water" />
		<tag k="ssr:stedsnr" v="499521" />
	</node>
	<node lat="64.37769166872545" lon="10.706363882963675" id="-37796">
		<tag k="name" v="Daudtjønna" />
=======
	<node id="-791585" lat="64.4314194406" lon="10.905772229">
		<tag k="name" v="Heiatjønnin" />
		<tag k="natural" v="water" />
		<tag k="ssr:stedsnr" v="838794" />
	</node>
	<node id="-791071" lat="64.378480553" lon="10.8792527849">
		<tag k="name" v="Gammelsetertjønnin" />
		<tag k="natural" v="water" />
		<tag k="ssr:stedsnr" v="412950" />
	</node>
	<node id="-791581" lat="64.3454277742" lon="10.7995638792">
		<tag k="name" v="Johandammen" />
		<tag k="ssr:stedsnr" v="837894" />
		<tag k="waterway" v="dam" />
	</node>
	<node id="-790874" lat="64.3859444487" lon="10.6446249954">
		<tag k="name" v="Bølevatnet" />
		<tag k="natural" v="water" />
		<tag k="ssr:stedsnr" v="317632" />
	</node>
	<node id="-791066" lat="64.3679305549" lon="10.8183472223">
		<tag k="name" v="Øra" />
		<tag k="natural" v="cape" />
		<tag k="ssr:stedsnr" v="412909" />
	</node>
	<node id="-790041" lat="64.3673833331" lon="10.8456194545">
		<tag k="name" v="Gaupdalsbekken" />
		<tag k="ssr:stedsnr" v="716867" />
		<tag k="waterway" v="stream" />
	</node>
	<node id="-791575" lat="64.3887111068" lon="10.8991666766">
		<tag k="name" v="Setertjønna" />
>>>>>>> e1d4bc35ff8a6074a6f2e91616a996b547c36f15
		<tag k="natural" v="water" />
		<tag k="ssr:stedsnr" v="499666" />
	</node>
<<<<<<< HEAD
	<node lat="64.30834180726335" lon="10.857899119982763" id="-37797">
		<tag k="alt_name" v="Setertjønna" />
		<tag k="name" v="Middagstjønna" />
		<tag k="natural" v="water" />
		<tag k="ssr:stedsnr" v="499118" />
	</node>
	<node lat="64.31189722303347" lon="10.909666658265094" id="-37798">
		<tag k="name" v="Svartvatnet" />
=======
	<node id="-791574" lat="64.3863750046" lon="10.902861102">
		<tag k="name" v="Middagstjønna" />
		<tag k="natural" v="water" />
		<tag k="ssr:stedsnr" v="837976" />
	</node>
	<node id="-791061" lat="64.5748499984" lon="10.9658138867">
		<tag k="name" v="Kvennhusbekken" />
		<tag k="ssr:stedsnr" v="412874" />
		<tag k="waterway" v="stream" />
	</node>
	<node id="-791572" lat="64.3771805551" lon="10.9229777798">
		<tag k="name" v="Hanekamtjønna" />
>>>>>>> e1d4bc35ff8a6074a6f2e91616a996b547c36f15
		<tag k="natural" v="water" />
		<tag k="ssr:stedsnr" v="499123" />
	</node>
<<<<<<< HEAD
	<node lat="64.41412499834217" lon="10.831699994567943" id="-37800">
		<tag k="name" v="Nervatnet" />
		<tag k="natural" v="water" />
		<tag k="ssr:stedsnr" v="499220" />
	</node>
	<node lat="64.42289722502032" lon="10.917716668431392" id="-37803">
		<tag k="name" v="Grønlitjønna" />
		<tag k="natural" v="water" />
		<tag k="ssr:stedsnr" v="499240" />
	</node>
	<node lat="64.33283055858129" lon="10.72493888393212" id="-37804">
		<tag k="name" v="Jotjønna" />
		<tag k="natural" v="water" />
		<tag k="ssr:stedsnr" v="499268" />
	</node>
	<node lat="64.4981749956362" lon="10.993566673626248" id="-37807">
		<tag k="name" v="Hestmarktjønna" />
		<tag k="natural" v="water" />
		<tag k="ssr:stedsnr" v="499361" />
	</node>
	<node lat="64.45507777690999" lon="10.663297212408205" id="-37835">
		<tag k="name" v="Skrottjønna" />
		<tag k="natural" v="water" />
		<tag k="ssr:stedsnr" v="511029" />
	</node>
	<node lat="64.3730555562983" lon="10.902502772533827" id="-37858">
		<tag k="name" v="Storvasstjønna" />
=======
	<node id="-789678" lat="64.4334416683" lon="11.0097055621">
		<tag k="name" v="Stillelva" />
		<tag k="natural" v="water" />
		<tag k="ssr:stedsnr" v="473221" />
		<tag k="water" v="lake" />
	</node>
	<node id="-789507" lat="64.4953083372" lon="10.9756527753">
		<tag k="name" v="Kvalknottelva" />
		<tag k="ssr:stedsnr" v="269179" />
		<tag k="waterway" v="stream" />
	</node>
	<node id="-791567" lat="64.4129944412" lon="11.0073361047">
		<tag k="name" v="Damtjønna" />
		<tag k="natural" v="water" />
		<tag k="ssr:stedsnr" v="837781" />
	</node>
	<node id="-790029" lat="64.5037416636" lon="10.9940666725">
		<tag k="name" v="Kvennbekken" />
		<tag k="ssr:stedsnr" v="715484" />
		<tag k="waterway" v="stream" />
	</node>
	<node id="-790103" lat="64.4503000011" lon="10.956199995">
		<tag k="name" v="Dalabotnet" />
		<tag k="natural" v="bay" />
		<tag k="ssr:stedsnr" v="681456" />
	</node>
	<node id="-791155" lat="64.3730555563" lon="10.9025027725">
		<tag k="name" v="Storvasstjønna" />
		<tag k="natural" v="water" />
		<tag k="ssr:stedsnr" v="534893" />
	</node>
	<node id="-790535" lat="64.4627944416" lon="10.8994777761">
		<tag k="name" v="Sørelva" />
		<tag k="ssr:stedsnr" v="49993" />
		<tag k="waterway" v="river" />
	</node>
	<node id="-789510" lat="64.4437555514" lon="10.6853333323">
		<tag k="name" v="Bjørklitjønna" />
>>>>>>> e1d4bc35ff8a6074a6f2e91616a996b547c36f15
		<tag k="natural" v="water" />
		<tag k="ssr:stedsnr" v="534893" />
	</node>
<<<<<<< HEAD
	<node lat="64.39943611454758" lon="10.902947217049789" id="-37874">
		<tag k="name" v="Morkamyrtjønnin" />
		<tag k="natural" v="water" />
		<tag k="ssr:stedsnr" v="534954" />
	</node>
	<node lat="64.41771666282183" lon="10.844605564226553" id="-37887">
		<tag k="name" v="Myllåvatnet" />
		<tag k="natural" v="water" />
		<tag k="ssr:stedsnr" v="559264" />
	</node>
	<node lat="64.4548999988287" lon="10.958797228231631" id="-37891">
		<tag k="alt_name" v="Dalevatnet" />
		<tag k="name" v="Dalavatnet" />
		<tag k="natural" v="water" />
		<tag k="ssr:stedsnr" v="559476" />
		<tag k="water" v="lake" />
	</node>
	<node lat="64.42992221872251" lon="10.62968888485396" id="-37912">
		<tag k="name" v="Håstadvatnet" />
		<tag k="natural" v="water" />
		<tag k="ssr:stedsnr" v="559680" />
	</node>
	<node lat="64.31515555836974" lon="10.78262500421792" id="-37913">
		<tag k="name" v="Rotmannstjønna" />
		<tag k="natural" v="water" />
		<tag k="ssr:stedsnr" v="560156" />
	</node>
	<node lat="64.2930166666261" lon="10.830172212319043" id="-37914">
		<tag k="name" v="Småvatna" />
		<tag k="natural" v="water" />
		<tag k="ssr:stedsnr" v="560171" />
	</node>
	<node lat="64.40204444383002" lon="10.864458323764412" id="-37916">
		<tag k="name" v="Svartvatna" />
		<tag k="natural" v="water" />
		<tag k="ssr:stedsnr" v="560281" />
		<tag k="water" v="lake" />
	</node>
	<node lat="64.31106110786472" lon="10.75645832292001" id="-37936">
		<tag k="name" v="Vinkeltjønna" />
		<tag k="natural" v="water" />
		<tag k="ssr:stedsnr" v="579022" />
	</node>
	<node lat="64.54000555173921" lon="10.979549991709822" id="-37945">
		<tag k="name" v="Brennabekken" />
		<tag k="ssr:stedsnr" v="594793" />
		<tag k="waterway" v="stream" />
	</node>
	<node lat="64.52554999885221" lon="10.997513886419632" id="-37953">
		<tag k="name" v="Dummelelva" />
		<tag k="ssr:stedsnr" v="595267" />
		<tag k="waterway" v="stream" />
	</node>
	<node lat="64.43743610781956" lon="10.978855545072227" id="-37964">
		<tag k="name" v="Storholmen" />
		<tag k="place" v="islet" />
		<tag k="ssr:stedsnr" v="595982" />
	</node>
	<node lat="64.43676944689558" lon="10.975691673786747" id="-37965">
		<tag k="name" v="Perodden" />
		<tag k="natural" v="cape" />
		<tag k="ssr:stedsnr" v="595984" />
	</node>
	<node lat="64.40896388685069" lon="10.958941662450346" id="-37985">
		<tag k="name" v="Vesterlitjønna" />
		<tag k="natural" v="water" />
		<tag k="ssr:stedsnr" v="620266" />
	</node>
	<node lat="64.3665638904888" lon="11.037038889764471" id="-37990">
		<tag k="name" v="Sneililangvatnet" />
		<tag k="natural" v="water" />
		<tag k="ssr:stedsnr" v="620349" />
	</node>
	<node lat="64.47775555422736" lon="10.95002499695163" id="-37992">
		<tag k="fixme" v="multiple name tags, choose one and add the other to alt_name" />
		<tag k="name" v="Storvatnet;Lauvsnesvatnet" />
		<tag k="natural" v="water" />
		<tag k="ssr:stedsnr" v="620364" />
		<tag k="water" v="lake" />
	</node>
	<node lat="64.3432750026453" lon="10.765825006207795" id="-37994">
		<tag k="name" v="Indre Trollengelva" />
		<tag k="ssr:stedsnr" v="620316" />
		<tag k="waterway" v="stream" />
	</node>
	<node lat="64.45320000274782" lon="10.897797219445685" id="-37996">
		<tag k="alt_name" v="Tverråbekken" />
		<tag k="name" v="Tverråelva" />
		<tag k="ssr:stedsnr" v="620458" />
		<tag k="waterway" v="stream" />
	</node>
	<node lat="64.38461944783877" lon="10.690183324755353" id="-38004">
		<tag k="name" v="Krokvatnet" />
		<tag k="natural" v="water" />
		<tag k="ssr:stedsnr" v="620694" />
		<tag k="water" v="lake" />
	</node>
	<node lat="64.53197777970415" lon="11.01424444398921" id="-38039">
		<tag k="name" v="Fossan" />
		<tag k="natural" v="waterfall" />
		<tag k="ssr:stedsnr" v="655268" />
	</node>
	<node lat="64.4289861129557" lon="10.933569445156396" id="-38048">
		<tag k="name" v="Sørelva" />
		<tag k="ssr:stedsnr" v="655755" />
		<tag k="waterway" v="river" />
	</node>
	<node lat="64.43126944421601" lon="10.960966670103886" id="-38054">
		<tag k="name" v="Geitanesbukta" />
		<tag k="natural" v="bay" />
		<tag k="ssr:stedsnr" v="655972" />
	</node>
	<node lat="64.44200000313843" lon="10.990338892112462" id="-38068">
		<tag k="name" v="Skiftesbekken" />
		<tag k="ssr:stedsnr" v="715050" />
		<tag k="waterway" v="stream" />
	</node>
	<node lat="64.50374166364398" lon="10.994066672547216" id="-38071">
		<tag k="name" v="Kvennbekken" />
		<tag k="ssr:stedsnr" v="715484" />
		<tag k="waterway" v="stream" />
	</node>
	<node lat="64.40683055120743" lon="10.994266667332726" id="-38073">
		<tag k="name" v="Engan" />
		<tag k="natural" v="water" />
		<tag k="ssr:stedsnr" v="715784" />
		<tag k="water" v="lake" />
	</node>
	<node lat="64.3673833330503" lon="10.845619454541923" id="-38085">
		<tag k="name" v="Gaupdalsbekken" />
		<tag k="ssr:stedsnr" v="716867" />
		<tag k="waterway" v="stream" />
	</node>
	<node lat="64.43894444257378" lon="10.978702782671489" id="-38093">
		<tag k="name" v="Bjørkneset" />
		<tag k="natural" v="cape" />
		<tag k="ssr:stedsnr" v="716964" />
	</node>
	<node lat="64.38983333687129" lon="11.084874998274758" id="-38112">
		<tag k="name" v="Dugurdstjønna" />
		<tag k="natural" v="water" />
		<tag k="ssr:stedsnr" v="742253" />
	</node>
	<node lat="64.49163332946527" lon="10.853525008657927" id="-38122">
		<tag k="name" v="Nordlivatnet" />
		<tag k="natural" v="water" />
		<tag k="ssr:stedsnr" v="742390" />
	</node>
	<node lat="64.44165555242981" lon="10.695236117673074" id="-38130">
		<tag k="name" v="Riskamtjønna" />
		<tag k="natural" v="water" />
		<tag k="ssr:stedsnr" v="742621" />
	</node>
	<node lat="64.44398333565414" lon="10.713450002152195" id="-38131">
		<tag k="name" v="Vikdalsvatnet" />
		<tag k="natural" v="water" />
		<tag k="ssr:stedsnr" v="742624" />
	</node>
	<node lat="64.50073055528459" lon="11.006252772800089" id="-38134">
		<tag k="alt_name" v="Rørvatnet, store" />
		<tag k="name" v="Store Rørvatnet" />
		<tag k="natural" v="water" />
		<tag k="ssr:stedsnr" v="742727" />
	</node>
	<node lat="64.48394167074031" lon="10.93041667009764" id="-38151">
		<tag k="name" v="Mjøsundet" />
		<tag k="natural" v="strait" />
		<tag k="ssr:stedsnr" v="754198" />
	</node>
	<node lat="64.31885556005145" lon="10.943577779705935" id="-38157">
		<tag k="name" v="Langsteinholbekken" />
		<tag k="ssr:stedsnr" v="775856" />
		<tag k="waterway" v="stream" />
	</node>
	<node lat="64.43275000031792" lon="11.019413882884683" id="-38159">
		<tag k="name" v="Vikan" />
		<tag k="natural" v="bay" />
		<tag k="ssr:stedsnr" v="776048" />
	</node>
	<node lat="64.35361388996091" lon="10.83171111109769" id="-38172">
		<tag k="name" v="Storneset" />
		<tag k="natural" v="cape" />
		<tag k="ssr:stedsnr" v="776880" />
	</node>
	<node lat="64.41293888976827" lon="10.90647778135304" id="-38175">
		<tag k="name" v="Morkaodden" />
		<tag k="natural" v="cape" />
		<tag k="ssr:stedsnr" v="776953" />
	</node>
	<node lat="64.5574416649658" lon="11.04394166286915" id="-38181">
		<tag k="name" v="Fossan" />
		<tag k="natural" v="waterfall" />
		<tag k="ssr:stedsnr" v="777332" />
	</node>
	<node lat="64.45600833529102" lon="10.966583339687839" id="-38189">
		<tag k="name" v="Storholmen" />
		<tag k="place" v="islet" />
		<tag k="ssr:stedsnr" v="777999" />
	</node>
	<node lat="64.43768333015255" lon="10.863488887934434" id="-38192">
		<tag k="name" v="Hestskotjønna" />
		<tag k="natural" v="water" />
		<tag k="ssr:stedsnr" v="780551" />
	</node>
	<node lat="64.44570555839437" lon="10.93390278266706" id="-38213">
		<tag k="name" v="Sautjønna" />
		<tag k="natural" v="water" />
		<tag k="ssr:stedsnr" v="802525" />
	</node>
	<node lat="64.44769999911196" lon="10.85044721391546" id="-38214">
		<tag k="name" v="Årfjordtjønna" />
		<tag k="natural" v="water" />
		<tag k="ssr:stedsnr" v="802527" />
	</node>
	<node lat="64.58391111567128" lon="10.970261102374735" id="-38218">
		<tag k="name" v="Utvordvatnet" />
		<tag k="natural" v="water" />
		<tag k="ssr:stedsnr" v="802635" />
	</node>
	<node lat="64.39291111494559" lon="10.85285832572613" id="-38229">
		<tag k="name" v="Indre Brattviktjønna" />
		<tag k="natural" v="water" />
		<tag k="ssr:stedsnr" v="803283" />
	</node>
	<node lat="64.53226388898503" lon="11.004230564635094" id="-38235">
		<tag k="fixme" v="multiple name tags, choose one and add the other to alt_name" />
		<tag k="name" v="Heiaelva;Sitterelva" />
		<tag k="ssr:stedsnr" v="803680" />
		<tag k="waterway" v="stream" />
	</node>
	<node lat="64.51734722019577" lon="10.715763879677977" id="-38244">
		<tag k="name" v="Grønnavågtjønna" />
		<tag k="natural" v="water" />
		<tag k="ssr:stedsnr" v="803917" />
	</node>
	<node lat="64.52771389031739" lon="10.981224998465233" id="-38273">
		<tag k="name" v="Sitterelva" />
		<tag k="ssr:stedsnr" v="837818" />
		<tag k="waterway" v="river" />
	</node>
	<node lat="64.34542777417681" lon="10.799563879220031" id="-38276">
		<tag k="name" v="Johandammen" />
		<tag k="ssr:stedsnr" v="837894" />
		<tag k="waterway" v="dam" />
	</node>
	<node lat="64.40505278161078" lon="10.877247220256983" id="-38284">
		<tag k="name" v="Litlsvartvatnet" />
		<tag k="natural" v="bay" />
		<tag k="ssr:stedsnr" v="837958" />
	</node>
	<node lat="64.38338888985422" lon="10.895858330094384" id="-38285">
		<tag k="name" v="Tuvbekken" />
		<tag k="ssr:stedsnr" v="837963" />
		<tag k="waterway" v="stream" />
	</node>
	<node lat="64.3771805550569" lon="10.922977779811236" id="-38286">
		<tag k="name" v="Hanekamtjønna" />
		<tag k="natural" v="water" />
		<tag k="ssr:stedsnr" v="837974" />
	</node>
	<node lat="64.56410000307457" lon="11.043291666975124" id="-38289">
		<tag k="name" v="Gravmarkbekken" />
		<tag k="ssr:stedsnr" v="838398" />
		<tag k="waterway" v="stream" />
	</node>
	<node lat="64.55473888967389" lon="10.991844437285117" id="-38290">
		<tag k="name" v="Lomtjønna" />
		<tag k="natural" v="water" />
		<tag k="ssr:stedsnr" v="838372" />
	</node>
	<node lat="64.38046388466138" lon="10.84018889784052" id="-38299">
		<tag k="name" v="Damtjønnbekken" />
		<tag k="ssr:stedsnr" v="838951" />
		<tag k="waterway" v="stream" />
	</node>
	<node lat="64.36097500385773" lon="10.935658324581931" id="-38313">
		<tag k="name" v="Nordlitjønna" />
		<tag k="natural" v="water" />
		<tag k="ssr:stedsnr" v="863344" />
	</node>
	<node lat="64.38777499843225" lon="10.742158329594908" id="-38318">
		<tag k="name" v="Rundtjønna" />
		<tag k="natural" v="water" />
		<tag k="ssr:stedsnr" v="864281" />
	</node>
	<node lat="64.40897500268227" lon="10.937833326819883" id="-38325">
		<tag k="name" v="Litlhonnavatnet" />
		<tag k="natural" v="water" />
		<tag k="ssr:stedsnr" v="864297" />
	</node>
	<node lat="64.34390555161485" lon="10.718883324037593" id="-38329">
		<tag k="name" v="Lona" />
		<tag k="place" v="locality" />
		<tag k="ssr:stedsnr" v="864351" />
	</node>
	<node lat="64.55131388599212" lon="10.99953610693029" id="-38334">
		<tag k="name" v="Botnvatnet" />
		<tag k="natural" v="water" />
		<tag k="ssr:stedsnr" v="864688" />
	</node>
	<node lat="64.31008888671222" lon="10.913044453285028" id="-38376">
		<tag k="name" v="Evenodden" />
		<tag k="natural" v="cape" />
		<tag k="ssr:stedsnr" v="958574" />
	</node>
	<node lat="64.32761388740337" lon="10.83929999413633" id="-38377">
		<tag k="name" v="Lona" />
		<tag k="natural" v="water" />
		<tag k="ssr:stedsnr" v="958629" />
		<tag k="water" v="lake" />
	</node>
	<node lat="64.33080555271326" lon="10.947477773988805" id="-38379">
		<tag k="name" v="Raptjønna" />
		<tag k="natural" v="water" />
		<tag k="ssr:stedsnr" v="958885" />
	</node>
	<node lat="64.43180555121607" lon="10.971474996586858" id="-38397">
		<tag k="name" v="Geitnesodden" />
		<tag k="natural" v="cape" />
		<tag k="ssr:stedsnr" v="959968" />
	</node>
=======
	<node id="-791045" lat="64.4291555534" lon="11.0260999951">
		<tag k="name" v="Mjøsundodden" />
		<tag k="natural" v="cape" />
		<tag k="ssr:stedsnr" v="412188" />
	</node>
	<node id="-791043" lat="64.4426083373" lon="11.0194166599">
		<tag k="name" v="Hundstibekken" />
		<tag k="ssr:stedsnr" v="412053" />
		<tag k="waterway" v="stream" />
	</node>
	<node id="-791042" lat="64.3173611123" lon="10.9465416581">
		<tag k="name" v="Gomholbekken" />
		<tag k="ssr:stedsnr" v="411869" />
		<tag k="waterway" v="stream" />
	</node>
>>>>>>> e1d4bc35ff8a6074a6f2e91616a996b547c36f15
</osm>
