<?xml version="1.0" encoding="UTF-8"?>
<osm generator="osmapis" version="0.6">
	<node id="-100352" lat="64.5939277819" lon="11.001513885">
		<tag k="name" v="Nesodden" />
		<tag k="natural" v="cape" />
		<tag k="ssr:stedsnr" v="377574" />
	</node>
	<node id="-100350" lat="64.5782416647" lon="10.7989944434">
		<tag k="name" v="Sør-Ellingråsa" />
		<tag k="natural" v="strait" />
		<tag k="ssr:stedsnr" v="377550" />
	</node>
	<node id="-100339" lat="64.5005194468" lon="10.9122305455">
		<tag k="name" v="Lauvsnesøra" />
		<tag k="natural" v="beach" />
		<tag k="place" v="locality" />
		<tag k="ssr:stedsnr" v="360683" />
	</node>
	<node id="-100330" lat="64.4482611135" lon="10.6032833409">
		<tag k="name" v="Kvalkvika" />
		<tag k="natural" v="bay" />
		<tag k="ssr:stedsnr" v="352767" />
	</node>
	<node id="-100323" lat="64.6054611077" lon="10.961952768">
		<tag k="name" v="Vågaholman" />
		<tag k="place" v="islet" />
		<tag k="ssr:stedsnr" v="351949" />
	</node>
	<node id="-100321" lat="64.5960305598" lon="10.8692305589">
		<tag k="fixme" v="consider seamark:type=rock or natural=shoal" />
		<tag k="name" v="Spekskjæra" />
		<tag k="place" v="islet" />
		<tag k="ssr:stedsnr" v="351899" />
	</node>
	<node id="-100318" lat="64.5576805583" lon="10.8655000009">
		<tag k="name" v="Finsandholmen" />
		<tag k="place" v="islet" />
		<tag k="ssr:stedsnr" v="351874" />
	</node>
	<node id="-100317" lat="64.5604777807" lon="10.875608339">
		<tag k="name" v="Steinsøyvalen" />
		<tag k="natural" v="strait" />
		<tag k="ssr:stedsnr" v="351873" />
	</node>
	<node id="-100313" lat="64.523358334" lon="10.7028888825">
		<tag k="name" v="Grønavågen" />
		<tag k="natural" v="bay" />
		<tag k="ssr:stedsnr" v="351852" />
	</node>
	<node id="-100303" lat="64.414330559" lon="10.8099638942">
		<tag k="name" v="Storvika" />
		<tag k="natural" v="bay" />
		<tag k="ssr:stedsnr" v="352945" />
	</node>
	<node id="-100297" lat="64.5799361148" lon="10.8623083363">
		<tag k="fixme" v="consider seamark:type=rock or natural=shoal" />
		<tag k="name" v="Lindøygalten" />
		<tag k="place" v="islet" />
		<tag k="ssr:stedsnr" v="331921" />
	</node>
	<node id="-100296" lat="64.545155553" lon="10.8292305535">
		<tag k="name" v="Nordre Lamgrunnen" />
		<tag k="natural" v="shoal" />
		<tag k="place" v="locality" />
		<tag k="ssr:stedsnr" v="331779" />
	</node>
	<node id="-100295" lat="64.5260777752" lon="10.8764777807">
		<tag k="name" v="Barøysundet" />
		<tag k="natural" v="strait" />
		<tag k="ssr:stedsnr" v="331775" />
	</node>
	<node id="-100294" lat="64.5281916643" lon="10.9034527762">
		<tag k="name" v="Litlgrunnen" />
		<tag k="natural" v="shoal" />
		<tag k="place" v="locality" />
		<tag k="ssr:stedsnr" v="331772" />
	</node>
	<node id="-98977" lat="64.509805557" lon="10.8234694366">
		<tag k="alt_name" v="Hestholmen, store" />
		<tag k="name" v="Store Hestholmen" />
		<tag k="place" v="islet" />
		<tag k="ssr:stedsnr" v="440672" />
	</node>
	<node id="-100292" lat="64.4737194405" lon="10.8389277762">
		<tag k="name" v="Risskogvika" />
		<tag k="natural" v="bay" />
		<tag k="ssr:stedsnr" v="330091" />
	</node>
	<node id="-100291" lat="64.5168083345" lon="10.7984055607">
		<tag k="name" v="Mossavika" />
		<tag k="natural" v="bay" />
		<tag k="ssr:stedsnr" v="330088" />
	</node>
	<node id="-100288" lat="64.490072223" lon="10.7178250035">
		<tag k="name" v="Kvernholmen" />
		<tag k="place" v="islet" />
		<tag k="ssr:stedsnr" v="330136" />
	</node>
	<node id="-100287" lat="64.4645916622" lon="10.4940638934">
		<tag k="fixme" v="consider seamark:type=rock or natural=shoal" />
		<tag k="name" v="Søre Kanteråskjæra" />
		<tag k="old_name" v="Kanteråskjæra;Kanteråskjera" />
		<tag k="place" v="islet" />
		<tag k="ssr:stedsnr" v="329781" />
	</node>
	<node id="-100285" lat="64.5215611097" lon="10.8812638893">
		<tag k="name" v="Geitaryggen" />
		<tag k="place" v="islet" />
		<tag k="ssr:stedsnr" v="329152" />
	</node>
	<node id="-100282" lat="64.5085638868" lon="10.9421361063">
		<tag k="name" v="Langstranda" />
		<tag k="natural" v="beach" />
		<tag k="place" v="locality" />
		<tag k="ssr:stedsnr" v="329137" />
	</node>
	<node id="-100278" lat="64.4970833324" lon="10.8815083296">
		<tag k="name" v="Jektvika" />
		<tag k="natural" v="bay" />
		<tag k="ssr:stedsnr" v="328050" />
	</node>
	<node id="-100277" lat="64.6093638918" lon="10.9705999982">
		<tag k="name" v="Vordtaren" />
		<tag k="natural" v="shoal" />
		<tag k="place" v="locality" />
		<tag k="ssr:stedsnr" v="327877" />
	</node>
	<node id="-100276" lat="64.6175388921" lon="10.9253666707">
		<tag k="name" v="Svarttaren" />
		<tag k="natural" v="shoal" />
		<tag k="place" v="locality" />
		<tag k="ssr:stedsnr" v="327857" />
	</node>
	<node id="-100275" lat="64.6116861086" lon="10.8946749975">
		<tag k="fixme" v="consider seamark:type=rock or natural=shoal" />
		<tag k="name" v="Stabben" />
		<tag k="place" v="islet" />
		<tag k="ssr:stedsnr" v="327849" />
	</node>
	<node id="-100274" lat="64.4182750032" lon="10.7675583373">
		<tag k="name" v="Mefjordtaren" />
		<tag k="natural" v="shoal" />
		<tag k="place" v="locality" />
		<tag k="ssr:stedsnr" v="327101" />
	</node>
	<node id="-100273" lat="64.3895444483" lon="10.7764555512">
		<tag k="name" v="Barholmen" />
		<tag k="place" v="islet" />
		<tag k="ssr:stedsnr" v="327087" />
	</node>
	<node id="-100272" lat="64.4790027745" lon="10.590413896">
		<tag k="name" v="Vesterknausen" />
		<tag k="natural" v="shoal" />
		<tag k="place" v="locality" />
		<tag k="ssr:stedsnr" v="327186" />
	</node>
	<node id="-100271" lat="64.4805666681" lon="10.6221944445">
		<tag k="name" v="Nordknausen" />
		<tag k="place" v="locality" />
		<tag k="seamark:type" v="rock" />
		<tag k="ssr:stedsnr" v="327184" />
	</node>
	<node id="-100270" lat="64.5168083377" lon="10.9138277693">
		<tag k="name" v="Storkløvningen" />
		<tag k="natural" v="cape" />
		<tag k="ssr:stedsnr" v="318718" />
	</node>
	<node id="-100269" lat="64.5236861102" lon="10.8849194447">
		<tag k="name" v="Slåtterøya" />
		<tag k="place" v="islet" />
		<tag k="ssr:stedsnr" v="318716" />
	</node>
	<node id="-100268" lat="64.5084861101" lon="10.9082250002">
		<tag k="alt_name" v="Elva" />
		<tag k="name" v="Lauvsneselva" />
		<tag k="natural" v="bay" />
		<tag k="ssr:stedsnr" v="318712" />
	</node>
	<node id="-100267" lat="64.5103999993" lon="10.8462138938">
		<tag k="name" v="Flatholmen" />
		<tag k="place" v="islet" />
		<tag k="ssr:stedsnr" v="318706" />
	</node>
	<node id="-100265" lat="64.5282305552" lon="10.8586944362">
		<tag k="name" v="Nordneset" />
		<tag k="natural" v="cape" />
		<tag k="ssr:stedsnr" v="318699" />
	</node>
	<node id="-100264" lat="64.5247166691" lon="10.7906361053">
		<tag k="alt_name" v="Kvennøyvika" />
		<tag k="name" v="Kvernøyvika" />
		<tag k="natural" v="bay" />
		<tag k="ssr:stedsnr" v="318691" />
	</node>
	<node id="-100262" lat="64.5057666622" lon="10.6913694507">
		<tag k="alt_name" v="Aspøyholman" />
		<tag k="name" v="Aspøyholmen" />
		<tag k="place" v="islet" />
		<tag k="ssr:stedsnr" v="317909" />
	</node>
	<node id="-100260" lat="64.5266555543" lon="10.6569444543">
		<tag k="name" v="Lisskvaløya" />
		<tag k="place" v="islet" />
		<tag k="ssr:stedsnr" v="317886" />
	</node>
	<node id="-100259" lat="64.5229472251" lon="10.6908166576">
		<tag k="name" v="Halmøya" />
		<tag k="place" v="island" />
		<tag k="ssr:stedsnr" v="317883" />
	</node>
	<node id="-100258" lat="64.5409277815" lon="10.6686972194">
		<tag k="name" v="Glasøyværet" />
		<tag k="place" v="island" />
		<tag k="ssr:stedsnr" v="317880" />
	</node>
	<node id="-100257" lat="64.5506111142" lon="10.7158527696">
		<tag k="name" v="Havsholmen" />
		<tag k="place" v="islet" />
		<tag k="ssr:stedsnr" v="317879" />
	</node>
	<node id="-100256" lat="64.3967416642" lon="10.6286527872">
		<tag k="name" v="Rognin" />
		<tag k="place" v="islet" />
		<tag k="ssr:stedsnr" v="317641" />
	</node>
	<node id="-100254" lat="64.5462027738" lon="10.7407250021">
		<tag k="alt_name" v="Skårflesa, store;Skårflesa" />
		<tag k="fixme" v="consider seamark:type=rock or natural=shoal" />
		<tag k="name" v="Store Skårflesa" />
		<tag k="place" v="islet" />
		<tag k="ssr:stedsnr" v="317598" />
	</node>
	<node id="-100252" lat="64.5972805574" lon="10.8991444392">
		<tag k="name" v="Fiskholmen" />
		<tag k="place" v="islet" />
		<tag k="ssr:stedsnr" v="317500" />
	</node>
	<node id="-100251" lat="64.6024916669" lon="10.9172138799">
		<tag k="alt_name" v="Sauskjæret" />
		<tag k="fixme" v="consider seamark:type=rock or natural=shoal" />
		<tag k="name" v="Sauskjær" />
		<tag k="place" v="islet" />
		<tag k="ssr:stedsnr" v="317497" />
	</node>
	<node id="-100249" lat="64.5952111129" lon="10.8752222271">
		<tag k="name" v="Skingsspelen" />
		<tag k="natural" v="cape" />
		<tag k="ssr:stedsnr" v="317486" />
	</node>
	<node id="-100248" lat="64.5571194474" lon="11.0745083364">
		<tag k="name" v="Hylla" />
		<tag k="natural" v="cape" />
		<tag k="ssr:stedsnr" v="317593" />
	</node>
	<node id="-100219" lat="64.5775222208" lon="10.8110194363">
		<tag k="name" v="Bjørøyholmen" />
		<tag k="place" v="islet" />
		<tag k="ssr:stedsnr" v="210991" />
	</node>
	<node id="-100218" lat="64.5370555577" lon="10.749636112">
		<tag k="name" v="Bollen" />
		<tag k="natural" v="shoal" />
		<tag k="place" v="locality" />
		<tag k="ssr:stedsnr" v="210876" />
	</node>
	<node id="-100217" lat="64.5406083301" lon="10.839083342">
		<tag k="name" v="Storsteingrunnen" />
		<tag k="natural" v="shoal" />
		<tag k="place" v="locality" />
		<tag k="ssr:stedsnr" v="210787" />
	</node>
	<node id="-100216" lat="64.5317861067" lon="10.6274250057">
		<tag k="name" v="Hestfallråsa" />
		<tag k="natural" v="strait" />
		<tag k="ssr:stedsnr" v="210155" />
	</node>
	<node id="-100214" lat="64.5171277742" lon="10.7871388904">
		<tag k="name" v="Valvika" />
		<tag k="natural" v="bay" />
		<tag k="ssr:stedsnr" v="208180" />
	</node>
	<node id="-100212" lat="64.5141138869" lon="10.8330194472">
		<tag k="name" v="Trollvika" />
		<tag k="natural" v="bay" />
		<tag k="ssr:stedsnr" v="208176" />
	</node>
	<node id="-100210" lat="64.5047916674" lon="10.6609333274">
		<tag k="name" v="Langflua" />
		<tag k="natural" v="shoal" />
		<tag k="place" v="locality" />
		<tag k="ssr:stedsnr" v="208166" />
	</node>
	<node id="-100208" lat="64.5125222191" lon="10.8679694506">
		<tag k="name" v="Sørsjøen" />
		<tag k="natural" v="bay" />
		<tag k="ssr:stedsnr" v="208150" />
	</node>
	<node id="-100206" lat="64.4107111153" lon="10.6332611201">
		<tag k="name" v="Urvika" />
		<tag k="natural" v="bay" />
		<tag k="ssr:stedsnr" v="208102" />
	</node>
	<node id="-100205" lat="64.500763889" lon="10.7742000067">
		<tag k="name" v="Roparnesodden" />
		<tag k="natural" v="cape" />
		<tag k="ssr:stedsnr" v="208094" />
	</node>
	<node id="-100203" lat="64.4975194466" lon="10.8069222181">
		<tag k="name" v="Strømsvika" />
		<tag k="natural" v="bay" />
		<tag k="ssr:stedsnr" v="208081" />
	</node>
	<node id="-100202" lat="64.4801638846" lon="10.7869499983">
		<tag k="name" v="Rokknesodden" />
		<tag k="natural" v="cape" />
		<tag k="ssr:stedsnr" v="208075" />
	</node>
	<node id="-100201" lat="64.4789583351" lon="10.7713305525">
		<tag k="name" v="Klokkarvika" />
		<tag k="natural" v="bay" />
		<tag k="ssr:stedsnr" v="208073" />
	</node>
	<node id="-100199" lat="64.4811333372" lon="10.6906888795">
		<tag k="name" v="Busundet" />
		<tag k="natural" v="strait" />
		<tag k="ssr:stedsnr" v="208015" />
	</node>
	<node id="-100196" lat="64.4683527751" lon="10.695236119">
		<tag k="name" v="Steinvika" />
		<tag k="natural" v="bay" />
		<tag k="ssr:stedsnr" v="207110" />
	</node>
	<node id="-100192" lat="64.5097805572" lon="10.8280277876">
		<tag k="alt_name" v="Hestholmen, l" />
		<tag k="name" v="Litle Hestholmen" />
		<tag k="place" v="islet" />
		<tag k="ssr:stedsnr" v="197723" />
	</node>
	<node id="-100188" lat="64.5506083292" lon="10.6618416568">
		<tag k="name" v="Langfalla" />
		<tag k="natural" v="shoal" />
		<tag k="place" v="locality" />
		<tag k="ssr:stedsnr" v="196895" />
	</node>
	<node id="-100187" lat="64.5077972251" lon="10.6615305643">
		<tag k="fixme" v="consider seamark:type=rock or natural=shoal" />
		<tag k="name" v="Råsskjæret" />
		<tag k="place" v="islet" />
		<tag k="ssr:stedsnr" v="196931" />
	</node>
	<node id="-100186" lat="64.4982111152" lon="10.6633222228">
		<tag k="name" v="Grønbuholmen" />
		<tag k="place" v="islet" />
		<tag k="ssr:stedsnr" v="196845" />
	</node>
	<node id="-100183" lat="64.5956555528" lon="10.8108666671">
		<tag k="alt_name" v="Værholman, store" />
		<tag k="name" v="Store Værholman" />
		<tag k="place" v="islet" />
		<tag k="ssr:stedsnr" v="196497" />
	</node>
	<node id="-100181" lat="64.5062555576" lon="10.884738879">
		<tag k="name" v="Ternaskaget" />
		<tag k="natural" v="cape" />
		<tag k="ssr:stedsnr" v="196729" />
	</node>
	<node id="-100180" lat="64.541152779" lon="10.7790111187">
		<tag k="name" v="Kvitholmen" />
		<tag k="place" v="islet" />
		<tag k="ssr:stedsnr" v="196598" />
	</node>
	<node id="-100171" lat="64.4227027795" lon="10.7970972271">
		<tag k="name" v="Fossvikholman" />
		<tag k="place" v="islet" />
		<tag k="ssr:stedsnr" v="196277" />
	</node>
	<node id="-100168" lat="64.4899249994" lon="10.7829888814">
		<tag k="name" v="Glasøya" />
		<tag k="place" v="island" />
		<tag k="ssr:stedsnr" v="196380" />
	</node>
	<node id="-100167" lat="64.4716888889" lon="10.9013277859">
		<tag k="name" v="Smedholmen" />
		<tag k="place" v="islet" />
		<tag k="ssr:stedsnr" v="196347" />
	</node>
	<node id="-100165" lat="64.527958333" lon="10.621963897">
		<tag k="name" v="Medknausen" />
		<tag k="natural" v="shoal" />
		<tag k="place" v="locality" />
		<tag k="ssr:stedsnr" v="195900" />
	</node>
	<node id="-100164" lat="64.4827888872" lon="10.6554333329">
		<tag k="name" v="Kvaløysundet" />
		<tag k="natural" v="strait" />
		<tag k="ssr:stedsnr" v="195864" />
	</node>
	<node id="-100163" lat="64.4862916682" lon="10.6813694359">
		<tag k="name" v="Nilsøya" />
		<tag k="place" v="islet" />
		<tag k="ssr:stedsnr" v="195863" />
	</node>
	<node id="-100161" lat="64.5851999971" lon="11.0008944372">
		<tag k="name" v="Åvika" />
		<tag k="natural" v="bay" />
		<tag k="ssr:stedsnr" v="195592" />
	</node>
	<node id="-100160" lat="64.5869583344" lon="11.018802782">
		<tag k="name" v="Klavesodden" />
		<tag k="natural" v="cape" />
		<tag k="ssr:stedsnr" v="195590" />
	</node>
	<node id="-100159" lat="64.4575222211" lon="10.4794388874">
		<tag k="name" v="Revlan" />
		<tag k="natural" v="shoal" />
		<tag k="place" v="locality" />
		<tag k="ssr:stedsnr" v="195660" />
	</node>
	<node id="-100158" lat="64.4700305571" lon="10.4614527766">
		<tag k="name" v="Storskittilen" />
		<tag k="natural" v="shoal" />
		<tag k="place" v="locality" />
		<tag k="ssr:stedsnr" v="195638" />
	</node>
	<node id="-98954" lat="64.5143555537" lon="10.6588249911">
		<tag k="name" v="Emåholmen" />
		<tag k="place" v="islet" />
		<tag k="ssr:stedsnr" v="196916" />
	</node>
	<node id="-100146" lat="64.4613519865" lon="10.6208631588">
		<tag k="fixme" v="consider seamark:type=rock or natural=shoal" />
		<tag k="name" v="Smoskjæret" />
		<tag k="place" v="islet" />
		<tag k="ssr:stedsnr" v="178284" />
	</node>
	<node id="-100140" lat="64.5702527816" lon="10.928363887">
		<tag k="name" v="Larsblikket" />
		<tag k="natural" v="cape" />
		<tag k="ssr:stedsnr" v="170896" />
	</node>
	<node id="-100138" lat="64.4674083295" lon="10.8981777795">
		<tag k="name" v="Ormtungodden" />
		<tag k="natural" v="cape" />
		<tag k="ssr:stedsnr" v="170869" />
	</node>
	<node id="-100135" lat="64.4709000004" lon="10.888016665">
		<tag k="name" v="Djupvika" />
		<tag k="natural" v="bay" />
		<tag k="ssr:stedsnr" v="170846" />
	</node>
	<node id="-100134" lat="64.5331611147" lon="10.8611416568">
		<tag k="name" v="Kvalråsa" />
		<tag k="natural" v="strait" />
		<tag k="ssr:stedsnr" v="170833" />
	</node>
	<node id="-100131" lat="64.4294055532" lon="10.8001944462">
		<tag k="name" v="Valholmen" />
		<tag k="natural" v="cape" />
		<tag k="ssr:stedsnr" v="170771" />
	</node>
	<node id="-100126" lat="64.577125002" lon="10.906819451">
		<tag k="name" v="Mursteinodden" />
		<tag k="natural" v="cape" />
		<tag k="ssr:stedsnr" v="169895" />
	</node>
	<node id="-100125" lat="64.5586861148" lon="10.8889472126">
		<tag k="name" v="Klungvikodden" />
		<tag k="natural" v="cape" />
		<tag k="ssr:stedsnr" v="169854" />
	</node>
	<node id="-100124" lat="64.5674583325" lon="10.8534944446">
		<tag k="name" v="Steinholmen" />
		<tag k="natural" v="cape" />
		<tag k="ssr:stedsnr" v="169849" />
	</node>
	<node id="-100123" lat="64.5448000022" lon="10.786413893">
		<tag k="name" v="Trollholmen" />
		<tag k="place" v="islet" />
		<tag k="ssr:stedsnr" v="169837" />
	</node>
	<node id="-100122" lat="64.5621277807" lon="10.7945472187">
		<tag k="fixme" v="consider seamark:type=rock or natural=shoal" />
		<tag k="name" v="Havsholmskjæra" />
		<tag k="place" v="islet" />
		<tag k="ssr:stedsnr" v="169816" />
	</node>
	<node id="-98948" lat="64.5493000045" lon="10.8051805576">
		<tag k="name" v="Bukkbåan" />
		<tag k="natural" v="shoal" />
		<tag k="place" v="locality" />
		<tag k="ssr:stedsnr" v="196615" />
	</node>
	<node id="-100108" lat="64.4395194452" lon="10.525750002">
		<tag k="name" v="Rugholmsundet" />
		<tag k="natural" v="strait" />
		<tag k="ssr:stedsnr" v="166015" />
	</node>
	<node id="-100106" lat="64.5818694451" lon="10.7798527783">
		<tag k="name" v="Ellingbalen" />
		<tag k="place" v="islet" />
		<tag k="ssr:stedsnr" v="149990" />
	</node>
	<node id="-100105" lat="64.5710999997" lon="10.7512361069">
		<tag k="name" v="Litltaren" />
		<tag k="natural" v="shoal" />
		<tag k="place" v="locality" />
		<tag k="ssr:stedsnr" v="149977" />
	</node>
	<node id="-100104" lat="64.5510583346" lon="10.7489277797">
		<tag k="name" v="Bårdflestaren" />
		<tag k="place" v="locality" />
		<tag k="seamark:type" v="rock" />
		<tag k="ssr:stedsnr" v="149872" />
	</node>
	<node id="-100103" lat="64.4658527748" lon="10.7420777874">
		<tag k="alt_name" v="Sørfjorden" />
		<tag k="bay" v="fjord" />
		<tag k="loc_name" v="Vikfjorden" />
		<tag k="name" v="Viksfjorden" />
		<tag k="natural" v="bay" />
		<tag k="ssr:stedsnr" v="149227" />
	</node>
	<node id="-100101" lat="64.5020333315" lon="10.9609611104">
		<tag k="name" v="Beierhammaren" />
		<tag k="natural" v="cape" />
		<tag k="ssr:stedsnr" v="147184" />
	</node>
	<node id="-100100" lat="64.503350003" lon="10.8549555553">
		<tag k="name" v="Kjærsundet" />
		<tag k="natural" v="strait" />
		<tag k="ssr:stedsnr" v="147165" />
	</node>
	<node id="-100099" lat="64.4279305599" lon="10.5803499986">
		<tag k="name" v="Langstrandbukta" />
		<tag k="natural" v="bay" />
		<tag k="ssr:stedsnr" v="147100" />
	</node>
	<node id="-100097" lat="64.50069167" lon="10.9630916772">
		<tag k="name" v="Kjerkfolvika" />
		<tag k="natural" v="bay" />
		<tag k="ssr:stedsnr" v="147144" />
	</node>
	<node id="-100095" lat="64.457069441" lon="10.75049167">
		<tag k="fixme" v="consider seamark:type=rock or natural=shoal" />
		<tag k="name" v="Sørskjæret" />
		<tag k="place" v="islet" />
		<tag k="ssr:stedsnr" v="146101" />
	</node>
	<node id="-100093" lat="64.5092472181" lon="10.936252774">
		<tag k="name" v="Hyllholet" />
		<tag k="natural" v="bay" />
		<tag k="ssr:stedsnr" v="146114" />
	</node>
	<node id="-100091" lat="64.4373555516" lon="10.5104055613">
		<tag k="fixme" v="consider seamark:type=rock or natural=shoal" />
		<tag k="name" v="Elvskjæret" />
		<tag k="place" v="islet" />
		<tag k="ssr:stedsnr" v="145164" />
	</node>
	<node id="-100089" lat="64.4516777788" lon="10.5332277855">
		<tag k="fixme" v="consider seamark:type=rock or natural=shoal" />
		<tag k="name" v="Leiskjæret" />
		<tag k="place" v="islet" />
		<tag k="ssr:stedsnr" v="145161" />
	</node>
	<node id="-100088" lat="64.4804972204" lon="10.8100166572">
		<tag k="bay" v="fjord" />
		<tag k="name" v="Glasøyfjorden" />
		<tag k="natural" v="bay" />
		<tag k="ssr:stedsnr" v="142449" />
	</node>
	<node id="-100084" lat="64.5801361082" lon="10.3461111139">
		<tag k="fixme" v="multiple name tags, choose one and add the other to alt_name" />
		<tag k="name" v="Skillingen;Skjellingen" />
		<tag k="natural" v="shoal" />
		<tag k="place" v="locality" />
		<tag k="ssr:stedsnr" v="135885" />
	</node>
	<node id="-100083" lat="64.563066667" lon="10.6752888866">
		<tag k="name" v="Revillen" />
		<tag k="natural" v="shoal" />
		<tag k="place" v="locality" />
		<tag k="ssr:stedsnr" v="135882" />
	</node>
	<node id="-100082" lat="64.5338805517" lon="10.7501416664">
		<tag k="alt_name" v="Floflesa, nordre" />
		<tag k="fixme" v="consider seamark:type=rock or natural=shoal" />
		<tag k="name" v="Nordre Floflesa" />
		<tag k="place" v="islet" />
		<tag k="ssr:stedsnr" v="135677" />
	</node>
	<node id="-100080" lat="64.4345222207" lon="10.6936305598">
		<tag k="name" v="Almurden" />
		<tag k="natural" v="bay" />
		<tag k="ssr:stedsnr" v="135649" />
	</node>
	<node id="-100076" lat="64.6137611133" lon="10.9241555562">
		<tag k="name" v="Bangøyskaftet" />
		<tag k="place" v="islet" />
		<tag k="ssr:stedsnr" v="135486" />
	</node>
	<node id="-100073" lat="64.4789611129" lon="10.7309777807">
		<tag k="name" v="Laukvika" />
		<tag k="natural" v="bay" />
		<tag k="ssr:stedsnr" v="135386" />
	</node>
	<node id="-100065" lat="64.5348500004" lon="10.7164055654">
		<tag k="name" v="Døløya" />
		<tag k="place" v="island" />
		<tag k="ssr:stedsnr" v="134926" />
	</node>
	<node id="-100063" lat="64.5735083301" lon="10.8211055534">
		<tag k="name" v="Bjørøya" />
		<tag k="place" v="island" />
		<tag k="ssr:stedsnr" v="134595" />
	</node>
	<node id="-98874" lat="64.5128166691" lon="10.928972223">
		<tag k="name" v="Litlkløvningen" />
		<tag k="natural" v="cape" />
		<tag k="ssr:stedsnr" v="268132" />
	</node>
	<node id="-100044" lat="64.48051111" lon="10.9507694404">
		<tag k="name" v="Storengodden" />
		<tag k="natural" v="cape" />
		<tag k="ssr:stedsnr" v="110800" />
	</node>
	<node id="-100038" lat="64.5540222213" lon="10.950219443">
		<tag k="name" v="Frøsendalvika" />
		<tag k="natural" v="bay" />
		<tag k="ssr:stedsnr" v="110843" />
	</node>
	<node id="-100037" lat="64.5543833299" lon="11.0721805563">
		<tag k="name" v="Småvika" />
		<tag k="natural" v="bay" />
		<tag k="ssr:stedsnr" v="110371" />
	</node>
	<node id="-100033" lat="64.56921111" lon="11.0645472297">
		<tag k="name" v="Varpodden" />
		<tag k="natural" v="cape" />
		<tag k="ssr:stedsnr" v="110244" />
	</node>
	<node id="-100031" lat="64.5930138901" lon="10.8815555525">
		<tag k="fixme" v="consider seamark:type=rock or natural=shoal" />
		<tag k="name" v="Grønvikstein" />
		<tag k="place" v="islet" />
		<tag k="ssr:stedsnr" v="109893" />
	</node>
	<node id="-100030" lat="64.5936277734" lon="10.8923333323">
		<tag k="fixme" v="consider seamark:type=rock or natural=shoal" />
		<tag k="name" v="Steinvikstein" />
		<tag k="place" v="islet" />
		<tag k="ssr:stedsnr" v="109892" />
	</node>
	<node id="-100028" lat="64.5834138872" lon="10.9189666629">
		<tag k="name" v="Bjørgvika" />
		<tag k="natural" v="bay" />
		<tag k="ssr:stedsnr" v="109883" />
	</node>
	<node id="-100027" lat="64.570888889" lon="10.9696166699">
		<tag k="name" v="Trollvassvika" />
		<tag k="natural" v="bay" />
		<tag k="ssr:stedsnr" v="109882" />
	</node>
	<node id="-100024" lat="64.3752083329" lon="10.8390472259">
		<tag k="name" v="Laukvika" />
		<tag k="natural" v="cape" />
		<tag k="ssr:stedsnr" v="109871" />
	</node>
	<node id="-100021" lat="64.5783194473" lon="11.0464222127">
		<tag k="fixme" v="consider seamark:type=rock or natural=shoal" />
		<tag k="name" v="Gutormskjæret" />
		<tag k="place" v="islet" />
		<tag k="ssr:stedsnr" v="109960" />
	</node>
	<node id="-100019" lat="64.6075166645" lon="10.9497277863">
		<tag k="name" v="Treholmen" />
		<tag k="place" v="islet" />
		<tag k="ssr:stedsnr" v="109856" />
	</node>
	<node id="-100018" lat="64.6049722266" lon="10.948305565">
		<tag k="name" v="Rognholman" />
		<tag k="place" v="islet" />
		<tag k="ssr:stedsnr" v="109852" />
	</node>
	<node id="-100016" lat="64.5783583344" lon="10.8150222129">
		<tag k="fixme" v="consider seamark:type=rock or natural=shoal" />
		<tag k="name" v="Setervikskjæret" />
		<tag k="place" v="islet" />
		<tag k="ssr:stedsnr" v="109842" />
	</node>
	<node id="-100015" lat="64.5581833373" lon="10.8628333344">
		<tag k="name" v="Finsandvika" />
		<tag k="natural" v="bay" />
		<tag k="ssr:stedsnr" v="109839" />
	</node>
	<node id="-100014" lat="64.6095361134" lon="10.8712472252">
		<tag k="name" v="Storkjeholmen" />
		<tag k="place" v="islet" />
		<tag k="ssr:stedsnr" v="109831" />
	</node>
	<node id="-100013" lat="64.6044305524" lon="10.8661444479">
		<tag k="name" v="Fiskholmen" />
		<tag k="place" v="islet" />
		<tag k="ssr:stedsnr" v="109826" />
	</node>
	<node id="-100012" lat="64.6080333377" lon="10.8369138876">
		<tag k="name" v="Stongholman" />
		<tag k="place" v="islet" />
		<tag k="ssr:stedsnr" v="109817" />
	</node>
	<node id="-100006" lat="64.3783722219" lon="10.7607888829">
		<tag k="name" v="Sørvika" />
		<tag k="natural" v="bay" />
		<tag k="ssr:stedsnr" v="106026" />
	</node>
	<node id="-100005" lat="64.4044861074" lon="10.7569083271">
		<tag k="name" v="Hansvikodden" />
		<tag k="natural" v="cape" />
		<tag k="ssr:stedsnr" v="106024" />
	</node>
	<node id="-100004" lat="64.4379777762" lon="10.547083324">
		<tag k="name" v="Klubben" />
		<tag k="place" v="islet" />
		<tag k="ssr:stedsnr" v="106021" />
	</node>
	<node id="-100002" lat="64.5719305561" lon="10.7852194478">
		<tag k="name" v="Havsholmfalla" />
		<tag k="natural" v="shoal" />
		<tag k="place" v="locality" />
		<tag k="ssr:stedsnr" v="89988" />
	</node>
	<node id="-100001" lat="64.5947805569" lon="10.8504083392">
		<tag k="name" v="Dunholmen" />
		<tag k="place" v="islet" />
		<tag k="ssr:stedsnr" v="89898" />
	</node>
	<node id="-100000" lat="64.5267722226" lon="10.6923888832">
		<tag k="name" v="Aune" />
		<tag k="natural" v="cape" />
		<tag k="ssr:stedsnr" v="89845" />
	</node>
	<node id="-99999" lat="64.5507444413" lon="10.8402027787">
		<tag k="name" v="Ausgrunnen" />
		<tag k="natural" v="shoal" />
		<tag k="place" v="locality" />
		<tag k="ssr:stedsnr" v="89799" />
	</node>
	<node id="-99998" lat="64.489852781" lon="10.747202781">
		<tag k="alt_name" v="Trettholmen" />
		<tag k="name" v="Trettholman" />
		<tag k="place" v="islet" />
		<tag k="ssr:stedsnr" v="89263" />
	</node>
	<node id="-99997" lat="64.505019447" lon="10.9553472222">
		<tag k="name" v="Sjøvikodden" />
		<tag k="natural" v="cape" />
		<tag k="ssr:stedsnr" v="87164" />
	</node>
	<node id="-99996" lat="64.4224194466" lon="10.7064249986">
		<tag k="name" v="Hånestaren" />
		<tag k="natural" v="shoal" />
		<tag k="place" v="locality" />
		<tag k="ssr:stedsnr" v="87098" />
	</node>
	<node id="-99993" lat="64.4959972218" lon="10.5110083229">
		<tag k="name" v="Rabbleia" />
		<tag k="natural" v="strait" />
		<tag k="ssr:stedsnr" v="87149" />
	</node>
	<node id="-99992" lat="64.4183861078" lon="10.579241673">
		<tag k="name" v="Båtsmannvika" />
		<tag k="natural" v="bay" />
		<tag k="ssr:stedsnr" v="87035" />
	</node>
	<node id="-99991" lat="64.4735194421" lon="10.6900138893">
		<tag k="name" v="Purkholmen" />
		<tag k="place" v="islet" />
		<tag k="ssr:stedsnr" v="86124" />
	</node>
	<node id="-99989" lat="64.4475888925" lon="10.4703388929">
		<tag k="name" v="Storfallet" />
		<tag k="natural" v="shoal" />
		<tag k="place" v="locality" />
		<tag k="ssr:stedsnr" v="85128" />
	</node>
	<node id="-99988" lat="64.5074222244" lon="10.8912777709">
		<tag k="name" v="Lauvsnesodden" />
		<tag k="natural" v="cape" />
		<tag k="ssr:stedsnr" v="76705" />
	</node>
	<node id="-99987" lat="64.5125305542" lon="10.6692972148">
		<tag k="name" v="Sandvalen" />
		<tag k="place" v="islet" />
		<tag k="ssr:stedsnr" v="75944" />
	</node>
	<node id="-99986" lat="64.5398472219" lon="10.6468000015">
		<tag k="alt_name" v="Nordre Knarrflesa" />
		<tag k="fixme" v="consider seamark:type=rock or natural=shoal" />
		<tag k="name" v="Nord-Knarrflesa" />
		<tag k="old_name" v="Knarrflesa, nordre" />
		<tag k="place" v="islet" />
		<tag k="ssr:stedsnr" v="75935" />
	</node>
	<node id="-99985" lat="64.5487444449" lon="10.6568888828">
		<tag k="name" v="Smaugsundtaren" />
		<tag k="natural" v="shoal" />
		<tag k="place" v="locality" />
		<tag k="ssr:stedsnr" v="75926" />
	</node>
	<node id="-99984" lat="64.4919277747" lon="10.4960750016">
		<tag k="alt_name" v="Urbakkleia" />
		<tag k="name" v="Urdbakkleia" />
		<tag k="natural" v="strait" />
		<tag k="ssr:stedsnr" v="75890" />
	</node>
	<node id="-99979" lat="64.4228500029" lon="10.5803888987">
		<tag k="bay" v="fjord" />
		<tag k="name" v="Bølefjorden" />
		<tag k="natural" v="bay" />
		<tag k="ssr:stedsnr" v="75699" />
	</node>
	<node id="-99978" lat="64.5486333368" lon="10.7817749935">
		<tag k="fixme" v="consider seamark:type=rock or natural=shoal" />
		<tag k="name" v="Leiskjæret" />
		<tag k="place" v="islet" />
		<tag k="ssr:stedsnr" v="75696" />
	</node>
	<node id="-99976" lat="64.5418000011" lon="10.7277888972">
		<tag k="name" v="Seingsholmen" />
		<tag k="place" v="islet" />
		<tag k="ssr:stedsnr" v="75677" />
	</node>
	<node id="-99975" lat="64.5413416679" lon="10.8525388894">
		<tag k="alt_name" v="Kvinholmen" />
		<tag k="name" v="Kinnholman" />
		<tag k="place" v="islet" />
		<tag k="ssr:stedsnr" v="75674" />
	</node>
	<node id="-99974" lat="64.5372944484" lon="10.9477305485">
		<tag k="name" v="Sitterholman" />
		<tag k="place" v="islet" />
		<tag k="ssr:stedsnr" v="75672" />
	</node>
	<node id="-99973" lat="64.6128388881" lon="10.874594437">
		<tag k="name" v="Lamholmen" />
		<tag k="place" v="islet" />
		<tag k="ssr:stedsnr" v="75591" />
	</node>
	<node id="-99972" lat="64.6026388911" lon="10.9276333315">
		<tag k="name" v="Fugløya" />
		<tag k="place" v="island" />
		<tag k="ssr:stedsnr" v="75573" />
	</node>
	<node id="-99971" lat="64.6136749998" lon="10.886950006">
		<tag k="name" v="Ausodden" />
		<tag k="natural" v="cape" />
		<tag k="ssr:stedsnr" v="75525" />
	</node>
	<node id="-99963" lat="64.4184222241" lon="10.7971277739">
		<tag k="name" v="Langneset" />
		<tag k="natural" v="cape" />
		<tag k="ssr:stedsnr" v="75288" />
	</node>
	<node id="-99962" lat="64.5299472211" lon="10.6618027693">
		<tag k="name" v="Storkvaløya" />
		<tag k="place" v="islet" />
		<tag k="ssr:stedsnr" v="74916" />
	</node>
	<node id="-99961" lat="64.4893333329" lon="10.6504388986">
		<tag k="name" v="Litlhauken" />
		<tag k="place" v="islet" />
		<tag k="ssr:stedsnr" v="74848" />
	</node>
	<node id="-99958" lat="64.4302305524" lon="10.5093055614">
		<tag k="alt_name" v="Skymta" />
		<tag k="fixme" v="multiple name tags, choose one and add the other to alt_name; consider seamark:type=rock or natural=shoal" />
		<tag k="name" v="Skjeppa;Skjemta" />
		<tag k="place" v="islet" />
		<tag k="ssr:stedsnr" v="74674" />
	</node>
	<node id="-99954" lat="64.5567194482" lon="10.8722999974">
		<tag k="name" v="Tranaholmen" />
		<tag k="place" v="islet" />
		<tag k="ssr:stedsnr" v="74597" />
	</node>
	<node id="-99951" lat="64.5816444426" lon="10.7966500071">
		<tag k="name" v="Ellingen" />
		<tag k="place" v="island" />
		<tag k="ssr:stedsnr" v="74581" />
	</node>
	<node id="-98744" lat="64.5602527779" lon="11.0743500019">
		<tag k="name" v="Lovikan" />
		<tag k="natural" v="bay" />
		<tag k="ssr:stedsnr" v="13621" />
	</node>
	<node id="-99912" lat="64.4781694408" lon="10.8924055497">
		<tag k="name" v="Seterneset" />
		<tag k="natural" v="cape" />
		<tag k="ssr:stedsnr" v="49836" />
	</node>
	<node id="-99909" lat="64.4351388882" lon="10.7455500098">
		<tag k="name" v="Kilnesbukta" />
		<tag k="natural" v="bay" />
		<tag k="ssr:stedsnr" v="49767" />
	</node>
	<node id="-99908" lat="64.429255553" lon="10.7250583397">
		<tag k="name" v="Hånesvika" />
		<tag k="natural" v="bay" />
		<tag k="ssr:stedsnr" v="49766" />
	</node>
	<node id="-98869" lat="64.4432388875" lon="10.6619194379">
		<tag k="name" v="Skrottstranda" />
		<tag k="natural" v="beach" />
		<tag k="place" v="locality" />
		<tag k="ssr:stedsnr" v="135623" />
	</node>
	<node id="-99890" lat="64.6025499963" lon="10.8703749935">
		<tag k="name" v="Rekøysundet" />
		<tag k="natural" v="strait" />
		<tag k="ssr:stedsnr" v="48914" />
	</node>
	<node id="-99881" lat="64.5813916661" lon="10.8393277789">
		<tag k="name" v="Hesthakket" />
		<tag k="natural" v="cape" />
		<tag k="ssr:stedsnr" v="48854" />
	</node>
	<node id="-99880" lat="64.610511108" lon="10.8825555624">
		<tag k="name" v="Styggholet" />
		<tag k="natural" v="bay" />
		<tag k="ssr:stedsnr" v="48846" />
	</node>
	<node id="-99879" lat="64.5380277756" lon="10.7902944403">
		<tag k="name" v="Stortangvika" />
		<tag k="natural" v="bay" />
		<tag k="ssr:stedsnr" v="48836" />
	</node>
	<node id="-99878" lat="64.601244445" lon="10.8348805614">
		<tag k="name" v="Jobonholmen" />
		<tag k="place" v="islet" />
		<tag k="ssr:stedsnr" v="48835" />
	</node>
	<node id="-99876" lat="64.596722221" lon="10.812224996">
		<tag k="name" v="Veraholman" />
		<tag k="place" v="islet" />
		<tag k="ssr:stedsnr" v="48833" />
	</node>
	<node id="-99874" lat="64.5443138879" lon="10.9266055654">
		<tag k="name" v="Spelvika" />
		<tag k="natural" v="bay" />
		<tag k="ssr:stedsnr" v="48821" />
	</node>
	<node id="-99872" lat="64.5425111106" lon="10.891013885">
		<tag k="name" v="Hemmingvika" />
		<tag k="natural" v="bay" />
		<tag k="ssr:stedsnr" v="48805" />
	</node>
	<node id="-99864" lat="64.4138361087" lon="10.7123833418">
		<tag k="name" v="Dyrvika" />
		<tag k="natural" v="bay" />
		<tag k="ssr:stedsnr" v="45043" />
	</node>
	<node id="-99862" lat="64.410508332" lon="10.631469441">
		<tag k="fixme" v="consider seamark:type=rock or natural=shoal" />
		<tag k="name" v="Kobbskjæra" />
		<tag k="place" v="islet" />
		<tag k="ssr:stedsnr" v="45034" />
	</node>
	<node id="-99861" lat="64.415866671" lon="10.6773611163">
		<tag k="name" v="Nordvika" />
		<tag k="natural" v="bay" />
		<tag k="ssr:stedsnr" v="45002" />
	</node>
	<node id="-99859" lat="64.4691277768" lon="10.7410527807">
		<tag k="alt_name" v="Kobbskjæra" />
		<tag k="fixme" v="consider seamark:type=rock or natural=shoal" />
		<tag k="name" v="Kobbskjæret" />
		<tag k="place" v="islet" />
		<tag k="ssr:stedsnr" v="28264" />
	</node>
	<node id="-99858" lat="64.524083335" lon="10.6983694344">
		<tag k="name" v="Bengstadvika" />
		<tag k="natural" v="bay" />
		<tag k="ssr:stedsnr" v="27737" />
	</node>
	<node id="-99856" lat="64.5076055583" lon="10.8280194439">
		<tag k="name" v="Langstranda" />
		<tag k="natural" v="beach" />
		<tag k="place" v="locality" />
		<tag k="ssr:stedsnr" v="26210" />
	</node>
	<node id="-99855" lat="64.5073666673" lon="10.6271999994">
		<tag k="name" v="Fauskråsa" />
		<tag k="natural" v="strait" />
		<tag k="ssr:stedsnr" v="26204" />
	</node>
	<node id="-99854" lat="64.4856722255" lon="10.516172213">
		<tag k="name" v="Flestaren" />
		<tag k="place" v="locality" />
		<tag k="seamark:type" v="rock" />
		<tag k="ssr:stedsnr" v="26196" />
	</node>
	<node id="-99853" lat="64.4865472235" lon="10.8909388949">
		<tag k="name" v="Fløaholmen" />
		<tag k="place" v="islet" />
		<tag k="ssr:stedsnr" v="26194" />
	</node>
	<node id="-99852" lat="64.4917388895" lon="10.5180055582">
		<tag k="name" v="Urbakkfluene" />
		<tag k="place" v="locality" />
		<tag k="seamark:type" v="rock" />
		<tag k="ssr:stedsnr" v="26192" />
	</node>
	<node id="-99851" lat="64.508727777" lon="10.8870583363">
		<tag k="fixme" v="consider seamark:type=rock or natural=shoal" />
		<tag k="name" v="Skarvskjæret" />
		<tag k="place" v="islet" />
		<tag k="ssr:stedsnr" v="26185" />
	</node>
	<node id="-99849" lat="64.5194500007" lon="10.8547833316">
		<tag k="name" v="Bokkhammarvika" />
		<tag k="natural" v="bay" />
		<tag k="ssr:stedsnr" v="26180" />
	</node>
	<node id="-99848" lat="64.5123416632" lon="10.8868305643">
		<tag k="name" v="Litlneset" />
		<tag k="natural" v="cape" />
		<tag k="ssr:stedsnr" v="26179" />
	</node>
	<node id="-99843" lat="64.487836111" lon="10.7447638877">
		<tag k="name" v="Flatholmen" />
		<tag k="place" v="islet" />
		<tag k="ssr:stedsnr" v="26110" />
	</node>
	<node id="-99839" lat="64.5924638864" lon="10.9241388965">
		<tag k="fixme" v="consider seamark:type=rock or natural=shoal" />
		<tag k="name" v="Kalvøystøyten" />
		<tag k="place" v="islet" />
		<tag k="ssr:stedsnr" v="24882" />
	</node>
	<node id="-99838" lat="64.471330552" lon="10.5991611065">
		<tag k="name" v="Larstaren" />
		<tag k="place" v="locality" />
		<tag k="seamark:type" v="rock" />
		<tag k="ssr:stedsnr" v="24165" />
	</node>
	<node id="-99837" lat="64.4999833317" lon="10.6071666624">
		<tag k="name" v="Sørskåka" />
		<tag k="place" v="locality" />
		<tag k="seamark:type" v="rock" />
		<tag k="ssr:stedsnr" v="24164" />
	</node>
	<node id="-99836" lat="64.4532999994" lon="10.640577772">
		<tag k="name" v="Eldviktaren" />
		<tag k="natural" v="shoal" />
		<tag k="place" v="locality" />
		<tag k="ssr:stedsnr" v="24158" />
	</node>
	<node id="-99835" lat="64.5363555547" lon="10.6848694363">
		<tag k="name" v="Falingssundet" />
		<tag k="natural" v="strait" />
		<tag k="ssr:stedsnr" v="14889" />
	</node>
	<node id="-99834" lat="64.5627888852" lon="10.6980861147">
		<tag k="name" v="Blikstaren" />
		<tag k="natural" v="shoal" />
		<tag k="place" v="locality" />
		<tag k="ssr:stedsnr" v="14887" />
	</node>
	<node id="-99833" lat="64.5610888858" lon="10.6866055512">
		<tag k="fixme" v="consider seamark:type=rock or natural=shoal" />
		<tag k="name" v="Villaoksen" />
		<tag k="place" v="islet" />
		<tag k="ssr:stedsnr" v="14883" />
	</node>
	<node id="-99829" lat="64.4170444472" lon="10.6237972195">
		<tag k="name" v="Nordvika" />
		<tag k="natural" v="bay" />
		<tag k="ssr:stedsnr" v="14636" />
	</node>
	<node id="-99825" lat="64.5508361145" lon="11.0694000087">
		<tag k="name" v="Innervika" />
		<tag k="natural" v="bay" />
		<tag k="ssr:stedsnr" v="14594" />
	</node>
	<node id="-99824" lat="64.5342666653" lon="10.8518916658">
		<tag k="name" v="Grønholmen" />
		<tag k="place" v="islet" />
		<tag k="ssr:stedsnr" v="14586" />
	</node>
	<node id="-99821" lat="64.6055805527" lon="10.8132611179">
		<tag k="name" v="Hamnarøybalan" />
		<tag k="place" v="islet" />
		<tag k="ssr:stedsnr" v="14487" />
	</node>
	<node id="-99820" lat="64.6004777755" lon="10.8655305532">
		<tag k="name" v="Inner-Rekkøya" />
		<tag k="place" v="island" />
		<tag k="ssr:stedsnr" v="14482" />
	</node>
	<node id="-99819" lat="64.5887722214" lon="10.9434111192">
		<tag k="name" v="Harravika" />
		<tag k="natural" v="bay" />
		<tag k="ssr:stedsnr" v="14468" />
	</node>
	<node id="-99806" lat="64.4984333309" lon="11.1972805539">
		<tag k="alt_name" v="Namsfjorden" />
		<tag k="bay" v="fjord" />
		<tag k="name" v="Namsenfjorden" />
		<tag k="natural" v="bay" />
		<tag k="ssr:stedsnr" v="14333" />
	</node>
	<node id="-99805" lat="64.4885055527" lon="10.5110611157">
		<tag k="fixme" v="consider seamark:type=rock or natural=shoal" />
		<tag k="name" v="Grunnhauet" />
		<tag k="place" v="islet" />
		<tag k="ssr:stedsnr" v="13853" />
	</node>
	<node id="-99803" lat="64.4787472192" lon="10.4867833328">
		<tag k="fixme" v="consider seamark:type=rock or natural=shoal" />
		<tag k="name" v="Lausflesa" />
		<tag k="place" v="islet" />
		<tag k="ssr:stedsnr" v="13659" />
	</node>
	<node id="-99802" lat="64.4774555525" lon="10.6104194456">
		<tag k="fixme" v="consider seamark:type=rock or natural=shoal" />
		<tag k="name" v="Storhennebaken" />
		<tag k="place" v="islet" />
		<tag k="ssr:stedsnr" v="13657" />
	</node>
	<node id="-99801" lat="64.4806416692" lon="10.6581138797">
		<tag k="name" v="Steikseivika" />
		<tag k="natural" v="bay" />
		<tag k="ssr:stedsnr" v="13656" />
	</node>
	<node id="-99800" lat="64.4809111125" lon="10.7066777791">
		<tag k="name" v="Sauøya" />
		<tag k="place" v="islet" />
		<tag k="ssr:stedsnr" v="13653" />
	</node>
	<node id="-99799" lat="64.5678305544" lon="10.7532999959">
		<tag k="fixme" v="consider seamark:type=rock or natural=shoal" />
		<tag k="name" v="Lyngværoksen" />
		<tag k="place" v="islet" />
		<tag k="ssr:stedsnr" v="13640" />
	</node>
	<node id="-99798" lat="64.5678583342" lon="10.7913361138">
		<tag k="name" v="Havsholmen" />
		<tag k="place" v="islet" />
		<tag k="ssr:stedsnr" v="13639" />
	</node>
	<node id="-99794" lat="64.3895222178" lon="10.8222250016">
		<tag k="name" v="Brattvika" />
		<tag k="natural" v="bay" />
		<tag k="ssr:stedsnr" v="13298" />
	</node>
	<node id="-99783" lat="64.510339553" lon="10.7894458923">
		<tag k="name" v="Valen" />
		<tag k="natural" v="strait" />
		<tag k="ssr:stedsnr" v="980979" />
	</node>
	<node id="-99771" lat="64.5700805548" lon="11.0598861102">
		<tag k="fixme" v="consider seamark:type=rock or natural=shoal" />
		<tag k="name" v="Småskjæra" />
		<tag k="place" v="islet" />
		<tag k="ssr:stedsnr" v="958566" />
	</node>
	<node id="-99770" lat="64.4941611134" lon="10.7193861042">
		<tag k="name" v="Skanken" />
		<tag k="place" v="islet" />
		<tag k="ssr:stedsnr" v="937129" />
	</node>
	<node id="-99769" lat="64.4849222244" lon="10.7325722195">
		<tag k="name" v="Løktholmen" />
		<tag k="place" v="islet" />
		<tag k="ssr:stedsnr" v="937127" />
	</node>
	<node id="-99767" lat="64.5011388883" lon="10.8512611091">
		<tag k="name" v="Kjærsundvågen" />
		<tag k="natural" v="bay" />
		<tag k="ssr:stedsnr" v="937234" />
	</node>
	<node id="-99764" lat="64.506491669" lon="10.7849722166">
		<tag k="name" v="Straumråsa" />
		<tag k="natural" v="strait" />
		<tag k="ssr:stedsnr" v="937221" />
	</node>
	<node id="-99761" lat="64.5009611137" lon="10.9694611083">
		<tag k="name" v="Knottodden" />
		<tag k="natural" v="cape" />
		<tag k="ssr:stedsnr" v="936131" />
	</node>
	<node id="-99760" lat="64.5022777752" lon="10.7468555627">
		<tag k="name" v="Aspøysundet" />
		<tag k="natural" v="strait" />
		<tag k="ssr:stedsnr" v="936103" />
	</node>
	<node id="-99759" lat="64.4789888893" lon="10.6548861105">
		<tag k="name" v="Stonga" />
		<tag k="natural" v="cape" />
		<tag k="ssr:stedsnr" v="936007" />
	</node>
	<node id="-99758" lat="64.4624777802" lon="10.6915222211">
		<tag k="name" v="Selsvika" />
		<tag k="natural" v="bay" />
		<tag k="ssr:stedsnr" v="936003" />
	</node>
	<node id="-99749" lat="64.5878499961" lon="11.0014638785">
		<tag k="name" v="Digerneset" />
		<tag k="natural" v="cape" />
		<tag k="ssr:stedsnr" v="924573" />
	</node>
	<node id="-99746" lat="64.5862805549" lon="10.8357500015">
		<tag k="name" v="Soløya" />
		<tag k="place" v="islet" />
		<tag k="ssr:stedsnr" v="924559" />
	</node>
	<node id="-98885" lat="64.5104250041" lon="10.9147972151">
		<tag k="name" v="Gardsvika" />
		<tag k="natural" v="bay" />
		<tag k="ssr:stedsnr" v="269160" />
	</node>
	<node id="-99740" lat="64.4518388911" lon="10.6021055557">
		<tag k="name" v="Groven" />
		<tag k="natural" v="bay" />
		<tag k="ssr:stedsnr" v="899795" />
	</node>
	<node id="-99736" lat="64.4248888908" lon="10.6092805635">
		<tag k="name" v="Fremmervika" />
		<tag k="natural" v="bay" />
		<tag k="ssr:stedsnr" v="899818" />
	</node>
	<node id="-99733" lat="64.5669666624" lon="11.0686499956">
		<tag k="name" v="Sandmovika" />
		<tag k="natural" v="bay" />
		<tag k="ssr:stedsnr" v="899254" />
	</node>
	<node id="-99730" lat="64.5844472218" lon="11.00650001">
		<tag k="name" v="Innvordvika" />
		<tag k="natural" v="bay" />
		<tag k="ssr:stedsnr" v="898967" />
	</node>
	<node id="-99722" lat="64.4541055576" lon="10.6562555574">
		<tag k="fixme" v="consider seamark:type=rock or natural=shoal" />
		<tag k="name" v="Skrottskjæra" />
		<tag k="place" v="islet" />
		<tag k="ssr:stedsnr" v="876019" />
	</node>
	<node id="-99721" lat="64.4590694468" lon="10.69113056">
		<tag k="name" v="Stavika" />
		<tag k="natural" v="bay" />
		<tag k="ssr:stedsnr" v="876017" />
	</node>
	<node id="-99716" lat="64.5896583337" lon="10.7749722289">
		<tag k="fixme" v="consider seamark:type=rock or natural=shoal" />
		<tag k="name" v="Ellingflesa" />
		<tag k="place" v="islet" />
		<tag k="ssr:stedsnr" v="939000" />
	</node>
	<node id="-99715" lat="64.5893499994" lon="10.8984916583">
		<tag k="name" v="Skjevillen" />
		<tag k="place" v="islet" />
		<tag k="ssr:stedsnr" v="938921" />
	</node>
	<node id="-99714" lat="64.5585527761" lon="10.7113249993">
		<tag k="fixme" v="consider seamark:type=rock or natural=shoal" />
		<tag k="name" v="Knausan" />
		<tag k="place" v="islet" />
		<tag k="ssr:stedsnr" v="938836" />
	</node>
	<node id="-99713" lat="64.5026222195" lon="10.8864694444">
		<tag k="name" v="Kråktaren" />
		<tag k="natural" v="shoal" />
		<tag k="place" v="locality" />
		<tag k="ssr:stedsnr" v="938779" />
	</node>
	<node id="-98880" lat="64.4795444477" lon="10.7613277742">
		<tag k="name" v="Strandaodden" />
		<tag k="natural" v="cape" />
		<tag k="ssr:stedsnr" v="269099" />
	</node>
	<node id="-99707" lat="64.5863638896" lon="10.9989833252">
		<tag k="name" v="Naustvika" />
		<tag k="natural" v="bay" />
		<tag k="ssr:stedsnr" v="837918" />
	</node>
	<node id="-99705" lat="64.5757833324" lon="10.8625916678">
		<tag k="fixme" v="consider seamark:type=rock or natural=shoal" />
		<tag k="name" v="Skarvskjæret" />
		<tag k="place" v="islet" />
		<tag k="ssr:stedsnr" v="837907" />
	</node>
	<node id="-99704" lat="64.5807611075" lon="10.8440194461">
		<tag k="fixme" v="consider seamark:type=rock or natural=shoal" />
		<tag k="name" v="Hesthakkskjæret" />
		<tag k="place" v="islet" />
		<tag k="ssr:stedsnr" v="837874" />
	</node>
	<node id="-99703" lat="64.5959916632" lon="10.8822416563">
		<tag k="name" v="Grønvika" />
		<tag k="natural" v="bay" />
		<tag k="ssr:stedsnr" v="837858" />
	</node>
	<node id="-99702" lat="64.6037611104" lon="10.860541666">
		<tag k="name" v="Oterholmen" />
		<tag k="place" v="islet" />
		<tag k="ssr:stedsnr" v="837855" />
	</node>
	<node id="-99701" lat="64.5620194444" lon="10.8462111063">
		<tag k="name" v="Korsholmsundet" />
		<tag k="natural" v="strait" />
		<tag k="ssr:stedsnr" v="837823" />
	</node>
	<node id="-99698" lat="64.5263638934" lon="10.8982805467">
		<tag k="name" v="Knottaren" />
		<tag k="natural" v="shoal" />
		<tag k="place" v="locality" />
		<tag k="ssr:stedsnr" v="938771" />
	</node>
	<node id="-99696" lat="64.5275972216" lon="10.6569527879">
		<tag k="name" v="Litl - Kvaløya" />
		<tag k="place" v="island" />
		<tag k="ssr:stedsnr" v="836776" />
	</node>
	<node id="-99695" lat="64.4864583345" lon="10.7252555604">
		<tag k="name" v="Sandøysundet" />
		<tag k="natural" v="strait" />
		<tag k="ssr:stedsnr" v="938259" />
	</node>
	<node id="-99694" lat="64.485583335" lon="10.7575027794">
		<tag k="name" v="Skeiholmen" />
		<tag k="place" v="islet" />
		<tag k="ssr:stedsnr" v="938251" />
	</node>
	<node id="-99693" lat="64.4969972266" lon="10.7128027852">
		<tag k="fixme" v="consider seamark:type=rock or natural=shoal" />
		<tag k="name" v="Strandskjæret" />
		<tag k="place" v="islet" />
		<tag k="ssr:stedsnr" v="938250" />
	</node>
	<node id="-99691" lat="64.4401749974" lon="10.5540250053">
		<tag k="name" v="Valen" />
		<tag k="natural" v="bay" />
		<tag k="ssr:stedsnr" v="835004" />
	</node>
	<node id="-99689" lat="64.5041277756" lon="10.8573111154">
		<tag k="name" v="Bjørnhiodden" />
		<tag k="natural" v="cape" />
		<tag k="ssr:stedsnr" v="937199" />
	</node>
	<node id="-99688" lat="64.5260166707" lon="10.8193833387">
		<tag k="name" v="Hallarsanden" />
		<tag k="natural" v="beach" />
		<tag k="place" v="locality" />
		<tag k="ssr:stedsnr" v="937088" />
	</node>
	<node id="-99687" lat="64.6043861095" lon="10.954266663">
		<tag k="name" v="Vordsundet" />
		<tag k="natural" v="strait" />
		<tag k="ssr:stedsnr" v="934892" />
	</node>
	<node id="-99686" lat="64.4782805523" lon="10.6193749918">
		<tag k="name" v="Storfallet" />
		<tag k="place" v="locality" />
		<tag k="seamark:type" v="rock" />
		<tag k="ssr:stedsnr" v="934177" />
	</node>
	<node id="-99684" lat="64.4144888865" lon="10.7501694501">
		<tag k="name" v="Stangneset" />
		<tag k="natural" v="cape" />
		<tag k="ssr:stedsnr" v="934076" />
	</node>
	<node id="-99683" lat="64.4779722258" lon="10.7079305507">
		<tag k="name" v="Strandasundet" />
		<tag k="natural" v="strait" />
		<tag k="ssr:stedsnr" v="817259" />
	</node>
	<node id="-99682" lat="64.5084527821" lon="10.8823722261">
		<tag k="name" v="Nessabukta" />
		<tag k="natural" v="bay" />
		<tag k="ssr:stedsnr" v="815159" />
	</node>
	<node id="-98875" lat="64.5079847352" lon="10.8765362705">
		<tag k="name" v="Lauvøynesset" />
		<tag k="natural" v="cape" />
		<tag k="ssr:stedsnr" v="136709" />
	</node>
	<node id="-99677" lat="64.4662611098" lon="10.6229277748">
		<tag k="name" v="Jøssundbåen" />
		<tag k="place" v="locality" />
		<tag k="seamark:type" v="rock" />
		<tag k="ssr:stedsnr" v="813153" />
	</node>
	<node id="-99676" lat="64.6054750041" lon="10.9540333354">
		<tag k="name" v="Leiholmen" />
		<tag k="place" v="islet" />
		<tag k="ssr:stedsnr" v="803568" />
	</node>
	<node id="-99675" lat="64.493872222" lon="10.7583388821">
		<tag k="name" v="Sørøya" />
		<tag k="natural" v="cape" />
		<tag k="ssr:stedsnr" v="803426" />
	</node>
	<node id="-99674" lat="64.4806805587" lon="10.8363666634">
		<tag k="name" v="Labergvika" />
		<tag k="natural" v="bay" />
		<tag k="ssr:stedsnr" v="803411" />
	</node>
	<node id="-99673" lat="64.4885722221" lon="10.7320333369">
		<tag k="name" v="Sandøya" />
		<tag k="place" v="islet" />
		<tag k="ssr:stedsnr" v="803407" />
	</node>
	<node id="-99671" lat="64.5609194421" lon="10.7677805452">
		<tag k="alt_name" v="Lyngværet, midtre" />
		<tag k="name" v="Midtre Lyngværet" />
		<tag k="place" v="island" />
		<tag k="ssr:stedsnr" v="802646" />
	</node>
	<node id="-98873" lat="64.5087555524" lon="10.682294435">
		<tag k="name" v="Ivarsøyråsa" />
		<tag k="natural" v="strait" />
		<tag k="ssr:stedsnr" v="135923" />
	</node>
	<node id="-99666" lat="64.5225777735" lon="10.8507249905">
		<tag k="name" v="Mattisholmen" />
		<tag k="place" v="islet" />
		<tag k="ssr:stedsnr" v="925752" />
	</node>
	<node id="-98872" lat="64.5143777795" lon="10.6937222267">
		<tag k="name" v="Purkøya" />
		<tag k="place" v="islet" />
		<tag k="ssr:stedsnr" v="135909" />
	</node>
	<node id="-99660" lat="64.5360999974" lon="10.8803361137">
		<tag k="fixme" v="consider seamark:type=rock or natural=shoal" />
		<tag k="name" v="Kvalrosskjæret" />
		<tag k="place" v="islet" />
		<tag k="ssr:stedsnr" v="925680" />
	</node>
	<node id="-99659" lat="64.5161333365" lon="10.6421138887">
		<tag k="fixme" v="consider seamark:type=rock or natural=shoal" />
		<tag k="name" v="Torvgammen" />
		<tag k="place" v="islet" />
		<tag k="ssr:stedsnr" v="924910" />
	</node>
	<node id="-99658" lat="64.5355277776" lon="10.68583889">
		<tag k="name" v="Falingsholmen" />
		<tag k="place" v="islet" />
		<tag k="ssr:stedsnr" v="924901" />
	</node>
	<node id="-99657" lat="64.5370972258" lon="10.6622499958">
		<tag k="name" v="Knarrholmen" />
		<tag k="place" v="islet" />
		<tag k="ssr:stedsnr" v="924893" />
	</node>
	<node id="-99656" lat="64.5457510903" lon="10.6892747994">
		<tag k="name" v="Villa" />
		<tag k="place" v="island" />
		<tag k="ssr:stedsnr" v="924883" />
	</node>
	<node id="-99654" lat="64.4200416704" lon="10.7356138903">
		<tag k="bay" v="fjord" />
		<tag k="name" v="Jøssundfjorden" />
		<tag k="natural" v="bay" />
		<tag k="ssr:stedsnr" v="924650" />
	</node>
	<node id="-99652" lat="64.4456694434" lon="10.5539194491">
		<tag k="name" v="Håstadholmen" />
		<tag k="place" v="islet" />
		<tag k="ssr:stedsnr" v="924631" />
	</node>
	<node id="-99649" lat="64.4885194421" lon="10.680322219">
		<tag k="name" v="Hanøya" />
		<tag k="place" v="islet" />
		<tag k="ssr:stedsnr" v="924622" />
	</node>
	<node id="-99648" lat="64.4728944439" lon="10.4725499929">
		<tag k="name" v="Skåka" />
		<tag k="natural" v="shoal" />
		<tag k="place" v="locality" />
		<tag k="ssr:stedsnr" v="924619" />
	</node>
	<node id="-99645" lat="64.5664888915" lon="10.8615138947">
		<tag k="name" v="Riøysundet" />
		<tag k="natural" v="strait" />
		<tag k="ssr:stedsnr" v="924591" />
	</node>
	<node id="-99644" lat="64.6098000043" lon="10.9243333414">
		<tag k="name" v="Bangøya" />
		<tag k="place" v="island" />
		<tag k="ssr:stedsnr" v="924539" />
	</node>
	<node id="-99643" lat="64.5999277792" lon="10.9035500044">
		<tag k="name" v="Tjuvholman" />
		<tag k="place" v="islet" />
		<tag k="ssr:stedsnr" v="924524" />
	</node>
	<node id="-99642" lat="64.6154861069" lon="10.9461555495">
		<tag k="fixme" v="consider seamark:type=rock or natural=shoal" />
		<tag k="name" v="Sveinskjæret" />
		<tag k="place" v="islet" />
		<tag k="ssr:stedsnr" v="924474" />
	</node>
	<node id="-99636" lat="64.4644583371" lon="10.7803749982">
		<tag k="name" v="Trefjorden" />
		<tag k="natural" v="bay" />
		<tag k="ssr:stedsnr" v="924371" />
	</node>
	<node id="-98865" lat="64.4750416687" lon="10.5381555592">
		<tag k="name" v="Kiltaren" />
		<tag k="natural" v="shoal" />
		<tag k="place" v="locality" />
		<tag k="ssr:stedsnr" v="267124" />
	</node>
	<node id="-99619" lat="64.3988305538" lon="10.7731277742">
		<tag k="name" v="Jøssundøya" />
		<tag k="place" v="island" />
		<tag k="ssr:stedsnr" v="924239" />
	</node>
	<node id="-99618" lat="64.3808833378" lon="10.8269361141">
		<tag k="name" v="Kalvstranda" />
		<tag k="natural" v="beach" />
		<tag k="place" v="locality" />
		<tag k="ssr:stedsnr" v="924237" />
	</node>
	<node id="-99617" lat="64.3805333328" lon="10.7780500028">
		<tag k="name" v="Skjelløra" />
		<tag k="natural" v="cape" />
		<tag k="ssr:stedsnr" v="924233" />
	</node>
	<node id="-98864" lat="64.4545583311" lon="10.5053027841">
		<tag k="name" v="Djupbogen" />
		<tag k="natural" v="shoal" />
		<tag k="place" v="locality" />
		<tag k="ssr:stedsnr" v="267122" />
	</node>
	<node id="-99603" lat="64.5554777768" lon="10.8874666633">
		<tag k="name" v="Lyktodden" />
		<tag k="natural" v="cape" />
		<tag k="ssr:stedsnr" v="776856" />
	</node>
	<node id="-99602" lat="64.5599138864" lon="10.9058055501">
		<tag k="name" v="Abelvikodden" />
		<tag k="natural" v="cape" />
		<tag k="ssr:stedsnr" v="776854" />
	</node>
	<node id="-99601" lat="64.5845194422" lon="10.9185777859">
		<tag k="alt_name" v="Asholmen" />
		<tag k="name" v="Inner-Asholmen" />
		<tag k="place" v="islet" />
		<tag k="ssr:stedsnr" v="776905" />
	</node>
	<node id="-99586" lat="64.5206833315" lon="10.9487333405">
		<tag k="name" v="Bårdvikodden" />
		<tag k="natural" v="cape" />
		<tag k="ssr:stedsnr" v="743703" />
	</node>
	<node id="-99585" lat="64.5481861092" lon="10.7159083235">
		<tag k="name" v="Brannholmen" />
		<tag k="place" v="islet" />
		<tag k="ssr:stedsnr" v="742921" />
	</node>
	<node id="-99584" lat="64.5376861096" lon="10.6782777688">
		<tag k="name" v="Kråkholmen" />
		<tag k="place" v="islet" />
		<tag k="ssr:stedsnr" v="742919" />
	</node>
	<node id="-99583" lat="64.5465555585" lon="10.6654111185">
		<tag k="name" v="Bardan" />
		<tag k="place" v="island" />
		<tag k="ssr:stedsnr" v="742903" />
	</node>
	<node id="-98790" lat="64.5484666701" lon="10.9563222183">
		<tag k="name" v="Varpvikodden" />
		<tag k="natural" v="cape" />
		<tag k="ssr:stedsnr" v="231851" />
	</node>
	<node id="-99577" lat="64.6039194445" lon="10.906005546">
		<tag k="alt_name" v="Rognholmen, store" />
		<tag k="name" v="Store Rognholmen" />
		<tag k="place" v="islet" />
		<tag k="ssr:stedsnr" v="742509" />
	</node>
	<node id="-99575" lat="64.4849749984" lon="10.8223916606">
		<tag k="name" v="Ormstranda" />
		<tag k="natural" v="beach" />
		<tag k="place" v="locality" />
		<tag k="ssr:stedsnr" v="742372" />
	</node>
	<node id="-98857" lat="64.4742888932" lon="10.9366027867">
		<tag k="name" v="Merkesodden" />
		<tag k="natural" v="cape" />
		<tag k="ssr:stedsnr" v="110805" />
	</node>
	<node id="-99566" lat="64.4148361081" lon="10.8032027777">
		<tag k="name" v="Langnesvika" />
		<tag k="natural" v="bay" />
		<tag k="ssr:stedsnr" v="899949" />
	</node>
	<node id="-99564" lat="64.5579972262" lon="10.9431611062">
		<tag k="name" v="Kvennavika" />
		<tag k="natural" v="bay" />
		<tag k="ssr:stedsnr" v="899847" />
	</node>
	<node id="-99556" lat="64.6097444406" lon="10.9236277721">
		<tag k="name" v="Ytter Bangøya" />
		<tag k="place" v="island" />
		<tag k="ssr:stedsnr" v="898944" />
	</node>
	<node id="-99554" lat="64.6081944456" lon="10.8490527702">
		<tag k="fixme" v="consider seamark:type=rock or natural=shoal" />
		<tag k="name" v="Skarvskjæret" />
		<tag k="place" v="islet" />
		<tag k="ssr:stedsnr" v="898845" />
	</node>
	<node id="-99553" lat="64.542091663" lon="10.7856166717">
		<tag k="name" v="Jobonholmen" />
		<tag k="place" v="islet" />
		<tag k="ssr:stedsnr" v="898844" />
	</node>
	<node id="-99552" lat="64.5951250041" lon="10.8285888798">
		<tag k="name" v="Litl - Hartvikøya" />
		<tag k="place" v="island" />
		<tag k="ssr:stedsnr" v="898840" />
	</node>
	<node id="-99551" lat="64.5384305559" lon="10.9731777674">
		<tag k="name" v="Inner-Brennavika" />
		<tag k="natural" v="bay" />
		<tag k="ssr:stedsnr" v="898833" />
	</node>
	<node id="-99550" lat="64.5313194418" lon="10.9656972226">
		<tag k="name" v="Stokkvika" />
		<tag k="natural" v="bay" />
		<tag k="ssr:stedsnr" v="898831" />
	</node>
	<node id="-99549" lat="64.5441083359" lon="10.9191416712">
		<tag k="name" v="Inner-Kuvika" />
		<tag k="natural" v="bay" />
		<tag k="ssr:stedsnr" v="898830" />
	</node>
	<node id="-98852" lat="64.5356555566" lon="10.6474527755">
		<tag k="alt_name" v="Sør Knarrflesa" />
		<tag k="fixme" v="consider seamark:type=rock or natural=shoal" />
		<tag k="name" v="Søre Knarrflesa" />
		<tag k="old_name" v="Knarrflesa, s" />
		<tag k="place" v="islet" />
		<tag k="ssr:stedsnr" v="257939" />
	</node>
	<node id="-99542" lat="64.5565416706" lon="10.8532111117">
		<tag k="name" v="Riøyskaget" />
		<tag k="natural" v="cape" />
		<tag k="ssr:stedsnr" v="898857" />
	</node>
	<node id="-98851" lat="64.5406611098" lon="10.7413583318">
		<tag k="alt_name" v="Skårflesa, l" />
		<tag k="fixme" v="consider seamark:type=rock or natural=shoal" />
		<tag k="name" v="Litle Skårflesa" />
		<tag k="place" v="islet" />
		<tag k="ssr:stedsnr" v="257699" />
	</node>
	<node id="-99525" lat="64.5984499998" lon="10.8411749946">
		<tag k="name" v="Kråkholmråsa" />
		<tag k="natural" v="strait" />
		<tag k="ssr:stedsnr" v="716841" />
	</node>
	<node id="-99522" lat="64.5655027782" lon="10.8056527767">
		<tag k="name" v="Valan" />
		<tag k="natural" v="cape" />
		<tag k="ssr:stedsnr" v="716816" />
	</node>
	<node id="-99515" lat="64.4146583355" lon="10.7509249991">
		<tag k="name" v="Stangarnesodden" />
		<tag k="natural" v="cape" />
		<tag k="ssr:stedsnr" v="895018" />
	</node>
	<node id="-99514" lat="64.4389499969" lon="10.5749000037">
		<tag k="alt_name" v="Grønvika" />
		<tag k="name" v="Grønnvika" />
		<tag k="natural" v="bay" />
		<tag k="ssr:stedsnr" v="895017" />
	</node>
	<node id="-99513" lat="64.4161416649" lon="10.6092944535">
		<tag k="name" v="Gullneset" />
		<tag k="natural" v="cape" />
		<tag k="ssr:stedsnr" v="895002" />
	</node>
	<node id="-99512" lat="64.4142083337" lon="10.6114805477">
		<tag k="name" v="Ørholman" />
		<tag k="place" v="islet" />
		<tag k="ssr:stedsnr" v="712003" />
	</node>
	<node id="-99511" lat="64.5628222264" lon="10.6922027805">
		<tag k="name" v="Springeran" />
		<tag k="natural" v="shoal" />
		<tag k="place" v="locality" />
		<tag k="ssr:stedsnr" v="696826" />
	</node>
	<node id="-99510" lat="64.5339361103" lon="10.7317361205">
		<tag k="name" v="Knatten" />
		<tag k="natural" v="shoal" />
		<tag k="place" v="locality" />
		<tag k="ssr:stedsnr" v="696822" />
	</node>
	<node id="-99508" lat="64.4792500014" lon="10.753530559">
		<tag k="fixme" v="consider seamark:type=rock or natural=shoal" />
		<tag k="name" v="Mikkelskjæret" />
		<tag k="place" v="islet" />
		<tag k="ssr:stedsnr" v="694074" />
	</node>
	<node id="-99507" lat="64.4655972234" lon="10.763802788">
		<tag k="name" v="Vannavikodden" />
		<tag k="natural" v="cape" />
		<tag k="ssr:stedsnr" v="694072" />
	</node>
	<node id="-99505" lat="64.4811694454" lon="10.7583361202">
		<tag k="name" v="Baksttrauget" />
		<tag k="natural" v="shoal" />
		<tag k="place" v="locality" />
		<tag k="ssr:stedsnr" v="694068" />
	</node>
	<node id="-99504" lat="64.4717388864" lon="10.8222472295">
		<tag k="name" v="Årfjordstrømmen" />
		<tag k="natural" v="strait" />
		<tag k="ssr:stedsnr" v="694064" />
	</node>
	<node id="-99502" lat="64.5172305571" lon="10.8400916758">
		<tag k="name" v="Røyrholet" />
		<tag k="natural" v="bay" />
		<tag k="ssr:stedsnr" v="694054" />
	</node>
	<node id="-99500" lat="64.4672111146" lon="10.6799805488">
		<tag k="name" v="Kvaløysanden" />
		<tag k="place" v="locality" />
		<tag k="ssr:stedsnr" v="693006" />
	</node>
	<node id="-99499" lat="64.475108332" lon="10.7116944536">
		<tag k="name" v="Innervika" />
		<tag k="natural" v="bay" />
		<tag k="ssr:stedsnr" v="693004" />
	</node>
	<node id="-99495" lat="64.5197777808" lon="10.6360861109">
		<tag k="name" v="Haldorholmen" />
		<tag k="place" v="islet" />
		<tag k="ssr:stedsnr" v="681919" />
	</node>
	<node id="-99494" lat="64.5387833343" lon="10.7085833413">
		<tag k="name" v="Svinholmen" />
		<tag k="place" v="islet" />
		<tag k="ssr:stedsnr" v="681912" />
	</node>
	<node id="-99493" lat="64.5514166662" lon="10.2500305573">
		<tag k="name" v="Sveskallen" />
		<tag k="natural" v="shoal" />
		<tag k="place" v="locality" />
		<tag k="ssr:stedsnr" v="681904" />
	</node>
	<node id="-99492" lat="64.5003166706" lon="10.8705250021">
		<tag k="name" v="Sjøvika" />
		<tag k="natural" v="bay" />
		<tag k="ssr:stedsnr" v="681755" />
	</node>
	<node id="-99489" lat="64.4513888873" lon="10.4957944352">
		<tag k="fixme" v="consider seamark:type=rock or natural=shoal" />
		<tag k="name" v="Djupråsskjæret" />
		<tag k="place" v="islet" />
		<tag k="ssr:stedsnr" v="681658" />
	</node>
	<node id="-99488" lat="64.4527749983" lon="10.583463879">
		<tag k="name" v="Hasvågøya" />
		<tag k="place" v="island" />
		<tag k="ssr:stedsnr" v="681657" />
	</node>
	<node id="-99482" lat="64.4977138848" lon="10.7235694411">
		<tag k="name" v="Aspøya" />
		<tag k="place" v="island" />
		<tag k="ssr:stedsnr" v="681414" />
	</node>
	<node id="-99480" lat="64.5896499985" lon="10.7904333286">
		<tag k="fixme" v="consider seamark:type=rock or natural=shoal" />
		<tag k="name" v="Skinnarøytaren" />
		<tag k="place" v="islet" />
		<tag k="ssr:stedsnr" v="878997" />
	</node>
	<node id="-99479" lat="64.5410555583" lon="10.7739805557">
		<tag k="name" v="Flatholmen" />
		<tag k="place" v="islet" />
		<tag k="ssr:stedsnr" v="878901" />
	</node>
	<node id="-98841" lat="64.5127083348" lon="10.8005388905">
		<tag k="name" v="Einvikråsa" />
		<tag k="natural" v="strait" />
		<tag k="ssr:stedsnr" v="257728" />
	</node>
	<node id="-99476" lat="64.5063833366" lon="10.8863749954">
		<tag k="name" v="Toppsundet" />
		<tag k="natural" v="strait" />
		<tag k="ssr:stedsnr" v="878788" />
	</node>
	<node id="-99473" lat="64.5012611154" lon="10.9064111156">
		<tag k="name" v="Bryggholet" />
		<tag k="natural" v="bay" />
		<tag k="ssr:stedsnr" v="664689" />
	</node>
	<node id="-99470" lat="64.4810166685" lon="10.6502916771">
		<tag k="name" v="Kvaløyskåka" />
		<tag k="natural" v="shoal" />
		<tag k="place" v="locality" />
		<tag k="ssr:stedsnr" v="878254" />
	</node>
	<node id="-99467" lat="64.5912111156" lon="10.9438916655">
		<tag k="name" v="Smørvika" />
		<tag k="natural" v="bay" />
		<tag k="ssr:stedsnr" v="655883" />
	</node>
	<node id="-99461" lat="64.5098527783" lon="10.7454805488">
		<tag k="fixme" v="consider seamark:type=rock or natural=shoal" />
		<tag k="name" v="Kjerkflua" />
		<tag k="place" v="islet" />
		<tag k="ssr:stedsnr" v="634866" />
	</node>
	<node id="-99454" lat="64.5220138895" lon="10.8760166583">
		<tag k="name" v="Gåsvika" />
		<tag k="natural" v="bay" />
		<tag k="ssr:stedsnr" v="632170" />
	</node>
	<node id="-99453" lat="64.518044442" lon="10.8887611153">
		<tag k="name" v="Storøyvalen" />
		<tag k="place" v="locality" />
		<tag k="ssr:stedsnr" v="632169" />
	</node>
	<node id="-99449" lat="64.4874972256" lon="10.4956888963">
		<tag k="fixme" v="consider seamark:type=rock or natural=shoal" />
		<tag k="name" v="Ytre Brosmeskjæret" />
		<tag k="place" v="islet" />
		<tag k="ssr:stedsnr" v="632263" />
	</node>
	<node id="-99437" lat="64.5195499985" lon="10.7805000032">
		<tag k="name" v="Holmsundodden" />
		<tag k="natural" v="cape" />
		<tag k="ssr:stedsnr" v="621706" />
	</node>
	<node id="-99436" lat="64.4315027743" lon="10.8013277717">
		<tag k="name" v="Vedvikholmen" />
		<tag k="place" v="islet" />
		<tag k="ssr:stedsnr" v="620415" />
	</node>
	<node id="-99429" lat="64.6074527796" lon="10.9445861085">
		<tag k="name" v="Skarvskjærråsa" />
		<tag k="natural" v="strait" />
		<tag k="ssr:stedsnr" v="716929" />
	</node>
	<node id="-99426" lat="64.5782444459" lon="10.9073694445">
		<tag k="name" v="Sandvika" />
		<tag k="natural" v="bay" />
		<tag k="ssr:stedsnr" v="716888" />
	</node>
	<node id="-99420" lat="64.5539527817" lon="10.8688805567">
		<tag k="name" v="Tranaråsa" />
		<tag k="natural" v="strait" />
		<tag k="ssr:stedsnr" v="716859" />
	</node>
	<node id="-99407" lat="64.5329916689" lon="10.9001638811">
		<tag k="bay" v="fjord" />
		<tag k="name" v="Knottenfjorden" />
		<tag k="natural" v="bay" />
		<tag k="ssr:stedsnr" v="595816" />
	</node>
	<node id="-99401" lat="64.5682166663" lon="10.7949388801">
		<tag k="name" v="Havsholmsundet" />
		<tag k="natural" v="strait" />
		<tag k="ssr:stedsnr" v="594806" />
	</node>
	<node id="-99399" lat="64.4975861112" lon="10.7791444387">
		<tag k="name" v="Langstranda" />
		<tag k="natural" v="beach" />
		<tag k="place" v="locality" />
		<tag k="ssr:stedsnr" v="572138" />
	</node>
	<node id="-99398" lat="64.4988777761" lon="10.7419222227">
		<tag k="name" v="Aspøyholman" />
		<tag k="place" v="islet" />
		<tag k="ssr:stedsnr" v="572136" />
	</node>
	<node id="-99396" lat="64.4813222191" lon="10.7511833305">
		<tag k="fixme" v="consider seamark:type=rock or natural=shoal" />
		<tag k="name" v="Oskarskjæret" />
		<tag k="place" v="islet" />
		<tag k="ssr:stedsnr" v="572103" />
	</node>
	<node id="-99394" lat="64.6027916651" lon="10.8831194422">
		<tag k="name" v="Skingen" />
		<tag k="place" v="island" />
		<tag k="ssr:stedsnr" v="560560" />
	</node>
	<node id="-99393" lat="64.6030000024" lon="10.9418750068">
		<tag k="name" v="Kvitholmen" />
		<tag k="place" v="islet" />
		<tag k="ssr:stedsnr" v="560558" />
	</node>
	<node id="-99388" lat="64.3876277789" lon="10.7597749962">
		<tag k="name" v="Hestdalsholmen" />
		<tag k="place" v="islet" />
		<tag k="ssr:stedsnr" v="560271" />
	</node>
	<node id="-99387" lat="64.5211416673" lon="10.7066888834">
		<tag k="name" v="Grønnavågen" />
		<tag k="natural" v="bay" />
		<tag k="ssr:stedsnr" v="559912" />
	</node>
	<node id="-99386" lat="64.4533250018" lon="10.4691499944">
		<tag k="name" v="Rabben" />
		<tag k="natural" v="shoal" />
		<tag k="place" v="locality" />
		<tag k="ssr:stedsnr" v="559672" />
	</node>
	<node id="-99385" lat="64.457808337" lon="10.680080557">
		<tag k="name" v="Bremneset" />
		<tag k="natural" v="cape" />
		<tag k="ssr:stedsnr" v="559671" />
	</node>
	<node id="-99381" lat="64.5623916623" lon="10.8431361166">
		<tag k="name" v="Korsholmen" />
		<tag k="place" v="islet" />
		<tag k="ssr:stedsnr" v="559616" />
	</node>
	<node id="-99373" lat="64.4828333349" lon="10.7748638977">
		<tag k="name" v="Sørstraumen" />
		<tag k="natural" v="bay" />
		<tag k="ssr:stedsnr" v="696245" />
	</node>
	<node id="-99372" lat="64.5412555579" lon="10.9143972158">
		<tag k="fixme" v="consider seamark:type=rock or natural=shoal" />
		<tag k="name" v="Kuvikskjæret" />
		<tag k="place" v="islet" />
		<tag k="ssr:stedsnr" v="695795" />
	</node>
	<node id="-99370" lat="64.4881416652" lon="10.7401444499">
		<tag k="name" v="Heimholman" />
		<tag k="place" v="islet" />
		<tag k="ssr:stedsnr" v="694091" />
	</node>
	<node id="-99368" lat="64.5156416705" lon="10.8029000104">
		<tag k="name" v="Stokkstranda" />
		<tag k="natural" v="beach" />
		<tag k="place" v="locality" />
		<tag k="ssr:stedsnr" v="694173" />
	</node>
	<node id="-99362" lat="64.4702638929" lon="10.9690527806">
		<tag k="name" v="Hestmarksanden" />
		<tag k="natural" v="bay" />
		<tag k="ssr:stedsnr" v="542813" />
	</node>
	<node id="-99360" lat="64.4571222225" lon="10.6877249988">
		<tag k="name" v="Vikdalsanden" />
		<tag k="natural" v="bay" />
		<tag k="ssr:stedsnr" v="693016" />
	</node>
	<node id="-99359" lat="64.4839999976" lon="10.6547805626">
		<tag k="name" v="Kvalen" />
		<tag k="place" v="islet" />
		<tag k="ssr:stedsnr" v="691233" />
	</node>
	<node id="-99358" lat="64.4444027759" lon="10.5934138837">
		<tag k="name" v="Skutnesbukta" />
		<tag k="natural" v="bay" />
		<tag k="ssr:stedsnr" v="691206" />
	</node>
	<node id="-99347" lat="64.5390222246" lon="10.8547527736">
		<tag k="name" v="Kvinholmskaget" />
		<tag k="place" v="islet" />
		<tag k="ssr:stedsnr" v="533831" />
	</node>
	<node id="-99339" lat="64.4888222246" lon="10.7437666581">
		<tag k="name" v="Treholman" />
		<tag k="place" v="islet" />
		<tag k="ssr:stedsnr" v="512109" />
	</node>
	<node id="-99337" lat="64.4952555583" lon="10.736633339">
		<tag k="fixme" v="consider seamark:type=rock or natural=shoal" />
		<tag k="name" v="Hansskjæret" />
		<tag k="place" v="islet" />
		<tag k="ssr:stedsnr" v="512106" />
	</node>
	<node id="-99332" lat="64.618508335" lon="10.9135750082">
		<tag k="fixme" v="consider seamark:type=rock or natural=shoal" />
		<tag k="name" v="Revillen" />
		<tag k="place" v="islet" />
		<tag k="ssr:stedsnr" v="509864" />
	</node>
	<node id="-99331" lat="64.450799999" lon="10.5449833252">
		<tag k="fixme" v="consider seamark:type=rock or natural=shoal" />
		<tag k="name" v="Hestskjæret" />
		<tag k="place" v="islet" />
		<tag k="ssr:stedsnr" v="509151" />
	</node>
	<node id="-99330" lat="64.5074083313" lon="10.6118305624">
		<tag k="name" v="Nordskåka" />
		<tag k="natural" v="shoal" />
		<tag k="place" v="locality" />
		<tag k="ssr:stedsnr" v="682939" />
	</node>
	<node id="-99328" lat="64.5056833297" lon="10.9248361087">
		<tag k="name" v="Vågan" />
		<tag k="natural" v="bay" />
		<tag k="ssr:stedsnr" v="682750" />
	</node>
	<node id="-99327" lat="64.502063885" lon="10.7928138826">
		<tag k="alt_name" v="Nordstrømmen" />
		<tag k="name" v="Nordstraumen" />
		<tag k="natural" v="strait" />
		<tag k="ssr:stedsnr" v="682744" />
	</node>
	<node id="-99326" lat="64.5312416623" lon="10.7445083323">
		<tag k="alt_name" v="Floflesa, s" />
		<tag k="fixme" v="consider seamark:type=rock or natural=shoal" />
		<tag k="name" v="Søre Floflesa" />
		<tag k="place" v="islet" />
		<tag k="ssr:stedsnr" v="682741" />
	</node>
	<node id="-99322" lat="64.4409749992" lon="10.6438305572">
		<tag k="name" v="Sandvika" />
		<tag k="natural" v="bay" />
		<tag k="ssr:stedsnr" v="681643" />
	</node>
	<node id="-99321" lat="64.4777055565" lon="10.6850583274">
		<tag k="name" v="Brannøya" />
		<tag k="place" v="islet" />
		<tag k="ssr:stedsnr" v="681635" />
	</node>
	<node id="-99319" lat="64.5554277757" lon="10.7706583309">
		<tag k="alt_name" v="Lyngværet, in" />
		<tag k="name" v="Indre Lyngværet" />
		<tag k="place" v="island" />
		<tag k="ssr:stedsnr" v="681596" />
	</node>
	<node id="-99318" lat="64.5908000024" lon="10.9979416595">
		<tag k="name" v="Urdstranda" />
		<tag k="natural" v="beach" />
		<tag k="place" v="locality" />
		<tag k="ssr:stedsnr" v="681586" />
	</node>
	<node id="-99317" lat="64.5848277746" lon="10.9063194366">
		<tag k="name" v="Asholman" />
		<tag k="place" v="islet" />
		<tag k="ssr:stedsnr" v="681583" />
	</node>
	<node id="-99316" lat="64.4251555522" lon="10.7055555496">
		<tag k="name" v="Håneset" />
		<tag k="natural" v="cape" />
		<tag k="ssr:stedsnr" v="681691" />
	</node>
	<node id="-99313" lat="64.6103055568" lon="10.8289638952">
		<tag k="name" v="Skåkbalen" />
		<tag k="place" v="islet" />
		<tag k="ssr:stedsnr" v="681490" />
	</node>
	<node id="-99312" lat="64.6078499959" lon="10.9037694419">
		<tag k="name" v="Laukøya" />
		<tag k="place" v="islet" />
		<tag k="ssr:stedsnr" v="681559" />
	</node>
	<node id="-99311" lat="64.6056361068" lon="10.8952777854">
		<tag k="name" v="Natavika" />
		<tag k="natural" v="bay" />
		<tag k="ssr:stedsnr" v="681558" />
	</node>
	<node id="-99307" lat="64.481977777" lon="10.8928249982">
		<tag k="alt_name" v="Fløanfjorden" />
		<tag k="bay" v="fjord" />
		<tag k="name" v="Fløan" />
		<tag k="natural" v="bay" />
		<tag k="ssr:stedsnr" v="681391" />
	</node>
	<node id="-99301" lat="64.4130416628" lon="10.7361611077">
		<tag k="name" v="Guruvika" />
		<tag k="natural" v="bay" />
		<tag k="ssr:stedsnr" v="681294" />
	</node>
	<node id="-99296" lat="64.5789583367" lon="11.0392249952">
		<tag k="name" v="Tømmervika" />
		<tag k="natural" v="bay" />
		<tag k="ssr:stedsnr" v="499512" />
	</node>
	<node id="-99294" lat="64.6125944462" lon="10.9060666709">
		<tag k="name" v="Laukøyråsa" />
		<tag k="natural" v="strait" />
		<tag k="ssr:stedsnr" v="499502" />
	</node>
	<node id="-99293" lat="64.6074388844" lon="10.8630583371">
		<tag k="name" v="Ytter-Rekkøya" />
		<tag k="place" v="island" />
		<tag k="ssr:stedsnr" v="499486" />
	</node>
	<node id="-99292" lat="64.5976888847" lon="10.798486118">
		<tag k="name" v="Bremsundbalen" />
		<tag k="place" v="islet" />
		<tag k="ssr:stedsnr" v="499484" />
	</node>
	<node id="-99291" lat="64.5960111088" lon="10.7919777712">
		<tag k="name" v="Skinnarøya" />
		<tag k="place" v="islet" />
		<tag k="ssr:stedsnr" v="499468" />
	</node>
	<node id="-99290" lat="64.5946166677" lon="10.7907722137">
		<tag k="name" v="Skinnarøybalan" />
		<tag k="place" v="islet" />
		<tag k="ssr:stedsnr" v="499465" />
	</node>
	<node id="-99272" lat="64.6010305531" lon="10.8264416623">
		<tag k="name" v="Brannøya" />
		<tag k="place" v="island" />
		<tag k="ssr:stedsnr" v="453904" />
	</node>
	<node id="-99266" lat="64.5063361085" lon="10.9504861154">
		<tag k="name" v="Saltbuvika" />
		<tag k="natural" v="bay" />
		<tag k="ssr:stedsnr" v="450109" />
	</node>
	<node id="-99265" lat="64.5024722264" lon="10.623244436">
		<tag k="fixme" v="consider seamark:type=rock or natural=shoal" />
		<tag k="name" v="Fauskan" />
		<tag k="place" v="islet" />
		<tag k="ssr:stedsnr" v="439941" />
	</node>
	<node id="-99264" lat="64.5138861079" lon="10.6404416586">
		<tag k="name" v="Grønaholmen" />
		<tag k="place" v="islet" />
		<tag k="ssr:stedsnr" v="439933" />
	</node>
	<node id="-99263" lat="64.5569027776" lon="10.6847611032">
		<tag k="name" v="Undskottaren" />
		<tag k="natural" v="shoal" />
		<tag k="place" v="locality" />
		<tag k="ssr:stedsnr" v="439912" />
	</node>
	<node id="-99262" lat="64.5532805545" lon="10.7062138845">
		<tag k="name" v="Måholmsundet" />
		<tag k="natural" v="strait" />
		<tag k="ssr:stedsnr" v="439907" />
	</node>
	<node id="-99261" lat="64.4950527776" lon="10.6544277836">
		<tag k="name" v="Kvitholmen" />
		<tag k="place" v="islet" />
		<tag k="ssr:stedsnr" v="439876" />
	</node>
	<node id="-99251" lat="64.6019638919" lon="10.9569499959">
		<tag k="name" v="Hamnavika" />
		<tag k="natural" v="bay" />
		<tag k="ssr:stedsnr" v="655932" />
	</node>
	<node id="-99245" lat="64.5957222224" lon="10.8058500036">
		<tag k="name" v="Ennesholmen" />
		<tag k="place" v="islet" />
		<tag k="ssr:stedsnr" v="655844" />
	</node>
	<node id="-99243" lat="64.5310361134" lon="10.8678611146">
		<tag k="fixme" v="consider seamark:type=rock or natural=shoal" />
		<tag k="name" v="Søråsskjæret" />
		<tag k="place" v="islet" />
		<tag k="ssr:stedsnr" v="655821" />
	</node>
	<node id="-99237" lat="64.4322250001" lon="10.7763722238">
		<tag k="name" v="Røsslyngodden" />
		<tag k="natural" v="cape" />
		<tag k="ssr:stedsnr" v="655752" />
	</node>
	<node id="-99233" lat="64.3705250041" lon="10.8076000079">
		<tag k="name" v="Leirvika" />
		<tag k="natural" v="bay" />
		<tag k="ssr:stedsnr" v="438356" />
	</node>
	<node id="-99230" lat="64.5316888859" lon="10.9720194425">
		<tag k="name" v="Sittersjøen" />
		<tag k="natural" v="beach" />
		<tag k="place" v="locality" />
		<tag k="ssr:stedsnr" v="424119" />
	</node>
	<node id="-99229" lat="64.4341905344" lon="10.6322228249">
		<tag k="name" v="Sørnesset" />
		<tag k="natural" v="cape" />
		<tag k="ssr:stedsnr" v="424116" />
	</node>
	<node id="-99221" lat="64.538786115" lon="10.768474994">
		<tag k="name" v="Ramsviktaren" />
		<tag k="natural" v="shoal" />
		<tag k="place" v="locality" />
		<tag k="ssr:stedsnr" v="513890" />
	</node>
	<node id="-99220" lat="64.5431027799" lon="10.7354666608">
		<tag k="name" v="Litlklakken" />
		<tag k="place" v="locality" />
		<tag k="seamark:type" v="rock" />
		<tag k="ssr:stedsnr" v="513875" />
	</node>
	<node id="-99217" lat="64.4897666658" lon="10.8101861208">
		<tag k="name" v="Brattstøa" />
		<tag k="natural" v="bay" />
		<tag k="ssr:stedsnr" v="512100" />
	</node>
	<node id="-99215" lat="64.4965222246" lon="10.7913361131">
		<tag k="name" v="Kobbsteinøra" />
		<tag k="natural" v="beach" />
		<tag k="place" v="locality" />
		<tag k="ssr:stedsnr" v="512094" />
	</node>
	<node id="-99213" lat="64.4674333316" lon="10.8448249912">
		<tag k="name" v="Flåvika" />
		<tag k="natural" v="bay" />
		<tag k="ssr:stedsnr" v="512078" />
	</node>
	<node id="-99209" lat="64.476200001" lon="10.6604861078">
		<tag k="name" v="Bengstadodden" />
		<tag k="natural" v="cape" />
		<tag k="ssr:stedsnr" v="511021" />
	</node>
	<node id="-99208" lat="64.4714916661" lon="10.6860861112">
		<tag k="name" v="Bokkatakholmen" />
		<tag k="place" v="islet" />
		<tag k="ssr:stedsnr" v="511020" />
	</node>
	<node id="-99206" lat="64.4427083357" lon="10.7416722246">
		<tag k="name" v="Kilan" />
		<tag k="natural" v="bay" />
		<tag k="ssr:stedsnr" v="511117" />
	</node>
	<node id="-99204" lat="64.4950083344" lon="10.6417249951">
		<tag k="name" v="Svartokstaren" />
		<tag k="place" v="locality" />
		<tag k="seamark:type" v="rock" />
		<tag k="ssr:stedsnr" v="509179" />
	</node>
	<node id="-99203" lat="64.4452472209" lon="10.5126888927">
		<tag k="fixme" v="consider seamark:type=rock or natural=shoal" />
		<tag k="name" v="Oterskjæret" />
		<tag k="place" v="islet" />
		<tag k="ssr:stedsnr" v="509165" />
	</node>
	<node id="-99202" lat="64.4571694456" lon="10.6065277726">
		<tag k="name" v="Kråka" />
		<tag k="place" v="islet" />
		<tag k="ssr:stedsnr" v="509153" />
	</node>
	<node id="-99201" lat="64.4255333363" lon="10.7356305464">
		<tag k="name" v="Kiltaren" />
		<tag k="natural" v="shoal" />
		<tag k="place" v="locality" />
		<tag k="ssr:stedsnr" v="509087" />
	</node>
	<node id="-99199" lat="64.4936333291" lon="10.7026611071">
		<tag k="name" v="Strandtaren" />
		<tag k="place" v="locality" />
		<tag k="seamark:type" v="rock" />
		<tag k="ssr:stedsnr" v="392257" />
	</node>
	<node id="-99198" lat="64.5980666692" lon="11.0313555563">
		<tag k="fixme" v="consider seamark:type=rock or natural=shoal" />
		<tag k="name" v="Trollsteinen" />
		<tag k="place" v="islet" />
		<tag k="ssr:stedsnr" v="392311" />
	</node>
	<node id="-99197" lat="64.6043833309" lon="10.9639055455">
		<tag k="name" v="Hamnvika" />
		<tag k="natural" v="bay" />
		<tag k="ssr:stedsnr" v="390894" />
	</node>
	<node id="-99196" lat="64.503308336" lon="10.9102527868">
		<tag k="name" v="Rebuodden" />
		<tag k="natural" v="cape" />
		<tag k="ssr:stedsnr" v="390205" />
	</node>
	<node id="-99195" lat="64.5038166666" lon="10.9553555535">
		<tag k="name" v="Vollavika" />
		<tag k="natural" v="bay" />
		<tag k="ssr:stedsnr" v="390173" />
	</node>
	<node id="-99194" lat="64.4831694472" lon="10.4872111019">
		<tag k="fixme" v="consider seamark:type=rock or natural=shoal" />
		<tag k="name" v="Jadfallet" />
		<tag k="place" v="islet" />
		<tag k="ssr:stedsnr" v="390172" />
	</node>
	<node id="-99192" lat="64.5136888895" lon="10.8848611055">
		<tag k="name" v="Lauvøyvågen" />
		<tag k="natural" v="bay" />
		<tag k="ssr:stedsnr" v="390163" />
	</node>
	<node id="-99191" lat="64.4727333298" lon="10.4918666749">
		<tag k="name" v="Skyttelråsa" />
		<tag k="natural" v="strait" />
		<tag k="ssr:stedsnr" v="390161" />
	</node>
	<node id="-99189" lat="64.5266138929" lon="10.8695249996">
		<tag k="name" v="Sørneset" />
		<tag k="natural" v="cape" />
		<tag k="ssr:stedsnr" v="390154" />
	</node>
	<node id="-99185" lat="64.4980222234" lon="10.8937944432">
		<tag k="name" v="Grøtnes" />
		<tag k="natural" v="cape" />
		<tag k="ssr:stedsnr" v="388056" />
	</node>
	<node id="-99184" lat="64.5153000007" lon="10.8476277742">
		<tag k="name" v="Halsodden" />
		<tag k="natural" v="cape" />
		<tag k="ssr:stedsnr" v="500762" />
	</node>
	<node id="-99183" lat="64.5305527768" lon="10.7359166577">
		<tag k="name" v="Døløyråsa" />
		<tag k="natural" v="strait" />
		<tag k="ssr:stedsnr" v="500755" />
	</node>
	<node id="-99182" lat="64.5262750038" lon="10.8030333414">
		<tag k="name" v="Kvernøya" />
		<tag k="place" v="island" />
		<tag k="ssr:stedsnr" v="500739" />
	</node>
	<node id="-99180" lat="64.5119249982" lon="10.56243334">
		<tag k="name" v="Glasøygrunnen" />
		<tag k="natural" v="shoal" />
		<tag k="place" v="locality" />
		<tag k="ssr:stedsnr" v="499922" />
	</node>
	<node id="-99179" lat="64.5129527736" lon="10.6260305507">
		<tag k="fixme" v="consider seamark:type=rock or natural=shoal" />
		<tag k="name" v="Svartflesa" />
		<tag k="place" v="islet" />
		<tag k="ssr:stedsnr" v="499919" />
	</node>
	<node id="-99178" lat="64.4935444478" lon="10.6449055619">
		<tag k="fixme" v="consider seamark:type=rock or natural=shoal" />
		<tag k="name" v="Svartoksen" />
		<tag k="place" v="islet" />
		<tag k="ssr:stedsnr" v="499824" />
	</node>
	<node id="-99177" lat="64.5189844844" lon="10.6529433485">
		<tag k="name" v="Lyngøya" />
		<tag k="place" v="islet" />
		<tag k="ssr:stedsnr" v="499914" />
	</node>
	<node id="-99176" lat="64.5275444442" lon="10.6940194478">
		<tag k="name" v="Nygrunnen" />
		<tag k="natural" v="bay" />
		<tag k="ssr:stedsnr" v="499903" />
	</node>
	<node id="-99175" lat="64.5409361138" lon="10.6939722269">
		<tag k="name" v="Værsøya" />
		<tag k="place" v="island" />
		<tag k="ssr:stedsnr" v="499895" />
	</node>
	<node id="-99174" lat="64.5694472222" lon="10.6958888811">
		<tag k="bay" v="fjord" />
		<tag k="name" v="Halmøyråsa" />
		<tag k="natural" v="bay" />
		<tag k="ssr:stedsnr" v="499891" />
	</node>
	<node id="-99173" lat="64.558011108" lon="10.6975999981">
		<tag k="name" v="Måholman" />
		<tag k="place" v="islet" />
		<tag k="ssr:stedsnr" v="499889" />
	</node>
	<node id="-99172" lat="64.4329916656" lon="10.5628194462">
		<tag k="name" v="Vollabukta" />
		<tag k="natural" v="bay" />
		<tag k="ssr:stedsnr" v="499607" />
	</node>
	<node id="-99171" lat="64.4296222231" lon="10.7019277813">
		<tag k="name" v="Estenvika" />
		<tag k="natural" v="bay" />
		<tag k="ssr:stedsnr" v="499603" />
	</node>
	<node id="-99169" lat="64.4476805522" lon="10.6324277847">
		<tag k="name" v="Eldvika" />
		<tag k="natural" v="bay" />
		<tag k="ssr:stedsnr" v="499590" />
	</node>
	<node id="-99167" lat="64.4731555545" lon="10.6667722319">
		<tag k="name" v="Storvika" />
		<tag k="natural" v="bay" />
		<tag k="ssr:stedsnr" v="499582" />
	</node>
	<node id="-99166" lat="64.4685222243" lon="10.6120805587">
		<tag k="fixme" v="consider seamark:type=rock or natural=shoal" />
		<tag k="name" v="Litlhennebaken" />
		<tag k="place" v="islet" />
		<tag k="ssr:stedsnr" v="499578" />
	</node>
	<node id="-98789" lat="64.5468777752" lon="10.9075500092">
		<tag k="name" v="Sørsjøen" />
		<tag k="natural" v="bay" />
		<tag k="ssr:stedsnr" v="231849" />
	</node>
	<node id="-99164" lat="64.5683277765" lon="11.082116672">
		<tag k="alt_name" v="Finsneset" />
		<tag k="name" v="Finnsneset" />
		<tag k="natural" v="cape" />
		<tag k="ssr:stedsnr" v="499563" />
	</node>
	<node id="-99163" lat="64.5621833356" lon="10.8780416681">
		<tag k="name" v="Steinsøya" />
		<tag k="place" v="islet" />
		<tag k="ssr:stedsnr" v="499558" />
	</node>
	<node id="-99146" lat="64.4790166683" lon="10.8281555623">
		<tag k="name" v="Harpholmen" />
		<tag k="place" v="islet" />
		<tag k="ssr:stedsnr" v="499332" />
	</node>
	<node id="-99145" lat="64.4675111136" lon="10.7323777785">
		<tag k="name" v="Innerneset" />
		<tag k="natural" v="cape" />
		<tag k="ssr:stedsnr" v="499320" />
	</node>
	<node id="-99141" lat="64.3785805591" lon="10.7656222251">
		<tag k="name" v="Kleivvika" />
		<tag k="natural" v="bay" />
		<tag k="ssr:stedsnr" v="377241" />
	</node>
	<node id="-99123" lat="64.565188893" lon="10.8465222182">
		<tag k="name" v="Krusfallet" />
		<tag k="natural" v="shoal" />
		<tag k="place" v="locality" />
		<tag k="ssr:stedsnr" v="331713" />
	</node>
	<node id="-99121" lat="64.4811499981" lon="10.7632444448">
		<tag k="name" v="Kuskjæra" />
		<tag k="natural" v="shoal" />
		<tag k="place" v="locality" />
		<tag k="ssr:stedsnr" v="330113" />
	</node>
	<node id="-98781" lat="64.5540527785" lon="10.9084333369">
		<tag k="name" v="Feøyvika" />
		<tag k="natural" v="bay" />
		<tag k="ssr:stedsnr" v="230848" />
	</node>
	<node id="-99111" lat="64.5748527811" lon="10.8165222186">
		<tag k="name" v="Setervika" />
		<tag k="natural" v="bay" />
		<tag k="ssr:stedsnr" v="317523" />
	</node>
	<node id="-99110" lat="64.570338885" lon="10.9359999953">
		<tag k="name" v="Dalavika" />
		<tag k="natural" v="bay" />
		<tag k="ssr:stedsnr" v="317521" />
	</node>
	<node id="-99109" lat="64.5721138894" lon="10.8680138901">
		<tag k="name" v="Lindøya" />
		<tag k="place" v="island" />
		<tag k="ssr:stedsnr" v="317519" />
	</node>
	<node id="-99108" lat="64.6091861086" lon="10.9590027857">
		<tag k="fixme" v="consider seamark:type=rock or natural=shoal" />
		<tag k="name" v="Draugskjæret" />
		<tag k="place" v="islet" />
		<tag k="ssr:stedsnr" v="317513" />
	</node>
	<node id="-99107" lat="64.6003333312" lon="10.8048666753">
		<tag k="name" v="Fanøybalen" />
		<tag k="place" v="islet" />
		<tag k="ssr:stedsnr" v="317509" />
	</node>
	<node id="-99106" lat="64.5997999971" lon="10.8449999903">
		<tag k="name" v="Kråkholmen" />
		<tag k="place" v="islet" />
		<tag k="ssr:stedsnr" v="317503" />
	</node>
	<node id="-99105" lat="64.4990944482" lon="10.7609916581">
		<tag k="name" v="Dragøya" />
		<tag k="place" v="island" />
		<tag k="ssr:stedsnr" v="317373" />
	</node>
	<node id="-99084" lat="64.5949055592" lon="10.8325138881">
		<tag k="name" v="Hartvikøysundet" />
		<tag k="natural" v="strait" />
		<tag k="ssr:stedsnr" v="473866" />
	</node>
	<node id="-99083" lat="64.60811389" lon="10.825130553">
		<tag k="name" v="Geitabaran" />
		<tag k="place" v="islet" />
		<tag k="ssr:stedsnr" v="473863" />
	</node>
	<node id="-99082" lat="64.6045249967" lon="10.8136083321">
		<tag k="name" v="Hamnarøysundet" />
		<tag k="natural" v="strait" />
		<tag k="ssr:stedsnr" v="473861" />
	</node>
	<node id="-99080" lat="64.4759361099" lon="10.8926611105">
		<tag k="name" v="Seternesodden" />
		<tag k="natural" v="cape" />
		<tag k="ssr:stedsnr" v="473855" />
	</node>
	<node id="-99078" lat="64.5451472219" lon="10.9147305501">
		<tag k="name" v="Kuvika" />
		<tag k="natural" v="bay" />
		<tag k="ssr:stedsnr" v="473837" />
	</node>
	<node id="-99077" lat="64.5439972227" lon="10.9293972267">
		<tag k="name" v="Feøyspelen" />
		<tag k="natural" v="cape" />
		<tag k="ssr:stedsnr" v="473820" />
	</node>
	<node id="-99075" lat="64.4387750046" lon="10.677658324">
		<tag k="name" v="Bjørkvika" />
		<tag k="natural" v="bay" />
		<tag k="ssr:stedsnr" v="473803" />
	</node>
	<node id="-99060" lat="64.5683750042" lon="11.0727555513">
		<tag k="name" v="Tamtodden" />
		<tag k="natural" v="cape" />
		<tag k="ssr:stedsnr" v="473272" />
	</node>
	<node id="-99052" lat="64.447847218" lon="10.565952784">
		<tag k="name" v="Urholmen" />
		<tag k="place" v="islet" />
		<tag k="ssr:stedsnr" v="303569" />
	</node>
	<node id="-99044" lat="64.5498111151" lon="10.8687527834">
		<tag k="name" v="Grautvika" />
		<tag k="natural" v="bay" />
		<tag k="ssr:stedsnr" v="291868" />
	</node>
	<node id="-99043" lat="64.5956250021" lon="10.8025083251">
		<tag k="name" v="Skinnerøyåsa" />
		<tag k="natural" v="strait" />
		<tag k="ssr:stedsnr" v="291858" />
	</node>
	<node id="-99041" lat="64.4974777813" lon="10.8613777796">
		<tag k="loc_name" v="Kvernhusvågen" />
		<tag k="name" v="Kvennhusvågen" />
		<tag k="natural" v="bay" />
		<tag k="ssr:stedsnr" v="271908" />
	</node>
	<node id="-99036" lat="64.4918305575" lon="10.7682944371">
		<tag k="name" v="Glasøyvågen" />
		<tag k="natural" v="bay" />
		<tag k="ssr:stedsnr" v="269123" />
	</node>
	<node id="-99035" lat="64.498375" lon="10.8016833298">
		<tag k="name" v="Svinstranda" />
		<tag k="natural" v="beach" />
		<tag k="place" v="locality" />
		<tag k="ssr:stedsnr" v="269111" />
	</node>
	<node id="-99032" lat="64.5767444401" lon="10.7798944488">
		<tag k="fixme" v="consider seamark:type=rock or natural=shoal" />
		<tag k="name" v="Ellingfallet" />
		<tag k="place" v="islet" />
		<tag k="ssr:stedsnr" v="453983" />
	</node>
	<node id="-99031" lat="64.5267138897" lon="10.8461527777">
		<tag k="name" v="Storbrannholmen" />
		<tag k="place" v="islet" />
		<tag k="ssr:stedsnr" v="453881" />
	</node>
	<node id="-99030" lat="64.5217472213" lon="10.74609444">
		<tag k="name" v="Kjeldvika" />
		<tag k="natural" v="bay" />
		<tag k="ssr:stedsnr" v="453842" />
	</node>
	<node id="-99029" lat="64.5056527823" lon="10.6048138839">
		<tag k="fixme" v="consider seamark:type=rock or natural=shoal" />
		<tag k="name" v="Nordre Fauskskjæret" />
		<tag k="place" v="islet" />
		<tag k="ssr:stedsnr" v="257953" />
	</node>
	<node id="-99028" lat="64.5115888914" lon="10.77423056">
		<tag k="fixme" v="consider seamark:type=rock or natural=shoal" />
		<tag k="name" v="Bikkja" />
		<tag k="place" v="islet" />
		<tag k="ssr:stedsnr" v="257760" />
	</node>
	<node id="-101075" lat="64.601049998" lon="10.9046833247">
		<tag k="name" v="Tjuvholmråsa" />
		<tag k="natural" v="strait" />
		<tag k="ssr:stedsnr" v="959900" />
	</node>
	<node id="-99026" lat="64.6058861087" lon="10.9828694396">
		<tag k="fixme" v="consider seamark:type=rock or natural=shoal" />
		<tag k="name" v="Aurstøskjæret" />
		<tag k="place" v="islet" />
		<tag k="ssr:stedsnr" v="257607" />
	</node>
	<node id="-101073" lat="64.6119416673" lon="10.8710944523">
		<tag k="name" v="Snauholmen" />
		<tag k="place" v="islet" />
		<tag k="ssr:stedsnr" v="959861" />
	</node>
	<node id="-101072" lat="64.4716916648" lon="10.9084333304">
		<tag k="name" v="Rødalodden" />
		<tag k="natural" v="cape" />
		<tag k="ssr:stedsnr" v="959829" />
	</node>
	<node id="-101070" lat="64.4353416639" lon="10.782544445">
		<tag k="name" v="Floagapet" />
		<tag k="natural" v="bay" />
		<tag k="ssr:stedsnr" v="959749" />
	</node>
	<node id="-101065" lat="64.6016305588" lon="10.951286114">
		<tag k="name" v="Hamnavikodden" />
		<tag k="natural" v="cape" />
		<tag k="ssr:stedsnr" v="958942" />
	</node>
	<node id="-99016" lat="64.4385555598" lon="10.7466083401">
		<tag k="name" v="Kilgapet" />
		<tag k="natural" v="bay" />
		<tag k="ssr:stedsnr" v="256416" />
	</node>
	<node id="-101059" lat="64.6124805548" lon="10.9228138875">
		<tag k="fixme" v="consider seamark:type=rock or natural=shoal" />
		<tag k="name" v="Skaftskjæra" />
		<tag k="place" v="islet" />
		<tag k="ssr:stedsnr" v="958891" />
	</node>
	<node id="-99010" lat="64.4728472218" lon="10.6536500008">
		<tag k="name" v="Kvaløytaren" />
		<tag k="place" v="locality" />
		<tag k="seamark:type" v="rock" />
		<tag k="ssr:stedsnr" v="453252" />
	</node>
	<node id="-99009" lat="64.4965583375" lon="10.5284555654">
		<tag k="name" v="Heitaren" />
		<tag k="natural" v="shoal" />
		<tag k="place" v="locality" />
		<tag k="ssr:stedsnr" v="451200" />
	</node>
	<node id="-99008" lat="64.4943277791" lon="10.5367194471">
		<tag k="alt_name" v="Ostflua" />
		<tag k="name" v="Austflua" />
		<tag k="natural" v="shoal" />
		<tag k="place" v="locality" />
		<tag k="ssr:stedsnr" v="451198" />
	</node>
	<node id="-101055" lat="64.5412333371" lon="10.9644499994">
		<tag k="name" v="Steinvika" />
		<tag k="natural" v="bay" />
		<tag k="ssr:stedsnr" v="958845" />
	</node>
	<node id="-99005" lat="64.4928194462" lon="10.5195444448">
		<tag k="name" v="Rabbfalla" />
		<tag k="place" v="locality" />
		<tag k="seamark:type" v="rock" />
		<tag k="ssr:stedsnr" v="451185" />
	</node>
	<node id="-99003" lat="64.4224916667" lon="10.5895055461">
		<tag k="name" v="Strandaholman" />
		<tag k="place" v="islet" />
		<tag k="ssr:stedsnr" v="451119" />
	</node>
	<node id="-99001" lat="64.4558666711" lon="10.8278805592">
		<tag k="name" v="Kobbodden" />
		<tag k="natural" v="cape" />
		<tag k="ssr:stedsnr" v="450088" />
	</node>
	<node id="-101048" lat="64.4215805579" lon="10.5716722206">
		<tag k="fixme" v="consider seamark:type=rock or natural=shoal" />
		<tag k="name" v="Seljevikskjæret" />
		<tag k="place" v="islet" />
		<tag k="ssr:stedsnr" v="956009" />
	</node>
	<node id="-98999" lat="64.6096527748" lon="10.9118027796">
		<tag k="fixme" v="consider seamark:type=rock or natural=shoal" />
		<tag k="name" v="Laukøytaren" />
		<tag k="place" v="islet" />
		<tag k="ssr:stedsnr" v="449857" />
	</node>
	<node id="-98998" lat="64.476666665" lon="10.4945361048">
		<tag k="fixme" v="consider seamark:type=rock or natural=shoal" />
		<tag k="name" v="Langrøskjæret" />
		<tag k="place" v="islet" />
		<tag k="ssr:stedsnr" v="449153" />
	</node>
	<node id="-101043" lat="64.4889777735" lon="10.8914527838">
		<tag k="name" v="Fløaodden" />
		<tag k="natural" v="cape" />
		<tag k="ssr:stedsnr" v="876181" />
	</node>
	<node id="-101042" lat="64.492861115" lon="10.7716055654">
		<tag k="name" v="Kleivstranda" />
		<tag k="natural" v="beach" />
		<tag k="place" v="locality" />
		<tag k="ssr:stedsnr" v="876129" />
	</node>
	<node id="-101041" lat="64.4690972257" lon="10.7812694388">
		<tag k="name" v="Kvernhusvika" />
		<tag k="natural" v="bay" />
		<tag k="ssr:stedsnr" v="876103" />
	</node>
	<node id="-101040" lat="64.467741663" lon="10.7583194424">
		<tag k="name" v="Nordfjorden" />
		<tag k="natural" v="bay" />
		<tag k="ssr:stedsnr" v="876093" />
	</node>
	<node id="-101039" lat="64.482413888" lon="10.7691111133">
		<tag k="name" v="Strømholmen" />
		<tag k="place" v="islet" />
		<tag k="ssr:stedsnr" v="876089" />
	</node>
	<node id="-101037" lat="64.5270555596" lon="10.7300277836">
		<tag k="name" v="Dølvika" />
		<tag k="natural" v="bay" />
		<tag k="ssr:stedsnr" v="876078" />
	</node>
	<node id="-101036" lat="64.5501000016" lon="10.1813472235">
		<tag k="name" v="Haugan" />
		<tag k="natural" v="shoal" />
		<tag k="place" v="locality" />
		<tag k="ssr:stedsnr" v="875988" />
	</node>
	<node id="-101033" lat="64.5008916645" lon="10.9665888863">
		<tag k="name" v="Tronga" />
		<tag k="natural" v="strait" />
		<tag k="ssr:stedsnr" v="875155" />
	</node>
	<node id="-98983" lat="64.5876972266" lon="10.8144277789">
		<tag k="fixme" v="consider seamark:type=rock or natural=shoal" />
		<tag k="name" v="Ellingskjæret" />
		<tag k="place" v="islet" />
		<tag k="ssr:stedsnr" v="230853" />
	</node>
	<node id="-101030" lat="64.5028388853" lon="10.541569449">
		<tag k="name" v="Steffaskallen" />
		<tag k="natural" v="shoal" />
		<tag k="place" v="locality" />
		<tag k="ssr:stedsnr" v="864926" />
	</node>
	<node id="-101029" lat="64.5632444459" lon="10.3090888811">
		<tag k="name" v="Austvikklakken" />
		<tag k="natural" v="shoal" />
		<tag k="place" v="locality" />
		<tag k="ssr:stedsnr" v="864913" />
	</node>
	<node id="-101028" lat="64.5166194415" lon="10.8956250047">
		<tag k="name" v="Storøya" />
		<tag k="natural" v="cape" />
		<tag k="ssr:stedsnr" v="864735" />
	</node>
	<node id="-101027" lat="64.5119416672" lon="10.8176944376">
		<tag k="fixme" v="consider seamark:type=rock or natural=shoal" />
		<tag k="name" v="Skavsandskjæret" />
		<tag k="place" v="islet" />
		<tag k="ssr:stedsnr" v="864722" />
	</node>
	<node id="-98978" lat="64.5093000012" lon="10.9449249998">
		<tag k="fixme" v="consider seamark:type=rock or natural=shoal" />
		<tag k="name" v="Langskjæret" />
		<tag k="place" v="islet" />
		<tag k="ssr:stedsnr" v="440673" />
	</node>
	<node id="-101025" lat="64.5458805531" lon="10.9630916576">
		<tag k="name" v="Varpvika" />
		<tag k="natural" v="bay" />
		<tag k="ssr:stedsnr" v="864679" />
	</node>
	<node id="-101023" lat="64.6020138848" lon="10.8124999933">
		<tag k="name" v="Fanøya" />
		<tag k="place" v="islet" />
		<tag k="ssr:stedsnr" v="864597" />
	</node>
	<node id="-101022" lat="64.5985944407" lon="10.9184416605">
		<tag k="name" v="Kalvøya" />
		<tag k="place" v="islet" />
		<tag k="ssr:stedsnr" v="864586" />
	</node>
	<node id="-101021" lat="64.6031138897" lon="10.9096888871">
		<tag k="alt_name" v="Rognholmen, l" />
		<tag k="name" v="Litle Rognholmen" />
		<tag k="place" v="islet" />
		<tag k="ssr:stedsnr" v="864585" />
	</node>
	<node id="-101020" lat="64.597763887" lon="10.8109027815">
		<tag k="alt_name" v="Værholman, små" />
		<tag k="name" v="Små Værholman" />
		<tag k="place" v="islet" />
		<tag k="ssr:stedsnr" v="864580" />
	</node>
	<node id="-101019" lat="64.5974500014" lon="10.8357499918">
		<tag k="name" v="Hartvigøya" />
		<tag k="place" v="island" />
		<tag k="ssr:stedsnr" v="864574" />
	</node>
	<node id="-101018" lat="64.6075944416" lon="10.839152785">
		<tag k="alt_name" v="Stongholmen, l" />
		<tag k="name" v="Litle Stongholmen" />
		<tag k="place" v="islet" />
		<tag k="ssr:stedsnr" v="864543" />
	</node>
	<node id="-98960" lat="64.4785249977" lon="10.474122226">
		<tag k="fixme" v="consider seamark:type=rock or natural=shoal" />
		<tag k="name" v="Fallet" />
		<tag k="place" v="islet" />
		<tag k="ssr:stedsnr" v="206174" />
	</node>
	<node id="-101006" lat="64.429088885" lon="10.5675388879">
		<tag k="name" v="Jobonneset" />
		<tag k="natural" v="cape" />
		<tag k="ssr:stedsnr" v="863678" />
	</node>
	<node id="-101005" lat="64.4410555525" lon="10.5513111135">
		<tag k="name" v="Risholmen" />
		<tag k="place" v="islet" />
		<tag k="ssr:stedsnr" v="863659" />
	</node>
	<node id="-101004" lat="64.4826249977" lon="10.4991666668">
		<tag k="alt_name" v="Nordvindsflesa" />
		<tag k="fixme" v="consider seamark:type=rock or natural=shoal" />
		<tag k="name" v="Nordvindflesa" />
		<tag k="place" v="islet" />
		<tag k="ssr:stedsnr" v="863655" />
	</node>
	<node id="-101003" lat="64.4676277785" lon="10.5017583376">
		<tag k="fixme" v="consider seamark:type=rock or natural=shoal" />
		<tag k="name" v="Nordre Kanteråskjæra" />
		<tag k="place" v="islet" />
		<tag k="ssr:stedsnr" v="863649" />
	</node>
	<node id="-101002" lat="64.469308334" lon="10.6633333244">
		<tag k="name" v="Trollsteinvika" />
		<tag k="natural" v="bay" />
		<tag k="ssr:stedsnr" v="863648" />
	</node>
	<node id="-98951" lat="64.4232472258" lon="10.605661121">
		<tag k="name" v="Håstadvågen" />
		<tag k="natural" v="bay" />
		<tag k="ssr:stedsnr" v="196626" />
	</node>
	<node id="-100996" lat="64.4800444475" lon="10.722163885">
		<tag k="name" v="Geitøya" />
		<tag k="place" v="island" />
		<tag k="ssr:stedsnr" v="863401" />
	</node>
	<node id="-98946" lat="64.6026750014" lon="10.821116676">
		<tag k="name" v="Hamnarøya" />
		<tag k="place" v="island" />
		<tag k="ssr:stedsnr" v="196509" />
	</node>
	<node id="-98945" lat="64.6044249991" lon="10.8470249922">
		<tag k="name" v="Sandflekkholmen" />
		<tag k="place" v="islet" />
		<tag k="ssr:stedsnr" v="196508" />
	</node>
	<node id="-98752" lat="64.5096361128" lon="10.6823694422">
		<tag k="name" v="Galten" />
		<tag k="place" v="islet" />
		<tag k="ssr:stedsnr" v="14902" />
	</node>
	<node id="-98942" lat="64.4806638891" lon="10.8901944366">
		<tag k="name" v="Bekkavika" />
		<tag k="natural" v="bay" />
		<tag k="ssr:stedsnr" v="292834" />
	</node>
	<node id="-98940" lat="64.5504111126" lon="10.9214611139">
		<tag k="name" v="Håvika" />
		<tag k="natural" v="bay" />
		<tag k="ssr:stedsnr" v="292825" />
	</node>
	<node id="-98939" lat="64.4328388861" lon="10.6596694411">
		<tag k="name" v="Oterrompa" />
		<tag k="natural" v="cape" />
		<tag k="ssr:stedsnr" v="292807" />
	</node>
	<node id="-98938" lat="64.5264861072" lon="10.6502861009">
		<tag k="name" v="Grøtholmen" />
		<tag k="place" v="islet" />
		<tag k="ssr:stedsnr" v="195911" />
	</node>
	<node id="-98937" lat="64.5326277822" lon="10.6389833434">
		<tag k="name" v="Hestfalla" />
		<tag k="natural" v="shoal" />
		<tag k="place" v="locality" />
		<tag k="ssr:stedsnr" v="195903" />
	</node>
	<node id="-98936" lat="64.4797972241" lon="10.9596861036">
		<tag k="name" v="Djupvika" />
		<tag k="natural" v="bay" />
		<tag k="ssr:stedsnr" v="292798" />
	</node>
	<node id="-98935" lat="64.4809277762" lon="10.9301861205">
		<tag k="name" v="Malivikan" />
		<tag k="natural" v="bay" />
		<tag k="ssr:stedsnr" v="292797" />
	</node>
	<node id="-98934" lat="64.4568388882" lon="10.6068638849">
		<tag k="name" v="Sperrsundet" />
		<tag k="natural" v="strait" />
		<tag k="ssr:stedsnr" v="292785" />
	</node>
	<node id="-98973" lat="64.5270138892" lon="10.8812527683">
		<tag k="name" v="Barøya" />
		<tag k="place" v="islet" />
		<tag k="ssr:stedsnr" v="439681" />
	</node>
	<node id="-98932" lat="64.4435055594" lon="10.593688891">
		<tag k="name" v="Gabrielvika" />
		<tag k="natural" v="bay" />
		<tag k="ssr:stedsnr" v="292778" />
	</node>
	<node id="-100978" lat="64.4164805569" lon="10.8144111194">
		<tag k="name" v="Fossvikvågen" />
		<tag k="natural" v="bay" />
		<tag k="ssr:stedsnr" v="838952" />
	</node>
	<node id="-98927" lat="64.5602111134" lon="11.0765722235">
		<tag k="name" v="Kariholmen" />
		<tag k="place" v="islet" />
		<tag k="ssr:stedsnr" v="292342" />
	</node>
	<node id="-100972" lat="64.4640472265" lon="10.8943111138">
		<tag k="name" v="Sørfløan" />
		<tag k="natural" v="bay" />
		<tag k="ssr:stedsnr" v="838866" />
	</node>
	<node id="-98922" lat="64.593797223" lon="10.9478166652">
		<tag k="name" v="Vordvika" />
		<tag k="natural" v="bay" />
		<tag k="ssr:stedsnr" v="291935" />
	</node>
	<node id="-100969" lat="64.4466805524" lon="10.6031861058">
		<tag k="name" v="Vågen" />
		<tag k="natural" v="bay" />
		<tag k="ssr:stedsnr" v="838817" />
	</node>
	<node id="-98917" lat="64.5639999976" lon="10.826527769">
		<tag k="name" v="Kvennvika" />
		<tag k="natural" v="bay" />
		<tag k="ssr:stedsnr" v="291827" />
	</node>
	<node id="-98915" lat="64.5251916626" lon="10.652438895">
		<tag k="name" v="Grøtøya" />
		<tag k="place" v="island" />
		<tag k="ssr:stedsnr" v="291769" />
	</node>
	<node id="-98908" lat="64.4400000023" lon="10.5419000001">
		<tag k="name" v="Småværholman" />
		<tag k="place" v="islet" />
		<tag k="ssr:stedsnr" v="288010" />
	</node>
	<node id="-98907" lat="64.4881722206" lon="10.8967361023">
		<tag k="name" v="Stranda" />
		<tag k="natural" v="beach" />
		<tag k="place" v="locality" />
		<tag k="ssr:stedsnr" v="181104" />
	</node>
	<node id="-100951" lat="64.6049555527" lon="10.8407666636">
		<tag k="name" v="Sandflekkholman" />
		<tag k="place" v="islet" />
		<tag k="ssr:stedsnr" v="837847" />
	</node>
	<node id="-98745" lat="64.5302777806" lon="10.6951249913">
		<tag k="name" v="Valholmen" />
		<tag k="place" v="islet" />
		<tag k="ssr:stedsnr" v="13909" />
	</node>
	<node id="-98897" lat="64.5314277804" lon="10.687319445">
		<tag k="name" v="Aunøya" />
		<tag k="natural" v="cape" />
		<tag k="ssr:stedsnr" v="149860" />
	</node>
	<node id="-98896" lat="64.5494083344" lon="10.9362055502">
		<tag k="name" v="Feøytaren" />
		<tag k="natural" v="shoal" />
		<tag k="place" v="locality" />
		<tag k="ssr:stedsnr" v="149808" />
	</node>
	<node id="-98895" lat="64.4965083335" lon="10.756088891">
		<tag k="name" v="Nordstranda" />
		<tag k="natural" v="beach" />
		<tag k="place" v="locality" />
		<tag k="ssr:stedsnr" v="147113" />
	</node>
	<node id="-98894" lat="64.4187055537" lon="10.5893277716">
		<tag k="name" v="Steinholmen" />
		<tag k="place" v="islet" />
		<tag k="ssr:stedsnr" v="147109" />
	</node>
	<node id="-98893" lat="64.4918111109" lon="10.7298305624">
		<tag k="name" v="Hestholmen" />
		<tag k="place" v="islet" />
		<tag k="ssr:stedsnr" v="147105" />
	</node>
	<node id="-98892" lat="64.3901555539" lon="10.6349777865">
		<tag k="name" v="Ilvika" />
		<tag k="natural" v="bay" />
		<tag k="ssr:stedsnr" v="147017" />
	</node>
	<node id="-98890" lat="64.493844446" lon="10.7488722137">
		<tag k="name" v="Falingsundholman" />
		<tag k="place" v="islet" />
		<tag k="ssr:stedsnr" v="271282" />
	</node>
	<node id="-100936" lat="64.4842666627" lon="10.7778277758">
		<tag k="name" v="Svinåkerbukta" />
		<tag k="natural" v="bay" />
		<tag k="ssr:stedsnr" v="815101" />
	</node>
	<node id="-100935" lat="64.4307388867" lon="10.5577499901">
		<tag k="name" v="Klongsøya" />
		<tag k="place" v="island" />
		<tag k="ssr:stedsnr" v="815094" />
	</node>
	<node id="-100933" lat="64.495050002" lon="10.7936194345">
		<tag k="fixme" v="consider seamark:type=rock or natural=shoal" />
		<tag k="name" v="Kobbsteinen" />
		<tag k="place" v="islet" />
		<tag k="ssr:stedsnr" v="815085" />
	</node>
	<node id="-98884" lat="64.3899611101" lon="10.6231638865">
		<tag k="name" v="Bølevågen" />
		<tag k="natural" v="bay" />
		<tag k="ssr:stedsnr" v="269018" />
	</node>
	<node id="-98883" lat="64.3942277792" lon="10.6189611093">
		<tag k="name" v="Kalvhodet" />
		<tag k="natural" v="cape" />
		<tag k="ssr:stedsnr" v="269017" />
	</node>
	<node id="-100930" lat="64.5222138932" lon="10.7897361062">
		<tag k="name" v="Tangvika" />
		<tag k="natural" v="bay" />
		<tag k="ssr:stedsnr" v="815070" />
	</node>
	<node id="-100928" lat="64.5135166685" lon="10.9229611083">
		<tag k="name" v="Kløvningsvika" />
		<tag k="natural" v="bay" />
		<tag k="ssr:stedsnr" v="814138" />
	</node>
	<node id="-98879" lat="64.4775583346" lon="10.7259999923">
		<tag k="name" v="Sørøya" />
		<tag k="natural" v="cape" />
		<tag k="ssr:stedsnr" v="269085" />
	</node>
	<node id="-100924" lat="64.6081861071" lon="11.0239361195">
		<tag k="name" v="Knappholman" />
		<tag k="place" v="islet" />
		<tag k="ssr:stedsnr" v="813909" />
	</node>
	<node id="-100923" lat="64.4568333359" lon="10.5232666735">
		<tag k="fixme" v="consider seamark:type=rock or natural=shoal" />
		<tag k="name" v="Skallen" />
		<tag k="place" v="islet" />
		<tag k="ssr:stedsnr" v="813136" />
	</node>
	<node id="-100922" lat="64.4472305592" lon="10.5960305498">
		<tag k="name" v="Skutneset" />
		<tag k="natural" v="cape" />
		<tag k="ssr:stedsnr" v="813133" />
	</node>
	<node id="-100921" lat="64.4435722201" lon="10.5865500015">
		<tag k="name" v="Åkneset" />
		<tag k="natural" v="cape" />
		<tag k="ssr:stedsnr" v="813132" />
	</node>
	<node id="-100920" lat="64.443724996" lon="10.5680249987">
		<tag k="fixme" v="consider seamark:type=rock or natural=shoal" />
		<tag k="name" v="Sauskjæret" />
		<tag k="place" v="islet" />
		<tag k="ssr:stedsnr" v="813130" />
	</node>
	<node id="-100919" lat="64.4186277815" lon="10.7866833385">
		<tag k="name" v="Munkskjæret" />
		<tag k="place" v="islet" />
		<tag k="ssr:stedsnr" v="813079" />
	</node>
	<node id="-100917" lat="64.506077781" lon="10.6355583395">
		<tag k="name" v="Leiskiten" />
		<tag k="natural" v="shoal" />
		<tag k="place" v="locality" />
		<tag k="ssr:stedsnr" v="803925" />
	</node>
	<node id="-100916" lat="64.5007472206" lon="10.6699527755">
		<tag k="name" v="Buholman" />
		<tag k="place" v="islet" />
		<tag k="ssr:stedsnr" v="803922" />
	</node>
	<node id="-100914" lat="64.544772221" lon="10.7161527756">
		<tag k="name" v="Perholmen" />
		<tag k="place" v="islet" />
		<tag k="ssr:stedsnr" v="803910" />
	</node>
	<node id="-100913" lat="64.5180694431" lon="10.8536500012">
		<tag k="alt_name" v="Bokkhammaren" />
		<tag k="name" v="Bukkholmen" />
		<tag k="natural" v="cape" />
		<tag k="ssr:stedsnr" v="803712" />
	</node>
	<node id="-100912" lat="64.5142916705" lon="10.9368638918">
		<tag k="bay" v="fjord" />
		<tag k="name" v="Knottin" />
		<tag k="natural" v="bay" />
		<tag k="ssr:stedsnr" v="803711" />
	</node>
	<node id="-98863" lat="64.4457083327" lon="10.5460888795">
		<tag k="fixme" v="consider seamark:type=rock or natural=shoal" />
		<tag k="name" v="Gåsskjæret" />
		<tag k="place" v="islet" />
		<tag k="ssr:stedsnr" v="267118" />
	</node>
	<node id="-100910" lat="64.5333083316" lon="10.8780361006">
		<tag k="alt_name" v="Barøyflesan" />
		<tag k="fixme" v="consider seamark:type=rock or natural=shoal" />
		<tag k="name" v="Flesin" />
		<tag k="place" v="islet" />
		<tag k="ssr:stedsnr" v="803685" />
	</node>
	<node id="-100909" lat="64.5323750028" lon="10.8418805631">
		<tag k="name" v="Seglholmen" />
		<tag k="place" v="islet" />
		<tag k="ssr:stedsnr" v="803684" />
	</node>
	<node id="-100907" lat="64.3893361079" lon="10.7513805636">
		<tag k="name" v="Nordvika" />
		<tag k="natural" v="bay" />
		<tag k="ssr:stedsnr" v="803862" />
	</node>
	<node id="-100905" lat="64.5884999989" lon="10.7983555583">
		<tag k="name" v="Nord-Ellingråsa" />
		<tag k="natural" v="strait" />
		<tag k="ssr:stedsnr" v="803551" />
	</node>
	<node id="-98856" lat="64.6073083373" lon="10.9278111215">
		<tag k="name" v="Inner Bangøya" />
		<tag k="place" v="island" />
		<tag k="ssr:stedsnr" v="109921" />
	</node>
	<node id="-98853" lat="64.5166864965" lon="10.6700382157">
		<tag k="name" v="Singsholmen" />
		<tag k="place" v="islet" />
		<tag k="ssr:stedsnr" v="257948" />
	</node>
	<node id="-100900" lat="64.5480777808" lon="10.8139611039">
		<tag k="name" v="Mefallholman" />
		<tag k="place" v="islet" />
		<tag k="ssr:stedsnr" v="803654" />
	</node>
	<node id="-100899" lat="64.4432499991" lon="10.5222249969">
		<tag k="name" v="Auken" />
		<tag k="place" v="islet" />
		<tag k="ssr:stedsnr" v="803648" />
	</node>
	<node id="-98849" lat="64.5342805518" lon="10.927080557">
		<tag k="name" v="Feøyholman" />
		<tag k="place" v="islet" />
		<tag k="ssr:stedsnr" v="257682" />
	</node>
	<node id="-98848" lat="64.5986361069" lon="10.9507999972">
		<tag k="name" v="Hestvika" />
		<tag k="natural" v="bay" />
		<tag k="ssr:stedsnr" v="257588" />
	</node>
	<node id="-98847" lat="64.5876333309" lon="10.927363889">
		<tag k="name" v="Nordbjørgodden" />
		<tag k="natural" v="cape" />
		<tag k="ssr:stedsnr" v="257580" />
	</node>
	<node id="-98846" lat="64.5937416683" lon="10.8428777675">
		<tag k="name" v="Indre Hartvigholmen" />
		<tag k="place" v="islet" />
		<tag k="ssr:stedsnr" v="257579" />
	</node>
	<node id="-98843" lat="64.3919277792" lon="10.6289083262">
		<tag k="name" v="Bøleholmen" />
		<tag k="place" v="islet" />
		<tag k="ssr:stedsnr" v="257731" />
	</node>
	<node id="-100889" lat="64.4854194481" lon="10.5054138966">
		<tag k="fixme" v="consider seamark:type=rock or natural=shoal" />
		<tag k="name" v="Grunnan" />
		<tag k="place" v="islet" />
		<tag k="ssr:stedsnr" v="802889" />
	</node>
	<node id="-100886" lat="64.4767722178" lon="10.6700500027">
		<tag k="name" v="Kvaløya" />
		<tag k="place" v="island" />
		<tag k="ssr:stedsnr" v="802691" />
	</node>
	<node id="-98837" lat="64.471092469" lon="10.7248298013">
		<tag k="name" v="Mellomnesset" />
		<tag k="natural" v="cape" />
		<tag k="old_name" v="Mellomneset" />
		<tag k="ssr:stedsnr" v="257437" />
	</node>
	<node id="-100881" lat="64.4563083347" lon="10.8250166694">
		<tag k="name" v="Survika" />
		<tag k="natural" v="bay" />
		<tag k="ssr:stedsnr" v="802543" />
	</node>
	<node id="-98832" lat="64.5249782239" lon="10.6730151376">
		<tag k="name" v="Lisstobbøya" />
		<tag k="place" v="island" />
		<tag k="ssr:stedsnr" v="256895" />
	</node>
	<node id="-98829" lat="64.4056000002" lon="10.6173305491">
		<tag k="name" v="Loengodden" />
		<tag k="natural" v="cape" />
		<tag k="ssr:stedsnr" v="256649" />
	</node>
	<node id="-100876" lat="64.372563885" lon="10.8432555456">
		<tag k="name" v="Drossavika" />
		<tag k="natural" v="bay" />
		<tag k="ssr:stedsnr" v="802296" />
	</node>
	<node id="-100874" lat="64.5568361069" lon="10.8152388958">
		<tag k="fixme" v="multiple name tags, choose one and add the other to alt_name; consider seamark:type=rock or natural=shoal" />
		<tag k="name" v="Knubben;Krubben" />
		<tag k="place" v="islet" />
		<tag k="ssr:stedsnr" v="802649" />
	</node>
	<node id="-100873" lat="64.561291668" lon="10.8101499954">
		<tag k="name" v="Bjørøyodden" />
		<tag k="natural" v="cape" />
		<tag k="ssr:stedsnr" v="802647" />
	</node>
	<node id="-98818" lat="64.4987750028" lon="10.5406972152">
		<tag k="name" v="Nordknausen" />
		<tag k="natural" v="shoal" />
		<tag k="place" v="locality" />
		<tag k="ssr:stedsnr" v="87167" />
	</node>
	<node id="-98815" lat="64.4444999987" lon="10.4837416693">
		<tag k="fixme" v="consider seamark:type=rock or natural=shoal" />
		<tag k="name" v="Storkolla" />
		<tag k="place" v="islet" />
		<tag k="ssr:stedsnr" v="74656" />
	</node>
	<node id="-98813" lat="64.493722218" lon="10.877355562">
		<tag k="name" v="Innervågen" />
		<tag k="natural" v="bay" />
		<tag k="ssr:stedsnr" v="74418" />
	</node>
	<node id="-98808" lat="64.4817499987" lon="10.6861000101">
		<tag k="name" v="Slåtterøya" />
		<tag k="place" v="island" />
		<tag k="ssr:stedsnr" v="66319" />
	</node>
	<node id="-100849" lat="64.4708305569" lon="10.907930564">
		<tag k="name" v="Nordfløan" />
		<tag k="natural" v="bay" />
		<tag k="ssr:stedsnr" v="777807" />
	</node>
	<node id="-100845" lat="64.4711000014" lon="10.9687138846">
		<tag k="name" v="Haraldodden" />
		<tag k="natural" v="cape" />
		<tag k="ssr:stedsnr" v="777775" />
	</node>
	<node id="-100844" lat="64.4380166695" lon="10.7511583299">
		<tag k="name" v="Salamonvika" />
		<tag k="natural" v="bay" />
		<tag k="ssr:stedsnr" v="777754" />
	</node>
	<node id="-100838" lat="64.5883027741" lon="10.8056611015">
		<tag k="name" v="Nordøyodden" />
		<tag k="natural" v="cape" />
		<tag k="ssr:stedsnr" v="776847" />
	</node>
	<node id="-100837" lat="64.6096194457" lon="10.8855611074">
		<tag k="name" v="Ramsvika" />
		<tag k="natural" v="bay" />
		<tag k="ssr:stedsnr" v="776838" />
	</node>
	<node id="-100836" lat="64.6031944413" lon="10.8976999938">
		<tag k="name" v="Strandholman" />
		<tag k="place" v="islet" />
		<tag k="ssr:stedsnr" v="776837" />
	</node>
	<node id="-100835" lat="64.5961222184" lon="10.8469305519">
		<tag k="name" v="Småkråkholman" />
		<tag k="place" v="islet" />
		<tag k="ssr:stedsnr" v="776829" />
	</node>
	<node id="-100834" lat="64.5630444479" lon="10.8215611129">
		<tag k="name" v="Ramnflauget" />
		<tag k="natural" v="cape" />
		<tag k="ssr:stedsnr" v="776799" />
	</node>
	<node id="-100831" lat="64.580402776" lon="11.0371583324">
		<tag k="fixme" v="consider seamark:type=rock or natural=shoal" />
		<tag k="name" v="Tømmervikskjæret" />
		<tag k="place" v="islet" />
		<tag k="ssr:stedsnr" v="776962" />
	</node>
	<node id="-98782" lat="64.5889333362" lon="10.8297555658">
		<tag k="name" v="Purkholman" />
		<tag k="place" v="islet" />
		<tag k="ssr:stedsnr" v="230849" />
	</node>
	<node id="-100829" lat="64.6059277804" lon="10.920466667">
		<tag k="name" v="Bangøykeila" />
		<tag k="natural" v="strait" />
		<tag k="ssr:stedsnr" v="776935" />
	</node>
	<node id="-100827" lat="64.6038722197" lon="10.9075638941">
		<tag k="name" v="Rognholman" />
		<tag k="place" v="islet" />
		<tag k="ssr:stedsnr" v="776914" />
	</node>
	<node id="-98778" lat="64.6102777742" lon="10.8743861109">
		<tag k="name" v="Gaudaholmen" />
		<tag k="place" v="islet" />
		<tag k="ssr:stedsnr" v="230835" />
	</node>
	<node id="-98777" lat="64.6031555588" lon="10.845291675">
		<tag k="name" v="Krubban" />
		<tag k="place" v="island" />
		<tag k="ssr:stedsnr" v="230831" />
	</node>
	<node id="-98776" lat="64.5413638903" lon="10.7905333372">
		<tag k="name" v="Valan" />
		<tag k="natural" v="strait" />
		<tag k="ssr:stedsnr" v="230829" />
	</node>
	<node id="-98775" lat="64.6108138926" lon="10.8933388814">
		<tag k="name" v="Tennodden" />
		<tag k="place" v="island" />
		<tag k="ssr:stedsnr" v="230899" />
	</node>
	<node id="-98770" lat="64.5424055555" lon="10.8982666621">
		<tag k="name" v="Hemmingvikodden" />
		<tag k="natural" v="cape" />
		<tag k="ssr:stedsnr" v="230789" />
	</node>
	<node id="-98766" lat="64.518894445" lon="10.7746694365">
		<tag k="name" v="Holmsundholman" />
		<tag k="place" v="islet" />
		<tag k="ssr:stedsnr" v="28911" />
	</node>
	<node id="-98763" lat="64.498452779" lon="10.7855777756">
		<tag k="name" v="Kongensvika" />
		<tag k="natural" v="bay" />
		<tag k="ssr:stedsnr" v="26104" />
	</node>
	<node id="-100809" lat="64.5329333304" lon="10.7707638873">
		<tag k="fixme" v="consider seamark:type=rock or natural=shoal" />
		<tag k="name" v="Kverna" />
		<tag k="place" v="islet" />
		<tag k="ssr:stedsnr" v="756918" />
	</node>
	<node id="-100808" lat="64.525825004" lon="10.7573388839">
		<tag k="name" v="Flotaren" />
		<tag k="natural" v="shoal" />
		<tag k="place" v="locality" />
		<tag k="ssr:stedsnr" v="756898" />
	</node>
	<node id="-100807" lat="64.5515944411" lon="10.7186277856">
		<tag k="name" v="Djupskaftet" />
		<tag k="place" v="islet" />
		<tag k="ssr:stedsnr" v="756847" />
	</node>
	<node id="-100806" lat="64.5339472231" lon="10.9723083276">
		<tag k="name" v="Fiskholmen" />
		<tag k="place" v="islet" />
		<tag k="ssr:stedsnr" v="756814" />
	</node>
	<node id="-100805" lat="64.5248500004" lon="10.8938833305">
		<tag k="alt_name" v="Draken" />
		<tag k="name" v="Dranken" />
		<tag k="place" v="island" />
		<tag k="ssr:stedsnr" v="756799" />
	</node>
	<node id="-100804" lat="64.5140999989" lon="10.9053694482">
		<tag k="name" v="Eiansundet" />
		<tag k="natural" v="strait" />
		<tag k="ssr:stedsnr" v="756794" />
	</node>
	<node id="-100803" lat="64.5161555596" lon="10.8846333412">
		<tag k="name" v="Litløya" />
		<tag k="place" v="island" />
		<tag k="ssr:stedsnr" v="756791" />
	</node>
	<node id="-100802" lat="64.5046361085" lon="10.8697166755">
		<tag k="bay" v="fjord" />
		<tag k="name" v="Stamnesfjorden" />
		<tag k="natural" v="bay" />
		<tag k="ssr:stedsnr" v="754227" />
	</node>
	<node id="-100800" lat="64.5099750033" lon="10.8267805646">
		<tag k="name" v="Hestholman" />
		<tag k="place" v="islet" />
		<tag k="ssr:stedsnr" v="754209" />
	</node>
	<node id="-100799" lat="64.4990222233" lon="10.9799527756">
		<tag k="name" v="Kastvikodden" />
		<tag k="natural" v="cape" />
		<tag k="ssr:stedsnr" v="754206" />
	</node>
	<node id="-98750" lat="64.4575250043" lon="10.842986116">
		<tag k="name" v="Årfjordbotnet" />
		<tag k="natural" v="bay" />
		<tag k="ssr:stedsnr" v="14419" />
	</node>
	<node id="-100795" lat="64.4970611111" lon="10.8899222202">
		<tag k="name" v="Stamnesråsa" />
		<tag k="natural" v="strait" />
		<tag k="ssr:stedsnr" v="754190" />
	</node>
	<node id="-100794" lat="64.5157055525" lon="10.9012805654">
		<tag k="name" v="Svinvika" />
		<tag k="natural" v="bay" />
		<tag k="ssr:stedsnr" v="754179" />
	</node>
	<node id="-100793" lat="64.4142194487" lon="10.611569441">
		<tag k="alt_name" v="Gullholmen" />
		<tag k="name" v="Ørholmen" />
		<tag k="place" v="islet" />
		<tag k="ssr:stedsnr" v="754128" />
	</node>
	<node id="-100792" lat="64.4293944485" lon="10.6695555539">
		<tag k="name" v="Kya" />
		<tag k="place" v="islet" />
		<tag k="ssr:stedsnr" v="754117" />
	</node>
	<node id="-100791" lat="64.4918527747" lon="10.8045138811">
		<tag k="name" v="Fuglårvika" />
		<tag k="natural" v="bay" />
		<tag k="ssr:stedsnr" v="754113" />
	</node>
	<node id="-100789" lat="64.4923583327" lon="10.7959861094">
		<tag k="name" v="Raudsandvika" />
		<tag k="natural" v="bay" />
		<tag k="ssr:stedsnr" v="754106" />
	</node>
	<node id="-100787" lat="64.4825694422" lon="10.8315416737">
		<tag k="name" v="Djupvika" />
		<tag k="natural" v="bay" />
		<tag k="ssr:stedsnr" v="754094" />
	</node>
	<node id="-100786" lat="64.4820666675" lon="10.8017611089">
		<tag k="name" v="Purneset" />
		<tag k="natural" v="cape" />
		<tag k="ssr:stedsnr" v="754082" />
	</node>
	<node id="-100785" lat="64.3920472261" lon="10.6195277765">
		<tag k="name" v="Nesvikodden" />
		<tag k="natural" v="cape" />
		<tag k="ssr:stedsnr" v="754030" />
	</node>
	<node id="-100784" lat="64.470102774" lon="10.6964194406">
		<tag k="name" v="Krykjevika" />
		<tag k="natural" v="bay" />
		<tag k="ssr:stedsnr" v="754020" />
	</node>
	<node id="-100779" lat="64.5248500001" lon="10.9562027688">
		<tag k="name" v="Bårdvika" />
		<tag k="natural" v="bay" />
		<tag k="ssr:stedsnr" v="753098" />
	</node>
	<node id="-100778" lat="64.4940000018" lon="10.7437916728">
		<tag k="name" v="Falingsundet" />
		<tag k="natural" v="strait" />
		<tag k="ssr:stedsnr" v="753069" />
	</node>
	<node id="-100777" lat="64.4863416701" lon="10.5450333397">
		<tag k="name" v="Småtaren" />
		<tag k="natural" v="shoal" />
		<tag k="place" v="locality" />
		<tag k="ssr:stedsnr" v="752148" />
	</node>
	<node id="-100775" lat="64.5054083331" lon="10.8392777788">
		<tag k="name" v="Storlavika" />
		<tag k="natural" v="bay" />
		<tag k="ssr:stedsnr" v="743692" />
	</node>
	<node id="-100773" lat="64.5202805549" lon="10.7881333316">
		<tag k="name" v="Garnvika" />
		<tag k="natural" v="bay" />
		<tag k="ssr:stedsnr" v="743679" />
	</node>
	<node id="-100770" lat="64.5159416625" lon="10.6152916588">
		<tag k="name" v="Stabben" />
		<tag k="natural" v="shoal" />
		<tag k="place" v="locality" />
		<tag k="ssr:stedsnr" v="742935" />
	</node>
	<node id="-100769" lat="64.4294833299" lon="10.5760777717">
		<tag k="name" v="Ørsnevvika" />
		<tag k="natural" v="bay" />
		<tag k="ssr:stedsnr" v="742635" />
	</node>
	<node id="-100768" lat="64.5523000007" lon="10.9020249971">
		<tag k="name" v="Feøya" />
		<tag k="place" v="island" />
		<tag k="ssr:stedsnr" v="742628" />
	</node>
	<node id="-100767" lat="64.5461499967" lon="10.8856138957">
		<tag k="name" v="Havsteinen" />
		<tag k="place" v="island" />
		<tag k="ssr:stedsnr" v="742626" />
	</node>
	<node id="-100764" lat="64.5416000006" lon="10.8292416647">
		<tag k="fixme" v="multiple name tags, choose one and add the other to alt_name" />
		<tag k="name" v="Lamholmen;Lammet" />
		<tag k="place" v="islet" />
		<tag k="ssr:stedsnr" v="742618" />
	</node>
	<node id="-100762" lat="64.5889527748" lon="10.847438897">
		<tag k="name" v="Soløyholmen" />
		<tag k="place" v="islet" />
		<tag k="ssr:stedsnr" v="742497" />
	</node>
	<node id="-100759" lat="64.4977499988" lon="10.9704055548">
		<tag k="alt_name" v="Knottbotnet;Bukta" />
		<tag k="name" v="Knottbukta" />
		<tag k="natural" v="bay" />
		<tag k="ssr:stedsnr" v="742397" />
	</node>
	<node id="-100757" lat="64.3963166692" lon="10.7544888975">
		<tag k="name" v="Lurastranda" />
		<tag k="natural" v="bay" />
		<tag k="old_name" v="Dvernurstranda" />
		<tag k="ssr:stedsnr" v="742247" />
	</node>
	<node id="-100756" lat="64.3898277807" lon="10.7849694525">
		<tag k="alt_name" v="Skavikøya" />
		<tag k="name" v="Skavvikøya" />
		<tag k="place" v="island" />
		<tag k="ssr:stedsnr" v="742245" />
	</node>
	<node id="-100752" lat="64.4053500041" lon="10.7833027766">
		<tag k="name" v="Bjørkneset" />
		<tag k="natural" v="cape" />
		<tag k="ssr:stedsnr" v="742267" />
	</node>
	<node id="-100751" lat="64.531013889" lon="10.638677775">
		<tag k="name" v="Rokkfluin" />
		<tag k="natural" v="shoal" />
		<tag k="place" v="locality" />
		<tag k="ssr:stedsnr" v="741939" />
	</node>
	<node id="-100748" lat="64.5680749977" lon="10.8488444474">
		<tag k="name" v="Bjørøysundet" />
		<tag k="natural" v="strait" />
		<tag k="ssr:stedsnr" v="741684" />
	</node>
	<node id="-100743" lat="64.3857305543" lon="10.7980416569">
		<tag k="alt_name" v="Mulin" />
		<tag k="name" v="Mulen" />
		<tag k="natural" v="cape" />
		<tag k="ssr:stedsnr" v="741343" />
	</node>
	<node id="-100737" lat="64.562102774" lon="11.084063897">
		<tag k="name" v="Orreskjæret" />
		<tag k="place" v="islet" />
		<tag k="ssr:stedsnr" v="655344" />
	</node>
	<node id="-98760" lat="64.3924111079" lon="10.639944445">
		<tag k="name" v="Bekkavika" />
		<tag k="natural" v="bay" />
		<tag k="ssr:stedsnr" v="26017" />
	</node>
	<node id="-100723" lat="64.5522055525" lon="10.8526333432">
		<tag k="fixme" v="consider seamark:type=rock or natural=shoal" />
		<tag k="name" v="Juldagen" />
		<tag k="place" v="islet" />
		<tag k="ssr:stedsnr" v="634797" />
	</node>
	<node id="-100722" lat="64.4879333356" lon="10.7561416701">
		<tag k="name" v="Skeivika" />
		<tag k="natural" v="bay" />
		<tag k="ssr:stedsnr" v="633128" />
	</node>
	<node id="-100721" lat="64.4746250013" lon="10.7284722146">
		<tag k="name" v="Buvika" />
		<tag k="natural" v="bay" />
		<tag k="ssr:stedsnr" v="633101" />
	</node>
	<node id="-100720" lat="64.4662277756" lon="10.8264472129">
		<tag k="name" v="Gråsandvika" />
		<tag k="natural" v="bay" />
		<tag k="ssr:stedsnr" v="633094" />
	</node>
	<node id="-100718" lat="64.4764888925" lon="10.8011194457">
		<tag k="name" v="Langneset" />
		<tag k="natural" v="cape" />
		<tag k="ssr:stedsnr" v="633087" />
	</node>
	<node id="-100716" lat="64.5031833325" lon="10.7548083411">
		<tag k="name" v="Dunkelvågen" />
		<tag k="natural" v="bay" />
		<tag k="ssr:stedsnr" v="632128" />
	</node>
	<node id="-100715" lat="64.4955583351" lon="10.5254638889">
		<tag k="name" v="Rabben" />
		<tag k="place" v="locality" />
		<tag k="seamark:type" v="rock" />
		<tag k="ssr:stedsnr" v="632194" />
	</node>
	<node id="-100711" lat="64.4703333345" lon="10.5171527855">
		<tag k="name" v="Skreiungan" />
		<tag k="natural" v="shoal" />
		<tag k="place" v="locality" />
		<tag k="ssr:stedsnr" v="630179" />
	</node>
	<node id="-100710" lat="64.5103555531" lon="10.702369441">
		<tag k="name" v="Ivarsøya" />
		<tag k="place" v="islet" />
		<tag k="ssr:stedsnr" v="621935" />
	</node>
	<node id="-100709" lat="64.5094611129" lon="10.6851083379">
		<tag k="fixme" v="consider seamark:type=rock or natural=shoal" />
		<tag k="name" v="Langdraget" />
		<tag k="place" v="islet" />
		<tag k="ssr:stedsnr" v="621934" />
	</node>
	<node id="-100708" lat="64.5160944461" lon="10.86928888">
		<tag k="name" v="Lauvøya" />
		<tag k="place" v="island" />
		<tag k="ssr:stedsnr" v="621744" />
	</node>
	<node id="-100706" lat="64.54782778" lon="10.7249805656">
		<tag k="fixme" v="consider seamark:type=rock or natural=shoal" />
		<tag k="name" v="Makrellskjæret" />
		<tag k="place" v="islet" />
		<tag k="ssr:stedsnr" v="621690" />
	</node>
	<node id="-100705" lat="64.5455611119" lon="10.7900388881">
		<tag k="name" v="Haldorholmen" />
		<tag k="place" v="islet" />
		<tag k="ssr:stedsnr" v="621688" />
	</node>
	<node id="-100703" lat="64.5149277821" lon="10.627502772">
		<tag k="name" v="Kvitholmen" />
		<tag k="place" v="islet" />
		<tag k="ssr:stedsnr" v="621205" />
	</node>
	<node id="-100702" lat="64.5345388917" lon="10.6534611134">
		<tag k="fixme" v="consider seamark:type=rock or natural=shoal" />
		<tag k="name" v="Langdraget" />
		<tag k="place" v="islet" />
		<tag k="ssr:stedsnr" v="620896" />
	</node>
	<node id="-100701" lat="64.5307388922" lon="10.627091658">
		<tag k="name" v="Nordknausen" />
		<tag k="natural" v="shoal" />
		<tag k="place" v="locality" />
		<tag k="ssr:stedsnr" v="620886" />
	</node>
	<node id="-100700" lat="64.4924916711" lon="10.6955527883">
		<tag k="name" v="Svaet" />
		<tag k="natural" v="strait" />
		<tag k="ssr:stedsnr" v="620838" />
	</node>
	<node id="-100696" lat="64.4649722254" lon="10.6751527807">
		<tag k="name" v="Ångholmen" />
		<tag k="natural" v="cape" />
		<tag k="ssr:stedsnr" v="620601" />
	</node>
	<node id="-100695" lat="64.5600111106" lon="10.8745944453">
		<tag k="name" v="Steinsholmen" />
		<tag k="place" v="islet" />
		<tag k="ssr:stedsnr" v="620575" />
	</node>
	<node id="-100694" lat="64.5635944408" lon="10.7648222227">
		<tag k="alt_name" v="Lyngværet, yt" />
		<tag k="name" v="Ytre Lyngværet" />
		<tag k="place" v="island" />
		<tag k="ssr:stedsnr" v="620569" />
	</node>
	<node id="-100692" lat="64.5848527778" lon="10.8233694505">
		<tag k="name" v="Jensøya" />
		<tag k="place" v="island" />
		<tag k="ssr:stedsnr" v="620560" />
	</node>
	<node id="-100691" lat="64.5822111084" lon="10.812663881">
		<tag k="name" v="Ellingholmen" />
		<tag k="place" v="islet" />
		<tag k="ssr:stedsnr" v="620558" />
	</node>
	<node id="-100689" lat="64.6085805574" lon="10.8348500026">
		<tag k="alt_name" v="Stongholmen, store" />
		<tag k="name" v="Store Stongholmen" />
		<tag k="place" v="islet" />
		<tag k="ssr:stedsnr" v="620485" />
	</node>
	<node id="-100681" lat="64.4650388931" lon="10.7536833428">
		<tag k="name" v="Vikholmen" />
		<tag k="place" v="islet" />
		<tag k="ssr:stedsnr" v="620354" />
	</node>
	<node id="-100674" lat="64.3855499976" lon="10.7949583417">
		<tag k="name" v="Skavvika" />
		<tag k="natural" v="bay" />
		<tag k="ssr:stedsnr" v="620262" />
	</node>
	<node id="-98826" lat="64.4772055519" lon="10.7003083263">
		<tag k="name" v="Leirvikodden" />
		<tag k="natural" v="cape" />
		<tag k="ssr:stedsnr" v="256609" />
	</node>
	<node id="-100646" lat="64.4751944477" lon="10.9720361197">
		<tag k="name" v="Skjeldevika" />
		<tag k="natural" v="bay" />
		<tag k="ssr:stedsnr" v="595774" />
	</node>
	<node id="-100635" lat="64.5803305559" lon="10.9120777688">
		<tag k="name" v="Urvika" />
		<tag k="natural" v="bay" />
		<tag k="ssr:stedsnr" v="594888" />
	</node>
	<node id="-100634" lat="64.5854416649" lon="10.9127833321">
		<tag k="name" v="Asholmsundet" />
		<tag k="natural" v="strait" />
		<tag k="ssr:stedsnr" v="594885" />
	</node>
	<node id="-100630" lat="64.5784777762" lon="10.8243916746">
		<tag k="name" v="Klungvika" />
		<tag k="natural" v="bay" />
		<tag k="ssr:stedsnr" v="594849" />
	</node>
	<node id="-100628" lat="64.5324000002" lon="10.8121361145">
		<tag k="name" v="Bjørøyvika" />
		<tag k="natural" v="bay" />
		<tag k="ssr:stedsnr" v="594837" />
	</node>
	<node id="-100627" lat="64.537616667" lon="10.8041305499">
		<tag k="name" v="Jutulvika" />
		<tag k="natural" v="bay" />
		<tag k="ssr:stedsnr" v="594836" />
	</node>
	<node id="-100626" lat="64.5332694482" lon="10.7483638842">
		<tag k="fixme" v="consider seamark:type=rock or natural=shoal" />
		<tag k="name" v="Floflesa" />
		<tag k="place" v="islet" />
		<tag k="ssr:stedsnr" v="594831" />
	</node>
	<node id="-100621" lat="64.5067555583" lon="10.6079416727">
		<tag k="fixme" v="consider seamark:type=rock or natural=shoal" />
		<tag k="name" v="Fauskskjæret" />
		<tag k="place" v="islet" />
		<tag k="ssr:stedsnr" v="594759" />
	</node>
	<node id="-100614" lat="64.3898749977" lon="10.7520388877">
		<tag k="name" v="Valsetvika" />
		<tag k="natural" v="bay" />
		<tag k="ssr:stedsnr" v="591022" />
	</node>
	<node id="-100608" lat="64.5316138883" lon="10.7641055603">
		<tag k="name" v="Søre Kvernøyråsa" />
		<tag k="natural" v="strait" />
		<tag k="ssr:stedsnr" v="574893" />
	</node>
	<node id="-100607" lat="64.4895305572" lon="10.7073388808">
		<tag k="alt_name" v="Månsskjæra" />
		<tag k="name" v="Monsskjæra" />
		<tag k="place" v="islet" />
		<tag k="ssr:stedsnr" v="574289" />
	</node>
	<node id="-100606" lat="64.4864250026" lon="10.7577027878">
		<tag k="fixme" v="consider seamark:type=rock or natural=shoal" />
		<tag k="name" v="Kvernskjæret" />
		<tag k="place" v="islet" />
		<tag k="ssr:stedsnr" v="574283" />
	</node>
	<node id="-100605" lat="64.4834694438" lon="10.7548694499">
		<tag k="name" v="Hillstadholmen" />
		<tag k="place" v="islet" />
		<tag k="ssr:stedsnr" v="574274" />
	</node>
	<node id="-100602" lat="64.5142972214" lon="10.8407861125">
		<tag k="name" v="Djupvika" />
		<tag k="natural" v="bay" />
		<tag k="ssr:stedsnr" v="572215" />
	</node>
	<node id="-100938" lat="64.4945916683" lon="10.8842694492">
		<tag k="name" v="Kollodden" />
		<tag k="natural" v="cape" />
		<tag k="ssr:stedsnr" v="815170" />
	</node>
	<node id="-100598" lat="64.480922219" lon="10.7104444482">
		<tag k="name" v="Blåsundet" />
		<tag k="natural" v="strait" />
		<tag k="ssr:stedsnr" v="572009" />
	</node>
	<node id="-100595" lat="64.4755305583" lon="10.7016527751">
		<tag k="name" v="Leirvika" />
		<tag k="natural" v="bay" />
		<tag k="ssr:stedsnr" v="571003" />
	</node>
	<node id="-100593" lat="64.5061833331" lon="10.9620777709">
		<tag k="fixme" v="consider seamark:type=rock or natural=shoal" />
		<tag k="name" v="Knottskjæret" />
		<tag k="place" v="islet" />
		<tag k="ssr:stedsnr" v="571127" />
	</node>
	<node id="-100589" lat="64.4547416708" lon="10.5310083385">
		<tag k="fixme" v="consider seamark:type=rock or natural=shoal" />
		<tag k="name" v="Brosmeskjæret" />
		<tag k="place" v="islet" />
		<tag k="ssr:stedsnr" v="570140" />
	</node>
	<node id="-100588" lat="64.4390527812" lon="10.5876388975">
		<tag k="name" v="Steinvika" />
		<tag k="natural" v="bay" />
		<tag k="ssr:stedsnr" v="570137" />
	</node>
	<node id="-100584" lat="64.5107925087" lon="10.7869767987">
		<tag k="name" v="Fauskholmen" />
		<tag k="place" v="islet" />
		<tag k="ssr:stedsnr" v="560684" />
	</node>
	<node id="-100582" lat="64.5922861073" lon="10.8057083359">
		<tag k="name" v="Kvitholmen" />
		<tag k="place" v="islet" />
		<tag k="ssr:stedsnr" v="560545" />
	</node>
	<node id="-100581" lat="64.6114638898" lon="10.9523694535">
		<tag k="fixme" v="consider seamark:type=rock or natural=shoal" />
		<tag k="name" v="Flatskjæret" />
		<tag k="place" v="islet" />
		<tag k="ssr:stedsnr" v="560575" />
	</node>
	<node id="-100575" lat="64.4808277814" lon="10.5045416594">
		<tag k="fixme" v="consider seamark:type=rock or natural=shoal" />
		<tag k="name" v="Langrøa" />
		<tag k="place" v="islet" />
		<tag k="ssr:stedsnr" v="559650" />
	</node>
	<node id="-100572" lat="64.4627694411" lon="10.490469443">
		<tag k="name" v="Broka" />
		<tag k="natural" v="shoal" />
		<tag k="place" v="locality" />
		<tag k="ssr:stedsnr" v="559637" />
	</node>
	<node id="-100564" lat="64.496716667" lon="10.8005416588">
		<tag k="name" v="Straumneset" />
		<tag k="natural" v="cape" />
		<tag k="ssr:stedsnr" v="559398" />
	</node>
	<node id="-100563" lat="64.4946527787" lon="10.7315333307">
		<tag k="name" v="Hestøya" />
		<tag k="place" v="islet" />
		<tag k="ssr:stedsnr" v="559395" />
	</node>
	<node id="-100562" lat="64.3801861077" lon="10.8018861049">
		<tag k="name" v="Øykvika" />
		<tag k="natural" v="bay" />
		<tag k="ssr:stedsnr" v="559246" />
	</node>
	<node id="-99027" lat="64.5091000016" lon="10.7671333431">
		<tag k="fixme" v="consider seamark:type=rock or natural=shoal" />
		<tag k="name" v="Revskaget" />
		<tag k="place" v="islet" />
		<tag k="ssr:stedsnr" v="257758" />
	</node>
	<node id="-98754" lat="64.4529361145" lon="10.5610055457">
		<tag k="fixme" v="consider seamark:type=rock or natural=shoal" />
		<tag k="name" v="Langtaren" />
		<tag k="place" v="islet" />
		<tag k="ssr:stedsnr" v="24137" />
	</node>
	<node id="-100542" lat="64.595569445" lon="10.9493972194">
		<tag k="name" v="Nordaustvika" />
		<tag k="natural" v="bay" />
		<tag k="ssr:stedsnr" v="534940" />
	</node>
	<node id="-100540" lat="64.5976083307" lon="10.9481833249">
		<tag k="name" v="Nordodden" />
		<tag k="natural" v="cape" />
		<tag k="ssr:stedsnr" v="534929" />
	</node>
	<node id="-100537" lat="64.5848305571" lon="10.9063055516">
		<tag k="name" v="Ytter - Asholmen" />
		<tag k="place" v="islet" />
		<tag k="ssr:stedsnr" v="534900" />
	</node>
	<node id="-100535" lat="64.5907694447" lon="10.9439916579">
		<tag k="name" v="Stiodden" />
		<tag k="natural" v="cape" />
		<tag k="ssr:stedsnr" v="534890" />
	</node>
	<node id="-99017" lat="64.5590222228" lon="10.8276972233">
		<tag k="fixme" v="consider seamark:type=rock or natural=shoal" />
		<tag k="name" v="Blengsupa" />
		<tag k="place" v="islet" />
		<tag k="ssr:stedsnr" v="256559" />
	</node>
	<node id="-100531" lat="64.6106999989" lon="10.9400166632">
		<tag k="fixme" v="consider seamark:type=rock or natural=shoal" />
		<tag k="name" v="Skarvskjæret" />
		<tag k="place" v="islet" />
		<tag k="ssr:stedsnr" v="534877" />
	</node>
	<node id="-100530" lat="64.5854055532" lon="10.7924805576">
		<tag k="name" v="Ellingbaran" />
		<tag k="place" v="islet" />
		<tag k="ssr:stedsnr" v="534868" />
	</node>
	<node id="-100529" lat="64.6004388931" lon="10.8987055458">
		<tag k="name" v="Skjulet" />
		<tag k="natural" v="bay" />
		<tag k="ssr:stedsnr" v="534862" />
	</node>
	<node id="-100528" lat="64.5973027769" lon="10.8890166767">
		<tag k="name" v="Steinvika" />
		<tag k="natural" v="bay" />
		<tag k="ssr:stedsnr" v="534856" />
	</node>
	<node id="-100517" lat="64.5286388914" lon="10.9597555486">
		<tag k="name" v="Bårdvikskjæret" />
		<tag k="place" v="islet" />
		<tag k="ssr:stedsnr" v="533855" />
	</node>
	<node id="-100508" lat="64.5351861099" lon="10.830852769">
		<tag k="name" v="Lamholmen" />
		<tag k="place" v="islet" />
		<tag k="ssr:stedsnr" v="439178" />
	</node>
	<node id="-100506" lat="64.5197939447" lon="10.6586335669">
		<tag k="name" v="Flatholmen" />
		<tag k="place" v="islet" />
		<tag k="ssr:stedsnr" v="438911" />
	</node>
	<node id="-100505" lat="64.5208830586" lon="10.6786399458">
		<tag k="name" v="Stortobbøya" />
		<tag k="place" v="island" />
		<tag k="ssr:stedsnr" v="438905" />
	</node>
	<node id="-100504" lat="64.5289444449" lon="10.6455777787">
		<tag k="name" v="Bukken" />
		<tag k="place" v="islet" />
		<tag k="ssr:stedsnr" v="438895" />
	</node>
	<node id="-100502" lat="64.4496833368" lon="10.4886361156">
		<tag k="fixme" v="consider seamark:type=rock or natural=shoal" />
		<tag k="name" v="Litlkolla" />
		<tag k="place" v="islet" />
		<tag k="ssr:stedsnr" v="438674" />
	</node>
	<node id="-100501" lat="64.4485555555" lon="10.6562972119">
		<tag k="name" v="Skrottvika" />
		<tag k="natural" v="bay" />
		<tag k="ssr:stedsnr" v="438667" />
	</node>
	<node id="-100500" lat="64.4412083296" lon="10.5229583338">
		<tag k="name" v="Rugholmen" />
		<tag k="place" v="islet" />
		<tag k="ssr:stedsnr" v="438662" />
	</node>
	<node id="-100499" lat="64.477483334" lon="10.6597972279">
		<tag k="name" v="Bengstadvika" />
		<tag k="natural" v="bay" />
		<tag k="ssr:stedsnr" v="438651" />
	</node>
	<node id="-100497" lat="64.458680558" lon="10.5862611183">
		<tag k="name" v="Hårnesholmen" />
		<tag k="place" v="islet" />
		<tag k="ssr:stedsnr" v="438638" />
	</node>
	<node id="-100496" lat="64.5740277735" lon="11.0561027877">
		<tag k="alt_name" v="Oddan" />
		<tag k="name" v="Skamarkodden" />
		<tag k="natural" v="cape" />
		<tag k="ssr:stedsnr" v="438626" />
	</node>
	<node id="-99025" lat="64.5987249971" lon="10.8050499984">
		<tag k="name" v="Bjørøyværet" />
		<tag k="place" v="island" />
		<tag k="ssr:stedsnr" v="257606" />
	</node>
	<node id="-100493" lat="64.560750004" lon="10.9123777775">
		<tag k="bay" v="fjord" />
		<tag k="name" v="Mursteinfjorden" />
		<tag k="natural" v="bay" />
		<tag k="ssr:stedsnr" v="438613" />
	</node>
	<node id="-100492" lat="64.562619446" lon="10.942816662">
		<tag k="name" v="Stormannvika" />
		<tag k="natural" v="bay" />
		<tag k="ssr:stedsnr" v="438609" />
	</node>
	<node id="-100491" lat="64.5649638876" lon="10.8334361135">
		<tag k="name" v="Kvalvika" />
		<tag k="natural" v="bay" />
		<tag k="ssr:stedsnr" v="438607" />
	</node>
	<node id="-100490" lat="64.5539916708" lon="10.8897027679">
		<tag k="name" v="Bekkavika" />
		<tag k="natural" v="bay" />
		<tag k="ssr:stedsnr" v="438586" />
	</node>
	<node id="-100489" lat="64.5620527749" lon="10.8586611037">
		<tag k="name" v="Riøya" />
		<tag k="place" v="island" />
		<tag k="ssr:stedsnr" v="438585" />
	</node>
	<node id="-100488" lat="64.5537055601" lon="10.75011666">
		<tag k="fixme" v="consider seamark:type=rock or natural=shoal" />
		<tag k="name" v="Bårdflesa" />
		<tag k="place" v="islet" />
		<tag k="ssr:stedsnr" v="438580" />
	</node>
	<node id="-98751" lat="64.5479999986" lon="10.8350277826">
		<tag k="fixme" v="consider seamark:type=rock or natural=shoal" />
		<tag k="name" v="Ausa" />
		<tag k="place" v="islet" />
		<tag k="ssr:stedsnr" v="14602" />
	</node>
	<node id="-100457" lat="64.4426249984" lon="10.6427027811">
		<tag k="name" v="Sandvikodden" />
		<tag k="natural" v="cape" />
		<tag k="ssr:stedsnr" v="413793" />
	</node>
	<node id="-100456" lat="64.4319444478" lon="10.7458166684">
		<tag k="name" v="Kilnesodden" />
		<tag k="natural" v="cape" />
		<tag k="ssr:stedsnr" v="413772" />
	</node>
	<node id="-100446" lat="64.5961305528" lon="10.9994583418">
		<tag k="name" v="Dektenvika" />
		<tag k="natural" v="bay" />
		<tag k="ssr:stedsnr" v="412901" />
	</node>
	<node id="-100444" lat="64.5969361119" lon="10.9168944465">
		<tag k="name" v="Litl - Kalvøya" />
		<tag k="place" v="island" />
		<tag k="ssr:stedsnr" v="412884" />
	</node>
	<node id="-100443" lat="64.5982472204" lon="10.8601805546">
		<tag k="fixme" v="consider seamark:type=rock or natural=shoal" />
		<tag k="name" v="Rekøygalten" />
		<tag k="place" v="islet" />
		<tag k="ssr:stedsnr" v="412881" />
	</node>
	<node id="-100891" lat="64.4991416652" lon="10.87581111">
		<tag k="name" v="Stamnes" />
		<tag k="natural" v="cape" />
		<tag k="ssr:stedsnr" v="803440" />
	</node>
	<node id="-100440" lat="64.6075166682" lon="10.9196416647">
		<tag k="fixme" v="consider seamark:type=rock or natural=shoal" />
		<tag k="name" v="Bangøyskjæra" />
		<tag k="place" v="islet" />
		<tag k="ssr:stedsnr" v="412855" />
	</node>
	<node id="-100437" lat="64.5513527782" lon="10.8770805608">
		<tag k="name" v="Havsteinvika" />
		<tag k="natural" v="bay" />
		<tag k="ssr:stedsnr" v="412831" />
	</node>
	<node id="-100435" lat="64.6046666626" lon="10.8970416605">
		<tag k="name" v="Knubbholmen" />
		<tag k="place" v="islet" />
		<tag k="ssr:stedsnr" v="412827" />
	</node>
	<node id="-100432" lat="64.5978027763" lon="10.844369454">
		<tag k="name" v="Torvholmen" />
		<tag k="place" v="islet" />
		<tag k="ssr:stedsnr" v="412809" />
	</node>
	<node id="-100431" lat="64.5395194476" lon="10.9700611051">
		<tag k="name" v="Ytter-Brennavika" />
		<tag k="natural" v="bay" />
		<tag k="ssr:stedsnr" v="412805" />
	</node>
	<node id="-100417" lat="64.4264944486" lon="10.5542138799">
		<tag k="name" v="Djupvika" />
		<tag k="natural" v="bay" />
		<tag k="ssr:stedsnr" v="409033" />
	</node>
	<node id="-100415" lat="64.5841611087" lon="10.7609944478">
		<tag k="name" v="Leira" />
		<tag k="natural" v="shoal" />
		<tag k="place" v="locality" />
		<tag k="ssr:stedsnr" v="392986" />
	</node>
	<node id="-100414" lat="64.5694333337" lon="10.7577888808">
		<tag k="name" v="Nordskåka" />
		<tag k="natural" v="shoal" />
		<tag k="place" v="locality" />
		<tag k="ssr:stedsnr" v="392983" />
	</node>
	<node id="-100413" lat="64.558199996" lon="10.7679555483">
		<tag k="name" v="Lyngværet" />
		<tag k="place" v="island" />
		<tag k="ssr:stedsnr" v="390213" />
	</node>
	<node id="-100411" lat="64.4850694459" lon="10.5050250083">
		<tag k="fixme" v="consider seamark:type=rock or natural=shoal" />
		<tag k="name" v="Indre Brosmeskjæret" />
		<tag k="place" v="islet" />
		<tag k="ssr:stedsnr" v="390183" />
	</node>
	<node id="-100410" lat="64.4946916652" lon="10.7703388878">
		<tag k="fixme" v="consider seamark:type=rock or natural=shoal" />
		<tag k="name" v="Vågaskjæret" />
		<tag k="place" v="islet" />
		<tag k="ssr:stedsnr" v="390121" />
	</node>
	<node id="-100407" lat="64.5506583347" lon="10.2121583432">
		<tag k="name" v="Seiknausan" />
		<tag k="natural" v="shoal" />
		<tag k="place" v="locality" />
		<tag k="ssr:stedsnr" v="389989" />
	</node>
	<node id="-100402" lat="64.5147277814" lon="10.9539499933">
		<tag k="name" v="Vikan" />
		<tag k="natural" v="bay" />
		<tag k="ssr:stedsnr" v="389143" />
	</node>
	<node id="-100401" lat="64.4795111079" lon="10.6857000001">
		<tag k="name" v="Brannøyråsa" />
		<tag k="natural" v="strait" />
		<tag k="ssr:stedsnr" v="389120" />
	</node>
	<node id="-100399" lat="64.4608472241" lon="10.7427027719">
		<tag k="name" v="Sørfjorden" />
		<tag k="natural" v="bay" />
		<tag k="ssr:stedsnr" v="389106" />
	</node>
	<node id="-100397" lat="64.4753361136" lon="10.4788388956">
		<tag k="fixme" v="consider seamark:type=rock or natural=shoal" />
		<tag k="name" v="Skyttelskjæret" />
		<tag k="place" v="islet" />
		<tag k="ssr:stedsnr" v="388147" />
	</node>
	<node id="-100396" lat="64.513911114" lon="10.8638888903">
		<tag k="name" v="Laksodden" />
		<tag k="natural" v="cape" />
		<tag k="ssr:stedsnr" v="379675" />
	</node>
	<node id="-100388" lat="64.528180552" lon="10.8306972147">
		<tag k="alt_name" v="Kvennøyråsa" />
		<tag k="fixme" v="multiple name tags, choose one and add the other to alt_name" />
		<tag k="name" v="Kvernøyråsa;Nordre Kvernøyråsa" />
		<tag k="natural" v="strait" />
		<tag k="ssr:stedsnr" v="378695" />
	</node>
	<node id="-100387" lat="64.5485944411" lon="10.8948388844">
		<tag k="name" v="Havsteinsundet" />
		<tag k="natural" v="strait" />
		<tag k="ssr:stedsnr" v="378673" />
	</node>
	<node id="-100385" lat="64.5339444437" lon="10.781958323">
		<tag k="name" v="Ramsvika" />
		<tag k="natural" v="bay" />
		<tag k="ssr:stedsnr" v="378665" />
	</node>
	<node id="-100384" lat="64.5433055586" lon="10.8628944464">
		<tag k="fixme" v="consider seamark:type=rock or natural=shoal" />
		<tag k="name" v="Dragskjæra" />
		<tag k="place" v="islet" />
		<tag k="ssr:stedsnr" v="378662" />
	</node>
	<node id="-100383" lat="64.6087361096" lon="10.9535111094">
		<tag k="name" v="Tobiasholmen" />
		<tag k="place" v="islet" />
		<tag k="ssr:stedsnr" v="378593" />
	</node>
	<node id="-100382" lat="64.6013722192" lon="10.9967750044">
		<tag k="fixme" v="consider seamark:type=rock or natural=shoal" />
		<tag k="name" v="Kårbringskjæret" />
		<tag k="place" v="islet" />
		<tag k="ssr:stedsnr" v="378579" />
	</node>
	<node id="-100380" lat="64.6063555586" lon="10.8562500094">
		<tag k="name" v="Rekkøyråsa" />
		<tag k="natural" v="strait" />
		<tag k="ssr:stedsnr" v="378530" />
	</node>
	<node id="-100379" lat="64.6126833374" lon="10.8634805468">
		<tag k="name" v="Rekkøybalen" />
		<tag k="place" v="islet" />
		<tag k="ssr:stedsnr" v="378527" />
	</node>
	<node id="-100369" lat="64.3936388933" lon="10.7578361027">
		<tag k="name" v="Langbuodden" />
		<tag k="natural" v="cape" />
		<tag k="ssr:stedsnr" v="378266" />
	</node>
	<node id="-100366" lat="64.4865888853" lon="10.6542500001">
		<tag k="name" v="Storhauken" />
		<tag k="place" v="islet" />
		<tag k="ssr:stedsnr" v="377851" />
	</node>
	<node id="-100363" lat="64.4524833362" lon="10.4984944462">
		<tag k="name" v="Djupråsleia" />
		<tag k="natural" v="strait" />
		<tag k="ssr:stedsnr" v="377652" />
	</node>
	<node id="-100362" lat="64.4661749991" lon="10.6690305493">
		<tag k="name" v="Kvaløyvalen" />
		<tag k="natural" v="bay" />
		<tag k="ssr:stedsnr" v="377634" />
	</node>
	<node id="-100361" lat="64.4621694474" lon="10.5922833305">
		<tag k="fixme" v="consider seamark:type=rock or natural=shoal" />
		<tag k="name" v="Svartflesa" />
		<tag k="place" v="islet" />
		<tag k="ssr:stedsnr" v="377629" />
	</node>
	<node id="-100360" lat="64.5649055564" lon="11.0882500075">
		<tag k="name" v="Finnsnesvika" />
		<tag k="natural" v="bay" />
		<tag k="ssr:stedsnr" v="377598" />
	</node>
	<node id="-100354" lat="64.3690916664" lon="10.8404694384">
		<tag k="name" v="Sagøra" />
		<tag k="natural" v="cape" />
		<tag k="ssr:stedsnr" v="377363" />
	</node>
</osm>
