<?xml version="1.0" encoding="UTF-8"?>
<<<<<<< HEAD
<osm version="0.6" generator="osmapis">
	<node lat="70.72971114119349" lon="29.770120995023973" id="-41899">
		<tag k="name" v="Heikabukta" />
		<tag k="natural" v="bay" />
		<tag k="ssr:stedsnr" v="20493" />
	</node>
	<node lat="70.61666670398118" lon="29.999998616651798" id="-41912">
=======
<osm generator="osmapis" version="0.6">
	<node id="-918525" lat="70.7307222491" lon="29.7836987861">
		<tag k="name" v="Seibøneset" />
		<tag k="natural" v="cape" />
		<tag k="ssr:stedsnr" v="81520" />
	</node>
	<node id="-918519" lat="70.5373278181" lon="30.0206513529">
		<tag k="name" v="Vassbotn" />
		<tag k="natural" v="bay" />
		<tag k="ssr:stedsnr" v="30499" />
	</node>
	<node id="-918518" lat="70.5387944818" lon="30.0021069155">
		<tag k="name" v="Løkholman" />
		<tag k="natural" v="beach" />
		<tag k="place" v="locality" />
		<tag k="ssr:stedsnr" v="30494" />
	</node>
	<node id="-918514" lat="70.6296444738" lon="29.7075432078">
		<tag k="name" v="Valen" />
		<tag k="place" v="locality" />
		<tag k="ssr:stedsnr" v="30377" />
	</node>
	<node id="-918509" lat="70.7297111412" lon="29.770120995">
		<tag k="name" v="Heikabukta" />
		<tag k="natural" v="bay" />
		<tag k="ssr:stedsnr" v="20493" />
	</node>
	<node id="-918507" lat="70.6866555829" lon="29.9132875881">
		<tag k="alt_name" v="Skarbergvika" />
		<tag k="name" v="Skarvbergvika" />
		<tag k="natural" v="bay" />
		<tag k="ssr:stedsnr" v="20474" />
	</node>
	<node id="-918502" lat="70.5444972635" lon="30.5249121976">
		<tag k="name" v="Risvika" />
		<tag k="natural" v="bay" />
		<tag k="ssr:stedsnr" v="20049" />
	</node>
	<node id="-918501" lat="70.5408472706" lon="30.6432398879">
		<tag k="name" v="Merra" />
		<tag k="natural" v="shoal" />
		<tag k="place" v="locality" />
		<tag k="ssr:stedsnr" v="937629" />
	</node>
	<node id="-918499" lat="70.4943639344" lon="30.6358343188">
		<tag k="name" v="Finnvika" />
		<tag k="natural" v="bay" />
		<tag k="ssr:stedsnr" v="930904" />
	</node>
	<node id="-918495" lat="70.643480583" lon="29.7468765453">
		<tag k="name" v="Ursinbukta" />
		<tag k="natural" v="bay" />
		<tag k="ssr:stedsnr" v="941349" />
	</node>
	<node id="-918476" lat="70.5467083709" lon="30.2212901387">
		<tag k="bay" v="fjord" />
		<tag k="loc_name:se" v="Oardovuonna" />
		<tag k="name" v="Syltefjorden" />
		<tag k="name:no" v="Syltefjorden" />
		<tag k="natural" v="bay" />
		<tag k="ssr:stedsnr" v="930065" />
	</node>
	<node id="-918472" lat="70.5854305965" lon="30.3037817922">
		<tag k="name" v="Mellomneset" />
		<tag k="natural" v="cape" />
		<tag k="ssr:stedsnr" v="930031" />
	</node>
	<node id="-918463" lat="70.5161055999" lon="30.6003704604">
		<tag k="alt_name" v="Kvamvikneset" />
		<tag k="name" v="Kvannvikneset" />
		<tag k="natural" v="cape" />
		<tag k="ssr:stedsnr" v="748010" />
	</node>
	<node id="-918462" lat="70.5232889363" lon="30.6153232364">
		<tag k="alt_name" v="Steinsnes, indre" />
		<tag k="name" v="Indre Steinsnes" />
		<tag k="natural" v="cape" />
		<tag k="ssr:stedsnr" v="748005" />
	</node>
	<node id="-918461" lat="70.6342722492" lon="29.7319904358">
		<tag k="fixme" v="consider seamark:type=rock or natural=shoal" />
		<tag k="name" v="Teinskjæret" />
		<tag k="place" v="islet" />
		<tag k="ssr:stedsnr" v="698281" />
	</node>
	<node id="-918457" lat="70.6179555839" lon="29.6890015451">
		<tag k="alt_name" v="Strømmen" />
		<tag k="name" v="Straumen" />
		<tag k="natural" v="strait" />
		<tag k="ssr:stedsnr" v="694457" />
	</node>
	<node id="-918455" lat="70.5154889262" lon="30.1140262907">
		<tag k="alt_name" v="Oterneset" />
		<tag k="name" v="Oternesan" />
		<tag k="natural" v="cape" />
		<tag k="ssr:stedsnr" v="687014" />
	</node>
	<node id="-918453" lat="70.5359778125" lon="30.0095485983">
		<tag k="name" v="Jollneset" />
		<tag k="natural" v="cape" />
		<tag k="ssr:stedsnr" v="880501" />
	</node>
	<node id="-918450" lat="70.6205139225" lon="29.6938293452">
		<tag k="name" v="Indrefjord" />
		<tag k="natural" v="bay" />
		<tag k="ssr:stedsnr" v="880360" />
	</node>
	<node id="-918445" lat="70.6172222528" lon="29.6847210048">
		<tag k="name" v="Maribukta" />
		<tag k="natural" v="bay" />
		<tag k="ssr:stedsnr" v="631425" />
	</node>
	<node id="-918443" lat="70.67156114" lon="29.829482053">
		<tag k="alt_name:no" v="Båtsfjord" />
		<tag k="bay" v="fjord" />
		<tag k="loc_name:se" v="Báhcavuonna" />
		<tag k="name" v="Båtsfjorden" />
		<tag k="name:no" v="Båtsfjorden" />
		<tag k="natural" v="bay" />
		<tag k="ssr:stedsnr" v="627112" />
	</node>
	<node id="-918440" lat="70.6735611419" lon="29.8865376046">
		<tag k="name" v="Raudbergneset" />
		<tag k="natural" v="cape" />
		<tag k="ssr:stedsnr" v="571514" />
	</node>
	<node id="-918433" lat="70.6253500277" lon="29.7121015539">
		<tag k="name" v="Sørnes" />
		<tag k="natural" v="cape" />
		<tag k="ssr:stedsnr" v="698332" />
	</node>
	<node id="-918430" lat="70.7111639262" lon="30.1339124838">
		<tag k="name" v="Lønfallet" />
		<tag k="natural" v="shoal" />
		<tag k="place" v="locality" />
		<tag k="ssr:stedsnr" v="693540" />
	</node>
	<node id="-918419" lat="70.5184667153" lon="30.598426013">
		<tag k="name" v="Kvannvikbukta" />
		<tag k="natural" v="bay" />
		<tag k="ssr:stedsnr" v="688005" />
	</node>
	<node id="-918412" lat="70.556997259" lon="30.2174068032">
		<tag k="name" v="Sandfjordneset" />
		<tag k="natural" v="cape" />
		<tag k="ssr:stedsnr" v="687055" />
	</node>
	<node id="-918396" lat="70.5484333723" lon="30.4016511521">
		<tag k="alt_name" v="Syltevika, yt" />
		<tag k="name" v="Ytre Syltevika" />
		<tag k="natural" v="bay" />
		<tag k="ssr:stedsnr" v="505065" />
	</node>
	<node id="-918391" lat="70.7060833664" lon="30.0936486219">
		<tag k="fixme" v="consider seamark:type=rock or natural=shoal" />
		<tag k="name" v="Molvikskjæret" />
		<tag k="place" v="islet" />
		<tag k="ssr:stedsnr" v="450529" />
	</node>
	<node id="-918390" lat="70.6837611403" lon="29.8000570686">
		<tag k="name" v="Elveneset" />
		<tag k="natural" v="cape" />
		<tag k="ssr:stedsnr" v="445508" />
	</node>
	<node id="-918387" lat="70.6311778127" lon="29.725218219">
		<tag k="name" v="Storholmen" />
		<tag k="natural" v="cape" />
		<tag k="ssr:stedsnr" v="516333" />
	</node>
	<node id="-918381" lat="70.540858375" lon="30.5612427278">
		<tag k="name" v="Ovnsmolla" />
		<tag k="natural" v="bay" />
		<tag k="ssr:stedsnr" v="511988" />
	</node>
	<node id="-918378" lat="70.6198444725" lon="29.6899571029">
		<tag k="name" v="Maritbukta" />
		<tag k="natural" v="bay" />
		<tag k="ssr:stedsnr" v="511501" />
	</node>
	<node id="-918377" lat="70.6849000335" lon="29.9085320422">
		<tag k="name" v="Skarbergneset" />
		<tag k="natural" v="cape" />
		<tag k="ssr:stedsnr" v="511495" />
	</node>
	<node id="-918376" lat="70.6341674144" lon="29.7376690936">
		<tag k="fixme" v="multiple name tags, choose one and add the other to alt_name" />
		<tag k="loc_name:se" v="Hámman" />
		<tag k="name" v="Hamna;Ytre hamn" />
		<tag k="name:no" v="Hamna;Ytre hamn" />
		<tag k="natural" v="bay" />
		<tag k="ssr:stedsnr" v="511492" />
	</node>
	<node id="-918374" lat="70.4837500331" lon="29.5401571348">
		<tag k="loc_name:fkv" v="Varenkinniemi;Varinkinniemi" />
		<tag k="name" v="Varangerhalvøya - Várnjárga" />
		<tag k="name:no" v="Varangerhalvøya" />
		<tag k="name:se" v="Várnjárga" />
		<tag k="natural" v="cape" />
		<tag k="ssr:stedsnr" v="506029" />
	</node>
	<node id="-918370" lat="70.5514333733" lon="30.6003510382">
		<tag k="fixme" v="consider seamark:type=rock or natural=shoal" />
		<tag k="name" v="Storskjeran" />
		<tag k="place" v="islet" />
		<tag k="ssr:stedsnr" v="505050" />
	</node>
	<node id="-918369" lat="70.6751000362" lon="30.2074013176">
		<tag k="alt_name" v="Korsnes" />
		<tag k="name" v="Korsneset" />
		<tag k="natural" v="cape" />
		<tag k="ssr:stedsnr" v="505043" />
	</node>
	<node id="-918366" lat="70.5319389313" lon="30.0419707855">
		<tag k="alt_name" v="Strømsnes" />
		<tag k="name" v="Strømsneset" />
		<tag k="natural" v="cape" />
		<tag k="ssr:stedsnr" v="390554" />
	</node>
	<node id="-918365" lat="70.6393528158" lon="30.236965171">
		<tag k="name" v="Storsteinneset" />
		<tag k="natural" v="cape" />
		<tag k="ssr:stedsnr" v="388407" />
	</node>
	<node id="-918360" lat="70.8306139186" lon="29.9252154074">
		<tag k="name" v="Leira" />
		<tag k="place" v="locality" />
		<tag k="ssr:stedsnr" v="359619" />
	</node>
	<node id="-918358" lat="70.6340000326" lon="29.7997820541">
		<tag k="name" v="Skovikneset" />
		<tag k="natural" v="cape" />
		<tag k="ssr:stedsnr" v="334332" />
	</node>
	<node id="-918357" lat="70.5305555996" lon="30.6644426422">
		<tag k="name" v="Seigrunnen" />
		<tag k="natural" v="shoal" />
		<tag k="place" v="locality" />
		<tag k="ssr:stedsnr" v="330632" />
	</node>
	<node id="-918355" lat="70.5312361448" lon="30.0415152343">
		<tag k="alt_name" v="Strømmen" />
		<tag k="name" v="Straumen" />
		<tag k="natural" v="strait" />
		<tag k="ssr:stedsnr" v="323057" />
	</node>
	<node id="-918354" lat="70.5498167034" lon="30.1446540833">
		<tag k="name" v="Kvalmolla" />
		<tag k="natural" v="bay" />
		<tag k="ssr:stedsnr" v="273472" />
	</node>
	<node id="-918350" lat="70.6036917076" lon="30.3235345483">
		<tag k="name" v="Russevika" />
		<tag k="natural" v="bay" />
		<tag k="ssr:stedsnr" v="262024" />
	</node>
	<node id="-918341" lat="70.7075250279" lon="29.9897125605">
		<tag k="name" v="Rossmålvika" />
		<tag k="natural" v="bay" />
		<tag k="ssr:stedsnr" v="445492" />
	</node>
	<node id="-918324" lat="70.6307833692" lon="29.7747015179">
		<tag k="name" v="Kvanngrø" />
		<tag k="natural" v="bay" />
		<tag k="ssr:stedsnr" v="273391" />
	</node>
	<node id="-918320" lat="70.6826389149" lon="29.7978682045">
		<tag k="name" v="Russekeila" />
		<tag k="natural" v="bay" />
		<tag k="ssr:stedsnr" v="263523" />
	</node>
	<node id="-918313" lat="70.7182833603" lon="29.79916821">
		<tag k="name" v="Fuglekeila" />
		<tag k="natural" v="bay" />
		<tag k="ssr:stedsnr" v="86553" />
	</node>
	<node id="-918311" lat="70.7039861445" lon="29.9514709245">
		<tag k="name" v="Inner-Rossmålen" />
		<tag k="natural" v="cape" />
		<tag k="ssr:stedsnr" v="85360" />
	</node>
	<node id="-918310" lat="70.7070972578" lon="30.103793058">
		<tag k="name" v="Sandstabben" />
		<tag k="natural" v="shoal" />
		<tag k="place" v="locality" />
		<tag k="ssr:stedsnr" v="85355" />
	</node>
	<node id="-918309" lat="70.616666704" lon="29.9999986167">
>>>>>>> e1d4bc35ff8a6074a6f2e91616a996b547c36f15
		<tag k="name" v="Makkaurhalvøya" />
		<tag k="natural" v="cape" />
		<tag k="ssr:stedsnr" v="85211" />
	</node>
<<<<<<< HEAD
	<node lat="70.64442225510635" lon="30.2104957417355" id="-41917">
		<tag k="name" v="Storskarvika" />
=======
	<node id="-918751" lat="70.5867889249" lon="30.3101401204">
		<tag k="name" v="Ytre Bukta" />
>>>>>>> e1d4bc35ff8a6074a6f2e91616a996b547c36f15
		<tag k="natural" v="bay" />
		<tag k="ssr:stedsnr" v="141041" />
	</node>
<<<<<<< HEAD
	<node lat="70.68263891493913" lon="29.797868204465413" id="-41928">
		<tag k="name" v="Russekeila" />
=======
	<node id="-918750" lat="70.626797254" lon="29.7017793426">
		<tag k="alt_name" v="Indre Havn" />
		<tag k="name" v="Neptunbukta" />
>>>>>>> e1d4bc35ff8a6074a6f2e91616a996b547c36f15
		<tag k="natural" v="bay" />
		<tag k="ssr:stedsnr" v="263523" />
	</node>
<<<<<<< HEAD
	<node lat="70.52880004512258" lon="30.61747322642221" id="-41929">
		<tag k="alt_name" v="Steinsnes, yt" />
		<tag k="name" v="Ytre Steinsnes" />
=======
	<node id="-918740" lat="70.5444000441" lon="30.6333371286">
		<tag k="name" v="Støvlenakken" />
>>>>>>> e1d4bc35ff8a6074a6f2e91616a996b547c36f15
		<tag k="natural" v="cape" />
		<tag k="ssr:stedsnr" v="202005" />
	</node>
<<<<<<< HEAD
	<node lat="70.70608336636087" lon="30.09364862193857" id="-41936">
=======
	<node id="-918739" lat="70.5300555969" lon="30.1899485002">
>>>>>>> e1d4bc35ff8a6074a6f2e91616a996b547c36f15
		<tag k="fixme" v="consider seamark:type=rock or natural=shoal" />
		<tag k="name" v="Molvikskjæret" />
		<tag k="place" v="islet" />
		<tag k="ssr:stedsnr" v="450529" />
	</node>
<<<<<<< HEAD
	<node lat="70.60369170762512" lon="30.32353454832129" id="-41942">
		<tag k="name" v="Russevika" />
=======
	<node id="-918734" lat="70.6970111463" lon="30.1055097214">
		<tag k="name" v="Molvika" />
>>>>>>> e1d4bc35ff8a6074a6f2e91616a996b547c36f15
		<tag k="natural" v="bay" />
		<tag k="ssr:stedsnr" v="262024" />
	</node>
<<<<<<< HEAD
	<node lat="70.54981670341978" lon="30.14465408328559" id="-41948">
		<tag k="name" v="Kvalmolla" />
=======
	<node id="-918725" lat="70.640430587" lon="29.7438098606">
		<tag k="name" v="Bjørnenakkbukta" />
>>>>>>> e1d4bc35ff8a6074a6f2e91616a996b547c36f15
		<tag k="natural" v="bay" />
		<tag k="ssr:stedsnr" v="273472" />
	</node>
<<<<<<< HEAD
	<node lat="70.6307833691536" lon="29.774701517897988" id="-41951">
		<tag k="name" v="Kvanngrø" />
		<tag k="natural" v="bay" />
		<tag k="ssr:stedsnr" v="273391" />
	</node>
	<node lat="70.6393528157655" lon="30.23696517100309" id="-41966">
		<tag k="name" v="Storsteinneset" />
		<tag k="natural" v="cape" />
		<tag k="ssr:stedsnr" v="388407" />
	</node>
	<node lat="70.54293892330848" lon="30.086440210252622" id="-41969">
		<tag k="name" v="Stormolla" />
		<tag k="natural" v="bay" />
		<tag k="ssr:stedsnr" v="394495" />
	</node>
	<node lat="70.70752502787445" lon="29.989712560524666" id="-41970">
		<tag k="name" v="Rossmålvika" />
=======
	<node id="-918720" lat="70.7125194769" lon="30.0421458743">
		<tag k="name" v="Lankonbåen" />
		<tag k="place" v="locality" />
		<tag k="seamark:type" v="rock" />
		<tag k="ssr:stedsnr" v="814544" />
	</node>
	<node id="-918712" lat="70.5484056013" lon="30.5068538686">
		<tag k="name" v="Gamvikneset" />
		<tag k="natural" v="cape" />
		<tag k="ssr:stedsnr" v="809071" />
	</node>
	<node id="-918700" lat="70.5465555975" lon="30.5839343747">
		<tag k="fixme" v="consider seamark:type=rock or natural=shoal" />
		<tag k="name" v="Småskjæret" />
		<tag k="place" v="islet" />
		<tag k="ssr:stedsnr" v="754987" />
	</node>
	<node id="-918699" lat="70.5300972567" lon="30.0408318947">
		<tag k="alt_name" v="Gollaholmen" />
		<tag k="name" v="Holmen" />
		<tag k="place" v="islet" />
		<tag k="ssr:stedsnr" v="754590" />
	</node>
	<node id="-918697" lat="70.6955055867" lon="29.9070042665">
		<tag k="name" v="Skarberggrunnen" />
		<tag k="natural" v="shoal" />
		<tag k="place" v="locality" />
		<tag k="ssr:stedsnr" v="753448" />
	</node>
	<node id="-918688" lat="70.5249055973" lon="30.0415596688">
		<tag k="name" v="Storbukt" />
		<tag k="natural" v="bay" />
		<tag k="ssr:stedsnr" v="637455" />
	</node>
	<node id="-918687" lat="70.5492611527" lon="30.1215624207">
		<tag k="name" v="Nordfjordlandet" />
		<tag k="natural" v="beach" />
		<tag k="place" v="locality" />
		<tag k="ssr:stedsnr" v="637517" />
	</node>
	<node id="-918686" lat="70.5391083738" lon="30.1047846418">
		<tag k="name" v="Hansemolla" />
>>>>>>> e1d4bc35ff8a6074a6f2e91616a996b547c36f15
		<tag k="natural" v="bay" />
		<tag k="ssr:stedsnr" v="445492" />
	</node>
<<<<<<< HEAD
	<node lat="70.68376114032841" lon="29.800057068611206" id="-41972">
		<tag k="name" v="Elveneset" />
=======
	<node id="-918682" lat="70.7069083615" lon="29.9787459013">
		<tag k="name" v="Mellom-Rossmålen" />
>>>>>>> e1d4bc35ff8a6074a6f2e91616a996b547c36f15
		<tag k="natural" v="cape" />
		<tag k="ssr:stedsnr" v="445508" />
	</node>
<<<<<<< HEAD
	<node lat="70.5408583750069" lon="30.56124272776514" id="-41984">
		<tag k="name" v="Ovnsmolla" />
		<tag k="natural" v="bay" />
		<tag k="ssr:stedsnr" v="511988" />
	</node>
	<node lat="70.51548892616367" lon="30.11402629067531" id="-41989">
		<tag k="alt_name" v="Oterneset" />
		<tag k="name" v="Oternesan" />
=======
	<node id="-918680" lat="70.6372472512" lon="29.7407515252">
		<tag k="name" v="Hamneneset" />
		<tag k="natural" v="cape" />
		<tag k="ssr:stedsnr" v="627477" />
	</node>
	<node id="-918666" lat="70.553680598" lon="30.4497483654">
		<tag k="loc_name" v="Svartneset" />
		<tag k="name" v="Svartnes" />
>>>>>>> e1d4bc35ff8a6074a6f2e91616a996b547c36f15
		<tag k="natural" v="cape" />
		<tag k="ssr:stedsnr" v="687014" />
	</node>
<<<<<<< HEAD
	<node lat="70.55699725898508" lon="30.217406803207783" id="-41994">
		<tag k="name" v="Sandfjordneset" />
		<tag k="natural" v="cape" />
		<tag k="ssr:stedsnr" v="687055" />
	</node>
	<node lat="70.63483058633132" lon="29.804384848830985" id="-42009">
=======
	<node id="-918652" lat="70.4759028246" lon="30.72223981">
		<tag k="fixme" v="consider seamark:type=rock or natural=shoal" />
		<tag k="name" v="Segelkollskjæran" />
		<tag k="place" v="islet" />
		<tag k="ssr:stedsnr" v="572592" />
	</node>
	<node id="-918645" lat="70.6348305863" lon="29.8043848488">
>>>>>>> e1d4bc35ff8a6074a6f2e91616a996b547c36f15
		<tag k="name" v="Skovika" />
		<tag k="natural" v="bay" />
		<tag k="ssr:stedsnr" v="566469" />
	</node>
<<<<<<< HEAD
	<node lat="70.71116392615389" lon="30.133912483828162" id="-42012">
		<tag k="name" v="Lønfallet" />
		<tag k="natural" v="shoal" />
		<tag k="place" v="locality" />
		<tag k="ssr:stedsnr" v="693540" />
	</node>
	<node lat="70.67356114185507" lon="29.886537604551624" id="-42013">
		<tag k="name" v="Raudbergneset" />
=======
	<node id="-918643" lat="70.538488937" lon="30.6337482467">
		<tag k="name" v="Spira" />
		<tag k="natural" v="cape" />
		<tag k="ssr:stedsnr" v="566014" />
	</node>
	<node id="-918642" lat="70.5315055915" lon="30.1156596433">
		<tag k="name" v="Hamnnesodden" />
>>>>>>> e1d4bc35ff8a6074a6f2e91616a996b547c36f15
		<tag k="natural" v="cape" />
		<tag k="ssr:stedsnr" v="571514" />
	</node>
<<<<<<< HEAD
	<node lat="70.61795558389922" lon="29.689001545098897" id="-42014">
		<tag k="alt_name" v="Strømmen" />
		<tag k="name" v="Straumen" />
		<tag k="natural" v="strait" />
		<tag k="ssr:stedsnr" v="694457" />
	</node>
	<node lat="70.62535002769468" lon="29.7121015538887" id="-42018">
		<tag k="name" v="Sørnes" />
		<tag k="natural" v="cape" />
		<tag k="ssr:stedsnr" v="698332" />
	</node>
	<node lat="70.51846671529452" lon="30.598426013002765" id="-42035">
		<tag k="name" v="Kvannvikbukta" />
=======
	<node id="-918639" lat="70.4779694985" lon="30.901573023">
		<tag k="alt_name" v="Østhavet" />
		<tag k="name" v="Austhavet" />
		<tag k="place" v="sea" />
		<tag k="ssr:stedsnr" v="565913" />
	</node>
	<node id="-918634" lat="70.6513500313" lon="30.1264458083">
		<tag k="bay" v="fjord" />
		<tag k="name" v="Makkaur-Sandfjorden - Sáttovuotna" />
		<tag k="name:no" v="Makkaur-Sandfjorden" />
		<tag k="name:se" v="Sáttovuotna" />
		<tag k="natural" v="bay" />
		<tag k="old_name:se" v="Sadduvuodna" />
		<tag k="ssr:stedsnr" v="565082" />
	</node>
	<node id="-918632" lat="70.5429389233" lon="30.0864402103">
		<tag k="name" v="Stormolla" />
>>>>>>> e1d4bc35ff8a6074a6f2e91616a996b547c36f15
		<tag k="natural" v="bay" />
		<tag k="ssr:stedsnr" v="688005" />
	</node>
<<<<<<< HEAD
	<node lat="70.63427224921617" lon="29.731990435827974" id="-42044">
		<tag k="fixme" v="consider seamark:type=rock or natural=shoal" />
		<tag k="name" v="Teinskjæret" />
=======
	<node id="-918629" lat="70.6237972517" lon="29.6994598747">
		<tag k="alt_name" v="Laukholmen" />
		<tag k="name" v="Liholmen" />
>>>>>>> e1d4bc35ff8a6074a6f2e91616a996b547c36f15
		<tag k="place" v="islet" />
		<tag k="ssr:stedsnr" v="698281" />
	</node>
<<<<<<< HEAD
	<node lat="70.52328893631572" lon="30.61532323642064" id="-42045">
		<tag k="alt_name" v="Steinsnes, indre" />
		<tag k="name" v="Indre Steinsnes" />
		<tag k="natural" v="cape" />
		<tag k="ssr:stedsnr" v="748005" />
	</node>
	<node lat="70.51610559989159" lon="30.60037046035326" id="-42046">
		<tag k="alt_name" v="Kvamvikneset" />
		<tag k="name" v="Kvannvikneset" />
=======
	<node id="-918622" lat="70.5638111542" lon="30.2193207079">
		<tag k="name" v="Syltefjord-Sandfjorden" />
		<tag k="natural" v="bay" />
		<tag k="ssr:stedsnr" v="384046" />
	</node>
	<node id="-918601" lat="70.6932083643" lon="29.8077487588">
		<tag k="name" v="Rubbedalsneset" />
>>>>>>> e1d4bc35ff8a6074a6f2e91616a996b547c36f15
		<tag k="natural" v="cape" />
		<tag k="ssr:stedsnr" v="748010" />
	</node>
<<<<<<< HEAD
	<node lat="70.5854305964623" lon="30.303781792215435" id="-42061">
		<tag k="name" v="Mellomneset" />
=======
	<node id="-918595" lat="70.7096278056" lon="30.0139875472">
		<tag k="name" v="Ytter-Rossmålen" />
>>>>>>> e1d4bc35ff8a6074a6f2e91616a996b547c36f15
		<tag k="natural" v="cape" />
		<tag k="ssr:stedsnr" v="930031" />
	</node>
<<<<<<< HEAD
	<node lat="70.54670837091436" lon="30.22129013868576" id="-42064">
		<tag k="bay" v="fjord" />
		<tag k="name" v="Syltefjorden - Oardovuonna" />
		<tag k="name:no" v="Syltefjorden" />
		<tag k="name:se" v="Oardovuonna" />
=======
	<node id="-918593" lat="70.5458972607" lon="30.3449622889">
		<tag k="alt_name" v="Syltevika, indre" />
		<tag k="name" v="Indre Syltevika" />
>>>>>>> e1d4bc35ff8a6074a6f2e91616a996b547c36f15
		<tag k="natural" v="bay" />
		<tag k="ssr:stedsnr" v="930065" />
	</node>
<<<<<<< HEAD
	<node lat="70.62051392246745" lon="29.6938293451835" id="-42078">
		<tag k="name" v="Indrefjord" />
=======
	<node id="-918592" lat="70.5443694853" lon="30.0986457756">
		<tag k="name" v="Nordfjorden" />
>>>>>>> e1d4bc35ff8a6074a6f2e91616a996b547c36f15
		<tag k="natural" v="bay" />
		<tag k="ssr:stedsnr" v="880360" />
	</node>
<<<<<<< HEAD
	<node lat="70.53597781250865" lon="30.009548598258924" id="-42080">
		<tag k="name" v="Jollneset" />
=======
	<node id="-918591" lat="70.5343778156" lon="30.0096347034">
		<tag k="name" v="Finnes" />
>>>>>>> e1d4bc35ff8a6074a6f2e91616a996b547c36f15
		<tag k="natural" v="cape" />
		<tag k="ssr:stedsnr" v="880501" />
	</node>
<<<<<<< HEAD
	<node lat="70.49436393436046" lon="30.635834318804697" id="-42083">
		<tag k="name" v="Finnvika" />
		<tag k="natural" v="bay" />
		<tag k="ssr:stedsnr" v="930904" />
	</node>
	<node lat="70.54084727061472" lon="30.64323988791891" id="-42087">
		<tag k="name" v="Merra" />
		<tag k="natural" v="shoal" />
=======
	<node id="-918588" lat="70.5274944849" lon="30.0818346584">
		<tag k="name" v="Revet" />
>>>>>>> e1d4bc35ff8a6074a6f2e91616a996b547c36f15
		<tag k="place" v="locality" />
		<tag k="ssr:stedsnr" v="937629" />
	</node>
<<<<<<< HEAD
	<node lat="70.54449726348022" lon="30.524912197600965" id="-42089">
		<tag k="name" v="Risvika" />
=======
	<node id="-918572" lat="70.629808367" lon="29.7632654226">
		<tag k="name" v="Eikebergvika" />
>>>>>>> e1d4bc35ff8a6074a6f2e91616a996b547c36f15
		<tag k="natural" v="bay" />
		<tag k="ssr:stedsnr" v="20049" />
	</node>
<<<<<<< HEAD
	<node lat="70.68665558287107" lon="29.913287588067732" id="-42094">
		<tag k="alt_name" v="Skarbergvika" />
		<tag k="name" v="Skarvbergvika" />
=======
	<node id="-918571" lat="70.5429611565" lon="30.5359677534">
		<tag k="name" v="Gamvikbukta" />
>>>>>>> e1d4bc35ff8a6074a6f2e91616a996b547c36f15
		<tag k="natural" v="bay" />
		<tag k="ssr:stedsnr" v="20474" />
	</node>
<<<<<<< HEAD
	<node lat="70.62964447376162" lon="29.70754320781378" id="-42098">
		<tag k="name" v="Valen" />
		<tag k="place" v="locality" />
		<tag k="ssr:stedsnr" v="30377" />
	</node>
	<node lat="70.53879448175518" lon="30.002106915478315" id="-42101">
		<tag k="name" v="Løkholman" />
		<tag k="natural" v="beach" />
		<tag k="ssr:stedsnr" v="30494" />
	</node>
	<node lat="70.53732781812663" lon="30.020651352864107" id="-42102">
		<tag k="name" v="Vassbotn" />
=======
	<node id="-918570" lat="70.5425306022" lon="30.5867038252">
		<tag k="name" v="Skjåvika" />
>>>>>>> e1d4bc35ff8a6074a6f2e91616a996b547c36f15
		<tag k="natural" v="bay" />
		<tag k="ssr:stedsnr" v="30499" />
	</node>
<<<<<<< HEAD
	<node lat="70.7307222490799" lon="29.78369878610448" id="-42106">
		<tag k="name" v="Seibøneset" />
=======
	<node id="-918569" lat="70.5494722665" lon="30.6172204766">
		<tag k="name" v="Håbrandneset" />
>>>>>>> e1d4bc35ff8a6074a6f2e91616a996b547c36f15
		<tag k="natural" v="cape" />
		<tag k="ssr:stedsnr" v="81520" />
	</node>
<<<<<<< HEAD
	<node lat="70.70709725784954" lon="30.10379305797714" id="-42108">
		<tag k="name" v="Sandstabben" />
		<tag k="natural" v="shoal" />
		<tag k="place" v="locality" />
		<tag k="ssr:stedsnr" v="85355" />
	</node>
	<node lat="70.70398614454375" lon="29.951470924459482" id="-42109">
		<tag k="name" v="Inner-Rossmålen" />
=======
	<node id="-918568" lat="70.5328139283" lon="30.1458123956">
		<tag k="name" v="Veidnesodden" />
		<tag k="natural" v="cape" />
		<tag k="ssr:stedsnr" v="202043" />
	</node>
	<node id="-918565" lat="70.5288000451" lon="30.6174732264">
		<tag k="alt_name" v="Steinsnes, yt" />
		<tag k="name" v="Ytre Steinsnes" />
>>>>>>> e1d4bc35ff8a6074a6f2e91616a996b547c36f15
		<tag k="natural" v="cape" />
		<tag k="ssr:stedsnr" v="85360" />
	</node>
<<<<<<< HEAD
	<node lat="70.71828336029097" lon="29.79916821002766" id="-42112">
		<tag k="name" v="Fuglekeila" />
=======
	<node id="-918560" lat="70.6605111409" lon="29.7775570935">
		<tag k="name" v="Olabukta" />
>>>>>>> e1d4bc35ff8a6074a6f2e91616a996b547c36f15
		<tag k="natural" v="bay" />
		<tag k="ssr:stedsnr" v="86553" />
	</node>
<<<<<<< HEAD
	<node lat="70.54764726128147" lon="30.4754761134663" id="-42123">
		<tag k="name" v="Svartnesbukta" />
		<tag k="natural" v="bay" />
		<tag k="ssr:stedsnr" v="141059" />
	</node>
	<node lat="70.62847503031661" lon="29.712457088928694" id="-42129">
=======
	<node id="-918553" lat="70.6719361398" lon="29.792426537">
		<tag k="name" v="Kvannvikneset" />
		<tag k="natural" v="cape" />
		<tag k="ssr:stedsnr" v="141491" />
	</node>
	<node id="-918552" lat="70.6284750303" lon="29.7124570889">
>>>>>>> e1d4bc35ff8a6074a6f2e91616a996b547c36f15
		<tag k="name" v="Holmen" />
		<tag k="natural" v="cape" />
		<tag k="ssr:stedsnr" v="141463" />
	</node>
<<<<<<< HEAD
	<node lat="70.67193613977874" lon="29.79242653697609" id="-42130">
		<tag k="name" v="Kvannvikneset" />
		<tag k="natural" v="cape" />
		<tag k="ssr:stedsnr" v="141491" />
	</node>
	<node lat="70.66051114088077" lon="29.777557093487335" id="-42136">
		<tag k="name" v="Olabukta" />
=======
	<node id="-918546" lat="70.5476472613" lon="30.4754761135">
		<tag k="name" v="Svartnesbukta" />
		<tag k="natural" v="bay" />
		<tag k="ssr:stedsnr" v="141059" />
	</node>
	<node id="-918542" lat="70.6444222551" lon="30.2104957417">
		<tag k="name" v="Storskarvika" />
>>>>>>> e1d4bc35ff8a6074a6f2e91616a996b547c36f15
		<tag k="natural" v="bay" />
		<tag k="ssr:stedsnr" v="146492" />
	</node>
<<<<<<< HEAD
	<node lat="70.53281392828423" lon="30.145812395604267" id="-42142">
		<tag k="name" v="Veidnesodden" />
		<tag k="natural" v="cape" />
		<tag k="ssr:stedsnr" v="202043" />
	</node>
	<node lat="70.54947226647093" lon="30.617220476592077" id="-42143">
		<tag k="name" v="Håbrandneset" />
		<tag k="natural" v="cape" />
		<tag k="ssr:stedsnr" v="202046" />
	</node>
	<node lat="70.54253060220344" lon="30.586703825155023" id="-42144">
		<tag k="name" v="Skjåvika" />
		<tag k="natural" v="bay" />
		<tag k="ssr:stedsnr" v="202048" />
	</node>
	<node lat="70.5429611564806" lon="30.535967753410986" id="-42145">
		<tag k="name" v="Gamvikbukta" />
		<tag k="natural" v="bay" />
		<tag k="ssr:stedsnr" v="202058" />
	</node>
	<node lat="70.62980836701983" lon="29.763265422554333" id="-42146">
		<tag k="name" v="Eikebergvika" />
		<tag k="natural" v="bay" />
		<tag k="ssr:stedsnr" v="202457" />
	</node>
	<node lat="70.52749448494342" lon="30.081834658426896" id="-42159">
		<tag k="name" v="Revet" />
		<tag k="place" v="locality" />
		<tag k="seamark:type" v="rock" />
		<tag k="ssr:stedsnr" v="208570" />
	</node>
	<node lat="70.53437781560115" lon="30.009634703435463" id="-42162">
		<tag k="name" v="Finnes" />
		<tag k="natural" v="cape" />
		<tag k="ssr:stedsnr" v="213530" />
	</node>
	<node lat="70.70962780555448" lon="30.01398754723313" id="-42164">
		<tag k="name" v="Ytter-Rossmålen" />
		<tag k="natural" v="cape" />
		<tag k="ssr:stedsnr" v="323048" />
	</node>
	<node lat="70.53123614478675" lon="30.041515234256384" id="-42165">
		<tag k="alt_name" v="Strømmen" />
		<tag k="name" v="Straumen" />
		<tag k="natural" v="strait" />
		<tag k="ssr:stedsnr" v="323057" />
	</node>
	<node lat="70.54436948529056" lon="30.09864577564889" id="-42166">
		<tag k="name" v="Nordfjorden" />
		<tag k="natural" v="bay" />
		<tag k="ssr:stedsnr" v="323068" />
	</node>
	<node lat="70.54589726073279" lon="30.344962288860778" id="-42167">
		<tag k="alt_name" v="Syltevika, indre" />
		<tag k="name" v="Indre Syltevika" />
		<tag k="natural" v="bay" />
		<tag k="ssr:stedsnr" v="323073" />
	</node>
	<node lat="70.69320836432169" lon="29.80774875876226" id="-42172">
		<tag k="name" v="Rubbedalsneset" />
		<tag k="natural" v="cape" />
		<tag k="ssr:stedsnr" v="323490" />
	</node>
	<node lat="70.53055559956948" lon="30.664442642185087" id="-42177">
		<tag k="name" v="Seigrunnen" />
		<tag k="natural" v="shoal" />
		<tag k="place" v="locality" />
		<tag k="ssr:stedsnr" v="330632" />
	</node>
	<node lat="70.63400003256494" lon="29.799782054076662" id="-42180">
		<tag k="name" v="Skovikneset" />
		<tag k="natural" v="cape" />
		<tag k="ssr:stedsnr" v="334332" />
	</node>
	<node lat="70.56381115417861" lon="30.219320707887988" id="-42191">
		<tag k="name" v="Syltefjord-Sandfjorden" />
		<tag k="natural" v="bay" />
		<tag k="ssr:stedsnr" v="384046" />
	</node>
	<node lat="70.62379725170506" lon="29.699459874710413" id="-42199">
		<tag k="alt_name" v="Laukholmen" />
		<tag k="name" v="Liholmen" />
		<tag k="place" v="islet" />
		<tag k="ssr:stedsnr" v="389533" />
	</node>
	<node lat="70.53193893132959" lon="30.041970785488893" id="-42200">
		<tag k="alt_name" v="Strømsnes" />
		<tag k="name" v="Strømsneset" />
		<tag k="natural" v="cape" />
		<tag k="ssr:stedsnr" v="390554" />
	</node>
	<node lat="70.67510003615313" lon="30.207401317643555" id="-42213">
		<tag k="alt_name" v="Korsnes" />
		<tag k="name" v="Korsneset" />
		<tag k="natural" v="cape" />
		<tag k="ssr:stedsnr" v="505043" />
	</node>
	<node lat="70.55143337328114" lon="30.600351038216914" id="-42214">
		<tag k="fixme" v="consider seamark:type=rock or natural=shoal" />
		<tag k="name" v="Storskjeran" />
		<tag k="place" v="islet" />
		<tag k="ssr:stedsnr" v="505050" />
	</node>
	<node lat="70.54843337229848" lon="30.401651152062854" id="-42217">
		<tag k="alt_name" v="Syltevika, yt" />
		<tag k="name" v="Ytre Syltevika" />
		<tag k="natural" v="bay" />
		<tag k="ssr:stedsnr" v="505065" />
	</node>
	<node lat="70.48375003306245" lon="29.54015713483775" id="-42223">
		<tag k="name" v="Varangerhalvøya - Várnjárga - Varenkinniemi" />
		<tag k="name:fkv" v="Varenkinniemi" />
		<tag k="name:no" v="Varangerhalvøya" />
		<tag k="name:se" v="Várnjárga" />
		<tag k="natural" v="cape" />
		<tag k="ssr:stedsnr" v="506029" />
	</node>
	<node lat="70.63416741441942" lon="29.73766909360599" id="-42226">
		<tag k="name" v="Ytre Hamn" />
		<tag k="natural" v="bay" />
		<tag k="ssr:stedsnr" v="511492" />
	</node>
	<node lat="70.68490003352107" lon="29.908532042244097" id="-42227">
		<tag k="name" v="Skarbergneset" />
		<tag k="natural" v="cape" />
		<tag k="ssr:stedsnr" v="511495" />
	</node>
	<node lat="70.61984447248366" lon="29.689957102904373" id="-42228">
		<tag k="name" v="Maritbukta" />
		<tag k="natural" v="bay" />
		<tag k="ssr:stedsnr" v="511501" />
	</node>
	<node lat="70.631177812661" lon="29.72521821898919" id="-42235">
		<tag k="name" v="Storholmen" />
		<tag k="natural" v="cape" />
		<tag k="ssr:stedsnr" v="516333" />
	</node>
	<node lat="70.6513500312564" lon="30.126445808263277" id="-42236">
		<tag k="bay" v="fjord" />
		<tag k="name" v="Makkaur-Sandfjorden - Sáttovuotna" />
		<tag k="name:no" v="Makkaur-Sandfjorden" />
		<tag k="name:se" v="Sáttovuotna" />
		<tag k="natural" v="bay" />
		<tag k="old_name:se" v="Sadduvuodna" />
		<tag k="ssr:stedsnr" v="565082" />
	</node>
	<node lat="70.4779694984812" lon="30.901573022960466" id="-42245">
		<tag k="alt_name" v="Østhavet" />
		<tag k="name" v="Austhavet" />
		<tag k="place" v="sea" />
		<tag k="ssr:stedsnr" v="565913" />
	</node>
	<node lat="70.53150559151413" lon="30.11565964330368" id="-42247">
		<tag k="name" v="Hamnnesodden" />
		<tag k="natural" v="cape" />
		<tag k="ssr:stedsnr" v="566010" />
	</node>
	<node lat="70.53848893702694" lon="30.633748246711328" id="-42248">
		<tag k="name" v="Spira" />
		<tag k="natural" v="cape" />
		<tag k="ssr:stedsnr" v="566014" />
	</node>
	<node lat="70.47590282460281" lon="30.722239809983268" id="-42253">
		<tag k="fixme" v="consider seamark:type=rock or natural=shoal" />
		<tag k="name" v="Segelkollskjæran" />
		<tag k="place" v="islet" />
		<tag k="ssr:stedsnr" v="572592" />
	</node>
	<node lat="70.55368059795586" lon="30.44974836536371" id="-42259">
		<tag k="loc_name" v="Svartneset" />
		<tag k="name" v="Svartnes" />
		<tag k="natural" v="cape" />
		<tag k="ssr:stedsnr" v="626085" />
	</node>
	<node lat="70.67156114000954" lon="29.829482053011336" id="-42268">
		<tag k="alt_name:no" v="Båtsfjord" />
		<tag k="bay" v="fjord" />
		<tag k="name" v="Båtsfjorden - Báhcavuonna" />
		<tag k="name:no" v="Båtsfjorden" />
		<tag k="name:se" v="Báhcavuonna" />
		<tag k="natural" v="bay" />
		<tag k="ssr:stedsnr" v="627112" />
	</node>
	<node lat="70.63724725124243" lon="29.740751525233353" id="-42270">
		<tag k="name" v="Hamneneset" />
		<tag k="natural" v="cape" />
		<tag k="ssr:stedsnr" v="627477" />
	</node>
	<node lat="70.70690836150345" lon="29.97874590131706" id="-42271">
		<tag k="name" v="Mellom-Rossmålen" />
		<tag k="natural" v="cape" />
		<tag k="ssr:stedsnr" v="627492" />
	</node>
	<node lat="70.61722225279583" lon="29.68472100480507" id="-42272">
		<tag k="name" v="Maribukta" />
		<tag k="natural" v="bay" />
		<tag k="ssr:stedsnr" v="631425" />
	</node>
	<node lat="70.52490559726182" lon="30.041559668845544" id="-42274">
		<tag k="name" v="Storbukt" />
		<tag k="natural" v="bay" />
		<tag k="ssr:stedsnr" v="637455" />
	</node>
	<node lat="70.53910837381545" lon="30.104784641792687" id="-42277">
		<tag k="name" v="Hansemolla" />
		<tag k="natural" v="bay" />
		<tag k="ssr:stedsnr" v="637516" />
	</node>
	<node lat="70.54926115270882" lon="30.12156242073997" id="-42278">
		<tag k="name" v="Nordfjordlandet" />
		<tag k="natural" v="beach" />
		<tag k="ssr:stedsnr" v="637517" />
	</node>
	<node lat="70.69550558671773" lon="29.90700426647955" id="-42291">
		<tag k="name" v="Skarberggrunnen" />
		<tag k="natural" v="shoal" />
		<tag k="place" v="locality" />
		<tag k="ssr:stedsnr" v="753448" />
	</node>
	<node lat="70.5300972567011" lon="30.040831894650342" id="-42293">
		<tag k="alt_name" v="Gollaholmen" />
		<tag k="name" v="Holmen" />
		<tag k="place" v="islet" />
		<tag k="ssr:stedsnr" v="754590" />
	</node>
	<node lat="70.5465555974955" lon="30.583934374671976" id="-42294">
		<tag k="fixme" v="consider seamark:type=rock or natural=shoal" />
		<tag k="name" v="Småskjæret" />
		<tag k="place" v="islet" />
		<tag k="ssr:stedsnr" v="754987" />
	</node>
	<node lat="70.54840560125014" lon="30.506853868563173" id="-42301">
		<tag k="name" v="Gamvikneset" />
		<tag k="natural" v="cape" />
		<tag k="ssr:stedsnr" v="809071" />
	</node>
	<node lat="70.71251947689923" lon="30.04214587426931" id="-42308">
		<tag k="name" v="Lankonbåen" />
		<tag k="place" v="locality" />
		<tag k="seamark:type" v="rock" />
		<tag k="ssr:stedsnr" v="814544" />
	</node>
	<node lat="70.64043058697159" lon="29.743809860621628" id="-42310">
		<tag k="name" v="Bjørnenakkbukta" />
		<tag k="natural" v="bay" />
		<tag k="ssr:stedsnr" v="819385" />
	</node>
	<node lat="70.69701114633537" lon="30.105509721400093" id="-42319">
		<tag k="name" v="Molvika" />
		<tag k="natural" v="bay" />
		<tag k="ssr:stedsnr" v="869051" />
	</node>
	<node lat="70.53005559691836" lon="30.189948500160074" id="-42323">
		<tag k="fixme" v="consider seamark:type=rock or natural=shoal" />
		<tag k="name" v="Tavlskjæret" />
		<tag k="place" v="islet" />
		<tag k="ssr:stedsnr" v="870007" />
	</node>
	<node lat="70.54430714975086" lon="30.63038719083133" id="-42324">
		<tag k="name" v="Støvlenakken" />
		<tag k="natural" v="cape" />
		<tag k="ssr:stedsnr" v="870009" />
	</node>
	<node lat="70.62679725395385" lon="29.70177934257936" id="-42334">
		<tag k="alt_name" v="Indre Havn" />
		<tag k="name" v="Neptunbukta" />
		<tag k="natural" v="bay" />
		<tag k="ssr:stedsnr" v="875511" />
	</node>
	<node lat="70.58678892492055" lon="30.3101401203955" id="-42335">
		<tag k="name" v="Ytre Bukta" />
		<tag k="natural" v="bay" />
		<tag k="ssr:stedsnr" v="875517" />
	</node>
	<node lat="70.64348058295721" lon="29.746876545288806" id="-42345">
		<tag k="name" v="Ursinbukta" />
		<tag k="natural" v="bay" />
		<tag k="ssr:stedsnr" v="941349" />
	</node>
	<node lat="70.61938442592023" lon="29.688665507889677" id="-42350">
		<tag k="name" v="Báhcavuonbahta" />
		<tag k="name:se" v="Báhcavuonbahta" />
		<tag k="natural" v="bay" />
		<tag k="ssr:stedsnr" v="990331" />
	</node>
	<node lat="70.63415300881302" lon="29.728308706978947" id="-42353">
		<tag k="fixme" v="multiple name tags, choose one and add the other to alt_name" />
		<tag k="name" v="Hamna;Indre hamn - Hámman" />
		<tag k="name:no" v="Hamna;Indre hamn" />
		<tag k="name:se" v="Hámman" />
		<tag k="natural" v="bay" />
		<tag k="ssr:stedsnr" v="1072605" />
	</node>
=======
>>>>>>> e1d4bc35ff8a6074a6f2e91616a996b547c36f15
</osm>
