<?xml version="1.0" encoding="UTF-8"?>
<<<<<<< HEAD
<osm version="0.6" generator="osmapis">
	<node lat="70.53409170672273" lon="30.303448425330743" id="-41898">
		<tag k="fixme" v="consider natural=peak for the most distinct mountains in the district" />
		<tag k="name" v="Romsdalsbruna" />
		<tag k="natural" v="hill" />
		<tag k="place" v="locality" />
		<tag k="ssr:stedsnr" v="20012" />
	</node>
	<node lat="70.53589170530448" lon="29.971070825944494" id="-41903">
		<tag k="name" v="Storhaugdalen" />
		<tag k="natural" v="valley" />
		<tag k="place" v="locality" />
		<tag k="ssr:stedsnr" v="30466" />
	</node>
	<node lat="70.62651948661014" lon="30.275942927798905" id="-41905">
		<tag k="name" v="Stormolla" />
		<tag k="natural" v="slope" />
		<tag k="place" v="locality" />
		<tag k="ssr:stedsnr" v="81038" />
	</node>
	<node lat="70.49413338422175" lon="30.54732325490424" id="-41906">
=======
<osm generator="osmapis" version="0.6">
	<node id="-918528" lat="70.4609055963" lon="30.0445540944">
		<tag k="name" v="Steindalen" />
		<tag k="natural" v="valley" />
		<tag k="place" v="locality" />
		<tag k="ssr:stedsnr" v="81900" />
	</node>
	<node id="-918527" lat="70.4771972582" lon="30.0889762983">
		<tag k="name" v="Allmenningdalen" />
		<tag k="natural" v="valley" />
		<tag k="place" v="locality" />
		<tag k="ssr:stedsnr" v="81891" />
	</node>
	<node id="-918526" lat="70.4941333842" lon="30.5473232549">
>>>>>>> e1d4bc35ff8a6074a6f2e91616a996b547c36f15
		<tag k="name" v="Per Olsadalen" />
		<tag k="natural" v="valley" />
		<tag k="place" v="locality" />
		<tag k="ssr:stedsnr" v="81890" />
	</node>
<<<<<<< HEAD
	<node lat="70.47719725824305" lon="30.08897629826572" id="-41907">
		<tag k="name" v="Allmenningdalen" />
		<tag k="natural" v="valley" />
		<tag k="place" v="locality" />
		<tag k="ssr:stedsnr" v="81891" />
	</node>
	<node lat="70.46090559628816" lon="30.04455409436062" id="-41908">
		<tag k="name" v="Steindalen" />
		<tag k="natural" v="valley" />
		<tag k="place" v="locality" />
		<tag k="ssr:stedsnr" v="81900" />
	</node>
	<node lat="70.49555281831677" lon="30.145295734021023" id="-41909">
		<tag k="name" v="Søttendalen" />
=======
	<node id="-918522" lat="70.6265194866" lon="30.2759429278">
		<tag k="name" v="Stormolla" />
		<tag k="natural" v="slope" />
		<tag k="place" v="locality" />
		<tag k="ssr:stedsnr" v="81038" />
	</node>
	<node id="-918520" lat="70.4503861548" lon="30.1604373524">
		<tag k="name" v="Sløkholmdalen" />
		<tag k="natural" v="valley" />
		<tag k="place" v="locality" />
		<tag k="ssr:stedsnr" v="80890" />
	</node>
	<node id="-918517" lat="70.5358917053" lon="29.9710708259">
		<tag k="name" v="Storhaugdalen" />
>>>>>>> e1d4bc35ff8a6074a6f2e91616a996b547c36f15
		<tag k="natural" v="valley" />
		<tag k="place" v="locality" />
		<tag k="ssr:stedsnr" v="30466" />
	</node>
<<<<<<< HEAD
	<node lat="70.49256670735485" lon="30.087359641847474" id="-41910">
		<tag k="name" v="Gamslettdalen" />
		<tag k="natural" v="valley" />
		<tag k="place" v="locality" />
		<tag k="ssr:stedsnr" v="81909" />
	</node>
	<node lat="70.49340281900551" lon="30.286184517628403" id="-41911">
		<tag k="name" v="Gunnargamdalen" />
		<tag k="natural" v="valley" />
		<tag k="place" v="locality" />
		<tag k="ssr:stedsnr" v="81911" />
	</node>
	<node lat="70.45622781354493" lon="29.71741816117428" id="-41913">
		<tag k="fixme" v="consider natural=peak for the most distinct mountains in the district" />
		<tag k="name" v="Krokfjellet - Roahkkoaivi" />
		<tag k="name:no" v="Krokfjellet" />
		<tag k="name:se" v="Roahkkoaivi" />
=======
	<node id="-918516" lat="70.5006778167" lon="29.8539736456">
		<tag k="name" v="Gamsletta" />
		<tag k="place" v="locality" />
		<tag k="ssr:stedsnr" v="30402" />
	</node>
	<node id="-918513" lat="70.608027808" lon="29.6454987832">
		<tag k="name" v="Tverrelvdalen" />
		<tag k="natural" v="valley" />
		<tag k="place" v="locality" />
		<tag k="ssr:stedsnr" v="30260" />
	</node>
	<node id="-918511" lat="70.4602417045" lon="29.5394821256">
		<tag k="name" v="Viddene - Morešveaiskáidi" />
		<tag k="name:no" v="Viddene" />
		<tag k="name:se" v="Morešveaiskáidi" />
		<tag k="natural" v="plateau" />
		<tag k="old_name:se" v="Mårešvæjskaidi" />
		<tag k="ssr:stedsnr" v="20982" />
	</node>
	<node id="-918508" lat="70.6765750327" lon="29.6249654984">
		<tag k="fixme" v="consider natural=peak for the most distinct mountains in the district" />
		<tag k="name" v="Rubbedalshøgda" />
>>>>>>> e1d4bc35ff8a6074a6f2e91616a996b547c36f15
		<tag k="natural" v="hill" />
		<tag k="old_name:se" v="Roakkoaivi" />
		<tag k="place" v="locality" />
<<<<<<< HEAD
		<tag k="ssr:stedsnr" v="86983" />
	</node>
	<node lat="70.44463893728152" lon="30.385009443765878" id="-41914">
		<tag k="fixme" v="consider natural=peak for the most distinct mountains in the district" />
		<tag k="name" v="Heastačielgi" />
		<tag k="name:se" v="Heastačielgi" />
		<tag k="natural" v="hill" />
		<tag k="old_name:se" v="Hæstačielgi" />
		<tag k="place" v="locality" />
		<tag k="ssr:stedsnr" v="140884" />
	</node>
	<node lat="70.39965838203838" lon="30.262603946444795" id="-41915">
		<tag k="name" v="Juovkkaidávži" />
		<tag k="name:se" v="Juovkkaidávži" />
		<tag k="natural" v="valley" />
		<tag k="old_name:se" v="Juovkaidavži" />
		<tag k="place" v="locality" />
		<tag k="ssr:stedsnr" v="140885" />
	</node>
	<node lat="70.66721947227995" lon="29.701384885232066" id="-41919">
		<tag k="fixme" v="consider natural=peak for the most distinct mountains in the district" />
		<tag k="name" v="Kyst-Rubbedalshøgda" />
		<tag k="natural" v="hill" />
		<tag k="place" v="locality" />
		<tag k="ssr:stedsnr" v="145432" />
	</node>
	<node lat="70.61351948421277" lon="30.322990120441105" id="-41920">
		<tag k="name" v="Klubbespiret" />
		<tag k="natural" v="hill" />
		<tag k="place" v="locality" />
		<tag k="ssr:stedsnr" v="146478" />
	</node>
	<node lat="70.60926391541672" lon="29.577793275009636" id="-41921">
		<tag k="name" v="Bakkehøgdene" />
		<tag k="natural" v="hill" />
		<tag k="place" v="locality" />
		<tag k="ssr:stedsnr" v="151268" />
	</node>
	<node lat="70.5104417031597" lon="29.87862641177159" id="-41922">
		<tag k="name" v="Falkedalen" />
		<tag k="natural" v="valley" />
		<tag k="place" v="locality" />
		<tag k="ssr:stedsnr" v="152405" />
	</node>
	<node lat="70.5067833688266" lon="29.788554257021385" id="-41924">
		<tag k="name" v="Reindalen" />
		<tag k="natural" v="valley" />
		<tag k="place" v="locality" />
		<tag k="ssr:stedsnr" v="262036" />
	</node>
	<node lat="70.45245004443774" lon="30.091759613076388" id="-41925">
		<tag k="name" v="Aslak Gamslettdalen" />
		<tag k="natural" v="valley" />
		<tag k="place" v="locality" />
		<tag k="ssr:stedsnr" v="262910" />
	</node>
	<node lat="70.48711114988251" lon="30.14824848231971" id="-41931">
		<tag k="name" v="Steinelvdalen" />
		<tag k="natural" v="valley" />
		<tag k="place" v="locality" />
		<tag k="ssr:stedsnr" v="202901" />
	</node>
	<node lat="70.4715833768445" lon="30.099470726735856" id="-41932">
		<tag k="name" v="Vesterdalen" />
		<tag k="natural" v="valley" />
		<tag k="place" v="locality" />
		<tag k="ssr:stedsnr" v="202902" />
	</node>
	<node lat="70.49820002915236" lon="29.60686821703909" id="-41937">
		<tag k="fixme" v="consider natural=peak for the most distinct mountains in the district" />
		<tag k="name" v="Skoghøgda - Vuovdeoaivi" />
		<tag k="name:no" v="Skoghøgda" />
		<tag k="name:se" v="Vuovdeoaivi" />
		<tag k="natural" v="hill" />
		<tag k="place" v="locality" />
		<tag k="ssr:stedsnr" v="450991" />
	</node>
	<node lat="70.51002503971375" lon="29.898004186552807" id="-41938">
		<tag k="name" v="Nerran" />
		<tag k="natural" v="slope" />
		<tag k="place" v="locality" />
		<tag k="ssr:stedsnr" v="455364" />
	</node>
	<node lat="70.51238892329424" lon="29.93474307251005" id="-41940">
		<tag k="name" v="Brendbakken" />
		<tag k="natural" v="slope" />
		<tag k="place" v="locality" />
		<tag k="ssr:stedsnr" v="455401" />
	</node>
	<node lat="70.60993615302993" lon="30.308759573550265" id="-41941">
		<tag k="fixme" v="consider natural=peak for the most distinct mountains in the district" />
		<tag k="name" v="Syltefjordklubben - Oardovuonklubbu" />
		<tag k="name:no" v="Syltefjordklubben" />
		<tag k="name:se" v="Oardovuonklubbu" />
=======
		<tag k="ssr:stedsnr" v="20479" />
	</node>
	<node id="-918504" lat="70.6205833647" lon="29.7787265152">
		<tag k="name" v="Gatsbelhøgda - Gazzabealčohkka" />
		<tag k="name:no" v="Gatsbelhøgda" />
		<tag k="name:se" v="Gazzabealčohkka" />
		<tag k="natural" v="hill" />
		<tag k="old_name:se" v="Gazzabælčåkka" />
		<tag k="place" v="locality" />
		<tag k="ssr:stedsnr" v="20455" />
	</node>
	<node id="-918503" lat="70.5486611494" lon="30.4222650287">
		<tag k="fixme" v="consider natural=peak for the most distinct mountains in the district" />
		<tag k="name" v="Svartnesbruna" />
		<tag k="natural" v="hill" />
		<tag k="place" v="locality" />
		<tag k="ssr:stedsnr" v="20061" />
	</node>
	<node id="-918493" lat="70.6468361428" lon="29.662040479">
		<tag k="name" v="Skolelvgrenan" />
		<tag k="natural" v="slope" />
		<tag k="place" v="locality" />
		<tag k="ssr:stedsnr" v="941336" />
	</node>
	<node id="-918490" lat="70.5144528181" lon="30.2271095736">
		<tag k="fixme" v="consider natural=peak for the most distinct mountains in the district" />
		<tag k="name" v="Rødbergan" />
		<tag k="natural" v="hill" />
		<tag k="place" v="locality" />
		<tag k="ssr:stedsnr" v="935457" />
	</node>
	<node id="-918489" lat="70.6319833626" lon="29.8224348336">
		<tag k="name" v="Prestelvhøgda" />
		<tag k="natural" v="hill" />
		<tag k="place" v="locality" />
		<tag k="ssr:stedsnr" v="819416" />
	</node>
	<node id="-918488" lat="70.5968139213" lon="29.6486210244">
		<tag k="name" v="Storbakken" />
		<tag k="natural" v="slope" />
		<tag k="place" v="locality" />
		<tag k="ssr:stedsnr" v="819269" />
	</node>
	<node id="-918486" lat="70.4732611488" lon="29.8197542043">
		<tag k="fixme" v="consider natural=peak for the most distinct mountains in the district" />
		<tag k="name" v="Rássečohkat" />
		<tag k="name:se" v="Rássečohkat" />
		<tag k="natural" v="hill" />
		<tag k="old_name:se" v="Rassečåkkat" />
		<tag k="place" v="locality" />
		<tag k="ssr:stedsnr" v="930977" />
	</node>
	<node id="-918485" lat="70.4280861522" lon="29.9019819446">
		<tag k="fixme" v="consider natural=peak for the most distinct mountains in the district" />
		<tag k="name" v="Kjøpmannskjølen - Noiddiidčearru" />
		<tag k="name:no" v="Kjøpmannskjølen" />
		<tag k="name:se" v="Noiddiidčearru" />
		<tag k="natural" v="hill" />
		<tag k="old_name:se" v="Nåidiidčærro" />
		<tag k="place" v="locality" />
		<tag k="ssr:stedsnr" v="930971" />
	</node>
	<node id="-918483" lat="70.496200046" lon="30.5797232341">
		<tag k="name" v="Middagsdalen" />
		<tag k="natural" v="valley" />
		<tag k="place" v="locality" />
		<tag k="ssr:stedsnr" v="930899" />
	</node>
	<node id="-918481" lat="70.6649611448" lon="29.8816542725">
		<tag k="fixme" v="consider natural=peak for the most distinct mountains in the district" />
		<tag k="name" v="Raudberga" />
		<tag k="natural" v="hill" />
		<tag k="place" v="locality" />
		<tag k="ssr:stedsnr" v="930497" />
	</node>
	<node id="-918480" lat="70.5408250339" lon="29.9751097121">
		<tag k="alt_name" v="Hursidalen" />
		<tag k="name" v="Nordhursidalen" />
		<tag k="natural" v="valley" />
		<tag k="place" v="locality" />
		<tag k="ssr:stedsnr" v="930472" />
	</node>
	<node id="-918479" lat="70.5560722567" lon="29.9592347446">
		<tag k="name" v="Storhaugen" />
		<tag k="natural" v="hill" />
		<tag k="place" v="locality" />
		<tag k="ssr:stedsnr" v="930464" />
	</node>
	<node id="-918471" lat="70.3151167083" lon="29.931076311">
		<tag k="fixme" v="consider natural=peak for the most distinct mountains in the district" />
		<tag k="name" v="Uhcit Ruitu" />
		<tag k="name:se" v="Uhcit Ruitu" />
>>>>>>> e1d4bc35ff8a6074a6f2e91616a996b547c36f15
		<tag k="natural" v="hill" />
		<tag k="old_name:se" v="Ruito, uccit" />
		<tag k="place" v="locality" />
<<<<<<< HEAD
		<tag k="ssr:stedsnr" v="262023" />
	</node>
	<node lat="70.53693059772252" lon="30.497170535161903" id="-41945">
		<tag k="name" v="Gamvikdalen" />
		<tag k="natural" v="valley" />
		<tag k="place" v="locality" />
		<tag k="ssr:stedsnr" v="263080" />
	</node>
	<node lat="70.4760250407382" lon="30.198070687001827" id="-41946">
		<tag k="name" v="Sandsletta" />
		<tag k="place" v="locality" />
		<tag k="ssr:stedsnr" v="263893" />
	</node>
	<node lat="70.42640280680907" lon="29.451312715399656" id="-41947">
		<tag k="fixme" v="consider natural=peak for the most distinct mountains in the district" />
		<tag k="name" v="Áldačohkka" />
		<tag k="name:se" v="Áldačohkka" />
		<tag k="natural" v="hill" />
		<tag k="old_name:se" v="Aldačåkka" />
		<tag k="place" v="locality" />
		<tag k="ssr:stedsnr" v="263979" />
	</node>
	<node lat="70.69943059172877" lon="29.983890329414457" id="-41954">
		<tag k="name" v="Skipsvikhalsen" />
		<tag k="natural" v="valley" />
		<tag k="place" v="locality" />
		<tag k="ssr:stedsnr" v="323483" />
	</node>
	<node lat="70.46101114579987" lon="29.666487626845637" id="-41956">
		<tag k="name" v="Morešveairoahkki" />
		<tag k="name:se" v="Morešveairoahkki" />
		<tag k="natural" v="valley" />
		<tag k="old_name:se" v="Mårešvæjroakki" />
		<tag k="place" v="locality" />
		<tag k="ssr:stedsnr" v="323978" />
	</node>
	<node lat="70.6480333681009" lon="29.904204242851677" id="-41957">
		<tag k="fixme" v="consider natural=peak for the most distinct mountains in the district" />
		<tag k="name" v="Rydbergneset" />
		<tag k="natural" v="hill" />
		<tag k="place" v="locality" />
		<tag k="ssr:stedsnr" v="329503" />
	</node>
	<node lat="70.63418614455996" lon="29.690468236719955" id="-41958">
		<tag k="name" v="Skolelvdalen" />
		<tag k="natural" v="valley" />
		<tag k="place" v="locality" />
		<tag k="ssr:stedsnr" v="334296" />
	</node>
	<node lat="70.55037225754528" lon="29.99773747802237" id="-41959">
		<tag k="fixme" v="consider natural=peak for the most distinct mountains in the district" />
		<tag k="name" v="Steinfjellet" />
		<tag k="natural" v="hill" />
		<tag k="place" v="locality" />
		<tag k="ssr:stedsnr" v="334450" />
	</node>
	<node lat="70.50080559224756" lon="30.042992989776245" id="-41960">
		<tag k="fixme" v="consider natural=peak for the most distinct mountains in the district" />
		<tag k="name" v="Oterfjellet" />
		<tag k="natural" v="hill" />
		<tag k="place" v="locality" />
		<tag k="ssr:stedsnr" v="384007" />
	</node>
	<node lat="70.5616750355496" lon="30.037820810282412" id="-41961">
		<tag k="name" v="Nordfjorddalen" />
		<tag k="natural" v="valley" />
		<tag k="place" v="locality" />
		<tag k="ssr:stedsnr" v="384047" />
	</node>
	<node lat="70.51373059735754" lon="30.432195571776884" id="-41962">
		<tag k="name" v="Syltevikmoan" />
		<tag k="place" v="locality" />
		<tag k="ssr:stedsnr" v="384001" />
	</node>
	<node lat="70.46520838247129" lon="30.729728687607153" id="-41964">
		<tag k="name" v="Seglkollen" />
		<tag k="natural" v="hill" />
		<tag k="place" v="locality" />
		<tag k="ssr:stedsnr" v="384905" />
	</node>
	<node lat="70.51703336696278" lon="29.92511528633124" id="-41968">
		<tag k="name" v="Moan" />
		<tag k="place" v="locality" />
		<tag k="ssr:stedsnr" v="394387" />
	</node>
	<node lat="70.66429447890023" lon="29.943626448782314" id="-41971">
		<tag k="fixme" v="consider natural=peak for the most distinct mountains in the district" />
		<tag k="name" v="Makkaurfjella" />
		<tag k="natural" v="hill" />
		<tag k="place" v="locality" />
		<tag k="ssr:stedsnr" v="445499" />
	</node>
	<node lat="70.54729726290552" lon="30.008351364571197" id="-41974">
		<tag k="name" v="Gardijåkkdalen" />
		<tag k="natural" v="valley" />
		<tag k="place" v="locality" />
		<tag k="ssr:stedsnr" v="455477" />
	</node>
	<node lat="70.5252250327909" lon="29.319190571306102" id="-41975">
		<tag k="name" v="Tanadalen" />
		<tag k="natural" v="valley" />
		<tag k="place" v="locality" />
		<tag k="ssr:stedsnr" v="505505" />
	</node>
	<node lat="70.59782225078489" lon="29.634940459917043" id="-41976">
		<tag k="name" v="Jonatoppen - Jovnnačohkka" />
		<tag k="name:no" v="Jonatoppen" />
		<tag k="name:se" v="Jovnnačohkka" />
		<tag k="natural" v="hill" />
		<tag k="old_name:se" v="Jåvnačåkka" />
		<tag k="place" v="locality" />
		<tag k="ssr:stedsnr" v="505472" />
	</node>
	<node lat="70.4657750366659" lon="30.07178464540591" id="-41979">
		<tag k="name" v="Tobiasdalen" />
		<tag k="natural" v="valley" />
		<tag k="place" v="locality" />
		<tag k="ssr:stedsnr" v="505877" />
	</node>
	<node lat="70.29649726403954" lon="30.074115119059794" id="-41981">
		<tag k="name" v="Grythaugen - Stuorra Ruitu - Patatunturi" />
		<tag k="name:fkv" v="Patatunturi" />
		<tag k="name:no" v="Grythaugen" />
		<tag k="name:se" v="Stuorra Ruitu" />
		<tag k="natural" v="hill" />
		<tag k="old_name:se" v="Ruito, stuorra" />
		<tag k="place" v="locality" />
		<tag k="ssr:stedsnr" v="505910" />
	</node>
	<node lat="70.3784417107456" lon="29.940893012310465" id="-41982">
		<tag k="name" v="Sandfjorddalen" />
=======
		<tag k="ssr:stedsnr" v="748917" />
	</node>
	<node id="-918469" lat="70.6317472579" lon="29.8940153595">
		<tag k="name" v="Skovikhøgda" />
		<tag k="natural" v="hill" />
		<tag k="place" v="locality" />
		<tag k="ssr:stedsnr" v="748460" />
	</node>
	<node id="-918464" lat="70.530780593" lon="30.2894512036">
		<tag k="name" v="Romsdalen" />
		<tag k="natural" v="valley" />
		<tag k="place" v="locality" />
		<tag k="ssr:stedsnr" v="748016" />
	</node>
	<node id="-918460" lat="70.5860611447" lon="29.6099071255">
		<tag k="name" v="Beigårdtoppen" />
		<tag k="natural" v="hill" />
		<tag k="place" v="locality" />
		<tag k="ssr:stedsnr" v="698122" />
	</node>
	<node id="-918459" lat="70.5902083668" lon="29.6398293582">
		<tag k="name" v="Beigårdskaret" />
		<tag k="natural" v="valley" />
		<tag k="place" v="locality" />
		<tag k="ssr:stedsnr" v="698121" />
	</node>
	<node id="-918451" lat="70.5103805876" lon="29.8545847742">
		<tag k="name" v="Johandalen" />
		<tag k="natural" v="valley" />
		<tag k="place" v="locality" />
		<tag k="ssr:stedsnr" v="880374" />
	</node>
	<node id="-918447" lat="70.6503305911" lon="29.8827514669">
		<tag k="fixme" v="consider natural=peak for the most distinct mountains in the district" />
		<tag k="name" v="Raudberghøgda" />
		<tag k="natural" v="hill" />
		<tag k="place" v="locality" />
		<tag k="ssr:stedsnr" v="661066" />
	</node>
	<node id="-918446" lat="70.4302389398" lon="30.5791843282">
		<tag k="fixme" v="consider natural=peak for the most distinct mountains in the district" />
		<tag k="name" v="Seglkollfjellet - Seavlačearru" />
		<tag k="name:no" v="Seglkollfjellet" />
		<tag k="name:se" v="Seavlačearru" />
		<tag k="natural" v="hill" />
		<tag k="old_name:se" v="Sævlačearro" />
		<tag k="place" v="locality" />
		<tag k="ssr:stedsnr" v="632853" />
	</node>
	<node id="-918444" lat="70.6374805886" lon="29.6917459939">
		<tag k="name" v="Melkarn" />
		<tag k="natural" v="hill" />
		<tag k="place" v="locality" />
		<tag k="ssr:stedsnr" v="627476" />
	</node>
	<node id="-918442" lat="70.5604611467" lon="30.1114179791">
		<tag k="fixme" v="consider natural=peak for the most distinct mountains in the district" />
		<tag k="name" v="Syltefjordhøgda" />
		<tag k="natural" v="hill" />
		<tag k="place" v="locality" />
		<tag k="ssr:stedsnr" v="722093" />
	</node>
	<node id="-918441" lat="70.5319500336" lon="30.026659697">
		<tag k="name" v="Kvenskoran" />
		<tag k="natural" v="hill" />
		<tag k="place" v="locality" />
		<tag k="ssr:stedsnr" v="576515" />
	</node>
	<node id="-918438" lat="70.5198611454" lon="29.5701793399">
		<tag k="name" v="Arondalen" />
		<tag k="natural" v="valley" />
		<tag k="place" v="locality" />
		<tag k="ssr:stedsnr" v="565426" />
	</node>
	<node id="-918437" lat="70.5843805903" lon="29.7865153807">
		<tag k="fixme" v="consider natural=peak for the most distinct mountains in the district" />
		<tag k="name" v="Námmečohkka" />
		<tag k="name:se" v="Námmečohkka" />
		<tag k="natural" v="hill" />
		<tag k="old_name:se" v="Nammečåkka" />
		<tag k="place" v="locality" />
		<tag k="ssr:stedsnr" v="565423" />
	</node>
	<node id="-918436" lat="70.5706444722" lon="29.7344459665">
		<tag k="name" v="Oroščohkka" />
		<tag k="name:se" v="Oroščohkka" />
		<tag k="natural" v="hill" />
		<tag k="old_name:se" v="Åruščåkka" />
		<tag k="place" v="locality" />
		<tag k="ssr:stedsnr" v="565422" />
	</node>
	<node id="-918435" lat="70.5698833719" lon="29.8530042388">
		<tag k="fixme" v="consider natural=peak for the most distinct mountains in the district" />
		<tag k="name" v="Båtsfjordfjellet - Máhkirčearru" />
		<tag k="name:no" v="Båtsfjordfjellet" />
		<tag k="name:se" v="Máhkirčearru" />
		<tag k="natural" v="hill" />
		<tag k="old_name:se" v="Makkirčærro" />
		<tag k="place" v="locality" />
		<tag k="ssr:stedsnr" v="565421" />
	</node>
	<node id="-918434" lat="70.5058833657" lon="29.8937014109">
		<tag k="name" v="Reingjerdan" />
		<tag k="place" v="locality" />
		<tag k="ssr:stedsnr" v="698349" />
	</node>
	<node id="-918427" lat="70.4945250473" lon="30.528376064">
		<tag k="name" v="Pølsedalen" />
		<tag k="natural" v="valley" />
		<tag k="place" v="locality" />
		<tag k="ssr:stedsnr" v="688886" />
	</node>
	<node id="-918426" lat="70.5123805881" lon="29.376801653">
		<tag k="name" v="Elvestrandshøgda" />
		<tag k="natural" v="hill" />
		<tag k="place" v="locality" />
		<tag k="ssr:stedsnr" v="688508" />
	</node>
	<node id="-918425" lat="70.6955750339" lon="29.7409237787">
		<tag k="fixme" v="multiple name tags, choose one and add the other to alt_name" />
		<tag k="name" v="Rubbedalen;Austre Rubbedalen" />
>>>>>>> e1d4bc35ff8a6074a6f2e91616a996b547c36f15
		<tag k="natural" v="valley" />
		<tag k="old_name" v="Rubbedalen, austre" />
		<tag k="place" v="locality" />
<<<<<<< HEAD
		<tag k="ssr:stedsnr" v="505963" />
	</node>
	<node lat="70.58895836501655" lon="29.646451551042226" id="-41986">
		<tag k="name" v="Bardosenbakken" />
		<tag k="natural" v="slope" />
		<tag k="place" v="locality" />
		<tag k="ssr:stedsnr" v="516134" />
	</node>
	<node lat="70.52170003138782" lon="29.730990396102225" id="-41995">
=======
		<tag k="ssr:stedsnr" v="688478" />
	</node>
	<node id="-918422" lat="70.6260416977" lon="29.8183042792">
		<tag k="name" v="Skovikdalen" />
		<tag k="natural" v="valley" />
		<tag k="place" v="locality" />
		<tag k="ssr:stedsnr" v="688465" />
	</node>
	<node id="-918415" lat="70.5985805892" lon="29.6647432324">
		<tag k="name" v="Båtsfjorddalen" />
		<tag k="natural" v="valley" />
		<tag k="old_name" v="Båtsfjordalen" />
		<tag k="place" v="locality" />
		<tag k="ssr:stedsnr" v="687463" />
	</node>
	<node id="-918414" lat="70.5217000314" lon="29.7309903961">
>>>>>>> e1d4bc35ff8a6074a6f2e91616a996b547c36f15
		<tag k="name" v="Skarpdalen" />
		<tag k="natural" v="valley" />
		<tag k="place" v="locality" />
		<tag k="ssr:stedsnr" v="687439" />
	</node>
<<<<<<< HEAD
	<node lat="70.53965836245874" lon="29.466865521788165" id="-41996">
=======
	<node id="-918413" lat="70.5396583625" lon="29.4668655218">
>>>>>>> e1d4bc35ff8a6074a6f2e91616a996b547c36f15
		<tag k="name" v="Adamstoppen - Áttáčohkka" />
		<tag k="name:no" v="Adamstoppen" />
		<tag k="name:se" v="Áttáčohkka" />
		<tag k="natural" v="hill" />
		<tag k="old_name:se" v="Addačåkka" />
		<tag k="place" v="locality" />
		<tag k="ssr:stedsnr" v="687431" />
	</node>
<<<<<<< HEAD
	<node lat="70.59858058915925" lon="29.664743232396123" id="-41997">
		<tag k="name" v="Båtsfjorddalen" />
=======
	<node id="-918406" lat="70.4657750367" lon="30.0717846454">
		<tag k="name" v="Tobiasdalen" />
>>>>>>> e1d4bc35ff8a6074a6f2e91616a996b547c36f15
		<tag k="natural" v="valley" />
		<tag k="old_name" v="Båtsfjordalen" />
		<tag k="place" v="locality" />
<<<<<<< HEAD
		<tag k="ssr:stedsnr" v="687463" />
	</node>
	<node lat="70.51238058809203" lon="29.376801653011146" id="-42001">
		<tag k="name" v="Elvestrandshøgda" />
=======
		<tag k="ssr:stedsnr" v="505877" />
	</node>
	<node id="-918403" lat="70.296497264" lon="30.0741151191">
		<tag k="loc_name:fkv" v="Patatunturi" />
		<tag k="name" v="Grythaugen - Stuorra Ruitu" />
		<tag k="name:no" v="Grythaugen" />
		<tag k="name:se" v="Stuorra Ruitu" />
>>>>>>> e1d4bc35ff8a6074a6f2e91616a996b547c36f15
		<tag k="natural" v="hill" />
		<tag k="old_name:se" v="Ruito, stuorra" />
		<tag k="place" v="locality" />
<<<<<<< HEAD
		<tag k="ssr:stedsnr" v="688508" />
	</node>
	<node lat="70.62604169768484" lon="29.81830427924033" id="-42002">
		<tag k="name" v="Skovikdalen" />
		<tag k="natural" v="valley" />
		<tag k="place" v="locality" />
		<tag k="ssr:stedsnr" v="688465" />
	</node>
	<node lat="70.69557503386615" lon="29.740923778665774" id="-42005">
		<tag k="fixme" v="multiple name tags, choose one and add the other to alt_name" />
		<tag k="name" v="Rubbedalen;Austre Rubbedalen" />
		<tag k="natural" v="valley" />
		<tag k="old_name" v="Rubbedalen, austre" />
		<tag k="place" v="locality" />
		<tag k="ssr:stedsnr" v="688478" />
	</node>
	<node lat="70.4557250411719" lon="30.046401326265887" id="-42006">
		<tag k="name" v="Krokdalen" />
		<tag k="natural" v="valley" />
		<tag k="place" v="locality" />
		<tag k="ssr:stedsnr" v="565895" />
	</node>
	<node lat="70.38653892538446" lon="29.732234773073852" id="-42011">
		<tag k="fixme" v="consider natural=peak for the most distinct mountains in the district" />
		<tag k="name" v="Ruossoaivi" />
		<tag k="name:se" v="Ruossoaivi" />
		<tag k="natural" v="hill" />
		<tag k="place" v="locality" />
		<tag k="ssr:stedsnr" v="566965" />
	</node>
	<node lat="70.50344447946156" lon="29.857265329639727" id="-42015">
		<tag k="name" v="Solheim" />
=======
		<tag k="ssr:stedsnr" v="505910" />
	</node>
	<node id="-918400" lat="70.5978222508" lon="29.6349404599">
		<tag k="name" v="Jonatoppen - Jovnnačohkka" />
		<tag k="name:no" v="Jonatoppen" />
		<tag k="name:se" v="Jovnnačohkka" />
		<tag k="natural" v="hill" />
		<tag k="old_name:se" v="Jåvnačåkka" />
		<tag k="place" v="locality" />
		<tag k="ssr:stedsnr" v="505472" />
	</node>
	<node id="-918397" lat="70.5252250328" lon="29.3191905713">
		<tag k="name" v="Tanadalen" />
		<tag k="natural" v="valley" />
		<tag k="place" v="locality" />
		<tag k="ssr:stedsnr" v="505505" />
	</node>
	<node id="-918394" lat="70.5463056012" lon="30.6121399033">
		<tag k="fixme" v="consider natural=peak for the most distinct mountains in the district" />
		<tag k="name" v="Hardbaken" />
		<tag k="natural" v="hill" />
		<tag k="place" v="locality" />
		<tag k="ssr:stedsnr" v="505053" />
	</node>
	<node id="-918386" lat="70.6246944744" lon="29.67314323">
		<tag k="name" v="Neptundalen" />
		<tag k="natural" v="valley" />
>>>>>>> e1d4bc35ff8a6074a6f2e91616a996b547c36f15
		<tag k="place" v="locality" />
		<tag k="ssr:stedsnr" v="516320" />
	</node>
<<<<<<< HEAD
	<node lat="70.50588336567012" lon="29.893701410898966" id="-42019">
		<tag k="name" v="Reingjerdan" />
		<tag k="place" v="locality" />
		<tag k="ssr:stedsnr" v="698349" />
	</node>
	<node lat="70.5031833665124" lon="29.765587576432967" id="-42022">
		<tag k="name" v="Strupen" />
		<tag k="natural" v="valley" />
		<tag k="place" v="locality" />
		<tag k="ssr:stedsnr" v="626054" />
	</node>
	<node lat="70.64252503250994" lon="30.154020778102556" id="-42023">
		<tag k="name" v="Bjørndalen" />
		<tag k="natural" v="valley" />
		<tag k="place" v="locality" />
		<tag k="ssr:stedsnr" v="626056" />
	</node>
	<node lat="70.66648336991648" lon="30.118931922346157" id="-42024">
		<tag k="fixme" v="consider natural=peak for the most distinct mountains in the district" />
		<tag k="name" v="Korsnesfjellet" />
=======
	<node id="-918385" lat="70.588958365" lon="29.646451551">
		<tag k="name" v="Bardosenbakken" />
		<tag k="natural" v="slope" />
		<tag k="place" v="locality" />
		<tag k="ssr:stedsnr" v="516134" />
	</node>
	<node id="-918375" lat="70.6742611498" lon="30.1940235503">
		<tag k="name" v="Korsnesaksla" />
		<tag k="place" v="locality" />
		<tag k="ssr:stedsnr" v="510433" />
	</node>
	<node id="-918373" lat="70.3784417107" lon="29.9408930123">
		<tag k="name" v="Sandfjorddalen" />
		<tag k="natural" v="valley" />
		<tag k="place" v="locality" />
		<tag k="ssr:stedsnr" v="505963" />
	</node>
	<node id="-918372" lat="70.4965861581" lon="30.5453093689">
		<tag k="name" v="Gretehola" />
		<tag k="natural" v="valley" />
		<tag k="place" v="locality" />
		<tag k="ssr:stedsnr" v="505887" />
	</node>
	<node id="-918371" lat="70.5346500374" lon="29.9470736301">
		<tag k="name" v="Sørhursidalen" />
		<tag k="natural" v="valley" />
		<tag k="place" v="locality" />
		<tag k="ssr:stedsnr" v="505445" />
	</node>
	<node id="-918368" lat="70.5205750457" lon="30.4397539053">
		<tag k="fixme" v="consider natural=peak for the most distinct mountains in the district" />
		<tag k="name" v="Baikačearru" />
		<tag k="name:se" v="Baikačearru" />
>>>>>>> e1d4bc35ff8a6074a6f2e91616a996b547c36f15
		<tag k="natural" v="hill" />
		<tag k="old_name:se" v="Baikačærro" />
		<tag k="place" v="locality" />
<<<<<<< HEAD
		<tag k="ssr:stedsnr" v="626060" />
	</node>
	<node lat="70.53980003738134" lon="30.04806523375228" id="-42025">
		<tag k="fixme" v="consider natural=peak for the most distinct mountains in the district" />
		<tag k="name" v="Hamnefjellet" />
		<tag k="natural" v="hill" />
		<tag k="place" v="locality" />
		<tag k="ssr:stedsnr" v="626063" />
	</node>
	<node lat="70.46876115312817" lon="30.182145700776346" id="-42028">
		<tag k="fixme" v="consider natural=peak for the most distinct mountains in the district" />
		<tag k="name" v="Steinelvdalfjellet" />
		<tag k="natural" v="hill" />
		<tag k="place" v="locality" />
		<tag k="ssr:stedsnr" v="626897" />
	</node>
	<node lat="70.45525004026139" lon="30.116862386833862" id="-42029">
		<tag k="fixme" v="consider natural=peak for the most distinct mountains in the district" />
		<tag k="name" v="Mellomfjellet" />
		<tag k="natural" v="hill" />
		<tag k="place" v="locality" />
		<tag k="ssr:stedsnr" v="626898" />
	</node>
	<node lat="70.46047781841722" lon="30.15437347324391" id="-42030">
		<tag k="name" v="Mariedalen" />
		<tag k="natural" v="valley" />
		<tag k="place" v="locality" />
		<tag k="ssr:stedsnr" v="626901" />
	</node>
	<node lat="70.36184448622721" lon="29.89720411970995" id="-42031">
		<tag k="fixme" v="consider natural=peak for the most distinct mountains in the district" />
		<tag k="name" v="Gárgaš" />
		<tag k="name:se" v="Gárgaš" />
=======
		<tag k="ssr:stedsnr" v="505001" />
	</node>
	<node id="-918361" lat="70.4733417131" lon="30.5892843205">
		<tag k="name" v="Finnvikdalen" />
		<tag k="natural" v="valley" />
		<tag k="place" v="locality" />
		<tag k="ssr:stedsnr" v="384878" />
	</node>
	<node id="-918359" lat="70.5262500367" lon="30.0104430232">
		<tag k="fixme" v="consider natural=peak for the most distinct mountains in the district" />
		<tag k="name" v="Uhcagáisá" />
		<tag k="name:se" v="Uhcagáisá" />
		<tag k="natural" v="hill" />
		<tag k="place" v="locality" />
		<tag k="ssr:stedsnr" v="334408" />
	</node>
	<node id="-918356" lat="70.6480333681" lon="29.9042042429">
		<tag k="fixme" v="consider natural=peak for the most distinct mountains in the district" />
		<tag k="name" v="Rydbergneset" />
		<tag k="natural" v="hill" />
		<tag k="place" v="locality" />
		<tag k="ssr:stedsnr" v="329503" />
	</node>
	<node id="-918353" lat="70.5472972629" lon="30.0083513646">
		<tag k="name" v="Gardijåkkdalen" />
		<tag k="natural" v="valley" />
		<tag k="place" v="locality" />
		<tag k="ssr:stedsnr" v="455477" />
	</node>
	<node id="-918352" lat="70.5067833688" lon="29.788554257">
		<tag k="name" v="Reindalen" />
		<tag k="natural" v="valley" />
		<tag k="place" v="locality" />
		<tag k="ssr:stedsnr" v="262036" />
	</node>
	<node id="-918349" lat="70.609936153" lon="30.3087595736">
		<tag k="fixme" v="consider natural=peak for the most distinct mountains in the district" />
		<tag k="loc_name:se" v="Oardovuonklubbu" />
		<tag k="name" v="Syltefjordklubben" />
		<tag k="name:no" v="Syltefjordklubben" />
>>>>>>> e1d4bc35ff8a6074a6f2e91616a996b547c36f15
		<tag k="natural" v="hill" />
		<tag k="old_name:se" v="Gargaš" />
		<tag k="place" v="locality" />
<<<<<<< HEAD
		<tag k="ssr:stedsnr" v="626912" />
	</node>
	<node lat="70.69526114046087" lon="29.970776451576025" id="-42033">
		<tag k="name" v="Rossmålsaksla" />
		<tag k="natural" v="ridge" />
		<tag k="place" v="locality" />
		<tag k="ssr:stedsnr" v="632514" />
	</node>
	<node lat="70.49452504725214" lon="30.528376063987036" id="-42039">
		<tag k="name" v="Pølsedalen" />
		<tag k="natural" v="valley" />
		<tag k="place" v="locality" />
		<tag k="ssr:stedsnr" v="688886" />
	</node>
	<node lat="70.59020836679784" lon="29.63982935819081" id="-42041">
		<tag k="name" v="Beigårdskaret" />
		<tag k="natural" v="valley" />
		<tag k="place" v="locality" />
		<tag k="ssr:stedsnr" v="698121" />
	</node>
	<node lat="70.58606114465194" lon="29.6099071254962" id="-42042">
		<tag k="name" v="Beigårdtoppen" />
		<tag k="natural" v="hill" />
		<tag k="place" v="locality" />
		<tag k="ssr:stedsnr" v="698122" />
	</node>
	<node lat="70.53078059304607" lon="30.289451203577233" id="-42047">
		<tag k="name" v="Romsdalen" />
		<tag k="natural" v="valley" />
		<tag k="place" v="locality" />
		<tag k="ssr:stedsnr" v="748016" />
	</node>
	<node lat="70.31511670826683" lon="29.931076311026608" id="-42049">
		<tag k="fixme" v="consider natural=peak for the most distinct mountains in the district" />
		<tag k="name" v="Uhcit Ruitu" />
		<tag k="name:se" v="Uhcit Ruitu" />
=======
		<tag k="ssr:stedsnr" v="262023" />
	</node>
	<node id="-918348" lat="70.5123889233" lon="29.9347430725">
		<tag k="name" v="Brendbakken" />
		<tag k="natural" v="slope" />
		<tag k="place" v="locality" />
		<tag k="ssr:stedsnr" v="455401" />
	</node>
	<node id="-918347" lat="70.5100250397" lon="29.8980041866">
		<tag k="name" v="Nerran" />
		<tag k="natural" v="slope" />
		<tag k="place" v="locality" />
		<tag k="ssr:stedsnr" v="455364" />
	</node>
	<node id="-918345" lat="70.4982000292" lon="29.606868217">
		<tag k="fixme" v="consider natural=peak for the most distinct mountains in the district" />
		<tag k="name" v="Skoghøgda - Vuovdeoaivi" />
		<tag k="name:no" v="Skoghøgda" />
		<tag k="name:se" v="Vuovdeoaivi" />
		<tag k="natural" v="hill" />
		<tag k="place" v="locality" />
		<tag k="ssr:stedsnr" v="450991" />
	</node>
	<node id="-918342" lat="70.6642944789" lon="29.9436264488">
		<tag k="fixme" v="consider natural=peak for the most distinct mountains in the district" />
		<tag k="name" v="Makkaurfjella" />
>>>>>>> e1d4bc35ff8a6074a6f2e91616a996b547c36f15
		<tag k="natural" v="hill" />
		<tag k="old_name:se" v="Ruito, uccit" />
		<tag k="place" v="locality" />
<<<<<<< HEAD
		<tag k="ssr:stedsnr" v="748917" />
	</node>
	<node lat="70.61018336663166" lon="29.838351487584397" id="-42050">
		<tag k="fixme" v="consider natural=peak for the most distinct mountains in the district" />
		<tag k="name" v="Ravnnaš" />
		<tag k="name:se" v="Ravnnaš" />
		<tag k="natural" v="hill" />
		<tag k="old_name:se" v="Ravnaš" />
		<tag k="place" v="locality" />
		<tag k="ssr:stedsnr" v="808438" />
	</node>
	<node lat="70.40563893162154" lon="30.343126126752733" id="-42052">
		<tag k="fixme" v="consider natural=peak for the most distinct mountains in the district" />
		<tag k="name" v="Langryggen - Juovkkaidčearru" />
		<tag k="name:no" v="Langryggen" />
		<tag k="name:se" v="Juovkkaidčearru" />
		<tag k="natural" v="hill" />
		<tag k="old_name:se" v="Juovkaidčærro" />
		<tag k="place" v="locality" />
		<tag k="ssr:stedsnr" v="808885" />
	</node>
	<node lat="70.62229448110544" lon="29.726943198193595" id="-42054">
		<tag k="name" v="Sima" />
		<tag k="place" v="locality" />
		<tag k="ssr:stedsnr" v="809492" />
	</node>
	<node lat="70.59681392134748" lon="29.64862102442398" id="-42057">
		<tag k="name" v="Storbakken" />
		<tag k="natural" v="slope" />
		<tag k="place" v="locality" />
		<tag k="ssr:stedsnr" v="819269" />
	</node>
	<node lat="70.60978336645776" lon="29.650837679875764" id="-42058">
		<tag k="name" v="Gattjåkkhøgda" />
		<tag k="natural" v="hill" />
		<tag k="place" v="locality" />
		<tag k="ssr:stedsnr" v="819252" />
	</node>
	<node lat="70.53885003496755" lon="30.087243002603486" id="-42059">
		<tag k="name" v="Hamnafjellet" />
		<tag k="natural" v="hill" />
		<tag k="place" v="locality" />
		<tag k="ssr:stedsnr" v="819503" />
	</node>
	<node lat="70.54153892379033" lon="29.83032644673905" id="-42065">
		<tag k="fixme" v="consider natural=peak for the most distinct mountains in the district" />
		<tag k="name" v="Gierdogáisá" />
		<tag k="name:se" v="Gierdogáisá" />
		<tag k="natural" v="hill" />
		<tag k="old_name:se" v="Gierdugaisa" />
		<tag k="place" v="locality" />
		<tag k="ssr:stedsnr" v="869480" />
	</node>
	<node lat="70.55607225674116" lon="29.95923474464368" id="-42067">
		<tag k="name" v="Storhaugen" />
		<tag k="natural" v="hill" />
		<tag k="place" v="locality" />
		<tag k="ssr:stedsnr" v="930464" />
	</node>
	<node lat="70.54082503386105" lon="29.975109712058266" id="-42068">
		<tag k="alt_name" v="Hursidalen" />
		<tag k="name" v="Nordhursidalen" />
		<tag k="natural" v="valley" />
		<tag k="place" v="locality" />
		<tag k="ssr:stedsnr" v="930472" />
	</node>
	<node lat="70.42808615224871" lon="29.90198194458704" id="-42071">
		<tag k="fixme" v="consider natural=peak for the most distinct mountains in the district" />
		<tag k="name" v="Kjøpmannskjølen - Noiddiidčearru" />
		<tag k="name:no" v="Kjøpmannskjølen" />
		<tag k="name:se" v="Noiddiidčearru" />
		<tag k="natural" v="hill" />
		<tag k="old_name:se" v="Nåidiidčærro" />
		<tag k="place" v="locality" />
		<tag k="ssr:stedsnr" v="930971" />
	</node>
	<node lat="70.47326114876459" lon="29.819754204265497" id="-42072">
		<tag k="fixme" v="consider natural=peak for the most distinct mountains in the district" />
		<tag k="name" v="Rássečohkat" />
		<tag k="name:se" v="Rássečohkat" />
		<tag k="natural" v="hill" />
		<tag k="old_name:se" v="Rassečåkkat" />
		<tag k="place" v="locality" />
		<tag k="ssr:stedsnr" v="930977" />
	</node>
	<node lat="70.40784448012995" lon="29.47783490007309" id="-42075">
		<tag k="name" v="Skipskjølen - Bealjáidčearru - Kööli" />
		<tag k="name:fkv" v="Kööli" />
		<tag k="name:no" v="Skipskjølen" />
		<tag k="name:se" v="Bealjáidčearru" />
		<tag k="natural" v="plateau" />
		<tag k="old_name:se" v="Bælljaidčearro" />
		<tag k="ssr:stedsnr" v="875970" />
	</node>
	<node lat="70.27272781149783" lon="29.40487656419901" id="-42076">
		<tag k="fixme" v="consider natural=peak for the most distinct mountains in the district" />
		<tag k="name" v="Urfjellet - Jiessavárri - Kivitunturi" />
		<tag k="name:fkv" v="Kivitunturi" />
		<tag k="name:no" v="Urfjellet" />
		<tag k="name:se" v="Jiessavárri" />
=======
		<tag k="ssr:stedsnr" v="445499" />
	</node>
	<node id="-918340" lat="70.6857500354" lon="30.1222847168">
		<tag k="name" v="Reindalen" />
		<tag k="natural" v="valley" />
		<tag k="place" v="locality" />
		<tag k="ssr:stedsnr" v="445050" />
	</node>
	<node id="-918337" lat="70.5560278146" lon="30.0137791623">
		<tag k="fixme" v="consider natural=peak for the most distinct mountains in the district" />
		<tag k="name" v="Gardijåkkhaugen - Gárdočohkka" />
		<tag k="name:no" v="Gardijåkkhaugen" />
		<tag k="name:se" v="Gárdočohkka" />
		<tag k="natural" v="hill" />
		<tag k="old_name:se" v="Gardučåkka" />
		<tag k="place" v="locality" />
		<tag k="ssr:stedsnr" v="445038" />
	</node>
	<node id="-918335" lat="70.4476889391" lon="30.4005788789">
		<tag k="fixme" v="consider natural=peak for the most distinct mountains in the district" />
		<tag k="name" v="Raet" />
		<tag k="natural" v="hill" />
		<tag k="place" v="locality" />
		<tag k="ssr:stedsnr" v="444885" />
	</node>
	<node id="-918334" lat="70.3532028168" lon="30.0283901735">
		<tag k="fixme" v="consider natural=peak for the most distinct mountains in the district" />
		<tag k="name" v="Njuvččaguroaivi" />
		<tag k="name:se" v="Njuvččaguroaivi" />
		<tag k="natural" v="hill" />
		<tag k="old_name:se" v="Njuvčaguroaivi" />
		<tag k="place" v="locality" />
		<tag k="ssr:stedsnr" v="444935" />
	</node>
	<node id="-918333" lat="70.5256083708" lon="29.9124986448">
		<tag k="name" v="Kristiandalen" />
		<tag k="natural" v="valley" />
		<tag k="place" v="locality" />
		<tag k="ssr:stedsnr" v="444428" />
	</node>
	<node id="-918328" lat="70.6672194723" lon="29.7013848852">
		<tag k="fixme" v="consider natural=peak for the most distinct mountains in the district" />
		<tag k="name" v="Kyst-Rubbedalshøgda" />
		<tag k="natural" v="hill" />
		<tag k="place" v="locality" />
		<tag k="ssr:stedsnr" v="145432" />
	</node>
	<node id="-918322" lat="70.4264028068" lon="29.4513127154">
		<tag k="fixme" v="consider natural=peak for the most distinct mountains in the district" />
		<tag k="name" v="Áldačohkka" />
		<tag k="name:se" v="Áldačohkka" />
		<tag k="natural" v="hill" />
		<tag k="old_name:se" v="Aldačåkka" />
		<tag k="place" v="locality" />
		<tag k="ssr:stedsnr" v="263979" />
	</node>
	<node id="-918321" lat="70.4760250407" lon="30.198070687">
		<tag k="name" v="Sandsletta" />
		<tag k="place" v="locality" />
		<tag k="ssr:stedsnr" v="263893" />
	</node>
	<node id="-918318" lat="70.5369305977" lon="30.4971705352">
		<tag k="name" v="Gamvikdalen" />
		<tag k="natural" v="valley" />
		<tag k="place" v="locality" />
		<tag k="ssr:stedsnr" v="263080" />
	</node>
	<node id="-918315" lat="70.4524500444" lon="30.0917596131">
		<tag k="name" v="Aslak Gamslettdalen" />
		<tag k="natural" v="valley" />
		<tag k="place" v="locality" />
		<tag k="ssr:stedsnr" v="262910" />
	</node>
	<node id="-918308" lat="70.493402819" lon="30.2861845176">
		<tag k="name" v="Gunnargamdalen" />
		<tag k="natural" v="valley" />
		<tag k="place" v="locality" />
		<tag k="ssr:stedsnr" v="81911" />
	</node>
	<node id="-918307" lat="70.4925667074" lon="30.0873596418">
		<tag k="name" v="Gamslettdalen" />
		<tag k="natural" v="valley" />
		<tag k="place" v="locality" />
		<tag k="ssr:stedsnr" v="81909" />
	</node>
	<node id="-918306" lat="70.4955528183" lon="30.145295734">
		<tag k="name" v="Søttendalen" />
		<tag k="natural" v="valley" />
		<tag k="place" v="locality" />
		<tag k="ssr:stedsnr" v="81908" />
	</node>
	<node id="-918304" lat="70.5340917067" lon="30.3034484253">
		<tag k="fixme" v="consider natural=peak for the most distinct mountains in the district" />
		<tag k="name" v="Romsdalsbruna" />
		<tag k="natural" v="hill" />
		<tag k="place" v="locality" />
		<tag k="ssr:stedsnr" v="20012" />
	</node>
	<node id="-918749" lat="70.5144500406" lon="30.2271067825">
		<tag k="name" v="Rossmålaksla" />
		<tag k="place" v="locality" />
		<tag k="ssr:stedsnr" v="874452" />
	</node>
	<node id="-918748" lat="70.5144528181" lon="30.2271095736">
		<tag k="fixme" v="consider natural=peak for the most distinct mountains in the district" />
		<tag k="name" v="Tavla" />
>>>>>>> e1d4bc35ff8a6074a6f2e91616a996b547c36f15
		<tag k="natural" v="hill" />
		<tag k="old_name:se" v="Jiessavarri" />
		<tag k="place" v="locality" />
<<<<<<< HEAD
		<tag k="ssr:stedsnr" v="875982" />
	</node>
	<node lat="70.66496114475198" lon="29.881654272511813" id="-42082">
		<tag k="fixme" v="consider natural=peak for the most distinct mountains in the district" />
		<tag k="name" v="Raudberga" />
		<tag k="natural" v="hill" />
		<tag k="place" v="locality" />
		<tag k="ssr:stedsnr" v="930497" />
	</node>
	<node lat="70.49620004602423" lon="30.57972323409355" id="-42085">
		<tag k="name" v="Middagsdalen" />
		<tag k="natural" v="valley" />
		<tag k="place" v="locality" />
		<tag k="ssr:stedsnr" v="930899" />
	</node>
	<node lat="70.51445281805147" lon="30.227109573611727" id="-42086">
		<tag k="fixme" v="consider natural=peak for the most distinct mountains in the district" />
		<tag k="name" v="Rødbergan" />
=======
		<tag k="ssr:stedsnr" v="874446" />
	</node>
	<node id="-918745" lat="70.3206389306" lon="29.8997513229">
		<tag k="name" v="Bjørnskaret - Guovžagurra" />
		<tag k="name:no" v="Bjørnskaret" />
		<tag k="name:se" v="Guovžagurra" />
		<tag k="natural" v="valley" />
		<tag k="place" v="locality" />
		<tag k="ssr:stedsnr" v="870901" />
	</node>
	<node id="-918743" lat="70.4797055961" lon="30.1434623683">
		<tag k="name" v="Austerdalen" />
		<tag k="natural" v="valley" />
		<tag k="place" v="locality" />
		<tag k="ssr:stedsnr" v="870894" />
	</node>
	<node id="-918742" lat="70.4723389298" lon="30.2335901153">
		<tag k="fixme" v="consider natural=peak for the most distinct mountains in the district" />
		<tag k="name" v="Øver-Tavla - Skádjačearru" />
		<tag k="name:no" v="Øver-Tavla" />
		<tag k="name:se" v="Skádjačearru" />
>>>>>>> e1d4bc35ff8a6074a6f2e91616a996b547c36f15
		<tag k="natural" v="hill" />
		<tag k="old_name:se" v="Skaddjačærro;Skadjačearru" />
		<tag k="place" v="locality" />
<<<<<<< HEAD
		<tag k="ssr:stedsnr" v="935457" />
	</node>
	<node lat="70.54866114935493" lon="30.42226502865479" id="-42090">
		<tag k="fixme" v="consider natural=peak for the most distinct mountains in the district" />
		<tag k="name" v="Svartnesbruna" />
		<tag k="natural" v="hill" />
		<tag k="place" v="locality" />
		<tag k="ssr:stedsnr" v="20061" />
	</node>
	<node lat="70.62058336470427" lon="29.77872651523412" id="-42091">
		<tag k="name" v="Gatsbelhøgda - Gazzabealčohkka" />
		<tag k="name:no" v="Gatsbelhøgda" />
		<tag k="name:se" v="Gazzabealčohkka" />
		<tag k="natural" v="hill" />
		<tag k="old_name:se" v="Gazzabælčåkka" />
		<tag k="place" v="locality" />
		<tag k="ssr:stedsnr" v="20455" />
	</node>
	<node lat="70.6765750327097" lon="29.624965498368834" id="-42095">
		<tag k="fixme" v="consider natural=peak for the most distinct mountains in the district" />
		<tag k="name" v="Rubbedalshøgda" />
=======
		<tag k="ssr:stedsnr" v="870884" />
	</node>
	<node id="-918741" lat="70.5372083816" lon="30.5567982825">
		<tag k="fixme" v="consider natural=peak for the most distinct mountains in the district" />
		<tag k="name" v="Ovnen" />
		<tag k="natural" v="hill" />
		<tag k="place" v="locality" />
		<tag k="ssr:stedsnr" v="870013" />
	</node>
	<node id="-918738" lat="70.6100500329" lon="29.6972570967">
		<tag k="alt_name" v="Strømsnesaksla" />
		<tag k="name" v="Straumsnesaksla" />
		<tag k="natural" v="hill" />
		<tag k="place" v="locality" />
		<tag k="ssr:stedsnr" v="869501" />
	</node>
	<node id="-918737" lat="70.5114278074" lon="29.678257076">
		<tag k="name" v="Syltefjorddalen" />
		<tag k="natural" v="valley" />
		<tag k="place" v="locality" />
		<tag k="ssr:stedsnr" v="869490" />
	</node>
	<node id="-918736" lat="70.5415389238" lon="29.8303264467">
		<tag k="fixme" v="consider natural=peak for the most distinct mountains in the district" />
		<tag k="name" v="Gierdogáisá" />
		<tag k="name:se" v="Gierdogáisá" />
>>>>>>> e1d4bc35ff8a6074a6f2e91616a996b547c36f15
		<tag k="natural" v="hill" />
		<tag k="old_name:se" v="Gierdugaisa" />
		<tag k="place" v="locality" />
<<<<<<< HEAD
		<tag k="ssr:stedsnr" v="20479" />
	</node>
	<node lat="70.46024170447171" lon="29.53948212558445" id="-42096">
		<tag k="name" v="Viddene - Morešveaiskáidi" />
		<tag k="name:no" v="Viddene" />
		<tag k="name:se" v="Morešveaiskáidi" />
		<tag k="natural" v="plateau" />
		<tag k="old_name:se" v="Mårešvæjskaidi" />
		<tag k="ssr:stedsnr" v="20982" />
	</node>
	<node lat="70.60802780798086" lon="29.64549878319426" id="-42097">
		<tag k="name" v="Tverrelvdalen" />
		<tag k="natural" v="valley" />
		<tag k="place" v="locality" />
		<tag k="ssr:stedsnr" v="30260" />
	</node>
	<node lat="70.5006778167155" lon="29.85397364559038" id="-42100">
		<tag k="name" v="Gamsletta" />
		<tag k="place" v="locality" />
		<tag k="ssr:stedsnr" v="30402" />
	</node>
	<node lat="70.45038615479105" lon="30.160437352426314" id="-42103">
		<tag k="name" v="Sløkholmdalen" />
		<tag k="natural" v="valley" />
		<tag k="place" v="locality" />
		<tag k="ssr:stedsnr" v="80890" />
	</node>
	<node lat="70.47711670316302" lon="29.926993040107675" id="-42107">
		<tag k="name" v="Trangdalen - Baskkesávži" />
		<tag k="name:no" v="Trangdalen" />
		<tag k="name:se" v="Baskkesávži" />
		<tag k="natural" v="valley" />
		<tag k="old_name:se" v="Baskesavži" />
		<tag k="place" v="locality" />
		<tag k="ssr:stedsnr" v="81979" />
	</node>
	<node lat="70.63445558190784" lon="29.52592663651693" id="-42110">
		<tag k="fixme" v="consider natural=peak for the most distinct mountains in the district" />
		<tag k="name" v="Midtfjellet - Guovdoaivi" />
		<tag k="name:no" v="Midtfjellet" />
		<tag k="name:se" v="Guovdoaivi" />
=======
		<tag k="ssr:stedsnr" v="869480" />
	</node>
	<node id="-918732" lat="70.5711278157" lon="30.0446624872">
		<tag k="name" v="Nordfjordhøgda" />
		<tag k="natural" v="hill" />
		<tag k="place" v="locality" />
		<tag k="ssr:stedsnr" v="869043" />
	</node>
	<node id="-918731" lat="70.6187000384" lon="30.2245235197">
		<tag k="name" v="Stormolldalen" />
		<tag k="natural" v="valley" />
		<tag k="place" v="locality" />
		<tag k="ssr:stedsnr" v="869038" />
	</node>
	<node id="-918730" lat="70.4474250346" lon="29.3154822205">
		<tag k="fixme" v="consider natural=peak for the most distinct mountains in the district" />
		<tag k="name" v="Rávdolčohkka" />
		<tag k="name:se" v="Rávdolčohkka" />
		<tag k="natural" v="hill" />
		<tag k="old_name:se" v="Ravdulčåkka" />
		<tag k="place" v="locality" />
		<tag k="ssr:stedsnr" v="869947" />
	</node>
	<node id="-918729" lat="70.5352833753" lon="30.1111707513">
		<tag k="name" v="Brattlia" />
		<tag k="natural" v="slope" />
		<tag k="place" v="locality" />
		<tag k="ssr:stedsnr" v="820479" />
	</node>
	<node id="-918727" lat="70.538850035" lon="30.0872430026">
		<tag k="name" v="Hamnafjellet" />
		<tag k="natural" v="hill" />
		<tag k="place" v="locality" />
		<tag k="ssr:stedsnr" v="819503" />
	</node>
	<node id="-918726" lat="70.6213333645" lon="29.6729932354">
		<tag k="fixme" v="consider natural=peak for the most distinct mountains in the district" />
		<tag k="name" v="Marifjell" />
>>>>>>> e1d4bc35ff8a6074a6f2e91616a996b547c36f15
		<tag k="natural" v="hill" />
		<tag k="old_name:se" v="Guovdaoaivi" />
		<tag k="place" v="locality" />
<<<<<<< HEAD
		<tag k="ssr:stedsnr" v="86444" />
	</node>
	<node lat="70.62290003036269" lon="29.68477100460371" id="-42113">
		<tag k="name" v="Mariberget" />
		<tag k="natural" v="hill" />
		<tag k="place" v="locality" />
		<tag k="ssr:stedsnr" v="91343" />
	</node>
	<node lat="70.61970836147405" lon="29.725854322018773" id="-42115">
		<tag k="fixme" v="consider natural=peak for the most distinct mountains in the district" />
		<tag k="name" v="Simaaksla" />
		<tag k="natural" v="hill" />
		<tag k="place" v="locality" />
		<tag k="ssr:stedsnr" v="91391" />
	</node>
	<node lat="70.4030639316204" lon="30.072854053402402" id="-42118">
		<tag k="fixme" v="consider natural=peak for the most distinct mountains in the district" />
		<tag k="name" v="Røyskattfjellet" />
		<tag k="natural" v="hill" />
		<tag k="place" v="locality" />
		<tag k="ssr:stedsnr" v="140886" />
	</node>
	<node lat="70.52809170272897" lon="30.255309571657087" id="-42119">
=======
		<tag k="ssr:stedsnr" v="819344" />
	</node>
	<node id="-918724" lat="70.6097833665" lon="29.6508376799">
		<tag k="name" v="Gattjåkkhøgda" />
		<tag k="natural" v="hill" />
		<tag k="place" v="locality" />
		<tag k="ssr:stedsnr" v="819252" />
	</node>
	<node id="-918718" lat="70.4732500349" lon="29.7022987185">
		<tag k="name" v="Skogåsdalen" />
		<tag k="natural" v="valley" />
		<tag k="place" v="locality" />
		<tag k="ssr:stedsnr" v="809985" />
	</node>
	<node id="-918714" lat="70.6222944811" lon="29.7269431982">
		<tag k="name" v="Sima" />
		<tag k="place" v="locality" />
		<tag k="ssr:stedsnr" v="809492" />
	</node>
	<node id="-918713" lat="70.5197639275" lon="29.693998731">
		<tag k="name" v="Skogdalen" />
		<tag k="natural" v="valley" />
		<tag k="place" v="locality" />
		<tag k="ssr:stedsnr" v="809473" />
	</node>
	<node id="-918711" lat="70.5452750423" lon="30.3663261837">
		<tag k="fixme" v="consider natural=peak for the most distinct mountains in the district" />
		<tag k="name" v="Munken" />
		<tag k="natural" v="hill" />
		<tag k="place" v="locality" />
		<tag k="ssr:stedsnr" v="809065" />
	</node>
	<node id="-918707" lat="70.3614917091" lon="30.2127039606">
>>>>>>> e1d4bc35ff8a6074a6f2e91616a996b547c36f15
		<tag k="fixme" v="consider natural=peak for the most distinct mountains in the district" />
		<tag k="name" v="Suoidnelábbát" />
		<tag k="name:se" v="Suoidnelábbát" />
		<tag k="natural" v="hill" />
		<tag k="old_name:se" v="Suoidnelabbat" />
		<tag k="place" v="locality" />
		<tag k="ssr:stedsnr" v="808931" />
	</node>
<<<<<<< HEAD
	<node lat="70.51158059717893" lon="29.89017363314154" id="-42125">
		<tag k="alt_name" v="Falkefjellet" />
		<tag k="fixme" v="consider natural=peak for the most distinct mountains in the district" />
		<tag k="name" v="Falkfjellet" />
=======
	<node id="-918705" lat="70.4056389316" lon="30.3431261268">
		<tag k="fixme" v="consider natural=peak for the most distinct mountains in the district" />
		<tag k="name" v="Langryggen - Juovkkaidčearru" />
		<tag k="name:no" v="Langryggen" />
		<tag k="name:se" v="Juovkkaidčearru" />
>>>>>>> e1d4bc35ff8a6074a6f2e91616a996b547c36f15
		<tag k="natural" v="hill" />
		<tag k="old_name:se" v="Juovkaidčærro" />
		<tag k="place" v="locality" />
<<<<<<< HEAD
		<tag k="ssr:stedsnr" v="141453" />
	</node>
	<node lat="70.516241704929" lon="29.86474865522314" id="-42126">
		<tag k="alt_name" v="Johandalen, øvre" />
		<tag k="name" v="Øvre Johandalen" />
		<tag k="natural" v="valley" />
		<tag k="place" v="locality" />
		<tag k="ssr:stedsnr" v="141456" />
	</node>
	<node lat="70.37684170755331" lon="29.7846236328719" id="-42131">
		<tag k="name" v="Ruossa" />
		<tag k="name:se" v="Ruossa" />
		<tag k="natural" v="valley" />
		<tag k="place" v="locality" />
		<tag k="ssr:stedsnr" v="141962" />
	</node>
	<node lat="70.408158366983" lon="29.727573675346207" id="-42132">
		<tag k="fixme" v="consider natural=peak for the most distinct mountains in the district" />
		<tag k="name" v="Jalgesoaivi" />
		<tag k="name:se" v="Jalgesoaivi" />
=======
		<tag k="ssr:stedsnr" v="808885" />
	</node>
	<node id="-918702" lat="70.6101833666" lon="29.8383514876">
		<tag k="fixme" v="consider natural=peak for the most distinct mountains in the district" />
		<tag k="name" v="Ravnnaš" />
		<tag k="name:se" v="Ravnnaš" />
		<tag k="natural" v="hill" />
		<tag k="old_name:se" v="Ravnaš" />
		<tag k="place" v="locality" />
		<tag k="ssr:stedsnr" v="808438" />
	</node>
	<node id="-918701" lat="70.3277083745" lon="29.734423641">
		<tag k="fixme" v="consider natural=peak for the most distinct mountains in the district" />
		<tag k="name" v="Kjøltindan" />
		<tag k="natural" v="hill" />
		<tag k="place" v="locality" />
		<tag k="ssr:stedsnr" v="875770" />
	</node>
	<node id="-918698" lat="70.4834444871" lon="29.9767874754">
		<tag k="alt_name:se" v="Stuoragáisa;Gáisá" />
		<tag k="fixme" v="consider natural=peak for the most distinct mountains in the district" />
		<tag k="name" v="Steinfjellet - Suologáisá" />
		<tag k="name:no" v="Steinfjellet" />
		<tag k="name:se" v="Suologáisá" />
>>>>>>> e1d4bc35ff8a6074a6f2e91616a996b547c36f15
		<tag k="natural" v="hill" />
		<tag k="old_name:se" v="Suolugaisa" />
		<tag k="place" v="locality" />
<<<<<<< HEAD
		<tag k="ssr:stedsnr" v="141967" />
	</node>
	<node lat="70.43587781457401" lon="29.720284806782413" id="-42133">
		<tag k="name" v="Rahkkegorsa" />
		<tag k="name:se" v="Rahkkegorsa" />
		<tag k="natural" v="valley" />
		<tag k="old_name:se" v="Rakkegårsa" />
		<tag k="place" v="locality" />
		<tag k="ssr:stedsnr" v="141971" />
	</node>
	<node lat="70.53591393699072" lon="30.508137192542858" id="-42140">
		<tag k="fixme" v="consider natural=peak for the most distinct mountains in the district" />
		<tag k="name" v="Gamvikbruna" />
		<tag k="natural" v="hill" />
		<tag k="place" v="locality" />
		<tag k="ssr:stedsnr" v="202013" />
	</node>
	<node lat="70.62818892471151" lon="30.1874818543301" id="-42141">
		<tag k="name" v="Storskarvikdalen" />
		<tag k="natural" v="valley" />
		<tag k="place" v="locality" />
		<tag k="ssr:stedsnr" v="202030" />
	</node>
	<node lat="70.61300280491048" lon="29.735173760671806" id="-42147">
		<tag k="alt_name" v="Perelvtoppen" />
		<tag k="fixme" v="consider natural=peak for the most distinct mountains in the district" />
		<tag k="name" v="Perselvtoppen" />
		<tag k="natural" v="hill" />
		<tag k="place" v="locality" />
		<tag k="ssr:stedsnr" v="202470" />
	</node>
	<node lat="70.65567780642318" lon="29.716148779922317" id="-42148">
		<tag k="fixme" v="consider natural=peak for the most distinct mountains in the district" />
		<tag k="name" v="Hamnefjellet - Hámmánoaivi" />
		<tag k="name:no" v="Hamnefjellet" />
		<tag k="name:se" v="Hámmánoaivi" />
		<tag k="natural" v="hill" />
		<tag k="place" v="locality" />
		<tag k="ssr:stedsnr" v="202488" />
	</node>
	<node lat="70.5616972548402" lon="29.393318343919706" id="-42149">
		<tag k="name" v="Basečearru" />
		<tag k="name:se" v="Basečearru" />
		<tag k="natural" v="plateau" />
		<tag k="old_name:se" v="Basečærro" />
		<tag k="ssr:stedsnr" v="202506" />
	</node>
	<node lat="70.49666393133705" lon="30.166245702784376" id="-42153">
		<tag k="fixme" v="consider natural=peak for the most distinct mountains in the district" />
		<tag k="name" v="Søttendalfjellet" />
		<tag k="natural" v="hill" />
		<tag k="place" v="locality" />
		<tag k="ssr:stedsnr" v="202911" />
	</node>
	<node lat="70.49953337693121" lon="30.448937202491067" id="-42154">
		<tag k="fixme" v="consider natural=peak for the most distinct mountains in the district" />
		<tag k="name" v="Gussoaivi" />
		<tag k="name:se" v="Gussoaivi" />
		<tag k="natural" v="hill" />
		<tag k="place" v="locality" />
		<tag k="ssr:stedsnr" v="202914" />
	</node>
	<node lat="70.31241115363754" lon="29.984545734031524" id="-42155">
		<tag k="fixme" v="consider natural=peak for the most distinct mountains in the district" />
		<tag k="name" v="Gaskkamus Ruitu" />
		<tag k="name:se" v="Gaskkamus Ruitu" />
		<tag k="natural" v="hill" />
		<tag k="old_name:se" v="Ruito, gaskamuš" />
		<tag k="place" v="locality" />
		<tag k="ssr:stedsnr" v="202921" />
	</node>
	<node lat="70.48773338497621" lon="30.639473200577473" id="-42156">
		<tag k="fixme" v="consider natural=peak for the most distinct mountains in the district" />
		<tag k="name" v="Storflognakken" />
		<tag k="natural" v="hill" />
		<tag k="place" v="locality" />
		<tag k="ssr:stedsnr" v="202931" />
	</node>
	<node lat="70.55443058918227" lon="30.06720411837649" id="-42160">
		<tag k="name" v="Nordfjordhøgda" />
		<tag k="natural" v="hill" />
		<tag k="place" v="locality" />
		<tag k="ssr:stedsnr" v="213261" />
	</node>
	<node lat="70.52347781638251" lon="30.383826158222043" id="-42169">
		<tag k="name" v="Ruossagorsa" />
		<tag k="name:se" v="Ruossagorsa" />
		<tag k="natural" v="valley" />
		<tag k="old_name:se" v="Ruossagårsa" />
		<tag k="place" v="locality" />
		<tag k="ssr:stedsnr" v="323014" />
	</node>
	<node lat="70.49500282198194" lon="30.418553893187187" id="-42173">
		<tag k="name" v="Rundhaugen" />
		<tag k="natural" v="hill" />
		<tag k="place" v="locality" />
		<tag k="ssr:stedsnr" v="323899" />
	</node>
	<node lat="70.31951115692246" lon="30.116342891933474" id="-42174">
		<tag k="fixme" v="consider natural=peak for the most distinct mountains in the district" />
		<tag k="name" v="Ruoššačohkka" />
		<tag k="name:se" v="Ruoššačohkka" />
		<tag k="natural" v="hill" />
		<tag k="old_name:se" v="Ruoššačåkka" />
		<tag k="place" v="locality" />
		<tag k="ssr:stedsnr" v="323929" />
	</node>
	<node lat="70.34957781883372" lon="30.120942885173125" id="-42175">
		<tag k="fixme" v="consider natural=peak for the most distinct mountains in the district" />
		<tag k="name" v="Ovllánddeoaivi" />
		<tag k="name:se" v="Ovllánddeoaivi" />
=======
		<tag k="ssr:stedsnr" v="753977" />
	</node>
	<node id="-918693" lat="70.2727278115" lon="29.4048765642">
		<tag k="fixme" v="consider natural=peak for the most distinct mountains in the district" />
		<tag k="loc_name:fkv" v="Kivitunturi" />
		<tag k="name" v="Urdfjellet - Jiessavárri" />
		<tag k="name:no" v="Urdfjellet" />
		<tag k="name:se" v="Jiessavárri" />
		<tag k="natural" v="hill" />
		<tag k="old_name:se" v="Jiessavarri" />
		<tag k="place" v="locality" />
		<tag k="ssr:stedsnr" v="875982" />
	</node>
	<node id="-918692" lat="70.4078444801" lon="29.4778349001">
		<tag k="loc_name:fkv" v="Köölitunturi" />
		<tag k="name" v="Skipskjølen - Bealjáidčearru" />
		<tag k="name:no" v="Skipskjølen" />
		<tag k="name:se" v="Bealjáidčearru" />
		<tag k="natural" v="plateau" />
		<tag k="old_name:se" v="Bælljaidčearro" />
		<tag k="ssr:stedsnr" v="875970" />
	</node>
	<node id="-918691" lat="70.3391222649" lon="30.1802039681">
		<tag k="fixme" v="consider natural=peak for the most distinct mountains in the district" />
		<tag k="name" v="Ryggfjellet - Eartnjoaivi" />
		<tag k="name:no" v="Ryggfjellet" />
		<tag k="name:se" v="Eartnjoaivi" />
		<tag k="natural" v="hill" />
		<tag k="old_name:se" v="Ærdnjoaivi" />
		<tag k="place" v="locality" />
		<tag k="ssr:stedsnr" v="875928" />
	</node>
	<node id="-918685" lat="70.6130666964" lon="29.7181209889">
		<tag k="name" v="Perelvdalen" />
		<tag k="natural" v="valley" />
		<tag k="place" v="locality" />
		<tag k="ssr:stedsnr" v="637255" />
	</node>
	<node id="-918684" lat="70.6952611405" lon="29.9707764516">
		<tag k="name" v="Rossmålsaksla" />
		<tag k="natural" v="ridge" />
		<tag k="place" v="locality" />
		<tag k="ssr:stedsnr" v="632514" />
	</node>
	<node id="-918679" lat="70.4168639238" lon="29.5169126825">
		<tag k="name" v="Transportdalen" />
		<tag k="natural" v="valley" />
		<tag k="place" v="locality" />
		<tag k="ssr:stedsnr" v="626977" />
	</node>
	<node id="-918678" lat="70.3202722666" lon="30.0890623416">
		<tag k="name" v="Hestdalen" />
		<tag k="natural" v="valley" />
		<tag k="place" v="locality" />
		<tag k="ssr:stedsnr" v="626940" />
	</node>
	<node id="-918677" lat="70.4682806011" lon="30.6817092779">
		<tag k="name" v="Storflogdalen" />
		<tag k="natural" v="valley" />
		<tag k="place" v="locality" />
		<tag k="ssr:stedsnr" v="626928" />
	</node>
	<node id="-918676" lat="70.3618444862" lon="29.8972041197">
		<tag k="fixme" v="consider natural=peak for the most distinct mountains in the district" />
		<tag k="name" v="Gárgaš" />
		<tag k="name:se" v="Gárgaš" />
		<tag k="natural" v="hill" />
		<tag k="old_name:se" v="Gargaš" />
		<tag k="place" v="locality" />
		<tag k="ssr:stedsnr" v="626912" />
	</node>
	<node id="-918675" lat="70.4604778184" lon="30.1543734732">
		<tag k="name" v="Mariedalen" />
		<tag k="natural" v="valley" />
		<tag k="place" v="locality" />
		<tag k="ssr:stedsnr" v="626901" />
	</node>
	<node id="-918674" lat="70.4552500403" lon="30.1168623868">
		<tag k="fixme" v="consider natural=peak for the most distinct mountains in the district" />
		<tag k="name" v="Mellomfjellet" />
		<tag k="natural" v="hill" />
		<tag k="place" v="locality" />
		<tag k="ssr:stedsnr" v="626898" />
	</node>
	<node id="-918673" lat="70.4687611531" lon="30.1821457008">
		<tag k="fixme" v="consider natural=peak for the most distinct mountains in the district" />
		<tag k="name" v="Steinelvdalfjellet" />
		<tag k="natural" v="hill" />
		<tag k="place" v="locality" />
		<tag k="ssr:stedsnr" v="626897" />
	</node>
	<node id="-918671" lat="70.5524305803" lon="29.2950628181">
		<tag k="fixme" v="consider natural=peak for the most distinct mountains in the district" />
		<tag k="name" v="Storkløftfjellet" />
>>>>>>> e1d4bc35ff8a6074a6f2e91616a996b547c36f15
		<tag k="natural" v="hill" />
		<tag k="old_name:se" v="Åvlandeoaivi;Ovll-Ándde-oaivi" />
		<tag k="place" v="locality" />
<<<<<<< HEAD
		<tag k="ssr:stedsnr" v="323931" />
	</node>
	<node lat="70.31880282511322" lon="30.005401278937928" id="-42176">
		<tag k="name" v="Andre porten - Uhca Rohči" />
		<tag k="name:no" v="Andre porten" />
		<tag k="name:se" v="Uhca Rohči" />
		<tag k="natural" v="valley" />
		<tag k="old_name:se" v="Råčči, ucca" />
		<tag k="place" v="locality" />
		<tag k="ssr:stedsnr" v="323935" />
	</node>
	<node lat="70.52625003668098" lon="30.01044302320747" id="-42181">
		<tag k="fixme" v="consider natural=peak for the most distinct mountains in the district" />
		<tag k="name" v="Uhcagáisá" />
		<tag k="name:se" v="Uhcagáisá" />
=======
		<tag k="ssr:stedsnr" v="626520" />
	</node>
	<node id="-918669" lat="70.5105639206" lon="29.8345292313">
		<tag k="alt_name" v="Johandalen, nedre" />
		<tag k="name" v="Nedre Johandalen" />
		<tag k="natural" v="valley" />
		<tag k="place" v="locality" />
		<tag k="ssr:stedsnr" v="626481" />
	</node>
	<node id="-918668" lat="70.6115917061" lon="30.0608958207">
		<tag k="fixme" v="consider natural=peak for the most distinct mountains in the district" />
		<tag k="name" v="Syltefjordfjellet - Máhkirčearru" />
		<tag k="name:no" v="Syltefjordfjellet" />
		<tag k="name:se" v="Máhkirčearru" />
>>>>>>> e1d4bc35ff8a6074a6f2e91616a996b547c36f15
		<tag k="natural" v="hill" />
		<tag k="old_name:se" v="Makkirčærro" />
		<tag k="place" v="locality" />
<<<<<<< HEAD
		<tag k="ssr:stedsnr" v="334408" />
	</node>
	<node lat="70.5400639224951" lon="29.98433748091996" id="-42182">
		<tag k="fixme" v="consider natural=peak for the most distinct mountains in the district" />
		<tag k="name" v="Vassbotnfjellet" />
		<tag k="natural" v="hill" />
		<tag k="place" v="locality" />
		<tag k="ssr:stedsnr" v="334419" />
	</node>
	<node lat="70.55454448058032" lon="30.166465181482003" id="-42183">
		<tag k="fixme" v="consider natural=peak for the most distinct mountains in the district" />
		<tag k="name" v="Daumannsmolla" />
		<tag k="natural" v="hill" />
		<tag k="place" v="locality" />
		<tag k="ssr:stedsnr" v="358084" />
	</node>
	<node lat="70.57834169562135" lon="29.49272107846931" id="-42185">
		<tag k="alt_name:no" v="Buktekjølen" />
		<tag k="fixme" v="consider natural=peak for the most distinct mountains in the district" />
		<tag k="name" v="Buktkjølen - Buhkkačearru" />
		<tag k="name:no" v="Buktkjølen" />
		<tag k="name:se" v="Buhkkačearru" />
		<tag k="natural" v="hill" />
		<tag k="old_name:se" v="Bukkačærro;Bukkačearru" />
		<tag k="place" v="locality" />
		<tag k="ssr:stedsnr" v="383466" />
	</node>
	<node lat="70.51594725797071" lon="29.754040376945643" id="-42187">
		<tag k="name" v="Slangedalen" />
		<tag k="natural" v="valley" />
		<tag k="place" v="locality" />
		<tag k="ssr:stedsnr" v="383472" />
	</node>
	<node lat="70.70836947707006" lon="29.714118249094277" id="-42194">
		<tag k="fixme" v="consider natural=peak for the most distinct mountains in the district" />
		<tag k="name" v="Båtsnæringen" />
		<tag k="natural" v="hill" />
		<tag k="place" v="locality" />
		<tag k="ssr:stedsnr" v="384474" />
	</node>
	<node lat="70.47334171312066" lon="30.58928432053573" id="-42195">
		<tag k="name" v="Finnvikdalen" />
		<tag k="natural" v="valley" />
		<tag k="place" v="locality" />
		<tag k="ssr:stedsnr" v="384878" />
	</node>
	<node lat="70.51766114655243" lon="30.004256916910297" id="-42201">
		<tag k="fixme" v="consider natural=peak for the most distinct mountains in the district" />
		<tag k="name" v="Gaisa" />
		<tag k="natural" v="hill" />
		<tag k="place" v="locality" />
		<tag k="ssr:stedsnr" v="419078" />
	</node>
	<node lat="70.52560837077111" lon="29.912498644756727" id="-42203">
		<tag k="name" v="Kristiandalen" />
		<tag k="natural" v="valley" />
		<tag k="place" v="locality" />
		<tag k="ssr:stedsnr" v="444428" />
	</node>
	<node lat="70.44768893911107" lon="30.400578878870842" id="-42204">
		<tag k="fixme" v="consider natural=peak for the most distinct mountains in the district" />
		<tag k="name" v="Raet" />
		<tag k="natural" v="hill" />
		<tag k="place" v="locality" />
		<tag k="ssr:stedsnr" v="444885" />
	</node>
	<node lat="70.35320281678958" lon="30.028390173489925" id="-42206">
		<tag k="fixme" v="consider natural=peak for the most distinct mountains in the district" />
		<tag k="name" v="Njuvččaguroaivi" />
		<tag k="name:se" v="Njuvččaguroaivi" />
		<tag k="natural" v="hill" />
		<tag k="old_name:se" v="Njuvčaguroaivi" />
		<tag k="place" v="locality" />
		<tag k="ssr:stedsnr" v="444935" />
	</node>
	<node lat="70.55602781458101" lon="30.013779162283498" id="-42207">
		<tag k="fixme" v="consider natural=peak for the most distinct mountains in the district" />
		<tag k="name" v="Gardijåkkhaugen - Gárdočohkka" />
		<tag k="name:no" v="Gardijåkkhaugen" />
		<tag k="name:se" v="Gárdočohkka" />
		<tag k="natural" v="hill" />
		<tag k="old_name:se" v="Gardučåkka" />
		<tag k="place" v="locality" />
		<tag k="ssr:stedsnr" v="445038" />
	</node>
	<node lat="70.68575003542492" lon="30.122284716794276" id="-42210">
		<tag k="name" v="Reindalen" />
		<tag k="natural" v="valley" />
		<tag k="place" v="locality" />
		<tag k="ssr:stedsnr" v="445050" />
	</node>
	<node lat="70.52057504570045" lon="30.439753905315875" id="-42212">
		<tag k="fixme" v="consider natural=peak for the most distinct mountains in the district" />
		<tag k="name" v="Baikačearru" />
		<tag k="name:se" v="Baikačearru" />
		<tag k="natural" v="hill" />
		<tag k="old_name:se" v="Baikačærro" />
		<tag k="place" v="locality" />
		<tag k="ssr:stedsnr" v="505001" />
	</node>
	<node lat="70.5463056012118" lon="30.612139903276418" id="-42215">
		<tag k="fixme" v="consider natural=peak for the most distinct mountains in the district" />
		<tag k="name" v="Hardbaken" />
		<tag k="natural" v="hill" />
		<tag k="place" v="locality" />
		<tag k="ssr:stedsnr" v="505053" />
	</node>
	<node lat="70.53465003736186" lon="29.947073630094014" id="-42218">
		<tag k="name" v="Sørhursidalen" />
		<tag k="natural" v="valley" />
		<tag k="place" v="locality" />
		<tag k="ssr:stedsnr" v="505445" />
	</node>
	<node lat="70.4965861581408" lon="30.54530936887085" id="-42222">
		<tag k="name" v="Gretehola" />
		<tag k="natural" v="valley" />
		<tag k="place" v="locality" />
		<tag k="ssr:stedsnr" v="505887" />
	</node>
	<node lat="70.67426114981306" lon="30.194023550341182" id="-42225">
		<tag k="name" v="Korsnesaksla" />
		<tag k="place" v="locality" />
		<tag k="ssr:stedsnr" v="510433" />
	</node>
	<node lat="70.62469447437039" lon="29.67314322999611" id="-42234">
		<tag k="name" v="Neptundalen" />
		<tag k="natural" v="valley" />
		<tag k="place" v="locality" />
		<tag k="ssr:stedsnr" v="516320" />
	</node>
	<node lat="70.56988337191301" lon="29.853004238786475" id="-42237">
		<tag k="fixme" v="consider natural=peak for the most distinct mountains in the district" />
		<tag k="name" v="Båtsfjordfjellet - Máhkirčearru" />
		<tag k="name:no" v="Båtsfjordfjellet" />
		<tag k="name:se" v="Máhkirčearru" />
		<tag k="natural" v="hill" />
		<tag k="old_name:se" v="Makkirčærro" />
		<tag k="place" v="locality" />
		<tag k="ssr:stedsnr" v="565421" />
	</node>
	<node lat="70.57064447223729" lon="29.73444596652132" id="-42238">
		<tag k="name" v="Oroščohkka" />
		<tag k="name:se" v="Oroščohkka" />
		<tag k="natural" v="hill" />
		<tag k="old_name:se" v="Åruščåkka" />
		<tag k="place" v="locality" />
		<tag k="ssr:stedsnr" v="565422" />
	</node>
	<node lat="70.5843805903221" lon="29.786515380687373" id="-42239">
		<tag k="fixme" v="consider natural=peak for the most distinct mountains in the district" />
		<tag k="name" v="Námmečohkka" />
		<tag k="name:se" v="Námmečohkka" />
=======
		<tag k="ssr:stedsnr" v="626128" />
	</node>
	<node id="-918667" lat="70.5130639316" lon="30.1744401585">
		<tag k="name" v="Djupdalen" />
		<tag k="natural" v="valley" />
		<tag k="place" v="locality" />
		<tag k="ssr:stedsnr" v="626127" />
	</node>
	<node id="-918665" lat="70.5450111584" lon="30.4577011209">
		<tag k="name" v="Kalkmorapet" />
		<tag k="natural" v="valley" />
		<tag k="place" v="locality" />
		<tag k="ssr:stedsnr" v="626076" />
	</node>
	<node id="-918663" lat="70.5398000374" lon="30.0480652338">
		<tag k="fixme" v="consider natural=peak for the most distinct mountains in the district" />
		<tag k="name" v="Hamnefjellet" />
		<tag k="natural" v="hill" />
		<tag k="place" v="locality" />
		<tag k="ssr:stedsnr" v="626063" />
	</node>
	<node id="-918662" lat="70.6664833699" lon="30.1189319223">
		<tag k="fixme" v="consider natural=peak for the most distinct mountains in the district" />
		<tag k="name" v="Korsnesfjellet" />
		<tag k="natural" v="hill" />
		<tag k="place" v="locality" />
		<tag k="ssr:stedsnr" v="626060" />
	</node>
	<node id="-918661" lat="70.6425250325" lon="30.1540207781">
		<tag k="name" v="Bjørndalen" />
		<tag k="natural" v="valley" />
		<tag k="place" v="locality" />
		<tag k="ssr:stedsnr" v="626056" />
	</node>
	<node id="-918660" lat="70.5031833665" lon="29.7655875764">
		<tag k="name" v="Strupen" />
		<tag k="natural" v="valley" />
		<tag k="place" v="locality" />
		<tag k="ssr:stedsnr" v="626054" />
	</node>
	<node id="-918658" lat="70.586858376" lon="30.3039901094">
		<tag k="fixme" v="consider natural=peak for the most distinct mountains in the district" />
		<tag k="loc_name" v="Syltefjordstauran" />
		<tag k="name" v="Stauran" />
		<tag k="natural" v="hill" />
		<tag k="place" v="locality" />
		<tag k="ssr:stedsnr" v="626032" />
	</node>
	<node id="-918655" lat="70.5034444795" lon="29.8572653296">
		<tag k="name" v="Solheim" />
		<tag k="place" v="locality" />
		<tag k="ssr:stedsnr" v="576402" />
	</node>
	<node id="-918650" lat="70.7127250273" lon="29.7393376733">
		<tag k="name" v="Kolnesaksla" />
		<tag k="place" v="locality" />
		<tag k="ssr:stedsnr" v="570383" />
	</node>
	<node id="-918649" lat="70.3865389254" lon="29.7322347731">
		<tag k="fixme" v="consider natural=peak for the most distinct mountains in the district" />
		<tag k="name" v="Ruossoaivi" />
		<tag k="name:se" v="Ruossoaivi" />
		<tag k="natural" v="hill" />
		<tag k="place" v="locality" />
		<tag k="ssr:stedsnr" v="566965" />
	</node>
	<node id="-918647" lat="70.4955833782" lon="30.4943788578">
		<tag k="name" v="Kudalen" />
		<tag k="natural" v="valley" />
		<tag k="place" v="locality" />
		<tag k="ssr:stedsnr" v="566915" />
	</node>
	<node id="-918638" lat="70.4557250412" lon="30.0464013263">
		<tag k="name" v="Krokdalen" />
		<tag k="natural" v="valley" />
		<tag k="place" v="locality" />
		<tag k="ssr:stedsnr" v="565895" />
	</node>
	<node id="-918637" lat="70.4366417065" lon="30.0952734989">
		<tag k="name" v="Djupdalen" />
		<tag k="natural" v="valley" />
		<tag k="place" v="locality" />
		<tag k="ssr:stedsnr" v="565884" />
	</node>
	<node id="-918633" lat="70.5176611466" lon="30.0042569169">
		<tag k="fixme" v="consider natural=peak for the most distinct mountains in the district" />
		<tag k="name" v="Gaisa" />
		<tag k="natural" v="hill" />
		<tag k="place" v="locality" />
		<tag k="ssr:stedsnr" v="419078" />
	</node>
	<node id="-918631" lat="70.517033367" lon="29.9251152863">
		<tag k="name" v="Moan" />
		<tag k="place" v="locality" />
		<tag k="ssr:stedsnr" v="394387" />
	</node>
	<node id="-918628" lat="70.4652083825" lon="30.7297286876">
		<tag k="name" v="Seglkollen" />
		<tag k="natural" v="hill" />
		<tag k="place" v="locality" />
		<tag k="ssr:stedsnr" v="384905" />
	</node>
	<node id="-918627" lat="70.7083694771" lon="29.7141182491">
		<tag k="fixme" v="consider natural=peak for the most distinct mountains in the district" />
		<tag k="name" v="Båtsnæringen" />
		<tag k="natural" v="hill" />
		<tag k="place" v="locality" />
		<tag k="ssr:stedsnr" v="384474" />
	</node>
	<node id="-918623" lat="70.5616750355" lon="30.0378208103">
		<tag k="name" v="Nordfjorddalen" />
		<tag k="natural" v="valley" />
		<tag k="place" v="locality" />
		<tag k="ssr:stedsnr" v="384047" />
	</node>
	<node id="-918621" lat="70.5008055922" lon="30.0429929898">
		<tag k="fixme" v="consider natural=peak for the most distinct mountains in the district" />
		<tag k="name" v="Oterfjellet" />
>>>>>>> e1d4bc35ff8a6074a6f2e91616a996b547c36f15
		<tag k="natural" v="hill" />
		<tag k="old_name:se" v="Nammečåkka" />
		<tag k="place" v="locality" />
<<<<<<< HEAD
		<tag k="ssr:stedsnr" v="565423" />
	</node>
	<node lat="70.519861145445" lon="29.57017933985073" id="-42240">
		<tag k="name" v="Arondalen" />
		<tag k="natural" v="valley" />
		<tag k="place" v="locality" />
		<tag k="ssr:stedsnr" v="565426" />
	</node>
	<node lat="70.436641706461" lon="30.095273498864287" id="-42244">
		<tag k="name" v="Djupdalen" />
		<tag k="natural" v="valley" />
		<tag k="place" v="locality" />
		<tag k="ssr:stedsnr" v="565884" />
	</node>
	<node lat="70.49558337819722" lon="30.494378857772503" id="-42250">
		<tag k="name" v="Kudalen" />
		<tag k="natural" v="valley" />
		<tag k="place" v="locality" />
		<tag k="ssr:stedsnr" v="566915" />
	</node>
	<node lat="70.71272502731273" lon="29.73933767326383" id="-42251">
		<tag k="name" v="Kolnesaksla" />
		<tag k="place" v="locality" />
		<tag k="ssr:stedsnr" v="570383" />
	</node>
	<node lat="70.53195003358947" lon="30.026659697025828" id="-42255">
		<tag k="name" v="Kvenskoran" />
		<tag k="natural" v="hill" />
=======
		<tag k="ssr:stedsnr" v="384007" />
	</node>
	<node id="-918620" lat="70.5137305974" lon="30.4321955718">
		<tag k="name" v="Syltevikmoan" />
>>>>>>> e1d4bc35ff8a6074a6f2e91616a996b547c36f15
		<tag k="place" v="locality" />
		<tag k="ssr:stedsnr" v="384001" />
	</node>
<<<<<<< HEAD
	<node lat="70.5868583760038" lon="30.303990109446765" id="-42256">
		<tag k="fixme" v="consider natural=peak for the most distinct mountains in the district" />
		<tag k="loc_name" v="Syltefjordstauran" />
		<tag k="name" v="Stauran" />
		<tag k="natural" v="hill" />
		<tag k="place" v="locality" />
		<tag k="ssr:stedsnr" v="626032" />
	</node>
	<node lat="70.54501115835674" lon="30.45770112089518" id="-42257">
		<tag k="name" v="Kalkmorapet" />
		<tag k="natural" v="valley" />
		<tag k="place" v="locality" />
		<tag k="ssr:stedsnr" v="626076" />
	</node>
	<node lat="70.55243058027874" lon="29.295062818103702" id="-42260">
		<tag k="fixme" v="consider natural=peak for the most distinct mountains in the district" />
		<tag k="name" v="Storkløftfjellet" />
		<tag k="natural" v="hill" />
		<tag k="place" v="locality" />
		<tag k="ssr:stedsnr" v="626520" />
	</node>
	<node lat="70.5130639316237" lon="30.174440158538673" id="-42261">
		<tag k="name" v="Djupdalen" />
		<tag k="natural" v="valley" />
		<tag k="place" v="locality" />
		<tag k="ssr:stedsnr" v="626127" />
	</node>
	<node lat="70.61159170609956" lon="30.06089582065821" id="-42262">
		<tag k="fixme" v="consider natural=peak for the most distinct mountains in the district" />
		<tag k="name" v="Syltefjordfjellet - Máhkirčearru" />
		<tag k="name:no" v="Syltefjordfjellet" />
		<tag k="name:se" v="Máhkirčearru" />
=======
	<node id="-918616" lat="70.515947258" lon="29.7540403769">
		<tag k="name" v="Slangedalen" />
		<tag k="natural" v="valley" />
		<tag k="place" v="locality" />
		<tag k="ssr:stedsnr" v="383472" />
	</node>
	<node id="-918614" lat="70.5783416956" lon="29.4927210785">
		<tag k="alt_name:no" v="Buktekjølen" />
		<tag k="fixme" v="consider natural=peak for the most distinct mountains in the district" />
		<tag k="name" v="Buktkjølen - Buhkkačearru" />
		<tag k="name:no" v="Buktkjølen" />
		<tag k="name:se" v="Buhkkačearru" />
		<tag k="natural" v="hill" />
		<tag k="old_name:se" v="Bukkačærro;Bukkačearru" />
		<tag k="place" v="locality" />
		<tag k="ssr:stedsnr" v="383466" />
	</node>
	<node id="-918613" lat="70.5545444806" lon="30.1664651815">
		<tag k="fixme" v="consider natural=peak for the most distinct mountains in the district" />
		<tag k="name" v="Daumannsmolla" />
		<tag k="natural" v="hill" />
		<tag k="place" v="locality" />
		<tag k="ssr:stedsnr" v="358084" />
	</node>
	<node id="-918612" lat="70.5503722575" lon="29.997737478">
		<tag k="fixme" v="consider natural=peak for the most distinct mountains in the district" />
		<tag k="name" v="Steinfjellet" />
>>>>>>> e1d4bc35ff8a6074a6f2e91616a996b547c36f15
		<tag k="natural" v="hill" />
		<tag k="place" v="locality" />
<<<<<<< HEAD
		<tag k="ssr:stedsnr" v="626128" />
	</node>
	<node lat="70.51056392055672" lon="29.834529231264973" id="-42263">
		<tag k="alt_name" v="Johandalen, nedre" />
		<tag k="name" v="Nedre Johandalen" />
		<tag k="natural" v="valley" />
		<tag k="place" v="locality" />
		<tag k="ssr:stedsnr" v="626481" />
	</node>
	<node lat="70.46828060107282" lon="30.681709277937074" id="-42264">
		<tag k="name" v="Storflogdalen" />
		<tag k="natural" v="valley" />
		<tag k="place" v="locality" />
		<tag k="ssr:stedsnr" v="626928" />
	</node>
	<node lat="70.41686392384527" lon="29.516912682500788" id="-42266">
		<tag k="name" v="Transportdalen" />
=======
		<tag k="ssr:stedsnr" v="334450" />
	</node>
	<node id="-918611" lat="70.5400639225" lon="29.9843374809">
		<tag k="fixme" v="consider natural=peak for the most distinct mountains in the district" />
		<tag k="name" v="Vassbotnfjellet" />
		<tag k="natural" v="hill" />
		<tag k="place" v="locality" />
		<tag k="ssr:stedsnr" v="334419" />
	</node>
	<node id="-918609" lat="70.6341861446" lon="29.6904682367">
		<tag k="name" v="Skolelvdalen" />
		<tag k="natural" v="valley" />
		<tag k="place" v="locality" />
		<tag k="ssr:stedsnr" v="334296" />
	</node>
	<node id="-918607" lat="70.4610111458" lon="29.6664876268">
		<tag k="name" v="Morešveairoahkki" />
		<tag k="name:se" v="Morešveairoahkki" />
		<tag k="natural" v="valley" />
		<tag k="old_name:se" v="Mårešvæjroakki" />
		<tag k="place" v="locality" />
		<tag k="ssr:stedsnr" v="323978" />
	</node>
	<node id="-918605" lat="70.3188028251" lon="30.0054012789">
		<tag k="name" v="Andre porten - Uhca Rohči" />
		<tag k="name:no" v="Andre porten" />
		<tag k="name:se" v="Uhca Rohči" />
>>>>>>> e1d4bc35ff8a6074a6f2e91616a996b547c36f15
		<tag k="natural" v="valley" />
		<tag k="old_name:se" v="Råčči, ucca" />
		<tag k="place" v="locality" />
<<<<<<< HEAD
		<tag k="ssr:stedsnr" v="626977" />
	</node>
	<node lat="70.32027226663858" lon="30.0890623415728" id="-42267">
		<tag k="name" v="Hestdalen" />
		<tag k="natural" v="valley" />
		<tag k="place" v="locality" />
		<tag k="ssr:stedsnr" v="626940" />
	</node>
	<node lat="70.6374805886101" lon="29.6917459938983" id="-42269">
		<tag k="name" v="Melkarn" />
		<tag k="natural" v="hill" />
		<tag k="place" v="locality" />
		<tag k="ssr:stedsnr" v="627476" />
	</node>
	<node lat="70.43023893981616" lon="30.579184328175693" id="-42273">
		<tag k="fixme" v="consider natural=peak for the most distinct mountains in the district" />
		<tag k="name" v="Seglkollfjellet - Seavlačearru" />
		<tag k="name:no" v="Seglkollfjellet" />
		<tag k="name:se" v="Seavlačearru" />
		<tag k="natural" v="hill" />
		<tag k="old_name:se" v="Sævlačearro" />
		<tag k="place" v="locality" />
		<tag k="ssr:stedsnr" v="632853" />
	</node>
	<node lat="70.61306669635945" lon="29.718120988914592" id="-42275">
		<tag k="name" v="Perelvdalen" />
		<tag k="natural" v="valley" />
		<tag k="place" v="locality" />
		<tag k="ssr:stedsnr" v="637255" />
	</node>
	<node lat="70.65033059106626" lon="29.882751466883672" id="-42280">
		<tag k="fixme" v="consider natural=peak for the most distinct mountains in the district" />
		<tag k="name" v="Raudberghøgda" />
		<tag k="natural" v="hill" />
		<tag k="place" v="locality" />
		<tag k="ssr:stedsnr" v="661066" />
	</node>
	<node lat="70.56046114670889" lon="30.111417979071526" id="-42282">
		<tag k="fixme" v="consider natural=peak for the most distinct mountains in the district" />
		<tag k="name" v="Syltefjordhøgda" />
		<tag k="natural" v="hill" />
		<tag k="place" v="locality" />
		<tag k="ssr:stedsnr" v="722093" />
	</node>
	<node lat="70.63174725787957" lon="29.894015359543516" id="-42290">
		<tag k="name" v="Skovikhøgda" />
		<tag k="natural" v="hill" />
		<tag k="place" v="locality" />
		<tag k="ssr:stedsnr" v="748460" />
	</node>
	<node lat="70.48344448713381" lon="29.97678747539626" id="-42292">
		<tag k="alt_name:se" v="Stuoragáisa;Gáisá" />
		<tag k="fixme" v="consider natural=peak for the most distinct mountains in the district" />
		<tag k="name" v="Steinfjellet - Suologáisá" />
		<tag k="name:no" v="Steinfjellet" />
		<tag k="name:se" v="Suologáisá" />
=======
		<tag k="ssr:stedsnr" v="323935" />
	</node>
	<node id="-918604" lat="70.3495778188" lon="30.1209428852">
		<tag k="fixme" v="consider natural=peak for the most distinct mountains in the district" />
		<tag k="name" v="Ovllánddeoaivi" />
		<tag k="name:se" v="Ovllánddeoaivi" />
		<tag k="natural" v="hill" />
		<tag k="old_name:se" v="Åvlandeoaivi;Ovll-Ándde-oaivi" />
		<tag k="place" v="locality" />
		<tag k="ssr:stedsnr" v="323931" />
	</node>
	<node id="-918603" lat="70.3195111569" lon="30.1163428919">
		<tag k="fixme" v="consider natural=peak for the most distinct mountains in the district" />
		<tag k="name" v="Ruoššačohkka" />
		<tag k="name:se" v="Ruoššačohkka" />
		<tag k="natural" v="hill" />
		<tag k="old_name:se" v="Ruoššačåkka" />
		<tag k="place" v="locality" />
		<tag k="ssr:stedsnr" v="323929" />
	</node>
	<node id="-918602" lat="70.495002822" lon="30.4185538932">
		<tag k="name" v="Rundhaugen" />
		<tag k="natural" v="hill" />
		<tag k="place" v="locality" />
		<tag k="ssr:stedsnr" v="323899" />
	</node>
	<node id="-918600" lat="70.6994305917" lon="29.9838903294">
		<tag k="name" v="Skipsvikhalsen" />
		<tag k="natural" v="valley" />
		<tag k="place" v="locality" />
		<tag k="ssr:stedsnr" v="323483" />
	</node>
	<node id="-918594" lat="70.5234778164" lon="30.3838261582">
		<tag k="name" v="Ruossagorsa" />
		<tag k="name:se" v="Ruossagorsa" />
		<tag k="natural" v="valley" />
		<tag k="old_name:se" v="Ruossagårsa" />
		<tag k="place" v="locality" />
		<tag k="ssr:stedsnr" v="323014" />
	</node>
	<node id="-918589" lat="70.5544305892" lon="30.0672041184">
		<tag k="name" v="Nordfjordhøgda" />
		<tag k="natural" v="hill" />
		<tag k="place" v="locality" />
		<tag k="ssr:stedsnr" v="213261" />
	</node>
	<node id="-918584" lat="70.487733385" lon="30.6394732006">
		<tag k="fixme" v="consider natural=peak for the most distinct mountains in the district" />
		<tag k="name" v="Storflognakken" />
>>>>>>> e1d4bc35ff8a6074a6f2e91616a996b547c36f15
		<tag k="natural" v="hill" />
		<tag k="old_name:se" v="Suolugaisa" />
		<tag k="place" v="locality" />
<<<<<<< HEAD
		<tag k="ssr:stedsnr" v="753977" />
	</node>
	<node lat="70.36149170905071" lon="30.212703960579" id="-42296">
		<tag k="fixme" v="consider natural=peak for the most distinct mountains in the district" />
		<tag k="name" v="Suoidnelábbát" />
		<tag k="name:se" v="Suoidnelábbát" />
		<tag k="natural" v="hill" />
		<tag k="old_name:se" v="Suoidnelabbat" />
		<tag k="place" v="locality" />
		<tag k="ssr:stedsnr" v="808931" />
	</node>
	<node lat="70.54527504233405" lon="30.366326183676684" id="-42300">
		<tag k="fixme" v="consider natural=peak for the most distinct mountains in the district" />
		<tag k="name" v="Munken" />
		<tag k="natural" v="hill" />
		<tag k="place" v="locality" />
		<tag k="ssr:stedsnr" v="809065" />
	</node>
	<node lat="70.47325003485632" lon="29.70229871854936" id="-42302">
		<tag k="name" v="Skogåsdalen" />
		<tag k="natural" v="valley" />
		<tag k="place" v="locality" />
		<tag k="ssr:stedsnr" v="809985" />
	</node>
	<node lat="70.51976392750693" lon="29.69399873103047" id="-42305">
		<tag k="name" v="Skogdalen" />
		<tag k="natural" v="valley" />
		<tag k="place" v="locality" />
		<tag k="ssr:stedsnr" v="809473" />
	</node>
	<node lat="70.62133336447009" lon="29.672993235368235" id="-42311">
		<tag k="fixme" v="consider natural=peak for the most distinct mountains in the district" />
		<tag k="name" v="Marifjell" />
		<tag k="natural" v="hill" />
		<tag k="place" v="locality" />
		<tag k="ssr:stedsnr" v="819344" />
	</node>
	<node lat="70.63198336256397" lon="29.822434833616253" id="-42312">
		<tag k="name" v="Prestelvhøgda" />
		<tag k="natural" v="hill" />
		<tag k="place" v="locality" />
		<tag k="ssr:stedsnr" v="819416" />
	</node>
	<node lat="70.53528337528738" lon="30.111170751345337" id="-42313">
		<tag k="name" v="Brattlia" />
		<tag k="natural" v="slope" />
		<tag k="place" v="locality" />
		<tag k="ssr:stedsnr" v="820479" />
	</node>
	<node lat="70.61870003838602" lon="30.224523519704015" id="-42314">
		<tag k="name" v="Stormolldalen" />
		<tag k="natural" v="valley" />
		<tag k="place" v="locality" />
		<tag k="ssr:stedsnr" v="869038" />
	</node>
	<node lat="70.57112781569765" lon="30.04466248723103" id="-42315">
		<tag k="name" v="Nordfjordhøgda" />
		<tag k="natural" v="hill" />
		<tag k="place" v="locality" />
		<tag k="ssr:stedsnr" v="869043" />
	</node>
	<node lat="70.51142780738728" lon="29.678257076027872" id="-42316">
		<tag k="loc_name:se" v="Oardu" />
		<tag k="name" v="Syltefjorddalen" />
		<tag k="name:no" v="Syltefjorddalen" />
		<tag k="natural" v="valley" />
		<tag k="place" v="locality" />
		<tag k="ssr:stedsnr" v="869490" />
	</node>
	<node lat="70.61005003290164" lon="29.697257096743535" id="-42317">
		<tag k="alt_name" v="Strømsnesaksla" />
		<tag k="name" v="Straumsnesaksla" />
		<tag k="natural" v="hill" />
		<tag k="place" v="locality" />
		<tag k="ssr:stedsnr" v="869501" />
	</node>
	<node lat="70.44742503458099" lon="29.31548222047598" id="-42322">
		<tag k="fixme" v="consider natural=peak for the most distinct mountains in the district" />
		<tag k="name" v="Rávdolčohkka" />
		<tag k="name:se" v="Rávdolčohkka" />
=======
		<tag k="ssr:stedsnr" v="202931" />
	</node>
	<node id="-918583" lat="70.3124111536" lon="29.984545734">
		<tag k="fixme" v="consider natural=peak for the most distinct mountains in the district" />
		<tag k="name" v="Gaskkamus Ruitu" />
		<tag k="name:se" v="Gaskkamus Ruitu" />
		<tag k="natural" v="hill" />
		<tag k="old_name:se" v="Ruito, gaskamuš" />
		<tag k="place" v="locality" />
		<tag k="ssr:stedsnr" v="202921" />
	</node>
	<node id="-918582" lat="70.4995333769" lon="30.4489372025">
		<tag k="fixme" v="consider natural=peak for the most distinct mountains in the district" />
		<tag k="name" v="Gussoaivi" />
		<tag k="name:se" v="Gussoaivi" />
		<tag k="natural" v="hill" />
		<tag k="place" v="locality" />
		<tag k="ssr:stedsnr" v="202914" />
	</node>
	<node id="-918581" lat="70.4966639313" lon="30.1662457028">
		<tag k="fixme" v="consider natural=peak for the most distinct mountains in the district" />
		<tag k="name" v="Søttendalfjellet" />
		<tag k="natural" v="hill" />
		<tag k="place" v="locality" />
		<tag k="ssr:stedsnr" v="202911" />
	</node>
	<node id="-918580" lat="70.4715833768" lon="30.0994707267">
		<tag k="name" v="Vesterdalen" />
		<tag k="natural" v="valley" />
		<tag k="place" v="locality" />
		<tag k="ssr:stedsnr" v="202902" />
	</node>
	<node id="-918579" lat="70.4871111499" lon="30.1482484823">
		<tag k="name" v="Steinelvdalen" />
		<tag k="natural" v="valley" />
		<tag k="place" v="locality" />
		<tag k="ssr:stedsnr" v="202901" />
	</node>
	<node id="-918575" lat="70.5616972548" lon="29.3933183439">
		<tag k="name" v="Basečearru" />
		<tag k="name:se" v="Basečearru" />
		<tag k="natural" v="plateau" />
		<tag k="old_name:se" v="Basečærro" />
		<tag k="ssr:stedsnr" v="202506" />
	</node>
	<node id="-918574" lat="70.6556778064" lon="29.7161487799">
		<tag k="fixme" v="consider natural=peak for the most distinct mountains in the district" />
		<tag k="loc_name:se" v="Hámmánoaivi" />
		<tag k="name" v="Hamnefjellet" />
		<tag k="name:no" v="Hamnefjellet" />
		<tag k="natural" v="hill" />
		<tag k="place" v="locality" />
		<tag k="ssr:stedsnr" v="202488" />
	</node>
	<node id="-918573" lat="70.6130028049" lon="29.7351737607">
		<tag k="alt_name" v="Perelvtoppen" />
		<tag k="fixme" v="consider natural=peak for the most distinct mountains in the district" />
		<tag k="name" v="Perselvtoppen" />
		<tag k="natural" v="hill" />
		<tag k="place" v="locality" />
		<tag k="ssr:stedsnr" v="202470" />
	</node>
	<node id="-918567" lat="70.6281889247" lon="30.1874818543">
		<tag k="name" v="Storskarvikdalen" />
		<tag k="natural" v="valley" />
		<tag k="place" v="locality" />
		<tag k="ssr:stedsnr" v="202030" />
	</node>
	<node id="-918566" lat="70.535913937" lon="30.5081371925">
		<tag k="fixme" v="consider natural=peak for the most distinct mountains in the district" />
		<tag k="name" v="Gamvikbruna" />
		<tag k="natural" v="hill" />
		<tag k="place" v="locality" />
		<tag k="ssr:stedsnr" v="202013" />
	</node>
	<node id="-918563" lat="70.5104417032" lon="29.8786264118">
		<tag k="name" v="Falkedalen" />
		<tag k="natural" v="valley" />
		<tag k="place" v="locality" />
		<tag k="ssr:stedsnr" v="152405" />
	</node>
	<node id="-918562" lat="70.6092639154" lon="29.577793275">
		<tag k="name" v="Bakkehøgdene" />
		<tag k="natural" v="hill" />
		<tag k="place" v="locality" />
		<tag k="ssr:stedsnr" v="151268" />
	</node>
	<node id="-918558" lat="70.6135194842" lon="30.3229901204">
		<tag k="name" v="Klubbespiret" />
		<tag k="natural" v="hill" />
		<tag k="place" v="locality" />
		<tag k="ssr:stedsnr" v="146478" />
	</node>
	<node id="-918556" lat="70.4358778146" lon="29.7202848068">
		<tag k="name" v="Rahkkegorsa" />
		<tag k="name:se" v="Rahkkegorsa" />
		<tag k="natural" v="valley" />
		<tag k="old_name:se" v="Rakkegårsa" />
		<tag k="place" v="locality" />
		<tag k="ssr:stedsnr" v="141971" />
	</node>
	<node id="-918555" lat="70.408158367" lon="29.7275736753">
		<tag k="fixme" v="consider natural=peak for the most distinct mountains in the district" />
		<tag k="name" v="Jalgesoaivi" />
		<tag k="name:se" v="Jalgesoaivi" />
>>>>>>> e1d4bc35ff8a6074a6f2e91616a996b547c36f15
		<tag k="natural" v="hill" />
		<tag k="old_name:se" v="Ravdulčåkka" />
		<tag k="place" v="locality" />
<<<<<<< HEAD
		<tag k="ssr:stedsnr" v="869947" />
	</node>
	<node lat="70.53720838155694" lon="30.556798282451446" id="-42325">
		<tag k="fixme" v="consider natural=peak for the most distinct mountains in the district" />
		<tag k="name" v="Ovnen" />
		<tag k="natural" v="hill" />
		<tag k="place" v="locality" />
		<tag k="ssr:stedsnr" v="870013" />
	</node>
	<node lat="70.47233892981066" lon="30.23359011529853" id="-42326">
		<tag k="fixme" v="consider natural=peak for the most distinct mountains in the district" />
		<tag k="name" v="Øver-Tavla - Skádjačearru" />
		<tag k="name:no" v="Øver-Tavla" />
		<tag k="name:se" v="Skádjačearru" />
=======
		<tag k="ssr:stedsnr" v="141967" />
	</node>
	<node id="-918554" lat="70.3768417076" lon="29.7846236329">
		<tag k="name" v="Ruossa" />
		<tag k="name:se" v="Ruossa" />
		<tag k="natural" v="valley" />
		<tag k="place" v="locality" />
		<tag k="ssr:stedsnr" v="141962" />
	</node>
	<node id="-918549" lat="70.5162417049" lon="29.8647486552">
		<tag k="alt_name" v="Johandalen, øvre" />
		<tag k="name" v="Øvre Johandalen" />
		<tag k="natural" v="valley" />
		<tag k="place" v="locality" />
		<tag k="ssr:stedsnr" v="141456" />
	</node>
	<node id="-918548" lat="70.5115805972" lon="29.8901736331">
		<tag k="alt_name" v="Falkefjellet" />
		<tag k="fixme" v="consider natural=peak for the most distinct mountains in the district" />
		<tag k="name" v="Falkfjellet" />
		<tag k="natural" v="hill" />
		<tag k="place" v="locality" />
		<tag k="ssr:stedsnr" v="141453" />
	</node>
	<node id="-918541" lat="70.5280917027" lon="30.2553095717">
		<tag k="fixme" v="consider natural=peak for the most distinct mountains in the district" />
		<tag k="name" v="Kyst-Tavla" />
>>>>>>> e1d4bc35ff8a6074a6f2e91616a996b547c36f15
		<tag k="natural" v="hill" />
		<tag k="old_name:se" v="Skaddjačærro;Skadjačearru" />
		<tag k="place" v="locality" />
<<<<<<< HEAD
		<tag k="ssr:stedsnr" v="870884" />
	</node>
	<node lat="70.47970559609644" lon="30.14346236828745" id="-42327">
		<tag k="name" v="Austerdalen" />
=======
		<tag k="ssr:stedsnr" v="141012" />
	</node>
	<node id="-918539" lat="70.4030639316" lon="30.0728540534">
		<tag k="fixme" v="consider natural=peak for the most distinct mountains in the district" />
		<tag k="name" v="Røyskattfjellet" />
		<tag k="natural" v="hill" />
		<tag k="place" v="locality" />
		<tag k="ssr:stedsnr" v="140886" />
	</node>
	<node id="-918538" lat="70.399658382" lon="30.2626039464">
		<tag k="name" v="Juovkkaidávži" />
		<tag k="name:se" v="Juovkkaidávži" />
>>>>>>> e1d4bc35ff8a6074a6f2e91616a996b547c36f15
		<tag k="natural" v="valley" />
		<tag k="old_name:se" v="Juovkaidavži" />
		<tag k="place" v="locality" />
<<<<<<< HEAD
		<tag k="ssr:stedsnr" v="870894" />
	</node>
	<node lat="70.32063893055505" lon="29.899751322884153" id="-42329">
		<tag k="name" v="Bjørnskaret - Guovžagurra" />
		<tag k="name:no" v="Bjørnskaret" />
		<tag k="name:se" v="Guovžagurra" />
		<tag k="natural" v="valley" />
		<tag k="place" v="locality" />
		<tag k="ssr:stedsnr" v="870901" />
	</node>
	<node lat="70.51445281805147" lon="30.227109573611727" id="-42332">
		<tag k="fixme" v="consider natural=peak for the most distinct mountains in the district" />
		<tag k="name" v="Tavla" />
		<tag k="natural" v="hill" />
		<tag k="place" v="locality" />
		<tag k="ssr:stedsnr" v="874446" />
	</node>
	<node lat="70.51445004063183" lon="30.227106782536133" id="-42333">
		<tag k="name" v="Rossmålaksla" />
		<tag k="place" v="locality" />
		<tag k="ssr:stedsnr" v="874452" />
	</node>
	<node lat="70.32770837447042" lon="29.734423640963456" id="-42336">
		<tag k="fixme" v="consider natural=peak for the most distinct mountains in the district" />
		<tag k="name" v="Kjøltindan" />
		<tag k="natural" v="hill" />
		<tag k="place" v="locality" />
		<tag k="ssr:stedsnr" v="875770" />
	</node>
	<node lat="70.33912226493142" lon="30.180203968128772" id="-42337">
		<tag k="fixme" v="consider natural=peak for the most distinct mountains in the district" />
		<tag k="name" v="Ryggfjellet - Eartnjoaivi - Kivitunturi" />
		<tag k="name:fkv" v="Kivitunturi" />
		<tag k="name:no" v="Ryggfjellet" />
		<tag k="name:se" v="Eartnjoaivi" />
		<tag k="natural" v="hill" />
		<tag k="old_name:se" v="Ærdnjoaivi" />
		<tag k="place" v="locality" />
		<tag k="ssr:stedsnr" v="875928" />
	</node>
	<node lat="70.51038058762975" lon="29.854584774210046" id="-42339">
		<tag k="name" v="Johandalen" />
		<tag k="natural" v="valley" />
		<tag k="place" v="locality" />
		<tag k="ssr:stedsnr" v="880374" />
	</node>
	<node lat="70.64683614278074" lon="29.662040478987617" id="-42342">
		<tag k="name" v="Skolelvgrenan" />
		<tag k="natural" v="slope" />
		<tag k="place" v="locality" />
		<tag k="ssr:stedsnr" v="941336" />
=======
		<tag k="ssr:stedsnr" v="140885" />
	</node>
	<node id="-918537" lat="70.4446389373" lon="30.3850094438">
		<tag k="fixme" v="consider natural=peak for the most distinct mountains in the district" />
		<tag k="name" v="Heastačielgi" />
		<tag k="name:se" v="Heastačielgi" />
		<tag k="natural" v="hill" />
		<tag k="old_name:se" v="Hæstačielgi" />
		<tag k="place" v="locality" />
		<tag k="ssr:stedsnr" v="140884" />
	</node>
	<node id="-918533" lat="70.6197083615" lon="29.725854322">
		<tag k="fixme" v="consider natural=peak for the most distinct mountains in the district" />
		<tag k="name" v="Simaaksla" />
		<tag k="natural" v="hill" />
		<tag k="place" v="locality" />
		<tag k="ssr:stedsnr" v="91391" />
	</node>
	<node id="-918532" lat="70.6229000304" lon="29.6847710046">
		<tag k="name" v="Mariberget" />
		<tag k="natural" v="hill" />
		<tag k="place" v="locality" />
		<tag k="ssr:stedsnr" v="91343" />
	</node>
	<node id="-918531" lat="70.4562278135" lon="29.7174181612">
		<tag k="fixme" v="consider natural=peak for the most distinct mountains in the district" />
		<tag k="name" v="Krokfjellet - Roahkkoaivi" />
		<tag k="name:no" v="Krokfjellet" />
		<tag k="name:se" v="Roahkkoaivi" />
		<tag k="natural" v="hill" />
		<tag k="old_name:se" v="Roakkoaivi" />
		<tag k="place" v="locality" />
		<tag k="ssr:stedsnr" v="86983" />
	</node>
	<node id="-918530" lat="70.6344555819" lon="29.5259266365">
		<tag k="fixme" v="consider natural=peak for the most distinct mountains in the district" />
		<tag k="name" v="Midtfjellet - Guovdoaivi" />
		<tag k="name:no" v="Midtfjellet" />
		<tag k="name:se" v="Guovdoaivi" />
		<tag k="natural" v="hill" />
		<tag k="old_name:se" v="Guovdaoaivi" />
		<tag k="place" v="locality" />
		<tag k="ssr:stedsnr" v="86444" />
	</node>
	<node id="-918529" lat="70.4771167032" lon="29.9269930401">
		<tag k="name" v="Trangdalen - Baskkesávži" />
		<tag k="name:no" v="Trangdalen" />
		<tag k="name:se" v="Baskkesávži" />
		<tag k="natural" v="valley" />
		<tag k="old_name:se" v="Baskesavži" />
		<tag k="place" v="locality" />
		<tag k="ssr:stedsnr" v="81979" />
>>>>>>> e1d4bc35ff8a6074a6f2e91616a996b547c36f15
	</node>
</osm>
