<?xml version="1.0" encoding="UTF-8"?>
<osm version="0.6" generator="osmapis">
	<node lat="70.52228060213531" lon="30.57687325353252" id="-59191">
		<tag k="name" v="Tårnvatnet" />
		<tag k="natural" v="water" />
		<tag k="ssr:stedsnr" v="20001" />
	</node>
	<node lat="70.53409170672273" lon="30.303448425330743" id="-59192">
		<tag k="fixme" v="consider natural=peak for the most distinct mountains in the district" />
		<tag k="name" v="Romsdalsbruna" />
		<tag k="natural" v="hill" />
		<tag k="place" v="locality" />
		<tag k="ssr:stedsnr" v="20012" />
	</node>
	<node lat="70.72971114119349" lon="29.770120995023973" id="-59193">
		<tag k="name" v="Heikabukta" />
		<tag k="natural" v="bay" />
		<tag k="ssr:stedsnr" v="20493" />
	</node>
	<node lat="70.3388889367765" lon="30.01246516571749" id="-59194">
		<tag k="name" v="Njuvččagurjohka" />
		<tag k="name:se" v="Njuvččagurjohka" />
		<tag k="old_name:se" v="Njuvčagurjåkka" />
		<tag k="ssr:stedsnr" v="20945" />
		<tag k="waterway" v="stream" />
	</node>
	<node lat="70.47516948013829" lon="29.778479227712662" id="-59195">
		<tag k="name" v="Rássejávri" />
		<tag k="name:se" v="Rássejávri" />
		<tag k="natural" v="water" />
		<tag k="old_name:se" v="Rassejavri" />
		<tag k="ssr:stedsnr" v="20986" />
		<tag k="water" v="lake" />
	</node>
	<node lat="70.53589170530448" lon="29.971070825944494" id="-59197">
		<tag k="name" v="Storhaugdalen" />
		<tag k="natural" v="valley" />
		<tag k="place" v="locality" />
		<tag k="ssr:stedsnr" v="30466" />
	</node>
	<node lat="70.50568614811705" lon="30.159395705366585" id="-59198">
		<tag k="name" v="Karielva" />
		<tag k="ssr:stedsnr" v="81009" />
		<tag k="waterway" v="stream" />
	</node>
	<node lat="70.62651948661014" lon="30.275942927798905" id="-59199">
		<tag k="name" v="Stormolla" />
		<tag k="natural" v="slope" />
		<tag k="place" v="locality" />
		<tag k="ssr:stedsnr" v="81038" />
	</node>
	<node lat="70.49413338422175" lon="30.54732325490424" id="-59200">
		<tag k="name" v="Per Olsadalen" />
		<tag k="natural" v="valley" />
		<tag k="place" v="locality" />
		<tag k="ssr:stedsnr" v="81890" />
	</node>
	<node lat="70.47719725824305" lon="30.08897629826572" id="-59201">
		<tag k="name" v="Allmenningdalen" />
		<tag k="natural" v="valley" />
		<tag k="place" v="locality" />
		<tag k="ssr:stedsnr" v="81891" />
	</node>
	<node lat="70.46090559628816" lon="30.04455409436062" id="-59202">
		<tag k="name" v="Steindalen" />
		<tag k="natural" v="valley" />
		<tag k="place" v="locality" />
		<tag k="ssr:stedsnr" v="81900" />
	</node>
	<node lat="70.49555281831677" lon="30.145295734021023" id="-59203">
		<tag k="name" v="Søttendalen" />
		<tag k="natural" v="valley" />
		<tag k="place" v="locality" />
		<tag k="ssr:stedsnr" v="81908" />
	</node>
	<node lat="70.49256670735485" lon="30.087359641847474" id="-59204">
		<tag k="name" v="Gamslettdalen" />
		<tag k="natural" v="valley" />
		<tag k="place" v="locality" />
		<tag k="ssr:stedsnr" v="81909" />
	</node>
	<node lat="70.49340281900551" lon="30.286184517628403" id="-59205">
		<tag k="name" v="Gunnargamdalen" />
		<tag k="natural" v="valley" />
		<tag k="place" v="locality" />
		<tag k="ssr:stedsnr" v="81911" />
	</node>
	<node lat="70.61666670398118" lon="29.999998616651798" id="-59206">
		<tag k="name" v="Makkaurhalvøya" />
		<tag k="natural" v="cape" />
		<tag k="ssr:stedsnr" v="85211" />
	</node>
	<node lat="70.45622781354493" lon="29.71741816117428" id="-59207">
		<tag k="fixme" v="consider natural=peak for the most distinct mountains in the district" />
		<tag k="name" v="Krokfjellet - Roahkkoaivi" />
		<tag k="name:no" v="Krokfjellet" />
		<tag k="name:se" v="Roahkkoaivi" />
		<tag k="natural" v="hill" />
		<tag k="old_name:se" v="Roakkoaivi" />
		<tag k="place" v="locality" />
		<tag k="ssr:stedsnr" v="86983" />
	</node>
	<node lat="70.44463893728152" lon="30.385009443765878" id="-59208">
		<tag k="fixme" v="consider natural=peak for the most distinct mountains in the district" />
		<tag k="name" v="Heastačielgi" />
		<tag k="name:se" v="Heastačielgi" />
		<tag k="natural" v="hill" />
		<tag k="old_name:se" v="Hæstačielgi" />
		<tag k="place" v="locality" />
		<tag k="ssr:stedsnr" v="140884" />
	</node>
	<node lat="70.39965838203838" lon="30.262603946444795" id="-59209">
		<tag k="name" v="Juovkkaidávži" />
		<tag k="name:se" v="Juovkkaidávži" />
		<tag k="natural" v="valley" />
		<tag k="old_name:se" v="Juovkaidavži" />
		<tag k="place" v="locality" />
		<tag k="ssr:stedsnr" v="140885" />
	</node>
	<node lat="70.51681393579611" lon="30.505053855962203" id="-59210">
		<tag k="name" v="Stormyran" />
		<tag k="natural" v="wetland" />
		<tag k="ssr:stedsnr" v="141007" />
	</node>
	<node lat="70.64442225510635" lon="30.2104957417355" id="-59211">
		<tag k="name" v="Storskarvika" />
		<tag k="natural" v="bay" />
		<tag k="ssr:stedsnr" v="141041" />
	</node>
	<node lat="70.66721947227995" lon="29.701384885232066" id="-59213">
		<tag k="fixme" v="consider natural=peak for the most distinct mountains in the district" />
		<tag k="name" v="Kyst-Rubbedalshøgda" />
		<tag k="natural" v="hill" />
		<tag k="place" v="locality" />
		<tag k="ssr:stedsnr" v="145432" />
	</node>
	<node lat="70.61351948421277" lon="30.322990120441105" id="-59214">
		<tag k="name" v="Klubbespiret" />
		<tag k="natural" v="hill" />
		<tag k="place" v="locality" />
		<tag k="ssr:stedsnr" v="146478" />
	</node>
	<node lat="70.60926391541672" lon="29.577793275009636" id="-59215">
		<tag k="name" v="Bakkehøgdene" />
		<tag k="natural" v="hill" />
		<tag k="place" v="locality" />
		<tag k="ssr:stedsnr" v="151268" />
	</node>
	<node lat="70.5104417031597" lon="29.87862641177159" id="-59216">
		<tag k="name" v="Falkedalen" />
		<tag k="natural" v="valley" />
		<tag k="place" v="locality" />
		<tag k="ssr:stedsnr" v="152405" />
	</node>
	<node lat="70.70774170125281" lon="30.0316319885098" id="-59217">
		<tag k="name" v="Makkaur" />
		<tag k="place" v="locality" />
		<tag k="ssr:stedsnr" v="262032" />
	</node>
	<node lat="70.5067833688266" lon="29.788554257021385" id="-59218">
		<tag k="name" v="Reindalen" />
		<tag k="natural" v="valley" />
		<tag k="place" v="locality" />
		<tag k="ssr:stedsnr" v="262036" />
	</node>
	<node lat="70.45245004443774" lon="30.091759613076388" id="-59219">
		<tag k="name" v="Aslak Gamslettdalen" />
		<tag k="natural" v="valley" />
		<tag k="place" v="locality" />
		<tag k="ssr:stedsnr" v="262910" />
	</node>
	<node lat="70.53355004038518" lon="30.397365050315006" id="-59220">
		<tag k="name" v="Syltevikvatnet" />
		<tag k="natural" v="water" />
		<tag k="ssr:stedsnr" v="263014" />
		<tag k="water" v="lake" />
	</node>
	<node lat="70.62813892370527" lon="29.787873744870783" id="-59221">
		<tag k="alt_name" v="Blindvatn" />
		<tag k="name" v="Blindvatnet" />
		<tag k="natural" v="water" />
		<tag k="ssr:stedsnr" v="263483" />
	</node>
	<node lat="70.68263891493913" lon="29.797868204465413" id="-59222">
		<tag k="name" v="Russekeila" />
		<tag k="natural" v="bay" />
		<tag k="ssr:stedsnr" v="263523" />
	</node>
	<node lat="70.52880004512258" lon="30.61747322642221" id="-59223">
		<tag k="alt_name" v="Steinsnes, yt" />
		<tag k="name" v="Ytre Steinsnes" />
		<tag k="natural" v="cape" />
		<tag k="ssr:stedsnr" v="202005" />
	</node>
	<node lat="70.45426671072389" lon="30.44600663179395" id="-59224">
		<tag k="name" v="Telegrafhytta" />
		<tag k="place" v="isolated_dwelling" />
		<tag k="ssr:stedsnr" v="202892" />
	</node>
	<node lat="70.48711114988251" lon="30.14824848231971" id="-59225">
		<tag k="name" v="Steinelvdalen" />
		<tag k="natural" v="valley" />
		<tag k="place" v="locality" />
		<tag k="ssr:stedsnr" v="202901" />
	</node>
	<node lat="70.4715833768445" lon="30.099470726735856" id="-59226">
		<tag k="name" v="Vesterdalen" />
		<tag k="natural" v="valley" />
		<tag k="place" v="locality" />
		<tag k="ssr:stedsnr" v="202902" />
	</node>
	<node lat="70.63114725571697" lon="29.715443206250313" id="-59227">
		<tag k="name" v="Foma" />
		<tag k="place" v="quarter" />
		<tag k="ssr:stedsnr" v="213329" />
	</node>
	<node lat="70.70608336636087" lon="30.09364862193857" id="-59230">
		<tag k="fixme" v="consider seamark:type=rock or natural=shoal" />
		<tag k="name" v="Molvikskjæret" />
		<tag k="place" v="islet" />
		<tag k="ssr:stedsnr" v="450529" />
	</node>
	<node lat="70.49820002915236" lon="29.60686821703909" id="-59231">
		<tag k="fixme" v="consider natural=peak for the most distinct mountains in the district" />
		<tag k="name" v="Skoghøgda - Vuovdeoaivi" />
		<tag k="name:no" v="Skoghøgda" />
		<tag k="name:se" v="Vuovdeoaivi" />
		<tag k="natural" v="hill" />
		<tag k="place" v="locality" />
		<tag k="ssr:stedsnr" v="450991" />
	</node>
	<node lat="70.51002503971375" lon="29.898004186552807" id="-59232">
		<tag k="name" v="Nerran" />
		<tag k="natural" v="slope" />
		<tag k="place" v="locality" />
		<tag k="ssr:stedsnr" v="455364" />
	</node>
	<node lat="70.62036114686504" lon="29.678729335075644" id="-59233">
		<tag k="name" v="Marielva" />
		<tag k="ssr:stedsnr" v="455301" />
		<tag k="waterway" v="stream" />
	</node>
	<node lat="70.51238892329424" lon="29.93474307251005" id="-59234">
		<tag k="name" v="Brendbakken" />
		<tag k="natural" v="slope" />
		<tag k="place" v="locality" />
		<tag k="ssr:stedsnr" v="455401" />
	</node>
	<node lat="70.60993615302993" lon="30.308759573550265" id="-59235">
		<tag k="fixme" v="consider natural=peak for the most distinct mountains in the district" />
		<tag k="name" v="Syltefjordklubben - Oardovuonklubbu" />
		<tag k="name:no" v="Syltefjordklubben" />
		<tag k="name:se" v="Oardovuonklubbu" />
		<tag k="natural" v="hill" />
		<tag k="place" v="locality" />
		<tag k="ssr:stedsnr" v="262023" />
	</node>
	<node lat="70.60369170762512" lon="30.32353454832129" id="-59236">
		<tag k="name" v="Russevika" />
		<tag k="natural" v="bay" />
		<tag k="ssr:stedsnr" v="262024" />
	</node>
	<node lat="70.55843336116388" lon="29.590623808032802" id="-59237">
		<tag k="name" v="Djupvatnet - Goalsejávri" />
		<tag k="name:no" v="Djupvatnet" />
		<tag k="name:se" v="Goalsejávri" />
		<tag k="natural" v="water" />
		<tag k="old_name:se" v="Goalsejavri" />
		<tag k="ssr:stedsnr" v="262453" />
		<tag k="water" v="lake" />
	</node>
	<node lat="70.50534726246929" lon="30.120073521049466" id="-59238">
		<tag k="alt_name:no" v="Austerelv" />
		<tag k="name" v="Austerelva - Uhc-Oardu" />
		<tag k="name:no" v="Austerelva" />
		<tag k="name:se" v="Uhc-Oardu" />
		<tag k="old_name:se" v="Ucc-Oardo" />
		<tag k="place" v="locality" />
		<tag k="ssr:stedsnr" v="263003" />
	</node>
	<node lat="70.53693059772252" lon="30.497170535161903" id="-59239">
		<tag k="name" v="Gamvikdalen" />
		<tag k="natural" v="valley" />
		<tag k="place" v="locality" />
		<tag k="ssr:stedsnr" v="263080" />
	</node>
	<node lat="70.4760250407382" lon="30.198070687001827" id="-59240">
		<tag k="name" v="Sandsletta" />
		<tag k="place" v="locality" />
		<tag k="ssr:stedsnr" v="263893" />
	</node>
	<node lat="70.42640280680907" lon="29.451312715399656" id="-59241">
		<tag k="fixme" v="consider natural=peak for the most distinct mountains in the district" />
		<tag k="name" v="Áldačohkka" />
		<tag k="name:se" v="Áldačohkka" />
		<tag k="natural" v="hill" />
		<tag k="old_name:se" v="Aldačåkka" />
		<tag k="place" v="locality" />
		<tag k="ssr:stedsnr" v="263979" />
	</node>
	<node lat="70.54981670341978" lon="30.14465408328559" id="-59242">
		<tag k="name" v="Kvalmolla" />
		<tag k="natural" v="bay" />
		<tag k="ssr:stedsnr" v="273472" />
	</node>
	<node lat="70.53613059244786" lon="29.994873602011058" id="-59243">
		<tag k="name" v="Vassbotnelva" />
		<tag k="ssr:stedsnr" v="273491" />
		<tag k="waterway" v="stream" />
	</node>
	<node lat="70.63685003172864" lon="29.73959041929217" id="-59244">
		<tag k="name" v="Hamnneset" />
		<tag k="place" v="quarter" />
		<tag k="ssr:stedsnr" v="273389" />
	</node>
	<node lat="70.6307833691536" lon="29.774701517897988" id="-59245">
		<tag k="name" v="Kvanngrø" />
		<tag k="natural" v="bay" />
		<tag k="ssr:stedsnr" v="273391" />
	</node>
	<node lat="70.41745559109282" lon="29.652843165111857" id="-59246">
		<tag k="fixme" v="consider boundary=protected_area and relevant protect_class if not nature reserve" />
		<tag k="leisure" v="nature_reserve" />
		<tag k="name" v="Varangerhalvøya nasjonalpark" />
		<tag k="ssr:stedsnr" v="284276" />
	</node>
	<node lat="70.61579169968809" lon="29.682859902640097" id="-59247">
		<tag k="alt_name" v="Strømvatn;Strømvatnet" />
		<tag k="fixme" v="multiple name tags, choose one and add the other to alt_name" />
		<tag k="name" v="Vatnet;Straumsnesvatnet" />
		<tag k="natural" v="water" />
		<tag k="ssr:stedsnr" v="323478" />
	</node>
	<node lat="70.69943059172877" lon="29.983890329414457" id="-59248">
		<tag k="name" v="Skipsvikhalsen" />
		<tag k="natural" v="valley" />
		<tag k="place" v="locality" />
		<tag k="ssr:stedsnr" v="323483" />
	</node>
	<node lat="70.41000837164334" lon="29.685373706843887" id="-59249">
		<tag k="name" v="Stuorraskáidi" />
		<tag k="name:se" v="Stuorraskáidi" />
		<tag k="natural" v="cape" />
		<tag k="old_name:se" v="Stuorraskaidi" />
		<tag k="ssr:stedsnr" v="323975" />
	</node>
	<node lat="70.46101114579987" lon="29.666487626845637" id="-59250">
		<tag k="name" v="Morešveairoahkki" />
		<tag k="name:se" v="Morešveairoahkki" />
		<tag k="natural" v="valley" />
		<tag k="old_name:se" v="Mårešvæjroakki" />
		<tag k="place" v="locality" />
		<tag k="ssr:stedsnr" v="323978" />
	</node>
	<node lat="70.6480333681009" lon="29.904204242851677" id="-59251">
		<tag k="fixme" v="consider natural=peak for the most distinct mountains in the district" />
		<tag k="name" v="Rydbergneset" />
		<tag k="natural" v="hill" />
		<tag k="place" v="locality" />
		<tag k="ssr:stedsnr" v="329503" />
	</node>
	<node lat="70.63418614455996" lon="29.690468236719955" id="-59252">
		<tag k="name" v="Skolelvdalen" />
		<tag k="natural" v="valley" />
		<tag k="place" v="locality" />
		<tag k="ssr:stedsnr" v="334296" />
	</node>
	<node lat="70.55037225754528" lon="29.99773747802237" id="-59253">
		<tag k="fixme" v="consider natural=peak for the most distinct mountains in the district" />
		<tag k="name" v="Steinfjellet" />
		<tag k="natural" v="hill" />
		<tag k="place" v="locality" />
		<tag k="ssr:stedsnr" v="334450" />
	</node>
	<node lat="70.50080559224756" lon="30.042992989776245" id="-59254">
		<tag k="fixme" v="consider natural=peak for the most distinct mountains in the district" />
		<tag k="name" v="Oterfjellet" />
		<tag k="natural" v="hill" />
		<tag k="place" v="locality" />
		<tag k="ssr:stedsnr" v="384007" />
	</node>
	<node lat="70.5616750355496" lon="30.037820810282412" id="-59255">
		<tag k="name" v="Nordfjorddalen" />
		<tag k="natural" v="valley" />
		<tag k="place" v="locality" />
		<tag k="ssr:stedsnr" v="384047" />
	</node>
	<node lat="70.51373059735754" lon="30.432195571776884" id="-59256">
		<tag k="name" v="Syltevikmoan" />
		<tag k="place" v="locality" />
		<tag k="ssr:stedsnr" v="384001" />
	</node>
	<node lat="70.62923613983081" lon="29.694790448598358" id="-59257">
		<tag k="loc_name:se" v="Báhcavuonna" />
		<tag k="name" v="Båtsfjord" />
		<tag k="name:no" v="Båtsfjord" />
		<tag k="place" v="village" />
		<tag k="ssr:stedsnr" v="384452" />
	</node>
	<node lat="70.46520838247129" lon="30.729728687607153" id="-59258">
		<tag k="name" v="Seglkollen" />
		<tag k="natural" v="hill" />
		<tag k="place" v="locality" />
		<tag k="ssr:stedsnr" v="384905" />
	</node>
	<node lat="70.44518614761235" lon="29.86609307265387" id="-59259">
		<tag k="name" v="Noaidejohka" />
		<tag k="name:se" v="Noaidejohka" />
		<tag k="old_name:se" v="Noaidejåkka" />
		<tag k="ssr:stedsnr" v="384961" />
		<tag k="waterway" v="stream" />
	</node>
	<node lat="70.6393528157655" lon="30.23696517100309" id="-59260">
		<tag k="name" v="Storsteinneset" />
		<tag k="natural" v="cape" />
		<tag k="ssr:stedsnr" v="388407" />
	</node>
	<node lat="70.61880280919114" lon="29.687323765412287" id="-59261">
		<tag k="name" v="Strømsnes" />
		<tag k="place" v="quarter" />
		<tag k="ssr:stedsnr" v="394312" />
	</node>
	<node lat="70.51703336696278" lon="29.92511528633124" id="-59262">
		<tag k="name" v="Moan" />
		<tag k="place" v="locality" />
		<tag k="ssr:stedsnr" v="394387" />
	</node>
	<node lat="70.54293892330848" lon="30.086440210252622" id="-59263">
		<tag k="name" v="Stormolla" />
		<tag k="natural" v="bay" />
		<tag k="ssr:stedsnr" v="394495" />
	</node>
	<node lat="70.70752502787445" lon="29.989712560524666" id="-59264">
		<tag k="name" v="Rossmålvika" />
		<tag k="natural" v="bay" />
		<tag k="ssr:stedsnr" v="445492" />
	</node>
	<node lat="70.66429447890023" lon="29.943626448782314" id="-59265">
		<tag k="fixme" v="consider natural=peak for the most distinct mountains in the district" />
		<tag k="name" v="Makkaurfjella" />
		<tag k="natural" v="hill" />
		<tag k="place" v="locality" />
		<tag k="ssr:stedsnr" v="445499" />
	</node>
	<node lat="70.68376114032841" lon="29.800057068611206" id="-59266">
		<tag k="name" v="Elveneset" />
		<tag k="natural" v="cape" />
		<tag k="ssr:stedsnr" v="445508" />
	</node>
	<node lat="70.64406114377829" lon="29.71161821534829" id="-59267">
		<tag k="name" v="Hamneelva" />
		<tag k="ssr:stedsnr" v="455321" />
		<tag k="waterway" v="river" />
	</node>
	<node lat="70.54729726290552" lon="30.008351364571197" id="-59268">
		<tag k="name" v="Gardijåkkdalen" />
		<tag k="natural" v="valley" />
		<tag k="place" v="locality" />
		<tag k="ssr:stedsnr" v="455477" />
	</node>
	<node lat="70.5252250327909" lon="29.319190571306102" id="-59269">
		<tag k="name" v="Tanadalen" />
		<tag k="natural" v="valley" />
		<tag k="place" v="locality" />
		<tag k="ssr:stedsnr" v="505505" />
	</node>
	<node lat="70.59782225078489" lon="29.634940459917043" id="-59270">
		<tag k="name" v="Jonatoppen - Jovnnačohkka" />
		<tag k="name:no" v="Jonatoppen" />
		<tag k="name:se" v="Jovnnačohkka" />
		<tag k="natural" v="hill" />
		<tag k="old_name:se" v="Jåvnačåkka" />
		<tag k="place" v="locality" />
		<tag k="ssr:stedsnr" v="505472" />
	</node>
	<node lat="70.61285003168358" lon="29.764584856979063" id="-59271">
		<tag k="name" v="Klauvvatnet" />
		<tag k="natural" v="water" />
		<tag k="ssr:stedsnr" v="505475" />
	</node>
	<node lat="70.46452782037308" lon="30.13932904527898" id="-59272">
		<tag k="name" v="Skadjasuolojohka" />
		<tag k="name:se" v="Skadjasuolojohka" />
		<tag k="old_name:se" v="Skaddjasuolujåkka" />
		<tag k="ssr:stedsnr" v="505875" />
		<tag k="waterway" v="river" />
	</node>
	<node lat="70.4657750366659" lon="30.07178464540591" id="-59273">
		<tag k="name" v="Tobiasdalen" />
		<tag k="natural" v="valley" />
		<tag k="place" v="locality" />
		<tag k="ssr:stedsnr" v="505877" />
	</node>
	<node lat="70.310663936917" lon="30.1126428688875" id="-59274">
		<tag k="name" v="Hubejohskáidi" />
		<tag k="name:se" v="Hubejohskáidi" />
		<tag k="natural" v="cape" />
		<tag k="old_name:se" v="Hubejåkskaidi" />
		<tag k="ssr:stedsnr" v="505909" />
	</node>
	<node lat="70.29649726403954" lon="30.074115119059794" id="-59275">
		<tag k="name" v="Grythaugen - Stuorra Ruitu - Patatunturi" />
		<tag k="name:fkv" v="Patatunturi" />
		<tag k="name:no" v="Grythaugen" />
		<tag k="name:se" v="Stuorra Ruitu" />
		<tag k="natural" v="hill" />
		<tag k="old_name:se" v="Ruito, stuorra" />
		<tag k="place" v="locality" />
		<tag k="ssr:stedsnr" v="505910" />
	</node>
	<node lat="70.3784417107456" lon="29.940893012310465" id="-59276">
		<tag k="name" v="Sandfjorddalen" />
		<tag k="natural" v="valley" />
		<tag k="place" v="locality" />
		<tag k="ssr:stedsnr" v="505963" />
	</node>
	<node lat="70.65392781228607" lon="30.112293032492286" id="-59277">
		<tag k="name" v="Kålfjord" />
		<tag k="place" v="isolated_dwelling" />
		<tag k="ssr:stedsnr" v="511509" />
	</node>
	<node lat="70.5408583750069" lon="30.56124272776514" id="-59278">
		<tag k="name" v="Ovnsmolla" />
		<tag k="natural" v="bay" />
		<tag k="ssr:stedsnr" v="511988" />
	</node>
	<node lat="70.61538059079233" lon="29.68721821590005" id="-59279">
		<tag k="name" v="Spira" />
		<tag k="place" v="locality" />
		<tag k="ssr:stedsnr" v="516127" />
	</node>
	<node lat="70.58895836501655" lon="29.646451551042226" id="-59280">
		<tag k="name" v="Bardosenbakken" />
		<tag k="natural" v="slope" />
		<tag k="place" v="locality" />
		<tag k="ssr:stedsnr" v="516134" />
	</node>
	<node lat="70.5068111479237" lon="29.874240323333584" id="-59281">
		<tag k="name" v="Reingjerdneset" />
		<tag k="natural" v="cape" />
		<tag k="ssr:stedsnr" v="516364" />
	</node>
	<node lat="70.53520004391383" lon="30.540001061793564" id="-59282">
		<tag k="name" v="Ovnsvatnan" />
		<tag k="natural" v="water" />
		<tag k="ssr:stedsnr" v="687011" />
	</node>
	<node lat="70.51548892616367" lon="30.11402629067531" id="-59283">
		<tag k="alt_name" v="Oterneset" />
		<tag k="name" v="Oternesan" />
		<tag k="natural" v="cape" />
		<tag k="ssr:stedsnr" v="687014" />
	</node>
	<node lat="70.5157389236405" lon="30.08075687902976" id="-59284">
		<tag k="name" v="Litleelva" />
		<tag k="ssr:stedsnr" v="687015" />
		<tag k="waterway" v="stream" />
	</node>
	<node lat="70.53376670040258" lon="30.090534660731443" id="-59286">
		<tag k="name" v="Hamna" />
		<tag k="place" v="locality" />
		<tag k="ssr:stedsnr" v="687044" />
	</node>
	<node lat="70.54114449077579" lon="30.609967690413928" id="-59287">
		<tag k="alt_name:no" v="Havningberg" />
		<tag k="fixme" v="consider place=hamlet" />
		<tag k="loc_name:se" v="Hámbiergi;Hámmanbirgi" />
		<tag k="name" v="Hamningberg" />
		<tag k="name:no" v="Hamningberg" />
		<tag k="place" v="village" />
		<tag k="ssr:stedsnr" v="687053" />
	</node>
	<node lat="70.55699725898508" lon="30.217406803207783" id="-59288">
		<tag k="name" v="Sandfjordneset" />
		<tag k="natural" v="cape" />
		<tag k="ssr:stedsnr" v="687055" />
	</node>
	<node lat="70.52170003138782" lon="29.730990396102225" id="-59289">
		<tag k="name" v="Skarpdalen" />
		<tag k="natural" v="valley" />
		<tag k="place" v="locality" />
		<tag k="ssr:stedsnr" v="687439" />
	</node>
	<node lat="70.53965836245874" lon="29.466865521788165" id="-59290">
		<tag k="name" v="Adamstoppen - Áttáčohkka" />
		<tag k="name:no" v="Adamstoppen" />
		<tag k="name:se" v="Áttáčohkka" />
		<tag k="natural" v="hill" />
		<tag k="old_name:se" v="Addačåkka" />
		<tag k="place" v="locality" />
		<tag k="ssr:stedsnr" v="687431" />
	</node>
	<node lat="70.59858058915925" lon="29.664743232396123" id="-59291">
		<tag k="name" v="Båtsfjorddalen" />
		<tag k="natural" v="valley" />
		<tag k="old_name" v="Båtsfjordalen" />
		<tag k="place" v="locality" />
		<tag k="ssr:stedsnr" v="687463" />
	</node>
	<node lat="70.46778336664076" lon="29.35605443556909" id="-59292">
		<tag k="name" v="Rávdolskáidi" />
		<tag k="name:se" v="Rávdolskáidi" />
		<tag k="natural" v="cape" />
		<tag k="old_name:se" v="Ravdulskaidi" />
		<tag k="ssr:stedsnr" v="687943" />
	</node>
	<node lat="70.47489447304734" lon="29.224129490548556" id="-59293">
		<tag k="name" v="Oarddojávri - Ortojärvi" />
		<tag k="name:fkv" v="Ortojärvi" />
		<tag k="name:se" v="Oarddojávri" />
		<tag k="natural" v="water" />
		<tag k="old_name:se" v="Oardujavri" />
		<tag k="ssr:stedsnr" v="687952" />
		<tag k="water" v="lake" />
	</node>
	<node lat="70.60769447953679" lon="29.625715465609456" id="-59294">
		<tag k="name" v="Tverrelva" />
		<tag k="ssr:stedsnr" v="688100" />
		<tag k="waterway" v="river" />
	</node>
	<node lat="70.51238058809203" lon="29.376801653011146" id="-59295">
		<tag k="name" v="Elvestrandshøgda" />
		<tag k="natural" v="hill" />
		<tag k="place" v="locality" />
		<tag k="ssr:stedsnr" v="688508" />
	</node>
	<node lat="70.62604169768484" lon="29.81830427924033" id="-59296">
		<tag k="name" v="Skovikdalen" />
		<tag k="natural" v="valley" />
		<tag k="place" v="locality" />
		<tag k="ssr:stedsnr" v="688465" />
	</node>
	<node lat="70.64572503390399" lon="29.876182026066353" id="-59297">
		<tag k="name" v="Prestelvvatnet" />
		<tag k="natural" v="water" />
		<tag k="ssr:stedsnr" v="688468" />
	</node>
	<node lat="70.61988058421483" lon="29.79878762126457" id="-59298">
		<tag k="name" v="Skovikvatnet" />
		<tag k="natural" v="water" />
		<tag k="ssr:stedsnr" v="688473" />
	</node>
	<node lat="70.69557503386615" lon="29.740923778665774" id="-59299">
		<tag k="fixme" v="multiple name tags, choose one and add the other to alt_name" />
		<tag k="name" v="Rubbedalen;Austre Rubbedalen" />
		<tag k="natural" v="valley" />
		<tag k="old_name" v="Rubbedalen, austre" />
		<tag k="place" v="locality" />
		<tag k="ssr:stedsnr" v="688478" />
	</node>
	<node lat="70.4557250411719" lon="30.046401326265887" id="-59300">
		<tag k="name" v="Krokdalen" />
		<tag k="natural" v="valley" />
		<tag k="place" v="locality" />
		<tag k="ssr:stedsnr" v="565895" />
	</node>
	<node lat="70.54657503714046" lon="30.011340261117315" id="-59301">
		<tag k="alt_name:se" v="Gárdjohka;Gárdijohka" />
		<tag k="name" v="Gárdojohka" />
		<tag k="name:se" v="Gárdojohka" />
		<tag k="old_name:se" v="Gardujåkka" />
		<tag k="ssr:stedsnr" v="566059" />
		<tag k="waterway" v="stream" />
	</node>
	<node lat="70.62660280497565" lon="29.631307128108855" id="-59302">
		<tag k="name" v="Neptunelva" />
		<tag k="ssr:stedsnr" v="566466" />
		<tag k="waterway" v="river" />
	</node>
	<node lat="70.63483058633132" lon="29.804384848830985" id="-59303">
		<tag k="name" v="Skovika" />
		<tag k="natural" v="bay" />
		<tag k="ssr:stedsnr" v="566469" />
	</node>
	<node lat="70.38344170735722" lon="29.91130970186871" id="-59304">
		<tag k="name" v="Sandfjordelva - Dávatjohka" />
		<tag k="name:no" v="Sandfjordelva" />
		<tag k="name:se" v="Dávatjohka" />
		<tag k="old_name:se" v="Davatjåkka" />
		<tag k="ssr:stedsnr" v="566961" />
		<tag k="waterway" v="river" />
	</node>
	<node lat="70.38653892538446" lon="29.732234773073852" id="-59305">
		<tag k="fixme" v="consider natural=peak for the most distinct mountains in the district" />
		<tag k="name" v="Ruossoaivi" />
		<tag k="name:se" v="Ruossoaivi" />
		<tag k="natural" v="hill" />
		<tag k="place" v="locality" />
		<tag k="ssr:stedsnr" v="566965" />
	</node>
	<node lat="70.71116392615389" lon="30.133912483828162" id="-59306">
		<tag k="name" v="Lønfallet" />
		<tag k="natural" v="shoal" />
		<tag k="place" v="locality" />
		<tag k="ssr:stedsnr" v="693540" />
	</node>
	<node lat="70.67356114185507" lon="29.886537604551624" id="-59307">
		<tag k="name" v="Raudbergneset" />
		<tag k="natural" v="cape" />
		<tag k="ssr:stedsnr" v="571514" />
	</node>
	<node lat="70.61795558389922" lon="29.689001545098897" id="-59308">
		<tag k="alt_name" v="Strømmen" />
		<tag k="name" v="Straumen" />
		<tag k="natural" v="strait" />
		<tag k="ssr:stedsnr" v="694457" />
	</node>
	<node lat="70.50344447946156" lon="29.857265329639727" id="-59309">
		<tag k="name" v="Solheim" />
		<tag k="place" v="locality" />
		<tag k="ssr:stedsnr" v="576402" />
	</node>
	<node lat="70.55074170451987" lon="30.085773542871287" id="-59310">
		<tag k="building" v="industrial" />
		<tag k="industrial" v="factory" />
		<tag k="name" v="Samvirkebruket" />
		<tag k="ssr:stedsnr" v="576494" />
	</node>
	<node lat="70.61485558577921" lon="29.665559890200573" id="-59311">
		<tag k="name" v="Gattjohka" />
		<tag k="name:se" v="Gattjohka" />
		<tag k="ssr:stedsnr" v="698206" />
		<tag k="waterway" v="stream" />
	</node>
	<node lat="70.62535002769468" lon="29.7121015538887" id="-59312">
		<tag k="name" v="Sørnes" />
		<tag k="natural" v="cape" />
		<tag k="ssr:stedsnr" v="698332" />
	</node>
	<node lat="70.50588336567012" lon="29.893701410898966" id="-59313">
		<tag k="name" v="Reingjerdan" />
		<tag k="place" v="locality" />
		<tag k="ssr:stedsnr" v="698349" />
	</node>
	<node lat="70.51333893100858" lon="30.51592327756399" id="-59314">
		<tag k="name" v="Småelvan" />
		<tag k="ssr:stedsnr" v="626007" />
		<tag k="waterway" v="stream" />
	</node>
	<node lat="70.50200004403064" lon="30.568312138201602" id="-59315">
		<tag k="alt_name" v="Sandfjorden" />
		<tag k="name" v="Sandfjord" />
		<tag k="place" v="locality" />
		<tag k="ssr:stedsnr" v="626012" />
	</node>
	<node lat="70.5031833665124" lon="29.765587576432967" id="-59316">
		<tag k="name" v="Strupen" />
		<tag k="natural" v="valley" />
		<tag k="place" v="locality" />
		<tag k="ssr:stedsnr" v="626054" />
	</node>
	<node lat="70.64252503250994" lon="30.154020778102556" id="-59317">
		<tag k="name" v="Bjørndalen" />
		<tag k="natural" v="valley" />
		<tag k="place" v="locality" />
		<tag k="ssr:stedsnr" v="626056" />
	</node>
	<node lat="70.66648336991648" lon="30.118931922346157" id="-59318">
		<tag k="fixme" v="consider natural=peak for the most distinct mountains in the district" />
		<tag k="name" v="Korsnesfjellet" />
		<tag k="natural" v="hill" />
		<tag k="place" v="locality" />
		<tag k="ssr:stedsnr" v="626060" />
	</node>
	<node lat="70.53980003738134" lon="30.04806523375228" id="-59319">
		<tag k="fixme" v="consider natural=peak for the most distinct mountains in the district" />
		<tag k="name" v="Hamnefjellet" />
		<tag k="natural" v="hill" />
		<tag k="place" v="locality" />
		<tag k="ssr:stedsnr" v="626063" />
	</node>
	<node lat="70.53170559388577" lon="30.006298578450487" id="-59320">
		<tag k="name" v="Vesterelv" />
		<tag k="place" v="farm" />
		<tag k="ssr:stedsnr" v="626065" />
	</node>
	<node lat="70.61243336989722" lon="29.717643199018035" id="-59321">
		<tag k="name" v="Perelva" />
		<tag k="ssr:stedsnr" v="626502" />
		<tag k="waterway" v="stream" />
	</node>
	<node lat="70.46876115312817" lon="30.182145700776346" id="-59322">
		<tag k="fixme" v="consider natural=peak for the most distinct mountains in the district" />
		<tag k="name" v="Steinelvdalfjellet" />
		<tag k="natural" v="hill" />
		<tag k="place" v="locality" />
		<tag k="ssr:stedsnr" v="626897" />
	</node>
	<node lat="70.45525004026139" lon="30.116862386833862" id="-59323">
		<tag k="fixme" v="consider natural=peak for the most distinct mountains in the district" />
		<tag k="name" v="Mellomfjellet" />
		<tag k="natural" v="hill" />
		<tag k="place" v="locality" />
		<tag k="ssr:stedsnr" v="626898" />
	</node>
	<node lat="70.46047781841722" lon="30.15437347324391" id="-59324">
		<tag k="name" v="Mariedalen" />
		<tag k="natural" v="valley" />
		<tag k="place" v="locality" />
		<tag k="ssr:stedsnr" v="626901" />
	</node>
	<node lat="70.36184448622721" lon="29.89720411970995" id="-59325">
		<tag k="fixme" v="consider natural=peak for the most distinct mountains in the district" />
		<tag k="name" v="Gárgaš" />
		<tag k="name:se" v="Gárgaš" />
		<tag k="natural" v="hill" />
		<tag k="old_name:se" v="Gargaš" />
		<tag k="place" v="locality" />
		<tag k="ssr:stedsnr" v="626912" />
	</node>
	<node lat="70.69526114046087" lon="29.970776451576025" id="-59327">
		<tag k="name" v="Rossmålsaksla" />
		<tag k="natural" v="ridge" />
		<tag k="place" v="locality" />
		<tag k="ssr:stedsnr" v="632514" />
	</node>
	<node lat="70.39286393531636" lon="30.352226099580456" id="-59328">
		<tag k="name" v="Juovkkaidláttu" />
		<tag k="name:se" v="Juovkkaidláttu" />
		<tag k="natural" v="water" />
		<tag k="old_name:se" v="Juovkaidladdo" />
		<tag k="ssr:stedsnr" v="687890" />
	</node>
	<node lat="70.51846671529452" lon="30.598426013002765" id="-59329">
		<tag k="name" v="Kvannvikbukta" />
		<tag k="natural" v="bay" />
		<tag k="ssr:stedsnr" v="688005" />
	</node>
	<node lat="70.51567782396336" lon="30.4931538739061" id="-59330">
		<tag k="name" v="Stormyrvatnet" />
		<tag k="natural" v="water" />
		<tag k="ssr:stedsnr" v="688007" />
		<tag k="water" v="lake" />
	</node>
	<node lat="70.34710003675386" lon="29.800690288951557" id="-59331">
		<tag k="name" v="Vuoččalanjohka" />
		<tag k="name:se" v="Vuoččalanjohka" />
		<tag k="old_name:se" v="Vuožžalanjåkka" />
		<tag k="ssr:stedsnr" v="688906" />
		<tag k="waterway" v="river" />
	</node>
	<node lat="70.35004171166597" lon="29.99734295359394" id="-59332">
		<tag k="name" v="Njuvččagurjávrrit" />
		<tag k="name:se" v="Njuvččagurjávrrit" />
		<tag k="natural" v="water" />
		<tag k="old_name:se" v="Njuvčagurjavrit" />
		<tag k="ssr:stedsnr" v="688908" />
	</node>
	<node lat="70.49452504725214" lon="30.528376063987036" id="-59333">
		<tag k="name" v="Pølsedalen" />
		<tag k="natural" v="valley" />
		<tag k="place" v="locality" />
		<tag k="ssr:stedsnr" v="688886" />
	</node>
	<node lat="70.63525836835073" lon="29.71760155474859" id="-59334">
		<tag k="amenity" v="place_of_worship" />
		<tag k="denomination" v="lutheran" />
		<tag k="name" v="Båtsfjord kirke" />
		<tag k="religion" v="christian" />
		<tag k="ssr:stedsnr" v="697865" />
	</node>
	<node lat="70.59020836679784" lon="29.63982935819081" id="-59335">
		<tag k="name" v="Beigårdskaret" />
		<tag k="natural" v="valley" />
		<tag k="place" v="locality" />
		<tag k="ssr:stedsnr" v="698121" />
	</node>
	<node lat="70.58606114465194" lon="29.6099071254962" id="-59336">
		<tag k="name" v="Beigårdtoppen" />
		<tag k="natural" v="hill" />
		<tag k="place" v="locality" />
		<tag k="ssr:stedsnr" v="698122" />
	</node>
	<node lat="70.60367503144846" lon="29.579321049287163" id="-59337">
		<tag k="name" v="Bakkeelva" />
		<tag k="ssr:stedsnr" v="698216" />
		<tag k="waterway" v="stream" />
	</node>
	<node lat="70.63427224921617" lon="29.731990435827974" id="-59338">
		<tag k="fixme" v="consider seamark:type=rock or natural=shoal" />
		<tag k="name" v="Teinskjæret" />
		<tag k="place" v="islet" />
		<tag k="ssr:stedsnr" v="698281" />
	</node>
	<node lat="70.52328893631572" lon="30.61532323642064" id="-59339">
		<tag k="alt_name" v="Steinsnes, indre" />
		<tag k="name" v="Indre Steinsnes" />
		<tag k="natural" v="cape" />
		<tag k="ssr:stedsnr" v="748005" />
	</node>
	<node lat="70.51610559989159" lon="30.60037046035326" id="-59340">
		<tag k="alt_name" v="Kvamvikneset" />
		<tag k="name" v="Kvannvikneset" />
		<tag k="natural" v="cape" />
		<tag k="ssr:stedsnr" v="748010" />
	</node>
	<node lat="70.53078059304607" lon="30.289451203577233" id="-59341">
		<tag k="name" v="Romsdalen" />
		<tag k="natural" v="valley" />
		<tag k="place" v="locality" />
		<tag k="ssr:stedsnr" v="748016" />
	</node>
	<node lat="70.64543058692621" lon="29.7023293438726" id="-59342">
		<tag k="name" v="Hamnevannet" />
		<tag k="natural" v="water" />
		<tag k="ssr:stedsnr" v="748465" />
	</node>
	<node lat="70.31511670826683" lon="29.931076311026608" id="-59343">
		<tag k="fixme" v="consider natural=peak for the most distinct mountains in the district" />
		<tag k="name" v="Uhcit Ruitu" />
		<tag k="name:se" v="Uhcit Ruitu" />
		<tag k="natural" v="hill" />
		<tag k="old_name:se" v="Ruito, uccit" />
		<tag k="place" v="locality" />
		<tag k="ssr:stedsnr" v="748917" />
	</node>
	<node lat="70.61018336663166" lon="29.838351487584397" id="-59344">
		<tag k="fixme" v="consider natural=peak for the most distinct mountains in the district" />
		<tag k="name" v="Ravnnaš" />
		<tag k="name:se" v="Ravnnaš" />
		<tag k="natural" v="hill" />
		<tag k="old_name:se" v="Ravnaš" />
		<tag k="place" v="locality" />
		<tag k="ssr:stedsnr" v="808438" />
	</node>
	<node lat="70.59933336911122" lon="29.7658042923664" id="-59345">
		<tag k="name" v="Andedamman" />
		<tag k="natural" v="water" />
		<tag k="ssr:stedsnr" v="808441" />
	</node>
	<node lat="70.40563893162154" lon="30.343126126752733" id="-59346">
		<tag k="fixme" v="consider natural=peak for the most distinct mountains in the district" />
		<tag k="name" v="Langryggen - Juovkkaidčearru" />
		<tag k="name:no" v="Langryggen" />
		<tag k="name:se" v="Juovkkaidčearru" />
		<tag k="natural" v="hill" />
		<tag k="old_name:se" v="Juovkaidčærro" />
		<tag k="place" v="locality" />
		<tag k="ssr:stedsnr" v="808885" />
	</node>
	<node lat="70.52638059999954" lon="30.483323321623818" id="-59347">
		<tag k="name" v="Kvalbeinvatnet" />
		<tag k="natural" v="water" />
		<tag k="ssr:stedsnr" v="809005" />
		<tag k="water" v="lake" />
	</node>
	<node lat="70.62229448110544" lon="29.726943198193595" id="-59348">
		<tag k="name" v="Sima" />
		<tag k="place" v="locality" />
		<tag k="ssr:stedsnr" v="809492" />
	</node>
	<node lat="70.59274725341751" lon="29.6505793541966" id="-59350">
		<tag k="name" v="Lille Jovatn" />
		<tag k="natural" v="water" />
		<tag k="ssr:stedsnr" v="819146" />
	</node>
	<node lat="70.59681392134748" lon="29.64862102442398" id="-59351">
		<tag k="name" v="Storbakken" />
		<tag k="natural" v="slope" />
		<tag k="place" v="locality" />
		<tag k="ssr:stedsnr" v="819269" />
	</node>
	<node lat="70.60978336645776" lon="29.650837679875764" id="-59352">
		<tag k="name" v="Gattjåkkhøgda" />
		<tag k="natural" v="hill" />
		<tag k="place" v="locality" />
		<tag k="ssr:stedsnr" v="819252" />
	</node>
	<node lat="70.53885003496755" lon="30.087243002603486" id="-59353">
		<tag k="name" v="Hamnafjellet" />
		<tag k="natural" v="hill" />
		<tag k="place" v="locality" />
		<tag k="ssr:stedsnr" v="819503" />
	</node>
	<node lat="70.5294222615494" lon="30.05122634479863" id="-59354">
		<tag k="name" v="Bergodden" />
		<tag k="ssr:stedsnr" v="820468" />
		<tag k="waterway" v="stream" />
	</node>
	<node lat="70.5854305964623" lon="30.303781792215435" id="-59355">
		<tag k="name" v="Mellomneset" />
		<tag k="natural" v="cape" />
		<tag k="ssr:stedsnr" v="930031" />
	</node>
	<node lat="70.54415004220755" lon="30.41932893142839" id="-59356">
		<tag k="name" v="Kristenvatnet" />
		<tag k="natural" v="water" />
		<tag k="ssr:stedsnr" v="930055" />
	</node>
	<node lat="70.55920836876676" lon="30.145720736140838" id="-59357">
		<tag k="name" v="Storvatnet" />
		<tag k="natural" v="water" />
		<tag k="ssr:stedsnr" v="930062" />
		<tag k="water" v="lake" />
	</node>
	<node lat="70.54670837091436" lon="30.22129013868576" id="-59358">
		<tag k="bay" v="fjord" />
		<tag k="name" v="Syltefjorden - Oardovuonna" />
		<tag k="name:no" v="Syltefjorden" />
		<tag k="name:se" v="Oardovuonna" />
		<tag k="natural" v="bay" />
		<tag k="ssr:stedsnr" v="930065" />
	</node>
	<node lat="70.54153892379033" lon="29.83032644673905" id="-59359">
		<tag k="fixme" v="consider natural=peak for the most distinct mountains in the district" />
		<tag k="name" v="Gierdogáisá" />
		<tag k="name:se" v="Gierdogáisá" />
		<tag k="natural" v="hill" />
		<tag k="old_name:se" v="Gierdugaisa" />
		<tag k="place" v="locality" />
		<tag k="ssr:stedsnr" v="869480" />
	</node>
	<node lat="70.5578722570965" lon="29.703559852146615" id="-59360">
		<tag k="name" v="Storvatnet - Orošjávri" />
		<tag k="name:no" v="Storvatnet" />
		<tag k="name:se" v="Orošjávri" />
		<tag k="natural" v="water" />
		<tag k="old_name:se" v="Årušjavri" />
		<tag k="ssr:stedsnr" v="930458" />
		<tag k="water" v="lake" />
	</node>
	<node lat="70.55607225674116" lon="29.95923474464368" id="-59361">
		<tag k="name" v="Storhaugen" />
		<tag k="natural" v="hill" />
		<tag k="place" v="locality" />
		<tag k="ssr:stedsnr" v="930464" />
	</node>
	<node lat="70.54082503386105" lon="29.975109712058266" id="-59362">
		<tag k="alt_name" v="Hursidalen" />
		<tag k="name" v="Nordhursidalen" />
		<tag k="natural" v="valley" />
		<tag k="place" v="locality" />
		<tag k="ssr:stedsnr" v="930472" />
	</node>
	<node lat="70.32776670919623" lon="29.98604572813981" id="-59363">
		<tag k="name" v="Komagelva - Stuorrajohka - Kumajoki" />
		<tag k="name:fkv" v="Kumajoki" />
		<tag k="name:no" v="Komagelva" />
		<tag k="name:se" v="Stuorrajohka" />
		<tag k="old_name:se" v="Stuorrajåkka" />
		<tag k="ssr:stedsnr" v="930541" />
		<tag k="waterway" v="river" />
	</node>
	<node lat="70.46400836383623" lon="29.27147389436857" id="-59364">
		<tag k="name" v="Oarddojárskáidi" />
		<tag k="name:se" v="Oarddojárskáidi" />
		<tag k="natural" v="cape" />
		<tag k="old_name:se" v="Oardujarskaidi" />
		<tag k="ssr:stedsnr" v="930954" />
	</node>
	<node lat="70.42808615224871" lon="29.90198194458704" id="-59365">
		<tag k="fixme" v="consider natural=peak for the most distinct mountains in the district" />
		<tag k="name" v="Kjøpmannskjølen - Noiddiidčearru" />
		<tag k="name:no" v="Kjøpmannskjølen" />
		<tag k="name:se" v="Noiddiidčearru" />
		<tag k="natural" v="hill" />
		<tag k="old_name:se" v="Nåidiidčærro" />
		<tag k="place" v="locality" />
		<tag k="ssr:stedsnr" v="930971" />
	</node>
	<node lat="70.47326114876459" lon="29.819754204265497" id="-59366">
		<tag k="fixme" v="consider natural=peak for the most distinct mountains in the district" />
		<tag k="name" v="Rássečohkat" />
		<tag k="name:se" v="Rássečohkat" />
		<tag k="natural" v="hill" />
		<tag k="old_name:se" v="Rassečåkkat" />
		<tag k="place" v="locality" />
		<tag k="ssr:stedsnr" v="930977" />
	</node>
	<node lat="70.48315559289716" lon="29.99712078949713" id="-59367">
		<tag k="name" v="Jonnejohjávri" />
		<tag k="name:se" v="Jonnejohjávri" />
		<tag k="natural" v="water" />
		<tag k="old_name:se" v="Jånnejåkjavri" />
		<tag k="ssr:stedsnr" v="930978" />
		<tag k="water" v="lake" />
	</node>
	<node lat="70.32206392820622" lon="30.06464013997573" id="-59368">
		<tag k="name" v="Hubehytta" />
		<tag k="place" v="isolated_dwelling" />
		<tag k="ssr:stedsnr" v="930922" />
	</node>
	<node lat="70.40784448012995" lon="29.47783490007309" id="-59369">
		<tag k="name" v="Skipskjølen - Bealjáidčearru - Kööli" />
		<tag k="name:fkv" v="Kööli" />
		<tag k="name:no" v="Skipskjølen" />
		<tag k="name:se" v="Bealjáidčearru" />
		<tag k="natural" v="plateau" />
		<tag k="old_name:se" v="Bælljaidčearro" />
		<tag k="ssr:stedsnr" v="875970" />
	</node>
	<node lat="70.27272781149783" lon="29.40487656419901" id="-59370">
		<tag k="fixme" v="consider natural=peak for the most distinct mountains in the district" />
		<tag k="name" v="Urfjellet - Jiessavárri - Kivitunturi" />
		<tag k="name:fkv" v="Kivitunturi" />
		<tag k="name:no" v="Urfjellet" />
		<tag k="name:se" v="Jiessavárri" />
		<tag k="natural" v="hill" />
		<tag k="old_name:se" v="Jiessavarri" />
		<tag k="place" v="locality" />
		<tag k="ssr:stedsnr" v="875982" />
	</node>
	<node lat="70.60539169263551" lon="29.662062682019823" id="-59371">
		<tag k="name" v="Jovatn" />
		<tag k="natural" v="water" />
		<tag k="ssr:stedsnr" v="880136" />
	</node>
	<node lat="70.62051392246745" lon="29.6938293451835" id="-59372">
		<tag k="name" v="Indrefjord" />
		<tag k="natural" v="bay" />
		<tag k="ssr:stedsnr" v="880360" />
	</node>
	<node lat="70.51774448460331" lon="29.949448616603107" id="-59373">
		<tag k="name" v="Holman" />
		<tag k="place" v="islet" />
		<tag k="ssr:stedsnr" v="880419" />
	</node>
	<node lat="70.53597781250865" lon="30.009548598258924" id="-59374">
		<tag k="name" v="Jollneset" />
		<tag k="natural" v="cape" />
		<tag k="ssr:stedsnr" v="880501" />
	</node>
	<node lat="70.68595003449165" lon="30.06465416711678" id="-59375">
		<tag k="name" v="Medvatnet" />
		<tag k="natural" v="water" />
		<tag k="ssr:stedsnr" v="930047" />
		<tag k="water" v="lake" />
	</node>
	<node lat="70.66496114475198" lon="29.881654272511813" id="-59376">
		<tag k="fixme" v="consider natural=peak for the most distinct mountains in the district" />
		<tag k="name" v="Raudberga" />
		<tag k="natural" v="hill" />
		<tag k="place" v="locality" />
		<tag k="ssr:stedsnr" v="930497" />
	</node>
	<node lat="70.49436393436046" lon="30.635834318804697" id="-59377">
		<tag k="name" v="Finnvika" />
		<tag k="natural" v="bay" />
		<tag k="ssr:stedsnr" v="930904" />
	</node>
	<node lat="70.52033892914733" lon="30.065487445705926" id="-59378">
		<tag k="alt_name:se" v="Jonjohka" />
		<tag k="name" v="Jonnejohka" />
		<tag k="name:se" v="Jonnejohka" />
		<tag k="old_name:se" v="Jånnejåkka" />
		<tag k="ssr:stedsnr" v="930893" />
		<tag k="waterway" v="stream" />
	</node>
	<node lat="70.49620004602423" lon="30.57972323409355" id="-59379">
		<tag k="name" v="Middagsdalen" />
		<tag k="natural" v="valley" />
		<tag k="place" v="locality" />
		<tag k="ssr:stedsnr" v="930899" />
	</node>
	<node lat="70.51445281805147" lon="30.227109573611727" id="-59380">
		<tag k="fixme" v="consider natural=peak for the most distinct mountains in the district" />
		<tag k="name" v="Rødbergan" />
		<tag k="natural" v="hill" />
		<tag k="place" v="locality" />
		<tag k="ssr:stedsnr" v="935457" />
	</node>
	<node lat="70.54084727061472" lon="30.64323988791891" id="-59381">
		<tag k="name" v="Merra" />
		<tag k="natural" v="shoal" />
		<tag k="place" v="locality" />
		<tag k="ssr:stedsnr" v="937629" />
	</node>
	<node lat="70.45410137289973" lon="29.389788046017053" id="-59382">
		<tag k="fixme" v="consider tourism=alpine_hut or tourism=chalet" />
		<tag k="name" v="Helheim" />
		<tag k="ssr:stedsnr" v="972825" />
		<tag k="tourism" v="wilderness_hut" />
	</node>
	<node lat="70.54449726348022" lon="30.524912197600965" id="-59383">
		<tag k="name" v="Risvika" />
		<tag k="natural" v="bay" />
		<tag k="ssr:stedsnr" v="20049" />
	</node>
	<node lat="70.54866114935493" lon="30.42226502865479" id="-59384">
		<tag k="fixme" v="consider natural=peak for the most distinct mountains in the district" />
		<tag k="name" v="Svartnesbruna" />
		<tag k="natural" v="hill" />
		<tag k="place" v="locality" />
		<tag k="ssr:stedsnr" v="20061" />
	</node>
	<node lat="70.62058336470427" lon="29.77872651523412" id="-59385">
		<tag k="name" v="Gatsbelhøgda - Gazzabealčohkka" />
		<tag k="name:no" v="Gatsbelhøgda" />
		<tag k="name:se" v="Gazzabealčohkka" />
		<tag k="natural" v="hill" />
		<tag k="old_name:se" v="Gazzabælčåkka" />
		<tag k="place" v="locality" />
		<tag k="ssr:stedsnr" v="20455" />
	</node>
	<node lat="70.69745002955868" lon="29.995656996920708" id="-59386">
		<tag k="name" v="Nonsvatnet" />
		<tag k="natural" v="water" />
		<tag k="ssr:stedsnr" v="20460" />
	</node>
	<node lat="70.68665558287107" lon="29.913287588067732" id="-59388">
		<tag k="alt_name" v="Skarbergvika" />
		<tag k="name" v="Skarvbergvika" />
		<tag k="natural" v="bay" />
		<tag k="ssr:stedsnr" v="20474" />
	</node>
	<node lat="70.6765750327097" lon="29.624965498368834" id="-59389">
		<tag k="fixme" v="consider natural=peak for the most distinct mountains in the district" />
		<tag k="name" v="Rubbedalshøgda" />
		<tag k="natural" v="hill" />
		<tag k="place" v="locality" />
		<tag k="ssr:stedsnr" v="20479" />
	</node>
	<node lat="70.46024170447171" lon="29.53948212558445" id="-59390">
		<tag k="name" v="Viddene - Morešveaiskáidi" />
		<tag k="name:no" v="Viddene" />
		<tag k="name:se" v="Morešveaiskáidi" />
		<tag k="natural" v="plateau" />
		<tag k="old_name:se" v="Mårešvæjskaidi" />
		<tag k="ssr:stedsnr" v="20982" />
	</node>
	<node lat="70.60802780798086" lon="29.64549878319426" id="-59391">
		<tag k="name" v="Tverrelvdalen" />
		<tag k="natural" v="valley" />
		<tag k="place" v="locality" />
		<tag k="ssr:stedsnr" v="30260" />
	</node>
	<node lat="70.62964447376162" lon="29.70754320781378" id="-59392">
		<tag k="name" v="Valen" />
		<tag k="place" v="locality" />
		<tag k="ssr:stedsnr" v="30377" />
	</node>
	<node lat="70.62733336209115" lon="29.69766265295639" id="-59393">
		<tag k="building" v="industrial" />
		<tag k="industrial" v="factory" />
		<tag k="name" v="Neptun" />
		<tag k="ssr:stedsnr" v="30381" />
	</node>
	<node lat="70.5006778167155" lon="29.85397364559038" id="-59394">
		<tag k="name" v="Gamsletta" />
		<tag k="place" v="locality" />
		<tag k="ssr:stedsnr" v="30402" />
	</node>
	<node lat="70.53879448175518" lon="30.002106915478315" id="-59395">
		<tag k="name" v="Løkholman" />
		<tag k="natural" v="beach" />
		<tag k="ssr:stedsnr" v="30494" />
	</node>
	<node lat="70.53732781812663" lon="30.020651352864107" id="-59396">
		<tag k="name" v="Vassbotn" />
		<tag k="natural" v="bay" />
		<tag k="ssr:stedsnr" v="30499" />
	</node>
	<node lat="70.45038615479105" lon="30.160437352426314" id="-59397">
		<tag k="name" v="Sløkholmdalen" />
		<tag k="natural" v="valley" />
		<tag k="place" v="locality" />
		<tag k="ssr:stedsnr" v="80890" />
	</node>
	<node lat="70.550147260035" lon="30.07859576876687" id="-59398">
		<tag k="name" v="Nordfjord" />
		<tag k="place" v="locality" />
		<tag k="ssr:stedsnr" v="81060" />
	</node>
	<node lat="70.51471391547481" lon="29.259354492783448" id="-59399">
		<tag k="name" v="Oarddoskáidi" />
		<tag k="name:se" v="Oarddoskáidi" />
		<tag k="natural" v="cape" />
		<tag k="old_name:se" v="Oarduskaidi" />
		<tag k="ssr:stedsnr" v="81514" />
	</node>
	<node lat="70.7307222490799" lon="29.78369878610448" id="-59400">
		<tag k="name" v="Seibøneset" />
		<tag k="natural" v="cape" />
		<tag k="ssr:stedsnr" v="81520" />
	</node>
	<node lat="70.47711670316302" lon="29.926993040107675" id="-59401">
		<tag k="name" v="Trangdalen - Baskkesávži" />
		<tag k="name:no" v="Trangdalen" />
		<tag k="name:se" v="Baskkesávži" />
		<tag k="natural" v="valley" />
		<tag k="old_name:se" v="Baskesavži" />
		<tag k="place" v="locality" />
		<tag k="ssr:stedsnr" v="81979" />
	</node>
	<node lat="70.70709725784954" lon="30.10379305797714" id="-59402">
		<tag k="name" v="Sandstabben" />
		<tag k="natural" v="shoal" />
		<tag k="place" v="locality" />
		<tag k="ssr:stedsnr" v="85355" />
	</node>
	<node lat="70.70398614454375" lon="29.951470924459482" id="-59403">
		<tag k="name" v="Inner-Rossmålen" />
		<tag k="natural" v="cape" />
		<tag k="ssr:stedsnr" v="85360" />
	</node>
	<node lat="70.63445558190784" lon="29.52592663651693" id="-59404">
		<tag k="fixme" v="consider natural=peak for the most distinct mountains in the district" />
		<tag k="name" v="Midtfjellet - Guovdoaivi" />
		<tag k="name:no" v="Midtfjellet" />
		<tag k="name:se" v="Guovdoaivi" />
		<tag k="natural" v="hill" />
		<tag k="old_name:se" v="Guovdaoaivi" />
		<tag k="place" v="locality" />
		<tag k="ssr:stedsnr" v="86444" />
	</node>
	<node lat="70.63405836378394" lon="29.80949873053119" id="-59405">
		<tag k="name" v="Skovik" />
		<tag k="place" v="isolated_dwelling" />
		<tag k="ssr:stedsnr" v="86518" />
	</node>
	<node lat="70.71828336029097" lon="29.79916821002766" id="-59406">
		<tag k="name" v="Fuglekeila" />
		<tag k="natural" v="bay" />
		<tag k="ssr:stedsnr" v="86553" />
	</node>
	<node lat="70.62290003036269" lon="29.68477100460371" id="-59407">
		<tag k="name" v="Mariberget" />
		<tag k="natural" v="hill" />
		<tag k="place" v="locality" />
		<tag k="ssr:stedsnr" v="91343" />
	</node>
	<node lat="70.61939169452677" lon="29.765998739275048" id="-59408">
		<tag k="name" v="Klauvvasselva" />
		<tag k="ssr:stedsnr" v="91434" />
		<tag k="waterway" v="stream" />
	</node>
	<node lat="70.61970836147405" lon="29.725854322018773" id="-59409">
		<tag k="fixme" v="consider natural=peak for the most distinct mountains in the district" />
		<tag k="name" v="Simaaksla" />
		<tag k="natural" v="hill" />
		<tag k="place" v="locality" />
		<tag k="ssr:stedsnr" v="91391" />
	</node>
	<node lat="70.62494169488116" lon="29.696801556368307" id="-59410">
		<tag k="building" v="industrial" />
		<tag k="name" v="Slippen" />
		<tag k="ssr:stedsnr" v="91406" />
	</node>
	<node lat="70.50902781337213" lon="29.88517363852995" id="-59411">
		<tag k="name" v="Reingjerdmyran" />
		<tag k="natural" v="wetland" />
		<tag k="ssr:stedsnr" v="91412" />
	</node>
	<node lat="70.4030639316204" lon="30.072854053402402" id="-59412">
		<tag k="fixme" v="consider natural=peak for the most distinct mountains in the district" />
		<tag k="name" v="Røyskattfjellet" />
		<tag k="natural" v="hill" />
		<tag k="place" v="locality" />
		<tag k="ssr:stedsnr" v="140886" />
	</node>
	<node lat="70.52809170272897" lon="30.255309571657087" id="-59413">
		<tag k="fixme" v="consider natural=peak for the most distinct mountains in the district" />
		<tag k="name" v="Kyst-Tavla" />
		<tag k="natural" v="hill" />
		<tag k="place" v="locality" />
		<tag k="ssr:stedsnr" v="141012" />
	</node>
	<node lat="70.57670837492473" lon="30.203890173028565" id="-59414">
		<tag k="loc_name" v="Sandfjordselva" />
		<tag k="name" v="Sandfjorddalselva" />
		<tag k="ssr:stedsnr" v="141047" />
		<tag k="waterway" v="stream" />
	</node>
	<node lat="70.57815281663026" lon="30.098265222992858" id="-59415">
		<tag k="name" v="Laksevatna" />
		<tag k="natural" v="water" />
		<tag k="ssr:stedsnr" v="141048" />
		<tag k="water" v="lake" />
	</node>
	<node lat="70.53886670241093" lon="30.03073468486692" id="-59416">
		<tag k="alt_name" v="Sommerseth" />
		<tag k="name" v="Sommarsete" />
		<tag k="place" v="isolated_dwelling" />
		<tag k="ssr:stedsnr" v="141053" />
	</node>
	<node lat="70.54764726128147" lon="30.4754761134663" id="-59417">
		<tag k="name" v="Svartnesbukta" />
		<tag k="natural" v="bay" />
		<tag k="ssr:stedsnr" v="141059" />
	</node>
	<node lat="70.57928336604189" lon="29.795126481889152" id="-59418">
		<tag k="name" v="Steinfjellvatnet - Námmejávri" />
		<tag k="name:no" v="Steinfjellvatnet" />
		<tag k="name:se" v="Námmejávri" />
		<tag k="natural" v="water" />
		<tag k="old_name:se" v="Nammejavri" />
		<tag k="ssr:stedsnr" v="141452" />
	</node>
	<node lat="70.51158059717893" lon="29.89017363314154" id="-59419">
		<tag k="alt_name" v="Falkefjellet" />
		<tag k="fixme" v="consider natural=peak for the most distinct mountains in the district" />
		<tag k="name" v="Falkfjellet" />
		<tag k="natural" v="hill" />
		<tag k="place" v="locality" />
		<tag k="ssr:stedsnr" v="141453" />
	</node>
	<node lat="70.516241704929" lon="29.86474865522314" id="-59420">
		<tag k="alt_name" v="Johandalen, øvre" />
		<tag k="name" v="Øvre Johandalen" />
		<tag k="natural" v="valley" />
		<tag k="place" v="locality" />
		<tag k="ssr:stedsnr" v="141456" />
	</node>
	<node lat="70.52430003370766" lon="29.62726267297082" id="-59421">
		<tag k="name" v="Svingvatnet" />
		<tag k="natural" v="water" />
		<tag k="ssr:stedsnr" v="141457" />
	</node>
	<node lat="70.52806392449287" lon="29.564182137434848" id="-59422">
		<tag k="alt_name" v="Oardo, litle" />
		<tag k="name" v="Lille Oardo" />
		<tag k="natural" v="water" />
		<tag k="ssr:stedsnr" v="141460" />
	</node>
	<node lat="70.62847503031661" lon="29.712457088928694" id="-59423">
		<tag k="name" v="Holmen" />
		<tag k="natural" v="cape" />
		<tag k="ssr:stedsnr" v="141463" />
	</node>
	<node lat="70.67193613977874" lon="29.79242653697609" id="-59424">
		<tag k="name" v="Kvannvikneset" />
		<tag k="natural" v="cape" />
		<tag k="ssr:stedsnr" v="141491" />
	</node>
	<node lat="70.37684170755331" lon="29.7846236328719" id="-59425">
		<tag k="name" v="Ruossa" />
		<tag k="name:se" v="Ruossa" />
		<tag k="natural" v="valley" />
		<tag k="place" v="locality" />
		<tag k="ssr:stedsnr" v="141962" />
	</node>
	<node lat="70.408158366983" lon="29.727573675346207" id="-59426">
		<tag k="fixme" v="consider natural=peak for the most distinct mountains in the district" />
		<tag k="name" v="Jalgesoaivi" />
		<tag k="name:se" v="Jalgesoaivi" />
		<tag k="natural" v="hill" />
		<tag k="place" v="locality" />
		<tag k="ssr:stedsnr" v="141967" />
	</node>
	<node lat="70.43587781457401" lon="29.720284806782413" id="-59427">
		<tag k="name" v="Rahkkegorsa" />
		<tag k="name:se" v="Rahkkegorsa" />
		<tag k="natural" v="valley" />
		<tag k="old_name:se" v="Rakkegårsa" />
		<tag k="place" v="locality" />
		<tag k="ssr:stedsnr" v="141971" />
	</node>
	<node lat="70.49031392428527" lon="29.853523655242608" id="-59428">
		<tag k="name" v="Ásllatjávri" />
		<tag k="name:se" v="Ásllatjávri" />
		<tag k="natural" v="water" />
		<tag k="old_name:se" v="Aslatjavri" />
		<tag k="ssr:stedsnr" v="141978" />
		<tag k="water" v="lake" />
	</node>
	<node lat="70.6424528108083" lon="30.047329175440694" id="-59429">
		<tag k="name" v="Sandfjordelva" />
		<tag k="ssr:stedsnr" v="146486" />
		<tag k="waterway" v="stream" />
	</node>
	<node lat="70.66051114088077" lon="29.777557093487335" id="-59430">
		<tag k="name" v="Olabukta" />
		<tag k="natural" v="bay" />
		<tag k="ssr:stedsnr" v="146492" />
	</node>
	<node lat="70.5436944791225" lon="30.040479142223802" id="-59433">
		<tag k="name" v="Torelva" />
		<tag k="ssr:stedsnr" v="152525" />
		<tag k="waterway" v="stream" />
	</node>
	<node lat="70.53591393699072" lon="30.508137192542858" id="-59434">
		<tag k="fixme" v="consider natural=peak for the most distinct mountains in the district" />
		<tag k="name" v="Gamvikbruna" />
		<tag k="natural" v="hill" />
		<tag k="place" v="locality" />
		<tag k="ssr:stedsnr" v="202013" />
	</node>
	<node lat="70.62818892471151" lon="30.1874818543301" id="-59435">
		<tag k="name" v="Storskarvikdalen" />
		<tag k="natural" v="valley" />
		<tag k="place" v="locality" />
		<tag k="ssr:stedsnr" v="202030" />
	</node>
	<node lat="70.53281392828423" lon="30.145812395604267" id="-59436">
		<tag k="name" v="Veidnesodden" />
		<tag k="natural" v="cape" />
		<tag k="ssr:stedsnr" v="202043" />
	</node>
	<node lat="70.54947226647093" lon="30.617220476592077" id="-59437">
		<tag k="name" v="Håbrandneset" />
		<tag k="natural" v="cape" />
		<tag k="ssr:stedsnr" v="202046" />
	</node>
	<node lat="70.54253060220344" lon="30.586703825155023" id="-59438">
		<tag k="name" v="Skjåvika" />
		<tag k="natural" v="bay" />
		<tag k="ssr:stedsnr" v="202048" />
	</node>
	<node lat="70.5429611564806" lon="30.535967753410986" id="-59439">
		<tag k="name" v="Gamvikbukta" />
		<tag k="natural" v="bay" />
		<tag k="ssr:stedsnr" v="202058" />
	</node>
	<node lat="70.62980836701983" lon="29.763265422554333" id="-59440">
		<tag k="name" v="Eikebergvika" />
		<tag k="natural" v="bay" />
		<tag k="ssr:stedsnr" v="202457" />
	</node>
	<node lat="70.61300280491048" lon="29.735173760671806" id="-59441">
		<tag k="alt_name" v="Perelvtoppen" />
		<tag k="fixme" v="consider natural=peak for the most distinct mountains in the district" />
		<tag k="name" v="Perselvtoppen" />
		<tag k="natural" v="hill" />
		<tag k="place" v="locality" />
		<tag k="ssr:stedsnr" v="202470" />
	</node>
	<node lat="70.65567780642318" lon="29.716148779922317" id="-59442">
		<tag k="fixme" v="consider natural=peak for the most distinct mountains in the district" />
		<tag k="name" v="Hamnefjellet - Hámmánoaivi" />
		<tag k="name:no" v="Hamnefjellet" />
		<tag k="name:se" v="Hámmánoaivi" />
		<tag k="natural" v="hill" />
		<tag k="place" v="locality" />
		<tag k="ssr:stedsnr" v="202488" />
	</node>
	<node lat="70.5616972548402" lon="29.393318343919706" id="-59443">
		<tag k="name" v="Basečearru" />
		<tag k="name:se" v="Basečearru" />
		<tag k="natural" v="plateau" />
		<tag k="old_name:se" v="Basečærro" />
		<tag k="ssr:stedsnr" v="202506" />
	</node>
	<node lat="70.50435837270024" lon="29.91498474304931" id="-59444">
		<tag k="alt_name:se" v="Rásjohka" />
		<tag k="name" v="Rássejohka" />
		<tag k="name:se" v="Rássejohka" />
		<tag k="old_name:se" v="Rassejåkka;Rassejohka" />
		<tag k="ssr:stedsnr" v="202575" />
		<tag k="waterway" v="river" />
	</node>
	<node lat="70.49705003753238" lon="30.130573498189946" id="-59445">
		<tag k="name" v="Austerelva - Uhcoarddojohka" />
		<tag k="name:no" v="Austerelva" />
		<tag k="name:se" v="Uhcoarddojohka" />
		<tag k="old_name:se" v="Uccoardujåkka" />
		<tag k="ssr:stedsnr" v="202578" />
		<tag k="waterway" v="river" />
	</node>
	<node lat="70.4896416938535" lon="29.379715531074424" id="-59446">
		<tag k="name" v="Uhcit Rávdol" />
		<tag k="name:se" v="Uhcit Rávdol" />
		<tag k="old_name:se" v="Ravdul, uccit" />
		<tag k="ssr:stedsnr" v="202964" />
		<tag k="waterway" v="river" />
	</node>
	<node lat="70.49666393133705" lon="30.166245702784376" id="-59447">
		<tag k="fixme" v="consider natural=peak for the most distinct mountains in the district" />
		<tag k="name" v="Søttendalfjellet" />
		<tag k="natural" v="hill" />
		<tag k="place" v="locality" />
		<tag k="ssr:stedsnr" v="202911" />
	</node>
	<node lat="70.49953337693121" lon="30.448937202491067" id="-59448">
		<tag k="fixme" v="consider natural=peak for the most distinct mountains in the district" />
		<tag k="name" v="Gussoaivi" />
		<tag k="name:se" v="Gussoaivi" />
		<tag k="natural" v="hill" />
		<tag k="place" v="locality" />
		<tag k="ssr:stedsnr" v="202914" />
	</node>
	<node lat="70.31241115363754" lon="29.984545734031524" id="-59449">
		<tag k="fixme" v="consider natural=peak for the most distinct mountains in the district" />
		<tag k="name" v="Gaskkamus Ruitu" />
		<tag k="name:se" v="Gaskkamus Ruitu" />
		<tag k="natural" v="hill" />
		<tag k="old_name:se" v="Ruito, gaskamuš" />
		<tag k="place" v="locality" />
		<tag k="ssr:stedsnr" v="202921" />
	</node>
	<node lat="70.48773338497621" lon="30.639473200577473" id="-59450">
		<tag k="fixme" v="consider natural=peak for the most distinct mountains in the district" />
		<tag k="name" v="Storflognakken" />
		<tag k="natural" v="hill" />
		<tag k="place" v="locality" />
		<tag k="ssr:stedsnr" v="202931" />
	</node>
	<node lat="70.69740558968522" lon="29.99707366563099" id="-59451">
		<tag k="name" v="Gryta" />
		<tag k="natural" v="water" />
		<tag k="ssr:stedsnr" v="207485" />
		<tag k="water" v="lake" />
	</node>
	<node lat="70.70031114212715" lon="30.06670139492799" id="-59452">
		<tag k="name" v="Storvatnet" />
		<tag k="natural" v="water" />
		<tag k="ssr:stedsnr" v="207486" />
		<tag k="water" v="lake" />
	</node>
	<node lat="70.52749448494342" lon="30.081834658426896" id="-59453">
		<tag k="name" v="Revet" />
		<tag k="place" v="locality" />
		<tag k="seamark:type" v="rock" />
		<tag k="ssr:stedsnr" v="208570" />
	</node>
	<node lat="70.55443058918227" lon="30.06720411837649" id="-59454">
		<tag k="name" v="Nordfjordhøgda" />
		<tag k="natural" v="hill" />
		<tag k="place" v="locality" />
		<tag k="ssr:stedsnr" v="213261" />
	</node>
	<node lat="70.5216111449009" lon="29.962143057705294" id="-59455">
		<tag k="name" v="Holman" />
		<tag k="place" v="islet" />
		<tag k="ssr:stedsnr" v="213447" />
	</node>
	<node lat="70.53437781560115" lon="30.009634703435463" id="-59456">
		<tag k="name" v="Finnes" />
		<tag k="natural" v="cape" />
		<tag k="ssr:stedsnr" v="213530" />
	</node>
	<node lat="70.62834725715351" lon="29.761415423544268" id="-59457">
		<tag k="name" v="Eikebergelva" />
		<tag k="ssr:stedsnr" v="273392" />
		<tag k="waterway" v="stream" />
	</node>
	<node lat="70.70962780555448" lon="30.01398754723313" id="-59458">
		<tag k="name" v="Ytter-Rossmålen" />
		<tag k="natural" v="cape" />
		<tag k="ssr:stedsnr" v="323048" />
	</node>
	<node lat="70.53123614478675" lon="30.041515234256384" id="-59459">
		<tag k="alt_name" v="Strømmen" />
		<tag k="name" v="Straumen" />
		<tag k="natural" v="strait" />
		<tag k="ssr:stedsnr" v="323057" />
	</node>
	<node lat="70.54436948529056" lon="30.09864577564889" id="-59460">
		<tag k="name" v="Nordfjorden" />
		<tag k="natural" v="bay" />
		<tag k="ssr:stedsnr" v="323068" />
	</node>
	<node lat="70.54589726073279" lon="30.344962288860778" id="-59461">
		<tag k="alt_name" v="Syltevika, indre" />
		<tag k="name" v="Indre Syltevika" />
		<tag k="natural" v="bay" />
		<tag k="ssr:stedsnr" v="323073" />
	</node>
	<node lat="70.5754250299916" lon="29.673820981219784" id="-59462">
		<tag k="name" v="Storelva - Orošjohka" />
		<tag k="name:no" v="Storelva" />
		<tag k="name:se" v="Orošjohka" />
		<tag k="old_name:se" v="Årušjåkka" />
		<tag k="ssr:stedsnr" v="323115" />
		<tag k="waterway" v="river" />
	</node>
	<node lat="70.52347781638251" lon="30.383826158222043" id="-59463">
		<tag k="name" v="Ruossagorsa" />
		<tag k="name:se" v="Ruossagorsa" />
		<tag k="natural" v="valley" />
		<tag k="old_name:se" v="Ruossagårsa" />
		<tag k="place" v="locality" />
		<tag k="ssr:stedsnr" v="323014" />
	</node>
	<node lat="70.57267225675362" lon="29.64279877174916" id="-59464">
		<tag k="name" v="Djupvasselva" />
		<tag k="ssr:stedsnr" v="323452" />
		<tag k="waterway" v="river" />
	</node>
	<node lat="70.54111669579703" lon="29.44470440978219" id="-59465">
		<tag k="name" v="Adamsvatnet - Áttájávri" />
		<tag k="name:no" v="Adamsvatnet" />
		<tag k="name:se" v="Áttájávri" />
		<tag k="natural" v="water" />
		<tag k="old_name:se" v="Addajavri" />
		<tag k="ssr:stedsnr" v="323463" />
		<tag k="water" v="lake" />
	</node>
	<node lat="70.69320836432169" lon="29.80774875876226" id="-59466">
		<tag k="name" v="Rubbedalsneset" />
		<tag k="natural" v="cape" />
		<tag k="ssr:stedsnr" v="323490" />
	</node>
	<node lat="70.49500282198194" lon="30.418553893187187" id="-59467">
		<tag k="name" v="Rundhaugen" />
		<tag k="natural" v="hill" />
		<tag k="place" v="locality" />
		<tag k="ssr:stedsnr" v="323899" />
	</node>
	<node lat="70.31951115692246" lon="30.116342891933474" id="-59468">
		<tag k="fixme" v="consider natural=peak for the most distinct mountains in the district" />
		<tag k="name" v="Ruoššačohkka" />
		<tag k="name:se" v="Ruoššačohkka" />
		<tag k="natural" v="hill" />
		<tag k="old_name:se" v="Ruoššačåkka" />
		<tag k="place" v="locality" />
		<tag k="ssr:stedsnr" v="323929" />
	</node>
	<node lat="70.34957781883372" lon="30.120942885173125" id="-59469">
		<tag k="fixme" v="consider natural=peak for the most distinct mountains in the district" />
		<tag k="name" v="Ovllánddeoaivi" />
		<tag k="name:se" v="Ovllánddeoaivi" />
		<tag k="natural" v="hill" />
		<tag k="old_name:se" v="Åvlandeoaivi;Ovll-Ándde-oaivi" />
		<tag k="place" v="locality" />
		<tag k="ssr:stedsnr" v="323931" />
	</node>
	<node lat="70.31880282511322" lon="30.005401278937928" id="-59470">
		<tag k="name" v="Andre porten - Uhca Rohči" />
		<tag k="name:no" v="Andre porten" />
		<tag k="name:se" v="Uhca Rohči" />
		<tag k="natural" v="valley" />
		<tag k="old_name:se" v="Råčči, ucca" />
		<tag k="place" v="locality" />
		<tag k="ssr:stedsnr" v="323935" />
	</node>
	<node lat="70.53055559956948" lon="30.664442642185087" id="-59471">
		<tag k="name" v="Seigrunnen" />
		<tag k="natural" v="shoal" />
		<tag k="place" v="locality" />
		<tag k="ssr:stedsnr" v="330632" />
	</node>
	<node lat="70.30969170656789" lon="29.895567993735533" id="-59472">
		<tag k="name" v="Guovžagurjohka" />
		<tag k="name:se" v="Guovžagurjohka" />
		<tag k="old_name:se" v="Guovžagurjåkka" />
		<tag k="ssr:stedsnr" v="331850" />
		<tag k="waterway" v="river" />
	</node>
	<node lat="70.6224333638011" lon="29.693276554573856" id="-59473">
		<tag k="name" v="Håpet" />
		<tag k="place" v="quarter" />
		<tag k="ssr:stedsnr" v="334299" />
	</node>
	<node lat="70.63400003256494" lon="29.799782054076662" id="-59474">
		<tag k="name" v="Skovikneset" />
		<tag k="natural" v="cape" />
		<tag k="ssr:stedsnr" v="334332" />
	</node>
	<node lat="70.52625003668098" lon="30.01044302320747" id="-59475">
		<tag k="fixme" v="consider natural=peak for the most distinct mountains in the district" />
		<tag k="name" v="Uhcagáisá" />
		<tag k="name:se" v="Uhcagáisá" />
		<tag k="natural" v="hill" />
		<tag k="place" v="locality" />
		<tag k="ssr:stedsnr" v="334408" />
	</node>
	<node lat="70.5400639224951" lon="29.98433748091996" id="-59476">
		<tag k="fixme" v="consider natural=peak for the most distinct mountains in the district" />
		<tag k="name" v="Vassbotnfjellet" />
		<tag k="natural" v="hill" />
		<tag k="place" v="locality" />
		<tag k="ssr:stedsnr" v="334419" />
	</node>
	<node lat="70.55454448058032" lon="30.166465181482003" id="-59477">
		<tag k="fixme" v="consider natural=peak for the most distinct mountains in the district" />
		<tag k="name" v="Daumannsmolla" />
		<tag k="natural" v="hill" />
		<tag k="place" v="locality" />
		<tag k="ssr:stedsnr" v="358084" />
	</node>
	<node lat="70.57834169562135" lon="29.49272107846931" id="-59479">
		<tag k="alt_name:no" v="Buktekjølen" />
		<tag k="fixme" v="consider natural=peak for the most distinct mountains in the district" />
		<tag k="name" v="Buktkjølen - Buhkkačearru" />
		<tag k="name:no" v="Buktkjølen" />
		<tag k="name:se" v="Buhkkačearru" />
		<tag k="natural" v="hill" />
		<tag k="old_name:se" v="Bukkačærro;Bukkačearru" />
		<tag k="place" v="locality" />
		<tag k="ssr:stedsnr" v="383466" />
	</node>
	<node lat="70.51233059067224" lon="29.58732378419497" id="-59480">
		<tag k="name" v="Laksnes" />
		<tag k="place" v="isolated_dwelling" />
		<tag k="ssr:stedsnr" v="383470" />
	</node>
	<node lat="70.51594725797071" lon="29.754040376945643" id="-59481">
		<tag k="name" v="Slangedalen" />
		<tag k="natural" v="valley" />
		<tag k="place" v="locality" />
		<tag k="ssr:stedsnr" v="383472" />
	</node>
	<node lat="70.60484170056573" lon="29.72421543457834" id="-59482">
		<tag k="alt_name" v="Pervatn" />
		<tag k="name" v="Pervatnet" />
		<tag k="natural" v="water" />
		<tag k="ssr:stedsnr" v="383492" />
		<tag k="water" v="lake" />
	</node>
	<node lat="70.44863893158362" lon="30.371062227302343" id="-59483">
		<tag k="name" v="Orošjohka" />
		<tag k="name:se" v="Orošjohka" />
		<tag k="old_name:se" v="Årušjåkka" />
		<tag k="ssr:stedsnr" v="383886" />
		<tag k="waterway" v="river" />
	</node>
	<node lat="70.50061669803938" lon="29.3223266841569" id="-59484">
		<tag k="name" v="Stuorra Oardu" />
		<tag k="name:se" v="Stuorra Oardu" />
		<tag k="old_name:se" v="Oardu, stuorra" />
		<tag k="ssr:stedsnr" v="383965" />
		<tag k="waterway" v="river" />
	</node>
	<node lat="70.56381115417861" lon="30.219320707887988" id="-59485">
		<tag k="name" v="Syltefjord-Sandfjorden" />
		<tag k="natural" v="bay" />
		<tag k="ssr:stedsnr" v="384046" />
	</node>
	<node lat="70.63540558719232" lon="29.682596010434544" id="-59486">
		<tag k="name" v="Skoleelva" />
		<tag k="ssr:stedsnr" v="384455" />
		<tag k="waterway" v="stream" />
	</node>
	<node lat="70.6382417021314" lon="29.835651506175196" id="-59487">
		<tag k="name" v="Prestelva" />
		<tag k="ssr:stedsnr" v="384458" />
		<tag k="waterway" v="stream" />
	</node>
	<node lat="70.70836947707006" lon="29.714118249094277" id="-59488">
		<tag k="fixme" v="consider natural=peak for the most distinct mountains in the district" />
		<tag k="name" v="Båtsnæringen" />
		<tag k="natural" v="hill" />
		<tag k="place" v="locality" />
		<tag k="ssr:stedsnr" v="384474" />
	</node>
	<node lat="70.47334171312066" lon="30.58928432053573" id="-59489">
		<tag k="name" v="Finnvikdalen" />
		<tag k="natural" v="valley" />
		<tag k="place" v="locality" />
		<tag k="ssr:stedsnr" v="384878" />
	</node>
	<node lat="70.3478305926151" lon="29.879168032324262" id="-59490">
		<tag k="name" v="Gárgašjohka" />
		<tag k="name:se" v="Gárgašjohka" />
		<tag k="old_name:se" v="Gargašjåkka" />
		<tag k="ssr:stedsnr" v="384893" />
		<tag k="waterway" v="river" />
	</node>
	<node lat="70.46867503975527" lon="29.64418207249661" id="-59491">
		<tag k="name" v="Vuovdejohka" />
		<tag k="name:se" v="Vuovdejohka" />
		<tag k="old_name:se" v="Vuovdejåkka" />
		<tag k="ssr:stedsnr" v="384968" />
		<tag k="waterway" v="stream" />
	</node>
	<node lat="70.69777503332142" lon="30.092337501958678" id="-59492">
		<tag k="name" v="Molvik" />
		<tag k="place" v="locality" />
		<tag k="ssr:stedsnr" v="389538" />
	</node>
	<node lat="70.62379725170506" lon="29.699459874710413" id="-59493">
		<tag k="alt_name" v="Laukholmen" />
		<tag k="name" v="Liholmen" />
		<tag k="place" v="islet" />
		<tag k="ssr:stedsnr" v="389533" />
	</node>
	<node lat="70.53193893132959" lon="30.041970785488893" id="-59494">
		<tag k="alt_name" v="Strømsnes" />
		<tag k="name" v="Strømsneset" />
		<tag k="natural" v="cape" />
		<tag k="ssr:stedsnr" v="390554" />
	</node>
	<node lat="70.51766114655243" lon="30.004256916910297" id="-59495">
		<tag k="fixme" v="consider natural=peak for the most distinct mountains in the district" />
		<tag k="name" v="Gaisa" />
		<tag k="natural" v="hill" />
		<tag k="place" v="locality" />
		<tag k="ssr:stedsnr" v="419078" />
	</node>
	<node lat="70.5669250320909" lon="29.58745714802425" id="-59496">
		<tag k="name" v="Djupvasspytten" />
		<tag k="natural" v="water" />
		<tag k="ssr:stedsnr" v="444421" />
	</node>
	<node lat="70.52560837077111" lon="29.912498644756727" id="-59497">
		<tag k="name" v="Kristiandalen" />
		<tag k="natural" v="valley" />
		<tag k="place" v="locality" />
		<tag k="ssr:stedsnr" v="444428" />
	</node>
	<node lat="70.44768893911107" lon="30.400578878870842" id="-59498">
		<tag k="fixme" v="consider natural=peak for the most distinct mountains in the district" />
		<tag k="name" v="Raet" />
		<tag k="natural" v="hill" />
		<tag k="place" v="locality" />
		<tag k="ssr:stedsnr" v="444885" />
	</node>
	<node lat="70.38577504281992" lon="30.018440178741887" id="-59499">
		<tag k="name" v="Buoidejohka" />
		<tag k="name:se" v="Buoidejohka" />
		<tag k="old_name:se" v="Buoidejåkka" />
		<tag k="ssr:stedsnr" v="444891" />
		<tag k="waterway" v="river" />
	</node>
	<node lat="70.35320281678958" lon="30.028390173489925" id="-59500">
		<tag k="fixme" v="consider natural=peak for the most distinct mountains in the district" />
		<tag k="name" v="Njuvččaguroaivi" />
		<tag k="name:se" v="Njuvččaguroaivi" />
		<tag k="natural" v="hill" />
		<tag k="old_name:se" v="Njuvčaguroaivi" />
		<tag k="place" v="locality" />
		<tag k="ssr:stedsnr" v="444935" />
	</node>
	<node lat="70.55602781458101" lon="30.013779162283498" id="-59501">
		<tag k="fixme" v="consider natural=peak for the most distinct mountains in the district" />
		<tag k="name" v="Gardijåkkhaugen - Gárdočohkka" />
		<tag k="name:no" v="Gardijåkkhaugen" />
		<tag k="name:se" v="Gárdočohkka" />
		<tag k="natural" v="hill" />
		<tag k="old_name:se" v="Gardučåkka" />
		<tag k="place" v="locality" />
		<tag k="ssr:stedsnr" v="445038" />
	</node>
	<node lat="70.57756392668651" lon="30.00672082952507" id="-59502">
		<tag k="name" v="Nordfjordvatnet" />
		<tag k="natural" v="water" />
		<tag k="ssr:stedsnr" v="445041" />
	</node>
	<node lat="70.66797225806992" lon="30.077612487848207" id="-59503">
		<tag k="name" v="Grunnvatna" />
		<tag k="natural" v="water" />
		<tag k="ssr:stedsnr" v="445048" />
	</node>
	<node lat="70.68575003542492" lon="30.122284716794276" id="-59504">
		<tag k="name" v="Reindalen" />
		<tag k="natural" v="valley" />
		<tag k="place" v="locality" />
		<tag k="ssr:stedsnr" v="445050" />
	</node>
	<node lat="70.67134170180978" lon="29.933248696902762" id="-59505">
		<tag k="name" v="Skarvbergvikvatnet" />
		<tag k="natural" v="water" />
		<tag k="ssr:stedsnr" v="445501" />
	</node>
	<node lat="70.52057504570045" lon="30.439753905315875" id="-59506">
		<tag k="fixme" v="consider natural=peak for the most distinct mountains in the district" />
		<tag k="name" v="Baikačearru" />
		<tag k="name:se" v="Baikačearru" />
		<tag k="natural" v="hill" />
		<tag k="old_name:se" v="Baikačærro" />
		<tag k="place" v="locality" />
		<tag k="ssr:stedsnr" v="505001" />
	</node>
	<node lat="70.67510003615313" lon="30.207401317643555" id="-59507">
		<tag k="alt_name" v="Korsnes" />
		<tag k="name" v="Korsneset" />
		<tag k="natural" v="cape" />
		<tag k="ssr:stedsnr" v="505043" />
	</node>
	<node lat="70.55143337328114" lon="30.600351038216914" id="-59508">
		<tag k="fixme" v="consider seamark:type=rock or natural=shoal" />
		<tag k="name" v="Storskjeran" />
		<tag k="place" v="islet" />
		<tag k="ssr:stedsnr" v="505050" />
	</node>
	<node lat="70.5463056012118" lon="30.612139903276418" id="-59509">
		<tag k="fixme" v="consider natural=peak for the most distinct mountains in the district" />
		<tag k="name" v="Hardbaken" />
		<tag k="natural" v="hill" />
		<tag k="place" v="locality" />
		<tag k="ssr:stedsnr" v="505053" />
	</node>
	<node lat="70.55696392776557" lon="30.070948572253766" id="-59510">
		<tag k="name" v="Myrvatnet" />
		<tag k="natural" v="water" />
		<tag k="ssr:stedsnr" v="505058" />
	</node>
	<node lat="70.54843337229848" lon="30.401651152062854" id="-59511">
		<tag k="alt_name" v="Syltevika, yt" />
		<tag k="name" v="Ytre Syltevika" />
		<tag k="natural" v="bay" />
		<tag k="ssr:stedsnr" v="505065" />
	</node>
	<node lat="70.53465003736186" lon="29.947073630094014" id="-59512">
		<tag k="name" v="Sørhursidalen" />
		<tag k="natural" v="valley" />
		<tag k="place" v="locality" />
		<tag k="ssr:stedsnr" v="505445" />
	</node>
	<node lat="70.58378336879213" lon="29.626198794662617" id="-59513">
		<tag k="name" v="Anneelva - Ánnejohka" />
		<tag k="name:no" v="Anneelva" />
		<tag k="name:se" v="Ánnejohka" />
		<tag k="old_name:se" v="Annejåkka" />
		<tag k="ssr:stedsnr" v="505453" />
		<tag k="waterway" v="stream" />
	</node>
	<node lat="70.53280002971643" lon="29.51143770020906" id="-59514">
		<tag k="name" v="Evavatnet" />
		<tag k="natural" v="water" />
		<tag k="ssr:stedsnr" v="505463" />
		<tag k="water" v="lake" />
	</node>
	<node lat="70.33009726602653" lon="30.060862362397348" id="-59515">
		<tag k="name" v="Ovsttarjohka" />
		<tag k="name:se" v="Ovsttarjohka" />
		<tag k="old_name:se" v="Åvstarjåkka" />
		<tag k="ssr:stedsnr" v="505916" />
		<tag k="waterway" v="river" />
	</node>
	<node lat="70.4965861581408" lon="30.54530936887085" id="-59516">
		<tag k="name" v="Gretehola" />
		<tag k="natural" v="valley" />
		<tag k="place" v="locality" />
		<tag k="ssr:stedsnr" v="505887" />
	</node>
	<node lat="70.48375003306245" lon="29.54015713483775" id="-59517">
		<tag k="name" v="Varangerhalvøya - Várnjárga - Varenkinniemi" />
		<tag k="name:fkv" v="Varenkinniemi" />
		<tag k="name:no" v="Varangerhalvøya" />
		<tag k="name:se" v="Várnjárga" />
		<tag k="natural" v="cape" />
		<tag k="ssr:stedsnr" v="506029" />
	</node>
	<node lat="70.65160836172946" lon="29.74770432033948" id="-59518">
		<tag k="name" v="Skrovnesvatna" />
		<tag k="natural" v="water" />
		<tag k="ssr:stedsnr" v="506486" />
	</node>
	<node lat="70.67426114981306" lon="30.194023550341182" id="-59519">
		<tag k="name" v="Korsnesaksla" />
		<tag k="place" v="locality" />
		<tag k="ssr:stedsnr" v="510433" />
	</node>
	<node lat="70.63416741441942" lon="29.73766909360599" id="-59520">
		<tag k="name" v="Ytre Hamn" />
		<tag k="natural" v="bay" />
		<tag k="ssr:stedsnr" v="511492" />
	</node>
	<node lat="70.68490003352107" lon="29.908532042244097" id="-59521">
		<tag k="name" v="Skarbergneset" />
		<tag k="natural" v="cape" />
		<tag k="ssr:stedsnr" v="511495" />
	</node>
	<node lat="70.61984447248366" lon="29.689957102904373" id="-59522">
		<tag k="name" v="Maritbukta" />
		<tag k="natural" v="bay" />
		<tag k="ssr:stedsnr" v="511501" />
	</node>
	<node lat="70.60255315394005" lon="29.693014131936653" id="-59524">
		<tag k="aeroway" v="aerodrome" />
		<tag k="alt_name:no" v="Båtsfjord" />
		<tag k="name" v="Båtsfjord lufthavn - Báhcavuona girdihámman" />
		<tag k="name:no" v="Båtsfjord lufthavn" />
		<tag k="name:se" v="Báhcavuona girdihámman" />
		<tag k="old_name:no" v="Båtsfjord flyplass" />
		<tag k="ssr:stedsnr" v="511947" />
	</node>
	<node lat="70.49750837195224" lon="29.791920908165316" id="-59525">
		<tag k="name" v="Morešveaijohka" />
		<tag k="name:se" v="Morešveaijohka" />
		<tag k="old_name:se" v="Mårešvæjjåkka" />
		<tag k="ssr:stedsnr" v="513477" />
		<tag k="waterway" v="river" />
	</node>
	<node lat="70.62509170136512" lon="29.75166819957322" id="-59527">
		<tag k="name" v="Nedre Eikebergvannet" />
		<tag k="natural" v="water" />
		<tag k="ssr:stedsnr" v="516381" />
		<tag k="water" v="lake" />
	</node>
	<node lat="70.62469447437039" lon="29.67314322999611" id="-59528">
		<tag k="name" v="Neptundalen" />
		<tag k="natural" v="valley" />
		<tag k="place" v="locality" />
		<tag k="ssr:stedsnr" v="516320" />
	</node>
	<node lat="70.631177812661" lon="29.72521821898919" id="-59529">
		<tag k="name" v="Storholmen" />
		<tag k="natural" v="cape" />
		<tag k="ssr:stedsnr" v="516333" />
	</node>
	<node lat="70.6513500312564" lon="30.126445808263277" id="-59530">
		<tag k="bay" v="fjord" />
		<tag k="name" v="Makkaur-Sandfjorden - Sáttovuotna" />
		<tag k="name:no" v="Makkaur-Sandfjorden" />
		<tag k="name:se" v="Sáttovuotna" />
		<tag k="natural" v="bay" />
		<tag k="old_name:se" v="Sadduvuodna" />
		<tag k="ssr:stedsnr" v="565082" />
	</node>
	<node lat="70.56988337191301" lon="29.853004238786475" id="-59531">
		<tag k="fixme" v="consider natural=peak for the most distinct mountains in the district" />
		<tag k="name" v="Båtsfjordfjellet - Máhkirčearru" />
		<tag k="name:no" v="Båtsfjordfjellet" />
		<tag k="name:se" v="Máhkirčearru" />
		<tag k="natural" v="hill" />
		<tag k="old_name:se" v="Makkirčærro" />
		<tag k="place" v="locality" />
		<tag k="ssr:stedsnr" v="565421" />
	</node>
	<node lat="70.57064447223729" lon="29.73444596652132" id="-59532">
		<tag k="name" v="Oroščohkka" />
		<tag k="name:se" v="Oroščohkka" />
		<tag k="natural" v="hill" />
		<tag k="old_name:se" v="Åruščåkka" />
		<tag k="place" v="locality" />
		<tag k="ssr:stedsnr" v="565422" />
	</node>
	<node lat="70.5843805903221" lon="29.786515380687373" id="-59533">
		<tag k="fixme" v="consider natural=peak for the most distinct mountains in the district" />
		<tag k="name" v="Námmečohkka" />
		<tag k="name:se" v="Námmečohkka" />
		<tag k="natural" v="hill" />
		<tag k="old_name:se" v="Nammečåkka" />
		<tag k="place" v="locality" />
		<tag k="ssr:stedsnr" v="565423" />
	</node>
	<node lat="70.519861145445" lon="29.57017933985073" id="-59534">
		<tag k="name" v="Arondalen" />
		<tag k="natural" v="valley" />
		<tag k="place" v="locality" />
		<tag k="ssr:stedsnr" v="565426" />
	</node>
	<node lat="70.52829447750757" lon="29.97155415601192" id="-59535">
		<tag k="name" v="Kristoffervatnet" />
		<tag k="natural" v="water" />
		<tag k="ssr:stedsnr" v="565428" />
	</node>
	<node lat="70.59291669841289" lon="29.597559926025017" id="-59536">
		<tag k="alt_name" v="Bukteelva" />
		<tag k="name" v="Buktelva" />
		<tag k="ssr:stedsnr" v="565444" />
		<tag k="waterway" v="river" />
	</node>
	<node lat="70.586913918654" lon="29.600498796512888" id="-59537">
		<tag k="alt_name" v="Reinkalvvatn" />
		<tag k="name" v="Reinkalvvatnet" />
		<tag k="natural" v="water" />
		<tag k="ssr:stedsnr" v="565445" />
	</node>
	<node lat="70.436641706461" lon="30.095273498864287" id="-59538">
		<tag k="name" v="Djupdalen" />
		<tag k="natural" v="valley" />
		<tag k="place" v="locality" />
		<tag k="ssr:stedsnr" v="565884" />
	</node>
	<node lat="70.4779694984812" lon="30.901573022960466" id="-59539">
		<tag k="alt_name" v="Østhavet" />
		<tag k="name" v="Austhavet" />
		<tag k="place" v="sea" />
		<tag k="ssr:stedsnr" v="565913" />
	</node>
	<node lat="70.37766393510441" lon="30.304984471784675" id="-59540">
		<tag k="name" v="Langryggvatna" />
		<tag k="natural" v="water" />
		<tag k="ssr:stedsnr" v="565935" />
		<tag k="water" v="lake" />
	</node>
	<node lat="70.53150559151413" lon="30.11565964330368" id="-59541">
		<tag k="name" v="Hamnnesodden" />
		<tag k="natural" v="cape" />
		<tag k="ssr:stedsnr" v="566010" />
	</node>
	<node lat="70.53848893702694" lon="30.633748246711328" id="-59542">
		<tag k="name" v="Spira" />
		<tag k="natural" v="cape" />
		<tag k="ssr:stedsnr" v="566014" />
	</node>
	<node lat="70.66033058836092" lon="29.959990343383527" id="-59543">
		<tag k="name" v="Høgfjellvatna" />
		<tag k="natural" v="water" />
		<tag k="ssr:stedsnr" v="566488" />
		<tag k="water" v="lake" />
	</node>
	<node lat="70.49558337819722" lon="30.494378857772503" id="-59544">
		<tag k="name" v="Kudalen" />
		<tag k="natural" v="valley" />
		<tag k="place" v="locality" />
		<tag k="ssr:stedsnr" v="566915" />
	</node>
	<node lat="70.71272502731273" lon="29.73933767326383" id="-59545">
		<tag k="name" v="Kolnesaksla" />
		<tag k="place" v="locality" />
		<tag k="ssr:stedsnr" v="570383" />
	</node>
	<node lat="70.47590282460281" lon="30.722239809983268" id="-59547">
		<tag k="fixme" v="consider seamark:type=rock or natural=shoal" />
		<tag k="name" v="Segelkollskjæran" />
		<tag k="place" v="islet" />
		<tag k="ssr:stedsnr" v="572592" />
	</node>
	<node lat="70.6325833650781" lon="29.804454297843026" id="-59548">
		<tag k="name" v="Skovikelva" />
		<tag k="ssr:stedsnr" v="576366" />
		<tag k="waterway" v="river" />
	</node>
	<node lat="70.53195003358947" lon="30.026659697025828" id="-59549">
		<tag k="name" v="Kvenskoran" />
		<tag k="natural" v="hill" />
		<tag k="place" v="locality" />
		<tag k="ssr:stedsnr" v="576515" />
	</node>
	<node lat="70.5868583760038" lon="30.303990109446765" id="-59550">
		<tag k="fixme" v="consider natural=peak for the most distinct mountains in the district" />
		<tag k="loc_name" v="Syltefjordstauran" />
		<tag k="name" v="Stauran" />
		<tag k="natural" v="hill" />
		<tag k="place" v="locality" />
		<tag k="ssr:stedsnr" v="626032" />
	</node>
	<node lat="70.54501115835674" lon="30.45770112089518" id="-59551">
		<tag k="name" v="Kalkmorapet" />
		<tag k="natural" v="valley" />
		<tag k="place" v="locality" />
		<tag k="ssr:stedsnr" v="626076" />
	</node>
	<node lat="70.70028892620861" lon="30.066862511923116" id="-59552">
		<tag k="name" v="Molvikvatnan - Máhkirjávrrit" />
		<tag k="name:no" v="Molvikvatnan" />
		<tag k="name:se" v="Máhkirjávrrit" />
		<tag k="natural" v="water" />
		<tag k="old_name:se" v="Makkirjavrit" />
		<tag k="ssr:stedsnr" v="626044" />
		<tag k="water" v="lake" />
	</node>
	<node lat="70.55368059795586" lon="30.44974836536371" id="-59553">
		<tag k="loc_name" v="Svartneset" />
		<tag k="name" v="Svartnes" />
		<tag k="natural" v="cape" />
		<tag k="ssr:stedsnr" v="626085" />
	</node>
	<node lat="70.55243058027874" lon="29.295062818103702" id="-59554">
		<tag k="fixme" v="consider natural=peak for the most distinct mountains in the district" />
		<tag k="name" v="Storkløftfjellet" />
		<tag k="natural" v="hill" />
		<tag k="place" v="locality" />
		<tag k="ssr:stedsnr" v="626520" />
	</node>
	<node lat="70.5130639316237" lon="30.174440158538673" id="-59555">
		<tag k="name" v="Djupdalen" />
		<tag k="natural" v="valley" />
		<tag k="place" v="locality" />
		<tag k="ssr:stedsnr" v="626127" />
	</node>
	<node lat="70.61159170609956" lon="30.06089582065821" id="-59556">
		<tag k="fixme" v="consider natural=peak for the most distinct mountains in the district" />
		<tag k="name" v="Syltefjordfjellet - Máhkirčearru" />
		<tag k="name:no" v="Syltefjordfjellet" />
		<tag k="name:se" v="Máhkirčearru" />
		<tag k="natural" v="hill" />
		<tag k="old_name:se" v="Makkirčærro" />
		<tag k="place" v="locality" />
		<tag k="ssr:stedsnr" v="626128" />
	</node>
	<node lat="70.51056392055672" lon="29.834529231264973" id="-59557">
		<tag k="alt_name" v="Johandalen, nedre" />
		<tag k="name" v="Nedre Johandalen" />
		<tag k="natural" v="valley" />
		<tag k="place" v="locality" />
		<tag k="ssr:stedsnr" v="626481" />
	</node>
	<node lat="70.46828060107282" lon="30.681709277937074" id="-59558">
		<tag k="name" v="Storflogdalen" />
		<tag k="natural" v="valley" />
		<tag k="place" v="locality" />
		<tag k="ssr:stedsnr" v="626928" />
	</node>
	<node lat="70.42668615690177" lon="30.4302483107584" id="-59559">
		<tag k="name" v="Ruovddášjohka" />
		<tag k="name:se" v="Ruovddášjohka" />
		<tag k="old_name:se" v="Ruovdašjåkka" />
		<tag k="ssr:stedsnr" v="626890" />
		<tag k="waterway" v="river" />
	</node>
	<node lat="70.41686392384527" lon="29.516912682500788" id="-59560">
		<tag k="name" v="Transportdalen" />
		<tag k="natural" v="valley" />
		<tag k="place" v="locality" />
		<tag k="ssr:stedsnr" v="626977" />
	</node>
	<node lat="70.32027226663858" lon="30.0890623415728" id="-59561">
		<tag k="name" v="Hestdalen" />
		<tag k="natural" v="valley" />
		<tag k="place" v="locality" />
		<tag k="ssr:stedsnr" v="626940" />
	</node>
	<node lat="70.67156114000954" lon="29.829482053011336" id="-59562">
		<tag k="alt_name:no" v="Båtsfjord" />
		<tag k="bay" v="fjord" />
		<tag k="name" v="Båtsfjorden - Báhcavuonna" />
		<tag k="name:no" v="Båtsfjorden" />
		<tag k="name:se" v="Báhcavuonna" />
		<tag k="natural" v="bay" />
		<tag k="ssr:stedsnr" v="627112" />
	</node>
	<node lat="70.6374805886101" lon="29.6917459938983" id="-59563">
		<tag k="name" v="Melkarn" />
		<tag k="natural" v="hill" />
		<tag k="place" v="locality" />
		<tag k="ssr:stedsnr" v="627476" />
	</node>
	<node lat="70.63724725124243" lon="29.740751525233353" id="-59564">
		<tag k="name" v="Hamneneset" />
		<tag k="natural" v="cape" />
		<tag k="ssr:stedsnr" v="627477" />
	</node>
	<node lat="70.70690836150345" lon="29.97874590131706" id="-59565">
		<tag k="name" v="Mellom-Rossmålen" />
		<tag k="natural" v="cape" />
		<tag k="ssr:stedsnr" v="627492" />
	</node>
	<node lat="70.61722225279583" lon="29.68472100480507" id="-59566">
		<tag k="name" v="Maribukta" />
		<tag k="natural" v="bay" />
		<tag k="ssr:stedsnr" v="631425" />
	</node>
	<node lat="70.43023893981616" lon="30.579184328175693" id="-59567">
		<tag k="fixme" v="consider natural=peak for the most distinct mountains in the district" />
		<tag k="name" v="Seglkollfjellet - Seavlačearru" />
		<tag k="name:no" v="Seglkollfjellet" />
		<tag k="name:se" v="Seavlačearru" />
		<tag k="natural" v="hill" />
		<tag k="old_name:se" v="Sævlačearro" />
		<tag k="place" v="locality" />
		<tag k="ssr:stedsnr" v="632853" />
	</node>
	<node lat="70.52490559726182" lon="30.041559668845544" id="-59568">
		<tag k="name" v="Storbukt" />
		<tag k="natural" v="bay" />
		<tag k="ssr:stedsnr" v="637455" />
	</node>
	<node lat="70.61306669635945" lon="29.718120988914592" id="-59569">
		<tag k="name" v="Perelvdalen" />
		<tag k="natural" v="valley" />
		<tag k="place" v="locality" />
		<tag k="ssr:stedsnr" v="637255" />
	</node>
	<node lat="70.53256114379178" lon="30.001101370539438" id="-59570">
		<tag k="name" v="Hursielva" />
		<tag k="ssr:stedsnr" v="637490" />
		<tag k="waterway" v="stream" />
	</node>
	<node lat="70.53910837381545" lon="30.104784641792687" id="-59571">
		<tag k="name" v="Hansemolla" />
		<tag k="natural" v="bay" />
		<tag k="ssr:stedsnr" v="637516" />
	</node>
	<node lat="70.54926115270882" lon="30.12156242073997" id="-59572">
		<tag k="name" v="Nordfjordlandet" />
		<tag k="natural" v="beach" />
		<tag k="ssr:stedsnr" v="637517" />
	</node>
	<node lat="70.52986948364999" lon="30.007054153531975" id="-59573">
		<tag k="name" v="Vesterelvmunningen" />
		<tag k="natural" v="bay" />
		<tag k="ssr:stedsnr" v="637545" />
	</node>
	<node lat="70.65033059106626" lon="29.882751466883672" id="-59574">
		<tag k="fixme" v="consider natural=peak for the most distinct mountains in the district" />
		<tag k="name" v="Raudberghøgda" />
		<tag k="natural" v="hill" />
		<tag k="place" v="locality" />
		<tag k="ssr:stedsnr" v="661066" />
	</node>
	<node lat="70.54760560016801" lon="30.35392063025477" id="-59575">
		<tag k="fixme" v="consider tourism=alpine_hut or tourism=chalet" />
		<tag k="name" v="Indre Syltevik" />
		<tag k="ssr:stedsnr" v="666893" />
		<tag k="tourism" v="wilderness_hut" />
	</node>
	<node lat="70.56046114670889" lon="30.111417979071526" id="-59576">
		<tag k="fixme" v="consider natural=peak for the most distinct mountains in the district" />
		<tag k="name" v="Syltefjordhøgda" />
		<tag k="natural" v="hill" />
		<tag k="place" v="locality" />
		<tag k="ssr:stedsnr" v="722093" />
	</node>
	<node lat="70.55665003353822" lon="29.537090493577523" id="-59577">
		<tag k="name" v="Raudsandvatna" />
		<tag k="natural" v="water" />
		<tag k="ssr:stedsnr" v="748448" />
		<tag k="water" v="lake" />
	</node>
	<node lat="70.56340836628108" lon="29.745995961773794" id="-59578">
		<tag k="name" v="Námmejohka" />
		<tag k="name:se" v="Námmejohka" />
		<tag k="old_name:se" v="Nammejåkka" />
		<tag k="ssr:stedsnr" v="748450" />
		<tag k="waterway" v="stream" />
	</node>
	<node lat="70.62344444479592" lon="29.744634665751725" id="-59579">
		<tag k="name" v="Eikebergvannan" />
		<tag k="natural" v="water" />
		<tag k="ssr:stedsnr" v="748458" />
		<tag k="water" v="lake" />
	</node>
	<node lat="70.52284170640343" lon="30.055451334921774" id="-59580">
		<tag k="name" v="Jonjok - Jonnejohka" />
		<tag k="name:no" v="Jonjok" />
		<tag k="name:se" v="Jonnejohka" />
		<tag k="old_name:se" v="Jånnejåkka" />
		<tag k="place" v="locality" />
		<tag k="ssr:stedsnr" v="748021" />
	</node>
	<node lat="70.57216393101935" lon="30.24218182222676" id="-59581">
		<tag k="name" v="Ytre Syltefjord" />
		<tag k="old_name" v="Syltefjord, ytre" />
		<tag k="place" v="locality" />
		<tag k="ssr:stedsnr" v="748037" />
	</node>
	<node lat="70.54555837330274" lon="30.029556923766894" id="-59582">
		<tag k="name" v="Gardijåkkmyrene - Gárdojohjeaggi" />
		<tag k="name:no" v="Gardijåkkmyrene" />
		<tag k="name:se" v="Gárdojohjeaggi" />
		<tag k="natural" v="wetland" />
		<tag k="old_name:se" v="Gardujåkjæggi" />
		<tag k="ssr:stedsnr" v="748054" />
	</node>
	<node lat="70.52923893120209" lon="30.58100937031029" id="-59583">
		<tag k="name" v="Vatnan" />
		<tag k="natural" v="water" />
		<tag k="ssr:stedsnr" v="748001" />
	</node>
	<node lat="70.63174725787957" lon="29.894015359543516" id="-59584">
		<tag k="name" v="Skovikhøgda" />
		<tag k="natural" v="hill" />
		<tag k="place" v="locality" />
		<tag k="ssr:stedsnr" v="748460" />
	</node>
	<node lat="70.69550558671773" lon="29.90700426647955" id="-59585">
		<tag k="name" v="Skarberggrunnen" />
		<tag k="natural" v="shoal" />
		<tag k="place" v="locality" />
		<tag k="ssr:stedsnr" v="753448" />
	</node>
	<node lat="70.48344448713381" lon="29.97678747539626" id="-59586">
		<tag k="alt_name:se" v="Stuoragáisa;Gáisá" />
		<tag k="fixme" v="consider natural=peak for the most distinct mountains in the district" />
		<tag k="name" v="Steinfjellet - Suologáisá" />
		<tag k="name:no" v="Steinfjellet" />
		<tag k="name:se" v="Suologáisá" />
		<tag k="natural" v="hill" />
		<tag k="old_name:se" v="Suolugaisa" />
		<tag k="place" v="locality" />
		<tag k="ssr:stedsnr" v="753977" />
	</node>
	<node lat="70.5300972567011" lon="30.040831894650342" id="-59587">
		<tag k="alt_name" v="Gollaholmen" />
		<tag k="name" v="Holmen" />
		<tag k="place" v="islet" />
		<tag k="ssr:stedsnr" v="754590" />
	</node>
	<node lat="70.5465555974955" lon="30.583934374671976" id="-59588">
		<tag k="fixme" v="consider seamark:type=rock or natural=shoal" />
		<tag k="name" v="Småskjæret" />
		<tag k="place" v="islet" />
		<tag k="ssr:stedsnr" v="754987" />
	</node>
	<node lat="70.31401670900873" lon="30.06454569103607" id="-59589">
		<tag k="name" v="Bajit Suovka" />
		<tag k="name:se" v="Bajit Suovka" />
		<tag k="old_name:se" v="Suovka, bajit" />
		<tag k="place" v="locality" />
		<tag k="ssr:stedsnr" v="808924" />
	</node>
	<node lat="70.36149170905071" lon="30.212703960579" id="-59590">
		<tag k="fixme" v="consider natural=peak for the most distinct mountains in the district" />
		<tag k="name" v="Suoidnelábbát" />
		<tag k="name:se" v="Suoidnelábbát" />
		<tag k="natural" v="hill" />
		<tag k="old_name:se" v="Suoidnelabbat" />
		<tag k="place" v="locality" />
		<tag k="ssr:stedsnr" v="808931" />
	</node>
	<node lat="70.44109171349567" lon="30.55843432900217" id="-59591">
		<tag k="name" v="Skierroleakši" />
		<tag k="name:se" v="Skierroleakši" />
		<tag k="natural" v="wetland" />
		<tag k="old_name:se" v="Skierulæksi" />
		<tag k="ssr:stedsnr" v="808876" />
	</node>
	<node lat="70.53052504132378" lon="30.3732206061656" id="-59592">
		<tag k="name" v="Gárjohka" />
		<tag k="name:se" v="Gárjohka" />
		<tag k="old_name:se" v="Garjåkka" />
		<tag k="ssr:stedsnr" v="809012" />
		<tag k="waterway" v="stream" />
	</node>
	<node lat="70.70383059084104" lon="30.034409766955196" id="-59593">
		<tag k="name" v="Litlevatnet" />
		<tag k="natural" v="water" />
		<tag k="ssr:stedsnr" v="809048" />
	</node>
	<node lat="70.54527504233405" lon="30.366326183676684" id="-59594">
		<tag k="fixme" v="consider natural=peak for the most distinct mountains in the district" />
		<tag k="name" v="Munken" />
		<tag k="natural" v="hill" />
		<tag k="place" v="locality" />
		<tag k="ssr:stedsnr" v="809065" />
	</node>
	<node lat="70.54840560125014" lon="30.506853868563173" id="-59595">
		<tag k="name" v="Gamvikneset" />
		<tag k="natural" v="cape" />
		<tag k="ssr:stedsnr" v="809071" />
	</node>
	<node lat="70.47325003485632" lon="29.70229871854936" id="-59596">
		<tag k="name" v="Skogåsdalen" />
		<tag k="natural" v="valley" />
		<tag k="place" v="locality" />
		<tag k="ssr:stedsnr" v="809985" />
	</node>
	<node lat="70.49750837195224" lon="29.791920908165316" id="-59597">
		<tag k="fixme" v="multiple name tags, choose one and add the other to alt_name" />
		<tag k="name" v="Syltefjordelva;Vesterelva - Oarddojohka - Ortojoki" />
		<tag k="name:fkv" v="Ortojoki" />
		<tag k="name:no" v="Syltefjordelva;Vesterelva" />
		<tag k="name:se" v="Oarddojohka" />
		<tag k="old_name:se" v="Oardujåkka" />
		<tag k="ssr:stedsnr" v="809990" />
		<tag k="waterway" v="river" />
	</node>
	<node lat="70.50246670137838" lon="29.35149888665458" id="-59598">
		<tag k="name" v="Delinga" />
		<tag k="place" v="isolated_dwelling" />
		<tag k="ssr:stedsnr" v="809521" />
	</node>
	<node lat="70.51976392750693" lon="29.69399873103047" id="-59599">
		<tag k="name" v="Skogdalen" />
		<tag k="natural" v="valley" />
		<tag k="place" v="locality" />
		<tag k="ssr:stedsnr" v="809473" />
	</node>
	<node lat="70.34470004061998" lon="29.916934671204068" id="-59600">
		<tag k="name" v="Bjørneskarhytta - Guovžagurbarta" />
		<tag k="name:no" v="Bjørneskarhytta" />
		<tag k="name:se" v="Guovžagurbarta" />
		<tag k="place" v="isolated_dwelling" />
		<tag k="ssr:stedsnr" v="809913" />
	</node>
	<node lat="70.47260836095046" lon="29.33842388638178" id="-59601">
		<tag k="name" v="Rávdol" />
		<tag k="name:se" v="Rávdol" />
		<tag k="old_name:se" v="Ravdul" />
		<tag k="ssr:stedsnr" v="809952" />
		<tag k="waterway" v="river" />
	</node>
	<node lat="70.71251947689923" lon="30.04214587426931" id="-59602">
		<tag k="name" v="Lankonbåen" />
		<tag k="place" v="locality" />
		<tag k="seamark:type" v="rock" />
		<tag k="ssr:stedsnr" v="814544" />
	</node>
	<node lat="70.54831948472761" lon="30.061779119574314" id="-59603">
		<tag k="alt_name" v="Kattugleelva" />
		<tag k="name" v="Nordfjordelva" />
		<tag k="ssr:stedsnr" v="815550" />
		<tag k="waterway" v="river" />
	</node>
	<node lat="70.64043058697159" lon="29.743809860621628" id="-59604">
		<tag k="name" v="Bjørnenakkbukta" />
		<tag k="natural" v="bay" />
		<tag k="ssr:stedsnr" v="819385" />
	</node>
	<node lat="70.62133336447009" lon="29.672993235368235" id="-59605">
		<tag k="fixme" v="consider natural=peak for the most distinct mountains in the district" />
		<tag k="name" v="Marifjell" />
		<tag k="natural" v="hill" />
		<tag k="place" v="locality" />
		<tag k="ssr:stedsnr" v="819344" />
	</node>
	<node lat="70.63198336256397" lon="29.822434833616253" id="-59606">
		<tag k="name" v="Prestelvhøgda" />
		<tag k="natural" v="hill" />
		<tag k="place" v="locality" />
		<tag k="ssr:stedsnr" v="819416" />
	</node>
	<node lat="70.53528337528738" lon="30.111170751345337" id="-59607">
		<tag k="name" v="Brattlia" />
		<tag k="natural" v="slope" />
		<tag k="place" v="locality" />
		<tag k="ssr:stedsnr" v="820479" />
	</node>
	<node lat="70.61870003838602" lon="30.224523519704015" id="-59608">
		<tag k="name" v="Stormolldalen" />
		<tag k="natural" v="valley" />
		<tag k="place" v="locality" />
		<tag k="ssr:stedsnr" v="869038" />
	</node>
	<node lat="70.57112781569765" lon="30.04466248723103" id="-59609">
		<tag k="name" v="Nordfjordhøgda" />
		<tag k="natural" v="hill" />
		<tag k="place" v="locality" />
		<tag k="ssr:stedsnr" v="869043" />
	</node>
	<node lat="70.51142780738728" lon="29.678257076027872" id="-59610">
		<tag k="loc_name:se" v="Oardu" />
		<tag k="name" v="Syltefjorddalen" />
		<tag k="name:no" v="Syltefjorddalen" />
		<tag k="natural" v="valley" />
		<tag k="place" v="locality" />
		<tag k="ssr:stedsnr" v="869490" />
	</node>
	<node lat="70.61005003290164" lon="29.697257096743535" id="-59611">
		<tag k="alt_name" v="Strømsnesaksla" />
		<tag k="name" v="Straumsnesaksla" />
		<tag k="natural" v="hill" />
		<tag k="place" v="locality" />
		<tag k="ssr:stedsnr" v="869501" />
	</node>
	<node lat="70.6550667005598" lon="30.094748599961438" id="-59612">
		<tag k="name" v="Kollvatnet" />
		<tag k="natural" v="water" />
		<tag k="ssr:stedsnr" v="869046" />
	</node>
	<node lat="70.69701114633537" lon="30.105509721400093" id="-59613">
		<tag k="name" v="Molvika" />
		<tag k="natural" v="bay" />
		<tag k="ssr:stedsnr" v="869051" />
	</node>
	<node lat="70.54193337100023" lon="30.032568021777376" id="-59614">
		<tag k="name" v="Torvatnet" />
		<tag k="natural" v="water" />
		<tag k="ssr:stedsnr" v="869061" />
	</node>
	<node lat="70.39846948438276" lon="30.283745603231225" id="-59615">
		<tag k="name" v="Juovkkaidjohka" />
		<tag k="name:se" v="Juovkkaidjohka" />
		<tag k="old_name:se" v="Juovkaidjåkka" />
		<tag k="ssr:stedsnr" v="869888" />
		<tag k="waterway" v="stream" />
	</node>
	<node lat="70.44742503458099" lon="29.31548222047598" id="-59616">
		<tag k="fixme" v="consider natural=peak for the most distinct mountains in the district" />
		<tag k="name" v="Rávdolčohkka" />
		<tag k="name:se" v="Rávdolčohkka" />
		<tag k="natural" v="hill" />
		<tag k="old_name:se" v="Ravdulčåkka" />
		<tag k="place" v="locality" />
		<tag k="ssr:stedsnr" v="869947" />
	</node>
	<node lat="70.53005559691836" lon="30.189948500160074" id="-59617">
		<tag k="fixme" v="consider seamark:type=rock or natural=shoal" />
		<tag k="name" v="Tavlskjæret" />
		<tag k="place" v="islet" />
		<tag k="ssr:stedsnr" v="870007" />
	</node>
	<node lat="70.54430714975086" lon="30.63038719083133" id="-59618">
		<tag k="name" v="Støvlenakken" />
		<tag k="natural" v="cape" />
		<tag k="ssr:stedsnr" v="870009" />
	</node>
	<node lat="70.53720838155694" lon="30.556798282451446" id="-59619">
		<tag k="fixme" v="consider natural=peak for the most distinct mountains in the district" />
		<tag k="name" v="Ovnen" />
		<tag k="natural" v="hill" />
		<tag k="place" v="locality" />
		<tag k="ssr:stedsnr" v="870013" />
	</node>
	<node lat="70.47233892981066" lon="30.23359011529853" id="-59620">
		<tag k="fixme" v="consider natural=peak for the most distinct mountains in the district" />
		<tag k="name" v="Øver-Tavla - Skádjačearru" />
		<tag k="name:no" v="Øver-Tavla" />
		<tag k="name:se" v="Skádjačearru" />
		<tag k="natural" v="hill" />
		<tag k="old_name:se" v="Skaddjačærro;Skadjačearru" />
		<tag k="place" v="locality" />
		<tag k="ssr:stedsnr" v="870884" />
	</node>
	<node lat="70.47970559609644" lon="30.14346236828745" id="-59621">
		<tag k="name" v="Austerdalen" />
		<tag k="natural" v="valley" />
		<tag k="place" v="locality" />
		<tag k="ssr:stedsnr" v="870894" />
	</node>
	<node lat="70.367100268992" lon="29.766804946340628" id="-59622">
		<tag k="fixme" v="consider tourism=alpine_hut or tourism=chalet" />
		<tag k="name" v="Ragnarokk" />
		<tag k="ssr:stedsnr" v="870897" />
		<tag k="tourism" v="wilderness_hut" />
	</node>
	<node lat="70.32063893055505" lon="29.899751322884153" id="-59623">
		<tag k="name" v="Bjørnskaret - Guovžagurra" />
		<tag k="name:no" v="Bjørnskaret" />
		<tag k="name:se" v="Guovžagurra" />
		<tag k="natural" v="valley" />
		<tag k="place" v="locality" />
		<tag k="ssr:stedsnr" v="870901" />
	</node>
	<node lat="70.39830003699464" lon="29.57062930971487" id="-59624">
		<tag k="fixme" v="consider tourism=alpine_hut or tourism=chalet" />
		<tag k="name" v="Heimdal" />
		<tag k="ssr:stedsnr" v="870970" />
		<tag k="tourism" v="wilderness_hut" />
	</node>
	<node lat="70.42869725682317" lon="29.69485981078742" id="-59625">
		<tag k="name" v="Suoloskáidi" />
		<tag k="name:se" v="Suoloskáidi" />
		<tag k="natural" v="cape" />
		<tag k="old_name:se" v="Suoluskaidi" />
		<tag k="ssr:stedsnr" v="870977" />
	</node>
	<node lat="70.51445281805147" lon="30.227109573611727" id="-59626">
		<tag k="fixme" v="consider natural=peak for the most distinct mountains in the district" />
		<tag k="name" v="Tavla" />
		<tag k="natural" v="hill" />
		<tag k="place" v="locality" />
		<tag k="ssr:stedsnr" v="874446" />
	</node>
	<node lat="70.51445004063183" lon="30.227106782536133" id="-59627">
		<tag k="name" v="Rossmålaksla" />
		<tag k="place" v="locality" />
		<tag k="ssr:stedsnr" v="874452" />
	</node>
	<node lat="70.62679725395385" lon="29.70177934257936" id="-59628">
		<tag k="alt_name" v="Indre Havn" />
		<tag k="name" v="Neptunbukta" />
		<tag k="natural" v="bay" />
		<tag k="ssr:stedsnr" v="875511" />
	</node>
	<node lat="70.58678892492055" lon="30.3101401203955" id="-59629">
		<tag k="name" v="Ytre Bukta" />
		<tag k="natural" v="bay" />
		<tag k="ssr:stedsnr" v="875517" />
	</node>
	<node lat="70.32770837447042" lon="29.734423640963456" id="-59630">
		<tag k="fixme" v="consider natural=peak for the most distinct mountains in the district" />
		<tag k="name" v="Kjøltindan" />
		<tag k="natural" v="hill" />
		<tag k="place" v="locality" />
		<tag k="ssr:stedsnr" v="875770" />
	</node>
	<node lat="70.33912226493142" lon="30.180203968128772" id="-59631">
		<tag k="fixme" v="consider natural=peak for the most distinct mountains in the district" />
		<tag k="name" v="Ryggfjellet - Eartnjoaivi - Kivitunturi" />
		<tag k="name:fkv" v="Kivitunturi" />
		<tag k="name:no" v="Ryggfjellet" />
		<tag k="name:se" v="Eartnjoaivi" />
		<tag k="natural" v="hill" />
		<tag k="old_name:se" v="Ærdnjoaivi" />
		<tag k="place" v="locality" />
		<tag k="ssr:stedsnr" v="875928" />
	</node>
	<node lat="70.51038058762975" lon="29.854584774210046" id="-59633">
		<tag k="name" v="Johandalen" />
		<tag k="natural" v="valley" />
		<tag k="place" v="locality" />
		<tag k="ssr:stedsnr" v="880374" />
	</node>
	<node lat="70.6437722548712" lon="29.7407404453295" id="-59634">
		<tag k="name" v="Nordskogen" />
		<tag k="place" v="quarter" />
		<tag k="ssr:stedsnr" v="939777" />
	</node>
	<node lat="70.54259726039453" lon="30.042284682753248" id="-59635">
		<tag k="name" v="Nordfjordeidet" />
		<tag k="place" v="locality" />
		<tag k="ssr:stedsnr" v="939924" />
	</node>
	<node lat="70.64683614278074" lon="29.662040478987617" id="-59636">
		<tag k="name" v="Skolelvgrenan" />
		<tag k="natural" v="slope" />
		<tag k="place" v="locality" />
		<tag k="ssr:stedsnr" v="941336" />
	</node>
	<node lat="70.62117502682275" lon="29.74651264366415" id="-59637">
		<tag k="name" v="Øvre Eikebergvannet" />
		<tag k="natural" v="water" />
		<tag k="ssr:stedsnr" v="941388" />
		<tag k="water" v="lake" />
	</node>
	<node lat="70.61865836754986" lon="29.698354339630992" id="-59638">
		<tag k="name" v="Solheim" />
		<tag k="place" v="locality" />
		<tag k="ssr:stedsnr" v="941342" />
	</node>
	<node lat="70.64348058295721" lon="29.746876545288806" id="-59639">
		<tag k="name" v="Ursinbukta" />
		<tag k="natural" v="bay" />
		<tag k="ssr:stedsnr" v="941349" />
	</node>
	<node lat="70.53287503703812" lon="30.06738466747749" id="-59640">
		<tag k="name" v="Hamna" />
		<tag k="place" v="locality" />
		<tag k="ssr:stedsnr" v="941486" />
	</node>
	<node lat="70.70031669765558" lon="30.0666958445694" id="-59641">
		<tag k="name" v="Máhkirjávrrit" />
		<tag k="name:se" v="Máhkirjávrrit" />
		<tag k="natural" v="water" />
		<tag k="old_name:se" v="Makkirjavrit" />
		<tag k="ssr:stedsnr" v="967094" />
		<tag k="water" v="lake" />
	</node>
	<node lat="70.53273993539923" lon="30.004817013855888" id="-59642">
		<tag k="name" v="Vesterelva " />
		<tag k="place" v="hamlet" />
		<tag k="ssr:stedsnr" v="989591" />
	</node>
	<node lat="70.61938442592023" lon="29.688665507889677" id="-59644">
		<tag k="name" v="Báhcavuonbahta" />
		<tag k="name:se" v="Báhcavuonbahta" />
		<tag k="natural" v="bay" />
		<tag k="ssr:stedsnr" v="990331" />
	</node>
	<node lat="70.62552828450605" lon="29.74729295989609" id="-59645">
		<tag k="name" v="Eikebergvannet" />
		<tag k="place" v="farm" />
		<tag k="ssr:stedsnr" v="1072602" />
	</node>
	<node lat="70.627573926619" lon="29.762093549739934" id="-59646">
		<tag k="name" v="Eikebergvika" />
		<tag k="old_name" v="Egebergvik" />
		<tag k="place" v="farm" />
		<tag k="ssr:stedsnr" v="1072604" />
	</node>
	<node lat="70.63415300881302" lon="29.728308706978947" id="-59647">
		<tag k="fixme" v="multiple name tags, choose one and add the other to alt_name" />
		<tag k="name" v="Hamna;Indre hamn - Hámman" />
		<tag k="name:no" v="Hamna;Indre hamn" />
		<tag k="name:se" v="Hámman" />
		<tag k="natural" v="bay" />
		<tag k="ssr:stedsnr" v="1072605" />
	</node>
	<node lat="70.6280887551697" lon="29.759416095040716" id="-59648">
		<tag k="name" v="Eikebergvannet" />
		<tag k="place" v="farm" />
		<tag k="ssr:stedsnr" v="1072608" />
	</node>
	<node lat="69.65483861708206" lon="18.954055597917613" id="-59650">
		<tag k="amenity" v="school" />
		<tag k="name" v="Ishavsbyen videregående skole" />
		<tag k="ssr:stedsnr" v="1075695" />
	</node>
	<node lat="70.62764150380684" lon="29.759372546215655" id="-59651">
		<tag k="name" v="Eikebergvannet" />
		<tag k="old_name" v="F3624 H      Ekebergvann-8" />
		<tag k="place" v="farm" />
		<tag k="ssr:stedsnr" v="1078747" />
	</node>
</osm>
