<?xml version="1.0" encoding="UTF-8"?>
<osm version="0.6" generator="osmapis">
	<node lat="70.52228060213531" lon="30.57687325353252" id="-114429">
		<tag k="name" v="Tårnvatnet" />
		<tag k="natural" v="water" />
		<tag k="ssr:stedsnr" v="20001" />
	</node>
	<node lat="70.3388889367765" lon="30.01246516571749" id="-114432">
		<tag k="name" v="Njuvččagurjohka" />
		<tag k="name:se" v="Njuvččagurjohka" />
		<tag k="old_name:se" v="Njuvčagurjåkka" />
		<tag k="ssr:stedsnr" v="20945" />
		<tag k="waterway" v="stream" />
	</node>
	<node lat="70.47516948013829" lon="29.778479227712662" id="-114433">
		<tag k="name" v="Rássejávri" />
		<tag k="name:se" v="Rássejávri" />
		<tag k="natural" v="water" />
		<tag k="old_name:se" v="Rassejavri" />
		<tag k="ssr:stedsnr" v="20986" />
		<tag k="water" v="lake" />
	</node>
	<node lat="70.50568614811705" lon="30.159395705366585" id="-114436">
		<tag k="name" v="Karielva" />
		<tag k="ssr:stedsnr" v="81009" />
		<tag k="waterway" v="stream" />
	</node>
	<node lat="70.53355004038518" lon="30.397365050315006" id="-114458">
		<tag k="name" v="Syltevikvatnet" />
		<tag k="natural" v="water" />
		<tag k="ssr:stedsnr" v="263014" />
		<tag k="water" v="lake" />
	</node>
	<node lat="70.62813892370527" lon="29.787873744870783" id="-114459">
		<tag k="alt_name" v="Blindvatn" />
		<tag k="name" v="Blindvatnet" />
		<tag k="natural" v="water" />
		<tag k="ssr:stedsnr" v="263483" />
	</node>
	<node lat="70.62036114686504" lon="29.678729335075644" id="-114471">
		<tag k="name" v="Marielva" />
		<tag k="ssr:stedsnr" v="455301" />
		<tag k="waterway" v="stream" />
	</node>
	<node lat="70.55843336116388" lon="29.590623808032802" id="-114475">
		<tag k="name" v="Djupvatnet - Goalsejávri" />
		<tag k="name:no" v="Djupvatnet" />
		<tag k="name:se" v="Goalsejávri" />
		<tag k="natural" v="water" />
		<tag k="old_name:se" v="Goalsejavri" />
		<tag k="ssr:stedsnr" v="262453" />
		<tag k="water" v="lake" />
	</node>
	<node lat="70.53613059244786" lon="29.994873602011058" id="-114481">
		<tag k="name" v="Vassbotnelva" />
		<tag k="ssr:stedsnr" v="273491" />
		<tag k="waterway" v="stream" />
	</node>
	<node lat="70.61579169968809" lon="29.682859902640097" id="-114485">
		<tag k="alt_name" v="Strømvatn;Strømvatnet" />
		<tag k="fixme" v="multiple name tags, choose one and add the other to alt_name" />
		<tag k="name" v="Vatnet;Straumsnesvatnet" />
		<tag k="natural" v="water" />
		<tag k="ssr:stedsnr" v="323478" />
	</node>
	<node lat="70.41000837164334" lon="29.685373706843887" id="-114487">
		<tag k="name" v="Stuorraskáidi" />
		<tag k="name:se" v="Stuorraskáidi" />
		<tag k="natural" v="cape" />
		<tag k="old_name:se" v="Stuorraskaidi" />
		<tag k="ssr:stedsnr" v="323975" />
	</node>
	<node lat="70.44518614761235" lon="29.86609307265387" id="-114497">
		<tag k="name" v="Noaidejohka" />
		<tag k="name:se" v="Noaidejohka" />
		<tag k="old_name:se" v="Noaidejåkka" />
		<tag k="ssr:stedsnr" v="384961" />
		<tag k="waterway" v="stream" />
	</node>
	<node lat="70.64406114377829" lon="29.71161821534829" id="-114506">
		<tag k="name" v="Hamneelva" />
		<tag k="ssr:stedsnr" v="455321" />
		<tag k="waterway" v="river" />
	</node>
	<node lat="70.61285003168358" lon="29.764584856979063" id="-114510">
		<tag k="name" v="Klauvvatnet" />
		<tag k="natural" v="water" />
		<tag k="ssr:stedsnr" v="505475" />
	</node>
	<node lat="70.46452782037308" lon="30.13932904527898" id="-114511">
		<tag k="name" v="Skadjasuolojohka" />
		<tag k="name:se" v="Skadjasuolojohka" />
		<tag k="old_name:se" v="Skaddjasuolujåkka" />
		<tag k="ssr:stedsnr" v="505875" />
		<tag k="waterway" v="river" />
	</node>
	<node lat="70.310663936917" lon="30.1126428688875" id="-114513">
		<tag k="name" v="Hubejohskáidi" />
		<tag k="name:se" v="Hubejohskáidi" />
		<tag k="natural" v="cape" />
		<tag k="old_name:se" v="Hubejåkskaidi" />
		<tag k="ssr:stedsnr" v="505909" />
	</node>
	<node lat="70.5068111479237" lon="29.874240323333584" id="-114520">
		<tag k="name" v="Reingjerdneset" />
		<tag k="natural" v="cape" />
		<tag k="ssr:stedsnr" v="516364" />
	</node>
	<node lat="70.53520004391383" lon="30.540001061793564" id="-114521">
		<tag k="name" v="Ovnsvatnan" />
		<tag k="natural" v="water" />
		<tag k="ssr:stedsnr" v="687011" />
	</node>
	<node lat="70.5157389236405" lon="30.08075687902976" id="-114523">
		<tag k="name" v="Litleelva" />
		<tag k="ssr:stedsnr" v="687015" />
		<tag k="waterway" v="stream" />
	</node>
	<node lat="70.46778336664076" lon="29.35605443556909" id="-114531">
		<tag k="name" v="Rávdolskáidi" />
		<tag k="name:se" v="Rávdolskáidi" />
		<tag k="natural" v="cape" />
		<tag k="old_name:se" v="Ravdulskaidi" />
		<tag k="ssr:stedsnr" v="687943" />
	</node>
	<node lat="70.47489447304734" lon="29.224129490548556" id="-114532">
		<tag k="name" v="Oarddojávri - Ortojärvi" />
		<tag k="name:fkv" v="Ortojärvi" />
		<tag k="name:se" v="Oarddojávri" />
		<tag k="natural" v="water" />
		<tag k="old_name:se" v="Oardujavri" />
		<tag k="ssr:stedsnr" v="687952" />
		<tag k="water" v="lake" />
	</node>
	<node lat="70.60769447953679" lon="29.625715465609456" id="-114533">
		<tag k="name" v="Tverrelva" />
		<tag k="ssr:stedsnr" v="688100" />
		<tag k="waterway" v="river" />
	</node>
	<node lat="70.64572503390399" lon="29.876182026066353" id="-114536">
		<tag k="name" v="Prestelvvatnet" />
		<tag k="natural" v="water" />
		<tag k="ssr:stedsnr" v="688468" />
	</node>
	<node lat="70.61988058421483" lon="29.79878762126457" id="-114537">
		<tag k="name" v="Skovikvatnet" />
		<tag k="natural" v="water" />
		<tag k="ssr:stedsnr" v="688473" />
	</node>
	<node lat="70.54657503714046" lon="30.011340261117315" id="-114540">
		<tag k="alt_name:se" v="Gárdjohka;Gárdijohka" />
		<tag k="name" v="Gárdojohka" />
		<tag k="name:se" v="Gárdojohka" />
		<tag k="old_name:se" v="Gardujåkka" />
		<tag k="ssr:stedsnr" v="566059" />
		<tag k="waterway" v="stream" />
	</node>
	<node lat="70.62660280497565" lon="29.631307128108855" id="-114541">
		<tag k="name" v="Neptunelva" />
		<tag k="ssr:stedsnr" v="566466" />
		<tag k="waterway" v="river" />
	</node>
	<node lat="70.38344170735722" lon="29.91130970186871" id="-114543">
		<tag k="name" v="Sandfjordelva - Dávatjohka" />
		<tag k="name:no" v="Sandfjordelva" />
		<tag k="name:se" v="Dávatjohka" />
		<tag k="old_name:se" v="Davatjåkka" />
		<tag k="ssr:stedsnr" v="566961" />
		<tag k="waterway" v="river" />
	</node>
	<node lat="70.61485558577921" lon="29.665559890200573" id="-114550">
		<tag k="name" v="Gattjohka" />
		<tag k="name:se" v="Gattjohka" />
		<tag k="ssr:stedsnr" v="698206" />
		<tag k="waterway" v="stream" />
	</node>
	<node lat="70.51333893100858" lon="30.51592327756399" id="-114553">
		<tag k="name" v="Småelvan" />
		<tag k="ssr:stedsnr" v="626007" />
		<tag k="waterway" v="stream" />
	</node>
	<node lat="70.61243336989722" lon="29.717643199018035" id="-114560">
		<tag k="name" v="Perelva" />
		<tag k="ssr:stedsnr" v="626502" />
		<tag k="waterway" v="stream" />
	</node>
	<node lat="70.39286393531636" lon="30.352226099580456" id="-114567">
		<tag k="name" v="Juovkkaidláttu" />
		<tag k="name:se" v="Juovkkaidláttu" />
		<tag k="natural" v="water" />
		<tag k="old_name:se" v="Juovkaidladdo" />
		<tag k="ssr:stedsnr" v="687890" />
	</node>
	<node lat="70.51567782396336" lon="30.4931538739061" id="-114569">
		<tag k="name" v="Stormyrvatnet" />
		<tag k="natural" v="water" />
		<tag k="ssr:stedsnr" v="688007" />
		<tag k="water" v="lake" />
	</node>
	<node lat="70.34710003675386" lon="29.800690288951557" id="-114570">
		<tag k="name" v="Vuoččalanjohka" />
		<tag k="name:se" v="Vuoččalanjohka" />
		<tag k="old_name:se" v="Vuožžalanjåkka" />
		<tag k="ssr:stedsnr" v="688906" />
		<tag k="waterway" v="river" />
	</node>
	<node lat="70.35004171166597" lon="29.99734295359394" id="-114571">
		<tag k="name" v="Njuvččagurjávrrit" />
		<tag k="name:se" v="Njuvččagurjávrrit" />
		<tag k="natural" v="water" />
		<tag k="old_name:se" v="Njuvčagurjavrit" />
		<tag k="ssr:stedsnr" v="688908" />
	</node>
	<node lat="70.60367503144846" lon="29.579321049287163" id="-114576">
		<tag k="name" v="Bakkeelva" />
		<tag k="ssr:stedsnr" v="698216" />
		<tag k="waterway" v="stream" />
	</node>
	<node lat="70.64543058692621" lon="29.7023293438726" id="-114581">
		<tag k="name" v="Hamnevannet" />
		<tag k="natural" v="water" />
		<tag k="ssr:stedsnr" v="748465" />
	</node>
	<node lat="70.59933336911122" lon="29.7658042923664" id="-114584">
		<tag k="name" v="Andedamman" />
		<tag k="natural" v="water" />
		<tag k="ssr:stedsnr" v="808441" />
	</node>
	<node lat="70.52638059999954" lon="30.483323321623818" id="-114586">
		<tag k="name" v="Kvalbeinvatnet" />
		<tag k="natural" v="water" />
		<tag k="ssr:stedsnr" v="809005" />
		<tag k="water" v="lake" />
	</node>
	<node lat="70.59274725341751" lon="29.6505793541966" id="-114589">
		<tag k="name" v="Lille Jovatn" />
		<tag k="natural" v="water" />
		<tag k="ssr:stedsnr" v="819146" />
	</node>
	<node lat="70.5294222615494" lon="30.05122634479863" id="-114593">
		<tag k="name" v="Bergodden" />
		<tag k="ssr:stedsnr" v="820468" />
		<tag k="waterway" v="stream" />
	</node>
	<node lat="70.54415004220755" lon="30.41932893142839" id="-114595">
		<tag k="name" v="Kristenvatnet" />
		<tag k="natural" v="water" />
		<tag k="ssr:stedsnr" v="930055" />
	</node>
	<node lat="70.55920836876676" lon="30.145720736140838" id="-114596">
		<tag k="name" v="Storvatnet" />
		<tag k="natural" v="water" />
		<tag k="ssr:stedsnr" v="930062" />
		<tag k="water" v="lake" />
	</node>
	<node lat="70.5578722570965" lon="29.703559852146615" id="-114599">
		<tag k="name" v="Storvatnet - Orošjávri" />
		<tag k="name:no" v="Storvatnet" />
		<tag k="name:se" v="Orošjávri" />
		<tag k="natural" v="water" />
		<tag k="old_name:se" v="Årušjavri" />
		<tag k="ssr:stedsnr" v="930458" />
		<tag k="water" v="lake" />
	</node>
	<node lat="70.32776670919623" lon="29.98604572813981" id="-114602">
		<tag k="name" v="Komagelva - Stuorrajohka - Kumajoki" />
		<tag k="name:fkv" v="Kumajoki" />
		<tag k="name:no" v="Komagelva" />
		<tag k="name:se" v="Stuorrajohka" />
		<tag k="old_name:se" v="Stuorrajåkka" />
		<tag k="ssr:stedsnr" v="930541" />
		<tag k="waterway" v="river" />
	</node>
	<node lat="70.46400836383623" lon="29.27147389436857" id="-114603">
		<tag k="name" v="Oarddojárskáidi" />
		<tag k="name:se" v="Oarddojárskáidi" />
		<tag k="natural" v="cape" />
		<tag k="old_name:se" v="Oardujarskaidi" />
		<tag k="ssr:stedsnr" v="930954" />
	</node>
	<node lat="70.48315559289716" lon="29.99712078949713" id="-114606">
		<tag k="name" v="Jonnejohjávri" />
		<tag k="name:se" v="Jonnejohjávri" />
		<tag k="natural" v="water" />
		<tag k="old_name:se" v="Jånnejåkjavri" />
		<tag k="ssr:stedsnr" v="930978" />
		<tag k="water" v="lake" />
	</node>
	<node lat="70.60539169263551" lon="29.662062682019823" id="-114610">
		<tag k="name" v="Jovatn" />
		<tag k="natural" v="water" />
		<tag k="ssr:stedsnr" v="880136" />
	</node>
	<node lat="70.51774448460331" lon="29.949448616603107" id="-114612">
		<tag k="name" v="Holman" />
		<tag k="place" v="islet" />
		<tag k="ssr:stedsnr" v="880419" />
	</node>
	<node lat="70.68595003449165" lon="30.06465416711678" id="-114614">
		<tag k="name" v="Medvatnet" />
		<tag k="natural" v="water" />
		<tag k="ssr:stedsnr" v="930047" />
		<tag k="water" v="lake" />
	</node>
	<node lat="70.52033892914733" lon="30.065487445705926" id="-114617">
		<tag k="alt_name:se" v="Jonjohka" />
		<tag k="name" v="Jonnejohka" />
		<tag k="name:se" v="Jonnejohka" />
		<tag k="old_name:se" v="Jånnejåkka" />
		<tag k="ssr:stedsnr" v="930893" />
		<tag k="waterway" v="stream" />
	</node>
	<node lat="70.69745002955868" lon="29.995656996920708" id="-114626">
		<tag k="name" v="Nonsvatnet" />
		<tag k="natural" v="water" />
		<tag k="ssr:stedsnr" v="20460" />
	</node>
	<node lat="70.51471391547481" lon="29.259354492783448" id="-114639">
		<tag k="name" v="Oarddoskáidi" />
		<tag k="name:se" v="Oarddoskáidi" />
		<tag k="natural" v="cape" />
		<tag k="old_name:se" v="Oarduskaidi" />
		<tag k="ssr:stedsnr" v="81514" />
	</node>
	<node lat="70.61939169452677" lon="29.765998739275048" id="-114648">
		<tag k="name" v="Klauvvasselva" />
		<tag k="ssr:stedsnr" v="91434" />
		<tag k="waterway" v="stream" />
	</node>
	<node lat="70.57670837492473" lon="30.203890173028565" id="-114654">
		<tag k="loc_name" v="Sandfjordselva" />
		<tag k="name" v="Sandfjorddalselva" />
		<tag k="ssr:stedsnr" v="141047" />
		<tag k="waterway" v="stream" />
	</node>
	<node lat="70.57815281663026" lon="30.098265222992858" id="-114655">
		<tag k="name" v="Laksevatna" />
		<tag k="natural" v="water" />
		<tag k="ssr:stedsnr" v="141048" />
		<tag k="water" v="lake" />
	</node>
	<node lat="70.57928336604189" lon="29.795126481889152" id="-114658">
		<tag k="name" v="Steinfjellvatnet - Námmejávri" />
		<tag k="name:no" v="Steinfjellvatnet" />
		<tag k="name:se" v="Námmejávri" />
		<tag k="natural" v="water" />
		<tag k="old_name:se" v="Nammejavri" />
		<tag k="ssr:stedsnr" v="141452" />
	</node>
	<node lat="70.52430003370766" lon="29.62726267297082" id="-114661">
		<tag k="name" v="Svingvatnet" />
		<tag k="natural" v="water" />
		<tag k="ssr:stedsnr" v="141457" />
	</node>
	<node lat="70.52806392449287" lon="29.564182137434848" id="-114662">
		<tag k="alt_name" v="Oardo, litle" />
		<tag k="name" v="Lille Oardo" />
		<tag k="natural" v="water" />
		<tag k="ssr:stedsnr" v="141460" />
	</node>
	<node lat="70.49031392428527" lon="29.853523655242608" id="-114668">
		<tag k="name" v="Ásllatjávri" />
		<tag k="name:se" v="Ásllatjávri" />
		<tag k="natural" v="water" />
		<tag k="old_name:se" v="Aslatjavri" />
		<tag k="ssr:stedsnr" v="141978" />
		<tag k="water" v="lake" />
	</node>
	<node lat="70.6424528108083" lon="30.047329175440694" id="-114669">
		<tag k="name" v="Sandfjordelva" />
		<tag k="ssr:stedsnr" v="146486" />
		<tag k="waterway" v="stream" />
	</node>
	<node lat="70.5436944791225" lon="30.040479142223802" id="-114675">
		<tag k="name" v="Torelva" />
		<tag k="ssr:stedsnr" v="152525" />
		<tag k="waterway" v="stream" />
	</node>
	<node lat="70.50435837270024" lon="29.91498474304931" id="-114686">
		<tag k="alt_name:se" v="Rásjohka" />
		<tag k="name" v="Rássejohka" />
		<tag k="name:se" v="Rássejohka" />
		<tag k="old_name:se" v="Rassejåkka;Rassejohka" />
		<tag k="ssr:stedsnr" v="202575" />
		<tag k="waterway" v="river" />
	</node>
	<node lat="70.49705003753238" lon="30.130573498189946" id="-114687">
		<tag k="name" v="Austerelva - Uhcoarddojohka" />
		<tag k="name:no" v="Austerelva" />
		<tag k="name:se" v="Uhcoarddojohka" />
		<tag k="old_name:se" v="Uccoardujåkka" />
		<tag k="ssr:stedsnr" v="202578" />
		<tag k="waterway" v="river" />
	</node>
	<node lat="70.4896416938535" lon="29.379715531074424" id="-114688">
		<tag k="name" v="Uhcit Rávdol" />
		<tag k="name:se" v="Uhcit Rávdol" />
		<tag k="old_name:se" v="Ravdul, uccit" />
		<tag k="ssr:stedsnr" v="202964" />
		<tag k="waterway" v="river" />
	</node>
	<node lat="70.69740558968522" lon="29.99707366563099" id="-114693">
		<tag k="name" v="Gryta" />
		<tag k="natural" v="water" />
		<tag k="ssr:stedsnr" v="207485" />
		<tag k="water" v="lake" />
	</node>
	<node lat="70.70031114212715" lon="30.06670139492799" id="-114694">
		<tag k="name" v="Storvatnet" />
		<tag k="natural" v="water" />
		<tag k="ssr:stedsnr" v="207486" />
		<tag k="water" v="lake" />
	</node>
	<node lat="70.5216111449009" lon="29.962143057705294" id="-114697">
		<tag k="name" v="Holman" />
		<tag k="place" v="islet" />
		<tag k="ssr:stedsnr" v="213447" />
	</node>
	<node lat="70.62834725715351" lon="29.761415423544268" id="-114700">
		<tag k="name" v="Eikebergelva" />
		<tag k="ssr:stedsnr" v="273392" />
		<tag k="waterway" v="stream" />
	</node>
	<node lat="70.5754250299916" lon="29.673820981219784" id="-114705">
		<tag k="name" v="Storelva - Orošjohka" />
		<tag k="name:no" v="Storelva" />
		<tag k="name:se" v="Orošjohka" />
		<tag k="old_name:se" v="Årušjåkka" />
		<tag k="ssr:stedsnr" v="323115" />
		<tag k="waterway" v="river" />
	</node>
	<node lat="70.57267225675362" lon="29.64279877174916" id="-114707">
		<tag k="name" v="Djupvasselva" />
		<tag k="ssr:stedsnr" v="323452" />
		<tag k="waterway" v="river" />
	</node>
	<node lat="70.54111669579703" lon="29.44470440978219" id="-114708">
		<tag k="name" v="Adamsvatnet - Áttájávri" />
		<tag k="name:no" v="Adamsvatnet" />
		<tag k="name:se" v="Áttájávri" />
		<tag k="natural" v="water" />
		<tag k="old_name:se" v="Addajavri" />
		<tag k="ssr:stedsnr" v="323463" />
		<tag k="water" v="lake" />
	</node>
	<node lat="70.30969170656789" lon="29.895567993735533" id="-114715">
		<tag k="name" v="Guovžagurjohka" />
		<tag k="name:se" v="Guovžagurjohka" />
		<tag k="old_name:se" v="Guovžagurjåkka" />
		<tag k="ssr:stedsnr" v="331850" />
		<tag k="waterway" v="river" />
	</node>
	<node lat="70.60484170056573" lon="29.72421543457834" id="-114725">
		<tag k="alt_name" v="Pervatn" />
		<tag k="name" v="Pervatnet" />
		<tag k="natural" v="water" />
		<tag k="ssr:stedsnr" v="383492" />
		<tag k="water" v="lake" />
	</node>
	<node lat="70.44863893158362" lon="30.371062227302343" id="-114726">
		<tag k="name" v="Orošjohka" />
		<tag k="name:se" v="Orošjohka" />
		<tag k="old_name:se" v="Årušjåkka" />
		<tag k="ssr:stedsnr" v="383886" />
		<tag k="waterway" v="river" />
	</node>
	<node lat="70.50061669803938" lon="29.3223266841569" id="-114727">
		<tag k="name" v="Stuorra Oardu" />
		<tag k="name:se" v="Stuorra Oardu" />
		<tag k="old_name:se" v="Oardu, stuorra" />
		<tag k="ssr:stedsnr" v="383965" />
		<tag k="waterway" v="river" />
	</node>
	<node lat="70.63540558719232" lon="29.682596010434544" id="-114729">
		<tag k="name" v="Skoleelva" />
		<tag k="ssr:stedsnr" v="384455" />
		<tag k="waterway" v="stream" />
	</node>
	<node lat="70.6382417021314" lon="29.835651506175196" id="-114730">
		<tag k="name" v="Prestelva" />
		<tag k="ssr:stedsnr" v="384458" />
		<tag k="waterway" v="stream" />
	</node>
	<node lat="70.3478305926151" lon="29.879168032324262" id="-114733">
		<tag k="name" v="Gárgašjohka" />
		<tag k="name:se" v="Gárgašjohka" />
		<tag k="old_name:se" v="Gargašjåkka" />
		<tag k="ssr:stedsnr" v="384893" />
		<tag k="waterway" v="river" />
	</node>
	<node lat="70.46867503975527" lon="29.64418207249661" id="-114734">
		<tag k="name" v="Vuovdejohka" />
		<tag k="name:se" v="Vuovdejohka" />
		<tag k="old_name:se" v="Vuovdejåkka" />
		<tag k="ssr:stedsnr" v="384968" />
		<tag k="waterway" v="stream" />
	</node>
	<node lat="70.5669250320909" lon="29.58745714802425" id="-114739">
		<tag k="name" v="Djupvasspytten" />
		<tag k="natural" v="water" />
		<tag k="ssr:stedsnr" v="444421" />
	</node>
	<node lat="70.38577504281992" lon="30.018440178741887" id="-114742">
		<tag k="name" v="Buoidejohka" />
		<tag k="name:se" v="Buoidejohka" />
		<tag k="old_name:se" v="Buoidejåkka" />
		<tag k="ssr:stedsnr" v="444891" />
		<tag k="waterway" v="river" />
	</node>
	<node lat="70.57756392668651" lon="30.00672082952507" id="-114745">
		<tag k="name" v="Nordfjordvatnet" />
		<tag k="natural" v="water" />
		<tag k="ssr:stedsnr" v="445041" />
	</node>
	<node lat="70.66797225806992" lon="30.077612487848207" id="-114746">
		<tag k="name" v="Grunnvatna" />
		<tag k="natural" v="water" />
		<tag k="ssr:stedsnr" v="445048" />
	</node>
	<node lat="70.67134170180978" lon="29.933248696902762" id="-114748">
		<tag k="name" v="Skarvbergvikvatnet" />
		<tag k="natural" v="water" />
		<tag k="ssr:stedsnr" v="445501" />
	</node>
	<node lat="70.55696392776557" lon="30.070948572253766" id="-114753">
		<tag k="name" v="Myrvatnet" />
		<tag k="natural" v="water" />
		<tag k="ssr:stedsnr" v="505058" />
	</node>
	<node lat="70.58378336879213" lon="29.626198794662617" id="-114756">
		<tag k="name" v="Anneelva - Ánnejohka" />
		<tag k="name:no" v="Anneelva" />
		<tag k="name:se" v="Ánnejohka" />
		<tag k="old_name:se" v="Annejåkka" />
		<tag k="ssr:stedsnr" v="505453" />
		<tag k="waterway" v="stream" />
	</node>
	<node lat="70.53280002971643" lon="29.51143770020906" id="-114757">
		<tag k="name" v="Evavatnet" />
		<tag k="natural" v="water" />
		<tag k="ssr:stedsnr" v="505463" />
		<tag k="water" v="lake" />
	</node>
	<node lat="70.33009726602653" lon="30.060862362397348" id="-114758">
		<tag k="name" v="Ovsttarjohka" />
		<tag k="name:se" v="Ovsttarjohka" />
		<tag k="old_name:se" v="Åvstarjåkka" />
		<tag k="ssr:stedsnr" v="505916" />
		<tag k="waterway" v="river" />
	</node>
	<node lat="70.65160836172946" lon="29.74770432033948" id="-114761">
		<tag k="name" v="Skrovnesvatna" />
		<tag k="natural" v="water" />
		<tag k="ssr:stedsnr" v="506486" />
	</node>
	<node lat="70.49750837195224" lon="29.791920908165316" id="-114768">
		<tag k="name" v="Morešveaijohka" />
		<tag k="name:se" v="Morešveaijohka" />
		<tag k="old_name:se" v="Mårešvæjjåkka" />
		<tag k="ssr:stedsnr" v="513477" />
		<tag k="waterway" v="river" />
	</node>
	<node lat="70.62509170136512" lon="29.75166819957322" id="-114770">
		<tag k="name" v="Nedre Eikebergvannet" />
		<tag k="natural" v="water" />
		<tag k="ssr:stedsnr" v="516381" />
		<tag k="water" v="lake" />
	</node>
	<node lat="70.52829447750757" lon="29.97155415601192" id="-114779">
		<tag k="name" v="Kristoffervatnet" />
		<tag k="natural" v="water" />
		<tag k="ssr:stedsnr" v="565428" />
	</node>
	<node lat="70.59291669841289" lon="29.597559926025017" id="-114780">
		<tag k="alt_name" v="Bukteelva" />
		<tag k="name" v="Buktelva" />
		<tag k="ssr:stedsnr" v="565444" />
		<tag k="waterway" v="river" />
	</node>
	<node lat="70.586913918654" lon="29.600498796512888" id="-114781">
		<tag k="alt_name" v="Reinkalvvatn" />
		<tag k="name" v="Reinkalvvatnet" />
		<tag k="natural" v="water" />
		<tag k="ssr:stedsnr" v="565445" />
	</node>
	<node lat="70.37766393510441" lon="30.304984471784675" id="-114784">
		<tag k="name" v="Langryggvatna" />
		<tag k="natural" v="water" />
		<tag k="ssr:stedsnr" v="565935" />
		<tag k="water" v="lake" />
	</node>
	<node lat="70.66033058836092" lon="29.959990343383527" id="-114787">
		<tag k="name" v="Høgfjellvatna" />
		<tag k="natural" v="water" />
		<tag k="ssr:stedsnr" v="566488" />
		<tag k="water" v="lake" />
	</node>
	<node lat="70.6325833650781" lon="29.804454297843026" id="-114792">
		<tag k="name" v="Skovikelva" />
		<tag k="ssr:stedsnr" v="576366" />
		<tag k="waterway" v="river" />
	</node>
	<node lat="70.70028892620861" lon="30.066862511923116" id="-114796">
		<tag k="name" v="Molvikvatnan - Máhkirjávrrit" />
		<tag k="name:no" v="Molvikvatnan" />
		<tag k="name:se" v="Máhkirjávrrit" />
		<tag k="natural" v="water" />
		<tag k="old_name:se" v="Makkirjavrit" />
		<tag k="ssr:stedsnr" v="626044" />
		<tag k="water" v="lake" />
	</node>
	<node lat="70.42668615690177" lon="30.4302483107584" id="-114803">
		<tag k="name" v="Ruovddášjohka" />
		<tag k="name:se" v="Ruovddášjohka" />
		<tag k="old_name:se" v="Ruovdašjåkka" />
		<tag k="ssr:stedsnr" v="626890" />
		<tag k="waterway" v="river" />
	</node>
	<node lat="70.53256114379178" lon="30.001101370539438" id="-114815">
		<tag k="name" v="Hursielva" />
		<tag k="ssr:stedsnr" v="637490" />
		<tag k="waterway" v="stream" />
	</node>
	<node lat="70.52986948364999" lon="30.007054153531975" id="-114818">
		<tag k="name" v="Vesterelvmunningen" />
		<tag k="natural" v="bay" />
		<tag k="ssr:stedsnr" v="637545" />
	</node>
	<node lat="70.55665003353822" lon="29.537090493577523" id="-114822">
		<tag k="name" v="Raudsandvatna" />
		<tag k="natural" v="water" />
		<tag k="ssr:stedsnr" v="748448" />
		<tag k="water" v="lake" />
	</node>
	<node lat="70.56340836628108" lon="29.745995961773794" id="-114823">
		<tag k="name" v="Námmejohka" />
		<tag k="name:se" v="Námmejohka" />
		<tag k="old_name:se" v="Nammejåkka" />
		<tag k="ssr:stedsnr" v="748450" />
		<tag k="waterway" v="stream" />
	</node>
	<node lat="70.62344444479592" lon="29.744634665751725" id="-114824">
		<tag k="name" v="Eikebergvannan" />
		<tag k="natural" v="water" />
		<tag k="ssr:stedsnr" v="748458" />
		<tag k="water" v="lake" />
	</node>
	<node lat="70.52923893120209" lon="30.58100937031029" id="-114828">
		<tag k="name" v="Vatnan" />
		<tag k="natural" v="water" />
		<tag k="ssr:stedsnr" v="748001" />
	</node>
	<node lat="70.53052504132378" lon="30.3732206061656" id="-114837">
		<tag k="name" v="Gárjohka" />
		<tag k="name:se" v="Gárjohka" />
		<tag k="old_name:se" v="Garjåkka" />
		<tag k="ssr:stedsnr" v="809012" />
		<tag k="waterway" v="stream" />
	</node>
	<node lat="70.70383059084104" lon="30.034409766955196" id="-114838">
		<tag k="name" v="Litlevatnet" />
		<tag k="natural" v="water" />
		<tag k="ssr:stedsnr" v="809048" />
	</node>
	<node lat="70.49750837195224" lon="29.791920908165316" id="-114842">
		<tag k="fixme" v="multiple name tags, choose one and add the other to alt_name" />
		<tag k="name" v="Syltefjordelva;Vesterelva - Oarddojohka - Ortojoki" />
		<tag k="name:fkv" v="Ortojoki" />
		<tag k="name:no" v="Syltefjordelva;Vesterelva" />
		<tag k="name:se" v="Oarddojohka" />
		<tag k="old_name:se" v="Oardujåkka" />
		<tag k="ssr:stedsnr" v="809990" />
		<tag k="waterway" v="river" />
	</node>
	<node lat="70.47260836095046" lon="29.33842388638178" id="-114846">
		<tag k="name" v="Rávdol" />
		<tag k="name:se" v="Rávdol" />
		<tag k="old_name:se" v="Ravdul" />
		<tag k="ssr:stedsnr" v="809952" />
		<tag k="waterway" v="river" />
	</node>
	<node lat="70.54831948472761" lon="30.061779119574314" id="-114848">
		<tag k="alt_name" v="Kattugleelva" />
		<tag k="name" v="Nordfjordelva" />
		<tag k="ssr:stedsnr" v="815550" />
		<tag k="waterway" v="river" />
	</node>
	<node lat="70.6550667005598" lon="30.094748599961438" id="-114857">
		<tag k="name" v="Kollvatnet" />
		<tag k="natural" v="water" />
		<tag k="ssr:stedsnr" v="869046" />
	</node>
	<node lat="70.54193337100023" lon="30.032568021777376" id="-114859">
		<tag k="name" v="Torvatnet" />
		<tag k="natural" v="water" />
		<tag k="ssr:stedsnr" v="869061" />
	</node>
	<node lat="70.39846948438276" lon="30.283745603231225" id="-114860">
		<tag k="name" v="Juovkkaidjohka" />
		<tag k="name:se" v="Juovkkaidjohka" />
		<tag k="old_name:se" v="Juovkaidjåkka" />
		<tag k="ssr:stedsnr" v="869888" />
		<tag k="waterway" v="stream" />
	</node>
	<node lat="70.42869725682317" lon="29.69485981078742" id="-114870">
		<tag k="name" v="Suoloskáidi" />
		<tag k="name:se" v="Suoloskáidi" />
		<tag k="natural" v="cape" />
		<tag k="old_name:se" v="Suoluskaidi" />
		<tag k="ssr:stedsnr" v="870977" />
	</node>
	<node lat="70.54259726039453" lon="30.042284682753248" id="-114880">
		<tag k="name" v="Nordfjordeidet" />
		<tag k="place" v="locality" />
		<tag k="ssr:stedsnr" v="939924" />
	</node>
	<node lat="70.62117502682275" lon="29.74651264366415" id="-114882">
		<tag k="name" v="Øvre Eikebergvannet" />
		<tag k="natural" v="water" />
		<tag k="ssr:stedsnr" v="941388" />
		<tag k="water" v="lake" />
	</node>
	<node lat="70.70031669765558" lon="30.0666958445694" id="-114886">
		<tag k="name" v="Máhkirjávrrit" />
		<tag k="name:se" v="Máhkirjávrrit" />
		<tag k="natural" v="water" />
		<tag k="old_name:se" v="Makkirjavrit" />
		<tag k="ssr:stedsnr" v="967094" />
		<tag k="water" v="lake" />
	</node>
	<node lat="70.53992514679373" lon="29.431108734771826" id="-114889">
		<tag k="name" v="Áttájohka" />
		<tag k="name:se" v="Áttájohka" />
		<tag k="ssr:stedsnr" v="990330" />
		<tag k="waterway" v="stream" />
	</node>
</osm>
