<?xml version="1.0" encoding="UTF-8"?>
<osm version="0.6" generator="osmapis">
	<node lat="70.70774170125281" lon="30.0316319885098" id="-102741">
		<tag k="name" v="Makkaur" />
		<tag k="place" v="locality" />
		<tag k="ssr:stedsnr" v="262032" />
	</node>
	<node lat="70.45426671072389" lon="30.44600663179395" id="-102748">
		<tag k="name" v="Telegrafhytta" />
		<tag k="place" v="isolated_dwelling" />
		<tag k="ssr:stedsnr" v="202892" />
	</node>
	<node lat="70.63114725571697" lon="29.715443206250313" id="-102751">
		<tag k="name" v="Foma" />
		<tag k="place" v="quarter" />
		<tag k="ssr:stedsnr" v="213329" />
	</node>
	<node lat="70.50534726246929" lon="30.120073521049466" id="-102762">
		<tag k="alt_name:no" v="Austerelv" />
		<tag k="name" v="Austerelva - Uhc-Oardu" />
		<tag k="name:no" v="Austerelva" />
		<tag k="name:se" v="Uhc-Oardu" />
		<tag k="old_name:se" v="Ucc-Oardo" />
		<tag k="place" v="locality" />
		<tag k="ssr:stedsnr" v="263003" />
	</node>
	<node lat="70.63685003172864" lon="29.73959041929217" id="-102768">
		<tag k="name" v="Hamnneset" />
		<tag k="place" v="quarter" />
		<tag k="ssr:stedsnr" v="273389" />
	</node>
	<node lat="70.62923613983081" lon="29.694790448598358" id="-102781">
		<tag k="loc_name:se" v="Báhcavuonna" />
		<tag k="name" v="Båtsfjord" />
		<tag k="name:no" v="Båtsfjord" />
		<tag k="place" v="village" />
		<tag k="ssr:stedsnr" v="384452" />
	</node>
	<node lat="70.61880280919114" lon="29.687323765412287" id="-102785">
		<tag k="name" v="Strømsnes" />
		<tag k="place" v="quarter" />
		<tag k="ssr:stedsnr" v="394312" />
	</node>
	<node lat="70.65392781228607" lon="30.112293032492286" id="-102802">
		<tag k="name" v="Kålfjord" />
		<tag k="place" v="isolated_dwelling" />
		<tag k="ssr:stedsnr" v="511509" />
	</node>
	<node lat="70.61538059079233" lon="29.68721821590005" id="-102804">
		<tag k="name" v="Spira" />
		<tag k="place" v="locality" />
		<tag k="ssr:stedsnr" v="516127" />
	</node>
	<node lat="70.54114449077579" lon="30.609967690413928" id="-102812">
		<tag k="alt_name:no" v="Havningberg" />
		<tag k="fixme" v="consider place=hamlet" />
		<tag k="loc_name:se" v="Hámbiergi;Hámmanbirgi" />
		<tag k="name" v="Hamningberg" />
		<tag k="name:no" v="Hamningberg" />
		<tag k="place" v="village" />
		<tag k="ssr:stedsnr" v="687053" />
	</node>
	<node lat="70.55074170451987" lon="30.085773542871287" id="-102835">
		<tag k="building" v="industrial" />
		<tag k="industrial" v="factory" />
		<tag k="name" v="Samvirkebruket" />
		<tag k="ssr:stedsnr" v="576494" />
	</node>
	<node lat="70.50200004403064" lon="30.568312138201602" id="-102840">
		<tag k="alt_name" v="Sandfjorden" />
		<tag k="name" v="Sandfjord" />
		<tag k="place" v="locality" />
		<tag k="ssr:stedsnr" v="626012" />
	</node>
	<node lat="70.53170559388577" lon="30.006298578450487" id="-102845">
		<tag k="name" v="Vesterelv" />
		<tag k="place" v="farm" />
		<tag k="ssr:stedsnr" v="626065" />
	</node>
	<node lat="70.32206392820622" lon="30.06464013997573" id="-102893">
		<tag k="name" v="Hubehytta" />
		<tag k="place" v="isolated_dwelling" />
		<tag k="ssr:stedsnr" v="930922" />
	</node>
	<node lat="70.45410137289973" lon="29.389788046017053" id="-102907">
		<tag k="fixme" v="consider tourism=alpine_hut or tourism=chalet" />
		<tag k="name" v="Helheim" />
		<tag k="ssr:stedsnr" v="972825" />
		<tag k="tourism" v="wilderness_hut" />
	</node>
	<node lat="70.62733336209115" lon="29.69766265295639" id="-102919">
		<tag k="building" v="industrial" />
		<tag k="industrial" v="factory" />
		<tag k="name" v="Neptun" />
		<tag k="ssr:stedsnr" v="30381" />
	</node>
	<node lat="70.550147260035" lon="30.07859576876687" id="-102924">
		<tag k="name" v="Nordfjord" />
		<tag k="place" v="locality" />
		<tag k="ssr:stedsnr" v="81060" />
	</node>
	<node lat="70.63405836378394" lon="29.80949873053119" id="-102931">
		<tag k="name" v="Skovik" />
		<tag k="place" v="isolated_dwelling" />
		<tag k="ssr:stedsnr" v="86518" />
	</node>
	<node lat="70.62494169488116" lon="29.696801556368307" id="-102936">
		<tag k="building" v="industrial" />
		<tag k="name" v="Slippen" />
		<tag k="ssr:stedsnr" v="91406" />
	</node>
	<node lat="70.53886670241093" lon="30.03073468486692" id="-102942">
		<tag k="alt_name" v="Sommerseth" />
		<tag k="name" v="Sommarsete" />
		<tag k="place" v="isolated_dwelling" />
		<tag k="ssr:stedsnr" v="141053" />
	</node>
	<node lat="70.6224333638011" lon="29.693276554573856" id="-103002">
		<tag k="name" v="Håpet" />
		<tag k="place" v="quarter" />
		<tag k="ssr:stedsnr" v="334299" />
	</node>
	<node lat="70.51233059067224" lon="29.58732378419497" id="-103009">
		<tag k="name" v="Laksnes" />
		<tag k="place" v="isolated_dwelling" />
		<tag k="ssr:stedsnr" v="383470" />
	</node>
	<node lat="70.69777503332142" lon="30.092337501958678" id="-103021">
		<tag k="name" v="Molvik" />
		<tag k="place" v="locality" />
		<tag k="ssr:stedsnr" v="389538" />
	</node>
	<node lat="70.54760560016801" lon="30.35392063025477" id="-103106">
		<tag k="fixme" v="consider tourism=alpine_hut or tourism=chalet" />
		<tag k="name" v="Indre Syltevik" />
		<tag k="ssr:stedsnr" v="666893" />
		<tag k="tourism" v="wilderness_hut" />
	</node>
	<node lat="70.52284170640343" lon="30.055451334921774" id="-103111">
		<tag k="name" v="Jonnejohka" />
		<tag k="name:no" v="Jonjok" />
		<tag k="name:se" v="Jonnejohka" />
		<tag k="old_name:se" v="Jånnejåkka" />
		<tag k="place" v="locality" />
		<tag k="ssr:stedsnr" v="748021" />
	</node>
	<node lat="70.57216393101935" lon="30.24218182222676" id="-103112">
		<tag k="name" v="Ytre Syltefjord" />
		<tag k="old_name" v="Syltefjord, ytre" />
		<tag k="place" v="locality" />
		<tag k="ssr:stedsnr" v="748037" />
	</node>
	<node lat="70.50246670137838" lon="29.35149888665458" id="-103129">
		<tag k="name" v="Delinga" />
		<tag k="place" v="isolated_dwelling" />
		<tag k="ssr:stedsnr" v="809521" />
	</node>
	<node lat="70.367100268992" lon="29.766804946340628" id="-103153">
		<tag k="fixme" v="consider tourism=alpine_hut or tourism=chalet" />
		<tag k="name" v="Ragnarokk" />
		<tag k="ssr:stedsnr" v="870897" />
		<tag k="tourism" v="wilderness_hut" />
	</node>
	<node lat="70.39830003699464" lon="29.57062930971487" id="-103155">
		<tag k="fixme" v="consider tourism=alpine_hut or tourism=chalet" />
		<tag k="name" v="Heimdal" />
		<tag k="ssr:stedsnr" v="870970" />
		<tag k="tourism" v="wilderness_hut" />
	</node>
	<node lat="70.6437722548712" lon="29.7407404453295" id="-103165">
		<tag k="name" v="Nordskogen" />
		<tag k="place" v="quarter" />
		<tag k="ssr:stedsnr" v="939777" />
	</node>
	<node lat="70.61865836754986" lon="29.698354339630992" id="-103169">
		<tag k="name" v="Solheim" />
		<tag k="place" v="locality" />
		<tag k="ssr:stedsnr" v="941342" />
	</node>
	<node lat="70.53287503703812" lon="30.06738466747749" id="-103171">
		<tag k="name" v="Hamna" />
		<tag k="place" v="locality" />
		<tag k="ssr:stedsnr" v="941486" />
	</node>
	<node lat="70.53273993539923" lon="30.004817013855888" id="-103173">
		<tag k="name" v="Vesterelva " />
		<tag k="place" v="hamlet" />
		<tag k="ssr:stedsnr" v="989591" />
	</node>
</osm>
