<?xml version="1.0" encoding="UTF-8"?>
<osm version="0.6" generator="osmapis">
	<node lat="65.88710710332799" lon="13.099086331174405" id="-13711">
		<tag k="fixme" v="consider place=hamlet" />
		<tag k="name" v="Vikdalen" />
		<tag k="place" v="farm" />
		<tag k="ssr:stedsnr" v="15255" />
	</node>
	<node lat="65.8837873083029" lon="13.194795207312168" id="-13713">
		<tag k="fixme" v="consider place=hamlet" />
		<tag k="name" v="Åremma" />
		<tag k="place" v="farm" />
		<tag k="ssr:stedsnr" v="15259" />
	</node>
	<node lat="66.049847223197" lon="13.607622232880129" id="-13717">
		<tag k="name" v="Rabben" />
		<tag k="place" v="farm" />
		<tag k="ssr:stedsnr" v="15402" />
	</node>
	<node lat="65.93009444190791" lon="12.708705551866869" id="-13718">
		<tag k="name" v="Trøan" />
		<tag k="place" v="farm" />
		<tag k="ssr:stedsnr" v="15366" />
	</node>
	<node lat="65.54841388818757" lon="13.173227775736212" id="-13721">
		<tag k="name" v="Neversletta" />
		<tag k="place" v="isolated_dwelling" />
		<tag k="ssr:stedsnr" v="15656" />
	</node>
	<node lat="65.92656190338865" lon="13.408748468451632" id="-13731">
		<tag k="fixme" v="consider place=hamlet" />
		<tag k="name" v="Straum" />
		<tag k="place" v="farm" />
		<tag k="ssr:stedsnr" v="15904" />
	</node>
	<node lat="65.97490555821278" lon="13.243777772964993" id="-13732">
		<tag k="name" v="Austlia" />
		<tag k="place" v="farm" />
		<tag k="ssr:stedsnr" v="15853" />
	</node>
	<node lat="65.82731703563499" lon="13.348780602594534" id="-13736">
		<tag k="alt_name" v="Moldrem" />
		<tag k="fixme" v="consider place=hamlet" />
		<tag k="name" v="Moldremma" />
		<tag k="place" v="farm" />
		<tag k="ssr:stedsnr" v="16506" />
	</node>
	<node lat="65.89130671401419" lon="13.247459268025086" id="-13740">
		<tag k="fixme" v="consider place=hamlet" />
		<tag k="name" v="Jomfruremma" />
		<tag k="place" v="farm" />
		<tag k="ssr:stedsnr" v="16969" />
	</node>
	<node lat="65.85085462580246" lon="13.277216489718619" id="-13744">
		<tag k="fixme" v="consider place=hamlet" />
		<tag k="name" v="Honggarden" />
		<tag k="place" v="farm" />
		<tag k="ssr:stedsnr" v="22490" />
	</node>
	<node lat="65.96318980562292" lon="12.807589961062309" id="-13747">
		<tag k="fixme" v="consider place=hamlet" />
		<tag k="name" v="Ukkelfora" />
		<tag k="place" v="farm" />
		<tag k="ssr:stedsnr" v="25329" />
	</node>
	<node lat="65.84556388539562" lon="13.256430564932453" id="-13758">
		<tag k="name" v="Remman" />
		<tag k="place" v="farm" />
		<tag k="ssr:stedsnr" v="29602" />
	</node>
	<node lat="66.02380832982816" lon="13.506622231777822" id="-13811">
		<tag k="name" v="Sørmo" />
		<tag k="place" v="isolated_dwelling" />
		<tag k="ssr:stedsnr" v="238267" />
	</node>
	<node lat="65.92487221811783" lon="12.727636106839327" id="-13820">
		<tag k="name" v="Åsheim" />
		<tag k="place" v="farm" />
		<tag k="ssr:stedsnr" v="239211" />
	</node>
	<node lat="65.77383610878663" lon="12.711172217686562" id="-13876">
		<tag k="fixme" v="consider place=hamlet" />
		<tag k="name" v="Sørfjorden" />
		<tag k="place" v="farm" />
		<tag k="ssr:stedsnr" v="76105" />
	</node>
	<node lat="66.02868888883782" lon="13.30156111295667" id="-13883">
		<tag k="name" v="Lia" />
		<tag k="place" v="farm" />
		<tag k="ssr:stedsnr" v="76326" />
	</node>
	<node lat="66.05523888965531" lon="13.426130557106573" id="-13884">
		<tag k="name" v="Kornneset" />
		<tag k="place" v="farm" />
		<tag k="ssr:stedsnr" v="76365" />
	</node>
	<node lat="65.84931584826172" lon="12.629547403561599" id="-13885">
		<tag k="fixme" v="consider place=hamlet" />
		<tag k="name" v="Sørdalen" />
		<tag k="place" v="farm" />
		<tag k="ssr:stedsnr" v="76457" />
	</node>
	<node lat="66.1330305530211" lon="13.588636117141354" id="-13886">
		<tag k="name" v="Nyrud" />
		<tag k="place" v="farm" />
		<tag k="ssr:stedsnr" v="76458" />
	</node>
	<node lat="65.8088527784245" lon="13.336283331293396" id="-13894">
		<tag k="name" v="Klubben" />
		<tag k="place" v="farm" />
		<tag k="ssr:stedsnr" v="76626" />
	</node>
	<node lat="66.01009444328764" lon="13.265649991466427" id="-13896">
		<tag k="fixme" v="consider place=hamlet" />
		<tag k="name" v="Brattlia" />
		<tag k="place" v="farm" />
		<tag k="ssr:stedsnr" v="76662" />
	</node>
	<node lat="65.84536944375691" lon="13.285613881975733" id="-13897">
		<tag k="name" v="Heimigarden" />
		<tag k="place" v="farm" />
		<tag k="ssr:stedsnr" v="76553" />
	</node>
	<node lat="65.84745404240657" lon="13.509980757705662" id="-13898">
		<tag k="alt_name" v="Sætra" />
		<tag k="fixme" v="consider place=hamlet" />
		<tag k="name" v="Setra" />
		<tag k="place" v="farm" />
		<tag k="ssr:stedsnr" v="76557" />
	</node>
	<node lat="65.98289949494233" lon="13.420521312955476" id="-13907">
		<tag k="alt_name" v="Tuvnes" />
		<tag k="fixme" v="consider place=hamlet" />
		<tag k="name" v="Tuvneset" />
		<tag k="place" v="farm" />
		<tag k="ssr:stedsnr" v="76811" />
	</node>
	<node lat="65.86400555844857" lon="13.466699994038308" id="-13913">
		<tag k="alt_name" v="Steffenrem" />
		<tag k="fixme" v="consider place=hamlet" />
		<tag k="name" v="Steffaremma" />
		<tag k="place" v="farm" />
		<tag k="ssr:stedsnr" v="76947" />
	</node>
	<node lat="65.86270833670298" lon="13.201458327861642" id="-13914">
		<tag k="name" v="Dalenget" />
		<tag k="place" v="quarter" />
		<tag k="ssr:stedsnr" v="81527" />
	</node>
	<node lat="65.81033055352196" lon="13.101463878061292" id="-13915">
		<tag k="historic" v="shieling" />
		<tag k="name" v="Kvanndalssetra" />
		<tag k="place" v="isolated_dwelling" />
		<tag k="ssr:stedsnr" v="81528" />
	</node>
	<node lat="65.87664444392372" lon="13.166958343430037" id="-13921">
		<tag k="alt_name" v="Bøen" />
		<tag k="name" v="Bøa" />
		<tag k="place" v="farm" />
		<tag k="ssr:stedsnr" v="86273" />
	</node>
	<node lat="65.82939166586682" lon="12.666174997882125" id="-13928">
		<tag k="loc_name" v="Husvika" />
		<tag k="name" v="Husvik" />
		<tag k="place" v="hamlet" />
		<tag k="ssr:stedsnr" v="89618" />
	</node>
	<node lat="65.8589027740962" lon="13.484363888103188" id="-13955">
		<tag k="name" v="Lamo" />
		<tag k="place" v="farm" />
		<tag k="ssr:stedsnr" v="102812" />
	</node>
	<node lat="65.87223453159396" lon="12.637799550400205" id="-13989">
		<tag k="fixme" v="consider place=hamlet" />
		<tag k="name" v="Aspvika" />
		<tag k="place" v="farm" />
		<tag k="ssr:stedsnr" v="136447" />
	</node>
	<node lat="65.95166400182947" lon="13.206768915672367" id="-13992">
		<tag k="fixme" v="consider place=hamlet" />
		<tag k="name" v="Brattbakken" />
		<tag k="place" v="farm" />
		<tag k="ssr:stedsnr" v="136162" />
	</node>
	<node lat="66.05443333102626" lon="13.358102777720628" id="-13994">
		<tag k="name" v="Almbakken" />
		<tag k="place" v="farm" />
		<tag k="ssr:stedsnr" v="136311" />
	</node>
	<node lat="65.84246666879574" lon="13.291450003495441" id="-13999">
		<tag k="fixme" v="consider place=hamlet" />
		<tag k="name" v="Moldremma" />
		<tag k="place" v="farm" />
		<tag k="ssr:stedsnr" v="136547" />
	</node>
	<node lat="65.86074170783756" lon="13.48951820926498" id="-14015">
		<tag k="fixme" v="consider place=hamlet" />
		<tag k="name" v="Halligarden" />
		<tag k="place" v="farm" />
		<tag k="ssr:stedsnr" v="136953" />
	</node>
	<node lat="65.86396666689652" lon="13.27324167725274" id="-14016">
		<tag k="name" v="Fjellstad" />
		<tag k="place" v="farm" />
		<tag k="ssr:stedsnr" v="136956" />
	</node>
	<node lat="65.8369812552352" lon="13.503205075951554" id="-14021">
		<tag k="alt_name" v="Nilsmo" />
		<tag k="fixme" v="consider place=hamlet" />
		<tag k="name" v="Nilsmoen" />
		<tag k="place" v="farm" />
		<tag k="ssr:stedsnr" v="137509" />
	</node>
	<node lat="65.93744434586607" lon="13.226738610482288" id="-14026">
		<tag k="alt_name" v="Rokås" />
		<tag k="fixme" v="consider place=hamlet" />
		<tag k="name" v="Rokåsen" />
		<tag k="place" v="farm" />
		<tag k="ssr:stedsnr" v="137918" />
	</node>
	<node lat="65.90816666781001" lon="13.17225556270372" id="-14032">
		<tag k="name" v="Søfting" />
		<tag k="place" v="hamlet" />
		<tag k="ssr:stedsnr" v="147179" />
	</node>
	<node lat="66.06487222290309" lon="13.451966674535816" id="-14069">
		<tag k="name" v="Solheim" />
		<tag k="place" v="farm" />
		<tag k="ssr:stedsnr" v="258286" />
	</node>
	<node lat="66.07130833255081" lon="13.452963897567656" id="-14070">
		<tag k="fixme" v="consider place=hamlet" />
		<tag k="name" v="Drevvassbygda" />
		<tag k="place" v="village" />
		<tag k="ssr:stedsnr" v="258288" />
	</node>
	<node lat="65.94101666998544" lon="13.110722211941816" id="-14078">
		<tag k="fixme" v="consider place=hamlet" />
		<tag k="name" v="Drevland" />
		<tag k="place" v="farm" />
		<tag k="ssr:stedsnr" v="258145" />
	</node>
	<node lat="65.94464166527054" lon="13.142461115019922" id="-14081">
		<tag k="fixme" v="multiple name tags, choose one and add the other to alt_name" />
		<tag k="name" v="Heimigarden;Nyland" />
		<tag k="place" v="farm" />
		<tag k="ssr:stedsnr" v="258152" />
	</node>
	<node lat="65.94404999996603" lon="13.146511113081532" id="-14082">
		<tag k="name" v="Nyland" />
		<tag k="place" v="farm" />
		<tag k="ssr:stedsnr" v="258154" />
	</node>
	<node lat="65.9310805587391" lon="13.131661115976843" id="-14086">
		<tag k="name" v="Holandsjøen" />
		<tag k="place" v="hamlet" />
		<tag k="ssr:stedsnr" v="258198" />
	</node>
	<node lat="65.59165833666337" lon="13.164486104236888" id="-14092">
		<tag k="alt_name" v="Lisætra, øvre;Øverlisetra" />
		<tag k="historic" v="shieling" />
		<tag k="name" v="Øvre Lisætra" />
		<tag k="place" v="isolated_dwelling" />
		<tag k="ssr:stedsnr" v="258681" />
	</node>
	<node lat="65.87987221957432" lon="12.972655562926558" id="-14096">
		<tag k="name" v="Demmeldalssetra" />
		<tag k="place" v="locality" />
		<tag k="ssr:stedsnr" v="258240" />
	</node>
	<node lat="66.04054444815195" lon="13.345761118592776" id="-14104">
		<tag k="name" v="Fagernes" />
		<tag k="place" v="farm" />
		<tag k="ssr:stedsnr" v="258335" />
	</node>
	<node lat="66.06014444625862" lon="13.574097212333243" id="-14105">
		<tag k="name" v="Oslia" />
		<tag k="place" v="farm" />
		<tag k="ssr:stedsnr" v="258353" />
	</node>
	<node lat="65.9279388890939" lon="12.713383339586892" id="-14106">
		<tag k="name" v="Dalen" />
		<tag k="place" v="farm" />
		<tag k="ssr:stedsnr" v="258355" />
	</node>
	<node lat="66.01507443098426" lon="13.440665634191058" id="-14119">
		<tag k="alt_name" v="Stordal" />
		<tag k="fixme" v="consider place=hamlet" />
		<tag k="name" v="Stordalen" />
		<tag k="place" v="farm" />
		<tag k="ssr:stedsnr" v="258633" />
	</node>
	<node lat="66.00403333348166" lon="13.42413055457812" id="-14122">
		<tag k="alt_name" v="Sandbukt" />
		<tag k="fixme" v="consider place=hamlet" />
		<tag k="name" v="Sandbukta" />
		<tag k="place" v="farm" />
		<tag k="ssr:stedsnr" v="258643" />
	</node>
	<node lat="65.86631049486991" lon="13.201971037964825" id="-14125">
		<tag k="fixme" v="consider place=hamlet" />
		<tag k="name" v="Kulstad" />
		<tag k="place" v="farm" />
		<tag k="ssr:stedsnr" v="258789" />
	</node>
	<node lat="65.86694721022492" lon="13.366359678870214" id="-14129">
		<tag k="alt_name" v="Røsdal" />
		<tag k="fixme" v="consider place=hamlet" />
		<tag k="name" v="Røsdalen" />
		<tag k="place" v="farm" />
		<tag k="ssr:stedsnr" v="258971" />
	</node>
	<node lat="65.71117740906409" lon="13.220244508712328" id="-14131">
		<tag k="fixme" v="consider place=hamlet" />
		<tag k="name" v="Øksendalen" />
		<tag k="place" v="farm" />
		<tag k="ssr:stedsnr" v="258750" />
	</node>
	<node lat="65.94117622195871" lon="13.4031902171716" id="-14136">
		<tag k="amenity" v="school" />
		<tag k="name" v="Helgeland Folkehøyskole" />
		<tag k="old_name" v="Sandvik Folkehøgskole" />
		<tag k="ssr:stedsnr" v="258931" />
	</node>
	<node lat="65.94560833395686" lon="13.150775002189638" id="-14156">
		<tag k="name" v="Nyland" />
		<tag k="place" v="quarter" />
		<tag k="ssr:stedsnr" v="163360" />
	</node>
	<node lat="65.8222972200293" lon="13.272250007785997" id="-14157">
		<tag k="name" v="Hagforsenget" />
		<tag k="place" v="farm" />
		<tag k="ssr:stedsnr" v="163379" />
	</node>
	<node lat="65.8828111095182" lon="13.089808341144446" id="-14179">
		<tag k="name" v="Steinrud" />
		<tag k="place" v="farm" />
		<tag k="ssr:stedsnr" v="177507" />
	</node>
	<node lat="65.95739637543483" lon="13.175137153582146" id="-14213">
		<tag k="fixme" v="consider place=hamlet" />
		<tag k="name" v="Bergsnevet" />
		<tag k="place" v="farm" />
		<tag k="ssr:stedsnr" v="197115" />
	</node>
	<node lat="65.96091111072113" lon="12.962880545174416" id="-14214">
		<tag k="name" v="Grøftvika" />
		<tag k="place" v="isolated_dwelling" />
		<tag k="ssr:stedsnr" v="197117" />
	</node>
	<node lat="66.03866944545742" lon="13.496811107671324" id="-14224">
		<tag k="alt_name" v="Håkali" />
		<tag k="name" v="Håkalia" />
		<tag k="place" v="farm" />
		<tag k="ssr:stedsnr" v="197362" />
	</node>
	<node lat="66.15381153711667" lon="13.62555723737136" id="-14225">
		<tag k="fixme" v="consider place=hamlet" />
		<tag k="name" v="Furuhatten" />
		<tag k="place" v="farm" />
		<tag k="ssr:stedsnr" v="197524" />
	</node>
	<node lat="65.86009000217724" lon="12.648766003639393" id="-14228">
		<tag k="fixme" v="consider place=hamlet" />
		<tag k="name" v="Norddalen" />
		<tag k="place" v="farm" />
		<tag k="ssr:stedsnr" v="197465" />
	</node>
	<node lat="65.60520555713026" lon="13.093563888906585" id="-14229">
		<tag k="name" v="Litlvasshytta" />
		<tag k="place" v="isolated_dwelling" />
		<tag k="ssr:stedsnr" v="197704" />
	</node>
	<node lat="65.70469166266757" lon="13.19005277546431" id="-14232">
		<tag k="alt_name" v="Øksendalssætra" />
		<tag k="historic" v="shieling" />
		<tag k="name" v="Øksendalsetra" />
		<tag k="place" v="isolated_dwelling" />
		<tag k="ssr:stedsnr" v="197776" />
	</node>
	<node lat="66.00834167059632" lon="13.604750008881854" id="-14235">
		<tag k="name" v="Moen" />
		<tag k="place" v="isolated_dwelling" />
		<tag k="ssr:stedsnr" v="197668" />
	</node>
	<node lat="65.74631388916933" lon="13.229741677290313" id="-14237">
		<tag k="name" v="Kvalfors" />
		<tag k="place" v="farm" />
		<tag k="ssr:stedsnr" v="197680" />
	</node>
	<node lat="65.85028238130205" lon="12.739582908250435" id="-14238">
		<tag k="fixme" v="multiple name tags, choose one and add the other to alt_name; consider place=hamlet" />
		<tag k="name" v="Øverjorda;Hesterås" />
		<tag k="place" v="farm" />
		<tag k="ssr:stedsnr" v="197805" />
	</node>
	<node lat="65.99612536472499" lon="13.446323525847625" id="-14249">
		<tag k="name" v="Hopenget" />
		<tag k="place" v="farm" />
		<tag k="ssr:stedsnr" v="197877" />
	</node>
	<node lat="66.03259496854857" lon="13.47646203842264" id="-14257">
		<tag k="alt_name" v="Luktvasslimoen" />
		<tag k="fixme" v="consider place=hamlet" />
		<tag k="name" v="Luktvasslimo" />
		<tag k="place" v="farm" />
		<tag k="ssr:stedsnr" v="198305" />
	</node>
	<node lat="66.05620411975849" lon="13.441857803463924" id="-14259">
		<tag k="alt_name" v="Morisbakk" />
		<tag k="name" v="Morisbakken" />
		<tag k="place" v="farm" />
		<tag k="ssr:stedsnr" v="198319" />
	</node>
	<node lat="66.05990555941574" lon="13.544752776658727" id="-14260">
		<tag k="name" v="Skogtun" />
		<tag k="place" v="farm" />
		<tag k="ssr:stedsnr" v="198321" />
	</node>
	<node lat="65.84899444056192" lon="13.497561121136673" id="-14262">
		<tag k="name" v="Forsneset" />
		<tag k="place" v="isolated_dwelling" />
		<tag k="ssr:stedsnr" v="198527" />
	</node>
	<node lat="65.92330555336021" lon="13.291861121656394" id="-14264">
		<tag k="name" v="Toftan" />
		<tag k="place" v="farm" />
		<tag k="ssr:stedsnr" v="198876" />
	</node>
	<node lat="65.8942638925198" lon="13.33118610531125" id="-14268">
		<tag k="name" v="Hestskardremma" />
		<tag k="place" v="isolated_dwelling" />
		<tag k="ssr:stedsnr" v="198976" />
	</node>
	<node lat="65.95007297780477" lon="13.13819338789405" id="-14272">
		<tag k="name" v="Faldet" />
		<tag k="place" v="farm" />
		<tag k="ssr:stedsnr" v="268260" />
	</node>
	<node lat="65.93944444530838" lon="12.7326777753321" id="-14275">
		<tag k="name" v="Volden" />
		<tag k="place" v="farm" />
		<tag k="ssr:stedsnr" v="207239" />
	</node>
	<node lat="65.88801110886475" lon="13.086480553669318" id="-14276">
		<tag k="name" v="Tulskogen" />
		<tag k="place" v="farm" />
		<tag k="ssr:stedsnr" v="207245" />
	</node>
	<node lat="65.91025277956088" lon="13.172169438057773" id="-14277">
		<tag k="name" v="Kroken" />
		<tag k="place" v="farm" />
		<tag k="ssr:stedsnr" v="207249" />
	</node>
	<node lat="66.14090000135148" lon="13.600269440429992" id="-14278">
		<tag k="name" v="Nordre Myrbekken" />
		<tag k="place" v="farm" />
		<tag k="ssr:stedsnr" v="207390" />
	</node>
	<node lat="65.96639444545589" lon="13.201461104616666" id="-14296">
		<tag k="name" v="Moen" />
		<tag k="place" v="farm" />
		<tag k="ssr:stedsnr" v="211588" />
	</node>
	<node lat="66.01159166662627" lon="13.429616672451624" id="-14332">
		<tag k="name" v="Gammeljorda" />
		<tag k="place" v="isolated_dwelling" />
		<tag k="ssr:stedsnr" v="222625" />
	</node>
	<node lat="65.85330791371479" lon="13.281096489136925" id="-14360">
		<tag k="name" v="Honggarden" />
		<tag k="place" v="quarter" />
		<tag k="ssr:stedsnr" v="224391" />
	</node>
	<node lat="65.8298249970531" lon="13.29221387832563" id="-14361">
		<tag k="name" v="Formyråsen" />
		<tag k="place" v="quarter" />
		<tag k="ssr:stedsnr" v="224399" />
	</node>
	<node lat="65.77682500267134" lon="13.227008332809802" id="-14382">
		<tag k="name" v="Vollstad" />
		<tag k="place" v="farm" />
		<tag k="ssr:stedsnr" v="241429" />
	</node>
	<node lat="65.77566111245748" lon="13.229666676508868" id="-14383">
		<tag k="name" v="Aufles" />
		<tag k="place" v="quarter" />
		<tag k="ssr:stedsnr" v="241430" />
	</node>
	<node lat="65.62872221995993" lon="13.158891674589254" id="-14386">
		<tag k="name" v="Smibakken" />
		<tag k="place" v="farm" />
		<tag k="ssr:stedsnr" v="241700" />
	</node>
	<node lat="65.78046111016825" lon="13.138824991993202" id="-14388">
		<tag k="historic" v="shieling" />
		<tag k="name" v="Heimersetra" />
		<tag k="place" v="isolated_dwelling" />
		<tag k="ssr:stedsnr" v="241588" />
	</node>
	<node lat="65.96603611093695" lon="13.190302783023487" id="-14392">
		<tag k="name" v="Nystad" />
		<tag k="place" v="farm" />
		<tag k="ssr:stedsnr" v="453337" />
	</node>
	<node lat="66.10389166843248" lon="13.552347217956903" id="-14431">
		<tag k="alt_name" v="Elsfjordstrand" />
		<tag k="fixme" v="consider place=hamlet" />
		<tag k="name" v="Elsfjordstranda" />
		<tag k="place" v="farm" />
		<tag k="ssr:stedsnr" v="257324" />
	</node>
	<node lat="65.96099999904357" lon="13.163669449304965" id="-14434">
		<tag k="name" v="Nordtun" />
		<tag k="place" v="farm" />
		<tag k="ssr:stedsnr" v="258114" />
	</node>
	<node lat="65.83890000176622" lon="13.253691662054665" id="-14446">
		<tag k="name" v="Storremma" />
		<tag k="place" v="farm" />
		<tag k="ssr:stedsnr" v="258530" />
	</node>
	<node lat="65.82948333353225" lon="13.23516110072937" id="-14449">
		<tag k="name" v="Kippermoen" />
		<tag k="place" v="farm" />
		<tag k="ssr:stedsnr" v="258545" />
	</node>
	<node lat="65.91946666321323" lon="13.24285277239277" id="-14456">
		<tag k="name" v="Søftingsæter" />
		<tag k="place" v="isolated_dwelling" />
		<tag k="ssr:stedsnr" v="501856" />
	</node>
	<node lat="65.98743558581938" lon="13.298627781618453" id="-14461">
		<tag k="alt_name" v="Kommermo" />
		<tag k="fixme" v="consider place=hamlet" />
		<tag k="name" v="Kommermoen" />
		<tag k="place" v="farm" />
		<tag k="ssr:stedsnr" v="258805" />
	</node>
	<node lat="65.98646666704776" lon="13.228338879311115" id="-14462">
		<tag k="name" v="Øygarden" />
		<tag k="place" v="farm" />
		<tag k="ssr:stedsnr" v="258808" />
	</node>
	<node lat="65.9820202322774" lon="13.261544081741457" id="-14464">
		<tag k="fixme" v="consider place=hamlet" />
		<tag k="name" v="Nilsskogen" />
		<tag k="place" v="farm" />
		<tag k="ssr:stedsnr" v="258810" />
	</node>
	<node lat="65.62671666262118" lon="13.161574993473739" id="-14465">
		<tag k="name" v="Fagerbakken" />
		<tag k="place" v="farm" />
		<tag k="ssr:stedsnr" v="258819" />
	</node>
	<node lat="65.99723483400491" lon="13.317179295224504" id="-14469">
		<tag k="alt_name" v="Perjorda, yt" />
		<tag k="name" v="Ytre Perjorda" />
		<tag k="place" v="locality" />
		<tag k="ssr:stedsnr" v="258859" />
	</node>
	<node lat="65.8014333300573" lon="13.20381389574977" id="-14478">
		<tag k="name" v="Nes" />
		<tag k="place" v="farm" />
		<tag k="ssr:stedsnr" v="258772" />
	</node>
	<node lat="65.95538188929699" lon="13.41356237755259" id="-14480">
		<tag k="alt_name" v="Mjåvatn" />
		<tag k="fixme" v="consider place=hamlet" />
		<tag k="name" v="Mjåvatnet" />
		<tag k="place" v="farm" />
		<tag k="ssr:stedsnr" v="258906" />
	</node>
	<node lat="65.86656944424065" lon="13.208977775691874" id="-14485">
		<tag k="name" v="Trangdalen" />
		<tag k="place" v="farm" />
		<tag k="ssr:stedsnr" v="457156" />
	</node>
	<node lat="65.84916111471048" lon="12.695874991589378" id="-14489">
		<tag k="name" v="Elvebakken" />
		<tag k="place" v="farm" />
		<tag k="ssr:stedsnr" v="271623" />
	</node>
	<node lat="65.91233055951513" lon="13.30061112105688" id="-14508">
		<tag k="name" v="Granrem" />
		<tag k="place" v="farm" />
		<tag k="ssr:stedsnr" v="272729" />
	</node>
	<node lat="65.73491894014509" lon="13.220907445848148" id="-14511">
		<tag k="name" v="Kobbskjæret" />
		<tag k="place" v="farm" />
		<tag k="ssr:stedsnr" v="272792" />
	</node>
	<node lat="66.07151388959635" lon="13.441469435577837" id="-14521">
		<tag k="name" v="Myrmo" />
		<tag k="place" v="farm" />
		<tag k="ssr:stedsnr" v="283223" />
	</node>
	<node lat="65.82469722180207" lon="13.268805564970744" id="-14527">
		<tag k="name" v="Forshaugen" />
		<tag k="place" v="quarter" />
		<tag k="ssr:stedsnr" v="284423" />
	</node>
	<node lat="65.85685833154858" lon="13.196022219381108" id="-14545">
		<tag k="name" v="Kråkdalen" />
		<tag k="place" v="quarter" />
		<tag k="ssr:stedsnr" v="298390" />
	</node>
	<node lat="65.83064999915403" lon="13.211827774970352" id="-14564">
		<tag k="amenity" v="hospital" />
		<tag k="name" v="Vefsn sykehus" />
		<tag k="ssr:stedsnr" v="302571" />
	</node>
	<node lat="66.08182500128261" lon="13.553327780397677" id="-14609">
		<tag k="name" v="Nord-Stormoen" />
		<tag k="place" v="farm" />
		<tag k="ssr:stedsnr" v="318308" />
	</node>
	<node lat="66.01816944540039" lon="13.314063889746896" id="-14611">
		<tag k="name" v="Bjorhus" />
		<tag k="place" v="farm" />
		<tag k="ssr:stedsnr" v="318338" />
	</node>
	<node lat="65.79980491786742" lon="13.323026260267186" id="-14613">
		<tag k="fixme" v="consider place=hamlet" />
		<tag k="name" v="Kruna" />
		<tag k="place" v="farm" />
		<tag k="ssr:stedsnr" v="318602" />
	</node>
	<node lat="66.002719442577" lon="13.27309444842166" id="-14614">
		<tag k="alt_name" v="Steinhaug" />
		<tag k="fixme" v="consider place=hamlet" />
		<tag k="name" v="Steinhaugen" />
		<tag k="place" v="farm" />
		<tag k="ssr:stedsnr" v="318648" />
	</node>
	<node lat="65.79423009413556" lon="13.209673146786358" id="-14619">
		<tag k="alt_name" v="Kjerstad" />
		<tag k="fixme" v="consider place=hamlet" />
		<tag k="name" v="Kjærstad" />
		<tag k="place" v="farm" />
		<tag k="ssr:stedsnr" v="318793" />
	</node>
	<node lat="65.88256388504072" lon="13.221661105045785" id="-14622">
		<tag k="name" v="Båthola" />
		<tag k="place" v="farm" />
		<tag k="ssr:stedsnr" v="318995" />
	</node>
	<node lat="65.90213715921185" lon="13.332911546909132" id="-14634">
		<tag k="name" v="Innerhaugen" />
		<tag k="place" v="farm" />
		<tag k="ssr:stedsnr" v="319989" />
	</node>
	<node lat="65.82446944411426" lon="13.261377779471557" id="-14636">
		<tag k="name" v="Breiremma" />
		<tag k="place" v="farm" />
		<tag k="ssr:stedsnr" v="325511" />
	</node>
	<node lat="66.10396111479507" lon="13.550991656527057" id="-14641">
		<tag k="name" v="Auren" />
		<tag k="place" v="farm" />
		<tag k="ssr:stedsnr" v="329723" />
	</node>
	<node lat="65.84309444708019" lon="13.525991665973866" id="-14669">
		<tag k="name" v="Moen" />
		<tag k="place" v="isolated_dwelling" />
		<tag k="ssr:stedsnr" v="343396" />
	</node>
	<node lat="65.92951944233334" lon="13.408297227610971" id="-14681">
		<tag k="name" v="Moen" />
		<tag k="place" v="isolated_dwelling" />
		<tag k="ssr:stedsnr" v="345656" />
	</node>
	<node lat="65.9555312539158" lon="13.156201518729516" id="-14714">
		<tag k="fixme" v="consider place=hamlet" />
		<tag k="name" v="Stuvland" />
		<tag k="place" v="farm" />
		<tag k="ssr:stedsnr" v="379152" />
	</node>
	<node lat="65.90216388624944" lon="12.769263895229313" id="-14715">
		<tag k="name" v="Bjørndalsenget" />
		<tag k="place" v="farm" />
		<tag k="ssr:stedsnr" v="379162" />
	</node>
	<node lat="65.89673611165617" lon="12.752369443400402" id="-14717">
		<tag k="name" v="Sandvika" />
		<tag k="place" v="farm" />
		<tag k="ssr:stedsnr" v="379203" />
	</node>
	<node lat="65.86425833549208" lon="12.893861113680524" id="-14721">
		<tag k="name" v="Skogmo" />
		<tag k="place" v="locality" />
		<tag k="ssr:stedsnr" v="379225" />
	</node>
	<node lat="66.06961666631815" lon="13.551449989759167" id="-14724">
		<tag k="name" v="Forsheim" />
		<tag k="place" v="farm" />
		<tag k="ssr:stedsnr" v="379271" />
	</node>
	<node lat="66.03852500152087" lon="13.33013334150879" id="-14730">
		<tag k="name" v="Lundeng" />
		<tag k="place" v="farm" />
		<tag k="ssr:stedsnr" v="379363" />
	</node>
	<node lat="65.77599167042375" lon="13.22011944511478" id="-14731">
		<tag k="name" v="Aufles" />
		<tag k="place" v="farm" />
		<tag k="ssr:stedsnr" v="379403" />
	</node>
	<node lat="65.54587576912904" lon="13.16130814072791" id="-14739">
		<tag k="name" v="Sirijorda" />
		<tag k="place" v="locality" />
		<tag k="ssr:stedsnr" v="379625" />
	</node>
	<node lat="65.83700277542235" lon="13.191355558618802" id="-14743">
		<tag k="name" v="Mosjøen - Mussere" />
		<tag k="name:no" v="Mosjøen" />
		<tag k="name:sma" v="Mussere" />
		<tag k="place" v="town" />
		<tag k="ssr:stedsnr" v="379761" />
	</node>
	<node lat="65.94940833010047" lon="13.41625556020593" id="-14747">
		<tag k="name" v="Buktryggen" />
		<tag k="place" v="farm" />
		<tag k="ssr:stedsnr" v="379903" />
	</node>
	<node lat="65.92290795663735" lon="13.28836178860475" id="-14749">
		<tag k="fixme" v="consider place=hamlet" />
		<tag k="name" v="Hellfjellbygda" />
		<tag k="place" v="village" />
		<tag k="ssr:stedsnr" v="379916" />
	</node>
	<node lat="65.98988402508515" lon="13.444911875079994" id="-14751">
		<tag k="alt_name" v="Nævervegen;Nevervei" />
		<tag k="fixme" v="consider place=hamlet" />
		<tag k="name" v="Nevervegen" />
		<tag k="place" v="farm" />
		<tag k="ssr:stedsnr" v="379803" />
	</node>
	<node lat="65.98076698114157" lon="13.44033961855413" id="-14752">
		<tag k="fixme" v="consider place=hamlet" />
		<tag k="name" v="Kægvika" />
		<tag k="old_name" v="Ømmervasshovud" />
		<tag k="place" v="farm" />
		<tag k="ssr:stedsnr" v="379812" />
	</node>
	<node lat="65.92193611265972" lon="13.356147232651674" id="-14754">
		<tag k="name" v="Grøftremma" />
		<tag k="place" v="farm" />
		<tag k="ssr:stedsnr" v="379860" />
	</node>
	<node lat="65.92845833386637" lon="12.709161112672833" id="-14772">
		<tag k="name" v="Øvertrøan" />
		<tag k="place" v="farm" />
		<tag k="ssr:stedsnr" v="482953" />
	</node>
	<node lat="65.85316944755988" lon="13.201916665184246" id="-14795">
		<tag k="name" v="Halsmoen" />
		<tag k="place" v="quarter" />
		<tag k="ssr:stedsnr" v="393088" />
	</node>
	<node lat="65.86217500155139" lon="13.195113884211574" id="-14799">
		<tag k="name" v="Stiberget" />
		<tag k="place" v="quarter" />
		<tag k="ssr:stedsnr" v="393238" />
	</node>
	<node lat="65.82133055453804" lon="13.21594165684194" id="-14810">
		<tag k="name" v="Olderskogen" />
		<tag k="place" v="suburb" />
		<tag k="ssr:stedsnr" v="393945" />
	</node>
	<node lat="66.02268055531333" lon="13.318111101789267" id="-14814">
		<tag k="name" v="Sollid" />
		<tag k="place" v="farm" />
		<tag k="ssr:stedsnr" v="483948" />
	</node>
	<node lat="65.92668333514204" lon="12.964313899592362" id="-14857">
		<tag k="name" v="Aspskogen" />
		<tag k="place" v="isolated_dwelling" />
		<tag k="ssr:stedsnr" v="406867" />
	</node>
	<node lat="65.85986666776728" lon="13.187788884811402" id="-14866">
		<tag k="building" v="industrial" />
		<tag k="industrial" v="factory" />
		<tag k="name" v="Nes Trelastbruk" />
		<tag k="ssr:stedsnr" v="420402" />
	</node>
	<node lat="65.96550664630868" lon="12.948882816961687" id="-14891">
		<tag k="fixme" v="consider place=hamlet" />
		<tag k="name" v="Søttaren" />
		<tag k="place" v="farm" />
		<tag k="ssr:stedsnr" v="440139" />
	</node>
	<node lat="66.07075277379738" lon="13.453527780084146" id="-14895">
		<tag k="name" v="Nordheim" />
		<tag k="place" v="farm" />
		<tag k="ssr:stedsnr" v="440304" />
	</node>
	<node lat="66.06757499931201" lon="13.44264723274249" id="-14896">
		<tag k="name" v="Åsen" />
		<tag k="place" v="farm" />
		<tag k="ssr:stedsnr" v="440308" />
	</node>
	<node lat="65.8294027736076" lon="13.483036109968532" id="-14903">
		<tag k="alt_name" v="Nilsmosætra" />
		<tag k="name" v="Nilsmosetra" />
		<tag k="place" v="isolated_dwelling" />
		<tag k="ssr:stedsnr" v="440515" />
	</node>
	<node lat="65.83018920171304" lon="13.247072715215726" id="-14904">
		<tag k="fixme" v="consider place=hamlet" />
		<tag k="name" v="Andås" />
		<tag k="place" v="farm" />
		<tag k="ssr:stedsnr" v="440544" />
	</node>
	<node lat="65.61450414274125" lon="13.152187160233401" id="-14918">
		<tag k="name" v="Bjørnmoen" />
		<tag k="place" v="farm" />
		<tag k="ssr:stedsnr" v="440809" />
	</node>
	<node lat="65.80533583031692" lon="12.728743005142688" id="-14923">
		<tag k="fixme" v="consider place=hamlet" />
		<tag k="name" v="Grytåa" />
		<tag k="place" v="farm" />
		<tag k="ssr:stedsnr" v="440738" />
	</node>
	<node lat="65.82330081949782" lon="13.200249779707224" id="-14924">
		<tag k="fixme" v="consider place=hamlet" />
		<tag k="name" v="Øya" />
		<tag k="place" v="farm" />
		<tag k="ssr:stedsnr" v="440739" />
	</node>
	<node lat="65.9567222230976" lon="13.422380546315603" id="-14931">
		<tag k="name" v="Gofahaugen" />
		<tag k="place" v="farm" />
		<tag k="ssr:stedsnr" v="440918" />
	</node>
	<node lat="65.86945555590088" lon="13.23310833299086" id="-14932">
		<tag k="name" v="Finnbrauten" />
		<tag k="place" v="farm" />
		<tag k="ssr:stedsnr" v="440938" />
	</node>
	<node lat="65.87059166269283" lon="13.217752771162033" id="-14937">
		<tag k="name" v="Staurremma" />
		<tag k="place" v="farm" />
		<tag k="ssr:stedsnr" v="446530" />
	</node>
	<node lat="65.86245555259023" lon="13.185127767591283" id="-14941">
		<tag k="amenity" v="school" />
		<tag k="name" v="Vefsn folkehøgskole" />
		<tag k="ssr:stedsnr" v="446623" />
	</node>
	<node lat="66.15704444879476" lon="13.563169441439898" id="-14976">
		<tag k="name" v="Bukta" />
		<tag k="place" v="isolated_dwelling" />
		<tag k="ssr:stedsnr" v="464169" />
	</node>
	<node lat="65.93384444406253" lon="13.40800832249642" id="-14999">
		<tag k="name" v="Straumsås" />
		<tag k="place" v="isolated_dwelling" />
		<tag k="ssr:stedsnr" v="467679" />
	</node>
	<node lat="65.92510278188827" lon="12.72983610461167" id="-15016">
		<tag k="name" v="Forsenget" />
		<tag k="place" v="farm" />
		<tag k="ssr:stedsnr" v="482209" />
	</node>
	<node lat="65.61418889339701" lon="13.158683324755868" id="-15019">
		<tag k="name" v="Solvang" />
		<tag k="place" v="isolated_dwelling" />
		<tag k="ssr:stedsnr" v="482779" />
	</node>
	<node lat="65.90657439848617" lon="13.179964648573332" id="-15026">
		<tag k="fixme" v="consider place=hamlet" />
		<tag k="name" v="Skaland" />
		<tag k="place" v="farm" />
		<tag k="ssr:stedsnr" v="500220" />
	</node>
	<node lat="65.96255255854084" lon="12.807043693923841" id="-15027">
		<tag k="name" v="Hesthagen" />
		<tag k="place" v="farm" />
		<tag k="ssr:stedsnr" v="500105" />
	</node>
	<node lat="65.97606944241814" lon="13.212416677053902" id="-15029">
		<tag k="fixme" v="consider place=suburb, village or hamlet" />
		<tag k="name" v="Granmoen" />
		<tag k="place" v="quarter" />
		<tag k="ssr:stedsnr" v="500132" />
	</node>
	<node lat="66.02415555983897" lon="13.314241665644099" id="-15032">
		<tag k="alt_name" v="Smalburem" />
		<tag k="fixme" v="consider place=hamlet" />
		<tag k="name" v="Smalburemma" />
		<tag k="place" v="farm" />
		<tag k="ssr:stedsnr" v="500402" />
	</node>
	<node lat="65.93069153220279" lon="13.334604499412722" id="-15035">
		<tag k="fixme" v="consider place=hamlet" />
		<tag k="name" v="Høglia" />
		<tag k="place" v="farm" />
		<tag k="ssr:stedsnr" v="500905" />
	</node>
	<node lat="65.9301750039054" lon="13.425752775370077" id="-15036">
		<tag k="alt_name" v="Remeng" />
		<tag k="name" v="Remsenget" />
		<tag k="place" v="isolated_dwelling" />
		<tag k="ssr:stedsnr" v="500908" />
	</node>
	<node lat="65.73805021654802" lon="13.213566129041897" id="-15044">
		<tag k="name" v="Bentsenget" />
		<tag k="place" v="farm" />
		<tag k="ssr:stedsnr" v="500815" />
	</node>
	<node lat="66.06304704709504" lon="13.543027029513587" id="-15052">
		<tag k="fixme" v="consider place=hamlet" />
		<tag k="name" v="Trondmoen" />
		<tag k="place" v="farm" />
		<tag k="ssr:stedsnr" v="501339" />
	</node>
	<node lat="66.12405152939739" lon="13.572278074052958" id="-15053">
		<tag k="alt_name" v="Seljeli" />
		<tag k="fixme" v="consider place=hamlet" />
		<tag k="name" v="Seljelia" />
		<tag k="place" v="farm" />
		<tag k="ssr:stedsnr" v="501431" />
	</node>
	<node lat="65.59198055255037" lon="13.157633328303586" id="-15055">
		<tag k="alt_name" v="Holmsætra, in" />
		<tag k="fixme" v="multiple name tags, choose one and add the other to alt_name" />
		<tag k="historic" v="shieling" />
		<tag k="name" v="Innersetra;Indre Holmsætra" />
		<tag k="place" v="isolated_dwelling" />
		<tag k="ssr:stedsnr" v="501642" />
	</node>
	<node lat="65.81933610656091" lon="13.303038897806829" id="-15056">
		<tag k="name" v="Fagerstad" />
		<tag k="place" v="farm" />
		<tag k="ssr:stedsnr" v="501508" />
	</node>
	<node lat="65.85319344057096" lon="13.297821978966041" id="-15057">
		<tag k="name" v="Myråkeren" />
		<tag k="place" v="farm" />
		<tag k="ssr:stedsnr" v="501532" />
	</node>
	<node lat="65.92123610655054" lon="13.414108339277998" id="-15062">
		<tag k="alt_name" v="Lynghaug" />
		<tag k="name" v="Lynghaugen" />
		<tag k="place" v="farm" />
		<tag k="ssr:stedsnr" v="501888" />
	</node>
	<node lat="65.89419444872387" lon="13.226755555098881" id="-15070">
		<tag k="name" v="Skalandsætra" />
		<tag k="place" v="isolated_dwelling" />
		<tag k="ssr:stedsnr" v="501977" />
	</node>
	<node lat="66.04628055637123" lon="13.521719445650712" id="-15080">
		<tag k="name" v="Husmoen" />
		<tag k="place" v="farm" />
		<tag k="ssr:stedsnr" v="682358" />
	</node>
	<node lat="66.00891139810082" lon="13.430407807348606" id="-15086">
		<tag k="alt_name" v="Bjørkrem" />
		<tag k="fixme" v="consider place=hamlet" />
		<tag k="name" v="Bjørkremma" />
		<tag k="place" v="farm" />
		<tag k="ssr:stedsnr" v="682684" />
	</node>
	<node lat="65.74555647342186" lon="13.002140146380459" id="-15088">
		<tag k="alt_name" v="Gårdsjordet;Gårdsjorda" />
		<tag k="name" v="Gardsjorda" />
		<tag k="place" v="locality" />
		<tag k="ssr:stedsnr" v="682825" />
	</node>
	<node lat="65.89075319083844" lon="13.256497047310916" id="-15092">
		<tag k="fixme" v="consider place=hamlet" />
		<tag k="name" v="Forsmoen" />
		<tag k="place" v="farm" />
		<tag k="ssr:stedsnr" v="682990" />
	</node>
	<node lat="65.89944166365724" lon="12.79334721812366" id="-15095">
		<tag k="name" v="Opplandsremma" />
		<tag k="place" v="farm" />
		<tag k="ssr:stedsnr" v="683195" />
	</node>
	<node lat="65.90037530911322" lon="12.807253967088274" id="-15096">
		<tag k="fixme" v="consider place=hamlet" />
		<tag k="name" v="Oppland" />
		<tag k="place" v="farm" />
		<tag k="ssr:stedsnr" v="683196" />
	</node>
	<node lat="65.83255000039067" lon="12.66745832893113" id="-15106">
		<tag k="name" v="Einmoen" />
		<tag k="place" v="farm" />
		<tag k="ssr:stedsnr" v="683442" />
	</node>
	<node lat="65.7827333314138" lon="13.292886108777521" id="-15110">
		<tag k="alt_name" v="Langjordsætra" />
		<tag k="name" v="Langjordsetra" />
		<tag k="place" v="isolated_dwelling" />
		<tag k="ssr:stedsnr" v="683555" />
	</node>
	<node lat="65.82800833776662" lon="13.289930554787947" id="-15117">
		<tag k="name" v="Lundestad" />
		<tag k="place" v="farm" />
		<tag k="ssr:stedsnr" v="683515" />
	</node>
	<node lat="65.8512230378007" lon="13.299620836211881" id="-15120">
		<tag k="alt_name" v="Gammarka" />
		<tag k="fixme" v="consider place=hamlet" />
		<tag k="name" v="Gangmark" />
		<tag k="place" v="farm" />
		<tag k="ssr:stedsnr" v="683530" />
	</node>
	<node lat="65.9166111095946" lon="13.282119445269387" id="-15150">
		<tag k="name" v="Mobakken" />
		<tag k="place" v="farm" />
		<tag k="ssr:stedsnr" v="683877" />
	</node>
	<node lat="65.91067640305776" lon="13.295944595124931" id="-15151">
		<tag k="alt_name" v="Langmoen, in;Langmo Indre" />
		<tag k="fixme" v="consider place=hamlet" />
		<tag k="name" v="Indre Langmoen" />
		<tag k="place" v="farm" />
		<tag k="ssr:stedsnr" v="683879" />
	</node>
	<node lat="65.78864501356279" lon="13.21795182421345" id="-15155">
		<tag k="name" v="Sørstad" />
		<tag k="place" v="farm" />
		<tag k="ssr:stedsnr" v="514969" />
	</node>
	<node lat="65.92999062876679" lon="13.229688932158195" id="-15159">
		<tag k="alt_name" v="Engås" />
		<tag k="fixme" v="consider place=hamlet" />
		<tag k="name" v="Engåsen" />
		<tag k="place" v="farm" />
		<tag k="ssr:stedsnr" v="683920" />
	</node>
	<node lat="65.73151944417975" lon="13.306736109092913" id="-15182">
		<tag k="historic" v="shieling" />
		<tag k="name" v="Åssetra" />
		<tag k="place" v="isolated_dwelling" />
		<tag k="ssr:stedsnr" v="527215" />
	</node>
	<node lat="65.96347043698236" lon="12.814974493758557" id="-15217">
		<tag k="name" v="Ukkelfora" />
		<tag k="place" v="farm" />
		<tag k="ssr:stedsnr" v="561097" />
	</node>
	<node lat="65.79529166242583" lon="13.173427772777444" id="-15221">
		<tag k="name" v="Litljorda" />
		<tag k="place" v="farm" />
		<tag k="ssr:stedsnr" v="689567" />
	</node>
	<node lat="65.82879999987667" lon="13.215613892759482" id="-15229">
		<tag k="name" v="Mo" />
		<tag k="place" v="quarter" />
		<tag k="ssr:stedsnr" v="571465" />
	</node>
	<node lat="65.86954166657833" lon="13.179969437753378" id="-15231">
		<tag k="name" v="Røyten" />
		<tag k="place" v="isolated_dwelling" />
		<tag k="ssr:stedsnr" v="574017" />
	</node>
	<node lat="65.88036389157116" lon="13.200861119276434" id="-15263">
		<tag k="name" v="Langremma" />
		<tag k="place" v="farm" />
		<tag k="ssr:stedsnr" v="696251" />
	</node>
	<node lat="65.9025492388232" lon="13.29697117208214" id="-15296">
		<tag k="name" v="Brubakk" />
		<tag k="place" v="farm" />
		<tag k="ssr:stedsnr" v="696651" />
	</node>
	<node lat="65.79233611105795" lon="13.135277770035854" id="-15336">
		<tag k="name" v="Gammeljorda" />
		<tag k="place" v="locality" />
		<tag k="ssr:stedsnr" v="605586" />
	</node>
	<node lat="66.0497619378005" lon="13.589967911362109" id="-15346">
		<tag k="alt_name" v="Steinmo" />
		<tag k="fixme" v="consider place=hamlet" />
		<tag k="name" v="Steinmoen" />
		<tag k="place" v="farm" />
		<tag k="ssr:stedsnr" v="621371" />
	</node>
	<node lat="66.02297222234876" lon="13.4594444391928" id="-15350">
		<tag k="name" v="Storneset" />
		<tag k="place" v="farm" />
		<tag k="ssr:stedsnr" v="621676" />
	</node>
	<node lat="65.79832407578" lon="12.60892479215114" id="-15351">
		<tag k="name" v="Skonsenga" />
		<tag k="place" v="locality" />
		<tag k="ssr:stedsnr" v="622007" />
	</node>
	<node lat="65.88958149937218" lon="13.43420859335972" id="-15354">
		<tag k="fixme" v="consider place=hamlet" />
		<tag k="name" v="Ånes" />
		<tag k="place" v="farm" />
		<tag k="ssr:stedsnr" v="621983" />
	</node>
	<node lat="66.0805848356334" lon="13.559659140595869" id="-15357">
		<tag k="alt_name" v="Stormo" />
		<tag k="fixme" v="consider place=hamlet" />
		<tag k="name" v="Stormoen" />
		<tag k="place" v="farm" />
		<tag k="ssr:stedsnr" v="622271" />
	</node>
	<node lat="65.9289916651578" lon="12.979966663842559" id="-15360">
		<tag k="name" v="Høyneset" />
		<tag k="place" v="farm" />
		<tag k="ssr:stedsnr" v="622181" />
	</node>
	<node lat="65.92808617673926" lon="12.939836781945118" id="-15361">
		<tag k="fixme" v="consider place=hamlet" />
		<tag k="name" v="Øra" />
		<tag k="place" v="farm" />
		<tag k="ssr:stedsnr" v="622186" />
	</node>
	<node lat="65.92417354772346" lon="13.278919358449938" id="-15367">
		<tag k="alt_name" v="Storrem" />
		<tag k="fixme" v="consider place=hamlet" />
		<tag k="name" v="Storremma" />
		<tag k="place" v="farm" />
		<tag k="ssr:stedsnr" v="622863" />
	</node>
	<node lat="65.92595590006475" lon="13.297094011082685" id="-15368">
		<tag k="fixme" v="consider place=hamlet" />
		<tag k="name" v="Haugen" />
		<tag k="place" v="farm" />
		<tag k="ssr:stedsnr" v="622871" />
	</node>
	<node lat="65.92704170926865" lon="13.307945849210622" id="-15369">
		<tag k="alt_name" v="Gulljord" />
		<tag k="fixme" v="consider place=hamlet" />
		<tag k="name" v="Gulljorda" />
		<tag k="place" v="farm" />
		<tag k="ssr:stedsnr" v="622875" />
	</node>
	<node lat="65.86068610902979" lon="13.251311100467662" id="-15372">
		<tag k="name" v="Rundremma" />
		<tag k="place" v="farm" />
		<tag k="ssr:stedsnr" v="622964" />
	</node>
	<node lat="65.88021666342695" lon="13.2234694455317" id="-15377">
		<tag k="name" v="Åsnevet" />
		<tag k="place" v="quarter" />
		<tag k="ssr:stedsnr" v="628510" />
	</node>
	<node lat="65.82873888889891" lon="13.195430545334437" id="-15410">
		<tag k="name" v="Ytterøra" />
		<tag k="place" v="suburb" />
		<tag k="ssr:stedsnr" v="635930" />
	</node>
	<node lat="65.61945000082157" lon="13.063447223221841" id="-15417">
		<tag k="fixme" v="consider tourism=alpine_hut or tourism=chalet" />
		<tag k="name" v="Sæterskaret skogstue" />
		<tag k="ssr:stedsnr" v="646531" />
		<tag k="tourism" v="wilderness_hut" />
	</node>
	<node lat="66.04915277680145" lon="13.394488894836787" id="-15419">
		<tag k="name" v="Granneset" />
		<tag k="place" v="farm" />
		<tag k="ssr:stedsnr" v="646681" />
	</node>
	<node lat="65.73291356308384" lon="13.279566518203325" id="-15489">
		<tag k="name" v="Norstad" />
		<tag k="place" v="farm" />
		<tag k="ssr:stedsnr" v="709234" />
	</node>
	<node lat="65.71959034553605" lon="13.21901639943184" id="-15493">
		<tag k="fixme" v="consider place=hamlet" />
		<tag k="name" v="Forsjord" />
		<tag k="place" v="farm" />
		<tag k="ssr:stedsnr" v="709237" />
	</node>
	<node lat="65.82210833061589" lon="13.271452775259462" id="-15504">
		<tag k="name" v="Hagforsenget" />
		<tag k="place" v="quarter" />
		<tag k="ssr:stedsnr" v="709411" />
	</node>
	<node lat="65.91318889205445" lon="12.753455556703592" id="-15510">
		<tag k="name" v="Skoglund" />
		<tag k="place" v="farm" />
		<tag k="ssr:stedsnr" v="664999" />
	</node>
	<node lat="65.8652472206285" lon="13.200386119520816" id="-15543">
		<tag k="name" v="Brodtkorbfeltet" />
		<tag k="place" v="quarter" />
		<tag k="ssr:stedsnr" v="890376" />
	</node>
	<node lat="65.97851110765866" lon="13.426783336565807" id="-15559">
		<tag k="name" v="Vasshøvet" />
		<tag k="place" v="farm" />
		<tag k="ssr:stedsnr" v="890766" />
	</node>
	<node lat="66.08962263734247" lon="13.462521139140758" id="-15583">
		<tag k="alt_name" v="Vesterbekkmo" />
		<tag k="fixme" v="consider place=hamlet" />
		<tag k="name" v="Vesterbekkmoen" />
		<tag k="place" v="farm" />
		<tag k="ssr:stedsnr" v="682316" />
	</node>
	<node lat="66.01443333099421" lon="13.306636106181555" id="-15590">
		<tag k="alt_name" v="Dalmo" />
		<tag k="name" v="Dalmoen" />
		<tag k="place" v="farm" />
		<tag k="ssr:stedsnr" v="682710" />
	</node>
	<node lat="65.81376850835878" lon="13.515555291409845" id="-15599">
		<tag k="alt_name" v="Kalvmones" />
		<tag k="fixme" v="consider place=hamlet" />
		<tag k="name" v="Kalvmoneset" />
		<tag k="place" v="farm" />
		<tag k="ssr:stedsnr" v="682574" />
	</node>
	<node lat="66.06445555995099" lon="13.387222214394571" id="-15603">
		<tag k="name" v="Vollheim" />
		<tag k="place" v="farm" />
		<tag k="ssr:stedsnr" v="683231" />
	</node>
	<node lat="65.93306666747144" lon="13.096952774613236" id="-15606">
		<tag k="name" v="Kleivhaugen" />
		<tag k="place" v="farm" />
		<tag k="ssr:stedsnr" v="683163" />
	</node>
	<node lat="66.05732222036585" lon="13.570736121574402" id="-15608">
		<tag k="name" v="Osen" />
		<tag k="place" v="isolated_dwelling" />
		<tag k="ssr:stedsnr" v="683315" />
	</node>
	<node lat="65.72637221838411" lon="13.280688895971585" id="-15618">
		<tag k="name" v="Fokstad" />
		<tag k="place" v="farm" />
		<tag k="ssr:stedsnr" v="683726" />
	</node>
	<node lat="65.7196166667746" lon="13.292147214599206" id="-15619">
		<tag k="alt_name" v="Ravassbakk" />
		<tag k="name" v="Ravassbakken" />
		<tag k="place" v="farm" />
		<tag k="ssr:stedsnr" v="683729" />
	</node>
	<node lat="65.9921166673006" lon="13.384436109432219" id="-15624">
		<tag k="alt_name" v="Aspli" />
		<tag k="name" v="Asplia" />
		<tag k="place" v="farm" />
		<tag k="ssr:stedsnr" v="683858" />
	</node>
	<node lat="65.94892500015384" lon="13.411919440718018" id="-15626">
		<tag k="name" v="Fagersletta" />
		<tag k="place" v="farm" />
		<tag k="ssr:stedsnr" v="683904" />
	</node>
	<node lat="65.85568888654717" lon="13.252827787169846" id="-15628">
		<tag k="name" v="Nybostad" />
		<tag k="place" v="farm" />
		<tag k="ssr:stedsnr" v="683962" />
	</node>
	<node lat="65.86749166779111" lon="13.377369443465987" id="-15630">
		<tag k="name" v="Austheim" />
		<tag k="place" v="farm" />
		<tag k="ssr:stedsnr" v="683971" />
	</node>
	<node lat="65.84225000122967" lon="13.209313885187798" id="-15638">
		<tag k="name" v="Åsheim" />
		<tag k="place" v="farm" />
		<tag k="ssr:stedsnr" v="693489" />
	</node>
	<node lat="65.94113611104704" lon="13.40438888739387" id="-15639">
		<tag k="name" v="Sandvik" />
		<tag k="place" v="hamlet" />
		<tag k="ssr:stedsnr" v="693774" />
	</node>
	<node lat="65.86339721842863" lon="13.245411115097944" id="-15659">
		<tag k="name" v="Småbakken" />
		<tag k="place" v="farm" />
		<tag k="ssr:stedsnr" v="700211" />
	</node>
	<node lat="65.79915188804057" lon="12.675994964544092" id="-15710">
		<tag k="fixme" v="consider place=hamlet" />
		<tag k="name" v="Roparneset" />
		<tag k="place" v="farm" />
		<tag k="ssr:stedsnr" v="743009" />
	</node>
	<node lat="66.06244722080359" lon="13.382980559946843" id="-15718">
		<tag k="name" v="Leirfallmoen" />
		<tag k="place" v="farm" />
		<tag k="ssr:stedsnr" v="743282" />
	</node>
	<node lat="66.10321667118173" lon="13.548324989902733" id="-15722">
		<tag k="fixme" v="consider place=hamlet" />
		<tag k="name" v="Elsfjord" />
		<tag k="place" v="village" />
		<tag k="ssr:stedsnr" v="743329" />
	</node>
	<node lat="66.08920277449727" lon="13.556136120197497" id="-15724">
		<tag k="name" v="Solvang" />
		<tag k="place" v="farm" />
		<tag k="ssr:stedsnr" v="743336" />
	</node>
	<node lat="66.08645791966951" lon="13.559163531840122" id="-15725">
		<tag k="alt_name" v="Krokenga" />
		<tag k="name" v="Krokeng" />
		<tag k="place" v="farm" />
		<tag k="ssr:stedsnr" v="743340" />
	</node>
	<node lat="65.77388888633321" lon="13.231405557209069" id="-15731">
		<tag k="name" v="Rystad" />
		<tag k="place" v="farm" />
		<tag k="ssr:stedsnr" v="743608" />
	</node>
	<node lat="65.82303611091533" lon="13.225269434351317" id="-15745">
		<tag k="fixme" v="consider place=suburb, village or hamlet" />
		<tag k="name" v="Olderskog" />
		<tag k="place" v="quarter" />
		<tag k="ssr:stedsnr" v="744477" />
	</node>
	<node lat="65.96706471875288" lon="13.222545982758387" id="-15749">
		<tag k="alt_name" v="Forsmo" />
		<tag k="fixme" v="consider place=hamlet" />
		<tag k="name" v="Forsmoen" />
		<tag k="place" v="farm" />
		<tag k="ssr:stedsnr" v="744824" />
	</node>
	<node lat="65.8316861123978" lon="12.724233330534503" id="-15751">
		<tag k="name" v="Øverjordsetra" />
		<tag k="place" v="locality" />
		<tag k="ssr:stedsnr" v="744782" />
	</node>
	<node lat="65.92290278061441" lon="13.13661388863288" id="-15761">
		<tag k="name" v="Lindsetvika" />
		<tag k="place" v="farm" />
		<tag k="ssr:stedsnr" v="753222" />
	</node>
	<node lat="65.9242972185458" lon="12.954172219137261" id="-15762">
		<tag k="name" v="Syremmen" />
		<tag k="place" v="farm" />
		<tag k="ssr:stedsnr" v="754514" />
	</node>
	<node lat="66.02732531717025" lon="13.521608614173736" id="-15763">
		<tag k="name" v="Nordli" />
		<tag k="place" v="farm" />
		<tag k="ssr:stedsnr" v="905256" />
	</node>
	<node lat="65.82588889109304" lon="13.260624993337156" id="-15837">
		<tag k="name" v="Breiremma" />
		<tag k="place" v="quarter" />
		<tag k="ssr:stedsnr" v="770403" />
	</node>
	<node lat="66.02068611230649" lon="13.317008332724399" id="-15866">
		<tag k="name" v="Jonseng" />
		<tag k="place" v="farm" />
		<tag k="ssr:stedsnr" v="908935" />
	</node>
	<node lat="65.70980277434289" lon="13.226372219697248" id="-15876">
		<tag k="name" v="Moen" />
		<tag k="place" v="farm" />
		<tag k="ssr:stedsnr" v="785250" />
	</node>
	<node lat="66.05014166891036" lon="13.406680559150638" id="-15892">
		<tag k="alt_name" v="Røreng" />
		<tag k="name" v="Rørenget" />
		<tag k="place" v="farm" />
		<tag k="ssr:stedsnr" v="804404" />
	</node>
	<node lat="66.05124999939687" lon="13.415911106677624" id="-15893">
		<tag k="name" v="Odellandvegen" />
		<tag k="place" v="farm" />
		<tag k="ssr:stedsnr" v="804406" />
	</node>
	<node lat="65.84261497983204" lon="12.683734370124046" id="-15895">
		<tag k="fixme" v="consider place=hamlet" />
		<tag k="name" v="Halsvika" />
		<tag k="place" v="farm" />
		<tag k="ssr:stedsnr" v="804474" />
	</node>
	<node lat="66.06740555131576" lon="13.412055550690829" id="-15898">
		<tag k="name" v="Litljorda" />
		<tag k="place" v="farm" />
		<tag k="ssr:stedsnr" v="804310" />
	</node>
	<node lat="65.74070555893158" lon="13.181530565176661" id="-15915">
		<tag k="alt_name" v="Kvalforssætra" />
		<tag k="name" v="Kvalforssetra" />
		<tag k="place" v="isolated_dwelling" />
		<tag k="ssr:stedsnr" v="804772" />
	</node>
	<node lat="65.972054132461" lon="12.860246990909479" id="-15925">
		<tag k="fixme" v="consider place=hamlet" />
		<tag k="name" v="Sørnes" />
		<tag k="place" v="farm" />
		<tag k="ssr:stedsnr" v="805103" />
	</node>
	<node lat="65.87242778058351" lon="13.21426944825572" id="-15929">
		<tag k="name" v="Formoen" />
		<tag k="place" v="farm" />
		<tag k="ssr:stedsnr" v="810615" />
	</node>
	<node lat="65.91958055915241" lon="13.139513889940593" id="-15930">
		<tag k="name" v="Lindsetvika" />
		<tag k="place" v="farm" />
		<tag k="ssr:stedsnr" v="814305" />
	</node>
	<node lat="66.16183611102277" lon="13.539411108612533" id="-15941">
		<tag k="name" v="Setra" />
		<tag k="place" v="locality" />
		<tag k="ssr:stedsnr" v="828131" />
	</node>
	<node lat="65.99745555969692" lon="13.320677770347414" id="-15964">
		<tag k="alt_name" v="Perjord" />
		<tag k="fixme" v="consider place=hamlet" />
		<tag k="name" v="Perjorda" />
		<tag k="place" v="farm" />
		<tag k="ssr:stedsnr" v="831013" />
	</node>
	<node lat="65.99106388619728" lon="13.34612500974477" id="-15966">
		<tag k="name" v="Nordmo" />
		<tag k="place" v="farm" />
		<tag k="ssr:stedsnr" v="831029" />
	</node>
	<node lat="65.96995833368007" lon="13.201949995977971" id="-15987">
		<tag k="fixme" v="consider place=hamlet" />
		<tag k="name" v="Straum" />
		<tag k="place" v="village" />
		<tag k="ssr:stedsnr" v="925125" />
	</node>
	<node lat="65.94675277844682" lon="13.126622230999086" id="-15991">
		<tag k="name" v="Myrvang" />
		<tag k="place" v="farm" />
		<tag k="ssr:stedsnr" v="925160" />
	</node>
	<node lat="65.85697222630104" lon="13.22527499105769" id="-16004">
		<tag k="name" v="Nordåsen" />
		<tag k="place" v="isolated_dwelling" />
		<tag k="ssr:stedsnr" v="925498" />
	</node>
	<node lat="66.09590529526436" lon="13.490627259312962" id="-16006">
		<tag k="fixme" v="consider place=hamlet" />
		<tag k="name" v="Svarttjønnlia" />
		<tag k="place" v="farm" />
		<tag k="ssr:stedsnr" v="925509" />
	</node>
	<node lat="65.81507777605842" lon="13.362730553346722" id="-16008">
		<tag k="alt_name" v="Reinfjell" />
		<tag k="name" v="Reinfjellet" />
		<tag k="place" v="farm" />
		<tag k="ssr:stedsnr" v="925550" />
	</node>
	<node lat="65.81845471350942" lon="13.322243460652196" id="-16009">
		<tag k="fixme" v="consider place=hamlet" />
		<tag k="name" v="Lian" />
		<tag k="place" v="farm" />
		<tag k="ssr:stedsnr" v="925552" />
	</node>
	<node lat="66.01786388988882" lon="13.499911109941303" id="-16012">
		<tag k="name" v="Austerslåtten" />
		<tag k="place" v="locality" />
		<tag k="ssr:stedsnr" v="925674" />
	</node>
	<node lat="65.76745277338712" lon="13.182375000147454" id="-16033">
		<tag k="name" v="Grøvsetra" />
		<tag k="place" v="isolated_dwelling" />
		<tag k="ssr:stedsnr" v="925895" />
	</node>
	<node lat="65.76861111320795" lon="13.172791661397742" id="-16034">
		<tag k="name" v="Auflessetra" />
		<tag k="place" v="isolated_dwelling" />
		<tag k="ssr:stedsnr" v="925896" />
	</node>
	<node lat="66.0277611115127" lon="13.464149989213826" id="-16062">
		<tag k="name" v="Skogsmoen" />
		<tag k="place" v="farm" />
		<tag k="ssr:stedsnr" v="926331" />
	</node>
	<node lat="66.04557500238761" lon="13.622972211600212" id="-16063">
		<tag k="alt_name" v="Nermo" />
		<tag k="name" v="Nermoen" />
		<tag k="place" v="farm" />
		<tag k="ssr:stedsnr" v="926300" />
	</node>
	<node lat="66.02718055678807" lon="13.315916662252425" id="-16064">
		<tag k="name" v="Toven" />
		<tag k="place" v="hamlet" />
		<tag k="ssr:stedsnr" v="926301" />
	</node>
	<node lat="66.06127500026936" lon="13.446733342989724" id="-16066">
		<tag k="name" v="Oppheim" />
		<tag k="place" v="farm" />
		<tag k="ssr:stedsnr" v="926343" />
	</node>
	<node lat="66.05927777563525" lon="13.446450005993885" id="-16067">
		<tag k="name" v="Engåsen" />
		<tag k="place" v="farm" />
		<tag k="ssr:stedsnr" v="926345" />
	</node>
	<node lat="66.16431388833374" lon="13.578511120943059" id="-16070">
		<tag k="name" v="Svinåmoen" />
		<tag k="place" v="isolated_dwelling" />
		<tag k="ssr:stedsnr" v="926449" />
	</node>
	<node lat="65.71152222350842" lon="13.277652785527044" id="-16079">
		<tag k="name" v="Ravassenget" />
		<tag k="place" v="farm" />
		<tag k="ssr:stedsnr" v="926733" />
	</node>
	<node lat="65.76338611120597" lon="13.31643888118367" id="-16081">
		<tag k="alt_name" v="Bjørnålisætra" />
		<tag k="name" v="Bjørnålisetra" />
		<tag k="place" v="isolated_dwelling" />
		<tag k="ssr:stedsnr" v="926674" />
	</node>
	<node lat="65.69087690347884" lon="13.25115592355709" id="-16083">
		<tag k="name" v="Eiterstraumen" />
		<tag k="place" v="farm" />
		<tag k="ssr:stedsnr" v="926696" />
	</node>
	<node lat="65.86657499867496" lon="13.186986120893971" id="-16085">
		<tag k="fixme" v="consider place=suburb, village or hamlet" />
		<tag k="name" v="Kulstadsjøen" />
		<tag k="place" v="quarter" />
		<tag k="ssr:stedsnr" v="926786" />
	</node>
	<node lat="65.70560157715953" lon="13.247182408567289" id="-16086">
		<tag k="fixme" v="consider place=hamlet" />
		<tag k="name" v="Ramnåga" />
		<tag k="place" v="farm" />
		<tag k="ssr:stedsnr" v="926746" />
	</node>
	<node lat="65.91983333292436" lon="13.402616661948848" id="-16090">
		<tag k="name" v="Haganes" />
		<tag k="place" v="farm" />
		<tag k="ssr:stedsnr" v="926895" />
	</node>
	<node lat="65.89910555729001" lon="13.303430546911521" id="-16091">
		<tag k="alt_name" v="Bjørknes, austre" />
		<tag k="name" v="Østre Bjørknes" />
		<tag k="place" v="farm" />
		<tag k="ssr:stedsnr" v="926968" />
	</node>
	<node lat="65.89575277774787" lon="13.276533334154772" id="-16093">
		<tag k="alt_name" v="Jaren" />
		<tag k="name" v="Jalen" />
		<tag k="place" v="farm" />
		<tag k="ssr:stedsnr" v="926972" />
	</node>
	<node lat="65.90849390339511" lon="13.358143162500536" id="-16095">
		<tag k="fixme" v="consider place=hamlet" />
		<tag k="name" v="Aspnes" />
		<tag k="place" v="farm" />
		<tag k="ssr:stedsnr" v="926982" />
	</node>
	<node lat="65.84715833383791" lon="13.19111667335037" id="-16107">
		<tag k="building" v="industrial" />
		<tag k="industrial" v="factory" />
		<tag k="name" v="Aluminiumsverket" />
		<tag k="ssr:stedsnr" v="932581" />
	</node>
	<node lat="65.99235278127816" lon="13.239908337316637" id="-16145">
		<tag k="name" v="Knausen" />
		<tag k="place" v="quarter" />
		<tag k="ssr:stedsnr" v="891424" />
	</node>
	<node lat="65.81261999869555" lon="13.281668136636034" id="-16160">
		<tag k="fixme" v="consider place=hamlet" />
		<tag k="name" v="Mosåsen" />
		<tag k="place" v="farm" />
		<tag k="ssr:stedsnr" v="902604" />
	</node>
	<node lat="66.13339722261364" lon="13.527822224056136" id="-16163">
		<tag k="name" v="Krestenheimen" />
		<tag k="place" v="locality" />
		<tag k="ssr:stedsnr" v="905314" />
	</node>
	<node lat="65.63042099896587" lon="13.156087736885517" id="-16180">
		<tag k="name" v="Myrvang" />
		<tag k="place" v="farm" />
		<tag k="ssr:stedsnr" v="908751" />
	</node>
	<node lat="65.90347777389361" lon="13.189474990300669" id="-16187">
		<tag k="name" v="Romstad" />
		<tag k="place" v="farm" />
		<tag k="ssr:stedsnr" v="925213" />
	</node>
	<node lat="66.09209498302195" lon="13.555245542881726" id="-16191">
		<tag k="alt_name" v="Kobhaug" />
		<tag k="fixme" v="consider place=hamlet" />
		<tag k="name" v="Kobhaugen" />
		<tag k="place" v="farm" />
		<tag k="ssr:stedsnr" v="925328" />
	</node>
	<node lat="66.02685555849749" lon="13.498005551574359" id="-16196">
		<tag k="name" v="Skjulenga" />
		<tag k="place" v="farm" />
		<tag k="ssr:stedsnr" v="925697" />
	</node>
	<node lat="65.91272499764239" lon="12.924605554714347" id="-16202">
		<tag k="alt_name" v="Sørgård" />
		<tag k="name" v="Sørgarden" />
		<tag k="place" v="farm" />
		<tag k="ssr:stedsnr" v="926217" />
	</node>
	<node lat="65.86189444186725" lon="12.75574166762523" id="-16204">
		<tag k="name" v="Erikmoen" />
		<tag k="place" v="farm" />
		<tag k="ssr:stedsnr" v="926226" />
	</node>
	<node lat="66.06952777868955" lon="13.545152776879426" id="-16206">
		<tag k="alt_name" v="Forsmo" />
		<tag k="fixme" v="consider place=hamlet" />
		<tag k="name" v="Forsmoen" />
		<tag k="place" v="farm" />
		<tag k="ssr:stedsnr" v="926270" />
	</node>
	<node lat="66.03029369806936" lon="13.570002220119225" id="-16209">
		<tag k="alt_name" v="Bjerknesli" />
		<tag k="fixme" v="consider place=hamlet" />
		<tag k="name" v="Bjerkneslia" />
		<tag k="place" v="farm" />
		<tag k="ssr:stedsnr" v="926317" />
	</node>
	<node lat="65.94225555956498" lon="13.412783343382399" id="-16226">
		<tag k="alt_name" v="Granhaug" />
		<tag k="name" v="Granhaugen" />
		<tag k="place" v="farm" />
		<tag k="ssr:stedsnr" v="926926" />
	</node>
	<node lat="65.62195277515963" lon="13.100055559366632" id="-16230">
		<tag k="historic" v="shieling" />
		<tag k="name" v="Skjørlægdsætra" />
		<tag k="place" v="isolated_dwelling" />
		<tag k="ssr:stedsnr" v="926818" />
	</node>
	<node lat="65.97552500412021" lon="13.379641664930807" id="-16231">
		<tag k="alt_name" v="Uren" />
		<tag k="fixme" v="consider place=hamlet" />
		<tag k="name" v="Trollåsurda" />
		<tag k="place" v="farm" />
		<tag k="ssr:stedsnr" v="926819" />
	</node>
	<node lat="65.97871683066717" lon="13.227306565477827" id="-16232">
		<tag k="fixme" v="consider place=hamlet" />
		<tag k="name" v="Lamoen" />
		<tag k="place" v="farm" />
		<tag k="ssr:stedsnr" v="926825" />
	</node>
	<node lat="65.92053888880912" lon="13.281188890415008" id="-16237">
		<tag k="name" v="Husremma" />
		<tag k="place" v="farm" />
		<tag k="ssr:stedsnr" v="926875" />
	</node>
	<node lat="65.87348135917438" lon="13.453342514900054" id="-16239">
		<tag k="alt_name" v="Høgrem" />
		<tag k="fixme" v="consider place=hamlet" />
		<tag k="name" v="Høgremma" />
		<tag k="place" v="farm" />
		<tag k="ssr:stedsnr" v="926960" />
	</node>
	<node lat="65.92474722594089" lon="12.722833344320675" id="-16240">
		<tag k="alt_name" v="Høgremme" />
		<tag k="name" v="Høgremma" />
		<tag k="place" v="farm" />
		<tag k="ssr:stedsnr" v="936236" />
	</node>
	<node lat="65.9305944029785" lon="13.1468871697232" id="-16261">
		<tag k="fixme" v="consider place=hamlet" />
		<tag k="name" v="Holand" />
		<tag k="place" v="farm" />
		<tag k="ssr:stedsnr" v="939702" />
	</node>
	<node lat="65.92775277754632" lon="12.723183323565541" id="-16320">
		<tag k="name" v="Solheim" />
		<tag k="place" v="farm" />
		<tag k="ssr:stedsnr" v="967945" />
	</node>
	<node lat="65.69123620812857" lon="13.251522109659062" id="-16335">
		<tag k="name" v="Eiterstraumen" />
		<tag k="place" v="hamlet" />
		<tag k="ssr:stedsnr" v="979925" />
	</node>
	<node lat="65.80376477938103" lon="13.238036160401716" id="-16336">
		<tag k="fixme" v="consider place=hamlet" />
		<tag k="name" v="Bjørnådalen" />
		<tag k="place" v="village" />
		<tag k="ssr:stedsnr" v="979933" />
	</node>
	<node lat="65.85690633974328" lon="12.928821411858406" id="-16339">
		<tag k="name" v="Hundålvatnet" />
		<tag k="place" v="locality" />
		<tag k="ssr:stedsnr" v="990820" />
	</node>
	<node lat="65.74649931471532" lon="13.004743386028117" id="-16340">
		<tag k="name" v="Sørvassdalen" />
		<tag k="place" v="locality" />
		<tag k="ssr:stedsnr" v="990821" />
	</node>
	<node lat="65.82842798319285" lon="13.216166319272322" id="-16341">
		<tag k="name" v="Mo" />
		<tag k="place" v="locality" />
		<tag k="ssr:stedsnr" v="990942" />
	</node>
	<node lat="65.8978412090921" lon="13.29767698230717" id="-16342">
		<tag k="fixme" v="consider place=hamlet" />
		<tag k="name" v="Bjørknes" />
		<tag k="place" v="farm" />
		<tag k="ssr:stedsnr" v="990945" />
	</node>
	<node lat="66.00128589758118" lon="13.297823778728585" id="-16343">
		<tag k="name" v="Østerparten" />
		<tag k="place" v="farm" />
		<tag k="ssr:stedsnr" v="990981" />
	</node>
	<node lat="65.99337398740678" lon="13.252890380112188" id="-16344">
		<tag k="fixme" v="consider place=hamlet" />
		<tag k="name" v="Kommerneset" />
		<tag k="place" v="farm" />
		<tag k="ssr:stedsnr" v="990982" />
	</node>
	<node lat="65.9789241108395" lon="13.209664921055742" id="-16345">
		<tag k="fixme" v="consider place=hamlet" />
		<tag k="name" v="Granmoen" />
		<tag k="place" v="farm" />
		<tag k="ssr:stedsnr" v="990983" />
	</node>
	<node lat="66.09171666746686" lon="13.547649993828962" id="-16376">
		<tag k="alt_name" v="Sagmoen" />
		<tag k="name" v="Sagmo" />
		<tag k="place" v="farm" />
		<tag k="ssr:stedsnr" v="15342" />
	</node>
	<node lat="65.93686389282124" lon="12.715350011029994" id="-16377">
		<tag k="name" v="Neset" />
		<tag k="place" v="farm" />
		<tag k="ssr:stedsnr" v="15351" />
	</node>
	<node lat="65.93626110796775" lon="13.1983027844717" id="-16381">
		<tag k="name" v="Granåsen" />
		<tag k="place" v="locality" />
		<tag k="ssr:stedsnr" v="15189" />
	</node>
	<node lat="65.81203333338323" lon="12.66963055534828" id="-16382">
		<tag k="name" v="Naustneset" />
		<tag k="place" v="farm" />
		<tag k="ssr:stedsnr" v="15023" />
	</node>
	<node lat="66.05449999531804" lon="13.694150010054663" id="-16394">
		<tag k="name" v="Utsikten" />
		<tag k="place" v="neighbourhood" />
		<tag k="ssr:stedsnr" v="15390" />
	</node>
	<node lat="66.06042221771922" lon="13.436094450072227" id="-16395">
		<tag k="name" v="Sletta" />
		<tag k="place" v="farm" />
		<tag k="ssr:stedsnr" v="15398" />
	</node>
	<node lat="66.12789722193884" lon="13.586530553459182" id="-16399">
		<tag k="name" v="Åkermoen" />
		<tag k="place" v="farm" />
		<tag k="ssr:stedsnr" v="15484" />
	</node>
	<node lat="65.84082778152857" lon="13.286113894095484" id="-16413">
		<tag k="alt_name" v="Marka, in" />
		<tag k="loc_name" v="Inner-Marka" />
		<tag k="name" v="Indre Marka" />
		<tag k="place" v="hamlet" />
		<tag k="ssr:stedsnr" v="15566" />
	</node>
	<node lat="66.02043333277693" lon="13.593519454419173" id="-16418">
		<tag k="alt_name" v="Brennvolleng" />
		<tag k="name" v="Brennvollenget" />
		<tag k="place" v="farm" />
		<tag k="ssr:stedsnr" v="15687" />
	</node>
	<node lat="65.99347500384069" lon="13.293277775022203" id="-16428">
		<tag k="landuse" v="military" />
		<tag k="name" v="Drevjemoen" />
		<tag k="ssr:stedsnr" v="15871" />
	</node>
	<node lat="65.9910199350319" lon="13.346128023075307" id="-16430">
		<tag k="name" v="Nordmo" />
		<tag k="place" v="farm" />
		<tag k="ssr:stedsnr" v="15876" />
	</node>
	<node lat="65.91795000347145" lon="13.263136106495633" id="-16431">
		<tag k="alt_name" v="Nestby" />
		<tag k="name" v="Næstby" />
		<tag k="place" v="farm" />
		<tag k="ssr:stedsnr" v="15882" />
	</node>
	<node lat="65.89387221828174" lon="13.381113878763967" id="-16437">
		<tag k="alt_name" v="Sæterhaugen" />
		<tag k="name" v="Seterhaugen" />
		<tag k="place" v="farm" />
		<tag k="ssr:stedsnr" v="15974" />
	</node>
	<node lat="65.89875020480277" lon="13.364197524334962" id="-16438">
		<tag k="fixme" v="consider place=hamlet" />
		<tag k="name" v="Myrnes" />
		<tag k="place" v="farm" />
		<tag k="ssr:stedsnr" v="15978" />
	</node>
	<node lat="65.91566358583232" lon="13.050277420173124" id="-16443">
		<tag k="fixme" v="consider place=hamlet" />
		<tag k="name" v="Digermulen" />
		<tag k="place" v="farm" />
		<tag k="ssr:stedsnr" v="16144" />
	</node>
	<node lat="66.03412777685386" lon="13.571233335441988" id="-16445">
		<tag k="fixme" v="consider place=hamlet" />
		<tag k="name" v="Luktvassbygda" />
		<tag k="place" v="village" />
		<tag k="ssr:stedsnr" v="16300" />
	</node>
	<node lat="65.75410000287562" lon="13.26930276844599" id="-16448">
		<tag k="name" v="Fridheim" />
		<tag k="place" v="farm" />
		<tag k="ssr:stedsnr" v="16637" />
	</node>
	<node lat="66.09413611325023" lon="13.548216667176085" id="-16468">
		<tag k="alt_name" v="Haugmo" />
		<tag k="name" v="Høgmoen" />
		<tag k="place" v="farm" />
		<tag k="ssr:stedsnr" v="25762" />
	</node>
	<node lat="66.02686130073633" lon="13.497689228467443" id="-16478">
		<tag k="name" v="Nordeng" />
		<tag k="place" v="farm" />
		<tag k="ssr:stedsnr" v="29133" />
	</node>
	<node lat="65.8710527819804" lon="13.210691666876762" id="-16485">
		<tag k="name" v="Hægervollen" />
		<tag k="place" v="farm" />
		<tag k="ssr:stedsnr" v="29270" />
	</node>
	<node lat="65.79934722513191" lon="13.202975001749959" id="-16508">
		<tag k="name" v="Osheim" />
		<tag k="place" v="farm" />
		<tag k="ssr:stedsnr" v="29903" />
	</node>
	<node lat="65.98825277604088" lon="13.256566664998747" id="-16509">
		<tag k="name" v="Remman" />
		<tag k="place" v="isolated_dwelling" />
		<tag k="ssr:stedsnr" v="29910" />
	</node>
	<node lat="65.92395555452562" lon="12.72565277598536" id="-16516">
		<tag k="name" v="Joremma" />
		<tag k="place" v="farm" />
		<tag k="ssr:stedsnr" v="32553" />
	</node>
	<node lat="65.54702500190454" lon="13.160741661515988" id="-16526">
		<tag k="fixme" v="consider tourism=alpine_hut or tourism=chalet" />
		<tag k="name" v="Sirijordburet" />
		<tag k="ssr:stedsnr" v="40546" />
		<tag k="tourism" v="wilderness_hut" />
	</node>
	<node lat="65.92528871746303" lon="13.137796565752636" id="-16550">
		<tag k="name" v="Fallet" />
		<tag k="place" v="farm" />
		<tag k="ssr:stedsnr" v="56435" />
	</node>
	<node lat="65.91155832950247" lon="12.743822214980149" id="-16565">
		<tag k="name" v="Slåttbakken" />
		<tag k="place" v="farm" />
		<tag k="ssr:stedsnr" v="57996" />
	</node>
	<node lat="66.0761555583254" lon="13.556497228408073" id="-16588">
		<tag k="name" v="Storvollmoen" />
		<tag k="place" v="farm" />
		<tag k="ssr:stedsnr" v="76273" />
	</node>
	<node lat="65.90783926931503" lon="12.903981877866697" id="-16595">
		<tag k="fixme" v="consider place=hamlet" />
		<tag k="name" v="Kleiva" />
		<tag k="place" v="farm" />
		<tag k="ssr:stedsnr" v="76232" />
	</node>
	<node lat="65.86535000088831" lon="12.894838897311256" id="-16597">
		<tag k="name" v="Valsetra" />
		<tag k="place" v="locality" />
		<tag k="ssr:stedsnr" v="76242" />
	</node>
	<node lat="66.02647947911684" lon="13.296844331177532" id="-16598">
		<tag k="alt_name" v="Gullmo" />
		<tag k="fixme" v="consider place=hamlet" />
		<tag k="name" v="Gullmoen" />
		<tag k="place" v="farm" />
		<tag k="ssr:stedsnr" v="76327" />
	</node>
	<node lat="66.06560996361831" lon="13.442544443060477" id="-16603">
		<tag k="fixme" v="consider place=hamlet" />
		<tag k="name" v="Drevvatnet" />
		<tag k="place" v="farm" />
		<tag k="ssr:stedsnr" v="76283" />
	</node>
	<node lat="66.04881111556537" lon="13.353702776233046" id="-16608">
		<tag k="name" v="Båthaugen" />
		<tag k="place" v="farm" />
		<tag k="ssr:stedsnr" v="76388" />
	</node>
	<node lat="66.05182980750673" lon="13.576966051734077" id="-16610">
		<tag k="name" v="Andnes" />
		<tag k="place" v="farm" />
		<tag k="ssr:stedsnr" v="76395" />
	</node>
	<node lat="66.14923055154951" lon="13.481258322655576" id="-16617">
		<tag k="name" v="Bukkstigen" />
		<tag k="place" v="locality" />
		<tag k="ssr:stedsnr" v="76495" />
	</node>
	<node lat="65.83127351697428" lon="13.36079981453577" id="-16626">
		<tag k="fixme" v="consider place=hamlet" />
		<tag k="name" v="Tuven" />
		<tag k="place" v="farm" />
		<tag k="ssr:stedsnr" v="76532" />
	</node>
	<node lat="65.8237222228222" lon="13.269900010331472" id="-16627">
		<tag k="name" v="Forshaugen" />
		<tag k="place" v="farm" />
		<tag k="ssr:stedsnr" v="76544" />
	</node>
	<node lat="65.81010555307601" lon="13.565141669240507" id="-16628">
		<tag k="name" v="Lia" />
		<tag k="place" v="farm" />
		<tag k="ssr:stedsnr" v="76631" />
	</node>
	<node lat="66.00952115718125" lon="13.443002069543901" id="-16630">
		<tag k="fixme" v="consider place=hamlet" />
		<tag k="name" v="Hatten" />
		<tag k="place" v="farm" />
		<tag k="ssr:stedsnr" v="76637" />
	</node>
	<node lat="66.00622552072224" lon="13.588934890158574" id="-16633">
		<tag k="fixme" v="consider place=hamlet" />
		<tag k="name" v="Kjerringhalsen" />
		<tag k="place" v="farm" />
		<tag k="ssr:stedsnr" v="76644" />
	</node>
	<node lat="65.72120042642483" lon="13.294725733731816" id="-16636">
		<tag k="alt_name" v="Ravatn" />
		<tag k="fixme" v="consider place=hamlet" />
		<tag k="name" v="Ravatnet" />
		<tag k="place" v="farm" />
		<tag k="ssr:stedsnr" v="76729" />
	</node>
	<node lat="65.92089685554612" lon="13.376917339421047" id="-16643">
		<tag k="alt_name" v="Storvik" />
		<tag k="fixme" v="consider place=hamlet" />
		<tag k="name" v="Storvika" />
		<tag k="place" v="farm" />
		<tag k="ssr:stedsnr" v="76890" />
	</node>
	<node lat="65.90476859669636" lon="13.438962302514634" id="-16644">
		<tag k="alt_name" v="Lillesmedseng" />
		<tag k="fixme" v="consider place=hamlet" />
		<tag k="name" v="Litlsmedseng" />
		<tag k="place" v="farm" />
		<tag k="ssr:stedsnr" v="76975" />
	</node>
	<node lat="65.89702684097304" lon="13.46005925503453" id="-16646">
		<tag k="alt_name" v="Brekken" />
		<tag k="fixme" v="consider place=hamlet" />
		<tag k="name" v="Brekka" />
		<tag k="place" v="farm" />
		<tag k="ssr:stedsnr" v="76993" />
	</node>
	<node lat="65.629200002937" lon="13.148841662887158" id="-16648">
		<tag k="name" v="Granheim" />
		<tag k="place" v="farm" />
		<tag k="ssr:stedsnr" v="76821" />
	</node>
	<node lat="65.96855078348182" lon="13.430586019703103" id="-16649">
		<tag k="fixme" v="consider place=hamlet" />
		<tag k="name" v="Mjåvatnet" />
		<tag k="place" v="farm" />
		<tag k="ssr:stedsnr" v="76825" />
	</node>
	<node lat="65.63990000089322" lon="13.115901167410085" id="-16651">
		<tag k="name" v="Eiteråfjellet" />
		<tag k="place" v="locality" />
		<tag k="ssr:stedsnr" v="76832" />
	</node>
	<node lat="65.88044444570171" lon="13.46587222672716" id="-16656">
		<tag k="name" v="Straumsenget" />
		<tag k="place" v="farm" />
		<tag k="ssr:stedsnr" v="76932" />
	</node>
	<node lat="65.91792500346403" lon="13.148069435629397" id="-16665">
		<tag k="name" v="Naustbakken" />
		<tag k="place" v="farm" />
		<tag k="ssr:stedsnr" v="86270" />
	</node>
	<node lat="65.90541944712452" lon="13.174005564036054" id="-16666">
		<tag k="name" v="Skarpvold" />
		<tag k="place" v="farm" />
		<tag k="ssr:stedsnr" v="86271" />
	</node>
	<node lat="65.85890555657085" lon="13.273822232819695" id="-16704">
		<tag k="name" v="Remman" />
		<tag k="place" v="farm" />
		<tag k="ssr:stedsnr" v="90561" />
	</node>
	<node lat="65.86678889077604" lon="13.188724997850386" id="-16743">
		<tag k="name" v="Kulstadlia" />
		<tag k="place" v="quarter" />
		<tag k="ssr:stedsnr" v="102454" />
	</node>
	<node lat="65.86693333446956" lon="13.310027785020779" id="-16760">
		<tag k="name" v="Haugsetra" />
		<tag k="place" v="locality" />
		<tag k="ssr:stedsnr" v="103181" />
	</node>
	<node lat="65.90118889202589" lon="12.810038881911778" id="-16790">
		<tag k="name" v="Vollan" />
		<tag k="place" v="farm" />
		<tag k="ssr:stedsnr" v="118918" />
	</node>
	<node lat="65.89938333700964" lon="12.765094441246859" id="-16791">
		<tag k="name" v="Nyrud" />
		<tag k="place" v="farm" />
		<tag k="ssr:stedsnr" v="118979" />
	</node>
	<node lat="65.93362222655017" lon="12.712874991034715" id="-16796">
		<tag k="name" v="Nerigård" />
		<tag k="place" v="farm" />
		<tag k="ssr:stedsnr" v="118964" />
	</node>
	<node lat="65.83258055364921" lon="13.204402771774088" id="-16809">
		<tag k="building" v="industrial" />
		<tag k="industrial" v="factory" />
		<tag k="name" v="Nord-Norges Salgslag" />
		<tag k="ssr:stedsnr" v="120538" />
	</node>
	<node lat="66.10008055136038" lon="13.556227775151669" id="-16816">
		<tag k="name" v="Fagerheim" />
		<tag k="place" v="farm" />
		<tag k="ssr:stedsnr" v="136330" />
	</node>
	<node lat="66.07214721904923" lon="13.446974995510915" id="-16818">
		<tag k="name" v="Skogly" />
		<tag k="place" v="farm" />
		<tag k="ssr:stedsnr" v="136337" />
	</node>
	<node lat="65.95270336116509" lon="12.899874332964636" id="-16820">
		<tag k="fixme" v="consider place=hamlet" />
		<tag k="name" v="Grønvika" />
		<tag k="place" v="farm" />
		<tag k="ssr:stedsnr" v="136178" />
	</node>
	<node lat="65.87563881604416" lon="12.74120719698313" id="-16826">
		<tag k="fixme" v="multiple name tags, choose one and add the other to alt_name; consider place=hamlet" />
		<tag k="name" v="Laksjorda;Furumoen" />
		<tag k="place" v="farm" />
		<tag k="ssr:stedsnr" v="136289" />
	</node>
	<node lat="66.06536388595588" lon="13.389525002290888" id="-16827">
		<tag k="fixme" v="consider place=hamlet" />
		<tag k="name" v="Drevvassbukta" />
		<tag k="place" v="village" />
		<tag k="ssr:stedsnr" v="136290" />
	</node>
	<node lat="65.77265277626452" lon="13.217202787773331" id="-16840">
		<tag k="name" v="Aufles" />
		<tag k="place" v="farm" />
		<tag k="ssr:stedsnr" v="136869" />
	</node>
	<node lat="65.99157499598444" lon="13.479286119846233" id="-16841">
		<tag k="alt_name" v="Nævervegsætra" />
		<tag k="historic" v="shieling" />
		<tag k="name" v="Nevervegsætra" />
		<tag k="place" v="isolated_dwelling" />
		<tag k="ssr:stedsnr" v="136877" />
	</node>
	<node lat="65.7894805590011" lon="13.29412223195951" id="-16853">
		<tag k="alt_name" v="Bjørnåsætra" />
		<tag k="historic" v="shieling" />
		<tag k="name" v="Bjørnåsetra" />
		<tag k="place" v="isolated_dwelling" />
		<tag k="ssr:stedsnr" v="136624" />
	</node>
	<node lat="66.01784166241914" lon="13.452019453176137" id="-16855">
		<tag k="name" v="Myrbakken" />
		<tag k="place" v="farm" />
		<tag k="ssr:stedsnr" v="136644" />
	</node>
	<node lat="66.01668888693584" lon="13.284124995269636" id="-16856">
		<tag k="name" v="Larem" />
		<tag k="place" v="farm" />
		<tag k="ssr:stedsnr" v="136377" />
	</node>
	<node lat="66.01846389073745" lon="13.288791669843562" id="-16857">
		<tag k="name" v="Åsheim" />
		<tag k="place" v="farm" />
		<tag k="ssr:stedsnr" v="136380" />
	</node>
	<node lat="65.83814166768609" lon="12.693880555508338" id="-16863">
		<tag k="name" v="Hestdalssjøen" />
		<tag k="place" v="farm" />
		<tag k="ssr:stedsnr" v="136475" />
	</node>
	<node lat="65.62811109903102" lon="13.160630647249794" id="-16871">
		<tag k="fixme" v="consider place=hamlet" />
		<tag k="name" v="Lia" />
		<tag k="place" v="farm" />
		<tag k="ssr:stedsnr" v="136833" />
	</node>
	<node lat="65.62541110876067" lon="13.060361108019913" id="-16872">
		<tag k="historic" v="shieling" />
		<tag k="name" v="Fjellsætra" />
		<tag k="place" v="isolated_dwelling" />
		<tag k="ssr:stedsnr" v="136837" />
	</node>
	<node lat="65.7295310619059" lon="13.290367910225825" id="-16874">
		<tag k="alt_name" v="Ravassås" />
		<tag k="fixme" v="consider place=hamlet" />
		<tag k="name" v="Ravassåsen" />
		<tag k="place" v="farm" />
		<tag k="ssr:stedsnr" v="136745" />
	</node>
	<node lat="65.50470833607741" lon="13.235011121566117" id="-16877">
		<tag k="name" v="Stavvassætra" />
		<tag k="old_name" v="Stavassætra" />
		<tag k="place" v="locality" />
		<tag k="ssr:stedsnr" v="137341" />
	</node>
	<node lat="65.80331961939743" lon="12.961926713425601" id="-16884">
		<tag k="name" v="Bjørnvollen" />
		<tag k="place" v="locality" />
		<tag k="ssr:stedsnr" v="141531" />
	</node>
	<node lat="65.90819722201685" lon="13.171391665772507" id="-16889">
		<tag k="name" v="Stranda" />
		<tag k="place" v="farm" />
		<tag k="ssr:stedsnr" v="146233" />
	</node>
	<node lat="65.84352499783773" lon="13.200155554990767" id="-16890">
		<tag k="name" v="Alfheimsjøen" />
		<tag k="place" v="farm" />
		<tag k="ssr:stedsnr" v="146241" />
	</node>
	<node lat="66.10402238598019" lon="13.544557015783086" id="-16891">
		<tag k="fixme" v="consider place=hamlet" />
		<tag k="name" v="Elsfjord" />
		<tag k="place" v="farm" />
		<tag k="ssr:stedsnr" v="146743" />
	</node>
	<node lat="65.8899583300457" lon="13.074241657008038" id="-16892">
		<tag k="name" v="Yttervika" />
		<tag k="place" v="farm" />
		<tag k="ssr:stedsnr" v="147460" />
	</node>
	<node lat="65.83496666905259" lon="12.678813878946222" id="-16909">
		<tag k="name" v="Nordvika" />
		<tag k="place" v="farm" />
		<tag k="ssr:stedsnr" v="150585" />
	</node>
	<node lat="65.85983055862734" lon="13.211766677252353" id="-16929">
		<tag k="name" v="Kjølen" />
		<tag k="place" v="farm" />
		<tag k="ssr:stedsnr" v="154240" />
	</node>
	<node lat="66.07854166406104" lon="13.46612222399886" id="-17020">
		<tag k="name" v="Nordåsen" />
		<tag k="place" v="farm" />
		<tag k="ssr:stedsnr" v="197292" />
	</node>
	<node lat="65.89215519367423" lon="12.738340478051148" id="-17025">
		<tag k="alt_name" v="Øyjord" />
		<tag k="fixme" v="consider place=hamlet" />
		<tag k="name" v="Øyjorda" />
		<tag k="place" v="farm" />
		<tag k="ssr:stedsnr" v="197232" />
	</node>
	<node lat="65.78608888659964" lon="13.272013878491558" id="-17040">
		<tag k="name" v="Solnør" />
		<tag k="place" v="farm" />
		<tag k="ssr:stedsnr" v="197633" />
	</node>
	<node lat="65.80393055303078" lon="13.479111118517668" id="-17044">
		<tag k="alt_name" v="Kalvmonessætra" />
		<tag k="name" v="Kalvmonessetra" />
		<tag k="place" v="locality" />
		<tag k="ssr:stedsnr" v="197653" />
	</node>
	<node lat="65.8137942645514" lon="13.221427397053256" id="-17050">
		<tag k="name" v="Skog" />
		<tag k="place" v="hamlet" />
		<tag k="ssr:stedsnr" v="197787" />
	</node>
	<node lat="65.98103242223216" lon="13.230665104707208" id="-17061">
		<tag k="fixme" v="consider place=hamlet" />
		<tag k="name" v="Almåsen" />
		<tag k="place" v="farm" />
		<tag k="ssr:stedsnr" v="197830" />
	</node>
	<node lat="65.88975000402101" lon="13.345163892806621" id="-17066">
		<tag k="alt_name" v="Risnessætra" />
		<tag k="historic" v="shieling" />
		<tag k="name" v="Risnessetra" />
		<tag k="place" v="isolated_dwelling" />
		<tag k="ssr:stedsnr" v="197995" />
	</node>
	<node lat="65.92179252559397" lon="13.145919014100578" id="-17072">
		<tag k="fixme" v="consider place=hamlet" />
		<tag k="name" v="Lindset" />
		<tag k="place" v="farm" />
		<tag k="ssr:stedsnr" v="198150" />
	</node>
	<node lat="66.04322741925726" lon="13.622374805336731" id="-17074">
		<tag k="alt_name" v="Knutli" />
		<tag k="fixme" v="consider place=hamlet" />
		<tag k="name" v="Knutlia" />
		<tag k="place" v="farm" />
		<tag k="ssr:stedsnr" v="198278" />
	</node>
	<node lat="66.03362222695615" lon="13.332241657768316" id="-17075">
		<tag k="name" v="Rognryggmo" />
		<tag k="place" v="farm" />
		<tag k="ssr:stedsnr" v="198279" />
	</node>
	<node lat="66.04215622803046" lon="13.541769574725176" id="-17076">
		<tag k="fixme" v="consider place=hamlet" />
		<tag k="name" v="Luktvasshøvet" />
		<tag k="old_name" v="Vasshaugen;Vatshaug;Vashovedet" />
		<tag k="place" v="farm" />
		<tag k="ssr:stedsnr" v="198286" />
	</node>
	<node lat="66.03978333041562" lon="13.51288333558295" id="-17077">
		<tag k="alt_name" v="Myrenga" />
		<tag k="name" v="Myreng" />
		<tag k="place" v="farm" />
		<tag k="ssr:stedsnr" v="198289" />
	</node>
	<node lat="65.91765546888259" lon="13.415447074395999" id="-17088">
		<tag k="fixme" v="consider place=hamlet" />
		<tag k="name" v="Storsmedseng" />
		<tag k="place" v="farm" />
		<tag k="ssr:stedsnr" v="198893" />
	</node>
	<node lat="65.92604975944629" lon="13.39646069780421" id="-17089">
		<tag k="fixme" v="consider place=hamlet" />
		<tag k="name" v="Sletta" />
		<tag k="place" v="farm" />
		<tag k="ssr:stedsnr" v="198897" />
	</node>
	<node lat="65.88033888680393" lon="13.187538881187642" id="-17092">
		<tag k="name" v="Leivstad" />
		<tag k="place" v="farm" />
		<tag k="ssr:stedsnr" v="202518" />
	</node>
	<node lat="65.93798333601217" lon="13.10491110322271" id="-17095">
		<tag k="name" v="Klipo" />
		<tag k="place" v="farm" />
		<tag k="ssr:stedsnr" v="204565" />
	</node>
	<node lat="65.83321467858431" lon="13.201420074093381" id="-17097">
		<tag k="building" v="industrial" />
		<tag k="industrial" v="factory" />
		<tag k="name" v="Meieriet Nord" />
		<tag k="ssr:stedsnr" v="204577" />
	</node>
	<node lat="66.11531111525677" lon="13.53571111992309" id="-17099">
		<tag k="name" v="Bakken" />
		<tag k="place" v="farm" />
		<tag k="ssr:stedsnr" v="207739" />
	</node>
	<node lat="65.94305277834128" lon="13.06479445136887" id="-17100">
		<tag k="name" v="Utnessetra" />
		<tag k="place" v="farm" />
		<tag k="ssr:stedsnr" v="208495" />
	</node>
	<node lat="66.10738055434342" lon="13.54714166872227" id="-17140">
		<tag k="name" v="Neshaug" />
		<tag k="place" v="farm" />
		<tag k="ssr:stedsnr" v="213118" />
	</node>
	<node lat="65.78512222618936" lon="13.572313893615515" id="-17149">
		<tag k="name" v="Gammelsetra" />
		<tag k="place" v="locality" />
		<tag k="ssr:stedsnr" v="222379" />
	</node>
	<node lat="65.86178888790784" lon="13.187849992575845" id="-17153">
		<tag k="name" v="Halsøya" />
		<tag k="place" v="quarter" />
		<tag k="ssr:stedsnr" v="222347" />
	</node>
	<node lat="65.87238611281796" lon="13.186288891655366" id="-17172">
		<tag k="name" v="Rynesåsen" />
		<tag k="place" v="quarter" />
		<tag k="ssr:stedsnr" v="224369" />
	</node>
	<node lat="65.50639694641626" lon="13.236514044220108" id="-17210">
		<tag k="fixme" v="consider tourism=alpine_hut or tourism=chalet" />
		<tag k="name" v="Stavvassætra" />
		<tag k="ssr:stedsnr" v="283796" />
		<tag k="tourism" v="wilderness_hut" />
	</node>
	<node lat="65.72298333652002" lon="13.31156943986361" id="-17213">
		<tag k="historic" v="shieling" />
		<tag k="name" v="Ravassetra" />
		<tag k="place" v="isolated_dwelling" />
		<tag k="ssr:stedsnr" v="284241" />
	</node>
	<node lat="65.77713333107947" lon="13.213549997249345" id="-17265">
		<tag k="name" v="Aufles" />
		<tag k="place" v="farm" />
		<tag k="ssr:stedsnr" v="302453" />
	</node>
	<node lat="65.80590555819107" lon="13.564813898071604" id="-17272">
		<tag k="name" v="Nergarden" />
		<tag k="place" v="farm" />
		<tag k="ssr:stedsnr" v="318633" />
	</node>
	<node lat="66.07364444277606" lon="13.46198333777428" id="-17277">
		<tag k="name" v="Sagbakken" />
		<tag k="place" v="farm" />
		<tag k="ssr:stedsnr" v="318263" />
	</node>
	<node lat="66.10382778139694" lon="13.506997215745107" id="-17281">
		<tag k="alt_name" v="Flodmo" />
		<tag k="fixme" v="consider place=hamlet" />
		<tag k="name" v="Flotmoen" />
		<tag k="place" v="farm" />
		<tag k="ssr:stedsnr" v="318480" />
	</node>
	<node lat="66.0233132306756" lon="13.513860665435214" id="-17285">
		<tag k="fixme" v="consider place=hamlet" />
		<tag k="name" v="Kammen" />
		<tag k="place" v="farm" />
		<tag k="ssr:stedsnr" v="318669" />
	</node>
	<node lat="65.76326776947673" lon="13.303936058778998" id="-17295">
		<tag k="alt_name" v="Bjørnåli" />
		<tag k="fixme" v="consider place=hamlet" />
		<tag k="name" v="Bjørnålia" />
		<tag k="place" v="farm" />
		<tag k="ssr:stedsnr" v="319670" />
	</node>
	<node lat="65.75742778145428" lon="13.302591659217644" id="-17296">
		<tag k="alt_name" v="Dalsætra" />
		<tag k="name" v="Dalsetra" />
		<tag k="place" v="isolated_dwelling" />
		<tag k="ssr:stedsnr" v="319672" />
	</node>
	<node lat="65.99986522484761" lon="13.299420461990191" id="-17302">
		<tag k="fixme" v="consider place=hamlet" />
		<tag k="name" v="Blåfjellet" />
		<tag k="place" v="farm" />
		<tag k="ssr:stedsnr" v="318872" />
	</node>
	<node lat="65.99190524436627" lon="13.235403927008154" id="-17303">
		<tag k="fixme" v="consider place=hamlet" />
		<tag k="name" v="Båtstrand" />
		<tag k="place" v="farm" />
		<tag k="ssr:stedsnr" v="318876" />
	</node>
	<node lat="65.9347401224333" lon="13.082852156359666" id="-17308">
		<tag k="fixme" v="consider place=hamlet" />
		<tag k="name" v="Utnes" />
		<tag k="place" v="farm" />
		<tag k="ssr:stedsnr" v="319128" />
	</node>
	<node lat="65.85678888728674" lon="13.251552787088949" id="-17314">
		<tag k="name" v="Skogen" />
		<tag k="place" v="farm" />
		<tag k="ssr:stedsnr" v="318970" />
	</node>
	<node lat="65.8650632733377" lon="13.266368793277937" id="-17316">
		<tag k="fixme" v="consider place=hamlet" />
		<tag k="name" v="Ålbotsjorda" />
		<tag k="place" v="farm" />
		<tag k="ssr:stedsnr" v="318973" />
	</node>
	<node lat="66.13590881766805" lon="13.58661155282905" id="-17322">
		<tag k="alt_name" v="Myrvik" />
		<tag k="fixme" v="consider place=hamlet" />
		<tag k="name" v="Myrvika" />
		<tag k="place" v="farm" />
		<tag k="ssr:stedsnr" v="319483" />
	</node>
	<node lat="65.925624998036" lon="13.286727776537132" id="-17337">
		<tag k="alt_name" v="Lia" />
		<tag k="fixme" v="multiple name tags, choose one and add the other to alt_name" />
		<tag k="name" v="Oppgarden;Lien" />
		<tag k="place" v="farm" />
		<tag k="ssr:stedsnr" v="319873" />
	</node>
	<node lat="65.94604746120892" lon="13.417602201941758" id="-17338">
		<tag k="alt_name" v="Sovarnes" />
		<tag k="fixme" v="consider place=hamlet" />
		<tag k="name" v="Sovarneset" />
		<tag k="place" v="farm" />
		<tag k="ssr:stedsnr" v="319913" />
	</node>
	<node lat="65.9867611077768" lon="13.35652777518424" id="-17344">
		<tag k="name" v="Nordbu" />
		<tag k="place" v="farm" />
		<tag k="ssr:stedsnr" v="319800" />
	</node>
	<node lat="65.89858530335233" lon="13.314392196041359" id="-17346">
		<tag k="fixme" v="consider place=hamlet" />
		<tag k="name" v="Risnes" />
		<tag k="place" v="farm" />
		<tag k="ssr:stedsnr" v="319980" />
	</node>
	<node lat="65.89520278127803" lon="13.267566672707751" id="-17347">
		<tag k="name" v="Gløsen" />
		<tag k="place" v="farm" />
		<tag k="ssr:stedsnr" v="319982" />
	</node>
	<node lat="66.14261666669226" lon="13.547100006235809" id="-17353">
		<tag k="name" v="Storskjærsletten" />
		<tag k="place" v="farm" />
		<tag k="ssr:stedsnr" v="328729" />
	</node>
	<node lat="65.949497225259" lon="13.131530555612514" id="-17356">
		<tag k="name" v="Jonsrud" />
		<tag k="place" v="farm" />
		<tag k="ssr:stedsnr" v="329284" />
	</node>
	<node lat="65.80816389277959" lon="13.163161104402652" id="-17360">
		<tag k="historic" v="shieling" />
		<tag k="name" v="Ettersetra" />
		<tag k="place" v="isolated_dwelling" />
		<tag k="ssr:stedsnr" v="332228" />
	</node>
	<node lat="65.82790277412244" lon="13.199144442198909" id="-17383">
		<tag k="loc_name" v="Daneljorda" />
		<tag k="name" v="Danieljordet" />
		<tag k="place" v="suburb" />
		<tag k="ssr:stedsnr" v="332924" />
	</node>
	<node lat="65.94578659406682" lon="13.144281931495465" id="-17429">
		<tag k="fixme" v="consider place=hamlet" />
		<tag k="name" v="Nyland" />
		<tag k="place" v="farm" />
		<tag k="ssr:stedsnr" v="345378" />
	</node>
	<node lat="65.63669166247003" lon="13.154394454476854" id="-17484">
		<tag k="name" v="Gammelsetra" />
		<tag k="place" v="locality" />
		<tag k="ssr:stedsnr" v="362731" />
	</node>
	<node lat="66.03326110737991" lon="13.311499993633245" id="-17490">
		<tag k="name" v="Joenget" />
		<tag k="place" v="farm" />
		<tag k="ssr:stedsnr" v="362936" />
	</node>
	<node lat="65.66948227685896" lon="13.155590690210751" id="-17506">
		<tag k="fixme" v="consider place=hamlet" />
		<tag k="name" v="Påljorda" />
		<tag k="place" v="farm" />
		<tag k="ssr:stedsnr" v="379842" />
	</node>
	<node lat="65.67246110731338" lon="13.150388891871634" id="-17507">
		<tag k="alt_name" v="Torejordet" />
		<tag k="name" v="Torjorda" />
		<tag k="place" v="locality" />
		<tag k="ssr:stedsnr" v="379844" />
	</node>
	<node lat="65.92423162739966" lon="12.98522526824249" id="-17510">
		<tag k="fixme" v="consider place=hamlet" />
		<tag k="name" v="Høynesdalen" />
		<tag k="place" v="farm" />
		<tag k="ssr:stedsnr" v="379182" />
	</node>
	<node lat="66.09011944781841" lon="13.47726667704948" id="-17515">
		<tag k="name" v="Kråkstad" />
		<tag k="place" v="farm" />
		<tag k="ssr:stedsnr" v="379282" />
	</node>
	<node lat="65.84642777928973" lon="12.693469440938664" id="-17533">
		<tag k="name" v="Øygården" />
		<tag k="place" v="farm" />
		<tag k="ssr:stedsnr" v="379430" />
	</node>
	<node lat="65.83980555291723" lon="12.604488887749003" id="-17535">
		<tag k="fixme" v="consider place=hamlet" />
		<tag k="name" v="Kjerringvika" />
		<tag k="place" v="farm" />
		<tag k="ssr:stedsnr" v="379436" />
	</node>
	<node lat="65.89485000261215" lon="13.398813892506318" id="-17546">
		<tag k="name" v="Oseng" />
		<tag k="place" v="farm" />
		<tag k="ssr:stedsnr" v="379999" />
	</node>
	<node lat="66.15519068907473" lon="13.560249730822864" id="-17548">
		<tag k="alt_name" v="Fuglestrand;Fuglestranda" />
		<tag k="fixme" v="consider place=hamlet" />
		<tag k="name" v="Fuglstranda" />
		<tag k="place" v="farm" />
		<tag k="ssr:stedsnr" v="379453" />
	</node>
	<node lat="65.83326111187958" lon="13.282644433919128" id="-17549">
		<tag k="name" v="Stormoen" />
		<tag k="place" v="isolated_dwelling" />
		<tag k="ssr:stedsnr" v="379535" />
	</node>
	<node lat="65.85171756478836" lon="13.254291457055258" id="-17550">
		<tag k="fixme" v="consider place=hamlet" />
		<tag k="name" v="Bortigarden" />
		<tag k="place" v="farm" />
		<tag k="ssr:stedsnr" v="379545" />
	</node>
	<node lat="65.85125555975904" lon="13.279308335975069" id="-17551">
		<tag k="amenity" v="school" />
		<tag k="name" v="Vefsn landbruksskole" />
		<tag k="ssr:stedsnr" v="379546" />
	</node>
	<node lat="65.9871069765125" lon="13.376562273409522" id="-17556">
		<tag k="name" v="Sandnes" />
		<tag k="place" v="farm" />
		<tag k="ssr:stedsnr" v="379800" />
	</node>
	<node lat="65.91978610722082" lon="13.279319436414765" id="-17563">
		<tag k="alt_name" v="Utgarden" />
		<tag k="name" v="Utgard" />
		<tag k="place" v="farm" />
		<tag k="ssr:stedsnr" v="379854" />
	</node>
	<node lat="65.8552555574695" lon="13.194905556071909" id="-17568">
		<tag k="name" v="Halsbakken" />
		<tag k="place" v="farm" />
		<tag k="ssr:stedsnr" v="389263" />
	</node>
	<node lat="65.94810833239262" lon="13.055788889465681" id="-17571">
		<tag k="name" v="Utnessetra" />
		<tag k="place" v="farm" />
		<tag k="ssr:stedsnr" v="389494" />
	</node>
	<node lat="65.9668611122089" lon="13.197761119657857" id="-17572">
		<tag k="name" v="Haugen" />
		<tag k="place" v="farm" />
		<tag k="ssr:stedsnr" v="393583" />
	</node>
	<node lat="65.96858889159671" lon="13.208722227765364" id="-17573">
		<tag k="name" v="Haugan" />
		<tag k="place" v="farm" />
		<tag k="ssr:stedsnr" v="393584" />
	</node>
	<node lat="65.84670555783292" lon="13.202636106119126" id="-17579">
		<tag k="name" v="Dolstad" />
		<tag k="place" v="suburb" />
		<tag k="ssr:stedsnr" v="393080" />
	</node>
	<node lat="65.88626003683513" lon="13.193389812984535" id="-17591">
		<tag k="name" v="Aspremma" />
		<tag k="old_name" v="Asremma" />
		<tag k="place" v="farm" />
		<tag k="ssr:stedsnr" v="393387" />
	</node>
	<node lat="65.83890555116199" lon="13.269600000644466" id="-17624">
		<tag k="leisure" v="pitch" />
		<tag k="name" v="Skjåenget travbane" />
		<tag k="ssr:stedsnr" v="406162" />
	</node>
	<node lat="66.05968610814551" lon="13.572288889477612" id="-17646">
		<tag k="fixme" v="consider place=hamlet" />
		<tag k="name" v="Elsfjordosen" />
		<tag k="place" v="farm" />
		<tag k="ssr:stedsnr" v="420328" />
	</node>
	<node lat="65.93578333447306" lon="12.715102782726616" id="-17663">
		<tag k="name" v="Haravollen" />
		<tag k="place" v="farm" />
		<tag k="ssr:stedsnr" v="422973" />
	</node>
	<node lat="65.93380555831912" lon="12.710222222518198" id="-17664">
		<tag k="name" v="Oppigård" />
		<tag k="place" v="farm" />
		<tag k="ssr:stedsnr" v="422977" />
	</node>
	<node lat="65.9128078313214" lon="13.166144536616994" id="-17676">
		<tag k="fixme" v="consider place=hamlet" />
		<tag k="name" v="Søfting" />
		<tag k="place" v="farm" />
		<tag k="ssr:stedsnr" v="440256" />
	</node>
	<node lat="65.89096666783728" lon="13.193999989978959" id="-17677">
		<tag k="fixme" v="consider place=hamlet" />
		<tag k="name" v="Haugberg" />
		<tag k="place" v="farm" />
		<tag k="ssr:stedsnr" v="440270" />
	</node>
	<node lat="66.06605277379472" lon="13.398086108386543" id="-17679">
		<tag k="name" v="Asplia" />
		<tag k="place" v="farm" />
		<tag k="ssr:stedsnr" v="440274" />
	</node>
	<node lat="66.07548055938963" lon="13.458808324134205" id="-17681">
		<tag k="name" v="Enga" />
		<tag k="place" v="farm" />
		<tag k="ssr:stedsnr" v="440287" />
	</node>
	<node lat="66.04356389238515" lon="13.533138889842299" id="-17682">
		<tag k="name" v="Mikkelbakken" />
		<tag k="place" v="isolated_dwelling" />
		<tag k="ssr:stedsnr" v="440355" />
	</node>
	<node lat="65.93220277370551" lon="13.13699166741607" id="-17690">
		<tag k="fixme" v="consider place=hamlet" />
		<tag k="name" v="Holand" />
		<tag k="place" v="village" />
		<tag k="ssr:stedsnr" v="440216" />
	</node>
	<node lat="65.93895833148586" lon="13.140591662068104" id="-17695">
		<tag k="name" v="Myrmoen" />
		<tag k="place" v="farm" />
		<tag k="ssr:stedsnr" v="440232" />
	</node>
	<node lat="66.09836667098158" lon="13.554855555001096" id="-17696">
		<tag k="name" v="Hansmoen" />
		<tag k="place" v="farm" />
		<tag k="ssr:stedsnr" v="440317" />
	</node>
	<node lat="65.82538055689463" lon="13.277813889297963" id="-17697">
		<tag k="name" v="Åslia" />
		<tag k="place" v="farm" />
		<tag k="ssr:stedsnr" v="440528" />
	</node>
	<node lat="66.03636667134428" lon="13.497808327401817" id="-17709">
		<tag k="alt_name" v="Tverråmo" />
		<tag k="name" v="Tverråmoen" />
		<tag k="place" v="farm" />
		<tag k="ssr:stedsnr" v="440373" />
	</node>
	<node lat="66.04410277912115" lon="13.331122223095655" id="-17710">
		<tag k="name" v="Skogly" />
		<tag k="place" v="farm" />
		<tag k="ssr:stedsnr" v="440379" />
	</node>
	<node lat="66.05744166441427" lon="13.43506388108441" id="-17711">
		<tag k="name" v="Skogsrud" />
		<tag k="place" v="farm" />
		<tag k="ssr:stedsnr" v="440385" />
	</node>
	<node lat="65.8440326246088" lon="12.708837741850688" id="-17714">
		<tag k="fixme" v="consider place=hamlet" />
		<tag k="name" v="Hestdalen" />
		<tag k="place" v="farm" />
		<tag k="ssr:stedsnr" v="440457" />
	</node>
	<node lat="65.78651333496019" lon="13.330760008914018" id="-17721">
		<tag k="alt_name" v="Langvatn" />
		<tag k="fixme" v="consider place=hamlet" />
		<tag k="name" v="Langvatnet" />
		<tag k="place" v="farm" />
		<tag k="ssr:stedsnr" v="440576" />
	</node>
	<node lat="65.77832591870606" lon="13.29122024659402" id="-17722">
		<tag k="fixme" v="consider place=hamlet" />
		<tag k="name" v="Langjorda" />
		<tag k="place" v="farm" />
		<tag k="ssr:stedsnr" v="440582" />
	</node>
	<node lat="65.78653267929847" lon="13.171540360754046" id="-17732">
		<tag k="fixme" v="consider place=hamlet" />
		<tag k="name" v="Tverråga" />
		<tag k="place" v="farm" />
		<tag k="ssr:stedsnr" v="440843" />
	</node>
	<node lat="65.86202265854321" lon="13.471125925788215" id="-17737">
		<tag k="fixme" v="consider place=hamlet" />
		<tag k="loc_name:sma" v="Heerrege" />
		<tag k="name" v="Herringen" />
		<tag k="name:no" v="Herringen" />
		<tag k="place" v="farm" />
		<tag k="ssr:stedsnr" v="440955" />
	</node>
	<node lat="65.8662541524605" lon="13.48264858021769" id="-17739">
		<tag k="fixme" v="consider place=hamlet" />
		<tag k="name" v="Stien" />
		<tag k="old_name" v="Stein" />
		<tag k="place" v="farm" />
		<tag k="ssr:stedsnr" v="440964" />
	</node>
	<node lat="65.96700753921857" lon="13.421082146110196" id="-17741">
		<tag k="fixme" v="consider place=hamlet" />
		<tag k="name" v="Strauman" />
		<tag k="old_name" v="Straumen" />
		<tag k="place" v="farm" />
		<tag k="ssr:stedsnr" v="440828" />
	</node>
	<node lat="66.04222222117232" lon="13.324238877664925" id="-17750">
		<tag k="fixme" v="consider place=hamlet" />
		<tag k="name" v="Enget" />
		<tag k="place" v="farm" />
		<tag k="ssr:stedsnr" v="500424" />
	</node>
	<node lat="66.03913611373586" lon="13.335119451226788" id="-17751">
		<tag k="name" v="Rostad" />
		<tag k="place" v="farm" />
		<tag k="ssr:stedsnr" v="500426" />
	</node>
	<node lat="65.95652717284578" lon="12.871055632407746" id="-17760">
		<tag k="fixme" v="consider place=hamlet" />
		<tag k="name" v="Juvika" />
		<tag k="place" v="farm" />
		<tag k="ssr:stedsnr" v="500176" />
	</node>
	<node lat="65.88139999732547" lon="13.093269454078182" id="-17762">
		<tag k="name" v="Risremma" />
		<tag k="place" v="farm" />
		<tag k="ssr:stedsnr" v="500266" />
	</node>
	<node lat="65.88766388750031" lon="12.64430001029862" id="-17767">
		<tag k="name" v="Heimervika" />
		<tag k="place" v="farm" />
		<tag k="ssr:stedsnr" v="500468" />
	</node>
	<node lat="66.10180555881696" lon="13.493525007064605" id="-17768">
		<tag k="alt_name" v="Steinholman" />
		<tag k="name" v="Steinholmen" />
		<tag k="place" v="farm" />
		<tag k="ssr:stedsnr" v="500547" />
	</node>
	<node lat="65.78294219203889" lon="13.268522035103071" id="-17770">
		<tag k="fixme" v="consider place=hamlet" />
		<tag k="name" v="Granneset" />
		<tag k="place" v="farm" />
		<tag k="ssr:stedsnr" v="500669" />
	</node>
	<node lat="65.63951907864849" lon="13.132819181994575" id="-17772">
		<tag k="alt_name" v="Skjørleigda" />
		<tag k="name" v="Skjørlægda" />
		<tag k="place" v="locality" />
		<tag k="ssr:stedsnr" v="500872" />
	</node>
	<node lat="65.8614027738429" lon="13.25314167226822" id="-17779">
		<tag k="name" v="Elverum" />
		<tag k="place" v="farm" />
		<tag k="ssr:stedsnr" v="500971" />
	</node>
	<node lat="65.85671292403713" lon="12.697725192370445" id="-17786">
		<tag k="fixme" v="consider place=hamlet" />
		<tag k="name" v="Halsan" />
		<tag k="place" v="farm" />
		<tag k="ssr:stedsnr" v="501398" />
	</node>
	<node lat="66.06717222447257" lon="13.549305548835834" id="-17789">
		<tag k="name" v="Nymoen" />
		<tag k="place" v="farm" />
		<tag k="ssr:stedsnr" v="501257" />
	</node>
	<node lat="65.85676721890961" lon="12.743971788834033" id="-17803">
		<tag k="fixme" v="consider place=hamlet" />
		<tag k="name" v="Forsmoen" />
		<tag k="place" v="farm" />
		<tag k="ssr:stedsnr" v="501773" />
	</node>
	<node lat="65.91289987943006" lon="13.162100789322588" id="-17809">
		<tag k="name" v="Nyborg" />
		<tag k="place" v="farm" />
		<tag k="ssr:stedsnr" v="511269" />
	</node>
	<node lat="65.85931113026341" lon="13.196122372923162" id="-17810">
		<tag k="name" v="Hals" />
		<tag k="place" v="suburb" />
		<tag k="ssr:stedsnr" v="511272" />
	</node>
	<node lat="65.81017777598822" lon="13.206741671565695" id="-17819">
		<tag k="name" v="Hagarden" />
		<tag k="place" v="farm" />
		<tag k="ssr:stedsnr" v="514242" />
	</node>
	<node lat="65.96298055239" lon="13.186891663203426" id="-17823">
		<tag k="name" v="Neset" />
		<tag k="place" v="farm" />
		<tag k="ssr:stedsnr" v="514350" />
	</node>
	<node lat="65.9565083337802" lon="13.212422224177661" id="-17832">
		<tag k="name" v="Åsenden" />
		<tag k="place" v="isolated_dwelling" />
		<tag k="ssr:stedsnr" v="514632" />
	</node>
	<node lat="66.05006111513951" lon="13.606058341034679" id="-17897">
		<tag k="name" v="Knutlien" />
		<tag k="place" v="isolated_dwelling" />
		<tag k="ssr:stedsnr" v="541512" />
	</node>
	<node lat="65.95244166829309" lon="13.138377773128884" id="-17925">
		<tag k="name" v="Slåttremma" />
		<tag k="place" v="farm" />
		<tag k="ssr:stedsnr" v="561149" />
	</node>
	<node lat="65.89226152767569" lon="13.399329703283884" id="-17932">
		<tag k="alt_name" v="Osmo" />
		<tag k="name" v="Osmoen" />
		<tag k="place" v="farm" />
		<tag k="ssr:stedsnr" v="561000" />
	</node>
	<node lat="65.8772521040996" lon="12.929995863488914" id="-17938">
		<tag k="fixme" v="consider place=hamlet" />
		<tag k="name" v="Demmeldalen" />
		<tag k="place" v="farm" />
		<tag k="ssr:stedsnr" v="561242" />
	</node>
	<node lat="65.88772500026371" lon="13.090188881966" id="-17939">
		<tag k="name" v="Vollen" />
		<tag k="place" v="farm" />
		<tag k="ssr:stedsnr" v="561244" />
	</node>
	<node lat="65.8934861157841" lon="13.197633324537453" id="-17941">
		<tag k="name" v="Moheim" />
		<tag k="place" v="farm" />
		<tag k="ssr:stedsnr" v="561254" />
	</node>
	<node lat="65.90962777442252" lon="12.744497227155783" id="-17942">
		<tag k="alt_name" v="Aune" />
		<tag k="fixme" v="consider place=hamlet" />
		<tag k="name" v="Aunet" />
		<tag k="place" v="farm" />
		<tag k="ssr:stedsnr" v="561172" />
	</node>
	<node lat="65.9246361142439" lon="12.94658611749907" id="-17945">
		<tag k="fixme" v="consider place=hamlet" />
		<tag k="name" v="Hundåla" />
		<tag k="place" v="farm" />
		<tag k="ssr:stedsnr" v="561180" />
	</node>
	<node lat="66.05834166266796" lon="13.3692388861939" id="-17947">
		<tag k="name" v="Rognneset" />
		<tag k="place" v="farm" />
		<tag k="ssr:stedsnr" v="561280" />
	</node>
	<node lat="66.08021944486507" lon="13.467747218605348" id="-17958">
		<tag k="name" v="Nordenga" />
		<tag k="place" v="farm" />
		<tag k="ssr:stedsnr" v="561275" />
	</node>
	<node lat="66.06956944309702" lon="13.431233339036828" id="-17959">
		<tag k="fixme" v="consider place=hamlet" />
		<tag k="name" v="Dyrhaugen" />
		<tag k="place" v="farm" />
		<tag k="ssr:stedsnr" v="561278" />
	</node>
	<node lat="65.93088610776462" lon="12.708811108574428" id="-17961">
		<tag k="fixme" v="consider place=hamlet" />
		<tag k="name" v="Vistvågan" />
		<tag k="place" v="farm" />
		<tag k="ssr:stedsnr" v="561336" />
	</node>
	<node lat="66.02872662623523" lon="13.466381324854208" id="-17963">
		<tag k="alt_name" v="Luktvassli" />
		<tag k="name" v="Luktvasslia" />
		<tag k="place" v="hamlet" />
		<tag k="ssr:stedsnr" v="561347" />
	</node>
	<node lat="66.05531666735536" lon="13.577347220500545" id="-17964">
		<tag k="alt_name" v="Sevjen" />
		<tag k="name" v="Sevja" />
		<tag k="place" v="isolated_dwelling" />
		<tag k="ssr:stedsnr" v="561355" />
	</node>
	<node lat="66.03904721789237" lon="13.320166670465019" id="-17965">
		<tag k="alt_name" v="Yttermo" />
		<tag k="name" v="Yttermoen" />
		<tag k="place" v="farm" />
		<tag k="ssr:stedsnr" v="561371" />
	</node>
	<node lat="66.03847737085617" lon="13.342619907588151" id="-17966">
		<tag k="alt_name" v="Rognrygg" />
		<tag k="fixme" v="consider place=hamlet" />
		<tag k="name" v="Rognryggen" />
		<tag k="place" v="farm" />
		<tag k="ssr:stedsnr" v="561372" />
	</node>
	<node lat="65.84754999628004" lon="12.609108322461632" id="-17967">
		<tag k="name" v="Aspneset" />
		<tag k="place" v="farm" />
		<tag k="ssr:stedsnr" v="561441" />
	</node>
	<node lat="65.84223888850961" lon="13.25505000157515" id="-17977">
		<tag k="name" v="Vadremma" />
		<tag k="place" v="farm" />
		<tag k="ssr:stedsnr" v="561533" />
	</node>
	<node lat="65.84680802198761" lon="13.409556045280153" id="-17978">
		<tag k="fixme" v="consider place=hamlet" />
		<tag k="name" v="Sjåmoen" />
		<tag k="place" v="farm" />
		<tag k="ssr:stedsnr" v="561536" />
	</node>
	<node lat="65.82945277642094" lon="13.276474996007037" id="-17980">
		<tag k="name" v="Lysstad" />
		<tag k="place" v="farm" />
		<tag k="ssr:stedsnr" v="561542" />
	</node>
	<node lat="65.85020278175494" lon="13.291972221607214" id="-17981">
		<tag k="name" v="Høglibakken" />
		<tag k="place" v="farm" />
		<tag k="ssr:stedsnr" v="561557" />
	</node>
	<node lat="65.76883333194554" lon="13.229014843097943" id="-17983">
		<tag k="fixme" v="consider place=hamlet" />
		<tag k="name" v="Grøva" />
		<tag k="place" v="farm" />
		<tag k="ssr:stedsnr" v="561564" />
	</node>
	<node lat="66.00293610909178" lon="13.450305556578511" id="-17986">
		<tag k="name" v="Granheim" />
		<tag k="place" v="farm" />
		<tag k="ssr:stedsnr" v="561642" />
	</node>
	<node lat="66.0004221933801" lon="13.31176134159402" id="-17988">
		<tag k="name" v="Blåfjellet" />
		<tag k="place" v="farm" />
		<tag k="ssr:stedsnr" v="561648" />
	</node>
	<node lat="66.02062499740407" lon="13.694872219217507" id="-17990">
		<tag k="name" v="Svartvatnet" />
		<tag k="place" v="locality" />
		<tag k="ssr:stedsnr" v="561665" />
	</node>
	<node lat="65.79526389067036" lon="13.256263889938683" id="-17993">
		<tag k="fixme" v="multiple name tags, choose one and add the other to alt_name" />
		<tag k="name" v="Ner-Bjørnåga;Bjørnåga" />
		<tag k="place" v="farm" />
		<tag k="ssr:stedsnr" v="561605" />
	</node>
	<node lat="65.80000536946037" lon="13.134383284610172" id="-18006">
		<tag k="fixme" v="consider place=hamlet" />
		<tag k="name" v="Kvanndalen" />
		<tag k="place" v="farm" />
		<tag k="ssr:stedsnr" v="561763" />
	</node>
	<node lat="65.9534249976601" lon="13.4414361139216" id="-18017">
		<tag k="name" v="Gammelgarden" />
		<tag k="place" v="isolated_dwelling" />
		<tag k="ssr:stedsnr" v="561897" />
	</node>
	<node lat="65.90418693919997" lon="13.323647342256221" id="-18022">
		<tag k="name" v="Ytterhaugen" />
		<tag k="place" v="farm" />
		<tag k="ssr:stedsnr" v="561980" />
	</node>
	<node lat="65.99964923636567" lon="13.407032270404045" id="-18028">
		<tag k="alt_name" v="Almli" />
		<tag k="fixme" v="consider place=hamlet" />
		<tag k="name" v="Almlia" />
		<tag k="place" v="farm" />
		<tag k="ssr:stedsnr" v="561862" />
	</node>
	<node lat="65.85478889194856" lon="13.276330567003344" id="-18035">
		<tag k="name" v="Haugen" />
		<tag k="place" v="farm" />
		<tag k="ssr:stedsnr" v="561951" />
	</node>
	<node lat="65.87274721926946" lon="13.455213891924513" id="-18036">
		<tag k="name" v="Heimstad" />
		<tag k="place" v="farm" />
		<tag k="ssr:stedsnr" v="561959" />
	</node>
	<node lat="65.84211388714478" lon="13.207336107928612" id="-18041">
		<tag k="building" v="industrial" />
		<tag k="industrial" v="factory" />
		<tag k="name" v="Midt-Norsk Betong Mosjøen" />
		<tag k="ssr:stedsnr" v="567596" />
	</node>
	<node lat="65.92638055860307" lon="12.952841660671385" id="-18042">
		<tag k="name" v="Berget" />
		<tag k="place" v="farm" />
		<tag k="ssr:stedsnr" v="571483" />
	</node>
	<node lat="65.94592499684762" lon="13.146350004608275" id="-18051">
		<tag k="name" v="Nylo" />
		<tag k="place" v="hamlet" />
		<tag k="ssr:stedsnr" v="574612" />
	</node>
	<node lat="65.91350833274477" lon="13.296447228675353" id="-18086">
		<tag k="name" v="Nordvoll" />
		<tag k="place" v="farm" />
		<tag k="ssr:stedsnr" v="575742" />
	</node>
	<node lat="65.88475555131684" lon="13.22953889609155" id="-18110">
		<tag k="name" v="Båthola" />
		<tag k="place" v="quarter" />
		<tag k="ssr:stedsnr" v="587418" />
	</node>
	<node lat="65.77413055202238" lon="12.980836116122326" id="-18140">
		<tag k="fixme" v="consider tourism=alpine_hut or tourism=chalet" />
		<tag k="name" v="Lavasshytta" />
		<tag k="ssr:stedsnr" v="603382" />
		<tag k="tourism" v="wilderness_hut" />
	</node>
	<node lat="66.09078610783223" lon="13.542727778658794" id="-18169">
		<tag k="name" v="Kivamoen" />
		<tag k="place" v="farm" />
		<tag k="ssr:stedsnr" v="621290" />
	</node>
	<node lat="66.09862222508899" lon="13.485183342442443" id="-18171">
		<tag k="name" v="Sjøbakken" />
		<tag k="place" v="farm" />
		<tag k="ssr:stedsnr" v="621294" />
	</node>
	<node lat="66.04757761835525" lon="13.527195340627888" id="-18173">
		<tag k="alt_name" v="Luktvatnet" />
		<tag k="fixme" v="consider place=hamlet" />
		<tag k="name" v="Luktvatn" />
		<tag k="place" v="farm" />
		<tag k="ssr:stedsnr" v="621386" />
	</node>
	<node lat="65.78873535444897" lon="13.227019481295478" id="-18181">
		<tag k="fixme" v="consider place=hamlet" />
		<tag k="name" v="Rossvoll" />
		<tag k="place" v="farm" />
		<tag k="ssr:stedsnr" v="622593" />
	</node>
	<node lat="65.8103019010424" lon="13.25097387185571" id="-18188">
		<tag k="name" v="Skogseng" />
		<tag k="place" v="farm" />
		<tag k="ssr:stedsnr" v="621557" />
	</node>
	<node lat="65.81097499719668" lon="13.345008324934826" id="-18189">
		<tag k="alt_name" v="Almås" />
		<tag k="name" v="Almåsen" />
		<tag k="place" v="farm" />
		<tag k="ssr:stedsnr" v="621560" />
	</node>
	<node lat="65.81303610658276" lon="13.208302781146422" id="-18190">
		<tag k="name" v="Øverøya" />
		<tag k="place" v="farm" />
		<tag k="ssr:stedsnr" v="621786" />
	</node>
	<node lat="65.87238055679788" lon="13.214352768746876" id="-18196">
		<tag k="name" v="Åsen" />
		<tag k="place" v="farm" />
		<tag k="ssr:stedsnr" v="622232" />
	</node>
	<node lat="65.88621388507671" lon="13.099363886803733" id="-18209">
		<tag k="name" v="Trøa" />
		<tag k="place" v="farm" />
		<tag k="ssr:stedsnr" v="622252" />
	</node>
	<node lat="66.06116666997129" lon="13.4467499960213" id="-18213">
		<tag k="name" v="Hagamoen" />
		<tag k="place" v="farm" />
		<tag k="ssr:stedsnr" v="622338" />
	</node>
	<node lat="66.13032222522362" lon="13.583730563543094" id="-18216">
		<tag k="alt_name" v="Myrbekkmo" />
		<tag k="name" v="Myrbekkmoen" />
		<tag k="place" v="farm" />
		<tag k="ssr:stedsnr" v="622437" />
	</node>
	<node lat="65.85355555961273" lon="12.693249990488985" id="-18217">
		<tag k="alt_name" v="Sjøvegen" />
		<tag k="name" v="Sjøveien" />
		<tag k="place" v="farm" />
		<tag k="ssr:stedsnr" v="622438" />
	</node>
	<node lat="65.84244166434782" lon="12.692922223510546" id="-18220">
		<tag k="name" v="Bunesenget" />
		<tag k="place" v="farm" />
		<tag k="ssr:stedsnr" v="622451" />
	</node>
	<node lat="65.85264444541279" lon="13.582324993437084" id="-18222">
		<tag k="alt_name" v="Almdalssætra" />
		<tag k="name" v="Almdalssetra" />
		<tag k="place" v="isolated_dwelling" />
		<tag k="ssr:stedsnr" v="622521" />
	</node>
	<node lat="65.83168055309812" lon="13.290477781128105" id="-18224">
		<tag k="name" v="Remma" />
		<tag k="place" v="farm" />
		<tag k="ssr:stedsnr" v="622532" />
	</node>
	<node lat="65.8476859875101" lon="13.381781794864748" id="-18225">
		<tag k="alt_name:no" v="Kjemsås" />
		<tag k="fixme" v="consider place=hamlet" />
		<tag k="loc_name:sma" v="Tjimkemeaesie" />
		<tag k="name" v="Kjemsåsen" />
		<tag k="name:no" v="Kjemsåsen" />
		<tag k="place" v="farm" />
		<tag k="ssr:stedsnr" v="622545" />
	</node>
	<node lat="65.6134888916261" lon="13.169077771765243" id="-18235">
		<tag k="fixme" v="multiple name tags, choose one and add the other to alt_name" />
		<tag k="historic" v="shieling" />
		<tag k="name" v="Gammal-Johansætra;Nersetra" />
		<tag k="place" v="isolated_dwelling" />
		<tag k="ssr:stedsnr" v="622793" />
	</node>
	<node lat="65.89741693336782" lon="13.287130764372176" id="-18240">
		<tag k="alt_name" v="Bjørknes, vestre;Bjørknes" />
		<tag k="name" v="Vestre Bjørknes" />
		<tag k="place" v="farm" />
		<tag k="ssr:stedsnr" v="622971" />
	</node>
	<node lat="65.90645888549885" lon="13.32859275386485" id="-18241">
		<tag k="alt_name" v="Åkvik" />
		<tag k="fixme" v="consider place=hamlet" />
		<tag k="name" v="Åkvika" />
		<tag k="place" v="farm" />
		<tag k="ssr:stedsnr" v="622979" />
	</node>
	<node lat="65.8557183497458" lon="13.272841115803788" id="-18246">
		<tag k="fixme" v="consider place=hamlet" />
		<tag k="name" v="Jakobsgarden" />
		<tag k="place" v="farm" />
		<tag k="ssr:stedsnr" v="622956" />
	</node>
	<node lat="65.85778055278023" lon="13.264363880590041" id="-18247">
		<tag k="alt_name" v="Marka, yt" />
		<tag k="loc_name" v="Ytter-Marka" />
		<tag k="name" v="Ytre Marka" />
		<tag k="place" v="hamlet" />
		<tag k="ssr:stedsnr" v="622958" />
	</node>
	<node lat="65.9339833343352" lon="13.099241674786581" id="-18250">
		<tag k="name" v="Kleiva" />
		<tag k="place" v="farm" />
		<tag k="ssr:stedsnr" v="628588" />
	</node>
	<node lat="65.90814275368844" lon="13.182478486003614" id="-18253">
		<tag k="name" v="Skaland" />
		<tag k="place" v="farm" />
		<tag k="ssr:stedsnr" v="632286" />
	</node>
	<node lat="65.87602071352522" lon="13.171057211918928" id="-18254">
		<tag k="alt_name" v="Ryneslien" />
		<tag k="name" v="Ryneslia" />
		<tag k="place" v="farm" />
		<tag k="ssr:stedsnr" v="632290" />
	</node>
	<node lat="65.8319722227323" lon="13.210347211758382" id="-18257">
		<tag k="name" v="Nyrud" />
		<tag k="place" v="suburb" />
		<tag k="ssr:stedsnr" v="632478" />
	</node>
	<node lat="65.91313610833002" lon="13.154577768386948" id="-18268">
		<tag k="name" v="Remma" />
		<tag k="place" v="farm" />
		<tag k="ssr:stedsnr" v="635421" />
	</node>
	<node lat="65.83671944438288" lon="13.343405564924579" id="-18289">
		<tag k="historic" v="shieling" />
		<tag k="name" v="Ettersetra" />
		<tag k="place" v="isolated_dwelling" />
		<tag k="ssr:stedsnr" v="635862" />
	</node>
	<node lat="66.15964999793145" lon="13.510441676501086" id="-18302">
		<tag k="name" v="Finnheiman" />
		<tag k="place" v="locality" />
		<tag k="ssr:stedsnr" v="646144" />
	</node>
	<node lat="65.81742500230604" lon="13.329866672094438" id="-18339">
		<tag k="name" v="Lian" />
		<tag k="place" v="farm" />
		<tag k="ssr:stedsnr" v="648166" />
	</node>
	<node lat="65.92800277418418" lon="12.94411944945772" id="-18355">
		<tag k="name" v="Naustvollan" />
		<tag k="place" v="farm" />
		<tag k="ssr:stedsnr" v="648863" />
	</node>
	<node lat="65.9236746328818" lon="13.339064678870521" id="-18394">
		<tag k="fixme" v="consider place=hamlet" />
		<tag k="name" v="Grøftremma" />
		<tag k="place" v="farm" />
		<tag k="ssr:stedsnr" v="719732" />
	</node>
	<node lat="65.55537778082665" lon="13.157422215339189" id="-18419">
		<tag k="name" v="Sørenheimen" />
		<tag k="place" v="locality" />
		<tag k="ssr:stedsnr" v="725795" />
	</node>
	<node lat="65.98556088411885" lon="13.36705394003912" id="-18447">
		<tag k="alt_name" v="Ømmervassbukt" />
		<tag k="fixme" v="consider place=hamlet" />
		<tag k="name" v="Ømmervassbukta" />
		<tag k="place" v="farm" />
		<tag k="ssr:stedsnr" v="743829" />
	</node>
	<node lat="65.95200000311107" lon="13.17057499602966" id="-18450">
		<tag k="name" v="Tømmerremma" />
		<tag k="place" v="farm" />
		<tag k="ssr:stedsnr" v="743150" />
	</node>
	<node lat="65.95573889060795" lon="12.96979165755955" id="-18452">
		<tag k="name" v="Åmøya" />
		<tag k="place" v="isolated_dwelling" />
		<tag k="ssr:stedsnr" v="743165" />
	</node>
	<node lat="65.77932500221677" lon="13.283002767348625" id="-18467">
		<tag k="name" v="Olsrud" />
		<tag k="place" v="farm" />
		<tag k="ssr:stedsnr" v="743602" />
	</node>
	<node lat="65.99439156469116" lon="13.255314260562542" id="-18479">
		<tag k="alt_name" v="Kommernes, øvre;Øver-Kommernes" />
		<tag k="name" v="Øvre Kommernes" />
		<tag k="place" v="farm" />
		<tag k="ssr:stedsnr" v="743865" />
	</node>
	<node lat="66.11409090104283" lon="13.535286959665106" id="-18485">
		<tag k="fixme" v="consider place=hamlet" />
		<tag k="name" v="Skravlå" />
		<tag k="place" v="farm" />
		<tag k="ssr:stedsnr" v="744420" />
	</node>
	<node lat="65.82791154070715" lon="13.376409414196646" id="-18486">
		<tag k="fixme" v="consider place=hamlet" />
		<tag k="name" v="Tjønnåsen" />
		<tag k="place" v="farm" />
		<tag k="ssr:stedsnr" v="744486" />
	</node>
	<node lat="65.75123610853936" lon="13.29391944878656" id="-18487">
		<tag k="alt_name" v="Einrem" />
		<tag k="name" v="Einremma" />
		<tag k="place" v="farm" />
		<tag k="ssr:stedsnr" v="744645" />
	</node>
	<node lat="65.75974943783157" lon="13.296402632040158" id="-18488">
		<tag k="fixme" v="consider place=hamlet" />
		<tag k="name" v="Bjørnåga" />
		<tag k="place" v="farm" />
		<tag k="ssr:stedsnr" v="744650" />
	</node>
	<node lat="65.91482097698504" lon="13.27255573488301" id="-18492">
		<tag k="alt_name" v="Langmoen, yt;Langmo Ytre" />
		<tag k="fixme" v="consider place=hamlet" />
		<tag k="name" v="Ytre Langmoen" />
		<tag k="old_name" v="Langmoen" />
		<tag k="place" v="farm" />
		<tag k="ssr:stedsnr" v="744880" />
	</node>
	<node lat="65.89849584798783" lon="13.27820627777768" id="-18495">
		<tag k="name" v="Smihaugen" />
		<tag k="place" v="farm" />
		<tag k="ssr:stedsnr" v="744980" />
	</node>
	<node lat="65.97380277824796" lon="13.203675010975656" id="-18506">
		<tag k="name" v="Skogvoll" />
		<tag k="place" v="farm" />
		<tag k="ssr:stedsnr" v="756594" />
	</node>
	<node lat="65.91443333187347" lon="13.176438891170767" id="-18530">
		<tag k="alt_name" v="Kløftan" />
		<tag k="name" v="Kløfta" />
		<tag k="place" v="farm" />
		<tag k="ssr:stedsnr" v="760178" />
	</node>
	<node lat="65.95830833001432" lon="12.86831388894228" id="-18609">
		<tag k="name" v="Juvikøra" />
		<tag k="place" v="farm" />
		<tag k="ssr:stedsnr" v="804127" />
	</node>
	<node lat="65.90022424438573" lon="13.179884089867368" id="-18633">
		<tag k="fixme" v="consider place=hamlet" />
		<tag k="name" v="Veset" />
		<tag k="place" v="farm" />
		<tag k="ssr:stedsnr" v="804233" />
	</node>
	<node lat="66.0294527817621" lon="13.325911104137964" id="-18641">
		<tag k="name" v="Fossum" />
		<tag k="place" v="farm" />
		<tag k="ssr:stedsnr" v="804344" />
	</node>
	<node lat="66.02586388932836" lon="13.301702779356354" id="-18642">
		<tag k="name" v="Molia" />
		<tag k="place" v="farm" />
		<tag k="ssr:stedsnr" v="804349" />
	</node>
	<node lat="66.04528055245946" lon="13.347374998646613" id="-18645">
		<tag k="fixme" v="consider place=hamlet" />
		<tag k="name" v="Vasshovud" />
		<tag k="place" v="farm" />
		<tag k="ssr:stedsnr" v="804398" />
	</node>
	<node lat="65.8413728832357" lon="13.523908846766354" id="-18650">
		<tag k="alt_name" v="Almdal" />
		<tag k="fixme" v="consider place=hamlet" />
		<tag k="name" v="Almdalen" />
		<tag k="place" v="farm" />
		<tag k="ssr:stedsnr" v="804563" />
	</node>
	<node lat="65.7717111115061" lon="13.239144433640295" id="-18655">
		<tag k="name" v="Fjellset" />
		<tag k="place" v="farm" />
		<tag k="ssr:stedsnr" v="804592" />
	</node>
	<node lat="65.79969993697645" lon="13.55380424992898" id="-18658">
		<tag k="name" v="Holmenvollen" />
		<tag k="place" v="locality" />
		<tag k="ssr:stedsnr" v="804628" />
	</node>
	<node lat="65.79998055903737" lon="13.248241670332693" id="-18659">
		<tag k="name" v="Nordheim" />
		<tag k="place" v="farm" />
		<tag k="ssr:stedsnr" v="804632" />
	</node>
	<node lat="65.80806388886559" lon="13.25328055570335" id="-18661">
		<tag k="name" v="Mosheim" />
		<tag k="place" v="farm" />
		<tag k="ssr:stedsnr" v="804640" />
	</node>
	<node lat="65.80302778165996" lon="13.241386108690081" id="-18662">
		<tag k="name" v="Øvstenget" />
		<tag k="place" v="farm" />
		<tag k="ssr:stedsnr" v="804641" />
	</node>
	<node lat="65.85621388960388" lon="13.065152776396848" id="-18673">
		<tag k="name" v="Vikdalsetra" />
		<tag k="place" v="isolated_dwelling" />
		<tag k="ssr:stedsnr" v="804797" />
	</node>
	<node lat="65.72777216806276" lon="13.282884078872144" id="-18679">
		<tag k="name" v="Rostad" />
		<tag k="place" v="farm" />
		<tag k="ssr:stedsnr" v="804742" />
	</node>
	<node lat="65.89420555878219" lon="13.389830559805791" id="-18680">
		<tag k="name" v="Sæterstad" />
		<tag k="place" v="farm" />
		<tag k="ssr:stedsnr" v="805000" />
	</node>
	<node lat="65.89886516443401" lon="13.280252952757111" id="-18688">
		<tag k="fixme" v="consider place=hamlet" />
		<tag k="name" v="Haukland" />
		<tag k="place" v="farm" />
		<tag k="ssr:stedsnr" v="805972" />
	</node>
	<node lat="65.90085463378837" lon="13.286424995761426" id="-18690">
		<tag k="fixme" v="consider place=hamlet" />
		<tag k="name" v="Vollen" />
		<tag k="place" v="farm" />
		<tag k="ssr:stedsnr" v="805983" />
	</node>
	<node lat="65.9086722181211" lon="13.174108328546883" id="-18692">
		<tag k="name" v="Syvollen" />
		<tag k="place" v="farm" />
		<tag k="ssr:stedsnr" v="810599" />
	</node>
	<node lat="66.13441666996543" lon="13.581200004017171" id="-18693">
		<tag k="name" v="Søre Myrbekken" />
		<tag k="place" v="farm" />
		<tag k="ssr:stedsnr" v="813382" />
	</node>
	<node lat="66.1027694475396" lon="13.54667777099945" id="-18694">
		<tag k="name" v="Sanden" />
		<tag k="place" v="farm" />
		<tag k="ssr:stedsnr" v="814769" />
	</node>
	<node lat="65.86129166728878" lon="13.202855557183545" id="-18698">
		<tag k="name" v="Breimoen" />
		<tag k="place" v="quarter" />
		<tag k="ssr:stedsnr" v="818030" />
	</node>
	<node lat="66.01416944861892" lon="13.271569440817666" id="-18774">
		<tag k="name" v="Brattli" />
		<tag k="place" v="farm" />
		<tag k="ssr:stedsnr" v="831073" />
	</node>
	<node lat="65.82671600151069" lon="12.661890659193121" id="-18819">
		<tag k="fixme" v="consider place=hamlet" />
		<tag k="name" v="Husvika" />
		<tag k="place" v="farm" />
		<tag k="ssr:stedsnr" v="847186" />
	</node>
	<node lat="65.93254166890046" lon="12.71079722242167" id="-18832">
		<tag k="name" v="Bortigård" />
		<tag k="place" v="farm" />
		<tag k="ssr:stedsnr" v="847964" />
	</node>
	<node lat="65.77181667015603" lon="13.217741665945818" id="-18837">
		<tag k="name" v="Aufles" />
		<tag k="place" v="farm" />
		<tag k="ssr:stedsnr" v="848460" />
	</node>
	<node lat="65.7747583357143" lon="13.2192194460503" id="-18838">
		<tag k="fixme" v="consider place=hamlet" />
		<tag k="name" v="Aufles" />
		<tag k="place" v="farm" />
		<tag k="ssr:stedsnr" v="848461" />
	</node>
	<node lat="65.87464173084722" lon="13.171238172804102" id="-18867">
		<tag k="fixme" v="consider place=hamlet" />
		<tag k="name" v="Rynes" />
		<tag k="place" v="farm" />
		<tag k="ssr:stedsnr" v="865257" />
	</node>
	<node lat="66.0674555544447" lon="13.452174995704185" id="-18869">
		<tag k="name" v="Haugen" />
		<tag k="place" v="farm" />
		<tag k="ssr:stedsnr" v="865312" />
	</node>
	<node lat="66.09372499896934" lon="13.479808340175614" id="-18871">
		<tag k="name" v="Myrtun" />
		<tag k="place" v="farm" />
		<tag k="ssr:stedsnr" v="865328" />
	</node>
	<node lat="65.89082148112529" lon="13.117911748226113" id="-18882">
		<tag k="name" v="Alternesvika" />
		<tag k="place" v="farm" />
		<tag k="ssr:stedsnr" v="865225" />
	</node>
	<node lat="65.85361666527622" lon="12.697494446901173" id="-18895">
		<tag k="name" v="Åsly" />
		<tag k="place" v="farm" />
		<tag k="ssr:stedsnr" v="865475" />
	</node>
	<node lat="65.82229099899378" lon="13.293343011060767" id="-18897">
		<tag k="fixme" v="consider place=hamlet" />
		<tag k="name" v="Hagfors" />
		<tag k="place" v="farm" />
		<tag k="ssr:stedsnr" v="865546" />
	</node>
	<node lat="65.82593685155662" lon="13.285406109248182" id="-18899">
		<tag k="fixme" v="consider place=hamlet" />
		<tag k="name" v="Remma" />
		<tag k="place" v="farm" />
		<tag k="ssr:stedsnr" v="865569" />
	</node>
	<node lat="65.85146666481224" lon="13.561838895645012" id="-18901">
		<tag k="name" v="Bråksletta" />
		<tag k="place" v="isolated_dwelling" />
		<tag k="ssr:stedsnr" v="865582" />
	</node>
	<node lat="66.02093055747446" lon="13.463227779495496" id="-18909">
		<tag k="fixme" v="consider place=hamlet" />
		<tag k="name" v="Rundsvoll" />
		<tag k="place" v="farm" />
		<tag k="ssr:stedsnr" v="865643" />
	</node>
	<node lat="66.01583888864943" lon="13.607188894975312" id="-18911">
		<tag k="name" v="Kjerringhalsen" />
		<tag k="place" v="farm" />
		<tag k="ssr:stedsnr" v="865652" />
	</node>
	<node lat="66.02232664355701" lon="13.448941024689391" id="-18912">
		<tag k="alt_name" v="Angermo" />
		<tag k="fixme" v="consider place=hamlet" />
		<tag k="name" v="Angermoen" />
		<tag k="place" v="farm" />
		<tag k="ssr:stedsnr" v="865663" />
	</node>
	<node lat="66.0264388910158" lon="13.46228333249059" id="-18913">
		<tag k="name" v="Gullbakken" />
		<tag k="place" v="farm" />
		<tag k="ssr:stedsnr" v="865667" />
	</node>
	<node lat="66.01926111109636" lon="13.473574995786738" id="-18914">
		<tag k="alt_name" v="Eriklia" />
		<tag k="name" v="Erikli" />
		<tag k="place" v="farm" />
		<tag k="ssr:stedsnr" v="865675" />
	</node>
	<node lat="66.02708333146181" lon="13.515683329031186" id="-18915">
		<tag k="name" v="Kamhaugen" />
		<tag k="place" v="farm" />
		<tag k="ssr:stedsnr" v="865676" />
	</node>
	<node lat="65.75896148413021" lon="13.29046602917761" id="-18923">
		<tag k="alt_name" v="Alsgård" />
		<tag k="fixme" v="consider place=hamlet" />
		<tag k="name" v="Alsgården" />
		<tag k="place" v="farm" />
		<tag k="ssr:stedsnr" v="865708" />
	</node>
	<node lat="65.82676111021803" lon="12.631499993052726" id="-18934">
		<tag k="name" v="Juvika" />
		<tag k="place" v="locality" />
		<tag k="ssr:stedsnr" v="865519" />
	</node>
	<node lat="65.92352778154121" lon="13.336511120208172" id="-18936">
		<tag k="name" v="Grøftremma" />
		<tag k="place" v="farm" />
		<tag k="ssr:stedsnr" v="865754" />
	</node>
	<node lat="65.7375024898839" lon="13.217084781625877" id="-18937">
		<tag k="alt_name" v="Kvalfors" />
		<tag k="name" v="Snebakkmoen" />
		<tag k="old_name" v="Snøbakkmoen" />
		<tag k="place" v="farm" />
		<tag k="ssr:stedsnr" v="865767" />
	</node>
	<node lat="65.72677222410717" lon="13.212274994518891" id="-18938">
		<tag k="alt_name" v="Stimo" />
		<tag k="name" v="Stigmoen" />
		<tag k="place" v="farm" />
		<tag k="ssr:stedsnr" v="865771" />
	</node>
	<node lat="65.61236433868194" lon="13.152102781684746" id="-18942">
		<tag k="fixme" v="consider place=hamlet" />
		<tag k="name" v="Holmen" />
		<tag k="place" v="farm" />
		<tag k="ssr:stedsnr" v="865821" />
	</node>
	<node lat="65.69162585776996" lon="13.15424230337539" id="-18948">
		<tag k="fixme" v="consider place=hamlet" />
		<tag k="name" v="Steinlia" />
		<tag k="place" v="farm" />
		<tag k="ssr:stedsnr" v="865868" />
	</node>
	<node lat="65.9252527679319" lon="13.289613175133182" id="-18950">
		<tag k="fixme" v="consider place=hamlet" />
		<tag k="name" v="Oppgarden" />
		<tag k="place" v="farm" />
		<tag k="ssr:stedsnr" v="865873" />
	</node>
	<node lat="65.8688694431699" lon="13.22083333469122" id="-18952">
		<tag k="name" v="Nyremma" />
		<tag k="place" v="farm" />
		<tag k="ssr:stedsnr" v="865940" />
	</node>
	<node lat="65.93074166541737" lon="13.133294442305372" id="-18959">
		<tag k="name" v="Holand" />
		<tag k="place" v="farm" />
		<tag k="ssr:stedsnr" v="875287" />
	</node>
	<node lat="65.90670555201596" lon="13.173447223280402" id="-18965">
		<tag k="name" v="Steinan" />
		<tag k="place" v="farm" />
		<tag k="ssr:stedsnr" v="878135" />
	</node>
	<node lat="65.82652500404835" lon="13.199511115686025" id="-18978">
		<tag k="name" v="Mattismoen" />
		<tag k="place" v="quarter" />
		<tag k="ssr:stedsnr" v="878949" />
	</node>
	<node lat="65.77976944067663" lon="13.563194442131152" id="-19044">
		<tag k="name" v="Finnstøet" />
		<tag k="place" v="locality" />
		<tag k="ssr:stedsnr" v="950393" />
	</node>
	<node lat="65.77718888743712" lon="13.231288887778136" id="-19108">
		<tag k="name" v="Vollstad" />
		<tag k="place" v="quarter" />
		<tag k="ssr:stedsnr" v="969460" />
	</node>
	<node lat="65.99454968688799" lon="13.392587264083826" id="-19109">
		<tag k="name" v="Ømmervatnet" />
		<tag k="place" v="hamlet" />
		<tag k="ssr:stedsnr" v="975156" />
	</node>
	<node lat="66.0465804326753" lon="13.527863218548223" id="-19110">
		<tag k="name" v="Luktvatnet" />
		<tag k="place" v="hamlet" />
		<tag k="ssr:stedsnr" v="975157" />
	</node>
	<node lat="65.72083256279818" lon="13.295709437321353" id="-19111">
		<tag k="name" v="Ravatnet" />
		<tag k="place" v="hamlet" />
		<tag k="ssr:stedsnr" v="975211" />
	</node>
	<node lat="65.82610997714286" lon="13.376539153247641" id="-19112">
		<tag k="name" v="Kjønnåsen" />
		<tag k="place" v="farm" />
		<tag k="ssr:stedsnr" v="974721" />
	</node>
	<node lat="65.87724839320943" lon="13.229260382910383" id="-19113">
		<tag k="name" v="Kulstad" />
		<tag k="place" v="hamlet" />
		<tag k="ssr:stedsnr" v="975089" />
	</node>
	<node lat="65.90540339068181" lon="13.310927788765861" id="-19114">
		<tag k="name" v="Fustvatnet" />
		<tag k="place" v="hamlet" />
		<tag k="ssr:stedsnr" v="975094" />
	</node>
	<node lat="65.86164684334321" lon="13.470434310263567" id="-19115">
		<tag k="loc_name:sma" v="Herrega;Heerrege" />
		<tag k="name" v="Herringen" />
		<tag k="name:no" v="Herringen" />
		<tag k="place" v="hamlet" />
		<tag k="ssr:stedsnr" v="975095" />
	</node>
	<node lat="65.94574858195173" lon="13.412688428346824" id="-19117">
		<tag k="name" v="Mjåvatnet" />
		<tag k="place" v="hamlet" />
		<tag k="ssr:stedsnr" v="975155" />
	</node>
	<node lat="65.7428350861868" lon="13.217150532601915" id="-19127">
		<tag k="fixme" v="consider place=hamlet" />
		<tag k="name" v="Kvalfors" />
		<tag k="place" v="farm" />
		<tag k="ssr:stedsnr" v="990818" />
	</node>
	<node lat="65.80816560452816" lon="13.563501340271886" id="-19128">
		<tag k="fixme" v="consider place=hamlet" />
		<tag k="name" v="Herringbotnet - Heerregenmehkie" />
		<tag k="name:no" v="Herringbotnet" />
		<tag k="name:sma" v="Heerregenmehkie" />
		<tag k="place" v="farm" />
		<tag k="ssr:stedsnr" v="990921" />
	</node>
	<node lat="65.86367119783725" lon="13.244004843681621" id="-19408">
		<tag k="fixme" v="consider place=hamlet" />
		<tag k="name" v="Marka" />
		<tag k="place" v="village" />
		<tag k="ssr:stedsnr" v="1072685" />
	</node>
	<node lat="66.04732600488111" lon="13.613396340307489" id="-19411">
		<tag k="name" v="Grønnlia" />
		<tag k="place" v="farm" />
		<tag k="ssr:stedsnr" v="1073192" />
	</node>
	<node lat="66.13724016696295" lon="13.590234164926416" id="-19416">
		<tag k="alt_name" v="Nordjorden" />
		<tag k="name" v="Myrvik" />
		<tag k="place" v="farm" />
		<tag k="ssr:stedsnr" v="1078468" />
	</node>
	<node lat="65.98089548726723" lon="13.439434814935504" id="-19434">
		<tag k="name" v="Kægvika" />
		<tag k="old_name" v="Kægviken" />
		<tag k="place" v="farm" />
		<tag k="ssr:stedsnr" v="1082945" />
	</node>
	<node lat="66.03911268369126" lon="13.538215498456434" id="-19435">
		<tag k="name" v="Litle Luktvasshøvet" />
		<tag k="old_name" v="Luktvatshoved lille" />
		<tag k="place" v="farm" />
		<tag k="ssr:stedsnr" v="1082951" />
	</node>
	<node lat="65.82970031302433" lon="12.665984502368055" id="-19436">
		<tag k="name" v="Husvika" />
		<tag k="place" v="farm" />
		<tag k="ssr:stedsnr" v="1082986" />
	</node>
	<node lat="65.82647050909496" lon="12.662367850971915" id="-19437">
		<tag k="name" v="Husvika" />
		<tag k="place" v="farm" />
		<tag k="ssr:stedsnr" v="1082987" />
	</node>
	<node lat="65.83018470561797" lon="12.676485619435175" id="-19438">
		<tag k="name" v="Husvika" />
		<tag k="place" v="farm" />
		<tag k="ssr:stedsnr" v="1082988" />
	</node>
	<node lat="65.82587372801461" lon="12.66373208406116" id="-19439">
		<tag k="name" v="Husvika" />
		<tag k="place" v="farm" />
		<tag k="ssr:stedsnr" v="1082989" />
	</node>
	<node lat="65.91503079858165" lon="13.282664177972022" id="-19440">
		<tag k="name" v="Langmoen" />
		<tag k="place" v="hamlet" />
		<tag k="ssr:stedsnr" v="1083300" />
	</node>
</osm>
