<?xml version="1.0" encoding="UTF-8"?>
<<<<<<< HEAD
<osm version="0.6" generator="osmapis">
	<node lat="65.83484166742372" lon="13.228980546431668" id="-9040">
=======
<osm generator="osmapis" version="0.6">
	<node id="-139069" lat="66.00405833" lon="13.4275222321">
		<tag k="amenity" v="community_centre" />
		<tag k="name" v="Ømmertun" />
		<tag k="ssr:stedsnr" v="561643" />
	</node>
	<node id="-134901" lat="65.8348416674" lon="13.2289805464">
>>>>>>> e1d4bc35ff8a6074a6f2e91616a996b547c36f15
		<tag k="name" v="Hammarheim" />
		<tag k="place" v="locality" />
		<tag k="ssr:stedsnr" v="22512" />
	</node>
<<<<<<< HEAD
	<node lat="65.84395555645489" lon="13.205558329333861" id="-9784">
		<tag k="name" v="Vefsn museum" />
		<tag k="ssr:stedsnr" v="264594" />
		<tag k="tourism" v="attraction" />
	</node>
	<node lat="65.82948333051864" lon="12.664016669445264" id="-10310">
		<tag k="alt_name" v="Husvik skole" />
=======
	<node id="-136818" lat="65.8444749996" lon="13.2039222207">
		<tag k="amenity" v="place_of_worship" />
		<tag k="denomination" v="lutheran" />
		<tag k="name" v="Dolstad kirke" />
		<tag k="religion" v="christian" />
		<tag k="ssr:stedsnr" v="683786" />
	</node>
	<node id="-138095" lat="65.9311416639" lon="13.4066750019">
>>>>>>> e1d4bc35ff8a6074a6f2e91616a996b547c36f15
		<tag k="amenity" v="community_centre" />
		<tag k="name" v="Husvika skole" />
		<tag k="ssr:stedsnr" v="482160" />
	</node>
<<<<<<< HEAD
	<node lat="65.8444749996375" lon="13.203922220659218" id="-10432">
=======
	<node id="-137515" lat="65.9825861136" lon="13.2650833326">
>>>>>>> e1d4bc35ff8a6074a6f2e91616a996b547c36f15
		<tag k="amenity" v="place_of_worship" />
		<tag k="denomination" v="lutheran" />
		<tag k="name" v="Dolstad kirke" />
		<tag k="religion" v="christian" />
		<tag k="ssr:stedsnr" v="683786" />
	</node>
<<<<<<< HEAD
	<node lat="65.99762911591424" lon="13.327705431690998" id="-10437">
=======
	<node id="-136265" lat="65.9976291159" lon="13.3277054317">
>>>>>>> e1d4bc35ff8a6074a6f2e91616a996b547c36f15
		<tag k="alt_name" v="Perjorda, in" />
		<tag k="name" v="Indre Perjorda" />
		<tag k="place" v="locality" />
		<tag k="ssr:stedsnr" v="683835" />
	</node>
<<<<<<< HEAD
	<node lat="65.98262525284302" lon="13.265434832703024" id="-11662">
		<tag k="alt_name" v="Drevja" />
		<tag k="amenity" v="place_of_worship" />
		<tag k="denomination" v="lutheran" />
		<tag k="name" v="Drevja kirke" />
		<tag k="religion" v="christian" />
		<tag k="ssr:stedsnr" v="15841" />
	</node>
	<node lat="65.93114166388025" lon="13.406675001860478" id="-12100">
		<tag k="amenity" v="community_centre" />
		<tag k="name" v="Nerhaug" />
		<tag k="ssr:stedsnr" v="136888" />
	</node>
	<node lat="66.10593333787375" lon="13.545302772083524" id="-12536">
=======
	<node id="-135112" lat="65.8439555565" lon="13.2055583293">
		<tag k="name" v="Vefsn museum" />
		<tag k="ssr:stedsnr" v="264594" />
		<tag k="tourism" v="attraction" />
	</node>
	<node id="-138467" lat="66.1059333379" lon="13.5453027721">
>>>>>>> e1d4bc35ff8a6074a6f2e91616a996b547c36f15
		<tag k="amenity" v="place_of_worship" />
		<tag k="denomination" v="lutheran" />
		<tag k="name" v="Elsfjord kirke" />
		<tag k="religion" v="christian" />
		<tag k="ssr:stedsnr" v="318477" />
	</node>
	<node lat="66.00405832997032" lon="13.427522232096072" id="-13243">
		<tag k="amenity" v="community_centre" />
		<tag k="name" v="Ømmertun" />
		<tag k="ssr:stedsnr" v="561643" />
	</node>
	<node lat="65.85564491394231" lon="13.190251426066482" id="-14384">
		<tag k="name" v="Pålgarden" />
		<tag k="place" v="locality" />
		<tag k="ssr:stedsnr" v="1081346" />
	</node>
</osm>
