<?xml version="1.0" encoding="UTF-8"?>
<<<<<<< HEAD
<osm version="0.6" generator="osmapis">
	<node lat="65.9491555524398" lon="12.913905552735256" id="-9009">
		<tag k="name" v="Seikammen" />
		<tag k="natural" v="cape" />
		<tag k="ssr:stedsnr" v="15157" />
	</node>
	<node lat="65.97506389284419" lon="12.841577782924409" id="-9174">
		<tag k="name" v="Prestneset" />
		<tag k="natural" v="cape" />
		<tag k="ssr:stedsnr" v="76102" />
	</node>
	<node lat="65.93287499853828" lon="13.096361118793041" id="-9221">
		<tag k="name" v="Utneset" />
		<tag k="natural" v="cape" />
		<tag k="ssr:stedsnr" v="86283" />
	</node>
	<node lat="65.93911388506866" lon="12.940016674104097" id="-9257">
		<tag k="name" v="Karivika" />
		<tag k="natural" v="bay" />
		<tag k="ssr:stedsnr" v="102873" />
	</node>
	<node lat="66.1475555539506" lon="13.598441662425678" id="-9304">
		<tag k="fixme" v="multiple name tags, choose one and add the other to alt_name" />
		<tag k="name" v="Bolveneset;Bordvedneset" />
		<tag k="natural" v="cape" />
		<tag k="ssr:stedsnr" v="136497" />
	</node>
	<node lat="65.78945555665767" lon="12.698344448223462" id="-9330">
		<tag k="name" v="Småholman" />
		<tag k="place" v="islet" />
		<tag k="ssr:stedsnr" v="146168" />
	</node>
	<node lat="65.94100000295123" lon="13.06295000655248" id="-9378">
		<tag k="name" v="Urdsdalsbukta" />
		<tag k="natural" v="bay" />
		<tag k="ssr:stedsnr" v="258146" />
	</node>
	<node lat="66.13675555906511" lon="13.584316664681984" id="-9386">
		<tag k="name" v="Myrvika" />
		<tag k="natural" v="bay" />
		<tag k="ssr:stedsnr" v="258482" />
	</node>
	<node lat="66.1416194489034" lon="13.548041667683902" id="-9387">
		<tag k="fixme" v="consider seamark:type=rock or natural=shoal" />
		<tag k="name" v="Storskjeret" />
		<tag k="place" v="islet" />
		<tag k="ssr:stedsnr" v="258486" />
	</node>
	<node lat="65.88435278187231" lon="13.158158326519002" id="-9397">
		<tag k="name" v="Skjærflesa" />
		<tag k="natural" v="cape" />
		<tag k="ssr:stedsnr" v="258246" />
	</node>
	<node lat="65.89150555126326" lon="13.093263886583118" id="-9520">
		<tag k="name" v="Vikdalsbukta" />
		<tag k="natural" v="bay" />
		<tag k="ssr:stedsnr" v="197218" />
	</node>
	<node lat="65.89318055233693" lon="13.116977787993592" id="-9521">
		<tag k="name" v="Alternesvika" />
		<tag k="natural" v="bay" />
		<tag k="ssr:stedsnr" v="197223" />
	</node>
	<node lat="65.9630277780836" lon="12.768447230252285" id="-9578">
		<tag k="bay" v="fjord" />
		<tag k="name" v="Sørfjorden" />
		<tag k="natural" v="bay" />
		<tag k="ssr:stedsnr" v="207399" />
	</node>
	<node lat="65.87308888636603" lon="13.168549990388675" id="-9581">
		<tag k="name" v="Rynes" />
		<tag k="natural" v="cape" />
		<tag k="ssr:stedsnr" v="211011" />
	</node>
	<node lat="65.8434777744796" lon="12.68877777024753" id="-9665">
		<tag k="name" v="Storøra" />
		<tag k="natural" v="shoal" />
		<tag k="place" v="locality" />
		<tag k="ssr:stedsnr" v="271594" />
	</node>
	<node lat="65.96001944598744" lon="12.896577775339207" id="-9732">
		<tag k="name" v="Trollklova" />
		<tag k="natural" v="cape" />
		<tag k="ssr:stedsnr" v="258111" />
	</node>
	<node lat="65.80523333226292" lon="12.709872213167069" id="-9740">
		<tag k="bay" v="fjord" />
		<tag k="name" v="Grytåfjorden" />
		<tag k="natural" v="bay" />
		<tag k="ssr:stedsnr" v="258013" />
	</node>
	<node lat="65.84120277807824" lon="12.685399997337841" id="-9785">
		<tag k="name" v="Klubben" />
		<tag k="natural" v="cape" />
		<tag k="ssr:stedsnr" v="271609" />
	</node>
	<node lat="65.95227777703276" lon="12.97761110346772" id="-9825">
		<tag k="name" v="Innernypvikodden" />
		<tag k="natural" v="cape" />
		<tag k="ssr:stedsnr" v="284882" />
	</node>
	<node lat="65.89259166530071" lon="13.156286104802335" id="-9903">
		<tag k="name" v="Åsmulen" />
=======
<osm generator="osmapis" version="0.6">
	<node id="-135167" lat="65.7894555567" lon="12.6983444482">
		<tag k="name" v="Småholman" />
		<tag k="place" v="islet" />
		<tag k="ssr:stedsnr" v="146168" />
	</node>
	<node id="-139262" lat="66.1073555568" lon="13.5417916738">
		<tag k="name" v="Koven" />
		<tag k="natural" v="bay" />
		<tag k="ssr:stedsnr" v="621307" />
	</node>
	<node id="-139253" lat="65.9510388876" lon="12.9087750029">
		<tag k="name" v="Hamnhaugen" />
		<tag k="natural" v="cape" />
		<tag k="ssr:stedsnr" v="621157" />
	</node>
	<node id="-137716" lat="65.9657388891" lon="12.9455972302">
		<tag k="name" v="Haugneset" />
		<tag k="natural" v="cape" />
		<tag k="ssr:stedsnr" v="76124" />
	</node>
	<node id="-137714" lat="65.9750638928" lon="12.8415777829">
		<tag k="name" v="Prestneset" />
		<tag k="natural" v="cape" />
		<tag k="ssr:stedsnr" v="76102" />
	</node>
	<node id="-139249" lat="65.9599888852" lon="12.8728027683">
		<tag k="name" v="Juvika" />
		<tag k="natural" v="bay" />
		<tag k="ssr:stedsnr" v="621086" />
	</node>
	<node id="-139760" lat="66.1394972227" lon="13.5910055586">
		<tag k="name" v="Kalvavika" />
		<tag k="natural" v="bay" />
		<tag k="ssr:stedsnr" v="804520" />
	</node>
	<node id="-139758" lat="66.163261112" lon="13.6501694541">
		<tag k="name" v="Hattneset" />
		<tag k="natural" v="cape" />
		<tag k="ssr:stedsnr" v="804486" />
	</node>
	<node id="-137197" lat="65.890447226" lon="13.0746222121">
		<tag k="name" v="Bunesodden" />
		<tag k="natural" v="cape" />
		<tag k="ssr:stedsnr" v="804229" />
	</node>
	<node id="-137193" lat="65.9329083364" lon="13.0887388897">
		<tag k="name" v="Kjerringberget" />
		<tag k="natural" v="cape" />
		<tag k="ssr:stedsnr" v="804210" />
	</node>
	<node id="-138215" lat="65.9619027788" lon="12.9588694524">
		<tag k="name" v="Yttergrøftvika" />
		<tag k="natural" v="bay" />
		<tag k="ssr:stedsnr" v="163846" />
	</node>
	<node id="-138725" lat="66.1077583354" lon="13.5482499908">
		<tag k="name" v="Neset" />
		<tag k="natural" v="cape" />
		<tag k="ssr:stedsnr" v="379295" />
	</node>
	<node id="-135633" lat="65.8412027781" lon="12.6853999973">
		<tag k="name" v="Klubben" />
		<tag k="natural" v="cape" />
		<tag k="ssr:stedsnr" v="271609" />
	</node>
	<node id="-138698" lat="65.8196277802" lon="12.7016500031">
		<tag k="name" v="Svartvatnet" />
		<tag k="natural" v="bay" />
		<tag k="ssr:stedsnr" v="379022" />
	</node>
	<node id="-135113" lat="65.8913166659" lon="13.0708916671">
		<tag k="name" v="Yttervika" />
		<tag k="natural" v="bay" />
		<tag k="ssr:stedsnr" v="136225" />
	</node>
	<node id="-136693" lat="65.9280611069" lon="12.9544666556">
		<tag k="fixme" v="consider seamark:type=rock or natural=shoal" />
		<tag k="name" v="Kobbskjeret" />
		<tag k="place" v="islet" />
		<tag k="ssr:stedsnr" v="648858" />
	</node>
	<node id="-139707" lat="65.81718889" lon="12.6479055564">
		<tag k="bay" v="fjord" />
		<tag k="name" v="Halsfjorden" />
		<tag k="natural" v="bay" />
		<tag k="ssr:stedsnr" v="804027" />
	</node>
	<node id="-137144" lat="66.1502166673" lon="13.6085111051">
		<tag k="name" v="Sørvika" />
		<tag k="natural" v="bay" />
		<tag k="ssr:stedsnr" v="926465" />
	</node>
	<node id="-136692" lat="65.927533335" lon="12.9465750024">
		<tag k="name" v="Osen" />
		<tag k="natural" v="bay" />
		<tag k="ssr:stedsnr" v="648856" />
	</node>
	<node id="-138152" lat="65.832924999" lon="12.6810777687">
		<tag k="name" v="Gangvika" />
		<tag k="natural" v="bay" />
		<tag k="ssr:stedsnr" v="150588" />
	</node>
	<node id="-137627" lat="65.9684249991" lon="12.9423222161">
		<tag k="name" v="Aspneset" />
		<tag k="natural" v="cape" />
		<tag k="ssr:stedsnr" v="41845" />
	</node>
	<node id="-137114" lat="65.9292694431" lon="12.9414666642">
		<tag k="alt_name" v="Ørbukta" />
		<tag k="name" v="Ørvika" />
		<tag k="natural" v="bay" />
		<tag k="ssr:stedsnr" v="926186" />
	</node>
	<node id="-137110" lat="65.8009472261" lon="12.6048055507">
		<tag k="name" v="Skonsengodden" />
		<tag k="natural" v="cape" />
		<tag k="ssr:stedsnr" v="926024" />
	</node>
	<node id="-137109" lat="65.8143750016" lon="12.6468361122">
		<tag k="name" v="Skavneset" />
>>>>>>> e1d4bc35ff8a6074a6f2e91616a996b547c36f15
		<tag k="natural" v="cape" />
		<tag k="ssr:stedsnr" v="926022" />
	</node>
<<<<<<< HEAD
	<node lat="66.15642499772439" lon="13.626419434783815" id="-9908">
		<tag k="name" v="Nordvika" />
		<tag k="natural" v="bay" />
		<tag k="ssr:stedsnr" v="318500" />
	</node>
	<node lat="65.8337000039437" lon="12.682777786830519" id="-10029">
		<tag k="name" v="Halsan" />
		<tag k="natural" v="bay" />
		<tag k="ssr:stedsnr" v="379469" />
	</node>
	<node lat="65.9462055582494" lon="13.019158332357115" id="-10151">
		<tag k="name" v="Kvitneset" />
		<tag k="natural" v="cape" />
		<tag k="ssr:stedsnr" v="406866" />
	</node>
	<node lat="66.12073611120842" lon="13.54095556086536" id="-10157">
		<tag k="name" v="Inner-Slåttvikneset" />
		<tag k="natural" v="cape" />
		<tag k="ssr:stedsnr" v="420308" />
	</node>
	<node lat="66.12616111171778" lon="13.540755562442692" id="-10158">
		<tag k="name" v="Ytter-Slåttvikneset" />
		<tag k="natural" v="cape" />
		<tag k="ssr:stedsnr" v="420312" />
	</node>
	<node lat="65.8624138911568" lon="13.181569441281507" id="-10242">
		<tag k="name" v="Finnvika" />
		<tag k="natural" v="bay" />
		<tag k="ssr:stedsnr" v="454017" />
	</node>
	<node lat="65.95247500177031" lon="12.769752775907689" id="-10367">
		<tag k="name" v="Stranda" />
		<tag k="natural" v="beach" />
		<tag k="ssr:stedsnr" v="682130" />
	</node>
	<node lat="65.79133889044388" lon="12.693711115984433" id="-10389">
		<tag k="name" v="Rundholmen" />
		<tag k="place" v="islet" />
		<tag k="ssr:stedsnr" v="683047" />
	</node>
	<node lat="66.12644444065431" lon="13.570022228723234" id="-10399">
		<tag k="name" v="Sagvika" />
		<tag k="natural" v="bay" />
		<tag k="ssr:stedsnr" v="683429" />
	</node>
	<node lat="65.87858055421609" lon="13.164283326051441" id="-10417">
		<tag k="name" v="Kattneset" />
		<tag k="natural" v="cape" />
		<tag k="ssr:stedsnr" v="514009" />
	</node>
	<node lat="65.84354166447976" lon="13.179188884512886" id="-10427">
		<tag k="name" v="Marsøra" />
		<tag k="natural" v="cape" />
		<tag k="ssr:stedsnr" v="683784" />
	</node>
	<node lat="66.12964444305888" lon="13.539800000591613" id="-10516">
		<tag k="alt_name" v="Finskiten" />
		<tag k="name" v="Finskitodden" />
		<tag k="natural" v="cape" />
		<tag k="ssr:stedsnr" v="692729" />
	</node>
	<node lat="65.94390555613607" lon="12.73401667475525" id="-10522">
		<tag k="name" v="Høgnesskjæran" />
		<tag k="place" v="locality" />
		<tag k="seamark:type" v="rock" />
		<tag k="ssr:stedsnr" v="693292" />
	</node>
	<node lat="65.95998888521206" lon="12.87280276828981" id="-10631">
		<tag k="name" v="Juvika" />
		<tag k="natural" v="bay" />
		<tag k="ssr:stedsnr" v="621086" />
	</node>
	<node lat="66.10735555680934" lon="13.541791673818196" id="-10637">
		<tag k="name" v="Koven" />
		<tag k="natural" v="bay" />
		<tag k="ssr:stedsnr" v="621307" />
	</node>
	<node lat="65.79665555795522" lon="12.607972222894055" id="-10645">
		<tag k="name" v="Buvika" />
		<tag k="natural" v="bay" />
		<tag k="ssr:stedsnr" v="622015" />
	</node>
	<node lat="65.88523055601759" lon="13.133313887072886" id="-10732">
		<tag k="name" v="Kildvika" />
		<tag k="natural" v="bay" />
		<tag k="ssr:stedsnr" v="648354" />
	</node>
	<node lat="65.8950222182303" lon="13.125247231545929" id="-10796">
		<tag k="name" v="Alterneset" />
		<tag k="natural" v="cape" />
		<tag k="ssr:stedsnr" v="709339" />
	</node>
	<node lat="65.95937777709106" lon="12.959927778220715" id="-10815">
		<tag k="name" v="Innergrøftvika" />
=======
	<node id="-137108" lat="65.8085277779" lon="12.6798611122">
		<tag k="name" v="Ytstholmen" />
		<tag k="place" v="islet" />
		<tag k="ssr:stedsnr" v="926001" />
	</node>
	<node id="-139252" lat="65.9511777771" lon="12.9819000031">
		<tag k="name" v="Korsnesvika" />
		<tag k="natural" v="bay" />
		<tag k="ssr:stedsnr" v="621154" />
	</node>
	<node id="-135056" lat="66.1416194489" lon="13.5480416677">
		<tag k="fixme" v="consider seamark:type=rock or natural=shoal" />
		<tag k="name" v="Storskjeret" />
		<tag k="place" v="islet" />
		<tag k="ssr:stedsnr" v="258486" />
	</node>
	<node id="-135055" lat="66.1367555591" lon="13.5843166647">
		<tag k="name" v="Myrvika" />
		<tag k="natural" v="bay" />
		<tag k="ssr:stedsnr" v="258482" />
	</node>
	<node id="-139148" lat="66.1443055548" lon="13.5491527861">
		<tag k="name" v="Hestbekkbukta" />
		<tag k="natural" v="bay" />
		<tag k="ssr:stedsnr" v="585159" />
	</node>
	<node id="-137611" lat="66.145736113" lon="13.5506888803">
		<tag k="name" v="Kuvika" />
		<tag k="natural" v="bay" />
		<tag k="ssr:stedsnr" v="39132" />
	</node>
	<node id="-135047" lat="65.941000003" lon="13.0629500066">
		<tag k="name" v="Urdsdalsbukta" />
		<tag k="natural" v="bay" />
		<tag k="ssr:stedsnr" v="258146" />
	</node>
	<node id="-138117" lat="65.8521916672" lon="13.177252774">
		<tag k="name" v="Merrahola" />
		<tag k="natural" v="bay" />
		<tag k="ssr:stedsnr" v="142596" />
	</node>
	<node id="-136066" lat="65.8624138912" lon="13.1815694413">
		<tag k="name" v="Finnvika" />
		<tag k="natural" v="bay" />
		<tag k="ssr:stedsnr" v="454017" />
	</node>
	<node id="-136577" lat="65.8412555533" lon="13.1871944463">
		<tag k="name" v="Bordvedneset" />
		<tag k="natural" v="cape" />
		<tag k="ssr:stedsnr" v="723383" />
	</node>
	<node id="-135040" lat="65.960019446" lon="12.8965777753">
		<tag k="name" v="Trollklova" />
		<tag k="natural" v="cape" />
		<tag k="ssr:stedsnr" v="258111" />
	</node>
	<node id="-135036" lat="65.8843527819" lon="13.1581583265">
		<tag k="name" v="Skjærflesa" />
		<tag k="natural" v="cape" />
		<tag k="ssr:stedsnr" v="258246" />
	</node>
	<node id="-140010" lat="65.8192638906" lon="12.6109000017">
		<tag k="name" v="Halsneset" />
		<tag k="natural" v="cape" />
		<tag k="ssr:stedsnr" v="865516" />
	</node>
	<node id="-135230" lat="66.1451694467" lon="13.5486583269">
		<tag k="name" v="Sildgarnodden" />
		<tag k="natural" v="cape" />
		<tag k="ssr:stedsnr" v="282157" />
	</node>
	<node id="-135536" lat="65.8052333323" lon="12.7098722132">
		<tag k="bay" v="fjord" />
		<tag k="name" v="Grytåfjorden" />
		<tag k="natural" v="bay" />
		<tag k="ssr:stedsnr" v="258013" />
	</node>
	<node id="-138607" lat="66.1466055521" lon="13.5503944444">
		<tag k="name" v="Kuvikodden" />
		<tag k="natural" v="cape" />
		<tag k="ssr:stedsnr" v="342155" />
	</node>
	<node id="-137069" lat="65.9559083369" lon="12.7792250094">
		<tag k="name" v="Skjærjevika" />
		<tag k="natural" v="bay" />
		<tag k="ssr:stedsnr" v="925137" />
	</node>
	<node id="-137065" lat="65.9640638854" lon="12.9559666635">
		<tag k="name" v="Litlvika" />
		<tag k="natural" v="bay" />
		<tag k="ssr:stedsnr" v="925111" />
	</node>
	<node id="-135010" lat="65.9275333323" lon="13.1374083416">
		<tag k="name" v="Snauvika" />
		<tag k="natural" v="bay" />
		<tag k="ssr:stedsnr" v="82573" />
	</node>
	<node id="-135141" lat="65.8434777745" lon="12.6887777702">
		<tag k="name" v="Storøra" />
		<tag k="natural" v="shoal" />
		<tag k="place" v="locality" />
		<tag k="ssr:stedsnr" v="271594" />
	</node>
	<node id="-136045" lat="65.8537277739" lon="13.1615805602">
		<tag k="name" v="Rapneset" />
		<tag k="natural" v="cape" />
		<tag k="ssr:stedsnr" v="440776" />
	</node>
	<node id="-135003" lat="65.8257722225" lon="12.6660194439">
		<tag k="name" v="Husvika" />
		<tag k="natural" v="bay" />
		<tag k="ssr:stedsnr" v="76509" />
	</node>
	<node id="-135508" lat="65.8899111104" lon="13.0785027821">
		<tag k="name" v="Kalvgardsvika" />
		<tag k="natural" v="bay" />
		<tag k="ssr:stedsnr" v="446596" />
	</node>
	<node id="-137555" lat="66.1357777778" lon="13.5403111147">
		<tag k="name" v="Neverstøa" />
		<tag k="natural" v="bay" />
		<tag k="ssr:stedsnr" v="25752" />
	</node>
	<node id="-137036" lat="66.1142416663" lon="13.5617027753">
		<tag k="name" v="Laneset" />
		<tag k="natural" v="cape" />
		<tag k="ssr:stedsnr" v="759110" />
	</node>
	<node id="-136523" lat="65.9671611088" lon="12.9431944331">
		<tag k="name" v="Mølnvika" />
		<tag k="natural" v="bay" />
		<tag k="ssr:stedsnr" v="709848" />
	</node>
	<node id="-136520" lat="65.9593777771" lon="12.9599277782">
		<tag k="name" v="Innergrøftvika" />
		<tag k="natural" v="bay" />
		<tag k="ssr:stedsnr" v="709844" />
	</node>
	<node id="-138563" lat="65.9340611134" lon="13.0777861134">
		<tag k="alt_name" v="Stranda" />
		<tag k="name" v="Utnesstranda" />
		<tag k="natural" v="beach" />
		<tag k="place" v="locality" />
		<tag k="ssr:stedsnr" v="329280" />
	</node>
	<node id="-138050" lat="65.8208861076" lon="12.6714222327">
		<tag k="name" v="Alsneset" />
		<tag k="natural" v="cape" />
		<tag k="ssr:stedsnr" v="136513" />
	</node>
	<node id="-138379" lat="65.9630277781" lon="12.7684472303">
		<tag k="bay" v="fjord" />
		<tag k="name" v="Sørfjorden" />
>>>>>>> e1d4bc35ff8a6074a6f2e91616a996b547c36f15
		<tag k="natural" v="bay" />
		<tag k="ssr:stedsnr" v="709844" />
	</node>
<<<<<<< HEAD
	<node lat="65.9671611088152" lon="12.943194433140837" id="-10818">
		<tag k="name" v="Mølnvika" />
		<tag k="natural" v="bay" />
		<tag k="ssr:stedsnr" v="709848" />
	</node>
	<node lat="65.94695278152436" lon="13.036211115354796" id="-10865">
		<tag k="name" v="Gautvikneset" />
		<tag k="natural" v="cape" />
		<tag k="ssr:stedsnr" v="891864" />
	</node>
	<node lat="65.89658055308188" lon="13.058344449971015" id="-10873">
		<tag k="name" v="Rapo" />
		<tag k="natural" v="cape" />
		<tag k="ssr:stedsnr" v="682217" />
	</node>
	<node lat="65.80269999976461" lon="12.697661115568597" id="-10999">
		<tag k="name" v="Skipneset" />
		<tag k="natural" v="cape" />
		<tag k="ssr:stedsnr" v="743003" />
	</node>
	<node lat="66.14863333576773" lon="13.577938896302008" id="-11018">
		<tag k="bay" v="fjord" />
		<tag k="name" v="Elsfjorden" />
		<tag k="natural" v="bay" />
		<tag k="ssr:stedsnr" v="743484" />
	</node>
	<node lat="65.88736944266641" lon="13.094844448805434" id="-11070">
		<tag k="name" v="Holmen" />
		<tag k="natural" v="cape" />
		<tag k="ssr:stedsnr" v="757100" />
	</node>
	<node lat="65.84439166906424" lon="12.687005551836522" id="-11076">
		<tag k="name" v="Dordivika" />
		<tag k="natural" v="bay" />
		<tag k="ssr:stedsnr" v="757517" />
	</node>
	<node lat="66.11424166627559" lon="13.561702775254135" id="-11097">
		<tag k="name" v="Laneset" />
		<tag k="natural" v="cape" />
		<tag k="ssr:stedsnr" v="759110" />
	</node>
	<node lat="65.81718888998614" lon="12.64790555639566" id="-11181">
		<tag k="bay" v="fjord" />
		<tag k="name" v="Halsfjorden" />
		<tag k="natural" v="bay" />
		<tag k="ssr:stedsnr" v="804027" />
	</node>
	<node lat="66.13949722267637" lon="13.591005558565367" id="-11194">
		<tag k="name" v="Kalvavika" />
		<tag k="natural" v="bay" />
		<tag k="ssr:stedsnr" v="804520" />
	</node>
	<node lat="66.14967499841543" lon="13.554341655342593" id="-11233">
		<tag k="name" v="Vikran" />
		<tag k="natural" v="bay" />
		<tag k="ssr:stedsnr" v="828134" />
	</node>
	<node lat="65.95590833693939" lon="12.779225009363962" id="-11278">
		<tag k="name" v="Skjærjevika" />
		<tag k="natural" v="bay" />
		<tag k="ssr:stedsnr" v="925137" />
	</node>
	<node lat="65.9369527810426" lon="12.720824992845039" id="-11313">
		<tag k="name" v="Neset" />
		<tag k="natural" v="cape" />
		<tag k="ssr:stedsnr" v="847975" />
	</node>
	<node lat="65.80852777787719" lon="12.679861112226824" id="-11325">
		<tag k="name" v="Ytstholmen" />
		<tag k="place" v="islet" />
		<tag k="ssr:stedsnr" v="926001" />
	</node>
	<node lat="65.8143750016019" lon="12.646836112192231" id="-11335">
		<tag k="name" v="Skavneset" />
		<tag k="natural" v="cape" />
		<tag k="ssr:stedsnr" v="926022" />
	</node>
	<node lat="65.80094722605092" lon="12.604805550744691" id="-11336">
		<tag k="name" v="Skonsengodden" />
		<tag k="natural" v="cape" />
		<tag k="ssr:stedsnr" v="926024" />
	</node>
	<node lat="65.9292694430525" lon="12.941466664175474" id="-11344">
		<tag k="alt_name" v="Ørbukta" />
		<tag k="name" v="Ørvika" />
		<tag k="natural" v="bay" />
		<tag k="ssr:stedsnr" v="926186" />
	</node>
	<node lat="65.96406388539847" lon="12.955966663516897" id="-11475">
		<tag k="name" v="Litlvika" />
		<tag k="natural" v="bay" />
		<tag k="ssr:stedsnr" v="925111" />
	</node>
	<node lat="66.15021666726216" lon="13.608511105097797" id="-11505">
		<tag k="name" v="Sørvika" />
		<tag k="natural" v="bay" />
		<tag k="ssr:stedsnr" v="926465" />
	</node>
	<node lat="65.93914722275633" lon="13.064780548836756" id="-11598">
		<tag k="name" v="Kompelmulen" />
		<tag k="natural" v="cape" />
		<tag k="ssr:stedsnr" v="952815" />
	</node>
	<node lat="65.96513610785163" lon="12.806458322126472" id="-11613">
		<tag k="name" v="Ukkelfora" />
		<tag k="natural" v="cape" />
		<tag k="ssr:stedsnr" v="967887" />
	</node>
	<node lat="65.94904166263531" lon="12.986027787898824" id="-11642">
		<tag k="name" v="Korsneset" />
		<tag k="natural" v="cape" />
		<tag k="ssr:stedsnr" v="15144" />
	</node>
	<node lat="65.94721111561604" lon="13.051611103820237" id="-11658">
		<tag k="name" v="Litlvika" />
		<tag k="natural" v="bay" />
		<tag k="ssr:stedsnr" v="15491" />
	</node>
	<node lat="65.93560555486278" lon="12.706827782427293" id="-11722">
		<tag k="fixme" v="consider seamark:type=rock or natural=shoal" />
		<tag k="name" v="Mortenskjæret" />
		<tag k="place" v="islet" />
		<tag k="ssr:stedsnr" v="25243" />
	</node>
	<node lat="66.13577777778215" lon="13.540311114733806" id="-11723">
		<tag k="name" v="Neverstøa" />
		<tag k="natural" v="bay" />
		<tag k="ssr:stedsnr" v="25752" />
	</node>
	<node lat="66.14573611302527" lon="13.550688880271553" id="-11775">
		<tag k="name" v="Kuvika" />
		<tag k="natural" v="bay" />
		<tag k="ssr:stedsnr" v="39132" />
	</node>
	<node lat="65.96842499906337" lon="12.942322216115008" id="-11789">
		<tag k="name" v="Aspneset" />
		<tag k="natural" v="cape" />
		<tag k="ssr:stedsnr" v="41845" />
	</node>
	<node lat="65.96573888905407" lon="12.945597230199128" id="-11849">
		<tag k="name" v="Haugneset" />
		<tag k="natural" v="cape" />
		<tag k="ssr:stedsnr" v="76124" />
	</node>
	<node lat="65.82577222248287" lon="12.666019443852338" id="-11880">
		<tag k="name" v="Husvika" />
		<tag k="natural" v="bay" />
		<tag k="ssr:stedsnr" v="76509" />
	</node>
	<node lat="65.86231388997784" lon="13.18391667131569" id="-11896">
		<tag k="name" v="Halsøya" />
		<tag k="natural" v="cape" />
		<tag k="ssr:stedsnr" v="76786" />
	</node>
	<node lat="65.92753333234634" lon="13.137408341644347" id="-11920">
		<tag k="name" v="Snauvika" />
		<tag k="natural" v="bay" />
		<tag k="ssr:stedsnr" v="82573" />
	</node>
	<node lat="65.84010277943511" lon="12.683958342222164" id="-11925">
		<tag k="name" v="Klubbvika" />
		<tag k="natural" v="bay" />
		<tag k="ssr:stedsnr" v="89565" />
	</node>
	<node lat="66.11275278120763" lon="13.538991665874919" id="-11972">
		<tag k="name" v="Naustneset" />
		<tag k="natural" v="cape" />
		<tag k="ssr:stedsnr" v="92101" />
	</node>
	<node lat="65.95456666611128" lon="12.970102770217313" id="-12006">
		<tag k="name" v="Ytternypvikodden" />
		<tag k="natural" v="cape" />
		<tag k="ssr:stedsnr" v="102860" />
	</node>
	<node lat="65.8913166659386" lon="13.07089166707564" id="-12072">
		<tag k="name" v="Yttervika" />
		<tag k="natural" v="bay" />
		<tag k="ssr:stedsnr" v="136225" />
	</node>
	<node lat="65.82088610760906" lon="12.671422232653939" id="-12103">
		<tag k="name" v="Alsneset" />
		<tag k="natural" v="cape" />
		<tag k="ssr:stedsnr" v="136513" />
	</node>
	<node lat="65.85219166723081" lon="13.177252774015079" id="-12145">
		<tag k="name" v="Merrahola" />
		<tag k="natural" v="bay" />
		<tag k="ssr:stedsnr" v="142596" />
	</node>
	<node lat="65.83292499896099" lon="12.681077768743517" id="-12167">
		<tag k="name" v="Gangvika" />
		<tag k="natural" v="bay" />
		<tag k="ssr:stedsnr" v="150588" />
	</node>
	<node lat="65.96190277882617" lon="12.958869452387612" id="-12226">
		<tag k="name" v="Yttergrøftvika" />
		<tag k="natural" v="bay" />
		<tag k="ssr:stedsnr" v="163846" />
	</node>
	<node lat="65.924119447845" lon="13.031333339311013" id="-12273">
		<tag k="name" v="Levra" />
		<tag k="natural" v="cape" />
		<tag k="ssr:stedsnr" v="197186" />
	</node>
	<node lat="65.88891388782184" lon="13.082658337415516" id="-12280">
		<tag k="name" v="Skjåvika" />
		<tag k="natural" v="bay" />
		<tag k="ssr:stedsnr" v="197226" />
	</node>
	<node lat="65.89232499667361" lon="13.109119453330322" id="-12281">
		<tag k="name" v="Kobbsteinen" />
		<tag k="natural" v="cape" />
		<tag k="ssr:stedsnr" v="197227" />
	</node>
	<node lat="65.90307447674135" lon="13.165159120813689" id="-12284">
		<tag k="name" v="Fustrota" />
		<tag k="natural" v="cape" />
		<tag k="ssr:stedsnr" v="197244" />
	</node>
	<node lat="65.81578055195122" lon="12.614572211583097" id="-12288">
		<tag k="name" v="Merra" />
		<tag k="natural" v="cape" />
		<tag k="ssr:stedsnr" v="197536" />
	</node>
	<node lat="66.16905277507264" lon="13.581280562243919" id="-12295">
		<tag k="name" v="Storvika" />
		<tag k="natural" v="bay" />
		<tag k="ssr:stedsnr" v="197505" />
	</node>
	<node lat="65.96651388839311" lon="12.806752774212026" id="-12316">
		<tag k="name" v="Hammarneset" />
		<tag k="natural" v="cape" />
		<tag k="ssr:stedsnr" v="198100" />
	</node>
	<node lat="65.77865833502378" lon="12.71427499267972" id="-12327">
		<tag k="name" v="Lammholmen" />
		<tag k="place" v="islet" />
		<tag k="ssr:stedsnr" v="198025" />
	</node>
	<node lat="65.9468083368054" lon="13.133283335899987" id="-12376">
		<tag k="name" v="Risneset" />
		<tag k="natural" v="cape" />
		<tag k="ssr:stedsnr" v="211567" />
	</node>
	<node lat="66.14516944668088" lon="13.548658326862334" id="-12448">
		<tag k="name" v="Sildgarnodden" />
		<tag k="natural" v="cape" />
		<tag k="ssr:stedsnr" v="282157" />
	</node>
	<node lat="65.93612500227661" lon="13.067055546943715" id="-12472">
		<tag k="name" v="Hestvika" />
		<tag k="natural" v="bay" />
		<tag k="ssr:stedsnr" v="284869" />
	</node>
	<node lat="65.95861388791808" lon="12.96263054630808" id="-12530">
		<tag k="name" v="Svenskhammaren" />
		<tag k="natural" v="cape" />
		<tag k="ssr:stedsnr" v="318094" />
	</node>
	<node lat="65.93262500290201" lon="12.715844447091763" id="-12539">
		<tag k="name" v="Osen" />
=======
	<node id="-138047" lat="66.147555554" lon="13.5984416624">
		<tag k="fixme" v="multiple name tags, choose one and add the other to alt_name" />
		<tag k="name" v="Bolveneset;Bordvedneset" />
		<tag k="natural" v="cape" />
		<tag k="ssr:stedsnr" v="136497" />
	</node>
	<node id="-139575" lat="65.8443916691" lon="12.6870055518">
		<tag k="name" v="Dordivika" />
		<tag k="natural" v="bay" />
		<tag k="ssr:stedsnr" v="757517" />
	</node>
	<node id="-135990" lat="65.8377888878" lon="12.682844441">
		<tag k="fixme" v="consider seamark:type=rock or natural=shoal" />
		<tag k="name" v="Nordvikskjeret" />
		<tag k="place" v="islet" />
		<tag k="ssr:stedsnr" v="514629" />
	</node>
	<node id="-139486" lat="66.1321916697" lon="13.5745444393">
		<tag k="name" v="Kvassteinvika" />
		<tag k="natural" v="bay" />
		<tag k="ssr:stedsnr" v="743447" />
	</node>
	<node id="-140079" lat="65.9602805577" lon="12.9596805659">
		<tag k="name" v="Gravvikneset" />
		<tag k="natural" v="cape" />
		<tag k="ssr:stedsnr" v="875475" />
	</node>
	<node id="-140077" lat="65.8467055576" lon="13.1704916769">
		<tag k="name" v="Kovhola" />
		<tag k="natural" v="bay" />
		<tag k="ssr:stedsnr" v="871592" />
	</node>
	<node id="-135975" lat="66.1261611117" lon="13.5407555624">
		<tag k="name" v="Ytter-Slåttvikneset" />
		<tag k="natural" v="cape" />
		<tag k="ssr:stedsnr" v="420312" />
	</node>
	<node id="-135974" lat="66.1207361112" lon="13.5409555609">
		<tag k="name" v="Inner-Slåttvikneset" />
		<tag k="natural" v="cape" />
		<tag k="ssr:stedsnr" v="420308" />
	</node>
	<node id="-139553" lat="65.8873694427" lon="13.0948444488">
		<tag k="name" v="Holmen" />
		<tag k="natural" v="cape" />
		<tag k="ssr:stedsnr" v="757100" />
	</node>
	<node id="-139040" lat="65.9273305553" lon="12.9583055493">
		<tag k="name" v="Hundålbukta" />
		<tag k="natural" v="bay" />
		<tag k="ssr:stedsnr" v="561179" />
	</node>
	<node id="-135965" lat="65.8785805542" lon="13.1642833261">
		<tag k="name" v="Kattneset" />
		<tag k="natural" v="cape" />
		<tag k="ssr:stedsnr" v="514009" />
	</node>
	<node id="-135962" lat="65.936366667" lon="12.7120805514">
		<tag k="fixme" v="consider seamark:type=rock or natural=shoal" />
		<tag k="name" v="Vesantskjæret" />
		<tag k="place" v="islet" />
		<tag k="ssr:stedsnr" v="511253" />
	</node>
	<node id="-139029" lat="65.9410555542" lon="12.9221777787">
		<tag k="name" v="Urdvika" />
		<tag k="natural" v="bay" />
		<tag k="ssr:stedsnr" v="561146" />
	</node>
	<node id="-135956" lat="65.9462055582" lon="13.0191583324">
		<tag k="name" v="Kvitneset" />
		<tag k="natural" v="cape" />
		<tag k="ssr:stedsnr" v="406866" />
	</node>
	<node id="-135437" lat="65.7859083347" lon="12.6987083429">
		<tag k="bay" v="fjord" />
		<tag k="name" v="Sørfjorden" />
		<tag k="natural" v="bay" />
		<tag k="ssr:stedsnr" v="440462" />
	</node>
	<node id="-136917" lat="65.8950222182" lon="13.1252472315">
		<tag k="name" v="Alterneset" />
		<tag k="natural" v="cape" />
		<tag k="ssr:stedsnr" v="709339" />
	</node>
	<node id="-134904" lat="65.9356055549" lon="12.7068277824">
		<tag k="fixme" v="consider seamark:type=rock or natural=shoal" />
		<tag k="name" v="Mortenskjæret" />
		<tag k="place" v="islet" />
		<tag k="ssr:stedsnr" v="25243" />
	</node>
	<node id="-137461" lat="65.9491555524" lon="12.9139055527">
		<tag k="name" v="Seikammen" />
		<tag k="natural" v="cape" />
		<tag k="ssr:stedsnr" v="15157" />
	</node>
	<node id="-135409" lat="65.9255749972" lon="13.1320222245">
		<tag k="fixme" v="consider seamark:type=rock or natural=shoal" />
		<tag k="name" v="Kobbskjæret" />
		<tag k="place" v="islet" />
		<tag k="ssr:stedsnr" v="440219" />
	</node>
	<node id="-138474" lat="65.9378249972" lon="12.9401861029">
		<tag k="name" v="Kvitneset" />
		<tag k="natural" v="cape" />
		<tag k="ssr:stedsnr" v="319130" />
	</node>
	<node id="-140009" lat="65.821519447" lon="12.6229583268">
		<tag k="name" v="Juvikholmen" />
		<tag k="place" v="islet" />
		<tag k="ssr:stedsnr" v="865514" />
	</node>
	<node id="-140008" lat="66.1531194404" lon="13.620102781">
		<tag k="name" v="Hattholten" />
		<tag k="natural" v="cape" />
		<tag k="ssr:stedsnr" v="865505" />
	</node>
	<node id="-138471" lat="66.1564249977" lon="13.6264194348">
		<tag k="name" v="Nordvika" />
		<tag k="natural" v="bay" />
		<tag k="ssr:stedsnr" v="318500" />
	</node>
	<node id="-138470" lat="65.9326250029" lon="12.7158444471">
		<tag k="name" v="Osen" />
		<tag k="natural" v="bay" />
		<tag k="ssr:stedsnr" v="318482" />
	</node>
	<node id="-140000" lat="65.904675" lon="12.6105861166">
		<tag k="bay" v="fjord" />
		<tag k="name" v="Vefsnfjorden" />
		<tag k="natural" v="bay" />
		<tag k="ssr:stedsnr" v="865409" />
	</node>
	<node id="-138974" lat="65.9255888914" lon="12.9616305594">
		<tag k="name" v="Finnvika" />
		<tag k="natural" v="bay" />
		<tag k="ssr:stedsnr" v="527851" />
	</node>
	<node id="-138972" lat="65.9531861083" lon="12.9729638964">
		<tag k="name" v="Nypvika" />
		<tag k="natural" v="bay" />
		<tag k="ssr:stedsnr" v="527841" />
	</node>
	<node id="-139483" lat="66.1486333358" lon="13.5779388963">
		<tag k="bay" v="fjord" />
		<tag k="name" v="Elsfjorden" />
		<tag k="natural" v="bay" />
		<tag k="ssr:stedsnr" v="743484" />
	</node>
	<node id="-137433" lat="65.9391472228" lon="13.0647805488">
		<tag k="name" v="Kompelmulen" />
		<tag k="natural" v="cape" />
		<tag k="ssr:stedsnr" v="952815" />
	</node>
	<node id="-139992" lat="65.8721333368" lon="13.1404749977">
		<tag k="name" v="Tortenvika" />
		<tag k="natural" v="bay" />
		<tag k="ssr:stedsnr" v="865273" />
	</node>
	<node id="-137942" lat="65.9391138851" lon="12.9400166741">
		<tag k="name" v="Karivika" />
		<tag k="natural" v="bay" />
		<tag k="ssr:stedsnr" v="102873" />
	</node>
	<node id="-138453" lat="65.9586138879" lon="12.9626305463">
		<tag k="name" v="Svenskhammaren" />
		<tag k="natural" v="cape" />
		<tag k="ssr:stedsnr" v="318094" />
	</node>
	<node id="-138452" lat="65.8925916653" lon="13.1562861048">
		<tag k="name" v="Åsmulen" />
		<tag k="natural" v="cape" />
		<tag k="ssr:stedsnr" v="318239" />
	</node>
	<node id="-137939" lat="65.9545666661" lon="12.9701027702">
		<tag k="name" v="Ytternypvikodden" />
		<tag k="natural" v="cape" />
		<tag k="ssr:stedsnr" v="102860" />
	</node>
	<node id="-139984" lat="65.9692972232" lon="12.8493138958">
		<tag k="name" v="Sørnesvågen" />
		<tag k="natural" v="bay" />
		<tag k="ssr:stedsnr" v="865148" />
	</node>
	<node id="-139467" lat="65.8026999998" lon="12.6976611156">
		<tag k="name" v="Skipneset" />
		<tag k="natural" v="cape" />
		<tag k="ssr:stedsnr" v="743003" />
	</node>
	<node id="-135880" lat="65.8622083328" lon="13.1537777674">
		<tag k="name" v="Svarthamran" />
		<tag k="natural" v="cape" />
		<tag k="ssr:stedsnr" v="501766" />
	</node>
	<node id="-135879" lat="65.8644416691" lon="13.1496388835">
		<tag k="name" v="Skreppen" />
		<tag k="natural" v="cape" />
		<tag k="ssr:stedsnr" v="501764" />
	</node>
	<node id="-136900" lat="65.9469527815" lon="13.0362111154">
		<tag k="name" v="Gautvikneset" />
		<tag k="natural" v="cape" />
		<tag k="ssr:stedsnr" v="891864" />
	</node>
	<node id="-135868" lat="65.9176055583" lon="13.1415472334">
		<tag k="name" v="Vikberget" />
		<tag k="natural" v="cape" />
		<tag k="ssr:stedsnr" v="501152" />
	</node>
	<node id="-139722" lat="65.8878444451" lon="13.1322027712">
		<tag k="name" v="Engeskjåan" />
		<tag k="natural" v="cape" />
		<tag k="ssr:stedsnr" v="804273" />
	</node>
	<node id="-139448" lat="65.885230556" lon="13.1333138871">
		<tag k="name" v="Kildvika" />
		<tag k="natural" v="bay" />
		<tag k="ssr:stedsnr" v="648354" />
	</node>
	<node id="-135341" lat="65.778658335" lon="12.7142749927">
		<tag k="name" v="Lammholmen" />
		<tag k="place" v="islet" />
		<tag k="ssr:stedsnr" v="198025" />
	</node>
	<node id="-139947" lat="65.936952781" lon="12.7208249928">
		<tag k="name" v="Neset" />
		<tag k="natural" v="cape" />
		<tag k="ssr:stedsnr" v="847975" />
	</node>
	<node id="-139292" lat="65.9447444441" lon="13.0558249956">
		<tag k="name" v="Kåvika" />
>>>>>>> e1d4bc35ff8a6074a6f2e91616a996b547c36f15
		<tag k="natural" v="bay" />
		<tag k="ssr:stedsnr" v="622140" />
	</node>
<<<<<<< HEAD
	<node lat="65.9378249972337" lon="12.940186102931333" id="-12566">
		<tag k="name" v="Kvitneset" />
		<tag k="natural" v="cape" />
		<tag k="ssr:stedsnr" v="319130" />
	</node>
	<node lat="65.9413694465176" lon="12.92474722574335" id="-12611">
		<tag k="name" v="Olavika" />
		<tag k="natural" v="bay" />
		<tag k="ssr:stedsnr" v="328439" />
	</node>
	<node lat="65.93406111343457" lon="13.077786113441212" id="-12612">
		<tag k="alt_name" v="Stranda" />
		<tag k="name" v="Utnesstranda" />
		<tag k="natural" v="beach" />
		<tag k="ssr:stedsnr" v="329280" />
	</node>
	<node lat="66.14660555209478" lon="13.55039444443835" id="-12653">
		<tag k="name" v="Kuvikodden" />
		<tag k="natural" v="cape" />
		<tag k="ssr:stedsnr" v="342155" />
	</node>
	<node lat="65.81962778023879" lon="12.701650003106629" id="-12765">
		<tag k="name" v="Svartvatnet" />
		<tag k="natural" v="bay" />
		<tag k="ssr:stedsnr" v="379022" />
	</node>
	<node lat="66.10775833540984" lon="13.54824999078506" id="-12775">
		<tag k="name" v="Neset" />
=======
	<node id="-137894" lat="66.1127527812" lon="13.5389916659">
		<tag k="name" v="Naustneset" />
		<tag k="natural" v="cape" />
		<tag k="ssr:stedsnr" v="92101" />
	</node>
	<node id="-139941" lat="65.940611114" lon="12.9351222331">
		<tag k="name" v="Karivika" />
		<tag k="natural" v="bay" />
		<tag k="ssr:stedsnr" v="847899" />
	</node>
	<node id="-138401" lat="65.9468083368" lon="13.1332833359">
		<tag k="name" v="Risneset" />
>>>>>>> e1d4bc35ff8a6074a6f2e91616a996b547c36f15
		<tag k="natural" v="cape" />
		<tag k="ssr:stedsnr" v="211567" />
	</node>
<<<<<<< HEAD
	<node lat="65.85331944009452" lon="13.193627783482832" id="-12827">
		<tag k="alt_name" v="Bustenen" />
		<tag k="name" v="Baustein" />
		<tag k="natural" v="beach" />
		<tag k="ssr:stedsnr" v="389480" />
	</node>
	<node lat="65.93698889262723" lon="13.06584721216449" id="-12887">
		<tag k="name" v="Stongneset" />
		<tag k="natural" v="cape" />
		<tag k="ssr:stedsnr" v="406839" />
	</node>
	<node lat="65.93729444743592" lon="12.717211114983321" id="-12919">
		<tag k="name" v="Arnvika" />
		<tag k="natural" v="bay" />
		<tag k="ssr:stedsnr" v="422971" />
	</node>
	<node lat="65.92557499716338" lon="13.132022224536813" id="-12948">
		<tag k="fixme" v="consider seamark:type=rock or natural=shoal" />
		<tag k="name" v="Kobbskjæret" />
		<tag k="place" v="islet" />
		<tag k="ssr:stedsnr" v="440219" />
	</node>
	<node lat="65.78590833473888" lon="12.698708342884002" id="-12973">
		<tag k="bay" v="fjord" />
		<tag k="name" v="Sørfjorden" />
		<tag k="natural" v="bay" />
		<tag k="ssr:stedsnr" v="440462" />
	</node>
	<node lat="65.85372777393913" lon="13.161580560239765" id="-12985">
		<tag k="name" v="Rapneset" />
		<tag k="natural" v="cape" />
		<tag k="ssr:stedsnr" v="440776" />
	</node>
	<node lat="65.88991111038744" lon="13.078502782080227" id="-13004">
		<tag k="name" v="Kalvgardsvika" />
		<tag k="natural" v="bay" />
		<tag k="ssr:stedsnr" v="446596" />
	</node>
	<node lat="65.91760555832543" lon="13.141547233415452" id="-13039">
		<tag k="name" v="Vikberget" />
		<tag k="natural" v="cape" />
		<tag k="ssr:stedsnr" v="501152" />
	</node>
	<node lat="65.8644416691132" lon="13.149638883515085" id="-13058">
		<tag k="name" v="Skreppen" />
		<tag k="natural" v="cape" />
		<tag k="ssr:stedsnr" v="501764" />
	</node>
	<node lat="65.86220833280636" lon="13.153777767417644" id="-13059">
		<tag k="name" v="Svarthamran" />
		<tag k="natural" v="cape" />
		<tag k="ssr:stedsnr" v="501766" />
	</node>
	<node lat="65.93636666704012" lon="12.71208055135572" id="-13065">
		<tag k="fixme" v="consider seamark:type=rock or natural=shoal" />
		<tag k="name" v="Vesantskjæret" />
		<tag k="place" v="islet" />
		<tag k="ssr:stedsnr" v="511253" />
	</node>
	<node lat="65.8377888877642" lon="12.682844441029966" id="-13088">
		<tag k="fixme" v="consider seamark:type=rock or natural=shoal" />
		<tag k="name" v="Nordvikskjeret" />
		<tag k="place" v="islet" />
		<tag k="ssr:stedsnr" v="514629" />
	</node>
	<node lat="65.9424000024842" lon="13.060730559689977" id="-13134">
		<tag k="name" v="Kåvikodden" />
		<tag k="natural" v="cape" />
		<tag k="ssr:stedsnr" v="527825" />
	</node>
	<node lat="65.9531861082632" lon="12.97296389642046" id="-13138">
		<tag k="name" v="Nypvika" />
		<tag k="natural" v="bay" />
		<tag k="ssr:stedsnr" v="527841" />
	</node>
	<node lat="65.92558889144364" lon="12.961630559370855" id="-13140">
		<tag k="name" v="Finnvika" />
		<tag k="natural" v="bay" />
		<tag k="ssr:stedsnr" v="527851" />
	</node>
	<node lat="65.94105555423056" lon="12.922177778672227" id="-13180">
		<tag k="name" v="Urdvika" />
		<tag k="natural" v="bay" />
		<tag k="ssr:stedsnr" v="561146" />
	</node>
	<node lat="65.92733055532277" lon="12.958305549285834" id="-13200">
		<tag k="name" v="Hundålbukta" />
		<tag k="natural" v="bay" />
		<tag k="ssr:stedsnr" v="561179" />
	</node>
	<node lat="66.14430555482403" lon="13.549152786133424" id="-13347">
		<tag k="name" v="Hestbekkbukta" />
		<tag k="natural" v="bay" />
		<tag k="ssr:stedsnr" v="585159" />
	</node>
	<node lat="65.95117777705477" lon="12.981900003131614" id="-13433">
		<tag k="name" v="Korsnesvika" />
		<tag k="natural" v="bay" />
		<tag k="ssr:stedsnr" v="621154" />
	</node>
	<node lat="65.95103888760109" lon="12.90877500291169" id="-13434">
		<tag k="name" v="Hamnhaugen" />
		<tag k="natural" v="cape" />
		<tag k="ssr:stedsnr" v="621157" />
	</node>
	<node lat="65.81328888760913" lon="12.658508322323843" id="-13455">
		<tag k="name" v="Grofvika" />
		<tag k="natural" v="bay" />
		<tag k="ssr:stedsnr" v="622023" />
	</node>
	<node lat="65.94474444410142" lon="13.055824995609774" id="-13460">
		<tag k="name" v="Kåvika" />
		<tag k="natural" v="bay" />
		<tag k="ssr:stedsnr" v="622140" />
	</node>
	<node lat="65.94065832939555" lon="13.133577770849273" id="-13462">
		<tag k="fixme" v="consider seamark:type=rock or natural=shoal" />
		<tag k="name" v="Jektskjæret" />
		<tag k="place" v="islet" />
		<tag k="ssr:stedsnr" v="622199" />
	</node>
	<node lat="66.12193333660505" lon="13.540377780063347" id="-13506">
		<tag k="name" v="Slåttvika" />
		<tag k="natural" v="bay" />
		<tag k="ssr:stedsnr" v="631749" />
	</node>
	<node lat="65.79672222036048" lon="12.682958325383147" id="-13511">
		<tag k="fixme" v="consider seamark:type=rock or natural=shoal" />
		<tag k="name" v="Småskjæran" />
		<tag k="place" v="islet" />
		<tag k="ssr:stedsnr" v="632228" />
	</node>
	<node lat="65.89357222028384" lon="13.156241656991085" id="-13529">
=======
	<node id="-135326" lat="65.815780552" lon="12.6145722116">
		<tag k="name" v="Merra" />
		<tag k="natural" v="cape" />
		<tag k="ssr:stedsnr" v="197536" />
	</node>
	<node id="-135324" lat="66.1690527751" lon="13.5812805622">
		<tag k="name" v="Storvika" />
		<tag k="natural" v="bay" />
		<tag k="ssr:stedsnr" v="197505" />
	</node>
	<node id="-135322" lat="65.8915055513" lon="13.0932638866">
		<tag k="name" v="Vikdalsbukta" />
		<tag k="natural" v="bay" />
		<tag k="ssr:stedsnr" v="197218" />
	</node>
	<node id="-138925" lat="65.9372944474" lon="12.717211115">
		<tag k="name" v="Arnvika" />
		<tag k="natural" v="bay" />
		<tag k="ssr:stedsnr" v="422971" />
	</node>
	<node id="-138385" lat="65.8730888864" lon="13.1685499904">
		<tag k="name" v="Rynes" />
		<tag k="natural" v="cape" />
		<tag k="ssr:stedsnr" v="211011" />
	</node>
	<node id="-138894" lat="65.9369888926" lon="13.0658472122">
		<tag k="name" v="Stongneset" />
		<tag k="natural" v="cape" />
		<tag k="ssr:stedsnr" v="406839" />
	</node>
	<node id="-140141" lat="65.9651361079" lon="12.8064583221">
		<tag k="name" v="Ukkelfora" />
		<tag k="natural" v="cape" />
		<tag k="ssr:stedsnr" v="967887" />
	</node>
	<node id="-136331" lat="65.9439055561" lon="12.7340166748">
		<tag k="name" v="Høgnesskjæran" />
		<tag k="place" v="locality" />
		<tag k="seamark:type" v="rock" />
		<tag k="ssr:stedsnr" v="693292" />
	</node>
	<node id="-136328" lat="66.1296444431" lon="13.5398000006">
		<tag k="alt_name" v="Finskiten" />
		<tag k="name" v="Finskitodden" />
		<tag k="natural" v="cape" />
		<tag k="ssr:stedsnr" v="692729" />
	</node>
	<node id="-136317" lat="65.9424000025" lon="13.0607305597">
		<tag k="name" v="Kåvikodden" />
		<tag k="natural" v="cape" />
		<tag k="ssr:stedsnr" v="527825" />
	</node>
	<node id="-139898" lat="65.9470138848" lon="13.0410916591">
		<tag k="name" v="Urdvika" />
		<tag k="natural" v="bay" />
		<tag k="ssr:stedsnr" v="831827" />
	</node>
	<node id="-137492" lat="65.9472111156" lon="13.0516111038">
		<tag k="name" v="Litlvika" />
		<tag k="natural" v="bay" />
		<tag k="ssr:stedsnr" v="15491" />
	</node>
	<node id="-137842" lat="65.8401027794" lon="12.6839583422">
		<tag k="name" v="Klubbvika" />
		<tag k="natural" v="bay" />
		<tag k="ssr:stedsnr" v="89565" />
	</node>
	<node id="-136817" lat="65.8435416645" lon="13.1791888845">
		<tag k="name" v="Marsøra" />
		<tag k="natural" v="cape" />
		<tag k="ssr:stedsnr" v="683784" />
	</node>
	<node id="-139888" lat="65.8932611095" lon="13.1207249908">
		<tag k="name" v="Sandvika" />
		<tag k="natural" v="bay" />
		<tag k="ssr:stedsnr" v="831325" />
	</node>
	<node id="-135274" lat="65.952277777" lon="12.9776111035">
		<tag k="name" v="Innernypvikodden" />
		<tag k="natural" v="cape" />
		<tag k="ssr:stedsnr" v="284882" />
	</node>
	<node id="-135273" lat="65.9361250023" lon="13.0670555469">
		<tag k="name" v="Hestvika" />
		<tag k="natural" v="bay" />
		<tag k="ssr:stedsnr" v="284869" />
	</node>
	<node id="-137830" lat="65.9328749985" lon="13.0963611188">
		<tag k="name" v="Utneset" />
		<tag k="natural" v="cape" />
		<tag k="ssr:stedsnr" v="86283" />
	</node>
	<node id="-138340" lat="65.9665138884" lon="12.8067527742">
		<tag k="name" v="Hammarneset" />
		<tag k="natural" v="cape" />
		<tag k="ssr:stedsnr" v="198100" />
	</node>
	<node id="-139361" lat="65.7967222204" lon="12.6829583254">
		<tag k="fixme" v="consider seamark:type=rock or natural=shoal" />
		<tag k="name" v="Småskjæran" />
		<tag k="place" v="islet" />
		<tag k="ssr:stedsnr" v="632228" />
	</node>
	<node id="-139357" lat="66.1219333366" lon="13.5403777801">
		<tag k="name" v="Slåttvika" />
		<tag k="natural" v="bay" />
		<tag k="ssr:stedsnr" v="631749" />
	</node>
	<node id="-136786" lat="65.8965805531" lon="13.05834445">
		<tag k="name" v="Rapo" />
		<tag k="natural" v="cape" />
		<tag k="ssr:stedsnr" v="682217" />
	</node>
	<node id="-139704" lat="65.9558749969" lon="12.9052416646">
		<tag k="name" v="Straumsneset" />
		<tag k="natural" v="cape" />
		<tag k="ssr:stedsnr" v="804192" />
	</node>
	<node id="-138818" lat="65.8533194401" lon="13.1936277835">
		<tag k="alt_name" v="Bustenen" />
		<tag k="name" v="Baustein" />
		<tag k="natural" v="beach" />
		<tag k="place" v="locality" />
		<tag k="ssr:stedsnr" v="389480" />
	</node>
	<node id="-137790" lat="65.86231389" lon="13.1839166713">
		<tag k="name" v="Halsøya" />
		<tag k="natural" v="cape" />
		<tag k="ssr:stedsnr" v="76786" />
	</node>
	<node id="-139377" lat="65.8935722203" lon="13.156241657">
>>>>>>> e1d4bc35ff8a6074a6f2e91616a996b547c36f15
		<tag k="name" v="Åsmulnasen" />
		<tag k="natural" v="cape" />
		<tag k="ssr:stedsnr" v="635433" />
	</node>
<<<<<<< HEAD
	<node lat="65.92753333501933" lon="12.946575002385165" id="-13606">
		<tag k="name" v="Osen" />
		<tag k="natural" v="bay" />
		<tag k="ssr:stedsnr" v="648856" />
	</node>
	<node lat="65.92806110694335" lon="12.954466655588746" id="-13607">
		<tag k="fixme" v="consider seamark:type=rock or natural=shoal" />
		<tag k="name" v="Kobbskjeret" />
		<tag k="place" v="islet" />
		<tag k="ssr:stedsnr" v="648858" />
	</node>
	<node lat="65.84125555327263" lon="13.187194446300817" id="-13657">
		<tag k="name" v="Bordvedneset" />
		<tag k="natural" v="cape" />
		<tag k="ssr:stedsnr" v="723383" />
	</node>
	<node lat="66.1321916696945" lon="13.574544439280062" id="-13711">
		<tag k="name" v="Kvassteinvika" />
		<tag k="natural" v="bay" />
		<tag k="ssr:stedsnr" v="743447" />
	</node>
	<node lat="65.9329083364111" lon="13.088738889667841" id="-13863">
		<tag k="name" v="Kjerringberget" />
		<tag k="natural" v="cape" />
		<tag k="ssr:stedsnr" v="804210" />
	</node>
	<node lat="65.95587499692004" lon="12.905241664635122" id="-13873">
		<tag k="name" v="Straumsneset" />
		<tag k="natural" v="cape" />
		<tag k="ssr:stedsnr" v="804192" />
	</node>
	<node lat="65.88784444508387" lon="13.132202771199662" id="-13882">
		<tag k="name" v="Engeskjåan" />
		<tag k="natural" v="cape" />
		<tag k="ssr:stedsnr" v="804273" />
	</node>
	<node lat="65.89044722599934" lon="13.074622212139774" id="-13887">
		<tag k="name" v="Bunesodden" />
		<tag k="natural" v="cape" />
		<tag k="ssr:stedsnr" v="804229" />
	</node>
	<node lat="66.16326111196011" lon="13.650169454143697" id="-13903">
		<tag k="name" v="Hattneset" />
		<tag k="natural" v="cape" />
		<tag k="ssr:stedsnr" v="804486" />
	</node>
	<node lat="65.89326110952285" lon="13.120724990830126" id="-14038">
		<tag k="name" v="Sandvika" />
		<tag k="natural" v="bay" />
		<tag k="ssr:stedsnr" v="831325" />
	</node>
	<node lat="65.94701388476574" lon="13.041091659114244" id="-14045">
		<tag k="name" v="Urdvika" />
		<tag k="natural" v="bay" />
		<tag k="ssr:stedsnr" v="831827" />
	</node>
	<node lat="65.94061111397473" lon="12.935122233053827" id="-14084">
		<tag k="name" v="Karivika" />
		<tag k="natural" v="bay" />
		<tag k="ssr:stedsnr" v="847899" />
	</node>
	<node lat="65.969297223188" lon="12.849313895761325" id="-14112">
		<tag k="name" v="Sørnesvågen" />
		<tag k="natural" v="bay" />
		<tag k="ssr:stedsnr" v="865148" />
	</node>
	<node lat="65.94168888834892" lon="12.73383888136105" id="-14117">
		<tag k="loc_name" v="Høyneset" />
		<tag k="name" v="Høgnes" />
		<tag k="natural" v="cape" />
		<tag k="ssr:stedsnr" v="865176" />
	</node>
	<node lat="65.87213333678895" lon="13.140474997683778" id="-14122">
		<tag k="name" v="Tortenvika" />
		<tag k="natural" v="bay" />
		<tag k="ssr:stedsnr" v="865273" />
	</node>
	<node lat="66.15311944037013" lon="13.620102780980222" id="-14143">
		<tag k="name" v="Hattholten" />
		<tag k="natural" v="cape" />
		<tag k="ssr:stedsnr" v="865505" />
	</node>
	<node lat="65.90467499995123" lon="12.61058611662441" id="-14144">
		<tag k="bay" v="fjord" />
		<tag k="name" v="Vefsnfjorden" />
		<tag k="natural" v="bay" />
		<tag k="ssr:stedsnr" v="865409" />
	</node>
	<node lat="65.82151944697061" lon="12.622958326832068" id="-14186">
		<tag k="name" v="Juvikholmen" />
		<tag k="place" v="islet" />
		<tag k="ssr:stedsnr" v="865514" />
	</node>
	<node lat="65.81926389064043" lon="12.610900001744888" id="-14187">
		<tag k="name" v="Halsneset" />
		<tag k="natural" v="cape" />
		<tag k="ssr:stedsnr" v="865516" />
	</node>
	<node lat="65.846705557581" lon="13.170491676934068" id="-14210">
		<tag k="name" v="Kovhola" />
		<tag k="natural" v="bay" />
		<tag k="ssr:stedsnr" v="871592" />
	</node>
	<node lat="65.96028055768949" lon="12.95968056586881" id="-14214">
		<tag k="name" v="Gravvikneset" />
		<tag k="natural" v="cape" />
		<tag k="ssr:stedsnr" v="875475" />
	</node>
	<node lat="65.84521389099068" lon="12.694436114033161" id="-14222">
		<tag k="name" v="Øygårdsosen" />
		<tag k="natural" v="bay" />
		<tag k="ssr:stedsnr" v="878368" />
=======
	<node id="-136248" lat="66.1264444407" lon="13.5700222287">
		<tag k="name" v="Sagvika" />
		<tag k="natural" v="bay" />
		<tag k="ssr:stedsnr" v="683429" />
	</node>
	<node id="-135728" lat="65.9413694465" lon="12.9247472257">
		<tag k="name" v="Olavika" />
		<tag k="natural" v="bay" />
		<tag k="ssr:stedsnr" v="328439" />
	</node>
	<node id="-139820" lat="66.1496749984" lon="13.5543416553">
		<tag k="name" v="Vikran" />
		<tag k="natural" v="bay" />
		<tag k="ssr:stedsnr" v="828134" />
	</node>
	<node id="-138281" lat="65.9025388926" lon="13.1659249947">
		<tag k="name" v="Fustrota" />
		<tag k="natural" v="cape" />
		<tag k="ssr:stedsnr" v="197244" />
	</node>
	<node id="-136230" lat="65.7913388904" lon="12.693711116">
		<tag k="name" v="Rundholmen" />
		<tag k="place" v="islet" />
		<tag k="ssr:stedsnr" v="683047" />
	</node>
	<node id="-138276" lat="65.9241194478" lon="13.0313333393">
		<tag k="name" v="Levra" />
		<tag k="natural" v="cape" />
		<tag k="ssr:stedsnr" v="197186" />
	</node>
	<node id="-139298" lat="65.9406583294" lon="13.1335777708">
		<tag k="fixme" v="consider seamark:type=rock or natural=shoal" />
		<tag k="name" v="Jektskjæret" />
		<tag k="place" v="islet" />
		<tag k="ssr:stedsnr" v="622199" />
	</node>
	<node id="-138270" lat="65.8923249967" lon="13.1091194533">
		<tag k="name" v="Kobbsteinen" />
		<tag k="natural" v="cape" />
		<tag k="ssr:stedsnr" v="197227" />
	</node>
	<node id="-138269" lat="65.8889138878" lon="13.0826583374">
		<tag k="name" v="Skjåvika" />
		<tag k="natural" v="bay" />
		<tag k="ssr:stedsnr" v="197226" />
	</node>
	<node id="-138268" lat="65.8931805523" lon="13.116977788">
		<tag k="name" v="Alternesvika" />
		<tag k="natural" v="bay" />
		<tag k="ssr:stedsnr" v="197223" />
	</node>
	<node id="-136727" lat="65.845213891" lon="12.694436114">
		<tag k="name" v="Øygårdsosen" />
		<tag k="natural" v="bay" />
		<tag k="ssr:stedsnr" v="878368" />
	</node>
	<node id="-139286" lat="65.8132888876" lon="12.6585083223">
		<tag k="name" v="Grofvika" />
		<tag k="natural" v="bay" />
		<tag k="ssr:stedsnr" v="622023" />
	</node>
	<node id="-139285" lat="65.796655558" lon="12.6079722229">
		<tag k="name" v="Buvika" />
		<tag k="natural" v="bay" />
		<tag k="ssr:stedsnr" v="622015" />
	</node>
	<node id="-136207" lat="65.9524750018" lon="12.7697527759">
		<tag k="name" v="Stranda" />
		<tag k="natural" v="beach" />
		<tag k="place" v="locality" />
		<tag k="ssr:stedsnr" v="682130" />
	</node>
	<node id="-134829" lat="65.9490416626" lon="12.9860277879">
		<tag k="name" v="Korsneset" />
		<tag k="natural" v="cape" />
		<tag k="ssr:stedsnr" v="15144" />
	</node>
	<node id="-139989" lat="65.9416888883" lon="12.7338388814">
		<tag k="loc_name" v="Høyneset" />
		<tag k="name" v="Høgnes" />
		<tag k="natural" v="cape" />
		<tag k="ssr:stedsnr" v="865176" />
	</node>
	<node id="-138754" lat="65.8337000039" lon="12.6827777868">
		<tag k="name" v="Halsan" />
		<tag k="natural" v="bay" />
		<tag k="ssr:stedsnr" v="379469" />
>>>>>>> e1d4bc35ff8a6074a6f2e91616a996b547c36f15
	</node>
</osm>
