<?xml version="1.0" encoding="UTF-8"?>
<osm generator="osmapis" version="0.6">
	<node id="-14333" lat="65.7678666705" lon="13.2624638976">
		<tag k="alt_name" v="Fuglmyra" />
		<tag k="name" v="Fugelmyra" />
		<tag k="natural" v="wetland" />
		<tag k="ssr:stedsnr" v="440562" />
	</node>
	<node id="-18428" lat="65.9719694441" lon="13.1852999967">
		<tag k="name" v="Krengelmyra" />
		<tag k="natural" v="wetland" />
		<tag k="ssr:stedsnr" v="749523" />
	</node>
	<node id="-18427" lat="65.970688893" lon="13.1782138851">
		<tag k="name" v="Bjørnmyra" />
		<tag k="natural" v="wetland" />
		<tag k="ssr:stedsnr" v="749522" />
	</node>
	<node id="-16368" lat="66.0737694423" lon="13.6451138954">
		<tag k="name" v="Kristenlamyra" />
		<tag k="natural" v="wetland" />
		<tag k="ssr:stedsnr" v="15282" />
	</node>
	<node id="-18429" lat="65.7926972235" lon="13.1552666653">
		<tag k="name" v="Stormyra" />
		<tag k="natural" v="wetland" />
		<tag k="ssr:stedsnr" v="749573" />
	</node>
	<node id="-16334" lat="65.8952972232" lon="12.9068750016">
		<tag k="landuse" v="meadow" />
		<tag k="name" v="Vassenget" />
		<tag k="ssr:stedsnr" v="967874" />
	</node>
	<node id="-16333" lat="65.8732138876" lon="12.7300361218">
		<tag k="name" v="Stigmyra" />
		<tag k="natural" v="wetland" />
		<tag k="ssr:stedsnr" v="967165" />
	</node>
	<node id="-16332" lat="65.7975722186" lon="13.1119805642">
		<tag k="name" v="Falkurda" />
		<tag k="natural" v="scree" />
		<tag k="ssr:stedsnr" v="966526" />
	</node>
	<node id="-16330" lat="66.1205972258" lon="13.6186388901">
		<tag k="name" v="Godlennarskogan" />
		<tag k="place" v="locality" />
		<tag k="ssr:stedsnr" v="966378" />
	</node>
	<node id="-14280" lat="66.0182666672" lon="13.6119194345">
		<tag k="name" v="Musbekkmyra" />
		<tag k="natural" v="wetland" />
		<tag k="ssr:stedsnr" v="298285" />
	</node>
	<node id="-14273" lat="66.1036249966" lon="13.5188444489">
		<tag k="name" v="Nordmyra" />
		<tag k="natural" v="wetland" />
		<tag k="ssr:stedsnr" v="213015" />
	</node>
	<node id="-14271" lat="65.9767833303" lon="13.2300388961">
		<tag k="name" v="Naustmyra" />
		<tag k="natural" v="wetland" />
		<tag k="ssr:stedsnr" v="211923" />
	</node>
	<node id="-16318" lat="65.5373500006" lon="13.1815583333">
		<tag k="name" v="Stormyra" />
		<tag k="natural" v="wetland" />
		<tag k="ssr:stedsnr" v="952807" />
	</node>
	<node id="-16313" lat="65.8755611129" lon="13.3382583308">
		<tag k="name" v="Storskogen" />
		<tag k="place" v="locality" />
		<tag k="ssr:stedsnr" v="952205" />
	</node>
	<node id="-14264" lat="65.7645194433" lon="13.2321222278">
		<tag k="name" v="Kalvgarden" />
		<tag k="place" v="locality" />
		<tag k="ssr:stedsnr" v="211905" />
	</node>
	<node id="-14263" lat="65.7956611089" lon="13.2341972241">
		<tag k="name" v="Øveråsleitan" />
		<tag k="place" v="locality" />
		<tag k="ssr:stedsnr" v="211842" />
	</node>
	<node id="-17054" lat="65.9737861098" lon="13.2380250088">
		<tag k="landuse" v="meadow" />
		<tag k="name" v="Djupbekkenget" />
		<tag k="ssr:stedsnr" v="150918" />
	</node>
	<node id="-14258" lat="65.9004166697" lon="13.2304666722">
		<tag k="name" v="Småmyrån" />
		<tag k="natural" v="wetland" />
		<tag k="ssr:stedsnr" v="211726" />
	</node>
	<node id="-14255" lat="65.8983944441" lon="13.2041305624">
		<tag k="name" v="Kugjota" />
		<tag k="place" v="locality" />
		<tag k="ssr:stedsnr" v="211413" />
	</node>
	<node id="-18349" lat="65.9395666655" lon="13.3939083257">
		<tag k="landuse" v="meadow" />
		<tag k="name" v="Lilleenget" />
		<tag k="ssr:stedsnr" v="648840" />
	</node>
	<node id="-16300" lat="66.0839861091" lon="13.481105563">
		<tag k="name" v="Bjørmyra" />
		<tag k="natural" v="wetland" />
		<tag k="ssr:stedsnr" v="940003" />
	</node>
	<node id="-17052" lat="65.8292472241" lon="13.3271277753">
		<tag k="name" v="Forholten" />
		<tag k="place" v="locality" />
		<tag k="ssr:stedsnr" v="150876" />
	</node>
	<node id="-14244" lat="66.0410444421" lon="13.5521583229">
		<tag k="name" v="Storura" />
		<tag k="natural" v="scree" />
		<tag k="ssr:stedsnr" v="211215" />
	</node>
	<node id="-18335" lat="65.7931833359" lon="13.3313277827">
		<tag k="landuse" v="meadow" />
		<tag k="name" v="Innerenget" />
		<tag k="ssr:stedsnr" v="648250" />
	</node>
	<node id="-16283" lat="65.6130166668" lon="13.1091250069">
		<tag k="name" v="Stormyra" />
		<tag k="natural" v="wetland" />
		<tag k="ssr:stedsnr" v="926814" />
	</node>
	<node id="-14234" lat="66.1310694418" lon="13.6554361139">
		<tag k="name" v="Selhornmyra" />
		<tag k="natural" v="wetland" />
		<tag k="ssr:stedsnr" v="198421" />
	</node>
	<node id="-18328" lat="65.9829555514" lon="13.3364083433">
		<tag k="name" v="Finnkotmyra" />
		<tag k="natural" v="wetland" />
		<tag k="ssr:stedsnr" v="648032" />
	</node>
	<node id="-18327" lat="65.9866916639" lon="13.3418055625">
		<tag k="name" v="Skarsmyra" />
		<tag k="natural" v="wetland" />
		<tag k="ssr:stedsnr" v="648026" />
	</node>
	<node id="-18614" lat="66.0780638914" lon="13.4418999971">
		<tag k="name" v="Langmyra" />
		<tag k="natural" v="wetland" />
		<tag k="ssr:stedsnr" v="804325" />
	</node>
	<node id="-14223" lat="65.6000083325" lon="13.1609666615">
		<tag k="name" v="Stormyra" />
		<tag k="natural" v="wetland" />
		<tag k="ssr:stedsnr" v="197818" />
	</node>
	<node id="-18315" lat="65.8460555531" lon="13.5065666561">
		<tag k="name" v="Formyra" />
		<tag k="natural" v="wetland" />
		<tag k="ssr:stedsnr" v="647430" />
	</node>
	<node id="-18308" lat="65.8040972243" lon="13.4876750061">
		<tag k="landuse" v="meadow" />
		<tag k="name" v="Krokenget" />
		<tag k="ssr:stedsnr" v="646972" />
	</node>
	<node id="-18306" lat="65.8010694467" lon="13.4793472182">
		<tag k="name" v="Innermomyra" />
		<tag k="natural" v="wetland" />
		<tag k="ssr:stedsnr" v="646967" />
	</node>
	<node id="-16256" lat="65.9758527746" lon="13.3106027867">
		<tag k="name" v="Urgrøva" />
		<tag k="natural" v="scree" />
		<tag k="ssr:stedsnr" v="892034" />
	</node>
	<node id="-16255" lat="65.9862444409" lon="13.3343888877">
		<tag k="name" v="Tømmermyra" />
		<tag k="natural" v="wetland" />
		<tag k="ssr:stedsnr" v="892019" />
	</node>
	<node id="-18297" lat="66.1183722246" lon="13.6017333377">
		<tag k="name" v="Bjørnlortmyra" />
		<tag k="natural" v="wetland" />
		<tag k="ssr:stedsnr" v="646125" />
	</node>
	<node id="-14200" lat="65.9443333303" lon="13.4070472247">
		<tag k="name" v="Stormyra" />
		<tag k="natural" v="wetland" />
		<tag k="ssr:stedsnr" v="285656" />
	</node>
	<node id="-14199" lat="65.8153666707" lon="13.1059277771">
		<tag k="name" v="Stormyra" />
		<tag k="natural" v="wetland" />
		<tag k="ssr:stedsnr" v="181517" />
	</node>
	<node id="-14197" lat="65.9366805513" lon="13.2208722244">
		<tag k="name" v="Rokåsmyrån" />
		<tag k="natural" v="wetland" />
		<tag k="ssr:stedsnr" v="285202" />
	</node>
	<node id="-14195" lat="65.8685833345" lon="13.3026194426">
		<tag k="name" v="Myrlamyrån" />
		<tag k="natural" v="wetland" />
		<tag k="ssr:stedsnr" v="285193" />
	</node>
	<node id="-14194" lat="66.0244333293" lon="13.3060388955">
		<tag k="name" v="Stormyra" />
		<tag k="natural" v="wetland" />
		<tag k="ssr:stedsnr" v="180932" />
	</node>
	<node id="-14190" lat="65.9926833347" lon="13.2554416586">
		<tag k="name" v="Øvernesmyra" />
		<tag k="natural" v="wetland" />
		<tag k="ssr:stedsnr" v="285140" />
	</node>
	<node id="-17725" lat="65.8195166663" lon="13.2653000081">
		<tag k="name" v="Sekken" />
		<tag k="place" v="locality" />
		<tag k="ssr:stedsnr" v="393247" />
	</node>
	<node id="-14185" lat="66.0013861111" lon="13.263177783">
		<tag k="landuse" v="meadow" />
		<tag k="name" v="Tømmernesenget" />
		<tag k="ssr:stedsnr" v="285125" />
	</node>
	<node id="-18280" lat="65.8899694483" lon="13.2291916749">
		<tag k="landuse" v="meadow" />
		<tag k="name" v="Steinenget" />
		<tag k="ssr:stedsnr" v="635733" />
	</node>
	<node id="-16231" lat="65.9876805545" lon="13.2077055534">
		<tag k="name" v="Fjellmyra" />
		<tag k="natural" v="wetland" />
		<tag k="ssr:stedsnr" v="871568" />
	</node>
	<node id="-16703" lat="65.8841027802" lon="13.4484777733">
		<tag k="name" v="Stormyra" />
		<tag k="natural" v="wetland" />
		<tag k="ssr:stedsnr" v="76978" />
	</node>
	<node id="-17041" lat="65.8448722242" lon="13.2757305667">
		<tag k="name" v="Andåsremman" />
		<tag k="place" v="locality" />
		<tag k="ssr:stedsnr" v="150589" />
	</node>
	<node id="-14180" lat="65.9399861071" lon="13.2793944478">
		<tag k="name" v="Fjellmyrån" />
		<tag k="natural" v="wetland" />
		<tag k="ssr:stedsnr" v="285073" />
	</node>
	<node id="-16227" lat="65.9122472247" lon="13.2012805605">
		<tag k="name" v="Storremma" />
		<tag k="place" v="locality" />
		<tag k="ssr:stedsnr" v="865233" />
	</node>
	<node id="-18273" lat="65.9156416635" lon="13.2366222289">
		<tag k="landuse" v="meadow" />
		<tag k="name" v="Skarenget" />
		<tag k="ssr:stedsnr" v="635838" />
	</node>
	<node id="-14175" lat="65.9891249972" lon="13.3477055456">
		<tag k="name" v="Høgstlandet" />
		<tag k="place" v="locality" />
		<tag k="ssr:stedsnr" v="285043" />
	</node>
	<node id="-18269" lat="65.8508583376" lon="13.3281666658">
		<tag k="name" v="Øvre Tuvmyra" />
		<tag k="natural" v="wetland" />
		<tag k="ssr:stedsnr" v="635667" />
	</node>
	<node id="-18063" lat="65.9229138875" lon="12.9488333269">
		<tag k="name" v="Haugmyra" />
		<tag k="natural" v="wetland" />
		<tag k="ssr:stedsnr" v="587884" />
	</node>
	<node id="-16216" lat="65.6118722247" lon="13.1459944542">
		<tag k="name" v="Mølnhusmyra" />
		<tag k="natural" v="wetland" />
		<tag k="ssr:stedsnr" v="847816" />
	</node>
	<node id="-14165" lat="65.9248833308" lon="12.9417305462">
		<tag k="landuse" v="meadow" />
		<tag k="name" v="Finnslettenget" />
		<tag k="ssr:stedsnr" v="284896" />
	</node>
	<node id="-16204" lat="66.095824999" lon="13.5793499939">
		<tag k="name" v="Kobbhaugmyra" />
		<tag k="natural" v="wetland" />
		<tag k="ssr:stedsnr" v="845304" />
	</node>
	<node id="-16203" lat="66.1012638879" lon="13.4755972115">
		<tag k="name" v="Hestmyra" />
		<tag k="natural" v="wetland" />
		<tag k="ssr:stedsnr" v="940241" />
	</node>
	<node id="-16202" lat="66.0922861124" lon="13.4650972248">
		<tag k="name" v="Kringelmyra" />
		<tag k="natural" v="wetland" />
		<tag k="ssr:stedsnr" v="940232" />
	</node>
	<node id="-14149" lat="66.1223999972" lon="13.5122722281">
		<tag k="name" v="Sørmyra" />
		<tag k="natural" v="wetland" />
		<tag k="ssr:stedsnr" v="177313" />
	</node>
	<node id="-18243" lat="65.854683332" lon="13.2325388886">
		<tag k="name" v="Halsmyra" />
		<tag k="natural" v="wetland" />
		<tag k="ssr:stedsnr" v="628490" />
	</node>
	<node id="-18242" lat="65.788466668" lon="13.1848750062">
		<tag k="name" v="Austmaritmyra" />
		<tag k="natural" v="wetland" />
		<tag k="ssr:stedsnr" v="628597" />
	</node>
	<node id="-16193" lat="65.9886666681" lon="13.2508861135">
		<tag k="name" v="Karvøra" />
		<tag k="place" v="locality" />
		<tag k="ssr:stedsnr" v="939912" />
	</node>
	<node id="-14142" lat="65.9896194405" lon="13.3797916689">
		<tag k="name" v="Toftmyra" />
		<tag k="natural" v="wetland" />
		<tag k="ssr:stedsnr" v="283728" />
	</node>
	<node id="-14140" lat="66.0050222203" lon="13.4374277876">
		<tag k="name" v="Stormyra" />
		<tag k="natural" v="wetland" />
		<tag k="ssr:stedsnr" v="283643" />
	</node>
	<node id="-14138" lat="65.857583334" lon="13.5808472248">
		<tag k="name" v="Stormyra" />
		<tag k="natural" v="wetland" />
		<tag k="ssr:stedsnr" v="283411" />
	</node>
	<node id="-16181" lat="65.8532999988" lon="13.3366416758">
		<tag k="name" v="Kovmyrån" />
		<tag k="natural" v="wetland" />
		<tag k="ssr:stedsnr" v="939698" />
	</node>
	<node id="-14126" lat="66.1134416692" lon="13.5905833245">
		<tag k="name" v="Trollmyra" />
		<tag k="natural" v="wetland" />
		<tag k="ssr:stedsnr" v="283110" />
	</node>
	<node id="-14125" lat="65.8300944419" lon="13.4483166562">
		<tag k="name" v="Fjellenget" />
		<tag k="place" v="locality" />
		<tag k="ssr:stedsnr" v="282895" />
	</node>
	<node id="-16172" lat="65.9001916647" lon="13.2880333408">
		<tag k="name" v="Vallmyra" />
		<tag k="natural" v="wetland" />
		<tag k="ssr:stedsnr" v="939650" />
	</node>
	<node id="-16165" lat="65.8918250039" lon="13.1564750072">
		<tag k="name" v="Grautura" />
		<tag k="natural" v="scree" />
		<tag k="ssr:stedsnr" v="939439" />
	</node>
	<node id="-16164" lat="65.8647749985" lon="13.290155563">
		<tag k="name" v="Storlimyra" />
		<tag k="natural" v="wetland" />
		<tag k="ssr:stedsnr" v="939270" />
	</node>
	<node id="-14115" lat="65.8643750016" lon="13.4324583332">
		<tag k="name" v="Spelmanngranskogen" />
		<tag k="place" v="locality" />
		<tag k="ssr:stedsnr" v="163970" />
	</node>
	<node id="-16162" lat="65.806574997" lon="13.1847555572">
		<tag k="name" v="Svallenget" />
		<tag k="place" v="locality" />
		<tag k="ssr:stedsnr" v="939233" />
	</node>
	<node id="-17712" lat="65.7801277807" lon="13.1747611057">
		<tag k="landuse" v="meadow" />
		<tag k="name" v="Fjellenget" />
		<tag k="ssr:stedsnr" v="392985" />
	</node>
	<node id="-16155" lat="65.9120055558" lon="13.1763916757">
		<tag k="name" v="Fløtan" />
		<tag k="place" v="locality" />
		<tag k="ssr:stedsnr" v="939125" />
	</node>
	<node id="-16154" lat="65.914152779" lon="13.1909611156">
		<tag k="name" v="Stepet" />
		<tag k="place" v="locality" />
		<tag k="ssr:stedsnr" v="939101" />
	</node>
	<node id="-18201" lat="65.8309611139" lon="13.3794083359">
		<tag k="name" v="Leirmyra" />
		<tag k="natural" v="wetland" />
		<tag k="ssr:stedsnr" v="622512" />
	</node>
	<node id="-18200" lat="66.053722219" lon="13.451752784">
		<tag k="name" v="Stormyra" />
		<tag k="natural" v="wetland" />
		<tag k="ssr:stedsnr" v="622344" />
	</node>
	<node id="-14102" lat="65.9683166674" lon="13.2712805605">
		<tag k="name" v="Grønlimyra" />
		<tag k="natural" v="wetland" />
		<tag k="ssr:stedsnr" v="163171" />
	</node>
	<node id="-16146" lat="65.9750833295" lon="13.190194445">
		<tag k="name" v="Istermyra" />
		<tag k="natural" v="wetland" />
		<tag k="ssr:stedsnr" v="932490" />
	</node>
	<node id="-14096" lat="66.0042638898" lon="13.3867527753">
		<tag k="name" v="Erikmyra" />
		<tag k="natural" v="wetland" />
		<tag k="ssr:stedsnr" v="161664" />
	</node>
	<node id="-14087" lat="65.8466805553" lon="13.5172444497">
		<tag k="name" v="Djupdalsmyra" />
		<tag k="natural" v="wetland" />
		<tag k="ssr:stedsnr" v="161407" />
	</node>
	<node id="-14086" lat="65.8525722227" lon="13.565019451">
		<tag k="name" v="Tverrurda" />
		<tag k="natural" v="scree" />
		<tag k="ssr:stedsnr" v="161402" />
	</node>
	<node id="-16133" lat="65.9246583324" lon="13.2578527802">
		<tag k="name" v="Skarsmyra" />
		<tag k="natural" v="wetland" />
		<tag k="ssr:stedsnr" v="818859" />
	</node>
	<node id="-14084" lat="65.6855555576" lon="13.312091669">
		<tag k="name" v="Blautmyra" />
		<tag k="natural" v="wetland" />
		<tag k="ssr:stedsnr" v="161058" />
	</node>
	<node id="-14083" lat="65.9123972235" lon="13.2444472251">
		<tag k="name" v="Finnlegran" />
		<tag k="place" v="locality" />
		<tag k="ssr:stedsnr" v="332846" />
	</node>
	<node id="-16128" lat="65.9219472216" lon="13.3423555447">
		<tag k="name" v="Gardsmyra" />
		<tag k="natural" v="wetland" />
		<tag k="ssr:stedsnr" v="818708" />
	</node>
	<node id="-14079" lat="65.919272223" lon="13.3098388865">
		<tag k="name" v="Jordremma" />
		<tag k="place" v="locality" />
		<tag k="ssr:stedsnr" v="150731" />
	</node>
	<node id="-16126" lat="65.9214194423" lon="13.3525638872">
		<tag k="landuse" v="meadow" />
		<tag k="name" v="Innerenget" />
		<tag k="ssr:stedsnr" v="818706" />
	</node>
	<node id="-16123" lat="65.9033444471" lon="13.4589694472">
		<tag k="name" v="Øvermyra" />
		<tag k="natural" v="wetland" />
		<tag k="ssr:stedsnr" v="818355" />
	</node>
	<node id="-16122" lat="65.8886250019" lon="13.3829305543">
		<tag k="name" v="Merkemyra" />
		<tag k="natural" v="wetland" />
		<tag k="ssr:stedsnr" v="818157" />
	</node>
	<node id="-14073" lat="65.8997694424" lon="13.4769527866">
		<tag k="name" v="Forsan" />
		<tag k="place" v="locality" />
		<tag k="ssr:stedsnr" v="150357" />
	</node>
	<node id="-16116" lat="66.0230722265" lon="13.4793222208">
		<tag k="name" v="Knutholmyrån" />
		<tag k="natural" v="wetland" />
		<tag k="ssr:stedsnr" v="818113" />
	</node>
	<node id="-14066" lat="66.0735611154" lon="13.4193861156">
		<tag k="landuse" v="meadow" />
		<tag k="name" v="Fagerenget" />
		<tag k="ssr:stedsnr" v="150054" />
	</node>
	<node id="-14065" lat="66.0732861145" lon="13.4131666765">
		<tag k="name" v="Bærmyra" />
		<tag k="natural" v="wetland" />
		<tag k="ssr:stedsnr" v="150053" />
	</node>
	<node id="-14062" lat="66.0888361107" lon="13.4876888788">
		<tag k="name" v="Drevvassmyrån" />
		<tag k="natural" v="wetland" />
		<tag k="ssr:stedsnr" v="150004" />
	</node>
	<node id="-14058" lat="66.0838472253" lon="13.5194222228">
		<tag k="name" v="Finnkotmyra" />
		<tag k="natural" v="wetland" />
		<tag k="ssr:stedsnr" v="274335" />
	</node>
	<node id="-14057" lat="66.0820444421" lon="13.5135194508">
		<tag k="name" v="Stormyra" />
		<tag k="natural" v="wetland" />
		<tag k="ssr:stedsnr" v="274333" />
	</node>
	<node id="-14053" lat="65.9864694434" lon="13.284572222">
		<tag k="landuse" v="meadow" />
		<tag k="name" v="Nordlaenget" />
		<tag k="ssr:stedsnr" v="272896" />
	</node>
	<node id="-18043" lat="65.8090749995" lon="13.480141669">
		<tag k="name" v="Momyra" />
		<tag k="natural" v="wetland" />
		<tag k="ssr:stedsnr" v="585994" />
	</node>
	<node id="-14042" lat="66.0246722228" lon="13.4846250029">
		<tag k="name" v="Fuglmyra" />
		<tag k="natural" v="wetland" />
		<tag k="ssr:stedsnr" v="272136" />
	</node>
	<node id="-14039" lat="65.8288722249" lon="13.2846388874">
		<tag k="name" v="Krekan" />
		<tag k="place" v="locality" />
		<tag k="ssr:stedsnr" v="272235" />
	</node>
	<node id="-18132" lat="66.1169888918" lon="13.5867555642">
		<tag k="name" v="Stormyra" />
		<tag k="natural" v="wetland" />
		<tag k="ssr:stedsnr" v="622453" />
	</node>
	<node id="-14028" lat="65.7428999994" lon="13.2297250063">
		<tag k="name" v="Øvriøra" />
		<tag k="place" v="locality" />
		<tag k="ssr:stedsnr" v="271733" />
	</node>
	<node id="-16074" lat="65.9318944398" lon="12.7787777862">
		<tag k="name" v="Vistvåghestmarka" />
		<tag k="place" v="locality" />
		<tag k="ssr:stedsnr" v="804162" />
	</node>
	<node id="-14025" lat="65.8670194426" lon="13.2057416583">
		<tag k="name" v="Langteigen" />
		<tag k="place" v="locality" />
		<tag k="ssr:stedsnr" v="271288" />
	</node>
	<node id="-18119" lat="65.6661944407" lon="13.157602779">
		<tag k="name" v="Røymolimyra" />
		<tag k="natural" v="wetland" />
		<tag k="ssr:stedsnr" v="604751" />
	</node>
	<node id="-16068" lat="65.8960861156" lon="13.2463416572">
		<tag k="name" v="Haugmyra" />
		<tag k="natural" v="wetland" />
		<tag k="ssr:stedsnr" v="926970" />
	</node>
	<node id="-17014" lat="65.7463166689" lon="13.2690277889">
		<tag k="name" v="Kvitmyra" />
		<tag k="natural" v="wetland" />
		<tag k="ssr:stedsnr" v="149691" />
	</node>
	<node id="-18114" lat="65.6995055548" lon="13.1556249897">
		<tag k="name" v="Storskogen" />
		<tag k="place" v="locality" />
		<tag k="ssr:stedsnr" v="604715" />
	</node>
	<node id="-18112" lat="65.6829277788" lon="13.1578944384">
		<tag k="landuse" v="meadow" />
		<tag k="name" v="Litlenget" />
		<tag k="ssr:stedsnr" v="604690" />
	</node>
	<node id="-14009" lat="65.8803611096" lon="13.1852666619">
		<tag k="name" v="Hestremma" />
		<tag k="place" v="locality" />
		<tag k="ssr:stedsnr" v="268250" />
	</node>
	<node id="-18718" lat="66.1020861119" lon="13.5959472266">
		<tag k="name" v="Kvannhagan" />
		<tag k="natural" v="wetland" />
		<tag k="ssr:stedsnr" v="829144" />
	</node>
	<node id="-13995" lat="65.6536999957" lon="13.1597083408">
		<tag k="name" v="Stormyra" />
		<tag k="natural" v="wetland" />
		<tag k="ssr:stedsnr" v="119771" />
	</node>
	<node id="-13989" lat="65.807380552" lon="13.1390444454">
		<tag k="name" v="Abelmyra" />
		<tag k="natural" v="wetland" />
		<tag k="ssr:stedsnr" v="116507" />
	</node>
	<node id="-18080" lat="66.1226694476" lon="13.6287111041">
		<tag k="name" v="Snakkarsteinmyra" />
		<tag k="natural" v="wetland" />
		<tag k="ssr:stedsnr" v="601320" />
	</node>
	<node id="-18079" lat="66.0592500014" lon="13.5553027728">
		<tag k="name" v="Per Mikkelsamyra" />
		<tag k="natural" v="wetland" />
		<tag k="ssr:stedsnr" v="601297" />
	</node>
	<node id="-18075" lat="65.8752805528" lon="13.4735722213">
		<tag k="name" v="Brumyra" />
		<tag k="natural" v="wetland" />
		<tag k="ssr:stedsnr" v="588967" />
	</node>
	<node id="-13969" lat="65.9089555572" lon="13.3149722172">
		<tag k="name" v="Åkvikmyra" />
		<tag k="natural" v="wetland" />
		<tag k="ssr:stedsnr" v="258991" />
	</node>
	<node id="-16015" lat="66.0676833358" lon="13.4177805647">
		<tag k="landuse" v="meadow" />
		<tag k="name" v="Langenget" />
		<tag k="ssr:stedsnr" v="926276" />
	</node>
	<node id="-18061" lat="65.8550277813" lon="13.3649194408">
		<tag k="name" v="Stordalsmyra" />
		<tag k="natural" v="wetland" />
		<tag k="ssr:stedsnr" v="587818" />
	</node>
	<node id="-18059" lat="65.8543805547" lon="13.4581805649">
		<tag k="name" v="Nakktjønnmyra" />
		<tag k="natural" v="wetland" />
		<tag k="ssr:stedsnr" v="587800" />
	</node>
	<node id="-18051" lat="66.0011388857" lon="13.3760861172">
		<tag k="name" v="Storhaugmyra" />
		<tag k="natural" v="wetland" />
		<tag k="ssr:stedsnr" v="586700" />
	</node>
	<node id="-13947" lat="65.8466499996" lon="13.267961117">
		<tag k="name" v="Stormyra" />
		<tag k="natural" v="wetland" />
		<tag k="ssr:stedsnr" v="258447" />
	</node>
	<node id="-15993" lat="65.9339027811" lon="13.4400527688">
		<tag k="name" v="Nestmyra" />
		<tag k="natural" v="wetland" />
		<tag k="ssr:stedsnr" v="925914" />
	</node>
	<node id="-18035" lat="66.0789277777" lon="13.5500638964">
		<tag k="name" v="Slåttmyra" />
		<tag k="natural" v="wetland" />
		<tag k="ssr:stedsnr" v="577377" />
	</node>
	<node id="-18034" lat="65.9881138859" lon="13.2208527772">
		<tag k="name" v="Tortenåsneset" />
		<tag k="place" v="locality" />
		<tag k="ssr:stedsnr" v="575993" />
	</node>
	<node id="-18033" lat="65.7912611151" lon="13.2534388858">
		<tag k="landuse" v="meadow" />
		<tag k="name" v="Storslettenget" />
		<tag k="ssr:stedsnr" v="575829" />
	</node>
	<node id="-18030" lat="65.7621027781" lon="13.2852555575">
		<tag k="name" v="Urmyra" />
		<tag k="natural" v="wetland" />
		<tag k="ssr:stedsnr" v="575943" />
	</node>
	<node id="-18029" lat="65.7637388915" lon="13.231030552">
		<tag k="name" v="Langremma" />
		<tag k="place" v="locality" />
		<tag k="ssr:stedsnr" v="575897" />
	</node>
	<node id="-18028" lat="65.9873916652" lon="13.2698916688">
		<tag k="name" v="Tullmyra" />
		<tag k="natural" v="wetland" />
		<tag k="ssr:stedsnr" v="575894" />
	</node>
	<node id="-13925" lat="66.0325777809" lon="13.3426611142">
		<tag k="name" v="Søkkmyra" />
		<tag k="natural" v="wetland" />
		<tag k="ssr:stedsnr" v="258330" />
	</node>
	<node id="-18019" lat="65.8911555589" lon="13.1821138916">
		<tag k="name" v="Veitmyra" />
		<tag k="natural" v="wetland" />
		<tag k="ssr:stedsnr" v="575409" />
	</node>
	<node id="-18012" lat="65.8283333303" lon="13.2732583407">
		<tag k="name" v="Moldfarremma" />
		<tag k="place" v="locality" />
		<tag k="ssr:stedsnr" v="575239" />
	</node>
	<node id="-15960" lat="65.9388444406" lon="12.8188555495">
		<tag k="name" v="Ukkelforhestmarka" />
		<tag k="place" v="locality" />
		<tag k="ssr:stedsnr" v="925162" />
	</node>
	<node id="-14265" lat="65.7586888901" lon="13.2285583231">
		<tag k="landuse" v="meadow" />
		<tag k="name" v="Stakkenget" />
		<tag k="ssr:stedsnr" v="211907" />
	</node>
	<node id="-18001" lat="65.9734666628" lon="13.2091444402">
		<tag k="name" v="Breiremma" />
		<tag k="place" v="locality" />
		<tag k="ssr:stedsnr" v="574622" />
	</node>
	<node id="-15952" lat="66.0041166665" lon="13.2906138874">
		<tag k="name" v="Krokmyra" />
		<tag k="natural" v="wetland" />
		<tag k="ssr:stedsnr" v="925035" />
	</node>
	<node id="-17993" lat="65.9424388932" lon="13.0966499992">
		<tag k="name" v="Vardskogen" />
		<tag k="place" v="locality" />
		<tag k="ssr:stedsnr" v="567575" />
	</node>
	<node id="-17992" lat="65.8078361112" lon="13.2371027702">
		<tag k="name" v="Tverråsmyra" />
		<tag k="natural" v="wetland" />
		<tag k="ssr:stedsnr" v="567512" />
	</node>
	<node id="-17988" lat="65.9737444481" lon="13.1963916742">
		<tag k="name" v="Myra" />
		<tag k="natural" v="wetland" />
		<tag k="ssr:stedsnr" v="567497" />
	</node>
	<node id="-17986" lat="65.903697226" lon="13.2235388873">
		<tag k="name" v="Langmyra" />
		<tag k="natural" v="wetland" />
		<tag k="ssr:stedsnr" v="567488" />
	</node>
	<node id="-15929" lat="66.0081305523" lon="13.4054472316">
		<tag k="name" v="Tørrhaugmyra" />
		<tag k="natural" v="wetland" />
		<tag k="ssr:stedsnr" v="768713" />
	</node>
	<node id="-15927" lat="66.1066861115" lon="13.5905361069">
		<tag k="name" v="Gåstjønnmyra" />
		<tag k="natural" v="wetland" />
		<tag k="ssr:stedsnr" v="768145" />
	</node>
	<node id="-17968" lat="65.9903333337" lon="13.353266673">
		<tag k="name" v="Hevelmyra" />
		<tag k="natural" v="wetland" />
		<tag k="ssr:stedsnr" v="561864" />
	</node>
	<node id="-15918" lat="65.9803000015" lon="13.2218666746">
		<tag k="name" v="Lamomyra" />
		<tag k="natural" v="wetland" />
		<tag k="ssr:stedsnr" v="757926" />
	</node>
	<node id="-13864" lat="65.879619441" lon="12.7279777786">
		<tag k="name" v="Sørnavarsmyra" />
		<tag k="natural" v="wetland" />
		<tag k="ssr:stedsnr" v="239196" />
	</node>
	<node id="-13860" lat="65.8765222241" lon="13.090822216">
		<tag k="name" v="Kibergmyra" />
		<tag k="natural" v="wetland" />
		<tag k="ssr:stedsnr" v="238509" />
	</node>
	<node id="-17955" lat="65.809202776" lon="13.5245638825">
		<tag k="name" v="Brennvinsmyra" />
		<tag k="natural" v="wetland" />
		<tag k="ssr:stedsnr" v="561635" />
	</node>
	<node id="-13857" lat="66.1200694407" lon="13.6088583261">
		<tag k="name" v="Hegglimyra" />
		<tag k="natural" v="wetland" />
		<tag k="ssr:stedsnr" v="238376" />
	</node>
	<node id="-15903" lat="65.638830555" lon="13.1525027736">
		<tag k="name" v="Gammelsetermyra" />
		<tag k="natural" v="wetland" />
		<tag k="ssr:stedsnr" v="908729" />
	</node>
	<node id="-13854" lat="66.1239999989" lon="13.5161861001">
		<tag k="name" v="Sprintenget" />
		<tag k="place" v="locality" />
		<tag k="ssr:stedsnr" v="238328" />
	</node>
	<node id="-13848" lat="66.0310166681" lon="13.5770694497">
		<tag k="name" v="Langnesmyra" />
		<tag k="natural" v="wetland" />
		<tag k="ssr:stedsnr" v="238264" />
	</node>
	<node id="-15893" lat="65.8848277768" lon="12.7373277719">
		<tag k="name" v="Rismoan" />
		<tag k="natural" v="wetland" />
		<tag k="ssr:stedsnr" v="907975" />
	</node>
	<node id="-13844" lat="66.0124444464" lon="13.5961194424">
		<tag k="name" v="Stormyra" />
		<tag k="natural" v="wetland" />
		<tag k="ssr:stedsnr" v="56305" />
	</node>
	<node id="-13842" lat="66.1314361075" lon="13.6888222201">
		<tag k="name" v="Mørkvassurda" />
		<tag k="natural" v="scree" />
		<tag k="ssr:stedsnr" v="56033" />
	</node>
	<node id="-18691" lat="65.8912388894" lon="13.3462972174">
		<tag k="name" v="Forholtan" />
		<tag k="place" v="locality" />
		<tag k="ssr:stedsnr" v="818685" />
	</node>
	<node id="-15873" lat="65.8711027766" lon="12.7155055529">
		<tag k="name" v="Fjellforsmyra" />
		<tag k="natural" v="wetland" />
		<tag k="ssr:stedsnr" v="907188" />
	</node>
	<node id="-15879" lat="65.8545944407" lon="13.2159972266">
		<tag k="name" v="Mundarhaugmyra" />
		<tag k="natural" v="wetland" />
		<tag k="ssr:stedsnr" v="749629" />
	</node>
	<node id="-15877" lat="65.6905750037" lon="13.2657749976">
		<tag k="name" v="Kolåsmyra" />
		<tag k="natural" v="wetland" />
		<tag k="ssr:stedsnr" v="907223" />
	</node>
	<node id="-13826" lat="65.873344444" lon="13.0087472146">
		<tag k="name" v="Bjønnlortmyra" />
		<tag k="natural" v="wetland" />
		<tag k="ssr:stedsnr" v="41860" />
	</node>
	<node id="-13825" lat="65.978286108" lon="13.4119111212">
		<tag k="name" v="Nordmyrån" />
		<tag k="natural" v="wetland" />
		<tag k="ssr:stedsnr" v="40776" />
	</node>
	<node id="-18688" lat="65.9000833368" lon="13.1955194464">
		<tag k="name" v="Myremma" />
		<tag k="natural" v="wetland" />
		<tag k="ssr:stedsnr" v="818402" />
	</node>
	<node id="-13817" lat="65.8479916676" lon="13.5351749946">
		<tag k="name" v="Bjørnlimyra" />
		<tag k="natural" v="wetland" />
		<tag k="ssr:stedsnr" v="40455" />
	</node>
	<node id="-17907" lat="65.6470361087" lon="13.1445055462">
		<tag k="name" v="Sandvikmyra" />
		<tag k="natural" v="wetland" />
		<tag k="ssr:stedsnr" v="544741" />
	</node>
	<node id="-17901" lat="65.6856249968" lon="13.1559388817">
		<tag k="name" v="Stormyra" />
		<tag k="natural" v="wetland" />
		<tag k="ssr:stedsnr" v="544676" />
	</node>
	<node id="-17898" lat="65.6766611108" lon="13.1547250106">
		<tag k="name" v="Småbakkmyra" />
		<tag k="natural" v="wetland" />
		<tag k="ssr:stedsnr" v="544660" />
	</node>
	<node id="-13797" lat="66.0684888927" lon="13.4673055507">
		<tag k="name" v="Andamyra" />
		<tag k="natural" v="wetland" />
		<tag k="ssr:stedsnr" v="29225" />
	</node>
	<node id="-13795" lat="65.9636055562" lon="13.1529277763">
		<tag k="name" v="Bjønnskotmyra" />
		<tag k="natural" v="wetland" />
		<tag k="ssr:stedsnr" v="28432" />
	</node>
	<node id="-13786" lat="65.9241944462" lon="13.4332388913">
		<tag k="name" v="Memarka" />
		<tag k="place" v="locality" />
		<tag k="ssr:stedsnr" v="224880" />
	</node>
	<node id="-18340" lat="65.9350666692" lon="13.4152083378">
		<tag k="landuse" v="meadow" />
		<tag k="name" v="Osenget" />
		<tag k="ssr:stedsnr" v="648683" />
	</node>
	<node id="-13782" lat="65.9231472184" lon="13.4485722304">
		<tag k="name" v="Bjørnjarnura" />
		<tag k="natural" v="scree" />
		<tag k="ssr:stedsnr" v="224863" />
	</node>
	<node id="-13780" lat="65.9658916692" lon="13.4013250066">
		<tag k="landuse" v="meadow" />
		<tag k="name" v="Dønforsenget" />
		<tag k="ssr:stedsnr" v="224847" />
	</node>
	<node id="-13777" lat="65.9167722211" lon="13.370844452">
		<tag k="name" v="Smilamyra" />
		<tag k="natural" v="wetland" />
		<tag k="ssr:stedsnr" v="224753" />
	</node>
	<node id="-15815" lat="65.696336107" lon="13.2570250071">
		<tag k="name" v="Ivarsmomyra" />
		<tag k="natural" v="wetland" />
		<tag k="ssr:stedsnr" v="725242" />
	</node>
	<node id="-13763" lat="65.7184416634" lon="13.2508277746">
		<tag k="name" v="Durmålshaugmyra" />
		<tag k="natural" v="wetland" />
		<tag k="ssr:stedsnr" v="224204" />
	</node>
	<node id="-13762" lat="65.8060611102" lon="13.3495444488">
		<tag k="name" v="Halvardåsmyra" />
		<tag k="natural" v="wetland" />
		<tag k="ssr:stedsnr" v="224181" />
	</node>
	<node id="-15809" lat="65.7911638862" lon="13.3461694455">
		<tag k="landuse" v="meadow" />
		<tag k="name" v="Tjønnenget" />
		<tag k="ssr:stedsnr" v="709271" />
	</node>
	<node id="-17856" lat="65.8466527811" lon="13.4210305496">
		<tag k="name" v="Vårmyra" />
		<tag k="natural" v="wetland" />
		<tag k="ssr:stedsnr" v="527788" />
	</node>
	<node id="-17855" lat="65.9238583339" lon="13.4212611133">
		<tag k="name" v="Kattholmyra" />
		<tag k="natural" v="wetland" />
		<tag k="ssr:stedsnr" v="527761" />
	</node>
	<node id="-15804" lat="65.7510083368" lon="13.2888694341">
		<tag k="name" v="Geitskarmyra" />
		<tag k="natural" v="wetland" />
		<tag k="ssr:stedsnr" v="709314" />
	</node>
	<node id="-13753" lat="65.9966222218" lon="13.2436250033">
		<tag k="name" v="Krengelmyra" />
		<tag k="natural" v="wetland" />
		<tag k="ssr:stedsnr" v="224143" />
	</node>
	<node id="-15800" lat="65.9990972199" lon="13.2464083426">
		<tag k="name" v="Tetengsmyra" />
		<tag k="natural" v="wetland" />
		<tag k="ssr:stedsnr" v="892119" />
	</node>
	<node id="-13897" lat="66.0672722221" lon="13.3689388914">
		<tag k="name" v="Sørfjellurda" />
		<tag k="natural" v="scree" />
		<tag k="ssr:stedsnr" v="82507" />
	</node>
	<node id="-15794" lat="66.0256527763" lon="13.2855944551">
		<tag k="name" v="Tortenskogan" />
		<tag k="place" v="locality" />
		<tag k="ssr:stedsnr" v="892050" />
	</node>
	<node id="-13744" lat="65.9356777813" lon="13.2802111152">
		<tag k="name" v="Skautamyra" />
		<tag k="natural" v="wetland" />
		<tag k="ssr:stedsnr" v="224096" />
	</node>
	<node id="-17309" lat="65.7830111073" lon="13.1718083229">
		<tag k="landuse" v="meadow" />
		<tag k="name" v="Askenget" />
		<tag k="ssr:stedsnr" v="211971" />
	</node>
	<node id="-13738" lat="66.0368666627" lon="13.3235111091">
		<tag k="landuse" v="meadow" />
		<tag k="name" v="Sildmyrenget" />
		<tag k="ssr:stedsnr" v="224071" />
	</node>
	<node id="-15784" lat="65.8562777821" lon="13.3887722289">
		<tag k="name" v="Fagermyra" />
		<tag k="natural" v="wetland" />
		<tag k="ssr:stedsnr" v="891824" />
	</node>
	<node id="-13735" lat="66.0000722265" lon="13.3368361017">
		<tag k="name" v="Tadesmyra" />
		<tag k="natural" v="wetland" />
		<tag k="ssr:stedsnr" v="224037" />
	</node>
	<node id="-13733" lat="66.0037388903" lon="13.3364416652">
		<tag k="name" v="Dydalsmyrån" />
		<tag k="natural" v="wetland" />
		<tag k="ssr:stedsnr" v="224014" />
	</node>
	<node id="-14918" lat="65.6926583318" lon="13.1550666727">
		<tag k="name" v="Vollåkeren" />
		<tag k="place" v="locality" />
		<tag k="ssr:stedsnr" v="423713" />
	</node>
	<node id="-17812" lat="65.9280722198" lon="12.7169777882">
		<tag k="name" v="Hestøra" />
		<tag k="place" v="locality" />
		<tag k="ssr:stedsnr" v="422968" />
	</node>
	<node id="-15763" lat="66.0030249988" lon="13.495649995">
		<tag k="name" v="Eriklimyrån" />
		<tag k="natural" v="wetland" />
		<tag k="ssr:stedsnr" v="890697" />
	</node>
	<node id="-15760" lat="66.0025583352" lon="13.4149861074">
		<tag k="landuse" v="meadow" />
		<tag k="name" v="Sandenget" />
		<tag k="ssr:stedsnr" v="890677" />
	</node>
	<node id="-13711" lat="65.8241444437" lon="13.4903722305">
		<tag k="name" v="Grantrongmyra" />
		<tag k="natural" v="wetland" />
		<tag k="ssr:stedsnr" v="222874" />
	</node>
	<node id="-17803" lat="65.6928000023" lon="13.2721166741">
		<tag k="name" v="Hesmyra" />
		<tag k="natural" v="wetland" />
		<tag k="ssr:stedsnr" v="422242" />
	</node>
	<node id="-17802" lat="65.693713887" lon="13.2687000002">
		<tag k="name" v="Hestmyra" />
		<tag k="natural" v="wetland" />
		<tag k="ssr:stedsnr" v="422240" />
	</node>
	<node id="-18667" lat="66.0580805527" lon="13.4863222258">
		<tag k="name" v="Skardsmyra" />
		<tag k="natural" v="wetland" />
		<tag k="ssr:stedsnr" v="810504" />
	</node>
	<node id="-17792" lat="66.0305111075" lon="13.6004638885">
		<tag k="name" v="Rakvikmyra" />
		<tag k="natural" v="wetland" />
		<tag k="ssr:stedsnr" v="420260" />
	</node>
	<node id="-15743" lat="66.050341666" lon="13.4718333337">
		<tag k="name" v="Fjellenget" />
		<tag k="place" v="locality" />
		<tag k="ssr:stedsnr" v="889697" />
	</node>
	<node id="-15741" lat="66.0487361115" lon="13.3993055634">
		<tag k="name" v="Hevelmyra" />
		<tag k="natural" v="wetland" />
		<tag k="ssr:stedsnr" v="889674" />
	</node>
	<node id="-15733" lat="66.0619888879" lon="13.3735722128">
		<tag k="name" v="Svenskmyra" />
		<tag k="natural" v="wetland" />
		<tag k="ssr:stedsnr" v="697068" />
	</node>
	<node id="-17779" lat="65.9613833302" lon="13.1436694489">
		<tag k="name" v="Gjalkarvollurda" />
		<tag k="natural" v="scree" />
		<tag k="ssr:stedsnr" v="406342" />
	</node>
	<node id="-15730" lat="65.8412305577" lon="13.2808888847">
		<tag k="name" v="Rana" />
		<tag k="place" v="locality" />
		<tag k="ssr:stedsnr" v="696610" />
	</node>
	<node id="-17775" lat="65.8696583321" lon="13.311252773">
		<tag k="name" v="Brattbakkskogen" />
		<tag k="place" v="locality" />
		<tag k="ssr:stedsnr" v="406181" />
	</node>
	<node id="-15726" lat="65.9175888881" lon="13.3550722268">
		<tag k="name" v="Storsteinmyra" />
		<tag k="natural" v="wetland" />
		<tag k="ssr:stedsnr" v="696706" />
	</node>
	<node id="-17771" lat="65.9334916633" lon="13.2757416585">
		<tag k="name" v="Ruvelhaugmyrån" />
		<tag k="natural" v="wetland" />
		<tag k="ssr:stedsnr" v="406084" />
	</node>
	<node id="-17768" lat="66.0074861155" lon="13.2918861017">
		<tag k="name" v="Geitklauvmyra" />
		<tag k="natural" v="wetland" />
		<tag k="ssr:stedsnr" v="406141" />
	</node>
	<node id="-15719" lat="66.1643583335" lon="13.5681888934">
		<tag k="name" v="Kattskogan" />
		<tag k="place" v="locality" />
		<tag k="ssr:stedsnr" v="889152" />
	</node>
	<node id="-17766" lat="65.810530556" lon="13.4885222194">
		<tag k="name" v="Tjønnmyra" />
		<tag k="natural" v="wetland" />
		<tag k="ssr:stedsnr" v="404998" />
	</node>
	<node id="-17765" lat="65.8323861153" lon="13.3963333346">
		<tag k="name" v="Langmyra" />
		<tag k="natural" v="wetland" />
		<tag k="ssr:stedsnr" v="404901" />
	</node>
	<node id="-15716" lat="65.8601916629" lon="13.2631472285">
		<tag k="name" v="Stormyra" />
		<tag k="natural" v="wetland" />
		<tag k="ssr:stedsnr" v="683961" />
	</node>
	<node id="-17757" lat="65.8495138866" lon="13.5405888982">
		<tag k="name" v="Hestmyra" />
		<tag k="natural" v="wetland" />
		<tag k="ssr:stedsnr" v="404410" />
	</node>
	<node id="-17750" lat="66.1644944492" lon="13.5520333241">
		<tag k="name" v="Stormyra" />
		<tag k="natural" v="wetland" />
		<tag k="ssr:stedsnr" v="403135" />
	</node>
	<node id="-17747" lat="66.0986944431" lon="13.5177888988">
		<tag k="landuse" v="meadow" />
		<tag k="name" v="Dalenget" />
		<tag k="ssr:stedsnr" v="394011" />
	</node>
	<node id="-17742" lat="65.9225988056" lon="13.3129828367">
		<tag k="name" v="Stormyra" />
		<tag k="natural" v="wetland" />
		<tag k="ssr:stedsnr" v="393727" />
	</node>
	<node id="-17739" lat="65.8502305582" lon="12.6942305544">
		<tag k="name" v="Kolbeinskogen" />
		<tag k="place" v="locality" />
		<tag k="ssr:stedsnr" v="393544" />
	</node>
	<node id="-17737" lat="65.9041944453" lon="13.3373222133">
		<tag k="landuse" v="meadow" />
		<tag k="name" v="Bergenget" />
		<tag k="ssr:stedsnr" v="393647" />
	</node>
	<node id="-17734" lat="65.9039777776" lon="13.1712277736">
		<tag k="landuse" v="quarry" />
		<tag k="name" v="Kleppen" />
		<tag k="ssr:stedsnr" v="393439" />
	</node>
	<node id="-17733" lat="65.8988416667" lon="13.175794447">
		<tag k="name" v="Granvegen" />
		<tag k="place" v="locality" />
		<tag k="ssr:stedsnr" v="393424" />
	</node>
	<node id="-15677" lat="65.8958194418" lon="12.7074027838">
		<tag k="name" v="Nubbmarka" />
		<tag k="place" v="locality" />
		<tag k="ssr:stedsnr" v="682408" />
	</node>
	<node id="-17722" lat="65.8369777751" lon="13.27648888">
		<tag k="landuse" v="meadow" />
		<tag k="name" v="Storenget" />
		<tag k="ssr:stedsnr" v="393233" />
	</node>
	<node id="-15673" lat="66.1106111147" lon="13.5338833375">
		<tag k="name" v="Lilleenget" />
		<tag k="place" v="locality" />
		<tag k="ssr:stedsnr" v="881114" />
	</node>
	<node id="-14900" lat="65.8250194479" lon="13.3140916581">
		<tag k="name" v="Jenslimyra" />
		<tag k="natural" v="wetland" />
		<tag k="ssr:stedsnr" v="514894" />
	</node>
	<node id="-15668" lat="65.9807000014" lon="13.247833324">
		<tag k="landuse" v="meadow" />
		<tag k="name" v="Moldalsenget" />
		<tag k="ssr:stedsnr" v="879928" />
	</node>
	<node id="-15664" lat="65.9818944442" lon="13.2667944351">
		<tag k="name" v="Stormyra" />
		<tag k="natural" v="wetland" />
		<tag k="ssr:stedsnr" v="879904" />
	</node>
	<node id="-15663" lat="65.8224138927" lon="13.3456388921">
		<tag k="landuse" v="meadow" />
		<tag k="name" v="Storenget" />
		<tag k="ssr:stedsnr" v="879870" />
	</node>
	<node id="-17710" lat="65.9815972192" lon="13.1980527672">
		<tag k="name" v="Kjølen" />
		<tag k="place" v="locality" />
		<tag k="ssr:stedsnr" v="392642" />
	</node>
	<node id="-15661" lat="66.0878388849" lon="13.5676305634">
		<tag k="name" v="Langmyra" />
		<tag k="natural" v="wetland" />
		<tag k="ssr:stedsnr" v="879723" />
	</node>
	<node id="-15659" lat="66.0842583364" lon="13.5596916602">
		<tag k="name" v="Krokengmyra" />
		<tag k="natural" v="wetland" />
		<tag k="ssr:stedsnr" v="879720" />
	</node>
	<node id="-15655" lat="65.8498583362" lon="13.3431250095">
		<tag k="name" v="Stormyra" />
		<tag k="natural" v="wetland" />
		<tag k="ssr:stedsnr" v="879668" />
	</node>
	<node id="-17695" lat="65.8762805524" lon="13.4260722135">
		<tag k="name" v="Fuglmyra" />
		<tag k="natural" v="wetland" />
		<tag k="ssr:stedsnr" v="379934" />
	</node>
	<node id="-15797" lat="65.9290333378" lon="13.3057361043">
		<tag k="name" v="Tømmermyra" />
		<tag k="natural" v="wetland" />
		<tag k="ssr:stedsnr" v="892078" />
	</node>
	<node id="-15642" lat="66.0168833303" lon="13.443344435">
		<tag k="name" v="Stormyra" />
		<tag k="natural" v="wetland" />
		<tag k="ssr:stedsnr" v="879134" />
	</node>
	<node id="-15639" lat="66.0628833331" lon="13.3904027701">
		<tag k="name" v="Buktvollen" />
		<tag k="place" v="locality" />
		<tag k="ssr:stedsnr" v="879061" />
	</node>
	<node id="-13870" lat="65.922538893" lon="12.9341833447">
		<tag k="landuse" v="meadow" />
		<tag k="name" v="Litleenget" />
		<tag k="ssr:stedsnr" v="239953" />
	</node>
	<node id="-15630" lat="65.9415027776" lon="13.1481027701">
		<tag k="name" v="Stormyra" />
		<tag k="natural" v="wetland" />
		<tag k="ssr:stedsnr" v="878740" />
	</node>
	<node id="-17672" lat="65.9900083297" lon="13.3198222129">
		<tag k="name" v="Andersmyra" />
		<tag k="natural" v="wetland" />
		<tag k="ssr:stedsnr" v="379791" />
	</node>
	<node id="-18183" lat="65.9187861088" lon="12.9394527738">
		<tag k="name" v="Stormyra" />
		<tag k="natural" v="wetland" />
		<tag k="ssr:stedsnr" v="622171" />
	</node>
	<node id="-15608" lat="65.7094583352" lon="13.2761250038">
		<tag k="landuse" v="meadow" />
		<tag k="name" v="Lilleenget" />
		<tag k="ssr:stedsnr" v="664256" />
	</node>
	<node id="-15597" lat="66.1247194419" lon="13.5210611078">
		<tag k="name" v="Nordmyra" />
		<tag k="natural" v="wetland" />
		<tag k="ssr:stedsnr" v="662295" />
	</node>
	<node id="-17644" lat="65.8155000038" lon="13.5251000036">
		<tag k="name" v="Fuglmyra" />
		<tag k="natural" v="wetland" />
		<tag k="ssr:stedsnr" v="379488" />
	</node>
	<node id="-15595" lat="66.0958722202" lon="13.5904305571">
		<tag k="name" v="Øverdalsura" />
		<tag k="natural" v="scree" />
		<tag k="ssr:stedsnr" v="662276" />
	</node>
	<node id="-15583" lat="65.90972222" lon="13.4851611157">
		<tag k="name" v="Nylamyra" />
		<tag k="natural" v="wetland" />
		<tag k="ssr:stedsnr" v="648862" />
	</node>
	<node id="-15574" lat="65.7655000035" lon="13.2893083361">
		<tag k="name" v="Teigan" />
		<tag k="place" v="locality" />
		<tag k="ssr:stedsnr" v="648267" />
	</node>
	<node id="-15572" lat="65.7236138903" lon="13.304572218">
		<tag k="name" v="Almholten" />
		<tag k="place" v="locality" />
		<tag k="ssr:stedsnr" v="648259" />
	</node>
	<node id="-15571" lat="65.9450694399" lon="13.2440638941">
		<tag k="name" v="Stemmyra" />
		<tag k="natural" v="wetland" />
		<tag k="ssr:stedsnr" v="648076" />
	</node>
	<node id="-17618" lat="66.0413916634" lon="13.5285500072">
		<tag k="name" v="Stormyra" />
		<tag k="natural" v="wetland" />
		<tag k="ssr:stedsnr" v="379320" />
	</node>
	<node id="-15566" lat="66.0106582097" lon="13.265024049">
		<tag k="name" v="Krokengmyra" />
		<tag k="natural" v="wetland" />
		<tag k="ssr:stedsnr" v="648118" />
	</node>
	<node id="-15559" lat="66.0421833337" lon="13.3708666713">
		<tag k="name" v="Stormyra" />
		<tag k="natural" v="wetland" />
		<tag k="ssr:stedsnr" v="646689" />
	</node>
	<node id="-17602" lat="65.8963944432" lon="12.8194749901">
		<tag k="name" v="Sørmarka" />
		<tag k="place" v="locality" />
		<tag k="ssr:stedsnr" v="379204" />
	</node>
	<node id="-15553" lat="66.0826583351" lon="13.5351361035">
		<tag k="name" v="Brusamyra" />
		<tag k="natural" v="wetland" />
		<tag k="ssr:stedsnr" v="637403" />
	</node>
	<node id="-15552" lat="66.0991472243" lon="13.5442916766">
		<tag k="landuse" v="meadow" />
		<tag k="name" v="Falkmoenget" />
		<tag k="ssr:stedsnr" v="637121" />
	</node>
	<node id="-15546" lat="66.0635611158" lon="13.3625666603">
		<tag k="landuse" v="meadow" />
		<tag k="name" v="Pålmoenget" />
		<tag k="ssr:stedsnr" v="636060" />
	</node>
	<node id="-15544" lat="65.9733166679" lon="13.2175583334">
		<tag k="name" v="Myrkrokan" />
		<tag k="natural" v="wetland" />
		<tag k="ssr:stedsnr" v="635924" />
	</node>
	<node id="-15543" lat="65.8051166658" lon="13.2602583377">
		<tag k="name" v="Mosetra" />
		<tag k="place" v="locality" />
		<tag k="ssr:stedsnr" v="635917" />
	</node>
	<node id="-17590" lat="65.7788138897" lon="13.6689388817">
		<tag k="name" v="Brovresenspeatnoe" />
		<tag k="name:sma" v="Brovresenspeatnoe" />
		<tag k="natural" v="glacier" />
		<tag k="ssr:stedsnr" v="379557" />
	</node>
	<node id="-15540" lat="65.9750416696" lon="13.2652972297">
		<tag k="name" v="Skardsmyra" />
		<tag k="natural" v="wetland" />
		<tag k="ssr:stedsnr" v="635909" />
	</node>
	<node id="-15539" lat="65.990125004" lon="13.2792722153">
		<tag k="name" v="Raumyra" />
		<tag k="natural" v="wetland" />
		<tag k="ssr:stedsnr" v="635906" />
	</node>
	<node id="-15532" lat="65.9350000014" lon="13.214633324">
		<tag k="name" v="Grønholmen" />
		<tag k="place" v="locality" />
		<tag k="ssr:stedsnr" v="635471" />
	</node>
	<node id="-15528" lat="65.8235166711" lon="13.2368333296">
		<tag k="landuse" v="meadow" />
		<tag k="name" v="Litlenget" />
		<tag k="ssr:stedsnr" v="635217" />
	</node>
	<node id="-17574" lat="65.6889750014" lon="13.1591194359">
		<tag k="name" v="Krokraftmyra" />
		<tag k="natural" v="wetland" />
		<tag k="ssr:stedsnr" v="362684" />
	</node>
	<node id="-17573" lat="65.7919277788" lon="13.1202638815">
		<tag k="name" v="Falkurda" />
		<tag k="natural" v="scree" />
		<tag k="ssr:stedsnr" v="362587" />
	</node>
	<node id="-15521" lat="65.9634722206" lon="13.1800805655">
		<tag k="landuse" v="meadow" />
		<tag k="name" v="Pollenget" />
		<tag k="ssr:stedsnr" v="634419" />
	</node>
	<node id="-15516" lat="65.8100249975" lon="13.1374083281">
		<tag k="name" v="Nordbekkmyra" />
		<tag k="natural" v="wetland" />
		<tag k="ssr:stedsnr" v="727509" />
	</node>
	<node id="-15513" lat="65.9816194447" lon="13.2103527832">
		<tag k="name" v="Øverbakkmyra" />
		<tag k="natural" v="wetland" />
		<tag k="ssr:stedsnr" v="628503" />
	</node>
	<node id="-15511" lat="66.0209611126" lon="13.3532527797">
		<tag k="name" v="Mikkelmyra" />
		<tag k="natural" v="wetland" />
		<tag k="ssr:stedsnr" v="726931" />
	</node>
	<node id="-17554" lat="66.1268361126" lon="13.5144916605">
		<tag k="name" v="Øvermyra" />
		<tag k="natural" v="wetland" />
		<tag k="ssr:stedsnr" v="359336" />
	</node>
	<node id="-17546" lat="65.9653027741" lon="13.4199138786">
		<tag k="name" v="Lamoskogen" />
		<tag k="place" v="locality" />
		<tag k="ssr:stedsnr" v="345839" />
	</node>
	<node id="-17545" lat="65.9431583315" lon="13.3977305517">
		<tag k="name" v="Slåkmyra" />
		<tag k="natural" v="wetland" />
		<tag k="ssr:stedsnr" v="345838" />
	</node>
	<node id="-17544" lat="65.9243222231" lon="13.3822083313">
		<tag k="name" v="Galamyra" />
		<tag k="natural" v="wetland" />
		<tag k="ssr:stedsnr" v="345737" />
	</node>
	<node id="-17542" lat="65.843502778" lon="13.3867249894">
		<tag k="name" v="Stormyra" />
		<tag k="natural" v="wetland" />
		<tag k="ssr:stedsnr" v="345784" />
	</node>
	<node id="-15490" lat="65.9100277808" lon="12.9116027865">
		<tag k="name" v="Kjølengmyra" />
		<tag k="natural" v="wetland" />
		<tag k="ssr:stedsnr" v="725918" />
	</node>
	<node id="-17536" lat="65.939736109" lon="13.4128722282">
		<tag k="name" v="Sandvikmyra" />
		<tag k="natural" v="wetland" />
		<tag k="ssr:stedsnr" v="345648" />
	</node>
	<node id="-15487" lat="65.6534972223" lon="13.1311916729">
		<tag k="name" v="Kolbeinmyran" />
		<tag k="natural" v="wetland" />
		<tag k="ssr:stedsnr" v="725735" />
	</node>
	<node id="-15485" lat="65.6885500012" lon="13.1345861217">
		<tag k="name" v="Dansarmyrån" />
		<tag k="natural" v="wetland" />
		<tag k="ssr:stedsnr" v="725731" />
	</node>
	<node id="-17532" lat="65.7442805575" lon="13.3090638914">
		<tag k="name" v="Granholten" />
		<tag k="place" v="locality" />
		<tag k="ssr:stedsnr" v="345290" />
	</node>
	<node id="-17531" lat="65.7418916688" lon="13.3008638842">
		<tag k="name" v="Urkattholtet" />
		<tag k="place" v="locality" />
		<tag k="ssr:stedsnr" v="345289" />
	</node>
	<node id="-17529" lat="65.8158722244" lon="13.298916674">
		<tag k="name" v="Momyra" />
		<tag k="natural" v="wetland" />
		<tag k="ssr:stedsnr" v="345158" />
	</node>
	<node id="-17528" lat="66.0151611156" lon="13.2814944431">
		<tag k="name" v="Røyråsmyra" />
		<tag k="natural" v="wetland" />
		<tag k="ssr:stedsnr" v="345081" />
	</node>
	<node id="-15208" lat="65.8719638855" lon="13.4471055504">
		<tag k="name" v="Munnamyra" />
		<tag k="natural" v="wetland" />
		<tag k="ssr:stedsnr" v="527962" />
	</node>
	<node id="-17518" lat="65.9937944401" lon="13.3314055609">
		<tag k="name" v="Galamyra" />
		<tag k="natural" v="wetland" />
		<tag k="ssr:stedsnr" v="345034" />
	</node>
	<node id="-15469" lat="66.0736083298" lon="13.5670416662">
		<tag k="name" v="Storslettmyra" />
		<tag k="natural" v="wetland" />
		<tag k="ssr:stedsnr" v="723279" />
	</node>
	<node id="-15468" lat="66.0560666686" lon="13.527236121">
		<tag k="name" v="Høystakkmyra" />
		<tag k="natural" v="wetland" />
		<tag k="ssr:stedsnr" v="723278" />
	</node>
	<node id="-18279" lat="65.9467500012" lon="13.1788972137">
		<tag k="name" v="Bjørkrøyste" />
		<tag k="place" v="locality" />
		<tag k="ssr:stedsnr" v="635722" />
	</node>
	<node id="-17512" lat="66.0501888909" lon="13.4359166584">
		<tag k="name" v="Sørengsmyra" />
		<tag k="natural" v="wetland" />
		<tag k="ssr:stedsnr" v="343750" />
	</node>
	<node id="-15461" lat="65.7528305602" lon="13.2058666578">
		<tag k="name" v="Sommarmarka" />
		<tag k="place" v="locality" />
		<tag k="ssr:stedsnr" v="604630" />
	</node>
	<node id="-15449" lat="65.9283305529" lon="13.3184194392">
		<tag k="landuse" v="meadow" />
		<tag k="name" v="Forsenget" />
		<tag k="ssr:stedsnr" v="588100" />
	</node>
	<node id="-17496" lat="65.808525004" lon="13.5324555596">
		<tag k="landuse" v="meadow" />
		<tag k="name" v="Stakkenget" />
		<tag k="ssr:stedsnr" v="343344" />
	</node>
	<node id="-15446" lat="65.934202776" lon="13.2950611165">
		<tag k="name" v="Tjønnmyrån" />
		<tag k="natural" v="wetland" />
		<tag k="ssr:stedsnr" v="588093" />
	</node>
	<node id="-15445" lat="65.931338891" lon="13.2510277677">
		<tag k="name" v="Tårnmyra" />
		<tag k="natural" v="wetland" />
		<tag k="ssr:stedsnr" v="588082" />
	</node>
	<node id="-17486" lat="66.112002778" lon="13.48974445">
		<tag k="landuse" v="meadow" />
		<tag k="name" v="Fjellsenget" />
		<tag k="ssr:stedsnr" v="333280" />
	</node>
	<node id="-14861" lat="66.0257916672" lon="13.5976555475">
		<tag k="name" v="Nesabuktmyra" />
		<tag k="natural" v="wetland" />
		<tag k="ssr:stedsnr" v="420248" />
	</node>
	<node id="-17480" lat="66.0738972206" lon="13.4056749918">
		<tag k="name" v="Vargmyra" />
		<tag k="natural" v="wetland" />
		<tag k="ssr:stedsnr" v="333066" />
	</node>
	<node id="-17475" lat="65.8302638862" lon="13.3318527748">
		<tag k="name" v="Grønlisetra" />
		<tag k="place" v="locality" />
		<tag k="ssr:stedsnr" v="332877" />
	</node>
	<node id="-15418" lat="65.8669472225" lon="13.432061115">
		<tag k="name" v="Munnargranskogen" />
		<tag k="place" v="locality" />
		<tag k="ssr:stedsnr" v="709959" />
	</node>
	<node id="-17464" lat="65.8604777751" lon="13.2768916556">
		<tag k="name" v="Åsnevet" />
		<tag k="place" v="locality" />
		<tag k="ssr:stedsnr" v="332571" />
	</node>
	<node id="-17456" lat="65.8801555596" lon="13.1795972175">
		<tag k="name" v="Bjønnledet" />
		<tag k="place" v="locality" />
		<tag k="ssr:stedsnr" v="332001" />
	</node>
	<node id="-17454" lat="65.822652779" lon="13.242322226">
		<tag k="landuse" v="meadow" />
		<tag k="name" v="Meenget" />
		<tag k="ssr:stedsnr" v="332257" />
	</node>
	<node id="-15399" lat="65.9353833345" lon="13.399844442">
		<tag k="name" v="Tømmeråsmyra" />
		<tag k="natural" v="wetland" />
		<tag k="ssr:stedsnr" v="709662" />
	</node>
	<node id="-16561" lat="65.7005472254" lon="13.2605305536">
		<tag k="name" v="Myrenget" />
		<tag k="place" v="locality" />
		<tag k="ssr:stedsnr" v="57242" />
	</node>
	<node id="-17444" lat="65.7983666624" lon="13.2351222193">
		<tag k="name" v="Ivarmyra" />
		<tag k="natural" v="wetland" />
		<tag k="ssr:stedsnr" v="325513" />
	</node>
	<node id="-15383" lat="65.9282083335" lon="13.3351527718">
		<tag k="landuse" v="meadow" />
		<tag k="name" v="Tjønnenget" />
		<tag k="ssr:stedsnr" v="709098" />
	</node>
	<node id="-15380" lat="65.9382111152" lon="13.2337583275">
		<tag k="name" v="Finnmomyra" />
		<tag k="natural" v="wetland" />
		<tag k="ssr:stedsnr" v="709074" />
	</node>
	<node id="-15378" lat="66.0476916629" lon="13.3420083306">
		<tag k="name" v="Mølnhusmyra" />
		<tag k="natural" v="wetland" />
		<tag k="ssr:stedsnr" v="709052" />
	</node>
	<node id="-15373" lat="65.8588944404" lon="13.5876361062">
		<tag k="name" v="Forsmyrån" />
		<tag k="natural" v="wetland" />
		<tag k="ssr:stedsnr" v="708485" />
	</node>
	<node id="-15874" lat="65.9206555573" lon="12.7484055572">
		<tag k="name" v="Gjerdlikroken" />
		<tag k="natural" v="wetland" />
		<tag k="ssr:stedsnr" v="907192" />
	</node>
	<node id="-15365" lat="65.8402277756" lon="13.5080000023">
		<tag k="name" v="Nesmyra" />
		<tag k="natural" v="wetland" />
		<tag k="ssr:stedsnr" v="708434" />
	</node>
	<node id="-18261" lat="65.9352138888" lon="13.2037138936">
		<tag k="name" v="Stuvremma" />
		<tag k="place" v="locality" />
		<tag k="ssr:stedsnr" v="635477" />
	</node>
	<node id="-16554" lat="65.8340250009" lon="12.6610638974">
		<tag k="landuse" v="quarry" />
		<tag k="name" v="Husvik gruber" />
		<tag k="ssr:stedsnr" v="57132" />
	</node>
	<node id="-15353" lat="65.8612916625" lon="13.3103138917">
		<tag k="name" v="Skrepplamyra" />
		<tag k="natural" v="wetland" />
		<tag k="ssr:stedsnr" v="575664" />
	</node>
	<node id="-15349" lat="65.8545249998" lon="13.312441674">
		<tag k="name" v="Akselmyra" />
		<tag k="natural" v="wetland" />
		<tag k="ssr:stedsnr" v="575653" />
	</node>
	<node id="-15348" lat="65.9768916631" lon="13.4210027769">
		<tag k="landuse" v="meadow" />
		<tag k="name" v="Nordenget" />
		<tag k="ssr:stedsnr" v="707734" />
	</node>
	<node id="-15345" lat="66.0823388892" lon="13.5669555583">
		<tag k="name" v="Joskreppen" />
		<tag k="place" v="locality" />
		<tag k="ssr:stedsnr" v="575708" />
	</node>
	<node id="-15342" lat="66.0510638886" lon="13.4425305655">
		<tag k="name" v="Halvtynnmyra" />
		<tag k="natural" v="wetland" />
		<tag k="ssr:stedsnr" v="707700" />
	</node>
	<node id="-17386" lat="65.9938805512" lon="13.2337222236">
		<tag k="name" v="Trømyra" />
		<tag k="natural" v="wetland" />
		<tag k="ssr:stedsnr" v="318878" />
	</node>
	<node id="-15337" lat="65.9977305546" lon="13.462797231">
		<tag k="name" v="Heimsmyra" />
		<tag k="natural" v="wetland" />
		<tag k="ssr:stedsnr" v="707655" />
	</node>
	<node id="-15332" lat="65.8987666671" lon="13.3831888963">
		<tag k="name" v="Austerengøra" />
		<tag k="place" v="locality" />
		<tag k="ssr:stedsnr" v="575128" />
	</node>
	<node id="-15323" lat="65.917650004" lon="13.1877305527">
		<tag k="name" v="Brenslet" />
		<tag k="place" v="locality" />
		<tag k="ssr:stedsnr" v="574099" />
	</node>
	<node id="-15318" lat="65.8567722211" lon="13.207977769">
		<tag k="name" v="Monsenget" />
		<tag k="place" v="locality" />
		<tag k="ssr:stedsnr" v="574064" />
	</node>
	<node id="-15310" lat="66.1145472205" lon="13.5778361175">
		<tag k="name" v="Brynnmyra" />
		<tag k="natural" v="wetland" />
		<tag k="ssr:stedsnr" v="707143" />
	</node>
	<node id="-17349" lat="66.0922055594" lon="13.4114722214">
		<tag k="name" v="Rishaugmyra" />
		<tag k="natural" v="wetland" />
		<tag k="ssr:stedsnr" v="318282" />
	</node>
	<node id="-16543" lat="66.0695416648" lon="13.509861121">
		<tag k="name" v="Finnkotmyra" />
		<tag k="natural" v="wetland" />
		<tag k="ssr:stedsnr" v="56287" />
	</node>
	<node id="-14080" lat="65.9738055532" lon="13.2665527803">
		<tag k="name" v="Johannesurda" />
		<tag k="natural" v="scree" />
		<tag k="ssr:stedsnr" v="150905" />
	</node>
	<node id="-18990" lat="65.7947111151" lon="13.3439527866">
		<tag k="name" v="Rabbmyra" />
		<tag k="natural" v="wetland" />
		<tag k="ssr:stedsnr" v="952251" />
	</node>
	<node id="-17318" lat="66.0862694448" lon="13.5043249914">
		<tag k="name" v="Vargmodalsmyra" />
		<tag k="natural" v="wetland" />
		<tag k="ssr:stedsnr" v="213445" />
	</node>
	<node id="-17314" lat="65.9211222197" lon="13.222077774">
		<tag k="name" v="Granhattmyra" />
		<tag k="natural" v="wetland" />
		<tag k="ssr:stedsnr" v="212832" />
	</node>
	<node id="-16880" lat="65.9176944455" lon="12.9059977443">
		<tag k="name" v="Forsbakkmyra" />
		<tag k="natural" v="wetland" />
		<tag k="ssr:stedsnr" v="118948" />
	</node>
	<node id="-16197" lat="66.0658833343" lon="13.3824972253">
		<tag k="name" v="Myrenget" />
		<tag k="natural" v="wetland" />
		<tag k="ssr:stedsnr" v="940057" />
	</node>
	<node id="-15260" lat="65.9211500021" lon="13.2348694489">
		<tag k="name" v="Formyra" />
		<tag k="natural" v="wetland" />
		<tag k="ssr:stedsnr" v="697878" />
	</node>
	<node id="-17302" lat="65.9157250014" lon="13.3187527675">
		<tag k="name" v="Dansarsteinskogen" />
		<tag k="place" v="locality" />
		<tag k="ssr:stedsnr" v="211782" />
	</node>
	<node id="-15248" lat="65.9409749993" lon="13.1707138796">
		<tag k="name" v="Gråsteinen" />
		<tag k="natural" v="stone" />
		<tag k="ssr:stedsnr" v="696748" />
	</node>
	<node id="-15247" lat="65.917891663" lon="13.2991722162">
		<tag k="name" v="Gernskogan" />
		<tag k="place" v="locality" />
		<tag k="ssr:stedsnr" v="696761" />
	</node>
	<node id="-15242" lat="65.7474333309" lon="13.2359416671">
		<tag k="name" v="Gardsøra" />
		<tag k="place" v="locality" />
		<tag k="ssr:stedsnr" v="696674" />
	</node>
	<node id="-17559" lat="66.0733861065" lon="13.5113805644">
		<tag k="name" v="Tretjønnmyra" />
		<tag k="natural" v="wetland" />
		<tag k="ssr:stedsnr" v="359290" />
	</node>
	<node id="-17283" lat="66.0331944453" lon="13.4467888936">
		<tag k="name" v="Luktvasslimyran" />
		<tag k="natural" v="wetland" />
		<tag k="ssr:stedsnr" v="211267" />
	</node>
	<node id="-15228" lat="65.8074555526" lon="13.1924666604">
		<tag k="name" v="Harnesenget" />
		<tag k="place" v="locality" />
		<tag k="ssr:stedsnr" v="696230" />
	</node>
	<node id="-17271" lat="65.9824361126" lon="13.1989888827">
		<tag k="name" v="Kløven" />
		<tag k="place" v="locality" />
		<tag k="ssr:stedsnr" v="210583" />
	</node>
	<node id="-15212" lat="65.8645388883" lon="13.1924833235">
		<tag k="name" v="Kulstadsjøleira" />
		<tag k="place" v="locality" />
		<tag k="ssr:stedsnr" v="689580" />
	</node>
	<node id="-17258" lat="65.8158027758" lon="13.2640416565">
		<tag k="name" v="Setermyra" />
		<tag k="natural" v="wetland" />
		<tag k="ssr:stedsnr" v="204466" />
	</node>
	<node id="-17256" lat="65.8496416701" lon="13.2346694364">
		<tag k="name" v="Stemvassmyra" />
		<tag k="natural" v="wetland" />
		<tag k="ssr:stedsnr" v="204438" />
	</node>
	<node id="-15204" lat="65.8036083372" lon="13.3501833237">
		<tag k="name" v="Finnåsmyra" />
		<tag k="natural" v="wetland" />
		<tag k="ssr:stedsnr" v="527177" />
	</node>
	<node id="-15200" lat="66.0096305586" lon="13.3065138863">
		<tag k="name" v="Skarsmyra" />
		<tag k="natural" v="wetland" />
		<tag k="ssr:stedsnr" v="527157" />
	</node>
	<node id="-15198" lat="65.7883388847" lon="13.3405138842">
		<tag k="name" v="Pollmyra" />
		<tag k="natural" v="wetland" />
		<tag k="ssr:stedsnr" v="527250" />
	</node>
	<node id="-15197" lat="65.7153611145" lon="13.2895944384">
		<tag k="name" v="Ravassmyra" />
		<tag k="natural" v="wetland" />
		<tag k="ssr:stedsnr" v="527234" />
	</node>
	<node id="-15196" lat="65.7914694462" lon="13.3337111149">
		<tag k="landuse" v="meadow" />
		<tag k="name" v="Steinenget" />
		<tag k="ssr:stedsnr" v="527229" />
	</node>
	<node id="-17224" lat="65.9368916658" lon="13.4391666768">
		<tag k="name" v="Øvstmyra" />
		<tag k="natural" v="wetland" />
		<tag k="ssr:stedsnr" v="197897" />
	</node>
	<node id="-16523" lat="66.0134722216" lon="13.2798638797">
		<tag k="landuse" v="meadow" />
		<tag k="name" v="Røyråsenget" />
		<tag k="ssr:stedsnr" v="42068" />
	</node>
	<node id="-15166" lat="65.9612722193" lon="13.1523000096">
		<tag k="name" v="Skjellarstaden" />
		<tag k="place" v="locality" />
		<tag k="ssr:stedsnr" v="513459" />
	</node>
	<node id="-15141" lat="65.8978499992" lon="13.229725005">
		<tag k="name" v="Skjellarmyra" />
		<tag k="natural" v="wetland" />
		<tag k="ssr:stedsnr" v="507479" />
	</node>
	<node id="-15139" lat="65.8461361115" lon="13.2213833377">
		<tag k="name" v="Prestmyra" />
		<tag k="natural" v="wetland" />
		<tag k="ssr:stedsnr" v="507472" />
	</node>
	<node id="-17152" lat="65.7924333289" lon="13.3575000073">
		<tag k="name" v="Vargmyra" />
		<tag k="natural" v="wetland" />
		<tag k="ssr:stedsnr" v="180886" />
	</node>
	<node id="-17535" lat="65.9278944468" lon="13.4011027789">
		<tag k="landuse" v="meadow" />
		<tag k="name" v="Skogenget" />
		<tag k="ssr:stedsnr" v="345643" />
	</node>
	<node id="-17141" lat="65.7427861142" lon="13.2057555464">
		<tag k="name" v="Stormyra" />
		<tag k="natural" v="wetland" />
		<tag k="ssr:stedsnr" v="180597" />
	</node>
	<node id="-15092" lat="65.9198999971" lon="13.4343583305">
		<tag k="alt_name" v="Grografmyra" />
		<tag k="name" v="Grogravmyra" />
		<tag k="natural" v="wetland" />
		<tag k="ssr:stedsnr" v="501891" />
	</node>
	<node id="-16510" lat="66.0004916656" lon="13.3659222179">
		<tag k="name" v="Buktmyrån" />
		<tag k="natural" v="wetland" />
		<tag k="ssr:stedsnr" v="40720" />
	</node>
	<node id="-17135" lat="65.8978777753" lon="12.7690666763">
		<tag k="name" v="Opplandsmyra" />
		<tag k="natural" v="wetland" />
		<tag k="ssr:stedsnr" v="179983" />
	</node>
	<node id="-17133" lat="65.9353222241" lon="12.7112722181">
		<tag k="landuse" v="meadow" />
		<tag k="name" v="Teigen" />
		<tag k="ssr:stedsnr" v="179979" />
	</node>
	<node id="-17130" lat="65.5562194436" lon="13.1683916597">
		<tag k="name" v="Holbekkmyra" />
		<tag k="natural" v="wetland" />
		<tag k="ssr:stedsnr" v="179820" />
	</node>
	<node id="-17119" lat="66.1342111087" lon="13.6493555545">
		<tag k="name" v="Ola-lateigen" />
		<tag k="place" v="locality" />
		<tag k="ssr:stedsnr" v="178041" />
	</node>
	<node id="-17116" lat="66.0820527798" lon="13.662119444">
		<tag k="name" v="Krestenmyra" />
		<tag k="natural" v="wetland" />
		<tag k="ssr:stedsnr" v="178016" />
	</node>
	<node id="-17113" lat="66.0129222203" lon="13.6093222317">
		<tag k="name" v="Svartvassmyra" />
		<tag k="natural" v="wetland" />
		<tag k="ssr:stedsnr" v="177297" />
	</node>
	<node id="-17112" lat="66.0694999968" lon="13.5272111125">
		<tag k="name" v="Tjønnmyra" />
		<tag k="natural" v="wetland" />
		<tag k="ssr:stedsnr" v="177280" />
	</node>
	<node id="-17109" lat="66.0237277782" lon="13.590513892">
		<tag k="name" v="Engamyra" />
		<tag k="natural" v="wetland" />
		<tag k="ssr:stedsnr" v="177245" />
	</node>
	<node id="-15058" lat="66.1310388887" lon="13.6054888828">
		<tag k="name" v="Engesmyra" />
		<tag k="natural" v="wetland" />
		<tag k="ssr:stedsnr" v="299399" />
	</node>
	<node id="-17104" lat="65.9250194406" lon="12.9376972261">
		<tag k="name" v="Sommarfjøsåkeren" />
		<tag k="place" v="locality" />
		<tag k="ssr:stedsnr" v="163885" />
	</node>
	<node id="-17097" lat="65.9592055586" lon="13.1402611062">
		<tag k="name" v="Engemyra" />
		<tag k="natural" v="wetland" />
		<tag k="ssr:stedsnr" v="163340" />
	</node>
	<node id="-17096" lat="65.7615694423" lon="13.2885194489">
		<tag k="name" v="Ura" />
		<tag k="natural" v="scree" />
		<tag k="ssr:stedsnr" v="163228" />
	</node>
	<node id="-15045" lat="65.8038944427" lon="13.1336750019">
		<tag k="name" v="Kvanndalsmyra" />
		<tag k="natural" v="wetland" />
		<tag k="ssr:stedsnr" v="480504" />
	</node>
	<node id="-17086" lat="66.0318083338" lon="13.3051083419">
		<tag k="name" v="Granskogen" />
		<tag k="place" v="locality" />
		<tag k="ssr:stedsnr" v="163006" />
	</node>
	<node id="-15036" lat="65.9564055528" lon="13.4547861195">
		<tag k="name" v="Eldhusskogan" />
		<tag k="place" v="locality" />
		<tag k="ssr:stedsnr" v="467859" />
	</node>
	<node id="-17083" lat="65.8078472223" lon="13.4866472194">
		<tag k="name" v="Nylamyra" />
		<tag k="natural" v="wetland" />
		<tag k="ssr:stedsnr" v="161995" />
	</node>
	<node id="-15027" lat="65.7701333317" lon="13.2911638812">
		<tag k="name" v="Tøysmyra" />
		<tag k="natural" v="wetland" />
		<tag k="ssr:stedsnr" v="466267" />
	</node>
	<node id="-17073" lat="65.9953694401" lon="13.478208336">
		<tag k="name" v="Hattenget" />
		<tag k="place" v="locality" />
		<tag k="ssr:stedsnr" v="161691" />
	</node>
	<node id="-15024" lat="65.9696388875" lon="13.4252388813">
		<tag k="name" v="Kalvgårdsmyra" />
		<tag k="natural" v="wetland" />
		<tag k="ssr:stedsnr" v="465757" />
	</node>
	<node id="-15022" lat="65.9724027797" lon="13.4052527676">
		<tag k="name" v="Bjørnmyra" />
		<tag k="natural" v="wetland" />
		<tag k="ssr:stedsnr" v="465752" />
	</node>
	<node id="-17069" lat="65.7831527773" lon="13.5698666753">
		<tag k="name" v="Stormyra" />
		<tag k="natural" v="wetland" />
		<tag k="ssr:stedsnr" v="161399" />
	</node>
	<node id="-17068" lat="66.0811000027" lon="13.4214138904">
		<tag k="name" v="Rundmyra" />
		<tag k="natural" v="wetland" />
		<tag k="ssr:stedsnr" v="161494" />
	</node>
	<node id="-15017" lat="65.8340555543" lon="13.3624194505">
		<tag k="name" v="Tjønnmyra" />
		<tag k="natural" v="wetland" />
		<tag k="ssr:stedsnr" v="464917" />
	</node>
	<node id="-17061" lat="65.6990416661" lon="13.2772305482">
		<tag k="name" v="Finnmyra" />
		<tag k="natural" v="wetland" />
		<tag k="ssr:stedsnr" v="300271" />
	</node>
	<node id="-15010" lat="66.0777666678" lon="13.4264833327">
		<tag k="name" v="Lomtjønnmyra" />
		<tag k="natural" v="wetland" />
		<tag k="ssr:stedsnr" v="464521" />
	</node>
	<node id="-15006" lat="65.7731749974" lon="13.1852055549">
		<tag k="name" v="Kløftåsengan" />
		<tag k="place" v="locality" />
		<tag k="ssr:stedsnr" v="666589" />
	</node>
	<node id="-15004" lat="65.7660861097" lon="13.1996166737">
		<tag k="name" v="Dissamyra" />
		<tag k="natural" v="wetland" />
		<tag k="ssr:stedsnr" v="666583" />
	</node>
	<node id="-15002" lat="65.7712694467" lon="13.1661388925">
		<tag k="name" v="Seterura" />
		<tag k="natural" v="scree" />
		<tag k="ssr:stedsnr" v="666569" />
	</node>
	<node id="-14993" lat="65.9072638908" lon="12.9083999912">
		<tag k="name" v="Stuvmyrån" />
		<tag k="natural" v="wetland" />
		<tag k="ssr:stedsnr" v="664938" />
	</node>
	<node id="-14986" lat="65.8727555536" lon="12.7155999924">
		<tag k="name" v="Snelimyra" />
		<tag k="natural" v="wetland" />
		<tag k="ssr:stedsnr" v="664148" />
	</node>
	<node id="-17033" lat="65.8491638862" lon="13.3051416561">
		<tag k="name" v="Staurremma" />
		<tag k="place" v="locality" />
		<tag k="ssr:stedsnr" v="150657" />
	</node>
	<node id="-17026" lat="65.86382778" lon="13.2048388986">
		<tag k="landuse" v="meadow" />
		<tag k="name" v="Hesenget" />
		<tag k="ssr:stedsnr" v="150246" />
	</node>
	<node id="-14973" lat="65.786255559" lon="13.2221250071">
		<tag k="landuse" v="meadow" />
		<tag k="name" v="Elvenget" />
		<tag k="ssr:stedsnr" v="454979" />
	</node>
	<node id="-17018" lat="66.0214944434" lon="13.4854916741">
		<tag k="name" v="Eriklimyrån" />
		<tag k="natural" v="wetland" />
		<tag k="ssr:stedsnr" v="150150" />
	</node>
	<node id="-14968" lat="66.0920750038" lon="13.5376666679">
		<tag k="landuse" v="meadow" />
		<tag k="name" v="Middagsenget" />
		<tag k="ssr:stedsnr" v="454766" />
	</node>
	<node id="-14966" lat="65.9204750018" lon="13.3179388877">
		<tag k="name" v="Remman" />
		<tag k="place" v="locality" />
		<tag k="ssr:stedsnr" v="454813" />
	</node>
	<node id="-17013" lat="65.7392583357" lon="13.2264861081">
		<tag k="name" v="Hiøra" />
		<tag k="place" v="locality" />
		<tag k="ssr:stedsnr" v="149677" />
	</node>
	<node id="-19045" lat="65.6381194411" lon="13.1179333342">
		<tag k="name" v="Kjerrvedmyra" />
		<tag k="natural" v="wetland" />
		<tag k="ssr:stedsnr" v="968747" />
	</node>
	<node id="-14945" lat="65.8394916643" lon="13.2770361122">
		<tag k="name" v="Hopenget" />
		<tag k="place" v="locality" />
		<tag k="ssr:stedsnr" v="446525" />
	</node>
	<node id="-14944" lat="65.9766361095" lon="13.1932916693">
		<tag k="name" v="Tømmermyra" />
		<tag k="natural" v="wetland" />
		<tag k="ssr:stedsnr" v="446519" />
	</node>
	<node id="-19036" lat="65.9196444481" lon="12.9047750029">
		<tag k="landuse" v="meadow" />
		<tag k="name" v="Pollenget" />
		<tag k="ssr:stedsnr" v="967921" />
	</node>
	<node id="-14921" lat="65.6366472212" lon="13.1492472306">
		<tag k="name" v="Ytter-Gåsmyra" />
		<tag k="natural" v="wetland" />
		<tag k="ssr:stedsnr" v="423725" />
	</node>
	<node id="-16967" lat="65.7001277805" lon="13.1228555527">
		<tag k="name" v="Kalvdansarmyran" />
		<tag k="natural" v="wetland" />
		<tag k="ssr:stedsnr" v="136778" />
	</node>
	<node id="-19014" lat="66.0593750007" lon="13.51635277">
		<tag k="name" v="Ljåsorvmyra" />
		<tag k="natural" v="wetland" />
		<tag k="ssr:stedsnr" v="966292" />
	</node>
	<node id="-14912" lat="65.5500305564" lon="13.1650583248">
		<tag k="name" v="Tverråsmyra" />
		<tag k="natural" v="wetland" />
		<tag k="ssr:stedsnr" v="422813" />
	</node>
	<node id="-19006" lat="65.8747250006" lon="13.4371555471">
		<tag k="name" v="Langmyra" />
		<tag k="natural" v="wetland" />
		<tag k="ssr:stedsnr" v="952959" />
	</node>
	<node id="-13749" lat="65.9612694464" lon="13.4013055486">
		<tag k="name" v="Stormyra" />
		<tag k="natural" v="wetland" />
		<tag k="ssr:stedsnr" v="16903" />
	</node>
	<node id="-16955" lat="66.0037194459" lon="13.4959972192">
		<tag k="name" v="Tjønnrabban" />
		<tag k="natural" v="wetland" />
		<tag k="ssr:stedsnr" v="136661" />
	</node>
	<node id="-19001" lat="65.9404638905" lon="13.4391916684">
		<tag k="landuse" v="meadow" />
		<tag k="name" v="Sannerbekkenget" />
		<tag k="ssr:stedsnr" v="952650" />
	</node>
	<node id="-18999" lat="65.9357861116" lon="13.3734166572">
		<tag k="name" v="Brennhaugmyra" />
		<tag k="natural" v="wetland" />
		<tag k="ssr:stedsnr" v="952647" />
	</node>
	<node id="-14901" lat="65.9830611105" lon="13.2774499911">
		<tag k="name" v="Skavremman" />
		<tag k="place" v="locality" />
		<tag k="ssr:stedsnr" v="514899" />
	</node>
	<node id="-18996" lat="65.9545555516" lon="13.403661105">
		<tag k="name" v="Krokmyra" />
		<tag k="natural" v="wetland" />
		<tag k="ssr:stedsnr" v="952835" />
	</node>
	<node id="-18994" lat="65.9503420952" lon="13.1387764503">
		<tag k="name" v="Fagerskogen" />
		<tag k="place" v="locality" />
		<tag k="ssr:stedsnr" v="952352" />
	</node>
	<node id="-14894" lat="65.919647225" lon="13.2733583279">
		<tag k="name" v="Storjota" />
		<tag k="place" v="locality" />
		<tag k="ssr:stedsnr" v="514828" />
	</node>
	<node id="-14892" lat="65.9224555591" lon="13.2546694403">
		<tag k="name" v="Klompmyra" />
		<tag k="natural" v="wetland" />
		<tag k="ssr:stedsnr" v="514825" />
	</node>
	<node id="-14891" lat="65.7893055584" lon="13.2377250029">
		<tag k="name" v="Krakseljorda" />
		<tag k="place" v="locality" />
		<tag k="ssr:stedsnr" v="514823" />
	</node>
	<node id="-18985" lat="65.9297222186" lon="13.250894454">
		<tag k="name" v="Høglimyra" />
		<tag k="natural" v="wetland" />
		<tag k="ssr:stedsnr" v="952095" />
	</node>
	<node id="-16926" lat="66.0490249968" lon="13.3091138785">
		<tag k="name" v="Storsteinen" />
		<tag k="natural" v="stone" />
		<tag k="ssr:stedsnr" v="136395" />
	</node>
	<node id="-14872" lat="65.8519138924" lon="12.6999444551">
		<tag k="name" v="Helvetesmyra" />
		<tag k="natural" v="wetland" />
		<tag k="ssr:stedsnr" v="514585" />
	</node>
	<node id="-18962" lat="65.8932499968" lon="13.4589861091">
		<tag k="name" v="Brekkmyra" />
		<tag k="natural" v="wetland" />
		<tag k="ssr:stedsnr" v="865999" />
	</node>
	<node id="-15789" lat="65.9253805526" lon="12.9478888939">
		<tag k="name" v="Symyra" />
		<tag k="natural" v="wetland" />
		<tag k="ssr:stedsnr" v="891881" />
	</node>
	<node id="-16905" lat="65.7735805568" lon="13.1899166748">
		<tag k="name" v="Tverråengan" />
		<tag k="place" v="locality" />
		<tag k="ssr:stedsnr" v="120587" />
	</node>
	<node id="-16901" lat="66.0305444443" lon="13.3107749992">
		<tag k="name" v="Neslamyra" />
		<tag k="natural" v="wetland" />
		<tag k="ssr:stedsnr" v="119952" />
	</node>
	<node id="-16897" lat="65.6322222202" lon="13.1529305644">
		<tag k="name" v="Momyra" />
		<tag k="natural" v="wetland" />
		<tag k="ssr:stedsnr" v="119729" />
	</node>
	<node id="-14847" lat="65.868022221" lon="13.4093249898">
		<tag k="name" v="Trettmyra" />
		<tag k="natural" v="wetland" />
		<tag k="ssr:stedsnr" v="406964" />
	</node>
	<node id="-16894" lat="65.6800999964" lon="13.1525222299">
		<tag k="landuse" v="meadow" />
		<tag k="name" v="Ytterenget" />
		<tag k="ssr:stedsnr" v="119651" />
	</node>
	<node id="-14843" lat="65.9557861103" lon="13.4047944338">
		<tag k="name" v="Skjetmyra" />
		<tag k="natural" v="wetland" />
		<tag k="ssr:stedsnr" v="406864" />
	</node>
	<node id="-14841" lat="65.9635111141" lon="13.4131361182">
		<tag k="landuse" v="meadow" />
		<tag k="name" v="Røyrremenget" />
		<tag k="ssr:stedsnr" v="406857" />
	</node>
	<node id="-14839" lat="65.9204472243" lon="13.3596916574">
		<tag k="name" v="Formyra" />
		<tag k="natural" v="wetland" />
		<tag k="ssr:stedsnr" v="406758" />
	</node>
	<node id="-14832" lat="65.9302499972" lon="13.2359583353">
		<tag k="name" v="Hestaliura" />
		<tag k="natural" v="scree" />
		<tag k="ssr:stedsnr" v="406074" />
	</node>
	<node id="-14825" lat="66.0407388908" lon="13.4332055591">
		<tag k="name" v="Mor i Mastua" />
		<tag k="natural" v="scree" />
		<tag k="ssr:stedsnr" v="404703" />
	</node>
	<node id="-16866" lat="65.9975972264" lon="13.5973777704">
		<tag k="name" v="Lilleengmyra" />
		<tag k="natural" v="wetland" />
		<tag k="ssr:stedsnr" v="116472" />
	</node>
	<node id="-14816" lat="65.9676611076" lon="13.1847027866">
		<tag k="name" v="Langmyra" />
		<tag k="natural" v="wetland" />
		<tag k="ssr:stedsnr" v="507590" />
	</node>
	<node id="-14815" lat="65.9704194415" lon="13.1965444421">
		<tag k="name" v="Straumsmyra" />
		<tag k="natural" v="wetland" />
		<tag k="ssr:stedsnr" v="507493" />
	</node>
	<node id="-16860" lat="65.9112472176" lon="13.4262777869">
		<tag k="landuse" v="meadow" />
		<tag k="name" v="Engan" />
		<tag k="ssr:stedsnr" v="103860" />
	</node>
	<node id="-17145" lat="65.6350222217" lon="13.1551638841">
		<tag k="name" v="Andamomyra" />
		<tag k="natural" v="wetland" />
		<tag k="ssr:stedsnr" v="180716" />
	</node>
	<node id="-16850" lat="66.0046138863" lon="13.3056138862">
		<tag k="landuse" v="meadow" />
		<tag k="name" v="Tipenget" />
		<tag k="ssr:stedsnr" v="103139" />
	</node>
	<node id="-14801" lat="65.8918999979" lon="13.374663893">
		<tag k="name" v="Ura" />
		<tag k="natural" v="scree" />
		<tag k="ssr:stedsnr" v="393158" />
	</node>
	<node id="-14800" lat="65.8965805573" lon="13.3868722235">
		<tag k="landuse" v="meadow" />
		<tag k="name" v="Austerenget" />
		<tag k="ssr:stedsnr" v="393157" />
	</node>
	<node id="-16847" lat="66.0064972267" lon="13.2844999901">
		<tag k="name" v="Høgåsmyra" />
		<tag k="natural" v="wetland" />
		<tag k="ssr:stedsnr" v="103112" />
	</node>
	<node id="-16842" lat="65.934622218" lon="13.3441444436">
		<tag k="name" v="Åsmyra" />
		<tag k="natural" v="wetland" />
		<tag k="ssr:stedsnr" v="103095" />
	</node>
	<node id="-16841" lat="65.928069443" lon="13.2794472313">
		<tag k="name" v="Kløvmyrenget" />
		<tag k="place" v="locality" />
		<tag k="ssr:stedsnr" v="103084" />
	</node>
	<node id="-14790" lat="66.0899749996" lon="13.4331000012">
		<tag k="name" v="Bukksteinen" />
		<tag k="natural" v="stone" />
		<tag k="ssr:stedsnr" v="393019" />
	</node>
	<node id="-16837" lat="66.0478916663" lon="13.3305361174">
		<tag k="name" v="Rotmyra" />
		<tag k="natural" v="wetland" />
		<tag k="ssr:stedsnr" v="103030" />
	</node>
	<node id="-16836" lat="65.9867805536" lon="13.3250138858">
		<tag k="name" v="Engemyra" />
		<tag k="natural" v="wetland" />
		<tag k="ssr:stedsnr" v="103029" />
	</node>
	<node id="-16834" lat="65.993083334" lon="13.2967722276">
		<tag k="name" v="Dambakkmyra" />
		<tag k="natural" v="wetland" />
		<tag k="ssr:stedsnr" v="103016" />
	</node>
	<node id="-14785" lat="65.9682444428" lon="13.1635472229">
		<tag k="name" v="Åsmyra" />
		<tag k="natural" v="wetland" />
		<tag k="ssr:stedsnr" v="385602" />
	</node>
	<node id="-17405" lat="66.1166277739" lon="13.6204472105">
		<tag k="name" v="Elvmyra" />
		<tag k="natural" v="wetland" />
		<tag k="ssr:stedsnr" v="319433" />
	</node>
	<node id="-17140" lat="65.7490972236" lon="13.2081555567">
		<tag k="name" v="Lillemyra" />
		<tag k="natural" v="wetland" />
		<tag k="ssr:stedsnr" v="180595" />
	</node>
	<node id="-14774" lat="65.9400166634" lon="13.2990722112">
		<tag k="alt_name" v="Fjellmyrån" />
		<tag k="name" v="Fjellmyran" />
		<tag k="natural" v="wetland" />
		<tag k="ssr:stedsnr" v="501919" />
	</node>
	<node id="-16817" lat="65.7706083363" lon="13.2885972119">
		<tag k="landuse" v="meadow" />
		<tag k="name" v="Storenget" />
		<tag k="ssr:stedsnr" v="102284" />
	</node>
	<node id="-18863" lat="65.6406638934" lon="13.1007722128">
		<tag k="name" v="Hestmyra" />
		<tag k="natural" v="wetland" />
		<tag k="ssr:stedsnr" v="848743" />
	</node>
	<node id="-16813" lat="65.7132805545" lon="13.2563638912">
		<tag k="name" v="Vardfjellmyra" />
		<tag k="natural" v="wetland" />
		<tag k="ssr:stedsnr" v="102233" />
	</node>
	<node id="-16455" lat="66.0226194463" lon="13.4686555529">
		<tag k="landuse" v="meadow" />
		<tag k="name" v="Enget" />
		<tag k="ssr:stedsnr" v="29132" />
	</node>
	<node id="-14760" lat="65.9102916646" lon="12.952850005">
		<tag k="name" v="Marka" />
		<tag k="place" v="locality" />
		<tag k="ssr:stedsnr" v="501201" />
	</node>
	<node id="-18851" lat="65.7301527751" lon="13.1802222133">
		<tag k="name" v="Lilleenget" />
		<tag k="place" v="locality" />
		<tag k="ssr:stedsnr" v="848639" />
	</node>
	<node id="-16802" lat="65.8529833328" lon="13.5802694423">
		<tag k="name" v="Kartmyra" />
		<tag k="natural" v="wetland" />
		<tag k="ssr:stedsnr" v="101455" />
	</node>
	<node id="-16799" lat="65.8430166649" lon="13.5180888936">
		<tag k="name" v="Gørmyra" />
		<tag k="natural" v="wetland" />
		<tag k="ssr:stedsnr" v="101408" />
	</node>
	<node id="-16794" lat="65.8060555523" lon="13.4887194419">
		<tag k="landuse" v="meadow" />
		<tag k="name" v="Nerlienget" />
		<tag k="ssr:stedsnr" v="100972" />
	</node>
	<node id="-16791" lat="66.1663333363" lon="13.5383972121">
		<tag k="name" v="Tortenlimyran" />
		<tag k="natural" v="wetland" />
		<tag k="ssr:stedsnr" v="100145" />
	</node>
	<node id="-16784" lat="66.1152777776" lon="13.5289083299">
		<tag k="name" v="Sandbakkshøvan" />
		<tag k="place" v="locality" />
		<tag k="ssr:stedsnr" v="92111" />
	</node>
	<node id="-16781" lat="65.9879833322" lon="13.2303722324">
		<tag k="name" v="Haugberget" />
		<tag k="place" v="locality" />
		<tag k="ssr:stedsnr" v="90991" />
	</node>
	<node id="-16779" lat="65.7617222265" lon="13.2726138876">
		<tag k="name" v="Aspremma" />
		<tag k="place" v="locality" />
		<tag k="ssr:stedsnr" v="90946" />
	</node>
	<node id="-14729" lat="66.1011277799" lon="13.5804916611">
		<tag k="name" v="Samuel-Hansamyra" />
		<tag k="natural" v="wetland" />
		<tag k="ssr:stedsnr" v="500352" />
	</node>
	<node id="-16772" lat="65.9058500012" lon="13.227119436">
		<tag k="name" v="Rundtjønnmyra" />
		<tag k="natural" v="wetland" />
		<tag k="ssr:stedsnr" v="90842" />
	</node>
	<node id="-16770" lat="65.794236112" lon="13.2370027702">
		<tag k="name" v="Hevlan" />
		<tag k="place" v="locality" />
		<tag k="ssr:stedsnr" v="90824" />
	</node>
	<node id="-16768" lat="65.9187583311" lon="13.2932472117">
		<tag k="name" v="Pålemyra" />
		<tag k="natural" v="wetland" />
		<tag k="ssr:stedsnr" v="90749" />
	</node>
	<node id="-18813" lat="65.8719027773" lon="13.0916277861">
		<tag k="name" v="Høgskogen" />
		<tag k="place" v="locality" />
		<tag k="ssr:stedsnr" v="845522" />
	</node>
	<node id="-14715" lat="65.9301999985" lon="12.8287666588">
		<tag k="name" v="Sørneshestmarka" />
		<tag k="place" v="locality" />
		<tag k="ssr:stedsnr" v="500151" />
	</node>
	<node id="-14711" lat="65.6947277812" lon="13.2149888878">
		<tag k="name" v="Eiteråengan" />
		<tag k="place" v="locality" />
		<tag k="ssr:stedsnr" v="362709" />
	</node>
	<node id="-14710" lat="65.6932416645" lon="13.163888884">
		<tag k="name" v="Steinlimyra" />
		<tag k="natural" v="wetland" />
		<tag k="ssr:stedsnr" v="362705" />
	</node>
	<node id="-18805" lat="66.1285638915" lon="13.6512055639">
		<tag k="name" v="Geitkløvmyra" />
		<tag k="natural" v="wetland" />
		<tag k="ssr:stedsnr" v="845047" />
	</node>
	<node id="-14707" lat="65.719436107" lon="13.1983944429">
		<tag k="name" v="Stormyra" />
		<tag k="natural" v="wetland" />
		<tag k="ssr:stedsnr" v="362627" />
	</node>
	<node id="-16750" lat="65.8349694479" lon="13.2297916575">
		<tag k="name" v="Hammarheim" />
		<tag k="place" v="locality" />
		<tag k="ssr:stedsnr" v="90199" />
	</node>
	<node id="-18794" lat="66.1296388891" lon="13.524983338">
		<tag k="name" v="Rundtjønnmyra" />
		<tag k="natural" v="wetland" />
		<tag k="ssr:stedsnr" v="845334" />
	</node>
	<node id="-14693" lat="66.1222222205" lon="13.6348249947">
		<tag k="name" v="Fagerjorda" />
		<tag k="place" v="locality" />
		<tag k="ssr:stedsnr" v="359367" />
	</node>
	<node id="-18784" lat="65.9591944409" lon="13.4002250062">
		<tag k="name" v="Larsmyra" />
		<tag k="natural" v="wetland" />
		<tag k="ssr:stedsnr" v="831813" />
	</node>
	<node id="-18783" lat="65.9573388923" lon="13.4090972275">
		<tag k="name" v="Haugmyra" />
		<tag k="natural" v="wetland" />
		<tag k="ssr:stedsnr" v="831811" />
	</node>
	<node id="-14686" lat="65.8596027818" lon="13.4300527873">
		<tag k="name" v="Lagranskogan" />
		<tag k="place" v="locality" />
		<tag k="ssr:stedsnr" v="345769" />
	</node>
	<node id="-14684" lat="65.8456333319" lon="13.4539972189">
		<tag k="name" v="Grønmyrån" />
		<tag k="natural" v="wetland" />
		<tag k="ssr:stedsnr" v="345759" />
	</node>
	<node id="-17466" lat="65.8468722211" lon="13.3413027836">
		<tag k="name" v="Vardkjerringan" />
		<tag k="natural" v="stone" />
		<tag k="ssr:stedsnr" v="332579" />
	</node>
	<node id="-14681" lat="65.7603694411" lon="13.3220499973">
		<tag k="name" v="Stormyra" />
		<tag k="natural" v="wetland" />
		<tag k="ssr:stedsnr" v="345258" />
	</node>
	<node id="-15210" lat="65.941702776" lon="13.0921111015">
		<tag k="name" v="Brennmyra" />
		<tag k="natural" v="wetland" />
		<tag k="ssr:stedsnr" v="689560" />
	</node>
	<node id="-16727" lat="65.9641333339" lon="13.201611105">
		<tag k="landuse" v="meadow" />
		<tag k="name" v="Permannenget" />
		<tag k="ssr:stedsnr" v="89333" />
	</node>
	<node id="-18767" lat="65.7301805579" lon="13.2191722322">
		<tag k="landuse" v="meadow" />
		<tag k="name" v="Forsjordengan" />
		<tag k="ssr:stedsnr" v="831209" />
	</node>
	<node id="-14670" lat="65.7059305514" lon="13.2014250019">
		<tag k="name" v="Skardsmyra" />
		<tag k="natural" v="wetland" />
		<tag k="ssr:stedsnr" v="483696" />
	</node>
	<node id="-14669" lat="65.7513416695" lon="13.1569444364">
		<tag k="name" v="Gammelgardsmyra" />
		<tag k="natural" v="wetland" />
		<tag k="ssr:stedsnr" v="483679" />
	</node>
	<node id="-16714" lat="65.940216664" lon="13.1457305554">
		<tag k="name" v="Skjellarmyra" />
		<tag k="natural" v="wetland" />
		<tag k="ssr:stedsnr" v="82580" />
	</node>
	<node id="-16713" lat="65.8526638864" lon="13.2317861038">
		<tag k="name" v="Høgåsmyra" />
		<tag k="natural" v="wetland" />
		<tag k="ssr:stedsnr" v="82496" />
	</node>
	<node id="-18756" lat="65.9283194457" lon="13.2955416702">
		<tag k="name" v="Lille-Høglimyra" />
		<tag k="natural" v="wetland" />
		<tag k="ssr:stedsnr" v="831098" />
	</node>
	<node id="-18754" lat="65.9340305558" lon="13.2447527792">
		<tag k="name" v="Smalmomyra" />
		<tag k="natural" v="wetland" />
		<tag k="ssr:stedsnr" v="831086" />
	</node>
	<node id="-18751" lat="66.0221583296" lon="13.2851916719">
		<tag k="name" v="Stormyra" />
		<tag k="natural" v="wetland" />
		<tag k="ssr:stedsnr" v="831059" />
	</node>
	<node id="-16437" lat="65.9740583299" lon="13.175944439">
		<tag k="name" v="Flågmyra" />
		<tag k="natural" v="wetland" />
		<tag k="ssr:stedsnr" v="22498" />
	</node>
	<node id="-16700" lat="65.8742333291" lon="13.2275666751">
		<tag k="name" v="Skåsmyra" />
		<tag k="natural" v="wetland" />
		<tag k="ssr:stedsnr" v="76937" />
	</node>
	<node id="-14650" lat="65.9266694459" lon="12.7270361015">
		<tag k="name" v="Storenget" />
		<tag k="place" v="locality" />
		<tag k="ssr:stedsnr" v="336573" />
	</node>
	<node id="-14645" lat="66.0863722225" lon="13.4425527866">
		<tag k="name" v="Lillemyra" />
		<tag k="natural" v="wetland" />
		<tag k="ssr:stedsnr" v="333026" />
	</node>
	<node id="-18732" lat="66.0483611112" lon="13.4522777706">
		<tag k="name" v="Langmyra" />
		<tag k="natural" v="wetland" />
		<tag k="ssr:stedsnr" v="829713" />
	</node>
	<node id="-18728" lat="65.9857333372" lon="13.4792000038">
		<tag k="name" v="Kilmyrån" />
		<tag k="natural" v="wetland" />
		<tag k="ssr:stedsnr" v="829702" />
	</node>
	<node id="-18726" lat="65.9988083331" lon="13.4459166641">
		<tag k="name" v="Stormyra" />
		<tag k="natural" v="wetland" />
		<tag k="ssr:stedsnr" v="829671" />
	</node>
	<node id="-18723" lat="66.0161416649" lon="13.4138333284">
		<tag k="name" v="Fjellmyrån" />
		<tag k="natural" v="wetland" />
		<tag k="ssr:stedsnr" v="829537" />
	</node>
	<node id="-14622" lat="66.0891638917" lon="13.5821972285">
		<tag k="name" v="Nerdalsura" />
		<tag k="natural" v="scree" />
		<tag k="ssr:stedsnr" v="480258" />
	</node>
	<node id="-14621" lat="66.0727888923" lon="13.5380472298">
		<tag k="landuse" v="meadow" />
		<tag k="name" v="Billenget" />
		<tag k="ssr:stedsnr" v="480250" />
	</node>
	<node id="-14620" lat="66.0686638849" lon="13.5250472316">
		<tag k="name" v="Jakobmyra" />
		<tag k="natural" v="wetland" />
		<tag k="ssr:stedsnr" v="480247" />
	</node>
	<node id="-18138" lat="65.9581361095" lon="12.8350888919">
		<tag k="landuse" v="meadow" />
		<tag k="name" v="Fjellengan" />
		<tag k="ssr:stedsnr" v="621091" />
	</node>
	<node id="-18700" lat="65.9429472232" lon="13.2105416637">
		<tag k="name" v="Brattbakkmyrån" />
		<tag k="natural" v="wetland" />
		<tag k="ssr:stedsnr" v="818752" />
	</node>
	<node id="-16717" lat="65.7876444488" lon="13.1963944456">
		<tag k="name" v="Svartmyra" />
		<tag k="natural" v="wetland" />
		<tag k="ssr:stedsnr" v="82594" />
	</node>
	<node id="-18698" lat="66.0438250012" lon="13.5047472326">
		<tag k="landuse" v="meadow" />
		<tag k="name" v="Øverenget" />
		<tag k="ssr:stedsnr" v="818742" />
	</node>
	<node id="-16087" lat="65.8971166636" lon="12.8709194331">
		<tag k="name" v="Grønvollen" />
		<tag k="place" v="locality" />
		<tag k="ssr:stedsnr" v="804241" />
	</node>
	<node id="-14599" lat="65.627430552" lon="13.1678472235">
		<tag k="name" v="Kjerrmyra" />
		<tag k="natural" v="wetland" />
		<tag k="ssr:stedsnr" v="301712" />
	</node>
	<node id="-18694" lat="65.9881027821" lon="13.2173500033">
		<tag k="name" v="Vardmyra" />
		<tag k="natural" v="wetland" />
		<tag k="ssr:stedsnr" v="818994" />
	</node>
	<node id="-14595" lat="65.9034500009" lon="12.9057472243">
		<tag k="name" v="Haugmyra" />
		<tag k="natural" v="wetland" />
		<tag k="ssr:stedsnr" v="300920" />
	</node>
	<node id="-14593" lat="65.8951916653" lon="12.9117333289">
		<tag k="landuse" v="meadow" />
		<tag k="name" v="Grandalsenget" />
		<tag k="ssr:stedsnr" v="300902" />
	</node>
	<node id="-14592" lat="65.5875083325" lon="13.1641499905">
		<tag k="name" v="Øversetermyra" />
		<tag k="natural" v="wetland" />
		<tag k="ssr:stedsnr" v="300772" />
	</node>
	<node id="-14590" lat="65.8773222243" lon="12.7451194346">
		<tag k="name" v="Hagmyra" />
		<tag k="natural" v="wetland" />
		<tag k="ssr:stedsnr" v="300217" />
	</node>
	<node id="-18683" lat="66.0375999993" lon="13.531700008">
		<tag k="landuse" v="meadow" />
		<tag k="name" v="Turahaugenget" />
		<tag k="ssr:stedsnr" v="818140" />
	</node>
	<node id="-18680" lat="65.8840166684" lon="13.4314805497">
		<tag k="name" v="Myrbakkmyra" />
		<tag k="natural" v="wetland" />
		<tag k="ssr:stedsnr" v="818181" />
	</node>
	<node id="-18678" lat="66.0876277769" lon="13.4352777856">
		<tag k="name" v="Lillefjellmyra" />
		<tag k="natural" v="wetland" />
		<tag k="ssr:stedsnr" v="818029" />
	</node>
	<node id="-14574" lat="65.9325916659" lon="13.338822219">
		<tag k="name" v="Limyra" />
		<tag k="natural" v="wetland" />
		<tag k="ssr:stedsnr" v="466097" />
	</node>
	<node id="-18669" lat="65.8887666644" lon="13.1686083253">
		<tag k="name" v="Brynnelmyra" />
		<tag k="natural" v="wetland" />
		<tag k="ssr:stedsnr" v="810593" />
	</node>
	<node id="-14571" lat="65.7938972231" lon="13.326841674">
		<tag k="landuse" v="meadow" />
		<tag k="name" v="Høystakkenget" />
		<tag k="ssr:stedsnr" v="466244" />
	</node>
	<node id="-14568" lat="65.8165888912" lon="13.3480388817">
		<tag k="landuse" v="meadow" />
		<tag k="name" v="Trøenget" />
		<tag k="ssr:stedsnr" v="466133" />
	</node>
	<node id="-16614" lat="65.8856000036" lon="13.131202768">
		<tag k="name" v="Svenskurda" />
		<tag k="natural" v="scree" />
		<tag k="ssr:stedsnr" v="76262" />
	</node>
	<node id="-14564" lat="65.9950249995" lon="13.4670583337">
		<tag k="name" v="Limyrån" />
		<tag k="natural" v="wetland" />
		<tag k="ssr:stedsnr" v="465659" />
	</node>
	<node id="-18811" lat="66.0751138918" lon="13.5611000081">
		<tag k="name" v="Sirimyra" />
		<tag k="natural" v="wetland" />
		<tag k="ssr:stedsnr" v="845289" />
	</node>
	<node id="-14559" lat="66.1091305584" lon="13.5928805666">
		<tag k="name" v="Gråtarmyra" />
		<tag k="natural" v="wetland" />
		<tag k="ssr:stedsnr" v="465131" />
	</node>
	<node id="-16599" lat="66.0591333345" lon="13.3379722314">
		<tag k="name" v="Svartdalsmyra" />
		<tag k="natural" v="wetland" />
		<tag k="ssr:stedsnr" v="59914" />
	</node>
	<node id="-14549" lat="65.9147888855" lon="13.4349555531">
		<tag k="name" v="Hauglamyran" />
		<tag k="natural" v="wetland" />
		<tag k="ssr:stedsnr" v="285856" />
	</node>
	<node id="-18636" lat="65.6061111076" lon="13.1573249972">
		<tag k="name" v="Almlimyra" />
		<tag k="natural" v="wetland" />
		<tag k="ssr:stedsnr" v="804688" />
	</node>
	<node id="-16586" lat="65.6864611113" lon="13.1495638932">
		<tag k="landuse" v="meadow" />
		<tag k="name" v="Øverenget" />
		<tag k="ssr:stedsnr" v="59637" />
	</node>
	<node id="-16583" lat="65.7691777745" lon="13.2085750077">
		<tag k="name" v="Stormyra" />
		<tag k="natural" v="wetland" />
		<tag k="ssr:stedsnr" v="59597" />
	</node>
	<node id="-14532" lat="65.9028972179" lon="13.1997722261">
		<tag k="name" v="Einremman" />
		<tag k="place" v="locality" />
		<tag k="ssr:stedsnr" v="272421" />
	</node>
	<node id="-16758" lat="65.8800305519" lon="13.2353277841">
		<tag k="name" v="Langmyra" />
		<tag k="natural" v="wetland" />
		<tag k="ssr:stedsnr" v="90491" />
	</node>
	<node id="-14530" lat="65.8654111132" lon="13.2580111157">
		<tag k="landuse" v="meadow" />
		<tag k="name" v="Skjåenget" />
		<tag k="ssr:stedsnr" v="272258" />
	</node>
	<node id="-14527" lat="66.0542805569" lon="13.5419166615">
		<tag k="name" v="Kul-Erikmyra" />
		<tag k="natural" v="wetland" />
		<tag k="ssr:stedsnr" v="272161" />
	</node>
	<node id="-16573" lat="65.5941916655" lon="13.1587750002">
		<tag k="name" v="Bjønnmyra" />
		<tag k="natural" v="wetland" />
		<tag k="ssr:stedsnr" v="58789" />
	</node>
	<node id="-14518" lat="65.8080000036" lon="13.1883972229">
		<tag k="name" v="Svartåenget" />
		<tag k="place" v="locality" />
		<tag k="ssr:stedsnr" v="271253" />
	</node>
	<node id="-14515" lat="65.6873888879" lon="13.2852388788">
		<tag k="name" v="Pelymyra" />
		<tag k="natural" v="wetland" />
		<tag k="ssr:stedsnr" v="458003" />
	</node>
	<node id="-14513" lat="65.8658805554" lon="13.2123583251">
		<tag k="name" v="Finnbrauta" />
		<tag k="place" v="locality" />
		<tag k="ssr:stedsnr" v="457155" />
	</node>
	<node id="-14511" lat="66.1077916703" lon="13.5248861127">
		<tag k="landuse" v="meadow" />
		<tag k="name" v="Bakkenget" />
		<tag k="ssr:stedsnr" v="456005" />
	</node>
	<node id="-14509" lat="65.9719361071" lon="13.2292777846">
		<tag k="landuse" v="meadow" />
		<tag k="name" v="Leirveggenget" />
		<tag k="ssr:stedsnr" v="454938" />
	</node>
	<node id="-14508" lat="65.9765611096" lon="13.242916657">
		<tag k="landuse" v="meadow" />
		<tag k="name" v="Øverenget" />
		<tag k="ssr:stedsnr" v="454932" />
	</node>
	<node id="-14506" lat="65.8091305525" lon="13.2761749993">
		<tag k="name" v="Saulegret" />
		<tag k="place" v="locality" />
		<tag k="ssr:stedsnr" v="454924" />
	</node>
	<node id="-14500" lat="65.9118194418" lon="13.2811027829">
		<tag k="name" v="Åsmyra" />
		<tag k="natural" v="wetland" />
		<tag k="ssr:stedsnr" v="454870" />
	</node>
	<node id="-14498" lat="65.921583335" lon="13.3324027817">
		<tag k="name" v="Hjartremskogan" />
		<tag k="place" v="locality" />
		<tag k="ssr:stedsnr" v="454713" />
	</node>
	<node id="-18591" lat="65.8662444438" lon="13.2508111155">
		<tag k="name" v="Finnmyra" />
		<tag k="natural" v="wetland" />
		<tag k="ssr:stedsnr" v="804941" />
	</node>
	<node id="-16540" lat="66.1043888924" lon="13.6726916567">
		<tag k="name" v="Rautindmyra" />
		<tag k="natural" v="wetland" />
		<tag k="ssr:stedsnr" v="58112" />
	</node>
	<node id="-14489" lat="65.9118694463" lon="13.3123916585">
		<tag k="name" v="Revremma" />
		<tag k="place" v="locality" />
		<tag k="ssr:stedsnr" v="454775" />
	</node>
	<node id="-14486" lat="65.8959583375" lon="13.4763388844">
		<tag k="name" v="Slåttan" />
		<tag k="place" v="locality" />
		<tag k="ssr:stedsnr" v="454369" />
	</node>
	<node id="-14475" lat="66.0944138926" lon="13.46983333">
		<tag k="name" v="Brattbakkenget" />
		<tag k="place" v="locality" />
		<tag k="ssr:stedsnr" v="454229" />
	</node>
	<node id="-16520" lat="65.9934527773" lon="13.3513472138">
		<tag k="name" v="Tjønnmyra" />
		<tag k="natural" v="wetland" />
		<tag k="ssr:stedsnr" v="42021" />
	</node>
	<node id="-13712" lat="65.8364999984" lon="13.3761472117">
		<tag k="name" v="Tuvmyra" />
		<tag k="natural" v="wetland" />
		<tag k="ssr:stedsnr" v="222895" />
	</node>
	<node id="-18562" lat="66.1219916697" lon="13.6180305532">
		<tag k="name" v="Frostmyra" />
		<tag k="natural" v="wetland" />
		<tag k="ssr:stedsnr" v="784397" />
	</node>
	<node id="-14465" lat="65.9983444415" lon="13.4952416553">
		<tag k="alt_name" v="Kammyrån" />
		<tag k="name" v="Kammyran" />
		<tag k="natural" v="wetland" />
		<tag k="ssr:stedsnr" v="258873" />
	</node>
	<node id="-14464" lat="65.9953444432" lon="13.4910555538">
		<tag k="name" v="Stormyra" />
		<tag k="natural" v="wetland" />
		<tag k="ssr:stedsnr" v="258870" />
	</node>
	<node id="-18558" lat="66.1241583368" lon="13.5076083414">
		<tag k="name" v="Litlmyra" />
		<tag k="natural" v="wetland" />
		<tag k="ssr:stedsnr" v="784357" />
	</node>
	<node id="-18553" lat="66.042241667" lon="13.5998194387">
		<tag k="name" v="Hellsteinura" />
		<tag k="natural" v="scree" />
		<tag k="ssr:stedsnr" v="784292" />
	</node>
	<node id="-16495" lat="66.1125222212" lon="13.5011166587">
		<tag k="name" v="Homlamyra" />
		<tag k="natural" v="wetland" />
		<tag k="ssr:stedsnr" v="31009" />
	</node>
	<node id="-18539" lat="65.8600555574" lon="13.3973027807">
		<tag k="landuse" v="meadow" />
		<tag k="name" v="Tullkjerrenget" />
		<tag k="ssr:stedsnr" v="770790" />
	</node>
	<node id="-16486" lat="65.9825888849" lon="13.2377361183">
		<tag k="name" v="Seljeremma" />
		<tag k="place" v="locality" />
		<tag k="ssr:stedsnr" v="29895" />
	</node>
	<node id="-16484" lat="65.9180472211" lon="13.2184722165">
		<tag k="name" v="Krokmyra" />
		<tag k="natural" v="wetland" />
		<tag k="ssr:stedsnr" v="29850" />
	</node>
	<node id="-14430" lat="66.0800805574" lon="13.4293194389">
		<tag k="name" v="Lomtjønnmyra" />
		<tag k="natural" v="wetland" />
		<tag k="ssr:stedsnr" v="258311" />
	</node>
	<node id="-18524" lat="65.7272750003" lon="13.3148638813">
		<tag k="name" v="Stormyra" />
		<tag k="natural" v="wetland" />
		<tag k="ssr:stedsnr" v="770209" />
	</node>
	<node id="-16474" lat="66.0413888883" lon="13.5086500086">
		<tag k="name" v="Skjåmyra" />
		<tag k="natural" v="wetland" />
		<tag k="ssr:stedsnr" v="29737" />
	</node>
	<node id="-14421" lat="65.8968777787" lon="13.3773805666">
		<tag k="name" v="Stormyra" />
		<tag k="natural" v="wetland" />
		<tag k="ssr:stedsnr" v="257973" />
	</node>
	<node id="-14419" lat="65.7398583347" lon="13.2241972253">
		<tag k="name" v="Risøra" />
		<tag k="place" v="locality" />
		<tag k="ssr:stedsnr" v="453699" />
	</node>
	<node id="-18513" lat="65.7388499987" lon="13.3017833424">
		<tag k="name" v="Forholten" />
		<tag k="place" v="locality" />
		<tag k="ssr:stedsnr" v="770285" />
	</node>
	<node id="-16464" lat="65.940669447" lon="13.1148444394">
		<tag k="name" v="Fløta" />
		<tag k="place" v="locality" />
		<tag k="ssr:stedsnr" v="29531" />
	</node>
	<node id="-16463" lat="65.8820694488" lon="13.2327333298">
		<tag k="name" v="Åsnevet" />
		<tag k="place" v="locality" />
		<tag k="ssr:stedsnr" v="29525" />
	</node>
	<node id="-18508" lat="65.9952638911" lon="13.3237083358">
		<tag k="name" v="Gardsmyra" />
		<tag k="natural" v="wetland" />
		<tag k="ssr:stedsnr" v="770011" />
	</node>
	<node id="-18506" lat="65.9277749964" lon="13.3275749896">
		<tag k="landuse" v="meadow" />
		<tag k="name" v="Åsenget" />
		<tag k="ssr:stedsnr" v="770093" />
	</node>
	<node id="-18503" lat="65.8053638932" lon="13.4879305504">
		<tag k="landuse" v="meadow" />
		<tag k="name" v="Svahyttenget" />
		<tag k="ssr:stedsnr" v="768973" />
	</node>
	<node id="-16453" lat="66.082527775" lon="13.4428749908">
		<tag k="name" v="Pepplamyra" />
		<tag k="natural" v="wetland" />
		<tag k="ssr:stedsnr" v="29021" />
	</node>
	<node id="-18500" lat="65.9911472257" lon="13.3623138962">
		<tag k="name" v="Stormyra" />
		<tag k="natural" v="wetland" />
		<tag k="ssr:stedsnr" v="768642" />
	</node>
	<node id="-14403" lat="65.6251111146" lon="13.1505444361">
		<tag k="landuse" v="meadow" />
		<tag k="name" v="Kjerringrokkenget" />
		<tag k="ssr:stedsnr" v="241708" />
	</node>
	<node id="-18498" lat="65.9868750037" lon="13.4658277773">
		<tag k="name" v="Forsmyrån" />
		<tag k="natural" v="wetland" />
		<tag k="ssr:stedsnr" v="768773" />
	</node>
	<node id="-15371" lat="65.85139167" lon="13.5973805575">
		<tag k="name" v="Storskogan" />
		<tag k="place" v="locality" />
		<tag k="ssr:stedsnr" v="708480" />
	</node>
	<node id="-14397" lat="65.8496416671" lon="13.2205666589">
		<tag k="name" v="Røyråsmyra" />
		<tag k="natural" v="wetland" />
		<tag k="ssr:stedsnr" v="446495" />
	</node>
	<node id="-18490" lat="65.8331638854" lon="13.5068777879">
		<tag k="name" v="Stormyra" />
		<tag k="natural" v="wetland" />
		<tag k="ssr:stedsnr" v="768334" />
	</node>
	<node id="-16441" lat="65.9874083365" lon="13.2147972139">
		<tag k="name" v="Vardmyra" />
		<tag k="natural" v="wetland" />
		<tag k="ssr:stedsnr" v="22598" />
	</node>
	<node id="-16440" lat="65.9135111126" lon="13.2128916757">
		<tag k="name" v="Skardmyra" />
		<tag k="natural" v="wetland" />
		<tag k="ssr:stedsnr" v="22595" />
	</node>
	<node id="-16439" lat="65.7925583295" lon="13.192261113">
		<tag k="name" v="Åsmyra" />
		<tag k="natural" v="wetland" />
		<tag k="ssr:stedsnr" v="22569" />
	</node>
	<node id="-16438" lat="65.7814277813" lon="13.2046722321">
		<tag k="name" v="Langmyra" />
		<tag k="natural" v="wetland" />
		<tag k="ssr:stedsnr" v="22568" />
	</node>
	<node id="-14389" lat="65.9985527796" lon="13.4805527788">
		<tag k="name" v="Totjønnmyra" />
		<tag k="natural" v="wetland" />
		<tag k="ssr:stedsnr" v="222717" />
	</node>
	<node id="-17075" lat="65.9915249979" lon="13.4669361197">
		<tag k="name" v="Slettmyra" />
		<tag k="natural" v="wetland" />
		<tag k="ssr:stedsnr" v="161633" />
	</node>
	<node id="-14383" lat="66.0258166666" lon="13.6701222303">
		<tag k="name" v="Marka" />
		<tag k="place" v="locality" />
		<tag k="ssr:stedsnr" v="221167" />
	</node>
	<node id="-18476" lat="65.7917166634" lon="13.2726888943">
		<tag k="name" v="Brennån" />
		<tag k="place" v="locality" />
		<tag k="ssr:stedsnr" v="757820" />
	</node>
	<node id="-14683" lat="65.8447055565" lon="13.4742694523">
		<tag k="name" v="Langdalen" />
		<tag k="natural" v="wetland" />
		<tag k="ssr:stedsnr" v="345755" />
	</node>
	<node id="-18464" lat="65.8554944466" lon="12.6984833272">
		<tag k="name" v="Tofta" />
		<tag k="place" v="locality" />
		<tag k="ssr:stedsnr" v="757542" />
	</node>
	<node id="-18459" lat="65.8934250035" lon="13.1773416594">
		<tag k="name" v="Tuvurda" />
		<tag k="natural" v="scree" />
		<tag k="ssr:stedsnr" v="757423" />
	</node>
	<node id="-18458" lat="65.8988583313" lon="13.2111166723">
		<tag k="name" v="Dyrklubben" />
		<tag k="place" v="locality" />
		<tag k="ssr:stedsnr" v="757391" />
	</node>
	<node id="-18455" lat="66.028802778" lon="13.4467861115">
		<tag k="name" v="Nordmarkmyra" />
		<tag k="natural" v="wetland" />
		<tag k="ssr:stedsnr" v="757241" />
	</node>
	<node id="-18454" lat="66.0988555545" lon="13.4917055578">
		<tag k="name" v="Sjømyra" />
		<tag k="natural" v="wetland" />
		<tag k="ssr:stedsnr" v="757239" />
	</node>
	<node id="-14357" lat="65.7093861068" lon="13.31796944">
		<tag k="alt_name" v="Fokkmyrån" />
		<tag k="name" v="Fokkmyran" />
		<tag k="natural" v="wetland" />
		<tag k="ssr:stedsnr" v="440728" />
	</node>
	<node id="-16404" lat="65.9852305599" lon="13.2402444488">
		<tag k="name" v="Krokmyra" />
		<tag k="natural" v="wetland" />
		<tag k="ssr:stedsnr" v="15844" />
	</node>
	<node id="-18451" lat="66.0946249995" lon="13.4891500015">
		<tag k="name" v="Svarttjønnlimyra" />
		<tag k="natural" v="wetland" />
		<tag k="ssr:stedsnr" v="757220" />
	</node>
	<node id="-14349" lat="66.0024138855" lon="13.3128138844">
		<tag k="name" v="Engemyra" />
		<tag k="natural" v="wetland" />
		<tag k="ssr:stedsnr" v="440620" />
	</node>
	<node id="-14345" lat="65.8042916627" lon="13.5419916599">
		<tag k="name" v="Herringbotnmyra" />
		<tag k="natural" v="wetland" />
		<tag k="ssr:stedsnr" v="440604" />
	</node>
	<node id="-18435" lat="65.9816027797" lon="13.2016444542">
		<tag k="name" v="Ettermarka" />
		<tag k="place" v="locality" />
		<tag k="ssr:stedsnr" v="756598" />
	</node>
</osm>
