<?xml version="1.0" encoding="UTF-8"?>
<osm generator="osmapis" version="0.6">
	<node id="-20863" lat="65.7043805579" lon="13.2400777741">
		<tag k="name" v="Eiterstraum stasjon" />
		<tag k="railway" v="station" />
		<tag k="ssr:stedsnr" v="847297" />
		<tag k="train" v="yes" />
	</node>
	<node id="-18935" lat="65.7300833377" lon="13.1840638877">
		<tag k="ford" v="yes" />
		<tag k="name" v="Lilleengvadet" />
		<tag k="place" v="locality" />
		<tag k="ssr:stedsnr" v="119642" />
	</node>
	<node id="-19315" lat="65.7486916671" lon="13.2604416596">
		<tag k="highway" v="path" />
		<tag k="name" v="Magnelstia" />
		<tag k="ssr:stedsnr" v="210700" />
	</node>
	<node id="-16751" lat="65.8335833335" lon="13.2073111115">
		<tag k="landuse" v="industrial" />
		<tag k="name" v="Helgeland Kraftlag" />
		<tag k="power" v="plant" />
		<tag k="ssr:stedsnr" v="362575" />
	</node>
	<node id="-20579" lat="65.9273888914" lon="13.3642361101">
		<tag k="highway" v="path" />
		<tag k="name" v="Almdalsvegen" />
		<tag k="ssr:stedsnr" v="770645" />
	</node>
	<node id="-18780" lat="66.0828722219" lon="13.4294000016">
		<tag k="highway" v="path" />
		<tag k="name" v="Stien" />
		<tag k="ssr:stedsnr" v="90032" />
	</node>
	<node id="-16206" lat="65.925397222" lon="12.9580416676">
		<tag k="amenity" v="ferry_terminal" />
		<tag k="name" v="Hundåla ferjeleie" />
		<tag k="ssr:stedsnr" v="284890" />
	</node>
	<node id="-17484" lat="66.0404250004" lon="13.3482194426">
		<tag k="highway" v="path" />
		<tag k="name" v="Vassvegen" />
		<tag k="ssr:stedsnr" v="588065" />
	</node>
	<node id="-18378" lat="66.10174167" lon="13.6622333281">
		<tag k="ford" v="yes" />
		<tag k="name" v="Jordbrua" />
		<tag k="place" v="locality" />
		<tag k="ssr:stedsnr" v="968105" />
	</node>
	<node id="-18759" lat="65.7838416699" lon="13.215725009">
		<tag k="aeroway" v="aerodrome" />
		<tag k="alt_name" v="Kjærstad" />
		<tag k="name" v="Mosjøen lufthavn, Kjærstad" />
		<tag k="old_name" v="Mosjøen Lufthavn" />
		<tag k="ssr:stedsnr" v="82590" />
	</node>
	<node id="-16452" lat="65.6940305554" lon="13.187116662">
		<tag k="highway" v="path" />
		<tag k="name" v="Bjørnstia" />
		<tag k="ssr:stedsnr" v="241671" />
	</node>
	<node id="-18624" lat="65.7619500031" lon="13.1748583417">
		<tag k="ford" v="yes" />
		<tag k="name" v="Hopengvadet" />
		<tag k="place" v="locality" />
		<tag k="ssr:stedsnr" v="59545" />
	</node>
	<node id="-18999" lat="66.0182916668" lon="13.6255250062">
		<tag k="fixme" v="verify maritime location" />
		<tag k="mooring" v="yes" />
		<tag k="name" v="Nausttofta" />
		<tag k="place" v="locality" />
		<tag k="ssr:stedsnr" v="136672" />
	</node>
	<node id="-20789" lat="65.9937638916" lon="13.3219777767">
		<tag k="ford" v="yes" />
		<tag k="name" v="Jordbrua" />
		<tag k="place" v="locality" />
		<tag k="ssr:stedsnr" v="831016" />
	</node>
	<node id="-16177" lat="65.8538416628" lon="13.5789083337">
		<tag k="highway" v="path" />
		<tag k="name" v="Rauvegen" />
		<tag k="ssr:stedsnr" v="283392" />
	</node>
	<node id="-18221" lat="65.8936777786" lon="13.3329138854">
		<tag k="highway" v="path" />
		<tag k="name" v="Skarvegen" />
		<tag k="ssr:stedsnr" v="939684" />
	</node>
	<node id="-16293" lat="65.8883305567" lon="13.0999083306">
		<tag k="fixme" v="verify maritime location" />
		<tag k="mooring" v="yes" />
		<tag k="name" v="Gammelstøa" />
		<tag k="place" v="locality" />
		<tag k="ssr:stedsnr" v="211123" />
	</node>
	<node id="-19108" lat="66.1617833298" lon="13.5440916621">
		<tag k="highway" v="path" />
		<tag k="name" v="Vestervegen" />
		<tag k="ssr:stedsnr" v="160115" />
	</node>
	<node id="-18083" lat="65.7811416686" lon="13.4359722202">
		<tag k="highway" v="path" />
		<tag k="name" v="Laedtiebaalka" />
		<tag k="name:sma" v="Laedtiebaalka" />
		<tag k="ssr:stedsnr" v="926556" />
	</node>
	<node id="-15757" lat="65.8083611154" lon="13.4942277735">
		<tag k="highway" v="path" />
		<tag k="name" v="Steinvegen" />
		<tag k="ssr:stedsnr" v="222998" />
	</node>
	<node id="-18057" lat="66.0712944416" lon="13.4555472107">
		<tag k="name" v="Drevvatnet stasjon" />
		<tag k="railway" v="station" />
		<tag k="ssr:stedsnr" v="926273" />
		<tag k="train" v="yes" />
	</node>
	<node id="-19842" lat="65.84533889" lon="13.1987805596">
		<tag k="name" v="Mosjøen stasjon" />
		<tag k="railway" v="station" />
		<tag k="ssr:stedsnr" v="420400" />
		<tag k="train" v="yes" />
	</node>
	<node id="-19073" lat="65.8354444456" lon="12.6652083317">
		<tag k="highway" v="path" />
		<tag k="name" v="Bjørnlivegen" />
		<tag k="ssr:stedsnr" v="150544" />
	</node>
</osm>
