<?xml version="1.0" encoding="UTF-8"?>
<osm version="0.6" generator="osmapis">
	<node id="1680012040" lat="58.7500594" lon="8.8622152" version="6" timestamp="2021-10-29T06:11:26Z" changeset="113107708" uid="3497659" user="NKA">
		<tag k="name" v="Myra" />
		<tag k="place" v="village" />
		<tag k="population" v="844" />
		<tag k="population:date" v="2021-01-01" />
		<tag k="ref:ssb_tettsted" v="3661" />
		<tag k="source:population" v="SSB - befolkning i tettstedet" />
		<tag k="ssr:stedsnr" v="850358" />
		<tag k="ssr:type" v="tettsted" />
	</node>
	<node id="4470514402" lat="58.7087552" lon="8.8572183" version="2" timestamp="2018-04-10T18:49:22Z" changeset="57982147" uid="3497659" user="NKA">
		<tag k="fixme" v="check position" />
		<tag k="historic" v="ruins" />
		<tag k="name" v="Almdalstølen" />
		<tag k="place" v="locality" />
		<tag k="ssr:stedsnr" v="820404" />
		<tag k="ssr:type" v="gammelBosettingsplass" />
	</node>
	<node id="4470514403" lat="58.7357072" lon="8.9224257" version="2" timestamp="2018-04-10T18:49:22Z" changeset="57982147" uid="3497659" user="NKA">
		<tag k="name" v="Arnheim" />
		<tag k="place" v="farm" />
		<tag k="ssr:stedsnr" v="122533" />
		<tag k="ssr:type" v="bruk" />
	</node>
	<node id="4470514404" lat="58.7219841" lon="8.7779693" version="2" timestamp="2018-04-10T18:49:22Z" changeset="57982147" uid="3497659" user="NKA">
		<tag k="name" v="Askekjerr" />
		<tag k="place" v="farm" />
		<tag k="ssr:stedsnr" v="607105" />
		<tag k="ssr:type" v="bruk" />
	</node>
	<node id="4470514405" lat="58.7410082" lon="8.9508856" version="2" timestamp="2018-04-10T18:49:22Z" changeset="57982147" uid="3497659" user="NKA">
		<tag k="fixme" v="check position" />
		<tag k="historic" v="ruins" />
		<tag k="name" v="Bakkane" />
		<tag k="place" v="locality" />
		<tag k="ssr:stedsnr" v="214553" />
		<tag k="ssr:type" v="gammelBosettingsplass" />
	</node>
	<node id="4470514406" lat="58.6954135" lon="8.7422638" version="2" timestamp="2018-04-10T18:49:22Z" changeset="57982147" uid="3497659" user="NKA">
		<tag k="name" v="Bakke" />
		<tag k="place" v="hamlet" />
		<tag k="ssr:stedsnr" v="426907" />
		<tag k="ssr:type" v="bruk" />
	</node>
	<node id="4470514407" lat="58.7583329" lon="8.9279876" version="2" timestamp="2018-04-10T18:49:23Z" changeset="57982147" uid="3497659" user="NKA">
		<tag k="name" v="Bakken" />
		<tag k="place" v="farm" />
		<tag k="ssr:stedsnr" v="426371" />
		<tag k="ssr:type" v="bruk" />
	</node>
	<node id="4470514408" lat="58.7070103" lon="8.8356607" version="2" timestamp="2018-04-10T18:49:23Z" changeset="57982147" uid="3497659" user="NKA">
		<tag k="name" v="Berget" />
		<tag k="place" v="farm" />
		<tag k="ssr:stedsnr" v="486896" />
		<tag k="ssr:type" v="eneboligMindreBoligbygg" />
	</node>
	<node id="4470514409" lat="58.7284874" lon="8.7543021" version="2" timestamp="2018-04-10T18:49:23Z" changeset="57982147" uid="3497659" user="NKA">
		<tag k="name" v="Bergland" />
		<tag k="place" v="farm" />
		<tag k="ssr:stedsnr" v="31157" />
		<tag k="ssr:type" v="eneboligMindreBoligbygg" />
	</node>
	<node id="4470514410" lat="58.7954801" lon="8.7255803" version="3" timestamp="2021-03-17T07:18:14Z" changeset="101165750" uid="3497659" user="NKA">
		<tag k="name" v="Bjelkekastet" />
		<tag k="place" v="isolated_dwelling" />
		<tag k="ssr:stedsnr" v="759813" />
		<tag k="ssr:type" v="fritidsbolig" />
	</node>
	<node id="4470514411" lat="58.818774" lon="8.9834283" version="3" timestamp="2021-03-17T07:18:14Z" changeset="101165750" uid="3497659" user="NKA">
		<tag k="name" v="Bjelkåsen" />
		<tag k="place" v="isolated_dwelling" />
		<tag k="ssr:stedsnr" v="729058" />
		<tag k="ssr:type" v="fritidsbolig" />
	</node>
	<node id="4470514412" lat="58.7220916" lon="8.8802231" version="2" timestamp="2018-04-10T18:49:23Z" changeset="57982147" uid="3497659" user="NKA">
		<tag k="name" v="Bjormyr" />
		<tag k="place" v="farm" />
		<tag k="ssr:stedsnr" v="62571" />
		<tag k="ssr:type" v="bruk" />
	</node>
	<node id="4470514413" lat="58.7358325" lon="8.8314293" version="3" timestamp="2021-03-17T07:18:14Z" changeset="101165750" uid="3497659" user="NKA">
		<tag k="alt_name" v="Bjårmyr" />
		<tag k="name" v="Bjormyr" />
		<tag k="place" v="isolated_dwelling" />
		<tag k="ssr:stedsnr" v="607119" />
		<tag k="ssr:type" v="fritidsbolig" />
	</node>
	<node id="4470514414" lat="58.7362483" lon="8.9850609" version="2" timestamp="2018-04-10T18:49:23Z" changeset="57982147" uid="3497659" user="NKA">
		<tag k="name" v="Bjorstemkjær" />
		<tag k="place" v="farm" />
		<tag k="ssr:stedsnr" v="729547" />
		<tag k="ssr:type" v="bruk" />
	</node>
	<node id="4470514415" lat="58.6910785" lon="8.8442541" version="2" timestamp="2018-04-10T18:49:23Z" changeset="57982147" uid="3497659" user="NKA">
		<tag k="fixme" v="check position" />
		<tag k="historic" v="ruins" />
		<tag k="name" v="Bjortjenndalen" />
		<tag k="place" v="locality" />
		<tag k="ssr:stedsnr" v="699411" />
		<tag k="ssr:type" v="gammelBosettingsplass" />
	</node>
	<node id="4470514416" lat="58.7880923" lon="8.9417001" version="2" timestamp="2018-04-10T18:49:24Z" changeset="57982147" uid="3497659" user="NKA">
		<tag k="name" v="Bjorvatn" />
		<tag k="place" v="farm" />
		<tag k="ssr:stedsnr" v="365460" />
		<tag k="ssr:type" v="bruk" />
	</node>
	<node id="4470514417" lat="58.7504385" lon="8.7616721" version="2" timestamp="2018-04-10T18:49:24Z" changeset="57982147" uid="3497659" user="NKA">
		<tag k="fixme" v="check position" />
		<tag k="historic" v="ruins" />
		<tag k="name" v="Bjørkholta" />
		<tag k="place" v="locality" />
		<tag k="ssr:stedsnr" v="911932" />
		<tag k="ssr:type" v="gammelBosettingsplass" />
	</node>
	<node id="4470514418" lat="58.8160601" lon="8.8950702" version="2" timestamp="2018-04-10T18:49:24Z" changeset="57982147" uid="3497659" user="NKA">
		<tag k="fixme" v="check position" />
		<tag k="historic" v="ruins" />
		<tag k="name" v="Bjørndalen" />
		<tag k="place" v="locality" />
		<tag k="ssr:stedsnr" v="820386" />
		<tag k="ssr:type" v="gammelBosettingsplass" />
	</node>
	<node id="4470514419" lat="58.8012969" lon="8.9764515" version="2" timestamp="2018-04-10T18:49:24Z" changeset="57982147" uid="3497659" user="NKA">
		<tag k="name" v="Bjørnåsmyra" />
		<tag k="place" v="farm" />
		<tag k="ssr:stedsnr" v="911014" />
		<tag k="ssr:type" v="bruk" />
	</node>
	<node id="4470514420" lat="58.7190483" lon="8.7922619" version="2" timestamp="2018-04-10T18:49:24Z" changeset="57982147" uid="3497659" user="NKA">
		<tag k="name" v="Borge" />
		<tag k="place" v="farm" />
		<tag k="ssr:stedsnr" v="61053" />
		<tag k="ssr:type" v="bruk" />
	</node>
	<node id="4470514421" lat="58.7752862" lon="8.9308796" version="2" timestamp="2018-04-10T18:49:24Z" changeset="57982147" uid="3497659" user="NKA">
		<tag k="name" v="Brattekleiv" />
		<tag k="place" v="farm" />
		<tag k="ssr:stedsnr" v="548424" />
		<tag k="ssr:type" v="eneboligMindreBoligbygg" />
	</node>
	<node id="4470514422" lat="58.7969183" lon="8.752426" version="2" timestamp="2018-04-10T18:49:24Z" changeset="57982147" uid="3497659" user="NKA">
		<tag k="name" v="Brattland" />
		<tag k="place" v="farm" />
		<tag k="ssr:stedsnr" v="547673" />
		<tag k="ssr:type" v="eneboligMindreBoligbygg" />
	</node>
	<node id="4470514423" lat="58.6787789" lon="8.802198" version="2" timestamp="2018-04-10T18:49:24Z" changeset="57982147" uid="3497659" user="NKA">
		<tag k="fixme" v="check position" />
		<tag k="historic" v="ruins" />
		<tag k="name" v="Brattli" />
		<tag k="place" v="locality" />
		<tag k="ssr:stedsnr" v="821641" />
		<tag k="ssr:type" v="gammelBosettingsplass" />
	</node>
	<node id="4470514424" lat="58.7467009" lon="8.8336969" version="2" timestamp="2018-04-10T18:49:25Z" changeset="57982147" uid="3497659" user="NKA">
		<tag k="name" v="Breiungen" />
		<tag k="place" v="farm" />
		<tag k="ssr:stedsnr" v="729030" />
		<tag k="ssr:type" v="bruk" />
	</node>
	<node id="4470514425" lat="58.7390654" lon="8.9272398" version="2" timestamp="2018-04-10T18:49:25Z" changeset="57982147" uid="3497659" user="NKA">
		<tag k="name" v="Brekke" />
		<tag k="place" v="farm" />
		<tag k="ssr:stedsnr" v="61511" />
		<tag k="ssr:type" v="bruk" />
	</node>
	<node id="4470514426" lat="58.68103" lon="8.8223584" version="2" timestamp="2018-04-10T18:49:25Z" changeset="57982147" uid="3497659" user="NKA">
		<tag k="name" v="Brumoen" />
		<tag k="place" v="farm" />
		<tag k="ssr:stedsnr" v="789921" />
		<tag k="ssr:type" v="bruk" />
	</node>
	<node id="4470514427" lat="58.742083" lon="8.7486445" version="2" timestamp="2018-04-10T18:49:25Z" changeset="57982147" uid="3497659" user="NKA">
		<tag k="name" v="Bruslåtta" />
		<tag k="place" v="farm" />
		<tag k="ssr:stedsnr" v="851102" />
		<tag k="ssr:type" v="bruk" />
	</node>
	<node id="4470514428" lat="58.6727523" lon="8.8043951" version="2" timestamp="2018-04-10T18:49:25Z" changeset="57982147" uid="3497659" user="NKA">
		<tag k="fixme" v="check position" />
		<tag k="historic" v="ruins" />
		<tag k="name" v="Bråtane" />
		<tag k="place" v="locality" />
		<tag k="ssr:stedsnr" v="335673" />
		<tag k="ssr:type" v="gammelBosettingsplass" />
	</node>
	<node id="4470514429" lat="58.7672271" lon="8.8093447" version="2" timestamp="2018-04-10T18:49:25Z" changeset="57982147" uid="3497659" user="NKA">
		<tag k="name" v="Bråtane" />
		<tag k="place" v="farm" />
		<tag k="ssr:stedsnr" v="850553" />
		<tag k="ssr:type" v="eneboligMindreBoligbygg" />
	</node>
	<node id="4470514430" lat="58.6547654" lon="8.8097381" version="2" timestamp="2018-04-10T18:49:25Z" changeset="57982147" uid="3497659" user="NKA">
		<tag k="name" v="Bråten" />
		<tag k="place" v="farm" />
		<tag k="ssr:stedsnr" v="790991" />
		<tag k="ssr:type" v="bruk" />
	</node>
	<node id="4470514431" lat="58.6629664" lon="8.8141565" version="2" timestamp="2018-04-10T18:49:25Z" changeset="57982147" uid="3497659" user="NKA">
		<tag k="name" v="Bråten" />
		<tag k="place" v="farm" />
		<tag k="ssr:stedsnr" v="122954" />
		<tag k="ssr:type" v="eneboligMindreBoligbygg" />
	</node>
	<node id="4470514432" lat="58.68531" lon="8.8216536" version="2" timestamp="2018-04-10T18:49:25Z" changeset="57982147" uid="3497659" user="NKA">
		<tag k="name" v="Bråten" />
		<tag k="place" v="farm" />
		<tag k="ssr:stedsnr" v="699605" />
		<tag k="ssr:type" v="bruk" />
	</node>
	<node id="4470514433" lat="58.7250435" lon="8.6667727" version="2" timestamp="2018-04-10T18:49:26Z" changeset="57982147" uid="3497659" user="NKA">
		<tag k="fixme" v="check position" />
		<tag k="historic" v="ruins" />
		<tag k="name" v="Bråten" />
		<tag k="place" v="locality" />
		<tag k="ssr:stedsnr" v="92690" />
		<tag k="ssr:type" v="gammelBosettingsplass" />
	</node>
	<node id="4470514434" lat="58.7379681" lon="8.7732715" version="2" timestamp="2018-04-10T18:49:26Z" changeset="57982147" uid="3497659" user="NKA">
		<tag k="name" v="Bråten" />
		<tag k="place" v="farm" />
		<tag k="ssr:stedsnr" v="911106" />
		<tag k="ssr:type" v="eneboligMindreBoligbygg" />
	</node>
	<node id="4470514435" lat="58.7565131" lon="8.9049222" version="2" timestamp="2018-04-10T18:49:26Z" changeset="57982147" uid="3497659" user="NKA">
		<tag k="name" v="Bråten" />
		<tag k="place" v="farm" />
		<tag k="ssr:stedsnr" v="790391" />
		<tag k="ssr:type" v="eneboligMindreBoligbygg" />
	</node>
	<node id="4470514436" lat="58.8382244" lon="8.904338" version="2" timestamp="2018-04-10T18:49:26Z" changeset="57982147" uid="3497659" user="NKA">
		<tag k="fixme" v="check position" />
		<tag k="historic" v="ruins" />
		<tag k="name" v="Buholta" />
		<tag k="place" v="locality" />
		<tag k="ssr:stedsnr" v="638386" />
		<tag k="ssr:type" v="gammelBosettingsplass" />
	</node>
	<node id="4470514437" lat="58.7479878" lon="8.9078471" version="2" timestamp="2018-04-10T18:49:26Z" changeset="57982147" uid="3497659" user="NKA">
		<tag k="name" v="Bulia" />
		<tag k="place" v="farm" />
		<tag k="ssr:stedsnr" v="243522" />
		<tag k="ssr:type" v="bruk" />
	</node>
	<node id="4470514438" lat="58.7054523" lon="8.8136086" version="3" timestamp="2021-03-17T07:18:14Z" changeset="101165750" uid="3497659" user="NKA">
		<tag k="name" v="Bågstøl" />
		<tag k="place" v="isolated_dwelling" />
		<tag k="ssr:stedsnr" v="153016" />
		<tag k="ssr:type" v="fritidsbolig" />
	</node>
	<node id="4470514439" lat="58.7157144" lon="8.6807482" version="2" timestamp="2018-04-10T18:49:26Z" changeset="57982147" uid="3497659" user="NKA">
		<tag k="fixme" v="check position" />
		<tag k="historic" v="ruins" />
		<tag k="name" v="Bærås" />
		<tag k="place" v="locality" />
		<tag k="ssr:stedsnr" v="456691" />
		<tag k="ssr:type" v="gammelBosettingsplass" />
	</node>
	<node id="4470514440" lat="58.7041265" lon="8.8985613" version="2" timestamp="2018-04-10T18:49:27Z" changeset="57982147" uid="3497659" user="NKA">
		<tag k="name" v="Dal" />
		<tag k="place" v="farm" />
		<tag k="ssr:stedsnr" v="870059" />
		<tag k="ssr:type" v="bruk" />
	</node>
	<node id="4470514441" lat="58.7070619" lon="8.6985164" version="2" timestamp="2018-04-10T18:49:27Z" changeset="57982147" uid="3497659" user="NKA">
		<tag k="fixme" v="check position" />
		<tag k="historic" v="ruins" />
		<tag k="name" v="Dal" />
		<tag k="place" v="locality" />
		<tag k="ssr:stedsnr" v="214767" />
		<tag k="ssr:type" v="gammelBosettingsplass" />
	</node>
	<node id="4470514442" lat="58.7659143" lon="8.9319816" version="2" timestamp="2018-04-10T18:49:27Z" changeset="57982147" uid="3497659" user="NKA">
		<tag k="name" v="Dalane" />
		<tag k="place" v="farm" />
		<tag k="ssr:stedsnr" v="517266" />
		<tag k="ssr:type" v="bruk" />
	</node>
	<node id="4470514443" lat="58.7806309" lon="8.8834195" version="2" timestamp="2018-04-10T18:49:27Z" changeset="57982147" uid="3497659" user="NKA">
		<tag k="name" v="Dalane" />
		<tag k="place" v="farm" />
		<tag k="ssr:stedsnr" v="184478" />
		<tag k="ssr:type" v="bruk" />
	</node>
	<node id="4470514444" lat="58.7299255" lon="8.7962975" version="2" timestamp="2018-04-10T18:49:27Z" changeset="57982147" uid="3497659" user="NKA">
		<tag k="fixme" v="check position" />
		<tag k="historic" v="ruins" />
		<tag k="name" v="Dale" />
		<tag k="place" v="locality" />
		<tag k="ssr:stedsnr" v="425116" />
		<tag k="ssr:type" v="bruk" />
	</node>
	<node id="4470514445" lat="58.7989041" lon="8.7438537" version="2" timestamp="2018-04-10T18:49:27Z" changeset="57982147" uid="3497659" user="NKA">
		<tag k="fixme" v="check position" />
		<tag k="historic" v="ruins" />
		<tag k="name" v="Dalen" />
		<tag k="place" v="locality" />
		<tag k="ssr:stedsnr" v="881134" />
		<tag k="ssr:type" v="gammelBosettingsplass" />
	</node>
	<node id="4470514446" lat="58.7310641" lon="8.8011343" version="2" timestamp="2018-04-10T18:49:27Z" changeset="57982147" uid="3497659" user="NKA">
		<tag k="name" v="Dalshov" />
		<tag k="place" v="farm" />
		<tag k="ssr:stedsnr" v="789122" />
		<tag k="ssr:type" v="eneboligMindreBoligbygg" />
	</node>
	<node id="4470514447" lat="58.7281754" lon="8.9108381" version="2" timestamp="2018-04-10T18:49:27Z" changeset="57982147" uid="3497659" user="NKA">
		<tag k="name" v="Dåbu" />
		<tag k="place" v="farm" />
		<tag k="ssr:stedsnr" v="62575" />
		<tag k="ssr:type" v="bruk" />
	</node>
	<node id="4470514448" lat="58.7938326" lon="8.7594613" version="2" timestamp="2018-04-10T18:49:27Z" changeset="57982147" uid="3497659" user="NKA">
		<tag k="name" v="Eidet" />
		<tag k="place" v="farm" />
		<tag k="ssr:stedsnr" v="31847" />
		<tag k="ssr:type" v="bruk" />
	</node>
	<node id="4470514449" lat="58.813382" lon="8.8564805" version="2" timestamp="2018-04-10T18:49:28Z" changeset="57982147" uid="3497659" user="NKA">
		<tag k="name" v="Eidet" />
		<tag k="place" v="farm" />
		<tag k="ssr:stedsnr" v="607033" />
		<tag k="ssr:type" v="eneboligMindreBoligbygg" />
	</node>
	<node id="4470514450" lat="58.7944965" lon="8.7591735" version="2" timestamp="2018-04-10T18:49:28Z" changeset="57982147" uid="3497659" user="NKA">
		<tag k="historic" v="yes" />
		<tag k="name" v="Eidstøa" />
		<tag k="place" v="locality" />
		<tag k="ssr:stedsnr" v="759840" />
		<tag k="ssr:type" v="stø" />
	</node>
	<node id="4470514451" lat="58.718977" lon="8.6530144" version="2" timestamp="2018-04-10T18:49:28Z" changeset="57982147" uid="3497659" user="NKA">
		<tag k="name" v="Eikås" />
		<tag k="place" v="farm" />
		<tag k="ssr:stedsnr" v="486055" />
		<tag k="ssr:type" v="bruk" />
	</node>
	<node id="4470514452" lat="58.7794825" lon="8.7286947" version="3" timestamp="2021-03-17T07:18:14Z" changeset="101165750" uid="3497659" user="NKA">
		<tag k="name" v="Eilivsmyr" />
		<tag k="place" v="isolated_dwelling" />
		<tag k="ssr:stedsnr" v="335876" />
		<tag k="ssr:type" v="fritidsbolig" />
	</node>
	<node id="4470514453" lat="58.6794893" lon="8.8186029" version="2" timestamp="2018-04-10T18:49:28Z" changeset="57982147" uid="3497659" user="NKA">
		<tag k="name" v="Ekra" />
		<tag k="place" v="farm" />
		<tag k="ssr:stedsnr" v="425916" />
		<tag k="ssr:type" v="bruk" />
	</node>
	<node id="4470514454" lat="58.7816936" lon="8.7323113" version="2" timestamp="2018-04-10T18:49:28Z" changeset="57982147" uid="3497659" user="NKA">
		<tag k="name" v="Engen" />
		<tag k="place" v="farm" />
		<tag k="ssr:stedsnr" v="31857" />
		<tag k="ssr:type" v="eneboligMindreBoligbygg" />
	</node>
	<node id="4470514455" lat="58.6795237" lon="8.8249257" version="2" timestamp="2018-04-10T18:49:28Z" changeset="57982147" uid="3497659" user="NKA">
		<tag k="name" v="Engene" />
		<tag k="place" v="farm" />
		<tag k="ssr:stedsnr" v="182910" />
		<tag k="ssr:type" v="bruk" />
	</node>
	<node id="4470514456" lat="58.7450427" lon="8.9603631" version="2" timestamp="2018-04-10T18:49:28Z" changeset="57982147" uid="3497659" user="NKA">
		<tag k="name" v="Espedalen" />
		<tag k="place" v="farm" />
		<tag k="ssr:stedsnr" v="183499" />
		<tag k="ssr:type" v="bruk" />
	</node>
	<node id="4470514457" lat="58.7228538" lon="8.7630288" version="2" timestamp="2018-04-10T18:49:28Z" changeset="57982147" uid="3497659" user="NKA">
		<tag k="name" v="Espeland" />
		<tag k="place" v="farm" />
		<tag k="ssr:stedsnr" v="729116" />
		<tag k="ssr:type" v="bruk" />
	</node>
	<node id="4470514458" lat="58.7810399" lon="8.7230185" version="2" timestamp="2018-04-10T18:49:29Z" changeset="57982147" uid="3497659" user="NKA">
		<tag k="name" v="Espestøa" />
		<tag k="place" v="farm" />
		<tag k="ssr:stedsnr" v="790551" />
		<tag k="ssr:type" v="eneboligMindreBoligbygg" />
	</node>
	<node id="4470514459" lat="58.726224" lon="8.7914814" version="2" timestamp="2018-04-10T18:49:29Z" changeset="57982147" uid="3497659" user="NKA">
		<tag k="name" v="Ettedalen" />
		<tag k="place" v="farm" />
		<tag k="ssr:stedsnr" v="517172" />
		<tag k="ssr:type" v="eneboligMindreBoligbygg" />
	</node>
	<node id="4470514460" lat="58.7366513" lon="8.8131038" version="2" timestamp="2018-04-10T18:49:29Z" changeset="57982147" uid="3497659" user="NKA">
		<tag k="name" v="Ettestøl" />
		<tag k="place" v="farm" />
		<tag k="ssr:stedsnr" v="607121" />
		<tag k="ssr:type" v="bruk" />
	</node>
	<node id="4470514461" lat="58.7504735" lon="8.8407806" version="2" timestamp="2018-04-10T18:49:29Z" changeset="57982147" uid="3497659" user="NKA">
		<tag k="name" v="Ettevass-stranda" />
		<tag k="place" v="farm" />
		<tag k="ssr:stedsnr" v="214228" />
		<tag k="ssr:type" v="bruk" />
	</node>
	<node id="4470514462" lat="58.6715757" lon="8.8318819" version="2" timestamp="2018-04-10T18:49:29Z" changeset="57982147" uid="3497659" user="NKA">
		<tag k="name" v="Fidalen" />
		<tag k="place" v="locality" />
		<tag k="ssr:stedsnr" v="153025" />
		<tag k="ssr:type" v="gammelBosettingsplass" />
	</node>
	<node id="4470514464" lat="58.6687207" lon="8.8327934" version="2" timestamp="2018-04-10T18:49:29Z" changeset="57982147" uid="3497659" user="NKA">
		<tag k="name" v="Fidalskjæret" />
		<tag k="place" v="farm" />
		<tag k="ssr:stedsnr" v="304954" />
		<tag k="ssr:type" v="eneboligMindreBoligbygg" />
	</node>
	<node id="4470514465" lat="58.6926292" lon="8.7892697" version="2" timestamp="2018-04-10T18:49:29Z" changeset="57982147" uid="3497659" user="NKA">
		<tag k="name" v="Finnsrud" />
		<tag k="place" v="farm" />
		<tag k="ssr:stedsnr" v="790897" />
		<tag k="ssr:type" v="eneboligMindreBoligbygg" />
	</node>
	<node id="4470514466" lat="58.7000784" lon="8.7387104" version="2" timestamp="2018-04-10T18:49:29Z" changeset="57982147" uid="3497659" user="NKA">
		<tag k="name" v="Fjell" />
		<tag k="place" v="farm" />
		<tag k="ssr:stedsnr" v="760218" />
		<tag k="ssr:type" v="bruk" />
	</node>
	<node id="4470514467" lat="58.7411763" lon="8.7525483" version="2" timestamp="2018-04-10T18:49:29Z" changeset="57982147" uid="3497659" user="NKA">
		<tag k="name" v="Fjellheim" />
		<tag k="place" v="farm" />
		<tag k="ssr:stedsnr" v="426117" />
		<tag k="ssr:type" v="bruk" />
	</node>
	<node id="4470514468" lat="58.7404227" lon="8.9084603" version="3" timestamp="2021-03-17T07:18:14Z" changeset="101165750" uid="3497659" user="NKA">
		<tag k="name" v="Fjellvik" />
		<tag k="place" v="locality" />
		<tag k="ssr:stedsnr" v="31272" />
		<tag k="ssr:type" v="gammelBosettingsplass" />
	</node>
	<node id="4470514469" lat="58.7100396" lon="8.9287305" version="3" timestamp="2021-03-17T07:18:14Z" changeset="101165750" uid="3497659" user="NKA">
		<tag k="name" v="Flaten" />
		<tag k="place" v="isolated_dwelling" />
		<tag k="ssr:stedsnr" v="850577" />
		<tag k="ssr:type" v="fritidsbolig" />
	</node>
	<node id="4470514470" lat="58.7777765" lon="8.9150211" version="2" timestamp="2018-04-10T18:49:30Z" changeset="57982147" uid="3497659" user="NKA">
		<tag k="name" v="Flaten" />
		<tag k="place" v="farm" />
		<tag k="ssr:stedsnr" v="669413" />
		<tag k="ssr:type" v="bruk" />
	</node>
	<node id="4470514471" lat="58.7919593" lon="8.8083878" version="2" timestamp="2018-04-10T18:49:30Z" changeset="57982147" uid="3497659" user="NKA">
		<tag k="name" v="Flatland" />
		<tag k="place" v="farm" />
		<tag k="ssr:stedsnr" v="214778" />
		<tag k="ssr:type" v="bruk" />
	</node>
	<node id="4470514472" lat="58.6839346" lon="8.7335168" version="2" timestamp="2018-04-10T18:49:30Z" changeset="57982147" uid="3497659" user="NKA">
		<tag k="historic" v="yes" />
		<tag k="name" v="Flækåsstøa" />
		<tag k="place" v="locality" />
		<tag k="ssr:stedsnr" v="942645" />
		<tag k="ssr:type" v="stø" />
	</node>
	<node id="4470514473" lat="58.717021" lon="8.7913555" version="2" timestamp="2018-04-10T18:49:30Z" changeset="57982147" uid="3497659" user="NKA">
		<tag k="name" v="Fosse" />
		<tag k="place" v="farm" />
		<tag k="ssr:stedsnr" v="547077" />
		<tag k="ssr:type" v="bruk" />
	</node>
	<node id="4470514474" lat="58.7001082" lon="8.8935916" version="2" timestamp="2018-04-10T18:49:31Z" changeset="57982147" uid="3497659" user="NKA">
		<tag k="name" v="Fosseid" />
		<tag k="place" v="farm" />
		<tag k="ssr:stedsnr" v="870056" />
		<tag k="ssr:type" v="bruk" />
	</node>
	<node id="4470514475" lat="58.7479561" lon="8.999895" version="2" timestamp="2018-04-10T18:49:31Z" changeset="57982147" uid="3497659" user="NKA">
		<tag k="name" v="Fossen" />
		<tag k="place" v="locality" />
		<tag k="ssr:stedsnr" v="122496" />
		<tag k="ssr:type" v="fritidsbolig" />
	</node>
	<node id="4470514476" lat="58.7469209" lon="8.7475288" version="2" timestamp="2018-04-10T18:49:31Z" changeset="57982147" uid="3497659" user="NKA">
		<tag k="name" v="Fossli" />
		<tag k="place" v="farm" />
		<tag k="ssr:stedsnr" v="729029" />
		<tag k="ssr:type" v="bruk" />
	</node>
	<node id="4470514477" lat="58.7312664" lon="8.7514819" version="2" timestamp="2018-04-10T18:49:31Z" changeset="57982147" uid="3497659" user="NKA">
		<tag k="name" v="Fosså" />
		<tag k="place" v="farm" />
		<tag k="ssr:stedsnr" v="546098" />
		<tag k="ssr:type" v="bruk" />
	</node>
	<node id="4470514478" lat="58.6925723" lon="8.7803478" version="2" timestamp="2018-04-10T18:49:31Z" changeset="57982147" uid="3497659" user="NKA">
		<tag k="name" v="Frivoll" />
		<tag k="place" v="farm" />
		<tag k="ssr:stedsnr" v="183880" />
		<tag k="ssr:type" v="bruk" />
	</node>
	<node id="4470514479" lat="58.7871706" lon="8.8262746" version="2" timestamp="2018-04-10T18:49:31Z" changeset="57982147" uid="3497659" user="NKA">
		<tag k="name" v="Fåtjennmyr" />
		<tag k="place" v="farm" />
		<tag k="ssr:stedsnr" v="638748" />
		<tag k="ssr:type" v="eneboligMindreBoligbygg" />
	</node>
	<node id="4470514480" lat="58.790315" lon="8.7996353" version="2" timestamp="2018-04-10T18:49:31Z" changeset="57982147" uid="3497659" user="NKA">
		<tag k="alt_name" v="Fersnes" />
		<tag k="name" v="Færsnes" />
		<tag k="place" v="farm" />
		<tag k="ssr:stedsnr" v="183580" />
		<tag k="ssr:type" v="bruk" />
	</node>
	<node id="4470514481" lat="58.7946597" lon="8.7980874" version="2" timestamp="2018-04-10T18:49:31Z" changeset="57982147" uid="3497659" user="NKA">
		<tag k="historic" v="yes" />
		<tag k="name" v="Færsnesstøa" />
		<tag k="place" v="locality" />
		<tag k="ssr:stedsnr" v="881754" />
		<tag k="ssr:type" v="stø" />
	</node>
	<node id="4470514482" lat="58.8277859" lon="8.8172335" version="2" timestamp="2018-04-10T18:49:31Z" changeset="57982147" uid="3497659" user="NKA">
		<tag k="fixme" v="check position" />
		<tag k="historic" v="ruins" />
		<tag k="name" v="Gamle Dalen" />
		<tag k="place" v="locality" />
		<tag k="ssr:stedsnr" v="760787" />
		<tag k="ssr:type" v="gammelBosettingsplass" />
	</node>
	<node id="4470514483" lat="58.7106442" lon="8.9241553" version="2" timestamp="2018-04-10T18:49:32Z" changeset="57982147" uid="3497659" user="NKA">
		<tag k="fixme" v="check position" />
		<tag k="historic" v="ruins" />
		<tag k="name" v="Gamle Håla" />
		<tag k="place" v="locality" />
		<tag k="ssr:stedsnr" v="942427" />
		<tag k="ssr:type" v="gammelBosettingsplass" />
	</node>
	<node id="4470514484" lat="58.7206383" lon="8.6662858" version="2" timestamp="2018-04-10T18:49:32Z" changeset="57982147" uid="3497659" user="NKA">
		<tag k="name" v="Gisletveit" />
		<tag k="place" v="farm" />
		<tag k="ssr:stedsnr" v="122107" />
		<tag k="ssr:type" v="bruk" />
	</node>
	<node id="4470514485" lat="58.7688176" lon="8.6827913" version="3" timestamp="2018-04-28T08:07:03Z" changeset="58497758" uid="3497659" user="NKA">
		<tag k="historic" v="shieling" />
		<tag k="name" v="Grasli" />
		<tag k="place" v="locality" />
		<tag k="ssr:stedsnr" v="911503" />
		<tag k="ssr:type" v="seterStøl" />
	</node>
	<node id="4470514486" lat="58.7445352" lon="8.9483181" version="2" timestamp="2018-04-10T18:49:32Z" changeset="57982147" uid="3497659" user="NKA">
		<tag k="name" v="Grasåsen" />
		<tag k="place" v="farm" />
		<tag k="ssr:stedsnr" v="911548" />
		<tag k="ssr:type" v="bruk" />
	</node>
	<node id="4470514487" lat="58.770897" lon="8.9003759" version="2" timestamp="2018-04-10T18:49:32Z" changeset="57982147" uid="3497659" user="NKA">
		<tag k="name" v="Harekjær" />
		<tag k="place" v="farm" />
		<tag k="ssr:stedsnr" v="486454" />
		<tag k="ssr:type" v="gard" />
	</node>
	<node id="4470514488" lat="58.7224009" lon="8.6533713" version="2" timestamp="2018-04-10T18:49:32Z" changeset="57982147" uid="3497659" user="NKA">
		<tag k="name" v="Haugane" />
		<tag k="place" v="farm" />
		<tag k="ssr:stedsnr" v="668104" />
		<tag k="ssr:type" v="eneboligMindreBoligbygg" />
	</node>
	<node id="4470514889" lat="58.7971056" lon="8.8463436" version="2" timestamp="2018-04-10T18:49:32Z" changeset="57982147" uid="3497659" user="NKA">
		<tag k="name" v="Hauge" />
		<tag k="place" v="farm" />
		<tag k="ssr:stedsnr" v="395095" />
		<tag k="ssr:type" v="bruk" />
	</node>
	<node id="4470514890" lat="58.7554494" lon="8.8867562" version="2" timestamp="2018-04-10T18:49:32Z" changeset="57982147" uid="3497659" user="NKA">
		<tag k="name" v="Haugen" />
		<tag k="place" v="farm" />
		<tag k="ssr:stedsnr" v="152323" />
		<tag k="ssr:type" v="bruk" />
	</node>
	<node id="4470514891" lat="58.7130458" lon="8.8536486" version="2" timestamp="2018-04-10T18:49:33Z" changeset="57982147" uid="3497659" user="NKA">
		<tag k="name" v="Haugland" />
		<tag k="place" v="farm" />
		<tag k="ssr:stedsnr" v="668592" />
		<tag k="ssr:type" v="bruk" />
	</node>
	<node id="4470514892" lat="58.8172126" lon="8.8778761" version="2" timestamp="2018-04-10T18:49:33Z" changeset="57982147" uid="3497659" user="NKA">
		<tag k="name" v="Haukenes" />
		<tag k="place" v="hamlet" />
		<tag k="ssr:stedsnr" v="183058" />
		<tag k="ssr:type" v="eneboligMindreBoligbygg" />
	</node>
	<node id="4470514893" lat="58.8228902" lon="8.8792219" version="2" timestamp="2018-04-10T18:49:33Z" changeset="57982147" uid="3497659" user="NKA">
		<tag k="name" v="Haukstøl" />
		<tag k="place" v="farm" />
		<tag k="ssr:stedsnr" v="546067" />
		<tag k="ssr:type" v="bruk" />
	</node>
	<node id="4470514894" lat="58.7172713" lon="8.7819675" version="2" timestamp="2018-04-10T18:49:33Z" changeset="57982147" uid="3497659" user="NKA">
		<tag k="name" v="Hausland" />
		<tag k="place" v="farm" />
		<tag k="ssr:stedsnr" v="911075" />
		<tag k="ssr:type" v="bruk" />
	</node>
	<node id="4470514895" lat="58.6979063" lon="8.8272321" version="3" timestamp="2018-04-28T08:07:03Z" changeset="58497758" uid="3497659" user="NKA">
		<tag k="historic" v="shieling" />
		<tag k="name" v="Heane" />
		<tag k="place" v="locality" />
		<tag k="ssr:stedsnr" v="335414" />
		<tag k="ssr:type" v="melkeplass" />
	</node>
	<node id="4470514896" lat="58.7537438" lon="8.8993507" version="2" timestamp="2018-04-10T18:49:33Z" changeset="57982147" uid="3497659" user="NKA">
		<tag k="name" v="Hegglund" />
		<tag k="place" v="farm" />
		<tag k="ssr:stedsnr" v="759457" />
		<tag k="ssr:type" v="bruk" />
	</node>
	<node id="4470514897" lat="58.7483706" lon="8.9535638" version="2" timestamp="2018-04-10T18:49:33Z" changeset="57982147" uid="3497659" user="NKA">
		<tag k="name" v="Heimdal" />
		<tag k="place" v="farm" />
		<tag k="ssr:stedsnr" v="577512" />
		<tag k="ssr:type" v="bruk" />
	</node>
	<node id="4470514898" lat="58.7019401" lon="8.8286274" version="2" timestamp="2018-04-10T18:49:33Z" changeset="57982147" uid="3497659" user="NKA">
		<tag k="name" v="Hemyra" />
		<tag k="place" v="farm" />
		<tag k="ssr:stedsnr" v="335417" />
		<tag k="ssr:type" v="bruk" />
	</node>
	<node id="4470514899" lat="58.7169821" lon="8.9081412" version="2" timestamp="2018-04-10T18:49:34Z" changeset="57982147" uid="3497659" user="NKA">
		<tag k="fixme" v="check position" />
		<tag k="historic" v="ruins" />
		<tag k="name" v="Hestdalen" />
		<tag k="place" v="locality" />
		<tag k="ssr:stedsnr" v="335377" />
		<tag k="ssr:type" v="gammelBosettingsplass" />
	</node>
	<node id="4470514900" lat="58.7119764" lon="8.9268277" version="2" timestamp="2018-04-10T18:49:34Z" changeset="57982147" uid="3497659" user="NKA">
		<tag k="name" v="Hola" />
		<tag k="place" v="farm" />
		<tag k="ssr:stedsnr" v="61566" />
		<tag k="ssr:type" v="bruk" />
	</node>
	<node id="4470514901" lat="58.7500959" lon="8.8690217" version="2" timestamp="2018-04-10T18:49:34Z" changeset="57982147" uid="3497659" user="NKA">
		<tag k="name" v="Holmen" />
		<tag k="place" v="farm" />
		<tag k="ssr:stedsnr" v="638243" />
		<tag k="ssr:type" v="bruk" />
	</node>
	<node id="4470514902" lat="58.6575309" lon="8.8138606" version="2" timestamp="2018-04-10T18:49:34Z" changeset="57982147" uid="3497659" user="NKA">
		<tag k="name" v="Holmgard" />
		<tag k="place" v="farm" />
		<tag k="ssr:stedsnr" v="760135" />
		<tag k="ssr:type" v="bruk" />
	</node>
	<node id="4470514903" lat="58.8313163" lon="8.9461059" version="3" timestamp="2021-03-17T07:18:14Z" changeset="101165750" uid="3497659" user="NKA">
		<tag k="name" v="Holmvassmyra" />
		<tag k="place" v="isolated_dwelling" />
		<tag k="ssr:stedsnr" v="729074" />
		<tag k="ssr:type" v="fritidsbolig" />
	</node>
	<node id="4470514904" lat="58.7153495" lon="8.8724467" version="2" timestamp="2018-04-10T18:49:34Z" changeset="57982147" uid="3497659" user="NKA">
		<tag k="name" v="Hommelskår" />
		<tag k="place" v="farm" />
		<tag k="ssr:stedsnr" v="789576" />
		<tag k="ssr:type" v="bruk" />
	</node>
	<node id="4470514905" lat="58.7482556" lon="8.8663575" version="2" timestamp="2018-04-10T18:49:34Z" changeset="57982147" uid="3497659" user="NKA">
		<tag k="name" v="Hovet" />
		<tag k="place" v="locality" />
		<tag k="ssr:stedsnr" v="214276" />
		<tag k="ssr:type" v="bruk" />
	</node>
	<node id="4470514906" lat="58.6980397" lon="8.9331395" version="2" timestamp="2018-04-10T18:49:34Z" changeset="57982147" uid="3497659" user="NKA">
		<tag k="name" v="Hytta" />
		<tag k="place" v="farm" />
		<tag k="ssr:stedsnr" v="263071" />
		<tag k="ssr:type" v="bruk" />
	</node>
	<node id="4470514907" lat="58.7936061" lon="8.8136492" version="2" timestamp="2018-04-10T18:49:34Z" changeset="57982147" uid="3497659" user="NKA">
		<tag k="name" v="Hytta" />
		<tag k="place" v="farm" />
		<tag k="ssr:stedsnr" v="183612" />
		<tag k="ssr:type" v="eneboligMindreBoligbygg" />
	</node>
	<node id="4470514908" lat="58.8465262" lon="8.8739139" version="2" timestamp="2018-04-10T18:49:35Z" changeset="57982147" uid="3497659" user="NKA">
		<tag k="fixme" v="check position" />
		<tag k="historic" v="ruins" />
		<tag k="name" v="Hytta" />
		<tag k="place" v="locality" />
		<tag k="ssr:stedsnr" v="942470" />
		<tag k="ssr:type" v="gammelBosettingsplass" />
	</node>
	<node id="4470514909" lat="58.7735925" lon="8.8617465" version="2" timestamp="2018-04-10T18:49:35Z" changeset="57982147" uid="3497659" user="NKA">
		<tag k="name" v="Høl" />
		<tag k="place" v="hamlet" />
		<tag k="ssr:stedsnr" v="62434" />
		<tag k="ssr:type" v="bruk" />
	</node>
	<node id="4470514910" lat="58.7824781" lon="8.8643594" version="2" timestamp="2018-04-10T18:49:35Z" changeset="57982147" uid="3497659" user="NKA">
		<tag k="name" v="Høljeland" />
		<tag k="place" v="farm" />
		<tag k="ssr:stedsnr" v="851420" />
		<tag k="ssr:type" v="eneboligMindreBoligbygg" />
	</node>
	<node id="4470514911" lat="58.727881" lon="8.6672158" version="2" timestamp="2018-04-10T18:49:35Z" changeset="57982147" uid="3497659" user="NKA">
		<tag k="name" v="Jordet" />
		<tag k="place" v="farm" />
		<tag k="ssr:stedsnr" v="759707" />
		<tag k="ssr:type" v="eneboligMindreBoligbygg" />
	</node>
	<node id="4470514912" lat="58.7560868" lon="8.732213" version="2" timestamp="2018-04-10T18:49:35Z" changeset="57982147" uid="3497659" user="NKA">
		<tag k="alt_name" v="Jovnes" />
		<tag k="name" v="Jåvnes" />
		<tag k="place" v="farm" />
		<tag k="ssr:stedsnr" v="364547" />
		<tag k="ssr:type" v="eneboligMindreBoligbygg" />
	</node>
	<node id="4470514913" lat="58.7178387" lon="8.7317195" version="2" timestamp="2018-04-10T18:49:35Z" changeset="57982147" uid="3497659" user="NKA">
		<tag k="name" v="Kaldalen" />
		<tag k="place" v="farm" />
		<tag k="ssr:stedsnr" v="668065" />
		<tag k="ssr:type" v="bruk" />
	</node>
	<node id="4470514914" lat="58.6699373" lon="8.8179544" version="2" timestamp="2018-04-10T18:49:35Z" changeset="57982147" uid="3497659" user="NKA">
		<tag k="name" v="Kallarberg" />
		<tag k="place" v="farm" />
		<tag k="ssr:stedsnr" v="61957" />
		<tag k="ssr:type" v="bruk" />
	</node>
	<node id="4470514915" lat="58.7552937" lon="8.725797" version="2" timestamp="2018-04-10T18:49:35Z" changeset="57982147" uid="3497659" user="NKA">
		<tag k="alt_name" v="Kallaberg" />
		<tag k="name" v="Kallarberg" />
		<tag k="place" v="farm" />
		<tag k="ssr:stedsnr" v="789540" />
		<tag k="ssr:type" v="eneboligMindreBoligbygg" />
	</node>
	<node id="4470514916" lat="58.7542172" lon="8.6806679" version="2" timestamp="2018-04-10T18:49:35Z" changeset="57982147" uid="3497659" user="NKA">
		<tag k="name" v="Kil" />
		<tag k="place" v="farm" />
		<tag k="ssr:stedsnr" v="304930" />
		<tag k="ssr:type" v="bruk" />
	</node>
	<node id="4470514917" lat="58.7955104" lon="8.8088038" version="2" timestamp="2018-04-10T18:49:36Z" changeset="57982147" uid="3497659" user="NKA">
		<tag k="name" v="Kilane" />
		<tag k="place" v="farm" />
		<tag k="ssr:stedsnr" v="365642" />
		<tag k="ssr:type" v="bruk" />
	</node>
	<node id="4470514918" lat="58.7950719" lon="8.802133" version="2" timestamp="2018-04-10T18:49:36Z" changeset="57982147" uid="3497659" user="NKA">
		<tag k="historic" v="yes" />
		<tag k="name" v="Kilansstøa" />
		<tag k="place" v="locality" />
		<tag k="ssr:stedsnr" v="214783" />
		<tag k="ssr:type" v="stø" />
	</node>
	<node id="4470514919" lat="58.7774267" lon="8.9772675" version="2" timestamp="2018-04-10T18:49:36Z" changeset="57982147" uid="3497659" user="NKA">
		<tag k="fixme" v="check position" />
		<tag k="historic" v="ruins" />
		<tag k="name" v="Kleggstøl" />
		<tag k="place" v="locality" />
		<tag k="ssr:stedsnr" v="395529" />
		<tag k="ssr:type" v="gammelBosettingsplass" />
	</node>
	<node id="4470514920" lat="58.6615998" lon="8.8048761" version="2" timestamp="2018-04-10T18:49:36Z" changeset="57982147" uid="3497659" user="NKA">
		<tag k="name" v="Kleiva" />
		<tag k="place" v="farm" />
		<tag k="ssr:stedsnr" v="122953" />
		<tag k="ssr:type" v="eneboligMindreBoligbygg" />
	</node>
	<node id="4470514921" lat="58.6630361" lon="8.7894745" version="2" timestamp="2018-04-10T18:49:36Z" changeset="57982147" uid="3497659" user="NKA">
		<tag k="name" v="Kleivane" />
		<tag k="place" v="farm" />
		<tag k="ssr:stedsnr" v="789943" />
		<tag k="ssr:type" v="bruk" />
	</node>
	<node id="4470514922" lat="58.66382" lon="8.7807144" version="2" timestamp="2018-04-10T18:49:36Z" changeset="57982147" uid="3497659" user="NKA">
		<tag k="name" v="Kleiveheia" />
		<tag k="place" v="farm" />
		<tag k="ssr:stedsnr" v="911938" />
		<tag k="ssr:type" v="bruk" />
	</node>
	<node id="4470514923" lat="58.7535047" lon="8.68567" version="3" timestamp="2021-03-17T07:18:14Z" changeset="101165750" uid="3497659" user="NKA">
		<tag k="name" v="Knatten" />
		<tag k="place" v="isolated_dwelling" />
		<tag k="ssr:stedsnr" v="92858" />
		<tag k="ssr:type" v="fritidsbolig" />
	</node>
	<node id="4470514924" lat="58.7208764" lon="8.6811422" version="2" timestamp="2018-04-10T18:49:36Z" changeset="57982147" uid="3497659" user="NKA">
		<tag k="fixme" v="check position" />
		<tag k="historic" v="ruins" />
		<tag k="name" v="Kollen" />
		<tag k="place" v="locality" />
		<tag k="ssr:stedsnr" v="820682" />
		<tag k="ssr:type" v="gammelBosettingsplass" />
	</node>
	<node id="4470514925" lat="58.7964287" lon="8.8213404" version="2" timestamp="2018-04-10T18:49:37Z" changeset="57982147" uid="3497659" user="NKA">
		<tag k="fixme" v="check position" />
		<tag k="historic" v="ruins" />
		<tag k="name" v="Korsli" />
		<tag k="place" v="locality" />
		<tag k="ssr:stedsnr" v="517761" />
		<tag k="ssr:type" v="gammelBosettingsplass" />
	</node>
	<node id="4470514926" lat="58.7114535" lon="8.6704966" version="2" timestamp="2018-04-10T18:49:37Z" changeset="57982147" uid="3497659" user="NKA">
		<tag k="fixme" v="check position" />
		<tag k="historic" v="ruins" />
		<tag k="name" v="Kringleås" />
		<tag k="place" v="locality" />
		<tag k="ssr:stedsnr" v="942749" />
		<tag k="ssr:type" v="gammelBosettingsplass" />
	</node>
	<node id="4470514927" lat="58.7484337" lon="8.8817216" version="2" timestamp="2018-04-10T18:49:37Z" changeset="57982147" uid="3497659" user="NKA">
		<tag k="name" v="Kroken" />
		<tag k="place" v="farm" />
		<tag k="ssr:stedsnr" v="243525" />
		<tag k="ssr:type" v="bruk" />
	</node>
	<node id="4470514928" lat="58.753723" lon="8.8814064" version="2" timestamp="2018-04-10T18:49:37Z" changeset="57982147" uid="3497659" user="NKA">
		<tag k="name" v="Kvennvollen" />
		<tag k="place" v="farm" />
		<tag k="ssr:stedsnr" v="638240" />
		<tag k="ssr:type" v="bruk" />
	</node>
	<node id="4470514929" lat="58.7258696" lon="8.9359385" version="2" timestamp="2018-04-10T18:49:37Z" changeset="57982147" uid="3497659" user="NKA">
		<tag k="name" v="Kvernhuslia" />
		<tag k="place" v="farm" />
		<tag k="ssr:stedsnr" v="183529" />
		<tag k="ssr:type" v="bruk" />
	</node>
	<node id="4470514930" lat="58.8161154" lon="8.8223386" version="2" timestamp="2018-04-10T18:49:37Z" changeset="57982147" uid="3497659" user="NKA">
		<tag k="name" v="Kvernnesroa" />
		<tag k="place" v="locality" />
		<tag k="ssr:stedsnr" v="638806" />
		<tag k="ssr:type" v="gammelBosettingsplass" />
	</node>
	<node id="4470514931" lat="58.7929879" lon="8.8598922" version="2" timestamp="2018-04-10T18:49:37Z" changeset="57982147" uid="3497659" user="NKA">
		<tag k="name" v="Kvifte" />
		<tag k="place" v="farm" />
		<tag k="ssr:stedsnr" v="426464" />
		<tag k="ssr:type" v="bruk" />
	</node>
	<node id="4470514932" lat="58.7444656" lon="8.7542889" version="3" timestamp="2018-04-26T06:12:46Z" changeset="58431417" uid="3497659" user="NKA">
		<tag k="alt_name" v="Kvisla" />
		<tag k="name" v="Sørdal" />
		<tag k="place" v="farm" />
		<tag k="ssr:stedsnr" v="547118" />
		<tag k="ssr:type" v="eneboligMindreBoligbygg" />
	</node>
	<node id="4470514933" lat="58.8197279" lon="8.9172807" version="2" timestamp="2018-04-10T18:49:38Z" changeset="57982147" uid="3497659" user="NKA">
		<tag k="name" v="Kvisli" />
		<tag k="place" v="farm" />
		<tag k="ssr:stedsnr" v="789043" />
		<tag k="ssr:type" v="bruk" />
	</node>
	<node id="4470514934" lat="58.7463104" lon="8.6725425" version="3" timestamp="2021-03-17T07:18:14Z" changeset="101165750" uid="3497659" user="NKA">
		<tag k="name" v="Kylland" />
		<tag k="place" v="isolated_dwelling" />
		<tag k="ssr:stedsnr" v="304032" />
		<tag k="ssr:type" v="fritidsbolig" />
	</node>
	<node id="4470514935" lat="58.7335277" lon="8.9337459" version="2" timestamp="2018-04-10T18:49:38Z" changeset="57982147" uid="3497659" user="NKA">
		<tag k="name" v="Langan" />
		<tag k="place" v="farm" />
		<tag k="ssr:stedsnr" v="244598" />
		<tag k="ssr:type" v="bruk" />
	</node>
	<node id="4470514936" lat="58.7280253" lon="8.7519109" version="2" timestamp="2018-04-10T18:49:38Z" changeset="57982147" uid="3497659" user="NKA">
		<tag k="name" v="Langmyr" />
		<tag k="place" v="farm" />
		<tag k="ssr:stedsnr" v="335139" />
		<tag k="ssr:type" v="eneboligMindreBoligbygg" />
	</node>
	<node id="4470514937" lat="58.7303892" lon="8.6692356" version="2" timestamp="2018-04-10T18:49:38Z" changeset="57982147" uid="3497659" user="NKA">
		<tag k="name" v="Lauvdal" />
		<tag k="place" v="farm" />
		<tag k="ssr:stedsnr" v="1116" />
		<tag k="ssr:type" v="eneboligMindreBoligbygg" />
	</node>
	<node id="4470514938" lat="58.7716146" lon="8.8422451" version="2" timestamp="2018-04-10T18:49:38Z" changeset="57982147" uid="3497659" user="NKA">
		<tag k="name" v="Lauve" />
		<tag k="place" v="hamlet" />
		<tag k="ssr:stedsnr" v="668570" />
		<tag k="ssr:type" v="bruk" />
	</node>
	<node id="4470514939" lat="58.7673237" lon="8.8490256" version="2" timestamp="2018-04-10T18:49:38Z" changeset="57982147" uid="3497659" user="NKA">
		<tag k="historic" v="ruins" />
		<tag k="name" v="Lauvland" />
		<tag k="place" v="locality" />
		<tag k="ssr:stedsnr" v="274292" />
		<tag k="ssr:type" v="gammelBosettingsplass" />
	</node>
	<node id="4470514940" lat="58.7768854" lon="8.8396857" version="2" timestamp="2018-04-10T18:49:38Z" changeset="57982147" uid="3497659" user="NKA">
		<tag k="historic" v="yes" />
		<tag k="name" v="Lauvstøa" />
		<tag k="place" v="locality" />
		<tag k="ssr:stedsnr" v="881066" />
		<tag k="ssr:type" v="stø" />
	</node>
	<node id="4470514941" lat="58.7615496" lon="8.7301724" version="2" timestamp="2018-04-10T18:49:38Z" changeset="57982147" uid="3497659" user="NKA">
		<tag k="alt_name" v="Leiulvstad" />
		<tag k="name" v="Leiulstad" />
		<tag k="place" v="farm" />
		<tag k="ssr:stedsnr" v="122516" />
		<tag k="ssr:type" v="bruk" />
	</node>
	<node id="4470514942" lat="58.6588916" lon="8.7885423" version="2" timestamp="2018-04-10T18:49:39Z" changeset="57982147" uid="3497659" user="NKA">
		<tag k="fixme" v="check position" />
		<tag k="historic" v="ruins" />
		<tag k="name" v="Lia nedre" />
		<tag k="place" v="locality" />
		<tag k="ssr:stedsnr" v="92127" />
		<tag k="ssr:type" v="gammelBosettingsplass" />
	</node>
	<node id="4470514943" lat="58.6595781" lon="8.788531" version="2" timestamp="2018-04-10T18:49:39Z" changeset="57982147" uid="3497659" user="NKA">
		<tag k="alt_name" v="Lia øvre;Øvre Lia" />
		<tag k="name" v="Lia" />
		<tag k="place" v="farm" />
		<tag k="ssr:stedsnr" v="1949" />
		<tag k="ssr:type" v="eneboligMindreBoligbygg" />
	</node>
	<node id="4470514944" lat="58.7070175" lon="8.9222975" version="2" timestamp="2018-04-10T18:49:39Z" changeset="57982147" uid="3497659" user="NKA">
		<tag k="name" v="Lia" />
		<tag k="place" v="farm" />
		<tag k="ssr:stedsnr" v="789591" />
		<tag k="ssr:type" v="bruk" />
	</node>
	<node id="4470514945" lat="58.7598514" lon="8.91141" version="2" timestamp="2018-04-10T18:49:39Z" changeset="57982147" uid="3497659" user="NKA">
		<tag k="fixme" v="check position" />
		<tag k="historic" v="ruins" />
		<tag k="name" v="Lia" />
		<tag k="place" v="locality" />
		<tag k="ssr:stedsnr" v="699261" />
		<tag k="ssr:type" v="gammelBosettingsplass" />
	</node>
	<node id="4470514946" lat="58.8122093" lon="8.9903893" version="2" timestamp="2018-04-10T18:49:39Z" changeset="57982147" uid="3497659" user="NKA">
		<tag k="name" v="Lia" />
		<tag k="place" v="farm" />
		<tag k="ssr:stedsnr" v="365016" />
		<tag k="ssr:type" v="bruk" />
	</node>
	<node id="4470514947" lat="58.7144189" lon="8.6570415" version="2" timestamp="2018-04-10T18:49:39Z" changeset="57982147" uid="3497659" user="NKA">
		<tag k="fixme" v="check position" />
		<tag k="historic" v="ruins" />
		<tag k="name" v="Liansvollen" />
		<tag k="place" v="locality" />
		<tag k="ssr:stedsnr" v="577742" />
		<tag k="ssr:type" v="gammelBosettingsplass" />
	</node>
	<node id="4470514948" lat="58.7639103" lon="8.8427189" version="2" timestamp="2018-04-10T18:49:39Z" changeset="57982147" uid="3497659" user="NKA">
		<tag k="fixme" v="check position" />
		<tag k="historic" v="ruins" />
		<tag k="name" v="Liaplassen" />
		<tag k="place" v="locality" />
		<tag k="ssr:stedsnr" v="638312" />
		<tag k="ssr:type" v="gammelBosettingsplass" />
	</node>
	<node id="4470514949" lat="58.7518566" lon="9.0024804" version="2" timestamp="2018-04-10T18:49:39Z" changeset="57982147" uid="3497659" user="NKA">
		<tag k="name" v="Limyra" />
		<tag k="place" v="farm" />
		<tag k="ssr:stedsnr" v="911357" />
		<tag k="ssr:type" v="bruk" />
	</node>
	<node id="4470514950" lat="58.8010887" lon="8.8497106" version="2" timestamp="2018-04-10T18:49:40Z" changeset="57982147" uid="3497659" user="NKA">
		<tag k="name" v="Lindtveit" />
		<tag k="place" v="farm" />
		<tag k="ssr:stedsnr" v="729014" />
		<tag k="ssr:type" v="bruk" />
	</node>
	<node id="4470514951" lat="58.808362" lon="8.8548512" version="2" timestamp="2018-04-10T18:49:40Z" changeset="57982147" uid="3497659" user="NKA">
		<tag k="name" v="Lindtveitstranda" />
		<tag k="place" v="farm" />
		<tag k="ssr:stedsnr" v="122016" />
		<tag k="ssr:type" v="bruk" />
	</node>
	<node id="4470514952" lat="58.8351999" lon="8.8901701" version="2" timestamp="2018-04-10T18:49:40Z" changeset="57982147" uid="3497659" user="NKA">
		<tag k="fixme" v="check position" />
		<tag k="historic" v="ruins" />
		<tag k="name" v="Linmoen" />
		<tag k="place" v="locality" />
		<tag k="ssr:stedsnr" v="577420" />
		<tag k="ssr:type" v="gammelBosettingsplass" />
	</node>
	<node id="4470514953" lat="58.6417601" lon="8.8237083" version="2" timestamp="2018-04-10T18:49:40Z" changeset="57982147" uid="3497659" user="NKA">
		<tag k="historic" v="yes" />
		<tag k="name" v="Lisbetstø" />
		<tag k="place" v="locality" />
		<tag k="ssr:stedsnr" v="881713" />
		<tag k="ssr:type" v="stø" />
	</node>
	<node id="4470514954" lat="58.6558097" lon="8.7823698" version="2" timestamp="2018-04-10T18:49:40Z" changeset="57982147" uid="3497659" user="NKA">
		<tag k="name" v="Livoll" />
		<tag k="place" v="farm" />
		<tag k="ssr:stedsnr" v="214112" />
		<tag k="ssr:type" v="bruk" />
	</node>
	<node id="4470514955" lat="58.7536372" lon="8.8855522" version="2" timestamp="2018-04-10T18:49:40Z" changeset="57982147" uid="3497659" user="NKA">
		<tag k="name" v="Ljøstad" />
		<tag k="place" v="farm" />
		<tag k="ssr:stedsnr" v="789373" />
		<tag k="ssr:type" v="bruk" />
	</node>
	<node id="4470514956" lat="58.7055529" lon="8.8022178" version="3" timestamp="2018-04-28T08:07:03Z" changeset="58497758" uid="3497659" user="NKA">
		<tag k="historic" v="shieling" />
		<tag k="name" v="Lonstølen" />
		<tag k="place" v="locality" />
		<tag k="ssr:stedsnr" v="214016" />
		<tag k="ssr:type" v="seterStøl" />
	</node>
	<node id="4470514957" lat="58.7504465" lon="8.7467423" version="2" timestamp="2018-04-10T18:49:40Z" changeset="57982147" uid="3497659" user="NKA">
		<tag k="name" v="Lunde" />
		<tag k="place" v="farm" />
		<tag k="ssr:stedsnr" v="881182" />
		<tag k="ssr:type" v="bruk" />
	</node>
	<node id="4470514958" lat="58.8013669" lon="8.8539156" version="2" timestamp="2018-04-10T18:49:40Z" changeset="57982147" uid="3497659" user="NKA">
		<tag k="name" v="Lunde" />
		<tag k="place" v="farm" />
		<tag k="ssr:stedsnr" v="820378" />
		<tag k="ssr:type" v="eneboligMindreBoligbygg" />
	</node>
	<node id="4470514959" lat="58.7605933" lon="8.9110579" version="2" timestamp="2018-04-10T18:49:41Z" changeset="57982147" uid="3497659" user="NKA">
		<tag k="fixme" v="check position" />
		<tag k="historic" v="ruins" />
		<tag k="name" v="Lunden" />
		<tag k="place" v="locality" />
		<tag k="ssr:stedsnr" v="214257" />
		<tag k="ssr:type" v="gammelBosettingsplass" />
	</node>
	<node id="4470514960" lat="58.762331" lon="8.9125727" version="2" timestamp="2018-04-10T18:49:41Z" changeset="57982147" uid="3497659" user="NKA">
		<tag k="name" v="Lundheim" />
		<tag k="place" v="farm" />
		<tag k="ssr:stedsnr" v="426373" />
		<tag k="ssr:type" v="bruk" />
	</node>
	<node id="4470514961" lat="58.7405822" lon="8.6566604" version="3" timestamp="2021-03-17T07:18:14Z" changeset="101165750" uid="3497659" user="NKA">
		<tag k="name" v="Lundstøl" />
		<tag k="place" v="locality" />
		<tag k="ssr:stedsnr" v="668016" />
		<tag k="ssr:type" v="fritidsbolig" />
	</node>
	<node id="4470514962" lat="58.6938187" lon="8.9361061" version="2" timestamp="2018-04-10T18:49:41Z" changeset="57982147" uid="3497659" user="NKA">
		<tag k="fixme" v="check position" />
		<tag k="historic" v="ruins" />
		<tag k="name" v="Lyngrot" />
		<tag k="place" v="locality" />
		<tag k="ssr:stedsnr" v="881465" />
		<tag k="ssr:type" v="gammelBosettingsplass" />
	</node>
	<node id="4470514963" lat="58.8258106" lon="8.8108413" version="2" timestamp="2018-04-10T18:49:41Z" changeset="57982147" uid="3497659" user="NKA">
		<tag k="name" v="Lyngvassdalen" />
		<tag k="place" v="farm" />
		<tag k="ssr:stedsnr" v="668689" />
		<tag k="ssr:type" v="eneboligMindreBoligbygg" />
	</node>
	<node id="4470514964" lat="58.7675899" lon="8.7007393" version="2" timestamp="2018-04-10T18:49:41Z" changeset="57982147" uid="3497659" user="NKA">
		<tag k="name" v="Løvnes" />
		<tag k="place" v="farm" />
		<tag k="ssr:stedsnr" v="304489" />
		<tag k="ssr:type" v="bruk" />
	</node>
	<node id="4470514965" lat="58.7807875" lon="8.7398194" version="2" timestamp="2018-04-10T18:49:41Z" changeset="57982147" uid="3497659" user="NKA">
		<tag k="name" v="Mjåvatn" />
		<tag k="place" v="hamlet" />
		<tag k="ssr:stedsnr" v="62523" />
		<tag k="ssr:type" v="bruk" />
	</node>
	<node id="4470514966" lat="58.8342569" lon="8.883142" version="2" timestamp="2018-04-10T18:49:41Z" changeset="57982147" uid="3497659" user="NKA">
		<tag k="name" v="Mo" />
		<tag k="place" v="hamlet" />
		<tag k="ssr:stedsnr" v="304072" />
		<tag k="ssr:type" v="bruk" />
	</node>
	<node id="4470514967" lat="58.6776543" lon="8.8242546" version="2" timestamp="2018-04-10T18:49:42Z" changeset="57982147" uid="3497659" user="NKA">
		<tag k="name" v="Moen" />
		<tag k="place" v="farm" />
		<tag k="ssr:stedsnr" v="92684" />
		<tag k="ssr:type" v="bruk" />
	</node>
	<node id="4470514968" lat="58.7528199" lon="8.744882" version="2" timestamp="2018-04-10T18:49:42Z" changeset="57982147" uid="3497659" user="NKA">
		<tag k="name" v="Mohaug" />
		<tag k="place" v="farm" />
		<tag k="ssr:stedsnr" v="31190" />
		<tag k="ssr:type" v="eneboligMindreBoligbygg" />
	</node>
	<node id="4470514969" lat="58.7481524" lon="8.7431596" version="2" timestamp="2018-04-10T18:49:42Z" changeset="57982147" uid="3497659" user="NKA">
		<tag k="alt_name" v="Nordheim" />
		<tag k="name" v="Moheim" />
		<tag k="place" v="farm" />
		<tag k="ssr:stedsnr" v="62034" />
		<tag k="ssr:type" v="bruk" />
	</node>
	<node id="4470514970" lat="58.7607824" lon="8.8601559" version="3" timestamp="2021-03-17T07:18:14Z" changeset="101165750" uid="3497659" user="NKA">
		<tag k="name" v="Moland" />
		<tag k="place" v="isolated_dwelling" />
		<tag k="ssr:stedsnr" v="365403" />
		<tag k="ssr:type" v="fritidsbolig" />
	</node>
	<node id="4470514971" lat="58.7338861" lon="8.7493901" version="2" timestamp="2018-04-10T18:49:42Z" changeset="57982147" uid="3497659" user="NKA">
		<tag k="alt_name" v="Maste" />
		<tag k="name" v="Mosti" />
		<tag k="place" v="farm" />
		<tag k="ssr:stedsnr" v="96" />
		<tag k="ssr:type" v="bruk" />
	</node>
	<node id="4470514972" lat="58.7396363" lon="8.9901852" version="2" timestamp="2018-04-10T18:49:42Z" changeset="57982147" uid="3497659" user="NKA">
		<tag k="name" v="Myra" />
		<tag k="place" v="farm" />
		<tag k="ssr:stedsnr" v="122510" />
		<tag k="ssr:type" v="bruk" />
	</node>
	<node id="4470514973" lat="58.739084" lon="8.8473785" version="2" timestamp="2018-04-10T18:49:42Z" changeset="57982147" uid="3497659" user="NKA">
		<tag k="name" v="Myre" />
		<tag k="place" v="farm" />
		<tag k="ssr:stedsnr" v="365542" />
		<tag k="ssr:type" v="bruk" />
	</node>
	<node id="4470514974" lat="58.7219697" lon="8.9762172" version="2" timestamp="2018-04-10T18:49:42Z" changeset="57982147" uid="3497659" user="NKA">
		<tag k="name" v="Myrvang" />
		<tag k="place" v="farm" />
		<tag k="ssr:stedsnr" v="790596" />
		<tag k="ssr:type" v="bruk" />
	</node>
	<node id="4470514975" lat="58.7495874" lon="8.9429645" version="2" timestamp="2018-04-10T18:49:42Z" changeset="57982147" uid="3497659" user="NKA">
		<tag k="alt_name" v="Mønetjern" />
		<tag k="name" v="Mønekjenn" />
		<tag k="place" v="farm" />
		<tag k="ssr:stedsnr" v="61336" />
		<tag k="ssr:type" v="bruk" />
	</node>
	<node id="4470514976" lat="58.7232978" lon="8.8389777" version="2" timestamp="2018-04-10T18:49:42Z" changeset="57982147" uid="3497659" user="NKA">
		<tag k="fixme" v="check position" />
		<tag k="historic" v="ruins" />
		<tag k="name" v="Nedre Gjerslia" />
		<tag k="place" v="locality" />
		<tag k="ssr:stedsnr" v="699060" />
		<tag k="ssr:type" v="gammelBosettingsplass" />
	</node>
	<node id="4470514977" lat="58.7285444" lon="8.7370879" version="2" timestamp="2018-04-10T18:49:43Z" changeset="57982147" uid="3497659" user="NKA">
		<tag k="fixme" v="check position" />
		<tag k="historic" v="ruins" />
		<tag k="name" v="Nedre Stea" />
		<tag k="place" v="locality" />
		<tag k="ssr:stedsnr" v="638133" />
		<tag k="ssr:type" v="gammelBosettingsplass" />
	</node>
	<node id="4470514978" lat="58.7255007" lon="8.6894615" version="2" timestamp="2018-04-10T18:49:43Z" changeset="57982147" uid="3497659" user="NKA">
		<tag k="fixme" v="check position" />
		<tag k="historic" v="ruins" />
		<tag k="name" v="Nedre Venli" />
		<tag k="place" v="locality" />
		<tag k="ssr:stedsnr" v="395716" />
		<tag k="ssr:type" v="gammelBosettingsplass" />
	</node>
	<node id="4470514979" lat="58.7903491" lon="8.8288828" version="2" timestamp="2018-04-10T18:49:43Z" changeset="57982147" uid="3497659" user="NKA">
		<tag k="name" v="Nes" />
		<tag k="place" v="hamlet" />
		<tag k="ssr:stedsnr" v="790637" />
		<tag k="ssr:type" v="bruk" />
	</node>
	<node id="4470514980" lat="58.7934299" lon="8.9716052" version="3" timestamp="2021-03-17T07:18:14Z" changeset="101165750" uid="3497659" user="NKA">
		<tag k="name" v="Neset" />
		<tag k="place" v="isolated_dwelling" />
		<tag k="ssr:stedsnr" v="1496" />
		<tag k="ssr:type" v="fritidsbolig" />
	</node>
	<node id="4470514981" lat="58.7871911" lon="8.8303773" version="2" timestamp="2018-04-10T18:49:43Z" changeset="57982147" uid="3497659" user="NKA">
		<tag k="name" v="Nesland" />
		<tag k="place" v="farm" />
		<tag k="ssr:stedsnr" v="699066" />
		<tag k="ssr:type" v="bruk" />
	</node>
	<node id="4470514982" lat="58.7908109" lon="8.8383961" version="2" timestamp="2018-04-10T18:49:43Z" changeset="57982147" uid="3497659" user="NKA">
		<tag k="name" v="Nesstranda" />
		<tag k="place" v="farm" />
		<tag k="ssr:stedsnr" v="214072" />
		<tag k="ssr:type" v="eneboligMindreBoligbygg" />
	</node>
	<node id="4470514983" lat="58.6823534" lon="8.8275881" version="2" timestamp="2018-04-10T18:49:43Z" changeset="57982147" uid="3497659" user="NKA">
		<tag k="fixme" v="check position" />
		<tag k="historic" v="ruins" />
		<tag k="name" v="Nordbråten" />
		<tag k="place" v="locality" />
		<tag k="ssr:stedsnr" v="456053" />
		<tag k="ssr:type" v="gammelBosettingsplass" />
	</node>
	<node id="4470514984" lat="58.7464117" lon="8.7449448" version="2" timestamp="2018-04-10T18:49:43Z" changeset="57982147" uid="3497659" user="NKA">
		<tag k="name" v="Norddal" />
		<tag k="place" v="farm" />
		<tag k="ssr:stedsnr" v="304036" />
		<tag k="ssr:type" v="bruk" />
	</node>
	<node id="4470514985" lat="58.7118201" lon="8.7964266" version="2" timestamp="2018-04-10T18:49:44Z" changeset="57982147" uid="3497659" user="NKA">
		<tag k="name" v="Nordheim" />
		<tag k="place" v="farm" />
		<tag k="ssr:stedsnr" v="789058" />
		<tag k="ssr:type" v="bruk" />
	</node>
	<node id="4470514986" lat="58.6933794" lon="8.7548932" version="2" timestamp="2018-04-10T18:49:44Z" changeset="57982147" uid="3497659" user="NKA">
		<tag k="name" v="Nordigard" />
		<tag k="place" v="farm" />
		<tag k="ssr:stedsnr" v="699030" />
		<tag k="ssr:type" v="bruk" />
	</node>
	<node id="4470514987" lat="58.732174" lon="8.8011205" version="2" timestamp="2018-04-10T18:49:44Z" changeset="57982147" uid="3497659" user="NKA">
		<tag k="name" v="Nordre Dalshov" />
		<tag k="place" v="farm" />
		<tag k="ssr:stedsnr" v="517190" />
		<tag k="ssr:type" v="bruk" />
	</node>
	<node id="4470514988" lat="58.7001454" lon="8.7664303" version="2" timestamp="2018-04-10T18:49:44Z" changeset="57982147" uid="3497659" user="NKA">
		<tag k="name" v="Norkjenn" />
		<tag k="place" v="farm" />
		<tag k="ssr:stedsnr" v="214188" />
		<tag k="ssr:type" v="bruk" />
	</node>
	<node id="4470514989" lat="58.7241915" lon="8.8645481" version="2" timestamp="2018-04-10T18:49:44Z" changeset="57982147" uid="3497659" user="NKA">
		<tag k="name" v="Norum" />
		<tag k="place" v="farm" />
		<tag k="ssr:stedsnr" v="1586" />
		<tag k="ssr:type" v="bruk" />
	</node>
	<node id="4470514990" lat="58.8300046" lon="8.9252427" version="3" timestamp="2021-03-17T07:18:14Z" changeset="101165750" uid="3497659" user="NKA">
		<tag k="name" v="Nuten" />
		<tag k="place" v="isolated_dwelling" />
		<tag k="ssr:stedsnr" v="304074" />
		<tag k="ssr:type" v="fritidsbolig" />
	</node>
	<node id="4470514991" lat="58.7986168" lon="8.9429737" version="2" timestamp="2018-04-10T18:49:44Z" changeset="57982147" uid="3497659" user="NKA">
		<tag k="name" v="Nybø" />
		<tag k="place" v="farm" />
		<tag k="ssr:stedsnr" v="214609" />
		<tag k="ssr:type" v="eneboligMindreBoligbygg" />
	</node>
	<node id="4470514992" lat="58.7534247" lon="8.945971" version="2" timestamp="2018-04-10T18:49:44Z" changeset="57982147" uid="3497659" user="NKA">
		<tag k="alt_name" v="Nerestad" />
		<tag k="name" v="Nærestad" />
		<tag k="place" v="hamlet" />
		<tag k="ssr:stedsnr" v="364358" />
		<tag k="ssr:type" v="bruk" />
	</node>
	<node id="4470514993" lat="58.7595118" lon="8.9192477" version="2" timestamp="2018-04-10T18:49:44Z" changeset="57982147" uid="3497659" user="NKA">
		<tag k="alt_name" v="Olemstad" />
		<tag k="name" v="Olimstad" />
		<tag k="place" v="farm" />
		<tag k="ssr:stedsnr" v="911415" />
		<tag k="ssr:type" v="bruk" />
	</node>
	<node id="4470514994" lat="58.7057877" lon="8.7435777" version="2" timestamp="2018-04-10T18:49:45Z" changeset="57982147" uid="3497659" user="NKA">
		<tag k="alt_name" v="Ormshamar" />
		<tag k="name" v="Ormshammer" />
		<tag k="place" v="farm" />
		<tag k="ssr:stedsnr" v="365089" />
		<tag k="ssr:type" v="bruk" />
	</node>
	<node id="4470514995" lat="58.8642518" lon="8.7970618" version="3" timestamp="2021-03-17T07:18:14Z" changeset="101165750" uid="3497659" user="NKA">
		<tag k="name" v="Ormtjennhovhytta" />
		<tag k="place" v="isolated_dwelling" />
		<tag k="ssr:stedsnr" v="881929" />
		<tag k="ssr:type" v="fritidsbolig" />
	</node>
	<node id="4470514996" lat="58.7009551" lon="8.7271869" version="2" timestamp="2018-04-10T18:49:45Z" changeset="57982147" uid="3497659" user="NKA">
		<tag k="fixme" v="check position" />
		<tag k="historic" v="ruins" />
		<tag k="name" v="Ospelunden" />
		<tag k="place" v="locality" />
		<tag k="ssr:stedsnr" v="638191" />
		<tag k="ssr:type" v="gammelBosettingsplass" />
	</node>
	<node id="4470514997" lat="58.8350394" lon="8.8658574" version="2" timestamp="2018-04-10T18:49:45Z" changeset="57982147" uid="3497659" user="NKA">
		<tag k="fixme" v="check position" />
		<tag k="historic" v="ruins" />
		<tag k="name" v="Plassen" />
		<tag k="place" v="locality" />
		<tag k="ssr:stedsnr" v="31423" />
		<tag k="ssr:type" v="gammelBosettingsplass" />
	</node>
	<node id="4470514998" lat="58.7357668" lon="8.9254433" version="2" timestamp="2018-04-10T18:49:45Z" changeset="57982147" uid="3497659" user="NKA">
		<tag k="name" v="Ramsland" />
		<tag k="place" v="farm" />
		<tag k="ssr:stedsnr" v="183521" />
		<tag k="ssr:type" v="bruk" />
	</node>
	<node id="4470514999" lat="58.7258315" lon="8.8916322" version="2" timestamp="2018-04-10T18:49:45Z" changeset="57982147" uid="3497659" user="NKA">
		<tag k="fixme" v="check position" />
		<tag k="historic" v="ruins" />
		<tag k="name" v="Raudkleiv" />
		<tag k="place" v="locality" />
		<tag k="ssr:stedsnr" v="942351" />
		<tag k="ssr:type" v="gammelBosettingsplass" />
	</node>
	<node id="4470515000" lat="58.792513" lon="8.7071644" version="2" timestamp="2018-04-10T18:49:45Z" changeset="57982147" uid="3497659" user="NKA">
		<tag k="name" v="Raudsandmoen" />
		<tag k="place" v="hamlet" />
		<tag k="ssr:stedsnr" v="790658" />
		<tag k="ssr:type" v="bruk" />
	</node>
	<node id="4470515001" lat="58.7910179" lon="8.709418" version="2" timestamp="2018-04-10T18:49:46Z" changeset="57982147" uid="3497659" user="NKA">
		<tag k="name" v="Raudsandtangen" />
		<tag k="place" v="farm" />
		<tag k="ssr:stedsnr" v="122605" />
		<tag k="ssr:type" v="bruk" />
	</node>
	<node id="4470515002" lat="58.7956555" lon="8.7065675" version="2" timestamp="2018-04-10T18:49:46Z" changeset="57982147" uid="3497659" user="NKA">
		<tag k="alt_name" v="Raudsandlia" />
		<tag k="name" v="Rausandlia" />
		<tag k="place" v="farm" />
		<tag k="ssr:stedsnr" v="1634" />
		<tag k="ssr:type" v="bruk" />
	</node>
	<node id="4470515003" lat="58.8190904" lon="8.8384668" version="3" timestamp="2021-03-17T07:18:14Z" changeset="101165750" uid="3497659" user="NKA">
		<tag k="name" v="Rennsunda" />
		<tag k="place" v="isolated_dwelling" />
		<tag k="ssr:stedsnr" v="122652" />
		<tag k="ssr:type" v="fritidsbolig" />
	</node>
	<node id="4470515004" lat="58.7704185" lon="8.9072721" version="2" timestamp="2018-04-10T18:49:46Z" changeset="57982147" uid="3497659" user="NKA">
		<tag k="alt_name" v="Rindan" />
		<tag k="name" v="Rindar" />
		<tag k="place" v="farm" />
		<tag k="ssr:stedsnr" v="304426" />
		<tag k="ssr:type" v="bruk" />
	</node>
	<node id="4470515005" lat="58.8057283" lon="8.8890843" version="2" timestamp="2018-04-10T18:49:46Z" changeset="57982147" uid="3497659" user="NKA">
		<tag k="name" v="Romundstad" />
		<tag k="place" v="farm" />
		<tag k="ssr:stedsnr" v="61001" />
		<tag k="ssr:type" v="bruk" />
	</node>
	<node id="4470515006" lat="58.8073443" lon="8.8863677" version="2" timestamp="2018-04-10T18:49:46Z" changeset="57982147" uid="3497659" user="NKA">
		<tag k="name" v="Romundstadstranda" />
		<tag k="place" v="farm" />
		<tag k="ssr:stedsnr" v="153099" />
		<tag k="ssr:type" v="bruk" />
	</node>
	<node id="4470515007" lat="58.7261189" lon="8.7790797" version="2" timestamp="2018-04-10T18:49:46Z" changeset="57982147" uid="3497659" user="NKA">
		<tag k="fixme" v="check position" />
		<tag k="historic" v="ruins" />
		<tag k="name" v="Rotkleivdalen" />
		<tag k="place" v="locality" />
		<tag k="ssr:stedsnr" v="699155" />
		<tag k="ssr:type" v="gammelBosettingsplass" />
	</node>
	<node id="4470515008" lat="58.7827612" lon="8.8272166" version="2" timestamp="2018-04-10T18:49:46Z" changeset="57982147" uid="3497659" user="NKA">
		<tag k="name" v="Rugnes" />
		<tag k="place" v="farm" />
		<tag k="ssr:stedsnr" v="1607" />
		<tag k="ssr:type" v="eneboligMindreBoligbygg" />
	</node>
	<node id="4470515009" lat="58.7806422" lon="8.8279806" version="2" timestamp="2018-04-10T18:49:47Z" changeset="57982147" uid="3497659" user="NKA">
		<tag k="name" v="Rugnesmoen" />
		<tag k="place" v="farm" />
		<tag k="ssr:stedsnr" v="304511" />
		<tag k="ssr:type" v="bruk" />
	</node>
	<node id="4470515010" lat="58.7830523" lon="8.8305021" version="3" timestamp="2021-03-17T07:18:14Z" changeset="101165750" uid="3497659" user="NKA">
		<tag k="name" v="Rugnestangen" />
		<tag k="place" v="isolated_dwelling" />
		<tag k="ssr:stedsnr" v="31062" />
		<tag k="ssr:type" v="fritidsbolig" />
	</node>
	<node id="4470515011" lat="58.7344972" lon="8.996957" version="2" timestamp="2018-04-10T18:49:47Z" changeset="57982147" uid="3497659" user="NKA">
		<tag k="name" v="Rundholt" />
		<tag k="place" v="farm" />
		<tag k="ssr:stedsnr" v="607551" />
		<tag k="ssr:type" v="bruk" />
	</node>
	<node id="4470515012" lat="58.6878544" lon="8.915615" version="2" timestamp="2018-04-10T18:49:47Z" changeset="57982147" uid="3497659" user="NKA">
		<tag k="fixme" v="check position" />
		<tag k="historic" v="ruins" />
		<tag k="name" v="Rundmyr" />
		<tag k="place" v="locality" />
		<tag k="ssr:stedsnr" v="638075" />
		<tag k="ssr:type" v="gammelBosettingsplass" />
	</node>
	<node id="4470515013" lat="58.8106465" lon="8.9364579" version="2" timestamp="2018-04-10T18:49:47Z" changeset="57982147" uid="3497659" user="NKA">
		<tag k="name" v="Rås" />
		<tag k="place" v="farm" />
		<tag k="ssr:stedsnr" v="668030" />
		<tag k="ssr:type" v="bruk" />
	</node>
	<node id="4470515014" lat="58.710074" lon="8.8761228" version="2" timestamp="2018-04-10T18:49:47Z" changeset="57982147" uid="3497659" user="NKA">
		<tag k="historic" v="ruins" />
		<tag k="name" v="Rød" />
		<tag k="place" v="locality" />
		<tag k="ssr:stedsnr" v="517390" />
		<tag k="ssr:type" v="gammelBosettingsplass" />
	</node>
	<node id="4470515015" lat="58.7495113" lon="8.954597" version="2" timestamp="2018-04-10T18:49:47Z" changeset="57982147" uid="3497659" user="NKA">
		<tag k="name" v="Rød" />
		<tag k="place" v="farm" />
		<tag k="ssr:stedsnr" v="122497" />
		<tag k="ssr:type" v="bruk" />
	</node>
	<node id="4470515016" lat="58.7681716" lon="8.9203016" version="2" timestamp="2018-04-10T18:49:47Z" changeset="57982147" uid="3497659" user="NKA">
		<tag k="name" v="Rønholt" />
		<tag k="place" v="farm" />
		<tag k="ssr:stedsnr" v="729437" />
		<tag k="ssr:type" v="bruk" />
	</node>
	<node id="4470515017" lat="58.6643515" lon="8.8199203" version="2" timestamp="2018-04-10T18:49:47Z" changeset="57982147" uid="3497659" user="NKA">
		<tag k="fixme" v="check position" />
		<tag k="historic" v="ruins" />
		<tag k="name" v="Rønningen" />
		<tag k="place" v="locality" />
		<tag k="ssr:stedsnr" v="31154" />
		<tag k="ssr:type" v="gammelBosettingsplass" />
	</node>
	<node id="4470515018" lat="58.7806841" lon="8.9485333" version="3" timestamp="2021-03-17T07:18:14Z" changeset="101165750" uid="3497659" user="NKA">
		<tag k="name" v="Rønningen" />
		<tag k="place" v="isolated_dwelling" />
		<tag k="ssr:stedsnr" v="638590" />
		<tag k="ssr:type" v="fritidsbolig" />
	</node>
	<node id="4470515019" lat="58.7838707" lon="8.7325409" version="2" timestamp="2018-04-10T18:49:48Z" changeset="57982147" uid="3497659" user="NKA">
		<tag k="fixme" v="check position" />
		<tag k="historic" v="ruins" />
		<tag k="name" v="Rønningen" />
		<tag k="place" v="locality" />
		<tag k="ssr:stedsnr" v="92842" />
		<tag k="ssr:type" v="gammelBosettingsplass" />
	</node>
	<node id="4470515020" lat="58.7946403" lon="8.8375517" version="2" timestamp="2018-04-10T18:49:48Z" changeset="57982147" uid="3497659" user="NKA">
		<tag k="fixme" v="check position" />
		<tag k="historic" v="ruins" />
		<tag k="name" v="Rønningen" />
		<tag k="place" v="locality" />
		<tag k="ssr:stedsnr" v="214070" />
		<tag k="ssr:type" v="gammelBosettingsplass" />
	</node>
	<node id="4470515021" lat="58.7321013" lon="8.9308088" version="2" timestamp="2018-04-10T18:49:48Z" changeset="57982147" uid="3497659" user="NKA">
		<tag k="name" v="Rønnås" />
		<tag k="place" v="farm" />
		<tag k="ssr:stedsnr" v="244595" />
		<tag k="ssr:type" v="eneboligMindreBoligbygg" />
	</node>
	<node id="4470515022" lat="58.6810585" lon="8.8298734" version="2" timestamp="2018-04-10T18:49:48Z" changeset="57982147" uid="3497659" user="NKA">
		<tag k="fixme" v="check position" />
		<tag k="historic" v="ruins" />
		<tag k="name" v="Røysland" />
		<tag k="place" v="locality" />
		<tag k="ssr:stedsnr" v="881045" />
		<tag k="ssr:type" v="gammelBosettingsplass" />
	</node>
	<node id="4470515023" lat="58.6933168" lon="8.845484" version="2" timestamp="2018-04-10T18:49:48Z" changeset="57982147" uid="3497659" user="NKA">
		<tag k="fixme" v="check position" />
		<tag k="historic" v="ruins" />
		<tag k="name" v="Røysland" />
		<tag k="place" v="locality" />
		<tag k="ssr:stedsnr" v="517418" />
		<tag k="ssr:type" v="gammelBosettingsplass" />
	</node>
	<node id="4470515024" lat="58.6997315" lon="8.7837036" version="2" timestamp="2018-04-10T18:49:48Z" changeset="57982147" uid="3497659" user="NKA">
		<tag k="fixme" v="check position" />
		<tag k="historic" v="ruins" />
		<tag k="name" v="Røysland" />
		<tag k="place" v="locality" />
		<tag k="ssr:stedsnr" v="153059" />
		<tag k="ssr:type" v="gammelBosettingsplass" />
	</node>
	<node id="4470515025" lat="58.7389174" lon="8.9959842" version="2" timestamp="2018-04-10T18:49:49Z" changeset="57982147" uid="3497659" user="NKA">
		<tag k="name" v="Saga" />
		<tag k="place" v="locality" />
		<tag k="ssr:stedsnr" v="911545" />
		<tag k="ssr:type" v="eneboligMindreBoligbygg" />
	</node>
	<node id="4470515026" lat="58.7499123" lon="8.8709505" version="2" timestamp="2018-04-10T18:49:49Z" changeset="57982147" uid="3497659" user="NKA">
		<tag k="name" v="Saga" />
		<tag k="place" v="farm" />
		<tag k="ssr:stedsnr" v="92263" />
		<tag k="ssr:type" v="bruk" />
	</node>
	<node id="4470515027" lat="58.6893595" lon="8.8252378" version="2" timestamp="2018-04-10T18:49:49Z" changeset="57982147" uid="3497659" user="NKA">
		<tag k="name" v="Saglia" />
		<tag k="place" v="farm" />
		<tag k="ssr:stedsnr" v="1922" />
		<tag k="ssr:type" v="eneboligMindreBoligbygg" />
	</node>
	<node id="4470515028" lat="58.6918291" lon="8.7895131" version="2" timestamp="2018-04-10T18:49:49Z" changeset="57982147" uid="3497659" user="NKA">
		<tag k="name" v="Seland" />
		<tag k="place" v="farm" />
		<tag k="ssr:stedsnr" v="851930" />
		<tag k="ssr:type" v="eneboligMindreBoligbygg" />
	</node>
	<node id="4470515029" lat="58.6923694" lon="8.7599725" version="2" timestamp="2018-04-10T18:49:49Z" changeset="57982147" uid="3497659" user="NKA">
		<tag k="name" v="Selås" />
		<tag k="place" v="farm" />
		<tag k="ssr:stedsnr" v="365914" />
		<tag k="ssr:type" v="bruk" />
	</node>
	<node id="4470515030" lat="58.6913726" lon="8.765116" version="2" timestamp="2018-04-10T18:49:49Z" changeset="57982147" uid="3497659" user="NKA">
		<tag k="name" v="Selåsdalen" />
		<tag k="place" v="farm" />
		<tag k="ssr:stedsnr" v="851934" />
		<tag k="ssr:type" v="bruk" />
	</node>
	<node id="4470515031" lat="58.7669582" lon="8.9687983" version="2" timestamp="2018-04-10T18:49:49Z" changeset="57982147" uid="3497659" user="NKA">
		<tag k="name" v="Simonstad vestre" />
		<tag k="place" v="farm" />
		<tag k="ssr:stedsnr" v="517273" />
		<tag k="ssr:type" v="bruk" />
	</node>
	<node id="4470515032" lat="58.7703986" lon="8.9754551" version="2" timestamp="2018-04-10T18:49:49Z" changeset="57982147" uid="3497659" user="NKA">
		<tag k="name" v="Simonstad" />
		<tag k="place" v="farm" />
		<tag k="ssr:stedsnr" v="729384" />
		<tag k="ssr:type" v="bruk" />
	</node>
	<node id="4470515033" lat="58.7561795" lon="8.7051297" version="2" timestamp="2018-04-10T18:49:49Z" changeset="57982147" uid="3497659" user="NKA">
		<tag k="name" v="Sines" />
		<tag k="place" v="farm" />
		<tag k="ssr:stedsnr" v="850547" />
		<tag k="ssr:type" v="eneboligMindreBoligbygg" />
	</node>
	<node id="4470515034" lat="58.7403548" lon="8.9945502" version="2" timestamp="2018-04-10T18:49:49Z" changeset="57982147" uid="3497659" user="NKA">
		<tag k="name" v="Sjøstad" />
		<tag k="place" v="farm" />
		<tag k="ssr:stedsnr" v="638468" />
		<tag k="ssr:type" v="bruk" />
	</node>
	<node id="4470515035" lat="58.7427638" lon="8.7644591" version="2" timestamp="2018-04-10T18:49:50Z" changeset="57982147" uid="3497659" user="NKA">
		<tag k="fixme" v="check position" />
		<tag k="historic" v="ruins" />
		<tag k="name" v="Skarstøl" />
		<tag k="place" v="locality" />
		<tag k="ssr:stedsnr" v="699159" />
		<tag k="ssr:type" v="gammelBosettingsplass" />
	</node>
	<node id="4470515036" lat="58.7379394" lon="8.7480549" version="2" timestamp="2018-04-10T18:49:50Z" changeset="57982147" uid="3497659" user="NKA">
		<tag k="name" v="Skeimo" />
		<tag k="place" v="farm" />
		<tag k="ssr:stedsnr" v="790090" />
		<tag k="ssr:type" v="bruk" />
	</node>
	<node id="4470515037" lat="58.733446" lon="8.7464656" version="2" timestamp="2018-04-10T18:49:50Z" changeset="57982147" uid="3497659" user="NKA">
		<tag k="name" v="Skeimyr" />
		<tag k="place" v="farm" />
		<tag k="ssr:stedsnr" v="486076" />
		<tag k="ssr:type" v="eneboligMindreBoligbygg" />
	</node>
	<node id="4470515038" lat="58.7922747" lon="8.800288" version="2" timestamp="2018-04-10T18:49:50Z" changeset="57982147" uid="3497659" user="NKA">
		<tag k="name" v="Skogli" />
		<tag k="place" v="farm" />
		<tag k="ssr:stedsnr" v="456752" />
		<tag k="ssr:type" v="eneboligMindreBoligbygg" />
	</node>
	<node id="4470515039" lat="58.8050441" lon="8.9586866" version="2" timestamp="2018-04-10T18:49:50Z" changeset="57982147" uid="3497659" user="NKA">
		<tag k="name" v="Skogli" />
		<tag k="place" v="farm" />
		<tag k="ssr:stedsnr" v="182009" />
		<tag k="ssr:type" v="bruk" />
	</node>
	<node id="4470515040" lat="58.7919654" lon="8.9058646" version="2" timestamp="2018-04-10T18:49:50Z" changeset="57982147" uid="3497659" user="NKA">
		<tag k="name" v="Skollenborg" />
		<tag k="place" v="farm" />
		<tag k="ssr:stedsnr" v="244512" />
		<tag k="ssr:type" v="bruk" />
	</node>
	<node id="4470515041" lat="58.7084438" lon="8.84614" version="2" timestamp="2018-04-10T18:49:50Z" changeset="57982147" uid="3497659" user="NKA">
		<tag k="name" v="Skotkjær" />
		<tag k="place" v="farm" />
		<tag k="ssr:stedsnr" v="588" />
		<tag k="ssr:type" v="bruk" />
	</node>
	<node id="4470515042" lat="58.7834454" lon="8.8952673" version="2" timestamp="2018-04-10T18:49:50Z" changeset="57982147" uid="3497659" user="NKA">
		<tag k="historic" v="yes" />
		<tag k="name" v="Skrokkjerrhefte" />
		<tag k="place" v="locality" />
		<tag k="ssr:stedsnr" v="820033" />
		<tag k="ssr:type" v="stø" />
	</node>
	<node id="4470515043" lat="58.7160343" lon="8.7094458" version="2" timestamp="2018-04-10T18:49:50Z" changeset="57982147" uid="3497659" user="NKA">
		<tag k="fixme" v="check position" />
		<tag k="historic" v="ruins" />
		<tag k="name" v="Skrømtelia" />
		<tag k="place" v="locality" />
		<tag k="ssr:stedsnr" v="942713" />
		<tag k="ssr:type" v="gammelBosettingsplass" />
	</node>
	<node id="4470515044" lat="58.7838654" lon="8.6766949" version="3" timestamp="2021-03-17T07:18:14Z" changeset="101165750" uid="3497659" user="NKA">
		<tag k="alt_name" v="Skålstua" />
		<tag k="name" v="Skålstaua" />
		<tag k="place" v="isolated_dwelling" />
		<tag k="ssr:stedsnr" v="426600" />
		<tag k="ssr:type" v="fritidsbolig" />
	</node>
	<node id="4470515045" lat="58.7490877" lon="8.8788932" version="2" timestamp="2018-04-10T18:49:51Z" changeset="57982147" uid="3497659" user="NKA">
		<tag k="name" v="Sletta" />
		<tag k="place" v="farm" />
		<tag k="ssr:stedsnr" v="699251" />
		<tag k="ssr:type" v="bruk" />
	</node>
	<node id="4470515046" lat="58.7515292" lon="8.9436792" version="2" timestamp="2018-04-10T18:49:51Z" changeset="57982147" uid="3497659" user="NKA">
		<tag k="name" v="Sletta" />
		<tag k="place" v="farm" />
		<tag k="ssr:stedsnr" v="881546" />
		<tag k="ssr:type" v="bruk" />
	</node>
	<node id="4470515047" lat="58.7681971" lon="8.8397213" version="2" timestamp="2018-04-10T18:49:51Z" changeset="57982147" uid="3497659" user="NKA">
		<tag k="fixme" v="check position" />
		<tag k="historic" v="ruins" />
		<tag k="name" v="Slettli" />
		<tag k="place" v="locality" />
		<tag k="ssr:stedsnr" v="92323" />
		<tag k="ssr:type" v="gammelBosettingsplass" />
	</node>
	<node id="4470515048" lat="58.7815617" lon="8.9932941" version="2" timestamp="2018-04-10T18:49:51Z" changeset="57982147" uid="3497659" user="NKA">
		<tag k="name" v="Slettås" />
		<tag k="place" v="farm" />
		<tag k="ssr:stedsnr" v="608415" />
		<tag k="ssr:type" v="bruk" />
	</node>
	<node id="4470515049" lat="58.7215601" lon="8.9445379" version="2" timestamp="2018-04-10T18:49:51Z" changeset="57982147" uid="3497659" user="NKA">
		<tag k="name" v="Solbakken" />
		<tag k="place" v="farm" />
		<tag k="ssr:stedsnr" v="911576" />
		<tag k="ssr:type" v="bruk" />
	</node>
	<node id="4470515050" lat="58.7995711" lon="8.8893537" version="2" timestamp="2018-04-10T18:49:51Z" changeset="57982147" uid="3497659" user="NKA">
		<tag k="name" v="Solberg" />
		<tag k="place" v="farm" />
		<tag k="ssr:stedsnr" v="244510" />
		<tag k="ssr:type" v="bruk" />
	</node>
	<node id="4470515051" lat="58.7283911" lon="8.7564093" version="2" timestamp="2018-04-10T18:49:51Z" changeset="57982147" uid="3497659" user="NKA">
		<tag k="name" v="Solhaug" />
		<tag k="place" v="farm" />
		<tag k="ssr:stedsnr" v="153150" />
		<tag k="ssr:type" v="bruk" />
	</node>
	<node id="4470515052" lat="58.7934612" lon="8.8028736" version="2" timestamp="2018-04-10T18:49:51Z" changeset="57982147" uid="3497659" user="NKA">
		<tag k="name" v="Solheim" />
		<tag k="place" v="farm" />
		<tag k="ssr:stedsnr" v="335785" />
		<tag k="ssr:type" v="bruk" />
	</node>
	<node id="4470515053" lat="58.8188602" lon="8.8816076" version="2" timestamp="2018-04-10T18:49:52Z" changeset="57982147" uid="3497659" user="NKA">
		<tag k="name" v="Solli" />
		<tag k="place" v="farm" />
		<tag k="ssr:stedsnr" v="577449" />
		<tag k="ssr:type" v="bruk" />
	</node>
	<node id="4470515054" lat="58.7514919" lon="8.9515455" version="2" timestamp="2018-04-10T18:49:52Z" changeset="57982147" uid="3497659" user="NKA">
		<tag k="name" v="Solnes" />
		<tag k="place" v="farm" />
		<tag k="ssr:stedsnr" v="577568" />
		<tag k="ssr:type" v="eneboligMindreBoligbygg" />
	</node>
	<node id="4470515055" lat="58.7268601" lon="8.7523579" version="2" timestamp="2018-04-10T18:49:52Z" changeset="57982147" uid="3497659" user="NKA">
		<tag k="name" v="Sommerseth" />
		<tag k="place" v="farm" />
		<tag k="ssr:stedsnr" v="31168" />
		<tag k="ssr:type" v="bruk" />
	</node>
	<node id="4470515056" lat="58.6952329" lon="8.7861754" version="2" timestamp="2018-04-10T18:49:52Z" changeset="57982147" uid="3497659" user="NKA">
		<tag k="alt_name" v="Songedalen" />
		<tag k="name" v="Songedal" />
		<tag k="place" v="hamlet" />
		<tag k="ssr:stedsnr" v="547897" />
		<tag k="ssr:type" v="bruk" />
	</node>
	<node id="4470515057" lat="58.7029274" lon="8.7857277" version="2" timestamp="2018-04-10T18:49:52Z" changeset="57982147" uid="3497659" user="NKA">
		<tag k="fixme" v="check position" />
		<tag k="historic" v="ruins" />
		<tag k="name" v="Songelia" />
		<tag k="place" v="locality" />
		<tag k="ssr:stedsnr" v="577009" />
		<tag k="ssr:type" v="gammelBosettingsplass" />
	</node>
	<node id="4470515058" lat="58.6831894" lon="8.8174319" version="2" timestamp="2018-04-10T18:49:52Z" changeset="57982147" uid="3497659" user="NKA">
		<tag k="alt_name" v="Songeøygard" />
		<tag k="name" v="Songøygard" />
		<tag k="place" v="farm" />
		<tag k="ssr:stedsnr" v="547938" />
		<tag k="ssr:type" v="bruk" />
	</node>
	<node id="4470515059" lat="58.7977949" lon="8.7212873" version="2" timestamp="2018-04-10T18:49:52Z" changeset="57982147" uid="3497659" user="NKA">
		<tag k="fixme" v="check position" />
		<tag k="historic" v="ruins" />
		<tag k="name" v="Sonnmyr" />
		<tag k="place" v="locality" />
		<tag k="ssr:stedsnr" v="153130" />
		<tag k="ssr:type" v="gammelBosettingsplass" />
	</node>
	<node id="4470515060" lat="58.7201354" lon="8.9047863" version="2" timestamp="2018-04-10T18:49:52Z" changeset="57982147" uid="3497659" user="NKA">
		<tag k="fixme" v="check position" />
		<tag k="historic" v="ruins" />
		<tag k="name" v="Sprengsmyr" />
		<tag k="place" v="locality" />
		<tag k="ssr:stedsnr" v="153379" />
		<tag k="ssr:type" v="gammelBosettingsplass" />
	</node>
	<node id="4470515061" lat="58.7648563" lon="8.8613034" version="2" timestamp="2018-04-10T18:49:52Z" changeset="57982147" uid="3497659" user="NKA">
		<tag k="name" v="Stannarbakken" />
		<tag k="place" v="farm" />
		<tag k="ssr:stedsnr" v="729430" />
		<tag k="ssr:type" v="eneboligMindreBoligbygg" />
	</node>
	<node id="4470515062" lat="58.8200367" lon="8.880071" version="2" timestamp="2018-04-10T18:49:53Z" changeset="57982147" uid="3497659" user="NKA">
		<tag k="name" v="Stea" />
		<tag k="place" v="farm" />
		<tag k="ssr:stedsnr" v="820448" />
		<tag k="ssr:type" v="bruk" />
	</node>
	<node id="4470515063" lat="58.7715649" lon="8.9317035" version="2" timestamp="2018-04-10T18:49:53Z" changeset="57982147" uid="3497659" user="NKA">
		<tag k="fixme" v="check position" />
		<tag k="historic" v="ruins" />
		<tag k="name" v="Stebekk" />
		<tag k="place" v="locality" />
		<tag k="ssr:stedsnr" v="214308" />
		<tag k="ssr:type" v="gammelBosettingsplass" />
	</node>
	<node id="4470515064" lat="58.6968444" lon="8.9536051" version="2" timestamp="2018-04-10T18:49:53Z" changeset="57982147" uid="3497659" user="NKA">
		<tag k="fixme" v="check position" />
		<tag k="historic" v="ruins" />
		<tag k="name" v="Steika" />
		<tag k="place" v="locality" />
		<tag k="ssr:stedsnr" v="214244" />
		<tag k="ssr:type" v="gammelBosettingsplass" />
	</node>
	<node id="4470515065" lat="58.7496408" lon="8.7394597" version="2" timestamp="2018-04-10T18:49:53Z" changeset="57982147" uid="3497659" user="NKA">
		<tag k="name" v="Stien" />
		<tag k="place" v="farm" />
		<tag k="ssr:stedsnr" v="577199" />
		<tag k="ssr:type" v="bruk" />
	</node>
	<node id="4470515066" lat="58.7863203" lon="8.9788107" version="2" timestamp="2018-04-10T18:49:53Z" changeset="57982147" uid="3497659" user="NKA">
		<tag k="name" v="Stormyr" />
		<tag k="place" v="farm" />
		<tag k="ssr:stedsnr" v="1449" />
		<tag k="ssr:type" v="bruk" />
	</node>
	<node id="4470515067" lat="58.7157854" lon="8.8243154" version="2" timestamp="2018-04-10T18:49:53Z" changeset="57982147" uid="3497659" user="NKA">
		<tag k="name" v="Stormyrlia" />
		<tag k="place" v="farm" />
		<tag k="ssr:stedsnr" v="850093" />
		<tag k="ssr:type" v="bruk" />
	</node>
	<node id="4470515068" lat="58.7931853" lon="8.8450265" version="2" timestamp="2018-04-10T18:49:53Z" changeset="57982147" uid="3497659" user="NKA">
		<tag k="name" v="Stranda" />
		<tag k="place" v="locality" />
		<tag k="ssr:stedsnr" v="790493" />
		<tag k="ssr:type" v="fritidsbolig" />
	</node>
	<node id="4470515069" lat="58.7725064" lon="8.9030076" version="2" timestamp="2018-04-10T18:49:53Z" changeset="57982147" uid="3497659" user="NKA">
		<tag k="fixme" v="check position" />
		<tag k="historic" v="ruins" />
		<tag k="name" v="Stuestøl" />
		<tag k="place" v="locality" />
		<tag k="ssr:stedsnr" v="517280" />
		<tag k="ssr:type" v="gammelBosettingsplass" />
	</node>
	<node id="4470515070" lat="58.7817446" lon="8.8675984" version="2" timestamp="2018-04-10T18:49:53Z" changeset="57982147" uid="3497659" user="NKA">
		<tag k="name" v="Støle" />
		<tag k="place" v="farm" />
		<tag k="ssr:stedsnr" v="31052" />
		<tag k="ssr:type" v="bruk" />
	</node>
	<node id="4470515071" lat="58.7594417" lon="8.9224903" version="3" timestamp="2018-04-28T08:07:03Z" changeset="58497758" uid="3497659" user="NKA">
		<tag k="fixme" v="check position" />
		<tag k="historic" v="shieling" />
		<tag k="name" v="Stølen" />
		<tag k="place" v="locality" />
		<tag k="ssr:stedsnr" v="820281" />
		<tag k="ssr:type" v="setervoll" />
	</node>
	<node id="4470515072" lat="58.8010703" lon="8.8576662" version="2" timestamp="2018-04-10T18:49:54Z" changeset="57982147" uid="3497659" user="NKA">
		<tag k="name" v="Sundet" />
		<tag k="place" v="hamlet" />
		<tag k="ssr:stedsnr" v="244500" />
		<tag k="ssr:type" v="bruk" />
	</node>
	<node id="4470515073" lat="58.8334609" lon="8.855612" version="2" timestamp="2018-04-10T18:49:54Z" changeset="57982147" uid="3497659" user="NKA">
		<tag k="fixme" v="check position" />
		<tag k="historic" v="ruins" />
		<tag k="name" v="Sutste" />
		<tag k="place" v="locality" />
		<tag k="ssr:stedsnr" v="699423" />
		<tag k="ssr:type" v="gammelBosettingsplass" />
	</node>
	<node id="4470515074" lat="58.7390938" lon="8.7366048" version="2" timestamp="2018-04-10T18:49:54Z" changeset="57982147" uid="3497659" user="NKA">
		<tag k="name" v="Sveigane" />
		<tag k="place" v="farm" />
		<tag k="ssr:stedsnr" v="790019" />
		<tag k="ssr:type" v="bruk" />
	</node>
	<node id="4470515075" lat="58.7350885" lon="8.7492576" version="2" timestamp="2018-04-10T18:49:54Z" changeset="57982147" uid="3497659" user="NKA">
		<tag k="name" v="Søndre" />
		<tag k="place" v="farm" />
		<tag k="ssr:stedsnr" v="638150" />
		<tag k="ssr:type" v="bruk" />
	</node>
	<node id="4470515077" lat="58.7150921" lon="8.7920168" version="2" timestamp="2018-04-10T18:49:54Z" changeset="57982147" uid="3497659" user="NKA">
		<tag k="name" v="Søreng" />
		<tag k="place" v="farm" />
		<tag k="ssr:stedsnr" v="183066" />
		<tag k="ssr:type" v="bruk" />
	</node>
	<node id="4470515078" lat="58.8065867" lon="8.9454215" version="2" timestamp="2018-04-10T18:49:54Z" changeset="57982147" uid="3497659" user="NKA">
		<tag k="name" v="Takserås" />
		<tag k="place" v="hamlet" />
		<tag k="ssr:stedsnr" v="607005" />
		<tag k="ssr:type" v="bruk" />
	</node>
	<node id="4470515079" lat="58.7984774" lon="8.9720255" version="3" timestamp="2021-03-17T07:18:14Z" changeset="101165750" uid="3497659" user="NKA">
		<tag k="name" v="Tangane" />
		<tag k="place" v="isolated_dwelling" />
		<tag k="ssr:stedsnr" v="729478" />
		<tag k="ssr:type" v="fritidsbolig" />
	</node>
	<node id="4470515080" lat="58.7475906" lon="8.9190394" version="2" timestamp="2018-04-10T18:49:55Z" changeset="57982147" uid="3497659" user="NKA">
		<tag k="fixme" v="check position" />
		<tag k="historic" v="ruins" />
		<tag k="name" v="Tjenndalen" />
		<tag k="place" v="locality" />
		<tag k="ssr:stedsnr" v="577269" />
		<tag k="ssr:type" v="gammelBosettingsplass" />
	</node>
	<node id="4470515081" lat="58.7733758" lon="8.7406685" version="2" timestamp="2018-04-10T18:49:55Z" changeset="57982147" uid="3497659" user="NKA">
		<tag k="name" v="Tjernbrekka" />
		<tag k="place" v="isolated_dwelling" />
		<tag k="ssr:stedsnr" v="426512" />
		<tag k="ssr:type" v="gammelBosettingsplass" />
	</node>
	<node id="4470515082" lat="58.7536925" lon="8.7183676" version="2" timestamp="2018-04-10T18:49:55Z" changeset="57982147" uid="3497659" user="NKA">
		<tag k="alt_name" v="Tjuslia" />
		<tag k="name" v="Tjusslia" />
		<tag k="place" v="locality" />
		<tag k="ssr:stedsnr" v="183944" />
		<tag k="ssr:type" v="gammelBosettingsplass" />
	</node>
	<node id="4470515083" lat="58.8552416" lon="8.8527378" version="2" timestamp="2018-04-10T18:49:55Z" changeset="57982147" uid="3497659" user="NKA">
		<tag k="name" v="Trettebekkmoen" />
		<tag k="place" v="locality" />
		<tag k="ssr:stedsnr" v="180" />
		<tag k="ssr:type" v="fritidsbolig" />
	</node>
	<node id="4470515084" lat="58.6747083" lon="8.8205409" version="2" timestamp="2018-04-10T18:49:55Z" changeset="57982147" uid="3497659" user="NKA">
		<tag k="name" v="Uberg" />
		<tag k="place" v="farm" />
		<tag k="ssr:stedsnr" v="182911" />
		<tag k="ssr:type" v="bruk" />
	</node>
	<node id="4470515085" lat="58.6802956" lon="8.8217663" version="4" timestamp="2020-10-07T14:45:54Z" changeset="92119551" uid="3497659" user="NKA">
		<tag k="name" v="Ubergsmoen" />
		<tag k="place" v="village" />
		<tag k="population" v="222" />
		<tag k="population:date" v="2020-01-01" />
		<tag k="ref:ssb_tettsted" v="3662" />
		<tag k="source:population" v="SSB - befolkning i tettstedet" />
		<tag k="ssr:stedsnr" v="879065" />
		<tag k="ssr:type" v="grend" />
	</node>
	<node id="4470515086" lat="58.7259005" lon="8.669595" version="2" timestamp="2018-04-10T18:49:55Z" changeset="57982147" uid="3497659" user="NKA">
		<tag k="name" v="Ufsvatn" />
		<tag k="place" v="farm" />
		<tag k="ssr:stedsnr" v="60362" />
		<tag k="ssr:type" v="bruk" />
	</node>
	<node id="4470515087" lat="58.7265019" lon="8.6709859" version="2" timestamp="2018-04-10T18:49:55Z" changeset="57982147" uid="3497659" user="NKA">
		<tag k="name" v="Ufsvatn" />
		<tag k="place" v="hamlet" />
		<tag k="ssr:stedsnr" v="486092" />
		<tag k="ssr:type" v="gard" />
	</node>
	<node id="4470515088" lat="58.7279505" lon="8.671879" version="2" timestamp="2018-04-10T18:49:55Z" changeset="57982147" uid="3497659" user="NKA">
		<tag k="name" v="Ufsvatn" />
		<tag k="place" v="farm" />
		<tag k="ssr:stedsnr" v="666395" />
		<tag k="ssr:type" v="bruk" />
	</node>
	<node id="4470515089" lat="58.7389881" lon="8.6668786" version="2" timestamp="2018-04-10T18:49:56Z" changeset="57982147" uid="3497659" user="NKA">
		<tag k="historic" v="memorial" />
		<tag k="name" v="Ulvefallet" />
		<tag k="ssr:stedsnr" v="153907" />
		<tag k="ssr:type" v="severdighet" />
	</node>
	<node id="4470515090" lat="58.7842129" lon="8.8245019" version="2" timestamp="2018-04-10T18:49:56Z" changeset="57982147" uid="3497659" user="NKA">
		<tag k="name" v="Vanes" />
		<tag k="place" v="farm" />
		<tag k="ssr:stedsnr" v="517762" />
		<tag k="ssr:type" v="bruk" />
	</node>
	<node id="4470515091" lat="58.7020002" lon="8.7395026" version="2" timestamp="2018-04-10T18:49:56Z" changeset="57982147" uid="3497659" user="NKA">
		<tag k="name" v="Vangen" />
		<tag k="place" v="farm" />
		<tag k="ssr:stedsnr" v="729078" />
		<tag k="ssr:type" v="bruk" />
	</node>
	<node id="4470515092" lat="58.7501563" lon="8.945116" version="2" timestamp="2018-04-10T18:49:56Z" changeset="57982147" uid="3497659" user="NKA">
		<tag k="name" v="Vangstad" />
		<tag k="place" v="farm" />
		<tag k="ssr:stedsnr" v="577562" />
		<tag k="ssr:type" v="eneboligMindreBoligbygg" />
	</node>
	<node id="4470515093" lat="58.7653906" lon="8.8855156" version="3" timestamp="2021-03-17T07:18:14Z" changeset="101165750" uid="3497659" user="NKA">
		<tag k="name" v="Vatnebu" />
		<tag k="place" v="isolated_dwelling" />
		<tag k="ssr:stedsnr" v="31306" />
		<tag k="ssr:type" v="fritidsbolig" />
	</node>
	<node id="4470515094" lat="58.7801482" lon="8.8527612" version="2" timestamp="2018-04-10T18:49:56Z" changeset="57982147" uid="3497659" user="NKA">
		<tag k="name" v="Vegar" />
		<tag k="place" v="farm" />
		<tag k="ssr:stedsnr" v="62465" />
		<tag k="ssr:type" v="eneboligMindreBoligbygg" />
	</node>
	<node id="4470515095" lat="58.7321554" lon="8.8574413" version="2" timestamp="2018-04-10T18:49:56Z" changeset="57982147" uid="3497659" user="NKA">
		<tag k="name" v="Vegerstøl" />
		<tag k="place" v="hamlet" />
		<tag k="ssr:stedsnr" v="547604" />
		<tag k="ssr:type" v="bruk" />
	</node>
	<node id="4470515098" lat="58.6988513" lon="8.8823246" version="2" timestamp="2018-04-10T18:49:56Z" changeset="57982147" uid="3497659" user="NKA">
		<tag k="fixme" v="check position" />
		<tag k="historic" v="ruins" />
		<tag k="name" v="Vestgården" />
		<tag k="place" v="locality" />
		<tag k="ssr:stedsnr" v="760465" />
		<tag k="ssr:type" v="gammelBosettingsplass" />
	</node>
	<node id="4470515099" lat="58.6922375" lon="8.7527109" version="2" timestamp="2018-04-10T18:49:56Z" changeset="57982147" uid="3497659" user="NKA">
		<tag k="name" v="Vestigard" />
		<tag k="place" v="farm" />
		<tag k="ssr:stedsnr" v="760223" />
		<tag k="ssr:type" v="bruk" />
	</node>
	<node id="4470515100" lat="58.7330621" lon="8.8054332" version="2" timestamp="2018-04-10T18:49:56Z" changeset="57982147" uid="3497659" user="NKA">
		<tag k="alt_name" v="Etterstøl" />
		<tag k="name" v="Vestre Ettestøl" />
		<tag k="place" v="farm" />
		<tag k="ssr:stedsnr" v="729150" />
		<tag k="ssr:type" v="bruk" />
	</node>
	<node id="4470515101" lat="58.7841896" lon="8.7422402" version="2" timestamp="2018-04-10T18:49:57Z" changeset="57982147" uid="3497659" user="NKA">
		<tag k="fixme" v="check position" />
		<tag k="historic" v="ruins" />
		<tag k="name" v="Vestre Hasseldalen" />
		<tag k="place" v="locality" />
		<tag k="ssr:stedsnr" v="820838" />
		<tag k="ssr:type" v="gammelBosettingsplass" />
	</node>
	<node id="4470515102" lat="58.7562702" lon="8.7139701" version="2" timestamp="2018-04-10T18:49:57Z" changeset="57982147" uid="3497659" user="NKA">
		<tag k="historic" v="yes" />
		<tag k="name" v="Vestre Tjusslistøa" />
		<tag k="place" v="locality" />
		<tag k="ssr:stedsnr" v="821970" />
		<tag k="ssr:type" v="stø" />
	</node>
	<node id="4470515103" lat="58.7148004" lon="8.9640518" version="2" timestamp="2018-04-10T18:49:57Z" changeset="57982147" uid="3497659" user="NKA">
		<tag k="name" v="Vierli" />
		<tag k="place" v="farm" />
		<tag k="ssr:stedsnr" v="364602" />
		<tag k="ssr:type" v="bruk" />
	</node>
	<node id="4470515104" lat="58.7691209" lon="8.8701301" version="2" timestamp="2018-04-10T18:49:57Z" changeset="57982147" uid="3497659" user="NKA">
		<tag k="name" v="Vikingsmyr" />
		<tag k="place" v="farm" />
		<tag k="ssr:stedsnr" v="942306" />
		<tag k="ssr:type" v="bruk" />
	</node>
	<node id="4470515105" lat="58.7867713" lon="8.9185126" version="2" timestamp="2018-04-10T18:49:57Z" changeset="57982147" uid="3497659" user="NKA">
		<tag k="historic" v="yes" />
		<tag k="name" v="Vinterveistøa" />
		<tag k="place" v="locality" />
		<tag k="ssr:stedsnr" v="395039" />
		<tag k="ssr:type" v="stø" />
	</node>
	<node id="4470515106" lat="58.7268069" lon="8.8649023" version="2" timestamp="2018-04-10T18:49:57Z" changeset="57982147" uid="3497659" user="NKA">
		<tag k="name" v="Voll" />
		<tag k="place" v="farm" />
		<tag k="ssr:stedsnr" v="122564" />
		<tag k="ssr:type" v="bruk" />
	</node>
	<node id="4470515107" lat="58.8372891" lon="8.8520399" version="2" timestamp="2018-04-10T18:49:57Z" changeset="57982147" uid="3497659" user="NKA">
		<tag k="name" v="Vollane" />
		<tag k="place" v="farm" />
		<tag k="ssr:stedsnr" v="851103" />
		<tag k="ssr:type" v="bruk" />
	</node>
	<node id="4470515108" lat="58.6686685" lon="8.8031859" version="2" timestamp="2018-04-10T18:49:57Z" changeset="57982147" uid="3497659" user="NKA">
		<tag k="name" v="Vormvik" />
		<tag k="place" v="farm" />
		<tag k="ssr:stedsnr" v="729962" />
		<tag k="ssr:type" v="bruk" />
	</node>
	<node id="4470515109" lat="58.6578292" lon="8.8172862" version="2" timestamp="2018-04-10T18:49:57Z" changeset="57982147" uid="3497659" user="NKA">
		<tag k="name" v="Våje vest" />
		<tag k="place" v="farm" />
		<tag k="ssr:stedsnr" v="153135" />
		<tag k="ssr:type" v="bruk" />
	</node>
	<node id="4470515110" lat="58.6612561" lon="8.81828" version="2" timestamp="2018-04-10T18:49:58Z" changeset="57982147" uid="3497659" user="NKA">
		<tag k="name" v="Våje øst" />
		<tag k="place" v="farm" />
		<tag k="ssr:stedsnr" v="456155" />
		<tag k="ssr:type" v="bruk" />
	</node>
	<node id="4470515111" lat="58.6589311" lon="8.8192204" version="2" timestamp="2018-04-10T18:49:58Z" changeset="57982147" uid="3497659" user="NKA">
		<tag k="name" v="Våje" />
		<tag k="place" v="hamlet" />
		<tag k="ssr:stedsnr" v="668939" />
		<tag k="ssr:type" v="bruk" />
	</node>
	<node id="4470515112" lat="58.740896" lon="8.6375572" version="3" timestamp="2021-03-17T07:18:14Z" changeset="101165750" uid="3497659" user="NKA">
		<tag k="name" v="Vålevasshytta" />
		<tag k="place" v="isolated_dwelling" />
		<tag k="ssr:stedsnr" v="942985" />
		<tag k="ssr:type" v="fritidsbolig" />
	</node>
	<node id="4470515113" lat="58.7213706" lon="8.9339152" version="2" timestamp="2018-04-10T18:49:58Z" changeset="57982147" uid="3497659" user="NKA">
		<tag k="name" v="Værland" />
		<tag k="place" v="farm" />
		<tag k="ssr:stedsnr" v="183528" />
		<tag k="ssr:type" v="bruk" />
	</node>
	<node id="4470515114" lat="58.7651459" lon="8.6940771" version="2" timestamp="2018-04-10T18:49:58Z" changeset="57982147" uid="3497659" user="NKA">
		<tag k="name" v="Åre vestre" />
		<tag k="place" v="locality" />
		<tag k="ssr:stedsnr" v="638961" />
		<tag k="ssr:type" v="gammelBosettingsplass" />
	</node>
	<node id="4470515115" lat="58.7658834" lon="8.6963983" version="2" timestamp="2018-04-10T18:49:58Z" changeset="57982147" uid="3497659" user="NKA">
		<tag k="fixme" v="check position" />
		<tag k="historic" v="ruins" />
		<tag k="name" v="Åre østre" />
		<tag k="place" v="locality" />
		<tag k="ssr:stedsnr" v="92953" />
		<tag k="ssr:type" v="gammelBosettingsplass" />
	</node>
	<node id="4470515116" lat="58.7037784" lon="8.8868342" version="2" timestamp="2018-04-10T18:49:58Z" changeset="57982147" uid="3497659" user="NKA">
		<tag k="name" v="Ås" />
		<tag k="place" v="farm" />
		<tag k="ssr:stedsnr" v="243601" />
		<tag k="ssr:type" v="bruk" />
	</node>
	<node id="4470515117" lat="58.6944777" lon="8.7798394" version="2" timestamp="2018-04-10T18:49:58Z" changeset="57982147" uid="3497659" user="NKA">
		<tag k="name" v="Åsen" />
		<tag k="place" v="farm" />
		<tag k="ssr:stedsnr" v="214051" />
		<tag k="ssr:type" v="eneboligMindreBoligbygg" />
	</node>
	<node id="4470515118" lat="58.695709" lon="8.7722313" version="2" timestamp="2018-04-10T18:49:59Z" changeset="57982147" uid="3497659" user="NKA">
		<tag k="name" v="Åsheim" />
		<tag k="place" v="farm" />
		<tag k="ssr:stedsnr" v="1876" />
		<tag k="ssr:type" v="eneboligMindreBoligbygg" />
	</node>
	<node id="4470515119" lat="58.7640075" lon="8.7520044" version="2" timestamp="2018-04-10T18:49:59Z" changeset="57982147" uid="3497659" user="NKA">
		<tag k="name" v="Åsland" />
		<tag k="place" v="farm" />
		<tag k="ssr:stedsnr" v="243571" />
		<tag k="ssr:type" v="eneboligMindreBoligbygg" />
	</node>
	<node id="4470515120" lat="58.8397407" lon="8.8560594" version="2" timestamp="2018-04-10T18:49:59Z" changeset="57982147" uid="3497659" user="NKA">
		<tag k="name" v="Østre Øygardslia" />
		<tag k="place" v="locality" />
		<tag k="ssr:stedsnr" v="638396" />
		<tag k="ssr:type" v="gammelBosettingsplass" />
	</node>
	<node id="4470515121" lat="58.7321029" lon="8.6682962" version="2" timestamp="2018-04-10T18:49:59Z" changeset="57982147" uid="3497659" user="NKA">
		<tag k="historic" v="ruins" />
		<tag k="name" v="Øverdal" />
		<tag k="place" v="locality" />
		<tag k="ssr:stedsnr" v="577739" />
		<tag k="ssr:type" v="gammelBosettingsplass" />
	</node>
	<node id="4470515122" lat="58.7229918" lon="8.8344785" version="2" timestamp="2018-04-10T18:49:59Z" changeset="57982147" uid="3497659" user="NKA">
		<tag k="fixme" v="check position" />
		<tag k="historic" v="ruins" />
		<tag k="name" v="Øvre Gjerslia" />
		<tag k="place" v="locality" />
		<tag k="ssr:stedsnr" v="214055" />
		<tag k="ssr:type" v="gammelBosettingsplass" />
	</node>
	<node id="4470515123" lat="58.7295237" lon="8.7313686" version="2" timestamp="2018-04-10T18:49:59Z" changeset="57982147" uid="3497659" user="NKA">
		<tag k="fixme" v="check position" />
		<tag k="historic" v="ruins" />
		<tag k="name" v="Øvre Stea" />
		<tag k="place" v="locality" />
		<tag k="ssr:stedsnr" v="821140" />
		<tag k="ssr:type" v="gammelBosettingsplass" />
	</node>
	<node id="4470515124" lat="58.728003" lon="8.690666" version="2" timestamp="2018-04-10T18:49:59Z" changeset="57982147" uid="3497659" user="NKA">
		<tag k="fixme" v="check position" />
		<tag k="historic" v="ruins" />
		<tag k="name" v="Øvre Venli" />
		<tag k="place" v="locality" />
		<tag k="ssr:stedsnr" v="881672" />
		<tag k="ssr:type" v="gammelBosettingsplass" />
	</node>
	<node id="4470515125" lat="58.7556683" lon="8.9975696" version="2" timestamp="2018-04-10T18:49:59Z" changeset="57982147" uid="3497659" user="NKA">
		<tag k="name" v="Øya" />
		<tag k="place" v="farm" />
		<tag k="ssr:stedsnr" v="607410" />
		<tag k="ssr:type" v="bruk" />
	</node>
	<node id="4470515126" lat="58.7164441" lon="8.6679598" version="2" timestamp="2018-04-10T18:49:59Z" changeset="57982147" uid="3497659" user="NKA">
		<tag k="fixme" v="check position" />
		<tag k="historic" v="ruins" />
		<tag k="name" v="Øygarden" />
		<tag k="place" v="locality" />
		<tag k="ssr:stedsnr" v="31738" />
		<tag k="ssr:type" v="gammelBosettingsplass" />
	</node>
	<node id="4470515127" lat="58.7329205" lon="8.953905" version="2" timestamp="2018-04-10T18:50:00Z" changeset="57982147" uid="3497659" user="NKA">
		<tag k="fixme" v="check position" />
		<tag k="historic" v="ruins" />
		<tag k="name" v="Øygarden" />
		<tag k="place" v="locality" />
		<tag k="ssr:stedsnr" v="31555" />
		<tag k="ssr:type" v="gammelBosettingsplass" />
	</node>
	<node id="4470515128" lat="58.753143" lon="8.9611589" version="2" timestamp="2018-04-10T18:50:00Z" changeset="57982147" uid="3497659" user="NKA">
		<tag k="name" v="Øygarden" />
		<tag k="place" v="farm" />
		<tag k="ssr:stedsnr" v="351" />
		<tag k="ssr:type" v="bruk" />
	</node>
	<node id="4470515129" lat="58.7679183" lon="8.7333869" version="2" timestamp="2018-04-10T18:50:00Z" changeset="57982147" uid="3497659" user="NKA">
		<tag k="name" v="Øygarden" />
		<tag k="place" v="farm" />
		<tag k="ssr:stedsnr" v="182492" />
		<tag k="ssr:type" v="eneboligMindreBoligbygg" />
	</node>
	<node id="4470515130" lat="58.7720818" lon="8.8901464" version="2" timestamp="2018-04-10T18:50:00Z" changeset="57982147" uid="3497659" user="NKA">
		<tag k="fixme" v="check position" />
		<tag k="historic" v="ruins" />
		<tag k="name" v="Øygarden" />
		<tag k="place" v="locality" />
		<tag k="ssr:stedsnr" v="517275" />
		<tag k="ssr:type" v="gammelBosettingsplass" />
	</node>
	<node id="4470515131" lat="58.7965566" lon="8.8432595" version="2" timestamp="2018-04-10T18:50:00Z" changeset="57982147" uid="3497659" user="NKA">
		<tag k="name" v="Øygarden" />
		<tag k="place" v="locality" />
		<tag k="ssr:stedsnr" v="517084" />
		<tag k="ssr:type" v="gammelBosettingsplass" />
	</node>
	<node id="4470515132" lat="58.8373574" lon="8.8544056" version="2" timestamp="2018-04-10T18:50:00Z" changeset="57982147" uid="3497659" user="NKA">
		<tag k="name" v="Øygardslia" />
		<tag k="place" v="farm" />
		<tag k="ssr:stedsnr" v="668095" />
		<tag k="ssr:type" v="bruk" />
	</node>
	<node id="8527315494" lat="58.75832" lon="8.858533" version="1" timestamp="2021-03-17T07:18:14Z" changeset="101165750" uid="3497659" user="NKA" />
	<node id="8527315495" lat="58.758332" lon="8.858711" version="1" timestamp="2021-03-17T07:18:14Z" changeset="101165750" uid="3497659" user="NKA" />
	<node id="8527315496" lat="58.758381" lon="8.858698" version="1" timestamp="2021-03-17T07:18:14Z" changeset="101165750" uid="3497659" user="NKA" />
	<node id="8527315497" lat="58.758392" lon="8.858855" version="1" timestamp="2021-03-17T07:18:14Z" changeset="101165750" uid="3497659" user="NKA" />
	<node id="8527315498" lat="58.758355" lon="8.858865" version="1" timestamp="2021-03-17T07:18:14Z" changeset="101165750" uid="3497659" user="NKA" />
	<node id="8527315499" lat="58.758343" lon="8.858892" version="1" timestamp="2021-03-17T07:18:14Z" changeset="101165750" uid="3497659" user="NKA" />
	<node id="8527315500" lat="58.758351" lon="8.858993" version="1" timestamp="2021-03-17T07:18:14Z" changeset="101165750" uid="3497659" user="NKA" />
	<node id="8527315501" lat="58.758269" lon="8.859014" version="1" timestamp="2021-03-17T07:18:14Z" changeset="101165750" uid="3497659" user="NKA" />
	<node id="8527315502" lat="58.758262" lon="8.858916" version="1" timestamp="2021-03-17T07:18:14Z" changeset="101165750" uid="3497659" user="NKA" />
	<node id="8527315503" lat="58.758249" lon="8.858896" version="1" timestamp="2021-03-17T07:18:14Z" changeset="101165750" uid="3497659" user="NKA" />
	<node id="8527315504" lat="58.758212" lon="8.858906" version="1" timestamp="2021-03-17T07:18:14Z" changeset="101165750" uid="3497659" user="NKA" />
	<node id="8527315505" lat="58.758201" lon="8.858746" version="1" timestamp="2021-03-17T07:18:14Z" changeset="101165750" uid="3497659" user="NKA" />
	<node id="8527315506" lat="58.758249" lon="8.858733" version="1" timestamp="2021-03-17T07:18:14Z" changeset="101165750" uid="3497659" user="NKA" />
	<node id="8527315507" lat="58.758236" lon="8.858555" version="1" timestamp="2021-03-17T07:18:14Z" changeset="101165750" uid="3497659" user="NKA" />
	<node id="8527315508" lat="58.758258" lon="8.858549" version="1" timestamp="2021-03-17T07:18:14Z" changeset="101165750" uid="3497659" user="NKA" />
	<node id="8527315509" lat="58.758253" lon="8.858471" version="1" timestamp="2021-03-17T07:18:14Z" changeset="101165750" uid="3497659" user="NKA" />
	<node id="8527315510" lat="58.758297" lon="8.85846" version="1" timestamp="2021-03-17T07:18:14Z" changeset="101165750" uid="3497659" user="NKA" />
	<node id="8527315511" lat="58.758303" lon="8.858537" version="1" timestamp="2021-03-17T07:18:14Z" changeset="101165750" uid="3497659" user="NKA" />
	<way id="450238168" version="5" timestamp="2021-03-17T07:18:14Z" changeset="101165750" uid="3497659" user="NKA">
		<tag k="alt_name" v="Vegårshei kirke" />
		<tag k="amenity" v="place_of_worship" />
		<tag k="architect" v="Knud Torkildsen Skjerkholt" />
		<tag k="building" v="church" />
		<tag k="capacity" v="350" />
		<tag k="deanery" v="Aust-Nedenes" />
		<tag k="denomination" v="lutheran" />
		<tag k="diocese" v="Agder og Telemark" />
		<tag k="heritage" v="yes" />
		<tag k="name" v="Vegårshei kirke" />
		<tag k="note" v="Soknekirke" />
		<tag k="operator" v="Vegårshei menighetsråd" />
		<tag k="parish" v="Vegårshei" />
		<tag k="ref:bygningsnr" v="193440614" />
		<tag k="religion" v="christian" />
		<tag k="ssr:stedsnr" v="426369" />
		<tag k="ssr:type" v="kirke" />
		<tag k="start_date" v="1810" />
		<tag k="toilets" v="yes" />
		<tag k="website" v="http://www.vegarshei.kirken.no" />
		<tag k="wikidata" v="Q12009186" />
		<nd ref="8527315511" />
		<nd ref="8527315510" />
		<nd ref="8527315509" />
		<nd ref="8527315508" />
		<nd ref="8527315507" />
		<nd ref="8527315506" />
		<nd ref="8527315505" />
		<nd ref="8527315504" />
		<nd ref="8527315503" />
		<nd ref="8527315502" />
		<nd ref="8527315501" />
		<nd ref="8527315500" />
		<nd ref="8527315499" />
		<nd ref="8527315498" />
		<nd ref="8527315497" />
		<nd ref="8527315496" />
		<nd ref="8527315495" />
		<nd ref="8527315494" />
		<nd ref="8527315511" />
	</way>
</osm>
