<?xml version="1.0" encoding="UTF-8"?>
<osm version="0.6" generator="osmapis">
	<node id="281222991" lat="70.8578156" lon="29.0860363" version="9" timestamp="2022-07-10T17:17:02Z" changeset="123440806" uid="3497659" user="NKA">
		<tag k="loc_name:se" v="Bearalváhki" />
		<tag k="name" v="Berlevåg" />
		<tag k="name:fkv" v="Päärlyvooki" />
		<tag k="name:no" v="Berlevåg" />
		<tag k="name:ru" v="Берлевог" />
		<tag k="name:se" v="Bearalváhki" />
		<tag k="place" v="village" />
		<tag k="population" v="889" />
		<tag k="population:date" v="2021-01-01" />
		<tag k="ref:ssb_tettsted" v="8651" />
		<tag k="source:population" v="SSB - befolkning i tettstedet" />
		<tag k="ssr:stedsnr" v="627977" />
	</node>
	<node id="1420062362" lat="70.7867093" lon="28.6688393" version="4" timestamp="2022-07-10T17:17:02Z" changeset="123440806" uid="3497659" user="NKA">
		<tag k="name" v="Store Molvik" />
		<tag k="old_name" v="Molvik, store" />
		<tag k="place" v="hamlet" />
		<tag k="ssr:stedsnr" v="81946" />
	</node>
	<node id="2353296584" lat="70.872239" lon="29.08495" version="2" timestamp="2018-05-02T17:03:48Z" changeset="58620907" uid="3497659" user="NKA">
		<tag k="name" v="Valen" />
		<tag k="name:no" v="Valen" />
		<tag k="natural" v="cape" />
		<tag k="source" v="Kartverket" />
		<tag k="ssr:stedsnr" v="263969" />
	</node>
	<node id="3690530483" lat="70.7202395" lon="29.3191592" version="2" timestamp="2022-07-10T17:17:02Z" changeset="123440806" uid="3497659" user="NKA">
		<tag k="name" v="Kongsfjord" />
		<tag k="place" v="village" />
		<tag k="ssr:stedsnr" v="80420" />
	</node>
	<node id="4081420553" lat="70.7245007" lon="29.3520124" version="2" timestamp="2022-07-10T17:17:02Z" changeset="123440806" uid="3497659" user="NKA">
		<tag k="name" v="Veidnes" />
		<tag k="old_name" v="Veines" />
		<tag k="place" v="hamlet" />
		<tag k="ssr:stedsnr" v="80415" />
	</node>
	<node id="9879253915" lat="70.8321279" lon="28.8975293" version="1" timestamp="2022-07-10T17:17:02Z" changeset="123440806" uid="3497659" user="NKA">
		<tag k="name" v="Rikardslåtta" />
		<tag k="place" v="locality" />
		<tag k="ssr:stedsnr" v="627989" />
	</node>
	<node id="9879253916" lat="70.8682006" lon="29.0192571" version="1" timestamp="2022-07-10T17:17:02Z" changeset="123440806" uid="3497659" user="NKA">
		<tag k="name" v="Storsletta" />
		<tag k="place" v="farm" />
		<tag k="ssr:stedsnr" v="263966" />
	</node>
	<node id="9879322517" lat="70.8667112" lon="28.8024026" version="1" timestamp="2022-07-10T17:17:02Z" changeset="123440806" uid="3497659" user="NKA">
		<tag k="name" v="Skipsnes" />
		<tag k="place" v="locality" />
		<tag k="ssr:stedsnr" v="269500" />
	</node>
	<node id="9879322518" lat="70.6528252" lon="29.2679048" version="1" timestamp="2022-07-10T17:17:02Z" changeset="123440806" uid="3497659" user="NKA">
		<tag k="name" v="Sætran" />
		<tag k="place" v="locality" />
		<tag k="ssr:stedsnr" v="329542" />
	</node>
	<node id="9879322519" lat="70.799864" lon="28.9161429" version="1" timestamp="2022-07-10T17:17:02Z" changeset="123440806" uid="3497659" user="NKA">
		<tag k="name" v="Bastholmslåtta" />
		<tag k="place" v="locality" />
		<tag k="ssr:stedsnr" v="627995" />
	</node>
	<node id="9879322520" lat="70.6762752" lon="28.6250246" version="1" timestamp="2022-07-10T17:17:02Z" changeset="123440806" uid="3497659" user="NKA">
		<tag k="alt_name" v="Trollfjorden" />
		<tag k="name" v="Gulgofjorden" />
		<tag k="place" v="hamlet" />
		<tag k="ssr:stedsnr" v="202343" />
	</node>
	<node id="9879322521" lat="70.8838668" lon="28.9554842" version="1" timestamp="2022-07-10T17:17:02Z" changeset="123440806" uid="3497659" user="NKA">
		<tag k="name" v="Russehamna" />
		<tag k="place" v="isolated_dwelling" />
		<tag k="ssr:stedsnr" v="263962" />
	</node>
	<node id="9879322522" lat="70.6750459" lon="29.2397962" version="1" timestamp="2022-07-10T17:17:02Z" changeset="123440806" uid="3497659" user="NKA">
		<tag k="name" v="Myrvoll" />
		<tag k="place" v="hamlet" />
		<tag k="ssr:stedsnr" v="141424" />
	</node>
	<node id="9879322523" lat="70.7660148" lon="29.3475231" version="1" timestamp="2022-07-10T17:17:02Z" changeset="123440806" uid="3497659" user="NKA">
		<tag k="name" v="Nordmannset - Struhppu" />
		<tag k="name:no" v="Nordmannset" />
		<tag k="name:se" v="Struhppu" />
		<tag k="old_name:se" v="Struppo" />
		<tag k="place" v="hamlet" />
		<tag k="ssr:stedsnr" v="141998" />
	</node>
	<node id="9879322524" lat="70.8642029" lon="28.7994137" version="1" timestamp="2022-07-10T17:17:02Z" changeset="123440806" uid="3497659" user="NKA">
		<tag k="name" v="Bukkekeila" />
		<tag k="place" v="locality" />
		<tag k="ssr:stedsnr" v="208506" />
	</node>
	<node id="9879322525" lat="70.8549437" lon="29.1178423" version="1" timestamp="2022-07-10T17:17:02Z" changeset="123440806" uid="3497659" user="NKA">
		<tag k="name" v="Revenes" />
		<tag k="place" v="farm" />
		<tag k="ssr:stedsnr" v="632941" />
	</node>
	<node id="5446183186" lat="70.8671853" lon="28.979794" version="2" timestamp="2019-08-27T22:18:33Z" changeset="73815824" uid="420980" user="NorNorth" />
	<node id="5446183940" lat="70.8671169" lon="28.9800573" version="2" timestamp="2019-08-27T22:18:33Z" changeset="73815824" uid="420980" user="NorNorth" />
	<node id="3466138578" lat="70.85005" lon="29.0911033" version="3" timestamp="2019-08-27T23:48:18Z" changeset="73816945" uid="420980" user="NorNorth" />
	<node id="5446181003" lat="70.8501463" lon="29.0910191" version="2" timestamp="2019-08-27T23:48:18Z" changeset="73816945" uid="420980" user="NorNorth" />
	<node id="5446181370" lat="70.8499627" lon="29.0911934" version="2" timestamp="2019-08-27T23:48:18Z" changeset="73816945" uid="420980" user="NorNorth" />
	<node id="5446183709" lat="70.8545815" lon="29.0996126" version="2" timestamp="2020-11-05T02:48:32Z" changeset="93569607" uid="715936" user="Gazer75" />
	<node id="5446184437" lat="70.8546835" lon="29.0991606" version="2" timestamp="2020-11-05T02:48:32Z" changeset="93569607" uid="715936" user="Gazer75" />
	<way id="127434614" version="9" timestamp="2022-01-21T07:16:18Z" changeset="116415148" uid="3497659" user="NKA">
		<tag k="bridge" v="yes" />
		<tag k="cycleway:both" v="no" />
		<tag k="highway" v="primary" />
		<tag k="layer" v="1" />
		<tag k="maxspeed" v="50" />
		<tag k="name" v="Storelvbrua" />
		<tag k="ref" v="890" />
		<tag k="ssr:stedsnr" v="334279" />
		<tag k="surface" v="asphalt" />
		<nd ref="5446183709" />
		<nd ref="5446184437" />
	</way>
	<way id="231369913" version="7" timestamp="2022-01-21T07:16:18Z" changeset="116415148" uid="3497659" user="NKA">
		<tag k="bridge" v="yes" />
		<tag k="highway" v="unclassified" />
		<tag k="layer" v="1" />
		<tag k="maxspeed" v="80" />
		<tag k="name" v="Skonsvikbrua" />
		<tag k="passing_places" v="yes" />
		<tag k="snowmobile" v="designated" />
		<tag k="snowmobile:name" v="Berlevåg flyplass - Molvik" />
		<tag k="snowmobile:ref" v="2" />
		<tag k="ssr:stedsnr" v="562689" />
		<tag k="surface" v="gravel" />
		<tag k="unsigned_ref" v="Kv2" />
		<tag k="width" v="3" />
		<nd ref="5446183940" />
		<nd ref="5446183186" />
	</way>
	<way id="565509116" version="5" timestamp="2022-01-21T07:34:53Z" changeset="116415921" uid="3497659" user="NKA">
		<tag k="bridge" v="yes" />
		<tag k="highway" v="unclassified" />
		<tag k="layer" v="1" />
		<tag k="name" v="Jernbanebrua" />
		<tag k="railway" v="abandoned" />
		<tag k="ssr:stedsnr" v="882242" />
		<tag k="surface" v="gravel" />
		<tag k="unsigned_ref" v="Kv13" />
		<nd ref="5446181003" />
		<nd ref="3466138578" />
		<nd ref="5446181370" />
	</way>
</osm>
