<?xml version="1.0" encoding="UTF-8"?>
<osm generator="osmapis" version="0.6">
	<node id="-419194" lat="59.651761113" lon="6.38563611499">
		<tag k="junction" v="yes" />
		<tag k="name" v="Kastfosskrysset" />
		<tag k="place" v="locality" />
		<tag k="ssr:stedsnr" v="788866" />
	</node>
	<node id="-418365" lat="59.7247222249" lon="6.57310554765">
		<tag k="bridge" v="yes" />
		<tag k="layer" v="1" />
		<tag k="name" v="Fosså" />
		<tag k="ssr:stedsnr" v="47599" />
	</node>
	<node id="-419174" lat="59.6383888846" lon="6.44705833531">
		<tag k="highway" v="path" />
		<tag k="name" v="Øvstabrekka" />
		<tag k="ssr:stedsnr" v="788055" />
	</node>
	<node id="-418913" lat="59.6069388853" lon="6.29265555679">
		<tag k="layer" v="-1" />
		<tag k="name" v="Varstad" />
		<tag k="ssr:stedsnr" v="590652" />
		<tag k="tunnel" v="yes" />
	</node>
	<node id="-418512" lat="59.6441888929" lon="6.31504443601">
		<tag k="bridge" v="yes" />
		<tag k="layer" v="1" />
		<tag k="name" v="Neselv" />
		<tag k="ssr:stedsnr" v="168609" />
	</node>
	<node id="-418993" lat="59.6293027795" lon="6.25258333373">
		<tag k="bridge" v="yes" />
		<tag k="layer" v="1" />
		<tag k="name" v="Øygardselva" />
		<tag k="ssr:stedsnr" v="654608" />
	</node>
	<node id="-418138" lat="59.6793861099" lon="6.34862222983">
		<tag k="bridge" v="yes" />
		<tag k="layer" v="1" />
		<tag k="name" v="Tverråna" />
		<tag k="ssr:stedsnr" v="290541" />
	</node>
	<node id="-418137" lat="59.6959749975" lon="6.51756111337">
		<tag k="bridge" v="yes" />
		<tag k="layer" v="1" />
		<tag k="name" v="Lona" />
		<tag k="ssr:stedsnr" v="290535" />
	</node>
	<node id="-419288" lat="59.6710777754" lon="6.41466111866">
		<tag k="highway" v="path" />
		<tag k="name" v="Uraløypa" />
		<tag k="ssr:stedsnr" v="849893" />
	</node>
	<node id="-419153" lat="59.6248111074" lon="6.29198888601">
		<tag k="bridge" v="yes" />
		<tag k="layer" v="1" />
		<tag k="name" v="Svandalsfossen" />
		<tag k="ssr:stedsnr" v="775581" />
	</node>
	<node id="-419152" lat="59.57255556" lon="6.28644167363">
		<tag k="bridge" v="yes" />
		<tag k="layer" v="1" />
		<tag k="name" v="Hustveit" />
		<tag k="ssr:stedsnr" v="775570" />
	</node>
	<node id="-418511" lat="59.6066000004" lon="6.37376667327">
		<tag k="bridge" v="yes" />
		<tag k="layer" v="1" />
		<tag k="name" v="Maldal" />
		<tag k="ssr:stedsnr" v="168607" />
	</node>
	<node id="-419234" lat="59.6250638875" lon="6.24540277131">
		<tag k="bridge" v="yes" />
		<tag k="layer" v="1" />
		<tag k="name" v="Juvselva" />
		<tag k="ssr:stedsnr" v="836579" />
	</node>
	<node id="-419402" lat="59.7188916627" lon="6.55888889242">
		<tag k="bridge" v="yes" />
		<tag k="layer" v="1" />
		<tag k="name" v="Tjødnastøl" />
		<tag k="ssr:stedsnr" v="957597" />
	</node>
	<node id="-419401" lat="59.5863611113" lon="6.34276944559">
		<tag k="bridge" v="yes" />
		<tag k="layer" v="1" />
		<tag k="name" v="Mollaelva" />
		<tag k="ssr:stedsnr" v="957594" />
	</node>
	<node id="-418583" lat="59.6556861112" lon="6.38121667527">
		<tag k="bridge" v="yes" />
		<tag k="layer" v="1" />
		<tag k="name" v="Kastfoss" />
		<tag k="ssr:stedsnr" v="229609" />
	</node>
	<node id="-418438" lat="59.6253833376" lon="6.29217777844">
		<tag k="bridge" v="yes" />
		<tag k="layer" v="1" />
		<tag k="name" v="Sagløpet" />
		<tag k="ssr:stedsnr" v="108616" />
	</node>
	<node id="-418366" lat="59.6352055527" lon="6.36473333295">
		<tag k="bridge" v="yes" />
		<tag k="layer" v="1" />
		<tag k="name" v="Sagåna" />
		<tag k="ssr:stedsnr" v="47609" />
	</node>
	<node id="-419261" lat="59.6441444471" lon="6.4417222224">
		<tag k="highway" v="path" />
		<tag k="name" v="Nedstabrekka" />
		<tag k="ssr:stedsnr" v="849089" />
	</node>
	<node id="-418236" lat="59.6303749957" lon="6.2580444498">
		<tag k="bridge" v="yes" />
		<tag k="layer" v="1" />
		<tag k="name" v="Storebekken" />
		<tag k="ssr:stedsnr" v="350585" />
	</node>
	<node id="-418235" lat="59.6393249984" lon="6.30320277142">
		<tag k="bridge" v="yes" />
		<tag k="layer" v="1" />
		<tag k="name" v="Saudaelv" />
		<tag k="ssr:stedsnr" v="350584" />
	</node>
	<node id="-418234" lat="59.6531694475" lon="6.4665611144">
		<tag k="bridge" v="yes" />
		<tag k="layer" v="1" />
		<tag k="name" v="Juvastøl" />
		<tag k="ssr:stedsnr" v="350578" />
	</node>
	<node id="-418739" lat="59.6548250017" lon="6.44692221387">
		<tag k="bridge" v="yes" />
		<tag k="layer" v="1" />
		<tag k="name" v="Trosshøl" />
		<tag k="ssr:stedsnr" v="472596" />
	</node>
	<node id="-418738" lat="59.6497555519" lon="6.35716666822">
		<tag k="bridge" v="yes" />
		<tag k="layer" v="1" />
		<tag k="name" v="Nordelv" />
		<tag k="ssr:stedsnr" v="472593" />
	</node>
	<node id="-418737" lat="59.5947194484" lon="6.28563333478">
		<tag k="layer" v="-1" />
		<tag k="name" v="Honganvik" />
		<tag k="ssr:stedsnr" v="469534" />
		<tag k="tunnel" v="yes" />
	</node>
	<node id="-418992" lat="59.6523750011" lon="6.46351945091">
		<tag k="bridge" v="yes" />
		<tag k="layer" v="1" />
		<tag k="name" v="Juvastøl Nedre" />
		<tag k="ssr:stedsnr" v="654598" />
	</node>
	<node id="-418991" lat="59.6571138862" lon="6.40076389602">
		<tag k="bridge" v="yes" />
		<tag k="layer" v="1" />
		<tag k="name" v="Birkeland Øvre" />
		<tag k="ssr:stedsnr" v="654593" />
	</node>
	<node id="-418237" lat="59.6436250024" lon="6.36566389644">
		<tag k="alt_name" v="Sønnåhamn" />
		<tag k="man_made" v="quay" />
		<tag k="name" v="Sønnåhamnen" />
		<tag k="place" v="locality" />
		<tag k="ssr:stedsnr" v="350588" />
	</node>
	<node id="-419113" lat="59.6275638933" lon="6.36184999934">
		<tag k="highway" v="path" />
		<tag k="name" v="Gamle Malldalsveien" />
		<tag k="ssr:stedsnr" v="727717" />
	</node>
	<node id="-419365" lat="59.6575361093" lon="6.35860833281">
		<tag k="bridge" v="yes" />
		<tag k="layer" v="1" />
		<tag k="name" v="Fløgstadtjørna" />
		<tag k="ssr:stedsnr" v="909893" />
	</node>
	<node id="-419235" lat="59.609358334" lon="6.34652222018">
		<tag k="bridge" v="yes" />
		<tag k="layer" v="1" />
		<tag k="name" v="Maldalselva" />
		<tag k="ssr:stedsnr" v="836584" />
	</node>
	<node id="-418211" lat="59.6637346142" lon="6.4214439916">
		<tag k="highway" v="path" />
		<tag k="name" v="Kleivane" />
		<tag k="ssr:stedsnr" v="306973" />
	</node>
	<node id="-418846" lat="59.7072611118" lon="6.33982221558">
		<tag k="ford" v="yes" />
		<tag k="name" v="Idlava" />
		<tag k="place" v="locality" />
		<tag k="ssr:stedsnr" v="545080" />
	</node>
	<node id="-418334" lat="59.7231333314" lon="6.56040554902">
		<tag k="bridge" v="yes" />
		<tag k="layer" v="1" />
		<tag k="name" v="Breiborg" />
		<tag k="ssr:stedsnr" v="897565" />
	</node>
	<node id="-418333" lat="59.6338833343" lon="6.30190833109">
		<tag k="layer" v="-1" />
		<tag k="name" v="Djupevik" />
		<tag k="ssr:stedsnr" v="894428" />
		<tag k="tunnel" v="yes" />
	</node>
	<node id="-418327" lat="59.6932936344" lon="6.51275821458">
		<tag k="bridge" v="yes" />
		<tag k="layer" v="1" />
		<tag k="name" v="Årtun" />
		<tag k="ssr:stedsnr" v="411606" />
	</node>
	<node id="-418326" lat="59.6515694403" lon="6.38727499927">
		<tag k="bridge" v="yes" />
		<tag k="layer" v="1" />
		<tag k="name" v="Birkeland Nedre" />
		<tag k="ssr:stedsnr" v="411586" />
	</node>
	<node id="-418325" lat="59.6433111145" lon="6.3181472142">
		<tag k="layer" v="-1" />
		<tag k="name" v="Nes" />
		<tag k="ssr:stedsnr" v="408371" />
		<tag k="tunnel" v="yes" />
	</node>
	<node id="-418136" lat="59.6289194486" lon="6.29642778402">
		<tag k="layer" v="-1" />
		<tag k="name" v="Borevik" />
		<tag k="ssr:stedsnr" v="287123" />
		<tag k="tunnel" v="yes" />
	</node>
	<node id="-418189" lat="59.5752361156" lon="6.30567777976">
		<tag k="man_made" v="quay" />
		<tag k="name" v="Storskjerkaien" />
		<tag k="place" v="locality" />
		<tag k="ssr:stedsnr" v="303275" />
	</node>
	<node id="-418826" lat="59.5739583345" lon="6.33634722654">
		<tag k="bridge" v="yes" />
		<tag k="layer" v="1" />
		<tag k="name" v="Tveitåna" />
		<tag k="ssr:stedsnr" v="533631" />
	</node>
	<node id="-418825" lat="59.6541499983" lon="6.46950554812">
		<tag k="bridge" v="yes" />
		<tag k="layer" v="1" />
		<tag k="name" v="Juvastøl Øvre" />
		<tag k="ssr:stedsnr" v="533621" />
	</node>
	<node id="-418440" lat="59.6053333347" lon="6.29243334131">
		<tag k="bridge" v="yes" />
		<tag k="layer" v="1" />
		<tag k="name" v="Varstad" />
		<tag k="ssr:stedsnr" v="108623" />
	</node>
	<node id="-418439" lat="59.6488083325" lon="6.36274444399">
		<tag k="bridge" v="yes" />
		<tag k="layer" v="1" />
		<tag k="name" v="Storelv" />
		<tag k="ssr:stedsnr" v="108618" />
	</node>
	<node id="-419334" lat="59.6665861144" lon="6.46020278259">
		<tag k="highway" v="path" />
		<tag k="name" v="Gamle Hellandsbygdvegen" />
		<tag k="ssr:stedsnr" v="909026" />
	</node>
	<node id="-418437" lat="59.7144833373" lon="6.55316111003">
		<tag k="bridge" v="yes" />
		<tag k="layer" v="1" />
		<tag k="name" v="Nip" />
		<tag k="ssr:stedsnr" v="108615" />
	</node>
</osm>
