<?xml version="1.0" encoding="UTF-8"?>
<<<<<<< HEAD
<osm version="0.6" generator="osmapis">
	<node lat="59.653705552929495" lon="6.463424997524107" id="-2853">
		<tag k="alt_name" v="Juvastøl" />
		<tag k="historic" v="shieling" />
		<tag k="name" v="Gjuvastøl" />
		<tag k="place" v="isolated_dwelling" />
		<tag k="ssr:stedsnr" v="3739" />
	</node>
	<node lat="59.66943842746811" lon="6.360075259885339" id="-2854">
		<tag k="fixme" v="consider place=hamlet" />
		<tag k="name" v="Åbø" />
		<tag k="place" v="farm" />
		<tag k="ssr:stedsnr" v="3757" />
	</node>
	<node lat="59.67102221811492" lon="6.233194437409346" id="-2880">
		<tag k="historic" v="shieling" />
		<tag k="name" v="Garlag" />
		<tag k="place" v="isolated_dwelling" />
		<tag k="ssr:stedsnr" v="60787" />
	</node>
	<node lat="59.61835555228512" lon="6.448824999686162" id="-2883">
		<tag k="name" v="Finnabu" />
		<tag k="place" v="isolated_dwelling" />
		<tag k="ssr:stedsnr" v="63780" />
	</node>
	<node lat="59.62560415350856" lon="6.278723701737667" id="-2888">
		<tag k="fixme" v="consider place=hamlet" />
		<tag k="name" v="Øye" />
		<tag k="place" v="farm" />
		<tag k="ssr:stedsnr" v="64816" />
	</node>
	<node lat="59.58983610955381" lon="6.330000007431484" id="-2889">
		<tag k="name" v="Flesja" />
		<tag k="place" v="isolated_dwelling" />
		<tag k="ssr:stedsnr" v="64859" />
	</node>
	<node lat="59.59259548663555" lon="6.286937013207134" id="-2890">
		<tag k="alt_name" v="Hangandvik;Hoganvik" />
		<tag k="fixme" v="consider place=hamlet" />
		<tag k="name" v="Honganvik" />
		<tag k="old_name" v="Hanganvik" />
		<tag k="place" v="farm" />
		<tag k="ssr:stedsnr" v="64861" />
	</node>
	<node lat="59.75773888879869" lon="6.483766671762328" id="-2893">
		<tag k="historic" v="shieling" />
		<tag k="name" v="Kulthaug" />
		<tag k="place" v="isolated_dwelling" />
		<tag k="ssr:stedsnr" v="65082" />
	</node>
	<node lat="59.664880554680785" lon="6.400666658448382" id="-2903">
		<tag k="name" v="Skei" />
		<tag k="place" v="farm" />
		<tag k="ssr:stedsnr" v="242889" />
	</node>
	<node lat="59.59020914311726" lon="6.292927963045284" id="-2913">
		<tag k="fixme" v="consider place=hamlet" />
		<tag k="name" v="Haugen" />
		<tag k="place" v="farm" />
		<tag k="ssr:stedsnr" v="242266" />
	</node>
	<node lat="59.730508329782516" lon="6.4868305618968405" id="-2915">
		<tag k="historic" v="shieling" />
		<tag k="name" v="Liastøl" />
		<tag k="place" v="isolated_dwelling" />
		<tag k="ssr:stedsnr" v="242550" />
	</node>
	<node lat="59.6572916633641" lon="6.363063893344431" id="-2923">
		<tag k="name" v="Solbrekk" />
		<tag k="place" v="farm" />
		<tag k="ssr:stedsnr" v="242871" />
	</node>
	<node lat="59.66510277757977" lon="6.390188894873894" id="-2925">
		<tag k="name" v="Moatræ" />
		<tag k="place" v="farm" />
		<tag k="ssr:stedsnr" v="242915" />
	</node>
	<node lat="59.644688889197866" lon="6.332500002277752" id="-2926">
		<tag k="name" v="Fagerheim" />
		<tag k="place" v="farm" />
		<tag k="ssr:stedsnr" v="242926" />
	</node>
	<node lat="59.654477776281645" lon="6.267588890689873" id="-2935">
		<tag k="alt_name" v="Mosbakkastøl" />
		<tag k="historic" v="shieling" />
		<tag k="name" v="Mosbakkastølen" />
		<tag k="place" v="isolated_dwelling" />
		<tag k="ssr:stedsnr" v="246737" />
	</node>
	<node lat="59.65839651411783" lon="6.3174305665428765" id="-2936">
		<tag k="fixme" v="consider place=hamlet" />
		<tag k="name" v="Amdal" />
		<tag k="place" v="farm" />
		<tag k="ssr:stedsnr" v="246738" />
	</node>
	<node lat="59.69127777548486" lon="6.510933328794582" id="-2938">
		<tag k="alt_name" v="Hellandsbygd" />
		<tag k="fixme" v="consider place=hamlet" />
		<tag k="name" v="Hellandsbygda" />
		<tag k="place" v="village" />
		<tag k="ssr:stedsnr" v="245995" />
	</node>
	<node lat="59.69953610898692" lon="6.3553111157770195" id="-2939">
		<tag k="name" v="Nip" />
		<tag k="place" v="isolated_dwelling" />
		<tag k="ssr:stedsnr" v="245932" />
	</node>
	<node lat="59.628661107261145" lon="6.390708329523883" id="-2947">
		<tag k="alt_name" v="Hjelmen" />
		<tag k="historic" v="shieling" />
		<tag k="name" v="Tjelmen" />
		<tag k="place" v="isolated_dwelling" />
		<tag k="ssr:stedsnr" v="246765" />
	</node>
	<node lat="59.71446666337002" lon="6.4757027843807595" id="-2952">
		<tag k="historic" v="shieling" />
		<tag k="name" v="Storestølen" />
		<tag k="place" v="isolated_dwelling" />
		<tag k="ssr:stedsnr" v="246951" />
	</node>
	<node lat="59.668580554486454" lon="6.399297219587035" id="-2970">
		<tag k="name" v="Løhaugen" />
		<tag k="place" v="farm" />
		<tag k="ssr:stedsnr" v="120883" />
	</node>
	<node lat="59.659001039244046" lon="6.377295969764871" id="-2975">
		<tag k="fixme" v="consider place=hamlet" />
		<tag k="name" v="Teig" />
		<tag k="place" v="farm" />
		<tag k="ssr:stedsnr" v="124717" />
	</node>
	<node lat="59.732191666448806" lon="6.426594451854223" id="-2980">
		<tag k="historic" v="shieling" />
		<tag k="name" v="Søljestølen" />
		<tag k="place" v="isolated_dwelling" />
		<tag k="ssr:stedsnr" v="124903" />
	</node>
	<node lat="59.64973611076029" lon="6.382661102828159" id="-3005">
		<tag k="name" v="Engjahaugen" />
		<tag k="place" v="farm" />
		<tag k="ssr:stedsnr" v="185736" />
	</node>
	<node lat="59.663122221933186" lon="6.3782166605700095" id="-3009">
		<tag k="name" v="Trebøen" />
		<tag k="place" v="farm" />
		<tag k="ssr:stedsnr" v="224842" />
	</node>
	<node lat="59.66891666687346" lon="6.3558999994547065" id="-3011">
		<tag k="name" v="Djupadalen" />
		<tag k="place" v="quarter" />
		<tag k="ssr:stedsnr" v="238832" />
	</node>
	<node lat="59.63731414376697" lon="6.298666633210236" id="-3023">
		<tag k="fixme" v="multiple name tags, choose one and add the other to alt_name; consider place=hamlet" />
		<tag k="name" v="Sauda;Saua" />
		<tag k="place" v="farm" />
		<tag k="ssr:stedsnr" v="246725" />
	</node>
	<node lat="59.633755553116174" lon="6.293013889257764" id="-3025">
		<tag k="name" v="Storflot" />
		<tag k="place" v="farm" />
		<tag k="ssr:stedsnr" v="246768" />
	</node>
	<node lat="59.629553318741536" lon="6.265328397409819" id="-3026">
		<tag k="alt_name" v="Kvammen;Nedre Kvamen" />
		<tag k="fixme" v="consider place=hamlet" />
		<tag k="name" v="Kvamen" />
		<tag k="place" v="farm" />
		<tag k="ssr:stedsnr" v="246770" />
	</node>
	<node lat="59.744927774410094" lon="6.5024000052797115" id="-3032">
		<tag k="name" v="Indrejorda" />
		<tag k="place" v="isolated_dwelling" />
		<tag k="ssr:stedsnr" v="246912" />
	</node>
	<node lat="59.66777887874053" lon="6.402431066045693" id="-3033">
		<tag k="alt_name" v="Austarheim" />
		<tag k="fixme" v="consider place=hamlet" />
		<tag k="name" v="Austareim" />
=======
<osm generator="osmapis" version="0.6">
	<node id="-35071" lat="59.6676623695" lon="6.35157521792">
		<tag k="fixme" v="consider place=hamlet" />
		<tag k="name" v="Espeland" />
		<tag k="place" v="farm" />
		<tag k="ssr:stedsnr" v="3992" />
	</node>
	<node id="-35318" lat="59.7205611078" lon="6.50178333046">
		<tag k="name" v="Øygarden" />
		<tag k="place" v="isolated_dwelling" />
		<tag k="ssr:stedsnr" v="307963" />
	</node>
	<node id="-35315" lat="59.6471861105" lon="6.35969999455">
		<tag k="building" v="industrial" />
		<tag k="industrial" v="factory" />
		<tag k="name" v="Sauda smelteverk" />
		<tag k="ssr:stedsnr" v="307769" />
	</node>
	<node id="-34800" lat="59.6740111095" lon="6.47578888457">
		<tag k="historic" v="shieling" />
		<tag k="name" v="Øvstestølen" />
		<tag k="place" v="locality" />
		<tag k="ssr:stedsnr" v="545022" />
	</node>
	<node id="-35307" lat="59.6585305574" lon="6.26944444756">
		<tag k="historic" v="shieling" />
		<tag k="name" v="Hovlandsstølen" />
		<tag k="place" v="locality" />
		<tag k="ssr:stedsnr" v="306987" />
	</node>
	<node id="-35304" lat="59.6919416661" lon="6.35960278195">
		<tag k="historic" v="shieling" />
		<tag k="name" v="Liaset" />
		<tag k="place" v="locality" />
		<tag k="ssr:stedsnr" v="306949" />
	</node>
	<node id="-34785" lat="59.6076999988" lon="6.38787222154">
		<tag k="name" v="Nyløa" />
		<tag k="place" v="locality" />
		<tag k="ssr:stedsnr" v="484668" />
	</node>
	<node id="-34774" lat="59.7197750016" lon="6.42619167481">
		<tag k="name" v="Fjotedalen" />
		<tag k="place" v="isolated_dwelling" />
		<tag k="ssr:stedsnr" v="671964" />
	</node>
	<node id="-34771" lat="59.629374998" lon="6.2256194384">
		<tag k="name" v="Kakelborg" />
		<tag k="place" v="isolated_dwelling" />
		<tag k="ssr:stedsnr" v="671793" />
	</node>
	<node id="-34768" lat="59.7508055573" lon="6.3460083274">
		<tag k="alt_name" v="Viå" />
		<tag k="historic" v="shieling" />
		<tag k="name" v="Vio" />
		<tag k="place" v="locality" />
		<tag k="ssr:stedsnr" v="671120" />
	</node>
	<node id="-35279" lat="59.6300611135" lon="6.56265833978">
		<tag k="name" v="Byrkjeland" />
		<tag k="place" v="farm" />
		<tag k="ssr:stedsnr" v="303035" />
	</node>
	<node id="-34762" lat="59.6646007434" lon="6.39171273137">
		<tag k="alt_name" v="Hereim" />
		<tag k="fixme" v="consider place=hamlet" />
		<tag k="name" v="Herheim" />
		<tag k="place" v="farm" />
		<tag k="ssr:stedsnr" v="670976" />
	</node>
	<node id="-35273" lat="59.6828416668" lon="6.6249499923">
		<tag k="historic" v="shieling" />
		<tag k="name" v="Stovedalsstølen" />
		<tag k="place" v="locality" />
		<tag k="ssr:stedsnr" v="302441" />
	</node>
	<node id="-34759" lat="59.5734609866" lon="6.32743029029">
		<tag k="alt_name" v="Moldatveit" />
		<tag k="fixme" v="consider place=hamlet" />
		<tag k="name" v="Mollatveit" />
		<tag k="place" v="farm" />
		<tag k="ssr:stedsnr" v="670857" />
	</node>
	<node id="-35781" lat="59.6192414276" lon="6.34109420295">
		<tag k="fixme" v="consider place=hamlet" />
		<tag k="name" v="Solheim" />
		<tag k="place" v="farm" />
		<tag k="ssr:stedsnr" v="1072013" />
	</node>
	<node id="-34756" lat="59.6058864528" lon="6.29347795761">
		<tag k="fixme" v="consider place=hamlet" />
		<tag k="name" v="Varstadneset" />
		<tag k="place" v="farm" />
		<tag k="ssr:stedsnr" v="670819" />
	</node>
	<node id="-34755" lat="59.5901175478" lon="6.34458379126">
		<tag k="fixme" v="consider place=hamlet" />
		<tag k="name" v="Vetrhus" />
		<tag k="place" v="farm" />
		<tag k="ssr:stedsnr" v="670805" />
	</node>
	<node id="-35778" lat="59.634058402" lon="6.29048960367">
		<tag k="fixme" v="consider place=hamlet" />
		<tag k="name" v="Hedlot" />
		<tag k="place" v="farm" />
		<tag k="ssr:stedsnr" v="1072003" />
	</node>
	<node id="-35777" lat="59.6279868786" lon="6.29616490063">
		<tag k="fixme" v="consider place=hamlet" />
		<tag k="name" v="Borvik" />
		<tag k="place" v="farm" />
		<tag k="ssr:stedsnr" v="1072002" />
	</node>
	<node id="-34752" lat="59.6423284374" lon="6.2959188478">
		<tag k="fixme" v="consider place=hamlet" />
		<tag k="name" v="Mosbakka" />
		<tag k="place" v="farm" />
		<tag k="ssr:stedsnr" v="670735" />
	</node>
	<node id="-34747" lat="59.642558331" lon="6.26224722098">
		<tag k="historic" v="shieling" />
		<tag k="name" v="Lindvollstølen" />
		<tag k="place" v="locality" />
		<tag k="ssr:stedsnr" v="666978" />
	</node>
	<node id="-35256" lat="59.7274499963" lon="6.34317499979">
		<tag k="alt_name" v="Buhidler" />
		<tag k="historic" v="shieling" />
		<tag k="name" v="Buhiller" />
		<tag k="place" v="locality" />
		<tag k="ssr:stedsnr" v="185904" />
	</node>
	<node id="-35060" lat="59.6257986171" lon="6.26896553095">
		<tag k="fixme" v="consider place=hamlet" />
		<tag k="name" v="Eikesås" />
		<tag k="place" v="farm" />
		<tag k="ssr:stedsnr" v="3799" />
	</node>
	<node id="-35254" lat="59.5732111126" lon="6.29655277656">
		<tag k="name" v="Djupevik" />
		<tag k="place" v="isolated_dwelling" />
		<tag k="ssr:stedsnr" v="185854" />
	</node>
	<node id="-35764" lat="59.7071833332" lon="6.52223610579">
		<tag k="historic" v="shieling" />
		<tag k="name" v="Gamlestølen" />
		<tag k="place" v="locality" />
		<tag k="ssr:stedsnr" v="970279" />
	</node>
	<node id="-35251" lat="59.6349749972" lon="6.49232499806">
		<tag k="alt_name" v="Breidkvam" />
		<tag k="historic" v="shieling" />
		<tag k="name" v="Breikvam" />
		<tag k="place" v="locality" />
		<tag k="ssr:stedsnr" v="185795" />
	</node>
	<node id="-34736" lat="59.7372640684" lon="6.58999176134">
		<tag k="historic" v="shieling" />
		<tag k="name" v="Botnastølen" />
		<tag k="place" v="locality" />
		<tag k="ssr:stedsnr" v="666800" />
	</node>
	<node id="-35244" lat="59.6497361108" lon="6.38266110283">
		<tag k="name" v="Engjahaugen" />
>>>>>>> e1d4bc35ff8a6074a6f2e91616a996b547c36f15
		<tag k="place" v="farm" />
		<tag k="ssr:stedsnr" v="185736" />
	</node>
<<<<<<< HEAD
	<node lat="59.663563889599324" lon="6.469733332428719" id="-3034">
		<tag k="historic" v="shieling" />
		<tag k="name" v="Brekka" />
		<tag k="place" v="isolated_dwelling" />
		<tag k="ssr:stedsnr" v="246975" />
	</node>
	<node lat="59.661111113759176" lon="6.359550007568678" id="-3036">
		<tag k="name" v="Åbødalen" />
		<tag k="place" v="quarter" />
		<tag k="ssr:stedsnr" v="298773" />
	</node>
	<node lat="59.658502779539724" lon="6.260025005124087" id="-3061">
		<tag k="historic" v="shieling" />
		<tag k="name" v="Steingardslia" />
		<tag k="place" v="isolated_dwelling" />
		<tag k="ssr:stedsnr" v="303977" />
	</node>
	<node lat="59.720561107836765" lon="6.5017833304572585" id="-3074">
		<tag k="name" v="Øygarden" />
		<tag k="place" v="isolated_dwelling" />
		<tag k="ssr:stedsnr" v="307963" />
	</node>
	<node lat="59.608446730607135" lon="6.367546382388444" id="-3093">
		<tag k="alt_name" v="Malldal" />
		<tag k="fixme" v="consider place=hamlet" />
		<tag k="name" v="Maldal" />
		<tag k="place" v="farm" />
		<tag k="ssr:stedsnr" v="367809" />
	</node>
	<node lat="59.65331370467877" lon="6.317936679473657" id="-3117">
		<tag k="fixme" v="multiple name tags, choose one and add the other to alt_name; consider place=hamlet" />
		<tag k="name" v="Amdalsrød;Tjødnarød" />
		<tag k="place" v="farm" />
		<tag k="ssr:stedsnr" v="484878" />
	</node>
	<node lat="59.655027168622475" lon="6.399882369085286" id="-3122">
		<tag k="fixme" v="consider place=hamlet" />
		<tag k="name" v="Indre Birkeland" />
		<tag k="place" v="farm" />
		<tag k="ssr:stedsnr" v="417696" />
	</node>
	<node lat="59.63826111516126" lon="6.303313881385142" id="-3123">
		<tag k="name" v="Saudasjøen" />
		<tag k="place" v="village" />
		<tag k="ssr:stedsnr" v="488765" />
	</node>
	<node lat="59.66418704232417" lon="6.281105993961605" id="-3128">
		<tag k="fixme" v="consider place=hamlet" />
		<tag k="name" v="Fosstveit" />
		<tag k="place" v="farm" />
		<tag k="ssr:stedsnr" v="488781" />
	</node>
	<node lat="59.74361666699245" lon="6.492477782220994" id="-3130">
		<tag k="alt_name" v="Tjødnabakken" />
		<tag k="name" v="Tjørnabakken" />
		<tag k="place" v="isolated_dwelling" />
		<tag k="ssr:stedsnr" v="488922" />
	</node>
	<node lat="59.569818045160076" lon="6.266717265008009" id="-3134">
		<tag k="fixme" v="consider place=hamlet" />
		<tag k="name" v="Hustveit" />
		<tag k="place" v="farm" />
		<tag k="ssr:stedsnr" v="488860" />
	</node>
	<node lat="59.72215833158434" lon="6.559577781207781" id="-3136">
		<tag k="alt_name" v="Breidborg" />
		<tag k="historic" v="shieling" />
		<tag k="name" v="Breiborg" />
		<tag k="place" v="isolated_dwelling" />
		<tag k="ssr:stedsnr" v="488964" />
	</node>
	<node lat="59.73184444637423" lon="6.373866662503864" id="-3148">
		<tag k="historic" v="shieling" />
		<tag k="name" v="Moringdalen" />
		<tag k="place" v="isolated_dwelling" />
		<tag k="ssr:stedsnr" v="424493" />
	</node>
	<node lat="59.663616670550674" lon="6.375086107822811" id="-3158">
		<tag k="loc_name" v="Myrane" />
		<tag k="name" v="Myradn" />
		<tag k="place" v="farm" />
		<tag k="ssr:stedsnr" v="424905" />
	</node>
	<node lat="59.626915104866775" lon="6.2607819981497785" id="-3159">
		<tag k="alt_name" v="Djuv" />
		<tag k="fixme" v="consider place=hamlet" />
		<tag k="loc_name" v="Juv" />
		<tag k="name" v="Gjuv" />
		<tag k="place" v="farm" />
		<tag k="ssr:stedsnr" v="428802" />
	</node>
	<node lat="59.629374997992755" lon="6.225619438396579" id="-3166">
		<tag k="name" v="Kakelborg" />
		<tag k="place" v="isolated_dwelling" />
		<tag k="ssr:stedsnr" v="671793" />
	</node>
	<node lat="59.68050277616544" lon="6.487772218150914" id="-3170">
		<tag k="name" v="Øverland" />
		<tag k="place" v="farm" />
		<tag k="ssr:stedsnr" v="484015" />
	</node>
	<node lat="59.6698222238036" lon="6.482266667394429" id="-3171">
		<tag k="historic" v="shieling" />
		<tag k="name" v="Krostølane" />
		<tag k="place" v="isolated_dwelling" />
		<tag k="ssr:stedsnr" v="484021" />
	</node>
	<node lat="59.67095833362619" lon="6.4591611040399135" id="-3172">
		<tag k="historic" v="shieling" />
		<tag k="name" v="Stølsjo" />
		<tag k="place" v="isolated_dwelling" />
		<tag k="ssr:stedsnr" v="484025" />
	</node>
	<node lat="59.686900003631756" lon="6.513269450174483" id="-3177">
		<tag k="name" v="Litlabø" />
		<tag k="place" v="farm" />
		<tag k="ssr:stedsnr" v="484375" />
	</node>
	<node lat="59.669522226120606" lon="6.266638884709475" id="-3189">
		<tag k="historic" v="shieling" />
		<tag k="name" v="Nordstølen" />
		<tag k="place" v="isolated_dwelling" />
		<tag k="ssr:stedsnr" v="484766" />
	</node>
	<node lat="59.60769999880267" lon="6.387872221540053" id="-3191">
		<tag k="name" v="Nyløa" />
		<tag k="place" v="locality" />
		<tag k="ssr:stedsnr" v="484668" />
	</node>
	<node lat="59.642200004267494" lon="6.301338887687861" id="-3193">
		<tag k="fixme" v="consider place=hamlet" />
		<tag k="name" v="Fredheim" />
		<tag k="place" v="farm" />
		<tag k="ssr:stedsnr" v="484917" />
	</node>
	<node lat="59.65632500184466" lon="6.287544441457664" id="-3194">
		<tag k="historic" v="shieling" />
		<tag k="name" v="Brekkestølen" />
		<tag k="place" v="isolated_dwelling" />
		<tag k="ssr:stedsnr" v="484920" />
	</node>
	<node lat="59.65518405954672" lon="6.491940106369219" id="-3199">
		<tag k="historic" v="shieling" />
		<tag k="name" v="Storli" />
		<tag k="place" v="isolated_dwelling" />
		<tag k="ssr:stedsnr" v="488760" />
	</node>
	<node lat="59.69243611217969" lon="6.445500004542057" id="-3203">
		<tag k="historic" v="shieling" />
		<tag k="name" v="Raudstølen" />
		<tag k="place" v="isolated_dwelling" />
		<tag k="ssr:stedsnr" v="488948" />
	</node>
	<node lat="59.7079361147277" lon="6.5133583264042265" id="-3204">
		<tag k="name" v="Hilleren" />
		<tag k="place" v="isolated_dwelling" />
		<tag k="ssr:stedsnr" v="488951" />
	</node>
	<node lat="59.6744166649173" lon="6.282061111132557" id="-3205">
		<tag k="alt_name" v="Raunastøl" />
		<tag k="historic" v="shieling" />
		<tag k="name" v="Ramnastølen" />
		<tag k="place" v="isolated_dwelling" />
		<tag k="ssr:stedsnr" v="488994" />
	</node>
	<node lat="59.67401110952001" lon="6.475788884569155" id="-3212">
		<tag k="historic" v="shieling" />
		<tag k="name" v="Øvstestølen" />
		<tag k="place" v="isolated_dwelling" />
		<tag k="ssr:stedsnr" v="545022" />
	</node>
	<node lat="59.65384167080275" lon="6.359002768643925" id="-3223">
		<tag k="name" v="Lofthus" />
		<tag k="place" v="farm" />
		<tag k="ssr:stedsnr" v="545874" />
	</node>
	<node lat="59.720449999054544" lon="6.391811111334629" id="-3230">
		<tag k="name" v="Nuten" />
		<tag k="place" v="locality" />
		<tag k="ssr:stedsnr" v="549909" />
	</node>
	<node lat="59.67354166221549" lon="6.342852771564113" id="-3252">
		<tag k="historic" v="shieling" />
		<tag k="loc_name" v="Stølane" />
		<tag k="name" v="Støladn" />
		<tag k="place" v="isolated_dwelling" />
		<tag k="ssr:stedsnr" v="605958" />
	</node>
	<node lat="59.645983335859285" lon="6.262819438456357" id="-3255">
		<tag k="historic" v="shieling" />
		<tag k="name" v="Viasjå" />
		<tag k="place" v="isolated_dwelling" />
		<tag k="ssr:stedsnr" v="605967" />
	</node>
	<node lat="59.581105559925945" lon="6.362599998359827" id="-3258">
		<tag k="alt_name" v="Mollastølen" />
		<tag k="historic" v="shieling" />
		<tag k="name" v="Moldastølen" />
		<tag k="place" v="isolated_dwelling" />
		<tag k="ssr:stedsnr" v="609845" />
	</node>
	<node lat="59.781761109067695" lon="6.4949138899104355" id="-3266">
		<tag k="name" v="Brendehaugane" />
		<tag k="place" v="isolated_dwelling" />
		<tag k="ssr:stedsnr" v="610140" />
	</node>
	<node lat="59.63563944880973" lon="6.297761000210457" id="-3268">
		<tag k="name" v="Sandviksåsen" />
		<tag k="place" v="village" />
		<tag k="ssr:stedsnr" v="610817" />
	</node>
	<node lat="59.798366664661096" lon="6.678044443706731" id="-3275">
		<tag k="fixme" v="consider tourism=alpine_hut or tourism=chalet" />
		<tag k="name" v="Sandvatnbrakka" />
		<tag k="old_name" v="Øvre Sandvatnbrakka;Øvre Sandvatn" />
		<tag k="ssr:stedsnr" v="662384" />
		<tag k="tourism" v="wilderness_hut" />
	</node>
	<node lat="59.642328437433974" lon="6.295918847798077" id="-3292">
		<tag k="fixme" v="consider place=hamlet" />
		<tag k="name" v="Mosbakka" />
		<tag k="place" v="farm" />
		<tag k="ssr:stedsnr" v="670735" />
	</node>
	<node lat="59.590117547754645" lon="6.344583791264162" id="-3293">
		<tag k="fixme" v="consider place=hamlet" />
		<tag k="name" v="Vetrhus" />
		<tag k="place" v="farm" />
		<tag k="ssr:stedsnr" v="670805" />
	</node>
	<node lat="59.664600743416706" lon="6.391712731369994" id="-3294">
		<tag k="alt_name" v="Hereim" />
		<tag k="fixme" v="consider place=hamlet" />
		<tag k="name" v="Herheim" />
		<tag k="place" v="farm" />
		<tag k="ssr:stedsnr" v="670976" />
	</node>
	<node lat="59.75080555726342" lon="6.346008327401826" id="-3299">
		<tag k="alt_name" v="Viå" />
		<tag k="historic" v="shieling" />
		<tag k="name" v="Vio" />
		<tag k="place" v="isolated_dwelling" />
		<tag k="ssr:stedsnr" v="671120" />
	</node>
	<node lat="59.71977500157227" lon="6.426191674808755" id="-3302">
		<tag k="name" v="Fjotedalen" />
		<tag k="place" v="isolated_dwelling" />
		<tag k="ssr:stedsnr" v="671964" />
	</node>
	<node lat="59.59189722595326" lon="6.346747214960692" id="-3310">
		<tag k="historic" v="shieling" />
		<tag k="name" v="Gamle Mjelkestølen" />
		<tag k="place" v="isolated_dwelling" />
		<tag k="ssr:stedsnr" v="727309" />
	</node>
	<node lat="59.68115833375567" lon="6.554858326914598" id="-3312">
		<tag k="name" v="Riddervoldshytta" />
		<tag k="place" v="isolated_dwelling" />
		<tag k="ssr:stedsnr" v="727411" />
	</node>
	<node lat="59.65695000340142" lon="6.284061110942671" id="-3322">
		<tag k="alt_name" v="Liå" />
		<tag k="name" v="Risvollia" />
		<tag k="place" v="isolated_dwelling" />
		<tag k="ssr:stedsnr" v="731752" />
	</node>
	<node lat="59.665444447702384" lon="6.4639138933121245" id="-3341">
		<tag k="historic" v="shieling" />
		<tag k="name" v="Støladn" />
		<tag k="place" v="isolated_dwelling" />
		<tag k="ssr:stedsnr" v="909016" />
	</node>
	<node lat="59.698888885270065" lon="6.342566660517969" id="-3348">
		<tag k="historic" v="shieling" />
		<tag k="name" v="Øyastøl" />
		<tag k="place" v="isolated_dwelling" />
		<tag k="ssr:stedsnr" v="909137" />
	</node>
	<node lat="59.65322386116463" lon="6.392230489211811" id="-3355">
		<tag k="fixme" v="consider place=hamlet" />
		<tag k="name" v="Ytre Birkeland" />
		<tag k="place" v="farm" />
		<tag k="ssr:stedsnr" v="781660" />
	</node>
	<node lat="59.66393735552772" lon="6.378204236216342" id="-3378">
		<tag k="fixme" v="consider place=hamlet" />
		<tag k="name" v="Gunnarsrød" />
		<tag k="place" v="farm" />
		<tag k="ssr:stedsnr" v="788916" />
	</node>
	<node lat="59.69299999951966" lon="6.40002499229481" id="-3382">
		<tag k="historic" v="shieling" />
		<tag k="name" v="Alkestølen" />
		<tag k="place" v="isolated_dwelling" />
		<tag k="ssr:stedsnr" v="791935" />
	</node>
	<node lat="59.70946389123054" lon="6.472986110857194" id="-3397">
		<tag k="alt_name" v="Brekkå" />
		<tag k="historic" v="shieling" />
		<tag k="name" v="Brekka" />
		<tag k="place" v="isolated_dwelling" />
		<tag k="ssr:stedsnr" v="913954" />
	</node>
	<node lat="59.65396666637297" lon="6.390877782724079" id="-3406">
		<tag k="name" v="Ytre Birkeland" />
		<tag k="place" v="farm" />
		<tag k="ssr:stedsnr" v="842884" />
	</node>
	<node lat="59.64714408891534" lon="6.442144494298629" id="-3418">
		<tag k="historic" v="shieling" />
		<tag k="name" v="Svortetjønnstølen" />
		<tag k="place" v="isolated_dwelling" />
		<tag k="ssr:stedsnr" v="849086" />
	</node>
	<node lat="59.59712499988793" lon="6.263475005514364" id="-3440">
		<tag k="alt_name" v="Sellistølen" />
		<tag k="name" v="Selli" />
		<tag k="place" v="isolated_dwelling" />
		<tag k="ssr:stedsnr" v="852810" />
	</node>
	<node lat="59.722611115132445" lon="6.50182499545206" id="-3449">
		<tag k="alt_name" v="Liarstølen" />
		<tag k="historic" v="shieling" />
		<tag k="name" v="Liastølen" />
		<tag k="place" v="isolated_dwelling" />
		<tag k="ssr:stedsnr" v="853970" />
	</node>
	<node lat="59.64142228643773" lon="6.301489459090712" id="-3452">
		<tag k="fixme" v="consider place=hamlet" />
		<tag k="name" v="Veka" />
		<tag k="place" v="farm" />
		<tag k="ssr:stedsnr" v="891664" />
	</node>
	<node lat="59.65798299585166" lon="6.28460184773599" id="-3454">
=======
	<node id="-34723" lat="59.7089888868" lon="6.54555556171">
		<tag k="historic" v="shieling" />
		<tag k="name" v="Litlastølen" />
		<tag k="place" v="locality" />
		<tag k="ssr:stedsnr" v="666200" />
	</node>
	<node id="-35737" lat="59.622486113" lon="6.21627778584">
		<tag k="historic" v="shieling" />
		<tag k="name" v="Kvamastøl" />
		<tag k="place" v="locality" />
		<tag k="ssr:stedsnr" v="969532" />
	</node>
	<node id="-34712" lat="59.7983666647" lon="6.67804444371">
		<tag k="fixme" v="consider tourism=alpine_hut or tourism=chalet" />
		<tag k="name" v="Sandvatnbrakka" />
		<tag k="old_name" v="Øvre Sandvatnbrakka;Øvre Sandvatn" />
		<tag k="ssr:stedsnr" v="662384" />
		<tag k="tourism" v="wilderness_hut" />
	</node>
	<node id="-35734" lat="59.6347166682" lon="6.4927027777">
		<tag k="name" v="Ytre Birkeland" />
		<tag k="place" v="farm" />
		<tag k="ssr:stedsnr" v="963139" />
	</node>
	<node id="-34708" lat="59.6269151049" lon="6.26078199815">
		<tag k="alt_name" v="Djuv" />
		<tag k="fixme" v="consider place=hamlet" />
		<tag k="name" v="Gjuv" />
		<tag k="place" v="farm" />
		<tag k="ssr:stedsnr" v="428802" />
	</node>
	<node id="-35731" lat="59.6864000037" lon="6.50313610753">
		<tag k="name" v="Litlabø" />
		<tag k="place" v="farm" />
		<tag k="ssr:stedsnr" v="853996" />
	</node>
	<node id="-35729" lat="59.6662027749" lon="6.35042499636">
		<tag k="alt_name" v="Roaldstre" />
		<tag k="name" v="Roaldtræd" />
		<tag k="place" v="farm" />
		<tag k="ssr:stedsnr" v="853988" />
	</node>
	<node id="-35728" lat="59.5692777751" lon="6.35295276925">
		<tag k="alt_name" v="Tveitestøl" />
		<tag k="historic" v="shieling" />
		<tag k="name" v="Tveitestølen" />
		<tag k="place" v="locality" />
		<tag k="ssr:stedsnr" v="853873" />
	</node>
	<node id="-34702" lat="59.6636166706" lon="6.37508610782">
		<tag k="loc_name" v="Myrane" />
		<tag k="name" v="Myradn" />
		<tag k="place" v="farm" />
		<tag k="ssr:stedsnr" v="424905" />
	</node>
	<node id="-35724" lat="59.7226111151" lon="6.50182499545">
		<tag k="alt_name" v="Liarstølen" />
		<tag k="historic" v="shieling" />
		<tag k="name" v="Liastølen" />
		<tag k="place" v="locality" />
		<tag k="ssr:stedsnr" v="853970" />
	</node>
	<node id="-35722" lat="59.6074416631" lon="6.40447777053">
		<tag k="alt_name" v="Malldalsstølen" />
		<tag k="historic" v="shieling" />
		<tag k="name" v="Maldalsstølen" />
		<tag k="place" v="locality" />
		<tag k="ssr:stedsnr" v="853834" />
	</node>
	<node id="-35209" lat="59.5709138909" lon="6.29121944664">
		<tag k="loc_name" v="Sagplasset" />
		<tag k="name" v="Saplasset" />
		<tag k="place" v="locality" />
		<tag k="ssr:stedsnr" v="176536" />
	</node>
	<node id="-34696" lat="59.6518750026" lon="6.38512777992">
		<tag k="name" v="Ytre Birkeland" />
		<tag k="place" v="farm" />
		<tag k="ssr:stedsnr" v="417138" />
	</node>
	<node id="-35137" lat="59.7577388888" lon="6.48376667176">
		<tag k="historic" v="shieling" />
		<tag k="name" v="Kulthaug" />
		<tag k="place" v="locality" />
		<tag k="ssr:stedsnr" v="65082" />
	</node>
	<node id="-35200" lat="59.6634611095" lon="6.30670832994">
		<tag k="historic" v="shieling" />
		<tag k="name" v="Nystølen" />
		<tag k="place" v="locality" />
		<tag k="ssr:stedsnr" v="124981" />
	</node>
	<node id="-35199" lat="59.6699749996" lon="6.35881110274">
		<tag k="name" v="Kolemyr" />
		<tag k="place" v="farm" />
		<tag k="ssr:stedsnr" v="124980" />
	</node>
	<node id="-35706" lat="59.5987333324" lon="6.26161389277">
		<tag k="historic" v="shieling" />
		<tag k="name" v="Løkjastølen" />
		<tag k="place" v="locality" />
		<tag k="ssr:stedsnr" v="849763" />
	</node>
	<node id="-35192" lat="59.6928666632" lon="6.356511116">
		<tag k="alt_name" v="Tråskår" />
		<tag k="name" v="Tråskor" />
		<tag k="place" v="isolated_dwelling" />
		<tag k="ssr:stedsnr" v="124936" />
	</node>
	<node id="-35191" lat="59.7321916664" lon="6.42659445185">
		<tag k="historic" v="shieling" />
		<tag k="name" v="Søljestølen" />
		<tag k="place" v="locality" />
		<tag k="ssr:stedsnr" v="124903" />
	</node>
	<node id="-35190" lat="59.5764250042" lon="6.29819166788">
		<tag k="name" v="Solland" />
		<tag k="place" v="farm" />
		<tag k="ssr:stedsnr" v="124835" />
	</node>
	<node id="-34674" lat="59.6744166649" lon="6.28206111113">
		<tag k="alt_name" v="Raunastøl" />
		<tag k="historic" v="shieling" />
		<tag k="name" v="Ramnastølen" />
		<tag k="place" v="locality" />
		<tag k="ssr:stedsnr" v="488994" />
	</node>
	<node id="-35185" lat="59.6302314644" lon="6.27003515374">
		<tag k="alt_name" v="Lindvoll" />
		<tag k="fixme" v="consider place=hamlet" />
		<tag k="name" v="Lindvollen" />
		<tag k="place" v="farm" />
		<tag k="ssr:stedsnr" v="124767" />
	</node>
	<node id="-34672" lat="59.7221583316" lon="6.55957778121">
		<tag k="alt_name" v="Breidborg" />
		<tag k="historic" v="shieling" />
		<tag k="name" v="Breiborg" />
		<tag k="place" v="locality" />
		<tag k="ssr:stedsnr" v="488964" />
	</node>
	<node id="-34671" lat="59.7079361147" lon="6.5133583264">
		<tag k="name" v="Hilleren" />
		<tag k="place" v="isolated_dwelling" />
		<tag k="ssr:stedsnr" v="488951" />
	</node>
	<node id="-34670" lat="59.6924361122" lon="6.44550000454">
		<tag k="historic" v="shieling" />
		<tag k="name" v="Raudstølen" />
		<tag k="place" v="locality" />
		<tag k="ssr:stedsnr" v="488948" />
	</node>
	<node id="-35181" lat="59.6562558003" lon="6.35547206283">
		<tag k="fixme" v="consider place=hamlet" />
		<tag k="name" v="Hølland" />
		<tag k="place" v="farm" />
		<tag k="ssr:stedsnr" v="124730" />
	</node>
	<node id="-35179" lat="59.6590010392" lon="6.37729596976">
		<tag k="fixme" v="consider place=hamlet" />
		<tag k="name" v="Teig" />
		<tag k="place" v="farm" />
		<tag k="ssr:stedsnr" v="124717" />
	</node>
	<node id="-34665" lat="59.743616667" lon="6.49247778222">
		<tag k="alt_name" v="Tjødnabakken" />
		<tag k="name" v="Tjørnabakken" />
		<tag k="place" v="isolated_dwelling" />
		<tag k="ssr:stedsnr" v="488922" />
	</node>
	<node id="-34663" lat="59.5698180452" lon="6.26671726501">
		<tag k="fixme" v="consider place=hamlet" />
		<tag k="name" v="Hustveit" />
		<tag k="place" v="farm" />
		<tag k="ssr:stedsnr" v="488860" />
	</node>
	<node id="-35172" lat="59.6685805545" lon="6.39929721959">
		<tag k="name" v="Løhaugen" />
		<tag k="place" v="farm" />
		<tag k="ssr:stedsnr" v="120883" />
	</node>
	<node id="-34657" lat="59.6641870423" lon="6.28110599396">
		<tag k="fixme" v="consider place=hamlet" />
		<tag k="name" v="Fosstveit" />
		<tag k="place" v="farm" />
		<tag k="ssr:stedsnr" v="488781" />
	</node>
	<node id="-35680" lat="59.6471440889" lon="6.4421444943">
		<tag k="historic" v="shieling" />
		<tag k="name" v="Svortetjønnstølen" />
		<tag k="place" v="locality" />
		<tag k="ssr:stedsnr" v="849086" />
	</node>
	<node id="-34655" lat="59.6382611152" lon="6.30331388139">
		<tag k="name" v="Saudasjøen" />
		<tag k="place" v="village" />
		<tag k="ssr:stedsnr" v="488765" />
	</node>
	<node id="-34653" lat="59.6551840595" lon="6.49194010637">
		<tag k="historic" v="shieling" />
		<tag k="name" v="Storli" />
		<tag k="place" v="locality" />
		<tag k="ssr:stedsnr" v="488760" />
	</node>
	<node id="-35642" lat="59.7348250039" lon="6.48892499324">
		<tag k="historic" v="shieling" />
		<tag k="name" v="Liastølen" />
		<tag k="place" v="locality" />
		<tag k="ssr:stedsnr" v="792895" />
	</node>
	<node id="-34648" lat="59.6563250018" lon="6.28754444146">
		<tag k="historic" v="shieling" />
		<tag k="name" v="Brekkestølen" />
		<tag k="place" v="locality" />
		<tag k="ssr:stedsnr" v="484920" />
	</node>
	<node id="-34647" lat="59.6422000043" lon="6.30133888769">
		<tag k="fixme" v="consider place=hamlet" />
		<tag k="name" v="Fredheim" />
		<tag k="place" v="farm" />
		<tag k="ssr:stedsnr" v="484917" />
	</node>
	<node id="-34644" lat="59.6695222261" lon="6.26663888471">
		<tag k="historic" v="shieling" />
		<tag k="name" v="Nordstølen" />
		<tag k="place" v="locality" />
		<tag k="ssr:stedsnr" v="484766" />
	</node>
	<node id="-34642" lat="59.6533137047" lon="6.31793667947">
		<tag k="fixme" v="multiple name tags, choose one and add the other to alt_name; consider place=hamlet" />
		<tag k="name" v="Amdalsrød;Tjødnarød" />
		<tag k="place" v="farm" />
		<tag k="ssr:stedsnr" v="484878" />
	</node>
	<node id="-35664" lat="59.735697221" lon="6.51306111299">
		<tag k="historic" v="shieling" />
		<tag k="name" v="Skårastølen" />
		<tag k="place" v="locality" />
		<tag k="ssr:stedsnr" v="848582" />
	</node>
	<node id="-35659" lat="59.6539666664" lon="6.39087778272">
		<tag k="name" v="Ytre Birkeland" />
		<tag k="place" v="farm" />
		<tag k="ssr:stedsnr" v="842884" />
	</node>
	<node id="-34634" lat="59.6869000036" lon="6.51326945017">
		<tag k="name" v="Litlabø" />
		<tag k="place" v="farm" />
		<tag k="ssr:stedsnr" v="484375" />
	</node>
	<node id="-35654" lat="59.6945888927" lon="6.23591111716">
		<tag k="fixme" v="consider tourism=alpine_hut or tourism=chalet" />
		<tag k="name" v="Storavassbu" />
		<tag k="ssr:stedsnr" v="813024" />
		<tag k="tourism" v="wilderness_hut" />
	</node>
	<node id="-34626" lat="59.6709583336" lon="6.45916110404">
		<tag k="historic" v="shieling" />
		<tag k="name" v="Stølsjo" />
		<tag k="place" v="locality" />
		<tag k="ssr:stedsnr" v="484025" />
	</node>
	<node id="-34625" lat="59.6698222238" lon="6.48226666739">
		<tag k="historic" v="shieling" />
		<tag k="name" v="Krostølane" />
		<tag k="place" v="locality" />
		<tag k="ssr:stedsnr" v="484021" />
	</node>
	<node id="-34624" lat="59.6805027762" lon="6.48777221815">
		<tag k="name" v="Øverland" />
		<tag k="place" v="farm" />
		<tag k="ssr:stedsnr" v="484015" />
	</node>
	<node id="-35779" lat="59.6561187458" lon="6.3082475563">
		<tag k="fixme" v="consider place=hamlet" />
		<tag k="name" v="Amdalstveit" />
		<tag k="place" v="farm" />
		<tag k="ssr:stedsnr" v="1072004" />
	</node>
	<node id="-34618" lat="59.573058329" lon="6.326555549">
		<tag k="name" v="Mollatveit" />
		<tag k="place" v="farm" />
		<tag k="ssr:stedsnr" v="476948" />
	</node>
	<node id="-35641" lat="59.5816790141" lon="6.33683131053">
		<tag k="alt_name" v="Molda" />
		<tag k="name" v="Molla" />
		<tag k="place" v="hamlet" />
		<tag k="ssr:stedsnr" v="792799" />
	</node>
	<node id="-35127" lat="59.6526414207" lon="6.3466938818">
		<tag k="fixme" v="consider place=hamlet" />
		<tag k="name" v="Fløgstad" />
		<tag k="place" v="farm" />
		<tag k="ssr:stedsnr" v="64785" />
	</node>
	<node id="-35126" lat="59.6505916657" lon="6.35416111693">
		<tag k="name" v="Sauda" />
		<tag k="place" v="town" />
		<tag k="ssr:stedsnr" v="64783" />
	</node>
	<node id="-35635" lat="59.6929999995" lon="6.40002499229">
		<tag k="historic" v="shieling" />
		<tag k="name" v="Alkestølen" />
		<tag k="place" v="locality" />
		<tag k="ssr:stedsnr" v="791935" />
	</node>
	<node id="-35122" lat="59.5925954866" lon="6.28693701321">
		<tag k="alt_name" v="Hangandvik;Hoganvik" />
		<tag k="fixme" v="consider place=hamlet" />
		<tag k="name" v="Honganvik" />
		<tag k="old_name" v="Hanganvik" />
		<tag k="place" v="farm" />
		<tag k="ssr:stedsnr" v="64861" />
	</node>
	<node id="-34611" lat="59.7679861068" lon="6.49293610872">
		<tag k="historic" v="shieling" />
		<tag k="name" v="Austmannahaugen" />
		<tag k="place" v="locality" />
		<tag k="ssr:stedsnr" v="307123" />
	</node>
	<node id="-34608" lat="59.6585027795" lon="6.26002500512">
		<tag k="historic" v="shieling" />
		<tag k="name" v="Steingardslia" />
		<tag k="place" v="locality" />
		<tag k="ssr:stedsnr" v="303977" />
	</node>
	<node id="-35115" lat="59.6183555523" lon="6.44882499969">
		<tag k="name" v="Finnabu" />
		<tag k="place" v="isolated_dwelling" />
		<tag k="ssr:stedsnr" v="63780" />
	</node>
	<node id="-35633" lat="59.6639373555" lon="6.37820423622">
		<tag k="fixme" v="consider place=hamlet" />
		<tag k="name" v="Gunnarsrød" />
		<tag k="place" v="farm" />
		<tag k="ssr:stedsnr" v="788916" />
	</node>
	<node id="-34949" lat="59.6988888853" lon="6.34256666052">
		<tag k="historic" v="shieling" />
		<tag k="name" v="Øyastøl" />
		<tag k="place" v="locality" />
		<tag k="ssr:stedsnr" v="909137" />
	</node>
	<node id="-35097" lat="59.613104288" lon="6.33493814993">
>>>>>>> e1d4bc35ff8a6074a6f2e91616a996b547c36f15
		<tag k="fixme" v="consider place=hamlet" />
		<tag k="name" v="Kviå" />
		<tag k="place" v="farm" />
		<tag k="ssr:stedsnr" v="60664" />
	</node>
<<<<<<< HEAD
	<node lat="59.63897222479519" lon="6.5000694402104395" id="-3458">
		<tag k="historic" v="shieling" />
		<tag k="name" v="Indre Breikvamstølen" />
		<tag k="place" v="isolated_dwelling" />
		<tag k="ssr:stedsnr" v="909052" />
	</node>
	<node lat="59.736350004363246" lon="6.4002611141899255" id="-3469">
		<tag k="historic" v="shieling" />
		<tag k="name" v="Nystølen" />
		<tag k="place" v="isolated_dwelling" />
		<tag k="ssr:stedsnr" v="909607" />
	</node>
	<node lat="59.7257666672683" lon="6.598116663668061" id="-3485">
		<tag k="name" v="Tverrdalen" />
		<tag k="place" v="isolated_dwelling" />
		<tag k="ssr:stedsnr" v="913213" />
	</node>
	<node lat="59.58700278033237" lon="6.252269442880486" id="-3486">
		<tag k="historic" v="shieling" />
		<tag k="name" v="Hustveitstølen" />
		<tag k="place" v="isolated_dwelling" />
		<tag k="ssr:stedsnr" v="913807" />
	</node>
	<node lat="59.66528701103087" lon="6.44693935259496" id="-3488">
		<tag k="fixme" v="consider place=hamlet" />
		<tag k="name" v="Løyning" />
		<tag k="place" v="farm" />
		<tag k="ssr:stedsnr" v="913980" />
	</node>
	<node lat="59.63471666822384" lon="6.492702777697425" id="-3495">
		<tag k="name" v="Ytre Birkeland" />
		<tag k="place" v="farm" />
		<tag k="ssr:stedsnr" v="963139" />
	</node>
	<node lat="59.7218388886338" lon="6.353319442288069" id="-3518">
		<tag k="name" v="Buer" />
		<tag k="place" v="isolated_dwelling" />
		<tag k="ssr:stedsnr" v="3910" />
	</node>
	<node lat="59.667662369484475" lon="6.351575217919991" id="-3519">
		<tag k="fixme" v="consider place=hamlet" />
		<tag k="name" v="Espeland" />
		<tag k="place" v="farm" />
		<tag k="ssr:stedsnr" v="3992" />
	</node>
	<node lat="59.62579861710259" lon="6.268965530946064" id="-3520">
		<tag k="fixme" v="consider place=hamlet" />
		<tag k="name" v="Eikesås" />
		<tag k="place" v="farm" />
		<tag k="ssr:stedsnr" v="3799" />
	</node>
	<node lat="59.69637777477185" lon="6.343149992092566" id="-3521">
		<tag k="name" v="Øygarden" />
		<tag k="place" v="isolated_dwelling" />
		<tag k="ssr:stedsnr" v="3943" />
	</node>
	<node lat="59.63268055669253" lon="6.278577785974042" id="-3526">
		<tag k="name" v="Lindvollsåsen" />
		<tag k="place" v="neighbourhood" />
		<tag k="ssr:stedsnr" v="56831" />
	</node>
	<node lat="59.6131042880238" lon="6.3349381499341515" id="-3529">
		<tag k="fixme" v="consider place=hamlet" />
		<tag k="name" v="Kviå" />
		<tag k="place" v="farm" />
		<tag k="ssr:stedsnr" v="60664" />
	</node>
	<node lat="59.73997222341822" lon="6.338841665164036" id="-3542">
		<tag k="historic" v="shieling" />
		<tag k="name" v="Reinakvamstølen" />
		<tag k="place" v="isolated_dwelling" />
		<tag k="ssr:stedsnr" v="60495" />
	</node>
	<node lat="59.65059166571246" lon="6.3541611169304755" id="-3564">
		<tag k="name" v="Sauda" />
		<tag k="place" v="town" />
		<tag k="ssr:stedsnr" v="64783" />
	</node>
	<node lat="59.65264142068196" lon="6.346693881804401" id="-3565">
		<tag k="fixme" v="consider place=hamlet" />
		<tag k="name" v="Fløgstad" />
		<tag k="place" v="farm" />
		<tag k="ssr:stedsnr" v="64785" />
	</node>
	<node lat="59.66688055461895" lon="6.359577785941163" id="-3595">
		<tag k="name" v="Djupadal" />
		<tag k="place" v="farm" />
		<tag k="ssr:stedsnr" v="120963" />
	</node>
	<node lat="59.630231464387414" lon="6.270035153737743" id="-3597">
		<tag k="alt_name" v="Lindvoll" />
		<tag k="fixme" v="consider place=hamlet" />
		<tag k="name" v="Lindvollen" />
		<tag k="place" v="farm" />
		<tag k="ssr:stedsnr" v="124767" />
	</node>
	<node lat="59.625670807757274" lon="6.264361760466544" id="-3598">
		<tag k="alt_name" v="Kjerringtveit" />
		<tag k="fixme" v="consider place=hamlet" />
		<tag k="name" v="Kjeringtveit" />
		<tag k="place" v="farm" />
		<tag k="ssr:stedsnr" v="124770" />
	</node>
	<node lat="59.65625580026348" lon="6.355472062830119" id="-3601">
		<tag k="fixme" v="consider place=hamlet" />
		<tag k="name" v="Hølland" />
		<tag k="place" v="farm" />
		<tag k="ssr:stedsnr" v="124730" />
	</node>
	<node lat="59.64758986227434" lon="6.32055822685848" id="-3602">
		<tag k="fixme" v="consider place=hamlet" />
		<tag k="name" v="Nes" />
		<tag k="place" v="farm" />
		<tag k="ssr:stedsnr" v="124734" />
	</node>
	<node lat="59.57576584769375" lon="6.297611862107356" id="-3603">
		<tag k="name" v="Solland" />
		<tag k="place" v="farm" />
		<tag k="ssr:stedsnr" v="124835" />
	</node>
	<node lat="59.69286666324486" lon="6.356511115998999" id="-3604">
		<tag k="alt_name" v="Tråskår" />
		<tag k="name" v="Tråskor" />
		<tag k="place" v="isolated_dwelling" />
		<tag k="ssr:stedsnr" v="124936" />
	</node>
	<node lat="59.66997499960062" lon="6.3588111027416225" id="-3607">
		<tag k="name" v="Kolemyr" />
		<tag k="place" v="farm" />
		<tag k="ssr:stedsnr" v="124980" />
	</node>
	<node lat="59.66346110948772" lon="6.306708329939734" id="-3608">
		<tag k="historic" v="shieling" />
		<tag k="name" v="Nystølen" />
		<tag k="place" v="isolated_dwelling" />
		<tag k="ssr:stedsnr" v="124981" />
	</node>
	<node lat="59.5709138908594" lon="6.291219446642667" id="-3616">
		<tag k="loc_name" v="Sagplasset" />
		<tag k="name" v="Saplasset" />
		<tag k="place" v="locality" />
		<tag k="ssr:stedsnr" v="176536" />
	</node>
	<node lat="59.63497499722088" lon="6.492324998057702" id="-3652">
		<tag k="alt_name" v="Breidkvam" />
		<tag k="historic" v="shieling" />
		<tag k="name" v="Breikvam" />
		<tag k="place" v="isolated_dwelling" />
		<tag k="ssr:stedsnr" v="185795" />
	</node>
	<node lat="59.7274499962809" lon="6.3431749997888875" id="-3657">
		<tag k="alt_name" v="Buhidler" />
		<tag k="historic" v="shieling" />
		<tag k="name" v="Buhiller" />
		<tag k="place" v="isolated_dwelling" />
		<tag k="ssr:stedsnr" v="185904" />
	</node>
	<node lat="59.573211112567854" lon="6.296552776557651" id="-3659">
		<tag k="name" v="Djupevik" />
		<tag k="place" v="isolated_dwelling" />
		<tag k="ssr:stedsnr" v="185854" />
	</node>
	<node lat="59.68284166680405" lon="6.62494999229818" id="-3667">
		<tag k="historic" v="shieling" />
		<tag k="name" v="Stovedalsstølen" />
		<tag k="place" v="isolated_dwelling" />
		<tag k="ssr:stedsnr" v="302441" />
	</node>
	<node lat="59.66530278240559" lon="6.288913894459487" id="-3692">
		<tag k="historic" v="shieling" />
		<tag k="name" v="Kvamen" />
		<tag k="place" v="isolated_dwelling" />
		<tag k="ssr:stedsnr" v="302989" />
	</node>
	<node lat="59.63006111351772" lon="6.562658339780247" id="-3695">
		<tag k="name" v="Byrkjeland" />
		<tag k="place" v="farm" />
		<tag k="ssr:stedsnr" v="303035" />
	</node>
	<node lat="59.658530557355284" lon="6.269444447558376" id="-3703">
		<tag k="historic" v="shieling" />
		<tag k="name" v="Hovlandsstølen" />
		<tag k="place" v="isolated_dwelling" />
		<tag k="ssr:stedsnr" v="306987" />
	</node>
	<node lat="59.691941666146995" lon="6.359602781954757" id="-3709">
		<tag k="historic" v="shieling" />
		<tag k="name" v="Liaset" />
		<tag k="place" v="isolated_dwelling" />
		<tag k="ssr:stedsnr" v="306949" />
	</node>
	<node lat="59.767986106797046" lon="6.4929361087226685" id="-3710">
		<tag k="historic" v="shieling" />
		<tag k="name" v="Austmannahaugen" />
		<tag k="place" v="isolated_dwelling" />
		<tag k="ssr:stedsnr" v="307123" />
	</node>
	<node lat="59.64718611045615" lon="6.359699994548574" id="-3717">
		<tag k="building" v="industrial" />
		<tag k="industrial" v="factory" />
		<tag k="name" v="Sauda smelteverk" />
		<tag k="ssr:stedsnr" v="307769" />
	</node>
	<node lat="59.64328055459517" lon="6.3194777849421975" id="-3750">
		<tag k="alt_name" v="Teien" />
		<tag k="name" v="Teigen" />
		<tag k="place" v="farm" />
		<tag k="ssr:stedsnr" v="363865" />
	</node>
	<node lat="59.67620178318692" lon="6.438661218214007" id="-3766">
		<tag k="fixme" v="consider place=hamlet" />
		<tag k="name" v="Fiveland" />
		<tag k="place" v="farm" />
		<tag k="ssr:stedsnr" v="367978" />
	</node>
	<node lat="59.68703889000829" lon="6.355299992296899" id="-3769">
		<tag k="alt_name" v="Juvshaugen" />
		<tag k="name" v="Gjuvshaugen" />
		<tag k="place" v="farm" />
		<tag k="ssr:stedsnr" v="367992" />
	</node>
	<node lat="59.683525000460705" lon="6.454244440683747" id="-3770">
		<tag k="alt_name" v="Nerstestølen" />
		<tag k="historic" v="shieling" />
		<tag k="name" v="Nedstestølen" />
		<tag k="place" v="isolated_dwelling" />
		<tag k="ssr:stedsnr" v="368000" />
	</node>
	<node lat="59.61147221948036" lon="6.232227776718544" id="-3771">
		<tag k="alt_name" v="Djuvsbotnen" />
		<tag k="historic" v="shieling" />
		<tag k="name" v="Gjuvsbotnen" />
		<tag k="place" v="isolated_dwelling" />
		<tag k="ssr:stedsnr" v="367775" />
	</node>
	<node lat="59.72458610854175" lon="6.340133337810693" id="-3772">
		<tag k="historic" v="shieling" />
		<tag k="name" v="Kuvestølen" />
		<tag k="place" v="isolated_dwelling" />
		<tag k="ssr:stedsnr" v="367905" />
	</node>
	<node lat="59.633486114702464" lon="6.236511119489064" id="-3775">
		<tag k="name" v="Blåsenborg" />
		<tag k="place" v="isolated_dwelling" />
		<tag k="ssr:stedsnr" v="367735" />
	</node>
	<node lat="59.72791817242367" lon="6.344309974816313" id="-3778">
		<tag k="fixme" v="consider place=hamlet" />
		<tag k="name" v="Brekke" />
		<tag k="place" v="farm" />
		<tag k="ssr:stedsnr" v="367746" />
	</node>
	<node lat="59.648186110308984" lon="6.320536109156281" id="-3780">
		<tag k="alt_name" v="Urabøen" />
		<tag k="name" v="Urdabøen" />
		<tag k="place" v="farm" />
		<tag k="ssr:stedsnr" v="367751" />
	</node>
	<node lat="59.627186111879816" lon="6.482738885704827" id="-3781">
		<tag k="alt_name" v="Vikadn" />
		<tag k="name" v="Vikane" />
		<tag k="place" v="isolated_dwelling" />
		<tag k="ssr:stedsnr" v="367761" />
	</node>
	<node lat="59.721741665608405" lon="6.476986118755774" id="-3783">
		<tag k="name" v="Grasberg" />
		<tag k="place" v="locality" />
		<tag k="ssr:stedsnr" v="367957" />
	</node>
	<node lat="59.71432500087186" lon="6.34251110848755" id="-3784">
		<tag k="name" v="Gjøstein" />
		<tag k="place" v="isolated_dwelling" />
		<tag k="ssr:stedsnr" v="367963" />
	</node>
	<node lat="59.57763864326694" lon="6.326860637344746" id="-3793">
		<tag k="name" v="Berget" />
		<tag k="place" v="locality" />
		<tag k="ssr:stedsnr" v="403572" />
	</node>
	<node lat="59.65187500263125" lon="6.385127779920038" id="-3796">
		<tag k="name" v="Ytre Birkeland" />
		<tag k="place" v="farm" />
		<tag k="ssr:stedsnr" v="417138" />
	</node>
	<node lat="59.5758972183787" lon="6.29893055911302" id="-3797">
		<tag k="name" v="Solland" />
		<tag k="place" v="neighbourhood" />
		<tag k="ssr:stedsnr" v="420833" />
	</node>
	<node lat="59.655247224774406" lon="6.499461115802305" id="-3798">
		<tag k="name" v="Liå" />
		<tag k="place" v="farm" />
		<tag k="ssr:stedsnr" v="424054" />
	</node>
	<node lat="59.6192388893359" lon="6.493272228036808" id="-3814">
		<tag k="name" v="Steinhuset" />
		<tag k="place" v="locality" />
		<tag k="ssr:stedsnr" v="424738" />
	</node>
	<node lat="59.605681390698756" lon="6.291888746813255" id="-3829">
		<tag k="name" v="Varstad" />
		<tag k="place" v="isolated_dwelling" />
		<tag k="ssr:stedsnr" v="428835" />
	</node>
	<node lat="59.670225002881416" lon="6.398913886740195" id="-3831">
		<tag k="name" v="Bergsbøen" />
		<tag k="place" v="farm" />
		<tag k="ssr:stedsnr" v="428966" />
	</node>
	<node lat="59.663927780571335" lon="6.358736107505263" id="-3832">
		<tag k="name" v="Valla" />
		<tag k="place" v="farm" />
		<tag k="ssr:stedsnr" v="428967" />
	</node>
	<node lat="59.68396875991623" lon="6.351117164975995" id="-3839">
		<tag k="fixme" v="consider place=hamlet" />
		<tag k="name" v="Bakka" />
		<tag k="place" v="farm" />
		<tag k="ssr:stedsnr" v="428990" />
	</node>
	<node lat="59.69937499924044" lon="6.505586119639784" id="-3840">
		<tag k="alt_name" v="Fedlehaugen" />
		<tag k="name" v="Fellehaugen" />
		<tag k="place" v="isolated_dwelling" />
		<tag k="ssr:stedsnr" v="428996" />
	</node>
	<node lat="59.605886452819156" lon="6.293477957614109" id="-3843">
		<tag k="fixme" v="consider place=hamlet" />
		<tag k="name" v="Varstadneset" />
		<tag k="place" v="farm" />
		<tag k="ssr:stedsnr" v="670819" />
	</node>
	<node lat="59.59064461891967" lon="6.290392965578276" id="-3846">
		<tag k="alt_name" v="Nygård" />
		<tag k="fixme" v="consider place=hamlet" />
		<tag k="name" v="Nygard" />
		<tag k="place" v="farm" />
		<tag k="ssr:stedsnr" v="524575" />
	</node>
	<node lat="59.653402776176975" lon="6.396336115131807" id="-3850">
		<tag k="name" v="Ytre Birkeland" />
		<tag k="place" v="farm" />
		<tag k="ssr:stedsnr" v="538151" />
	</node>
	<node lat="59.66791388493201" lon="6.350738886514684" id="-3851">
		<tag k="name" v="Espeland" />
		<tag k="place" v="quarter" />
		<tag k="ssr:stedsnr" v="541842" />
	</node>
	<node lat="59.646599995571925" lon="6.281230555750755" id="-3883">
		<tag k="historic" v="shieling" />
		<tag k="name" v="Litlestølen" />
		<tag k="place" v="isolated_dwelling" />
		<tag k="ssr:stedsnr" v="545916" />
	</node>
	<node lat="59.64763754315822" lon="6.369315703626868" id="-3885">
		<tag k="alt_name" v="Søndenå" />
=======
	<node id="-35094" lat="59.7399722234" lon="6.33884166516">
		<tag k="historic" v="shieling" />
		<tag k="name" v="Reinakvamstølen" />
		<tag k="place" v="locality" />
		<tag k="ssr:stedsnr" v="60495" />
	</node>
	<node id="-35599" lat="59.5675833298" lon="6.32674166667">
		<tag k="building" v="industrial" />
		<tag k="name" v="Smidjå" />
		<tag k="ssr:stedsnr" v="783568" />
	</node>
	<node id="-35598" lat="59.6547527798" lon="6.39832499223">
		<tag k="name" v="Indre Birkeland" />
		<tag k="place" v="farm" />
		<tag k="ssr:stedsnr" v="781888" />
	</node>
	<node id="-35597" lat="59.6532238612" lon="6.39223048921">
		<tag k="fixme" v="consider place=hamlet" />
		<tag k="name" v="Ytre Birkeland" />
		<tag k="place" v="farm" />
		<tag k="ssr:stedsnr" v="781660" />
	</node>
	<node id="-35595" lat="59.5805973116" lon="6.33727446734">
		<tag k="fixme" v="consider place=hamlet" />
		<tag k="name" v="Ytre Molla" />
		<tag k="place" v="farm" />
		<tag k="ssr:stedsnr" v="780930" />
	</node>
	<node id="-34567" lat="59.6651027776" lon="6.39018889487">
		<tag k="name" v="Moatræ" />
		<tag k="place" v="farm" />
		<tag k="ssr:stedsnr" v="242915" />
	</node>
	<node id="-34564" lat="59.5902091431" lon="6.29292796305">
		<tag k="fixme" v="consider place=hamlet" />
		<tag k="name" v="Haugen" />
		<tag k="place" v="farm" />
		<tag k="ssr:stedsnr" v="242266" />
	</node>
	<node id="-35283" lat="59.6653027824" lon="6.28891389446">
		<tag k="historic" v="shieling" />
		<tag k="name" v="Kvamen" />
		<tag k="place" v="locality" />
		<tag k="ssr:stedsnr" v="302989" />
	</node>
	<node id="-35658" lat="59.5826217609" lon="6.33668317774">
		<tag k="fixme" v="consider place=hamlet" />
		<tag k="name" v="Indre Molla" />
		<tag k="place" v="farm" />
		<tag k="ssr:stedsnr" v="841944" />
	</node>
	<node id="-35583" lat="59.6356394488" lon="6.29776100021">
		<tag k="name" v="Sandviksåsen" />
		<tag k="place" v="village" />
		<tag k="ssr:stedsnr" v="610817" />
	</node>
	<node id="-35581" lat="59.7817611091" lon="6.49491388991">
		<tag k="name" v="Brendehaugane" />
		<tag k="place" v="isolated_dwelling" />
		<tag k="ssr:stedsnr" v="610140" />
	</node>
	<node id="-35066" lat="59.6963777748" lon="6.34314999209">
		<tag k="name" v="Øygarden" />
		<tag k="place" v="isolated_dwelling" />
		<tag k="ssr:stedsnr" v="3943" />
	</node>
	<node id="-34552" lat="59.6611111138" lon="6.35955000757">
		<tag k="name" v="Åbødalen" />
		<tag k="place" v="quarter" />
		<tag k="ssr:stedsnr" v="298773" />
	</node>
	<node id="-35063" lat="59.7218388886" lon="6.35331944229">
		<tag k="name" v="Buer" />
		<tag k="place" v="isolated_dwelling" />
		<tag k="ssr:stedsnr" v="3910" />
	</node>
	<node id="-35572" lat="59.5811055599" lon="6.36259999836">
		<tag k="alt_name" v="Mollastølen" />
		<tag k="historic" v="shieling" />
		<tag k="name" v="Moldastølen" />
		<tag k="place" v="locality" />
		<tag k="ssr:stedsnr" v="609845" />
	</node>
	<node id="-35569" lat="59.691694665" lon="6.51674076563">
		<tag k="fixme" v="consider place=hamlet" />
		<tag k="name" v="Handeland" />
		<tag k="place" v="farm" />
		<tag k="ssr:stedsnr" v="609991" />
	</node>
	<node id="-35056" lat="59.6694384275" lon="6.36007525989">
		<tag k="fixme" v="consider place=hamlet" />
		<tag k="name" v="Åbø" />
		<tag k="place" v="farm" />
		<tag k="ssr:stedsnr" v="3757" />
	</node>
	<node id="-35564" lat="59.6536762307" lon="6.40376907285">
		<tag k="name" v="Birkeland" />
		<tag k="place" v="locality" />
		<tag k="ssr:stedsnr" v="609723" />
	</node>
	<node id="-35563" lat="59.6483666636" lon="6.38210000495">
		<tag k="name" v="Engja" />
		<tag k="place" v="farm" />
		<tag k="ssr:stedsnr" v="609710" />
	</node>
	<node id="-35025" lat="59.576794443" lon="6.32951667023">
		<tag k="fixme" v="multiple name tags, choose one and add the other to alt_name" />
		<tag k="name" v="Grave;Kro" />
		<tag k="place" v="farm" />
		<tag k="ssr:stedsnr" v="853866" />
	</node>
	<node id="-35037" lat="59.7363500044" lon="6.40026111419">
		<tag k="historic" v="shieling" />
		<tag k="name" v="Nystølen" />
		<tag k="place" v="locality" />
		<tag k="ssr:stedsnr" v="909607" />
	</node>
	<node id="-34524" lat="59.6635638896" lon="6.46973333243">
		<tag k="historic" v="shieling" />
		<tag k="name" v="Brekka" />
		<tag k="place" v="locality" />
		<tag k="ssr:stedsnr" v="246975" />
	</node>
	<node id="-34523" lat="59.6677788787" lon="6.40243106605">
		<tag k="alt_name" v="Austarheim" />
		<tag k="fixme" v="consider place=hamlet" />
		<tag k="name" v="Austareim" />
		<tag k="place" v="farm" />
		<tag k="ssr:stedsnr" v="246971" />
	</node>
	<node id="-34522" lat="59.7144666634" lon="6.47570278438">
		<tag k="historic" v="shieling" />
		<tag k="name" v="Storestølen" />
		<tag k="place" v="locality" />
		<tag k="ssr:stedsnr" v="246951" />
	</node>
	<node id="-34520" lat="59.7449277744" lon="6.50240000528">
		<tag k="name" v="Indrejorda" />
		<tag k="place" v="isolated_dwelling" />
		<tag k="ssr:stedsnr" v="246912" />
	</node>
	<node id="-35027" lat="59.6458611134" lon="6.26324999702">
		<tag k="historic" v="shieling" />
		<tag k="name" v="Vekastølen" />
		<tag k="place" v="locality" />
		<tag k="ssr:stedsnr" v="853758" />
	</node>
	<node id="-34514" lat="59.6282123797" lon="6.25260381684">
		<tag k="alt_name" v="Kvammen;Nedre Kvamen" />
		<tag k="fixme" v="consider place=hamlet" />
		<tag k="name" v="Kvamen" />
		<tag k="place" v="farm" />
		<tag k="ssr:stedsnr" v="246770" />
	</node>
	<node id="-34513" lat="59.6337555531" lon="6.29301388926">
		<tag k="name" v="Storflot" />
		<tag k="place" v="farm" />
		<tag k="ssr:stedsnr" v="246768" />
	</node>
	<node id="-34512" lat="59.6286611073" lon="6.39070832952">
		<tag k="alt_name" v="Hjelmen" />
		<tag k="historic" v="shieling" />
		<tag k="name" v="Tjelmen" />
		<tag k="place" v="locality" />
		<tag k="ssr:stedsnr" v="246765" />
	</node>
	<node id="-34510" lat="59.6583965141" lon="6.31743056654">
		<tag k="fixme" v="consider place=hamlet" />
		<tag k="name" v="Amdal" />
		<tag k="place" v="farm" />
		<tag k="ssr:stedsnr" v="246738" />
	</node>
	<node id="-34509" lat="59.6544777763" lon="6.26758889069">
		<tag k="alt_name" v="Mosbakkastøl" />
		<tag k="historic" v="shieling" />
		<tag k="name" v="Mosbakkastølen" />
		<tag k="place" v="locality" />
		<tag k="ssr:stedsnr" v="246737" />
	</node>
	<node id="-34507" lat="59.6373141438" lon="6.29866663321">
		<tag k="fixme" v="multiple name tags, choose one and add the other to alt_name; consider place=hamlet" />
		<tag k="name" v="Saua;Sauda" />
		<tag k="place" v="farm" />
		<tag k="ssr:stedsnr" v="246725" />
	</node>
	<node id="-35530" lat="59.646375003" lon="6.44050555504">
		<tag k="name" v="Indre Birkeland" />
		<tag k="place" v="farm" />
		<tag k="ssr:stedsnr" v="598135" />
	</node>
	<node id="-34505" lat="59.6912777755" lon="6.51093332879">
		<tag k="fixme" v="consider place=hamlet" />
		<tag k="name" v="Hellandsbygda" />
		<tag k="place" v="village" />
		<tag k="ssr:stedsnr" v="245995" />
	</node>
	<node id="-35014" lat="59.713700002" lon="6.39267499844">
		<tag k="alt_name" v="Slåttedal" />
		<tag k="historic" v="shieling" />
		<tag k="name" v="Slåttedalen" />
		<tag k="place" v="locality" />
		<tag k="ssr:stedsnr" v="792959" />
	</node>
	<node id="-35012" lat="59.6448361151" lon="6.26233889373">
		<tag k="historic" v="shieling" />
		<tag k="name" v="Saudastølen" />
		<tag k="place" v="locality" />
		<tag k="ssr:stedsnr" v="792759" />
	</node>
	<node id="-35523" lat="59.6785638897" lon="6.32722499948">
		<tag k="name" v="Tengdal" />
		<tag k="place" v="isolated_dwelling" />
		<tag k="ssr:stedsnr" v="549988" />
	</node>
	<node id="-35522" lat="59.6880818832" lon="6.50220537755">
		<tag k="alt_name" v="Øverland" />
		<tag k="fixme" v="consider place=hamlet" />
		<tag k="name" v="Øvraland" />
		<tag k="place" v="farm" />
		<tag k="ssr:stedsnr" v="549983" />
	</node>
	<node id="-34497" lat="59.6648805547" lon="6.40066665845">
		<tag k="name" v="Skei" />
		<tag k="place" v="farm" />
		<tag k="ssr:stedsnr" v="242889" />
	</node>
	<node id="-34494" lat="59.6446888892" lon="6.33250000228">
		<tag k="name" v="Fagerheim" />
		<tag k="place" v="farm" />
		<tag k="ssr:stedsnr" v="242926" />
	</node>
	<node id="-34493" lat="59.6572916634" lon="6.36306389334">
		<tag k="name" v="Solbrekk" />
		<tag k="place" v="farm" />
		<tag k="ssr:stedsnr" v="242871" />
	</node>
	<node id="-35514" lat="59.7204499991" lon="6.39181111133">
		<tag k="name" v="Nuten" />
		<tag k="place" v="locality" />
		<tag k="ssr:stedsnr" v="549909" />
	</node>
	<node id="-34488" lat="59.7305083298" lon="6.4868305619">
		<tag k="historic" v="shieling" />
		<tag k="name" v="Liastøl" />
		<tag k="place" v="locality" />
		<tag k="ssr:stedsnr" v="242550" />
	</node>
	<node id="-35510" lat="59.630085" lon="6.2605433778">
		<tag k="fixme" v="consider place=hamlet" />
		<tag k="name" v="Svandal" />
		<tag k="place" v="farm" />
		<tag k="ssr:stedsnr" v="549787" />
	</node>
	<node id="-34479" lat="59.6256041535" lon="6.27872370174">
		<tag k="fixme" v="consider place=hamlet" />
		<tag k="name" v="Øye" />
		<tag k="place" v="farm" />
		<tag k="ssr:stedsnr" v="64816" />
	</node>
	<node id="-34992" lat="59.665287011" lon="6.44693935259">
		<tag k="fixme" v="consider place=hamlet" />
		<tag k="name" v="Løyning" />
		<tag k="place" v="farm" />
		<tag k="ssr:stedsnr" v="913980" />
	</node>
	<node id="-34991" lat="59.7094638912" lon="6.47298611086">
		<tag k="alt_name" v="Brekkå" />
		<tag k="historic" v="shieling" />
		<tag k="name" v="Brekka" />
		<tag k="place" v="locality" />
		<tag k="ssr:stedsnr" v="913954" />
	</node>
	<node id="-35186" lat="59.6256708078" lon="6.26436176047">
		<tag k="alt_name" v="Kjerringtveit" />
		<tag k="fixme" v="consider place=hamlet" />
		<tag k="name" v="Kjeringtveit" />
		<tag k="place" v="farm" />
		<tag k="ssr:stedsnr" v="124770" />
	</node>
	<node id="-35495" lat="59.6465999956" lon="6.28123055575">
		<tag k="historic" v="shieling" />
		<tag k="name" v="Litlestølen" />
		<tag k="place" v="locality" />
		<tag k="ssr:stedsnr" v="545916" />
	</node>
	<node id="-34982" lat="59.7257666673" lon="6.59811666367">
		<tag k="name" v="Tverrdalen" />
		<tag k="place" v="isolated_dwelling" />
		<tag k="ssr:stedsnr" v="913213" />
	</node>
	<node id="-34468" lat="59.6710222181" lon="6.23319443741">
		<tag k="historic" v="shieling" />
		<tag k="name" v="Garlag" />
		<tag k="place" v="locality" />
		<tag k="ssr:stedsnr" v="60787" />
	</node>
	<node id="-35489" lat="59.6538416708" lon="6.35900276864">
		<tag k="name" v="Lofthus" />
		<tag k="place" v="farm" />
		<tag k="ssr:stedsnr" v="545874" />
	</node>
	<node id="-34464" lat="59.6689166669" lon="6.35589999945">
		<tag k="name" v="Djupadalen" />
		<tag k="place" v="quarter" />
		<tag k="ssr:stedsnr" v="238832" />
	</node>
	<node id="-34463" lat="59.6326805567" lon="6.27857778597">
		<tag k="name" v="Lindvollsåsen" />
		<tag k="place" v="neighbourhood" />
		<tag k="ssr:stedsnr" v="56831" />
	</node>
	<node id="-34460" lat="59.6631222219" lon="6.37821666057">
		<tag k="name" v="Trebøen" />
		<tag k="place" v="farm" />
		<tag k="ssr:stedsnr" v="224842" />
	</node>
	<node id="-34456" lat="59.6537055529" lon="6.46342499752">
		<tag k="alt_name" v="Juvastøl" />
		<tag k="historic" v="shieling" />
		<tag k="name" v="Gjuvastøl" />
		<tag k="place" v="locality" />
		<tag k="ssr:stedsnr" v="3739" />
	</node>
	<node id="-35780" lat="59.626514472" lon="6.3317701936">
		<tag k="fixme" v="consider place=hamlet" />
		<tag k="name" v="Ramsnes" />
		<tag k="place" v="farm" />
		<tag k="ssr:stedsnr" v="1072012" />
	</node>
	<node id="-35182" lat="59.6475898623" lon="6.32055822686">
		<tag k="fixme" v="consider place=hamlet" />
		<tag k="name" v="Nes" />
		<tag k="place" v="farm" />
		<tag k="ssr:stedsnr" v="124734" />
	</node>
	<node id="-34499" lat="59.699536109" lon="6.35531111578">
		<tag k="name" v="Nip" />
		<tag k="place" v="isolated_dwelling" />
		<tag k="ssr:stedsnr" v="245932" />
	</node>
	<node id="-34753" lat="59.6452488941" lon="6.30027575515">
		<tag k="fixme" v="consider place=hamlet" />
		<tag k="name" v="Hovland" />
		<tag k="place" v="farm" />
		<tag k="ssr:stedsnr" v="670752" />
	</node>
	<node id="-35459" lat="59.6679138849" lon="6.35073888651">
		<tag k="name" v="Espeland" />
		<tag k="place" v="quarter" />
		<tag k="ssr:stedsnr" v="541842" />
	</node>
	<node id="-35458" lat="59.6534027762" lon="6.39633611513">
		<tag k="name" v="Ytre Birkeland" />
		<tag k="place" v="farm" />
		<tag k="ssr:stedsnr" v="538151" />
	</node>
	<node id="-35776" lat="59.5809408609" lon="6.30235934773">
		<tag k="fixme" v="consider place=hamlet" />
		<tag k="name" v="Storskjer" />
		<tag k="place" v="farm" />
		<tag k="ssr:stedsnr" v="1072000" />
	</node>
	<node id="-35453" lat="59.5906446189" lon="6.29039296558">
		<tag k="alt_name" v="Nygård" />
		<tag k="fixme" v="consider place=hamlet" />
		<tag k="name" v="Nygard" />
		<tag k="place" v="farm" />
		<tag k="ssr:stedsnr" v="524575" />
	</node>
	<node id="-34940" lat="59.6389722248" lon="6.50006944021">
		<tag k="historic" v="shieling" />
		<tag k="name" v="Indre Breikvamstølen" />
		<tag k="place" v="locality" />
		<tag k="ssr:stedsnr" v="909052" />
	</node>
	<node id="-35451" lat="59.6993749992" lon="6.50558611964">
		<tag k="alt_name" v="Fedlehaugen" />
		<tag k="name" v="Fellehaugen" />
		<tag k="place" v="isolated_dwelling" />
		<tag k="ssr:stedsnr" v="428996" />
	</node>
	<node id="-35450" lat="59.6839687599" lon="6.35111716498">
>>>>>>> e1d4bc35ff8a6074a6f2e91616a996b547c36f15
		<tag k="fixme" v="consider place=hamlet" />
		<tag k="name" v="Bakka" />
		<tag k="place" v="farm" />
		<tag k="ssr:stedsnr" v="428990" />
	</node>
<<<<<<< HEAD
	<node lat="59.630085000048176" lon="6.260543377802965" id="-3892">
		<tag k="fixme" v="consider place=hamlet" />
		<tag k="name" v="Svandal" />
		<tag k="place" v="farm" />
		<tag k="ssr:stedsnr" v="549787" />
	</node>
	<node lat="59.688081883188204" lon="6.502205377551511" id="-3898">
		<tag k="alt_name" v="Øverland" />
		<tag k="fixme" v="consider place=hamlet" />
		<tag k="name" v="Øvraland" />
		<tag k="place" v="farm" />
		<tag k="ssr:stedsnr" v="549983" />
	</node>
	<node lat="59.67856388968658" lon="6.327224999482253" id="-3899">
		<tag k="name" v="Tengdal" />
		<tag k="place" v="isolated_dwelling" />
		<tag k="ssr:stedsnr" v="549988" />
	</node>
	<node lat="59.5733124311665" lon="6.326647009662368" id="-3905">
		<tag k="alt_name" v="Moldatveit" />
		<tag k="fixme" v="consider place=hamlet" />
		<tag k="name" v="Mollatveit" />
		<tag k="place" v="farm" />
		<tag k="ssr:stedsnr" v="670857" />
	</node>
	<node lat="59.64637500298163" lon="6.440505555037099" id="-3906">
		<tag k="name" v="Indre Birkeland" />
		<tag k="place" v="farm" />
		<tag k="ssr:stedsnr" v="598135" />
	</node>
	<node lat="59.65327221836629" lon="6.395263883757858" id="-3907">
		<tag k="name" v="Ytre Birkeland" />
		<tag k="place" v="farm" />
		<tag k="ssr:stedsnr" v="598145" />
	</node>
	<node lat="59.653269445970935" lon="6.3009277704040505" id="-3927">
		<tag k="name" v="Ivarsrød" />
		<tag k="place" v="farm" />
		<tag k="ssr:stedsnr" v="605975" />
	</node>
	<node lat="59.64836666355408" lon="6.382100004946855" id="-3939">
		<tag k="name" v="Engja" />
		<tag k="place" v="farm" />
		<tag k="ssr:stedsnr" v="609710" />
	</node>
	<node lat="59.653676230731406" lon="6.4037690728465915" id="-3940">
		<tag k="name" v="Birkeland" />
		<tag k="place" v="locality" />
		<tag k="ssr:stedsnr" v="609723" />
	</node>
	<node lat="59.69169466501848" lon="6.516740765627783" id="-3947">
		<tag k="fixme" v="consider place=hamlet" />
		<tag k="name" v="Handeland" />
		<tag k="place" v="farm" />
		<tag k="ssr:stedsnr" v="609991" />
	</node>
	<node lat="59.70898888682735" lon="6.5455555617092465" id="-3974">
		<tag k="historic" v="shieling" />
		<tag k="name" v="Litlastølen" />
		<tag k="place" v="isolated_dwelling" />
		<tag k="ssr:stedsnr" v="666200" />
	</node>
	<node lat="59.737264068444986" lon="6.589991761338345" id="-3982">
		<tag k="historic" v="shieling" />
		<tag k="name" v="Botnastølen" />
		<tag k="place" v="isolated_dwelling" />
		<tag k="ssr:stedsnr" v="666800" />
	</node>
	<node lat="59.642558330979966" lon="6.262247220980809" id="-3992">
		<tag k="historic" v="shieling" />
		<tag k="name" v="Lindvollstølen" />
		<tag k="place" v="isolated_dwelling" />
		<tag k="ssr:stedsnr" v="666978" />
	</node>
	<node lat="59.64524889412117" lon="6.300275755153341" id="-3994">
		<tag k="fixme" v="consider place=hamlet" />
		<tag k="name" v="Hovland" />
		<tag k="place" v="farm" />
		<tag k="ssr:stedsnr" v="670752" />
	</node>
	<node lat="59.65271666357977" lon="6.388116671686229" id="-3997">
		<tag k="name" v="Ytre Birkeland" />
		<tag k="place" v="farm" />
		<tag k="ssr:stedsnr" v="720159" />
	</node>
	<node lat="59.69310585222351" lon="6.5117488894319155" id="-4001">
		<tag k="fixme" v="consider place=hamlet" />
		<tag k="name" v="Årtun" />
		<tag k="place" v="farm" />
		<tag k="ssr:stedsnr" v="727017" />
	</node>
	<node lat="59.7108388925628" lon="6.332333339535494" id="-4037">
		<tag k="alt_name" v="Klekkestølen" />
		<tag k="historic" v="shieling" />
		<tag k="name" v="Klekkstølen" />
		<tag k="place" v="isolated_dwelling" />
		<tag k="ssr:stedsnr" v="731975" />
	</node>
	<node lat="59.69291111278505" lon="6.437161108675354" id="-4042">
		<tag k="name" v="Høgehaug" />
		<tag k="place" v="isolated_dwelling" />
		<tag k="ssr:stedsnr" v="731937" />
	</node>
	<node lat="59.580597311594225" lon="6.337274467342403" id="-4049">
		<tag k="fixme" v="consider place=hamlet" />
		<tag k="name" v="Ytre Molla" />
		<tag k="place" v="farm" />
		<tag k="ssr:stedsnr" v="780930" />
	</node>
	<node lat="59.65475277981361" lon="6.398324992233491" id="-4050">
		<tag k="name" v="Indre Birkeland" />
		<tag k="place" v="farm" />
		<tag k="ssr:stedsnr" v="781888" />
	</node>
	<node lat="59.56758332982555" lon="6.326741666667604" id="-4051">
		<tag k="building" v="industrial" />
		<tag k="name" v="Smidjå" />
		<tag k="ssr:stedsnr" v="783568" />
	</node>
	<node lat="59.58167901408029" lon="6.336831310525711" id="-4083">
		<tag k="alt_name" v="Molda" />
		<tag k="name" v="Molla" />
		<tag k="place" v="hamlet" />
		<tag k="ssr:stedsnr" v="792799" />
	</node>
	<node lat="59.6448361151484" lon="6.262338893728783" id="-4089">
		<tag k="historic" v="shieling" />
		<tag k="name" v="Saudastølen" />
		<tag k="place" v="isolated_dwelling" />
		<tag k="ssr:stedsnr" v="792759" />
	</node>
	<node lat="59.71370000202494" lon="6.39267499843667" id="-4092">
		<tag k="alt_name" v="Slåttedal" />
		<tag k="historic" v="shieling" />
		<tag k="name" v="Slåttedalen" />
		<tag k="place" v="isolated_dwelling" />
		<tag k="ssr:stedsnr" v="792959" />
	</node>
	<node lat="59.73482500387233" lon="6.48892499323741" id="-4093">
		<tag k="historic" v="shieling" />
		<tag k="name" v="Liastølen" />
		<tag k="place" v="isolated_dwelling" />
		<tag k="ssr:stedsnr" v="792895" />
	</node>
	<node lat="59.69458889274698" lon="6.2359111171618355" id="-4099">
		<tag k="fixme" v="consider tourism=alpine_hut or tourism=chalet" />
		<tag k="name" v="Storavassbu" />
		<tag k="ssr:stedsnr" v="813024" />
		<tag k="tourism" v="wilderness_hut" />
	</node>
	<node lat="59.582621760855716" lon="6.336683177739732" id="-4101">
		<tag k="fixme" v="consider place=hamlet" />
		<tag k="name" v="Indre Molla" />
		<tag k="place" v="farm" />
		<tag k="ssr:stedsnr" v="841944" />
	</node>
	<node lat="59.735697220978345" lon="6.51306111299493" id="-4109">
		<tag k="historic" v="shieling" />
		<tag k="name" v="Skårastølen" />
		<tag k="place" v="isolated_dwelling" />
		<tag k="ssr:stedsnr" v="848582" />
	</node>
	<node lat="59.59873333237828" lon="6.261613892773591" id="-4126">
		<tag k="historic" v="shieling" />
		<tag k="name" v="Løkjastølen" />
		<tag k="place" v="isolated_dwelling" />
		<tag k="ssr:stedsnr" v="849763" />
	</node>
	<node lat="59.607441663072656" lon="6.404477770528567" id="-4135">
		<tag k="alt_name" v="Malldalsstølen" />
		<tag k="historic" v="shieling" />
		<tag k="name" v="Maldalsstølen" />
		<tag k="place" v="isolated_dwelling" />
		<tag k="ssr:stedsnr" v="853834" />
	</node>
	<node lat="59.64586111344075" lon="6.263249997020534" id="-4136">
		<tag k="historic" v="shieling" />
		<tag k="name" v="Vekastølen" />
		<tag k="place" v="isolated_dwelling" />
		<tag k="ssr:stedsnr" v="853758" />
	</node>
	<node lat="59.57679444297046" lon="6.329516670231924" id="-4137">
		<tag k="name" v="Grave" />
		<tag k="place" v="farm" />
		<tag k="ssr:stedsnr" v="853866" />
	</node>
	<node lat="59.569277775055504" lon="6.3529527692495105" id="-4138">
		<tag k="alt_name" v="Tveitestøl" />
		<tag k="historic" v="shieling" />
		<tag k="name" v="Tveitestølen" />
		<tag k="place" v="isolated_dwelling" />
		<tag k="ssr:stedsnr" v="853873" />
	</node>
	<node lat="59.66620277492722" lon="6.3504249963622135" id="-4139">
		<tag k="alt_name" v="Roaldstre" />
		<tag k="name" v="Roaldtræd" />
		<tag k="place" v="farm" />
		<tag k="ssr:stedsnr" v="853988" />
	</node>
	<node lat="59.68640000368301" lon="6.503136107529624" id="-4141">
		<tag k="name" v="Litlabø" />
		<tag k="place" v="farm" />
		<tag k="ssr:stedsnr" v="853996" />
	</node>
	<node lat="59.72665555134562" lon="6.279147229505502" id="-4143">
		<tag k="name" v="Espeland" />
		<tag k="place" v="farm" />
		<tag k="ssr:stedsnr" v="887592" />
	</node>
	<node lat="59.6224861129567" lon="6.216277785842796" id="-4148">
		<tag k="historic" v="shieling" />
		<tag k="name" v="Kvamastøl" />
		<tag k="place" v="isolated_dwelling" />
		<tag k="ssr:stedsnr" v="969532" />
	</node>
	<node lat="59.70718333318195" lon="6.522236105792641" id="-4164">
		<tag k="historic" v="shieling" />
		<tag k="name" v="Gamlestølen" />
		<tag k="place" v="isolated_dwelling" />
		<tag k="ssr:stedsnr" v="970279" />
	</node>
	<node lat="59.65611874584372" lon="6.308247556297683" id="-4174">
		<tag k="fixme" v="consider place=hamlet" />
		<tag k="name" v="Amdalstveit" />
		<tag k="place" v="farm" />
		<tag k="ssr:stedsnr" v="1072004" />
	</node>
	<node lat="59.62651447202349" lon="6.33177019359712" id="-4175">
		<tag k="fixme" v="consider place=hamlet" />
		<tag k="name" v="Ramsnes" />
		<tag k="place" v="farm" />
		<tag k="ssr:stedsnr" v="1072012" />
	</node>
	<node lat="59.619241427637164" lon="6.341094202949426" id="-4176">
		<tag k="fixme" v="consider place=hamlet" />
		<tag k="name" v="Solheim" />
		<tag k="place" v="farm" />
		<tag k="ssr:stedsnr" v="1072013" />
	</node>
	<node lat="59.58094086085193" lon="6.3023593477322075" id="-4177">
		<tag k="fixme" v="consider place=hamlet" />
		<tag k="name" v="Storskjer" />
		<tag k="place" v="farm" />
		<tag k="ssr:stedsnr" v="1072000" />
	</node>
	<node lat="59.627986878593276" lon="6.296164900629046" id="-4178">
		<tag k="fixme" v="consider place=hamlet" />
		<tag k="name" v="Borvik" />
		<tag k="place" v="farm" />
		<tag k="ssr:stedsnr" v="1072002" />
	</node>
	<node lat="59.634058401963905" lon="6.290489603668958" id="-4179">
		<tag k="fixme" v="consider place=hamlet" />
		<tag k="name" v="Hedlot" />
		<tag k="place" v="farm" />
		<tag k="ssr:stedsnr" v="1072003" />
	</node>
	<node lat="59.574547139095934" lon="6.328189133690694" id="-4181">
		<tag k="name" v="Kro" />
		<tag k="place" v="locality" />
		<tag k="ssr:stedsnr" v="1081385" />
=======
	<node id="-34936" lat="59.6654444477" lon="6.46391389331">
		<tag k="historic" v="shieling" />
		<tag k="name" v="Støladn" />
		<tag k="place" v="locality" />
		<tag k="ssr:stedsnr" v="909016" />
	</node>
	<node id="-35446" lat="59.6639277806" lon="6.35873610751">
		<tag k="name" v="Valla" />
		<tag k="place" v="farm" />
		<tag k="ssr:stedsnr" v="428967" />
	</node>
	<node id="-35177" lat="59.6668805546" lon="6.35957778594">
		<tag k="name" v="Djupadal" />
		<tag k="place" v="farm" />
		<tag k="ssr:stedsnr" v="120963" />
	</node>
	<node id="-35439" lat="59.6055611143" lon="6.29294444009">
		<tag k="name" v="Varstad" />
		<tag k="place" v="isolated_dwelling" />
		<tag k="ssr:stedsnr" v="428835" />
	</node>
	<node id="-34922" lat="59.6811583338" lon="6.55485832691">
		<tag k="name" v="Riddervoldshytta" />
		<tag k="place" v="isolated_dwelling" />
		<tag k="ssr:stedsnr" v="727411" />
	</node>
	<node id="-34918" lat="59.591897226" lon="6.34674721496">
		<tag k="historic" v="shieling" />
		<tag k="name" v="Gamle Mjelkestølen" />
		<tag k="place" v="locality" />
		<tag k="ssr:stedsnr" v="727309" />
	</node>
	<node id="-35022" lat="59.5971249999" lon="6.26347500551">
		<tag k="alt_name" v="Sellistølen" />
		<tag k="name" v="Selli" />
		<tag k="place" v="isolated_dwelling" />
		<tag k="ssr:stedsnr" v="852810" />
	</node>
	<node id="-35427" lat="59.6192388893" lon="6.49327222804">
		<tag k="name" v="Steinhuset" />
		<tag k="place" v="locality" />
		<tag k="ssr:stedsnr" v="424738" />
	</node>
	<node id="-34914" lat="59.6931058522" lon="6.51174888943">
		<tag k="fixme" v="consider place=hamlet" />
		<tag k="name" v="Årtun" />
		<tag k="place" v="farm" />
		<tag k="ssr:stedsnr" v="727017" />
	</node>
	<node id="-34911" lat="59.6527166636" lon="6.38811667169">
		<tag k="name" v="Ytre Birkeland" />
		<tag k="place" v="farm" />
		<tag k="ssr:stedsnr" v="720159" />
	</node>
	<node id="-34909" lat="59.6579829959" lon="6.28460184774">
		<tag k="fixme" v="consider place=hamlet" />
		<tag k="name" v="Risvoll" />
		<tag k="place" v="farm" />
		<tag k="ssr:stedsnr" v="891666" />
	</node>
	<node id="-34907" lat="59.6414222864" lon="6.30148945909">
		<tag k="fixme" v="consider place=hamlet" />
		<tag k="name" v="Veka" />
		<tag k="place" v="farm" />
		<tag k="ssr:stedsnr" v="891664" />
	</node>
	<node id="-34906" lat="59.7266555513" lon="6.27914722951">
		<tag k="name" v="Espeland" />
		<tag k="place" v="farm" />
		<tag k="ssr:stedsnr" v="887592" />
	</node>
	<node id="-35402" lat="59.6552472248" lon="6.4994611158">
		<tag k="name" v="Liå" />
		<tag k="place" v="farm" />
		<tag k="ssr:stedsnr" v="424054" />
	</node>
	<node id="-35401" lat="59.5758972184" lon="6.29893055911">
		<tag k="name" v="Solland" />
		<tag k="place" v="neighbourhood" />
		<tag k="ssr:stedsnr" v="420833" />
	</node>
	<node id="-35399" lat="59.6550271686" lon="6.39988236909">
		<tag k="fixme" v="consider place=hamlet" />
		<tag k="name" v="Indre Birkeland" />
		<tag k="place" v="farm" />
		<tag k="ssr:stedsnr" v="417696" />
	</node>
	<node id="-35395" lat="59.5775111084" lon="6.32664999155">
		<tag k="fixme" v="multiple name tags, choose one and add the other to alt_name" />
		<tag k="name" v="Berget;Grave" />
		<tag k="place" v="farm" />
		<tag k="ssr:stedsnr" v="403572" />
	</node>
	<node id="-34882" lat="59.7108388926" lon="6.33233333954">
		<tag k="alt_name" v="Klekkestølen" />
		<tag k="historic" v="shieling" />
		<tag k="name" v="Klekkstølen" />
		<tag k="place" v="locality" />
		<tag k="ssr:stedsnr" v="731975" />
	</node>
	<node id="-34878" lat="59.6929111128" lon="6.43716110868">
		<tag k="name" v="Høgehaug" />
		<tag k="place" v="isolated_dwelling" />
		<tag k="ssr:stedsnr" v="731937" />
	</node>
	<node id="-34875" lat="59.5745749967" lon="6.32774445189">
		<tag k="name" v="Kro" />
		<tag k="place" v="farm" />
		<tag k="ssr:stedsnr" v="731859" />
	</node>
	<node id="-35383" lat="59.6835250005" lon="6.45424444068">
		<tag k="alt_name" v="Nerstestølen" />
		<tag k="historic" v="shieling" />
		<tag k="name" v="Nedstestølen" />
		<tag k="place" v="locality" />
		<tag k="ssr:stedsnr" v="368000" />
	</node>
	<node id="-35382" lat="59.68703889" lon="6.3552999923">
		<tag k="alt_name" v="Juvshaugen" />
		<tag k="name" v="Gjuvshaugen" />
		<tag k="place" v="farm" />
		<tag k="ssr:stedsnr" v="367992" />
	</node>
	<node id="-35379" lat="59.6762017832" lon="6.43866121821">
		<tag k="fixme" v="consider place=hamlet" />
		<tag k="name" v="Fiveland" />
		<tag k="place" v="farm" />
		<tag k="ssr:stedsnr" v="367978" />
	</node>
	<node id="-34866" lat="59.6569500034" lon="6.28406111094">
		<tag k="alt_name" v="Liå" />
		<tag k="name" v="Risvollia" />
		<tag k="place" v="isolated_dwelling" />
		<tag k="ssr:stedsnr" v="731752" />
	</node>
	<node id="-35376" lat="59.7143250009" lon="6.34251110849">
		<tag k="name" v="Gjøstein" />
		<tag k="place" v="isolated_dwelling" />
		<tag k="ssr:stedsnr" v="367963" />
	</node>
	<node id="-35375" lat="59.7217416656" lon="6.47698611876">
		<tag k="name" v="Grasberg" />
		<tag k="place" v="locality" />
		<tag k="ssr:stedsnr" v="367957" />
	</node>
	<node id="-35372" lat="59.7245861085" lon="6.34013333781">
		<tag k="historic" v="shieling" />
		<tag k="name" v="Kuvestølen" />
		<tag k="place" v="locality" />
		<tag k="ssr:stedsnr" v="367905" />
	</node>
	<node id="-35371" lat="59.6084467306" lon="6.36754638239">
		<tag k="alt_name" v="Malldal" />
		<tag k="fixme" v="consider place=hamlet" />
		<tag k="name" v="Maldal" />
		<tag k="place" v="farm" />
		<tag k="ssr:stedsnr" v="367809" />
	</node>
	<node id="-35367" lat="59.6114722195" lon="6.23222777672">
		<tag k="alt_name" v="Djuvsbotnen" />
		<tag k="name" v="Gjuvsbotnen" />
		<tag k="place" v="isolated_dwelling" />
		<tag k="ssr:stedsnr" v="367775" />
	</node>
	<node id="-35366" lat="59.6271861119" lon="6.4827388857">
		<tag k="alt_name" v="Vikadn" />
		<tag k="name" v="Vikane" />
		<tag k="place" v="isolated_dwelling" />
		<tag k="ssr:stedsnr" v="367761" />
	</node>
	<node id="-35365" lat="59.6481861103" lon="6.32053610916">
		<tag k="alt_name" v="Urabøen" />
		<tag k="name" v="Urdabøen" />
		<tag k="place" v="farm" />
		<tag k="ssr:stedsnr" v="367751" />
	</node>
	<node id="-35363" lat="59.7279181724" lon="6.34430997482">
		<tag k="fixme" v="consider place=hamlet" />
		<tag k="name" v="Brekke" />
		<tag k="place" v="farm" />
		<tag k="ssr:stedsnr" v="367746" />
	</node>
	<node id="-35419" lat="59.7318444464" lon="6.3738666625">
		<tag k="historic" v="shieling" />
		<tag k="name" v="Moringdalen" />
		<tag k="place" v="locality" />
		<tag k="ssr:stedsnr" v="424493" />
	</node>
	<node id="-35360" lat="59.6334861147" lon="6.23651111949">
		<tag k="name" v="Blåsenborg" />
		<tag k="place" v="isolated_dwelling" />
		<tag k="ssr:stedsnr" v="367735" />
	</node>
	<node id="-35531" lat="59.6532722184" lon="6.39526388376">
		<tag k="name" v="Ytre Birkeland" />
		<tag k="place" v="farm" />
		<tag k="ssr:stedsnr" v="598145" />
	</node>
	<node id="-35503" lat="59.6476375432" lon="6.36931570363">
		<tag k="alt_name" v="Søndenå" />
		<tag k="fixme" v="consider place=hamlet" />
		<tag k="name" v="Sønnå" />
		<tag k="place" v="farm" />
		<tag k="ssr:stedsnr" v="549736" />
	</node>
	<node id="-35348" lat="59.6432805546" lon="6.31947778494">
		<tag k="alt_name" v="Teien" />
		<tag k="name" v="Teigen" />
		<tag k="place" v="farm" />
		<tag k="ssr:stedsnr" v="363865" />
	</node>
	<node id="-34818" lat="59.6735416622" lon="6.34285277156">
		<tag k="historic" v="shieling" />
		<tag k="loc_name" v="Stølane" />
		<tag k="name" v="Støladn" />
		<tag k="place" v="locality" />
		<tag k="ssr:stedsnr" v="605958" />
	</node>
	<node id="-34822" lat="59.653269446" lon="6.3009277704">
		<tag k="name" v="Ivarsrød" />
		<tag k="place" v="farm" />
		<tag k="ssr:stedsnr" v="605975" />
	</node>
	<node id="-34821" lat="59.6459833359" lon="6.26281943846">
		<tag k="historic" v="shieling" />
		<tag k="name" v="Viasjå" />
		<tag k="place" v="locality" />
		<tag k="ssr:stedsnr" v="605967" />
	</node>
	<node id="-35445" lat="59.6702250029" lon="6.39891388674">
		<tag k="name" v="Bergsbøen" />
		<tag k="place" v="farm" />
		<tag k="ssr:stedsnr" v="428966" />
	</node>
	<node id="-35121" lat="59.5898361096" lon="6.33000000743">
		<tag k="name" v="Flesja" />
		<tag k="place" v="isolated_dwelling" />
		<tag k="ssr:stedsnr" v="64859" />
	</node>
	<node id="-34987" lat="59.5870027803" lon="6.25226944288">
		<tag k="historic" v="shieling" />
		<tag k="name" v="Hustveitstølen" />
		<tag k="place" v="locality" />
		<tag k="ssr:stedsnr" v="913807" />
>>>>>>> e1d4bc35ff8a6074a6f2e91616a996b547c36f15
	</node>
</osm>
