<?xml version="1.0" encoding="UTF-8"?>
<osm generator="osmapis" version="0.6">
	<node id="-35455" lat="59.6439027759" lon="6.33854166412">
		<tag k="alt_name" v="Treåskjeret" />
		<tag k="name" v="Trædaskjeret" />
		<tag k="natural" v="cape" />
		<tag k="ssr:stedsnr" v="526662" />
	</node>
	<node id="-35454" lat="59.6001333376" lon="6.28996667229">
		<tag k="alt_name" v="Vermekro" />
		<tag k="name" v="Varmekro" />
		<tag k="natural" v="bay" />
		<tag k="ssr:stedsnr" v="524579" />
	</node>
	<node id="-34812" lat="59.6456972202" lon="6.3384000064">
		<tag k="name" v="Trædavika" />
		<tag k="natural" v="bay" />
		<tag k="ssr:stedsnr" v="587667" />
	</node>
	<node id="-34811" lat="59.5950944401" lon="6.29178888589">
		<tag k="alt_name" v="Honganvikbukta" />
		<tag k="name" v="Hangandvikbukta" />
		<tag k="natural" v="bay" />
		<tag k="ssr:stedsnr" v="584654" />
	</node>
	<node id="-34551" lat="59.5670111087" lon="6.2845916708">
		<tag k="name" v="Indre Tømmerholmen" />
		<tag k="place" v="islet" />
		<tag k="ssr:stedsnr" v="297550" />
	</node>
	<node id="-35187" lat="59.5853250031" lon="6.33071111375">
		<tag k="name" v="Ålhammarvika" />
		<tag k="natural" v="bay" />
		<tag k="ssr:stedsnr" v="124788" />
	</node>
	<node id="-35314" lat="59.6433416662" lon="6.35766110626">
		<tag k="name" v="Ekkjegrunnen" />
		<tag k="natural" v="shoal" />
		<tag k="place" v="locality" />
		<tag k="ssr:stedsnr" v="307768" />
	</node>
	<node id="-35693" lat="59.584544448" lon="6.3013000005">
		<tag k="name" v="Eivindsløypet" />
		<tag k="natural" v="bay" />
		<tag k="ssr:stedsnr" v="849308" />
	</node>
	<node id="-34793" lat="59.6347444431" lon="6.30355277114">
		<tag k="name" v="Djupevik" />
		<tag k="natural" v="bay" />
		<tag k="ssr:stedsnr" v="484720" />
	</node>
	<node id="-34664" lat="59.5708749983" lon="6.29421389311">
		<tag k="name" v="Sagneset" />
		<tag k="natural" v="cape" />
		<tag k="ssr:stedsnr" v="488873" />
	</node>
	<node id="-35622" lat="59.5915138875" lon="6.30162777298">
		<tag k="fixme" v="consider seamark:type=rock or natural=shoal" />
		<tag k="name" v="Småskjera" />
		<tag k="place" v="islet" />
		<tag k="ssr:stedsnr" v="788283" />
	</node>
	<node id="-35551" lat="59.629041666" lon="6.2997861103">
		<tag k="name" v="Gausvik" />
		<tag k="natural" v="bay" />
		<tag k="ssr:stedsnr" v="605717" />
	</node>
	<node id="-35166" lat="59.6314586079" lon="6.30161918838">
		<tag k="name" v="Sandvika" />
		<tag k="natural" v="bay" />
		<tag k="ssr:stedsnr" v="120709" />
	</node>
	<node id="-34908" lat="59.6278104586" lon="6.34160579103">
		<tag k="fixme" v="multiple name tags, choose one and add the other to alt_name" />
		<tag k="name" v="Ramsnesvika;Ramsvika" />
		<tag k="natural" v="bay" />
		<tag k="ssr:stedsnr" v="891665" />
	</node>
	<node id="-34651" lat="59.6481472227" lon="6.34305277039">
		<tag k="name" v="Fløgstadvika" />
		<tag k="natural" v="bay" />
		<tag k="ssr:stedsnr" v="344663" />
	</node>
	<node id="-35021" lat="59.6025388851" lon="6.29290834099">
		<tag k="alt_name" v="Varstadneset, ytre" />
		<tag k="name" v="Ytre Varstadneset" />
		<tag k="natural" v="cape" />
		<tag k="ssr:stedsnr" v="852809" />
	</node>
	<node id="-35404" lat="59.5760055536" lon="6.32263611192">
		<tag k="name" v="Djupevika" />
		<tag k="natural" v="bay" />
		<tag k="ssr:stedsnr" v="424283" />
	</node>
	<node id="-34679" lat="59.5669694481" lon="6.2809111064">
		<tag k="name" v="Skjøljavik" />
		<tag k="natural" v="bay" />
		<tag k="ssr:stedsnr" v="358603" />
	</node>
	<node id="-34758" lat="59.5899277776" lon="6.3034916642">
		<tag k="name" v="Bølnes" />
		<tag k="natural" v="cape" />
		<tag k="ssr:stedsnr" v="670827" />
	</node>
	<node id="-35396" lat="59.5983194481" lon="6.33075276901">
		<tag k="name" v="Vedaneset" />
		<tag k="natural" v="cape" />
		<tag k="ssr:stedsnr" v="403591" />
	</node>
	<node id="-35138" lat="59.5861361068" lon="6.32987500128">
		<tag k="name" v="Ålhammar" />
		<tag k="natural" v="cape" />
		<tag k="ssr:stedsnr" v="99620" />
	</node>
	<node id="-35261" lat="59.5675638898" lon="6.28661945027">
		<tag k="name" v="Vikaneset" />
		<tag k="natural" v="cape" />
		<tag k="ssr:stedsnr" v="186095" />
	</node>
	<node id="-34492" lat="59.6202499998" lon="6.29084444844">
		<tag k="name" v="Slettaneset" />
		<tag k="natural" v="cape" />
		<tag k="ssr:stedsnr" v="242694" />
	</node>
	<node id="-35252" lat="59.5803825007" lon="6.30447433064">
		<tag k="fixme" v="consider seamark:type=rock or natural=shoal" />
		<tag k="name" v="Storskjer" />
		<tag k="place" v="islet" />
		<tag k="ssr:stedsnr" v="185801" />
	</node>
	<node id="-35508" lat="59.624219447" lon="6.31090278284">
		<tag k="bay" v="fjord" />
		<tag k="name" v="Saudafjorden" />
		<tag k="natural" v="bay" />
		<tag k="ssr:stedsnr" v="549767" />
	</node>
	<node id="-34726" lat="59.5793333315" lon="6.32673054828">
		<tag k="name" v="Mollavika" />
		<tag k="natural" v="bay" />
		<tag k="ssr:stedsnr" v="666302" />
	</node>
	<node id="-35370" lat="59.6079055582" lon="6.29435555461">
		<tag k="alt_name" v="Varstadneset, indre" />
		<tag k="name" v="Indre Varstadneset" />
		<tag k="natural" v="cape" />
		<tag k="ssr:stedsnr" v="367807" />
	</node>
	<node id="-34601" lat="59.6217388919" lon="6.32931944342">
		<tag k="name" v="Merrå og Følet" />
		<tag k="natural" v="cape" />
		<tag k="ssr:stedsnr" v="302721" />
	</node>
	<node id="-35623" lat="59.6147638901" lon="6.32866666984">
		<tag k="name" v="Kvassasteinen" />
		<tag k="natural" v="cape" />
		<tag k="ssr:stedsnr" v="788657" />
	</node>
	<node id="-35238" lat="59.6474444483" lon="6.34127778063">
		<tag k="name" v="Neset" />
		<tag k="natural" v="cape" />
		<tag k="ssr:stedsnr" v="181887" />
	</node>
	<node id="-35227" lat="59.6369219725" lon="6.35899355935">
		<tag k="name" v="Ørevik" />
		<tag k="natural" v="bay" />
		<tag k="ssr:stedsnr" v="181736" />
	</node>
	<node id="-34602" lat="59.6336388912" lon="6.30271667184">
		<tag k="name" v="Sandviksneset" />
		<tag k="natural" v="cape" />
		<tag k="ssr:stedsnr" v="302723" />
	</node>
	<node id="-35103" lat="59.627836921" lon="6.29744895462">
		<tag k="alt_name" v="Borvik" />
		<tag k="name" v="Bordvika" />
		<tag k="natural" v="bay" />
		<tag k="ssr:stedsnr" v="60730" />
	</node>
	<node id="-34459" lat="59.6420861086" lon="6.32608610311">
		<tag k="name" v="Trosavika" />
		<tag k="natural" v="bay" />
		<tag k="ssr:stedsnr" v="224492" />
	</node>
	<node id="-35224" lat="59.5933166711" lon="6.33083055214">
		<tag k="name" v="Flesjasteinen" />
		<tag k="natural" v="bay" />
		<tag k="ssr:stedsnr" v="181296" />
	</node>
	<node id="-34711" lat="59.5692944441" lon="6.28853332882">
		<tag k="name" v="Fiskarvika" />
		<tag k="natural" v="bay" />
		<tag k="ssr:stedsnr" v="661534" />
	</node>
	<node id="-34834" lat="59.6377250039" lon="6.31248054757">
		<tag k="fixme" v="consider seamark:type=rock or natural=shoal" />
		<tag k="name" v="Saudaskjeret" />
		<tag k="place" v="islet" />
		<tag k="ssr:stedsnr" v="610778" />
	</node>
	<node id="-34797" lat="59.5733305528" lon="6.29598332625">
		<tag k="name" v="Djupevik" />
		<tag k="natural" v="bay" />
		<tag k="ssr:stedsnr" v="540573" />
	</node>
	<node id="-34827" lat="59.6222999961" lon="6.32955000885">
		<tag k="name" v="Ramsnes" />
		<tag k="natural" v="cape" />
		<tag k="ssr:stedsnr" v="609753" />
	</node>
	<node id="-35223" lat="59.5827388873" lon="6.32938333491">
		<tag k="name" v="Naustlivika" />
		<tag k="natural" v="bay" />
		<tag k="ssr:stedsnr" v="181295" />
	</node>
	<node id="-35592" lat="59.642177779" lon="6.32923888513">
		<tag k="alt_name" v="Saunes" />
		<tag k="name" v="Saudnes" />
		<tag k="natural" v="cape" />
		<tag k="ssr:stedsnr" v="769646" />
	</node>
	<node id="-35207" lat="59.6197666664" lon="6.29013889702">
		<tag k="name" v="Slettaneset" />
		<tag k="natural" v="cape" />
		<tag k="ssr:stedsnr" v="162680" />
	</node>
	<node id="-34692" lat="59.6196111093" lon="6.330213894">
		<tag k="loc_name" v="Kjettebergvika" />
		<tag k="name" v="Kjittebergvika" />
		<tag k="natural" v="bay" />
		<tag k="ssr:stedsnr" v="363691" />
	</node>
	<node id="-34691" lat="59.6334944463" lon="6.35329444306">
		<tag k="name" v="Forskott" />
		<tag k="natural" v="cape" />
		<tag k="ssr:stedsnr" v="363680" />
	</node>
	<node id="-35586" lat="59.5961743558" lon="6.3287151541">
		<tag k="name" v="Vedanesgrunnen" />
		<tag k="natural" v="shoal" />
		<tag k="place" v="locality" />
		<tag k="ssr:stedsnr" v="645593" />
	</node>
</osm>
