<?xml version="1.0" encoding="UTF-8"?>
<osm version="0.6" generator="osmapis">
	<node lat="59.63257499663243" lon="6.281619444032995" id="-1051">
		<tag k="fixme" v="consider natural=peak for the most distinct mountains in the district" />
		<tag k="name" v="Lindvollsåsane" />
		<tag k="natural" v="hill" />
		<tag k="place" v="locality" />
		<tag k="ssr:stedsnr" v="3791" />
	</node>
	<node lat="59.73053332976255" lon="6.2688583290367275" id="-1052">
		<tag k="alt_name" v="Sauanuten, in" />
		<tag k="fixme" v="consider natural=peak for the most distinct mountains in the district" />
		<tag k="name" v="Indre Sauanuten" />
		<tag k="natural" v="hill" />
		<tag k="place" v="locality" />
		<tag k="ssr:stedsnr" v="3916" />
	</node>
	<node lat="59.703766662444" lon="6.284308338207451" id="-1055">
		<tag k="alt_name" v="Kvanneskårnuten" />
		<tag k="fixme" v="consider natural=peak for the most distinct mountains in the district" />
		<tag k="name" v="Kvanneskornuten" />
		<tag k="natural" v="hill" />
		<tag k="place" v="locality" />
		<tag k="ssr:stedsnr" v="3974" />
	</node>
	<node lat="59.66859722568271" lon="6.360202781726339" id="-1056">
		<tag k="name" v="Djupadalen" />
		<tag k="natural" v="valley" />
		<tag k="place" v="locality" />
		<tag k="ssr:stedsnr" v="3982" />
	</node>
	<node lat="59.761544447025045" lon="6.496661113992239" id="-1057">
		<tag k="alt_name" v="Legdedn" />
		<tag k="name" v="Lægdene" />
		<tag k="natural" v="slope" />
		<tag k="place" v="locality" />
		<tag k="ssr:stedsnr" v="4104" />
	</node>
	<node lat="59.767216474206386" lon="6.557783592918472" id="-1059">
		<tag k="name" v="Berdalen" />
		<tag k="natural" v="valley" />
		<tag k="place" v="locality" />
		<tag k="ssr:stedsnr" v="4112" />
	</node>
	<node lat="59.56664166618051" lon="6.323416659996812" id="-1060">
		<tag k="fixme" v="consider natural=peak for the most distinct mountains in the district" />
		<tag k="name" v="Tømmerhaug" />
		<tag k="natural" v="hill" />
		<tag k="place" v="locality" />
		<tag k="ssr:stedsnr" v="236534" />
	</node>
	<node lat="59.60329444619546" lon="6.188549993858397" id="-1061">
		<tag k="alt_name" v="Regnfossbrotene" />
		<tag k="name" v="Reinsfossbrotene" />
		<tag k="natural" v="hill" />
		<tag k="place" v="locality" />
		<tag k="ssr:stedsnr" v="38074" />
	</node>
	<node lat="59.72674722406022" lon="6.446497218962824" id="-1063">
		<tag k="name" v="Grøne Dalen" />
		<tag k="natural" v="valley" />
		<tag k="place" v="locality" />
		<tag k="ssr:stedsnr" v="59605" />
	</node>
	<node lat="59.725427776146596" lon="6.547927770698202" id="-1064">
		<tag k="name" v="Kjeladn" />
		<tag k="natural" v="cliff" />
		<tag k="ssr:stedsnr" v="59669" />
	</node>
	<node lat="59.71048333714985" lon="6.343158340426685" id="-1065">
		<tag k="name" v="Aliadn" />
		<tag k="natural" v="slope" />
		<tag k="place" v="locality" />
		<tag k="ssr:stedsnr" v="60109" />
	</node>
	<node lat="59.58774444764727" lon="6.297855559035169" id="-1068">
		<tag k="name" v="Haugaleitet" />
		<tag k="place" v="locality" />
		<tag k="ssr:stedsnr" v="60273" />
	</node>
	<node lat="59.634013886945546" lon="6.373372223454633" id="-1069">
		<tag k="name" v="Hidlerbakken" />
		<tag k="natural" v="slope" />
		<tag k="place" v="locality" />
		<tag k="ssr:stedsnr" v="60704" />
	</node>
	<node lat="59.61958889341684" lon="6.389769445249578" id="-1070">
		<tag k="fixme" v="consider natural=peak for the most distinct mountains in the district" />
		<tag k="name" v="Middagsnuten" />
		<tag k="natural" v="hill" />
		<tag k="place" v="locality" />
		<tag k="ssr:stedsnr" v="60711" />
	</node>
	<node lat="59.617713889371444" lon="6.342458328857124" id="-1073">
		<tag k="name" v="Takhidler" />
		<tag k="place" v="locality" />
		<tag k="ssr:stedsnr" v="60723" />
	</node>
	<node lat="59.65514516029571" lon="6.579233873822873" id="-1080">
		<tag k="fixme" v="multiple name tags, choose one and add the other to alt_name; consider natural=peak for the most distinct mountains in the district" />
		<tag k="name" v="Såtekvelven;Dokkjekulten" />
		<tag k="natural" v="hill" />
		<tag k="place" v="locality" />
		<tag k="ssr:stedsnr" v="64760" />
	</node>
	<node lat="59.65437500265309" lon="6.290961112889225" id="-1081">
		<tag k="alt_name" v="Rødsåsen" />
		<tag k="fixme" v="consider natural=peak for the most distinct mountains in the district" />
		<tag k="name" v="Rødsåsane" />
		<tag k="natural" v="hill" />
		<tag k="place" v="locality" />
		<tag k="ssr:stedsnr" v="64777" />
	</node>
	<node lat="59.59572499578289" lon="6.213241664669115" id="-1086">
		<tag k="alt_name" v="Varanuten" />
		<tag k="name" v="Vardanuten" />
		<tag k="natural" v="hill" />
		<tag k="place" v="locality" />
		<tag k="ssr:stedsnr" v="65078" />
	</node>
	<node lat="59.76284721802408" lon="6.356719438419369" id="-1089">
		<tag k="fixme" v="consider natural=peak for the most distinct mountains in the district" />
		<tag k="name" v="Vianuten" />
		<tag k="natural" v="hill" />
		<tag k="place" v="locality" />
		<tag k="ssr:stedsnr" v="65101" />
	</node>
	<node lat="59.62265277996769" lon="6.230541658013196" id="-1090">
		<tag k="name" v="Heimra Kvelven" />
		<tag k="natural" v="valley" />
		<tag k="place" v="locality" />
		<tag k="ssr:stedsnr" v="241494" />
	</node>
	<node lat="59.62405278082295" lon="6.221449993332065" id="-1091">
		<tag k="name" v="Skrubbahompane" />
		<tag k="natural" v="hill" />
		<tag k="place" v="locality" />
		<tag k="ssr:stedsnr" v="241499" />
	</node>
	<node lat="59.74823333105317" lon="6.288602786147031" id="-1092">
		<tag k="fixme" v="consider natural=peak for the most distinct mountains in the district" />
		<tag k="name" v="Grønaheinuten" />
		<tag k="natural" v="hill" />
		<tag k="place" v="locality" />
		<tag k="ssr:stedsnr" v="241571" />
	</node>
	<node lat="59.745522219789386" lon="6.5200583302739465" id="-1093">
		<tag k="name" v="Litle Ormekvelven" />
		<tag k="natural" v="valley" />
		<tag k="place" v="locality" />
		<tag k="ssr:stedsnr" v="241593" />
	</node>
	<node lat="59.78214166326706" lon="6.557094451089978" id="-1094">
		<tag k="name" v="Flåtajuvet" />
		<tag k="natural" v="gorge" />
		<tag k="ssr:stedsnr" v="241768" />
	</node>
	<node lat="59.78361666755283" lon="6.53932776904285" id="-1095">
		<tag k="fixme" v="consider natural=peak for the most distinct mountains in the district" />
		<tag k="name" v="Skrebottnuten" />
		<tag k="natural" v="hill" />
		<tag k="place" v="locality" />
		<tag k="ssr:stedsnr" v="241769" />
	</node>
	<node lat="59.666263889171525" lon="6.416561108818776" id="-1096">
		<tag k="fixme" v="consider natural=peak for the most distinct mountains in the district" />
		<tag k="name" v="Sagbogen" />
		<tag k="natural" v="hill" />
		<tag k="place" v="locality" />
		<tag k="ssr:stedsnr" v="242885" />
	</node>
	<node lat="59.682180553013524" lon="6.317027774390725" id="-1099">
		<tag k="name" v="Sjepaleå" />
		<tag k="natural" v="slope" />
		<tag k="place" v="locality" />
		<tag k="ssr:stedsnr" v="242059" />
	</node>
	<node lat="59.71403888532471" lon="6.307788886517006" id="-1100">
		<tag k="name" v="Niphaug" />
		<tag k="natural" v="hill" />
		<tag k="place" v="locality" />
		<tag k="ssr:stedsnr" v="242064" />
	</node>
	<node lat="59.70568888485456" lon="6.326525000176121" id="-1101">
		<tag k="name" v="Roalslegdene" />
		<tag k="natural" v="slope" />
		<tag k="place" v="locality" />
		<tag k="ssr:stedsnr" v="242067" />
	</node>
	<node lat="59.71182222303896" lon="6.347161117357983" id="-1102">
		<tag k="name" v="Mjelkhaug" />
		<tag k="natural" v="hill" />
		<tag k="place" v="locality" />
		<tag k="ssr:stedsnr" v="242068" />
	</node>
	<node lat="59.68671389238341" lon="6.4552499925977855" id="-1103">
		<tag k="name" v="Uradalen" />
		<tag k="natural" v="valley" />
		<tag k="place" v="locality" />
		<tag k="ssr:stedsnr" v="242120" />
	</node>
	<node lat="59.68959166744173" lon="6.40271389767588" id="-1105">
		<tag k="name" v="Varen" />
		<tag k="natural" v="hill" />
		<tag k="place" v="locality" />
		<tag k="ssr:stedsnr" v="242144" />
	</node>
	<node lat="59.70968888770513" lon="6.5078972225771" id="-1106">
		<tag k="name" v="Belaskar" />
		<tag k="natural" v="valley" />
		<tag k="place" v="locality" />
		<tag k="ssr:stedsnr" v="242174" />
	</node>
	<node lat="59.69743611529608" lon="6.536947215854377" id="-1108">
		<tag k="name" v="Nedre Takdalane" />
		<tag k="natural" v="valley" />
		<tag k="place" v="locality" />
		<tag k="ssr:stedsnr" v="242357" />
	</node>
	<node lat="59.59725278210484" lon="6.333991667272685" id="-1113">
		<tag k="name" v="Legdefjellet" />
		<tag k="natural" v="hill" />
		<tag k="place" v="locality" />
		<tag k="ssr:stedsnr" v="242659" />
	</node>
	<node lat="59.64383888848555" lon="6.381247221855843" id="-1115">
		<tag k="name" v="Kjedal" />
		<tag k="natural" v="valley" />
		<tag k="place" v="locality" />
		<tag k="ssr:stedsnr" v="242860" />
	</node>
	<node lat="59.65044722380635" lon="6.377944449263328" id="-1116">
		<tag k="name" v="Abrahamsmoen" />
		<tag k="place" v="locality" />
		<tag k="ssr:stedsnr" v="242862" />
	</node>
	<node lat="59.67663888533001" lon="6.369041663063101" id="-1118">
		<tag k="name" v="Litlaløhaugen" />
		<tag k="natural" v="hill" />
		<tag k="place" v="locality" />
		<tag k="ssr:stedsnr" v="242911" />
	</node>
	<node lat="59.67406388744501" lon="6.322561107917153" id="-1121">
		<tag k="fixme" v="consider natural=peak for the most distinct mountains in the district" />
		<tag k="name" v="Lågahei" />
		<tag k="natural" v="hill" />
		<tag k="place" v="locality" />
		<tag k="ssr:stedsnr" v="242948" />
	</node>
	<node lat="59.671255554514076" lon="6.339108338379966" id="-1122">
		<tag k="name" v="Longeli" />
		<tag k="natural" v="slope" />
		<tag k="place" v="locality" />
		<tag k="ssr:stedsnr" v="242960" />
	</node>
	<node lat="59.67843055282228" lon="6.284991664097998" id="-1124">
		<tag k="loc_name" v="Storaskora" />
		<tag k="name" v="Stora Skårå" />
		<tag k="place" v="locality" />
		<tag k="ssr:stedsnr" v="242975" />
	</node>
	<node lat="59.454277775387965" lon="6.664594441279278" id="-1125">
		<tag k="name" v="Skaulen" />
		<tag k="natural" v="hill" />
		<tag k="place" v="locality" />
		<tag k="ssr:stedsnr" v="245056" />
	</node>
	<node lat="59.62634999873878" lon="6.502386109518854" id="-1127">
		<tag k="name" v="Skrubbaskorane" />
		<tag k="place" v="locality" />
		<tag k="ssr:stedsnr" v="245764" />
	</node>
	<node lat="59.694836110998615" lon="6.480400003166799" id="-1134">
		<tag k="alt_name" v="Breidskardnuten" />
		<tag k="fixme" v="consider natural=peak for the most distinct mountains in the district" />
		<tag k="name" v="Breiskarnuten" />
		<tag k="natural" v="hill" />
		<tag k="place" v="locality" />
		<tag k="ssr:stedsnr" v="245933" />
	</node>
	<node lat="59.70725277919647" lon="6.439036102351698" id="-1135">
		<tag k="fixme" v="consider natural=peak for the most distinct mountains in the district" />
		<tag k="name" v="Lødalsnuten" />
		<tag k="natural" v="hill" />
		<tag k="place" v="locality" />
		<tag k="ssr:stedsnr" v="245938" />
	</node>
	<node lat="59.700899997026525" lon="6.399725007686012" id="-1136">
		<tag k="name" v="Annanuten" />
		<tag k="natural" v="hill" />
		<tag k="place" v="locality" />
		<tag k="ssr:stedsnr" v="245939" />
	</node>
	<node lat="59.70329444871264" lon="6.268430551729801" id="-1137">
		<tag k="alt_name" v="Noreskårnuten" />
		<tag k="fixme" v="consider natural=peak for the most distinct mountains in the district" />
		<tag k="name" v="Nordreskornuten" />
		<tag k="natural" v="hill" />
		<tag k="place" v="locality" />
		<tag k="ssr:stedsnr" v="245951" />
	</node>
	<node lat="59.649274996467106" lon="6.610549992482495" id="-1139">
		<tag k="fixme" v="consider natural=peak for the most distinct mountains in the district" />
		<tag k="name" v="Skuldrenuten" />
		<tag k="natural" v="hill" />
		<tag k="place" v="locality" />
		<tag k="ssr:stedsnr" v="246062" />
	</node>
	<node lat="59.69001944740078" lon="6.6133111166268606" id="-1140">
		<tag k="name" v="Stovedalen" />
		<tag k="natural" v="valley" />
		<tag k="place" v="locality" />
		<tag k="ssr:stedsnr" v="246195" />
	</node>
	<node lat="59.64809166893718" lon="6.287211113303768" id="-1142">
		<tag k="fixme" v="consider natural=peak for the most distinct mountains in the district" />
		<tag k="name" v="Hovås" />
		<tag k="natural" v="hill" />
		<tag k="place" v="locality" />
		<tag k="ssr:stedsnr" v="246743" />
	</node>
	<node lat="59.70938055440043" lon="6.454677784559061" id="-1145">
		<tag k="alt_name" v="Nevrollnuten" />
		<tag k="fixme" v="consider natural=peak for the most distinct mountains in the district" />
		<tag k="name" v="Nevroldsnuten" />
		<tag k="natural" v="hill" />
		<tag k="place" v="locality" />
		<tag k="ssr:stedsnr" v="246950" />
	</node>
	<node lat="59.67777499695871" lon="6.422224991584243" id="-1147">
		<tag k="fixme" v="consider natural=peak for the most distinct mountains in the district" />
		<tag k="name" v="Kolåsen" />
		<tag k="natural" v="hill" />
		<tag k="place" v="locality" />
		<tag k="ssr:stedsnr" v="246997" />
	</node>
	<node lat="59.75340277494008" lon="6.426316671437608" id="-1148">
		<tag k="alt_name" v="Lågahei" />
		<tag k="fixme" v="consider natural=peak for the most distinct mountains in the district" />
		<tag k="name" v="Lågaheia" />
		<tag k="natural" v="hill" />
		<tag k="place" v="locality" />
		<tag k="ssr:stedsnr" v="247091" />
	</node>
	<node lat="59.769666670570125" lon="6.5213277737293875" id="-1150">
		<tag k="fixme" v="consider natural=peak for the most distinct mountains in the district" />
		<tag k="name" v="Indrejordsnuten" />
		<tag k="natural" v="hill" />
		<tag k="place" v="locality" />
		<tag k="ssr:stedsnr" v="247102" />
	</node>
	<node lat="59.668680559383084" lon="6.436319438274861" id="-1152">
		<tag k="fixme" v="consider natural=peak for the most distinct mountains in the district" />
		<tag k="name" v="Haugaleitet" />
		<tag k="natural" v="hill" />
		<tag k="place" v="locality" />
		<tag k="ssr:stedsnr" v="120027" />
	</node>
	<node lat="59.718466665994974" lon="6.419630547081178" id="-1153">
		<tag k="name" v="Krambua" />
		<tag k="place" v="locality" />
		<tag k="ssr:stedsnr" v="120103" />
	</node>
	<node lat="59.715113891435" lon="6.3981027692984584" id="-1154">
		<tag k="name" v="Vikehaugane" />
		<tag k="natural" v="hill" />
		<tag k="place" v="locality" />
		<tag k="ssr:stedsnr" v="120105" />
	</node>
	<node lat="59.68401388487325" lon="6.484897219204511" id="-1155">
		<tag k="name" v="Veaskar" />
		<tag k="natural" v="valley" />
		<tag k="place" v="locality" />
		<tag k="ssr:stedsnr" v="120123" />
	</node>
	<node lat="59.58683333384438" lon="6.223372225982936" id="-1156">
		<tag k="name" v="Fagradal" />
		<tag k="natural" v="valley" />
		<tag k="place" v="locality" />
		<tag k="ssr:stedsnr" v="120274" />
	</node>
	<node lat="59.63397778212305" lon="6.204911116487485" id="-1158">
		<tag k="fixme" v="consider natural=peak for the most distinct mountains in the district" />
		<tag k="name" v="Storenuten" />
		<tag k="natural" v="hill" />
		<tag k="place" v="locality" />
		<tag k="ssr:stedsnr" v="120508" />
	</node>
	<node lat="59.61705555971174" lon="6.436141673387759" id="-1159">
		<tag k="name" v="Malldalsskaret" />
		<tag k="natural" v="valley" />
		<tag k="place" v="locality" />
		<tag k="ssr:stedsnr" v="120626" />
	</node>
	<node lat="59.608294447517494" lon="6.330386114100897" id="-1163">
		<tag k="loc_name" v="Sagbakkane" />
		<tag k="name" v="Sabakkane" />
		<tag k="natural" v="slope" />
		<tag k="place" v="locality" />
		<tag k="ssr:stedsnr" v="120673" />
	</node>
	<node lat="59.66060277785363" lon="6.4229805501981" id="-1165">
		<tag k="fixme" v="consider natural=peak for the most distinct mountains in the district" />
		<tag k="name" v="Hetlekott" />
		<tag k="natural" v="hill" />
		<tag k="place" v="locality" />
		<tag k="ssr:stedsnr" v="120885" />
	</node>
	<node lat="59.778375000054794" lon="6.5171388919081235" id="-1166">
		<tag k="name" v="Skrebotnen" />
		<tag k="natural" v="valley" />
		<tag k="place" v="locality" />
		<tag k="ssr:stedsnr" v="120773" />
	</node>
	<node lat="59.63848610986198" lon="6.296366664779235" id="-1167">
		<tag k="fixme" v="consider natural=peak for the most distinct mountains in the district" />
		<tag k="name" v="Flatabakka" />
		<tag k="natural" v="hill" />
		<tag k="place" v="locality" />
		<tag k="ssr:stedsnr" v="120930" />
	</node>
	<node lat="59.640508337981814" lon="6.284261117768252" id="-1168">
		<tag k="fixme" v="consider natural=peak for the most distinct mountains in the district" />
		<tag k="name" v="Heppås" />
		<tag k="natural" v="hill" />
		<tag k="place" v="locality" />
		<tag k="ssr:stedsnr" v="120932" />
	</node>
	<node lat="59.65397499777934" lon="6.415925000713927" id="-1170">
		<tag k="alt_name" v="Kvamsnuten, ytre" />
		<tag k="fixme" v="consider natural=peak for the most distinct mountains in the district" />
		<tag k="name" v="Ytre Kvamsnuten" />
		<tag k="natural" v="hill" />
		<tag k="place" v="locality" />
		<tag k="ssr:stedsnr" v="124721" />
	</node>
	<node lat="59.622036108633374" lon="6.502136117191764" id="-1172">
		<tag k="alt_name" v="Grisedn" />
		<tag k="name" v="Grisene" />
		<tag k="natural" v="slope" />
		<tag k="place" v="locality" />
		<tag k="ssr:stedsnr" v="124760" />
	</node>
	<node lat="59.60296233467463" lon="6.235295463431887" id="-1173">
		<tag k="fixme" v="consider natural=peak for the most distinct mountains in the district" />
		<tag k="name" v="Tjuvanutane" />
		<tag k="natural" v="hill" />
		<tag k="place" v="locality" />
		<tag k="ssr:stedsnr" v="124801" />
	</node>
	<node lat="59.70721388975053" lon="6.530319449628129" id="-1175">
		<tag k="alt_name" v="Eljuvet" />
		<tag k="name" v="Elggjuvet" />
		<tag k="natural" v="valley" />
		<tag k="place" v="locality" />
		<tag k="ssr:stedsnr" v="124950" />
	</node>
	<node lat="59.7132000009521" lon="6.325175000302873" id="-1176">
		<tag k="name" v="Kvanndal" />
		<tag k="natural" v="valley" />
		<tag k="place" v="locality" />
		<tag k="ssr:stedsnr" v="124967" />
	</node>
	<node lat="59.66937499575828" lon="6.376408331019133" id="-1177">
		<tag k="name" v="Hereimslia" />
		<tag k="natural" v="slope" />
		<tag k="place" v="locality" />
		<tag k="ssr:stedsnr" v="124972" />
	</node>
	<node lat="59.66657500102866" lon="6.509799997462371" id="-1178">
		<tag k="alt_name" v="Kjeakråna" />
		<tag k="name" v="Kjeakrona" />
		<tag k="natural" v="hill" />
		<tag k="place" v="locality" />
		<tag k="ssr:stedsnr" v="124975" />
	</node>
	<node lat="59.71573055712318" lon="6.404333336479119" id="-1182">
		<tag k="fixme" v="consider natural=peak for the most distinct mountains in the district" />
		<tag k="name" v="Råsanuten" />
		<tag k="natural" v="hill" />
		<tag k="place" v="locality" />
		<tag k="ssr:stedsnr" v="181106" />
	</node>
	<node lat="59.722766662723686" lon="6.401208331310771" id="-1183">
		<tag k="fixme" v="consider natural=peak for the most distinct mountains in the district" />
		<tag k="name" v="Nuten" />
		<tag k="natural" v="hill" />
		<tag k="place" v="locality" />
		<tag k="ssr:stedsnr" v="181111" />
	</node>
	<node lat="59.705077774054175" lon="6.401674995084878" id="-1184">
		<tag k="fixme" v="consider natural=peak for the most distinct mountains in the district" />
		<tag k="name" v="Øykjaheia" />
		<tag k="natural" v="hill" />
		<tag k="place" v="locality" />
		<tag k="ssr:stedsnr" v="181116" />
	</node>
	<node lat="59.7093944466974" lon="6.494316669334479" id="-1187">
		<tag k="name" v="Gongeskår" />
		<tag k="place" v="locality" />
		<tag k="ssr:stedsnr" v="181154" />
	</node>
	<node lat="59.72124444802726" lon="6.454227772978036" id="-1188">
		<tag k="name" v="Grøne Dalen" />
		<tag k="natural" v="valley" />
		<tag k="place" v="locality" />
		<tag k="ssr:stedsnr" v="181158" />
	</node>
	<node lat="59.684872223236916" lon="6.4212916627244585" id="-1189">
		<tag k="name" v="Nilsajuvet" />
		<tag k="natural" v="gorge" />
		<tag k="ssr:stedsnr" v="181159" />
	</node>
	<node lat="59.69035555619717" lon="6.555591658767345" id="-1190">
		<tag k="name" v="Vassbukdalen" />
		<tag k="natural" v="valley" />
		<tag k="place" v="locality" />
		<tag k="ssr:stedsnr" v="181417" />
	</node>
	<node lat="59.585355552739756" lon="6.364483336791346" id="-1191">
		<tag k="fixme" v="consider natural=peak for the most distinct mountains in the district" />
		<tag k="name" v="Stølanuten" />
		<tag k="natural" v="hill" />
		<tag k="place" v="locality" />
		<tag k="ssr:stedsnr" v="181304" />
	</node>
	<node lat="59.75361944290764" lon="6.481000004361388" id="-1192">
		<tag k="name" v="Hadledn" />
		<tag k="natural" v="slope" />
		<tag k="place" v="locality" />
		<tag k="ssr:stedsnr" v="181511" />
	</node>
	<node lat="59.739752776300804" lon="6.375258333651277" id="-1193">
		<tag k="name" v="Kvelvaskaret" />
		<tag k="natural" v="valley" />
		<tag k="place" v="locality" />
		<tag k="ssr:stedsnr" v="181526" />
	</node>
	<node lat="59.612616665667915" lon="6.387030549643353" id="-1194">
		<tag k="name" v="Rausibotnen" />
		<tag k="natural" v="valley" />
		<tag k="place" v="locality" />
		<tag k="ssr:stedsnr" v="181675" />
	</node>
	<node lat="59.599377780340035" lon="6.211258329709116" id="-1195">
		<tag k="fixme" v="consider natural=peak for the most distinct mountains in the district" />
		<tag k="name" v="Hakasakkegga" />
		<tag k="natural" v="hill" />
		<tag k="place" v="locality" />
		<tag k="ssr:stedsnr" v="181756" />
	</node>
	<node lat="59.59433333438286" lon="6.210205547525663" id="-1196">
		<tag k="name" v="Kvannegrøkleiva" />
		<tag k="natural" v="slope" />
		<tag k="place" v="locality" />
		<tag k="ssr:stedsnr" v="181762" />
	</node>
	<node lat="59.675633336920356" lon="6.393847227960533" id="-1197">
		<tag k="name" v="Torkelsdal" />
		<tag k="natural" v="valley" />
		<tag k="place" v="locality" />
		<tag k="ssr:stedsnr" v="181903" />
	</node>
	<node lat="59.66264444074847" lon="6.349202778742653" id="-1198">
		<tag k="loc_name" v="Tjørnaskar" />
		<tag k="name" v="Tjødnaskar" />
		<tag k="natural" v="valley" />
		<tag k="place" v="locality" />
		<tag k="ssr:stedsnr" v="181956" />
	</node>
	<node lat="59.61688888454965" lon="6.396680559968149" id="-1206">
		<tag k="fixme" v="consider natural=peak for the most distinct mountains in the district" />
		<tag k="name" v="Lauvåsen" />
		<tag k="natural" v="hill" />
		<tag k="place" v="locality" />
		<tag k="ssr:stedsnr" v="241634" />
	</node>
	<node lat="59.63543889214758" lon="6.409758338010813" id="-1207">
		<tag k="name" v="Smalasunddalen" />
		<tag k="natural" v="valley" />
		<tag k="place" v="locality" />
		<tag k="ssr:stedsnr" v="241637" />
	</node>
	<node lat="59.764815810377115" lon="6.558147472276408" id="-1208">
		<tag k="name" v="Tjøstov-Berdalen" />
		<tag k="natural" v="valley" />
		<tag k="place" v="locality" />
		<tag k="ssr:stedsnr" v="241587" />
	</node>
	<node lat="59.64219444644794" lon="6.4183583310330015" id="-1209">
		<tag k="name" v="Imjødlånutadn" />
		<tag k="natural" v="valley" />
		<tag k="place" v="locality" />
		<tag k="ssr:stedsnr" v="242005" />
	</node>
	<node lat="59.696997224708944" lon="6.429319448305864" id="-1212">
		<tag k="name" v="Trolldalen" />
		<tag k="natural" v="valley" />
		<tag k="place" v="locality" />
		<tag k="ssr:stedsnr" v="242137" />
	</node>
	<node lat="59.732908330267584" lon="6.331663895724769" id="-1214">
		<tag k="name" v="Storahei" />
		<tag k="natural" v="slope" />
		<tag k="place" v="locality" />
		<tag k="ssr:stedsnr" v="242488" />
	</node>
	<node lat="59.60097499867537" lon="6.45049166440592" id="-1215">
		<tag k="alt_name" v="Reinsnuten, litle" />
		<tag k="fixme" v="consider natural=peak for the most distinct mountains in the district" />
		<tag k="name" v="Litle Reinsnuten" />
		<tag k="natural" v="hill" />
		<tag k="place" v="locality" />
		<tag k="ssr:stedsnr" v="245821" />
	</node>
	<node lat="59.6973555569831" lon="6.625444438152303" id="-1216">
		<tag k="fixme" v="consider natural=peak for the most distinct mountains in the district" />
		<tag k="name" v="Holmavassnuten" />
		<tag k="natural" v="hill" />
		<tag k="place" v="locality" />
		<tag k="ssr:stedsnr" v="246207" />
	</node>
	<node lat="59.620488890095096" lon="6.245808329354177" id="-1221">
		<tag k="alt_name" v="Askejuvet" />
		<tag k="name" v="Askegjuvet" />
		<tag k="natural" v="valley" />
		<tag k="place" v="locality" />
		<tag k="ssr:stedsnr" v="246777" />
	</node>
	<node lat="59.59405277847656" lon="6.401777777133639" id="-1223">
		<tag k="alt_name" v="Varanuten" />
		<tag k="fixme" v="consider natural=peak for the most distinct mountains in the district" />
		<tag k="name" v="Vardanuten" />
		<tag k="natural" v="hill" />
		<tag k="place" v="locality" />
		<tag k="ssr:stedsnr" v="246787" />
	</node>
	<node lat="59.73385277615426" lon="6.31186389471091" id="-1225">
		<tag k="name" v="Fossdal" />
		<tag k="natural" v="valley" />
		<tag k="place" v="locality" />
		<tag k="ssr:stedsnr" v="246910" />
	</node>
	<node lat="59.65837777944024" lon="6.394511107261344" id="-1229">
		<tag k="name" v="Birkelandsmoane" />
		<tag k="place" v="locality" />
		<tag k="ssr:stedsnr" v="296634" />
	</node>
	<node lat="59.568536111197204" lon="6.361338880938975" id="-1231">
		<tag k="name" v="Sjusoveradn" />
		<tag k="place" v="locality" />
		<tag k="ssr:stedsnr" v="299612" />
	</node>
	<node lat="59.64098333759726" lon="6.4385916634492535" id="-1232">
		<tag k="name" v="Botnahøse" />
		<tag k="place" v="locality" />
		<tag k="ssr:stedsnr" v="302003" />
	</node>
	<node lat="59.665208336114226" lon="6.437383332940851" id="-1233">
		<tag k="name" v="Spannakleiva" />
		<tag k="natural" v="valley" />
		<tag k="place" v="locality" />
		<tag k="ssr:stedsnr" v="302030" />
	</node>
	<node lat="59.6564055585113" lon="6.468944452231275" id="-1235">
		<tag k="name" v="Tømmerli" />
		<tag k="natural" v="slope" />
		<tag k="place" v="locality" />
		<tag k="ssr:stedsnr" v="302071" />
	</node>
	<node lat="59.65001667113319" lon="6.438416671132091" id="-1236">
		<tag k="name" v="Stølsholet" />
		<tag k="natural" v="valley" />
		<tag k="place" v="locality" />
		<tag k="ssr:stedsnr" v="302075" />
	</node>
	<node lat="59.63021666629142" lon="6.255980563487733" id="-1238">
		<tag k="name" v="Høgehaug" />
		<tag k="natural" v="hill" />
		<tag k="place" v="locality" />
		<tag k="ssr:stedsnr" v="302505" />
	</node>
	<node lat="59.63534166764291" lon="6.2450388804473205" id="-1239">
		<tag k="name" v="Solhemsheia" />
		<tag k="natural" v="hill" />
		<tag k="place" v="locality" />
		<tag k="ssr:stedsnr" v="302506" />
	</node>
	<node lat="59.62993055149771" lon="6.236380559897584" id="-1240">
		<tag k="name" v="Heiabrot" />
		<tag k="natural" v="cliff" />
		<tag k="ssr:stedsnr" v="302507" />
	</node>
	<node lat="59.61959444172473" lon="6.20956388218427" id="-1241">
		<tag k="name" v="Klypå" />
		<tag k="place" v="locality" />
		<tag k="ssr:stedsnr" v="302513" />
	</node>
	<node lat="59.754577776155955" lon="6.561280561452371" id="-1242">
		<tag k="name" v="Bjødnaberget" />
		<tag k="natural" v="hill" />
		<tag k="place" v="locality" />
		<tag k="ssr:stedsnr" v="302608" />
	</node>
	<node lat="59.6707111144585" lon="6.371777774398201" id="-1243">
		<tag k="name" v="Rundehaugen" />
		<tag k="natural" v="hill" />
		<tag k="place" v="locality" />
		<tag k="ssr:stedsnr" v="302911" />
	</node>
	<node lat="59.67020684119887" lon="6.404819668754562" id="-1246">
		<tag k="name" v="Rokkahaugen" />
		<tag k="natural" v="hill" />
		<tag k="place" v="locality" />
		<tag k="ssr:stedsnr" v="302889" />
	</node>
	<node lat="59.73600555546925" lon="6.339086106993383" id="-1249">
		<tag k="name" v="Reinakvambrekka" />
		<tag k="natural" v="slope" />
		<tag k="place" v="locality" />
		<tag k="ssr:stedsnr" v="303529" />
	</node>
	<node lat="59.73277221790885" lon="6.35553610936383" id="-1251">
		<tag k="name" v="Ronn og Kring" />
		<tag k="place" v="locality" />
		<tag k="ssr:stedsnr" v="303532" />
	</node>
	<node lat="59.64748888994554" lon="6.331547227731516" id="-1253">
		<tag k="name" v="Djupadalen" />
		<tag k="natural" v="valley" />
		<tag k="place" v="locality" />
		<tag k="ssr:stedsnr" v="303877" />
	</node>
	<node lat="59.650925002567824" lon="6.332500006279979" id="-1254">
		<tag k="name" v="Jeskedal" />
		<tag k="natural" v="valley" />
		<tag k="place" v="locality" />
		<tag k="ssr:stedsnr" v="303878" />
	</node>
	<node lat="59.65553610745445" lon="6.241552776639753" id="-1256">
		<tag k="name" v="Grønebotnen" />
		<tag k="natural" v="valley" />
		<tag k="place" v="locality" />
		<tag k="ssr:stedsnr" v="303980" />
	</node>
	<node lat="59.64532778115615" lon="6.2167444378384" id="-1257">
		<tag k="fixme" v="consider natural=peak for the most distinct mountains in the district" />
		<tag k="name" v="Bakkavassnuten" />
		<tag k="natural" v="hill" />
		<tag k="place" v="locality" />
		<tag k="ssr:stedsnr" v="303982" />
	</node>
	<node lat="59.64959722498126" lon="6.224466674051102" id="-1259">
		<tag k="name" v="Eggjedn" />
		<tag k="place" v="locality" />
		<tag k="ssr:stedsnr" v="303985" />
	</node>
	<node lat="59.61238055546771" lon="6.205955558103342" id="-1260">
		<tag k="fixme" v="consider natural=peak for the most distinct mountains in the district" />
		<tag k="name" v="Ramnafjellnuten" />
		<tag k="natural" v="hill" />
		<tag k="place" v="locality" />
		<tag k="ssr:stedsnr" v="306528" />
	</node>
	<node lat="59.64792499744367" lon="6.2417833311286985" id="-1261">
		<tag k="alt_name" v="Botnadn" />
		<tag k="name" v="Vekabotnane" />
		<tag k="natural" v="valley" />
		<tag k="place" v="locality" />
		<tag k="ssr:stedsnr" v="306756" />
	</node>
	<node lat="59.59192499666319" lon="6.409119451181441" id="-1263">
		<tag k="name" v="Norddalen" />
		<tag k="natural" v="valley" />
		<tag k="place" v="locality" />
		<tag k="ssr:stedsnr" v="306808" />
	</node>
	<node lat="59.75493889245095" lon="6.353941661122116" id="-1264">
		<tag k="alt_name" v="Lønndardalen" />
		<tag k="name" v="Løyndardalen" />
		<tag k="natural" v="valley" />
		<tag k="place" v="locality" />
		<tag k="ssr:stedsnr" v="307119" />
	</node>
	<node lat="59.76823055550266" lon="6.484099991659286" id="-1265">
		<tag k="fixme" v="consider natural=peak for the most distinct mountains in the district" />
		<tag k="name" v="Austmannanuten" />
		<tag k="natural" v="hill" />
		<tag k="place" v="locality" />
		<tag k="ssr:stedsnr" v="307120" />
	</node>
	<node lat="59.72250000248567" lon="6.373083335206399" id="-1266">
		<tag k="fixme" v="consider natural=peak for the most distinct mountains in the district" />
		<tag k="name" v="Buernuten" />
		<tag k="natural" v="hill" />
		<tag k="place" v="locality" />
		<tag k="ssr:stedsnr" v="307899" />
	</node>
	<node lat="59.710252779415285" lon="6.420663884510009" id="-1267">
		<tag k="name" v="Hereimsdalen" />
		<tag k="natural" v="valley" />
		<tag k="place" v="locality" />
		<tag k="ssr:stedsnr" v="307955" />
	</node>
	<node lat="59.6435333362527" lon="6.325633326976421" id="-1269">
		<tag k="fixme" v="consider natural=peak for the most distinct mountains in the district" />
		<tag k="name" v="Trosavikåsen" />
		<tag k="natural" v="hill" />
		<tag k="place" v="locality" />
		<tag k="ssr:stedsnr" v="467758" />
	</node>
	<node lat="59.24859999703415" lon="6.806783328633947" id="-1270">
		<tag k="name" v="Heiane" />
		<tag k="natural" v="mountain_range" />
		<tag k="ssr:stedsnr" v="326179" />
	</node>
	<node lat="59.75916666453985" lon="6.64388888250343" id="-1280">
		<tag k="name" v="Kjeladn" />
		<tag k="natural" v="slope" />
		<tag k="place" v="locality" />
		<tag k="ssr:stedsnr" v="363599" />
	</node>
	<node lat="59.611452779415586" lon="6.219211107470458" id="-1281">
		<tag k="loc_name" v="Botnane" />
		<tag k="name" v="Botnadn" />
		<tag k="natural" v="valley" />
		<tag k="place" v="locality" />
		<tag k="ssr:stedsnr" v="363706" />
	</node>
	<node lat="59.606972218440575" lon="6.419483329104137" id="-1282">
		<tag k="loc_name" v="Botnane" />
		<tag k="name" v="Botnadn" />
		<tag k="natural" v="valley" />
		<tag k="place" v="locality" />
		<tag k="ssr:stedsnr" v="363723" />
	</node>
	<node lat="59.6371805595808" lon="6.592988894879083" id="-1285">
		<tag k="fixme" v="consider natural=peak for the most distinct mountains in the district" />
		<tag k="name" v="Skaulen" />
		<tag k="natural" v="hill" />
		<tag k="place" v="locality" />
		<tag k="ssr:stedsnr" v="367788" />
	</node>
	<node lat="59.744449997353016" lon="6.318399992301826" id="-1288">
		<tag k="fixme" v="consider natural=peak for the most distinct mountains in the district" />
		<tag k="name" v="Storaheinuten" />
		<tag k="natural" v="hill" />
		<tag k="place" v="locality" />
		<tag k="ssr:stedsnr" v="367921" />
	</node>
	<node lat="59.6762999996279" lon="6.6372583397360785" id="-1291">
		<tag k="fixme" v="consider natural=peak for the most distinct mountains in the district" />
		<tag k="name" v="Sauanuten" />
		<tag k="natural" v="hill" />
		<tag k="place" v="locality" />
		<tag k="ssr:stedsnr" v="479383" />
	</node>
	<node lat="59.5713416630013" lon="6.3588333285857574" id="-1292">
		<tag k="name" v="Litle Slettedalen" />
		<tag k="natural" v="valley" />
		<tag k="place" v="locality" />
		<tag k="ssr:stedsnr" v="481603" />
	</node>
	<node lat="59.63705277924043" lon="6.550652769376632" id="-1293">
		<tag k="name" v="Heiabotnen" />
		<tag k="natural" v="valley" />
		<tag k="place" v="locality" />
		<tag k="ssr:stedsnr" v="481726" />
	</node>
	<node lat="59.68259444426222" lon="6.2826666627707635" id="-1295">
		<tag k="name" v="Grødalstomtene" />
		<tag k="place" v="locality" />
		<tag k="ssr:stedsnr" v="484055" />
	</node>
	<node lat="59.71943888569066" lon="6.349794450130246" id="-1296">
		<tag k="name" v="Buer-Mjelkhaug" />
		<tag k="natural" v="hill" />
		<tag k="place" v="locality" />
		<tag k="ssr:stedsnr" v="484071" />
	</node>
	<node lat="59.694269445769024" lon="6.488819449017567" id="-1297">
		<tag k="name" v="Kavrestegdalen" />
		<tag k="natural" v="valley" />
		<tag k="place" v="locality" />
		<tag k="ssr:stedsnr" v="484105" />
	</node>
	<node lat="59.70165000150352" lon="6.494327775705557" id="-1300">
		<tag k="name" v="Forstova" />
		<tag k="natural" v="valley" />
		<tag k="place" v="locality" />
		<tag k="ssr:stedsnr" v="484116" />
	</node>
	<node lat="59.69538333405684" lon="6.414369436663567" id="-1302">
		<tag k="name" v="Ospestonga" />
		<tag k="place" v="locality" />
		<tag k="ssr:stedsnr" v="484135" />
	</node>
	<node lat="59.62274721849304" lon="6.223102786657803" id="-1305">
		<tag k="fixme" v="consider natural=peak for the most distinct mountains in the district" />
		<tag k="name" v="Grønabakkfjellet" />
		<tag k="natural" v="hill" />
		<tag k="place" v="locality" />
		<tag k="ssr:stedsnr" v="484493" />
	</node>
	<node lat="59.62441944164169" lon="6.430044449628052" id="-1306">
		<tag k="loc_name" v="Varden" />
		<tag k="name" v="Varen" />
		<tag k="natural" v="hill" />
		<tag k="place" v="locality" />
		<tag k="ssr:stedsnr" v="484631" />
	</node>
	<node lat="59.7258249993587" lon="6.428244453208398" id="-1307">
		<tag k="name" v="Legdedn" />
		<tag k="natural" v="slope" />
		<tag k="place" v="locality" />
		<tag k="ssr:stedsnr" v="484590" />
	</node>
	<node lat="59.73563610910952" lon="6.446211108233833" id="-1308">
		<tag k="name" v="Stordalen" />
		<tag k="natural" v="valley" />
		<tag k="place" v="locality" />
		<tag k="ssr:stedsnr" v="484593" />
	</node>
	<node lat="59.747661113761595" lon="6.496436117556253" id="-1315">
		<tag k="name" v="Stutajuvet" />
		<tag k="natural" v="gorge" />
		<tag k="ssr:stedsnr" v="485443" />
	</node>
	<node lat="59.633675001944546" lon="6.3895888858354" id="-1318">
		<tag k="alt_name" v="Tempereinuten" />
		<tag k="fixme" v="consider natural=peak for the most distinct mountains in the district" />
		<tag k="name" v="Tempereidnuten" />
		<tag k="natural" v="hill" />
		<tag k="place" v="locality" />
		<tag k="ssr:stedsnr" v="488796" />
	</node>
	<node lat="59.67833888801273" lon="6.660777769503338" id="-1320">
		<tag k="name" v="Vene Dalen" />
		<tag k="natural" v="valley" />
		<tag k="place" v="locality" />
		<tag k="ssr:stedsnr" v="419392" />
	</node>
	<node lat="59.651913889372054" lon="6.241350006364344" id="-1321">
		<tag k="fixme" v="consider natural=peak for the most distinct mountains in the district" />
		<tag k="name" v="Rundenuten" />
		<tag k="natural" v="hill" />
		<tag k="place" v="locality" />
		<tag k="ssr:stedsnr" v="488777" />
	</node>
	<node lat="59.68474999603155" lon="6.278611112263803" id="-1325">
		<tag k="alt_name" v="Grødalen" />
		<tag k="name" v="Grøddalen" />
		<tag k="natural" v="valley" />
		<tag k="place" v="locality" />
		<tag k="ssr:stedsnr" v="488937" />
	</node>
	<node lat="59.78210277676861" lon="6.4672861183805015" id="-1332">
		<tag k="alt_name" v="Reinakvambotn" />
		<tag k="name" v="Reinakvambotnen" />
		<tag k="natural" v="valley" />
		<tag k="place" v="locality" />
		<tag k="ssr:stedsnr" v="489080" />
	</node>
	<node lat="59.79431388566703" lon="6.54942776918078" id="-1333">
		<tag k="fixme" v="consider natural=peak for the most distinct mountains in the district" />
		<tag k="name" v="Kyrkjenuten" />
		<tag k="natural" v="hill" />
		<tag k="place" v="locality" />
		<tag k="ssr:stedsnr" v="489083" />
	</node>
	<node lat="59.64986388897522" lon="6.4218861052919225" id="-1335">
		<tag k="name" v="Kvitebergslåttene" />
		<tag k="natural" v="slope" />
		<tag k="place" v="locality" />
		<tag k="ssr:stedsnr" v="424002" />
	</node>
	<node lat="59.653241668193566" lon="6.507313886273305" id="-1337">
		<tag k="name" v="Hatteberg" />
		<tag k="natural" v="hill" />
		<tag k="place" v="locality" />
		<tag k="ssr:stedsnr" v="424047" />
	</node>
	<node lat="59.694205558579405" lon="6.352677773016823" id="-1338">
		<tag k="name" v="Jeskedalen" />
		<tag k="natural" v="valley" />
		<tag k="place" v="locality" />
		<tag k="ssr:stedsnr" v="424145" />
	</node>
	<node lat="59.68991666975562" lon="6.505530562235804" id="-1339">
		<tag k="name" v="Storehaugen" />
		<tag k="natural" v="hill" />
		<tag k="place" v="locality" />
		<tag k="ssr:stedsnr" v="424148" />
	</node>
	<node lat="59.584086110653175" lon="6.354502779944417" id="-1340">
		<tag k="name" v="Vårstølhaugen" />
		<tag k="natural" v="hill" />
		<tag k="place" v="locality" />
		<tag k="ssr:stedsnr" v="424292" />
	</node>
	<node lat="59.58303889299167" lon="6.377933326561002" id="-1341">
		<tag k="name" v="Litle Norddal" />
		<tag k="natural" v="valley" />
		<tag k="place" v="locality" />
		<tag k="ssr:stedsnr" v="424293" />
	</node>
	<node lat="59.76158610986118" lon="6.420791666295787" id="-1343">
		<tag k="name" v="Helgedalen" />
		<tag k="natural" v="valley" />
		<tag k="place" v="locality" />
		<tag k="ssr:stedsnr" v="424498" />
	</node>
	<node lat="59.60114444156975" lon="6.382161119216174" id="-1344">
		<tag k="name" v="Grøndalsbakken" />
		<tag k="natural" v="slope" />
		<tag k="place" v="locality" />
		<tag k="ssr:stedsnr" v="424650" />
	</node>
	<node lat="59.60728888632537" lon="6.349399991626895" id="-1345">
		<tag k="fixme" v="consider natural=peak for the most distinct mountains in the district" />
		<tag k="name" v="Stakkås" />
		<tag k="natural" v="hill" />
		<tag k="place" v="locality" />
		<tag k="ssr:stedsnr" v="424659" />
	</node>
	<node lat="59.620855558335776" lon="6.338858328893707" id="-1347">
		<tag k="name" v="Brattasteg" />
		<tag k="natural" v="slope" />
		<tag k="place" v="locality" />
		<tag k="ssr:stedsnr" v="424703" />
	</node>
	<node lat="59.62616388936139" lon="6.371749993691363" id="-1348">
		<tag k="loc_name" v="Bjørnahola" />
		<tag k="name" v="Bjødnahola" />
		<tag k="natural" v="valley" />
		<tag k="place" v="locality" />
		<tag k="ssr:stedsnr" v="424705" />
	</node>
	<node lat="59.62051395502082" lon="6.476864962432972" id="-1349">
		<tag k="name" v="Ytre Sjonarhaug" />
		<tag k="natural" v="hill" />
		<tag k="place" v="locality" />
		<tag k="ssr:stedsnr" v="424744" />
	</node>
	<node lat="59.599922217663035" lon="6.438491660549342" id="-1350">
		<tag k="name" v="Reinshola" />
		<tag k="natural" v="slope" />
		<tag k="place" v="locality" />
		<tag k="ssr:stedsnr" v="424755" />
	</node>
	<node lat="59.675019436023135" lon="6.241466026476817" id="-1351">
		<tag k="fixme" v="consider natural=peak for the most distinct mountains in the district" />
		<tag k="name" v="Langefonntindane" />
		<tag k="natural" v="hill" />
		<tag k="place" v="locality" />
		<tag k="ssr:stedsnr" v="424764" />
	</node>
	<node lat="59.73669999911927" lon="6.362108327105803" id="-1354">
		<tag k="fixme" v="consider natural=peak for the most distinct mountains in the district" />
		<tag k="name" v="Nordheia" />
		<tag k="natural" v="hill" />
		<tag k="place" v="locality" />
		<tag k="ssr:stedsnr" v="428919" />
	</node>
	<node lat="59.739955553218365" lon="6.418536107491453" id="-1355">
		<tag k="alt_name" v="Helgedalsskaret" />
		<tag k="name" v="Helgedalsskardet" />
		<tag k="natural" v="valley" />
		<tag k="place" v="locality" />
		<tag k="ssr:stedsnr" v="670929" />
	</node>
	<node lat="59.621052776213496" lon="6.269333328628141" id="-1361">
		<tag k="fixme" v="consider natural=peak for the most distinct mountains in the district" />
		<tag k="name" v="Litlenut" />
		<tag k="natural" v="hill" />
		<tag k="place" v="locality" />
		<tag k="ssr:stedsnr" v="671796" />
	</node>
	<node lat="59.622502777076775" lon="6.184941671277908" id="-1362">
		<tag k="name" v="Bjønndalskleiva" />
		<tag k="natural" v="slope" />
		<tag k="place" v="locality" />
		<tag k="ssr:stedsnr" v="462813" />
	</node>
	<node lat="59.65683888526937" lon="6.415136104861818" id="-1363">
		<tag k="name" v="Trolldalshalsen" />
		<tag k="place" v="locality" />
		<tag k="ssr:stedsnr" v="484008" />
	</node>
	<node lat="59.65713888811314" lon="6.478619441526004" id="-1367">
		<tag k="fixme" v="consider natural=peak for the most distinct mountains in the district" />
		<tag k="name" v="Ufårenuten" />
		<tag k="natural" v="hill" />
		<tag k="place" v="locality" />
		<tag k="ssr:stedsnr" v="484045" />
	</node>
	<node lat="59.690300004204964" lon="6.291122230450621" id="-1369">
		<tag k="name" v="Slettabakka" />
		<tag k="natural" v="slope" />
		<tag k="place" v="locality" />
		<tag k="ssr:stedsnr" v="484053" />
	</node>
	<node lat="59.69253888564292" lon="6.292150004933547" id="-1370">
		<tag k="fixme" v="consider natural=peak for the most distinct mountains in the district" />
		<tag k="name" v="Bjødnaskårnuten" />
		<tag k="natural" v="hill" />
		<tag k="place" v="locality" />
		<tag k="ssr:stedsnr" v="484054" />
	</node>
	<node lat="59.69803333461879" lon="6.517188891818863" id="-1372">
		<tag k="name" v="Sagbakken" />
		<tag k="natural" v="slope" />
		<tag k="place" v="locality" />
		<tag k="ssr:stedsnr" v="484379" />
	</node>
	<node lat="59.579597226471286" lon="6.291477772777286" id="-1374">
		<tag k="name" v="Sollandssvea" />
		<tag k="place" v="locality" />
		<tag k="ssr:stedsnr" v="484280" />
	</node>
	<node lat="59.74359166905531" lon="6.374458338983575" id="-1375">
		<tag k="name" v="Kvelven" />
		<tag k="natural" v="valley" />
		<tag k="place" v="locality" />
		<tag k="ssr:stedsnr" v="484506" />
	</node>
	<node lat="59.727847225830104" lon="6.33115834056902" id="-1376">
		<tag k="name" v="Smaladokka" />
		<tag k="place" v="locality" />
		<tag k="ssr:stedsnr" v="484507" />
	</node>
	<node lat="59.75290278091626" lon="6.357666669277159" id="-1377">
		<tag k="name" v="Legdedn" />
		<tag k="natural" v="hill" />
		<tag k="place" v="locality" />
		<tag k="ssr:stedsnr" v="484513" />
	</node>
	<node lat="59.76010555320327" lon="6.572130552702576" id="-1378">
		<tag k="name" v="Søndagsskåra" />
		<tag k="natural" v="valley" />
		<tag k="place" v="locality" />
		<tag k="ssr:stedsnr" v="484569" />
	</node>
	<node lat="59.74823332947578" lon="6.519019450503324" id="-1379">
		<tag k="name" v="Ormekvelven" />
		<tag k="natural" v="valley" />
		<tag k="place" v="locality" />
		<tag k="ssr:stedsnr" v="484573" />
	</node>
	<node lat="59.619605557196344" lon="6.376252778938669" id="-1380">
		<tag k="fixme" v="consider natural=peak for the most distinct mountains in the district" />
		<tag k="name" v="Storenuten" />
		<tag k="natural" v="hill" />
		<tag k="place" v="locality" />
		<tag k="ssr:stedsnr" v="484711" />
	</node>
	<node lat="59.62839999726272" lon="6.437013893875925" id="-1384">
		<tag k="name" v="Vatndal" />
		<tag k="natural" v="valley" />
		<tag k="place" v="locality" />
		<tag k="ssr:stedsnr" v="484626" />
	</node>
	<node lat="59.610036113410075" lon="6.331719435631856" id="-1386">
		<tag k="name" v="Brurastigen" />
		<tag k="natural" v="slope" />
		<tag k="place" v="locality" />
		<tag k="ssr:stedsnr" v="484672" />
	</node>
	<node lat="59.747022220961966" lon="6.438647216341926" id="-1390">
		<tag k="name" v="Reinakvamskåra" />
		<tag k="place" v="locality" />
		<tag k="ssr:stedsnr" v="485464" />
	</node>
	<node lat="59.71169444299218" lon="6.651919444534706" id="-1391">
		<tag k="fixme" v="consider natural=peak for the most distinct mountains in the district" />
		<tag k="name" v="Vassdalsnuten" />
		<tag k="natural" v="hill" />
		<tag k="place" v="locality" />
		<tag k="ssr:stedsnr" v="488201" />
	</node>
	<node lat="59.68704166558331" lon="6.311283338323602" id="-1395">
		<tag k="alt_name" v="Grøndstaddalen" />
		<tag k="name" v="Grønstølsdalen" />
		<tag k="natural" v="valley" />
		<tag k="place" v="locality" />
		<tag k="ssr:stedsnr" v="488942" />
	</node>
	<node lat="59.69763610836491" lon="6.39588333930317" id="-1396">
		<tag k="name" v="Austareimsdalen" />
		<tag k="natural" v="valley" />
		<tag k="place" v="locality" />
		<tag k="ssr:stedsnr" v="488944" />
	</node>
	<node lat="59.6899055586258" lon="6.430013880738673" id="-1400">
		<tag k="fixme" v="consider natural=peak for the most distinct mountains in the district" />
		<tag k="name" v="Nos" />
		<tag k="natural" v="hill" />
		<tag k="place" v="locality" />
		<tag k="ssr:stedsnr" v="488999" />
	</node>
	<node lat="59.682308330400915" lon="6.352144437058614" id="-1403">
		<tag k="name" v="Håvahaug" />
		<tag k="natural" v="hill" />
		<tag k="place" v="locality" />
		<tag k="ssr:stedsnr" v="545107" />
	</node>
	<node lat="59.65899166876145" lon="6.413250008619321" id="-1404">
		<tag k="fixme" v="consider natural=peak for the most distinct mountains in the district" />
		<tag k="name" v="Kjosen" />
		<tag k="natural" v="hill" />
		<tag k="place" v="locality" />
		<tag k="ssr:stedsnr" v="545009" />
	</node>
	<node lat="59.657305557680594" lon="6.406986104115988" id="-1405">
		<tag k="name" v="Heimre Kvamen" />
		<tag k="natural" v="valley" />
		<tag k="place" v="locality" />
		<tag k="ssr:stedsnr" v="545011" />
	</node>
	<node lat="59.66445833641958" lon="6.433088880657419" id="-1407">
		<tag k="fixme" v="consider natural=peak for the most distinct mountains in the district" />
		<tag k="name" v="Løyningsåsen" />
		<tag k="natural" v="hill" />
		<tag k="place" v="locality" />
		<tag k="ssr:stedsnr" v="545023" />
	</node>
	<node lat="59.713049997172604" lon="6.3748055536496" id="-1409">
		<tag k="name" v="Legdedn" />
		<tag k="natural" v="slope" />
		<tag k="place" v="locality" />
		<tag k="ssr:stedsnr" v="545067" />
	</node>
	<node lat="59.70471666847434" lon="6.305388892461719" id="-1411">
		<tag k="name" v="Snødal" />
		<tag k="natural" v="valley" />
		<tag k="place" v="locality" />
		<tag k="ssr:stedsnr" v="545087" />
	</node>
	<node lat="59.74936388534982" lon="6.330563885548378" id="-1412">
		<tag k="fixme" v="consider natural=peak for the most distinct mountains in the district" />
		<tag k="name" v="Brekke-Grønahei" />
		<tag k="natural" v="hill" />
		<tag k="place" v="locality" />
		<tag k="ssr:stedsnr" v="545519" />
	</node>
	<node lat="59.74852222631907" lon="6.464061102845725" id="-1414">
		<tag k="fixme" v="consider natural=peak for the most distinct mountains in the district" />
		<tag k="name" v="Rundenuten" />
		<tag k="natural" v="hill" />
		<tag k="place" v="locality" />
		<tag k="ssr:stedsnr" v="545473" />
	</node>
	<node lat="59.60162777978818" lon="6.285324999090162" id="-1416">
		<tag k="name" v="Vermekrohalsen" />
		<tag k="place" v="locality" />
		<tag k="ssr:stedsnr" v="545673" />
	</node>
	<node lat="59.658469445393216" lon="6.329397224164063" id="-1418">
		<tag k="name" v="Kvelvane" />
		<tag k="natural" v="valley" />
		<tag k="place" v="locality" />
		<tag k="ssr:stedsnr" v="545876" />
	</node>
	<node lat="59.65308611008459" lon="6.323930561515556" id="-1419">
		<tag k="name" v="Slettebakken" />
		<tag k="natural" v="slope" />
		<tag k="place" v="locality" />
		<tag k="ssr:stedsnr" v="545878" />
	</node>
	<node lat="59.679674999971695" lon="6.437111110966679" id="-1421">
		<tag k="name" v="Øvre Kjedalshaugen" />
		<tag k="natural" v="hill" />
		<tag k="place" v="locality" />
		<tag k="ssr:stedsnr" v="545883" />
	</node>
	<node lat="59.637819448497666" lon="6.29066944015909" id="-1422">
		<tag k="fixme" v="consider natural=peak for the most distinct mountains in the district" />
		<tag k="name" v="Brendeåsen" />
		<tag k="natural" v="hill" />
		<tag k="place" v="locality" />
		<tag k="ssr:stedsnr" v="545711" />
	</node>
	<node lat="59.67509999706514" lon="6.377402773201144" id="-1423">
		<tag k="name" v="Novalødalen" />
		<tag k="natural" v="valley" />
		<tag k="place" v="locality" />
		<tag k="ssr:stedsnr" v="545906" />
	</node>
	<node lat="59.745988888054086" lon="6.469941662115456" id="-1425">
		<tag k="alt_name" v="Hadlenuten" />
		<tag k="fixme" v="consider natural=peak for the most distinct mountains in the district" />
		<tag k="name" v="Hallenuten" />
		<tag k="natural" v="hill" />
		<tag k="place" v="locality" />
		<tag k="ssr:stedsnr" v="549922" />
	</node>
	<node lat="59.817636115233086" lon="6.6193194356443215" id="-1432">
		<tag k="name" v="Berdalsheia" />
		<tag k="natural" v="hill" />
		<tag k="place" v="locality" />
		<tag k="ssr:stedsnr" v="570337" />
	</node>
	<node lat="59.70532500108736" lon="6.395519435750731" id="-1436">
		<tag k="name" v="Turkri" />
		<tag k="natural" v="slope" />
		<tag k="place" v="locality" />
		<tag k="ssr:stedsnr" v="605124" />
	</node>
	<node lat="59.69542500416087" lon="6.5113055483032465" id="-1437">
		<tag k="name" v="Ørodden" />
		<tag k="natural" v="cliff" />
		<tag k="ssr:stedsnr" v="605411" />
	</node>
	<node lat="59.701794442665296" lon="6.5269916629378955" id="-1439">
		<tag k="name" v="Sjursprånget" />
		<tag k="natural" v="gorge" />
		<tag k="ssr:stedsnr" v="605413" />
	</node>
	<node lat="59.73432222395014" lon="6.404405555196177" id="-1442">
		<tag k="name" v="Fjoteskårane" />
		<tag k="place" v="locality" />
		<tag k="ssr:stedsnr" v="605608" />
	</node>
	<node lat="59.729913887859915" lon="6.653330550576154" id="-1443">
		<tag k="fixme" v="consider natural=peak for the most distinct mountains in the district" />
		<tag k="name" v="Svartavassheia" />
		<tag k="natural" v="hill" />
		<tag k="place" v="locality" />
		<tag k="ssr:stedsnr" v="605655" />
	</node>
	<node lat="59.73713055956857" lon="6.632983340313646" id="-1444">
		<tag k="name" v="Idlesteg" />
		<tag k="natural" v="slope" />
		<tag k="place" v="locality" />
		<tag k="ssr:stedsnr" v="605657" />
	</node>
	<node lat="59.662652781268164" lon="6.3348527832443216" id="-1447">
		<tag k="fixme" v="consider natural=peak for the most distinct mountains in the district" />
		<tag k="loc_name" v="Kvitabergåsen" />
		<tag k="name" v="Kvitaberåsen" />
		<tag k="natural" v="hill" />
		<tag k="place" v="locality" />
		<tag k="ssr:stedsnr" v="605962" />
	</node>
	<node lat="59.674944445088336" lon="6.337127782812702" id="-1448">
		<tag k="loc_name" v="Furebakken" />
		<tag k="name" v="Forebakken" />
		<tag k="natural" v="slope" />
		<tag k="place" v="locality" />
		<tag k="ssr:stedsnr" v="605963" />
	</node>
	<node lat="59.80641388597245" lon="6.441883335334151" id="-1455">
		<tag k="alt_name" v="Kvannurnuten" />
		<tag k="fixme" v="consider natural=peak for the most distinct mountains in the district" />
		<tag k="name" v="Kvannurdenuten" />
		<tag k="natural" v="hill" />
		<tag k="place" v="locality" />
		<tag k="ssr:stedsnr" v="610089" />
	</node>
	<node lat="59.76466944413763" lon="6.340224997405809" id="-1457">
		<tag k="alt_name" v="Viabotn" />
		<tag k="name" v="Viabotnen" />
		<tag k="natural" v="valley" />
		<tag k="place" v="locality" />
		<tag k="ssr:stedsnr" v="610131" />
	</node>
	<node lat="59.77553611285529" lon="6.41472499753012" id="-1459">
		<tag k="alt_name" v="Grøne Haugane" />
		<tag k="fixme" v="consider natural=peak for the most distinct mountains in the district" />
		<tag k="name" v="Grønehaugane" />
		<tag k="natural" v="hill" />
		<tag k="place" v="locality" />
		<tag k="ssr:stedsnr" v="610139" />
	</node>
	<node lat="59.614302781195924" lon="6.2239194470381385" id="-1463">
		<tag k="fixme" v="consider natural=peak for the most distinct mountains in the district" />
		<tag k="name" v="Smalanuten" />
		<tag k="natural" v="hill" />
		<tag k="place" v="locality" />
		<tag k="ssr:stedsnr" v="610823" />
	</node>
	<node lat="59.724380558748805" lon="6.270369444354724" id="-1464">
		<tag k="name" v="Svartavatseggene" />
		<tag k="natural" v="hill" />
		<tag k="place" v="locality" />
		<tag k="ssr:stedsnr" v="705102" />
	</node>
	<node lat="59.717594442732995" lon="6.280697219178285" id="-1465">
		<tag k="fixme" v="consider natural=peak for the most distinct mountains in the district" />
		<tag k="name" v="Ørnafjellet" />
		<tag k="natural" v="hill" />
		<tag k="place" v="locality" />
		<tag k="ssr:stedsnr" v="727097" />
	</node>
	<node lat="59.70955555891676" lon="6.432016669806386" id="-1470">
		<tag k="name" v="Lødalen" />
		<tag k="natural" v="valley" />
		<tag k="place" v="locality" />
		<tag k="ssr:stedsnr" v="666103" />
	</node>
	<node lat="59.6944277800741" lon="6.4587694487280185" id="-1471">
		<tag k="name" v="Kjelabotn" />
		<tag k="natural" v="valley" />
		<tag k="place" v="locality" />
		<tag k="ssr:stedsnr" v="666142" />
	</node>
	<node lat="59.688358332701576" lon="6.475383338741726" id="-1472">
		<tag k="name" v="Fivelandsbotnen" />
		<tag k="natural" v="valley" />
		<tag k="place" v="locality" />
		<tag k="ssr:stedsnr" v="666143" />
	</node>
	<node lat="59.59349166617759" lon="6.355430550285985" id="-1473">
		<tag k="name" v="Lomartjønndalen" />
		<tag k="natural" v="valley" />
		<tag k="place" v="locality" />
		<tag k="ssr:stedsnr" v="666305" />
	</node>
	<node lat="59.77320833350942" lon="6.488733341435712" id="-1475">
		<tag k="fixme" v="consider natural=peak for the most distinct mountains in the district" />
		<tag k="name" v="Skåranuten" />
		<tag k="natural" v="hill" />
		<tag k="place" v="locality" />
		<tag k="ssr:stedsnr" v="666630" />
	</node>
	<node lat="59.72393611045248" lon="6.479994447067684" id="-1477">
		<tag k="name" v="Svarteberg" />
		<tag k="natural" v="hill" />
		<tag k="place" v="locality" />
		<tag k="ssr:stedsnr" v="666586" />
	</node>
	<node lat="59.625319441208234" lon="6.352997231286177" id="-1478">
		<tag k="name" v="Tømmerlunden" />
		<tag k="place" v="locality" />
		<tag k="ssr:stedsnr" v="666703" />
	</node>
	<node lat="59.617077781867565" lon="6.358663881208252" id="-1479">
		<tag k="loc_name" v="Bjørndalen" />
		<tag k="name" v="Bjønndalen" />
		<tag k="natural" v="valley" />
		<tag k="place" v="locality" />
		<tag k="ssr:stedsnr" v="666705" />
	</node>
	<node lat="59.63539411096591" lon="6.299049954999764" id="-1480">
		<tag k="fixme" v="consider natural=peak for the most distinct mountains in the district" />
		<tag k="name" v="Sandviksåsen" />
		<tag k="natural" v="hill" />
		<tag k="place" v="locality" />
		<tag k="ssr:stedsnr" v="666707" />
	</node>
	<node lat="59.610294446130986" lon="6.2709750018973995" id="-1481">
		<tag k="fixme" v="consider natural=peak for the most distinct mountains in the district" />
		<tag k="name" v="Laubrekkenut" />
		<tag k="natural" v="hill" />
		<tag k="place" v="locality" />
		<tag k="ssr:stedsnr" v="666715" />
	</node>
	<node lat="59.63394722532827" lon="6.298522223327594" id="-1482">
		<tag k="name" v="Sandviksdalen" />
		<tag k="natural" v="valley" />
		<tag k="place" v="locality" />
		<tag k="ssr:stedsnr" v="666718" />
	</node>
	<node lat="59.60616944502825" lon="6.398522225107538" id="-1483">
		<tag k="loc_name" v="Skorvene" />
		<tag k="name" v="Skorvedn" />
		<tag k="natural" v="slope" />
		<tag k="place" v="locality" />
		<tag k="ssr:stedsnr" v="666734" />
	</node>
	<node lat="59.60105555528997" lon="6.447694450920983" id="-1485">
		<tag k="fixme" v="consider natural=peak for the most distinct mountains in the district" />
		<tag k="name" v="Bjønnshinuten" />
		<tag k="natural" v="hill" />
		<tag k="place" v="locality" />
		<tag k="ssr:stedsnr" v="666746" />
	</node>
	<node lat="59.7520083306868" lon="6.589097224083406" id="-1492">
		<tag k="name" v="Flåna" />
		<tag k="natural" v="slope" />
		<tag k="place" v="locality" />
		<tag k="ssr:stedsnr" v="671110" />
	</node>
	<node lat="59.729463887328336" lon="6.364386104327163" id="-1495">
		<tag k="name" v="Moringdalen" />
		<tag k="natural" v="valley" />
		<tag k="place" v="locality" />
		<tag k="ssr:stedsnr" v="671913" />
	</node>
	<node lat="59.66175278079195" lon="6.535041660960396" id="-1497">
		<tag k="name" v="Suldalsheia" />
		<tag k="natural" v="hill" />
		<tag k="place" v="locality" />
		<tag k="ssr:stedsnr" v="695798" />
	</node>
	<node lat="59.68265277619606" lon="6.264644441824994" id="-1499">
		<tag k="fixme" v="consider natural=peak for the most distinct mountains in the district" />
		<tag k="name" v="Brekkestølheia" />
		<tag k="natural" v="hill" />
		<tag k="place" v="locality" />
		<tag k="ssr:stedsnr" v="727034" />
	</node>
	<node lat="59.63752499747151" lon="6.537594448090615" id="-1500">
		<tag k="fixme" v="consider natural=peak for the most distinct mountains in the district" />
		<tag k="name" v="Vestre Skaudel" />
		<tag k="natural" v="hill" />
		<tag k="place" v="locality" />
		<tag k="ssr:stedsnr" v="727042" />
	</node>
	<node lat="59.68211666629828" lon="6.311808333400844" id="-1501">
		<tag k="name" v="Grønstøl" />
		<tag k="natural" v="slope" />
		<tag k="place" v="locality" />
		<tag k="ssr:stedsnr" v="727076" />
	</node>
	<node lat="59.70520833401591" lon="6.36448610549311" id="-1502">
		<tag k="fixme" v="consider natural=peak for the most distinct mountains in the district" />
		<tag k="name" v="Tormonuten" />
		<tag k="natural" v="hill" />
		<tag k="place" v="locality" />
		<tag k="ssr:stedsnr" v="727080" />
	</node>
	<node lat="59.710336108382556" lon="6.514072221456998" id="-1503">
		<tag k="name" v="Stordalen" />
		<tag k="natural" v="valley" />
		<tag k="place" v="locality" />
		<tag k="ssr:stedsnr" v="727205" />
	</node>
	<node lat="59.57929166756528" lon="6.359149997109623" id="-1505">
		<tag k="name" v="Småheiane" />
		<tag k="natural" v="hill" />
		<tag k="place" v="locality" />
		<tag k="ssr:stedsnr" v="727312" />
	</node>
	<node lat="59.66180000186174" lon="6.364344446067027" id="-1511">
		<tag k="fixme" v="consider natural=peak for the most distinct mountains in the district" />
		<tag k="name" v="Brekkeåsen" />
		<tag k="natural" v="hill" />
		<tag k="place" v="locality" />
		<tag k="ssr:stedsnr" v="727918" />
	</node>
	<node lat="59.675872223985564" lon="6.288202769313753" id="-1512">
		<tag k="loc_name" v="Litlaskora" />
		<tag k="name" v="Litla Skårå" />
		<tag k="place" v="locality" />
		<tag k="ssr:stedsnr" v="727973" />
	</node>
	<node lat="59.671613885062854" lon="6.636347216095189" id="-1514">
		<tag k="fixme" v="consider natural=peak for the most distinct mountains in the district" />
		<tag k="name" v="Skorvenutane" />
		<tag k="natural" v="hill" />
		<tag k="place" v="locality" />
		<tag k="ssr:stedsnr" v="731169" />
	</node>
	<node lat="59.621620023173165" lon="6.476680605884106" id="-1518">
		<tag k="name" v="Sjonarhaugane" />
		<tag k="natural" v="hill" />
		<tag k="place" v="locality" />
		<tag k="ssr:stedsnr" v="731767" />
	</node>
	<node lat="59.71488610796569" lon="6.525091674338159" id="-1522">
		<tag k="alt_name" v="Ukkendalsnuten" />
		<tag k="fixme" v="consider natural=peak for the most distinct mountains in the district" />
		<tag k="name" v="Ukkendalsnutane" />
		<tag k="natural" v="hill" />
		<tag k="place" v="locality" />
		<tag k="ssr:stedsnr" v="731962" />
	</node>
	<node lat="59.68955555288774" lon="6.223644438970014" id="-1523">
		<tag k="name" v="Rauddalen" />
		<tag k="natural" v="valley" />
		<tag k="place" v="locality" />
		<tag k="ssr:stedsnr" v="731965" />
	</node>
	<node lat="59.57702499632655" lon="6.278358340144627" id="-1524">
		<tag k="alt_name" v="Åsadn" />
		<tag k="fixme" v="consider natural=peak for the most distinct mountains in the district" />
		<tag k="name" v="Åsane" />
		<tag k="natural" v="hill" />
		<tag k="place" v="locality" />
		<tag k="ssr:stedsnr" v="732119" />
	</node>
	<node lat="59.56967499598671" lon="6.2847472283043055" id="-1526">
		<tag k="name" v="Eikjehaugen" />
		<tag k="natural" v="slope" />
		<tag k="place" v="locality" />
		<tag k="ssr:stedsnr" v="904540" />
	</node>
	<node lat="59.79600555876691" lon="6.6408972288715615" id="-1527">
		<tag k="fixme" v="consider natural=peak for the most distinct mountains in the district" />
		<tag k="name" v="Inste Tinden" />
		<tag k="natural" v="hill" />
		<tag k="place" v="locality" />
		<tag k="ssr:stedsnr" v="753355" />
	</node>
	<node lat="59.588694443922215" lon="6.297388892876825" id="-1528">
		<tag k="alt_name" v="Rustå" />
		<tag k="name" v="Rusta" />
		<tag k="natural" v="hill" />
		<tag k="place" v="locality" />
		<tag k="ssr:stedsnr" v="767612" />
	</node>
	<node lat="59.698486112829755" lon="6.331949991793001" id="-1530">
		<tag k="name" v="Kvamen" />
		<tag k="natural" v="valley" />
		<tag k="place" v="locality" />
		<tag k="ssr:stedsnr" v="970182" />
	</node>
	<node lat="59.689849996507476" lon="6.3112055644850935" id="-1532">
		<tag k="name" v="Grøstøljuå" />
		<tag k="natural" v="gorge" />
		<tag k="ssr:stedsnr" v="970184" />
	</node>
	<node lat="59.696808332660105" lon="6.244272218325664" id="-1537">
		<tag k="fixme" v="consider natural=peak for the most distinct mountains in the district" />
		<tag k="name" v="Den sundklovna nuten" />
		<tag k="natural" v="hill" />
		<tag k="place" v="locality" />
		<tag k="ssr:stedsnr" v="909036" />
	</node>
	<node lat="59.69688055524776" lon="6.31272221877505" id="-1540">
		<tag k="name" v="Brekkå" />
		<tag k="place" v="locality" />
		<tag k="ssr:stedsnr" v="909129" />
	</node>
	<node lat="59.69944166806451" lon="6.324586107077981" id="-1541">
		<tag k="name" v="Roalshidleren" />
		<tag k="place" v="locality" />
		<tag k="ssr:stedsnr" v="909131" />
	</node>
	<node lat="59.722082916157035" lon="6.631490845447339" id="-1543">
		<tag k="fixme" v="consider natural=peak for the most distinct mountains in the district" />
		<tag k="name" v="Vassdalsheia" />
		<tag k="natural" v="hill" />
		<tag k="place" v="locality" />
		<tag k="ssr:stedsnr" v="909433" />
	</node>
	<node lat="59.72993888926231" lon="6.50173054687807" id="-1545">
		<tag k="name" v="Fedledalen" />
		<tag k="natural" v="valley" />
		<tag k="place" v="locality" />
		<tag k="ssr:stedsnr" v="909595" />
	</node>
	<node lat="59.738721821283036" lon="6.593908551579426" id="-1546">
		<tag k="loc_name" v="Breiborgsbotnen" />
		<tag k="name" v="Breibotnen" />
		<tag k="natural" v="valley" />
		<tag k="place" v="locality" />
		<tag k="ssr:stedsnr" v="781163" />
	</node>
	<node lat="59.61181666581931" lon="6.3520749951330915" id="-1547">
		<tag k="fixme" v="consider natural=peak for the most distinct mountains in the district" />
		<tag k="name" v="Dyrås" />
		<tag k="natural" v="hill" />
		<tag k="place" v="locality" />
		<tag k="ssr:stedsnr" v="909686" />
	</node>
	<node lat="59.67402499715749" lon="6.414666672549283" id="-1551">
		<tag k="name" v="Buermoen" />
		<tag k="place" v="locality" />
		<tag k="ssr:stedsnr" v="909900" />
	</node>
	<node lat="59.64682499658204" lon="6.257533337263605" id="-1553">
		<tag k="name" v="Kvelven" />
		<tag k="natural" v="valley" />
		<tag k="place" v="locality" />
		<tag k="ssr:stedsnr" v="909971" />
	</node>
	<node lat="59.70166388999012" lon="6.505827780608182" id="-1555">
		<tag k="name" v="Fedlehaugen" />
		<tag k="natural" v="hill" />
		<tag k="place" v="locality" />
		<tag k="ssr:stedsnr" v="910145" />
	</node>
	<node lat="59.586816664979054" lon="6.35049721909777" id="-1557">
		<tag k="fixme" v="consider natural=peak for the most distinct mountains in the district" />
		<tag k="name" v="Høyås" />
		<tag k="natural" v="hill" />
		<tag k="place" v="locality" />
		<tag k="ssr:stedsnr" v="910294" />
	</node>
	<node lat="59.58681388589176" lon="6.338466662418715" id="-1558">
		<tag k="alt_name" v="Krekadalen" />
		<tag k="name" v="Kjekadalen" />
		<tag k="natural" v="valley" />
		<tag k="place" v="locality" />
		<tag k="ssr:stedsnr" v="910297" />
	</node>
	<node lat="59.745227782235624" lon="6.574100001226174" id="-1560">
		<tag k="fixme" v="consider natural=peak for the most distinct mountains in the district" />
		<tag k="name" v="Flånakulten" />
		<tag k="natural" v="hill" />
		<tag k="place" v="locality" />
		<tag k="ssr:stedsnr" v="787612" />
	</node>
	<node lat="59.743219447359984" lon="6.433350005500475" id="-1561">
		<tag k="name" v="Dyrabrottleitene" />
		<tag k="natural" v="slope" />
		<tag k="place" v="locality" />
		<tag k="ssr:stedsnr" v="787631" />
	</node>
	<node lat="59.621775004030084" lon="6.4266472151463185" id="-1562">
		<tag k="fixme" v="consider natural=peak for the most distinct mountains in the district" />
		<tag k="name" v="Lågahei" />
		<tag k="natural" v="hill" />
		<tag k="place" v="locality" />
		<tag k="ssr:stedsnr" v="787659" />
	</node>
	<node lat="59.740200001039625" lon="6.5208777824002215" id="-1563">
		<tag k="name" v="Berdalskleiva" />
		<tag k="natural" v="valley" />
		<tag k="place" v="locality" />
		<tag k="ssr:stedsnr" v="787599" />
	</node>
	<node lat="59.65322222086911" lon="6.447066674639473" id="-1564">
		<tag k="name" v="Raundalen" />
		<tag k="natural" v="valley" />
		<tag k="place" v="locality" />
		<tag k="ssr:stedsnr" v="788048" />
	</node>
	<node lat="59.653686109620374" lon="6.425286103939259" id="-1565">
		<tag k="fixme" v="consider natural=peak for the most distinct mountains in the district" />
		<tag k="name" v="Kvamsnuten" />
		<tag k="natural" v="hill" />
		<tag k="place" v="locality" />
		<tag k="ssr:stedsnr" v="788052" />
	</node>
	<node lat="59.6599722218473" lon="6.4740194448974435" id="-1567">
		<tag k="name" v="Tømmerliskar" />
		<tag k="natural" v="valley" />
		<tag k="place" v="locality" />
		<tag k="ssr:stedsnr" v="788017" />
	</node>
	<node lat="59.691272226097574" lon="6.5069555598927735" id="-1568">
		<tag k="fixme" v="consider natural=peak for the most distinct mountains in the district" />
		<tag k="name" v="Hovås" />
		<tag k="natural" v="hill" />
		<tag k="place" v="locality" />
		<tag k="ssr:stedsnr" v="788367" />
	</node>
	<node lat="59.66401667088663" lon="6.245738888381236" id="-1570">
		<tag k="name" v="Trongjå" />
		<tag k="natural" v="gorge" />
		<tag k="ssr:stedsnr" v="788766" />
	</node>
	<node lat="59.74051111491101" lon="6.339986117051283" id="-1577">
		<tag k="name" v="Reinakvam" />
		<tag k="natural" v="valley" />
		<tag k="place" v="locality" />
		<tag k="ssr:stedsnr" v="792909" />
	</node>
	<node lat="59.65968055151956" lon="6.224450000280093" id="-1578">
		<tag k="alt_name" v="Borheia" />
		<tag k="fixme" v="consider natural=peak for the most distinct mountains in the district" />
		<tag k="name" v="Bordheia" />
		<tag k="natural" v="hill" />
		<tag k="place" v="locality" />
		<tag k="ssr:stedsnr" v="792978" />
	</node>
	<node lat="59.76723889180824" lon="6.3023083334299175" id="-1580">
		<tag k="fixme" v="consider natural=peak for the most distinct mountains in the district" />
		<tag k="name" v="Skautanuten" />
		<tag k="natural" v="hill" />
		<tag k="place" v="locality" />
		<tag k="ssr:stedsnr" v="793115" />
	</node>
	<node lat="59.64883333462132" lon="6.263719452044645" id="-1584">
		<tag k="name" v="Galnasiriheia" />
		<tag k="natural" v="hill" />
		<tag k="place" v="locality" />
		<tag k="ssr:stedsnr" v="913763" />
	</node>
	<node lat="59.618511110540496" lon="6.348561112155466" id="-1586">
		<tag k="alt_name" v="Benkjedn" />
		<tag k="fixme" v="consider natural=peak for the most distinct mountains in the district" />
		<tag k="loc_name" v="Benkjene;Benkjafjell" />
		<tag k="name" v="Benkafjell" />
		<tag k="natural" v="hill" />
		<tag k="place" v="locality" />
		<tag k="ssr:stedsnr" v="913778" />
	</node>
	<node lat="59.69753611277478" lon="6.459686116252127" id="-1589">
		<tag k="alt_name" v="Kjelabottheia" />
		<tag k="fixme" v="consider natural=peak for the most distinct mountains in the district" />
		<tag k="name" v="Kjelabotnheia" />
		<tag k="natural" v="hill" />
		<tag k="place" v="locality" />
		<tag k="ssr:stedsnr" v="913947" />
	</node>
	<node lat="59.68310278049853" lon="6.418158334411513" id="-1590">
		<tag k="alt_name" v="Juanuten" />
		<tag k="name" v="Gjuvanuten" />
		<tag k="natural" v="hill" />
		<tag k="place" v="locality" />
		<tag k="ssr:stedsnr" v="913997" />
	</node>
	<node lat="59.81206111397392" lon="6.644630563493459" id="-1593">
		<tag k="name" v="Sandvassbotnen" />
		<tag k="natural" v="valley" />
		<tag k="place" v="locality" />
		<tag k="ssr:stedsnr" v="914247" />
	</node>
	<node lat="59.70856110744099" lon="6.367061105955153" id="-1595">
		<tag k="fixme" v="consider natural=peak for the most distinct mountains in the district" />
		<tag k="name" v="Liasetnuten" />
		<tag k="natural" v="hill" />
		<tag k="place" v="locality" />
		<tag k="ssr:stedsnr" v="914958" />
	</node>
	<node lat="59.805616668730664" lon="6.600561106788307" id="-1596">
		<tag k="name" v="Glubajuvet" />
		<tag k="natural" v="gorge" />
		<tag k="ssr:stedsnr" v="814429" />
	</node>
	<node lat="59.6588194450211" lon="6.631336106241872" id="-1601">
		<tag k="name" v="Storedalsbrotet" />
		<tag k="natural" v="valley" />
		<tag k="place" v="locality" />
		<tag k="ssr:stedsnr" v="844385" />
	</node>
	<node lat="59.75453333388454" lon="6.510611109788674" id="-1603">
		<tag k="name" v="Leite" />
		<tag k="natural" v="slope" />
		<tag k="place" v="locality" />
		<tag k="ssr:stedsnr" v="848603" />
	</node>
	<node lat="59.74041666990643" lon="6.422352772515985" id="-1604">
		<tag k="fixme" v="consider natural=peak for the most distinct mountains in the district" />
		<tag k="name" v="Svartaberg" />
		<tag k="natural" v="hill" />
		<tag k="place" v="locality" />
		<tag k="ssr:stedsnr" v="848617" />
	</node>
	<node lat="59.80265862175862" lon="6.6050900930481635" id="-1605">
		<tag k="name" v="Botnabakkane" />
		<tag k="natural" v="slope" />
		<tag k="place" v="locality" />
		<tag k="ssr:stedsnr" v="848779" />
	</node>
	<node lat="59.70438611314121" lon="6.3611916654824165" id="-1607">
		<tag k="name" v="Kjedel" />
		<tag k="place" v="locality" />
		<tag k="ssr:stedsnr" v="849105" />
	</node>
	<node lat="59.710358337647484" lon="6.384425001528115" id="-1608">
		<tag k="name" v="Vatndal" />
		<tag k="natural" v="valley" />
		<tag k="place" v="locality" />
		<tag k="ssr:stedsnr" v="849111" />
	</node>
	<node lat="59.64853888591868" lon="6.4543277809039" id="-1610">
		<tag k="fixme" v="consider natural=peak for the most distinct mountains in the district" />
		<tag k="name" v="Sandviksnuten" />
		<tag k="natural" v="hill" />
		<tag k="place" v="locality" />
		<tag k="ssr:stedsnr" v="849078" />
	</node>
	<node lat="59.657419441393884" lon="6.451719437975574" id="-1611">
		<tag k="name" v="Eikeli" />
		<tag k="natural" v="slope" />
		<tag k="place" v="locality" />
		<tag k="ssr:stedsnr" v="849083" />
	</node>
	<node lat="59.70888889136561" lon="6.53496665791345" id="-1613">
		<tag k="name" v="Storebakkane" />
		<tag k="natural" v="slope" />
		<tag k="place" v="locality" />
		<tag k="ssr:stedsnr" v="849214" />
	</node>
	<node lat="59.70838888539312" lon="6.518930549233667" id="-1614">
		<tag k="name" v="Svevet" />
		<tag k="place" v="locality" />
		<tag k="ssr:stedsnr" v="849216" />
	</node>
	<node lat="59.61853333557159" lon="6.219672222327172" id="-1618">
		<tag k="loc_name" v="Nordre Kvelven" />
		<tag k="name" v="Nore Kvelven" />
		<tag k="natural" v="valley" />
		<tag k="place" v="locality" />
		<tag k="ssr:stedsnr" v="849526" />
	</node>
	<node lat="59.60463889185589" lon="6.208977768756775" id="-1619">
		<tag k="name" v="Kufonndalen" />
		<tag k="natural" v="valley" />
		<tag k="place" v="locality" />
		<tag k="ssr:stedsnr" v="849529" />
	</node>
	<node lat="59.59631388546016" lon="6.356786108745003" id="-1620">
		<tag k="name" v="Pyttåshaugane" />
		<tag k="natural" v="hill" />
		<tag k="place" v="locality" />
		<tag k="ssr:stedsnr" v="849704" />
	</node>
	<node lat="59.61293333686773" lon="6.349983335682129" id="-1622">
		<tag k="name" v="Bjørkestøldal" />
		<tag k="natural" v="valley" />
		<tag k="place" v="locality" />
		<tag k="ssr:stedsnr" v="849706" />
	</node>
	<node lat="59.7896472238433" lon="6.426002775886029" id="-1623">
		<tag k="fixme" v="consider natural=peak for the most distinct mountains in the district" />
		<tag k="name" v="Helgedalsnuten" />
		<tag k="natural" v="hill" />
		<tag k="place" v="locality" />
		<tag k="ssr:stedsnr" v="849693" />
	</node>
	<node lat="59.67018226578712" lon="6.408515308128693" id="-1625">
		<tag k="name" v="Longabakka" />
		<tag k="natural" v="slope" />
		<tag k="place" v="locality" />
		<tag k="ssr:stedsnr" v="849904" />
	</node>
	<node lat="59.672197221690276" lon="6.366175005734108" id="-1626">
		<tag k="fixme" v="consider natural=peak for the most distinct mountains in the district" />
		<tag k="loc_name" v="Varden" />
		<tag k="name" v="Varen" />
		<tag k="natural" v="hill" />
		<tag k="place" v="locality" />
		<tag k="ssr:stedsnr" v="849914" />
	</node>
	<node lat="59.6168555567932" lon="6.506141671479651" id="-1629">
		<tag k="alt_name" v="Avhoggenuten" />
		<tag k="fixme" v="consider natural=peak for the most distinct mountains in the district" />
		<tag k="name" v="Avhoggnuten" />
		<tag k="natural" v="hill" />
		<tag k="place" v="locality" />
		<tag k="ssr:stedsnr" v="852762" />
	</node>
	<node lat="59.61087777717351" lon="6.489230548461532" id="-1630">
		<tag k="name" v="Storebotn" />
		<tag k="natural" v="valley" />
		<tag k="place" v="locality" />
		<tag k="ssr:stedsnr" v="852764" />
	</node>
	<node lat="59.61653611015216" lon="6.42794999138968" id="-1631">
		<tag k="alt_name" v="Lauvåshei" />
		<tag k="fixme" v="consider natural=peak for the most distinct mountains in the district" />
		<tag k="name" v="Lauvåsheia" />
		<tag k="natural" v="hill" />
		<tag k="place" v="locality" />
		<tag k="ssr:stedsnr" v="852765" />
	</node>
	<node lat="59.61045555137954" lon="6.396638886667364" id="-1632">
		<tag k="fixme" v="consider natural=peak for the most distinct mountains in the district" />
		<tag k="name" v="Lauvåsnuten" />
		<tag k="natural" v="hill" />
		<tag k="place" v="locality" />
		<tag k="ssr:stedsnr" v="852767" />
	</node>
	<node lat="59.6349750035586" lon="6.190627780608893" id="-1636">
		<tag k="fixme" v="consider natural=peak for the most distinct mountains in the district" />
		<tag k="name" v="Kvannenuten" />
		<tag k="natural" v="hill" />
		<tag k="place" v="locality" />
		<tag k="ssr:stedsnr" v="853511" />
	</node>
	<node lat="59.62345277977791" lon="6.192300006215423" id="-1637">
		<tag k="fixme" v="consider natural=peak for the most distinct mountains in the district" />
		<tag k="name" v="Svartavassnuten" />
		<tag k="natural" v="hill" />
		<tag k="place" v="locality" />
		<tag k="ssr:stedsnr" v="853517" />
	</node>
	<node lat="59.63624166357318" lon="6.520900007505153" id="-1639">
		<tag k="fixme" v="consider natural=peak for the most distinct mountains in the district" />
		<tag k="name" v="Kvannegrødnuten" />
		<tag k="natural" v="hill" />
		<tag k="place" v="locality" />
		<tag k="ssr:stedsnr" v="853802" />
	</node>
	<node lat="59.724311107766404" lon="6.300250008250464" id="-1640">
		<tag k="alt_name" v="Kuestølnuten" />
		<tag k="fixme" v="consider natural=peak for the most distinct mountains in the district" />
		<tag k="name" v="Kuvestølsnuten" />
		<tag k="natural" v="hill" />
		<tag k="place" v="locality" />
		<tag k="ssr:stedsnr" v="853921" />
	</node>
	<node lat="59.70249166882777" lon="6.244919435880031" id="-1642">
		<tag k="alt_name" v="Holsnanuten, søndre;Søndre Holsnanuten;Søre Halsnånuten" />
		<tag k="fixme" v="consider natural=peak for the most distinct mountains in the district" />
		<tag k="name" v="Søre Holsnanuten" />
		<tag k="natural" v="hill" />
		<tag k="place" v="locality" />
		<tag k="ssr:stedsnr" v="853963" />
	</node>
	<node lat="59.76748332899259" lon="6.316022223355957" id="-1644">
		<tag k="alt_name" v="Viaskar;Via-Nordskar" />
		<tag k="name" v="Vianordskard" />
		<tag k="natural" v="valley" />
		<tag k="place" v="locality" />
		<tag k="ssr:stedsnr" v="854101" />
	</node>
	<node lat="59.77166388898088" lon="6.619155552563279" id="-1645">
		<tag k="fixme" v="consider natural=peak for the most distinct mountains in the district" />
		<tag k="name" v="Søre Tinden" />
		<tag k="natural" v="hill" />
		<tag k="place" v="locality" />
		<tag k="ssr:stedsnr" v="935404" />
	</node>
	<node lat="59.64322777854125" lon="6.4051277710663035" id="-1651">
		<tag k="name" v="Oppå Brattebakka" />
		<tag k="place" v="locality" />
		<tag k="ssr:stedsnr" v="909002" />
	</node>
	<node lat="59.64555833380262" lon="6.484669453220702" id="-1653">
		<tag k="name" v="Homalia" />
		<tag k="natural" v="slope" />
		<tag k="place" v="locality" />
		<tag k="ssr:stedsnr" v="909053" />
	</node>
	<node lat="59.704216665012844" lon="6.437850002687362" id="-1655">
		<tag k="name" v="Martinskar" />
		<tag k="natural" v="valley" />
		<tag k="place" v="locality" />
		<tag k="ssr:stedsnr" v="909102" />
	</node>
	<node lat="59.711447219040664" lon="6.549713894099651" id="-1656">
		<tag k="name" v="Grasleitet" />
		<tag k="place" v="locality" />
		<tag k="ssr:stedsnr" v="909207" />
	</node>
	<node lat="59.62430555901954" lon="6.234663893983561" id="-1657">
		<tag k="name" v="Vondajuvet" />
		<tag k="natural" v="gorge" />
		<tag k="ssr:stedsnr" v="909512" />
	</node>
	<node lat="59.6055305547589" lon="6.19929722075415" id="-1658">
		<tag k="name" v="Djupedalen" />
		<tag k="natural" v="valley" />
		<tag k="place" v="locality" />
		<tag k="ssr:stedsnr" v="909522" />
	</node>
	<node lat="59.7362749992758" lon="6.368463891796131" id="-1659">
		<tag k="name" v="Bjødnaklakkjen" />
		<tag k="place" v="locality" />
		<tag k="ssr:stedsnr" v="909525" />
	</node>
	<node lat="59.72840000463044" lon="6.384011118948107" id="-1660">
		<tag k="fixme" v="consider natural=peak for the most distinct mountains in the district" />
		<tag k="name" v="Litlenuten" />
		<tag k="natural" v="hill" />
		<tag k="place" v="locality" />
		<tag k="ssr:stedsnr" v="909526" />
	</node>
	<node lat="59.69312499852723" lon="6.5288750073456185" id="-1661">
		<tag k="fixme" v="consider natural=peak for the most distinct mountains in the district" />
		<tag k="name" v="Øvste Åsen" />
		<tag k="natural" v="hill" />
		<tag k="place" v="locality" />
		<tag k="ssr:stedsnr" v="909402" />
	</node>
	<node lat="59.73430000030199" lon="6.433516668003655" id="-1662">
		<tag k="fixme" v="consider natural=peak for the most distinct mountains in the district" />
		<tag k="name" v="Kjørkjå" />
		<tag k="natural" v="hill" />
		<tag k="place" v="locality" />
		<tag k="ssr:stedsnr" v="909606" />
	</node>
	<node lat="59.61730555873403" lon="6.284450001020937" id="-1665">
		<tag k="name" v="Jeskelia" />
		<tag k="natural" v="slope" />
		<tag k="place" v="locality" />
		<tag k="ssr:stedsnr" v="909721" />
	</node>
	<node lat="59.610738885434145" lon="6.42469167297129" id="-1670">
		<tag k="fixme" v="consider natural=peak for the most distinct mountains in the district" />
		<tag k="name" v="Stølsnutane" />
		<tag k="natural" v="hill" />
		<tag k="place" v="locality" />
		<tag k="ssr:stedsnr" v="909751" />
	</node>
	<node lat="59.67806389217241" lon="6.271697225160139" id="-1671">
		<tag k="fixme" v="consider natural=peak for the most distinct mountains in the district" />
		<tag k="name" v="Brekkestølheia" />
		<tag k="natural" v="hill" />
		<tag k="place" v="locality" />
		<tag k="ssr:stedsnr" v="909767" />
	</node>
	<node lat="59.77746944019401" lon="6.57307778070721" id="-1672">
		<tag k="name" v="Flåtabakkane" />
		<tag k="natural" v="slope" />
		<tag k="place" v="locality" />
		<tag k="ssr:stedsnr" v="909770" />
	</node>
	<node lat="59.659999995903014" lon="6.428422220239094" id="-1673">
		<tag k="name" v="Hetledalen" />
		<tag k="natural" v="valley" />
		<tag k="place" v="locality" />
		<tag k="ssr:stedsnr" v="909904" />
	</node>
	<node lat="59.74253842976133" lon="6.6040496456544835" id="-1674">
		<tag k="name" v="Botnaskåra" />
		<tag k="place" v="locality" />
		<tag k="ssr:stedsnr" v="909817" />
	</node>
	<node lat="59.58802499976352" lon="6.377972219360873" id="-1676">
		<tag k="name" v="Stora Norddalen" />
		<tag k="natural" v="valley" />
		<tag k="place" v="locality" />
		<tag k="ssr:stedsnr" v="910303" />
	</node>
	<node lat="59.64227777823981" lon="6.30466944623647" id="-1678">
		<tag k="name" v="Hedlot" />
		<tag k="place" v="locality" />
		<tag k="ssr:stedsnr" v="910932" />
	</node>
	<node lat="59.6668777823529" lon="6.614230561467729" id="-1681">
		<tag k="fixme" v="consider natural=peak for the most distinct mountains in the district" />
		<tag k="name" v="Kurlenuten" />
		<tag k="natural" v="hill" />
		<tag k="place" v="locality" />
		<tag k="ssr:stedsnr" v="914035" />
	</node>
	<node lat="59.64086111101917" lon="6.555694450573355" id="-1685">
		<tag k="name" v="Heiabotnen" />
		<tag k="natural" v="valley" />
		<tag k="place" v="locality" />
		<tag k="ssr:stedsnr" v="914806" />
	</node>
	<node lat="59.667824999870476" lon="6.440272216655004" id="-1690">
		<tag k="fixme" v="consider natural=peak for the most distinct mountains in the district" />
		<tag k="name" v="Kolåsen" />
		<tag k="natural" v="hill" />
		<tag k="place" v="locality" />
		<tag k="ssr:stedsnr" v="970046" />
	</node>
	<node lat="59.68751666429616" lon="6.347911119798403" id="-1693">
		<tag k="name" v="Hådlå" />
		<tag k="natural" v="hill" />
		<tag k="place" v="locality" />
		<tag k="ssr:stedsnr" v="970193" />
	</node>
	<node lat="59.68531388463919" lon="6.338633328589617" id="-1694">
		<tag k="name" v="Hauajuvet" />
		<tag k="natural" v="gorge" />
		<tag k="ssr:stedsnr" v="970196" />
	</node>
	<node lat="59.691897217742984" lon="6.502094437407793" id="-1695">
		<tag k="name" v="Bakkajuvet" />
		<tag k="natural" v="gorge" />
		<tag k="ssr:stedsnr" v="970199" />
	</node>
	<node lat="59.62947778049225" lon="6.359588880509268" id="-1697">
		<tag k="name" v="Resskarsberget" />
		<tag k="natural" v="hill" />
		<tag k="place" v="locality" />
		<tag k="ssr:stedsnr" v="970317" />
	</node>
	<node lat="59.65032222284131" lon="6.462925003257149" id="-1698">
		<tag k="name" v="Juvateigane" />
		<tag k="natural" v="slope" />
		<tag k="place" v="locality" />
		<tag k="ssr:stedsnr" v="970091" />
	</node>
	<node lat="59.70049444421036" lon="6.491213894969356" id="-1699">
		<tag k="name" v="Helvetesbotnen" />
		<tag k="natural" v="valley" />
		<tag k="place" v="locality" />
		<tag k="ssr:stedsnr" v="970211" />
	</node>
	<node lat="59.67700000231585" lon="6.264180562940565" id="-1700">
		<tag k="loc_name" v="Geitaskorane" />
		<tag k="name" v="Geiteskårane" />
		<tag k="place" v="locality" />
		<tag k="ssr:stedsnr" v="970418" />
	</node>
	<node lat="59.65798333199359" lon="6.305199995084185" id="-1705">
		<tag k="alt_name" v="Kvile" />
		<tag k="name" v="Kvilet" />
		<tag k="place" v="locality" />
		<tag k="ssr:stedsnr" v="970653" />
	</node>
	<node lat="59.66496111129261" lon="6.3207833360066985" id="-1706">
		<tag k="fixme" v="consider natural=peak for the most distinct mountains in the district" />
		<tag k="name" v="Stemmen" />
		<tag k="natural" v="hill" />
		<tag k="place" v="locality" />
		<tag k="ssr:stedsnr" v="970700" />
	</node>
	<node lat="59.67753888971137" lon="6.341008341921797" id="-1707">
		<tag k="name" v="Skitkleiv" />
		<tag k="natural" v="valley" />
		<tag k="place" v="locality" />
		<tag k="ssr:stedsnr" v="970701" />
	</node>
	<node lat="59.80111373348828" lon="6.606894908148797" id="-1709">
		<tag k="name" v="Berdalsbotnen" />
		<tag k="natural" v="valley" />
		<tag k="place" v="locality" />
		<tag k="ssr:stedsnr" v="3204" />
	</node>
	<node lat="59.71606666292351" lon="6.570449997673785" id="-1716">
		<tag k="fixme" v="consider natural=peak for the most distinct mountains in the district" />
		<tag k="name" v="Tverrdalsheia" />
		<tag k="natural" v="hill" />
		<tag k="place" v="locality" />
		<tag k="ssr:stedsnr" v="3959" />
	</node>
	<node lat="59.623166666080216" lon="6.549466660200574" id="-1719">
		<tag k="name" v="Gråbotnane" />
		<tag k="natural" v="valley" />
		<tag k="place" v="locality" />
		<tag k="ssr:stedsnr" v="56660" />
	</node>
	<node lat="59.69668611381339" lon="6.366488887505272" id="-1721">
		<tag k="name" v="Kleppaslåttene" />
		<tag k="natural" v="slope" />
		<tag k="place" v="locality" />
		<tag k="ssr:stedsnr" v="60126" />
	</node>
	<node lat="59.60545277925651" lon="6.353763883412861" id="-1722">
		<tag k="name" v="Moltedalen" />
		<tag k="natural" v="valley" />
		<tag k="place" v="locality" />
		<tag k="ssr:stedsnr" v="60650" />
	</node>
	<node lat="59.613311114628" lon="6.275977784169037" id="-1725">
		<tag k="alt_name" v="Kattaskår" />
		<tag k="name" v="Kattaskar" />
		<tag k="place" v="locality" />
		<tag k="ssr:stedsnr" v="60741" />
	</node>
	<node lat="59.6022916684446" lon="6.26717500237259" id="-1727">
		<tag k="name" v="Stølsleitet" />
		<tag k="place" v="locality" />
		<tag k="ssr:stedsnr" v="60743" />
	</node>
	<node lat="59.676841662916125" lon="6.45953332497235" id="-1728">
		<tag k="name" v="Heiaskardalen" />
		<tag k="natural" v="valley" />
		<tag k="place" v="locality" />
		<tag k="ssr:stedsnr" v="60034" />
	</node>
	<node lat="59.668747218253486" lon="6.43883610448642" id="-1729">
		<tag k="name" v="Koladalen" />
		<tag k="natural" v="valley" />
		<tag k="place" v="locality" />
		<tag k="ssr:stedsnr" v="60041" />
	</node>
	<node lat="59.695702777550615" lon="6.25072777003339" id="-1730">
		<tag k="name" v="Uradalen" />
		<tag k="natural" v="valley" />
		<tag k="place" v="locality" />
		<tag k="ssr:stedsnr" v="60048" />
	</node>
	<node lat="59.68619722601377" lon="6.260197223080387" id="-1731">
		<tag k="fixme" v="consider natural=peak for the most distinct mountains in the district" />
		<tag k="name" v="Brekkestølnuten" />
		<tag k="natural" v="hill" />
		<tag k="place" v="locality" />
		<tag k="ssr:stedsnr" v="60050" />
	</node>
	<node lat="59.665999997297334" lon="6.514463889611333" id="-1732">
		<tag k="name" v="Kjeadalen" />
		<tag k="natural" v="valley" />
		<tag k="place" v="locality" />
		<tag k="ssr:stedsnr" v="60061" />
	</node>
	<node lat="59.68213888793196" lon="6.501027780436939" id="-1733">
		<tag k="name" v="Dyrsel" />
		<tag k="natural" v="hill" />
		<tag k="place" v="locality" />
		<tag k="ssr:stedsnr" v="60142" />
	</node>
	<node lat="59.74575000143636" lon="6.354886103004235" id="-1737">
		<tag k="name" v="Sajedn" />
		<tag k="natural" v="slope" />
		<tag k="place" v="locality" />
		<tag k="ssr:stedsnr" v="60497" />
	</node>
	<node lat="59.644172219435426" lon="6.385374993436731" id="-1738">
		<tag k="name" v="Svartabekkdal" />
		<tag k="natural" v="valley" />
		<tag k="place" v="locality" />
		<tag k="ssr:stedsnr" v="60888" />
	</node>
	<node lat="59.64188333101896" lon="6.377780555829094" id="-1739">
		<tag k="name" v="Tverrdal" />
		<tag k="natural" v="valley" />
		<tag k="place" v="locality" />
		<tag k="ssr:stedsnr" v="60889" />
	</node>
	<node lat="59.58313333111895" lon="6.200327784678252" id="-1741">
		<tag k="fixme" v="consider natural=peak for the most distinct mountains in the district" />
		<tag k="name" v="Hustveitsåta" />
		<tag k="natural" v="hill" />
		<tag k="place" v="locality" />
		<tag k="ssr:stedsnr" v="64573" />
	</node>
	<node lat="59.605808330001516" lon="6.242086111897089" id="-1742">
		<tag k="name" v="Dyraskar" />
		<tag k="natural" v="valley" />
		<tag k="place" v="locality" />
		<tag k="ssr:stedsnr" v="60751" />
	</node>
	<node lat="59.60126389065842" lon="6.228172219986929" id="-1743">
		<tag k="loc_name" v="Sømløkjeskaret" />
		<tag k="name" v="Sømløkjenskaret" />
		<tag k="natural" v="valley" />
		<tag k="place" v="locality" />
		<tag k="ssr:stedsnr" v="60753" />
	</node>
	<node lat="59.60118446904801" lon="6.234751514954281" id="-1744">
		<tag k="fixme" v="consider natural=peak for the most distinct mountains in the district" />
		<tag k="name" v="Store Tjuvanuten" />
		<tag k="natural" v="hill" />
		<tag k="place" v="locality" />
		<tag k="ssr:stedsnr" v="60754" />
	</node>
	<node lat="59.67808055510219" lon="6.306802780852019" id="-1745">
		<tag k="name" v="Svartdalshola" />
		<tag k="natural" v="valley" />
		<tag k="place" v="locality" />
		<tag k="ssr:stedsnr" v="60947" />
	</node>
	<node lat="59.67521666328093" lon="6.3483333276162" id="-1746">
		<tag k="name" v="Sjonhammar" />
		<tag k="natural" v="cliff" />
		<tag k="ssr:stedsnr" v="60971" />
	</node>
	<node lat="59.68578055298726" lon="6.596525002478283" id="-1748">
		<tag k="name" v="Skiftesnuten" />
		<tag k="natural" v="hill" />
		<tag k="place" v="locality" />
		<tag k="ssr:stedsnr" v="64182" />
	</node>
	<node lat="59.608632510671924" lon="6.248624045478441" id="-1749">
		<tag k="alt_name" v="Botnanutane" />
		<tag k="fixme" v="consider natural=peak for the most distinct mountains in the district" />
		<tag k="loc_name" v="Botnanuten" />
		<tag k="name" v="Botnanut" />
		<tag k="natural" v="hill" />
		<tag k="place" v="locality" />
		<tag k="ssr:stedsnr" v="63788" />
	</node>
	<node lat="59.69697499584438" lon="6.365374999347325" id="-1751">
		<tag k="name" v="Heidal" />
		<tag k="natural" v="valley" />
		<tag k="place" v="locality" />
		<tag k="ssr:stedsnr" v="63944" />
	</node>
	<node lat="59.68623610919299" lon="6.539861118301506" id="-1753">
		<tag k="fixme" v="consider natural=peak for the most distinct mountains in the district" />
		<tag k="name" v="Dalvassheia" />
		<tag k="natural" v="hill" />
		<tag k="place" v="locality" />
		<tag k="ssr:stedsnr" v="64988" />
	</node>
	<node lat="59.66748610663922" lon="6.247299997577108" id="-1754">
		<tag k="fixme" v="consider natural=peak for the most distinct mountains in the district" />
		<tag k="name" v="Hovlandsnuten" />
		<tag k="natural" v="hill" />
		<tag k="place" v="locality" />
		<tag k="ssr:stedsnr" v="64990" />
	</node>
	<node lat="59.73283611499744" lon="6.426327782998535" id="-1756">
		<tag k="name" v="Rindadalen" />
		<tag k="natural" v="valley" />
		<tag k="place" v="locality" />
		<tag k="ssr:stedsnr" v="64928" />
	</node>
	<node lat="59.743950002817" lon="6.5136527752755145" id="-1757">
		<tag k="fixme" v="consider natural=peak for the most distinct mountains in the district" />
		<tag k="name" v="Skuldrenuten" />
		<tag k="natural" v="hill" />
		<tag k="place" v="locality" />
		<tag k="ssr:stedsnr" v="64935" />
	</node>
	<node lat="59.64825277334822" lon="6.221130549813762" id="-1760">
		<tag k="name" v="Eggene" />
		<tag k="natural" v="slope" />
		<tag k="place" v="locality" />
		<tag k="ssr:stedsnr" v="64787" />
	</node>
	<node lat="59.74397500062637" lon="6.384227781858962" id="-1761">
		<tag k="fixme" v="consider natural=peak for the most distinct mountains in the district" />
		<tag k="name" v="Kvelvanuten" />
		<tag k="natural" v="hill" />
		<tag k="place" v="locality" />
		<tag k="ssr:stedsnr" v="64942" />
	</node>
	<node lat="59.70658055343055" lon="6.492786118086426" id="-1762">
		<tag k="name" v="Minnehaugen" />
		<tag k="natural" v="hill" />
		<tag k="place" v="locality" />
		<tag k="ssr:stedsnr" v="229344" />
	</node>
	<node lat="59.59004166627335" lon="6.337697220199973" id="-1767">
		<tag k="fixme" v="consider natural=peak for the most distinct mountains in the district" />
		<tag k="name" v="Sløret" />
		<tag k="natural" v="hill" />
		<tag k="place" v="locality" />
		<tag k="ssr:stedsnr" v="120300" />
	</node>
	<node lat="59.65792777688025" lon="6.573752785004545" id="-1770">
		<tag k="fixme" v="consider natural=peak for the most distinct mountains in the district" />
		<tag k="name" v="Dekkene" />
		<tag k="natural" v="hill" />
		<tag k="place" v="locality" />
		<tag k="ssr:stedsnr" v="120043" />
	</node>
	<node lat="59.656797224715866" lon="6.484644453121616" id="-1771">
		<tag k="name" v="Storlidalen" />
		<tag k="natural" v="valley" />
		<tag k="place" v="locality" />
		<tag k="ssr:stedsnr" v="120055" />
	</node>
	<node lat="59.65676110851276" lon="6.427625008625981" id="-1772">
		<tag k="name" v="Fenriksdalen" />
		<tag k="natural" v="valley" />
		<tag k="place" v="locality" />
		<tag k="ssr:stedsnr" v="120062" />
	</node>
	<node lat="59.64382778020347" lon="6.446697225194804" id="-1773">
		<tag k="name" v="Skorpaholet" />
		<tag k="natural" v="valley" />
		<tag k="place" v="locality" />
		<tag k="ssr:stedsnr" v="120068" />
	</node>
	<node lat="59.71763055482782" lon="6.469316666924163" id="-1774">
		<tag k="name" v="Bakkeskaret" />
		<tag k="natural" v="valley" />
		<tag k="place" v="locality" />
		<tag k="ssr:stedsnr" v="120148" />
	</node>
	<node lat="59.708413891342204" lon="6.427838881094586" id="-1776">
		<tag k="name" v="Veahaugane" />
		<tag k="natural" v="hill" />
		<tag k="place" v="locality" />
		<tag k="ssr:stedsnr" v="120094" />
	</node>
	<node lat="59.7474805591004" lon="6.595458330724537" id="-1778">
		<tag k="name" v="Botnajuvet" />
		<tag k="natural" v="gorge" />
		<tag k="ssr:stedsnr" v="120569" />
	</node>
	<node lat="59.60113611186124" lon="6.272052784004165" id="-1780">
		<tag k="name" v="Høgahaug" />
		<tag k="natural" v="hill" />
		<tag k="place" v="locality" />
		<tag k="ssr:stedsnr" v="120721" />
	</node>
	<node lat="59.6297333305549" lon="6.37413333007554" id="-1781">
		<tag k="name" v="Snebakkane" />
		<tag k="natural" v="slope" />
		<tag k="place" v="locality" />
		<tag k="ssr:stedsnr" v="120696" />
	</node>
	<node lat="59.62429999920317" lon="6.376488894903715" id="-1782">
		<tag k="name" v="Gamlestokkdalen" />
		<tag k="natural" v="valley" />
		<tag k="place" v="locality" />
		<tag k="ssr:stedsnr" v="120697" />
	</node>
	<node lat="59.60625833529543" lon="6.467188883028411" id="-1786">
		<tag k="loc_name" v="Bjørnaskora" />
		<tag k="name" v="Bjødnaskåra" />
		<tag k="place" v="locality" />
		<tag k="ssr:stedsnr" v="120760" />
	</node>
	<node lat="59.5835305572868" lon="6.375461117621237" id="-1794">
		<tag k="fixme" v="consider natural=peak for the most distinct mountains in the district" />
		<tag k="name" v="Geitanuten" />
		<tag k="natural" v="hill" />
		<tag k="place" v="locality" />
		<tag k="ssr:stedsnr" v="124790" />
	</node>
	<node lat="59.69975000402727" lon="6.304749992565761" id="-1799">
		<tag k="fixme" v="consider natural=peak for the most distinct mountains in the district" />
		<tag k="name" v="Nonskiljenuten" />
		<tag k="natural" v="hill" />
		<tag k="place" v="locality" />
		<tag k="ssr:stedsnr" v="124939" />
	</node>
	<node lat="59.802574999905296" lon="6.439769439902996" id="-1804">
		<tag k="alt_name" v="Trongaskar" />
		<tag k="name" v="Trongaskard" />
		<tag k="natural" v="valley" />
		<tag k="place" v="locality" />
		<tag k="ssr:stedsnr" v="125081" />
	</node>
	<node lat="59.81712221975372" lon="6.579861112131074" id="-1806">
		<tag k="alt_name" v="Slettedalsbotn" />
		<tag k="name" v="Slettedalsbotnen" />
		<tag k="natural" v="valley" />
		<tag k="place" v="locality" />
		<tag k="ssr:stedsnr" v="125089" />
	</node>
	<node lat="59.7679694436542" lon="6.330555563204819" id="-1807">
		<tag k="alt_name" v="Tverrbakknuten" />
		<tag k="fixme" v="consider natural=peak for the most distinct mountains in the district" />
		<tag k="name" v="Tverrbakkenuten" />
		<tag k="natural" v="hill" />
		<tag k="place" v="locality" />
		<tag k="ssr:stedsnr" v="125122" />
	</node>
	<node lat="59.67807499854743" lon="6.624627784663218" id="-1809">
		<tag k="name" v="Stovedalen" />
		<tag k="natural" v="valley" />
		<tag k="place" v="locality" />
		<tag k="ssr:stedsnr" v="176370" />
	</node>
	<node lat="59.564688891892594" lon="6.330211107241342" id="-1811">
		<tag k="name" v="Nip" />
		<tag k="natural" v="hill" />
		<tag k="place" v="locality" />
		<tag k="ssr:stedsnr" v="176547" />
	</node>
	<node lat="59.65292222416317" lon="6.608888885753173" id="-1812">
		<tag k="name" v="Ervabotnen" />
		<tag k="natural" v="valley" />
		<tag k="place" v="locality" />
		<tag k="ssr:stedsnr" v="181033" />
	</node>
	<node lat="59.69913611549017" lon="6.309305552361472" id="-1814">
		<tag k="name" v="Nonskiljebakkane" />
		<tag k="natural" v="slope" />
		<tag k="place" v="locality" />
		<tag k="ssr:stedsnr" v="181130" />
	</node>
	<node lat="59.68161389190339" lon="6.457805558761479" id="-1815">
		<tag k="name" v="Fisketjønnsbotn" />
		<tag k="natural" v="valley" />
		<tag k="place" v="locality" />
		<tag k="ssr:stedsnr" v="181139" />
	</node>
	<node lat="59.69091388653738" lon="6.470427780368775" id="-1816">
		<tag k="name" v="Svenskabødalen" />
		<tag k="natural" v="valley" />
		<tag k="place" v="locality" />
		<tag k="ssr:stedsnr" v="181143" />
	</node>
	<node lat="59.70833333197503" lon="6.313900008586155" id="-1819">
		<tag k="name" v="Skarvheia" />
		<tag k="natural" v="valley" />
		<tag k="place" v="locality" />
		<tag k="ssr:stedsnr" v="181098" />
	</node>
	<node lat="59.72345555876954" lon="6.445430553104149" id="-1820">
		<tag k="fixme" v="consider natural=peak for the most distinct mountains in the district" />
		<tag k="name" v="Grånuten" />
		<tag k="natural" v="hill" />
		<tag k="place" v="locality" />
		<tag k="ssr:stedsnr" v="181100" />
	</node>
	<node lat="59.72901111417098" lon="6.45678611947699" id="-1822">
		<tag k="name" v="Båten" />
		<tag k="place" v="locality" />
		<tag k="ssr:stedsnr" v="181603" />
	</node>
	<node lat="59.72529444468737" lon="6.541711103574597" id="-1825">
		<tag k="name" v="Flætedn" />
		<tag k="natural" v="slope" />
		<tag k="place" v="locality" />
		<tag k="ssr:stedsnr" v="181582" />
	</node>
	<node lat="59.60160000170672" lon="6.340116668164471" id="-1827">
		<tag k="fixme" v="consider natural=peak for the most distinct mountains in the district" />
		<tag k="name" v="Ospetindane" />
		<tag k="natural" v="hill" />
		<tag k="place" v="locality" />
		<tag k="ssr:stedsnr" v="181685" />
	</node>
	<node lat="59.619861108911536" lon="6.367916662251051" id="-1829">
		<tag k="loc_name" v="Brendehaugane" />
		<tag k="name" v="Brende Haugadn" />
		<tag k="natural" v="hill" />
		<tag k="place" v="locality" />
		<tag k="ssr:stedsnr" v="181739" />
	</node>
	<node lat="59.62468333537074" lon="6.4234083294784305" id="-1831">
		<tag k="fixme" v="consider natural=peak for the most distinct mountains in the district" />
		<tag k="loc_name" v="Høgdene" />
		<tag k="name" v="Høgdedn" />
		<tag k="natural" v="hill" />
		<tag k="place" v="locality" />
		<tag k="ssr:stedsnr" v="181639" />
	</node>
	<node lat="59.668116668921996" lon="6.233113895130455" id="-1833">
		<tag k="fixme" v="consider natural=peak for the most distinct mountains in the district" />
		<tag k="loc_name" v="Jakobsskor" />
		<tag k="name" v="Jakobskår" />
		<tag k="natural" v="hill" />
		<tag k="place" v="locality" />
		<tag k="ssr:stedsnr" v="181789" />
	</node>
	<node lat="59.663336113196436" lon="6.257391661206408" id="-1834">
		<tag k="fixme" v="consider natural=peak for the most distinct mountains in the district" />
		<tag k="loc_name" v="Brekkene" />
		<tag k="name" v="Brekkedn" />
		<tag k="natural" v="hill" />
		<tag k="place" v="locality" />
		<tag k="ssr:stedsnr" v="181794" />
	</node>
	<node lat="59.64631110864129" lon="6.222502775063539" id="-1835">
		<tag k="fixme" v="consider natural=peak for the most distinct mountains in the district" />
		<tag k="loc_name" v="Gryvlenuten" />
		<tag k="name" v="Grøvlenuten" />
		<tag k="natural" v="hill" />
		<tag k="place" v="locality" />
		<tag k="ssr:stedsnr" v="181985" />
	</node>
	<node lat="59.58946110812881" lon="6.374169438839559" id="-1837">
		<tag k="fixme" v="consider natural=peak for the most distinct mountains in the district" />
		<tag k="name" v="Finnabunuten" />
		<tag k="natural" v="hill" />
		<tag k="place" v="locality" />
		<tag k="ssr:stedsnr" v="186087" />
	</node>
	<node lat="59.65233332994615" lon="6.459858327183947" id="-1840">
		<tag k="name" v="Gjuva" />
		<tag k="natural" v="slope" />
		<tag k="place" v="locality" />
		<tag k="ssr:stedsnr" v="185738" />
	</node>
	<node lat="59.64451111351961" lon="6.233083324952081" id="-1841">
		<tag k="fixme" v="multiple name tags, choose one and add the other to alt_name; consider natural=peak for the most distinct mountains in the district" />
		<tag k="loc_name" v="Tjuvanuten" />
		<tag k="name" v="Svandalsgryvlenuten;Tjuanuten" />
		<tag k="natural" v="hill" />
		<tag k="place" v="locality" />
		<tag k="ssr:stedsnr" v="185763" />
	</node>
	<node lat="59.62801944092257" lon="6.529919444220439" id="-1843">
		<tag k="alt_name" v="Dyrskar" />
		<tag k="name" v="Dyrskard" />
		<tag k="natural" v="valley" />
		<tag k="place" v="locality" />
		<tag k="ssr:stedsnr" v="185777" />
	</node>
	<node lat="59.61600277908758" lon="6.268449993173469" id="-1844">
		<tag k="fixme" v="consider natural=peak for the most distinct mountains in the district" />
		<tag k="name" v="Storenut" />
		<tag k="natural" v="hill" />
		<tag k="place" v="locality" />
		<tag k="ssr:stedsnr" v="185789" />
	</node>
	<node lat="59.63235555720093" lon="6.503516671481529" id="-1845">
		<tag k="name" v="Lægdene" />
		<tag k="natural" v="slope" />
		<tag k="place" v="locality" />
		<tag k="ssr:stedsnr" v="185794" />
	</node>
	<node lat="59.60607777430328" lon="6.473050001135639" id="-1848">
		<tag k="alt_name" v="Bjødnaskårnuten" />
		<tag k="fixme" v="consider natural=peak for the most distinct mountains in the district" />
		<tag k="name" v="Bjørnaskornuten" />
		<tag k="natural" v="hill" />
		<tag k="place" v="locality" />
		<tag k="ssr:stedsnr" v="185824" />
	</node>
	<node lat="59.731986111314164" lon="6.542124997112185" id="-1850">
		<tag k="alt_name" v="Reinskarnuten" />
		<tag k="fixme" v="consider natural=peak for the most distinct mountains in the district" />
		<tag k="name" v="Reinaskardnuten" />
		<tag k="natural" v="hill" />
		<tag k="place" v="locality" />
		<tag k="ssr:stedsnr" v="185902" />
	</node>
	<node lat="59.736641670544344" lon="6.432711102986664" id="-1852">
		<tag k="name" v="Reinakvam" />
		<tag k="natural" v="valley" />
		<tag k="place" v="locality" />
		<tag k="ssr:stedsnr" v="185912" />
	</node>
	<node lat="59.67842500419071" lon="6.400449998178418" id="-1854">
		<tag k="fixme" v="consider natural=peak for the most distinct mountains in the district" />
		<tag k="name" v="Smelvenuten" />
		<tag k="natural" v="hill" />
		<tag k="place" v="locality" />
		<tag k="ssr:stedsnr" v="185988" />
	</node>
	<node lat="59.66166388956755" lon="6.639638890581643" id="-1859">
		<tag k="fixme" v="consider natural=peak for the most distinct mountains in the district" />
		<tag k="name" v="Dyrskarheia" />
		<tag k="natural" v="hill" />
		<tag k="place" v="locality" />
		<tag k="ssr:stedsnr" v="295048" />
	</node>
	<node lat="59.7228833346649" lon="6.599341663322337" id="-1862">
		<tag k="name" v="Tverrdalen" />
		<tag k="natural" v="valley" />
		<tag k="place" v="locality" />
		<tag k="ssr:stedsnr" v="302443" />
	</node>
	<node lat="59.67818888850704" lon="6.498780562981323" id="-1864">
		<tag k="name" v="Idlekvelven" />
		<tag k="natural" v="valley" />
		<tag k="place" v="locality" />
		<tag k="ssr:stedsnr" v="302020" />
	</node>
	<node lat="59.69676111487375" lon="6.292466659855583" id="-1865">
		<tag k="name" v="Bekkjaskårnuten" />
		<tag k="natural" v="hill" />
		<tag k="place" v="locality" />
		<tag k="ssr:stedsnr" v="302082" />
	</node>
	<node lat="59.69253333178416" lon="6.3272888856738945" id="-1866">
		<tag k="name" v="Tausanuthola" />
		<tag k="natural" v="valley" />
		<tag k="place" v="locality" />
		<tag k="ssr:stedsnr" v="302093" />
	</node>
	<node lat="59.71915555958738" lon="6.388949992429043" id="-1867">
		<tag k="name" v="Storaskar" />
		<tag k="natural" v="valley" />
		<tag k="place" v="locality" />
		<tag k="ssr:stedsnr" v="302100" />
	</node>
	<node lat="59.71242777696299" lon="6.305108334564572" id="-1868">
		<tag k="name" v="Kodlehaug" />
		<tag k="natural" v="hill" />
		<tag k="place" v="locality" />
		<tag k="ssr:stedsnr" v="302117" />
	</node>
	<node lat="59.648605557846004" lon="6.482916666561137" id="-1869">
		<tag k="name" v="Liateigane" />
		<tag k="natural" v="slope" />
		<tag k="place" v="locality" />
		<tag k="ssr:stedsnr" v="302063" />
	</node>
	<node lat="59.657211113390545" lon="6.4581972206787" id="-1870">
		<tag k="name" v="Juvastøldalen" />
		<tag k="natural" v="valley" />
		<tag k="place" v="locality" />
		<tag k="ssr:stedsnr" v="302066" />
	</node>
	<node lat="59.6881916709084" lon="6.362305552222138" id="-1871">
		<tag k="name" v="Jimlelia" />
		<tag k="natural" v="slope" />
		<tag k="place" v="locality" />
		<tag k="ssr:stedsnr" v="302132" />
	</node>
	<node lat="59.68235555725452" lon="6.340199992927868" id="-1872">
		<tag k="name" v="Liå" />
		<tag k="natural" v="slope" />
		<tag k="place" v="locality" />
		<tag k="ssr:stedsnr" v="302134" />
	</node>
	<node lat="59.69590000224786" lon="6.38331388308738" id="-1873">
		<tag k="name" v="Himlaleitet" />
		<tag k="natural" v="slope" />
		<tag k="place" v="locality" />
		<tag k="ssr:stedsnr" v="302137" />
	</node>
	<node lat="59.69250277642576" lon="6.378744442752554" id="-1874">
		<tag k="fixme" v="consider natural=peak for the most distinct mountains in the district" />
		<tag k="name" v="Ørnafjellet" />
		<tag k="natural" v="hill" />
		<tag k="place" v="locality" />
		<tag k="ssr:stedsnr" v="302148" />
	</node>
	<node lat="59.63238611465094" lon="6.200641665143548" id="-1875">
		<tag k="name" v="Øykjadalen" />
		<tag k="natural" v="valley" />
		<tag k="place" v="locality" />
		<tag k="ssr:stedsnr" v="302530" />
	</node>
	<node lat="59.634988888225585" lon="6.210947229387691" id="-1876">
		<tag k="fixme" v="consider natural=peak for the most distinct mountains in the district" />
		<tag k="name" v="Sauanuten" />
		<tag k="natural" v="hill" />
		<tag k="place" v="locality" />
		<tag k="ssr:stedsnr" v="302531" />
	</node>
	<node lat="59.8037583305776" lon="6.4781611169304245" id="-1880">
		<tag k="name" v="Grønedalen" />
		<tag k="natural" v="valley" />
		<tag k="place" v="locality" />
		<tag k="ssr:stedsnr" v="302657" />
	</node>
	<node lat="59.646622225924105" lon="6.3843666682418805" id="-1882">
		<tag k="name" v="Halvardsdal" />
		<tag k="natural" v="valley" />
		<tag k="place" v="locality" />
		<tag k="ssr:stedsnr" v="302865" />
	</node>
	<node lat="59.67249999586737" lon="6.31549167171887" id="-1883">
		<tag k="fixme" v="consider natural=peak for the most distinct mountains in the district" />
		<tag k="name" v="Høgahei" />
		<tag k="natural" v="hill" />
		<tag k="place" v="locality" />
		<tag k="ssr:stedsnr" v="302941" />
	</node>
	<node lat="59.67527500103593" lon="6.32914444203817" id="-1884">
		<tag k="name" v="Dyraskar" />
		<tag k="natural" v="valley" />
		<tag k="place" v="locality" />
		<tag k="ssr:stedsnr" v="302955" />
	</node>
	<node lat="59.666733334635765" lon="6.296808336141554" id="-1887">
		<tag k="name" v="Øykjaheia" />
		<tag k="natural" v="slope" />
		<tag k="place" v="locality" />
		<tag k="ssr:stedsnr" v="302992" />
	</node>
	<node lat="59.68613333284733" lon="6.504122220288557" id="-1888">
		<tag k="name" v="Århaug" />
		<tag k="natural" v="hill" />
		<tag k="place" v="locality" />
		<tag k="ssr:stedsnr" v="303135" />
	</node>
	<node lat="59.7029194479544" lon="6.5123305538364" id="-1890">
		<tag k="fixme" v="consider natural=peak for the most distinct mountains in the district" />
		<tag k="name" v="Bjødnanuten" />
		<tag k="natural" v="hill" />
		<tag k="place" v="locality" />
		<tag k="ssr:stedsnr" v="303189" />
	</node>
	<node lat="59.753694442657235" lon="6.473658338290259" id="-1891">
		<tag k="name" v="Stordalen" />
		<tag k="natural" v="valley" />
		<tag k="place" v="locality" />
		<tag k="ssr:stedsnr" v="303504" />
	</node>
	<node lat="59.631666663891316" lon="6.46493611359016" id="-1892">
		<tag k="fixme" v="consider natural=peak for the most distinct mountains in the district" />
		<tag k="name" v="Svartavassnuten" />
		<tag k="natural" v="hill" />
		<tag k="place" v="locality" />
		<tag k="ssr:stedsnr" v="303739" />
	</node>
	<node lat="59.73610555207014" lon="6.40556111034403" id="-1894">
		<tag k="fixme" v="consider natural=peak for the most distinct mountains in the district" />
		<tag k="name" v="Veranibbene" />
		<tag k="natural" v="hill" />
		<tag k="place" v="locality" />
		<tag k="ssr:stedsnr" v="306930" />
	</node>
	<node lat="59.66962499563321" lon="6.302324997964688" id="-1896">
		<tag k="fixme" v="consider natural=peak for the most distinct mountains in the district" />
		<tag k="name" v="Nystølheia" />
		<tag k="natural" v="hill" />
		<tag k="place" v="locality" />
		<tag k="ssr:stedsnr" v="306986" />
	</node>
	<node lat="59.700061106984954" lon="6.495113891642449" id="-1898">
		<tag k="alt_name" v="Kloppåsen" />
		<tag k="fixme" v="consider natural=peak for the most distinct mountains in the district" />
		<tag k="name" v="Kloppås" />
		<tag k="natural" v="hill" />
		<tag k="place" v="locality" />
		<tag k="ssr:stedsnr" v="306997" />
	</node>
	<node lat="59.684413885588235" lon="6.378124993068784" id="-1899">
		<tag k="fixme" v="consider natural=peak for the most distinct mountains in the district" />
		<tag k="name" v="Brekkeheia" />
		<tag k="natural" v="hill" />
		<tag k="place" v="locality" />
		<tag k="ssr:stedsnr" v="307000" />
	</node>
	<node lat="59.81979166498875" lon="6.530680547080184" id="-1900">
		<tag k="alt_name" v="Vieradn" />
		<tag k="name" v="Vierane" />
		<tag k="natural" v="slope" />
		<tag k="place" v="locality" />
		<tag k="ssr:stedsnr" v="307091" />
	</node>
	<node lat="59.630261111829135" lon="6.453861110274178" id="-1901">
		<tag k="alt_name" v="Botnadn" />
		<tag k="name" v="Botnane" />
		<tag k="natural" v="valley" />
		<tag k="place" v="locality" />
		<tag k="ssr:stedsnr" v="307810" />
	</node>
	<node lat="59.63433610959297" lon="6.461038885173209" id="-1902">
		<tag k="fixme" v="consider natural=peak for the most distinct mountains in the district" />
		<tag k="name" v="Svartavassheia" />
		<tag k="natural" v="hill" />
		<tag k="place" v="locality" />
		<tag k="ssr:stedsnr" v="307811" />
	</node>
	<node lat="59.76851666591662" lon="6.4218583302678365" id="-1906">
		<tag k="name" v="Helgedalsbotnen" />
		<tag k="natural" v="valley" />
		<tag k="place" v="locality" />
		<tag k="ssr:stedsnr" v="307130" />
	</node>
	<node lat="59.64248888613622" lon="6.45905833425181" id="-1908">
		<tag k="fixme" v="consider natural=peak for the most distinct mountains in the district" />
		<tag k="name" v="Vardaheia" />
		<tag k="natural" v="hill" />
		<tag k="place" v="locality" />
		<tag k="ssr:stedsnr" v="307763" />
	</node>
	<node lat="59.648883333658546" lon="6.395016667500876" id="-1914">
		<tag k="fixme" v="consider natural=peak for the most distinct mountains in the district" />
		<tag k="name" v="Runde Haugen" />
		<tag k="natural" v="hill" />
		<tag k="place" v="locality" />
		<tag k="ssr:stedsnr" v="363001" />
	</node>
	<node lat="59.66838888744841" lon="6.4984444497176534" id="-1915">
		<tag k="name" v="Vekabakkane" />
		<tag k="natural" v="slope" />
		<tag k="place" v="locality" />
		<tag k="ssr:stedsnr" v="363013" />
	</node>
	<node lat="59.72291389023801" lon="6.375633334070446" id="-1918">
		<tag k="name" v="Nordskar" />
		<tag k="natural" v="valley" />
		<tag k="place" v="locality" />
		<tag k="ssr:stedsnr" v="363066" />
	</node>
	<node lat="59.715177781733196" lon="6.379122218328355" id="-1919">
		<tag k="name" v="Bjødnaklakkjen" />
		<tag k="place" v="locality" />
		<tag k="ssr:stedsnr" v="363067" />
	</node>
	<node lat="59.710599996405065" lon="6.524297224496143" id="-1921">
		<tag k="name" v="Stølsdalen" />
		<tag k="natural" v="valley" />
		<tag k="place" v="locality" />
		<tag k="ssr:stedsnr" v="363174" />
	</node>
	<node lat="59.67537222518983" lon="6.495705557602756" id="-1922">
		<tag k="name" v="Likhidler" />
		<tag k="place" v="locality" />
		<tag k="ssr:stedsnr" v="363020" />
	</node>
	<node lat="59.68611388973878" lon="6.235608335822039" id="-1923">
		<tag k="fixme" v="consider natural=peak for the most distinct mountains in the district" />
		<tag k="name" v="Sisselaskårene" />
		<tag k="natural" v="hill" />
		<tag k="place" v="locality" />
		<tag k="ssr:stedsnr" v="363040" />
	</node>
	<node lat="59.704897222116706" lon="6.499719448782991" id="-1924">
		<tag k="name" v="Løhaugen" />
		<tag k="natural" v="hill" />
		<tag k="place" v="locality" />
		<tag k="ssr:stedsnr" v="363131" />
	</node>
	<node lat="59.57432777466877" lon="6.28088333913502" id="-1927">
		<tag k="name" v="Bordalsnuten" />
		<tag k="natural" v="hill" />
		<tag k="place" v="locality" />
		<tag k="ssr:stedsnr" v="363268" />
	</node>
	<node lat="59.6914333319493" lon="6.5798944455544826" id="-1929">
		<tag k="fixme" v="consider natural=peak for the most distinct mountains in the district" />
		<tag k="name" v="Dalvassnuten" />
		<tag k="natural" v="hill" />
		<tag k="place" v="locality" />
		<tag k="ssr:stedsnr" v="363367" />
	</node>
	<node lat="59.69150555363512" lon="6.674216659896428" id="-1930">
		<tag k="name" v="Malketiskaret" />
		<tag k="natural" v="valley" />
		<tag k="place" v="locality" />
		<tag k="ssr:stedsnr" v="363392" />
	</node>
	<node lat="59.7324444485275" lon="6.2879972304120795" id="-1933">
		<tag k="name" v="Fossdals-Nordskar" />
		<tag k="natural" v="valley" />
		<tag k="place" v="locality" />
		<tag k="ssr:stedsnr" v="363479" />
	</node>
	<node lat="59.73618333356255" lon="6.350158335534795" id="-1934">
		<tag k="name" v="Store Trongjå" />
		<tag k="natural" v="slope" />
		<tag k="place" v="locality" />
		<tag k="ssr:stedsnr" v="363481" />
	</node>
	<node lat="59.727533330626954" lon="6.382405558017803" id="-1935">
		<tag k="name" v="Nordskar" />
		<tag k="natural" v="valley" />
		<tag k="place" v="locality" />
		<tag k="ssr:stedsnr" v="363484" />
	</node>
	<node lat="59.628925004209535" lon="6.398355553131309" id="-1936">
		<tag k="name" v="Krugdal" />
		<tag k="natural" v="valley" />
		<tag k="place" v="locality" />
		<tag k="ssr:stedsnr" v="363583" />
	</node>
	<node lat="59.606844446892126" lon="6.332416667258627" id="-1937">
		<tag k="name" v="Malldalsløypa" />
		<tag k="natural" v="valley" />
		<tag k="place" v="locality" />
		<tag k="ssr:stedsnr" v="363645" />
	</node>
	<node lat="59.62217777830423" lon="6.386269452009628" id="-1939">
		<tag k="fixme" v="consider natural=peak for the most distinct mountains in the district" />
		<tag k="name" v="Danseskarvet" />
		<tag k="natural" v="hill" />
		<tag k="place" v="locality" />
		<tag k="ssr:stedsnr" v="363676" />
	</node>
	<node lat="59.725861112602395" lon="6.59661944663145" id="-1942">
		<tag k="name" v="Tverrdalen" />
		<tag k="natural" v="valley" />
		<tag k="place" v="locality" />
		<tag k="ssr:stedsnr" v="363782" />
	</node>
	<node lat="59.73449999830977" lon="6.579772220308775" id="-1943">
		<tag k="name" v="Øyvassbakkane" />
		<tag k="natural" v="slope" />
		<tag k="place" v="locality" />
		<tag k="ssr:stedsnr" v="363787" />
	</node>
	<node lat="59.67775000316957" lon="6.31663611300798" id="-1946">
		<tag k="fixme" v="consider natural=peak for the most distinct mountains in the district" />
		<tag k="loc_name" v="Vedaskarnuten" />
		<tag k="name" v="Veaskarnuten" />
		<tag k="natural" v="hill" />
		<tag k="place" v="locality" />
		<tag k="ssr:stedsnr" v="363922" />
	</node>
	<node lat="59.67955278083859" lon="6.362025007920392" id="-1947">
		<tag k="name" v="Stien" />
		<tag k="natural" v="slope" />
		<tag k="place" v="locality" />
		<tag k="ssr:stedsnr" v="363940" />
	</node>
	<node lat="59.67643333316708" lon="6.362430550087504" id="-1948">
		<tag k="loc_name" v="Bjørnaklakken" />
		<tag k="name" v="Bjødnaklakkjen" />
		<tag k="place" v="locality" />
		<tag k="ssr:stedsnr" v="363941" />
	</node>
	<node lat="59.66931110832881" lon="6.348266658841838" id="-1949">
		<tag k="name" v="Nonhaug" />
		<tag k="natural" v="hill" />
		<tag k="place" v="locality" />
		<tag k="ssr:stedsnr" v="363944" />
	</node>
	<node lat="59.66408333119918" lon="6.351361111895783" id="-1950">
		<tag k="fixme" v="consider natural=peak for the most distinct mountains in the district" />
		<tag k="name" v="Ednåsen" />
		<tag k="natural" v="hill" />
		<tag k="place" v="locality" />
		<tag k="ssr:stedsnr" v="363945" />
	</node>
	<node lat="59.65435000282258" lon="6.268138887343624" id="-1951">
		<tag k="name" v="Litlodden" />
		<tag k="place" v="locality" />
		<tag k="ssr:stedsnr" v="363967" />
	</node>
	<node lat="59.65343610754549" lon="6.21317778347638" id="-1953">
		<tag k="name" v="Tverrberg" />
		<tag k="natural" v="hill" />
		<tag k="place" v="locality" />
		<tag k="ssr:stedsnr" v="363976" />
	</node>
	<node lat="59.6696499986513" lon="6.299733337585733" id="-1954">
		<tag k="fixme" v="consider natural=peak for the most distinct mountains in the district" />
		<tag k="name" v="Klypaheia" />
		<tag k="natural" v="hill" />
		<tag k="place" v="locality" />
		<tag k="ssr:stedsnr" v="363991" />
	</node>
	<node lat="59.717083336512296" lon="6.631852785067826" id="-1957">
		<tag k="name" v="Vassdalen" />
		<tag k="natural" v="valley" />
		<tag k="place" v="locality" />
		<tag k="ssr:stedsnr" v="367170" />
	</node>
	<node lat="59.681080554102216" lon="6.482602774203966" id="-1959">
		<tag k="fixme" v="consider natural=peak for the most distinct mountains in the district" />
		<tag k="name" v="Vedaskardheia" />
		<tag k="natural" v="hill" />
		<tag k="place" v="locality" />
		<tag k="ssr:stedsnr" v="367975" />
	</node>
	<node lat="59.78164722337106" lon="6.433605553993526" id="-1967">
		<tag k="name" v="Grotbotnane" />
		<tag k="natural" v="valley" />
		<tag k="place" v="locality" />
		<tag k="ssr:stedsnr" v="368087" />
	</node>
	<node lat="59.79726944774975" lon="6.489363882699719" id="-1968">
		<tag k="alt_name" v="Klovsteinnuten" />
		<tag k="fixme" v="consider natural=peak for the most distinct mountains in the district" />
		<tag k="name" v="Klovsteinsnuten" />
		<tag k="natural" v="hill" />
		<tag k="place" v="locality" />
		<tag k="ssr:stedsnr" v="368092" />
	</node>
	<node lat="59.64879166354081" lon="6.45793889662543" id="-1970">
		<tag k="fixme" v="consider natural=peak for the most distinct mountains in the district" />
		<tag k="name" v="Storaheia" />
		<tag k="natural" v="hill" />
		<tag k="place" v="locality" />
		<tag k="ssr:stedsnr" v="367740" />
	</node>
	<node lat="59.65504999821452" lon="6.4232750019216445" id="-1971">
		<tag k="alt_name" v="Kvamsnuten, indre" />
		<tag k="fixme" v="consider natural=peak for the most distinct mountains in the district" />
		<tag k="name" v="Indre Kvamsnuten" />
		<tag k="natural" v="hill" />
		<tag k="place" v="locality" />
		<tag k="ssr:stedsnr" v="367745" />
	</node>
	<node lat="59.655611114319264" lon="6.334308339910305" id="-1973">
		<tag k="fixme" v="consider natural=peak for the most distinct mountains in the district" />
		<tag k="name" v="Fløgstadåsen" />
		<tag k="natural" v="hill" />
		<tag k="place" v="locality" />
		<tag k="ssr:stedsnr" v="367750" />
	</node>
	<node lat="59.68733888709408" lon="6.2955861105731366" id="-1976">
		<tag k="alt_name" v="Noraheia" />
		<tag k="fixme" v="consider natural=peak for the most distinct mountains in the district" />
		<tag k="name" v="Nordraheia" />
		<tag k="natural" v="hill" />
		<tag k="place" v="locality" />
		<tag k="ssr:stedsnr" v="367929" />
	</node>
	<node lat="59.75336111174518" lon="6.572422220676522" id="-1979">
		<tag k="alt_name" v="Bjødnanuten" />
		<tag k="fixme" v="consider natural=peak for the most distinct mountains in the district" />
		<tag k="name" v="Bjørnanuten" />
		<tag k="natural" v="hill" />
		<tag k="place" v="locality" />
		<tag k="ssr:stedsnr" v="368115" />
	</node>
	<node lat="59.7613583293581" lon="6.370299997635832" id="-1982">
		<tag k="alt_name" v="Øykjabotn" />
		<tag k="name" v="Øykjabotnen" />
		<tag k="natural" v="valley" />
		<tag k="place" v="locality" />
		<tag k="ssr:stedsnr" v="368139" />
	</node>
	<node lat="59.72137778106512" lon="6.615819446186849" id="-1985">
		<tag k="name" v="Ryfylkeheiane" />
		<tag k="natural" v="mountain_range" />
		<tag k="ssr:stedsnr" v="386635" />
	</node>
	<node lat="59.64318055545972" lon="6.454591664877377" id="-1993">
		<tag k="name" v="Grødalane" />
		<tag k="natural" v="valley" />
		<tag k="place" v="locality" />
		<tag k="ssr:stedsnr" v="424058" />
	</node>
	<node lat="59.716111114761695" lon="6.334994437269075" id="-1994">
		<tag k="fixme" v="consider natural=peak for the most distinct mountains in the district" />
		<tag k="name" v="Kåsen" />
		<tag k="natural" v="hill" />
		<tag k="place" v="locality" />
		<tag k="ssr:stedsnr" v="424091" />
	</node>
	<node lat="59.69744444352172" lon="6.395955555569759" id="-1996">
		<tag k="name" v="Klypå" />
		<tag k="place" v="locality" />
		<tag k="ssr:stedsnr" v="424160" />
	</node>
	<node lat="59.687883336854696" lon="6.414966670229749" id="-1997">
		<tag k="name" v="Førstaleitet" />
		<tag k="place" v="locality" />
		<tag k="ssr:stedsnr" v="424168" />
	</node>
	<node lat="59.686066665084816" lon="6.41530000497221" id="-1998">
		<tag k="name" v="Jegnestiberga" />
		<tag k="natural" v="hill" />
		<tag k="place" v="locality" />
		<tag k="ssr:stedsnr" v="424169" />
	</node>
	<node lat="59.69022222470534" lon="6.309255558128209" id="-2000">
		<tag k="name" v="Slettavoll" />
		<tag k="natural" v="hill" />
		<tag k="place" v="locality" />
		<tag k="ssr:stedsnr" v="424075" />
	</node>
	<node lat="59.722024997755234" lon="6.3810583268217975" id="-2001">
		<tag k="fixme" v="consider natural=peak for the most distinct mountains in the district" />
		<tag k="name" v="Stølsjonuten" />
		<tag k="natural" v="hill" />
		<tag k="place" v="locality" />
		<tag k="ssr:stedsnr" v="424085" />
	</node>
	<node lat="59.680102780176156" lon="6.301130560029381" id="-2002">
		<tag k="fixme" v="consider natural=peak for the most distinct mountains in the district" />
		<tag k="name" v="Svartdalsnuten" />
		<tag k="natural" v="hill" />
		<tag k="place" v="locality" />
		<tag k="ssr:stedsnr" v="424932" />
	</node>
	<node lat="59.7261805565552" lon="6.533941664100262" id="-2003">
		<tag k="name" v="Reinaskar" />
		<tag k="natural" v="valley" />
		<tag k="place" v="locality" />
		<tag k="ssr:stedsnr" v="424556" />
	</node>
	<node lat="59.62618055377078" lon="6.200308325611255" id="-2004">
		<tag k="name" v="Svandalsvassbrotene" />
		<tag k="natural" v="cliff" />
		<tag k="ssr:stedsnr" v="424488" />
	</node>
	<node lat="59.60449167024665" lon="6.239305548150206" id="-2006">
		<tag k="fixme" v="consider natural=peak for the most distinct mountains in the district" />
		<tag k="name" v="Litle Tjuvanuten" />
		<tag k="natural" v="hill" />
		<tag k="place" v="locality" />
		<tag k="ssr:stedsnr" v="424724" />
	</node>
	<node lat="59.614294444160656" lon="6.2533611042146235" id="-2007">
		<tag k="fixme" v="consider natural=peak for the most distinct mountains in the district" />
		<tag k="name" v="Nonsnuten" />
		<tag k="natural" v="hill" />
		<tag k="place" v="locality" />
		<tag k="ssr:stedsnr" v="424726" />
	</node>
	<node lat="59.64786388957009" lon="6.38714444607023" id="-2010">
		<tag k="name" v="Engjadal" />
		<tag k="natural" v="valley" />
		<tag k="place" v="locality" />
		<tag k="ssr:stedsnr" v="424865" />
	</node>
	<node lat="59.664316669651356" lon="6.408933335970154" id="-2013">
		<tag k="name" v="Saghølstræet" />
		<tag k="place" v="locality" />
		<tag k="ssr:stedsnr" v="424889" />
	</node>
	<node lat="59.67143611040748" lon="6.333800005184282" id="-2014">
		<tag k="name" v="Drivane" />
		<tag k="natural" v="slope" />
		<tag k="place" v="locality" />
		<tag k="ssr:stedsnr" v="424957" />
	</node>
	<node lat="59.65383055960666" lon="6.236455552240741" id="-2015">
		<tag k="fixme" v="consider natural=peak for the most distinct mountains in the district" />
		<tag k="loc_name" v="Vekagryvlenuten" />
		<tag k="name" v="Veka-Grøvlenuten" />
		<tag k="natural" v="hill" />
		<tag k="place" v="locality" />
		<tag k="ssr:stedsnr" v="424981" />
	</node>
	<node lat="59.636477779090576" lon="6.234949993588614" id="-2018">
		<tag k="fixme" v="consider natural=peak for the most distinct mountains in the district" />
		<tag k="name" v="Svandalsheia" />
		<tag k="natural" v="hill" />
		<tag k="place" v="locality" />
		<tag k="ssr:stedsnr" v="428737" />
	</node>
	<node lat="59.64420277615911" lon="6.417405560809861" id="-2019">
		<tag k="fixme" v="consider natural=peak for the most distinct mountains in the district" />
		<tag k="name" v="Birkelandsnuten" />
		<tag k="natural" v="hill" />
		<tag k="place" v="locality" />
		<tag k="ssr:stedsnr" v="428743" />
	</node>
	<node lat="59.638561112844414" lon="6.508611119109068" id="-2021">
		<tag k="alt_name" v="Hedlandsbygdskaret" />
		<tag k="name" v="Hellandsbygdskardet" />
		<tag k="natural" v="valley" />
		<tag k="place" v="locality" />
		<tag k="ssr:stedsnr" v="428749" />
	</node>
	<node lat="59.62471389330386" lon="6.513808334406367" id="-2024">
		<tag k="alt_name" v="Uraskar" />
		<tag k="name" v="Urdaskard" />
		<tag k="natural" v="valley" />
		<tag k="place" v="locality" />
		<tag k="ssr:stedsnr" v="428796" />
	</node>
	<node lat="59.66751666380928" lon="6.5563611108103865" id="-2027">
		<tag k="alt_name" v="Olaskarnuten" />
		<tag k="fixme" v="consider natural=peak for the most distinct mountains in the district" />
		<tag k="name" v="Olaskardnuten" />
		<tag k="natural" v="hill" />
		<tag k="place" v="locality" />
		<tag k="ssr:stedsnr" v="428972" />
	</node>
	<node lat="59.70490833372349" lon="6.577800006385872" id="-2028">
		<tag k="alt_name" v="Holmvassheia" />
		<tag k="fixme" v="consider natural=peak for the most distinct mountains in the district" />
		<tag k="name" v="Holmavassheia" />
		<tag k="natural" v="hill" />
		<tag k="place" v="locality" />
		<tag k="ssr:stedsnr" v="428940" />
	</node>
	<node lat="59.66368611157345" lon="6.35870277576995" id="-2031">
		<tag k="name" v="Åbødalen" />
		<tag k="natural" v="valley" />
		<tag k="place" v="locality" />
		<tag k="ssr:stedsnr" v="428978" />
	</node>
	<node lat="59.6750444433902" lon="6.2541444396504495" id="-2032">
		<tag k="alt_name" v="Nordstølsdalen" />
		<tag k="name" v="Nordstøldalen" />
		<tag k="natural" v="valley" />
		<tag k="place" v="locality" />
		<tag k="ssr:stedsnr" v="428989" />
	</node>
	<node lat="59.75731111315142" lon="6.452211111050487" id="-2036">
		<tag k="alt_name" v="Dyrabottnuten" />
		<tag k="fixme" v="consider natural=peak for the most distinct mountains in the district" />
		<tag k="name" v="Dyrabotnnuten" />
		<tag k="natural" v="hill" />
		<tag k="place" v="locality" />
		<tag k="ssr:stedsnr" v="429099" />
	</node>
	<node lat="59.808308332214594" lon="6.600369440439415" id="-2038">
		<tag k="name" v="Gluben" />
		<tag k="natural" v="valley" />
		<tag k="place" v="locality" />
		<tag k="ssr:stedsnr" v="510381" />
	</node>
	<node lat="59.715986110186456" lon="6.4190583339149985" id="-2046">
		<tag k="name" v="Jammerdalen" />
		<tag k="natural" v="valley" />
		<tag k="place" v="locality" />
		<tag k="ssr:stedsnr" v="545096" />
	</node>
	<node lat="59.7227694461865" lon="6.418622229276257" id="-2047">
		<tag k="name" v="Rundhaughola" />
		<tag k="natural" v="valley" />
		<tag k="place" v="locality" />
		<tag k="ssr:stedsnr" v="545097" />
	</node>
	<node lat="59.68274166597568" lon="6.320836111869419" id="-2052">
		<tag k="name" v="Øykjaskåra" />
		<tag k="place" v="locality" />
		<tag k="ssr:stedsnr" v="545058" />
	</node>
	<node lat="59.70677777373217" lon="6.358530563707438" id="-2053">
		<tag k="name" v="Kjørte" />
		<tag k="place" v="locality" />
		<tag k="ssr:stedsnr" v="545062" />
	</node>
	<node lat="59.71532222502851" lon="6.5022333390798375" id="-2054">
		<tag k="name" v="Øygardslia" />
		<tag k="natural" v="slope" />
		<tag k="place" v="locality" />
		<tag k="ssr:stedsnr" v="545141" />
	</node>
	<node lat="59.689077780300536" lon="6.438774997152727" id="-2055">
		<tag k="name" v="Fidjaskaret" />
		<tag k="natural" v="valley" />
		<tag k="place" v="locality" />
		<tag k="ssr:stedsnr" v="545150" />
	</node>
	<node lat="59.69850000012704" lon="6.407569452941404" id="-2056">
		<tag k="name" v="Bekkjadalen" />
		<tag k="natural" v="valley" />
		<tag k="place" v="locality" />
		<tag k="ssr:stedsnr" v="545154" />
	</node>
	<node lat="59.710602777332696" lon="6.555519453025048" id="-2057">
		<tag k="fixme" v="consider natural=peak for the most distinct mountains in the district" />
		<tag k="name" v="Førstavannsheia" />
		<tag k="natural" v="hill" />
		<tag k="place" v="locality" />
		<tag k="ssr:stedsnr" v="545159" />
	</node>
	<node lat="59.73189986999403" lon="6.435692417194736" id="-2059">
		<tag k="name" v="Varmekro" />
		<tag k="place" v="locality" />
		<tag k="ssr:stedsnr" v="545577" />
	</node>
	<node lat="59.624466662875605" lon="6.407427774805175" id="-2061">
		<tag k="name" v="Skitkleiv" />
		<tag k="natural" v="valley" />
		<tag k="place" v="locality" />
		<tag k="ssr:stedsnr" v="545616" />
	</node>
	<node lat="59.70108889075434" lon="6.515291661746965" id="-2062">
		<tag k="name" v="Skavhidler" />
		<tag k="natural" v="cliff" />
		<tag k="ssr:stedsnr" v="545364" />
	</node>
	<node lat="59.79260833396635" lon="6.47066111111012" id="-2063">
		<tag k="fixme" v="consider natural=peak for the most distinct mountains in the district" />
		<tag k="name" v="Reinakvamnuten" />
		<tag k="natural" v="hill" />
		<tag k="place" v="locality" />
		<tag k="ssr:stedsnr" v="545642" />
	</node>
	<node lat="59.667130553304446" lon="6.276458326816269" id="-2065">
		<tag k="name" v="Beinfram" />
		<tag k="natural" v="slope" />
		<tag k="place" v="locality" />
		<tag k="ssr:stedsnr" v="545744" />
	</node>
	<node lat="59.8050805538985" lon="6.581644446716822" id="-2066">
		<tag k="name" v="Kyrkjanutflædene" />
		<tag k="natural" v="hill" />
		<tag k="place" v="locality" />
		<tag k="ssr:stedsnr" v="545750" />
	</node>
	<node lat="59.666605554497615" lon="6.242366671840481" id="-2068">
		<tag k="name" v="Hovlandsbotnane" />
		<tag k="natural" v="valley" />
		<tag k="place" v="locality" />
		<tag k="ssr:stedsnr" v="545755" />
	</node>
	<node lat="59.65549444134149" lon="6.338527769517228" id="-2069">
		<tag k="fixme" v="consider natural=peak for the most distinct mountains in the district" />
		<tag k="name" v="Hovås" />
		<tag k="natural" v="hill" />
		<tag k="place" v="locality" />
		<tag k="ssr:stedsnr" v="545872" />
	</node>
	<node lat="59.67156666897849" lon="6.308177773767403" id="-2072">
		<tag k="fixme" v="consider natural=peak for the most distinct mountains in the district" />
		<tag k="name" v="Njedlaslåttnuten" />
		<tag k="natural" v="hill" />
		<tag k="place" v="locality" />
		<tag k="ssr:stedsnr" v="545952" />
	</node>
	<node lat="59.66603333171122" lon="6.330233329225992" id="-2073">
		<tag k="loc_name" v="Heggjene" />
		<tag k="name" v="Heggjedn" />
		<tag k="natural" v="slope" />
		<tag k="place" v="locality" />
		<tag k="ssr:stedsnr" v="545953" />
	</node>
	<node lat="59.68055278077335" lon="6.340413881750792" id="-2074">
		<tag k="name" v="Sagkleiv" />
		<tag k="natural" v="valley" />
		<tag k="place" v="locality" />
		<tag k="ssr:stedsnr" v="545956" />
	</node>
	<node lat="59.67567500101045" lon="6.293422218616256" id="-2075">
		<tag k="fixme" v="consider natural=peak for the most distinct mountains in the district" />
		<tag k="name" v="Rustølnibba" />
		<tag k="natural" v="hill" />
		<tag k="place" v="locality" />
		<tag k="ssr:stedsnr" v="545963" />
	</node>
	<node lat="59.63961389331074" lon="6.21716389026813" id="-2076">
		<tag k="name" v="Skiftesdal" />
		<tag k="natural" v="valley" />
		<tag k="place" v="locality" />
		<tag k="ssr:stedsnr" v="545966" />
	</node>
	<node lat="59.63523055794038" lon="6.442950001200856" id="-2078">
		<tag k="alt_name" v="Durmålskarnuten" />
		<tag k="fixme" v="consider natural=peak for the most distinct mountains in the district" />
		<tag k="name" v="Daurmålsskardnuten" />
		<tag k="natural" v="hill" />
		<tag k="place" v="locality" />
		<tag k="ssr:stedsnr" v="549801" />
	</node>
	<node lat="59.64335000407831" lon="6.44209999479051" id="-2080">
		<tag k="name" v="Brekkene" />
		<tag k="natural" v="valley" />
		<tag k="place" v="locality" />
		<tag k="ssr:stedsnr" v="549740" />
	</node>
	<node lat="59.64488888522426" lon="6.484824999097506" id="-2081">
		<tag k="fixme" v="consider natural=peak for the most distinct mountains in the district" />
		<tag k="name" v="Holmen" />
		<tag k="natural" v="hill" />
		<tag k="place" v="locality" />
		<tag k="ssr:stedsnr" v="549741" />
	</node>
	<node lat="59.6220000014456" lon="6.240361106912516" id="-2085">
		<tag k="name" v="Svandalen" />
		<tag k="natural" v="valley" />
		<tag k="place" v="locality" />
		<tag k="ssr:stedsnr" v="549786" />
	</node>
	<node lat="59.60476111130172" lon="6.4289861168371285" id="-2088">
		<tag k="fixme" v="consider natural=peak for the most distinct mountains in the district" />
		<tag k="name" v="Reinsnuten" />
		<tag k="natural" v="hill" />
		<tag k="place" v="locality" />
		<tag k="ssr:stedsnr" v="549824" />
	</node>
	<node lat="59.69514166256959" lon="6.311575001159815" id="-2089">
		<tag k="name" v="Nonskiljene" />
		<tag k="place" v="locality" />
		<tag k="ssr:stedsnr" v="549946" />
	</node>
	<node lat="59.777036113065975" lon="6.45947222530014" id="-2090">
		<tag k="alt_name" v="Kvannegrønuten" />
		<tag k="fixme" v="consider natural=peak for the most distinct mountains in the district" />
		<tag k="name" v="Kvannegrødnuten" />
		<tag k="natural" v="hill" />
		<tag k="place" v="locality" />
		<tag k="ssr:stedsnr" v="550135" />
	</node>
	<node lat="59.675049996859876" lon="6.402486120225638" id="-2094">
		<tag k="name" v="Heggåsgjuvet" />
		<tag k="natural" v="valley" />
		<tag k="place" v="locality" />
		<tag k="ssr:stedsnr" v="549989" />
	</node>
	<node lat="59.7848499975869" lon="6.332288897687664" id="-2095">
		<tag k="fixme" v="consider natural=peak for the most distinct mountains in the district" />
		<tag k="name" v="Vinjakvelvnuten" />
		<tag k="natural" v="hill" />
		<tag k="place" v="locality" />
		<tag k="ssr:stedsnr" v="550072" />
	</node>
	<node lat="59.582080552359784" lon="6.873658335155819" id="-2096">
		<tag k="name" v="Suldalsheiane" />
		<tag k="natural" v="mountain_range" />
		<tag k="ssr:stedsnr" v="568631" />
	</node>
	<node lat="59.56448611348528" lon="6.3317138949086536" id="-2102">
		<tag k="name" v="Sernudalen" />
		<tag k="natural" v="valley" />
		<tag k="place" v="locality" />
		<tag k="ssr:stedsnr" v="600546" />
	</node>
	<node lat="59.71846666322742" lon="6.461552773163569" id="-2104">
		<tag k="name" v="Kvelven" />
		<tag k="natural" v="valley" />
		<tag k="place" v="locality" />
		<tag k="ssr:stedsnr" v="605175" />
	</node>
	<node lat="59.6545555572088" lon="6.506522216245764" id="-2105">
		<tag k="name" v="Hedlandsdalen" />
		<tag k="natural" v="valley" />
		<tag k="place" v="locality" />
		<tag k="ssr:stedsnr" v="605042" />
	</node>
	<node lat="59.65639999969446" lon="6.5151388835205735" id="-2106">
		<tag k="fixme" v="consider natural=peak for the most distinct mountains in the district" />
		<tag k="name" v="Raudhammaren" />
		<tag k="natural" v="hill" />
		<tag k="place" v="locality" />
		<tag k="ssr:stedsnr" v="605043" />
	</node>
	<node lat="59.675377777987805" lon="6.589508326728952" id="-2107">
		<tag k="fixme" v="consider natural=peak for the most distinct mountains in the district" />
		<tag k="name" v="Litle Kurlen" />
		<tag k="natural" v="hill" />
		<tag k="place" v="locality" />
		<tag k="ssr:stedsnr" v="605046" />
	</node>
	<node lat="59.697947225314664" lon="6.282486119615879" id="-2108">
		<tag k="name" v="Indre Botnen" />
		<tag k="natural" v="valley" />
		<tag k="place" v="locality" />
		<tag k="ssr:stedsnr" v="605068" />
	</node>
	<node lat="59.70947778163926" lon="6.3331027765203" id="-2109">
		<tag k="name" v="Litla Heiå" />
		<tag k="natural" v="slope" />
		<tag k="place" v="locality" />
		<tag k="ssr:stedsnr" v="605094" />
	</node>
	<node lat="59.697272222394055" lon="6.376025008044006" id="-2110">
		<tag k="fixme" v="consider natural=peak for the most distinct mountains in the district" />
		<tag k="name" v="Kjørkjå" />
		<tag k="natural" v="hill" />
		<tag k="place" v="locality" />
		<tag k="ssr:stedsnr" v="605135" />
	</node>
	<node lat="59.6300250030206" lon="6.217958330502871" id="-2112">
		<tag k="name" v="Låven" />
		<tag k="natural" v="slope" />
		<tag k="place" v="locality" />
		<tag k="ssr:stedsnr" v="605513" />
	</node>
	<node lat="59.62437777892874" lon="6.210958326421385" id="-2113">
		<tag k="name" v="Torkelskleiv" />
		<tag k="natural" v="slope" />
		<tag k="place" v="locality" />
		<tag k="ssr:stedsnr" v="605514" />
	</node>
	<node lat="59.729908337436676" lon="6.355211117513494" id="-2114">
		<tag k="name" v="Hollenderdalen" />
		<tag k="natural" v="valley" />
		<tag k="place" v="locality" />
		<tag k="ssr:stedsnr" v="605532" />
	</node>
	<node lat="59.6278527795898" lon="6.452222221073102" id="-2115">
		<tag k="fixme" v="consider natural=peak for the most distinct mountains in the district" />
		<tag k="name" v="Finnabuhidleren" />
		<tag k="natural" v="hill" />
		<tag k="place" v="locality" />
		<tag k="ssr:stedsnr" v="605744" />
	</node>
	<node lat="59.677452776054125" lon="6.232608326356721" id="-2116">
		<tag k="fixme" v="consider natural=peak for the most distinct mountains in the district" />
		<tag k="name" v="Hovlands-Rundenuten" />
		<tag k="natural" v="hill" />
		<tag k="place" v="locality" />
		<tag k="ssr:stedsnr" v="605767" />
	</node>
	<node lat="59.761088889619174" lon="6.483516661938026" id="-2119">
		<tag k="name" v="Søndagsskårane" />
		<tag k="natural" v="slope" />
		<tag k="place" v="locality" />
		<tag k="ssr:stedsnr" v="606506" />
	</node>
	<node lat="59.6783694437255" lon="6.436430549442171" id="-2120">
		<tag k="name" v="Nedre Kjedalshaugen" />
		<tag k="natural" v="hill" />
		<tag k="place" v="locality" />
		<tag k="ssr:stedsnr" v="605897" />
	</node>
	<node lat="59.65570555661453" lon="6.227000007284326" id="-2123">
		<tag k="fixme" v="consider natural=peak for the most distinct mountains in the district" />
		<tag k="name" v="Rundenut" />
		<tag k="natural" v="hill" />
		<tag k="place" v="locality" />
		<tag k="ssr:stedsnr" v="605978" />
	</node>
	<node lat="59.663102780702395" lon="6.291097217487668" id="-2124">
		<tag k="name" v="Sjonhammar" />
		<tag k="natural" v="cliff" />
		<tag k="ssr:stedsnr" v="605992" />
	</node>
	<node lat="59.5901147601244" lon="6.3360251405558" id="-2125">
		<tag k="fixme" v="consider natural=peak for the most distinct mountains in the district" />
		<tag k="name" v="Slørefjellet" />
		<tag k="natural" v="hill" />
		<tag k="place" v="locality" />
		<tag k="ssr:stedsnr" v="606280" />
	</node>
	<node lat="59.58422500215669" lon="6.3499388801040855" id="-2126">
		<tag k="name" v="Vårstøldalen" />
		<tag k="natural" v="valley" />
		<tag k="place" v="locality" />
		<tag k="ssr:stedsnr" v="606283" />
	</node>
	<node lat="59.76246110916012" lon="6.502255561168998" id="-2127">
		<tag k="fixme" v="consider natural=peak for the most distinct mountains in the district" />
		<tag k="name" v="Torvøylegdene" />
		<tag k="natural" v="hill" />
		<tag k="place" v="locality" />
		<tag k="ssr:stedsnr" v="606492" />
	</node>
	<node lat="59.65884166238458" lon="6.333913889528467" id="-2128">
		<tag k="fixme" v="consider natural=peak for the most distinct mountains in the district" />
		<tag k="loc_name" v="Småfellene" />
		<tag k="name" v="Småfedlene" />
		<tag k="natural" v="hill" />
		<tag k="place" v="locality" />
		<tag k="ssr:stedsnr" v="606876" />
	</node>
	<node lat="59.654480555612786" lon="6.346152779812401" id="-2129">
		<tag k="fixme" v="consider natural=peak for the most distinct mountains in the district" />
		<tag k="loc_name" v="Holla" />
		<tag k="name" v="Hådlå" />
		<tag k="natural" v="hill" />
		<tag k="place" v="locality" />
		<tag k="ssr:stedsnr" v="606879" />
	</node>
	<node lat="59.67677500108213" lon="6.468044439356113" id="-2130">
		<tag k="fixme" v="consider natural=peak for the most distinct mountains in the district" />
		<tag k="name" v="Øvstestølsnuten" />
		<tag k="natural" v="hill" />
		<tag k="place" v="locality" />
		<tag k="ssr:stedsnr" v="609986" />
	</node>
	<node lat="59.67217499907085" lon="6.450133326238139" id="-2131">
		<tag k="fixme" v="consider natural=peak for the most distinct mountains in the district" />
		<tag k="name" v="Fivelandsnuten" />
		<tag k="natural" v="hill" />
		<tag k="place" v="locality" />
		<tag k="ssr:stedsnr" v="609987" />
	</node>
	<node lat="59.650261113380594" lon="6.508275005004066" id="-2132">
		<tag k="alt_name" v="Skarfossheia" />
		<tag k="fixme" v="consider natural=peak for the most distinct mountains in the district" />
		<tag k="name" v="Skardfossheia" />
		<tag k="natural" v="hill" />
		<tag k="place" v="locality" />
		<tag k="ssr:stedsnr" v="609706" />
	</node>
	<node lat="59.70402499683287" lon="6.453927769641431" id="-2136">
		<tag k="alt_name" v="Lågahei" />
		<tag k="fixme" v="consider natural=peak for the most distinct mountains in the district" />
		<tag k="name" v="Lågaheia" />
		<tag k="natural" v="hill" />
		<tag k="place" v="locality" />
		<tag k="ssr:stedsnr" v="609955" />
	</node>
	<node lat="59.624936109947775" lon="6.450236109717853" id="-2137">
		<tag k="fixme" v="consider natural=peak for the most distinct mountains in the district" />
		<tag k="name" v="Finnabunuten" />
		<tag k="natural" v="hill" />
		<tag k="place" v="locality" />
		<tag k="ssr:stedsnr" v="609745" />
	</node>
	<node lat="59.620827780220324" lon="6.401869449269784" id="-2138">
		<tag k="name" v="Lauvåsdalen" />
		<tag k="natural" v="valley" />
		<tag k="place" v="locality" />
		<tag k="ssr:stedsnr" v="609748" />
	</node>
	<node lat="59.622249996568385" lon="6.3664111072403085" id="-2140">
		<tag k="fixme" v="consider natural=peak for the most distinct mountains in the district" />
		<tag k="name" v="Nystølsnibba" />
		<tag k="natural" v="hill" />
		<tag k="place" v="locality" />
		<tag k="ssr:stedsnr" v="609755" />
	</node>
	<node lat="59.76321389100474" lon="6.594069435846161" id="-2143">
		<tag k="alt_name" v="Tinden, Heimste" />
		<tag k="fixme" v="consider natural=peak for the most distinct mountains in the district" />
		<tag k="name" v="Heimste Tinden" />
		<tag k="natural" v="hill" />
		<tag k="place" v="locality" />
		<tag k="ssr:stedsnr" v="610123" />
	</node>
	<node lat="59.71759999727292" lon="6.3247861101910825" id="-2146">
		<tag k="name" v="Fita" />
		<tag k="natural" v="slope" />
		<tag k="place" v="locality" />
		<tag k="ssr:stedsnr" v="610931" />
	</node>
	<node lat="59.71837500270837" lon="6.462874996311685" id="-2148">
		<tag k="alt_name" v="Borjedn" />
		<tag k="name" v="Borgene" />
		<tag k="natural" v="valley" />
		<tag k="place" v="locality" />
		<tag k="ssr:stedsnr" v="610965" />
	</node>
	<node lat="59.63448888723708" lon="6.532725007645689" id="-2151">
		<tag k="name" v="Skaulafjella" />
		<tag k="natural" v="ridge" />
		<tag k="place" v="locality" />
		<tag k="ssr:stedsnr" v="663656" />
	</node>
	<node lat="59.722463892043486" lon="6.325308336613809" id="-2152">
		<tag k="name" v="Uraskar" />
		<tag k="natural" v="valley" />
		<tag k="place" v="locality" />
		<tag k="ssr:stedsnr" v="666085" />
	</node>
	<node lat="59.72113055361893" lon="6.4106388915109145" id="-2154">
		<tag k="fixme" v="consider natural=peak for the most distinct mountains in the district" />
		<tag k="name" v="Moltenibbane" />
		<tag k="natural" v="hill" />
		<tag k="place" v="locality" />
		<tag k="ssr:stedsnr" v="666110" />
	</node>
	<node lat="59.687427776633534" lon="6.365422217891409" id="-2156">
		<tag k="name" v="Raunehaugen" />
		<tag k="natural" v="hill" />
		<tag k="place" v="locality" />
		<tag k="ssr:stedsnr" v="666120" />
	</node>
	<node lat="59.664052779012984" lon="6.45369999640967" id="-2158">
		<tag k="name" v="Durmelospa" />
		<tag k="place" v="locality" />
		<tag k="ssr:stedsnr" v="666021" />
	</node>
	<node lat="59.67622778192445" lon="6.5582194521837165" id="-2160">
		<tag k="name" v="Smelveskaret" />
		<tag k="natural" v="valley" />
		<tag k="place" v="locality" />
		<tag k="ssr:stedsnr" v="666044" />
	</node>
	<node lat="59.669027773221465" lon="6.545938883610808" id="-2161">
		<tag k="name" v="Trongaskaret" />
		<tag k="natural" v="valley" />
		<tag k="place" v="locality" />
		<tag k="ssr:stedsnr" v="666047" />
	</node>
	<node lat="59.6937527778306" lon="6.32537778231437" id="-2162">
		<tag k="fixme" v="consider natural=peak for the most distinct mountains in the district" />
		<tag k="name" v="Tausanuten" />
		<tag k="natural" v="hill" />
		<tag k="place" v="locality" />
		<tag k="ssr:stedsnr" v="666071" />
	</node>
	<node lat="59.715177781733196" lon="6.379122218328355" id="-2163">
		<tag k="name" v="Durmålskaret" />
		<tag k="natural" v="valley" />
		<tag k="place" v="locality" />
		<tag k="ssr:stedsnr" v="666076" />
	</node>
	<node lat="59.72135277733454" lon="6.5475666584091625" id="-2167">
		<tag k="name" v="Flætedn" />
		<tag k="natural" v="hill" />
		<tag k="place" v="locality" />
		<tag k="ssr:stedsnr" v="666199" />
	</node>
	<node lat="59.69352499796472" lon="6.504549999777062" id="-2170">
		<tag k="fixme" v="consider natural=peak for the most distinct mountains in the district" />
		<tag k="name" v="Hovås" />
		<tag k="natural" v="hill" />
		<tag k="place" v="locality" />
		<tag k="ssr:stedsnr" v="667155" />
	</node>
	<node lat="59.69135833179195" lon="6.521897226137862" id="-2171">
		<tag k="fixme" v="consider natural=peak for the most distinct mountains in the district" />
		<tag k="name" v="Nedste Åsen" />
		<tag k="natural" v="hill" />
		<tag k="place" v="locality" />
		<tag k="ssr:stedsnr" v="666414" />
	</node>
	<node lat="59.74957777431814" lon="6.349222217950688" id="-2172">
		<tag k="fixme" v="consider natural=peak for the most distinct mountains in the district" />
		<tag k="name" v="Fehaug" />
		<tag k="natural" v="hill" />
		<tag k="place" v="locality" />
		<tag k="ssr:stedsnr" v="666529" />
	</node>
	<node lat="59.61026666909398" lon="6.336311111028045" id="-2173">
		<tag k="name" v="Sag" />
		<tag k="place" v="locality" />
		<tag k="ssr:stedsnr" v="666662" />
	</node>
	<node lat="59.63106110926217" lon="6.378977781543896" id="-2174">
		<tag k="name" v="Fantakjella" />
		<tag k="natural" v="slope" />
		<tag k="place" v="locality" />
		<tag k="ssr:stedsnr" v="666696" />
	</node>
	<node lat="59.62788055363906" lon="6.354375006014142" id="-2175">
		<tag k="name" v="Heså" />
		<tag k="place" v="locality" />
		<tag k="ssr:stedsnr" v="666702" />
	</node>
	<node lat="59.64525000184587" lon="6.370505563110906" id="-2177">
		<tag k="name" v="Sønnåhaugen" />
		<tag k="natural" v="hill" />
		<tag k="place" v="locality" />
		<tag k="ssr:stedsnr" v="666861" />
	</node>
	<node lat="59.65116111282312" lon="6.324352780413612" id="-2179">
		<tag k="name" v="Litlebotnen" />
		<tag k="natural" v="valley" />
		<tag k="place" v="locality" />
		<tag k="ssr:stedsnr" v="666873" />
	</node>
	<node lat="59.664294448293404" lon="6.421525001382667" id="-2180">
		<tag k="name" v="Uriksdal" />
		<tag k="natural" v="valley" />
		<tag k="place" v="locality" />
		<tag k="ssr:stedsnr" v="666878" />
	</node>
	<node lat="59.681450000954854" lon="6.295550004942319" id="-2181">
		<tag k="fixme" v="consider natural=peak for the most distinct mountains in the district" />
		<tag k="name" v="Rundenuten" />
		<tag k="natural" v="hill" />
		<tag k="place" v="locality" />
		<tag k="ssr:stedsnr" v="666943" />
	</node>
	<node lat="59.6754194419336" lon="6.333644446490124" id="-2182">
		<tag k="name" v="Øykjahei" />
		<tag k="natural" v="slope" />
		<tag k="place" v="locality" />
		<tag k="ssr:stedsnr" v="666952" />
	</node>
	<node lat="59.66859166699134" lon="6.322144439402254" id="-2183">
		<tag k="fixme" v="consider natural=peak for the most distinct mountains in the district" />
		<tag k="loc_name" v="Flatskornuten" />
		<tag k="name" v="Flatskårnuten" />
		<tag k="natural" v="hill" />
		<tag k="place" v="locality" />
		<tag k="ssr:stedsnr" v="666954" />
	</node>
	<node lat="59.67875833722867" lon="6.280488889205791" id="-2184">
		<tag k="name" v="Minne" />
		<tag k="natural" v="slope" />
		<tag k="place" v="locality" />
		<tag k="ssr:stedsnr" v="666970" />
	</node>
	<node lat="59.6510888867913" lon="6.2198000052307725" id="-2185">
		<tag k="name" v="Uraskar" />
		<tag k="natural" v="valley" />
		<tag k="place" v="locality" />
		<tag k="ssr:stedsnr" v="666975" />
	</node>
	<node lat="59.63993889124931" lon="6.259480563092441" id="-2187">
		<tag k="name" v="Rabbarskar" />
		<tag k="natural" v="valley" />
		<tag k="place" v="locality" />
		<tag k="ssr:stedsnr" v="666979" />
	</node>
	<node lat="59.69058333130724" lon="6.659194441320818" id="-2192">
		<tag k="name" v="Grøne Bakkjen" />
		<tag k="natural" v="slope" />
		<tag k="place" v="locality" />
		<tag k="ssr:stedsnr" v="727431" />
	</node>
	<node lat="59.645074998264114" lon="6.414124996162547" id="-2193">
		<tag k="name" v="Jotå" />
		<tag k="natural" v="valley" />
		<tag k="place" v="locality" />
		<tag k="ssr:stedsnr" v="727001" />
	</node>
	<node lat="59.672530558275405" lon="6.493750001036861" id="-2196">
		<tag k="name" v="Trongakvelven" />
		<tag k="natural" v="valley" />
		<tag k="place" v="locality" />
		<tag k="ssr:stedsnr" v="727019" />
	</node>
	<node lat="59.719824995797694" lon="6.291722219189352" id="-2197">
		<tag k="name" v="Indre Kvanndal" />
		<tag k="natural" v="valley" />
		<tag k="place" v="locality" />
		<tag k="ssr:stedsnr" v="727096" />
	</node>
	<node lat="59.67509721958901" lon="6.461849992270634" id="-2198">
		<tag k="name" v="Heiaskar" />
		<tag k="natural" v="valley" />
		<tag k="place" v="locality" />
		<tag k="ssr:stedsnr" v="727023" />
	</node>
	<node lat="59.6619694435817" lon="6.546597228835943" id="-2199">
		<tag k="name" v="Olaskar" />
		<tag k="natural" v="valley" />
		<tag k="place" v="locality" />
		<tag k="ssr:stedsnr" v="727051" />
	</node>
	<node lat="59.656002778534734" lon="6.455641672927113" id="-2200">
		<tag k="fixme" v="consider natural=peak for the most distinct mountains in the district" />
		<tag k="name" v="Talgåsen" />
		<tag k="natural" v="hill" />
		<tag k="place" v="locality" />
		<tag k="ssr:stedsnr" v="727061" />
	</node>
	<node lat="59.65571110720527" lon="6.441088881499503" id="-2201">
		<tag k="fixme" v="consider natural=peak for the most distinct mountains in the district" />
		<tag k="name" v="Raundalsåsen" />
		<tag k="natural" v="hill" />
		<tag k="place" v="locality" />
		<tag k="ssr:stedsnr" v="727062" />
	</node>
	<node lat="59.70165555465766" lon="6.330988885504031" id="-2203">
		<tag k="fixme" v="consider natural=peak for the most distinct mountains in the district" />
		<tag k="name" v="Kvamsfjellet" />
		<tag k="natural" v="hill" />
		<tag k="place" v="locality" />
		<tag k="ssr:stedsnr" v="727124" />
	</node>
	<node lat="59.69427499746472" lon="6.424302783094959" id="-2207">
		<tag k="name" v="Grasdalen" />
		<tag k="natural" v="valley" />
		<tag k="place" v="locality" />
		<tag k="ssr:stedsnr" v="727163" />
	</node>
	<node lat="59.585747222600176" lon="6.231966658843777" id="-2208">
		<tag k="name" v="Krossdalane" />
		<tag k="natural" v="valley" />
		<tag k="place" v="locality" />
		<tag k="ssr:stedsnr" v="727281" />
	</node>
	<node lat="59.58038889283915" lon="6.24463054784191" id="-2209">
		<tag k="name" v="Taklia" />
		<tag k="natural" v="slope" />
		<tag k="place" v="locality" />
		<tag k="ssr:stedsnr" v="727284" />
	</node>
	<node lat="59.579051640274294" lon="6.331912466140815" id="-2210">
		<tag k="name" v="Storehaug" />
		<tag k="natural" v="hill" />
		<tag k="place" v="locality" />
		<tag k="ssr:stedsnr" v="727300" />
	</node>
	<node lat="59.70929166987659" lon="6.4180972215102985" id="-2211">
		<tag k="name" v="Øykjaskåra" />
		<tag k="place" v="locality" />
		<tag k="ssr:stedsnr" v="727111" />
	</node>
	<node lat="59.71090277935485" lon="6.416391670367143" id="-2212">
		<tag k="fixme" v="consider natural=peak for the most distinct mountains in the district" />
		<tag k="name" v="Hidlerheia" />
		<tag k="natural" v="hill" />
		<tag k="place" v="locality" />
		<tag k="ssr:stedsnr" v="727113" />
	</node>
	<node lat="59.74422222156482" lon="6.295852779181244" id="-2213">
		<tag k="name" v="Snødalen" />
		<tag k="natural" v="valley" />
		<tag k="place" v="locality" />
		<tag k="ssr:stedsnr" v="727513" />
	</node>
	<node lat="59.75731944557464" lon="6.548899996123452" id="-2214">
		<tag k="name" v="Brotene" />
		<tag k="natural" v="slope" />
		<tag k="place" v="locality" />
		<tag k="ssr:stedsnr" v="727588" />
	</node>
	<node lat="59.7343777804332" lon="6.4667000078527" id="-2215">
		<tag k="fixme" v="consider natural=peak for the most distinct mountains in the district" />
		<tag k="name" v="Bjødnanuten" />
		<tag k="natural" v="hill" />
		<tag k="place" v="locality" />
		<tag k="ssr:stedsnr" v="727596" />
	</node>
	<node lat="59.748524996598604" lon="6.306294452880236" id="-2216">
		<tag k="name" v="Gråbotnen" />
		<tag k="natural" v="valley" />
		<tag k="place" v="locality" />
		<tag k="ssr:stedsnr" v="727565" />
	</node>
	<node lat="59.73452777912755" lon="6.560444449419053" id="-2217">
		<tag k="name" v="Storekvelven" />
		<tag k="natural" v="valley" />
		<tag k="place" v="locality" />
		<tag k="ssr:stedsnr" v="727566" />
	</node>
	<node lat="59.61184721945884" lon="6.29074166617664" id="-2219">
		<tag k="loc_name" v="Bukkaskorane" />
		<tag k="name" v="Bukkaskårane" />
		<tag k="place" v="locality" />
		<tag k="ssr:stedsnr" v="727713" />
	</node>
	<node lat="59.65409721802348" lon="6.280161119418625" id="-2221">
		<tag k="fixme" v="consider natural=peak for the most distinct mountains in the district" />
		<tag k="name" v="Bringfaråsen" />
		<tag k="natural" v="hill" />
		<tag k="place" v="locality" />
		<tag k="ssr:stedsnr" v="727925" />
	</node>
	<node lat="59.663386113777435" lon="6.342288893128448" id="-2222">
		<tag k="name" v="Stutadalen" />
		<tag k="natural" v="valley" />
		<tag k="place" v="locality" />
		<tag k="ssr:stedsnr" v="727958" />
	</node>
	<node lat="59.660233337147126" lon="6.351683327135414" id="-2223">
		<tag k="fixme" v="consider natural=peak for the most distinct mountains in the district" />
		<tag k="name" v="Vidlås" />
		<tag k="natural" v="hill" />
		<tag k="place" v="locality" />
		<tag k="ssr:stedsnr" v="727961" />
	</node>
	<node lat="59.676233330405914" lon="6.40550555253773" id="-2224">
		<tag k="fixme" v="consider natural=peak for the most distinct mountains in the district" />
		<tag k="name" v="Heggåsen" />
		<tag k="natural" v="hill" />
		<tag k="place" v="locality" />
		<tag k="ssr:stedsnr" v="727896" />
	</node>
	<node lat="59.63018333665117" lon="6.5181555468318075" id="-2225">
		<tag k="alt_name" v="Dyrskarbotn" />
		<tag k="name" v="Dyrskardsbotnen" />
		<tag k="natural" v="valley" />
		<tag k="place" v="locality" />
		<tag k="ssr:stedsnr" v="731784" />
	</node>
	<node lat="59.61752499754262" lon="6.515122221625948" id="-2228">
		<tag k="alt_name" v="Kyrkjestølheia;Kyrkjestølheio" />
		<tag k="name" v="Kyrkjestølsheia" />
		<tag k="natural" v="hill" />
		<tag k="place" v="locality" />
		<tag k="ssr:stedsnr" v="731826" />
	</node>
	<node lat="59.59168333404088" lon="6.245650004547908" id="-2230">
		<tag k="alt_name" v="Bombakknuten;Bombaknuten" />
		<tag k="fixme" v="consider natural=peak for the most distinct mountains in the district" />
		<tag k="name" v="Bjørnaskornuten" />
		<tag k="natural" v="hill" />
		<tag k="place" v="locality" />
		<tag k="ssr:stedsnr" v="731834" />
	</node>
	<node lat="59.784369448773575" lon="6.497480560126372" id="-2238">
		<tag k="name" v="Slettedalen" />
		<tag k="natural" v="valley" />
		<tag k="place" v="locality" />
		<tag k="ssr:stedsnr" v="732135" />
	</node>
	<node lat="59.795195448174624" lon="6.6418799412296785" id="-2240">
		<tag k="name" v="Tindane" />
		<tag k="natural" v="ridge" />
		<tag k="place" v="locality" />
		<tag k="ssr:stedsnr" v="732785" />
	</node>
	<node lat="59.60043888607242" lon="6.333755555736198" id="-2246">
		<tag k="loc_name" v="Legdene" />
		<tag k="name" v="Legdedn" />
		<tag k="place" v="locality" />
		<tag k="ssr:stedsnr" v="788677" />
	</node>
	<node lat="59.58281388683834" lon="6.233499995746451" id="-2247">
		<tag k="name" v="Uraskar" />
		<tag k="natural" v="valley" />
		<tag k="place" v="locality" />
		<tag k="ssr:stedsnr" v="787286" />
	</node>
	<node lat="59.57934444207463" lon="6.259063887302332" id="-2248">
		<tag k="fixme" v="consider natural=peak for the most distinct mountains in the district" />
		<tag k="name" v="Slåtteskarnutane" />
		<tag k="natural" v="hill" />
		<tag k="place" v="locality" />
		<tag k="ssr:stedsnr" v="787291" />
	</node>
	<node lat="59.575030557996854" lon="6.238938884984215" id="-2249">
		<tag k="fixme" v="consider natural=peak for the most distinct mountains in the district" />
		<tag k="name" v="Skiftesvarden" />
		<tag k="natural" v="hill" />
		<tag k="place" v="locality" />
		<tag k="ssr:stedsnr" v="787295" />
	</node>
	<node lat="59.613677781400575" lon="6.183794450512261" id="-2250">
		<tag k="name" v="Bukkakrøden" />
		<tag k="natural" v="valley" />
		<tag k="place" v="locality" />
		<tag k="ssr:stedsnr" v="787544" />
	</node>
	<node lat="59.72743888711345" lon="6.560872216993025" id="-2251">
		<tag k="name" v="Kjørkjebakkane" />
		<tag k="natural" v="slope" />
		<tag k="place" v="locality" />
		<tag k="ssr:stedsnr" v="787695" />
	</node>
	<node lat="59.72026944817871" lon="6.3853583397772145" id="-2253">
		<tag k="name" v="Stølsjo" />
		<tag k="place" v="locality" />
		<tag k="ssr:stedsnr" v="788067" />
	</node>
	<node lat="59.66363055148663" lon="6.436669438889809" id="-2255">
		<tag k="name" v="Spannakleivdalen" />
		<tag k="natural" v="valley" />
		<tag k="place" v="locality" />
		<tag k="ssr:stedsnr" v="788026" />
	</node>
	<node lat="59.67734722155321" lon="6.512591662304831" id="-2256">
		<tag k="name" v="Litla Storli" />
		<tag k="natural" v="slope" />
		<tag k="place" v="locality" />
		<tag k="ssr:stedsnr" v="788038" />
	</node>
	<node lat="59.70584722170806" lon="6.518050007859702" id="-2258">
		<tag k="name" v="Hidlerskleivane" />
		<tag k="natural" v="valley" />
		<tag k="place" v="locality" />
		<tag k="ssr:stedsnr" v="788194" />
	</node>
	<node lat="59.69942499817869" lon="6.539074992072979" id="-2260">
		<tag k="name" v="Øvre Takdalane" />
		<tag k="natural" v="valley" />
		<tag k="place" v="locality" />
		<tag k="ssr:stedsnr" v="788376" />
	</node>
	<node lat="59.715566667723614" lon="6.593730561103162" id="-2261">
		<tag k="name" v="Førstabotnen" />
		<tag k="natural" v="valley" />
		<tag k="place" v="locality" />
		<tag k="ssr:stedsnr" v="788379" />
	</node>
	<node lat="59.70649444610765" lon="6.284816669983609" id="-2262">
		<tag k="fixme" v="consider natural=peak for the most distinct mountains in the district" />
		<tag k="name" v="Vondeversnuten" />
		<tag k="natural" v="hill" />
		<tag k="place" v="locality" />
		<tag k="ssr:stedsnr" v="788094" />
	</node>
	<node lat="59.683094444159025" lon="6.3473916715292695" id="-2264">
		<tag k="name" v="Nyslått" />
		<tag k="natural" v="hill" />
		<tag k="place" v="locality" />
		<tag k="ssr:stedsnr" v="788116" />
	</node>
	<node lat="59.68308055591913" lon="6.3435888874518644" id="-2265">
		<tag k="name" v="Liabrekka" />
		<tag k="place" v="locality" />
		<tag k="ssr:stedsnr" v="788117" />
	</node>
	<node lat="59.61849444351154" lon="6.333691675515457" id="-2267">
		<tag k="name" v="Ruskedal" />
		<tag k="natural" v="valley" />
		<tag k="place" v="locality" />
		<tag k="ssr:stedsnr" v="788724" />
	</node>
	<node lat="59.60640833064282" lon="6.247055549991973" id="-2268">
		<tag k="name" v="Botnaskar" />
		<tag k="natural" v="valley" />
		<tag k="place" v="locality" />
		<tag k="ssr:stedsnr" v="788738" />
	</node>
	<node lat="59.64406666286327" lon="6.313541661673193" id="-2269">
		<tag k="name" v="Neshaugen" />
		<tag k="natural" v="hill" />
		<tag k="place" v="locality" />
		<tag k="ssr:stedsnr" v="788919" />
	</node>
	<node lat="59.66891388699683" lon="6.415219441491925" id="-2270">
		<tag k="name" v="Leiteskleiva" />
		<tag k="natural" v="valley" />
		<tag k="place" v="locality" />
		<tag k="ssr:stedsnr" v="788884" />
	</node>
	<node lat="59.66133888899693" lon="6.405183329515175" id="-2271">
		<tag k="name" v="Sævmyrhaugane" />
		<tag k="natural" v="hill" />
		<tag k="place" v="locality" />
		<tag k="ssr:stedsnr" v="788889" />
	</node>
	<node lat="59.661055559785346" lon="6.4166777750207915" id="-2272">
		<tag k="name" v="Indre Kvamen" />
		<tag k="natural" v="valley" />
		<tag k="place" v="locality" />
		<tag k="ssr:stedsnr" v="788890" />
	</node>
	<node lat="59.68008333567433" lon="6.380941672014318" id="-2273">
		<tag k="fixme" v="consider natural=peak for the most distinct mountains in the district" />
		<tag k="loc_name" v="Åsane" />
		<tag k="name" v="Åsadn" />
		<tag k="natural" v="hill" />
		<tag k="place" v="locality" />
		<tag k="ssr:stedsnr" v="788901" />
	</node>
	<node lat="59.636353535382995" lon="6.261639627059454" id="-2280">
		<tag k="alt_name" v="Randarenuten" />
		<tag k="fixme" v="consider natural=peak for the most distinct mountains in the district" />
		<tag k="name" v="Randanuten" />
		<tag k="natural" v="hill" />
		<tag k="place" v="locality" />
		<tag k="ssr:stedsnr" v="792744" />
	</node>
	<node lat="59.74085000114033" lon="6.284569450296937" id="-2289">
		<tag k="alt_name" v="Kvannegrønuten" />
		<tag k="fixme" v="consider natural=peak for the most distinct mountains in the district" />
		<tag k="name" v="Kvannegrødnuten" />
		<tag k="natural" v="hill" />
		<tag k="place" v="locality" />
		<tag k="ssr:stedsnr" v="792916" />
	</node>
	<node lat="59.756955558830896" lon="6.436658334744831" id="-2291">
		<tag k="name" v="Dyrabotnen" />
		<tag k="natural" v="valley" />
		<tag k="place" v="locality" />
		<tag k="ssr:stedsnr" v="793098" />
	</node>
	<node lat="59.571566666870034" lon="6.332288886391159" id="-2296">
		<tag k="fixme" v="consider natural=peak for the most distinct mountains in the district" />
		<tag k="name" v="Litlenut" />
		<tag k="natural" v="hill" />
		<tag k="place" v="locality" />
		<tag k="ssr:stedsnr" v="844566" />
	</node>
	<node lat="59.56986944265403" lon="6.330563897705224" id="-2297">
		<tag k="fixme" v="consider natural=peak for the most distinct mountains in the district" />
		<tag k="name" v="Storenut" />
		<tag k="natural" v="hill" />
		<tag k="place" v="locality" />
		<tag k="ssr:stedsnr" v="844572" />
	</node>
	<node lat="59.730791667171125" lon="6.555736102742063" id="-2299">
		<tag k="fixme" v="consider natural=peak for the most distinct mountains in the district" />
		<tag k="name" v="Kjørkjenuten" />
		<tag k="natural" v="hill" />
		<tag k="place" v="locality" />
		<tag k="ssr:stedsnr" v="848689" />
	</node>
	<node lat="59.6509444450822" lon="6.426541673596876" id="-2301">
		<tag k="name" v="Trolldalen" />
		<tag k="natural" v="valley" />
		<tag k="place" v="locality" />
		<tag k="ssr:stedsnr" v="849090" />
	</node>
	<node lat="59.68532222253324" lon="6.291152775094033" id="-2302">
		<tag k="fixme" v="consider natural=peak for the most distinct mountains in the district" />
		<tag k="name" v="Smettenuten" />
		<tag k="natural" v="hill" />
		<tag k="place" v="locality" />
		<tag k="ssr:stedsnr" v="849095" />
	</node>
	<node lat="59.66276389258047" lon="6.475780546596194" id="-2306">
		<tag k="name" v="Vikjingsdalen" />
		<tag k="natural" v="valley" />
		<tag k="place" v="locality" />
		<tag k="ssr:stedsnr" v="849033" />
	</node>
	<node lat="59.679819448709104" lon="6.443036113628169" id="-2307">
		<tag k="fixme" v="consider natural=peak for the most distinct mountains in the district" />
		<tag k="name" v="Høgås" />
		<tag k="natural" v="hill" />
		<tag k="place" v="locality" />
		<tag k="ssr:stedsnr" v="849041" />
	</node>
	<node lat="59.69125277941951" lon="6.24293333442039" id="-2308">
		<tag k="fixme" v="consider natural=peak for the most distinct mountains in the district" />
		<tag k="name" v="Tøresslåttene" />
		<tag k="natural" v="hill" />
		<tag k="place" v="locality" />
		<tag k="ssr:stedsnr" v="849047" />
	</node>
	<node lat="59.70650555230509" lon="6.277988887532303" id="-2309">
		<tag k="name" v="Grødalsskaret" />
		<tag k="natural" v="valley" />
		<tag k="place" v="locality" />
		<tag k="ssr:stedsnr" v="849050" />
	</node>
	<node lat="59.6865944417859" lon="6.343666670664494" id="-2312">
		<tag k="name" v="Kjeladn" />
		<tag k="place" v="locality" />
		<tag k="ssr:stedsnr" v="849147" />
	</node>
	<node lat="59.68566666421695" lon="6.32406945262178" id="-2313">
		<tag k="name" v="Nutaskårane" />
		<tag k="natural" v="slope" />
		<tag k="place" v="locality" />
		<tag k="ssr:stedsnr" v="849102" />
	</node>
	<node lat="59.72298055694044" lon="6.516674996083861" id="-2314">
		<tag k="name" v="Reinaskaret" />
		<tag k="natural" v="valley" />
		<tag k="place" v="locality" />
		<tag k="ssr:stedsnr" v="849198" />
	</node>
	<node lat="59.68869722462464" lon="6.525166669177578" id="-2315">
		<tag k="fixme" v="consider natural=peak for the most distinct mountains in the district" />
		<tag k="name" v="Durmålsnuten" />
		<tag k="natural" v="hill" />
		<tag k="place" v="locality" />
		<tag k="ssr:stedsnr" v="849397" />
	</node>
	<node lat="59.75160555738834" lon="6.419372214752511" id="-2319">
		<tag k="fixme" v="consider natural=peak for the most distinct mountains in the district" />
		<tag k="name" v="Helgedalshaugen" />
		<tag k="natural" v="hill" />
		<tag k="place" v="locality" />
		<tag k="ssr:stedsnr" v="849542" />
	</node>
	<node lat="59.607877781264236" lon="6.2358722302971215" id="-2321">
		<tag k="name" v="Kadlarehaugen" />
		<tag k="natural" v="hill" />
		<tag k="place" v="locality" />
		<tag k="ssr:stedsnr" v="849767" />
	</node>
	<node lat="59.67270277678344" lon="6.329952769005275" id="-2322">
		<tag k="fixme" v="consider natural=peak for the most distinct mountains in the district" />
		<tag k="name" v="Sauanuten" />
		<tag k="natural" v="hill" />
		<tag k="place" v="locality" />
		<tag k="ssr:stedsnr" v="849968" />
	</node>
	<node lat="59.68807499548874" lon="6.3256638851878755" id="-2323">
		<tag k="fixme" v="consider natural=peak for the most distinct mountains in the district" />
		<tag k="name" v="Tengdalsnuten" />
		<tag k="natural" v="hill" />
		<tag k="place" v="locality" />
		<tag k="ssr:stedsnr" v="852930" />
	</node>
	<node lat="59.7089500028364" lon="6.49980277372795" id="-2324">
		<tag k="fixme" v="consider natural=peak for the most distinct mountains in the district" />
		<tag k="name" v="Ørnanuten" />
		<tag k="natural" v="hill" />
		<tag k="place" v="locality" />
		<tag k="ssr:stedsnr" v="852941" />
	</node>
	<node lat="59.64127499984225" lon="6.396933338376458" id="-2327">
		<tag k="fixme" v="consider natural=peak for the most distinct mountains in the district" />
		<tag k="name" v="Engjanuten" />
		<tag k="natural" v="hill" />
		<tag k="place" v="locality" />
		<tag k="ssr:stedsnr" v="853748" />
	</node>
	<node lat="59.66920000070289" lon="6.226519439149879" id="-2334">
		<tag k="fixme" v="consider natural=peak for the most distinct mountains in the district" />
		<tag k="name" v="Jakobsskornutane" />
		<tag k="natural" v="hill" />
		<tag k="place" v="locality" />
		<tag k="ssr:stedsnr" v="853993" />
	</node>
	<node lat="59.827788888629016" lon="6.637024991573706" id="-2336">
		<tag k="fixme" v="consider natural=peak for the most distinct mountains in the district" />
		<tag k="name" v="Sandvassheia" />
		<tag k="natural" v="hill" />
		<tag k="place" v="locality" />
		<tag k="ssr:stedsnr" v="854226" />
	</node>
	<node lat="59.571358337360934" lon="6.319783333999329" id="-2339">
		<tag k="name" v="Lindepadl" />
		<tag k="natural" v="hill" />
		<tag k="place" v="locality" />
		<tag k="ssr:stedsnr" v="964546" />
	</node>
	<node lat="59.58674722007106" lon="6.263669436866662" id="-2341">
		<tag k="fixme" v="consider natural=peak for the most distinct mountains in the district" />
		<tag k="name" v="Skarvanuten" />
		<tag k="natural" v="hill" />
		<tag k="place" v="locality" />
		<tag k="ssr:stedsnr" v="969280" />
	</node>
	<node lat="59.75353055150212" lon="6.647225007609927" id="-2343">
		<tag k="name" v="Frakkhidler" />
		<tag k="natural" v="slope" />
		<tag k="place" v="locality" />
		<tag k="ssr:stedsnr" v="969666" />
	</node>
	<node lat="59.817002778962774" lon="6.634472229987592" id="-2347">
		<tag k="name" v="Tjuaminde" />
		<tag k="natural" v="valley" />
		<tag k="place" v="locality" />
		<tag k="ssr:stedsnr" v="969853" />
	</node>
	<node lat="59.72944444552449" lon="6.358058328050997" id="-2349">
		<tag k="name" v="Lundngrøn" />
		<tag k="place" v="locality" />
		<tag k="ssr:stedsnr" v="970031" />
	</node>
	<node lat="59.719083334338634" lon="6.3970472251561405" id="-2350">
		<tag k="name" v="Nutaleitene" />
		<tag k="place" v="locality" />
		<tag k="ssr:stedsnr" v="970160" />
	</node>
	<node lat="59.68106388618396" lon="6.526777783660301" id="-2351">
		<tag k="alt_name" v="Høgås" />
		<tag k="fixme" v="consider natural=peak for the most distinct mountains in the district" />
		<tag k="name" v="Høgåsen" />
		<tag k="natural" v="hill" />
		<tag k="place" v="locality" />
		<tag k="ssr:stedsnr" v="970076" />
	</node>
	<node lat="59.694177775062634" lon="6.431738896268045" id="-2354">
		<tag k="fixme" v="consider natural=peak for the most distinct mountains in the district" />
		<tag k="name" v="Grasdalsheia" />
		<tag k="natural" v="hill" />
		<tag k="place" v="locality" />
		<tag k="ssr:stedsnr" v="970224" />
	</node>
	<node lat="59.62252005922546" lon="6.476013005196789" id="-2355">
		<tag k="name" v="Indre Sjonarhaug" />
		<tag k="natural" v="hill" />
		<tag k="place" v="locality" />
		<tag k="ssr:stedsnr" v="970397" />
	</node>
	<node lat="59.5986694437187" lon="6.197438892349738" id="-2359">
		<tag k="name" v="Storavassbotnen" />
		<tag k="natural" v="valley" />
		<tag k="place" v="locality" />
		<tag k="ssr:stedsnr" v="970365" />
	</node>
	<node lat="59.60434722284761" lon="6.258480560574519" id="-2360">
		<tag k="name" v="Tuftaheia" />
		<tag k="natural" v="hill" />
		<tag k="place" v="locality" />
		<tag k="ssr:stedsnr" v="970372" />
	</node>
	<node lat="59.59642500321232" lon="6.230838881972795" id="-2361">
		<tag k="name" v="Øvrastølheia" />
		<tag k="natural" v="hill" />
		<tag k="place" v="locality" />
		<tag k="ssr:stedsnr" v="970379" />
	</node>
	<node lat="59.66791666661353" lon="6.337116673085295" id="-2365">
		<tag k="name" v="Skarsli" />
		<tag k="natural" v="slope" />
		<tag k="place" v="locality" />
		<tag k="ssr:stedsnr" v="970690" />
	</node>
	<node lat="59.672350001945226" lon="6.411791659892345" id="-2366">
		<tag k="fixme" v="consider natural=peak for the most distinct mountains in the district" />
		<tag k="name" v="Kvelvåsen" />
		<tag k="natural" v="hill" />
		<tag k="place" v="locality" />
		<tag k="ssr:stedsnr" v="970621" />
	</node>
</osm>
