<?xml version="1.0" encoding="UTF-8"?>
<<<<<<< HEAD
<osm version="0.6" generator="osmapis">
	<node lat="59.773386108291184" lon="6.574408327796451" id="-2864">
		<tag k="name" v="Flota" />
		<tag k="place" v="locality" />
		<tag k="ssr:stedsnr" v="4111" />
	</node>
	<node lat="59.67923611295381" lon="6.494402775228942" id="-2872">
		<tag k="name" v="Mannur" />
		<tag k="natural" v="scree" />
		<tag k="ssr:stedsnr" v="60023" />
	</node>
	<node lat="59.6358277798562" lon="6.3818888806117595" id="-2878">
		<tag k="loc_name" v="Hesjene" />
		<tag k="name" v="Hesjedn" />
=======
<osm generator="osmapis" version="0.6">
	<node id="-35327" lat="59.6763166629" lon="6.52703888204">
		<tag k="historic" v="shieling" />
		<tag k="name" v="Nedre Vårstøl" />
		<tag k="place" v="locality" />
		<tag k="ssr:stedsnr" v="363053" />
	</node>
	<node id="-35709" lat="59.6564416628" lon="6.31759166822">
		<tag k="name" v="Borhammar" />
		<tag k="natural" v="stone" />
		<tag k="ssr:stedsnr" v="849885" />
	</node>
	<node id="-34939" lat="59.677427776" lon="6.61668055111">
		<tag k="name" v="Stovdalsbeitet" />
		<tag k="place" v="locality" />
		<tag k="ssr:stedsnr" v="909045" />
	</node>
	<node id="-34943" lat="59.7038888865" lon="6.43069167302">
		<tag k="name" v="Kjeladn" />
		<tag k="natural" v="wetland" />
		<tag k="ssr:stedsnr" v="909101" />
	</node>
	<node id="-35696" lat="59.6958527815" lon="6.67363056117">
		<tag k="name" v="Storrlegden" />
		<tag k="place" v="locality" />
		<tag k="ssr:stedsnr" v="849441" />
	</node>
	<node id="-34600" lat="59.6186777754" lon="6.28698056307">
		<tag k="name" v="Pokkersura" />
		<tag k="natural" v="scree" />
		<tag k="ssr:stedsnr" v="302720" />
	</node>
	<node id="-35437" lat="59.6604388933" lon="6.28485000341">
		<tag k="loc_name" v="Skeivane" />
		<tag k="name" v="Sjeivadn" />
		<tag k="natural" v="wetland" />
		<tag k="ssr:stedsnr" v="424994" />
	</node>
	<node id="-35051" lat="59.6585138914" lon="6.36927222465">
		<tag k="name" v="Brekkehammaren" />
		<tag k="natural" v="stone" />
		<tag k="ssr:stedsnr" v="970617" />
	</node>
	<node id="-34794" lat="59.6420166625" lon="6.36655277301">
		<tag k="name" v="Hesthammar" />
		<tag k="natural" v="stone" />
		<tag k="ssr:stedsnr" v="484873" />
	</node>
	<node id="-34971" lat="59.6785861141" lon="6.35860276878">
		<tag k="name" v="Ragnasteinen" />
		<tag k="natural" v="stone" />
		<tag k="ssr:stedsnr" v="909968" />
	</node>
	<node id="-35432" lat="59.6709138856" lon="6.42829721873">
		<tag k="name" v="Nipmyrane" />
		<tag k="natural" v="wetland" />
		<tag k="ssr:stedsnr" v="424877" />
	</node>
	<node id="-35409" lat="59.7141861081" lon="6.33000834047">
		<tag k="name" v="Jøsteinen" />
		<tag k="natural" v="stone" />
		<tag k="ssr:stedsnr" v="424092" />
	</node>
	<node id="-35554" lat="59.6535472203" lon="6.33688888344">
		<tag k="name" v="Storemyr" />
		<tag k="natural" v="wetland" />
		<tag k="ssr:stedsnr" v="605887" />
	</node>
	<node id="-34683" lat="59.5836694457" lon="6.28936111533">
		<tag k="name" v="Sømlane" />
		<tag k="natural" v="wetland" />
		<tag k="ssr:stedsnr" v="363266" />
	</node>
	<node id="-34783" lat="59.5925333359" lon="6.28488888757">
		<tag k="loc_name" v="Gyristeinen" />
		<tag k="name" v="Jyristeinen" />
		<tag k="natural" v="stone" />
		<tag k="ssr:stedsnr" v="484276" />
	</node>
	<node id="-35165" lat="59.6201055528" lon="6.36043056035">
		<tag k="name" v="Bogdemyr" />
		<tag k="natural" v="wetland" />
		<tag k="ssr:stedsnr" v="120707" />
	</node>
	<node id="-35676" lat="59.6703916705" lon="6.53916110325">
		<tag k="historic" v="shieling" />
		<tag k="name" v="Øvre Vårstøl" />
		<tag k="place" v="locality" />
		<tag k="ssr:stedsnr" v="849060" />
	</node>
	<node id="-35547" lat="59.6343305549" lon="6.36279165872">
		<tag k="name" v="Løypesmyrane" />
		<tag k="natural" v="wetland" />
		<tag k="ssr:stedsnr" v="605703" />
	</node>
	<node id="-35546" lat="59.6005888931" lon="6.35313611316">
		<tag k="name" v="Malldalsfeltet" />
		<tag k="place" v="locality" />
		<tag k="ssr:stedsnr" v="605676" />
	</node>
	<node id="-34777" lat="59.6842611141" lon="6.41481944059">
		<tag k="name" v="Moltemyr" />
		<tag k="natural" v="wetland" />
		<tag k="ssr:stedsnr" v="484106" />
	</node>
	<node id="-35287" lat="59.7566361153" lon="6.49129443943">
		<tag k="name" v="Torvøyna" />
		<tag k="place" v="locality" />
		<tag k="ssr:stedsnr" v="303501" />
	</node>
	<node id="-34646" lat="59.66597222" lon="6.42270833113">
		<tag k="name" v="Lonarholet" />
		<tag k="natural" v="wetland" />
		<tag k="ssr:stedsnr" v="484888" />
	</node>
	<node id="-34645" lat="59.68108889" lon="6.2806194472">
		<tag k="name" v="Klovsteinane" />
		<tag k="natural" v="stone" />
		<tag k="ssr:stedsnr" v="484976" />
	</node>
	<node id="-35665" lat="59.7425000015" lon="6.52512222245">
		<tag k="historic" v="shieling" />
		<tag k="name" v="Berdalsstølen" />
		<tag k="place" v="locality" />
		<tag k="ssr:stedsnr" v="848585" />
	</node>
	<node id="-35280" lat="59.6699972189" lon="6.42238333577">
		<tag k="name" v="Storemyr" />
		<tag k="natural" v="wetland" />
		<tag k="ssr:stedsnr" v="302879" />
	</node>
	<node id="-34957" lat="59.626286113" lon="6.2838666717">
		<tag k="landuse" v="meadow" />
		<tag k="name" v="Botnen" />
		<tag k="ssr:stedsnr" v="909720" />
	</node>
	<node id="-35281" lat="59.6618083316" lon="6.39795555858">
		<tag k="landuse" v="meadow" />
		<tag k="name" v="Kleivflåta" />
		<tag k="ssr:stedsnr" v="302882" />
	</node>
	<node id="-35013" lat="59.7119222207" lon="6.35032777935">
		<tag k="alt_name" v="Klovsteinane" />
		<tag k="name" v="Klovsteinar" />
		<tag k="natural" v="stone" />
		<tag k="ssr:stedsnr" v="792957" />
	</node>
	<node id="-35139" lat="59.5754777813" lon="6.25503888082">
		<tag k="historic" v="shieling" />
		<tag k="name" v="Vårstøl" />
		<tag k="place" v="locality" />
		<tag k="ssr:stedsnr" v="120277" />
	</node>
	<node id="-35648" lat="59.8013111077" lon="6.50305556229">
		<tag k="name" v="Klovsteinane" />
		<tag k="natural" v="stone" />
		<tag k="ssr:stedsnr" v="793071" />
	</node>
	<node id="-35774" lat="59.6656638868" lon="6.28117777269">
		<tag k="name" v="Dansemyra" />
		<tag k="natural" v="wetland" />
		<tag k="ssr:stedsnr" v="970754" />
	</node>
	<node id="-35004" lat="59.6393583372" lon="6.43642777527">
		<tag k="name" v="Botnen" />
>>>>>>> e1d4bc35ff8a6074a6f2e91616a996b547c36f15
		<tag k="natural" v="wetland" />
		<tag k="ssr:stedsnr" v="60715" />
	</node>
<<<<<<< HEAD
	<node lat="59.66756388808" lon="6.419158327421718" id="-2882">
		<tag k="name" v="Løyningsøyra" />
		<tag k="place" v="locality" />
		<tag k="ssr:stedsnr" v="60907" />
	</node>
	<node lat="59.575477781324" lon="6.255038880817195" id="-2963">
		<tag k="historic" v="shieling" />
		<tag k="name" v="Vårstøl" />
		<tag k="place" v="locality" />
		<tag k="ssr:stedsnr" v="120277" />
	</node>
	<node lat="59.721330555050564" lon="6.425405552803936" id="-3017">
=======
	<node id="-35093" lat="59.6304805594" lon="6.27474443576">
		<tag k="name" v="Lindvollsmyrane" />
		<tag k="natural" v="wetland" />
		<tag k="ssr:stedsnr" v="60483" />
	</node>
	<node id="-34741" lat="59.6447527745" lon="6.32283888137">
		<tag k="name" v="Grønsdalsmyra" />
		<tag k="natural" v="wetland" />
		<tag k="ssr:stedsnr" v="666914" />
	</node>
	<node id="-35762" lat="59.6149250044" lon="6.3490444441">
		<tag k="name" v="Lanasteinen" />
		<tag k="natural" v="stone" />
		<tag k="ssr:stedsnr" v="970270" />
	</node>
	<node id="-34480" lat="59.7213305551" lon="6.4254055528">
>>>>>>> e1d4bc35ff8a6074a6f2e91616a996b547c36f15
		<tag k="name" v="Fjotedn" />
		<tag k="natural" v="wetland" />
		<tag k="ssr:stedsnr" v="242094" />
	</node>
<<<<<<< HEAD
	<node lat="59.66999721894885" lon="6.422383335765587" id="-3050">
		<tag k="name" v="Storemyr" />
		<tag k="natural" v="wetland" />
		<tag k="ssr:stedsnr" v="302879" />
	</node>
	<node lat="59.661808331585284" lon="6.39795555858031" id="-3051">
		<tag k="landuse" v="meadow" />
		<tag k="name" v="Kleivflåta" />
		<tag k="ssr:stedsnr" v="302882" />
	</node>
	<node lat="59.756636115327794" lon="6.491294439430056" id="-3054">
		<tag k="name" v="Torvøyna" />
		<tag k="place" v="locality" />
		<tag k="ssr:stedsnr" v="303501" />
	</node>
	<node lat="59.730666664494116" lon="6.351877785053421" id="-3056">
		<tag k="name" v="Vargura" />
		<tag k="natural" v="scree" />
		<tag k="ssr:stedsnr" v="303531" />
	</node>
	<node lat="59.60583333514802" lon="6.37762777040507" id="-3085">
		<tag k="name" v="Storamyr" />
		<tag k="natural" v="wetland" />
		<tag k="ssr:stedsnr" v="363626" />
	</node>
	<node lat="59.68426111408872" lon="6.41481944059086" id="-3104">
		<tag k="name" v="Moltemyr" />
		<tag k="natural" v="wetland" />
		<tag k="ssr:stedsnr" v="484106" />
	</node>
	<node lat="59.64201666245342" lon="6.366552773013211" id="-3116">
		<tag k="name" v="Hesthammar" />
=======
	<node id="-35677" lat="59.6421500041" lon="6.49099444707">
		<tag k="name" v="Holmen" />
		<tag k="natural" v="wetland" />
		<tag k="ssr:stedsnr" v="849069" />
	</node>
	<node id="-35101" lat="59.6358277799" lon="6.38188888061">
		<tag k="loc_name" v="Hesjene" />
		<tag k="name" v="Hesjedn" />
		<tag k="natural" v="wetland" />
		<tag k="ssr:stedsnr" v="60715" />
	</node>
	<node id="-34859" lat="59.6488416704" lon="6.35698332482">
		<tag k="name" v="Åbøland" />
		<tag k="place" v="locality" />
		<tag k="ssr:stedsnr" v="727871" />
	</node>
	<node id="-35497" lat="59.6668805546" lon="6.35957778594">
		<tag k="name" v="Tellhammar" />
>>>>>>> e1d4bc35ff8a6074a6f2e91616a996b547c36f15
		<tag k="natural" v="stone" />
		<tag k="ssr:stedsnr" v="484873" />
	</node>
<<<<<<< HEAD
	<node lat="59.66597222000534" lon="6.422708331126508" id="-3119">
		<tag k="name" v="Lonarholet" />
		<tag k="natural" v="wetland" />
		<tag k="ssr:stedsnr" v="484888" />
	</node>
	<node lat="59.66190555519141" lon="6.288352784811973" id="-3120">
		<tag k="loc_name" v="Holene" />
		<tag k="name" v="Holedn" />
		<tag k="natural" v="wetland" />
		<tag k="ssr:stedsnr" v="484993" />
	</node>
	<node lat="59.59253333591807" lon="6.284888887565724" id="-3179">
		<tag k="loc_name" v="Gyristeinen" />
		<tag k="name" v="Jyristeinen" />
		<tag k="natural" v="stone" />
		<tag k="ssr:stedsnr" v="484276" />
	</node>
	<node lat="59.6810888899991" lon="6.2806194471997365" id="-3195">
		<tag k="name" v="Klovsteinane" />
=======
	<node id="-35496" lat="59.679336113" lon="6.35934166872">
		<tag k="name" v="Idlur" />
		<tag k="natural" v="scree" />
		<tag k="ssr:stedsnr" v="545941" />
	</node>
	<node id="-35111" lat="59.6675638881" lon="6.41915832742">
		<tag k="name" v="Løyningsøyra" />
		<tag k="place" v="locality" />
		<tag k="ssr:stedsnr" v="60907" />
	</node>
	<node id="-35749" lat="59.7027805517" lon="6.35107776995">
		<tag k="name" v="Storemyr" />
		<tag k="natural" v="wetland" />
		<tag k="ssr:stedsnr" v="970118" />
	</node>
	<node id="-34724" lat="59.5896222211" lon="6.28438055463">
		<tag k="name" v="Tronsteinen" />
>>>>>>> e1d4bc35ff8a6074a6f2e91616a996b547c36f15
		<tag k="natural" v="stone" />
		<tag k="ssr:stedsnr" v="484976" />
	</node>
<<<<<<< HEAD
	<node lat="59.634330554916644" lon="6.362791658720858" id="-3246">
		<tag k="name" v="Løypesmyrane" />
=======
	<node id="-34649" lat="59.6619055552" lon="6.28835278481">
		<tag k="loc_name" v="Holene" />
		<tag k="name" v="Holedn" />
		<tag k="natural" v="wetland" />
		<tag k="ssr:stedsnr" v="484993" />
	</node>
	<node id="-35105" lat="59.6094416654" lon="6.26793888893">
		<tag k="name" v="Viermyr" />
>>>>>>> e1d4bc35ff8a6074a6f2e91616a996b547c36f15
		<tag k="natural" v="wetland" />
		<tag k="ssr:stedsnr" v="605703" />
	</node>
<<<<<<< HEAD
	<node lat="59.64884167043766" lon="6.356983324824208" id="-3315">
		<tag k="name" v="Åbøland" />
		<tag k="place" v="locality" />
		<tag k="ssr:stedsnr" v="727871" />
	</node>
	<node lat="59.699147220366896" lon="6.329197221487653" id="-3335">
		<tag k="historic" v="shieling" />
		<tag k="name" v="Heiastøl" />
		<tag k="place" v="locality" />
		<tag k="ssr:stedsnr" v="970180" />
	</node>
	<node lat="59.67742777598264" lon="6.616680551109293" id="-3344">
		<tag k="name" v="Stovdalsbeitet" />
		<tag k="place" v="locality" />
		<tag k="ssr:stedsnr" v="909045" />
	</node>
	<node lat="59.60349999807532" lon="6.3310138891367105" id="-3354">
		<tag k="name" v="Gråurene" />
		<tag k="natural" v="scree" />
		<tag k="ssr:stedsnr" v="909693" />
	</node>
	<node lat="59.678586114110985" lon="6.358602768780169" id="-3358">
		<tag k="name" v="Ragnasteinen" />
		<tag k="natural" v="stone" />
		<tag k="ssr:stedsnr" v="909968" />
	</node>
	<node lat="59.63935833718705" lon="6.436427775272645" id="-3372">
		<tag k="name" v="Botnen" />
		<tag k="natural" v="wetland" />
		<tag k="ssr:stedsnr" v="788003" />
	</node>
	<node lat="59.63342222100424" lon="6.379255546912026" id="-3375">
		<tag k="name" v="Napamyra" />
		<tag k="natural" v="wetland" />
		<tag k="ssr:stedsnr" v="788705" />
	</node>
	<node lat="59.656441662761644" lon="6.317591668221333" id="-3433">
		<tag k="name" v="Borhammar" />
		<tag k="natural" v="stone" />
		<tag k="ssr:stedsnr" v="849885" />
	</node>
	<node lat="59.70388888645216" lon="6.430691673018625" id="-3460">
		<tag k="name" v="Kjeladn" />
=======
	<node id="-35745" lat="59.6991472204" lon="6.32919722149">
		<tag k="historic" v="shieling" />
		<tag k="name" v="Heiastøl" />
		<tag k="place" v="locality" />
		<tag k="ssr:stedsnr" v="970180" />
	</node>
	<node id="-34847" lat="59.7016861141" lon="6.3347722166">
		<tag k="name" v="Kvamsura" />
		<tag k="natural" v="scree" />
		<tag k="ssr:stedsnr" v="727123" />
	</node>
	<node id="-35613" lat="59.7235333343" lon="6.34514722997">
		<tag k="name" v="Flotebogjen" />
		<tag k="natural" v="wetland" />
		<tag k="ssr:stedsnr" v="788083" />
	</node>
	<node id="-35355" lat="59.6746416655" lon="6.27995277773">
		<tag k="historic" v="shieling" />
		<tag k="name" v="Litlastøl" />
		<tag k="place" v="locality" />
		<tag k="ssr:stedsnr" v="363968" />
	</node>
	<node id="-35109" lat="59.645277778" lon="6.36335278096">
		<tag k="name" v="Klubben" />
		<tag k="place" v="locality" />
		<tag k="ssr:stedsnr" v="60891" />
	</node>
	<node id="-35045" lat="59.6340138873" lon="6.55539721892">
		<tag k="name" v="Skaulafonna" />
		<tag k="natural" v="glacier" />
		<tag k="ssr:stedsnr" v="966666" />
	</node>
	<node id="-35289" lat="59.7306666645" lon="6.35187778505">
		<tag k="name" v="Vargura" />
		<tag k="natural" v="scree" />
		<tag k="ssr:stedsnr" v="303531" />
	</node>
	<node id="-35091" lat="59.5754055584" lon="6.26529999679">
		<tag k="name" v="Fagradal" />
		<tag k="natural" v="wetland" />
		<tag k="ssr:stedsnr" v="60268" />
	</node>
	<node id="-35346" lat="59.6058333351" lon="6.37762777041">
		<tag k="name" v="Storamyr" />
>>>>>>> e1d4bc35ff8a6074a6f2e91616a996b547c36f15
		<tag k="natural" v="wetland" />
		<tag k="ssr:stedsnr" v="909101" />
	</node>
<<<<<<< HEAD
	<node lat="59.62628611298245" lon="6.283866671700533" id="-3470">
		<tag k="landuse" v="meadow" />
		<tag k="name" v="Botnen" />
		<tag k="ssr:stedsnr" v="909720" />
	</node>
	<node lat="59.605561115422084" lon="6.268413883688547" id="-3473">
=======
	<node id="-35217" lat="59.7177805578" lon="6.34857499216">
		<tag k="name" v="Kraggamyra" />
		<tag k="natural" v="wetland" />
		<tag k="ssr:stedsnr" v="181084" />
	</node>
	<node id="-34960" lat="59.6055611154" lon="6.26841388369">
>>>>>>> e1d4bc35ff8a6074a6f2e91616a996b547c36f15
		<tag k="name" v="Litla Viermyra" />
		<tag k="natural" v="wetland" />
		<tag k="ssr:stedsnr" v="909726" />
	</node>
<<<<<<< HEAD
	<node lat="59.72471666772096" lon="6.462252773815064" id="-3498">
=======
	<node id="-35471" lat="59.7183305544" lon="6.56137778034">
>>>>>>> e1d4bc35ff8a6074a6f2e91616a996b547c36f15
		<tag k="historic" v="shieling" />
		<tag k="name" v="Gamlestøl" />
		<tag k="place" v="locality" />
		<tag k="ssr:stedsnr" v="970146" />
	</node>
<<<<<<< HEAD
	<node lat="59.66566388681445" lon="6.281177772689023" id="-3509">
		<tag k="name" v="Dansemyra" />
		<tag k="natural" v="wetland" />
		<tag k="ssr:stedsnr" v="970754" />
	</node>
	<node lat="59.65851389140329" lon="6.369272224646761" id="-3510">
		<tag k="name" v="Brekkehammaren" />
		<tag k="natural" v="stone" />
		<tag k="ssr:stedsnr" v="970617" />
	</node>
	<node lat="59.60944166537256" lon="6.267938888926834" id="-3532">
		<tag k="name" v="Viermyr" />
		<tag k="natural" v="wetland" />
		<tag k="ssr:stedsnr" v="60742" />
	</node>
	<node lat="59.575405558449226" lon="6.265299996791086" id="-3540">
		<tag k="name" v="Fagradal" />
		<tag k="natural" v="wetland" />
		<tag k="ssr:stedsnr" v="60268" />
	</node>
	<node lat="59.630480559354226" lon="6.2747444357644895" id="-3541">
		<tag k="name" v="Lindvollsmyrane" />
		<tag k="natural" v="wetland" />
		<tag k="ssr:stedsnr" v="60483" />
	</node>
	<node lat="59.64527777804614" lon="6.363352780960377" id="-3546">
		<tag k="name" v="Klubben" />
=======
	<node id="-35629" lat="59.633422221" lon="6.37925554691">
		<tag k="name" v="Napamyra" />
		<tag k="natural" v="wetland" />
		<tag k="ssr:stedsnr" v="788705" />
	</node>
	<node id="-34956" lat="59.6034999981" lon="6.33101388914">
		<tag k="name" v="Gråurene" />
		<tag k="natural" v="scree" />
		<tag k="ssr:stedsnr" v="909693" />
	</node>
	<node id="-35081" lat="59.679236113" lon="6.49440277523">
		<tag k="name" v="Mannur" />
		<tag k="natural" v="scree" />
		<tag k="ssr:stedsnr" v="60023" />
	</node>
	<node id="-35752" lat="59.7247166677" lon="6.46225277382">
		<tag k="historic" v="shieling" />
		<tag k="name" v="Gamlestøl" />
		<tag k="place" v="locality" />
		<tag k="ssr:stedsnr" v="970146" />
	</node>
	<node id="-34823" lat="59.644905556" lon="6.25941110396">
		<tag k="historic" v="shieling" />
		<tag k="name" v="Jorunstøl" />
		<tag k="place" v="locality" />
		<tag k="ssr:stedsnr" v="605977" />
	</node>
	<node id="-35073" lat="59.7733861083" lon="6.5744083278">
		<tag k="name" v="Flota" />
>>>>>>> e1d4bc35ff8a6074a6f2e91616a996b547c36f15
		<tag k="place" v="locality" />
		<tag k="ssr:stedsnr" v="60891" />
	</node>
<<<<<<< HEAD
	<node lat="59.620105552847605" lon="6.360430560345777" id="-3589">
		<tag k="name" v="Bogdemyr" />
		<tag k="natural" v="wetland" />
		<tag k="ssr:stedsnr" v="120707" />
	</node>
	<node lat="59.717780557842616" lon="6.34857499215841" id="-3624">
		<tag k="name" v="Kraggamyra" />
		<tag k="natural" v="wetland" />
		<tag k="ssr:stedsnr" v="181084" />
	</node>
	<node lat="59.61867777544883" lon="6.286980563070313" id="-3687">
		<tag k="name" v="Pokkersura" />
		<tag k="natural" v="scree" />
		<tag k="ssr:stedsnr" v="302720" />
	</node>
	<node lat="59.67631666288619" lon="6.527038882043292" id="-3723">
		<tag k="historic" v="shieling" />
		<tag k="name" v="Nedre Vårstøl" />
		<tag k="place" v="locality" />
		<tag k="ssr:stedsnr" v="363053" />
	</node>
	<node lat="59.58366944572361" lon="6.289361115332207" id="-3732">
		<tag k="name" v="Sømlane" />
		<tag k="natural" v="wetland" />
		<tag k="ssr:stedsnr" v="363266" />
	</node>
	<node lat="59.674641665546886" lon="6.279952777727465" id="-3758">
		<tag k="historic" v="shieling" />
		<tag k="name" v="Litlastøl" />
		<tag k="place" v="locality" />
		<tag k="ssr:stedsnr" v="363968" />
	</node>
	<node lat="59.714186108052616" lon="6.3300083404682" id="-3801">
		<tag k="name" v="Jøsteinen" />
		<tag k="natural" v="stone" />
		<tag k="ssr:stedsnr" v="424092" />
	</node>
	<node lat="59.670913885641774" lon="6.428297218726596" id="-3817">
		<tag k="name" v="Nipmyrane" />
		<tag k="natural" v="wetland" />
		<tag k="ssr:stedsnr" v="424877" />
	</node>
	<node lat="59.660438893269195" lon="6.284850003411045" id="-3822">
		<tag k="loc_name" v="Skeivane" />
		<tag k="name" v="Sjeivadn" />
		<tag k="natural" v="wetland" />
		<tag k="ssr:stedsnr" v="424994" />
	</node>
	<node lat="59.71833055442723" lon="6.561377780339214" id="-3855">
		<tag k="historic" v="shieling" />
		<tag k="name" v="Tjødnestølen" />
		<tag k="place" v="locality" />
		<tag k="ssr:stedsnr" v="545175" />
	</node>
	<node lat="59.679336112958964" lon="6.359341668722063" id="-3876">
		<tag k="name" v="Idlur" />
		<tag k="natural" v="scree" />
		<tag k="ssr:stedsnr" v="545941" />
	</node>
	<node lat="59.66688055461895" lon="6.359577785941163" id="-3877">
		<tag k="name" v="Tellhammar" />
		<tag k="natural" v="stone" />
		<tag k="ssr:stedsnr" v="545947" />
	</node>
	<node lat="59.6005888931339" lon="6.353136113162438" id="-3917">
		<tag k="alt_name" v="Malldalsfeltet" />
		<tag k="name" v="Malldalsleitet" />
		<tag k="place" v="locality" />
		<tag k="ssr:stedsnr" v="605676" />
	</node>
	<node lat="59.65354722028417" lon="6.336888883444878" id="-3923">
		<tag k="name" v="Storemyr" />
		<tag k="natural" v="wetland" />
		<tag k="ssr:stedsnr" v="605887" />
	</node>
	<node lat="59.644905555962346" lon="6.259411103961825" id="-3928">
		<tag k="historic" v="shieling" />
		<tag k="name" v="Jorunstøl" />
		<tag k="place" v="locality" />
		<tag k="ssr:stedsnr" v="605977" />
	</node>
	<node lat="59.589622221123385" lon="6.28438055463361" id="-3970">
		<tag k="name" v="Tronsteinen" />
		<tag k="natural" v="stone" />
		<tag k="ssr:stedsnr" v="666296" />
	</node>
	<node lat="59.644752774546184" lon="6.322838881365054" id="-3975">
		<tag k="name" v="Grønsdalsmyra" />
		<tag k="natural" v="wetland" />
		<tag k="ssr:stedsnr" v="666914" />
	</node>
	<node lat="59.701686114081845" lon="6.334772216598607" id="-4008">
		<tag k="name" v="Kvamsura" />
		<tag k="natural" v="scree" />
		<tag k="ssr:stedsnr" v="727123" />
	</node>
	<node lat="59.723533334300875" lon="6.345147229968692" id="-4060">
		<tag k="name" v="Flotebogjen" />
		<tag k="natural" v="wetland" />
		<tag k="ssr:stedsnr" v="788083" />
	</node>
	<node lat="59.80131110770494" lon="6.5030555622907515" id="-4088">
		<tag k="name" v="Klovsteinane" />
		<tag k="natural" v="stone" />
		<tag k="ssr:stedsnr" v="793071" />
	</node>
	<node lat="59.71192222071517" lon="6.35032777935263" id="-4091">
		<tag k="alt_name" v="Klovsteinane" />
		<tag k="name" v="Klovsteinar" />
		<tag k="natural" v="stone" />
		<tag k="ssr:stedsnr" v="792957" />
	</node>
	<node lat="59.74250000145437" lon="6.525122222453023" id="-4110">
		<tag k="historic" v="shieling" />
		<tag k="name" v="Berdalsstølen" />
		<tag k="place" v="locality" />
		<tag k="ssr:stedsnr" v="848585" />
	</node>
	<node lat="59.670391670529945" lon="6.539161103249448" id="-4116">
		<tag k="historic" v="shieling" />
		<tag k="name" v="Øvre Vårstøl" />
		<tag k="place" v="locality" />
		<tag k="ssr:stedsnr" v="849060" />
	</node>
	<node lat="59.64215000414379" lon="6.490994447070932" id="-4117">
		<tag k="name" v="Holmen" />
		<tag k="natural" v="wetland" />
		<tag k="ssr:stedsnr" v="849069" />
	</node>
	<node lat="59.69585278152415" lon="6.673630561165131" id="-4124">
		<tag k="name" v="Storrlegden" />
		<tag k="place" v="locality" />
		<tag k="ssr:stedsnr" v="849441" />
	</node>
	<node lat="59.63401388730767" lon="6.555397218917776" id="-4146">
		<tag k="name" v="Skaulafonna" />
		<tag k="natural" v="glacier" />
		<tag k="ssr:stedsnr" v="966666" />
	</node>
	<node lat="59.70278055170231" lon="6.351077769947338" id="-4158">
		<tag k="name" v="Storemyr" />
		<tag k="natural" v="wetland" />
		<tag k="ssr:stedsnr" v="970118" />
	</node>
	<node lat="59.61492500440413" lon="6.349044444101588" id="-4162">
		<tag k="name" v="Lanasteinen" />
		<tag k="natural" v="stone" />
		<tag k="ssr:stedsnr" v="970270" />
	</node>
=======
>>>>>>> e1d4bc35ff8a6074a6f2e91616a996b547c36f15
</osm>
