<?xml version="1.0" encoding="UTF-8"?>
<<<<<<< HEAD
<osm version="0.6" generator="osmapis">
	<node lat="59.62502500434025" lon="6.290655547098066" id="-2855">
		<tag k="name" v="Svandalsfossen" />
		<tag k="natural" v="waterfall" />
		<tag k="ssr:stedsnr" v="3773" />
	</node>
	<node lat="59.609524999502824" lon="6.45642499227254" id="-2856">
		<tag k="alt_name" v="Skarstølstjørna" />
		<tag k="name" v="Skardsstølsvatnet" />
		<tag k="natural" v="water" />
		<tag k="ssr:stedsnr" v="3777" />
		<tag k="water" v="lake" />
	</node>
	<node lat="59.732111109975705" lon="6.299175001631261" id="-2859">
		<tag k="alt_name" v="Nordskarelva" />
		<tag k="name" v="Nordskardelva" />
		<tag k="ssr:stedsnr" v="3917" />
		<tag k="waterway" v="stream" />
	</node>
	<node lat="59.72758055564435" lon="6.5800749997696455" id="-2860">
		<tag k="name" v="Midtvatnet" />
		<tag k="natural" v="water" />
		<tag k="ssr:stedsnr" v="3967" />
		<tag k="water" v="lake" />
	</node>
	<node lat="59.64624166942659" lon="6.463677773681871" id="-2873">
		<tag k="name" v="Veabekken" />
		<tag k="ssr:stedsnr" v="60073" />
		<tag k="waterway" v="stream" />
	</node>
	<node lat="59.62780209261216" lon="6.39023439656982" id="-2877">
		<tag k="name" v="Indra Tjelmavatnet" />
		<tag k="natural" v="water" />
		<tag k="ssr:stedsnr" v="60713" />
		<tag k="water" v="lake" />
	</node>
	<node lat="59.66541389212777" lon="6.413997215059115" id="-2881">
		<tag k="name" v="Saghølen" />
		<tag k="place" v="locality" />
		<tag k="ssr:stedsnr" v="60906" />
	</node>
	<node lat="59.61010379926849" lon="6.339557226455095" id="-2884">
		<tag k="fixme" v="multiple name tags, choose one and add the other to alt_name" />
		<tag k="name" v="Hekkanstjørna;Kviatjørna" />
		<tag k="natural" v="water" />
		<tag k="ssr:stedsnr" v="63785" />
	</node>
	<node lat="59.614336109868205" lon="6.196163887188601" id="-2885">
		<tag k="alt_name" v="Ravnafjellvatnet" />
		<tag k="name" v="Ramnafjellvatnet" />
		<tag k="natural" v="water" />
		<tag k="ssr:stedsnr" v="64543" />
		<tag k="water" v="lake" />
	</node>
	<node lat="59.66771529773779" lon="6.577040033550593" id="-2894">
		<tag k="alt_name" v="Dokkjavatnet" />
		<tag k="name" v="Dokkavatnet" />
=======
<osm generator="osmapis" version="0.6">
	<node id="-34816" lat="59.6614111148" lon="6.23464166116">
		<tag k="loc_name" v="Nedra Jakobsskorvatnet" />
		<tag k="name" v="Nedra Jakobskårvatnet" />
		<tag k="natural" v="water" />
		<tag k="ssr:stedsnr" v="605761" />
		<tag k="water" v="lake" />
	</node>
	<node id="-35326" lat="59.6745388871" lon="6.54765000246">
		<tag k="name" v="Fjellvasselva" />
		<tag k="ssr:stedsnr" v="363050" />
		<tag k="waterway" v="river" />
	</node>
	<node id="-34813" lat="59.7218861139" lon="6.46963611116">
		<tag k="name" v="Vilandsbekken" />
		<tag k="ssr:stedsnr" v="605174" />
		<tag k="waterway" v="stream" />
	</node>
	<node id="-34809" lat="59.6776916681" lon="6.2162888836">
		<tag k="name" v="Andra Garlagvatnet" />
		<tag k="natural" v="water" />
		<tag k="ssr:stedsnr" v="705659" />
		<tag k="water" v="lake" />
	</node>
	<node id="-35320" lat="59.5959333305" lon="6.28241666119">
		<tag k="alt_name" v="Hongavikfossen" />
		<tag k="name" v="Hangandvikfossen" />
		<tag k="natural" v="waterfall" />
		<tag k="ssr:stedsnr" v="342558" />
	</node>
	<node id="-34805" lat="59.6300833376" lon="6.43213056069">
		<tag k="name" v="Finnabuelva" />
		<tag k="ssr:stedsnr" v="545612" />
		<tag k="waterway" v="river" />
	</node>
	<node id="-34803" lat="59.6514499988" lon="6.43545000505">
		<tag k="name" v="Øvra Svortetjørn" />
>>>>>>> e1d4bc35ff8a6074a6f2e91616a996b547c36f15
		<tag k="natural" v="water" />
		<tag k="ssr:stedsnr" v="545051" />
	</node>
<<<<<<< HEAD
	<node lat="59.660538888505435" lon="6.446777769539177" id="-2904">
		<tag k="name" v="Storlibekken" />
		<tag k="ssr:stedsnr" v="242027" />
		<tag k="waterway" v="stream" />
	</node>
	<node lat="59.720905552677394" lon="6.485950001679845" id="-2910">
		<tag k="name" v="Buershaugen" />
		<tag k="place" v="islet" />
		<tag k="ssr:stedsnr" v="242125" />
	</node>
	<node lat="59.60790278121067" lon="6.363816669808358" id="-2916">
		<tag k="name" v="Storeholmen" />
		<tag k="place" v="islet" />
		<tag k="ssr:stedsnr" v="242634" />
	</node>
	<node lat="59.626438832598154" lon="6.385548663538048" id="-2917">
		<tag k="name" v="Ytra Tjelmavatnet" />
		<tag k="natural" v="water" />
		<tag k="ssr:stedsnr" v="242685" />
		<tag k="water" v="lake" />
	</node>
	<node lat="59.61628333064113" lon="6.230888893177422" id="-2920">
		<tag k="loc_name" v="Rundatjørna" />
		<tag k="name" v="Runda Tjødnå" />
		<tag k="natural" v="water" />
		<tag k="ssr:stedsnr" v="242714" />
	</node>
	<node lat="59.66121979211917" lon="6.349023919447205" id="-2929">
		<tag k="loc_name" v="Høllandstjørna" />
		<tag k="name" v="Høllandstjørne" />
		<tag k="natural" v="water" />
		<tag k="ssr:stedsnr" v="242963" />
	</node>
	<node lat="59.624628385858784" lon="6.468481787097284" id="-2932">
		<tag k="alt_name" v="Svartavatn" />
		<tag k="name" v="Svartavatnet" />
		<tag k="natural" v="water" />
		<tag k="ssr:stedsnr" v="245767" />
		<tag k="water" v="lake" />
	</node>
	<node lat="59.614550002218905" lon="6.379602774946136" id="-2934">
		<tag k="name" v="Krokavatnet" />
		<tag k="natural" v="water" />
		<tag k="ssr:stedsnr" v="245776" />
		<tag k="water" v="lake" />
	</node>
	<node lat="59.69459721997365" lon="6.538622213768216" id="-2937">
		<tag k="alt_name" v="Lona, øvra;Øvra Lonå" />
		<tag k="name" v="Øvra Lona" />
		<tag k="natural" v="water" />
		<tag k="ssr:stedsnr" v="245990" />
	</node>
	<node lat="59.78080203403574" lon="6.3863992414529225" id="-2944">
		<tag k="alt_name" v="Borgedalsvatnet, øvre;Øvra Bergedalsvatnet" />
		<tag k="name" v="Øvra Borgedalsvatnet" />
		<tag k="natural" v="water" />
		<tag k="ssr:stedsnr" v="246068" />
		<tag k="water" v="lake" />
	</node>
	<node lat="59.612894442435845" lon="6.493530519550032" id="-2949">
		<tag k="name" v="Storebotnsvatnet" />
		<tag k="natural" v="water" />
		<tag k="ssr:stedsnr" v="246816" />
		<tag k="water" v="lake" />
	</node>
	<node lat="59.59196420817485" lon="6.2570631501310645" id="-2950">
		<tag k="alt_name" v="Svartavatnet, nedre" />
		<tag k="name" v="Nedra Svartavatnet" />
		<tag k="natural" v="water" />
		<tag k="ssr:stedsnr" v="246826" />
		<tag k="water" v="lake" />
	</node>
	<node lat="59.83489166501982" lon="6.612977774771972" id="-2955">
		<tag k="name" v="Steinatjørnane" />
		<tag k="natural" v="water" />
		<tag k="ssr:stedsnr" v="247226" />
		<tag k="water" v="lake" />
	</node>
	<node lat="59.780924997695955" lon="6.487386102731722" id="-2966">
		<tag k="name" v="Reinakvamelva" />
		<tag k="ssr:stedsnr" v="120635" />
		<tag k="waterway" v="river" />
	</node>
	<node lat="59.77571666615975" lon="6.428430548014789" id="-2967">
		<tag k="name" v="Grotbottjørna" />
		<tag k="natural" v="water" />
		<tag k="ssr:stedsnr" v="120651" />
	</node>
	<node lat="59.59794722112143" lon="6.361975005856362" id="-2968">
		<tag k="name" v="Ljomartjørnene" />
		<tag k="natural" v="water" />
		<tag k="ssr:stedsnr" v="120667" />
		<tag k="water" v="lake" />
	</node>
	<node lat="59.62560856725996" lon="6.399334919756274" id="-2977">
		<tag k="alt_name" v="Lomartjørnene" />
		<tag k="name" v="Lomatjørna" />
		<tag k="natural" v="water" />
		<tag k="ssr:stedsnr" v="124750" />
		<tag k="water" v="lake" />
	</node>
	<node lat="59.69288055317612" lon="6.382002776077466" id="-2991">
		<tag k="name" v="Øvra Stutatjørn" />
		<tag k="natural" v="water" />
		<tag k="ssr:stedsnr" v="181125" />
	</node>
	<node lat="59.68946666498859" lon="6.36670278673443" id="-2992">
		<tag k="name" v="Jimlebekken" />
		<tag k="ssr:stedsnr" v="181126" />
		<tag k="waterway" v="stream" />
	</node>
	<node lat="59.717931198991415" lon="6.531527936235424" id="-3006">
		<tag k="alt_name" v="Stora Ukkendalstjørna" />
		<tag k="name" v="Ukkendalstjørna" />
		<tag k="natural" v="water" />
		<tag k="ssr:stedsnr" v="185951" />
		<tag k="water" v="lake" />
	</node>
	<node lat="59.7512694454511" lon="6.352436113714885" id="-3007">
		<tag k="name" v="Løyndardalselva" />
		<tag k="ssr:stedsnr" v="186110" />
		<tag k="waterway" v="stream" />
	</node>
	<node lat="59.68353055741656" lon="6.288791663984655" id="-3016">
		<tag k="name" v="Geitafossen" />
=======
	<node id="-34802" lat="59.6676611092" lon="6.47122221475">
		<tag k="name" v="Stemtjørn" />
		<tag k="natural" v="water" />
		<tag k="ssr:stedsnr" v="545026" />
	</node>
	<node id="-35311" lat="59.6798111149" lon="6.61263611882">
		<tag k="name" v="Øytjørn" />
		<tag k="natural" v="water" />
		<tag k="ssr:stedsnr" v="307246" />
	</node>
	<node id="-35068" lat="59.7275805556" lon="6.58007499977">
		<tag k="name" v="Midtvatnet" />
		<tag k="natural" v="water" />
		<tag k="ssr:stedsnr" v="3967" />
		<tag k="water" v="lake" />
	</node>
	<node id="-34789" lat="59.7617777755" lon="6.34025833259">
		<tag k="name" v="Viabottselva" />
		<tag k="ssr:stedsnr" v="484516" />
		<tag k="waterway" v="river" />
	</node>
	<node id="-35299" lat="59.5928749972" lon="6.20778888421">
		<tag k="name" v="Storavatnet" />
		<tag k="natural" v="water" />
		<tag k="ssr:stedsnr" v="306542" />
		<tag k="water" v="lake" />
	</node>
	<node id="-35295" lat="59.6461916708" lon="6.21179167494">
		<tag k="name" v="Bakkavassvika" />
		<tag k="natural" v="bay" />
		<tag k="ssr:stedsnr" v="303983" />
	</node>
	<node id="-34778" lat="59.6986155646" lon="6.49283860485">
		<tag k="name" v="Bakkatjørna" />
		<tag k="natural" v="water" />
		<tag k="ssr:stedsnr" v="484113" />
	</node>
	<node id="-35663" lat="59.628388892" lon="6.51089444452">
		<tag k="name" v="Breikvamselva" />
		<tag k="ssr:stedsnr" v="845688" />
		<tag k="waterway" v="river" />
	</node>
	<node id="-34980" lat="59.6587888851" lon="6.34821110263">
		<tag k="name" v="Fløgstadtjørna" />
		<tag k="natural" v="water" />
		<tag k="ssr:stedsnr" v="910892" />
	</node>
	<node id="-35065" lat="59.73211111" lon="6.29917500163">
		<tag k="alt_name" v="Nordskarelva" />
		<tag k="name" v="Nordskardelva" />
		<tag k="ssr:stedsnr" v="3917" />
		<tag k="waterway" v="stream" />
	</node>
	<node id="-34770" lat="59.7587499981" lon="6.6488638833">
		<tag k="name" v="Kvelvabekken" />
		<tag k="ssr:stedsnr" v="671789" />
		<tag k="waterway" v="stream" />
	</node>
	<node id="-34769" lat="59.7843949921" lon="6.62730274145">
		<tag k="name" v="Istjørna" />
		<tag k="natural" v="water" />
		<tag k="ssr:stedsnr" v="671779" />
	</node>
	<node id="-34766" lat="59.6873055524" lon="6.41788333323">
		<tag k="name" v="Bergaelva" />
		<tag k="ssr:stedsnr" v="670999" />
		<tag k="waterway" v="river" />
	</node>
	<node id="-34765" lat="59.6961972195" lon="6.52786110931">
		<tag k="alt_name" v="Lona, nedra;Nedra Lonå" />
		<tag k="name" v="Nedra Lona" />
		<tag k="natural" v="water" />
		<tag k="ssr:stedsnr" v="670997" />
	</node>
	<node id="-34764" lat="59.6755861078" lon="6.42267500055">
		<tag k="name" v="Fivelandselva" />
		<tag k="ssr:stedsnr" v="670993" />
		<tag k="waterway" v="stream" />
	</node>
	<node id="-34763" lat="59.6724738878" lon="6.56569977728">
		<tag k="alt_name" v="Fjellvatnet, nedre;Nedre Fjellvatnet" />
		<tag k="name" v="Nedra Fjellvatnet" />
		<tag k="natural" v="water" />
		<tag k="ssr:stedsnr" v="670982" />
		<tag k="water" v="lake" />
	</node>
	<node id="-34761" lat="59.7004018426" lon="6.39410583257">
		<tag k="name" v="Annanutvatnet" />
		<tag k="natural" v="water" />
		<tag k="ssr:stedsnr" v="670956" />
		<tag k="water" v="lake" />
	</node>
	<node id="-35784" lat="59.724726333" lon="6.65624662238">
		<tag k="name" v="Vassdalsvatnet" />
		<tag k="natural" v="water" />
		<tag k="ssr:stedsnr" v="809218" />
		<tag k="water" v="lake" />
	</node>
	<node id="-35783" lat="59.834891665" lon="6.61297777477">
		<tag k="name" v="Steinatjørnane" />
		<tag k="natural" v="water" />
		<tag k="ssr:stedsnr" v="247226" />
		<tag k="water" v="lake" />
	</node>
	<node id="-34757" lat="59.5993250025" lon="6.35356387998">
		<tag k="alt_name" v="Sjølskotttjørna" />
		<tag k="name" v="Sjølvskottjørna" />
		<tag k="natural" v="water" />
		<tag k="ssr:stedsnr" v="670826" />
	</node>
	<node id="-35268" lat="59.6462888898" lon="6.5378055572">
		<tag k="name" v="Skarfoss" />
>>>>>>> e1d4bc35ff8a6074a6f2e91616a996b547c36f15
		<tag k="natural" v="waterfall" />
		<tag k="ssr:stedsnr" v="302043" />
	</node>
<<<<<<< HEAD
	<node lat="59.57971389169354" lon="6.342694446450799" id="-3019">
		<tag k="name" v="Mollabekken" />
		<tag k="ssr:stedsnr" v="242282" />
		<tag k="waterway" v="stream" />
	</node>
	<node lat="59.758356244712246" lon="6.665006490442199" id="-3024">
		<tag k="name" v="Sandvasstjørna" />
		<tag k="natural" v="water" />
		<tag k="ssr:stedsnr" v="246727" />
	</node>
	<node lat="59.61882499876079" lon="6.2231194469485605" id="-3028">
		<tag k="name" v="Svandalselva" />
		<tag k="ssr:stedsnr" v="246779" />
		<tag k="waterway" v="river" />
	</node>
	<node lat="59.73779166976668" lon="6.5164388840059155" id="-3030">
		<tag k="name" v="Berdalselva" />
		<tag k="ssr:stedsnr" v="246906" />
		<tag k="waterway" v="river" />
	</node>
	<node lat="59.66374167021975" lon="6.44143611373432" id="-3040">
		<tag k="name" v="Løyningstjørna" />
		<tag k="natural" v="water" />
		<tag k="ssr:stedsnr" v="302031" />
	</node>
	<node lat="59.724133337359355" lon="6.331349991090441" id="-3043">
		<tag k="name" v="Fossdalsfossen" />
		<tag k="natural" v="waterfall" />
		<tag k="ssr:stedsnr" v="302108" />
	</node>
	<node lat="59.73185277948806" lon="6.48064444136901" id="-3058">
		<tag k="name" v="Buersbekken" />
		<tag k="ssr:stedsnr" v="303587" />
		<tag k="waterway" v="stream" />
	</node>
	<node lat="59.64619167080016" lon="6.211791674943894" id="-3064">
		<tag k="name" v="Bakkavassvika" />
		<tag k="natural" v="bay" />
		<tag k="ssr:stedsnr" v="303983" />
	</node>
	<node lat="59.62072424580329" lon="6.448794510239877" id="-3068">
		<tag k="name" v="Finnabuvatnet" />
		<tag k="natural" v="water" />
		<tag k="ssr:stedsnr" v="306766" />
		<tag k="water" v="lake" />
	</node>
	<node lat="59.60266389316399" lon="6.367383328658882" id="-3084">
		<tag k="name" v="Tverråna" />
		<tag k="ssr:stedsnr" v="363625" />
		<tag k="waterway" v="river" />
	</node>
	<node lat="59.618330552686174" lon="6.1997500040863365" id="-3089">
		<tag k="fixme" v="multiple name tags, choose one and add the other to alt_name" />
		<tag k="name" v="Svortetjørn;Svartavasstjørna" />
		<tag k="natural" v="water" />
		<tag k="ssr:stedsnr" v="367484" />
		<tag k="water" v="lake" />
	</node>
	<node lat="59.63361351772278" lon="6.421913732131231" id="-3090">
		<tag k="name" v="Smalasundvatnet" />
		<tag k="natural" v="water" />
		<tag k="ssr:stedsnr" v="367779" />
		<tag k="water" v="lake" />
	</node>
	<node lat="59.78569414889522" lon="6.596740724068734" id="-3095">
		<tag k="name" v="Botnavatnet" />
		<tag k="natural" v="water" />
		<tag k="ssr:stedsnr" v="368082" />
		<tag k="water" v="lake" />
	</node>
	<node lat="59.78522777715513" lon="6.490644443273421" id="-3096">
		<tag k="name" v="Slettedalselva" />
		<tag k="ssr:stedsnr" v="368084" />
		<tag k="waterway" v="river" />
	</node>
	<node lat="59.59285555133433" lon="6.332833335589193" id="-3100">
		<tag k="name" v="Vetrhusbekken" />
		<tag k="ssr:stedsnr" v="484284" />
		<tag k="waterway" v="stream" />
	</node>
	<node lat="59.698615564559404" lon="6.4928386048549545" id="-3105">
		<tag k="name" v="Bakkatjørna" />
		<tag k="natural" v="water" />
		<tag k="ssr:stedsnr" v="484113" />
	</node>
	<node lat="59.705166670748625" lon="6.480872220665983" id="-3107">
		<tag k="name" v="Tagbekken" />
		<tag k="ssr:stedsnr" v="484126" />
		<tag k="waterway" v="stream" />
	</node>
	<node lat="59.718444444943955" lon="6.555036119269691" id="-3109">
		<tag k="name" v="Gunnetjørn" />
		<tag k="natural" v="water" />
		<tag k="ssr:stedsnr" v="484151" />
	</node>
	<node lat="59.76177777551704" lon="6.340258332588185" id="-3110">
		<tag k="name" v="Viabottselva" />
		<tag k="ssr:stedsnr" v="484516" />
		<tag k="waterway" v="river" />
	</node>
	<node lat="59.72741389104523" lon="6.642566671227359" id="-3115">
		<tag k="name" v="Lassetjørn" />
		<tag k="natural" v="water" />
		<tag k="ssr:stedsnr" v="484646" />
	</node>
	<node lat="59.680113893226114" lon="6.42009445192538" id="-3118">
		<tag k="name" v="Austarheimselva" />
		<tag k="ssr:stedsnr" v="484884" />
		<tag k="waterway" v="river" />
	</node>
	<node lat="59.59085541741325" lon="6.234721601225975" id="-3125">
		<tag k="name" v="Øvrastølsvatnet" />
		<tag k="natural" v="water" />
		<tag k="ssr:stedsnr" v="488829" />
		<tag k="water" v="lake" />
	</node>
	<node lat="59.62599610260193" lon="6.544162292884309" id="-3129">
		<tag k="alt_name" v="Dyrskartjørn" />
		<tag k="name" v="Dyrskardsvatnet" />
		<tag k="natural" v="water" />
		<tag k="ssr:stedsnr" v="488789" />
		<tag k="water" v="lake" />
	</node>
	<node lat="59.69241111134846" lon="6.234249993200461" id="-3132">
		<tag k="name" v="Storavatnet" />
		<tag k="natural" v="water" />
		<tag k="ssr:stedsnr" v="488938" />
		<tag k="water" v="lake" />
	</node>
	<node lat="59.572061114089806" lon="6.282519442288867" id="-3133">
		<tag k="name" v="Hustveitelva" />
		<tag k="ssr:stedsnr" v="488858" />
		<tag k="waterway" v="stream" />
	</node>
	<node lat="59.72428055562102" lon="6.529275001299561" id="-3137">
		<tag k="alt_name" v="Reinaskartjørn" />
		<tag k="name" v="Reinaskardtjørna" />
		<tag k="natural" v="water" />
		<tag k="ssr:stedsnr" v="488965" />
	</node>
	<node lat="59.79489166500837" lon="6.459647229213493" id="-3140">
		<tag k="alt_name" v="Tverrtjørn" />
		<tag k="name" v="Tverrtjørna" />
		<tag k="natural" v="water" />
		<tag k="ssr:stedsnr" v="489086" />
		<tag k="water" v="lake" />
	</node>
	<node lat="59.68008333157889" lon="6.479877778106556" id="-3142">
=======
	<node id="-35267" lat="59.6637416702" lon="6.44143611373">
		<tag k="name" v="Løyningstjørna" />
		<tag k="natural" v="water" />
		<tag k="ssr:stedsnr" v="302031" />
	</node>
	<node id="-34754" lat="59.6581044287" lon="6.55248896893">
		<tag k="alt_name" v="Fjellvatnet" />
		<tag k="name" v="Øvra Fjellvatnet" />
		<tag k="natural" v="water" />
		<tag k="ssr:stedsnr" v="670757" />
		<tag k="water" v="lake" />
	</node>
	<node id="-34751" lat="59.6051101032" lon="6.18215959281">
		<tag k="alt_name" v="Regnfossvatnet" />
		<tag k="name" v="Reinsfossvatnet" />
		<tag k="natural" v="water" />
		<tag k="ssr:stedsnr" v="670522" />
		<tag k="water" v="lake" />
	</node>
	<node id="-35773" lat="59.673621166" lon="6.29945581547">
		<tag k="name" v="Skjertjørn" />
		<tag k="natural" v="water" />
		<tag k="ssr:stedsnr" v="970718" />
	</node>
	<node id="-35258" lat="59.717931199" lon="6.53152793624">
		<tag k="alt_name" v="Stora Ukkendalstjørna" />
		<tag k="name" v="Ukkendalstjørna" />
		<tag k="natural" v="water" />
		<tag k="ssr:stedsnr" v="185951" />
		<tag k="water" v="lake" />
	</node>
	<node id="-35768" lat="59.6483944435" lon="6.32877777883">
		<tag k="name" v="Nestjørnene" />
		<tag k="natural" v="water" />
		<tag k="ssr:stedsnr" v="970595" />
		<tag k="water" v="lake" />
	</node>
	<node id="-35767" lat="59.6837611079" lon="6.51931388227">
		<tag k="name" v="Suldalsfossen" />
		<tag k="natural" v="waterfall" />
		<tag k="ssr:stedsnr" v="970586" />
	</node>
	<node id="-35766" lat="59.6832694458" lon="6.51043055414">
		<tag k="name" v="Litlabøneset" />
		<tag k="natural" v="cape" />
		<tag k="ssr:stedsnr" v="970583" />
	</node>
	<node id="-35765" lat="59.6466611092" lon="6.3527166692">
		<tag k="name" v="Osen" />
		<tag k="natural" v="bay" />
		<tag k="ssr:stedsnr" v="970578" />
	</node>
	<node id="-35763" lat="59.719486107" lon="6.54249165955">
		<tag k="name" v="Nedsta Ukkendalstjørna" />
		<tag k="natural" v="water" />
		<tag k="ssr:stedsnr" v="970276" />
	</node>
	<node id="-34738" lat="59.6557666647" lon="6.38102778089">
		<tag k="name" v="Kastfoss" />
		<tag k="natural" v="waterfall" />
		<tag k="ssr:stedsnr" v="666863" />
	</node>
	<node id="-35656" lat="59.6465027741" lon="6.30615834121">
		<tag k="name" v="Fosstveitdammen" />
		<tag k="ssr:stedsnr" v="830655" />
		<tag k="waterway" v="dam" />
	</node>
	<node id="-35741" lat="59.7751861076" lon="6.33461389476">
		<tag k="name" v="Vianordskartjørn" />
		<tag k="natural" v="water" />
		<tag k="ssr:stedsnr" v="969673" />
	</node>
	<node id="-35756" lat="59.6990194468" lon="6.41975834164">
		<tag k="name" v="Hattaløfttjørna" />
		<tag k="natural" v="water" />
		<tag k="ssr:stedsnr" v="970200" />
	</node>
	<node id="-34731" lat="59.7844683897" lon="6.414600905">
		<tag k="name" v="Helgedalsnutvatnet" />
		<tag k="natural" v="water" />
		<tag k="ssr:stedsnr" v="666642" />
		<tag k="water" v="lake" />
	</node>
	<node id="-35242" lat="59.7018111071" lon="6.60264165969">
		<tag k="name" v="Holmavatnet" />
		<tag k="natural" v="water" />
		<tag k="ssr:stedsnr" v="185226" />
		<tag k="water" v="lake" />
	</node>
	<node id="-34729" lat="59.6317361128" lon="6.42061666289">
		<tag k="name" v="Sævet" />
		<tag k="natural" v="water" />
		<tag k="ssr:stedsnr" v="666625" />
		<tag k="water" v="lake" />
	</node>
	<node id="-35751" lat="59.7134444454" lon="6.29719999757">
		<tag k="name" v="Svartavannselva" />
		<tag k="ssr:stedsnr" v="970144" />
		<tag k="waterway" v="river" />
	</node>
	<node id="-35750" lat="59.7056972228" lon="6.38533889157">
		<tag k="name" v="Vassbotnen" />
		<tag k="natural" v="bay" />
		<tag k="ssr:stedsnr" v="970127" />
	</node>
	<node id="-34725" lat="59.583527774" lon="6.2951638806">
		<tag k="name" v="Risvollbekken" />
		<tag k="ssr:stedsnr" v="666299" />
		<tag k="waterway" v="stream" />
	</node>
	<node id="-35235" lat="59.6666499978" lon="6.27200277722">
		<tag k="name" v="Nordstøldalselva" />
		<tag k="ssr:stedsnr" v="181783" />
		<tag k="waterway" v="river" />
	</node>
	<node id="-35744" lat="59.6970536517" lon="6.25118476921">
		<tag k="name" v="Uradalsvatna" />
		<tag k="natural" v="water" />
		<tag k="ssr:stedsnr" v="970052" />
		<tag k="water" v="lake" />
	</node>
	<node id="-34719" lat="59.6900693287" lon="6.3851450476">
		<tag k="name" v="Nedra Stutatjørn" />
		<tag k="natural" v="water" />
		<tag k="ssr:stedsnr" v="666123" />
	</node>
	<node id="-34717" lat="59.7131083358" lon="6.33935832686">
		<tag k="name" v="Viaelva" />
		<tag k="ssr:stedsnr" v="666089" />
		<tag k="waterway" v="river" />
	</node>
	<node id="-35740" lat="59.7711631469" lon="6.37054614096">
		<tag k="name" v="Botnavatnet" />
		<tag k="natural" v="water" />
		<tag k="ssr:stedsnr" v="969670" />
		<tag k="water" v="lake" />
	</node>
	<node id="-35739" lat="59.7799972192" lon="6.36109999922">
		<tag k="name" v="Vianutvatnet" />
		<tag k="natural" v="water" />
		<tag k="ssr:stedsnr" v="969669" />
		<tag k="water" v="lake" />
	</node>
	<node id="-34873" lat="59.5941916709" lon="6.28431111019">
		<tag k="name" v="Hangandvikfossen" />
		<tag k="natural" v="waterfall" />
		<tag k="ssr:stedsnr" v="731831" />
	</node>
	<node id="-35652" lat="59.7654111084" lon="6.63279443831">
		<tag k="name" v="Kvelvatjørna" />
		<tag k="natural" v="water" />
		<tag k="ssr:stedsnr" v="793810" />
	</node>
	<node id="-35221" lat="59.7174305523" lon="6.52434167393">
		<tag k="name" v="Øvsta Ukkendalstjørna" />
		<tag k="natural" v="water" />
		<tag k="ssr:stedsnr" v="181189" />
	</node>
	<node id="-34706" lat="59.6537566476" lon="6.4383066658">
		<tag k="alt_name" v="Nedra Svortetjørn" />
		<tag k="name" v="Svortetjørn" />
		<tag k="natural" v="water" />
		<tag k="ssr:stedsnr" v="428744" />
	</node>
	<node id="-35216" lat="59.6899829452" lon="6.47475484881">
		<tag k="name" v="Stølsvatnet" />
		<tag k="natural" v="water" />
		<tag k="ssr:stedsnr" v="181144" />
		<tag k="water" v="lake" />
	</node>
	<node id="-35727" lat="59.6645018031" lon="6.56114509529">
		<tag k="name" v="Midtvatnet" />
		<tag k="natural" v="water" />
		<tag k="ssr:stedsnr" v="853749" />
		<tag k="water" v="lake" />
	</node>
	<node id="-34701" lat="59.6291583375" lon="6.40208054959">
		<tag k="name" v="Krugdalsfossen" />
		<tag k="natural" v="waterfall" />
		<tag k="ssr:stedsnr" v="424613" />
	</node>
	<node id="-35212" lat="59.6580361101" lon="6.49731666143">
		<tag k="name" v="Storlidammen" />
		<tag k="ssr:stedsnr" v="181047" />
		<tag k="waterway" v="dam" />
	</node>
	<node id="-34698" lat="59.6800833316" lon="6.47987777811">
>>>>>>> e1d4bc35ff8a6074a6f2e91616a996b547c36f15
		<tag k="name" v="Kutjørn" />
		<tag k="natural" v="water" />
		<tag k="ssr:stedsnr" v="424023" />
	</node>
<<<<<<< HEAD
	<node lat="59.61026666909398" lon="6.336311111028045" id="-3152">
		<tag k="name" v="Malldalselva" />
		<tag k="ssr:stedsnr" v="424661" />
		<tag k="waterway" v="river" />
	</node>
	<node lat="59.700401842587" lon="6.394105832569161" id="-3162">
		<tag k="name" v="Annanutvatnet" />
		<tag k="natural" v="water" />
		<tag k="ssr:stedsnr" v="670956" />
		<tag k="water" v="lake" />
	</node>
	<node lat="59.687305552405206" lon="6.417883333234809" id="-3163">
		<tag k="name" v="Bergaelva" />
		<tag k="ssr:stedsnr" v="670999" />
		<tag k="waterway" v="river" />
	</node>
	<node lat="59.78439499214537" lon="6.627302741449296" id="-3164">
		<tag k="name" v="Istjørna" />
		<tag k="natural" v="water" />
		<tag k="ssr:stedsnr" v="671779" />
	</node>
	<node lat="59.75874999807085" lon="6.648863883295451" id="-3165">
		<tag k="name" v="Kvelvabekken" />
		<tag k="ssr:stedsnr" v="671789" />
		<tag k="waterway" v="stream" />
	</node>
	<node lat="59.63853055261856" lon="6.462572214161247" id="-3174">
		<tag k="name" v="Stemtjørn" />
		<tag k="natural" v="water" />
		<tag k="ssr:stedsnr" v="484048" />
	</node>
	<node lat="59.66059722224002" lon="6.25321110323876" id="-3188">
		<tag k="name" v="Mosbakkelva" />
		<tag k="ssr:stedsnr" v="484759" />
		<tag k="waterway" v="river" />
	</node>
	<node lat="59.64479951303514" lon="6.548102153891766" id="-3198">
		<tag k="name" v="Heiavatna" />
		<tag k="natural" v="water" />
		<tag k="ssr:stedsnr" v="488802" />
		<tag k="water" v="lake" />
	</node>
	<node lat="59.64690000223388" lon="6.50067777133885" id="-3200">
		<tag k="name" v="Skiftesbekken" />
		<tag k="ssr:stedsnr" v="488764" />
		<tag k="waterway" v="stream" />
	</node>
	<node lat="59.667661109193475" lon="6.471222214752433" id="-3214">
		<tag k="name" v="Stemtjørn" />
		<tag k="natural" v="water" />
		<tag k="ssr:stedsnr" v="545026" />
	</node>
	<node lat="59.57670555788907" lon="6.332308331830344" id="-3219">
		<tag k="name" v="Tveitåna" />
		<tag k="ssr:stedsnr" v="545280" />
		<tag k="waterway" v="river" />
	</node>
	<node lat="59.74167778105813" lon="6.359675004864219" id="-3221">
		<tag k="name" v="Raueråsbekken" />
		<tag k="ssr:stedsnr" v="545487" />
		<tag k="waterway" v="stream" />
	</node>
	<node lat="59.680113893226114" lon="6.42009445192538" id="-3226">
		<tag k="name" v="Bergaelva" />
		<tag k="ssr:stedsnr" v="545881" />
		<tag k="waterway" v="river" />
	</node>
	<node lat="59.74526666346239" lon="6.410513888685171" id="-3232">
		<tag k="name" v="Helgedalsvatnet" />
=======
	<node id="-35720" lat="59.5875055573" lon="6.18564165863">
		<tag k="alt_name" v="Støda, nedre;Nedra Støå" />
		<tag k="name" v="Nedre Støda" />
		<tag k="natural" v="water" />
		<tag k="ssr:stedsnr" v="853549" />
	</node>
	<node id="-34693" lat="59.6675261259" lon="6.63160694071">
		<tag k="name" v="Stovedalsvatnet" />
		<tag k="natural" v="water" />
		<tag k="ssr:stedsnr" v="367165" />
		<tag k="water" v="lake" />
	</node>
	<node id="-35203" lat="59.8063388898" lon="6.48734443828">
		<tag k="name" v="Tverrelva" />
		<tag k="ssr:stedsnr" v="125083" />
		<tag k="waterway" v="stream" />
	</node>
	<node id="-34689" lat="59.6344861138" lon="6.36598888148">
		<tag k="name" v="Finnabuelva" />
		<tag k="ssr:stedsnr" v="363670" />
		<tag k="waterway" v="river" />
	</node>
	<node id="-34688" lat="59.6743111115" lon="6.26189444261">
		<tag k="name" v="Nilsatjørna" />
		<tag k="natural" v="water" />
		<tag k="ssr:stedsnr" v="363736" />
	</node>
	<node id="-34687" lat="59.6692527756" lon="6.22174167045">
		<tag k="loc_name" v="Nordra Jakobsskorvatnet" />
		<tag k="name" v="Nora Jakobskårvatnet" />
		<tag k="natural" v="water" />
		<tag k="ssr:stedsnr" v="363727" />
		<tag k="water" v="lake" />
	</node>
	<node id="-35198" lat="59.674281196" lon="6.50116633082">
		<tag k="name" v="Storlivatnet" />
		<tag k="natural" v="water" />
		<tag k="ssr:stedsnr" v="124977" />
		<tag k="water" v="lake" />
	</node>
	<node id="-34709" lat="59.6299766148" lon="6.41709095626">
		<tag k="name" v="Storaheivatnet" />
		<tag k="natural" v="water" />
		<tag k="ssr:stedsnr" v="428812" />
		<tag k="water" v="lake" />
	</node>
	<node id="-35708" lat="59.6182166626" lon="6.47463889187">
		<tag k="name" v="Sjonarhaugfossen" />
		<tag k="natural" v="waterfall" />
		<tag k="ssr:stedsnr" v="849791" />
	</node>
	<node id="-35562" lat="59.5961944472" lon="6.27729166494">
		<tag k="name" v="Brudesløret" />
		<tag k="ssr:stedsnr" v="609819" />
		<tag k="waterway" v="stream" />
	</node>
	<node id="-35704" lat="59.6095333297" lon="6.3454472156">
		<tag k="name" v="Fjotartjørn" />
>>>>>>> e1d4bc35ff8a6074a6f2e91616a996b547c36f15
		<tag k="natural" v="water" />
		<tag k="ssr:stedsnr" v="849705" />
	</node>
<<<<<<< HEAD
	<node lat="59.70518333415201" lon="6.422388895574531" id="-3233">
		<tag k="alt_name" v="Fitavatnet" />
		<tag k="name" v="Fetavatnet" />
		<tag k="natural" v="water" />
		<tag k="ssr:stedsnr" v="549950" />
		<tag k="water" v="lake" />
	</node>
	<node lat="59.70731772641461" lon="6.56503817178658" id="-3234">
		<tag k="alt_name" v="Førstadvatnet" />
		<tag k="name" v="Førstavatnet" />
		<tag k="natural" v="water" />
		<tag k="ssr:stedsnr" v="549951" />
		<tag k="water" v="lake" />
	</node>
	<node lat="59.6969249964645" lon="6.248324992033797" id="-3235">
		<tag k="name" v="Urdaskardtjørna" />
		<tag k="natural" v="water" />
		<tag k="ssr:stedsnr" v="549959" />
	</node>
	<node lat="59.75124166827378" lon="6.544430562897231" id="-3236">
		<tag k="name" v="Berdalsstranda" />
		<tag k="natural" v="beach" />
		<tag k="ssr:stedsnr" v="550107" />
	</node>
	<node lat="59.75725832929077" lon="6.528480563039994" id="-3237">
		<tag k="name" v="Raudhammartjørna" />
		<tag k="natural" v="water" />
		<tag k="ssr:stedsnr" v="550112" />
	</node>
	<node lat="59.71608610685807" lon="6.446652770734704" id="-3241">
		<tag k="name" v="Borjetjørn" />
		<tag k="natural" v="water" />
		<tag k="ssr:stedsnr" v="605118" />
	</node>
	<node lat="59.695944442501215" lon="6.5197444440680306" id="-3244">
		<tag k="name" v="Lonaelva" />
		<tag k="ssr:stedsnr" v="605412" />
		<tag k="waterway" v="river" />
	</node>
	<node lat="59.66141111484355" lon="6.234641661164616" id="-3251">
		<tag k="loc_name" v="Nedra Jakobsskorvatnet" />
		<tag k="name" v="Nedra Jakobskårvatnet" />
		<tag k="natural" v="water" />
		<tag k="ssr:stedsnr" v="605761" />
		<tag k="water" v="lake" />
	</node>
	<node lat="59.75221580782291" lon="6.552412325624799" id="-3256">
		<tag k="name" v="Berdalsvatnet" />
		<tag k="natural" v="water" />
		<tag k="ssr:stedsnr" v="609925" />
		<tag k="water" v="lake" />
	</node>
	<node lat="59.70506388497977" lon="6.341183333360158" id="-3257">
		<tag k="name" v="Buerelva" />
		<tag k="ssr:stedsnr" v="609943" />
		<tag k="waterway" v="river" />
	</node>
	<node lat="59.83422994847707" lon="6.538917797473454" id="-3259">
		<tag k="name" v="Viertjørna" />
		<tag k="natural" v="water" />
		<tag k="ssr:stedsnr" v="610034" />
	</node>
	<node lat="59.83340278155766" lon="6.548055558384654" id="-3260">
		<tag k="alt_name" v="Steinsvatnet" />
		<tag k="name" v="Steinstjørna" />
		<tag k="natural" v="water" />
		<tag k="ssr:stedsnr" v="610035" />
	</node>
	<node lat="59.772730894800034" lon="6.445381172832778" id="-3262">
		<tag k="alt_name" v="Dyrabottvatnet" />
		<tag k="name" v="Dyrabotntjørna" />
		<tag k="natural" v="water" />
		<tag k="ssr:stedsnr" v="610128" />
		<tag k="water" v="lake" />
	</node>
	<node lat="59.7672194446686" lon="6.391233331302435" id="-3264">
		<tag k="name" v="Holmavatnet" />
		<tag k="natural" v="water" />
		<tag k="ssr:stedsnr" v="610133" />
		<tag k="water" v="lake" />
	</node>
	<node lat="59.809616140070446" lon="6.6776215188669275" id="-3267">
		<tag k="name" v="Øvra Sandvatnet" />
		<tag k="natural" v="water" />
		<tag k="ssr:stedsnr" v="610278" />
		<tag k="water" v="lake" />
	</node>
	<node lat="59.631736112826296" lon="6.420616662885585" id="-3280">
		<tag k="name" v="Sævet" />
		<tag k="natural" v="water" />
		<tag k="ssr:stedsnr" v="666625" />
		<tag k="water" v="lake" />
	</node>
	<node lat="59.78446838965795" lon="6.41460090500498" id="-3282">
		<tag k="name" v="Helgedalsnutvatnet" />
		<tag k="natural" v="water" />
		<tag k="ssr:stedsnr" v="666642" />
		<tag k="water" v="lake" />
	</node>
	<node lat="59.78901944163854" lon="6.609238896093897" id="-3290">
		<tag k="name" v="Storbekken" />
		<tag k="ssr:stedsnr" v="666741" />
		<tag k="waterway" v="stream" />
	</node>
	<node lat="59.672473887750165" lon="6.565699777275173" id="-3295">
		<tag k="alt_name" v="Fjellvatnet, nedre;Nedre Fjellvatnet" />
		<tag k="name" v="Nedra Fjellvatnet" />
		<tag k="natural" v="water" />
		<tag k="ssr:stedsnr" v="670982" />
		<tag k="water" v="lake" />
	</node>
	<node lat="59.675586107838555" lon="6.422675000551428" id="-3296">
		<tag k="name" v="Fivelandselva" />
		<tag k="ssr:stedsnr" v="670993" />
		<tag k="waterway" v="stream" />
	</node>
	<node lat="59.69619721948601" lon="6.527861109310975" id="-3297">
		<tag k="alt_name" v="Lona, nedra;Nedra Lonå" />
		<tag k="name" v="Nedra Lona" />
		<tag k="natural" v="water" />
		<tag k="ssr:stedsnr" v="670997" />
	</node>
	<node lat="59.67194166507028" lon="6.5963249944974205" id="-3300">
		<tag k="name" v="Kurlevatnet" />
		<tag k="natural" v="water" />
		<tag k="ssr:stedsnr" v="671210" />
		<tag k="water" v="lake" />
	</node>
	<node lat="59.67769166811357" lon="6.216288883604084" id="-3304">
		<tag k="name" v="Andra Garlagvatnet" />
		<tag k="natural" v="water" />
		<tag k="ssr:stedsnr" v="705659" />
		<tag k="water" v="lake" />
	</node>
	<node lat="59.63013333175999" lon="6.432305555051745" id="-3313">
		<tag k="name" v="Sjurslåttvatnet" />
		<tag k="natural" v="water" />
		<tag k="ssr:stedsnr" v="727637" />
		<tag k="water" v="lake" />
	</node>
	<node lat="59.620205555841764" lon="6.470233326962268" id="-3314">
		<tag k="name" v="Sjonarhaugelva" />
		<tag k="ssr:stedsnr" v="727771" />
		<tag k="waterway" v="river" />
	</node>
	<node lat="59.651477780016336" lon="6.218294437227773" id="-3319">
		<tag k="name" v="Uraskartjørna" />
		<tag k="natural" v="water" />
		<tag k="ssr:stedsnr" v="727976" />
	</node>
	<node lat="59.6663499993916" lon="6.215886112774079" id="-3321">
		<tag k="alt_name" v="Longatjørna" />
		<tag k="name" v="Langatjørna" />
		<tag k="natural" v="water" />
		<tag k="ssr:stedsnr" v="731480" />
	</node>
	<node lat="59.65107446473597" lon="6.318701699924494" id="-3323">
		<tag k="name" v="Rødstjørna" />
		<tag k="natural" v="water" />
		<tag k="ssr:stedsnr" v="731759" />
	</node>
	<node lat="59.62704421898182" lon="6.390006590115296" id="-3325">
		<tag k="name" v="Tjelmavatnet" />
		<tag k="natural" v="water" />
		<tag k="ssr:stedsnr" v="731771" />
		<tag k="water" v="lake" />
	</node>
	<node lat="59.623984861975885" lon="6.244461616772389" id="-3326">
		<tag k="name" v="Kro" />
		<tag k="natural" v="cape" />
		<tag k="ssr:stedsnr" v="731859" />
	</node>
	<node lat="59.730361107969365" lon="6.575952772830371" id="-3327">
		<tag k="name" v="Øyvatnet" />
		<tag k="natural" v="water" />
		<tag k="ssr:stedsnr" v="731901" />
	</node>
	<node lat="59.7170388850517" lon="6.604202769899613" id="-3331">
		<tag k="name" v="Svarthøl" />
		<tag k="natural" v="water" />
		<tag k="ssr:stedsnr" v="902227" />
		<tag k="water" v="lake" />
	</node>
	<node lat="59.68976666334458" lon="6.282369451094411" id="-3339">
		<tag k="name" v="Grødalselva" />
		<tag k="ssr:stedsnr" v="909064" />
		<tag k="waterway" v="river" />
	</node>
	<node lat="59.71064696800419" lon="6.396698198262739" id="-3340">
		<tag k="alt_name" v="Vikjå" />
		<tag k="name" v="Vika" />
		<tag k="natural" v="bay" />
		<tag k="ssr:stedsnr" v="909113" />
	</node>
	<node lat="59.68378333361244" lon="6.382108333987193" id="-3345">
		<tag k="name" v="Brekketjørna" />
		<tag k="natural" v="water" />
		<tag k="ssr:stedsnr" v="909118" />
	</node>
	<node lat="59.74213888895974" lon="6.487666666004256" id="-3350">
		<tag k="name" v="Råsbekken" />
		<tag k="ssr:stedsnr" v="909593" />
		<tag k="waterway" v="stream" />
	</node>
	<node lat="59.642288888312656" lon="6.248586111408175" id="-3360">
		<tag k="loc_name" v="Fossane" />
		<tag k="name" v="Fossadn" />
		<tag k="natural" v="waterfall" />
		<tag k="ssr:stedsnr" v="909980" />
	</node>
	<node lat="59.58040555705491" lon="6.332172229726684" id="-3362">
		<tag k="name" v="Mollaelva" />
		<tag k="ssr:stedsnr" v="910285" />
		<tag k="waterway" v="river" />
	</node>
	<node lat="59.65878888510226" lon="6.348211102632018" id="-3365">
		<tag k="name" v="Fløgstadtjørna" />
		<tag k="natural" v="water" />
		<tag k="ssr:stedsnr" v="910892" />
	</node>
	<node lat="59.602072880997014" lon="6.247208599993192" id="-3380">
		<tag k="alt_name" v="Nussvatnet" />
		<tag k="name" v="Nutsvatnet" />
		<tag k="natural" v="water" />
		<tag k="ssr:stedsnr" v="791833" />
		<tag k="water" v="lake" />
	</node>
	<node lat="59.6083917200171" lon="6.35771835900474" id="-3381">
		<tag k="alt_name" v="Malldalsvatnet" />
		<tag k="name" v="Maldalsvatnet" />
		<tag k="natural" v="water" />
		<tag k="ssr:stedsnr" v="791836" />
		<tag k="water" v="lake" />
	</node>
	<node lat="59.75252586145505" lon="6.366019747192509" id="-3385">
		<tag k="alt_name" v="Lønndardalsvatnet" />
		<tag k="name" v="Løyndardalsvatnet" />
		<tag k="natural" v="water" />
		<tag k="ssr:stedsnr" v="793106" />
		<tag k="water" v="lake" />
	</node>
	<node lat="59.76541110841144" lon="6.632794438313096" id="-3387">
		<tag k="name" v="Kvelvatjørna" />
		<tag k="natural" v="water" />
		<tag k="ssr:stedsnr" v="793810" />
	</node>
	<node lat="59.77209444505778" lon="6.684911103630482" id="-3388">
		<tag k="name" v="Kroktjørna" />
		<tag k="natural" v="water" />
		<tag k="ssr:stedsnr" v="793812" />
	</node>
	<node lat="59.65826388714686" lon="6.501058325269773" id="-3389">
		<tag k="name" v="Liabekken" />
		<tag k="ssr:stedsnr" v="913749" />
		<tag k="waterway" v="stream" />
	</node>
	<node lat="59.62761576683512" lon="6.472710544968499" id="-3391">
		<tag k="name" v="Midtvikane" />
		<tag k="natural" v="bay" />
		<tag k="ssr:stedsnr" v="913768" />
	</node>
	<node lat="59.5974877668413" lon="6.240843395420856" id="-3393">
		<tag k="alt_name" v="Svartavatnet" />
		<tag k="name" v="Øvra Svartavatnet" />
		<tag k="natural" v="water" />
		<tag k="ssr:stedsnr" v="913818" />
		<tag k="water" v="lake" />
	</node>
	<node lat="59.72721942840738" lon="6.320631084775612" id="-3394">
		<tag k="name" v="Fossdalsvatnet" />
		<tag k="natural" v="water" />
		<tag k="ssr:stedsnr" v="913914" />
		<tag k="water" v="lake" />
	</node>
	<node lat="59.82948251620706" lon="6.5938038870746265" id="-3398">
		<tag k="name" v="Dyrskarvatna" />
		<tag k="natural" v="water" />
		<tag k="ssr:stedsnr" v="914043" />
		<tag k="water" v="lake" />
	</node>
	<node lat="59.75489208949201" lon="6.608078262177934" id="-3400">
		<tag k="name" v="Tindatjørna" />
		<tag k="natural" v="water" />
		<tag k="ssr:stedsnr" v="914766" />
		<tag k="water" v="lake" />
	</node>
	<node lat="59.64650277408324" lon="6.306158341210815" id="-3403">
		<tag k="name" v="Fosstveitdammen" />
		<tag k="ssr:stedsnr" v="830655" />
		<tag k="waterway" v="dam" />
	</node>
	<node lat="59.59019444856405" lon="6.3953444385883715" id="-3408">
		<tag k="name" v="Norddalstjørnene" />
		<tag k="natural" v="water" />
		<tag k="ssr:stedsnr" v="844723" />
		<tag k="water" v="lake" />
	</node>
	<node lat="59.66450278007109" lon="6.495344443453367" id="-3412">
		<tag k="name" v="Storlitjørna" />
		<tag k="natural" v="water" />
		<tag k="ssr:stedsnr" v="849017" />
	</node>
	<node lat="59.58800000077948" lon="6.234438885227495" id="-3421">
		<tag k="name" v="Sømløkjen" />
		<tag k="natural" v="bay" />
		<tag k="ssr:stedsnr" v="849292" />
	</node>
	<node lat="59.57601110925713" lon="6.2470777809502565" id="-3422">
		<tag k="loc_name" v="Godfarskjegget" />
		<tag k="name" v="Gofaskjegget" />
		<tag k="natural" v="waterfall" />
		<tag k="ssr:stedsnr" v="849297" />
	</node>
	<node lat="59.714113058041335" lon="6.632767733448865" id="-3423">
		<tag k="name" v="Vasskulpen" />
		<tag k="natural" v="water" />
		<tag k="ssr:stedsnr" v="849424" />
		<tag k="water" v="lake" />
	</node>
	<node lat="59.60953332969875" lon="6.345447215595032" id="-3427">
		<tag k="name" v="Fjotartjørn" />
		<tag k="natural" v="water" />
		<tag k="ssr:stedsnr" v="849705" />
	</node>
	<node lat="59.61821666256636" lon="6.474638891866915" id="-3430">
		<tag k="name" v="Sjonarhaugfossen" />
		<tag k="natural" v="waterfall" />
		<tag k="ssr:stedsnr" v="849791" />
	</node>
	<node lat="59.69480555618864" lon="6.660013885248283" id="-3441">
		<tag k="name" v="Nyggjelebeitevatnet" />
		<tag k="natural" v="water" />
		<tag k="ssr:stedsnr" v="853170" />
		<tag k="water" v="lake" />
	</node>
	<node lat="59.65191111061219" lon="6.285783333486975" id="-3444">
		<tag k="name" v="Risvollelva" />
		<tag k="ssr:stedsnr" v="853753" />
		<tag k="waterway" v="stream" />
	</node>
	<node lat="59.745434656691" lon="6.45929526141674" id="-3447">
		<tag k="name" v="Stordalsvatnet" />
		<tag k="natural" v="water" />
		<tag k="ssr:stedsnr" v="853925" />
		<tag k="water" v="lake" />
	</node>
	<node lat="59.60812499826111" lon="6.275122220020632" id="-3472">
		<tag k="name" v="Vårstølbekken" />
		<tag k="ssr:stedsnr" v="909725" />
		<tag k="waterway" v="stream" />
	</node>
	<node lat="59.5956388920863" lon="6.198169446186866" id="-3474">
		<tag k="name" v="Storavassklubben" />
		<tag k="natural" v="cape" />
		<tag k="ssr:stedsnr" v="909729" />
	</node>
	<node lat="59.63266944775327" lon="6.480544450013137" id="-3475">
		<tag k="name" v="Mesaftastjørna" />
		<tag k="natural" v="water" />
		<tag k="ssr:stedsnr" v="909749" />
	</node>
	<node lat="59.68931666669181" lon="6.3956972163435335" id="-3481">
		<tag k="name" v="Verabekken" />
		<tag k="ssr:stedsnr" v="910166" />
		<tag k="waterway" v="stream" />
	</node>
	<node lat="59.580902777122205" lon="6.373655548279221" id="-3483">
		<tag k="name" v="Norddalsbekken" />
		<tag k="ssr:stedsnr" v="910300" />
		<tag k="waterway" v="stream" />
	</node>
	<node lat="59.679452651401974" lon="6.522385399405333" id="-3489">
		<tag k="fixme" v="multiple name tags, choose one and add the other to alt_name" />
		<tag k="name" v="Suldalselva;Dalvasselva" />
		<tag k="ssr:stedsnr" v="913982" />
		<tag k="waterway" v="river" />
	</node>
	<node lat="59.654663891754716" lon="6.373124991108535" id="-3490">
		<tag k="name" v="Storelva" />
		<tag k="ssr:stedsnr" v="914108" />
		<tag k="waterway" v="river" />
	</node>
	<node lat="59.72600833365232" lon="6.361758335647062" id="-3492">
		<tag k="name" v="Moringdalselva" />
		<tag k="ssr:stedsnr" v="914913" />
		<tag k="waterway" v="stream" />
	</node>
	<node lat="59.713444445381604" lon="6.297199997565024" id="-3497">
		<tag k="name" v="Svartavannselva" />
		<tag k="ssr:stedsnr" v="970144" />
		<tag k="waterway" v="river" />
	</node>
	<node lat="59.69901944679481" lon="6.419758341636822" id="-3502">
		<tag k="name" v="Hattaløfttjørna" />
		<tag k="natural" v="water" />
		<tag k="ssr:stedsnr" v="970200" />
	</node>
	<node lat="59.64839444351118" lon="6.328777778833383" id="-3507">
		<tag k="name" v="Nestjørnene" />
		<tag k="natural" v="water" />
		<tag k="ssr:stedsnr" v="970595" />
		<tag k="water" v="lake" />
	</node>
	<node lat="59.67362116598797" lon="6.299455815471825" id="-3508">
		<tag k="name" v="Skjertjørn" />
		<tag k="natural" v="water" />
		<tag k="ssr:stedsnr" v="970718" />
	</node>
	<node lat="59.62713340850124" lon="6.194142080906386" id="-3516">
		<tag k="alt_name" v="Svandalstjørna" />
		<tag k="name" v="Svandalsvatnet" />
		<tag k="natural" v="water" />
		<tag k="ssr:stedsnr" v="3490" />
		<tag k="water" v="lake" />
	</node>
	<node lat="59.72046666719938" lon="6.425302775745401" id="-3517">
		<tag k="name" v="Hereimselva" />
		<tag k="ssr:stedsnr" v="3907" />
		<tag k="waterway" v="river" />
	</node>
	<node lat="59.57249722239527" lon="6.250411118272668" id="-3523">
		<tag k="alt_name" v="Stølsvatnet;Vårstølvatnet" />
		<tag k="name" v="Vårstølsvatnet" />
		<tag k="natural" v="water" />
		<tag k="ssr:stedsnr" v="3859" />
		<tag k="water" v="lake" />
	</node>
	<node lat="59.67913055586797" lon="6.3495694410606625" id="-3553">
		<tag k="name" v="Tverråna" />
		<tag k="ssr:stedsnr" v="60972" />
		<tag k="waterway" v="river" />
	</node>
	<node lat="59.68887777834687" lon="6.258499992091011" id="-3556">
		<tag k="alt_name" v="Brekkestølvatnet" />
		<tag k="name" v="Brekkestølsvatnet" />
		<tag k="natural" v="water" />
		<tag k="ssr:stedsnr" v="63934" />
		<tag k="water" v="lake" />
	</node>
	<node lat="59.678813889757556" lon="6.512652776282283" id="-3558">
		<tag k="name" v="Skarvåna" />
		<tag k="ssr:stedsnr" v="64984" />
		<tag k="waterway" v="stream" />
	</node>
	<node lat="59.733633510167195" lon="6.58862808019743" id="-3561">
		<tag k="name" v="Botnavatnet" />
		<tag k="natural" v="water" />
		<tag k="ssr:stedsnr" v="64926" />
		<tag k="water" v="lake" />
	</node>
	<node lat="59.69965277401036" lon="6.517763892996025" id="-3574">
		<tag k="name" v="Eljuvselva" />
		<tag k="ssr:stedsnr" v="120399" />
		<tag k="waterway" v="river" />
	</node>
	<node lat="59.70044444718761" lon="6.5614694459181395" id="-3575">
		<tag k="name" v="Litlaneset" />
		<tag k="natural" v="cape" />
		<tag k="ssr:stedsnr" v="120409" />
	</node>
	<node lat="59.676750001070324" lon="6.475227779974035" id="-3581">
		<tag k="name" v="Sandvatnet" />
		<tag k="natural" v="water" />
		<tag k="ssr:stedsnr" v="120011" />
		<tag k="water" v="lake" />
	</node>
	<node lat="59.70048888465007" lon="6.646538889334241" id="-3583">
		<tag k="name" v="Kuvika" />
		<tag k="natural" v="bay" />
		<tag k="ssr:stedsnr" v="120416" />
	</node>
	<node lat="59.72598889139448" lon="6.423375002785694" id="-3585">
		<tag k="name" v="Herheimselva" />
		<tag k="ssr:stedsnr" v="120593" />
		<tag k="waterway" v="river" />
	</node>
	<node lat="59.624991668826056" lon="6.484133332246994" id="-3591">
		<tag k="name" v="Storebottelva" />
		<tag k="ssr:stedsnr" v="120749" />
		<tag k="waterway" v="river" />
	</node>
	<node lat="59.72640339005507" lon="6.612586041555647" id="-3593">
		<tag k="name" v="Svartevasselva" />
		<tag k="ssr:stedsnr" v="120816" />
		<tag k="waterway" v="river" />
	</node>
	<node lat="59.67921944208665" lon="6.322522229905266" id="-3594">
		<tag k="name" v="Tengdalselva" />
		<tag k="ssr:stedsnr" v="120950" />
		<tag k="waterway" v="river" />
	</node>
	<node lat="59.64150832939028" lon="6.205911112533439" id="-3596">
		<tag k="name" v="Bakkavatnet" />
		<tag k="natural" v="water" />
		<tag k="ssr:stedsnr" v="124471" />
	</node>
	<node lat="59.6742811959792" lon="6.501166330820007" id="-3606">
		<tag k="name" v="Storlivatnet" />
		<tag k="natural" v="water" />
		<tag k="ssr:stedsnr" v="124977" />
		<tag k="water" v="lake" />
	</node>
	<node lat="59.67520000379942" lon="6.418352771753166" id="-3609">
		<tag k="name" v="Tverrelva" />
		<tag k="ssr:stedsnr" v="124992" />
		<tag k="waterway" v="stream" />
	</node>
	<node lat="59.80633888982288" lon="6.487344438282982" id="-3611">
		<tag k="name" v="Tverrelva" />
		<tag k="ssr:stedsnr" v="125083" />
		<tag k="waterway" v="stream" />
	</node>
	<node lat="59.65803611006464" lon="6.497316661430444" id="-3619">
		<tag k="name" v="Storlidammen" />
		<tag k="ssr:stedsnr" v="181047" />
		<tag k="waterway" v="dam" />
	</node>
	<node lat="59.689982945197066" lon="6.474754848810731" id="-3623">
		<tag k="name" v="Stølsvatnet" />
		<tag k="natural" v="water" />
		<tag k="ssr:stedsnr" v="181144" />
		<tag k="water" v="lake" />
	</node>
	<node lat="59.71743055232784" lon="6.524341673927336" id="-3627">
		<tag k="name" v="Øvsta Ukkendalstjørna" />
		<tag k="natural" v="water" />
		<tag k="ssr:stedsnr" v="181189" />
	</node>
	<node lat="59.741055555458146" lon="6.483600004155685" id="-3632">
		<tag k="name" v="Skiftesbekken" />
		<tag k="ssr:stedsnr" v="181601" />
		<tag k="waterway" v="stream" />
	</node>
	<node lat="59.666649997793016" lon="6.272002777215445" id="-3638">
		<tag k="name" v="Nordstøldalselva" />
		<tag k="ssr:stedsnr" v="181783" />
		<tag k="waterway" v="river" />
	</node>
	<node lat="59.67062222382335" lon="6.281469446851988" id="-3642">
		<tag k="name" v="Grøndalselva" />
		<tag k="ssr:stedsnr" v="181995" />
		<tag k="waterway" v="river" />
	</node>
	<node lat="59.701811107093334" lon="6.602641659688658" id="-3645">
		<tag k="name" v="Holmavatnet" />
		<tag k="natural" v="water" />
		<tag k="ssr:stedsnr" v="185226" />
		<tag k="water" v="lake" />
	</node>
	<node lat="59.64983610914921" lon="6.536599991823105" id="-3648">
		<tag k="alt_name" v="Skarfossvatnet" />
		<tag k="name" v="Skardfossvatnet" />
		<tag k="natural" v="water" />
		<tag k="ssr:stedsnr" v="185726" />
		<tag k="water" v="lake" />
	</node>
	<node lat="59.626247187025456" lon="6.412812250503268" id="-3655">
		<tag k="alt_name" v="Vavatnet" />
		<tag k="name" v="Vadvatnet" />
		<tag k="natural" v="water" />
		<tag k="ssr:stedsnr" v="185771" />
		<tag k="water" v="lake" />
	</node>
	<node lat="59.65557500432417" lon="6.3585999983456505" id="-3661">
		<tag k="name" v="Nordelva" />
		<tag k="ssr:stedsnr" v="223685" />
		<tag k="waterway" v="river" />
	</node>
	<node lat="59.646288889783996" lon="6.537805557198006" id="-3669">
		<tag k="name" v="Skarfoss" />
		<tag k="natural" v="waterfall" />
		<tag k="ssr:stedsnr" v="302043" />
	</node>
	<node lat="59.61899166777584" lon="6.2323861124552025" id="-3685">
		<tag k="loc_name" v="Longatjørna" />
		<tag k="name" v="Longa Tjødnå" />
		<tag k="natural" v="water" />
		<tag k="ssr:stedsnr" v="302519" />
	</node>
	<node lat="59.630832712167894" lon="6.450685860503113" id="-3691">
		<tag k="name" v="Drengjaslåttvatnet" />
		<tag k="natural" v="water" />
		<tag k="ssr:stedsnr" v="302816" />
		<tag k="water" v="lake" />
	</node>
	<node lat="59.59287499722554" lon="6.2077888842130955" id="-3699">
		<tag k="name" v="Storavatnet" />
		<tag k="natural" v="water" />
		<tag k="ssr:stedsnr" v="306542" />
		<tag k="water" v="lake" />
	</node>
	<node lat="59.76843055644862" lon="6.573075005722703" id="-3711">
		<tag k="alt_name" v="Flåtavatnet" />
		<tag k="name" v="Flotavatnet" />
		<tag k="natural" v="water" />
		<tag k="ssr:stedsnr" v="307126" />
	</node>
	<node lat="59.67981111488879" lon="6.612636118816992" id="-3713">
		<tag k="name" v="Øytjørn" />
		<tag k="natural" v="water" />
		<tag k="ssr:stedsnr" v="307246" />
	</node>
	<node lat="59.595933330544" lon="6.282416661187848" id="-3718">
		<tag k="alt_name" v="Hongavikfossen" />
		<tag k="name" v="Hangandvikfossen" />
		<tag k="natural" v="waterfall" />
		<tag k="ssr:stedsnr" v="342558" />
	</node>
	<node lat="59.67453888705592" lon="6.547650002458433" id="-3722">
		<tag k="name" v="Fjellvasselva" />
		<tag k="ssr:stedsnr" v="363050" />
		<tag k="waterway" v="river" />
	</node>
	<node lat="59.715781865557354" lon="6.295571575727208" id="-3726">
		<tag k="name" v="Kvanndalselva" />
		<tag k="ssr:stedsnr" v="363079" />
		<tag k="waterway" v="river" />
	</node>
	<node lat="59.691563892177136" lon="6.4020999953900075" id="-3731">
		<tag k="name" v="Skaratjørn" />
		<tag k="natural" v="water" />
		<tag k="ssr:stedsnr" v="363144" />
	</node>
	<node lat="59.69786388580896" lon="6.612597231295589" id="-3734">
		<tag k="name" v="Kuvika" />
		<tag k="natural" v="bay" />
		<tag k="ssr:stedsnr" v="363366" />
	</node>
	<node lat="59.731166669042885" lon="6.501672225220437" id="-3737">
		<tag k="name" v="Haugeland" />
		<tag k="natural" v="cape" />
		<tag k="ssr:stedsnr" v="363535" />
	</node>
	<node lat="59.63448611375995" lon="6.365988881484414" id="-3738">
		<tag k="name" v="Finnabuelva" />
		<tag k="ssr:stedsnr" v="363670" />
		<tag k="waterway" v="river" />
	</node>
	<node lat="59.669252775613074" lon="6.2217416704487345" id="-3744">
		<tag k="loc_name" v="Nordra Jakobsskorvatnet" />
		<tag k="name" v="Nora Jakobskårvatnet" />
		<tag k="natural" v="water" />
		<tag k="ssr:stedsnr" v="363727" />
		<tag k="water" v="lake" />
	</node>
	<node lat="59.67431111154699" lon="6.261894442614533" id="-3751">
		<tag k="name" v="Nilsatjørna" />
		<tag k="natural" v="water" />
		<tag k="ssr:stedsnr" v="363736" />
	</node>
	<node lat="59.65610277320094" lon="6.60571110306869" id="-3761">
		<tag k="name" v="Ervabottvatnet" />
=======
	<node id="-34678" lat="59.794891665" lon="6.45964722921">
		<tag k="alt_name" v="Tverrtjørn" />
		<tag k="name" v="Tverrtjørna" />
		<tag k="natural" v="water" />
		<tag k="ssr:stedsnr" v="489086" />
		<tag k="water" v="lake" />
	</node>
	<node id="-35701" lat="59.5999888877" lon="6.36886945298">
		<tag k="name" v="Ljosafossen" />
		<tag k="natural" v="waterfall" />
		<tag k="ssr:stedsnr" v="849700" />
	</node>
	<node id="-34830" lat="59.8342299485" lon="6.53891779747">
		<tag k="name" v="Viertjørna" />
		<tag k="natural" v="water" />
		<tag k="ssr:stedsnr" v="610034" />
	</node>
	<node id="-34673" lat="59.7242805556" lon="6.5292750013">
		<tag k="alt_name" v="Reinaskartjørn" />
		<tag k="name" v="Reinaskardtjørna" />
		<tag k="natural" v="water" />
		<tag k="ssr:stedsnr" v="488965" />
	</node>
	<node id="-35695" lat="59.714113058" lon="6.63276773345">
		<tag k="name" v="Vasskulpen" />
		<tag k="natural" v="water" />
		<tag k="ssr:stedsnr" v="849424" />
		<tag k="water" v="lake" />
	</node>
	<node id="-34877" lat="59.734486109" lon="6.34770832985">
		<tag k="alt_name" v="Viaelva" />
		<tag k="name" v="Vio" />
		<tag k="ssr:stedsnr" v="731925" />
		<tag k="waterway" v="river" />
	</node>
	<node id="-35692" lat="59.5760111093" lon="6.24707778095">
		<tag k="loc_name" v="Godfarskjegget" />
		<tag k="name" v="Gofaskjegget" />
		<tag k="natural" v="waterfall" />
		<tag k="ssr:stedsnr" v="849297" />
	</node>
	<node id="-34667" lat="59.6924111113" lon="6.2342499932">
		<tag k="name" v="Storavatnet" />
		<tag k="natural" v="water" />
		<tag k="ssr:stedsnr" v="488938" />
		<tag k="water" v="lake" />
	</node>
	<node id="-35178" lat="59.6415083294" lon="6.20591111253">
		<tag k="name" v="Bakkavatnet" />
		<tag k="natural" v="water" />
		<tag k="ssr:stedsnr" v="124471" />
	</node>
	<node id="-35176" lat="59.6792194421" lon="6.32252222991">
		<tag k="name" v="Tengdalselva" />
		<tag k="ssr:stedsnr" v="120950" />
		<tag k="waterway" v="river" />
	</node>
	<node id="-34662" lat="59.5720611141" lon="6.28251944229">
		<tag k="name" v="Hustveitelva" />
		<tag k="ssr:stedsnr" v="488858" />
		<tag k="waterway" v="stream" />
	</node>
	<node id="-34661" lat="59.5908554174" lon="6.23472160123">
		<tag k="name" v="Øvrastølsvatnet" />
		<tag k="natural" v="water" />
		<tag k="ssr:stedsnr" v="488829" />
		<tag k="water" v="lake" />
	</node>
	<node id="-34660" lat="59.644799513" lon="6.54810215389">
		<tag k="name" v="Heiavatna" />
		<tag k="natural" v="water" />
		<tag k="ssr:stedsnr" v="488802" />
		<tag k="water" v="lake" />
	</node>
	<node id="-35171" lat="59.7261975062" lon="6.61239333493">
		<tag k="name" v="Svartevasselva" />
		<tag k="ssr:stedsnr" v="120816" />
		<tag k="waterway" v="river" />
	</node>
	<node id="-34658" lat="59.6259961026" lon="6.54416229288">
		<tag k="alt_name" v="Dyrskartjørn" />
		<tag k="name" v="Dyrskardsvatnet" />
		<tag k="natural" v="water" />
		<tag k="ssr:stedsnr" v="488789" />
		<tag k="water" v="lake" />
	</node>
	<node id="-35168" lat="59.6249916688" lon="6.48413333225">
		<tag k="name" v="Storebottelva" />
		<tag k="ssr:stedsnr" v="120749" />
		<tag k="waterway" v="river" />
	</node>
	<node id="-34654" lat="59.6469000022" lon="6.50067777134">
		<tag k="name" v="Skiftesbekken" />
		<tag k="ssr:stedsnr" v="488764" />
		<tag k="waterway" v="stream" />
	</node>
	<node id="-35301" lat="59.6207242458" lon="6.44879451024">
		<tag k="name" v="Finnabuvatnet" />
		<tag k="natural" v="water" />
		<tag k="ssr:stedsnr" v="306766" />
		<tag k="water" v="lake" />
	</node>
	<node id="-35161" lat="59.5979472211" lon="6.36197500586">
		<tag k="name" v="Ljomartjørnene" />
		<tag k="natural" v="water" />
		<tag k="ssr:stedsnr" v="120667" />
		<tag k="water" v="lake" />
	</node>
	<node id="-35160" lat="59.7757166662" lon="6.42843054801">
		<tag k="name" v="Grotbottjørna" />
		<tag k="natural" v="water" />
		<tag k="ssr:stedsnr" v="120651" />
	</node>
	<node id="-35671" lat="59.6645027801" lon="6.49534444345">
		<tag k="name" v="Storlitjørna" />
		<tag k="natural" v="water" />
		<tag k="ssr:stedsnr" v="849017" />
	</node>
	<node id="-35157" lat="59.7259888914" lon="6.42337500279">
		<tag k="name" v="Herheimselva" />
		<tag k="ssr:stedsnr" v="120593" />
		<tag k="waterway" v="river" />
	</node>
	<node id="-35668" lat="59.7436638874" lon="6.40068889305">
		<tag k="name" v="Helgedalsosen" />
		<tag k="natural" v="bay" />
		<tag k="ssr:stedsnr" v="848621" />
	</node>
	<node id="-34643" lat="59.6801138932" lon="6.42009445193">
		<tag k="name" v="Austarheimselva" />
		<tag k="ssr:stedsnr" v="484884" />
		<tag k="waterway" v="river" />
	</node>
	<node id="-35154" lat="59.7004888847" lon="6.64653888933">
		<tag k="name" v="Kuvika" />
		<tag k="natural" v="bay" />
		<tag k="ssr:stedsnr" v="120416" />
	</node>
	<node id="-35153" lat="59.7004444472" lon="6.56146944592">
		<tag k="name" v="Litlaneset" />
		<tag k="natural" v="cape" />
		<tag k="ssr:stedsnr" v="120409" />
	</node>
	<node id="-34640" lat="59.6605972222" lon="6.25321110324">
		<tag k="name" v="Mosbakkelva" />
		<tag k="ssr:stedsnr" v="484759" />
		<tag k="waterway" v="river" />
	</node>
	<node id="-34639" lat="59.727413891" lon="6.64256667123">
		<tag k="name" v="Lassetjørn" />
		<tag k="natural" v="water" />
		<tag k="ssr:stedsnr" v="484646" />
	</node>
	<node id="-35725" lat="59.63764722" lon="6.42903443235">
		<tag k="name" v="Vatndalsvatnet" />
		<tag k="natural" v="water" />
		<tag k="ssr:stedsnr" v="853745" />
		<tag k="water" v="lake" />
	</node>
	<node id="-34591" lat="59.7241333374" lon="6.33134999109">
		<tag k="name" v="Fossdalsfossen" />
		<tag k="natural" v="waterfall" />
		<tag k="ssr:stedsnr" v="302108" />
	</node>
	<node id="-34632" lat="59.5928555513" lon="6.33283333559">
		<tag k="name" v="Vetrhusbekken" />
		<tag k="ssr:stedsnr" v="484284" />
		<tag k="waterway" v="stream" />
	</node>
	<node id="-34630" lat="59.7184444449" lon="6.55503611927">
		<tag k="name" v="Gunnetjørn" />
		<tag k="natural" v="water" />
		<tag k="ssr:stedsnr" v="484151" />
	</node>
	<node id="-35141" lat="59.6767500011" lon="6.47522777997">
		<tag k="name" v="Sandvatnet" />
		<tag k="natural" v="water" />
		<tag k="ssr:stedsnr" v="120011" />
		<tag k="water" v="lake" />
	</node>
	<node id="-34628" lat="59.6385305526" lon="6.46257221416">
		<tag k="name" v="Stemtjørn" />
		<tag k="natural" v="water" />
		<tag k="ssr:stedsnr" v="484048" />
	</node>
	<node id="-35650" lat="59.7525258615" lon="6.36601974719">
		<tag k="alt_name" v="Lønndardalsvatnet" />
		<tag k="name" v="Løyndardalsvatnet" />
		<tag k="natural" v="water" />
		<tag k="ssr:stedsnr" v="793106" />
		<tag k="water" v="lake" />
	</node>
	<node id="-35647" lat="59.6843878967" lon="6.47678477826">
		<tag k="alt_name" v="Stemmevatnet" />
		<tag k="name" v="Stemvatnet" />
		<tag k="natural" v="water" />
		<tag k="ssr:stedsnr" v="792999" />
		<tag k="water" v="lake" />
	</node>
	<node id="-34622" lat="59.7051666707" lon="6.48087222067">
		<tag k="name" v="Tagbekken" />
		<tag k="ssr:stedsnr" v="484126" />
		<tag k="waterway" v="stream" />
	</node>
	<node id="-35133" lat="59.6788138898" lon="6.51265277628">
		<tag k="name" v="Skarvåna" />
		<tag k="ssr:stedsnr" v="64984" />
		<tag k="waterway" v="stream" />
	</node>
	<node id="-35132" lat="59.6677152977" lon="6.57704003355">
		<tag k="alt_name" v="Dokkjavatnet" />
		<tag k="name" v="Dokkavatnet" />
		<tag k="natural" v="water" />
		<tag k="ssr:stedsnr" v="64980" />
		<tag k="water" v="lake" />
	</node>
	<node id="-35643" lat="59.7303750013" lon="6.39427499674">
		<tag k="name" v="Fjotetjørna" />
		<tag k="natural" v="water" />
		<tag k="ssr:stedsnr" v="792897" />
	</node>
	<node id="-35640" lat="59.5869162426" lon="6.25430462712">
		<tag k="name" v="Stølsvatnet" />
		<tag k="natural" v="water" />
		<tag k="ssr:stedsnr" v="792796" />
		<tag k="water" v="lake" />
	</node>
	<node id="-35639" lat="59.6464527793" lon="6.52256111761">
		<tag k="alt_name" v="Stemvatnet" />
		<tag k="name" v="Stemtjørn" />
		<tag k="natural" v="water" />
		<tag k="ssr:stedsnr" v="792781" />
	</node>
	<node id="-35638" lat="59.6341583319" lon="6.36711665847">
		<tag k="name" v="Sagelva" />
		<tag k="ssr:stedsnr" v="792775" />
		<tag k="waterway" v="river" />
	</node>
	<node id="-35637" lat="59.7382994303" lon="6.64554553178">
		<tag k="name" v="Svartavatnet" />
		<tag k="natural" v="water" />
		<tag k="ssr:stedsnr" v="792144" />
		<tag k="water" v="lake" />
	</node>
	<node id="-34612" lat="59.7684305564" lon="6.57307500572">
		<tag k="alt_name" v="Flåtavatnet" />
		<tag k="name" v="Flotavatnet" />
		<tag k="natural" v="water" />
		<tag k="ssr:stedsnr" v="307126" />
	</node>
	<node id="-35119" lat="59.6143361099" lon="6.19616388719">
		<tag k="alt_name" v="Ravnafjellvatnet" />
		<tag k="name" v="Ramnafjellvatnet" />
		<tag k="natural" v="water" />
		<tag k="ssr:stedsnr" v="64543" />
		<tag k="water" v="lake" />
	</node>
	<node id="-35116" lat="59.6101037993" lon="6.33955722646">
		<tag k="fixme" v="multiple name tags, choose one and add the other to alt_name" />
		<tag k="name" v="Hekkanstjørna;Kviatjørna" />
		<tag k="natural" v="water" />
		<tag k="ssr:stedsnr" v="63785" />
	</node>
	<node id="-35114" lat="59.6791305559" lon="6.34956944106">
		<tag k="name" v="Tverråna" />
		<tag k="ssr:stedsnr" v="60972" />
		<tag k="waterway" v="river" />
	</node>
	<node id="-34598" lat="59.6189916678" lon="6.23238611246">
		<tag k="loc_name" v="Longatjørna" />
		<tag k="name" v="Longa Tjødnå" />
		<tag k="natural" v="water" />
		<tag k="ssr:stedsnr" v="302519" />
	</node>
	<node id="-35620" lat="59.7040305552" lon="6.54467499803">
		<tag k="name" v="Litlastøltjørna" />
		<tag k="natural" v="water" />
		<tag k="ssr:stedsnr" v="788191" />
	</node>
	<node id="-35618" lat="59.6875444487" lon="6.47137500658">
		<tag k="name" v="Longavatnet" />
		<tag k="natural" v="water" />
		<tag k="ssr:stedsnr" v="788139" />
		<tag k="water" v="lake" />
	</node>
	<node id="-35615" lat="59.7019722184" lon="6.37878611645">
		<tag k="name" v="Heidalsvatnet" />
		<tag k="natural" v="water" />
		<tag k="ssr:stedsnr" v="788109" />
		<tag k="water" v="lake" />
	</node>
	<node id="-35100" lat="59.6278020926" lon="6.39023439657">
		<tag k="name" v="Indra Tjelmavatnet" />
		<tag k="natural" v="water" />
		<tag k="ssr:stedsnr" v="60713" />
		<tag k="water" v="lake" />
	</node>
	<node id="-35062" lat="59.7204666672" lon="6.42530277575">
		<tag k="name" v="Hereimselva" />
		<tag k="ssr:stedsnr" v="3907" />
		<tag k="waterway" v="river" />
	</node>
	<node id="-34581" lat="59.7377916698" lon="6.51643888401">
		<tag k="name" v="Berdalselva" />
		<tag k="ssr:stedsnr" v="246906" />
		<tag k="waterway" v="river" />
	</node>
	<node id="-34579" lat="59.780802034" lon="6.38639924145">
		<tag k="alt_name" v="Borgedalsvatnet, øvre;Øvra Bergedalsvatnet" />
		<tag k="name" v="Øvra Borgedalsvatnet" />
		<tag k="natural" v="water" />
		<tag k="ssr:stedsnr" v="246068" />
		<tag k="water" v="lake" />
	</node>
	<node id="-34577" lat="59.6145500022" lon="6.37960277495">
		<tag k="name" v="Krokavatnet" />
		<tag k="natural" v="water" />
		<tag k="ssr:stedsnr" v="245776" />
		<tag k="water" v="lake" />
	</node>
	<node id="-34576" lat="59.6246283859" lon="6.4684817871">
		<tag k="alt_name" v="Svartavatn" />
		<tag k="name" v="Svartavatnet" />
		<tag k="natural" v="water" />
		<tag k="ssr:stedsnr" v="245767" />
		<tag k="water" v="lake" />
	</node>
	<node id="-35087" lat="59.6462416694" lon="6.46367777368">
		<tag k="name" v="Veabekken" />
		<tag k="ssr:stedsnr" v="60073" />
		<tag k="waterway" v="stream" />
	</node>
	<node id="-34569" lat="59.6612197921" lon="6.34902391945">
		<tag k="loc_name" v="Høllandstjørna" />
		<tag k="name" v="Høllandstjørne" />
		<tag k="natural" v="water" />
		<tag k="ssr:stedsnr" v="242963" />
	</node>
	<node id="-35201" lat="59.6752000038" lon="6.41835277175">
		<tag k="name" v="Tverrelva" />
		<tag k="ssr:stedsnr" v="124992" />
		<tag k="waterway" v="stream" />
	</node>
	<node id="-35542" lat="59.6959444425" lon="6.51974444407">
		<tag k="name" v="Lonaelva" />
		<tag k="ssr:stedsnr" v="605412" />
		<tag k="waterway" v="river" />
	</node>
	<node id="-34559" lat="59.6835305574" lon="6.28879166398">
		<tag k="name" v="Geitafossen" />
		<tag k="natural" v="waterfall" />
		<tag k="ssr:stedsnr" v="242058" />
	</node>
	<node id="-34558" lat="59.6605388885" lon="6.44677776954">
		<tag k="name" v="Storlibekken" />
		<tag k="ssr:stedsnr" v="242027" />
		<tag k="waterway" v="stream" />
	</node>
	<node id="-34556" lat="59.7209055527" lon="6.48595000168">
		<tag k="name" v="Buershaugen" />
		<tag k="place" v="islet" />
		<tag k="ssr:stedsnr" v="242125" />
	</node>
	<node id="-35579" lat="59.7672194447" lon="6.3912333313">
		<tag k="name" v="Holmavatnet" />
>>>>>>> e1d4bc35ff8a6074a6f2e91616a996b547c36f15
		<tag k="natural" v="water" />
		<tag k="ssr:stedsnr" v="610133" />
		<tag k="water" v="lake" />
	</node>
<<<<<<< HEAD
	<node lat="59.66752612586384" lon="6.631606940711627" id="-3762">
		<tag k="name" v="Stovedalsvatnet" />
		<tag k="natural" v="water" />
		<tag k="ssr:stedsnr" v="367165" />
		<tag k="water" v="lake" />
	</node>
	<node lat="59.66151666327634" lon="6.431836119026839" id="-3764">
		<tag k="name" v="Storelva" />
		<tag k="ssr:stedsnr" v="367970" />
		<tag k="waterway" v="river" />
	</node>
	<node lat="59.683424997640394" lon="6.581250005866176" id="-3767">
		<tag k="name" v="Finnflotvatnet" />
		<tag k="natural" v="water" />
		<tag k="ssr:stedsnr" v="367981" />
		<tag k="water" v="lake" />
	</node>
	<node lat="59.68142777591807" lon="6.345274994293713" id="-3768">
		<tag k="name" v="Tverråna" />
		<tag k="ssr:stedsnr" v="367989" />
		<tag k="waterway" v="stream" />
	</node>
	<node lat="59.75844722087805" lon="6.304688881934258" id="-3786">
		<tag k="name" v="Skautanuttjørna" />
		<tag k="natural" v="water" />
		<tag k="ssr:stedsnr" v="368129" />
	</node>
	<node lat="59.759447320556404" lon="6.397578364439313" id="-3787">
		<tag k="name" v="Fossavatnet" />
		<tag k="natural" v="water" />
		<tag k="ssr:stedsnr" v="368130" />
		<tag k="water" v="lake" />
	</node>
	<node lat="59.826500003668755" lon="6.597825007060829" id="-3789">
		<tag k="name" v="Søre Dyrskarvatna" />
		<tag k="natural" v="water" />
		<tag k="ssr:stedsnr" v="368264" />
		<tag k="water" v="lake" />
	</node>
	<node lat="59.77922125995275" lon="6.6720175906765204" id="-3790">
		<tag k="name" v="Nedra Sandvatnet" />
		<tag k="natural" v="water" />
		<tag k="ssr:stedsnr" v="368846" />
		<tag k="water" v="lake" />
	</node>
	<node lat="59.60564444285945" lon="6.2849138843591605" id="-3811">
		<tag k="name" v="Varstadbekken" />
		<tag k="ssr:stedsnr" v="424682" />
		<tag k="waterway" v="stream" />
	</node>
	<node lat="59.62915833745933" lon="6.402080549591294" id="-3815">
		<tag k="name" v="Krugdalsfossen" />
		<tag k="natural" v="waterfall" />
		<tag k="ssr:stedsnr" v="424613" />
	</node>
	<node lat="59.66623055519373" lon="6.394524993521123" id="-3818">
		<tag k="name" v="Hafftjørn" />
=======
	<node id="-35577" lat="59.7727308948" lon="6.44538117283">
		<tag k="alt_name" v="Dyrabottvatnet" />
		<tag k="name" v="Dyrabotntjørna" />
		<tag k="natural" v="water" />
		<tag k="ssr:stedsnr" v="610128" />
		<tag k="water" v="lake" />
	</node>
	<node id="-35061" lat="59.5724972224" lon="6.25041111827">
		<tag k="alt_name" v="Stølsvatnet;Vårstølvatnet" />
		<tag k="name" v="Vårstølsvatnet" />
>>>>>>> e1d4bc35ff8a6074a6f2e91616a996b547c36f15
		<tag k="natural" v="water" />
		<tag k="ssr:stedsnr" v="3859" />
		<tag k="water" v="lake" />
	</node>
<<<<<<< HEAD
	<node lat="59.72690833227605" lon="6.627777773370317" id="-3823">
		<tag k="name" v="Svartkulp" />
		<tag k="place" v="locality" />
		<tag k="ssr:stedsnr" v="428198" />
	</node>
	<node lat="59.6537566475962" lon="6.438306665804055" id="-3826">
		<tag k="alt_name" v="Nedra Svortetjørn" />
		<tag k="name" v="Svortetjørn" />
		<tag k="natural" v="water" />
		<tag k="ssr:stedsnr" v="428744" />
	</node>
	<node lat="59.62997661481883" lon="6.41709095625667" id="-3828">
		<tag k="name" v="Storaheivatnet" />
		<tag k="natural" v="water" />
		<tag k="ssr:stedsnr" v="428812" />
		<tag k="water" v="lake" />
	</node>
	<node lat="59.707965605765956" lon="6.390497361112699" id="-3835">
		<tag k="name" v="Vatndalsvatnet" />
		<tag k="natural" v="water" />
		<tag k="ssr:stedsnr" v="428944" />
		<tag k="water" v="lake" />
	</node>
	<node lat="59.72791944076513" lon="6.49355000004753" id="-3836">
		<tag k="alt_name" v="Slettedalsdammen" />
		<tag k="name" v="Slettedalsvatnet" />
		<tag k="natural" v="water" />
		<tag k="ssr:stedsnr" v="428945" />
		<tag k="water" v="lake" />
	</node>
	<node lat="59.68722778050579" lon="6.4070694523692975" id="-3841">
		<tag k="name" v="Alkestølselva" />
		<tag k="ssr:stedsnr" v="429000" />
		<tag k="waterway" v="stream" />
	</node>
	<node lat="59.72195555506957" lon="6.561647218618539" id="-3854">
		<tag k="name" v="Nøkkentjørn" />
		<tag k="natural" v="water" />
		<tag k="ssr:stedsnr" v="545174" />
	</node>
	<node lat="59.65144999877826" lon="6.435450005050521" id="-3856">
		<tag k="name" v="Øvra Svortetjørn" />
=======
	<node id="-35575" lat="59.8377093254" lon="6.66831995107">
		<tag k="name" v="Hallet-grøne-tjørnane" />
		<tag k="natural" v="water" />
		<tag k="ssr:stedsnr" v="610247" />
		<tag k="water" v="lake" />
	</node>
	<node id="-35574" lat="59.705063885" lon="6.34118333336">
		<tag k="name" v="Buerelva" />
		<tag k="ssr:stedsnr" v="609943" />
		<tag k="waterway" v="river" />
	</node>
	<node id="-35573" lat="59.7522158078" lon="6.55241232562">
		<tag k="name" v="Berdalsvatnet" />
		<tag k="natural" v="water" />
		<tag k="ssr:stedsnr" v="609925" />
		<tag k="water" v="lake" />
	</node>
	<node id="-34945" lat="59.710646968" lon="6.39669819826">
		<tag k="alt_name" v="Vikjå" />
		<tag k="name" v="Vika" />
		<tag k="natural" v="bay" />
		<tag k="ssr:stedsnr" v="909113" />
	</node>
	<node id="-34546" lat="59.7512694455" lon="6.35243611371">
		<tag k="name" v="Løyndardalselva" />
		<tag k="ssr:stedsnr" v="186110" />
		<tag k="waterway" v="stream" />
	</node>
	<node id="-35057" lat="59.6250250043" lon="6.2906555471">
		<tag k="name" v="Svandalsfossen" />
		<tag k="natural" v="waterfall" />
		<tag k="ssr:stedsnr" v="3773" />
	</node>
	<node id="-35055" lat="59.6271334085" lon="6.19414208091">
		<tag k="alt_name" v="Svandalstjørna" />
		<tag k="name" v="Svandalsvatnet" />
		<tag k="natural" v="water" />
		<tag k="ssr:stedsnr" v="3490" />
		<tag k="water" v="lake" />
	</node>
	<node id="-35053" lat="59.7237093046" lon="6.56605043301">
		<tag k="name" v="Breiborgvatnet" />
		<tag k="natural" v="water" />
		<tag k="ssr:stedsnr" v="970635" />
		<tag k="water" v="lake" />
	</node>
	<node id="-34856" lat="59.7744499985" lon="6.50344444984">
		<tag k="name" v="Oddvarsbekken" />
		<tag k="ssr:stedsnr" v="727651" />
		<tag k="waterway" v="stream" />
	</node>
	<node id="-34539" lat="59.689466665" lon="6.36670278673">
		<tag k="name" v="Jimlebekken" />
		<tag k="ssr:stedsnr" v="181126" />
		<tag k="waterway" v="stream" />
	</node>
	<node id="-34538" lat="59.6928805532" lon="6.38200277608">
		<tag k="name" v="Øvra Stutatjørn" />
>>>>>>> e1d4bc35ff8a6074a6f2e91616a996b547c36f15
		<tag k="natural" v="water" />
		<tag k="ssr:stedsnr" v="181125" />
	</node>
<<<<<<< HEAD
	<node lat="59.63685833457882" lon="6.362025004542263" id="-3857">
		<tag k="loc_name" v="Sagfossen" />
		<tag k="name" v="Safossen" />
		<tag k="natural" v="waterfall" />
		<tag k="ssr:stedsnr" v="545692" />
	</node>
	<node lat="59.58923889172994" lon="6.387941662689529" id="-3864">
		<tag k="name" v="Norddalstjørnene" />
		<tag k="natural" v="water" />
		<tag k="ssr:stedsnr" v="545293" />
		<tag k="water" v="lake" />
	</node>
	<node lat="59.630083337585944" lon="6.432130560687664" id="-3866">
		<tag k="name" v="Finnabuelva" />
		<tag k="ssr:stedsnr" v="545612" />
		<tag k="waterway" v="river" />
	</node>
	<node lat="59.67433697561748" lon="6.223288393931566" id="-3870">
		<tag k="name" v="Førsta Garlagvatnet" />
		<tag k="natural" v="water" />
		<tag k="ssr:stedsnr" v="545737" />
		<tag k="water" v="lake" />
	</node>
	<node lat="59.664577777285174" lon="6.226674994838674" id="-3873">
		<tag k="loc_name" v="Øvra Jakobsskorvatnet" />
		<tag k="name" v="Øvra Jakobskårvatnet" />
		<tag k="natural" v="water" />
		<tag k="ssr:stedsnr" v="545754" />
		<tag k="water" v="lake" />
	</node>
	<node lat="59.648330558125785" lon="6.474036117111978" id="-3888">
		<tag k="alt_name" v="Breidkvamselva" />
		<tag k="name" v="Breikvamselva" />
		<tag k="ssr:stedsnr" v="549742" />
		<tag k="waterway" v="stream" />
	</node>
	<node lat="59.6386861068568" lon="6.399249992057693" id="-3889">
		<tag k="name" v="Stemtjørn" />
=======
	<node id="-35110" lat="59.6654138921" lon="6.41399721506">
		<tag k="name" v="Saghølen" />
		<tag k="place" v="locality" />
		<tag k="ssr:stedsnr" v="60906" />
	</node>
	<node id="-35553" lat="59.6339611112" lon="6.45170555391">
		<tag k="name" v="Longatjørn" />
		<tag k="natural" v="water" />
		<tag k="ssr:stedsnr" v="605845" />
	</node>
	<node id="-35026" lat="59.6519111106" lon="6.28578333349">
		<tag k="name" v="Risvollelva" />
		<tag k="ssr:stedsnr" v="853753" />
		<tag k="waterway" v="stream" />
	</node>
	<node id="-35035" lat="59.7170388851" lon="6.6042027699">
		<tag k="name" v="Svarthøl" />
		<tag k="natural" v="water" />
		<tag k="ssr:stedsnr" v="902227" />
		<tag k="water" v="lake" />
	</node>
	<node id="-35033" lat="59.626169445" lon="6.28609166354">
		<tag k="name" v="Svandalselva" />
		<tag k="ssr:stedsnr" v="949571" />
		<tag k="waterway" v="river" />
	</node>
	<node id="-34519" lat="59.5919642082" lon="6.25706315013">
		<tag k="alt_name" v="Svartavatnet, nedre" />
		<tag k="name" v="Nedra Svartavatnet" />
		<tag k="natural" v="water" />
		<tag k="ssr:stedsnr" v="246826" />
		<tag k="water" v="lake" />
	</node>
	<node id="-34518" lat="59.6128944424" lon="6.49353051955">
		<tag k="name" v="Storebotnsvatnet" />
		<tag k="natural" v="water" />
		<tag k="ssr:stedsnr" v="246816" />
		<tag k="water" v="lake" />
	</node>
	<node id="-35029" lat="59.7454346567" lon="6.45929526142">
		<tag k="name" v="Stordalsvatnet" />
		<tag k="natural" v="water" />
		<tag k="ssr:stedsnr" v="853925" />
		<tag k="water" v="lake" />
	</node>
	<node id="-34516" lat="59.6188249988" lon="6.22311944695">
		<tag k="name" v="Svandalselva" />
		<tag k="ssr:stedsnr" v="246779" />
		<tag k="waterway" v="river" />
	</node>
	<node id="-35538" lat="59.7160861069" lon="6.44665277073">
		<tag k="name" v="Borjetjørn" />
>>>>>>> e1d4bc35ff8a6074a6f2e91616a996b547c36f15
		<tag k="natural" v="water" />
		<tag k="ssr:stedsnr" v="549746" />
	</node>
<<<<<<< HEAD
	<node lat="59.60229166719108" lon="6.344325005329539" id="-3893">
		<tag k="alt_name" v="Stora Vetrehustjørn" />
		<tag k="name" v="Vetrhustjørna" />
		<tag k="natural" v="water" />
		<tag k="ssr:stedsnr" v="549822" />
	</node>
	<node lat="59.68612229576289" lon="6.555072126687031" id="-3897">
		<tag k="alt_name" v="Dalavatnet" />
		<tag k="name" v="Dalvatnet" />
		<tag k="natural" v="water" />
		<tag k="ssr:stedsnr" v="549978" />
		<tag k="water" v="lake" />
	</node>
	<node lat="59.599325002469" lon="6.353563879975313" id="-3903">
		<tag k="alt_name" v="Sjølskotttjørna" />
		<tag k="name" v="Sjølvskottjørna" />
		<tag k="natural" v="water" />
		<tag k="ssr:stedsnr" v="670826" />
	</node>
	<node lat="59.7218861139163" lon="6.4696361111563565" id="-3909">
		<tag k="name" v="Vilandsbekken" />
		<tag k="ssr:stedsnr" v="605174" />
		<tag k="waterway" v="stream" />
	</node>
	<node lat="59.633961111207505" lon="6.451705553912647" id="-3924">
		<tag k="name" v="Longatjørn" />
		<tag k="natural" v="water" />
		<tag k="ssr:stedsnr" v="605845" />
	</node>
	<node lat="59.59619444722241" lon="6.277291664943042" id="-3941">
		<tag k="name" v="Brudesløret" />
		<tag k="ssr:stedsnr" v="609819" />
		<tag k="waterway" v="stream" />
	</node>
	<node lat="59.68441331892589" lon="6.390388734346511" id="-3948">
		<tag k="fixme" v="multiple name tags, choose one and add the other to alt_name" />
		<tag k="name" v="Stemtjørn;Glovretjørn" />
		<tag k="natural" v="water" />
		<tag k="ssr:stedsnr" v="609999" />
	</node>
	<node lat="59.83770932540253" lon="6.668319951074633" id="-3950">
		<tag k="name" v="Hallet-grøne-tjørnane" />
		<tag k="natural" v="water" />
		<tag k="ssr:stedsnr" v="610247" />
		<tag k="water" v="lake" />
	</node>
	<node lat="59.73677408016731" lon="6.459942703085621" id="-3953">
		<tag k="alt_name" v="Uraskartjørna" />
		<tag k="name" v="Urdaskardtjørna" />
		<tag k="natural" v="water" />
		<tag k="ssr:stedsnr" v="610935" />
	</node>
	<node lat="59.713108335830256" lon="6.33935832685754" id="-3959">
		<tag k="name" v="Viaelva" />
		<tag k="ssr:stedsnr" v="666089" />
		<tag k="waterway" v="river" />
	</node>
	<node lat="59.72394724146332" lon="6.411619894665746" id="-3961">
		<tag k="name" v="Kjørkjeskartjørna" />
		<tag k="natural" v="water" />
		<tag k="ssr:stedsnr" v="666114" />
	</node>
	<node lat="59.69006932868078" lon="6.385145047600647" id="-3963">
		<tag k="name" v="Nedra Stutatjørn" />
		<tag k="natural" v="water" />
		<tag k="ssr:stedsnr" v="666123" />
	</node>
	<node lat="59.672661111499984" lon="6.478055557071138" id="-3965">
		<tag k="name" v="Botnatjørna" />
		<tag k="natural" v="water" />
		<tag k="ssr:stedsnr" v="666024" />
	</node>
	<node lat="59.58352777403031" lon="6.295163880598225" id="-3971">
		<tag k="name" v="Risvollbekken" />
		<tag k="ssr:stedsnr" v="666299" />
		<tag k="waterway" v="stream" />
	</node>
	<node lat="59.6557666647263" lon="6.38102778088642" id="-3984">
		<tag k="name" v="Kastfoss" />
		<tag k="natural" v="waterfall" />
		<tag k="ssr:stedsnr" v="666863" />
	</node>
	<node lat="59.65810442871819" lon="6.5524889689306285" id="-3995">
		<tag k="alt_name" v="Fjellvatnet" />
		<tag k="name" v="Øvra Fjellvatnet" />
=======
	<node id="-35582" lat="59.8096161401" lon="6.67762151887">
		<tag k="name" v="Øvra Sandvatnet" />
		<tag k="natural" v="water" />
		<tag k="ssr:stedsnr" v="610278" />
		<tag k="water" v="lake" />
	</node>
	<node id="-35024" lat="59.6948055562" lon="6.66001388525">
		<tag k="name" v="Nyggjelebeitevatnet" />
		<tag k="natural" v="water" />
		<tag k="ssr:stedsnr" v="853170" />
		<tag k="water" v="lake" />
	</node>
	<node id="-35277" lat="59.6308327122" lon="6.4506858605">
		<tag k="name" v="Drengjaslåttvatnet" />
		<tag k="natural" v="water" />
		<tag k="ssr:stedsnr" v="302816" />
		<tag k="water" v="lake" />
	</node>
	<node id="-34508" lat="59.7583562447" lon="6.66500649044">
		<tag k="name" v="Sandvasstjørna" />
		<tag k="natural" v="water" />
		<tag k="ssr:stedsnr" v="246727" />
	</node>
	<node id="-35019" lat="59.5901944486" lon="6.39534443859">
		<tag k="name" v="Norddalstjørnene" />
		<tag k="natural" v="water" />
		<tag k="ssr:stedsnr" v="844723" />
		<tag k="water" v="lake" />
	</node>
	<node id="-34504" lat="59.69459722" lon="6.53862221377">
		<tag k="alt_name" v="Lona, øvra;Øvra Lonå" />
		<tag k="name" v="Øvra Lona" />
		<tag k="natural" v="water" />
		<tag k="ssr:stedsnr" v="245990" />
	</node>
	<node id="-35527" lat="59.7572583293" lon="6.52848056304">
		<tag k="name" v="Raudhammartjørna" />
		<tag k="natural" v="water" />
		<tag k="ssr:stedsnr" v="550112" />
	</node>
	<node id="-35526" lat="59.7512416683" lon="6.5444305629">
		<tag k="name" v="Berdalsstranda" />
		<tag k="natural" v="beach" />
		<tag k="ssr:stedsnr" v="550107" />
	</node>
	<node id="-35011" lat="59.6243888852" lon="6.49093333493">
		<tag k="name" v="Nelingstjørna" />
		<tag k="natural" v="water" />
		<tag k="ssr:stedsnr" v="791780" />
	</node>
	<node id="-35010" lat="59.60839172" lon="6.357718359">
		<tag k="alt_name" v="Malldalsvatnet" />
		<tag k="name" v="Maldalsvatnet" />
		<tag k="natural" v="water" />
		<tag k="ssr:stedsnr" v="791836" />
		<tag k="water" v="lake" />
	</node>
	<node id="-35521" lat="59.6861222958" lon="6.55507212669">
		<tag k="alt_name" v="Dalavatnet" />
		<tag k="name" v="Dalvatnet" />
		<tag k="natural" v="water" />
		<tag k="ssr:stedsnr" v="549978" />
		<tag k="water" v="lake" />
	</node>
	<node id="-35520" lat="59.6969249965" lon="6.24832499203">
		<tag k="name" v="Urdaskardtjørna" />
		<tag k="natural" v="water" />
		<tag k="ssr:stedsnr" v="549959" />
	</node>
	<node id="-35519" lat="59.7063555511" lon="6.56179999212">
		<tag k="alt_name" v="Førstavatnet" />
		<tag k="name" v="Førstadvatnet" />
		<tag k="natural" v="water" />
		<tag k="ssr:stedsnr" v="549951" />
		<tag k="water" v="lake" />
	</node>
	<node id="-35518" lat="59.7051833342" lon="6.42238889557">
		<tag k="alt_name" v="Fetavatnet" />
		<tag k="name" v="Fitavatnet" />
		<tag k="natural" v="water" />
		<tag k="ssr:stedsnr" v="549950" />
		<tag k="water" v="lake" />
	</node>
	<node id="-35516" lat="59.7452666635" lon="6.41051388869">
		<tag k="name" v="Helgedalsvatnet" />
		<tag k="natural" v="water" />
		<tag k="ssr:stedsnr" v="549929" />
		<tag k="water" v="lake" />
	</node>
	<node id="-34491" lat="59.6264388326" lon="6.38554866354">
		<tag k="name" v="Ytra Tjelmavatnet" />
		<tag k="natural" v="water" />
		<tag k="ssr:stedsnr" v="242685" />
		<tag k="water" v="lake" />
	</node>
	<node id="-34490" lat="59.6162833306" lon="6.23088889318">
		<tag k="loc_name" v="Rundatjørna" />
		<tag k="name" v="Runda Tjødnå" />
		<tag k="natural" v="water" />
		<tag k="ssr:stedsnr" v="242714" />
	</node>
	<node id="-35001" lat="59.7260083337" lon="6.36175833565">
		<tag k="name" v="Moringdalselva" />
		<tag k="ssr:stedsnr" v="914913" />
		<tag k="waterway" v="stream" />
	</node>
	<node id="-35512" lat="59.6022916672" lon="6.34432500533">
		<tag k="alt_name" v="Stora Vetrehustjørn" />
		<tag k="name" v="Vetrhustjørna" />
		<tag k="natural" v="water" />
		<tag k="ssr:stedsnr" v="549822" />
	</node>
	<node id="-34999" lat="59.7548920895" lon="6.60807826218">
		<tag k="name" v="Tindatjørna" />
		<tag k="natural" v="water" />
		<tag k="ssr:stedsnr" v="914766" />
		<tag k="water" v="lake" />
	</node>
	<node id="-34486" lat="59.5797138917" lon="6.34269444645">
		<tag k="name" v="Mollabekken" />
		<tag k="ssr:stedsnr" v="242282" />
		<tag k="waterway" v="stream" />
	</node>
	<node id="-34997" lat="59.6546638918" lon="6.37312499111">
		<tag k="name" v="Storelva" />
		<tag k="ssr:stedsnr" v="914108" />
		<tag k="waterway" v="river" />
	</node>
	<node id="-34996" lat="59.8301193315" lon="6.59461051811">
		<tag k="name" v="Dyrskarvatna" />
		<tag k="natural" v="water" />
		<tag k="ssr:stedsnr" v="914043" />
		<tag k="water" v="lake" />
	</node>
	<node id="-35507" lat="59.6386861069" lon="6.39924999206">
		<tag k="name" v="Stemtjørn" />
		<tag k="natural" v="water" />
		<tag k="ssr:stedsnr" v="549746" />
	</node>
	<node id="-35506" lat="59.6483305581" lon="6.47403611711">
		<tag k="alt_name" v="Breidkvamselva" />
		<tag k="name" v="Breikvamselva" />
		<tag k="ssr:stedsnr" v="549742" />
		<tag k="waterway" v="stream" />
	</node>
	<node id="-34993" lat="59.6794526514" lon="6.52238539941">
		<tag k="fixme" v="multiple name tags, choose one and add the other to alt_name" />
		<tag k="name" v="Dalvasselva;Suldalselva" />
		<tag k="ssr:stedsnr" v="913982" />
		<tag k="waterway" v="river" />
	</node>
	<node id="-35570" lat="59.6844133189" lon="6.39038873435">
		<tag k="fixme" v="multiple name tags, choose one and add the other to alt_name" />
		<tag k="name" v="Glovretjørn;Stemtjørn" />
		<tag k="natural" v="water" />
		<tag k="ssr:stedsnr" v="609999" />
	</node>
	<node id="-35229" lat="59.7410555555" lon="6.48360000416">
		<tag k="name" v="Skiftesbekken" />
		<tag k="ssr:stedsnr" v="181601" />
		<tag k="waterway" v="stream" />
	</node>
	<node id="-34988" lat="59.5974877668" lon="6.24084339542">
		<tag k="alt_name" v="Svartavatnet" />
		<tag k="name" v="Øvra Svartavatnet" />
>>>>>>> e1d4bc35ff8a6074a6f2e91616a996b547c36f15
		<tag k="natural" v="water" />
		<tag k="ssr:stedsnr" v="913818" />
		<tag k="water" v="lake" />
	</node>
<<<<<<< HEAD
	<node lat="59.60511010323744" lon="6.182159592805807" id="-3996">
		<tag k="alt_name" v="Regnfossvatnet" />
		<tag k="name" v="Reinsfossvatnet" />
=======
	<node id="-34475" lat="59.6888777783" lon="6.25849999209">
		<tag k="alt_name" v="Brekkestølvatnet" />
		<tag k="name" v="Brekkestølsvatnet" />
>>>>>>> e1d4bc35ff8a6074a6f2e91616a996b547c36f15
		<tag k="natural" v="water" />
		<tag k="ssr:stedsnr" v="63934" />
		<tag k="water" v="lake" />
	</node>
<<<<<<< HEAD
	<node lat="59.647369440740256" lon="6.397922216982465" id="-4000">
		<tag k="name" v="Kvednabekken" />
		<tag k="ssr:stedsnr" v="727002" />
		<tag k="waterway" v="stream" />
	</node>
	<node lat="59.72100555665361" lon="6.50536667361708" id="-4010">
		<tag k="name" v="Reinaskarbekken" />
		<tag k="ssr:stedsnr" v="727150" />
		<tag k="waterway" v="stream" />
	</node>
	<node lat="59.68154166383077" lon="6.4032472209811475" id="-4011">
		<tag k="name" v="Lomtjørn" />
		<tag k="natural" v="water" />
		<tag k="ssr:stedsnr" v="727158" />
	</node>
	<node lat="59.68678461448535" lon="6.441782836458941" id="-4012">
		<tag k="name" v="Lunkjenbottjørna" />
		<tag k="natural" v="water" />
		<tag k="ssr:stedsnr" v="727161" />
	</node>
	<node lat="59.77444999854123" lon="6.503444449837391" id="-4024">
		<tag k="name" v="Oddvarsbekken" />
		<tag k="ssr:stedsnr" v="727651" />
		<tag k="waterway" v="stream" />
	</node>
	<node lat="59.65023610748029" lon="6.527394439782476" id="-4032">
=======
	<node id="-35015" lat="59.7119059827" lon="6.27621190671">
		<tag k="name" v="Svartavatnet" />
		<tag k="natural" v="water" />
		<tag k="ssr:stedsnr" v="792972" />
		<tag k="water" v="lake" />
	</node>
	<node id="-34983" lat="59.6582638871" lon="6.50105832527">
		<tag k="name" v="Liabekken" />
		<tag k="ssr:stedsnr" v="913749" />
		<tag k="waterway" v="stream" />
	</node>
	<node id="-35492" lat="59.6801138932" lon="6.42009445193">
		<tag k="name" v="Bergaelva" />
		<tag k="ssr:stedsnr" v="545881" />
		<tag k="waterway" v="river" />
	</node>
	<node id="-34979" lat="59.5809027771" lon="6.37365554828">
		<tag k="name" v="Norddalsbekken" />
		<tag k="ssr:stedsnr" v="910300" />
		<tag k="waterway" v="stream" />
	</node>
	<node id="-34853" lat="59.6202055558" lon="6.47023332696">
		<tag k="name" v="Sjonarhaugelva" />
		<tag k="ssr:stedsnr" v="727771" />
		<tag k="waterway" v="river" />
	</node>
	<node id="-34976" lat="59.5804055571" lon="6.33217222973">
		<tag k="name" v="Mollaelva" />
		<tag k="ssr:stedsnr" v="910285" />
		<tag k="waterway" v="river" />
	</node>
	<node id="-34975" lat="59.6893166667" lon="6.39569721634">
		<tag k="name" v="Verabekken" />
		<tag k="ssr:stedsnr" v="910166" />
		<tag k="waterway" v="stream" />
	</node>
	<node id="-35486" lat="59.6645777773" lon="6.22667499484">
		<tag k="loc_name" v="Øvra Jakobsskorvatnet" />
		<tag k="name" v="Øvra Jakobskårvatnet" />
		<tag k="natural" v="water" />
		<tag k="ssr:stedsnr" v="545754" />
		<tag k="water" v="lake" />
	</node>
	<node id="-34973" lat="59.6422888883" lon="6.24858611141">
		<tag k="loc_name" v="Fossane" />
		<tag k="name" v="Fossadn" />
		<tag k="natural" v="waterfall" />
		<tag k="ssr:stedsnr" v="909980" />
	</node>
	<node id="-35483" lat="59.6743369756" lon="6.22328839393">
		<tag k="name" v="Førsta Garlagvatnet" />
		<tag k="natural" v="water" />
		<tag k="ssr:stedsnr" v="545737" />
		<tag k="water" v="lake" />
	</node>
	<node id="-35482" lat="59.6368583346" lon="6.36202500454">
		<tag k="loc_name" v="Sagfossen" />
		<tag k="name" v="Safossen" />
		<tag k="natural" v="waterfall" />
		<tag k="ssr:stedsnr" v="545692" />
	</node>
	<node id="-34457" lat="59.6555750043" lon="6.35859999835">
		<tag k="name" v="Nordelva" />
		<tag k="ssr:stedsnr" v="223685" />
		<tag k="waterway" v="river" />
	</node>
	<node id="-34455" lat="59.7318527795" lon="6.48064444137">
		<tag k="name" v="Buersbekken" />
		<tag k="ssr:stedsnr" v="303587" />
		<tag k="waterway" v="stream" />
	</node>
	<node id="-35476" lat="59.7416777811" lon="6.35967500486">
		<tag k="name" v="Raueråsbekken" />
		<tag k="ssr:stedsnr" v="545487" />
		<tag k="waterway" v="stream" />
	</node>
	<node id="-34962" lat="59.6326694478" lon="6.48054445001">
		<tag k="name" v="Mesaftastjørna" />
		<tag k="natural" v="water" />
		<tag k="ssr:stedsnr" v="909749" />
	</node>
	<node id="-35473" lat="59.5892388917" lon="6.38794166269">
		<tag k="name" v="Norddalstjørnene" />
		<tag k="natural" v="water" />
		<tag k="ssr:stedsnr" v="545293" />
		<tag k="water" v="lake" />
	</node>
	<node id="-35472" lat="59.5767055579" lon="6.33230833183">
		<tag k="name" v="Tveitåna" />
		<tag k="ssr:stedsnr" v="545280" />
		<tag k="waterway" v="river" />
	</node>
	<node id="-34959" lat="59.6081249983" lon="6.27512222002">
		<tag k="name" v="Vårstølbekken" />
		<tag k="ssr:stedsnr" v="909725" />
		<tag k="waterway" v="stream" />
	</node>
	<node id="-35470" lat="59.7219555551" lon="6.56164721862">
		<tag k="name" v="Nøkkentjørn" />
		<tag k="natural" v="water" />
		<tag k="ssr:stedsnr" v="545174" />
	</node>
	<node id="-35183" lat="59.6256085673" lon="6.39933491976">
		<tag k="alt_name" v="Lomartjørnene" />
		<tag k="name" v="Lomatjørna" />
		<tag k="natural" v="water" />
		<tag k="ssr:stedsnr" v="124750" />
		<tag k="water" v="lake" />
	</node>
	<node id="-34953" lat="59.742138889" lon="6.487666666">
		<tag k="name" v="Råsbekken" />
		<tag k="ssr:stedsnr" v="909593" />
		<tag k="waterway" v="stream" />
	</node>
	<node id="-35009" lat="59.602072881" lon="6.24720859999">
		<tag k="alt_name" v="Nussvatnet" />
		<tag k="name" v="Nutsvatnet" />
		<tag k="natural" v="water" />
		<tag k="ssr:stedsnr" v="791833" />
		<tag k="water" v="lake" />
	</node>
	<node id="-34946" lat="59.6837833336" lon="6.38210833399">
		<tag k="name" v="Brekketjørna" />
		<tag k="natural" v="water" />
		<tag k="ssr:stedsnr" v="909118" />
	</node>
	<node id="-35691" lat="59.5880000008" lon="6.23443888523">
		<tag k="name" v="Sømløkjen" />
		<tag k="natural" v="bay" />
		<tag k="ssr:stedsnr" v="849292" />
	</node>
	<node id="-34942" lat="59.6897666633" lon="6.28236945109">
		<tag k="name" v="Grødalselva" />
		<tag k="ssr:stedsnr" v="909064" />
		<tag k="waterway" v="river" />
	</node>
	<node id="-35058" lat="59.6095249995" lon="6.45642499227">
		<tag k="alt_name" v="Skarstølstjørna" />
		<tag k="name" v="Skardsstølsvatnet" />
		<tag k="natural" v="water" />
		<tag k="ssr:stedsnr" v="3777" />
		<tag k="water" v="lake" />
	</node>
	<node id="-35452" lat="59.6872277805" lon="6.40706945237">
		<tag k="name" v="Alkestølselva" />
		<tag k="ssr:stedsnr" v="429000" />
		<tag k="waterway" v="stream" />
	</node>
	<node id="-34921" lat="59.6867846145" lon="6.44178283646">
		<tag k="name" v="Lunkjenbottjørna" />
		<tag k="natural" v="water" />
		<tag k="ssr:stedsnr" v="727161" />
	</node>
	<node id="-34932" lat="59.6502361075" lon="6.52739443978">
>>>>>>> e1d4bc35ff8a6074a6f2e91616a996b547c36f15
		<tag k="name" v="Krokavatnet" />
		<tag k="natural" v="water" />
		<tag k="ssr:stedsnr" v="731733" />
		<tag k="water" v="lake" />
	</node>
<<<<<<< HEAD
	<node lat="59.5857638926909" lon="6.237380548200585" id="-4033">
		<tag k="name" v="Krokatjørna" />
		<tag k="natural" v="water" />
		<tag k="ssr:stedsnr" v="731812" />
	</node>
	<node lat="59.59419167094146" lon="6.284311110186418" id="-4035">
		<tag k="name" v="Hangandvikfossen" />
		<tag k="natural" v="waterfall" />
		<tag k="ssr:stedsnr" v="731831" />
	</node>
	<node lat="59.667500003802175" lon="6.421949997339527" id="-4038">
		<tag k="name" v="Lona" />
		<tag k="natural" v="water" />
		<tag k="ssr:stedsnr" v="731977" />
		<tag k="water" v="lake" />
	</node>
	<node lat="59.64363333669446" lon="6.291622227695067" id="-4039">
		<tag k="alt_name" v="Sauaelva" />
		<tag k="name" v="Saudaelva" />
		<tag k="ssr:stedsnr" v="731988" />
		<tag k="waterway" v="river" />
	</node>
	<node lat="59.6887180205526" lon="6.479127284726017" id="-4040">
		<tag k="name" v="Botnavatnet" />
		<tag k="natural" v="water" />
		<tag k="ssr:stedsnr" v="731991" />
		<tag k="water" v="lake" />
	</node>
	<node lat="59.73448610896592" lon="6.347708329846975" id="-4041">
		<tag k="alt_name" v="Viaelva" />
		<tag k="name" v="Vio" />
		<tag k="ssr:stedsnr" v="731925" />
		<tag k="waterway" v="river" />
	</node>
	<node lat="59.70437330111553" lon="6.347805287303388" id="-4043">
		<tag k="fixme" v="multiple name tags, choose one and add the other to alt_name" />
		<tag k="name" v="Storemyrtjørna;Klovsteintjørna" />
		<tag k="natural" v="water" />
		<tag k="ssr:stedsnr" v="731938" />
	</node>
	<node lat="59.75338055819764" lon="6.6420527807354395" id="-4045">
=======
	<node id="-34931" lat="59.65147778" lon="6.21829443723">
		<tag k="name" v="Uraskartjørna" />
		<tag k="natural" v="water" />
		<tag k="ssr:stedsnr" v="727976" />
	</node>
	<node id="-35442" lat="59.7279194408" lon="6.49355000005">
		<tag k="alt_name" v="Slettedalsdammen" />
		<tag k="name" v="Slettedalsvatnet" />
		<tag k="natural" v="water" />
		<tag k="ssr:stedsnr" v="428945" />
		<tag k="water" v="lake" />
	</node>
	<node id="-35441" lat="59.7079656058" lon="6.39049736111">
		<tag k="name" v="Vatndalsvatnet" />
		<tag k="natural" v="water" />
		<tag k="ssr:stedsnr" v="428944" />
		<tag k="water" v="lake" />
	</node>
	<node id="-34927" lat="59.6301333318" lon="6.43230555505">
		<tag k="name" v="Sjurslåttvatnet" />
		<tag k="natural" v="water" />
		<tag k="ssr:stedsnr" v="727637" />
		<tag k="water" v="lake" />
	</node>
	<node id="-35438" lat="59.7269083323" lon="6.62777777337">
		<tag k="name" v="Svartkulp" />
		<tag k="place" v="locality" />
		<tag k="ssr:stedsnr" v="428198" />
	</node>
	<node id="-35636" lat="59.8166638852" lon="6.52054721598">
		<tag k="alt_name" v="Fisketjørn" />
		<tag k="name" v="Fisketjørna" />
		<tag k="natural" v="water" />
		<tag k="ssr:stedsnr" v="792084" />
	</node>
	<node id="-35653" lat="59.7720944451" lon="6.68491110363">
		<tag k="name" v="Kroktjørna" />
		<tag k="natural" v="water" />
		<tag k="ssr:stedsnr" v="793812" />
	</node>
	<node id="-35433" lat="59.6662305552" lon="6.39452499352">
		<tag k="name" v="Hafftjørn" />
		<tag k="natural" v="water" />
		<tag k="ssr:stedsnr" v="424887" />
	</node>
	<node id="-34985" lat="59.6276157668" lon="6.47271054497">
		<tag k="name" v="Midtvikane" />
		<tag k="natural" v="bay" />
		<tag k="ssr:stedsnr" v="913768" />
	</node>
	<node id="-34833" lat="59.7367740802" lon="6.45994270309">
		<tag k="alt_name" v="Uraskartjørna" />
		<tag k="name" v="Urdaskardtjørna" />
		<tag k="natural" v="water" />
		<tag k="ssr:stedsnr" v="610935" />
	</node>
	<node id="-34913" lat="59.6473694407" lon="6.39792221698">
		<tag k="name" v="Kvednabekken" />
		<tag k="ssr:stedsnr" v="727002" />
		<tag k="waterway" v="stream" />
	</node>
	<node id="-35424" lat="59.6056444429" lon="6.28491388436">
		<tag k="name" v="Varstadbekken" />
		<tag k="ssr:stedsnr" v="424682" />
		<tag k="waterway" v="stream" />
	</node>
	<node id="-35423" lat="59.6102666691" lon="6.33631111103">
		<tag k="name" v="Malldalselva" />
		<tag k="ssr:stedsnr" v="424661" />
		<tag k="waterway" v="river" />
	</node>
	<node id="-34869" lat="59.627044219" lon="6.39000659012">
		<tag k="name" v="Tjelmavatnet" />
		<tag k="natural" v="water" />
		<tag k="ssr:stedsnr" v="731771" />
		<tag k="water" v="lake" />
	</node>
	<node id="-35152" lat="59.699652774" lon="6.517763893">
		<tag k="name" v="Eljuvselva" />
		<tag k="ssr:stedsnr" v="120399" />
		<tag k="waterway" v="river" />
	</node>
	<node id="-34905" lat="59.6719416651" lon="6.5963249945">
		<tag k="name" v="Kurlevatnet" />
		<tag k="natural" v="water" />
		<tag k="ssr:stedsnr" v="671210" />
		<tag k="water" v="lake" />
	</node>
	<node id="-34904" lat="59.7890194416" lon="6.60923889609">
		<tag k="name" v="Storbekken" />
		<tag k="ssr:stedsnr" v="666741" />
		<tag k="waterway" v="stream" />
	</node>
	<node id="-34489" lat="59.6079027812" lon="6.36381666981">
		<tag k="name" v="Storeholmen" />
		<tag k="place" v="islet" />
		<tag k="ssr:stedsnr" v="242634" />
	</node>
	<node id="-34961" lat="59.5956388921" lon="6.19816944619">
		<tag k="name" v="Storavassklubben" />
		<tag k="natural" v="cape" />
		<tag k="ssr:stedsnr" v="909729" />
	</node>
	<node id="-34895" lat="59.7239472415" lon="6.41161989467">
		<tag k="name" v="Kjørkjeskartjørna" />
		<tag k="natural" v="water" />
		<tag k="ssr:stedsnr" v="666114" />
	</node>
	<node id="-34891" lat="59.6726611115" lon="6.47805555707">
		<tag k="name" v="Botnatjørna" />
		<tag k="natural" v="water" />
		<tag k="ssr:stedsnr" v="666024" />
	</node>
	<node id="-34920" lat="59.6815416638" lon="6.40324722098">
		<tag k="name" v="Lomtjørn" />
		<tag k="natural" v="water" />
		<tag k="ssr:stedsnr" v="727158" />
	</node>
	<node id="-34887" lat="59.7533805582" lon="6.64205278074">
>>>>>>> e1d4bc35ff8a6074a6f2e91616a996b547c36f15
		<tag k="name" v="Frakhellerbekken" />
		<tag k="ssr:stedsnr" v="732762" />
		<tag k="waterway" v="stream" />
	</node>
<<<<<<< HEAD
	<node lat="59.70403055521807" lon="6.544674998032076" id="-4063">
		<tag k="name" v="Litlastøltjørna" />
		<tag k="natural" v="water" />
		<tag k="ssr:stedsnr" v="788191" />
	</node>
	<node lat="59.701972218368994" lon="6.378786116453575" id="-4069">
		<tag k="name" v="Heidalsvatnet" />
		<tag k="natural" v="water" />
		<tag k="ssr:stedsnr" v="788109" />
		<tag k="water" v="lake" />
	</node>
	<node lat="59.68754444873845" lon="6.471375006584603" id="-4072">
		<tag k="name" v="Longavatnet" />
		<tag k="natural" v="water" />
		<tag k="ssr:stedsnr" v="788139" />
		<tag k="water" v="lake" />
	</node>
	<node lat="59.62438888523888" lon="6.4909333349279414" id="-4080">
		<tag k="name" v="Nelingstjørna" />
		<tag k="natural" v="water" />
		<tag k="ssr:stedsnr" v="791780" />
	</node>
	<node lat="59.646452779300354" lon="6.522561117613409" id="-4081">
		<tag k="alt_name" v="Stemvatnet" />
		<tag k="name" v="Stemtjørn" />
		<tag k="natural" v="water" />
		<tag k="ssr:stedsnr" v="792781" />
	</node>
	<node lat="59.586916242559916" lon="6.254304627121811" id="-4082">
		<tag k="name" v="Stølsvatnet" />
		<tag k="natural" v="water" />
		<tag k="ssr:stedsnr" v="792796" />
		<tag k="water" v="lake" />
	</node>
	<node lat="59.81666388518716" lon="6.520547215979717" id="-4084">
		<tag k="alt_name" v="Fisketjørn" />
		<tag k="name" v="Fisketjørna" />
		<tag k="natural" v="water" />
		<tag k="ssr:stedsnr" v="792084" />
	</node>
	<node lat="59.738299430349024" lon="6.645545531780402" id="-4085">
		<tag k="name" v="Svartavatnet" />
		<tag k="natural" v="water" />
		<tag k="ssr:stedsnr" v="792144" />
		<tag k="water" v="lake" />
	</node>
	<node lat="59.68438789665383" lon="6.476784778256799" id="-4087">
		<tag k="alt_name" v="Stemmevatnet" />
		<tag k="name" v="Stemvatnet" />
		<tag k="natural" v="water" />
		<tag k="ssr:stedsnr" v="792999" />
		<tag k="water" v="lake" />
	</node>
	<node lat="59.634158331888095" lon="6.367116658473201" id="-4090">
		<tag k="name" v="Sagelva" />
		<tag k="ssr:stedsnr" v="792775" />
		<tag k="waterway" v="river" />
	</node>
	<node lat="59.73037500128667" lon="6.394274996737007" id="-4094">
		<tag k="name" v="Fjotetjørna" />
		<tag k="natural" v="water" />
		<tag k="ssr:stedsnr" v="792897" />
	</node>
	<node lat="59.71190598274977" lon="6.276211906705266" id="-4096">
		<tag k="name" v="Svartavatnet" />
		<tag k="natural" v="water" />
		<tag k="ssr:stedsnr" v="792972" />
		<tag k="water" v="lake" />
	</node>
	<node lat="59.724726332953296" lon="6.656246622378978" id="-4098">
		<tag k="name" v="Vassdalsvatnet" />
		<tag k="natural" v="water" />
		<tag k="ssr:stedsnr" v="809218" />
		<tag k="water" v="lake" />
	</node>
	<node lat="59.62838889196537" lon="6.510894444515698" id="-4104">
		<tag k="name" v="Breikvamselva" />
		<tag k="ssr:stedsnr" v="845688" />
		<tag k="waterway" v="river" />
	</node>
	<node lat="59.74366388735163" lon="6.400688893047621" id="-4111">
		<tag k="name" v="Helgedalsosen" />
		<tag k="natural" v="bay" />
		<tag k="ssr:stedsnr" v="848621" />
	</node>
	<node lat="59.59998888774737" lon="6.368869452975835" id="-4122">
		<tag k="name" v="Ljosafossen" />
		<tag k="natural" v="waterfall" />
		<tag k="ssr:stedsnr" v="849700" />
	</node>
	<node lat="59.601950003397505" lon="6.351097226882822" id="-4123">
		<tag k="name" v="Galtatjørn" />
		<tag k="ssr:stedsnr" v="849702" />
		<tag k="waterway" v="river" />
	</node>
	<node lat="59.58750555730135" lon="6.185641658627586" id="-4131">
		<tag k="alt_name" v="Støda, nedre;Nedra Støå" />
		<tag k="name" v="Nedre Støda" />
		<tag k="natural" v="water" />
		<tag k="ssr:stedsnr" v="853549" />
	</node>
	<node lat="59.6376472199979" lon="6.429034432350402" id="-4132">
		<tag k="name" v="Vatndalsvatnet" />
		<tag k="natural" v="water" />
		<tag k="ssr:stedsnr" v="853745" />
		<tag k="water" v="lake" />
	</node>
	<node lat="59.66450180308319" lon="6.561145095291149" id="-4134">
		<tag k="name" v="Midtvatnet" />
		<tag k="natural" v="water" />
		<tag k="ssr:stedsnr" v="853749" />
		<tag k="water" v="lake" />
	</node>
	<node lat="59.62616944496451" lon="6.286091663539418" id="-4144">
		<tag k="name" v="Svandalselva" />
		<tag k="ssr:stedsnr" v="949571" />
		<tag k="waterway" v="river" />
	</node>
	<node lat="59.779997219152236" lon="6.36109999922412" id="-4150">
		<tag k="name" v="Vianutvatnet" />
		<tag k="natural" v="water" />
		<tag k="ssr:stedsnr" v="969669" />
		<tag k="water" v="lake" />
	</node>
	<node lat="59.77116314693257" lon="6.370546140963485" id="-4151">
		<tag k="name" v="Botnavatnet" />
		<tag k="natural" v="water" />
		<tag k="ssr:stedsnr" v="969670" />
		<tag k="water" v="lake" />
	</node>
	<node lat="59.77518610764702" lon="6.334613894761376" id="-4152">
		<tag k="name" v="Vianordskartjørn" />
		<tag k="natural" v="water" />
		<tag k="ssr:stedsnr" v="969673" />
	</node>
	<node lat="59.69705365167202" lon="6.251184769211591" id="-4154">
		<tag k="name" v="Uradalsvatna" />
		<tag k="natural" v="water" />
		<tag k="ssr:stedsnr" v="970052" />
		<tag k="water" v="lake" />
	</node>
	<node lat="59.7056972227792" lon="6.385338891569524" id="-4159">
		<tag k="name" v="Vassbotnen" />
		<tag k="natural" v="bay" />
		<tag k="ssr:stedsnr" v="970127" />
	</node>
	<node lat="59.71948610703204" lon="6.542491659545266" id="-4163">
		<tag k="name" v="Nedsta Ukkendalstjørna" />
		<tag k="natural" v="water" />
		<tag k="ssr:stedsnr" v="970276" />
	</node>
	<node lat="59.64666110915023" lon="6.3527166691958765" id="-4168">
		<tag k="name" v="Osen" />
		<tag k="natural" v="bay" />
		<tag k="ssr:stedsnr" v="970578" />
	</node>
	<node lat="59.68326944577265" lon="6.510430554136591" id="-4169">
		<tag k="name" v="Litlabøneset" />
		<tag k="natural" v="cape" />
		<tag k="ssr:stedsnr" v="970583" />
	</node>
	<node lat="59.68376110793953" lon="6.519313882265774" id="-4170">
		<tag k="name" v="Suldalsfossen" />
		<tag k="natural" v="waterfall" />
		<tag k="ssr:stedsnr" v="970586" />
	</node>
	<node lat="59.72370930462921" lon="6.566050433009656" id="-4173">
		<tag k="name" v="Breiborgvatnet" />
		<tag k="natural" v="water" />
		<tag k="ssr:stedsnr" v="970635" />
=======
	<node id="-34885" lat="59.6887180206" lon="6.47912728473">
		<tag k="name" v="Botnavatnet" />
		<tag k="natural" v="water" />
		<tag k="ssr:stedsnr" v="731991" />
		<tag k="water" v="lake" />
	</node>
	<node id="-34884" lat="59.6436333367" lon="6.2916222277">
		<tag k="alt_name" v="Sauaelva" />
		<tag k="name" v="Saudaelva" />
		<tag k="ssr:stedsnr" v="731988" />
		<tag k="waterway" v="river" />
	</node>
	<node id="-34883" lat="59.6675000038" lon="6.42194999734">
		<tag k="name" v="Lona" />
		<tag k="natural" v="water" />
		<tag k="ssr:stedsnr" v="731977" />
		<tag k="water" v="lake" />
	</node>
	<node id="-35393" lat="59.77922126" lon="6.67201759068">
		<tag k="name" v="Nedra Sandvatnet" />
		<tag k="natural" v="water" />
		<tag k="ssr:stedsnr" v="368846" />
		<tag k="water" v="lake" />
	</node>
	<node id="-35392" lat="59.8265000037" lon="6.59782500706">
		<tag k="name" v="Søre Dyrskarvatna" />
		<tag k="natural" v="water" />
		<tag k="ssr:stedsnr" v="368264" />
		<tag k="water" v="lake" />
	</node>
	<node id="-34879" lat="59.7043733011" lon="6.3478052873">
		<tag k="fixme" v="multiple name tags, choose one and add the other to alt_name" />
		<tag k="name" v="Klovsteintjørna;Storemyrtjørna" />
		<tag k="natural" v="water" />
		<tag k="ssr:stedsnr" v="731938" />
	</node>
	<node id="-35390" lat="59.7594473206" lon="6.39757836444">
		<tag k="name" v="Fossavatnet" />
		<tag k="natural" v="water" />
		<tag k="ssr:stedsnr" v="368130" />
		<tag k="water" v="lake" />
	</node>
	<node id="-35389" lat="59.7584472209" lon="6.30468888193">
		<tag k="name" v="Skautanuttjørna" />
		<tag k="natural" v="water" />
		<tag k="ssr:stedsnr" v="368129" />
	</node>
	<node id="-34876" lat="59.730361108" lon="6.57595277283">
		<tag k="name" v="Øyvatnet" />
		<tag k="natural" v="water" />
		<tag k="ssr:stedsnr" v="731901" />
	</node>
	<node id="-35785" lat="59.8279125227" lon="9.70560369472">
		<tag k="name" v="Grølla" />
		<tag k="natural" v="water" />
		<tag k="ssr:stedsnr" v="489738" />
		<tag k="water" v="lake" />
	</node>
	<node id="-35385" lat="59.7852277772" lon="6.49064444327">
		<tag k="name" v="Slettedalselva" />
		<tag k="ssr:stedsnr" v="368084" />
		<tag k="waterway" v="river" />
	</node>
	<node id="-35384" lat="59.7856941489" lon="6.59674072407">
		<tag k="name" v="Botnavatnet" />
		<tag k="natural" v="water" />
		<tag k="ssr:stedsnr" v="368082" />
		<tag k="water" v="lake" />
	</node>
	<node id="-34871" lat="59.5857638927" lon="6.2373805482">
		<tag k="name" v="Krokatjørna" />
		<tag k="natural" v="water" />
		<tag k="ssr:stedsnr" v="731812" />
	</node>
	<node id="-35381" lat="59.6814277759" lon="6.34527499429">
		<tag k="name" v="Tverråna" />
		<tag k="ssr:stedsnr" v="367989" />
		<tag k="waterway" v="stream" />
	</node>
	<node id="-35380" lat="59.6834249976" lon="6.58125000587">
		<tag k="name" v="Finnflotvatnet" />
		<tag k="natural" v="water" />
		<tag k="ssr:stedsnr" v="367981" />
		<tag k="water" v="lake" />
	</node>
	<node id="-34867" lat="59.6510744647" lon="6.31870169992">
		<tag k="name" v="Rødstjørna" />
		<tag k="natural" v="water" />
		<tag k="ssr:stedsnr" v="731759" />
	</node>
	<node id="-35377" lat="59.6615166633" lon="6.43183611903">
		<tag k="name" v="Storelva" />
		<tag k="ssr:stedsnr" v="367970" />
		<tag k="waterway" v="river" />
	</node>
	<node id="-34864" lat="59.6663499994" lon="6.21588611277">
		<tag k="alt_name" v="Longatjørna" />
		<tag k="name" v="Langatjørna" />
		<tag k="natural" v="water" />
		<tag k="ssr:stedsnr" v="731480" />
	</node>
	<node id="-35702" lat="59.6019500034" lon="6.35109722688">
		<tag k="name" v="Galtatjørn" />
		<tag k="ssr:stedsnr" v="849702" />
		<tag k="waterway" v="river" />
	</node>
	<node id="-35368" lat="59.6336135177" lon="6.42191373213">
		<tag k="name" v="Smalasundvatnet" />
		<tag k="natural" v="water" />
		<tag k="ssr:stedsnr" v="367779" />
		<tag k="water" v="lake" />
	</node>
	<node id="-34481" lat="59.7336335102" lon="6.5886280802">
		<tag k="name" v="Botnavatnet" />
		<tag k="natural" v="water" />
		<tag k="ssr:stedsnr" v="64926" />
		<tag k="water" v="lake" />
	</node>
	<node id="-34849" lat="59.7210055567" lon="6.50536667362">
		<tag k="name" v="Reinaskarbekken" />
		<tag k="ssr:stedsnr" v="727150" />
		<tag k="waterway" v="stream" />
	</node>
	<node id="-35359" lat="59.6183305527" lon="6.19975000409">
		<tag k="fixme" v="multiple name tags, choose one and add the other to alt_name" />
		<tag k="name" v="Svartavasstjørna;Svortetjørn" />
		<tag k="natural" v="water" />
		<tag k="ssr:stedsnr" v="367484" />
		<tag k="water" v="lake" />
	</node>
	<node id="-35358" lat="59.6561027732" lon="6.60571110307">
		<tag k="name" v="Ervabottvatnet" />
		<tag k="natural" v="water" />
		<tag k="ssr:stedsnr" v="367037" />
		<tag k="water" v="lake" />
	</node>
	<node id="-35247" lat="59.626247187" lon="6.4128122505">
		<tag k="alt_name" v="Vavatnet" />
		<tag k="name" v="Vadvatnet" />
		<tag k="natural" v="water" />
		<tag k="ssr:stedsnr" v="185771" />
		<tag k="water" v="lake" />
	</node>
	<node id="-35241" lat="59.6706222238" lon="6.28146944685">
		<tag k="name" v="Grøndalselva" />
		<tag k="ssr:stedsnr" v="181995" />
		<tag k="waterway" v="river" />
	</node>
	<node id="-35345" lat="59.6026638932" lon="6.36738332866">
		<tag k="name" v="Tverråna" />
		<tag k="ssr:stedsnr" v="363625" />
		<tag k="waterway" v="river" />
	</node>
	<node id="-34831" lat="59.8334027816" lon="6.54805555838">
		<tag k="alt_name" v="Steinsvatnet" />
		<tag k="name" v="Steinstjørna" />
		<tag k="natural" v="water" />
		<tag k="ssr:stedsnr" v="610035" />
	</node>
	<node id="-35342" lat="59.731166669" lon="6.50167222522">
		<tag k="name" v="Haugeland" />
		<tag k="natural" v="cape" />
		<tag k="ssr:stedsnr" v="363535" />
	</node>
	<node id="-34989" lat="59.7272194284" lon="6.32063108478">
		<tag k="name" v="Fossdalsvatnet" />
		<tag k="natural" v="water" />
		<tag k="ssr:stedsnr" v="913914" />
		<tag k="water" v="lake" />
	</node>
	<node id="-35159" lat="59.7809249977" lon="6.48738610273">
		<tag k="name" v="Reinakvamelva" />
		<tag k="ssr:stedsnr" v="120635" />
		<tag k="waterway" v="river" />
	</node>
	<node id="-35335" lat="59.6915638922" lon="6.40209999539">
		<tag k="name" v="Skaratjørn" />
		<tag k="natural" v="water" />
		<tag k="ssr:stedsnr" v="363144" />
	</node>
	<node id="-35331" lat="59.6978638858" lon="6.6125972313">
		<tag k="name" v="Kuvika" />
		<tag k="natural" v="bay" />
		<tag k="ssr:stedsnr" v="363366" />
	</node>
	<node id="-35330" lat="59.7157818656" lon="6.29557157573">
		<tag k="name" v="Kvanndalselva" />
		<tag k="ssr:stedsnr" v="363079" />
		<tag k="waterway" v="river" />
	</node>
	<node id="-35243" lat="59.6498361091" lon="6.53659999182">
		<tag k="alt_name" v="Skarfossvatnet" />
		<tag k="name" v="Skardfossvatnet" />
		<tag k="natural" v="water" />
		<tag k="ssr:stedsnr" v="185726" />
>>>>>>> e1d4bc35ff8a6074a6f2e91616a996b547c36f15
		<tag k="water" v="lake" />
	</node>
</osm>
