<?xml version="1.0" encoding="UTF-8"?>
<osm version="0.6" generator="osmapis">
	<node id="280965892" lat="62.2624608" lon="7.1718041" version="4" timestamp="2022-08-10T05:45:57Z" changeset="124712179" uid="3497659" user="NKA">
		<tag k="name" v="Eidsdal" />
		<tag k="place" v="village" />
		<tag k="ssr:stedsnr" v="860918" />
	</node>
	<node id="280976115" lat="62.3822326" lon="6.9859189" version="6" timestamp="2022-08-10T05:45:57Z" changeset="124712179" uid="3497659" user="NKA">
		<tag k="loc_name" v="Stordalen" />
		<tag k="name" v="Stordal" />
		<tag k="place" v="village" />
		<tag k="population" v="598" />
		<tag k="population:date" v="2021-01-01" />
		<tag k="ref:ssb_tettsted" v="6121" />
		<tag k="source:population" v="SSB - befolkning i tettstedet" />
		<tag k="ssr:stedsnr" v="800693" />
	</node>
	<node id="383738703" lat="62.4219449" lon="6.9461119" version="6" timestamp="2022-08-10T05:45:57Z" changeset="124712179" uid="3497659" user="NKA">
		<tag k="name" v="Dyrkorn" />
		<tag k="place" v="village" />
		<tag k="ssr:stedsnr" v="374675" />
	</node>
	<node id="384641138" lat="62.4262377" lon="6.9688226" version="7" timestamp="2022-08-10T05:45:57Z" changeset="124712179" uid="3497659" user="NKA">
		<tag k="name" v="Øggarden" />
		<tag k="place" v="farm" />
		<tag k="ssr:stedsnr" v="435689" />
	</node>
	<node id="384644575" lat="62.4271145" lon="6.9536375" version="5" timestamp="2022-08-10T05:45:57Z" changeset="124712179" uid="3497659" user="NKA">
		<tag k="name" v="Ytresætra" />
		<tag k="place" v="farm" />
		<tag k="ssr:stedsnr" v="10683" />
	</node>
	<node id="384646743" lat="62.4287015" lon="6.9454319" version="7" timestamp="2022-08-10T05:45:57Z" changeset="124712179" uid="3497659" user="NKA">
		<tag k="name" v="Lia" />
		<tag k="place" v="farm" />
		<tag k="ssr:stedsnr" v="556693" />
	</node>
	<node id="384649314" lat="62.4174065" lon="6.9537884" version="5" timestamp="2022-08-10T05:45:57Z" changeset="124712179" uid="3497659" user="NKA">
		<tag k="name" v="Indresætra" />
		<tag k="place" v="farm" />
		<tag k="ssr:stedsnr" v="496646" />
	</node>
	<node id="384650224" lat="62.4260077" lon="6.9597616" version="4" timestamp="2022-08-10T05:45:57Z" changeset="124712179" uid="3497659" user="NKA">
		<tag k="name" v="Fremsetra" />
		<tag k="place" v="farm" />
		<tag k="ssr:stedsnr" v="253680" />
	</node>
	<node id="385608825" lat="62.2980545" lon="7.2623851" version="7" timestamp="2022-08-10T05:45:57Z" changeset="124712179" uid="3497659" user="NKA">
		<tag k="alt_name" v="Sylte" />
		<tag k="name" v="Valldal" />
		<tag k="place" v="village" />
		<tag k="ssr:stedsnr" v="193858" />
	</node>
	<node id="385608851" lat="62.2900506" lon="7.2263439" version="5" timestamp="2022-08-10T05:45:57Z" changeset="124712179" uid="3497659" user="NKA">
		<tag k="name" v="Linge" />
		<tag k="place" v="hamlet" />
		<tag k="ssr:stedsnr" v="132850" />
	</node>
	<node id="385609751" lat="62.296175" lon="7.2128112" version="4" timestamp="2022-08-10T05:45:57Z" changeset="124712179" uid="3497659" user="NKA">
		<tag k="historic" v="shieling" />
		<tag k="name" v="Klovset" />
		<tag k="place" v="isolated_dwelling" />
		<tag k="ssr:stedsnr" v="469012" />
	</node>
	<node id="385960717" lat="62.2944203" lon="7.3188117" version="5" timestamp="2022-08-10T05:45:57Z" changeset="124712179" uid="3497659" user="NKA">
		<tag k="alt_name" v="Fjøra" />
		<tag k="name" v="Fjørå" />
		<tag k="place" v="hamlet" />
		<tag k="ssr:stedsnr" v="800837" />
	</node>
	<node id="385961458" lat="62.2324875" lon="7.4172517" version="5" timestamp="2022-08-10T05:45:57Z" changeset="124712179" uid="3497659" user="NKA">
		<tag k="name" v="Tafjord" />
		<tag k="place" v="village" />
		<tag k="ssr:stedsnr" v="374017" />
	</node>
	<node id="386242835" lat="62.3021439" lon="7.3191684" version="5" timestamp="2022-08-10T05:45:57Z" changeset="124712179" uid="3497659" user="NKA">
		<tag k="name" v="Hauge" />
		<tag k="place" v="hamlet" />
		<tag k="ssr:stedsnr" v="71865" />
	</node>
	<node id="387839563" lat="62.4263993" lon="6.9988228" version="5" timestamp="2022-08-10T05:45:57Z" changeset="124712179" uid="3497659" user="NKA">
		<tag k="historic" v="shieling" />
		<tag k="name" v="Gjerdsstølen" />
		<tag k="place" v="hamlet" />
		<tag k="ssr:stedsnr" v="678659" />
	</node>
	<node id="387839788" lat="62.41546" lon="6.9910736" version="4" timestamp="2022-08-10T05:45:57Z" changeset="124712179" uid="3497659" user="NKA">
		<tag k="historic" v="shieling" />
		<tag k="name" v="Dyrkornstølen" />
		<tag k="place" v="hamlet" />
		<tag k="ssr:stedsnr" v="374639" />
	</node>
	<node id="391097006" lat="62.3790708" lon="7.0010116" version="5" timestamp="2022-08-10T05:45:57Z" changeset="124712179" uid="3497659" user="NKA">
		<tag k="name" v="Vinjesanden" />
		<tag k="place" v="neighbourhood" />
		<tag k="ssr:stedsnr" v="640604" />
	</node>
	<node id="391546633" lat="62.3798405" lon="7.0144229" version="4" timestamp="2022-08-10T05:45:57Z" changeset="124712179" uid="3497659" user="NKA">
		<tag k="name" v="Kvammen" />
		<tag k="place" v="hamlet" />
		<tag k="ssr:stedsnr" v="193687" />
	</node>
	<node id="391596145" lat="62.3844945" lon="7.1997488" version="4" timestamp="2022-08-10T05:45:57Z" changeset="124712179" uid="3497659" user="NKA">
		<tag k="name" v="Langhaugen" />
		<tag k="place" v="farm" />
		<tag k="ssr:stedsnr" v="131720" />
	</node>
	<node id="391596490" lat="62.3824684" lon="7.2316333" version="4" timestamp="2022-08-10T05:45:57Z" changeset="124712179" uid="3497659" user="NKA">
		<tag k="loc_name" v="Seljebotnen" />
		<tag k="name" v="Seljebotn" />
		<tag k="place" v="hamlet" />
		<tag k="ssr:stedsnr" v="556960" />
	</node>
	<node id="391596850" lat="62.3830277" lon="7.172088" version="4" timestamp="2022-08-10T05:45:57Z" changeset="124712179" uid="3497659" user="NKA">
		<tag k="name" v="Nakken" />
		<tag k="place" v="farm" />
		<tag k="ssr:stedsnr" v="860733" />
	</node>
	<node id="391598394" lat="62.3744287" lon="7.1388613" version="4" timestamp="2022-08-10T05:45:57Z" changeset="124712179" uid="3497659" user="NKA">
		<tag k="name" v="Tallberg" />
		<tag k="place" v="farm" />
		<tag k="ssr:stedsnr" v="860727" />
	</node>
	<node id="391600353" lat="62.3719488" lon="7.104084" version="5" timestamp="2022-08-10T05:45:57Z" changeset="124712179" uid="3497659" user="NKA">
		<tag k="name" v="Jasvoll" />
		<tag k="place" v="hamlet" />
		<tag k="ssr:stedsnr" v="921710" />
	</node>
	<node id="391600766" lat="62.3742752" lon="7.1176804" version="5" timestamp="2022-08-10T05:45:57Z" changeset="124712179" uid="3497659" user="NKA">
		<tag k="name" v="Stavåplassen" />
		<tag k="place" v="farm" />
		<tag k="ssr:stedsnr" v="460138" />
	</node>
	<node id="391601600" lat="62.3708141" lon="7.0803976" version="4" timestamp="2022-08-10T05:45:57Z" changeset="124712179" uid="3497659" user="NKA">
		<tag k="name" v="Mo" />
		<tag k="place" v="hamlet" />
		<tag k="ssr:stedsnr" v="374694" />
	</node>
	<node id="391784267" lat="62.4081539" lon="7.2149849" version="3" timestamp="2022-08-10T05:45:57Z" changeset="124712179" uid="3497659" user="NKA">
		<tag k="loc_name" v="Overøye" />
		<tag k="name" v="Øverøyane" />
		<tag k="place" v="village" />
		<tag k="ssr:stedsnr" v="374755" />
	</node>
	<node id="391926111" lat="62.4137671" lon="6.9817067" version="3" timestamp="2022-08-10T05:45:57Z" changeset="124712179" uid="3497659" user="NKA">
		<tag k="historic" v="shieling" />
		<tag k="name" v="Vikastølen" />
		<tag k="place" v="hamlet" />
		<tag k="ssr:stedsnr" v="921661" />
	</node>
	<node id="392155882" lat="62.4230759" lon="6.9575562" version="3" timestamp="2022-08-10T05:45:57Z" changeset="124712179" uid="3497659" user="NKA">
		<tag k="name" v="Gjerdet" />
		<tag k="place" v="hamlet" />
		<tag k="ssr:stedsnr" v="131672" />
	</node>
	<node id="570815156" lat="62.2546415" lon="7.2340138" version="2" timestamp="2022-08-10T05:45:57Z" changeset="124712179" uid="3497659" user="NKA">
		<tag k="alt_name" v="Dalsbygda" />
		<tag k="loc_name" v="Norddalen" />
		<tag k="name" v="Norddal" />
		<tag k="place" v="hamlet" />
		<tag k="ssr:stedsnr" v="72812" />
	</node>
	<node id="1288244316" lat="62.2311028" lon="7.2431398" version="4" timestamp="2022-08-10T05:45:57Z" changeset="124712179" uid="3497659" user="NKA">
		<tag k="historic" v="shieling" />
		<tag k="idrettsanleggregisteret:iid" v="1524001001" />
		<tag k="name" v="Rellingsætra" />
		<tag k="owner" v="Norddal IL" />
		<tag k="place" v="hamlet" />
		<tag k="ssr:stedsnr" v="253013" />
	</node>
	<node id="3719092490" lat="62.331523" lon="7.3391555" version="2" timestamp="2022-08-10T05:45:57Z" changeset="124712179" uid="3497659" user="NKA">
		<tag k="name" v="Myklebost" />
		<tag k="place" v="hamlet" />
		<tag k="ssr:stedsnr" v="861743" />
	</node>
	<node id="3719118310" lat="62.42645" lon="7.2280004" version="2" timestamp="2022-08-10T05:45:57Z" changeset="124712179" uid="3497659" user="NKA">
		<tag k="historic" v="shieling" />
		<tag k="name" v="Pusken" />
		<tag k="place" v="hamlet" />
		<tag k="ssr:stedsnr" v="800995" />
	</node>
	<node id="3719695625" lat="62.252462" lon="7.4755592" version="2" timestamp="2022-08-10T05:45:57Z" changeset="124712179" uid="3497659" user="NKA">
		<tag k="historic" v="shieling" />
		<tag k="name" v="Muldalssætra" />
		<tag k="place" v="isolated_dwelling" />
		<tag k="ssr:stedsnr" v="263905" />
	</node>
	<node id="3719695626" lat="62.251945" lon="7.4775552" version="2" timestamp="2022-08-10T05:45:57Z" changeset="124712179" uid="3497659" user="NKA">
		<tag k="historic" v="shieling" />
		<tag k="name" v="Tafjordsætra" />
		<tag k="place" v="hamlet" />
		<tag k="ssr:stedsnr" v="72807" />
	</node>
	<node id="3719707995" lat="62.3369004" lon="7.5594514" version="2" timestamp="2022-08-10T05:45:57Z" changeset="124712179" uid="3497659" user="NKA">
		<tag k="name" v="Grønningsæter" />
		<tag k="place" v="hamlet" />
		<tag k="ssr:stedsnr" v="861745" />
	</node>
	<node id="3719707996" lat="62.2558975" lon="7.4362072" version="2" timestamp="2022-08-10T05:45:57Z" changeset="124712179" uid="3497659" user="NKA">
		<tag k="name" v="Muldal" />
		<tag k="place" v="farm" />
		<tag k="ssr:stedsnr" v="72809" />
	</node>
	<node id="3719707997" lat="62.3356723" lon="7.5956196" version="2" timestamp="2022-08-10T05:45:57Z" changeset="124712179" uid="3497659" user="NKA">
		<tag k="historic" v="shieling" />
		<tag k="name" v="Steindalsstølen" />
		<tag k="place" v="isolated_dwelling" />
		<tag k="ssr:stedsnr" v="921774" />
	</node>
	<node id="4887104855" lat="62.2966174" lon="7.2315641" version="2" timestamp="2022-08-10T05:45:57Z" changeset="124712179" uid="3497659" user="NKA">
		<tag k="name" v="Lingås" />
		<tag k="place" v="hamlet" />
		<tag k="ssr:stedsnr" v="71875" />
	</node>
	<node id="4887104856" lat="62.3083754" lon="7.2533084" version="2" timestamp="2022-08-10T05:45:57Z" changeset="124712179" uid="3497659" user="NKA">
		<tag k="name" v="Muribøen" />
		<tag k="place" v="farm" />
		<tag k="ssr:stedsnr" v="436765" />
	</node>
	<node id="4887104857" lat="62.3110272" lon="7.2572529" version="2" timestamp="2022-08-10T05:45:57Z" changeset="124712179" uid="3497659" user="NKA">
		<tag k="name" v="Berdal" />
		<tag k="place" v="hamlet" />
		<tag k="ssr:stedsnr" v="617785" />
	</node>
	<node id="4887104858" lat="62.3127302" lon="7.2613194" version="2" timestamp="2022-08-10T05:45:57Z" changeset="124712179" uid="3497659" user="NKA">
		<tag k="alt_name" v="Jemtegarden" />
		<tag k="name" v="Jamtegarden" />
		<tag k="place" v="hamlet" />
		<tag k="ssr:stedsnr" v="557747" />
	</node>
	<node id="5920451831" lat="62.3409685" lon="7.0985595" version="2" timestamp="2022-01-26T07:34:57Z" changeset="116611763" uid="3497659" user="NKA">
		<tag k="junction" v="yes" />
		<tag k="name" v="Sætrevegskiftet" />
		<tag k="ssr:stedsnr" v="151840" />
	</node>
	<node id="5920457158" lat="62.3487198" lon="7.0920184" version="2" timestamp="2022-01-26T07:34:57Z" changeset="116611763" uid="3497659" user="NKA">
		<tag k="junction" v="yes" />
		<tag k="name" v="Øyevegskiftet" />
		<tag k="ssr:stedsnr" v="641527" />
	</node>
	<node id="9103152944" lat="62.1889564" lon="7.3400276" version="2" timestamp="2022-08-10T05:45:57Z" changeset="124712179" uid="3497659" user="NKA">
		<tag k="historic" v="shieling" />
		<tag k="name" v="Herdalen" />
		<tag k="place" v="hamlet" />
		<tag k="ssr:stedsnr" v="314049" />
	</node>
	<node id="9944110880" lat="62.3284117" lon="7.5094946" version="1" timestamp="2022-08-10T05:45:57Z" changeset="124712179" uid="3497659" user="NKA">
		<tag k="name" v="Grønning" />
		<tag k="place" v="hamlet" />
		<tag k="ssr:stedsnr" v="861758" />
	</node>
	<node id="9944110881" lat="62.3933361" lon="7.0378861" version="1" timestamp="2022-08-10T05:45:57Z" changeset="124712179" uid="3497659" user="NKA">
		<tag k="historic" v="shieling" />
		<tag k="name" v="Litlesætra" />
		<tag k="place" v="isolated_dwelling" />
		<tag k="ssr:stedsnr" v="173331" />
	</node>
	<node id="9944110882" lat="62.4299111" lon="6.9935112" version="1" timestamp="2022-08-10T05:45:57Z" changeset="124712179" uid="3497659" user="NKA">
		<tag k="historic" v="shieling" />
		<tag k="name" v="Puskesætra" />
		<tag k="place" v="isolated_dwelling" />
		<tag k="ssr:stedsnr" v="277431" />
	</node>
	<node id="9944110883" lat="62.2366204" lon="7.1555656" version="1" timestamp="2022-08-10T05:45:57Z" changeset="124712179" uid="3497659" user="NKA">
		<tag k="name" v="Veiberg" />
		<tag k="place" v="hamlet" />
		<tag k="ssr:stedsnr" v="800274" />
	</node>
	<node id="9944110884" lat="62.4211056" lon="6.948958" version="1" timestamp="2022-08-10T05:45:57Z" changeset="124712179" uid="3497659" user="NKA">
		<tag k="name" v="Bakkeplassen" />
		<tag k="place" v="farm" />
		<tag k="ssr:stedsnr" v="975598" />
	</node>
	<node id="9944110885" lat="62.3341781" lon="7.4574983" version="1" timestamp="2022-08-10T05:45:57Z" changeset="124712179" uid="3497659" user="NKA">
		<tag k="name" v="Myra" />
		<tag k="place" v="hamlet" />
		<tag k="ssr:stedsnr" v="861742" />
	</node>
	<node id="9944110886" lat="62.3743298" lon="7.0749005" version="1" timestamp="2022-08-10T05:45:57Z" changeset="124712179" uid="3497659" user="NKA">
		<tag k="name" v="Plassen" />
		<tag k="place" v="isolated_dwelling" />
		<tag k="ssr:stedsnr" v="217081" />
	</node>
	<node id="9944110887" lat="62.302686" lon="7.2437784" version="1" timestamp="2022-08-10T05:45:57Z" changeset="124712179" uid="3497659" user="NKA">
		<tag k="name" v="Muriås" />
		<tag k="place" v="farm" />
		<tag k="ssr:stedsnr" v="496841" />
	</node>
	<node id="9944110888" lat="62.3362861" lon="7.1207307" version="1" timestamp="2022-08-10T05:45:57Z" changeset="124712179" uid="3497659" user="NKA">
		<tag k="historic" v="shieling" />
		<tag k="name" v="Ekresætra" />
		<tag k="place" v="isolated_dwelling" />
		<tag k="ssr:stedsnr" v="95415" />
	</node>
	<node id="9944110889" lat="62.3591778" lon="7.3464501" version="1" timestamp="2022-08-10T05:45:57Z" changeset="124712179" uid="3497659" user="NKA">
		<tag k="historic" v="shieling" />
		<tag k="name" v="Hjellsætra" />
		<tag k="place" v="isolated_dwelling" />
		<tag k="ssr:stedsnr" v="713152" />
	</node>
	<node id="9944110890" lat="62.3252333" lon="7.3336" version="1" timestamp="2022-08-10T05:45:57Z" changeset="124712179" uid="3497659" user="NKA">
		<tag k="name" v="Reiten" />
		<tag k="place" v="farm" />
		<tag k="ssr:stedsnr" v="712348" />
	</node>
	<node id="9944110891" lat="62.2607064" lon="7.1683488" version="1" timestamp="2022-08-10T05:45:57Z" changeset="124712179" uid="3497659" user="NKA">
		<tag k="name" v="Ytterdal" />
		<tag k="place" v="hamlet" />
		<tag k="ssr:stedsnr" v="374947" />
	</node>
	<node id="9944110892" lat="62.3461472" lon="7.427214" version="1" timestamp="2022-08-10T05:45:57Z" changeset="124712179" uid="3497659" user="NKA">
		<tag k="name" v="Øygarden" />
		<tag k="place" v="locality" />
		<tag k="ssr:stedsnr" v="713660" />
	</node>
	<node id="9944110893" lat="62.2400945" lon="7.4261527" version="1" timestamp="2022-08-10T05:45:57Z" changeset="124712179" uid="3497659" user="NKA">
		<tag k="historic" v="shieling" />
		<tag k="name" v="Høgsæterstølen" />
		<tag k="place" v="isolated_dwelling" />
		<tag k="ssr:stedsnr" v="713791" />
	</node>
	<node id="9944110894" lat="62.4132629" lon="6.8984881" version="1" timestamp="2022-08-10T05:45:57Z" changeset="124712179" uid="3497659" user="NKA">
		<tag k="name" v="Skotet" />
		<tag k="place" v="hamlet" />
		<tag k="ssr:stedsnr" v="132652" />
	</node>
	<node id="9944110895" lat="62.417561" lon="6.9473561" version="1" timestamp="2022-08-10T05:45:57Z" changeset="124712179" uid="3497659" user="NKA">
		<tag k="alt_name" v="Viken;Flåen" />
		<tag k="name" v="Vika" />
		<tag k="place" v="farm" />
		<tag k="ssr:stedsnr" v="823354" />
	</node>
	<node id="9944110896" lat="62.4117035" lon="6.9067167" version="1" timestamp="2022-08-10T05:45:57Z" changeset="124712179" uid="3497659" user="NKA">
		<tag k="name" v="Inste Skotet" />
		<tag k="place" v="farm" />
		<tag k="ssr:stedsnr" v="204924" />
	</node>
	<node id="9944110897" lat="62.4221633" lon="6.9451105" version="1" timestamp="2022-08-10T05:45:57Z" changeset="124712179" uid="3497659" user="NKA">
		<tag k="name" v="Nedre Dyrkorn" />
		<tag k="place" v="farm" />
		<tag k="ssr:stedsnr" v="719688" />
	</node>
	<node id="9944110898" lat="62.3334275" lon="7.3723448" version="1" timestamp="2022-08-10T05:45:57Z" changeset="124712179" uid="3497659" user="NKA">
		<tag k="name" v="Gjerde" />
		<tag k="place" v="hamlet" />
		<tag k="ssr:stedsnr" v="557740" />
	</node>
	<node id="9944110899" lat="62.4350417" lon="6.9377334" version="1" timestamp="2022-08-10T05:45:57Z" changeset="124712179" uid="3497659" user="NKA">
		<tag k="name" v="Fjellet" />
		<tag k="place" v="locality" />
		<tag k="ssr:stedsnr" v="34368" />
	</node>
	<node id="9944110900" lat="62.3259527" lon="7.3491833" version="1" timestamp="2022-08-10T05:45:57Z" changeset="124712179" uid="3497659" user="NKA">
		<tag k="historic" v="shieling" />
		<tag k="name" v="Gamlesætra" />
		<tag k="place" v="isolated_dwelling" />
		<tag k="ssr:stedsnr" v="835140" />
	</node>
	<node id="9944110901" lat="62.4208208" lon="6.9568468" version="1" timestamp="2022-08-10T05:45:57Z" changeset="124712179" uid="3497659" user="NKA">
		<tag k="name" v="Øvre Dyrkorn" />
		<tag k="place" v="farm" />
		<tag k="ssr:stedsnr" v="294727" />
	</node>
	<node id="9944110902" lat="62.4148139" lon="6.9479057" version="1" timestamp="2022-08-10T05:45:57Z" changeset="124712179" uid="3497659" user="NKA">
		<tag k="name" v="Reiten" />
		<tag k="place" v="locality" />
		<tag k="ssr:stedsnr" v="34349" />
	</node>
	<node id="9944110903" lat="62.3063944" lon="7.230639" version="1" timestamp="2022-08-10T05:45:57Z" changeset="124712179" uid="3497659" user="NKA">
		<tag k="historic" v="shieling" />
		<tag k="name" v="Åsesætra" />
		<tag k="place" v="isolated_dwelling" />
		<tag k="ssr:stedsnr" v="617791" />
	</node>
	<node id="9944110904" lat="62.334925" lon="7.3455335" version="1" timestamp="2022-08-10T05:45:57Z" changeset="124712179" uid="3497659" user="NKA">
		<tag k="name" v="Vidåttå" />
		<tag k="place" v="locality" />
		<tag k="ssr:stedsnr" v="712300" />
	</node>
	<node id="9944110905" lat="62.2984847" lon="7.2835657" version="1" timestamp="2022-08-10T05:45:57Z" changeset="124712179" uid="3497659" user="NKA">
		<tag k="name" v="Ytterli" />
		<tag k="place" v="hamlet" />
		<tag k="ssr:stedsnr" v="618836" />
	</node>
	<node id="9944110906" lat="62.4159769" lon="7.3215634" version="1" timestamp="2022-08-10T05:45:57Z" changeset="124712179" uid="3497659" user="NKA">
		<tag k="name" v="Storvasshytta" />
		<tag k="place" v="isolated_dwelling" />
		<tag k="ssr:stedsnr" v="581715" />
	</node>
	<node id="9944110907" lat="62.1705" lon="7.5190778" version="1" timestamp="2022-08-10T05:45:57Z" changeset="124712179" uid="3497659" user="NKA">
		<tag k="name" v="Rødalssætra" />
		<tag k="place" v="isolated_dwelling" />
		<tag k="ssr:stedsnr" v="678044" />
	</node>
	<node id="9944110908" lat="62.3747389" lon="7.6692668" version="1" timestamp="2022-08-10T05:45:57Z" changeset="124712179" uid="3497659" user="NKA">
		<tag k="name" v="Osten" />
		<tag k="place" v="isolated_dwelling" />
		<tag k="ssr:stedsnr" v="314792" />
	</node>
	<node id="9944110909" lat="62.17384" lon="7.4194642" version="1" timestamp="2022-08-10T05:45:57Z" changeset="124712179" uid="3497659" user="NKA">
		<tag k="name" v="Storvik" />
		<tag k="place" v="locality" />
		<tag k="ssr:stedsnr" v="983491" />
	</node>
	<node id="9944110910" lat="62.3392522" lon="7.4366044" version="1" timestamp="2022-08-10T05:45:57Z" changeset="124712179" uid="3497659" user="NKA">
		<tag k="name" v="Lunden" />
		<tag k="place" v="farm" />
		<tag k="ssr:stedsnr" v="409629" />
	</node>
	<node id="9944110911" lat="62.3147171" lon="7.3006545" version="1" timestamp="2022-08-10T05:45:57Z" changeset="124712179" uid="3497659" user="NKA">
		<tag k="alt_name" v="Døving" />
		<tag k="name" v="Døvingen" />
		<tag k="place" v="hamlet" />
		<tag k="ssr:stedsnr" v="253794" />
	</node>
	<node id="9944110912" lat="62.3620694" lon="7.3526168" version="1" timestamp="2022-08-10T05:45:57Z" changeset="124712179" uid="3497659" user="NKA">
		<tag k="historic" v="shieling" />
		<tag k="name" v="Myklebustsætra" />
		<tag k="place" v="isolated_dwelling" />
		<tag k="ssr:stedsnr" v="314799" />
	</node>
	<node id="9944110913" lat="62.3450547" lon="7.5529039" version="1" timestamp="2022-08-10T05:45:57Z" changeset="124712179" uid="3497659" user="NKA">
		<tag k="name" v="Høghjelle" />
		<tag k="place" v="farm" />
		<tag k="ssr:stedsnr" v="424712" />
	</node>
	<node id="9944110914" lat="62.3338465" lon="7.3581042" version="1" timestamp="2022-08-10T05:45:57Z" changeset="124712179" uid="3497659" user="NKA">
		<tag k="name" v="Omnos" />
		<tag k="place" v="hamlet" />
		<tag k="ssr:stedsnr" v="314761" />
	</node>
	<node id="9944110915" lat="62.1636083" lon="7.4339945" version="1" timestamp="2022-08-10T05:45:57Z" changeset="124712179" uid="3497659" user="NKA">
		<tag k="name" v="Haugen" />
		<tag k="place" v="farm" />
		<tag k="ssr:stedsnr" v="678054" />
	</node>
	<node id="9944110916" lat="62.2000847" lon="7.4901853" version="1" timestamp="2022-08-10T05:45:57Z" changeset="124712179" uid="3497659" user="NKA">
		<tag k="name" v="Nedstedalsjuvet" />
		<tag k="place" v="farm" />
		<tag k="ssr:stedsnr" v="167961" />
	</node>
	<node id="9944123617" lat="62.327675" lon="7.5060028" version="1" timestamp="2022-08-10T05:45:57Z" changeset="124712179" uid="3497659" user="NKA">
		<tag k="name" v="Utigarden" />
		<tag k="place" v="farm" />
		<tag k="ssr:stedsnr" v="288637" />
	</node>
	<node id="9944123618" lat="62.3220449" lon="7.3160769" version="1" timestamp="2022-08-10T05:45:57Z" changeset="124712179" uid="3497659" user="NKA">
		<tag k="name" v="Valldalen" />
		<tag k="place" v="hamlet" />
		<tag k="ssr:stedsnr" v="132761" />
	</node>
	<node id="9944123619" lat="62.2741129" lon="7.3399266" version="1" timestamp="2022-08-10T05:45:57Z" changeset="124712179" uid="3497659" user="NKA">
		<tag k="name" v="Kastet" />
		<tag k="place" v="farm" />
		<tag k="ssr:stedsnr" v="254857" />
	</node>
	<node id="9944123620" lat="62.2012566" lon="7.4746416" version="1" timestamp="2022-08-10T05:45:57Z" changeset="124712179" uid="3497659" user="NKA">
		<tag k="name" v="Øyna" />
		<tag k="place" v="farm" />
		<tag k="ssr:stedsnr" v="72016" />
	</node>
	<node id="9944123621" lat="62.2129834" lon="7.3443057" version="1" timestamp="2022-08-10T05:45:57Z" changeset="124712179" uid="3497659" user="NKA">
		<tag k="historic" v="shieling" />
		<tag k="name" v="Kallskarsætra" />
		<tag k="place" v="isolated_dwelling" />
		<tag k="ssr:stedsnr" v="800039" />
	</node>
	<node id="9944123622" lat="62.3257639" lon="7.3318278" version="1" timestamp="2022-08-10T05:45:57Z" changeset="124712179" uid="3497659" user="NKA">
		<tag k="name" v="Bjorstad" />
		<tag k="place" v="hamlet" />
		<tag k="ssr:stedsnr" v="72747" />
	</node>
	<node id="9944123623" lat="62.3025166" lon="7.3384195" version="1" timestamp="2022-08-10T05:45:57Z" changeset="124712179" uid="3497659" user="NKA">
		<tag k="historic" v="shieling" />
		<tag k="name" v="Nedstestølen" />
		<tag k="place" v="isolated_dwelling" />
		<tag k="ssr:stedsnr" v="131896" />
	</node>
	<node id="9944123624" lat="62.1543472" lon="7.4355696" version="1" timestamp="2022-08-10T05:45:57Z" changeset="124712179" uid="3497659" user="NKA">
		<tag k="historic" v="shieling" />
		<tag k="name" v="Kaldhussætra" />
		<tag k="place" v="isolated_dwelling" />
		<tag k="ssr:stedsnr" v="132040" />
	</node>
	<node id="9944123625" lat="62.3142377" lon="7.2845728" version="1" timestamp="2022-08-10T05:45:57Z" changeset="124712179" uid="3497659" user="NKA">
		<tag k="name" v="Uri" />
		<tag k="place" v="hamlet" />
		<tag k="ssr:stedsnr" v="193762" />
	</node>
	<node id="9944123626" lat="62.3489306" lon="7.3570084" version="1" timestamp="2022-08-10T05:45:57Z" changeset="124712179" uid="3497659" user="NKA">
		<tag k="historic" v="shieling" />
		<tag k="name" v="Omnossætra" />
		<tag k="place" v="isolated_dwelling" />
		<tag k="ssr:stedsnr" v="860831" />
	</node>
	<node id="9944123627" lat="62.2633861" lon="7.3535556" version="1" timestamp="2022-08-10T05:45:57Z" changeset="124712179" uid="3497659" user="NKA">
		<tag k="historic" v="shieling" />
		<tag k="name" v="Gamlesætra" />
		<tag k="place" v="isolated_dwelling" />
		<tag k="ssr:stedsnr" v="349359" />
	</node>
	<node id="9944123628" lat="62.4057278" lon="7.3246917" version="1" timestamp="2022-08-10T05:45:57Z" changeset="124712179" uid="3497659" user="NKA">
		<tag k="historic" v="shieling" />
		<tag k="name" v="Espedalshytta" />
		<tag k="place" v="isolated_dwelling" />
		<tag k="ssr:stedsnr" v="642655" />
	</node>
	<node id="9944123629" lat="62.3359527" lon="7.4520889" version="1" timestamp="2022-08-10T05:45:57Z" changeset="124712179" uid="3497659" user="NKA">
		<tag k="name" v="Myreplassen" />
		<tag k="place" v="farm" />
		<tag k="ssr:stedsnr" v="530646" />
	</node>
	<node id="9944123630" lat="62.2035473" lon="7.4342529" version="1" timestamp="2022-08-10T05:45:57Z" changeset="124712179" uid="3497659" user="NKA">
		<tag k="name" v="Myra" />
		<tag k="place" v="isolated_dwelling" />
		<tag k="ssr:stedsnr" v="409139" />
	</node>
	<node id="9944123632" lat="62.2109729" lon="7.4466113" version="1" timestamp="2022-08-10T05:45:57Z" changeset="124712179" uid="3497659" user="NKA">
		<tag k="alt_name" v="Rødal" />
		<tag k="name" v="Heimste Rødal" />
		<tag k="place" v="hamlet" />
		<tag k="ssr:stedsnr" v="556006" />
	</node>
	<node id="9944123633" lat="62.2076528" lon="7.4322029" version="1" timestamp="2022-08-10T05:45:57Z" changeset="124712179" uid="3497659" user="NKA">
		<tag k="historic" v="shieling" />
		<tag k="name" v="Stølen" />
		<tag k="place" v="isolated_dwelling" />
		<tag k="ssr:stedsnr" v="288105" />
	</node>
	<node id="9944123634" lat="62.2772472" lon="7.3209445" version="1" timestamp="2022-08-10T05:45:57Z" changeset="124712179" uid="3497659" user="NKA">
		<tag k="historic" v="shieling" />
		<tag k="name" v="Kastesætra" />
		<tag k="place" v="isolated_dwelling" />
		<tag k="ssr:stedsnr" v="800851" />
	</node>
	<node id="9944123635" lat="62.2960133" lon="7.3201729" version="1" timestamp="2022-08-10T05:45:57Z" changeset="124712179" uid="3497659" user="NKA">
		<tag k="name" v="Almstad" />
		<tag k="place" v="farm" />
		<tag k="ssr:stedsnr" v="436846" />
	</node>
	<node id="9944123636" lat="62.319" lon="7.3218779" version="1" timestamp="2022-08-10T05:45:57Z" changeset="124712179" uid="3497659" user="NKA">
		<tag k="name" v="Døving" />
		<tag k="place" v="farm" />
		<tag k="ssr:stedsnr" v="314770" />
	</node>
	<node id="9944123637" lat="62.3005149" lon="7.296081" version="1" timestamp="2022-08-10T05:45:57Z" changeset="124712179" uid="3497659" user="NKA">
		<tag k="name" v="Ruset" />
		<tag k="place" v="farm" />
		<tag k="ssr:stedsnr" v="496843" />
	</node>
	<node id="9944123638" lat="62.2824028" lon="7.2886223" version="1" timestamp="2022-08-10T05:45:57Z" changeset="124712179" uid="3497659" user="NKA">
		<tag k="name" v="Kvernhusneset" />
		<tag k="place" v="farm" />
		<tag k="ssr:stedsnr" v="436859" />
	</node>
	<node id="9944123639" lat="62.3819017" lon="7.158736" version="1" timestamp="2022-08-10T05:45:57Z" changeset="124712179" uid="3497659" user="NKA">
		<tag k="name" v="Lianes" />
		<tag k="place" v="hamlet" />
		<tag k="ssr:stedsnr" v="738719" />
	</node>
	<node id="9944123640" lat="62.3566509" lon="6.9551039" version="1" timestamp="2022-08-10T05:45:57Z" changeset="124712179" uid="3497659" user="NKA">
		<tag k="name" v="Djupdalen" />
		<tag k="place" v="farm" />
		<tag k="ssr:stedsnr" v="436534" />
	</node>
	<node id="9944123641" lat="62.3461747" lon="7.0935097" version="1" timestamp="2022-08-10T05:45:57Z" changeset="124712179" uid="3497659" user="NKA">
		<tag k="name" v="Kleiva" />
		<tag k="place" v="farm" />
		<tag k="ssr:stedsnr" v="758822" />
	</node>
	<node id="9944123642" lat="62.3383139" lon="7.4433277" version="1" timestamp="2022-08-10T05:45:57Z" changeset="124712179" uid="3497659" user="NKA">
		<tag k="name" v="Holane" />
		<tag k="place" v="farm" />
		<tag k="ssr:stedsnr" v="739762" />
	</node>
	<node id="9944123643" lat="62.3396605" lon="7.0969703" version="1" timestamp="2022-08-10T05:45:57Z" changeset="124712179" uid="3497659" user="NKA">
		<tag k="name" v="Ekrane" />
		<tag k="place" v="hamlet" />
		<tag k="ssr:stedsnr" v="679478" />
	</node>
	<node id="9944123644" lat="62.3103277" lon="7.3437" version="1" timestamp="2022-08-10T05:45:57Z" changeset="124712179" uid="3497659" user="NKA">
		<tag k="name" v="Ytsteheia" />
		<tag k="place" v="locality" />
		<tag k="ssr:stedsnr" v="192798" />
	</node>
	<node id="9944123645" lat="62.3037444" lon="7.3486334" version="1" timestamp="2022-08-10T05:45:57Z" changeset="124712179" uid="3497659" user="NKA">
		<tag k="historic" v="shieling" />
		<tag k="name" v="Nysætra" />
		<tag k="place" v="isolated_dwelling" />
		<tag k="ssr:stedsnr" v="71868" />
	</node>
	<node id="9944123646" lat="62.3393722" lon="7.4176084" version="1" timestamp="2022-08-10T05:45:57Z" changeset="124712179" uid="3497659" user="NKA">
		<tag k="name" v="Holsætra" />
		<tag k="place" v="locality" />
		<tag k="ssr:stedsnr" v="678743" />
	</node>
	<node id="9944123647" lat="62.3841974" lon="7.2235515" version="1" timestamp="2022-08-10T05:45:57Z" changeset="124712179" uid="3497659" user="NKA">
		<tag k="name" v="Bøen" />
		<tag k="place" v="farm" />
		<tag k="ssr:stedsnr" v="399814" />
	</node>
	<node id="9944123648" lat="62.296125" lon="7.3279362" version="1" timestamp="2022-08-10T05:45:57Z" changeset="124712179" uid="3497659" user="NKA">
		<tag k="name" v="Sæterplassane" />
		<tag k="place" v="farm" />
		<tag k="ssr:stedsnr" v="141890" />
	</node>
	<node id="9944123649" lat="62.3011477" lon="7.3136004" version="1" timestamp="2022-08-10T05:45:57Z" changeset="124712179" uid="3497659" user="NKA">
		<tag k="name" v="Ytre Hauge" />
		<tag k="place" v="farm" />
		<tag k="ssr:stedsnr" v="106485" />
	</node>
	<node id="9944123650" lat="62.3803805" lon="7.0586667" version="1" timestamp="2022-08-10T05:45:57Z" changeset="124712179" uid="3497659" user="NKA">
		<tag k="name" v="Storheim" />
		<tag k="place" v="hamlet" />
		<tag k="ssr:stedsnr" v="374711" />
	</node>
	<node id="9944123651" lat="62.3468615" lon="7.091633" version="1" timestamp="2022-08-10T05:45:57Z" changeset="124712179" uid="3497659" user="NKA">
		<tag k="name" v="Bjørkheim" />
		<tag k="place" v="farm" />
		<tag k="ssr:stedsnr" v="333820" />
	</node>
	<node id="9944123652" lat="62.3381182" lon="7.392615" version="1" timestamp="2022-08-10T05:45:57Z" changeset="124712179" uid="3497659" user="NKA">
		<tag k="name" v="Hol" />
		<tag k="place" v="hamlet" />
		<tag k="ssr:stedsnr" v="436742" />
	</node>
	<node id="9944123653" lat="62.3017806" lon="7.2843778" version="1" timestamp="2022-08-10T05:45:57Z" changeset="124712179" uid="3497659" user="NKA">
		<tag k="historic" v="shieling" />
		<tag k="name" v="Litlesætra" />
		<tag k="place" v="isolated_dwelling" />
		<tag k="ssr:stedsnr" v="410528" />
	</node>
	<node id="9944123654" lat="62.3954945" lon="7.0183084" version="1" timestamp="2022-08-10T05:45:57Z" changeset="124712179" uid="3497659" user="NKA">
		<tag k="historic" v="shieling" />
		<tag k="name" v="Midtbustsætra" />
		<tag k="place" v="isolated_dwelling" />
		<tag k="ssr:stedsnr" v="253762" />
	</node>
	<node id="9944123655" lat="62.3263389" lon="7.3455444" version="1" timestamp="2022-08-10T05:45:57Z" changeset="124712179" uid="3497659" user="NKA">
		<tag k="historic" v="shieling" />
		<tag k="name" v="Litlesætra" />
		<tag k="place" v="isolated_dwelling" />
		<tag k="ssr:stedsnr" v="106148" />
	</node>
	<node id="9944123656" lat="62.3382978" lon="7.434336" version="1" timestamp="2022-08-10T05:45:57Z" changeset="124712179" uid="3497659" user="NKA">
		<tag k="name" v="Remset" />
		<tag k="place" v="farm" />
		<tag k="ssr:stedsnr" v="314752" />
	</node>
	<node id="9944123657" lat="62.3842168" lon="7.1823876" version="1" timestamp="2022-08-10T05:45:57Z" changeset="124712179" uid="3497659" user="NKA">
		<tag k="historic" v="shieling" />
		<tag k="name" v="Nakkesætra" />
		<tag k="place" v="isolated_dwelling" />
		<tag k="ssr:stedsnr" v="131719" />
	</node>
	<node id="9944123658" lat="62.4258722" lon="7.2279056" version="1" timestamp="2022-08-10T05:45:57Z" changeset="124712179" uid="3497659" user="NKA">
		<tag k="historic" v="shieling" />
		<tag k="name" v="Puskestølen" />
		<tag k="place" v="isolated_dwelling" />
		<tag k="ssr:stedsnr" v="824659" />
	</node>
	<node id="9944123659" lat="62.3345278" lon="7.4627862" version="1" timestamp="2022-08-10T05:45:57Z" changeset="124712179" uid="3497659" user="NKA">
		<tag k="name" v="Raten" />
		<tag k="place" v="farm" />
		<tag k="ssr:stedsnr" v="166669" />
	</node>
	<node id="9944123660" lat="62.3766664" lon="7.1301265" version="1" timestamp="2022-08-10T05:45:57Z" changeset="124712179" uid="3497659" user="NKA">
		<tag k="historic" v="shieling" />
		<tag k="name" v="Haugaplassen" />
		<tag k="place" v="isolated_dwelling" />
		<tag k="ssr:stedsnr" v="95116" />
	</node>
	<node id="9944123661" lat="62.3390026" lon="7.4379057" version="1" timestamp="2022-08-10T05:45:57Z" changeset="124712179" uid="3497659" user="NKA">
		<tag k="name" v="Furulund" />
		<tag k="place" v="farm" />
		<tag k="ssr:stedsnr" v="72729" />
	</node>
	<node id="9944123662" lat="62.3781111" lon="7.1415973" version="1" timestamp="2022-08-10T05:45:57Z" changeset="124712179" uid="3497659" user="NKA">
		<tag k="name" v="Støleplassen" />
		<tag k="place" v="locality" />
		<tag k="ssr:stedsnr" v="35126" />
	</node>
	<node id="9944123663" lat="62.2501028" lon="7.1552223" version="1" timestamp="2022-08-10T05:45:57Z" changeset="124712179" uid="3497659" user="NKA">
		<tag k="name" v="Hjellane" />
		<tag k="place" v="farm" />
		<tag k="ssr:stedsnr" v="678647" />
	</node>
	<node id="9944123664" lat="62.3001861" lon="7.2285723" version="1" timestamp="2022-08-10T05:45:57Z" changeset="124712179" uid="3497659" user="NKA">
		<tag k="historic" v="shieling" />
		<tag k="name" v="Mestølen" />
		<tag k="place" v="isolated_dwelling" />
		<tag k="ssr:stedsnr" v="591755" />
	</node>
	<node id="9944123665" lat="62.2444833" lon="7.2305112" version="1" timestamp="2022-08-10T05:45:57Z" changeset="124712179" uid="3497659" user="NKA">
		<tag k="name" v="Hatlestadgjerdet" />
		<tag k="place" v="farm" />
		<tag k="ssr:stedsnr" v="253527" />
	</node>
	<node id="9944123666" lat="62.3858897" lon="7.0134268" version="1" timestamp="2022-08-10T05:45:57Z" changeset="124712179" uid="3497659" user="NKA">
		<tag k="name" v="Midtbust" />
		<tag k="place" v="hamlet" />
		<tag k="ssr:stedsnr" v="11731" />
	</node>
	<node id="9944123667" lat="62.2377902" lon="7.1308518" version="1" timestamp="2022-08-10T05:45:57Z" changeset="124712179" uid="3497659" user="NKA">
		<tag k="historic" v="shieling" />
		<tag k="name" v="Krikestølen" />
		<tag k="place" v="isolated_dwelling" />
		<tag k="ssr:stedsnr" v="399502" />
	</node>
	<node id="9944123668" lat="62.3417672" lon="7.4312821" version="1" timestamp="2022-08-10T05:45:57Z" changeset="124712179" uid="3497659" user="NKA">
		<tag k="name" v="Rem" />
		<tag k="place" v="hamlet" />
		<tag k="ssr:stedsnr" v="557727" />
	</node>
	<node id="9944123669" lat="62.2114871" lon="7.1609363" version="1" timestamp="2022-08-10T05:45:57Z" changeset="124712179" uid="3497659" user="NKA">
		<tag k="name" v="Løvoll" />
		<tag k="place" v="hamlet" />
		<tag k="ssr:stedsnr" v="435344" />
	</node>
	<node id="9944123670" lat="62.3044278" lon="7.1772223" version="1" timestamp="2022-08-10T05:45:57Z" changeset="124712179" uid="3497659" user="NKA">
		<tag k="historic" v="shieling" />
		<tag k="name" v="Hogsetdalen" />
		<tag k="place" v="isolated_dwelling" />
		<tag k="ssr:stedsnr" v="132615" />
	</node>
	<node id="9944123671" lat="62.3316222" lon="7.5319363" version="1" timestamp="2022-08-10T05:45:57Z" changeset="124712179" uid="3497659" user="NKA">
		<tag k="historic" v="shieling" />
		<tag k="name" v="Sagstølen" />
		<tag k="place" v="isolated_dwelling" />
		<tag k="ssr:stedsnr" v="835819" />
	</node>
	<node id="9944123672" lat="62.3667058" lon="7.0841031" version="1" timestamp="2022-08-10T05:45:57Z" changeset="124712179" uid="3497659" user="NKA">
		<tag k="name" v="Vad" />
		<tag k="place" v="hamlet" />
		<tag k="ssr:stedsnr" v="861523" />
	</node>
	<node id="9944123673" lat="62.383748" lon="7.0092993" version="1" timestamp="2022-08-10T05:45:57Z" changeset="124712179" uid="3497659" user="NKA">
		<tag k="name" v="Kyrkjebøen" />
		<tag k="place" v="farm" />
		<tag k="ssr:stedsnr" v="193688" />
	</node>
	<node id="9944123674" lat="62.2427687" lon="7.157633" version="1" timestamp="2022-08-10T05:45:57Z" changeset="124712179" uid="3497659" user="NKA">
		<tag k="name" v="Fremstehjellane" />
		<tag k="place" v="farm" />
		<tag k="ssr:stedsnr" v="399408" />
	</node>
	<node id="9944123675" lat="62.3823084" lon="7.1601501" version="1" timestamp="2022-08-10T05:45:57Z" changeset="124712179" uid="3497659" user="NKA">
		<tag k="historic" v="shieling" />
		<tag k="name" v="Gamlebøen" />
		<tag k="place" v="isolated_dwelling" />
		<tag k="ssr:stedsnr" v="95083" />
	</node>
	<node id="9944123676" lat="62.33595" lon="7.1228473" version="1" timestamp="2022-08-10T05:45:57Z" changeset="124712179" uid="3497659" user="NKA">
		<tag k="historic" v="shieling" />
		<tag k="name" v="Øyesætra" />
		<tag k="place" v="isolated_dwelling" />
		<tag k="ssr:stedsnr" v="557502" />
	</node>
	<node id="9944123677" lat="62.3835914" lon="7.0301985" version="1" timestamp="2022-08-10T05:45:57Z" changeset="124712179" uid="3497659" user="NKA">
		<tag k="name" v="Øvrebust" />
		<tag k="place" v="hamlet" />
		<tag k="ssr:stedsnr" v="557698" />
	</node>
	<node id="9944123678" lat="62.1973611" lon="7.1240279" version="1" timestamp="2022-08-10T05:45:57Z" changeset="124712179" uid="3497659" user="NKA">
		<tag k="name" v="Skusetsætra" />
		<tag k="place" v="locality" />
		<tag k="ssr:stedsnr" v="253375" />
	</node>
	<node id="9944123679" lat="62.3404408" lon="7.1087093" version="1" timestamp="2022-08-10T05:45:57Z" changeset="124712179" uid="3497659" user="NKA">
		<tag k="name" v="Rødsetsætra" />
		<tag k="place" v="farm" />
		<tag k="ssr:stedsnr" v="557501" />
	</node>
	<node id="9944123680" lat="62.2222859" lon="7.1552492" version="1" timestamp="2022-08-10T05:45:57Z" changeset="124712179" uid="3497659" user="NKA">
		<tag k="name" v="Kleiva" />
		<tag k="place" v="hamlet" />
		<tag k="ssr:stedsnr" v="132272" />
	</node>
	<node id="9944123681" lat="62.3799334" lon="7.1483306" version="1" timestamp="2022-08-10T05:45:57Z" changeset="124712179" uid="3497659" user="NKA">
		<tag k="name" v="Haugplassen" />
		<tag k="place" v="locality" />
		<tag k="ssr:stedsnr" v="35130" />
	</node>
	<node id="9944123682" lat="62.3824884" lon="6.9956647" version="1" timestamp="2022-08-10T05:45:57Z" changeset="124712179" uid="3497659" user="NKA">
		<tag k="name" v="Vinje" />
		<tag k="place" v="hamlet" />
		<tag k="ssr:stedsnr" v="557682" />
	</node>
	<node id="9944123683" lat="62.3701931" lon="7.0822302" version="1" timestamp="2022-08-10T05:45:57Z" changeset="124712179" uid="3497659" user="NKA">
		<tag k="name" v="Litlebakken" />
		<tag k="place" v="farm" />
		<tag k="ssr:stedsnr" v="278083" />
	</node>
	<node id="9944123684" lat="62.3208639" lon="7.3867557" version="1" timestamp="2022-08-10T05:45:57Z" changeset="124712179" uid="3497659" user="NKA">
		<tag k="historic" v="shieling" />
		<tag k="name" v="Hjelmesætra" />
		<tag k="place" v="isolated_dwelling" />
		<tag k="ssr:stedsnr" v="314767" />
	</node>
	<node id="9944123685" lat="62.2967055" lon="7.235489" version="1" timestamp="2022-08-10T05:45:57Z" changeset="124712179" uid="3497659" user="NKA">
		<tag k="name" v="Nybø" />
		<tag k="place" v="farm" />
		<tag k="ssr:stedsnr" v="11865" />
	</node>
	<node id="9944123686" lat="62.2453088" lon="7.161507" version="1" timestamp="2022-08-10T05:45:57Z" changeset="124712179" uid="3497659" user="NKA">
		<tag k="name" v="Hjellane" />
		<tag k="place" v="hamlet" />
		<tag k="ssr:stedsnr" v="72260" />
	</node>
	<node id="9944123687" lat="62.2353214" lon="7.0418957" version="1" timestamp="2022-08-10T05:45:57Z" changeset="124712179" uid="3497659" user="NKA">
		<tag k="alt_name" v="Smoge" />
		<tag k="name" v="Ytste Smoge" />
		<tag k="place" v="farm" />
		<tag k="ssr:stedsnr" v="72270" />
	</node>
	<node id="9944123688" lat="62.3880305" lon="7.1760362" version="1" timestamp="2022-08-10T05:45:57Z" changeset="124712179" uid="3497659" user="NKA">
		<tag k="historic" v="shieling" />
		<tag k="name" v="Litlestølen" />
		<tag k="place" v="isolated_dwelling" />
		<tag k="ssr:stedsnr" v="884839" />
	</node>
	<node id="9944123689" lat="62.2045366" lon="7.1343649" version="1" timestamp="2022-08-10T05:45:57Z" changeset="124712179" uid="3497659" user="NKA">
		<tag k="name" v="Skuset" />
		<tag k="place" v="hamlet" />
		<tag k="ssr:stedsnr" v="71342" />
	</node>
	<node id="9944123691" lat="62.2290611" lon="7.1361168" version="1" timestamp="2022-08-10T05:45:57Z" changeset="124712179" uid="3497659" user="NKA">
		<tag k="historic" v="shieling" />
		<tag k="name" v="Framgardssætra" />
		<tag k="place" v="isolated_dwelling" />
		<tag k="ssr:stedsnr" v="23868" />
	</node>
	<node id="9944123692" lat="62.26935" lon="7.0832529" version="1" timestamp="2022-08-10T05:45:57Z" changeset="124712179" uid="3497659" user="NKA">
		<tag k="historic" v="shieling" />
		<tag k="name" v="Verpesdalssætra" />
		<tag k="place" v="isolated_dwelling" />
		<tag k="ssr:stedsnr" v="800578" />
	</node>
	<node id="9944123693" lat="62.2403167" lon="7.1716417" version="1" timestamp="2022-08-10T05:45:57Z" changeset="124712179" uid="3497659" user="NKA">
		<tag k="historic" v="shieling" />
		<tag k="name" v="Storhjellsætra" />
		<tag k="place" v="isolated_dwelling" />
		<tag k="ssr:stedsnr" v="11269" />
	</node>
	<node id="9944123694" lat="62.1807764" lon="7.162161" version="1" timestamp="2022-08-10T05:45:57Z" changeset="124712179" uid="3497659" user="NKA">
		<tag k="name" v="Indreeide" />
		<tag k="place" v="hamlet" />
		<tag k="ssr:stedsnr" v="71374" />
	</node>
	<node id="9944123695" lat="62.2609406" lon="7.1542966" version="1" timestamp="2022-08-10T05:45:57Z" changeset="124712179" uid="3497659" user="NKA">
		<tag k="name" v="Ytste Kilsti" />
		<tag k="place" v="farm" />
		<tag k="ssr:stedsnr" v="642456" />
	</node>
	<node id="9944123696" lat="62.3281833" lon="7.3866139" version="1" timestamp="2022-08-10T05:45:57Z" changeset="124712179" uid="3497659" user="NKA">
		<tag k="historic" v="shieling" />
		<tag k="name" v="Småsætrane" />
		<tag k="place" v="isolated_dwelling" />
		<tag k="ssr:stedsnr" v="106274" />
	</node>
	<node id="9944123697" lat="62.23307" lon="7.1376473" version="1" timestamp="2022-08-10T05:45:57Z" changeset="124712179" uid="3497659" user="NKA">
		<tag k="name" v="Rønneberg" />
		<tag k="place" v="hamlet" />
		<tag k="ssr:stedsnr" v="861268" />
	</node>
	<node id="9944123698" lat="62.3428558" lon="7.3976646" version="1" timestamp="2022-08-10T05:45:57Z" changeset="124712179" uid="3497659" user="NKA">
		<tag k="name" v="Berlia" />
		<tag k="place" v="farm" />
		<tag k="ssr:stedsnr" v="106647" />
	</node>
	<node id="9944123699" lat="62.2122876" lon="7.136613" version="1" timestamp="2022-08-10T05:45:57Z" changeset="124712179" uid="3497659" user="NKA">
		<tag k="name" v="Gamlegarden" />
		<tag k="place" v="isolated_dwelling" />
		<tag k="ssr:stedsnr" v="641353" />
	</node>
	<node id="9944123700" lat="62.2289316" lon="7.0489" version="1" timestamp="2022-08-10T05:45:57Z" changeset="124712179" uid="3497659" user="NKA">
		<tag k="name" v="Smogelia" />
		<tag k="place" v="farm" />
		<tag k="ssr:stedsnr" v="557267" />
	</node>
	<node id="9944123701" lat="62.2902716" lon="7.2239377" version="1" timestamp="2022-08-10T05:45:57Z" changeset="124712179" uid="3497659" user="NKA">
		<tag k="name" v="Negarden" />
		<tag k="place" v="farm" />
		<tag k="ssr:stedsnr" v="976604" />
	</node>
	<node id="9944123702" lat="62.2561737" lon="7.1462293" version="1" timestamp="2022-08-10T05:45:57Z" changeset="124712179" uid="3497659" user="NKA">
		<tag k="name" v="Fremste Kilsti" />
		<tag k="place" v="farm" />
		<tag k="ssr:stedsnr" v="642454" />
	</node>
	<node id="9944123703" lat="62.4608833" lon="7.207739" version="1" timestamp="2022-08-10T05:45:57Z" changeset="124712179" uid="3497659" user="NKA">
		<tag k="historic" v="shieling" />
		<tag k="name" v="Nilsstølen" />
		<tag k="place" v="isolated_dwelling" />
		<tag k="ssr:stedsnr" v="460104" />
	</node>
	<node id="9944123704" lat="62.2424196" lon="7.2498944" version="1" timestamp="2022-08-10T05:45:57Z" changeset="124712179" uid="3497659" user="NKA">
		<tag k="name" v="Fremste Dunavollen" />
		<tag k="place" v="farm" />
		<tag k="ssr:stedsnr" v="324882" />
	</node>
	<node id="9944123705" lat="62.3647889" lon="7.15255" version="1" timestamp="2022-08-10T05:45:57Z" changeset="124712179" uid="3497659" user="NKA">
		<tag k="historic" v="shieling" />
		<tag k="name" v="Gamlesætra" />
		<tag k="place" v="isolated_dwelling" />
		<tag k="ssr:stedsnr" v="459513" />
	</node>
	<node id="9944123706" lat="62.2482394" lon="7.2455846" version="1" timestamp="2022-08-10T05:45:57Z" changeset="124712179" uid="3497659" user="NKA">
		<tag k="name" v="Dale" />
		<tag k="place" v="hamlet" />
		<tag k="ssr:stedsnr" v="921519" />
	</node>
	<node id="9944123707" lat="62.3843646" lon="6.9691231" version="1" timestamp="2022-08-10T05:45:57Z" changeset="124712179" uid="3497659" user="NKA">
		<tag k="name" v="Nesplassen" />
		<tag k="place" v="locality" />
		<tag k="ssr:stedsnr" v="800701" />
	</node>
	<node id="9944123708" lat="62.4010589" lon="7.2095107" version="1" timestamp="2022-08-10T05:45:57Z" changeset="124712179" uid="3497659" user="NKA">
		<tag k="name" v="Seljehaugen" />
		<tag k="place" v="hamlet" />
		<tag k="ssr:stedsnr" v="921751" />
	</node>
	<node id="9944123709" lat="62.3881695" lon="7.1797983" version="1" timestamp="2022-08-10T05:45:57Z" changeset="124712179" uid="3497659" user="NKA">
		<tag k="name" v="Reiten" />
		<tag k="place" v="farm" />
		<tag k="ssr:stedsnr" v="823819" />
	</node>
	<node id="9944123710" lat="62.2965805" lon="7.2151113" version="1" timestamp="2022-08-10T05:45:57Z" changeset="124712179" uid="3497659" user="NKA">
		<tag k="historic" v="shieling" />
		<tag k="name" v="Klovsetsætra" />
		<tag k="place" v="isolated_dwelling" />
		<tag k="ssr:stedsnr" v="315565" />
	</node>
	<node id="9944123711" lat="62.1948647" lon="7.153892" version="1" timestamp="2022-08-10T05:45:57Z" changeset="124712179" uid="3497659" user="NKA">
		<tag k="name" v="Eide" />
		<tag k="place" v="hamlet" />
		<tag k="ssr:stedsnr" v="678337" />
	</node>
	<node id="9944123712" lat="62.252084" lon="7.1817369" version="1" timestamp="2022-08-10T05:45:57Z" changeset="124712179" uid="3497659" user="NKA">
		<tag k="alt_name" v="Storås" />
		<tag k="name" v="Storåsen" />
		<tag k="place" v="hamlet" />
		<tag k="ssr:stedsnr" v="739924" />
	</node>
	<node id="9944123713" lat="62.3122972" lon="7.2825613" version="1" timestamp="2022-08-10T05:45:57Z" changeset="124712179" uid="3497659" user="NKA">
		<tag k="alt_name" v="Ødegård" />
		<tag k="name" v="Øygarden" />
		<tag k="place" v="farm" />
		<tag k="ssr:stedsnr" v="921784" />
	</node>
	<node id="9944123714" lat="62.3608333" lon="6.9660696" version="1" timestamp="2022-08-10T05:45:57Z" changeset="124712179" uid="3497659" user="NKA">
		<tag k="historic" v="shieling" />
		<tag k="name" v="Holmesætra" />
		<tag k="place" v="isolated_dwelling" />
		<tag k="ssr:stedsnr" v="800548" />
	</node>
	<node id="9944123715" lat="62.2730917" lon="7.1001279" version="1" timestamp="2022-08-10T05:45:57Z" changeset="124712179" uid="3497659" user="NKA">
		<tag k="name" v="Verpesdalen" />
		<tag k="place" v="farm" />
		<tag k="ssr:stedsnr" v="375533" />
	</node>
	<node id="9944123716" lat="62.2747074" lon="7.136027" version="1" timestamp="2022-08-10T05:45:57Z" changeset="124712179" uid="3497659" user="NKA">
		<tag k="alt_name" v="Espehjelle;Ospehjellen" />
		<tag k="name" v="Ospahjell" />
		<tag k="place" v="farm" />
		<tag k="ssr:stedsnr" v="617914" />
	</node>
	<node id="9944123717" lat="62.2615417" lon="7.1217275" version="1" timestamp="2022-08-10T05:45:57Z" changeset="124712179" uid="3497659" user="NKA">
		<tag k="historic" v="shieling" />
		<tag k="name" v="Kilstisætra" />
		<tag k="place" v="isolated_dwelling" />
		<tag k="ssr:stedsnr" v="314882" />
	</node>
	<node id="9944123718" lat="62.36295" lon="7.3611529" version="1" timestamp="2022-08-10T05:45:57Z" changeset="124712179" uid="3497659" user="NKA">
		<tag k="historic" v="shieling" />
		<tag k="name" v="Brekkestølen" />
		<tag k="place" v="isolated_dwelling" />
		<tag k="ssr:stedsnr" v="591140" />
	</node>
	<node id="9944123719" lat="62.4213841" lon="7.2330268" version="1" timestamp="2022-08-10T05:45:57Z" changeset="124712179" uid="3497659" user="NKA">
		<tag k="historic" v="shieling" />
		<tag k="name" v="Langsætrane" />
		<tag k="place" v="isolated_dwelling" />
		<tag k="ssr:stedsnr" v="278690" />
	</node>
	<node id="9944123720" lat="62.3773944" lon="7.1516778" version="1" timestamp="2022-08-10T05:45:57Z" changeset="124712179" uid="3497659" user="NKA">
		<tag k="historic" v="shieling" />
		<tag k="name" v="Litlesætra" />
		<tag k="place" v="isolated_dwelling" />
		<tag k="ssr:stedsnr" v="520083" />
	</node>
	<node id="9944123721" lat="62.2420923" lon="7.141116" version="1" timestamp="2022-08-10T05:45:57Z" changeset="124712179" uid="3497659" user="NKA">
		<tag k="name" v="Hesthaugen" />
		<tag k="place" v="farm" />
		<tag k="ssr:stedsnr" v="254252" />
	</node>
	<node id="9944123722" lat="62.42205" lon="6.9485001" version="1" timestamp="2022-08-10T05:45:57Z" changeset="124712179" uid="3497659" user="NKA">
		<tag k="name" v="Ålund" />
		<tag k="place" v="farm" />
		<tag k="ssr:stedsnr" v="398352" />
	</node>
	<node id="9944123723" lat="62.2483139" lon="7.1756251" version="1" timestamp="2022-08-10T05:45:57Z" changeset="124712179" uid="3497659" user="NKA">
		<tag k="historic" v="shieling" />
		<tag k="name" v="Toresætra" />
		<tag k="place" v="isolated_dwelling" />
		<tag k="ssr:stedsnr" v="254240" />
	</node>
	<node id="9944123724" lat="62.2333543" lon="7.0433181" version="1" timestamp="2022-08-10T05:45:57Z" changeset="124712179" uid="3497659" user="NKA">
		<tag k="name" v="Inste Smoge" />
		<tag k="place" v="locality" />
		<tag k="ssr:stedsnr" v="530117" />
	</node>
	<node id="9944123725" lat="62.3793062" lon="7.5608178" version="1" timestamp="2022-08-10T05:45:57Z" changeset="124712179" uid="3497659" user="NKA">
		<tag k="name" v="Nedstestølen" />
		<tag k="place" v="hamlet" />
		<tag k="ssr:stedsnr" v="921797" />
	</node>
	<node id="9944123726" lat="62.243271" lon="7.2488641" version="1" timestamp="2022-08-10T05:45:57Z" changeset="124712179" uid="3497659" user="NKA">
		<tag k="name" v="Dunavollane" />
		<tag k="place" v="farm" />
		<tag k="ssr:stedsnr" v="931895" />
	</node>
	<node id="9944123727" lat="62.3787611" lon="7.1238973" version="1" timestamp="2022-08-10T05:45:57Z" changeset="124712179" uid="3497659" user="NKA">
		<tag k="historic" v="shieling" />
		<tag k="name" v="Gamlesætra" />
		<tag k="place" v="isolated_dwelling" />
		<tag k="ssr:stedsnr" v="763154" />
	</node>
	<node id="9944123728" lat="62.237532" lon="7.2184095" version="1" timestamp="2022-08-10T05:45:57Z" changeset="124712179" uid="3497659" user="NKA">
		<tag k="historic" v="shieling" />
		<tag k="name" v="Hatlestadsætra" />
		<tag k="old_name" v="Hallstadsætra" />
		<tag k="place" v="isolated_dwelling" />
		<tag k="ssr:stedsnr" v="22905" />
	</node>
	<node id="9944123729" lat="62.2333611" lon="7.166539" version="1" timestamp="2022-08-10T05:45:57Z" changeset="124712179" uid="3497659" user="NKA">
		<tag k="historic" v="shieling" />
		<tag k="name" v="Veibergsætra" />
		<tag k="place" v="isolated_dwelling" />
		<tag k="ssr:stedsnr" v="11278" />
	</node>
	<node id="9944123730" lat="62.2363141" lon="7.1418191" version="1" timestamp="2022-08-10T05:45:57Z" changeset="124712179" uid="3497659" user="NKA">
		<tag k="name" v="Krikane" />
		<tag k="place" v="farm" />
		<tag k="ssr:stedsnr" v="885482" />
	</node>
	<node id="9944123731" lat="62.2997083" lon="7.2437223" version="1" timestamp="2022-08-10T05:45:57Z" changeset="124712179" uid="3497659" user="NKA">
		<tag k="name" v="Nerås" />
		<tag k="place" v="farm" />
		<tag k="ssr:stedsnr" v="860871" />
	</node>
	<node id="9944123732" lat="62.2063867" lon="7.1366366" version="1" timestamp="2022-08-10T05:45:57Z" changeset="124712179" uid="3497659" user="NKA">
		<tag k="name" v="Fredheim" />
		<tag k="place" v="farm" />
		<tag k="ssr:stedsnr" v="976609" />
	</node>
	<node id="9944123733" lat="62.3843571" lon="6.9870534" version="1" timestamp="2022-08-10T05:45:57Z" changeset="124712179" uid="3497659" user="NKA">
		<tag k="name" v="Andersgarden" />
		<tag k="place" v="farm" />
		<tag k="ssr:stedsnr" v="1074497" />
	</node>
	<node id="9944123734" lat="62.3266778" lon="7.5441695" version="1" timestamp="2022-08-10T05:45:57Z" changeset="124712179" uid="3497659" user="NKA">
		<tag k="historic" v="shieling" />
		<tag k="name" v="Djupdalsstølen" />
		<tag k="place" v="isolated_dwelling" />
		<tag k="ssr:stedsnr" v="800745" />
	</node>
	<node id="9944123735" lat="62.2225833" lon="7.1444612" version="1" timestamp="2022-08-10T05:45:57Z" changeset="124712179" uid="3497659" user="NKA">
		<tag k="name" v="Nedstelia" />
		<tag k="place" v="farm" />
		<tag k="ssr:stedsnr" v="703411" />
	</node>
	<node id="9944123736" lat="62.3188222" lon="7.4060667" version="1" timestamp="2022-08-10T05:45:57Z" changeset="124712179" uid="3497659" user="NKA">
		<tag k="historic" v="shieling" />
		<tag k="name" v="Heggjesætra" />
		<tag k="place" v="isolated_dwelling" />
		<tag k="ssr:stedsnr" v="799802" />
	</node>
	<node id="9944123737" lat="62.3852076" lon="6.9909244" version="1" timestamp="2022-08-10T05:45:57Z" changeset="124712179" uid="3497659" user="NKA">
		<tag k="name" v="Toregarden" />
		<tag k="place" v="farm" />
		<tag k="ssr:stedsnr" v="975600" />
	</node>
	<node id="9944123738" lat="62.3941223" lon="6.8930205" version="1" timestamp="2022-08-10T05:45:57Z" changeset="124712179" uid="3497659" user="NKA">
		<tag k="name" v="Vidhammar" />
		<tag k="old_name" v="Vindhammar" />
		<tag k="place" v="hamlet" />
		<tag k="ssr:stedsnr" v="739742" />
	</node>
	<node id="9944123739" lat="62.3348861" lon="7.1207279" version="1" timestamp="2022-08-10T05:45:57Z" changeset="124712179" uid="3497659" user="NKA">
		<tag k="historic" v="shieling" />
		<tag k="name" v="Ekrestølen" />
		<tag k="place" v="isolated_dwelling" />
		<tag k="ssr:stedsnr" v="679482" />
	</node>
	<node id="9944123740" lat="62.3208028" lon="7.3870918" version="1" timestamp="2022-08-10T05:45:57Z" changeset="124712179" uid="3497659" user="NKA">
		<tag k="historic" v="shieling" />
		<tag k="name" v="Hjelmasætra" />
		<tag k="place" v="isolated_dwelling" />
		<tag k="ssr:stedsnr" v="956144" />
	</node>
	<node id="9944123741" lat="62.3944777" lon="7.190464" version="1" timestamp="2022-08-10T05:45:57Z" changeset="124712179" uid="3497659" user="NKA">
		<tag k="historic" v="shieling" />
		<tag k="name" v="Almåssætra" />
		<tag k="place" v="isolated_dwelling" />
		<tag k="ssr:stedsnr" v="496724" />
	</node>
	<node id="9944123742" lat="62.3966055" lon="7.11935" version="1" timestamp="2022-08-10T05:45:57Z" changeset="124712179" uid="3497659" user="NKA">
		<tag k="historic" v="shieling" />
		<tag k="name" v="Jasvollstølen" />
		<tag k="place" v="isolated_dwelling" />
		<tag k="ssr:stedsnr" v="217071" />
	</node>
	<node id="9944123743" lat="62.3923444" lon="6.981425" version="1" timestamp="2022-08-10T05:45:57Z" changeset="124712179" uid="3497659" user="NKA">
		<tag k="historic" v="shieling" />
		<tag k="name" v="Hovsnakken" />
		<tag k="place" v="isolated_dwelling" />
		<tag k="ssr:stedsnr" v="557696" />
	</node>
	<node id="9944123744" lat="62.2800084" lon="7.1286251" version="1" timestamp="2022-08-10T05:45:57Z" changeset="124712179" uid="3497659" user="NKA">
		<tag k="alt_name" v="Espehjellneset" />
		<tag k="name" v="Ospahjellneset" />
		<tag k="place" v="farm" />
		<tag k="ssr:stedsnr" v="556910" />
	</node>
	<node id="9944123745" lat="62.3172416" lon="7.2878612" version="1" timestamp="2022-08-10T05:45:57Z" changeset="124712179" uid="3497659" user="NKA">
		<tag k="historic" v="shieling" />
		<tag k="name" v="Gardstølane" />
		<tag k="place" v="isolated_dwelling" />
		<tag k="ssr:stedsnr" v="166380" />
	</node>
	<node id="9944123746" lat="62.3986111" lon="7.2192139" version="1" timestamp="2022-08-10T05:45:57Z" changeset="124712179" uid="3497659" user="NKA">
		<tag k="historic" v="shieling" />
		<tag k="name" v="Stølen" />
		<tag k="place" v="isolated_dwelling" />
		<tag k="ssr:stedsnr" v="581694" />
	</node>
	<node id="9944123747" lat="62.40375" lon="6.8966917" version="1" timestamp="2022-08-10T05:45:57Z" changeset="124712179" uid="3497659" user="NKA">
		<tag k="historic" v="shieling" />
		<tag k="name" v="Skotssætra" />
		<tag k="place" v="isolated_dwelling" />
		<tag k="ssr:stedsnr" v="556651" />
	</node>
	<node id="9944123748" lat="62.2326639" lon="7.1501892" version="1" timestamp="2022-08-10T05:45:57Z" changeset="124712179" uid="3497659" user="NKA">
		<tag k="name" v="Øye" />
		<tag k="place" v="farm" />
		<tag k="ssr:stedsnr" v="557273" />
	</node>
	<node id="9944123749" lat="62.3800139" lon="7.1509417" version="1" timestamp="2022-08-10T05:45:57Z" changeset="124712179" uid="3497659" user="NKA">
		<tag k="name" v="Tegeplassen" />
		<tag k="place" v="locality" />
		<tag k="ssr:stedsnr" v="460146" />
	</node>
	<node id="9944123750" lat="62.2229401" lon="7.2547523" version="1" timestamp="2022-08-10T05:45:57Z" changeset="124712179" uid="3497659" user="NKA">
		<tag k="historic" v="shieling" />
		<tag k="name" v="Innsetsætra" />
		<tag k="place" v="hamlet" />
		<tag k="ssr:stedsnr" v="496015" />
	</node>
	<node id="9944123751" lat="62.4127058" lon="6.9021695" version="1" timestamp="2022-08-10T05:45:57Z" changeset="124712179" uid="3497659" user="NKA">
		<tag k="name" v="Me-Skotet" />
		<tag k="place" v="farm" />
		<tag k="ssr:stedsnr" v="325910" />
	</node>
	<node id="9944123752" lat="62.2759331" lon="7.066091" version="1" timestamp="2022-08-10T05:45:57Z" changeset="124712179" uid="3497659" user="NKA">
		<tag k="name" v="Skrednakken" />
		<tag k="place" v="farm" />
		<tag k="ssr:stedsnr" v="436546" />
	</node>
	<node id="9944123753" lat="62.4072944" lon="7.1274861" version="1" timestamp="2022-08-10T05:45:57Z" changeset="124712179" uid="3497659" user="NKA">
		<tag k="historic" v="shieling" />
		<tag k="name" v="Findastølen" />
		<tag k="place" v="isolated_dwelling" />
		<tag k="ssr:stedsnr" v="581073" />
	</node>
	<node id="9944123754" lat="62.3010592" lon="7.3325556" version="1" timestamp="2022-08-10T05:45:57Z" changeset="124712179" uid="3497659" user="NKA">
		<tag k="name" v="Sætra" />
		<tag k="place" v="hamlet" />
		<tag k="ssr:stedsnr" v="436842" />
	</node>
	<node id="9944123755" lat="62.3718065" lon="6.8897937" version="1" timestamp="2022-08-10T05:45:57Z" changeset="124712179" uid="3497659" user="NKA">
		<tag k="name" v="Skjortneset" />
		<tag k="place" v="farm" />
		<tag k="ssr:stedsnr" v="131710" />
	</node>
	<node id="9944123756" lat="62.2489904" lon="7.161014" version="1" timestamp="2022-08-10T05:45:57Z" changeset="124712179" uid="3497659" user="NKA">
		<tag k="name" v="Heimre Hjelle" />
		<tag k="place" v="farm" />
		<tag k="ssr:stedsnr" v="157420" />
	</node>
	<node id="9944123757" lat="62.3736306" lon="7.0790974" version="1" timestamp="2022-08-10T05:45:57Z" changeset="124712179" uid="3497659" user="NKA">
		<tag k="name" v="Torvå" />
		<tag k="place" v="farm" />
		<tag k="ssr:stedsnr" v="581091" />
	</node>
	<node id="9944123758" lat="62.4364868" lon="6.9137289" version="1" timestamp="2022-08-10T05:45:57Z" changeset="124712179" uid="3497659" user="NKA">
		<tag k="name" v="Bjørkeneset" />
		<tag k="place" v="locality" />
		<tag k="ssr:stedsnr" v="435710" />
	</node>
	<node id="9944123759" lat="62.2503786" lon="7.1749209" version="1" timestamp="2022-08-10T05:45:57Z" changeset="124712179" uid="3497659" user="NKA">
		<tag k="name" v="Stølen" />
		<tag k="place" v="farm" />
		<tag k="ssr:stedsnr" v="460520" />
	</node>
	<node id="9944123760" lat="62.365925" lon="6.9439945" version="1" timestamp="2022-08-10T05:45:57Z" changeset="124712179" uid="3497659" user="NKA">
		<tag k="name" v="Nedsteplassen" />
		<tag k="place" v="locality" />
		<tag k="ssr:stedsnr" v="337740" />
	</node>
	<node id="9944123761" lat="62.1606277" lon="7.4367" version="1" timestamp="2022-08-10T05:45:57Z" changeset="124712179" uid="3497659" user="NKA">
		<tag k="historic" v="shieling" />
		<tag k="name" v="Ole-Berntstølane" />
		<tag k="place" v="isolated_dwelling" />
		<tag k="ssr:stedsnr" v="956110" />
	</node>
	<node id="9944123762" lat="62.3178833" lon="7.2446112" version="1" timestamp="2022-08-10T05:45:57Z" changeset="124712179" uid="3497659" user="NKA">
		<tag k="historic" v="shieling" />
		<tag k="name" v="Berdalssætra" />
		<tag k="place" v="isolated_dwelling" />
		<tag k="ssr:stedsnr" v="800739" />
	</node>
	<node id="9944123763" lat="62.1833584" lon="7.5559112" version="1" timestamp="2022-08-10T05:45:57Z" changeset="124712179" uid="3497659" user="NKA">
		<tag k="name" v="Stølane" />
		<tag k="place" v="locality" />
		<tag k="ssr:stedsnr" v="617076" />
	</node>
	<node id="9944123764" lat="62.1856306" lon="7.4978612" version="1" timestamp="2022-08-10T05:45:57Z" changeset="124712179" uid="3497659" user="NKA">
		<tag k="historic" v="shieling" />
		<tag k="name" v="Stølen" />
		<tag k="place" v="isolated_dwelling" />
		<tag k="ssr:stedsnr" v="774971" />
	</node>
	<node id="9944123765" lat="62.4196941" lon="7.2294674" version="1" timestamp="2022-08-10T05:45:57Z" changeset="124712179" uid="3497659" user="NKA">
		<tag k="historic" v="shieling" />
		<tag k="name" v="Kvitlestølen" />
		<tag k="place" v="hamlet" />
		<tag k="ssr:stedsnr" v="157586" />
	</node>
	<node id="9944123766" lat="62.2096222" lon="7.245564" version="1" timestamp="2022-08-10T05:45:57Z" changeset="124712179" uid="3497659" user="NKA">
		<tag k="historic" v="shieling" />
		<tag k="name" v="Kallsetstølen" />
		<tag k="place" v="locality" />
		<tag k="ssr:stedsnr" v="107128" />
	</node>
	<node id="9944123767" lat="62.3124694" lon="7.4766557" version="1" timestamp="2022-08-10T05:45:57Z" changeset="124712179" uid="3497659" user="NKA">
		<tag k="name" v="Heisætra" />
		<tag k="place" v="isolated_dwelling" />
		<tag k="ssr:stedsnr" v="435796" />
	</node>
	<node id="9944123768" lat="62.2010026" lon="7.437745" version="1" timestamp="2022-08-10T05:45:57Z" changeset="124712179" uid="3497659" user="NKA">
		<tag k="name" v="Kaldhusdalen" />
		<tag k="place" v="hamlet" />
		<tag k="ssr:stedsnr" v="253011" />
	</node>
	<node id="9944123769" lat="62.3885583" lon="7.1931112" version="1" timestamp="2022-08-10T05:45:57Z" changeset="124712179" uid="3497659" user="NKA">
		<tag k="name" v="Plassebøen" />
		<tag k="place" v="locality" />
		<tag k="ssr:stedsnr" v="34838" />
	</node>
	<node id="9944123770" lat="62.2988555" lon="7.3274363" version="1" timestamp="2022-08-10T05:45:57Z" changeset="124712179" uid="3497659" user="NKA">
		<tag k="name" v="Solbakk" />
		<tag k="place" v="farm" />
		<tag k="ssr:stedsnr" v="436844" />
	</node>
	<node id="9944123771" lat="62.3764667" lon="7.6380416" version="1" timestamp="2022-08-10T05:45:57Z" changeset="124712179" uid="3497659" user="NKA">
		<tag k="name" v="Osvika" />
		<tag k="place" v="locality" />
		<tag k="ssr:stedsnr" v="435805" />
	</node>
	<node id="9944123772" lat="62.2683574" lon="7.3618051" version="1" timestamp="2022-08-10T05:45:57Z" changeset="124712179" uid="3497659" user="NKA">
		<tag k="name" v="Korsnes" />
		<tag k="place" v="farm" />
		<tag k="ssr:stedsnr" v="739822" />
	</node>
	<node id="9944123773" lat="62.3592917" lon="7.0975195" version="1" timestamp="2022-08-10T05:45:57Z" changeset="124712179" uid="3497659" user="NKA">
		<tag k="historic" v="shieling" />
		<tag k="name" v="Løsetnakken" />
		<tag k="place" v="isolated_dwelling" />
		<tag k="ssr:stedsnr" v="921559" />
	</node>
	<node id="9944123774" lat="62.2477118" lon="7.218956" version="1" timestamp="2022-08-10T05:45:57Z" changeset="124712179" uid="3497659" user="NKA">
		<tag k="name" v="Hatlestad" />
		<tag k="place" v="hamlet" />
		<tag k="ssr:stedsnr" v="860525" />
	</node>
	<node id="9944123775" lat="62.211132" lon="7.1392686" version="1" timestamp="2022-08-10T05:45:57Z" changeset="124712179" uid="3497659" user="NKA">
		<tag k="name" v="Berge" />
		<tag k="place" v="hamlet" />
		<tag k="ssr:stedsnr" v="799321" />
	</node>
	<node id="9944123776" lat="62.3789361" lon="7.0916501" version="1" timestamp="2022-08-10T05:45:57Z" changeset="124712179" uid="3497659" user="NKA">
		<tag k="historic" v="shieling" />
		<tag k="name" v="Mosætra" />
		<tag k="place" v="isolated_dwelling" />
		<tag k="ssr:stedsnr" v="617722" />
	</node>
	<node id="9944123777" lat="62.3303374" lon="7.3772595" version="1" timestamp="2022-08-10T05:45:57Z" changeset="124712179" uid="3497659" user="NKA">
		<tag k="name" v="Heggen" />
		<tag k="place" v="hamlet" />
		<tag k="ssr:stedsnr" v="921770" />
	</node>
	<node id="9944123778" lat="62.2951722" lon="7.3137556" version="1" timestamp="2022-08-10T05:45:57Z" changeset="124712179" uid="3497659" user="NKA">
		<tag k="name" v="Vikane" />
		<tag k="place" v="farm" />
		<tag k="ssr:stedsnr" v="618829" />
	</node>
	<node id="9944123779" lat="62.1879801" lon="7.5028381" version="1" timestamp="2022-08-10T05:45:57Z" changeset="124712179" uid="3497659" user="NKA">
		<tag k="alt_name" v="Rødal, øvste" />
		<tag k="name" v="Øvste Rødal" />
		<tag k="place" v="farm" />
		<tag k="ssr:stedsnr" v="739054" />
	</node>
	<node id="9944123780" lat="62.2803916" lon="7.2740306" version="1" timestamp="2022-08-10T05:45:57Z" changeset="124712179" uid="3497659" user="NKA">
		<tag k="historic" v="shieling" />
		<tag k="name" v="Vikasætra" />
		<tag k="place" v="isolated_dwelling" />
		<tag k="ssr:stedsnr" v="193872" />
	</node>
	<node id="9944123781" lat="62.333658" lon="7.4709406" version="1" timestamp="2022-08-10T05:45:57Z" changeset="124712179" uid="3497659" user="NKA">
		<tag k="name" v="Alstad" />
		<tag k="place" v="hamlet" />
		<tag k="ssr:stedsnr" v="678754" />
	</node>
	<node id="9944123782" lat="62.2696611" lon="7.6047222" version="1" timestamp="2022-08-10T05:45:57Z" changeset="124712179" uid="3497659" user="NKA">
		<tag k="name" v="Illstighytta" />
		<tag k="place" v="isolated_dwelling" />
		<tag k="ssr:stedsnr" v="809916" />
	</node>
	<node id="9944123783" lat="62.2227528" lon="7.1445195" version="1" timestamp="2022-08-10T05:45:57Z" changeset="124712179" uid="3497659" user="NKA">
		<tag k="name" v="Øye" />
		<tag k="place" v="farm" />
		<tag k="ssr:stedsnr" v="617322" />
	</node>
	<node id="9944123784" lat="62.2497222" lon="7.2185639" version="1" timestamp="2022-08-10T05:45:57Z" changeset="124712179" uid="3497659" user="NKA">
		<tag k="name" v="Skagen" />
		<tag k="place" v="farm" />
		<tag k="ssr:stedsnr" v="651951" />
	</node>
	<node id="9944123785" lat="62.3807194" lon="7.1557473" version="1" timestamp="2022-08-10T05:45:57Z" changeset="124712179" uid="3497659" user="NKA">
		<tag k="name" v="Granheim" />
		<tag k="place" v="farm" />
		<tag k="ssr:stedsnr" v="581120" />
	</node>
	<node id="9944123786" lat="62.2992193" lon="7.2517105" version="1" timestamp="2022-08-10T05:45:57Z" changeset="124712179" uid="3497659" user="NKA">
		<tag k="name" v="Muri" />
		<tag k="place" v="hamlet" />
		<tag k="ssr:stedsnr" v="557846" />
	</node>
	<node id="9944123787" lat="62.3395917" lon="7.1352667" version="1" timestamp="2022-08-10T05:45:57Z" changeset="124712179" uid="3497659" user="NKA">
		<tag k="historic" v="shieling" />
		<tag k="name" v="Riset" />
		<tag k="place" v="isolated_dwelling" />
		<tag k="ssr:stedsnr" v="618514" />
	</node>
	<node id="9944123788" lat="62.1877639" lon="7.4395305" version="1" timestamp="2022-08-10T05:45:57Z" changeset="124712179" uid="3497659" user="NKA">
		<tag k="historic" v="shieling" />
		<tag k="name" v="Kaldhusstølen" />
		<tag k="place" v="isolated_dwelling" />
		<tag k="ssr:stedsnr" v="617065" />
	</node>
	<node id="9944123789" lat="62.3612139" lon="6.9428917" version="1" timestamp="2022-08-10T05:45:57Z" changeset="124712179" uid="3497659" user="NKA">
		<tag k="name" v="Latøyna" />
		<tag k="place" v="locality" />
		<tag k="ssr:stedsnr" v="739684" />
	</node>
	<node id="9944123790" lat="62.3624562" lon="7.5606264" version="1" timestamp="2022-08-10T05:45:57Z" changeset="124712179" uid="3497659" user="NKA">
		<tag k="name" v="Langdalen" />
		<tag k="place" v="hamlet" />
		<tag k="ssr:stedsnr" v="375780" />
	</node>
	<node id="9944123791" lat="62.4112102" lon="6.9127001" version="1" timestamp="2022-08-10T05:45:57Z" changeset="124712179" uid="3497659" user="NKA">
		<tag k="name" v="Skotshalsen" />
		<tag k="place" v="farm" />
		<tag k="ssr:stedsnr" v="799665" />
	</node>
	<node id="9944123792" lat="62.2505886" lon="7.2044193" version="1" timestamp="2022-08-10T05:45:57Z" changeset="124712179" uid="3497659" user="NKA">
		<tag k="name" v="Litleåsen" />
		<tag k="place" v="farm" />
		<tag k="ssr:stedsnr" v="556933" />
	</node>
	<node id="9944123793" lat="62.2191233" lon="7.1423434" version="1" timestamp="2022-08-10T05:45:57Z" changeset="124712179" uid="3497659" user="NKA">
		<tag k="name" v="Øvstelia" />
		<tag k="place" v="farm" />
		<tag k="ssr:stedsnr" v="374318" />
	</node>
	<node id="9944123794" lat="62.3342778" lon="7.1897473" version="1" timestamp="2022-08-10T05:45:57Z" changeset="124712179" uid="3497659" user="NKA">
		<tag k="name" v="Karlstad" />
		<tag k="place" v="isolated_dwelling" />
		<tag k="ssr:stedsnr" v="537700" />
	</node>
	<node id="9944123795" lat="62.2944389" lon="7.2281196" version="1" timestamp="2022-08-10T05:45:57Z" changeset="124712179" uid="3497659" user="NKA">
		<tag k="alt_name" v="Gamlebøen" />
		<tag k="name" v="Gammalbøen" />
		<tag k="place" v="farm" />
		<tag k="ssr:stedsnr" v="375839" />
	</node>
	<node id="9944123796" lat="62.4081805" lon="6.9634863" version="1" timestamp="2022-08-10T05:45:57Z" changeset="124712179" uid="3497659" user="NKA">
		<tag k="historic" v="shieling" />
		<tag k="name" v="Stavnessætra" />
		<tag k="place" v="isolated_dwelling" />
		<tag k="ssr:stedsnr" v="156694" />
	</node>
	<node id="9944123797" lat="62.3739232" lon="6.9363077" version="1" timestamp="2022-08-10T05:45:57Z" changeset="124712179" uid="3497659" user="NKA">
		<tag k="name" v="Stordalsholmen" />
		<tag k="place" v="farm" />
		<tag k="ssr:stedsnr" v="632971" />
	</node>
	<node id="9944123798" lat="62.3736333" lon="6.8748418" version="1" timestamp="2022-08-10T05:45:57Z" changeset="124712179" uid="3497659" user="NKA">
		<tag k="historic" v="shieling" />
		<tag k="name" v="Skjortnessætra" />
		<tag k="place" v="isolated_dwelling" />
		<tag k="ssr:stedsnr" v="617713" />
	</node>
	<node id="9944123799" lat="62.366318" lon="6.9450068" version="1" timestamp="2022-08-10T05:45:57Z" changeset="124712179" uid="3497659" user="NKA">
		<tag k="name" v="Øygarden" />
		<tag k="place" v="locality" />
		<tag k="ssr:stedsnr" v="458771" />
	</node>
	<node id="9944123800" lat="62.4005132" lon="6.9479541" version="1" timestamp="2022-08-10T05:45:57Z" changeset="124712179" uid="3497659" user="NKA">
		<tag k="name" v="Stavneset" />
		<tag k="place" v="farm" />
		<tag k="ssr:stedsnr" v="678730" />
	</node>
	<node id="9944123801" lat="62.4148255" lon="6.8944159" version="1" timestamp="2022-08-10T05:45:57Z" changeset="124712179" uid="3497659" user="NKA">
		<tag k="alt_name" v="Skotet" />
		<tag k="name" v="Ytste Skotet" />
		<tag k="place" v="farm" />
		<tag k="ssr:stedsnr" v="507923" />
	</node>
	<node id="9944123802" lat="62.2590412" lon="7.0342553" version="1" timestamp="2022-08-10T05:45:57Z" changeset="124712179" uid="3497659" user="NKA">
		<tag k="name" v="Raudbergvika" />
		<tag k="place" v="locality" />
		<tag k="ssr:stedsnr" v="983620" />
	</node>
	<node id="9944123803" lat="62.2392856" lon="7.2580547" version="1" timestamp="2022-08-10T05:45:57Z" changeset="124712179" uid="3497659" user="NKA">
		<tag k="name" v="Prestegarden" />
		<tag k="place" v="farm" />
		<tag k="ssr:stedsnr" v="228862" />
	</node>
	<node id="9944123804" lat="62.3005182" lon="7.2617943" version="1" timestamp="2022-08-10T05:45:57Z" changeset="124712179" uid="3497659" user="NKA">
		<tag k="name" v="Sylte" />
		<tag k="place" v="quarter" />
		<tag k="ssr:stedsnr" v="159001" />
	</node>
	<node id="9944123805" lat="62.3993657" lon="7.2082197" version="1" timestamp="2022-08-10T05:45:57Z" changeset="124712179" uid="3497659" user="NKA">
		<tag k="loc_name" v="Ytstehaug" />
		<tag k="name" v="Ystehaug" />
		<tag k="place" v="farm" />
		<tag k="ssr:stedsnr" v="217667" />
	</node>
	<node id="9944123806" lat="62.2341364" lon="7.043032" version="1" timestamp="2022-08-10T05:45:57Z" changeset="124712179" uid="3497659" user="NKA">
		<tag k="name" v="Smoge" />
		<tag k="place" v="hamlet" />
		<tag k="ssr:stedsnr" v="983621" />
	</node>
	<node id="9944123807" lat="62.3688616" lon="6.947946" version="1" timestamp="2022-08-10T05:45:57Z" changeset="124712179" uid="3497659" user="NKA">
		<tag k="loc_name" v="Holmehals" />
		<tag k="name" v="Øvstholmen" />
		<tag k="place" v="farm" />
		<tag k="ssr:stedsnr" v="435724" />
	</node>
	<node id="9944123808" lat="62.3755694" lon="7.0924779" version="1" timestamp="2022-08-10T05:45:57Z" changeset="124712179" uid="3497659" user="NKA">
		<tag k="historic" v="shieling" />
		<tag k="name" v="Gamlesætra" />
		<tag k="place" v="isolated_dwelling" />
		<tag k="ssr:stedsnr" v="520066" />
	</node>
	<node id="9944123809" lat="62.3399028" lon="7.1288279" version="1" timestamp="2022-08-10T05:45:57Z" changeset="124712179" uid="3497659" user="NKA">
		<tag k="historic" v="shieling" />
		<tag k="name" v="Skjetnesetra" />
		<tag k="place" v="isolated_dwelling" />
		<tag k="ssr:stedsnr" v="338437" />
	</node>
	<node id="9944123810" lat="62.3817455" lon="6.9872026" version="1" timestamp="2022-08-10T05:45:57Z" changeset="124712179" uid="3497659" user="NKA">
		<tag k="alt_name" v="Hove" />
		<tag k="name" v="Ellinggarden" />
		<tag k="place" v="farm" />
		<tag k="ssr:stedsnr" v="496718" />
	</node>
	<node id="9944123811" lat="62.2401871" lon="7.2634489" version="1" timestamp="2022-08-10T05:45:57Z" changeset="124712179" uid="3497659" user="NKA">
		<tag k="name" v="Engeset" />
		<tag k="place" v="hamlet" />
		<tag k="ssr:stedsnr" v="921516" />
	</node>
	<node id="9944123812" lat="62.3445651" lon="7.0956808" version="1" timestamp="2022-08-10T05:45:57Z" changeset="124712179" uid="3497659" user="NKA">
		<tag k="name" v="Rødset" />
		<tag k="place" v="hamlet" />
		<tag k="ssr:stedsnr" v="315532" />
	</node>
	<node id="9944123813" lat="62.3762835" lon="7.1323424" version="1" timestamp="2022-08-10T05:45:57Z" changeset="124712179" uid="3497659" user="NKA">
		<tag k="name" v="Nygarden" />
		<tag k="place" v="farm" />
		<tag k="ssr:stedsnr" v="460143" />
	</node>
	<node id="9944123814" lat="62.3872478" lon="6.8802036" version="1" timestamp="2022-08-10T05:45:57Z" changeset="124712179" uid="3497659" user="NKA">
		<tag k="name" v="Korsadalen" />
		<tag k="place" v="farm" />
		<tag k="ssr:stedsnr" v="800704" />
	</node>
	<node id="9944123815" lat="62.3305332" lon="7.3583343" version="1" timestamp="2022-08-10T05:45:57Z" changeset="124712179" uid="3497659" user="NKA">
		<tag k="name" v="Hjelma" />
		<tag k="place" v="hamlet" />
		<tag k="ssr:stedsnr" v="617776" />
	</node>
	<node id="9944123816" lat="62.3475421" lon="7.0889436" version="1" timestamp="2022-08-10T05:45:57Z" changeset="124712179" uid="3497659" user="NKA">
		<tag k="name" v="Øyane" />
		<tag k="old_name" v="Trettøyane;Trætøie" />
		<tag k="place" v="hamlet" />
		<tag k="ssr:stedsnr" v="254518" />
	</node>
	<node id="9944123817" lat="62.3754963" lon="7.126679" version="1" timestamp="2022-08-10T05:45:57Z" changeset="124712179" uid="3497659" user="NKA">
		<tag k="name" v="Stavdal" />
		<tag k="place" v="hamlet" />
		<tag k="ssr:stedsnr" v="253709" />
	</node>
	<node id="9944123818" lat="62.396196" lon="7.122488" version="1" timestamp="2022-08-10T05:45:57Z" changeset="124712179" uid="3497659" user="NKA">
		<tag k="historic" v="shieling" />
		<tag k="name" v="Stavdalsstølen" />
		<tag k="place" v="isolated_dwelling" />
		<tag k="ssr:stedsnr" v="702063" />
	</node>
	<node id="9944123819" lat="62.2582443" lon="7.1501579" version="1" timestamp="2022-08-10T05:45:57Z" changeset="124712179" uid="3497659" user="NKA">
		<tag k="name" v="Kilsti" />
		<tag k="place" v="hamlet" />
		<tag k="ssr:stedsnr" v="617926" />
	</node>
	<node id="9944123820" lat="62.2438622" lon="7.2464417" version="1" timestamp="2022-08-10T05:45:57Z" changeset="124712179" uid="3497659" user="NKA">
		<tag k="name" v="Heimste Dunavollen" />
		<tag k="place" v="farm" />
		<tag k="ssr:stedsnr" v="506882" />
	</node>
	<node id="9944123821" lat="62.242141" lon="7.2510582" version="1" timestamp="2022-08-10T05:45:57Z" changeset="124712179" uid="3497659" user="NKA">
		<tag k="name" v="Dalhus" />
		<tag k="place" v="hamlet" />
		<tag k="ssr:stedsnr" v="314536" />
	</node>
	<node id="9944123822" lat="62.1985103" lon="7.1580235" version="1" timestamp="2022-08-10T05:45:57Z" changeset="124712179" uid="3497659" user="NKA">
		<tag k="name" v="Årset" />
		<tag k="place" v="hamlet" />
		<tag k="ssr:stedsnr" v="496322" />
	</node>
	<node id="9944123823" lat="62.4301389" lon="6.9946863" version="1" timestamp="2022-08-10T05:45:57Z" changeset="124712179" uid="3497659" user="NKA">
		<tag k="historic" v="shieling" />
		<tag k="name" v="Pusken" />
		<tag k="old_name" v="Puskestølen" />
		<tag k="place" v="isolated_dwelling" />
		<tag k="ssr:stedsnr" v="131670" />
	</node>
	<node id="9944123824" lat="62.2241973" lon="7.132139" version="1" timestamp="2022-08-10T05:45:57Z" changeset="124712179" uid="3497659" user="NKA">
		<tag k="historic" v="shieling" />
		<tag k="name" v="Øygardssætra" />
		<tag k="place" v="isolated_dwelling" />
		<tag k="ssr:stedsnr" v="131281" />
	</node>
	<node id="9944123825" lat="62.3822497" lon="7.0447562" version="1" timestamp="2022-08-10T05:45:57Z" changeset="124712179" uid="3497659" user="NKA">
		<tag k="name" v="Holtleite" />
		<tag k="place" v="farm" />
		<tag k="ssr:stedsnr" v="96060" />
	</node>
	<node id="9944123826" lat="62.3717487" lon="7.079552" version="1" timestamp="2022-08-10T05:45:57Z" changeset="124712179" uid="3497659" user="NKA">
		<tag k="name" v="Erikgarden" />
		<tag k="place" v="farm" />
		<tag k="ssr:stedsnr" v="156077" />
	</node>
	<node id="9944123827" lat="62.3789586" lon="7.1501832" version="1" timestamp="2022-08-10T05:45:57Z" changeset="124712179" uid="3497659" user="NKA">
		<tag k="name" v="Støle" />
		<tag k="place" v="hamlet" />
		<tag k="ssr:stedsnr" v="678701" />
	</node>
	<node id="9944123828" lat="62.3448218" lon="7.5513842" version="1" timestamp="2022-08-10T05:45:57Z" changeset="124712179" uid="3497659" user="NKA">
		<tag k="name" v="Høyhjellane" />
		<tag k="place" v="hamlet" />
		<tag k="ssr:stedsnr" v="800719" />
	</node>
	<node id="9944123829" lat="62.2002231" lon="7.5476839" version="1" timestamp="2022-08-10T05:45:57Z" changeset="124712179" uid="3497659" user="NKA">
		<tag k="historic" v="shieling" />
		<tag k="name" v="Heimsætra" />
		<tag k="place" v="locality" />
		<tag k="ssr:stedsnr" v="774689" />
	</node>
	<node id="9944123830" lat="62.3857333" lon="7.1454944" version="1" timestamp="2022-08-10T05:45:57Z" changeset="124712179" uid="3497659" user="NKA">
		<tag k="historic" v="shieling" />
		<tag k="name" v="Stølesætra" />
		<tag k="place" v="isolated_dwelling" />
		<tag k="ssr:stedsnr" v="10722" />
	</node>
	<node id="9944123831" lat="62.3964305" lon="7.1228139" version="1" timestamp="2022-08-10T05:45:57Z" changeset="124712179" uid="3497659" user="NKA">
		<tag k="historic" v="shieling" />
		<tag k="name" v="Botnastølen" />
		<tag k="place" v="hamlet" />
		<tag k="ssr:stedsnr" v="71753" />
	</node>
	<node id="9944123832" lat="62.3834306" lon="6.9731085" version="1" timestamp="2022-08-10T05:45:57Z" changeset="124712179" uid="3497659" user="NKA">
		<tag k="name" v="Hovsstranda" />
		<tag k="place" v="hamlet" />
		<tag k="ssr:stedsnr" v="33775" />
	</node>
	<node id="9944123833" lat="62.2847556" lon="7.3824056" version="1" timestamp="2022-08-10T05:45:57Z" changeset="124712179" uid="3497659" user="NKA">
		<tag k="historic" v="shieling" />
		<tag k="name" v="Heggurdalen" />
		<tag k="place" v="isolated_dwelling" />
		<tag k="ssr:stedsnr" v="315860" />
	</node>
	<node id="9944123834" lat="62.1885394" lon="7.5776086" version="1" timestamp="2022-08-10T05:45:57Z" changeset="124712179" uid="3497659" user="NKA">
		<tag k="name" v="Reindalsætra" />
		<tag k="place" v="hamlet" />
		<tag k="ssr:stedsnr" v="436054" />
	</node>
	<node id="9944123835" lat="62.3816352" lon="6.9894996" version="1" timestamp="2022-08-10T05:45:57Z" changeset="124712179" uid="3497659" user="NKA">
		<tag k="name" v="Nilsgarden" />
		<tag k="place" v="farm" />
		<tag k="ssr:stedsnr" v="975594" />
	</node>
	<node id="9944123836" lat="62.3291888" lon="7.4702936" version="1" timestamp="2022-08-10T05:45:57Z" changeset="124712179" uid="3497659" user="NKA">
		<tag k="name" v="Alstadsæter" />
		<tag k="place" v="hamlet" />
		<tag k="ssr:stedsnr" v="678752" />
	</node>
	<node id="9944123837" lat="62.3440861" lon="7.4175917" version="1" timestamp="2022-08-10T05:45:57Z" changeset="124712179" uid="3497659" user="NKA">
		<tag k="name" v="Furnes" />
		<tag k="place" v="farm" />
		<tag k="ssr:stedsnr" v="678744" />
	</node>
	<node id="9944123838" lat="62.3802667" lon="7.0206834" version="1" timestamp="2022-08-10T05:45:57Z" changeset="124712179" uid="3497659" user="NKA">
		<tag k="name" v="Flatmark" />
		<tag k="place" v="farm" />
		<tag k="ssr:stedsnr" v="883674" />
	</node>
	<node id="9944123839" lat="62.2933675" lon="7.2881897" version="1" timestamp="2022-08-10T05:45:57Z" changeset="124712179" uid="3497659" user="NKA">
		<tag k="name" v="Vika" />
		<tag k="place" v="hamlet" />
		<tag k="ssr:stedsnr" v="132849" />
	</node>
	<node id="9944123840" lat="62.3203472" lon="7.2497946" version="1" timestamp="2022-08-10T05:45:57Z" changeset="124712179" uid="3497659" user="NKA">
		<tag k="historic" v="shieling" />
		<tag k="name" v="Jamtesætra" />
		<tag k="place" v="isolated_dwelling" />
		<tag k="ssr:stedsnr" v="800740" />
	</node>
	<node id="9944123841" lat="62.3580667" lon="7.348801" version="1" timestamp="2022-08-10T05:45:57Z" changeset="124712179" uid="3497659" user="NKA">
		<tag k="historic" v="shieling" />
		<tag k="name" v="Valldalssætra" />
		<tag k="place" v="hamlet" />
		<tag k="ssr:stedsnr" v="800775" />
	</node>
	<node id="9944123842" lat="62.3677806" lon="7.1498528" version="1" timestamp="2022-08-10T05:45:57Z" changeset="124712179" uid="3497659" user="NKA">
		<tag k="historic" v="shieling" />
		<tag k="name" v="Telbergsætra" />
		<tag k="place" v="isolated_dwelling" />
		<tag k="ssr:stedsnr" v="800552" />
	</node>
	<node id="9944123843" lat="62.3673306" lon="6.9446335" version="1" timestamp="2022-08-10T05:45:57Z" changeset="124712179" uid="3497659" user="NKA">
		<tag k="name" v="Jakobsplassen" />
		<tag k="place" v="locality" />
		<tag k="ssr:stedsnr" v="762732" />
	</node>
	<node id="9944123844" lat="62.3725265" lon="7.1143805" version="1" timestamp="2022-08-10T05:45:57Z" changeset="124712179" uid="3497659" user="NKA">
		<tag k="historic" v="shieling" />
		<tag k="name" v="Stølen" />
		<tag k="place" v="locality" />
		<tag k="ssr:stedsnr" v="641090" />
	</node>
	<node id="9944123845" lat="62.3988916" lon="6.8860001" version="1" timestamp="2022-08-10T05:45:57Z" changeset="124712179" uid="3497659" user="NKA">
		<tag k="historic" v="shieling" />
		<tag k="name" v="Vidhammarsætra" />
		<tag k="place" v="isolated_dwelling" />
		<tag k="ssr:stedsnr" v="617767" />
	</node>
	<node id="9944123846" lat="62.2465407" lon="7.1605895" version="1" timestamp="2022-08-10T05:45:57Z" changeset="124712179" uid="3497659" user="NKA">
		<tag k="name" v="Storhjelle" />
		<tag k="place" v="farm" />
		<tag k="ssr:stedsnr" v="763479" />
	</node>
	<node id="9944123847" lat="62.3608544" lon="7.0856473" version="1" timestamp="2022-08-10T05:45:57Z" changeset="124712179" uid="3497659" user="NKA">
		<tag k="name" v="Løset" />
		<tag k="place" v="hamlet" />
		<tag k="ssr:stedsnr" v="921580" />
	</node>
	<node id="9944123848" lat="62.3848914" lon="7.5780937" version="1" timestamp="2022-08-10T05:45:57Z" changeset="124712179" uid="3497659" user="NKA">
		<tag k="name" v="Øvstestølen" />
		<tag k="place" v="hamlet" />
		<tag k="ssr:stedsnr" v="496791" />
	</node>
	<node id="9944123849" lat="62.3774584" lon="7.1398473" version="1" timestamp="2022-08-10T05:45:57Z" changeset="124712179" uid="3497659" user="NKA">
		<tag k="name" v="Leithola" />
		<tag k="place" v="locality" />
		<tag k="ssr:stedsnr" v="763122" />
	</node>
	<node id="9944123850" lat="62.3837533" lon="6.9921951" version="1" timestamp="2022-08-10T05:45:57Z" changeset="124712179" uid="3497659" user="NKA">
		<tag k="name" v="Hove" />
		<tag k="place" v="farm" />
		<tag k="ssr:stedsnr" v="983643" />
	</node>
	<node id="9944123851" lat="62.3217555" lon="7.4804112" version="1" timestamp="2022-08-10T05:45:57Z" changeset="124712179" uid="3497659" user="NKA">
		<tag k="historic" v="shieling" />
		<tag k="name" v="Alstadsætra" />
		<tag k="place" v="isolated_dwelling" />
		<tag k="ssr:stedsnr" v="72745" />
	</node>
	<node id="9944123852" lat="62.2829778" lon="7.3122665" version="1" timestamp="2022-08-10T05:45:57Z" changeset="124712179" uid="3497659" user="NKA">
		<tag k="name" v="Osvika" />
		<tag k="place" v="farm" />
		<tag k="ssr:stedsnr" v="800844" />
	</node>
	<node id="9944123853" lat="62.3032992" lon="7.243667" version="1" timestamp="2022-08-10T05:45:57Z" changeset="124712179" uid="3497659" user="NKA">
		<tag k="name" v="Åse" />
		<tag k="place" v="farm" />
		<tag k="ssr:stedsnr" v="921852" />
	</node>
	<node id="9944123854" lat="62.3869829" lon="7.1887242" version="1" timestamp="2022-08-10T05:45:57Z" changeset="124712179" uid="3497659" user="NKA">
		<tag k="name" v="Almås" />
		<tag k="place" v="hamlet" />
		<tag k="ssr:stedsnr" v="739718" />
	</node>
	<node id="9944123855" lat="62.3010397" lon="7.3078063" version="1" timestamp="2022-08-10T05:45:57Z" changeset="124712179" uid="3497659" user="NKA">
		<tag k="alt_name" v="Sjølbøskor" />
		<tag k="name" v="Sjølbørskor" />
		<tag k="old_name" v="Selboskar" />
		<tag k="place" v="hamlet" />
		<tag k="ssr:stedsnr" v="679836" />
	</node>
	<node id="9944123856" lat="62.3685996" lon="7.0841454" version="1" timestamp="2022-08-10T05:45:57Z" changeset="124712179" uid="3497659" user="NKA">
		<tag k="name" v="Holen" />
		<tag k="place" v="farm" />
		<tag k="ssr:stedsnr" v="459514" />
	</node>
	<node id="9944123857" lat="62.3807828" lon="7.1172283" version="1" timestamp="2022-08-10T05:45:57Z" changeset="124712179" uid="3497659" user="NKA">
		<tag k="name" v="Jasvollsætra" />
		<tag k="place" v="farm" />
		<tag k="ssr:stedsnr" v="556722" />
	</node>
	<node id="9944123858" lat="62.3712111" lon="7.0788973" version="1" timestamp="2022-08-10T05:45:57Z" changeset="124712179" uid="3497659" user="NKA">
		<tag k="name" v="Nedstegarden" />
		<tag k="place" v="farm" />
		<tag k="ssr:stedsnr" v="399089" />
	</node>
	<node id="9944123859" lat="62.2273555" lon="7.0419335" version="1" timestamp="2022-08-10T05:45:57Z" changeset="124712179" uid="3497659" user="NKA">
		<tag k="name" v="Smogelinaustet" />
		<tag k="place" v="locality" />
		<tag k="ssr:stedsnr" v="834101" />
	</node>
	<node id="9944123860" lat="62.3822044" lon="7.05028" version="1" timestamp="2022-08-10T05:45:57Z" changeset="124712179" uid="3497659" user="NKA">
		<tag k="name" v="Holt" />
		<tag k="place" v="hamlet" />
		<tag k="ssr:stedsnr" v="556724" />
	</node>
	<node id="9944123861" lat="62.3405472" lon="7.1406639" version="1" timestamp="2022-08-10T05:45:57Z" changeset="124712179" uid="3497659" user="NKA">
		<tag k="historic" v="shieling" />
		<tag k="name" v="Gamlestølen" />
		<tag k="place" v="isolated_dwelling" />
		<tag k="ssr:stedsnr" v="580457" />
	</node>
	<node id="9944123862" lat="62.2946877" lon="7.3258506" version="1" timestamp="2022-08-10T05:45:57Z" changeset="124712179" uid="3497659" user="NKA">
		<tag k="name" v="Nerhus" />
		<tag k="place" v="farm" />
		<tag k="ssr:stedsnr" v="618832" />
	</node>
	<node id="9944123863" lat="62.3713032" lon="7.1016484" version="1" timestamp="2022-08-10T05:45:57Z" changeset="124712179" uid="3497659" user="NKA">
		<tag k="name" v="Ytstegarden" />
		<tag k="place" v="farm" />
		<tag k="ssr:stedsnr" v="460111" />
	</node>
	<node id="9944123864" lat="62.240114" lon="7.2488298" version="1" timestamp="2022-08-10T05:45:57Z" changeset="124712179" uid="3497659" user="NKA">
		<tag k="name" v="Kapteinhjelle" />
		<tag k="place" v="farm" />
		<tag k="ssr:stedsnr" v="738470" />
	</node>
	<node id="9944123865" lat="62.3827653" lon="7.005249" version="1" timestamp="2022-08-10T05:45:57Z" changeset="124712179" uid="3497659" user="NKA">
		<tag k="name" v="Busengdal" />
		<tag k="place" v="farm" />
		<tag k="ssr:stedsnr" v="537688" />
	</node>
	<node id="9944123866" lat="62.3497778" lon="7.3481723" version="1" timestamp="2022-08-10T05:45:57Z" changeset="124712179" uid="3497659" user="NKA">
		<tag k="historic" v="shieling" />
		<tag k="name" v="Heimsætra" />
		<tag k="place" v="isolated_dwelling" />
		<tag k="ssr:stedsnr" v="860828" />
	</node>
	<node id="9944123867" lat="62.2519611" lon="7.1660473" version="1" timestamp="2022-08-10T05:45:57Z" changeset="124712179" uid="3497659" user="NKA">
		<tag k="name" v="Nyhjelle" />
		<tag k="place" v="farm" />
		<tag k="ssr:stedsnr" v="678915" />
	</node>
	<node id="9944123868" lat="62.2877167" lon="7.2186057" version="1" timestamp="2022-08-10T05:45:57Z" changeset="124712179" uid="3497659" user="NKA">
		<tag k="name" v="Bakken" />
		<tag k="place" v="farm" />
		<tag k="ssr:stedsnr" v="618841" />
	</node>
	<node id="9944123869" lat="62.2492673" lon="7.2364444" version="1" timestamp="2022-08-10T05:45:57Z" changeset="124712179" uid="3497659" user="NKA">
		<tag k="name" v="Rellingen" />
		<tag k="place" v="hamlet" />
		<tag k="ssr:stedsnr" v="497840" />
	</node>
	<node id="9944123870" lat="62.2402333" lon="7.2666028" version="1" timestamp="2022-08-10T05:45:57Z" changeset="124712179" uid="3497659" user="NKA">
		<tag k="name" v="Berg" />
		<tag k="place" v="farm" />
		<tag k="ssr:stedsnr" v="860523" />
	</node>
	<node id="3948459056" lat="62.2011785" lon="7.4904495" version="2" timestamp="2017-05-26T18:55:49Z" changeset="49009678" uid="715936" user="Gazer75" />
	<node id="3948459067" lat="62.2012455" lon="7.4900164" version="2" timestamp="2017-05-26T18:55:49Z" changeset="49009678" uid="715936" user="Gazer75" />
	<node id="3948459073" lat="62.2012878" lon="7.4897264" version="2" timestamp="2017-05-26T18:55:49Z" changeset="49009678" uid="715936" user="Gazer75" />
	<node id="3948459078" lat="62.2014165" lon="7.4898668" version="2" timestamp="2017-05-26T18:55:49Z" changeset="49009678" uid="715936" user="Gazer75" />
	<node id="3948459084" lat="62.2014337" lon="7.4899426" version="2" timestamp="2017-05-26T18:55:49Z" changeset="49009678" uid="715936" user="Gazer75" />
	<node id="3948459087" lat="62.2014575" lon="7.4900378" version="2" timestamp="2017-05-26T18:55:49Z" changeset="49009678" uid="715936" user="Gazer75" />
	<node id="3948459091" lat="62.2014838" lon="7.490121" version="2" timestamp="2017-05-26T18:55:49Z" changeset="49009678" uid="715936" user="Gazer75" />
	<node id="3948459105" lat="62.2015138" lon="7.4901947" version="2" timestamp="2017-05-26T18:55:49Z" changeset="49009678" uid="715936" user="Gazer75" />
	<node id="3948459111" lat="62.2015776" lon="7.4903101" version="2" timestamp="2017-05-26T18:55:49Z" changeset="49009678" uid="715936" user="Gazer75" />
	<node id="3948459119" lat="62.2016526" lon="7.4904026" version="2" timestamp="2017-05-26T18:55:49Z" changeset="49009678" uid="715936" user="Gazer75" />
	<node id="3948459129" lat="62.2016964" lon="7.4904375" version="2" timestamp="2017-05-26T18:55:49Z" changeset="49009678" uid="715936" user="Gazer75" />
	<node id="3948459137" lat="62.2018284" lon="7.4904817" version="2" timestamp="2017-05-26T18:55:49Z" changeset="49009678" uid="715936" user="Gazer75" />
	<node id="3948459138" lat="62.2018812" lon="7.4904757" version="2" timestamp="2017-05-26T18:55:50Z" changeset="49009678" uid="715936" user="Gazer75" />
	<node id="3948459149" lat="62.201925" lon="7.4904542" version="2" timestamp="2017-05-26T18:55:50Z" changeset="49009678" uid="715936" user="Gazer75" />
	<node id="3948459161" lat="62.201971" lon="7.4904254" version="2" timestamp="2017-05-26T18:55:50Z" changeset="49009678" uid="715936" user="Gazer75" />
	<node id="3948459163" lat="62.202066" lon="7.4903235" version="2" timestamp="2017-05-26T18:55:50Z" changeset="49009678" uid="715936" user="Gazer75" />
	<node id="3948459165" lat="62.2021655" lon="7.4901243" version="2" timestamp="2017-05-26T18:55:50Z" changeset="49009678" uid="715936" user="Gazer75" />
	<node id="3948459168" lat="62.2021918" lon="7.4900533" version="2" timestamp="2017-05-26T18:55:50Z" changeset="49009678" uid="715936" user="Gazer75" />
	<node id="3948459174" lat="62.2023444" lon="7.4898829" version="2" timestamp="2017-05-26T18:55:50Z" changeset="49009678" uid="715936" user="Gazer75" />
	<node id="3948459175" lat="62.2023587" lon="7.4899453" version="2" timestamp="2017-05-26T18:55:50Z" changeset="49009678" uid="715936" user="Gazer75" />
	<node id="3948459176" lat="62.2023763" lon="7.490007" version="2" timestamp="2017-05-26T18:55:50Z" changeset="49009678" uid="715936" user="Gazer75" />
	<node id="3948459178" lat="62.2024304" lon="7.4901984" version="1" timestamp="2016-01-15T18:05:03Z" changeset="36599290" uid="3296383" user="Reitstoen_import" />
	<node id="3948459181" lat="62.2024974" lon="7.4905795" version="1" timestamp="2016-01-15T18:05:03Z" changeset="36599290" uid="3296383" user="Reitstoen_import" />
	<node id="4879047694" lat="62.2021355" lon="7.4902001" version="1" timestamp="2017-05-26T18:55:01Z" changeset="49009678" uid="715936" user="Gazer75" />
	<node id="4879047695" lat="62.2015432" lon="7.4902517" version="1" timestamp="2017-05-26T18:55:01Z" changeset="49009678" uid="715936" user="Gazer75" />
	<node id="4879047785" lat="62.2020154" lon="7.4903879" version="1" timestamp="2017-05-26T18:55:03Z" changeset="49009678" uid="715936" user="Gazer75" />
	<node id="4879047786" lat="62.2017414" lon="7.4904636" version="1" timestamp="2017-05-26T18:55:03Z" changeset="49009678" uid="715936" user="Gazer75" />
	<node id="4879047787" lat="62.2022168" lon="7.4899728" version="1" timestamp="2017-05-26T18:55:03Z" changeset="49009678" uid="715936" user="Gazer75" />
	<node id="4879047788" lat="62.202102" lon="7.4902651" version="1" timestamp="2017-05-26T18:55:03Z" changeset="49009678" uid="715936" user="Gazer75" />
	<node id="4879047789" lat="62.2017833" lon="7.4904764" version="1" timestamp="2017-05-26T18:55:03Z" changeset="49009678" uid="715936" user="Gazer75" />
	<node id="4879047790" lat="62.2016145" lon="7.4903584" version="1" timestamp="2017-05-26T18:55:03Z" changeset="49009678" uid="715936" user="Gazer75" />
	<node id="3948458810" lat="62.19805" lon="7.4960678" version="1" timestamp="2016-01-15T18:04:57Z" changeset="36599290" uid="3296383" user="Reitstoen_import" />
	<node id="3948458811" lat="62.198053" lon="7.4963368" version="1" timestamp="2016-01-15T18:04:57Z" changeset="36599290" uid="3296383" user="Reitstoen_import" />
	<node id="3948458812" lat="62.198058" lon="7.4959714" version="1" timestamp="2016-01-15T18:04:57Z" changeset="36599290" uid="3296383" user="Reitstoen_import" />
	<node id="3948458814" lat="62.1980755" lon="7.4959321" version="1" timestamp="2016-01-15T18:04:57Z" changeset="36599290" uid="3296383" user="Reitstoen_import" />
	<node id="3948458815" lat="62.1980844" lon="7.4959318" version="1" timestamp="2016-01-15T18:04:57Z" changeset="36599290" uid="3296383" user="Reitstoen_import" />
	<node id="3948458817" lat="62.1981633" lon="7.496581" version="1" timestamp="2016-01-15T18:04:57Z" changeset="36599290" uid="3296383" user="Reitstoen_import" />
	<node id="3948458818" lat="62.1981829" lon="7.4959076" version="1" timestamp="2016-01-15T18:04:57Z" changeset="36599290" uid="3296383" user="Reitstoen_import" />
	<node id="3948458821" lat="62.1983085" lon="7.4959013" version="1" timestamp="2016-01-15T18:04:57Z" changeset="36599290" uid="3296383" user="Reitstoen_import" />
	<node id="3948458824" lat="62.1984038" lon="7.4971033" version="2" timestamp="2016-12-16T06:16:01Z" changeset="44438833" uid="3697785" user="klaus555" />
	<node id="3948458827" lat="62.198452" lon="7.495875" version="1" timestamp="2016-01-15T18:04:57Z" changeset="36599290" uid="3296383" user="Reitstoen_import" />
	<node id="3948458830" lat="62.1985141" lon="7.4958141" version="1" timestamp="2016-01-15T18:04:57Z" changeset="36599290" uid="3296383" user="Reitstoen_import" />
	<node id="3948458832" lat="62.1985672" lon="7.4957347" version="1" timestamp="2016-01-15T18:04:57Z" changeset="36599290" uid="3296383" user="Reitstoen_import" />
	<node id="3948458838" lat="62.1986195" lon="7.4955974" version="1" timestamp="2016-01-15T18:04:57Z" changeset="36599290" uid="3296383" user="Reitstoen_import" />
	<node id="3948458840" lat="62.1986429" lon="7.4952695" version="1" timestamp="2016-01-15T18:04:57Z" changeset="36599290" uid="3296383" user="Reitstoen_import" />
	<node id="3948458843" lat="62.1986944" lon="7.4950556" version="1" timestamp="2016-01-15T18:04:57Z" changeset="36599290" uid="3296383" user="Reitstoen_import" />
	<node id="3948458847" lat="62.198747" lon="7.4949376" version="1" timestamp="2016-01-15T18:04:57Z" changeset="36599290" uid="3296383" user="Reitstoen_import" />
	<node id="3948458848" lat="62.198754" lon="7.4947451" version="1" timestamp="2016-01-15T18:04:57Z" changeset="36599290" uid="3296383" user="Reitstoen_import" />
	<node id="3948458849" lat="62.1987777" lon="7.4944557" version="1" timestamp="2016-01-15T18:04:57Z" changeset="36599290" uid="3296383" user="Reitstoen_import" />
	<node id="3948458851" lat="62.1988213" lon="7.4943382" version="1" timestamp="2016-01-15T18:04:57Z" changeset="36599290" uid="3296383" user="Reitstoen_import" />
	<node id="3948458856" lat="62.1988916" lon="7.4941999" version="1" timestamp="2016-01-15T18:04:58Z" changeset="36599290" uid="3296383" user="Reitstoen_import" />
	<node id="3948458869" lat="62.1990225" lon="7.4938475" version="1" timestamp="2016-01-15T18:04:58Z" changeset="36599290" uid="3296383" user="Reitstoen_import" />
	<node id="3948458875" lat="62.1991005" lon="7.4935938" version="1" timestamp="2016-01-15T18:04:58Z" changeset="36599290" uid="3296383" user="Reitstoen_import" />
	<node id="3948458878" lat="62.1991796" lon="7.4934359" version="1" timestamp="2016-01-15T18:04:58Z" changeset="36599290" uid="3296383" user="Reitstoen_import" />
	<node id="3948458882" lat="62.1993109" lon="7.493122" version="1" timestamp="2016-01-15T18:04:58Z" changeset="36599290" uid="3296383" user="Reitstoen_import" />
	<node id="3948458886" lat="62.199371" lon="7.4928689" version="1" timestamp="2016-01-15T18:04:58Z" changeset="36599290" uid="3296383" user="Reitstoen_import" />
	<node id="3948458894" lat="62.1995415" lon="7.4928605" version="1" timestamp="2016-01-15T18:04:58Z" changeset="36599290" uid="3296383" user="Reitstoen_import" />
	<node id="3948458913" lat="62.1997572" lon="7.4928884" version="1" timestamp="2016-01-15T18:04:59Z" changeset="36599290" uid="3296383" user="Reitstoen_import" />
	<node id="3948458931" lat="62.2" lon="7.4929386" version="1" timestamp="2016-01-15T18:04:59Z" changeset="36599290" uid="3296383" user="Reitstoen_import" />
	<node id="3948458944" lat="62.2002703" lon="7.4929973" version="1" timestamp="2016-01-15T18:04:59Z" changeset="36599290" uid="3296383" user="Reitstoen_import" />
	<node id="3948458967" lat="62.2005936" lon="7.4930195" version="1" timestamp="2016-01-15T18:04:59Z" changeset="36599290" uid="3296383" user="Reitstoen_import" />
	<node id="3948458984" lat="62.2007462" lon="7.493012" version="1" timestamp="2016-01-15T18:05:00Z" changeset="36599290" uid="3296383" user="Reitstoen_import" />
	<node id="3948458990" lat="62.2007994" lon="7.4929518" version="1" timestamp="2016-01-15T18:05:00Z" changeset="36599290" uid="3296383" user="Reitstoen_import" />
	<node id="3948458993" lat="62.2008256" lon="7.4928734" version="1" timestamp="2016-01-15T18:05:00Z" changeset="36599290" uid="3296383" user="Reitstoen_import" />
	<node id="3948459004" lat="62.2009105" lon="7.4924271" version="1" timestamp="2016-01-15T18:05:00Z" changeset="36599290" uid="3296383" user="Reitstoen_import" />
	<node id="3948459019" lat="62.2009952" lon="7.4919616" version="1" timestamp="2016-01-15T18:05:00Z" changeset="36599290" uid="3296383" user="Reitstoen_import" />
	<node id="3948459035" lat="62.2010962" lon="7.4913415" version="1" timestamp="2016-01-15T18:05:00Z" changeset="36599290" uid="3296383" user="Reitstoen_import" />
	<node id="3948459048" lat="62.2011449" lon="7.4908776" version="1" timestamp="2016-01-15T18:05:01Z" changeset="36599290" uid="3296383" user="Reitstoen_import" />
	<node id="3948459182" lat="62.2025208" lon="7.4910782" version="1" timestamp="2016-01-15T18:05:03Z" changeset="36599290" uid="3296383" user="Reitstoen_import" />
	<node id="3948459184" lat="62.2025784" lon="7.4914213" version="1" timestamp="2016-01-15T18:05:03Z" changeset="36599290" uid="3296383" user="Reitstoen_import" />
	<node id="3948459185" lat="62.2026473" lon="7.4919754" version="1" timestamp="2016-01-15T18:05:03Z" changeset="36599290" uid="3296383" user="Reitstoen_import" />
	<node id="3948459186" lat="62.2026846" lon="7.4921081" version="1" timestamp="2016-01-15T18:05:03Z" changeset="36599290" uid="3296383" user="Reitstoen_import" />
	<node id="3948459189" lat="62.2028142" lon="7.4924668" version="1" timestamp="2016-01-15T18:05:03Z" changeset="36599290" uid="3296383" user="Reitstoen_import" />
	<node id="3948459195" lat="62.2029338" lon="7.49273" version="1" timestamp="2016-01-15T18:05:03Z" changeset="36599290" uid="3296383" user="Reitstoen_import" />
	<node id="3948459196" lat="62.2029428" lon="7.4943827" version="1" timestamp="2016-01-15T18:05:03Z" changeset="36599290" uid="3296383" user="Reitstoen_import" />
	<node id="3948459197" lat="62.202944" lon="7.4944982" version="1" timestamp="2016-01-15T18:05:03Z" changeset="36599290" uid="3296383" user="Reitstoen_import" />
	<node id="3948459200" lat="62.2029903" lon="7.492977" version="1" timestamp="2016-01-15T18:05:03Z" changeset="36599290" uid="3296383" user="Reitstoen_import" />
	<node id="3948459202" lat="62.2030131" lon="7.4942447" version="1" timestamp="2016-01-15T18:05:03Z" changeset="36599290" uid="3296383" user="Reitstoen_import" />
	<node id="3948459203" lat="62.2030383" lon="7.493263" version="1" timestamp="2016-01-15T18:05:03Z" changeset="36599290" uid="3296383" user="Reitstoen_import" />
	<node id="3948459204" lat="62.2030478" lon="7.4941277" version="1" timestamp="2016-01-15T18:05:03Z" changeset="36599290" uid="3296383" user="Reitstoen_import" />
	<node id="3948459205" lat="62.2030536" lon="7.4938581" version="1" timestamp="2016-01-15T18:05:03Z" changeset="36599290" uid="3296383" user="Reitstoen_import" />
	<node id="3948459206" lat="62.2030684" lon="7.4952032" version="1" timestamp="2016-01-15T18:05:03Z" changeset="36599290" uid="3296383" user="Reitstoen_import" />
	<node id="3948459208" lat="62.2031253" lon="7.4954887" version="1" timestamp="2016-01-15T18:05:03Z" changeset="36599290" uid="3296383" user="Reitstoen_import" />
	<node id="3948459209" lat="62.2031532" lon="7.4955834" version="1" timestamp="2016-01-15T18:05:03Z" changeset="36599290" uid="3296383" user="Reitstoen_import" />
	<node id="3948459214" lat="62.2032756" lon="7.4960963" version="1" timestamp="2016-01-15T18:05:03Z" changeset="36599290" uid="3296383" user="Reitstoen_import" />
	<node id="3948459221" lat="62.2034262" lon="7.4967425" version="1" timestamp="2016-01-15T18:05:04Z" changeset="36599290" uid="3296383" user="Reitstoen_import" />
	<node id="3948459223" lat="62.203483" lon="7.4970088" version="1" timestamp="2016-01-15T18:05:04Z" changeset="36599290" uid="3296383" user="Reitstoen_import" />
	<node id="4556561388" lat="62.1983203" lon="7.4969209" version="1" timestamp="2016-12-16T06:16:00Z" changeset="44438833" uid="3697785" user="klaus555" />
	<node id="4556561389" lat="62.1982517" lon="7.49678" version="1" timestamp="2016-12-16T06:16:00Z" changeset="44438833" uid="3697785" user="klaus555" />
	<node id="3948458825" lat="62.1985113" lon="7.4973318" version="2" timestamp="2016-12-16T06:16:01Z" changeset="44438833" uid="3697785" user="klaus555" />
	<node id="3948458829" lat="62.1986073" lon="7.4976019" version="2" timestamp="2016-12-16T06:16:01Z" changeset="44438833" uid="3697785" user="klaus555" />
	<node id="3948458833" lat="62.1986346" lon="7.4978866" version="3" timestamp="2017-02-10T09:54:00Z" changeset="45968902" uid="3697785" user="klaus555" />
	<node id="3948458834" lat="62.1986311" lon="7.4983791" version="2" timestamp="2016-12-16T06:16:01Z" changeset="44438833" uid="3697785" user="klaus555" />
	<node id="3948458839" lat="62.1986108" lon="7.4990875" version="2" timestamp="2017-02-10T09:54:00Z" changeset="45968902" uid="3697785" user="klaus555" />
	<node id="3948458841" lat="62.1987204" lon="7.5000894" version="2" timestamp="2016-12-16T06:16:01Z" changeset="44438833" uid="3697785" user="klaus555" />
	<node id="3948458844" lat="62.1987783" lon="7.5007602" version="2" timestamp="2016-12-16T06:16:01Z" changeset="44438833" uid="3697785" user="klaus555" />
	<node id="3948458852" lat="62.1988255" lon="7.5013536" version="1" timestamp="2016-01-15T18:04:57Z" changeset="36599290" uid="3296383" user="Reitstoen_import" />
	<node id="3948458857" lat="62.1988826" lon="7.5019609" version="2" timestamp="2016-12-16T06:16:01Z" changeset="44438833" uid="3697785" user="klaus555" />
	<node id="3948458860" lat="62.1989258" lon="7.502329" version="1" timestamp="2016-01-15T18:04:58Z" changeset="36599290" uid="3296383" user="Reitstoen_import" />
	<node id="3948458862" lat="62.1989787" lon="7.5027015" version="2" timestamp="2016-12-16T06:16:01Z" changeset="44438833" uid="3697785" user="klaus555" />
	<node id="3948458866" lat="62.1990129" lon="7.5029013" version="1" timestamp="2016-01-15T18:04:58Z" changeset="36599290" uid="3296383" user="Reitstoen_import" />
	<node id="3948458873" lat="62.1990789" lon="7.5032054" version="1" timestamp="2016-01-15T18:04:58Z" changeset="36599290" uid="3296383" user="Reitstoen_import" />
	<node id="3948458874" lat="62.1990913" lon="7.5035125" version="1" timestamp="2016-01-15T18:04:58Z" changeset="36599290" uid="3296383" user="Reitstoen_import" />
	<node id="4678020643" lat="62.1986429" lon="7.4995567" version="1" timestamp="2017-02-10T09:53:59Z" changeset="45968902" uid="3697785" user="klaus555" />
	<node id="3948458853" lat="62.1988265" lon="7.506428" version="1" timestamp="2016-01-15T18:04:58Z" changeset="36599290" uid="3296383" user="Reitstoen_import" />
	<node id="3948458854" lat="62.1988371" lon="7.5065812" version="1" timestamp="2016-01-15T18:04:58Z" changeset="36599290" uid="3296383" user="Reitstoen_import" />
	<node id="3948458855" lat="62.1988498" lon="7.5061001" version="1" timestamp="2016-01-15T18:04:58Z" changeset="36599290" uid="3296383" user="Reitstoen_import" />
	<node id="3948458858" lat="62.198896" lon="7.5070588" version="1" timestamp="2016-01-15T18:04:58Z" changeset="36599290" uid="3296383" user="Reitstoen_import" />
	<node id="3948458859" lat="62.1989236" lon="7.5054429" version="1" timestamp="2016-01-15T18:04:58Z" changeset="36599290" uid="3296383" user="Reitstoen_import" />
	<node id="3948458861" lat="62.1989586" lon="7.5078632" version="1" timestamp="2016-01-15T18:04:58Z" changeset="36599290" uid="3296383" user="Reitstoen_import" />
	<node id="3948458863" lat="62.1989754" lon="7.5085926" version="1" timestamp="2016-01-15T18:04:58Z" changeset="36599290" uid="3296383" user="Reitstoen_import" />
	<node id="3948458864" lat="62.1989964" lon="7.5047089" version="1" timestamp="2016-01-15T18:04:58Z" changeset="36599290" uid="3296383" user="Reitstoen_import" />
	<node id="3948458867" lat="62.1990181" lon="7.5092249" version="1" timestamp="2016-01-15T18:04:58Z" changeset="36599290" uid="3296383" user="Reitstoen_import" />
	<node id="3948458868" lat="62.1990184" lon="7.5092441" version="1" timestamp="2016-01-15T18:04:58Z" changeset="36599290" uid="3296383" user="Reitstoen_import" />
	<node id="3948458871" lat="62.1990563" lon="7.5094344" version="1" timestamp="2016-01-15T18:04:58Z" changeset="36599290" uid="3296383" user="Reitstoen_import" />
	<node id="3948458872" lat="62.1990697" lon="7.5040134" version="1" timestamp="2016-01-15T18:04:58Z" changeset="36599290" uid="3296383" user="Reitstoen_import" />
	<node id="3948458879" lat="62.1991846" lon="7.509678" version="1" timestamp="2016-01-15T18:04:58Z" changeset="36599290" uid="3296383" user="Reitstoen_import" />
	<node id="3948458883" lat="62.1993119" lon="7.5098255" version="1" timestamp="2016-01-15T18:04:58Z" changeset="36599290" uid="3296383" user="Reitstoen_import" />
	<node id="3948458885" lat="62.1993575" lon="7.5099001" version="1" timestamp="2016-01-15T18:04:58Z" changeset="36599290" uid="3296383" user="Reitstoen_import" />
	<node id="3948458888" lat="62.1993849" lon="7.5099373" version="1" timestamp="2016-01-15T18:04:58Z" changeset="36599290" uid="3296383" user="Reitstoen_import" />
	<node id="3948458890" lat="62.1994312" lon="7.5100694" version="1" timestamp="2016-01-15T18:04:58Z" changeset="36599290" uid="3296383" user="Reitstoen_import" />
	<node id="3948458891" lat="62.199479" lon="7.5103362" version="1" timestamp="2016-01-15T18:04:58Z" changeset="36599290" uid="3296383" user="Reitstoen_import" />
	<node id="3948459230" lat="62.2036365" lon="7.4979239" version="1" timestamp="2016-01-15T18:05:04Z" changeset="36599290" uid="3296383" user="Reitstoen_import" />
	<node id="3948459242" lat="62.203976" lon="7.4994259" version="1" timestamp="2016-01-15T18:05:04Z" changeset="36599290" uid="3296383" user="Reitstoen_import" />
	<node id="3948459245" lat="62.2040379" lon="7.5000001" version="1" timestamp="2016-01-15T18:05:04Z" changeset="36599290" uid="3296383" user="Reitstoen_import" />
	<node id="3948459254" lat="62.2045348" lon="7.504608" version="1" timestamp="2016-01-15T18:05:04Z" changeset="36599290" uid="3296383" user="Reitstoen_import" />
	<node id="3948459255" lat="62.2045738" lon="7.5048946" version="1" timestamp="2016-01-15T18:05:04Z" changeset="36599290" uid="3296383" user="Reitstoen_import" />
	<node id="3948459258" lat="62.2047268" lon="7.5057521" version="1" timestamp="2016-01-15T18:05:04Z" changeset="36599290" uid="3296383" user="Reitstoen_import" />
	<node id="3948459262" lat="62.2048396" lon="7.5062274" version="1" timestamp="2016-01-15T18:05:04Z" changeset="36599290" uid="3296383" user="Reitstoen_import" />
	<node id="3948459267" lat="62.2050274" lon="7.5070061" version="1" timestamp="2016-01-15T18:05:04Z" changeset="36599290" uid="3296383" user="Reitstoen_import" />
	<node id="3948459300" lat="62.2054207" lon="7.5085055" version="1" timestamp="2016-01-15T18:05:05Z" changeset="36599290" uid="3296383" user="Reitstoen_import" />
	<node id="475023411" lat="62.2008509" lon="7.5168813" version="2" timestamp="2016-01-15T18:13:15Z" changeset="36599290" uid="3296383" user="Reitstoen_import" />
	<node id="475023412" lat="62.200916" lon="7.5162436" version="2" timestamp="2016-01-15T18:13:15Z" changeset="36599290" uid="3296383" user="Reitstoen_import" />
	<node id="475023413" lat="62.2008926" lon="7.515745" version="2" timestamp="2016-01-15T18:13:15Z" changeset="36599290" uid="3296383" user="Reitstoen_import" />
	<node id="475023414" lat="62.2008783" lon="7.515246" version="2" timestamp="2016-01-15T18:13:15Z" changeset="36599290" uid="3296383" user="Reitstoen_import" />
	<node id="475023415" lat="62.2008588" lon="7.5150931" version="2" timestamp="2016-01-15T18:13:15Z" changeset="36599290" uid="3296383" user="Reitstoen_import" />
	<node id="475023416" lat="62.2007682" lon="7.5150206" version="2" timestamp="2016-01-15T18:13:15Z" changeset="36599290" uid="3296383" user="Reitstoen_import" />
	<node id="475023417" lat="62.2004747" lon="7.5144394" version="2" timestamp="2016-01-15T18:13:15Z" changeset="36599290" uid="3296383" user="Reitstoen_import" />
	<node id="475023418" lat="62.200039" lon="7.5123269" version="2" timestamp="2016-01-15T18:13:15Z" changeset="36599290" uid="3296383" user="Reitstoen_import" />
	<node id="475023435" lat="62.2000956" lon="7.5125741" version="2" timestamp="2016-01-15T18:13:15Z" changeset="36599290" uid="3296383" user="Reitstoen_import" />
	<node id="475023436" lat="62.2001233" lon="7.5126497" version="2" timestamp="2016-01-15T18:13:15Z" changeset="36599290" uid="3296383" user="Reitstoen_import" />
	<node id="475023437" lat="62.2001548" lon="7.5139168" version="2" timestamp="2016-01-15T18:13:15Z" changeset="36599290" uid="3296383" user="Reitstoen_import" />
	<node id="475023438" lat="62.2003361" lon="7.5140808" version="2" timestamp="2016-01-15T18:13:15Z" changeset="36599290" uid="3296383" user="Reitstoen_import" />
	<node id="475023439" lat="62.2006407" lon="7.514854" version="2" timestamp="2016-01-15T18:13:15Z" changeset="36599290" uid="3296383" user="Reitstoen_import" />
	<node id="475023440" lat="62.2001042" lon="7.5133809" version="2" timestamp="2016-01-15T18:13:15Z" changeset="36599290" uid="3296383" user="Reitstoen_import" />
	<node id="475023441" lat="62.2001181" lon="7.5138415" version="2" timestamp="2016-01-15T18:13:15Z" changeset="36599290" uid="3296383" user="Reitstoen_import" />
	<node id="3948458893" lat="62.199521" lon="7.5109109" version="1" timestamp="2016-01-15T18:04:58Z" changeset="36599290" uid="3296383" user="Reitstoen_import" />
	<node id="3948458898" lat="62.1995907" lon="7.5115417" version="1" timestamp="2016-01-15T18:04:58Z" changeset="36599290" uid="3296383" user="Reitstoen_import" />
	<node id="3948458904" lat="62.1996665" lon="7.5119225" version="1" timestamp="2016-01-15T18:04:58Z" changeset="36599290" uid="3296383" user="Reitstoen_import" />
	<node id="3948458906" lat="62.1997035" lon="7.5120166" version="1" timestamp="2016-01-15T18:04:58Z" changeset="36599290" uid="3296383" user="Reitstoen_import" />
	<node id="3948458920" lat="62.1998843" lon="7.5121423" version="1" timestamp="2016-01-15T18:04:59Z" changeset="36599290" uid="3296383" user="Reitstoen_import" />
	<node id="3948458925" lat="62.1999844" lon="7.5122528" version="1" timestamp="2016-01-15T18:04:59Z" changeset="36599290" uid="3296383" user="Reitstoen_import" />
	<node id="3948458932" lat="62.2" lon="7.512274" version="1" timestamp="2016-01-15T18:04:59Z" changeset="36599290" uid="3296383" user="Reitstoen_import" />
	<node id="475023405" lat="62.200461" lon="7.5232437" version="2" timestamp="2016-01-15T18:13:14Z" changeset="36599290" uid="3296383" user="Reitstoen_import" />
	<node id="475023406" lat="62.2004517" lon="7.5223791" version="2" timestamp="2016-01-15T18:13:14Z" changeset="36599290" uid="3296383" user="Reitstoen_import" />
	<node id="475023407" lat="62.2004199" lon="7.5210734" version="2" timestamp="2016-01-15T18:13:14Z" changeset="36599290" uid="3296383" user="Reitstoen_import" />
	<node id="475023408" lat="62.2004272" lon="7.5200737" version="2" timestamp="2016-01-15T18:13:14Z" changeset="36599290" uid="3296383" user="Reitstoen_import" />
	<node id="475023409" lat="62.2004888" lon="7.5191096" version="2" timestamp="2016-01-15T18:13:14Z" changeset="36599290" uid="3296383" user="Reitstoen_import" />
	<node id="475023410" lat="62.2007197" lon="7.518041" version="2" timestamp="2016-01-15T18:13:15Z" changeset="36599290" uid="3296383" user="Reitstoen_import" />
	<node id="3948459328" lat="62.2056944" lon="7.5156054" version="1" timestamp="2016-01-15T18:05:05Z" changeset="36599290" uid="3296383" user="Reitstoen_import" />
	<node id="3948459350" lat="62.205937" lon="7.5147861" version="1" timestamp="2016-01-15T18:05:06Z" changeset="36599290" uid="3296383" user="Reitstoen_import" />
	<node id="3948459351" lat="62.2059459" lon="7.5139398" version="1" timestamp="2016-01-15T18:05:06Z" changeset="36599290" uid="3296383" user="Reitstoen_import" />
	<node id="3948459353" lat="62.2059794" lon="7.5145532" version="1" timestamp="2016-01-15T18:05:06Z" changeset="36599290" uid="3296383" user="Reitstoen_import" />
	<node id="3948459357" lat="62.2060017" lon="7.5132832" version="1" timestamp="2016-01-15T18:05:06Z" changeset="36599290" uid="3296383" user="Reitstoen_import" />
	<node id="3948459358" lat="62.2060088" lon="7.5114374" version="1" timestamp="2016-01-15T18:05:06Z" changeset="36599290" uid="3296383" user="Reitstoen_import" />
	<node id="3948459360" lat="62.2060343" lon="7.512974" version="1" timestamp="2016-01-15T18:05:06Z" changeset="36599290" uid="3296383" user="Reitstoen_import" />
	<node id="3948459303" lat="62.205477" lon="7.5221529" version="1" timestamp="2016-01-15T18:05:05Z" changeset="36599290" uid="3296383" user="Reitstoen_import" />
	<node id="3948459304" lat="62.2055025" lon="7.522863" version="1" timestamp="2016-01-15T18:05:05Z" changeset="36599290" uid="3296383" user="Reitstoen_import" />
	<node id="3948459306" lat="62.2055227" lon="7.5213815" version="1" timestamp="2016-01-15T18:05:05Z" changeset="36599290" uid="3296383" user="Reitstoen_import" />
	<node id="3948459327" lat="62.2056929" lon="7.5171436" version="1" timestamp="2016-01-15T18:05:05Z" changeset="36599290" uid="3296383" user="Reitstoen_import" />
	<node id="3948459331" lat="62.2057029" lon="7.5206038" version="1" timestamp="2016-01-15T18:05:05Z" changeset="36599290" uid="3296383" user="Reitstoen_import" />
	<node id="3948459337" lat="62.2057761" lon="7.5198887" version="1" timestamp="2016-01-15T18:05:05Z" changeset="36599290" uid="3296383" user="Reitstoen_import" />
	<node id="475023401" lat="62.2001124" lon="7.5259133" version="2" timestamp="2016-01-15T18:13:14Z" changeset="36599290" uid="3296383" user="Reitstoen_import" />
	<node id="475023402" lat="62.2000324" lon="7.5268398" version="2" timestamp="2016-01-15T18:13:14Z" changeset="36599290" uid="3296383" user="Reitstoen_import" />
	<node id="475023403" lat="62.2003238" lon="7.524692" version="2" timestamp="2016-01-15T18:13:14Z" changeset="36599290" uid="3296383" user="Reitstoen_import" />
	<node id="475023404" lat="62.2004582" lon="7.5238204" version="2" timestamp="2016-01-15T18:13:14Z" changeset="36599290" uid="3296383" user="Reitstoen_import" />
	<node id="3948458914" lat="62.1997593" lon="7.529871" version="1" timestamp="2016-01-15T18:04:59Z" changeset="36599290" uid="3296383" user="Reitstoen_import" />
	<node id="3948458915" lat="62.1998225" lon="7.5290606" version="1" timestamp="2016-01-15T18:04:59Z" changeset="36599290" uid="3296383" user="Reitstoen_import" />
	<node id="3948458922" lat="62.1999102" lon="7.5280184" version="1" timestamp="2016-01-15T18:04:59Z" changeset="36599290" uid="3296383" user="Reitstoen_import" />
	<node id="3948458933" lat="62.2" lon="7.5271526" version="1" timestamp="2016-01-15T18:04:59Z" changeset="36599290" uid="3296383" user="Reitstoen_import" />
	<node id="3948458900" lat="62.1996035" lon="7.5304168" version="1" timestamp="2016-01-15T18:04:58Z" changeset="36599290" uid="3296383" user="Reitstoen_import" />
	<node id="3948458901" lat="62.1996035" lon="7.5312625" version="1" timestamp="2016-01-15T18:04:58Z" changeset="36599290" uid="3296383" user="Reitstoen_import" />
	<node id="3948458902" lat="62.1996465" lon="7.5302418" version="1" timestamp="2016-01-15T18:04:58Z" changeset="36599290" uid="3296383" user="Reitstoen_import" />
	<node id="3948458905" lat="62.1996843" lon="7.5321045" version="1" timestamp="2016-01-15T18:04:58Z" changeset="36599290" uid="3296383" user="Reitstoen_import" />
	<node id="3948458911" lat="62.1997411" lon="7.5323899" version="1" timestamp="2016-01-15T18:04:59Z" changeset="36599290" uid="3296383" user="Reitstoen_import" />
	<node id="3948458918" lat="62.1998786" lon="7.5326524" version="1" timestamp="2016-01-15T18:04:59Z" changeset="36599290" uid="3296383" user="Reitstoen_import" />
	<node id="3948458928" lat="62.1999999" lon="7.5329882" version="1" timestamp="2016-01-15T18:04:59Z" changeset="36599290" uid="3296383" user="Reitstoen_import" />
	<node id="3948458942" lat="62.2002668" lon="7.5337101" version="1" timestamp="2016-01-15T18:04:59Z" changeset="36599290" uid="3296383" user="Reitstoen_import" />
	<node id="3948458954" lat="62.2004318" lon="7.5340287" version="1" timestamp="2016-01-15T18:04:59Z" changeset="36599290" uid="3296383" user="Reitstoen_import" />
	<node id="3948458970" lat="62.200605" lon="7.5342704" version="1" timestamp="2016-01-15T18:04:59Z" changeset="36599290" uid="3296383" user="Reitstoen_import" />
	<node id="3948458986" lat="62.2007509" lon="7.5344939" version="1" timestamp="2016-01-15T18:05:00Z" changeset="36599290" uid="3296383" user="Reitstoen_import" />
	<node id="3948458997" lat="62.2008341" lon="7.5347204" version="1" timestamp="2016-01-15T18:05:00Z" changeset="36599290" uid="3296383" user="Reitstoen_import" />
	<node id="3948459009" lat="62.2009436" lon="7.5348879" version="1" timestamp="2016-01-15T18:05:00Z" changeset="36599290" uid="3296383" user="Reitstoen_import" />
	<node id="3948459022" lat="62.2010077" lon="7.5350004" version="1" timestamp="2016-01-15T18:05:00Z" changeset="36599290" uid="3296383" user="Reitstoen_import" />
	<node id="3948459029" lat="62.2010748" lon="7.5354009" version="1" timestamp="2016-01-15T18:05:00Z" changeset="36599290" uid="3296383" user="Reitstoen_import" />
	<node id="3948459032" lat="62.2010843" lon="7.5363039" version="1" timestamp="2016-01-15T18:05:00Z" changeset="36599290" uid="3296383" user="Reitstoen_import" />
	<node id="3948459038" lat="62.2011045" lon="7.5356686" version="1" timestamp="2016-01-15T18:05:01Z" changeset="36599290" uid="3296383" user="Reitstoen_import" />
	<node id="3948459047" lat="62.2011422" lon="7.5363949" version="1" timestamp="2016-01-15T18:05:01Z" changeset="36599290" uid="3296383" user="Reitstoen_import" />
	<node id="3948459057" lat="62.2012029" lon="7.5364904" version="1" timestamp="2016-01-15T18:05:01Z" changeset="36599290" uid="3296383" user="Reitstoen_import" />
	<node id="3948459074" lat="62.2013097" lon="7.536389" version="1" timestamp="2016-01-15T18:05:01Z" changeset="36599290" uid="3296383" user="Reitstoen_import" />
	<node id="3948459076" lat="62.2013271" lon="7.5363497" version="1" timestamp="2016-01-15T18:05:01Z" changeset="36599290" uid="3296383" user="Reitstoen_import" />
	<node id="3948459081" lat="62.2013443" lon="7.536272" version="1" timestamp="2016-01-15T18:05:01Z" changeset="36599290" uid="3296383" user="Reitstoen_import" />
	<node id="3948459085" lat="62.2013859" lon="7.5359624" version="1" timestamp="2016-01-15T18:05:02Z" changeset="36599290" uid="3296383" user="Reitstoen_import" />
	<node id="3948459095" lat="62.2014825" lon="7.5357463" version="1" timestamp="2016-01-15T18:05:02Z" changeset="36599290" uid="3296383" user="Reitstoen_import" />
	<node id="3948459109" lat="62.2015629" lon="7.5357232" version="1" timestamp="2016-01-15T18:05:02Z" changeset="36599290" uid="3296383" user="Reitstoen_import" />
	<node id="3948459121" lat="62.201698" lon="7.5357552" version="1" timestamp="2016-01-15T18:05:02Z" changeset="36599290" uid="3296383" user="Reitstoen_import" />
	<node id="3948459124" lat="62.201707" lon="7.5357547" version="1" timestamp="2016-01-15T18:05:02Z" changeset="36599290" uid="3296383" user="Reitstoen_import" />
	<node id="3948459167" lat="62.2021706" lon="7.535444" version="1" timestamp="2016-01-15T18:05:03Z" changeset="36599290" uid="3296383" user="Reitstoen_import" />
	<node id="3948459169" lat="62.2022064" lon="7.5354422" version="1" timestamp="2016-01-15T18:05:03Z" changeset="36599290" uid="3296383" user="Reitstoen_import" />
	<node id="3948459183" lat="62.20255" lon="7.5356754" version="1" timestamp="2016-01-15T18:05:03Z" changeset="36599290" uid="3296383" user="Reitstoen_import" />
	<node id="3948459190" lat="62.2028309" lon="7.5359117" version="1" timestamp="2016-01-15T18:05:03Z" changeset="36599290" uid="3296383" user="Reitstoen_import" />
	<node id="3948459219" lat="62.2033691" lon="7.5358664" version="1" timestamp="2016-01-15T18:05:04Z" changeset="36599290" uid="3296383" user="Reitstoen_import" />
	<node id="3948459301" lat="62.2054417" lon="7.5289604" version="1" timestamp="2016-01-15T18:05:05Z" changeset="36599290" uid="3296383" user="Reitstoen_import" />
	<node id="3948459321" lat="62.2056808" lon="7.5235847" version="1" timestamp="2016-01-15T18:05:05Z" changeset="36599290" uid="3296383" user="Reitstoen_import" />
	<node id="3948459333" lat="62.2057117" lon="7.5273323" version="1" timestamp="2016-01-15T18:05:05Z" changeset="36599290" uid="3296383" user="Reitstoen_import" />
	<node id="3948459349" lat="62.205925" lon="7.5262836" version="1" timestamp="2016-01-15T18:05:06Z" changeset="36599290" uid="3296383" user="Reitstoen_import" />
	<node id="3948459352" lat="62.2059737" lon="7.5241087" version="1" timestamp="2016-01-15T18:05:06Z" changeset="36599290" uid="3296383" user="Reitstoen_import" />
	<node id="3948459369" lat="62.206363" lon="7.5252627" version="1" timestamp="2016-01-15T18:05:06Z" changeset="36599290" uid="3296383" user="Reitstoen_import" />
	<node id="3948459372" lat="62.2063749" lon="7.5246852" version="1" timestamp="2016-01-15T18:05:06Z" changeset="36599290" uid="3296383" user="Reitstoen_import" />
	<node id="3948459373" lat="62.2063867" lon="7.5249539" version="1" timestamp="2016-01-15T18:05:06Z" changeset="36599290" uid="3296383" user="Reitstoen_import" />
	<node id="3948459374" lat="62.2063949" lon="7.5248765" version="1" timestamp="2016-01-15T18:05:06Z" changeset="36599290" uid="3296383" user="Reitstoen_import" />
	<node id="3948459237" lat="62.2038055" lon="7.5355377" version="1" timestamp="2016-01-15T18:05:04Z" changeset="36599290" uid="3296383" user="Reitstoen_import" />
	<node id="3948459248" lat="62.2042648" lon="7.5348234" version="1" timestamp="2016-01-15T18:05:04Z" changeset="36599290" uid="3296383" user="Reitstoen_import" />
	<node id="3948459256" lat="62.2046238" lon="7.5339602" version="1" timestamp="2016-01-15T18:05:04Z" changeset="36599290" uid="3296383" user="Reitstoen_import" />
	<node id="3948459263" lat="62.2049538" lon="7.532906" version="1" timestamp="2016-01-15T18:05:04Z" changeset="36599290" uid="3296383" user="Reitstoen_import" />
	<node id="3948459273" lat="62.2050989" lon="7.5321875" version="1" timestamp="2016-01-15T18:05:04Z" changeset="36599290" uid="3296383" user="Reitstoen_import" />
	<node id="3948459278" lat="62.2052088" lon="7.5307022" version="1" timestamp="2016-01-15T18:05:04Z" changeset="36599290" uid="3296383" user="Reitstoen_import" />
	<way id="391623609" version="2" timestamp="2017-05-26T18:56:00Z" changeset="49009678" uid="715936" user="Gazer75">
		<tag k="waterway" v="dam" />
		<nd ref="3948459149" />
		<nd ref="3948459161" />
		<nd ref="4879047785" />
		<nd ref="3948459163" />
		<nd ref="4879047788" />
		<nd ref="4879047694" />
		<nd ref="3948459165" />
		<nd ref="3948459168" />
		<nd ref="4879047787" />
	</way>
	<way id="496186017" version="1" timestamp="2017-05-26T18:55:29Z" changeset="49009678" uid="715936" user="Gazer75">
		<tag k="waterway" v="weir" />
		<nd ref="4879047787" />
		<nd ref="3948459174" />
	</way>
	<way id="496186026" version="1" timestamp="2017-05-26T18:55:30Z" changeset="49009678" uid="715936" user="Gazer75">
		<tag k="waterway" v="weir" />
		<nd ref="3948459137" />
		<nd ref="3948459138" />
		<nd ref="3948459149" />
	</way>
	<way id="496186029" version="1" timestamp="2017-05-26T18:55:30Z" changeset="49009678" uid="715936" user="Gazer75">
		<nd ref="3948459174" />
		<nd ref="3948459175" />
		<nd ref="3948459176" />
		<nd ref="3948459178" />
	</way>
	<way id="496186030" version="2" timestamp="2018-05-09T22:05:19Z" changeset="58833616" uid="1833452" user="pmt2">
		<tag k="name" v="Zakkariasdammen" />
		<tag k="waterway" v="dam" />
		<tag k="wikidata" v="Q12011149" />
		<tag k="wikipedia" v="no:Zakariasdammen" />
		<nd ref="3948459078" />
		<nd ref="3948459084" />
		<nd ref="3948459087" />
		<nd ref="3948459091" />
		<nd ref="3948459105" />
		<nd ref="4879047695" />
		<nd ref="3948459111" />
		<nd ref="4879047790" />
		<nd ref="3948459119" />
		<nd ref="3948459129" />
		<nd ref="4879047786" />
		<nd ref="4879047789" />
		<nd ref="3948459137" />
	</way>
	<way id="496186031" version="1" timestamp="2017-05-26T18:55:30Z" changeset="49009678" uid="715936" user="Gazer75">
		<tag k="waterway" v="weir" />
		<nd ref="3948459073" />
		<nd ref="3948459078" />
	</way>
	<way id="496186034" version="1" timestamp="2017-05-26T18:55:30Z" changeset="49009678" uid="715936" user="Gazer75">
		<tag k="source" v="Kartverket N50" />
		<tag k="source:date" v="1970-01-01" />
		<nd ref="3948458931" />
		<nd ref="3948458944" />
		<nd ref="3948458967" />
		<nd ref="3948458984" />
		<nd ref="3948458990" />
		<nd ref="3948458993" />
		<nd ref="3948459004" />
		<nd ref="3948459019" />
		<nd ref="3948459035" />
		<nd ref="3948459048" />
	</way>
	<way id="391623424" version="2" timestamp="2016-12-16T06:16:02Z" changeset="44438833" uid="3697785" user="klaus555">
		<tag k="source" v="Kartverket N50" />
		<tag k="source:date" v="1970-01-01" />
		<nd ref="3948458833" />
		<nd ref="3948458829" />
		<nd ref="3948458825" />
		<nd ref="3948458824" />
		<nd ref="4556561388" />
		<nd ref="4556561389" />
		<nd ref="3948458817" />
		<nd ref="3948458811" />
		<nd ref="3948458810" />
		<nd ref="3948458812" />
		<nd ref="3948458814" />
		<nd ref="3948458815" />
		<nd ref="3948458818" />
		<nd ref="3948458821" />
		<nd ref="3948458827" />
		<nd ref="3948458830" />
		<nd ref="3948458832" />
		<nd ref="3948458838" />
		<nd ref="3948458840" />
		<nd ref="3948458843" />
		<nd ref="3948458847" />
		<nd ref="3948458848" />
		<nd ref="3948458849" />
		<nd ref="3948458851" />
		<nd ref="3948458856" />
		<nd ref="3948458869" />
		<nd ref="3948458875" />
		<nd ref="3948458878" />
		<nd ref="3948458882" />
		<nd ref="3948458886" />
		<nd ref="3948458894" />
		<nd ref="3948458913" />
		<nd ref="3948458931" />
	</way>
	<way id="391623706" version="1" timestamp="2016-01-15T18:10:52Z" changeset="36599290" uid="3296383" user="Reitstoen_import">
		<tag k="source" v="Kartverket N50" />
		<tag k="source:date" v="1970-01-01" />
		<nd ref="3948459214" />
		<nd ref="3948459221" />
		<nd ref="3948459223" />
		<nd ref="3948459230" />
		<nd ref="3948459242" />
		<nd ref="3948459245" />
	</way>
	<way id="496186032" version="1" timestamp="2017-05-26T18:55:30Z" changeset="49009678" uid="715936" user="Gazer75">
		<nd ref="3948459048" />
		<nd ref="3948459056" />
		<nd ref="3948459067" />
		<nd ref="3948459073" />
	</way>
	<way id="496186033" version="1" timestamp="2017-05-26T18:55:30Z" changeset="49009678" uid="715936" user="Gazer75">
		<tag k="source" v="Kartverket N50" />
		<tag k="source:date" v="1970-01-01" />
		<nd ref="3948459178" />
		<nd ref="3948459181" />
		<nd ref="3948459182" />
		<nd ref="3948459184" />
		<nd ref="3948459185" />
		<nd ref="3948459186" />
		<nd ref="3948459189" />
		<nd ref="3948459195" />
		<nd ref="3948459200" />
		<nd ref="3948459203" />
		<nd ref="3948459205" />
		<nd ref="3948459204" />
		<nd ref="3948459202" />
		<nd ref="3948459196" />
		<nd ref="3948459197" />
		<nd ref="3948459206" />
		<nd ref="3948459208" />
		<nd ref="3948459209" />
		<nd ref="3948459214" />
	</way>
	<way id="391623047" version="2" timestamp="2017-02-10T09:54:01Z" changeset="45968902" uid="3697785" user="klaus555">
		<tag k="source" v="Kartverket N50" />
		<tag k="source:date" v="1970-01-01" />
		<nd ref="3948458866" />
		<nd ref="3948458862" />
		<nd ref="3948458860" />
		<nd ref="3948458857" />
		<nd ref="3948458852" />
		<nd ref="3948458844" />
		<nd ref="3948458841" />
		<nd ref="4678020643" />
		<nd ref="3948458839" />
		<nd ref="3948458834" />
		<nd ref="3948458833" />
	</way>
	<way id="391623545" version="1" timestamp="2016-01-15T18:10:36Z" changeset="36599290" uid="3296383" user="Reitstoen_import">
		<tag k="source" v="Kartverket N50" />
		<tag k="source:date" v="1970-01-01" />
		<nd ref="3948458885" />
		<nd ref="3948458883" />
		<nd ref="3948458879" />
		<nd ref="3948458871" />
		<nd ref="3948458868" />
	</way>
	<way id="391623109" version="1" timestamp="2016-01-15T18:09:44Z" changeset="36599290" uid="3296383" user="Reitstoen_import">
		<tag k="source" v="Kartverket N50" />
		<tag k="source:date" v="1970-01-01" />
		<nd ref="3948458932" />
		<nd ref="3948458925" />
		<nd ref="3948458920" />
		<nd ref="3948458906" />
		<nd ref="3948458904" />
		<nd ref="3948458898" />
		<nd ref="3948458893" />
		<nd ref="3948458891" />
		<nd ref="3948458890" />
		<nd ref="3948458888" />
		<nd ref="3948458885" />
	</way>
	<way id="391623192" version="1" timestamp="2016-01-15T18:09:54Z" changeset="36599290" uid="3296383" user="Reitstoen_import">
		<tag k="source" v="Kartverket N50" />
		<tag k="source:date" v="1970-01-01" />
		<nd ref="3948458868" />
		<nd ref="3948458867" />
		<nd ref="3948458863" />
		<nd ref="3948458861" />
		<nd ref="3948458858" />
		<nd ref="3948458854" />
		<nd ref="3948458853" />
		<nd ref="3948458855" />
		<nd ref="3948458859" />
		<nd ref="3948458864" />
		<nd ref="3948458872" />
		<nd ref="3948458874" />
		<nd ref="3948458873" />
		<nd ref="3948458866" />
	</way>
	<way id="391623313" version="1" timestamp="2016-01-15T18:10:10Z" changeset="36599290" uid="3296383" user="Reitstoen_import">
		<tag k="source" v="Kartverket N50" />
		<tag k="source:date" v="1970-01-01" />
		<nd ref="3948459245" />
		<nd ref="3948459254" />
	</way>
	<way id="391623768" version="1" timestamp="2016-01-15T18:10:58Z" changeset="36599290" uid="3296383" user="Reitstoen_import">
		<tag k="source" v="Kartverket N50" />
		<tag k="source:date" v="1970-01-01" />
		<nd ref="3948459262" />
		<nd ref="3948459267" />
		<nd ref="3948459300" />
		<nd ref="3948459358" />
		<nd ref="3948459360" />
		<nd ref="3948459357" />
	</way>
	<way id="391623441" version="1" timestamp="2016-01-15T18:10:25Z" changeset="36599290" uid="3296383" user="Reitstoen_import">
		<tag k="source" v="Kartverket N50" />
		<tag k="source:date" v="1970-01-01" />
		<nd ref="3948459254" />
		<nd ref="3948459255" />
		<nd ref="3948459258" />
		<nd ref="3948459262" />
	</way>
	<way id="39630597" version="3" timestamp="2016-01-15T18:12:56Z" changeset="36599290" uid="3296383" user="Reitstoen_import">
		<tag k="source" v="Kartverket N50" />
		<tag k="source:date" v="1970-01-01" />
		<nd ref="3948458933" />
		<nd ref="475023402" />
		<nd ref="475023401" />
		<nd ref="475023403" />
		<nd ref="475023404" />
		<nd ref="475023405" />
		<nd ref="475023406" />
		<nd ref="475023407" />
		<nd ref="475023408" />
		<nd ref="475023409" />
		<nd ref="475023410" />
		<nd ref="475023411" />
		<nd ref="475023412" />
		<nd ref="475023413" />
		<nd ref="475023414" />
		<nd ref="475023415" />
		<nd ref="475023416" />
		<nd ref="475023439" />
		<nd ref="475023417" />
		<nd ref="475023438" />
		<nd ref="475023437" />
		<nd ref="475023441" />
		<nd ref="475023440" />
		<nd ref="475023436" />
		<nd ref="475023435" />
		<nd ref="475023418" />
		<nd ref="3948458932" />
	</way>
	<way id="391623488" version="1" timestamp="2016-01-15T18:10:29Z" changeset="36599290" uid="3296383" user="Reitstoen_import">
		<tag k="source" v="Kartverket N50" />
		<tag k="source:date" v="1970-01-01" />
		<nd ref="3948459357" />
		<nd ref="3948459351" />
		<nd ref="3948459353" />
		<nd ref="3948459350" />
		<nd ref="3948459328" />
		<nd ref="3948459327" />
		<nd ref="3948459337" />
		<nd ref="3948459331" />
		<nd ref="3948459306" />
		<nd ref="3948459303" />
		<nd ref="3948459304" />
		<nd ref="3948459321" />
		<nd ref="3948459352" />
		<nd ref="3948459372" />
		<nd ref="3948459374" />
		<nd ref="3948459373" />
		<nd ref="3948459369" />
		<nd ref="3948459349" />
		<nd ref="3948459333" />
		<nd ref="3948459301" />
		<nd ref="3948459278" />
		<nd ref="3948459273" />
		<nd ref="3948459263" />
		<nd ref="3948459256" />
		<nd ref="3948459248" />
		<nd ref="3948459237" />
		<nd ref="3948459219" />
		<nd ref="3948459190" />
		<nd ref="3948459183" />
		<nd ref="3948459169" />
		<nd ref="3948459167" />
		<nd ref="3948459124" />
		<nd ref="3948459121" />
		<nd ref="3948459109" />
		<nd ref="3948459095" />
		<nd ref="3948459085" />
		<nd ref="3948459081" />
		<nd ref="3948459076" />
		<nd ref="3948459074" />
		<nd ref="3948459057" />
	</way>
	<way id="391623118" version="1" timestamp="2016-01-15T18:09:45Z" changeset="36599290" uid="3296383" user="Reitstoen_import">
		<tag k="source" v="Kartverket N50" />
		<tag k="source:date" v="1970-01-01" />
		<nd ref="3948459032" />
		<nd ref="3948459038" />
		<nd ref="3948459029" />
		<nd ref="3948459022" />
		<nd ref="3948459009" />
		<nd ref="3948458997" />
		<nd ref="3948458986" />
		<nd ref="3948458970" />
		<nd ref="3948458954" />
		<nd ref="3948458942" />
		<nd ref="3948458928" />
	</way>
	<way id="391623406" version="1" timestamp="2016-01-15T18:10:21Z" changeset="36599290" uid="3296383" user="Reitstoen_import">
		<nd ref="3948459057" />
		<nd ref="3948459047" />
		<nd ref="3948459032" />
	</way>
	<way id="391623108" version="1" timestamp="2016-01-15T18:09:44Z" changeset="36599290" uid="3296383" user="Reitstoen_import">
		<tag k="source" v="Kartverket N50" />
		<tag k="source:date" v="1970-01-01" />
		<nd ref="3948458928" />
		<nd ref="3948458918" />
		<nd ref="3948458911" />
		<nd ref="3948458905" />
		<nd ref="3948458901" />
		<nd ref="3948458900" />
		<nd ref="3948458902" />
		<nd ref="3948458914" />
		<nd ref="3948458915" />
		<nd ref="3948458922" />
		<nd ref="3948458933" />
	</way>
	<relation id="5864702" version="3" timestamp="2018-09-14T01:56:27Z" changeset="62569639" uid="715936" user="Gazer75">
		<tag k="ele" v="450" />
		<tag k="name" v="Zakariasvatnet" />
		<tag k="natural" v="water" />
		<tag k="ssr:stedsnr" v="617015" />
		<tag k="type" v="multipolygon" />
		<tag k="water" v="reservoir" />
		<tag k="wikidata" v="Q19398905" />
		<member type="way" ref="391623488" role="outer" />
		<member type="way" ref="391623406" role="outer" />
		<member type="way" ref="391623118" role="outer" />
		<member type="way" ref="391623108" role="outer" />
		<member type="way" ref="39630597" role="outer" />
		<member type="way" ref="391623109" role="outer" />
		<member type="way" ref="391623545" role="outer" />
		<member type="way" ref="391623192" role="outer" />
		<member type="way" ref="391623047" role="outer" />
		<member type="way" ref="391623424" role="outer" />
		<member type="way" ref="496186034" role="outer" />
		<member type="way" ref="496186032" role="outer" />
		<member type="way" ref="496186031" role="outer" />
		<member type="way" ref="496186030" role="outer" />
		<member type="way" ref="496186026" role="outer" />
		<member type="way" ref="391623609" role="outer" />
		<member type="way" ref="496186017" role="outer" />
		<member type="way" ref="496186029" role="outer" />
		<member type="way" ref="496186033" role="outer" />
		<member type="way" ref="391623706" role="outer" />
		<member type="way" ref="391623313" role="outer" />
		<member type="way" ref="391623441" role="outer" />
		<member type="way" ref="391623768" role="outer" />
	</relation>
</osm>
