<?xml version="1.0" encoding="UTF-8"?>
<osm version="0.6" generator="osmapis">
	<node lat="70.17509725331261" lon="28.737735144130927" id="-49368">
		<tag k="name" v="Mæskfjord, Øvre" />
		<tag k="name:no" v="Mæskfjord, Øvre" />
		<tag k="ssr:date" v="2019-12-27" />
		<tag k="ssr:gruppe" v="navigasjon" />
		<tag k="ssr:hovedgruppe" v="infrastruktur" />
		<tag k="ssr:stedsnr" v="47186" />
		<tag k="ssr:type" v="fyrlykt" />
	</node>
	<node lat="70.173475032466" lon="28.74209069564097" id="-49384">
		<tag k="name" v="Mæskfjord, Nedre" />
		<tag k="name:no" v="Mæskfjord, Nedre" />
		<tag k="ssr:date" v="2019-12-27" />
		<tag k="ssr:gruppe" v="navigasjon" />
		<tag k="ssr:hovedgruppe" v="infrastruktur" />
		<tag k="ssr:stedsnr" v="108175" />
		<tag k="ssr:type" v="fyrlykt" />
	</node>
	<node lat="70.13118892280687" lon="28.66593238061916" id="-49385">
		<tag k="name" v="Rabbenes" />
		<tag k="name:no" v="Rabbenes" />
		<tag k="ssr:date" v="2019-12-27" />
		<tag k="ssr:gruppe" v="navigasjon" />
		<tag k="ssr:hovedgruppe" v="infrastruktur" />
		<tag k="ssr:stedsnr" v="108179" />
		<tag k="ssr:type" v="fyrlykt" />
	</node>
	<node lat="70.16382225215477" lon="28.571132430055222" id="-49396">
		<tag k="name" v="Unjárgga gielda - Nesseby kommune" />
		<tag k="name:no" v="Nesseby kommune" />
		<tag k="name:se" v="Unjárgga gielda" />
		<tag k="ssr:date" v="2021-06-08" />
		<tag k="ssr:gruppe" v="administrativeIndelinger" />
		<tag k="ssr:hovedgruppe" v="offentligAdministrasjon" />
		<tag k="ssr:stedsnr" v="146828" />
		<tag k="ssr:type" v="kommune" />
	</node>
</osm>
