<?xml version="1.0" encoding="UTF-8"?>
<osm version="0.6" generator="osmapis">
	<node lat="59.779174997568255" lon="11.07123888490028" id="-16299">
		<tag k="name" v="Kongsvika" />
		<tag k="natural" v="bay" />
		<tag k="ssr:stedsnr" v="4423" />
	</node>
	<node lat="59.68868055122896" lon="11.215011117689569" id="-16314">
		<tag k="name" v="Nordvika" />
		<tag k="natural" v="bay" />
		<tag k="ssr:stedsnr" v="23607" />
	</node>
	<node lat="59.7885999973167" lon="11.061297213228807" id="-16315">
		<tag k="name" v="Trangene" />
		<tag k="natural" v="strait" />
		<tag k="ssr:stedsnr" v="23608" />
	</node>
	<node lat="59.783655556554805" lon="11.009172230355967" id="-16316">
		<tag k="name" v="Midtre Vinholtjern" />
		<tag k="natural" v="water" />
		<tag k="ssr:stedsnr" v="23635" />
	</node>
	<node lat="59.76164444290128" lon="11.040225005269496" id="-16317">
		<tag k="name" v="Flesketjern" />
		<tag k="natural" v="water" />
		<tag k="ssr:stedsnr" v="23642" />
	</node>
	<node lat="59.704736114559026" lon="11.135041664745646" id="-16318">
		<tag k="name" v="Bergsøya" />
		<tag k="place" v="island" />
		<tag k="ssr:stedsnr" v="23705" />
	</node>
	<node lat="59.78733888681959" lon="10.960327778183318" id="-16319">
		<tag k="alt_name" v="Bindingsvann" />
		<tag k="name" v="Bindingsvannet" />
		<tag k="natural" v="water" />
		<tag k="ssr:stedsnr" v="24685" />
		<tag k="water" v="lake" />
	</node>
	<node lat="59.81398610894165" lon="11.034441673718558" id="-16320">
		<tag k="alt_name" v="Deliseterfjorden" />
		<tag k="name" v="Dæliseterfjorden" />
		<tag k="natural" v="bay" />
		<tag k="ssr:stedsnr" v="59287" />
	</node>
	<node lat="59.690938890052855" lon="11.145063888569066" id="-16323">
		<tag k="name" v="Svartebekken" />
		<tag k="ssr:stedsnr" v="64830" />
		<tag k="waterway" v="stream" />
	</node>
	<node lat="59.827394445655194" lon="11.028908329010168" id="-16326">
		<tag k="alt_name" v="Kytetjernet, søndre;Søndre Kytetjern" />
		<tag k="name" v="Søndre Kytetjernet" />
		<tag k="natural" v="water" />
		<tag k="ssr:stedsnr" v="65209" />
	</node>
	<node lat="59.82076184711909" lon="11.089910689580218" id="-16332">
		<tag k="alt_name" v="Hellertjern" />
		<tag k="name" v="Hellertjerna" />
		<tag k="natural" v="water" />
		<tag k="ssr:stedsnr" v="65770" />
		<tag k="water" v="lake" />
	</node>
	<node lat="59.748793901808426" lon="11.211600509032435" id="-16335">
		<tag k="name" v="Byvika" />
		<tag k="natural" v="bay" />
		<tag k="ssr:stedsnr" v="65923" />
	</node>
	<node lat="59.81761959714118" lon="10.989980843177797" id="-16337">
		<tag k="name" v="Kjerrmostjerna" />
		<tag k="natural" v="water" />
		<tag k="old_name" v="Kjerrmosatjernet" />
		<tag k="ssr:stedsnr" v="66258" />
		<tag k="water" v="lake" />
	</node>
	<node lat="59.80408611233104" lon="10.982613890163924" id="-16350">
		<tag k="name" v="Gørrtjern" />
		<tag k="natural" v="water" />
		<tag k="ssr:stedsnr" v="83602" />
	</node>
	<node lat="59.70994722400314" lon="11.132463892835194" id="-16351">
		<tag k="name" v="Merraholmen" />
		<tag k="place" v="islet" />
		<tag k="ssr:stedsnr" v="83684" />
	</node>
	<node lat="59.83509003036077" lon="10.934719373606933" id="-16369">
		<tag k="name" v="Eriksvannet" />
		<tag k="natural" v="water" />
		<tag k="ssr:stedsnr" v="247211" />
	</node>
	<node lat="59.8090805531027" lon="10.99223056389267" id="-16370">
		<tag k="alt_name" v="Morttjern" />
		<tag k="name" v="Morttjernet" />
		<tag k="natural" v="water" />
		<tag k="ssr:stedsnr" v="247248" />
	</node>
	<node lat="59.791438890141805" lon="11.038602776460248" id="-16373">
		<tag k="alt_name" v="Stuttjern" />
		<tag k="name" v="Stuttjernet" />
		<tag k="natural" v="water" />
		<tag k="ssr:stedsnr" v="247326" />
	</node>
	<node lat="59.68423055418318" lon="11.083377786422911" id="-16380">
		<tag k="name" v="Lyseren" />
		<tag k="natural" v="water" />
		<tag k="ssr:stedsnr" v="125447" />
		<tag k="water" v="lake" />
	</node>
	<node lat="59.83560833093156" lon="10.972436109654664" id="-16384">
		<tag k="name" v="Vælsputten" />
		<tag k="natural" v="water" />
		<tag k="ssr:stedsnr" v="126210" />
	</node>
	<node lat="59.80968888980076" lon="10.981175001649921" id="-16387">
		<tag k="name" v="Igletjernet" />
		<tag k="natural" v="water" />
		<tag k="ssr:stedsnr" v="126248" />
	</node>
	<node lat="59.80194721831225" lon="11.122630552152664" id="-16391">
		<tag k="name" v="Korsmåsatjernet" />
		<tag k="natural" v="water" />
		<tag k="ssr:stedsnr" v="126841" />
	</node>
	<node lat="59.77571667022254" lon="11.090191667730906" id="-16401">
		<tag k="name" v="Stutauet" />
		<tag k="natural" v="water" />
		<tag k="ssr:stedsnr" v="143581" />
	</node>
	<node lat="59.83447777977206" lon="10.988419446528422" id="-16414">
		<tag k="alt_name" v="Grastjern" />
		<tag k="name" v="Grastjernet" />
		<tag k="natural" v="water" />
		<tag k="ssr:stedsnr" v="186209" />
	</node>
	<node lat="59.818655556765236" lon="11.009477785071914" id="-16418">
		<tag k="name" v="Mosjøen" />
		<tag k="natural" v="water" />
		<tag k="ssr:stedsnr" v="187275" />
		<tag k="water" v="lake" />
	</node>
	<node lat="59.77901944690397" lon="11.08056111687967" id="-16437">
		<tag k="name" v="Støafjorden" />
		<tag k="natural" v="bay" />
		<tag k="ssr:stedsnr" v="265594" />
	</node>
	<node lat="59.71550833282099" lon="11.21572500280414" id="-16438">
		<tag k="name" v="Jeviksnabben" />
		<tag k="natural" v="cape" />
		<tag k="ssr:stedsnr" v="265691" />
	</node>
	<node lat="59.77951667006215" lon="11.20274166102784" id="-16439">
		<tag k="name" v="Nordtangen" />
		<tag k="natural" v="cape" />
		<tag k="ssr:stedsnr" v="265694" />
	</node>
	<node lat="59.83318932959808" lon="10.977149811048958" id="-16445">
		<tag k="name" v="Vardåsputten" />
		<tag k="natural" v="water" />
		<tag k="ssr:stedsnr" v="265654" />
	</node>
	<node lat="59.78219444239845" lon="11.072272223970005" id="-16463">
		<tag k="name" v="Strømmene" />
		<tag k="natural" v="strait" />
		<tag k="ssr:stedsnr" v="205605" />
	</node>
	<node lat="59.79742500322488" lon="11.055325008952057" id="-16464">
		<tag k="name" v="Nessetervika" />
		<tag k="natural" v="bay" />
		<tag k="ssr:stedsnr" v="205608" />
	</node>
	<node lat="59.72693610702116" lon="11.1468250075854" id="-16465">
		<tag k="name" v="Vesletjern" />
		<tag k="natural" v="water" />
		<tag k="ssr:stedsnr" v="205612" />
	</node>
	<node lat="59.75882222141638" lon="11.169875002350738" id="-16468">
		<tag k="name" v="Jørnrudvika" />
		<tag k="natural" v="bay" />
		<tag k="ssr:stedsnr" v="205598" />
	</node>
	<node lat="59.83111944325631" lon="11.104161106633514" id="-16469">
		<tag k="name" v="Himbrentholmen" />
		<tag k="place" v="islet" />
		<tag k="ssr:stedsnr" v="205705" />
	</node>
	<node lat="59.810886110992335" lon="11.045783328823486" id="-16470">
		<tag k="name" v="Tjuvholmene" />
		<tag k="place" v="islet" />
		<tag k="ssr:stedsnr" v="205706" />
	</node>
	<node lat="59.82262499939122" lon="10.986044436666392" id="-16474">
		<tag k="name" v="Nordre Kjerrmåsatjern" />
		<tag k="natural" v="water" />
		<tag k="ssr:stedsnr" v="205644" />
	</node>
	<node lat="59.7922194410956" lon="11.05356944907264" id="-16475">
		<tag k="name" v="Forfottangene" />
		<tag k="natural" v="cape" />
		<tag k="ssr:stedsnr" v="205701" />
	</node>
	<node lat="59.73999444408141" lon="11.136477779290795" id="-16477">
		<tag k="alt_name" v="Holttjernet" />
		<tag k="name" v="Holttjern" />
		<tag k="natural" v="water" />
		<tag k="ssr:stedsnr" v="246117" />
	</node>
	<node lat="59.74996666807938" lon="11.221952771088958" id="-16484">
		<tag k="name" v="Nesnabben" />
		<tag k="natural" v="cape" />
		<tag k="ssr:stedsnr" v="247904" />
	</node>
	<node lat="59.777502774599455" lon="11.094688883446025" id="-16493">
		<tag k="name" v="Oppholdstjern" />
		<tag k="natural" v="water" />
		<tag k="ssr:stedsnr" v="265625" />
	</node>
	<node lat="59.76271111298364" lon="11.046208331099708" id="-16494">
		<tag k="name" v="Vasetjern" />
		<tag k="natural" v="water" />
		<tag k="ssr:stedsnr" v="265649" />
	</node>
	<node lat="59.688500001845576" lon="11.173774993316751" id="-16520">
		<tag k="name" v="Bukketjern" />
		<tag k="natural" v="water" />
		<tag k="ssr:stedsnr" v="326606" />
	</node>
	<node lat="59.767666669513254" lon="11.19501944357132" id="-16523">
		<tag k="name" v="Hølestadskjæret" />
		<tag k="place" v="islet" />
		<tag k="ssr:stedsnr" v="326678" />
	</node>
	<node lat="59.76211667021104" lon="11.070566662646957" id="-16526">
		<tag k="name" v="Skredderstadvann" />
		<tag k="natural" v="water" />
		<tag k="ssr:stedsnr" v="363721" />
	</node>
	<node lat="59.83046389193163" lon="11.051550001706572" id="-16528">
		<tag k="name" v="Grinderen" />
		<tag k="natural" v="water" />
		<tag k="ssr:stedsnr" v="368326" />
	</node>
	<node lat="59.80455555273687" lon="11.13668333079408" id="-16531">
		<tag k="name" v="Katisa" />
		<tag k="natural" v="water" />
		<tag k="ssr:stedsnr" v="368866" />
	</node>
	<node lat="59.787422222717645" lon="11.079774999955221" id="-16539">
		<tag k="name" v="Vadhusfjorden" />
		<tag k="natural" v="strait" />
		<tag k="ssr:stedsnr" v="386552" />
	</node>
	<node lat="59.71141110952518" lon="11.038705559919052" id="-16541">
		<tag k="name" v="Sollitjern" />
		<tag k="natural" v="water" />
		<tag k="ssr:stedsnr" v="386606" />
	</node>
	<node lat="59.69861666221461" lon="11.086061113892562" id="-16551">
		<tag k="alt_name" v="Vasshytt-tjern" />
		<tag k="name" v="Vasstjernet" />
		<tag k="natural" v="water" />
		<tag k="ssr:stedsnr" v="489432" />
	</node>
	<node lat="59.79221728486648" lon="11.069625612605554" id="-16552">
		<tag k="alt_name" v="Breidsjøen" />
		<tag k="name" v="Breisjøen" />
		<tag k="natural" v="water" />
		<tag k="ssr:stedsnr" v="490335" />
	</node>
	<node lat="59.79386110892399" lon="11.077799995780888" id="-16561">
		<tag k="name" v="Sakristiet" />
		<tag k="natural" v="water" />
		<tag k="ssr:stedsnr" v="429316" />
	</node>
	<node lat="59.75864252720808" lon="10.976075330364523" id="-16568">
		<tag k="name" v="Langskogtjernet" />
		<tag k="natural" v="water" />
		<tag k="ssr:stedsnr" v="430365" />
	</node>
	<node lat="59.7424166683538" lon="11.202958331934072" id="-16587">
		<tag k="name" v="Vennevollsvika" />
		<tag k="natural" v="bay" />
		<tag k="ssr:stedsnr" v="671122" />
	</node>
	<node lat="59.82203889034268" lon="11.043472221685715" id="-16598">
		<tag k="name" v="Bøvelstadsvarttjernet" />
		<tag k="natural" v="water" />
		<tag k="ssr:stedsnr" v="672252" />
	</node>
	<node lat="59.83026944740854" lon="11.004138890180172" id="-16599">
		<tag k="alt_name" v="Tonevann" />
		<tag k="name" v="Tonevannet" />
		<tag k="natural" v="water" />
		<tag k="ssr:stedsnr" v="672197" />
		<tag k="water" v="lake" />
	</node>
	<node lat="59.809194444065355" lon="11.100158339864667" id="-16601">
		<tag k="name" v="Bikkjetjern" />
		<tag k="natural" v="water" />
		<tag k="ssr:stedsnr" v="672796" />
	</node>
	<node lat="59.76554166711661" lon="11.185000007648316" id="-16602">
		<tag k="name" v="Preståa" />
		<tag k="natural" v="bay" />
		<tag k="ssr:stedsnr" v="672876" />
	</node>
	<node lat="59.707091695120376" lon="11.001253885036016" id="-16606">
		<tag k="alt_name" v="Mjærskautjernet" />
		<tag k="name" v="Mjærskogtjernet" />
		<tag k="natural" v="water" />
		<tag k="ssr:stedsnr" v="489388" />
	</node>
	<node lat="59.824163891745414" lon="10.945311119498259" id="-16607">
		<tag k="alt_name" v="Skjellbreida" />
		<tag k="loc_name" v="Skjellbreia" />
		<tag k="name" v="Skjelbreia" />
		<tag k="natural" v="water" />
		<tag k="ssr:stedsnr" v="490279" />
	</node>
	<node lat="59.7915722186803" lon="11.109636107416984" id="-16610">
		<tag k="name" v="Fudalstjern" />
		<tag k="natural" v="water" />
		<tag k="ssr:stedsnr" v="490810" />
	</node>
	<node lat="59.78432777360295" lon="11.067297227916594" id="-16614">
		<tag k="name" v="Løksmørfjorden" />
		<tag k="natural" v="strait" />
		<tag k="ssr:stedsnr" v="508608" />
	</node>
	<node lat="59.76531364533715" lon="11.186567931346287" id="-16615">
		<tag k="name" v="Mianna" />
		<tag k="natural" v="waterfall" />
		<tag k="ssr:stedsnr" v="508666" />
	</node>
	<node lat="59.729547222036544" lon="11.218066665045633" id="-16632">
		<tag k="name" v="Sandskjæra" />
		<tag k="place" v="islet" />
		<tag k="ssr:stedsnr" v="690690" />
	</node>
	<node lat="59.78652499779917" lon="11.19871111090759" id="-16633">
		<tag k="name" v="Degnes" />
		<tag k="natural" v="cape" />
		<tag k="ssr:stedsnr" v="690695" />
	</node>
	<node lat="59.8050055571376" lon="10.977858339126698" id="-16638">
		<tag k="name" v="Svartholbekken" />
		<tag k="ssr:stedsnr" v="690232" />
		<tag k="waterway" v="stream" />
	</node>
	<node lat="59.781624995790835" lon="11.010408338282877" id="-16641">
		<tag k="name" v="Søndre Vinholtjern" />
		<tag k="natural" v="water" />
		<tag k="ssr:stedsnr" v="690649" />
	</node>
	<node lat="59.80251944035039" lon="11.150947214808395" id="-16657">
		<tag k="name" v="Kasttjern" />
		<tag k="natural" v="water" />
		<tag k="ssr:stedsnr" v="568563" />
	</node>
	<node lat="59.7705277744982" lon="11.097930564006814" id="-16658">
		<tag k="name" v="Langtjernet" />
		<tag k="natural" v="water" />
		<tag k="ssr:stedsnr" v="568569" />
	</node>
	<node lat="59.80213333257472" lon="11.04372499661081" id="-16663">
		<tag k="name" v="Luseholmen" />
		<tag k="place" v="islet" />
		<tag k="ssr:stedsnr" v="568663" />
	</node>
	<node lat="59.83101208865187" lon="10.973395257362812" id="-16673">
		<tag k="name" v="Kløftetjern" />
		<tag k="natural" v="water" />
		<tag k="ssr:stedsnr" v="611209" />
	</node>
	<node lat="59.82029999554676" lon="11.058722227661063" id="-16674">
		<tag k="name" v="Myrsetersvarttjern" />
		<tag k="natural" v="water" />
		<tag k="ssr:stedsnr" v="611272" />
	</node>
	<node lat="59.83611111096086" lon="10.966433332225716" id="-16675">
		<tag k="alt_name" v="Lusetjern" />
		<tag k="name" v="Lusetjernet" />
		<tag k="natural" v="water" />
		<tag k="ssr:stedsnr" v="611195" />
	</node>
	<node lat="59.727136111612865" lon="11.212544443916547" id="-16706">
		<tag k="name" v="Hvitsteinbogen" />
		<tag k="natural" v="bay" />
		<tag k="ssr:stedsnr" v="690609" />
	</node>
	<node lat="59.70909999694113" lon="11.054458326757633" id="-16707">
		<tag k="name" v="Ubberudbogen" />
		<tag k="natural" v="bay" />
		<tag k="ssr:stedsnr" v="690614" />
	</node>
	<node lat="59.70382221790395" lon="11.10906665934869" id="-16708">
		<tag k="name" v="Svineshalsen" />
		<tag k="natural" v="strait" />
		<tag k="ssr:stedsnr" v="690615" />
	</node>
	<node lat="59.74621389161129" lon="11.042722229868202" id="-16724">
		<tag k="alt_name" v="Kjenslitjernet" />
		<tag k="name" v="Tjernslitjernet" />
		<tag k="natural" v="water" />
		<tag k="ssr:stedsnr" v="731564" />
	</node>
	<node lat="59.768308336953126" lon="11.060627776510856" id="-16727">
		<tag k="name" v="Gravtjernet" />
		<tag k="natural" v="water" />
		<tag k="ssr:stedsnr" v="733391" />
	</node>
	<node lat="59.784138885595425" lon="11.038175001014952" id="-16735">
		<tag k="name" v="Krokatjern" />
		<tag k="natural" v="water" />
		<tag k="ssr:stedsnr" v="750597" />
	</node>
	<node lat="59.80017684407979" lon="11.075555457239904" id="-16753">
		<tag k="alt_name" v="Auretjernet, nedre;Nedre Auretjernet" />
		<tag k="name" v="Nedre Auretjern" />
		<tag k="natural" v="water" />
		<tag k="ssr:stedsnr" v="793383" />
	</node>
	<node lat="59.733938892629745" lon="11.21350278059462" id="-16759">
		<tag k="name" v="Furuholmen" />
		<tag k="natural" v="cape" />
		<tag k="ssr:stedsnr" v="914123" />
	</node>
	<node lat="59.81160277794573" lon="11.02950833490256" id="-16765">
		<tag k="name" v="Bukketjernet" />
		<tag k="natural" v="water" />
		<tag k="ssr:stedsnr" v="915260" />
	</node>
	<node lat="59.76014166296182" lon="11.0966750011634" id="-16778">
		<tag k="name" v="Tuggerudtjern" />
		<tag k="natural" v="water" />
		<tag k="ssr:stedsnr" v="811584" />
	</node>
	<node lat="59.77618888691644" lon="11.005697221548047" id="-16779">
		<tag k="name" v="Svarttjern" />
		<tag k="natural" v="water" />
		<tag k="ssr:stedsnr" v="811595" />
	</node>
	<node lat="59.79730277447752" lon="11.179074994089724" id="-16796">
		<tag k="name" v="Grotjern" />
		<tag k="natural" v="water" />
		<tag k="ssr:stedsnr" v="854833" />
	</node>
	<node lat="59.836994447571655" lon="11.108744436674973" id="-16800">
		<tag k="name" v="Siljebølvika" />
		<tag k="natural" v="bay" />
		<tag k="ssr:stedsnr" v="872326" />
	</node>
	<node lat="59.82222778119263" lon="11.005002773205257" id="-16810">
		<tag k="name" v="Stokkevika" />
		<tag k="natural" v="bay" />
		<tag k="ssr:stedsnr" v="933617" />
	</node>
	<node lat="59.7513111152664" lon="11.052711119116442" id="-16817">
		<tag k="name" v="Slorene" />
		<tag k="natural" v="water" />
		<tag k="ssr:stedsnr" v="914508" />
	</node>
	<node lat="59.778899999037115" lon="11.029949998190045" id="-16821">
		<tag k="name" v="Rottjern" />
		<tag k="natural" v="water" />
		<tag k="ssr:stedsnr" v="915403" />
	</node>
	<node lat="59.805433333021746" lon="11.11356110447371" id="-16825">
		<tag k="name" v="Iletjern" />
		<tag k="natural" v="water" />
		<tag k="ssr:stedsnr" v="915841" />
	</node>
	<node lat="59.80895555894635" lon="11.072255563589913" id="-16834">
		<tag k="name" v="Vasketjern" />
		<tag k="natural" v="water" />
		<tag k="ssr:stedsnr" v="933640" />
	</node>
	<node lat="59.777094440436855" lon="11.037719436857742" id="-16835">
		<tag k="name" v="Sølvputten" />
		<tag k="natural" v="water" />
		<tag k="ssr:stedsnr" v="933643" />
	</node>
	<node lat="59.77558888638617" lon="11.19902777257446" id="-16839">
		<tag k="name" v="Søvika" />
		<tag k="natural" v="bay" />
		<tag k="ssr:stedsnr" v="933600" />
	</node>
	<node lat="59.80801944774356" lon="11.04186110340288" id="-16840">
		<tag k="name" v="Bøvelstadnebben" />
		<tag k="natural" v="cape" />
		<tag k="ssr:stedsnr" v="933715" />
	</node>
	<node lat="59.69819444388802" lon="11.142638883081984" id="-16842">
		<tag k="name" v="Kalvetangen" />
		<tag k="natural" v="cape" />
		<tag k="ssr:stedsnr" v="933697" />
	</node>
	<node lat="59.69968934568345" lon="11.069578404383972" id="-16848">
		<tag k="alt_name" v="Skånetjern" />
		<tag k="name" v="Skånetjernet" />
		<tag k="natural" v="water" />
		<tag k="ssr:stedsnr" v="3350" />
	</node>
	<node lat="59.830952778572886" lon="10.982122229819643" id="-16853">
		<tag k="name" v="Steinsjøen" />
		<tag k="natural" v="water" />
		<tag k="ssr:stedsnr" v="4207" />
	</node>
	<node lat="59.68540556002769" lon="11.18281388323442" id="-16855">
		<tag k="name" v="Langtjern" />
		<tag k="natural" v="water" />
		<tag k="ssr:stedsnr" v="4846" />
	</node>
	<node lat="59.80361111321155" lon="11.157713881914411" id="-16856">
		<tag k="name" v="Langtjern" />
		<tag k="natural" v="water" />
		<tag k="ssr:stedsnr" v="4853" />
	</node>
	<node lat="59.69933055785337" lon="11.14132500813863" id="-16869">
		<tag k="name" v="Kaninøya" />
		<tag k="place" v="island" />
		<tag k="ssr:stedsnr" v="23690" />
	</node>
	<node lat="59.738394442518214" lon="11.102258338848628" id="-16870">
		<tag k="name" v="Damholtbekken" />
		<tag k="ssr:stedsnr" v="23692" />
		<tag k="waterway" v="stream" />
	</node>
	<node lat="59.74259166657215" lon="11.020841666930158" id="-16871">
		<tag k="name" v="Kvernstubekken" />
		<tag k="ssr:stedsnr" v="23694" />
		<tag k="waterway" v="stream" />
	</node>
	<node lat="59.791155551378765" lon="11.073716674795175" id="-16872">
		<tag k="name" v="Breisjønabben" />
		<tag k="natural" v="cape" />
		<tag k="ssr:stedsnr" v="23699" />
	</node>
	<node lat="59.8187249976531" lon="10.988091659371804" id="-16878">
		<tag k="name" v="Midtre Kjerrmåsatjern" />
		<tag k="natural" v="water" />
		<tag k="ssr:stedsnr" v="23649" />
	</node>
	<node lat="59.73403055916498" lon="10.990741658358107" id="-16888">
		<tag k="name" v="Langen" />
		<tag k="natural" v="water" />
		<tag k="ssr:stedsnr" v="64587" />
		<tag k="water" v="lake" />
	</node>
	<node lat="59.80235000058128" lon="11.080563887767173" id="-16892">
		<tag k="alt_name" v="Auretjernet, øvre" />
		<tag k="name" v="Øvre Auretjern" />
		<tag k="natural" v="water" />
		<tag k="ssr:stedsnr" v="65351" />
	</node>
	<node lat="59.802013887904465" lon="11.039086111344217" id="-16894">
		<tag k="alt_name" v="Tangetjern" />
		<tag k="name" v="Tangetjernet" />
		<tag k="natural" v="water" />
		<tag k="ssr:stedsnr" v="65358" />
	</node>
	<node lat="59.708363893002904" lon="11.106947219403985" id="-16907">
		<tag k="name" v="Hølvika" />
		<tag k="natural" v="bay" />
		<tag k="ssr:stedsnr" v="83548" />
	</node>
	<node lat="59.74704999747393" lon="11.208063894513447" id="-16908">
		<tag k="name" v="Rogneskjæret" />
		<tag k="place" v="islet" />
		<tag k="ssr:stedsnr" v="83654" />
	</node>
	<node lat="59.823905557154966" lon="11.049230555739115" id="-16909">
		<tag k="name" v="Grinderbekken" />
		<tag k="ssr:stedsnr" v="83668" />
		<tag k="waterway" v="stream" />
	</node>
	<node lat="59.80176389329861" lon="11.042386113752443" id="-16923">
		<tag k="name" v="Tangen" />
		<tag k="natural" v="cape" />
		<tag k="ssr:stedsnr" v="125384" />
	</node>
	<node lat="59.823605551235644" lon="11.016358341070655" id="-16924">
		<tag k="name" v="Luttjern" />
		<tag k="natural" v="water" />
		<tag k="ssr:stedsnr" v="126263" />
	</node>
	<node lat="59.81618888994813" lon="11.14165556395868" id="-16925">
		<tag k="name" v="Merratjern" />
		<tag k="natural" v="water" />
		<tag k="ssr:stedsnr" v="125771" />
	</node>
	<node lat="59.83398333328292" lon="11.1055749926798" id="-16928">
		<tag k="name" v="Gjeddevann" />
		<tag k="natural" v="water" />
		<tag k="ssr:stedsnr" v="126712" />
	</node>
	<node lat="59.7525972233159" lon="11.16713055098682" id="-16937">
		<tag k="name" v="Saltvetåa" />
		<tag k="ssr:stedsnr" v="143558" />
		<tag k="waterway" v="river" />
	</node>
	<node lat="59.7989611093503" lon="11.049980557933349" id="-16964">
		<tag k="name" v="Børtervanna" />
		<tag k="natural" v="water" />
		<tag k="ssr:stedsnr" v="186384" />
		<tag k="water" v="lake" />
	</node>
	<node lat="59.80648888776363" lon="11.058027783702482" id="-16965">
		<tag k="name" v="Pølsetjernet" />
		<tag k="natural" v="water" />
		<tag k="ssr:stedsnr" v="186385" />
	</node>
	<node lat="59.75467222453299" lon="11.04743332846328" id="-16969">
		<tag k="name" v="Bonntjernet" />
		<tag k="natural" v="water" />
		<tag k="ssr:stedsnr" v="187351" />
	</node>
	<node lat="59.788677776469555" lon="11.129849991863452" id="-16980">
		<tag k="name" v="Taraldstjern" />
		<tag k="natural" v="water" />
		<tag k="ssr:stedsnr" v="205615" />
	</node>
	<node lat="59.71409444268618" lon="11.100758335007637" id="-16981">
		<tag k="name" v="Kjenslitjernet" />
		<tag k="natural" v="water" />
		<tag k="ssr:stedsnr" v="205620" />
	</node>
	<node lat="59.73753333057388" lon="11.209786109823842" id="-16988">
		<tag k="name" v="Tangenskjæret" />
		<tag k="place" v="islet" />
		<tag k="ssr:stedsnr" v="205681" />
	</node>
	<node lat="59.70135000195061" lon="11.054877779576707" id="-16993">
		<tag k="name" v="Mjær" />
		<tag k="natural" v="water" />
		<tag k="ssr:stedsnr" v="307422" />
		<tag k="water" v="lake" />
	</node>
	<node lat="59.70762777582795" lon="11.1231055533348" id="-17000">
		<tag k="name" v="Åkerøya" />
		<tag k="place" v="island" />
		<tag k="ssr:stedsnr" v="307836" />
	</node>
	<node lat="59.8128000001369" lon="11.131949994855798" id="-17001">
		<tag k="name" v="Påstrand" />
		<tag k="natural" v="water" />
		<tag k="ssr:stedsnr" v="308793" />
	</node>
	<node lat="59.76807500427295" lon="11.12044443909683" id="-17005">
		<tag k="alt_name" v="Børterelva" />
		<tag k="name" v="Igna" />
		<tag k="ssr:stedsnr" v="308876" />
		<tag k="waterway" v="river" />
	</node>
	<node lat="59.79684444823547" lon="11.045522222292167" id="-17018">
		<tag k="name" v="Grisetjern" />
		<tag k="natural" v="water" />
		<tag k="ssr:stedsnr" v="326635" />
	</node>
	<node lat="59.81565833055918" lon="10.992241672460063" id="-17019">
		<tag k="name" v="Søndre Kjerrmåsatjern" />
		<tag k="natural" v="water" />
		<tag k="ssr:stedsnr" v="326638" />
	</node>
	<node lat="59.78522222651553" lon="11.086436110239948" id="-17021">
		<tag k="name" v="Vadhusnabben" />
		<tag k="natural" v="cape" />
		<tag k="ssr:stedsnr" v="326695" />
	</node>
	<node lat="59.70856666594849" lon="11.136855550833072" id="-17022">
		<tag k="name" v="Steinholmen" />
		<tag k="place" v="islet" />
		<tag k="ssr:stedsnr" v="326697" />
	</node>
	<node lat="59.78253888848129" lon="11.038655549335388" id="-17038">
		<tag k="name" v="Vesle Forfoten" />
		<tag k="natural" v="water" />
		<tag k="ssr:stedsnr" v="327454" />
		<tag k="water" v="lake" />
	</node>
	<node lat="59.788342178109104" lon="11.005113438347935" id="-17040">
		<tag k="fixme" v="multiple name tags, choose one and add the other to alt_name" />
		<tag k="name" v="Ålmarktjernet;Nordre Vinholtjern" />
		<tag k="natural" v="water" />
		<tag k="ssr:stedsnr" v="368343" />
	</node>
	<node lat="59.832897222686405" lon="11.038913886445016" id="-17045">
		<tag k="alt_name" v="Søndre Krokvann" />
		<tag k="name" v="Søndre Krokvannet" />
		<tag k="natural" v="water" />
		<tag k="ssr:stedsnr" v="368328" />
	</node>
	<node lat="59.80562221886959" lon="11.046652771316014" id="-17047">
		<tag k="name" v="Hestholmen" />
		<tag k="natural" v="cape" />
		<tag k="ssr:stedsnr" v="368395" />
	</node>
	<node lat="59.81081111139246" lon="11.141505560423937" id="-17048">
		<tag k="name" v="Stordammen" />
		<tag k="natural" v="water" />
		<tag k="ssr:stedsnr" v="368831" />
	</node>
	<node lat="59.69116111045958" lon="11.174338895387686" id="-17050">
		<tag k="alt_name" v="Fjellstjern" />
		<tag k="name" v="Fjelltjernet" />
		<tag k="natural" v="water" />
		<tag k="ssr:stedsnr" v="368851" />
	</node>
	<node lat="59.75774061517162" lon="11.041339876652508" id="-17052">
		<tag k="alt_name" v="Setertjerna" />
		<tag k="name" v="Sætertjerna" />
		<tag k="natural" v="water" />
		<tag k="ssr:stedsnr" v="369346" />
		<tag k="water" v="lake" />
	</node>
	<node lat="59.69797500346352" lon="11.049330562814427" id="-17059">
		<tag k="name" v="Kavringen" />
		<tag k="place" v="islet" />
		<tag k="ssr:stedsnr" v="386189" />
	</node>
	<node lat="59.69520555720901" lon="11.047711115679911" id="-17060">
		<tag k="name" v="Storholmen" />
		<tag k="place" v="islet" />
		<tag k="ssr:stedsnr" v="386190" />
	</node>
	<node lat="59.77119722101742" lon="11.086488895604036" id="-17067">
		<tag k="name" v="Frostatjern" />
		<tag k="natural" v="water" />
		<tag k="ssr:stedsnr" v="386579" />
	</node>
	<node lat="59.75734166702232" lon="11.068638882111728" id="-17068">
		<tag k="name" v="Skredderstadbekken" />
		<tag k="ssr:stedsnr" v="386663" />
		<tag k="waterway" v="stream" />
	</node>
	<node lat="59.736550002714345" lon="10.989566663708787" id="-17069">
		<tag k="name" v="Tangen" />
		<tag k="natural" v="cape" />
		<tag k="ssr:stedsnr" v="386671" />
	</node>
	<node lat="59.69713333525679" lon="11.230233341257843" id="-17081">
		<tag k="name" v="Øyeren" />
		<tag k="natural" v="water" />
		<tag k="ssr:stedsnr" v="428839" />
		<tag k="water" v="lake" />
	</node>
	<node lat="59.783438884946314" lon="11.044705555761908" id="-17087">
		<tag k="name" v="Forfoten" />
		<tag k="natural" v="water" />
		<tag k="ssr:stedsnr" v="429300" />
	</node>
	<node lat="59.78995040523328" lon="11.026580266956028" id="-17088">
		<tag k="alt_name" v="Rausjøen" />
		<tag k="name" v="Raudsjøen" />
		<tag k="natural" v="water" />
		<tag k="ssr:stedsnr" v="429319" />
		<tag k="water" v="lake" />
	</node>
	<node lat="59.81745000403625" lon="11.072152784590719" id="-17091">
		<tag k="alt_name" v="Bølertjern" />
		<tag k="name" v="Bøletjernet" />
		<tag k="natural" v="water" />
		<tag k="ssr:stedsnr" v="430277" />
	</node>
	<node lat="59.826480558551644" lon="10.983269447349219" id="-17092">
		<tag k="alt_name" v="Askevann" />
		<tag k="name" v="Askevannet" />
		<tag k="natural" v="water" />
		<tag k="ssr:stedsnr" v="430293" />
	</node>
	<node lat="59.75658611219516" lon="11.081705562060309" id="-17093">
		<tag k="fixme" v="multiple name tags, choose one and add the other to alt_name" />
		<tag k="name" v="Kroktjern;Krokvannet" />
		<tag k="natural" v="water" />
		<tag k="ssr:stedsnr" v="430368" />
	</node>
	<node lat="59.83065277630942" lon="11.11341389713357" id="-17094">
		<tag k="alt_name" v="Morttjern, østre" />
		<tag k="name" v="Østre Morttjern" />
		<tag k="natural" v="water" />
		<tag k="ssr:stedsnr" v="430764" />
	</node>
	<node lat="59.79587777972704" lon="11.065291666501409" id="-17097">
		<tag k="name" v="Vesle Breisjøen" />
		<tag k="natural" v="water" />
		<tag k="ssr:stedsnr" v="447600" />
		<tag k="water" v="lake" />
	</node>
	<node lat="59.77253332924732" lon="11.211858337725843" id="-17106">
		<tag k="name" v="Badehusvika" />
		<tag k="natural" v="bay" />
		<tag k="ssr:stedsnr" v="447534" />
	</node>
	<node lat="59.71418610772819" lon="11.097072214542603" id="-17107">
		<tag k="name" v="Ødegårdstjern" />
		<tag k="natural" v="water" />
		<tag k="ssr:stedsnr" v="447566" />
	</node>
	<node lat="59.75326944485056" lon="11.049291670643068" id="-17108">
		<tag k="name" v="Trånga" />
		<tag k="ssr:stedsnr" v="447653" />
		<tag k="waterway" v="stream" />
	</node>
	<node lat="59.72460555266159" lon="11.120275002872559" id="-17127">
		<tag k="name" v="Breviktjern" />
		<tag k="natural" v="water" />
		<tag k="ssr:stedsnr" v="508627" />
	</node>
	<node lat="59.71055555817172" lon="11.05866110957766" id="-17128">
		<tag k="name" v="Sothue" />
		<tag k="natural" v="cape" />
		<tag k="ssr:stedsnr" v="508689" />
	</node>
	<node lat="59.76482499922668" lon="10.966052769674102" id="-17144">
		<tag k="name" v="Follobekken" />
		<tag k="ssr:stedsnr" v="550403" />
		<tag k="waterway" v="stream" />
	</node>
	<node lat="59.76514221511815" lon="11.074676826566092" id="-17145">
		<tag k="name" v="Kutjerna" />
		<tag k="natural" v="water" />
		<tag k="ssr:stedsnr" v="550408" />
		<tag k="water" v="lake" />
	</node>
	<node lat="59.725861109609184" lon="11.140611103591857" id="-17147">
		<tag k="alt_name" v="Knatterudtjernet" />
		<tag k="name" v="Knatterudtjern" />
		<tag k="natural" v="water" />
		<tag k="ssr:stedsnr" v="550098" />
	</node>
	<node lat="59.81147777646288" lon="11.047938895939984" id="-17154">
		<tag k="name" v="Støttumfjorden" />
		<tag k="natural" v="bay" />
		<tag k="ssr:stedsnr" v="551283" />
	</node>
	<node lat="59.815588887587325" lon="11.189630548155318" id="-17155">
		<tag k="name" v="Fossumvika" />
		<tag k="natural" v="bay" />
		<tag k="ssr:stedsnr" v="550741" />
	</node>
	<node lat="59.7125305588786" lon="11.159580561515549" id="-17158">
		<tag k="name" v="Hagatjernet" />
		<tag k="natural" v="water" />
		<tag k="ssr:stedsnr" v="550850" />
	</node>
	<node lat="59.78141970591609" lon="11.060265305115234" id="-17167">
		<tag k="name" v="Vasketjern" />
		<tag k="natural" v="water" />
		<tag k="ssr:stedsnr" v="568582" />
	</node>
	<node lat="59.773730552398206" lon="11.066977775079572" id="-17168">
		<tag k="name" v="Kalvetjern" />
		<tag k="natural" v="water" />
		<tag k="ssr:stedsnr" v="568585" />
	</node>
	<node lat="59.76085555277386" lon="11.012969438171464" id="-17169">
		<tag k="name" v="Vasketjern" />
		<tag k="natural" v="water" />
		<tag k="ssr:stedsnr" v="568600" />
	</node>
	<node lat="59.690138887829804" lon="11.166269438811607" id="-17171">
		<tag k="name" v="Fjellsbekken" />
		<tag k="ssr:stedsnr" v="568642" />
		<tag k="waterway" v="stream" />
	</node>
	<node lat="59.73238888711602" lon="11.065063893164286" id="-17172">
		<tag k="name" v="Kjepperudbekken" />
		<tag k="ssr:stedsnr" v="568649" />
		<tag k="waterway" v="stream" />
	</node>
	<node lat="59.83631110907236" lon="11.023058337592929" id="-17185">
		<tag k="alt_name" v="Kytetjernet, midtre;Midtre Kyttjern" />
		<tag k="name" v="Midtre Kytetjernet" />
		<tag k="natural" v="water" />
		<tag k="ssr:stedsnr" v="611196" />
	</node>
	<node lat="59.82888610802311" lon="11.091330551965576" id="-17191">
		<tag k="alt_name" v="Vestre Morttjern" />
		<tag k="name" v="Morttjernet" />
		<tag k="natural" v="water" />
		<tag k="ssr:stedsnr" v="611300" />
	</node>
	<node lat="59.703288891289" lon="11.070811109607238" id="-17194">
		<tag k="name" v="Mulerudbekken" />
		<tag k="ssr:stedsnr" v="629682" />
		<tag k="waterway" v="stream" />
	</node>
	<node lat="59.74194444291608" lon="11.06138055065252" id="-17195">
		<tag k="name" v="Slorebekken" />
		<tag k="ssr:stedsnr" v="629683" />
		<tag k="waterway" v="stream" />
	</node>
	<node lat="59.747008330123535" lon="11.104455546571282" id="-17196">
		<tag k="name" v="Holstadbekken" />
		<tag k="ssr:stedsnr" v="629684" />
		<tag k="waterway" v="stream" />
	</node>
	<node lat="59.732366665143246" lon="11.199269449597079" id="-17197">
		<tag k="name" v="Sandsåa" />
		<tag k="ssr:stedsnr" v="629686" />
		<tag k="waterway" v="river" />
	</node>
	<node lat="59.7579055572832" lon="11.02091944828463" id="-17205">
		<tag k="name" v="Bjørnholttjern" />
		<tag k="natural" v="water" />
		<tag k="ssr:stedsnr" v="629623" />
	</node>
	<node lat="59.78105833304973" lon="11.096694451215392" id="-17208">
		<tag k="name" v="Stordammen" />
		<tag k="natural" v="bay" />
		<tag k="ssr:stedsnr" v="629564" />
	</node>
	<node lat="59.79187499724175" lon="11.057191661867726" id="-17209">
		<tag k="name" v="Brudesund" />
		<tag k="natural" v="strait" />
		<tag k="ssr:stedsnr" v="629572" />
	</node>
	<node lat="59.73197221969567" lon="11.019900002389466" id="-17218">
		<tag k="name" v="Våg" />
		<tag k="natural" v="water" />
		<tag k="ssr:stedsnr" v="670579" />
		<tag k="water" v="lake" />
	</node>
	<node lat="59.72240555501572" lon="11.008061102829798" id="-17221">
		<tag k="alt_name" v="Høljeren" />
		<tag k="name" v="Høltjernet" />
		<tag k="natural" v="water" />
		<tag k="ssr:stedsnr" v="731539" />
	</node>
	<node lat="59.71375029997322" lon="11.21247591687228" id="-17226">
		<tag k="name" v="Siljåsvika" />
		<tag k="natural" v="bay" />
		<tag k="ssr:stedsnr" v="732837" />
	</node>
	<node lat="59.762180615020476" lon="11.068524288485287" id="-17228">
		<tag k="name" v="Skredderstadvanna" />
		<tag k="natural" v="water" />
		<tag k="ssr:stedsnr" v="733357" />
		<tag k="water" v="lake" />
	</node>
	<node lat="59.69093332965151" lon="11.180880550308936" id="-17233">
		<tag k="name" v="Tarmtjern" />
		<tag k="natural" v="water" />
		<tag k="ssr:stedsnr" v="750576" />
	</node>
	<node lat="59.82063611350621" lon="11.110258336113304" id="-17234">
		<tag k="name" v="Svarttjern" />
		<tag k="natural" v="water" />
		<tag k="ssr:stedsnr" v="750589" />
	</node>
	<node lat="59.77356111278646" lon="11.205661114467315" id="-17243">
		<tag k="name" v="Nordliskjæret" />
		<tag k="natural" v="beach" />
		<tag k="ssr:stedsnr" v="750634" />
	</node>
	<node lat="59.74449166284103" lon="11.208855551181712" id="-17244">
		<tag k="name" v="Vennevollsnabben" />
		<tag k="natural" v="cape" />
		<tag k="ssr:stedsnr" v="750637" />
	</node>
	<node lat="59.78294999677958" lon="11.200763897432454" id="-17257">
		<tag k="name" v="Degrumsøya" />
		<tag k="place" v="islet" />
		<tag k="ssr:stedsnr" v="793874" />
	</node>
	<node lat="59.7587753252162" lon="11.028229726375375" id="-17262">
		<tag k="alt_name" v="Vikstjern" />
		<tag k="name" v="Vikstjernet" />
		<tag k="natural" v="water" />
		<tag k="ssr:stedsnr" v="794355" />
	</node>
	<node lat="59.761498263583576" lon="11.082766122306094" id="-17263">
		<tag k="alt_name" v="Holmetjern" />
		<tag k="name" v="Holmetjernet" />
		<tag k="natural" v="water" />
		<tag k="ssr:stedsnr" v="794356" />
	</node>
	<node lat="59.70863888714202" lon="11.09861389464261" id="-17266">
		<tag k="name" v="Knurrestadvika" />
		<tag k="natural" v="bay" />
		<tag k="ssr:stedsnr" v="811550" />
	</node>
	<node lat="59.76851944863217" lon="11.214241658987406" id="-17267">
		<tag k="name" v="Trollhølet" />
		<tag k="natural" v="bay" />
		<tag k="ssr:stedsnr" v="811551" />
	</node>
	<node lat="59.81262221939414" lon="11.014111111379545" id="-17271">
		<tag k="name" v="Raukilvika" />
		<tag k="natural" v="bay" />
		<tag k="ssr:stedsnr" v="811561" />
	</node>
	<node lat="59.805197225619466" lon="11.04902221940672" id="-17272">
		<tag k="name" v="Fleserudfjorden" />
		<tag k="natural" v="bay" />
		<tag k="ssr:stedsnr" v="811563" />
	</node>
	<node lat="59.75021666751054" lon="11.12975278374135" id="-17273">
		<tag k="name" v="Støttumtjern" />
		<tag k="natural" v="water" />
		<tag k="ssr:stedsnr" v="811565" />
	</node>
	<node lat="59.80622777504672" lon="11.099677775238431" id="-17274">
		<tag k="name" v="Solbergputten" />
		<tag k="natural" v="water" />
		<tag k="ssr:stedsnr" v="811577" />
		<tag k="water" v="pond" />
	</node>
	<node lat="59.771155552034614" lon="11.10251943769543" id="-17275">
		<tag k="name" v="Lindtjern" />
		<tag k="natural" v="water" />
		<tag k="ssr:stedsnr" v="811578" />
	</node>
	<node lat="59.70833055834392" lon="11.216425004745693" id="-17276">
		<tag k="name" v="Tangen" />
		<tag k="natural" v="cape" />
		<tag k="ssr:stedsnr" v="811647" />
	</node>
	<node lat="59.759357186554745" lon="11.200869115483734" id="-17295">
		<tag k="name" v="Hammeren" />
		<tag k="natural" v="cape" />
		<tag k="ssr:stedsnr" v="854894" />
	</node>
	<node lat="59.72707777448282" lon="11.063380547683167" id="-17312">
		<tag k="name" v="Bråtendammen" />
		<tag k="ssr:stedsnr" v="872389" />
		<tag k="waterway" v="dam" />
	</node>
	<node lat="59.72562778154297" lon="11.018105549029677" id="-17316">
		<tag k="name" v="Grasholtvika" />
		<tag k="natural" v="bay" />
		<tag k="ssr:stedsnr" v="872602" />
	</node>
	<node lat="59.782916664354" lon="11.087205554479272" id="-17317">
		<tag k="name" v="Holmevika" />
		<tag k="natural" v="bay" />
		<tag k="ssr:stedsnr" v="872606" />
	</node>
	<node lat="59.81385555718" lon="11.125724994540894" id="-17318">
		<tag k="name" v="Skrubbtjern" />
		<tag k="natural" v="water" />
		<tag k="ssr:stedsnr" v="872607" />
	</node>
	<node lat="59.837852774471905" lon="10.990822230420697" id="-17320">
		<tag k="name" v="Maritjernet" />
		<tag k="natural" v="water" />
		<tag k="ssr:stedsnr" v="872651" />
	</node>
	<node lat="59.784908109972655" lon="11.007423378033586" id="-17342">
		<tag k="name" v="Vinholtjerna" />
		<tag k="natural" v="water" />
		<tag k="ssr:stedsnr" v="1076712" />
		<tag k="water" v="lake" />
	</node>
</osm>
