<?xml version="1.0" encoding="UTF-8"?>
<<<<<<< HEAD
<osm version="0.6" generator="osmapis">
	<node lat="59.80522222569082" lon="11.028858327471596" id="-19631">
		<tag k="name" v="Furukollen" />
		<tag k="natural" v="hill" />
		<tag k="place" v="locality" />
		<tag k="ssr:stedsnr" v="22895" />
	</node>
	<node lat="59.750375003078375" lon="11.028666661862765" id="-19632">
		<tag k="fixme" v="consider natural=peak for the most distinct mountains in the district" />
		<tag k="name" v="Slorbyåsen" />
		<tag k="natural" v="hill" />
		<tag k="place" v="locality" />
		<tag k="ssr:stedsnr" v="22993" />
	</node>
	<node lat="59.83348790029459" lon="11.063501163563984" id="-19651">
		<tag k="fixme" v="consider natural=peak for the most distinct mountains in the district" />
		<tag k="name" v="Grinderkollen" />
		<tag k="natural" v="hill" />
		<tag k="place" v="locality" />
		<tag k="ssr:stedsnr" v="65202" />
	</node>
	<node lat="59.79733333238197" lon="11.119572221205697" id="-19653">
		<tag k="fixme" v="consider natural=peak for the most distinct mountains in the district" />
		<tag k="name" v="Vardåsen" />
		<tag k="natural" v="hill" />
		<tag k="place" v="locality" />
		<tag k="ssr:stedsnr" v="65814" />
	</node>
	<node lat="59.77193055759108" lon="11.115627782219548" id="-19660">
		<tag k="name" v="Eikebergdalen" />
		<tag k="natural" v="valley" />
		<tag k="place" v="locality" />
		<tag k="ssr:stedsnr" v="65914" />
	</node>
	<node lat="59.81457222420154" lon="11.02173332680625" id="-19664">
		<tag k="fixme" v="consider natural=peak for the most distinct mountains in the district" />
		<tag k="name" v="Heiåsen" />
		<tag k="natural" v="hill" />
		<tag k="place" v="locality" />
		<tag k="ssr:stedsnr" v="66262" />
	</node>
	<node lat="59.818827774554386" lon="11.103500005006225" id="-19674">
		<tag k="name" v="Vestre Skallbergdalen" />
		<tag k="natural" v="valley" />
		<tag k="place" v="locality" />
		<tag k="ssr:stedsnr" v="83506" />
	</node>
	<node lat="59.7516138903552" lon="10.976774997869843" id="-19675">
		<tag k="name" v="Langdalen" />
		<tag k="natural" v="valley" />
		<tag k="place" v="locality" />
		<tag k="ssr:stedsnr" v="83511" />
	</node>
	<node lat="59.70328888628565" lon="11.033452774543493" id="-19680">
		<tag k="fixme" v="consider natural=peak for the most distinct mountains in the district" />
		<tag k="name" v="Drageåsen" />
		<tag k="natural" v="hill" />
		<tag k="place" v="locality" />
		<tag k="ssr:stedsnr" v="83988" />
	</node>
	<node lat="59.760111113882346" lon="11.043449992887279" id="-19681">
		<tag k="fixme" v="consider natural=peak for the most distinct mountains in the district" />
		<tag k="name" v="Bileåsen" />
		<tag k="natural" v="hill" />
		<tag k="place" v="locality" />
		<tag k="ssr:stedsnr" v="83991" />
	</node>
	<node lat="59.7697972263831" lon="11.02561111309695" id="-19682">
		<tag k="fixme" v="consider natural=peak for the most distinct mountains in the district" />
		<tag k="name" v="Lysåsen" />
		<tag k="natural" v="hill" />
		<tag k="place" v="locality" />
		<tag k="ssr:stedsnr" v="83998" />
	</node>
	<node lat="59.798158333249084" lon="11.126344446134024" id="-19683">
		<tag k="name" v="Delingsdalen" />
		<tag k="natural" v="valley" />
		<tag k="place" v="locality" />
		<tag k="ssr:stedsnr" v="84535" />
	</node>
	<node lat="59.705200002624444" lon="11.161888893378682" id="-19684">
		<tag k="name" v="Perstadkleiva" />
		<tag k="natural" v="valley" />
		<tag k="place" v="locality" />
		<tag k="ssr:stedsnr" v="84542" />
	</node>
	<node lat="59.83284999697565" lon="11.013563891335714" id="-19694">
		<tag k="fixme" v="consider natural=peak for the most distinct mountains in the district" />
		<tag k="name" v="Tonekollen" />
		<tag k="natural" v="hill" />
		<tag k="place" v="locality" />
		<tag k="ssr:stedsnr" v="247205" />
	</node>
	<node lat="59.76220556001624" lon="10.97370000137611" id="-19697">
		<tag k="fixme" v="consider natural=peak for the most distinct mountains in the district" />
		<tag k="name" v="Kjoneåsen" />
		<tag k="natural" v="hill" />
		<tag k="place" v="locality" />
		<tag k="ssr:stedsnr" v="247391" />
	</node>
	<node lat="59.83395277548084" lon="11.005197224633735" id="-19709">
		<tag k="alt_name" v="Tonekollen, vesle" />
		<tag k="fixme" v="consider natural=peak for the most distinct mountains in the district" />
		<tag k="name" v="Vesle Tonekollen" />
		<tag k="natural" v="hill" />
		<tag k="place" v="locality" />
		<tag k="ssr:stedsnr" v="126204" />
	</node>
	<node lat="59.790125002493475" lon="11.088580558668017" id="-19711">
		<tag k="fixme" v="consider natural=peak for the most distinct mountains in the district" />
		<tag k="name" v="Møystadåsen" />
		<tag k="natural" v="hill" />
		<tag k="place" v="locality" />
		<tag k="ssr:stedsnr" v="126347" />
	</node>
	<node lat="59.813247226584096" lon="10.973066667220715" id="-19724">
		<tag k="name" v="Hestedalen" />
		<tag k="natural" v="valley" />
		<tag k="place" v="locality" />
		<tag k="ssr:stedsnr" v="143525" />
	</node>
	<node lat="59.70896944034633" lon="11.198063879885888" id="-19725">
		<tag k="fixme" v="consider natural=peak for the most distinct mountains in the district" />
		<tag k="name" v="Årsrudåsen" />
		<tag k="natural" v="hill" />
		<tag k="place" v="locality" />
		<tag k="ssr:stedsnr" v="143530" />
	</node>
	<node lat="59.79268332885252" lon="11.167844448723974" id="-19726">
		<tag k="fixme" v="consider natural=peak for the most distinct mountains in the district" />
		<tag k="name" v="Midtåsen" />
		<tag k="natural" v="hill" />
		<tag k="place" v="locality" />
		<tag k="ssr:stedsnr" v="143537" />
	</node>
	<node lat="59.784647218289024" lon="10.987036113138654" id="-19731">
		<tag k="name" v="Hanseleinhøgda" />
		<tag k="natural" v="hill" />
		<tag k="place" v="locality" />
		<tag k="ssr:stedsnr" v="143884" />
	</node>
	<node lat="59.82864444525893" lon="11.05673610476936" id="-19732">
		<tag k="name" v="Skjærmåsahøgda" />
		<tag k="natural" v="hill" />
		<tag k="place" v="locality" />
		<tag k="ssr:stedsnr" v="143894" />
	</node>
	<node lat="59.779661114509906" lon="10.992041663542048" id="-19733">
		<tag k="fixme" v="consider natural=peak for the most distinct mountains in the district" />
		<tag k="name" v="Hølåsen" />
		<tag k="natural" v="hill" />
		<tag k="place" v="locality" />
		<tag k="ssr:stedsnr" v="143978" />
	</node>
	<node lat="59.763325001801746" lon="10.963472223606438" id="-19734">
		<tag k="fixme" v="consider natural=peak for the most distinct mountains in the district" />
		<tag k="name" v="Langskogåsen" />
		<tag k="natural" v="hill" />
		<tag k="place" v="locality" />
		<tag k="ssr:stedsnr" v="143979" />
	</node>
	<node lat="59.7621083378682" lon="11.00941666397135" id="-19735">
		<tag k="fixme" v="consider natural=peak for the most distinct mountains in the district" />
		<tag k="name" v="Nordjordåsen" />
		<tag k="natural" v="hill" />
		<tag k="place" v="locality" />
		<tag k="ssr:stedsnr" v="143988" />
	</node>
	<node lat="59.76317222624422" lon="10.981233332264088" id="-19743">
		<tag k="alt_name" v="Hytteåsen" />
=======
<osm generator="osmapis" version="0.6">
	<node id="-255486" lat="59.7353444466" lon="11.152480564">
		<tag k="fixme" v="consider natural=peak for the most distinct mountains in the district" />
		<tag k="name" v="Lybekkåsen" />
		<tag k="natural" v="hill" />
		<tag k="place" v="locality" />
		<tag k="ssr:stedsnr" v="265564" />
	</node>
	<node id="-255485" lat="59.7581805593" lon="11.1693666693">
		<tag k="name" v="Vårrygg" />
		<tag k="natural" v="ridge" />
		<tag k="place" v="locality" />
		<tag k="ssr:stedsnr" v="265552" />
	</node>
	<node id="-255484" lat="59.8266944439" lon="11.0642916583">
		<tag k="name" v="Korsdalen" />
		<tag k="natural" v="valley" />
		<tag k="place" v="locality" />
		<tag k="ssr:stedsnr" v="265535" />
	</node>
	<node id="-255986" lat="59.7634388924" lon="11.0589249955">
		<tag k="fixme" v="consider natural=peak for the most distinct mountains in the district" />
		<tag k="name" v="Skredderstadkollen" />
		<tag k="natural" v="hill" />
		<tag k="place" v="locality" />
		<tag k="ssr:stedsnr" v="126415" />
	</node>
	<node id="-255984" lat="59.7901250025" lon="11.0885805587">
		<tag k="fixme" v="consider natural=peak for the most distinct mountains in the district" />
		<tag k="name" v="Møystadåsen" />
		<tag k="natural" v="hill" />
		<tag k="place" v="locality" />
		<tag k="ssr:stedsnr" v="126347" />
	</node>
	<node id="-255980" lat="59.8339527755" lon="11.0051972246">
		<tag k="alt_name" v="Tonekollen, vesle" />
		<tag k="fixme" v="consider natural=peak for the most distinct mountains in the district" />
		<tag k="name" v="Vesle Tonekollen" />
		<tag k="natural" v="hill" />
		<tag k="place" v="locality" />
		<tag k="ssr:stedsnr" v="126204" />
	</node>
	<node id="-255462" lat="59.7620611137" lon="11.1011416757">
		<tag k="fixme" v="consider natural=peak for the most distinct mountains in the district" />
		<tag k="name" v="Fjøsåsen" />
		<tag k="natural" v="hill" />
		<tag k="place" v="locality" />
		<tag k="ssr:stedsnr" v="83968" />
	</node>
	<node id="-255461" lat="59.7657583305" lon="11.1116583275">
		<tag k="fixme" v="consider natural=peak for the most distinct mountains in the district" />
		<tag k="name" v="Slottsåsen" />
		<tag k="natural" v="hill" />
		<tag k="place" v="locality" />
		<tag k="ssr:stedsnr" v="83960" />
	</node>
	<node id="-255972" lat="59.7360250019" lon="11.1563277744">
		<tag k="fixme" v="consider natural=peak for the most distinct mountains in the district" />
		<tag k="name" v="Ravnåsen" />
		<tag k="natural" v="hill" />
		<tag k="place" v="locality" />
		<tag k="ssr:stedsnr" v="125119" />
	</node>
	<node id="-255968" lat="59.7642249975" lon="11.0617777746">
		<tag k="name" v="Lauvdalen" />
		<tag k="natural" v="valley" />
		<tag k="place" v="locality" />
		<tag k="ssr:stedsnr" v="84546" />
	</node>
	<node id="-255967" lat="59.8076638877" lon="11.0855888948">
		<tag k="name" v="Kopledalen" />
		<tag k="natural" v="valley" />
		<tag k="place" v="locality" />
		<tag k="ssr:stedsnr" v="84544" />
	</node>
	<node id="-255966" lat="59.7052000026" lon="11.1618888934">
		<tag k="name" v="Perstadkleiva" />
		<tag k="natural" v="valley" />
		<tag k="place" v="locality" />
		<tag k="ssr:stedsnr" v="84542" />
	</node>
	<node id="-255965" lat="59.7981583332" lon="11.1263444461">
		<tag k="name" v="Delingsdalen" />
		<tag k="natural" v="valley" />
		<tag k="place" v="locality" />
		<tag k="ssr:stedsnr" v="84535" />
	</node>
	<node id="-255964" lat="59.7697972264" lon="11.0256111131">
		<tag k="fixme" v="consider natural=peak for the most distinct mountains in the district" />
		<tag k="name" v="Lysåsen" />
		<tag k="natural" v="hill" />
		<tag k="place" v="locality" />
		<tag k="ssr:stedsnr" v="83998" />
	</node>
	<node id="-255963" lat="59.7601111139" lon="11.0434499929">
		<tag k="fixme" v="consider natural=peak for the most distinct mountains in the district" />
		<tag k="name" v="Bileåsen" />
		<tag k="natural" v="hill" />
		<tag k="place" v="locality" />
		<tag k="ssr:stedsnr" v="83991" />
	</node>
	<node id="-255962" lat="59.7032888863" lon="11.0334527745">
		<tag k="fixme" v="consider natural=peak for the most distinct mountains in the district" />
		<tag k="name" v="Drageåsen" />
		<tag k="natural" v="hill" />
		<tag k="place" v="locality" />
		<tag k="ssr:stedsnr" v="83988" />
	</node>
	<node id="-255961" lat="59.708688889" lon="11.0156333342">
		<tag k="name" v="Danseberget" />
		<tag k="natural" v="hill" />
		<tag k="place" v="locality" />
		<tag k="ssr:stedsnr" v="83898" />
	</node>
	<node id="-255957" lat="59.7336583331" lon="11.0682888803">
		<tag k="fixme" v="consider natural=peak for the most distinct mountains in the district" />
		<tag k="name" v="Sørengåsen" />
		<tag k="natural" v="hill" />
		<tag k="place" v="locality" />
		<tag k="ssr:stedsnr" v="83546" />
	</node>
	<node id="-255956" lat="59.7516138904" lon="10.9767749979">
		<tag k="name" v="Langdalen" />
		<tag k="natural" v="valley" />
		<tag k="place" v="locality" />
		<tag k="ssr:stedsnr" v="83511" />
	</node>
	<node id="-255955" lat="59.8188277746" lon="11.103500005">
		<tag k="name" v="Vestre Skallbergdalen" />
		<tag k="natural" v="valley" />
		<tag k="place" v="locality" />
		<tag k="ssr:stedsnr" v="83506" />
	</node>
	<node id="-256008" lat="59.7926833289" lon="11.1678444487">
		<tag k="fixme" v="consider natural=peak for the most distinct mountains in the district" />
		<tag k="name" v="Midtåsen" />
		<tag k="natural" v="hill" />
		<tag k="place" v="locality" />
		<tag k="ssr:stedsnr" v="143537" />
	</node>
	<node id="-255439" lat="59.76220556" lon="10.9737000014">
>>>>>>> e1d4bc35ff8a6074a6f2e91616a996b547c36f15
		<tag k="fixme" v="consider natural=peak for the most distinct mountains in the district" />
		<tag k="name" v="Kjoneåsen" />
		<tag k="natural" v="hill" />
		<tag k="place" v="locality" />
		<tag k="ssr:stedsnr" v="247391" />
	</node>
<<<<<<< HEAD
	<node lat="59.79830833017648" lon="11.034852773632485" id="-19749">
		<tag k="fixme" v="consider natural=peak for the most distinct mountains in the district" />
		<tag k="name" v="Mellomsagåsen" />
		<tag k="natural" v="hill" />
		<tag k="place" v="locality" />
		<tag k="ssr:stedsnr" v="265940" />
	</node>
	<node lat="59.81375555951488" lon="11.102752784668724" id="-19750">
		<tag k="fixme" v="consider natural=peak for the most distinct mountains in the district" />
		<tag k="name" v="St. Hansåsen" />
		<tag k="natural" v="hill" />
		<tag k="place" v="locality" />
		<tag k="ssr:stedsnr" v="265941" />
	</node>
	<node lat="59.81625278063241" lon="11.07500278447809" id="-19751">
		<tag k="fixme" v="consider natural=peak for the most distinct mountains in the district" />
		<tag k="name" v="Fjøsåsen" />
		<tag k="natural" v="hill" />
		<tag k="place" v="locality" />
		<tag k="ssr:stedsnr" v="265947" />
	</node>
	<node lat="59.77654722534306" lon="11.061358325368056" id="-19752">
		<tag k="fixme" v="consider natural=peak for the most distinct mountains in the district" />
		<tag k="name" v="Saumyråsen" />
		<tag k="natural" v="hill" />
		<tag k="place" v="locality" />
		<tag k="ssr:stedsnr" v="265951" />
	</node>
	<node lat="59.747688892627664" lon="11.090266671570047" id="-19753">
		<tag k="fixme" v="consider natural=peak for the most distinct mountains in the district" />
		<tag k="name" v="Brenningsåsen" />
		<tag k="natural" v="hill" />
		<tag k="place" v="locality" />
		<tag k="ssr:stedsnr" v="265958" />
	</node>
	<node lat="59.76705277438291" lon="11.076011118815646" id="-19754">
		<tag k="fixme" v="consider natural=peak for the most distinct mountains in the district" />
		<tag k="name" v="Kutjernåsen" />
		<tag k="natural" v="hill" />
		<tag k="place" v="locality" />
		<tag k="ssr:stedsnr" v="265959" />
	</node>
	<node lat="59.758294447423964" lon="11.076227784889975" id="-19755">
		<tag k="fixme" v="consider natural=peak for the most distinct mountains in the district" />
		<tag k="name" v="Raubakkåsen" />
		<tag k="natural" v="hill" />
		<tag k="place" v="locality" />
		<tag k="ssr:stedsnr" v="265960" />
	</node>
	<node lat="59.758180559274145" lon="11.169366669322327" id="-19769">
		<tag k="name" v="Vårrygg" />
		<tag k="natural" v="ridge" />
		<tag k="place" v="locality" />
		<tag k="ssr:stedsnr" v="265552" />
	</node>
	<node lat="59.73534444656943" lon="11.152480564010203" id="-19770">
		<tag k="fixme" v="consider natural=peak for the most distinct mountains in the district" />
		<tag k="name" v="Lybekkåsen" />
		<tag k="natural" v="hill" />
		<tag k="place" v="locality" />
		<tag k="ssr:stedsnr" v="265564" />
	</node>
	<node lat="59.71616111293994" lon="10.991930552551032" id="-19772">
		<tag k="fixme" v="consider natural=peak for the most distinct mountains in the district" />
		<tag k="name" v="Vittenbergåsen" />
		<tag k="natural" v="hill" />
		<tag k="place" v="locality" />
		<tag k="ssr:stedsnr" v="265982" />
	</node>
	<node lat="59.80672499668103" lon="11.076297223488812" id="-19778">
		<tag k="name" v="Bølerdalen" />
		<tag k="natural" v="valley" />
		<tag k="place" v="locality" />
		<tag k="ssr:stedsnr" v="204461" />
	</node>
	<node lat="59.72607222675751" lon="11.196913883832183" id="-19779">
		<tag k="fixme" v="consider natural=peak for the most distinct mountains in the district" />
		<tag k="name" v="St. Hansåsen" />
		<tag k="natural" v="hill" />
		<tag k="place" v="locality" />
		<tag k="ssr:stedsnr" v="204489" />
	</node>
	<node lat="59.71731666891314" lon="11.043147226524622" id="-19783">
		<tag k="fixme" v="consider natural=peak for the most distinct mountains in the district" />
		<tag k="name" v="Teigåsen" />
		<tag k="natural" v="hill" />
		<tag k="place" v="locality" />
		<tag k="ssr:stedsnr" v="204987" />
	</node>
	<node lat="59.75642777463165" lon="11.00571665790376" id="-19784">
		<tag k="fixme" v="consider natural=peak for the most distinct mountains in the district" />
		<tag k="name" v="Treåsen" />
		<tag k="natural" v="hill" />
		<tag k="place" v="locality" />
		<tag k="ssr:stedsnr" v="204992" />
	</node>
	<node lat="59.76112778118568" lon="11.037158341742732" id="-19785">
		<tag k="fixme" v="consider natural=peak for the most distinct mountains in the district" />
		<tag k="loc_name" v="Strussåsen" />
		<tag k="name" v="Strutsåsen" />
		<tag k="natural" v="hill" />
		<tag k="place" v="locality" />
		<tag k="ssr:stedsnr" v="204995" />
	</node>
	<node lat="59.743630558537326" lon="10.98931389781972" id="-19804">
		<tag k="fixme" v="consider natural=peak for the most distinct mountains in the district" />
		<tag k="name" v="Setraåsen" />
		<tag k="natural" v="hill" />
		<tag k="place" v="locality" />
		<tag k="ssr:stedsnr" v="246572" />
	</node>
	<node lat="59.79854722431894" lon="11.162558326266673" id="-19807">
		<tag k="fixme" v="consider natural=peak for the most distinct mountains in the district" />
		<tag k="name" v="Svenskeåsen" />
		<tag k="natural" v="hill" />
		<tag k="place" v="locality" />
		<tag k="ssr:stedsnr" v="247822" />
	</node>
	<node lat="59.82669444385207" lon="11.064291658269449" id="-19818">
		<tag k="name" v="Korsdalen" />
		<tag k="natural" v="valley" />
		<tag k="place" v="locality" />
		<tag k="ssr:stedsnr" v="265535" />
	</node>
	<node lat="59.82171111419726" lon="11.046297227429985" id="-19822">
		<tag k="fixme" v="consider natural=peak for the most distinct mountains in the district" />
		<tag k="name" v="Brentåsen" />
		<tag k="natural" v="hill" />
		<tag k="place" v="locality" />
		<tag k="ssr:stedsnr" v="265936" />
	</node>
	<node lat="59.800974999493995" lon="11.02074723009928" id="-19823">
		<tag k="fixme" v="consider natural=peak for the most distinct mountains in the district" />
		<tag k="name" v="Nebbåsen" />
		<tag k="natural" v="hill" />
		<tag k="place" v="locality" />
		<tag k="ssr:stedsnr" v="265999" />
	</node>
	<node lat="59.72184999612421" lon="11.11405277717889" id="-19824">
		<tag k="name" v="Lønjedalen" />
=======
	<node id="-256333" lat="59.7483916629" lon="10.9876305615">
		<tag k="fixme" v="consider natural=peak for the most distinct mountains in the district" />
		<tag k="name" v="Lindalsåsen" />
		<tag k="natural" v="hill" />
		<tag k="place" v="locality" />
		<tag k="ssr:stedsnr" v="750975" />
	</node>
	<node id="-255948" lat="59.8145722242" lon="11.0217333268">
		<tag k="fixme" v="consider natural=peak for the most distinct mountains in the district" />
		<tag k="name" v="Heiåsen" />
		<tag k="natural" v="hill" />
		<tag k="place" v="locality" />
		<tag k="ssr:stedsnr" v="66262" />
	</node>
	<node id="-256332" lat="59.7593833339" lon="11.1132638919">
		<tag k="fixme" v="consider natural=peak for the most distinct mountains in the district" />
		<tag k="name" v="Fellaåsen" />
		<tag k="natural" v="hill" />
		<tag k="place" v="locality" />
		<tag k="ssr:stedsnr" v="750961" />
	</node>
	<node id="-255430" lat="59.7436305585" lon="10.9893138978">
		<tag k="fixme" v="consider natural=peak for the most distinct mountains in the district" />
		<tag k="name" v="Setraåsen" />
		<tag k="natural" v="hill" />
		<tag k="place" v="locality" />
		<tag k="ssr:stedsnr" v="246572" />
	</node>
	<node id="-256452" lat="59.8509055513" lon="10.9748500049">
		<tag k="name" v="Østmarka" />
		<tag k="natural" v="wood" />
		<tag k="ssr:stedsnr" v="490224" />
	</node>
	<node id="-255938" lat="59.7973333324" lon="11.1195722212">
		<tag k="fixme" v="consider natural=peak for the most distinct mountains in the district" />
		<tag k="name" v="Vardåsen" />
		<tag k="natural" v="hill" />
		<tag k="place" v="locality" />
		<tag k="ssr:stedsnr" v="65814" />
	</node>
	<node id="-256331" lat="59.7664000026" lon="11.087586114">
		<tag k="fixme" v="consider natural=peak for the most distinct mountains in the district" />
		<tag k="name" v="Gaupåsen" />
		<tag k="natural" v="hill" />
		<tag k="place" v="locality" />
		<tag k="ssr:stedsnr" v="750956" />
	</node>
	<node id="-255422" lat="59.7719305576" lon="11.1156277822">
		<tag k="name" v="Eikebergdalen" />
		<tag k="natural" v="valley" />
		<tag k="place" v="locality" />
		<tag k="ssr:stedsnr" v="65914" />
	</node>
	<node id="-255420" lat="59.8200333292" lon="11.0393583335">
		<tag k="fixme" v="consider natural=peak for the most distinct mountains in the district" />
		<tag k="name" v="Korpåsen" />
		<tag k="natural" v="hill" />
		<tag k="place" v="locality" />
		<tag k="ssr:stedsnr" v="65258" />
	</node>
	<node id="-255418" lat="59.8334879003" lon="11.0635011636">
		<tag k="fixme" v="consider natural=peak for the most distinct mountains in the district" />
		<tag k="name" v="Grinderkollen" />
		<tag k="natural" v="hill" />
		<tag k="place" v="locality" />
		<tag k="ssr:stedsnr" v="65202" />
	</node>
	<node id="-255413" lat="59.7635694489" lon="11.1043083315">
		<tag k="fixme" v="consider natural=peak for the most distinct mountains in the district" />
		<tag k="name" v="Ravnåsen" />
		<tag k="natural" v="hill" />
		<tag k="place" v="locality" />
		<tag k="ssr:stedsnr" v="308507" />
	</node>
	<node id="-256414" lat="59.7566500045" lon="10.9814027702">
		<tag k="alt_name" v="Bråteåsen" />
		<tag k="fixme" v="consider natural=peak for the most distinct mountains in the district" />
		<tag k="name" v="Bråtaåsen" />
		<tag k="natural" v="hill" />
		<tag k="place" v="locality" />
		<tag k="ssr:stedsnr" v="854391" />
	</node>
	<node id="-256433" lat="59.7666444415" lon="11.0512527852">
		<tag k="fixme" v="consider natural=peak for the most distinct mountains in the district" />
		<tag k="name" v="Mareåsen" />
		<tag k="natural" v="hill" />
		<tag k="place" v="locality" />
		<tag k="ssr:stedsnr" v="872990" />
	</node>
	<node id="-256432" lat="59.7439611071" lon="11.0132138882">
		<tag k="fixme" v="consider natural=peak for the most distinct mountains in the district" />
		<tag k="name" v="Høgås" />
		<tag k="natural" v="hill" />
		<tag k="place" v="locality" />
		<tag k="ssr:stedsnr" v="872988" />
	</node>
	<node id="-256072" lat="59.7611277812" lon="11.0371583417">
		<tag k="fixme" v="consider natural=peak for the most distinct mountains in the district" />
		<tag k="loc_name" v="Strussåsen" />
		<tag k="name" v="Strutsåsen" />
		<tag k="natural" v="hill" />
		<tag k="place" v="locality" />
		<tag k="ssr:stedsnr" v="204995" />
	</node>
	<node id="-255406" lat="59.7489305536" lon="10.9802333407">
		<tag k="name" v="Oremyrdalen" />
		<tag k="natural" v="valley" />
		<tag k="place" v="locality" />
		<tag k="ssr:stedsnr" v="22530" />
	</node>
	<node id="-255405" lat="59.820761111" lon="11.0981833336">
		<tag k="name" v="Grasåsdalen" />
		<tag k="natural" v="valley" />
		<tag k="place" v="locality" />
		<tag k="ssr:stedsnr" v="22524" />
	</node>
	<node id="-256242" lat="59.7728833309" lon="11.0081500005">
		<tag k="alt_name" v="Vinholåsen" />
		<tag k="fixme" v="consider natural=peak for the most distinct mountains in the district" />
		<tag k="name" v="Vikholåsen" />
		<tag k="natural" v="hill" />
		<tag k="place" v="locality" />
		<tag k="ssr:stedsnr" v="550410" />
	</node>
	<node id="-256426" lat="59.840844441" lon="11.1120861082">
		<tag k="fixme" v="consider natural=peak for the most distinct mountains in the district" />
		<tag k="name" v="Tangenåsen" />
		<tag k="natural" v="hill" />
		<tag k="place" v="locality" />
		<tag k="ssr:stedsnr" v="872327" />
	</node>
	<node id="-256422" lat="59.7579250035" lon="11.1627972268">
		<tag k="name" v="Enebakkdalen" />
>>>>>>> e1d4bc35ff8a6074a6f2e91616a996b547c36f15
		<tag k="natural" v="valley" />
		<tag k="place" v="locality" />
		<tag k="ssr:stedsnr" v="854926" />
	</node>
<<<<<<< HEAD
	<node lat="59.784405556084714" lon="11.103286116670926" id="-19825">
		<tag k="name" v="Fjøsdalen" />
		<tag k="natural" v="valley" />
		<tag k="place" v="locality" />
		<tag k="ssr:stedsnr" v="266509" />
	</node>
	<node lat="59.81994999739476" lon="11.130111103794617" id="-19838">
		<tag k="fixme" v="consider natural=peak for the most distinct mountains in the district" />
		<tag k="name" v="Kalvåsen" />
		<tag k="natural" v="hill" />
		<tag k="place" v="locality" />
		<tag k="ssr:stedsnr" v="326558" />
	</node>
	<node lat="59.738252781548766" lon="11.162338882082569" id="-19839">
		<tag k="fixme" v="consider natural=peak for the most distinct mountains in the district" />
		<tag k="name" v="Grubberudåsen" />
		<tag k="natural" v="hill" />
		<tag k="place" v="locality" />
		<tag k="ssr:stedsnr" v="326567" />
	</node>
	<node lat="59.74032500332005" lon="11.129058332745975" id="-19840">
		<tag k="fixme" v="consider natural=peak for the most distinct mountains in the district" />
		<tag k="name" v="Midtåsen" />
		<tag k="natural" v="hill" />
		<tag k="place" v="locality" />
		<tag k="ssr:stedsnr" v="326571" />
	</node>
	<node lat="59.69270278130932" lon="11.201988881956835" id="-19863">
		<tag k="fixme" v="consider natural=peak for the most distinct mountains in the district" />
		<tag k="name" v="Grinnaåsen" />
		<tag k="natural" v="hill" />
		<tag k="place" v="locality" />
		<tag k="ssr:stedsnr" v="386517" />
	</node>
	<node lat="59.78458333793357" lon="11.157808325093981" id="-19864">
		<tag k="fixme" v="consider natural=peak for the most distinct mountains in the district" />
		<tag k="name" v="Tjoneåsen" />
		<tag k="natural" v="hill" />
		<tag k="place" v="locality" />
		<tag k="ssr:stedsnr" v="386524" />
	</node>
	<node lat="59.85090555128954" lon="10.97485000485798" id="-19880">
		<tag k="name" v="Østmarka" />
		<tag k="natural" v="wood" />
		<tag k="ssr:stedsnr" v="490224" />
	</node>
	<node lat="59.71055277409595" lon="10.981855563697293" id="-19885">
		<tag k="fixme" v="consider natural=peak for the most distinct mountains in the district" />
		<tag k="name" v="Teigåsen" />
		<tag k="natural" v="hill" />
		<tag k="place" v="locality" />
		<tag k="ssr:stedsnr" v="428526" />
	</node>
	<node lat="59.76430277820401" lon="11.210666659598582" id="-19889">
		<tag k="fixme" v="consider natural=peak for the most distinct mountains in the district" />
		<tag k="name" v="Solbergåsen" />
		<tag k="natural" v="hill" />
		<tag k="place" v="locality" />
		<tag k="ssr:stedsnr" v="490886" />
	</node>
	<node lat="59.786888889626674" lon="11.126144436374705" id="-19896">
		<tag k="fixme" v="consider natural=peak for the most distinct mountains in the district" />
		<tag k="name" v="Festningsåsen" />
		<tag k="natural" v="hill" />
		<tag k="place" v="locality" />
		<tag k="ssr:stedsnr" v="430856" />
	</node>
	<node lat="59.785711115444485" lon="10.98336943692644" id="-19904">
		<tag k="name" v="Lønjedalen" />
		<tag k="natural" v="valley" />
		<tag k="place" v="locality" />
		<tag k="ssr:stedsnr" v="447503" />
	</node>
	<node lat="59.73543889137689" lon="11.180091667995582" id="-19905">
		<tag k="fixme" v="consider natural=peak for the most distinct mountains in the district" />
		<tag k="name" v="Huserudåsen" />
		<tag k="natural" v="hill" />
		<tag k="place" v="locality" />
		<tag k="ssr:stedsnr" v="447508" />
	</node>
	<node lat="59.737136110474964" lon="11.120086119919348" id="-19906">
		<tag k="fixme" v="consider natural=peak for the most distinct mountains in the district" />
		<tag k="name" v="Brenningåsen" />
		<tag k="natural" v="hill" />
		<tag k="place" v="locality" />
		<tag k="ssr:stedsnr" v="447517" />
	</node>
	<node lat="59.70293889091552" lon="11.067727769961694" id="-19907">
		<tag k="fixme" v="consider natural=peak for the most distinct mountains in the district" />
		<tag k="name" v="Skåneåsen" />
		<tag k="natural" v="hill" />
		<tag k="place" v="locality" />
		<tag k="ssr:stedsnr" v="447524" />
	</node>
	<node lat="59.72003888704572" lon="11.112025008454683" id="-19908">
		<tag k="fixme" v="consider natural=peak for the most distinct mountains in the district" />
		<tag k="name" v="Sandåsen" />
		<tag k="natural" v="hill" />
		<tag k="place" v="locality" />
		<tag k="ssr:stedsnr" v="447525" />
	</node>
	<node lat="59.821283334586695" lon="11.054166673346096" id="-19909">
		<tag k="fixme" v="consider natural=peak for the most distinct mountains in the district" />
		<tag k="name" v="Støttumåsen" />
		<tag k="natural" v="hill" />
		<tag k="place" v="locality" />
		<tag k="ssr:stedsnr" v="447928" />
	</node>
	<node lat="59.83532500217514" lon="10.991461106121267" id="-19910">
		<tag k="name" v="Tonevannkalven" />
		<tag k="natural" v="hill" />
		<tag k="place" v="locality" />
		<tag k="ssr:stedsnr" v="447870" />
	</node>
	<node lat="59.7846694428572" lon="11.088986112348776" id="-19911">
		<tag k="name" v="Pølseberget" />
		<tag k="natural" v="hill" />
		<tag k="place" v="locality" />
		<tag k="ssr:stedsnr" v="447873" />
	</node>
	<node lat="59.74110833434191" lon="11.114338884606829" id="-19931">
		<tag k="fixme" v="consider natural=peak for the most distinct mountains in the district" />
		<tag k="name" v="Sloråsen" />
=======
	<node id="-255906" lat="59.7094111074" lon="11.2027166689">
		<tag k="name" v="Trolldalen" />
		<tag k="natural" v="valley" />
		<tag k="place" v="locality" />
		<tag k="ssr:stedsnr" v="23572" />
	</node>
	<node id="-256411" lat="59.8264083367" lon="10.9562833253">
		<tag k="fixme" v="consider natural=peak for the most distinct mountains in the district" />
		<tag k="name" v="Mellomåsen" />
		<tag k="natural" v="hill" />
		<tag k="place" v="locality" />
		<tag k="ssr:stedsnr" v="854260" />
	</node>
	<node id="-255903" lat="59.8052222257" lon="11.0288583275">
		<tag k="name" v="Furukollen" />
		<tag k="natural" v="hill" />
		<tag k="place" v="locality" />
		<tag k="ssr:stedsnr" v="22895" />
	</node>
	<node id="-255902" lat="59.7503750031" lon="11.0286666619">
		<tag k="fixme" v="consider natural=peak for the most distinct mountains in the district" />
		<tag k="name" v="Slorbyåsen" />
		<tag k="natural" v="hill" />
		<tag k="place" v="locality" />
		<tag k="ssr:stedsnr" v="22993" />
	</node>
	<node id="-255901" lat="59.7410527755" lon="11.0838361083">
		<tag k="fixme" v="consider natural=peak for the most distinct mountains in the district" />
		<tag k="name" v="Slottsåsen" />
		<tag k="natural" v="hill" />
		<tag k="place" v="locality" />
		<tag k="ssr:stedsnr" v="22965" />
	</node>
	<node id="-255900" lat="59.749216668" lon="11.0826749937">
		<tag k="fixme" v="consider natural=peak for the most distinct mountains in the district" />
		<tag k="name" v="Rødkleivåsen" />
		<tag k="natural" v="hill" />
		<tag k="place" v="locality" />
		<tag k="ssr:stedsnr" v="22956" />
	</node>
	<node id="-255899" lat="59.7707944425" lon="11.0901083401">
		<tag k="fixme" v="consider natural=peak for the most distinct mountains in the district" />
		<tag k="name" v="Frostaåsen" />
		<tag k="natural" v="hill" />
		<tag k="place" v="locality" />
		<tag k="ssr:stedsnr" v="22954" />
	</node>
	<node id="-255898" lat="59.7761388869" lon="11.0874166646">
		<tag k="fixme" v="consider natural=peak for the most distinct mountains in the district" />
		<tag k="name" v="Bøståsen" />
		<tag k="natural" v="hill" />
		<tag k="place" v="locality" />
		<tag k="ssr:stedsnr" v="22953" />
	</node>
	<node id="-255897" lat="59.8065527765" lon="11.1116388914">
		<tag k="fixme" v="consider natural=peak for the most distinct mountains in the district" />
		<tag k="name" v="Iletjernsåsen" />
		<tag k="natural" v="hill" />
		<tag k="place" v="locality" />
		<tag k="ssr:stedsnr" v="22947" />
	</node>
	<node id="-255895" lat="59.7155638878" lon="11.1426611167">
		<tag k="fixme" v="consider natural=peak for the most distinct mountains in the district" />
		<tag k="name" v="Bermerudåsen" />
		<tag k="natural" v="hill" />
		<tag k="place" v="locality" />
		<tag k="ssr:stedsnr" v="22561" />
	</node>
	<node id="-255894" lat="59.7136583297" lon="11.1673805581">
		<tag k="fixme" v="consider natural=peak for the most distinct mountains in the district" />
		<tag k="name" v="Hagaåsen" />
		<tag k="natural" v="hill" />
		<tag k="place" v="locality" />
		<tag k="ssr:stedsnr" v="22557" />
	</node>
	<node id="-256405" lat="59.8455805573" lon="10.9806222238">
		<tag k="fixme" v="consider natural=peak for the most distinct mountains in the district" />
		<tag k="name" v="Liseterkollen" />
		<tag k="natural" v="hill" />
		<tag k="place" v="locality" />
		<tag k="ssr:stedsnr" v="817811" />
	</node>
	<node id="-256067" lat="59.77077778" lon="11.0696277863">
		<tag k="name" v="Hengeberget" />
		<tag k="natural" v="hill" />
		<tag k="place" v="locality" />
		<tag k="ssr:stedsnr" v="204894" />
	</node>
	<node id="-256152" lat="59.783836112" lon="11.0621416683">
		<tag k="name" v="Løksmørhøgda" />
		<tag k="natural" v="hill" />
		<tag k="place" v="locality" />
		<tag k="ssr:stedsnr" v="326975" />
	</node>
	<node id="-256429" lat="59.7357444464" lon="11.0958416655">
		<tag k="fixme" v="consider natural=peak for the most distinct mountains in the district" />
		<tag k="name" v="Hvitsteinåsen" />
		<tag k="natural" v="hill" />
		<tag k="place" v="locality" />
		<tag k="ssr:stedsnr" v="872592" />
	</node>
	<node id="-256395" lat="59.7703722193" lon="11.0874083277">
		<tag k="name" v="Frostadalen" />
		<tag k="natural" v="valley" />
		<tag k="place" v="locality" />
		<tag k="ssr:stedsnr" v="812555" />
	</node>
	<node id="-256394" lat="59.7908583315" lon="11.08309167">
		<tag k="name" v="Hanebrudalen" />
		<tag k="natural" v="valley" />
		<tag k="place" v="locality" />
		<tag k="ssr:stedsnr" v="812551" />
	</node>
	<node id="-256393" lat="59.7648749958" lon="11.0984277734">
		<tag k="name" v="Porten" />
		<tag k="natural" v="valley" />
		<tag k="place" v="locality" />
		<tag k="ssr:stedsnr" v="812545" />
	</node>
	<node id="-256392" lat="59.7411166654" lon="11.1416222194">
		<tag k="name" v="Holttjerntoppen" />
		<tag k="natural" v="hill" />
		<tag k="place" v="locality" />
		<tag k="ssr:stedsnr" v="811966" />
	</node>
	<node id="-256391" lat="59.8205638911" lon="11.0301305486">
		<tag k="alt_name" v="Deliseterhøgda" />
		<tag k="name" v="Dæliseterhøgda" />
		<tag k="natural" v="hill" />
		<tag k="place" v="locality" />
		<tag k="ssr:stedsnr" v="811883" />
	</node>
	<node id="-256390" lat="59.7949805583" lon="11.0914194396">
		<tag k="name" v="Brannkula" />
		<tag k="natural" v="hill" />
		<tag k="place" v="locality" />
		<tag k="ssr:stedsnr" v="811876" />
	</node>
	<node id="-256389" lat="59.801086115" lon="10.9845583415">
		<tag k="name" v="Gørrtjernsrabben" />
		<tag k="natural" v="hill" />
		<tag k="place" v="locality" />
		<tag k="ssr:stedsnr" v="811854" />
	</node>
	<node id="-256150" lat="59.7759694411" lon="11.092680563">
		<tag k="fixme" v="consider natural=peak for the most distinct mountains in the district" />
		<tag k="name" v="Oppholdstjernåsen" />
		<tag k="natural" v="hill" />
		<tag k="place" v="locality" />
		<tag k="ssr:stedsnr" v="326965" />
	</node>
	<node id="-256406" lat="59.7020805584" lon="11.0255055602">
		<tag k="fixme" v="consider natural=peak for the most distinct mountains in the district" />
		<tag k="name" v="Mjærskaukollen" />
		<tag k="natural" v="hill" />
		<tag k="place" v="locality" />
		<tag k="ssr:stedsnr" v="853382" />
	</node>
	<node id="-256120" lat="59.8040361129" lon="11.1245250077">
		<tag k="fixme" v="consider natural=peak for the most distinct mountains in the district" />
		<tag k="name" v="Fageråsen" />
>>>>>>> e1d4bc35ff8a6074a6f2e91616a996b547c36f15
		<tag k="natural" v="hill" />
		<tag k="old_name" v="Storåsen" />
		<tag k="place" v="locality" />
<<<<<<< HEAD
		<tag k="ssr:stedsnr" v="489092" />
	</node>
	<node lat="59.82222499614582" lon="11.105991665305645" id="-19938">
		<tag k="fixme" v="consider natural=peak for the most distinct mountains in the district" />
		<tag k="name" v="Trollåsen" />
		<tag k="natural" v="hill" />
		<tag k="place" v="locality" />
		<tag k="ssr:stedsnr" v="507082" />
	</node>
	<node lat="59.82814166385576" lon="10.962691660481546" id="-19946">
		<tag k="fixme" v="consider natural=peak for the most distinct mountains in the district" />
		<tag k="name" v="Hamliåsen" />
		<tag k="natural" v="hill" />
		<tag k="place" v="locality" />
		<tag k="ssr:stedsnr" v="508985" />
	</node>
	<node lat="59.791997221573844" lon="10.991263888110716" id="-19947">
		<tag k="fixme" v="consider natural=peak for the most distinct mountains in the district" />
		<tag k="name" v="Grasåsen" />
		<tag k="natural" v="hill" />
		<tag k="place" v="locality" />
		<tag k="ssr:stedsnr" v="508986" />
	</node>
	<node lat="59.75588888478353" lon="11.037363882729379" id="-19948">
		<tag k="fixme" v="consider natural=peak for the most distinct mountains in the district" />
		<tag k="name" v="Seteråsen" />
		<tag k="natural" v="hill" />
		<tag k="place" v="locality" />
		<tag k="ssr:stedsnr" v="508993" />
	</node>
	<node lat="59.76593333058676" lon="11.029091673478703" id="-19949">
		<tag k="fixme" v="consider natural=peak for the most distinct mountains in the district" />
		<tag k="name" v="Venåsen" />
		<tag k="natural" v="hill" />
		<tag k="place" v="locality" />
		<tag k="ssr:stedsnr" v="508994" />
	</node>
	<node lat="59.76917500013177" lon="11.057061114375982" id="-19950">
		<tag k="fixme" v="consider natural=peak for the most distinct mountains in the district" />
		<tag k="name" v="Delingsåsen" />
		<tag k="natural" v="hill" />
		<tag k="place" v="locality" />
		<tag k="ssr:stedsnr" v="508999" />
	</node>
	<node lat="59.695547218574845" lon="11.037855563692627" id="-19960">
		<tag k="fixme" v="consider natural=peak for the most distinct mountains in the district" />
		<tag k="name" v="Stoltenbergåsen" />
		<tag k="natural" v="hill" />
		<tag k="place" v="locality" />
		<tag k="ssr:stedsnr" v="690217" />
	</node>
	<node lat="59.77034166256086" lon="11.06585555390782" id="-19969">
		<tag k="fixme" v="consider natural=peak for the most distinct mountains in the district" />
		<tag k="name" v="Torgåsen" />
		<tag k="natural" v="hill" />
		<tag k="place" v="locality" />
		<tag k="ssr:stedsnr" v="690956" />
	</node>
	<node lat="59.74922777873122" lon="11.077911105987537" id="-19970">
		<tag k="fixme" v="consider natural=peak for the most distinct mountains in the district" />
		<tag k="name" v="Tørjeåsen" />
		<tag k="natural" v="hill" />
		<tag k="place" v="locality" />
		<tag k="ssr:stedsnr" v="690960" />
	</node>
	<node lat="59.76662222342691" lon="11.097100002625623" id="-19971">
		<tag k="fixme" v="consider natural=peak for the most distinct mountains in the district" />
		<tag k="name" v="Portåsen" />
		<tag k="natural" v="hill" />
		<tag k="place" v="locality" />
		<tag k="ssr:stedsnr" v="690972" />
	</node>
	<node lat="59.78870555926886" lon="11.044969451081412" id="-19972">
		<tag k="fixme" v="consider natural=peak for the most distinct mountains in the district" />
		<tag k="name" v="Kartåsen" />
		<tag k="natural" v="hill" />
		<tag k="place" v="locality" />
		<tag k="ssr:stedsnr" v="690998" />
	</node>
	<node lat="59.81658611189267" lon="10.999858331606688" id="-19975">
		<tag k="fixme" v="consider natural=peak for the most distinct mountains in the district" />
		<tag k="name" v="Vangsåsen" />
		<tag k="natural" v="hill" />
		<tag k="place" v="locality" />
		<tag k="ssr:stedsnr" v="691971" />
	</node>
	<node lat="59.80238055816946" lon="11.16035278521757" id="-19982">
		<tag k="name" v="Rasmuslia" />
		<tag k="natural" v="slope" />
		<tag k="place" v="locality" />
		<tag k="ssr:stedsnr" v="568510" />
	</node>
	<node lat="59.76242500169556" lon="11.073986117045557" id="-19985">
		<tag k="fixme" v="consider natural=peak for the most distinct mountains in the district" />
		<tag k="name" v="Holmetjernåsen" />
		<tag k="natural" v="hill" />
		<tag k="place" v="locality" />
		<tag k="ssr:stedsnr" v="568955" />
	</node>
	<node lat="59.76632777703475" lon="11.063497217551785" id="-19986">
		<tag k="fixme" v="consider natural=peak for the most distinct mountains in the district" />
		<tag k="name" v="Grevlingåsen" />
		<tag k="natural" v="hill" />
		<tag k="place" v="locality" />
		<tag k="ssr:stedsnr" v="568956" />
	</node>
	<node lat="59.7634444487716" lon="11.087591666317792" id="-19987">
		<tag k="fixme" v="consider natural=peak for the most distinct mountains in the district" />
		<tag k="name" v="Seteråsen" />
		<tag k="natural" v="hill" />
		<tag k="place" v="locality" />
		<tag k="ssr:stedsnr" v="568965" />
	</node>
	<node lat="59.70523055389826" lon="11.103791669914907" id="-19988">
		<tag k="name" v="Nosakollen" />
		<tag k="natural" v="hill" />
		<tag k="place" v="locality" />
		<tag k="ssr:stedsnr" v="568969" />
	</node>
	<node lat="59.799744442832065" lon="11.14253888199026" id="-19993">
		<tag k="name" v="Elgotdalen" />
		<tag k="natural" v="valley" />
		<tag k="place" v="locality" />
		<tag k="ssr:stedsnr" v="569514" />
	</node>
	<node lat="59.81464722547583" lon="11.120986104634847" id="-19994">
		<tag k="name" v="Askedalen" />
		<tag k="natural" v="valley" />
		<tag k="place" v="locality" />
		<tag k="ssr:stedsnr" v="569516" />
	</node>
	<node lat="59.68906388814127" lon="11.160922228710792" id="-19995">
		<tag k="name" v="Sandemdalen" />
		<tag k="natural" v="valley" />
		<tag k="place" v="locality" />
		<tag k="ssr:stedsnr" v="569524" />
	</node>
	<node lat="59.760299996721116" lon="10.98405277309184" id="-20002">
		<tag k="alt_name" v="Snelledalen" />
		<tag k="name" v="Snelldalen" />
		<tag k="natural" v="valley" />
		<tag k="place" v="locality" />
		<tag k="ssr:stedsnr" v="611390" />
	</node>
	<node lat="59.80253055546651" lon="11.033850004938865" id="-20011">
		<tag k="name" v="Nedsagmoen" />
		<tag k="place" v="locality" />
		<tag k="ssr:stedsnr" v="629541" />
	</node>
	<node lat="59.820588889950194" lon="11.013663881438504" id="-20015">
		<tag k="name" v="Luttjernhøgda" />
		<tag k="natural" v="hill" />
		<tag k="place" v="locality" />
		<tag k="ssr:stedsnr" v="629910" />
	</node>
	<node lat="59.80556110798764" lon="11.054583335887497" id="-20016">
		<tag k="fixme" v="consider natural=peak for the most distinct mountains in the district" />
		<tag k="name" v="Fleserudåsen" />
		<tag k="natural" v="hill" />
		<tag k="place" v="locality" />
		<tag k="ssr:stedsnr" v="629956" />
	</node>
	<node lat="59.84566944428916" lon="11.119522223713318" id="-20025">
		<tag k="name" v="St. Hansberget" />
		<tag k="natural" v="hill" />
		<tag k="place" v="locality" />
		<tag k="ssr:stedsnr" v="690340" />
	</node>
	<node lat="59.78458611337096" lon="11.024788889613081" id="-20035">
		<tag k="name" v="Rottjerndalen" />
		<tag k="natural" v="valley" />
		<tag k="place" v="locality" />
		<tag k="ssr:stedsnr" v="690578" />
	</node>
	<node lat="59.76101388869987" lon="11.052138888685796" id="-20036">
		<tag k="name" v="Husebydalen" />
		<tag k="natural" v="valley" />
		<tag k="place" v="locality" />
		<tag k="ssr:stedsnr" v="690579" />
	</node>
	<node lat="59.825297219062904" lon="10.975108332827965" id="-20037">
		<tag k="name" v="Gråbeindalen" />
		<tag k="natural" v="valley" />
		<tag k="place" v="locality" />
		<tag k="ssr:stedsnr" v="690580" />
	</node>
	<node lat="59.762919442910544" lon="11.033241675151391" id="-20038">
		<tag k="name" v="Otermoen" />
		<tag k="place" v="locality" />
		<tag k="ssr:stedsnr" v="690582" />
	</node>
	<node lat="59.797625000572644" lon="11.15621666284745" id="-20039">
		<tag k="fixme" v="consider natural=peak for the most distinct mountains in the district" />
		<tag k="name" v="Høgåsen" />
		<tag k="natural" v="hill" />
		<tag k="place" v="locality" />
		<tag k="ssr:stedsnr" v="690588" />
	</node>
	<node lat="59.7756666632648" lon="11.126727774245406" id="-20040">
		<tag k="fixme" v="consider natural=peak for the most distinct mountains in the district" />
		<tag k="name" v="Høgås" />
		<tag k="natural" v="hill" />
		<tag k="place" v="locality" />
		<tag k="ssr:stedsnr" v="690592" />
	</node>
	<node lat="59.74148055786691" lon="11.15570833239177" id="-20041">
		<tag k="fixme" v="consider natural=peak for the most distinct mountains in the district" />
		<tag k="name" v="Kølabonnåsen" />
		<tag k="natural" v="hill" />
		<tag k="place" v="locality" />
		<tag k="ssr:stedsnr" v="690593" />
	</node>
	<node lat="59.70893333304754" lon="11.154477782996835" id="-20042">
		<tag k="fixme" v="consider natural=peak for the most distinct mountains in the district" />
		<tag k="name" v="Brevikåsen" />
		<tag k="natural" v="hill" />
		<tag k="place" v="locality" />
		<tag k="ssr:stedsnr" v="690597" />
	</node>
	<node lat="59.76193333042875" lon="11.057758332156448" id="-20045">
		<tag k="name" v="Nebben" />
		<tag k="natural" v="hill" />
		<tag k="place" v="locality" />
		<tag k="ssr:stedsnr" v="690905" />
	</node>
	<node lat="59.753397224969596" lon="11.070841665800135" id="-20046">
		<tag k="fixme" v="consider natural=peak for the most distinct mountains in the district" />
		<tag k="name" v="Geitåsen" />
		<tag k="natural" v="hill" />
		<tag k="place" v="locality" />
		<tag k="ssr:stedsnr" v="690976" />
	</node>
	<node lat="59.78803333332192" lon="11.100552779295247" id="-20054">
		<tag k="alt_name" v="Høgtopp" />
		<tag k="fixme" v="consider natural=peak for the most distinct mountains in the district" />
		<tag k="name" v="Høgtoppen" />
		<tag k="natural" v="hill" />
		<tag k="place" v="locality" />
		<tag k="ssr:stedsnr" v="733808" />
	</node>
	<node lat="59.78166389343914" lon="11.108172214291566" id="-20059">
		<tag k="name" v="Moen" />
		<tag k="place" v="locality" />
		<tag k="ssr:stedsnr" v="750520" />
	</node>
	<node lat="59.76052222514455" lon="11.050049998855208" id="-20060">
		<tag k="name" v="Bjerkemoen" />
		<tag k="place" v="locality" />
		<tag k="ssr:stedsnr" v="750522" />
	</node>
	<node lat="59.79541111159647" lon="11.041458336835234" id="-20066">
		<tag k="fixme" v="consider natural=peak for the most distinct mountains in the district" />
		<tag k="name" v="Grisetjernsåsen" />
		<tag k="natural" v="hill" />
		<tag k="place" v="locality" />
		<tag k="ssr:stedsnr" v="750929" />
	</node>
	<node lat="59.799472218041764" lon="11.090216671034234" id="-20067">
		<tag k="fixme" v="consider natural=peak for the most distinct mountains in the district" />
		<tag k="name" v="Dreieråsen" />
		<tag k="natural" v="hill" />
		<tag k="place" v="locality" />
		<tag k="ssr:stedsnr" v="750944" />
	</node>
	<node lat="59.76640000258463" lon="11.087586113952227" id="-20068">
		<tag k="fixme" v="consider natural=peak for the most distinct mountains in the district" />
		<tag k="name" v="Gaupåsen" />
		<tag k="natural" v="hill" />
		<tag k="place" v="locality" />
		<tag k="ssr:stedsnr" v="750956" />
	</node>
	<node lat="59.75938333385219" lon="11.113263891903953" id="-20069">
		<tag k="fixme" v="consider natural=peak for the most distinct mountains in the district" />
		<tag k="name" v="Fellaåsen" />
		<tag k="natural" v="hill" />
		<tag k="place" v="locality" />
		<tag k="ssr:stedsnr" v="750961" />
	</node>
	<node lat="59.74839166285932" lon="10.987630561508164" id="-20070">
		<tag k="fixme" v="consider natural=peak for the most distinct mountains in the district" />
		<tag k="name" v="Lindalsåsen" />
		<tag k="natural" v="hill" />
		<tag k="place" v="locality" />
		<tag k="ssr:stedsnr" v="750975" />
	</node>
	<node lat="59.71980000377666" lon="10.988994437119743" id="-20071">
		<tag k="fixme" v="consider natural=peak for the most distinct mountains in the district" />
		<tag k="name" v="Tralåsen" />
		<tag k="natural" v="hill" />
		<tag k="place" v="locality" />
		<tag k="ssr:stedsnr" v="750979" />
	</node>
	<node lat="59.71993055842187" lon="11.029686107989528" id="-20072">
		<tag k="fixme" v="consider natural=peak for the most distinct mountains in the district" />
		<tag k="name" v="Vanndamåsen" />
		<tag k="natural" v="hill" />
		<tag k="place" v="locality" />
		<tag k="ssr:stedsnr" v="750983" />
	</node>
	<node lat="59.70631944642543" lon="11.203125007342841" id="-20078">
		<tag k="fixme" v="consider natural=peak for the most distinct mountains in the district" />
		<tag k="name" v="Borudåsen" />
		<tag k="natural" v="hill" />
		<tag k="place" v="locality" />
		<tag k="ssr:stedsnr" v="792830" />
	</node>
	<node lat="59.818652774295444" lon="11.027238890969656" id="-20101">
		<tag k="alt_name" v="Vestre Deliseterdalen" />
		<tag k="name" v="Vestre Dæliseterdalen" />
=======
		<tag k="ssr:stedsnr" v="325099" />
	</node>
	<node id="-256149" lat="59.7740555582" lon="11.0788888861">
		<tag k="fixme" v="consider natural=peak for the most distinct mountains in the district" />
		<tag k="name" v="Lauvåsen" />
		<tag k="natural" v="hill" />
		<tag k="place" v="locality" />
		<tag k="ssr:stedsnr" v="326960" />
	</node>
	<node id="-256377" lat="59.8153194401" lon="11.1479638823">
		<tag k="fixme" v="consider natural=peak for the most distinct mountains in the district" />
		<tag k="name" v="Sandås" />
		<tag k="natural" v="hill" />
		<tag k="place" v="locality" />
		<tag k="ssr:stedsnr" v="811525" />
	</node>
	<node id="-256376" lat="59.8292333361" lon="11.0458638848">
		<tag k="name" v="Grasdalen" />
		<tag k="natural" v="valley" />
		<tag k="place" v="locality" />
		<tag k="ssr:stedsnr" v="811509" />
	</node>
	<node id="-256375" lat="59.8186527743" lon="11.027238891">
		<tag k="alt_name" v="Vestre Deliseterdalen" />
		<tag k="name" v="Vestre Dæliseterdalen" />
		<tag k="natural" v="valley" />
		<tag k="place" v="locality" />
		<tag k="ssr:stedsnr" v="811507" />
	</node>
	<node id="-255862" lat="59.7740027745" lon="11.0205555547">
		<tag k="fixme" v="consider natural=peak for the most distinct mountains in the district" />
		<tag k="name" v="Kristenseteråsen" />
		<tag k="natural" v="hill" />
		<tag k="place" v="locality" />
		<tag k="ssr:stedsnr" v="915404" />
	</node>
	<node id="-256019" lat="59.7560055555" lon="11.0706111061">
		<tag k="fixme" v="consider natural=peak for the most distinct mountains in the district" />
		<tag k="name" v="Damåsen" />
		<tag k="natural" v="hill" />
		<tag k="place" v="locality" />
		<tag k="ssr:stedsnr" v="143964" />
	</node>
	<node id="-255860" lat="59.8184472178" lon="11.0802472258">
		<tag k="fixme" v="consider natural=peak for the most distinct mountains in the district" />
		<tag k="name" v="Pipåsen" />
		<tag k="natural" v="hill" />
		<tag k="place" v="locality" />
		<tag k="ssr:stedsnr" v="915273" />
	</node>
	<node id="-256062" lat="59.8193388891" lon="11.0348055572">
		<tag k="alt_name" v="Østre Deliseterdalen" />
		<tag k="name" v="Østre Dæliseterdalen" />
		<tag k="natural" v="valley" />
		<tag k="place" v="locality" />
		<tag k="ssr:stedsnr" v="204468" />
	</node>
	<node id="-255853" lat="59.7778861151" lon="11.0755138901">
		<tag k="fixme" v="consider natural=peak for the most distinct mountains in the district" />
		<tag k="name" v="Merraåsen" />
		<tag k="natural" v="hill" />
		<tag k="place" v="locality" />
		<tag k="ssr:stedsnr" v="872961" />
	</node>
	<node id="-255852" lat="59.8267361137" lon="11.0351750026">
		<tag k="name" v="Ørnehøgda" />
		<tag k="natural" v="hill" />
		<tag k="place" v="locality" />
		<tag k="ssr:stedsnr" v="872909" />
	</node>
	<node id="-255851" lat="59.7690666683" lon="11.0944611034">
		<tag k="name" v="Langtjernhøgda" />
		<tag k="natural" v="hill" />
		<tag k="place" v="locality" />
		<tag k="ssr:stedsnr" v="872906" />
	</node>
	<node id="-256358" lat="59.7781722265" lon="11.0500194447">
		<tag k="alt_name" v="Ekebergkollen" />
		<tag k="fixme" v="consider natural=peak for the most distinct mountains in the district" />
		<tag k="name" v="Eikebergkollen" />
		<tag k="natural" v="hill" />
		<tag k="place" v="locality" />
		<tag k="ssr:stedsnr" v="793450" />
	</node>
	<node id="-256206" lat="59.7772000008" lon="11.0233472271">
		<tag k="name" v="Rottjernkollen" />
		<tag k="natural" v="hill" />
		<tag k="place" v="locality" />
		<tag k="ssr:stedsnr" v="386884" />
	</node>
	<node id="-255838" lat="59.8020749958" lon="11.1078027732">
		<tag k="name" v="Fudalen" />
		<tag k="natural" v="valley" />
		<tag k="place" v="locality" />
		<tag k="ssr:stedsnr" v="854824" />
	</node>
	<node id="-255835" lat="59.7771586028" lon="10.9985135957">
		<tag k="fixme" v="consider natural=peak for the most distinct mountains in the district" />
		<tag k="name" v="Andersrudåsen" />
		<tag k="natural" v="hill" />
		<tag k="place" v="locality" />
		<tag k="ssr:stedsnr" v="854416" />
	</node>
	<node id="-255834" lat="59.7325555537" lon="11.1590249946">
		<tag k="fixme" v="consider natural=peak for the most distinct mountains in the district" />
		<tag k="name" v="Meieriåsen" />
		<tag k="natural" v="hill" />
		<tag k="place" v="locality" />
		<tag k="ssr:stedsnr" v="854077" />
	</node>
	<node id="-256345" lat="59.7707250023" lon="11.10410833">
		<tag k="name" v="Smestadberget" />
		<tag k="natural" v="hill" />
		<tag k="place" v="locality" />
		<tag k="ssr:stedsnr" v="750877" />
	</node>
	<node id="-256014" lat="59.7846472183" lon="10.9870361131">
		<tag k="name" v="Hanseleinhøgda" />
		<tag k="natural" v="hill" />
		<tag k="place" v="locality" />
		<tag k="ssr:stedsnr" v="143884" />
	</node>
	<node id="-255827" lat="59.7399611138" lon="11.1458611159">
		<tag k="name" v="Maurtuedråga" />
		<tag k="natural" v="valley" />
		<tag k="place" v="locality" />
		<tag k="ssr:stedsnr" v="934448" />
	</node>
	<node id="-255826" lat="59.762702779" lon="11.1123388866">
		<tag k="fixme" v="consider natural=peak for the most distinct mountains in the district" />
		<tag k="name" v="Fjellstadåsen" />
		<tag k="natural" v="hill" />
		<tag k="place" v="locality" />
		<tag k="ssr:stedsnr" v="933970" />
	</node>
	<node id="-256336" lat="59.7689861103" lon="11.0530305623">
		<tag k="fixme" v="consider natural=peak for the most distinct mountains in the district" />
		<tag k="name" v="Merraåsen" />
		<tag k="natural" v="hill" />
		<tag k="place" v="locality" />
		<tag k="ssr:stedsnr" v="750994" />
	</node>
	<node id="-256335" lat="59.7199305584" lon="11.029686108">
		<tag k="fixme" v="consider natural=peak for the most distinct mountains in the district" />
		<tag k="name" v="Vanndamåsen" />
		<tag k="natural" v="hill" />
		<tag k="place" v="locality" />
		<tag k="ssr:stedsnr" v="750983" />
	</node>
	<node id="-256334" lat="59.7198000038" lon="10.9889944371">
		<tag k="fixme" v="consider natural=peak for the most distinct mountains in the district" />
		<tag k="name" v="Tralåsen" />
		<tag k="natural" v="hill" />
		<tag k="place" v="locality" />
		<tag k="ssr:stedsnr" v="750979" />
	</node>
	<node id="-255821" lat="59.7041999959" lon="11.0793972222">
		<tag k="fixme" v="consider natural=peak for the most distinct mountains in the district" />
		<tag k="name" v="Kjennsdalsåsen" />
		<tag k="natural" v="hill" />
		<tag k="place" v="locality" />
		<tag k="ssr:stedsnr" v="933593" />
	</node>
	<node id="-255820" lat="59.7084472192" lon="11.0681444441">
		<tag k="fixme" v="consider natural=peak for the most distinct mountains in the district" />
		<tag k="name" v="Juterudåsen" />
		<tag k="natural" v="hill" />
		<tag k="place" v="locality" />
		<tag k="ssr:stedsnr" v="933591" />
	</node>
	<node id="-255819" lat="59.6960611128" lon="11.1674111059">
		<tag k="fixme" v="consider natural=peak for the most distinct mountains in the district" />
		<tag k="name" v="Fjellsåsen" />
		<tag k="natural" v="hill" />
		<tag k="place" v="locality" />
		<tag k="ssr:stedsnr" v="933588" />
	</node>
	<node id="-255818" lat="59.7588055563" lon="11.0330694496">
		<tag k="name" v="Hareposten" />
		<tag k="natural" v="valley" />
		<tag k="place" v="locality" />
		<tag k="ssr:stedsnr" v="933567" />
	</node>
	<node id="-256311" lat="59.7647888879" lon="11.0162305483">
		<tag k="name" v="Raukleiva" />
		<tag k="natural" v="valley" />
		<tag k="place" v="locality" />
		<tag k="ssr:stedsnr" v="629537" />
	</node>
	<node id="-256310" lat="59.80165278" lon="11.0575694398">
		<tag k="name" v="Pølsedalen" />
		<tag k="natural" v="valley" />
		<tag k="place" v="locality" />
		<tag k="ssr:stedsnr" v="629535" />
	</node>
	<node id="-256321" lat="59.7130194414" lon="11.0440999982">
		<tag k="fixme" v="consider natural=peak for the most distinct mountains in the district" />
		<tag k="name" v="Damåsen" />
		<tag k="natural" v="hill" />
		<tag k="place" v="locality" />
		<tag k="ssr:stedsnr" v="629987" />
	</node>
	<node id="-256320" lat="59.805561108" lon="11.0545833359">
		<tag k="fixme" v="consider natural=peak for the most distinct mountains in the district" />
		<tag k="name" v="Fleserudåsen" />
		<tag k="natural" v="hill" />
		<tag k="place" v="locality" />
		<tag k="ssr:stedsnr" v="629956" />
	</node>
	<node id="-256319" lat="59.8167833323" lon="10.9693694529">
		<tag k="name" v="Hestehøgdene" />
		<tag k="natural" v="hill" />
		<tag k="place" v="locality" />
		<tag k="ssr:stedsnr" v="629902" />
	</node>
	<node id="-255806" lat="59.7783972194" lon="11.0973888884">
		<tag k="fixme" v="consider natural=peak for the most distinct mountains in the district" />
		<tag k="name" v="Nygårdsåsen" />
		<tag k="natural" v="hill" />
		<tag k="place" v="locality" />
		<tag k="ssr:stedsnr" v="811950" />
	</node>
	<node id="-255805" lat="59.8261083306" lon="11.0873638806">
		<tag k="fixme" v="consider natural=peak for the most distinct mountains in the district" />
		<tag k="name" v="Lauvhesjeåsen" />
		<tag k="natural" v="hill" />
		<tag k="place" v="locality" />
		<tag k="ssr:stedsnr" v="811942" />
	</node>
	<node id="-255804" lat="59.7978666683" lon="11.0710749916">
		<tag k="fixme" v="consider natural=peak for the most distinct mountains in the district" />
		<tag k="name" v="Rausandåsen" />
		<tag k="natural" v="hill" />
		<tag k="place" v="locality" />
		<tag k="ssr:stedsnr" v="811940" />
	</node>
	<node id="-255800" lat="59.7944999993" lon="11.028825005">
		<tag k="fixme" v="consider natural=peak for the most distinct mountains in the district" />
		<tag k="name" v="Nordbyåsen" />
		<tag k="natural" v="hill" />
		<tag k="place" v="locality" />
		<tag k="ssr:stedsnr" v="793367" />
	</node>
	<node id="-255799" lat="59.7063194464" lon="11.2031250073">
		<tag k="fixme" v="consider natural=peak for the most distinct mountains in the district" />
		<tag k="name" v="Borudåsen" />
		<tag k="natural" v="hill" />
		<tag k="place" v="locality" />
		<tag k="ssr:stedsnr" v="792830" />
	</node>
	<node id="-255798" lat="59.7223500037" lon="11.0278166622">
		<tag k="alt_name" v="Kjellgårdsåsen" />
		<tag k="fixme" v="consider natural=peak for the most distinct mountains in the district" />
		<tag k="name" v="Vågvassåsen" />
		<tag k="natural" v="hill" />
		<tag k="place" v="locality" />
		<tag k="ssr:stedsnr" v="792558" />
	</node>
	<node id="-255793" lat="59.8262250009" lon="11.0208222248">
		<tag k="fixme" v="consider natural=peak for the most distinct mountains in the district" />
		<tag k="loc_name" v="Strussåsen" />
		<tag k="name" v="Strutsåsen" />
		<tag k="natural" v="hill" />
		<tag k="place" v="locality" />
		<tag k="ssr:stedsnr" v="915194" />
	</node>
	<node id="-256050" lat="59.773030556" lon="11.042897223">
		<tag k="fixme" v="consider natural=peak for the most distinct mountains in the district" />
		<tag k="name" v="Elgåsen" />
		<tag k="natural" v="hill" />
		<tag k="place" v="locality" />
		<tag k="ssr:stedsnr" v="186471" />
	</node>
	<node id="-255782" lat="59.7445916702" lon="11.0894611045">
		<tag k="name" v="Kløyvdalen" />
		<tag k="natural" v="valley" />
		<tag k="place" v="locality" />
		<tag k="ssr:stedsnr" v="751543" />
	</node>
	<node id="-255781" lat="59.7501999979" lon="11.085972219">
		<tag k="name" v="Rødkleiva" />
		<tag k="natural" v="valley" />
		<tag k="place" v="locality" />
		<tag k="ssr:stedsnr" v="751541" />
	</node>
	<node id="-255780" lat="59.7178805582" lon="11.2130222227">
		<tag k="name" v="Ildalen" />
		<tag k="natural" v="valley" />
		<tag k="place" v="locality" />
		<tag k="ssr:stedsnr" v="751540" />
	</node>
	<node id="-255779" lat="59.799472218" lon="11.090216671">
		<tag k="fixme" v="consider natural=peak for the most distinct mountains in the district" />
		<tag k="name" v="Dreieråsen" />
		<tag k="natural" v="hill" />
		<tag k="place" v="locality" />
		<tag k="ssr:stedsnr" v="750944" />
	</node>
	<node id="-255778" lat="59.7954111116" lon="11.0414583368">
		<tag k="fixme" v="consider natural=peak for the most distinct mountains in the district" />
		<tag k="name" v="Grisetjernsåsen" />
		<tag k="natural" v="hill" />
		<tag k="place" v="locality" />
		<tag k="ssr:stedsnr" v="750929" />
	</node>
	<node id="-255777" lat="59.7394861126" lon="11.1330694401">
		<tag k="fixme" v="consider natural=peak for the most distinct mountains in the district" />
		<tag k="name" v="Tjernåsen" />
		<tag k="natural" v="hill" />
		<tag k="place" v="locality" />
		<tag k="ssr:stedsnr" v="750534" />
	</node>
	<node id="-255776" lat="59.7177000036" lon="11.2092805598">
		<tag k="fixme" v="consider natural=peak for the most distinct mountains in the district" />
		<tag k="name" v="Smieåsen" />
		<tag k="natural" v="hill" />
		<tag k="place" v="locality" />
		<tag k="ssr:stedsnr" v="750526" />
	</node>
	<node id="-255775" lat="59.7605222251" lon="11.0500499989">
		<tag k="name" v="Bjerkemoen" />
		<tag k="place" v="locality" />
		<tag k="ssr:stedsnr" v="750522" />
	</node>
	<node id="-255774" lat="59.7816638934" lon="11.1081722143">
		<tag k="name" v="Moen" />
		<tag k="place" v="locality" />
		<tag k="ssr:stedsnr" v="750520" />
	</node>
	<node id="-256285" lat="59.7997444428" lon="11.142538882">
		<tag k="name" v="Elgotdalen" />
>>>>>>> e1d4bc35ff8a6074a6f2e91616a996b547c36f15
		<tag k="natural" v="valley" />
		<tag k="place" v="locality" />
		<tag k="ssr:stedsnr" v="569514" />
	</node>
<<<<<<< HEAD
	<node lat="59.82923333607994" lon="11.045863884812112" id="-20102">
		<tag k="name" v="Grasdalen" />
		<tag k="natural" v="valley" />
		<tag k="place" v="locality" />
		<tag k="ssr:stedsnr" v="811509" />
	</node>
	<node lat="59.797866668322605" lon="11.071074991574855" id="-20106">
		<tag k="fixme" v="consider natural=peak for the most distinct mountains in the district" />
		<tag k="name" v="Rausandåsen" />
		<tag k="natural" v="hill" />
		<tag k="place" v="locality" />
		<tag k="ssr:stedsnr" v="811940" />
	</node>
	<node lat="59.7648749958243" lon="11.098427773384635" id="-20107">
		<tag k="name" v="Porten" />
		<tag k="natural" v="valley" />
		<tag k="place" v="locality" />
		<tag k="ssr:stedsnr" v="812545" />
	</node>
	<node lat="59.79085833152308" lon="11.083091669983153" id="-20108">
		<tag k="name" v="Hanebrudalen" />
		<tag k="natural" v="valley" />
		<tag k="place" v="locality" />
		<tag k="ssr:stedsnr" v="812551" />
	</node>
	<node lat="59.770372219339265" lon="11.087408327698926" id="-20109">
		<tag k="name" v="Frostadalen" />
		<tag k="natural" v="valley" />
		<tag k="place" v="locality" />
		<tag k="ssr:stedsnr" v="812555" />
	</node>
	<node lat="59.75722499849723" lon="11.016433341259788" id="-20115">
		<tag k="name" v="Bjerklandshøgda" />
		<tag k="natural" v="hill" />
		<tag k="place" v="locality" />
		<tag k="ssr:stedsnr" v="854359" />
	</node>
	<node lat="59.82640833673366" lon="10.956283325303435" id="-20117">
		<tag k="fixme" v="consider natural=peak for the most distinct mountains in the district" />
		<tag k="name" v="Mellomåsen" />
		<tag k="natural" v="hill" />
		<tag k="place" v="locality" />
		<tag k="ssr:stedsnr" v="854260" />
	</node>
	<node lat="59.77715860275331" lon="10.998513595703363" id="-20118">
		<tag k="fixme" v="consider natural=peak for the most distinct mountains in the district" />
		<tag k="name" v="Andersrudåsen" />
		<tag k="natural" v="hill" />
		<tag k="place" v="locality" />
		<tag k="ssr:stedsnr" v="854416" />
	</node>
	<node lat="59.80207499576508" lon="11.107802773189995" id="-20121">
		<tag k="name" v="Fudalen" />
		<tag k="natural" v="valley" />
		<tag k="place" v="locality" />
		<tag k="ssr:stedsnr" v="854824" />
	</node>
	<node lat="59.840844440995674" lon="11.112086108177827" id="-20127">
		<tag k="fixme" v="consider natural=peak for the most distinct mountains in the district" />
		<tag k="name" v="Tangenåsen" />
		<tag k="natural" v="hill" />
		<tag k="place" v="locality" />
		<tag k="ssr:stedsnr" v="872327" />
	</node>
	<node lat="59.75880555631261" lon="11.033069449640822" id="-20135">
		<tag k="name" v="Hareposten" />
		<tag k="natural" v="valley" />
		<tag k="place" v="locality" />
		<tag k="ssr:stedsnr" v="933567" />
	</node>
	<node lat="59.762702779000925" lon="11.11233888663278" id="-20137">
		<tag k="fixme" v="consider natural=peak for the most distinct mountains in the district" />
		<tag k="name" v="Fjellstadåsen" />
		<tag k="natural" v="hill" />
		<tag k="place" v="locality" />
		<tag k="ssr:stedsnr" v="933970" />
	</node>
	<node lat="59.7399611137564" lon="11.145861115924108" id="-20138">
		<tag k="name" v="Maurtuedråga" />
		<tag k="natural" v="valley" />
		<tag k="place" v="locality" />
		<tag k="ssr:stedsnr" v="934448" />
	</node>
	<node lat="59.826225000884264" lon="11.020822224834715" id="-20145">
		<tag k="fixme" v="consider natural=peak for the most distinct mountains in the district" />
		<tag k="loc_name" v="Strussåsen" />
		<tag k="name" v="Strutsåsen" />
		<tag k="natural" v="hill" />
		<tag k="place" v="locality" />
		<tag k="ssr:stedsnr" v="915194" />
	</node>
	<node lat="59.81844721782315" lon="11.080247225781847" id="-20146">
		<tag k="fixme" v="consider natural=peak for the most distinct mountains in the district" />
		<tag k="name" v="Pipåsen" />
		<tag k="natural" v="hill" />
		<tag k="place" v="locality" />
		<tag k="ssr:stedsnr" v="915273" />
	</node>
	<node lat="59.77400277448408" lon="11.020555554732766" id="-20148">
		<tag k="fixme" v="consider natural=peak for the most distinct mountains in the district" />
		<tag k="name" v="Kristenseteråsen" />
		<tag k="natural" v="hill" />
		<tag k="place" v="locality" />
		<tag k="ssr:stedsnr" v="915404" />
	</node>
	<node lat="59.696061112767694" lon="11.167411105893256" id="-20162">
		<tag k="fixme" v="consider natural=peak for the most distinct mountains in the district" />
		<tag k="name" v="Fjellsåsen" />
		<tag k="natural" v="hill" />
		<tag k="place" v="locality" />
		<tag k="ssr:stedsnr" v="933588" />
	</node>
	<node lat="59.70844721918093" lon="11.0681444440638" id="-20163">
		<tag k="fixme" v="consider natural=peak for the most distinct mountains in the district" />
		<tag k="name" v="Juterudåsen" />
		<tag k="natural" v="hill" />
		<tag k="place" v="locality" />
		<tag k="ssr:stedsnr" v="933591" />
	</node>
	<node lat="59.704199995927965" lon="11.079397222187968" id="-20164">
		<tag k="fixme" v="consider natural=peak for the most distinct mountains in the district" />
		<tag k="name" v="Kjennsdalsåsen" />
		<tag k="natural" v="hill" />
		<tag k="place" v="locality" />
		<tag k="ssr:stedsnr" v="933593" />
	</node>
	<node lat="59.820761110970125" lon="11.098183333624572" id="-20185">
		<tag k="name" v="Grasåsdalen" />
		<tag k="natural" v="valley" />
		<tag k="place" v="locality" />
		<tag k="ssr:stedsnr" v="22524" />
	</node>
	<node lat="59.748930553638445" lon="10.980233340657593" id="-20186">
		<tag k="name" v="Oremyrdalen" />
		<tag k="natural" v="valley" />
		<tag k="place" v="locality" />
		<tag k="ssr:stedsnr" v="22530" />
	</node>
	<node lat="59.71365832969603" lon="11.167380558062854" id="-20188">
		<tag k="fixme" v="consider natural=peak for the most distinct mountains in the district" />
		<tag k="name" v="Hagaåsen" />
		<tag k="natural" v="hill" />
		<tag k="place" v="locality" />
		<tag k="ssr:stedsnr" v="22557" />
	</node>
	<node lat="59.71556388778529" lon="11.14266111668925" id="-20189">
		<tag k="fixme" v="consider natural=peak for the most distinct mountains in the district" />
		<tag k="name" v="Bermerudåsen" />
		<tag k="natural" v="hill" />
		<tag k="place" v="locality" />
		<tag k="ssr:stedsnr" v="22561" />
	</node>
	<node lat="59.8065527765044" lon="11.11163889135301" id="-20190">
		<tag k="fixme" v="consider natural=peak for the most distinct mountains in the district" />
		<tag k="name" v="Iletjernsåsen" />
		<tag k="natural" v="hill" />
		<tag k="place" v="locality" />
		<tag k="ssr:stedsnr" v="22947" />
	</node>
	<node lat="59.77613888686974" lon="11.087416664582637" id="-20191">
		<tag k="fixme" v="consider natural=peak for the most distinct mountains in the district" />
		<tag k="name" v="Bøståsen" />
		<tag k="natural" v="hill" />
		<tag k="place" v="locality" />
		<tag k="ssr:stedsnr" v="22953" />
	</node>
	<node lat="59.77079444246865" lon="11.09010834011852" id="-20192">
		<tag k="fixme" v="consider natural=peak for the most distinct mountains in the district" />
		<tag k="name" v="Frostaåsen" />
		<tag k="natural" v="hill" />
		<tag k="place" v="locality" />
		<tag k="ssr:stedsnr" v="22954" />
	</node>
	<node lat="59.74921666802983" lon="11.082674993714052" id="-20193">
		<tag k="fixme" v="consider natural=peak for the most distinct mountains in the district" />
		<tag k="name" v="Rødkleivåsen" />
		<tag k="natural" v="hill" />
		<tag k="place" v="locality" />
		<tag k="ssr:stedsnr" v="22956" />
	</node>
	<node lat="59.741052775538044" lon="11.083836108331859" id="-20194">
		<tag k="fixme" v="consider natural=peak for the most distinct mountains in the district" />
		<tag k="name" v="Slottsåsen" />
		<tag k="natural" v="hill" />
		<tag k="place" v="locality" />
		<tag k="ssr:stedsnr" v="22965" />
	</node>
	<node lat="59.7094111073705" lon="11.202716668856745" id="-20203">
		<tag k="name" v="Trolldalen" />
		<tag k="natural" v="valley" />
		<tag k="place" v="locality" />
		<tag k="ssr:stedsnr" v="23572" />
	</node>
	<node lat="59.820033329221324" lon="11.03935833346364" id="-20217">
		<tag k="fixme" v="consider natural=peak for the most distinct mountains in the district" />
		<tag k="name" v="Korpåsen" />
		<tag k="natural" v="hill" />
		<tag k="place" v="locality" />
		<tag k="ssr:stedsnr" v="65258" />
	</node>
	<node lat="59.73365833311819" lon="11.068288880345744" id="-20232">
		<tag k="fixme" v="consider natural=peak for the most distinct mountains in the district" />
		<tag k="name" v="Sørengåsen" />
		<tag k="natural" v="hill" />
		<tag k="place" v="locality" />
		<tag k="ssr:stedsnr" v="83546" />
	</node>
	<node lat="59.76575833047849" lon="11.111658327537135" id="-20236">
		<tag k="fixme" v="consider natural=peak for the most distinct mountains in the district" />
		<tag k="name" v="Slottsåsen" />
		<tag k="natural" v="hill" />
		<tag k="place" v="locality" />
		<tag k="ssr:stedsnr" v="83960" />
	</node>
	<node lat="59.76206111372372" lon="11.101141675693388" id="-20237">
		<tag k="fixme" v="consider natural=peak for the most distinct mountains in the district" />
		<tag k="name" v="Fjøsåsen" />
		<tag k="natural" v="hill" />
		<tag k="place" v="locality" />
		<tag k="ssr:stedsnr" v="83968" />
	</node>
	<node lat="59.70868888898271" lon="11.01563333422054" id="-20238">
		<tag k="name" v="Danseberget" />
		<tag k="natural" v="hill" />
		<tag k="place" v="locality" />
		<tag k="ssr:stedsnr" v="83898" />
	</node>
	<node lat="59.80766388769488" lon="11.085588894845909" id="-20239">
		<tag k="name" v="Kopledalen" />
		<tag k="natural" v="valley" />
		<tag k="place" v="locality" />
		<tag k="ssr:stedsnr" v="84544" />
	</node>
	<node lat="59.76422499748398" lon="11.061777774641843" id="-20240">
		<tag k="name" v="Lauvdalen" />
		<tag k="natural" v="valley" />
		<tag k="place" v="locality" />
		<tag k="ssr:stedsnr" v="84546" />
	</node>
	<node lat="59.73602500187983" lon="11.156327774417475" id="-20247">
		<tag k="fixme" v="consider natural=peak for the most distinct mountains in the district" />
		<tag k="name" v="Ravnåsen" />
		<tag k="natural" v="hill" />
		<tag k="place" v="locality" />
		<tag k="ssr:stedsnr" v="125119" />
	</node>
	<node lat="59.76343889235936" lon="11.058924995541235" id="-20253">
		<tag k="fixme" v="consider natural=peak for the most distinct mountains in the district" />
		<tag k="name" v="Skredderstadkollen" />
		<tag k="natural" v="hill" />
		<tag k="place" v="locality" />
		<tag k="ssr:stedsnr" v="126415" />
	</node>
	<node lat="59.76167778223912" lon="11.028719446095748" id="-20264">
		<tag k="fixme" v="consider natural=peak for the most distinct mountains in the district" />
		<tag k="name" v="Vikstjernåsen" />
		<tag k="natural" v="hill" />
		<tag k="place" v="locality" />
		<tag k="ssr:stedsnr" v="143992" />
	</node>
	<node lat="59.780823024151076" lon="11.004044002565006" id="-20265">
		<tag k="fixme" v="consider natural=peak for the most distinct mountains in the district" />
		<tag k="name" v="Svartåsen" />
		<tag k="natural" v="hill" />
		<tag k="place" v="locality" />
		<tag k="ssr:stedsnr" v="143993" />
	</node>
	<node lat="59.7840111139055" lon="11.05413889084277" id="-20266">
		<tag k="fixme" v="consider natural=peak for the most distinct mountains in the district" />
		<tag k="name" v="Strutåsen" />
		<tag k="natural" v="hill" />
		<tag k="place" v="locality" />
		<tag k="ssr:stedsnr" v="143995" />
	</node>
	<node lat="59.79530277827614" lon="11.009286106558006" id="-20267">
		<tag k="fixme" v="consider natural=peak for the most distinct mountains in the district" />
		<tag k="name" v="Bakeråsen" />
		<tag k="natural" v="hill" />
		<tag k="place" v="locality" />
		<tag k="ssr:stedsnr" v="143999" />
	</node>
	<node lat="59.79125833156007" lon="11.100277784361928" id="-20268">
		<tag k="fixme" v="consider natural=peak for the most distinct mountains in the district" />
		<tag k="name" v="Smååsene" />
		<tag k="natural" v="hill" />
		<tag k="place" v="locality" />
		<tag k="ssr:stedsnr" v="143941" />
	</node>
	<node lat="59.78546666569884" lon="11.105574991067426" id="-20269">
		<tag k="fixme" v="consider natural=peak for the most distinct mountains in the district" />
		<tag k="name" v="Fudalsåsen" />
		<tag k="natural" v="hill" />
		<tag k="place" v="locality" />
		<tag k="ssr:stedsnr" v="143946" />
	</node>
	<node lat="59.759222220003956" lon="11.087461108586599" id="-20270">
		<tag k="fixme" v="consider natural=peak for the most distinct mountains in the district" />
		<tag k="name" v="Høgåsen" />
		<tag k="natural" v="hill" />
		<tag k="place" v="locality" />
		<tag k="ssr:stedsnr" v="143953" />
	</node>
	<node lat="59.756005555512644" lon="11.070611106131231" id="-20271">
		<tag k="fixme" v="consider natural=peak for the most distinct mountains in the district" />
		<tag k="name" v="Damåsen" />
		<tag k="natural" v="hill" />
		<tag k="place" v="locality" />
		<tag k="ssr:stedsnr" v="143964" />
	</node>
	<node lat="59.75107222630428" lon="11.094186113279314" id="-20272">
		<tag k="name" v="Trolldalen" />
		<tag k="natural" v="valley" />
		<tag k="place" v="locality" />
		<tag k="ssr:stedsnr" v="144541" />
	</node>
	<node lat="59.74806944529231" lon="11.07930555561239" id="-20273">
		<tag k="name" v="Kleivdalen" />
		<tag k="natural" v="valley" />
		<tag k="place" v="locality" />
		<tag k="ssr:stedsnr" v="144550" />
	</node>
	<node lat="59.710383329575656" lon="11.007733324733456" id="-20281">
		<tag k="fixme" v="consider natural=peak for the most distinct mountains in the district" />
		<tag k="name" v="Brennåsen" />
		<tag k="natural" v="hill" />
		<tag k="place" v="locality" />
		<tag k="ssr:stedsnr" v="185516" />
	</node>
	<node lat="59.80062222008239" lon="11.063549995379926" id="-20289">
		<tag k="name" v="Breidsjøhøgda" />
		<tag k="natural" v="hill" />
		<tag k="place" v="locality" />
		<tag k="ssr:stedsnr" v="186382" />
	</node>
	<node lat="59.8052972181109" lon="10.999247217349161" id="-20292">
		<tag k="alt_name" v="Mortås" />
		<tag k="fixme" v="consider natural=peak for the most distinct mountains in the district" />
		<tag k="name" v="Mortåsen" />
		<tag k="natural" v="hill" />
		<tag k="place" v="locality" />
		<tag k="ssr:stedsnr" v="186388" />
	</node>
	<node lat="59.773030556036105" lon="11.042897222959484" id="-20293">
		<tag k="fixme" v="consider natural=peak for the most distinct mountains in the district" />
		<tag k="name" v="Elgåsen" />
		<tag k="natural" v="hill" />
		<tag k="place" v="locality" />
		<tag k="ssr:stedsnr" v="186471" />
	</node>
	<node lat="59.75008055896546" lon="10.979602774073271" id="-20296">
		<tag k="fixme" v="consider natural=peak for the most distinct mountains in the district" />
		<tag k="name" v="Midtåsen" />
		<tag k="natural" v="hill" />
		<tag k="place" v="locality" />
		<tag k="ssr:stedsnr" v="187449" />
	</node>
	<node lat="59.81933888911817" lon="11.034805557186877" id="-20297">
		<tag k="alt_name" v="Østre Deliseterdalen" />
		<tag k="name" v="Østre Dæliseterdalen" />
		<tag k="natural" v="valley" />
		<tag k="place" v="locality" />
		<tag k="ssr:stedsnr" v="204468" />
	</node>
	<node lat="59.82707221909245" lon="11.130822222166456" id="-20298">
		<tag k="fixme" v="consider natural=peak for the most distinct mountains in the district" />
		<tag k="name" v="Rompåsen" />
		<tag k="natural" v="hill" />
		<tag k="place" v="locality" />
		<tag k="ssr:stedsnr" v="204492" />
	</node>
	<node lat="59.83842500173214" lon="10.974205556057242" id="-20299">
		<tag k="fixme" v="consider natural=peak for the most distinct mountains in the district" />
		<tag k="name" v="Vardåsen" />
		<tag k="natural" v="hill" />
		<tag k="place" v="locality" />
		<tag k="ssr:stedsnr" v="204976" />
	</node>
	<node lat="59.77975277393425" lon="11.08982222173072" id="-20300">
		<tag k="name" v="Middagsbergåsen" />
		<tag k="natural" v="hill" />
		<tag k="place" v="locality" />
		<tag k="ssr:stedsnr" v="204892" />
	</node>
	<node lat="59.77077777995632" lon="11.06962778630106" id="-20301">
		<tag k="name" v="Hengeberget" />
		<tag k="natural" v="hill" />
		<tag k="place" v="locality" />
		<tag k="ssr:stedsnr" v="204894" />
	</node>
	<node lat="59.81973611272266" lon="11.065452781076019" id="-20302">
		<tag k="name" v="Kåterudhøgdene" />
		<tag k="natural" v="hill" />
		<tag k="place" v="locality" />
		<tag k="ssr:stedsnr" v="204895" />
	</node>
	<node lat="59.728630554055705" lon="11.126441664680842" id="-20305">
		<tag k="name" v="Styggdalen" />
		<tag k="natural" v="valley" />
		<tag k="place" v="locality" />
		<tag k="ssr:stedsnr" v="205561" />
	</node>
	<node lat="59.80497222103593" lon="11.018780546573277" id="-20320">
		<tag k="alt_name" v="Mosjøhøgda" />
		<tag k="name" v="Mosjøhøgdene" />
		<tag k="natural" v="hill" />
		<tag k="place" v="locality" />
		<tag k="ssr:stedsnr" v="307372" />
	</node>
	<node lat="59.716716662874674" lon="11.151402773637443" id="-20324">
		<tag k="fixme" v="consider natural=peak for the most distinct mountains in the district" />
		<tag k="name" v="Myrvollåsen" />
		<tag k="natural" v="hill" />
		<tag k="place" v="locality" />
		<tag k="ssr:stedsnr" v="307866" />
	</node>
	<node lat="59.76356944886708" lon="11.104308331537291" id="-20330">
		<tag k="fixme" v="consider natural=peak for the most distinct mountains in the district" />
		<tag k="name" v="Ravnåsen" />
		<tag k="natural" v="hill" />
		<tag k="place" v="locality" />
		<tag k="ssr:stedsnr" v="308507" />
	</node>
	<node lat="59.804036112898814" lon="11.12452500765836" id="-20332">
		<tag k="fixme" v="consider natural=peak for the most distinct mountains in the district" />
		<tag k="name" v="Fageråsen" />
		<tag k="natural" v="hill" />
		<tag k="place" v="locality" />
		<tag k="ssr:stedsnr" v="325099" />
	</node>
	<node lat="59.834566662489216" lon="11.109605555102666" id="-20333">
		<tag k="fixme" v="consider natural=peak for the most distinct mountains in the district" />
		<tag k="name" v="Berskauåsen" />
		<tag k="natural" v="hill" />
		<tag k="place" v="locality" />
		<tag k="ssr:stedsnr" v="326314" />
	</node>
	<node lat="59.72156110933204" lon="11.149472229439729" id="-20336">
		<tag k="fixme" v="consider natural=peak for the most distinct mountains in the district" />
		<tag k="name" v="Tyrihjellåsen" />
		<tag k="natural" v="hill" />
		<tag k="place" v="locality" />
		<tag k="ssr:stedsnr" v="326576" />
	</node>
	<node lat="59.68619166822561" lon="11.169097221865883" id="-20337">
		<tag k="fixme" v="consider natural=peak for the most distinct mountains in the district" />
		<tag k="name" v="Sandemfjellet" />
		<tag k="natural" v="hill" />
		<tag k="place" v="locality" />
		<tag k="ssr:stedsnr" v="326577" />
	</node>
	<node lat="59.82825832957525" lon="11.018147227060163" id="-20342">
		<tag k="name" v="Østre Tonekolldalen" />
		<tag k="natural" v="valley" />
		<tag k="place" v="locality" />
		<tag k="ssr:stedsnr" v="326541" />
	</node>
	<node lat="59.75960555937507" lon="11.057869449515849" id="-20343">
		<tag k="name" v="Steinbakken" />
		<tag k="natural" v="valley" />
		<tag k="place" v="locality" />
		<tag k="ssr:stedsnr" v="326547" />
	</node>
	<node lat="59.78719722016125" lon="10.997219452903066" id="-20350">
		<tag k="name" v="Donmåsahøgdene" />
		<tag k="natural" v="hill" />
		<tag k="place" v="locality" />
		<tag k="ssr:stedsnr" v="326899" />
	</node>
	<node lat="59.82645277554434" lon="10.978938890937112" id="-20351">
		<tag k="name" v="Askevannshøgda" />
		<tag k="natural" v="hill" />
		<tag k="place" v="locality" />
		<tag k="ssr:stedsnr" v="326905" />
	</node>
	<node lat="59.81056666749187" lon="11.116358339748778" id="-20352">
		<tag k="name" v="Reveberget" />
		<tag k="natural" v="hill" />
		<tag k="place" v="locality" />
		<tag k="ssr:stedsnr" v="326911" />
	</node>
	<node lat="59.77405555816157" lon="11.078888886103842" id="-20353">
		<tag k="fixme" v="consider natural=peak for the most distinct mountains in the district" />
		<tag k="name" v="Lauvåsen" />
		<tag k="natural" v="hill" />
		<tag k="place" v="locality" />
		<tag k="ssr:stedsnr" v="326960" />
	</node>
	<node lat="59.77596944114511" lon="11.092680563028017" id="-20354">
		<tag k="fixme" v="consider natural=peak for the most distinct mountains in the district" />
		<tag k="name" v="Oppholdstjernåsen" />
		<tag k="natural" v="hill" />
		<tag k="place" v="locality" />
		<tag k="ssr:stedsnr" v="326965" />
	</node>
	<node lat="59.75612500236668" lon="11.104180555881094" id="-20355">
		<tag k="fixme" v="consider natural=peak for the most distinct mountains in the district" />
		<tag k="name" v="Tangeåsen" />
		<tag k="natural" v="hill" />
		<tag k="place" v="locality" />
		<tag k="ssr:stedsnr" v="326967" />
	</node>
	<node lat="59.783836112032866" lon="11.062141668296649" id="-20356">
		<tag k="name" v="Løksmørhøgda" />
		<tag k="natural" v="hill" />
		<tag k="place" v="locality" />
		<tag k="ssr:stedsnr" v="326975" />
	</node>
	<node lat="59.75636388829527" lon="10.972922227029517" id="-20357">
		<tag k="fixme" v="consider natural=peak for the most distinct mountains in the district" />
		<tag k="name" v="Dingsåsen" />
		<tag k="natural" v="hill" />
		<tag k="place" v="locality" />
		<tag k="ssr:stedsnr" v="326981" />
	</node>
	<node lat="59.807430552004725" lon="11.019183338979474" id="-20358">
		<tag k="fixme" v="consider natural=peak for the most distinct mountains in the district" />
		<tag k="name" v="Midtåsen" />
		<tag k="natural" v="hill" />
		<tag k="place" v="locality" />
		<tag k="ssr:stedsnr" v="327000" />
	</node>
	<node lat="59.71552221954986" lon="11.157755562208155" id="-20392">
		<tag k="fixme" v="consider natural=peak for the most distinct mountains in the district" />
		<tag k="name" v="Jaeråsen" />
		<tag k="natural" v="hill" />
		<tag k="place" v="locality" />
		<tag k="ssr:stedsnr" v="386534" />
	</node>
	<node lat="59.77720000083896" lon="11.023347227126262" id="-20397">
		<tag k="name" v="Rottjernkollen" />
		<tag k="natural" v="hill" />
		<tag k="place" v="locality" />
		<tag k="ssr:stedsnr" v="386884" />
	</node>
	<node lat="59.75668333303761" lon="11.089086112312406" id="-20398">
		<tag k="fixme" v="consider natural=peak for the most distinct mountains in the district" />
		<tag k="name" v="Trollmyråsen" />
		<tag k="natural" v="hill" />
		<tag k="place" v="locality" />
		<tag k="ssr:stedsnr" v="386962" />
	</node>
	<node lat="59.72580833795899" lon="11.070438880682605" id="-20399">
		<tag k="fixme" v="consider natural=peak for the most distinct mountains in the district" />
		<tag k="name" v="Randiåsen" />
		<tag k="natural" v="hill" />
		<tag k="place" v="locality" />
		<tag k="ssr:stedsnr" v="386965" />
	</node>
	<node lat="59.757827777070915" lon="11.078858329878138" id="-20400">
		<tag k="fixme" v="consider natural=peak for the most distinct mountains in the district" />
		<tag k="name" v="Kroktjernåsen" />
		<tag k="natural" v="hill" />
		<tag k="place" v="locality" />
		<tag k="ssr:stedsnr" v="386967" />
	</node>
	<node lat="59.71409444694244" lon="11.1960527824675" id="-20401">
		<tag k="name" v="Almedalen" />
		<tag k="natural" v="valley" />
		<tag k="place" v="locality" />
		<tag k="ssr:stedsnr" v="387536" />
	</node>
	<node lat="59.74347500299345" lon="11.078730548276225" id="-20405">
		<tag k="alt_name" v="Husebyåsen" />
		<tag k="fixme" v="consider natural=peak for the most distinct mountains in the district" />
		<tag k="name" v="Kjølstadåsen" />
		<tag k="natural" v="hill" />
		<tag k="place" v="locality" />
		<tag k="ssr:stedsnr" v="428575" />
	</node>
	<node lat="59.78647500095005" lon="11.02092499921583" id="-20411">
		<tag k="name" v="Raudsjøhøgda" />
		<tag k="natural" v="hill" />
		<tag k="place" v="locality" />
		<tag k="ssr:stedsnr" v="429296" />
	</node>
	<node lat="59.78631388982546" lon="10.978425003755037" id="-20412">
		<tag k="alt_name" v="Langbråteåsen" />
		<tag k="fixme" v="consider natural=peak for the most distinct mountains in the district" />
		<tag k="name" v="Langbråtaåsen" />
		<tag k="natural" v="hill" />
		<tag k="place" v="locality" />
		<tag k="ssr:stedsnr" v="429297" />
	</node>
	<node lat="59.79219999570891" lon="10.9886250065372" id="-20415">
		<tag k="fixme" v="consider natural=peak for the most distinct mountains in the district" />
		<tag k="name" v="Damkleivåsen" />
		<tag k="natural" v="hill" />
		<tag k="place" v="locality" />
		<tag k="ssr:stedsnr" v="429325" />
	</node>
	<node lat="59.775149997654026" lon="11.016236106401733" id="-20422">
		<tag k="loc_name" v="Vikholdalen" />
		<tag k="name" v="Vinholdalen" />
		<tag k="natural" v="valley" />
		<tag k="place" v="locality" />
		<tag k="ssr:stedsnr" v="447499" />
	</node>
	<node lat="59.71813333081388" lon="10.993897227156719" id="-20435">
		<tag k="fixme" v="consider natural=peak for the most distinct mountains in the district" />
		<tag k="name" v="Moskauåsen" />
		<tag k="natural" v="hill" />
		<tag k="place" v="locality" />
		<tag k="ssr:stedsnr" v="447979" />
	</node>
	<node lat="59.75434166808874" lon="11.028277772964461" id="-20436">
		<tag k="fixme" v="consider natural=peak for the most distinct mountains in the district" />
		<tag k="name" v="Brenningsåsen" />
		<tag k="natural" v="hill" />
		<tag k="place" v="locality" />
		<tag k="ssr:stedsnr" v="447993" />
	</node>
	<node lat="59.82146666845357" lon="11.094727777573837" id="-20437">
		<tag k="fixme" v="consider natural=peak for the most distinct mountains in the district" />
		<tag k="name" v="Vestre Grasås" />
		<tag k="natural" v="hill" />
		<tag k="place" v="locality" />
		<tag k="ssr:stedsnr" v="447932" />
	</node>
	<node lat="59.821686106980344" lon="11.020133329139373" id="-20438">
		<tag k="fixme" v="consider natural=peak for the most distinct mountains in the district" />
		<tag k="name" v="Midtåsen" />
		<tag k="natural" v="hill" />
		<tag k="place" v="locality" />
		<tag k="ssr:stedsnr" v="447934" />
	</node>
	<node lat="59.79150555830819" lon="11.079349999858852" id="-20439">
		<tag k="fixme" v="consider natural=peak for the most distinct mountains in the district" />
		<tag k="name" v="Løkkepottåsen" />
		<tag k="natural" v="hill" />
		<tag k="place" v="locality" />
		<tag k="ssr:stedsnr" v="447935" />
	</node>
	<node lat="59.82107500012359" lon="11.139833335575492" id="-20443">
		<tag k="name" v="Styggedalen" />
		<tag k="natural" v="valley" />
		<tag k="place" v="locality" />
		<tag k="ssr:stedsnr" v="448546" />
	</node>
	<node lat="59.68736111327771" lon="11.184902775030054" id="-20447">
		<tag k="fixme" v="consider natural=peak for the most distinct mountains in the district" />
		<tag k="name" v="Tjernåsen" />
		<tag k="natural" v="hill" />
		<tag k="place" v="locality" />
		<tag k="ssr:stedsnr" v="508580" />
	</node>
	<node lat="59.7197416700858" lon="11.1975499939511" id="-20448">
=======
	<node id="-256284" lat="59.7515499998" lon="11.045302775">
		<tag k="fixme" v="consider natural=peak for the most distinct mountains in the district" />
		<tag k="name" v="Lyåsen" />
		<tag k="natural" v="hill" />
		<tag k="place" v="locality" />
		<tag k="ssr:stedsnr" v="568992" />
	</node>
	<node id="-256283" lat="59.7065694442" lon="11.0097277743">
		<tag k="fixme" v="consider natural=peak for the most distinct mountains in the district" />
		<tag k="name" v="Nessåsen" />
		<tag k="natural" v="hill" />
		<tag k="place" v="locality" />
		<tag k="ssr:stedsnr" v="568987" />
	</node>
	<node id="-256282" lat="59.7468694473" lon="10.9836166627">
		<tag k="fixme" v="consider natural=peak for the most distinct mountains in the district" />
		<tag k="name" v="Spaningsåsen" />
		<tag k="natural" v="hill" />
		<tag k="place" v="locality" />
		<tag k="ssr:stedsnr" v="568984" />
	</node>
	<node id="-256281" lat="59.7654333344" lon="10.9957527838">
		<tag k="fixme" v="consider natural=peak for the most distinct mountains in the district" />
		<tag k="name" v="Kukleivåsen" />
		<tag k="natural" v="hill" />
		<tag k="place" v="locality" />
		<tag k="ssr:stedsnr" v="568983" />
	</node>
	<node id="-255768" lat="59.7880333333" lon="11.1005527793">
		<tag k="alt_name" v="Høgtopp" />
		<tag k="fixme" v="consider natural=peak for the most distinct mountains in the district" />
		<tag k="name" v="Høgtoppen" />
		<tag k="natural" v="hill" />
		<tag k="place" v="locality" />
		<tag k="ssr:stedsnr" v="733808" />
	</node>
	<node id="-256279" lat="59.7052305539" lon="11.1037916699">
		<tag k="name" v="Nosakollen" />
		<tag k="natural" v="hill" />
		<tag k="place" v="locality" />
		<tag k="ssr:stedsnr" v="568969" />
	</node>
	<node id="-256278" lat="59.7634444488" lon="11.0875916663">
		<tag k="fixme" v="consider natural=peak for the most distinct mountains in the district" />
		<tag k="name" v="Seteråsen" />
		<tag k="natural" v="hill" />
		<tag k="place" v="locality" />
		<tag k="ssr:stedsnr" v="568965" />
	</node>
	<node id="-256277" lat="59.766327777" lon="11.0634972176">
		<tag k="fixme" v="consider natural=peak for the most distinct mountains in the district" />
		<tag k="name" v="Grevlingåsen" />
		<tag k="natural" v="hill" />
		<tag k="place" v="locality" />
		<tag k="ssr:stedsnr" v="568956" />
	</node>
	<node id="-256276" lat="59.7624250017" lon="11.073986117">
		<tag k="fixme" v="consider natural=peak for the most distinct mountains in the district" />
		<tag k="name" v="Holmetjernåsen" />
		<tag k="natural" v="hill" />
		<tag k="place" v="locality" />
		<tag k="ssr:stedsnr" v="568955" />
	</node>
	<node id="-256275" lat="59.8096277782" lon="11.0339916686">
		<tag k="fixme" v="consider natural=peak for the most distinct mountains in the district" />
		<tag k="name" v="Grasås" />
		<tag k="natural" v="hill" />
		<tag k="place" v="locality" />
		<tag k="ssr:stedsnr" v="568937" />
	</node>
	<node id="-256131" lat="59.8199499974" lon="11.1301111038">
		<tag k="fixme" v="consider natural=peak for the most distinct mountains in the district" />
		<tag k="name" v="Kalvåsen" />
		<tag k="natural" v="hill" />
		<tag k="place" v="locality" />
		<tag k="ssr:stedsnr" v="326558" />
	</node>
	<node id="-256270" lat="59.7426666703" lon="11.0975277828">
		<tag k="fixme" v="consider natural=peak for the most distinct mountains in the district" />
		<tag k="name" v="Lauvbrøtåsen" />
		<tag k="natural" v="hill" />
		<tag k="place" v="locality" />
		<tag k="ssr:stedsnr" v="568535" />
	</node>
	<node id="-256269" lat="59.8023805582" lon="11.1603527852">
		<tag k="name" v="Rasmuslia" />
		<tag k="natural" v="slope" />
		<tag k="place" v="locality" />
		<tag k="ssr:stedsnr" v="568510" />
	</node>
	<node id="-256268" lat="59.8305638925" lon="11.009872231">
		<tag k="name" v="Vestre Tonekolldalen" />
		<tag k="natural" v="valley" />
		<tag k="place" v="locality" />
		<tag k="ssr:stedsnr" v="568497" />
	</node>
	<node id="-255751" lat="59.7190305546" lon="11.0651916621">
		<tag k="fixme" v="consider natural=peak for the most distinct mountains in the district" />
		<tag k="name" v="Fauseråsen" />
		<tag k="natural" v="hill" />
		<tag k="place" v="locality" />
		<tag k="ssr:stedsnr" v="630661" />
	</node>
	<node id="-255749" lat="59.7120472202" lon="11.0675388829">
		<tag k="name" v="Styggedalen" />
		<tag k="natural" v="valley" />
		<tag k="place" v="locality" />
		<tag k="ssr:stedsnr" v="630463" />
	</node>
	<node id="-255746" lat="59.82058889" lon="11.0136638814">
		<tag k="name" v="Luttjernhøgda" />
		<tag k="natural" v="hill" />
		<tag k="place" v="locality" />
		<tag k="ssr:stedsnr" v="629910" />
	</node>
	<node id="-256256" lat="59.8188388846" lon="11.106316666">
		<tag k="alt_name" v="Grasåsen" />
		<tag k="fixme" v="consider natural=peak for the most distinct mountains in the district" />
		<tag k="name" v="Østre Grasås" />
		<tag k="natural" v="hill" />
		<tag k="place" v="locality" />
		<tag k="ssr:stedsnr" v="567741" />
	</node>
	<node id="-255742" lat="59.7231999993" lon="11.1222361051">
		<tag k="fixme" v="consider natural=peak for the most distinct mountains in the district" />
		<tag k="name" v="Lundsåsen" />
		<tag k="natural" v="hill" />
		<tag k="place" v="locality" />
		<tag k="ssr:stedsnr" v="629559" />
	</node>
	<node id="-255445" lat="59.7985472243" lon="11.1625583263">
		<tag k="fixme" v="consider natural=peak for the most distinct mountains in the district" />
		<tag k="name" v="Svenskeåsen" />
		<tag k="natural" v="hill" />
		<tag k="place" v="locality" />
		<tag k="ssr:stedsnr" v="247822" />
	</node>
	<node id="-256049" lat="59.8052972181" lon="10.9992472173">
		<tag k="alt_name" v="Mortås" />
		<tag k="fixme" v="consider natural=peak for the most distinct mountains in the district" />
		<tag k="name" v="Mortåsen" />
		<tag k="natural" v="hill" />
		<tag k="place" v="locality" />
		<tag k="ssr:stedsnr" v="186388" />
	</node>
	<node id="-255730" lat="59.7602999967" lon="10.9840527731">
		<tag k="alt_name" v="Snelledalen" />
		<tag k="name" v="Snelldalen" />
		<tag k="natural" v="valley" />
		<tag k="place" v="locality" />
		<tag k="ssr:stedsnr" v="611390" />
	</node>
	<node id="-256151" lat="59.7561250024" lon="11.1041805559">
		<tag k="fixme" v="consider natural=peak for the most distinct mountains in the district" />
		<tag k="name" v="Tangeåsen" />
		<tag k="natural" v="hill" />
		<tag k="place" v="locality" />
		<tag k="ssr:stedsnr" v="326967" />
	</node>
	<node id="-256239" lat="59.7997222255" lon="11.0083222182">
		<tag k="name" v="Kjerringhøgda" />
		<tag k="natural" v="hill" />
		<tag k="place" v="locality" />
		<tag k="ssr:stedsnr" v="550336" />
	</node>
	<node id="-256237" lat="59.8267972249" lon="11.000405564">
		<tag k="name" v="Pølseberget" />
		<tag k="natural" v="hill" />
		<tag k="place" v="locality" />
		<tag k="ssr:stedsnr" v="550280" />
	</node>
	<node id="-256210" lat="59.7105527741" lon="10.9818555637">
		<tag k="fixme" v="consider natural=peak for the most distinct mountains in the district" />
		<tag k="name" v="Teigåsen" />
		<tag k="natural" v="hill" />
		<tag k="place" v="locality" />
		<tag k="ssr:stedsnr" v="428526" />
	</node>
	<node id="-255718" lat="59.8165861119" lon="10.9998583316">
		<tag k="fixme" v="consider natural=peak for the most distinct mountains in the district" />
		<tag k="name" v="Vangsåsen" />
		<tag k="natural" v="hill" />
		<tag k="place" v="locality" />
		<tag k="ssr:stedsnr" v="691971" />
	</node>
	<node id="-256229" lat="59.7065555515" lon="10.9895500032">
		<tag k="fixme" v="consider natural=peak for the most distinct mountains in the district" />
		<tag k="name" v="Gaupesteinåsen" />
		<tag k="natural" v="hill" />
		<tag k="place" v="locality" />
		<tag k="ssr:stedsnr" v="549375" />
	</node>
	<node id="-256228" lat="59.7868888896" lon="11.1261444364">
		<tag k="fixme" v="consider natural=peak for the most distinct mountains in the district" />
		<tag k="name" v="Festningsåsen" />
		<tag k="natural" v="hill" />
		<tag k="place" v="locality" />
		<tag k="ssr:stedsnr" v="430856" />
	</node>
	<node id="-255712" lat="59.7887055593" lon="11.0449694511">
		<tag k="fixme" v="consider natural=peak for the most distinct mountains in the district" />
		<tag k="name" v="Kartåsen" />
		<tag k="natural" v="hill" />
		<tag k="place" v="locality" />
		<tag k="ssr:stedsnr" v="690998" />
	</node>
	<node id="-255711" lat="59.753397225" lon="11.0708416658">
		<tag k="fixme" v="consider natural=peak for the most distinct mountains in the district" />
		<tag k="name" v="Geitåsen" />
		<tag k="natural" v="hill" />
		<tag k="place" v="locality" />
		<tag k="ssr:stedsnr" v="690976" />
	</node>
	<node id="-255710" lat="59.7666222234" lon="11.0971000026">
		<tag k="fixme" v="consider natural=peak for the most distinct mountains in the district" />
		<tag k="name" v="Portåsen" />
		<tag k="natural" v="hill" />
		<tag k="place" v="locality" />
		<tag k="ssr:stedsnr" v="690972" />
	</node>
	<node id="-255709" lat="59.7492277787" lon="11.077911106">
		<tag k="fixme" v="consider natural=peak for the most distinct mountains in the district" />
		<tag k="name" v="Tørjeåsen" />
		<tag k="natural" v="hill" />
		<tag k="place" v="locality" />
		<tag k="ssr:stedsnr" v="690960" />
	</node>
	<node id="-255708" lat="59.7703416626" lon="11.0658555539">
		<tag k="fixme" v="consider natural=peak for the most distinct mountains in the district" />
		<tag k="name" v="Torgåsen" />
		<tag k="natural" v="hill" />
		<tag k="place" v="locality" />
		<tag k="ssr:stedsnr" v="690956" />
	</node>
	<node id="-256217" lat="59.7863138898" lon="10.9784250038">
		<tag k="alt_name" v="Langbråteåsen" />
		<tag k="fixme" v="consider natural=peak for the most distinct mountains in the district" />
		<tag k="name" v="Langbråtaåsen" />
		<tag k="natural" v="hill" />
		<tag k="place" v="locality" />
		<tag k="ssr:stedsnr" v="429297" />
	</node>
	<node id="-256216" lat="59.786475001" lon="11.0209249992">
		<tag k="name" v="Raudsjøhøgda" />
		<tag k="natural" v="hill" />
		<tag k="place" v="locality" />
		<tag k="ssr:stedsnr" v="429296" />
	</node>
	<node id="-256212" lat="59.743475003" lon="11.0787305483">
		<tag k="alt_name" v="Husebyåsen" />
		<tag k="fixme" v="consider natural=peak for the most distinct mountains in the district" />
		<tag k="name" v="Kjølstadåsen" />
		<tag k="natural" v="hill" />
		<tag k="place" v="locality" />
		<tag k="ssr:stedsnr" v="428575" />
	</node>
	<node id="-255694" lat="59.7629194429" lon="11.0332416752">
		<tag k="name" v="Otermoen" />
		<tag k="place" v="locality" />
		<tag k="ssr:stedsnr" v="690582" />
	</node>
	<node id="-255698" lat="59.708933333" lon="11.154477783">
		<tag k="fixme" v="consider natural=peak for the most distinct mountains in the district" />
		<tag k="name" v="Brevikåsen" />
		<tag k="natural" v="hill" />
		<tag k="place" v="locality" />
		<tag k="ssr:stedsnr" v="690597" />
	</node>
	<node id="-255697" lat="59.7414805579" lon="11.1557083324">
		<tag k="fixme" v="consider natural=peak for the most distinct mountains in the district" />
		<tag k="name" v="Kølabonnåsen" />
		<tag k="natural" v="hill" />
		<tag k="place" v="locality" />
		<tag k="ssr:stedsnr" v="690593" />
	</node>
	<node id="-255696" lat="59.7756666633" lon="11.1267277742">
		<tag k="fixme" v="consider natural=peak for the most distinct mountains in the district" />
		<tag k="name" v="Høgås" />
		<tag k="natural" v="hill" />
		<tag k="place" v="locality" />
		<tag k="ssr:stedsnr" v="690592" />
	</node>
	<node id="-255695" lat="59.7976250006" lon="11.1562166628">
		<tag k="fixme" v="consider natural=peak for the most distinct mountains in the district" />
		<tag k="name" v="Høgåsen" />
		<tag k="natural" v="hill" />
		<tag k="place" v="locality" />
		<tag k="ssr:stedsnr" v="690588" />
	</node>
	<node id="-256413" lat="59.7572249985" lon="11.0164333413">
		<tag k="name" v="Bjerklandshøgda" />
		<tag k="natural" v="hill" />
		<tag k="place" v="locality" />
		<tag k="ssr:stedsnr" v="854359" />
	</node>
	<node id="-256205" lat="59.7578277771" lon="11.0788583299">
		<tag k="fixme" v="consider natural=peak for the most distinct mountains in the district" />
		<tag k="name" v="Kroktjernåsen" />
		<tag k="natural" v="hill" />
		<tag k="place" v="locality" />
		<tag k="ssr:stedsnr" v="386967" />
	</node>
	<node id="-255692" lat="59.7610138887" lon="11.0521388887">
		<tag k="name" v="Husebydalen" />
		<tag k="natural" v="valley" />
		<tag k="place" v="locality" />
		<tag k="ssr:stedsnr" v="690579" />
	</node>
	<node id="-255691" lat="59.7845861134" lon="11.0247888896">
		<tag k="name" v="Rottjerndalen" />
		<tag k="natural" v="valley" />
		<tag k="place" v="locality" />
		<tag k="ssr:stedsnr" v="690578" />
	</node>
	<node id="-255436" lat="59.832849997" lon="11.0135638913">
		<tag k="fixme" v="consider natural=peak for the most distinct mountains in the district" />
		<tag k="name" v="Tonekollen" />
		<tag k="natural" v="hill" />
		<tag k="place" v="locality" />
		<tag k="ssr:stedsnr" v="247205" />
	</node>
	<node id="-255681" lat="59.8456694443" lon="11.1195222237">
		<tag k="name" v="St. Hansberget" />
		<tag k="natural" v="hill" />
		<tag k="place" v="locality" />
		<tag k="ssr:stedsnr" v="690340" />
	</node>
	<node id="-255677" lat="59.6955472186" lon="11.0378555637">
		<tag k="fixme" v="consider natural=peak for the most distinct mountains in the district" />
		<tag k="name" v="Stoltenbergåsen" />
		<tag k="natural" v="hill" />
		<tag k="place" v="locality" />
		<tag k="ssr:stedsnr" v="690217" />
	</node>
	<node id="-256287" lat="59.6890638881" lon="11.1609222287">
		<tag k="name" v="Sandemdalen" />
		<tag k="natural" v="valley" />
		<tag k="place" v="locality" />
		<tag k="ssr:stedsnr" v="569524" />
	</node>
	<node id="-256132" lat="59.7382527815" lon="11.1623388821">
		<tag k="fixme" v="consider natural=peak for the most distinct mountains in the district" />
		<tag k="name" v="Grubberudåsen" />
		<tag k="natural" v="hill" />
		<tag k="place" v="locality" />
		<tag k="ssr:stedsnr" v="326567" />
	</node>
	<node id="-256286" lat="59.8146472255" lon="11.1209861046">
		<tag k="name" v="Askedalen" />
		<tag k="natural" v="valley" />
		<tag k="place" v="locality" />
		<tag k="ssr:stedsnr" v="569516" />
	</node>
	<node id="-256199" lat="59.7155222195" lon="11.1577555622">
		<tag k="fixme" v="consider natural=peak for the most distinct mountains in the district" />
		<tag k="name" v="Jaeråsen" />
		<tag k="natural" v="hill" />
		<tag k="place" v="locality" />
		<tag k="ssr:stedsnr" v="386534" />
	</node>
	<node id="-256155" lat="59.807430552" lon="11.019183339">
		<tag k="fixme" v="consider natural=peak for the most distinct mountains in the district" />
		<tag k="name" v="Midtåsen" />
		<tag k="natural" v="hill" />
		<tag k="place" v="locality" />
		<tag k="ssr:stedsnr" v="327000" />
	</node>
	<node id="-256154" lat="59.7871972202" lon="10.9972194529">
		<tag k="name" v="Donmåsahøgdene" />
		<tag k="natural" v="hill" />
		<tag k="place" v="locality" />
		<tag k="ssr:stedsnr" v="326899" />
	</node>
	<node id="-256153" lat="59.7563638883" lon="10.972922227">
		<tag k="fixme" v="consider natural=peak for the most distinct mountains in the district" />
		<tag k="name" v="Dingsåsen" />
		<tag k="natural" v="hill" />
		<tag k="place" v="locality" />
		<tag k="ssr:stedsnr" v="326981" />
	</node>
	<node id="-255640" lat="59.7915055583" lon="11.0793499999">
		<tag k="fixme" v="consider natural=peak for the most distinct mountains in the district" />
		<tag k="name" v="Løkkepottåsen" />
		<tag k="natural" v="hill" />
		<tag k="place" v="locality" />
		<tag k="ssr:stedsnr" v="447935" />
	</node>
	<node id="-255639" lat="59.821686107" lon="11.0201333291">
		<tag k="fixme" v="consider natural=peak for the most distinct mountains in the district" />
		<tag k="name" v="Midtåsen" />
		<tag k="natural" v="hill" />
		<tag k="place" v="locality" />
		<tag k="ssr:stedsnr" v="447934" />
	</node>
	<node id="-255638" lat="59.8214666685" lon="11.0947277776">
		<tag k="fixme" v="consider natural=peak for the most distinct mountains in the district" />
		<tag k="name" v="Vestre Grasås" />
		<tag k="natural" v="hill" />
		<tag k="place" v="locality" />
		<tag k="ssr:stedsnr" v="447932" />
	</node>
	<node id="-255637" lat="59.8212833346" lon="11.0541666733">
		<tag k="fixme" v="consider natural=peak for the most distinct mountains in the district" />
		<tag k="name" v="Støttumåsen" />
		<tag k="natural" v="hill" />
		<tag k="place" v="locality" />
		<tag k="ssr:stedsnr" v="447928" />
	</node>
	<node id="-256148" lat="59.8105666675" lon="11.1163583397">
		<tag k="name" v="Reveberget" />
		<tag k="natural" v="hill" />
		<tag k="place" v="locality" />
		<tag k="ssr:stedsnr" v="326911" />
	</node>
	<node id="-255632" lat="59.720038887" lon="11.1120250085">
		<tag k="fixme" v="consider natural=peak for the most distinct mountains in the district" />
		<tag k="name" v="Sandåsen" />
		<tag k="natural" v="hill" />
		<tag k="place" v="locality" />
		<tag k="ssr:stedsnr" v="447525" />
	</node>
	<node id="-255631" lat="59.7029388909" lon="11.06772777">
		<tag k="fixme" v="consider natural=peak for the most distinct mountains in the district" />
		<tag k="name" v="Skåneåsen" />
		<tag k="natural" v="hill" />
		<tag k="place" v="locality" />
		<tag k="ssr:stedsnr" v="447524" />
	</node>
	<node id="-255630" lat="59.7371361105" lon="11.1200861199">
		<tag k="fixme" v="consider natural=peak for the most distinct mountains in the district" />
		<tag k="name" v="Brenningåsen" />
		<tag k="natural" v="hill" />
		<tag k="place" v="locality" />
		<tag k="ssr:stedsnr" v="447517" />
	</node>
	<node id="-255629" lat="59.7354388914" lon="11.180091668">
		<tag k="fixme" v="consider natural=peak for the most distinct mountains in the district" />
		<tag k="name" v="Huserudåsen" />
		<tag k="natural" v="hill" />
		<tag k="place" v="locality" />
		<tag k="ssr:stedsnr" v="447508" />
	</node>
	<node id="-255628" lat="59.7857111154" lon="10.9833694369">
		<tag k="name" v="Lønjedalen" />
		<tag k="natural" v="valley" />
		<tag k="place" v="locality" />
		<tag k="ssr:stedsnr" v="447503" />
	</node>
	<node id="-255641" lat="59.8210750001" lon="11.1398333356">
		<tag k="name" v="Styggedalen" />
		<tag k="natural" v="valley" />
		<tag k="place" v="locality" />
		<tag k="ssr:stedsnr" v="448546" />
	</node>
	<node id="-256207" lat="59.7140944469" lon="11.1960527825">
		<tag k="name" v="Almedalen" />
		<tag k="natural" v="valley" />
		<tag k="place" v="locality" />
		<tag k="ssr:stedsnr" v="387536" />
	</node>
	<node id="-256135" lat="59.6861916682" lon="11.1690972219">
		<tag k="fixme" v="consider natural=peak for the most distinct mountains in the district" />
		<tag k="name" v="Sandemfjellet" />
		<tag k="natural" v="hill" />
		<tag k="place" v="locality" />
		<tag k="ssr:stedsnr" v="326577" />
	</node>
	<node id="-256134" lat="59.7215611093" lon="11.1494722294">
		<tag k="fixme" v="consider natural=peak for the most distinct mountains in the district" />
		<tag k="name" v="Tyrihjellåsen" />
		<tag k="natural" v="hill" />
		<tag k="place" v="locality" />
		<tag k="ssr:stedsnr" v="326576" />
	</node>
	<node id="-256133" lat="59.7403250033" lon="11.1290583327">
		<tag k="fixme" v="consider natural=peak for the most distinct mountains in the district" />
		<tag k="name" v="Midtåsen" />
		<tag k="natural" v="hill" />
		<tag k="place" v="locality" />
		<tag k="ssr:stedsnr" v="326571" />
	</node>
	<node id="-255620" lat="59.7921999957" lon="10.9886250065">
		<tag k="fixme" v="consider natural=peak for the most distinct mountains in the district" />
		<tag k="name" v="Damkleivåsen" />
		<tag k="natural" v="hill" />
		<tag k="place" v="locality" />
		<tag k="ssr:stedsnr" v="429325" />
	</node>
	<node id="-255766" lat="59.7619333304" lon="11.0577583322">
		<tag k="name" v="Nebben" />
		<tag k="natural" v="hill" />
		<tag k="place" v="locality" />
		<tag k="ssr:stedsnr" v="690905" />
	</node>
	<node id="-256130" lat="59.7596055594" lon="11.0578694495">
		<tag k="name" v="Steinbakken" />
		<tag k="natural" v="valley" />
		<tag k="place" v="locality" />
		<tag k="ssr:stedsnr" v="326547" />
	</node>
	<node id="-256129" lat="59.8282583296" lon="11.0181472271">
		<tag k="name" v="Østre Tonekolldalen" />
		<tag k="natural" v="valley" />
		<tag k="place" v="locality" />
		<tag k="ssr:stedsnr" v="326541" />
	</node>
	<node id="-255614" lat="59.7691750001" lon="11.0570611144">
		<tag k="fixme" v="consider natural=peak for the most distinct mountains in the district" />
		<tag k="name" v="Delingsåsen" />
		<tag k="natural" v="hill" />
		<tag k="place" v="locality" />
		<tag k="ssr:stedsnr" v="508999" />
	</node>
	<node id="-255613" lat="59.7659333306" lon="11.0290916735">
		<tag k="fixme" v="consider natural=peak for the most distinct mountains in the district" />
		<tag k="name" v="Venåsen" />
		<tag k="natural" v="hill" />
		<tag k="place" v="locality" />
		<tag k="ssr:stedsnr" v="508994" />
	</node>
	<node id="-255612" lat="59.7558888848" lon="11.0373638827">
		<tag k="fixme" v="consider natural=peak for the most distinct mountains in the district" />
		<tag k="name" v="Seteråsen" />
		<tag k="natural" v="hill" />
		<tag k="place" v="locality" />
		<tag k="ssr:stedsnr" v="508993" />
	</node>
	<node id="-255611" lat="59.7919972216" lon="10.9912638881">
		<tag k="fixme" v="consider natural=peak for the most distinct mountains in the district" />
		<tag k="name" v="Grasåsen" />
		<tag k="natural" v="hill" />
		<tag k="place" v="locality" />
		<tag k="ssr:stedsnr" v="508986" />
	</node>
	<node id="-255610" lat="59.8281416639" lon="10.9626916605">
		<tag k="fixme" v="consider natural=peak for the most distinct mountains in the district" />
		<tag k="name" v="Hamliåsen" />
		<tag k="natural" v="hill" />
		<tag k="place" v="locality" />
		<tag k="ssr:stedsnr" v="508985" />
	</node>
	<node id="-255609" lat="59.8356083348" lon="10.9544527762">
		<tag k="fixme" v="consider natural=peak for the most distinct mountains in the district" />
		<tag k="name" v="Paradisåsen" />
		<tag k="natural" v="hill" />
		<tag k="place" v="locality" />
		<tag k="ssr:stedsnr" v="508982" />
	</node>
	<node id="-255608" lat="59.7514361078" lon="11.0984444474">
		<tag k="fixme" v="consider natural=peak for the most distinct mountains in the district" />
		<tag k="name" v="Holstadåsen" />
		<tag k="natural" v="hill" />
		<tag k="place" v="locality" />
		<tag k="ssr:stedsnr" v="508967" />
	</node>
	<node id="-255607" lat="59.7582500032" lon="11.0642333349">
		<tag k="fixme" v="consider natural=peak for the most distinct mountains in the district" />
		<tag k="name" v="Seteråsene" />
		<tag k="natural" v="hill" />
		<tag k="place" v="locality" />
		<tag k="ssr:stedsnr" v="508961" />
	</node>
	<node id="-255606" lat="59.7754944465" lon="11.0713138869">
		<tag k="fixme" v="consider natural=peak for the most distinct mountains in the district" />
		<tag k="name" v="Hareåsen" />
		<tag k="natural" v="hill" />
		<tag k="place" v="locality" />
		<tag k="ssr:stedsnr" v="508959" />
	</node>
	<node id="-256114" lat="59.7167166629" lon="11.1514027736">
		<tag k="fixme" v="consider natural=peak for the most distinct mountains in the district" />
		<tag k="name" v="Myrvollåsen" />
		<tag k="natural" v="hill" />
		<tag k="place" v="locality" />
		<tag k="ssr:stedsnr" v="307866" />
	</node>
	<node id="-255507" lat="59.7844055561" lon="11.1032861167">
		<tag k="name" v="Fjøsdalen" />
		<tag k="natural" v="valley" />
		<tag k="place" v="locality" />
		<tag k="ssr:stedsnr" v="266509" />
	</node>
	<node id="-255599" lat="59.7380305556" lon="11.1436277778">
		<tag k="fixme" v="consider natural=peak for the most distinct mountains in the district" />
		<tag k="name" v="Troåsa" />
		<tag k="natural" v="hill" />
		<tag k="place" v="locality" />
		<tag k="ssr:stedsnr" v="508594" />
	</node>
	<node id="-255598" lat="59.7197416701" lon="11.197549994">
>>>>>>> e1d4bc35ff8a6074a6f2e91616a996b547c36f15
		<tag k="fixme" v="consider natural=peak for the most distinct mountains in the district" />
		<tag k="name" v="Siljåsen" />
		<tag k="natural" v="hill" />
		<tag k="place" v="locality" />
		<tag k="ssr:stedsnr" v="508584" />
	</node>
<<<<<<< HEAD
	<node lat="59.73803055560653" lon="11.143627777807176" id="-20449">
		<tag k="fixme" v="consider natural=peak for the most distinct mountains in the district" />
		<tag k="name" v="Troåsa" />
		<tag k="natural" v="hill" />
		<tag k="place" v="locality" />
		<tag k="ssr:stedsnr" v="508594" />
	</node>
	<node lat="59.77549444651054" lon="11.071313886878492" id="-20456">
		<tag k="fixme" v="consider natural=peak for the most distinct mountains in the district" />
		<tag k="name" v="Hareåsen" />
		<tag k="natural" v="hill" />
		<tag k="place" v="locality" />
		<tag k="ssr:stedsnr" v="508959" />
	</node>
	<node lat="59.75825000320364" lon="11.064233334886836" id="-20457">
		<tag k="fixme" v="consider natural=peak for the most distinct mountains in the district" />
		<tag k="name" v="Seteråsene" />
		<tag k="natural" v="hill" />
		<tag k="place" v="locality" />
		<tag k="ssr:stedsnr" v="508961" />
	</node>
	<node lat="59.75143610775534" lon="11.098444447444319" id="-20458">
		<tag k="fixme" v="consider natural=peak for the most distinct mountains in the district" />
		<tag k="name" v="Holstadåsen" />
		<tag k="natural" v="hill" />
		<tag k="place" v="locality" />
		<tag k="ssr:stedsnr" v="508967" />
	</node>
	<node lat="59.83560833484791" lon="10.95445277619471" id="-20459">
		<tag k="fixme" v="consider natural=peak for the most distinct mountains in the district" />
		<tag k="name" v="Paradisåsen" />
		<tag k="natural" v="hill" />
		<tag k="place" v="locality" />
		<tag k="ssr:stedsnr" v="508982" />
	</node>
	<node lat="59.70655555149015" lon="10.989550003165926" id="-20469">
		<tag k="fixme" v="consider natural=peak for the most distinct mountains in the district" />
		<tag k="name" v="Gaupesteinåsen" />
		<tag k="natural" v="hill" />
		<tag k="place" v="locality" />
		<tag k="ssr:stedsnr" v="549375" />
	</node>
	<node lat="59.772883330942705" lon="11.008150000484774" id="-20472">
		<tag k="alt_name" v="Vinholåsen" />
		<tag k="fixme" v="consider natural=peak for the most distinct mountains in the district" />
		<tag k="name" v="Vikholåsen" />
		<tag k="natural" v="hill" />
		<tag k="place" v="locality" />
		<tag k="ssr:stedsnr" v="550410" />
	</node>
	<node lat="59.79972222551911" lon="11.00832221823608" id="-20476">
		<tag k="name" v="Kjerringhøgda" />
		<tag k="natural" v="hill" />
		<tag k="place" v="locality" />
		<tag k="ssr:stedsnr" v="550336" />
	</node>
	<node lat="59.82679722489483" lon="11.000405563988634" id="-20478">
		<tag k="name" v="Pølseberget" />
		<tag k="natural" v="hill" />
		<tag k="place" v="locality" />
		<tag k="ssr:stedsnr" v="550280" />
	</node>
	<node lat="59.818838884566766" lon="11.106316665979906" id="-20486">
		<tag k="alt_name" v="Grasåsen" />
		<tag k="fixme" v="consider natural=peak for the most distinct mountains in the district" />
		<tag k="name" v="Østre Grasås" />
		<tag k="natural" v="hill" />
		<tag k="place" v="locality" />
		<tag k="ssr:stedsnr" v="567741" />
	</node>
	<node lat="59.83056389253009" lon="11.009872230954395" id="-20492">
		<tag k="name" v="Vestre Tonekolldalen" />
		<tag k="natural" v="valley" />
		<tag k="place" v="locality" />
		<tag k="ssr:stedsnr" v="568497" />
	</node>
	<node lat="59.74266667034339" lon="11.097527782816462" id="-20496">
		<tag k="fixme" v="consider natural=peak for the most distinct mountains in the district" />
		<tag k="name" v="Lauvbrøtåsen" />
=======
	<node id="-255597" lat="59.6873611133" lon="11.184902775">
		<tag k="fixme" v="consider natural=peak for the most distinct mountains in the district" />
		<tag k="name" v="Tjernåsen" />
		<tag k="natural" v="hill" />
		<tag k="place" v="locality" />
		<tag k="ssr:stedsnr" v="508580" />
	</node>
	<node id="-256018" lat="59.75922222" lon="11.0874611086">
		<tag k="fixme" v="consider natural=peak for the most distinct mountains in the district" />
		<tag k="name" v="Høgåsen" />
		<tag k="natural" v="hill" />
		<tag k="place" v="locality" />
		<tag k="ssr:stedsnr" v="143953" />
	</node>
	<node id="-256106" lat="59.804972221" lon="11.0187805466">
		<tag k="alt_name" v="Mosjøhøgda" />
		<tag k="name" v="Mosjøhøgdene" />
		<tag k="natural" v="hill" />
		<tag k="place" v="locality" />
		<tag k="ssr:stedsnr" v="307372" />
	</node>
	<node id="-256017" lat="59.7854666657" lon="11.1055749911">
		<tag k="fixme" v="consider natural=peak for the most distinct mountains in the district" />
		<tag k="name" v="Fudalsåsen" />
		<tag k="natural" v="hill" />
		<tag k="place" v="locality" />
		<tag k="ssr:stedsnr" v="143946" />
	</node>
	<node id="-255588" lat="59.8222249961" lon="11.1059916653">
		<tag k="fixme" v="consider natural=peak for the most distinct mountains in the district" />
		<tag k="name" v="Trollåsen" />
		<tag k="natural" v="hill" />
		<tag k="place" v="locality" />
		<tag k="ssr:stedsnr" v="507082" />
	</node>
	<node id="-255586" lat="59.725808338" lon="11.0704388807">
		<tag k="fixme" v="consider natural=peak for the most distinct mountains in the district" />
		<tag k="name" v="Randiåsen" />
		<tag k="natural" v="hill" />
		<tag k="place" v="locality" />
		<tag k="ssr:stedsnr" v="386965" />
	</node>
	<node id="-255585" lat="59.756683333" lon="11.0890861123">
		<tag k="fixme" v="consider natural=peak for the most distinct mountains in the district" />
		<tag k="name" v="Trollmyråsen" />
		<tag k="natural" v="hill" />
		<tag k="place" v="locality" />
		<tag k="ssr:stedsnr" v="386962" />
	</node>
	<node id="-256016" lat="59.7912583316" lon="11.1002777844">
		<tag k="fixme" v="consider natural=peak for the most distinct mountains in the district" />
		<tag k="name" v="Smååsene" />
		<tag k="natural" v="hill" />
		<tag k="place" v="locality" />
		<tag k="ssr:stedsnr" v="143941" />
	</node>
	<node id="-255579" lat="59.7845833379" lon="11.1578083251">
		<tag k="fixme" v="consider natural=peak for the most distinct mountains in the district" />
		<tag k="name" v="Tjoneåsen" />
		<tag k="natural" v="hill" />
		<tag k="place" v="locality" />
		<tag k="ssr:stedsnr" v="386524" />
	</node>
	<node id="-255578" lat="59.6927027813" lon="11.201988882">
		<tag k="fixme" v="consider natural=peak for the most distinct mountains in the district" />
		<tag k="name" v="Grinnaåsen" />
		<tag k="natural" v="hill" />
		<tag k="place" v="locality" />
		<tag k="ssr:stedsnr" v="386517" />
	</node>
	<node id="-256015" lat="59.8286444453" lon="11.0567361048">
		<tag k="name" v="Skjærmåsahøgda" />
		<tag k="natural" v="hill" />
		<tag k="place" v="locality" />
		<tag k="ssr:stedsnr" v="143894" />
	</node>
	<node id="-255575" lat="59.7643027782" lon="11.2106666596">
		<tag k="fixme" v="consider natural=peak for the most distinct mountains in the district" />
		<tag k="name" v="Solbergåsen" />
		<tag k="natural" v="hill" />
		<tag k="place" v="locality" />
		<tag k="ssr:stedsnr" v="490886" />
	</node>
	<node id="-256083" lat="59.7286305541" lon="11.1264416647">
		<tag k="name" v="Styggdalen" />
		<tag k="natural" v="valley" />
		<tag k="place" v="locality" />
		<tag k="ssr:stedsnr" v="205561" />
	</node>
	<node id="-255693" lat="59.8252972191" lon="10.9751083328">
		<tag k="name" v="Gråbeindalen" />
		<tag k="natural" v="valley" />
		<tag k="place" v="locality" />
		<tag k="ssr:stedsnr" v="690580" />
	</node>
	<node id="-255560" lat="59.7411083343" lon="11.1143388846">
		<tag k="fixme" v="consider natural=peak for the most distinct mountains in the district" />
		<tag k="name" v="Sloråsen" />
>>>>>>> e1d4bc35ff8a6074a6f2e91616a996b547c36f15
		<tag k="natural" v="hill" />
		<tag k="old_name" v="Storåsen" />
		<tag k="place" v="locality" />
<<<<<<< HEAD
		<tag k="ssr:stedsnr" v="568535" />
	</node>
	<node lat="59.7254361153848" lon="10.987069438141331" id="-20500">
		<tag k="fixme" v="consider natural=peak for the most distinct mountains in the district" />
		<tag k="name" v="Sandgruåsen" />
		<tag k="natural" v="hill" />
		<tag k="place" v="locality" />
		<tag k="ssr:stedsnr" v="568982" />
	</node>
	<node lat="59.7654333344036" lon="10.995752783803804" id="-20501">
		<tag k="fixme" v="consider natural=peak for the most distinct mountains in the district" />
		<tag k="name" v="Kukleivåsen" />
		<tag k="natural" v="hill" />
		<tag k="place" v="locality" />
		<tag k="ssr:stedsnr" v="568983" />
	</node>
	<node lat="59.74686944725469" lon="10.983616662663556" id="-20502">
		<tag k="fixme" v="consider natural=peak for the most distinct mountains in the district" />
		<tag k="name" v="Spaningsåsen" />
		<tag k="natural" v="hill" />
		<tag k="place" v="locality" />
		<tag k="ssr:stedsnr" v="568984" />
	</node>
	<node lat="59.706569444212356" lon="11.009727774290049" id="-20503">
		<tag k="fixme" v="consider natural=peak for the most distinct mountains in the district" />
		<tag k="name" v="Nessåsen" />
		<tag k="natural" v="hill" />
		<tag k="place" v="locality" />
		<tag k="ssr:stedsnr" v="568987" />
	</node>
	<node lat="59.75154999979346" lon="11.045302775044052" id="-20504">
		<tag k="fixme" v="consider natural=peak for the most distinct mountains in the district" />
		<tag k="name" v="Lyåsen" />
		<tag k="natural" v="hill" />
		<tag k="place" v="locality" />
		<tag k="ssr:stedsnr" v="568992" />
	</node>
	<node lat="59.80962777819449" lon="11.033991668578786" id="-20505">
		<tag k="fixme" v="consider natural=peak for the most distinct mountains in the district" />
		<tag k="name" v="Grasås" />
		<tag k="natural" v="hill" />
		<tag k="place" v="locality" />
		<tag k="ssr:stedsnr" v="568937" />
	</node>
	<node lat="59.80165277996521" lon="11.057569439820647" id="-20529">
		<tag k="name" v="Pølsedalen" />
		<tag k="natural" v="valley" />
		<tag k="place" v="locality" />
		<tag k="ssr:stedsnr" v="629535" />
	</node>
	<node lat="59.764788887857655" lon="11.016230548255074" id="-20530">
		<tag k="name" v="Raukleiva" />
		<tag k="natural" v="valley" />
		<tag k="place" v="locality" />
		<tag k="ssr:stedsnr" v="629537" />
	</node>
	<node lat="59.72319999933886" lon="11.12223610514475" id="-20533">
		<tag k="fixme" v="consider natural=peak for the most distinct mountains in the district" />
		<tag k="name" v="Lundsåsen" />
		<tag k="natural" v="hill" />
		<tag k="place" v="locality" />
		<tag k="ssr:stedsnr" v="629559" />
	</node>
	<node lat="59.816783332332136" lon="10.969369452872337" id="-20536">
		<tag k="name" v="Hestehøgdene" />
		<tag k="natural" v="hill" />
		<tag k="place" v="locality" />
		<tag k="ssr:stedsnr" v="629902" />
	</node>
	<node lat="59.71301944136037" lon="11.044099998242508" id="-20537">
		<tag k="fixme" v="consider natural=peak for the most distinct mountains in the district" />
		<tag k="name" v="Damåsen" />
		<tag k="natural" v="hill" />
		<tag k="place" v="locality" />
		<tag k="ssr:stedsnr" v="629987" />
	</node>
	<node lat="59.712047220157416" lon="11.06753888294437" id="-20538">
		<tag k="name" v="Styggedalen" />
		<tag k="natural" v="valley" />
		<tag k="place" v="locality" />
		<tag k="ssr:stedsnr" v="630463" />
	</node>
	<node lat="59.71903055455996" lon="11.065191662135126" id="-20542">
		<tag k="fixme" v="consider natural=peak for the most distinct mountains in the district" />
		<tag k="name" v="Fauseråsen" />
		<tag k="natural" v="hill" />
		<tag k="place" v="locality" />
		<tag k="ssr:stedsnr" v="630661" />
	</node>
	<node lat="59.80142500142525" lon="11.095852774397503" id="-20555">
		<tag k="fixme" v="consider natural=peak for the most distinct mountains in the district" />
		<tag k="name" v="Kirkåsen" />
		<tag k="natural" v="hill" />
		<tag k="place" v="locality" />
		<tag k="ssr:stedsnr" v="733825" />
	</node>
	<node lat="59.71770000360788" lon="11.209280559788722" id="-20563">
		<tag k="fixme" v="consider natural=peak for the most distinct mountains in the district" />
		<tag k="name" v="Smieåsen" />
		<tag k="natural" v="hill" />
		<tag k="place" v="locality" />
		<tag k="ssr:stedsnr" v="750526" />
	</node>
	<node lat="59.73948611259382" lon="11.133069440068377" id="-20564">
		<tag k="fixme" v="consider natural=peak for the most distinct mountains in the district" />
		<tag k="name" v="Tjernåsen" />
		<tag k="natural" v="hill" />
		<tag k="place" v="locality" />
		<tag k="ssr:stedsnr" v="750534" />
	</node>
	<node lat="59.77072500232575" lon="11.104108330009234" id="-20567">
		<tag k="name" v="Smestadberget" />
		<tag k="natural" v="hill" />
		<tag k="place" v="locality" />
		<tag k="ssr:stedsnr" v="750877" />
	</node>
	<node lat="59.7689861102734" lon="11.053030562332852" id="-20568">
		<tag k="fixme" v="consider natural=peak for the most distinct mountains in the district" />
		<tag k="name" v="Merraåsen" />
		<tag k="natural" v="hill" />
		<tag k="place" v="locality" />
		<tag k="ssr:stedsnr" v="750994" />
	</node>
	<node lat="59.71788055820413" lon="11.213022222696747" id="-20571">
		<tag k="name" v="Ildalen" />
		<tag k="natural" v="valley" />
		<tag k="place" v="locality" />
		<tag k="ssr:stedsnr" v="751540" />
	</node>
	<node lat="59.75019999786704" lon="11.085972218971724" id="-20572">
		<tag k="name" v="Rødkleiva" />
		<tag k="natural" v="valley" />
		<tag k="place" v="locality" />
		<tag k="ssr:stedsnr" v="751541" />
	</node>
	<node lat="59.74459167015389" lon="11.08946110450457" id="-20573">
		<tag k="name" v="Kløyvdalen" />
		<tag k="natural" v="valley" />
		<tag k="place" v="locality" />
		<tag k="ssr:stedsnr" v="751543" />
	</node>
	<node lat="59.7223500037297" lon="11.027816662179522" id="-20580">
		<tag k="alt_name" v="Kjellgårdsåsen" />
		<tag k="fixme" v="consider natural=peak for the most distinct mountains in the district" />
		<tag k="name" v="Vågvassåsen" />
		<tag k="natural" v="hill" />
		<tag k="place" v="locality" />
		<tag k="ssr:stedsnr" v="792558" />
	</node>
	<node lat="59.79449999927507" lon="11.028825005005269" id="-20581">
		<tag k="fixme" v="consider natural=peak for the most distinct mountains in the district" />
		<tag k="name" v="Nordbyåsen" />
		<tag k="natural" v="hill" />
		<tag k="place" v="locality" />
		<tag k="ssr:stedsnr" v="793367" />
	</node>
	<node lat="59.77817222654995" lon="11.050019444737767" id="-20582">
		<tag k="alt_name" v="Ekebergkollen" />
		<tag k="fixme" v="consider natural=peak for the most distinct mountains in the district" />
		<tag k="name" v="Eikebergkollen" />
		<tag k="natural" v="hill" />
		<tag k="place" v="locality" />
		<tag k="ssr:stedsnr" v="793450" />
	</node>
	<node lat="59.8153194401256" lon="11.147963882308956" id="-20596">
		<tag k="fixme" v="consider natural=peak for the most distinct mountains in the district" />
		<tag k="name" v="Sandås" />
		<tag k="natural" v="hill" />
		<tag k="place" v="locality" />
		<tag k="ssr:stedsnr" v="811525" />
	</node>
	<node lat="59.801086115020205" lon="10.984558341530162" id="-20603">
		<tag k="name" v="Gørrtjernsrabben" />
		<tag k="natural" v="hill" />
		<tag k="place" v="locality" />
		<tag k="ssr:stedsnr" v="811854" />
	</node>
	<node lat="59.794980558262594" lon="11.091419439560157" id="-20604">
		<tag k="name" v="Brannkula" />
		<tag k="natural" v="hill" />
		<tag k="place" v="locality" />
		<tag k="ssr:stedsnr" v="811876" />
	</node>
	<node lat="59.8205638910624" lon="11.030130548559985" id="-20605">
		<tag k="alt_name" v="Deliseterhøgda" />
		<tag k="name" v="Dæliseterhøgda" />
		<tag k="natural" v="hill" />
		<tag k="place" v="locality" />
		<tag k="ssr:stedsnr" v="811883" />
	</node>
	<node lat="59.826108330597066" lon="11.087363880573768" id="-20606">
		<tag k="fixme" v="consider natural=peak for the most distinct mountains in the district" />
		<tag k="name" v="Lauvhesjeåsen" />
		<tag k="natural" v="hill" />
		<tag k="place" v="locality" />
		<tag k="ssr:stedsnr" v="811942" />
	</node>
	<node lat="59.77839721943524" lon="11.097388888403325" id="-20607">
		<tag k="fixme" v="consider natural=peak for the most distinct mountains in the district" />
		<tag k="name" v="Nygårdsåsen" />
		<tag k="natural" v="hill" />
		<tag k="place" v="locality" />
		<tag k="ssr:stedsnr" v="811950" />
	</node>
	<node lat="59.74111666544041" lon="11.141622219389747" id="-20608">
		<tag k="name" v="Holttjerntoppen" />
		<tag k="natural" v="hill" />
		<tag k="place" v="locality" />
		<tag k="ssr:stedsnr" v="811966" />
	</node>
	<node lat="59.845580557265706" lon="10.980622223755773" id="-20616">
		<tag k="fixme" v="consider natural=peak for the most distinct mountains in the district" />
		<tag k="name" v="Liseterkollen" />
		<tag k="natural" v="hill" />
		<tag k="place" v="locality" />
		<tag k="ssr:stedsnr" v="817811" />
	</node>
	<node lat="59.70208055842936" lon="11.025505560193068" id="-20618">
		<tag k="fixme" v="consider natural=peak for the most distinct mountains in the district" />
		<tag k="name" v="Mjærskaukollen" />
		<tag k="natural" v="hill" />
		<tag k="place" v="locality" />
		<tag k="ssr:stedsnr" v="853382" />
	</node>
	<node lat="59.73255555366044" lon="11.15902499455439" id="-20624">
		<tag k="fixme" v="consider natural=peak for the most distinct mountains in the district" />
		<tag k="name" v="Meieriåsen" />
		<tag k="natural" v="hill" />
		<tag k="place" v="locality" />
		<tag k="ssr:stedsnr" v="854077" />
	</node>
	<node lat="59.75665000446425" lon="10.981402770202976" id="-20625">
		<tag k="alt_name" v="Bråteåsen" />
		<tag k="fixme" v="consider natural=peak for the most distinct mountains in the district" />
		<tag k="name" v="Bråtaåsen" />
		<tag k="natural" v="hill" />
		<tag k="place" v="locality" />
		<tag k="ssr:stedsnr" v="854391" />
	</node>
	<node lat="59.75792500351608" lon="11.162797226753332" id="-20633">
		<tag k="name" v="Enebakkdalen" />
		<tag k="natural" v="valley" />
		<tag k="place" v="locality" />
		<tag k="ssr:stedsnr" v="854926" />
	</node>
	<node lat="59.735744446436435" lon="11.095841665470308" id="-20641">
		<tag k="fixme" v="consider natural=peak for the most distinct mountains in the district" />
		<tag k="name" v="Hvitsteinåsen" />
		<tag k="natural" v="hill" />
		<tag k="place" v="locality" />
		<tag k="ssr:stedsnr" v="872592" />
	</node>
	<node lat="59.76906666832679" lon="11.094461103411511" id="-20647">
		<tag k="name" v="Langtjernhøgda" />
		<tag k="natural" v="hill" />
		<tag k="place" v="locality" />
		<tag k="ssr:stedsnr" v="872906" />
	</node>
	<node lat="59.82673611367292" lon="11.035175002575524" id="-20648">
		<tag k="name" v="Ørnehøgda" />
		<tag k="natural" v="hill" />
		<tag k="place" v="locality" />
		<tag k="ssr:stedsnr" v="872909" />
	</node>
	<node lat="59.77788611508791" lon="11.075513890083474" id="-20649">
		<tag k="fixme" v="consider natural=peak for the most distinct mountains in the district" />
		<tag k="name" v="Merraåsen" />
		<tag k="natural" v="hill" />
		<tag k="place" v="locality" />
		<tag k="ssr:stedsnr" v="872961" />
	</node>
	<node lat="59.74396110709237" lon="11.01321388824175" id="-20650">
		<tag k="fixme" v="consider natural=peak for the most distinct mountains in the district" />
		<tag k="name" v="Høgås" />
		<tag k="natural" v="hill" />
		<tag k="place" v="locality" />
		<tag k="ssr:stedsnr" v="872988" />
	</node>
	<node lat="59.76664444147128" lon="11.051252785211805" id="-20651">
		<tag k="fixme" v="consider natural=peak for the most distinct mountains in the district" />
		<tag k="name" v="Mareåsen" />
		<tag k="natural" v="hill" />
		<tag k="place" v="locality" />
		<tag k="ssr:stedsnr" v="872990" />
	</node>
	<node lat="59.825409406842354" lon="11.138637521300907" id="-20674">
		<tag k="fixme" v="consider natural=peak for the most distinct mountains in the district" />
		<tag k="name" v="Høgås" />
		<tag k="natural" v="hill" />
		<tag k="place" v="locality" />
		<tag k="ssr:stedsnr" v="1079512" />
=======
		<tag k="ssr:stedsnr" v="489092" />
	</node>
	<node id="-256071" lat="59.7564277746" lon="11.0057166579">
		<tag k="fixme" v="consider natural=peak for the most distinct mountains in the district" />
		<tag k="name" v="Treåsen" />
		<tag k="natural" v="hill" />
		<tag k="place" v="locality" />
		<tag k="ssr:stedsnr" v="204992" />
	</node>
	<node id="-256070" lat="59.7173166689" lon="11.0431472265">
		<tag k="fixme" v="consider natural=peak for the most distinct mountains in the district" />
		<tag k="name" v="Teigåsen" />
		<tag k="natural" v="hill" />
		<tag k="place" v="locality" />
		<tag k="ssr:stedsnr" v="204987" />
	</node>
	<node id="-256069" lat="59.8384250017" lon="10.9742055561">
		<tag k="fixme" v="consider natural=peak for the most distinct mountains in the district" />
		<tag k="name" v="Vardåsen" />
		<tag k="natural" v="hill" />
		<tag k="place" v="locality" />
		<tag k="ssr:stedsnr" v="204976" />
	</node>
	<node id="-256068" lat="59.8197361127" lon="11.0654527811">
		<tag k="name" v="Kåterudhøgdene" />
		<tag k="natural" v="hill" />
		<tag k="place" v="locality" />
		<tag k="ssr:stedsnr" v="204895" />
	</node>
	<node id="-255555" lat="59.8264527755" lon="10.9789388909">
		<tag k="name" v="Askevannshøgda" />
		<tag k="natural" v="hill" />
		<tag k="place" v="locality" />
		<tag k="ssr:stedsnr" v="326905" />
	</node>
	<node id="-256066" lat="59.7797527739" lon="11.0898222217">
		<tag k="name" v="Middagsbergåsen" />
		<tag k="natural" v="hill" />
		<tag k="place" v="locality" />
		<tag k="ssr:stedsnr" v="204892" />
	</node>
	<node id="-256064" lat="59.8270722191" lon="11.1308222222">
		<tag k="fixme" v="consider natural=peak for the most distinct mountains in the district" />
		<tag k="name" v="Rompåsen" />
		<tag k="natural" v="hill" />
		<tag k="place" v="locality" />
		<tag k="ssr:stedsnr" v="204492" />
	</node>
	<node id="-256063" lat="59.7260722268" lon="11.1969138838">
		<tag k="fixme" v="consider natural=peak for the most distinct mountains in the district" />
		<tag k="name" v="St. Hansåsen" />
		<tag k="natural" v="hill" />
		<tag k="place" v="locality" />
		<tag k="ssr:stedsnr" v="204489" />
	</node>
	<node id="-255550" lat="59.8345666625" lon="11.1096055551">
		<tag k="fixme" v="consider natural=peak for the most distinct mountains in the district" />
		<tag k="name" v="Berskauåsen" />
		<tag k="natural" v="hill" />
		<tag k="place" v="locality" />
		<tag k="ssr:stedsnr" v="326314" />
	</node>
	<node id="-256061" lat="59.8067249967" lon="11.0762972235">
		<tag k="name" v="Bølerdalen" />
		<tag k="natural" v="valley" />
		<tag k="place" v="locality" />
		<tag k="ssr:stedsnr" v="204461" />
	</node>
	<node id="-256057" lat="59.7631722262" lon="10.9812333323">
		<tag k="alt_name" v="Hytteåsen" />
		<tag k="fixme" v="consider natural=peak for the most distinct mountains in the district" />
		<tag k="name" v="Hyttåsen" />
		<tag k="natural" v="hill" />
		<tag k="place" v="locality" />
		<tag k="ssr:stedsnr" v="187505" />
	</node>
	<node id="-256056" lat="59.750080559" lon="10.9796027741">
		<tag k="fixme" v="consider natural=peak for the most distinct mountains in the district" />
		<tag k="name" v="Midtåsen" />
		<tag k="natural" v="hill" />
		<tag k="place" v="locality" />
		<tag k="ssr:stedsnr" v="187449" />
	</node>
	<node id="-255538" lat="59.7543416681" lon="11.028277773">
		<tag k="fixme" v="consider natural=peak for the most distinct mountains in the district" />
		<tag k="name" v="Brenningsåsen" />
		<tag k="natural" v="hill" />
		<tag k="place" v="locality" />
		<tag k="ssr:stedsnr" v="447993" />
	</node>
	<node id="-255537" lat="59.7181333308" lon="10.9938972272">
		<tag k="fixme" v="consider natural=peak for the most distinct mountains in the district" />
		<tag k="name" v="Moskauåsen" />
		<tag k="natural" v="hill" />
		<tag k="place" v="locality" />
		<tag k="ssr:stedsnr" v="447979" />
	</node>
	<node id="-255536" lat="59.7846694429" lon="11.0889861123">
		<tag k="name" v="Pølseberget" />
		<tag k="natural" v="hill" />
		<tag k="place" v="locality" />
		<tag k="ssr:stedsnr" v="447873" />
	</node>
	<node id="-255535" lat="59.8353250022" lon="10.9914611061">
		<tag k="name" v="Tonevannkalven" />
		<tag k="natural" v="hill" />
		<tag k="place" v="locality" />
		<tag k="ssr:stedsnr" v="447870" />
	</node>
	<node id="-256046" lat="59.8006222201" lon="11.0635499954">
		<tag k="name" v="Breidsjøhøgda" />
		<tag k="natural" v="hill" />
		<tag k="place" v="locality" />
		<tag k="ssr:stedsnr" v="186382" />
	</node>
	<node id="-255531" lat="59.7751499977" lon="11.0162361064">
		<tag k="loc_name" v="Vikholdalen" />
		<tag k="name" v="Vinholdalen" />
		<tag k="natural" v="valley" />
		<tag k="place" v="locality" />
		<tag k="ssr:stedsnr" v="447499" />
	</node>
	<node id="-256036" lat="59.7103833296" lon="11.0077333247">
		<tag k="fixme" v="consider natural=peak for the most distinct mountains in the district" />
		<tag k="name" v="Brennåsen" />
		<tag k="natural" v="hill" />
		<tag k="place" v="locality" />
		<tag k="ssr:stedsnr" v="185516" />
	</node>
	<node id="-255769" lat="59.8014250014" lon="11.0958527744">
		<tag k="fixme" v="consider natural=peak for the most distinct mountains in the district" />
		<tag k="name" v="Kirkåsen" />
		<tag k="natural" v="hill" />
		<tag k="place" v="locality" />
		<tag k="ssr:stedsnr" v="733825" />
	</node>
	<node id="-256312" lat="59.8025305555" lon="11.0338500049">
		<tag k="name" v="Nedsagmoen" />
		<tag k="place" v="locality" />
		<tag k="ssr:stedsnr" v="629541" />
	</node>
	<node id="-256028" lat="59.7480694453" lon="11.0793055556">
		<tag k="name" v="Kleivdalen" />
		<tag k="natural" v="valley" />
		<tag k="place" v="locality" />
		<tag k="ssr:stedsnr" v="144550" />
	</node>
	<node id="-256027" lat="59.7510722263" lon="11.0941861133">
		<tag k="name" v="Trolldalen" />
		<tag k="natural" v="valley" />
		<tag k="place" v="locality" />
		<tag k="ssr:stedsnr" v="144541" />
	</node>
	<node id="-256026" lat="59.7953027783" lon="11.0092861066">
		<tag k="fixme" v="consider natural=peak for the most distinct mountains in the district" />
		<tag k="name" v="Bakeråsen" />
		<tag k="natural" v="hill" />
		<tag k="place" v="locality" />
		<tag k="ssr:stedsnr" v="143999" />
	</node>
	<node id="-256025" lat="59.7840111139" lon="11.0541388908">
		<tag k="fixme" v="consider natural=peak for the most distinct mountains in the district" />
		<tag k="name" v="Strutåsen" />
		<tag k="natural" v="hill" />
		<tag k="place" v="locality" />
		<tag k="ssr:stedsnr" v="143995" />
	</node>
	<node id="-256024" lat="59.7808230242" lon="11.0040440026">
		<tag k="fixme" v="consider natural=peak for the most distinct mountains in the district" />
		<tag k="name" v="Svartåsen" />
		<tag k="natural" v="hill" />
		<tag k="place" v="locality" />
		<tag k="ssr:stedsnr" v="143993" />
	</node>
	<node id="-256023" lat="59.7616777822" lon="11.0287194461">
		<tag k="fixme" v="consider natural=peak for the most distinct mountains in the district" />
		<tag k="name" v="Vikstjernåsen" />
		<tag k="natural" v="hill" />
		<tag k="place" v="locality" />
		<tag k="ssr:stedsnr" v="143992" />
	</node>
	<node id="-256022" lat="59.7621083379" lon="11.009416664">
		<tag k="fixme" v="consider natural=peak for the most distinct mountains in the district" />
		<tag k="name" v="Nordjordåsen" />
		<tag k="natural" v="hill" />
		<tag k="place" v="locality" />
		<tag k="ssr:stedsnr" v="143988" />
	</node>
	<node id="-256021" lat="59.7633250018" lon="10.9634722236">
		<tag k="fixme" v="consider natural=peak for the most distinct mountains in the district" />
		<tag k="name" v="Langskogåsen" />
		<tag k="natural" v="hill" />
		<tag k="place" v="locality" />
		<tag k="ssr:stedsnr" v="143979" />
	</node>
	<node id="-256020" lat="59.7796611145" lon="10.9920416635">
		<tag k="fixme" v="consider natural=peak for the most distinct mountains in the district" />
		<tag k="name" v="Hølåsen" />
		<tag k="natural" v="hill" />
		<tag k="place" v="locality" />
		<tag k="ssr:stedsnr" v="143978" />
	</node>
	<node id="-256280" lat="59.7254361154" lon="10.9870694381">
		<tag k="fixme" v="consider natural=peak for the most distinct mountains in the district" />
		<tag k="name" v="Sandgruåsen" />
		<tag k="natural" v="hill" />
		<tag k="place" v="locality" />
		<tag k="ssr:stedsnr" v="568982" />
	</node>
	<node id="-255506" lat="59.7218499961" lon="11.1140527772">
		<tag k="name" v="Lønjedalen" />
		<tag k="natural" v="valley" />
		<tag k="place" v="locality" />
		<tag k="ssr:stedsnr" v="266505" />
	</node>
	<node id="-255505" lat="59.8009749995" lon="11.0207472301">
		<tag k="fixme" v="consider natural=peak for the most distinct mountains in the district" />
		<tag k="name" v="Nebbåsen" />
		<tag k="natural" v="hill" />
		<tag k="place" v="locality" />
		<tag k="ssr:stedsnr" v="265999" />
	</node>
	<node id="-255504" lat="59.7161611129" lon="10.9919305526">
		<tag k="fixme" v="consider natural=peak for the most distinct mountains in the district" />
		<tag k="name" v="Vittenbergåsen" />
		<tag k="natural" v="hill" />
		<tag k="place" v="locality" />
		<tag k="ssr:stedsnr" v="265982" />
	</node>
	<node id="-255503" lat="59.7582944474" lon="11.0762277849">
		<tag k="fixme" v="consider natural=peak for the most distinct mountains in the district" />
		<tag k="name" v="Raubakkåsen" />
		<tag k="natural" v="hill" />
		<tag k="place" v="locality" />
		<tag k="ssr:stedsnr" v="265960" />
	</node>
	<node id="-255502" lat="59.7670527744" lon="11.0760111188">
		<tag k="fixme" v="consider natural=peak for the most distinct mountains in the district" />
		<tag k="name" v="Kutjernåsen" />
		<tag k="natural" v="hill" />
		<tag k="place" v="locality" />
		<tag k="ssr:stedsnr" v="265959" />
	</node>
	<node id="-255501" lat="59.7476888926" lon="11.0902666716">
		<tag k="fixme" v="consider natural=peak for the most distinct mountains in the district" />
		<tag k="name" v="Brenningsåsen" />
		<tag k="natural" v="hill" />
		<tag k="place" v="locality" />
		<tag k="ssr:stedsnr" v="265958" />
	</node>
	<node id="-255500" lat="59.7765472253" lon="11.0613583254">
		<tag k="fixme" v="consider natural=peak for the most distinct mountains in the district" />
		<tag k="name" v="Saumyråsen" />
		<tag k="natural" v="hill" />
		<tag k="place" v="locality" />
		<tag k="ssr:stedsnr" v="265951" />
	</node>
	<node id="-255499" lat="59.8162527806" lon="11.0750027845">
		<tag k="fixme" v="consider natural=peak for the most distinct mountains in the district" />
		<tag k="name" v="Fjøsåsen" />
		<tag k="natural" v="hill" />
		<tag k="place" v="locality" />
		<tag k="ssr:stedsnr" v="265947" />
	</node>
	<node id="-255498" lat="59.8137555595" lon="11.1027527847">
		<tag k="fixme" v="consider natural=peak for the most distinct mountains in the district" />
		<tag k="name" v="St. Hansåsen" />
		<tag k="natural" v="hill" />
		<tag k="place" v="locality" />
		<tag k="ssr:stedsnr" v="265941" />
	</node>
	<node id="-255497" lat="59.7983083302" lon="11.0348527736">
		<tag k="fixme" v="consider natural=peak for the most distinct mountains in the district" />
		<tag k="name" v="Mellomsagåsen" />
		<tag k="natural" v="hill" />
		<tag k="place" v="locality" />
		<tag k="ssr:stedsnr" v="265940" />
	</node>
	<node id="-255496" lat="59.8217111142" lon="11.0462972274">
		<tag k="fixme" v="consider natural=peak for the most distinct mountains in the district" />
		<tag k="name" v="Brentåsen" />
		<tag k="natural" v="hill" />
		<tag k="place" v="locality" />
		<tag k="ssr:stedsnr" v="265936" />
	</node>
	<node id="-256007" lat="59.7089694403" lon="11.1980638799">
		<tag k="fixme" v="consider natural=peak for the most distinct mountains in the district" />
		<tag k="name" v="Årsrudåsen" />
		<tag k="natural" v="hill" />
		<tag k="place" v="locality" />
		<tag k="ssr:stedsnr" v="143530" />
	</node>
	<node id="-256006" lat="59.8132472266" lon="10.9730666672">
		<tag k="name" v="Hestedalen" />
		<tag k="natural" v="valley" />
		<tag k="place" v="locality" />
		<tag k="ssr:stedsnr" v="143525" />
>>>>>>> e1d4bc35ff8a6074a6f2e91616a996b547c36f15
	</node>
</osm>
