<?xml version="1.0" encoding="UTF-8"?>
<<<<<<< HEAD
<osm version="0.6" generator="osmapis">
	<node lat="59.74930833335723" lon="11.203525004335964" id="-19685">
		<tag k="name" v="Vennevollsleira" />
		<tag k="place" v="locality" />
		<tag k="ssr:stedsnr" v="84728" />
	</node>
	<node lat="59.75084444178514" lon="11.20435277500104" id="-19686">
		<tag k="name" v="Byleira" />
		<tag k="place" v="locality" />
		<tag k="ssr:stedsnr" v="84729" />
	</node>
	<node lat="59.79904721844582" lon="11.152027774588948" id="-19687">
		<tag k="name" v="Nylandsmåsan" />
		<tag k="natural" v="wetland" />
		<tag k="ssr:stedsnr" v="84630" />
	</node>
	<node lat="59.80649444583363" lon="11.093447230167726" id="-19702">
		<tag k="name" v="Solbergmåsan" />
		<tag k="natural" v="wetland" />
		<tag k="ssr:stedsnr" v="247794" />
	</node>
	<node lat="59.76263611453839" lon="11.03779722655178" id="-19742">
		<tag k="name" v="Kongsbergmåsan" />
		<tag k="natural" v="wetland" />
		<tag k="old_name" v="Kongsbergmosan" />
		<tag k="ssr:stedsnr" v="187388" />
	</node>
	<node lat="59.83686110782761" lon="11.112572225374624" id="-19759">
=======
<osm generator="osmapis" version="0.6">
	<node id="-255471" lat="59.8368611078" lon="11.1125722254">
>>>>>>> e1d4bc35ff8a6074a6f2e91616a996b547c36f15
		<tag k="name" v="Bråtamyra" />
		<tag k="natural" v="wetland" />
		<tag k="ssr:stedsnr" v="265326" />
	</node>
<<<<<<< HEAD
	<node lat="59.69452222326066" lon="11.159583334511625" id="-19773">
		<tag k="name" v="Gurimåsan" />
		<tag k="natural" v="wetland" />
		<tag k="ssr:stedsnr" v="266612" />
	</node>
	<node lat="59.73304444279887" lon="11.129552781583184" id="-19774">
		<tag k="name" v="Breimåsan" />
		<tag k="natural" v="wetland" />
		<tag k="ssr:stedsnr" v="266614" />
	</node>
	<node lat="59.824191663760736" lon="11.083469449354787" id="-19775">
		<tag k="name" v="Skåbommen" />
		<tag k="place" v="locality" />
		<tag k="ssr:stedsnr" v="266617" />
	</node>
	<node lat="59.75604444518499" lon="11.052427781439398" id="-19776">
		<tag k="name" v="Haugmåsan" />
		<tag k="natural" v="wetland" />
		<tag k="ssr:stedsnr" v="266627" />
	</node>
	<node lat="59.827691666151615" lon="10.95940833843957" id="-19780">
		<tag k="name" v="Hamlimåsan" />
		<tag k="natural" v="wetland" />
		<tag k="ssr:stedsnr" v="204637" />
	</node>
	<node lat="59.75301943997624" lon="11.20900556180158" id="-19799">
		<tag k="name" v="Nesleira" />
		<tag k="place" v="locality" />
		<tag k="ssr:stedsnr" v="205753" />
	</node>
	<node lat="59.82328055243377" lon="11.117066661907948" id="-19809">
		<tag k="name" v="Breimåsan" />
		<tag k="natural" v="wetland" />
		<tag k="old_name" v="Breidmosan" />
		<tag k="ssr:stedsnr" v="247764" />
	</node>
	<node lat="59.80695833156802" lon="11.06360832569919" id="-19826">
		<tag k="name" v="Langslora" />
		<tag k="natural" v="wetland" />
		<tag k="ssr:stedsnr" v="266636" />
	</node>
	<node lat="59.76531388476239" lon="11.091549992072798" id="-19828">
		<tag k="name" v="Hareleina" />
		<tag k="place" v="locality" />
		<tag k="ssr:stedsnr" v="266708" />
	</node>
	<node lat="59.8423861096092" lon="11.113174997851608" id="-19835">
		<tag k="landuse" v="meadow" />
		<tag k="name" v="Åsenenga" />
		<tag k="ssr:stedsnr" v="326307" />
	</node>
	<node lat="59.8336944472222" lon="10.942258341799565" id="-19848">
		<tag k="name" v="Purkemyra" />
		<tag k="natural" v="wetland" />
		<tag k="ssr:stedsnr" v="326676" />
	</node>
	<node lat="59.720658329779624" lon="10.978380563613383" id="-19850">
		<tag k="name" v="Smalslora" />
		<tag k="natural" v="wetland" />
		<tag k="ssr:stedsnr" v="326679" />
	</node>
	<node lat="59.80605833286823" lon="11.07111943619463" id="-19872">
		<tag k="historic" v="shieling" />
		<tag k="name" v="Torbjørnsetervangen" />
		<tag k="place" v="locality" />
		<tag k="ssr:stedsnr" v="387625" />
	</node>
	<node lat="59.813197226008555" lon="11.074769436527568" id="-19873">
		<tag k="name" v="Bølermåsan" />
		<tag k="natural" v="wetland" />
		<tag k="ssr:stedsnr" v="387630" />
	</node>
	<node lat="59.81759722535506" lon="11.032049993135058" id="-19883">
		<tag k="alt_name" v="Delisætra" />
		<tag k="historic" v="shieling" />
		<tag k="name" v="Dælisætra" />
		<tag k="place" v="locality" />
		<tag k="ssr:stedsnr" v="490271" />
	</node>
	<node lat="59.83308333767039" lon="11.127405547238219" id="-19897">
		<tag k="name" v="Berskaumyra" />
		<tag k="natural" v="wetland" />
		<tag k="ssr:stedsnr" v="447272" />
	</node>
	<node lat="59.78606944472696" lon="10.991044439203598" id="-19952">
		<tag k="alt_name" v="Donmåsan" />
		<tag k="name" v="Donemåsan" />
		<tag k="natural" v="wetland" />
		<tag k="old_name" v="Donmosan" />
		<tag k="ssr:stedsnr" v="550312" />
	</node>
	<node lat="59.74159444612458" lon="11.130391666495997" id="-19973">
		<tag k="name" v="Tyrigjeldmyra" />
		<tag k="natural" v="wetland" />
		<tag k="ssr:stedsnr" v="691612" />
	</node>
	<node lat="59.826002780933344" lon="11.093033339972258" id="-19974">
		<tag k="name" v="Borgesetermåsan" />
		<tag k="natural" v="wetland" />
		<tag k="ssr:stedsnr" v="691623" />
	</node>
	<node lat="59.80763610894485" lon="11.156224995114137" id="-19990">
		<tag k="name" v="Langtjernmyra" />
		<tag k="natural" v="wetland" />
		<tag k="ssr:stedsnr" v="569621" />
	</node>
	<node lat="59.74867777777248" lon="11.019519442698376" id="-19991">
		<tag k="name" v="Sagbakken" />
		<tag k="place" v="locality" />
		<tag k="ssr:stedsnr" v="569627" />
	</node>
	<node lat="59.773241670322996" lon="11.052875006965058" id="-19992">
		<tag k="name" v="Hellermåsan" />
		<tag k="natural" v="wetland" />
		<tag k="ssr:stedsnr" v="569635" />
	</node>
	<node lat="59.761275004030665" lon="11.073208325229338" id="-19996">
		<tag k="historic" v="shieling" />
		<tag k="name" v="Husebysetervangen" />
		<tag k="place" v="locality" />
		<tag k="ssr:stedsnr" v="569712" />
	</node>
	<node lat="59.75271667094914" lon="11.084761102532298" id="-20047">
		<tag k="name" v="Staurmåsan" />
=======
	<node id="-255468" lat="59.7138027753" lon="10.9883166681">
		<tag k="name" v="Breislora" />
		<tag k="natural" v="wetland" />
		<tag k="ssr:stedsnr" v="84672" />
	</node>
	<node id="-255467" lat="59.7982361118" lon="11.0975666626">
		<tag k="name" v="Ulvemåsan" />
>>>>>>> e1d4bc35ff8a6074a6f2e91616a996b547c36f15
		<tag k="natural" v="wetland" />
		<tag k="ssr:stedsnr" v="691631" />
	</node>
<<<<<<< HEAD
	<node lat="59.782172225410626" lon="11.109813885649913" id="-20049">
		<tag k="name" v="Jylland" />
=======
	<node id="-255466" lat="59.7508444418" lon="11.204352775">
		<tag k="name" v="Byleira" />
>>>>>>> e1d4bc35ff8a6074a6f2e91616a996b547c36f15
		<tag k="place" v="locality" />
		<tag k="ssr:stedsnr" v="691701" />
	</node>
<<<<<<< HEAD
	<node lat="59.73777777366293" lon="11.064502774825554" id="-20073">
		<tag k="name" v="Jammerlappen" />
=======
	<node id="-255465" lat="59.7493083334" lon="11.2035250043">
		<tag k="name" v="Vennevollsleira" />
>>>>>>> e1d4bc35ff8a6074a6f2e91616a996b547c36f15
		<tag k="place" v="locality" />
		<tag k="ssr:stedsnr" v="751756" />
	</node>
<<<<<<< HEAD
	<node lat="59.775244440353106" lon="11.022138891195866" id="-20074">
		<tag k="name" v="Skøttmyra" />
=======
	<node id="-255969" lat="59.7990472184" lon="11.1520277746">
		<tag k="name" v="Nylandsmåsan" />
>>>>>>> e1d4bc35ff8a6074a6f2e91616a996b547c36f15
		<tag k="natural" v="wetland" />
		<tag k="ssr:stedsnr" v="751656" />
	</node>
<<<<<<< HEAD
	<node lat="59.761944448459154" lon="11.018455562097968" id="-20075">
		<tag k="name" v="Breimåsan" />
=======
	<node id="-255444" lat="59.8064944458" lon="11.0934472302">
		<tag k="name" v="Solbergmåsan" />
>>>>>>> e1d4bc35ff8a6074a6f2e91616a996b547c36f15
		<tag k="natural" v="wetland" />
		<tag k="ssr:stedsnr" v="751678" />
	</node>
<<<<<<< HEAD
	<node lat="59.750344447230084" lon="11.072877775516785" id="-20086">
		<tag k="alt_name" v="Breidmåsan" />
=======
	<node id="-255443" lat="59.8232805524" lon="11.1170666619">
>>>>>>> e1d4bc35ff8a6074a6f2e91616a996b547c36f15
		<tag k="name" v="Breimåsan" />
		<tag k="natural" v="wetland" />
		<tag k="old_name" v="Breidmosan" />
		<tag k="ssr:stedsnr" v="914519" />
	</node>
<<<<<<< HEAD
	<node lat="59.79929722375852" lon="10.9937083313861" id="-20090">
		<tag k="name" v="Bysetermåsan" />
=======
	<node id="-255935" lat="59.7519222246" lon="11.0776250003">
		<tag k="name" v="Totjernsmåsan" />
>>>>>>> e1d4bc35ff8a6074a6f2e91616a996b547c36f15
		<tag k="natural" v="wetland" />
		<tag k="ssr:stedsnr" v="915351" />
	</node>
<<<<<<< HEAD
	<node lat="59.81199999858063" lon="11.062933330742" id="-20092">
		<tag k="alt_name" v="Myrseter" />
		<tag k="historic" v="shieling" />
		<tag k="name" v="Myrsætra" />
		<tag k="place" v="locality" />
		<tag k="ssr:stedsnr" v="915262" />
	</node>
	<node lat="59.79565000206643" lon="11.093766667343319" id="-20139">
		<tag k="name" v="Tjoremåsan" />
=======
	<node id="-255929" lat="59.8300566269" lon="10.9435737366">
		<tag k="name" v="Simmingsmyra" />
>>>>>>> e1d4bc35ff8a6074a6f2e91616a996b547c36f15
		<tag k="natural" v="wetland" />
		<tag k="ssr:stedsnr" v="934601" />
	</node>
<<<<<<< HEAD
	<node lat="59.68683611265144" lon="11.152397213557228" id="-20140">
		<tag k="name" v="Sjutjernsmåsan" />
		<tag k="natural" v="wetland" />
		<tag k="ssr:stedsnr" v="934567" />
	</node>
	<node lat="59.79513611470908" lon="11.082019444031353" id="-20141">
		<tag k="name" v="Elgegropa" />
=======
	<node id="-256436" lat="59.8200999964" lon="11.1256916751">
		<tag k="name" v="Kythøla" />
>>>>>>> e1d4bc35ff8a6074a6f2e91616a996b547c36f15
		<tag k="place" v="locality" />
		<tag k="ssr:stedsnr" v="934575" />
	</node>
<<<<<<< HEAD
	<node lat="59.69603332968997" lon="11.021147213139344" id="-20154">
		<tag k="name" v="Kullebunn" />
=======
	<node id="-256435" lat="59.816841666" lon="11.0486083324">
		<tag k="historic" v="shieling" />
		<tag k="name" v="Støttumvangen" />
>>>>>>> e1d4bc35ff8a6074a6f2e91616a996b547c36f15
		<tag k="place" v="locality" />
		<tag k="ssr:stedsnr" v="933188" />
	</node>
<<<<<<< HEAD
	<node lat="59.73855833008228" lon="11.071774993389829" id="-20169">
		<tag k="name" v="Nordkroken" />
		<tag k="place" v="locality" />
		<tag k="ssr:stedsnr" v="934703" />
	</node>
	<node lat="59.79328611343072" lon="11.119008335488079" id="-20205">
		<tag k="name" v="Prestmåsan" />
=======
	<node id="-255922" lat="59.815422225" lon="11.1080611159">
		<tag k="name" v="Bløtthøl" />
		<tag k="natural" v="wetland" />
		<tag k="ssr:stedsnr" v="23669" />
	</node>
	<node id="-255921" lat="59.7696944481" lon="11.0164472145">
		<tag k="name" v="Kjelkemyra" />
>>>>>>> e1d4bc35ff8a6074a6f2e91616a996b547c36f15
		<tag k="natural" v="wetland" />
		<tag k="ssr:stedsnr" v="23658" />
	</node>
<<<<<<< HEAD
	<node lat="59.80770000369791" lon="11.009222218969892" id="-20206">
=======
	<node id="-255920" lat="59.8077000037" lon="11.009222219">
>>>>>>> e1d4bc35ff8a6074a6f2e91616a996b547c36f15
		<tag k="name" v="Byputten" />
		<tag k="natural" v="wetland" />
		<tag k="ssr:stedsnr" v="23663" />
	</node>
<<<<<<< HEAD
	<node lat="59.76969444810352" lon="11.016447214535242" id="-20207">
		<tag k="name" v="Kjelkemyra" />
=======
	<node id="-255919" lat="59.7932861134" lon="11.1190083355">
		<tag k="name" v="Prestmåsan" />
>>>>>>> e1d4bc35ff8a6074a6f2e91616a996b547c36f15
		<tag k="natural" v="wetland" />
		<tag k="ssr:stedsnr" v="23668" />
	</node>
<<<<<<< HEAD
	<node lat="59.815422225036734" lon="11.108061115924903" id="-20208">
		<tag k="name" v="Bløtthøl" />
		<tag k="natural" v="wetland" />
		<tag k="ssr:stedsnr" v="23669" />
	</node>
	<node lat="59.77779166290079" lon="11.053736109473823" id="-20209">
=======
	<node id="-255916" lat="59.7639444486" lon="11.1770611036">
		<tag k="name" v="Krogsbølleira" />
		<tag k="place" v="locality" />
		<tag k="ssr:stedsnr" v="23760" />
	</node>
	<node id="-255915" lat="59.7777916629" lon="11.0537361095">
>>>>>>> e1d4bc35ff8a6074a6f2e91616a996b547c36f15
		<tag k="historic" v="shieling" />
		<tag k="name" v="Tuggerudseter" />
		<tag k="place" v="locality" />
		<tag k="ssr:stedsnr" v="23759" />
	</node>
<<<<<<< HEAD
	<node lat="59.76394444863247" lon="11.177061103640645" id="-20210">
		<tag k="name" v="Krogsbølleira" />
		<tag k="place" v="locality" />
		<tag k="ssr:stedsnr" v="23760" />
	</node>
	<node lat="59.83005662692454" lon="10.943573736590498" id="-20213">
		<tag k="name" v="Simmingsmyra" />
		<tag k="natural" v="wetland" />
		<tag k="ssr:stedsnr" v="54640" />
	</node>
	<node lat="59.75192222464077" lon="11.077625000277774" id="-20221">
		<tag k="name" v="Totjernsmåsan" />
=======
	<node id="-256407" lat="59.7045888933" lon="10.9898916601">
		<tag k="name" v="Gaupestein" />
		<tag k="natural" v="stone" />
		<tag k="ssr:stedsnr" v="853383" />
	</node>
	<node id="-256402" lat="59.7622222257" lon="11.1369722221">
		<tag k="landuse" v="meadow" />
		<tag k="name" v="Krokeng" />
		<tag k="ssr:stedsnr" v="812747" />
	</node>
	<node id="-256401" lat="59.8224388892" lon="11.0666138922">
		<tag k="name" v="Kåterudmåsan" />
>>>>>>> e1d4bc35ff8a6074a6f2e91616a996b547c36f15
		<tag k="natural" v="wetland" />
		<tag k="old_name" v="Totjernsmosan" />
		<tag k="ssr:stedsnr" v="65487" />
	</node>
<<<<<<< HEAD
	<node lat="59.79823611175214" lon="11.097566662626027" id="-20241">
		<tag k="name" v="Ulvemåsan" />
=======
	<node id="-256400" lat="59.8295444407" lon="11.0992888942">
		<tag k="name" v="Merramåsan" />
>>>>>>> e1d4bc35ff8a6074a6f2e91616a996b547c36f15
		<tag k="natural" v="wetland" />
		<tag k="ssr:stedsnr" v="84661" />
	</node>
<<<<<<< HEAD
	<node lat="59.71380277534099" lon="10.988316668057806" id="-20242">
		<tag k="name" v="Breislora" />
=======
	<node id="-256399" lat="59.776727774" lon="11.0079333301">
		<tag k="name" v="Fugleleiken" />
>>>>>>> e1d4bc35ff8a6074a6f2e91616a996b547c36f15
		<tag k="natural" v="wetland" />
		<tag k="ssr:stedsnr" v="84672" />
	</node>
<<<<<<< HEAD
	<node lat="59.795233336647314" lon="11.107547214501242" id="-20274">
		<tag k="name" v="Trappene" />
=======
	<node id="-256398" lat="59.8110083323" lon="11.0586166613">
		<tag k="name" v="Innleggen" />
>>>>>>> e1d4bc35ff8a6074a6f2e91616a996b547c36f15
		<tag k="place" v="locality" />
		<tag k="ssr:stedsnr" v="144643" />
	</node>
<<<<<<< HEAD
	<node lat="59.774844444740246" lon="11.034941661207252" id="-20275">
		<tag k="name" v="Klubbmåsan" />
		<tag k="natural" v="wetland" />
		<tag k="ssr:stedsnr" v="144652" />
	</node>
	<node lat="59.778980559761" lon="11.06473334078827" id="-20276">
		<tag k="name" v="Saumyra" />
		<tag k="natural" v="wetland" />
		<tag k="ssr:stedsnr" v="144655" />
	</node>
	<node lat="59.808086111891555" lon="11.079866669607048" id="-20277">
		<tag k="name" v="Oremyrene" />
		<tag k="natural" v="wetland" />
		<tag k="ssr:stedsnr" v="144660" />
	</node>
	<node lat="59.76250555783579" lon="11.026347231213721" id="-20278">
		<tag k="name" v="Ålmarksslorene" />
=======
	<node id="-256397" lat="59.81806667" lon="11.0895000045">
		<tag k="name" v="Hellertjernstangene" />
		<tag k="place" v="locality" />
		<tag k="ssr:stedsnr" v="812645" />
	</node>
	<node id="-256396" lat="59.8232833355" lon="11.1288750088">
		<tag k="name" v="Tossmåsan" />
		<tag k="natural" v="wetland" />
		<tag k="ssr:stedsnr" v="812638" />
	</node>
	<node id="-255873" lat="59.7385583301" lon="11.0717749934">
		<tag k="name" v="Nordkroken" />
		<tag k="place" v="locality" />
		<tag k="ssr:stedsnr" v="934703" />
	</node>
	<node id="-255859" lat="59.8119999986" lon="11.0629333307">
		<tag k="alt_name" v="Myrseter" />
		<tag k="historic" v="shieling" />
		<tag k="name" v="Myrsætra" />
		<tag k="place" v="locality" />
		<tag k="ssr:stedsnr" v="915262" />
	</node>
	<node id="-255857" lat="59.7300972193" lon="11.0717888921">
		<tag k="name" v="Bjerkehagan" />
		<tag k="place" v="locality" />
		<tag k="ssr:stedsnr" v="873678" />
	</node>
	<node id="-255856" lat="59.7147333304" lon="11.1203305559">
		<tag k="name" v="Vestenga" />
		<tag k="place" v="locality" />
		<tag k="ssr:stedsnr" v="873676" />
	</node>
	<node id="-255855" lat="59.7850388898" lon="11.0759361188">
		<tag k="name" v="Møllerstuslorene" />
>>>>>>> e1d4bc35ff8a6074a6f2e91616a996b547c36f15
		<tag k="natural" v="wetland" />
		<tag k="ssr:stedsnr" v="144673" />
	</node>
<<<<<<< HEAD
	<node lat="59.83809933311606" lon="10.939111840899598" id="-20280">
		<tag k="alt_name" v="Simmingsmyrane" />
		<tag k="loc_name" v="Simmingsmyra" />
		<tag k="name" v="Simmingsmyr" />
=======
	<node id="-255854" lat="59.7760249993" lon="11.0455972197">
		<tag k="name" v="Delingsmyrene" />
>>>>>>> e1d4bc35ff8a6074a6f2e91616a996b547c36f15
		<tag k="natural" v="wetland" />
		<tag k="ssr:stedsnr" v="175178" />
	</node>
<<<<<<< HEAD
	<node lat="59.68578055738959" lon="11.191688892428619" id="-20310">
		<tag k="name" v="Dammyra" />
		<tag k="natural" v="wetland" />
		<tag k="ssr:stedsnr" v="205650" />
	</node>
	<node lat="59.82380832979397" lon="11.077275003515403" id="-20311">
		<tag k="name" v="Trettestykket" />
=======
	<node id="-256354" lat="59.7377777737" lon="11.0645027748">
		<tag k="name" v="Jammerlappen" />
		<tag k="place" v="locality" />
		<tag k="ssr:stedsnr" v="751756" />
	</node>
	<node id="-256353" lat="59.7523361102" lon="11.2051611025">
		<tag k="name" v="Krokstadleira" />
>>>>>>> e1d4bc35ff8a6074a6f2e91616a996b547c36f15
		<tag k="place" v="locality" />
		<tag k="ssr:stedsnr" v="205656" />
	</node>
<<<<<<< HEAD
	<node lat="59.823947219272746" lon="11.071688885339904" id="-20312">
		<tag k="name" v="Kåterudvangen" />
=======
	<node id="-256352" lat="59.8108638896" lon="11.1280666697">
		<tag k="name" v="Fåfenga" />
>>>>>>> e1d4bc35ff8a6074a6f2e91616a996b547c36f15
		<tag k="place" v="locality" />
		<tag k="ssr:stedsnr" v="205663" />
	</node>
<<<<<<< HEAD
	<node lat="59.79266389072917" lon="11.005899992882883" id="-20313">
		<tag k="name" v="Bakermåsan" />
=======
	<node id="-256351" lat="59.7619444485" lon="11.0184555621">
		<tag k="name" v="Breimåsan" />
>>>>>>> e1d4bc35ff8a6074a6f2e91616a996b547c36f15
		<tag k="natural" v="wetland" />
		<tag k="ssr:stedsnr" v="205668" />
	</node>
<<<<<<< HEAD
	<node lat="59.753538890738795" lon="11.092033327944208" id="-20315">
		<tag k="name" v="Nordskauen" />
		<tag k="place" v="locality" />
		<tag k="ssr:stedsnr" v="205682" />
	</node>
	<node lat="59.7617416686467" lon="11.043300005618432" id="-20316">
		<tag k="historic" v="shieling" />
		<tag k="name" v="Bjerkesetra" />
=======
	<node id="-256350" lat="59.7752444404" lon="11.0221388912">
		<tag k="name" v="Skøttmyra" />
		<tag k="natural" v="wetland" />
		<tag k="ssr:stedsnr" v="751656" />
	</node>
	<node id="-256349" lat="59.7071000006" lon="11.0567388833">
		<tag k="name" v="Tangene" />
>>>>>>> e1d4bc35ff8a6074a6f2e91616a996b547c36f15
		<tag k="place" v="locality" />
		<tag k="ssr:stedsnr" v="205759" />
	</node>
<<<<<<< HEAD
	<node lat="59.815352781591756" lon="11.08265278039145" id="-20329">
		<tag k="alt_name" v="Holtopseter" />
		<tag k="historic" v="shieling" />
		<tag k="name" v="Holtoppsætra" />
=======
	<node id="-256348" lat="59.7607666647" lon="11.0229611089">
		<tag k="name" v="Ålmarkholtet" />
>>>>>>> e1d4bc35ff8a6074a6f2e91616a996b547c36f15
		<tag k="place" v="locality" />
		<tag k="ssr:stedsnr" v="308243" />
	</node>
<<<<<<< HEAD
	<node lat="59.822008330597576" lon="10.992505547843104" id="-20346">
		<tag k="name" v="Fjøsmåsan" />
=======
	<node id="-256347" lat="59.6859527777" lon="11.1799249925">
		<tag k="name" v="Breviksmåsan" />
>>>>>>> e1d4bc35ff8a6074a6f2e91616a996b547c36f15
		<tag k="natural" v="wetland" />
		<tag k="ssr:stedsnr" v="326688" />
	</node>
<<<<<<< HEAD
	<node lat="59.77950555538417" lon="11.032625003022895" id="-20359">
		<tag k="name" v="Melketangene" />
		<tag k="place" v="locality" />
		<tag k="ssr:stedsnr" v="327592" />
	</node>
	<node lat="59.7461194428915" lon="11.067394441548597" id="-20360">
		<tag k="name" v="Gråmåsan" />
=======
	<node id="-256346" lat="59.8174833337" lon="11.1358861034">
		<tag k="name" v="Torvmåsan" />
		<tag k="natural" v="wetland" />
		<tag k="ssr:stedsnr" v="751639" />
	</node>
	<node id="-255830" lat="59.7956500021" lon="11.0937666673">
		<tag k="name" v="Tjoremåsan" />
>>>>>>> e1d4bc35ff8a6074a6f2e91616a996b547c36f15
		<tag k="natural" v="wetland" />
		<tag k="ssr:stedsnr" v="327596" />
	</node>
<<<<<<< HEAD
	<node lat="59.73243332978874" lon="11.07693055694277" id="-20361">
		<tag k="name" v="Bergerhagan" />
=======
	<node id="-255829" lat="59.7951361147" lon="11.082019444">
		<tag k="name" v="Elgegropa" />
>>>>>>> e1d4bc35ff8a6074a6f2e91616a996b547c36f15
		<tag k="place" v="locality" />
		<tag k="ssr:stedsnr" v="327681" />
	</node>
<<<<<<< HEAD
	<node lat="59.69395833273717" lon="11.178908336624183" id="-20362">
		<tag k="name" v="Fjellsleiken" />
		<tag k="place" v="locality" />
		<tag k="ssr:stedsnr" v="327690" />
	</node>
	<node lat="59.7812083347064" lon="11.058652776372838" id="-20363">
		<tag k="historic" v="shieling" />
		<tag k="name" v="Tuggerudsetervangen" />
=======
	<node id="-255828" lat="59.6868361127" lon="11.1523972136">
		<tag k="name" v="Sjutjernsmåsan" />
		<tag k="natural" v="wetland" />
		<tag k="ssr:stedsnr" v="934567" />
	</node>
	<node id="-255807" lat="59.6960333297" lon="11.0211472131">
		<tag k="name" v="Kullebunn" />
>>>>>>> e1d4bc35ff8a6074a6f2e91616a996b547c36f15
		<tag k="place" v="locality" />
		<tag k="ssr:stedsnr" v="327700" />
	</node>
<<<<<<< HEAD
	<node lat="59.769286107363435" lon="10.982313891029733" id="-20372">
		<tag k="alt_name" v="Prestemåsan" />
		<tag k="name" v="Prestmåsan" />
=======
	<node id="-255792" lat="59.7992972238" lon="10.9937083314">
		<tag k="name" v="Bysetermåsan" />
>>>>>>> e1d4bc35ff8a6074a6f2e91616a996b547c36f15
		<tag k="natural" v="wetland" />
		<tag k="old_name" v="Prestemosan" />
		<tag k="ssr:stedsnr" v="368440" />
	</node>
<<<<<<< HEAD
	<node lat="59.80298889290261" lon="11.107586111942027" id="-20402">
		<tag k="name" v="Klokkertorva" />
		<tag k="place" v="locality" />
		<tag k="ssr:stedsnr" v="448747" />
	</node>
	<node lat="59.768119448644846" lon="11.200341673364345" id="-20403">
		<tag k="name" v="Tittut" />
=======
	<node id="-255787" lat="59.7503444472" lon="11.0728777755">
		<tag k="alt_name" v="Breidmåsan" />
		<tag k="name" v="Breimåsan" />
		<tag k="natural" v="wetland" />
		<tag k="old_name" v="Breidmosan" />
		<tag k="ssr:stedsnr" v="914519" />
	</node>
	<node id="-256292" lat="59.761275004" lon="11.0732083252">
		<tag k="historic" v="shieling" />
		<tag k="name" v="Husebysetervangen" />
>>>>>>> e1d4bc35ff8a6074a6f2e91616a996b547c36f15
		<tag k="place" v="locality" />
		<tag k="ssr:stedsnr" v="448748" />
	</node>
<<<<<<< HEAD
	<node lat="59.79929722265266" lon="11.13473611958461" id="-20404">
		<tag k="name" v="Kaffebanken" />
		<tag k="place" v="locality" />
		<tag k="ssr:stedsnr" v="448752" />
	</node>
	<node lat="59.71218611471791" lon="11.012188882551696" id="-20440">
		<tag k="name" v="Dalsliene" />
=======
	<node id="-256290" lat="59.7732416703" lon="11.052875007">
		<tag k="name" v="Hellermåsan" />
		<tag k="natural" v="wetland" />
		<tag k="ssr:stedsnr" v="569635" />
	</node>
	<node id="-256289" lat="59.7486777778" lon="11.0195194427">
		<tag k="name" v="Sagbakken" />
>>>>>>> e1d4bc35ff8a6074a6f2e91616a996b547c36f15
		<tag k="place" v="locality" />
		<tag k="ssr:stedsnr" v="448650" />
	</node>
<<<<<<< HEAD
	<node lat="59.739050000118475" lon="11.092152769474618" id="-20441">
		<tag k="name" v="Ombergstumåsan" />
=======
	<node id="-256288" lat="59.8076361089" lon="11.1562249951">
		<tag k="name" v="Langtjernmyra" />
>>>>>>> e1d4bc35ff8a6074a6f2e91616a996b547c36f15
		<tag k="natural" v="wetland" />
		<tag k="ssr:stedsnr" v="448651" />
	</node>
<<<<<<< HEAD
	<node lat="59.78688610987834" lon="11.132688883245851" id="-20442">
		<tag k="name" v="Lindtjernmåsan" />
		<tag k="natural" v="wetland" />
		<tag k="ssr:stedsnr" v="448655" />
	</node>
	<node lat="59.82576667004801" lon="10.96919999176817" id="-20450">
		<tag k="name" v="Tørkelmåsan" />
=======
	<node id="-255752" lat="59.7041305511" lon="11.1503000065">
		<tag k="landuse" v="meadow" />
		<tag k="name" v="Steinenga" />
		<tag k="ssr:stedsnr" v="630681" />
	</node>
	<node id="-256261" lat="59.8422805586" lon="11.1067861115">
		<tag k="name" v="Siljebølmyra" />
>>>>>>> e1d4bc35ff8a6074a6f2e91616a996b547c36f15
		<tag k="natural" v="wetland" />
		<tag k="ssr:stedsnr" v="508678" />
	</node>
<<<<<<< HEAD
	<node lat="59.79674999943902" lon="11.099180558991831" id="-20460">
		<tag k="name" v="Stårmyr" />
=======
	<node id="-255748" lat="59.7710666697" lon="11.029047231">
		<tag k="name" v="Skarperudmåsan" />
>>>>>>> e1d4bc35ff8a6074a6f2e91616a996b547c36f15
		<tag k="natural" v="wetland" />
		<tag k="ssr:stedsnr" v="509597" />
	</node>
<<<<<<< HEAD
	<node lat="59.76601944805183" lon="11.067644442039189" id="-20461">
		<tag k="name" v="Grauteslorene" />
		<tag k="natural" v="wetland" />
		<tag k="ssr:stedsnr" v="509599" />
	</node>
	<node lat="59.778074996379" lon="11.115344452673789" id="-20462">
		<tag k="name" v="Bjørnebakken" />
=======
	<node id="-255747" lat="59.8075638849" lon="11.0901611193">
		<tag k="name" v="Rognehullet" />
>>>>>>> e1d4bc35ff8a6074a6f2e91616a996b547c36f15
		<tag k="place" v="locality" />
		<tag k="ssr:stedsnr" v="509685" />
	</node>
<<<<<<< HEAD
	<node lat="59.7835555561776" lon="11.109280547241731" id="-20463">
		<tag k="name" v="Kastet" />
		<tag k="place" v="locality" />
		<tag k="ssr:stedsnr" v="509686" />
	</node>
	<node lat="59.8332277776765" lon="10.962097216869795" id="-20474">
=======
	<node id="-256238" lat="59.7860694447" lon="10.9910444392">
		<tag k="alt_name" v="Donmåsan" />
		<tag k="name" v="Donemåsan" />
		<tag k="natural" v="wetland" />
		<tag k="old_name" v="Donmosan" />
		<tag k="ssr:stedsnr" v="550312" />
	</node>
	<node id="-256236" lat="59.8332277777" lon="10.9620972169">
>>>>>>> e1d4bc35ff8a6074a6f2e91616a996b547c36f15
		<tag k="name" v="Skogsmåsan" />
		<tag k="natural" v="wetland" />
		<tag k="old_name" v="Skogsmosan" />
		<tag k="ssr:stedsnr" v="550218" />
	</node>
<<<<<<< HEAD
	<node lat="59.84228055858188" lon="11.106786111537577" id="-20488">
		<tag k="name" v="Siljebølmyra" />
		<tag k="natural" v="wetland" />
		<tag k="ssr:stedsnr" v="568307" />
	</node>
	<node lat="59.80756388486175" lon="11.090161119250508" id="-20539">
		<tag k="name" v="Rognehullet" />
=======
	<node id="-255717" lat="59.7821722254" lon="11.1098138856">
		<tag k="name" v="Jylland" />
>>>>>>> e1d4bc35ff8a6074a6f2e91616a996b547c36f15
		<tag k="place" v="locality" />
		<tag k="ssr:stedsnr" v="630567" />
	</node>
<<<<<<< HEAD
	<node lat="59.771066669692864" lon="11.02904723103355" id="-20540">
		<tag k="name" v="Skarperudmåsan" />
=======
	<node id="-255715" lat="59.7527166709" lon="11.0847611025">
		<tag k="name" v="Staurmåsan" />
>>>>>>> e1d4bc35ff8a6074a6f2e91616a996b547c36f15
		<tag k="natural" v="wetland" />
		<tag k="ssr:stedsnr" v="630575" />
	</node>
<<<<<<< HEAD
	<node lat="59.704130551077164" lon="11.15030000646162" id="-20543">
		<tag k="landuse" v="meadow" />
		<tag k="name" v="Steinenga" />
		<tag k="ssr:stedsnr" v="630681" />
	</node>
	<node lat="59.81748333374755" lon="11.135886103431353" id="-20574">
		<tag k="name" v="Torvmåsan" />
=======
	<node id="-255714" lat="59.8260027809" lon="11.09303334">
		<tag k="name" v="Borgesetermåsan" />
		<tag k="natural" v="wetland" />
		<tag k="ssr:stedsnr" v="691623" />
	</node>
	<node id="-255713" lat="59.7415944461" lon="11.1303916665">
		<tag k="name" v="Tyrigjeldmyra" />
>>>>>>> e1d4bc35ff8a6074a6f2e91616a996b547c36f15
		<tag k="natural" v="wetland" />
		<tag k="ssr:stedsnr" v="751639" />
	</node>
<<<<<<< HEAD
	<node lat="59.685952777721155" lon="11.179924992518423" id="-20575">
		<tag k="name" v="Breviksmåsan" />
=======
	<node id="-256208" lat="59.813197226" lon="11.0747694365">
		<tag k="name" v="Bølermåsan" />
>>>>>>> e1d4bc35ff8a6074a6f2e91616a996b547c36f15
		<tag k="natural" v="wetland" />
		<tag k="ssr:stedsnr" v="751642" />
	</node>
<<<<<<< HEAD
	<node lat="59.760766664723754" lon="11.022961108871753" id="-20576">
		<tag k="name" v="Ålmarkholtet" />
=======
	<node id="-255675" lat="59.7835555562" lon="11.1092805472">
		<tag k="name" v="Kastet" />
>>>>>>> e1d4bc35ff8a6074a6f2e91616a996b547c36f15
		<tag k="place" v="locality" />
		<tag k="ssr:stedsnr" v="751650" />
	</node>
<<<<<<< HEAD
	<node lat="59.70710000056033" lon="11.056738883334887" id="-20577">
		<tag k="name" v="Tangene" />
=======
	<node id="-255674" lat="59.7780749964" lon="11.1153444527">
		<tag k="name" v="Bjørnebakken" />
>>>>>>> e1d4bc35ff8a6074a6f2e91616a996b547c36f15
		<tag k="place" v="locality" />
		<tag k="ssr:stedsnr" v="751652" />
	</node>
<<<<<<< HEAD
	<node lat="59.81086388963649" lon="11.128066669691208" id="-20578">
		<tag k="name" v="Fåfenga" />
		<tag k="place" v="locality" />
		<tag k="ssr:stedsnr" v="751752" />
	</node>
	<node lat="59.75233611020099" lon="11.205161102527429" id="-20579">
		<tag k="name" v="Krokstadleira" />
=======
	<node id="-256172" lat="59.7692861074" lon="10.982313891">
		<tag k="alt_name" v="Prestemåsan" />
		<tag k="name" v="Prestmåsan" />
		<tag k="natural" v="wetland" />
		<tag k="old_name" v="Prestemosan" />
		<tag k="ssr:stedsnr" v="368440" />
	</node>
	<node id="-256161" lat="59.7812083347" lon="11.0586527764">
		<tag k="historic" v="shieling" />
		<tag k="name" v="Tuggerudsetervangen" />
>>>>>>> e1d4bc35ff8a6074a6f2e91616a996b547c36f15
		<tag k="place" v="locality" />
		<tag k="ssr:stedsnr" v="751753" />
	</node>
<<<<<<< HEAD
	<node lat="59.82328333552891" lon="11.128875008799472" id="-20609">
		<tag k="name" v="Tossmåsan" />
		<tag k="natural" v="wetland" />
		<tag k="ssr:stedsnr" v="812638" />
	</node>
	<node lat="59.81806666996161" lon="11.089500004487485" id="-20610">
		<tag k="name" v="Hellertjernstangene" />
=======
	<node id="-256160" lat="59.6939583327" lon="11.1789083366">
		<tag k="name" v="Fjellsleiken" />
>>>>>>> e1d4bc35ff8a6074a6f2e91616a996b547c36f15
		<tag k="place" v="locality" />
		<tag k="ssr:stedsnr" v="812645" />
	</node>
<<<<<<< HEAD
	<node lat="59.81100833234102" lon="11.058616661308022" id="-20611">
		<tag k="name" v="Innleggen" />
=======
	<node id="-256159" lat="59.7324333298" lon="11.0769305569">
		<tag k="name" v="Bergerhagan" />
>>>>>>> e1d4bc35ff8a6074a6f2e91616a996b547c36f15
		<tag k="place" v="locality" />
		<tag k="ssr:stedsnr" v="812649" />
	</node>
<<<<<<< HEAD
	<node lat="59.77672777399268" lon="11.00793333008925" id="-20612">
		<tag k="name" v="Fugleleiken" />
		<tag k="natural" v="wetland" />
		<tag k="ssr:stedsnr" v="812651" />
	</node>
	<node lat="59.82954444067655" lon="11.09928889417537" id="-20613">
		<tag k="name" v="Merramåsan" />
=======
	<node id="-256158" lat="59.7461194429" lon="11.0673944415">
		<tag k="name" v="Gråmåsan" />
		<tag k="natural" v="wetland" />
		<tag k="ssr:stedsnr" v="327596" />
	</node>
	<node id="-256157" lat="59.7795055554" lon="11.032625003">
		<tag k="name" v="Melketangene" />
		<tag k="place" v="locality" />
		<tag k="ssr:stedsnr" v="327592" />
	</node>
	<node id="-255644" lat="59.7868861099" lon="11.1326888832">
		<tag k="name" v="Lindtjernmåsan" />
>>>>>>> e1d4bc35ff8a6074a6f2e91616a996b547c36f15
		<tag k="natural" v="wetland" />
		<tag k="ssr:stedsnr" v="812654" />
	</node>
<<<<<<< HEAD
	<node lat="59.82243888919275" lon="11.066613892213525" id="-20614">
		<tag k="name" v="Kåterudmåsan" />
=======
	<node id="-255643" lat="59.7390500001" lon="11.0921527695">
		<tag k="name" v="Ombergstumåsan" />
>>>>>>> e1d4bc35ff8a6074a6f2e91616a996b547c36f15
		<tag k="natural" v="wetland" />
		<tag k="ssr:stedsnr" v="812659" />
	</node>
<<<<<<< HEAD
	<node lat="59.7622222257193" lon="11.136972222079716" id="-20615">
		<tag k="landuse" v="meadow" />
		<tag k="name" v="Krokeng" />
		<tag k="ssr:stedsnr" v="812747" />
	</node>
	<node lat="59.70458889329582" lon="10.98989166007674" id="-20619">
		<tag k="name" v="Gaupestein" />
		<tag k="natural" v="stone" />
		<tag k="ssr:stedsnr" v="853383" />
	</node>
	<node lat="59.78663888668093" lon="11.037588894332986" id="-20652">
		<tag k="name" v="Brenninga" />
		<tag k="place" v="locality" />
		<tag k="ssr:stedsnr" v="873593" />
	</node>
	<node lat="59.816841666025155" lon="11.048608332366035" id="-20653">
		<tag k="historic" v="shieling" />
		<tag k="name" v="Støttumvangen" />
		<tag k="place" v="locality" />
		<tag k="ssr:stedsnr" v="873595" />
	</node>
	<node lat="59.77602499930589" lon="11.045597219683893" id="-20654">
		<tag k="name" v="Delingsmyrene" />
=======
	<node id="-255642" lat="59.7121861147" lon="11.0121888826">
		<tag k="name" v="Dalsliene" />
		<tag k="place" v="locality" />
		<tag k="ssr:stedsnr" v="448650" />
	</node>
	<node id="-256144" lat="59.8220083306" lon="10.9925055478">
		<tag k="name" v="Fjøsmåsan" />
		<tag k="natural" v="wetland" />
		<tag k="ssr:stedsnr" v="326688" />
	</node>
	<node id="-256143" lat="59.7206583298" lon="10.9783805636">
		<tag k="name" v="Smalslora" />
		<tag k="natural" v="wetland" />
		<tag k="ssr:stedsnr" v="326679" />
	</node>
	<node id="-256141" lat="59.8336944472" lon="10.9422583418">
		<tag k="name" v="Purkemyra" />
		<tag k="natural" v="wetland" />
		<tag k="ssr:stedsnr" v="326676" />
	</node>
	<node id="-255616" lat="59.7660194481" lon="11.067644442">
		<tag k="name" v="Grauteslorene" />
>>>>>>> e1d4bc35ff8a6074a6f2e91616a996b547c36f15
		<tag k="natural" v="wetland" />
		<tag k="ssr:stedsnr" v="873603" />
	</node>
<<<<<<< HEAD
	<node lat="59.785038889804795" lon="11.075936118823574" id="-20655">
		<tag k="name" v="Møllerstuslorene" />
=======
	<node id="-255615" lat="59.7967499994" lon="11.099180559">
		<tag k="name" v="Stårmyr" />
>>>>>>> e1d4bc35ff8a6074a6f2e91616a996b547c36f15
		<tag k="natural" v="wetland" />
		<tag k="ssr:stedsnr" v="873605" />
	</node>
<<<<<<< HEAD
	<node lat="59.71473333040544" lon="11.120330555869995" id="-20656">
		<tag k="name" v="Vestenga" />
=======
	<node id="-256116" lat="59.8153527816" lon="11.0826527804">
		<tag k="alt_name" v="Holtopseter" />
		<tag k="historic" v="shieling" />
		<tag k="name" v="Holtoppsætra" />
>>>>>>> e1d4bc35ff8a6074a6f2e91616a996b547c36f15
		<tag k="place" v="locality" />
		<tag k="ssr:stedsnr" v="873676" />
	</node>
<<<<<<< HEAD
	<node lat="59.73009721928159" lon="11.071788892088957" id="-20657">
		<tag k="name" v="Bjerkehagan" />
		<tag k="place" v="locality" />
		<tag k="ssr:stedsnr" v="873678" />
	</node>
	<node lat="59.8200999963614" lon="11.125691675053027" id="-20658">
		<tag k="name" v="Kythøla" />
=======
	<node id="-255603" lat="59.82576667" lon="10.9691999918">
		<tag k="name" v="Tørkelmåsan" />
		<tag k="natural" v="wetland" />
		<tag k="ssr:stedsnr" v="508678" />
	</node>
	<node id="-256103" lat="59.7617416686" lon="11.0433000056">
		<tag k="historic" v="shieling" />
		<tag k="name" v="Bjerkesetra" />
>>>>>>> e1d4bc35ff8a6074a6f2e91616a996b547c36f15
		<tag k="place" v="locality" />
		<tag k="ssr:stedsnr" v="873685" />
	</node>
	<node id="-256102" lat="59.75301944" lon="11.2090055618">
		<tag k="name" v="Nesleira" />
		<tag k="place" v="locality" />
		<tag k="ssr:stedsnr" v="205753" />
	</node>
	<node id="-255587" lat="59.8060583329" lon="11.0711194362">
		<tag k="historic" v="shieling" />
		<tag k="name" v="Torbjørnsetervangen" />
		<tag k="place" v="locality" />
		<tag k="ssr:stedsnr" v="387625" />
	</node>
	<node id="-256096" lat="59.7535388907" lon="11.0920333279">
		<tag k="name" v="Nordskauen" />
		<tag k="place" v="locality" />
		<tag k="ssr:stedsnr" v="205682" />
	</node>
	<node id="-256094" lat="59.7926638907" lon="11.0058999929">
		<tag k="name" v="Bakermåsan" />
		<tag k="natural" v="wetland" />
		<tag k="ssr:stedsnr" v="205668" />
	</node>
	<node id="-256093" lat="59.8239472193" lon="11.0716888853">
		<tag k="name" v="Kåterudvangen" />
		<tag k="place" v="locality" />
		<tag k="ssr:stedsnr" v="205663" />
	</node>
	<node id="-256092" lat="59.8238083298" lon="11.0772750035">
		<tag k="name" v="Trettestykket" />
		<tag k="place" v="locality" />
		<tag k="ssr:stedsnr" v="205656" />
	</node>
	<node id="-256091" lat="59.6857805574" lon="11.1916888924">
		<tag k="name" v="Dammyra" />
		<tag k="natural" v="wetland" />
		<tag k="ssr:stedsnr" v="205650" />
	</node>
	<node id="-255568" lat="59.8175972254" lon="11.0320499931">
		<tag k="alt_name" v="Delisætra" />
		<tag k="historic" v="shieling" />
		<tag k="name" v="Dælisætra" />
		<tag k="place" v="locality" />
		<tag k="ssr:stedsnr" v="490271" />
	</node>
	<node id="-256065" lat="59.8276916662" lon="10.9594083384">
		<tag k="name" v="Hamlimåsan" />
		<tag k="natural" v="wetland" />
		<tag k="ssr:stedsnr" v="204637" />
	</node>
	<node id="-255549" lat="59.8423861096" lon="11.1131749979">
		<tag k="landuse" v="meadow" />
		<tag k="name" v="Åsenenga" />
		<tag k="ssr:stedsnr" v="326307" />
	</node>
	<node id="-256055" lat="59.7626361145" lon="11.0377972266">
		<tag k="name" v="Kongsbergmåsan" />
		<tag k="natural" v="wetland" />
		<tag k="old_name" v="Kongsbergmosan" />
		<tag k="ssr:stedsnr" v="187388" />
	</node>
	<node id="-255542" lat="59.7992972227" lon="11.1347361196">
		<tag k="name" v="Kaffebanken" />
		<tag k="place" v="locality" />
		<tag k="ssr:stedsnr" v="448752" />
	</node>
	<node id="-255541" lat="59.7681194486" lon="11.2003416734">
		<tag k="name" v="Tittut" />
		<tag k="place" v="locality" />
		<tag k="ssr:stedsnr" v="448748" />
	</node>
	<node id="-255540" lat="59.8029888929" lon="11.1075861119">
		<tag k="name" v="Klokkertorva" />
		<tag k="place" v="locality" />
		<tag k="ssr:stedsnr" v="448747" />
	</node>
	<node id="-256434" lat="59.7866388867" lon="11.0375888943">
		<tag k="name" v="Brenninga" />
		<tag k="place" v="locality" />
		<tag k="ssr:stedsnr" v="873593" />
	</node>
	<node id="-256035" lat="59.8380993331" lon="10.9391118409">
		<tag k="alt_name" v="Simmingsmyrane" />
		<tag k="loc_name" v="Simmingsmyra" />
		<tag k="name" v="Simmingsmyr" />
		<tag k="natural" v="wetland" />
		<tag k="ssr:stedsnr" v="175178" />
	</node>
	<node id="-255522" lat="59.8330833377" lon="11.1274055472">
		<tag k="name" v="Berskaumyra" />
		<tag k="natural" v="wetland" />
		<tag k="ssr:stedsnr" v="447272" />
	</node>
	<node id="-256033" lat="59.7625055578" lon="11.0263472312">
		<tag k="name" v="Ålmarksslorene" />
		<tag k="natural" v="wetland" />
		<tag k="ssr:stedsnr" v="144673" />
	</node>
	<node id="-256032" lat="59.8080861119" lon="11.0798666696">
		<tag k="name" v="Oremyrene" />
		<tag k="natural" v="wetland" />
		<tag k="ssr:stedsnr" v="144660" />
	</node>
	<node id="-256031" lat="59.7789805598" lon="11.0647333408">
		<tag k="name" v="Saumyra" />
		<tag k="natural" v="wetland" />
		<tag k="ssr:stedsnr" v="144655" />
	</node>
	<node id="-256030" lat="59.7748444447" lon="11.0349416612">
		<tag k="name" v="Klubbmåsan" />
		<tag k="natural" v="wetland" />
		<tag k="ssr:stedsnr" v="144652" />
	</node>
	<node id="-256029" lat="59.7952333366" lon="11.1075472145">
		<tag k="name" v="Trappene" />
		<tag k="place" v="locality" />
		<tag k="ssr:stedsnr" v="144643" />
	</node>
	<node id="-255514" lat="59.7653138848" lon="11.0915499921">
		<tag k="name" v="Hareleina" />
		<tag k="place" v="locality" />
		<tag k="ssr:stedsnr" v="266708" />
	</node>
	<node id="-255512" lat="59.8069583316" lon="11.0636083257">
		<tag k="name" v="Langslora" />
		<tag k="natural" v="wetland" />
		<tag k="ssr:stedsnr" v="266636" />
	</node>
	<node id="-255511" lat="59.7560444452" lon="11.0524277814">
		<tag k="name" v="Haugmåsan" />
		<tag k="natural" v="wetland" />
		<tag k="ssr:stedsnr" v="266627" />
	</node>
	<node id="-255510" lat="59.8241916638" lon="11.0834694494">
		<tag k="name" v="Skåbommen" />
		<tag k="place" v="locality" />
		<tag k="ssr:stedsnr" v="266617" />
	</node>
	<node id="-255509" lat="59.7330444428" lon="11.1295527816">
		<tag k="name" v="Breimåsan" />
		<tag k="natural" v="wetland" />
		<tag k="ssr:stedsnr" v="266614" />
	</node>
	<node id="-255508" lat="59.6945222233" lon="11.1595833345">
		<tag k="name" v="Gurimåsan" />
		<tag k="natural" v="wetland" />
		<tag k="ssr:stedsnr" v="266612" />
	</node>
</osm>
