<?xml version="1.0" encoding="UTF-8"?>
<osm version="0.6" generator="osmapis">
	<node lat="59.73980028038958" lon="11.198481543074923" id="-26101">
		<tag k="alt_name" v="Randum;Randem nedre" />
		<tag k="fixme" v="consider place=hamlet" />
		<tag k="name" v="Nedre Randem" />
		<tag k="place" v="farm" />
		<tag k="ssr:stedsnr" v="4108" />
	</node>
	<node lat="59.74689166580044" lon="11.10872499396884" id="-26102">
		<tag k="name" v="Slora" />
		<tag k="place" v="farm" />
		<tag k="ssr:stedsnr" v="4069" />
	</node>
	<node lat="59.75099999606704" lon="11.002425000162079" id="-26104">
		<tag k="name" v="Bakken" />
		<tag k="place" v="farm" />
		<tag k="ssr:stedsnr" v="4479" />
	</node>
	<node lat="59.7540055524229" lon="11.020777773055475" id="-26105">
		<tag k="name" v="Bjørnholt" />
		<tag k="place" v="farm" />
		<tag k="ssr:stedsnr" v="4483" />
	</node>
	<node lat="59.807431473353255" lon="11.193243490364125" id="-26106">
		<tag k="fixme" v="consider place=hamlet" />
		<tag k="name" v="Stang" />
		<tag k="place" v="farm" />
		<tag k="ssr:stedsnr" v="4816" />
	</node>
	<node lat="59.77271382705194" lon="11.16305906173964" id="-26107">
		<tag k="name" v="Dæli" />
		<tag k="place" v="hamlet" />
		<tag k="ssr:stedsnr" v="4908" />
	</node>
	<node lat="59.75470000194293" lon="11.18550000519331" id="-26108">
		<tag k="name" v="Flateby" />
		<tag k="place" v="farm" />
		<tag k="ssr:stedsnr" v="5901" />
	</node>
	<node lat="59.69630555332" lon="11.032844437293715" id="-26111">
		<tag k="name" v="Granlund" />
		<tag k="place" v="farm" />
		<tag k="ssr:stedsnr" v="23236" />
	</node>
	<node lat="59.84463888596904" lon="11.116361114458737" id="-26112">
		<tag k="name" v="Nordhagen" />
		<tag k="place" v="locality" />
		<tag k="ssr:stedsnr" v="23347" />
	</node>
	<node lat="59.704386107170485" lon="11.156213883230242" id="-26113">
		<tag k="name" v="Høgda" />
		<tag k="place" v="locality" />
		<tag k="ssr:stedsnr" v="23397" />
	</node>
	<node lat="59.7335277769388" lon="11.09409722590574" id="-26114">
		<tag k="name" v="Haslerud" />
		<tag k="place" v="farm" />
		<tag k="ssr:stedsnr" v="23506" />
	</node>
	<node lat="59.722547221547444" lon="11.198186111039853" id="-26115">
		<tag k="name" v="Granberg" />
		<tag k="place" v="isolated_dwelling" />
		<tag k="ssr:stedsnr" v="23480" />
	</node>
	<node lat="59.736024997058614" lon="11.166647220137481" id="-26116">
		<tag k="name" v="Solheim" />
		<tag k="place" v="farm" />
		<tag k="ssr:stedsnr" v="23487" />
	</node>
	<node lat="59.74376666895259" lon="11.16225833575" id="-26117">
		<tag k="name" v="Gullstigen" />
		<tag k="place" v="locality" />
		<tag k="ssr:stedsnr" v="23498" />
	</node>
	<node lat="59.73546944876578" lon="11.148924994796706" id="-26125">
		<tag k="name" v="Nyeng" />
		<tag k="place" v="farm" />
		<tag k="ssr:stedsnr" v="64104" />
	</node>
	<node lat="59.69407022919225" lon="11.032409177417616" id="-26126">
		<tag k="fixme" v="consider place=hamlet" />
		<tag k="name" v="Mjærskau" />
		<tag k="place" v="farm" />
		<tag k="ssr:stedsnr" v="64404" />
	</node>
	<node lat="59.69757142721131" lon="11.207938799409062" id="-26128">
		<tag k="alt_name" v="Borud, mellom" />
		<tag k="name" v="Mellom-Borud" />
		<tag k="place" v="farm" />
		<tag k="ssr:stedsnr" v="64831" />
	</node>
	<node lat="59.79070277684651" lon="11.196877776154883" id="-26132">
		<tag k="alt_name" v="Degrum, nedre" />
		<tag k="name" v="Nedre Degrum" />
		<tag k="place" v="farm" />
		<tag k="ssr:stedsnr" v="65819" />
	</node>
	<node lat="59.76992537206215" lon="11.115271225744372" id="-26133">
		<tag k="fixme" v="consider place=hamlet" />
		<tag k="name" v="Eikeberg" />
		<tag k="place" v="farm" />
		<tag k="ssr:stedsnr" v="65859" />
	</node>
	<node lat="59.7214079324958" lon="11.175715424133177" id="-26134">
		<tag k="alt_name" v="Jaer;Jaer nordre" />
		<tag k="fixme" v="consider place=hamlet" />
		<tag k="name" v="Nordre Jaer" />
		<tag k="place" v="farm" />
		<tag k="ssr:stedsnr" v="65874" />
	</node>
	<node lat="59.718486110348564" lon="11.104699997852498" id="-26135">
		<tag k="alt_name" v="Roligheten" />
		<tag k="name" v="Roligheta" />
		<tag k="place" v="farm" />
		<tag k="ssr:stedsnr" v="65878" />
	</node>
	<node lat="59.77367141409417" lon="11.189762762848112" id="-26137">
		<tag k="fixme" v="consider place=hamlet" />
		<tag k="name" v="Rustad" />
		<tag k="place" v="farm" />
		<tag k="ssr:stedsnr" v="65908" />
	</node>
	<node lat="59.75988333385021" lon="11.145669449392583" id="-26140">
		<tag k="name" v="Krona" />
		<tag k="place" v="farm" />
		<tag k="ssr:stedsnr" v="65949" />
	</node>
	<node lat="59.79303888992523" lon="11.145972230252744" id="-26143">
		<tag k="name" v="Skjeggstad" />
		<tag k="place" v="locality" />
		<tag k="ssr:stedsnr" v="83281" />
	</node>
	<node lat="59.760294439903014" lon="11.19333889385523" id="-26144">
		<tag k="alt_name" v="Rud søndre" />
		<tag k="name" v="Søndre Rud" />
		<tag k="place" v="farm" />
		<tag k="ssr:stedsnr" v="83404" />
	</node>
	<node lat="59.74787222388247" lon="11.175338890927014" id="-26145">
		<tag k="alt_name" v="Mysen søndre" />
		<tag k="name" v="Søndre Mysen" />
		<tag k="place" v="farm" />
		<tag k="ssr:stedsnr" v="83407" />
	</node>
	<node lat="59.700844448786626" lon="11.214097229223984" id="-26146">
		<tag k="name" v="Vassholen" />
		<tag k="place" v="farm" />
		<tag k="ssr:stedsnr" v="83430" />
	</node>
	<node lat="59.690791669111086" lon="11.200058335452386" id="-26147">
		<tag k="name" v="Granheim" />
		<tag k="place" v="farm" />
		<tag k="ssr:stedsnr" v="83432" />
	</node>
	<node lat="59.73448888601577" lon="11.168811115849563" id="-26148">
		<tag k="name" v="Burstad" />
		<tag k="place" v="hamlet" />
		<tag k="ssr:stedsnr" v="83443" />
	</node>
	<node lat="59.736986112111985" lon="11.173427778652764" id="-26149">
		<tag k="name" v="Briskeby" />
		<tag k="place" v="farm" />
		<tag k="ssr:stedsnr" v="83384" />
	</node>
	<node lat="59.75698333659472" lon="11.214205547217523" id="-26150">
		<tag k="alt_name" v="Nes nordre" />
		<tag k="name" v="Nordre Nes" />
		<tag k="place" v="farm" />
		<tag k="ssr:stedsnr" v="83385" />
	</node>
	<node lat="59.741244446055" lon="11.179791658428888" id="-26151">
		<tag k="name" v="Nisseberget" />
		<tag k="place" v="farm" />
		<tag k="ssr:stedsnr" v="83391" />
	</node>
	<node lat="59.72455555212227" lon="11.069347213789092" id="-26156">
		<tag k="name" v="Hansebråtan" />
		<tag k="place" v="isolated_dwelling" />
		<tag k="ssr:stedsnr" v="83698" />
	</node>
	<node lat="59.832336114104784" lon="11.11468056244003" id="-26157">
		<tag k="name" v="Finnhaugen" />
		<tag k="place" v="locality" />
		<tag k="ssr:stedsnr" v="83885" />
	</node>
	<node lat="59.71165000270278" lon="11.05099999554397" id="-26166">
		<tag k="name" v="Altona" />
		<tag k="place" v="farm" />
		<tag k="ssr:stedsnr" v="246536" />
	</node>
	<node lat="59.718655559016554" lon="11.053680556232576" id="-26167">
		<tag k="name" v="Hamborg" />
		<tag k="place" v="farm" />
		<tag k="ssr:stedsnr" v="246549" />
	</node>
	<node lat="59.72903631583309" lon="11.019433072034392" id="-26168">
		<tag k="loc_name" v="Kjellgard" />
		<tag k="name" v="Kjellgård" />
		<tag k="old_name" v="Kilgaard" />
		<tag k="place" v="locality" />
		<tag k="ssr:stedsnr" v="246562" />
	</node>
	<node lat="59.73189019323134" lon="11.087767362885842" id="-26169">
		<tag k="fixme" v="consider place=hamlet" />
		<tag k="name" v="Solberg" />
		<tag k="place" v="farm" />
		<tag k="ssr:stedsnr" v="246563" />
	</node>
	<node lat="59.70043888710338" lon="11.207130558774427" id="-26170">
		<tag k="alt_name" v="Borud, nordre;Borud nordre" />
		<tag k="name" v="Nordre Borud" />
		<tag k="place" v="farm" />
		<tag k="ssr:stedsnr" v="246798" />
	</node>
	<node lat="59.69843333408838" lon="11.184747227342832" id="-26171">
		<tag k="name" v="Åser" />
		<tag k="place" v="farm" />
		<tag k="ssr:stedsnr" v="246815" />
	</node>
	<node lat="59.738891670672956" lon="11.206874995841286" id="-26176">
		<tag k="name" v="Tangen" />
		<tag k="place" v="farm" />
		<tag k="ssr:stedsnr" v="247098" />
	</node>
	<node lat="59.83920555890925" lon="11.125302781916306" id="-26178">
		<tag k="name" v="Sørli" />
		<tag k="place" v="farm" />
		<tag k="ssr:stedsnr" v="247747" />
	</node>
	<node lat="59.823527780641776" lon="11.14995832936468" id="-26179">
		<tag k="name" v="Sangen" />
		<tag k="place" v="farm" />
		<tag k="ssr:stedsnr" v="247748" />
	</node>
	<node lat="59.719780556636074" lon="11.099316660688862" id="-26181">
		<tag k="name" v="Myrer" />
		<tag k="place" v="farm" />
		<tag k="ssr:stedsnr" v="247853" />
	</node>
	<node lat="59.76425555745485" lon="11.155049994050668" id="-26182">
		<tag k="name" v="Lotterud" />
		<tag k="place" v="isolated_dwelling" />
		<tag k="ssr:stedsnr" v="247863" />
	</node>
	<node lat="59.77698087199988" lon="11.160820018228407" id="-26183">
		<tag k="fixme" v="consider place=hamlet" />
		<tag k="name" v="Guslund" />
		<tag k="place" v="farm" />
		<tag k="ssr:stedsnr" v="247885" />
	</node>
	<node lat="59.69837500245656" lon="11.107888880159077" id="-26185">
		<tag k="name" v="Svines" />
		<tag k="place" v="farm" />
		<tag k="ssr:stedsnr" v="125847" />
	</node>
	<node lat="59.706533329159825" lon="11.179602768756476" id="-26186">
		<tag k="alt_name" v="Fjell, nordre;Fjell nordre" />
		<tag k="name" v="Nordre Fjell" />
		<tag k="place" v="farm" />
		<tag k="ssr:stedsnr" v="125844" />
	</node>
	<node lat="59.75955148787881" lon="10.963684883853057" id="-26190">
		<tag k="name" v="Langskog" />
		<tag k="place" v="farm" />
		<tag k="ssr:stedsnr" v="126399" />
	</node>
	<node lat="59.75508333372967" lon="11.163361106172815" id="-26192">
		<tag k="name" v="Sletta" />
		<tag k="place" v="farm" />
		<tag k="ssr:stedsnr" v="126925" />
	</node>
	<node lat="59.759365395055994" lon="11.138578945037784" id="-26193">
		<tag k="fixme" v="consider place=hamlet" />
		<tag k="name" v="Støttum" />
		<tag k="place" v="farm" />
		<tag k="ssr:stedsnr" v="126927" />
	</node>
	<node lat="59.79638055899286" lon="11.198425002720542" id="-26194">
		<tag k="name" v="Skura" />
		<tag k="place" v="locality" />
		<tag k="ssr:stedsnr" v="126821" />
	</node>
	<node lat="59.78535708149659" lon="11.149457086961512" id="-26196">
		<tag k="alt_name" v="Orderud" />
		<tag k="fixme" v="consider place=hamlet" />
		<tag k="name" v="Orrerud" />
		<tag k="place" v="farm" />
		<tag k="ssr:stedsnr" v="126859" />
	</node>
	<node lat="59.710352439236694" lon="11.193671297517104" id="-26199">
		<tag k="fixme" v="consider place=hamlet" />
		<tag k="name" v="Årsrud" />
		<tag k="place" v="farm" />
		<tag k="ssr:stedsnr" v="143405" />
	</node>
	<node lat="59.75431666918422" lon="11.183797230971386" id="-26200">
		<tag k="name" v="Skogholt" />
		<tag k="place" v="isolated_dwelling" />
		<tag k="ssr:stedsnr" v="143413" />
	</node>
	<node lat="59.72643333164633" lon="11.168022226522789" id="-26201">
		<tag k="name" v="Kongle" />
		<tag k="place" v="isolated_dwelling" />
		<tag k="ssr:stedsnr" v="143433" />
	</node>
	<node lat="59.7765833367829" lon="11.157347221395229" id="-26202">
		<tag k="alt_name" v="Guslund vestre" />
		<tag k="name" v="Vestre Guslund" />
		<tag k="place" v="farm" />
		<tag k="ssr:stedsnr" v="143490" />
	</node>
	<node lat="59.73897777645108" lon="10.999127774050631" id="-26207">
		<tag k="name" v="Nygård" />
		<tag k="place" v="farm" />
		<tag k="ssr:stedsnr" v="143711" />
	</node>
	<node lat="59.74464166392857" lon="10.980875001581632" id="-26208">
		<tag k="name" v="Spaningen" />
		<tag k="place" v="farm" />
		<tag k="ssr:stedsnr" v="143712" />
	</node>
	<node lat="59.800188885515226" lon="11.029111106056336" id="-26209">
		<tag k="name" v="Bråtan" />
		<tag k="ssr:stedsnr" v="143680" />
		<tag k="tourism" v="guest_house" />
	</node>
	<node lat="59.722502776579" lon="11.194630554026647" id="-26216">
		<tag k="name" v="Vestheim" />
		<tag k="place" v="farm" />
		<tag k="ssr:stedsnr" v="326451" />
	</node>
	<node lat="59.73525277427289" lon="11.006874998320727" id="-26217">
		<tag k="name" v="Fjellstad" />
		<tag k="place" v="farm" />
		<tag k="ssr:stedsnr" v="185543" />
	</node>
	<node lat="59.74075236761632" lon="11.173215457951937" id="-26218">
		<tag k="fixme" v="consider place=hamlet" />
		<tag k="name" v="Heier" />
		<tag k="place" v="farm" />
		<tag k="ssr:stedsnr" v="186112" />
	</node>
	<node lat="59.76801111294233" lon="11.146350000719131" id="-26220">
		<tag k="name" v="Løken" />
		<tag k="place" v="farm" />
		<tag k="ssr:stedsnr" v="186881" />
	</node>
	<node lat="59.801956034806295" lon="11.195015468707247" id="-26224">
		<tag k="fixme" v="consider place=hamlet" />
		<tag k="name" v="Kåterud" />
		<tag k="place" v="farm" />
		<tag k="ssr:stedsnr" v="187806" />
	</node>
	<node lat="59.84136052859744" lon="11.122447505000917" id="-26225">
		<tag k="alt_name" v="Siljebøl" />
		<tag k="fixme" v="consider place=hamlet" />
		<tag k="name" v="Siljubøl" />
		<tag k="old_name" v="Sillebøl" />
		<tag k="place" v="farm" />
		<tag k="ssr:stedsnr" v="187716" />
	</node>
	<node lat="59.75696944155573" lon="11.110483338620678" id="-26226">
		<tag k="name" v="Aldrimer" />
		<tag k="place" v="locality" />
		<tag k="ssr:stedsnr" v="187917" />
	</node>
	<node lat="59.75517760507364" lon="11.143437236307731" id="-26227">
		<tag k="fixme" v="consider place=hamlet" />
		<tag k="name" v="Bøler" />
		<tag k="place" v="farm" />
		<tag k="ssr:stedsnr" v="187921" />
	</node>
	<node lat="59.78613611291685" lon="10.97355000686167" id="-26235">
		<tag k="name" v="Langbråten" />
		<tag k="place" v="farm" />
		<tag k="ssr:stedsnr" v="265759" />
	</node>
	<node lat="59.70525833584563" lon="11.157811110760699" id="-26236">
		<tag k="name" v="Myrer" />
		<tag k="place" v="locality" />
		<tag k="ssr:stedsnr" v="265298" />
	</node>
	<node lat="59.83264444548677" lon="11.134272213608037" id="-26237">
		<tag k="amenity" v="school" />
		<tag k="name" v="Hauglia skole" />
		<tag k="ssr:stedsnr" v="265318" />
	</node>
	<node lat="59.75915833753504" lon="11.195763887510237" id="-26239">
		<tag k="name" v="Hammerstad" />
		<tag k="place" v="isolated_dwelling" />
		<tag k="ssr:stedsnr" v="265448" />
	</node>
	<node lat="59.75212499685577" lon="11.024680561420796" id="-26240">
		<tag k="name" v="Slorby" />
		<tag k="place" v="locality" />
		<tag k="ssr:stedsnr" v="265369" />
	</node>
	<node lat="59.82593457310261" lon="11.161697105417304" id="-26241">
		<tag k="fixme" v="consider place=hamlet" />
		<tag k="name" v="Flateby" />
		<tag k="place" v="farm" />
		<tag k="ssr:stedsnr" v="265485" />
	</node>
	<node lat="59.73453055475341" lon="11.062705555598727" id="-26245">
		<tag k="name" v="Nedre Kjepperud" />
		<tag k="place" v="farm" />
		<tag k="ssr:stedsnr" v="265734" />
	</node>
	<node lat="59.7656722237016" lon="11.133322225859892" id="-26246">
		<tag k="name" v="Klokkerud" />
		<tag k="place" v="farm" />
		<tag k="ssr:stedsnr" v="265462" />
	</node>
	<node lat="59.720872218391044" lon="11.103569451513136" id="-26247">
		<tag k="name" v="Haraldstad" />
		<tag k="place" v="farm" />
		<tag k="ssr:stedsnr" v="265468" />
	</node>
	<node lat="59.72530833437028" lon="11.152402783288238" id="-26260">
		<tag k="name" v="Kølabonn" />
		<tag k="place" v="locality" />
		<tag k="ssr:stedsnr" v="205305" />
	</node>
	<node lat="59.78248333000169" lon="11.129741673635307" id="-26261">
		<tag k="name" v="Kokkerud" />
		<tag k="place" v="locality" />
		<tag k="ssr:stedsnr" v="205307" />
	</node>
	<node lat="59.70011110987859" lon="11.020130552893779" id="-26265">
		<tag k="name" v="Kristofferstein" />
		<tag k="place" v="locality" />
		<tag k="ssr:stedsnr" v="205204" />
	</node>
	<node lat="59.82323055552467" lon="11.166083336150143" id="-26266">
		<tag k="amenity" v="school" />
		<tag k="name" v="Stranden skole" />
		<tag k="ssr:stedsnr" v="205440" />
	</node>
	<node lat="59.72685555676189" lon="11.162505554487076" id="-26267">
		<tag k="name" v="Åsli" />
		<tag k="place" v="farm" />
		<tag k="ssr:stedsnr" v="205489" />
	</node>
	<node lat="59.77453332972144" lon="11.108408331798234" id="-26271">
		<tag k="alt_name" v="Børter vestre" />
		<tag k="name" v="Vestre Børter" />
		<tag k="place" v="farm" />
		<tag k="ssr:stedsnr" v="205539" />
	</node>
	<node lat="59.76211111379475" lon="11.127580553273042" id="-26272">
		<tag k="name" v="Finstad" />
		<tag k="place" v="farm" />
		<tag k="ssr:stedsnr" v="205540" />
	</node>
	<node lat="59.7333028834375" lon="11.1710545245376" id="-26276">
		<tag k="name" v="Fagerås" />
		<tag k="place" v="hamlet" />
		<tag k="ssr:stedsnr" v="205735" />
	</node>
	<node lat="59.72127777603245" lon="11.05264444311281" id="-26277">
		<tag k="name" v="Bjerkely" />
		<tag k="place" v="farm" />
		<tag k="ssr:stedsnr" v="205744" />
	</node>
	<node lat="59.7412638883653" lon="11.17610000458747" id="-26281">
		<tag k="name" v="Langset" />
		<tag k="place" v="farm" />
		<tag k="ssr:stedsnr" v="246112" />
	</node>
	<node lat="59.7474416637796" lon="11.04588888178939" id="-26284">
		<tag k="alt_name" v="Kjensli" />
		<tag k="name" v="Tjernsli" />
		<tag k="place" v="farm" />
		<tag k="ssr:stedsnr" v="246576" />
	</node>
	<node lat="59.74176548343845" lon="11.065396070827047" id="-26285">
		<tag k="fixme" v="consider place=hamlet" />
		<tag k="name" v="Nordby" />
		<tag k="old_name" v="Norby" />
		<tag k="place" v="farm" />
		<tag k="ssr:stedsnr" v="246580" />
	</node>
	<node lat="59.83206944653621" lon="11.119588886085497" id="-26287">
		<tag k="name" v="Nordli" />
		<tag k="place" v="farm" />
		<tag k="ssr:stedsnr" v="247763" />
	</node>
	<node lat="59.74080277897999" lon="11.178469448212484" id="-26290">
		<tag k="name" v="Lundegård" />
		<tag k="place" v="farm" />
		<tag k="ssr:stedsnr" v="265405" />
	</node>
	<node lat="59.733230551605565" lon="11.193455563303365" id="-26291">
		<tag k="alt_name" v="Buer øvre" />
		<tag k="name" v="Øvre Buer" />
		<tag k="place" v="farm" />
		<tag k="ssr:stedsnr" v="265407" />
	</node>
	<node lat="59.74936666251614" lon="11.18528055675755" id="-26292">
		<tag k="name" v="Ulvestigen" />
		<tag k="place" v="farm" />
		<tag k="ssr:stedsnr" v="265420" />
	</node>
	<node lat="59.768558506859705" lon="11.181978690583453" id="-26293">
		<tag k="name" v="Krogsbølenga" />
		<tag k="place" v="isolated_dwelling" />
		<tag k="ssr:stedsnr" v="265429" />
	</node>
	<node lat="59.73575833314041" lon="11.183566665926431" id="-26294">
		<tag k="alt_name" v="Buer øvre" />
		<tag k="name" v="Øvre Buer" />
		<tag k="place" v="farm" />
		<tag k="ssr:stedsnr" v="265395" />
	</node>
	<node lat="59.7269111068078" lon="11.181763896595863" id="-26295">
		<tag k="alt_name" v="Bøler nordre" />
		<tag k="name" v="Nordre Bøler" />
		<tag k="place" v="farm" />
		<tag k="ssr:stedsnr" v="265397" />
	</node>
	<node lat="59.73612777771857" lon="11.188916672821499" id="-26296">
		<tag k="alt_name" v="Buer nedre" />
		<tag k="name" v="Nedre Buer" />
		<tag k="place" v="farm" />
		<tag k="ssr:stedsnr" v="265399" />
	</node>
	<node lat="59.801927776010196" lon="11.035755549678933" id="-26300">
		<tag k="name" v="Dammen" />
		<tag k="place" v="farm" />
		<tag k="ssr:stedsnr" v="265725" />
	</node>
	<node lat="59.7589222197165" lon="11.144294443945064" id="-26306">
		<tag k="name" v="Kronafeltet" />
		<tag k="place" v="quarter" />
		<tag k="ssr:stedsnr" v="266693" />
	</node>
	<node lat="59.73628889290078" lon="11.178111102736526" id="-26308">
		<tag k="name" v="Logn" />
		<tag k="place" v="locality" />
		<tag k="ssr:stedsnr" v="508265" />
	</node>
	<node lat="59.73677030026688" lon="11.081372003801778" id="-26309">
		<tag k="fixme" v="consider place=hamlet" />
		<tag k="name" v="Huseby" />
		<tag k="place" v="farm" />
		<tag k="ssr:stedsnr" v="306569" />
	</node>
	<node lat="59.73210000280045" lon="11.14579167399098" id="-26310">
		<tag k="name" v="Tømmerbråten" />
		<tag k="place" v="isolated_dwelling" />
		<tag k="ssr:stedsnr" v="307106" />
	</node>
	<node lat="59.70337499626775" lon="11.048727776130487" id="-26311">
		<tag k="name" v="Enga" />
		<tag k="place" v="farm" />
		<tag k="ssr:stedsnr" v="307402" />
	</node>
	<node lat="59.77531389021268" lon="11.102358326695855" id="-26312">
		<tag k="alt_name" v="Nygård" />
		<tag k="name" v="Nygard" />
		<tag k="place" v="farm" />
		<tag k="ssr:stedsnr" v="307851" />
	</node>
	<node lat="59.78384165236144" lon="11.178980401318684" id="-26313">
		<tag k="fixme" v="multiple name tags, choose one and add the other to alt_name" />
		<tag k="name" v="Nordre Solberg;Skrabben-Solberg" />
		<tag k="place" v="farm" />
		<tag k="ssr:stedsnr" v="466421" />
	</node>
	<node lat="59.761963890529294" lon="11.158663884252318" id="-26316">
		<tag k="name" v="Engerholm" />
		<tag k="place" v="farm" />
		<tag k="ssr:stedsnr" v="326508" />
	</node>
	<node lat="59.720872223844516" lon="11.201577785848555" id="-26320">
		<tag k="name" v="Sesur" />
		<tag k="place" v="locality" />
		<tag k="ssr:stedsnr" v="326268" />
	</node>
	<node lat="59.778983337098246" lon="11.175122217365605" id="-26321">
		<tag k="name" v="Ulverud" />
		<tag k="place" v="farm" />
		<tag k="ssr:stedsnr" v="326427" />
	</node>
	<node lat="59.75793889048816" lon="11.158452782609563" id="-26322">
		<tag k="name" v="Gullhaug" />
		<tag k="place" v="farm" />
		<tag k="ssr:stedsnr" v="326469" />
	</node>
	<node lat="59.707916663667206" lon="11.100505554397225" id="-26323">
		<tag k="name" v="Lyserbråten" />
		<tag k="place" v="farm" />
		<tag k="ssr:stedsnr" v="326479" />
	</node>
	<node lat="59.70670000183614" lon="11.10376389744235" id="-26324">
		<tag k="name" v="Nosa" />
		<tag k="place" v="farm" />
		<tag k="ssr:stedsnr" v="326482" />
	</node>
	<node lat="59.77750277708082" lon="11.104691663377428" id="-26326">
		<tag k="name" v="Bekkensten" />
		<tag k="place" v="farm" />
		<tag k="ssr:stedsnr" v="326703" />
	</node>
	<node lat="59.73036944489125" lon="11.032844437273262" id="-26330">
		<tag k="fixme" v="consider place=suburb, village or hamlet" />
		<tag k="name" v="Ytre Enebakk" />
		<tag k="place" v="quarter" />
		<tag k="ssr:stedsnr" v="329712" />
	</node>
	<node lat="59.71388333301592" lon="11.086408331099282" id="-26332">
		<tag k="name" v="Ødegården" />
		<tag k="place" v="farm" />
		<tag k="ssr:stedsnr" v="367523" />
	</node>
	<node lat="59.797830553285415" lon="10.998836106401606" id="-26334">
		<tag k="alt_name" v="Bysætra" />
		<tag k="historic" v="shieling" />
		<tag k="name" v="Bysetra" />
		<tag k="place" v="isolated_dwelling" />
		<tag k="ssr:stedsnr" v="368373" />
	</node>
	<node lat="59.75663550058568" lon="11.203049343040725" id="-26335">
		<tag k="fixme" v="consider place=hamlet" />
		<tag k="name" v="Krokstad" />
		<tag k="place" v="farm" />
		<tag k="ssr:stedsnr" v="368920" />
	</node>
	<node lat="59.7610109883483" lon="11.19323683408775" id="-26337">
		<tag k="fixme" v="consider place=hamlet" />
		<tag k="name" v="Rud" />
		<tag k="place" v="farm" />
		<tag k="ssr:stedsnr" v="368888" />
	</node>
	<node lat="59.7399743516124" lon="11.0152907283048" id="-26339">
		<tag k="name" v="Toje" />
		<tag k="place" v="isolated_dwelling" />
		<tag k="ssr:stedsnr" v="386203" />
	</node>
	<node lat="59.711208337684965" lon="11.197424996513183" id="-26340">
		<tag k="name" v="Kontra" />
		<tag k="place" v="locality" />
		<tag k="ssr:stedsnr" v="386265" />
	</node>
	<node lat="59.75555833714902" lon="11.187905556772247" id="-26341">
		<tag k="name" v="Nordby" />
		<tag k="place" v="farm" />
		<tag k="ssr:stedsnr" v="386367" />
	</node>
	<node lat="59.76040555367724" lon="11.196436110474815" id="-26345">
		<tag k="name" v="Arneberg" />
		<tag k="place" v="isolated_dwelling" />
		<tag k="ssr:stedsnr" v="386405" />
	</node>
	<node lat="59.73083611545336" lon="11.00042500310145" id="-26347">
		<tag k="name" v="Øvre Grav" />
		<tag k="place" v="farm" />
		<tag k="ssr:stedsnr" v="386715" />
	</node>
	<node lat="59.72682778078102" lon="11.028291660583562" id="-26348">
		<tag k="name" v="Vollene" />
		<tag k="old_name" v="Voldene" />
		<tag k="place" v="locality" />
		<tag k="ssr:stedsnr" v="386695" />
	</node>
	<node lat="59.72951388859984" lon="11.024736110636312" id="-26349">
		<tag k="alt_name" v="Kjellgård østre" />
		<tag k="name" v="Østre Kjellgård" />
		<tag k="place" v="farm" />
		<tag k="ssr:stedsnr" v="386696" />
	</node>
	<node lat="59.7398111156697" lon="11.00575555208607" id="-26350">
		<tag k="name" v="Råken" />
		<tag k="place" v="farm" />
		<tag k="ssr:stedsnr" v="386698" />
	</node>
	<node lat="59.725668031512775" lon="11.052697378961136" id="-26353">
		<tag k="alt_name" v="Øvre Foss" />
		<tag k="fixme" v="consider place=hamlet" />
		<tag k="name" v="Foss" />
		<tag k="place" v="farm" />
		<tag k="ssr:stedsnr" v="488575" />
	</node>
	<node lat="59.735675004006325" lon="11.026952782520361" id="-26354">
		<tag k="name" v="Ødegården" />
		<tag k="place" v="farm" />
		<tag k="ssr:stedsnr" v="488591" />
	</node>
	<node lat="59.73597499905456" lon="11.187286116312196" id="-26355">
		<tag k="name" v="Buer" />
		<tag k="place" v="hamlet" />
		<tag k="ssr:stedsnr" v="489125" />
	</node>
	<node lat="59.78618888654108" lon="11.186347220949127" id="-26358">
		<tag k="name" v="Skjæret" />
		<tag k="place" v="farm" />
		<tag k="ssr:stedsnr" v="489857" />
	</node>
	<node lat="59.815257210522525" lon="11.044095970413169" id="-26360">
		<tag k="fixme" v="multiple name tags, choose one and add the other to alt_name" />
		<tag k="historic" v="shieling" />
		<tag k="name" v="Bøvelstadsætra;Bøvelstad" />
		<tag k="old_name" v="Bømmelstad" />
		<tag k="place" v="isolated_dwelling" />
		<tag k="ssr:stedsnr" v="490258" />
	</node>
	<node lat="59.81865000221138" lon="10.999266662897202" id="-26361">
		<tag k="fixme" v="consider tourism=alpine_hut or tourism=chalet" />
		<tag k="name" v="Vangen" />
		<tag k="ssr:stedsnr" v="490268" />
		<tag k="tourism" v="wilderness_hut" />
	</node>
	<node lat="59.71497780428982" lon="11.058850877290716" id="-26363">
		<tag k="fixme" v="consider place=hamlet" />
		<tag k="name" v="Ungersnes" />
		<tag k="place" v="farm" />
		<tag k="ssr:stedsnr" v="428522" />
	</node>
	<node lat="59.746950003900466" lon="11.199286115223314" id="-26365">
		<tag k="alt_name" v="Vennevoll østre" />
		<tag k="name" v="Østre Vennevoll" />
		<tag k="place" v="farm" />
		<tag k="ssr:stedsnr" v="429064" />
	</node>
	<node lat="59.80787222530706" lon="11.180938896859908" id="-26367">
		<tag k="name" v="Svingen" />
		<tag k="place" v="farm" />
		<tag k="ssr:stedsnr" v="490796" />
	</node>
	<node lat="59.811286112011544" lon="11.107299995433348" id="-26369">
		<tag k="name" v="Finnland" />
		<tag k="place" v="locality" />
		<tag k="ssr:stedsnr" v="429806" />
	</node>
	<node lat="59.75912045771205" lon="11.203867822556703" id="-26370">
		<tag k="fixme" v="consider place=hamlet" />
		<tag k="name" v="Slette" />
		<tag k="place" v="farm" />
		<tag k="ssr:stedsnr" v="429906" />
	</node>
	<node lat="59.74955271302728" lon="11.1965352493652" id="-26371">
		<tag k="name" v="By" />
		<tag k="place" v="hamlet" />
		<tag k="ssr:stedsnr" v="429907" />
	</node>
	<node lat="59.75094444807804" lon="11.103530559402847" id="-26372">
		<tag k="name" v="Holstad" />
		<tag k="place" v="farm" />
		<tag k="ssr:stedsnr" v="429914" />
	</node>
	<node lat="59.77930762585883" lon="11.137384334770918" id="-26374">
		<tag k="alt_name" v="Veng, vestre;Veng vestre" />
		<tag k="fixme" v="consider place=hamlet" />
		<tag k="name" v="Vestre Veng" />
		<tag k="old_name" v="Vang" />
		<tag k="place" v="farm" />
		<tag k="ssr:stedsnr" v="430854" />
	</node>
	<node lat="59.71791389075979" lon="11.139047219117646" id="-26377">
		<tag k="name" v="Padderud" />
		<tag k="place" v="farm" />
		<tag k="ssr:stedsnr" v="447407" />
	</node>
	<node lat="59.70407499766791" lon="11.170324999252703" id="-26378">
		<tag k="name" v="Perstad" />
		<tag k="place" v="farm" />
		<tag k="ssr:stedsnr" v="447411" />
	</node>
	<node lat="59.74173055830422" lon="11.163841664852596" id="-26379">
		<tag k="name" v="Grubberud" />
		<tag k="place" v="farm" />
		<tag k="ssr:stedsnr" v="447415" />
	</node>
	<node lat="59.72520200120584" lon="11.168027373695972" id="-26380">
		<tag k="fixme" v="consider place=hamlet" />
		<tag k="name" v="Killerud" />
		<tag k="place" v="farm" />
		<tag k="ssr:stedsnr" v="447416" />
	</node>
	<node lat="59.70415833361274" lon="11.20039721948287" id="-26381">
		<tag k="name" v="Sollia" />
		<tag k="place" v="farm" />
		<tag k="ssr:stedsnr" v="447387" />
	</node>
	<node lat="59.70543611539322" lon="11.196388880388845" id="-26382">
		<tag k="name" v="Grønmo" />
		<tag k="place" v="farm" />
		<tag k="ssr:stedsnr" v="447391" />
	</node>
	<node lat="59.736500003379966" lon="11.168455554959484" id="-26391">
		<tag k="name" v="Hjørnerud" />
		<tag k="place" v="isolated_dwelling" />
		<tag k="ssr:stedsnr" v="448735" />
	</node>
	<node lat="59.72508651252847" lon="11.199817354484887" id="-26393">
		<tag k="fixme" v="consider place=hamlet" />
		<tag k="name" v="Hvitstein" />
		<tag k="place" v="farm" />
		<tag k="ssr:stedsnr" v="671101" />
	</node>
	<node lat="59.71253333386097" lon="11.073772229956273" id="-26394">
		<tag k="name" v="Nordre Skog" />
		<tag k="place" v="farm" />
		<tag k="ssr:stedsnr" v="671562" />
	</node>
	<node lat="59.82302222014607" lon="11.123722215676512" id="-26396">
		<tag k="alt_name" v="Hyttebråten (nedl.)" />
		<tag k="name" v="Hyttebråten" />
		<tag k="place" v="locality" />
		<tag k="ssr:stedsnr" v="671751" />
	</node>
	<node lat="59.82323333298991" lon="11.14098333869229" id="-26397">
		<tag k="name" v="Østli" />
		<tag k="place" v="isolated_dwelling" />
		<tag k="ssr:stedsnr" v="671753" />
	</node>
	<node lat="59.70346389216508" lon="11.175030557054635" id="-26398">
		<tag k="name" v="Fløtten" />
		<tag k="place" v="farm" />
		<tag k="ssr:stedsnr" v="671832" />
	</node>
	<node lat="59.704713886395105" lon="11.176605558518995" id="-26399">
		<tag k="alt_name" v="Fjell, søndre;Fjell søndre" />
		<tag k="name" v="Søndre Fjell" />
		<tag k="place" v="farm" />
		<tag k="ssr:stedsnr" v="671837" />
	</node>
	<node lat="59.712016667496954" lon="11.13110000472312" id="-26400">
		<tag k="alt_name" v="Brevik;Brevik vestre" />
		<tag k="name" v="Vestre Brevik" />
		<tag k="place" v="farm" />
		<tag k="ssr:stedsnr" v="671849" />
	</node>
	<node lat="59.77323217232621" lon="11.173171439820154" id="-26401">
		<tag k="name" v="Hobøl" />
		<tag k="place" v="hamlet" />
		<tag k="ssr:stedsnr" v="671890" />
	</node>
	<node lat="59.77155833237711" lon="11.129783341455505" id="-26402">
		<tag k="name" v="Linshus" />
		<tag k="place" v="farm" />
		<tag k="ssr:stedsnr" v="671900" />
	</node>
	<node lat="59.76178888873478" lon="11.091030563740404" id="-26405">
		<tag k="alt_name" v="Sætra" />
		<tag k="historic" v="shieling" />
		<tag k="name" v="Setra" />
		<tag k="place" v="isolated_dwelling" />
		<tag k="ssr:stedsnr" v="672349" />
	</node>
	<node lat="59.713108331599265" lon="11.02478333685424" id="-26408">
		<tag k="alt_name" v="Bråten" />
		<tag k="name" v="Bråtan" />
		<tag k="place" v="farm" />
		<tag k="ssr:stedsnr" v="488557" />
	</node>
	<node lat="59.7294305518249" lon="11.136974994338745" id="-26409">
		<tag k="name" v="Knatterud" />
		<tag k="place" v="farm" />
		<tag k="ssr:stedsnr" v="489115" />
	</node>
	<node lat="59.775363884877635" lon="10.99214999723247" id="-26413">
		<tag k="name" v="Andersrud" />
		<tag k="place" v="farm" />
		<tag k="ssr:stedsnr" v="490411" />
	</node>
	<node lat="59.791372221877175" lon="11.1834805610667" id="-26414">
		<tag k="name" v="Vaslestad" />
		<tag k="place" v="farm" />
		<tag k="ssr:stedsnr" v="490809" />
	</node>
	<node lat="59.76088055419507" lon="11.120091669678944" id="-26416">
		<tag k="name" v="Holtopp" />
		<tag k="place" v="farm" />
		<tag k="ssr:stedsnr" v="490929" />
	</node>
	<node lat="59.715211111658" lon="11.202341659192662" id="-26418">
		<tag k="name" v="Langstrøm" />
		<tag k="place" v="locality" />
		<tag k="ssr:stedsnr" v="508260" />
	</node>
	<node lat="59.83093333229297" lon="11.14219722959063" id="-26421">
		<tag k="name" v="Nygård" />
		<tag k="place" v="farm" />
		<tag k="ssr:stedsnr" v="508521" />
	</node>
	<node lat="59.723524999832605" lon="11.051608341066103" id="-26422">
		<tag k="name" v="Sagstua" />
		<tag k="place" v="farm" />
		<tag k="ssr:stedsnr" v="508708" />
	</node>
	<node lat="59.72299722585929" lon="11.057280555582366" id="-26423">
		<tag k="name" v="Haug" />
		<tag k="place" v="farm" />
		<tag k="ssr:stedsnr" v="508709" />
	</node>
	<node lat="59.75282499847701" lon="10.986730555620687" id="-26424">
		<tag k="name" v="Bråten" />
		<tag k="place" v="isolated_dwelling" />
		<tag k="ssr:stedsnr" v="508721" />
	</node>
	<node lat="59.71932500357052" lon="11.068608338421155" id="-26431">
		<tag k="alt_name" v="Østby, søndre" />
		<tag k="name" v="Søndre Østby" />
		<tag k="place" v="farm" />
		<tag k="ssr:stedsnr" v="549559" />
	</node>
	<node lat="59.71235555624885" lon="11.112913883358132" id="-26433">
		<tag k="name" v="Lund" />
		<tag k="place" v="farm" />
		<tag k="ssr:stedsnr" v="550849" />
	</node>
	<node lat="59.82951111354717" lon="11.153452784086886" id="-26434">
		<tag k="name" v="Flateby" />
		<tag k="place" v="village" />
		<tag k="ssr:stedsnr" v="550762" />
	</node>
	<node lat="59.82403746447963" lon="11.155784893725805" id="-26435">
		<tag k="fixme" v="consider place=hamlet" />
		<tag k="name" v="Sundby" />
		<tag k="place" v="farm" />
		<tag k="ssr:stedsnr" v="550763" />
	</node>
	<node lat="59.81251111427836" lon="11.150658329696295" id="-26436">
		<tag k="name" v="Sandbakken" />
		<tag k="place" v="farm" />
		<tag k="ssr:stedsnr" v="550795" />
	</node>
	<node lat="59.777705552148355" lon="11.105055548033377" id="-26437">
		<tag k="name" v="Møllerstua" />
		<tag k="place" v="isolated_dwelling" />
		<tag k="ssr:stedsnr" v="550894" />
	</node>
	<node lat="59.69977500131969" lon="11.044508333017493" id="-26442">
		<tag k="name" v="Strandnes" />
		<tag k="place" v="farm" />
		<tag k="ssr:stedsnr" v="690222" />
	</node>
	<node lat="59.73484999786355" lon="11.134752770161699" id="-26443">
		<tag k="name" v="Skaugrom" />
		<tag k="place" v="locality" />
		<tag k="ssr:stedsnr" v="690316" />
	</node>
	<node lat="59.799777778450675" lon="11.18778055426018" id="-26444">
		<tag k="name" v="Norum" />
		<tag k="place" v="farm" />
		<tag k="ssr:stedsnr" v="690436" />
	</node>
	<node lat="59.75560833254859" lon="11.215108326597681" id="-26446">
		<tag k="alt_name" v="Nes søndre" />
		<tag k="name" v="Søndre Nes" />
		<tag k="place" v="farm" />
		<tag k="ssr:stedsnr" v="690420" />
	</node>
	<node lat="59.77456944557921" lon="11.162966674926592" id="-26447">
		<tag k="alt_name" v="Deli nordre;Nordre Deli" />
		<tag k="name" v="Nordre Dæli" />
		<tag k="place" v="farm" />
		<tag k="ssr:stedsnr" v="690511" />
	</node>
	<node lat="59.7216555596329" lon="10.998113895799314" id="-26449">
		<tag k="name" v="Torvet" />
		<tag k="place" v="farm" />
		<tag k="ssr:stedsnr" v="690757" />
	</node>
	<node lat="59.701222218040314" lon="11.040144450589697" id="-26457">
		<tag k="name" v="Neshagen" />
		<tag k="place" v="locality" />
		<tag k="ssr:stedsnr" v="568205" />
	</node>
	<node lat="59.749255554814845" lon="11.175158326840801" id="-26458">
		<tag k="alt_name" v="Mysen mellom;Mellom Mysen" />
		<tag k="name" v="Mellom-Mysen" />
		<tag k="place" v="farm" />
		<tag k="ssr:stedsnr" v="568407" />
	</node>
	<node lat="59.68393333308777" lon="11.20322500623089" id="-26459">
		<tag k="name" v="Skauby" />
		<tag k="place" v="farm" />
		<tag k="ssr:stedsnr" v="568419" />
	</node>
	<node lat="59.808049996134514" lon="11.180802778582155" id="-26460">
		<tag k="name" v="Sødelen" />
		<tag k="place" v="farm" />
		<tag k="ssr:stedsnr" v="568454" />
	</node>
	<node lat="59.77406944136168" lon="11.152172216218437" id="-26461">
		<tag k="name" v="Ekornrud" />
		<tag k="place" v="farm" />
		<tag k="ssr:stedsnr" v="568468" />
	</node>
	<node lat="59.73436398770691" lon="11.181412237764041" id="-26479">
		<tag k="fixme" v="consider place=hamlet" />
		<tag k="name" v="Huserud" />
		<tag k="place" v="farm" />
		<tag k="ssr:stedsnr" v="610129" />
	</node>
	<node lat="59.83888888980639" lon="11.135563894794" id="-26484">
		<tag k="name" v="Skog" />
		<tag k="place" v="farm" />
		<tag k="ssr:stedsnr" v="611766" />
	</node>
	<node lat="59.81769486049493" lon="11.175667913777845" id="-26485">
		<tag k="fixme" v="consider place=hamlet" />
		<tag k="name" v="Gjestang" />
		<tag k="place" v="farm" />
		<tag k="ssr:stedsnr" v="611767" />
	</node>
	<node lat="59.814798637689215" lon="11.179494346148307" id="-26486">
		<tag k="fixme" v="consider place=hamlet" />
		<tag k="name" v="Fossum" />
		<tag k="place" v="farm" />
		<tag k="ssr:stedsnr" v="611768" />
	</node>
	<node lat="59.78188055437615" lon="11.096677770656811" id="-26487">
		<tag k="name" v="Brattfoss" />
		<tag k="place" v="isolated_dwelling" />
		<tag k="ssr:stedsnr" v="611880" />
	</node>
	<node lat="59.78038215254765" lon="11.15879595967638" id="-26488">
		<tag k="fixme" v="consider place=hamlet" />
		<tag k="name" v="Tukkebøl" />
		<tag k="place" v="farm" />
		<tag k="ssr:stedsnr" v="611882" />
	</node>
	<node lat="59.6929416688369" lon="11.147391674754079" id="-26489">
		<tag k="name" v="Tømt" />
		<tag k="place" v="locality" />
		<tag k="ssr:stedsnr" v="629350" />
	</node>
	<node lat="59.764538890720026" lon="10.959819446981175" id="-26490">
		<tag k="name" v="Svensken" />
		<tag k="place" v="locality" />
		<tag k="ssr:stedsnr" v="629357" />
	</node>
	<node lat="59.76643055672871" lon="11.123961103984826" id="-26491">
		<tag k="name" v="Elverum" />
		<tag k="place" v="farm" />
		<tag k="ssr:stedsnr" v="629504" />
	</node>
	<node lat="59.83948055559351" lon="11.142477784313014" id="-26493">
		<tag k="name" v="Brattli" />
		<tag k="place" v="hamlet" />
		<tag k="ssr:stedsnr" v="629296" />
	</node>
	<node lat="59.6834666703038" lon="11.20663611645863" id="-26494">
		<tag k="name" v="Einerstad" />
		<tag k="place" v="farm" />
		<tag k="ssr:stedsnr" v="629441" />
	</node>
	<node lat="59.7286027793565" lon="11.018858335613004" id="-26495">
		<tag k="alt_name" v="Kjellgård vestre" />
		<tag k="name" v="Vestre Kjellgård" />
		<tag k="place" v="farm" />
		<tag k="ssr:stedsnr" v="629707" />
	</node>
	<node lat="59.74583744603722" lon="11.167076673408053" id="-26500">
		<tag k="fixme" v="consider place=hamlet" />
		<tag k="name" v="Saltvet" />
		<tag k="place" v="farm" />
		<tag k="ssr:stedsnr" v="671070" />
	</node>
	<node lat="59.73111442924547" lon="11.1733794585951" id="-26501">
		<tag k="fixme" v="consider place=hamlet" />
		<tag k="name" v="Rud" />
		<tag k="place" v="farm" />
		<tag k="ssr:stedsnr" v="671104" />
	</node>
	<node lat="59.68632499971012" lon="11.212205557795288" id="-26502">
		<tag k="name" v="Rånes" />
		<tag k="place" v="farm" />
		<tag k="ssr:stedsnr" v="671820" />
	</node>
	<node lat="59.78539167004032" lon="11.093069451080654" id="-26503">
		<tag k="name" v="Furubråtan" />
		<tag k="old_name" v="Furubråten" />
		<tag k="place" v="isolated_dwelling" />
		<tag k="ssr:stedsnr" v="672863" />
	</node>
	<node lat="59.78130448995119" lon="11.143594713445692" id="-26504">
		<tag k="alt_name" v="Veng, østre;Veng østre" />
		<tag k="fixme" v="consider place=hamlet" />
		<tag k="name" v="Østre Veng" />
		<tag k="place" v="farm" />
		<tag k="ssr:stedsnr" v="672865" />
	</node>
	<node lat="59.83736388870197" lon="11.118827780199414" id="-26505">
		<tag k="name" v="Kronstad" />
		<tag k="place" v="locality" />
		<tag k="ssr:stedsnr" v="690211" />
	</node>
	<node lat="59.724463892447055" lon="11.188280557596128" id="-26507">
		<tag k="name" v="Hvam" />
		<tag k="place" v="farm" />
		<tag k="ssr:stedsnr" v="690426" />
	</node>
	<node lat="59.722583335196916" lon="11.187213885628656" id="-26508">
		<tag k="name" v="Nordli" />
		<tag k="place" v="farm" />
		<tag k="ssr:stedsnr" v="690461" />
	</node>
	<node lat="59.7375305567326" lon="11.172719452581402" id="-26509">
		<tag k="name" v="Fløtten" />
		<tag k="place" v="farm" />
		<tag k="ssr:stedsnr" v="690477" />
	</node>
	<node lat="59.72833610656101" lon="11.172194451125172" id="-26510">
		<tag k="name" v="Killerud" />
		<tag k="place" v="farm" />
		<tag k="ssr:stedsnr" v="690484" />
	</node>
	<node lat="59.7279972232224" lon="11.100063887391107" id="-26511">
		<tag k="name" v="Bekkelaget" />
		<tag k="place" v="farm" />
		<tag k="ssr:stedsnr" v="690492" />
	</node>
	<node lat="59.7265444462472" lon="11.06550555340976" id="-26512">
		<tag k="name" v="Bjerkehaugen" />
		<tag k="place" v="farm" />
		<tag k="ssr:stedsnr" v="690495" />
	</node>
	<node lat="59.74243833826233" lon="11.071993365389298" id="-26524">
		<tag k="name" v="Kronborg" />
		<tag k="place" v="locality" />
		<tag k="ssr:stedsnr" v="690731" />
	</node>
	<node lat="59.73374166246164" lon="11.060672227446602" id="-26525">
		<tag k="name" v="Øvre Kjepperud" />
		<tag k="place" v="farm" />
		<tag k="ssr:stedsnr" v="690732" />
	</node>
	<node lat="59.704305555522375" lon="11.207813882860421" id="-26529">
		<tag k="name" v="Borudåsen" />
		<tag k="place" v="quarter" />
		<tag k="ssr:stedsnr" v="691696" />
	</node>
	<node lat="59.705327776886584" lon="11.060491663080676" id="-26532">
		<tag k="name" v="Danmark" />
		<tag k="place" v="farm" />
		<tag k="ssr:stedsnr" v="732421" />
	</node>
	<node lat="59.81439999574733" lon="11.186772219480781" id="-26533">
		<tag k="name" v="Asplund" />
		<tag k="place" v="farm" />
		<tag k="ssr:stedsnr" v="732812" />
	</node>
	<node lat="59.801277776255624" lon="11.178800006619118" id="-26536">
		<tag k="name" v="Petersrud" />
		<tag k="place" v="farm" />
		<tag k="ssr:stedsnr" v="733834" />
	</node>
	<node lat="59.757258331749746" lon="11.110919446598093" id="-26537">
		<tag k="name" v="Fella" />
		<tag k="place" v="locality" />
		<tag k="ssr:stedsnr" v="750309" />
	</node>
	<node lat="59.727019441616015" lon="11.074747226296221" id="-26538">
		<tag k="name" v="Maribråtan" />
		<tag k="place" v="locality" />
		<tag k="ssr:stedsnr" v="750315" />
	</node>
	<node lat="59.74393332957782" lon="11.195319449253542" id="-26539">
		<tag k="name" v="Lund" />
		<tag k="place" v="farm" />
		<tag k="ssr:stedsnr" v="750363" />
	</node>
	<node lat="59.70075833337632" lon="11.177716663951124" id="-26543">
		<tag k="name" v="Solli" />
		<tag k="place" v="farm" />
		<tag k="ssr:stedsnr" v="750407" />
	</node>
	<node lat="59.77832500386" lon="11.161372221039692" id="-26545">
		<tag k="alt_name" v="Guslund østre" />
		<tag k="name" v="Østre Guslund" />
		<tag k="place" v="farm" />
		<tag k="ssr:stedsnr" v="750471" />
	</node>
	<node lat="59.79851666742187" lon="11.029333327512846" id="-26546">
		<tag k="fixme" v="consider tourism=alpine_hut or tourism=chalet" />
		<tag k="name" v="Øvresaga" />
		<tag k="ssr:stedsnr" v="750660" />
		<tag k="tourism" v="wilderness_hut" />
	</node>
	<node lat="59.70783164008879" lon="11.046194879600185" id="-26558">
		<tag k="fixme" v="consider place=hamlet" />
		<tag k="name" v="Ubberud" />
		<tag k="place" v="farm" />
		<tag k="ssr:stedsnr" v="792385" />
	</node>
	<node lat="59.72132500092927" lon="11.13156666547851" id="-26561">
		<tag k="name" v="Haga" />
		<tag k="place" v="farm" />
		<tag k="ssr:stedsnr" v="793867" />
	</node>
	<node lat="59.82066703168832" lon="11.165944300765483" id="-26562">
		<tag k="name" v="Auen" />
		<tag k="place" v="hamlet" />
		<tag k="ssr:stedsnr" v="793777" />
	</node>
	<node lat="59.752172221515515" lon="10.993097220841262" id="-26563">
		<tag k="name" v="Myra" />
		<tag k="place" v="farm" />
		<tag k="ssr:stedsnr" v="794466" />
	</node>
	<node lat="59.763280556017385" lon="10.952775005237577" id="-26564">
		<tag k="name" v="Klemma" />
		<tag k="place" v="farm" />
		<tag k="ssr:stedsnr" v="794379" />
	</node>
	<node lat="59.73247551113598" lon="11.052401441088822" id="-26565">
		<tag k="fixme" v="consider place=hamlet" />
		<tag k="name" v="Gjevelsrud" />
		<tag k="place" v="farm" />
		<tag k="ssr:stedsnr" v="913574" />
	</node>
	<node lat="59.82371944369855" lon="11.167791671713701" id="-26568">
		<tag k="name" v="Blinderen" />
		<tag k="place" v="farm" />
		<tag k="ssr:stedsnr" v="914757" />
	</node>
	<node lat="59.82723333664981" lon="11.144419444255856" id="-26569">
		<tag k="name" v="Småtta" />
		<tag k="place" v="isolated_dwelling" />
		<tag k="ssr:stedsnr" v="914769" />
	</node>
	<node lat="59.71530251201651" lon="11.193182221760821" id="-26570">
		<tag k="alt_name" v="Sylliås" />
		<tag k="fixme" v="consider place=hamlet" />
		<tag k="name" v="Siljås" />
		<tag k="place" v="farm" />
		<tag k="ssr:stedsnr" v="914842" />
	</node>
	<node lat="59.76897777562456" lon="11.156333325814167" id="-26574">
		<tag k="alt_name" v="Nygård" />
		<tag k="name" v="Nygard" />
		<tag k="place" v="farm" />
		<tag k="ssr:stedsnr" v="915878" />
	</node>
	<node lat="59.83443889148407" lon="11.116183336997112" id="-26575">
		<tag k="name" v="Myra" />
		<tag k="place" v="isolated_dwelling" />
		<tag k="ssr:stedsnr" v="915731" />
	</node>
	<node lat="59.75779011549781" lon="11.129620318363374" id="-26576">
		<tag k="fixme" v="consider place=hamlet" />
		<tag k="name" v="Østenbøl" />
		<tag k="place" v="farm" />
		<tag k="ssr:stedsnr" v="915932" />
	</node>
	<node lat="59.75604547163339" lon="11.214290608506104" id="-26577">
		<tag k="name" v="Nes" />
		<tag k="place" v="hamlet" />
		<tag k="ssr:stedsnr" v="915902" />
	</node>
	<node lat="59.836908333354664" lon="11.137063897212855" id="-26578">
		<tag k="name" v="Haug" />
		<tag k="place" v="quarter" />
		<tag k="ssr:stedsnr" v="811283" />
	</node>
	<node lat="59.72338223708273" lon="11.08751030175366" id="-26579">
		<tag k="fixme" v="consider place=hamlet" />
		<tag k="name" v="Jaer" />
		<tag k="place" v="farm" />
		<tag k="ssr:stedsnr" v="811445" />
	</node>
	<node lat="59.709177780989215" lon="11.064255560991313" id="-26580">
		<tag k="name" v="Juterud" />
		<tag k="place" v="locality" />
		<tag k="ssr:stedsnr" v="811337" />
	</node>
	<node lat="59.76157777670496" lon="11.19426944611701" id="-26581">
		<tag k="alt_name" v="Rud nordre" />
		<tag k="name" v="Nordre Rud" />
		<tag k="place" v="farm" />
		<tag k="ssr:stedsnr" v="811386" />
	</node>
	<node lat="59.729057978312795" lon="10.99423700325424" id="-26584">
		<tag k="fixme" v="consider place=hamlet" />
		<tag k="name" v="Rustad" />
		<tag k="place" v="farm" />
		<tag k="ssr:stedsnr" v="811700" />
	</node>
	<node lat="59.76194166441925" lon="11.147500001421696" id="-26591">
		<tag k="name" v="Enebakk" />
		<tag k="place" v="village" />
		<tag k="ssr:stedsnr" v="813201" />
	</node>
	<node lat="59.72233333361271" lon="11.055675002511894" id="-26592">
		<tag k="fixme" v="consider place=hamlet" />
		<tag k="name" v="Ytre Enebakk" />
		<tag k="place" v="village" />
		<tag k="ssr:stedsnr" v="813211" />
	</node>
	<node lat="59.69454999878031" lon="11.209016662675946" id="-26593">
		<tag k="alt_name" v="Borud, søndre;Borud søndre" />
		<tag k="name" v="Søndre Borud" />
		<tag k="place" v="farm" />
		<tag k="ssr:stedsnr" v="853808" />
	</node>
	<node lat="59.708493492012124" lon="11.1865058392352" id="-26594">
		<tag k="fixme" v="consider place=hamlet" />
		<tag k="name" v="Sundby" />
		<tag k="place" v="farm" />
		<tag k="ssr:stedsnr" v="853850" />
	</node>
	<node lat="59.757138891406825" lon="11.00628054844049" id="-26595">
		<tag k="name" v="Durud" />
		<tag k="place" v="farm" />
		<tag k="ssr:stedsnr" v="854355" />
	</node>
	<node lat="59.82049721915747" lon="10.96220000015604" id="-26597">
		<tag k="name" v="Skjelbreia" />
		<tag k="place" v="isolated_dwelling" />
		<tag k="ssr:stedsnr" v="854259" />
	</node>
	<node lat="59.79276389258628" lon="11.161238897788488" id="-26600">
		<tag k="name" v="Erikstad" />
		<tag k="place" v="isolated_dwelling" />
		<tag k="ssr:stedsnr" v="854805" />
	</node>
	<node lat="59.79071389160853" lon="11.114519448713473" id="-26601">
		<tag k="alt_name" v="Kølabånn" />
		<tag k="name" v="Kolbotn" />
		<tag k="place" v="isolated_dwelling" />
		<tag k="ssr:stedsnr" v="854809" />
	</node>
	<node lat="59.70172221780886" lon="11.045461110699861" id="-26604">
		<tag k="name" v="Kongelv" />
		<tag k="place" v="farm" />
		<tag k="ssr:stedsnr" v="872209" />
	</node>
	<node lat="59.76468610982392" lon="11.14444721436186" id="-26606">
		<tag k="amenity" v="townhall" />
		<tag k="name" v="Herredshuset" />
		<tag k="ssr:stedsnr" v="872264" />
	</node>
	<node lat="59.84219167068574" lon="11.119213896815797" id="-26609">
		<tag k="alt_name" v="Siljebøl nordre;Siljebøl" />
		<tag k="loc_name" v="Nordstua" />
		<tag k="name" v="Nordre Siljebøl" />
		<tag k="place" v="farm" />
		<tag k="ssr:stedsnr" v="933309" />
	</node>
	<node lat="59.83502777543465" lon="11.129111115174272" id="-26610">
		<tag k="name" v="Høgda" />
		<tag k="place" v="hamlet" />
		<tag k="ssr:stedsnr" v="933312" />
	</node>
	<node lat="59.72288889138455" lon="11.196333330580245" id="-26611">
		<tag k="name" v="Saga" />
		<tag k="place" v="locality" />
		<tag k="ssr:stedsnr" v="933265" />
	</node>
	<node lat="59.78927500076204" lon="11.157400007128109" id="-26612">
		<tag k="name" v="Brynjulfstad" />
		<tag k="place" v="locality" />
		<tag k="ssr:stedsnr" v="933270" />
	</node>
	<node lat="59.740947225243744" lon="11.164686104622975" id="-26613">
		<tag k="name" v="Tåje" />
		<tag k="place" v="locality" />
		<tag k="ssr:stedsnr" v="933274" />
	</node>
	<node lat="59.71456110885126" lon="11.171474993420064" id="-26614">
		<tag k="name" v="Bakkeløkka" />
		<tag k="place" v="locality" />
		<tag k="ssr:stedsnr" v="933276" />
	</node>
	<node lat="59.7362305523894" lon="11.130672218716237" id="-26616">
		<tag k="name" v="Larsbråten" />
		<tag k="place" v="farm" />
		<tag k="ssr:stedsnr" v="933480" />
	</node>
	<node lat="59.731555557298286" lon="11.11713333988172" id="-26624">
		<tag k="name" v="Myra" />
		<tag k="place" v="farm" />
		<tag k="ssr:stedsnr" v="914114" />
	</node>
	<node lat="59.7122416674199" lon="11.033452781258841" id="-26626">
		<tag k="name" v="Solli" />
		<tag k="place" v="farm" />
		<tag k="ssr:stedsnr" v="914578" />
	</node>
	<node lat="59.7935166697684" lon="11.188005547088427" id="-26631">
		<tag k="name" v="Smådal" />
		<tag k="place" v="farm" />
		<tag k="ssr:stedsnr" v="915805" />
	</node>
	<node lat="59.7879611129895" lon="11.188463891827743" id="-26632">
		<tag k="alt_name" v="Degrum, øvre;Degrum øvre" />
		<tag k="name" v="Øvre Degrum" />
		<tag k="place" v="farm" />
		<tag k="ssr:stedsnr" v="915808" />
	</node>
	<node lat="59.758766666814665" lon="11.174708341080331" id="-26634">
		<tag k="alt_name" v="Merli" />
		<tag k="name" v="Mæli" />
		<tag k="place" v="farm" />
		<tag k="ssr:stedsnr" v="915905" />
	</node>
	<node lat="59.75141944613555" lon="11.153458339540745" id="-26635">
		<tag k="name" v="Østli" />
		<tag k="place" v="locality" />
		<tag k="ssr:stedsnr" v="915928" />
	</node>
	<node lat="59.702227780862586" lon="11.050024996680039" id="-26637">
		<tag k="name" v="Sagen" />
		<tag k="place" v="locality" />
		<tag k="ssr:stedsnr" v="933200" />
	</node>
	<node lat="59.82150555578772" lon="11.168044445819818" id="-26638">
		<tag k="name" v="Auen" />
		<tag k="place" v="farm" />
		<tag k="ssr:stedsnr" v="933509" />
	</node>
	<node lat="59.75205833178373" lon="11.184102783841881" id="-26639">
		<tag k="name" v="Grønbakk" />
		<tag k="place" v="farm" />
		<tag k="ssr:stedsnr" v="933438" />
	</node>
	<node lat="59.719275002420325" lon="11.179341659642871" id="-26640">
		<tag k="amenity" v="school" />
		<tag k="name" v="Dalefjerdingen skole" />
		<tag k="ssr:stedsnr" v="933440" />
	</node>
	<node lat="59.707841670191776" lon="11.115322229006146" id="-26641">
		<tag k="name" v="Skjeggelia" />
		<tag k="place" v="farm" />
		<tag k="ssr:stedsnr" v="933492" />
	</node>
	<node lat="59.724427777734405" lon="11.015024993401891" id="-26649">
		<tag k="name" v="Grasholt" />
		<tag k="place" v="farm" />
		<tag k="ssr:stedsnr" v="933739" />
	</node>
	<node lat="59.71173693880944" lon="11.184478119700248" id="-26655">
		<tag k="fixme" v="consider place=hamlet" />
		<tag k="name" v="Glenne" />
		<tag k="place" v="farm" />
		<tag k="ssr:stedsnr" v="3846" />
	</node>
	<node lat="59.707387252571955" lon="11.090797188817346" id="-26657">
		<tag k="fixme" v="consider place=hamlet" />
		<tag k="name" v="Rustad" />
		<tag k="place" v="farm" />
		<tag k="ssr:stedsnr" v="3352" />
	</node>
	<node lat="59.71447499727289" lon="10.989288887264825" id="-26658">
		<tag k="alt_name" v="Breislorhytta" />
		<tag k="name" v="Breidslorhytta" />
		<tag k="place" v="isolated_dwelling" />
		<tag k="ssr:stedsnr" v="3526" />
	</node>
	<node lat="59.72195832899604" lon="11.054452782459823" id="-26659">
		<tag k="name" v="Tangen" />
		<tag k="place" v="locality" />
		<tag k="ssr:stedsnr" v="3547" />
	</node>
	<node lat="59.74560000036961" lon="11.06529999946228" id="-26660">
		<tag k="name" v="Vagram" />
		<tag k="place" v="farm" />
		<tag k="ssr:stedsnr" v="3567" />
	</node>
	<node lat="59.82641311160888" lon="11.155536678600775" id="-26662">
		<tag k="alt_name" v="Melgård" />
		<tag k="fixme" v="consider place=hamlet" />
		<tag k="name" v="Melgard" />
		<tag k="place" v="farm" />
		<tag k="ssr:stedsnr" v="4787" />
	</node>
	<node lat="59.7193565323636" lon="11.21151216363009" id="-26665">
		<tag k="name" v="Jevik" />
		<tag k="place" v="hamlet" />
		<tag k="ssr:stedsnr" v="4876" />
	</node>
	<node lat="59.75726111252081" lon="11.175788883349322" id="-26666">
		<tag k="name" v="Bakk" />
		<tag k="place" v="farm" />
		<tag k="ssr:stedsnr" v="5896" />
	</node>
	<node lat="59.725897224541825" lon="11.179961113370766" id="-26669">
		<tag k="alt_name" v="Bøler søndre" />
		<tag k="name" v="Søndre Bøler" />
		<tag k="place" v="farm" />
		<tag k="ssr:stedsnr" v="22358" />
	</node>
	<node lat="59.697855559127426" lon="11.19028055051498" id="-26681">
		<tag k="name" v="Stallerud" />
		<tag k="place" v="locality" />
		<tag k="ssr:stedsnr" v="23312" />
	</node>
	<node lat="59.72799722112513" lon="11.143005554612838" id="-26682">
		<tag k="name" v="Nyborg" />
		<tag k="place" v="locality" />
		<tag k="ssr:stedsnr" v="23315" />
	</node>
	<node lat="59.709441664324125" lon="11.184716658981769" id="-26683">
		<tag k="alt_name" v="Sundby nedre" />
		<tag k="name" v="Nedre Sundby" />
		<tag k="place" v="farm" />
		<tag k="ssr:stedsnr" v="23475" />
	</node>
	<node lat="59.77135555541872" lon="11.163291672449072" id="-26684">
		<tag k="alt_name" v="Deli søndre;Søndre Deli" />
		<tag k="loc_name" v="Sørgarden Dæli" />
		<tag k="name" v="Søndre Dæli" />
		<tag k="place" v="farm" />
		<tag k="ssr:stedsnr" v="23560" />
	</node>
	<node lat="59.725322226627114" lon="11.058383330366024" id="-26693">
		<tag k="name" v="Fossnes" />
		<tag k="place" v="farm" />
		<tag k="ssr:stedsnr" v="23723" />
	</node>
	<node lat="59.798983329395575" lon="11.19196388497723" id="-26697">
		<tag k="alt_name" v="Løkka" />
		<tag k="name" v="Lykkja" />
		<tag k="place" v="farm" />
		<tag k="ssr:stedsnr" v="65829" />
	</node>
	<node lat="59.80180833373483" lon="11.184825000694214" id="-26698">
		<tag k="name" v="Fløtten" />
		<tag k="place" v="farm" />
		<tag k="ssr:stedsnr" v="65831" />
	</node>
	<node lat="59.79840570947786" lon="11.028469871367884" id="-26701">
		<tag k="fixme" v="consider place=hamlet" />
		<tag k="name" v="Raudsjø" />
		<tag k="place" v="farm" />
		<tag k="ssr:stedsnr" v="65356" />
	</node>
	<node lat="59.827772225570726" lon="11.126447214348836" id="-26704">
		<tag k="alt_name" v="Skauen" />
		<tag k="name" v="Skogen" />
		<tag k="place" v="farm" />
		<tag k="ssr:stedsnr" v="65782" />
	</node>
	<node lat="59.76591985153897" lon="11.174131120806472" id="-26705">
		<tag k="alt_name" v="Krogsbøl;Krogbøl" />
		<tag k="fixme" v="consider place=hamlet" />
		<tag k="name" v="Kroksbøl" />
		<tag k="place" v="farm" />
		<tag k="ssr:stedsnr" v="65894" />
	</node>
	<node lat="59.70488610778241" lon="11.199447228319448" id="-26706">
		<tag k="name" v="Sandås" />
		<tag k="place" v="locality" />
		<tag k="ssr:stedsnr" v="83268" />
	</node>
	<node lat="59.74849444126793" lon="11.030813887524834" id="-26707">
		<tag k="name" v="Gjeversrud" />
		<tag k="place" v="locality" />
		<tag k="ssr:stedsnr" v="83353" />
	</node>
	<node lat="59.711741662586626" lon="11.057655561548268" id="-26709">
		<tag k="name" v="Stubberud" />
		<tag k="place" v="locality" />
		<tag k="ssr:stedsnr" v="83361" />
	</node>
	<node lat="59.717194447983985" lon="11.012161109632185" id="-26710">
		<tag k="name" v="Dal" />
		<tag k="place" v="locality" />
		<tag k="ssr:stedsnr" v="83362" />
	</node>
	<node lat="59.72271666315708" lon="11.07920000849911" id="-26711">
		<tag k="name" v="Svenskerud" />
		<tag k="place" v="farm" />
		<tag k="ssr:stedsnr" v="83455" />
	</node>
	<node lat="59.703166664014645" lon="11.100597214880352" id="-26712">
		<tag k="name" v="Vika" />
		<tag k="place" v="isolated_dwelling" />
		<tag k="ssr:stedsnr" v="83457" />
	</node>
	<node lat="59.81816944016189" lon="11.166841665792969" id="-26713">
		<tag k="name" v="Sikkebøl" />
		<tag k="place" v="farm" />
		<tag k="ssr:stedsnr" v="83463" />
	</node>
	<node lat="59.73220277744466" lon="11.11844166322641" id="-26725">
		<tag k="name" v="Solstad" />
		<tag k="place" v="isolated_dwelling" />
		<tag k="ssr:stedsnr" v="84713" />
	</node>
	<node lat="59.827244447570685" lon="11.175483333771203" id="-26726">
		<tag k="name" v="Flateby bruk" />
		<tag k="place" v="quarter" />
		<tag k="ssr:stedsnr" v="84718" />
	</node>
	<node lat="59.74624166627996" lon="11.060036110123532" id="-26727">
		<tag k="name" v="Jordet" />
		<tag k="place" v="farm" />
		<tag k="ssr:stedsnr" v="124544" />
	</node>
	<node lat="59.736919442062195" lon="11.101527782164078" id="-26728">
		<tag k="name" v="Nyland" />
		<tag k="place" v="farm" />
		<tag k="ssr:stedsnr" v="125080" />
	</node>
	<node lat="59.742549997074825" lon="11.151552785928766" id="-26730">
		<tag k="alt_name" v="Dal (nedl.)" />
		<tag k="name" v="Dal" />
		<tag k="place" v="farm" />
		<tag k="ssr:stedsnr" v="125120" />
	</node>
	<node lat="59.711129562356874" lon="11.20725242932853" id="-26734">
		<tag k="fixme" v="consider place=hamlet" />
		<tag k="name" v="Heiås" />
		<tag k="place" v="farm" />
		<tag k="ssr:stedsnr" v="125854" />
	</node>
	<node lat="59.74283610735463" lon="11.18760833814877" id="-26737">
		<tag k="alt_name" v="Vennevoll vestre" />
		<tag k="name" v="Vestre Vennevoll" />
		<tag k="place" v="farm" />
		<tag k="ssr:stedsnr" v="143347" />
	</node>
	<node lat="59.81765833016662" lon="11.140644436559038" id="-26738">
		<tag k="name" v="Holtenga" />
		<tag k="place" v="locality" />
		<tag k="ssr:stedsnr" v="143237" />
	</node>
	<node lat="59.72211666263819" lon="11.165130560744508" id="-26739">
		<tag k="name" v="Jaerhytta" />
		<tag k="place" v="locality" />
		<tag k="ssr:stedsnr" v="143254" />
	</node>
	<node lat="59.83535833271688" lon="11.148952779690372" id="-26740">
		<tag k="alt_name" v="Rud øvre" />
		<tag k="name" v="Øvre Rud" />
		<tag k="place" v="farm" />
		<tag k="ssr:stedsnr" v="143268" />
	</node>
	<node lat="59.75758055863603" lon="11.190388882066955" id="-26741">
		<tag k="name" v="Skogfaret" />
		<tag k="place" v="isolated_dwelling" />
		<tag k="ssr:stedsnr" v="143417" />
	</node>
	<node lat="59.73170555675544" lon="11.1124527754077" id="-26742">
		<tag k="name" v="Fjellheim" />
		<tag k="place" v="isolated_dwelling" />
		<tag k="ssr:stedsnr" v="143448" />
	</node>
	<node lat="59.72491389122638" lon="11.092550002793487" id="-26743">
		<tag k="name" v="Jaer" />
		<tag k="place" v="farm" />
		<tag k="ssr:stedsnr" v="143450" />
	</node>
	<node lat="59.69780555966745" lon="11.1467555540027" id="-26744">
		<tag k="alt_name" v="Brevik søndre" />
		<tag k="name" v="Søndre Brevik" />
		<tag k="place" v="farm" />
		<tag k="ssr:stedsnr" v="143461" />
	</node>
	<node lat="59.74995833151959" lon="11.152938895578815" id="-26761">
		<tag k="name" v="Barbøl sag" />
		<tag k="place" v="quarter" />
		<tag k="ssr:stedsnr" v="144716" />
	</node>
	<node lat="59.71611466297462" lon="11.080001481457213" id="-26764">
		<tag k="fixme" v="consider place=hamlet" />
		<tag k="name" v="Mulerud" />
		<tag k="place" v="farm" />
		<tag k="ssr:stedsnr" v="185520" />
	</node>
	<node lat="59.72633461805131" lon="11.181277634045658" id="-26765">
		<tag k="fixme" v="consider place=hamlet" />
		<tag k="name" v="Bøler" />
		<tag k="place" v="farm" />
		<tag k="ssr:stedsnr" v="186090" />
	</node>
	<node lat="59.72717500413022" lon="11.135513889414788" id="-26766">
		<tag k="name" v="Stakkerud" />
		<tag k="place" v="farm" />
		<tag k="ssr:stedsnr" v="186094" />
	</node>
	<node lat="59.73560844432508" lon="11.107686498649318" id="-26767">
		<tag k="fixme" v="consider place=hamlet" />
		<tag k="name" v="Oppsal" />
		<tag k="place" v="farm" />
		<tag k="ssr:stedsnr" v="186096" />
	</node>
	<node lat="59.7368379538405" lon="11.01387362476093" id="-26768">
		<tag k="fixme" v="consider place=hamlet" />
		<tag k="name" v="Vik" />
		<tag k="place" v="farm" />
		<tag k="ssr:stedsnr" v="185553" />
	</node>
	<node lat="59.73815472917595" lon="11.068683187035843" id="-26769">
		<tag k="fixme" v="consider place=hamlet" />
		<tag k="name" v="Kjølstad" />
		<tag k="place" v="farm" />
		<tag k="ssr:stedsnr" v="185560" />
	</node>
	<node lat="59.73716388576184" lon="11.047041675219074" id="-26770">
		<tag k="name" v="Svenneby" />
		<tag k="place" v="farm" />
		<tag k="ssr:stedsnr" v="185561" />
	</node>
	<node lat="59.769735439693434" lon="11.207874274992186" id="-26776">
		<tag k="fixme" v="consider place=hamlet" />
		<tag k="name" v="Torshov" />
		<tag k="place" v="farm" />
		<tag k="ssr:stedsnr" v="186902" />
	</node>
	<node lat="59.84075555327701" lon="11.12152222550355" id="-26785">
		<tag k="alt_name" v="Siljebøl søndre" />
		<tag k="loc_name" v="Sørstua" />
		<tag k="name" v="Søndre Siljebøl" />
		<tag k="place" v="farm" />
		<tag k="ssr:stedsnr" v="205335" />
	</node>
	<node lat="59.70404722188019" lon="11.037336104566192" id="-26786">
		<tag k="name" v="Fjellstad" />
		<tag k="place" v="locality" />
		<tag k="ssr:stedsnr" v="205382" />
	</node>
	<node lat="59.69972778153184" lon="11.145936110323156" id="-26790">
		<tag k="alt_name" v="Brevik mellom" />
		<tag k="name" v="Mellom-Brevik" />
		<tag k="place" v="farm" />
		<tag k="ssr:stedsnr" v="205520" />
	</node>
	<node lat="59.812324996371906" lon="11.151327776868701" id="-26791">
		<tag k="name" v="Moen" />
		<tag k="place" v="farm" />
		<tag k="ssr:stedsnr" v="205525" />
	</node>
	<node lat="59.74763225463318" lon="11.145298931072592" id="-26801">
		<tag k="fixme" v="consider place=hamlet" />
		<tag k="name" v="Holt" />
		<tag k="place" v="farm" />
		<tag k="ssr:stedsnr" v="307072" />
	</node>
	<node lat="59.730035682472135" lon="11.100700109907512" id="-26802">
		<tag k="fixme" v="consider place=hamlet" />
		<tag k="name" v="Omberg" />
		<tag k="place" v="farm" />
		<tag k="ssr:stedsnr" v="307127" />
	</node>
	<node lat="59.70155555821878" lon="11.03512499687602" id="-26805">
		<tag k="name" v="Lybekk" />
		<tag k="place" v="isolated_dwelling" />
		<tag k="ssr:stedsnr" v="307380" />
	</node>
	<node lat="59.8299555592248" lon="11.164844435842046" id="-26806">
		<tag k="name" v="Enga" />
		<tag k="place" v="farm" />
		<tag k="ssr:stedsnr" v="307770" />
	</node>
	<node lat="59.77432404307062" lon="11.110246056236317" id="-26807">
		<tag k="fixme" v="consider place=hamlet" />
		<tag k="name" v="Børter" />
		<tag k="place" v="farm" />
		<tag k="ssr:stedsnr" v="307854" />
	</node>
	<node lat="59.77881388537149" lon="11.129941670552292" id="-26809">
		<tag k="name" v="Bakken" />
		<tag k="place" v="farm" />
		<tag k="ssr:stedsnr" v="307888" />
	</node>
	<node lat="59.7560861122072" lon="11.160274993462357" id="-26812">
		<tag k="name" v="Korsveien" />
		<tag k="place" v="farm" />
		<tag k="ssr:stedsnr" v="308930" />
	</node>
	<node lat="59.75294999706841" lon="11.184702776565391" id="-26818">
		<tag k="amenity" v="school" />
		<tag k="name" v="Hammeren skole" />
		<tag k="ssr:stedsnr" v="326434" />
	</node>
	<node lat="59.826647223127466" lon="11.148386111230376" id="-26819">
		<tag k="name" v="Stubberud" />
		<tag k="place" v="farm" />
		<tag k="ssr:stedsnr" v="326488" />
	</node>
	<node lat="59.72576944755236" lon="11.194841665262146" id="-26822">
		<tag k="name" v="Sveltebakken" />
		<tag k="place" v="locality" />
		<tag k="ssr:stedsnr" v="326277" />
	</node>
	<node lat="59.76182778103701" lon="11.212186119825395" id="-26823">
		<tag k="fixme" v="consider place=hamlet" />
		<tag k="name" v="Solberg" />
		<tag k="place" v="farm" />
		<tag k="ssr:stedsnr" v="326278" />
	</node>
	<node lat="59.83343055758001" lon="11.119833334765884" id="-26824">
		<tag k="name" v="Dammen" />
		<tag k="place" v="farm" />
		<tag k="ssr:stedsnr" v="326297" />
	</node>
	<node lat="59.738622218488594" lon="11.185244453047108" id="-26825">
		<tag k="alt_name" v="Randem nordre" />
		<tag k="name" v="Nordre Randem" />
		<tag k="place" v="farm" />
		<tag k="ssr:stedsnr" v="326396" />
	</node>
	<node lat="59.80119166944723" lon="11.03315277091085" id="-26833">
		<tag k="name" v="Nedsaga" />
		<tag k="place" v="farm" />
		<tag k="ssr:stedsnr" v="326701" />
	</node>
	<node lat="59.78382668529157" lon="11.178979425158138" id="-26849">
		<tag k="fixme" v="multiple name tags, choose one and add the other to alt_name" />
		<tag k="name" v="Nordre Solberg;Solberg" />
		<tag k="old_name" v="Søndre Solberg" />
		<tag k="place" v="farm" />
		<tag k="ssr:stedsnr" v="343329" />
	</node>
	<node lat="59.72282174247309" lon="11.042142658804007" id="-26852">
		<tag k="fixme" v="consider place=hamlet" />
		<tag k="name" v="Vestby" />
		<tag k="place" v="farm" />
		<tag k="ssr:stedsnr" v="367533" />
	</node>
	<node lat="59.724195964981675" lon="11.065488703423418" id="-26853">
		<tag k="fixme" v="consider place=hamlet" />
		<tag k="name" v="Bjerke" />
		<tag k="place" v="farm" />
		<tag k="ssr:stedsnr" v="367541" />
	</node>
	<node lat="59.75391944153518" lon="11.104502769138376" id="-26854">
		<tag k="name" v="Tangen" />
		<tag k="place" v="farm" />
		<tag k="ssr:stedsnr" v="368940" />
	</node>
	<node lat="59.727775642194196" lon="11.0844298881504" id="-26855">
		<tag k="fixme" v="consider place=hamlet" />
		<tag k="name" v="Berger" />
		<tag k="place" v="farm" />
		<tag k="ssr:stedsnr" v="367560" />
	</node>
	<node lat="59.813661110423446" lon="11.169049999103276" id="-26860">
		<tag k="alt_name" v="Stensrud" />
		<tag k="name" v="Steinsrud" />
		<tag k="place" v="farm" />
		<tag k="ssr:stedsnr" v="368833" />
	</node>
	<node lat="59.8179274930923" lon="11.153192166913987" id="-26862">
		<tag k="fixme" v="consider place=hamlet" />
		<tag k="name" v="Haugstein" />
		<tag k="place" v="farm" />
		<tag k="ssr:stedsnr" v="368788" />
	</node>
	<node lat="59.79553055342402" lon="11.194391673773067" id="-26864">
		<tag k="alt_name" v="Ødegården" />
		<tag k="name" v="Øgarden" />
		<tag k="place" v="farm" />
		<tag k="ssr:stedsnr" v="369790" />
	</node>
	<node lat="59.78088889115108" lon="11.154275002233597" id="-26865">
		<tag k="name" v="Åsen" />
		<tag k="place" v="locality" />
		<tag k="ssr:stedsnr" v="386270" />
	</node>
	<node lat="59.83483888832606" lon="11.160863886017987" id="-26866">
		<tag k="name" v="Borgenbråten" />
		<tag k="place" v="farm" />
		<tag k="ssr:stedsnr" v="386285" />
	</node>
	<node lat="59.835744443656054" lon="11.15598054740589" id="-26867">
		<tag k="alt_name" v="Rud nedre" />
		<tag k="name" v="Nedre Rud" />
		<tag k="place" v="farm" />
		<tag k="ssr:stedsnr" v="386289" />
	</node>
	<node lat="59.757036114685825" lon="11.17853610386191" id="-26868">
		<tag k="name" v="Bakkeli" />
		<tag k="place" v="farm" />
		<tag k="ssr:stedsnr" v="386381" />
	</node>
	<node lat="59.7250388931519" lon="11.06146388412194" id="-26869">
		<tag k="amenity" v="school" />
		<tag k="name" v="Mjær ungdomsskole" />
		<tag k="ssr:stedsnr" v="386390" />
	</node>
	<node lat="59.729097224020705" lon="11.038808334634634" id="-26872">
		<tag k="name" v="Våglia" />
		<tag k="place" v="quarter" />
		<tag k="ssr:stedsnr" v="386330" />
	</node>
	<node lat="59.71456666490642" lon="11.065974993781744" id="-26873">
		<tag k="name" v="Vikeby" />
		<tag k="place" v="locality" />
		<tag k="ssr:stedsnr" v="386336" />
	</node>
	<node lat="59.713238889502435" lon="11.13977500195095" id="-26874">
		<tag k="name" v="Bermerud" />
		<tag k="place" v="locality" />
		<tag k="ssr:stedsnr" v="386337" />
	</node>
	<node lat="59.7248388850533" lon="11.118372228270168" id="-26875">
		<tag k="name" v="Gaupestein" />
		<tag k="place" v="locality" />
		<tag k="ssr:stedsnr" v="386342" />
	</node>
	<node lat="59.695455559265476" lon="11.152025000753367" id="-26876">
		<tag k="name" v="Østby" />
		<tag k="place" v="locality" />
		<tag k="ssr:stedsnr" v="386441" />
	</node>
	<node lat="59.799869443693126" lon="11.030538887537785" id="-26881">
		<tag k="name" v="Mellomsaga" />
		<tag k="place" v="farm" />
		<tag k="ssr:stedsnr" v="386681" />
	</node>
	<node lat="59.73583332907086" lon="11.04953889608362" id="-26891">
		<tag k="name" v="Haugen" />
		<tag k="place" v="farm" />
		<tag k="ssr:stedsnr" v="428555" />
	</node>
	<node lat="59.76459444462902" lon="11.194322228236294" id="-26893">
		<tag k="name" v="Lystad" />
		<tag k="place" v="farm" />
		<tag k="ssr:stedsnr" v="429876" />
	</node>
	<node lat="59.76833242596397" lon="11.127886191704782" id="-26894">
		<tag k="fixme" v="consider place=hamlet" />
		<tag k="name" v="Rakkestad" />
		<tag k="place" v="farm" />
		<tag k="ssr:stedsnr" v="429878" />
	</node>
	<node lat="59.72620143539471" lon="11.102739351044706" id="-26895">
		<tag k="fixme" v="consider place=hamlet" />
		<tag k="name" v="Sulerud" />
		<tag k="place" v="farm" />
		<tag k="ssr:stedsnr" v="429088" />
	</node>
	<node lat="59.820332559082246" lon="11.173805894582346" id="-26901">
		<tag k="fixme" v="consider place=hamlet" />
		<tag k="name" v="Sikkebøl" />
		<tag k="place" v="farm" />
		<tag k="ssr:stedsnr" v="429740" />
	</node>
	<node lat="59.74840000035307" lon="11.087022230669795" id="-26906">
		<tag k="name" v="Kleiva" />
		<tag k="place" v="locality" />
		<tag k="ssr:stedsnr" v="447317" />
	</node>
	<node lat="59.69609722447901" lon="11.201519453420127" id="-26909">
		<tag k="name" v="Bråtan" />
		<tag k="place" v="locality" />
		<tag k="ssr:stedsnr" v="447242" />
	</node>
	<node lat="59.83619722470038" lon="11.129005549284454" id="-26910">
		<tag k="name" v="Enga" />
		<tag k="place" v="quarter" />
		<tag k="ssr:stedsnr" v="447267" />
	</node>
	<node lat="59.765297218869314" lon="11.208325005393872" id="-26912">
		<tag k="name" v="Lyberget" />
		<tag k="place" v="farm" />
		<tag k="ssr:stedsnr" v="447354" />
	</node>
	<node lat="59.705966665360606" lon="11.176791663730638" id="-26913">
		<tag k="name" v="Brueng" />
		<tag k="place" v="farm" />
		<tag k="ssr:stedsnr" v="447357" />
	</node>
	<node lat="59.738365727459225" lon="11.196422873629704" id="-26914">
		<tag k="alt_name" v="Randem øvre" />
		<tag k="fixme" v="consider place=hamlet" />
		<tag k="name" v="Øvre Randem" />
		<tag k="place" v="farm" />
		<tag k="ssr:stedsnr" v="447360" />
	</node>
	<node lat="59.76856110925931" lon="11.141886103103595" id="-26915">
		<tag k="name" v="Solheim" />
		<tag k="place" v="farm" />
		<tag k="ssr:stedsnr" v="447457" />
	</node>
	<node lat="59.77953055880472" lon="11.151955547712936" id="-26916">
		<tag k="name" v="Glomma" />
		<tag k="place" v="farm" />
		<tag k="ssr:stedsnr" v="447458" />
	</node>
	<node lat="59.77191666766183" lon="11.034808328946415" id="-26929">
		<tag k="name" v="Skarperud" />
		<tag k="place" v="locality" />
		<tag k="ssr:stedsnr" v="508366" />
	</node>
	<node lat="59.727138886395174" lon="11.197494448948138" id="-26930">
		<tag k="alt_name" v="Hvitstein store" />
		<tag k="name" v="Store Hvitstein" />
		<tag k="place" v="farm" />
		<tag k="ssr:stedsnr" v="508414" />
	</node>
	<node lat="59.703833335927605" lon="11.156133331841472" id="-26931">
		<tag k="name" v="Tangen" />
		<tag k="place" v="locality" />
		<tag k="ssr:stedsnr" v="508276" />
	</node>
	<node lat="59.72135555578879" lon="11.056666671377025" id="-26936">
		<tag k="amenity" v="school" />
		<tag k="name" v="Ytre Enebakk skole" />
		<tag k="ssr:stedsnr" v="508447" />
	</node>
	<node lat="59.76896944751335" lon="11.134286102575937" id="-26937">
		<tag k="name" v="Ødegården" />
		<tag k="place" v="farm" />
		<tag k="ssr:stedsnr" v="508542" />
	</node>
	<node lat="59.79670555702725" lon="11.022538896754243" id="-26940">
		<tag k="name" v="Nebben" />
		<tag k="place" v="isolated_dwelling" />
		<tag k="ssr:stedsnr" v="508695" />
	</node>
	<node lat="59.728230553943405" lon="11.005527772112139" id="-26950">
		<tag k="name" v="Holtopp" />
		<tag k="place" v="farm" />
		<tag k="ssr:stedsnr" v="549575" />
	</node>
	<node lat="59.73052221799661" lon="11.05076111632163" id="-26951">
		<tag k="name" v="Skrabben" />
		<tag k="place" v="farm" />
		<tag k="ssr:stedsnr" v="549582" />
	</node>
	<node lat="59.74043333327373" lon="11.020388894548029" id="-26952">
		<tag k="name" v="Kvernstua" />
		<tag k="place" v="farm" />
		<tag k="ssr:stedsnr" v="549589" />
	</node>
	<node lat="59.708883335078276" lon="11.07001110736875" id="-26953">
		<tag k="name" v="Søndre Skog" />
		<tag k="place" v="farm" />
		<tag k="ssr:stedsnr" v="549035" />
	</node>
	<node lat="59.74851501690691" lon="11.175054486148124" id="-26960">
		<tag k="name" v="Mysen" />
		<tag k="place" v="hamlet" />
		<tag k="ssr:stedsnr" v="550077" />
	</node>
	<node lat="59.752963888358714" lon="11.012599993936295" id="-26962">
		<tag k="name" v="Bjerkland" />
		<tag k="place" v="farm" />
		<tag k="ssr:stedsnr" v="550472" />
	</node>
	<node lat="59.765961107360454" lon="11.022622229108858" id="-26964">
		<tag k="name" v="Grusbakken" />
		<tag k="place" v="isolated_dwelling" />
		<tag k="ssr:stedsnr" v="550412" />
	</node>
	<node lat="59.752774996316894" lon="11.186316660057601" id="-26967">
		<tag k="name" v="Smådal" />
		<tag k="place" v="farm" />
		<tag k="ssr:stedsnr" v="550910" />
	</node>
	<node lat="59.75633055591478" lon="11.186852776089584" id="-26968">
		<tag k="name" v="Gran" />
		<tag k="place" v="farm" />
		<tag k="ssr:stedsnr" v="550914" />
	</node>
	<node lat="59.75427222387051" lon="11.158327777925905" id="-26970">
		<tag k="name" v="Torud" />
		<tag k="place" v="farm" />
		<tag k="ssr:stedsnr" v="550938" />
	</node>
	<node lat="59.70101111125546" lon="11.00916389320663" id="-26972">
		<tag k="name" v="Sørli" />
		<tag k="place" v="locality" />
		<tag k="ssr:stedsnr" v="568199" />
	</node>
	<node lat="59.833713886662956" lon="11.164466669709991" id="-26974">
		<tag k="name" v="Enger" />
		<tag k="place" v="isolated_dwelling" />
		<tag k="ssr:stedsnr" v="568293" />
	</node>
	<node lat="59.836727773413614" lon="11.123413888716803" id="-26975">
		<tag k="name" v="Bråten" />
		<tag k="place" v="farm" />
		<tag k="ssr:stedsnr" v="568300" />
	</node>
	<node lat="59.774219442508794" lon="11.174033336943506" id="-26976">
		<tag k="name" v="Hobøl" />
		<tag k="place" v="farm" />
		<tag k="ssr:stedsnr" v="568398" />
	</node>
	<node lat="59.73799999975832" lon="11.01606944149681" id="-26984">
		<tag k="name" v="Vangli" />
		<tag k="place" v="isolated_dwelling" />
		<tag k="ssr:stedsnr" v="568691" />
	</node>
	<node lat="59.686905555607375" lon="11.205069438491599" id="-26991">
		<tag k="name" v="Einerstad" />
		<tag k="place" v="quarter" />
		<tag k="ssr:stedsnr" v="569694" />
	</node>
	<node lat="59.73399600084922" lon="11.062649882330945" id="-26992">
		<tag k="fixme" v="consider place=hamlet" />
		<tag k="name" v="Kjepperud" />
		<tag k="place" v="farm" />
		<tag k="ssr:stedsnr" v="609563" />
	</node>
	<node lat="59.746566668596685" lon="10.997255562978065" id="-26993">
		<tag k="name" v="Setra" />
		<tag k="place" v="farm" />
		<tag k="ssr:stedsnr" v="609571" />
	</node>
	<node lat="59.69536554724775" lon="11.04357620193026" id="-26994">
		<tag k="fixme" v="consider place=hamlet" />
		<tag k="name" v="Nes" />
		<tag k="place" v="farm" />
		<tag k="ssr:stedsnr" v="610449" />
	</node>
	<node lat="59.72064166709908" lon="11.071519443011502" id="-26995">
		<tag k="alt_name" v="Østby, nordre;Østby nordre" />
		<tag k="name" v="Nordre Østby" />
		<tag k="place" v="farm" />
		<tag k="ssr:stedsnr" v="610619" />
	</node>
	<node lat="59.707218026281694" lon="11.169930053830518" id="-26997">
		<tag k="fixme" v="consider place=hamlet" />
		<tag k="name" v="Kjærsrud" />
		<tag k="place" v="farm" />
		<tag k="ssr:stedsnr" v="610852" />
	</node>
	<node lat="59.834841505105416" lon="11.153638371194841" id="-26998">
		<tag k="fixme" v="consider place=hamlet" />
		<tag k="name" v="Rud" />
		<tag k="place" v="farm" />
		<tag k="ssr:stedsnr" v="611763" />
	</node>
	<node lat="59.83523295047478" lon="11.131271708079044" id="-26999">
		<tag k="alt_name" v="Berskau" />
		<tag k="fixme" v="consider place=hamlet" />
		<tag k="name" v="Berskog" />
		<tag k="place" v="farm" />
		<tag k="ssr:stedsnr" v="611764" />
	</node>
	<node lat="59.803905559936055" lon="11.17857500797198" id="-27000">
		<tag k="name" v="Grinda" />
		<tag k="place" v="isolated_dwelling" />
		<tag k="ssr:stedsnr" v="611847" />
	</node>
	<node lat="59.78093359362825" lon="10.985924823061389" id="-27001">
		<tag k="name" v="Svarthol" />
		<tag k="place" v="isolated_dwelling" />
		<tag k="ssr:stedsnr" v="611437" />
	</node>
	<node lat="59.77725684063206" lon="11.198062452766438" id="-27003">
		<tag k="fixme" v="consider place=hamlet" />
		<tag k="name" v="Skøyen" />
		<tag k="place" v="farm" />
		<tag k="ssr:stedsnr" v="611911" />
	</node>
	<node lat="59.758283332504476" lon="11.15058889221905" id="-27004">
		<tag k="name" v="Fosser" />
		<tag k="place" v="farm" />
		<tag k="ssr:stedsnr" v="611945" />
	</node>
	<node lat="59.697380551590314" lon="11.197008335054468" id="-27009">
		<tag k="name" v="Teigen" />
		<tag k="place" v="locality" />
		<tag k="ssr:stedsnr" v="629254" />
	</node>
	<node lat="59.71175555922134" lon="11.167549995092168" id="-27010">
		<tag k="name" v="Nordli" />
		<tag k="place" v="locality" />
		<tag k="ssr:stedsnr" v="629263" />
	</node>
	<node lat="59.71604722629994" lon="11.169424993998138" id="-27011">
		<tag k="name" v="Olarud" />
		<tag k="place" v="locality" />
		<tag k="ssr:stedsnr" v="629266" />
	</node>
	<node lat="59.718611115302366" lon="11.131225008373354" id="-27012">
		<tag k="name" v="Slora" />
		<tag k="place" v="farm" />
		<tag k="ssr:stedsnr" v="629475" />
	</node>
	<node lat="59.70771388455153" lon="11.186352783950094" id="-27013">
		<tag k="alt_name" v="Sundby øvre;Sundby, øvre" />
		<tag k="name" v="Øvre Sundby" />
		<tag k="place" v="farm" />
		<tag k="ssr:stedsnr" v="629434" />
	</node>
	<node lat="59.83086110938579" lon="11.13306389593207" id="-27017">
		<tag k="name" v="Vestby" />
		<tag k="place" v="farm" />
		<tag k="ssr:stedsnr" v="629489" />
	</node>
	<node lat="59.76379999576532" lon="10.994258330997468" id="-27026">
		<tag k="name" v="Harehøgda" />
		<tag k="place" v="hamlet" />
		<tag k="ssr:stedsnr" v="630658" />
	</node>
	<node lat="59.74053610673993" lon="11.04863611126416" id="-27030">
		<tag k="name" v="Granerud" />
		<tag k="place" v="farm" />
		<tag k="ssr:stedsnr" v="670592" />
	</node>
	<node lat="59.725483333512024" lon="11.075941667157773" id="-27033">
		<tag k="name" v="Logn" />
		<tag k="place" v="farm" />
		<tag k="ssr:stedsnr" v="731542" />
	</node>
	<node lat="59.73232222258342" lon="11.006308326068917" id="-27034">
		<tag k="name" v="Bergsvik" />
		<tag k="place" v="farm" />
		<tag k="ssr:stedsnr" v="731550" />
	</node>
	<node lat="59.771752936204415" lon="11.146357943555593" id="-27035">
		<tag k="fixme" v="consider place=hamlet" />
		<tag k="name" v="Tobøl" />
		<tag k="place" v="farm" />
		<tag k="ssr:stedsnr" v="732883" />
	</node>
	<node lat="59.83113843750072" lon="11.157852880401721" id="-27036">
		<tag k="alt_name" v="Borgen" />
		<tag k="fixme" v="consider place=hamlet" />
		<tag k="name" v="Børgen" />
		<tag k="place" v="farm" />
		<tag k="ssr:stedsnr" v="732769" />
	</node>
	<node lat="59.7583777732106" lon="10.996900008506044" id="-27038">
		<tag k="alt_name" v="Durudhøgda" />
		<tag k="name" v="Høgda" />
		<tag k="place" v="isolated_dwelling" />
		<tag k="ssr:stedsnr" v="733353" />
	</node>
	<node lat="59.76057467952622" lon="11.154927986929813" id="-27041">
		<tag k="name" v="Mjønli" />
		<tag k="place" v="farm" />
		<tag k="ssr:stedsnr" v="733918" />
	</node>
	<node lat="59.75316944790726" lon="11.120405552676257" id="-27042">
		<tag k="name" v="Bråten" />
		<tag k="place" v="isolated_dwelling" />
		<tag k="ssr:stedsnr" v="733921" />
	</node>
	<node lat="59.749736107738606" lon="11.1768861106113" id="-27043">
		<tag k="alt_name" v="Mysen nordre" />
		<tag k="name" v="Nordre Mysen" />
		<tag k="place" v="farm" />
		<tag k="ssr:stedsnr" v="750384" />
	</node>
	<node lat="59.716647221344545" lon="11.175508331352164" id="-27046">
		<tag k="name" v="Granly" />
		<tag k="place" v="isolated_dwelling" />
		<tag k="ssr:stedsnr" v="750415" />
	</node>
	<node lat="59.72448888486656" lon="11.137561111483567" id="-27047">
		<tag k="name" v="Ødegården" />
		<tag k="place" v="farm" />
		<tag k="ssr:stedsnr" v="750426" />
	</node>
	<node lat="59.723822226070915" lon="11.040061103756509" id="-27050">
		<tag k="name" v="Vågås" />
		<tag k="place" v="isolated_dwelling" />
		<tag k="ssr:stedsnr" v="750680" />
	</node>
	<node lat="59.74983610763525" lon="11.005958335978205" id="-27051">
		<tag k="name" v="Bakkesand" />
		<tag k="place" v="farm" />
		<tag k="ssr:stedsnr" v="750688" />
	</node>
	<node lat="59.8059555580088" lon="11.183238889340895" id="-27069">
		<tag k="name" v="Hagen" />
		<tag k="place" v="farm" />
		<tag k="ssr:stedsnr" v="793843" />
	</node>
	<node lat="59.71776810366216" lon="11.177352585482309" id="-27070">
		<tag k="name" v="Tysdal" />
		<tag k="place" v="hamlet" />
		<tag k="ssr:stedsnr" v="793864" />
	</node>
	<node lat="59.75979722129035" lon="11.100455556667992" id="-27071">
		<tag k="name" v="Tuggerud" />
		<tag k="place" v="isolated_dwelling" />
		<tag k="ssr:stedsnr" v="793939" />
	</node>
	<node lat="59.750544440983674" lon="11.161875007243275" id="-27072">
		<tag k="name" v="Sørli" />
		<tag k="place" v="isolated_dwelling" />
		<tag k="ssr:stedsnr" v="793945" />
	</node>
	<node lat="59.84151079563644" lon="11.140447024363322" id="-27075">
		<tag k="name" v="Sofiedal" />
		<tag k="place" v="isolated_dwelling" />
		<tag k="ssr:stedsnr" v="794747" />
	</node>
	<node lat="59.78449390850712" lon="11.179401470879434" id="-27076">
		<tag k="fixme" v="consider place=hamlet" />
		<tag k="name" v="Solberg" />
		<tag k="place" v="farm" />
		<tag k="ssr:stedsnr" v="794857" />
	</node>
	<node lat="59.828141665578684" lon="11.155341657816955" id="-27079">
		<tag k="name" v="Bakken" />
		<tag k="place" v="farm" />
		<tag k="ssr:stedsnr" v="811452" />
	</node>
	<node lat="59.774705555488204" lon="11.115219441701214" id="-27080">
		<tag k="alt_name" v="Børter østre" />
		<tag k="name" v="Østre Børter" />
		<tag k="place" v="farm" />
		<tag k="ssr:stedsnr" v="811464" />
	</node>
	<node lat="59.70337232089815" lon="11.146222998637246" id="-27107">
		<tag k="name" v="Brevik" />
		<tag k="place" v="hamlet" />
		<tag k="ssr:stedsnr" v="853832" />
	</node>
	<node lat="59.77801944748599" lon="11.176211106031031" id="-27109">
		<tag k="name" v="Skåne" />
		<tag k="place" v="farm" />
		<tag k="ssr:stedsnr" v="854896" />
	</node>
	<node lat="59.73041655055786" lon="11.205495047621826" id="-27110">
		<tag k="fixme" v="consider place=hamlet" />
		<tag k="name" v="Sand" />
		<tag k="place" v="farm" />
		<tag k="ssr:stedsnr" v="854072" />
	</node>
	<node lat="59.83391103896218" lon="11.138372489649397" id="-27113">
		<tag k="fixme" v="consider place=hamlet" />
		<tag k="name" v="Haug" />
		<tag k="place" v="farm" />
		<tag k="ssr:stedsnr" v="854731" />
	</node>
	<node lat="59.75113597287951" lon="11.144428760865825" id="-27114">
		<tag k="fixme" v="consider place=hamlet" />
		<tag k="name" v="Barbøl" />
		<tag k="place" v="farm" />
		<tag k="ssr:stedsnr" v="854903" />
	</node>
	<node lat="59.70723333548808" lon="11.142550003499467" id="-27115">
		<tag k="alt_name" v="Brevik nordre;Brevik" />
		<tag k="name" v="Nordre Brevik" />
		<tag k="place" v="farm" />
		<tag k="ssr:stedsnr" v="854839" />
	</node>
	<node lat="59.71180277565575" lon="11.098780561532498" id="-27116">
		<tag k="alt_name" v="Kjensli" />
		<tag k="name" v="Tjernsli" />
		<tag k="place" v="farm" />
		<tag k="ssr:stedsnr" v="854842" />
	</node>
	<node lat="59.78173333648925" lon="11.17765000801834" id="-27117">
		<tag k="name" v="Flaen" />
		<tag k="place" v="farm" />
		<tag k="ssr:stedsnr" v="854864" />
	</node>
	<node lat="59.810532423413825" lon="11.181939522375528" id="-27118">
		<tag k="fixme" v="consider place=hamlet" />
		<tag k="name" v="Omberg" />
		<tag k="place" v="farm" />
		<tag k="ssr:stedsnr" v="854777" />
	</node>
	<node lat="59.81291944003466" lon="11.190722220657719" id="-27119">
		<tag k="name" v="Ombergbråten" />
		<tag k="place" v="farm" />
		<tag k="ssr:stedsnr" v="854780" />
	</node>
	<node lat="59.75884444769224" lon="11.220033332791004" id="-27121">
		<tag k="name" v="Råkastua" />
		<tag k="place" v="locality" />
		<tag k="ssr:stedsnr" v="872273" />
	</node>
	<node lat="59.79180000424159" lon="11.14693610987299" id="-27122">
		<tag k="name" v="Bilet" />
		<tag k="place" v="locality" />
		<tag k="ssr:stedsnr" v="872286" />
	</node>
	<node lat="59.72411389129677" lon="11.202074998884836" id="-27123">
		<tag k="alt_name" v="Hvitstein lille" />
		<tag k="name" v="Lille Hvitstein" />
		<tag k="place" v="farm" />
		<tag k="ssr:stedsnr" v="872419" />
	</node>
	<node lat="59.76656944480499" lon="11.033844436843356" id="-27124">
		<tag k="name" v="Skarperud" />
		<tag k="place" v="locality" />
		<tag k="ssr:stedsnr" v="872377" />
	</node>
	<node lat="59.76102222117536" lon="11.211769448012184" id="-27126">
		<tag k="name" v="Solstad" />
		<tag k="place" v="isolated_dwelling" />
		<tag k="ssr:stedsnr" v="872467" />
	</node>
	<node lat="59.763732695773534" lon="11.141749445140343" id="-27127">
		<tag k="fixme" v="consider place=hamlet" />
		<tag k="name" v="Enebakk prestegård" />
		<tag k="place" v="farm" />
		<tag k="ssr:stedsnr" v="872481" />
	</node>
	<node lat="59.71790277439447" lon="11.173161110198368" id="-27132">
		<tag k="name" v="Tonerud" />
		<tag k="place" v="farm" />
		<tag k="ssr:stedsnr" v="872458" />
	</node>
	<node lat="59.8152922188587" lon="11.044133855537998" id="-27148">
		<tag k="fixme" v="consider tourism=alpine_hut or tourism=chalet" />
		<tag k="name" v="Bøvelstad" />
		<tag k="ssr:stedsnr" v="980658" />
		<tag k="tourism" v="wilderness_hut" />
	</node>
	<node lat="59.7052476526582" lon="11.178362864791819" id="-27300">
		<tag k="fixme" v="consider place=hamlet" />
		<tag k="name" v="Fjell" />
		<tag k="place" v="farm" />
		<tag k="ssr:stedsnr" v="1074839" />
	</node>
	<node lat="59.7891775957061" lon="11.191539479999697" id="-27303">
		<tag k="fixme" v="consider place=hamlet" />
		<tag k="name" v="Degrum" />
		<tag k="place" v="farm" />
		<tag k="ssr:stedsnr" v="1078567" />
	</node>
	<node lat="59.74512015765128" lon="11.191817322842814" id="-27304">
		<tag k="name" v="Vennevoll" />
		<tag k="place" v="hamlet" />
		<tag k="ssr:stedsnr" v="1078569" />
	</node>
	<node lat="59.69783364402904" lon="11.209414346427963" id="-27305">
		<tag k="name" v="Borud" />
		<tag k="place" v="hamlet" />
		<tag k="ssr:stedsnr" v="1078570" />
	</node>
	<node lat="59.71962666454233" lon="11.070257617746586" id="-27306">
		<tag k="fixme" v="consider place=hamlet" />
		<tag k="name" v="Østby" />
		<tag k="place" v="farm" />
		<tag k="ssr:stedsnr" v="1078637" />
	</node>
</osm>
