<?xml version="1.0" encoding="UTF-8"?>
<<<<<<< HEAD
<osm version="0.6" generator="osmapis">
	<node lat="59.71777500058705" lon="11.010505556603276" id="-19719">
=======
<osm generator="osmapis" version="0.6">
	<node id="-255517" lat="59.756563893" lon="11.1744916708">
>>>>>>> e1d4bc35ff8a6074a6f2e91616a996b547c36f15
		<tag k="bridge" v="yes" />
		<tag k="layer" v="1" />
		<tag k="name" v="Stutebru" />
		<tag k="ssr:stedsnr" v="143322" />
	</node>
<<<<<<< HEAD
	<node lat="59.75656389297198" lon="11.174491670765562" id="-19736">
=======
	<node id="-255996" lat="59.7177750006" lon="11.0105055566">
>>>>>>> e1d4bc35ff8a6074a6f2e91616a996b547c36f15
		<tag k="bridge" v="yes" />
		<tag k="layer" v="1" />
		<tag k="name" v="Prestå" />
		<tag k="ssr:stedsnr" v="167022" />
	</node>
<<<<<<< HEAD
	<node lat="59.71233055699235" lon="10.995924993628652" id="-19836">
=======
	<node id="-256121" lat="59.712330557" lon="10.9959249936">
>>>>>>> e1d4bc35ff8a6074a6f2e91616a996b547c36f15
		<tag k="fixme" v="consider highway=path" />
		<tag k="highway" v="track" />
		<tag k="name" v="Militærveien" />
		<tag k="ssr:stedsnr" v="326373" />
	</node>
<<<<<<< HEAD
	<node lat="59.7228694467262" lon="11.070736115260907" id="-19981">
		<tag k="junction" v="yes" />
		<tag k="name" v="Bjørke" />
		<tag k="place" v="locality" />
		<tag k="ssr:stedsnr" v="568359" />
	</node>
	<node lat="59.72187222610395" lon="11.070469437741707" id="-19997">
		<tag k="bridge" v="yes" />
		<tag k="layer" v="1" />
		<tag k="name" v="Østby" />
		<tag k="ssr:stedsnr" v="592023" />
	</node>
	<node lat="59.72327222166779" lon="11.06193888910167" id="-20018">
=======
	<node id="-255928" lat="59.7337111157" lon="11.0117583251">
		<tag k="bridge" v="yes" />
		<tag k="layer" v="1" />
		<tag k="name" v="Vikslora" />
		<tag k="ssr:stedsnr" v="46019" />
	</node>
	<node id="-255831" lat="59.7378000006" lon="11.0216888859">
		<tag k="bridge" v="yes" />
		<tag k="layer" v="1" />
		<tag k="name" v="Vik" />
		<tag k="ssr:stedsnr" v="835023" />
	</node>
	<node id="-256438" lat="59.7260638918" lon="11.0032888882">
>>>>>>> e1d4bc35ff8a6074a6f2e91616a996b547c36f15
		<tag k="bridge" v="yes" />
		<tag k="layer" v="1" />
		<tag k="name" v="Bjerke" />
		<tag k="ssr:stedsnr" v="652019" />
	</node>
<<<<<<< HEAD
	<node lat="59.811411115310925" lon="11.08917222296786" id="-20124">
		<tag k="ford" v="yes" />
		<tag k="name" v="Kopledalsvadet" />
		<tag k="place" v="locality" />
		<tag k="ssr:stedsnr" v="872262" />
	</node>
	<node lat="59.75732499921858" lon="11.168880557013683" id="-20170">
=======
	<node id="-256437" lat="59.7573249992" lon="11.168880557">
>>>>>>> e1d4bc35ff8a6074a6f2e91616a996b547c36f15
		<tag k="bridge" v="yes" />
		<tag k="layer" v="1" />
		<tag k="name" v="Vårrygg" />
		<tag k="ssr:stedsnr" v="956031" />
	</node>
<<<<<<< HEAD
	<node lat="59.73371111565661" lon="11.011758325103592" id="-20212">
=======
	<node id="-256323" lat="59.7232722217" lon="11.0619388891">
>>>>>>> e1d4bc35ff8a6074a6f2e91616a996b547c36f15
		<tag k="bridge" v="yes" />
		<tag k="layer" v="1" />
		<tag k="name" v="Vikslora" />
		<tag k="ssr:stedsnr" v="46019" />
	</node>
	<node lat="59.789055556448425" lon="11.169419450614537" id="-20426">
		<tag k="fixme" v="consider highway=path" />
		<tag k="highway" v="track" />
		<tag k="name" v="Midtveien" />
		<tag k="ssr:stedsnr" v="447323" />
	</node>
<<<<<<< HEAD
	<node lat="59.76083889295685" lon="11.145738880419545" id="-20546">
=======
	<node id="-255725" lat="59.7218722261" lon="11.0704694377">
>>>>>>> e1d4bc35ff8a6074a6f2e91616a996b547c36f15
		<tag k="bridge" v="yes" />
		<tag k="layer" v="1" />
		<tag k="name" v="Preståen" />
		<tag k="ssr:stedsnr" v="713021" />
	</node>
<<<<<<< HEAD
	<node lat="59.73780000057001" lon="11.02168888589774" id="-20617">
		<tag k="bridge" v="yes" />
		<tag k="layer" v="1" />
		<tag k="name" v="Vik" />
		<tag k="ssr:stedsnr" v="835023" />
	</node>
	<node lat="59.72606389184601" lon="11.003288888228775" id="-20659">
		<tag k="bridge" v="yes" />
		<tag k="layer" v="1" />
		<tag k="name" v="Holtopp" />
		<tag k="ssr:stedsnr" v="956037" />
=======
	<node id="-255627" lat="59.7890555564" lon="11.1694194506">
		<tag k="fixme" v="consider highway=path" />
		<tag k="highway" v="track" />
		<tag k="name" v="Midtveien" />
		<tag k="ssr:stedsnr" v="447323" />
>>>>>>> e1d4bc35ff8a6074a6f2e91616a996b547c36f15
	</node>
	<node id="-255767" lat="59.760838893" lon="11.1457388804">
		<tag k="bridge" v="yes" />
		<tag k="layer" v="1" />
		<tag k="name" v="Preståen" />
		<tag k="ssr:stedsnr" v="713021" />
	</node>
	<node id="-256262" lat="59.7228694467" lon="11.0707361153">
		<tag k="junction" v="yes" />
		<tag k="name" v="Bjørke" />
		<tag k="place" v="locality" />
		<tag k="ssr:stedsnr" v="568359" />
	</node>
	<node id="-255843" lat="59.8114111153" lon="11.089172223">
		<tag k="ford" v="yes" />
		<tag k="name" v="Kopledalsvadet" />
		<tag k="place" v="locality" />
		<tag k="ssr:stedsnr" v="872262" />
	</node>
</osm>
