<?xml version="1.0" encoding="UTF-8"?>
<osm version="0.6" generator="osmapis">
	<node lat="71.0076645785452" lon="28.193420569174414" id="-104399">
		<tag k="name" v="Risfjorden" />
		<tag k="ssr:date" v="2020-11-10" />
		<tag k="ssr:gruppe" v="navigasjon" />
		<tag k="ssr:hovedgruppe" v="infrastruktur" />
		<tag k="ssr:stedsnr" v="263419" />
		<tag k="ssr:type" v="fyrlykt" />
	</node>
	<node lat="71.04472501149584" lon="27.837371699787386" id="-104436">
		<tag k="name" v="Mehamn" />
		<tag k="old_name" v="Mehamn havnelykt" />
		<tag k="ssr:date" v="2019-12-27" />
		<tag k="ssr:gruppe" v="navigasjon" />
		<tag k="ssr:hovedgruppe" v="infrastruktur" />
		<tag k="ssr:stedsnr" v="449278" />
		<tag k="ssr:type" v="fyrlykt" />
	</node>
	<node lat="70.90730979948822" lon="28.487506753082787" id="-104523">
		<tag k="name" v="Ytre Finnkongkeilnæringen" />
		<tag k="ssr:date" v="2020-09-10" />
		<tag k="ssr:gruppe" v="navigasjon" />
		<tag k="ssr:hovedgruppe" v="infrastruktur" />
		<tag k="ssr:stedsnr" v="392839" />
		<tag k="ssr:type" v="fyrlykt" />
	</node>
	<node lat="70.70511968809869" lon="28.123398868051957" id="-104689">
		<tag k="name" v="Langfjordskjæret" />
		<tag k="old_name" v="Langfjordskjeret;Langfjordskjer" />
		<tag k="ssr:date" v="2020-09-17" />
		<tag k="ssr:gruppe" v="navigasjon" />
		<tag k="ssr:hovedgruppe" v="infrastruktur" />
		<tag k="ssr:stedsnr" v="748303" />
		<tag k="ssr:type" v="fyrlykt" />
	</node>
	<node lat="70.98847972721006" lon="28.523253629222634" id="-104699">
		<tag k="name" v="Omgang" />
		<tag k="ssr:date" v="2021-01-05" />
		<tag k="ssr:gruppe" v="navigasjon" />
		<tag k="ssr:hovedgruppe" v="infrastruktur" />
		<tag k="ssr:stedsnr" v="748918" />
		<tag k="ssr:type" v="fyrlykt" />
	</node>
	<node lat="70.79780557184898" lon="27.916004986075016" id="-104869">
		<tag k="name" v="Pelkeplassen" />
		<tag k="ssr:date" v="2019-12-27" />
		<tag k="ssr:gruppe" v="farvann" />
		<tag k="ssr:hovedgruppe" v="sjø" />
		<tag k="ssr:stedsnr" v="93817" />
		<tag k="ssr:type" v="fiskeplassISjø" />
	</node>
	<node lat="70.79060557310713" lon="28.073679930958463" id="-104870">
		<tag k="name" v="Hopsneset" />
		<tag k="ssr:date" v="2019-12-27" />
		<tag k="ssr:gruppe" v="navigasjon" />
		<tag k="ssr:hovedgruppe" v="infrastruktur" />
		<tag k="ssr:stedsnr" v="101896" />
		<tag k="ssr:type" v="fyrlykt" />
	</node>
	<node lat="71.13328716800312" lon="27.657093841221933" id="-105075">
		<tag k="name" v="Avløysinga" />
		<tag k="ssr:date" v="2020-11-10" />
		<tag k="ssr:gruppe" v="navigasjon" />
		<tag k="ssr:hovedgruppe" v="infrastruktur" />
		<tag k="ssr:stedsnr" v="445517" />
		<tag k="ssr:type" v="fyrlykt" />
	</node>
	<node lat="71.08904076067387" lon="27.980698565446435" id="-105229">
		<tag k="name" v="Store Kamøy" />
		<tag k="old_name" v="Kamøy, store" />
		<tag k="ssr:date" v="2020-09-17" />
		<tag k="ssr:gruppe" v="navigasjon" />
		<tag k="ssr:hovedgruppe" v="infrastruktur" />
		<tag k="ssr:stedsnr" v="748457" />
		<tag k="ssr:type" v="fyrlykt" />
	</node>
	<node lat="71.06322022380216" lon="28.267833637628932" id="-105280">
		<tag k="name" v="Flintodden" />
		<tag k="old_name" v="Gamvik Lykt" />
		<tag k="ssr:date" v="2020-11-26" />
		<tag k="ssr:gruppe" v="navigasjon" />
		<tag k="ssr:hovedgruppe" v="infrastruktur" />
		<tag k="ssr:stedsnr" v="809444" />
		<tag k="ssr:type" v="fyrlykt" />
	</node>
	<node lat="71.08956415907808" lon="28.218232133935267" id="-105318">
		<tag k="name" v="Slettnes" />
		<tag k="old_name" v="Slettnes fyr" />
		<tag k="ssr:date" v="2020-09-01" />
		<tag k="ssr:gruppe" v="navigasjon" />
		<tag k="ssr:hovedgruppe" v="infrastruktur" />
		<tag k="ssr:stedsnr" v="869486" />
		<tag k="ssr:type" v="fyrstasjon" />
	</node>
	<node lat="71.04106945443377" lon="27.851207792922935" id="-105365">
		<tag k="name" v="Gamvik kommune" />
		<tag k="ssr:date" v="2019-12-27" />
		<tag k="ssr:gruppe" v="administrativeIndelinger" />
		<tag k="ssr:hovedgruppe" v="offentligAdministrasjon" />
		<tag k="ssr:stedsnr" v="876906" />
		<tag k="ssr:type" v="kommune" />
	</node>
	<node lat="71.0425922633513" lon="27.847594170163873" id="-105389">
		<tag k="name" v="Åsveien" />
		<tag k="ssr:date" v="2019-12-27" />
		<tag k="ssr:gruppe" v="veg" />
		<tag k="ssr:hovedgruppe" v="infrastruktur" />
		<tag k="ssr:stedsnr" v="1055748" />
		<tag k="ssr:type" v="adressenavn" />
	</node>
	<node lat="71.04215060662875" lon="27.853863408280137" id="-105390">
		<tag k="name" v="Breidablikkveien" />
		<tag k="ssr:date" v="2019-12-27" />
		<tag k="ssr:gruppe" v="veg" />
		<tag k="ssr:hovedgruppe" v="infrastruktur" />
		<tag k="ssr:stedsnr" v="1055211" />
		<tag k="ssr:type" v="adressenavn" />
	</node>
	<node lat="71.0607248595565" lon="28.24598591178316" id="-105391">
		<tag k="name" v="Bakeriveien" />
		<tag k="ssr:date" v="2019-12-27" />
		<tag k="ssr:gruppe" v="veg" />
		<tag k="ssr:hovedgruppe" v="infrastruktur" />
		<tag k="ssr:stedsnr" v="1055221" />
		<tag k="ssr:type" v="adressenavn" />
	</node>
	<node lat="71.03737076446284" lon="27.85095691337442" id="-105392">
		<tag k="name" v="Grønlia" />
		<tag k="ssr:date" v="2019-12-27" />
		<tag k="ssr:gruppe" v="veg" />
		<tag k="ssr:hovedgruppe" v="infrastruktur" />
		<tag k="ssr:stedsnr" v="1055290" />
		<tag k="ssr:type" v="adressenavn" />
	</node>
	<node lat="71.04239493803053" lon="27.842970996878968" id="-105393">
		<tag k="name" v="Hamnesvegen" />
		<tag k="ssr:date" v="2019-12-27" />
		<tag k="ssr:gruppe" v="veg" />
		<tag k="ssr:hovedgruppe" v="infrastruktur" />
		<tag k="ssr:stedsnr" v="1055294" />
		<tag k="ssr:type" v="adressenavn" />
	</node>
	<node lat="71.0333591225172" lon="27.84409936007592" id="-105394">
		<tag k="name" v="Holmeveien" />
		<tag k="ssr:date" v="2019-12-27" />
		<tag k="ssr:gruppe" v="veg" />
		<tag k="ssr:hovedgruppe" v="infrastruktur" />
		<tag k="ssr:stedsnr" v="1055253" />
		<tag k="ssr:type" v="adressenavn" />
	</node>
	<node lat="71.06182709001521" lon="28.24068270451966" id="-105395">
		<tag k="name" v="Idrettsveien" />
		<tag k="ssr:date" v="2019-12-27" />
		<tag k="ssr:gruppe" v="veg" />
		<tag k="ssr:hovedgruppe" v="infrastruktur" />
		<tag k="ssr:stedsnr" v="1055273" />
		<tag k="ssr:type" v="adressenavn" />
	</node>
	<node lat="71.0407939721868" lon="27.851972441345417" id="-105396">
		<tag k="name" v="Fabrikkberget" />
		<tag k="ssr:date" v="2019-12-27" />
		<tag k="ssr:gruppe" v="veg" />
		<tag k="ssr:hovedgruppe" v="infrastruktur" />
		<tag k="ssr:stedsnr" v="1055337" />
		<tag k="ssr:type" v="adressenavn" />
	</node>
	<node lat="71.05604125522943" lon="28.249366372982152" id="-105397">
		<tag k="name" v="Strandveien" />
		<tag k="ssr:date" v="2019-12-27" />
		<tag k="ssr:gruppe" v="veg" />
		<tag k="ssr:hovedgruppe" v="infrastruktur" />
		<tag k="ssr:stedsnr" v="1055365" />
		<tag k="ssr:type" v="adressenavn" />
	</node>
	<node lat="71.06352618776097" lon="28.245813295868075" id="-105398">
		<tag k="name" v="Skytterhusveien" />
		<tag k="ssr:date" v="2019-12-27" />
		<tag k="ssr:gruppe" v="veg" />
		<tag k="ssr:hovedgruppe" v="infrastruktur" />
		<tag k="ssr:stedsnr" v="1055372" />
		<tag k="ssr:type" v="adressenavn" />
	</node>
	<node lat="71.0327680728518" lon="27.846744027797065" id="-105399">
		<tag k="name" v="Ringveien" />
		<tag k="ssr:date" v="2019-12-27" />
		<tag k="ssr:gruppe" v="veg" />
		<tag k="ssr:hovedgruppe" v="infrastruktur" />
		<tag k="ssr:stedsnr" v="1055375" />
		<tag k="ssr:type" v="adressenavn" />
	</node>
	<node lat="71.04052709497999" lon="27.848742118474348" id="-105400">
		<tag k="name" v="Skipperbakken" />
		<tag k="ssr:date" v="2019-12-27" />
		<tag k="ssr:gruppe" v="veg" />
		<tag k="ssr:hovedgruppe" v="infrastruktur" />
		<tag k="ssr:stedsnr" v="1055378" />
		<tag k="ssr:type" v="adressenavn" />
	</node>
	<node lat="71.05708332807808" lon="28.246912454396835" id="-105401">
		<tag k="name" v="Rambergveien" />
		<tag k="ssr:date" v="2019-12-27" />
		<tag k="ssr:gruppe" v="veg" />
		<tag k="ssr:hovedgruppe" v="infrastruktur" />
		<tag k="ssr:stedsnr" v="1055383" />
		<tag k="ssr:type" v="adressenavn" />
	</node>
	<node lat="71.03568847273111" lon="27.84865769338901" id="-105402">
		<tag k="name" v="Gamvikveien" />
		<tag k="ssr:date" v="2019-12-27" />
		<tag k="ssr:gruppe" v="veg" />
		<tag k="ssr:hovedgruppe" v="infrastruktur" />
		<tag k="ssr:stedsnr" v="1055307" />
		<tag k="ssr:type" v="adressenavn" />
	</node>
	<node lat="71.03199232132864" lon="27.84608903208858" id="-105403">
		<tag k="name" v="Gangveien" />
		<tag k="ssr:date" v="2019-12-27" />
		<tag k="ssr:gruppe" v="veg" />
		<tag k="ssr:hovedgruppe" v="infrastruktur" />
		<tag k="ssr:stedsnr" v="1055316" />
		<tag k="ssr:type" v="adressenavn" />
	</node>
	<node lat="71.05905222599297" lon="28.23746766309969" id="-105404">
		<tag k="name" v="Øvreveien" />
		<tag k="ssr:date" v="2019-12-27" />
		<tag k="ssr:gruppe" v="veg" />
		<tag k="ssr:hovedgruppe" v="infrastruktur" />
		<tag k="ssr:stedsnr" v="1055390" />
		<tag k="ssr:type" v="adressenavn" />
	</node>
	<node lat="71.03471350997273" lon="27.849094866954545" id="-105405">
		<tag k="name" v="Værveien" />
		<tag k="ssr:date" v="2019-12-27" />
		<tag k="ssr:gruppe" v="veg" />
		<tag k="ssr:hovedgruppe" v="infrastruktur" />
		<tag k="ssr:stedsnr" v="1055399" />
		<tag k="ssr:type" v="adressenavn" />
	</node>
	<node lat="71.03193104429752" lon="27.84602620557899" id="-105406">
		<tag k="name" v="Tyttebærveien" />
		<tag k="ssr:date" v="2019-12-27" />
		<tag k="ssr:gruppe" v="veg" />
		<tag k="ssr:hovedgruppe" v="infrastruktur" />
		<tag k="ssr:stedsnr" v="1055408" />
		<tag k="ssr:type" v="adressenavn" />
	</node>
	<node lat="71.0393381428155" lon="27.852047123591337" id="-105407">
		<tag k="name" v="Vevikveien" />
		<tag k="ssr:date" v="2019-12-27" />
		<tag k="ssr:gruppe" v="veg" />
		<tag k="ssr:hovedgruppe" v="infrastruktur" />
		<tag k="ssr:stedsnr" v="1055418" />
		<tag k="ssr:type" v="adressenavn" />
	</node>
	<node lat="71.04218116056225" lon="27.844202693961222" id="-105408">
		<tag k="name" v="Svingen" />
		<tag k="ssr:date" v="2019-12-27" />
		<tag k="ssr:gruppe" v="veg" />
		<tag k="ssr:hovedgruppe" v="infrastruktur" />
		<tag k="ssr:stedsnr" v="1055430" />
		<tag k="ssr:type" v="adressenavn" />
	</node>
	<node lat="71.0630013998953" lon="28.245124066874215" id="-105409">
		<tag k="name" v="Sykehusveien" />
		<tag k="ssr:date" v="2019-12-27" />
		<tag k="ssr:gruppe" v="veg" />
		<tag k="ssr:hovedgruppe" v="infrastruktur" />
		<tag k="ssr:stedsnr" v="1055433" />
		<tag k="ssr:type" v="adressenavn" />
	</node>
	<node lat="71.033545079008" lon="27.85179622149561" id="-105410">
		<tag k="name" v="Johan Larsens vei" />
		<tag k="ssr:date" v="2019-12-27" />
		<tag k="ssr:gruppe" v="veg" />
		<tag k="ssr:hovedgruppe" v="infrastruktur" />
		<tag k="ssr:stedsnr" v="1055490" />
		<tag k="ssr:type" v="adressenavn" />
	</node>
	<node lat="71.04343174662652" lon="27.843384289400966" id="-105411">
		<tag k="name" v="Raet" />
		<tag k="ssr:date" v="2019-12-27" />
		<tag k="ssr:gruppe" v="veg" />
		<tag k="ssr:hovedgruppe" v="infrastruktur" />
		<tag k="ssr:stedsnr" v="1055510" />
		<tag k="ssr:type" v="adressenavn" />
	</node>
	<node lat="71.0333591225172" lon="27.84409936007592" id="-105412">
		<tag k="name" v="Lillebergveien" />
		<tag k="ssr:date" v="2019-12-27" />
		<tag k="ssr:gruppe" v="veg" />
		<tag k="ssr:hovedgruppe" v="infrastruktur" />
		<tag k="ssr:stedsnr" v="1055450" />
		<tag k="ssr:type" v="adressenavn" />
	</node>
	<node lat="71.03223749838048" lon="27.84646845336066" id="-105413">
		<tag k="name" v="Krøkebærveien" />
		<tag k="ssr:date" v="2019-12-27" />
		<tag k="ssr:gruppe" v="veg" />
		<tag k="ssr:hovedgruppe" v="infrastruktur" />
		<tag k="ssr:stedsnr" v="1055456" />
		<tag k="ssr:type" v="adressenavn" />
	</node>
	<node lat="71.05376303666608" lon="28.24822378473363" id="-105414">
		<tag k="name" v="Kvalvikveien" />
		<tag k="ssr:date" v="2019-12-27" />
		<tag k="ssr:gruppe" v="veg" />
		<tag k="ssr:hovedgruppe" v="infrastruktur" />
		<tag k="ssr:stedsnr" v="1055461" />
		<tag k="ssr:type" v="adressenavn" />
	</node>
	<node lat="71.0637999487247" lon="28.24644724840913" id="-105415">
		<tag k="name" v="Kirkeveien" />
		<tag k="ssr:date" v="2019-12-27" />
		<tag k="ssr:gruppe" v="veg" />
		<tag k="ssr:hovedgruppe" v="infrastruktur" />
		<tag k="ssr:stedsnr" v="1055477" />
		<tag k="ssr:type" v="adressenavn" />
	</node>
	<node lat="71.05855789993954" lon="28.246806794109236" id="-105416">
		<tag k="name" v="Kjosveien" />
		<tag k="ssr:date" v="2019-12-27" />
		<tag k="ssr:gruppe" v="veg" />
		<tag k="ssr:hovedgruppe" v="infrastruktur" />
		<tag k="ssr:stedsnr" v="1055480" />
		<tag k="ssr:type" v="adressenavn" />
	</node>
	<node lat="71.05934383024046" lon="28.247694946551242" id="-105417">
		<tag k="name" v="Måneveien" />
		<tag k="ssr:date" v="2019-12-27" />
		<tag k="ssr:gruppe" v="veg" />
		<tag k="ssr:hovedgruppe" v="infrastruktur" />
		<tag k="ssr:stedsnr" v="1055544" />
		<tag k="ssr:type" v="adressenavn" />
	</node>
	<node lat="71.06448797471384" lon="28.246454965590182" id="-105418">
		<tag k="name" v="Nesveien" />
		<tag k="ssr:date" v="2019-12-27" />
		<tag k="ssr:gruppe" v="veg" />
		<tag k="ssr:hovedgruppe" v="infrastruktur" />
		<tag k="ssr:stedsnr" v="1055561" />
		<tag k="ssr:type" v="adressenavn" />
	</node>
	<node lat="70.80063839253407" lon="28.103115091437196" id="-105422">
		<tag k="name" v="Finnes" />
		<tag k="ssr:date" v="2019-12-27" />
		<tag k="ssr:gruppe" v="veg" />
		<tag k="ssr:hovedgruppe" v="infrastruktur" />
		<tag k="ssr:stedsnr" v="1055608" />
		<tag k="ssr:type" v="adressenavn" />
	</node>
	<node lat="71.03994206938708" lon="27.850815672312798" id="-105423">
		<tag k="name" v="Skolebakken" />
		<tag k="ssr:date" v="2019-12-27" />
		<tag k="ssr:gruppe" v="veg" />
		<tag k="ssr:hovedgruppe" v="infrastruktur" />
		<tag k="ssr:stedsnr" v="1055610" />
		<tag k="ssr:type" v="adressenavn" />
	</node>
	<node lat="71.03403040167797" lon="27.850565490108416" id="-105427">
		<tag k="name" v="Lockertsveien" />
		<tag k="ssr:date" v="2019-12-27" />
		<tag k="ssr:gruppe" v="veg" />
		<tag k="ssr:hovedgruppe" v="infrastruktur" />
		<tag k="ssr:stedsnr" v="1055569" />
		<tag k="ssr:type" v="adressenavn" />
	</node>
</osm>
