<?xml version="1.0" encoding="UTF-8"?>
<osm generator="osmapis" version="0.6">
	<node id="-621056" lat="68.3247777798" lon="17.2735666768">
		<tag k="name" v="Leirosen" />
		<tag k="natural" v="bay" />
		<tag k="ssr:stedsnr" v="321826" />
	</node>
	<node id="-622200" lat="68.3822444411" lon="17.5872138847">
		<tag k="name" v="Fjøsnes" />
		<tag k="natural" v="cape" />
		<tag k="ssr:stedsnr" v="510338" />
	</node>
	<node id="-622588" lat="68.4647666677" lon="17.3615166772">
		<tag k="bay" v="fjord" />
		<tag k="name" v="Herjangsfjorden - Hearjjak" />
		<tag k="name:no" v="Herjangsfjorden" />
		<tag k="name:se" v="Hearjjak" />
		<tag k="natural" v="bay" />
		<tag k="ssr:stedsnr" v="685506" />
	</node>
	<node id="-622586" lat="68.4074305558" lon="17.8261027818">
		<tag k="name" v="Inner-Sildvik" />
		<tag k="natural" v="bay" />
		<tag k="ssr:stedsnr" v="685224" />
	</node>
	<node id="-622676" lat="68.4983055528" lon="17.5267222239">
		<tag k="name" v="Munnholmen" />
		<tag k="natural" v="cape" />
		<tag k="ssr:stedsnr" v="693420" />
	</node>
	<node id="-621225" lat="68.2551861083" lon="17.3826722246">
		<tag k="name" v="Nerøyran" />
		<tag k="place" v="island" />
		<tag k="ssr:stedsnr" v="388465" />
	</node>
	<node id="-621556" lat="68.2949472223" lon="17.3557305619">
		<tag k="name" v="Skjellneset" />
		<tag k="natural" v="cape" />
		<tag k="ssr:stedsnr" v="100668" />
	</node>
	<node id="-623091" lat="68.4518722252" lon="17.5625305654">
		<tag k="name" v="Hellarneset" />
		<tag k="natural" v="cape" />
		<tag k="ssr:stedsnr" v="880393" />
	</node>
	<node id="-623090" lat="68.4228083314" lon="17.4134222289">
		<tag k="name" v="Narvikbukta" />
		<tag k="natural" v="bay" />
		<tag k="ssr:stedsnr" v="880388" />
	</node>
	<node id="-621551" lat="68.3044111113" lon="17.3324527727">
		<tag k="fixme" v="multiple name tags, choose one and add the other to alt_name" />
		<tag k="name" v="Heimervika;Isakvika" />
		<tag k="natural" v="bay" />
		<tag k="ssr:stedsnr" v="91986" />
	</node>
	<node id="-621549" lat="68.4468388927" lon="17.4321250081">
		<tag k="name" v="Slåttvikstrand" />
		<tag k="natural" v="beach" />
		<tag k="place" v="locality" />
		<tag k="ssr:stedsnr" v="91728" />
	</node>
	<node id="-622059" lat="68.4520666665" lon="17.5110055473">
		<tag k="name" v="Ytre Djupvikneset" />
		<tag k="natural" v="cape" />
		<tag k="ssr:stedsnr" v="450330" />
	</node>
	<node id="-621546" lat="68.3878611128" lon="17.0624722133">
		<tag k="name" v="Flyndrehola" />
		<tag k="place" v="locality" />
		<tag k="ssr:stedsnr" v="86750" />
	</node>
	<node id="-623171" lat="68.3693027804" lon="17.2416000096">
		<tag k="name" v="Trong-Skjomen" />
		<tag k="natural" v="strait" />
		<tag k="ssr:stedsnr" v="928925" />
	</node>
	<node id="-622053" lat="68.4813527748" lon="17.4749583342">
		<tag k="fixme" v="consider seamark:type=rock or natural=shoal" />
		<tag k="name" v="Likholmskjæret" />
		<tag k="place" v="islet" />
		<tag k="ssr:stedsnr" v="450241" />
	</node>
	<node id="-623072" lat="68.4479999965" lon="17.6308666635">
		<tag k="name" v="Aspeneset" />
		<tag k="natural" v="cape" />
		<tag k="ssr:stedsnr" v="875372" />
	</node>
	<node id="-623070" lat="68.3741083339" lon="17.5662805521">
		<tag k="name" v="Sennes" />
		<tag k="natural" v="cape" />
		<tag k="ssr:stedsnr" v="875363" />
	</node>
	<node id="-621562" lat="68.3104055565" lon="17.3120083314">
		<tag k="name" v="Røyrvika" />
		<tag k="natural" v="bay" />
		<tag k="ssr:stedsnr" v="100851" />
	</node>
	<node id="-621530" lat="68.4652583337" lon="17.4801805504">
		<tag k="name" v="Gunnelvika" />
		<tag k="natural" v="bay" />
		<tag k="ssr:stedsnr" v="86268" />
	</node>
	<node id="-621017" lat="68.2008250026" lon="17.3251194356">
		<tag k="name" v="Mellaneset" />
		<tag k="natural" v="cape" />
		<tag k="ssr:stedsnr" v="320701" />
	</node>
	<node id="-621528" lat="68.4389805557" lon="17.7025027724">
		<tag k="name" v="Røyrstranda" />
		<tag k="natural" v="beach" />
		<tag k="place" v="locality" />
		<tag k="ssr:stedsnr" v="86023" />
	</node>
	<node id="-622841" lat="68.3255138849" lon="17.2698694523">
		<tag k="name" v="Forrholmen" />
		<tag k="place" v="islet" />
		<tag k="ssr:stedsnr" v="767894" />
	</node>
	<node id="-621521" lat="68.4133444483" lon="17.4166138848">
		<tag k="alt_name" v="Skarvenes" />
		<tag k="name" v="Skarveneset" />
		<tag k="natural" v="cape" />
		<tag k="ssr:stedsnr" v="85520" />
	</node>
	<node id="-622032" lat="68.3635305543" lon="17.2358138823">
		<tag k="name" v="Moldforvika" />
		<tag k="natural" v="bay" />
		<tag k="ssr:stedsnr" v="446672" />
	</node>
	<node id="-622840" lat="68.3244388868" lon="17.2610472189">
		<tag k="name" v="Flatholmen" />
		<tag k="place" v="islet" />
		<tag k="ssr:stedsnr" v="767882" />
	</node>
	<node id="-621518" lat="68.3845333345" lon="17.2007305639">
		<tag k="name" v="Hamnvika" />
		<tag k="natural" v="bay" />
		<tag k="ssr:stedsnr" v="85419" />
	</node>
	<node id="-623181" lat="68.2939305579" lon="17.2876499956">
		<tag k="name" v="Titingneset" />
		<tag k="natural" v="cape" />
		<tag k="ssr:stedsnr" v="932634" />
	</node>
	<node id="-622540" lat="68.3973055585" lon="17.5090444508">
		<tag k="name" v="Indre Grorlineset" />
		<tag k="natural" v="cape" />
		<tag k="ssr:stedsnr" v="645052" />
	</node>
	<node id="-621513" lat="68.2526583327" lon="17.3276916684">
		<tag k="name" v="Tømmerneslandet" />
		<tag k="natural" v="beach" />
		<tag k="place" v="locality" />
		<tag k="ssr:stedsnr" v="82669" />
	</node>
	<node id="-622535" lat="68.3311222212" lon="17.2492777845">
		<tag k="name" v="Holmegrunnen" />
		<tag k="natural" v="shoal" />
		<tag k="place" v="locality" />
		<tag k="ssr:stedsnr" v="636966" />
	</node>
	<node id="-622534" lat="68.2371527798" lon="17.3506249908">
		<tag k="name" v="Laukvikhamn" />
		<tag k="natural" v="bay" />
		<tag k="ssr:stedsnr" v="636908" />
	</node>
	<node id="-622532" lat="68.4911500032" lon="17.4321805647">
		<tag k="name" v="Skolten" />
		<tag k="natural" v="shoal" />
		<tag k="place" v="locality" />
		<tag k="ssr:stedsnr" v="636290" />
	</node>
	<node id="-622019" lat="68.47418889" lon="17.5770638944">
		<tag k="name" v="Kalvikneset" />
		<tag k="natural" v="cape" />
		<tag k="ssr:stedsnr" v="443711" />
	</node>
	<node id="-622018" lat="68.3896361126" lon="17.1002027811">
		<tag k="name" v="Risøya" />
		<tag k="place" v="island" />
		<tag k="ssr:stedsnr" v="442989" />
	</node>
	<node id="-622528" lat="68.3274333326" lon="17.2841861088">
		<tag k="name" v="Osen" />
		<tag k="natural" v="bay" />
		<tag k="ssr:stedsnr" v="632975" />
	</node>
	<node id="-621503" lat="68.3823388867" lon="17.2040083239">
		<tag k="name" v="Klemsteinvika" />
		<tag k="natural" v="bay" />
		<tag k="ssr:stedsnr" v="79943" />
	</node>
	<node id="-621502" lat="68.4814666642" lon="17.4805444359">
		<tag k="name" v="Løvika" />
		<tag k="natural" v="bay" />
		<tag k="ssr:stedsnr" v="79725" />
	</node>
	<node id="-622607" lat="68.4832833324" lon="17.478519453">
		<tag k="name" v="Likholmen" />
		<tag k="place" v="islet" />
		<tag k="ssr:stedsnr" v="685739" />
	</node>
	<node id="-621499" lat="68.4077416703" lon="17.2897805473">
		<tag k="name" v="Håkvika - Láiri" />
		<tag k="name:no" v="Håkvika" />
		<tag k="name:se" v="Láiri" />
		<tag k="natural" v="bay" />
		<tag k="ssr:stedsnr" v="78985" />
	</node>
	<node id="-622010" lat="68.2476194411" lon="17.3301444304">
		<tag k="name" v="Tømmerneset" />
		<tag k="natural" v="cape" />
		<tag k="ssr:stedsnr" v="442786" />
	</node>
	<node id="-620983" lat="68.2975416645" lon="17.3494027687">
		<tag k="fixme" v="consider seamark:type=rock or natural=shoal" />
		<tag k="name" v="Slettskjæran" />
		<tag k="place" v="islet" />
		<tag k="ssr:stedsnr" v="282680" />
	</node>
	<node id="-623030" lat="68.3919833321" lon="17.1302916653">
		<tag k="alt_name" v="Klubben, in" />
		<tag k="fixme" v="consider seamark:type=rock or natural=shoal" />
		<tag k="name" v="Indre Klubben" />
		<tag k="place" v="islet" />
		<tag k="ssr:stedsnr" v="867991" />
	</node>
	<node id="-623029" lat="68.4218277797" lon="17.3139583443">
		<tag k="alt_name" v="Emmenes" />
		<tag k="name" v="Emmeneset" />
		<tag k="natural" v="cape" />
		<tag k="ssr:stedsnr" v="867981" />
	</node>
	<node id="-623028" lat="68.4329999963" lon="17.3818833192">
		<tag k="name" v="Framnesodden" />
		<tag k="natural" v="cape" />
		<tag k="ssr:stedsnr" v="867976" />
	</node>
	<node id="-622515" lat="68.2566166671" lon="17.3991694343">
		<tag k="name" v="Brattøyra" />
		<tag k="natural" v="shoal" />
		<tag k="place" v="locality" />
		<tag k="ssr:stedsnr" v="631574" />
	</node>
	<node id="-622514" lat="68.4865861124" lon="17.4881638801">
		<tag k="fixme" v="consider seamark:type=rock or natural=shoal" />
		<tag k="name" v="Skjæret" />
		<tag k="place" v="islet" />
		<tag k="ssr:stedsnr" v="631539" />
	</node>
	<node id="-622513" lat="68.4883027824" lon="17.5013999891">
		<tag k="fixme" v="consider seamark:type=rock or natural=shoal" />
		<tag k="name" v="Kattsteinen" />
		<tag k="place" v="islet" />
		<tag k="ssr:stedsnr" v="631535" />
	</node>
	<node id="-622760" lat="68.4246361088" lon="17.3956361175">
		<tag k="alt_name:no" v="Beisfjord" />
		<tag k="bay" v="fjord" />
		<tag k="name" v="Beisfjorden - Ušmá" />
		<tag k="name:no" v="Beisfjorden" />
		<tag k="name:se" v="Ušmá" />
		<tag k="natural" v="bay" />
		<tag k="ssr:stedsnr" v="746986" />
	</node>
	<node id="-621999" lat="68.4659277797" lon="17.4854750052">
		<tag k="name" v="Kufiskvika" />
		<tag k="natural" v="bay" />
		<tag k="ssr:stedsnr" v="442250" />
	</node>
	<node id="-622510" lat="68.4908305553" lon="17.5019805628">
		<tag k="name" v="Gamalnaustøa" />
		<tag k="natural" v="shoal" />
		<tag k="place" v="locality" />
		<tag k="ssr:stedsnr" v="631522" />
	</node>
	<node id="-623017" lat="68.2688833364" lon="17.3387888874">
		<tag k="name" v="Skjellneset" />
		<tag k="natural" v="cape" />
		<tag k="ssr:stedsnr" v="867813" />
	</node>
	<node id="-620968" lat="68.4443750023" lon="17.3866444364">
		<tag k="fixme" v="consider seamark:type=rock or natural=shoal" />
		<tag k="name" v="Kvitvikskjæret" />
		<tag k="place" v="islet" />
		<tag k="ssr:stedsnr" v="273393" />
	</node>
	<node id="-623012" lat="68.2170250022" lon="17.3157444476">
		<tag k="name" v="Strandsteinlandet" />
		<tag k="natural" v="beach" />
		<tag k="place" v="locality" />
		<tag k="ssr:stedsnr" v="867766" />
	</node>
	<node id="-621985" lat="68.3997083318" lon="17.267983321">
		<tag k="name" v="Skjomneset" />
		<tag k="natural" v="cape" />
		<tag k="ssr:stedsnr" v="480138" />
	</node>
	<node id="-621472" lat="68.4180638914" lon="17.7760888981">
		<tag k="name" v="Kvalvika" />
		<tag k="natural" v="bay" />
		<tag k="ssr:stedsnr" v="78269" />
	</node>
	<node id="-622493" lat="68.4922361118" lon="17.5095444484">
		<tag k="fixme" v="consider seamark:type=rock or natural=shoal" />
		<tag k="name" v="Laukholmskjæret" />
		<tag k="place" v="islet" />
		<tag k="ssr:stedsnr" v="631387" />
	</node>
	<node id="-622492" lat="68.4979027732" lon="17.5189861174">
		<tag k="name" v="Rødholmen" />
		<tag k="place" v="islet" />
		<tag k="ssr:stedsnr" v="631384" />
	</node>
	<node id="-622490" lat="68.4472750028" lon="17.5929722289">
		<tag k="name" v="Fornesvika" />
		<tag k="natural" v="bay" />
		<tag k="ssr:stedsnr" v="631326" />
	</node>
	<node id="-621463" lat="68.192927774" lon="17.3202694365">
		<tag k="name" v="Hallarvika" />
		<tag k="natural" v="bay" />
		<tag k="ssr:stedsnr" v="77697" />
	</node>
	<node id="-622997" lat="68.4477444428" lon="17.5967999907">
		<tag k="name" v="Forneset" />
		<tag k="natural" v="cape" />
		<tag k="ssr:stedsnr" v="867466" />
	</node>
	<node id="-621459" lat="68.4937388881" lon="17.3448444495">
		<tag k="alt_name" v="Tortenneset, yt" />
		<tag k="name" v="Ytter-Tortenneset" />
		<tag k="natural" v="cape" />
		<tag k="ssr:stedsnr" v="77561" />
	</node>
	<node id="-622994" lat="68.4533944411" lon="17.4822750046">
		<tag k="name" v="Karistranda - Sáddoviervá" />
		<tag k="name:no" v="Karistranda" />
		<tag k="name:se" v="Sáddoviervá" />
		<tag k="natural" v="beach" />
		<tag k="place" v="locality" />
		<tag k="ssr:stedsnr" v="867252" />
	</node>
	<node id="-622993" lat="68.4457666697" lon="17.608566672">
		<tag k="name" v="Leirbukta" />
		<tag k="natural" v="bay" />
		<tag k="ssr:stedsnr" v="867247" />
	</node>
	<node id="-623085" lat="68.3932527776" lon="17.1616861005">
		<tag k="name" v="Feneset" />
		<tag k="natural" v="cape" />
		<tag k="ssr:stedsnr" v="875834" />
	</node>
	<node id="-621961" lat="68.4404944437" lon="17.7098944388">
		<tag k="name" v="Sørnesodden" />
		<tag k="natural" v="cape" />
		<tag k="ssr:stedsnr" v="268022" />
	</node>
	<node id="-621960" lat="68.4349916639" lon="17.7185666732">
		<tag k="name" v="Bergvik" />
		<tag k="natural" v="bay" />
		<tag k="ssr:stedsnr" v="268019" />
	</node>
	<node id="-623167" lat="68.3584472223" lon="17.2660555559">
		<tag k="name" v="Skredvika" />
		<tag k="natural" v="bay" />
		<tag k="ssr:stedsnr" v="928871" />
	</node>
	<node id="-621444" lat="68.4759666665" lon="17.5533833341">
		<tag k="name" v="Leirvika" />
		<tag k="natural" v="bay" />
		<tag k="ssr:stedsnr" v="56772" />
	</node>
	<node id="-622979" lat="68.209030553" lon="17.3623277748">
		<tag k="name" v="Lappvika" />
		<tag k="natural" v="bay" />
		<tag k="ssr:stedsnr" v="866676" />
	</node>
	<node id="-621438" lat="68.3026638874" lon="17.3369055458">
		<tag k="fixme" v="consider seamark:type=rock or natural=shoal" />
		<tag k="name" v="Per-Elsa-steinen" />
		<tag k="place" v="islet" />
		<tag k="ssr:stedsnr" v="39828" />
	</node>
	<node id="-622461" lat="68.505497218" lon="17.3723055579">
		<tag k="name" v="Aspeneset" />
		<tag k="natural" v="cape" />
		<tag k="ssr:stedsnr" v="626629" />
	</node>
	<node id="-622460" lat="68.4059000005" lon="17.2681166566">
		<tag k="name" v="Skjomnesøyra" />
		<tag k="natural" v="shoal" />
		<tag k="place" v="locality" />
		<tag k="ssr:stedsnr" v="624998" />
	</node>
	<node id="-622459" lat="68.3927361133" lon="17.1708250055">
		<tag k="name" v="Krøkebærneset" />
		<tag k="natural" v="cape" />
		<tag k="ssr:stedsnr" v="624996" />
	</node>
	<node id="-622970" lat="68.3740694425" lon="17.58494722">
		<tag k="name" v="Øyra" />
		<tag k="natural" v="cape" />
		<tag k="ssr:stedsnr" v="866111" />
	</node>
	<node id="-622457" lat="68.3895611092" lon="17.125291671">
		<tag k="alt_name" v="Klubben, yt" />
		<tag k="fixme" v="consider seamark:type=rock or natural=shoal" />
		<tag k="name" v="Ytre Klubben" />
		<tag k="place" v="islet" />
		<tag k="ssr:stedsnr" v="624989" />
	</node>
	<node id="-621944" lat="68.2973750032" lon="17.2750166761">
		<tag k="name" v="Klubbvika" />
		<tag k="natural" v="bay" />
		<tag k="ssr:stedsnr" v="264665" />
	</node>
	<node id="-621971" lat="68.4731861145" lon="17.6390388905">
		<tag k="name" v="Finnstøa" />
		<tag k="natural" v="beach" />
		<tag k="place" v="locality" />
		<tag k="ssr:stedsnr" v="268384" />
	</node>
	<node id="-622447" lat="68.2801694409" lon="17.3338527634">
		<tag k="name" v="Kjerringneset" />
		<tag k="natural" v="cape" />
		<tag k="ssr:stedsnr" v="624824" />
	</node>
	<node id="-621422" lat="68.4008916696" lon="17.2785777809">
		<tag k="name" v="Håkvikstranda" />
		<tag k="natural" v="beach" />
		<tag k="place" v="locality" />
		<tag k="ssr:stedsnr" v="25963" />
	</node>
	<node id="-621933" lat="68.4700472254" lon="17.5377166623">
		<tag k="name" v="Jektvika" />
		<tag k="natural" v="bay" />
		<tag k="ssr:stedsnr" v="261737" />
	</node>
	<node id="-621932" lat="68.4249444432" lon="17.3435083193">
		<tag k="name" v="Båtberget" />
		<tag k="natural" v="cape" />
		<tag k="ssr:stedsnr" v="260987" />
	</node>
	<node id="-622443" lat="68.2584055537" lon="17.3604666588">
		<tag k="name" v="Reinneset" />
		<tag k="natural" v="cape" />
		<tag k="ssr:stedsnr" v="624805" />
	</node>
	<node id="-622442" lat="68.4934027777" lon="17.5111722186">
		<tag k="name" v="Laukholmen" />
		<tag k="place" v="islet" />
		<tag k="ssr:stedsnr" v="624799" />
	</node>
	<node id="-621417" lat="68.4186166685" lon="17.390100008">
		<tag k="name" v="Klokkarberget" />
		<tag k="natural" v="beach" />
		<tag k="place" v="locality" />
		<tag k="ssr:stedsnr" v="25613" />
	</node>
	<node id="-622439" lat="68.47626111" lon="17.4757444435">
		<tag k="name" v="Sildvika" />
		<tag k="natural" v="bay" />
		<tag k="ssr:stedsnr" v="624753" />
	</node>
	<node id="-621201" lat="68.4894083308" lon="17.4918416713">
		<tag k="name" v="Flatholmen" />
		<tag k="place" v="islet" />
		<tag k="ssr:stedsnr" v="382740" />
	</node>
	<node id="-621924" lat="68.3249222207" lon="17.2577944327">
		<tag k="name" v="Buholmen" />
		<tag k="place" v="islet" />
		<tag k="ssr:stedsnr" v="260909" />
	</node>
	<node id="-621923" lat="68.3415750004" lon="17.2310750016">
		<tag k="name" v="Smalnesbukta" />
		<tag k="natural" v="bay" />
		<tag k="ssr:stedsnr" v="260888" />
	</node>
	<node id="-622651" lat="68.3737749994" lon="17.5756500052">
		<tag k="name" v="Torvenauststøa" />
		<tag k="natural" v="beach" />
		<tag k="place" v="locality" />
		<tag k="ssr:stedsnr" v="692299" />
	</node>
	<node id="-622431" lat="68.5203305523" lon="17.5658638954">
		<tag k="name" v="Laksklubben" />
		<tag k="natural" v="cape" />
		<tag k="ssr:stedsnr" v="624646" />
	</node>
	<node id="-621918" lat="68.4797444444" lon="17.4769333366">
		<tag k="name" v="Korsvika" />
		<tag k="natural" v="bay" />
		<tag k="ssr:stedsnr" v="260798" />
	</node>
	<node id="-621405" lat="68.4472000005" lon="17.6210611086">
		<tag k="name" v="Neset" />
		<tag k="natural" v="cape" />
		<tag k="ssr:stedsnr" v="25358" />
	</node>
	<node id="-621404" lat="68.4475638879" lon="17.6261194517">
		<tag k="name" v="Mulvika" />
		<tag k="natural" v="bay" />
		<tag k="ssr:stedsnr" v="25357" />
	</node>
	<node id="-622426" lat="68.4549750041" lon="17.5319916544">
		<tag k="name" v="Forsneset" />
		<tag k="natural" v="cape" />
		<tag k="ssr:stedsnr" v="624225" />
	</node>
	<node id="-622425" lat="68.4483583378" lon="17.445230543">
		<tag k="name" v="Taraldsvika" />
		<tag k="natural" v="bay" />
		<tag k="ssr:stedsnr" v="624223" />
	</node>
	<node id="-622936" lat="68.5136499963" lon="17.5489944356">
		<tag k="name" v="Eitervikneset" />
		<tag k="natural" v="cape" />
		<tag k="ssr:stedsnr" v="814453" />
	</node>
	<node id="-622933" lat="68.4716138863" lon="17.5455694339">
		<tag k="name" v="Stråvika" />
		<tag k="natural" v="bay" />
		<tag k="ssr:stedsnr" v="814446" />
	</node>
	<node id="-622929" lat="68.4537138875" lon="17.5208555476">
		<tag k="name" v="Perlappberget" />
		<tag k="natural" v="cape" />
		<tag k="ssr:stedsnr" v="814374" />
	</node>
	<node id="-622927" lat="68.5237249983" lon="17.4259777703">
		<tag k="name" v="Trollvikneset" />
		<tag k="natural" v="cape" />
		<tag k="ssr:stedsnr" v="814361" />
	</node>
	<node id="-622413" lat="68.2060500014" lon="17.3382805572">
		<tag k="name" v="Gangarneset" />
		<tag k="natural" v="cape" />
		<tag k="ssr:stedsnr" v="623721" />
	</node>
	<node id="-622924" lat="68.46637778" lon="17.4702277744">
		<tag k="name" v="Langstrand" />
		<tag k="natural" v="beach" />
		<tag k="place" v="locality" />
		<tag k="ssr:stedsnr" v="814301" />
	</node>
	<node id="-621899" lat="68.4100749995" lon="17.7983249883">
		<tag k="name" v="Ytter-Sildvik" />
		<tag k="natural" v="bay" />
		<tag k="ssr:stedsnr" v="260292" />
	</node>
	<node id="-621898" lat="68.4453638849" lon="17.6430166613">
		<tag k="name" v="Mølnneset" />
		<tag k="natural" v="cape" />
		<tag k="ssr:stedsnr" v="260270" />
	</node>
	<node id="-621897" lat="68.4492888897" lon="17.5779416638">
		<tag k="fixme" v="consider seamark:type=rock or natural=shoal" />
		<tag k="name" v="Kvitskjæret" />
		<tag k="place" v="islet" />
		<tag k="ssr:stedsnr" v="260267" />
	</node>
	<node id="-621383" lat="68.1970361064" lon="17.317727785">
		<tag k="name" v="Slåttneset" />
		<tag k="natural" v="cape" />
		<tag k="ssr:stedsnr" v="22623" />
	</node>
	<node id="-621892" lat="68.4424722225" lon="17.6590222172">
		<tag k="name" v="Straumsnesholmen" />
		<tag k="place" v="islet" />
		<tag k="ssr:stedsnr" v="260231" />
	</node>
	<node id="-622915" lat="68.4468666646" lon="17.7176360966">
		<tag k="name" v="Tyttebærvika" />
		<tag k="natural" v="bay" />
		<tag k="ssr:stedsnr" v="814007" />
	</node>
	<node id="-621377" lat="68.4162138901" lon="17.3959305529">
		<tag k="name" v="Jektvika" />
		<tag k="natural" v="bay" />
		<tag k="ssr:stedsnr" v="18993" />
	</node>
	<node id="-622911" lat="68.3851305553" lon="17.1973333264">
		<tag k="name" v="Holtvika" />
		<tag k="natural" v="bay" />
		<tag k="ssr:stedsnr" v="813456" />
	</node>
	<node id="-621374" lat="68.3844249963" lon="17.2545249968">
		<tag k="name" v="Forneset" />
		<tag k="natural" v="cape" />
		<tag k="ssr:stedsnr" v="18951" />
	</node>
	<node id="-622397" lat="68.2739500026" lon="17.3952499941">
		<tag k="name" v="Aspevika" />
		<tag k="natural" v="bay" />
		<tag k="ssr:stedsnr" v="604747" />
	</node>
	<node id="-621370" lat="68.3851111081" lon="17.077875">
		<tag k="alt_name" v="Sildvika, in" />
		<tag k="name" v="Inner-Sildvik" />
		<tag k="natural" v="bay" />
		<tag k="ssr:stedsnr" v="18934" />
	</node>
	<node id="-621375" lat="68.4196888891" lon="17.2979194487">
		<tag k="name" v="Tangodden" />
		<tag k="natural" v="cape" />
		<tag k="ssr:stedsnr" v="18979" />
	</node>
	<node id="-622388" lat="68.3141000005" lon="17.3024583327">
		<tag k="name" v="Mølnvika" />
		<tag k="natural" v="bay" />
		<tag k="ssr:stedsnr" v="585870" />
	</node>
	<node id="-622824" lat="68.4415638863" lon="17.3888027722">
		<tag k="name" v="Kvitvikberget" />
		<tag k="natural" v="cape" />
		<tag k="ssr:stedsnr" v="758717" />
	</node>
	<node id="-622385" lat="68.2880361111" lon="17.367838896">
		<tag k="name" v="Brennviknes" />
		<tag k="natural" v="cape" />
		<tag k="ssr:stedsnr" v="585735" />
	</node>
	<node id="-622384" lat="68.2895944488" lon="17.3618666623">
		<tag k="name" v="Lillevika" />
		<tag k="natural" v="bay" />
		<tag k="ssr:stedsnr" v="585733" />
	</node>
	<node id="-621274" lat="68.4883222214" lon="17.4967361022">
		<tag k="name" v="Mølnelvosen" />
		<tag k="natural" v="shoal" />
		<tag k="place" v="locality" />
		<tag k="ssr:stedsnr" v="389579" />
	</node>
	<node id="-621277" lat="68.3243722236" lon="17.2672555606">
		<tag k="alt_name" v="Holmestrand" />
		<tag k="name" v="Holmestranda" />
		<tag k="natural" v="beach" />
		<tag k="place" v="locality" />
		<tag k="ssr:stedsnr" v="394970" />
	</node>
	<node id="-621868" lat="68.3779500016" lon="17.5506888973">
		<tag k="name" v="Utrorvika" />
		<tag k="natural" v="bay" />
		<tag k="ssr:stedsnr" v="259205" />
	</node>
	<node id="-622379" lat="68.3954055516" lon="17.522497227">
		<tag k="name" v="Olderneslandet" />
		<tag k="natural" v="beach" />
		<tag k="place" v="locality" />
		<tag k="ssr:stedsnr" v="585082" />
	</node>
	<node id="-622887" lat="68.3723888917" lon="17.2276500028">
		<tag k="name" v="Skjærvika" />
		<tag k="natural" v="bay" />
		<tag k="ssr:stedsnr" v="806962" />
	</node>
	<node id="-622886" lat="68.3514166643" lon="17.2449916739">
		<tag k="name" v="Smalneset" />
		<tag k="natural" v="cape" />
		<tag k="ssr:stedsnr" v="806900" />
	</node>
	<node id="-621860" lat="68.2825333297" lon="17.3762083229">
		<tag k="name" v="Leirosen" />
		<tag k="natural" v="bay" />
		<tag k="ssr:stedsnr" v="240745" />
	</node>
	<node id="-622369" lat="68.3921777779" lon="17.132777764">
		<tag k="name" v="Lundneset" />
		<tag k="natural" v="cape" />
		<tag k="ssr:stedsnr" v="571840" />
	</node>
	<node id="-622880" lat="68.224163891" lon="17.3367944485">
		<tag k="name" v="Oterneset" />
		<tag k="natural" v="cape" />
		<tag k="ssr:stedsnr" v="806768" />
	</node>
	<node id="-622896" lat="68.1984055518" lon="17.345130554">
		<tag k="name" v="Otervika" />
		<tag k="natural" v="bay" />
		<tag k="ssr:stedsnr" v="810623" />
	</node>
	<node id="-622366" lat="68.4918888861" lon="17.5039638831">
		<tag k="fixme" v="consider seamark:type=rock or natural=shoal" />
		<tag k="name" v="Tennholmskjæret" />
		<tag k="place" v="islet" />
		<tag k="ssr:stedsnr" v="571556" />
	</node>
	<node id="-623064" lat="68.524430555" lon="17.4409444517">
		<tag k="name" v="Bakkejordneset" />
		<tag k="natural" v="cape" />
		<tag k="ssr:stedsnr" v="875315" />
	</node>
	<node id="-621852" lat="68.4469249978" lon="17.7047500075">
		<tag k="name" v="Sáddonjárga" />
		<tag k="name:se" v="Sáddonjárga" />
		<tag k="natural" v="cape" />
		<tag k="ssr:stedsnr" v="222491" />
	</node>
	<node id="-622363" lat="68.4082222181" lon="17.3068194431">
		<tag k="name" v="Stranda" />
		<tag k="natural" v="beach" />
		<tag k="place" v="locality" />
		<tag k="ssr:stedsnr" v="571539" />
	</node>
	<node id="-621334" lat="68.4091666631" lon="17.8330999946">
		<tag k="name" v="Sildvikodden" />
		<tag k="natural" v="cape" />
		<tag k="ssr:stedsnr" v="17273" />
	</node>
	<node id="-622865" lat="68.4061750003" lon="17.4462055413">
		<tag k="name" v="Kvitsandøyra" />
		<tag k="natural" v="bay" />
		<tag k="ssr:stedsnr" v="806268" />
	</node>
	<node id="-622864" lat="68.452630557" lon="17.513811104">
		<tag k="alt_name" v="Djupvika, yt" />
		<tag k="name" v="Ytre Djupvik" />
		<tag k="natural" v="bay" />
		<tag k="ssr:stedsnr" v="806222" />
	</node>
	<node id="-622863" lat="68.4499083353" lon="17.7060500014">
		<tag k="name" v="Langstranda" />
		<tag k="natural" v="beach" />
		<tag k="place" v="locality" />
		<tag k="ssr:stedsnr" v="806219" />
	</node>
	<node id="-622862" lat="68.4526138898" lon="17.4702027796">
		<tag k="name" v="Grunnstadvika" />
		<tag k="natural" v="bay" />
		<tag k="ssr:stedsnr" v="806213" />
	</node>
	<node id="-621837" lat="68.315819447" lon="17.2782888759">
		<tag k="name" v="Ytterneset" />
		<tag k="natural" v="cape" />
		<tag k="ssr:stedsnr" v="207962" />
	</node>
	<node id="-621186" lat="68.4957027807" lon="17.4905555492">
		<tag k="alt_name" v="Auguren" />
		<tag k="fixme" v="multiple name tags, choose one and add the other to alt_name; consider seamark:type=rock or natural=shoal" />
		<tag k="name" v="Uren;Augoren" />
		<tag k="place" v="islet" />
		<tag k="ssr:stedsnr" v="381829" />
	</node>
	<node id="-621203" lat="68.4679666653" lon="17.4673972285">
		<tag k="alt_name" v="Græsholmen" />
		<tag k="name" v="Grasholmen" />
		<tag k="place" v="islet" />
		<tag k="ssr:stedsnr" v="382748" />
	</node>
	<node id="-621832" lat="68.3850749983" lon="17.07125555">
		<tag k="name" v="Mellom Sildvik" />
		<tag k="natural" v="bay" />
		<tag k="ssr:stedsnr" v="207737" />
	</node>
	<node id="-622652" lat="68.4454194409" lon="17.6388749987">
		<tag k="name" v="Leira" />
		<tag k="natural" v="beach" />
		<tag k="place" v="locality" />
		<tag k="ssr:stedsnr" v="692316" />
	</node>
	<node id="-622338" lat="68.5374138882" lon="17.5073360965">
		<tag k="name" v="Tømmervika" />
		<tag k="natural" v="bay" />
		<tag k="ssr:stedsnr" v="571291" />
	</node>
	<node id="-621824" lat="68.5477888932" lon="17.5385249938">
		<tag k="name" v="Prestjordneset - Dáktenjárga" />
		<tag k="name:no" v="Prestjordneset" />
		<tag k="name:se" v="Dáktenjárga" />
		<tag k="natural" v="cape" />
		<tag k="ssr:stedsnr" v="207404" />
	</node>
	<node id="-623232" lat="68.3237000008" lon="17.2605861054">
		<tag k="name" v="Høgholmen" />
		<tag k="place" v="islet" />
		<tag k="ssr:stedsnr" v="940974" />
	</node>
	<node id="-622334" lat="68.4440416635" lon="17.6515611056">
		<tag k="name" v="Hestvika" />
		<tag k="natural" v="bay" />
		<tag k="ssr:stedsnr" v="571072" />
	</node>
	<node id="-622331" lat="68.5590777746" lon="17.668416672">
		<tag k="name" v="Lavraneset" />
		<tag k="natural" v="cape" />
		<tag k="ssr:stedsnr" v="571043" />
	</node>
	<node id="-621306" lat="68.4880138879" lon="17.4995833199">
		<tag k="name" v="Seljeklubben" />
		<tag k="natural" v="cape" />
		<tag k="ssr:stedsnr" v="389583" />
	</node>
	<node id="-622329" lat="68.4325888852" lon="17.7292722195">
		<tag k="name" v="Yttervika" />
		<tag k="natural" v="bay" />
		<tag k="ssr:stedsnr" v="571012" />
	</node>
	<node id="-621304" lat="68.3128305555" lon="17.3013833326">
		<tag k="name" v="Tømmervikholmen" />
		<tag k="place" v="islet" />
		<tag k="ssr:stedsnr" v="889875" />
	</node>
	<node id="-622836" lat="68.2940527792" lon="17.3550055631">
		<tag k="name" v="Innersandvika" />
		<tag k="natural" v="bay" />
		<tag k="ssr:stedsnr" v="767688" />
	</node>
	<node id="-622323" lat="68.4115500002" lon="17.4251722299">
		<tag k="name" v="Fagernesleira" />
		<tag k="natural" v="bay" />
		<tag k="ssr:stedsnr" v="570555" />
	</node>
	<node id="-622321" lat="68.4209305584" lon="17.3866194321">
		<tag k="name" v="Ankenesleira" />
		<tag k="natural" v="beach" />
		<tag k="place" v="locality" />
		<tag k="ssr:stedsnr" v="570540" />
	</node>
	<node id="-622317" lat="68.2572444425" lon="17.3715222131">
		<tag k="name" v="Reinvika" />
		<tag k="natural" v="bay" />
		<tag k="ssr:stedsnr" v="570449" />
	</node>
	<node id="-621800" lat="68.5193777755" lon="17.564200003">
		<tag k="loc_name:se" v="Geiskaluokta" />
		<tag k="name" v="Geisvika" />
		<tag k="name:no" v="Geisvika" />
		<tag k="natural" v="bay" />
		<tag k="ssr:stedsnr" v="204618" />
	</node>
	<node id="-621799" lat="68.1928805571" lon="17.3325527824">
		<tag k="name" v="Grindvika" />
		<tag k="natural" v="bay" />
		<tag k="ssr:stedsnr" v="204601" />
	</node>
	<node id="-622822" lat="68.4465055531" lon="17.4251138977">
		<tag k="name" v="Vassvika" />
		<tag k="natural" v="bay" />
		<tag k="ssr:stedsnr" v="758447" />
	</node>
	<node id="-621285" lat="68.2957277766" lon="17.355227771">
		<tag k="name" v="Yttersandvika" />
		<tag k="natural" v="bay" />
		<tag k="ssr:stedsnr" v="403684" />
	</node>
	<node id="-621282" lat="68.5464194432" lon="17.5417555437">
		<tag k="name" v="Prestjordodden" />
		<tag k="natural" v="cape" />
		<tag k="ssr:stedsnr" v="403091" />
	</node>
	<node id="-621435" lat="68.2836611103" lon="17.3757916554">
		<tag k="name" v="Oternes" />
		<tag k="natural" v="cape" />
		<tag k="ssr:stedsnr" v="39700" />
	</node>
	<node id="-621792" lat="68.412891664" lon="17.4074083329">
		<tag k="alt_name" v="Lyngnes;Lyngenes" />
		<tag k="name" v="Lyngneset" />
		<tag k="natural" v="cape" />
		<tag k="ssr:stedsnr" v="200988" />
	</node>
	<node id="-622947" lat="68.4221249992" lon="17.2866583301">
		<tag k="name" v="Tanggrunnen" />
		<tag k="natural" v="shoal" />
		<tag k="place" v="locality" />
		<tag k="ssr:stedsnr" v="819106" />
	</node>
	<node id="-622301" lat="68.3908888891" lon="17.0611722097">
		<tag k="name" v="Vidrekøyan" />
		<tag k="place" v="island" />
		<tag k="ssr:stedsnr" v="563994" />
	</node>
	<node id="-621276" lat="68.2545194475" lon="17.3569833401">
		<tag k="name" v="Harevika" />
		<tag k="natural" v="bay" />
		<tag k="ssr:stedsnr" v="394920" />
	</node>
	<node id="-621786" lat="68.3278027791" lon="17.257908334">
		<tag k="name" v="Kvitholmen" />
		<tag k="place" v="islet" />
		<tag k="ssr:stedsnr" v="200828" />
	</node>
	<node id="-622809" lat="68.2558833307" lon="17.3979694467">
		<tag k="name" v="Marstokken" />
		<tag k="natural" v="shoal" />
		<tag k="place" v="locality" />
		<tag k="ssr:stedsnr" v="753538" />
	</node>
	<node id="-621272" lat="68.489897219" lon="17.500002765">
		<tag k="name" v="Holmestøa" />
		<tag k="natural" v="shoal" />
		<tag k="place" v="locality" />
		<tag k="ssr:stedsnr" v="389572" />
	</node>
	<node id="-622807" lat="68.421211115" lon="17.3037444486">
		<tag k="name" v="Tangvika" />
		<tag k="natural" v="bay" />
		<tag k="ssr:stedsnr" v="753472" />
	</node>
	<node id="-621945" lat="68.3291111119" lon="17.2272861128">
		<tag k="name" v="Bergelandet" />
		<tag k="natural" v="beach" />
		<tag k="place" v="locality" />
		<tag k="ssr:stedsnr" v="264667" />
	</node>
	<node id="-621780" lat="68.5225499993" lon="17.5592222107">
		<tag k="fixme" v="consider seamark:type=rock or natural=shoal" />
		<tag k="name" v="Geisvikskjæret" />
		<tag k="place" v="islet" />
		<tag k="ssr:stedsnr" v="200652" />
	</node>
	<node id="-621779" lat="68.5264833338" lon="17.4683944301">
		<tag k="name" v="Herjangsholmen" />
		<tag k="natural" v="cape" />
		<tag k="ssr:stedsnr" v="200651" />
	</node>
	<node id="-621778" lat="68.5254861095" lon="17.564258321">
		<tag k="name" v="Einvika" />
		<tag k="natural" v="bay" />
		<tag k="ssr:stedsnr" v="200650" />
	</node>
	<node id="-621775" lat="68.4707277762" lon="17.5224416718">
		<tag k="name" v="Storskjevika" />
		<tag k="natural" v="bay" />
		<tag k="ssr:stedsnr" v="200743" />
	</node>
	<node id="-621773" lat="68.5006000024" lon="17.5379888919">
		<tag k="name" v="Elvhaugen" />
		<tag k="natural" v="cape" />
		<tag k="ssr:stedsnr" v="200640" />
	</node>
	<node id="-622795" lat="68.5154527736" lon="17.5527638871">
		<tag k="name" v="Lilleklubben" />
		<tag k="place" v="islet" />
		<tag k="ssr:stedsnr" v="753371" />
	</node>
	<node id="-622794" lat="68.4998527753" lon="17.5414305408">
		<tag k="name" v="Åneset" />
		<tag k="natural" v="cape" />
		<tag k="ssr:stedsnr" v="753346" />
	</node>
	<node id="-622281" lat="68.5294527738" lon="17.5640944382">
		<tag k="alt_name" v="Kalvvika" />
		<tag k="name" v="Kvalvika" />
		<tag k="natural" v="bay" />
		<tag k="ssr:stedsnr" v="563665" />
	</node>
	<node id="-621256" lat="68.4696305559" lon="17.5109027713">
		<tag k="name" v="Skjellvika" />
		<tag k="natural" v="bay" />
		<tag k="ssr:stedsnr" v="389401" />
	</node>
	<node id="-622791" lat="68.4710833295" lon="17.5221944464">
		<tag k="name" v="Blåbærvika" />
		<tag k="natural" v="bay" />
		<tag k="ssr:stedsnr" v="753324" />
	</node>
	<node id="-622278" lat="68.5116222256" lon="17.546283333">
		<tag k="alt_name" v="Kaftvika" />
		<tag k="name" v="Koftvika" />
		<tag k="natural" v="bay" />
		<tag k="ssr:stedsnr" v="563655" />
	</node>
	<node id="-622881" lat="68.2543138906" lon="17.3812888785">
		<tag k="name" v="Øyran" />
		<tag k="place" v="island" />
		<tag k="ssr:stedsnr" v="806834" />
	</node>
	<node id="-621246" lat="68.5249416694" lon="17.4355250043">
		<tag k="name" v="Oldervika" />
		<tag k="natural" v="bay" />
		<tag k="ssr:stedsnr" v="389318" />
	</node>
	<node id="-622268" lat="68.4349483169" lon="17.6836232842">
		<tag k="name" v="Kollvika" />
		<tag k="natural" v="bay" />
		<tag k="ssr:stedsnr" v="563188" />
	</node>
	<node id="-621751" lat="68.3909444481" lon="17.5415777883">
		<tag k="name" v="Olderneset" />
		<tag k="natural" v="cape" />
		<tag k="ssr:stedsnr" v="199239" />
	</node>
	<node id="-621750" lat="68.4532638895" lon="17.5020138754">
		<tag k="name" v="Bjørnskjæret" />
		<tag k="natural" v="cape" />
		<tag k="ssr:stedsnr" v="199235" />
	</node>
	<node id="-621236" lat="68.4780638904" lon="17.4768527864">
		<tag k="name" v="Målvika" />
		<tag k="natural" v="bay" />
		<tag k="ssr:stedsnr" v="389254" />
	</node>
	<node id="-621507" lat="68.2140055598" lon="17.3321888882">
		<tag k="name" v="Strandsteinen" />
		<tag k="natural" v="cape" />
		<tag k="ssr:stedsnr" v="82509" />
	</node>
	<node id="-622792" lat="68.4689194407" lon="17.5090277822">
		<tag k="name" v="Jektneset" />
		<tag k="natural" v="cape" />
		<tag k="ssr:stedsnr" v="753334" />
	</node>
	<node id="-622250" lat="68.3862333376" lon="17.0888611021">
		<tag k="name" v="Finngamneset" />
		<tag k="natural" v="cape" />
		<tag k="ssr:stedsnr" v="545078" />
	</node>
	<node id="-622279" lat="68.5237222266" lon="17.4234833347">
		<tag k="alt_name" v="Trollvik" />
		<tag k="name" v="Trollvika" />
		<tag k="natural" v="bay" />
		<tag k="ssr:stedsnr" v="563659" />
	</node>
	<node id="-621224" lat="68.2538805555" lon="17.3755610976">
		<tag k="name" v="Øverøyran" />
		<tag k="natural" v="cape" />
		<tag k="ssr:stedsnr" v="388463" />
	</node>
	<node id="-621222" lat="68.242313886" lon="17.3273222168">
		<tag k="name" v="Aspeneset" />
		<tag k="natural" v="cape" />
		<tag k="ssr:stedsnr" v="385688" />
	</node>
	<node id="-622244" lat="68.3127416635" lon="17.3052083415">
		<tag k="name" v="Kobbesteinvika" />
		<tag k="natural" v="bay" />
		<tag k="ssr:stedsnr" v="524864" />
	</node>
	<node id="-623092" lat="68.409586113" lon="17.4317305639">
		<tag k="name" v="Fagerneset" />
		<tag k="natural" v="cape" />
		<tag k="ssr:stedsnr" v="880900" />
	</node>
	<node id="-621851" lat="68.3605916654" lon="17.2620388969">
		<tag k="fixme" v="consider seamark:type=rock or natural=shoal" />
		<tag k="name" v="Brurskjæret" />
		<tag k="place" v="islet" />
		<tag k="ssr:stedsnr" v="221833" />
	</node>
	<node id="-622105" lat="68.3366888901" lon="17.2742138934">
		<tag k="name" v="Kongsbakkneset" />
		<tag k="natural" v="cape" />
		<tag k="ssr:stedsnr" v="464834" />
	</node>
	<node id="-622747" lat="68.4719027773" lon="17.628213874">
		<tag k="name" v="Dalholmen - Ralttáksuolu" />
		<tag k="name:no" v="Dalholmen" />
		<tag k="name:se" v="Ralttáksuolu" />
		<tag k="place" v="islet" />
		<tag k="ssr:stedsnr" v="746722" />
	</node>
	<node id="-621210" lat="68.2853527813" lon="17.3149000088">
		<tag k="name" v="Sørlandet" />
		<tag k="natural" v="beach" />
		<tag k="place" v="locality" />
		<tag k="ssr:stedsnr" v="385703" />
	</node>
	<node id="-621935" lat="68.3193416673" lon="17.2918888849">
		<tag k="name" v="Lengenes" />
		<tag k="natural" v="cape" />
		<tag k="ssr:stedsnr" v="261836" />
	</node>
	<node id="-622821" lat="68.4214499993" lon="17.2985833284">
		<tag k="name" v="Kattnesen" />
		<tag k="place" v="locality" />
		<tag k="seamark:type" v="rock" />
		<tag k="ssr:stedsnr" v="758110" />
	</node>
	<node id="-621508" lat="68.4164277817" lon="17.8916916607">
		<tag k="name" v="Rombaksbotn - Ruoppatbahta" />
		<tag k="name:no" v="Rombaksbotn" />
		<tag k="name:se" v="Ruoppatbahta" />
		<tag k="natural" v="bay" />
		<tag k="ssr:stedsnr" v="82612" />
	</node>
	<node id="-622230" lat="68.4216138907" lon="17.38358055">
		<tag k="loc_name:se" v="Oŋkanjárga" />
		<tag k="name" v="Ankeneset" />
		<tag k="name:no" v="Ankeneset" />
		<tag k="natural" v="cape" />
		<tag k="ssr:stedsnr" v="516994" />
	</node>
	<node id="-621205" lat="68.3800249964" lon="17.2100749882">
		<tag k="fixme" v="multiple name tags, choose one and add the other to alt_name" />
		<tag k="name" v="Lauvbergklubben;Løbergneset" />
		<tag k="natural" v="cape" />
		<tag k="ssr:stedsnr" v="382957" />
	</node>
	<node id="-621206" lat="68.3942222196" lon="17.2516083337">
		<tag k="name" v="Einebærneset" />
		<tag k="natural" v="cape" />
		<tag k="ssr:stedsnr" v="382999" />
	</node>
	<node id="-622226" lat="68.3170999981" lon="17.2708916594">
		<tag k="name" v="Seljevika" />
		<tag k="natural" v="bay" />
		<tag k="ssr:stedsnr" v="510967" />
	</node>
	<node id="-622225" lat="68.3168527797" lon="17.2812138861">
		<tag k="name" v="Stranda" />
		<tag k="natural" v="beach" />
		<tag k="place" v="locality" />
		<tag k="ssr:stedsnr" v="510966" />
	</node>
	<node id="-622735" lat="68.3035916662" lon="17.2589666694">
		<tag k="name" v="Yttervika" />
		<tag k="natural" v="bay" />
		<tag k="ssr:stedsnr" v="745846" />
	</node>
	<node id="-622221" lat="68.4146750007" lon="17.4035583397">
		<tag k="alt_name" v="Jektnes" />
		<tag k="name" v="Jektneset" />
		<tag k="natural" v="cape" />
		<tag k="ssr:stedsnr" v="510627" />
	</node>
	<node id="-622731" lat="68.532963887" lon="17.5696666515">
		<tag k="alt_name" v="Hamnvik" />
		<tag k="name" v="Hamnvika" />
		<tag k="natural" v="bay" />
		<tag k="ssr:stedsnr" v="745767" />
	</node>
	<node id="-621192" lat="68.3133638938" lon="17.3018027672">
		<tag k="name" v="Tømmervika" />
		<tag k="natural" v="bay" />
		<tag k="ssr:stedsnr" v="381887" />
	</node>
	<node id="-621188" lat="68.303852777" lon="17.2912138804">
		<tag k="bay" v="fjord" />
		<tag k="name" v="Skjomen - Skievvá" />
		<tag k="name:no" v="Skjomen" />
		<tag k="name:se" v="Skievvá" />
		<tag k="natural" v="bay" />
		<tag k="ssr:stedsnr" v="381846" />
	</node>
	<node id="-621698" lat="68.4755777748" lon="17.5607444361">
		<tag k="name" v="Leirvikneset" />
		<tag k="natural" v="cape" />
		<tag k="ssr:stedsnr" v="151334" />
	</node>
	<node id="-621419" lat="68.3930611122" lon="17.1434666576">
		<tag k="name" v="Bryggeberget" />
		<tag k="natural" v="cape" />
		<tag k="ssr:stedsnr" v="25848" />
	</node>
	<node id="-621696" lat="68.4976499994" lon="17.4997888927">
		<tag k="fixme" v="consider seamark:type=rock or natural=shoal" />
		<tag k="name" v="Purkeskjæret" />
		<tag k="place" v="islet" />
		<tag k="ssr:stedsnr" v="151291" />
	</node>
	<node id="-623231" lat="68.3940999991" lon="17.4791499934">
		<tag k="name" v="Lappneset" />
		<tag k="natural" v="cape" />
		<tag k="ssr:stedsnr" v="940352" />
	</node>
	<node id="-622203" lat="68.4737916641" lon="17.5657499919">
		<tag k="name" v="Gjerdeneset" />
		<tag k="natural" v="cape" />
		<tag k="ssr:stedsnr" v="510402" />
	</node>
	<node id="-621689" lat="68.3912250028" lon="17.1885638892">
		<tag k="name" v="Røsåsneset" />
		<tag k="natural" v="cape" />
		<tag k="ssr:stedsnr" v="146854" />
	</node>
	<node id="-623224" lat="68.4654305523" lon="17.4918249898">
		<tag k="name" v="Ytternes" />
		<tag k="natural" v="cape" />
		<tag k="ssr:stedsnr" v="936267" />
	</node>
	<node id="-623222" lat="68.4666805548" lon="17.4730166665">
		<tag k="name" v="Øyjordtangen" />
		<tag k="natural" v="cape" />
		<tag k="ssr:stedsnr" v="936239" />
	</node>
	<node id="-622195" lat="68.4749611148" lon="17.6325555456">
		<tag k="name" v="Storvika" />
		<tag k="natural" v="bay" />
		<tag k="ssr:stedsnr" v="510326" />
	</node>
	<node id="-621170" lat="68.5025861127" lon="17.5375361128">
		<tag k="name" v="Løneset" />
		<tag k="natural" v="cape" />
		<tag k="ssr:stedsnr" v="381653" />
	</node>
	<node id="-622705" lat="68.4540583337" lon="17.547386101">
		<tag k="name" v="Steinsvika" />
		<tag k="natural" v="bay" />
		<tag k="ssr:stedsnr" v="745257" />
	</node>
	<node id="-622704" lat="68.465205554" lon="17.4769527637">
		<tag k="name" v="Øyjordneset" />
		<tag k="natural" v="cape" />
		<tag k="ssr:stedsnr" v="745250" />
	</node>
	<node id="-621162" lat="68.4365183979" lon="17.6704694355">
		<tag k="name" v="Slåttvika" />
		<tag k="natural" v="bay" />
		<tag k="ssr:stedsnr" v="381465" />
	</node>
	<node id="-621415" lat="68.4056694404" lon="17.4223805524">
		<tag k="name" v="Millerjordnes" />
		<tag k="natural" v="cape" />
		<tag k="ssr:stedsnr" v="25605" />
	</node>
	<node id="-622696" lat="68.397950003" lon="17.5007138998">
		<tag k="name" v="Ytre Grorlineset" />
		<tag k="natural" v="cape" />
		<tag k="ssr:stedsnr" v="732694" />
	</node>
	<node id="-622353" lat="68.4928750028" lon="17.5142055494">
		<tag k="name" v="Osen" />
		<tag k="natural" v="bay" />
		<tag k="ssr:stedsnr" v="571419" />
	</node>
	<node id="-621667" lat="68.494722225" lon="17.5167583409">
		<tag k="name" v="Flatholmen" />
		<tag k="natural" v="cape" />
		<tag k="ssr:stedsnr" v="146378" />
	</node>
	<node id="-622178" lat="68.3712944463" lon="17.2474499882">
		<tag k="name" v="Trong-Skjomneset" />
		<tag k="natural" v="cape" />
		<tag k="ssr:stedsnr" v="507683" />
	</node>
	<node id="-622176" lat="68.4913972211" lon="17.3406305622">
		<tag k="name" v="Ytter-Storneset" />
		<tag k="natural" v="cape" />
		<tag k="ssr:stedsnr" v="507666" />
	</node>
	<node id="-622175" lat="68.1987361109" lon="17.3185555478">
		<tag k="name" v="Per Lapp-vika" />
		<tag k="natural" v="bay" />
		<tag k="ssr:stedsnr" v="507645" />
	</node>
	<node id="-623198" lat="68.5286331545" lon="17.4818624642">
		<tag k="name" v="Slettjordneset" />
		<tag k="natural" v="cape" />
		<tag k="ssr:stedsnr" v="935295" />
	</node>
	<node id="-621157" lat="68.4522916694" lon="17.5552749956">
		<tag k="alt_name" v="Djupvika, in" />
		<tag k="name" v="Indre Djupvik" />
		<tag k="natural" v="bay" />
		<tag k="ssr:stedsnr" v="381243" />
	</node>
	<node id="-622351" lat="68.4960527752" lon="17.5151000058">
		<tag k="name" v="Klubba" />
		<tag k="place" v="islet" />
		<tag k="ssr:stedsnr" v="571415" />
	</node>
	<node id="-623191" lat="68.4182111084" lon="17.3911638897">
		<tag k="name" v="Klokkarvika" />
		<tag k="natural" v="bay" />
		<tag k="ssr:stedsnr" v="935610" />
	</node>
	<node id="-621140" lat="68.3754611101" lon="17.556536118">
		<tag k="name" v="Beisfjordgubben" />
		<tag k="natural" v="cape" />
		<tag k="ssr:stedsnr" v="380214" />
	</node>
	<node id="-622161" lat="68.3199555601" lon="17.2620833267">
		<tag k="name" v="Karvevika" />
		<tag k="natural" v="bay" />
		<tag k="ssr:stedsnr" v="503822" />
	</node>
	<node id="-622160" lat="68.3386749959" lon="17.2760388935">
		<tag k="name" v="Mølnvika" />
		<tag k="natural" v="bay" />
		<tag k="ssr:stedsnr" v="503808" />
	</node>
	<node id="-621645" lat="68.3710444422" lon="17.235125004">
		<tag k="name" v="Skjærvikneset" />
		<tag k="natural" v="cape" />
		<tag k="ssr:stedsnr" v="142681" />
	</node>
	<node id="-622155" lat="68.491536112" lon="17.4987083318">
		<tag k="name" v="Tennholmen" />
		<tag k="place" v="islet" />
		<tag k="ssr:stedsnr" v="503722" />
	</node>
	<node id="-623176" lat="68.4154777795" lon="17.2129555607">
		<tag k="name" v="Skjomgrunnen" />
		<tag k="natural" v="shoal" />
		<tag k="place" v="locality" />
		<tag k="ssr:stedsnr" v="928991" />
	</node>
	<node id="-623175" lat="68.4433555583" lon="17.3914416546">
		<tag k="name" v="Kvitvika" />
		<tag k="natural" v="bay" />
		<tag k="ssr:stedsnr" v="928981" />
	</node>
	<node id="-622662" lat="68.3852805596" lon="17.0738805459">
		<tag k="name" v="Sildvikodden" />
		<tag k="natural" v="cape" />
		<tag k="ssr:stedsnr" v="692735" />
	</node>
	<node id="-622148" lat="68.3847444487" lon="17.5283472231">
		<tag k="name" v="Smalneset" />
		<tag k="natural" v="cape" />
		<tag k="ssr:stedsnr" v="503440" />
	</node>
	<node id="-622147" lat="68.4691472229" lon="17.5007222262">
		<tag k="name" v="Slåttvika" />
		<tag k="natural" v="bay" />
		<tag k="ssr:stedsnr" v="503435" />
	</node>
	<node id="-623170" lat="68.3649944423" lon="17.2582722257">
		<tag k="name" v="Hesjevika" />
		<tag k="natural" v="bay" />
		<tag k="ssr:stedsnr" v="928923" />
	</node>
	<node id="-622656" lat="68.4098722181" lon="17.4373777844">
		<tag k="name" v="Holmen" />
		<tag k="natural" v="cape" />
		<tag k="ssr:stedsnr" v="692510" />
	</node>
	<node id="-623200" lat="68.3790027794" lon="17.5950138784">
		<tag k="name" v="Osen" />
		<tag k="natural" v="bay" />
		<tag k="ssr:stedsnr" v="935337" />
	</node>
	<node id="-622140" lat="68.4414833322" lon="17.701022218">
		<tag k="name" v="Straumen" />
		<tag k="natural" v="strait" />
		<tag k="ssr:stedsnr" v="503172" />
	</node>
	<node id="-621627" lat="68.3334861077" lon="17.2774583416">
		<tag k="name" v="Kongsbakkneset" />
		<tag k="natural" v="cape" />
		<tag k="ssr:stedsnr" v="139829" />
	</node>
	<node id="-622650" lat="68.3765333303" lon="17.5561416577">
		<tag k="name" v="Bertneset" />
		<tag k="natural" v="cape" />
		<tag k="ssr:stedsnr" v="692273" />
	</node>
	<node id="-623160" lat="68.4847805564" lon="17.4852583218">
		<tag k="alt_name" v="Raudholmen" />
		<tag k="name" v="Rødholmen" />
		<tag k="place" v="islet" />
		<tag k="ssr:stedsnr" v="928747" />
	</node>
	<node id="-621895" lat="68.4318027761" lon="17.734974991">
		<tag k="alt_name" v="Klubbnes" />
		<tag k="name" v="Klubbneset" />
		<tag k="natural" v="cape" />
		<tag k="ssr:stedsnr" v="260248" />
	</node>
	<node id="-623158" lat="68.4736722204" lon="17.4724777676">
		<tag k="alt_name" v="Nilslarsvika" />
		<tag k="name" v="Nils Larsvika" />
		<tag k="natural" v="bay" />
		<tag k="ssr:stedsnr" v="928737" />
	</node>
	<node id="-621511" lat="68.4834638889" lon="17.3152916607">
		<tag k="name" v="Hamn" />
		<tag k="natural" v="bay" />
		<tag k="ssr:stedsnr" v="82650" />
	</node>
	<node id="-621108" lat="68.4474555573" lon="17.40961944">
		<tag k="alt_name" v="Litlevika" />
		<tag k="name" v="Lillevika" />
		<tag k="natural" v="bay" />
		<tag k="ssr:stedsnr" v="333694" />
	</node>
	<node id="-622686" lat="68.3072583381" lon="17.3215138803">
		<tag k="name" v="Yttervika" />
		<tag k="natural" v="bay" />
		<tag k="ssr:stedsnr" v="706881" />
	</node>
	<node id="-621617" lat="68.3601666663" lon="17.2389972102">
		<tag k="name" v="Erikvika" />
		<tag k="natural" v="bay" />
		<tag k="ssr:stedsnr" v="138885" />
	</node>
	<node id="-623151" lat="68.5343166636" lon="17.5019444392">
		<tag k="name" v="Galtneset" />
		<tag k="natural" v="cape" />
		<tag k="ssr:stedsnr" v="928690" />
	</node>
	<node id="-621614" lat="68.2627333347" lon="17.4046861144">
		<tag k="name" v="Nausttofta" />
		<tag k="natural" v="cape" />
		<tag k="ssr:stedsnr" v="138800" />
	</node>
	<node id="-621101" lat="68.315061115" lon="17.2839222316">
		<tag k="name" v="Innerneset" />
		<tag k="natural" v="cape" />
		<tag k="ssr:stedsnr" v="328961" />
	</node>
	<node id="-622634" lat="68.290666666" lon="17.2974277877">
		<tag k="name" v="Gressvika" />
		<tag k="natural" v="bay" />
		<tag k="ssr:stedsnr" v="689634" />
	</node>
	<node id="-623145" lat="68.5170111119" lon="17.5549500096">
		<tag k="name" v="Geisvikklubben" />
		<tag k="natural" v="cape" />
		<tag k="ssr:stedsnr" v="928606" />
	</node>
	<node id="-622940" lat="68.425155558" lon="17.341819432">
		<tag k="name" v="Hatteberget" />
		<tag k="natural" v="cape" />
		<tag k="ssr:stedsnr" v="814574" />
	</node>
	<node id="-621758" lat="68.4074222227" lon="17.4260055539">
		<tag k="name" v="Fagernesstraumen - Čoalbmi" />
		<tag k="name:no" v="Fagernesstraumen" />
		<tag k="name:se" v="Čoalbmi" />
		<tag k="natural" v="strait" />
		<tag k="ssr:stedsnr" v="199278" />
	</node>
	<node id="-623139" lat="68.412677781" lon="17.8392583332">
		<tag k="name" v="Håkjerringgrunnen" />
		<tag k="natural" v="shoal" />
		<tag k="place" v="locality" />
		<tag k="ssr:stedsnr" v="928211" />
	</node>
	<node id="-623138" lat="68.4595472187" lon="17.5887861122">
		<tag k="bay" v="fjord" />
		<tag k="name" v="Rombaken - Ruoppat" />
		<tag k="name:no" v="Rombaken" />
		<tag k="name:se" v="Ruoppat" />
		<tag k="natural" v="bay" />
		<tag k="ssr:stedsnr" v="928210" />
	</node>
	<node id="-623136" lat="68.4364444445" lon="17.7164999862">
		<tag k="name" v="Pålvika" />
		<tag k="natural" v="bay" />
		<tag k="ssr:stedsnr" v="928172" />
	</node>
	<node id="-622622" lat="68.3743166688" lon="17.2537472179">
		<tag k="name" v="Lappstøa" />
		<tag k="natural" v="cape" />
		<tag k="ssr:stedsnr" v="685967" />
	</node>
	<node id="-621109" lat="68.4498666667" lon="17.4536694369">
		<tag k="name" v="Ornesvika" />
		<tag k="natural" v="bay" />
		<tag k="ssr:stedsnr" v="333700" />
	</node>
	<node id="-622511" lat="68.4899333352" lon="17.5023250025">
		<tag k="name" v="Skogholmen" />
		<tag k="place" v="islet" />
		<tag k="ssr:stedsnr" v="631523" />
	</node>
	<node id="-622613" lat="68.4996583381" lon="17.5209305492">
		<tag k="fixme" v="multiple name tags, choose one and add the other to alt_name" />
		<tag k="name" v="Kufiskholmen;Kufiskskjæret" />
		<tag k="place" v="islet" />
		<tag k="ssr:stedsnr" v="685795" />
	</node>
	<node id="-621588" lat="68.4517861091" lon="17.4594194454">
		<tag k="name" v="Orneset - Oarrenjárga" />
		<tag k="name:no" v="Orneset" />
		<tag k="name:se" v="Oarrenjárga" />
		<tag k="natural" v="cape" />
		<tag k="ssr:stedsnr" v="138235" />
	</node>
	<node id="-621075" lat="68.2759194426" lon="17.3904916615">
		<tag k="name" v="Mølnneset" />
		<tag k="natural" v="cape" />
		<tag k="ssr:stedsnr" v="423761" />
	</node>
	<node id="-622095" lat="68.4425972206" lon="17.6566138747">
		<tag k="name" v="Nøkkelvika" />
		<tag k="natural" v="bay" />
		<tag k="ssr:stedsnr" v="464079" />
	</node>
	<node id="-623116" lat="68.4979250006" lon="17.3562194511">
		<tag k="name" v="Inner-Tortenneset" />
		<tag k="natural" v="cape" />
		<tag k="ssr:stedsnr" v="927541" />
	</node>
	<node id="-622603" lat="68.5445916699" lon="17.5222722152">
		<tag k="name" v="Kvitbergvika" />
		<tag k="natural" v="bay" />
		<tag k="ssr:stedsnr" v="685703" />
	</node>
	<node id="-621578" lat="68.4150388937" lon="17.301758321">
		<tag k="name" v="Sjøbuneset" />
		<tag k="natural" v="cape" />
		<tag k="ssr:stedsnr" v="268540" />
	</node>
	<node id="-622089" lat="68.5058416651" lon="17.5370611062">
		<tag k="fixme" v="consider seamark:type=rock or natural=shoal" />
		<tag k="name" v="Storslettskjæret" />
		<tag k="place" v="islet" />
		<tag k="ssr:stedsnr" v="455248" />
	</node>
	<node id="-621058" lat="68.3210250005" lon="17.2630027712">
		<tag k="name" v="Karvenes" />
		<tag k="natural" v="cape" />
		<tag k="ssr:stedsnr" v="321849" />
	</node>
	<node id="-621062" lat="68.4312638855" lon="17.3866777822">
		<tag k="name" v="Framnes" />
		<tag k="natural" v="cape" />
		<tag k="ssr:stedsnr" v="321972" />
	</node>
	<node id="-621602" lat="68.2191749965" lon="17.3342805511">
		<tag k="bay" v="fjord" />
		<tag k="name" v="Sør-Skjomen - Orjješ-Skievvá" />
		<tag k="name:no" v="Sør-Skjomen" />
		<tag k="name:se" v="Orjješ-Skievvá" />
		<tag k="natural" v="bay" />
		<tag k="ssr:stedsnr" v="138716" />
	</node>
	<node id="-621572" lat="68.4467916667" lon="17.4045694429">
		<tag k="name" v="Einarvika" />
		<tag k="natural" v="bay" />
		<tag k="ssr:stedsnr" v="119986" />
	</node>
	<node id="-620991" lat="68.3613111107" lon="17.2613583299">
		<tag k="name" v="Brurskjærvika" />
		<tag k="natural" v="bay" />
		<tag k="ssr:stedsnr" v="282844" />
	</node>
	<node id="-621569" lat="68.2721999997" lon="17.3996194326">
		<tag k="name" v="Aspevikklubben" />
		<tag k="natural" v="cape" />
		<tag k="ssr:stedsnr" v="119741" />
	</node>
</osm>
