<?xml version="1.0" encoding="UTF-8"?>
<osm generator="osmapis" version="0.6">
	<node id="-620544" lat="68.4576972255" lon="17.9629666526">
		<tag k="name" v="Matvatnet" />
		<tag k="natural" v="water" />
		<tag k="ssr:stedsnr" v="78229" />
	</node>
	<node id="-620543" lat="68.4344916636" lon="17.6345583366">
		<tag k="name" v="Fagerjordelva" />
		<tag k="ssr:stedsnr" v="78226" />
		<tag k="waterway" v="stream" />
	</node>
	<node id="-620534" lat="68.0570027813" lon="17.8610666683">
		<tag k="name" v="Trehakfjellvatnet" />
		<tag k="natural" v="water" />
		<tag k="ssr:stedsnr" v="77659" />
		<tag k="water" v="lake" />
	</node>
	<node id="-620529" lat="68.3598111148" lon="17.9457833246">
		<tag k="name" v="Krokvatnet" />
		<tag k="natural" v="water" />
		<tag k="ssr:stedsnr" v="77154" />
	</node>
	<node id="-620528" lat="68.3742972192" lon="17.9856805441">
		<tag k="name" v="Tindelva" />
		<tag k="ssr:stedsnr" v="77150" />
		<tag k="waterway" v="stream" />
	</node>
	<node id="-620527" lat="68.3405055586" lon="17.9067110978">
		<tag k="name" v="Šlubbojávri" />
		<tag k="name:se" v="Šlubbojávri" />
		<tag k="natural" v="water" />
		<tag k="ssr:stedsnr" v="77141" />
	</node>
	<node id="-620520" lat="68.549466667" lon="17.6824111181">
		<tag k="name" v="Bjerkeneset" />
		<tag k="natural" v="cape" />
		<tag k="ssr:stedsnr" v="58175" />
	</node>
	<node id="-620507" lat="68.2077500004" lon="17.4881055565">
		<tag k="name" v="Kobbhølla" />
		<tag k="natural" v="water" />
		<tag k="ssr:stedsnr" v="39679" />
		<tag k="water" v="lake" />
	</node>
	<node id="-620500" lat="68.1779833355" lon="17.5503222142">
		<tag k="name" v="Langhola" />
		<tag k="natural" v="cape" />
		<tag k="ssr:stedsnr" v="39083" />
	</node>
	<node id="-620499" lat="68.173452778" lon="17.5472860999">
		<tag k="name" v="Orhølla" />
		<tag k="natural" v="water" />
		<tag k="ssr:stedsnr" v="39080" />
		<tag k="water" v="lake" />
	</node>
	<node id="-620498" lat="68.1801138928" lon="17.5496444431">
		<tag k="name" v="Bogholmstranden" />
		<tag k="natural" v="beach" />
		<tag k="ssr:stedsnr" v="39077" />
	</node>
	<node id="-620494" lat="68.3881722192" lon="17.3108027732">
		<tag k="name" v="Billtlielva" />
		<tag k="ssr:stedsnr" v="25955" />
		<tag k="waterway" v="river" />
	</node>
	<node id="-620487" lat="68.4101638854" lon="17.3163972309">
		<tag k="name" v="Mølnelva" />
		<tag k="ssr:stedsnr" v="25522" />
		<tag k="waterway" v="river" />
	</node>
	<node id="-620486" lat="68.2428305526" lon="17.4035277772">
		<tag k="name" v="Prestslåttosen" />
		<tag k="natural" v="bay" />
		<tag k="ssr:stedsnr" v="25499" />
	</node>
	<node id="-620472" lat="68.5221583297" lon="17.3657583401">
		<tag k="name" v="Fuglvatnan" />
		<tag k="natural" v="water" />
		<tag k="ssr:stedsnr" v="25283" />
		<tag k="water" v="lake" />
	</node>
	<node id="-620467" lat="68.4663583374" lon="17.6713944377">
		<tag k="name" v="Skjellelva" />
		<tag k="ssr:stedsnr" v="25023" />
		<tag k="waterway" v="river" />
	</node>
	<node id="-620461" lat="68.5126388905" lon="17.799725008">
		<tag k="name" v="Sirkelbukta" />
		<tag k="natural" v="bay" />
		<tag k="ssr:stedsnr" v="22686" />
	</node>
	<node id="-620460" lat="68.5048472216" lon="17.8125138787">
		<tag k="name" v="Blindtarmen" />
		<tag k="natural" v="bay" />
		<tag k="ssr:stedsnr" v="22677" />
	</node>
	<node id="-620454" lat="68.5148361097" lon="17.2932138831">
		<tag k="name" v="Slagåselva" />
		<tag k="ssr:stedsnr" v="20649" />
		<tag k="waterway" v="stream" />
	</node>
	<node id="-620452" lat="68.5337249994" lon="17.3613749873">
		<tag k="name" v="Båtvatnet" />
		<tag k="natural" v="water" />
		<tag k="ssr:stedsnr" v="20586" />
		<tag k="water" v="lake" />
	</node>
	<node id="-620451" lat="68.5365000023" lon="17.3604499979">
		<tag k="name" v="Storelva - Badje-Stuorjohka" />
		<tag k="name:no" v="Storelva" />
		<tag k="name:se" v="Badje-Stuorjohka" />
		<tag k="ssr:stedsnr" v="20538" />
		<tag k="waterway" v="river" />
	</node>
	<node id="-620449" lat="68.4052777767" lon="17.3975611079">
		<tag k="name" v="Storelva" />
		<tag k="ssr:stedsnr" v="18989" />
		<tag k="waterway" v="stream" />
	</node>
	<node id="-620441" lat="68.3532055533" lon="17.1912055529">
		<tag k="name" v="Jollvatnet" />
		<tag k="natural" v="water" />
		<tag k="ssr:stedsnr" v="18854" />
	</node>
	<node id="-620435" lat="68.4739055522" lon="17.7565388834">
		<tag k="name" v="Nygårdsvatnet" />
		<tag k="natural" v="water" />
		<tag k="ssr:stedsnr" v="18713" />
		<tag k="water" v="lake" />
	</node>
	<node id="-620434" lat="68.5488583324" lon="17.7013444326">
		<tag k="name" v="Hallarneset" />
		<tag k="natural" v="cape" />
		<tag k="ssr:stedsnr" v="18664" />
	</node>
	<node id="-620430" lat="68.5699777745" lon="17.4521916667">
		<tag k="name" v="Langvatnet" />
		<tag k="natural" v="water" />
		<tag k="ssr:stedsnr" v="18648" />
	</node>
	<node id="-620428" lat="68.5124888858" lon="17.8856860962">
		<tag k="name" v="Skitdalsvatnet - Baikajávri" />
		<tag k="name:no" v="Skitdalsvatnet" />
		<tag k="name:se" v="Baikajávri" />
		<tag k="natural" v="water" />
		<tag k="ssr:stedsnr" v="18597" />
	</node>
	<node id="-620427" lat="68.536155555" lon="17.4730111068">
		<tag k="name" v="Mølnelva" />
		<tag k="ssr:stedsnr" v="18162" />
		<tag k="waterway" v="stream" />
	</node>
	<node id="-620426" lat="68.3890499999" lon="18.0955472163">
		<tag k="name" v="Gátterjávri" />
		<tag k="name:se" v="Gátterjávri" />
		<tag k="natural" v="water" />
		<tag k="ssr:stedsnr" v="18089" />
		<tag k="water" v="lake" />
	</node>
	<node id="-620423" lat="68.2789249976" lon="17.4093388924">
		<tag k="name" v="Mølnelva" />
		<tag k="ssr:stedsnr" v="17852" />
		<tag k="waterway" v="river" />
	</node>
	<node id="-620422" lat="68.2822222248" lon="17.2985416563">
		<tag k="name" v="Forselva" />
		<tag k="ssr:stedsnr" v="17849" />
		<tag k="waterway" v="stream" />
	</node>
	<node id="-620413" lat="68.1906611065" lon="17.550091669">
		<tag k="name" v="Storfallet" />
		<tag k="natural" v="waterfall" />
		<tag k="ssr:stedsnr" v="17714" />
	</node>
	<node id="-620411" lat="68.066430553" lon="17.6934861002">
		<tag k="name" v="Øvre Kjørrisvatnet - Čoarddajávri" />
		<tag k="name:no" v="Øvre Kjørrisvatnet" />
		<tag k="name:se" v="Čoarddajávri" />
		<tag k="natural" v="water" />
		<tag k="ssr:stedsnr" v="17671" />
		<tag k="water" v="lake" />
	</node>
	<node id="-620410" lat="68.5836250026" lon="17.7404916557">
		<tag k="name" v="Stor-Leigasvatnet - Leaiggasjávri" />
		<tag k="name:no" v="Stor-Leigasvatnet" />
		<tag k="name:se" v="Leaiggasjávri" />
		<tag k="natural" v="water" />
		<tag k="old_name:se" v="Læigasjavri" />
		<tag k="ssr:stedsnr" v="17552" />
		<tag k="water" v="lake" />
	</node>
	<node id="-620408" lat="68.4029249973" lon="17.6611027787">
		<tag k="name" v="Tøttavatnet" />
		<tag k="natural" v="water" />
		<tag k="ssr:stedsnr" v="17292" />
	</node>
	<node id="-620406" lat="68.3779750003" lon="17.9818972114">
		<tag k="name" v="Sørdalsfossen" />
		<tag k="natural" v="waterfall" />
		<tag k="ssr:stedsnr" v="17267" />
	</node>
	<node id="-620403" lat="68.3017249968" lon="17.4994749979">
		<tag k="name" v="Gaskabeaijávri" />
		<tag k="name:se" v="Gaskabeaijávri" />
		<tag k="natural" v="water" />
		<tag k="ssr:stedsnr" v="17219" />
	</node>
	<node id="-620400" lat="68.3646027789" lon="17.9480527656">
		<tag k="name" v="Langvatnet" />
		<tag k="natural" v="water" />
		<tag k="ssr:stedsnr" v="17171" />
	</node>
	<node id="-620396" lat="68.1837833375" lon="17.2522777675">
		<tag k="name" v="Vesterskarelva" />
		<tag k="ssr:stedsnr" v="16651" />
		<tag k="waterway" v="stream" />
	</node>
	<node id="-620395" lat="68.3610000025" lon="17.9241638755">
		<tag k="name" v="Raudtindvatnet" />
		<tag k="natural" v="water" />
		<tag k="ssr:stedsnr" v="16128" />
	</node>
	<node id="-620370" lat="68.1780361137" lon="17.5480861158">
		<tag k="name" v="Neset" />
		<tag k="natural" v="cape" />
		<tag k="ssr:stedsnr" v="889121" />
	</node>
	<node id="-620358" lat="68.3739166659" lon="17.3934000002">
		<tag k="name" v="Trongen" />
		<tag k="natural" v="strait" />
		<tag k="ssr:stedsnr" v="403677" />
	</node>
	<node id="-620339" lat="68.2649888897" lon="17.2443805654">
		<tag k="name" v="Storelvneset" />
		<tag k="natural" v="cape" />
		<tag k="ssr:stedsnr" v="389522" />
	</node>
	<node id="-620333" lat="68.4962027774" lon="17.5530527713">
		<tag k="name" v="Per Rasmuselva" />
		<tag k="ssr:stedsnr" v="389469" />
		<tag k="waterway" v="river" />
	</node>
	<node id="-620323" lat="68.3698305528" lon="17.6072694328">
		<tag k="name" v="Sørsidstorneset" />
		<tag k="natural" v="cape" />
		<tag k="ssr:stedsnr" v="389331" />
	</node>
	<node id="-620322" lat="68.366022225" lon="17.6003694498">
		<tag k="name" v="Nordsidstorneset" />
		<tag k="natural" v="cape" />
		<tag k="ssr:stedsnr" v="389332" />
	</node>
	<node id="-620311" lat="68.5188472245" lon="17.3913972127">
		<tag k="name" v="Krokelva" />
		<tag k="ssr:stedsnr" v="389283" />
		<tag k="waterway" v="river" />
	</node>
	<node id="-620306" lat="68.4657499979" lon="17.6844527827">
		<tag k="name" v="Moelva" />
		<tag k="ssr:stedsnr" v="389022" />
		<tag k="waterway" v="river" />
	</node>
	<node id="-620302" lat="68.4077555593" lon="17.3900750109">
		<tag k="name" v="Sandgropelva" />
		<tag k="ssr:stedsnr" v="388576" />
		<tag k="waterway" v="river" />
	</node>
	<node id="-620301" lat="68.4066555545" lon="17.3535222289">
		<tag k="name" v="Mølnelva" />
		<tag k="ssr:stedsnr" v="388570" />
		<tag k="waterway" v="river" />
	</node>
	<node id="-620297" lat="68.2317722225" lon="17.4219499912">
		<tag k="name" v="Sælbotosen" />
		<tag k="natural" v="bay" />
		<tag k="ssr:stedsnr" v="388459" />
	</node>
	<node id="-620285" lat="68.4937222234" lon="17.7552500056">
		<tag k="name" v="Langvasselva" />
		<tag k="ssr:stedsnr" v="385710" />
		<tag k="waterway" v="river" />
	</node>
	<node id="-620281" lat="68.5433111113" lon="17.3820472248">
		<tag k="alt_name" v="Storelvforsen" />
		<tag k="name" v="Storelvfossen" />
		<tag k="natural" v="waterfall" />
		<tag k="ssr:stedsnr" v="384571" />
	</node>
	<node id="-620278" lat="68.3383416664" lon="17.196708324">
		<tag k="name" v="Tronglivatnet" />
		<tag k="natural" v="water" />
		<tag k="ssr:stedsnr" v="382841" />
	</node>
	<node id="-620276" lat="68.4698527796" lon="17.8591444324">
		<tag k="alt_name" v="Haugfjellvatnet, nedre" />
		<tag k="name" v="Nedre Haugfjellvatnet" />
		<tag k="natural" v="water" />
		<tag k="ssr:stedsnr" v="382747" />
		<tag k="water" v="lake" />
	</node>
	<node id="-620270" lat="68.3559361147" lon="17.0958861146">
		<tag k="name" v="Hesjebakkvatnet" />
		<tag k="natural" v="water" />
		<tag k="ssr:stedsnr" v="381940" />
	</node>
	<node id="-620267" lat="68.1613138865" lon="18.0562749917">
		<tag k="name" v="Gállanjohka" />
		<tag k="name:se" v="Gállanjohka" />
		<tag k="ssr:stedsnr" v="381888" />
		<tag k="waterway" v="stream" />
	</node>
	<node id="-622312" lat="68.2981000005" lon="17.3670388819">
		<tag k="name" v="Skjellelva" />
		<tag k="ssr:stedsnr" v="949686" />
		<tag k="waterway" v="stream" />
	</node>
	<node id="-620261" lat="68.256241669" lon="17.2992416618">
		<tag k="name" v="Asekvatnet" />
		<tag k="natural" v="water" />
		<tag k="ssr:stedsnr" v="381837" />
	</node>
	<node id="-620258" lat="68.2330527801" lon="17.2939638931">
		<tag k="name" v="Storelva" />
		<tag k="ssr:stedsnr" v="381773" />
		<tag k="waterway" v="stream" />
	</node>
	<node id="-620255" lat="68.5370749955" lon="17.4562750042">
		<tag k="name" v="Herjangselva" />
		<tag k="ssr:stedsnr" v="381764" />
		<tag k="waterway" v="stream" />
	</node>
	<node id="-622302" lat="68.5265861107" lon="17.4394055654">
		<tag k="name" v="Bekken" />
		<tag k="ssr:stedsnr" v="936279" />
		<tag k="waterway" v="stream" />
	</node>
	<node id="-620154" lat="68.5289722251" lon="17.3531027865">
		<tag k="name" v="Knivslirelva" />
		<tag k="ssr:stedsnr" v="328235" />
		<tag k="waterway" v="river" />
	</node>
	<node id="-620242" lat="68.5918333336" lon="17.5813583423">
		<tag k="loc_name:se" v="Spárbalássájohka" />
		<tag k="name" v="Prestjordelva" />
		<tag k="name:no" v="Prestjordelva" />
		<tag k="ssr:stedsnr" v="381538" />
		<tag k="waterway" v="river" />
	</node>
	<node id="-620241" lat="68.5775749974" lon="17.6048638966">
		<tag k="name" v="Tverrelva" />
		<tag k="ssr:stedsnr" v="381539" />
		<tag k="waterway" v="stream" />
	</node>
	<node id="-620238" lat="68.5872777812" lon="17.6332777815">
		<tag k="name" v="Øyvatnet" />
		<tag k="natural" v="water" />
		<tag k="ssr:stedsnr" v="381529" />
	</node>
	<node id="-622284" lat="68.2489222232" lon="17.3997249925">
		<tag k="name" v="Toftosen" />
		<tag k="natural" v="bay" />
		<tag k="ssr:stedsnr" v="935500" />
	</node>
	<node id="-622283" lat="68.5619416695" lon="17.6597638779">
		<tag k="name" v="Sprutelva" />
		<tag k="ssr:stedsnr" v="935482" />
		<tag k="waterway" v="stream" />
	</node>
	<node id="-622282" lat="68.5592472201" lon="17.5823333185">
		<tag k="name" v="Nåkkvatnet" />
		<tag k="natural" v="water" />
		<tag k="ssr:stedsnr" v="935469" />
		<tag k="water" v="lake" />
	</node>
	<node id="-620233" lat="68.4450805551" lon="17.7373388772">
		<tag k="name" v="Lakselva - Luossaeatnu" />
		<tag k="name:no" v="Lakselva" />
		<tag k="name:se" v="Luossaeatnu" />
		<tag k="ssr:stedsnr" v="381454" />
		<tag k="waterway" v="river" />
	</node>
	<node id="-620232" lat="68.4168333314" lon="17.6912888896">
		<tag k="name" v="Boazojávri" />
		<tag k="name:se" v="Boazojávri" />
		<tag k="natural" v="water" />
		<tag k="ssr:stedsnr" v="381268" />
	</node>
	<node id="-620229" lat="68.4327833332" lon="17.9837416521">
		<tag k="name" v="Nedre Bruvatnet" />
		<tag k="natural" v="water" />
		<tag k="ssr:stedsnr" v="381228" />
		<tag k="water" v="lake" />
	</node>
	<node id="-620228" lat="68.4509333317" lon="17.7642916707">
		<tag k="name" v="Lakselvvatnet" />
		<tag k="natural" v="water" />
		<tag k="ssr:stedsnr" v="381212" />
		<tag k="water" v="lake" />
	</node>
	<node id="-620226" lat="68.4597555588" lon="18.0378888886">
		<tag k="name" v="Geitvatnan - Gáicajávrrit" />
		<tag k="name:no" v="Geitvatnan" />
		<tag k="name:se" v="Gáicajávrrit" />
		<tag k="natural" v="water" />
		<tag k="ssr:stedsnr" v="381179" />
	</node>
	<node id="-622272" lat="68.5292027798" lon="17.4206749904">
		<tag k="name" v="Lapp-Anna-fjellelva" />
		<tag k="ssr:stedsnr" v="935255" />
		<tag k="waterway" v="river" />
	</node>
	<node id="-620222" lat="68.4207499993" lon="18.0602499893">
		<tag k="name" v="Sivertsenvatnet" />
		<tag k="natural" v="water" />
		<tag k="ssr:stedsnr" v="381108" />
	</node>
	<node id="-620217" lat="68.4019222226" lon="17.8573888925">
		<tag k="name" v="Kviturelva" />
		<tag k="ssr:stedsnr" v="380232" />
		<tag k="waterway" v="stream" />
	</node>
	<node id="-620215" lat="68.3824722189" lon="17.9514888914">
		<tag k="name" v="Karlsenvatnet" />
		<tag k="natural" v="water" />
		<tag k="ssr:stedsnr" v="380219" />
	</node>
	<node id="-622261" lat="68.427797226" lon="17.9381166609">
		<tag k="name" v="Lille Rombaksvatnet" />
		<tag k="natural" v="water" />
		<tag k="ssr:stedsnr" v="932704" />
	</node>
	<node id="-622259" lat="68.4374305598" lon="18.0566861056">
		<tag k="name" v="Flatvatnet" />
		<tag k="natural" v="water" />
		<tag k="ssr:stedsnr" v="932681" />
	</node>
	<node id="-622258" lat="68.4063083323" lon="17.7833111167">
		<tag k="name" v="Raselva" />
		<tag k="ssr:stedsnr" v="932672" />
		<tag k="waterway" v="river" />
	</node>
	<node id="-622252" lat="68.3627749972" lon="17.1224777728">
		<tag k="name" v="Grønntuvvatnet" />
		<tag k="natural" v="water" />
		<tag k="ssr:stedsnr" v="932601" />
	</node>
	<node id="-620202" lat="68.5355000041" lon="17.8826527676">
		<tag k="fixme" v="multiple name tags, choose one and add the other to alt_name" />
		<tag k="name" v="Øver-Nevra;Øvre Neverfjellvatnet" />
		<tag k="natural" v="water" />
		<tag k="ssr:stedsnr" v="359146" />
		<tag k="water" v="lake" />
	</node>
	<node id="-622249" lat="68.3803388858" lon="17.3206805532">
		<tag k="name" v="Klefterågelva" />
		<tag k="ssr:stedsnr" v="928958" />
		<tag k="waterway" v="stream" />
	</node>
	<node id="-620145" lat="68.4804388853" lon="17.7186472203">
		<tag k="name" v="Holmen" />
		<tag k="place" v="islet" />
		<tag k="ssr:stedsnr" v="325690" />
	</node>
	<node id="-622243" lat="68.3539527768" lon="17.1251777744">
		<tag k="name" v="Storvatnet" />
		<tag k="natural" v="water" />
		<tag k="ssr:stedsnr" v="928874" />
	</node>
	<node id="-620194" lat="68.3454916706" lon="17.2860749943">
		<tag k="name" v="Teistbergelva" />
		<tag k="ssr:stedsnr" v="342806" />
		<tag k="waterway" v="stream" />
	</node>
	<node id="-620193" lat="68.3042694486" lon="17.3743499894">
		<tag k="name" v="Kvantforsen" />
		<tag k="natural" v="waterfall" />
		<tag k="ssr:stedsnr" v="342652" />
	</node>
	<node id="-622239" lat="68.4987499995" lon="17.7796361045">
		<tag k="name" v="Sirkelvatnet - Sierggaljávri" />
		<tag k="name:no" v="Sirkelvatnet" />
		<tag k="name:se" v="Sierggaljávri" />
		<tag k="natural" v="water" />
		<tag k="ssr:stedsnr" v="928789" />
		<tag k="water" v="lake" />
	</node>
	<node id="-622238" lat="68.2658722229" lon="17.2753555631">
		<tag k="name" v="Tverrelva" />
		<tag k="ssr:stedsnr" v="928778" />
		<tag k="waterway" v="stream" />
	</node>
	<node id="-622232" lat="68.4829861129" lon="17.9933555517">
		<tag k="name" v="Fiskelausvatnet" />
		<tag k="natural" v="water" />
		<tag k="ssr:stedsnr" v="928732" />
		<tag k="water" v="lake" />
	</node>
	<node id="-622225" lat="68.5405166627" lon="17.811916664">
		<tag k="name" v="Kopparfjellvatnet - Noalčejávri" />
		<tag k="name:no" v="Kopparfjellvatnet" />
		<tag k="name:se" v="Noalčejávri" />
		<tag k="natural" v="water" />
		<tag k="old_name:se" v="Noalčejavri" />
		<tag k="ssr:stedsnr" v="928687" />
	</node>
	<node id="-622224" lat="68.5655972186" lon="17.7913583413">
		<tag k="name" v="Vassdalselva - Eatnu" />
		<tag k="name:no" v="Vassdalselva" />
		<tag k="name:se" v="Eatnu" />
		<tag k="old_name:se" v="Ædno" />
		<tag k="ssr:stedsnr" v="928668" />
		<tag k="waterway" v="river" />
	</node>
	<node id="-622219" lat="68.5194861072" lon="17.5817944346">
		<tag k="name" v="Moelva" />
		<tag k="ssr:stedsnr" v="928607" />
		<tag k="waterway" v="stream" />
	</node>
	<node id="-622215" lat="68.5060277766" lon="18.0664249848">
		<tag k="name" v="Holmvatnet - Suolojávri" />
		<tag k="name:no" v="Holmvatnet" />
		<tag k="name:se" v="Suolojávri" />
		<tag k="natural" v="water" />
		<tag k="old_name:se" v="Suolujavri" />
		<tag k="ssr:stedsnr" v="928239" />
		<tag k="water" v="lake" />
	</node>
	<node id="-620159" lat="68.4726583336" lon="17.6446861172">
		<tag k="name" v="Mølnelva" />
		<tag k="ssr:stedsnr" v="328362" />
		<tag k="waterway" v="river" />
	</node>
	<node id="-622206" lat="68.3359333338" lon="17.4820944412">
		<tag k="alt_name" v="Gunhildelva" />
		<tag k="name" v="Gunnhildelva" />
		<tag k="ssr:stedsnr" v="928118" />
		<tag k="waterway" v="stream" />
	</node>
	<node id="-622205" lat="68.3701722245" lon="18.1010333354">
		<tag k="name" v="Dossaganjohka" />
		<tag k="name:se" v="Dossaganjohka" />
		<tag k="ssr:stedsnr" v="928081" />
		<tag k="waterway" v="stream" />
	</node>
	<node id="-622204" lat="68.3736999956" lon="17.1743638928">
		<tag k="name" v="Helligdagsvatnet" />
		<tag k="natural" v="water" />
		<tag k="ssr:stedsnr" v="927978" />
	</node>
	<node id="-620138" lat="68.5271305552" lon="17.3049472162">
		<tag k="name" v="Skallvatnet - Gállojávri" />
		<tag k="name:no" v="Skallvatnet" />
		<tag k="name:se" v="Gállojávri" />
		<tag k="natural" v="water" />
		<tag k="ssr:stedsnr" v="323580" />
		<tag k="water" v="lake" />
	</node>
	<node id="-622202" lat="68.1509888899" lon="17.3541916761">
		<tag k="name" v="Vasstjønnan" />
		<tag k="natural" v="water" />
		<tag k="ssr:stedsnr" v="927718" />
	</node>
	<node id="-622198" lat="68.1855027746" lon="17.5511833188">
		<tag k="name" v="Taterholmen" />
		<tag k="place" v="islet" />
		<tag k="ssr:stedsnr" v="927671" />
	</node>
	<node id="-622197" lat="68.1887555523" lon="17.5856722295">
		<tag k="name" v="Lossielva" />
		<tag k="ssr:stedsnr" v="927666" />
		<tag k="waterway" v="river" />
	</node>
	<node id="-620148" lat="68.4280194449" lon="17.9511610964">
		<tag k="name" v="Fiskebeinet" />
		<tag k="natural" v="water" />
		<tag k="ssr:stedsnr" v="325722" />
	</node>
	<node id="-620146" lat="68.462266668" lon="18.0366444537">
		<tag k="name" v="Nedre Geitvatnet" />
		<tag k="natural" v="water" />
		<tag k="ssr:stedsnr" v="325698" />
	</node>
	<node id="-622193" lat="68.1390777786" lon="17.5151861084">
		<tag k="name" v="Tverrelva" />
		<tag k="ssr:stedsnr" v="927629" />
		<tag k="waterway" v="stream" />
	</node>
	<node id="-620144" lat="68.3187277807" lon="17.6352722163">
		<tag k="name" v="Skamdalselva - Skápmajohka" />
		<tag k="name:no" v="Skamdalselva" />
		<tag k="name:se" v="Skápmajohka" />
		<tag k="ssr:stedsnr" v="325680" />
		<tag k="waterway" v="river" />
	</node>
	<node id="-622189" lat="68.3833722224" lon="17.9386666614">
		<tag k="name" v="Tappelvvatnet" />
		<tag k="natural" v="water" />
		<tag k="old_name" v="Tappelvatnet" />
		<tag k="ssr:stedsnr" v="927244" />
	</node>
	<node id="-620139" lat="68.5212833302" lon="17.3460500061">
		<tag k="name" v="Fuglevatnan" />
		<tag k="natural" v="water" />
		<tag k="ssr:stedsnr" v="323640" />
		<tag k="water" v="lake" />
	</node>
	<node id="-622186" lat="68.3932750038" lon="17.8854166725">
		<tag k="name" v="Kviturvatnet" />
		<tag k="natural" v="water" />
		<tag k="ssr:stedsnr" v="927231" />
	</node>
	<node id="-620135" lat="68.3645500049" lon="17.3538916581">
		<tag k="name" v="Peppartuvvatnet" />
		<tag k="natural" v="water" />
		<tag k="ssr:stedsnr" v="321913" />
	</node>
	<node id="-622182" lat="68.3553416703" lon="17.4906000111">
		<tag k="name" v="Skilelva" />
		<tag k="ssr:stedsnr" v="927136" />
		<tag k="waterway" v="stream" />
	</node>
	<node id="-620133" lat="68.3606055557" lon="17.2064250041">
		<tag k="name" v="Halvkannelva" />
		<tag k="ssr:stedsnr" v="321855" />
		<tag k="waterway" v="stream" />
	</node>
	<node id="-620134" lat="68.3488999967" lon="17.172469447">
		<tag k="name" v="Bakhammarvatnet" />
		<tag k="natural" v="water" />
		<tag k="ssr:stedsnr" v="321882" />
	</node>
	<node id="-620126" lat="68.4901722209" lon="17.670511102">
		<tag k="name" v="Daltindvatnet" />
		<tag k="natural" v="water" />
		<tag k="ssr:stedsnr" v="321784" />
	</node>
	<node id="-620124" lat="68.4814861105" lon="17.7191388952">
		<tag k="name" v="Store Trollvatnet" />
		<tag k="natural" v="water" />
		<tag k="ssr:stedsnr" v="321732" />
		<tag k="water" v="lake" />
	</node>
	<node id="-620116" lat="68.5736666674" lon="17.4511138817">
		<tag k="name" v="Rompa" />
		<tag k="natural" v="water" />
		<tag k="ssr:stedsnr" v="321685" />
	</node>
	<node id="-622162" lat="68.5961527763" lon="17.6407555543">
		<tag k="name" v="Kvanndalvatnan" />
		<tag k="natural" v="water" />
		<tag k="ssr:stedsnr" v="878482" />
		<tag k="water" v="lake" />
	</node>
	<node id="-620112" lat="68.526874998" lon="17.6985222074">
		<tag k="name" v="Fiskelausvatnet - Guoleheapmi" />
		<tag k="name:no" v="Fiskelausvatnet" />
		<tag k="name:se" v="Guoleheapmi" />
		<tag k="natural" v="water" />
		<tag k="ssr:stedsnr" v="321617" />
		<tag k="water" v="lake" />
	</node>
	<node id="-620111" lat="68.5138694425" lon="17.5793055407">
		<tag k="name" v="Gårdselva" />
		<tag k="ssr:stedsnr" v="321603" />
		<tag k="waterway" v="stream" />
	</node>
	<node id="-622158" lat="68.5329888914" lon="17.2900638763">
		<tag k="name" v="Midalselva" />
		<tag k="ssr:stedsnr" v="875512" />
		<tag k="waterway" v="stream" />
	</node>
	<node id="-620109" lat="68.5775888903" lon="17.4465388889">
		<tag k="name" v="Maridalsvatnet - Váibmojávri" />
		<tag k="name:no" v="Maridalsvatnet" />
		<tag k="name:se" v="Váibmojávri" />
		<tag k="natural" v="water" />
		<tag k="old_name:se" v="Vaibmujavri" />
		<tag k="ssr:stedsnr" v="321513" />
		<tag k="water" v="lake" />
	</node>
	<node id="-620108" lat="68.3616666631" lon="17.6022999935">
		<tag k="name" v="Lakselva" />
		<tag k="ssr:stedsnr" v="321434" />
		<tag k="waterway" v="river" />
	</node>
	<node id="-620102" lat="68.303991663" lon="17.4507749955">
		<tag k="name" v="Bihparjávri" />
		<tag k="name:se" v="Bihparjávri" />
		<tag k="natural" v="water" />
		<tag k="ssr:stedsnr" v="321177" />
	</node>
	<node id="-620101" lat="68.3149416641" lon="17.5817749967">
		<tag k="name" v="Einarajávri" />
		<tag k="name:se" v="Einarajávri" />
		<tag k="natural" v="water" />
		<tag k="ssr:stedsnr" v="321166" />
	</node>
	<node id="-620099" lat="68.4914694415" lon="18.0218611176">
		<tag k="name" v="Lomtjønna" />
		<tag k="natural" v="water" />
		<tag k="ssr:stedsnr" v="321154" />
	</node>
	<node id="-620096" lat="68.1876361154" lon="18.0542388795">
		<tag k="name" v="Ákšoluoppal" />
		<tag k="name:se" v="Ákšoluoppal" />
		<tag k="natural" v="water" />
		<tag k="ssr:stedsnr" v="320870" />
	</node>
	<node id="-620093" lat="68.4613500007" lon="17.8821361066">
		<tag k="alt_name" v="Haugfjellvatnet, øvre" />
		<tag k="name" v="Øvre Haugfjellvatnet" />
		<tag k="natural" v="water" />
		<tag k="ssr:stedsnr" v="320778" />
		<tag k="water" v="lake" />
	</node>
	<node id="-620084" lat="68.1735916673" lon="17.7285111014">
		<tag k="name" v="Nordelva" />
		<tag k="ssr:stedsnr" v="320653" />
		<tag k="waterway" v="river" />
	</node>
	<node id="-622129" lat="68.5591833364" lon="17.7001305425">
		<tag k="name" v="Gaupanjárga" />
		<tag k="name:se" v="Gaupanjárga" />
		<tag k="natural" v="cape" />
		<tag k="ssr:stedsnr" v="874058" />
	</node>
	<node id="-620077" lat="68.1976305541" lon="17.5294027676">
		<tag k="name" v="Steinvegelva" />
		<tag k="ssr:stedsnr" v="306023" />
		<tag k="waterway" v="stream" />
	</node>
	<node id="-620076" lat="68.5345583339" lon="17.971358319">
		<tag k="name" v="Nedre Kubergvatnet" />
		<tag k="natural" v="water" />
		<tag k="ssr:stedsnr" v="302546" />
	</node>
	<node id="-622118" lat="68.4011861106" lon="17.8271305489">
		<tag k="name" v="Inner-Sildvikelva" />
		<tag k="ssr:stedsnr" v="871715" />
		<tag k="waterway" v="river" />
	</node>
	<node id="-622116" lat="68.3507666648" lon="17.6658638905">
		<tag k="name" v="Stubblielva" />
		<tag k="ssr:stedsnr" v="871678" />
		<tag k="waterway" v="river" />
	</node>
	<node id="-622115" lat="68.5181555587" lon="17.7856638781">
		<tag k="name" v="Andersvatnet" />
		<tag k="natural" v="water" />
		<tag k="ssr:stedsnr" v="871667" />
	</node>
	<node id="-622114" lat="68.4956583307" lon="17.7657333374">
		<tag k="name" v="Sætertjønna" />
		<tag k="natural" v="water" />
		<tag k="ssr:stedsnr" v="871663" />
	</node>
	<node id="-622107" lat="68.2056527817" lon="17.3851166668">
		<tag k="name" v="Lappvikelva" />
		<tag k="ssr:stedsnr" v="871524" />
		<tag k="waterway" v="river" />
	</node>
	<node id="-622106" lat="68.3858999968" lon="17.3000499946">
		<tag k="name" v="Mølnelva" />
		<tag k="ssr:stedsnr" v="867997" />
		<tag k="waterway" v="stream" />
	</node>
	<node id="-620055" lat="68.3666583338" lon="17.4477500092">
		<tag k="name" v="Klubbneset" />
		<tag k="natural" v="cape" />
		<tag k="ssr:stedsnr" v="282629" />
	</node>
	<node id="-622101" lat="68.3639861112" lon="17.098355542">
		<tag k="name" v="Røsnåvatnet" />
		<tag k="natural" v="water" />
		<tag k="ssr:stedsnr" v="867930" />
	</node>
	<node id="-622097" lat="68.1990500025" lon="18.0973027797">
		<tag k="name" v="Čunojávri" />
		<tag k="name:se" v="Čunojávri" />
		<tag k="natural" v="water" />
		<tag k="ssr:stedsnr" v="867875" />
		<tag k="water" v="lake" />
	</node>
	<node id="-622095" lat="68.324477242" lon="17.2022767128">
		<tag k="fixme" v="multiple name tags, choose one and add the other to alt_name" />
		<tag k="name" v="Holmvatnet;Yttervatnet" />
		<tag k="natural" v="water" />
		<tag k="ssr:stedsnr" v="867862" />
	</node>
	<node id="-622094" lat="68.4969527738" lon="17.5750722203">
		<tag k="name" v="Kvanndalsvatnet" />
		<tag k="natural" v="water" />
		<tag k="ssr:stedsnr" v="867823" />
	</node>
	<node id="-620045" lat="68.4092694443" lon="17.4516666737">
		<tag k="name" v="Mølnelva" />
		<tag k="ssr:stedsnr" v="273909" />
		<tag k="waterway" v="river" />
	</node>
	<node id="-622089" lat="68.479941671" lon="17.5375027657">
		<tag k="name" v="Bruelva" />
		<tag k="ssr:stedsnr" v="867772" />
		<tag k="waterway" v="stream" />
	</node>
	<node id="-622083" lat="68.5199472206" lon="18.035616665">
		<tag k="name" v="Karenvatnet - Gádjajávri" />
		<tag k="name:no" v="Karenvatnet" />
		<tag k="name:se" v="Gádjajávri" />
		<tag k="natural" v="water" />
		<tag k="old_name:se" v="Gaddjajavri" />
		<tag k="ssr:stedsnr" v="867753" />
	</node>
	<node id="-622077" lat="68.5182222257" lon="17.7851972111">
		<tag k="name" v="Čáhppesjávri" />
		<tag k="name:se" v="Čáhppesjávri" />
		<tag k="natural" v="water" />
		<tag k="old_name:se" v="Čappesjavri" />
		<tag k="ssr:stedsnr" v="867655" />
	</node>
	<node id="-622073" lat="68.4227472198" lon="17.6911583177">
		<tag k="name" v="Mølnelva" />
		<tag k="ssr:stedsnr" v="867482" />
		<tag k="waterway" v="stream" />
	</node>
	<node id="-622070" lat="68.4078611076" lon="17.7133666577">
		<tag k="name" v="Vestfjordvatnan" />
		<tag k="natural" v="water" />
		<tag k="ssr:stedsnr" v="867276" />
		<tag k="water" v="lake" />
	</node>
	<node id="-622066" lat="68.427730554" lon="17.8820333317">
		<tag k="name" v="Lomvatnet" />
		<tag k="natural" v="water" />
		<tag k="ssr:stedsnr" v="867229" />
	</node>
	<node id="-622062" lat="68.4959666634" lon="18.0879138782">
		<tag k="name" v="Holmvatnan" />
		<tag k="natural" v="water" />
		<tag k="ssr:stedsnr" v="867192" />
		<tag k="water" v="lake" />
	</node>
	<node id="-622061" lat="68.2836249973" lon="17.9917583362">
		<tag k="name" v="Oallajávri" />
		<tag k="name:se" v="Oallajávri" />
		<tag k="natural" v="water" />
		<tag k="ssr:stedsnr" v="867188" />
		<tag k="water" v="lake" />
	</node>
	<node id="-622058" lat="68.2927083338" lon="18.0997638784">
		<tag k="name" v="Válfojávri" />
		<tag k="name:se" v="Válfojávri" />
		<tag k="natural" v="water" />
		<tag k="ssr:stedsnr" v="867112" />
		<tag k="water" v="lake" />
	</node>
	<node id="-622057" lat="68.1620388853" lon="17.5471777824">
		<tag k="name" v="Sørelva" />
		<tag k="ssr:stedsnr" v="866801" />
		<tag k="waterway" v="river" />
	</node>
	<node id="-622056" lat="68.1831388888" lon="17.3072000099">
		<tag k="name" v="Storelva" />
		<tag k="ssr:stedsnr" v="866799" />
		<tag k="waterway" v="stream" />
	</node>
	<node id="-622052" lat="68.1086138848" lon="17.5639277698">
		<tag k="name" v="Kjørriselva" />
		<tag k="ssr:stedsnr" v="866636" />
		<tag k="waterway" v="river" />
	</node>
	<node id="-622050" lat="68.0302138842" lon="17.8102555582">
		<tag k="name" v="Gautelisvatnet - Guovdelisjávri" />
		<tag k="name:no" v="Gautelisvatnet" />
		<tag k="name:se" v="Guovdelisjávri" />
		<tag k="natural" v="water" />
		<tag k="ssr:stedsnr" v="866626" />
		<tag k="water" v="lake" />
	</node>
	<node id="-622049" lat="68.1580499999" lon="17.445155548">
		<tag k="fixme" v="multiple name tags, choose one and add the other to alt_name" />
		<tag k="name" v="Rundtindvatnet;Čáhppesjávri" />
		<tag k="name:se" v="Rundtindvatnet;Čáhppesjávri" />
		<tag k="natural" v="water" />
		<tag k="ssr:stedsnr" v="866617" />
		<tag k="water" v="lake" />
	</node>
	<node id="-622047" lat="68.1257333343" lon="17.5853777853">
		<tag k="name" v="Kobbelva" />
		<tag k="ssr:stedsnr" v="866607" />
		<tag k="waterway" v="river" />
	</node>
	<node id="-622035" lat="68.1836777814" lon="17.8588250088">
		<tag k="name" v="Smáilejohka" />
		<tag k="name:se" v="Smáilejohka" />
		<tag k="ssr:stedsnr" v="831634" />
		<tag k="waterway" v="stream" />
	</node>
	<node id="-622034" lat="68.3119750041" lon="17.3333249995">
		<tag k="name" v="Lille Erikelva" />
		<tag k="ssr:stedsnr" v="828867" />
		<tag k="waterway" v="stream" />
	</node>
	<node id="-622032" lat="68.2268888927" lon="17.4303305554">
		<tag k="name" v="Sandhølla" />
		<tag k="natural" v="water" />
		<tag k="ssr:stedsnr" v="828745" />
		<tag k="water" v="lake" />
	</node>
	<node id="-622030" lat="68.3677138924" lon="17.4516805525">
		<tag k="name" v="Klubbneselva" />
		<tag k="ssr:stedsnr" v="828626" />
		<tag k="waterway" v="stream" />
	</node>
	<node id="-622025" lat="68.1588388925" lon="17.5497166551">
		<tag k="name" v="Sørelvkorset" />
		<tag k="natural" v="water" />
		<tag k="ssr:stedsnr" v="828046" />
		<tag k="water" v="lake" />
	</node>
	<node id="-622016" lat="68.4078583313" lon="17.3588777825">
		<tag k="name" v="Lomtjønna" />
		<tag k="natural" v="water" />
		<tag k="ssr:stedsnr" v="814626" />
	</node>
	<node id="-621991" lat="68.4782555589" lon="17.6652861191">
		<tag k="name" v="Nevelva" />
		<tag k="ssr:stedsnr" v="814012" />
		<tag k="waterway" v="river" />
	</node>
	<node id="-621987" lat="68.2708472219" lon="17.4181194389">
		<tag k="name" v="Urelva" />
		<tag k="ssr:stedsnr" v="813560" />
		<tag k="waterway" v="river" />
	</node>
	<node id="-621983" lat="68.4761777785" lon="17.9610416564">
		<tag k="name" v="Holmsteintjønna" />
		<tag k="natural" v="water" />
		<tag k="ssr:stedsnr" v="810756" />
	</node>
	<node id="-621981" lat="68.4367972238" lon="18.0703750066">
		<tag k="name" v="Hansenvatnet" />
		<tag k="natural" v="water" />
		<tag k="ssr:stedsnr" v="810724" />
	</node>
	<node id="-621980" lat="68.4733194445" lon="17.7331305618">
		<tag k="name" v="Lille Trollvatnet" />
		<tag k="natural" v="water" />
		<tag k="ssr:stedsnr" v="810719" />
	</node>
	<node id="-621976" lat="68.4978749958" lon="17.3002666735">
		<tag k="name" v="Ytterstorelvvatnet" />
		<tag k="natural" v="water" />
		<tag k="ssr:stedsnr" v="810659" />
	</node>
	<node id="-621970" lat="68.3623305547" lon="17.4485972085">
		<tag k="name" v="Storvatnet - Stuorajávri" />
		<tag k="name:no" v="Storvatnet" />
		<tag k="name:se" v="Stuorajávri" />
		<tag k="natural" v="water" />
		<tag k="ssr:stedsnr" v="810440" />
		<tag k="water" v="lake" />
	</node>
	<node id="-621968" lat="68.3198972245" lon="17.325688899">
		<tag k="name" v="Bruelva" />
		<tag k="ssr:stedsnr" v="807860" />
		<tag k="waterway" v="stream" />
	</node>
	<node id="-621965" lat="68.4874722191" lon="17.7921444444">
		<tag k="name" v="Dalvatnet" />
		<tag k="natural" v="water" />
		<tag k="ssr:stedsnr" v="807729" />
		<tag k="water" v="lake" />
	</node>
	<node id="-621958" lat="68.3018250039" lon="17.4117111018">
		<tag k="name" v="Slettelvvatnet" />
		<tag k="natural" v="water" />
		<tag k="ssr:stedsnr" v="806849" />
	</node>
	<node id="-621945" lat="68.2479916677" lon="17.9908916551">
		<tag k="name" v="Sealggajávri" />
		<tag k="name:se" v="Sealggajávri" />
		<tag k="natural" v="water" />
		<tag k="ssr:stedsnr" v="806676" />
		<tag k="water" v="lake" />
	</node>
	<node id="-621943" lat="68.5353027771" lon="17.6157916618">
		<tag k="name" v="Skarelva" />
		<tag k="ssr:stedsnr" v="806662" />
		<tag k="waterway" v="stream" />
	</node>
	<node id="-621942" lat="68.1145333367" lon="17.6850611042">
		<tag k="name" v="Kobbvatnet - Nuorjjojávri" />
		<tag k="name:no" v="Kobbvatnet" />
		<tag k="name:se" v="Nuorjjojávri" />
		<tag k="natural" v="water" />
		<tag k="ssr:stedsnr" v="806659" />
		<tag k="water" v="lake" />
	</node>
	<node id="-621936" lat="68.467277779" lon="18.016252781">
		<tag k="name" v="Langvatnet" />
		<tag k="natural" v="water" />
		<tag k="ssr:stedsnr" v="806169" />
		<tag k="water" v="lake" />
	</node>
	<node id="-621934" lat="68.3789750006" lon="17.724327784">
		<tag k="name" v="Rundtindvatnet - Rávdojávri" />
		<tag k="name:no" v="Rundtindvatnet" />
		<tag k="name:se" v="Rávdojávri" />
		<tag k="natural" v="water" />
		<tag k="ssr:stedsnr" v="806137" />
		<tag k="water" v="lake" />
	</node>
	<node id="-621933" lat="68.3338888855" lon="17.6145083359">
		<tag k="name" v="Lillevatnet - Unnajávrráš" />
		<tag k="name:no" v="Lillevatnet" />
		<tag k="name:se" v="Unnajávrráš" />
		<tag k="natural" v="water" />
		<tag k="ssr:stedsnr" v="806129" />
		<tag k="water" v="lake" />
	</node>
	<node id="-621931" lat="68.3674000039" lon="18.0498722106">
		<tag k="name" v="Brantenvatnet - Skieltejávri" />
		<tag k="name:no" v="Brantenvatnet" />
		<tag k="name:se" v="Skieltejávri" />
		<tag k="natural" v="water" />
		<tag k="ssr:stedsnr" v="806079" />
		<tag k="water" v="lake" />
	</node>
	<node id="-621928" lat="68.3521611095" lon="17.5726361009">
		<tag k="name" v="Rundvatnet" />
		<tag k="natural" v="water" />
		<tag k="ssr:stedsnr" v="805115" />
	</node>
	<node id="-621921" lat="68.5389333334" lon="17.8982138923">
		<tag k="name" v="Beassekjávrrit" />
		<tag k="name:se" v="Beassekjávrrit" />
		<tag k="natural" v="water" />
		<tag k="old_name:se" v="Bæssegjavrit" />
		<tag k="ssr:stedsnr" v="784160" />
		<tag k="water" v="lake" />
	</node>
	<node id="-621912" lat="68.3022444466" lon="17.3684166763">
		<tag k="name" v="Kvateelva" />
		<tag k="ssr:stedsnr" v="767695" />
		<tag k="waterway" v="stream" />
	</node>
	<node id="-621907" lat="68.1723333376" lon="17.5483194463">
		<tag k="name" v="Migmaurneset" />
		<tag k="natural" v="cape" />
		<tag k="ssr:stedsnr" v="767094" />
	</node>
	<node id="-621880" lat="68.2385749969" lon="17.407972211">
		<tag k="name" v="Prestslåttelva" />
		<tag k="ssr:stedsnr" v="753457" />
		<tag k="waterway" v="river" />
	</node>
	<node id="-620081" lat="68.1235583319" lon="17.4757083258">
		<tag k="name" v="Iptojávri" />
		<tag k="name:se" v="Iptojávri" />
		<tag k="natural" v="water" />
		<tag k="ssr:stedsnr" v="320615" />
		<tag k="water" v="lake" />
	</node>
	<node id="-621860" lat="68.5619861107" lon="17.6943472198">
		<tag k="name" v="Knutelva" />
		<tag k="ssr:stedsnr" v="753034" />
		<tag k="waterway" v="river" />
	</node>
	<node id="-621854" lat="68.5186416668" lon="17.9779833215">
		<tag k="name" v="Kubergelva" />
		<tag k="ssr:stedsnr" v="750724" />
		<tag k="waterway" v="stream" />
	</node>
	<node id="-621851" lat="68.4305333335" lon="18.0686861145">
		<tag k="name" v="Stasjonsvatnet" />
		<tag k="natural" v="water" />
		<tag k="ssr:stedsnr" v="750695" />
	</node>
	<node id="-621848" lat="68.4782249955" lon="17.7576333396">
		<tag k="name" v="Storbukta" />
		<tag k="natural" v="bay" />
		<tag k="ssr:stedsnr" v="750658" />
	</node>
	<node id="-621846" lat="68.4508500036" lon="17.9634527696">
		<tag k="name" v="Ørnvatnet" />
		<tag k="natural" v="water" />
		<tag k="ssr:stedsnr" v="749768" />
	</node>
	<node id="-621844" lat="68.2954083365" lon="17.2596499991">
		<tag k="name" v="Klubbvikelva" />
		<tag k="ssr:stedsnr" v="749703" />
		<tag k="waterway" v="river" />
	</node>
	<node id="-621843" lat="68.2748722222" lon="17.3153416748">
		<tag k="name" v="Kjerringneselva" />
		<tag k="ssr:stedsnr" v="749688" />
		<tag k="waterway" v="stream" />
	</node>
	<node id="-621839" lat="68.5181972179" lon="17.2682388909">
		<tag k="name" v="Hellarelva" />
		<tag k="ssr:stedsnr" v="748632" />
		<tag k="waterway" v="stream" />
	</node>
	<node id="-621838" lat="68.5548194415" lon="17.3949777777">
		<tag k="name" v="Maridalselva - Váibmojohka" />
		<tag k="name:no" v="Maridalselva" />
		<tag k="name:se" v="Váibmojohka" />
		<tag k="ssr:stedsnr" v="748603" />
		<tag k="waterway" v="river" />
	</node>
	<node id="-621830" lat="68.3175277744" lon="17.2062305502">
		<tag k="name" v="Klubbvikvatnan" />
		<tag k="natural" v="water" />
		<tag k="ssr:stedsnr" v="746836" />
		<tag k="water" v="lake" />
	</node>
	<node id="-621827" lat="68.4988888925" lon="17.8158972199">
		<tag k="name" v="Nedre Jernvatnet - Vuolit Ruovdejávri" />
		<tag k="name:no" v="Nedre Jernvatnet" />
		<tag k="name:se" v="Vuolit Ruovdejávri" />
		<tag k="natural" v="water" />
		<tag k="ssr:stedsnr" v="746755" />
		<tag k="water" v="lake" />
	</node>
	<node id="-621826" lat="68.4904111122" lon="17.7659166564">
		<tag k="name" v="Sætervatnet" />
		<tag k="natural" v="water" />
		<tag k="ssr:stedsnr" v="746749" />
		<tag k="water" v="lake" />
	</node>
	<node id="-621825" lat="68.4964722252" lon="17.7258027819">
		<tag k="name" v="Langvatnet" />
		<tag k="natural" v="water" />
		<tag k="ssr:stedsnr" v="746747" />
		<tag k="water" v="lake" />
	</node>
	<node id="-621824" lat="68.4782166664" lon="17.6606222166">
		<tag k="name" v="Nevelva" />
		<tag k="ssr:stedsnr" v="746729" />
		<tag k="waterway" v="stream" />
	</node>
	<node id="-621823" lat="68.4725499967" lon="17.9197055511">
		<tag k="name" v="Grøndalsvatnet" />
		<tag k="natural" v="water" />
		<tag k="ssr:stedsnr" v="746725" />
	</node>
	<node id="-621820" lat="68.5031555548" lon="17.7547249882">
		<tag k="name" v="Hesteskovatnet" />
		<tag k="natural" v="water" />
		<tag k="ssr:stedsnr" v="746614" />
	</node>
	<node id="-621811" lat="68.3002138896" lon="17.3591361158">
		<tag k="name" v="Slettelva" />
		<tag k="ssr:stedsnr" v="745849" />
		<tag k="waterway" v="stream" />
	</node>
	<node id="-621804" lat="68.5661222266" lon="17.464255553">
		<tag k="name" v="Djupvatnet" />
		<tag k="natural" v="water" />
		<tag k="ssr:stedsnr" v="745755" />
	</node>
	<node id="-621803" lat="68.5744305551" lon="17.8186944411">
		<tag k="name" v="Storforsen" />
		<tag k="natural" v="waterfall" />
		<tag k="ssr:stedsnr" v="745747" />
	</node>
	<node id="-621801" lat="68.1116111109" lon="17.3635138842">
		<tag k="name" v="Tjårdavatnet - Čoađgejávri" />
		<tag k="name:no" v="Tjårdavatnet" />
		<tag k="name:se" v="Čoađgejávri" />
		<tag k="natural" v="water" />
		<tag k="old_name:se" v="Čoadgejávri" />
		<tag k="ssr:stedsnr" v="745736" />
		<tag k="water" v="lake" />
	</node>
	<node id="-621792" lat="68.2084888901" lon="17.4950944527">
		<tag k="name" v="Skjoma" />
		<tag k="ssr:stedsnr" v="745663" />
		<tag k="waterway" v="river" />
	</node>
	<node id="-621790" lat="68.0596777825" lon="17.9491972092">
		<tag k="name" v="Čoarvejávrrit" />
		<tag k="name:se" v="Čoarvejávrrit" />
		<tag k="natural" v="water" />
		<tag k="ssr:stedsnr" v="745649" />
		<tag k="water" v="lake" />
	</node>
	<node id="-621789" lat="68.0354805573" lon="17.732230546">
		<tag k="name" v="Jorbesjávri" />
		<tag k="name:se" v="Jorbesjávri" />
		<tag k="natural" v="water" />
		<tag k="ssr:stedsnr" v="745646" />
	</node>
	<node id="-621788" lat="67.9845750022" lon="17.8774805446">
		<tag k="name" v="Vannaksvatnet - Vanasjávri" />
		<tag k="name:no" v="Vannaksvatnet" />
		<tag k="name:se" v="Vanasjávri" />
		<tag k="natural" v="water" />
		<tag k="ssr:stedsnr" v="745642" />
		<tag k="water" v="lake" />
	</node>
	<node id="-621786" lat="68.1644416651" lon="17.5722777834">
		<tag k="name" v="Nordelvkorset" />
		<tag k="natural" v="bay" />
		<tag k="ssr:stedsnr" v="745636" />
	</node>
	<node id="-621784" lat="68.577030552" lon="17.5571833306">
		<tag k="name" v="Sæterelva" />
		<tag k="ssr:stedsnr" v="745529" />
		<tag k="waterway" v="stream" />
	</node>
	<node id="-621783" lat="68.5118666646" lon="18.0178750003">
		<tag k="name" v="Karenelva - Gádjajohka" />
		<tag k="name:no" v="Karenelva" />
		<tag k="name:se" v="Gádjajohka" />
		<tag k="old_name:se" v="Gaddjajåkka" />
		<tag k="ssr:stedsnr" v="745309" />
		<tag k="waterway" v="river" />
	</node>
	<node id="-621782" lat="68.5082305577" lon="18.0191277737">
		<tag k="name" v="Holmelva - Suolojárjohka" />
		<tag k="name:no" v="Holmelva" />
		<tag k="name:se" v="Suolojárjohka" />
		<tag k="old_name:se" v="Suolujarjåkka" />
		<tag k="ssr:stedsnr" v="745303" />
		<tag k="waterway" v="stream" />
	</node>
	<node id="-621781" lat="68.3896194448" lon="17.7192249917">
		<tag k="name" v="Ytter-Sildvikvatnet" />
		<tag k="natural" v="water" />
		<tag k="ssr:stedsnr" v="745269" />
		<tag k="water" v="lake" />
	</node>
	<node id="-621775" lat="68.2852500031" lon="17.7347166544">
		<tag k="name" v="Leirvatnet - Láirejávri" />
		<tag k="name:no" v="Leirvatnet" />
		<tag k="name:se" v="Láirejávri" />
		<tag k="natural" v="water" />
		<tag k="ssr:stedsnr" v="745192" />
		<tag k="water" v="lake" />
	</node>
	<node id="-621772" lat="68.1791583332" lon="17.2704277871">
		<tag k="name" v="Snøskarelva" />
		<tag k="ssr:stedsnr" v="744660" />
		<tag k="waterway" v="stream" />
	</node>
	<node id="-621755" lat="68.202980559" lon="17.532819455">
		<tag k="name" v="Stibergneset" />
		<tag k="natural" v="cape" />
		<tag k="ssr:stedsnr" v="694012" />
	</node>
	<node id="-621744" lat="68.5367416691" lon="17.3889305598">
		<tag k="name" v="Langmyrvatnet" />
		<tag k="natural" v="water" />
		<tag k="ssr:stedsnr" v="693352" />
		<tag k="water" v="lake" />
	</node>
	<node id="-621733" lat="68.2595638928" lon="17.4081833448">
		<tag k="name" v="Mølnbekken" />
		<tag k="ssr:stedsnr" v="692541" />
		<tag k="waterway" v="stream" />
	</node>
	<node id="-620059" lat="68.2106583305" lon="17.4922611144">
		<tag k="name" v="Hesthølla" />
		<tag k="natural" v="water" />
		<tag k="ssr:stedsnr" v="282724" />
		<tag k="water" v="lake" />
	</node>
	<node id="-621728" lat="68.4689583319" lon="17.6535944475">
		<tag k="name" v="Simavikelva" />
		<tag k="ssr:stedsnr" v="692359" />
		<tag k="waterway" v="river" />
	</node>
	<node id="-620058" lat="68.2110416684" lon="17.4871111125">
		<tag k="name" v="Hestneset" />
		<tag k="natural" v="cape" />
		<tag k="ssr:stedsnr" v="282718" />
	</node>
	<node id="-621715" lat="68.4331277805" lon="17.9473805475">
		<tag k="name" v="Store Rombaksvatnet" />
		<tag k="natural" v="water" />
		<tag k="ssr:stedsnr" v="689706" />
		<tag k="water" v="lake" />
	</node>
	<node id="-621711" lat="68.4953611139" lon="17.7847583305">
		<tag k="name" v="Jernvasselva" />
		<tag k="ssr:stedsnr" v="689645" />
		<tag k="waterway" v="river" />
	</node>
	<node id="-621710" lat="68.4856638845" lon="17.7714027812">
		<tag k="name" v="Mellavatnet" />
		<tag k="natural" v="water" />
		<tag k="ssr:stedsnr" v="689639" />
		<tag k="water" v="lake" />
	</node>
	<node id="-621706" lat="68.2690222216" lon="17.295199991">
		<tag k="name" v="Krokmyrvatnet" />
		<tag k="natural" v="water" />
		<tag k="ssr:stedsnr" v="689630" />
	</node>
	<node id="-621704" lat="68.3718027749" lon="17.135499987">
		<tag k="name" v="Høgforsen" />
		<tag k="natural" v="waterfall" />
		<tag k="ssr:stedsnr" v="689591" />
	</node>
	<node id="-621702" lat="68.5630944478" lon="17.3886916547">
		<tag k="name" v="Isaksentjønna" />
		<tag k="natural" v="water" />
		<tag k="ssr:stedsnr" v="687924" />
	</node>
	<node id="-621701" lat="68.5263888844" lon="17.3931666712">
		<tag k="alt_name" v="Bergvatnan" />
		<tag k="name" v="Bergvatnet" />
		<tag k="natural" v="water" />
		<tag k="ssr:stedsnr" v="687597" />
	</node>
	<node id="-621700" lat="68.5261027752" lon="17.3570583227">
		<tag k="name" v="Knivslirvatnet" />
		<tag k="natural" v="water" />
		<tag k="ssr:stedsnr" v="687596" />
	</node>
	<node id="-621699" lat="68.3980611113" lon="17.3346305536">
		<tag k="name" v="Håkvikelva - Ginnasvuomijohka" />
		<tag k="name:no" v="Håkvikelva" />
		<tag k="name:se" v="Ginnasvuomijohka" />
		<tag k="old_name:se" v="Ginnasvuomejåkka" />
		<tag k="ssr:stedsnr" v="685994" />
		<tag k="waterway" v="river" />
	</node>
	<node id="-621696" lat="68.380011115" lon="17.0974138766">
		<tag k="name" v="Åga" />
		<tag k="ssr:stedsnr" v="685960" />
		<tag k="waterway" v="stream" />
	</node>
	<node id="-621694" lat="68.3636277755" lon="17.1897166615">
		<tag k="name" v="Skjærvikelva" />
		<tag k="ssr:stedsnr" v="685926" />
		<tag k="waterway" v="stream" />
	</node>
	<node id="-621693" lat="68.3468777803" lon="17.1404499927">
		<tag k="name" v="Vesterdalselva" />
		<tag k="ssr:stedsnr" v="685896" />
		<tag k="waterway" v="stream" />
	</node>
	<node id="-621692" lat="68.3581972193" lon="17.1105833407">
		<tag k="name" v="Rundvatnet" />
		<tag k="natural" v="water" />
		<tag k="ssr:stedsnr" v="685877" />
	</node>
	<node id="-621691" lat="68.3246111136" lon="17.3140333322">
		<tag k="name" v="Stokkslettelva" />
		<tag k="ssr:stedsnr" v="685843" />
		<tag k="waterway" v="stream" />
	</node>
	<node id="-621690" lat="68.2810305562" lon="17.2874444499">
		<tag k="name" v="Slettjordelva" />
		<tag k="ssr:stedsnr" v="685833" />
		<tag k="waterway" v="stream" />
	</node>
	<node id="-621687" lat="68.497433336" lon="17.699763877">
		<tag k="name" v="Lille-Rundvatnet" />
		<tag k="natural" v="water" />
		<tag k="ssr:stedsnr" v="685789" />
	</node>
	<node id="-621683" lat="68.4682972242" lon="17.6995111194">
		<tag k="name" v="Åselva" />
		<tag k="ssr:stedsnr" v="685745" />
		<tag k="waterway" v="stream" />
	</node>
	<node id="-621681" lat="68.5441138915" lon="17.6379833205">
		<tag k="name" v="Fjellkråelva" />
		<tag k="ssr:stedsnr" v="685715" />
		<tag k="waterway" v="stream" />
	</node>
	<node id="-621679" lat="68.5387000035" lon="17.5987027761">
		<tag k="name" v="Medbyelva" />
		<tag k="ssr:stedsnr" v="685706" />
		<tag k="waterway" v="stream" />
	</node>
	<node id="-621675" lat="68.5718583312" lon="17.4309000022">
		<tag k="name" v="Elvevatnet" />
		<tag k="natural" v="water" />
		<tag k="ssr:stedsnr" v="685688" />
	</node>
	<node id="-621674" lat="68.5481000035" lon="17.7931138961">
		<tag k="name" v="Kopparfjellelva" />
		<tag k="ssr:stedsnr" v="685686" />
		<tag k="waterway" v="river" />
	</node>
	<node id="-621673" lat="68.5554000046" lon="17.4442610988">
		<tag k="name" v="Grovfjordeidet" />
		<tag k="natural" v="strait" />
		<tag k="ssr:stedsnr" v="685677" />
	</node>
	<node id="-621672" lat="68.5576111076" lon="17.6813888856">
		<tag k="name" v="Hartvikvatnet - Árajávri" />
		<tag k="name:no" v="Hartvikvatnet" />
		<tag k="name:se" v="Árajávri" />
		<tag k="natural" v="water" />
		<tag k="old_name:se" v="Arajavri" />
		<tag k="ssr:stedsnr" v="685674" />
		<tag k="water" v="lake" />
	</node>
	<node id="-620049" lat="68.3697972201" lon="17.1346277821">
		<tag k="name" v="Storelva" />
		<tag k="ssr:stedsnr" v="416425" />
		<tag k="waterway" v="river" />
	</node>
	<node id="-621651" lat="68.3357388866" lon="17.5256249856">
		<tag k="name" v="Lasseelva" />
		<tag k="ssr:stedsnr" v="685132" />
		<tag k="waterway" v="stream" />
	</node>
	<node id="-621650" lat="68.3880472255" lon="18.0094055448">
		<tag k="name" v="Skieltejohka" />
		<tag k="name:se" v="Skieltejohka" />
		<tag k="ssr:stedsnr" v="685085" />
		<tag k="waterway" v="stream" />
	</node>
	<node id="-621648" lat="68.1769611087" lon="17.3585805577">
		<tag k="name" v="Durmålsvatnet" />
		<tag k="natural" v="water" />
		<tag k="ssr:stedsnr" v="684702" />
		<tag k="water" v="lake" />
	</node>
	<node id="-621647" lat="68.2093999976" lon="17.6923666652">
		<tag k="name" v="Lossivatnet - Loasejávri" />
		<tag k="name:no" v="Lossivatnet" />
		<tag k="name:se" v="Loasejávri" />
		<tag k="natural" v="water" />
		<tag k="ssr:stedsnr" v="684668" />
		<tag k="water" v="lake" />
	</node>
	<node id="-621646" lat="68.1943583355" lon="17.5554527821">
		<tag k="name" v="Litlefallet" />
		<tag k="natural" v="waterfall" />
		<tag k="ssr:stedsnr" v="684662" />
	</node>
	<node id="-621637" lat="68.1610583362" lon="17.5374027865">
		<tag k="name" v="Skjellelva" />
		<tag k="ssr:stedsnr" v="684611" />
		<tag k="waterway" v="stream" />
	</node>
	<node id="-621635" lat="68.3788972232" lon="17.4898277741">
		<tag k="name" v="Harhausvatnet - Njoammeljávri" />
		<tag k="name:no" v="Harhausvatnet" />
		<tag k="name:se" v="Njoammeljávri" />
		<tag k="natural" v="water" />
		<tag k="ssr:stedsnr" v="684236" />
		<tag k="water" v="lake" />
	</node>
	<node id="-621622" lat="68.3383861102" lon="17.2853861055">
		<tag k="name" v="Mølnelva" />
		<tag k="ssr:stedsnr" v="645828" />
		<tag k="waterway" v="stream" />
	</node>
	<node id="-621621" lat="68.3426138879" lon="17.2840611005">
		<tag k="name" v="Loftelva" />
		<tag k="ssr:stedsnr" v="645829" />
		<tag k="waterway" v="stream" />
	</node>
	<node id="-621616" lat="68.3448472193" lon="17.4632388871">
		<tag k="name" v="Skjellelva" />
		<tag k="ssr:stedsnr" v="645630" />
		<tag k="waterway" v="stream" />
	</node>
	<node id="-621612" lat="68.1713361124" lon="17.554263899">
		<tag k="name" v="Langhola" />
		<tag k="place" v="islet" />
		<tag k="ssr:stedsnr" v="645111" />
	</node>
	<node id="-621592" lat="68.4153083372" lon="17.3771500065">
		<tag k="name" v="Mølnbekken" />
		<tag k="ssr:stedsnr" v="631598" />
		<tag k="waterway" v="stream" />
	</node>
	<node id="-621574" lat="68.489844447" lon="17.5403083199">
		<tag k="name" v="Lillevatnet" />
		<tag k="natural" v="water" />
		<tag k="ssr:stedsnr" v="631423" />
		<tag k="water" v="lake" />
	</node>
	<node id="-621558" lat="68.5548027761" lon="17.722488891">
		<tag k="name" v="Gambergfossen" />
		<tag k="natural" v="waterfall" />
		<tag k="ssr:stedsnr" v="631053" />
	</node>
	<node id="-621551" lat="68.4393555547" lon="17.9655694399">
		<tag k="name" v="Kroketevatnet" />
		<tag k="natural" v="water" />
		<tag k="ssr:stedsnr" v="628717" />
		<tag k="water" v="lake" />
	</node>
	<node id="-621549" lat="68.4739388891" lon="17.9981194503">
		<tag k="name" v="Urdalsvatnet" />
		<tag k="natural" v="water" />
		<tag k="ssr:stedsnr" v="628700" />
	</node>
	<node id="-621544" lat="68.2864388914" lon="17.224352781">
		<tag k="name" v="Sommarskarelva" />
		<tag k="ssr:stedsnr" v="628656" />
		<tag k="waterway" v="stream" />
	</node>
	<node id="-621542" lat="68.3432277735" lon="17.2241944419">
		<tag k="name" v="Storelva" />
		<tag k="ssr:stedsnr" v="628647" />
		<tag k="waterway" v="stream" />
	</node>
	<node id="-621540" lat="68.3664916673" lon="17.0918055602">
		<tag k="name" v="Røsnåa" />
		<tag k="ssr:stedsnr" v="628611" />
		<tag k="waterway" v="stream" />
	</node>
	<node id="-621538" lat="68.3794138915" lon="17.6342000079">
		<tag k="name" v="Mølnelva - Millojohka" />
		<tag k="name:no" v="Mølnelva" />
		<tag k="name:se" v="Millojohka" />
		<tag k="ssr:stedsnr" v="628424" />
		<tag k="waterway" v="river" />
	</node>
	<node id="-621537" lat="68.5176416637" lon="17.3542638814">
		<tag k="name" v="Innerstorelva" />
		<tag k="ssr:stedsnr" v="626644" />
		<tag k="waterway" v="stream" />
	</node>
	<node id="-621530" lat="68.3768749985" lon="17.1258083301">
		<tag k="name" v="Vidrekelva" />
		<tag k="ssr:stedsnr" v="624966" />
		<tag k="waterway" v="stream" />
	</node>
	<node id="-621527" lat="68.3720138858" lon="17.3081916702">
		<tag k="name" v="Geitknausvatnet" />
		<tag k="natural" v="water" />
		<tag k="ssr:stedsnr" v="624908" />
	</node>
	<node id="-621524" lat="68.3601611099" lon="17.192208342">
		<tag k="name" v="Klubbvatnet" />
		<tag k="natural" v="water" />
		<tag k="ssr:stedsnr" v="624871" />
	</node>
	<node id="-621521" lat="68.2830916664" lon="17.2615305504">
		<tag k="name" v="Sørelva" />
		<tag k="ssr:stedsnr" v="624823" />
		<tag k="waterway" v="stream" />
	</node>
	<node id="-621513" lat="68.5582944463" lon="17.8334666666">
		<tag k="name" v="Stuorabálakjávrrit" />
		<tag k="name:se" v="Stuorabálakjávrrit" />
		<tag k="natural" v="water" />
		<tag k="old_name:se" v="Stuorabalagjavrit" />
		<tag k="ssr:stedsnr" v="624738" />
	</node>
	<node id="-621505" lat="68.5021277756" lon="17.542958318">
		<tag k="name" v="Elvhaugosen" />
		<tag k="natural" v="bay" />
		<tag k="ssr:stedsnr" v="624636" />
	</node>
	<node id="-621504" lat="68.587355559" lon="17.6377888831">
		<tag k="name" v="Småvatnan" />
		<tag k="natural" v="water" />
		<tag k="ssr:stedsnr" v="624529" />
		<tag k="water" v="lake" />
	</node>
	<node id="-621503" lat="68.3072166701" lon="17.2177888866">
		<tag k="name" v="Storvatnet" />
		<tag k="natural" v="water" />
		<tag k="ssr:stedsnr" v="624470" />
		<tag k="water" v="lake" />
	</node>
	<node id="-621499" lat="68.4175027744" lon="17.7311777781">
		<tag k="name" v="Orneelva" />
		<tag k="ssr:stedsnr" v="624216" />
		<tag k="waterway" v="stream" />
	</node>
	<node id="-621498" lat="68.4393722238" lon="17.987899994">
		<tag k="name" v="Øvre Bruvatnet" />
		<tag k="natural" v="water" />
		<tag k="ssr:stedsnr" v="624208" />
		<tag k="water" v="lake" />
	</node>
	<node id="-621495" lat="68.4619583364" lon="18.0586166671">
		<tag k="name" v="Nedre Ørnvatnet" />
		<tag k="natural" v="water" />
		<tag k="ssr:stedsnr" v="624191" />
	</node>
	<node id="-621494" lat="68.2617472253" lon="17.6432527719">
		<tag k="name" v="Nihkejohka" />
		<tag k="name:se" v="Nihkejohka" />
		<tag k="ssr:stedsnr" v="624186" />
		<tag k="waterway" v="stream" />
	</node>
	<node id="-621491" lat="68.3242138862" lon="18.0256750039">
		<tag k="name" v="Suolojávri" />
		<tag k="name:se" v="Suolojávri" />
		<tag k="natural" v="water" />
		<tag k="old_name:se" v="Suolajavri" />
		<tag k="ssr:stedsnr" v="624096" />
		<tag k="water" v="lake" />
	</node>
	<node id="-621490" lat="68.1523694439" lon="18.0098361153">
		<tag k="name" v="Kalikselva - Čáihnajohka" />
		<tag k="name:no" v="Kalikselva" />
		<tag k="name:se" v="Čáihnajohka" />
		<tag k="ssr:stedsnr" v="623879" />
		<tag k="waterway" v="river" />
	</node>
	<node id="-621485" lat="68.1182138862" lon="17.8875888742">
		<tag k="name" v="Čáihnajávrrit" />
		<tag k="name:se" v="Čáihnajávrrit" />
		<tag k="natural" v="water" />
		<tag k="ssr:stedsnr" v="623669" />
		<tag k="water" v="lake" />
	</node>
	<node id="-621482" lat="68.1796305558" lon="17.826241666">
		<tag k="name" v="Čunojohka" />
		<tag k="name:se" v="Čunojohka" />
		<tag k="ssr:stedsnr" v="623653" />
		<tag k="waterway" v="river" />
	</node>
	<node id="-621481" lat="68.1591333371" lon="17.9799194423">
		<tag k="name" v="Kalikselva" />
		<tag k="ssr:stedsnr" v="623648" />
		<tag k="waterway" v="stream" />
	</node>
	<node id="-621476" lat="68.3655833341" lon="17.4335277844">
		<tag k="name" v="Revneset" />
		<tag k="natural" v="cape" />
		<tag k="ssr:stedsnr" v="623164" />
	</node>
	<node id="-621475" lat="68.3655333331" lon="17.8635611059">
		<tag k="name" v="Inner-Sildvikvatnet - Ruoidnajávri" />
		<tag k="name:no" v="Inner-Sildvikvatnet" />
		<tag k="name:se" v="Ruoidnajávri" />
		<tag k="natural" v="water" />
		<tag k="ssr:stedsnr" v="623163" />
		<tag k="water" v="lake" />
	</node>
	<node id="-621434" lat="68.5559194413" lon="17.617194433">
		<tag k="name" v="Tverrelva" />
		<tag k="ssr:stedsnr" v="571481" />
		<tag k="waterway" v="river" />
	</node>
	<node id="-621416" lat="68.5357861135" lon="17.4019583248">
		<tag k="name" v="Trollvatnet" />
		<tag k="natural" v="water" />
		<tag k="ssr:stedsnr" v="571299" />
		<tag k="water" v="lake" />
	</node>
	<node id="-621412" lat="68.528430557" lon="17.4267999861">
		<tag k="name" v="Stakkedalselva" />
		<tag k="ssr:stedsnr" v="571263" />
		<tag k="waterway" v="river" />
	</node>
	<node id="-621408" lat="68.0788638916" lon="17.6552555623">
		<tag k="name" v="Kjørrisvatnan" />
		<tag k="natural" v="water" />
		<tag k="ssr:stedsnr" v="571057" />
		<tag k="water" v="lake" />
	</node>
	<node id="-621403" lat="68.4327999979" lon="17.6709166642">
		<tag k="name" v="Lielva" />
		<tag k="ssr:stedsnr" v="571008" />
		<tag k="waterway" v="river" />
	</node>
	<node id="-621397" lat="68.4067722224" lon="17.3599750058">
		<tag k="name" v="Svartdalstjønna" />
		<tag k="natural" v="water" />
		<tag k="ssr:stedsnr" v="570545" />
	</node>
	<node id="-621386" lat="68.397155556" lon="17.9200527791">
		<tag k="name" v="Rundvatnet" />
		<tag k="natural" v="water" />
		<tag k="ssr:stedsnr" v="567728" />
	</node>
	<node id="-621385" lat="68.4001749998" lon="17.9336222078">
		<tag k="name" v="Tappelva" />
		<tag k="ssr:stedsnr" v="567726" />
		<tag k="waterway" v="stream" />
	</node>
	<node id="-621384" lat="68.4400861085" lon="18.0655499941">
		<tag k="name" v="Telegrafvatnet" />
		<tag k="natural" v="water" />
		<tag k="ssr:stedsnr" v="567705" />
	</node>
	<node id="-621383" lat="68.5122305526" lon="17.7652999882">
		<tag k="name" v="Lille Holmvatnet" />
		<tag k="natural" v="water" />
		<tag k="ssr:stedsnr" v="567681" />
	</node>
	<node id="-621382" lat="68.5178416678" lon="17.7087944522">
		<tag k="name" v="Gropvasselva" />
		<tag k="ssr:stedsnr" v="567677" />
		<tag k="waterway" v="river" />
	</node>
	<node id="-621381" lat="68.470183336" lon="17.7487805573">
		<tag k="name" v="Nygårdsdammen" />
		<tag k="ssr:stedsnr" v="567672" />
		<tag k="waterway" v="dam" />
	</node>
	<node id="-621369" lat="68.3136972198" lon="17.3287916651">
		<tag k="name" v="Erikelva" />
		<tag k="ssr:stedsnr" v="563883" />
		<tag k="waterway" v="stream" />
	</node>
	<node id="-621359" lat="68.5514166684" lon="17.765808331">
		<tag k="alt_name:no" v="Hulelva" />
		<tag k="name" v="Holelva - Ráigejohka" />
		<tag k="name:no" v="Holelva" />
		<tag k="name:se" v="Ráigejohka" />
		<tag k="old_name:se" v="Raigejåkka" />
		<tag k="ssr:stedsnr" v="563777" />
		<tag k="waterway" v="stream" />
	</node>
	<node id="-621358" lat="68.5425916652" lon="17.8926777652">
		<tag k="fixme" v="multiple name tags, choose one and add the other to alt_name" />
		<tag k="name" v="Ner-Nevra;Nedre Neverfjellvatnet" />
		<tag k="natural" v="water" />
		<tag k="ssr:stedsnr" v="563758" />
		<tag k="water" v="lake" />
	</node>
	<node id="-621350" lat="68.5027694461" lon="17.9176805431">
		<tag k="name" v="Øvre Jernvatnet - Ruovdejávri" />
		<tag k="name:no" v="Øvre Jernvatnet" />
		<tag k="name:se" v="Ruovdejávri" />
		<tag k="natural" v="water" />
		<tag k="ssr:stedsnr" v="563645" />
		<tag k="water" v="lake" />
	</node>
	<node id="-621349" lat="68.5082527783" lon="17.7000055504">
		<tag k="name" v="Holmvatnet - Suolojávri" />
		<tag k="name:no" v="Holmvatnet" />
		<tag k="name:se" v="Suolojávri" />
		<tag k="natural" v="water" />
		<tag k="ssr:stedsnr" v="563643" />
		<tag k="water" v="lake" />
	</node>
	<node id="-621347" lat="68.5781916703" lon="17.6459888898">
		<tag k="name" v="Ørnebergvatnet" />
		<tag k="natural" v="water" />
		<tag k="ssr:stedsnr" v="563509" />
	</node>
	<node id="-621345" lat="68.439455557" lon="17.540944443">
		<tag k="name" v="Forsneselva" />
		<tag k="ssr:stedsnr" v="563222" />
		<tag k="waterway" v="stream" />
	</node>
	<node id="-621341" lat="68.3154666638" lon="17.9718722078">
		<tag k="name" v="Oallajohka" />
		<tag k="name:se" v="Oallajohka" />
		<tag k="ssr:stedsnr" v="563180" />
		<tag k="waterway" v="river" />
	</node>
	<node id="-621340" lat="68.3292083312" lon="18.1156861027">
		<tag k="name" v="Dossaganjávri" />
		<tag k="name:se" v="Dossaganjávri" />
		<tag k="natural" v="water" />
		<tag k="ssr:stedsnr" v="563086" />
		<tag k="water" v="lake" />
	</node>
	<node id="-621337" lat="68.2472777769" lon="17.6901694332">
		<tag k="name" v="Nihkejávri" />
		<tag k="name:se" v="Nihkejávri" />
		<tag k="natural" v="water" />
		<tag k="ssr:stedsnr" v="562660" />
		<tag k="water" v="lake" />
	</node>
	<node id="-621335" lat="68.0773583356" lon="17.6565888868">
		<tag k="name" v="Nedre Kjørrisvatnet" />
		<tag k="natural" v="water" />
		<tag k="ssr:stedsnr" v="562645" />
	</node>
	<node id="-621333" lat="68.0268750022" lon="17.9536333371">
		<tag k="name" v="Čoarvejávri" />
		<tag k="name:se" v="Čoarvejávri" />
		<tag k="natural" v="water" />
		<tag k="ssr:stedsnr" v="562636" />
		<tag k="water" v="lake" />
	</node>
	<node id="-621332" lat="68.1672861115" lon="17.7939472208">
		<tag k="name" v="Stasjonselva - Skearrojohka" />
		<tag k="name:no" v="Stasjonselva" />
		<tag k="name:se" v="Skearrojohka" />
		<tag k="ssr:stedsnr" v="562635" />
		<tag k="waterway" v="river" />
	</node>
	<node id="-621331" lat="68.1418916662" lon="17.4743583299">
		<tag k="name" v="Iptojohka" />
		<tag k="name:se" v="Iptojohka" />
		<tag k="ssr:stedsnr" v="562634" />
		<tag k="waterway" v="stream" />
	</node>
	<node id="-621328" lat="68.3680166661" lon="17.7942055565">
		<tag k="name" v="Blåisvatnet - Jápmajávri" />
		<tag k="name:no" v="Blåisvatnet" />
		<tag k="name:se" v="Jápmajávri" />
		<tag k="natural" v="water" />
		<tag k="ssr:stedsnr" v="562132" />
		<tag k="water" v="lake" />
	</node>
	<node id="-621327" lat="68.3708305597" lon="17.5232722157">
		<tag k="name" v="Skavtuvvatnan" />
		<tag k="natural" v="water" />
		<tag k="ssr:stedsnr" v="562127" />
	</node>
	<node id="-621319" lat="68.5635083293" lon="17.8834694443">
		<tag k="name" v="Neverelva" />
		<tag k="ssr:stedsnr" v="541156" />
		<tag k="waterway" v="stream" />
	</node>
	<node id="-621315" lat="68.2237333359" lon="17.4531277863">
		<tag k="name" v="Olderholmen" />
		<tag k="place" v="islet" />
		<tag k="ssr:stedsnr" v="524749" />
	</node>
	<node id="-621313" lat="68.3740166675" lon="17.3789110986">
		<tag k="name" v="Myggbukta" />
		<tag k="natural" v="bay" />
		<tag k="ssr:stedsnr" v="524657" />
	</node>
	<node id="-621309" lat="68.3772944437" lon="17.5962638794">
		<tag k="name" v="Kjønna" />
		<tag k="natural" v="water" />
		<tag k="ssr:stedsnr" v="524094" />
	</node>
	<node id="-621308" lat="68.2082694466" lon="17.5526555612">
		<tag k="name" v="Lossielva" />
		<tag k="ssr:stedsnr" v="524093" />
		<tag k="waterway" v="stream" />
	</node>
	<node id="-621267" lat="68.5424611115" lon="17.4827694541">
		<tag k="name" v="Lødalelva" />
		<tag k="ssr:stedsnr" v="510300" />
		<tag k="waterway" v="river" />
	</node>
	<node id="-621257" lat="68.4727694457" lon="18.0146388737">
		<tag k="name" v="Småvatnan" />
		<tag k="natural" v="water" />
		<tag k="ssr:stedsnr" v="507732" />
		<tag k="water" v="lake" />
	</node>
	<node id="-621256" lat="68.4822750045" lon="17.7597194348">
		<tag k="name" v="Bakkevatnet" />
		<tag k="natural" v="water" />
		<tag k="ssr:stedsnr" v="507723" />
	</node>
	<node id="-621253" lat="68.3440444421" lon="17.7048611035">
		<tag k="name" v="Sørbotnelva" />
		<tag k="ssr:stedsnr" v="507711" />
		<tag k="waterway" v="river" />
	</node>
	<node id="-621242" lat="68.4011694406" lon="17.4087222119">
		<tag k="name" v="Millerjordelva" />
		<tag k="ssr:stedsnr" v="503992" />
		<tag k="waterway" v="stream" />
	</node>
	<node id="-621238" lat="68.3622249976" lon="17.4194277812">
		<tag k="name" v="Sørbukta" />
		<tag k="natural" v="bay" />
		<tag k="ssr:stedsnr" v="503893" />
	</node>
	<node id="-621237" lat="68.3407277775" lon="17.1133000082">
		<tag k="name" v="Råntindvatnet - Gaskabeaijávri" />
		<tag k="name:no" v="Råntindvatnet" />
		<tag k="name:se" v="Gaskabeaijávri" />
		<tag k="natural" v="water" />
		<tag k="old_name:se" v="Gaskabæijavri" />
		<tag k="ssr:stedsnr" v="503858" />
		<tag k="water" v="lake" />
	</node>
	<node id="-621232" lat="68.4981611088" lon="17.6657888847">
		<tag k="name" v="Høgvatnet - Hallagasjávri" />
		<tag k="name:no" v="Høgvatnet" />
		<tag k="name:se" v="Hallagasjávri" />
		<tag k="natural" v="water" />
		<tag k="ssr:stedsnr" v="503756" />
		<tag k="water" v="lake" />
	</node>
	<node id="-621231" lat="68.4931083345" lon="17.7041388789">
		<tag k="name" v="Rundvatnet" />
		<tag k="natural" v="water" />
		<tag k="ssr:stedsnr" v="503755" />
	</node>
	<node id="-621230" lat="68.4740055569" lon="17.7186500073">
		<tag k="name" v="Svartvatnet" />
		<tag k="natural" v="water" />
		<tag k="ssr:stedsnr" v="503738" />
	</node>
	<node id="-621223" lat="68.5801500001" lon="17.7034194412">
		<tag k="name" v="Lille-Leigasvatnet" />
		<tag k="natural" v="water" />
		<tag k="ssr:stedsnr" v="503515" />
	</node>
	<node id="-621217" lat="68.4235611098" lon="17.5355777664">
		<tag k="name" v="Forsnesvatnet" />
		<tag k="natural" v="water" />
		<tag k="ssr:stedsnr" v="503176" />
		<tag k="water" v="lake" />
	</node>
	<node id="-621216" lat="68.4424111101" lon="17.5285527635">
		<tag k="name" v="Pumpvatnet" />
		<tag k="natural" v="water" />
		<tag k="ssr:stedsnr" v="503175" />
	</node>
	<node id="-621213" lat="68.3152916637" lon="17.6447527655">
		<tag k="name" v="Skjellelva" />
		<tag k="ssr:stedsnr" v="503166" />
		<tag k="waterway" v="stream" />
	</node>
	<node id="-621211" lat="68.5132833359" lon="17.9551361171">
		<tag k="name" v="Holmelva - Ruovdejohka" />
		<tag k="name:no" v="Holmelva" />
		<tag k="name:se" v="Ruovdejohka" />
		<tag k="ssr:stedsnr" v="503159" />
		<tag k="waterway" v="river" />
	</node>
	<node id="-621210" lat="68.463997226" lon="18.0939388935">
		<tag k="name" v="Langvatnet" />
		<tag k="natural" v="water" />
		<tag k="ssr:stedsnr" v="503156" />
	</node>
	<node id="-621207" lat="68.410647227" lon="18.0762083242">
		<tag k="name" v="Jovikvatnet" />
		<tag k="natural" v="water" />
		<tag k="ssr:stedsnr" v="503089" />
	</node>
	<node id="-621206" lat="68.3674499982" lon="18.010227784">
		<tag k="name" v="Tindvatnet" />
		<tag k="natural" v="water" />
		<tag k="ssr:stedsnr" v="503084" />
		<tag k="water" v="lake" />
	</node>
	<node id="-621204" lat="68.4635666678" lon="17.7061972212">
		<tag k="name" v="Storelva" />
		<tag k="ssr:stedsnr" v="502783" />
		<tag k="waterway" v="stream" />
	</node>
	<node id="-621202" lat="68.1415999997" lon="17.2980805647">
		<tag k="name" v="Middagsvatnet - Gaskabeaijávri" />
		<tag k="name:no" v="Middagsvatnet" />
		<tag k="name:se" v="Gaskabeaijávri" />
		<tag k="natural" v="water" />
		<tag k="ssr:stedsnr" v="502731" />
		<tag k="water" v="lake" />
	</node>
	<node id="-621198" lat="68.1749500005" lon="17.3207777655">
		<tag k="name" v="Tjårdaelva" />
		<tag k="ssr:stedsnr" v="502700" />
		<tag k="waterway" v="stream" />
	</node>
	<node id="-621194" lat="68.0772666693" lon="17.7570666574">
		<tag k="name" v="Nuorjjojohka" />
		<tag k="name:se" v="Nuorjjojohka" />
		<tag k="ssr:stedsnr" v="502657" />
		<tag k="waterway" v="stream" />
	</node>
	<node id="-621184" lat="68.5431277764" lon="17.7237499944">
		<tag k="name" v="Krokelva" />
		<tag k="ssr:stedsnr" v="483184" />
		<tag k="waterway" v="stream" />
	</node>
	<node id="-621183" lat="68.5514694451" lon="17.9260027689">
		<tag k="name" v="Lille-Nevra" />
		<tag k="natural" v="water" />
		<tag k="ssr:stedsnr" v="481384" />
	</node>
	<node id="-621170" lat="68.1814222181" lon="17.5491361094">
		<tag k="name" v="Lorishølla" />
		<tag k="natural" v="water" />
		<tag k="ssr:stedsnr" v="464116" />
		<tag k="water" v="lake" />
	</node>
	<node id="-621165" lat="68.2019750033" lon="17.5287472305">
		<tag k="name" v="Øverneset" />
		<tag k="natural" v="cape" />
		<tag k="ssr:stedsnr" v="464008" />
	</node>
	<node id="-621162" lat="68.3323583367" lon="17.2280333337">
		<tag k="name" v="Kjerringelva" />
		<tag k="ssr:stedsnr" v="455010" />
		<tag k="waterway" v="river" />
	</node>
	<node id="-621157" lat="68.399266671" lon="17.3274583254">
		<tag k="name" v="Revneset" />
		<tag k="natural" v="cape" />
		<tag k="ssr:stedsnr" v="450964" />
	</node>
	<node id="-621152" lat="68.4102416652" lon="17.3878472076">
		<tag k="name" v="Vedbergelva" />
		<tag k="ssr:stedsnr" v="450626" />
		<tag k="waterway" v="river" />
	</node>
	<node id="-621128" lat="68.5083944465" lon="17.3602611161">
		<tag k="name" v="Hansevadet" />
		<tag k="place" v="locality" />
		<tag k="ssr:stedsnr" v="450261" />
	</node>
	<node id="-621116" lat="68.4373888863" lon="17.9508166645">
		<tag k="name" v="Søsterbekkvatnan" />
		<tag k="natural" v="water" />
		<tag k="ssr:stedsnr" v="446759" />
		<tag k="water" v="lake" />
	</node>
	<node id="-621113" lat="68.4925361149" lon="17.9804305567">
		<tag k="name" v="Skogvatnet" />
		<tag k="natural" v="water" />
		<tag k="ssr:stedsnr" v="446730" />
	</node>
	<node id="-621112" lat="68.4578277732" lon="18.0389750068">
		<tag k="name" v="Øvre Geitvatnet" />
		<tag k="natural" v="water" />
		<tag k="ssr:stedsnr" v="446728" />
	</node>
	<node id="-621110" lat="68.4590722176" lon="17.7734638962">
		<tag k="name" v="Svartdalsvatnet" />
		<tag k="natural" v="water" />
		<tag k="ssr:stedsnr" v="446718" />
	</node>
	<node id="-621101" lat="68.5710166671" lon="17.4132749932">
		<tag k="name" v="Treholmtjønna" />
		<tag k="natural" v="water" />
		<tag k="ssr:stedsnr" v="444940" />
	</node>
	<node id="-621100" lat="68.3179833294" lon="17.2043166691">
		<tag k="name" v="Mellavatnet" />
		<tag k="natural" v="water" />
		<tag k="ssr:stedsnr" v="443846" />
	</node>
	<node id="-621099" lat="68.3338666675" lon="17.404416674">
		<tag k="name" v="Kvitforselva - Lágojohka" />
		<tag k="name:no" v="Kvitforselva" />
		<tag k="name:se" v="Lágojohka" />
		<tag k="ssr:stedsnr" v="443830" />
		<tag k="waterway" v="river" />
	</node>
	<node id="-621098" lat="68.4745111112" lon="17.9487944395">
		<tag k="name" v="Skomakaren" />
		<tag k="natural" v="water" />
		<tag k="ssr:stedsnr" v="443746" />
	</node>
	<node id="-621091" lat="68.3755138852" lon="17.1918277666">
		<tag k="name" v="Løbergelva" />
		<tag k="ssr:stedsnr" v="442963" />
		<tag k="waterway" v="stream" />
	</node>
	<node id="-621088" lat="68.2819305535" lon="17.3118861012">
		<tag k="name" v="Kulåkerelva" />
		<tag k="ssr:stedsnr" v="442870" />
		<tag k="waterway" v="stream" />
	</node>
	<node id="-621087" lat="68.2793472245" lon="17.2717083424">
		<tag k="name" v="Gjerdhaugvatnet" />
		<tag k="natural" v="water" />
		<tag k="ssr:stedsnr" v="442865" />
	</node>
	<node id="-621086" lat="68.2511944413" lon="17.287969431">
		<tag k="name" v="Kvanntovatnan" />
		<tag k="natural" v="water" />
		<tag k="ssr:stedsnr" v="442830" />
	</node>
	<node id="-621074" lat="68.2954499976" lon="17.5826250037">
		<tag k="name" v="Tverrdalselva" />
		<tag k="ssr:stedsnr" v="442468" />
		<tag k="waterway" v="river" />
	</node>
	<node id="-621067" lat="68.1228694475" lon="17.5897833432">
		<tag k="name" v="Holmen" />
		<tag k="place" v="islet" />
		<tag k="ssr:stedsnr" v="441664" />
	</node>
	<node id="-621064" lat="68.3868999984" lon="17.7486694445">
		<tag k="name" v="Langvatnet" />
		<tag k="natural" v="water" />
		<tag k="ssr:stedsnr" v="441218" />
	</node>
	<node id="-621062" lat="68.3591222193" lon="17.488222207">
		<tag k="name" v="Larselva" />
		<tag k="ssr:stedsnr" v="441144" />
		<tag k="waterway" v="stream" />
	</node>
	<node id="-621037" lat="68.5615055578" lon="17.7195500056">
		<tag k="name" v="Bierrajohka" />
		<tag k="name:se" v="Bierrajohka" />
		<tag k="ssr:stedsnr" v="268056" />
		<tag k="waterway" v="stream" />
	</node>
	<node id="-621028" lat="68.5115361155" lon="17.9264055449">
		<tag k="name" v="Telegrafvatnet" />
		<tag k="natural" v="water" />
		<tag k="ssr:stedsnr" v="264748" />
	</node>
	<node id="-621027" lat="68.4727250004" lon="17.7871805623">
		<tag k="name" v="Svartdalselva" />
		<tag k="ssr:stedsnr" v="264700" />
		<tag k="waterway" v="river" />
	</node>
	<node id="-621025" lat="68.3481916634" lon="17.7004694417">
		<tag k="name" v="Nordbotnelva" />
		<tag k="ssr:stedsnr" v="264690" />
		<tag k="waterway" v="river" />
	</node>
	<node id="-621023" lat="68.510316664" lon="17.781022228">
		<tag k="name" v="Holmvassbukta" />
		<tag k="natural" v="bay" />
		<tag k="ssr:stedsnr" v="264683" />
	</node>
	<node id="-621022" lat="68.5056416627" lon="17.7797777702">
		<tag k="name" v="Grønnbukta" />
		<tag k="natural" v="bay" />
		<tag k="ssr:stedsnr" v="264675" />
	</node>
	<node id="-621017" lat="68.1888027791" lon="17.3357277883">
		<tag k="name" v="Urelva" />
		<tag k="ssr:stedsnr" v="264661" />
		<tag k="waterway" v="stream" />
	</node>
	<node id="-621015" lat="68.3579500037" lon="17.236772233">
		<tag k="name" v="Erikvikelva" />
		<tag k="ssr:stedsnr" v="264641" />
		<tag k="waterway" v="stream" />
	</node>
	<node id="-621011" lat="68.5354166672" lon="17.3196138901">
		<tag k="name" v="Gåsvatnet" />
		<tag k="natural" v="water" />
		<tag k="ssr:stedsnr" v="263574" />
	</node>
	<node id="-621008" lat="68.4688083303" lon="17.9826416651">
		<tag k="name" v="Sølvsmeden" />
		<tag k="natural" v="water" />
		<tag k="ssr:stedsnr" v="261740" />
	</node>
	<node id="-621003" lat="68.3767722259" lon="17.1373305435">
		<tag k="name" v="Djupåga" />
		<tag k="ssr:stedsnr" v="260976" />
		<tag k="waterway" v="stream" />
	</node>
	<node id="-620994" lat="68.3269277775" lon="17.2937333417">
		<tag k="alt_name" v="Skjelelva" />
		<tag k="name" v="Skjellelva" />
		<tag k="ssr:stedsnr" v="260876" />
		<tag k="waterway" v="stream" />
	</node>
	<node id="-620988" lat="68.5432555555" lon="17.7664666535">
		<tag k="name" v="Litlebalakvatnet - Bálakjávri" />
		<tag k="name:no" v="Litlebalakvatnet" />
		<tag k="name:se" v="Bálakjávri" />
		<tag k="natural" v="water" />
		<tag k="old_name:se" v="Balagjavri" />
		<tag k="ssr:stedsnr" v="260784" />
	</node>
	<node id="-620987" lat="68.5458083296" lon="17.7145138738">
		<tag k="name" v="Kjukelva" />
		<tag k="ssr:stedsnr" v="260782" />
		<tag k="waterway" v="stream" />
	</node>
	<node id="-620986" lat="68.5460083339" lon="17.4281999922">
		<tag k="name" v="Djupelva" />
		<tag k="ssr:stedsnr" v="260766" />
		<tag k="waterway" v="stream" />
	</node>
	<node id="-620982" lat="68.5151305535" lon="17.7096833338">
		<tag k="name" v="Gropvatnet - Roggejávri" />
		<tag k="name:no" v="Gropvatnet" />
		<tag k="name:se" v="Roggejávri" />
		<tag k="natural" v="water" />
		<tag k="ssr:stedsnr" v="260669" />
	</node>
	<node id="-620978" lat="68.5756277817" lon="17.5480138909">
		<tag k="alt_name" v="Snøslettelva" />
		<tag k="name" v="Snyslettelva" />
		<tag k="ssr:stedsnr" v="260564" />
		<tag k="waterway" v="stream" />
	</node>
	<node id="-620975" lat="68.5919583296" lon="17.6266027634">
		<tag k="name" v="Diamantdalsvatnan" />
		<tag k="natural" v="water" />
		<tag k="ssr:stedsnr" v="260551" />
		<tag k="water" v="lake" />
	</node>
	<node id="-620974" lat="68.4138972258" lon="17.9323750066">
		<tag k="name" v="Søsterbekken" />
		<tag k="ssr:stedsnr" v="260297" />
		<tag k="waterway" v="stream" />
	</node>
	<node id="-620970" lat="68.4559916629" lon="17.7204388755">
		<tag k="name" v="Strandelva" />
		<tag k="ssr:stedsnr" v="260254" />
		<tag k="waterway" v="stream" />
	</node>
	<node id="-620967" lat="68.4410166676" lon="17.469158326">
		<tag k="name" v="Taraldsvikelva" />
		<tag k="ssr:stedsnr" v="260234" />
		<tag k="waterway" v="stream" />
	</node>
	<node id="-620963" lat="68.4679277812" lon="18.0334472166">
		<tag k="name" v="Rundvatnet" />
		<tag k="natural" v="water" />
		<tag k="ssr:stedsnr" v="260203" />
	</node>
	<node id="-620962" lat="68.4270777732" lon="18.0405111169">
		<tag k="name" v="Grusgropvatnet" />
		<tag k="natural" v="water" />
		<tag k="ssr:stedsnr" v="260129" />
	</node>
	<node id="-620960" lat="68.2791999993" lon="18.1268416696">
		<tag k="name" v="Válfojohka" />
		<tag k="name:se" v="Válfojohka" />
		<tag k="ssr:stedsnr" v="260118" />
		<tag k="waterway" v="stream" />
	</node>
	<node id="-620954" lat="68.200497225" lon="17.6087527756">
		<tag k="name" v="Unna-Loasaš" />
		<tag k="name:se" v="Unna-Loasaš" />
		<tag k="natural" v="water" />
		<tag k="old_name:se" v="Loasaš, unna" />
		<tag k="ssr:stedsnr" v="259676" />
	</node>
	<node id="-620948" lat="68.2272333343" lon="18.0322055453">
		<tag k="name" v="Sealggajohka" />
		<tag k="name:se" v="Sealggajohka" />
		<tag k="ssr:stedsnr" v="259614" />
		<tag k="waterway" v="river" />
	</node>
	<node id="-620945" lat="68.4056333377" lon="17.9522222086">
		<tag k="name" v="Rombakselva - Ruoppakjohka" />
		<tag k="name:no" v="Rombakselva" />
		<tag k="name:se" v="Ruoppakjohka" />
		<tag k="ssr:stedsnr" v="259226" />
		<tag k="waterway" v="river" />
	</node>
	<node id="-620938" lat="68.3715250032" lon="17.8231111133">
		<tag k="name" v="Daudvatnet" />
		<tag k="natural" v="water" />
		<tag k="ssr:stedsnr" v="259129" />
		<tag k="water" v="lake" />
	</node>
	<node id="-620936" lat="68.5378388847" lon="17.9559777786">
		<tag k="name" v="Øvre Kubergvatnet" />
		<tag k="natural" v="water" />
		<tag k="ssr:stedsnr" v="241530" />
		<tag k="water" v="lake" />
	</node>
	<node id="-620931" lat="68.555041669" lon="17.7462888981">
		<tag k="name" v="Lamholmen" />
		<tag k="place" v="islet" />
		<tag k="ssr:stedsnr" v="240260" />
	</node>
	<node id="-620923" lat="68.2090722174" lon="17.4883944505">
		<tag k="name" v="Kobbeneset" />
		<tag k="natural" v="cape" />
		<tag k="ssr:stedsnr" v="221696" />
	</node>
	<node id="-620920" lat="68.1831666642" lon="17.5530472236">
		<tag k="name" v="Vinbærholmen" />
		<tag k="place" v="islet" />
		<tag k="ssr:stedsnr" v="221082" />
	</node>
	<node id="-620264" lat="68.2200027776" lon="18.0950388855">
		<tag k="name" v="Vávratjohka" />
		<tag k="name:se" v="Vávratjohka" />
		<tag k="ssr:stedsnr" v="381884" />
		<tag k="waterway" v="stream" />
	</node>
	<node id="-620884" lat="68.409813888" lon="17.9060083202">
		<tag k="name" v="Middagselva" />
		<tag k="ssr:stedsnr" v="204704" />
		<tag k="waterway" v="stream" />
	</node>
	<node id="-620882" lat="68.4281388894" lon="17.5668333226">
		<tag k="name" v="Isvatnet - Jiekŋajávri" />
		<tag k="name:no" v="Isvatnet" />
		<tag k="name:se" v="Jiekŋajávri" />
		<tag k="natural" v="water" />
		<tag k="ssr:stedsnr" v="204691" />
		<tag k="water" v="lake" />
	</node>
	<node id="-620880" lat="68.4754944462" lon="17.777255562">
		<tag k="name" v="Tjønnan" />
		<tag k="natural" v="water" />
		<tag k="ssr:stedsnr" v="204680" />
		<tag k="water" v="lake" />
	</node>
	<node id="-620879" lat="68.4645027806" lon="17.7087388955">
		<tag k="name" v="Mølnholmen" />
		<tag k="place" v="islet" />
		<tag k="ssr:stedsnr" v="204678" />
	</node>
	<node id="-620877" lat="68.5170944467" lon="17.7605722319">
		<tag k="name" v="Fiskelauselva" />
		<tag k="ssr:stedsnr" v="204658" />
		<tag k="waterway" v="river" />
	</node>
	<node id="-620869" lat="68.5269777788" lon="17.3296694378">
		<tag k="name" v="Langvatnet" />
		<tag k="natural" v="water" />
		<tag k="ssr:stedsnr" v="202608" />
	</node>
	<node id="-620862" lat="68.4957055557" lon="17.9404388781">
		<tag k="name" v="Mikal Johan-vatnet" />
		<tag k="natural" v="water" />
		<tag k="ssr:stedsnr" v="200783" />
	</node>
	<node id="-620859" lat="68.5711194425" lon="17.4407055624">
		<tag k="name" v="Heimvatnet" />
		<tag k="natural" v="water" />
		<tag k="ssr:stedsnr" v="200698" />
	</node>
	<node id="-620846" lat="68.5200527818" lon="18.1025361004">
		<tag k="name" v="Reavrrejávri" />
		<tag k="name:se" v="Reavrrejávri" />
		<tag k="natural" v="water" />
		<tag k="old_name:se" v="Rævrejavri" />
		<tag k="ssr:stedsnr" v="200271" />
		<tag k="water" v="lake" />
	</node>
	<node id="-620837" lat="68.5504000026" lon="17.6334194437">
		<tag k="name" v="Elvegårdselva" />
		<tag k="ssr:stedsnr" v="200159" />
		<tag k="waterway" v="river" />
	</node>
	<node id="-620836" lat="68.4471249997" lon="18.0503499913">
		<tag k="name" v="Pettersenvatnet" />
		<tag k="natural" v="water" />
		<tag k="ssr:stedsnr" v="200156" />
	</node>
	<node id="-620835" lat="68.5858527787" lon="17.5938361074">
		<tag k="name" v="Kvitsteinelva" />
		<tag k="ssr:stedsnr" v="199539" />
		<tag k="waterway" v="stream" />
	</node>
	<node id="-620833" lat="68.4093250026" lon="17.5950305459">
		<tag k="name" v="Isvatnet - Jiekŋajávri" />
		<tag k="name:no" v="Isvatnet" />
		<tag k="name:se" v="Jiekŋajávri" />
		<tag k="natural" v="water" />
		<tag k="ssr:stedsnr" v="199450" />
		<tag k="water" v="lake" />
	</node>
	<node id="-620830" lat="68.3854138924" lon="17.5992611153">
		<tag k="name" v="Kaldelva" />
		<tag k="ssr:stedsnr" v="199258" />
		<tag k="waterway" v="stream" />
	</node>
	<node id="-620823" lat="68.4656527762" lon="17.9639361179">
		<tag k="name" v="Jeksla" />
		<tag k="natural" v="water" />
		<tag k="ssr:stedsnr" v="199225" />
	</node>
	<node id="-620819" lat="68.3155972258" lon="17.6858999937">
		<tag k="name" v="Storfjellvatnet" />
		<tag k="natural" v="water" />
		<tag k="ssr:stedsnr" v="199198" />
		<tag k="water" v="lake" />
	</node>
	<node id="-620818" lat="68.311241665" lon="17.7632388936">
		<tag k="name" v="Helligvatnet - Basejávri" />
		<tag k="name:no" v="Helligvatnet" />
		<tag k="name:se" v="Basejávri" />
		<tag k="natural" v="water" />
		<tag k="ssr:stedsnr" v="199197" />
		<tag k="water" v="lake" />
	</node>
	<node id="-620814" lat="68.3421388926" lon="17.50172223">
		<tag k="fixme" v="multiple name tags, choose one and add the other to alt_name" />
		<tag k="name" v="Sjursheimvatnet - Badjegeašjávri;Skirejávri" />
		<tag k="name:no" v="Sjursheimvatnet" />
		<tag k="name:se" v="Badjegeašjávri;Skirejávri" />
		<tag k="natural" v="water" />
		<tag k="ssr:stedsnr" v="199154" />
		<tag k="water" v="lake" />
	</node>
	<node id="-620811" lat="68.1864000041" lon="17.7836916713">
		<tag k="name" v="Loasejohka" />
		<tag k="name:se" v="Loasejohka" />
		<tag k="ssr:stedsnr" v="199696" />
		<tag k="waterway" v="river" />
	</node>
	<node id="-620802" lat="68.2604972229" lon="17.4329138864">
		<tag k="name" v="Svendelva" />
		<tag k="ssr:stedsnr" v="180744" />
		<tag k="waterway" v="stream" />
	</node>
	<node id="-620793" lat="68.3821611128" lon="17.1214611107">
		<tag k="name" v="Åa" />
		<tag k="ssr:stedsnr" v="163936" />
		<tag k="waterway" v="stream" />
	</node>
	<node id="-620787" lat="68.2255444411" lon="17.4416944472">
		<tag k="name" v="Berghølla" />
		<tag k="natural" v="water" />
		<tag k="ssr:stedsnr" v="160749" />
		<tag k="water" v="lake" />
	</node>
	<node id="-620782" lat="68.3714805533" lon="17.5978388965">
		<tag k="name" v="Hesjedalsvatnet" />
		<tag k="natural" v="water" />
		<tag k="ssr:stedsnr" v="160096" />
	</node>
	<node id="-620779" lat="68.3979305528" lon="17.5151777681">
		<tag k="name" v="Greteelva" />
		<tag k="ssr:stedsnr" v="160046" />
		<tag k="waterway" v="stream" />
	</node>
	<node id="-620776" lat="68.2002583364" lon="17.5446388849">
		<tag k="name" v="Jakobneset" />
		<tag k="natural" v="cape" />
		<tag k="ssr:stedsnr" v="160015" />
	</node>
	<node id="-620760" lat="68.1576250049" lon="17.8980416536">
		<tag k="name" v="Steinelva" />
		<tag k="ssr:stedsnr" v="146599" />
		<tag k="waterway" v="stream" />
	</node>
	<node id="-620235" lat="68.3366833334" lon="17.5098416619">
		<tag k="name" v="Storelva" />
		<tag k="ssr:stedsnr" v="381464" />
		<tag k="waterway" v="river" />
	</node>
	<node id="-620234" lat="68.2971305587" lon="17.6477138967">
		<tag k="fixme" v="multiple name tags, choose one and add the other to alt_name" />
		<tag k="name" v="Skamdalsvatnet - Skápmajávri;Stuorajávri" />
		<tag k="name:no" v="Skamdalsvatnet" />
		<tag k="name:se" v="Skápmajávri;Stuorajávri" />
		<tag k="natural" v="water" />
		<tag k="ssr:stedsnr" v="381462" />
		<tag k="water" v="lake" />
	</node>
	<node id="-620729" lat="68.5805305579" lon="17.7032333366">
		<tag k="name" v="Leigasvatnan" />
		<tag k="natural" v="water" />
		<tag k="ssr:stedsnr" v="146073" />
		<tag k="water" v="lake" />
	</node>
	<node id="-620725" lat="68.4866194413" lon="17.979969432">
		<tag k="name" v="Urdalselva" />
		<tag k="ssr:stedsnr" v="142742" />
		<tag k="waterway" v="river" />
	</node>
	<node id="-620720" lat="68.5024638877" lon="17.8039833397">
		<tag k="name" v="Svartvatnet" />
		<tag k="natural" v="water" />
		<tag k="ssr:stedsnr" v="142693" />
	</node>
	<node id="-620716" lat="68.1826805512" lon="17.2961055575">
		<tag k="name" v="Skarelva" />
		<tag k="ssr:stedsnr" v="142678" />
		<tag k="waterway" v="river" />
	</node>
	<node id="-620714" lat="68.4940555566" lon="17.3384333408">
		<tag k="name" v="Fjellelva" />
		<tag k="ssr:stedsnr" v="142659" />
		<tag k="waterway" v="stream" />
	</node>
	<node id="-620711" lat="68.3742416678" lon="17.102886115">
		<tag k="name" v="Djupdalsåa" />
		<tag k="ssr:stedsnr" v="142612" />
		<tag k="waterway" v="stream" />
	</node>
	<node id="-620708" lat="68.4241475927" lon="17.5550039816">
		<tag k="loc_name:se" v="Áhkanjárga" />
		<tag k="name" v="Áhkánjárga" />
		<tag k="name:se" v="Áhkánjárga" />
		<tag k="natural" v="cape" />
		<tag k="ssr:stedsnr" v="142398" />
	</node>
	<node id="-620704" lat="68.3795111109" lon="17.3629638817">
		<tag k="name" v="Silvatnet" />
		<tag k="natural" v="water" />
		<tag k="ssr:stedsnr" v="139947" />
	</node>
	<node id="-620703" lat="68.383119442" lon="17.3950999978">
		<tag k="name" v="Akselelva" />
		<tag k="ssr:stedsnr" v="139943" />
		<tag k="waterway" v="stream" />
	</node>
	<node id="-620696" lat="68.481733336" lon="17.9112555477">
		<tag k="name" v="Smalvatnet" />
		<tag k="natural" v="water" />
		<tag k="ssr:stedsnr" v="139718" />
	</node>
	<node id="-620695" lat="68.4129305586" lon="18.0050611063">
		<tag k="name" v="Brudeslørvatnet" />
		<tag k="natural" v="water" />
		<tag k="ssr:stedsnr" v="139103" />
	</node>
	<node id="-620694" lat="68.463674998" lon="18.0750111005">
		<tag k="alt_name" v="Ørnvatnet, øvre" />
		<tag k="name" v="Øvre Ørnvatnet" />
		<tag k="natural" v="water" />
		<tag k="ssr:stedsnr" v="139166" />
	</node>
	<node id="-620690" lat="68.1988361135" lon="18.136083329">
		<tag k="name" v="Rádjejohka" />
		<tag k="name:se" v="Rádjejohka" />
		<tag k="ssr:stedsnr" v="138868" />
		<tag k="waterway" v="river" />
	</node>
	<node id="-620681" lat="68.370038889" lon="17.1837416622">
		<tag k="name" v="Middagstuvvatnet" />
		<tag k="natural" v="water" />
		<tag k="ssr:stedsnr" v="138915" />
	</node>
	<node id="-620680" lat="68.3738861108" lon="17.401838883">
		<tag k="name" v="Nervatnet - Vuollegeašjávri" />
		<tag k="name:no" v="Nervatnet" />
		<tag k="name:se" v="Vuollegeašjávri" />
		<tag k="natural" v="water" />
		<tag k="old_name:se" v="Vuollegæšjavri" />
		<tag k="ssr:stedsnr" v="138912" />
		<tag k="water" v="lake" />
	</node>
	<node id="-620679" lat="68.2271500019" lon="17.4324861177">
		<tag k="name" v="Elvegårdselva" />
		<tag k="ssr:stedsnr" v="138750" />
		<tag k="waterway" v="river" />
	</node>
	<node id="-620674" lat="68.0086805525" lon="17.9254416641">
		<tag k="fixme" v="multiple name tags, choose one and add the other to alt_name" />
		<tag k="name" v="Vuolip Čoarvejávri;Unna Guovdelisjávri" />
		<tag k="name:se" v="Vuolip Čoarvejávri;Unna Guovdelisjávri" />
		<tag k="natural" v="water" />
		<tag k="old_name:se" v="Guovdelisjávri, unna" />
		<tag k="ssr:stedsnr" v="138651" />
		<tag k="water" v="lake" />
	</node>
	<node id="-620663" lat="68.3855611105" lon="17.5978694427">
		<tag k="alt_name" v="Heimeelva" />
		<tag k="name" v="Heimelielva" />
		<tag k="ssr:stedsnr" v="138238" />
		<tag k="waterway" v="stream" />
	</node>
	<node id="-620661" lat="68.4639805579" lon="17.993936119">
		<tag k="name" v="Gullsmeden" />
		<tag k="natural" v="water" />
		<tag k="ssr:stedsnr" v="138226" />
	</node>
	<node id="-620656" lat="68.4970472223" lon="17.2886166655">
		<tag k="name" v="Ytterstorelva" />
		<tag k="ssr:stedsnr" v="137521" />
		<tag k="waterway" v="stream" />
	</node>
	<node id="-620655" lat="68.363833337" lon="17.5757500106">
		<tag k="name" v="Naustbakkelva" />
		<tag k="ssr:stedsnr" v="137107" />
		<tag k="waterway" v="stream" />
	</node>
	<node id="-620654" lat="68.3424749979" lon="17.7599222157">
		<tag k="name" v="Klubbvatnet - Šlubbojávri" />
		<tag k="name:no" v="Klubbvatnet" />
		<tag k="name:se" v="Šlubbojávri" />
		<tag k="natural" v="water" />
		<tag k="ssr:stedsnr" v="137099" />
		<tag k="water" v="lake" />
	</node>
	<node id="-620653" lat="68.3467999974" lon="17.4899333196">
		<tag k="name" v="Litlevatnet" />
		<tag k="natural" v="water" />
		<tag k="ssr:stedsnr" v="137092" />
	</node>
	<node id="-620631" lat="68.3008861081" lon="17.3592055605">
		<tag k="name" v="Mølnelva" />
		<tag k="ssr:stedsnr" v="100670" />
		<tag k="waterway" v="stream" />
	</node>
	<node id="-620628" lat="68.3755166686" lon="17.3851750036">
		<tag k="name" v="Håkarneset" />
		<tag k="natural" v="cape" />
		<tag k="ssr:stedsnr" v="100659" />
	</node>
	<node id="-620626" lat="68.3626305601" lon="17.4757416628">
		<tag k="name" v="Holmelva" />
		<tag k="ssr:stedsnr" v="100632" />
		<tag k="waterway" v="stream" />
	</node>
	<node id="-620213" lat="68.3860305537" lon="17.593733332">
		<tag k="name" v="Fjøsneselva" />
		<tag k="ssr:stedsnr" v="380210" />
		<tag k="waterway" v="stream" />
	</node>
	<node id="-620599" lat="68.5884972216" lon="17.6094916755">
		<tag k="name" v="Svartkråelva" />
		<tag k="ssr:stedsnr" v="86004" />
		<tag k="waterway" v="stream" />
	</node>
	<node id="-620211" lat="68.3339194421" lon="17.9591888859">
		<tag k="name" v="Hunddalselva" />
		<tag k="ssr:stedsnr" v="380136" />
		<tag k="waterway" v="river" />
	</node>
	<node id="-620589" lat="68.4295388925" lon="17.933397219">
		<tag k="name" v="Ellentjønna" />
		<tag k="natural" v="water" />
		<tag k="ssr:stedsnr" v="82725" />
	</node>
	<node id="-620588" lat="68.511980558" lon="17.742158327">
		<tag k="name" v="Grensevatnet" />
		<tag k="natural" v="water" />
		<tag k="ssr:stedsnr" v="82682" />
	</node>
	<node id="-620587" lat="68.4953694446" lon="17.806286097">
		<tag k="name" v="Jernvassdammen" />
		<tag k="ssr:stedsnr" v="82677" />
		<tag k="waterway" v="dam" />
	</node>
	<node id="-620579" lat="68.5369222197" lon="17.3834055515">
		<tag k="alt_name" v="Båtvatnet, l" />
		<tag k="name" v="Lille Båtvatnet" />
		<tag k="natural" v="water" />
		<tag k="ssr:stedsnr" v="81590" />
	</node>
	<node id="-620578" lat="68.532083331" lon="17.4061916573">
		<tag k="name" v="Trollvikelva" />
		<tag k="ssr:stedsnr" v="81588" />
		<tag k="waterway" v="stream" />
	</node>
	<node id="-620574" lat="68.4783805525" lon="17.5718666752">
		<tag k="name" v="Mølnelva" />
		<tag k="ssr:stedsnr" v="79719" />
		<tag k="waterway" v="stream" />
	</node>
	<node id="-620569" lat="68.3654527742" lon="17.3680416746">
		<tag k="name" v="Peppartuvelva" />
		<tag k="ssr:stedsnr" v="78940" />
		<tag k="waterway" v="stream" />
	</node>
	<node id="-620567" lat="68.3625833337" lon="17.3871499885">
		<tag k="name" v="Middagselva" />
		<tag k="ssr:stedsnr" v="78938" />
		<tag k="waterway" v="stream" />
	</node>
	<node id="-620566" lat="68.3629694425" lon="17.1362555626">
		<tag k="name" v="Hammarvatnet" />
		<tag k="natural" v="water" />
		<tag k="ssr:stedsnr" v="78925" />
	</node>
	<node id="-620554" lat="68.5686583356" lon="17.4405694464">
		<tag k="name" v="Trekanten" />
		<tag k="natural" v="water" />
		<tag k="ssr:stedsnr" v="78716" />
	</node>
	<node id="-620550" lat="68.188811111" lon="17.959963895">
		<tag k="name" v="Sáttojohka" />
		<tag k="name:se" v="Sáttojohka" />
		<tag k="ssr:stedsnr" v="78684" />
		<tag k="waterway" v="stream" />
	</node>
</osm>
