<?xml version="1.0" encoding="UTF-8"?>
<osm generator="osmapis" version="0.6">
	<node id="-621311" lat="68.472416148" lon="17.5036389422">
		<tag k="name" v="Øyjorda" />
		<tag k="place" v="locality" />
		<tag k="ssr:stedsnr" v="988392" />
	</node>
	<node id="-621565" lat="68.0017249991" lon="17.7897722192">
		<tag k="historic" v="boundary_stone" />
		<tag k="man_made" v="cairn" />
		<tag k="name" v="Østre Jouvvacorrurøysa" />
		<tag k="old_name" v="Østre Jova Tiorro Røset;ø Jovaskjøris røys" />
		<tag k="place" v="locality" />
		<tag k="ssr:stedsnr" v="111019" />
	</node>
	<node id="-622843" lat="68.1081249987" lon="18.0522583386">
		<tag k="historic" v="boundary_stone" />
		<tag k="man_made" v="cairn" />
		<tag k="name" v="Caihnavaggirøysa" />
		<tag k="old_name" v="Cainhavagge røys;Kiaina Vaggi Røset" />
		<tag k="place" v="locality" />
		<tag k="ssr:stedsnr" v="778016" />
	</node>
	<node id="-622842" lat="68.2490194491" lon="18.1388861026">
		<tag k="alt_name" v="Sjangelirøysa" />
		<tag k="historic" v="boundary_stone" />
		<tag k="man_made" v="cairn" />
		<tag k="name" v="Sjanglirøysa" />
		<tag k="old_name" v="Skangala røys;Sjangli røys;Skangala Røset" />
		<tag k="place" v="locality" />
		<tag k="ssr:stedsnr" v="777451" />
	</node>
	<node id="-621721" lat="68.1036861141" lon="17.3547916596">
		<tag k="alt_name" v="Kjårdavatnrøysa" />
		<tag k="historic" v="boundary_stone" />
		<tag k="man_made" v="cairn" />
		<tag k="name" v="Tjårdavatnrøysa" />
		<tag k="old_name" v="Ipta Jaure Røset" />
		<tag k="place" v="locality" />
		<tag k="ssr:stedsnr" v="171102" />
	</node>
	<node id="-623096" lat="68.1987916639" lon="18.1513555534">
		<tag k="historic" v="boundary_stone" />
		<tag k="man_made" v="cairn" />
		<tag k="name" v="Allakasrøysa" />
		<tag k="old_name" v="Allagaisrøset;Allagas røys" />
		<tag k="place" v="locality" />
		<tag k="ssr:stedsnr" v="900027" />
	</node>
	<node id="-623095" lat="68.1461416664" lon="18.0956222141">
		<tag k="alt_name" v="Gallanjohkarøysa" />
		<tag k="historic" v="boundary_stone" />
		<tag k="man_made" v="cairn" />
		<tag k="name" v="Galamjåkkarøysa" />
		<tag k="old_name" v="Kalam Joks Røset;Galamjok røys" />
		<tag k="place" v="locality" />
		<tag k="ssr:stedsnr" v="900021" />
	</node>
	<node id="-623094" lat="68.4059333351" lon="18.1010694471">
		<tag k="historic" v="boundary_stone" />
		<tag k="man_made" v="cairn" />
		<tag k="name" v="Katteratrøysa" />
		<tag k="old_name" v="Kadderoivi Røset" />
		<tag k="place" v="locality" />
		<tag k="ssr:stedsnr" v="899456" />
	</node>
	<node id="-622963" lat="68.3404638913" lon="18.1146111018">
		<tag k="alt_name" v="Dossaganrøysa" />
		<tag k="historic" v="boundary_stone" />
		<tag k="man_made" v="cairn" />
		<tag k="name" v="Dossagemrøysa" />
		<tag k="old_name" v="Tosadem Røset" />
		<tag k="place" v="locality" />
		<tag k="ssr:stedsnr" v="838482" />
	</node>
	<node id="-621136" lat="68.0383805549" lon="17.6647527767">
		<tag k="historic" v="boundary_stone" />
		<tag k="man_made" v="cairn" />
		<tag k="name" v="Vestre Jouvvacorrurøysa" />
		<tag k="old_name" v="Vestre Jova Tiorro Røset;v Jovaskjøris røys" />
		<tag k="place" v="locality" />
		<tag k="ssr:stedsnr" v="414115" />
	</node>
	<node id="-622408" lat="67.9693666673" lon="17.8997527654">
		<tag k="historic" v="boundary_stone" />
		<tag k="man_made" v="cairn" />
		<tag k="name" v="Ivarsteinen" />
		<tag k="old_name" v="Ivarsteen;Ivarstein røys" />
		<tag k="place" v="locality" />
		<tag k="ssr:stedsnr" v="623654" />
	</node>
	<node id="-623239" lat="68.5365138896" lon="18.1259194413">
		<tag k="alt_name" v="Store Rævrerøysa" />
		<tag k="historic" v="boundary_stone" />
		<tag k="man_made" v="cairn" />
		<tag k="name" v="Stuora Revrri-røysa" />
		<tag k="old_name" v="Store Reuri Røset" />
		<tag k="place" v="locality" />
		<tag k="ssr:stedsnr" v="959408" />
	</node>
	<node id="-621126" lat="68.0748333324" lon="17.495375003">
		<tag k="historic" v="boundary_stone" />
		<tag k="man_made" v="cairn" />
		<tag k="name" v="Mierffasrøysa" />
		<tag k="old_name" v="Mærfas Røset;Morfas røys" />
		<tag k="place" v="locality" />
		<tag k="ssr:stedsnr" v="353136" />
	</node>
	<node id="-622689" lat="68.4898083353" lon="18.1177500017">
		<tag k="historic" v="boundary_stone" />
		<tag k="man_made" v="cairn" />
		<tag k="name" v="Suolo Kievelrøysa" />
		<tag k="old_name" v="Sola kievel Røset" />
		<tag k="place" v="locality" />
		<tag k="ssr:stedsnr" v="717475" />
	</node>
	<node id="-621442" lat="68.0186888883" lon="17.9537277697">
		<tag k="historic" v="boundary_stone" />
		<tag k="man_made" v="cairn" />
		<tag k="name" v="Coarvejavrirøysa" />
		<tag k="old_name" v="Kiørvi Jaure Røset;Coarvvejavrre røys" />
		<tag k="place" v="locality" />
		<tag k="ssr:stedsnr" v="50019" />
	</node>
	<node id="-622800" lat="68.5551694432" lon="17.5715500024">
		<tag k="fixme" v="specify shooting=range, clay_pigeon etc" />
		<tag k="leisure" v="pitch" />
		<tag k="name" v="Bergmyra skytebane" />
		<tag k="sport" v="shooting" />
		<tag k="ssr:stedsnr" v="753399" />
	</node>
</osm>
