<?xml version="1.0" encoding="UTF-8"?>
<osm generator="osmapis" version="0.6">
	<node id="-621055" lat="68.4320249987" lon="17.4268694459">
		<tag k="name" v="Museum" />
		<tag k="ssr:stedsnr" v="420942" />
		<tag k="tourism" v="museum" />
	</node>
	<node id="-622174" lat="68.4396305564" lon="17.4133249939">
		<tag k="amenity" v="place_of_worship" />
		<tag k="denomination" v="lutheran" />
		<tag k="name" v="Narvik kirke" />
		<tag k="religion" v="christian" />
		<tag k="ssr:stedsnr" v="908626" />
	</node>
	<node id="-621245" lat="68.4404749986" lon="17.438133334">
		<tag k="amenity" v="place_of_worship" />
		<tag k="denomination" v="lutheran" />
		<tag k="name" v="Katolske kirke" />
		<tag k="religion" v="christian" />
		<tag k="ssr:stedsnr" v="505602" />
	</node>
	<node id="-620641" lat="68.4428500039" lon="17.4523722127">
		<tag k="amenity" v="place_of_worship" />
		<tag k="denomination" v="lutheran" />
		<tag k="name" v="Fredskapellet" />
		<tag k="religion" v="christian" />
		<tag k="ssr:stedsnr" v="119614" />
	</node>
	<node id="-621689" lat="68.2553833355" lon="17.4007361075">
		<tag k="amenity" v="place_of_worship" />
		<tag k="denomination" v="lutheran" />
		<tag k="name" v="Skjomen kirke" />
		<tag k="religion" v="christian" />
		<tag k="ssr:stedsnr" v="685803" />
	</node>
	<node id="-621016" lat="68.3709722207" lon="17.2349055469">
		<tag k="name" v="Skjærvikneset" />
		<tag k="place" v="locality" />
		<tag k="ssr:stedsnr" v="264642" />
	</node>
	<node id="-621927" lat="68.4412277826" lon="17.4503916593">
		<tag k="cemetery" v="grave" />
		<tag k="name" v="Narvik gravlund" />
		<tag k="place" v="locality" />
		<tag k="ssr:stedsnr" v="787518" />
	</node>
	<node id="-620724" lat="68.4352527806" lon="18.068347224">
		<tag k="amenity" v="place_of_worship" />
		<tag k="denomination" v="lutheran" />
		<tag k="name" v="Bjørnfjell sportskapell" />
		<tag k="religion" v="christian" />
		<tag k="ssr:stedsnr" v="142737" />
	</node>
	<node id="-620369" lat="68.5476805528" lon="17.5651416677">
		<tag k="cemetery" v="grave" />
		<tag k="name" v="Bjerkvik kirkegård" />
		<tag k="place" v="locality" />
		<tag k="ssr:stedsnr" v="889114" />
	</node>
	<node id="-621738" lat="68.386577782" lon="17.1412277656">
		<tag k="cemetery" v="grave" />
		<tag k="name" v="Vidrek gravlund" />
		<tag k="place" v="locality" />
		<tag k="ssr:stedsnr" v="692847" />
	</node>
	<node id="-622119" lat="68.393550005" lon="17.8224611021">
		<tag k="name" v="Fortet" />
		<tag k="place" v="locality" />
		<tag k="ssr:stedsnr" v="871718" />
	</node>
	<node id="-621287" lat="68.4050833371" lon="17.3105333414">
		<tag k="cemetery" v="grave" />
		<tag k="name" v="Håkvik kirkegård" />
		<tag k="place" v="locality" />
		<tag k="ssr:stedsnr" v="510528" />
	</node>
	<node id="-621606" lat="68.4508583305" lon="17.709880559">
		<tag k="cemetery" v="grave" />
		<tag k="name" v="Hergot gravlund" />
		<tag k="place" v="locality" />
		<tag k="ssr:stedsnr" v="634435" />
	</node>
	<node id="-620389" lat="68.404633397" lon="17.3112118082">
		<tag k="amenity" v="place_of_worship" />
		<tag k="denomination" v="lutheran" />
		<tag k="name" v="Håkvik kapell" />
		<tag k="religion" v="christian" />
		<tag k="ssr:stedsnr" v="990304" />
	</node>
	<node id="-620932" lat="68.4427416672" lon="17.435936117">
		<tag k="name" v="Rallaren" />
		<tag k="place" v="locality" />
		<tag k="ssr:stedsnr" v="240606" />
	</node>
	<node id="-621954" lat="68.5484416626" lon="17.5617222291">
		<tag k="alt_name" v="Bjerkvik" />
		<tag k="amenity" v="place_of_worship" />
		<tag k="denomination" v="lutheran" />
		<tag k="name" v="Bjerkvik kirke" />
		<tag k="religion" v="christian" />
		<tag k="ssr:stedsnr" v="806759" />
	</node>
	<node id="-620865" lat="68.4210111065" lon="17.3787722252">
		<tag k="amenity" v="place_of_worship" />
		<tag k="denomination" v="lutheran" />
		<tag k="name" v="Ankenes kirke" />
		<tag k="religion" v="christian" />
		<tag k="ssr:stedsnr" v="200983" />
	</node>
</osm>
