<?xml version="1.0" encoding="UTF-8"?>
<osm generator="osmapis" version="0.6">
	<node id="-622080" lat="68.3827944417" lon="17.1164361099">
		<tag k="name" v="Kjerksteinen" />
		<tag k="natural" v="stone" />
		<tag k="ssr:stedsnr" v="450754" />
	</node>
	<node id="-623104" lat="68.2745805601" lon="17.4117638851">
		<tag k="name" v="Aspeskogen" />
		<tag k="place" v="locality" />
		<tag k="ssr:stedsnr" v="908762" />
	</node>
	<node id="-621564" lat="68.3842333315" lon="17.1272277788">
		<tag k="name" v="Vargemyra" />
		<tag k="natural" v="wetland" />
		<tag k="ssr:stedsnr" v="102932" />
	</node>
	<node id="-622075" lat="68.2398000015" lon="17.4122305472">
		<tag k="name" v="Gjentholmen" />
		<tag k="place" v="locality" />
		<tag k="ssr:stedsnr" v="450524" />
	</node>
	<node id="-622074" lat="68.5560305539" lon="17.6036749849">
		<tag k="name" v="Skjellsteinen" />
		<tag k="natural" v="stone" />
		<tag k="ssr:stedsnr" v="450493" />
	</node>
	<node id="-622071" lat="68.5566972246" lon="17.6457166655">
		<tag k="name" v="Kildmyra" />
		<tag k="natural" v="wetland" />
		<tag k="ssr:stedsnr" v="450466" />
	</node>
	<node id="-622066" lat="68.4854694426" lon="17.5418694473">
		<tag k="name" v="Vermarka" />
		<tag k="place" v="locality" />
		<tag k="ssr:stedsnr" v="450419" />
	</node>
	<node id="-621548" lat="68.4215944484" lon="17.4325666659">
		<tag k="name" v="Storstein" />
		<tag k="natural" v="stone" />
		<tag k="ssr:stedsnr" v="91667" />
	</node>
	<node id="-623081" lat="68.5368333307" lon="17.5715333396">
		<tag k="name" v="Jordsenden" />
		<tag k="place" v="locality" />
		<tag k="ssr:stedsnr" v="875442" />
	</node>
	<node id="-622568" lat="68.2420472236" lon="17.8652972101">
		<tag k="name" v="Sealggajiekŋa" />
		<tag k="name:se" v="Sealggajiekŋa" />
		<tag k="natural" v="glacier" />
		<tag k="old_name:se" v="Sealggajiekna" />
		<tag k="ssr:stedsnr" v="684643" />
	</node>
	<node id="-622567" lat="68.2390138909" lon="17.430919434">
		<tag k="name" v="Stormyra" />
		<tag k="natural" v="wetland" />
		<tag k="ssr:stedsnr" v="684638" />
	</node>
	<node id="-621029" lat="68.4344201259" lon="17.6961217896">
		<tag k="name" v="Tarvaldjorda" />
		<tag k="place" v="locality" />
		<tag k="ssr:stedsnr" v="321178" />
	</node>
	<node id="-623076" lat="68.4792944424" lon="17.4887277688">
		<tag k="name" v="Tømmermyra" />
		<tag k="natural" v="wetland" />
		<tag k="ssr:stedsnr" v="875257" />
	</node>
	<node id="-622051" lat="68.5689194487" lon="17.7616055535">
		<tag k="name" v="Luomejeaggi" />
		<tag k="name:se" v="Luomejeaggi" />
		<tag k="natural" v="wetland" />
		<tag k="ssr:stedsnr" v="450040" />
	</node>
	<node id="-622047" lat="68.3174861068" lon="17.2746555527">
		<tag k="name" v="Skogåkeren" />
		<tag k="place" v="locality" />
		<tag k="ssr:stedsnr" v="449952" />
	</node>
	<node id="-622045" lat="68.3860750046" lon="17.3286360995">
		<tag k="name" v="Forrholtmyra" />
		<tag k="natural" v="wetland" />
		<tag k="ssr:stedsnr" v="449914" />
	</node>
	<node id="-623068" lat="68.5455944436" lon="17.4862805594">
		<tag k="name" v="Jørnmyra" />
		<tag k="natural" v="wetland" />
		<tag k="ssr:stedsnr" v="875350" />
	</node>
	<node id="-621529" lat="68.472347218" lon="17.6790944511">
		<tag k="name" v="Dalgammyra" />
		<tag k="natural" v="wetland" />
		<tag k="ssr:stedsnr" v="86035" />
	</node>
	<node id="-621526" lat="68.4601638924" lon="17.7371277873">
		<tag k="name" v="Lillevassuran" />
		<tag k="natural" v="scree" />
		<tag k="ssr:stedsnr" v="86014" />
	</node>
	<node id="-623060" lat="68.3825611088" lon="17.3675444522">
		<tag k="name" v="Sennklubbmyra" />
		<tag k="natural" v="wetland" />
		<tag k="ssr:stedsnr" v="874601" />
	</node>
	<node id="-621523" lat="68.3919500028" lon="17.3440749977">
		<tag k="name" v="Morrmyra" />
		<tag k="natural" v="wetland" />
		<tag k="ssr:stedsnr" v="85938" />
	</node>
	<node id="-622030" lat="68.1996083311" lon="17.357886117">
		<tag k="name" v="Kvitskreda" />
		<tag k="natural" v="scree" />
		<tag k="ssr:stedsnr" v="446514" />
	</node>
	<node id="-623052" lat="68.5654000017" lon="17.6894694479">
		<tag k="name" v="Urbakken" />
		<tag k="natural" v="scree" />
		<tag k="ssr:stedsnr" v="874048" />
	</node>
	<node id="-622538" lat="68.2003000011" lon="17.5077500019">
		<tag k="name" v="Råvimyra" />
		<tag k="natural" v="wetland" />
		<tag k="ssr:stedsnr" v="645008" />
	</node>
	<node id="-622806" lat="68.3842611132" lon="17.2027694399">
		<tag k="name" v="Klemsteinan" />
		<tag k="natural" v="stone" />
		<tag k="ssr:stedsnr" v="753464" />
	</node>
	<node id="-621512" lat="68.1821611129" lon="17.330825004">
		<tag k="name" v="Storskreda" />
		<tag k="natural" v="scree" />
		<tag k="ssr:stedsnr" v="82658" />
	</node>
	<node id="-621465" lat="68.2157277758" lon="17.287461112">
		<tag k="name" v="Litlerapet" />
		<tag k="natural" v="scree" />
		<tag k="ssr:stedsnr" v="77704" />
	</node>
	<node id="-620995" lat="68.5549305538" lon="17.555249995">
		<tag k="name" v="Dybfesjordet" />
		<tag k="place" v="locality" />
		<tag k="ssr:stedsnr" v="300191" />
	</node>
	<node id="-623042" lat="68.4716416637" lon="17.7247916693">
		<tag k="name" v="Kvannmyra" />
		<tag k="natural" v="wetland" />
		<tag k="ssr:stedsnr" v="871688" />
	</node>
	<node id="-622526" lat="68.5355888906" lon="17.396052783">
		<tag k="name" v="Kvalemyra" />
		<tag k="natural" v="wetland" />
		<tag k="ssr:stedsnr" v="632347" />
	</node>
	<node id="-623034" lat="68.3760833329" lon="17.1447833254">
		<tag k="name" v="Djupåmyran" />
		<tag k="natural" v="wetland" />
		<tag k="ssr:stedsnr" v="871593" />
	</node>
	<node id="-622520" lat="68.3913166621" lon="17.1442722284">
		<tag k="name" v="Flåtta" />
		<tag k="place" v="locality" />
		<tag k="ssr:stedsnr" v="631873" />
	</node>
	<node id="-622006" lat="68.5616194458" lon="17.5524916688">
		<tag k="name" v="Prestjordmarka" />
		<tag k="place" v="locality" />
		<tag k="ssr:stedsnr" v="442714" />
	</node>
	<node id="-621214" lat="68.3190027791" lon="17.6299611086">
		<tag k="name" v="Brennmyra" />
		<tag k="natural" v="wetland" />
		<tag k="ssr:stedsnr" v="385720" />
	</node>
	<node id="-622002" lat="68.6023111146" lon="17.9363500005">
		<tag k="name" v="Rivtindbreda" />
		<tag k="natural" v="glacier" />
		<tag k="ssr:stedsnr" v="442555" />
	</node>
	<node id="-620972" lat="68.2036000013" lon="17.5020250035">
		<tag k="name" v="Råvislåttene" />
		<tag k="place" v="locality" />
		<tag k="ssr:stedsnr" v="282015" />
	</node>
	<node id="-622503" lat="68.564938889" lon="17.6021916566">
		<tag k="name" v="Grenerli-myra" />
		<tag k="natural" v="wetland" />
		<tag k="ssr:stedsnr" v="631457" />
	</node>
	<node id="-622498" lat="68.4986888925" lon="17.5523694516">
		<tag k="name" v="Ramnuran" />
		<tag k="natural" v="scree" />
		<tag k="ssr:stedsnr" v="631415" />
	</node>
	<node id="-621977" lat="68.2328166633" lon="17.43296944">
		<tag k="name" v="Kams" />
		<tag k="place" v="locality" />
		<tag k="ssr:stedsnr" v="268752" />
	</node>
	<node id="-621973" lat="68.5496888917" lon="17.5915360988">
		<tag k="name" v="Elvegårdsmyran" />
		<tag k="natural" v="wetland" />
		<tag k="ssr:stedsnr" v="268432" />
	</node>
	<node id="-622484" lat="68.5197194442" lon="17.3935444383">
		<tag k="name" v="Stormyra" />
		<tag k="natural" v="wetland" />
		<tag k="ssr:stedsnr" v="631234" />
	</node>
	<node id="-621970" lat="68.4764583355" lon="17.6508694513">
		<tag k="name" v="Bjørnskolten" />
		<tag k="place" v="locality" />
		<tag k="ssr:stedsnr" v="268381" />
	</node>
	<node id="-621968" lat="68.5340722245" lon="17.4225527811">
		<tag k="name" v="Sølv-ura" />
		<tag k="natural" v="scree" />
		<tag k="ssr:stedsnr" v="268307" />
	</node>
	<node id="-622990" lat="68.2999361114" lon="17.7743805517">
		<tag k="name" v="Basejiekŋa" />
		<tag k="name:se" v="Basejiekŋa" />
		<tag k="natural" v="glacier" />
		<tag k="ssr:stedsnr" v="867209" />
	</node>
	<node id="-622475" lat="68.4027416698" lon="17.849197215">
		<tag k="name" v="Kvitura" />
		<tag k="natural" v="scree" />
		<tag k="ssr:stedsnr" v="628708" />
	</node>
	<node id="-621445" lat="68.5497194436" lon="17.7583416566">
		<tag k="name" v="Gekjago-jeaggi" />
		<tag k="name:se" v="Gekjago-jeaggi" />
		<tag k="natural" v="wetland" />
		<tag k="ssr:stedsnr" v="58260" />
	</node>
	<node id="-621441" lat="68.4481111108" lon="17.7284972182">
		<tag k="name" v="Gollejeaggi" />
		<tag k="name:se" v="Gollejeaggi" />
		<tag k="natural" v="wetland" />
		<tag k="ssr:stedsnr" v="40681" />
	</node>
	<node id="-621437" lat="68.221680553" lon="17.46929445">
		<tag k="name" v="Fjellgåddolderskogen" />
		<tag k="place" v="locality" />
		<tag k="ssr:stedsnr" v="39724" />
	</node>
	<node id="-621947" lat="68.4711388846" lon="17.7424944407">
		<tag k="name" v="Småvassmyran" />
		<tag k="natural" v="wetland" />
		<tag k="ssr:stedsnr" v="264673" />
	</node>
	<node id="-621430" lat="68.3659388918" lon="17.4753499906">
		<tag k="name" v="Mellommarka" />
		<tag k="place" v="locality" />
		<tag k="ssr:stedsnr" v="39600" />
	</node>
	<node id="-621940" lat="68.4917638902" lon="17.3375833384">
		<tag k="landuse" v="meadow" />
		<tag k="name" v="Husmannsteigen" />
		<tag k="ssr:stedsnr" v="264634" />
	</node>
	<node id="-621939" lat="68.2203916639" lon="17.3108027686">
		<tag k="name" v="Rapan" />
		<tag k="place" v="locality" />
		<tag k="ssr:stedsnr" v="264511" />
	</node>
	<node id="-622482" lat="68.5632388896" lon="17.7002750073">
		<tag k="name" v="Knutmyra" />
		<tag k="natural" v="wetland" />
		<tag k="ssr:stedsnr" v="631048" />
	</node>
	<node id="-621418" lat="68.2370888932" lon="17.4300111008">
		<tag k="name" v="Slåkkamyra" />
		<tag k="natural" v="wetland" />
		<tag k="ssr:stedsnr" v="25771" />
	</node>
	<node id="-623079" lat="68.5064166638" lon="17.5457027784">
		<tag k="name" v="Bringgamman" />
		<tag k="place" v="locality" />
		<tag k="ssr:stedsnr" v="875405" />
	</node>
	<node id="-621416" lat="68.4061138865" lon="17.4088583355">
		<tag k="name" v="Kleftersteinen" />
		<tag k="natural" v="stone" />
		<tag k="ssr:stedsnr" v="25606" />
	</node>
	<node id="-622396" lat="68.5424250031" lon="17.722244434">
		<tag k="name" v="Kumyran" />
		<tag k="natural" v="wetland" />
		<tag k="ssr:stedsnr" v="604164" />
	</node>
	<node id="-621410" lat="68.5647416683" lon="17.540516658">
		<tag k="name" v="Uran" />
		<tag k="natural" v="scree" />
		<tag k="ssr:stedsnr" v="25445" />
	</node>
	<node id="-621409" lat="68.4947888917" lon="17.5551388791">
		<tag k="name" v="Heggholuran" />
		<tag k="natural" v="scree" />
		<tag k="ssr:stedsnr" v="25429" />
	</node>
	<node id="-622432" lat="68.5550472247" lon="17.6275027656">
		<tag k="name" v="Stormyra" />
		<tag k="natural" v="wetland" />
		<tag k="ssr:stedsnr" v="624678" />
	</node>
	<node id="-621919" lat="68.2686138889" lon="17.2839388968">
		<tag k="name" v="Tverrelvmyra" />
		<tag k="natural" v="wetland" />
		<tag k="ssr:stedsnr" v="260828" />
	</node>
	<node id="-623077" lat="68.4732111118" lon="17.4954000077">
		<tag k="name" v="Hundbergskogen" />
		<tag k="place" v="locality" />
		<tag k="ssr:stedsnr" v="875302" />
	</node>
	<node id="-621402" lat="68.5443833303" lon="17.4789499902">
		<tag k="name" v="Hopskogen" />
		<tag k="place" v="locality" />
		<tag k="ssr:stedsnr" v="25337" />
	</node>
	<node id="-622934" lat="68.5353777743" lon="17.5787611005">
		<tag k="name" v="Innermedby" />
		<tag k="place" v="locality" />
		<tag k="ssr:stedsnr" v="814450" />
	</node>
	<node id="-621113" lat="68.1881722252" lon="17.546724988">
		<tag k="name" v="Tateruran" />
		<tag k="natural" v="scree" />
		<tag k="ssr:stedsnr" v="342027" />
	</node>
	<node id="-621389" lat="68.3226527782" lon="17.6300805497">
		<tag k="name" v="Stormyra" />
		<tag k="natural" v="wetland" />
		<tag k="ssr:stedsnr" v="22688" />
	</node>
	<node id="-621385" lat="68.1608805528" lon="17.651324998">
		<tag k="name" v="Stormyra" />
		<tag k="natural" v="wetland" />
		<tag k="ssr:stedsnr" v="22656" />
	</node>
	<node id="-621384" lat="68.4967361146" lon="17.3278833347">
		<tag k="name" v="Tortennesmyran" />
		<tag k="natural" v="wetland" />
		<tag k="ssr:stedsnr" v="22648" />
	</node>
	<node id="-622403" lat="68.3568638908" lon="17.8305472162">
		<tag k="name" v="Blåisen - Beajojiekŋa" />
		<tag k="name:no" v="Blåisen" />
		<tag k="name:se" v="Beajojiekŋa" />
		<tag k="natural" v="glacier" />
		<tag k="ssr:stedsnr" v="623172" />
	</node>
	<node id="-621884" lat="68.0826499983" lon="18.0150805531">
		<tag k="name" v="Rivgojiekŋa" />
		<tag k="name:se" v="Rivgojiekŋa" />
		<tag k="natural" v="glacier" />
		<tag k="old_name:se" v="Rivgojiekna" />
		<tag k="ssr:stedsnr" v="259875" />
	</node>
	<node id="-622394" lat="68.5548027783" lon="17.5694610997">
		<tag k="name" v="Bergmyra" />
		<tag k="natural" v="wetland" />
		<tag k="ssr:stedsnr" v="603165" />
	</node>
	<node id="-621535" lat="68.482155554" lon="17.6457361168">
		<tag k="name" v="Tindslåtten" />
		<tag k="place" v="locality" />
		<tag k="ssr:stedsnr" v="86356" />
	</node>
	<node id="-622902" lat="68.2927972187" lon="17.2495111081">
		<tag k="name" v="Forsmyra" />
		<tag k="natural" v="wetland" />
		<tag k="ssr:stedsnr" v="810673" />
	</node>
	<node id="-622900" lat="68.4877805533" lon="17.3282444454">
		<tag k="name" v="Finnsteinan" />
		<tag k="natural" v="stone" />
		<tag k="ssr:stedsnr" v="810656" />
	</node>
	<node id="-622387" lat="68.2265888876" lon="17.4639972311">
		<tag k="name" v="Jagarloft" />
		<tag k="place" v="locality" />
		<tag k="ssr:stedsnr" v="585752" />
	</node>
	<node id="-622898" lat="68.2041805561" lon="17.3281388796">
		<tag k="name" v="Storura" />
		<tag k="natural" v="scree" />
		<tag k="ssr:stedsnr" v="810632" />
	</node>
	<node id="-622899" lat="68.5030694482" lon="17.3666250019">
		<tag k="name" v="Aspenesuran" />
		<tag k="natural" v="scree" />
		<tag k="ssr:stedsnr" v="810648" />
	</node>
	<node id="-622891" lat="68.4837277808" lon="17.5473555437">
		<tag k="name" v="Svemyra" />
		<tag k="natural" v="wetland" />
		<tag k="ssr:stedsnr" v="807731" />
	</node>
	<node id="-621352" lat="68.2664388872" lon="18.072222212">
		<tag k="name" v="Beatnatjiekŋa" />
		<tag k="name:se" v="Beatnatjiekŋa" />
		<tag k="natural" v="glacier" />
		<tag k="old_name:se" v="Beatnatjiekna" />
		<tag k="ssr:stedsnr" v="18081" />
	</node>
	<node id="-621863" lat="68.3403416677" lon="17.9670777655">
		<tag k="name" v="Passmyra" />
		<tag k="natural" v="wetland" />
		<tag k="ssr:stedsnr" v="259125" />
	</node>
	<node id="-621861" lat="68.2798611086" lon="17.3867611197">
		<tag k="name" v="Storuran" />
		<tag k="natural" v="scree" />
		<tag k="ssr:stedsnr" v="240747" />
	</node>
	<node id="-622721" lat="68.5608527767" lon="17.6020694399">
		<tag k="name" v="Herjangsmarka" />
		<tag k="place" v="locality" />
		<tag k="ssr:stedsnr" v="745722" />
	</node>
	<node id="-622364" lat="68.4057500006" lon="17.3435972086">
		<tag k="name" v="Skavåsmyra" />
		<tag k="natural" v="wetland" />
		<tag k="ssr:stedsnr" v="571541" />
	</node>
	<node id="-623065" lat="68.5475277787" lon="17.5018833413">
		<tag k="name" v="Nubbeslåtta" />
		<tag k="place" v="locality" />
		<tag k="ssr:stedsnr" v="875317" />
	</node>
	<node id="-622349" lat="68.4436500023" lon="17.6313805623">
		<tag k="name" v="Stormyra" />
		<tag k="natural" v="wetland" />
		<tag k="ssr:stedsnr" v="571365" />
	</node>
	<node id="-622346" lat="68.4454027796" lon="17.6035694432">
		<tag k="name" v="Storura" />
		<tag k="natural" v="scree" />
		<tag k="ssr:stedsnr" v="571354" />
	</node>
	<node id="-622343" lat="68.5490750005" lon="17.5032472173">
		<tag k="name" v="Rødsand-slåtta" />
		<tag k="place" v="locality" />
		<tag k="ssr:stedsnr" v="571331" />
	</node>
	<node id="-622342" lat="68.5292666714" lon="17.4712111012">
		<tag k="name" v="Samlingsjorda" />
		<tag k="place" v="locality" />
		<tag k="ssr:stedsnr" v="571323" />
	</node>
	<node id="-621185" lat="68.2235472268" lon="17.3025583221">
		<tag k="name" v="Storrapet" />
		<tag k="natural" v="scree" />
		<tag k="ssr:stedsnr" v="381778" />
	</node>
	<node id="-621827" lat="68.2454944435" lon="17.4058333392">
		<tag k="name" v="Krøkjebærholmen" />
		<tag k="place" v="locality" />
		<tag k="ssr:stedsnr" v="207474" />
	</node>
	<node id="-621821" lat="68.5385999979" lon="17.4845527635">
		<tag k="name" v="Kjerringåmen" />
		<tag k="place" v="locality" />
		<tag k="ssr:stedsnr" v="207316" />
	</node>
	<node id="-622330" lat="68.4652861104" lon="17.7006416514">
		<tag k="name" v="Slåtten" />
		<tag k="place" v="locality" />
		<tag k="ssr:stedsnr" v="571035" />
	</node>
	<node id="-622326" lat="68.3963305539" lon="17.3117083292">
		<tag k="name" v="Blautmyra" />
		<tag k="natural" v="wetland" />
		<tag k="ssr:stedsnr" v="570938" />
	</node>
	<node id="-622324" lat="68.4058027783" lon="17.4053444381">
		<tag k="name" v="Kvantesteinen" />
		<tag k="natural" v="stone" />
		<tag k="ssr:stedsnr" v="570558" />
	</node>
	<node id="-622834" lat="68.3706861078" lon="17.4021083383">
		<tag k="name" v="Stormyra" />
		<tag k="natural" v="wetland" />
		<tag k="ssr:stedsnr" v="767683" />
	</node>
	<node id="-622829" lat="68.1927666682" lon="17.5509777668">
		<tag k="name" v="Storfallmyra" />
		<tag k="natural" v="wetland" />
		<tag k="ssr:stedsnr" v="767029" />
	</node>
	<node id="-621804" lat="68.511691669" lon="17.7770916752">
		<tag k="name" v="Svartura" />
		<tag k="natural" v="scree" />
		<tag k="ssr:stedsnr" v="204663" />
	</node>
	<node id="-621801" lat="68.1849277771" lon="17.3195250085">
		<tag k="name" v="Småmoan" />
		<tag k="place" v="locality" />
		<tag k="ssr:stedsnr" v="204643" />
	</node>
	<node id="-621288" lat="68.2254027802" lon="17.4483277683">
		<tag k="name" v="Bruvollen" />
		<tag k="place" v="locality" />
		<tag k="ssr:stedsnr" v="403767" />
	</node>
	<node id="-621287" lat="68.2137499989" lon="17.4835138746">
		<tag k="name" v="Haugbakkolderskogen" />
		<tag k="place" v="locality" />
		<tag k="ssr:stedsnr" v="403739" />
	</node>
	<node id="-622817" lat="68.536972219" lon="17.3951305526">
		<tag k="name" v="Langmyra" />
		<tag k="natural" v="wetland" />
		<tag k="ssr:stedsnr" v="754366" />
	</node>
	<node id="-622816" lat="68.3223444438" lon="17.3120583353">
		<tag k="name" v="Hestmyra" />
		<tag k="natural" v="wetland" />
		<tag k="ssr:stedsnr" v="753951" />
	</node>
	<node id="-622814" lat="68.3954249964" lon="17.3287444452">
		<tag k="name" v="Blåmyra" />
		<tag k="natural" v="wetland" />
		<tag k="ssr:stedsnr" v="753938" />
	</node>
	<node id="-621782" lat="68.5649861115" lon="17.6336416535">
		<tag k="name" v="Mellommyra" />
		<tag k="natural" v="wetland" />
		<tag k="ssr:stedsnr" v="200690" />
	</node>
	<node id="-622803" lat="68.2491583322" lon="17.4072472147">
		<tag k="name" v="Hopslåtta" />
		<tag k="place" v="locality" />
		<tag k="ssr:stedsnr" v="753449" />
	</node>
	<node id="-621091" lat="68.2409166696" lon="17.4048361148">
		<tag k="name" v="Prestslåtta" />
		<tag k="place" v="locality" />
		<tag k="ssr:stedsnr" v="328472" />
	</node>
	<node id="-622798" lat="68.4967944447" lon="17.5486722133">
		<tag k="name" v="Skavåsmyra" />
		<tag k="natural" v="wetland" />
		<tag k="ssr:stedsnr" v="753390" />
	</node>
	<node id="-621769" lat="68.2771138867" lon="17.2843888895">
		<tag k="name" v="Stormyra" />
		<tag k="natural" v="wetland" />
		<tag k="ssr:stedsnr" v="199839" />
	</node>
	<node id="-622790" lat="68.3760694452" lon="17.5579277674">
		<tag k="name" v="Storsteinen" />
		<tag k="natural" v="stone" />
		<tag k="ssr:stedsnr" v="753298" />
	</node>
	<node id="-622784" lat="68.5606944459" lon="17.6756777856">
		<tag k="name" v="Vaddas" />
		<tag k="name:se" v="Vaddas" />
		<tag k="place" v="locality" />
		<tag k="ssr:stedsnr" v="753029" />
	</node>
	<node id="-622783" lat="68.5681194463" lon="17.6924111162">
		<tag k="name" v="Storura" />
		<tag k="natural" v="scree" />
		<tag k="ssr:stedsnr" v="753027" />
	</node>
	<node id="-622781" lat="68.5757249968" lon="17.6108222106">
		<tag k="name" v="Kvanndalmyra" />
		<tag k="natural" v="wetland" />
		<tag k="ssr:stedsnr" v="753002" />
	</node>
	<node id="-622780" lat="68.5181666641" lon="17.8945666528">
		<tag k="name" v="Lappkjerringmyra" />
		<tag k="natural" v="wetland" />
		<tag k="ssr:stedsnr" v="750726" />
	</node>
	<node id="-623050" lat="68.4322361144" lon="17.6990666677">
		<tag k="name" v="Bjørkemyra" />
		<tag k="natural" v="wetland" />
		<tag k="ssr:stedsnr" v="874024" />
	</node>
	<node id="-622793" lat="68.5039388871" lon="17.5418888785">
		<tag k="name" v="Gunnelmyra" />
		<tag k="natural" v="wetland" />
		<tag k="ssr:stedsnr" v="753344" />
	</node>
	<node id="-621231" lat="68.5739666706" lon="17.5725388908">
		<tag k="name" v="Ola-løa" />
		<tag k="place" v="locality" />
		<tag k="ssr:stedsnr" v="389015" />
	</node>
	<node id="-622757" lat="68.3469638847" lon="17.2827722262">
		<tag k="name" v="Kongsbakklemman" />
		<tag k="place" v="locality" />
		<tag k="ssr:stedsnr" v="746864" />
	</node>
	<node id="-621732" lat="68.2006527774" lon="17.5365222143">
		<tag k="name" v="Olderskogen" />
		<tag k="place" v="locality" />
		<tag k="ssr:stedsnr" v="186019" />
	</node>
	<node id="-622238" lat="68.3005444462" lon="17.3497611155">
		<tag k="name" v="Øverjorda" />
		<tag k="place" v="locality" />
		<tag k="ssr:stedsnr" v="524642" />
	</node>
	<node id="-621723" lat="68.4385361087" lon="17.7122638801">
		<tag k="landuse" v="quarry" />
		<tag k="name" v="Sørnes" />
		<tag k="ssr:stedsnr" v="177127" />
	</node>
	<node id="-623215" lat="68.389572221" lon="17.1477555547">
		<tag k="name" v="Glugga" />
		<tag k="place" v="locality" />
		<tag k="ssr:stedsnr" v="935860" />
	</node>
	<node id="-621208" lat="68.2086777771" lon="17.3356805604">
		<tag k="name" v="Gangarneslandet" />
		<tag k="place" v="locality" />
		<tag k="ssr:stedsnr" v="385547" />
	</node>
	<node id="-622224" lat="68.3943611073" lon="17.3066861172">
		<tag k="name" v="Slåttdalabone" />
		<tag k="place" v="locality" />
		<tag k="ssr:stedsnr" v="510954" />
	</node>
	<node id="-621711" lat="68.2867055528" lon="17.3700249972">
		<tag k="name" v="Klemsteinan" />
		<tag k="natural" v="stone" />
		<tag k="ssr:stedsnr" v="160728" />
	</node>
	<node id="-621195" lat="68.3694666689" lon="17.4052638951">
		<tag k="name" v="Håvikmyran" />
		<tag k="natural" v="wetland" />
		<tag k="ssr:stedsnr" v="381925" />
	</node>
	<node id="-622211" lat="68.3892750041" lon="17.2502888853">
		<tag k="name" v="Slåttlisteinen" />
		<tag k="natural" v="stone" />
		<tag k="ssr:stedsnr" v="510522" />
	</node>
	<node id="-623234" lat="68.1983888906" lon="17.5366805555">
		<tag k="name" v="Grønmyra" />
		<tag k="natural" v="wetland" />
		<tag k="ssr:stedsnr" v="949020" />
	</node>
	<node id="-622209" lat="68.246222219" lon="17.4173055428">
		<tag k="name" v="Kvitbergmyra" />
		<tag k="natural" v="wetland" />
		<tag k="ssr:stedsnr" v="510502" />
	</node>
	<node id="-623210" lat="68.3918416695" lon="17.2606666542">
		<tag k="name" v="Langmyra" />
		<tag k="natural" v="wetland" />
		<tag k="ssr:stedsnr" v="935518" />
	</node>
	<node id="-622712" lat="68.1703944474" lon="17.5623333276">
		<tag k="name" v="Svartskogen" />
		<tag k="place" v="locality" />
		<tag k="ssr:stedsnr" v="745637" />
	</node>
	<node id="-620990" lat="68.343563887" lon="17.2781083207">
		<tag k="name" v="Tjuvsteinen" />
		<tag k="natural" v="stone" />
		<tag k="ssr:stedsnr" v="282835" />
	</node>
	<node id="-622191" lat="68.4753777741" lon="17.4909194301">
		<tag k="name" v="Tømmerbakkmyra" />
		<tag k="natural" v="wetland" />
		<tag k="ssr:stedsnr" v="510229" />
	</node>
	<node id="-622189" lat="68.5623250023" lon="17.7349722221">
		<tag k="name" v="Edvartslåtta" />
		<tag k="place" v="locality" />
		<tag k="ssr:stedsnr" v="510057" />
	</node>
	<node id="-622188" lat="68.556191669" lon="17.7097249905">
		<tag k="name" v="Storskogen" />
		<tag k="place" v="locality" />
		<tag k="ssr:stedsnr" v="510046" />
	</node>
	<node id="-621674" lat="68.3911277786" lon="17.267513897">
		<tag k="name" v="Toppmyra" />
		<tag k="natural" v="wetland" />
		<tag k="ssr:stedsnr" v="146496" />
	</node>
	<node id="-621673" lat="68.241294445" lon="17.418641657">
		<tag k="name" v="Brenna" />
		<tag k="place" v="locality" />
		<tag k="ssr:stedsnr" v="146477" />
	</node>
	<node id="-621670" lat="68.5601916683" lon="17.597163885">
		<tag k="name" v="Langmyra" />
		<tag k="natural" v="wetland" />
		<tag k="ssr:stedsnr" v="146441" />
	</node>
	<node id="-621669" lat="68.5701888869" lon="17.630186096">
		<tag k="name" v="Kvanndalmyra" />
		<tag k="natural" v="wetland" />
		<tag k="ssr:stedsnr" v="146430" />
	</node>
	<node id="-621156" lat="68.4582611091" lon="17.7394361132">
		<tag k="name" v="Gulløymyra" />
		<tag k="natural" v="wetland" />
		<tag k="ssr:stedsnr" v="381237" />
	</node>
	<node id="-621666" lat="68.4896749969" lon="17.5207111114">
		<tag k="name" v="Kvantamyra" />
		<tag k="natural" v="wetland" />
		<tag k="ssr:stedsnr" v="146370" />
	</node>
	<node id="-621665" lat="68.4768805518" lon="17.5934055453">
		<tag k="name" v="Daluran" />
		<tag k="natural" v="scree" />
		<tag k="ssr:stedsnr" v="146313" />
	</node>
	<node id="-623199" lat="68.4341666642" lon="17.6428416661">
		<tag k="name" v="Jeklomyra" />
		<tag k="natural" v="wetland" />
		<tag k="ssr:stedsnr" v="935319" />
	</node>
	<node id="-622173" lat="68.3772527754" lon="17.1184944463">
		<tag k="name" v="Torvmyra" />
		<tag k="natural" v="wetland" />
		<tag k="ssr:stedsnr" v="507626" />
	</node>
	<node id="-622172" lat="68.2276055544" lon="17.3113694454">
		<tag k="landuse" v="meadow" />
		<tag k="name" v="Olderskogen" />
		<tag k="ssr:stedsnr" v="507488" />
	</node>
	<node id="-621659" lat="68.5261916631" lon="17.4256694504">
		<tag k="name" v="Tverrvegbergskogen" />
		<tag k="place" v="locality" />
		<tag k="ssr:stedsnr" v="146284" />
	</node>
	<node id="-621658" lat="68.479291664" lon="17.4968583317">
		<tag k="name" v="Våtmyra" />
		<tag k="natural" v="wetland" />
		<tag k="ssr:stedsnr" v="146264" />
	</node>
	<node id="-621657" lat="68.5210000003" lon="17.403038877">
		<tag k="name" v="Lillemyra" />
		<tag k="natural" v="wetland" />
		<tag k="ssr:stedsnr" v="146260" />
	</node>
	<node id="-621654" lat="68.4307861068" lon="17.6701166726">
		<tag k="name" v="Tettingsmyra" />
		<tag k="natural" v="wetland" />
		<tag k="ssr:stedsnr" v="146019" />
	</node>
	<node id="-621653" lat="68.5821916649" lon="17.5716583388">
		<tag k="name" v="Storskogen" />
		<tag k="place" v="locality" />
		<tag k="ssr:stedsnr" v="146002" />
	</node>
	<node id="-622675" lat="68.492044447" lon="17.5321388763">
		<tag k="name" v="Gommarmyran" />
		<tag k="natural" v="wetland" />
		<tag k="ssr:stedsnr" v="693415" />
	</node>
	<node id="-622672" lat="68.4741805586" lon="17.5235500096">
		<tag k="name" v="Tømmerholtet" />
		<tag k="place" v="locality" />
		<tag k="ssr:stedsnr" v="693398" />
	</node>
	<node id="-622671" lat="68.5389444493" lon="17.4831166569">
		<tag k="name" v="Dalskogen" />
		<tag k="place" v="locality" />
		<tag k="ssr:stedsnr" v="693375" />
	</node>
	<node id="-623182" lat="68.3534444486" lon="17.6647416621">
		<tag k="name" v="Rasan" />
		<tag k="natural" v="scree" />
		<tag k="ssr:stedsnr" v="932669" />
	</node>
	<node id="-621639" lat="68.5162499962" lon="17.9581027759">
		<tag k="name" v="Holmvassmyran" />
		<tag k="natural" v="wetland" />
		<tag k="ssr:stedsnr" v="142763" />
	</node>
	<node id="-623201" lat="68.4835555584" lon="17.5267944554">
		<tag k="name" v="Kleivmyra" />
		<tag k="natural" v="wetland" />
		<tag k="ssr:stedsnr" v="935371" />
	</node>
	<node id="-622657" lat="68.2582472202" lon="17.4049138811">
		<tag k="name" v="Flåtta" />
		<tag k="place" v="locality" />
		<tag k="ssr:stedsnr" v="692539" />
	</node>
	<node id="-623166" lat="68.3174861149" lon="17.2333138829">
		<tag k="name" v="Bukkuran" />
		<tag k="natural" v="scree" />
		<tag k="ssr:stedsnr" v="928859" />
	</node>
	<node id="-621407" lat="68.4897777773" lon="17.5246972112">
		<tag k="name" v="Sandveglegden" />
		<tag k="place" v="locality" />
		<tag k="ssr:stedsnr" v="25399" />
	</node>
	<node id="-621624" lat="68.4848555579" lon="17.5199611121">
		<tag k="name" v="Stormyra - Seavgojeaggi" />
		<tag k="name:no" v="Stormyra" />
		<tag k="name:se" v="Seavgojeaggi" />
		<tag k="natural" v="wetland" />
		<tag k="ssr:stedsnr" v="139727" />
	</node>
	<node id="-622642" lat="68.4339694477" lon="17.6874805662">
		<tag k="name" v="Storura" />
		<tag k="natural" v="scree" />
		<tag k="ssr:stedsnr" v="692008" />
	</node>
	<node id="-621615" lat="68.2142166684" lon="18.0024527792">
		<tag k="name" v="Muohtaguobla" />
		<tag k="name:se" v="Muohtaguobla" />
		<tag k="place" v="locality" />
		<tag k="ssr:stedsnr" v="138869" />
	</node>
	<node id="-623141" lat="68.5851277774" lon="17.4738833208">
		<tag k="name" v="Maridalsmyran" />
		<tag k="natural" v="wetland" />
		<tag k="ssr:stedsnr" v="928492" />
	</node>
	<node id="-621318" lat="68.2465805528" lon="17.4201194486">
		<tag k="name" v="Sjanglibanen" />
		<tag k="natural" v="stone" />
		<tag k="ssr:stedsnr" v="267432" />
	</node>
	<node id="-621090" lat="68.2475333326" lon="17.3993777737">
		<tag k="name" v="Hestøyra" />
		<tag k="place" v="locality" />
		<tag k="ssr:stedsnr" v="328466" />
	</node>
	<node id="-621089" lat="68.5514916663" lon="17.5141888847">
		<tag k="name" v="Gamman" />
		<tag k="place" v="locality" />
		<tag k="ssr:stedsnr" v="328417" />
	</node>
	<node id="-621087" lat="68.4835027783" lon="17.5523638844">
		<tag k="name" v="Langmyra" />
		<tag k="natural" v="wetland" />
		<tag k="ssr:stedsnr" v="328390" />
	</node>
	<node id="-622938" lat="68.5636249955" lon="17.6240611146">
		<tag k="name" v="Vedhoggan" />
		<tag k="place" v="locality" />
		<tag k="ssr:stedsnr" v="814496" />
	</node>
	<node id="-622104" lat="68.2306333345" lon="17.4459361087">
		<tag k="name" v="Løbakken" />
		<tag k="place" v="locality" />
		<tag k="ssr:stedsnr" v="464782" />
	</node>
	<node id="-621076" lat="68.4753388875" lon="17.6834722307">
		<tag k="name" v="Tømmermyra" />
		<tag k="natural" v="wetland" />
		<tag k="ssr:stedsnr" v="328030" />
	</node>
	<node id="-622094" lat="68.3865055588" lon="17.5711472207">
		<tag k="name" v="Jordenden" />
		<tag k="place" v="locality" />
		<tag k="ssr:stedsnr" v="464071" />
	</node>
	<node id="-621069" lat="68.2736722238" lon="17.3387166762">
		<tag k="landuse" v="quarry" />
		<tag k="name" v="Bruddet" />
		<tag k="ssr:stedsnr" v="325664" />
	</node>
	<node id="-621577" lat="68.3809749969" lon="17.2569888774">
		<tag k="name" v="Storuran" />
		<tag k="natural" v="scree" />
		<tag k="ssr:stedsnr" v="268537" />
	</node>
	<node id="-623112" lat="68.3912083292" lon="17.9875638841">
		<tag k="name" v="Sørdalsmyra" />
		<tag k="natural" v="wetland" />
		<tag k="ssr:stedsnr" v="927230" />
	</node>
	<node id="-621063" lat="68.5310666697" lon="17.3790111019">
		<tag k="name" v="Båtvassmyra" />
		<tag k="natural" v="wetland" />
		<tag k="ssr:stedsnr" v="323575" />
	</node>
	<node id="-622081" lat="68.3859972214" lon="17.1357888838">
		<tag k="name" v="Banmyra" />
		<tag k="natural" v="wetland" />
		<tag k="ssr:stedsnr" v="450849" />
	</node>
</osm>
