<?xml version="1.0" encoding="UTF-8"?>
<osm generator="osmapis" version="0.6">
	<node id="-621054" lat="68.5758472236" lon="17.6231499935">
		<tag k="name" v="Nedre Kvanndalen" />
		<tag k="place" v="farm" />
		<tag k="ssr:stedsnr" v="420524" />
	</node>
	<node id="-621053" lat="68.4052055534" lon="17.3083166718">
		<tag k="alt_name:no" v="Håkvika" />
		<tag k="fixme" v="consider place=suburb, village or hamlet" />
		<tag k="name" v="Håkvik - Ginnasluokta" />
		<tag k="name:no" v="Håkvik" />
		<tag k="name:se" v="Ginnasluokta" />
		<tag k="place" v="quarter" />
		<tag k="ssr:stedsnr" v="268934" />
	</node>
	<node id="-621562" lat="68.5287166704" lon="17.4642250089">
		<tag k="name" v="Kråkberget store" />
		<tag k="place" v="farm" />
		<tag k="ssr:stedsnr" v="631250" />
	</node>
	<node id="-620537" lat="68.1896527739" lon="17.3211166603">
		<tag k="fixme" v="consider place=hamlet" />
		<tag k="name" v="Laborg" />
		<tag k="place" v="farm" />
		<tag k="ssr:stedsnr" v="77701" />
	</node>
	<node id="-621556" lat="68.5623805583" lon="17.6693638873">
		<tag k="historic" v="shieling" />
		<tag k="name" v="Sæter" />
		<tag k="place" v="locality" />
		<tag k="ssr:stedsnr" v="631038" />
	</node>
	<node id="-620597" lat="68.4354944439" lon="17.3951722296">
		<tag k="name" v="Framnes" />
		<tag k="place" v="suburb" />
		<tag k="ssr:stedsnr" v="86003" />
	</node>
	<node id="-620115" lat="68.5574166627" lon="17.5584472124">
		<tag k="name" v="Enrum" />
		<tag k="place" v="farm" />
		<tag k="ssr:stedsnr" v="321662" />
	</node>
	<node id="-620522" lat="68.4126361116" lon="17.4391861131">
		<tag k="amenity" v="school" />
		<tag k="name" v="Fagernes skole" />
		<tag k="ssr:stedsnr" v="58709" />
	</node>
	<node id="-620521" lat="68.442069442" lon="17.4129250069">
		<tag k="amenity" v="hospital" />
		<tag k="name" v="Narvik sykehus" />
		<tag k="ssr:stedsnr" v="58640" />
	</node>
	<node id="-621031" lat="68.3239444406" lon="17.2847305558">
		<tag k="name" v="Rydningen" />
		<tag k="place" v="farm" />
		<tag k="ssr:stedsnr" v="267983" />
	</node>
	<node id="-620068" lat="68.4343861138" lon="17.4161083219">
		<tag k="name" v="Trekanten" />
		<tag k="place" v="suburb" />
		<tag k="ssr:stedsnr" v="299116" />
	</node>
	<node id="-621466" lat="68.4442055564" lon="17.4253305462">
		<tag k="name" v="Vassvik" />
		<tag k="place" v="suburb" />
		<tag k="ssr:stedsnr" v="601121" />
	</node>
	<node id="-621159" lat="68.4568777806" lon="17.7025694316">
		<tag k="name" v="Søndre Hergot" />
		<tag k="place" v="farm" />
		<tag k="ssr:stedsnr" v="453408" />
	</node>
	<node id="-621533" lat="68.3976833372" lon="17.2717749918">
		<tag k="fixme" v="consider place=hamlet" />
		<tag k="name" v="Skjomnes" />
		<tag k="place" v="farm" />
		<tag k="ssr:stedsnr" v="624995" />
	</node>
	<node id="-622043" lat="68.2836305588" lon="17.3854333368">
		<tag k="historic" v="shieling" />
		<tag k="name" v="Berglundsætran" />
		<tag k="place" v="locality" />
		<tag k="ssr:stedsnr" v="847748" />
	</node>
	<node id="-620506" lat="68.303177774" lon="17.3671055441">
		<tag k="name" v="Øvergammen" />
		<tag k="place" v="locality" />
		<tag k="ssr:stedsnr" v="39640" />
	</node>
	<node id="-621132" lat="68.5474777761" lon="17.5274833366">
		<tag k="name" v="Skog" />
		<tag k="place" v="farm" />
		<tag k="ssr:stedsnr" v="450327" />
	</node>
	<node id="-622040" lat="68.4042333353" lon="17.9856388929">
		<tag k="fixme" v="consider tourism=alpine_hut or tourism=chalet" />
		<tag k="name" v="Vokterboligen" />
		<tag k="ssr:stedsnr" v="842426" />
		<tag k="tourism" v="wilderness_hut" />
	</node>
	<node id="-622329" lat="68.0261939513" lon="17.8655559661">
		<tag k="fixme" v="consider tourism=alpine_hut or tourism=chalet" />
		<tag k="name" v="Vassheim" />
		<tag k="ssr:stedsnr" v="978851" />
		<tag k="tourism" v="wilderness_hut" />
	</node>
	<node id="-622036" lat="68.038933335" lon="17.8373888892">
		<tag k="alt_name" v="Gautelishyttene" />
		<tag k="fixme" v="consider tourism=alpine_hut or tourism=chalet" />
		<tag k="name" v="Gautelishytta" />
		<tag k="ssr:stedsnr" v="830667" />
		<tag k="tourism" v="wilderness_hut" />
	</node>
	<node id="-620497" lat="68.4450333381" lon="17.4306361054">
		<tag k="name" v="Finnbekken" />
		<tag k="place" v="farm" />
		<tag k="ssr:stedsnr" v="30711" />
	</node>
	<node id="-621599" lat="68.3189499968" lon="17.2871750057">
		<tag k="fixme" v="multiple name tags, choose one and add the other to alt_name" />
		<tag k="name" v="Lengenes;Lengnes nordre" />
		<tag k="place" v="farm" />
		<tag k="ssr:stedsnr" v="631961" />
	</node>
	<node id="-622031" lat="68.3754194403" lon="17.411880564">
		<tag k="name" v="Dalhaug" />
		<tag k="place" v="farm" />
		<tag k="ssr:stedsnr" v="828678" />
	</node>
	<node id="-622029" lat="68.5376444468" lon="17.5757861067">
		<tag k="name" v="Medby" />
		<tag k="place" v="farm" />
		<tag k="ssr:stedsnr" v="828140" />
	</node>
	<node id="-622028" lat="68.2066777807" lon="17.5186388905">
		<tag k="name" v="Einmoen" />
		<tag k="place" v="farm" />
		<tag k="ssr:stedsnr" v="828102" />
	</node>
	<node id="-621515" lat="68.4896777809" lon="17.5161472162">
		<tag k="alt_name" v="Litlemoen" />
		<tag k="name" v="Lillemo" />
		<tag k="place" v="farm" />
		<tag k="ssr:stedsnr" v="624763" />
	</node>
	<node id="-621001" lat="68.3892972221" lon="17.1860027755">
		<tag k="name" v="Røsåsen" />
		<tag k="place" v="farm" />
		<tag k="ssr:stedsnr" v="260969" />
	</node>
	<node id="-621512" lat="68.530033333" lon="17.4749277698">
		<tag k="alt_name" v="Sletjorden" />
		<tag k="name" v="Slettjorda" />
		<tag k="place" v="farm" />
		<tag k="ssr:stedsnr" v="624713" />
	</node>
	<node id="-622023" lat="68.3891999977" lon="17.5729110976">
		<tag k="name" v="Lapphaugen" />
		<tag k="place" v="locality" />
		<tag k="ssr:stedsnr" v="819377" />
	</node>
	<node id="-621473" lat="68.354847219" lon="17.4872944435">
		<tag k="alt_name" v="Vandmoen" />
		<tag k="name" v="Vassmoen" />
		<tag k="place" v="farm" />
		<tag k="ssr:stedsnr" v="623145" />
	</node>
	<node id="-622020" lat="68.328655552" lon="17.2856222193">
		<tag k="alt_name" v="Hallervik" />
		<tag k="name" v="Hallaarvik" />
		<tag k="place" v="farm" />
		<tag k="ssr:stedsnr" v="814987" />
	</node>
	<node id="-622019" lat="68.3909277781" lon="17.1584000061">
		<tag k="name" v="Åsheim" />
		<tag k="place" v="farm" />
		<tag k="ssr:stedsnr" v="814857" />
	</node>
	<node id="-620481" lat="68.5499666632" lon="17.5118222155">
		<tag k="name" v="Myrbakken" />
		<tag k="place" v="farm" />
		<tag k="ssr:stedsnr" v="25425" />
	</node>
	<node id="-620773" lat="68.4287527772" lon="17.4277805483">
		<tag k="name" v="Kleiva" />
		<tag k="place" v="isolated_dwelling" />
		<tag k="ssr:stedsnr" v="151736" />
	</node>
	<node id="-621502" lat="68.4640500041" lon="17.6717888803">
		<tag k="name" v="Nygård" />
		<tag k="place" v="farm" />
		<tag k="ssr:stedsnr" v="624226" />
	</node>
	<node id="-620989" lat="68.5532722203" lon="17.744774991">
		<tag k="alt_name" v="Elvemoen" />
		<tag k="name" v="Elvemo" />
		<tag k="place" v="isolated_dwelling" />
		<tag k="ssr:stedsnr" v="260787" />
	</node>
	<node id="-621584" lat="68.40665833" lon="17.3253861112">
		<tag k="name" v="Heimstad" />
		<tag k="place" v="farm" />
		<tag k="ssr:stedsnr" v="631512" />
	</node>
	<node id="-620788" lat="68.3733805529" lon="17.415774991">
		<tag k="name" v="Bakkehaug" />
		<tag k="place" v="farm" />
		<tag k="ssr:stedsnr" v="160665" />
	</node>
	<node id="-621669" lat="68.559738885" lon="17.6334916607">
		<tag k="alt_name" v="Gammalheimen" />
		<tag k="name" v="Gammelheimen" />
		<tag k="place" v="isolated_dwelling" />
		<tag k="ssr:stedsnr" v="685667" />
	</node>
	<node id="-620446" lat="68.3765083325" lon="17.4055222141">
		<tag k="name" v="Mattisjorda" />
		<tag k="place" v="farm" />
		<tag k="ssr:stedsnr" v="18952" />
	</node>
	<node id="-621004" lat="68.4382844786" lon="17.4277684324">
		<tag k="name" v="Narvik - Áhkánjárga" />
		<tag k="name:no" v="Narvik" />
		<tag k="name:se" v="Áhkánjárga" />
		<tag k="place" v="town" />
		<tag k="ssr:stedsnr" v="260979" />
	</node>
	<node id="-621486" lat="68.1908416694" lon="17.3145027798">
		<tag k="fixme" v="consider place=hamlet" />
		<tag k="name" v="Skjombotn" />
		<tag k="place" v="farm" />
		<tag k="ssr:stedsnr" v="623717" />
	</node>
	<node id="-621997" lat="68.5587666671" lon="17.709108321">
		<tag k="name" v="Lundli" />
		<tag k="place" v="farm" />
		<tag k="ssr:stedsnr" v="814050" />
	</node>
	<node id="-620922" lat="68.4194638926" lon="17.3554250054">
		<tag k="leisure" v="pitch" />
		<tag k="name" v="Strandagutten" />
		<tag k="ssr:stedsnr" v="221617" />
	</node>
	<node id="-621468" lat="68.5019027767" lon="18.0796472298">
		<tag k="fixme" v="consider tourism=alpine_hut or tourism=chalet" />
		<tag k="name" v="Nye Holmvassbu" />
		<tag k="ssr:stedsnr" v="601151" />
		<tag k="tourism" v="wilderness_hut" />
	</node>
	<node id="-621477" lat="68.3608000027" lon="17.6125777789">
		<tag k="alt_name" v="Tømmerbakken, nedre" />
		<tag k="name" v="Nedre Tømmerbakken" />
		<tag k="place" v="farm" />
		<tag k="ssr:stedsnr" v="623168" />
	</node>
	<node id="-621126" lat="68.5491666685" lon="17.5570944517">
		<tag k="name" v="Bjerkvik - Rahkka" />
		<tag k="name:no" v="Bjerkvik" />
		<tag k="name:se" v="Rahkka" />
		<tag k="place" v="village" />
		<tag k="ssr:stedsnr" v="450068" />
	</node>
	<node id="-621985" lat="68.3840166654" lon="17.1986083294">
		<tag k="name" v="Vidrek" />
		<tag k="place" v="isolated_dwelling" />
		<tag k="ssr:stedsnr" v="813454" />
	</node>
	<node id="-620784" lat="68.5370888894" lon="17.5752083236">
		<tag k="name" v="Medby søndre" />
		<tag k="place" v="farm" />
		<tag k="ssr:stedsnr" v="160129" />
	</node>
	<node id="-621470" lat="68.5584416693" lon="17.5385999994">
		<tag k="name" v="Nybakken" />
		<tag k="place" v="farm" />
		<tag k="ssr:stedsnr" v="603170" />
	</node>
	<node id="-620444" lat="68.3904999966" lon="17.1416166564">
		<tag k="fixme" v="consider place=hamlet" />
		<tag k="name" v="Vidrek - Vierák" />
		<tag k="name:no" v="Vidrek" />
		<tag k="name:se" v="Vierák" />
		<tag k="place" v="village" />
		<tag k="ssr:stedsnr" v="18939" />
	</node>
	<node id="-621467" lat="68.5990499985" lon="17.8310305593">
		<tag k="fixme" v="consider tourism=alpine_hut or tourism=chalet" />
		<tag k="name" v="Slottet" />
		<tag k="ssr:stedsnr" v="601150" />
		<tag k="tourism" v="wilderness_hut" />
	</node>
	<node id="-620442" lat="68.3440388858" lon="17.2250222119">
		<tag k="name" v="Mattisheimen" />
		<tag k="place" v="locality" />
		<tag k="ssr:stedsnr" v="18862" />
	</node>
	<node id="-621807" lat="68.545108336" lon="17.5660499964">
		<tag k="name" v="Elvegården" />
		<tag k="ssr:stedsnr" v="745780" />
		<tag k="tourism" v="camp_site" />
	</node>
	<node id="-620952" lat="68.1813861104" lon="17.5520777676">
		<tag k="name" v="Bogholmen" />
		<tag k="place" v="farm" />
		<tag k="ssr:stedsnr" v="259662" />
	</node>
	<node id="-620950" lat="68.2151333361" lon="17.4744111101">
		<tag k="name" v="Sæterbrukan" />
		<tag k="place" v="isolated_dwelling" />
		<tag k="ssr:stedsnr" v="259640" />
	</node>
	<node id="-621508" lat="68.5582638917" lon="17.7176333325">
		<tag k="alt_name" v="Anderheimen" />
		<tag k="name" v="Andersheimen" />
		<tag k="place" v="isolated_dwelling" />
		<tag k="ssr:stedsnr" v="624683" />
	</node>
	<node id="-621972" lat="68.1877694468" lon="17.3122027861">
		<tag k="name" v="Sandvoll" />
		<tag k="place" v="farm" />
		<tag k="ssr:stedsnr" v="810628" />
	</node>
	<node id="-620433" lat="68.5465944412" lon="17.6105222294">
		<tag k="landuse" v="military" />
		<tag k="name" v="Elvegårdsmoen" />
		<tag k="ssr:stedsnr" v="18661" />
	</node>
	<node id="-620432" lat="68.5417027791" lon="17.5705888813">
		<tag k="name" v="Medby" />
		<tag k="place" v="hamlet" />
		<tag k="ssr:stedsnr" v="18660" />
	</node>
	<node id="-621455" lat="68.5474138882" lon="17.5241166611">
		<tag k="name" v="Bekkevoll" />
		<tag k="place" v="farm" />
		<tag k="ssr:stedsnr" v="585101" />
	</node>
	<node id="-621805" lat="68.5303416619" lon="17.4636750058">
		<tag k="alt_name" v="Kråberget" />
		<tag k="name" v="Kråkberget" />
		<tag k="place" v="farm" />
		<tag k="ssr:stedsnr" v="745761" />
	</node>
	<node id="-620048" lat="68.5501500027" lon="17.536708339">
		<tag k="name" v="Prestjord" />
		<tag k="place" v="farm" />
		<tag k="ssr:stedsnr" v="282102" />
	</node>
	<node id="-621450" lat="68.2148055517" lon="17.3601944481">
		<tag k="name" v="Sætran" />
		<tag k="place" v="locality" />
		<tag k="ssr:stedsnr" v="576929" />
	</node>
	<node id="-621446" lat="68.4199749992" lon="17.3206527662">
		<tag k="fixme" v="consider place=suburb, village or hamlet" />
		<tag k="name" v="Emmenes" />
		<tag k="place" v="quarter" />
		<tag k="ssr:stedsnr" v="576091" />
	</node>
	<node id="-621957" lat="68.2929000031" lon="17.2329055641">
		<tag k="historic" v="shieling" />
		<tag k="name" v="Klubbviksætra" />
		<tag k="place" v="locality" />
		<tag k="ssr:stedsnr" v="806836" />
	</node>
	<node id="-620420" lat="68.2938027797" lon="17.3586666691">
		<tag k="fixme" v="multiple name tags, choose one and add the other to alt_name" />
		<tag k="name" v="Sandvik søndre;Sandvika" />
		<tag k="place" v="farm" />
		<tag k="ssr:stedsnr" v="17838" />
	</node>
	<node id="-620416" lat="68.5575305592" lon="17.6195444387">
		<tag k="name" v="Fagerjorda" />
		<tag k="place" v="farm" />
		<tag k="ssr:stedsnr" v="17728" />
	</node>
	<node id="-620927" lat="68.4438944454" lon="17.5303916571">
		<tag k="fixme" v="consider tourism=alpine_hut or tourism=chalet" />
		<tag k="name" v="Funnhytta" />
		<tag k="ssr:stedsnr" v="223143" />
		<tag k="tourism" v="wilderness_hut" />
	</node>
	<node id="-621949" lat="68.5628611101" lon="17.6575694439">
		<tag k="name" v="Myrhaug" />
		<tag k="place" v="isolated_dwelling" />
		<tag k="ssr:stedsnr" v="806726" />
	</node>
	<node id="-621948" lat="68.5628611101" lon="17.6592999956">
		<tag k="alt_name" v="Fjeldal" />
		<tag k="name" v="Fjelldal" />
		<tag k="place" v="isolated_dwelling" />
		<tag k="ssr:stedsnr" v="806723" />
	</node>
	<node id="-621946" lat="68.2027027745" lon="17.5292138969">
		<tag k="alt_name" v="Lauvås" />
		<tag k="name" v="Løvås" />
		<tag k="place" v="farm" />
		<tag k="ssr:stedsnr" v="806698" />
	</node>
	<node id="-621667" lat="68.5158972266" lon="17.5581222143">
		<tag k="name" v="Geisvik" />
		<tag k="place" v="farm" />
		<tag k="ssr:stedsnr" v="685631" />
	</node>
	<node id="-620919" lat="68.2002861126" lon="17.5481694541">
		<tag k="amenity" v="school" />
		<tag k="name" v="Skjomdalen skole" />
		<tag k="ssr:stedsnr" v="221015" />
	</node>
	<node id="-620917" lat="68.4441888926" lon="17.4362638912">
		<tag k="leisure" v="park" />
		<tag k="name" v="Carl Gulbrandsons park" />
		<tag k="ssr:stedsnr" v="212725" />
	</node>
	<node id="-620915" lat="68.4712972185" lon="17.4746860952">
		<tag k="name" v="Laukvik" />
		<tag k="place" v="isolated_dwelling" />
		<tag k="ssr:stedsnr" v="212314" />
	</node>
	<node id="-622236" lat="68.4731166652" lon="17.5086055501">
		<tag k="name" v="Øyjorda" />
		<tag k="place" v="hamlet" />
		<tag k="ssr:stedsnr" v="928763" />
	</node>
	<node id="-621423" lat="68.4435416627" lon="17.6411527754">
		<tag k="alt_name" v="Sletten vestre" />
		<tag k="name" v="Vestre Sletten" />
		<tag k="place" v="farm" />
		<tag k="ssr:stedsnr" v="571361" />
	</node>
	<node id="-620910" lat="68.3162555545" lon="17.2908277721">
		<tag k="name" v="Øvergård" />
		<tag k="place" v="farm" />
		<tag k="ssr:stedsnr" v="207960" />
	</node>
	<node id="-620397" lat="68.185552774" lon="17.315755544">
		<tag k="name" v="Sandmo" />
		<tag k="place" v="farm" />
		<tag k="ssr:stedsnr" v="16663" />
	</node>
	<node id="-620908" lat="68.3894833374" lon="17.140872216">
		<tag k="name" v="Vollen" />
		<tag k="place" v="farm" />
		<tag k="ssr:stedsnr" v="207852" />
	</node>
	<node id="-621005" lat="68.4106416694" lon="17.4080444325">
		<tag k="name" v="Nyborg" />
		<tag k="place" v="quarter" />
		<tag k="ssr:stedsnr" v="260988" />
	</node>
	<node id="-620904" lat="68.253086113" lon="17.4039999917">
		<tag k="name" v="Tangen" />
		<tag k="place" v="farm" />
		<tag k="ssr:stedsnr" v="207562" />
	</node>
	<node id="-620092" lat="68.2327027742" lon="17.3411000004">
		<tag k="name" v="Brennmoen" />
		<tag k="place" v="isolated_dwelling" />
		<tag k="ssr:stedsnr" v="320746" />
	</node>
	<node id="-621926" lat="68.4219416713" lon="17.3663138783">
		<tag k="name" v="Stranda" />
		<tag k="place" v="quarter" />
		<tag k="ssr:stedsnr" v="787220" />
	</node>
	<node id="-620388" lat="68.4702940028" lon="17.5037200055">
		<tag k="name" v="Øyjorda" />
		<tag k="place" v="farm" />
		<tag k="ssr:stedsnr" v="988420" />
	</node>
	<node id="-621923" lat="68.4384861092" lon="17.4004666679">
		<tag k="amenity" v="school" />
		<tag k="name" v="Framnes videregående skole" />
		<tag k="ssr:stedsnr" v="786638" />
	</node>
	<node id="-621922" lat="68.4424916688" lon="17.4053083323">
		<tag k="amenity" v="sports_centre" />
		<tag k="name" v="Narvikhallen" />
		<tag k="ssr:stedsnr" v="786624" />
	</node>
	<node id="-620385" lat="68.470379521" lon="17.5173794325">
		<tag k="name" v="Øyjorda" />
		<tag k="place" v="farm" />
		<tag k="ssr:stedsnr" v="988416" />
	</node>
	<node id="-621919" lat="68.1981083356" lon="17.9634555476">
		<tag k="fixme" v="consider tourism=alpine_hut or tourism=chalet" />
		<tag k="name" v="Storsteinshytta" />
		<tag k="ssr:stedsnr" v="781422" />
		<tag k="tourism" v="wilderness_hut" />
	</node>
	<node id="-620382" lat="68.4750810838" lon="17.6442142189">
		<tag k="name" v="Trældal" />
		<tag k="place" v="farm" />
		<tag k="ssr:stedsnr" v="984153" />
	</node>
	<node id="-620381" lat="68.4741957819" lon="17.6435626634">
		<tag k="name" v="Trældal" />
		<tag k="place" v="farm" />
		<tag k="ssr:stedsnr" v="984152" />
	</node>
	<node id="-620380" lat="68.473129395" lon="17.642588589">
		<tag k="name" v="Trældal" />
		<tag k="place" v="farm" />
		<tag k="ssr:stedsnr" v="984151" />
	</node>
	<node id="-620687" lat="68.4652666703" lon="17.6977472199">
		<tag k="name" v="Nymoen" />
		<tag k="place" v="farm" />
		<tag k="ssr:stedsnr" v="138774" />
	</node>
	<node id="-621910" lat="68.3758388903" lon="17.4082500081">
		<tag k="name" v="Mattisjorden nedre" />
		<tag k="place" v="farm" />
		<tag k="ssr:stedsnr" v="767682" />
	</node>
	<node id="-620345" lat="68.1976750029" lon="18.0833861003">
		<tag k="fixme" v="consider tourism=alpine_hut or tourism=chalet" />
		<tag k="name" v="Cunojávrihytta" />
		<tag k="old_name" v="Čunojávrihyttene;Čunojávrihytta" />
		<tag k="ssr:stedsnr" v="389571" />
		<tag k="tourism" v="wilderness_hut" />
	</node>
	<node id="-620371" lat="68.3774666709" lon="17.6030499883">
		<tag k="amenity" v="school" />
		<tag k="name" v="Beisfjord skole" />
		<tag k="ssr:stedsnr" v="889139" />
	</node>
	<node id="-621394" lat="68.2608833355" lon="17.4074638837">
		<tag k="name" v="Nordgård" />
		<tag k="place" v="farm" />
		<tag k="ssr:stedsnr" v="570516" />
	</node>
	<node id="-620088" lat="68.2100861091" lon="17.5076111086">
		<tag k="name" v="Nygård" />
		<tag k="place" v="farm" />
		<tag k="ssr:stedsnr" v="320668" />
	</node>
	<node id="-622221" lat="68.5583361084" lon="17.6436527625">
		<tag k="name" v="Vassbakken" />
		<tag k="place" v="isolated_dwelling" />
		<tag k="ssr:stedsnr" v="928646" />
	</node>
	<node id="-620360" lat="68.2949416658" lon="17.3594388887">
		<tag k="name" v="Rosenborg" />
		<tag k="place" v="farm" />
		<tag k="ssr:stedsnr" v="403692" />
	</node>
	<node id="-621895" lat="68.5758472236" lon="17.6231499935">
		<tag k="name" v="Kvanndalen" />
		<tag k="place" v="farm" />
		<tag k="ssr:stedsnr" v="756411" />
	</node>
	<node id="-621894" lat="68.1193861135" lon="17.9502083416">
		<tag k="fixme" v="consider tourism=alpine_hut or tourism=chalet" />
		<tag k="name" v="Cáihnavággihytta" />
		<tag k="old_name" v="Čáihnavaggihytta;Cáihnavággihyttene;Čáihnavággihytta" />
		<tag k="ssr:stedsnr" v="755914" />
		<tag k="tourism" v="wilderness_hut" />
	</node>
	<node id="-620769" lat="68.5785083293" lon="17.6044305567">
		<tag k="name" v="Vestre Kvanndalen" />
		<tag k="place" v="farm" />
		<tag k="ssr:stedsnr" v="149427" />
	</node>
	<node id="-621380" lat="68.4881527923" lon="17.7618705937">
		<tag k="name" v="Stormoen" />
		<tag k="place" v="farm" />
		<tag k="ssr:stedsnr" v="567666" />
	</node>
	<node id="-620199" lat="68.1682833327" lon="17.5549611168">
		<tag k="fixme" v="consider tourism=alpine_hut or tourism=chalet" />
		<tag k="name" v="Fjellbu" />
		<tag k="ssr:stedsnr" v="344147" />
		<tag k="tourism" v="wilderness_hut" />
	</node>
	<node id="-620864" lat="68.4380166674" lon="17.4170555418">
		<tag k="name" v="Frydenlund" />
		<tag k="place" v="suburb" />
		<tag k="ssr:stedsnr" v="200981" />
	</node>
	<node id="-620768" lat="68.3724583372" lon="17.599088896">
		<tag k="name" v="Brenna" />
		<tag k="place" v="isolated_dwelling" />
		<tag k="ssr:stedsnr" v="147339" />
	</node>
	<node id="-620861" lat="68.2643361091" lon="17.3353583388">
		<tag k="name" v="Mortenjorda" />
		<tag k="place" v="locality" />
		<tag k="ssr:stedsnr" v="200764" />
	</node>
	<node id="-620858" lat="68.5599944427" lon="17.7375999929">
		<tag k="name" v="Vasshaugen" />
		<tag k="place" v="isolated_dwelling" />
		<tag k="ssr:stedsnr" v="200694" />
	</node>
	<node id="-620857" lat="68.5624944472" lon="17.6928333388">
		<tag k="name" v="Nordgård" />
		<tag k="place" v="isolated_dwelling" />
		<tag k="ssr:stedsnr" v="200693" />
	</node>
	<node id="-621365" lat="68.285369448" lon="17.3105861177">
		<tag k="fixme" v="multiple name tags, choose one and add the other to alt_name" />
		<tag k="name" v="Forsa;Forselv" />
		<tag k="place" v="farm" />
		<tag k="ssr:stedsnr" v="563860" />
	</node>
	<node id="-620352" lat="68.4195333337" lon="17.3825111148">
		<tag k="name" v="Haugen" />
		<tag k="place" v="isolated_dwelling" />
		<tag k="ssr:stedsnr" v="394978" />
	</node>
	<node id="-621363" lat="68.2985305581" lon="17.2680111032">
		<tag k="name" v="Klubbvika" />
		<tag k="place" v="isolated_dwelling" />
		<tag k="ssr:stedsnr" v="563838" />
	</node>
	<node id="-620386" lat="68.4740139069" lon="17.5012634703">
		<tag k="name" v="Øyjorda" />
		<tag k="place" v="farm" />
		<tag k="ssr:stedsnr" v="988417" />
	</node>
	<node id="-620851" lat="68.4683944409" lon="17.6449166598">
		<tag k="name" v="Liljedal" />
		<tag k="place" v="isolated_dwelling" />
		<tag k="ssr:stedsnr" v="200748" />
	</node>
	<node id="-620848" lat="68.4814111083" lon="17.5553388964">
		<tag k="name" v="Holtan" />
		<tag k="place" v="farm" />
		<tag k="ssr:stedsnr" v="200726" />
	</node>
	<node id="-620933" lat="68.2726416629" lon="17.3993277665">
		<tag k="name" v="Aspevik søndre" />
		<tag k="place" v="farm" />
		<tag k="ssr:stedsnr" v="240735" />
	</node>
	<node id="-621357" lat="68.5579083343" lon="17.5661249966">
		<tag k="alt_name" v="Øymoen" />
		<tag k="name" v="Øymo" />
		<tag k="place" v="isolated_dwelling" />
		<tag k="ssr:stedsnr" v="563731" />
	</node>
	<node id="-621356" lat="68.5573805558" lon="17.6262777759">
		<tag k="name" v="Berglund" />
		<tag k="place" v="isolated_dwelling" />
		<tag k="ssr:stedsnr" v="563715" />
	</node>
	<node id="-620812" lat="68.3535555596" lon="17.9814277692">
		<tag k="name" v="Smimuren" />
		<tag k="place" v="isolated_dwelling" />
		<tag k="ssr:stedsnr" v="199148" />
	</node>
	<node id="-620841" lat="68.5496222255" lon="17.532922228">
		<tag k="alt_name" v="Prestjord" />
		<tag k="name" v="Prestjorda" />
		<tag k="place" v="farm" />
		<tag k="ssr:stedsnr" v="199770" />
	</node>
	<node id="-621351" lat="68.5170361087" lon="17.5628805513">
		<tag k="name" v="Halsen" />
		<tag k="place" v="isolated_dwelling" />
		<tag k="ssr:stedsnr" v="563649" />
	</node>
	<node id="-620043" lat="68.4452416643" lon="17.4432777697">
		<tag k="name" v="Taraldsvik" />
		<tag k="place" v="suburb" />
		<tag k="ssr:stedsnr" v="273745" />
	</node>
	<node id="-620181" lat="68.4361666635" lon="17.4402166601">
		<tag k="name" v="Oskarsborg" />
		<tag k="place" v="isolated_dwelling" />
		<tag k="ssr:stedsnr" v="333681" />
	</node>
	<node id="-620198" lat="68.4895694461" lon="17.5114138778">
		<tag k="name" v="Seines - Seavgu" />
		<tag k="name:no" v="Seines" />
		<tag k="name:se" v="Seavgu" />
		<tag k="place" v="hamlet" />
		<tag k="ssr:stedsnr" v="343909" />
	</node>
	<node id="-621344" lat="68.457833333" lon="17.7007055606">
		<tag k="name" v="Hergot - Hearrágoahti" />
		<tag k="name:no" v="Hergot" />
		<tag k="name:se" v="Hearrágoahti" />
		<tag k="place" v="hamlet" />
		<tag k="ssr:stedsnr" v="563208" />
	</node>
	<node id="-621343" lat="68.4281305536" lon="17.7453861192">
		<tag k="name" v="Kuberget" />
		<tag k="place" v="isolated_dwelling" />
		<tag k="ssr:stedsnr" v="563199" />
	</node>
	<node id="-620421" lat="68.273083332" lon="17.3990055467">
		<tag k="name" v="Aspevik" />
		<tag k="place" v="isolated_dwelling" />
		<tag k="ssr:stedsnr" v="17846" />
	</node>
	<node id="-622298" lat="68.4723333323" lon="17.5025305433">
		<tag k="name" v="Øverlund" />
		<tag k="place" v="farm" />
		<tag k="ssr:stedsnr" v="936268" />
	</node>
	<node id="-620308" lat="68.5568750007" lon="17.7327722142">
		<tag k="fixme" v="consider place=hamlet" />
		<tag k="name" v="Nordkild" />
		<tag k="place" v="farm" />
		<tag k="ssr:stedsnr" v="389047" />
	</node>
	<node id="-621329" lat="68.3591999977" lon="17.6136055513">
		<tag k="alt_name" v="Tømmerbakken, øvre" />
		<tag k="name" v="Øvre Tømmerbakken" />
		<tag k="place" v="farm" />
		<tag k="ssr:stedsnr" v="562135" />
	</node>
	<node id="-621528" lat="68.3819861083" lon="17.1238305449">
		<tag k="name" v="Brubakken" />
		<tag k="place" v="farm" />
		<tag k="ssr:stedsnr" v="624945" />
	</node>
	<node id="-620300" lat="68.417663886" lon="17.3814111164">
		<tag k="amenity" v="school" />
		<tag k="name" v="Ankenes skole" />
		<tag k="ssr:stedsnr" v="388566" />
	</node>
	<node id="-621834" lat="68.4299611092" lon="17.3917333412">
		<tag k="building" v="industrial" />
		<tag k="industrial" v="factory" />
		<tag k="name" v="Malmkaia" />
		<tag k="ssr:stedsnr" v="746983" />
	</node>
	<node id="-621320" lat="68.5693361142" lon="17.7955777771">
		<tag k="name" v="Karengamma" />
		<tag k="place" v="locality" />
		<tag k="ssr:stedsnr" v="543255" />
	</node>
	<node id="-620293" lat="68.4341444449" lon="18.0033861183">
		<tag k="name" v="Søsterbekk" />
		<tag k="place" v="neighbourhood" />
		<tag k="ssr:stedsnr" v="385733" />
	</node>
	<node id="-620803" lat="68.2834166705" lon="17.3764694445">
		<tag k="name" v="Aspelund" />
		<tag k="place" v="farm" />
		<tag k="ssr:stedsnr" v="180757" />
	</node>
	<node id="-621314" lat="68.2960833296" lon="17.3580527771">
		<tag k="name" v="Sandvik nordre" />
		<tag k="place" v="farm" />
		<tag k="ssr:stedsnr" v="524671" />
	</node>
	<node id="-620801" lat="68.2536333359" lon="17.4080055473">
		<tag k="name" v="Elvegården" />
		<tag k="place" v="farm" />
		<tag k="ssr:stedsnr" v="180723" />
	</node>
	<node id="-620800" lat="68.4391500007" lon="17.3980472313">
		<tag k="amenity" v="school" />
		<tag k="name" v="Solhaugen videregående skole" />
		<tag k="ssr:stedsnr" v="180614" />
	</node>
	<node id="-620799" lat="68.5540888861" lon="17.5402166511">
		<tag k="name" v="Elvelund" />
		<tag k="place" v="farm" />
		<tag k="ssr:stedsnr" v="179201" />
	</node>
	<node id="-621310" lat="68.5401583309" lon="17.5745055511">
		<tag k="name" v="Medby nordre" />
		<tag k="place" v="farm" />
		<tag k="ssr:stedsnr" v="524133" />
	</node>
	<node id="-621821" lat="68.5276722188" lon="17.4563833407">
		<tag k="alt_name" v="Ytregaard" />
		<tag k="name" v="Ytregård" />
		<tag k="place" v="isolated_dwelling" />
		<tag k="ssr:stedsnr" v="746628" />
	</node>
	<node id="-620796" lat="68.444747224" lon="17.4594361019">
		<tag k="name" v="Furumoen" />
		<tag k="place" v="suburb" />
		<tag k="ssr:stedsnr" v="177128" />
	</node>
	<node id="-621373" lat="68.3865666694" lon="17.1284444419">
		<tag k="name" v="Skogset" />
		<tag k="place" v="farm" />
		<tag k="ssr:stedsnr" v="563957" />
	</node>
	<node id="-621951" lat="68.5617388928" lon="17.7317555495">
		<tag k="name" v="Bakkelund" />
		<tag k="place" v="isolated_dwelling" />
		<tag k="ssr:stedsnr" v="806737" />
	</node>
	<node id="-622328" lat="68.5024666519" lon="18.0790225543">
		<tag k="fixme" v="consider tourism=alpine_hut or tourism=chalet" />
		<tag k="name" v="Gamle Holmvassbu" />
		<tag k="ssr:stedsnr" v="978850" />
		<tag k="tourism" v="wilderness_hut" />
	</node>
	<node id="-621303" lat="68.2936782728" lon="17.9976530268">
		<tag k="alt_name" v="Kvilebua" />
		<tag k="fixme" v="consider tourism=alpine_hut or tourism=chalet" />
		<tag k="name" v="Oallavagge" />
		<tag k="ssr:stedsnr" v="513891" />
		<tag k="tourism" v="wilderness_hut" />
	</node>
	<node id="-622326" lat="68.443199107" lon="17.653363146">
		<tag k="name" v="Nordre Straumsnes" />
		<tag k="place" v="farm" />
		<tag k="ssr:stedsnr" v="978699" />
	</node>
	<node id="-622325" lat="68.4284655697" lon="17.7108025964">
		<tag k="name" v="Straumsnes" />
		<tag k="place" v="farm" />
		<tag k="ssr:stedsnr" v="978555" />
	</node>
	<node id="-622324" lat="68.4415583904" lon="17.6461966151">
		<tag k="fixme" v="consider place=hamlet" />
		<tag k="name" v="Vestre Straumsnes" />
		<tag k="place" v="farm" />
		<tag k="ssr:stedsnr" v="978557" />
	</node>
	<node id="-622323" lat="68.4379747883" lon="17.7076011601">
		<tag k="fixme" v="consider place=hamlet" />
		<tag k="name" v="Austre Straumsnes" />
		<tag k="place" v="farm" />
		<tag k="ssr:stedsnr" v="978545" />
	</node>
	<node id="-622322" lat="68.4348403282" lon="17.709286075">
		<tag k="name" v="Austre Straumsnes" />
		<tag k="place" v="farm" />
		<tag k="ssr:stedsnr" v="978546" />
	</node>
	<node id="-621808" lat="68.5470111095" lon="17.5275527651">
		<tag k="name" v="Haugen" />
		<tag k="place" v="quarter" />
		<tag k="ssr:stedsnr" v="745797" />
	</node>
	<node id="-622319" lat="68.4376514914" lon="17.6650463224">
		<tag k="name" v="Sjøvoll" />
		<tag k="place" v="farm" />
		<tag k="ssr:stedsnr" v="971644" />
	</node>
	<node id="-622318" lat="68.4427416672" lon="17.435936117">
		<tag k="amenity" v="university" />
		<tag k="name" v="Narvik ingeniørskole" />
		<tag k="ssr:stedsnr" v="969520" />
	</node>
	<node id="-622317" lat="68.4076194437" lon="17.4502694414">
		<tag k="name" v="Kvitsandøyra" />
		<tag k="place" v="quarter" />
		<tag k="ssr:stedsnr" v="968720" />
	</node>
	<node id="-622316" lat="68.4568999997" lon="17.7023499966">
		<tag k="name" v="Hergotta" />
		<tag k="place" v="isolated_dwelling" />
		<tag k="ssr:stedsnr" v="968208" />
	</node>
	<node id="-621291" lat="68.2509611095" lon="17.3951750031">
		<tag k="name" v="Lillejorden" />
		<tag k="place" v="farm" />
		<tag k="ssr:stedsnr" v="510601" />
	</node>
	<node id="-621290" lat="68.2555972189" lon="17.4034749968">
		<tag k="amenity" v="school" />
		<tag k="name" v="Elvegård skole" />
		<tag k="ssr:stedsnr" v="510596" />
	</node>
	<node id="-620839" lat="68.5571527751" lon="17.7372972162">
		<tag k="name" v="Lyngmoen" />
		<tag k="place" v="farm" />
		<tag k="ssr:stedsnr" v="199763" />
	</node>
	<node id="-620412" lat="68.1791999968" lon="17.5540999854">
		<tag k="name" v="Grønvoll" />
		<tag k="place" v="farm" />
		<tag k="ssr:stedsnr" v="17709" />
	</node>
	<node id="-621798" lat="68.555211111" lon="17.5620999963">
		<tag k="name" v="Bjørkvang" />
		<tag k="place" v="isolated_dwelling" />
		<tag k="ssr:stedsnr" v="745727" />
	</node>
	<node id="-621797" lat="68.5565138862" lon="17.608263889">
		<tag k="name" v="Dalberget" />
		<tag k="place" v="isolated_dwelling" />
		<tag k="ssr:stedsnr" v="745724" />
	</node>
	<node id="-621645" lat="68.177611108" lon="17.7813249984">
		<tag k="name" v="Stasjonsholmen" />
		<tag k="place" v="locality" />
		<tag k="ssr:stedsnr" v="684654" />
	</node>
	<node id="-621794" lat="68.5541861136" lon="17.6096500108">
		<tag k="name" v="Myrvang" />
		<tag k="place" v="isolated_dwelling" />
		<tag k="ssr:stedsnr" v="745708" />
	</node>
	<node id="-622305" lat="68.4788222254" lon="17.5514055519">
		<tag k="name" v="Lauksletta" />
		<tag k="place" v="farm" />
		<tag k="ssr:stedsnr" v="940325" />
	</node>
	<node id="-622304" lat="68.5762722243" lon="17.6170194316">
		<tag k="name" v="Kvanndalen" />
		<tag k="place" v="farm" />
		<tag k="ssr:stedsnr" v="938422" />
	</node>
	<node id="-620254" lat="68.5313111115" lon="17.4718027662">
		<tag k="fixme" v="consider place=hamlet" />
		<tag k="name" v="Herjangen" />
		<tag k="place" v="village" />
		<tag k="ssr:stedsnr" v="381763" />
	</node>
	<node id="-620252" lat="68.570152774" lon="17.5738861018">
		<tag k="name" v="Nylund" />
		<tag k="place" v="farm" />
		<tag k="ssr:stedsnr" v="381748" />
	</node>
	<node id="-621275" lat="68.4433694461" lon="17.6457083266">
		<tag k="name" v="Sletten østre" />
		<tag k="place" v="farm" />
		<tag k="ssr:stedsnr" v="510344" />
	</node>
	<node id="-620250" lat="68.5517222201" lon="17.7162250047">
		<tag k="name" v="Sørgård" />
		<tag k="place" v="isolated_dwelling" />
		<tag k="ssr:stedsnr" v="381713" />
	</node>
	<node id="-621271" lat="68.5485166662" lon="17.5307611133">
		<tag k="name" v="Haugen" />
		<tag k="place" v="farm" />
		<tag k="ssr:stedsnr" v="510329" />
	</node>
	<node id="-620245" lat="68.214577781" lon="17.497836099">
		<tag k="name" v="Yttermo" />
		<tag k="place" v="farm" />
		<tag k="ssr:stedsnr" v="381675" />
	</node>
	<node id="-621268" lat="68.4411083292" lon="17.6545416643">
		<tag k="fixme" v="consider place=hamlet" />
		<tag k="name" v="Straumsnes" />
		<tag k="place" v="village" />
		<tag k="ssr:stedsnr" v="510318" />
	</node>
	<node id="-620753" lat="68.2522805559" lon="17.406400004">
		<tag k="name" v="Lundemo" />
		<tag k="place" v="farm" />
		<tag k="ssr:stedsnr" v="146548" />
	</node>
	<node id="-620257" lat="68.5523694422" lon="17.6115444289">
		<tag k="alt_name" v="Fjeldheim" />
		<tag k="name" v="Fjellheim" />
		<tag k="place" v="isolated_dwelling" />
		<tag k="ssr:stedsnr" v="381770" />
	</node>
	<node id="-621774" lat="68.3633777757" lon="17.5972277714">
		<tag k="name" v="Gamman" />
		<tag k="place" v="farm" />
		<tag k="ssr:stedsnr" v="745185" />
	</node>
	<node id="-621261" lat="68.4652861074" lon="17.6662805532">
		<tag k="name" v="Liljedal" />
		<tag k="place" v="farm" />
		<tag k="ssr:stedsnr" v="510023" />
	</node>
	<node id="-621218" lat="68.4453944442" lon="17.6289444535">
		<tag k="name" v="Fagerjorda" />
		<tag k="place" v="farm" />
		<tag k="ssr:stedsnr" v="503186" />
	</node>
	<node id="-620745" lat="68.2414972223" lon="17.4118083415">
		<tag k="name" v="Sandmoen" />
		<tag k="place" v="farm" />
		<tag k="ssr:stedsnr" v="146471" />
	</node>
	<node id="-621516" lat="68.4748499959" lon="17.6519222252">
		<tag k="fixme" v="consider place=hamlet" />
		<tag k="name" v="Trældal - Raltták" />
		<tag k="name:no" v="Trældal" />
		<tag k="name:se" v="Raltták" />
		<tag k="place" v="farm" />
		<tag k="ssr:stedsnr" v="624782" />
	</node>
	<node id="-621765" lat="68.4374749989" lon="17.4351027837">
		<tag k="name" v="Oscarsborg" />
		<tag k="place" v="suburb" />
		<tag k="ssr:stedsnr" v="723141" />
	</node>
	<node id="-621248" lat="68.1885638899" lon="17.3139527786">
		<tag k="name" v="Solvang" />
		<tag k="place" v="farm" />
		<tag k="ssr:stedsnr" v="507638" />
	</node>
	<node id="-622270" lat="68.5576777759" lon="17.724750003">
		<tag k="name" v="Solbakk" />
		<tag k="place" v="farm" />
		<tag k="ssr:stedsnr" v="935046" />
	</node>
	<node id="-621757" lat="68.4409416631" lon="17.4324249975">
		<tag k="name" v="Bromsgård" />
		<tag k="place" v="farm" />
		<tag k="ssr:stedsnr" v="697697" />
	</node>
	<node id="-622268" lat="68.4395366109" lon="17.658059156">
		<tag k="name" v="Søndre Straumsnes" />
		<tag k="place" v="farm" />
		<tag k="ssr:stedsnr" v="935005" />
	</node>
	<node id="-621243" lat="68.4022416653" lon="17.3328249916">
		<tag k="name" v="Åsli" />
		<tag k="place" v="farm" />
		<tag k="ssr:stedsnr" v="503993" />
	</node>
	<node id="-621241" lat="68.4099638861" lon="17.3126999919">
		<tag k="alt_name" v="Håkvika, nordre;Håkvik nordre" />
		<tag k="fixme" v="consider place=hamlet" />
		<tag k="name" v="Nordre Håkvik" />
		<tag k="place" v="farm" />
		<tag k="ssr:stedsnr" v="503978" />
	</node>
	<node id="-621240" lat="68.3812222187" lon="17.0776944467">
		<tag k="name" v="Nygård" />
		<tag k="place" v="farm" />
		<tag k="ssr:stedsnr" v="503947" />
	</node>
	<node id="-621239" lat="68.3854361129" lon="17.1924222111">
		<tag k="name" v="Holtvik" />
		<tag k="place" v="farm" />
		<tag k="ssr:stedsnr" v="503926" />
	</node>
	<node id="-620789" lat="68.3031611092" lon="17.3581555431">
		<tag k="name" v="Nergammen" />
		<tag k="place" v="locality" />
		<tag k="ssr:stedsnr" v="160670" />
	</node>
	<node id="-621769" lat="68.4305888884" lon="17.4488972102">
		<tag k="name" v="Skistua" />
		<tag k="place" v="isolated_dwelling" />
		<tag k="ssr:stedsnr" v="726532" />
	</node>
	<node id="-621233" lat="68.4967138887" lon="17.5324166663">
		<tag k="name" v="Linstrand" />
		<tag k="place" v="farm" />
		<tag k="ssr:stedsnr" v="503758" />
	</node>
	<node id="-620207" lat="68.4407027774" lon="17.4155861165">
		<tag k="amenity" v="school" />
		<tag k="name" v="Tårnveien-Villaveien barneskole" />
		<tag k="ssr:stedsnr" v="361654" />
	</node>
	<node id="-620206" lat="68.4419499965" lon="17.4185749915">
		<tag k="amenity" v="sports_centre" />
		<tag k="name" v="Idrettens hus" />
		<tag k="ssr:stedsnr" v="361645" />
	</node>
	<node id="-621853" lat="68.4041750004" lon="17.9862861184">
		<tag k="name" v="Norddalen" />
		<tag k="place" v="isolated_dwelling" />
		<tag k="ssr:stedsnr" v="750722" />
	</node>
	<node id="-621228" lat="68.5589277798" lon="17.7218555595">
		<tag k="name" v="Solli" />
		<tag k="place" v="isolated_dwelling" />
		<tag k="ssr:stedsnr" v="503688" />
	</node>
	<node id="-621511" lat="68.5612777796" lon="17.6975777814">
		<tag k="name" v="Fedreheim" />
		<tag k="place" v="isolated_dwelling" />
		<tag k="ssr:stedsnr" v="624700" />
	</node>
	<node id="-620712" lat="68.4062555596" lon="17.8254166717">
		<tag k="name" v="Sildvik" />
		<tag k="place" v="farm" />
		<tag k="ssr:stedsnr" v="142752" />
	</node>
	<node id="-621735" lat="68.251063886" lon="17.399699991">
		<tag k="name" v="Øvergarden" />
		<tag k="place" v="farm" />
		<tag k="ssr:stedsnr" v="692552" />
	</node>
	<node id="-621734" lat="68.2524111089" lon="17.3991722291">
		<tag k="name" v="Elvegården søndre" />
		<tag k="place" v="farm" />
		<tag k="ssr:stedsnr" v="692547" />
	</node>
	<node id="-620195" lat="68.2344749954" lon="17.3073805638">
		<tag k="name" v="Pund isen" />
		<tag k="place" v="farm" />
		<tag k="ssr:stedsnr" v="342823" />
	</node>
	<node id="-621730" lat="68.4114194461" lon="17.3117472249">
		<tag k="name" v="Løvoll" />
		<tag k="place" v="farm" />
		<tag k="ssr:stedsnr" v="692488" />
	</node>
	<node id="-620192" lat="68.3745472237" lon="17.4133444388">
		<tag k="name" v="Mattisjorden øvre" />
		<tag k="place" v="farm" />
		<tag k="ssr:stedsnr" v="342646" />
	</node>
	<node id="-620191" lat="68.373680558" lon="17.4142972103">
		<tag k="name" v="Myrhaug" />
		<tag k="place" v="farm" />
		<tag k="ssr:stedsnr" v="342644" />
	</node>
	<node id="-620702" lat="68.493413889" lon="17.5202333432">
		<tag k="name" v="Seines" />
		<tag k="place" v="farm" />
		<tag k="ssr:stedsnr" v="139782" />
	</node>
	<node id="-620189" lat="68.5455194406" lon="17.5696527655">
		<tag k="name" v="Elvegården" />
		<tag k="place" v="isolated_dwelling" />
		<tag k="ssr:stedsnr" v="342073" />
	</node>
	<node id="-620188" lat="68.3887716716" lon="17.5519171782">
		<tag k="name" v="Gammelheimen" />
		<tag k="place" v="locality" />
		<tag k="ssr:stedsnr" v="342050" />
	</node>
	<node id="-620699" lat="68.4648500022" lon="17.6841416666">
		<tag k="name" v="Hjemmemoen" />
		<tag k="place" v="farm" />
		<tag k="ssr:stedsnr" v="139743" />
	</node>
	<node id="-620415" lat="68.2065527804" lon="17.5234083377">
		<tag k="name" v="Stiberg" />
		<tag k="place" v="farm" />
		<tag k="ssr:stedsnr" v="17725" />
	</node>
	<node id="-622231" lat="68.4762305526" lon="17.5658027809">
		<tag k="alt_name" v="Leirvika" />
		<tag k="name" v="Leirvik" />
		<tag k="place" v="farm" />
		<tag k="ssr:stedsnr" v="928726" />
	</node>
	<node id="-622229" lat="68.5581722244" lon="17.7409777714">
		<tag k="name" v="Nordkjelda" />
		<tag k="place" v="isolated_dwelling" />
		<tag k="ssr:stedsnr" v="928716" />
	</node>
	<node id="-620180" lat="68.3981944423" lon="17.9678833194">
		<tag k="fixme" v="consider tourism=alpine_hut or tourism=chalet" />
		<tag k="name" v="Katterat fjellstue" />
		<tag k="ssr:stedsnr" v="330148" />
		<tag k="tourism" v="wilderness_hut" />
	</node>
	<node id="-621203" lat="68.2358972249" lon="17.3461416762">
		<tag k="name" v="Laukvik" />
		<tag k="place" v="isolated_dwelling" />
		<tag k="ssr:stedsnr" v="502750" />
	</node>
	<node id="-620995" lat="68.3264444484" lon="17.291713884">
		<tag k="alt_name" v="Lundlien" />
		<tag k="name" v="Lundlia" />
		<tag k="place" v="farm" />
		<tag k="ssr:stedsnr" v="260877" />
	</node>
	<node id="-621200" lat="68.1877972236" lon="17.3241611105">
		<tag k="name" v="Nygård" />
		<tag k="place" v="farm" />
		<tag k="ssr:stedsnr" v="502703" />
	</node>
	<node id="-622223" lat="68.5554583346" lon="17.5265361059">
		<tag k="name" v="Vollan" />
		<tag k="place" v="isolated_dwelling" />
		<tag k="ssr:stedsnr" v="928658" />
	</node>
	<node id="-622222" lat="68.5614194444" lon="17.6910555638">
		<tag k="name" v="Vestgård" />
		<tag k="place" v="isolated_dwelling" />
		<tag k="ssr:stedsnr" v="928653" />
	</node>
	<node id="-621197" lat="68.202247225" lon="17.5373250076">
		<tag k="name" v="Gamnes" />
		<tag k="place" v="farm" />
		<tag k="ssr:stedsnr" v="502694" />
	</node>
	<node id="-621708" lat="68.3232999981" lon="17.2690416577">
		<tag k="name" v="Solhaug" />
		<tag k="place" v="farm" />
		<tag k="ssr:stedsnr" v="689633" />
	</node>
	<node id="-621707" lat="68.2808999965" lon="17.3315249971">
		<tag k="name" v="Kjerringneset" />
		<tag k="place" v="farm" />
		<tag k="ssr:stedsnr" v="689632" />
	</node>
	<node id="-620168" lat="68.2541750041" lon="17.4001083398">
		<tag k="name" v="Vollen" />
		<tag k="place" v="farm" />
		<tag k="ssr:stedsnr" v="328566" />
	</node>
	<node id="-621703" lat="68.1877638919" lon="17.3175138928">
		<tag k="name" v="Sør-Skjomen" />
		<tag k="place" v="hamlet" />
		<tag k="ssr:stedsnr" v="688601" />
	</node>
	<node id="-621189" lat="68.3442472272" lon="17.5138027665">
		<tag k="name" v="Sjursheim" />
		<tag k="place" v="farm" />
		<tag k="ssr:stedsnr" v="502123" />
	</node>
	<node id="-621188" lat="68.3471222267" lon="17.5091055444">
		<tag k="name" v="Munklia" />
		<tag k="place" v="farm" />
		<tag k="ssr:stedsnr" v="502122" />
	</node>
	<node id="-621191" lat="68.3584055525" lon="17.480705553">
		<tag k="name" v="Hauklia" />
		<tag k="place" v="farm" />
		<tag k="ssr:stedsnr" v="502134" />
	</node>
	<node id="-621698" lat="68.3764749982" lon="17.2573444519">
		<tag k="name" v="Grindjorda" />
		<tag k="place" v="isolated_dwelling" />
		<tag k="ssr:stedsnr" v="685970" />
	</node>
	<node id="-620673" lat="68.1617472257" lon="17.5614638757">
		<tag k="name" v="Fjellbu" />
		<tag k="place" v="farm" />
		<tag k="ssr:stedsnr" v="138641" />
	</node>
	<node id="-621181" lat="68.2340249989" lon="17.4204250049">
		<tag k="leisure" v="pitch" />
		<tag k="name" v="Skjomen Golfpark" />
		<tag k="ssr:stedsnr" v="466495" />
	</node>
	<node id="-621180" lat="68.3041888891" lon="17.3349527687">
		<tag k="name" v="Fredheim" />
		<tag k="place" v="farm" />
		<tag k="ssr:stedsnr" v="464887" />
	</node>
	<node id="-620667" lat="68.4118499977" lon="17.430936096">
		<tag k="name" v="Fagernes - Čoalbmi" />
		<tag k="name:no" v="Fagernes" />
		<tag k="name:se" v="Čoalbmi" />
		<tag k="place" v="suburb" />
		<tag k="ssr:stedsnr" v="138272" />
	</node>
	<node id="-620073" lat="68.4415027744" lon="17.4061305485">
		<tag k="leisure" v="pitch" />
		<tag k="name" v="Narvik Stadion" />
		<tag k="ssr:stedsnr" v="301614" />
	</node>
	<node id="-622200" lat="68.2078750015" lon="17.5143027655">
		<tag k="name" v="Nymoen" />
		<tag k="place" v="farm" />
		<tag k="ssr:stedsnr" v="927680" />
	</node>
	<node id="-622199" lat="68.2111916658" lon="17.5044722077">
		<tag k="name" v="Haugbakken" />
		<tag k="place" v="farm" />
		<tag k="ssr:stedsnr" v="927678" />
	</node>
	<node id="-621685" lat="68.4644305586" lon="17.6861750059">
		<tag k="name" v="Solbakken" />
		<tag k="place" v="farm" />
		<tag k="ssr:stedsnr" v="685756" />
	</node>
	<node id="-621684" lat="68.4676416663" lon="17.6894833407">
		<tag k="name" v="Lian" />
		<tag k="place" v="farm" />
		<tag k="ssr:stedsnr" v="685755" />
	</node>
	<node id="-620990" lat="68.249391666" lon="17.4116472304">
		<tag k="name" v="Elvegården" />
		<tag k="place" v="isolated_dwelling" />
		<tag k="ssr:stedsnr" v="260789" />
	</node>
	<node id="-620658" lat="68.3761398029" lon="17.5958902331">
		<tag k="name" v="Beisfjord - Ušmá" />
		<tag k="name:no" v="Beisfjord" />
		<tag k="name:se" v="Ušmá" />
		<tag k="place" v="village" />
		<tag k="ssr:stedsnr" v="138161" />
	</node>
	<node id="-620051" lat="68.5481305563" lon="17.5715916568">
		<tag k="name" v="Øverland" />
		<tag k="place" v="farm" />
		<tag k="ssr:stedsnr" v="282156" />
	</node>
	<node id="-621164" lat="68.3250777749" lon="17.2905805553">
		<tag k="name" v="Bakken" />
		<tag k="place" v="farm" />
		<tag k="ssr:stedsnr" v="455970" />
	</node>
	<node id="-620383" lat="68.4742039612" lon="17.5078405564">
		<tag k="fixme" v="consider place=hamlet" />
		<tag k="name" v="Øyjorda" />
		<tag k="place" v="farm" />
		<tag k="ssr:stedsnr" v="984284" />
	</node>
	<node id="-621671" lat="68.5534333329" lon="17.7148666593">
		<tag k="name" v="Bakkejorda" />
		<tag k="place" v="isolated_dwelling" />
		<tag k="ssr:stedsnr" v="685672" />
	</node>
	<node id="-621160" lat="68.4573277782" lon="17.7016972164">
		<tag k="name" v="Nordre Hergot" />
		<tag k="place" v="farm" />
		<tag k="ssr:stedsnr" v="453411" />
	</node>
	<node id="-621756" lat="68.4338679975" lon="17.6943738143">
		<tag k="fixme" v="consider place=hamlet" />
		<tag k="name" v="Inner-Straumsnes" />
		<tag k="place" v="village" />
		<tag k="ssr:stedsnr" v="697335" />
	</node>
	<node id="-621670" lat="68.554763891" lon="17.609386101">
		<tag k="name" v="Bergetun" />
		<tag k="place" v="isolated_dwelling" />
		<tag k="ssr:stedsnr" v="685668" />
	</node>
	<node id="-620560" lat="68.2564694443" lon="17.4025444521">
		<tag k="fixme" v="consider place=suburb, village or hamlet" />
		<tag k="name" v="Elvegård" />
		<tag k="place" v="quarter" />
		<tag k="ssr:stedsnr" v="78820" />
	</node>
	<node id="-621156" lat="68.3995611155" lon="17.3405527768">
		<tag k="name" v="Fredheim" />
		<tag k="place" v="farm" />
		<tag k="ssr:stedsnr" v="450961" />
	</node>
	<node id="-620131" lat="68.3347916681" lon="17.279755545">
		<tag k="name" v="Mehus" />
		<tag k="place" v="farm" />
		<tag k="ssr:stedsnr" v="321830" />
	</node>
	<node id="-621666" lat="68.5159972256" lon="17.5599138804">
		<tag k="name" v="Myra" />
		<tag k="place" v="isolated_dwelling" />
		<tag k="ssr:stedsnr" v="685629" />
	</node>
	<node id="-622177" lat="68.4118833338" lon="17.4391055588">
		<tag k="leisure" v="pitch" />
		<tag k="name" v="Fagernes idrettsbane" />
		<tag k="ssr:stedsnr" v="908716" />
	</node>
	<node id="-620128" lat="68.2868583301" lon="17.3092833334">
		<tag k="building" v="industrial" />
		<tag k="name" v="Forsheim" />
		<tag k="ssr:stedsnr" v="321817" />
	</node>
	<node id="-622175" lat="68.4415388895" lon="17.4004249957">
		<tag k="leisure" v="pitch" />
		<tag k="name" v="Jaklamyra idrettsbaner" />
		<tag k="ssr:stedsnr" v="908654" />
	</node>
	<node id="-622181" lat="68.2566583376" lon="17.4062916672">
		<tag k="fixme" v="consider place=hamlet" />
		<tag k="name" v="Elvegård" />
		<tag k="place" v="village" />
		<tag k="ssr:stedsnr" v="909255" />
	</node>
	<node id="-620123" lat="68.4917555594" lon="17.762941662">
		<tag k="name" v="Gammelheimen" />
		<tag k="place" v="isolated_dwelling" />
		<tag k="ssr:stedsnr" v="321728" />
	</node>
	<node id="-620122" lat="68.5523138923" lon="17.730208329">
		<tag k="name" v="Elvebakk" />
		<tag k="place" v="isolated_dwelling" />
		<tag k="ssr:stedsnr" v="321711" />
	</node>
	<node id="-621657" lat="68.4480388926" lon="17.7161277661">
		<tag k="alt_name" v="Tyttebærvika" />
		<tag k="name" v="Tyttebærvik" />
		<tag k="place" v="hamlet" />
		<tag k="ssr:stedsnr" v="685186" />
	</node>
	<node id="-621656" lat="68.3130333346" lon="17.6382611067">
		<tag k="name" v="Myrmoen" />
		<tag k="place" v="isolated_dwelling" />
		<tag k="ssr:stedsnr" v="685178" />
	</node>
	<node id="-620119" lat="68.5368111097" lon="17.8894638787">
		<tag k="alt_name" v="Nævrastua" />
		<tag k="fixme" v="consider tourism=alpine_hut or tourism=chalet" />
		<tag k="name" v="Næverfjellhytta" />
		<tag k="ssr:stedsnr" v="321689" />
		<tag k="tourism" v="wilderness_hut" />
	</node>
	<node id="-621654" lat="68.5785611068" lon="17.6233500015">
		<tag k="name" v="Kvanndalen - Luotnegohpi" />
		<tag k="name:no" v="Kvanndalen" />
		<tag k="name:se" v="Luotnegohpi" />
		<tag k="place" v="hamlet" />
		<tag k="ssr:stedsnr" v="685174" />
	</node>
	<node id="-620629" lat="68.3754527813" lon="17.3958250088">
		<tag k="name" v="Mattisjord nedre" />
		<tag k="place" v="farm" />
		<tag k="ssr:stedsnr" v="100665" />
	</node>
	<node id="-622164" lat="68.4391551317" lon="17.6586772971">
		<tag k="fixme" v="consider place=hamlet" />
		<tag k="name" v="Ytter-Straumsnes" />
		<tag k="place" v="village" />
		<tag k="ssr:stedsnr" v="880301" />
	</node>
	<node id="-620627" lat="68.3690722255" lon="17.4324416617">
		<tag k="name" v="Fagerli" />
		<tag k="place" v="farm" />
		<tag k="ssr:stedsnr" v="100634" />
	</node>
	<node id="-620114" lat="68.5533750039" lon="17.5976722115">
		<tag k="name" v="Elverum" />
		<tag k="place" v="isolated_dwelling" />
		<tag k="ssr:stedsnr" v="321660" />
	</node>
	<node id="-620387" lat="68.4750886348" lon="17.5025917645">
		<tag k="name" v="Øyjorda" />
		<tag k="place" v="farm" />
		<tag k="ssr:stedsnr" v="988418" />
	</node>
	<node id="-621135" lat="68.5465166702" lon="17.512074996">
		<tag k="name" v="Løberg" />
		<tag k="place" v="farm" />
		<tag k="ssr:stedsnr" v="450339" />
	</node>
	<node id="-622157" lat="68.5513805539" lon="17.5293805432">
		<tag k="loc_name:se" v="Spárbalássá" />
		<tag k="name" v="Prestjord" />
		<tag k="name:no" v="Prestjord" />
		<tag k="place" v="hamlet" />
		<tag k="ssr:stedsnr" v="875464" />
	</node>
	<node id="-621644" lat="68.1822777781" lon="17.5536000002">
		<tag k="name" v="Rosenvoll" />
		<tag k="place" v="farm" />
		<tag k="ssr:stedsnr" v="684651" />
	</node>
	<node id="-622155" lat="68.5480666686" lon="17.5235527768">
		<tag k="name" v="Sletthaug" />
		<tag k="place" v="farm" />
		<tag k="ssr:stedsnr" v="875421" />
	</node>
	<node id="-620616" lat="68.557394445" lon="17.6540222227">
		<tag k="name" v="Gammelgården" />
		<tag k="place" v="farm" />
		<tag k="ssr:stedsnr" v="86468" />
	</node>
	<node id="-621639" lat="68.17388889" lon="17.5458166667">
		<tag k="alt_name" v="Tangen, øvre;Tangen øvre" />
		<tag k="name" v="Øvre Tangen" />
		<tag k="place" v="isolated_dwelling" />
		<tag k="ssr:stedsnr" v="684616" />
	</node>
	<node id="-622150" lat="68.3165805539" lon="17.2898638814">
		<tag k="name" v="Lengnes søndre" />
		<tag k="place" v="farm" />
		<tag k="ssr:stedsnr" v="874943" />
	</node>
	<node id="-620129" lat="68.2808250005" lon="17.3826222304">
		<tag k="name" v="Berglund" />
		<tag k="place" v="isolated_dwelling" />
		<tag k="ssr:stedsnr" v="321819" />
	</node>
	<node id="-621122" lat="68.44789444" lon="17.7146500048">
		<tag k="name" v="Hornberget" />
		<tag k="place" v="farm" />
		<tag k="ssr:stedsnr" v="450009" />
	</node>
	<node id="-620287" lat="68.4171333317" lon="17.9046194497">
		<tag k="name" v="Rombaksbotn" />
		<tag k="place" v="locality" />
		<tag k="ssr:stedsnr" v="385717" />
	</node>
	<node id="-622176" lat="68.4445361092" lon="17.4389111007">
		<tag k="amenity" v="school" />
		<tag k="name" v="Parken ungdomsskole" />
		<tag k="ssr:stedsnr" v="908677" />
	</node>
	<node id="-620094" lat="68.2884666627" lon="17.3013027733">
		<tag k="name" v="Slettjorda" />
		<tag k="place" v="farm" />
		<tag k="ssr:stedsnr" v="320828" />
	</node>
	<node id="-621629" lat="68.4474000008" lon="17.4408305554">
		<tag k="name" v="Groms plass" />
		<tag k="place" v="square" />
		<tag k="ssr:stedsnr" v="665702" />
	</node>
	<node id="-621628" lat="68.4369916682" lon="17.3953055525">
		<tag k="amenity" v="school" />
		<tag k="name" v="Framnes ungdomsskole" />
		<tag k="ssr:stedsnr" v="665674" />
	</node>
	<node id="-621627" lat="68.4292750037" lon="17.4255194479">
		<tag k="building" v="commercial" />
		<tag k="name" v="Ofoten &amp; Vesteraalen D/S" />
		<tag k="ssr:stedsnr" v="662923" />
	</node>
	<node id="-621626" lat="68.0593083312" lon="17.5928555476">
		<tag k="fixme" v="consider tourism=alpine_hut or tourism=chalet" />
		<tag k="name" v="Skoaddejávre" />
		<tag k="old_name" v="Skoaddejávrihytta" />
		<tag k="ssr:stedsnr" v="662603" />
		<tag k="tourism" v="wilderness_hut" />
	</node>
	<node id="-621625" lat="68.2573138905" lon="17.4111749956">
		<tag k="name" v="Stongmobakken" />
		<tag k="place" v="quarter" />
		<tag k="ssr:stedsnr" v="662113" />
	</node>
	<node id="-622136" lat="68.4053611072" lon="17.4149499978">
		<tag k="name" v="Millerjord" />
		<tag k="place" v="farm" />
		<tag k="ssr:stedsnr" v="874603" />
	</node>
	<node id="-620087" lat="68.2011277767" lon="17.5407527823">
		<tag k="name" v="Elvebakken" />
		<tag k="place" v="farm" />
		<tag k="ssr:stedsnr" v="320665" />
	</node>
	<node id="-620086" lat="68.2014972193" lon="17.5018944524">
		<tag k="name" v="Råvi" />
		<tag k="place" v="locality" />
		<tag k="ssr:stedsnr" v="320658" />
	</node>
	<node id="-620085" lat="68.1900055526" lon="17.7839416526">
		<tag k="fixme" v="consider tourism=alpine_hut or tourism=chalet" />
		<tag k="name" v="Losistua" />
		<tag k="old_name" v="Lossihytta" />
		<tag k="ssr:stedsnr" v="320656" />
		<tag k="tourism" v="wilderness_hut" />
	</node>
	<node id="-620190" lat="68.3633861151" lon="17.4646138916">
		<tag k="name" v="Hauklien nedre" />
		<tag k="place" v="farm" />
		<tag k="ssr:stedsnr" v="342609" />
	</node>
	<node id="-620552" lat="68.5604222203" lon="17.7063444305">
		<tag k="name" v="Midtgård" />
		<tag k="place" v="isolated_dwelling" />
		<tag k="ssr:stedsnr" v="78696" />
	</node>
	<node id="-620637" lat="68.3181666696" lon="17.8992388869">
		<tag k="fixme" v="consider tourism=alpine_hut or tourism=chalet" />
		<tag k="name" v="Hunddalshytta" />
		<tag k="old_name" v="Hunddalshyttene;Hundalshytta" />
		<tag k="ssr:stedsnr" v="102216" />
		<tag k="tourism" v="wilderness_hut" />
	</node>
	<node id="-621097" lat="68.4864055541" lon="17.5022111026">
		<tag k="name" v="Seines" />
		<tag k="place" v="farm" />
		<tag k="ssr:stedsnr" v="443733" />
	</node>
	<node id="-620070" lat="68.5671000016" lon="17.5746444481">
		<tag k="name" v="Nordmo" />
		<tag k="place" v="farm" />
		<tag k="ssr:stedsnr" v="300196" />
	</node>
	<node id="-620465" lat="68.4634722188" lon="17.6883027642">
		<tag k="name" v="Solbakken" />
		<tag k="place" v="isolated_dwelling" />
		<tag k="ssr:stedsnr" v="25011" />
	</node>
	<node id="-621758" lat="68.4144277792" lon="17.4339666738">
		<tag k="name" v="Orhaugen" />
		<tag k="place" v="isolated_dwelling" />
		<tag k="ssr:stedsnr" v="698892" />
	</node>
	<node id="-620089" lat="68.2076999983" lon="17.5157555469">
		<tag k="name" v="Stibergmoen" />
		<tag k="place" v="farm" />
		<tag k="ssr:stedsnr" v="320670" />
	</node>
	<node id="-620573" lat="68.3906222236" lon="17.1751750094">
		<tag k="name" v="Bjerkelund" />
		<tag k="place" v="farm" />
		<tag k="ssr:stedsnr" v="78986" />
	</node>
	<node id="-621161" lat="68.5763111153" lon="17.6203083308">
		<tag k="name" v="Midtre Kvanndalen" />
		<tag k="place" v="farm" />
		<tag k="ssr:stedsnr" v="453442" />
	</node>
	<node id="-621083" lat="68.5501277738" lon="17.7162111111">
		<tag k="name" v="Nyheim" />
		<tag k="place" v="farm" />
		<tag k="ssr:stedsnr" v="442779" />
	</node>
	<node id="-621081" lat="68.5600527733" lon="17.6680944441">
		<tag k="name" v="Sæter" />
		<tag k="place" v="isolated_dwelling" />
		<tag k="ssr:stedsnr" v="442727" />
	</node>
	<node id="-621079" lat="68.5594611126" lon="17.569513876">
		<tag k="alt_name" v="Dalmoen" />
		<tag k="name" v="Dalmo" />
		<tag k="place" v="isolated_dwelling" />
		<tag k="ssr:stedsnr" v="442712" />
	</node>
	<node id="-621078" lat="68.5263805552" lon="17.4451360994">
		<tag k="alt_name" v="Bakkejorden" />
		<tag k="name" v="Bakkejorda" />
		<tag k="place" v="hamlet" />
		<tag k="ssr:stedsnr" v="442654" />
	</node>
	<node id="-620121" lat="68.5515722231" lon="17.6145972101">
		<tag k="name" v="Fjellmoen" />
		<tag k="place" v="isolated_dwelling" />
		<tag k="ssr:stedsnr" v="321704" />
	</node>
	<node id="-620052" lat="68.4402972197" lon="17.4637360978">
		<tag k="fixme" v="consider tourism=alpine_hut or tourism=chalet" />
		<tag k="name" v="Fossestua" />
		<tag k="ssr:stedsnr" v="282520" />
		<tag k="tourism" v="wilderness_hut" />
	</node>
	<node id="-621587" lat="68.4210694418" lon="17.3807277846">
		<tag k="name" v="Ankenes - Oŋká" />
		<tag k="name:no" v="Ankenes" />
		<tag k="name:se" v="Oŋká" />
		<tag k="place" v="village" />
		<tag k="ssr:stedsnr" v="631525" />
	</node>
	<node id="-620562" lat="68.3004944447" lon="17.3443472112">
		<tag k="name" v="Forså" />
		<tag k="place" v="farm" />
		<tag k="ssr:stedsnr" v="78831" />
	</node>
	<node id="-622096" lat="68.3354805582" lon="17.2799694553">
		<tag k="name" v="Kongsbakk" />
		<tag k="place" v="farm" />
		<tag k="ssr:stedsnr" v="867870" />
	</node>
	<node id="-620047" lat="68.5488944491" lon="17.5378416549">
		<tag k="name" v="Nergård" />
		<tag k="place" v="farm" />
		<tag k="ssr:stedsnr" v="282096" />
	</node>
	<node id="-620558" lat="68.5533999986" lon="17.7203583325">
		<tag k="alt_name" v="Gamberget" />
		<tag k="name" v="Gamberg" />
		<tag k="place" v="isolated_dwelling" />
		<tag k="ssr:stedsnr" v="78745" />
	</node>
	<node id="-621741" lat="68.3212333373" lon="17.2831583268">
		<tag k="name" v="Lengnes nordre ytre" />
		<tag k="place" v="farm" />
		<tag k="ssr:stedsnr" v="692977" />
	</node>
	<node id="-620044" lat="68.4410388915" lon="17.4098944432">
		<tag k="name" v="Frydenlund" />
		<tag k="place" v="suburb" />
		<tag k="ssr:stedsnr" v="273755" />
	</node>
	<node id="-620555" lat="68.5663916676" lon="17.5738527881">
		<tag k="name" v="Nordmo" />
		<tag k="place" v="isolated_dwelling" />
		<tag k="ssr:stedsnr" v="78717" />
	</node>
	<node id="-620706" lat="68.3992555597" lon="17.2900527686">
		<tag k="alt_name" v="Håkvik søndre" />
		<tag k="fixme" v="consider place=hamlet" />
		<tag k="name" v="Søndre Håkvik" />
		<tag k="old_name" v="Håkvika, s" />
		<tag k="place" v="farm" />
		<tag k="ssr:stedsnr" v="139996" />
	</node>
	<node id="-622088" lat="68.5579122411" lon="17.7221836255">
		<tag k="fixme" v="consider place=hamlet" />
		<tag k="name" v="Vassdalen - Áravuopmi" />
		<tag k="name:no" v="Vassdalen" />
		<tag k="name:se" v="Áravuopmi" />
		<tag k="place" v="village" />
		<tag k="ssr:stedsnr" v="867769" />
	</node>
	<node id="-622085" lat="68.2348444463" lon="17.3072750023">
		<tag k="name" v="Frostisen" />
		<tag k="place" v="farm" />
		<tag k="ssr:stedsnr" v="867760" />
	</node>
	<node id="-622084" lat="68.541619449" lon="17.5764083307">
		<tag k="name" v="Rødberget" />
		<tag k="place" v="isolated_dwelling" />
		<tag k="ssr:stedsnr" v="867756" />
	</node>
	<node id="-620374" lat="68.3617916636" lon="17.472927786">
		<tag k="name" v="Holmesletten" />
		<tag k="place" v="farm" />
		<tag k="ssr:stedsnr" v="889639" />
	</node>
	<node id="-622081" lat="68.5676888847" lon="17.573088893">
		<tag k="name" v="Skoglund" />
		<tag k="place" v="isolated_dwelling" />
		<tag k="ssr:stedsnr" v="867739" />
	</node>
</osm>
