<?xml version="1.0" encoding="UTF-8"?>
<osm generator="osmapis" version="0.6">
	<node id="-621440" lat="68.3131666627" lon="17.2946499982">
		<tag k="fixme" v="verify maritime location" />
		<tag k="mooring" v="yes" />
		<tag k="name" v="Nordmannstøa" />
		<tag k="place" v="locality" />
		<tag k="ssr:stedsnr" v="39856" />
	</node>
	<node id="-621298" lat="68.4401916657" lon="17.4696527646">
		<tag k="landuse" v="industrial" />
		<tag k="name" v="Taraldsvikfossen kraftverk" />
		<tag k="power" v="plant" />
		<tag k="ssr:stedsnr" v="889520" />
	</node>
	<node id="-621809" lat="68.4026861078" lon="17.9183027812">
		<tag k="layer" v="-1" />
		<tag k="name" v="Middagselvtunnelen" />
		<tag k="ssr:stedsnr" v="204700" />
		<tag k="tunnel" v="yes" />
	</node>
	<node id="-623088" lat="68.5784861151" lon="17.5938666605">
		<tag k="highway" v="path" />
		<tag k="name" v="Kvanndalsvingen" />
		<tag k="ssr:stedsnr" v="878484" />
	</node>
	<node id="-621292" lat="68.5287222256" lon="17.439394443">
		<tag k="layer" v="-1" />
		<tag k="name" v="Bakkejord" />
		<tag k="ssr:stedsnr" v="408089" />
		<tag k="tunnel" v="yes" />
	</node>
	<node id="-621291" lat="68.3012805537" lon="17.3406694494">
		<tag k="fixme" v="verify maritime location" />
		<tag k="mooring" v="yes" />
		<tag k="name" v="Finnstøa" />
		<tag k="place" v="locality" />
		<tag k="ssr:stedsnr" v="403860" />
	</node>
	<node id="-622313" lat="68.4417416645" lon="17.4413638865">
		<tag k="name" v="Narvik stasjon - Nárviika" />
		<tag k="name:no" v="Narvik stasjon" />
		<tag k="name:se" v="Nárviika" />
		<tag k="railway" v="station" />
		<tag k="ssr:stedsnr" v="569717" />
		<tag k="train" v="yes" />
	</node>
	<node id="-621031" lat="68.4339245021" lon="17.6564995893">
		<tag k="name" v="Straumsnes stasjon" />
		<tag k="railway" v="station" />
		<tag k="ssr:stedsnr" v="321187" />
		<tag k="train" v="yes" />
	</node>
	<node id="-621969" lat="68.5391499996" lon="17.4805749979">
		<tag k="highway" v="path" />
		<tag k="name" v="Buvegen" />
		<tag k="ssr:stedsnr" v="268331" />
	</node>
	<node id="-622811" lat="68.4153638857" lon="17.4240694396">
		<tag k="man_made" v="quay" />
		<tag k="name" v="Fagerneskaia" />
		<tag k="place" v="locality" />
		<tag k="ssr:stedsnr" v="753572" />
	</node>
	<node id="-622037" lat="68.4680472268" lon="17.7046444386">
		<tag k="highway" v="path" />
		<tag k="name" v="Fjellveien" />
		<tag k="ssr:stedsnr" v="446721" />
	</node>
	<node id="-623187" lat="68.4083277776" lon="17.9904555422">
		<tag k="highway" v="path" />
		<tag k="name" v="Rallarveien" />
		<tag k="ssr:stedsnr" v="932706" />
	</node>
	<node id="-622536" lat="68.1680500022" lon="17.5443722291">
		<tag k="bridge" v="yes" />
		<tag k="layer" v="1" />
		<tag k="name" v="Sørelvbrua" />
		<tag k="ssr:stedsnr" v="645109" />
	</node>
	<node id="-622907" lat="68.398347225" lon="17.9472916656">
		<tag k="layer" v="-1" />
		<tag k="name" v="Kapp Horn-tunnelen" />
		<tag k="ssr:stedsnr" v="810754" />
		<tag k="tunnel" v="yes" />
	</node>
	<node id="-621753" lat="68.3976615448" lon="17.9658239565">
		<tag k="name" v="Katterat stasjon" />
		<tag k="railway" v="station" />
		<tag k="ssr:stedsnr" v="199248" />
		<tag k="train" v="yes" />
	</node>
	<node id="-622382" lat="68.4292250043" lon="17.4087277678">
		<tag k="landuse" v="harbour" />
		<tag k="name" v="Narvik havn" />
		<tag k="seamark:type" v="harbour" />
		<tag k="ssr:stedsnr" v="585626" />
	</node>
	<node id="-622248" lat="68.4343499987" lon="17.4047861186">
		<tag k="layer" v="-1" />
		<tag k="name" v="Frydenlundstunnelen" />
		<tag k="ssr:stedsnr" v="545895" />
		<tag k="tunnel" v="yes" />
	</node>
	<node id="-622119" lat="68.4037944469" lon="17.7910277797">
		<tag k="name" v="Rombak stasjon - Ruoppat" />
		<tag k="name:no" v="Rombak stasjon" />
		<tag k="name:se" v="Ruoppat" />
		<tag k="railway" v="station" />
		<tag k="ssr:stedsnr" v="502235" />
		<tag k="train" v="yes" />
	</node>
	<node id="-622374" lat="68.4290305565" lon="17.4230194447">
		<tag k="man_made" v="quay" />
		<tag k="name" v="Nordkaien" />
		<tag k="place" v="locality" />
		<tag k="ssr:stedsnr" v="576754" />
	</node>
	<node id="-622577" lat="68.4322805592" lon="18.0711944471">
		<tag k="name" v="Bjørnfjell stasjon" />
		<tag k="railway" v="station" />
		<tag k="ssr:stedsnr" v="685171" />
		<tag k="train" v="yes" />
	</node>
	<node id="-622232" lat="68.5521250007" lon="17.5037027765">
		<tag k="highway" v="path" />
		<tag k="name" v="Veltrøddvegen" />
		<tag k="ssr:stedsnr" v="524037" />
	</node>
	<node id="-622743" lat="68.4352444455" lon="18.0032777751">
		<tag k="name" v="Søsterbekk holdeplass" />
		<tag k="railway" v="halt" />
		<tag k="ssr:stedsnr" v="746170" />
		<tag k="train" v="yes" />
	</node>
	<node id="-621842" lat="68.4269666701" lon="17.4269888948">
		<tag k="man_made" v="quay" />
		<tag k="name" v="Fiskekaien" />
		<tag k="place" v="locality" />
		<tag k="ssr:stedsnr" v="212651" />
	</node>
	<node id="-621457" lat="68.4066194419" lon="17.7751194351">
		<tag k="layer" v="-1" />
		<tag k="name" v="Fjellheimtunnelen" />
		<tag k="ssr:stedsnr" v="77245" />
		<tag k="tunnel" v="yes" />
	</node>
	<node id="-621720" lat="68.4752694412" lon="17.5854916595">
		<tag k="layer" v="-1" />
		<tag k="name" v="Leirvik" />
		<tag k="ssr:stedsnr" v="165308" />
		<tag k="tunnel" v="yes" />
	</node>
	<node id="-621573" lat="68.4121861065" lon="17.4239055637">
		<tag k="landuse" v="harbour" />
		<tag k="name" v="Narvikterminalen" />
		<tag k="seamark:type" v="harbour" />
		<tag k="ssr:stedsnr" v="121906" />
	</node>
</osm>
