<?xml version="1.0" encoding="UTF-8"?>
<<<<<<< HEAD
<osm version="0.6" generator="osmapis">
	<node lat="70.23763060426177" lon="30.440114870862686" id="-35561">
		<tag k="name" v="Svartstryket" />
		<tag k="ssr:stedsnr" v="45105" />
		<tag k="waterway" v="rapids" />
	</node>
	<node lat="70.26083894475235" lon="30.775272978442892" id="-35564">
		<tag k="name" v="Svartnesbekken" />
		<tag k="ssr:stedsnr" v="46904" />
		<tag k="waterway" v="stream" />
	</node>
	<node lat="70.33545004809838" lon="30.458439897296774" id="-35577">
		<tag k="name" v="Dommaskáidi" />
		<tag k="name:se" v="Dommaskáidi" />
		<tag k="natural" v="cape" />
		<tag k="old_name:se" v="Dåmmaskaidi" />
		<tag k="ssr:stedsnr" v="140938" />
	</node>
	<node lat="70.34230006057491" lon="31.03168671654755" id="-35578">
		<tag k="alt_name" v="Skinnstakksvikelva" />
		<tag k="name" v="Skinnstakkelva" />
		<tag k="ssr:stedsnr" v="141613" />
		<tag k="waterway" v="stream" />
	</node>
	<node lat="70.36438340024593" lon="31.127392214842413" id="-35585">
		<tag k="name" v="Vårbergdammen" />
		<tag k="natural" v="water" />
		<tag k="ssr:stedsnr" v="167974" />
	</node>
	<node lat="70.25485838745344" lon="30.595395330467063" id="-35589">
		<tag k="name" v="Trollelva - Ruollajohka" />
		<tag k="name:no" v="Trollelva" />
		<tag k="name:se" v="Ruollajohka" />
		<tag k="old_name:se" v="Ruollajåkka" />
		<tag k="ssr:stedsnr" v="262927" />
		<tag k="waterway" v="river" />
	</node>
	<node lat="70.29398340110494" lon="30.998725602878913" id="-35594">
		<tag k="name" v="Kibergselva" />
		<tag k="ssr:stedsnr" v="202646" />
		<tag k="waterway" v="river" />
	</node>
	<node lat="70.27583616902804" lon="30.72761190001144" id="-35595">
		<tag k="fixme" v="multiple name tags, choose one and add the other to alt_name" />
		<tag k="name" v="Vestre Langbuelva;Langbuneselva" />
		<tag k="ssr:stedsnr" v="202648" />
		<tag k="waterway" v="stream" />
	</node>
	<node lat="70.2853083957791" lon="30.862442380764048" id="-35600">
		<tag k="name" v="Varvatnet" />
		<tag k="natural" v="water" />
		<tag k="ssr:stedsnr" v="228934" />
	</node>
	<node lat="70.31048615961716" lon="30.127534535567182" id="-35626">
		<tag k="name" v="Hubejohka" />
		<tag k="name:se" v="Hubejohka" />
		<tag k="old_name:se" v="Hubejåkka" />
		<tag k="ssr:stedsnr" v="323925" />
		<tag k="waterway" v="river" />
	</node>
	<node lat="70.2922750608834" lon="30.99551728675226" id="-35629">
		<tag k="name" v="Benserafossen" />
		<tag k="natural" v="waterfall" />
		<tag k="ssr:stedsnr" v="470976" />
	</node>
	<node lat="70.24175560937122" lon="30.50880648186893" id="-35635">
		<tag k="name" v="Blindtarmen" />
		<tag k="natural" v="shoal" />
		<tag k="place" v="locality" />
		<tag k="ssr:stedsnr" v="348008" />
	</node>
	<node lat="70.25421394219832" lon="30.374406568289004" id="-35639">
		<tag k="name" v="Finnesvatnet - Lutsi" />
		<tag k="name:no" v="Finnesvatnet" />
		<tag k="name:se" v="Lutsi" />
		<tag k="natural" v="water" />
		<tag k="ssr:stedsnr" v="383914" />
	</node>
	<node lat="70.27417783448443" lon="30.561503693846028" id="-35640">
		<tag k="name" v="Ceavnnit" />
		<tag k="name:se" v="Ceavnnit" />
		<tag k="natural" v="water" />
		<tag k="old_name:se" v="Cævnit" />
		<tag k="ssr:stedsnr" v="383919" />
	</node>
	<node lat="70.31892228793768" lon="31.017806156209932" id="-35644">
		<tag k="name" v="Enkevatnet" />
		<tag k="natural" v="water" />
		<tag k="ssr:stedsnr" v="384609" />
	</node>
	<node lat="70.42827505253564" lon="30.925609063338673" id="-35652">
		<tag k="name" v="Mellomvatnet" />
		<tag k="natural" v="water" />
		<tag k="ssr:stedsnr" v="445592" />
	</node>
	<node lat="70.22662783154486" lon="30.490464822948006" id="-35654">
		<tag k="name" v="Storbekken - Isooja" />
		<tag k="name:fkv" v="Isooja" />
		<tag k="name:no" v="Storbekken" />
		<tag k="ssr:stedsnr" v="470022" />
		<tag k="waterway" v="stream" />
	</node>
	<node lat="70.30714728400099" lon="30.98612563144214" id="-35657">
		<tag k="name" v="Munningen" />
		<tag k="natural" v="bay" />
		<tag k="ssr:stedsnr" v="471206" />
	</node>
	<node lat="70.27793339667583" lon="30.878925695868862" id="-35661">
		<tag k="name" v="Kramvikvatnet" />
		<tag k="natural" v="water" />
		<tag k="ssr:stedsnr" v="505507" />
	</node>
	<node lat="70.24021394445143" lon="30.499623153340238" id="-35669">
		<tag k="name" v="Skjærkulpen" />
		<tag k="place" v="locality" />
		<tag k="ssr:stedsnr" v="530015" />
	</node>
	<node lat="70.29215006069441" lon="31.025733912903373" id="-35672">
		<tag k="name" v="Rypevatnet" />
		<tag k="natural" v="water" />
		<tag k="ssr:stedsnr" v="531983" />
	</node>
	<node lat="70.32509727561988" lon="30.49266210074651" id="-35677">
		<tag k="name" v="Lemetjávri" />
		<tag k="name:se" v="Lemetjávri" />
		<tag k="natural" v="water" />
		<tag k="old_name:se" v="Lemetjavri" />
		<tag k="ssr:stedsnr" v="687920" />
	</node>
	<node lat="70.24071950167962" lon="30.49133983270912" id="-35687">
		<tag k="name" v="Grønnåsstryket" />
		<tag k="ssr:stedsnr" v="591019" />
		<tag k="waterway" v="rapids" />
	</node>
	<node lat="70.4193028310478" lon="30.90675630208072" id="-35695">
		<tag k="name" v="Nerdalsvatnet" />
		<tag k="natural" v="water" />
		<tag k="ssr:stedsnr" v="592967" />
	</node>
	<node lat="70.25339172190756" lon="30.566853677965007" id="-35698">
		<tag k="name" v="Skjønnselva" />
		<tag k="ssr:stedsnr" v="698600" />
		<tag k="waterway" v="stream" />
	</node>
	<node lat="70.33661116772112" lon="31.00880063181818" id="-35704">
		<tag k="alt_name" v="Skinnstakkvatna;Votteskarvatna" />
		<tag k="fixme" v="multiple name tags, choose one and add the other to alt_name" />
		<tag k="name" v="Skinnstakkvatnan;Votteskarvatnan" />
		<tag k="natural" v="water" />
		<tag k="ssr:stedsnr" v="627619" />
		<tag k="water" v="lake" />
	</node>
	<node lat="70.39645283432169" lon="30.867947985627623" id="-35711">
		<tag k="name" v="Krokvatnet" />
		<tag k="natural" v="water" />
		<tag k="ssr:stedsnr" v="687606" />
	</node>
	<node lat="70.38461117029222" lon="30.98953121781266" id="-35713">
		<tag k="fixme" v="multiple name tags, choose one and add the other to alt_name" />
		<tag k="name" v="Skyttarelva;Skyttargamneselva" />
		<tag k="ssr:stedsnr" v="687611" />
		<tag k="waterway" v="stream" />
	</node>
	<node lat="70.2417722821243" lon="30.5229314681314" id="-35716">
		<tag k="name" v="Komagelvmunningen" />
		<tag k="natural" v="bay" />
		<tag k="ssr:stedsnr" v="895053" />
	</node>
	<node lat="70.42928060842875" lon="30.839214706005432" id="-35721">
		<tag k="name" v="Synnavindsvatnet" />
		<tag k="natural" v="water" />
		<tag k="ssr:stedsnr" v="896950" />
	</node>
	<node lat="70.23720839050591" lon="30.43164542827924" id="-35726">
		<tag k="name" v="Hollaneset" />
		<tag k="natural" v="cape" />
		<tag k="ssr:stedsnr" v="713090" />
	</node>
	<node lat="70.42212505320921" lon="30.886214651388652" id="-35743">
		<tag k="name" v="Krokvatnet" />
		<tag k="natural" v="water" />
		<tag k="ssr:stedsnr" v="775951" />
		<tag k="water" v="lake" />
	</node>
	<node lat="70.2813278367503" lon="30.7611229951374" id="-35756">
		<tag k="name" v="Flogvatnet" />
		<tag k="natural" v="water" />
		<tag k="ssr:stedsnr" v="930526" />
	</node>
	<node lat="70.32776670919623" lon="29.98604572813981" id="-35758">
		<tag k="name" v="Komagelva - Stuorrajohka - Kumajoki" />
		<tag k="name:fkv" v="Kumajoki" />
		<tag k="name:no" v="Komagelva" />
		<tag k="name:se" v="Stuorrajohka" />
		<tag k="old_name:se" v="Stuorrajåkka" />
		<tag k="ssr:stedsnr" v="930541" />
		<tag k="waterway" v="river" />
	</node>
	<node lat="70.32120561172535" lon="30.99795340958685" id="-35761">
		<tag k="name" v="Grønskhaugvatnet" />
		<tag k="natural" v="water" />
		<tag k="ssr:stedsnr" v="930634" />
	</node>
	<node lat="70.28621672374265" lon="30.818550725340707" id="-35762">
		<tag k="name" v="Grunneselva" />
		<tag k="ssr:stedsnr" v="930637" />
		<tag k="waterway" v="river" />
	</node>
	<node lat="70.29460283880553" lon="30.91908123045595" id="-35764">
		<tag k="alt_name" v="Olskardvatnet" />
		<tag k="name" v="Olskarvatnet" />
		<tag k="natural" v="water" />
		<tag k="ssr:stedsnr" v="930641" />
		<tag k="water" v="lake" />
	</node>
	<node lat="70.30106671442118" lon="30.467464876856024" id="-35767">
		<tag k="name" v="Movnnesjohjávri" />
		<tag k="name:se" v="Movnnesjohjávri" />
=======
<osm generator="osmapis" version="0.6">
	<node id="-846330" lat="70.3287556156" lon="30.821975758">
		<tag k="alt_name" v="Oksevatnet, l" />
		<tag k="name" v="Lille Oksevatnet" />
>>>>>>> e1d4bc35ff8a6074a6f2e91616a996b547c36f15
		<tag k="natural" v="water" />
		<tag k="old_name:se" v="Måvnesjåkjavri" />
		<tag k="ssr:stedsnr" v="930926" />
	</node>
<<<<<<< HEAD
	<node lat="70.30190005028028" lon="30.323959414819157" id="-35768">
		<tag k="name" v="Gironjohka" />
		<tag k="name:se" v="Gironjohka" />
		<tag k="old_name:se" v="Girunjåkka" />
		<tag k="ssr:stedsnr" v="930927" />
		<tag k="waterway" v="river" />
	</node>
	<node lat="70.3076667115748" lon="30.306489984190296" id="-35769">
		<tag k="name" v="Huhttirjávrrit" />
		<tag k="name:se" v="Huhttirjávrrit" />
		<tag k="natural" v="water" />
		<tag k="old_name:se" v="Huttirjavrit" />
		<tag k="ssr:stedsnr" v="930928" />
	</node>
	<node lat="70.24020561294172" lon="30.496403727330833" id="-35771">
		<tag k="name" v="Nestekulpen" />
		<tag k="place" v="locality" />
		<tag k="ssr:stedsnr" v="895011" />
	</node>
	<node lat="70.28496395080249" lon="30.90340900687129" id="-35776">
		<tag k="name" v="Gressvatnet" />
		<tag k="natural" v="water" />
		<tag k="ssr:stedsnr" v="895920" />
	</node>
	<node lat="70.32065284041163" lon="31.048039471241857" id="-35779">
		<tag k="name" v="Kvannvikbekken" />
		<tag k="ssr:stedsnr" v="896959" />
		<tag k="waterway" v="stream" />
	</node>
	<node lat="70.36688617011404" lon="31.0997477967232" id="-35781">
		<tag k="name" v="Steglnesdammen" />
=======
	<node id="-846329" lat="70.3366111677" lon="31.0088006318">
		<tag k="fixme" v="multiple name tags, choose one and add the other to alt_name" />
		<tag k="name" v="Skinnstakkvatna;Votteskarvatna" />
		<tag k="ssr:stedsnr" v="627619" />
		<tag k="waterway" v="river" />
	</node>
	<node id="-846327" lat="70.290155602" lon="30.3592955064">
		<tag k="name" v="Dálajohka" />
		<tag k="name:se" v="Dálajohka" />
		<tag k="old_name:se" v="Dalajåkka" />
		<tag k="ssr:stedsnr" v="626934" />
		<tag k="waterway" v="river" />
	</node>
	<node id="-846317" lat="70.364913945" lon="30.9821673413">
		<tag k="fixme" v="multiple name tags, choose one and add the other to alt_name" />
		<tag k="name" v="Fjellelva;Storelva" />
		<tag k="ssr:stedsnr" v="626583" />
		<tag k="waterway" v="river" />
	</node>
	<node id="-846312" lat="70.3609972831" lon="31.0243228585">
		<tag k="name" v="Krokelva" />
		<tag k="ssr:stedsnr" v="592992" />
		<tag k="waterway" v="stream" />
	</node>
	<node id="-846311" lat="70.3500500592" lon="31.0274784077">
		<tag k="name" v="Kildebekken" />
		<tag k="ssr:stedsnr" v="592988" />
		<tag k="waterway" v="stream" />
	</node>
	<node id="-846309" lat="70.419302831" lon="30.9067563021">
		<tag k="name" v="Nerdalsvatnet" />
>>>>>>> e1d4bc35ff8a6074a6f2e91616a996b547c36f15
		<tag k="natural" v="water" />
		<tag k="old_name" v="Steilnesdammen" />
		<tag k="ssr:stedsnr" v="896968" />
	</node>
<<<<<<< HEAD
	<node lat="70.30019172695582" lon="31.004731158703443" id="-35791">
		<tag k="name" v="Holman" />
		<tag k="place" v="islet" />
		<tag k="ssr:stedsnr" v="956991" />
	</node>
	<node lat="70.2754333933846" lon="30.73833413679414" id="-35795">
		<tag k="name" v="Østre Langbuelva" />
		<tag k="ssr:stedsnr" v="228923" />
		<tag k="waterway" v="stream" />
	</node>
	<node lat="70.2521972726019" lon="30.40808433121711" id="-35805">
		<tag k="name" v="Finneset" />
		<tag k="natural" v="cape" />
		<tag k="ssr:stedsnr" v="20920" />
	</node>
	<node lat="70.29206393920059" lon="30.402126030735012" id="-35807">
		<tag k="name" v="Gorsajohka" />
		<tag k="name:se" v="Gorsajohka" />
		<tag k="old_name:se" v="Gårsajåkka" />
		<tag k="ssr:stedsnr" v="20931" />
		<tag k="waterway" v="river" />
	</node>
	<node lat="70.31103894837331" lon="30.99300893966186" id="-35809">
		<tag k="alt_name" v="Kibergvatnet" />
		<tag k="name" v="Kibergsvatnet" />
=======
	<node id="-846307" lat="70.3772750586" lon="30.9716173514">
		<tag k="name" v="Bergestokkvatnet" />
		<tag k="natural" v="water" />
		<tag k="ssr:stedsnr" v="592940" />
	</node>
	<node id="-846291" lat="70.2356861642" lon="30.4271926357">
		<tag k="name" v="Storbukta - Isolahti" />
		<tag k="name:fkv" v="Isolahti" />
		<tag k="name:no" v="Storbukta" />
		<tag k="natural" v="bay" />
		<tag k="ssr:stedsnr" v="591085" />
	</node>
	<node id="-846288" lat="70.2407195017" lon="30.4913398327">
		<tag k="name" v="Grønnåsstryket" />
		<tag k="ssr:stedsnr" v="591019" />
		<tag k="waterway" v="rapids" />
	</node>
	<node id="-846282" lat="70.4116944981" lon="30.9353229465">
		<tag k="name" v="Bardvikvatnet" />
		<tag k="natural" v="water" />
		<tag k="ssr:stedsnr" v="566582" />
		<tag k="water" v="lake" />
	</node>
	<node id="-846281" lat="70.4097667264" lon="30.8629952163">
		<tag k="name" v="Langvatnet - Guhkesjávri" />
		<tag k="name:no" v="Langvatnet" />
		<tag k="name:se" v="Guhkesjávri" />
>>>>>>> e1d4bc35ff8a6074a6f2e91616a996b547c36f15
		<tag k="natural" v="water" />
		<tag k="ssr:stedsnr" v="20648" />
		<tag k="water" v="lake" />
	</node>
<<<<<<< HEAD
	<node lat="70.34238338697718" lon="30.51937318742448" id="-35815">
		<tag k="name" v="Lemetskáidi" />
		<tag k="name:se" v="Lemetskáidi" />
		<tag k="natural" v="cape" />
		<tag k="old_name:se" v="Lemetskaidi" />
		<tag k="ssr:stedsnr" v="20949" />
	</node>
	<node lat="70.24270283192081" lon="30.46750651170803" id="-35818">
		<tag k="name" v="Hollavatnet" />
		<tag k="natural" v="water" />
		<tag k="ssr:stedsnr" v="45029" />
	</node>
	<node lat="70.24010283297228" lon="30.440803755383566" id="-35819">
		<tag k="name" v="Strigeholla" />
=======
	<node id="-846280" lat="70.4351056109" lon="30.935584089">
		<tag k="alt_name" v="Kavringsvatnet, store" />
		<tag k="fixme" v="multiple name tags, choose one and add the other to alt_name" />
		<tag k="name" v="Oddevatnet;Store Kavringsvatnet" />
		<tag k="natural" v="water" />
		<tag k="ssr:stedsnr" v="566573" />
	</node>
	<node id="-846279" lat="70.4196333923" lon="30.9677618298">
		<tag k="name" v="Forsevatnet" />
		<tag k="natural" v="water" />
		<tag k="ssr:stedsnr" v="566571" />
	</node>
	<node id="-846277" lat="70.4381583863" lon="30.694306481">
		<tag k="name" v="Reinkalvelva - Miesejohka" />
		<tag k="name:no" v="Reinkalvelva" />
		<tag k="name:se" v="Miesejohka" />
		<tag k="old_name:se" v="Miesejåkka" />
		<tag k="ssr:stedsnr" v="565572" />
		<tag k="waterway" v="river" />
	</node>
	<node id="-846273" lat="70.2246917193" lon="30.4049732097">
		<tag k="name" v="Viltunkurujärvi" />
		<tag k="name:fkv" v="Viltunkurujärvi" />
>>>>>>> e1d4bc35ff8a6074a6f2e91616a996b547c36f15
		<tag k="natural" v="water" />
		<tag k="ssr:stedsnr" v="45113" />
		<tag k="water" v="lake" />
	</node>
<<<<<<< HEAD
	<node lat="70.42676949640116" lon="30.73026754952214" id="-35824">
		<tag k="name" v="Siket" />
		<tag k="ssr:stedsnr" v="46951" />
		<tag k="waterway" v="stream" />
	</node>
	<node lat="70.31578062030998" lon="31.01396729005238" id="-35825">
		<tag k="name" v="Enkevassbekken" />
		<tag k="ssr:stedsnr" v="46953" />
		<tag k="waterway" v="stream" />
	</node>
	<node lat="70.44037505761446" lon="30.924739651567272" id="-35828">
		<tag k="name" v="Oddevatnet" />
=======
	<node id="-845898" lat="70.319161169" lon="30.5823675855">
		<tag k="name" v="Jorbajohka" />
		<tag k="name:se" v="Jorbajohka" />
		<tag k="old_name:se" v="Jårbajåkka" />
		<tag k="ssr:stedsnr" v="444937" />
		<tag k="waterway" v="river" />
	</node>
	<node id="-846266" lat="70.2921500607" lon="31.0257339129">
		<tag k="name" v="Rypevatnet" />
		<tag k="natural" v="water" />
		<tag k="ssr:stedsnr" v="531983" />
	</node>
	<node id="-846262" lat="70.237244497" lon="30.4733315163">
		<tag k="name" v="Reingjerdneskulpen" />
		<tag k="place" v="locality" />
		<tag k="ssr:stedsnr" v="530144" />
	</node>
	<node id="-846252" lat="70.2922472855" lon="31.0347228068">
		<tag k="name" v="Kibergsnesvatnan" />
>>>>>>> e1d4bc35ff8a6074a6f2e91616a996b547c36f15
		<tag k="natural" v="water" />
		<tag k="ssr:stedsnr" v="80574" />
	</node>
<<<<<<< HEAD
	<node lat="70.24240005762843" lon="30.444167637755605" id="-35837">
		<tag k="name" v="Storholla" />
=======
	<node id="-846241" lat="70.2389639393" lon="30.4570148521">
		<tag k="name" v="Malinenholla" />
>>>>>>> e1d4bc35ff8a6074a6f2e91616a996b547c36f15
		<tag k="natural" v="water" />
		<tag k="ssr:stedsnr" v="106113" />
		<tag k="water" v="lake" />
	</node>
<<<<<<< HEAD
	<node lat="70.24072227780917" lon="30.48177594686554" id="-35838">
		<tag k="name" v="Leirbakken" />
=======
	<node id="-846240" lat="70.2352278294" lon="30.432095408">
		<tag k="name" v="Torvholla" />
>>>>>>> e1d4bc35ff8a6074a6f2e91616a996b547c36f15
		<tag k="natural" v="water" />
		<tag k="ssr:stedsnr" v="106118" />
		<tag k="water" v="lake" />
	</node>
<<<<<<< HEAD
	<node lat="70.39367228267383" lon="30.996389572378753" id="-35847">
		<tag k="name" v="Kistnåvvatnet" />
		<tag k="natural" v="water" />
		<tag k="ssr:stedsnr" v="107961" />
	</node>
	<node lat="70.24052505957799" lon="30.49481205064389" id="-35860">
		<tag k="name" v="Kaffekulpen" />
		<tag k="place" v="locality" />
		<tag k="ssr:stedsnr" v="166013" />
	</node>
	<node lat="70.26881117079046" lon="30.811300732479637" id="-35867">
		<tag k="name" v="Flogelva" />
		<tag k="ssr:stedsnr" v="167931" />
		<tag k="waterway" v="stream" />
	</node>
	<node lat="70.43562783454857" lon="30.88871467105947" id="-35873">
		<tag k="name" v="Næringsforsen" />
		<tag k="natural" v="waterfall" />
		<tag k="ssr:stedsnr" v="168949" />
	</node>
	<node lat="70.27855283994705" lon="30.87159515206279" id="-35876">
		<tag k="name" v="Kramvikelva" />
		<tag k="ssr:stedsnr" v="202512" />
		<tag k="waterway" v="river" />
	</node>
	<node lat="70.26298339650526" lon="30.783586868497924" id="-35881">
		<tag k="alt_name" v="Svartnesvatnan" />
		<tag k="name" v="Svartnesvatnet" />
		<tag k="natural" v="water" />
		<tag k="ssr:stedsnr" v="202531" />
	</node>
	<node lat="70.37582227775117" lon="30.797839708588548" id="-35887">
		<tag k="alt_name:no" v="Østerdalselva;Østerelva" />
		<tag k="name" v="Austerelva - Ovsttarjohka" />
		<tag k="name:no" v="Austerelva" />
		<tag k="name:se" v="Ovsttarjohka" />
		<tag k="old_name:se" v="Åvstarjåkka" />
		<tag k="ssr:stedsnr" v="202581" />
		<tag k="waterway" v="river" />
	</node>
	<node lat="70.27715005542433" lon="30.51042038755226" id="-35888">
		<tag k="fixme" v="multiple name tags, choose one and add the other to alt_name" />
		<tag k="name" v="Månelva;Lilleelva - Movnnesjohka" />
		<tag k="name:no" v="Månelva;Lilleelva" />
		<tag k="name:se" v="Movnnesjohka" />
		<tag k="old_name:se" v="Måvnesjåkka" />
		<tag k="ssr:stedsnr" v="202928" />
		<tag k="waterway" v="river" />
	</node>
	<node lat="70.253272281522" lon="30.58547865576071" id="-35894">
		<tag k="name" v="Dritbekken" />
		<tag k="ssr:stedsnr" v="228358" />
		<tag k="waterway" v="stream" />
	</node>
	<node lat="70.23799727573402" lon="30.47250373415109" id="-35895">
		<tag k="name" v="Reingjerdneset" />
=======
	<node id="-846239" lat="70.2359556054" lon="30.4197120921">
		<tag k="name" v="Dolonenbekken" />
		<tag k="ssr:stedsnr" v="409121" />
		<tag k="waterway" v="stream" />
	</node>
	<node id="-846238" lat="70.247227836" lon="30.55075645">
		<tag k="name" v="Bankanbekken" />
		<tag k="ssr:stedsnr" v="395648" />
		<tag k="waterway" v="stream" />
	</node>
	<node id="-846233" lat="70.3490417133" lon="30.4899982272">
		<tag k="alt_name:no" v="Tverrdalselva" />
		<tag k="name" v="Tverrelva - Gaskajohka" />
		<tag k="name:no" v="Tverrelva" />
		<tag k="name:se" v="Gaskajohka" />
		<tag k="old_name:se" v="Gaskajåkka" />
		<tag k="ssr:stedsnr" v="384531" />
		<tag k="waterway" v="river" />
	</node>
	<node id="-846225" lat="70.3276306083" lon="30.5886342565">
		<tag k="name" v="Jorbaskáidi" />
		<tag k="name:se" v="Jorbaskáidi" />
>>>>>>> e1d4bc35ff8a6074a6f2e91616a996b547c36f15
		<tag k="natural" v="cape" />
		<tag k="ssr:stedsnr" v="288118" />
	</node>
<<<<<<< HEAD
	<node lat="70.41192504997215" lon="30.62624261444186" id="-35903">
		<tag k="name" v="Telegráfaskáidi" />
		<tag k="name:se" v="Telegráfaskáidi" />
		<tag k="natural" v="cape" />
		<tag k="old_name:se" v="Telegrafaskaidi" />
		<tag k="ssr:stedsnr" v="323582" />
	</node>
	<node lat="70.377888950211" lon="31.027150629350807" id="-35906">
		<tag k="name" v="Siket" />
		<tag k="ssr:stedsnr" v="323614" />
		<tag k="waterway" v="stream" />
	</node>
	<node lat="70.39475282262819" lon="30.508345463150967" id="-35912">
		<tag k="name" v="Vesterelva - Jonnejohka" />
		<tag k="name:no" v="Vesterelva" />
		<tag k="name:se" v="Jonnejohka" />
		<tag k="old_name:se" v="Jånnejåkka" />
		<tag k="ssr:stedsnr" v="323890" />
		<tag k="waterway" v="river" />
	</node>
	<node lat="70.23809449796961" lon="30.423617663040126" id="-35914">
		<tag k="name" v="Allemannsdammen" />
=======
	<node id="-846224" lat="70.2858667189" lon="30.2974122133">
		<tag k="name" v="Ántonjohka" />
		<tag k="name:se" v="Ántonjohka" />
		<tag k="old_name:se" v="Antunjåkka" />
		<tag k="ssr:stedsnr" v="383939" />
		<tag k="waterway" v="stream" />
	</node>
	<node id="-846223" lat="70.2743722746" lon="30.4225954484">
		<tag k="name" v="Šláktajávri" />
		<tag k="name:se" v="Šláktajávri" />
		<tag k="natural" v="water" />
		<tag k="old_name:se" v="Šlaktajavri" />
		<tag k="ssr:stedsnr" v="383932" />
	</node>
	<node id="-846222" lat="70.2741778345" lon="30.5615036938">
		<tag k="name" v="Ceavnnit" />
		<tag k="name:se" v="Ceavnnit" />
>>>>>>> e1d4bc35ff8a6074a6f2e91616a996b547c36f15
		<tag k="natural" v="water" />
		<tag k="ssr:stedsnr" v="348097" />
		<tag k="water" v="lake" />
	</node>
<<<<<<< HEAD
	<node lat="70.31968895340519" lon="31.031156145314995" id="-35917">
		<tag k="name" v="Larsenvatnet" />
=======
	<node id="-846221" lat="70.2542139422" lon="30.3744065683">
		<tag k="name" v="Finnesvatnet - Lutsi" />
		<tag k="name:no" v="Finnesvatnet" />
		<tag k="name:se" v="Lutsi" />
>>>>>>> e1d4bc35ff8a6074a6f2e91616a996b547c36f15
		<tag k="natural" v="water" />
		<tag k="ssr:stedsnr" v="349967" />
	</node>
<<<<<<< HEAD
	<node lat="70.29313616852954" lon="30.980245072817954" id="-35918">
=======
	<node id="-846212" lat="70.2931361685" lon="30.9802450728">
>>>>>>> e1d4bc35ff8a6074a6f2e91616a996b547c36f15
		<tag k="name" v="Lille Svenskevatnet" />
		<tag k="natural" v="water" />
		<tag k="ssr:stedsnr" v="349974" />
	</node>
<<<<<<< HEAD
	<node lat="70.27437227460476" lon="30.422595448370114" id="-35929">
		<tag k="name" v="Šláktajávri" />
		<tag k="name:se" v="Šláktajávri" />
=======
	<node id="-846211" lat="70.3196889534" lon="31.0311561453">
		<tag k="name" v="Larsenvatnet" />
>>>>>>> e1d4bc35ff8a6074a6f2e91616a996b547c36f15
		<tag k="natural" v="water" />
		<tag k="old_name:se" v="Šlaktajavri" />
		<tag k="ssr:stedsnr" v="383932" />
	</node>
<<<<<<< HEAD
	<node lat="70.28586671893437" lon="30.297412213251388" id="-35930">
		<tag k="name" v="Ántonjohka" />
		<tag k="name:se" v="Ántonjohka" />
		<tag k="old_name:se" v="Antunjåkka" />
		<tag k="ssr:stedsnr" v="383939" />
		<tag k="waterway" v="stream" />
	</node>
	<node lat="70.327630608292" lon="30.58863425654083" id="-35931">
		<tag k="name" v="Jorbaskáidi" />
		<tag k="name:se" v="Jorbaskáidi" />
		<tag k="natural" v="cape" />
		<tag k="old_name:se" v="Jårbaskaidi" />
		<tag k="ssr:stedsnr" v="383944" />
	</node>
	<node lat="70.34904171329512" lon="30.489998227219193" id="-35932">
		<tag k="alt_name:no" v="Tverrdalselva" />
		<tag k="name" v="Tverrelva - Gaskajohka" />
		<tag k="name:no" v="Tverrelva" />
		<tag k="name:se" v="Gaskajohka" />
		<tag k="old_name:se" v="Gaskajåkka" />
		<tag k="ssr:stedsnr" v="384531" />
		<tag k="waterway" v="river" />
	</node>
	<node lat="70.24722783603687" lon="30.55075644998809" id="-35941">
		<tag k="name" v="Bankanbekken" />
		<tag k="ssr:stedsnr" v="395648" />
		<tag k="waterway" v="stream" />
	</node>
	<node lat="70.23595560540008" lon="30.41971209207268" id="-35942">
		<tag k="name" v="Dolonenbekken" />
		<tag k="ssr:stedsnr" v="409121" />
		<tag k="waterway" v="stream" />
	</node>
	<node lat="70.23522782939702" lon="30.43209540800694" id="-35943">
		<tag k="name" v="Torvholla" />
		<tag k="natural" v="water" />
		<tag k="ssr:stedsnr" v="409130" />
		<tag k="water" v="lake" />
	</node>
	<node lat="70.23896393930822" lon="30.457014852118455" id="-35944">
		<tag k="name" v="Malinenholla" />
		<tag k="natural" v="water" />
		<tag k="ssr:stedsnr" v="409136" />
		<tag k="water" v="lake" />
	</node>
	<node lat="70.29224728552944" lon="31.03472280682222" id="-35950">
		<tag k="name" v="Kibergsnesvatnan" />
		<tag k="natural" v="water" />
		<tag k="ssr:stedsnr" v="410976" />
	</node>
	<node lat="70.26045561122504" lon="30.678531378999775" id="-35963">
		<tag k="alt_name" v="Smellrorbekken;Smelrorbekken" />
		<tag k="name" v="Smellrorelva" />
		<tag k="ssr:stedsnr" v="444494" />
		<tag k="waterway" v="stream" />
	</node>
	<node lat="70.31388338539273" lon="30.569864806666217" id="-35965">
		<tag k="name" v="Jorbajávri" />
		<tag k="name:se" v="Jorbajávri" />
=======
	<node id="-846206" lat="70.238094498" lon="30.423617663">
		<tag k="name" v="Allemannsdammen" />
		<tag k="natural" v="water" />
		<tag k="ssr:stedsnr" v="348097" />
		<tag k="water" v="lake" />
	</node>
	<node id="-846204" lat="70.3104861596" lon="30.1275345356">
		<tag k="name" v="Hubejohka" />
		<tag k="name:se" v="Hubejohka" />
		<tag k="old_name:se" v="Hubejåkka" />
		<tag k="ssr:stedsnr" v="323925" />
		<tag k="waterway" v="river" />
	</node>
	<node id="-846203" lat="70.3947528226" lon="30.5083454632">
		<tag k="name" v="Vesterelva - Jonnejohka" />
		<tag k="name:no" v="Vesterelva" />
		<tag k="name:se" v="Jonnejohka" />
		<tag k="old_name:se" v="Jånnejåkka" />
		<tag k="ssr:stedsnr" v="323890" />
		<tag k="waterway" v="river" />
	</node>
	<node id="-846197" lat="70.3778889502" lon="31.0271506294">
		<tag k="name" v="Siket" />
		<tag k="ssr:stedsnr" v="323614" />
		<tag k="waterway" v="stream" />
	</node>
	<node id="-846193" lat="70.41192505" lon="30.6262426144">
		<tag k="name" v="Telegráfaskáidi" />
		<tag k="name:se" v="Telegráfaskáidi" />
		<tag k="natural" v="cape" />
		<tag k="old_name:se" v="Telegrafaskaidi" />
		<tag k="ssr:stedsnr" v="323582" />
	</node>
	<node id="-846184" lat="70.2771500554" lon="30.5104203876">
		<tag k="fixme" v="multiple name tags, choose one and add the other to alt_name" />
		<tag k="name" v="Lilleelva;Månelva - Movnnesjohka" />
		<tag k="name:no" v="Lilleelva;Månelva" />
		<tag k="name:se" v="Movnnesjohka" />
		<tag k="old_name:se" v="Måvnesjåkka" />
		<tag k="ssr:stedsnr" v="202928" />
		<tag k="waterway" v="river" />
	</node>
	<node id="-846183" lat="70.275836169" lon="30.7276119">
		<tag k="fixme" v="multiple name tags, choose one and add the other to alt_name" />
		<tag k="name" v="Langbuneselva;Vestre Langbuelva" />
		<tag k="ssr:stedsnr" v="202648" />
		<tag k="waterway" v="stream" />
	</node>
	<node id="-846182" lat="70.2939834011" lon="30.9987256029">
		<tag k="name" v="Kibergselva" />
		<tag k="ssr:stedsnr" v="202646" />
		<tag k="waterway" v="river" />
	</node>
	<node id="-846176" lat="70.3758222778" lon="30.7978397086">
		<tag k="alt_name:no" v="Østerdalselva;Østerelva" />
		<tag k="name" v="Austerelva - Ovsttarjohka" />
		<tag k="name:no" v="Austerelva" />
		<tag k="name:se" v="Ovsttarjohka" />
		<tag k="old_name:se" v="Åvstarjåkka" />
		<tag k="ssr:stedsnr" v="202581" />
		<tag k="waterway" v="river" />
	</node>
	<node id="-846174" lat="70.2629833965" lon="30.7835868685">
		<tag k="alt_name" v="Svartnesvatnan" />
		<tag k="name" v="Svartnesvatnet" />
>>>>>>> e1d4bc35ff8a6074a6f2e91616a996b547c36f15
		<tag k="natural" v="water" />
		<tag k="old_name:se" v="Jårbajavri" />
		<tag k="ssr:stedsnr" v="444934" />
	</node>
<<<<<<< HEAD
	<node lat="70.31916116899956" lon="30.58236758552496" id="-35966">
		<tag k="name" v="Jorbajohka" />
		<tag k="name:se" v="Jorbajohka" />
		<tag k="old_name:se" v="Jårbajåkka" />
		<tag k="ssr:stedsnr" v="444937" />
		<tag k="waterway" v="river" />
	</node>
	<node lat="70.31131395214216" lon="30.96292843965859" id="-35974">
		<tag k="alt_name" v="Fosseraelva" />
		<tag k="name" v="Fosselva" />
		<tag k="ssr:stedsnr" v="505624" />
		<tag k="waterway" v="river" />
	</node>
	<node lat="70.32587506339321" lon="31.024086709168635" id="-35976">
		<tag k="name" v="Domsvatnet" />
		<tag k="natural" v="water" />
		<tag k="ssr:stedsnr" v="505630" />
	</node>
	<node lat="70.23724449701248" lon="30.47333151628227" id="-35981">
		<tag k="name" v="Reingjerdneskulpen" />
=======
	<node id="-846169" lat="70.2785528399" lon="30.8715951521">
		<tag k="name" v="Kramvikelva" />
		<tag k="ssr:stedsnr" v="202512" />
		<tag k="waterway" v="river" />
	</node>
	<node id="-846166" lat="70.4356278345" lon="30.8887146711">
		<tag k="name" v="Næringsforsen" />
		<tag k="natural" v="waterfall" />
		<tag k="ssr:stedsnr" v="168949" />
	</node>
	<node id="-846158" lat="70.2688111708" lon="30.8113007325">
		<tag k="name" v="Flogelva" />
		<tag k="ssr:stedsnr" v="167931" />
		<tag k="waterway" v="stream" />
	</node>
	<node id="-846154" lat="70.2405250596" lon="30.4948120506">
		<tag k="name" v="Kaffekulpen" />
>>>>>>> e1d4bc35ff8a6074a6f2e91616a996b547c36f15
		<tag k="place" v="locality" />
		<tag k="ssr:stedsnr" v="530144" />
	</node>
<<<<<<< HEAD
	<node lat="70.39487783460447" lon="31.010872885539086" id="-35985">
		<tag k="name" v="Bekkavatnet" />
		<tag k="natural" v="water" />
		<tag k="ssr:stedsnr" v="531957" />
	</node>
	<node lat="70.22469171934075" lon="30.404973209733345" id="-35988">
		<tag k="name" v="Viltunkurujärvi" />
		<tag k="name:fkv" v="Viltunkurujärvi" />
		<tag k="natural" v="water" />
		<tag k="old_name:fkv" v="Vildongorojærvi" />
		<tag k="ssr:stedsnr" v="565478" />
	</node>
	<node lat="70.43815838626692" lon="30.694306481021496" id="-35992">
		<tag k="name" v="Reinkalvelva - Miesejohka" />
		<tag k="name:no" v="Reinkalvelva" />
		<tag k="name:se" v="Miesejohka" />
		<tag k="old_name:se" v="Miesejåkka" />
		<tag k="ssr:stedsnr" v="565572" />
		<tag k="waterway" v="river" />
	</node>
	<node lat="70.419633392329" lon="30.967761829751726" id="-35993">
		<tag k="name" v="Forsevatnet" />
=======
	<node id="-846145" lat="70.3423000606" lon="31.0316867165">
		<tag k="alt_name" v="Skinnstakksvikelva" />
		<tag k="name" v="Skinnstakkelva" />
		<tag k="ssr:stedsnr" v="141613" />
		<tag k="waterway" v="stream" />
	</node>
	<node id="-846141" lat="70.3354500481" lon="30.4584398973">
		<tag k="name" v="Dommaskáidi" />
		<tag k="name:se" v="Dommaskáidi" />
		<tag k="natural" v="cape" />
		<tag k="old_name:se" v="Dåmmaskaidi" />
		<tag k="ssr:stedsnr" v="140938" />
	</node>
	<node id="-846133" lat="70.3936722827" lon="30.9963895724">
		<tag k="name" v="Kistnåvvatnet" />
>>>>>>> e1d4bc35ff8a6074a6f2e91616a996b547c36f15
		<tag k="natural" v="water" />
		<tag k="ssr:stedsnr" v="566571" />
	</node>
<<<<<<< HEAD
	<node lat="70.43510561094651" lon="30.9355840889949" id="-35994">
		<tag k="alt_name" v="Kavringsvatnet, store" />
		<tag k="fixme" v="multiple name tags, choose one and add the other to alt_name" />
		<tag k="name" v="Oddevatnet;Store Kavringsvatnet" />
=======
	<node id="-846125" lat="70.2407222778" lon="30.4817759469">
		<tag k="name" v="Leirbakken" />
>>>>>>> e1d4bc35ff8a6074a6f2e91616a996b547c36f15
		<tag k="natural" v="water" />
		<tag k="ssr:stedsnr" v="566573" />
	</node>
	<node lat="70.40976672643076" lon="30.86299521626283" id="-35995">
		<tag k="name" v="Langvatnet - Guhkesjávri" />
		<tag k="name:no" v="Langvatnet" />
		<tag k="name:se" v="Guhkesjávri" />
		<tag k="natural" v="water" />
		<tag k="old_name:se" v="Gukkesjavri" />
		<tag k="ssr:stedsnr" v="566581" />
		<tag k="water" v="lake" />
	</node>
<<<<<<< HEAD
	<node lat="70.41169449807285" lon="30.935322946524686" id="-35996">
		<tag k="name" v="Bardvikvatnet" />
=======
	<node id="-846124" lat="70.2424000576" lon="30.4441676378">
		<tag k="name" v="Storholla" />
>>>>>>> e1d4bc35ff8a6074a6f2e91616a996b547c36f15
		<tag k="natural" v="water" />
		<tag k="ssr:stedsnr" v="566582" />
		<tag k="water" v="lake" />
	</node>
<<<<<<< HEAD
	<node lat="70.2183778354915" lon="30.4859148216012" id="-36001">
		<tag k="name" v="Kvalnesvatnet" />
=======
	<node id="-846113" lat="70.4403750576" lon="30.9247396516">
		<tag k="name" v="Oddevatnet" />
>>>>>>> e1d4bc35ff8a6074a6f2e91616a996b547c36f15
		<tag k="natural" v="water" />
		<tag k="ssr:stedsnr" v="575530" />
	</node>
<<<<<<< HEAD
	<node lat="70.23568616419523" lon="30.427192635727902" id="-36004">
		<tag k="name" v="Storbukta - Isolahti" />
		<tag k="name:fkv" v="Isolahti" />
		<tag k="name:no" v="Storbukta" />
		<tag k="natural" v="bay" />
		<tag k="ssr:stedsnr" v="591085" />
	</node>
	<node lat="70.377275058578" lon="30.971617351437853" id="-36015">
		<tag k="name" v="Bergestokkvatnet" />
		<tag k="natural" v="water" />
		<tag k="ssr:stedsnr" v="592940" />
	</node>
	<node lat="70.35005005917391" lon="31.027478407651802" id="-36017">
		<tag k="name" v="Kildebekken" />
		<tag k="ssr:stedsnr" v="592988" />
		<tag k="waterway" v="stream" />
	</node>
	<node lat="70.36099728309674" lon="31.024322858452607" id="-36018">
		<tag k="name" v="Krokelva" />
		<tag k="ssr:stedsnr" v="592992" />
		<tag k="waterway" v="stream" />
	</node>
	<node lat="70.36491394497548" lon="30.982167341297462" id="-36025">
		<tag k="fixme" v="multiple name tags, choose one and add the other to alt_name" />
		<tag k="name" v="Fjellelva;Storelva" />
		<tag k="ssr:stedsnr" v="626583" />
		<tag k="waterway" v="river" />
	</node>
	<node lat="70.29015560195347" lon="30.35929550638192" id="-36028">
		<tag k="name" v="Dálajohka" />
		<tag k="name:se" v="Dálajohka" />
		<tag k="old_name:se" v="Dalajåkka" />
		<tag k="ssr:stedsnr" v="626934" />
		<tag k="waterway" v="river" />
	</node>
	<node lat="70.32875561564511" lon="30.821975757953187" id="-36030">
		<tag k="alt_name" v="Oksevatnet, l" />
		<tag k="name" v="Lille Oksevatnet" />
		<tag k="natural" v="water" />
		<tag k="ssr:stedsnr" v="627628" />
	</node>
	<node lat="70.3885417250643" lon="30.96781737131735" id="-36044">
		<tag k="name" v="Dynnebærvatnet" />
		<tag k="natural" v="water" />
		<tag k="ssr:stedsnr" v="653917" />
	</node>
	<node lat="70.23945005802162" lon="30.4797926117562" id="-36050">
		<tag k="name" v="Henryholla" />
=======
	<node id="-846103" lat="70.3157806203" lon="31.0139672901">
		<tag k="name" v="Enkevassbekken" />
		<tag k="ssr:stedsnr" v="46953" />
		<tag k="waterway" v="stream" />
	</node>
	<node id="-846102" lat="70.4267694964" lon="30.7302675495">
		<tag k="name" v="Siket" />
		<tag k="ssr:stedsnr" v="46951" />
		<tag k="waterway" v="stream" />
	</node>
	<node id="-846098" lat="70.2608389448" lon="30.7752729784">
		<tag k="name" v="Svartnesbekken" />
		<tag k="ssr:stedsnr" v="46904" />
		<tag k="waterway" v="stream" />
	</node>
	<node id="-846095" lat="70.240102833" lon="30.4408037554">
		<tag k="name" v="Strigeholla" />
		<tag k="natural" v="water" />
		<tag k="ssr:stedsnr" v="45113" />
		<tag k="water" v="lake" />
	</node>
	<node id="-846094" lat="70.2376306043" lon="30.4401148709">
		<tag k="name" v="Svartstryket" />
		<tag k="ssr:stedsnr" v="45105" />
		<tag k="waterway" v="rapids" />
	</node>
	<node id="-846093" lat="70.2427028319" lon="30.4675065117">
		<tag k="name" v="Hollavatnet" />
		<tag k="natural" v="water" />
		<tag k="ssr:stedsnr" v="45029" />
	</node>
	<node id="-846090" lat="70.342383387" lon="30.5193731874">
		<tag k="name" v="Lemetskáidi" />
		<tag k="name:se" v="Lemetskáidi" />
		<tag k="natural" v="cape" />
		<tag k="old_name:se" v="Lemetskaidi" />
		<tag k="ssr:stedsnr" v="20949" />
	</node>
	<node id="-846089" lat="70.2920639392" lon="30.4021260307">
		<tag k="name" v="Gorsajohka" />
		<tag k="name:se" v="Gorsajohka" />
		<tag k="old_name:se" v="Gårsajåkka" />
		<tag k="ssr:stedsnr" v="20931" />
		<tag k="waterway" v="river" />
	</node>
	<node id="-846087" lat="70.2521972726" lon="30.4080843312">
		<tag k="name" v="Finneset" />
		<tag k="natural" v="cape" />
		<tag k="ssr:stedsnr" v="20920" />
	</node>
	<node id="-846084" lat="70.3110389484" lon="30.9930089397">
		<tag k="alt_name" v="Kibergvatnet" />
		<tag k="name" v="Kibergsvatnet" />
>>>>>>> e1d4bc35ff8a6074a6f2e91616a996b547c36f15
		<tag k="natural" v="water" />
		<tag k="ssr:stedsnr" v="713106" />
		<tag k="water" v="lake" />
	</node>
<<<<<<< HEAD
	<node lat="70.29667228506119" lon="30.98364783664949" id="-36060">
		<tag k="fixme" v="multiple name tags, choose one and add the other to alt_name" />
		<tag k="name" v="Store Svenskevatnet;Svenskevatnet" />
		<tag k="natural" v="water" />
		<tag k="ssr:stedsnr" v="747614" />
	</node>
	<node lat="70.30651393613275" lon="30.337901063101437" id="-36061">
		<tag k="name" v="Gironjávri" />
		<tag k="name:se" v="Gironjávri" />
=======
	<node id="-846076" lat="70.3076667116" lon="30.3064899842">
		<tag k="name" v="Huhttirjávrrit" />
		<tag k="name:se" v="Huhttirjávrrit" />
		<tag k="natural" v="water" />
		<tag k="old_name:se" v="Huttirjavrit" />
		<tag k="ssr:stedsnr" v="930928" />
	</node>
	<node id="-846075" lat="70.3019000503" lon="30.3239594148">
		<tag k="name" v="Gironjohka" />
		<tag k="name:se" v="Gironjohka" />
		<tag k="old_name:se" v="Girunjåkka" />
		<tag k="ssr:stedsnr" v="930927" />
		<tag k="waterway" v="river" />
	</node>
	<node id="-846074" lat="70.3010667144" lon="30.4674648769">
		<tag k="name" v="Movnnesjohjávri" />
		<tag k="name:se" v="Movnnesjohjávri" />
>>>>>>> e1d4bc35ff8a6074a6f2e91616a996b547c36f15
		<tag k="natural" v="water" />
		<tag k="old_name:se" v="Girunjavri" />
		<tag k="ssr:stedsnr" v="747925" />
	</node>
<<<<<<< HEAD
	<node lat="70.40518060266052" lon="30.679842575108744" id="-36062">
		<tag k="name" v="Jonnejohskáidi" />
		<tag k="name:se" v="Jonnejohskáidi" />
		<tag k="natural" v="cape" />
		<tag k="old_name:se" v="Jånnejåkskaidi" />
		<tag k="ssr:stedsnr" v="747928" />
	</node>
	<node lat="70.43887505821907" lon="30.879281341838976" id="-36064">
		<tag k="name" v="Næringselva" />
		<tag k="ssr:stedsnr" v="748595" />
		<tag k="waterway" v="river" />
	</node>
	<node lat="70.43268894161105" lon="30.950878503803445" id="-36065">
		<tag k="alt_name" v="Kavringsvatnet, l" />
		<tag k="name" v="Lille Kavringsvatnet" />
=======
	<node id="-846070" lat="70.3212056117" lon="30.9979534096">
		<tag k="name" v="Grønskhaugvatnet" />
		<tag k="natural" v="water" />
		<tag k="ssr:stedsnr" v="930634" />
	</node>
	<node id="-846068" lat="70.2813278368" lon="30.7611229951">
		<tag k="name" v="Flogvatnet" />
>>>>>>> e1d4bc35ff8a6074a6f2e91616a996b547c36f15
		<tag k="natural" v="water" />
		<tag k="ssr:stedsnr" v="748596" />
	</node>
<<<<<<< HEAD
	<node lat="70.27884172214564" lon="30.321048287892957" id="-36076">
		<tag k="name" v="Ántonjávri" />
		<tag k="name:se" v="Ántonjávri" />
=======
	<node id="-846067" lat="70.3668861701" lon="31.0997477967">
		<tag k="name" v="Steglnesdammen" />
>>>>>>> e1d4bc35ff8a6074a6f2e91616a996b547c36f15
		<tag k="natural" v="water" />
		<tag k="old_name:se" v="Antunjavri" />
		<tag k="ssr:stedsnr" v="748935" />
	</node>
<<<<<<< HEAD
	<node lat="70.22078338399847" lon="30.479509280164585" id="-36077">
		<tag k="name" v="Pakolabuktbekken" />
		<tag k="ssr:stedsnr" v="758577" />
		<tag k="waterway" v="stream" />
	</node>
	<node lat="70.24558060987428" lon="30.482937057643785" id="-36079">
		<tag k="name" v="Gaisavatnan" />
		<tag k="natural" v="water" />
		<tag k="ssr:stedsnr" v="773024" />
	</node>
	<node lat="70.43468616477072" lon="30.83970081738244" id="-36090">
		<tag k="name" v="Synnavindsbekken" />
		<tag k="ssr:stedsnr" v="775918" />
		<tag k="waterway" v="stream" />
	</node>
	<node lat="70.42375560006737" lon="30.55051210838373" id="-36096">
		<tag k="name" v="Rássejohka" />
		<tag k="name:se" v="Rássejohka" />
		<tag k="old_name:se" v="Rassejåkka" />
		<tag k="ssr:stedsnr" v="809573" />
		<tag k="waterway" v="river" />
	</node>
	<node lat="70.34211394365039" lon="30.861428527107886" id="-36099">
		<tag k="name" v="Oksevatnet - Vuoksajávri" />
		<tag k="name:no" v="Oksevatnet" />
		<tag k="name:se" v="Vuoksajávri" />
=======
	<node id="-846065" lat="70.3206528404" lon="31.0480394712">
		<tag k="name" v="Kvannvikbekken" />
		<tag k="ssr:stedsnr" v="896959" />
		<tag k="waterway" v="stream" />
	</node>
	<node id="-846063" lat="70.2417722821" lon="30.5229314681">
		<tag k="name" v="Komagelvmunningen" />
		<tag k="natural" v="bay" />
		<tag k="ssr:stedsnr" v="895053" />
	</node>
	<node id="-846061" lat="70.2545500542" lon="30.5980258778">
		<tag k="name" v="Mikkelhibekken" />
		<tag k="ssr:stedsnr" v="874314" />
		<tag k="waterway" v="stream" />
	</node>
	<node id="-846050" lat="70.2680195" lon="30.7407591211">
		<tag k="name" v="Langbuelva" />
		<tag k="ssr:stedsnr" v="835470" />
		<tag k="waterway" v="river" />
	</node>
	<node id="-846040" lat="70.2946028388" lon="30.9190812305">
		<tag k="alt_name" v="Olskardvatnet" />
		<tag k="name" v="Olskarvatnet" />
>>>>>>> e1d4bc35ff8a6074a6f2e91616a996b547c36f15
		<tag k="natural" v="water" />
		<tag k="old_name:se" v="Vuoksajavri" />
		<tag k="ssr:stedsnr" v="809637" />
		<tag k="water" v="lake" />
	</node>
<<<<<<< HEAD
	<node lat="70.24146116255379" lon="30.44239541991959" id="-36106">
		<tag k="name" v="Jackholla" />
		<tag k="natural" v="water" />
		<tag k="ssr:stedsnr" v="834124" />
		<tag k="water" v="lake" />
	</node>
	<node lat="70.26801949995762" lon="30.740759121093717" id="-36112">
		<tag k="name" v="Langbuelva" />
		<tag k="ssr:stedsnr" v="835470" />
		<tag k="waterway" v="river" />
	</node>
	<node lat="70.42009449963433" lon="30.772403635228972" id="-36121">
		<tag k="name" v="Storsiket" />
		<tag k="ssr:stedsnr" v="836946" />
		<tag k="waterway" v="stream" />
	</node>
	<node lat="70.29600561528842" lon="30.71908414976581" id="-36125">
		<tag k="name" v="Støvelvatnet" />
		<tag k="natural" v="water" />
		<tag k="ssr:stedsnr" v="869657" />
	</node>
	<node lat="70.42362505423908" lon="30.947709049594316" id="-36130">
		<tag k="name" v="Bardvikelva" />
		<tag k="ssr:stedsnr" v="870572" />
		<tag k="waterway" v="river" />
	</node>
	<node lat="70.25455005416204" lon="30.59802587782459" id="-36132">
		<tag k="name" v="Mikkelhibekken" />
		<tag k="ssr:stedsnr" v="874314" />
		<tag k="waterway" v="stream" />
	</node>
	<node lat="70.23846949672335" lon="30.461045391096498" id="-36142">
		<tag k="name" v="Nerholla" />
=======
	<node id="-846038" lat="70.2862167237" lon="30.8185507253">
		<tag k="name" v="Grunneselva" />
		<tag k="ssr:stedsnr" v="930637" />
		<tag k="waterway" v="river" />
	</node>
	<node id="-846035" lat="70.3277667092" lon="29.9860457281">
		<tag k="loc_name:fkv" v="Kumajoki" />
		<tag k="name" v="Komagelva - Stuorrajohka" />
		<tag k="name:no" v="Komagelva" />
		<tag k="name:se" v="Stuorrajohka" />
		<tag k="old_name:se" v="Stuorrajåkka" />
		<tag k="ssr:stedsnr" v="930541" />
		<tag k="waterway" v="river" />
	</node>
	<node id="-846032" lat="70.4346861648" lon="30.8397008174">
		<tag k="name" v="Synnavindsbekken" />
		<tag k="ssr:stedsnr" v="775918" />
		<tag k="waterway" v="stream" />
	</node>
	<node id="-846028" lat="70.2966722851" lon="30.9836478366">
		<tag k="fixme" v="multiple name tags, choose one and add the other to alt_name" />
		<tag k="name" v="Store Svenskevatnet;Svenskevatnet" />
>>>>>>> e1d4bc35ff8a6074a6f2e91616a996b547c36f15
		<tag k="natural" v="water" />
		<tag k="ssr:stedsnr" v="955119" />
		<tag k="water" v="lake" />
	</node>
<<<<<<< HEAD
	<node lat="70.24111394038137" lon="30.48750372553629" id="-36143">
		<tag k="name" v="Pedersenholla" />
=======
	<node id="-846022" lat="70.4292806084" lon="30.839214706">
		<tag k="name" v="Synnavindsvatnet" />
>>>>>>> e1d4bc35ff8a6074a6f2e91616a996b547c36f15
		<tag k="natural" v="water" />
		<tag k="ssr:stedsnr" v="955124" />
		<tag k="water" v="lake" />
	</node>
<<<<<<< HEAD
	<node lat="70.23744449549726" lon="30.46755929511796" id="-36144">
		<tag k="name" v="Rolfholla" />
=======
	<node id="-846016" lat="70.2849639508" lon="30.9034090069">
		<tag k="name" v="Gressvatnet" />
>>>>>>> e1d4bc35ff8a6074a6f2e91616a996b547c36f15
		<tag k="natural" v="water" />
		<tag k="ssr:stedsnr" v="955128" />
		<tag k="water" v="lake" />
	</node>
<<<<<<< HEAD
	<node lat="70.28003894511158" lon="30.860147926903363" id="-36146">
		<tag k="name" v="Lomvatnet" />
		<tag k="natural" v="water" />
		<tag k="ssr:stedsnr" v="956924" />
	</node>
	<node lat="70.28503617444483" lon="30.912070115035156" id="-36149">
		<tag k="name" v="Badevatnet" />
=======
	<node id="-845855" lat="70.2853083958" lon="30.8624423808">
		<tag k="name" v="Varvatnet" />
		<tag k="natural" v="water" />
		<tag k="ssr:stedsnr" v="228934" />
	</node>
	<node id="-846008" lat="70.2402056129" lon="30.4964037273">
		<tag k="name" v="Nestekulpen" />
		<tag k="place" v="locality" />
		<tag k="ssr:stedsnr" v="895011" />
	</node>
	<node id="-845997" lat="70.3885417251" lon="30.9678173713">
		<tag k="name" v="Dynnebærvatnet" />
>>>>>>> e1d4bc35ff8a6074a6f2e91616a996b547c36f15
		<tag k="natural" v="water" />
		<tag k="ssr:stedsnr" v="956960" />
	</node>
<<<<<<< HEAD
	<node lat="70.41060283647263" lon="30.975122910877687" id="-36152">
		<tag k="name" v="Kistvatnet" />
		<tag k="natural" v="water" />
		<tag k="ssr:stedsnr" v="956983" />
=======
	<node id="-845981" lat="70.239450058" lon="30.4797926118">
		<tag k="name" v="Henryholla" />
		<tag k="natural" v="water" />
		<tag k="ssr:stedsnr" v="713106" />
		<tag k="water" v="lake" />
	</node>
	<node id="-845980" lat="70.2372083905" lon="30.4316454283">
		<tag k="name" v="Hollaneset" />
		<tag k="natural" v="cape" />
		<tag k="ssr:stedsnr" v="713090" />
	</node>
	<node id="-845979" lat="70.2183778355" lon="30.4859148216">
		<tag k="name" v="Kvalnesvatnet" />
		<tag k="natural" v="water" />
		<tag k="ssr:stedsnr" v="575530" />
	</node>
	<node id="-845976" lat="70.2533917219" lon="30.566853678">
		<tag k="name" v="Skjønnselva" />
		<tag k="ssr:stedsnr" v="698600" />
		<tag k="waterway" v="stream" />
	</node>
	<node id="-845973" lat="70.3948778346" lon="31.0108728855">
		<tag k="name" v="Bekkavatnet" />
		<tag k="natural" v="water" />
		<tag k="ssr:stedsnr" v="531957" />
	</node>
	<node id="-845970" lat="70.2402139445" lon="30.4996231533">
		<tag k="name" v="Skjærkulpen" />
		<tag k="place" v="locality" />
		<tag k="ssr:stedsnr" v="530015" />
	</node>
	<node id="-845967" lat="70.3250972756" lon="30.4926621007">
		<tag k="name" v="Lemetjávri" />
		<tag k="name:se" v="Lemetjávri" />
		<tag k="natural" v="water" />
		<tag k="old_name:se" v="Lemetjavri" />
		<tag k="ssr:stedsnr" v="687920" />
	</node>
	<node id="-845966" lat="70.3846111703" lon="30.9895312178">
		<tag k="fixme" v="multiple name tags, choose one and add the other to alt_name" />
		<tag k="name" v="Skyttarelva;Skyttargamneselva" />
		<tag k="ssr:stedsnr" v="687611" />
		<tag k="waterway" v="stream" />
	</node>
	<node id="-845964" lat="70.3964528343" lon="30.8679479856">
		<tag k="name" v="Krokvatnet" />
		<tag k="natural" v="water" />
		<tag k="ssr:stedsnr" v="687606" />
	</node>
	<node id="-845958" lat="70.2779333967" lon="30.8789256959">
		<tag k="name" v="Kramvikvatnet" />
		<tag k="natural" v="water" />
		<tag k="ssr:stedsnr" v="505507" />
	</node>
	<node id="-845946" lat="70.3258750634" lon="31.0240867092">
		<tag k="name" v="Domsvatnet" />
		<tag k="natural" v="water" />
		<tag k="ssr:stedsnr" v="505630" />
	</node>
	<node id="-845944" lat="70.3113139521" lon="30.9629284397">
		<tag k="alt_name" v="Fosseraelva" />
		<tag k="name" v="Fosselva" />
		<tag k="ssr:stedsnr" v="505624" />
		<tag k="waterway" v="river" />
	</node>
	<node id="-845937" lat="70.3189222879" lon="31.0178061562">
		<tag k="name" v="Enkevatnet" />
		<tag k="natural" v="water" />
		<tag k="ssr:stedsnr" v="384609" />
	</node>
	<node id="-845932" lat="70.2417556094" lon="30.5088064819">
		<tag k="name" v="Blindtarmen" />
		<tag k="natural" v="shoal" />
		<tag k="place" v="locality" />
		<tag k="ssr:stedsnr" v="348008" />
	</node>
	<node id="-846439" lat="70.300191727" lon="31.0047311587">
		<tag k="name" v="Holman" />
		<tag k="place" v="islet" />
		<tag k="ssr:stedsnr" v="956991" />
	</node>
	<node id="-845868" lat="70.2548583875" lon="30.5953953305">
		<tag k="name" v="Trollelva - Ruollajohka" />
		<tag k="name:no" v="Trollelva" />
		<tag k="name:se" v="Ruollajohka" />
		<tag k="old_name:se" v="Ruollajåkka" />
		<tag k="ssr:stedsnr" v="262927" />
		<tag k="waterway" v="river" />
	</node>
	<node id="-846434" lat="70.4106028365" lon="30.9751229109">
		<tag k="name" v="Kistvatnet" />
		<tag k="natural" v="water" />
		<tag k="ssr:stedsnr" v="956983" />
	</node>
	<node id="-845921" lat="70.307147284" lon="30.9861256314">
		<tag k="name" v="Munningen" />
		<tag k="natural" v="bay" />
		<tag k="ssr:stedsnr" v="471206" />
	</node>
	<node id="-846431" lat="70.2850361744" lon="30.912070115">
		<tag k="name" v="Badevatnet" />
		<tag k="natural" v="water" />
		<tag k="ssr:stedsnr" v="956960" />
	</node>
	<node id="-845918" lat="70.2922750609" lon="30.9955172868">
		<tag k="name" v="Benserafossen" />
		<tag k="natural" v="waterfall" />
		<tag k="ssr:stedsnr" v="470976" />
	</node>
	<node id="-846428" lat="70.2800389451" lon="30.8601479269">
		<tag k="name" v="Lomvatnet" />
		<tag k="natural" v="water" />
		<tag k="ssr:stedsnr" v="956924" />
	</node>
	<node id="-845913" lat="70.2266278315" lon="30.4904648229">
		<tag k="name" v="Storbekken - Isooja" />
		<tag k="name:fkv" v="Isooja" />
		<tag k="name:no" v="Storbekken" />
		<tag k="ssr:stedsnr" v="470022" />
		<tag k="waterway" v="stream" />
	</node>
	<node id="-846423" lat="70.2374444955" lon="30.4675592951">
		<tag k="name" v="Rolfholla" />
		<tag k="natural" v="water" />
		<tag k="ssr:stedsnr" v="955128" />
		<tag k="water" v="lake" />
	</node>
	<node id="-846422" lat="70.2411139404" lon="30.4875037255">
		<tag k="name" v="Pedersenholla" />
		<tag k="natural" v="water" />
		<tag k="ssr:stedsnr" v="955124" />
		<tag k="water" v="lake" />
	</node>
	<node id="-846421" lat="70.2384694967" lon="30.4610453911">
		<tag k="name" v="Nerholla" />
		<tag k="natural" v="water" />
		<tag k="ssr:stedsnr" v="955119" />
		<tag k="water" v="lake" />
	</node>
	<node id="-846418" lat="70.4236250542" lon="30.9477090496">
		<tag k="name" v="Bardvikelva" />
		<tag k="ssr:stedsnr" v="870572" />
		<tag k="waterway" v="river" />
	</node>
	<node id="-846417" lat="70.2960056153" lon="30.7190841498">
		<tag k="name" v="Støvelvatnet" />
		<tag k="natural" v="water" />
		<tag k="ssr:stedsnr" v="869657" />
	</node>
	<node id="-845900" lat="70.4282750525" lon="30.9256090633">
		<tag k="name" v="Mellomvatnet" />
		<tag k="natural" v="water" />
		<tag k="ssr:stedsnr" v="445592" />
	</node>
	<node id="-846410" lat="70.4200944996" lon="30.7724036352">
		<tag k="name" v="Storsiket" />
		<tag k="ssr:stedsnr" v="836946" />
		<tag k="waterway" v="stream" />
	</node>
	<node id="-845897" lat="70.3138833854" lon="30.5698648067">
		<tag k="name" v="Jorbajávri" />
		<tag k="name:se" v="Jorbajávri" />
		<tag k="natural" v="water" />
		<tag k="old_name:se" v="Jårbajavri" />
		<tag k="ssr:stedsnr" v="444934" />
	</node>
	<node id="-845895" lat="70.2604556112" lon="30.678531379">
		<tag k="alt_name" v="Smellrorbekken;Smelrorbekken" />
		<tag k="name" v="Smellrorelva" />
		<tag k="ssr:stedsnr" v="444494" />
		<tag k="waterway" v="stream" />
	</node>
	<node id="-845889" lat="70.2754333934" lon="30.7383341368">
		<tag k="name" v="Østre Langbuelva" />
		<tag k="ssr:stedsnr" v="228923" />
		<tag k="waterway" v="stream" />
	</node>
	<node id="-845888" lat="70.2532722815" lon="30.5854786558">
		<tag k="name" v="Dritbekken" />
		<tag k="ssr:stedsnr" v="228358" />
		<tag k="waterway" v="stream" />
	</node>
	<node id="-846399" lat="70.2414611626" lon="30.4423954199">
		<tag k="name" v="Jackholla" />
		<tag k="natural" v="water" />
		<tag k="ssr:stedsnr" v="834124" />
		<tag k="water" v="lake" />
	</node>
	<node id="-846394" lat="70.3421139437" lon="30.8614285271">
		<tag k="name" v="Oksevatnet - Vuoksajávri" />
		<tag k="name:no" v="Oksevatnet" />
		<tag k="name:se" v="Vuoksajávri" />
		<tag k="natural" v="water" />
		<tag k="old_name:se" v="Vuoksajavri" />
		<tag k="ssr:stedsnr" v="809637" />
		<tag k="water" v="lake" />
	</node>
	<node id="-845881" lat="70.2379972757" lon="30.4725037342">
		<tag k="name" v="Reingjerdneset" />
		<tag k="natural" v="cape" />
		<tag k="ssr:stedsnr" v="288118" />
	</node>
	<node id="-845880" lat="70.3643834002" lon="31.1273922148">
		<tag k="name" v="Vårbergdammen" />
		<tag k="natural" v="water" />
		<tag k="ssr:stedsnr" v="167974" />
	</node>
	<node id="-846389" lat="70.4237556001" lon="30.5505121084">
		<tag k="name" v="Rássejohka" />
		<tag k="name:se" v="Rássejohka" />
		<tag k="old_name:se" v="Rassejåkka" />
		<tag k="ssr:stedsnr" v="809573" />
		<tag k="waterway" v="river" />
	</node>
	<node id="-846380" lat="70.4221250532" lon="30.8862146514">
		<tag k="name" v="Krokvatnet" />
		<tag k="natural" v="water" />
		<tag k="ssr:stedsnr" v="775951" />
		<tag k="water" v="lake" />
	</node>
	<node id="-846367" lat="70.2455806099" lon="30.4829370576">
		<tag k="name" v="Gaisavatnan" />
		<tag k="natural" v="water" />
		<tag k="ssr:stedsnr" v="773024" />
	</node>
	<node id="-846365" lat="70.220783384" lon="30.4795092802">
		<tag k="name" v="Pakolabuktbekken" />
		<tag k="ssr:stedsnr" v="758577" />
		<tag k="waterway" v="stream" />
	</node>
	<node id="-846361" lat="70.2788417221" lon="30.3210482879">
		<tag k="name" v="Ántonjávri" />
		<tag k="name:se" v="Ántonjávri" />
		<tag k="natural" v="water" />
		<tag k="old_name:se" v="Antunjavri" />
		<tag k="ssr:stedsnr" v="748935" />
	</node>
	<node id="-846349" lat="70.4326889416" lon="30.9508785038">
		<tag k="alt_name" v="Kavringsvatnet, l" />
		<tag k="name" v="Lille Kavringsvatnet" />
		<tag k="natural" v="water" />
		<tag k="ssr:stedsnr" v="748596" />
	</node>
	<node id="-846348" lat="70.4388750582" lon="30.8792813418">
		<tag k="name" v="Næringselva" />
		<tag k="ssr:stedsnr" v="748595" />
		<tag k="waterway" v="river" />
>>>>>>> e1d4bc35ff8a6074a6f2e91616a996b547c36f15
	</node>
	<node id="-846347" lat="70.4051806027" lon="30.6798425751">
		<tag k="name" v="Jonnejohskáidi" />
		<tag k="name:se" v="Jonnejohskáidi" />
		<tag k="natural" v="cape" />
		<tag k="old_name:se" v="Jånnejåkskaidi" />
		<tag k="ssr:stedsnr" v="747928" />
	</node>
	<node id="-846346" lat="70.3065139361" lon="30.3379010631">
		<tag k="name" v="Gironjávri" />
		<tag k="name:se" v="Gironjávri" />
		<tag k="natural" v="water" />
		<tag k="old_name:se" v="Girunjavri" />
		<tag k="ssr:stedsnr" v="747925" />
	</node>
</osm>
