<?xml version="1.0" encoding="UTF-8"?>
<osm version="0.6" generator="osmapis">
	<node lat="70.44211671637758" lon="30.730148122785426" id="-95244">
		<tag k="alt_name" v="Reinkalvvika, l" />
		<tag k="name" v="Lille Reinkalvvika" />
		<tag k="natural" v="bay" />
		<tag k="ssr:stedsnr" v="20595" />
	</node>
	<node lat="70.36174727795736" lon="31.052958949048413" id="-95246">
		<tag k="alt_name" v="Svartnes" />
		<tag k="name" v="Ytre Svartnes" />
		<tag k="natural" v="cape" />
		<tag k="ssr:stedsnr" v="20642" />
	</node>
	<node lat="70.38881394809965" lon="31.09078392691223" id="-95255">
		<tag k="name" v="Gaupekeila" />
		<tag k="natural" v="bay" />
		<tag k="ssr:stedsnr" v="46983" />
	</node>
	<node lat="70.27894728836766" lon="30.97387562105576" id="-95257">
		<tag k="name" v="Slettaodden" />
		<tag k="natural" v="cape" />
		<tag k="ssr:stedsnr" v="80507" />
	</node>
	<node lat="70.27209728217346" lon="31.00560614693862" id="-95258">
		<tag k="fixme" v="consider seamark:type=rock or natural=shoal" />
		<tag k="name" v="Hansegrunnen" />
		<tag k="place" v="islet" />
		<tag k="ssr:stedsnr" v="85661" />
	</node>
	<node lat="70.37544172435113" lon="31.119414464629376" id="-95259">
		<tag k="loc_name:fkv" v="Vuoreansaari;Vuorean saari" />
		<tag k="loc_name:se" v="Várggáidsuolu" />
		<tag k="name" v="Vardøya" />
		<tag k="name:no" v="Vardøya" />
		<tag k="place" v="island" />
		<tag k="ssr:stedsnr" v="87713" />
	</node>
	<node lat="70.23838894221491" lon="30.552639790410552" id="-95261">
		<tag k="name" v="Sinavatnet" />
		<tag k="natural" v="bay" />
		<tag k="ssr:stedsnr" v="106050" />
	</node>
	<node lat="70.24592783970081" lon="30.97198115297513" id="-95270">
		<tag k="fixme" v="consider seamark:type=rock or natural=shoal" />
		<tag k="name" v="Reigrunnen" />
		<tag k="place" v="islet" />
		<tag k="ssr:stedsnr" v="146669" />
	</node>
	<node lat="70.26514728176203" lon="30.817636849967275" id="-95273">
		<tag k="name" v="Grunnesbukta" />
		<tag k="natural" v="bay" />
		<tag k="ssr:stedsnr" v="262534" />
	</node>
	<node lat="70.44732505567018" lon="30.906989662665737" id="-95274">
		<tag k="name" v="Jernsteinvika" />
		<tag k="natural" v="bay" />
		<tag k="ssr:stedsnr" v="262586" />
	</node>
	<node lat="70.46695282566887" lon="30.744953656398632" id="-95276">
		<tag k="alt_name" v="Segelodden" />
		<tag k="name" v="Seglodden" />
		<tag k="natural" v="cape" />
		<tag k="ssr:stedsnr" v="262931" />
	</node>
	<node lat="70.38296394953021" lon="31.070092276569287" id="-95284">
		<tag k="name" v="Engelsvikflua" />
		<tag k="natural" v="shoal" />
		<tag k="place" v="locality" />
		<tag k="ssr:stedsnr" v="208798" />
	</node>
	<node lat="70.27785561918269" lon="30.98946450211292" id="-95287">
		<tag k="name" v="Heimtaket" />
		<tag k="natural" v="shoal" />
		<tag k="place" v="locality" />
		<tag k="ssr:stedsnr" v="229783" />
	</node>
	<node lat="70.39166672991614" lon="31.03333119165166" id="-95288">
		<tag k="name" v="Smellror" />
		<tag k="natural" v="cape" />
		<tag k="ssr:stedsnr" v="242393" />
	</node>
	<node lat="70.3979611689319" lon="31.145636673235764" id="-95289">
		<tag k="alt_name" v="Kålnes;Kvalneset" />
		<tag k="name" v="Kålneset" />
		<tag k="natural" v="cape" />
		<tag k="ssr:stedsnr" v="451823" />
	</node>
	<node lat="70.43180560651633" lon="30.757153629399365" id="-95297">
		<tag k="alt_name" v="Bukkemolltangen" />
		<tag k="name" v="Bukkemoltangen" />
		<tag k="natural" v="cape" />
		<tag k="ssr:stedsnr" v="263589" />
	</node>
	<node lat="70.40698339153771" lon="31.009164566667845" id="-95298">
		<tag k="name" v="Stauren" />
		<tag k="natural" v="cape" />
		<tag k="ssr:stedsnr" v="263594" />
	</node>
	<node lat="70.44083060567336" lon="30.846114703499477" id="-95306">
		<tag k="name" v="Nordvestkeila" />
		<tag k="natural" v="bay" />
		<tag k="ssr:stedsnr" v="289975" />
	</node>
	<node lat="70.38339173044838" lon="31.092111695243414" id="-95307">
		<tag k="name" v="Lillesvinvika" />
		<tag k="natural" v="bay" />
		<tag k="ssr:stedsnr" v="289987" />
	</node>
	<node lat="70.40406950877095" lon="31.126492241784373" id="-95309">
		<tag k="name" v="Seigrunnen" />
		<tag k="natural" v="shoal" />
		<tag k="place" v="locality" />
		<tag k="ssr:stedsnr" v="323604" />
	</node>
	<node lat="70.43680838472896" lon="30.966678504715226" id="-95311">
		<tag k="loc_name:se" v="Gávrrit;Gávrritnjárga" />
		<tag k="name" v="Kavringen" />
		<tag k="name:no" v="Kavringen" />
		<tag k="natural" v="cape" />
		<tag k="ssr:stedsnr" v="323573" />
	</node>
	<node lat="70.28063617811802" lon="31.019164481106674" id="-95318">
		<tag k="name" v="Vesterkeila" />
		<tag k="natural" v="bay" />
		<tag k="ssr:stedsnr" v="471795" />
	</node>
	<node lat="70.38519172559933" lon="31.151206092895116" id="-95319">
		<tag k="alt_name" v="Omen" />
		<tag k="name" v="Omnsholla" />
		<tag k="natural" v="cape" />
		<tag k="ssr:stedsnr" v="471988" />
	</node>
	<node lat="70.09111392523329" lon="29.008704474976128" id="-95324">
		<tag k="bay" v="fjord" />
		<tag k="name" v="Varangerfjorden" />
		<tag k="name:fkv" v="Varenkinvuono" />
		<tag k="name:no" v="Varangerfjorden" />
		<tag k="name:se" v="Várjavuonna" />
		<tag k="natural" v="bay" />
		<tag k="ssr:stedsnr" v="383165" />
	</node>
	<node lat="70.39046117135297" lon="31.163025531486955" id="-95332">
		<tag k="name" v="Staurneset" />
		<tag k="natural" v="cape" />
		<tag k="ssr:stedsnr" v="390798" />
	</node>
	<node lat="70.44215560713847" lon="30.853898035233506" id="-95334">
		<tag k="name" v="Vesterkeila" />
		<tag k="natural" v="bay" />
		<tag k="ssr:stedsnr" v="410951" />
	</node>
	<node lat="70.43333338974577" lon="31.199997764850306" id="-95335">
		<tag k="name" v="Klakken" />
		<tag k="natural" v="shoal" />
		<tag k="ssr:stedsnr" v="424410" />
	</node>
	<node lat="70.25997228109372" lon="30.758797985342337" id="-95336">
		<tag k="name" v="Svartnesbukta" />
		<tag k="natural" v="bay" />
		<tag k="ssr:stedsnr" v="444505" />
	</node>
	<node lat="70.21868061291354" lon="30.49065925582618" id="-95337">
		<tag k="name" v="Kvalnes" />
		<tag k="natural" v="cape" />
		<tag k="ssr:stedsnr" v="445529" />
	</node>
	<node lat="70.3837167297792" lon="31.152469980769176" id="-95349">
		<tag k="name" v="Sautaket" />
		<tag k="natural" v="cape" />
		<tag k="ssr:stedsnr" v="505608" />
	</node>
	<node lat="70.24634728249322" lon="30.562128669242597" id="-95353">
		<tag k="name" v="Ytterstranda" />
		<tag k="natural" v="beach" />
		<tag k="ssr:stedsnr" v="516615" />
	</node>
	<node lat="70.19111116340152" lon="30.4841648114304" id="-95354">
		<tag k="name" v="Komaggrunnen" />
		<tag k="natural" v="shoal" />
		<tag k="place" v="locality" />
		<tag k="ssr:stedsnr" v="526222" />
	</node>
	<node lat="70.24945005543564" lon="30.66774525814915" id="-95356">
		<tag k="name" v="Langbubukta" />
		<tag k="natural" v="bay" />
		<tag k="ssr:stedsnr" v="531441" />
	</node>
	<node lat="70.38964173181802" lon="31.16338386958547" id="-95362">
		<tag k="name" v="Oterbukta" />
		<tag k="natural" v="bay" />
		<tag k="ssr:stedsnr" v="531996" />
	</node>
	<node lat="70.36450839342321" lon="31.119697779505007" id="-95367">
		<tag k="name" v="Russevika" />
		<tag k="natural" v="bay" />
		<tag k="ssr:stedsnr" v="688613" />
	</node>
	<node lat="70.26349450611204" lon="30.925956209052284" id="-95369">
		<tag k="fixme" v="consider seamark:type=rock or natural=shoal" />
		<tag k="name" v="Galten" />
		<tag k="place" v="islet" />
		<tag k="ssr:stedsnr" v="565503" />
	</node>
	<node lat="70.4779694984812" lon="30.901573022960466" id="-95370">
		<tag k="alt_name" v="Østhavet" />
		<tag k="name" v="Austhavet" />
		<tag k="place" v="sea" />
		<tag k="ssr:stedsnr" v="565913" />
	</node>
	<node lat="70.26333339551537" lon="30.991664468651553" id="-95371">
		<tag k="fixme" v="consider seamark:type=rock or natural=shoal" />
		<tag k="name" v="Heimtaket" />
		<tag k="place" v="islet" />
		<tag k="ssr:stedsnr" v="692668" />
	</node>
	<node lat="70.23418894338958" lon="30.501825929206937" id="-95374">
		<tag k="name" v="Innerstranda" />
		<tag k="natural" v="beach" />
		<tag k="ssr:stedsnr" v="591055" />
	</node>
	<node lat="70.25910283537294" lon="30.839872931076066" id="-95375">
		<tag k="name" v="Kaibukta" />
		<tag k="natural" v="bay" />
		<tag k="ssr:stedsnr" v="591908" />
	</node>
	<node lat="70.39076116718627" lon="31.132525574135876" id="-95388">
		<tag k="alt_name" v="Reinøy" />
		<tag k="name" v="Reinøya" />
		<tag k="place" v="island" />
		<tag k="ssr:stedsnr" v="626615" />
	</node>
	<node lat="70.43381671685916" lon="30.82594249505164" id="-95389">
		<tag k="name" v="Godkeila" />
		<tag k="natural" v="bay" />
		<tag k="ssr:stedsnr" v="626601" />
	</node>
	<node lat="70.27811117506302" lon="31.03484500673611" id="-95391">
		<tag k="fixme" v="consider seamark:type=rock or natural=shoal" />
		<tag k="name" v="Ramnfloggrunnen" />
		<tag k="place" v="islet" />
		<tag k="ssr:stedsnr" v="631710" />
	</node>
	<node lat="70.26903339830515" lon="30.94757286011599" id="-95394">
		<tag k="name" v="Sundet" />
		<tag k="natural" v="strait" />
		<tag k="ssr:stedsnr" v="653792" />
	</node>
	<node lat="70.42993061075096" lon="30.80936194197138" id="-95396">
		<tag k="alt_name" v="Hestmanneset" />
		<tag k="name" v="Hestmannes" />
		<tag k="natural" v="cape" />
		<tag k="ssr:stedsnr" v="687603" />
	</node>
	<node lat="70.24605838656369" lon="30.61650641362206" id="-95405">
		<tag k="name" v="Raneset" />
		<tag k="natural" v="cape" />
		<tag k="ssr:stedsnr" v="896344" />
	</node>
	<node lat="70.28052784298731" lon="31.017972804429352" id="-95406">
		<tag k="name" v="Dakkokeila" />
		<tag k="natural" v="bay" />
		<tag k="ssr:stedsnr" v="896832" />
	</node>
	<node lat="70.37703616826323" lon="31.098336690437204" id="-95408">
		<tag k="name" v="Sandvika" />
		<tag k="natural" v="bay" />
		<tag k="ssr:stedsnr" v="896992" />
	</node>
	<node lat="70.36230006194438" lon="31.029886744328596" id="-95416">
		<tag k="name" v="Kroken" />
		<tag k="natural" v="bay" />
		<tag k="ssr:stedsnr" v="713992" />
	</node>
	<node lat="70.24611672432222" lon="30.56135089543326" id="-95424">
		<tag k="name" v="Ytterstranda" />
		<tag k="natural" v="beach" />
		<tag k="ssr:stedsnr" v="773078" />
	</node>
	<node lat="70.39262227723117" lon="31.07030894686967" id="-95425">
		<tag k="name" v="Kolakoffbukta" />
		<tag k="natural" v="bay" />
		<tag k="ssr:stedsnr" v="774566" />
	</node>
	<node lat="70.43623339022174" lon="30.964000722540447" id="-95427">
		<tag k="name" v="Kavringkeila" />
		<tag k="natural" v="bay" />
		<tag k="ssr:stedsnr" v="774968" />
	</node>
	<node lat="70.44203060960139" lon="30.86068412663631" id="-95428">
		<tag k="name" v="Næringskeila" />
		<tag k="natural" v="bay" />
		<tag k="ssr:stedsnr" v="774970" />
	</node>
	<node lat="70.2537000670034" lon="30.921786752686113" id="-95434">
		<tag k="fixme" v="consider seamark:type=rock or natural=shoal" />
		<tag k="name" v="Rakkeskjæret" />
		<tag k="place" v="islet" />
		<tag k="ssr:stedsnr" v="809539" />
	</node>
	<node lat="70.2453000673405" lon="30.94628394065586" id="-95436">
		<tag k="fixme" v="consider seamark:type=rock or natural=shoal" />
		<tag k="name" v="Seigrunnen" />
		<tag k="place" v="islet" />
		<tag k="ssr:stedsnr" v="814694" />
	</node>
	<node lat="70.44138060656249" lon="30.862895237713598" id="-95440">
		<tag k="name" v="Østerkeila" />
		<tag k="natural" v="bay" />
		<tag k="ssr:stedsnr" v="835976" />
	</node>
	<node lat="70.27023894705395" lon="30.947539528904187" id="-95441">
		<tag k="name" v="Sundnes" />
		<tag k="natural" v="cape" />
		<tag k="ssr:stedsnr" v="836779" />
	</node>
	<node lat="70.43458060691204" lon="30.724809222858227" id="-95459">
		<tag k="name" v="Kvannvikbukta" />
		<tag k="natural" v="bay" />
		<tag k="ssr:stedsnr" v="895910" />
	</node>
	<node lat="70.40213339247495" lon="31.063314510805448" id="-95464">
		<tag k="name" v="Skagkeila" />
		<tag k="natural" v="bay" />
		<tag k="ssr:stedsnr" v="896569" />
	</node>
	<node lat="70.44996116798823" lon="30.92678409839809" id="-95466">
		<tag k="name" v="Blodskyttkeila" />
		<tag k="natural" v="bay" />
		<tag k="ssr:stedsnr" v="896966" />
	</node>
	<node lat="70.2473833916679" lon="30.69977579295546" id="-95469">
		<tag k="alt_name" v="Langbuneset" />
		<tag k="name" v="Langbunes" />
		<tag k="natural" v="cape" />
		<tag k="ssr:stedsnr" v="930545" />
	</node>
	<node lat="70.4422167194816" lon="30.856109143917934" id="-95471">
		<tag k="name" v="Næringsodden" />
		<tag k="natural" v="cape" />
		<tag k="ssr:stedsnr" v="930907" />
	</node>
	<node lat="70.3323417250361" lon="31.050133918752767" id="-95472">
		<tag k="name" v="Domsholla" />
		<tag k="natural" v="bay" />
		<tag k="ssr:stedsnr" v="956216" />
	</node>
	<node lat="70.24479450050801" lon="30.699442461338663" id="-95474">
		<tag k="name" v="Vardenes" />
		<tag k="natural" v="cape" />
		<tag k="ssr:stedsnr" v="956917" />
	</node>
	<node lat="70.38563895221448" lon="31.033503414862253" id="-95475">
		<tag k="name" v="Bukten" />
		<tag k="natural" v="bay" />
		<tag k="ssr:stedsnr" v="956987" />
	</node>
	<node lat="70.38288339062917" lon="31.036200623864588" id="-95476">
		<tag k="name" v="Monsebukt" />
		<tag k="natural" v="bay" />
		<tag k="ssr:stedsnr" v="956988" />
	</node>
	<node lat="70.42371116170133" lon="30.795761939079632" id="-95480">
		<tag k="name" v="Molla" />
		<tag k="natural" v="cape" />
		<tag k="ssr:stedsnr" v="957943" />
	</node>
	<node lat="70.24491950010933" lon="30.70854523425385" id="-95482">
		<tag k="name" v="Ytterkeila" />
		<tag k="natural" v="bay" />
		<tag k="ssr:stedsnr" v="228924" />
	</node>
	<node lat="70.27583339466881" lon="30.97070061085227" id="-95486">
		<tag k="name" v="Langbukta" />
		<tag k="natural" v="bay" />
		<tag k="ssr:stedsnr" v="20506" />
	</node>
	<node lat="70.2610472826671" lon="30.841403496750676" id="-95489">
		<tag k="alt_name" v="Grunneset" />
		<tag k="name" v="Grunnes" />
		<tag k="natural" v="cape" />
		<tag k="ssr:stedsnr" v="20526" />
	</node>
	<node lat="70.45331949783397" lon="30.79117307605807" id="-95492">
		<tag k="bay" v="fjord" />
		<tag k="name" v="Biesavuotna" />
		<tag k="name:no" v="Persfjorden" />
		<tag k="name:se" v="Biesavuotna" />
		<tag k="natural" v="bay" />
		<tag k="old_name:se" v="Biesavuodna" />
		<tag k="ssr:stedsnr" v="20924" />
	</node>
	<node lat="70.36839450675953" lon="31.01868675703234" id="-95499">
		<tag k="name" v="Sanden" />
		<tag k="natural" v="beach" />
		<tag k="ssr:stedsnr" v="20631" />
	</node>
	<node lat="70.37008616752483" lon="31.05331172189723" id="-95500">
		<tag k="loc_name:fkv" v="Sunti;Vuoreansunti;Saarisunti" />
		<tag k="loc_name:se" v="Lannesunda" />
		<tag k="name" v="Bussesundet" />
		<tag k="name:no" v="Bussesundet" />
		<tag k="natural" v="strait" />
		<tag k="ssr:stedsnr" v="20635" />
	</node>
	<node lat="70.34054728696876" lon="31.04499782991199" id="-95502">
		<tag k="fixme" v="multiple name tags, choose one and add the other to alt_name" />
		<tag k="name" v="Skinnstakksvika;Kvannvika" />
		<tag k="natural" v="bay" />
		<tag k="ssr:stedsnr" v="26747" />
	</node>
	<node lat="70.3680445077052" lon="31.13109777206247" id="-95513">
		<tag k="name" v="Staurkeila" />
		<tag k="natural" v="bay" />
		<tag k="ssr:stedsnr" v="46964" />
	</node>
	<node lat="70.44431394498292" lon="30.952184066613672" id="-95515">
		<tag k="name" v="Daudmannsmolla" />
		<tag k="natural" v="cape" />
		<tag k="ssr:stedsnr" v="80577" />
	</node>
	<node lat="70.34865561367253" lon="31.048197835655035" id="-95519">
		<tag k="name" v="Skinnstakkvika" />
		<tag k="natural" v="bay" />
		<tag k="ssr:stedsnr" v="81631" />
	</node>
	<node lat="70.31995839597039" lon="31.06244501109102" id="-95522">
		<tag k="alt_name" v="Molvika, lille" />
		<tag k="name" v="Lille Molvika" />
		<tag k="natural" v="bay" />
		<tag k="ssr:stedsnr" v="87787" />
	</node>
	<node lat="70.27279451087286" lon="30.93505342623999" id="-95527">
		<tag k="name" v="Indre Kibergbukta" />
		<tag k="natural" v="bay" />
		<tag k="ssr:stedsnr" v="107796" />
	</node>
	<node lat="70.43695005319623" lon="30.83382860718995" id="-95530">
		<tag k="name" v="Synnavindsbukta" />
		<tag k="natural" v="bay" />
		<tag k="ssr:stedsnr" v="107948" />
	</node>
	<node lat="70.39158617645957" lon="31.150553331959944" id="-95534">
		<tag k="name" v="Staurbukta" />
		<tag k="natural" v="bay" />
		<tag k="ssr:stedsnr" v="107964" />
	</node>
	<node lat="70.42193616933436" lon="30.986378463810134" id="-95535">
		<tag k="name" v="Dorskekeila" />
		<tag k="natural" v="bay" />
		<tag k="ssr:stedsnr" v="107971" />
	</node>
	<node lat="70.44050283517751" lon="30.966486845886386" id="-95536">
		<tag k="name" v="Kavringen" />
		<tag k="natural" v="cape" />
		<tag k="ssr:stedsnr" v="107972" />
	</node>
	<node lat="70.27995284241379" lon="30.988886718008366" id="-95539">
		<tag k="alt_name" v="Skippaskjeret" />
		<tag k="fixme" v="consider seamark:type=rock or natural=shoal" />
		<tag k="name" v="Skipparskjæret" />
		<tag k="place" v="islet" />
		<tag k="ssr:stedsnr" v="140480" />
	</node>
	<node lat="70.26844173004844" lon="30.89431179377734" id="-95540">
		<tag k="alt_name" v="Løkvika" />
		<tag k="name" v="Laukvika" />
		<tag k="natural" v="bay" />
		<tag k="ssr:stedsnr" v="140483" />
	</node>
	<node lat="70.28595562400912" lon="31.058369998465395" id="-95544">
		<tag k="name" v="Nordvestkeila" />
		<tag k="natural" v="bay" />
		<tag k="ssr:stedsnr" v="146686" />
	</node>
	<node lat="70.39974727771404" lon="31.066061734889338" id="-95545">
		<tag k="name" v="Ramnflogkeila" />
		<tag k="natural" v="bay" />
		<tag k="ssr:stedsnr" v="147791" />
	</node>
	<node lat="70.37566950787543" lon="31.124533889087047" id="-95548">
		<tag k="name" v="Oldringkeila" />
		<tag k="natural" v="bay" />
		<tag k="ssr:stedsnr" v="167995" />
	</node>
	<node lat="70.24608894742443" lon="30.59675920864566" id="-95550">
		<tag k="name" v="Mikkelhamnnes" />
		<tag k="natural" v="cape" />
		<tag k="ssr:stedsnr" v="167343" />
	</node>
	<node lat="70.39648061696353" lon="31.02368399761596" id="-95552">
		<tag k="name" v="Sundfjærmola" />
		<tag k="natural" v="bay" />
		<tag k="ssr:stedsnr" v="167571" />
	</node>
	<node lat="70.27075839355888" lon="30.915120106038806" id="-95554">
		<tag k="name" v="Tareholla" />
		<tag k="natural" v="bay" />
		<tag k="ssr:stedsnr" v="167944" />
	</node>
	<node lat="70.26858894799396" lon="30.88540623229455" id="-95555">
		<tag k="name" v="Mollkeila" />
		<tag k="natural" v="bay" />
		<tag k="ssr:stedsnr" v="167946" />
	</node>
	<node lat="70.26840006271718" lon="30.94825063485651" id="-95565">
		<tag k="alt_name" v="Sundskjeret;Knoteskjeret" />
		<tag k="fixme" v="multiple name tags, choose one and add the other to alt_name; consider seamark:type=rock or natural=shoal" />
		<tag k="name" v="Kunteskjæret;Sundskjæret" />
		<tag k="place" v="islet" />
		<tag k="ssr:stedsnr" v="202523" />
	</node>
	<node lat="70.2476195022702" lon="30.586617557269832" id="-95566">
		<tag k="fixme" v="multiple name tags, choose one and add the other to alt_name" />
		<tag k="name" v="Trollbukta;Trollelvbukta" />
		<tag k="natural" v="bay" />
		<tag k="ssr:stedsnr" v="202526" />
	</node>
	<node lat="70.26170006741796" lon="30.953778395356967" id="-95568">
		<tag k="fixme" v="consider seamark:type=rock or natural=shoal" />
		<tag k="name" v="Rundskjæret" />
		<tag k="place" v="islet" />
		<tag k="ssr:stedsnr" v="202538" />
	</node>
	<node lat="70.39000005646967" lon="31.147622775136476" id="-95569">
		<tag k="name" v="Prestholmen" />
		<tag k="place" v="islet" />
		<tag k="ssr:stedsnr" v="202619" />
	</node>
	<node lat="70.45444171737063" lon="30.926367425925648" id="-95577">
		<tag k="name" v="Galjegrunnen" />
		<tag k="natural" v="shoal" />
		<tag k="place" v="locality" />
		<tag k="ssr:stedsnr" v="208670" />
	</node>
	<node lat="70.23941116428374" lon="30.550950908747968" id="-95583">
		<tag k="name" v="Komagværnes" />
		<tag k="natural" v="cape" />
		<tag k="ssr:stedsnr" v="288059" />
	</node>
	<node lat="70.4395472741285" lon="30.872975776882498" id="-95585">
		<tag k="name" v="Næringsbukta" />
		<tag k="natural" v="bay" />
		<tag k="ssr:stedsnr" v="288968" />
	</node>
	<node lat="70.44077783434554" lon="30.85666746577398" id="-95586">
		<tag k="name" v="Prestnæringen" />
		<tag k="natural" v="cape" />
		<tag k="ssr:stedsnr" v="288969" />
	</node>
	<node lat="70.40033894906614" lon="31.014386777346463" id="-95588">
		<tag k="fixme" v="consider seamark:type=rock or natural=shoal" />
		<tag k="name" v="Stabben" />
		<tag k="place" v="islet" />
		<tag k="ssr:stedsnr" v="289560" />
	</node>
	<node lat="70.40524727849215" lon="31.06797562608874" id="-95591">
		<tag k="name" v="Skagodden" />
		<tag k="natural" v="cape" />
		<tag k="ssr:stedsnr" v="323589" />
	</node>
	<node lat="70.37530561857943" lon="31.083225592164187" id="-95600">
		<tag k="name" v="Engelsvika" />
		<tag k="natural" v="bay" />
		<tag k="ssr:stedsnr" v="330726" />
	</node>
	<node lat="70.24499449988168" lon="30.69798968700464" id="-95608">
		<tag k="name" v="Storkeila" />
		<tag k="natural" v="bay" />
		<tag k="ssr:stedsnr" v="349938" />
	</node>
	<node lat="70.24554728372429" lon="30.68940635246999" id="-95609">
		<tag k="name" v="Midtkeila" />
		<tag k="natural" v="bay" />
		<tag k="ssr:stedsnr" v="349939" />
	</node>
	<node lat="70.20816672263533" lon="30.60394528551268" id="-95611">
		<tag k="name" v="Litlgrunnen" />
		<tag k="natural" v="shoal" />
		<tag k="place" v="locality" />
		<tag k="ssr:stedsnr" v="357088" />
	</node>
	<node lat="70.2716306179151" lon="30.9561311749993" id="-95614">
		<tag k="name" v="Langkeila" />
		<tag k="natural" v="bay" />
		<tag k="ssr:stedsnr" v="383532" />
	</node>
	<node lat="70.39790284174009" lon="31.086747829399766" id="-95621">
		<tag k="alt_name" v="Svinøy" />
		<tag k="name" v="Svinøya" />
		<tag k="place" v="island" />
		<tag k="ssr:stedsnr" v="384581" />
	</node>
	<node lat="70.3785695026253" lon="31.032206200621374" id="-95623">
		<tag k="name" v="Sandbukta" />
		<tag k="natural" v="bay" />
		<tag k="ssr:stedsnr" v="384588" />
	</node>
	<node lat="70.38015005856421" lon="31.118606135163603" id="-95624">
		<tag k="alt_name" v="Hasselnes" />
		<tag k="name" v="Hasselneset" />
		<tag k="natural" v="cape" />
		<tag k="ssr:stedsnr" v="384590" />
	</node>
	<node lat="70.37806395366083" lon="31.078547819102006" id="-95625">
		<tag k="name" v="Engelsviktangen" />
		<tag k="natural" v="cape" />
		<tag k="ssr:stedsnr" v="384591" />
	</node>
	<node lat="70.39195283843097" lon="31.033286760378306" id="-95633">
		<tag k="name" v="Smelrorvalen" />
		<tag k="natural" v="bay" />
		<tag k="ssr:stedsnr" v="410537" />
	</node>
	<node lat="70.39022228404419" lon="31.033386762028247" id="-95636">
		<tag k="name" v="Smelrorfjæra" />
		<tag k="natural" v="bay" />
		<tag k="ssr:stedsnr" v="410974" />
	</node>
	<node lat="70.3897917250833" lon="31.071525624129304" id="-95638">
		<tag k="name" v="Sjulginvika" />
		<tag k="natural" v="bay" />
		<tag k="ssr:stedsnr" v="410977" />
	</node>
	<node lat="70.2592222873176" lon="30.842736806159625" id="-95641">
		<tag k="name" v="Grunnesodden" />
		<tag k="natural" v="cape" />
		<tag k="ssr:stedsnr" v="410924" />
	</node>
	<node lat="70.28113061478192" lon="30.99582005223162" id="-95645">
		<tag k="fixme" v="consider seamark:type=rock or natural=shoal" />
		<tag k="name" v="Thomasskjæret" />
		<tag k="place" v="islet" />
		<tag k="ssr:stedsnr" v="411775" />
	</node>
	<node lat="70.41236394898337" lon="31.00168123946639" id="-95654">
		<tag k="name" v="Kistmolla" />
		<tag k="natural" v="cape" />
		<tag k="ssr:stedsnr" v="445599" />
	</node>
	<node lat="70.34988617040062" lon="31.054336696797584" id="-95655">
		<tag k="alt_name" v="Svartnes, in" />
		<tag k="name" v="Indre Svartnes" />
		<tag k="natural" v="cape" />
		<tag k="ssr:stedsnr" v="445626" />
	</node>
	<node lat="70.48375003306245" lon="29.54015713483775" id="-95666">
		<tag k="name" v="Varangerhalvøya" />
		<tag k="name:fkv" v="Varenkinniemi" />
		<tag k="name:no" v="Varangerhalvøya" />
		<tag k="name:se" v="Várnjárga" />
		<tag k="natural" v="cape" />
		<tag k="ssr:stedsnr" v="506029" />
	</node>
	<node lat="70.38116394903378" lon="31.10050892492255" id="-95667">
		<tag k="name" v="Sandvikflua" />
		<tag k="natural" v="shoal" />
		<tag k="place" v="locality" />
		<tag k="ssr:stedsnr" v="511763" />
	</node>
	<node lat="70.39686672618654" lon="31.016056227441958" id="-95670">
		<tag k="name" v="Langfjæra" />
		<tag k="natural" v="beach" />
		<tag k="ssr:stedsnr" v="531568" />
	</node>
	<node lat="70.39279172856364" lon="31.112489475674934" id="-95673">
		<tag k="name" v="Seigrunnen" />
		<tag k="natural" v="shoal" />
		<tag k="place" v="locality" />
		<tag k="ssr:stedsnr" v="531964" />
	</node>
	<node lat="70.26540006554045" lon="30.93592285987356" id="-95677">
		<tag k="fixme" v="consider seamark:type=rock or natural=shoal" />
		<tag k="name" v="Svenskeskjæret" />
		<tag k="place" v="islet" />
		<tag k="ssr:stedsnr" v="565501" />
	</node>
	<node lat="70.3873750639931" lon="31.134156129666966" id="-95684">
		<tag k="name" v="Gambukta" />
		<tag k="natural" v="bay" />
		<tag k="ssr:stedsnr" v="566585" />
	</node>
	<node lat="70.2458111736862" lon="30.687117467415447" id="-95693">
		<tag k="name" v="Innerneset" />
		<tag k="natural" v="cape" />
		<tag k="ssr:stedsnr" v="591885" />
	</node>
	<node lat="70.431427828578" lon="30.742642532077415" id="-95699">
		<tag k="name" v="Langkeila" />
		<tag k="natural" v="bay" />
		<tag k="ssr:stedsnr" v="591941" />
	</node>
	<node lat="70.24913895065757" lon="30.64548973049728" id="-95700">
		<tag k="name" v="Storbukta" />
		<tag k="natural" v="bay" />
		<tag k="ssr:stedsnr" v="592346" />
	</node>
	<node lat="70.24610838752837" lon="30.609109186142273" id="-95701">
		<tag k="name" v="Tarebukta" />
		<tag k="natural" v="bay" />
		<tag k="ssr:stedsnr" v="592347" />
	</node>
	<node lat="70.37410283854831" lon="31.126803333324386" id="-95706">
		<tag k="name" v="Selerinakeila" />
		<tag k="natural" v="bay" />
		<tag k="ssr:stedsnr" v="592996" />
	</node>
	<node lat="70.37000006537157" lon="31.107581120948062" id="-95707">
		<tag k="name" v="Valen" />
		<tag k="natural" v="strait" />
		<tag k="ssr:stedsnr" v="592999" />
	</node>
	<node lat="70.26909728908122" lon="30.90282288101193" id="-95709">
		<tag k="alt_name" v="Løkvikneset" />
		<tag k="name" v="Laukvikneset" />
		<tag k="natural" v="cape" />
		<tag k="ssr:stedsnr" v="626542" />
	</node>
	<node lat="70.38390005829932" lon="31.034275626277374" id="-95710">
		<tag k="alt_name" v="Smellror, in" />
		<tag k="name" v="Indre Smellror" />
		<tag k="natural" v="cape" />
		<tag k="ssr:stedsnr" v="626617" />
	</node>
	<node lat="70.38777783604571" lon="31.154167223282684" id="-95711">
		<tag k="alt_name" v="Hornøy" />
		<tag k="name" v="Hornøya" />
		<tag k="place" v="island" />
		<tag k="ssr:stedsnr" v="626627" />
	</node>
	<node lat="70.25891117347227" lon="30.79097019099222" id="-95713">
		<tag k="alt_name" v="Svartneset" />
		<tag k="name" v="Svartnes" />
		<tag k="natural" v="cape" />
		<tag k="ssr:stedsnr" v="626585" />
	</node>
	<node lat="70.44656393614557" lon="30.725084224604498" id="-95714">
		<tag k="alt_name" v="Reinkalvvika, store" />
		<tag k="fixme" v="multiple name tags, choose one and add the other to alt_name" />
		<tag k="name" v="Store Reinkalvvika;Reinkalvvika" />
		<tag k="natural" v="bay" />
		<tag k="ssr:stedsnr" v="626925" />
	</node>
	<node lat="70.32889173288837" lon="31.05464225226139" id="-95718">
		<tag k="name" v="Stauran" />
		<tag k="natural" v="cape" />
		<tag k="ssr:stedsnr" v="627633" />
	</node>
	<node lat="70.23743339989832" lon="30.98810058449103" id="-95719">
		<tag k="fixme" v="consider seamark:type=rock or natural=shoal" />
		<tag k="name" v="Per Mikkelsengrunnen" />
		<tag k="place" v="islet" />
		<tag k="ssr:stedsnr" v="631680" />
	</node>
	<node lat="70.37912228452893" lon="31.148197755602713" id="-95721">
		<tag k="name" v="Hornøyflua" />
		<tag k="natural" v="shoal" />
		<tag k="place" v="locality" />
		<tag k="ssr:stedsnr" v="632758" />
	</node>
	<node lat="70.39634172508734" lon="31.026475660515967" id="-95722">
		<tag k="name" v="Løkvikkeila" />
		<tag k="natural" v="bay" />
		<tag k="ssr:stedsnr" v="652513" />
	</node>
	<node lat="70.28423339795516" lon="30.977797839737566" id="-95725">
		<tag k="name" v="Sandsenden" />
		<tag k="natural" v="bay" />
		<tag k="ssr:stedsnr" v="652991" />
	</node>
	<node lat="70.36700561960564" lon="31.106561678407868" id="-95728">
		<tag k="name" v="Kjerringræva" />
		<tag k="natural" v="strait" />
		<tag k="ssr:stedsnr" v="652951" />
	</node>
	<node lat="70.39736116677928" lon="31.021072887094522" id="-95739">
		<tag k="name" v="Langfjærnes" />
		<tag k="natural" v="cape" />
		<tag k="ssr:stedsnr" v="713543" />
	</node>
	<node lat="70.40068894449429" lon="31.077170057590724" id="-95745">
		<tag k="name" v="Rokeila" />
		<tag k="natural" v="bay" />
		<tag k="ssr:stedsnr" v="714455" />
	</node>
	<node lat="70.25556949997363" lon="30.723423014141645" id="-95751">
		<tag k="alt_name" v="Bukta" />
		<tag k="name" v="Langbubukta" />
		<tag k="natural" v="bay" />
		<tag k="ssr:stedsnr" v="748531" />
	</node>
	<node lat="70.40571394610879" lon="31.01065345973164" id="-95754">
		<tag k="alt_name" v="Vargholla" />
		<tag k="name" v="Vargholet" />
		<tag k="natural" v="bay" />
		<tag k="ssr:stedsnr" v="748600" />
	</node>
	<node lat="70.31760283769762" lon="31.05937279260219" id="-95761">
		<tag k="name" v="Nordvestkeila" />
		<tag k="natural" v="bay" />
		<tag k="ssr:stedsnr" v="748636" />
	</node>
	<node lat="70.40056950578347" lon="31.014408995286008" id="-95769">
		<tag k="name" v="Stabbkeila" />
		<tag k="natural" v="bay" />
		<tag k="ssr:stedsnr" v="774583" />
	</node>
	<node lat="70.38982228588374" lon="31.151733892035317" id="-95776">
		<tag k="name" v="Småsundan" />
		<tag k="natural" v="strait" />
		<tag k="ssr:stedsnr" v="774991" />
	</node>
	<node lat="70.2059472830967" lon="30.661214683169206" id="-95780">
		<tag k="name" v="Storgrunnen" />
		<tag k="natural" v="shoal" />
		<tag k="place" v="locality" />
		<tag k="ssr:stedsnr" v="782072" />
	</node>
	<node lat="70.28222783774405" lon="31.034803355144998" id="-95781">
		<tag k="alt_name" v="Oterholla" />
		<tag k="name" v="Oterhola" />
		<tag k="natural" v="bay" />
		<tag k="ssr:stedsnr" v="808480" />
	</node>
	<node lat="70.44165838826237" lon="30.874348021435466" id="-95785">
		<tag k="name" v="Prestnæringsbukta" />
		<tag k="natural" v="bay" />
		<tag k="ssr:stedsnr" v="809600" />
	</node>
	<node lat="70.21248061633833" lon="30.478423149267144" id="-95786">
		<tag k="name" v="Kvalnesbukta" />
		<tag k="natural" v="bay" />
		<tag k="ssr:stedsnr" v="809580" />
	</node>
	<node lat="70.38506950733097" lon="31.09979780281897" id="-95789">
		<tag k="alt_name" v="Tofteskitan" />
		<tag k="name" v="Toftskitan" />
		<tag k="natural" v="shoal" />
		<tag k="place" v="locality" />
		<tag k="ssr:stedsnr" v="815790" />
	</node>
	<node lat="70.37167228323686" lon="31.090331153862802" id="-95799">
		<tag k="name" v="Sunddammen" />
		<tag k="natural" v="bay" />
		<tag k="ssr:stedsnr" v="835995" />
	</node>
	<node lat="70.43613616546499" lon="30.728178678958702" id="-95801">
		<tag k="name" v="Kvannvikneset" />
		<tag k="natural" v="cape" />
		<tag k="ssr:stedsnr" v="835937" />
	</node>
	<node lat="70.32097783559986" lon="31.057517254276938" id="-95803">
		<tag k="name" v="Kvannvika" />
		<tag k="natural" v="bay" />
		<tag k="ssr:stedsnr" v="835958" />
	</node>
	<node lat="70.36383339717251" lon="31.11498946223751" id="-95806">
		<tag k="name" v="Gullringnes" />
		<tag k="natural" v="cape" />
		<tag k="ssr:stedsnr" v="835966" />
	</node>
	<node lat="70.23665561513282" lon="30.60970086111835" id="-95810">
		<tag k="name" v="Trollelvfluan" />
		<tag k="natural" v="shoal" />
		<tag k="place" v="locality" />
		<tag k="ssr:stedsnr" v="843092" />
	</node>
	<node lat="70.24096672332648" lon="30.525309242688138" id="-95811">
		<tag k="name" v="Komagværbukta" />
		<tag k="natural" v="bay" />
		<tag k="ssr:stedsnr" v="869534" />
	</node>
	<node lat="70.46092504991432" lon="30.734948110095104" id="-95815">
		<tag k="alt_name" v="Kvamhulnes" />
		<tag k="fixme" v="multiple name tags, choose one and add the other to alt_name" />
		<tag k="name" v="Kvamholnes;Blåsenberg" />
		<tag k="natural" v="cape" />
		<tag k="ssr:stedsnr" v="869909" />
	</node>
	<node lat="70.39284172268728" lon="31.031225655036376" id="-95819">
		<tag k="alt_name" v="Smellror, yt" />
		<tag k="name" v="Ytre Smellror" />
		<tag k="natural" v="cape" />
		<tag k="ssr:stedsnr" v="870587" />
	</node>
	<node lat="70.28445005996721" lon="30.979978389605527" id="-95821">
		<tag k="name" v="Sandsenden" />
		<tag k="natural" v="bay" />
		<tag k="ssr:stedsnr" v="874713" />
	</node>
	<node lat="70.26391951163798" lon="30.886197890791447" id="-95823">
		<tag k="fixme" v="consider seamark:type=rock or natural=shoal" />
		<tag k="name" v="Geitryggan" />
		<tag k="place" v="islet" />
		<tag k="ssr:stedsnr" v="935530" />
	</node>
	<node lat="70.39341117224038" lon="31.08865338942414" id="-95824">
		<tag k="alt_name" v="Svartuksen" />
		<tag k="name" v="Svartoksen" />
		<tag k="natural" v="shoal" />
		<tag k="place" v="locality" />
		<tag k="ssr:stedsnr" v="936758" />
	</node>
	<node lat="70.39278894516426" lon="31.082636707135766" id="-95833">
		<tag k="name" v="Store Svinvika" />
		<tag k="natural" v="bay" />
		<tag k="ssr:stedsnr" v="956563" />
	</node>
	<node lat="70.26693339676325" lon="30.87733124739828" id="-95836">
		<tag k="name" v="Varkeila" />
		<tag k="natural" v="bay" />
		<tag k="ssr:stedsnr" v="956954" />
	</node>
	<node lat="70.4298528326018" lon="30.738039774701168" id="-95838">
		<tag k="name" v="Frøkenhollbukta" />
		<tag k="natural" v="bay" />
		<tag k="ssr:stedsnr" v="956972" />
	</node>
	<node lat="70.36364172850455" lon="31.116197787348053" id="-95839">
		<tag k="name" v="Batteriet" />
		<tag k="place" v="islet" />
		<tag k="ssr:stedsnr" v="956976" />
	</node>
	<node lat="70.3892528387553" lon="31.042397861058035" id="-95841">
		<tag k="fixme" v="consider seamark:type=rock or natural=shoal" />
		<tag k="name" v="Holmskjæret" />
		<tag k="place" v="islet" />
		<tag k="ssr:stedsnr" v="956984" />
	</node>
</osm>
