<?xml version="1.0" encoding="UTF-8"?>
<<<<<<< HEAD
<osm version="0.6" generator="osmapis">
	<node lat="70.43628060830348" lon="30.704684230827556" id="-35559">
		<tag k="name" v="Persvarden" />
		<tag k="natural" v="hill" />
		<tag k="place" v="locality" />
		<tag k="ssr:stedsnr" v="20596" />
	</node>
	<node lat="70.31596672708336" lon="30.990892304184126" id="-35562">
		<tag k="name" v="Vassbotn" />
		<tag k="natural" v="valley" />
		<tag k="place" v="locality" />
		<tag k="ssr:stedsnr" v="46210" />
	</node>
	<node lat="70.43356672050784" lon="30.961689596745263" id="-35565">
		<tag k="name" v="Kavringsbergan" />
		<tag k="natural" v="hill" />
		<tag k="place" v="locality" />
		<tag k="ssr:stedsnr" v="46970" />
	</node>
	<node lat="70.3886583928131" lon="31.013106214411263" id="-35567">
		<tag k="name" v="Aksla" />
		<tag k="natural" v="hill" />
		<tag k="place" v="locality" />
		<tag k="ssr:stedsnr" v="46977" />
	</node>
	<node lat="70.37878617252605" lon="31.014695107800087" id="-35568">
		<tag k="name" v="Sikhaugen" />
=======
<osm generator="osmapis" version="0.6">
	<node id="-846336" lat="70.3952806147" lon="31.0059951155">
		<tag k="name" v="Blåbærlia" />
		<tag k="natural" v="slope" />
		<tag k="place" v="locality" />
		<tag k="ssr:stedsnr" v="652949" />
	</node>
	<node id="-846335" lat="70.4112028395" lon="31.0029756797">
		<tag k="name" v="Oterbergan" />
		<tag k="natural" v="hill" />
		<tag k="place" v="locality" />
		<tag k="ssr:stedsnr" v="652947" />
	</node>
	<node id="-845928" lat="70.3866861685" lon="31.0270923108">
		<tag k="name" v="Grønnhaugen" />
		<tag k="natural" v="hill" />
		<tag k="place" v="locality" />
		<tag k="ssr:stedsnr" v="471974" />
	</node>
	<node id="-846328" lat="70.2733250518" lon="30.4360259929">
		<tag k="fixme" v="consider natural=peak for the most distinct mountains in the district" />
		<tag k="name" v="Slaktefjellet - Šláktaduottar" />
		<tag k="name:no" v="Slaktefjellet" />
		<tag k="name:se" v="Šláktaduottar" />
>>>>>>> e1d4bc35ff8a6074a6f2e91616a996b547c36f15
		<tag k="natural" v="hill" />
		<tag k="old_name:se" v="Šlaktaduoddar" />
		<tag k="place" v="locality" />
<<<<<<< HEAD
		<tag k="ssr:stedsnr" v="46982" />
	</node>
	<node lat="70.28259172610257" lon="30.930572873347398" id="-35570">
		<tag k="name" v="Bråtan" />
		<tag k="place" v="locality" />
		<tag k="ssr:stedsnr" v="46988" />
	</node>
	<node lat="70.34305283982675" lon="31.01865339254183" id="-35576">
		<tag k="name" v="Skinnstakkvikraet" />
		<tag k="natural" v="hill" />
		<tag k="place" v="locality" />
		<tag k="ssr:stedsnr" v="107203" />
	</node>
	<node lat="70.36628617147382" lon="31.128706095928386" id="-35579">
		<tag k="name" v="Vårberget" />
		<tag k="natural" v="hill" />
		<tag k="place" v="locality" />
		<tag k="ssr:stedsnr" v="141615" />
	</node>
	<node lat="70.35931394688708" lon="30.867231303609078" id="-35580">
		<tag k="fixme" v="consider natural=peak for the most distinct mountains in the district" />
		<tag k="name" v="Grøhøgda - Stuorravárri" />
		<tag k="name:no" v="Grøhøgda" />
		<tag k="name:se" v="Stuorravárri" />
		<tag k="natural" v="hill" />
		<tag k="old_name:se" v="Stuorravarri" />
		<tag k="place" v="locality" />
		<tag k="ssr:stedsnr" v="141620" />
	</node>
	<node lat="70.38432783178939" lon="30.93142849989836" id="-35582">
		<tag k="name" v="Grøhøgda" />
=======
		<tag k="ssr:stedsnr" v="626936" />
	</node>
	<node id="-845908" lat="70.2664306109" lon="30.7686729848">
		<tag k="name" v="Svartnesbergan" />
		<tag k="natural" v="hill" />
		<tag k="place" v="locality" />
		<tag k="ssr:stedsnr" v="288910" />
	</node>
	<node id="-846322" lat="70.4117139471" lon="30.9837812615">
		<tag k="fixme" v="consider natural=peak for the most distinct mountains in the district" />
		<tag k="name" v="Kistefjellet" />
		<tag k="natural" v="hill" />
		<tag k="place" v="locality" />
		<tag k="ssr:stedsnr" v="626613" />
	</node>
	<node id="-846321" lat="70.3939278303" lon="30.7512258401">
		<tag k="fixme" v="consider natural=peak for the most distinct mountains in the district" />
		<tag k="name" v="Biesavuončohkka" />
		<tag k="name:se" v="Biesavuončohkka" />
		<tag k="natural" v="hill" />
		<tag k="old_name:se" v="Biesavuončåkka" />
		<tag k="place" v="locality" />
		<tag k="ssr:stedsnr" v="626611" />
	</node>
	<node id="-846315" lat="70.212222279" lon="30.4508176333">
		<tag k="fixme" v="consider natural=peak for the most distinct mountains in the district" />
		<tag k="name" v="Komaghalsen - Skáraskáidi" />
		<tag k="name:no" v="Komaghalsen" />
		<tag k="name:se" v="Skáraskáidi" />
>>>>>>> e1d4bc35ff8a6074a6f2e91616a996b547c36f15
		<tag k="natural" v="hill" />
		<tag k="old_name:se" v="Skaraskaidi" />
		<tag k="place" v="locality" />
<<<<<<< HEAD
		<tag k="ssr:stedsnr" v="141601" />
	</node>
	<node lat="70.44480005047063" lon="30.92502297606957" id="-35583">
		<tag k="name" v="Blodskythøgda" />
		<tag k="natural" v="hill" />
		<tag k="place" v="locality" />
		<tag k="ssr:stedsnr" v="141579" />
	</node>
	<node lat="70.2689750555432" lon="30.687484160812108" id="-35586">
		<tag k="fixme" v="consider natural=peak for the most distinct mountains in the district" />
		<tag k="loc_name" v="Kråktuva" />
		<tag k="name" v="Kråketuva" />
		<tag k="natural" v="hill" />
		<tag k="place" v="locality" />
		<tag k="ssr:stedsnr" v="262522" />
	</node>
	<node lat="70.33154172886378" lon="30.88340070998766" id="-35593">
		<tag k="fixme" v="consider natural=peak for the most distinct mountains in the district" />
		<tag k="name" v="Oksevasshøgda" />
		<tag k="natural" v="hill" />
		<tag k="place" v="locality" />
		<tag k="ssr:stedsnr" v="263631" />
	</node>
	<node lat="70.42930004668666" lon="30.65722316324772" id="-35597">
		<tag k="fixme" v="consider natural=peak for the most distinct mountains in the district" />
		<tag k="name" v="Kamhaugen" />
		<tag k="natural" v="hill" />
		<tag k="place" v="locality" />
		<tag k="ssr:stedsnr" v="202601" />
	</node>
	<node lat="70.34578061599237" lon="31.03807005323368" id="-35599">
		<tag k="name" v="Domsbergan" />
		<tag k="natural" v="hill" />
		<tag k="place" v="locality" />
		<tag k="ssr:stedsnr" v="228231" />
	</node>
	<node lat="70.32061394830254" lon="31.03616725302685" id="-35604">
		<tag k="name" v="Rundhaugen" />
		<tag k="natural" v="hill" />
		<tag k="place" v="locality" />
		<tag k="ssr:stedsnr" v="471947" />
	</node>
	<node lat="70.43173338683066" lon="30.890542430232315" id="-35605">
		<tag k="name" v="Næringshøgda" />
		<tag k="natural" v="hill" />
		<tag k="place" v="locality" />
		<tag k="ssr:stedsnr" v="471951" />
	</node>
	<node lat="70.36770839707718" lon="31.12127555318361" id="-35606">
		<tag k="name" v="Sloka" />
		<tag k="natural" v="slope" />
		<tag k="place" v="locality" />
		<tag k="ssr:stedsnr" v="471954" />
	</node>
	<node lat="70.4249528350384" lon="30.899267441043282" id="-35607">
		<tag k="name" v="Nerdalen" />
		<tag k="natural" v="valley" />
		<tag k="place" v="locality" />
		<tag k="ssr:stedsnr" v="471955" />
	</node>
	<node lat="70.25097227258495" lon="30.51329538195493" id="-35608">
		<tag k="name" v="Innerfloget" />
		<tag k="natural" v="cliff" />
		<tag k="ssr:stedsnr" v="456624" />
	</node>
	<node lat="70.33776671652984" lon="30.477695442256913" id="-35609">
		<tag k="name" v="Stuorát Lemetávži" />
		<tag k="name:se" v="Stuorát Lemetávži" />
		<tag k="natural" v="valley" />
		<tag k="old_name:se" v="Lemetavži, stuorat" />
		<tag k="place" v="locality" />
		<tag k="ssr:stedsnr" v="262945" />
	</node>
	<node lat="70.40978616969159" lon="30.96523959052857" id="-35613">
		<tag k="name" v="Bardvikhøgda" />
		<tag k="natural" v="hill" />
		<tag k="place" v="locality" />
		<tag k="ssr:stedsnr" v="263601" />
	</node>
	<node lat="70.2664306108632" lon="30.768672984763626" id="-35617">
		<tag k="name" v="Svartnesbergan" />
		<tag k="natural" v="hill" />
		<tag k="place" v="locality" />
		<tag k="ssr:stedsnr" v="288910" />
	</node>
	<node lat="70.38638339153655" lon="31.150525556448205" id="-35622">
		<tag k="name" v="Fuglefjellet" />
		<tag k="natural" v="hill" />
		<tag k="place" v="locality" />
		<tag k="ssr:stedsnr" v="289993" />
	</node>
	<node lat="70.42623338305356" lon="30.686648121823147" id="-35624">
		<tag k="name" v="Fanthaugen" />
		<tag k="natural" v="hill" />
		<tag k="place" v="locality" />
		<tag k="ssr:stedsnr" v="323572" />
	</node>
	<node lat="70.25331116766614" lon="30.693670258199912" id="-35628">
		<tag k="name" v="Langbuhalsen" />
		<tag k="natural" v="valley" />
=======
		<tag k="ssr:stedsnr" v="626535" />
	</node>
	<node id="-846310" lat="70.4315694959" lon="30.9357924042">
		<tag k="name" v="Oddevasshøgda" />
		<tag k="natural" v="hill" />
		<tag k="place" v="locality" />
		<tag k="ssr:stedsnr" v="592973" />
	</node>
	<node id="-846306" lat="70.3959278351" lon="31.0297728746">
		<tag k="name" v="Buhaugen" />
		<tag k="natural" v="hill" />
		<tag k="place" v="locality" />
		<tag k="ssr:stedsnr" v="592552" />
	</node>
	<node id="-846305" lat="70.3928667265" lon="31.0317728596">
		<tag k="name" v="Skolehaugen" />
		<tag k="natural" v="hill" />
		<tag k="place" v="locality" />
		<tag k="ssr:stedsnr" v="592551" />
	</node>
	<node id="-846302" lat="70.3088056206" lon="31.0012283831">
		<tag k="name" v="Lassebakkhøgda" />
		<tag k="natural" v="hill" />
		<tag k="place" v="locality" />
		<tag k="ssr:stedsnr" v="592216" />
	</node>
	<node id="-846301" lat="70.3273556186" lon="30.9704895524">
		<tag k="name" v="Domshøgdan" />
		<tag k="natural" v="hill" />
		<tag k="place" v="locality" />
		<tag k="ssr:stedsnr" v="592213" />
	</node>
	<node id="-846300" lat="70.2885306189" lon="30.9776478366">
		<tag k="name" v="Bankan" />
		<tag k="natural" v="slope" />
		<tag k="place" v="locality" />
		<tag k="ssr:stedsnr" v="591988" />
	</node>
	<node id="-846299" lat="70.2902556194" lon="31.0036144993">
		<tag k="name" v="Isaksenbakken" />
		<tag k="natural" v="hill" />
		<tag k="place" v="locality" />
		<tag k="ssr:stedsnr" v="591983" />
	</node>
	<node id="-846297" lat="70.422313941" lon="30.714131451">
		<tag k="name" v="Vesterelvdalen" />
		<tag k="natural" v="valley" />
		<tag k="place" v="locality" />
		<tag k="ssr:stedsnr" v="591933" />
	</node>
	<node id="-846296" lat="70.4237250536" lon="30.7525036412">
		<tag k="name" v="Varghaugen" />
		<tag k="natural" v="hill" />
		<tag k="place" v="locality" />
		<tag k="ssr:stedsnr" v="591931" />
	</node>
	<node id="-846294" lat="70.274013948" lon="30.8107229658">
		<tag k="name" v="Lillefloget" />
		<tag k="natural" v="hill" />
		<tag k="place" v="locality" />
		<tag k="ssr:stedsnr" v="591901" />
	</node>
	<node id="-846292" lat="70.2660472781" lon="30.7893896348">
		<tag k="name" v="Svartneshalsen" />
		<tag k="place" v="locality" />
		<tag k="ssr:stedsnr" v="591877" />
	</node>
	<node id="-845902" lat="70.2515528332" lon="30.5408287051">
		<tag k="name" v="Ytterfloget" />
		<tag k="natural" v="cliff" />
		<tag k="ssr:stedsnr" v="456618" />
	</node>
	<node id="-846289" lat="70.2433639404" lon="30.5053481496">
		<tag k="name" v="Bekkedalen - Ajankuru" />
		<tag k="name:fkv" v="Ajankuru" />
		<tag k="name:no" v="Bekkedalen" />
		<tag k="natural" v="valley" />
		<tag k="place" v="locality" />
		<tag k="ssr:stedsnr" v="591047" />
	</node>
	<node id="-846287" lat="70.2459833851" lon="30.548206468">
		<tag k="name" v="Bankan" />
		<tag k="place" v="locality" />
		<tag k="ssr:stedsnr" v="577580" />
	</node>
	<node id="-846276" lat="70.4391222789" lon="30.9078813345">
		<tag k="name" v="Næringshøgda" />
		<tag k="natural" v="hill" />
>>>>>>> e1d4bc35ff8a6074a6f2e91616a996b547c36f15
		<tag k="place" v="locality" />
		<tag k="ssr:stedsnr" v="565569" />
	</node>
<<<<<<< HEAD
	<node lat="70.43723060719857" lon="30.851464695612826" id="-35630">
		<tag k="name" v="Næringsbergan" />
		<tag k="natural" v="hill" />
		<tag k="place" v="locality" />
		<tag k="ssr:stedsnr" v="470945" />
	</node>
	<node lat="70.28694450616399" lon="31.005389471075137" id="-35631">
		<tag k="name" v="Hollabakken" />
		<tag k="natural" v="slope" />
		<tag k="place" v="locality" />
		<tag k="ssr:stedsnr" v="470982" />
	</node>
	<node lat="70.370208399062" lon="31.12606166078856" id="-35634">
		<tag k="name" v="Plana" />
		<tag k="natural" v="hill" />
		<tag k="place" v="locality" />
		<tag k="ssr:stedsnr" v="472000" />
	</node>
	<node lat="70.40775283313427" lon="30.903817414045673" id="-35636">
		<tag k="fixme" v="consider natural=peak for the most distinct mountains in the district" />
		<tag k="name" v="Dalraet" />
		<tag k="natural" v="hill" />
		<tag k="place" v="locality" />
		<tag k="ssr:stedsnr" v="350925" />
	</node>
	<node lat="70.41197505230478" lon="30.764634169919763" id="-35637">
		<tag k="fixme" v="consider natural=peak for the most distinct mountains in the district" />
		<tag k="name" v="Tverrdalshøgda" />
		<tag k="natural" v="hill" />
		<tag k="place" v="locality" />
		<tag k="ssr:stedsnr" v="350938" />
	</node>
	<node lat="70.35661394266923" lon="30.71049528849042" id="-35641">
		<tag k="alt_name:no" v="Jårboaivi, store" />
		<tag k="fixme" v="consider natural=peak for the most distinct mountains in the district" />
		<tag k="loc_name:se" v="Jorboaivi" />
		<tag k="name" v="Store Jårboaivi" />
		<tag k="name:no" v="Store Jårboaivi" />
		<tag k="natural" v="hill" />
		<tag k="place" v="locality" />
		<tag k="ssr:stedsnr" v="384596" />
	</node>
	<node lat="70.35938894642806" lon="30.769523033782583" id="-35642">
		<tag k="alt_name" v="Jårboaivi, l" />
		<tag k="fixme" v="consider natural=peak for the most distinct mountains in the district" />
		<tag k="name" v="Lille Jårboaivi" />
		<tag k="natural" v="hill" />
		<tag k="place" v="locality" />
		<tag k="ssr:stedsnr" v="384598" />
	</node>
	<node lat="70.39950283832117" lon="31.004556224979602" id="-35645">
		<tag k="fixme" v="consider natural=peak for the most distinct mountains in the district" />
		<tag k="name" v="Klokkarhaugen" />
		<tag k="natural" v="hill" />
		<tag k="place" v="locality" />
		<tag k="ssr:stedsnr" v="388644" />
	</node>
	<node lat="70.41042228037034" lon="31.000522904558615" id="-35647">
		<tag k="name" v="Urhaugen" />
		<tag k="natural" v="hill" />
		<tag k="place" v="locality" />
		<tag k="ssr:stedsnr" v="410948" />
	</node>
	<node lat="70.25155283318298" lon="30.540828705106215" id="-35653">
		<tag k="name" v="Ytterfloget" />
		<tag k="natural" v="cliff" />
		<tag k="ssr:stedsnr" v="456618" />
	</node>
	<node lat="70.31826117191733" lon="30.968947873702803" id="-35656">
		<tag k="name" v="Fosseraet" />
		<tag k="natural" v="hill" />
		<tag k="place" v="locality" />
		<tag k="ssr:stedsnr" v="471202" />
	</node>
	<node lat="70.38668616845553" lon="31.027092310754472" id="-35659">
		<tag k="name" v="Grønnhaugen" />
		<tag k="natural" v="hill" />
		<tag k="place" v="locality" />
		<tag k="ssr:stedsnr" v="471974" />
	</node>
	<node lat="70.29649726403954" lon="30.074115119059794" id="-35664">
		<tag k="name" v="Grythaugen - Stuorra Ruitu - Patatunturi" />
		<tag k="name:fkv" v="Patatunturi" />
		<tag k="name:no" v="Grythaugen" />
		<tag k="name:se" v="Stuorra Ruitu" />
=======
	<node id="-846274" lat="70.266511175" lon="30.7589618749">
		<tag k="name" v="Svartneshaugen" />
		<tag k="natural" v="hill" />
		<tag k="place" v="locality" />
		<tag k="ssr:stedsnr" v="565487" />
	</node>
	<node id="-846272" lat="70.4280556075" lon="30.7415675397">
		<tag k="name" v="Store Frøkenholla" />
		<tag k="natural" v="valley" />
		<tag k="place" v="locality" />
		<tag k="ssr:stedsnr" v="531933" />
	</node>
	<node id="-846271" lat="70.2789167246" lon="30.9715811761">
		<tag k="name" v="Sletta" />
		<tag k="place" v="locality" />
		<tag k="ssr:stedsnr" v="532000" />
	</node>
	<node id="-846268" lat="70.3725083945" lon="31.0147339906">
		<tag k="name" v="Sanden" />
		<tag k="place" v="locality" />
		<tag k="ssr:stedsnr" v="531987" />
	</node>
	<node id="-846267" lat="70.2892445102" lon="31.0042144791">
		<tag k="name" v="Øvre Hollabakken" />
		<tag k="natural" v="slope" />
		<tag k="place" v="locality" />
		<tag k="ssr:stedsnr" v="531986" />
	</node>
	<node id="-846265" lat="70.4134194983" lon="30.9919090097">
		<tag k="name" v="Kista" />
		<tag k="natural" v="hill" />
		<tag k="place" v="locality" />
		<tag k="ssr:stedsnr" v="531980" />
	</node>
	<node id="-846259" lat="70.2831667268" lon="31.0414005663">
		<tag k="name" v="Varen" />
		<tag k="natural" v="slope" />
		<tag k="place" v="locality" />
		<tag k="ssr:stedsnr" v="411784" />
	</node>
	<node id="-845896" lat="70.2890806198" lon="30.9288645525">
		<tag k="fixme" v="multiple name tags, choose one and add the other to alt_name" />
		<tag k="name" v="Olskardhøgda;Olskarheia" />
		<tag k="natural" v="hill" />
		<tag k="place" v="locality" />
		<tag k="ssr:stedsnr" v="444600" />
	</node>
	<node id="-846254" lat="70.2892583976" lon="30.9829256194">
		<tag k="name" v="Løkthusbakken" />
		<tag k="natural" v="slope" />
		<tag k="place" v="locality" />
		<tag k="ssr:stedsnr" v="410986" />
	</node>
	<node id="-846249" lat="70.4104222804" lon="31.0005229046">
		<tag k="name" v="Urhaugen" />
		<tag k="natural" v="hill" />
		<tag k="place" v="locality" />
		<tag k="ssr:stedsnr" v="410948" />
	</node>
	<node id="-846248" lat="70.3775250584" lon="30.9808728907">
		<tag k="fixme" v="consider natural=peak for the most distinct mountains in the district" />
		<tag k="name" v="Samyrraet" />
		<tag k="natural" v="hill" />
		<tag k="place" v="locality" />
		<tag k="ssr:stedsnr" v="410937" />
	</node>
	<node id="-846246" lat="70.3735111714" lon="30.9779617759">
		<tag k="name" v="Bergestokken" />
		<tag k="natural" v="hill" />
		<tag k="place" v="locality" />
		<tag k="ssr:stedsnr" v="410927" />
	</node>
	<node id="-846244" lat="70.2858389465" lon="30.8477229494">
		<tag k="fixme" v="consider natural=peak for the most distinct mountains in the district" />
		<tag k="name" v="Mellomfjellet" />
		<tag k="natural" v="hill" />
		<tag k="place" v="locality" />
		<tag k="ssr:stedsnr" v="410917" />
	</node>
	<node id="-846242" lat="70.3501972818" lon="31.009772844">
		<tag k="fixme" v="consider natural=peak for the most distinct mountains in the district" />
		<tag k="name" v="Raet" />
>>>>>>> e1d4bc35ff8a6074a6f2e91616a996b547c36f15
		<tag k="natural" v="hill" />
		<tag k="old_name:se" v="Ruito, stuorra" />
		<tag k="place" v="locality" />
<<<<<<< HEAD
		<tag k="ssr:stedsnr" v="505910" />
	</node>
	<node lat="70.41341949830118" lon="30.99190900971254" id="-35671">
		<tag k="name" v="Kista" />
		<tag k="natural" v="hill" />
		<tag k="place" v="locality" />
		<tag k="ssr:stedsnr" v="531980" />
	</node>
	<node lat="70.28924451017076" lon="31.004214479073685" id="-35673">
		<tag k="name" v="Øvre Hollabakken" />
		<tag k="natural" v="slope" />
		<tag k="place" v="locality" />
		<tag k="ssr:stedsnr" v="531986" />
	</node>
	<node lat="70.37250839450084" lon="31.014733990574854" id="-35674">
		<tag k="name" v="Sanden" />
		<tag k="place" v="locality" />
		<tag k="ssr:stedsnr" v="531987" />
	</node>
	<node lat="70.25948338612626" lon="30.596898094605425" id="-35686">
		<tag k="name" v="Mikkelhifloget" />
		<tag k="natural" v="hill" />
		<tag k="place" v="locality" />
		<tag k="ssr:stedsnr" v="570253" />
	</node>
	<node lat="70.32735561862643" lon="30.970489552361762" id="-35690">
		<tag k="name" v="Domshøgdan" />
		<tag k="natural" v="hill" />
		<tag k="place" v="locality" />
		<tag k="ssr:stedsnr" v="592213" />
	</node>
	<node lat="70.30880562058061" lon="31.001228383124275" id="-35691">
		<tag k="name" v="Lassebakkhøgda" />
		<tag k="natural" v="hill" />
		<tag k="place" v="locality" />
		<tag k="ssr:stedsnr" v="592216" />
	</node>
	<node lat="70.39286672650366" lon="31.031772859581327" id="-35692">
		<tag k="name" v="Skolehaugen" />
		<tag k="natural" v="hill" />
		<tag k="place" v="locality" />
		<tag k="ssr:stedsnr" v="592551" />
	</node>
	<node lat="70.39592783510375" lon="31.029772874644262" id="-35693">
		<tag k="name" v="Buhaugen" />
		<tag k="natural" v="hill" />
		<tag k="place" v="locality" />
		<tag k="ssr:stedsnr" v="592552" />
	</node>
	<node lat="70.25150283569823" lon="30.52597592017454" id="-35696">
		<tag k="name" v="Komagfloget" />
		<tag k="natural" v="cliff" />
		<tag k="ssr:stedsnr" v="698594" />
	</node>
	<node lat="70.25511116419452" lon="30.53116202762766" id="-35697">
		<tag k="name" v="Langedalen" />
		<tag k="natural" v="valley" />
		<tag k="place" v="locality" />
		<tag k="ssr:stedsnr" v="698596" />
	</node>
	<node lat="70.39392783034134" lon="30.751225840050996" id="-35700">
		<tag k="fixme" v="consider natural=peak for the most distinct mountains in the district" />
		<tag k="name" v="Biesavuončohkka" />
		<tag k="name:se" v="Biesavuončohkka" />
=======
		<tag k="ssr:stedsnr" v="410222" />
	</node>
	<node id="-846237" lat="70.2530278296" lon="30.544375918">
		<tag k="name" v="Rennebakken" />
		<tag k="natural" v="slope" />
		<tag k="place" v="locality" />
		<tag k="ssr:stedsnr" v="395647" />
	</node>
	<node id="-846235" lat="70.3995028383" lon="31.004556225">
		<tag k="fixme" v="consider natural=peak for the most distinct mountains in the district" />
		<tag k="name" v="Klokkarhaugen" />
		<tag k="natural" v="hill" />
		<tag k="ssr:stedsnr" v="388644" />
	</node>
	<node id="-846232" lat="70.3593889464" lon="30.7695230338">
		<tag k="alt_name" v="Jårboaivi, l" />
		<tag k="fixme" v="consider natural=peak for the most distinct mountains in the district" />
		<tag k="name" v="Lille Jårboaivi" />
		<tag k="natural" v="hill" />
		<tag k="place" v="locality" />
		<tag k="ssr:stedsnr" v="384598" />
	</node>
	<node id="-846231" lat="70.3566139427" lon="30.7104952885">
		<tag k="alt_name:no" v="Jårboaivi, store" />
		<tag k="fixme" v="consider natural=peak for the most distinct mountains in the district" />
		<tag k="loc_name:se" v="Jorboaivi" />
		<tag k="name" v="Store Jårboaivi" />
		<tag k="name:no" v="Store Jårboaivi" />
		<tag k="natural" v="hill" />
		<tag k="place" v="locality" />
		<tag k="ssr:stedsnr" v="384596" />
	</node>
	<node id="-846218" lat="70.2823611707" lon="31.0203811468">
		<tag k="name" v="Ravnfloget" />
		<tag k="natural" v="hill" />
		<tag k="place" v="locality" />
		<tag k="ssr:stedsnr" v="383530" />
	</node>
	<node id="-846215" lat="70.3994889445" lon="31.0668700582">
		<tag k="name" v="Ravnfloget" />
		<tag k="natural" v="hill" />
		<tag k="place" v="locality" />
		<tag k="ssr:stedsnr" v="356720" />
	</node>
	<node id="-846213" lat="70.4440750559" lon="30.8910257931">
		<tag k="name" v="Silbergan" />
		<tag k="natural" v="hill" />
		<tag k="place" v="locality" />
		<tag k="ssr:stedsnr" v="349979" />
	</node>
	<node id="-846208" lat="70.2658500569" lon="30.6996980344">
		<tag k="name" v="Langbubergan" />
		<tag k="natural" v="hill" />
		<tag k="place" v="locality" />
		<tag k="ssr:stedsnr" v="349933" />
	</node>
	<node id="-846207" lat="70.3364250573" lon="31.0327422703">
		<tag k="name" v="Øverdomen" />
		<tag k="natural" v="hill" />
		<tag k="place" v="locality" />
		<tag k="ssr:stedsnr" v="349249" />
	</node>
	<node id="-846202" lat="70.2926556146" lon="30.9859367282">
		<tag k="alt_name" v="Svenskesteinan" />
		<tag k="name" v="Kamman" />
>>>>>>> e1d4bc35ff8a6074a6f2e91616a996b547c36f15
		<tag k="natural" v="hill" />
		<tag k="old_name:se" v="Biesavuončåkka" />
		<tag k="place" v="locality" />
<<<<<<< HEAD
		<tag k="ssr:stedsnr" v="626611" />
	</node>
	<node lat="70.4117139471395" lon="30.983781261492936" id="-35701">
		<tag k="fixme" v="consider natural=peak for the most distinct mountains in the district" />
		<tag k="name" v="Kistefjellet" />
		<tag k="natural" v="hill" />
		<tag k="place" v="locality" />
		<tag k="ssr:stedsnr" v="626613" />
	</node>
	<node lat="70.26887783753472" lon="30.73706188574498" id="-35707">
		<tag k="name" v="Langbudalen" />
		<tag k="natural" v="valley" />
		<tag k="place" v="locality" />
		<tag k="ssr:stedsnr" v="652888" />
	</node>
	<node lat="70.3206833941639" lon="31.019011720997852" id="-35709">
		<tag k="name" v="Grønnsakhaugen" />
		<tag k="natural" v="hill" />
		<tag k="place" v="locality" />
		<tag k="ssr:stedsnr" v="653942" />
	</node>
	<node lat="70.4016750550606" lon="30.836998008651047" id="-35712">
		<tag k="fixme" v="consider natural=peak for the most distinct mountains in the district" />
		<tag k="name" v="Langvasshøgda" />
		<tag k="natural" v="hill" />
		<tag k="place" v="locality" />
		<tag k="ssr:stedsnr" v="687608" />
	</node>
	<node lat="70.41623894044707" lon="30.81544247200682" id="-35714">
		<tag k="alt_name" v="Hestmannen" />
		<tag k="fixme" v="multiple name tags, choose one and add the other to alt_name; consider natural=peak for the most distinct mountains in the district" />
		<tag k="name" v="Hestmanhøgda;Hestman" />
		<tag k="natural" v="hill" />
		<tag k="place" v="locality" />
		<tag k="ssr:stedsnr" v="687598" />
	</node>
	<node lat="70.24298616635673" lon="30.51720091311209" id="-35715">
		<tag k="name" v="Komagskjæringa" />
		<tag k="natural" v="valley" />
		<tag k="place" v="locality" />
		<tag k="ssr:stedsnr" v="895052" />
	</node>
	<node lat="70.43000283105992" lon="30.74554254122919" id="-35717">
		<tag k="name" v="Langkeilhaugen" />
		<tag k="natural" v="hill" />
		<tag k="place" v="locality" />
		<tag k="ssr:stedsnr" v="895929" />
	</node>
	<node lat="70.43060004715176" lon="30.760550866945877" id="-35718">
		<tag k="name" v="Bukkemolla" />
		<tag k="place" v="locality" />
		<tag k="ssr:stedsnr" v="895934" />
	</node>
	<node lat="70.37271672326067" lon="31.123970010586255" id="-35723">
		<tag k="name" v="Kvalryggen" />
		<tag k="natural" v="hill" />
		<tag k="place" v="locality" />
		<tag k="ssr:stedsnr" v="896996" />
	</node>
	<node lat="70.37065561346056" lon="31.116850564200526" id="-35724">
		<tag k="name" v="Klondyke" />
		<tag k="natural" v="hill" />
		<tag k="place" v="locality" />
		<tag k="ssr:stedsnr" v="896998" />
	</node>
	<node lat="70.37168061728603" lon="31.122022771248727" id="-35725">
		<tag k="name" v="Rødmoen" />
		<tag k="place" v="locality" />
		<tag k="ssr:stedsnr" v="897000" />
	</node>
	<node lat="70.28713617675096" lon="31.01016448379673" id="-35728">
		<tag k="name" v="Nedre Hollabakken" />
		<tag k="natural" v="slope" />
		<tag k="place" v="locality" />
		<tag k="ssr:stedsnr" v="713987" />
	</node>
	<node lat="70.38777505899907" lon="31.025942311288656" id="-35731">
		<tag k="name" v="Bratta" />
		<tag k="natural" v="slope" />
		<tag k="place" v="locality" />
		<tag k="ssr:stedsnr" v="714998" />
	</node>
	<node lat="70.25895005743943" lon="30.619798091242206" id="-35732">
		<tag k="name" v="Smellrorbergan" />
		<tag k="natural" v="hill" />
		<tag k="place" v="locality" />
		<tag k="ssr:stedsnr" v="904086" />
	</node>
	<node lat="70.3246472807692" lon="31.014122845068794" id="-35733">
		<tag k="name" v="Votteskarhøgdan" />
		<tag k="natural" v="hill" />
		<tag k="place" v="locality" />
		<tag k="ssr:stedsnr" v="228955" />
	</node>
	<node lat="70.2765750675562" lon="30.955939516252496" id="-35736">
		<tag k="alt_name" v="Mariahaug" />
		<tag k="name" v="Marjahaugen" />
		<tag k="natural" v="hill" />
		<tag k="place" v="locality" />
		<tag k="ssr:stedsnr" v="753658" />
	</node>
	<node lat="70.39791117147236" lon="30.997381231885782" id="-35740">
		<tag k="name" v="Øvre Klokkerhaugen" />
		<tag k="natural" v="hill" />
		<tag k="place" v="locality" />
		<tag k="ssr:stedsnr" v="774955" />
	</node>
	<node lat="70.40928616335833" lon="30.789781376079883" id="-35744">
		<tag k="name" v="Østerdalen" />
		<tag k="natural" v="valley" />
		<tag k="place" v="locality" />
		<tag k="ssr:stedsnr" v="775956" />
	</node>
	<node lat="70.40558894724876" lon="30.988497922063303" id="-35746">
		<tag k="name" v="Storsteinhøgda" />
		<tag k="natural" v="hill" />
		<tag k="place" v="locality" />
		<tag k="ssr:stedsnr" v="809606" />
	</node>
	<node lat="70.2520833887303" lon="30.640448069170404" id="-35749">
		<tag k="name" v="Mikkelhisletta" />
		<tag k="place" v="locality" />
		<tag k="ssr:stedsnr" v="809541" />
	</node>
	<node lat="70.27017228176392" lon="30.865456249648165" id="-35757">
		<tag k="name" v="Finnkjerka" />
		<tag k="natural" v="hill" />
		<tag k="place" v="locality" />
		<tag k="ssr:stedsnr" v="930537" />
	</node>
	<node lat="70.29026393753868" lon="30.22061503257547" id="-35765">
		<tag k="name" v="Første porten - Stuorra Rohči - Kumajoen portti" />
		<tag k="name:fkv" v="Kumajoen portti" />
		<tag k="name:no" v="Første porten" />
		<tag k="name:se" v="Stuorra Rohči" />
		<tag k="natural" v="valley" />
		<tag k="old_name:se" v="Råčči, stuorra" />
		<tag k="place" v="locality" />
		<tag k="ssr:stedsnr" v="930916" />
	</node>
	<node lat="70.32482227055405" lon="30.403520488336646" id="-35766">
		<tag k="fixme" v="consider natural=peak for the most distinct mountains in the district" />
		<tag k="name" v="Dommačohkka" />
		<tag k="name:se" v="Dommačohkka" />
=======
		<tag k="ssr:stedsnr" v="323641" />
	</node>
	<node id="-846201" lat="70.3030722853" lon="31.0073978355">
		<tag k="alt_name" v="Lassebakkan" />
		<tag k="name" v="Lassebakken" />
		<tag k="natural" v="slope" />
		<tag k="place" v="locality" />
		<tag k="ssr:stedsnr" v="323638" />
	</node>
	<node id="-846200" lat="70.2872278416" lon="31.0271061494">
		<tag k="fixme" v="consider natural=peak for the most distinct mountains in the district" />
		<tag k="name" v="Kibergsfjellet" />
		<tag k="natural" v="hill" />
		<tag k="place" v="locality" />
		<tag k="ssr:stedsnr" v="323637" />
	</node>
	<node id="-846199" lat="70.2896000633" lon="30.9677506344">
		<tag k="name" v="Omersnasen" />
		<tag k="natural" v="hill" />
		<tag k="place" v="locality" />
		<tag k="ssr:stedsnr" v="323636" />
	</node>
	<node id="-846191" lat="70.4262333831" lon="30.6866481218">
		<tag k="name" v="Fanthaugen" />
		<tag k="natural" v="hill" />
		<tag k="place" v="locality" />
		<tag k="ssr:stedsnr" v="323572" />
	</node>
	<node id="-846190" lat="70.2826528414" lon="30.9520228674">
		<tag k="name" v="Skjørbybakken" />
		<tag k="natural" v="slope" />
		<tag k="place" v="locality" />
		<tag k="ssr:stedsnr" v="323515" />
	</node>
	<node id="-846189" lat="70.2503361608" lon="30.4951565057">
		<tag k="name" v="Hardtorvbakkan" />
		<tag k="natural" v="slope" />
		<tag k="place" v="locality" />
		<tag k="ssr:stedsnr" v="213661" />
	</node>
	<node id="-846185" lat="70.252094498" lon="30.619136978">
		<tag k="name" v="Mikkelhiet" />
		<tag k="natural" v="slope" />
		<tag k="place" v="locality" />
		<tag k="ssr:stedsnr" v="206296" />
	</node>
	<node id="-846181" lat="70.3155861704" lon="30.8552507327">
		<tag k="name" v="Langdalen" />
		<tag k="natural" v="valley" />
		<tag k="place" v="locality" />
		<tag k="ssr:stedsnr" v="202638" />
	</node>
	<node id="-846177" lat="70.4293000467" lon="30.6572231632">
		<tag k="fixme" v="consider natural=peak for the most distinct mountains in the district" />
		<tag k="name" v="Kamhaugen" />
		<tag k="natural" v="hill" />
		<tag k="place" v="locality" />
		<tag k="ssr:stedsnr" v="202601" />
	</node>
	<node id="-846170" lat="70.2924083966" lon="31.0447394598">
		<tag k="alt_name" v="Skyttarbergan" />
		<tag k="fixme" v="consider natural=peak for the most distinct mountains in the district" />
		<tag k="name" v="Skytterbergan" />
		<tag k="natural" v="hill" />
		<tag k="place" v="locality" />
		<tag k="ssr:stedsnr" v="202516" />
	</node>
	<node id="-846165" lat="70.4113861681" lon="30.8943952016">
		<tag k="alt_name" v="Øverdalen" />
		<tag k="name" v="Øvre Prestnæringsdalen" />
		<tag k="natural" v="valley" />
		<tag k="place" v="locality" />
		<tag k="ssr:stedsnr" v="168943" />
	</node>
	<node id="-846161" lat="70.2724333949" lon="30.8625479108">
		<tag k="name" v="Strupen" />
		<tag k="natural" v="valley" />
		<tag k="place" v="locality" />
		<tag k="ssr:stedsnr" v="167950" />
	</node>
	<node id="-846157" lat="70.2649389441" lon="30.7233480162">
		<tag k="name" v="Langbufloget" />
		<tag k="natural" v="hill" />
		<tag k="place" v="locality" />
		<tag k="ssr:stedsnr" v="167447" />
	</node>
	<node id="-846149" lat="70.267013936" lon="30.2066233561">
		<tag k="fixme" v="consider natural=peak for the most distinct mountains in the district" />
		<tag k="name" v="Cavnnoaivi" />
		<tag k="name:se" v="Cavnnoaivi" />
		<tag k="natural" v="hill" />
		<tag k="old_name:se" v="Cavnoaivi" />
		<tag k="place" v="locality" />
		<tag k="ssr:stedsnr" v="141904" />
	</node>
	<node id="-846147" lat="70.3593139469" lon="30.8672313036">
		<tag k="fixme" v="consider natural=peak for the most distinct mountains in the district" />
		<tag k="name" v="Grøhøgda - Stuorravárri" />
		<tag k="name:no" v="Grøhøgda" />
		<tag k="name:se" v="Stuorravárri" />
		<tag k="natural" v="hill" />
		<tag k="old_name:se" v="Stuorravarri" />
		<tag k="place" v="locality" />
		<tag k="ssr:stedsnr" v="141620" />
	</node>
	<node id="-846146" lat="70.3662861715" lon="31.1287060959">
		<tag k="name" v="Vårberget" />
		<tag k="natural" v="hill" />
		<tag k="place" v="locality" />
		<tag k="ssr:stedsnr" v="141615" />
	</node>
	<node id="-846144" lat="70.3843278318" lon="30.9314284999">
		<tag k="name" v="Grøhøgda" />
		<tag k="natural" v="hill" />
		<tag k="place" v="locality" />
		<tag k="ssr:stedsnr" v="141601" />
	</node>
	<node id="-846142" lat="70.4448000505" lon="30.9250229761">
		<tag k="name" v="Blodskythøgda" />
		<tag k="natural" v="hill" />
		<tag k="place" v="locality" />
		<tag k="ssr:stedsnr" v="141579" />
	</node>
	<node id="-846132" lat="70.3900556167" lon="31.1182227891">
		<tag k="name" v="Kvalvikhaugen" />
		<tag k="natural" v="hill" />
		<tag k="place" v="locality" />
		<tag k="ssr:stedsnr" v="107959" />
	</node>
	<node id="-846131" lat="70.4014111667" lon="31.0104284496">
		<tag k="name" v="Varghollhaugen" />
		<tag k="natural" v="hill" />
		<tag k="place" v="locality" />
		<tag k="ssr:stedsnr" v="107957" />
	</node>
	<node id="-846128" lat="70.4274500526" lon="30.7287036502">
		<tag k="name" v="Lille Frøkenholla" />
		<tag k="natural" v="valley" />
		<tag k="place" v="locality" />
		<tag k="ssr:stedsnr" v="107937" />
	</node>
	<node id="-846116" lat="70.3844722754" lon="30.6473759165">
		<tag k="fixme" v="consider natural=peak for the most distinct mountains in the district" />
		<tag k="name" v="Ovllándorčohkka" />
		<tag k="name:se" v="Ovllándorčohkka" />
		<tag k="natural" v="hill" />
		<tag k="old_name:se" v="Åvlandurčåkka" />
		<tag k="place" v="locality" />
		<tag k="ssr:stedsnr" v="81614" />
	</node>
	<node id="-846115" lat="70.33961394" lon="30.5322731973">
		<tag k="name" v="Uhcit Lemetávži" />
		<tag k="name:se" v="Uhcit Lemetávži" />
		<tag k="natural" v="valley" />
		<tag k="old_name:se" v="Lemetavži, uccit" />
		<tag k="place" v="locality" />
		<tag k="ssr:stedsnr" v="80943" />
	</node>
	<node id="-846111" lat="70.2825917261" lon="30.9305728733">
		<tag k="name" v="Bråtan" />
		<tag k="place" v="locality" />
		<tag k="ssr:stedsnr" v="46988" />
	</node>
	<node id="-846109" lat="70.3787861725" lon="31.0146951078">
		<tag k="name" v="Sikhaugen" />
		<tag k="natural" v="hill" />
		<tag k="place" v="locality" />
		<tag k="ssr:stedsnr" v="46982" />
	</node>
	<node id="-846108" lat="70.3886583928" lon="31.0131062144">
		<tag k="name" v="Aksla" />
>>>>>>> e1d4bc35ff8a6074a6f2e91616a996b547c36f15
		<tag k="natural" v="hill" />
		<tag k="old_name:se" v="Dåmmačåkka" />
		<tag k="place" v="locality" />
<<<<<<< HEAD
		<tag k="ssr:stedsnr" v="930924" />
	</node>
	<node lat="70.27272781149783" lon="29.40487656419901" id="-35770">
		<tag k="fixme" v="consider natural=peak for the most distinct mountains in the district" />
		<tag k="name" v="Urfjellet - Jiessavárri - Kivitunturi" />
		<tag k="name:fkv" v="Kivitunturi" />
		<tag k="name:no" v="Urfjellet" />
		<tag k="name:se" v="Jiessavárri" />
=======
		<tag k="ssr:stedsnr" v="46977" />
	</node>
	<node id="-846106" lat="70.4335667205" lon="30.9616895967">
		<tag k="name" v="Kavringsbergan" />
>>>>>>> e1d4bc35ff8a6074a6f2e91616a996b547c36f15
		<tag k="natural" v="hill" />
		<tag k="old_name:se" v="Jiessavarri" />
		<tag k="place" v="locality" />
<<<<<<< HEAD
		<tag k="ssr:stedsnr" v="875982" />
	</node>
	<node lat="70.4364611628058" lon="30.71014534352909" id="-35774">
		<tag k="name" v="Vesterdalshøgda" />
		<tag k="natural" v="hill" />
		<tag k="place" v="locality" />
		<tag k="ssr:stedsnr" v="895912" />
	</node>
	<node lat="70.26547506544217" lon="30.86283402013231" id="-35775">
		<tag k="name" v="Humpen" />
		<tag k="natural" v="hill" />
		<tag k="place" v="locality" />
		<tag k="ssr:stedsnr" v="895917" />
	</node>
	<node lat="70.29636117662264" lon="30.988378397171797" id="-35792">
		<tag k="fixme" v="consider natural=peak for the most distinct mountains in the district" />
		<tag k="name" v="Svenskeraet" />
		<tag k="natural" v="hill" />
		<tag k="place" v="locality" />
		<tag k="ssr:stedsnr" v="956993" />
	</node>
	<node lat="70.38958894563187" lon="31.134808891795704" id="-35793">
		<tag k="name" v="Hygga" />
		<tag k="natural" v="slope" />
		<tag k="place" v="locality" />
		<tag k="ssr:stedsnr" v="956998" />
	</node>
	<node lat="70.28266116617229" lon="30.877270144448886" id="-35797">
		<tag k="name" v="Kramvikdalen" />
		<tag k="natural" v="valley" />
		<tag k="place" v="locality" />
		<tag k="ssr:stedsnr" v="228928" />
	</node>
	<node lat="70.25563894660749" lon="30.657003607590426" id="-35801">
		<tag k="alt_name" v="Smelrorbergan" />
		<tag k="name" v="Smellrorbergan" />
		<tag k="natural" v="hill" />
		<tag k="place" v="locality" />
		<tag k="ssr:stedsnr" v="20517" />
	</node>
	<node lat="70.30980005717667" lon="30.64372586646397" id="-35810">
=======
		<tag k="ssr:stedsnr" v="46970" />
	</node>
	<node id="-846104" lat="70.3934361712" lon="31.0015201027">
		<tag k="name" v="Kistnåva" />
		<tag k="natural" v="slope" />
		<tag k="place" v="locality" />
		<tag k="ssr:stedsnr" v="46958" />
	</node>
	<node id="-846101" lat="70.4213278325" lon="30.7189314556">
		<tag k="name" v="Kamhaugen" />
		<tag k="natural" v="hill" />
		<tag k="place" v="locality" />
		<tag k="ssr:stedsnr" v="46950" />
	</node>
	<node id="-846100" lat="70.4252833811" lon="30.7570758715">
		<tag k="name" v="Fanthaugen" />
		<tag k="natural" v="hill" />
		<tag k="place" v="locality" />
		<tag k="ssr:stedsnr" v="46948" />
	</node>
	<node id="-846096" lat="70.3159667271" lon="30.9908923042">
		<tag k="name" v="Vassbotn" />
		<tag k="natural" v="valley" />
		<tag k="place" v="locality" />
		<tag k="ssr:stedsnr" v="46210" />
	</node>
	<node id="-846092" lat="70.2519944982" lon="30.5576092212">
		<tag k="name" v="Skjønnselvbergan" />
		<tag k="natural" v="hill" />
		<tag k="place" v="locality" />
		<tag k="ssr:stedsnr" v="31631" />
	</node>
	<node id="-846085" lat="70.3098000572" lon="30.6437258665">
>>>>>>> e1d4bc35ff8a6074a6f2e91616a996b547c36f15
		<tag k="fixme" v="consider natural=peak for the most distinct mountains in the district" />
		<tag k="name" v="Raudfjellet" />
		<tag k="natural" v="hill" />
		<tag k="place" v="locality" />
		<tag k="ssr:stedsnr" v="20654" />
<<<<<<< HEAD
	</node>
	<node lat="70.25199449819243" lon="30.557609221166345" id="-35817">
		<tag k="name" v="Skjønnselvbergan" />
		<tag k="natural" v="hill" />
		<tag k="place" v="locality" />
		<tag k="ssr:stedsnr" v="31631" />
	</node>
	<node lat="70.42528338105475" lon="30.75707587147816" id="-35822">
		<tag k="name" v="Fanthaugen" />
		<tag k="natural" v="hill" />
		<tag k="place" v="locality" />
		<tag k="ssr:stedsnr" v="46948" />
	</node>
	<node lat="70.42132783248653" lon="30.718931455590567" id="-35823">
		<tag k="name" v="Kamhaugen" />
		<tag k="natural" v="hill" />
		<tag k="place" v="locality" />
		<tag k="ssr:stedsnr" v="46950" />
	</node>
	<node lat="70.39343617123575" lon="31.001520102656865" id="-35826">
		<tag k="name" v="Kistnåva" />
		<tag k="natural" v="slope" />
		<tag k="place" v="locality" />
		<tag k="ssr:stedsnr" v="46958" />
	</node>
	<node lat="70.3396139400188" lon="30.53227319734105" id="-35830">
		<tag k="name" v="Uhcit Lemetávži" />
		<tag k="name:se" v="Uhcit Lemetávži" />
		<tag k="natural" v="valley" />
		<tag k="old_name:se" v="Lemetavži, uccit" />
		<tag k="place" v="locality" />
		<tag k="ssr:stedsnr" v="80943" />
	</node>
	<node lat="70.38447227539508" lon="30.64737591649237" id="-35831">
		<tag k="fixme" v="consider natural=peak for the most distinct mountains in the district" />
		<tag k="name" v="Ovllándorčohkka" />
		<tag k="name:se" v="Ovllándorčohkka" />
		<tag k="natural" v="hill" />
		<tag k="old_name:se" v="Åvlandurčåkka" />
		<tag k="place" v="locality" />
		<tag k="ssr:stedsnr" v="81614" />
	</node>
	<node lat="70.42745005261143" lon="30.728703650185917" id="-35842">
		<tag k="name" v="Lille Frøkenholla" />
=======
	</node>
	<node id="-846080" lat="70.4362806083" lon="30.7046842308">
		<tag k="name" v="Persvarden" />
		<tag k="natural" v="hill" />
		<tag k="place" v="locality" />
		<tag k="ssr:stedsnr" v="20596" />
	</node>
	<node id="-846073" lat="70.3248222706" lon="30.4035204883">
		<tag k="fixme" v="consider natural=peak for the most distinct mountains in the district" />
		<tag k="name" v="Dommačohkka" />
		<tag k="name:se" v="Dommačohkka" />
		<tag k="natural" v="hill" />
		<tag k="old_name:se" v="Dåmmačåkka" />
		<tag k="place" v="locality" />
		<tag k="ssr:stedsnr" v="930924" />
	</node>
	<node id="-846072" lat="70.2902639375" lon="30.2206150326">
		<tag k="loc_name:fkv" v="Kumajoen portti" />
		<tag k="name" v="Første porten - Stuorra Rohči" />
		<tag k="name:no" v="Første porten" />
		<tag k="name:se" v="Stuorra Rohči" />
>>>>>>> e1d4bc35ff8a6074a6f2e91616a996b547c36f15
		<tag k="natural" v="valley" />
		<tag k="old_name:se" v="Råčči, stuorra" />
		<tag k="place" v="locality" />
<<<<<<< HEAD
		<tag k="ssr:stedsnr" v="107937" />
	</node>
	<node lat="70.40141116668798" lon="31.010428449628684" id="-35845">
		<tag k="name" v="Varghollhaugen" />
		<tag k="natural" v="hill" />
		<tag k="place" v="locality" />
		<tag k="ssr:stedsnr" v="107957" />
	</node>
	<node lat="70.39005561668003" lon="31.11822278905365" id="-35846">
		<tag k="name" v="Kvalvikhaugen" />
		<tag k="natural" v="hill" />
		<tag k="place" v="locality" />
		<tag k="ssr:stedsnr" v="107959" />
	</node>
	<node lat="70.26701393604573" lon="30.206623356077113" id="-35856">
		<tag k="fixme" v="consider natural=peak for the most distinct mountains in the district" />
		<tag k="name" v="Cavnnoaivi" />
		<tag k="name:se" v="Cavnnoaivi" />
		<tag k="natural" v="hill" />
		<tag k="old_name:se" v="Cavnoaivi" />
		<tag k="place" v="locality" />
		<tag k="ssr:stedsnr" v="141904" />
	</node>
	<node lat="70.26493894405212" lon="30.7233480161996" id="-35865">
		<tag k="name" v="Langbufloget" />
		<tag k="natural" v="hill" />
		<tag k="place" v="locality" />
		<tag k="ssr:stedsnr" v="167447" />
	</node>
	<node lat="70.27243339486397" lon="30.862547910767578" id="-35870">
		<tag k="name" v="Strupen" />
		<tag k="natural" v="valley" />
		<tag k="place" v="locality" />
		<tag k="ssr:stedsnr" v="167950" />
	</node>
	<node lat="70.41138616808304" lon="30.89439520162093" id="-35872">
		<tag k="alt_name" v="Øverdalen" />
		<tag k="name" v="Øvre Prestnæringsdalen" />
		<tag k="natural" v="valley" />
		<tag k="place" v="locality" />
		<tag k="ssr:stedsnr" v="168943" />
	</node>
	<node lat="70.2924083966151" lon="31.044739459824115" id="-35877">
		<tag k="alt_name" v="Skyttarbergan" />
		<tag k="fixme" v="consider natural=peak for the most distinct mountains in the district" />
		<tag k="name" v="Skytterbergan" />
		<tag k="natural" v="hill" />
		<tag k="place" v="locality" />
		<tag k="ssr:stedsnr" v="202516" />
	</node>
	<node lat="70.31558617040855" lon="30.855250732708388" id="-35886">
		<tag k="name" v="Langdalen" />
		<tag k="natural" v="valley" />
		<tag k="place" v="locality" />
		<tag k="ssr:stedsnr" v="202638" />
	</node>
	<node lat="70.25209449803118" lon="30.619136977991083" id="-35889">
		<tag k="name" v="Mikkelhiet" />
		<tag k="natural" v="slope" />
		<tag k="place" v="locality" />
		<tag k="ssr:stedsnr" v="206296" />
	</node>
	<node lat="70.25033616079865" lon="30.495156505727074" id="-35892">
		<tag k="name" v="Hardtorvbakkan" />
		<tag k="natural" v="slope" />
		<tag k="place" v="locality" />
		<tag k="ssr:stedsnr" v="213661" />
	</node>
	<node lat="70.39865283453345" lon="31.068258963724777" id="-35900">
		<tag k="name" v="Trollkjærringa" />
		<tag k="natural" v="hill" />
		<tag k="place" v="locality" />
		<tag k="ssr:stedsnr" v="289552" />
	</node>
	<node lat="70.28265284141362" lon="30.952022867438536" id="-35902">
		<tag k="name" v="Skjørbybakken" />
		<tag k="natural" v="slope" />
		<tag k="place" v="locality" />
		<tag k="ssr:stedsnr" v="323515" />
	</node>
	<node lat="70.28960006333338" lon="30.96775063436397" id="-35908">
		<tag k="name" v="Omersnasen" />
		<tag k="natural" v="hill" />
		<tag k="place" v="locality" />
		<tag k="ssr:stedsnr" v="323636" />
	</node>
	<node lat="70.28722784159201" lon="31.027106149389773" id="-35909">
		<tag k="fixme" v="consider natural=peak for the most distinct mountains in the district" />
		<tag k="name" v="Kibergsfjellet" />
		<tag k="natural" v="hill" />
		<tag k="place" v="locality" />
		<tag k="ssr:stedsnr" v="323637" />
	</node>
	<node lat="70.30307228526173" lon="31.00739783545062" id="-35910">
		<tag k="alt_name" v="Lassebakkan" />
		<tag k="name" v="Lassebakken" />
		<tag k="natural" v="slope" />
		<tag k="place" v="locality" />
		<tag k="ssr:stedsnr" v="323638" />
	</node>
	<node lat="70.29265561459633" lon="30.98593672823684" id="-35911">
		<tag k="alt_name" v="Svenskesteinan" />
		<tag k="name" v="Kamman" />
		<tag k="natural" v="hill" />
		<tag k="place" v="locality" />
		<tag k="ssr:stedsnr" v="323641" />
	</node>
	<node lat="70.33139172807688" lon="31.013222830557883" id="-35915">
		<tag k="name" v="Mellomskarhøgdan" />
		<tag k="natural" v="hill" />
		<tag k="place" v="locality" />
		<tag k="ssr:stedsnr" v="349224" />
	</node>
	<node lat="70.33642505733496" lon="31.03274227032764" id="-35916">
		<tag k="name" v="Øverdomen" />
		<tag k="natural" v="hill" />
		<tag k="place" v="locality" />
		<tag k="ssr:stedsnr" v="349249" />
	</node>
	<node lat="70.44407505594249" lon="30.89102579310085" id="-35919">
		<tag k="name" v="Silbergan" />
=======
		<tag k="ssr:stedsnr" v="930916" />
	</node>
	<node id="-845865" lat="70.2689750555" lon="30.6874841608">
		<tag k="fixme" v="consider natural=peak for the most distinct mountains in the district" />
		<tag k="loc_name" v="Kråktuva" />
		<tag k="name" v="Kråketuva" />
		<tag k="natural" v="hill" />
		<tag k="place" v="locality" />
		<tag k="ssr:stedsnr" v="262522" />
	</node>
	<node id="-845864" lat="70.3430528398" lon="31.0186533925">
		<tag k="name" v="Skinnstakkvikraet" />
		<tag k="natural" v="hill" />
		<tag k="place" v="locality" />
		<tag k="ssr:stedsnr" v="107203" />
	</node>
	<node id="-846058" lat="70.2141833901" lon="30.4747620425">
		<tag k="name" v="Pakola" />
		<tag k="name:fkv" v="Pakola" />
		<tag k="place" v="locality" />
		<tag k="ssr:stedsnr" v="940523" />
	</node>
	<node id="-846055" lat="70.4068195036" lon="31.0088367753">
		<tag k="name" v="Hyseberget" />
		<tag k="natural" v="hill" />
		<tag k="place" v="locality" />
		<tag k="ssr:stedsnr" v="835962" />
	</node>
	<node id="-846052" lat="70.3252306181" lon="31.0321144969">
		<tag k="name" v="Vannskillet" />
		<tag k="natural" v="hill" />
		<tag k="place" v="locality" />
		<tag k="ssr:stedsnr" v="835956" />
	</node>
	<node id="-846051" lat="70.2664833926" lon="30.8421562727">
		<tag k="name" v="Grunneshalsen" />
		<tag k="place" v="locality" />
		<tag k="ssr:stedsnr" v="835916" />
	</node>
	<node id="-846034" lat="70.2701722818" lon="30.8654562496">
		<tag k="name" v="Finnkjerka" />
		<tag k="natural" v="hill" />
		<tag k="place" v="locality" />
		<tag k="ssr:stedsnr" v="930537" />
	</node>
	<node id="-846033" lat="70.4259722725" lon="30.8116952606">
		<tag k="fixme" v="consider natural=peak for the most distinct mountains in the district" />
		<tag k="name" v="Hestmana" />
		<tag k="natural" v="hill" />
		<tag k="place" v="locality" />
		<tag k="ssr:stedsnr" v="775920" />
	</node>
	<node id="-846029" lat="70.4201194985" lon="30.766489747">
		<tag k="name" v="Bankan" />
		<tag k="place" v="locality" />
		<tag k="ssr:stedsnr" v="773059" />
	</node>
	<node id="-846027" lat="70.2589500574" lon="30.6197980912">
		<tag k="name" v="Smellrorbergan" />
		<tag k="natural" v="hill" />
		<tag k="place" v="locality" />
		<tag k="ssr:stedsnr" v="904086" />
	</node>
	<node id="-846026" lat="70.3716806173" lon="31.1220227712">
		<tag k="name" v="Rødmoen" />
		<tag k="place" v="locality" />
		<tag k="ssr:stedsnr" v="897000" />
	</node>
	<node id="-846025" lat="70.3706556135" lon="31.1168505642">
		<tag k="name" v="Klondyke" />
		<tag k="natural" v="hill" />
		<tag k="place" v="locality" />
		<tag k="ssr:stedsnr" v="896998" />
	</node>
	<node id="-846024" lat="70.3727167233" lon="31.1239700106">
		<tag k="name" v="Kvalryggen" />
		<tag k="natural" v="hill" />
		<tag k="place" v="locality" />
		<tag k="ssr:stedsnr" v="896996" />
	</node>
	<node id="-846018" lat="70.4306000472" lon="30.7605508669">
		<tag k="name" v="Bukkemolla" />
		<tag k="place" v="locality" />
		<tag k="ssr:stedsnr" v="895934" />
	</node>
	<node id="-846017" lat="70.4300028311" lon="30.7455425412">
		<tag k="name" v="Langkeilhaugen" />
		<tag k="natural" v="hill" />
		<tag k="place" v="locality" />
		<tag k="ssr:stedsnr" v="895929" />
	</node>
	<node id="-846015" lat="70.2654750654" lon="30.8628340201">
		<tag k="name" v="Humpen" />
		<tag k="natural" v="hill" />
		<tag k="place" v="locality" />
		<tag k="ssr:stedsnr" v="895917" />
	</node>
	<node id="-846014" lat="70.4364611628" lon="30.7101453435">
		<tag k="name" v="Vesterdalshøgda" />
>>>>>>> e1d4bc35ff8a6074a6f2e91616a996b547c36f15
		<tag k="natural" v="hill" />
		<tag k="place" v="locality" />
		<tag k="ssr:stedsnr" v="895912" />
	</node>
<<<<<<< HEAD
	<node lat="70.2658500569396" lon="30.699698034442232" id="-35920">
		<tag k="name" v="Langbubergan" />
		<tag k="natural" v="hill" />
=======
	<node id="-846012" lat="70.387775059" lon="31.0259423113">
		<tag k="name" v="Bratta" />
		<tag k="natural" v="slope" />
>>>>>>> e1d4bc35ff8a6074a6f2e91616a996b547c36f15
		<tag k="place" v="locality" />
		<tag k="ssr:stedsnr" v="714998" />
	</node>
<<<<<<< HEAD
	<node lat="70.39948894450862" lon="31.066870058177923" id="-35925">
		<tag k="name" v="Ravnfloget" />
		<tag k="natural" v="hill" />
		<tag k="place" v="locality" />
		<tag k="ssr:stedsnr" v="356720" />
	</node>
	<node lat="70.28236117072068" lon="31.020381146829504" id="-35926">
		<tag k="name" v="Ravnfloget" />
		<tag k="natural" v="hill" />
		<tag k="place" v="locality" />
		<tag k="ssr:stedsnr" v="383530" />
	</node>
	<node lat="70.25302782957418" lon="30.54437591799346" id="-35940">
		<tag k="name" v="Rennebakken" />
		<tag k="natural" v="slope" />
		<tag k="place" v="locality" />
		<tag k="ssr:stedsnr" v="395647" />
	</node>
	<node lat="70.35019728181535" lon="31.00977284397368" id="-35945">
		<tag k="fixme" v="consider natural=peak for the most distinct mountains in the district" />
		<tag k="name" v="Raet" />
		<tag k="natural" v="hill" />
		<tag k="place" v="locality" />
		<tag k="ssr:stedsnr" v="410222" />
	</node>
	<node lat="70.28925839764514" lon="30.982925619359897" id="-35952">
		<tag k="name" v="Løkthusbakken" />
		<tag k="natural" v="slope" />
		<tag k="place" v="locality" />
		<tag k="ssr:stedsnr" v="410986" />
	</node>
	<node lat="70.28583894650988" lon="30.847722949389976" id="-35953">
		<tag k="fixme" v="consider natural=peak for the most distinct mountains in the district" />
		<tag k="name" v="Mellomfjellet" />
		<tag k="natural" v="hill" />
		<tag k="place" v="locality" />
		<tag k="ssr:stedsnr" v="410917" />
	</node>
	<node lat="70.37351117140588" lon="30.977961775899924" id="-35955">
		<tag k="name" v="Bergestokken" />
		<tag k="natural" v="hill" />
		<tag k="place" v="locality" />
		<tag k="ssr:stedsnr" v="410927" />
	</node>
	<node lat="70.37752505842248" lon="30.9808728907313" id="-35957">
		<tag k="fixme" v="consider natural=peak for the most distinct mountains in the district" />
		<tag k="name" v="Samyrraet" />
		<tag k="natural" v="hill" />
		<tag k="place" v="locality" />
		<tag k="ssr:stedsnr" v="410937" />
	</node>
	<node lat="70.28316672683822" lon="31.041400566346784" id="-35960">
		<tag k="name" v="Varen" />
		<tag k="natural" v="slope" />
		<tag k="place" v="locality" />
		<tag k="ssr:stedsnr" v="411784" />
	</node>
	<node lat="70.27380561690653" lon="30.767947991930725" id="-35961">
		<tag k="fixme" v="consider natural=peak for the most distinct mountains in the district" />
		<tag k="name" v="Falkefloget" />
		<tag k="natural" v="hill" />
		<tag k="place" v="locality" />
		<tag k="ssr:stedsnr" v="444485" />
	</node>
	<node lat="70.28908061981001" lon="30.92886455250808" id="-35964">
		<tag k="fixme" v="multiple name tags, choose one and add the other to alt_name" />
		<tag k="name" v="Olskardhøgda;Olskarheia" />
		<tag k="natural" v="hill" />
		<tag k="place" v="locality" />
		<tag k="ssr:stedsnr" v="444600" />
	</node>
	<node lat="70.2937278354981" lon="30.557256477546886" id="-35969">
		<tag k="fixme" v="consider natural=peak for the most distinct mountains in the district" />
		<tag k="name" v="Gilesčearru" />
		<tag k="name:se" v="Gilesčearru" />
=======
	<node id="-846011" lat="70.4099889394" lon="30.7755647174">
		<tag k="name" v="Tverrdalen" />
		<tag k="natural" v="valley" />
		<tag k="place" v="locality" />
		<tag k="ssr:stedsnr" v="714963" />
	</node>
	<node id="-846010" lat="70.2429861664" lon="30.5172009131">
		<tag k="name" v="Komagskjæringa" />
		<tag k="natural" v="valley" />
		<tag k="place" v="locality" />
		<tag k="ssr:stedsnr" v="895052" />
	</node>
	<node id="-845854" lat="70.2826611662" lon="30.8772701444">
		<tag k="name" v="Kramvikdalen" />
		<tag k="natural" v="valley" />
		<tag k="place" v="locality" />
		<tag k="ssr:stedsnr" v="228928" />
	</node>
	<node id="-845999" lat="70.4110972777" lon="30.8182008251">
		<tag k="fixme" v="consider natural=peak for the most distinct mountains in the district" />
		<tag k="name" v="Hestmanlegda" />
		<tag k="natural" v="hill" />
		<tag k="place" v="locality" />
		<tag k="ssr:stedsnr" v="653947" />
	</node>
	<node id="-845998" lat="70.3206833942" lon="31.019011721">
		<tag k="name" v="Grønnsakhaugen" />
		<tag k="natural" v="hill" />
		<tag k="place" v="locality" />
		<tag k="ssr:stedsnr" v="653942" />
	</node>
	<node id="-845996" lat="70.2688778375" lon="30.7370618857">
		<tag k="name" v="Langbudalen" />
		<tag k="natural" v="valley" />
		<tag k="place" v="locality" />
		<tag k="ssr:stedsnr" v="652888" />
	</node>
	<node id="-845994" lat="70.4302389398" lon="30.5791843282">
		<tag k="fixme" v="consider natural=peak for the most distinct mountains in the district" />
		<tag k="name" v="Seglkollfjellet - Seavlačearru" />
		<tag k="name:no" v="Seglkollfjellet" />
		<tag k="name:se" v="Seavlačearru" />
		<tag k="natural" v="hill" />
		<tag k="old_name:se" v="Sævlačearro" />
		<tag k="place" v="locality" />
		<tag k="ssr:stedsnr" v="632853" />
	</node>
	<node id="-845987" lat="70.2871361768" lon="31.0101644838">
		<tag k="name" v="Nedre Hollabakken" />
		<tag k="natural" v="slope" />
		<tag k="place" v="locality" />
		<tag k="ssr:stedsnr" v="713987" />
	</node>
	<node id="-845986" lat="70.4194695026" lon="30.9738201588">
		<tag k="name" v="Forsevasshøgda" />
		<tag k="natural" v="hill" />
		<tag k="place" v="locality" />
		<tag k="ssr:stedsnr" v="713970" />
	</node>
	<node id="-845985" lat="70.3924500588" lon="31.1300533515">
		<tag k="name" v="Legda" />
		<tag k="natural" v="hill" />
		<tag k="place" v="locality" />
		<tag k="ssr:stedsnr" v="713950" />
	</node>
	<node id="-845983" lat="70.2826195072" lon="30.8984117849">
		<tag k="name" v="Kramvikdalshøgda" />
>>>>>>> e1d4bc35ff8a6074a6f2e91616a996b547c36f15
		<tag k="natural" v="hill" />
		<tag k="old_name:se" v="Gilesčærro" />
		<tag k="place" v="locality" />
<<<<<<< HEAD
		<tag k="ssr:stedsnr" v="445923" />
	</node>
	<node lat="70.31366672729455" lon="31.03207557844136" id="-35975">
		<tag k="alt_name" v="Domen, nedre" />
		<tag k="fixme" v="multiple name tags, choose one and add the other to alt_name" />
		<tag k="name" v="Nerdomen;Nedre Domen" />
		<tag k="natural" v="hill" />
		<tag k="place" v="locality" />
		<tag k="ssr:stedsnr" v="505625" />
	</node>
	<node lat="70.29045005751205" lon="30.648564742168134" id="-35978">
		<tag k="fixme" v="consider natural=peak for the most distinct mountains in the district" />
		<tag k="name" v="Slettfjellet" />
		<tag k="natural" v="hill" />
		<tag k="place" v="locality" />
		<tag k="ssr:stedsnr" v="505636" />
	</node>
	<node lat="70.39552227939306" lon="31.021803437607915" id="-35982">
=======
		<tag k="ssr:stedsnr" v="713935" />
	</node>
	<node id="-845978" lat="70.2594833861" lon="30.5968980946">
		<tag k="name" v="Mikkelhifloget" />
		<tag k="natural" v="hill" />
		<tag k="place" v="locality" />
		<tag k="ssr:stedsnr" v="570253" />
	</node>
	<node id="-845975" lat="70.2551111642" lon="30.5311620276">
		<tag k="name" v="Langedalen" />
		<tag k="natural" v="valley" />
		<tag k="place" v="locality" />
		<tag k="ssr:stedsnr" v="698596" />
	</node>
	<node id="-845974" lat="70.2515028357" lon="30.5259759202">
		<tag k="name" v="Komagfloget" />
		<tag k="natural" v="cliff" />
		<tag k="ssr:stedsnr" v="698594" />
	</node>
	<node id="-845971" lat="70.3955222794" lon="31.0218034376">
>>>>>>> e1d4bc35ff8a6074a6f2e91616a996b547c36f15
		<tag k="name" v="Edelhaugen" />
		<tag k="natural" v="hill" />
		<tag k="place" v="locality" />
		<tag k="ssr:stedsnr" v="531563" />
	</node>
<<<<<<< HEAD
	<node lat="70.4280556075029" lon="30.74156753968285" id="-35984">
		<tag k="name" v="Store Frøkenholla" />
		<tag k="natural" v="valley" />
		<tag k="place" v="locality" />
		<tag k="ssr:stedsnr" v="531933" />
	</node>
	<node lat="70.27891672464827" lon="30.971581176099463" id="-35987">
		<tag k="name" v="Sletta" />
		<tag k="place" v="locality" />
		<tag k="ssr:stedsnr" v="532000" />
	</node>
	<node lat="70.26651117497096" lon="30.758961874863704" id="-35989">
		<tag k="name" v="Svartneshaugen" />
		<tag k="natural" v="hill" />
		<tag k="place" v="locality" />
		<tag k="ssr:stedsnr" v="565487" />
	</node>
	<node lat="70.43912227885711" lon="30.907881334532043" id="-35991">
		<tag k="name" v="Næringshøgda" />
		<tag k="natural" v="hill" />
		<tag k="place" v="locality" />
		<tag k="ssr:stedsnr" v="565569" />
	</node>
	<node lat="70.24598338507498" lon="30.548206467976932" id="-36002">
		<tag k="name" v="Bankan" />
		<tag k="place" v="locality" />
		<tag k="ssr:stedsnr" v="577580" />
	</node>
	<node lat="70.24336394035777" lon="30.50534814958295" id="-36003">
		<tag k="name" v="Bekkedalen - Ajankuru" />
		<tag k="name:fkv" v="Ajankuru" />
		<tag k="name:no" v="Bekkedalen" />
		<tag k="natural" v="valley" />
		<tag k="place" v="locality" />
		<tag k="ssr:stedsnr" v="591047" />
	</node>
	<node lat="70.26604727807297" lon="30.78938963484023" id="-36005">
		<tag k="name" v="Svartneshalsen" />
		<tag k="place" v="locality" />
		<tag k="ssr:stedsnr" v="591877" />
	</node>
	<node lat="70.27401394799121" lon="30.810722965810477" id="-36007">
		<tag k="name" v="Lillefloget" />
		<tag k="natural" v="hill" />
		<tag k="place" v="locality" />
		<tag k="ssr:stedsnr" v="591901" />
	</node>
	<node lat="70.29025561935447" lon="31.003614499338823" id="-36008">
		<tag k="name" v="Isaksenbakken" />
		<tag k="natural" v="hill" />
		<tag k="place" v="locality" />
		<tag k="ssr:stedsnr" v="591983" />
	</node>
	<node lat="70.28853061890382" lon="30.97764783663648" id="-36009">
		<tag k="name" v="Bankan" />
		<tag k="natural" v="slope" />
		<tag k="place" v="locality" />
		<tag k="ssr:stedsnr" v="591988" />
	</node>
	<node lat="70.4237250536405" lon="30.75250364122487" id="-36010">
		<tag k="name" v="Varghaugen" />
		<tag k="natural" v="hill" />
		<tag k="place" v="locality" />
		<tag k="ssr:stedsnr" v="591931" />
	</node>
	<node lat="70.4223139410416" lon="30.714131450963414" id="-36011">
		<tag k="name" v="Vesterelvdalen" />
		<tag k="natural" v="valley" />
		<tag k="place" v="locality" />
		<tag k="ssr:stedsnr" v="591933" />
	</node>
	<node lat="70.43156949586117" lon="30.935792404236977" id="-36016">
		<tag k="name" v="Oddevasshøgda" />
		<tag k="natural" v="hill" />
		<tag k="place" v="locality" />
		<tag k="ssr:stedsnr" v="592973" />
	</node>
	<node lat="70.21222227901853" lon="30.4508176332785" id="-36021">
		<tag k="fixme" v="consider natural=peak for the most distinct mountains in the district" />
		<tag k="name" v="Komaghalsen - Skáraskáidi" />
		<tag k="name:no" v="Komaghalsen" />
		<tag k="name:se" v="Skáraskáidi" />
=======
	<node id="-845965" lat="70.4016750551" lon="30.8369980087">
		<tag k="fixme" v="consider natural=peak for the most distinct mountains in the district" />
		<tag k="name" v="Langvasshøgda" />
		<tag k="natural" v="hill" />
		<tag k="place" v="locality" />
		<tag k="ssr:stedsnr" v="687608" />
	</node>
	<node id="-845962" lat="70.4162389404" lon="30.815442472">
		<tag k="alt_name" v="Hestmannen" />
		<tag k="fixme" v="multiple name tags, choose one and add the other to alt_name; consider natural=peak for the most distinct mountains in the district" />
		<tag k="name" v="Hestmanhøgda;Hestman" />
		<tag k="natural" v="hill" />
		<tag k="place" v="locality" />
		<tag k="ssr:stedsnr" v="687598" />
	</node>
	<node id="-845960" lat="70.296497264" lon="30.0741151191">
		<tag k="loc_name:fkv" v="Patatunturi" />
		<tag k="name" v="Grythaugen - Stuorra Ruitu" />
		<tag k="name:no" v="Grythaugen" />
		<tag k="name:se" v="Stuorra Ruitu" />
		<tag k="natural" v="hill" />
		<tag k="old_name:se" v="Ruito, stuorra" />
		<tag k="place" v="locality" />
		<tag k="ssr:stedsnr" v="505910" />
	</node>
	<node id="-845954" lat="70.2937278355" lon="30.5572564775">
		<tag k="fixme" v="consider natural=peak for the most distinct mountains in the district" />
		<tag k="name" v="Gilesčearru" />
		<tag k="name:se" v="Gilesčearru" />
		<tag k="natural" v="hill" />
		<tag k="old_name:se" v="Gilesčærro" />
		<tag k="place" v="locality" />
		<tag k="ssr:stedsnr" v="445923" />
	</node>
	<node id="-845948" lat="70.2904500575" lon="30.6485647422">
		<tag k="fixme" v="consider natural=peak for the most distinct mountains in the district" />
		<tag k="name" v="Slettfjellet" />
		<tag k="natural" v="hill" />
		<tag k="place" v="locality" />
		<tag k="ssr:stedsnr" v="505636" />
	</node>
	<node id="-845945" lat="70.3136667273" lon="31.0320755784">
		<tag k="alt_name" v="Domen, nedre" />
		<tag k="fixme" v="multiple name tags, choose one and add the other to alt_name" />
		<tag k="name" v="Nerdomen;Nedre Domen" />
		<tag k="natural" v="hill" />
		<tag k="place" v="locality" />
		<tag k="ssr:stedsnr" v="505625" />
	</node>
	<node id="-845935" lat="70.4119750523" lon="30.7646341699">
		<tag k="fixme" v="consider natural=peak for the most distinct mountains in the district" />
		<tag k="name" v="Tverrdalshøgda" />
		<tag k="natural" v="hill" />
		<tag k="place" v="locality" />
		<tag k="ssr:stedsnr" v="350938" />
	</node>
	<node id="-845934" lat="70.4077528331" lon="30.903817414">
		<tag k="fixme" v="consider natural=peak for the most distinct mountains in the district" />
		<tag k="name" v="Dalraet" />
		<tag k="natural" v="hill" />
		<tag k="place" v="locality" />
		<tag k="ssr:stedsnr" v="350925" />
	</node>
	<node id="-845933" lat="70.3313917281" lon="31.0132228306">
		<tag k="name" v="Mellomskarhøgdan" />
		<tag k="natural" v="hill" />
		<tag k="place" v="locality" />
		<tag k="ssr:stedsnr" v="349224" />
	</node>
	<node id="-845931" lat="70.3702083991" lon="31.1260616608">
		<tag k="name" v="Plana" />
		<tag k="natural" v="hill" />
		<tag k="place" v="locality" />
		<tag k="ssr:stedsnr" v="472000" />
	</node>
	<node id="-846441" lat="70.3895889456" lon="31.1348088918">
		<tag k="name" v="Hygga" />
		<tag k="natural" v="slope" />
		<tag k="place" v="locality" />
		<tag k="ssr:stedsnr" v="956998" />
	</node>
	<node id="-846440" lat="70.2963611766" lon="30.9883783972">
		<tag k="fixme" v="consider natural=peak for the most distinct mountains in the district" />
		<tag k="name" v="Svenskeraet" />
		<tag k="natural" v="hill" />
		<tag k="place" v="locality" />
		<tag k="ssr:stedsnr" v="956993" />
	</node>
	<node id="-845927" lat="70.424952835" lon="30.899267441">
		<tag k="name" v="Nerdalen" />
		<tag k="natural" v="valley" />
		<tag k="place" v="locality" />
		<tag k="ssr:stedsnr" v="471955" />
	</node>
	<node id="-845926" lat="70.3677083971" lon="31.1212755532">
		<tag k="name" v="Sloka" />
		<tag k="natural" v="slope" />
		<tag k="place" v="locality" />
		<tag k="ssr:stedsnr" v="471954" />
	</node>
	<node id="-845925" lat="70.4317333868" lon="30.8905424302">
		<tag k="name" v="Næringshøgda" />
		<tag k="natural" v="hill" />
		<tag k="place" v="locality" />
		<tag k="ssr:stedsnr" v="471951" />
	</node>
	<node id="-845924" lat="70.3206139483" lon="31.036167253">
		<tag k="name" v="Rundhaugen" />
>>>>>>> e1d4bc35ff8a6074a6f2e91616a996b547c36f15
		<tag k="natural" v="hill" />
		<tag k="old_name:se" v="Skaraskaidi" />
		<tag k="place" v="locality" />
<<<<<<< HEAD
		<tag k="ssr:stedsnr" v="626535" />
	</node>
	<node lat="70.27332505184555" lon="30.43602599293376" id="-36029">
		<tag k="fixme" v="consider natural=peak for the most distinct mountains in the district" />
		<tag k="name" v="Slaktefjellet - Šláktaduottar" />
		<tag k="name:no" v="Slaktefjellet" />
		<tag k="name:se" v="Šláktaduottar" />
=======
		<tag k="ssr:stedsnr" v="471947" />
	</node>
	<node id="-845920" lat="70.3182611719" lon="30.9689478737">
		<tag k="name" v="Fosseraet" />
>>>>>>> e1d4bc35ff8a6074a6f2e91616a996b547c36f15
		<tag k="natural" v="hill" />
		<tag k="old_name:se" v="Šlaktaduoddar" />
		<tag k="place" v="locality" />
<<<<<<< HEAD
		<tag k="ssr:stedsnr" v="626936" />
	</node>
	<node lat="70.43023893981616" lon="30.579184328175693" id="-36033">
		<tag k="fixme" v="consider natural=peak for the most distinct mountains in the district" />
		<tag k="name" v="Seglkollfjellet - Seavlačearru" />
		<tag k="name:no" v="Seglkollfjellet" />
		<tag k="name:se" v="Seavlačearru" />
		<tag k="natural" v="hill" />
		<tag k="old_name:se" v="Sævlačearro" />
		<tag k="place" v="locality" />
		<tag k="ssr:stedsnr" v="632853" />
	</node>
	<node lat="70.28771394768226" lon="30.99992560680404" id="-36037">
		<tag k="name" v="Korshaugen" />
		<tag k="natural" v="hill" />
		<tag k="place" v="locality" />
		<tag k="ssr:stedsnr" v="652984" />
	</node>
	<node lat="70.41120283952353" lon="31.0029756797291" id="-36039">
		<tag k="name" v="Oterbergan" />
		<tag k="natural" v="hill" />
		<tag k="place" v="locality" />
		<tag k="ssr:stedsnr" v="652947" />
	</node>
	<node lat="70.39528061472967" lon="31.005995115537562" id="-36040">
		<tag k="name" v="Blåbærlia" />
		<tag k="natural" v="slope" />
		<tag k="place" v="locality" />
		<tag k="ssr:stedsnr" v="652949" />
	</node>
	<node lat="70.2995972848314" lon="31.024558936746473" id="-36042">
		<tag k="name" v="Mollvikbakken" />
		<tag k="natural" v="slope" />
		<tag k="place" v="locality" />
		<tag k="ssr:stedsnr" v="652977" />
	</node>
	<node lat="70.41109727772381" lon="30.818200825135065" id="-36045">
		<tag k="fixme" v="consider natural=peak for the most distinct mountains in the district" />
		<tag k="name" v="Hestmanlegda" />
		<tag k="natural" v="hill" />
		<tag k="place" v="locality" />
		<tag k="ssr:stedsnr" v="653947" />
	</node>
	<node lat="70.41271116859994" lon="30.915022967179855" id="-36046">
		<tag k="fixme" v="consider natural=peak for the most distinct mountains in the district" />
		<tag k="name" v="Nerdalshøgda" />
=======
		<tag k="ssr:stedsnr" v="471202" />
	</node>
	<node id="-845919" lat="70.2869445062" lon="31.0053894711">
		<tag k="name" v="Hollabakken" />
		<tag k="natural" v="slope" />
		<tag k="place" v="locality" />
		<tag k="ssr:stedsnr" v="470982" />
	</node>
	<node id="-846429" lat="70.4284750493" lon="30.7268536573">
		<tag k="name" v="Vesterelvhaugen" />
		<tag k="natural" v="hill" />
		<tag k="place" v="locality" />
		<tag k="ssr:stedsnr" v="956936" />
	</node>
	<node id="-845915" lat="70.2533111677" lon="30.6936702582">
		<tag k="name" v="Langbuhalsen" />
		<tag k="natural" v="valley" />
		<tag k="place" v="locality" />
		<tag k="ssr:stedsnr" v="470899" />
	</node>
	<node id="-845911" lat="70.3986528345" lon="31.0682589637">
		<tag k="name" v="Trollkjærringa" />
		<tag k="natural" v="hill" />
		<tag k="place" v="locality" />
		<tag k="ssr:stedsnr" v="289552" />
	</node>
	<node id="-846420" lat="70.2318556092" lon="30.4947425915">
		<tag k="name" v="Komagsletta" />
		<tag k="place" v="locality" />
		<tag k="ssr:stedsnr" v="955079" />
	</node>
	<node id="-846416" lat="70.2644306103" lon="30.6992313702">
		<tag k="name" v="Langbunesbergan" />
		<tag k="natural" v="hill" />
		<tag k="place" v="locality" />
		<tag k="ssr:stedsnr" v="869538" />
	</node>
	<node id="-845903" lat="70.2509722726" lon="30.513295382">
		<tag k="name" v="Innerfloget" />
		<tag k="natural" v="cliff" />
		<tag k="ssr:stedsnr" v="456624" />
	</node>
	<node id="-846414" lat="70.3651611568" lon="30.3574510794">
		<tag k="fixme" v="consider natural=peak for the most distinct mountains in the district" />
		<tag k="name" v="Juovkkaiddulpi" />
		<tag k="name:se" v="Juovkkaiddulpi" />
>>>>>>> e1d4bc35ff8a6074a6f2e91616a996b547c36f15
		<tag k="natural" v="hill" />
		<tag k="old_name:se" v="Juovkaiddulpi" />
		<tag k="place" v="locality" />
<<<<<<< HEAD
		<tag k="ssr:stedsnr" v="653960" />
	</node>
	<node lat="70.2826195071632" lon="30.898411784943555" id="-36053">
		<tag k="name" v="Kramvikdalshøgda" />
=======
		<tag k="ssr:stedsnr" v="869928" />
	</node>
	<node id="-846413" lat="70.3125111593" lon="30.2909316509">
		<tag k="fixme" v="consider natural=peak for the most distinct mountains in the district" />
		<tag k="name" v="Huhttirčohkat" />
		<tag k="name:se" v="Huhttirčohkat" />
>>>>>>> e1d4bc35ff8a6074a6f2e91616a996b547c36f15
		<tag k="natural" v="hill" />
		<tag k="old_name:se" v="Huttirčåkkat;Muhttirčohkat" />
		<tag k="place" v="locality" />
<<<<<<< HEAD
		<tag k="ssr:stedsnr" v="713935" />
	</node>
	<node lat="70.3924500587944" lon="31.130053351469197" id="-36055">
		<tag k="name" v="Legda" />
		<tag k="natural" v="hill" />
		<tag k="place" v="locality" />
		<tag k="ssr:stedsnr" v="713950" />
	</node>
	<node lat="70.41946950257848" lon="30.973820158829202" id="-36056">
		<tag k="name" v="Forsevasshøgda" />
		<tag k="natural" v="hill" />
		<tag k="place" v="locality" />
		<tag k="ssr:stedsnr" v="713970" />
	</node>
	<node lat="70.40998893936138" lon="30.775564717357604" id="-36058">
		<tag k="name" v="Tverrdalen" />
		<tag k="natural" v="valley" />
		<tag k="place" v="locality" />
		<tag k="ssr:stedsnr" v="714963" />
	</node>
	<node lat="70.40801116262467" lon="30.80969802608436" id="-36067">
		<tag k="name" v="Steindalen" />
		<tag k="natural" v="valley" />
		<tag k="place" v="locality" />
		<tag k="ssr:stedsnr" v="748602" />
	</node>
	<node lat="70.39861950615456" lon="31.07370617476392" id="-36068">
		<tag k="fixme" v="consider natural=peak for the most distinct mountains in the district" />
		<tag k="name" v="Skagen" />
		<tag k="natural" v="hill" />
		<tag k="place" v="locality" />
		<tag k="ssr:stedsnr" v="748608" />
	</node>
	<node lat="70.38217505780798" lon="30.9065396265067" id="-36069">
		<tag k="fixme" v="consider natural=peak for the most distinct mountains in the district" />
		<tag k="name" v="Mellomfjellet" />
		<tag k="natural" v="hill" />
		<tag k="place" v="locality" />
		<tag k="ssr:stedsnr" v="748611" />
	</node>
	<node lat="70.30700006204343" lon="30.917997888309117" id="-36072">
		<tag k="fixme" v="consider natural=peak for the most distinct mountains in the district" />
		<tag k="name" v="Storvarden" />
		<tag k="natural" v="hill" />
		<tag k="place" v="locality" />
		<tag k="ssr:stedsnr" v="748634" />
	</node>
	<node lat="70.28448338095329" lon="30.23692335655361" id="-36075">
		<tag k="name" v="Portsletta" />
		<tag k="place" v="locality" />
		<tag k="ssr:stedsnr" v="748928" />
	</node>
	<node lat="70.22717227361338" lon="30.40515653895827" id="-36078">
		<tag k="fixme" v="consider natural=peak for the most distinct mountains in the district" />
		<tag k="name" v="Suolovárri" />
		<tag k="name:se" v="Suolovárri" />
		<tag k="natural" v="hill" />
		<tag k="place" v="locality" />
		<tag k="ssr:stedsnr" v="758589" />
	</node>
	<node lat="70.4201194984595" lon="30.76648974704402" id="-36080">
		<tag k="name" v="Bankan" />
=======
		<tag k="ssr:stedsnr" v="869925" />
	</node>
	<node id="-846409" lat="70.388844506" lon="31.1348144408">
		<tag k="alt_name" v="Trygga" />
		<tag k="name" v="Stygga" />
		<tag k="natural" v="slope" />
		<tag k="place" v="locality" />
		<tag k="ssr:stedsnr" v="835998" />
	</node>
	<node id="-846408" lat="70.2777945121" lon="30.9498700716">
		<tag k="name" v="Olahaugen" />
		<tag k="natural" v="hill" />
		<tag k="place" v="locality" />
		<tag k="ssr:stedsnr" v="835997" />
	</node>
	<node id="-846406" lat="70.3582306176" lon="31.0147506354">
		<tag k="name" v="Kroklia" />
		<tag k="natural" v="slope" />
		<tag k="place" v="locality" />
		<tag k="ssr:stedsnr" v="835994" />
	</node>
	<node id="-845893" lat="70.2738056169" lon="30.7679479919">
		<tag k="fixme" v="consider natural=peak for the most distinct mountains in the district" />
		<tag k="name" v="Falkefloget" />
		<tag k="natural" v="hill" />
		<tag k="place" v="locality" />
		<tag k="ssr:stedsnr" v="444485" />
	</node>
	<node id="-846404" lat="70.3744083897" lon="31.0215311857">
		<tag k="name" v="Storsandhaugen" />
		<tag k="natural" v="hill" />
		<tag k="place" v="locality" />
		<tag k="ssr:stedsnr" v="835989" />
	</node>
	<node id="-845891" lat="70.3246472808" lon="31.0141228451">
		<tag k="name" v="Votteskarhøgdan" />
		<tag k="natural" v="hill" />
		<tag k="place" v="locality" />
		<tag k="ssr:stedsnr" v="228955" />
	</node>
	<node id="-845887" lat="70.3863833915" lon="31.1505255564">
		<tag k="name" v="Fuglefjellet" />
		<tag k="natural" v="hill" />
		<tag k="place" v="locality" />
		<tag k="ssr:stedsnr" v="289993" />
	</node>
	<node id="-846395" lat="70.3333833985" lon="31.0345533781">
		<tag k="fixme" v="consider natural=peak for the most distinct mountains in the district" />
		<tag k="name" v="Domen" />
		<tag k="natural" v="hill" />
		<tag k="place" v="locality" />
		<tag k="ssr:stedsnr" v="809647" />
	</node>
	<node id="-846392" lat="70.4055889472" lon="30.9884979221">
		<tag k="name" v="Storsteinhøgda" />
		<tag k="natural" v="hill" />
		<tag k="place" v="locality" />
		<tag k="ssr:stedsnr" v="809606" />
	</node>
	<node id="-845877" lat="70.3315417289" lon="30.88340071">
		<tag k="fixme" v="consider natural=peak for the most distinct mountains in the district" />
		<tag k="name" v="Oksevasshøgda" />
		<tag k="natural" v="hill" />
		<tag k="place" v="locality" />
		<tag k="ssr:stedsnr" v="263631" />
	</node>
	<node id="-846388" lat="70.2520833887" lon="30.6404480692">
		<tag k="name" v="Mikkelhisletta" />
>>>>>>> e1d4bc35ff8a6074a6f2e91616a996b547c36f15
		<tag k="place" v="locality" />
		<tag k="ssr:stedsnr" v="809541" />
	</node>
<<<<<<< HEAD
	<node lat="70.35194727953667" lon="31.026967291013587" id="-36086">
		<tag k="name" v="Hansebakken" />
		<tag k="natural" v="slope" />
		<tag k="place" v="locality" />
		<tag k="ssr:stedsnr" v="774984" />
	</node>
	<node lat="70.28317783714905" lon="30.96985062980294" id="-36087">
		<tag k="name" v="Klokkasekshaugen" />
		<tag k="natural" v="hill" />
		<tag k="place" v="locality" />
		<tag k="ssr:stedsnr" v="774986" />
	</node>
	<node lat="70.39129450339568" lon="31.018003419903696" id="-36089">
=======
	<node id="-845875" lat="70.4097861697" lon="30.9652395905">
		<tag k="name" v="Bardvikhøgda" />
		<tag k="natural" v="hill" />
		<tag k="place" v="locality" />
		<tag k="ssr:stedsnr" v="263601" />
	</node>
	<node id="-846386" lat="70.4056389316" lon="30.3431261268">
		<tag k="fixme" v="consider natural=peak for the most distinct mountains in the district" />
		<tag k="name" v="Langryggen - Juovkkaidčearru" />
		<tag k="name:no" v="Langryggen" />
		<tag k="name:se" v="Juovkkaidčearru" />
		<tag k="natural" v="hill" />
		<tag k="old_name:se" v="Juovkaidčærro" />
		<tag k="place" v="locality" />
		<tag k="ssr:stedsnr" v="808885" />
	</node>
	<node id="-845871" lat="70.3377667165" lon="30.4776954423">
		<tag k="name" v="Stuorát Lemetávži" />
		<tag k="name:se" v="Stuorát Lemetávži" />
		<tag k="natural" v="valley" />
		<tag k="old_name:se" v="Lemetavži, stuorat" />
		<tag k="place" v="locality" />
		<tag k="ssr:stedsnr" v="262945" />
	</node>
	<node id="-846381" lat="70.4092861634" lon="30.7897813761">
		<tag k="name" v="Østerdalen" />
		<tag k="natural" v="valley" />
		<tag k="place" v="locality" />
		<tag k="ssr:stedsnr" v="775956" />
	</node>
	<node id="-846379" lat="70.3912945034" lon="31.0180034199">
>>>>>>> e1d4bc35ff8a6074a6f2e91616a996b547c36f15
		<tag k="name" v="Martinahaugen" />
		<tag k="natural" v="hill" />
		<tag k="place" v="locality" />
		<tag k="ssr:stedsnr" v="774999" />
	</node>
<<<<<<< HEAD
	<node lat="70.42597227245997" lon="30.811695260617476" id="-36091">
		<tag k="fixme" v="consider natural=peak for the most distinct mountains in the district" />
		<tag k="name" v="Hestmana" />
		<tag k="natural" v="hill" />
		<tag k="place" v="locality" />
		<tag k="ssr:stedsnr" v="775920" />
	</node>
	<node lat="70.40563893162154" lon="30.343126126752733" id="-36095">
		<tag k="fixme" v="consider natural=peak for the most distinct mountains in the district" />
		<tag k="name" v="Langryggen - Juovkkaidčearru" />
		<tag k="name:no" v="Langryggen" />
		<tag k="name:se" v="Juovkkaidčearru" />
		<tag k="natural" v="hill" />
		<tag k="old_name:se" v="Juovkaidčærro" />
		<tag k="place" v="locality" />
		<tag k="ssr:stedsnr" v="808885" />
	</node>
	<node lat="70.33338339848245" lon="31.03455337813262" id="-36100">
		<tag k="fixme" v="consider natural=peak for the most distinct mountains in the district" />
		<tag k="loc_name:fkv" v="Tuumeni" />
		<tag k="loc_name:se" v="Duommabávti" />
		<tag k="name" v="Domen" />
		<tag k="name:no" v="Domen" />
		<tag k="natural" v="hill" />
		<tag k="place" v="locality" />
		<tag k="ssr:stedsnr" v="809647" />
	</node>
	<node lat="70.26648339255266" lon="30.84215627272225" id="-36107">
		<tag k="name" v="Grunneshalsen" />
		<tag k="place" v="locality" />
		<tag k="ssr:stedsnr" v="835916" />
	</node>
	<node lat="70.3744083896597" lon="31.021531185667275" id="-36108">
		<tag k="name" v="Storsandhaugen" />
		<tag k="natural" v="hill" />
		<tag k="place" v="locality" />
		<tag k="ssr:stedsnr" v="835989" />
	</node>
	<node lat="70.35823061760982" lon="31.014750635394982" id="-36110">
		<tag k="name" v="Kroklia" />
		<tag k="natural" v="slope" />
		<tag k="place" v="locality" />
		<tag k="ssr:stedsnr" v="835994" />
	</node>
	<node lat="70.32523061808689" lon="31.032114496914957" id="-36114">
		<tag k="name" v="Vannskillet" />
		<tag k="natural" v="hill" />
		<tag k="place" v="locality" />
		<tag k="ssr:stedsnr" v="835956" />
	</node>
	<node lat="70.40681950362872" lon="31.008836775258107" id="-36117">
		<tag k="name" v="Hyseberget" />
		<tag k="natural" v="hill" />
		<tag k="place" v="locality" />
		<tag k="ssr:stedsnr" v="835962" />
	</node>
	<node lat="70.27779451210297" lon="30.949870071645357" id="-36119">
		<tag k="name" v="Olahaugen" />
		<tag k="natural" v="hill" />
		<tag k="place" v="locality" />
		<tag k="ssr:stedsnr" v="835997" />
	</node>
	<node lat="70.38884450602458" lon="31.13481444084079" id="-36120">
		<tag k="alt_name" v="Trygga" />
		<tag k="name" v="Stygga" />
		<tag k="natural" v="slope" />
		<tag k="place" v="locality" />
		<tag k="ssr:stedsnr" v="835998" />
	</node>
	<node lat="70.2644306103186" lon="30.699231370176793" id="-36124">
		<tag k="name" v="Langbunesbergan" />
		<tag k="natural" v="hill" />
		<tag k="place" v="locality" />
		<tag k="ssr:stedsnr" v="869538" />
	</node>
	<node lat="70.31251115932902" lon="30.29093165089211" id="-36128">
		<tag k="fixme" v="consider natural=peak for the most distinct mountains in the district" />
		<tag k="name" v="Huhttirčohkat" />
		<tag k="name:se" v="Huhttirčohkat" />
		<tag k="natural" v="hill" />
		<tag k="old_name:se" v="Huttirčåkkat;Muhttirčohkat" />
		<tag k="place" v="locality" />
		<tag k="ssr:stedsnr" v="869925" />
	</node>
	<node lat="70.36516115676177" lon="30.35745107937264" id="-36129">
		<tag k="fixme" v="consider natural=peak for the most distinct mountains in the district" />
		<tag k="name" v="Juovkkaiddulpi" />
		<tag k="name:se" v="Juovkkaiddulpi" />
		<tag k="natural" v="hill" />
		<tag k="old_name:se" v="Juovkaiddulpi" />
		<tag k="place" v="locality" />
		<tag k="ssr:stedsnr" v="869928" />
	</node>
	<node lat="70.2141833901218" lon="30.474762042513163" id="-36139">
		<tag k="name" v="Pakola" />
		<tag k="name:fkv" v="Pakola" />
		<tag k="place" v="locality" />
		<tag k="ssr:stedsnr" v="940523" />
	</node>
	<node lat="70.23185560916207" lon="30.49474259149161" id="-36141">
		<tag k="name" v="Komagsletta" />
		<tag k="place" v="locality" />
		<tag k="ssr:stedsnr" v="955079" />
	</node>
	<node lat="70.42847504933766" lon="30.726853657285346" id="-36147">
		<tag k="name" v="Vesterelvhaugen" />
		<tag k="natural" v="hill" />
		<tag k="place" v="locality" />
		<tag k="ssr:stedsnr" v="956936" />
=======
	<node id="-846377" lat="70.2831778371" lon="30.9698506298">
		<tag k="name" v="Klokkasekshaugen" />
		<tag k="natural" v="hill" />
		<tag k="place" v="locality" />
		<tag k="ssr:stedsnr" v="774986" />
	</node>
	<node id="-846376" lat="70.3519472795" lon="31.026967291">
		<tag k="name" v="Hansebakken" />
		<tag k="natural" v="slope" />
		<tag k="place" v="locality" />
		<tag k="ssr:stedsnr" v="774984" />
	</node>
	<node id="-846372" lat="70.3979111715" lon="30.9973812319">
		<tag k="name" v="Øvre Klokkerhaugen" />
		<tag k="natural" v="hill" />
		<tag k="place" v="locality" />
		<tag k="ssr:stedsnr" v="774955" />
	</node>
	<node id="-845917" lat="70.4372306072" lon="30.8514646956">
		<tag k="name" v="Næringsbergan" />
		<tag k="natural" v="hill" />
		<tag k="place" v="locality" />
		<tag k="ssr:stedsnr" v="470945" />
	</node>
	<node id="-846366" lat="70.2271722736" lon="30.405156539">
		<tag k="fixme" v="consider natural=peak for the most distinct mountains in the district" />
		<tag k="name" v="Suolovárri" />
		<tag k="name:se" v="Suolovárri" />
		<tag k="natural" v="hill" />
		<tag k="place" v="locality" />
		<tag k="ssr:stedsnr" v="758589" />
	</node>
	<node id="-845853" lat="70.345780616" lon="31.0380700532">
		<tag k="name" v="Domsbergan" />
		<tag k="natural" v="hill" />
		<tag k="place" v="locality" />
		<tag k="ssr:stedsnr" v="228231" />
	</node>
	<node id="-846363" lat="70.2765750676" lon="30.9559395163">
		<tag k="alt_name" v="Mariahaug" />
		<tag k="name" v="Marjahaugen" />
		<tag k="natural" v="hill" />
		<tag k="place" v="locality" />
		<tag k="ssr:stedsnr" v="753658" />
	</node>
	<node id="-846360" lat="70.284483381" lon="30.2369233566">
		<tag k="name" v="Portsletta" />
		<tag k="place" v="locality" />
		<tag k="ssr:stedsnr" v="748928" />
	</node>
	<node id="-845847" lat="70.2556389466" lon="30.6570036076">
		<tag k="alt_name" v="Smelrorbergan" />
		<tag k="name" v="Smellrorbergan" />
		<tag k="natural" v="hill" />
		<tag k="place" v="locality" />
		<tag k="ssr:stedsnr" v="20517" />
	</node>
	<node id="-846357" lat="70.307000062" lon="30.9179978883">
		<tag k="fixme" v="consider natural=peak for the most distinct mountains in the district" />
		<tag k="name" v="Storvarden" />
		<tag k="natural" v="hill" />
		<tag k="place" v="locality" />
		<tag k="ssr:stedsnr" v="748634" />
	</node>
	<node id="-846353" lat="70.3821750578" lon="30.9065396265">
		<tag k="fixme" v="consider natural=peak for the most distinct mountains in the district" />
		<tag k="name" v="Mellomfjellet" />
		<tag k="natural" v="hill" />
		<tag k="place" v="locality" />
		<tag k="ssr:stedsnr" v="748611" />
	</node>
	<node id="-846352" lat="70.3986195062" lon="31.0737061748">
		<tag k="fixme" v="consider natural=peak for the most distinct mountains in the district" />
		<tag k="name" v="Skagen" />
		<tag k="natural" v="hill" />
		<tag k="place" v="locality" />
		<tag k="ssr:stedsnr" v="748608" />
	</node>
	<node id="-846351" lat="70.4080111626" lon="30.8096980261">
		<tag k="name" v="Steindalen" />
		<tag k="natural" v="valley" />
		<tag k="place" v="locality" />
		<tag k="ssr:stedsnr" v="748602" />
	</node>
	<node id="-846344" lat="70.2727278115" lon="29.4048765642">
		<tag k="fixme" v="consider natural=peak for the most distinct mountains in the district" />
		<tag k="loc_name:fkv" v="Kivitunturi" />
		<tag k="name" v="Urdfjellet - Jiessavárri" />
		<tag k="name:no" v="Urdfjellet" />
		<tag k="name:se" v="Jiessavárri" />
		<tag k="natural" v="hill" />
		<tag k="old_name:se" v="Jiessavarri" />
		<tag k="place" v="locality" />
		<tag k="ssr:stedsnr" v="875982" />
	</node>
	<node id="-846343" lat="70.4127111686" lon="30.9150229672">
		<tag k="fixme" v="consider natural=peak for the most distinct mountains in the district" />
		<tag k="name" v="Nerdalshøgda" />
		<tag k="natural" v="hill" />
		<tag k="place" v="locality" />
		<tag k="ssr:stedsnr" v="653960" />
	</node>
	<node id="-846340" lat="70.2877139477" lon="30.9999256068">
		<tag k="name" v="Korshaugen" />
		<tag k="natural" v="hill" />
		<tag k="place" v="locality" />
		<tag k="ssr:stedsnr" v="652984" />
	</node>
	<node id="-846338" lat="70.2995972848" lon="31.0245589367">
		<tag k="name" v="Mollvikbakken" />
		<tag k="natural" v="slope" />
		<tag k="place" v="locality" />
		<tag k="ssr:stedsnr" v="652977" />
>>>>>>> e1d4bc35ff8a6074a6f2e91616a996b547c36f15
	</node>
</osm>
