<?xml version="1.0" encoding="UTF-8"?>
<<<<<<< HEAD
<osm version="0.6" generator="osmapis">
	<node lat="70.37051672928199" lon="31.1095366695128" id="-35592">
		<tag k="loc_name:se" v="Várggát" />
		<tag k="name" v="Vardø - Vuorea" />
		<tag k="name:fkv" v="Vuorea" />
		<tag k="name:no" v="Vardø" />
		<tag k="place" v="town" />
		<tag k="ssr:stedsnr" v="263614" />
	</node>
	<node lat="70.44117505115021" lon="30.85957302186011" id="-35643">
		<tag k="name" v="Prestnæringen" />
		<tag k="place" v="isolated_dwelling" />
		<tag k="ssr:stedsnr" v="384551" />
	</node>
	<node lat="70.43696950366328" lon="30.963317380918287" id="-35666">
=======
<osm generator="osmapis" version="0.6">
	<node id="-846384" lat="70.2743972868" lon="30.9424950888">
		<tag k="alt_name" v="Kiberg, in" />
		<tag k="name" v="Indre Kiberg" />
		<tag k="place" v="hamlet" />
		<tag k="ssr:stedsnr" v="808489" />
	</node>
	<node id="-845950" lat="70.4369695037" lon="30.9633173809">
>>>>>>> e1d4bc35ff8a6074a6f2e91616a996b547c36f15
		<tag k="name" v="Kavringen" />
		<tag k="place" v="farm" />
		<tag k="ssr:stedsnr" v="512416" />
	</node>
<<<<<<< HEAD
	<node lat="70.3586861662885" lon="31.030020077332896" id="-35682">
		<tag k="name" v="Svartnes" />
		<tag k="place" v="hamlet" />
		<tag k="ssr:stedsnr" v="688619" />
	</node>
	<node lat="70.36733617529629" lon="31.11776999993893" id="-35734">
		<tag k="name" v="Østervågen" />
		<tag k="place" v="suburb" />
		<tag k="ssr:stedsnr" v="228960" />
	</node>
	<node lat="70.38535005565107" lon="31.020428431743827" id="-35737">
=======
	<node id="-846364" lat="70.3853500557" lon="31.0204284317">
>>>>>>> e1d4bc35ff8a6074a6f2e91616a996b547c36f15
		<tag k="fixme" v="consider place=hamlet" />
		<tag k="name" v="Smelror" />
		<tag k="place" v="village" />
		<tag k="ssr:stedsnr" v="755402" />
	</node>
<<<<<<< HEAD
	<node lat="70.27439728682548" lon="30.94249508882624" id="-35745">
		<tag k="alt_name:no" v="Kiberg, in" />
		<tag k="loc_name:fkv" v="Sisä-Kiiperi" />
		<tag k="name" v="Indre Kiberg" />
		<tag k="name:no" v="Indre Kiberg" />
		<tag k="place" v="hamlet" />
		<tag k="ssr:stedsnr" v="808489" />
	</node>
	<node lat="70.42028894030268" lon="30.79106750463453" id="-35784">
=======
	<node id="-846186" lat="70.4257833879" lon="30.7184786644">
		<tag k="name" v="Vesterelva" />
		<tag k="place" v="hamlet" />
		<tag k="ssr:stedsnr" v="207642" />
	</node>
	<node id="-846234" lat="70.4411750512" lon="30.8595730219">
		<tag k="name" v="Prestnæringen" />
		<tag k="place" v="isolated_dwelling" />
		<tag k="ssr:stedsnr" v="384551" />
	</node>
	<node id="-846041" lat="70.4202889403" lon="30.7910675046">
>>>>>>> e1d4bc35ff8a6074a6f2e91616a996b547c36f15
		<tag k="fixme" v="consider place=hamlet" />
		<tag k="name" v="Persfjord" />
		<tag k="place" v="village" />
		<tag k="ssr:stedsnr" v="930593" />
	</node>
<<<<<<< HEAD
	<node lat="70.24576394181084" lon="30.53312590662479" id="-35802">
		<tag k="fixme" v="consider place=hamlet" />
		<tag k="name" v="Komagvær - Kumaveri" />
		<tag k="name:fkv" v="Kumaveri" />
		<tag k="name:no" v="Komagvær" />
		<tag k="place" v="village" />
		<tag k="ssr:stedsnr" v="20524" />
	</node>
	<node lat="70.4280417314355" lon="30.761092515285863" id="-35812">
		<tag k="name" v="Hamna" />
		<tag k="place" v="farm" />
		<tag k="ssr:stedsnr" v="20611" />
	</node>
	<node lat="70.3749972863065" lon="31.117528349384866" id="-35863">
		<tag k="name" v="Vestervågen" />
		<tag k="place" v="suburb" />
		<tag k="ssr:stedsnr" v="167997" />
	</node>
	<node lat="70.22613339354548" lon="30.490464821779494" id="-35875">
=======
	<node id="-846168" lat="70.2261333935" lon="30.4904648218">
>>>>>>> e1d4bc35ff8a6074a6f2e91616a996b547c36f15
		<tag k="name" v="Tyrolheim" />
		<tag k="place" v="isolated_dwelling" />
		<tag k="ssr:stedsnr" v="202511" />
	</node>
<<<<<<< HEAD
	<node lat="70.28536673305099" lon="30.997264486388648" id="-35878">
		<tag k="alt_name:no" v="Kiberg, yt;Ytre Kiberg" />
		<tag k="name" v="Kiberg - Kiiperi" />
		<tag k="name:fkv" v="Kiiperi" />
		<tag k="name:no" v="Kiberg" />
		<tag k="place" v="village" />
		<tag k="ssr:stedsnr" v="202520" />
	</node>
	<node lat="70.42578338785961" lon="30.718478664396912" id="-35890">
		<tag k="name" v="Vesterelva" />
		<tag k="place" v="hamlet" />
		<tag k="ssr:stedsnr" v="207642" />
	</node>
	<node lat="70.26652228339886" lon="30.859014580948486" id="-35928">
		<tag k="name" v="Kramvik" />
		<tag k="place" v="hamlet" />
		<tag k="ssr:stedsnr" v="383536" />
	</node>
	<node lat="70.37205561839879" lon="31.095322806622637" id="-35998">
		<tag k="alt_name:no" v="Vardøhus festning" />
		<tag k="landuse" v="military" />
		<tag k="loc_name:fkv" v="Vuorean  fästinki" />
		<tag k="loc_name:se" v="Várggáidlanni" />
		<tag k="name" v="Vardøhus" />
		<tag k="name:no" v="Vardøhus" />
		<tag k="ssr:stedsnr" v="566599" />
	</node>
	<node lat="70.25642783814402" lon="30.688934150971626" id="-36000">
		<tag k="fixme" v="consider place=hamlet" />
		<tag k="name" v="Langbunes" />
		<tag k="place" v="village" />
		<tag k="ssr:stedsnr" v="571538" />
	</node>
	<node lat="70.27386950599637" lon="30.904647884932608" id="-36083">
=======
	<node id="-845876" lat="70.3705167293" lon="31.1095366695">
		<tag k="name" v="Vardø - Vuorea" />
		<tag k="name:fkv" v="Vuorea" />
		<tag k="name:no" v="Vardø" />
		<tag k="place" v="town" />
		<tag k="ssr:stedsnr" v="263614" />
	</node>
	<node id="-846164" lat="70.3749972863" lon="31.1175283494">
		<tag k="name" v="Vestervågen" />
		<tag k="place" v="suburb" />
		<tag k="ssr:stedsnr" v="167997" />
	</node>
	<node id="-846003" lat="70.3586861663" lon="31.0300200773">
		<tag k="name" v="Svartnes" />
		<tag k="place" v="hamlet" />
		<tag k="ssr:stedsnr" v="688619" />
	</node>
	<node id="-846448" lat="69.6807751959" lon="19.0868014399">
		<tag k="fixme" v="consider place=hamlet" />
		<tag k="name" v="Krokelv" />
		<tag k="place" v="farm" />
		<tag k="ssr:stedsnr" v="1076826" />
	</node>
	<node id="-846447" lat="69.6548386171" lon="18.9540555979">
		<tag k="amenity" v="school" />
		<tag k="name" v="Ishavsbyen videregående skole" />
		<tag k="ssr:stedsnr" v="1075695" />
	</node>
	<node id="-846286" lat="70.2564278381" lon="30.688934151">
		<tag k="fixme" v="consider place=hamlet" />
		<tag k="name" v="Langbunes" />
		<tag k="place" v="village" />
		<tag k="ssr:stedsnr" v="571538" />
	</node>
	<node id="-846284" lat="70.3720556184" lon="31.0953228066">
		<tag k="alt_name" v="Vardøhus festning" />
		<tag k="landuse" v="military" />
		<tag k="name" v="Vardøhus" />
		<tag k="ssr:stedsnr" v="566599" />
	</node>
	<node id="-845848" lat="70.2457639418" lon="30.5331259066">
		<tag k="fixme" v="consider place=hamlet" />
		<tag k="name" v="Komagvær - Kumaveri" />
		<tag k="name:fkv" v="Kumaveri" />
		<tag k="name:no" v="Komagvær" />
		<tag k="place" v="village" />
		<tag k="ssr:stedsnr" v="20524" />
	</node>
	<node id="-846442" lat="70.2844056195" lon="30.999225593">
		<tag k="building" v="industrial" />
		<tag k="industrial" v="factory" />
		<tag k="name" v="Mathisenbruket" />
		<tag k="ssr:stedsnr" v="957782" />
	</node>
	<node id="-846220" lat="70.2665222834" lon="30.8590145809">
		<tag k="name" v="Kramvik" />
		<tag k="place" v="hamlet" />
		<tag k="ssr:stedsnr" v="383536" />
	</node>
	<node id="-845851" lat="70.4264639421" lon="30.7636369659">
		<tag k="name" v="Hamna" />
		<tag k="place" v="isolated_dwelling" />
		<tag k="ssr:stedsnr" v="20611" />
	</node>
	<node id="-845892" lat="70.3673361753" lon="31.1177699999">
		<tag k="name" v="Østervågen" />
		<tag k="place" v="suburb" />
		<tag k="ssr:stedsnr" v="228960" />
	</node>
	<node id="-846370" lat="70.273869506" lon="30.9046478849">
>>>>>>> e1d4bc35ff8a6074a6f2e91616a996b547c36f15
		<tag k="name" v="Solstad" />
		<tag k="place" v="farm" />
		<tag k="ssr:stedsnr" v="774942" />
	</node>
<<<<<<< HEAD
	<node lat="70.28440561946489" lon="30.999225593012937" id="-36155">
		<tag k="building" v="industrial" />
		<tag k="industrial" v="factory" />
		<tag k="name" v="Mathisenbruket" />
		<tag k="ssr:stedsnr" v="957782" />
	</node>
	<node lat="69.65483861708206" lon="18.954055597917613" id="-36159">
		<tag k="amenity" v="school" />
		<tag k="name" v="Ishavsbyen videregående skole" />
		<tag k="ssr:stedsnr" v="1075695" />
=======
	<node id="-846171" lat="70.2853667331" lon="30.9972644864">
		<tag k="alt_name:no" v="Kiberg, yt;Ytre Kiberg" />
		<tag k="name" v="Kiberg - Kiiperi" />
		<tag k="name:fkv" v="Kiiperi" />
		<tag k="name:no" v="Kiberg" />
		<tag k="place" v="village" />
		<tag k="ssr:stedsnr" v="202520" />
>>>>>>> e1d4bc35ff8a6074a6f2e91616a996b547c36f15
	</node>
</osm>
