<?xml version="1.0" encoding="UTF-8"?>
<<<<<<< HEAD
<osm version="0.6" generator="osmapis">
	<node lat="70.30694728171571" lon="30.965314540703027" id="-35563">
		<tag k="name" v="Fosseramyra" />
		<tag k="natural" v="wetland" />
		<tag k="ssr:stedsnr" v="46212" />
	</node>
	<node lat="70.30423894898873" lon="30.950492319027607" id="-35566">
		<tag k="name" v="Bendikmyra" />
		<tag k="natural" v="wetland" />
		<tag k="ssr:stedsnr" v="46975" />
	</node>
	<node lat="70.24268616681887" lon="30.53110090511792" id="-35574">
		<tag k="name" v="Loriagjerdet" />
		<tag k="place" v="locality" />
		<tag k="ssr:stedsnr" v="106049" />
	</node>
	<node lat="70.29858338036341" lon="30.145720633240845" id="-35591">
		<tag k="name" v="Stuorra Suovka" />
		<tag k="name:se" v="Stuorra Suovka" />
		<tag k="old_name:se" v="Suovka, stuorra" />
		<tag k="place" v="locality" />
		<tag k="ssr:stedsnr" v="262939" />
	</node>
	<node lat="70.42497505243642" lon="30.736767538790865" id="-35618">
		<tag k="name" v="Huleng" />
		<tag k="place" v="locality" />
		<tag k="ssr:stedsnr" v="288934" />
	</node>
	<node lat="70.24467783752851" lon="30.510595368341065" id="-35627">
		<tag k="name" v="Bakmyra - Takajänkkä" />
		<tag k="name:fkv" v="Takajänkkä" />
		<tag k="name:no" v="Bakmyra" />
		<tag k="natural" v="wetland" />
		<tag k="ssr:stedsnr" v="470042" />
	</node>
	<node lat="70.28492228199377" lon="30.890361794362306" id="-35655">
		<tag k="name" v="Kramvikdalslåtta" />
=======
<osm generator="osmapis" version="0.6">
	<node id="-846334" lat="70.2450222772" lon="30.4084648916">
		<tag k="name" v="Tarraskargo" />
>>>>>>> e1d4bc35ff8a6074a6f2e91616a996b547c36f15
		<tag k="natural" v="wetland" />
		<tag k="ssr:stedsnr" v="470906" />
	</node>
<<<<<<< HEAD
	<node lat="70.37590561459649" lon="30.98821734293596" id="-35658">
		<tag k="name" v="Jakobslåtta" />
		<tag k="natural" v="wetland" />
		<tag k="ssr:stedsnr" v="471912" />
	</node>
	<node lat="70.37564449951577" lon="31.01567564399926" id="-35660">
		<tag k="name" v="Jakobslåtta" />
		<tag k="natural" v="wetland" />
		<tag k="ssr:stedsnr" v="471977" />
	</node>
	<node lat="70.34738894777453" lon="31.02397006388466" id="-35680">
		<tag k="name" v="Hanseslåttan" />
		<tag k="place" v="locality" />
		<tag k="ssr:stedsnr" v="688609" />
	</node>
	<node lat="70.30819173222284" lon="30.977289512463223" id="-35727">
		<tag k="name" v="Kibergsvassmyra" />
=======
	<node id="-846247" lat="70.391197282" lon="30.9692673482">
		<tag k="alt_name" v="Dynnebergmyra" />
		<tag k="name" v="Dynnebærmyra" />
		<tag k="natural" v="wetland" />
		<tag k="ssr:stedsnr" v="410930" />
	</node>
	<node id="-845947" lat="70.2819528406" lon="30.9409589765">
		<tag k="name" v="Stormyra" />
		<tag k="natural" v="wetland" />
		<tag k="ssr:stedsnr" v="505635" />
	</node>
	<node id="-846198" lat="70.3126500656" lon="30.9774284108">
		<tag k="name" v="Formyra" />
>>>>>>> e1d4bc35ff8a6074a6f2e91616a996b547c36f15
		<tag k="natural" v="wetland" />
		<tag k="ssr:stedsnr" v="713203" />
	</node>
<<<<<<< HEAD
	<node lat="70.38854450391541" lon="31.07495339882401" id="-35729">
		<tag k="name" v="Gammelslåtta" />
=======
	<node id="-846059" lat="70.253536162" lon="30.5309453746">
		<tag k="name" v="Thorvaldslåtta" />
>>>>>>> e1d4bc35ff8a6074a6f2e91616a996b547c36f15
		<tag k="place" v="locality" />
		<tag k="ssr:stedsnr" v="713990" />
	</node>
<<<<<<< HEAD
	<node lat="70.40237505869375" lon="30.93680351307431" id="-35747">
		<tag k="name" v="Bardvikmyra" />
=======
	<node id="-845929" lat="70.3756444995" lon="31.015675644">
		<tag k="name" v="Jakobslåtta" />
>>>>>>> e1d4bc35ff8a6074a6f2e91616a996b547c36f15
		<tag k="natural" v="wetland" />
		<tag k="ssr:stedsnr" v="809607" />
	</node>
<<<<<<< HEAD
	<node lat="70.42963338579528" lon="30.718600891690727" id="-35752">
		<tag k="name" v="Vesterelvsanden" />
=======
	<node id="-846054" lat="70.4281222752" lon="30.7301119827">
		<tag k="name" v="Siksanden" />
>>>>>>> e1d4bc35ff8a6074a6f2e91616a996b547c36f15
		<tag k="natural" v="beach" />
		<tag k="ssr:stedsnr" v="835933" />
		<tag k="surface" v="sand" />
	</node>
<<<<<<< HEAD
	<node lat="70.38464728381881" lon="30.984828451705404" id="-35753">
		<tag k="name" v="Trettenslåtta" />
=======
	<node id="-845923" lat="70.3759056146" lon="30.9882173429">
		<tag k="name" v="Jakobslåtta" />
>>>>>>> e1d4bc35ff8a6074a6f2e91616a996b547c36f15
		<tag k="natural" v="wetland" />
		<tag k="ssr:stedsnr" v="835934" />
	</node>
<<<<<<< HEAD
	<node lat="70.28675562139635" lon="30.88796179273415" id="-35763">
		<tag k="name" v="Kramvikmyra" />
		<tag k="natural" v="wetland" />
		<tag k="ssr:stedsnr" v="930638" />
	</node>
	<node lat="70.23285283510168" lon="30.425775986911436" id="-35772">
		<tag k="name" v="Storbuktmyra - Isolahtijänkkä" />
		<tag k="name:fkv" v="Isolahtijänkkä" />
		<tag k="name:no" v="Storbuktmyra" />
=======
	<node id="-846049" lat="70.2453556159" lon="30.5205036963">
		<tag k="name" v="Kittilägjerdet" />
		<tag k="place" v="locality" />
		<tag k="ssr:stedsnr" v="834062" />
	</node>
	<node id="-845916" lat="70.284922282" lon="30.8903617944">
		<tag k="name" v="Kramvikdalslåtta" />
>>>>>>> e1d4bc35ff8a6074a6f2e91616a996b547c36f15
		<tag k="natural" v="wetland" />
		<tag k="ssr:stedsnr" v="895021" />
	</node>
<<<<<<< HEAD
	<node lat="70.32558339689693" lon="31.044950589389945" id="-35777">
		<tag k="name" v="Vargemyra" />
=======
	<node id="-845914" lat="70.2446778375" lon="30.5105953683">
		<tag k="name" v="Bakmyra - Takajänkkä" />
		<tag k="name:fkv" v="Takajänkkä" />
		<tag k="name:no" v="Bakmyra" />
>>>>>>> e1d4bc35ff8a6074a6f2e91616a996b547c36f15
		<tag k="natural" v="wetland" />
		<tag k="ssr:stedsnr" v="896227" />
	</node>
<<<<<<< HEAD
	<node lat="70.31151117390496" lon="30.97983398183439" id="-35787">
=======
	<node id="-846425" lat="70.3115111739" lon="30.9798339818">
>>>>>>> e1d4bc35ff8a6074a6f2e91616a996b547c36f15
		<tag k="name" v="Nilsenstøkket" />
		<tag k="place" v="locality" />
		<tag k="ssr:stedsnr" v="956223" />
	</node>
<<<<<<< HEAD
	<node lat="70.30402228288497" lon="30.962836750304376" id="-35798">
		<tag k="name" v="Nedre Annasofiemyra" />
=======
	<node id="-846039" lat="70.2867556214" lon="30.8879617927">
		<tag k="name" v="Kramvikmyra" />
>>>>>>> e1d4bc35ff8a6074a6f2e91616a996b547c36f15
		<tag k="natural" v="wetland" />
		<tag k="ssr:stedsnr" v="228974" />
	</node>
<<<<<<< HEAD
	<node lat="70.2958917265416" lon="30.95013397825856" id="-35799">
		<tag k="name" v="Øvre Annasofiemyra" />
=======
	<node id="-846009" lat="70.2328528351" lon="30.4257759869">
		<tag k="name" v="Storbuktmyra - Isolahtijänkkä" />
		<tag k="name:fkv" v="Isolahtijänkkä" />
		<tag k="name:no" v="Storbuktmyra" />
		<tag k="natural" v="wetland" />
		<tag k="ssr:stedsnr" v="895021" />
	</node>
	<node id="-845991" lat="70.3632361663" lon="31.0113645316">
		<tag k="name" v="Vardøslåtten" />
		<tag k="natural" v="wetland" />
		<tag k="ssr:stedsnr" v="714922" />
	</node>
	<node id="-846162" lat="70.2783417312" lon="30.9182673398">
		<tag k="name" v="Storbråtan" />
>>>>>>> e1d4bc35ff8a6074a6f2e91616a996b547c36f15
		<tag k="natural" v="wetland" />
		<tag k="ssr:stedsnr" v="228976" />
	</node>
<<<<<<< HEAD
	<node lat="70.3058250666324" lon="30.969236740665597" id="-35811">
		<tag k="name" v="Anna Sofiemyra" />
		<tag k="natural" v="wetland" />
		<tag k="ssr:stedsnr" v="20658" />
	</node>
	<node lat="70.26911395198253" lon="30.84897569940488" id="-35820">
		<tag k="name" v="Lillemyra" />
		<tag k="natural" v="wetland" />
		<tag k="ssr:stedsnr" v="46917" />
	</node>
	<node lat="70.24127505624038" lon="30.519834250928135" id="-35839">
		<tag k="name" v="Sandan" />
=======
	<node id="-846031" lat="70.4279944939" lon="30.71479257">
		<tag k="name" v="Sandenden" />
>>>>>>> e1d4bc35ff8a6074a6f2e91616a996b547c36f15
		<tag k="natural" v="beach" />
		<tag k="ssr:stedsnr" v="106065" />
		<tag k="surface" v="sand" />
	</node>
<<<<<<< HEAD
	<node lat="70.35557227802761" lon="31.034275623330092" id="-35840">
		<tag k="name" v="Myra" />
		<tag k="natural" v="wetland" />
		<tag k="ssr:stedsnr" v="107540" />
	</node>
	<node lat="70.38044450591288" lon="30.97463679172794" id="-35843">
		<tag k="name" v="Samyra" />
		<tag k="natural" v="wetland" />
		<tag k="ssr:stedsnr" v="107938" />
	</node>
	<node lat="70.28849171592621" lon="30.328014956246545" id="-35855">
=======
	<node id="-846155" lat="70.2314528322" lon="30.4585176171">
		<tag k="name" v="Sandhaugmyran" />
		<tag k="natural" v="wetland" />
		<tag k="ssr:stedsnr" v="166024" />
	</node>
	<node id="-846405" lat="70.2883722867" lon="30.9827811837">
		<tag k="name" v="Odinøra" />
		<tag k="natural" v="scree" />
		<tag k="ssr:stedsnr" v="835993" />
	</node>
	<node id="-846148" lat="70.2884917159" lon="30.3280149562">
>>>>>>> e1d4bc35ff8a6074a6f2e91616a996b547c36f15
		<tag k="name" v="Gironjeaggi" />
		<tag k="name:se" v="Gironjeaggi" />
		<tag k="natural" v="wetland" />
		<tag k="old_name:se" v="Girunjæggi" />
		<tag k="ssr:stedsnr" v="141902" />
	</node>
<<<<<<< HEAD
	<node lat="70.23145283215162" lon="30.458517617075177" id="-35861">
		<tag k="name" v="Sandhaugmyran" />
=======
	<node id="-846019" lat="70.3255833969" lon="31.0449505894">
		<tag k="name" v="Vargemyra" />
>>>>>>> e1d4bc35ff8a6074a6f2e91616a996b547c36f15
		<tag k="natural" v="wetland" />
		<tag k="ssr:stedsnr" v="166024" />
	</node>
<<<<<<< HEAD
	<node lat="70.27834173119967" lon="30.91826733981245" id="-35871">
		<tag k="name" v="Storbråtan" />
=======
	<node id="-846401" lat="70.3846472838" lon="30.9848284517">
		<tag k="name" v="Trettenslåtta" />
>>>>>>> e1d4bc35ff8a6074a6f2e91616a996b547c36f15
		<tag k="natural" v="wetland" />
		<tag k="ssr:stedsnr" v="167951" />
	</node>
<<<<<<< HEAD
	<node lat="70.23385005800695" lon="30.484850941556093" id="-35893">
		<tag k="name" v="Sandhaugen" />
=======
	<node id="-846400" lat="70.4296333858" lon="30.7186008917">
		<tag k="name" v="Vesterelvsanden" />
>>>>>>> e1d4bc35ff8a6074a6f2e91616a996b547c36f15
		<tag k="natural" v="beach" />
		<tag k="ssr:stedsnr" v="227032" />
		<tag k="surface" v="sand" />
	</node>
<<<<<<< HEAD
	<node lat="70.27325006148212" lon="30.844989601371374" id="-35897">
=======
	<node id="-845856" lat="70.3040222829" lon="30.9628367503">
		<tag k="name" v="Nedre Annasofiemyra" />
		<tag k="natural" v="wetland" />
		<tag k="ssr:stedsnr" v="228974" />
	</node>
	<node id="-846398" lat="70.2443889457" lon="30.4836954025">
		<tag k="name" v="Gaisastykket" />
		<tag k="place" v="locality" />
		<tag k="ssr:stedsnr" v="834026" />
	</node>
	<node id="-845883" lat="70.2732500615" lon="30.8449896014">
>>>>>>> e1d4bc35ff8a6074a6f2e91616a996b547c36f15
		<tag k="name" v="Stormyra" />
		<tag k="natural" v="wetland" />
		<tag k="ssr:stedsnr" v="288898" />
	</node>
<<<<<<< HEAD
	<node lat="70.31265006560565" lon="30.97742841083928" id="-35907">
		<tag k="name" v="Formyra" />
		<tag k="natural" v="wetland" />
		<tag k="ssr:stedsnr" v="323626" />
	</node>
	<node lat="70.39119728195573" lon="30.969267348197874" id="-35956">
		<tag k="alt_name" v="Dynnebergmyra" />
		<tag k="name" v="Dynnebærmyra" />
=======
	<node id="-845882" lat="70.4249750524" lon="30.7367675388">
		<tag k="name" v="Huleng" />
		<tag k="place" v="locality" />
		<tag k="ssr:stedsnr" v="288934" />
	</node>
	<node id="-846393" lat="70.4023750587" lon="30.9368035131">
		<tag k="name" v="Bardvikmyra" />
>>>>>>> e1d4bc35ff8a6074a6f2e91616a996b547c36f15
		<tag k="natural" v="wetland" />
		<tag k="ssr:stedsnr" v="410930" />
	</node>
<<<<<<< HEAD
	<node lat="70.24485005346348" lon="30.44872319649163" id="-35971">
		<tag k="name" v="Hollamyra" />
=======
	<node id="-846007" lat="70.3081917322" lon="30.9772895125">
		<tag k="name" v="Kibergsvassmyra" />
>>>>>>> e1d4bc35ff8a6074a6f2e91616a996b547c36f15
		<tag k="natural" v="wetland" />
		<tag k="ssr:stedsnr" v="505518" />
	</node>
	<node lat="70.28195284062927" lon="30.940958976521106" id="-35977">
		<tag k="name" v="Stormyra" />
		<tag k="natural" v="wetland" />
		<tag k="ssr:stedsnr" v="505635" />
	</node>
<<<<<<< HEAD
	<node lat="70.24502227718536" lon="30.40846489163894" id="-36036">
		<tag k="name" v="Tarraskargo" />
		<tag k="natural" v="wetland" />
		<tag k="ssr:stedsnr" v="652102" />
	</node>
	<node lat="70.28993895126628" lon="30.95857007750184" id="-36043">
		<tag k="name" v="Omersnasmyra" />
		<tag k="natural" v="wetland" />
		<tag k="ssr:stedsnr" v="652980" />
	</node>
	<node lat="70.23381672385888" lon="30.492975932400984" id="-36049">
=======
	<node id="-846006" lat="70.2338167239" lon="30.4929759324">
>>>>>>> e1d4bc35ff8a6074a6f2e91616a996b547c36f15
		<tag k="name" v="Sandhaugan" />
		<tag k="natural" v="beach" />
		<tag k="ssr:stedsnr" v="713019" />
		<tag k="surface" v="sand" />
	</node>
<<<<<<< HEAD
	<node lat="70.36323616630067" lon="31.011364531633994" id="-36052">
		<tag k="name" v="Vardøslåtten" />
=======
	<node id="-846129" lat="70.3804445059" lon="30.9746367917">
		<tag k="name" v="Samyra" />
>>>>>>> e1d4bc35ff8a6074a6f2e91616a996b547c36f15
		<tag k="natural" v="wetland" />
		<tag k="ssr:stedsnr" v="714922" />
	</node>
<<<<<<< HEAD
	<node lat="70.41948893957552" lon="30.72756755862593" id="-36054">
		<tag k="name" v="Sersjantmyra" />
		<tag k="natural" v="wetland" />
		<tag k="ssr:stedsnr" v="713944" />
	</node>
	<node lat="70.39137505682193" lon="30.958417368483502" id="-36070">
		<tag k="alt_name" v="Grøhøgdmyran" />
		<tag k="name" v="Grøhøgdmyra" />
		<tag k="natural" v="wetland" />
		<tag k="ssr:stedsnr" v="748612" />
	</node>
	<node lat="70.31872505418828" lon="30.64246198115714" id="-36074">
		<tag k="name" v="Kompanimyra" />
		<tag k="natural" v="wetland" />
		<tag k="ssr:stedsnr" v="748637" />
	</node>
	<node lat="70.42799449388794" lon="30.714792570011365" id="-36082">
		<tag k="name" v="Sandenden" />
=======
	<node id="-845870" lat="70.2985833804" lon="30.1457206332">
		<tag k="name" v="Stuorra Suovka" />
		<tag k="name:se" v="Stuorra Suovka" />
		<tag k="old_name:se" v="Suovka, stuorra" />
		<tag k="place" v="locality" />
		<tag k="ssr:stedsnr" v="262939" />
	</node>
	<node id="-846123" lat="70.2412750562" lon="30.5198342509">
		<tag k="name" v="Sandan" />
>>>>>>> e1d4bc35ff8a6074a6f2e91616a996b547c36f15
		<tag k="natural" v="beach" />
		<tag k="ssr:stedsnr" v="774936" />
		<tag k="surface" v="sand" />
	</node>
<<<<<<< HEAD
	<node lat="70.35079450521441" lon="30.96468956574156" id="-36084">
		<tag k="name" v="Oksevassmyra" />
		<tag k="natural" v="wetland" />
		<tag k="ssr:stedsnr" v="774943" />
	</node>
	<node lat="70.30250006470105" lon="30.980892297027864" id="-36085">
		<tag k="name" v="Svenskemyra" />
		<tag k="natural" v="wetland" />
		<tag k="ssr:stedsnr" v="774981" />
	</node>
	<node lat="70.24535561594568" lon="30.5205036963235" id="-36104">
		<tag k="name" v="Kittilägjerdet" />
=======
	<node id="-846121" lat="70.2426861668" lon="30.5311009051">
		<tag k="name" v="Loriagjerdet" />
		<tag k="place" v="locality" />
		<tag k="ssr:stedsnr" v="106049" />
	</node>
	<node id="-846126" lat="70.355572278" lon="31.0342756233">
		<tag k="name" v="Myra" />
		<tag k="natural" v="wetland" />
		<tag k="ssr:stedsnr" v="107540" />
	</node>
	<node id="-846375" lat="70.3025000647" lon="30.980892297">
		<tag k="name" v="Svenskemyra" />
		<tag k="natural" v="wetland" />
		<tag k="ssr:stedsnr" v="774981" />
	</node>
	<node id="-846001" lat="70.3473889478" lon="31.0239700639">
		<tag k="name" v="Hanseslåttan" />
		<tag k="place" v="locality" />
		<tag k="ssr:stedsnr" v="688609" />
	</node>
	<node id="-845988" lat="70.3885445039" lon="31.0749533988">
		<tag k="name" v="Gammelslåtta" />
>>>>>>> e1d4bc35ff8a6074a6f2e91616a996b547c36f15
		<tag k="place" v="locality" />
		<tag k="ssr:stedsnr" v="834062" />
	</node>
<<<<<<< HEAD
	<node lat="70.24438894566933" lon="30.483695402482418" id="-36105">
		<tag k="name" v="Gaisastykket" />
		<tag k="place" v="locality" />
		<tag k="ssr:stedsnr" v="834026" />
	</node>
	<node lat="70.28837228672964" lon="30.98278118372343" id="-36109">
		<tag k="name" v="Odinøra" />
		<tag k="natural" v="scree" />
		<tag k="ssr:stedsnr" v="835993" />
	</node>
	<node lat="70.42812227524499" lon="30.730111982670735" id="-36116">
		<tag k="name" v="Siksanden" />
		<tag k="natural" v="beach" />
		<tag k="ssr:stedsnr" v="835959" />
		<tag k="surface" v="sand" />
	</node>
	<node lat="70.25353616200823" lon="30.530945374557735" id="-36140">
		<tag k="name" v="Thorvaldslåtta" />
		<tag k="place" v="locality" />
		<tag k="ssr:stedsnr" v="941613" />
=======
	<node id="-846371" lat="70.3507945052" lon="30.9646895657">
		<tag k="name" v="Oksevassmyra" />
		<tag k="natural" v="wetland" />
		<tag k="ssr:stedsnr" v="774943" />
	</node>
	<node id="-845857" lat="70.2958917265" lon="30.9501339783">
		<tag k="name" v="Øvre Annasofiemyra" />
		<tag k="natural" v="wetland" />
		<tag k="ssr:stedsnr" v="228976" />
	</node>
	<node id="-845984" lat="70.4194889396" lon="30.7275675586">
		<tag k="name" v="Sersjantmyra" />
		<tag k="natural" v="wetland" />
		<tag k="ssr:stedsnr" v="713944" />
>>>>>>> e1d4bc35ff8a6074a6f2e91616a996b547c36f15
	</node>
	<node id="-845852" lat="70.233850058" lon="30.4848509416">
		<tag k="name" v="Sandhaugen" />
		<tag k="natural" v="beach" />
		<tag k="ssr:stedsnr" v="227032" />
		<tag k="surface" v="sand" />
	</node>
	<node id="-846107" lat="70.304238949" lon="30.950492319">
		<tag k="name" v="Bendikmyra" />
		<tag k="natural" v="wetland" />
		<tag k="ssr:stedsnr" v="46975" />
	</node>
	<node id="-846359" lat="70.3187250542" lon="30.6424619812">
		<tag k="name" v="Kompanimyra" />
		<tag k="natural" v="wetland" />
		<tag k="ssr:stedsnr" v="748637" />
	</node>
	<node id="-846099" lat="70.269113952" lon="30.8489756994">
		<tag k="name" v="Lillemyra" />
		<tag k="natural" v="wetland" />
		<tag k="ssr:stedsnr" v="46917" />
	</node>
	<node id="-846354" lat="70.3913750568" lon="30.9584173685">
		<tag k="alt_name" v="Grøhøgdmyran" />
		<tag k="name" v="Grøhøgdmyra" />
		<tag k="natural" v="wetland" />
		<tag k="ssr:stedsnr" v="748612" />
	</node>
	<node id="-846097" lat="70.3069472817" lon="30.9653145407">
		<tag k="name" v="Fosseramyra" />
		<tag k="natural" v="wetland" />
		<tag k="ssr:stedsnr" v="46212" />
	</node>
	<node id="-845959" lat="70.2448500535" lon="30.4487231965">
		<tag k="name" v="Hollamyra" />
		<tag k="natural" v="wetland" />
		<tag k="ssr:stedsnr" v="505518" />
	</node>
	<node id="-846086" lat="70.3058250666" lon="30.9692367407">
		<tag k="name" v="Anna Sofiemyra" />
		<tag k="natural" v="wetland" />
		<tag k="ssr:stedsnr" v="20658" />
	</node>
	<node id="-846339" lat="70.2899389513" lon="30.9585700775">
		<tag k="name" v="Omersnasmyra" />
		<tag k="natural" v="wetland" />
		<tag k="ssr:stedsnr" v="652980" />
	</node>
</osm>
