<?xml version="1.0" encoding="UTF-8"?>
<osm generator="osmapis" version="0.6">
	<node id="-83776" lat="70.3774667226" lon="31.1021950318">
		<tag k="man_made" v="breakwater" />
		<tag k="name" v="Festningsgatmoloen" />
		<tag k="place" v="locality" />
		<tag k="ssr:stedsnr" v="410993" />
	</node>
	<node id="-83775" lat="70.3641472839" lon="31.0495311584">
		<tag k="man_made" v="breakwater" />
		<tag k="name" v="Søndremolo" />
		<tag k="place" v="locality" />
		<tag k="ssr:stedsnr" v="410988" />
	</node>
	<node id="-83564" lat="70.2187778304" lon="30.4578009578">
		<tag k="highway" v="path" />
		<tag k="name" v="Kvalnesvegen" />
		<tag k="ssr:stedsnr" v="819561" />
	</node>
	<node id="-83963" lat="70.4282111652" lon="30.7687341796">
		<tag k="landuse" v="harbour" />
		<tag k="name" v="Hamna" />
		<tag k="seamark:type" v="harbour" />
		<tag k="ssr:stedsnr" v="957917" />
	</node>
	<node id="-83734" lat="70.282994506" lon="30.9972478091">
		<tag k="landuse" v="harbour" />
		<tag k="name" v="Ytterhamna" />
		<tag k="seamark:type" v="harbour" />
		<tag k="ssr:stedsnr" v="350756" />
	</node>
	<node id="-83565" lat="70.2512639461" lon="30.5295731561">
		<tag k="highway" v="path" />
		<tag k="name" v="Geitvegen" />
		<tag k="ssr:stedsnr" v="820618" />
	</node>
	<node id="-83632" lat="70.3774222823" lon="31.1101700122">
		<tag k="man_made" v="breakwater" />
		<tag k="name" v="Vestervågmoloen" />
		<tag k="place" v="locality" />
		<tag k="ssr:stedsnr" v="46994" />
	</node>
	<node id="-83789" lat="70.3684945056" lon="31.047128391">
		<tag k="man_made" v="breakwater" />
		<tag k="name" v="Nordremolo" />
		<tag k="place" v="locality" />
		<tag k="ssr:stedsnr" v="531989" />
	</node>
	<node id="-83404" lat="70.3009750604" lon="31.0103422713">
		<tag k="junction" v="yes" />
		<tag k="name" v="Mollvikkrysset" />
		<tag k="place" v="locality" />
		<tag k="ssr:stedsnr" v="288977" />
	</node>
	<node id="-83657" lat="70.3846167277" lon="31.1552311054">
		<tag k="fixme" v="verify maritime location" />
		<tag k="mooring" v="yes" />
		<tag k="name" v="Landinga" />
		<tag k="place" v="locality" />
		<tag k="ssr:stedsnr" v="107994" />
	</node>
	<node id="-83463" lat="70.3564667235" lon="31.0439172799">
		<tag k="aeroway" v="aerodrome" />
		<tag k="alt_name:no" v="Svartnes" />
		<tag k="name" v="Vardø lufthavn, Svartnes - Vuorean lentohamina" />
		<tag k="name:fkv" v="Vuorean lentohamina" />
		<tag k="name:no" v="Vardø lufthavn, Svartnes" />
		<tag k="old_name:no" v="Vardø lufthavn" />
		<tag k="ssr:stedsnr" v="505620" />
	</node>
	<node id="-83778" lat="70.2840667257" lon="30.9824228368">
		<tag k="landuse" v="harbour" />
		<tag k="name" v="Innerhamna" />
		<tag k="seamark:type" v="harbour" />
		<tag k="ssr:stedsnr" v="411778" />
	</node>
</osm>
