<?xml version="1.0" encoding="UTF-8"?>
<osm version="0.6" generator="osmapis">
	<node lat="70.37041950525195" lon="31.111928349332725" id="-38121">
		<tag k="amenity" v="place_of_worship" />
		<tag k="denomination" v="lutheran" />
		<tag k="loc_name:se" v="Várggáid girku" />
		<tag k="name" v="Vardø kirke" />
		<tag k="name:no" v="Vardø kirke" />
		<tag k="religion" v="christian" />
		<tag k="ssr:stedsnr" v="272822" />
	</node>
	<node lat="70.36619173820773" lon="30.7904610426643" id="-38183">
		<tag k="name" v="Russehytta" />
		<tag k="place" v="locality" />
		<tag k="ssr:stedsnr" v="688596" />
	</node>
	<node lat="70.30722784553689" lon="31.038997802587136" id="-38199">
		<tag k="name" v="Tyskerprama" />
		<tag k="place" v="locality" />
		<tag k="ssr:stedsnr" v="592956" />
	</node>
	<node lat="70.26687872001432" lon="30.325353298203233" id="-38362">
		<tag k="name" v="Abrahamsenslåtta" />
		<tag k="place" v="locality" />
		<tag k="ssr:stedsnr" v="141907" />
	</node>
	<node lat="70.26236393735896" lon="30.45912598111082" id="-38631">
		<tag k="name" v="Guovžžabiedju" />
		<tag k="name:se" v="Guovžžabiedju" />
		<tag k="old_name:se" v="Guovžabieddjo" />
		<tag k="place" v="locality" />
		<tag k="ssr:stedsnr" v="869906" />
	</node>
</osm>
