<?xml version="1.0" encoding="UTF-8"?>
<osm generator="osmapis" version="0.6">
	<node id="-846448" lat="69.6807751959" lon="19.0868014399">
		<tag k="fixme" v="consider place=hamlet" />
		<tag k="name" v="Krokelv" />
		<tag k="place" v="farm" />
		<tag k="ssr:stedsnr" v="1076826" />
	</node>
	<node id="-846447" lat="69.6548386171" lon="18.9540555979">
		<tag k="amenity" v="school" />
		<tag k="name" v="Ishavsbyen videregående skole" />
		<tag k="ssr:stedsnr" v="1075695" />
	</node>
	<node id="-846444" lat="70.4237111617" lon="30.7957619391">
		<tag k="name" v="Molla" />
		<tag k="natural" v="cape" />
		<tag k="ssr:stedsnr" v="957943" />
	</node>
	<node id="-846443" lat="70.4282111652" lon="30.7687341796">
		<tag k="landuse" v="harbour" />
		<tag k="name" v="Hamna" />
		<tag k="seamark:type" v="harbour" />
		<tag k="ssr:stedsnr" v="957917" />
	</node>
	<node id="-846442" lat="70.2844056195" lon="30.999225593">
		<tag k="building" v="industrial" />
		<tag k="industrial" v="factory" />
		<tag k="name" v="Mathisenbruket" />
		<tag k="ssr:stedsnr" v="957782" />
	</node>
	<node id="-846441" lat="70.3895889456" lon="31.1348088918">
		<tag k="name" v="Hygga" />
		<tag k="natural" v="slope" />
		<tag k="place" v="locality" />
		<tag k="ssr:stedsnr" v="956998" />
	</node>
	<node id="-846440" lat="70.2963611766" lon="30.9883783972">
		<tag k="fixme" v="consider natural=peak for the most distinct mountains in the district" />
		<tag k="name" v="Svenskeraet" />
		<tag k="natural" v="hill" />
		<tag k="place" v="locality" />
		<tag k="ssr:stedsnr" v="956993" />
	</node>
	<node id="-846439" lat="70.300191727" lon="31.0047311587">
		<tag k="name" v="Holman" />
		<tag k="place" v="islet" />
		<tag k="ssr:stedsnr" v="956991" />
	</node>
	<node id="-846438" lat="70.3828833906" lon="31.0362006239">
		<tag k="name" v="Monsebukt" />
		<tag k="natural" v="bay" />
		<tag k="ssr:stedsnr" v="956988" />
	</node>
	<node id="-846437" lat="70.3856389522" lon="31.0335034149">
		<tag k="name" v="Bukten" />
		<tag k="natural" v="bay" />
		<tag k="ssr:stedsnr" v="956987" />
	</node>
	<node id="-846435" lat="70.3892528388" lon="31.0423978611">
		<tag k="fixme" v="consider seamark:type=rock or natural=shoal" />
		<tag k="name" v="Holmskjæret" />
		<tag k="place" v="islet" />
		<tag k="ssr:stedsnr" v="956984" />
	</node>
	<node id="-846434" lat="70.4106028365" lon="30.9751229109">
		<tag k="name" v="Kistvatnet" />
		<tag k="natural" v="water" />
		<tag k="ssr:stedsnr" v="956983" />
	</node>
	<node id="-846433" lat="70.3636417285" lon="31.1161977873">
		<tag k="name" v="Batteriet" />
		<tag k="place" v="islet" />
		<tag k="ssr:stedsnr" v="956976" />
	</node>
	<node id="-846432" lat="70.4298528326" lon="30.7380397747">
		<tag k="name" v="Frøkenhollbukta" />
		<tag k="natural" v="bay" />
		<tag k="ssr:stedsnr" v="956972" />
	</node>
	<node id="-846431" lat="70.2850361744" lon="30.912070115">
		<tag k="name" v="Badevatnet" />
		<tag k="natural" v="water" />
		<tag k="ssr:stedsnr" v="956960" />
	</node>
	<node id="-846430" lat="70.2669333968" lon="30.8773312474">
		<tag k="name" v="Varkeila" />
		<tag k="natural" v="bay" />
		<tag k="ssr:stedsnr" v="956954" />
	</node>
	<node id="-846429" lat="70.4284750493" lon="30.7268536573">
		<tag k="name" v="Vesterelvhaugen" />
		<tag k="natural" v="hill" />
		<tag k="place" v="locality" />
		<tag k="ssr:stedsnr" v="956936" />
	</node>
	<node id="-846428" lat="70.2800389451" lon="30.8601479269">
		<tag k="name" v="Lomvatnet" />
		<tag k="natural" v="water" />
		<tag k="ssr:stedsnr" v="956924" />
	</node>
	<node id="-846427" lat="70.2447945005" lon="30.6994424613">
		<tag k="name" v="Vardenes" />
		<tag k="natural" v="cape" />
		<tag k="ssr:stedsnr" v="956917" />
	</node>
	<node id="-846426" lat="70.3927889452" lon="31.0826367071">
		<tag k="name" v="Store Svinvika" />
		<tag k="natural" v="bay" />
		<tag k="ssr:stedsnr" v="956563" />
	</node>
	<node id="-846425" lat="70.3115111739" lon="30.9798339818">
		<tag k="name" v="Nilsenstøkket" />
		<tag k="place" v="locality" />
		<tag k="ssr:stedsnr" v="956223" />
	</node>
	<node id="-846424" lat="70.332341725" lon="31.0501339188">
		<tag k="name" v="Domsholla" />
		<tag k="natural" v="bay" />
		<tag k="ssr:stedsnr" v="956216" />
	</node>
	<node id="-846423" lat="70.2374444955" lon="30.4675592951">
		<tag k="name" v="Rolfholla" />
		<tag k="natural" v="water" />
		<tag k="ssr:stedsnr" v="955128" />
		<tag k="water" v="lake" />
	</node>
	<node id="-846422" lat="70.2411139404" lon="30.4875037255">
		<tag k="name" v="Pedersenholla" />
		<tag k="natural" v="water" />
		<tag k="ssr:stedsnr" v="955124" />
		<tag k="water" v="lake" />
	</node>
	<node id="-846421" lat="70.2384694967" lon="30.4610453911">
		<tag k="name" v="Nerholla" />
		<tag k="natural" v="water" />
		<tag k="ssr:stedsnr" v="955119" />
		<tag k="water" v="lake" />
	</node>
	<node id="-846420" lat="70.2318556092" lon="30.4947425915">
		<tag k="name" v="Komagsletta" />
		<tag k="place" v="locality" />
		<tag k="ssr:stedsnr" v="955079" />
	</node>
	<node id="-846419" lat="70.3928417227" lon="31.031225655">
		<tag k="alt_name" v="Smellror, yt" />
		<tag k="name" v="Ytre Smellror" />
		<tag k="natural" v="cape" />
		<tag k="ssr:stedsnr" v="870587" />
	</node>
	<node id="-846418" lat="70.4236250542" lon="30.9477090496">
		<tag k="name" v="Bardvikelva" />
		<tag k="ssr:stedsnr" v="870572" />
		<tag k="waterway" v="river" />
	</node>
	<node id="-846417" lat="70.2960056153" lon="30.7190841498">
		<tag k="name" v="Støvelvatnet" />
		<tag k="natural" v="water" />
		<tag k="ssr:stedsnr" v="869657" />
	</node>
	<node id="-846416" lat="70.2644306103" lon="30.6992313702">
		<tag k="name" v="Langbunesbergan" />
		<tag k="natural" v="hill" />
		<tag k="place" v="locality" />
		<tag k="ssr:stedsnr" v="869538" />
	</node>
	<node id="-846415" lat="70.2409667233" lon="30.5253092427">
		<tag k="name" v="Komagværbukta" />
		<tag k="natural" v="bay" />
		<tag k="ssr:stedsnr" v="869534" />
	</node>
	<node id="-846414" lat="70.3651611568" lon="30.3574510794">
		<tag k="fixme" v="consider natural=peak for the most distinct mountains in the district" />
		<tag k="name" v="Juovkkaiddulpi" />
		<tag k="name:se" v="Juovkkaiddulpi" />
		<tag k="natural" v="hill" />
		<tag k="old_name:se" v="Juovkaiddulpi" />
		<tag k="place" v="locality" />
		<tag k="ssr:stedsnr" v="869928" />
	</node>
	<node id="-846413" lat="70.3125111593" lon="30.2909316509">
		<tag k="fixme" v="consider natural=peak for the most distinct mountains in the district" />
		<tag k="name" v="Huhttirčohkat" />
		<tag k="name:se" v="Huhttirčohkat" />
		<tag k="natural" v="hill" />
		<tag k="old_name:se" v="Huttirčåkkat;Muhttirčohkat" />
		<tag k="place" v="locality" />
		<tag k="ssr:stedsnr" v="869925" />
	</node>
	<node id="-846412" lat="70.4609250499" lon="30.7349481101">
		<tag k="alt_name" v="Kvamhulnes" />
		<tag k="fixme" v="multiple name tags, choose one and add the other to alt_name" />
		<tag k="name" v="Blåsenberg;Kvamholnes" />
		<tag k="natural" v="cape" />
		<tag k="ssr:stedsnr" v="869909" />
	</node>
	<node id="-846411" lat="70.2366556151" lon="30.6097008611">
		<tag k="name" v="Trollelvfluan" />
		<tag k="natural" v="shoal" />
		<tag k="place" v="locality" />
		<tag k="ssr:stedsnr" v="843092" />
	</node>
	<node id="-846410" lat="70.4200944996" lon="30.7724036352">
		<tag k="name" v="Storsiket" />
		<tag k="ssr:stedsnr" v="836946" />
		<tag k="waterway" v="stream" />
	</node>
	<node id="-846409" lat="70.388844506" lon="31.1348144408">
		<tag k="alt_name" v="Trygga" />
		<tag k="name" v="Stygga" />
		<tag k="natural" v="slope" />
		<tag k="place" v="locality" />
		<tag k="ssr:stedsnr" v="835998" />
	</node>
	<node id="-846408" lat="70.2777945121" lon="30.9498700716">
		<tag k="name" v="Olahaugen" />
		<tag k="natural" v="hill" />
		<tag k="place" v="locality" />
		<tag k="ssr:stedsnr" v="835997" />
	</node>
	<node id="-846407" lat="70.3716722832" lon="31.0903311539">
		<tag k="name" v="Sunddammen" />
		<tag k="natural" v="bay" />
		<tag k="ssr:stedsnr" v="835995" />
	</node>
	<node id="-846406" lat="70.3582306176" lon="31.0147506354">
		<tag k="name" v="Kroklia" />
		<tag k="natural" v="slope" />
		<tag k="place" v="locality" />
		<tag k="ssr:stedsnr" v="835994" />
	</node>
	<node id="-846405" lat="70.2883722867" lon="30.9827811837">
		<tag k="name" v="Odinøra" />
		<tag k="natural" v="scree" />
		<tag k="ssr:stedsnr" v="835993" />
	</node>
	<node id="-846404" lat="70.3744083897" lon="31.0215311857">
		<tag k="name" v="Storsandhaugen" />
		<tag k="natural" v="hill" />
		<tag k="place" v="locality" />
		<tag k="ssr:stedsnr" v="835989" />
	</node>
	<node id="-846403" lat="70.4413806066" lon="30.8628952377">
		<tag k="name" v="Østerkeila" />
		<tag k="natural" v="bay" />
		<tag k="ssr:stedsnr" v="835976" />
	</node>
	<node id="-846402" lat="70.4361361655" lon="30.728178679">
		<tag k="name" v="Kvannvikneset" />
		<tag k="natural" v="cape" />
		<tag k="ssr:stedsnr" v="835937" />
	</node>
	<node id="-846401" lat="70.3846472838" lon="30.9848284517">
		<tag k="name" v="Trettenslåtta" />
		<tag k="natural" v="wetland" />
		<tag k="ssr:stedsnr" v="835934" />
	</node>
	<node id="-846400" lat="70.4296333858" lon="30.7186008917">
		<tag k="name" v="Vesterelvsanden" />
		<tag k="natural" v="beach" />
		<tag k="ssr:stedsnr" v="835933" />
		<tag k="surface" v="sand" />
	</node>
	<node id="-846399" lat="70.2414611626" lon="30.4423954199">
		<tag k="name" v="Jackholla" />
		<tag k="natural" v="water" />
		<tag k="ssr:stedsnr" v="834124" />
		<tag k="water" v="lake" />
	</node>
	<node id="-846398" lat="70.2443889457" lon="30.4836954025">
		<tag k="name" v="Gaisastykket" />
		<tag k="place" v="locality" />
		<tag k="ssr:stedsnr" v="834026" />
	</node>
	<node id="-846396" lat="70.3850695073" lon="31.0997978028">
		<tag k="alt_name" v="Tofteskitan" />
		<tag k="name" v="Toftskitan" />
		<tag k="natural" v="shoal" />
		<tag k="place" v="locality" />
		<tag k="ssr:stedsnr" v="815790" />
	</node>
	<node id="-846395" lat="70.3333833985" lon="31.0345533781">
		<tag k="fixme" v="consider natural=peak for the most distinct mountains in the district" />
		<tag k="name" v="Domen" />
		<tag k="natural" v="hill" />
		<tag k="place" v="locality" />
		<tag k="ssr:stedsnr" v="809647" />
	</node>
	<node id="-846394" lat="70.3421139437" lon="30.8614285271">
		<tag k="name" v="Oksevatnet - Vuoksajávri" />
		<tag k="name:no" v="Oksevatnet" />
		<tag k="name:se" v="Vuoksajávri" />
		<tag k="natural" v="water" />
		<tag k="old_name:se" v="Vuoksajavri" />
		<tag k="ssr:stedsnr" v="809637" />
		<tag k="water" v="lake" />
	</node>
	<node id="-846393" lat="70.4023750587" lon="30.9368035131">
		<tag k="name" v="Bardvikmyra" />
		<tag k="natural" v="wetland" />
		<tag k="ssr:stedsnr" v="809607" />
	</node>
	<node id="-846392" lat="70.4055889472" lon="30.9884979221">
		<tag k="name" v="Storsteinhøgda" />
		<tag k="natural" v="hill" />
		<tag k="place" v="locality" />
		<tag k="ssr:stedsnr" v="809606" />
	</node>
	<node id="-846391" lat="70.4416583883" lon="30.8743480214">
		<tag k="name" v="Prestnæringsbukta" />
		<tag k="natural" v="bay" />
		<tag k="ssr:stedsnr" v="809600" />
	</node>
	<node id="-846390" lat="70.2124806163" lon="30.4784231493">
		<tag k="name" v="Kvalnesbukta" />
		<tag k="natural" v="bay" />
		<tag k="ssr:stedsnr" v="809580" />
	</node>
	<node id="-846389" lat="70.4237556001" lon="30.5505121084">
		<tag k="name" v="Rássejohka" />
		<tag k="name:se" v="Rássejohka" />
		<tag k="old_name:se" v="Rassejåkka" />
		<tag k="ssr:stedsnr" v="809573" />
		<tag k="waterway" v="river" />
	</node>
	<node id="-846388" lat="70.2520833887" lon="30.6404480692">
		<tag k="name" v="Mikkelhisletta" />
		<tag k="place" v="locality" />
		<tag k="ssr:stedsnr" v="809541" />
	</node>
	<node id="-846387" lat="70.253700067" lon="30.9217867527">
		<tag k="fixme" v="consider seamark:type=rock or natural=shoal" />
		<tag k="name" v="Rakkeskjæret" />
		<tag k="place" v="islet" />
		<tag k="ssr:stedsnr" v="809539" />
	</node>
	<node id="-846386" lat="70.4056389316" lon="30.3431261268">
		<tag k="fixme" v="consider natural=peak for the most distinct mountains in the district" />
		<tag k="name" v="Langryggen - Juovkkaidčearru" />
		<tag k="name:no" v="Langryggen" />
		<tag k="name:se" v="Juovkkaidčearru" />
		<tag k="natural" v="hill" />
		<tag k="old_name:se" v="Juovkaidčærro" />
		<tag k="place" v="locality" />
		<tag k="ssr:stedsnr" v="808885" />
	</node>
	<node id="-846385" lat="70.3040528436" lon="31.0466116879">
		<tag k="name" v="Molvika" />
		<tag k="natural" v="bay" />
		<tag k="ssr:stedsnr" v="808616" />
	</node>
	<node id="-846384" lat="70.2743972868" lon="30.9424950888">
		<tag k="alt_name" v="Kiberg, in" />
		<tag k="name" v="Indre Kiberg" />
		<tag k="place" v="hamlet" />
		<tag k="ssr:stedsnr" v="808489" />
	</node>
	<node id="-846383" lat="70.2822278377" lon="31.0348033551">
		<tag k="alt_name" v="Oterholla" />
		<tag k="name" v="Oterhola" />
		<tag k="natural" v="bay" />
		<tag k="ssr:stedsnr" v="808480" />
	</node>
	<node id="-846382" lat="70.2059472831" lon="30.6612146832">
		<tag k="name" v="Storgrunnen" />
		<tag k="natural" v="shoal" />
		<tag k="place" v="locality" />
		<tag k="ssr:stedsnr" v="782072" />
	</node>
	<node id="-846381" lat="70.4092861634" lon="30.7897813761">
		<tag k="name" v="Østerdalen" />
		<tag k="natural" v="valley" />
		<tag k="place" v="locality" />
		<tag k="ssr:stedsnr" v="775956" />
	</node>
	<node id="-846380" lat="70.4221250532" lon="30.8862146514">
		<tag k="name" v="Krokvatnet" />
		<tag k="natural" v="water" />
		<tag k="ssr:stedsnr" v="775951" />
		<tag k="water" v="lake" />
	</node>
	<node id="-846379" lat="70.3912945034" lon="31.0180034199">
		<tag k="name" v="Martinahaugen" />
		<tag k="natural" v="hill" />
		<tag k="place" v="locality" />
		<tag k="ssr:stedsnr" v="774999" />
	</node>
	<node id="-846378" lat="70.3898222859" lon="31.151733892">
		<tag k="name" v="Småsundan" />
		<tag k="natural" v="strait" />
		<tag k="ssr:stedsnr" v="774991" />
	</node>
	<node id="-846377" lat="70.2831778371" lon="30.9698506298">
		<tag k="name" v="Klokkasekshaugen" />
		<tag k="natural" v="hill" />
		<tag k="place" v="locality" />
		<tag k="ssr:stedsnr" v="774986" />
	</node>
	<node id="-846376" lat="70.3519472795" lon="31.026967291">
		<tag k="name" v="Hansebakken" />
		<tag k="natural" v="slope" />
		<tag k="place" v="locality" />
		<tag k="ssr:stedsnr" v="774984" />
	</node>
	<node id="-846375" lat="70.3025000647" lon="30.980892297">
		<tag k="name" v="Svenskemyra" />
		<tag k="natural" v="wetland" />
		<tag k="ssr:stedsnr" v="774981" />
	</node>
	<node id="-846374" lat="70.4420306096" lon="30.8606841266">
		<tag k="name" v="Næringskeila" />
		<tag k="natural" v="bay" />
		<tag k="ssr:stedsnr" v="774970" />
	</node>
	<node id="-846373" lat="70.4362333902" lon="30.9640007225">
		<tag k="name" v="Kavringkeila" />
		<tag k="natural" v="bay" />
		<tag k="ssr:stedsnr" v="774968" />
	</node>
	<node id="-846372" lat="70.3979111715" lon="30.9973812319">
		<tag k="name" v="Øvre Klokkerhaugen" />
		<tag k="natural" v="hill" />
		<tag k="place" v="locality" />
		<tag k="ssr:stedsnr" v="774955" />
	</node>
	<node id="-846371" lat="70.3507945052" lon="30.9646895657">
		<tag k="name" v="Oksevassmyra" />
		<tag k="natural" v="wetland" />
		<tag k="ssr:stedsnr" v="774943" />
	</node>
	<node id="-846370" lat="70.273869506" lon="30.9046478849">
		<tag k="name" v="Solstad" />
		<tag k="place" v="farm" />
		<tag k="ssr:stedsnr" v="774942" />
	</node>
	<node id="-846369" lat="70.4005695058" lon="31.0144089953">
		<tag k="name" v="Stabbkeila" />
		<tag k="natural" v="bay" />
		<tag k="ssr:stedsnr" v="774583" />
	</node>
	<node id="-846368" lat="70.3926222772" lon="31.0703089469">
		<tag k="name" v="Kolakoffbukta" />
		<tag k="natural" v="bay" />
		<tag k="ssr:stedsnr" v="774566" />
	</node>
	<node id="-846367" lat="70.2455806099" lon="30.4829370576">
		<tag k="name" v="Gaisavatnan" />
		<tag k="natural" v="water" />
		<tag k="ssr:stedsnr" v="773024" />
	</node>
	<node id="-846366" lat="70.2271722736" lon="30.405156539">
		<tag k="fixme" v="consider natural=peak for the most distinct mountains in the district" />
		<tag k="name" v="Suolovárri" />
		<tag k="name:se" v="Suolovárri" />
		<tag k="natural" v="hill" />
		<tag k="place" v="locality" />
		<tag k="ssr:stedsnr" v="758589" />
	</node>
	<node id="-846365" lat="70.220783384" lon="30.4795092802">
		<tag k="name" v="Pakolabuktbekken" />
		<tag k="ssr:stedsnr" v="758577" />
		<tag k="waterway" v="stream" />
	</node>
	<node id="-846364" lat="70.3853500557" lon="31.0204284317">
		<tag k="fixme" v="consider place=hamlet" />
		<tag k="name" v="Smelror" />
		<tag k="place" v="village" />
		<tag k="ssr:stedsnr" v="755402" />
	</node>
	<node id="-846363" lat="70.2765750676" lon="30.9559395163">
		<tag k="alt_name" v="Mariahaug" />
		<tag k="name" v="Marjahaugen" />
		<tag k="natural" v="hill" />
		<tag k="place" v="locality" />
		<tag k="ssr:stedsnr" v="753658" />
	</node>
	<node id="-846362" lat="70.2920639578" lon="31.0553866672">
		<tag k="name" v="Lille-Molvika" />
		<tag k="natural" v="bay" />
		<tag k="ssr:stedsnr" v="752265" />
	</node>
	<node id="-846361" lat="70.2788417221" lon="30.3210482879">
		<tag k="name" v="Ántonjávri" />
		<tag k="name:se" v="Ántonjávri" />
		<tag k="natural" v="water" />
		<tag k="old_name:se" v="Antunjavri" />
		<tag k="ssr:stedsnr" v="748935" />
	</node>
	<node id="-846360" lat="70.284483381" lon="30.2369233566">
		<tag k="name" v="Portsletta" />
		<tag k="place" v="locality" />
		<tag k="ssr:stedsnr" v="748928" />
	</node>
	<node id="-846359" lat="70.3187250542" lon="30.6424619812">
		<tag k="name" v="Kompanimyra" />
		<tag k="natural" v="wetland" />
		<tag k="ssr:stedsnr" v="748637" />
	</node>
	<node id="-846358" lat="70.3176028377" lon="31.0593727926">
		<tag k="name" v="Nordvestkeila" />
		<tag k="natural" v="bay" />
		<tag k="ssr:stedsnr" v="748636" />
	</node>
	<node id="-846357" lat="70.307000062" lon="30.9179978883">
		<tag k="fixme" v="consider natural=peak for the most distinct mountains in the district" />
		<tag k="name" v="Storvarden" />
		<tag k="natural" v="hill" />
		<tag k="place" v="locality" />
		<tag k="ssr:stedsnr" v="748634" />
	</node>
	<node id="-846356" lat="70.2555695" lon="30.7234230141">
		<tag k="alt_name" v="Bukta" />
		<tag k="name" v="Langbubukta" />
		<tag k="natural" v="bay" />
		<tag k="ssr:stedsnr" v="748531" />
	</node>
	<node id="-846355" lat="70.386444506" lon="31.1645755336">
		<tag k="name" v="Store Avløysa" />
		<tag k="natural" v="cape" />
		<tag k="ssr:stedsnr" v="748622" />
	</node>
	<node id="-846354" lat="70.3913750568" lon="30.9584173685">
		<tag k="alt_name" v="Grøhøgdmyran" />
		<tag k="name" v="Grøhøgdmyra" />
		<tag k="natural" v="wetland" />
		<tag k="ssr:stedsnr" v="748612" />
	</node>
	<node id="-846353" lat="70.3821750578" lon="30.9065396265">
		<tag k="fixme" v="consider natural=peak for the most distinct mountains in the district" />
		<tag k="name" v="Mellomfjellet" />
		<tag k="natural" v="hill" />
		<tag k="place" v="locality" />
		<tag k="ssr:stedsnr" v="748611" />
	</node>
	<node id="-846352" lat="70.3986195062" lon="31.0737061748">
		<tag k="fixme" v="consider natural=peak for the most distinct mountains in the district" />
		<tag k="name" v="Skagen" />
		<tag k="natural" v="hill" />
		<tag k="place" v="locality" />
		<tag k="ssr:stedsnr" v="748608" />
	</node>
	<node id="-846351" lat="70.4080111626" lon="30.8096980261">
		<tag k="name" v="Steindalen" />
		<tag k="natural" v="valley" />
		<tag k="place" v="locality" />
		<tag k="ssr:stedsnr" v="748602" />
	</node>
	<node id="-846350" lat="70.4057139461" lon="31.0106534597">
		<tag k="alt_name" v="Vargholla" />
		<tag k="name" v="Vargholet" />
		<tag k="natural" v="bay" />
		<tag k="ssr:stedsnr" v="748600" />
	</node>
	<node id="-846349" lat="70.4326889416" lon="30.9508785038">
		<tag k="alt_name" v="Kavringsvatnet, l" />
		<tag k="name" v="Lille Kavringsvatnet" />
		<tag k="natural" v="water" />
		<tag k="ssr:stedsnr" v="748596" />
	</node>
	<node id="-846348" lat="70.4388750582" lon="30.8792813418">
		<tag k="name" v="Næringselva" />
		<tag k="ssr:stedsnr" v="748595" />
		<tag k="waterway" v="river" />
	</node>
	<node id="-846347" lat="70.4051806027" lon="30.6798425751">
		<tag k="name" v="Jonnejohskáidi" />
		<tag k="name:se" v="Jonnejohskáidi" />
		<tag k="natural" v="cape" />
		<tag k="old_name:se" v="Jånnejåkskaidi" />
		<tag k="ssr:stedsnr" v="747928" />
	</node>
	<node id="-846346" lat="70.3065139361" lon="30.3379010631">
		<tag k="name" v="Gironjávri" />
		<tag k="name:se" v="Gironjávri" />
		<tag k="natural" v="water" />
		<tag k="old_name:se" v="Girunjavri" />
		<tag k="ssr:stedsnr" v="747925" />
	</node>
	<node id="-846345" lat="70.2576750647" lon="30.8805229068">
		<tag k="fixme" v="consider seamark:type=rock or natural=shoal" />
		<tag k="name" v="Skarvskitan" />
		<tag k="place" v="islet" />
		<tag k="ssr:stedsnr" v="747497" />
	</node>
	<node id="-846344" lat="70.2727278115" lon="29.4048765642">
		<tag k="fixme" v="consider natural=peak for the most distinct mountains in the district" />
		<tag k="loc_name:fkv" v="Kivitunturi" />
		<tag k="name" v="Urdfjellet - Jiessavárri" />
		<tag k="name:no" v="Urdfjellet" />
		<tag k="name:se" v="Jiessavárri" />
		<tag k="natural" v="hill" />
		<tag k="old_name:se" v="Jiessavarri" />
		<tag k="place" v="locality" />
		<tag k="ssr:stedsnr" v="875982" />
	</node>
	<node id="-846343" lat="70.4127111686" lon="30.9150229672">
		<tag k="fixme" v="consider natural=peak for the most distinct mountains in the district" />
		<tag k="name" v="Nerdalshøgda" />
		<tag k="natural" v="hill" />
		<tag k="place" v="locality" />
		<tag k="ssr:stedsnr" v="653960" />
	</node>
	<node id="-846342" lat="70.2690333983" lon="30.9475728601">
		<tag k="name" v="Sundet" />
		<tag k="natural" v="strait" />
		<tag k="ssr:stedsnr" v="653792" />
	</node>
	<node id="-846341" lat="70.284233398" lon="30.9777978397">
		<tag k="name" v="Sandsenden" />
		<tag k="natural" v="bay" />
		<tag k="ssr:stedsnr" v="652991" />
	</node>
	<node id="-846340" lat="70.2877139477" lon="30.9999256068">
		<tag k="name" v="Korshaugen" />
		<tag k="natural" v="hill" />
		<tag k="place" v="locality" />
		<tag k="ssr:stedsnr" v="652984" />
	</node>
	<node id="-846339" lat="70.2899389513" lon="30.9585700775">
		<tag k="name" v="Omersnasmyra" />
		<tag k="natural" v="wetland" />
		<tag k="ssr:stedsnr" v="652980" />
	</node>
	<node id="-846338" lat="70.2995972848" lon="31.0245589367">
		<tag k="name" v="Mollvikbakken" />
		<tag k="natural" v="slope" />
		<tag k="place" v="locality" />
		<tag k="ssr:stedsnr" v="652977" />
	</node>
	<node id="-846337" lat="70.3670056196" lon="31.1065616784">
		<tag k="name" v="Kjerringræva" />
		<tag k="natural" v="strait" />
		<tag k="ssr:stedsnr" v="652951" />
	</node>
	<node id="-846336" lat="70.3952806147" lon="31.0059951155">
		<tag k="name" v="Blåbærlia" />
		<tag k="natural" v="slope" />
		<tag k="place" v="locality" />
		<tag k="ssr:stedsnr" v="652949" />
	</node>
	<node id="-846335" lat="70.4112028395" lon="31.0029756797">
		<tag k="name" v="Oterbergan" />
		<tag k="natural" v="hill" />
		<tag k="place" v="locality" />
		<tag k="ssr:stedsnr" v="652947" />
	</node>
	<node id="-846334" lat="70.2450222772" lon="30.4084648916">
		<tag k="name" v="Tarraskargo" />
		<tag k="natural" v="wetland" />
		<tag k="ssr:stedsnr" v="652102" />
	</node>
	<node id="-846332" lat="70.2374333999" lon="30.9881005845">
		<tag k="fixme" v="consider seamark:type=rock or natural=shoal" />
		<tag k="name" v="Per Mikkelsengrunnen" />
		<tag k="place" v="islet" />
		<tag k="ssr:stedsnr" v="631680" />
	</node>
	<node id="-846331" lat="70.3288917329" lon="31.0546422523">
		<tag k="name" v="Stauran" />
		<tag k="natural" v="cape" />
		<tag k="ssr:stedsnr" v="627633" />
	</node>
	<node id="-846330" lat="70.3287556156" lon="30.821975758">
		<tag k="alt_name" v="Oksevatnet, l" />
		<tag k="name" v="Lille Oksevatnet" />
		<tag k="natural" v="water" />
		<tag k="ssr:stedsnr" v="627628" />
	</node>
	<node id="-846329" lat="70.3366111677" lon="31.0088006318">
		<tag k="fixme" v="multiple name tags, choose one and add the other to alt_name" />
		<tag k="name" v="Skinnstakkvatna;Votteskarvatna" />
		<tag k="ssr:stedsnr" v="627619" />
		<tag k="waterway" v="river" />
	</node>
	<node id="-846328" lat="70.2733250518" lon="30.4360259929">
		<tag k="fixme" v="consider natural=peak for the most distinct mountains in the district" />
		<tag k="name" v="Slaktefjellet - Šláktaduottar" />
		<tag k="name:no" v="Slaktefjellet" />
		<tag k="name:se" v="Šláktaduottar" />
		<tag k="natural" v="hill" />
		<tag k="old_name:se" v="Šlaktaduoddar" />
		<tag k="place" v="locality" />
		<tag k="ssr:stedsnr" v="626936" />
	</node>
	<node id="-846327" lat="70.290155602" lon="30.3592955064">
		<tag k="name" v="Dálajohka" />
		<tag k="name:se" v="Dálajohka" />
		<tag k="old_name:se" v="Dalajåkka" />
		<tag k="ssr:stedsnr" v="626934" />
		<tag k="waterway" v="river" />
	</node>
	<node id="-846326" lat="70.4465639361" lon="30.7250842246">
		<tag k="alt_name" v="Reinkalvvika, store" />
		<tag k="fixme" v="multiple name tags, choose one and add the other to alt_name" />
		<tag k="name" v="Reinkalvvika;Store Reinkalvvika" />
		<tag k="natural" v="bay" />
		<tag k="ssr:stedsnr" v="626925" />
	</node>
	<node id="-846325" lat="70.387777836" lon="31.1541672233">
		<tag k="alt_name" v="Hornøy" />
		<tag k="name" v="Hornøya" />
		<tag k="place" v="island" />
		<tag k="ssr:stedsnr" v="626627" />
	</node>
	<node id="-846324" lat="70.3839000583" lon="31.0342756263">
		<tag k="alt_name" v="Smellror, in" />
		<tag k="name" v="Indre Smellror" />
		<tag k="natural" v="cape" />
		<tag k="ssr:stedsnr" v="626617" />
	</node>
	<node id="-846323" lat="70.3907611672" lon="31.1325255741">
		<tag k="alt_name" v="Reinøy" />
		<tag k="name" v="Reinøya" />
		<tag k="place" v="island" />
		<tag k="ssr:stedsnr" v="626615" />
	</node>
	<node id="-846322" lat="70.4117139471" lon="30.9837812615">
		<tag k="fixme" v="consider natural=peak for the most distinct mountains in the district" />
		<tag k="name" v="Kistefjellet" />
		<tag k="natural" v="hill" />
		<tag k="place" v="locality" />
		<tag k="ssr:stedsnr" v="626613" />
	</node>
	<node id="-846321" lat="70.3939278303" lon="30.7512258401">
		<tag k="fixme" v="consider natural=peak for the most distinct mountains in the district" />
		<tag k="name" v="Biesavuončohkka" />
		<tag k="name:se" v="Biesavuončohkka" />
		<tag k="natural" v="hill" />
		<tag k="old_name:se" v="Biesavuončåkka" />
		<tag k="place" v="locality" />
		<tag k="ssr:stedsnr" v="626611" />
	</node>
	<node id="-846320" lat="70.4266167257" lon="30.9742007091">
		<tag k="name" v="Barden" />
		<tag k="place" v="islet" />
		<tag k="ssr:stedsnr" v="626605" />
	</node>
	<node id="-846319" lat="70.4338167169" lon="30.8259424951">
		<tag k="name" v="Godkeila" />
		<tag k="natural" v="bay" />
		<tag k="ssr:stedsnr" v="626601" />
	</node>
	<node id="-846318" lat="70.2589111735" lon="30.790970191">
		<tag k="alt_name" v="Svartneset" />
		<tag k="name" v="Svartnes" />
		<tag k="natural" v="cape" />
		<tag k="ssr:stedsnr" v="626585" />
	</node>
	<node id="-846317" lat="70.364913945" lon="30.9821673413">
		<tag k="fixme" v="multiple name tags, choose one and add the other to alt_name" />
		<tag k="name" v="Fjellelva;Storelva" />
		<tag k="ssr:stedsnr" v="626583" />
		<tag k="waterway" v="river" />
	</node>
	<node id="-846316" lat="70.2690972891" lon="30.902822881">
		<tag k="alt_name" v="Løkvikneset" />
		<tag k="name" v="Laukvikneset" />
		<tag k="natural" v="cape" />
		<tag k="ssr:stedsnr" v="626542" />
	</node>
	<node id="-846315" lat="70.212222279" lon="30.4508176333">
		<tag k="fixme" v="consider natural=peak for the most distinct mountains in the district" />
		<tag k="name" v="Komaghalsen - Skáraskáidi" />
		<tag k="name:no" v="Komaghalsen" />
		<tag k="name:se" v="Skáraskáidi" />
		<tag k="natural" v="hill" />
		<tag k="old_name:se" v="Skaraskaidi" />
		<tag k="place" v="locality" />
		<tag k="ssr:stedsnr" v="626535" />
	</node>
	<node id="-846314" lat="70.3700000654" lon="31.1075811209">
		<tag k="name" v="Valen" />
		<tag k="natural" v="strait" />
		<tag k="ssr:stedsnr" v="592999" />
	</node>
	<node id="-846313" lat="70.3741028385" lon="31.1268033333">
		<tag k="name" v="Selerinakeila" />
		<tag k="natural" v="bay" />
		<tag k="ssr:stedsnr" v="592996" />
	</node>
	<node id="-846312" lat="70.3609972831" lon="31.0243228585">
		<tag k="name" v="Krokelva" />
		<tag k="ssr:stedsnr" v="592992" />
		<tag k="waterway" v="stream" />
	</node>
	<node id="-846311" lat="70.3500500592" lon="31.0274784077">
		<tag k="name" v="Kildebekken" />
		<tag k="ssr:stedsnr" v="592988" />
		<tag k="waterway" v="stream" />
	</node>
	<node id="-846310" lat="70.4315694959" lon="30.9357924042">
		<tag k="name" v="Oddevasshøgda" />
		<tag k="natural" v="hill" />
		<tag k="place" v="locality" />
		<tag k="ssr:stedsnr" v="592973" />
	</node>
	<node id="-846309" lat="70.419302831" lon="30.9067563021">
		<tag k="name" v="Nerdalsvatnet" />
		<tag k="natural" v="water" />
		<tag k="ssr:stedsnr" v="592967" />
	</node>
	<node id="-846308" lat="70.3072278455" lon="31.0389978026">
		<tag k="name" v="Tyskerprama" />
		<tag k="place" v="locality" />
		<tag k="ssr:stedsnr" v="592956" />
	</node>
	<node id="-846307" lat="70.3772750586" lon="30.9716173514">
		<tag k="name" v="Bergestokkvatnet" />
		<tag k="natural" v="water" />
		<tag k="ssr:stedsnr" v="592940" />
	</node>
	<node id="-846306" lat="70.3959278351" lon="31.0297728746">
		<tag k="name" v="Buhaugen" />
		<tag k="natural" v="hill" />
		<tag k="place" v="locality" />
		<tag k="ssr:stedsnr" v="592552" />
	</node>
	<node id="-846305" lat="70.3928667265" lon="31.0317728596">
		<tag k="name" v="Skolehaugen" />
		<tag k="natural" v="hill" />
		<tag k="place" v="locality" />
		<tag k="ssr:stedsnr" v="592551" />
	</node>
	<node id="-846304" lat="70.2461083875" lon="30.6091091861">
		<tag k="name" v="Tarebukta" />
		<tag k="natural" v="bay" />
		<tag k="ssr:stedsnr" v="592347" />
	</node>
	<node id="-846303" lat="70.2491389507" lon="30.6454897305">
		<tag k="name" v="Storbukta" />
		<tag k="natural" v="bay" />
		<tag k="ssr:stedsnr" v="592346" />
	</node>
	<node id="-846302" lat="70.3088056206" lon="31.0012283831">
		<tag k="name" v="Lassebakkhøgda" />
		<tag k="natural" v="hill" />
		<tag k="place" v="locality" />
		<tag k="ssr:stedsnr" v="592216" />
	</node>
	<node id="-846301" lat="70.3273556186" lon="30.9704895524">
		<tag k="name" v="Domshøgdan" />
		<tag k="natural" v="hill" />
		<tag k="place" v="locality" />
		<tag k="ssr:stedsnr" v="592213" />
	</node>
	<node id="-846300" lat="70.2885306189" lon="30.9776478366">
		<tag k="name" v="Bankan" />
		<tag k="natural" v="slope" />
		<tag k="place" v="locality" />
		<tag k="ssr:stedsnr" v="591988" />
	</node>
	<node id="-846299" lat="70.2902556194" lon="31.0036144993">
		<tag k="name" v="Isaksenbakken" />
		<tag k="natural" v="hill" />
		<tag k="place" v="locality" />
		<tag k="ssr:stedsnr" v="591983" />
	</node>
	<node id="-846298" lat="70.4314278286" lon="30.7426425321">
		<tag k="name" v="Langkeila" />
		<tag k="natural" v="bay" />
		<tag k="ssr:stedsnr" v="591941" />
	</node>
	<node id="-846297" lat="70.422313941" lon="30.714131451">
		<tag k="name" v="Vesterelvdalen" />
		<tag k="natural" v="valley" />
		<tag k="place" v="locality" />
		<tag k="ssr:stedsnr" v="591933" />
	</node>
	<node id="-846296" lat="70.4237250536" lon="30.7525036412">
		<tag k="name" v="Varghaugen" />
		<tag k="natural" v="hill" />
		<tag k="place" v="locality" />
		<tag k="ssr:stedsnr" v="591931" />
	</node>
	<node id="-846295" lat="70.2591028354" lon="30.8398729311">
		<tag k="name" v="Kaibukta" />
		<tag k="natural" v="bay" />
		<tag k="ssr:stedsnr" v="591908" />
	</node>
	<node id="-846294" lat="70.274013948" lon="30.8107229658">
		<tag k="name" v="Lillefloget" />
		<tag k="natural" v="hill" />
		<tag k="place" v="locality" />
		<tag k="ssr:stedsnr" v="591901" />
	</node>
	<node id="-846293" lat="70.2458111737" lon="30.6871174674">
		<tag k="name" v="Innerneset" />
		<tag k="natural" v="cape" />
		<tag k="ssr:stedsnr" v="591885" />
	</node>
	<node id="-846292" lat="70.2660472781" lon="30.7893896348">
		<tag k="name" v="Svartneshalsen" />
		<tag k="place" v="locality" />
		<tag k="ssr:stedsnr" v="591877" />
	</node>
	<node id="-846291" lat="70.2356861642" lon="30.4271926357">
		<tag k="name" v="Storbukta - Isolahti" />
		<tag k="name:fkv" v="Isolahti" />
		<tag k="name:no" v="Storbukta" />
		<tag k="natural" v="bay" />
		<tag k="ssr:stedsnr" v="591085" />
	</node>
	<node id="-846290" lat="70.2341889434" lon="30.5018259292">
		<tag k="name" v="Innerstranda" />
		<tag k="natural" v="beach" />
		<tag k="place" v="locality" />
		<tag k="ssr:stedsnr" v="591055" />
	</node>
	<node id="-846289" lat="70.2433639404" lon="30.5053481496">
		<tag k="name" v="Bekkedalen - Ajankuru" />
		<tag k="name:fkv" v="Ajankuru" />
		<tag k="name:no" v="Bekkedalen" />
		<tag k="natural" v="valley" />
		<tag k="place" v="locality" />
		<tag k="ssr:stedsnr" v="591047" />
	</node>
	<node id="-846288" lat="70.2407195017" lon="30.4913398327">
		<tag k="name" v="Grønnåsstryket" />
		<tag k="ssr:stedsnr" v="591019" />
		<tag k="waterway" v="rapids" />
	</node>
	<node id="-846287" lat="70.2459833851" lon="30.548206468">
		<tag k="name" v="Bankan" />
		<tag k="place" v="locality" />
		<tag k="ssr:stedsnr" v="577580" />
	</node>
	<node id="-846286" lat="70.2564278381" lon="30.688934151">
		<tag k="fixme" v="consider place=hamlet" />
		<tag k="name" v="Langbunes" />
		<tag k="place" v="village" />
		<tag k="ssr:stedsnr" v="571538" />
	</node>
	<node id="-846285" lat="70.2652583967" lon="30.8547951551">
		<tag k="name" v="Kramvika" />
		<tag k="natural" v="bay" />
		<tag k="ssr:stedsnr" v="570250" />
	</node>
	<node id="-846284" lat="70.3720556184" lon="31.0953228066">
		<tag k="alt_name" v="Vardøhus festning" />
		<tag k="landuse" v="military" />
		<tag k="name" v="Vardøhus" />
		<tag k="ssr:stedsnr" v="566599" />
	</node>
	<node id="-846283" lat="70.387375064" lon="31.1341561297">
		<tag k="name" v="Gambukta" />
		<tag k="natural" v="bay" />
		<tag k="ssr:stedsnr" v="566585" />
	</node>
	<node id="-846282" lat="70.4116944981" lon="30.9353229465">
		<tag k="name" v="Bardvikvatnet" />
		<tag k="natural" v="water" />
		<tag k="ssr:stedsnr" v="566582" />
		<tag k="water" v="lake" />
	</node>
	<node id="-846281" lat="70.4097667264" lon="30.8629952163">
		<tag k="name" v="Langvatnet - Guhkesjávri" />
		<tag k="name:no" v="Langvatnet" />
		<tag k="name:se" v="Guhkesjávri" />
		<tag k="natural" v="water" />
		<tag k="old_name:se" v="Gukkesjavri" />
		<tag k="ssr:stedsnr" v="566581" />
		<tag k="water" v="lake" />
	</node>
	<node id="-846280" lat="70.4351056109" lon="30.935584089">
		<tag k="alt_name" v="Kavringsvatnet, store" />
		<tag k="fixme" v="multiple name tags, choose one and add the other to alt_name" />
		<tag k="name" v="Oddevatnet;Store Kavringsvatnet" />
		<tag k="natural" v="water" />
		<tag k="ssr:stedsnr" v="566573" />
	</node>
	<node id="-846279" lat="70.4196333923" lon="30.9677618298">
		<tag k="name" v="Forsevatnet" />
		<tag k="natural" v="water" />
		<tag k="ssr:stedsnr" v="566571" />
	</node>
	<node id="-846278" lat="70.4779694985" lon="30.901573023">
		<tag k="alt_name" v="Østhavet" />
		<tag k="name" v="Austhavet" />
		<tag k="place" v="sea" />
		<tag k="ssr:stedsnr" v="565913" />
	</node>
	<node id="-846277" lat="70.4381583863" lon="30.694306481">
		<tag k="name" v="Reinkalvelva - Miesejohka" />
		<tag k="name:no" v="Reinkalvelva" />
		<tag k="name:se" v="Miesejohka" />
		<tag k="old_name:se" v="Miesejåkka" />
		<tag k="ssr:stedsnr" v="565572" />
		<tag k="waterway" v="river" />
	</node>
	<node id="-846276" lat="70.4391222789" lon="30.9078813345">
		<tag k="name" v="Næringshøgda" />
		<tag k="natural" v="hill" />
		<tag k="place" v="locality" />
		<tag k="ssr:stedsnr" v="565569" />
	</node>
	<node id="-846275" lat="70.2654000655" lon="30.9359228599">
		<tag k="fixme" v="consider seamark:type=rock or natural=shoal" />
		<tag k="name" v="Svenskeskjæret" />
		<tag k="place" v="islet" />
		<tag k="ssr:stedsnr" v="565501" />
	</node>
	<node id="-846274" lat="70.266511175" lon="30.7589618749">
		<tag k="name" v="Svartneshaugen" />
		<tag k="natural" v="hill" />
		<tag k="place" v="locality" />
		<tag k="ssr:stedsnr" v="565487" />
	</node>
	<node id="-846273" lat="70.2246917193" lon="30.4049732097">
		<tag k="name" v="Viltunkurujärvi" />
		<tag k="name:fkv" v="Viltunkurujärvi" />
		<tag k="natural" v="water" />
		<tag k="old_name:fkv" v="Vildongorojærvi" />
		<tag k="ssr:stedsnr" v="565478" />
	</node>
	<node id="-846272" lat="70.4280556075" lon="30.7415675397">
		<tag k="name" v="Store Frøkenholla" />
		<tag k="natural" v="valley" />
		<tag k="place" v="locality" />
		<tag k="ssr:stedsnr" v="531933" />
	</node>
	<node id="-846271" lat="70.2789167246" lon="30.9715811761">
		<tag k="name" v="Sletta" />
		<tag k="place" v="locality" />
		<tag k="ssr:stedsnr" v="532000" />
	</node>
	<node id="-846270" lat="70.3896417318" lon="31.1633838696">
		<tag k="name" v="Oterbukta" />
		<tag k="natural" v="bay" />
		<tag k="ssr:stedsnr" v="531996" />
	</node>
	<node id="-846269" lat="70.3684945056" lon="31.047128391">
		<tag k="man_made" v="breakwater" />
		<tag k="name" v="Nordremolo" />
		<tag k="place" v="locality" />
		<tag k="ssr:stedsnr" v="531989" />
	</node>
	<node id="-846268" lat="70.3725083945" lon="31.0147339906">
		<tag k="name" v="Sanden" />
		<tag k="place" v="locality" />
		<tag k="ssr:stedsnr" v="531987" />
	</node>
	<node id="-846267" lat="70.2892445102" lon="31.0042144791">
		<tag k="name" v="Øvre Hollabakken" />
		<tag k="natural" v="slope" />
		<tag k="place" v="locality" />
		<tag k="ssr:stedsnr" v="531986" />
	</node>
	<node id="-846266" lat="70.2921500607" lon="31.0257339129">
		<tag k="name" v="Rypevatnet" />
		<tag k="natural" v="water" />
		<tag k="ssr:stedsnr" v="531983" />
	</node>
	<node id="-846265" lat="70.4134194983" lon="30.9919090097">
		<tag k="name" v="Kista" />
		<tag k="natural" v="hill" />
		<tag k="place" v="locality" />
		<tag k="ssr:stedsnr" v="531980" />
	</node>
	<node id="-846264" lat="70.3927917286" lon="31.1124894757">
		<tag k="name" v="Seigrunnen" />
		<tag k="natural" v="shoal" />
		<tag k="place" v="locality" />
		<tag k="ssr:stedsnr" v="531964" />
	</node>
	<node id="-846263" lat="70.2494500554" lon="30.6677452581">
		<tag k="name" v="Langbubukta" />
		<tag k="natural" v="bay" />
		<tag k="ssr:stedsnr" v="531441" />
	</node>
	<node id="-846262" lat="70.237244497" lon="30.4733315163">
		<tag k="name" v="Reingjerdneskulpen" />
		<tag k="place" v="locality" />
		<tag k="ssr:stedsnr" v="530144" />
	</node>
	<node id="-846261" lat="70.1911111634" lon="30.4841648114">
		<tag k="name" v="Komaggrunnen" />
		<tag k="natural" v="shoal" />
		<tag k="place" v="locality" />
		<tag k="ssr:stedsnr" v="526222" />
	</node>
	<node id="-846260" lat="70.4333333897" lon="31.1999977649">
		<tag k="name" v="Klakken" />
		<tag k="natural" v="shoal" />
		<tag k="ssr:stedsnr" v="424410" />
	</node>
	<node id="-846259" lat="70.2831667268" lon="31.0414005663">
		<tag k="name" v="Varen" />
		<tag k="natural" v="slope" />
		<tag k="place" v="locality" />
		<tag k="ssr:stedsnr" v="411784" />
	</node>
	<node id="-846258" lat="70.2840667257" lon="30.9824228368">
		<tag k="landuse" v="harbour" />
		<tag k="name" v="Innerhamna" />
		<tag k="seamark:type" v="harbour" />
		<tag k="ssr:stedsnr" v="411778" />
	</node>
	<node id="-846257" lat="70.2811306148" lon="30.9958200522">
		<tag k="fixme" v="consider seamark:type=rock or natural=shoal" />
		<tag k="name" v="Thomasskjæret" />
		<tag k="place" v="islet" />
		<tag k="ssr:stedsnr" v="411775" />
	</node>
	<node id="-846256" lat="70.3774667226" lon="31.1021950318">
		<tag k="man_made" v="breakwater" />
		<tag k="name" v="Festningsgatmoloen" />
		<tag k="place" v="locality" />
		<tag k="ssr:stedsnr" v="410993" />
	</node>
	<node id="-846255" lat="70.3641472839" lon="31.0495311584">
		<tag k="man_made" v="breakwater" />
		<tag k="name" v="Søndremolo" />
		<tag k="place" v="locality" />
		<tag k="ssr:stedsnr" v="410988" />
	</node>
	<node id="-846254" lat="70.2892583976" lon="30.9829256194">
		<tag k="name" v="Løkthusbakken" />
		<tag k="natural" v="slope" />
		<tag k="place" v="locality" />
		<tag k="ssr:stedsnr" v="410986" />
	</node>
	<node id="-846253" lat="70.3897917251" lon="31.0715256241">
		<tag k="name" v="Sjulginvika" />
		<tag k="natural" v="bay" />
		<tag k="ssr:stedsnr" v="410977" />
	</node>
	<node id="-846252" lat="70.2922472855" lon="31.0347228068">
		<tag k="name" v="Kibergsnesvatnan" />
		<tag k="natural" v="water" />
		<tag k="ssr:stedsnr" v="410976" />
	</node>
	<node id="-846251" lat="70.390222284" lon="31.033386762">
		<tag k="name" v="Smelrorfjæra" />
		<tag k="natural" v="bay" />
		<tag k="ssr:stedsnr" v="410974" />
	</node>
	<node id="-846250" lat="70.4421556071" lon="30.8538980352">
		<tag k="name" v="Vesterkeila" />
		<tag k="natural" v="bay" />
		<tag k="ssr:stedsnr" v="410951" />
	</node>
	<node id="-846249" lat="70.4104222804" lon="31.0005229046">
		<tag k="name" v="Urhaugen" />
		<tag k="natural" v="hill" />
		<tag k="place" v="locality" />
		<tag k="ssr:stedsnr" v="410948" />
	</node>
	<node id="-846248" lat="70.3775250584" lon="30.9808728907">
		<tag k="fixme" v="consider natural=peak for the most distinct mountains in the district" />
		<tag k="name" v="Samyrraet" />
		<tag k="natural" v="hill" />
		<tag k="place" v="locality" />
		<tag k="ssr:stedsnr" v="410937" />
	</node>
	<node id="-846247" lat="70.391197282" lon="30.9692673482">
		<tag k="alt_name" v="Dynnebergmyra" />
		<tag k="name" v="Dynnebærmyra" />
		<tag k="natural" v="wetland" />
		<tag k="ssr:stedsnr" v="410930" />
	</node>
	<node id="-846246" lat="70.3735111714" lon="30.9779617759">
		<tag k="name" v="Bergestokken" />
		<tag k="natural" v="hill" />
		<tag k="place" v="locality" />
		<tag k="ssr:stedsnr" v="410927" />
	</node>
	<node id="-846245" lat="70.2592222873" lon="30.8427368062">
		<tag k="name" v="Grunnesodden" />
		<tag k="natural" v="cape" />
		<tag k="ssr:stedsnr" v="410924" />
	</node>
	<node id="-846244" lat="70.2858389465" lon="30.8477229494">
		<tag k="fixme" v="consider natural=peak for the most distinct mountains in the district" />
		<tag k="name" v="Mellomfjellet" />
		<tag k="natural" v="hill" />
		<tag k="place" v="locality" />
		<tag k="ssr:stedsnr" v="410917" />
	</node>
	<node id="-846243" lat="70.3919528384" lon="31.0332867604">
		<tag k="name" v="Smelrorvalen" />
		<tag k="natural" v="bay" />
		<tag k="ssr:stedsnr" v="410537" />
	</node>
	<node id="-846242" lat="70.3501972818" lon="31.009772844">
		<tag k="fixme" v="consider natural=peak for the most distinct mountains in the district" />
		<tag k="name" v="Raet" />
		<tag k="natural" v="hill" />
		<tag k="place" v="locality" />
		<tag k="ssr:stedsnr" v="410222" />
	</node>
	<node id="-846241" lat="70.2389639393" lon="30.4570148521">
		<tag k="name" v="Malinenholla" />
		<tag k="natural" v="water" />
		<tag k="ssr:stedsnr" v="409136" />
		<tag k="water" v="lake" />
	</node>
	<node id="-846240" lat="70.2352278294" lon="30.432095408">
		<tag k="name" v="Torvholla" />
		<tag k="natural" v="water" />
		<tag k="ssr:stedsnr" v="409130" />
		<tag k="water" v="lake" />
	</node>
	<node id="-846239" lat="70.2359556054" lon="30.4197120921">
		<tag k="name" v="Dolonenbekken" />
		<tag k="ssr:stedsnr" v="409121" />
		<tag k="waterway" v="stream" />
	</node>
	<node id="-846238" lat="70.247227836" lon="30.55075645">
		<tag k="name" v="Bankanbekken" />
		<tag k="ssr:stedsnr" v="395648" />
		<tag k="waterway" v="stream" />
	</node>
	<node id="-846237" lat="70.2530278296" lon="30.544375918">
		<tag k="name" v="Rennebakken" />
		<tag k="natural" v="slope" />
		<tag k="place" v="locality" />
		<tag k="ssr:stedsnr" v="395647" />
	</node>
	<node id="-846236" lat="70.3904611714" lon="31.1630255315">
		<tag k="name" v="Staurneset" />
		<tag k="natural" v="cape" />
		<tag k="ssr:stedsnr" v="390798" />
	</node>
	<node id="-846235" lat="70.3995028383" lon="31.004556225">
		<tag k="fixme" v="consider natural=peak for the most distinct mountains in the district" />
		<tag k="name" v="Klokkarhaugen" />
		<tag k="natural" v="hill" />
		<tag k="ssr:stedsnr" v="388644" />
	</node>
	<node id="-846234" lat="70.4411750512" lon="30.8595730219">
		<tag k="name" v="Prestnæringen" />
		<tag k="place" v="isolated_dwelling" />
		<tag k="ssr:stedsnr" v="384551" />
	</node>
	<node id="-846233" lat="70.3490417133" lon="30.4899982272">
		<tag k="alt_name:no" v="Tverrdalselva" />
		<tag k="name" v="Tverrelva - Gaskajohka" />
		<tag k="name:no" v="Tverrelva" />
		<tag k="name:se" v="Gaskajohka" />
		<tag k="old_name:se" v="Gaskajåkka" />
		<tag k="ssr:stedsnr" v="384531" />
		<tag k="waterway" v="river" />
	</node>
	<node id="-846232" lat="70.3593889464" lon="30.7695230338">
		<tag k="alt_name" v="Jårboaivi, l" />
		<tag k="fixme" v="consider natural=peak for the most distinct mountains in the district" />
		<tag k="name" v="Lille Jårboaivi" />
		<tag k="natural" v="hill" />
		<tag k="place" v="locality" />
		<tag k="ssr:stedsnr" v="384598" />
	</node>
	<node id="-846231" lat="70.3566139427" lon="30.7104952885">
		<tag k="alt_name:no" v="Jårboaivi, store" />
		<tag k="fixme" v="consider natural=peak for the most distinct mountains in the district" />
		<tag k="loc_name:se" v="Jorboaivi" />
		<tag k="name" v="Store Jårboaivi" />
		<tag k="name:no" v="Store Jårboaivi" />
		<tag k="natural" v="hill" />
		<tag k="place" v="locality" />
		<tag k="ssr:stedsnr" v="384596" />
	</node>
	<node id="-846230" lat="70.3780639537" lon="31.0785478191">
		<tag k="name" v="Engelsviktangen" />
		<tag k="natural" v="cape" />
		<tag k="ssr:stedsnr" v="384591" />
	</node>
	<node id="-846229" lat="70.3801500586" lon="31.1186061352">
		<tag k="alt_name" v="Hasselnes" />
		<tag k="name" v="Hasselneset" />
		<tag k="natural" v="cape" />
		<tag k="ssr:stedsnr" v="384590" />
	</node>
	<node id="-846228" lat="70.3785695026" lon="31.0322062006">
		<tag k="name" v="Sandbukta" />
		<tag k="natural" v="bay" />
		<tag k="ssr:stedsnr" v="384588" />
	</node>
	<node id="-846227" lat="70.3655778337" lon="31.0279228526">
		<tag k="name" v="Svartnesbukta" />
		<tag k="natural" v="bay" />
		<tag k="ssr:stedsnr" v="384586" />
	</node>
	<node id="-846226" lat="70.3979028417" lon="31.0867478294">
		<tag k="alt_name" v="Svinøy" />
		<tag k="name" v="Svinøya" />
		<tag k="place" v="island" />
		<tag k="ssr:stedsnr" v="384581" />
	</node>
	<node id="-846225" lat="70.3276306083" lon="30.5886342565">
		<tag k="name" v="Jorbaskáidi" />
		<tag k="name:se" v="Jorbaskáidi" />
		<tag k="natural" v="cape" />
		<tag k="old_name:se" v="Jårbaskaidi" />
		<tag k="ssr:stedsnr" v="383944" />
	</node>
	<node id="-846224" lat="70.2858667189" lon="30.2974122133">
		<tag k="name" v="Ántonjohka" />
		<tag k="name:se" v="Ántonjohka" />
		<tag k="old_name:se" v="Antunjåkka" />
		<tag k="ssr:stedsnr" v="383939" />
		<tag k="waterway" v="stream" />
	</node>
	<node id="-846223" lat="70.2743722746" lon="30.4225954484">
		<tag k="name" v="Šláktajávri" />
		<tag k="name:se" v="Šláktajávri" />
		<tag k="natural" v="water" />
		<tag k="old_name:se" v="Šlaktajavri" />
		<tag k="ssr:stedsnr" v="383932" />
	</node>
	<node id="-846222" lat="70.2741778345" lon="30.5615036938">
		<tag k="name" v="Ceavnnit" />
		<tag k="name:se" v="Ceavnnit" />
		<tag k="natural" v="water" />
		<tag k="old_name:se" v="Cævnit" />
		<tag k="ssr:stedsnr" v="383919" />
	</node>
	<node id="-846221" lat="70.2542139422" lon="30.3744065683">
		<tag k="name" v="Finnesvatnet - Lutsi" />
		<tag k="name:no" v="Finnesvatnet" />
		<tag k="name:se" v="Lutsi" />
		<tag k="natural" v="water" />
		<tag k="ssr:stedsnr" v="383914" />
	</node>
	<node id="-846220" lat="70.2665222834" lon="30.8590145809">
		<tag k="name" v="Kramvik" />
		<tag k="place" v="hamlet" />
		<tag k="ssr:stedsnr" v="383536" />
	</node>
	<node id="-846219" lat="70.2716306179" lon="30.956131175">
		<tag k="name" v="Langkeila" />
		<tag k="natural" v="bay" />
		<tag k="ssr:stedsnr" v="383532" />
	</node>
	<node id="-846218" lat="70.2823611707" lon="31.0203811468">
		<tag k="name" v="Ravnfloget" />
		<tag k="natural" v="hill" />
		<tag k="place" v="locality" />
		<tag k="ssr:stedsnr" v="383530" />
	</node>
	<node id="-846217" lat="70.0911139252" lon="29.008704475">
		<tag k="bay" v="fjord" />
		<tag k="loc_name:fkv" v="Varenkinvuono;Varinkinvuono" />
		<tag k="name" v="Varangerfjorden - Várjavuonna" />
		<tag k="name:no" v="Varangerfjorden" />
		<tag k="name:se" v="Várjavuonna" />
		<tag k="natural" v="bay" />
		<tag k="ssr:stedsnr" v="383165" />
	</node>
	<node id="-846216" lat="70.2081667226" lon="30.6039452855">
		<tag k="name" v="Litlgrunnen" />
		<tag k="natural" v="shoal" />
		<tag k="place" v="locality" />
		<tag k="ssr:stedsnr" v="357088" />
	</node>
	<node id="-846215" lat="70.3994889445" lon="31.0668700582">
		<tag k="name" v="Ravnfloget" />
		<tag k="natural" v="hill" />
		<tag k="place" v="locality" />
		<tag k="ssr:stedsnr" v="356720" />
	</node>
	<node id="-846214" lat="70.282994506" lon="30.9972478091">
		<tag k="landuse" v="harbour" />
		<tag k="name" v="Ytterhamna" />
		<tag k="seamark:type" v="harbour" />
		<tag k="ssr:stedsnr" v="350756" />
	</node>
	<node id="-846213" lat="70.4440750559" lon="30.8910257931">
		<tag k="name" v="Silbergan" />
		<tag k="natural" v="hill" />
		<tag k="place" v="locality" />
		<tag k="ssr:stedsnr" v="349979" />
	</node>
	<node id="-846212" lat="70.2931361685" lon="30.9802450728">
		<tag k="name" v="Lille Svenskevatnet" />
		<tag k="natural" v="water" />
		<tag k="ssr:stedsnr" v="349974" />
	</node>
	<node id="-846211" lat="70.3196889534" lon="31.0311561453">
		<tag k="name" v="Larsenvatnet" />
		<tag k="natural" v="water" />
		<tag k="ssr:stedsnr" v="349967" />
	</node>
	<node id="-846210" lat="70.2455472837" lon="30.6894063525">
		<tag k="name" v="Midtkeila" />
		<tag k="natural" v="bay" />
		<tag k="ssr:stedsnr" v="349939" />
	</node>
	<node id="-846209" lat="70.2449944999" lon="30.697989687">
		<tag k="name" v="Storkeila" />
		<tag k="natural" v="bay" />
		<tag k="ssr:stedsnr" v="349938" />
	</node>
	<node id="-846208" lat="70.2658500569" lon="30.6996980344">
		<tag k="name" v="Langbubergan" />
		<tag k="natural" v="hill" />
		<tag k="place" v="locality" />
		<tag k="ssr:stedsnr" v="349933" />
	</node>
	<node id="-846207" lat="70.3364250573" lon="31.0327422703">
		<tag k="name" v="Øverdomen" />
		<tag k="natural" v="hill" />
		<tag k="place" v="locality" />
		<tag k="ssr:stedsnr" v="349249" />
	</node>
	<node id="-846206" lat="70.238094498" lon="30.423617663">
		<tag k="name" v="Allemannsdammen" />
		<tag k="natural" v="water" />
		<tag k="ssr:stedsnr" v="348097" />
		<tag k="water" v="lake" />
	</node>
	<node id="-846205" lat="70.3753056186" lon="31.0832255922">
		<tag k="name" v="Engelsvika" />
		<tag k="natural" v="bay" />
		<tag k="ssr:stedsnr" v="330726" />
	</node>
	<node id="-846204" lat="70.3104861596" lon="30.1275345356">
		<tag k="name" v="Hubejohka" />
		<tag k="name:se" v="Hubejohka" />
		<tag k="old_name:se" v="Hubejåkka" />
		<tag k="ssr:stedsnr" v="323925" />
		<tag k="waterway" v="river" />
	</node>
	<node id="-846203" lat="70.3947528226" lon="30.5083454632">
		<tag k="name" v="Vesterelva - Jonnejohka" />
		<tag k="name:no" v="Vesterelva" />
		<tag k="name:se" v="Jonnejohka" />
		<tag k="old_name:se" v="Jånnejåkka" />
		<tag k="ssr:stedsnr" v="323890" />
		<tag k="waterway" v="river" />
	</node>
	<node id="-846202" lat="70.2926556146" lon="30.9859367282">
		<tag k="alt_name" v="Svenskesteinan" />
		<tag k="name" v="Kamman" />
		<tag k="natural" v="hill" />
		<tag k="place" v="locality" />
		<tag k="ssr:stedsnr" v="323641" />
	</node>
	<node id="-846201" lat="70.3030722853" lon="31.0073978355">
		<tag k="alt_name" v="Lassebakkan" />
		<tag k="name" v="Lassebakken" />
		<tag k="natural" v="slope" />
		<tag k="place" v="locality" />
		<tag k="ssr:stedsnr" v="323638" />
	</node>
	<node id="-846200" lat="70.2872278416" lon="31.0271061494">
		<tag k="fixme" v="consider natural=peak for the most distinct mountains in the district" />
		<tag k="name" v="Kibergsfjellet" />
		<tag k="natural" v="hill" />
		<tag k="place" v="locality" />
		<tag k="ssr:stedsnr" v="323637" />
	</node>
	<node id="-846199" lat="70.2896000633" lon="30.9677506344">
		<tag k="name" v="Omersnasen" />
		<tag k="natural" v="hill" />
		<tag k="place" v="locality" />
		<tag k="ssr:stedsnr" v="323636" />
	</node>
	<node id="-846198" lat="70.3126500656" lon="30.9774284108">
		<tag k="name" v="Formyra" />
		<tag k="natural" v="wetland" />
		<tag k="ssr:stedsnr" v="323626" />
	</node>
	<node id="-846197" lat="70.3778889502" lon="31.0271506294">
		<tag k="name" v="Siket" />
		<tag k="ssr:stedsnr" v="323614" />
		<tag k="waterway" v="stream" />
	</node>
	<node id="-846196" lat="70.4040695088" lon="31.1264922418">
		<tag k="name" v="Seigrunnen" />
		<tag k="natural" v="shoal" />
		<tag k="place" v="locality" />
		<tag k="ssr:stedsnr" v="323604" />
	</node>
	<node id="-846195" lat="70.3837611728" lon="31.1249394593">
		<tag k="name" v="Reinøysundet" />
		<tag k="natural" v="strait" />
		<tag k="ssr:stedsnr" v="323599" />
	</node>
	<node id="-846194" lat="70.4052472785" lon="31.0679756261">
		<tag k="name" v="Skagodden" />
		<tag k="natural" v="cape" />
		<tag k="ssr:stedsnr" v="323589" />
	</node>
	<node id="-846193" lat="70.41192505" lon="30.6262426144">
		<tag k="name" v="Telegráfaskáidi" />
		<tag k="name:se" v="Telegráfaskáidi" />
		<tag k="natural" v="cape" />
		<tag k="old_name:se" v="Telegrafaskaidi" />
		<tag k="ssr:stedsnr" v="323582" />
	</node>
	<node id="-846192" lat="70.4368083847" lon="30.9666785047">
		<tag k="name" v="Kavringen" />
		<tag k="natural" v="cape" />
		<tag k="ssr:stedsnr" v="323573" />
	</node>
	<node id="-846191" lat="70.4262333831" lon="30.6866481218">
		<tag k="name" v="Fanthaugen" />
		<tag k="natural" v="hill" />
		<tag k="place" v="locality" />
		<tag k="ssr:stedsnr" v="323572" />
	</node>
	<node id="-846190" lat="70.2826528414" lon="30.9520228674">
		<tag k="name" v="Skjørbybakken" />
		<tag k="natural" v="slope" />
		<tag k="place" v="locality" />
		<tag k="ssr:stedsnr" v="323515" />
	</node>
	<node id="-846189" lat="70.2503361608" lon="30.4951565057">
		<tag k="name" v="Hardtorvbakkan" />
		<tag k="natural" v="slope" />
		<tag k="place" v="locality" />
		<tag k="ssr:stedsnr" v="213661" />
	</node>
	<node id="-846188" lat="70.3829639495" lon="31.0700922766">
		<tag k="name" v="Engelsvikflua" />
		<tag k="natural" v="shoal" />
		<tag k="place" v="locality" />
		<tag k="ssr:stedsnr" v="208798" />
	</node>
	<node id="-846187" lat="70.4544417174" lon="30.9263674259">
		<tag k="name" v="Galjegrunnen" />
		<tag k="natural" v="shoal" />
		<tag k="place" v="locality" />
		<tag k="ssr:stedsnr" v="208670" />
	</node>
	<node id="-846186" lat="70.4257833879" lon="30.7184786644">
		<tag k="name" v="Vesterelva" />
		<tag k="place" v="hamlet" />
		<tag k="ssr:stedsnr" v="207642" />
	</node>
	<node id="-846185" lat="70.252094498" lon="30.619136978">
		<tag k="name" v="Mikkelhiet" />
		<tag k="natural" v="slope" />
		<tag k="place" v="locality" />
		<tag k="ssr:stedsnr" v="206296" />
	</node>
	<node id="-846184" lat="70.2771500554" lon="30.5104203876">
		<tag k="fixme" v="multiple name tags, choose one and add the other to alt_name" />
		<tag k="name" v="Lilleelva;Månelva - Movnnesjohka" />
		<tag k="name:no" v="Lilleelva;Månelva" />
		<tag k="name:se" v="Movnnesjohka" />
		<tag k="old_name:se" v="Måvnesjåkka" />
		<tag k="ssr:stedsnr" v="202928" />
		<tag k="waterway" v="river" />
	</node>
	<node id="-846183" lat="70.275836169" lon="30.7276119">
		<tag k="fixme" v="multiple name tags, choose one and add the other to alt_name" />
		<tag k="name" v="Langbuneselva;Vestre Langbuelva" />
		<tag k="ssr:stedsnr" v="202648" />
		<tag k="waterway" v="stream" />
	</node>
	<node id="-846182" lat="70.2939834011" lon="30.9987256029">
		<tag k="name" v="Kibergselva" />
		<tag k="ssr:stedsnr" v="202646" />
		<tag k="waterway" v="river" />
	</node>
	<node id="-846181" lat="70.3155861704" lon="30.8552507327">
		<tag k="name" v="Langdalen" />
		<tag k="natural" v="valley" />
		<tag k="place" v="locality" />
		<tag k="ssr:stedsnr" v="202638" />
	</node>
	<node id="-846180" lat="70.3647806145" lon="31.0967783428">
		<tag k="name" v="Steglneset" />
		<tag k="natural" v="cape" />
		<tag k="ssr:stedsnr" v="202631" />
	</node>
	<node id="-846179" lat="70.3808000617" lon="31.0348173162">
		<tag k="name" v="Skyttargamnes" />
		<tag k="natural" v="cape" />
		<tag k="ssr:stedsnr" v="202629" />
	</node>
	<node id="-846178" lat="70.3900000565" lon="31.1476227751">
		<tag k="name" v="Prestholmen" />
		<tag k="place" v="islet" />
		<tag k="ssr:stedsnr" v="202619" />
	</node>
	<node id="-846177" lat="70.4293000467" lon="30.6572231632">
		<tag k="fixme" v="consider natural=peak for the most distinct mountains in the district" />
		<tag k="name" v="Kamhaugen" />
		<tag k="natural" v="hill" />
		<tag k="place" v="locality" />
		<tag k="ssr:stedsnr" v="202601" />
	</node>
	<node id="-846176" lat="70.3758222778" lon="30.7978397086">
		<tag k="alt_name:no" v="Østerdalselva;Østerelva" />
		<tag k="name" v="Austerelva - Ovsttarjohka" />
		<tag k="name:no" v="Austerelva" />
		<tag k="name:se" v="Ovsttarjohka" />
		<tag k="old_name:se" v="Åvstarjåkka" />
		<tag k="ssr:stedsnr" v="202581" />
		<tag k="waterway" v="river" />
	</node>
	<node id="-846175" lat="70.2617000674" lon="30.9537783954">
		<tag k="fixme" v="consider seamark:type=rock or natural=shoal" />
		<tag k="name" v="Rundskjæret" />
		<tag k="place" v="islet" />
		<tag k="ssr:stedsnr" v="202538" />
	</node>
	<node id="-846174" lat="70.2629833965" lon="30.7835868685">
		<tag k="alt_name" v="Svartnesvatnan" />
		<tag k="name" v="Svartnesvatnet" />
		<tag k="natural" v="water" />
		<tag k="ssr:stedsnr" v="202531" />
	</node>
	<node id="-846173" lat="70.2476195023" lon="30.5866175573">
		<tag k="fixme" v="multiple name tags, choose one and add the other to alt_name" />
		<tag k="name" v="Trollbukta;Trollelvbukta" />
		<tag k="natural" v="bay" />
		<tag k="ssr:stedsnr" v="202526" />
	</node>
	<node id="-846172" lat="70.2684000627" lon="30.9482506349">
		<tag k="alt_name" v="Sundskjeret;Knoteskjeret" />
		<tag k="fixme" v="multiple name tags, choose one and add the other to alt_name; consider seamark:type=rock or natural=shoal" />
		<tag k="name" v="Kunteskjæret;Sundskjæret" />
		<tag k="place" v="islet" />
		<tag k="ssr:stedsnr" v="202523" />
	</node>
	<node id="-846171" lat="70.2853667331" lon="30.9972644864">
		<tag k="alt_name:no" v="Kiberg, yt;Ytre Kiberg" />
		<tag k="name" v="Kiberg - Kiiperi" />
		<tag k="name:fkv" v="Kiiperi" />
		<tag k="name:no" v="Kiberg" />
		<tag k="place" v="village" />
		<tag k="ssr:stedsnr" v="202520" />
	</node>
	<node id="-846170" lat="70.2924083966" lon="31.0447394598">
		<tag k="alt_name" v="Skyttarbergan" />
		<tag k="fixme" v="consider natural=peak for the most distinct mountains in the district" />
		<tag k="name" v="Skytterbergan" />
		<tag k="natural" v="hill" />
		<tag k="place" v="locality" />
		<tag k="ssr:stedsnr" v="202516" />
	</node>
	<node id="-846169" lat="70.2785528399" lon="30.8715951521">
		<tag k="name" v="Kramvikelva" />
		<tag k="ssr:stedsnr" v="202512" />
		<tag k="waterway" v="river" />
	</node>
	<node id="-846168" lat="70.2261333935" lon="30.4904648218">
		<tag k="name" v="Tyrolheim" />
		<tag k="place" v="isolated_dwelling" />
		<tag k="ssr:stedsnr" v="202511" />
	</node>
	<node id="-846166" lat="70.4356278345" lon="30.8887146711">
		<tag k="name" v="Næringsforsen" />
		<tag k="natural" v="waterfall" />
		<tag k="ssr:stedsnr" v="168949" />
	</node>
	<node id="-846165" lat="70.4113861681" lon="30.8943952016">
		<tag k="alt_name" v="Øverdalen" />
		<tag k="name" v="Øvre Prestnæringsdalen" />
		<tag k="natural" v="valley" />
		<tag k="place" v="locality" />
		<tag k="ssr:stedsnr" v="168943" />
	</node>
	<node id="-846164" lat="70.3749972863" lon="31.1175283494">
		<tag k="name" v="Vestervågen" />
		<tag k="place" v="suburb" />
		<tag k="ssr:stedsnr" v="167997" />
	</node>
	<node id="-846163" lat="70.3756695079" lon="31.1245338891">
		<tag k="name" v="Oldringkeila" />
		<tag k="natural" v="bay" />
		<tag k="ssr:stedsnr" v="167995" />
	</node>
	<node id="-846162" lat="70.2783417312" lon="30.9182673398">
		<tag k="name" v="Storbråtan" />
		<tag k="natural" v="wetland" />
		<tag k="ssr:stedsnr" v="167951" />
	</node>
	<node id="-846161" lat="70.2724333949" lon="30.8625479108">
		<tag k="name" v="Strupen" />
		<tag k="natural" v="valley" />
		<tag k="place" v="locality" />
		<tag k="ssr:stedsnr" v="167950" />
	</node>
	<node id="-846160" lat="70.268588948" lon="30.8854062323">
		<tag k="name" v="Mollkeila" />
		<tag k="natural" v="bay" />
		<tag k="ssr:stedsnr" v="167946" />
	</node>
	<node id="-846159" lat="70.2707583936" lon="30.915120106">
		<tag k="name" v="Tareholla" />
		<tag k="natural" v="bay" />
		<tag k="ssr:stedsnr" v="167944" />
	</node>
	<node id="-846158" lat="70.2688111708" lon="30.8113007325">
		<tag k="name" v="Flogelva" />
		<tag k="ssr:stedsnr" v="167931" />
		<tag k="waterway" v="stream" />
	</node>
	<node id="-846157" lat="70.2649389441" lon="30.7233480162">
		<tag k="name" v="Langbufloget" />
		<tag k="natural" v="hill" />
		<tag k="place" v="locality" />
		<tag k="ssr:stedsnr" v="167447" />
	</node>
	<node id="-846156" lat="70.2460889474" lon="30.5967592086">
		<tag k="name" v="Mikkelhamnnes" />
		<tag k="natural" v="cape" />
		<tag k="ssr:stedsnr" v="167343" />
	</node>
	<node id="-846155" lat="70.2314528322" lon="30.4585176171">
		<tag k="name" v="Sandhaugmyran" />
		<tag k="natural" v="wetland" />
		<tag k="ssr:stedsnr" v="166024" />
	</node>
	<node id="-846154" lat="70.2405250596" lon="30.4948120506">
		<tag k="name" v="Kaffekulpen" />
		<tag k="place" v="locality" />
		<tag k="ssr:stedsnr" v="166013" />
	</node>
	<node id="-846153" lat="70.3997472777" lon="31.0660617349">
		<tag k="name" v="Ramnflogkeila" />
		<tag k="natural" v="bay" />
		<tag k="ssr:stedsnr" v="147791" />
	</node>
	<node id="-846152" lat="70.285955624" lon="31.0583699985">
		<tag k="name" v="Nordvestkeila" />
		<tag k="natural" v="bay" />
		<tag k="ssr:stedsnr" v="146686" />
	</node>
	<node id="-846151" lat="70.2459278397" lon="30.971981153">
		<tag k="fixme" v="consider seamark:type=rock or natural=shoal" />
		<tag k="name" v="Reigrunnen" />
		<tag k="place" v="islet" />
		<tag k="ssr:stedsnr" v="146669" />
	</node>
	<node id="-846150" lat="70.26687872" lon="30.3253532982">
		<tag k="name" v="Abrahamsenslåtta" />
		<tag k="place" v="locality" />
		<tag k="ssr:stedsnr" v="141907" />
	</node>
	<node id="-846149" lat="70.267013936" lon="30.2066233561">
		<tag k="fixme" v="consider natural=peak for the most distinct mountains in the district" />
		<tag k="name" v="Cavnnoaivi" />
		<tag k="name:se" v="Cavnnoaivi" />
		<tag k="natural" v="hill" />
		<tag k="old_name:se" v="Cavnoaivi" />
		<tag k="place" v="locality" />
		<tag k="ssr:stedsnr" v="141904" />
	</node>
	<node id="-846148" lat="70.2884917159" lon="30.3280149562">
		<tag k="name" v="Gironjeaggi" />
		<tag k="name:se" v="Gironjeaggi" />
		<tag k="natural" v="wetland" />
		<tag k="old_name:se" v="Girunjæggi" />
		<tag k="ssr:stedsnr" v="141902" />
	</node>
	<node id="-846147" lat="70.3593139469" lon="30.8672313036">
		<tag k="fixme" v="consider natural=peak for the most distinct mountains in the district" />
		<tag k="name" v="Grøhøgda - Stuorravárri" />
		<tag k="name:no" v="Grøhøgda" />
		<tag k="name:se" v="Stuorravárri" />
		<tag k="natural" v="hill" />
		<tag k="old_name:se" v="Stuorravarri" />
		<tag k="place" v="locality" />
		<tag k="ssr:stedsnr" v="141620" />
	</node>
	<node id="-846146" lat="70.3662861715" lon="31.1287060959">
		<tag k="name" v="Vårberget" />
		<tag k="natural" v="hill" />
		<tag k="place" v="locality" />
		<tag k="ssr:stedsnr" v="141615" />
	</node>
	<node id="-846145" lat="70.3423000606" lon="31.0316867165">
		<tag k="alt_name" v="Skinnstakksvikelva" />
		<tag k="name" v="Skinnstakkelva" />
		<tag k="ssr:stedsnr" v="141613" />
		<tag k="waterway" v="stream" />
	</node>
	<node id="-846144" lat="70.3843278318" lon="30.9314284999">
		<tag k="name" v="Grøhøgda" />
		<tag k="natural" v="hill" />
		<tag k="place" v="locality" />
		<tag k="ssr:stedsnr" v="141601" />
	</node>
	<node id="-846143" lat="70.4237250544" lon="30.9746062683">
		<tag k="name" v="Østerbardvika" />
		<tag k="natural" v="bay" />
		<tag k="ssr:stedsnr" v="141581" />
	</node>
	<node id="-846142" lat="70.4448000505" lon="30.9250229761">
		<tag k="name" v="Blodskythøgda" />
		<tag k="natural" v="hill" />
		<tag k="place" v="locality" />
		<tag k="ssr:stedsnr" v="141579" />
	</node>
	<node id="-846141" lat="70.3354500481" lon="30.4584398973">
		<tag k="name" v="Dommaskáidi" />
		<tag k="name:se" v="Dommaskáidi" />
		<tag k="natural" v="cape" />
		<tag k="old_name:se" v="Dåmmaskaidi" />
		<tag k="ssr:stedsnr" v="140938" />
	</node>
	<node id="-846140" lat="70.26844173" lon="30.8943117938">
		<tag k="alt_name" v="Løkvika" />
		<tag k="name" v="Laukvika" />
		<tag k="natural" v="bay" />
		<tag k="ssr:stedsnr" v="140483" />
	</node>
	<node id="-846139" lat="70.2799528424" lon="30.988886718">
		<tag k="alt_name" v="Skippaskjeret" />
		<tag k="fixme" v="consider seamark:type=rock or natural=shoal" />
		<tag k="name" v="Skipparskjæret" />
		<tag k="place" v="islet" />
		<tag k="ssr:stedsnr" v="140480" />
	</node>
	<node id="-846138" lat="70.2916667331" lon="31.2666642893">
		<tag k="name" v="Austerbakken" />
		<tag k="place" v="locality" />
		<tag k="ssr:stedsnr" v="121339" />
	</node>
	<node id="-846137" lat="70.3846167277" lon="31.1552311054">
		<tag k="fixme" v="verify maritime location" />
		<tag k="mooring" v="yes" />
		<tag k="name" v="Landinga" />
		<tag k="place" v="locality" />
		<tag k="ssr:stedsnr" v="107994" />
	</node>
	<node id="-846136" lat="70.4405028352" lon="30.9664868459">
		<tag k="name" v="Kavringen" />
		<tag k="natural" v="cape" />
		<tag k="ssr:stedsnr" v="107972" />
	</node>
	<node id="-846135" lat="70.4219361693" lon="30.9863784638">
		<tag k="name" v="Dorskekeila" />
		<tag k="natural" v="bay" />
		<tag k="ssr:stedsnr" v="107971" />
	</node>
	<node id="-846134" lat="70.3915861765" lon="31.150553332">
		<tag k="name" v="Staurbukta" />
		<tag k="natural" v="bay" />
		<tag k="ssr:stedsnr" v="107964" />
	</node>
	<node id="-846133" lat="70.3936722827" lon="30.9963895724">
		<tag k="name" v="Kistnåvvatnet" />
		<tag k="natural" v="water" />
		<tag k="ssr:stedsnr" v="107961" />
	</node>
	<node id="-846132" lat="70.3900556167" lon="31.1182227891">
		<tag k="name" v="Kvalvikhaugen" />
		<tag k="natural" v="hill" />
		<tag k="place" v="locality" />
		<tag k="ssr:stedsnr" v="107959" />
	</node>
	<node id="-846131" lat="70.4014111667" lon="31.0104284496">
		<tag k="name" v="Varghollhaugen" />
		<tag k="natural" v="hill" />
		<tag k="place" v="locality" />
		<tag k="ssr:stedsnr" v="107957" />
	</node>
	<node id="-846130" lat="70.4369500532" lon="30.8338286072">
		<tag k="name" v="Synnavindsbukta" />
		<tag k="natural" v="bay" />
		<tag k="ssr:stedsnr" v="107948" />
	</node>
	<node id="-846129" lat="70.3804445059" lon="30.9746367917">
		<tag k="name" v="Samyra" />
		<tag k="natural" v="wetland" />
		<tag k="ssr:stedsnr" v="107938" />
	</node>
	<node id="-846128" lat="70.4274500526" lon="30.7287036502">
		<tag k="name" v="Lille Frøkenholla" />
		<tag k="natural" v="valley" />
		<tag k="place" v="locality" />
		<tag k="ssr:stedsnr" v="107937" />
	</node>
	<node id="-846127" lat="70.2727945109" lon="30.9350534262">
		<tag k="name" v="Indre Kibergbukta" />
		<tag k="natural" v="bay" />
		<tag k="ssr:stedsnr" v="107796" />
	</node>
	<node id="-846126" lat="70.355572278" lon="31.0342756233">
		<tag k="name" v="Myra" />
		<tag k="natural" v="wetland" />
		<tag k="ssr:stedsnr" v="107540" />
	</node>
	<node id="-846125" lat="70.2407222778" lon="30.4817759469">
		<tag k="name" v="Leirbakken" />
		<tag k="natural" v="water" />
		<tag k="ssr:stedsnr" v="106118" />
		<tag k="water" v="lake" />
	</node>
	<node id="-846124" lat="70.2424000576" lon="30.4441676378">
		<tag k="name" v="Storholla" />
		<tag k="natural" v="water" />
		<tag k="ssr:stedsnr" v="106113" />
		<tag k="water" v="lake" />
	</node>
	<node id="-846123" lat="70.2412750562" lon="30.5198342509">
		<tag k="name" v="Sandan" />
		<tag k="natural" v="beach" />
		<tag k="ssr:stedsnr" v="106065" />
		<tag k="surface" v="sand" />
	</node>
	<node id="-846122" lat="70.2383889422" lon="30.5526397904">
		<tag k="name" v="Sinavatnet" />
		<tag k="natural" v="bay" />
		<tag k="ssr:stedsnr" v="106050" />
	</node>
	<node id="-846121" lat="70.2426861668" lon="30.5311009051">
		<tag k="name" v="Loriagjerdet" />
		<tag k="place" v="locality" />
		<tag k="ssr:stedsnr" v="106049" />
	</node>
	<node id="-846120" lat="70.319958396" lon="31.0624450111">
		<tag k="alt_name" v="Molvika, lille" />
		<tag k="name" v="Lille Molvika" />
		<tag k="natural" v="bay" />
		<tag k="ssr:stedsnr" v="87787" />
	</node>
	<node id="-846118" lat="70.3486556137" lon="31.0481978357">
		<tag k="name" v="Skinnstakkvika" />
		<tag k="natural" v="bay" />
		<tag k="ssr:stedsnr" v="81631" />
	</node>
	<node id="-846117" lat="70.3977861663" lon="31.0176728834">
		<tag k="name" v="Laukvika" />
		<tag k="natural" v="bay" />
		<tag k="ssr:stedsnr" v="81617" />
	</node>
	<node id="-846116" lat="70.3844722754" lon="30.6473759165">
		<tag k="fixme" v="consider natural=peak for the most distinct mountains in the district" />
		<tag k="name" v="Ovllándorčohkka" />
		<tag k="name:se" v="Ovllándorčohkka" />
		<tag k="natural" v="hill" />
		<tag k="old_name:se" v="Åvlandurčåkka" />
		<tag k="place" v="locality" />
		<tag k="ssr:stedsnr" v="81614" />
	</node>
	<node id="-846115" lat="70.33961394" lon="30.5322731973">
		<tag k="name" v="Uhcit Lemetávži" />
		<tag k="name:se" v="Uhcit Lemetávži" />
		<tag k="natural" v="valley" />
		<tag k="old_name:se" v="Lemetavži, uccit" />
		<tag k="place" v="locality" />
		<tag k="ssr:stedsnr" v="80943" />
	</node>
	<node id="-846114" lat="70.444313945" lon="30.9521840666">
		<tag k="name" v="Daudmannsmolla" />
		<tag k="natural" v="cape" />
		<tag k="ssr:stedsnr" v="80577" />
	</node>
	<node id="-846113" lat="70.4403750576" lon="30.9247396516">
		<tag k="name" v="Oddevatnet" />
		<tag k="natural" v="water" />
		<tag k="ssr:stedsnr" v="80574" />
	</node>
	<node id="-846112" lat="70.3774222823" lon="31.1101700122">
		<tag k="man_made" v="breakwater" />
		<tag k="name" v="Vestervågmoloen" />
		<tag k="place" v="locality" />
		<tag k="ssr:stedsnr" v="46994" />
	</node>
	<node id="-846111" lat="70.2825917261" lon="30.9305728733">
		<tag k="name" v="Bråtan" />
		<tag k="place" v="locality" />
		<tag k="ssr:stedsnr" v="46988" />
	</node>
	<node id="-846110" lat="70.3888139481" lon="31.0907839269">
		<tag k="name" v="Gaupekeila" />
		<tag k="natural" v="bay" />
		<tag k="ssr:stedsnr" v="46983" />
	</node>
	<node id="-846109" lat="70.3787861725" lon="31.0146951078">
		<tag k="name" v="Sikhaugen" />
		<tag k="natural" v="hill" />
		<tag k="place" v="locality" />
		<tag k="ssr:stedsnr" v="46982" />
	</node>
	<node id="-846108" lat="70.3886583928" lon="31.0131062144">
		<tag k="name" v="Aksla" />
		<tag k="natural" v="hill" />
		<tag k="place" v="locality" />
		<tag k="ssr:stedsnr" v="46977" />
	</node>
	<node id="-846107" lat="70.304238949" lon="30.950492319">
		<tag k="name" v="Bendikmyra" />
		<tag k="natural" v="wetland" />
		<tag k="ssr:stedsnr" v="46975" />
	</node>
	<node id="-846106" lat="70.4335667205" lon="30.9616895967">
		<tag k="name" v="Kavringsbergan" />
		<tag k="natural" v="hill" />
		<tag k="place" v="locality" />
		<tag k="ssr:stedsnr" v="46970" />
	</node>
	<node id="-846105" lat="70.3680445077" lon="31.1310977721">
		<tag k="name" v="Staurkeila" />
		<tag k="natural" v="bay" />
		<tag k="ssr:stedsnr" v="46964" />
	</node>
	<node id="-846104" lat="70.3934361712" lon="31.0015201027">
		<tag k="name" v="Kistnåva" />
		<tag k="natural" v="slope" />
		<tag k="place" v="locality" />
		<tag k="ssr:stedsnr" v="46958" />
	</node>
	<node id="-846103" lat="70.3157806203" lon="31.0139672901">
		<tag k="name" v="Enkevassbekken" />
		<tag k="ssr:stedsnr" v="46953" />
		<tag k="waterway" v="stream" />
	</node>
	<node id="-846102" lat="70.4267694964" lon="30.7302675495">
		<tag k="name" v="Siket" />
		<tag k="ssr:stedsnr" v="46951" />
		<tag k="waterway" v="stream" />
	</node>
	<node id="-846101" lat="70.4213278325" lon="30.7189314556">
		<tag k="name" v="Kamhaugen" />
		<tag k="natural" v="hill" />
		<tag k="place" v="locality" />
		<tag k="ssr:stedsnr" v="46950" />
	</node>
	<node id="-846100" lat="70.4252833811" lon="30.7570758715">
		<tag k="name" v="Fanthaugen" />
		<tag k="natural" v="hill" />
		<tag k="place" v="locality" />
		<tag k="ssr:stedsnr" v="46948" />
	</node>
	<node id="-846099" lat="70.269113952" lon="30.8489756994">
		<tag k="name" v="Lillemyra" />
		<tag k="natural" v="wetland" />
		<tag k="ssr:stedsnr" v="46917" />
	</node>
	<node id="-846098" lat="70.2608389448" lon="30.7752729784">
		<tag k="name" v="Svartnesbekken" />
		<tag k="ssr:stedsnr" v="46904" />
		<tag k="waterway" v="stream" />
	</node>
	<node id="-846097" lat="70.3069472817" lon="30.9653145407">
		<tag k="name" v="Fosseramyra" />
		<tag k="natural" v="wetland" />
		<tag k="ssr:stedsnr" v="46212" />
	</node>
	<node id="-846096" lat="70.3159667271" lon="30.9908923042">
		<tag k="name" v="Vassbotn" />
		<tag k="natural" v="valley" />
		<tag k="place" v="locality" />
		<tag k="ssr:stedsnr" v="46210" />
	</node>
	<node id="-846095" lat="70.240102833" lon="30.4408037554">
		<tag k="name" v="Strigeholla" />
		<tag k="natural" v="water" />
		<tag k="ssr:stedsnr" v="45113" />
		<tag k="water" v="lake" />
	</node>
	<node id="-846094" lat="70.2376306043" lon="30.4401148709">
		<tag k="name" v="Svartstryket" />
		<tag k="ssr:stedsnr" v="45105" />
		<tag k="waterway" v="rapids" />
	</node>
	<node id="-846093" lat="70.2427028319" lon="30.4675065117">
		<tag k="name" v="Hollavatnet" />
		<tag k="natural" v="water" />
		<tag k="ssr:stedsnr" v="45029" />
	</node>
	<node id="-846092" lat="70.2519944982" lon="30.5576092212">
		<tag k="name" v="Skjønnselvbergan" />
		<tag k="natural" v="hill" />
		<tag k="place" v="locality" />
		<tag k="ssr:stedsnr" v="31631" />
	</node>
	<node id="-846091" lat="70.340547287" lon="31.0449978299">
		<tag k="fixme" v="multiple name tags, choose one and add the other to alt_name" />
		<tag k="name" v="Kvannvika;Skinnstakksvika" />
		<tag k="natural" v="bay" />
		<tag k="ssr:stedsnr" v="26747" />
	</node>
	<node id="-846090" lat="70.342383387" lon="30.5193731874">
		<tag k="name" v="Lemetskáidi" />
		<tag k="name:se" v="Lemetskáidi" />
		<tag k="natural" v="cape" />
		<tag k="old_name:se" v="Lemetskaidi" />
		<tag k="ssr:stedsnr" v="20949" />
	</node>
	<node id="-846089" lat="70.2920639392" lon="30.4021260307">
		<tag k="name" v="Gorsajohka" />
		<tag k="name:se" v="Gorsajohka" />
		<tag k="old_name:se" v="Gårsajåkka" />
		<tag k="ssr:stedsnr" v="20931" />
		<tag k="waterway" v="river" />
	</node>
	<node id="-846088" lat="70.4533194978" lon="30.7911730761">
		<tag k="bay" v="fjord" />
		<tag k="name" v="Persfjorden - Biesavuotna" />
		<tag k="name:no" v="Persfjorden" />
		<tag k="name:se" v="Biesavuotna" />
		<tag k="natural" v="bay" />
		<tag k="old_name:se" v="Biesavuodna" />
		<tag k="ssr:stedsnr" v="20924" />
	</node>
	<node id="-846087" lat="70.2521972726" lon="30.4080843312">
		<tag k="name" v="Finneset" />
		<tag k="natural" v="cape" />
		<tag k="ssr:stedsnr" v="20920" />
	</node>
	<node id="-846086" lat="70.3058250666" lon="30.9692367407">
		<tag k="name" v="Anna Sofiemyra" />
		<tag k="natural" v="wetland" />
		<tag k="ssr:stedsnr" v="20658" />
	</node>
	<node id="-846085" lat="70.3098000572" lon="30.6437258665">
		<tag k="fixme" v="consider natural=peak for the most distinct mountains in the district" />
		<tag k="name" v="Raudfjellet" />
		<tag k="natural" v="hill" />
		<tag k="place" v="locality" />
		<tag k="ssr:stedsnr" v="20654" />
	</node>
	<node id="-846084" lat="70.3110389484" lon="30.9930089397">
		<tag k="alt_name" v="Kibergvatnet" />
		<tag k="name" v="Kibergsvatnet" />
		<tag k="natural" v="water" />
		<tag k="ssr:stedsnr" v="20648" />
		<tag k="water" v="lake" />
	</node>
	<node id="-846083" lat="70.361747278" lon="31.052958949">
		<tag k="alt_name" v="Svartnes" />
		<tag k="name" v="Ytre Svartnes" />
		<tag k="natural" v="cape" />
		<tag k="ssr:stedsnr" v="20642" />
	</node>
	<node id="-846082" lat="70.3700861675" lon="31.0533117219">
		<tag k="name" v="Bussesundet" />
		<tag k="natural" v="strait" />
		<tag k="ssr:stedsnr" v="20635" />
	</node>
	<node id="-846081" lat="70.3683945068" lon="31.018686757">
		<tag k="name" v="Sanden" />
		<tag k="natural" v="beach" />
		<tag k="place" v="locality" />
		<tag k="ssr:stedsnr" v="20631" />
	</node>
	<node id="-846080" lat="70.4362806083" lon="30.7046842308">
		<tag k="name" v="Persvarden" />
		<tag k="natural" v="hill" />
		<tag k="place" v="locality" />
		<tag k="ssr:stedsnr" v="20596" />
	</node>
	<node id="-846079" lat="70.4421167164" lon="30.7301481228">
		<tag k="alt_name" v="Reinkalvvika, l" />
		<tag k="name" v="Lille Reinkalvvika" />
		<tag k="natural" v="bay" />
		<tag k="ssr:stedsnr" v="20595" />
	</node>
	<node id="-846078" lat="70.2079500538" lon="30.4777398321">
		<tag k="name" v="Kommagnes" />
		<tag k="natural" v="cape" />
		<tag k="ssr:stedsnr" v="20575" />
	</node>
	<node id="-846077" lat="70.2639195116" lon="30.8861978908">
		<tag k="fixme" v="consider seamark:type=rock or natural=shoal" />
		<tag k="name" v="Geitryggan" />
		<tag k="place" v="islet" />
		<tag k="ssr:stedsnr" v="935530" />
	</node>
	<node id="-846076" lat="70.3076667116" lon="30.3064899842">
		<tag k="name" v="Huhttirjávrrit" />
		<tag k="name:se" v="Huhttirjávrrit" />
		<tag k="natural" v="water" />
		<tag k="old_name:se" v="Huttirjavrit" />
		<tag k="ssr:stedsnr" v="930928" />
	</node>
	<node id="-846075" lat="70.3019000503" lon="30.3239594148">
		<tag k="name" v="Gironjohka" />
		<tag k="name:se" v="Gironjohka" />
		<tag k="old_name:se" v="Girunjåkka" />
		<tag k="ssr:stedsnr" v="930927" />
		<tag k="waterway" v="river" />
	</node>
	<node id="-846074" lat="70.3010667144" lon="30.4674648769">
		<tag k="name" v="Movnnesjohjávri" />
		<tag k="name:se" v="Movnnesjohjávri" />
		<tag k="natural" v="water" />
		<tag k="old_name:se" v="Måvnesjåkjavri" />
		<tag k="ssr:stedsnr" v="930926" />
	</node>
	<node id="-846073" lat="70.3248222706" lon="30.4035204883">
		<tag k="fixme" v="consider natural=peak for the most distinct mountains in the district" />
		<tag k="name" v="Dommačohkka" />
		<tag k="name:se" v="Dommačohkka" />
		<tag k="natural" v="hill" />
		<tag k="old_name:se" v="Dåmmačåkka" />
		<tag k="place" v="locality" />
		<tag k="ssr:stedsnr" v="930924" />
	</node>
	<node id="-846072" lat="70.2902639375" lon="30.2206150326">
		<tag k="loc_name:fkv" v="Kumajoen portti" />
		<tag k="name" v="Første porten - Stuorra Rohči" />
		<tag k="name:no" v="Første porten" />
		<tag k="name:se" v="Stuorra Rohči" />
		<tag k="natural" v="valley" />
		<tag k="old_name:se" v="Råčči, stuorra" />
		<tag k="place" v="locality" />
		<tag k="ssr:stedsnr" v="930916" />
	</node>
	<node id="-846071" lat="70.4422167195" lon="30.8561091439">
		<tag k="name" v="Næringsodden" />
		<tag k="natural" v="cape" />
		<tag k="ssr:stedsnr" v="930907" />
	</node>
	<node id="-846070" lat="70.3212056117" lon="30.9979534096">
		<tag k="name" v="Grønskhaugvatnet" />
		<tag k="natural" v="water" />
		<tag k="ssr:stedsnr" v="930634" />
	</node>
	<node id="-846069" lat="70.4036306204" lon="31.1201366934">
		<tag k="fixme" v="consider seamark:type=rock or natural=shoal" />
		<tag k="name" v="Reinøyskjæret" />
		<tag k="place" v="islet" />
		<tag k="ssr:stedsnr" v="930612" />
	</node>
	<node id="-846068" lat="70.2813278368" lon="30.7611229951">
		<tag k="name" v="Flogvatnet" />
		<tag k="natural" v="water" />
		<tag k="ssr:stedsnr" v="930526" />
	</node>
	<node id="-846067" lat="70.3668861701" lon="31.0997477967">
		<tag k="name" v="Steglnesdammen" />
		<tag k="natural" v="water" />
		<tag k="old_name" v="Steilnesdammen" />
		<tag k="ssr:stedsnr" v="896968" />
	</node>
	<node id="-846066" lat="70.449961168" lon="30.9267840984">
		<tag k="name" v="Blodskyttkeila" />
		<tag k="natural" v="bay" />
		<tag k="ssr:stedsnr" v="896966" />
	</node>
	<node id="-846065" lat="70.3206528404" lon="31.0480394712">
		<tag k="name" v="Kvannvikbekken" />
		<tag k="ssr:stedsnr" v="896959" />
		<tag k="waterway" v="stream" />
	</node>
	<node id="-846064" lat="70.4021333925" lon="31.0633145108">
		<tag k="name" v="Skagkeila" />
		<tag k="natural" v="bay" />
		<tag k="ssr:stedsnr" v="896569" />
	</node>
	<node id="-846063" lat="70.2417722821" lon="30.5229314681">
		<tag k="name" v="Komagelvmunningen" />
		<tag k="natural" v="bay" />
		<tag k="ssr:stedsnr" v="895053" />
	</node>
	<node id="-846062" lat="70.28445006" lon="30.9799783896">
		<tag k="name" v="Sandsenden" />
		<tag k="natural" v="bay" />
		<tag k="ssr:stedsnr" v="874713" />
	</node>
	<node id="-846061" lat="70.2545500542" lon="30.5980258778">
		<tag k="name" v="Mikkelhibekken" />
		<tag k="ssr:stedsnr" v="874314" />
		<tag k="waterway" v="stream" />
	</node>
	<node id="-846060" lat="70.2623639374" lon="30.4591259811">
		<tag k="name" v="Guovžžabiedju" />
		<tag k="name:se" v="Guovžžabiedju" />
		<tag k="old_name:se" v="Guovžabieddjo" />
		<tag k="place" v="locality" />
		<tag k="ssr:stedsnr" v="869906" />
	</node>
	<node id="-846059" lat="70.253536162" lon="30.5309453746">
		<tag k="name" v="Thorvaldslåtta" />
		<tag k="place" v="locality" />
		<tag k="ssr:stedsnr" v="941613" />
	</node>
	<node id="-846058" lat="70.2141833901" lon="30.4747620425">
		<tag k="name" v="Pakola" />
		<tag k="name:fkv" v="Pakola" />
		<tag k="place" v="locality" />
		<tag k="ssr:stedsnr" v="940523" />
	</node>
	<node id="-846057" lat="70.2702389471" lon="30.9475395289">
		<tag k="name" v="Sundnes" />
		<tag k="natural" v="cape" />
		<tag k="ssr:stedsnr" v="836779" />
	</node>
	<node id="-846056" lat="70.3638333972" lon="31.1149894622">
		<tag k="name" v="Gullringnes" />
		<tag k="natural" v="cape" />
		<tag k="ssr:stedsnr" v="835966" />
	</node>
	<node id="-846055" lat="70.4068195036" lon="31.0088367753">
		<tag k="name" v="Hyseberget" />
		<tag k="natural" v="hill" />
		<tag k="place" v="locality" />
		<tag k="ssr:stedsnr" v="835962" />
	</node>
	<node id="-846054" lat="70.4281222752" lon="30.7301119827">
		<tag k="name" v="Siksanden" />
		<tag k="natural" v="beach" />
		<tag k="ssr:stedsnr" v="835959" />
		<tag k="surface" v="sand" />
	</node>
	<node id="-846053" lat="70.3209778356" lon="31.0575172543">
		<tag k="name" v="Kvannvika" />
		<tag k="natural" v="bay" />
		<tag k="ssr:stedsnr" v="835958" />
	</node>
	<node id="-846052" lat="70.3252306181" lon="31.0321144969">
		<tag k="name" v="Vannskillet" />
		<tag k="natural" v="hill" />
		<tag k="place" v="locality" />
		<tag k="ssr:stedsnr" v="835956" />
	</node>
	<node id="-846051" lat="70.2664833926" lon="30.8421562727">
		<tag k="name" v="Grunneshalsen" />
		<tag k="place" v="locality" />
		<tag k="ssr:stedsnr" v="835916" />
	</node>
	<node id="-846050" lat="70.2680195" lon="30.7407591211">
		<tag k="name" v="Langbuelva" />
		<tag k="ssr:stedsnr" v="835470" />
		<tag k="waterway" v="river" />
	</node>
	<node id="-846049" lat="70.2453556159" lon="30.5205036963">
		<tag k="name" v="Kittilägjerdet" />
		<tag k="place" v="locality" />
		<tag k="ssr:stedsnr" v="834062" />
	</node>
	<node id="-846047" lat="70.3934111722" lon="31.0886533894">
		<tag k="alt_name" v="Svartuksen" />
		<tag k="name" v="Svartoksen" />
		<tag k="natural" v="shoal" />
		<tag k="place" v="locality" />
		<tag k="ssr:stedsnr" v="936758" />
	</node>
	<node id="-846045" lat="70.2512639461" lon="30.5295731561">
		<tag k="highway" v="path" />
		<tag k="name" v="Geitvegen" />
		<tag k="ssr:stedsnr" v="820618" />
	</node>
	<node id="-846044" lat="70.2187778304" lon="30.4578009578">
		<tag k="highway" v="path" />
		<tag k="name" v="Kvalnesvegen" />
		<tag k="ssr:stedsnr" v="819561" />
	</node>
	<node id="-846043" lat="70.2453000673" lon="30.9462839407">
		<tag k="fixme" v="consider seamark:type=rock or natural=shoal" />
		<tag k="name" v="Seigrunnen" />
		<tag k="place" v="islet" />
		<tag k="ssr:stedsnr" v="814694" />
	</node>
	<node id="-846042" lat="70.4202028344" lon="30.9903423658">
		<tag k="name" v="Sprengsneset" />
		<tag k="natural" v="cape" />
		<tag k="ssr:stedsnr" v="930601" />
	</node>
	<node id="-846041" lat="70.4202889403" lon="30.7910675046">
		<tag k="fixme" v="consider place=hamlet" />
		<tag k="name" v="Persfjord" />
		<tag k="place" v="village" />
		<tag k="ssr:stedsnr" v="930593" />
	</node>
	<node id="-846040" lat="70.2946028388" lon="30.9190812305">
		<tag k="alt_name" v="Olskardvatnet" />
		<tag k="name" v="Olskarvatnet" />
		<tag k="natural" v="water" />
		<tag k="ssr:stedsnr" v="930641" />
		<tag k="water" v="lake" />
	</node>
	<node id="-846039" lat="70.2867556214" lon="30.8879617927">
		<tag k="name" v="Kramvikmyra" />
		<tag k="natural" v="wetland" />
		<tag k="ssr:stedsnr" v="930638" />
	</node>
	<node id="-846038" lat="70.2862167237" lon="30.8185507253">
		<tag k="name" v="Grunneselva" />
		<tag k="ssr:stedsnr" v="930637" />
		<tag k="waterway" v="river" />
	</node>
	<node id="-846037" lat="70.2473833917" lon="30.699775793">
		<tag k="alt_name" v="Langbuneset" />
		<tag k="name" v="Langbunes" />
		<tag k="natural" v="cape" />
		<tag k="ssr:stedsnr" v="930545" />
	</node>
	<node id="-846036" lat="70.2489083973" lon="30.895864542">
		<tag k="fixme" v="consider seamark:type=rock or natural=shoal" />
		<tag k="name" v="Storskjæret" />
		<tag k="place" v="islet" />
		<tag k="ssr:stedsnr" v="930542" />
	</node>
	<node id="-846035" lat="70.3277667092" lon="29.9860457281">
		<tag k="loc_name:fkv" v="Kumajoki" />
		<tag k="name" v="Komagelva - Stuorrajohka" />
		<tag k="name:no" v="Komagelva" />
		<tag k="name:se" v="Stuorrajohka" />
		<tag k="old_name:se" v="Stuorrajåkka" />
		<tag k="ssr:stedsnr" v="930541" />
		<tag k="waterway" v="river" />
	</node>
	<node id="-846034" lat="70.2701722818" lon="30.8654562496">
		<tag k="name" v="Finnkjerka" />
		<tag k="natural" v="hill" />
		<tag k="place" v="locality" />
		<tag k="ssr:stedsnr" v="930537" />
	</node>
	<node id="-846033" lat="70.4259722725" lon="30.8116952606">
		<tag k="fixme" v="consider natural=peak for the most distinct mountains in the district" />
		<tag k="name" v="Hestmana" />
		<tag k="natural" v="hill" />
		<tag k="place" v="locality" />
		<tag k="ssr:stedsnr" v="775920" />
	</node>
	<node id="-846032" lat="70.4346861648" lon="30.8397008174">
		<tag k="name" v="Synnavindsbekken" />
		<tag k="ssr:stedsnr" v="775918" />
		<tag k="waterway" v="stream" />
	</node>
	<node id="-846031" lat="70.4279944939" lon="30.71479257">
		<tag k="name" v="Sandenden" />
		<tag k="natural" v="beach" />
		<tag k="ssr:stedsnr" v="774936" />
		<tag k="surface" v="sand" />
	</node>
	<node id="-846030" lat="70.2461167243" lon="30.5613508954">
		<tag k="name" v="Ytterstranda" />
		<tag k="natural" v="beach" />
		<tag k="place" v="locality" />
		<tag k="ssr:stedsnr" v="773078" />
	</node>
	<node id="-846029" lat="70.4201194985" lon="30.766489747">
		<tag k="name" v="Bankan" />
		<tag k="place" v="locality" />
		<tag k="ssr:stedsnr" v="773059" />
	</node>
	<node id="-846028" lat="70.2966722851" lon="30.9836478366">
		<tag k="fixme" v="multiple name tags, choose one and add the other to alt_name" />
		<tag k="name" v="Store Svenskevatnet;Svenskevatnet" />
		<tag k="natural" v="water" />
		<tag k="ssr:stedsnr" v="747614" />
	</node>
	<node id="-846027" lat="70.2589500574" lon="30.6197980912">
		<tag k="name" v="Smellrorbergan" />
		<tag k="natural" v="hill" />
		<tag k="place" v="locality" />
		<tag k="ssr:stedsnr" v="904086" />
	</node>
	<node id="-846026" lat="70.3716806173" lon="31.1220227712">
		<tag k="name" v="Rødmoen" />
		<tag k="place" v="locality" />
		<tag k="ssr:stedsnr" v="897000" />
	</node>
	<node id="-846025" lat="70.3706556135" lon="31.1168505642">
		<tag k="name" v="Klondyke" />
		<tag k="natural" v="hill" />
		<tag k="place" v="locality" />
		<tag k="ssr:stedsnr" v="896998" />
	</node>
	<node id="-846024" lat="70.3727167233" lon="31.1239700106">
		<tag k="name" v="Kvalryggen" />
		<tag k="natural" v="hill" />
		<tag k="place" v="locality" />
		<tag k="ssr:stedsnr" v="896996" />
	</node>
	<node id="-846023" lat="70.3770361683" lon="31.0983366904">
		<tag k="name" v="Sandvika" />
		<tag k="natural" v="bay" />
		<tag k="ssr:stedsnr" v="896992" />
	</node>
	<node id="-846022" lat="70.4292806084" lon="30.839214706">
		<tag k="name" v="Synnavindsvatnet" />
		<tag k="natural" v="water" />
		<tag k="ssr:stedsnr" v="896950" />
	</node>
	<node id="-846021" lat="70.280527843" lon="31.0179728044">
		<tag k="name" v="Dakkokeila" />
		<tag k="natural" v="bay" />
		<tag k="ssr:stedsnr" v="896832" />
	</node>
	<node id="-846020" lat="70.2460583866" lon="30.6165064136">
		<tag k="name" v="Raneset" />
		<tag k="natural" v="cape" />
		<tag k="ssr:stedsnr" v="896344" />
	</node>
	<node id="-846019" lat="70.3255833969" lon="31.0449505894">
		<tag k="name" v="Vargemyra" />
		<tag k="natural" v="wetland" />
		<tag k="ssr:stedsnr" v="896227" />
	</node>
	<node id="-846018" lat="70.4306000472" lon="30.7605508669">
		<tag k="name" v="Bukkemolla" />
		<tag k="place" v="locality" />
		<tag k="ssr:stedsnr" v="895934" />
	</node>
	<node id="-846017" lat="70.4300028311" lon="30.7455425412">
		<tag k="name" v="Langkeilhaugen" />
		<tag k="natural" v="hill" />
		<tag k="place" v="locality" />
		<tag k="ssr:stedsnr" v="895929" />
	</node>
	<node id="-846016" lat="70.2849639508" lon="30.9034090069">
		<tag k="name" v="Gressvatnet" />
		<tag k="natural" v="water" />
		<tag k="ssr:stedsnr" v="895920" />
	</node>
	<node id="-846015" lat="70.2654750654" lon="30.8628340201">
		<tag k="name" v="Humpen" />
		<tag k="natural" v="hill" />
		<tag k="place" v="locality" />
		<tag k="ssr:stedsnr" v="895917" />
	</node>
	<node id="-846014" lat="70.4364611628" lon="30.7101453435">
		<tag k="name" v="Vesterdalshøgda" />
		<tag k="natural" v="hill" />
		<tag k="place" v="locality" />
		<tag k="ssr:stedsnr" v="895912" />
	</node>
	<node id="-846013" lat="70.4345806069" lon="30.7248092229">
		<tag k="name" v="Kvannvikbukta" />
		<tag k="natural" v="bay" />
		<tag k="ssr:stedsnr" v="895910" />
	</node>
	<node id="-846012" lat="70.387775059" lon="31.0259423113">
		<tag k="name" v="Bratta" />
		<tag k="natural" v="slope" />
		<tag k="place" v="locality" />
		<tag k="ssr:stedsnr" v="714998" />
	</node>
	<node id="-846011" lat="70.4099889394" lon="30.7755647174">
		<tag k="name" v="Tverrdalen" />
		<tag k="natural" v="valley" />
		<tag k="place" v="locality" />
		<tag k="ssr:stedsnr" v="714963" />
	</node>
	<node id="-846010" lat="70.2429861664" lon="30.5172009131">
		<tag k="name" v="Komagskjæringa" />
		<tag k="natural" v="valley" />
		<tag k="place" v="locality" />
		<tag k="ssr:stedsnr" v="895052" />
	</node>
	<node id="-846009" lat="70.2328528351" lon="30.4257759869">
		<tag k="name" v="Storbuktmyra - Isolahtijänkkä" />
		<tag k="name:fkv" v="Isolahtijänkkä" />
		<tag k="name:no" v="Storbuktmyra" />
		<tag k="natural" v="wetland" />
		<tag k="ssr:stedsnr" v="895021" />
	</node>
	<node id="-846008" lat="70.2402056129" lon="30.4964037273">
		<tag k="name" v="Nestekulpen" />
		<tag k="place" v="locality" />
		<tag k="ssr:stedsnr" v="895011" />
	</node>
	<node id="-846007" lat="70.3081917322" lon="30.9772895125">
		<tag k="name" v="Kibergsvassmyra" />
		<tag k="natural" v="wetland" />
		<tag k="ssr:stedsnr" v="713203" />
	</node>
	<node id="-846006" lat="70.2338167239" lon="30.4929759324">
		<tag k="name" v="Sandhaugan" />
		<tag k="natural" v="beach" />
		<tag k="ssr:stedsnr" v="713019" />
		<tag k="surface" v="sand" />
	</node>
	<node id="-846004" lat="70.2633333955" lon="30.9916644687">
		<tag k="fixme" v="consider seamark:type=rock or natural=shoal" />
		<tag k="name" v="Heimtaket" />
		<tag k="place" v="islet" />
		<tag k="ssr:stedsnr" v="692668" />
	</node>
	<node id="-846003" lat="70.3586861663" lon="31.0300200773">
		<tag k="name" v="Svartnes" />
		<tag k="place" v="hamlet" />
		<tag k="ssr:stedsnr" v="688619" />
	</node>
	<node id="-846002" lat="70.3645083934" lon="31.1196977795">
		<tag k="name" v="Russevika" />
		<tag k="natural" v="bay" />
		<tag k="ssr:stedsnr" v="688613" />
	</node>
	<node id="-846001" lat="70.3473889478" lon="31.0239700639">
		<tag k="name" v="Hanseslåttan" />
		<tag k="place" v="locality" />
		<tag k="ssr:stedsnr" v="688609" />
	</node>
	<node id="-845999" lat="70.4110972777" lon="30.8182008251">
		<tag k="fixme" v="consider natural=peak for the most distinct mountains in the district" />
		<tag k="name" v="Hestmanlegda" />
		<tag k="natural" v="hill" />
		<tag k="place" v="locality" />
		<tag k="ssr:stedsnr" v="653947" />
	</node>
	<node id="-845998" lat="70.3206833942" lon="31.019011721">
		<tag k="name" v="Grønnsakhaugen" />
		<tag k="natural" v="hill" />
		<tag k="place" v="locality" />
		<tag k="ssr:stedsnr" v="653942" />
	</node>
	<node id="-845997" lat="70.3885417251" lon="30.9678173713">
		<tag k="name" v="Dynnebærvatnet" />
		<tag k="natural" v="water" />
		<tag k="ssr:stedsnr" v="653917" />
	</node>
	<node id="-845996" lat="70.2688778375" lon="30.7370618857">
		<tag k="name" v="Langbudalen" />
		<tag k="natural" v="valley" />
		<tag k="place" v="locality" />
		<tag k="ssr:stedsnr" v="652888" />
	</node>
	<node id="-845995" lat="70.3963417251" lon="31.0264756605">
		<tag k="name" v="Løkvikkeila" />
		<tag k="natural" v="bay" />
		<tag k="ssr:stedsnr" v="652513" />
	</node>
	<node id="-845994" lat="70.4302389398" lon="30.5791843282">
		<tag k="fixme" v="consider natural=peak for the most distinct mountains in the district" />
		<tag k="name" v="Seglkollfjellet - Seavlačearru" />
		<tag k="name:no" v="Seglkollfjellet" />
		<tag k="name:se" v="Seavlačearru" />
		<tag k="natural" v="hill" />
		<tag k="old_name:se" v="Sævlačearro" />
		<tag k="place" v="locality" />
		<tag k="ssr:stedsnr" v="632853" />
	</node>
	<node id="-845993" lat="70.3791222845" lon="31.1481977556">
		<tag k="name" v="Hornøyflua" />
		<tag k="natural" v="shoal" />
		<tag k="place" v="locality" />
		<tag k="ssr:stedsnr" v="632758" />
	</node>
	<node id="-845992" lat="70.2781111751" lon="31.0348450067">
		<tag k="fixme" v="consider seamark:type=rock or natural=shoal" />
		<tag k="name" v="Ramnfloggrunnen" />
		<tag k="place" v="islet" />
		<tag k="ssr:stedsnr" v="631710" />
	</node>
	<node id="-845991" lat="70.3632361663" lon="31.0113645316">
		<tag k="name" v="Vardøslåtten" />
		<tag k="natural" v="wetland" />
		<tag k="ssr:stedsnr" v="714922" />
	</node>
	<node id="-845990" lat="70.4006889445" lon="31.0771700576">
		<tag k="name" v="Rokeila" />
		<tag k="natural" v="bay" />
		<tag k="ssr:stedsnr" v="714455" />
	</node>
	<node id="-845989" lat="70.3623000619" lon="31.0298867443">
		<tag k="name" v="Kroken" />
		<tag k="natural" v="bay" />
		<tag k="ssr:stedsnr" v="713992" />
	</node>
	<node id="-845988" lat="70.3885445039" lon="31.0749533988">
		<tag k="name" v="Gammelslåtta" />
		<tag k="place" v="locality" />
		<tag k="ssr:stedsnr" v="713990" />
	</node>
	<node id="-845987" lat="70.2871361768" lon="31.0101644838">
		<tag k="name" v="Nedre Hollabakken" />
		<tag k="natural" v="slope" />
		<tag k="place" v="locality" />
		<tag k="ssr:stedsnr" v="713987" />
	</node>
	<node id="-845986" lat="70.4194695026" lon="30.9738201588">
		<tag k="name" v="Forsevasshøgda" />
		<tag k="natural" v="hill" />
		<tag k="place" v="locality" />
		<tag k="ssr:stedsnr" v="713970" />
	</node>
	<node id="-845985" lat="70.3924500588" lon="31.1300533515">
		<tag k="name" v="Legda" />
		<tag k="natural" v="hill" />
		<tag k="place" v="locality" />
		<tag k="ssr:stedsnr" v="713950" />
	</node>
	<node id="-845984" lat="70.4194889396" lon="30.7275675586">
		<tag k="name" v="Sersjantmyra" />
		<tag k="natural" v="wetland" />
		<tag k="ssr:stedsnr" v="713944" />
	</node>
	<node id="-845983" lat="70.2826195072" lon="30.8984117849">
		<tag k="name" v="Kramvikdalshøgda" />
		<tag k="natural" v="hill" />
		<tag k="place" v="locality" />
		<tag k="ssr:stedsnr" v="713935" />
	</node>
	<node id="-845982" lat="70.3973611668" lon="31.0210728871">
		<tag k="name" v="Langfjærnes" />
		<tag k="natural" v="cape" />
		<tag k="ssr:stedsnr" v="713543" />
	</node>
	<node id="-845981" lat="70.239450058" lon="30.4797926118">
		<tag k="name" v="Henryholla" />
		<tag k="natural" v="water" />
		<tag k="ssr:stedsnr" v="713106" />
		<tag k="water" v="lake" />
	</node>
	<node id="-845980" lat="70.2372083905" lon="30.4316454283">
		<tag k="name" v="Hollaneset" />
		<tag k="natural" v="cape" />
		<tag k="ssr:stedsnr" v="713090" />
	</node>
	<node id="-845979" lat="70.2183778355" lon="30.4859148216">
		<tag k="name" v="Kvalnesvatnet" />
		<tag k="natural" v="water" />
		<tag k="ssr:stedsnr" v="575530" />
	</node>
	<node id="-845978" lat="70.2594833861" lon="30.5968980946">
		<tag k="name" v="Mikkelhifloget" />
		<tag k="natural" v="hill" />
		<tag k="place" v="locality" />
		<tag k="ssr:stedsnr" v="570253" />
	</node>
	<node id="-845977" lat="70.2634945061" lon="30.9259562091">
		<tag k="fixme" v="consider seamark:type=rock or natural=shoal" />
		<tag k="name" v="Galten" />
		<tag k="place" v="islet" />
		<tag k="ssr:stedsnr" v="565503" />
	</node>
	<node id="-845976" lat="70.2533917219" lon="30.566853678">
		<tag k="name" v="Skjønnselva" />
		<tag k="ssr:stedsnr" v="698600" />
		<tag k="waterway" v="stream" />
	</node>
	<node id="-845975" lat="70.2551111642" lon="30.5311620276">
		<tag k="name" v="Langedalen" />
		<tag k="natural" v="valley" />
		<tag k="place" v="locality" />
		<tag k="ssr:stedsnr" v="698596" />
	</node>
	<node id="-845974" lat="70.2515028357" lon="30.5259759202">
		<tag k="name" v="Komagfloget" />
		<tag k="natural" v="cliff" />
		<tag k="ssr:stedsnr" v="698594" />
	</node>
	<node id="-845973" lat="70.3948778346" lon="31.0108728855">
		<tag k="name" v="Bekkavatnet" />
		<tag k="natural" v="water" />
		<tag k="ssr:stedsnr" v="531957" />
	</node>
	<node id="-845972" lat="70.3968667262" lon="31.0160562274">
		<tag k="name" v="Langfjæra" />
		<tag k="natural" v="beach" />
		<tag k="place" v="locality" />
		<tag k="ssr:stedsnr" v="531568" />
	</node>
	<node id="-845971" lat="70.3955222794" lon="31.0218034376">
		<tag k="name" v="Edelhaugen" />
		<tag k="natural" v="hill" />
		<tag k="place" v="locality" />
		<tag k="ssr:stedsnr" v="531563" />
	</node>
	<node id="-845970" lat="70.2402139445" lon="30.4996231533">
		<tag k="name" v="Skjærkulpen" />
		<tag k="place" v="locality" />
		<tag k="ssr:stedsnr" v="530015" />
	</node>
	<node id="-845969" lat="70.3733695014" lon="31.1043672453">
		<tag k="name" v="Vestervågen" />
		<tag k="natural" v="bay" />
		<tag k="ssr:stedsnr" v="688597" />
	</node>
	<node id="-845968" lat="70.3661917382" lon="30.7904610427">
		<tag k="name" v="Russehytta" />
		<tag k="place" v="locality" />
		<tag k="ssr:stedsnr" v="688596" />
	</node>
	<node id="-845967" lat="70.3250972756" lon="30.4926621007">
		<tag k="name" v="Lemetjávri" />
		<tag k="name:se" v="Lemetjávri" />
		<tag k="natural" v="water" />
		<tag k="old_name:se" v="Lemetjavri" />
		<tag k="ssr:stedsnr" v="687920" />
	</node>
	<node id="-845966" lat="70.3846111703" lon="30.9895312178">
		<tag k="fixme" v="multiple name tags, choose one and add the other to alt_name" />
		<tag k="name" v="Skyttarelva;Skyttargamneselva" />
		<tag k="ssr:stedsnr" v="687611" />
		<tag k="waterway" v="stream" />
	</node>
	<node id="-845965" lat="70.4016750551" lon="30.8369980087">
		<tag k="fixme" v="consider natural=peak for the most distinct mountains in the district" />
		<tag k="name" v="Langvasshøgda" />
		<tag k="natural" v="hill" />
		<tag k="place" v="locality" />
		<tag k="ssr:stedsnr" v="687608" />
	</node>
	<node id="-845964" lat="70.3964528343" lon="30.8679479856">
		<tag k="name" v="Krokvatnet" />
		<tag k="natural" v="water" />
		<tag k="ssr:stedsnr" v="687606" />
	</node>
	<node id="-845963" lat="70.4299306108" lon="30.809361942">
		<tag k="alt_name" v="Hestmanneset" />
		<tag k="name" v="Hestmannes" />
		<tag k="natural" v="cape" />
		<tag k="ssr:stedsnr" v="687603" />
	</node>
	<node id="-845962" lat="70.4162389404" lon="30.815442472">
		<tag k="alt_name" v="Hestmannen" />
		<tag k="fixme" v="multiple name tags, choose one and add the other to alt_name; consider natural=peak for the most distinct mountains in the district" />
		<tag k="name" v="Hestmanhøgda;Hestman" />
		<tag k="natural" v="hill" />
		<tag k="place" v="locality" />
		<tag k="ssr:stedsnr" v="687598" />
	</node>
	<node id="-845961" lat="70.3635583994" lon="31.1258144352">
		<tag k="name" v="Vårbergtåa" />
		<tag k="natural" v="cape" />
		<tag k="ssr:stedsnr" v="510669" />
	</node>
	<node id="-845960" lat="70.296497264" lon="30.0741151191">
		<tag k="loc_name:fkv" v="Patatunturi" />
		<tag k="name" v="Grythaugen - Stuorra Ruitu" />
		<tag k="name:no" v="Grythaugen" />
		<tag k="name:se" v="Stuorra Ruitu" />
		<tag k="natural" v="hill" />
		<tag k="old_name:se" v="Ruito, stuorra" />
		<tag k="place" v="locality" />
		<tag k="ssr:stedsnr" v="505910" />
	</node>
	<node id="-845959" lat="70.2448500535" lon="30.4487231965">
		<tag k="name" v="Hollamyra" />
		<tag k="natural" v="wetland" />
		<tag k="ssr:stedsnr" v="505518" />
	</node>
	<node id="-845958" lat="70.2779333967" lon="30.8789256959">
		<tag k="name" v="Kramvikvatnet" />
		<tag k="natural" v="water" />
		<tag k="ssr:stedsnr" v="505507" />
	</node>
	<node id="-845956" lat="70.3979611689" lon="31.1456366732">
		<tag k="alt_name" v="Kålnes;Kvalneset" />
		<tag k="name" v="Kålneset" />
		<tag k="natural" v="cape" />
		<tag k="ssr:stedsnr" v="451823" />
	</node>
	<node id="-845954" lat="70.2937278355" lon="30.5572564775">
		<tag k="fixme" v="consider natural=peak for the most distinct mountains in the district" />
		<tag k="name" v="Gilesčearru" />
		<tag k="name:se" v="Gilesčearru" />
		<tag k="natural" v="hill" />
		<tag k="old_name:se" v="Gilesčærro" />
		<tag k="place" v="locality" />
		<tag k="ssr:stedsnr" v="445923" />
	</node>
	<node id="-845953" lat="70.2186806129" lon="30.4906592558">
		<tag k="name" v="Kvalnes" />
		<tag k="natural" v="cape" />
		<tag k="ssr:stedsnr" v="445529" />
	</node>
	<node id="-845952" lat="70.2599722811" lon="30.7587979853">
		<tag k="name" v="Svartnesbukta" />
		<tag k="natural" v="bay" />
		<tag k="ssr:stedsnr" v="444505" />
	</node>
	<node id="-845951" lat="70.2463472825" lon="30.5621286692">
		<tag k="name" v="Ytterstranda" />
		<tag k="natural" v="beach" />
		<tag k="place" v="locality" />
		<tag k="ssr:stedsnr" v="516615" />
	</node>
	<node id="-845950" lat="70.4369695037" lon="30.9633173809">
		<tag k="name" v="Kavringen" />
		<tag k="place" v="farm" />
		<tag k="ssr:stedsnr" v="512416" />
	</node>
	<node id="-845949" lat="70.381163949" lon="31.1005089249">
		<tag k="name" v="Sandvikflua" />
		<tag k="natural" v="shoal" />
		<tag k="place" v="locality" />
		<tag k="ssr:stedsnr" v="511763" />
	</node>
	<node id="-845948" lat="70.2904500575" lon="30.6485647422">
		<tag k="fixme" v="consider natural=peak for the most distinct mountains in the district" />
		<tag k="name" v="Slettfjellet" />
		<tag k="natural" v="hill" />
		<tag k="place" v="locality" />
		<tag k="ssr:stedsnr" v="505636" />
	</node>
	<node id="-845947" lat="70.2819528406" lon="30.9409589765">
		<tag k="name" v="Stormyra" />
		<tag k="natural" v="wetland" />
		<tag k="ssr:stedsnr" v="505635" />
	</node>
	<node id="-845946" lat="70.3258750634" lon="31.0240867092">
		<tag k="name" v="Domsvatnet" />
		<tag k="natural" v="water" />
		<tag k="ssr:stedsnr" v="505630" />
	</node>
	<node id="-845945" lat="70.3136667273" lon="31.0320755784">
		<tag k="alt_name" v="Domen, nedre" />
		<tag k="fixme" v="multiple name tags, choose one and add the other to alt_name" />
		<tag k="name" v="Nerdomen;Nedre Domen" />
		<tag k="natural" v="hill" />
		<tag k="place" v="locality" />
		<tag k="ssr:stedsnr" v="505625" />
	</node>
	<node id="-845944" lat="70.3113139521" lon="30.9629284397">
		<tag k="alt_name" v="Fosseraelva" />
		<tag k="name" v="Fosselva" />
		<tag k="ssr:stedsnr" v="505624" />
		<tag k="waterway" v="river" />
	</node>
	<node id="-845943" lat="70.3564667235" lon="31.0439172799">
		<tag k="aeroway" v="aerodrome" />
		<tag k="alt_name" v="Svartnes" />
		<tag k="name" v="Vardø lufthavn, Svartnes" />
		<tag k="old_name" v="Vardø lufthavn" />
		<tag k="ssr:stedsnr" v="505620" />
	</node>
	<node id="-845942" lat="70.3678306137" lon="31.1065366911">
		<tag k="name" v="Østervågen" />
		<tag k="natural" v="bay" />
		<tag k="ssr:stedsnr" v="505618" />
	</node>
	<node id="-845941" lat="70.3837167298" lon="31.1524699808">
		<tag k="name" v="Sautaket" />
		<tag k="natural" v="cape" />
		<tag k="ssr:stedsnr" v="505608" />
	</node>
	<node id="-845940" lat="70.3821222806" lon="31.1607116466">
		<tag k="name" v="Avløysa" />
		<tag k="place" v="islet" />
		<tag k="ssr:stedsnr" v="505605" />
	</node>
	<node id="-845939" lat="70.3875833938" lon="31.0440006387">
		<tag k="name" v="Tjuvholmen" />
		<tag k="place" v="islet" />
		<tag k="ssr:stedsnr" v="505601" />
	</node>
	<node id="-845937" lat="70.3189222879" lon="31.0178061562">
		<tag k="name" v="Enkevatnet" />
		<tag k="natural" v="water" />
		<tag k="ssr:stedsnr" v="384609" />
	</node>
	<node id="-845936" lat="70.4488444975" lon="30.9289007444">
		<tag k="name" v="Blodskytodden" />
		<tag k="natural" v="cape" />
		<tag k="ssr:stedsnr" v="384553" />
	</node>
	<node id="-845935" lat="70.4119750523" lon="30.7646341699">
		<tag k="fixme" v="consider natural=peak for the most distinct mountains in the district" />
		<tag k="name" v="Tverrdalshøgda" />
		<tag k="natural" v="hill" />
		<tag k="place" v="locality" />
		<tag k="ssr:stedsnr" v="350938" />
	</node>
	<node id="-845934" lat="70.4077528331" lon="30.903817414">
		<tag k="fixme" v="consider natural=peak for the most distinct mountains in the district" />
		<tag k="name" v="Dalraet" />
		<tag k="natural" v="hill" />
		<tag k="place" v="locality" />
		<tag k="ssr:stedsnr" v="350925" />
	</node>
	<node id="-845933" lat="70.3313917281" lon="31.0132228306">
		<tag k="name" v="Mellomskarhøgdan" />
		<tag k="natural" v="hill" />
		<tag k="place" v="locality" />
		<tag k="ssr:stedsnr" v="349224" />
	</node>
	<node id="-845932" lat="70.2417556094" lon="30.5088064819">
		<tag k="name" v="Blindtarmen" />
		<tag k="natural" v="shoal" />
		<tag k="place" v="locality" />
		<tag k="ssr:stedsnr" v="348008" />
	</node>
	<node id="-845931" lat="70.3702083991" lon="31.1260616608">
		<tag k="name" v="Plana" />
		<tag k="natural" v="hill" />
		<tag k="place" v="locality" />
		<tag k="ssr:stedsnr" v="472000" />
	</node>
	<node id="-845930" lat="70.3851917256" lon="31.1512060929">
		<tag k="alt_name" v="Omen" />
		<tag k="name" v="Omnsholla" />
		<tag k="natural" v="cape" />
		<tag k="ssr:stedsnr" v="471988" />
	</node>
	<node id="-845929" lat="70.3756444995" lon="31.015675644">
		<tag k="name" v="Jakobslåtta" />
		<tag k="natural" v="wetland" />
		<tag k="ssr:stedsnr" v="471977" />
	</node>
	<node id="-845928" lat="70.3866861685" lon="31.0270923108">
		<tag k="name" v="Grønnhaugen" />
		<tag k="natural" v="hill" />
		<tag k="place" v="locality" />
		<tag k="ssr:stedsnr" v="471974" />
	</node>
	<node id="-845927" lat="70.424952835" lon="30.899267441">
		<tag k="name" v="Nerdalen" />
		<tag k="natural" v="valley" />
		<tag k="place" v="locality" />
		<tag k="ssr:stedsnr" v="471955" />
	</node>
	<node id="-845926" lat="70.3677083971" lon="31.1212755532">
		<tag k="name" v="Sloka" />
		<tag k="natural" v="slope" />
		<tag k="place" v="locality" />
		<tag k="ssr:stedsnr" v="471954" />
	</node>
	<node id="-845925" lat="70.4317333868" lon="30.8905424302">
		<tag k="name" v="Næringshøgda" />
		<tag k="natural" v="hill" />
		<tag k="place" v="locality" />
		<tag k="ssr:stedsnr" v="471951" />
	</node>
	<node id="-845924" lat="70.3206139483" lon="31.036167253">
		<tag k="name" v="Rundhaugen" />
		<tag k="natural" v="hill" />
		<tag k="place" v="locality" />
		<tag k="ssr:stedsnr" v="471947" />
	</node>
	<node id="-845923" lat="70.3759056146" lon="30.9882173429">
		<tag k="name" v="Jakobslåtta" />
		<tag k="natural" v="wetland" />
		<tag k="ssr:stedsnr" v="471912" />
	</node>
	<node id="-845922" lat="70.2806361781" lon="31.0191644811">
		<tag k="name" v="Vesterkeila" />
		<tag k="natural" v="bay" />
		<tag k="ssr:stedsnr" v="471795" />
	</node>
	<node id="-845921" lat="70.307147284" lon="30.9861256314">
		<tag k="name" v="Munningen" />
		<tag k="natural" v="bay" />
		<tag k="ssr:stedsnr" v="471206" />
	</node>
	<node id="-845920" lat="70.3182611719" lon="30.9689478737">
		<tag k="name" v="Fosseraet" />
		<tag k="natural" v="hill" />
		<tag k="place" v="locality" />
		<tag k="ssr:stedsnr" v="471202" />
	</node>
	<node id="-845919" lat="70.2869445062" lon="31.0053894711">
		<tag k="name" v="Hollabakken" />
		<tag k="natural" v="slope" />
		<tag k="place" v="locality" />
		<tag k="ssr:stedsnr" v="470982" />
	</node>
	<node id="-845918" lat="70.2922750609" lon="30.9955172868">
		<tag k="name" v="Benserafossen" />
		<tag k="natural" v="waterfall" />
		<tag k="ssr:stedsnr" v="470976" />
	</node>
	<node id="-845917" lat="70.4372306072" lon="30.8514646956">
		<tag k="name" v="Næringsbergan" />
		<tag k="natural" v="hill" />
		<tag k="place" v="locality" />
		<tag k="ssr:stedsnr" v="470945" />
	</node>
	<node id="-845916" lat="70.284922282" lon="30.8903617944">
		<tag k="name" v="Kramvikdalslåtta" />
		<tag k="natural" v="wetland" />
		<tag k="ssr:stedsnr" v="470906" />
	</node>
	<node id="-845915" lat="70.2533111677" lon="30.6936702582">
		<tag k="name" v="Langbuhalsen" />
		<tag k="natural" v="valley" />
		<tag k="place" v="locality" />
		<tag k="ssr:stedsnr" v="470899" />
	</node>
	<node id="-845914" lat="70.2446778375" lon="30.5105953683">
		<tag k="name" v="Bakmyra - Takajänkkä" />
		<tag k="name:fkv" v="Takajänkkä" />
		<tag k="name:no" v="Bakmyra" />
		<tag k="natural" v="wetland" />
		<tag k="ssr:stedsnr" v="470042" />
	</node>
	<node id="-845913" lat="70.2266278315" lon="30.4904648229">
		<tag k="name" v="Storbekken - Isooja" />
		<tag k="name:fkv" v="Isooja" />
		<tag k="name:no" v="Storbekken" />
		<tag k="ssr:stedsnr" v="470022" />
		<tag k="waterway" v="stream" />
	</node>
	<node id="-845912" lat="70.4408306057" lon="30.8461147035">
		<tag k="name" v="Nordvestkeila" />
		<tag k="natural" v="bay" />
		<tag k="ssr:stedsnr" v="289975" />
	</node>
	<node id="-845911" lat="70.3986528345" lon="31.0682589637">
		<tag k="name" v="Trollkjærringa" />
		<tag k="natural" v="hill" />
		<tag k="place" v="locality" />
		<tag k="ssr:stedsnr" v="289552" />
	</node>
	<node id="-845910" lat="70.4407778343" lon="30.8566674658">
		<tag k="name" v="Prestnæringen" />
		<tag k="natural" v="cape" />
		<tag k="ssr:stedsnr" v="288969" />
	</node>
	<node id="-845909" lat="70.4395472741" lon="30.8729757769">
		<tag k="name" v="Næringsbukta" />
		<tag k="natural" v="bay" />
		<tag k="ssr:stedsnr" v="288968" />
	</node>
	<node id="-845908" lat="70.2664306109" lon="30.7686729848">
		<tag k="name" v="Svartnesbergan" />
		<tag k="natural" v="hill" />
		<tag k="place" v="locality" />
		<tag k="ssr:stedsnr" v="288910" />
	</node>
	<node id="-845907" lat="70.2394111643" lon="30.5509509087">
		<tag k="name" v="Komagværnes" />
		<tag k="natural" v="cape" />
		<tag k="ssr:stedsnr" v="288059" />
	</node>
	<node id="-845906" lat="70.3704195053" lon="31.1119283493">
		<tag k="amenity" v="place_of_worship" />
		<tag k="denomination" v="lutheran" />
		<tag k="name" v="Vardø kirke" />
		<tag k="religion" v="christian" />
		<tag k="ssr:stedsnr" v="272822" />
	</node>
	<node id="-845904" lat="70.4508333891" lon="30.9333312976">
		<tag k="name" v="Galjegrunnen" />
		<tag k="natural" v="shoal" />
		<tag k="place" v="locality" />
		<tag k="ssr:stedsnr" v="267654" />
	</node>
	<node id="-845903" lat="70.2509722726" lon="30.513295382">
		<tag k="name" v="Innerfloget" />
		<tag k="natural" v="cliff" />
		<tag k="ssr:stedsnr" v="456624" />
	</node>
	<node id="-845902" lat="70.2515528332" lon="30.5408287051">
		<tag k="name" v="Ytterfloget" />
		<tag k="natural" v="cliff" />
		<tag k="ssr:stedsnr" v="456618" />
	</node>
	<node id="-845901" lat="70.412363949" lon="31.0016812395">
		<tag k="name" v="Kistmolla" />
		<tag k="natural" v="cape" />
		<tag k="ssr:stedsnr" v="445599" />
	</node>
	<node id="-845900" lat="70.4282750525" lon="30.9256090633">
		<tag k="name" v="Mellomvatnet" />
		<tag k="natural" v="water" />
		<tag k="ssr:stedsnr" v="445592" />
	</node>
	<node id="-845899" lat="70.3498861704" lon="31.0543366968">
		<tag k="alt_name" v="Svartnes, in" />
		<tag k="name" v="Indre Svartnes" />
		<tag k="natural" v="cape" />
		<tag k="ssr:stedsnr" v="445626" />
	</node>
	<node id="-845898" lat="70.319161169" lon="30.5823675855">
		<tag k="name" v="Jorbajohka" />
		<tag k="name:se" v="Jorbajohka" />
		<tag k="old_name:se" v="Jårbajåkka" />
		<tag k="ssr:stedsnr" v="444937" />
		<tag k="waterway" v="river" />
	</node>
	<node id="-845897" lat="70.3138833854" lon="30.5698648067">
		<tag k="name" v="Jorbajávri" />
		<tag k="name:se" v="Jorbajávri" />
		<tag k="natural" v="water" />
		<tag k="old_name:se" v="Jårbajavri" />
		<tag k="ssr:stedsnr" v="444934" />
	</node>
	<node id="-845896" lat="70.2890806198" lon="30.9288645525">
		<tag k="fixme" v="multiple name tags, choose one and add the other to alt_name" />
		<tag k="name" v="Olskardhøgda;Olskarheia" />
		<tag k="natural" v="hill" />
		<tag k="place" v="locality" />
		<tag k="ssr:stedsnr" v="444600" />
	</node>
	<node id="-845895" lat="70.2604556112" lon="30.678531379">
		<tag k="alt_name" v="Smellrorbekken;Smelrorbekken" />
		<tag k="name" v="Smellrorelva" />
		<tag k="ssr:stedsnr" v="444494" />
		<tag k="waterway" v="stream" />
	</node>
	<node id="-845894" lat="70.2888806177" lon="31.0617727657">
		<tag k="name" v="Kibergsneset" />
		<tag k="natural" v="cape" />
		<tag k="ssr:stedsnr" v="444488" />
	</node>
	<node id="-845893" lat="70.2738056169" lon="30.7679479919">
		<tag k="fixme" v="consider natural=peak for the most distinct mountains in the district" />
		<tag k="name" v="Falkefloget" />
		<tag k="natural" v="hill" />
		<tag k="place" v="locality" />
		<tag k="ssr:stedsnr" v="444485" />
	</node>
	<node id="-845892" lat="70.3673361753" lon="31.1177699999">
		<tag k="name" v="Østervågen" />
		<tag k="place" v="suburb" />
		<tag k="ssr:stedsnr" v="228960" />
	</node>
	<node id="-845891" lat="70.3246472808" lon="31.0141228451">
		<tag k="name" v="Votteskarhøgdan" />
		<tag k="natural" v="hill" />
		<tag k="place" v="locality" />
		<tag k="ssr:stedsnr" v="228955" />
	</node>
	<node id="-845890" lat="70.2449195001" lon="30.7085452343">
		<tag k="name" v="Ytterkeila" />
		<tag k="natural" v="bay" />
		<tag k="ssr:stedsnr" v="228924" />
	</node>
	<node id="-845889" lat="70.2754333934" lon="30.7383341368">
		<tag k="name" v="Østre Langbuelva" />
		<tag k="ssr:stedsnr" v="228923" />
		<tag k="waterway" v="stream" />
	</node>
	<node id="-845888" lat="70.2532722815" lon="30.5854786558">
		<tag k="name" v="Dritbekken" />
		<tag k="ssr:stedsnr" v="228358" />
		<tag k="waterway" v="stream" />
	</node>
	<node id="-845887" lat="70.3863833915" lon="31.1505255564">
		<tag k="name" v="Fuglefjellet" />
		<tag k="natural" v="hill" />
		<tag k="place" v="locality" />
		<tag k="ssr:stedsnr" v="289993" />
	</node>
	<node id="-845886" lat="70.3833917304" lon="31.0921116952">
		<tag k="name" v="Lillesvinvika" />
		<tag k="natural" v="bay" />
		<tag k="ssr:stedsnr" v="289987" />
	</node>
	<node id="-845885" lat="70.4003389491" lon="31.0143867773">
		<tag k="fixme" v="consider seamark:type=rock or natural=shoal" />
		<tag k="name" v="Stabben" />
		<tag k="place" v="islet" />
		<tag k="ssr:stedsnr" v="289560" />
	</node>
	<node id="-845884" lat="70.3009750604" lon="31.0103422713">
		<tag k="junction" v="yes" />
		<tag k="name" v="Mollvikkrysset" />
		<tag k="place" v="locality" />
		<tag k="ssr:stedsnr" v="288977" />
	</node>
	<node id="-845883" lat="70.2732500615" lon="30.8449896014">
		<tag k="name" v="Stormyra" />
		<tag k="natural" v="wetland" />
		<tag k="ssr:stedsnr" v="288898" />
	</node>
	<node id="-845882" lat="70.4249750524" lon="30.7367675388">
		<tag k="name" v="Huleng" />
		<tag k="place" v="locality" />
		<tag k="ssr:stedsnr" v="288934" />
	</node>
	<node id="-845881" lat="70.2379972757" lon="30.4725037342">
		<tag k="name" v="Reingjerdneset" />
		<tag k="natural" v="cape" />
		<tag k="ssr:stedsnr" v="288118" />
	</node>
	<node id="-845880" lat="70.3643834002" lon="31.1273922148">
		<tag k="name" v="Vårbergdammen" />
		<tag k="natural" v="water" />
		<tag k="ssr:stedsnr" v="167974" />
	</node>
	<node id="-845879" lat="70.396480617" lon="31.0236839976">
		<tag k="name" v="Sundfjærmola" />
		<tag k="natural" v="bay" />
		<tag k="ssr:stedsnr" v="167571" />
	</node>
	<node id="-845877" lat="70.3315417289" lon="30.88340071">
		<tag k="fixme" v="consider natural=peak for the most distinct mountains in the district" />
		<tag k="name" v="Oksevasshøgda" />
		<tag k="natural" v="hill" />
		<tag k="place" v="locality" />
		<tag k="ssr:stedsnr" v="263631" />
	</node>
	<node id="-845876" lat="70.3705167293" lon="31.1095366695">
		<tag k="name" v="Vardø - Vuorea" />
		<tag k="name:fkv" v="Vuorea" />
		<tag k="name:no" v="Vardø" />
		<tag k="place" v="town" />
		<tag k="ssr:stedsnr" v="263614" />
	</node>
	<node id="-845875" lat="70.4097861697" lon="30.9652395905">
		<tag k="name" v="Bardvikhøgda" />
		<tag k="natural" v="hill" />
		<tag k="place" v="locality" />
		<tag k="ssr:stedsnr" v="263601" />
	</node>
	<node id="-845874" lat="70.4069833915" lon="31.0091645667">
		<tag k="name" v="Stauren" />
		<tag k="natural" v="cape" />
		<tag k="ssr:stedsnr" v="263594" />
	</node>
	<node id="-845873" lat="70.4318056065" lon="30.7571536294">
		<tag k="alt_name" v="Bukkemolltangen" />
		<tag k="name" v="Bukkemoltangen" />
		<tag k="natural" v="cape" />
		<tag k="ssr:stedsnr" v="263589" />
	</node>
	<node id="-845872" lat="70.4265028287" lon="30.7731869604">
		<tag k="name" v="Kroknes" />
		<tag k="natural" v="cape" />
		<tag k="ssr:stedsnr" v="263587" />
	</node>
	<node id="-845871" lat="70.3377667165" lon="30.4776954423">
		<tag k="name" v="Stuorát Lemetávži" />
		<tag k="name:se" v="Stuorát Lemetávži" />
		<tag k="natural" v="valley" />
		<tag k="old_name:se" v="Lemetavži, stuorat" />
		<tag k="place" v="locality" />
		<tag k="ssr:stedsnr" v="262945" />
	</node>
	<node id="-845870" lat="70.2985833804" lon="30.1457206332">
		<tag k="name" v="Stuorra Suovka" />
		<tag k="name:se" v="Stuorra Suovka" />
		<tag k="old_name:se" v="Suovka, stuorra" />
		<tag k="place" v="locality" />
		<tag k="ssr:stedsnr" v="262939" />
	</node>
	<node id="-845869" lat="70.4669528257" lon="30.7449536564">
		<tag k="alt_name" v="Segelodden" />
		<tag k="name" v="Seglodden" />
		<tag k="natural" v="cape" />
		<tag k="ssr:stedsnr" v="262931" />
	</node>
	<node id="-845868" lat="70.2548583875" lon="30.5953953305">
		<tag k="name" v="Trollelva - Ruollajohka" />
		<tag k="name:no" v="Trollelva" />
		<tag k="name:se" v="Ruollajohka" />
		<tag k="old_name:se" v="Ruollajåkka" />
		<tag k="ssr:stedsnr" v="262927" />
		<tag k="waterway" v="river" />
	</node>
	<node id="-845867" lat="70.4473250557" lon="30.9069896627">
		<tag k="name" v="Jernsteinvika" />
		<tag k="natural" v="bay" />
		<tag k="ssr:stedsnr" v="262586" />
	</node>
	<node id="-845866" lat="70.2651472818" lon="30.81763685">
		<tag k="name" v="Grunnesbukta" />
		<tag k="natural" v="bay" />
		<tag k="ssr:stedsnr" v="262534" />
	</node>
	<node id="-845865" lat="70.2689750555" lon="30.6874841608">
		<tag k="fixme" v="consider natural=peak for the most distinct mountains in the district" />
		<tag k="loc_name" v="Kråktuva" />
		<tag k="name" v="Kråketuva" />
		<tag k="natural" v="hill" />
		<tag k="place" v="locality" />
		<tag k="ssr:stedsnr" v="262522" />
	</node>
	<node id="-845864" lat="70.3430528398" lon="31.0186533925">
		<tag k="name" v="Skinnstakkvikraet" />
		<tag k="natural" v="hill" />
		<tag k="place" v="locality" />
		<tag k="ssr:stedsnr" v="107203" />
	</node>
	<node id="-845863" lat="70.3754417244" lon="31.1194144646">
		<tag k="name" v="Vardøya" />
		<tag k="place" v="island" />
		<tag k="ssr:stedsnr" v="87713" />
	</node>
	<node id="-845862" lat="70.2720972822" lon="31.0056061469">
		<tag k="fixme" v="consider seamark:type=rock or natural=shoal" />
		<tag k="name" v="Hansegrunnen" />
		<tag k="place" v="islet" />
		<tag k="ssr:stedsnr" v="85661" />
	</node>
	<node id="-845861" lat="70.4294056095" lon="30.9797312479">
		<tag k="name" v="Bardvika" />
		<tag k="natural" v="bay" />
		<tag k="ssr:stedsnr" v="85612" />
	</node>
	<node id="-845860" lat="70.2789472884" lon="30.9738756211">
		<tag k="name" v="Slettaodden" />
		<tag k="natural" v="cape" />
		<tag k="ssr:stedsnr" v="80507" />
	</node>
	<node id="-845859" lat="70.3916667299" lon="31.0333311917">
		<tag k="name" v="Smellror" />
		<tag k="natural" v="cape" />
		<tag k="ssr:stedsnr" v="242393" />
	</node>
	<node id="-845858" lat="70.2778556192" lon="30.9894645021">
		<tag k="name" v="Heimtaket" />
		<tag k="natural" v="shoal" />
		<tag k="place" v="locality" />
		<tag k="ssr:stedsnr" v="229783" />
	</node>
	<node id="-845857" lat="70.2958917265" lon="30.9501339783">
		<tag k="name" v="Øvre Annasofiemyra" />
		<tag k="natural" v="wetland" />
		<tag k="ssr:stedsnr" v="228976" />
	</node>
	<node id="-845856" lat="70.3040222829" lon="30.9628367503">
		<tag k="name" v="Nedre Annasofiemyra" />
		<tag k="natural" v="wetland" />
		<tag k="ssr:stedsnr" v="228974" />
	</node>
	<node id="-845855" lat="70.2853083958" lon="30.8624423808">
		<tag k="name" v="Varvatnet" />
		<tag k="natural" v="water" />
		<tag k="ssr:stedsnr" v="228934" />
	</node>
	<node id="-845854" lat="70.2826611662" lon="30.8772701444">
		<tag k="name" v="Kramvikdalen" />
		<tag k="natural" v="valley" />
		<tag k="place" v="locality" />
		<tag k="ssr:stedsnr" v="228928" />
	</node>
	<node id="-845853" lat="70.345780616" lon="31.0380700532">
		<tag k="name" v="Domsbergan" />
		<tag k="natural" v="hill" />
		<tag k="place" v="locality" />
		<tag k="ssr:stedsnr" v="228231" />
	</node>
	<node id="-845852" lat="70.233850058" lon="30.4848509416">
		<tag k="name" v="Sandhaugen" />
		<tag k="natural" v="beach" />
		<tag k="ssr:stedsnr" v="227032" />
		<tag k="surface" v="sand" />
	</node>
	<node id="-845851" lat="70.4264639421" lon="30.7636369659">
		<tag k="name" v="Hamna" />
		<tag k="place" v="isolated_dwelling" />
		<tag k="ssr:stedsnr" v="20611" />
	</node>
	<node id="-845850" lat="70.4276250589" lon="30.9665646091">
		<tag k="name" v="Vesterbardvika" />
		<tag k="natural" v="bay" />
		<tag k="ssr:stedsnr" v="20603" />
	</node>
	<node id="-845849" lat="70.2610472827" lon="30.8414034968">
		<tag k="alt_name" v="Grunneset" />
		<tag k="name" v="Grunnes" />
		<tag k="natural" v="cape" />
		<tag k="ssr:stedsnr" v="20526" />
	</node>
	<node id="-845848" lat="70.2457639418" lon="30.5331259066">
		<tag k="fixme" v="consider place=hamlet" />
		<tag k="name" v="Komagvær - Kumaveri" />
		<tag k="name:fkv" v="Kumaveri" />
		<tag k="name:no" v="Komagvær" />
		<tag k="place" v="village" />
		<tag k="ssr:stedsnr" v="20524" />
	</node>
	<node id="-845847" lat="70.2556389466" lon="30.6570036076">
		<tag k="alt_name" v="Smelrorbergan" />
		<tag k="name" v="Smellrorbergan" />
		<tag k="natural" v="hill" />
		<tag k="place" v="locality" />
		<tag k="ssr:stedsnr" v="20517" />
	</node>
	<node id="-845846" lat="70.2758333947" lon="30.9707006109">
		<tag k="name" v="Langbukta" />
		<tag k="natural" v="bay" />
		<tag k="ssr:stedsnr" v="20506" />
	</node>
</osm>
