<?xml version="1.0" encoding="UTF-8"?>
<osm version="0.6" generator="osmapis">
	<node lat="70.93798333311794" lon="24.096624885505555" id="-40501">
		<tag k="name" v="Sørhamnlia" />
		<tag k="natural" v="slope" />
		<tag k="place" v="locality" />
		<tag k="ssr:stedsnr" v="20203" />
	</node>
	<node lat="70.94011388865344" lon="24.09329988905219" id="-40502">
		<tag k="fixme" v="consider natural=peak for the most distinct mountains in the district" />
		<tag k="name" v="Sørhamnfjellet" />
		<tag k="natural" v="hill" />
		<tag k="place" v="locality" />
		<tag k="ssr:stedsnr" v="20204" />
	</node>
	<node lat="70.92543889515228" lon="24.059588777277916" id="-40503">
		<tag k="name" v="Buldervikdalen" />
		<tag k="natural" v="valley" />
		<tag k="place" v="locality" />
		<tag k="ssr:stedsnr" v="20206" />
	</node>
	<node lat="70.92497777915989" lon="24.61495542480712" id="-40506">
		<tag k="fixme" v="consider natural=peak for the most distinct mountains in the district" />
		<tag k="name" v="Sommarfjellet" />
		<tag k="natural" v="hill" />
		<tag k="place" v="locality" />
		<tag k="ssr:stedsnr" v="20301" />
	</node>
	<node lat="70.84448056022202" lon="24.25717488841136" id="-40511">
		<tag k="name" v="Elvedalen" />
		<tag k="natural" v="valley" />
		<tag k="place" v="locality" />
		<tag k="ssr:stedsnr" v="20255" />
	</node>
	<node lat="70.86027500658489" lon="24.38156098770353" id="-40512">
		<tag k="name" v="Rotvikhaugen" />
		<tag k="natural" v="hill" />
		<tag k="place" v="locality" />
		<tag k="ssr:stedsnr" v="20260" />
	</node>
	<node lat="70.78123889310424" lon="25.117219283095825" id="-40517">
		<tag k="fixme" v="consider natural=peak for the most distinct mountains in the district" />
		<tag k="name" v="Boazočohkka" />
		<tag k="name:se" v="Boazočohkka" />
		<tag k="natural" v="hill" />
		<tag k="old_name:se" v="Boazučåkka" />
		<tag k="place" v="locality" />
		<tag k="ssr:stedsnr" v="20502" />
	</node>
	<node lat="70.77496944603648" lon="24.94707482480889" id="-40518">
		<tag k="name" v="Johtinleahki" />
		<tag k="name:se" v="Johtinleahki" />
		<tag k="natural" v="valley" />
		<tag k="old_name:se" v="Jåttinlækki" />
		<tag k="place" v="locality" />
		<tag k="ssr:stedsnr" v="20505" />
	</node>
	<node lat="71.06997222631145" lon="24.701072102663222" id="-40519">
		<tag k="alt_name" v="Hamnetind" />
		<tag k="fixme" v="consider natural=peak for the most distinct mountains in the district" />
		<tag k="name" v="Hamnetinden" />
		<tag k="natural" v="hill" />
		<tag k="place" v="locality" />
		<tag k="ssr:stedsnr" v="20703" />
	</node>
	<node lat="71.04466945007118" lon="24.696635965403903" id="-40521">
		<tag k="alt_name" v="Knarraviktinden, austre" />
		<tag k="fixme" v="consider natural=peak for the most distinct mountains in the district" />
		<tag k="name" v="Austre Knarrviktinden" />
		<tag k="natural" v="hill" />
		<tag k="place" v="locality" />
		<tag k="ssr:stedsnr" v="20707" />
	</node>
	<node lat="71.01812778258407" lon="24.035463799451506" id="-40523">
		<tag k="fixme" v="consider natural=peak for the most distinct mountains in the district" />
		<tag k="name" v="Eidnesfjellet" />
		<tag k="natural" v="hill" />
		<tag k="place" v="locality" />
		<tag k="ssr:stedsnr" v="20640" />
	</node>
	<node lat="71.06606111738365" lon="24.05276378285975" id="-40527">
		<tag k="name" v="Husselien" />
		<tag k="natural" v="slope" />
		<tag k="place" v="locality" />
		<tag k="ssr:stedsnr" v="24012" />
	</node>
	<node lat="71.07205277950065" lon="24.742883203950072" id="-40531">
		<tag k="name" v="Saralia" />
		<tag k="natural" v="slope" />
		<tag k="place" v="locality" />
		<tag k="ssr:stedsnr" v="29001" />
	</node>
	<node lat="71.02160834059468" lon="24.960905416407996" id="-40532">
		<tag k="alt_name" v="Hattvikhompen" />
		<tag k="name" v="Hattvikhumpen" />
		<tag k="natural" v="hill" />
		<tag k="place" v="locality" />
		<tag k="ssr:stedsnr" v="29066" />
	</node>
	<node lat="70.73475278472115" lon="24.555616523037788" id="-40533">
		<tag k="name" v="Gorbusdalen" />
		<tag k="natural" v="valley" />
		<tag k="place" v="locality" />
		<tag k="ssr:stedsnr" v="29765" />
	</node>
	<node lat="70.85866389611704" lon="24.84235262130933" id="-40540">
		<tag k="name" v="Skurčovággi" />
		<tag k="name:se" v="Skurčovággi" />
		<tag k="natural" v="valley" />
		<tag k="old_name:se" v="Skurčuvaggi" />
		<tag k="place" v="locality" />
		<tag k="ssr:stedsnr" v="80402" />
	</node>
	<node lat="70.80142500382871" lon="24.36560266479048" id="-40541">
		<tag k="fixme" v="consider natural=peak for the most distinct mountains in the district" />
		<tag k="name" v="Guovdoaivi" />
		<tag k="name:se" v="Guovdoaivi" />
		<tag k="natural" v="hill" />
		<tag k="place" v="locality" />
		<tag k="ssr:stedsnr" v="80350" />
	</node>
	<node lat="70.73113888947302" lon="24.71933874609364" id="-40546">
		<tag k="fixme" v="consider natural=peak for the most distinct mountains in the district" />
		<tag k="name" v="Borjjasčohkka" />
		<tag k="name:se" v="Borjjasčohkka" />
		<tag k="natural" v="hill" />
		<tag k="old_name:se" v="Bårjasčåkka" />
		<tag k="place" v="locality" />
		<tag k="ssr:stedsnr" v="80838" />
	</node>
	<node lat="70.78399445310316" lon="25.233924822518507" id="-40548">
		<tag k="fixme" v="consider natural=peak for the most distinct mountains in the district" />
		<tag k="name" v="Oalanvárri" />
		<tag k="name:se" v="Oalanvárri" />
		<tag k="natural" v="hill" />
		<tag k="old_name:se" v="Oalanvarri" />
		<tag k="place" v="locality" />
		<tag k="ssr:stedsnr" v="81113" />
	</node>
	<node lat="70.91713611419247" lon="24.04026100839977" id="-40551">
		<tag k="fixme" v="consider natural=peak for the most distinct mountains in the district" />
		<tag k="name" v="Aksla" />
		<tag k="natural" v="hill" />
		<tag k="place" v="locality" />
		<tag k="ssr:stedsnr" v="81238" />
	</node>
	<node lat="70.87070555513928" lon="24.34508598670527" id="-40558">
		<tag k="fixme" v="consider natural=peak for the most distinct mountains in the district" />
		<tag k="name" v="Nordtinden" />
		<tag k="natural" v="hill" />
		<tag k="place" v="locality" />
		<tag k="ssr:stedsnr" v="81320" />
	</node>
	<node lat="70.70416389035418" lon="25.164080365397158" id="-40566">
		<tag k="fixme" v="consider natural=peak for the most distinct mountains in the district" />
		<tag k="name" v="Bealjáidčopma" />
		<tag k="name:se" v="Bealjáidčopma" />
		<tag k="natural" v="hill" />
		<tag k="old_name:se" v="Bælljaidčåbma" />
		<tag k="place" v="locality" />
		<tag k="ssr:stedsnr" v="81832" />
	</node>
	<node lat="71.01079445222992" lon="24.973966512573227" id="-40573">
		<tag k="name" v="Sjurhumpen" />
		<tag k="natural" v="hill" />
		<tag k="place" v="locality" />
		<tag k="ssr:stedsnr" v="87380" />
	</node>
	<node lat="71.07740277917728" lon="24.74096653337039" id="-40574">
		<tag k="name" v="Spellet" />
		<tag k="natural" v="hill" />
		<tag k="place" v="locality" />
		<tag k="ssr:stedsnr" v="89009" />
	</node>
	<node lat="71.00730555825135" lon="24.554655431808374" id="-40575">
		<tag k="name" v="Lakseberget" />
		<tag k="natural" v="hill" />
		<tag k="place" v="locality" />
		<tag k="ssr:stedsnr" v="90117" />
	</node>
	<node lat="70.79410278306302" lon="24.674124846088052" id="-40576">
		<tag k="fixme" v="consider natural=peak for the most distinct mountains in the district" />
		<tag k="name" v="Sjåfjellet" />
		<tag k="natural" v="hill" />
		<tag k="place" v="locality" />
		<tag k="ssr:stedsnr" v="90103" />
	</node>
	<node lat="71.01438055820795" lon="24.556380436101605" id="-40577">
		<tag k="fixme" v="consider natural=peak for the most distinct mountains in the district" />
		<tag k="name" v="Tverrgavlen" />
		<tag k="natural" v="hill" />
		<tag k="place" v="locality" />
		<tag k="ssr:stedsnr" v="90111" />
	</node>
	<node lat="71.00091944671425" lon="24.174969343224546" id="-40594">
		<tag k="fixme" v="consider natural=peak for the most distinct mountains in the district" />
		<tag k="name" v="Oteren" />
		<tag k="natural" v="hill" />
		<tag k="place" v="locality" />
		<tag k="ssr:stedsnr" v="141610" />
	</node>
	<node lat="71.00163611258264" lon="24.096460996621005" id="-40595">
		<tag k="alt_name" v="Nattmålet" />
		<tag k="fixme" v="consider natural=peak for the most distinct mountains in the district" />
		<tag k="name" v="Nattmålfjellet" />
		<tag k="natural" v="hill" />
		<tag k="place" v="locality" />
		<tag k="ssr:stedsnr" v="141612" />
	</node>
	<node lat="70.99232778499754" lon="24.666997095572775" id="-40610">
		<tag k="name" v="Fastlandsida" />
		<tag k="place" v="locality" />
		<tag k="ssr:stedsnr" v="145399" />
	</node>
	<node lat="70.99238056187976" lon="23.916227687006113" id="-40611">
		<tag k="name" v="Fiskevannsdalen" />
		<tag k="natural" v="valley" />
		<tag k="place" v="locality" />
		<tag k="ssr:stedsnr" v="145507" />
	</node>
	<node lat="70.99650833652952" lon="23.975441572966652" id="-40612">
		<tag k="name" v="Skaret" />
		<tag k="natural" v="valley" />
		<tag k="place" v="locality" />
		<tag k="ssr:stedsnr" v="145508" />
	</node>
	<node lat="70.95326389370001" lon="24.558124882474946" id="-40623">
		<tag k="fixme" v="consider natural=peak for the most distinct mountains in the district" />
		<tag k="name" v="Nebben" />
		<tag k="natural" v="hill" />
		<tag k="place" v="locality" />
		<tag k="ssr:stedsnr" v="262210" />
	</node>
	<node lat="70.848450007469" lon="24.590824873227184" id="-40625">
		<tag k="name" v="Finnkonedalen" />
		<tag k="natural" v="valley" />
		<tag k="place" v="locality" />
		<tag k="ssr:stedsnr" v="262270" />
	</node>
	<node lat="70.89710277924323" lon="24.74343874677492" id="-40626">
		<tag k="fixme" v="consider natural=peak for the most distinct mountains in the district" />
		<tag k="name" v="Molvikfjellet - Jeardnevárri" />
		<tag k="name:no" v="Molvikfjellet" />
		<tag k="name:se" v="Jeardnevárri" />
		<tag k="natural" v="hill" />
		<tag k="old_name:se" v="Jærdnevarri" />
		<tag k="place" v="locality" />
		<tag k="ssr:stedsnr" v="262384" />
	</node>
	<node lat="70.91745277805822" lon="24.756619301981434" id="-40628">
		<tag k="name" v="Seahkkavággi" />
		<tag k="name:se" v="Seahkkavággi" />
		<tag k="natural" v="valley" />
		<tag k="old_name:se" v="Sækkavaggi" />
		<tag k="place" v="locality" />
		<tag k="ssr:stedsnr" v="262438" />
	</node>
	<node lat="71.03856666750929" lon="24.719644295141926" id="-40636">
		<tag k="alt_name" v="Knarrvikdalen, l" />
		<tag k="name" v="Lille Knarrvikdalen" />
		<tag k="natural" v="valley" />
		<tag k="place" v="locality" />
		<tag k="ssr:stedsnr" v="262668" />
	</node>
	<node lat="71.08778889006739" lon="24.752438740052433" id="-40639">
		<tag k="alt_name" v="Stian" />
		<tag k="name" v="Stigan" />
		<tag k="natural" v="slope" />
		<tag k="place" v="locality" />
		<tag k="ssr:stedsnr" v="262635" />
	</node>
	<node lat="70.74251945065801" lon="24.747202643456443" id="-40643">
		<tag k="fixme" v="consider natural=peak for the most distinct mountains in the district" />
		<tag k="name" v="Čáhppesvárri" />
		<tag k="name:se" v="Čáhppesvárri" />
		<tag k="natural" v="hill" />
		<tag k="old_name:se" v="Čappesvarri" />
		<tag k="place" v="locality" />
		<tag k="ssr:stedsnr" v="262865" />
	</node>
	<node lat="70.73287500096089" lon="24.952624832458778" id="-40644">
		<tag k="fixme" v="consider natural=peak for the most distinct mountains in the district" />
		<tag k="name" v="Ráššačeabet" />
		<tag k="name:se" v="Ráššačeabet" />
		<tag k="natural" v="hill" />
		<tag k="old_name:se" v="Raššačæbet" />
		<tag k="place" v="locality" />
		<tag k="ssr:stedsnr" v="262869" />
	</node>
	<node lat="70.98874444292424" lon="23.999199897205212" id="-40656">
		<tag k="name" v="Kallhaugen" />
		<tag k="natural" v="hill" />
		<tag k="place" v="locality" />
		<tag k="ssr:stedsnr" v="263269" />
	</node>
	<node lat="70.86375555748401" lon="24.22552765262456" id="-40658">
		<tag k="fixme" v="consider natural=peak for the most distinct mountains in the district" />
		<tag k="name" v="Geitfjellet" />
		<tag k="natural" v="hill" />
		<tag k="place" v="locality" />
		<tag k="ssr:stedsnr" v="263339" />
	</node>
	<node lat="70.7556944498539" lon="24.390258206607946" id="-40662">
		<tag k="name" v="Goahtevággi" />
		<tag k="name:se" v="Goahtevággi" />
		<tag k="natural" v="valley" />
		<tag k="old_name:se" v="Goattevaggi" />
		<tag k="place" v="locality" />
		<tag k="ssr:stedsnr" v="263374" />
	</node>
	<node lat="70.93490000723135" lon="25.018524847422622" id="-40664">
		<tag k="name" v="Innerslottet" />
		<tag k="natural" v="hill" />
		<tag k="place" v="locality" />
		<tag k="ssr:stedsnr" v="263445" />
	</node>
	<node lat="70.97071944815093" lon="25.0076220730878" id="-40667">
		<tag k="alt_name" v="Kjerringa" />
		<tag k="name" v="Kjerringberget" />
		<tag k="natural" v="hill" />
		<tag k="place" v="locality" />
		<tag k="ssr:stedsnr" v="263433" />
	</node>
	<node lat="70.94985000679563" lon="24.736263757049024" id="-40668">
		<tag k="name" v="Storvikdalen" />
		<tag k="natural" v="valley" />
		<tag k="place" v="locality" />
		<tag k="ssr:stedsnr" v="263435" />
	</node>
	<node lat="70.79275833510572" lon="25.10897204187701" id="-40671">
		<tag k="fixme" v="consider natural=peak for the most distinct mountains in the district" />
		<tag k="name" v="Silbarášša" />
		<tag k="name:se" v="Silbarášša" />
		<tag k="natural" v="hill" />
		<tag k="old_name:se" v="Silbarašša" />
		<tag k="place" v="locality" />
		<tag k="ssr:stedsnr" v="263522" />
	</node>
	<node lat="70.76389722386861" lon="25.07721648585979" id="-40672">
		<tag k="fixme" v="consider natural=peak for the most distinct mountains in the district" />
		<tag k="name" v="Nuorttat Muvravárri" />
		<tag k="name:se" v="Nuorttat Muvravárri" />
		<tag k="natural" v="hill" />
		<tag k="old_name:se" v="Muvravarri, nuortat" />
		<tag k="place" v="locality" />
		<tag k="ssr:stedsnr" v="263526" />
	</node>
	<node lat="70.78335833630337" lon="25.148958154702665" id="-40674">
		<tag k="name" v="Oarjjávži" />
		<tag k="name:se" v="Oarjjávži" />
		<tag k="natural" v="valley" />
		<tag k="old_name:se" v="Oarjavži" />
		<tag k="place" v="locality" />
		<tag k="ssr:stedsnr" v="263530" />
	</node>
	<node lat="70.70395833570372" lon="24.817252617221964" id="-40678">
		<tag k="fixme" v="consider natural=peak for the most distinct mountains in the district" />
		<tag k="name" v="Vilgesrášša" />
		<tag k="name:se" v="Vilgesrášša" />
		<tag k="natural" v="hill" />
		<tag k="old_name:se" v="Vilgesrašša" />
		<tag k="place" v="locality" />
		<tag k="ssr:stedsnr" v="263823" />
	</node>
	<node lat="70.83324167188624" lon="25.23766092840621" id="-40684">
		<tag k="name" v="Kråkeberget" />
		<tag k="natural" v="hill" />
		<tag k="place" v="locality" />
		<tag k="ssr:stedsnr" v="202003" />
	</node>
	<node lat="70.78601111274034" lon="24.55914430996769" id="-40690">
		<tag k="alt_name" v="Skavikfjellet" />
		<tag k="fixme" v="consider natural=peak for the most distinct mountains in the district" />
		<tag k="name" v="Skavvikfjellet" />
		<tag k="natural" v="hill" />
		<tag k="place" v="locality" />
		<tag k="ssr:stedsnr" v="202325" />
	</node>
	<node lat="70.84336388982672" lon="24.387419332112188" id="-40700">
		<tag k="name" v="Gjuvdalen" />
		<tag k="natural" v="valley" />
		<tag k="place" v="locality" />
		<tag k="ssr:stedsnr" v="202259" />
	</node>
	<node lat="70.86779444393777" lon="24.339360992356657" id="-40701">
		<tag k="alt_name" v="Nordtind" />
		<tag k="fixme" v="consider natural=peak for the most distinct mountains in the district" />
		<tag k="name" v="Nordfjellet" />
		<tag k="natural" v="hill" />
		<tag k="place" v="locality" />
		<tag k="ssr:stedsnr" v="202263" />
	</node>
	<node lat="70.80681389699537" lon="24.652813751533223" id="-40707">
		<tag k="name" v="Krokelvdalen - Sieiddevággi" />
		<tag k="name:no" v="Krokelvdalen" />
		<tag k="name:se" v="Sieiddevággi" />
		<tag k="natural" v="valley" />
		<tag k="old_name:se" v="Sieidevaggi" />
		<tag k="place" v="locality" />
		<tag k="ssr:stedsnr" v="202493" />
	</node>
	<node lat="71.06333611588205" lon="24.0605082386306" id="-40708">
		<tag k="alt_name" v="Vaktstuefjellet;Djevleleiken" />
		<tag k="fixme" v="multiple name tags, choose one and add the other to alt_name; consider natural=peak for the most distinct mountains in the district" />
		<tag k="name" v="Vaktstufjellet;Djevelleiken" />
		<tag k="natural" v="hill" />
		<tag k="place" v="locality" />
		<tag k="ssr:stedsnr" v="202603" />
	</node>
	<node lat="70.85396944645935" lon="24.671558189504616" id="-40712">
		<tag k="fixme" v="consider natural=peak for the most distinct mountains in the district" />
		<tag k="name" v="Lomfjellet" />
		<tag k="natural" v="hill" />
		<tag k="place" v="locality" />
		<tag k="ssr:stedsnr" v="202399" />
	</node>
	<node lat="70.76171944534214" lon="24.666585965977585" id="-40713">
		<tag k="fixme" v="consider natural=peak for the most distinct mountains in the district" />
		<tag k="name" v="Várdánčohkka" />
		<tag k="name:se" v="Várdánčohkka" />
		<tag k="natural" v="hill" />
		<tag k="old_name:se" v="Vardančåkka" />
		<tag k="place" v="locality" />
		<tag k="ssr:stedsnr" v="202504" />
	</node>
	<node lat="70.79118611542492" lon="24.636044297981915" id="-40721">
		<tag k="fixme" v="consider natural=peak for the most distinct mountains in the district" />
		<tag k="name" v="Tverrfjellet" />
		<tag k="natural" v="hill" />
		<tag k="place" v="locality" />
		<tag k="ssr:stedsnr" v="268416" />
	</node>
	<node lat="71.0014666746687" lon="24.64983597623452" id="-40722">
		<tag k="name" v="Dalbotn" />
		<tag k="natural" v="valley" />
		<tag k="place" v="locality" />
		<tag k="ssr:stedsnr" v="268421" />
	</node>
	<node lat="70.9994194453406" lon="24.67816653234831" id="-40724">
		<tag k="fixme" v="consider natural=peak for the most distinct mountains in the district" />
		<tag k="name" v="Varden" />
		<tag k="natural" v="hill" />
		<tag k="place" v="locality" />
		<tag k="ssr:stedsnr" v="268433" />
	</node>
	<node lat="71.01028056163474" lon="25.01321371992018" id="-40726">
		<tag k="name" v="Skaret" />
		<tag k="natural" v="valley" />
		<tag k="place" v="locality" />
		<tag k="ssr:stedsnr" v="208120" />
	</node>
	<node lat="70.99686111406304" lon="24.179588786333746" id="-40728">
		<tag k="name" v="Halsen" />
		<tag k="place" v="locality" />
		<tag k="ssr:stedsnr" v="208484" />
	</node>
	<node lat="70.81818056149845" lon="24.621719319694357" id="-40731">
		<tag k="name" v="Vassberget" />
		<tag k="natural" v="hill" />
		<tag k="place" v="locality" />
		<tag k="ssr:stedsnr" v="208504" />
	</node>
	<node lat="71.00962500489227" lon="24.984394287797148" id="-40733">
		<tag k="name" v="Sjøberget" />
		<tag k="natural" v="hill" />
		<tag k="place" v="locality" />
		<tag k="ssr:stedsnr" v="269418" />
	</node>
	<node lat="70.99772778443857" lon="24.972947067814417" id="-40736">
		<tag k="name" v="Måsberget" />
		<tag k="natural" v="hill" />
		<tag k="place" v="locality" />
		<tag k="ssr:stedsnr" v="271081" />
	</node>
	<node lat="71.00779999864805" lon="23.92350546241295" id="-40739">
		<tag k="name" v="Storbærlia" />
		<tag k="natural" v="slope" />
		<tag k="place" v="locality" />
		<tag k="ssr:stedsnr" v="449513" />
	</node>
	<node lat="71.01538333765008" lon="24.954274848748" id="-40745">
		<tag k="name" v="Saulia" />
		<tag k="natural" v="slope" />
		<tag k="place" v="locality" />
		<tag k="ssr:stedsnr" v="454057" />
	</node>
	<node lat="71.00844166552828" lon="24.63257765137845" id="-40747">
		<tag k="name" v="Stabburet" />
		<tag k="natural" v="hill" />
		<tag k="place" v="locality" />
		<tag k="ssr:stedsnr" v="454141" />
	</node>
	<node lat="70.93365000696502" lon="25.44899424743605" id="-40748">
		<tag k="fixme" v="consider natural=peak for the most distinct mountains in the district" />
		<tag k="name" v="Nuorrevárri" />
		<tag k="name:se" v="Nuorrevárri" />
		<tag k="natural" v="hill" />
		<tag k="old_name:se" v="Nuorrevarri" />
		<tag k="place" v="locality" />
		<tag k="ssr:stedsnr" v="262047" />
	</node>
	<node lat="71.06962500484073" lon="24.639327643474672" id="-40754">
		<tag k="fixme" v="consider natural=peak for the most distinct mountains in the district" />
		<tag k="name" v="Geitingsryggen" />
		<tag k="natural" v="hill" />
		<tag k="place" v="locality" />
		<tag k="ssr:stedsnr" v="262694" />
	</node>
	<node lat="71.08302777684976" lon="24.038252690654506" id="-40755">
		<tag k="alt_name" v="Skardet" />
		<tag k="name" v="Skaret" />
		<tag k="natural" v="valley" />
		<tag k="place" v="locality" />
		<tag k="ssr:stedsnr" v="262594" />
	</node>
	<node lat="70.82424445005877" lon="25.0750165017992" id="-40760">
		<tag k="fixme" v="consider natural=peak for the most distinct mountains in the district" />
		<tag k="name" v="Davit Oaivvošrášša" />
		<tag k="name:se" v="Davit Oaivvošrášša" />
		<tag k="natural" v="hill" />
		<tag k="old_name:se" v="Oaivušrašša, davit" />
		<tag k="place" v="locality" />
		<tag k="ssr:stedsnr" v="263497" />
	</node>
	<node lat="70.9758472265695" lon="24.62851099031155" id="-40767">
		<tag k="fixme" v="consider natural=peak for the most distinct mountains in the district" />
		<tag k="name" v="Nipfjellet - Niipavárri" />
		<tag k="name:no" v="Nipfjellet" />
		<tag k="name:se" v="Niipavárri" />
		<tag k="natural" v="hill" />
		<tag k="old_name:se" v="Niipavarri" />
		<tag k="place" v="locality" />
		<tag k="ssr:stedsnr" v="268180" />
	</node>
	<node lat="71.00289445203404" lon="24.690649863112863" id="-40768">
		<tag k="name" v="Mattislia" />
		<tag k="natural" v="slope" />
		<tag k="place" v="locality" />
		<tag k="ssr:stedsnr" v="268431" />
	</node>
	<node lat="71.08219444949435" lon="24.775433202624875" id="-40772">
		<tag k="name" v="Kjelkebakken" />
		<tag k="natural" v="slope" />
		<tag k="place" v="locality" />
		<tag k="ssr:stedsnr" v="272026" />
	</node>
	<node lat="71.02034444884859" lon="24.574427660640712" id="-40774">
		<tag k="name" v="Bokselia" />
		<tag k="natural" v="slope" />
		<tag k="place" v="locality" />
		<tag k="ssr:stedsnr" v="272131" />
	</node>
	<node lat="71.00555555402156" lon="24.589247097332294" id="-40775">
		<tag k="name" v="Jernbergvaren" />
		<tag k="natural" v="hill" />
		<tag k="place" v="locality" />
		<tag k="ssr:stedsnr" v="272138" />
	</node>
	<node lat="71.00919444970837" lon="24.562852655156675" id="-40776">
		<tag k="name" v="Sjåviklia" />
		<tag k="natural" v="slope" />
		<tag k="place" v="locality" />
		<tag k="ssr:stedsnr" v="272148" />
	</node>
	<node lat="70.80569167178807" lon="24.435822107997314" id="-40785">
		<tag k="fixme" v="consider natural=peak for the most distinct mountains in the district" />
		<tag k="name" v="Svartfjellet" />
		<tag k="natural" v="hill" />
		<tag k="place" v="locality" />
		<tag k="ssr:stedsnr" v="323372" />
	</node>
	<node lat="71.05706666496947" lon="23.999616571994373" id="-40794">
		<tag k="name" v="Vassberget" />
		<tag k="natural" v="hill" />
		<tag k="place" v="locality" />
		<tag k="ssr:stedsnr" v="328020" />
	</node>
	<node lat="70.96773333822844" lon="24.66059708548319" id="-40796">
		<tag k="fixme" v="consider natural=peak for the most distinct mountains in the district" />
		<tag k="name" v="Kobbviktind" />
		<tag k="natural" v="hill" />
		<tag k="place" v="locality" />
		<tag k="ssr:stedsnr" v="329404" />
	</node>
	<node lat="71.04477778485123" lon="24.698558191776208" id="-40799">
		<tag k="fixme" v="consider natural=peak for the most distinct mountains in the district" />
		<tag k="loc_name" v="Knarrviktindane" />
		<tag k="name" v="Knarrviktindan" />
		<tag k="natural" v="hill" />
		<tag k="place" v="locality" />
		<tag k="ssr:stedsnr" v="330370" />
	</node>
	<node lat="71.06315278023658" lon="24.76789708524526" id="-40800">
		<tag k="name" v="Floberget" />
		<tag k="natural" v="hill" />
		<tag k="place" v="locality" />
		<tag k="ssr:stedsnr" v="332034" />
	</node>
	<node lat="70.95365000048984" lon="24.159036013691363" id="-40811">
		<tag k="name" v="Dyfjorddalen" />
		<tag k="natural" v="valley" />
		<tag k="place" v="locality" />
		<tag k="ssr:stedsnr" v="383208" />
	</node>
	<node lat="70.9059916720281" lon="24.623055412318482" id="-40815">
		<tag k="name" v="Selvikdalen" />
		<tag k="natural" v="valley" />
		<tag k="place" v="locality" />
		<tag k="ssr:stedsnr" v="383452" />
	</node>
	<node lat="70.83660834099962" lon="24.930897058583668" id="-40821">
		<tag k="name" v="Hávnnavággi" />
		<tag k="name:se" v="Hávnnavággi" />
		<tag k="natural" v="valley" />
		<tag k="old_name:se" v="Havnavaggi" />
		<tag k="place" v="locality" />
		<tag k="ssr:stedsnr" v="384408" />
	</node>
	<node lat="70.88848334198536" lon="25.10709427479104" id="-40823">
		<tag k="fixme" v="consider natural=peak for the most distinct mountains in the district" />
		<tag k="name" v="Storfjellet - Márregáisá" />
		<tag k="name:no" v="Storfjellet" />
		<tag k="name:se" v="Márregáisá" />
		<tag k="natural" v="hill" />
		<tag k="old_name:se" v="Marregaisa" />
		<tag k="place" v="locality" />
		<tag k="ssr:stedsnr" v="384510" />
	</node>
	<node lat="70.76193889429707" lon="24.598466522554638" id="-40840">
		<tag k="name" v="Gávnnesgurra" />
		<tag k="name:se" v="Gávnnesgurra" />
		<tag k="natural" v="valley" />
		<tag k="place" v="locality" />
		<tag k="ssr:stedsnr" v="393734" />
	</node>
	<node lat="70.72249722436526" lon="24.651991533777153" id="-40847">
		<tag k="fixme" v="consider natural=peak for the most distinct mountains in the district" />
		<tag k="name" v="Gurbbošvárri" />
		<tag k="name:se" v="Gurbbošvárri" />
		<tag k="natural" v="hill" />
		<tag k="old_name:se" v="Gurbušvarri;Gurbbosvárri" />
		<tag k="place" v="locality" />
		<tag k="ssr:stedsnr" v="444832" />
	</node>
	<node lat="70.81761666824288" lon="25.05171371472476" id="-40860">
		<tag k="fixme" v="consider natural=peak for the most distinct mountains in the district" />
		<tag k="name" v="Oarjjit Oaivvošrášša" />
		<tag k="name:se" v="Oarjjit Oaivvošrášša" />
		<tag k="natural" v="hill" />
		<tag k="old_name:se" v="Oaivušrašša, oarjit;Oarjit Oaivvošrášša" />
		<tag k="place" v="locality" />
		<tag k="ssr:stedsnr" v="445493" />
	</node>
	<node lat="71.03736389459249" lon="24.77454151866527" id="-40866">
		<tag k="name" v="Skarvberget" />
		<tag k="natural" v="hill" />
		<tag k="place" v="locality" />
		<tag k="ssr:stedsnr" v="445683" />
	</node>
	<node lat="70.66065000261582" lon="24.78251094435634" id="-40867">
		<tag k="fixme" v="consider natural=peak for the most distinct mountains in the district" />
		<tag k="name" v="Njukčunriidi" />
		<tag k="name:se" v="Njukčunriidi" />
		<tag k="natural" v="hill" />
		<tag k="old_name:se" v="Njukčonriidi" />
		<tag k="place" v="locality" />
		<tag k="ssr:stedsnr" v="445884" />
	</node>
	<node lat="70.96199166501974" lon="24.040027675047366" id="-40868">
		<tag k="name" v="Storlia" />
		<tag k="natural" v="slope" />
		<tag k="place" v="locality" />
		<tag k="ssr:stedsnr" v="448203" />
	</node>
	<node lat="71.0681138890356" lon="24.108444349951586" id="-40869">
		<tag k="name" v="Seterhaugen" />
		<tag k="natural" v="hill" />
		<tag k="place" v="locality" />
		<tag k="ssr:stedsnr" v="449002" />
	</node>
	<node lat="70.97417222826914" lon="24.031922120936226" id="-40872">
		<tag k="name" v="Rivgobakke" />
		<tag k="natural" v="hill" />
		<tag k="place" v="locality" />
		<tag k="ssr:stedsnr" v="449168" />
	</node>
	<node lat="71.00366389207262" lon="24.966177632786696" id="-40875">
		<tag k="name" v="Kattstokken" />
		<tag k="natural" v="hill" />
		<tag k="place" v="locality" />
		<tag k="ssr:stedsnr" v="454061" />
	</node>
	<node lat="70.93467777808544" lon="24.675985960626637" id="-40889">
		<tag k="name" v="Heastavággi" />
		<tag k="name:se" v="Heastavággi" />
		<tag k="natural" v="valley" />
		<tag k="old_name:se" v="Hæstavaggi" />
		<tag k="place" v="locality" />
		<tag k="ssr:stedsnr" v="506423" />
	</node>
	<node lat="70.96629444655309" lon="24.086780450277868" id="-40890">
		<tag k="fixme" v="consider natural=peak for the most distinct mountains in the district" />
		<tag k="name" v="Gåsstrandfjellet" />
		<tag k="natural" v="hill" />
		<tag k="place" v="locality" />
		<tag k="ssr:stedsnr" v="508210" />
	</node>
	<node lat="70.96608611671692" lon="24.622030434087577" id="-40899">
		<tag k="name" v="Djupvikdalen" />
		<tag k="natural" v="valley" />
		<tag k="place" v="locality" />
		<tag k="ssr:stedsnr" v="511409" />
	</node>
	<node lat="70.77817222967666" lon="24.44519431521392" id="-40911">
		<tag k="fixme" v="consider natural=peak for the most distinct mountains in the district" />
		<tag k="name" v="Guovdavárri" />
		<tag k="name:se" v="Guovdavárri" />
		<tag k="natural" v="hill" />
		<tag k="old_name:se" v="Guovdavarri" />
		<tag k="place" v="locality" />
		<tag k="ssr:stedsnr" v="687327" />
	</node>
	<node lat="70.83185000367064" lon="24.392027642913256" id="-40913">
		<tag k="alt_name" v="Kvitneshompen" />
		<tag k="name" v="Kvitneshumpen" />
		<tag k="natural" v="hill" />
		<tag k="place" v="locality" />
		<tag k="ssr:stedsnr" v="687274" />
	</node>
	<node lat="70.77752500233892" lon="24.279908202870498" id="-40919">
		<tag k="fixme" v="consider natural=peak for the most distinct mountains in the district" />
		<tag k="name" v="Saunesfjellet" />
		<tag k="natural" v="hill" />
		<tag k="place" v="locality" />
		<tag k="ssr:stedsnr" v="687369" />
	</node>
	<node lat="70.89412500149987" lon="24.904749844539797" id="-40920">
		<tag k="fixme" v="consider natural=peak for the most distinct mountains in the district" />
		<tag k="name" v="Njoammelhárji" />
		<tag k="name:se" v="Njoammelhárji" />
		<tag k="natural" v="hill" />
		<tag k="old_name:se" v="Njohammelharji" />
		<tag k="place" v="locality" />
		<tag k="ssr:stedsnr" v="687385" />
	</node>
	<node lat="70.95878889368568" lon="25.307052606466126" id="-40927">
		<tag k="fixme" v="consider natural=peak for the most distinct mountains in the district" />
		<tag k="name" v="Nebbet" />
		<tag k="natural" v="hill" />
		<tag k="place" v="locality" />
		<tag k="ssr:stedsnr" v="687467" />
	</node>
	<node lat="70.68578888836896" lon="24.70918318702778" id="-40934">
		<tag k="name" v="Lillefjorddalen - Vuoŧkevuonvággi" />
		<tag k="name:no" v="Lillefjorddalen" />
		<tag k="name:se" v="Vuoŧkevuonvággi" />
		<tag k="natural" v="valley" />
		<tag k="place" v="locality" />
		<tag k="ssr:stedsnr" v="687824" />
	</node>
	<node lat="70.75088333640612" lon="25.3070442571357" id="-40939">
		<tag k="fixme" v="consider natural=peak for the most distinct mountains in the district" />
		<tag k="name" v="Bealját" />
		<tag k="name:se" v="Bealját" />
		<tag k="natural" v="hill" />
		<tag k="old_name:se" v="Bælljat" />
		<tag k="place" v="locality" />
		<tag k="ssr:stedsnr" v="688080" />
	</node>
	<node lat="70.76250834009194" lon="24.641188745970734" id="-40942">
		<tag k="fixme" v="consider natural=peak for the most distinct mountains in the district" />
		<tag k="name" v="Jonitčohkka" />
		<tag k="name:se" v="Jonitčohkka" />
		<tag k="natural" v="hill" />
		<tag k="old_name:se" v="Jånitčåkka" />
		<tag k="place" v="locality" />
		<tag k="ssr:stedsnr" v="688503" />
	</node>
	<node lat="70.84086111715615" lon="24.367213760885207" id="-40943">
		<tag k="fixme" v="consider natural=peak for the most distinct mountains in the district" />
		<tag k="name" v="Nonstadfjellet - Spoahččečohkka" />
		<tag k="name:no" v="Nonstadfjellet" />
		<tag k="name:se" v="Spoahččečohkka" />
		<tag k="natural" v="hill" />
		<tag k="old_name:se" v="Spoaččečåkka" />
		<tag k="place" v="locality" />
		<tag k="ssr:stedsnr" v="688279" />
	</node>
	<node lat="70.65819445187404" lon="25.066652612872556" id="-40952">
		<tag k="fixme" v="consider natural=peak for the most distinct mountains in the district" />
		<tag k="name" v="Gárdevárri" />
		<tag k="name:se" v="Gárdevárri" />
		<tag k="natural" v="hill" />
		<tag k="old_name:se" v="Gardevarri" />
		<tag k="place" v="locality" />
		<tag k="ssr:stedsnr" v="688864" />
	</node>
	<node lat="70.98177500257272" lon="24.019169359172682" id="-40954">
		<tag k="name" v="Balshaugen" />
		<tag k="natural" v="hill" />
		<tag k="place" v="locality" />
		<tag k="ssr:stedsnr" v="691537" />
	</node>
	<node lat="70.96096944820181" lon="24.175541567709576" id="-40959">
		<tag k="fixme" v="consider natural=peak for the most distinct mountains in the district" />
		<tag k="name" v="Vagnafjellet" />
		<tag k="natural" v="hill" />
		<tag k="place" v="locality" />
		<tag k="ssr:stedsnr" v="565169" />
	</node>
	<node lat="70.86812778283853" lon="24.327713772215173" id="-40966">
		<tag k="name" v="Ramberget" />
		<tag k="natural" v="hill" />
		<tag k="place" v="locality" />
		<tag k="ssr:stedsnr" v="566318" />
	</node>
	<node lat="70.83001944445414" lon="24.797158192245377" id="-40969">
		<tag k="fixme" v="consider natural=peak for the most distinct mountains in the district" />
		<tag k="name" v="Muvračohkka" />
		<tag k="name:se" v="Muvračohkka" />
		<tag k="natural" v="hill" />
		<tag k="old_name:se" v="Muvračåkka" />
		<tag k="place" v="locality" />
		<tag k="ssr:stedsnr" v="566414" />
	</node>
	<node lat="70.9610999988266" lon="24.043086009898598" id="-40973">
		<tag k="name" v="Tverrbakken" />
		<tag k="natural" v="slope" />
		<tag k="place" v="locality" />
		<tag k="ssr:stedsnr" v="569211" />
	</node>
	<node lat="71.05869166987412" lon="24.024572138998366" id="-40977">
		<tag k="name" v="Langneshaugen" />
		<tag k="natural" v="hill" />
		<tag k="place" v="locality" />
		<tag k="ssr:stedsnr" v="570019" />
	</node>
	<node lat="71.00197222079098" lon="24.180313781748698" id="-40981">
		<tag k="name" v="Offeren" />
		<tag k="natural" v="hill" />
		<tag k="place" v="locality" />
		<tag k="ssr:stedsnr" v="693499" />
	</node>
	<node lat="70.8364166677049" lon="24.890085955577536" id="-40986">
		<tag k="name" v="Jordbadalen" />
		<tag k="natural" v="valley" />
		<tag k="place" v="locality" />
		<tag k="ssr:stedsnr" v="572400" />
	</node>
	<node lat="71.04785833954254" lon="24.73680263187062" id="-40987">
		<tag k="fixme" v="consider natural=peak for the most distinct mountains in the district" />
		<tag k="name" v="Brattfjellet" />
		<tag k="natural" v="hill" />
		<tag k="place" v="locality" />
		<tag k="ssr:stedsnr" v="574045" />
	</node>
	<node lat="71.00386111621151" lon="25.002883167483123" id="-40992">
		<tag k="name" v="Mollvikrabban" />
		<tag k="natural" v="hill" />
		<tag k="place" v="locality" />
		<tag k="ssr:stedsnr" v="696093" />
	</node>
	<node lat="71.00983889038942" lon="24.967688730001797" id="-40993">
		<tag k="name" v="Kaibergan" />
		<tag k="natural" v="hill" />
		<tag k="place" v="locality" />
		<tag k="ssr:stedsnr" v="696101" />
	</node>
	<node lat="71.06416944426545" lon="24.758369318166306" id="-40995">
		<tag k="fixme" v="consider natural=peak for the most distinct mountains in the district" />
		<tag k="name" v="Skjæringsfjell" />
		<tag k="natural" v="hill" />
		<tag k="place" v="locality" />
		<tag k="ssr:stedsnr" v="696048" />
	</node>
	<node lat="71.08710277725615" lon="24.801213751553906" id="-40997">
		<tag k="name" v="Rundhaugen" />
		<tag k="natural" v="hill" />
		<tag k="place" v="locality" />
		<tag k="ssr:stedsnr" v="696058" />
	</node>
	<node lat="70.84121111520452" lon="25.375088682568062" id="-41006">
		<tag k="fixme" v="consider natural=peak for the most distinct mountains in the district" />
		<tag k="name" v="Jalgesoaivi" />
		<tag k="name:se" v="Jalgesoaivi" />
		<tag k="natural" v="hill" />
		<tag k="place" v="locality" />
		<tag k="ssr:stedsnr" v="626010" />
	</node>
	<node lat="70.9631000043887" lon="24.08249433014203" id="-41008">
		<tag k="name" v="Kuhaugen" />
		<tag k="natural" v="hill" />
		<tag k="place" v="locality" />
		<tag k="ssr:stedsnr" v="626207" />
	</node>
	<node lat="70.81460556140071" lon="24.920199851164003" id="-41014">
		<tag k="name" v="Ullovággi" />
		<tag k="name:se" v="Ullovággi" />
		<tag k="natural" v="valley" />
		<tag k="old_name:se" v="Ulluvaggi" />
		<tag k="place" v="locality" />
		<tag k="ssr:stedsnr" v="626504" />
	</node>
	<node lat="70.79655555936527" lon="24.80863594877251" id="-41015">
		<tag k="fixme" v="consider natural=peak for the most distinct mountains in the district" />
		<tag k="name" v="Gárderuvža" />
		<tag k="name:se" v="Gárderuvža" />
		<tag k="natural" v="hill" />
		<tag k="old_name:se" v="Garderuvža" />
		<tag k="place" v="locality" />
		<tag k="ssr:stedsnr" v="626513" />
	</node>
	<node lat="70.8048472262515" lon="25.11328317134225" id="-41016">
		<tag k="fixme" v="consider natural=peak for the most distinct mountains in the district" />
		<tag k="name" v="Nuorttat Oaivvošrášša" />
		<tag k="name:se" v="Nuorttat Oaivvošrášša" />
		<tag k="natural" v="hill" />
		<tag k="old_name:se" v="Oaivušrašša, nuortat" />
		<tag k="place" v="locality" />
		<tag k="ssr:stedsnr" v="626514" />
	</node>
	<node lat="71.08595278136188" lon="24.049319338985196" id="-41024">
		<tag k="name" v="Bakken" />
		<tag k="natural" v="slope" />
		<tag k="place" v="locality" />
		<tag k="ssr:stedsnr" v="630110" />
	</node>
	<node lat="70.96371944336528" lon="24.0551415690729" id="-41025">
		<tag k="name" v="Sommervollen" />
		<tag k="place" v="locality" />
		<tag k="ssr:stedsnr" v="630193" />
	</node>
	<node lat="71.0066194459406" lon="23.925516585304493" id="-41026">
		<tag k="name" v="Lillebærlia" />
		<tag k="natural" v="slope" />
		<tag k="place" v="locality" />
		<tag k="ssr:stedsnr" v="630491" />
	</node>
	<node lat="71.06570555681824" lon="24.043199898480395" id="-41027">
		<tag k="name" v="Lyngmoen" />
		<tag k="place" v="locality" />
		<tag k="ssr:stedsnr" v="631007" />
	</node>
	<node lat="70.99832500100156" lon="24.11477768507129" id="-41029">
		<tag k="name" v="Skolebakken" />
		<tag k="natural" v="slope" />
		<tag k="place" v="locality" />
		<tag k="ssr:stedsnr" v="631244" />
	</node>
	<node lat="70.93913056166707" lon="24.602533209228802" id="-41030">
		<tag k="fixme" v="consider natural=peak for the most distinct mountains in the district" />
		<tag k="name" v="Hesten - Heastavárri" />
		<tag k="name:no" v="Hesten" />
		<tag k="name:se" v="Heastavárri" />
		<tag k="natural" v="hill" />
		<tag k="old_name:se" v="Hæstavarri" />
		<tag k="place" v="locality" />
		<tag k="ssr:stedsnr" v="631181" />
	</node>
	<node lat="71.0626166678601" lon="24.76850817990723" id="-41033">
		<tag k="name" v="Pratarberget" />
		<tag k="natural" v="hill" />
		<tag k="place" v="locality" />
		<tag k="ssr:stedsnr" v="635025" />
	</node>
	<node lat="70.94875833801005" lon="24.140719328298715" id="-41040">
		<tag k="fixme" v="multiple name tags, choose one and add the other to alt_name; consider natural=peak for the most distinct mountains in the district" />
		<tag k="name" v="Rolvsøyfjellet;Dyfjordfjellet" />
		<tag k="natural" v="hill" />
		<tag k="place" v="locality" />
		<tag k="ssr:stedsnr" v="687195" />
	</node>
	<node lat="70.86068889155972" lon="24.69661652617841" id="-41042">
		<tag k="name" v="Báhkavággi" />
		<tag k="name:se" v="Báhkavággi" />
		<tag k="natural" v="valley" />
		<tag k="old_name:se" v="Bakkavaggi" />
		<tag k="place" v="locality" />
		<tag k="ssr:stedsnr" v="687393" />
	</node>
	<node lat="70.86154444776408" lon="24.720374870762836" id="-41043">
		<tag k="fixme" v="consider natural=peak for the most distinct mountains in the district" />
		<tag k="name" v="Báhkačohkka" />
		<tag k="name:se" v="Báhkačohkka" />
		<tag k="natural" v="hill" />
		<tag k="old_name:se" v="Bakkačåkka" />
		<tag k="place" v="locality" />
		<tag k="ssr:stedsnr" v="687394" />
	</node>
	<node lat="71.07751111567146" lon="24.043713789348615" id="-41051">
		<tag k="alt_name" v="Ingafjellet" />
		<tag k="fixme" v="consider natural=peak for the most distinct mountains in the district" />
		<tag k="name" v="Ingøyfjellet" />
		<tag k="natural" v="hill" />
		<tag k="place" v="locality" />
		<tag k="ssr:stedsnr" v="687600" />
	</node>
	<node lat="70.70287222927637" lon="24.669108194667462" id="-41052">
		<tag k="alt_name:no" v="Djupdalen" />
		<tag k="name" v="Djupedalen - Eváldávži" />
		<tag k="name:no" v="Djupedalen" />
		<tag k="name:se" v="Eváldávži" />
		<tag k="natural" v="valley" />
		<tag k="old_name:se" v="Evaldavži" />
		<tag k="place" v="locality" />
		<tag k="ssr:stedsnr" v="687839" />
	</node>
	<node lat="70.74198889228676" lon="25.028010953034823" id="-41053">
		<tag k="fixme" v="consider natural=peak for the most distinct mountains in the district" />
		<tag k="name" v="Rámšorášša" />
		<tag k="name:se" v="Rámšorášša" />
		<tag k="natural" v="hill" />
		<tag k="old_name:se" v="Ramšurašša" />
		<tag k="place" v="locality" />
		<tag k="ssr:stedsnr" v="687843" />
	</node>
	<node lat="71.08054167193853" lon="24.03952490290841" id="-41064">
		<tag k="fixme" v="consider natural=peak for the most distinct mountains in the district" />
		<tag k="name" v="Storkulen" />
		<tag k="natural" v="hill" />
		<tag k="place" v="locality" />
		<tag k="ssr:stedsnr" v="692096" />
	</node>
	<node lat="71.01308056198297" lon="24.990219280826793" id="-41071">
		<tag k="name" v="Kudalen" />
		<tag k="natural" v="valley" />
		<tag k="place" v="locality" />
		<tag k="ssr:stedsnr" v="694408" />
	</node>
	<node lat="70.82300555939364" lon="25.40278591671218" id="-41091">
		<tag k="fixme" v="consider natural=peak for the most distinct mountains in the district" />
		<tag k="name" v="Jalgavárri" />
		<tag k="name:se" v="Jalgavárri" />
		<tag k="natural" v="hill" />
		<tag k="old_name:se" v="Jalgavarri" />
		<tag k="place" v="locality" />
		<tag k="ssr:stedsnr" v="748114" />
	</node>
	<node lat="70.86714167004796" lon="24.23779710662026" id="-41093">
		<tag k="name" v="Purkevikhøgda" />
		<tag k="natural" v="hill" />
		<tag k="place" v="locality" />
		<tag k="ssr:stedsnr" v="748308" />
	</node>
	<node lat="70.80918334161328" lon="24.844952621915688" id="-41098">
		<tag k="fixme" v="consider natural=peak for the most distinct mountains in the district" />
		<tag k="name" v="Guollejárhárji" />
		<tag k="name:se" v="Guollejárhárji" />
		<tag k="natural" v="hill" />
		<tag k="old_name:se" v="Guollejarharji" />
		<tag k="place" v="locality" />
		<tag k="ssr:stedsnr" v="748472" />
	</node>
	<node lat="70.82831667586909" lon="24.768855401603087" id="-41099">
		<tag k="fixme" v="consider natural=peak for the most distinct mountains in the district" />
		<tag k="name" v="Jámešruvžžat" />
		<tag k="name:se" v="Jámešruvžžat" />
		<tag k="natural" v="hill" />
		<tag k="old_name:se" v="Jamešruvžat" />
		<tag k="place" v="locality" />
		<tag k="ssr:stedsnr" v="748477" />
	</node>
	<node lat="70.89788888867946" lon="24.82776929624149" id="-41101">
		<tag k="fixme" v="consider natural=peak for the most distinct mountains in the district" />
		<tag k="name" v="Njoalorášša" />
		<tag k="name:se" v="Njoalorášša" />
		<tag k="natural" v="hill" />
		<tag k="old_name:se" v="Njoalurašša" />
		<tag k="place" v="locality" />
		<tag k="ssr:stedsnr" v="748371" />
	</node>
	<node lat="71.10969166768628" lon="24.710366536859127" id="-41106">
		<tag k="fixme" v="consider natural=peak for the most distinct mountains in the district" />
		<tag k="name" v="Hjelmsøystauren" />
		<tag k="natural" v="hill" />
		<tag k="place" v="locality" />
		<tag k="ssr:stedsnr" v="748661" />
	</node>
	<node lat="70.61836667423945" lon="24.977302611204546" id="-41108">
		<tag k="fixme" v="consider natural=peak for the most distinct mountains in the district" />
		<tag k="name" v="Gárdevárri" />
		<tag k="name:se" v="Gárdevárri" />
		<tag k="natural" v="hill" />
		<tag k="old_name:se" v="Gardevarri" />
		<tag k="place" v="locality" />
		<tag k="ssr:stedsnr" v="748912" />
	</node>
	<node lat="70.96443611317522" lon="24.03923600938521" id="-41110">
		<tag k="name" v="Kjerremella" />
		<tag k="natural" v="slope" />
		<tag k="place" v="locality" />
		<tag k="ssr:stedsnr" v="751215" />
	</node>
	<node lat="70.64512500086873" lon="24.922130389556884" id="-41133">
		<tag k="name" v="Rávdolávži" />
		<tag k="name:se" v="Rávdolávži" />
		<tag k="natural" v="valley" />
		<tag k="old_name:se" v="Ravdulavži" />
		<tag k="place" v="locality" />
		<tag k="ssr:stedsnr" v="809865" />
	</node>
	<node lat="70.9611722217273" lon="24.031577669553066" id="-41135">
		<tag k="name" v="Kuhaugen" />
		<tag k="natural" v="hill" />
		<tag k="place" v="locality" />
		<tag k="ssr:stedsnr" v="812224" />
	</node>
	<node lat="71.08054722394046" lon="24.033030471731642" id="-41140">
		<tag k="name" v="Kottelia" />
		<tag k="natural" v="slope" />
		<tag k="place" v="locality" />
		<tag k="ssr:stedsnr" v="813078" />
	</node>
	<node lat="71.07630000619181" lon="24.039263785373297" id="-41143">
		<tag k="name" v="Storlia" />
		<tag k="natural" v="slope" />
		<tag k="place" v="locality" />
		<tag k="ssr:stedsnr" v="813094" />
	</node>
	<node lat="70.97746111212186" lon="24.0089415790016" id="-41144">
		<tag k="name" v="Gåkkobakken" />
		<tag k="natural" v="hill" />
		<tag k="place" v="locality" />
		<tag k="ssr:stedsnr" v="813234" />
	</node>
	<node lat="70.97560000666437" lon="24.65044985734411" id="-41145">
		<tag k="name" v="Guriholldalen" />
		<tag k="natural" v="valley" />
		<tag k="place" v="locality" />
		<tag k="ssr:stedsnr" v="814432" />
	</node>
	<node lat="71.0712972300712" lon="24.764588752320137" id="-41151">
		<tag k="name" v="Skjæringsdalen" />
		<tag k="natural" v="valley" />
		<tag k="place" v="locality" />
		<tag k="ssr:stedsnr" v="818021" />
	</node>
	<node lat="70.99267777707979" lon="23.960327679312815" id="-41161">
		<tag k="fixme" v="consider natural=peak for the most distinct mountains in the district" />
		<tag k="name" v="Kallnasen" />
		<tag k="natural" v="hill" />
		<tag k="place" v="locality" />
		<tag k="ssr:stedsnr" v="930181" />
	</node>
	<node lat="70.85490833800043" lon="25.126619264348342" id="-41167">
		<tag k="fixme" v="consider natural=peak for the most distinct mountains in the district" />
		<tag k="name" v="Guotkkovárri" />
		<tag k="name:se" v="Guotkkovárri" />
		<tag k="natural" v="hill" />
		<tag k="old_name:se" v="Guotkuvarri" />
		<tag k="place" v="locality" />
		<tag k="ssr:stedsnr" v="869441" />
	</node>
	<node lat="70.9114250033268" lon="24.72030263908778" id="-41171">
		<tag k="fixme" v="consider natural=peak for the most distinct mountains in the district" />
		<tag k="name" v="Báigevárri" />
		<tag k="name:se" v="Báigevárri" />
		<tag k="natural" v="hill" />
		<tag k="old_name:se" v="Baigevarri" />
		<tag k="place" v="locality" />
		<tag k="ssr:stedsnr" v="869474" />
	</node>
	<node lat="70.97387778483437" lon="24.555533198308748" id="-41174">
		<tag k="alt_name" v="Nipa" />
		<tag k="fixme" v="consider natural=peak for the most distinct mountains in the district" />
		<tag k="name" v="Nipen" />
		<tag k="natural" v="hill" />
		<tag k="place" v="locality" />
		<tag k="ssr:stedsnr" v="930190" />
	</node>
	<node lat="71.07693056023354" lon="24.774758205365785" id="-41178">
		<tag k="alt_name" v="Russesandtind" />
		<tag k="fixme" v="consider natural=peak for the most distinct mountains in the district" />
		<tag k="name" v="Russesandtinden" />
		<tag k="natural" v="hill" />
		<tag k="place" v="locality" />
		<tag k="ssr:stedsnr" v="869668" />
	</node>
	<node lat="70.93251666741997" lon="24.124205445152285" id="-41182">
		<tag k="fixme" v="consider natural=peak for the most distinct mountains in the district" />
		<tag k="name" v="Staufjellet" />
		<tag k="natural" v="hill" />
		<tag k="place" v="locality" />
		<tag k="ssr:stedsnr" v="930217" />
	</node>
	<node lat="70.84253889513606" lon="24.60506374288758" id="-41201">
		<tag k="alt_name" v="Finnkonefjellet" />
		<tag k="fixme" v="consider natural=peak for the most distinct mountains in the district" />
		<tag k="name" v="Finnkonetoppen" />
		<tag k="natural" v="hill" />
		<tag k="place" v="locality" />
		<tag k="ssr:stedsnr" v="930282" />
	</node>
	<node lat="70.79588055767672" lon="24.46663597665393" id="-41210">
		<tag k="fixme" v="consider natural=peak for the most distinct mountains in the district" />
		<tag k="name" v="Saltfjellet" />
		<tag k="natural" v="hill" />
		<tag k="place" v="locality" />
		<tag k="ssr:stedsnr" v="930382" />
	</node>
	<node lat="70.75530555912123" lon="24.776772077339647" id="-41213">
		<tag k="fixme" v="consider natural=peak for the most distinct mountains in the district" />
		<tag k="name" v="Oaivvoščohkka" />
		<tag k="name:se" v="Oaivvoščohkka" />
		<tag k="natural" v="hill" />
		<tag k="old_name:se" v="Oaivuščåkka" />
		<tag k="place" v="locality" />
		<tag k="ssr:stedsnr" v="930466" />
	</node>
	<node lat="70.78430278160677" lon="25.014485932426727" id="-41217">
		<tag k="fixme" v="consider natural=peak for the most distinct mountains in the district" />
		<tag k="name" v="Oarjjit Muvravárri" />
		<tag k="name:se" v="Oarjjit Muvravárri" />
		<tag k="natural" v="hill" />
		<tag k="old_name:se" v="Muvravarri, oarjit" />
		<tag k="place" v="locality" />
		<tag k="ssr:stedsnr" v="930512" />
	</node>
	<node lat="70.77521389016339" lon="24.70976096380744" id="-41219">
		<tag k="name" v="Muorralávži" />
		<tag k="name:se" v="Muorralávži" />
		<tag k="natural" v="valley" />
		<tag k="place" v="locality" />
		<tag k="ssr:stedsnr" v="930513" />
	</node>
	<node lat="71.08128055617344" lon="24.142280466734217" id="-41223">
		<tag k="alt_name" v="Landkomberg;Landkonberg" />
		<tag k="name" v="Landkomberget" />
		<tag k="natural" v="hill" />
		<tag k="place" v="locality" />
		<tag k="ssr:stedsnr" v="930602" />
	</node>
	<node lat="70.72981389752889" lon="25.178824812116687" id="-41236">
		<tag k="fixme" v="consider natural=peak for the most distinct mountains in the district" />
		<tag k="name" v="Gáranasgielas" />
		<tag k="name:se" v="Gáranasgielas" />
		<tag k="natural" v="hill" />
		<tag k="old_name:se" v="Garanasgielas" />
		<tag k="place" v="locality" />
		<tag k="ssr:stedsnr" v="930834" />
	</node>
	<node lat="70.85342500466017" lon="24.284022105233433" id="-41238">
		<tag k="name" v="Skredet" />
		<tag k="natural" v="valley" />
		<tag k="place" v="locality" />
		<tag k="ssr:stedsnr" v="931277" />
	</node>
	<node lat="70.96101111347811" lon="24.02013600333628" id="-41245">
		<tag k="name" v="Kuelvskurču" />
		<tag k="name:se" v="Kuelvskurču" />
		<tag k="natural" v="valley" />
		<tag k="place" v="locality" />
		<tag k="ssr:stedsnr" v="935161" />
	</node>
	<node lat="70.99114166801" lon="24.0993304490244" id="-41248">
		<tag k="name" v="Erikbergan" />
		<tag k="natural" v="hill" />
		<tag k="place" v="locality" />
		<tag k="ssr:stedsnr" v="935267" />
	</node>
	<node lat="70.87110555937203" lon="25.004513723301102" id="-41261">
		<tag k="alt_name" v="Alkafjell" />
		<tag k="fixme" v="consider natural=peak for the most distinct mountains in the district" />
		<tag k="name" v="Falkeberget" />
		<tag k="natural" v="hill" />
		<tag k="place" v="locality" />
		<tag k="ssr:stedsnr" v="930404" />
	</node>
	<node lat="70.82281945312238" lon="24.927999839035454" id="-41262">
		<tag k="fixme" v="consider natural=peak for the most distinct mountains in the district" />
		<tag k="name" v="Ullováhčohkka" />
		<tag k="name:se" v="Ullováhčohkka" />
		<tag k="natural" v="hill" />
		<tag k="old_name:se" v="Ulluvagčåkka" />
		<tag k="place" v="locality" />
		<tag k="ssr:stedsnr" v="930495" />
	</node>
	<node lat="70.8380611157187" lon="25.00812483120597" id="-41263">
		<tag k="fixme" v="consider natural=peak for the most distinct mountains in the district" />
		<tag k="name" v="Duolbarášša" />
		<tag k="name:se" v="Duolbarášša" />
		<tag k="natural" v="hill" />
		<tag k="old_name:se" v="Duolbarašša" />
		<tag k="place" v="locality" />
		<tag k="ssr:stedsnr" v="930496" />
	</node>
	<node lat="71.05026944446507" lon="24.69742765442096" id="-41267">
		<tag k="alt_name" v="Knarvikdalen" />
		<tag k="name" v="Knarrvikdalen" />
		<tag k="natural" v="valley" />
		<tag k="place" v="locality" />
		<tag k="ssr:stedsnr" v="930696" />
	</node>
	<node lat="70.99068334043962" lon="24.01503600697793" id="-41271">
		<tag k="name" v="Mikkalbakken" />
		<tag k="natural" v="slope" />
		<tag k="place" v="locality" />
		<tag k="ssr:stedsnr" v="934498" />
	</node>
	<node lat="70.9957722263073" lon="24.6550470893136" id="-41275">
		<tag k="name" v="Ørabakken" />
		<tag k="natural" v="slope" />
		<tag k="place" v="locality" />
		<tag k="ssr:stedsnr" v="936438" />
	</node>
	<node lat="71.00802222301014" lon="24.596283201299702" id="-41278">
		<tag k="fixme" v="consider natural=peak for the most distinct mountains in the district" />
		<tag k="name" v="Gavlen" />
		<tag k="natural" v="hill" />
		<tag k="place" v="locality" />
		<tag k="ssr:stedsnr" v="939137" />
	</node>
	<node lat="71.00564722114937" lon="24.620449871855623" id="-41279">
		<tag k="name" v="Tyvjosletta" />
		<tag k="place" v="locality" />
		<tag k="ssr:stedsnr" v="939138" />
	</node>
	<node lat="70.95769167072149" lon="25.015660940012705" id="-41281">
		<tag k="name" v="Været" />
		<tag k="natural" v="valley" />
		<tag k="place" v="locality" />
		<tag k="ssr:stedsnr" v="958043" />
	</node>
	<node lat="70.99869167301853" lon="24.170416556372857" id="-41295">
		<tag k="fixme" v="multiple name tags, choose one and add the other to alt_name; consider natural=peak for the most distinct mountains in the district" />
		<tag k="name" v="Kalven;Kalvefjellet" />
		<tag k="natural" v="hill" />
		<tag k="place" v="locality" />
		<tag k="ssr:stedsnr" v="20224" />
	</node>
	<node lat="70.89273333815959" lon="24.891552619388047" id="-41300">
		<tag k="name" v="Njoammelčohkka" />
		<tag k="name:se" v="Njoammelčohkka" />
		<tag k="natural" v="hill" />
		<tag k="old_name:se" v="Njohammelčåkka" />
		<tag k="place" v="locality" />
		<tag k="ssr:stedsnr" v="20372" />
	</node>
	<node lat="70.8285361175567" lon="25.11827761023393" id="-41301">
		<tag k="name" v="Stohpoleahki" />
		<tag k="name:se" v="Stohpoleahki" />
		<tag k="natural" v="valley" />
		<tag k="old_name:se" v="Ståppulækki" />
		<tag k="place" v="locality" />
		<tag k="ssr:stedsnr" v="20458" />
	</node>
	<node lat="70.81950555655565" lon="24.902416501425606" id="-41302">
		<tag k="fixme" v="consider natural=peak for the most distinct mountains in the district" />
		<tag k="name" v="Boršohárji" />
		<tag k="name:se" v="Boršohárji" />
		<tag k="natural" v="hill" />
		<tag k="old_name:se" v="Båršuharji" />
		<tag k="place" v="locality" />
		<tag k="ssr:stedsnr" v="20462" />
	</node>
	<node lat="70.82216389783213" lon="24.64611929711561" id="-41304">
		<tag k="fixme" v="consider natural=peak for the most distinct mountains in the district" />
		<tag k="name" v="Moskefjell - Garjjáčohkka" />
		<tag k="name:no" v="Moskefjell" />
		<tag k="name:se" v="Garjjáčohkka" />
		<tag k="natural" v="hill" />
		<tag k="old_name:se" v="Garjačåkka" />
		<tag k="place" v="locality" />
		<tag k="ssr:stedsnr" v="20467" />
	</node>
	<node lat="70.78975278092462" lon="24.64465819778698" id="-41305">
		<tag k="name" v="Storfjellet - Stáločohkka" />
		<tag k="name:no" v="Storfjellet" />
		<tag k="name:se" v="Stáločohkka" />
		<tag k="natural" v="hill" />
		<tag k="old_name:se" v="Stalučåkka" />
		<tag k="place" v="locality" />
		<tag k="ssr:stedsnr" v="20472" />
	</node>
	<node lat="71.05065277778515" lon="23.982330451492697" id="-41307">
		<tag k="fixme" v="consider natural=peak for the most distinct mountains in the district" />
		<tag k="name" v="Mafjordfjellet" />
		<tag k="natural" v="hill" />
		<tag k="place" v="locality" />
		<tag k="ssr:stedsnr" v="20563" />
	</node>
	<node lat="71.07074999908987" lon="23.969949892988453" id="-41308">
		<tag k="name" v="Kvannlia" />
		<tag k="natural" v="slope" />
		<tag k="place" v="locality" />
		<tag k="ssr:stedsnr" v="20574" />
	</node>
	<node lat="71.03019722487309" lon="24.029569348597036" id="-41311">
		<tag k="fixme" v="consider natural=peak for the most distinct mountains in the district" />
		<tag k="name" v="Stongfjellet" />
		<tag k="natural" v="hill" />
		<tag k="place" v="locality" />
		<tag k="ssr:stedsnr" v="20650" />
	</node>
	<node lat="71.02529722148581" lon="24.97833596197667" id="-41323">
		<tag k="fixme" v="consider natural=peak for the most distinct mountains in the district" />
		<tag k="name" v="Tverrfjellet" />
		<tag k="natural" v="hill" />
		<tag k="place" v="locality" />
		<tag k="ssr:stedsnr" v="20727" />
	</node>
	<node lat="70.72634444515546" lon="24.78973317118422" id="-41325">
		<tag k="name" v="Oarjjit Ráššaláhku" />
		<tag k="name:se" v="Oarjjit Ráššaláhku" />
		<tag k="old_name:se" v="Raššalakko, oarjit" />
		<tag k="place" v="locality" />
		<tag k="ssr:stedsnr" v="20830" />
	</node>
	<node lat="70.63190000321714" lon="24.958022059943453" id="-41326">
		<tag k="fixme" v="consider natural=peak for the most distinct mountains in the district" />
		<tag k="name" v="Jassadievvá" />
		<tag k="name:se" v="Jassadievvá" />
		<tag k="natural" v="hill" />
		<tag k="old_name:se" v="Jassadievva" />
		<tag k="place" v="locality" />
		<tag k="ssr:stedsnr" v="20859" />
	</node>
	<node lat="70.65967778095177" lon="24.93961649778042" id="-41329">
		<tag k="fixme" v="consider natural=peak for the most distinct mountains in the district" />
		<tag k="name" v="Vuolit Hárji" />
		<tag k="name:se" v="Vuolit Hárji" />
		<tag k="natural" v="hill" />
		<tag k="old_name:se" v="Harji, vuolit" />
		<tag k="place" v="locality" />
		<tag k="ssr:stedsnr" v="20875" />
	</node>
	<node lat="70.78623611375365" lon="24.692333200298517" id="-41333">
		<tag k="fixme" v="consider natural=peak for the most distinct mountains in the district" />
		<tag k="name" v="Látnjaváráš" />
		<tag k="name:se" v="Látnjaváráš" />
		<tag k="natural" v="hill" />
		<tag k="place" v="locality" />
		<tag k="ssr:stedsnr" v="24095" />
	</node>
	<node lat="70.97936388946454" lon="24.03653324231766" id="-41336">
		<tag k="name" v="Risnasen" />
		<tag k="place" v="locality" />
		<tag k="ssr:stedsnr" v="24146" />
	</node>
	<node lat="71.0016583387447" lon="24.14549155339681" id="-41338">
		<tag k="name" v="Kirkebakken" />
		<tag k="natural" v="slope" />
		<tag k="place" v="locality" />
		<tag k="ssr:stedsnr" v="24252" />
	</node>
	<node lat="71.00762778057266" lon="24.995610959320288" id="-41341">
		<tag k="name" v="Vestervågsletta" />
		<tag k="place" v="locality" />
		<tag k="ssr:stedsnr" v="26147" />
	</node>
	<node lat="70.79905000291697" lon="24.62619431234933" id="-41343">
		<tag k="name" v="Ørnbergsletta - Jávregieddi" />
		<tag k="name:no" v="Ørnbergsletta" />
		<tag k="name:se" v="Jávregieddi" />
		<tag k="place" v="locality" />
		<tag k="ssr:stedsnr" v="26456" />
	</node>
	<node lat="70.80226111579138" lon="24.63320818779765" id="-41344">
		<tag k="fixme" v="consider natural=peak for the most distinct mountains in the district" />
		<tag k="name" v="Ørnfjellet" />
		<tag k="natural" v="hill" />
		<tag k="place" v="locality" />
		<tag k="ssr:stedsnr" v="26458" />
	</node>
	<node lat="71.08006944993154" lon="24.83220819183866" id="-41347">
		<tag k="name" v="Ramnberget" />
		<tag k="natural" v="hill" />
		<tag k="place" v="locality" />
		<tag k="ssr:stedsnr" v="29041" />
	</node>
	<node lat="70.9994638892383" lon="24.996227614377936" id="-41351">
		<tag k="name" v="Skarvberget" />
		<tag k="natural" v="hill" />
		<tag k="place" v="locality" />
		<tag k="ssr:stedsnr" v="29077" />
	</node>
	<node lat="71.01104722646957" lon="24.62346098301818" id="-41352">
		<tag k="name" v="Hauklia" />
		<tag k="natural" v="slope" />
		<tag k="place" v="locality" />
		<tag k="ssr:stedsnr" v="29141" />
	</node>
	<node lat="70.69840000155091" lon="24.677610966648864" id="-41364">
		<tag k="name" v="Eváldčohkka" />
		<tag k="name:se" v="Eváldčohkka" />
		<tag k="natural" v="hill" />
		<tag k="old_name:se" v="Evaldčåkka" />
		<tag k="place" v="locality" />
		<tag k="ssr:stedsnr" v="81829" />
	</node>
	<node lat="70.84312222773393" lon="25.359099806639893" id="-41365">
		<tag k="fixme" v="consider natural=peak for the most distinct mountains in the district" />
		<tag k="name" v="Suoidnevarrit" />
		<tag k="name:se" v="Suoidnevarrit" />
		<tag k="natural" v="hill" />
		<tag k="place" v="locality" />
		<tag k="ssr:stedsnr" v="80001" />
	</node>
	<node lat="70.91296111827417" lon="25.415355367012985" id="-41366">
		<tag k="fixme" v="consider natural=peak for the most distinct mountains in the district" />
		<tag k="name" v="Čeavrresrášša" />
		<tag k="name:se" v="Čeavrresrášša" />
		<tag k="natural" v="hill" />
		<tag k="old_name:se" v="Čævresrašša" />
		<tag k="place" v="locality" />
		<tag k="ssr:stedsnr" v="80035" />
	</node>
	<node lat="71.00690000685816" lon="23.896824909155608" id="-41371">
		<tag k="alt_name" v="Tapperhaugen" />
		<tag k="name" v="Storhaugen" />
		<tag k="natural" v="hill" />
		<tag k="place" v="locality" />
		<tag k="ssr:stedsnr" v="80546" />
	</node>
	<node lat="70.70911111797227" lon="24.55020819904211" id="-41382">
		<tag k="name" v="Kvalnesklubben" />
		<tag k="natural" v="hill" />
		<tag k="place" v="locality" />
		<tag k="ssr:stedsnr" v="81188" />
	</node>
	<node lat="70.85485278008603" lon="24.363827668982015" id="-41385">
		<tag k="fixme" v="consider natural=peak for the most distinct mountains in the district" />
		<tag k="name" v="Nonstadfjellet - Rášša" />
		<tag k="name:no" v="Nonstadfjellet" />
		<tag k="name:se" v="Rášša" />
		<tag k="natural" v="hill" />
		<tag k="old_name:se" v="Rašša" />
		<tag k="place" v="locality" />
		<tag k="ssr:stedsnr" v="81281" />
	</node>
	<node lat="70.9813666677563" lon="24.63287487156259" id="-41390">
		<tag k="alt_name" v="Kvalvikfjell" />
		<tag k="fixme" v="consider natural=peak for the most distinct mountains in the district" />
		<tag k="name" v="Kvalvikfjellet" />
		<tag k="natural" v="hill" />
		<tag k="place" v="locality" />
		<tag k="ssr:stedsnr" v="81354" />
	</node>
	<node lat="70.75337222668173" lon="24.400124864937297" id="-41392">
		<tag k="fixme" v="consider natural=peak for the most distinct mountains in the district" />
		<tag k="name" v="Støvfjellet - Gožubákti" />
		<tag k="name:no" v="Støvfjellet" />
		<tag k="name:se" v="Gožubákti" />
		<tag k="natural" v="hill" />
		<tag k="old_name:se" v="Gåžobakti" />
		<tag k="place" v="locality" />
		<tag k="ssr:stedsnr" v="81370" />
	</node>
	<node lat="70.96685000553758" lon="25.337502595763663" id="-41393">
		<tag k="fixme" v="consider natural=peak for the most distinct mountains in the district" />
		<tag k="name" v="Stiikorášša" />
		<tag k="name:se" v="Stiikorášša" />
		<tag k="natural" v="hill" />
		<tag k="old_name:se" v="Stiikurašša" />
		<tag k="place" v="locality" />
		<tag k="ssr:stedsnr" v="81490" />
	</node>
	<node lat="70.93751388989789" lon="25.00051095073537" id="-41394">
		<tag k="fixme" v="consider natural=peak for the most distinct mountains in the district" />
		<tag k="name" v="Duolbavárri" />
		<tag k="name:se" v="Duolbavárri" />
		<tag k="natural" v="hill" />
		<tag k="old_name:se" v="Duolbavarri" />
		<tag k="place" v="locality" />
		<tag k="ssr:stedsnr" v="81453" />
	</node>
	<node lat="70.8431500019191" lon="24.89518040986538" id="-41398">
		<tag k="fixme" v="consider natural=peak for the most distinct mountains in the district" />
		<tag k="name" v="Boršočohkka" />
		<tag k="name:se" v="Boršočohkka" />
		<tag k="natural" v="hill" />
		<tag k="old_name:se" v="Båršučåkka" />
		<tag k="place" v="locality" />
		<tag k="ssr:stedsnr" v="81427" />
	</node>
	<node lat="70.69213055806524" lon="25.086863713977692" id="-41400">
		<tag k="fixme" v="consider natural=peak for the most distinct mountains in the district" />
		<tag k="name" v="Goahtečopma" />
		<tag k="name:se" v="Goahtečopma" />
		<tag k="natural" v="hill" />
		<tag k="old_name:se" v="Goattečåbma" />
		<tag k="place" v="locality" />
		<tag k="ssr:stedsnr" v="81878" />
	</node>
	<node lat="70.80726111214523" lon="25.181097041156214" id="-41402">
		<tag k="fixme" v="consider natural=peak for the most distinct mountains in the district" />
		<tag k="name" v="Ávževárri" />
		<tag k="name:se" v="Ávževárri" />
		<tag k="natural" v="hill" />
		<tag k="old_name:se" v="Avževarri" />
		<tag k="place" v="locality" />
		<tag k="ssr:stedsnr" v="81501" />
	</node>
	<node lat="70.78284166697061" lon="24.97565260976852" id="-41403">
		<tag k="fixme" v="consider natural=peak for the most distinct mountains in the district" />
		<tag k="name" v="Beatnatrášša" />
		<tag k="name:se" v="Beatnatrášša" />
		<tag k="natural" v="hill" />
		<tag k="old_name:se" v="Bædnatrašša" />
		<tag k="place" v="locality" />
		<tag k="ssr:stedsnr" v="81507" />
	</node>
	<node lat="71.0709833334868" lon="24.054958240748388" id="-41411">
		<tag k="name" v="Steinvikkulen" />
		<tag k="natural" v="hill" />
		<tag k="place" v="locality" />
		<tag k="ssr:stedsnr" v="85009" />
	</node>
	<node lat="70.99713055477282" lon="24.19886101481048" id="-41416">
		<tag k="fixme" v="consider natural=peak for the most distinct mountains in the district" />
		<tag k="name" v="Kalven" />
		<tag k="natural" v="hill" />
		<tag k="place" v="locality" />
		<tag k="ssr:stedsnr" v="86486" />
	</node>
	<node lat="70.78473333541574" lon="24.572527646368904" id="-41417">
		<tag k="name" v="Tarvikdalen" />
		<tag k="natural" v="valley" />
		<tag k="place" v="locality" />
		<tag k="ssr:stedsnr" v="86487" />
	</node>
	<node lat="71.07133888982867" lon="24.74774708183544" id="-41418">
		<tag k="name" v="Robertlia" />
		<tag k="natural" v="slope" />
		<tag k="place" v="locality" />
		<tag k="ssr:stedsnr" v="89025" />
	</node>
	<node lat="71.1034666689701" lon="24.836897066718038" id="-41432">
		<tag k="name" v="Skarvberget" />
		<tag k="natural" v="hill" />
		<tag k="place" v="locality" />
		<tag k="ssr:stedsnr" v="140644" />
	</node>
	<node lat="70.91451945093372" lon="24.63178043320939" id="-41437">
		<tag k="fixme" v="consider natural=peak for the most distinct mountains in the district" />
		<tag k="name" v="Čárvi" />
		<tag k="name:se" v="Čárvi" />
		<tag k="natural" v="hill" />
		<tag k="old_name:se" v="Čarvi" />
		<tag k="place" v="locality" />
		<tag k="ssr:stedsnr" v="140426" />
	</node>
	<node lat="71.01706389435081" lon="23.951291565106644" id="-41440">
		<tag k="fixme" v="consider natural=peak for the most distinct mountains in the district" />
		<tag k="name" v="Dua" />
		<tag k="natural" v="hill" />
		<tag k="place" v="locality" />
		<tag k="ssr:stedsnr" v="140521" />
	</node>
	<node lat="70.87016389306775" lon="25.22582759759232" id="-41455">
		<tag k="name" v="Smedberget" />
		<tag k="natural" v="hill" />
		<tag k="place" v="locality" />
		<tag k="ssr:stedsnr" v="141028" />
	</node>
	<node lat="70.95658056245874" lon="24.05002212033953" id="-41457">
		<tag k="name" v="Langfjorddalen" />
		<tag k="natural" v="valley" />
		<tag k="place" v="locality" />
		<tag k="ssr:stedsnr" v="141189" />
	</node>
	<node lat="70.91883333623419" lon="24.07203878239071" id="-41464">
		<tag k="fixme" v="consider natural=peak for the most distinct mountains in the district" />
		<tag k="name" v="Skolten" />
		<tag k="natural" v="hill" />
		<tag k="place" v="locality" />
		<tag k="ssr:stedsnr" v="141213" />
	</node>
	<node lat="70.8394583404818" lon="25.140149834122454" id="-41475">
		<tag k="fixme" v="consider natural=peak for the most distinct mountains in the district" />
		<tag k="name" v="Stohpovárri" />
		<tag k="name:se" v="Stohpovárri" />
		<tag k="natural" v="hill" />
		<tag k="old_name:se" v="Ståppuvarri" />
		<tag k="place" v="locality" />
		<tag k="ssr:stedsnr" v="141481" />
	</node>
	<node lat="71.05695556390789" lon="24.682533195031287" id="-41485">
		<tag k="name" v="Svartberget" />
		<tag k="natural" v="hill" />
		<tag k="place" v="locality" />
		<tag k="ssr:stedsnr" v="141664" />
	</node>
	<node lat="71.01115555649177" lon="24.63733320771222" id="-41486">
		<tag k="name" v="Vektarhaugen" />
		<tag k="natural" v="hill" />
		<tag k="place" v="locality" />
		<tag k="ssr:stedsnr" v="141679" />
	</node>
	<node lat="70.73694444550182" lon="24.991083168299465" id="-41489">
		<tag k="name" v="Nuorttat Ráššaláhku" />
		<tag k="name:se" v="Nuorttat Ráššaláhku" />
		<tag k="old_name:se" v="Raššalakko, nuortat" />
		<tag k="place" v="locality" />
		<tag k="ssr:stedsnr" v="141825" />
	</node>
	<node lat="70.74439722965403" lon="24.627999851867255" id="-41490">
		<tag k="fixme" v="consider natural=peak for the most distinct mountains in the district" />
		<tag k="name" v="Raudfjellet - Ruksesvárri" />
		<tag k="name:no" v="Raudfjellet" />
		<tag k="name:se" v="Ruksesvárri" />
		<tag k="natural" v="hill" />
		<tag k="old_name:se" v="Ruksesvarri" />
		<tag k="place" v="locality" />
		<tag k="ssr:stedsnr" v="141834" />
	</node>
	<node lat="70.65860000843007" lon="24.81650261613665" id="-41491">
		<tag k="fixme" v="consider natural=peak for the most distinct mountains in the district" />
		<tag k="name" v="Ráigevárri" />
		<tag k="name:se" v="Ráigevárri" />
		<tag k="natural" v="hill" />
		<tag k="old_name:se" v="Raigevarri" />
		<tag k="place" v="locality" />
		<tag k="ssr:stedsnr" v="141857" />
	</node>
	<node lat="70.69126666708506" lon="25.00627206276746" id="-41493">
		<tag k="name" v="Rávdolláhku" />
		<tag k="name:se" v="Rávdolláhku" />
		<tag k="old_name:se" v="Ravdulakko;Rávdolakko" />
		<tag k="place" v="locality" />
		<tag k="ssr:stedsnr" v="141871" />
	</node>
	<node lat="70.67720556331008" lon="24.801794282284884" id="-41494">
		<tag k="fixme" v="consider natural=peak for the most distinct mountains in the district" />
		<tag k="name" v="Ráššanjunni" />
		<tag k="name:se" v="Ráššanjunni" />
		<tag k="natural" v="hill" />
		<tag k="old_name:se" v="Raššanjunni" />
		<tag k="place" v="locality" />
		<tag k="ssr:stedsnr" v="141873" />
	</node>
	<node lat="71.00306945154955" lon="24.131074889757556" id="-41496">
		<tag k="name" v="Nordsida" />
		<tag k="natural" v="slope" />
		<tag k="place" v="locality" />
		<tag k="ssr:stedsnr" v="145222" />
	</node>
	<node lat="71.02501667248097" lon="24.995760970016708" id="-41499">
		<tag k="name" v="Skaret" />
		<tag k="natural" v="valley" />
		<tag k="place" v="locality" />
		<tag k="ssr:stedsnr" v="147391" />
	</node>
	<node lat="71.02043889043853" lon="25.017849834672745" id="-41501">
		<tag k="alt_name" v="Hompen" />
		<tag k="fixme" v="consider natural=peak for the most distinct mountains in the district" />
		<tag k="name" v="Humpen" />
		<tag k="natural" v="hill" />
		<tag k="place" v="locality" />
		<tag k="ssr:stedsnr" v="147399" />
	</node>
	<node lat="71.02593334096775" lon="25.031327617457865" id="-41502">
		<tag k="fixme" v="consider natural=peak for the most distinct mountains in the district" />
		<tag k="name" v="Fuggelfjell" />
		<tag k="natural" v="hill" />
		<tag k="place" v="locality" />
		<tag k="ssr:stedsnr" v="147402" />
	</node>
	<node lat="71.01463889125128" lon="25.009166513055376" id="-41503">
		<tag k="name" v="Finnvikbakken" />
		<tag k="natural" v="slope" />
		<tag k="place" v="locality" />
		<tag k="ssr:stedsnr" v="147405" />
	</node>
	<node lat="70.92705277824481" lon="24.68133041609388" id="-41504">
		<tag k="fixme" v="consider natural=peak for the most distinct mountains in the district" />
		<tag k="name" v="Ongelvikfjellet - Áŋŋelvárri" />
		<tag k="name:no" v="Ongelvikfjellet" />
		<tag k="name:se" v="Áŋŋelvárri" />
		<tag k="natural" v="hill" />
		<tag k="old_name:se" v="Aŋŋelvarri" />
		<tag k="place" v="locality" />
		<tag k="ssr:stedsnr" v="147415" />
	</node>
	<node lat="71.07656389171301" lon="24.788833204531475" id="-41509">
		<tag k="name" v="Nipsteinen" />
		<tag k="natural" v="hill" />
		<tag k="place" v="locality" />
		<tag k="ssr:stedsnr" v="150016" />
	</node>
	<node lat="71.07980833956967" lon="24.826105424553614" id="-41510">
		<tag k="name" v="Rækskaret" />
		<tag k="natural" v="valley" />
		<tag k="place" v="locality" />
		<tag k="ssr:stedsnr" v="150034" />
	</node>
	<node lat="71.0825277802225" lon="24.813527647065282" id="-41511">
		<tag k="name" v="Stokkberget" />
		<tag k="natural" v="hill" />
		<tag k="place" v="locality" />
		<tag k="ssr:stedsnr" v="150037" />
	</node>
	<node lat="71.00150278480905" lon="24.588538751149095" id="-41512">
		<tag k="name" v="Langberget" />
		<tag k="natural" v="hill" />
		<tag k="place" v="locality" />
		<tag k="ssr:stedsnr" v="150127" />
	</node>
	<node lat="70.97735000575325" lon="24.664913758606062" id="-41520">
		<tag k="fixme" v="consider natural=peak for the most distinct mountains in the district" />
		<tag k="name" v="Sukkertoppen" />
		<tag k="natural" v="hill" />
		<tag k="place" v="locality" />
		<tag k="ssr:stedsnr" v="202333" />
	</node>
	<node lat="70.8373805640113" lon="24.37401376040816" id="-41529">
		<tag k="name" v="Nonstaddalen" />
		<tag k="natural" v="valley" />
		<tag k="place" v="locality" />
		<tag k="ssr:stedsnr" v="202283" />
	</node>
	<node lat="70.87352778339726" lon="24.734010970413742" id="-41533">
		<tag k="fixme" v="consider natural=peak for the most distinct mountains in the district" />
		<tag k="name" v="Áidevárri" />
		<tag k="name:se" v="Áidevárri" />
		<tag k="natural" v="hill" />
		<tag k="old_name:se" v="Aidevarri" />
		<tag k="place" v="locality" />
		<tag k="ssr:stedsnr" v="202390" />
	</node>
	<node lat="70.7915527805569" lon="24.670394293432405" id="-41534">
		<tag k="fixme" v="consider natural=peak for the most distinct mountains in the district" />
		<tag k="name" v="Látnjavárri" />
		<tag k="name:se" v="Látnjavárri" />
		<tag k="natural" v="hill" />
		<tag k="old_name:se" v="Ladnjavarri" />
		<tag k="place" v="locality" />
		<tag k="ssr:stedsnr" v="202486" />
	</node>
	<node lat="70.9486083389091" lon="24.98533038896619" id="-41539">
		<tag k="fixme" v="consider natural=peak for the most distinct mountains in the district" />
		<tag k="name" v="Njoalohárji" />
		<tag k="name:se" v="Njoalohárji" />
		<tag k="natural" v="hill" />
		<tag k="old_name:se" v="Njoaluharji" />
		<tag k="place" v="locality" />
		<tag k="ssr:stedsnr" v="202424" />
	</node>
	<node lat="71.08444166798914" lon="24.769894312574866" id="-41551">
		<tag k="name" v="Russesanddalen" />
		<tag k="natural" v="valley" />
		<tag k="place" v="locality" />
		<tag k="ssr:stedsnr" v="202664" />
	</node>
	<node lat="71.10587778084242" lon="24.710769298390662" id="-41553">
		<tag k="name" v="Omnan" />
		<tag k="natural" v="slope" />
		<tag k="place" v="locality" />
		<tag k="ssr:stedsnr" v="202674" />
	</node>
	<node lat="70.75088611860804" lon="25.158466475203895" id="-41556">
		<tag k="fixme" v="consider natural=peak for the most distinct mountains in the district" />
		<tag k="name" v="Čuoččahanvárri" />
		<tag k="name:se" v="Čuoččahanvárri" />
		<tag k="natural" v="hill" />
		<tag k="old_name:se" v="Čuožžuhanvarri;Čuožžahanvarri" />
		<tag k="place" v="locality" />
		<tag k="ssr:stedsnr" v="202846" />
	</node>
	<node lat="70.73915000344479" lon="25.097744256646255" id="-41557">
		<tag k="fixme" v="consider natural=peak for the most distinct mountains in the district" />
		<tag k="name" v="Rámšohárji" />
		<tag k="name:se" v="Rámšohárji" />
		<tag k="natural" v="hill" />
		<tag k="old_name:se" v="Ramšuharji" />
		<tag k="place" v="locality" />
		<tag k="ssr:stedsnr" v="202847" />
	</node>
	<node lat="70.6638055618661" lon="24.710758193552408" id="-41559">
		<tag k="name" v="Suolojárčopma" />
		<tag k="name:se" v="Suolojárčopma" />
		<tag k="natural" v="hill" />
		<tag k="old_name:se" v="Suolujarčåbma" />
		<tag k="place" v="locality" />
		<tag k="ssr:stedsnr" v="202872" />
	</node>
	<node lat="70.6711555562408" lon="25.02010817027756" id="-41560">
		<tag k="fixme" v="consider natural=peak for the most distinct mountains in the district" />
		<tag k="name" v="Divgačohkat" />
		<tag k="name:se" v="Divgačohkat" />
		<tag k="natural" v="hill" />
		<tag k="old_name:se" v="Divgačåkkat" />
		<tag k="place" v="locality" />
		<tag k="ssr:stedsnr" v="202874" />
	</node>
	<node lat="71.0775083324457" lon="24.115472132817118" id="-41563">
		<tag k="name" v="Grønnmoa" />
		<tag k="place" v="locality" />
		<tag k="ssr:stedsnr" v="206006" />
	</node>
	<node lat="71.07381111027122" lon="24.028436023209697" id="-41566">
		<tag k="name" v="Bergan" />
		<tag k="natural" v="hill" />
		<tag k="place" v="locality" />
		<tag k="ssr:stedsnr" v="206125" />
	</node>
	<node lat="71.00035833873153" lon="24.007838790230426" id="-41568">
		<tag k="name" v="Brennlia" />
		<tag k="natural" v="slope" />
		<tag k="place" v="locality" />
		<tag k="ssr:stedsnr" v="206504" />
	</node>
	<node lat="71.01128333395988" lon="24.981347076772675" id="-41575">
		<tag k="name" v="Aksla" />
		<tag k="place" v="locality" />
		<tag k="ssr:stedsnr" v="208401" />
	</node>
	<node lat="70.79677500785303" lon="24.626172088060663" id="-41579">
		<tag k="name" v="Martinberget" />
		<tag k="natural" v="hill" />
		<tag k="place" v="locality" />
		<tag k="ssr:stedsnr" v="208446" />
	</node>
	<node lat="71.05899166689548" lon="24.775483193419834" id="-41581">
		<tag k="name" v="Plana" />
		<tag k="natural" v="hill" />
		<tag k="place" v="locality" />
		<tag k="ssr:stedsnr" v="211065" />
	</node>
	<node lat="70.87771111469492" lon="24.934180398389294" id="-41591">
		<tag k="name" v="Kråkklubben" />
		<tag k="natural" v="hill" />
		<tag k="place" v="locality" />
		<tag k="ssr:stedsnr" v="323386" />
	</node>
	<node lat="70.92338889024182" lon="25.48297758436243" id="-41595">
		<tag k="name" v="Goalseluovttvággi" />
		<tag k="name:se" v="Goalseluovttvággi" />
		<tag k="natural" v="valley" />
		<tag k="old_name:se" v="Goalseluovtvaggi" />
		<tag k="place" v="locality" />
		<tag k="ssr:stedsnr" v="323046" />
	</node>
	<node lat="70.76072778515677" lon="25.23488591401456" id="-41599">
		<tag k="fixme" v="consider natural=peak for the most distinct mountains in the district" />
		<tag k="name" v="Juovvahárji" />
		<tag k="name:se" v="Juovvahárji" />
		<tag k="natural" v="hill" />
		<tag k="old_name:se" v="Juovvaharji" />
		<tag k="place" v="locality" />
		<tag k="ssr:stedsnr" v="323103" />
	</node>
	<node lat="70.77213056286743" lon="25.286913699977944" id="-41600">
		<tag k="fixme" v="consider natural=peak for the most distinct mountains in the district" />
		<tag k="name" v="Várdánčohkka" />
		<tag k="name:se" v="Várdánčohkka" />
		<tag k="natural" v="hill" />
		<tag k="old_name:se" v="Vardančåkka" />
		<tag k="place" v="locality" />
		<tag k="ssr:stedsnr" v="323106" />
	</node>
	<node lat="70.78071389512412" lon="24.319408227636035" id="-41613">
		<tag k="fixme" v="consider natural=peak for the most distinct mountains in the district" />
		<tag k="name" v="Fádnojuovašvárri" />
		<tag k="name:se" v="Fádnojuovašvárri" />
		<tag k="natural" v="hill" />
		<tag k="old_name:se" v="Fadnujuovašvarri" />
		<tag k="place" v="locality" />
		<tag k="ssr:stedsnr" v="323355" />
	</node>
	<node lat="70.78825833650085" lon="24.283197109402487" id="-41614">
		<tag k="name" v="Muohtariidi" />
		<tag k="name:se" v="Muohtariidi" />
		<tag k="natural" v="slope" />
		<tag k="old_name:se" v="Muottariidi" />
		<tag k="place" v="locality" />
		<tag k="ssr:stedsnr" v="323365" />
	</node>
	<node lat="71.00476666539763" lon="23.996336022477976" id="-41615">
		<tag k="alt_name" v="Fargohaugen" />
		<tag k="name" v="Varghaugen" />
		<tag k="natural" v="hill" />
		<tag k="place" v="locality" />
		<tag k="ssr:stedsnr" v="323544" />
	</node>
	<node lat="70.73394722990128" lon="25.215927601395833" id="-41620">
		<tag k="fixme" v="consider natural=peak for the most distinct mountains in the district" />
		<tag k="name" v="Oalangielas" />
		<tag k="name:se" v="Oalangielas" />
		<tag k="natural" v="hill" />
		<tag k="place" v="locality" />
		<tag k="ssr:stedsnr" v="323826" />
	</node>
	<node lat="70.71631111788956" lon="24.739319290521" id="-41621">
		<tag k="fixme" v="consider natural=peak for the most distinct mountains in the district" />
		<tag k="name" v="Girjjatčohkka" />
		<tag k="name:se" v="Girjjatčohkka" />
		<tag k="natural" v="hill" />
		<tag k="old_name:se" v="Girjatčåkka" />
		<tag k="place" v="locality" />
		<tag k="ssr:stedsnr" v="323827" />
	</node>
	<node lat="70.76634723061319" lon="25.20036371265069" id="-41624">
		<tag k="fixme" v="consider natural=peak for the most distinct mountains in the district" />
		<tag k="name" v="Ráidovárri" />
		<tag k="name:se" v="Ráidovárri" />
		<tag k="natural" v="hill" />
		<tag k="old_name:se" v="Raiduvarri" />
		<tag k="place" v="locality" />
		<tag k="ssr:stedsnr" v="323448" />
	</node>
	<node lat="70.81103889581456" lon="24.982516506196784" id="-41626">
		<tag k="fixme" v="consider natural=peak for the most distinct mountains in the district" />
		<tag k="name" v="Muvravárhárji" />
		<tag k="name:se" v="Muvravárhárji" />
		<tag k="natural" v="hill" />
		<tag k="old_name:se" v="Muvravarharji" />
		<tag k="place" v="locality" />
		<tag k="ssr:stedsnr" v="323492" />
	</node>
	<node lat="71.05591388968335" lon="24.662397081071042" id="-41638">
		<tag k="alt_name" v="Knarrviktinden, vestre" />
		<tag k="fixme" v="consider natural=peak for the most distinct mountains in the district" />
		<tag k="name" v="Vestre Knarrviktinden" />
		<tag k="natural" v="hill" />
		<tag k="place" v="locality" />
		<tag k="ssr:stedsnr" v="323684" />
	</node>
</osm>
