<?xml version="1.0" encoding="UTF-8"?>
<osm version="0.6" generator="osmapis">
	<node lat="71.0100777815928" lon="24.035569338718602" id="-100918">
		<tag k="name" v="Nordmannselva" />
		<tag k="place" v="isolated_dwelling" />
		<tag k="ssr:stedsnr" v="20644" />
	</node>
	<node lat="71.08093611038026" lon="24.014547119342684" id="-100965">
		<tag k="name" v="Finnes" />
		<tag k="place" v="hamlet" />
		<tag k="ssr:stedsnr" v="87336" />
	</node>
	<node lat="71.0844361129886" lon="24.05819712595773" id="-101001">
		<tag k="name" v="Ytterenga" />
		<tag k="place" v="hamlet" />
		<tag k="ssr:stedsnr" v="145332" />
	</node>
	<node lat="70.75856330944384" lon="24.36022686329608" id="-101054">
		<tag k="alt_name" v="Sauhamn, in" />
		<tag k="name" v="Indre Sauhamn" />
		<tag k="place" v="locality" />
		<tag k="ssr:stedsnr" v="263351" />
	</node>
	<node lat="71.00495834034682" lon="23.908752681685826" id="-101147">
		<tag k="fixme" v="consider place=hamlet" />
		<tag k="name" v="Tufjord" />
		<tag k="place" v="village" />
		<tag k="ssr:stedsnr" v="262551" />
	</node>
	<node lat="70.97143888982872" lon="24.043936010978385" id="-101189">
		<tag k="name" v="Tomastomta" />
		<tag k="place" v="farm" />
		<tag k="ssr:stedsnr" v="328176" />
	</node>
	<node lat="71.02192091108176" lon="24.00800423079767" id="-101219">
		<tag k="name" v="Bukta" />
		<tag k="place" v="farm" />
		<tag k="ssr:stedsnr" v="384595" />
	</node>
	<node lat="71.07908012961934" lon="24.122840360842478" id="-101287">
		<tag k="name" v="Myreng" />
		<tag k="place" v="locality" />
		<tag k="ssr:stedsnr" v="509006" />
	</node>
	<node lat="70.98418297376767" lon="24.016830096356635" id="-101385">
		<tag k="name" v="Storvik" />
		<tag k="place" v="farm" />
		<tag k="ssr:stedsnr" v="578546" />
	</node>
	<node lat="70.8789777821123" lon="24.28809154510162" id="-101429">
		<tag k="name" v="Reinøya" />
		<tag k="place" v="isolated_dwelling" />
		<tag k="ssr:stedsnr" v="654300" />
	</node>
	<node lat="71.07909524725441" lon="24.104039680847166" id="-101439">
		<tag k="alt_name" v="Lenninga" />
		<tag k="name" v="Lendingen" />
		<tag k="place" v="farm" />
		<tag k="ssr:stedsnr" v="687605" />
	</node>
	<node lat="71.07901479895459" lon="24.066612247657968" id="-101454">
		<tag k="name" v="Thule" />
		<tag k="place" v="farm" />
		<tag k="ssr:stedsnr" v="692010" />
	</node>
	<node lat="70.9408333409214" lon="24.13826655893749" id="-101482">
		<tag k="name" v="Rolvsøyhamn" />
		<tag k="place" v="isolated_dwelling" />
		<tag k="ssr:stedsnr" v="748209" />
	</node>
	<node lat="70.95873611172199" lon="24.657238740651703" id="-101491">
		<tag k="name" v="Niipamuotki" />
		<tag k="name:se" v="Niipamuotki" />
		<tag k="place" v="isolated_dwelling" />
		<tag k="ssr:stedsnr" v="748408" />
	</node>
	<node lat="71.00230555409185" lon="24.055233227738597" id="-101506">
		<tag k="name" v="Nordhamna" />
		<tag k="place" v="hamlet" />
		<tag k="ssr:stedsnr" v="752206" />
	</node>
	<node lat="71.00571944896416" lon="24.993702625652976" id="-101509">
		<tag k="name" v="Kilda" />
		<tag k="place" v="locality" />
		<tag k="ssr:stedsnr" v="754151" />
	</node>
	<node lat="70.96537877834972" lon="25.36391824039593" id="-101522">
		<tag k="name" v="Stikkelvåg" />
		<tag k="place" v="farm" />
		<tag k="ssr:stedsnr" v="809485" />
	</node>
	<node lat="70.85094722326926" lon="25.364016476345604" id="-101551">
		<tag k="name" v="Steainnagoahti" />
		<tag k="name:no" v="Steingammen" />
		<tag k="name:se" v="Steainnagoahti" />
		<tag k="old_name:se" v="Stæinagoatti" />
		<tag k="place" v="locality" />
		<tag k="ssr:stedsnr" v="869003" />
	</node>
	<node lat="70.80966944872452" lon="25.269238694069408" id="-101578">
		<tag k="name" v="Kjerringvik - Gálagohppi" />
		<tag k="name:no" v="Kjerringvik" />
		<tag k="name:se" v="Gálagohppi" />
		<tag k="old_name:se" v="Galagåppi" />
		<tag k="place" v="isolated_dwelling" />
		<tag k="ssr:stedsnr" v="870118" />
	</node>
	<node lat="70.90829189794869" lon="24.581948054585688" id="-101589">
		<tag k="alt_name" v="Sæter" />
		<tag k="name" v="Sandsæter" />
		<tag k="place" v="locality" />
		<tag k="ssr:stedsnr" v="870315" />
	</node>
	<node lat="70.97173333387242" lon="24.047385996838745" id="-101641">
		<tag k="name" v="Gargo" />
		<tag k="place" v="farm" />
		<tag k="ssr:stedsnr" v="935172" />
	</node>
	<node lat="70.69519166681258" lon="24.620894310291686" id="-101647">
		<tag k="name" v="Tjeldvik" />
		<tag k="place" v="farm" />
		<tag k="ssr:stedsnr" v="898473" />
	</node>
	<node lat="71.05220277822364" lon="24.01536378687468" id="-101659">
		<tag k="name" v="Vikran" />
		<tag k="place" v="hamlet" />
		<tag k="ssr:stedsnr" v="930643" />
	</node>
	<node lat="71.03169166514085" lon="23.987036026695954" id="-101678">
		<tag k="name" v="Gammelsætra" />
		<tag k="place" v="locality" />
		<tag k="ssr:stedsnr" v="958927" />
	</node>
	<node lat="71.07046255092625" lon="24.040173367474743" id="-101688">
		<tag k="alt_name" v="Steinvika" />
		<tag k="name" v="Steinvik" />
		<tag k="place" v="locality" />
		<tag k="ssr:stedsnr" v="20602" />
	</node>
	<node lat="70.67228056288174" lon="24.626777641893057" id="-101754">
		<tag k="name" v="Vekselvik" />
		<tag k="place" v="locality" />
		<tag k="ssr:stedsnr" v="48460" />
	</node>
	<node lat="70.9771078521855" lon="24.059755808393678" id="-101778">
		<tag k="name" v="Olagargo - Gárgu" />
		<tag k="name:no" v="Olagargo" />
		<tag k="name:se" v="Gárgu" />
		<tag k="old_name:se" v="Gargo" />
		<tag k="place" v="farm" />
		<tag k="ssr:stedsnr" v="81280" />
	</node>
	<node lat="70.78596815272712" lon="24.581126948701936" id="-101783">
		<tag k="name" v="Seiberg" />
		<tag k="place" v="isolated_dwelling" />
		<tag k="ssr:stedsnr" v="81352" />
	</node>
	<node lat="71.02530833668777" lon="24.061297135627235" id="-101807">
		<tag k="name" v="Eidnes" />
		<tag k="place" v="farm" />
		<tag k="ssr:stedsnr" v="85171" />
	</node>
	<node lat="70.96001850018813" lon="25.434811159877114" id="-101825">
		<tag k="name" v="Risvika" />
		<tag k="place" v="farm" />
		<tag k="ssr:stedsnr" v="109854" />
	</node>
	<node lat="70.86621389534547" lon="24.362210983792195" id="-101839">
		<tag k="name" v="Nonstadnesjordet - Heallu" />
		<tag k="name:no" v="Nonstadnesjordet" />
		<tag k="name:se" v="Heallu" />
		<tag k="old_name:se" v="Hællo" />
		<tag k="place" v="locality" />
		<tag k="ssr:stedsnr" v="141269" />
	</node>
	<node lat="71.02456477711867" lon="24.016241110337855" id="-101872">
		<tag k="alt_name" v="Persand" />
		<tag k="name" v="Perstrand" />
		<tag k="place" v="locality" />
		<tag k="ssr:stedsnr" v="141627" />
	</node>
	<node lat="70.69453889061134" lon="24.63100541351352" id="-101881">
		<tag k="name" v="Angnes" />
		<tag k="place" v="farm" />
		<tag k="ssr:stedsnr" v="141801" />
	</node>
	<node lat="71.00509722455759" lon="23.896997140912404" id="-101892">
		<tag k="name" v="Været" />
		<tag k="place" v="hamlet" />
		<tag k="ssr:stedsnr" v="145499" />
	</node>
	<node lat="71.07658055860195" lon="24.796977651546207" id="-101935">
		<tag k="name" v="Russesand" />
		<tag k="place" v="hamlet" />
		<tag k="ssr:stedsnr" v="202696" />
	</node>
	<node lat="71.1025083372265" lon="24.756172101382624" id="-101946">
		<tag k="name" v="Tarevika" />
		<tag k="place" v="isolated_dwelling" />
		<tag k="ssr:stedsnr" v="202673" />
	</node>
	<node lat="71.06336388997511" lon="24.085172117898107" id="-101955">
		<tag k="name" v="Vaktstua" />
		<tag k="place" v="locality" />
		<tag k="ssr:stedsnr" v="206043" />
	</node>
	<node lat="71.06059848401136" lon="24.04984680186458" id="-101956">
		<tag k="name" v="Kjerringnes" />
		<tag k="place" v="farm" />
		<tag k="ssr:stedsnr" v="206046" />
	</node>
	<node lat="70.78506111825892" lon="24.60300264393959" id="-101974">
		<tag k="name" v="Stranda" />
		<tag k="place" v="farm" />
		<tag k="ssr:stedsnr" v="208499" />
	</node>
	<node lat="70.87434723033162" lon="25.023108162152162" id="-101979">
		<tag k="name" v="Storslått" />
		<tag k="place" v="locality" />
		<tag k="ssr:stedsnr" v="291165" />
	</node>
	<node lat="71.00770000668591" lon="25.0040442823591" id="-102037">
		<tag k="fixme" v="consider place=hamlet" />
		<tag k="name" v="Måsøy" />
		<tag k="place" v="village" />
		<tag k="ssr:stedsnr" v="323712" />
	</node>
	<node lat="70.78340833524537" lon="24.249794334194302" id="-102060">
		<tag k="name" v="Hattvika" />
		<tag k="place" v="locality" />
		<tag k="ssr:stedsnr" v="351280" />
	</node>
	<node lat="71.08412778127753" lon="24.12750823753529" id="-102064">
		<tag k="name" v="Sletta" />
		<tag k="place" v="locality" />
		<tag k="ssr:stedsnr" v="351984" />
	</node>
	<node lat="71.0843972283337" lon="24.05822212037411" id="-102114">
		<tag k="fixme" v="consider place=suburb, village or hamlet" />
		<tag k="name" v="Ingøy" />
		<tag k="place" v="quarter" />
		<tag k="ssr:stedsnr" v="384567" />
	</node>
	<node lat="70.86629167446414" lon="24.67409430757688" id="-102135">
		<tag k="name" v="Bakfjord" />
		<tag k="place" v="isolated_dwelling" />
		<tag k="ssr:stedsnr" v="412336" />
	</node>
	<node lat="70.74968334004757" lon="24.514605413503947" id="-102185">
		<tag k="fixme" v="consider place=hamlet" />
		<tag k="name" v="Slåtten - Muotki" />
		<tag k="name:no" v="Slåtten" />
		<tag k="name:se" v="Muotki" />
		<tag k="place" v="village" />
		<tag k="ssr:stedsnr" v="445164" />
	</node>
	<node lat="70.85493333340088" lon="24.387735982804465" id="-102192">
		<tag k="name" v="Rotvikjorda" />
		<tag k="place" v="locality" />
		<tag k="ssr:stedsnr" v="445260" />
	</node>
	<node lat="70.69386389348627" lon="24.658891514861082" id="-102256">
		<tag k="name" v="Myrheim" />
		<tag k="place" v="farm" />
		<tag k="ssr:stedsnr" v="505821" />
	</node>
	<node lat="70.9456027794388" lon="23.965091569166592" id="-102284">
		<tag k="name" v="Stoppelfjord" />
		<tag k="place" v="locality" />
		<tag k="ssr:stedsnr" v="533931" />
	</node>
	<node lat="70.82872778746898" lon="25.338697029971133" id="-102290">
		<tag k="name" v="Langnes" />
		<tag k="place" v="isolated_dwelling" />
		<tag k="ssr:stedsnr" v="565106" />
	</node>
	<node lat="70.96986111097394" lon="24.09811377144147" id="-102292">
		<tag k="name" v="Gårdstrand" />
		<tag k="place" v="isolated_dwelling" />
		<tag k="ssr:stedsnr" v="565230" />
	</node>
	<node lat="71.00230000224603" lon="24.0551387917026" id="-102327">
		<tag k="name" v="Nordhamna" />
		<tag k="place" v="hamlet" />
		<tag k="ssr:stedsnr" v="566596" />
	</node>
	<node lat="70.87243611624665" lon="24.938355389295292" id="-102388">
		<tag k="name" v="Hávdna" />
		<tag k="name:no" v="Hamna i Ryggefjord" />
		<tag k="name:se" v="Hávdna" />
		<tag k="old_name:se" v="Havdna" />
		<tag k="place" v="hamlet" />
		<tag k="ssr:stedsnr" v="626431" />
	</node>
	<node lat="71.05633333328068" lon="24.78499152074368" id="-102403">
		<tag k="alt_name" v="Kiholmen" />
		<tag k="name" v="Kjeholmen" />
		<tag k="place" v="isolated_dwelling" />
		<tag k="ssr:stedsnr" v="626710" />
	</node>
	<node lat="70.99490527298818" lon="24.16757648340173" id="-102465">
		<tag k="name" v="Kalveland" />
		<tag k="place" v="locality" />
		<tag k="ssr:stedsnr" v="748232" />
	</node>
	<node lat="70.99827777817512" lon="24.116483228631623" id="-102467">
		<tag k="name" v="Gunnarnes" />
		<tag k="place" v="hamlet" />
		<tag k="ssr:stedsnr" v="748235" />
	</node>
	<node lat="70.99633333882547" lon="24.662133194233803" id="-102517">
		<tag k="name" v="Havøysund - Ávanuorri" />
		<tag k="name:no" v="Havøysund" />
		<tag k="name:se" v="Ávanuorri" />
		<tag k="old_name:se" v="Avanuorri" />
		<tag k="place" v="village" />
		<tag k="ssr:stedsnr" v="754383" />
	</node>
	<node lat="70.97913462253499" lon="23.997258055604295" id="-102541">
		<tag k="name" v="Sørkjosen" />
		<tag k="place" v="farm" />
		<tag k="ssr:stedsnr" v="809142" />
	</node>
	<node lat="70.76600672391707" lon="24.318887843812227" id="-102555">
		<tag k="alt_name:no" v="Sauhamn, yt" />
		<tag k="name" v="Ytre Sauhamn - Sávvenat" />
		<tag k="name:no" v="Ytre Sauhamn" />
		<tag k="name:se" v="Sávvenat" />
		<tag k="old_name:se" v="Savvenat" />
		<tag k="place" v="locality" />
		<tag k="ssr:stedsnr" v="809339" />
	</node>
	<node lat="71.00337503984578" lon="23.93506790649566" id="-102592">
		<tag k="name" v="Sætra" />
		<tag k="place" v="farm" />
		<tag k="ssr:stedsnr" v="821261" />
	</node>
	<node lat="71.02425775178467" lon="23.995388576009958" id="-102596">
		<tag k="name" v="Sætervik" />
		<tag k="place" v="isolated_dwelling" />
		<tag k="ssr:stedsnr" v="837919" />
	</node>
	<node lat="70.80716944512506" lon="24.625352642514343" id="-102669">
		<tag k="name" v="Krokelv" />
		<tag k="place" v="locality" />
		<tag k="ssr:stedsnr" v="875437" />
	</node>
</osm>
