<?xml version="1.0" encoding="UTF-8"?>
<osm version="0.6" generator="osmapis">
	<node lat="70.99644444636426" lon="24.65682765337186" id="-46284">
		<tag k="amenity" v="place_of_worship" />
		<tag k="denomination" v="lutheran" />
		<tag k="name" v="Havøysund kirke" />
		<tag k="religion" v="christian" />
		<tag k="ssr:stedsnr" v="336806" />
	</node>
	<node lat="71.00837500659803" lon="24.999010954553473" id="-46285">
		<tag k="amenity" v="place_of_worship" />
		<tag k="denomination" v="lutheran" />
		<tag k="name" v="Måsøy kirke" />
		<tag k="religion" v="christian" />
		<tag k="ssr:stedsnr" v="336809" />
	</node>
	<node lat="71.08164444725419" lon="24.06041102206601" id="-47444">
		<tag k="amenity" v="place_of_worship" />
		<tag k="denomination" v="lutheran" />
		<tag k="name" v="Ingøy kirke" />
		<tag k="religion" v="christian" />
		<tag k="ssr:stedsnr" v="578780" />
	</node>
	<node lat="70.75055555831153" lon="24.533858199527085" id="-47725">
		<tag k="amenity" v="place_of_worship" />
		<tag k="denomination" v="lutheran" />
		<tag k="loc_name" v="Slotten" />
		<tag k="name" v="Slåtten kirke" />
		<tag k="religion" v="christian" />
		<tag k="ssr:stedsnr" v="870363" />
	</node>
	<node lat="71.04682500082814" lon="24.07886934404801" id="-47750">
		<tag k="name" v="Oterveian" />
		<tag k="place" v="locality" />
		<tag k="ssr:stedsnr" v="874045" />
	</node>
</osm>
