<?xml version="1.0" encoding="UTF-8"?>
<<<<<<< HEAD
<osm version="0.6" generator="osmapis">
	<node lat="70.771575004055" lon="24.368199878274392" id="-37854">
		<tag k="name" v="Njunnošjávrrit" />
		<tag k="name:se" v="Njunnošjávrrit" />
		<tag k="natural" v="water" />
		<tag k="old_name:se" v="Njunnušjavrit" />
		<tag k="ssr:stedsnr" v="20321" />
	</node>
	<node lat="70.82488056279692" lon="24.39446098915245" id="-37861">
		<tag k="name" v="Middagsfjellvannet" />
		<tag k="natural" v="water" />
		<tag k="ssr:stedsnr" v="20277" />
	</node>
	<node lat="70.85345556242758" lon="24.654877656304183" id="-37862">
		<tag k="name" v="Lomvannet" />
		<tag k="natural" v="water" />
		<tag k="ssr:stedsnr" v="20395" />
	</node>
	<node lat="70.8550055610656" lon="25.02989706246275" id="-37863">
		<tag k="alt_name" v="Alkavatn" />
		<tag k="name" v="Alkevatnet" />
		<tag k="natural" v="water" />
		<tag k="ssr:stedsnr" v="20403" />
	</node>
	<node lat="70.74040000658268" lon="25.10623316003721" id="-37873">
		<tag k="name" v="Ráhpesvárjávri" />
		<tag k="name:se" v="Ráhpesvárjávri" />
		<tag k="natural" v="water" />
		<tag k="old_name:se" v="Rappesvarjavri" />
		<tag k="ssr:stedsnr" v="20841" />
		<tag k="water" v="lake" />
	</node>
	<node lat="70.75982777730657" lon="24.543647088877783" id="-37881">
		<tag k="name" v="Slåtteneidet" />
		<tag k="place" v="locality" />
		<tag k="ssr:stedsnr" v="29770" />
	</node>
	<node lat="70.79026666678745" lon="24.55343875376439" id="-37906">
		<tag k="alt_name" v="Skavikvatnet" />
		<tag k="name" v="Skavvikvatnet" />
		<tag k="natural" v="water" />
		<tag k="ssr:stedsnr" v="81390" />
	</node>
	<node lat="70.80095555826087" lon="24.666127646901153" id="-37908">
		<tag k="name" v="Krokelva - Sieiddejohka" />
		<tag k="name:no" v="Krokelva" />
		<tag k="name:se" v="Sieiddejohka" />
		<tag k="old_name:se" v="Sieidejåkka" />
		<tag k="ssr:stedsnr" v="81539" />
		<tag k="waterway" v="river" />
	</node>
	<node lat="70.79315555473967" lon="24.654369305670983" id="-37917">
		<tag k="name" v="Fakkonbakkevannet" />
		<tag k="natural" v="water" />
		<tag k="ssr:stedsnr" v="86424" />
		<tag k="water" v="lake" />
	</node>
	<node lat="70.77575833955083" lon="24.61184429808025" id="-37931">
		<tag k="name" v="Sørkjosvannet" />
		<tag k="natural" v="water" />
		<tag k="ssr:stedsnr" v="141337" />
	</node>
	<node lat="70.88884167583919" lon="25.173363715113883" id="-37934">
		<tag k="name" v="Sismárjávrrit" />
		<tag k="name:se" v="Sismárjávrrit" />
		<tag k="natural" v="water" />
		<tag k="old_name:se" v="Sismarjavrit" />
		<tag k="ssr:stedsnr" v="141400" />
		<tag k="water" v="lake" />
	</node>
	<node lat="70.86268611361413" lon="25.16656093179949" id="-37936">
		<tag k="name" v="Hálddavuolesjávrrit" />
		<tag k="name:se" v="Hálddavuolesjávrrit" />
		<tag k="natural" v="water" />
		<tag k="old_name:se" v="Haldavuolesjavrit" />
		<tag k="ssr:stedsnr" v="141413" />
		<tag k="water" v="lake" />
	</node>
	<node lat="70.8523027865319" lon="24.72001096448093" id="-37938">
		<tag k="name" v="Trollvannet" />
		<tag k="natural" v="water" />
		<tag k="ssr:stedsnr" v="141415" />
	</node>
	<node lat="71.07928056187" lon="24.116591559567638" id="-37949">
		<tag k="name" v="Steinvannet" />
		<tag k="natural" v="water" />
		<tag k="ssr:stedsnr" v="145006" />
	</node>
	<node lat="70.99006388982177" lon="24.040202683976133" id="-37964">
		<tag k="name" v="Sandfjordvatnan" />
		<tag k="natural" v="water" />
		<tag k="ssr:stedsnr" v="174770" />
		<tag k="water" v="lake" />
	</node>
	<node lat="70.9364861165855" lon="25.40125535589306" id="-37966">
		<tag k="name" v="Gávašjávrrit" />
		<tag k="name:se" v="Gávašjávrrit" />
		<tag k="natural" v="water" />
		<tag k="old_name:se" v="Gavašjavrit" />
		<tag k="ssr:stedsnr" v="262057" />
		<tag k="water" v="lake" />
	</node>
	<node lat="70.97455555829302" lon="24.57119987295745" id="-37969">
		<tag k="name" v="Nipelva" />
		<tag k="ssr:stedsnr" v="262192" />
		<tag k="waterway" v="stream" />
	</node>
	<node lat="70.92168888954669" lon="24.782538755950867" id="-37974">
		<tag k="name" v="Sekkevannet" />
		<tag k="natural" v="water" />
		<tag k="ssr:stedsnr" v="262437" />
	</node>
	<node lat="70.72200000227095" lon="25.09589703971387" id="-37989">
		<tag k="name" v="Láhkojávri" />
		<tag k="name:se" v="Láhkojávri" />
		<tag k="natural" v="water" />
		<tag k="old_name:se" v="Lakkujavri" />
		<tag k="ssr:stedsnr" v="262859" />
	</node>
	<node lat="70.72435555996655" lon="25.222530364355613" id="-37992">
		<tag k="name" v="Heaikkánddejávri" />
		<tag k="name:se" v="Heaikkánddejávri" />
		<tag k="natural" v="water" />
		<tag k="old_name:se" v="Hæikandejavri" />
		<tag k="ssr:stedsnr" v="262980" />
	</node>
	<node lat="70.86994722283663" lon="24.250016540730226" id="-38001">
		<tag k="name" v="Storvannet" />
		<tag k="natural" v="water" />
		<tag k="ssr:stedsnr" v="263337" />
	</node>
	<node lat="70.85573056018845" lon="24.352263764258293" id="-38004">
		<tag k="name" v="Badevannet" />
		<tag k="natural" v="water" />
		<tag k="ssr:stedsnr" v="263287" />
	</node>
	<node lat="70.78100833881096" lon="24.602783191318895" id="-38008">
		<tag k="name" v="Sørkjoselva" />
		<tag k="ssr:stedsnr" v="263361" />
		<tag k="waterway" v="stream" />
	</node>
	<node lat="70.80651945170735" lon="24.818755410772905" id="-38016">
		<tag k="name" v="Lápmejávrrit" />
		<tag k="name:se" v="Lápmejávrrit" />
		<tag k="natural" v="water" />
		<tag k="old_name:se" v="Labmejavrit;Labmejávrit" />
		<tag k="ssr:stedsnr" v="263511" />
		<tag k="water" v="lake" />
	</node>
	<node lat="70.79131666606565" lon="24.81165263200776" id="-38017">
		<tag k="name" v="Náránašjávri" />
		<tag k="name:se" v="Náránašjávri" />
		<tag k="natural" v="water" />
		<tag k="old_name:se" v="Naranašjavri" />
		<tag k="ssr:stedsnr" v="263519" />
	</node>
	<node lat="70.77014444789732" lon="25.09891094650709" id="-38020">
		<tag k="name" v="Suolojávri" />
		<tag k="name:se" v="Suolojávri" />
		<tag k="natural" v="water" />
		<tag k="old_name:se" v="Suolujavri" />
		<tag k="ssr:stedsnr" v="263528" />
	</node>
	<node lat="70.76810277796945" lon="24.778519295949092" id="-38022">
		<tag k="name" v="Ráššaláhkojohka" />
		<tag k="name:se" v="Ráššaláhkojohka" />
		<tag k="old_name:se" v="Raššalakkujåkka" />
		<tag k="ssr:stedsnr" v="263533" />
		<tag k="waterway" v="river" />
	</node>
	<node lat="70.71596667303085" lon="24.592974854165078" id="-38027">
		<tag k="name" v="Latterelva" />
		<tag k="ssr:stedsnr" v="272705" />
		<tag k="waterway" v="stream" />
	</node>
	<node lat="71.01164166955004" lon="24.030405463863023" id="-38030">
		<tag k="name" v="Nordmannselva" />
		<tag k="ssr:stedsnr" v="267188" />
		<tag k="waterway" v="river" />
	</node>
	<node lat="70.77844444776301" lon="25.265524803295296" id="-38039">
		<tag k="name" v="Bealjáidjohka" />
		<tag k="name:se" v="Bealjáidjohka" />
		<tag k="old_name:se" v="Bæljaidjåkka" />
		<tag k="ssr:stedsnr" v="202097" />
		<tag k="waterway" v="river" />
	</node>
	<node lat="70.84222222860467" lon="24.264505438404868" id="-38045">
		<tag k="name" v="Elvedalsvannet" />
		<tag k="natural" v="water" />
		<tag k="ssr:stedsnr" v="202257" />
	</node>
	<node lat="70.84116111557798" lon="24.35615266650011" id="-38046">
		<tag k="name" v="Dalvatnan" />
		<tag k="natural" v="water" />
		<tag k="ssr:stedsnr" v="202258" />
	</node>
	<node lat="70.75616945210946" lon="25.174438703731035" id="-38053">
		<tag k="name" v="Rátkkajávri" />
		<tag k="name:se" v="Rátkkajávri" />
		<tag k="natural" v="water" />
		<tag k="old_name:se" v="Ratkajavri" />
		<tag k="ssr:stedsnr" v="202450" />
	</node>
	<node lat="70.85741111679711" lon="24.746569300231517" id="-38058">
		<tag k="name" v="Lávvojávrrit" />
		<tag k="name:se" v="Lávvojávrrit" />
		<tag k="natural" v="water" />
		<tag k="old_name:se" v="Lavvujavrit" />
		<tag k="ssr:stedsnr" v="202394" />
		<tag k="water" v="lake" />
	</node>
	<node lat="71.01840000616725" lon="23.99323323894578" id="-38087">
		<tag k="name" v="Russelva" />
		<tag k="ssr:stedsnr" v="230910" />
		<tag k="waterway" v="river" />
	</node>
	<node lat="70.82195000261554" lon="24.32895542748958" id="-38098">
		<tag k="name" v="Hattvikvannet" />
		<tag k="natural" v="water" />
		<tag k="ssr:stedsnr" v="262354" />
	</node>
	<node lat="70.79663889003466" lon="25.047780394857416" id="-38108">
		<tag k="name" v="Ávžejávri" />
		<tag k="name:se" v="Ávžejávri" />
		<tag k="natural" v="water" />
		<tag k="old_name:se" v="Avžejavri" />
		<tag k="ssr:stedsnr" v="263508" />
		<tag k="water" v="lake" />
	</node>
	<node lat="70.96230555930369" lon="24.052180469968036" id="-38109">
		<tag k="name" v="Langfjordelva" />
		<tag k="ssr:stedsnr" v="266197" />
		<tag k="waterway" v="river" />
	</node>
	<node lat="70.96810000396378" lon="24.01594990933022" id="-38112">
		<tag k="name" v="Småvatnan" />
		<tag k="natural" v="water" />
		<tag k="ssr:stedsnr" v="267134" />
	</node>
	<node lat="70.97020556078385" lon="24.006244351903362" id="-38113">
		<tag k="name" v="Gunnarvannet" />
		<tag k="natural" v="water" />
		<tag k="ssr:stedsnr" v="267136" />
	</node>
	<node lat="70.84545834070353" lon="24.952674838964796" id="-38117">
		<tag k="name" v="Svartfossen" />
		<tag k="natural" v="waterfall" />
		<tag k="ssr:stedsnr" v="269386" />
	</node>
	<node lat="70.84670000166815" lon="24.935347056310004" id="-38118">
		<tag k="name" v="Langvannet" />
		<tag k="natural" v="water" />
		<tag k="ssr:stedsnr" v="269389" />
		<tag k="water" v="lake" />
	</node>
	<node lat="71.01626944719989" lon="24.57595265121852" id="-38120">
		<tag k="name" v="Gavlvannet" />
		<tag k="natural" v="water" />
		<tag k="ssr:stedsnr" v="272130" />
	</node>
	<node lat="70.95040000607572" lon="24.661849870813132" id="-38131">
		<tag k="name" v="Heastajávri" />
		<tag k="name:se" v="Heastajávri" />
		<tag k="natural" v="water" />
		<tag k="old_name:se" v="Hæstajavri" />
		<tag k="ssr:stedsnr" v="323422" />
		<tag k="water" v="lake" />
	</node>
	<node lat="70.68021389213165" lon="24.67906928623277" id="-38134">
		<tag k="name" v="Langvannet" />
		<tag k="natural" v="water" />
		<tag k="ssr:stedsnr" v="323873" />
	</node>
	<node lat="70.95550277751353" lon="24.0685526642973" id="-38156">
		<tag k="name" v="Langfjordvannet" />
		<tag k="natural" v="water" />
		<tag k="ssr:stedsnr" v="383200" />
	</node>
	<node lat="70.9479472249297" lon="24.084055439702613" id="-38160">
		<tag k="name" v="Svarthattvannet" />
		<tag k="natural" v="water" />
		<tag k="ssr:stedsnr" v="383216" />
	</node>
	<node lat="70.81441389588842" lon="24.4351026636062" id="-38161">
		<tag k="name" v="Amundvikvannet" />
		<tag k="natural" v="water" />
		<tag k="ssr:stedsnr" v="383355" />
	</node>
	<node lat="70.71379445240876" lon="25.150374834118672" id="-38181">
=======
<osm generator="osmapis" version="0.6">
	<node id="-902143" lat="70.9745555583" lon="24.571199873">
		<tag k="name" v="Nipelva" />
		<tag k="ssr:stedsnr" v="262192" />
		<tag k="waterway" v="stream" />
	</node>
	<node id="-903165" lat="70.8411611156" lon="24.3561526665">
		<tag k="name" v="Dalvatnan" />
		<tag k="natural" v="water" />
		<tag k="ssr:stedsnr" v="202258" />
	</node>
	<node id="-903164" lat="70.8422222286" lon="24.2645054384">
		<tag k="name" v="Elvedalsvannet" />
		<tag k="natural" v="water" />
		<tag k="ssr:stedsnr" v="202257" />
	</node>
	<node id="-902139" lat="70.9364861166" lon="25.4012553559">
		<tag k="name" v="Gávašjávrrit" />
		<tag k="name:se" v="Gávašjávrrit" />
		<tag k="natural" v="water" />
		<tag k="old_name:se" v="Gavašjavrit" />
		<tag k="ssr:stedsnr" v="262057" />
		<tag k="water" v="lake" />
	</node>
	<node id="-903162" lat="70.9620250021" lon="24.0203387893">
		<tag k="name" v="Kuelva" />
		<tag k="ssr:stedsnr" v="202243" />
		<tag k="waterway" v="stream" />
	</node>
	<node id="-903672" lat="70.7618388915" lon="24.5651693042">
		<tag k="name" v="Rundvannet" />
		<tag k="natural" v="water" />
		<tag k="ssr:stedsnr" v="748337" />
	</node>
	<node id="-903159" lat="70.734816672" lon="24.5515970961">
		<tag k="name" v="Gorbuselva - Gurbbošjohka" />
		<tag k="name:no" v="Gorbuselva" />
		<tag k="name:se" v="Gurbbošjohka" />
		<tag k="old_name:se" v="Gurbušjåkka" />
		<tag k="ssr:stedsnr" v="202179" />
		<tag k="waterway" v="river" />
	</node>
	<node id="-903670" lat="70.8692805589" lon="24.964305405">
		<tag k="name" v="Strandvannet" />
		<tag k="natural" v="water" />
		<tag k="ssr:stedsnr" v="748380" />
	</node>
	<node id="-902313" lat="70.7561083378" lon="24.5393415422">
		<tag k="name" v="Lomvannet" />
		<tag k="natural" v="water" />
		<tag k="ssr:stedsnr" v="445349" />
	</node>
	<node id="-903667" lat="70.8889555597" lon="24.804072081">
		<tag k="name" v="Molvikvannet" />
		<tag k="natural" v="water" />
		<tag k="ssr:stedsnr" v="748373" />
	</node>
	<node id="-903152" lat="70.9900638898" lon="24.040202684">
		<tag k="name" v="Sandfjordvatnan" />
		<tag k="natural" v="water" />
		<tag k="ssr:stedsnr" v="174770" />
		<tag k="water" v="lake" />
	</node>
	<node id="-903663" lat="70.792213894" lon="24.3380832124">
		<tag k="name" v="Muohtajávrrit" />
		<tag k="name:se" v="Muohtajávrrit" />
		<tag k="natural" v="water" />
		<tag k="old_name:se" v="Muottajavrit" />
		<tag k="ssr:stedsnr" v="748361" />
	</node>
	<node id="-903146" lat="70.7949694481" lon="24.6372498671">
		<tag k="name" v="Gressvannet" />
		<tag k="natural" v="water" />
		<tag k="ssr:stedsnr" v="147431" />
	</node>
	<node id="-903144" lat="70.7762222234" lon="24.6681137434">
		<tag k="name" v="Vesterelva" />
		<tag k="ssr:stedsnr" v="147480" />
		<tag k="waterway" v="river" />
	</node>
	<node id="-903143" lat="70.7805111107" lon="24.6358248687">
		<tag k="name" v="Godtplassneset" />
		<tag k="natural" v="cape" />
		<tag k="ssr:stedsnr" v="147479" />
	</node>
	<node id="-902629" lat="70.9965444472" lon="23.941194338">
		<tag k="name" v="Jarlvannet" />
		<tag k="natural" v="water" />
		<tag k="ssr:stedsnr" v="570459" />
	</node>
	<node id="-902112" lat="70.7969305633" lon="25.2493470289">
		<tag k="name" v="Austerelva - Oalanjohka" />
		<tag k="name:no" v="Austerelva" />
		<tag k="name:se" v="Oalanjohka" />
		<tag k="old_name:se" v="Oalanjåkka" />
		<tag k="ssr:stedsnr" v="20530" />
		<tag k="waterway" v="river" />
	</node>
	<node id="-902623" lat="70.837841671" lon="24.7092359797">
		<tag k="name" v="Laksevannet" />
		<tag k="natural" v="water" />
		<tag k="ssr:stedsnr" v="566412" />
	</node>
	<node id="-902621" lat="70.7204750066" lon="24.5465498784">
		<tag k="name" v="Akopvannet" />
		<tag k="natural" v="water" />
		<tag k="ssr:stedsnr" v="696750" />
	</node>
	<node id="-903642" lat="70.7794055599" lon="25.2969414751">
		<tag k="name" v="Bealččajávri" />
		<tag k="name:se" v="Bealččajávri" />
		<tag k="natural" v="water" />
		<tag k="old_name:se" v="Bælčajavri" />
		<tag k="ssr:stedsnr" v="748096" />
	</node>
	<node id="-903129" lat="71.0792805619" lon="24.1165915596">
		<tag k="name" v="Steinvannet" />
		<tag k="natural" v="water" />
		<tag k="ssr:stedsnr" v="145006" />
	</node>
	<node id="-902104" lat="70.7542055578" lon="24.4483776512">
		<tag k="name" v="Trangsvikvannet" />
		<tag k="natural" v="water" />
		<tag k="ssr:stedsnr" v="20334" />
	</node>
	<node id="-902103" lat="70.7715750041" lon="24.3681998783">
		<tag k="name" v="Njunnošjávrrit" />
		<tag k="name:se" v="Njunnošjávrrit" />
		<tag k="natural" v="water" />
		<tag k="old_name:se" v="Njunnušjavrit" />
		<tag k="ssr:stedsnr" v="20321" />
	</node>
	<node id="-902613" lat="70.7828111152" lon="24.5920137455">
		<tag k="name" v="Førstevannet" />
		<tag k="natural" v="water" />
		<tag k="ssr:stedsnr" v="693506" />
	</node>
	<node id="-903122" lat="70.715850007" lon="25.0701359366">
		<tag k="name" v="Vuolit Rávdoljávri" />
		<tag k="name:se" v="Vuolit Rávdoljávri" />
		<tag k="natural" v="water" />
		<tag k="old_name:se" v="Ravduljavri, vuolit" />
		<tag k="ssr:stedsnr" v="141811" />
		<tag k="water" v="lake" />
	</node>
	<node id="-903633" lat="70.9965472283" lon="23.9281943402">
		<tag k="fixme" v="multiple name tags, choose one and add the other to alt_name" />
		<tag k="name" v="Hagerupvannet;Storvannet" />
		<tag k="natural" v="water" />
		<tag k="ssr:stedsnr" v="748181" />
		<tag k="water" v="lake" />
	</node>
	<node id="-903632" lat="70.9131222265" lon="25.4675220237">
		<tag k="name" v="Čeavrresjávri" />
		<tag k="name:se" v="Čeavrresjávri" />
		<tag k="natural" v="water" />
		<tag k="old_name:se" v="Čævresjavri" />
		<tag k="ssr:stedsnr" v="748043" />
	</node>
	<node id="-903628" lat="70.7962750045" lon="25.2218748165">
		<tag k="name" v="Vesterelva" />
		<tag k="ssr:stedsnr" v="747504" />
		<tag k="waterway" v="river" />
	</node>
	<node id="-902597" lat="70.6769777836" lon="24.7660803937">
		<tag k="name" v="Lillefjordvannet - Uhcavuonašjávri" />
		<tag k="name:no" v="Lillefjordvannet" />
		<tag k="name:se" v="Uhcavuonašjávri" />
		<tag k="natural" v="water" />
		<tag k="ssr:stedsnr" v="688875" />
	</node>
	<node id="-902595" lat="70.6752750072" lon="25.0331970576">
		<tag k="name" v="Divgačohkajávri" />
		<tag k="name:se" v="Divgačohkajávri" />
		<tag k="natural" v="water" />
		<tag k="old_name:se" v="Divgačåkkajavri" />
		<tag k="ssr:stedsnr" v="688860" />
	</node>
	<node id="-903106" lat="70.7712250023" lon="25.0364053714">
		<tag k="name" v="Ráššajohka" />
		<tag k="name:se" v="Ráššajohka" />
		<tag k="old_name:se" v="Raššajåkka" />
		<tag k="ssr:stedsnr" v="141529" />
		<tag k="waterway" v="river" />
	</node>
	<node id="-903103" lat="70.9113638966" lon="25.0927414948">
		<tag k="name" v="Kongelvikvannet" />
		<tag k="natural" v="water" />
		<tag k="ssr:stedsnr" v="141449" />
		<tag k="water" v="lake" />
	</node>
	<node id="-902588" lat="70.7534944464" lon="24.9827859479">
		<tag k="name" v="Unna Ráššajávri" />
		<tag k="name:se" v="Unna Ráššajávri" />
		<tag k="natural" v="water" />
		<tag k="old_name:se" v="Raššajavri, unna" />
		<tag k="ssr:stedsnr" v="688501" />
		<tag k="water" v="lake" />
	</node>
	<node id="-902218" lat="71.0116416696" lon="24.0304054639">
		<tag k="name" v="Nordmannselva" />
		<tag k="ssr:stedsnr" v="267188" />
		<tag k="waterway" v="river" />
	</node>
	<node id="-903098" lat="70.8433361199" lon="24.751110959">
		<tag k="name" v="Bakfjordvannet - Báhkajávri" />
		<tag k="name:no" v="Bakfjordvannet" />
		<tag k="name:se" v="Báhkajávri" />
		<tag k="natural" v="water" />
		<tag k="old_name:se" v="Bakkajavri" />
		<tag k="ssr:stedsnr" v="141418" />
		<tag k="water" v="lake" />
	</node>
	<node id="-903097" lat="70.8523027865" lon="24.7200109645">
		<tag k="name" v="Trollvannet" />
		<tag k="natural" v="water" />
		<tag k="ssr:stedsnr" v="141415" />
	</node>
	<node id="-903095" lat="70.8626861136" lon="25.1665609318">
		<tag k="name" v="Hálddavuolesjávrrit" />
		<tag k="name:se" v="Hálddavuolesjávrrit" />
		<tag k="natural" v="water" />
		<tag k="old_name:se" v="Haldavuolesjavrit" />
		<tag k="ssr:stedsnr" v="141413" />
		<tag k="water" v="lake" />
	</node>
	<node id="-903093" lat="70.8888416758" lon="25.1733637151">
		<tag k="name" v="Sismárjávrrit" />
		<tag k="name:se" v="Sismárjávrrit" />
		<tag k="natural" v="water" />
		<tag k="old_name:se" v="Sismarjavrit" />
		<tag k="ssr:stedsnr" v="141400" />
		<tag k="water" v="lake" />
	</node>
	<node id="-903155" lat="70.7784444478" lon="25.2655248033">
		<tag k="name" v="Bealjáidjohka" />
		<tag k="name:se" v="Bealjáidjohka" />
		<tag k="old_name:se" v="Bæljaidjåkka" />
		<tag k="ssr:stedsnr" v="202097" />
		<tag k="waterway" v="river" />
	</node>
	<node id="-903600" lat="70.9440916736" lon="25.0109526283">
		<tag k="name" v="Reinelva" />
		<tag k="ssr:stedsnr" v="627442" />
		<tag k="waterway" v="stream" />
	</node>
	<node id="-903087" lat="70.8170555556" lon="24.4168998665">
		<tag k="alt_name" v="Fjellvatnet, nedre" />
		<tag k="name" v="Nedre Fjellvatnet" />
		<tag k="natural" v="water" />
		<tag k="ssr:stedsnr" v="141361" />
		<tag k="water" v="lake" />
	</node>
	<node id="-903086" lat="70.8106750015" lon="24.2923693243">
		<tag k="name" v="Elvevikvatna" />
		<tag k="natural" v="water" />
		<tag k="ssr:stedsnr" v="141352" />
	</node>
	<node id="-903085" lat="70.7571777812" lon="24.4234415465">
		<tag k="name" v="Ollošjávrrit" />
		<tag k="name:se" v="Ollošjávrrit" />
		<tag k="natural" v="water" />
		<tag k="old_name:se" v="Ållušjavrit" />
		<tag k="ssr:stedsnr" v="141348" />
	</node>
	<node id="-903084" lat="70.7757583396" lon="24.6118442981">
		<tag k="name" v="Sørkjosvannet" />
		<tag k="natural" v="water" />
		<tag k="ssr:stedsnr" v="141337" />
	</node>
	<node id="-903593" lat="70.6968666697" lon="24.9610553751">
		<tag k="alt_name:no" v="Havvatnet, litle" />
		<tag k="name" v="Lille Havvannet - Bajit Áhpelanjávri" />
		<tag k="name:no" v="Lille Havvannet" />
		<tag k="name:se" v="Bajit Áhpelanjávri" />
		<tag k="natural" v="water" />
		<tag k="old_name:se" v="Appelanjavri bajit" />
		<tag k="ssr:stedsnr" v="626877" />
		<tag k="water" v="lake" />
	</node>
	<node id="-903592" lat="70.6456944456" lon="24.9524581591">
		<tag k="name" v="Siremáhtejogaš" />
		<tag k="name:se" v="Siremáhtejogaš" />
		<tag k="old_name:se" v="Siremattejågaš" />
		<tag k="ssr:stedsnr" v="626868" />
		<tag k="waterway" v="stream" />
	</node>
	<node id="-903591" lat="70.7468250075" lon="24.8359942885">
		<tag k="name" v="Ráššaláhkojávrrit" />
		<tag k="name:se" v="Ráššaláhkojávrrit" />
		<tag k="natural" v="water" />
		<tag k="old_name:se" v="Raššalakkujavrit;Rásseláhkojávrrit" />
		<tag k="ssr:stedsnr" v="626848" />
		<tag k="water" v="lake" />
	</node>
	<node id="-903587" lat="71.0662888934" lon="24.7386415361">
		<tag k="fixme" v="multiple name tags, choose one and add the other to alt_name" />
		<tag k="name" v="Akkarfjordvatn;Akkarfjordvatna" />
		<tag k="natural" v="water" />
		<tag k="ssr:stedsnr" v="626702" />
	</node>
	<node id="-902559" lat="71.0055305614" lon="23.9653248967">
		<tag k="name" v="Fjordbotnvannet" />
		<tag k="natural" v="water" />
		<tag k="ssr:stedsnr" v="687534" />
	</node>
	<node id="-902555" lat="70.7751611184" lon="24.6830526284">
		<tag k="name" v="Muorraljohka" />
		<tag k="name:se" v="Muorraljohka" />
		<tag k="old_name:se" v="Muorraljåkka" />
		<tag k="ssr:stedsnr" v="687485" />
		<tag k="waterway" v="river" />
	</node>
	<node id="-902553" lat="70.9130694515" lon="24.9492276285">
		<tag k="name" v="Njoalomuotki" />
		<tag k="name:se" v="Njoalomuotki" />
		<tag k="natural" v="strait" />
		<tag k="old_name:se" v="Njoalumuotki" />
		<tag k="ssr:stedsnr" v="687424" />
	</node>
	<node id="-902575" lat="70.7494500056" lon="25.2209998118">
		<tag k="name" v="Oalanjávri" />
		<tag k="name:se" v="Oalanjávri" />
		<tag k="natural" v="water" />
		<tag k="old_name:se" v="Oalanjavri" />
		<tag k="ssr:stedsnr" v="687970" />
		<tag k="water" v="lake" />
	</node>
	<node id="-903568" lat="70.7761694482" lon="25.177660939">
		<tag k="name" v="Lagešjávri" />
		<tag k="name:se" v="Lagešjávri" />
		<tag k="natural" v="water" />
		<tag k="old_name:se" v="Lagešjavri" />
		<tag k="ssr:stedsnr" v="626532" />
	</node>
	<node id="-903566" lat="70.7864944477" lon="24.7113359727">
		<tag k="name" v="Látnjajávri" />
		<tag k="name:se" v="Látnjajávri" />
		<tag k="natural" v="water" />
		<tag k="old_name:se" v="Ladnjajavri" />
		<tag k="ssr:stedsnr" v="626526" />
	</node>
	<node id="-903565" lat="70.8060055634" lon="25.027669285">
		<tag k="name" v="Stuorraguotku" />
		<tag k="name:se" v="Stuorraguotku" />
		<tag k="natural" v="strait" />
		<tag k="old_name:se" v="Stuorraguotko" />
		<tag k="ssr:stedsnr" v="626516" />
	</node>
	<node id="-903560" lat="70.9118666675" lon="24.8931803878">
		<tag k="name" v="Risvikvannet - Suolojávri" />
		<tag k="name:no" v="Risvikvannet" />
		<tag k="name:se" v="Suolojávri" />
		<tag k="natural" v="water" />
		<tag k="old_name:se" v="Suolujavri" />
		<tag k="ssr:stedsnr" v="626468" />
		<tag k="water" v="lake" />
	</node>
	<node id="-903797" lat="71.0070361168" lon="23.9076082543">
		<tag k="name" v="Lilleskøytebanen" />
		<tag k="natural" v="water" />
		<tag k="ssr:stedsnr" v="813459" />
	</node>
	<node id="-903556" lat="70.8632611166" lon="24.7913831976">
		<tag k="name" v="Finnvannet" />
		<tag k="natural" v="water" />
		<tag k="ssr:stedsnr" v="626433" />
	</node>
	<node id="-902531" lat="70.9635638911" lon="24.1012165516">
		<tag k="name" v="Gulivannet" />
		<tag k="natural" v="water" />
		<tag k="ssr:stedsnr" v="687182" />
	</node>
	<node id="-902530" lat="70.9275361158" lon="25.4118081506">
>>>>>>> e1d4bc35ff8a6074a6f2e91616a996b547c36f15
		<tag k="name" v="Guhkesjávri" />
		<tag k="name:se" v="Guhkesjávri" />
		<tag k="natural" v="water" />
		<tag k="old_name:se" v="Gukkesjavri" />
<<<<<<< HEAD
		<tag k="ssr:stedsnr" v="384799" />
		<tag k="water" v="lake" />
	</node>
	<node lat="70.77048333854499" lon="24.55768599042851" id="-38185">
		<tag k="name" v="Slåtteneidet" />
		<tag k="place" v="locality" />
		<tag k="ssr:stedsnr" v="389502" />
	</node>
	<node lat="70.81657500571421" lon="24.459699868419698" id="-38191">
		<tag k="name" v="Daudmannsvannet" />
		<tag k="natural" v="water" />
		<tag k="ssr:stedsnr" v="444322" />
	</node>
	<node lat="70.99591389349128" lon="23.9666332341096" id="-38199">
		<tag k="alt_name" v="Skarvatnet" />
		<tag k="name" v="Skardvatnet" />
		<tag k="natural" v="water" />
		<tag k="ssr:stedsnr" v="445184" />
	</node>
	<node lat="70.78925278299576" lon="24.4684998719965" id="-38203">
		<tag k="alt_name" v="Saltfjellvatnet, øvre" />
		<tag k="name" v="Øvre Saltfjellvatnet" />
		<tag k="natural" v="water" />
		<tag k="ssr:stedsnr" v="445380" />
	</node>
	<node lat="70.81716389576256" lon="24.985838737043256" id="-38206">
		<tag k="name" v="Ruvžaguotkkojávri" />
		<tag k="name:se" v="Ruvžaguotkkojávri" />
		<tag k="natural" v="water" />
		<tag k="old_name:se" v="Ruvžaguotkujavri" />
		<tag k="ssr:stedsnr" v="445490" />
	</node>
	<node lat="70.84320000489407" lon="25.09607759893442" id="-38208">
		<tag k="name" v="Guotkkojávrrit" />
		<tag k="name:se" v="Guotkkojávrrit" />
		<tag k="natural" v="water" />
		<tag k="old_name:se" v="Guotkujavrit;Guotkujávrrit" />
		<tag k="ssr:stedsnr" v="445498" />
		<tag k="water" v="lake" />
	</node>
	<node lat="70.79834445312855" lon="25.129208147699856" id="-38209">
		<tag k="name" v="Suolojávri" />
		<tag k="name:se" v="Suolojávri" />
		<tag k="natural" v="water" />
		<tag k="old_name:se" v="Suolujavri" />
		<tag k="ssr:stedsnr" v="445502" />
	</node>
	<node lat="70.98679444596692" lon="24.6500137482348" id="-38220">
		<tag k="name" v="Kvalvikvannet" />
		<tag k="natural" v="water" />
		<tag k="ssr:stedsnr" v="449386" />
		<tag k="water" v="lake" />
	</node>
	<node lat="70.94680000472086" lon="24.183224882360438" id="-38228">
		<tag k="name" v="Lomvannet" />
		<tag k="natural" v="water" />
		<tag k="ssr:stedsnr" v="505210" />
	</node>
	<node lat="70.85758889686461" lon="24.932666512127582" id="-38230">
		<tag k="name" v="Hamnevannet" />
		<tag k="natural" v="water" />
		<tag k="ssr:stedsnr" v="505405" />
		<tag k="water" v="lake" />
	</node>
	<node lat="71.07765000033436" lon="24.792527632134853" id="-38248">
		<tag k="name" v="Russesandvannet" />
		<tag k="natural" v="water" />
		<tag k="ssr:stedsnr" v="514018" />
	</node>
	<node lat="70.9275361158015" lon="25.411808150619585" id="-38251">
		<tag k="name" v="Guhkesjávri" />
		<tag k="name:se" v="Guhkesjávri" />
		<tag k="natural" v="water" />
		<tag k="old_name:se" v="Gukkesjavri" />
		<tag k="ssr:stedsnr" v="687048" />
	</node>
	<node lat="70.96356389114507" lon="24.101216551603937" id="-38252">
		<tag k="name" v="Gulivannet" />
		<tag k="natural" v="water" />
		<tag k="ssr:stedsnr" v="687182" />
	</node>
	<node lat="70.913069451498" lon="24.94922762851248" id="-38269">
		<tag k="name" v="Njoalomuotki" />
		<tag k="name:se" v="Njoalomuotki" />
		<tag k="old_name:se" v="Njoalumuotki" />
		<tag k="place" v="locality" />
		<tag k="ssr:stedsnr" v="687424" />
	</node>
	<node lat="71.00553056140629" lon="23.96532489666905" id="-38273">
		<tag k="name" v="Fjordbotnvannet" />
		<tag k="natural" v="water" />
		<tag k="ssr:stedsnr" v="687534" />
	</node>
	<node lat="70.74945000560813" lon="25.220999811793963" id="-38282">
		<tag k="name" v="Oalanjávri" />
		<tag k="name:se" v="Oalanjávri" />
		<tag k="natural" v="water" />
		<tag k="old_name:se" v="Oalanjavri" />
		<tag k="ssr:stedsnr" v="687970" />
		<tag k="water" v="lake" />
	</node>
	<node lat="70.7472111146687" lon="25.284016463048264" id="-38283">
		<tag k="name" v="Bealjáidjávri" />
		<tag k="name:se" v="Bealjáidjávri" />
		<tag k="natural" v="water" />
		<tag k="old_name:se" v="Bælljaidjavri" />
		<tag k="ssr:stedsnr" v="687972" />
		<tag k="water" v="lake" />
	</node>
	<node lat="70.75349444640187" lon="24.98278594790712" id="-38288">
		<tag k="name" v="Unna Ráššajávri" />
		<tag k="name:se" v="Unna Ráššajávri" />
		<tag k="natural" v="water" />
		<tag k="old_name:se" v="Raššajavri, unna" />
		<tag k="ssr:stedsnr" v="688501" />
		<tag k="water" v="lake" />
	</node>
	<node lat="70.67527500720212" lon="25.033197057550513" id="-38298">
		<tag k="name" v="Divgačohkajávri" />
		<tag k="name:se" v="Divgačohkajávri" />
		<tag k="natural" v="water" />
		<tag k="old_name:se" v="Divgačåkkajavri" />
		<tag k="ssr:stedsnr" v="688860" />
	</node>
	<node lat="70.67697778363859" lon="24.766080393698374" id="-38300">
		<tag k="name" v="Lillefjordvannet - Uhcavuonašjávri" />
		<tag k="name:no" v="Lillefjordvannet" />
		<tag k="name:se" v="Uhcavuonašjávri" />
		<tag k="natural" v="water" />
		<tag k="ssr:stedsnr" v="688875" />
	</node>
	<node lat="70.9618750037949" lon="24.151394340180218" id="-38305">
		<tag k="name" v="Kvalvikvannet" />
		<tag k="natural" v="water" />
		<tag k="ssr:stedsnr" v="565168" />
		<tag k="water" v="lake" />
	</node>
	<node lat="70.83024722781029" lon="24.382980448694454" id="-38307">
		<tag k="name" v="Stjernvannet" />
		<tag k="natural" v="water" />
		<tag k="ssr:stedsnr" v="565264" />
	</node>
	<node lat="70.83758611344516" lon="24.40679986318211" id="-38308">
		<tag k="name" v="Lille Rundvannet" />
		<tag k="natural" v="water" />
		<tag k="ssr:stedsnr" v="565272" />
	</node>
	<node lat="70.80087778412036" lon="25.32328870835775" id="-38312">
		<tag k="name" v="Austerbotnelva - Bealččajohka" />
		<tag k="name:no" v="Austerbotnelva" />
		<tag k="name:se" v="Bealččajohka" />
		<tag k="old_name:se" v="Bælčajåkka" />
		<tag k="ssr:stedsnr" v="566106" />
		<tag k="waterway" v="river" />
	</node>
	<node lat="70.83784167102425" lon="24.709235979652085" id="-38315">
		<tag k="name" v="Laksevannet" />
		<tag k="natural" v="water" />
		<tag k="ssr:stedsnr" v="566412" />
	</node>
	<node lat="71.05482500195912" lon="24.004905452298342" id="-38323">
		<tag k="name" v="Lemelva" />
		<tag k="ssr:stedsnr" v="570014" />
		<tag k="waterway" v="stream" />
	</node>
	<node lat="70.70154167049316" lon="24.667524863551815" id="-38336">
		<tag k="name" v="Evaldelva" />
		<tag k="ssr:stedsnr" v="575744" />
		<tag k="waterway" v="stream" />
	</node>
	<node lat="70.6833416682656" lon="24.642624844223747" id="-38337">
		<tag k="name" v="Holmevannet" />
		<tag k="natural" v="water" />
		<tag k="ssr:stedsnr" v="575747" />
	</node>
	<node lat="70.72047500664928" lon="24.546549878393535" id="-38347">
		<tag k="name" v="Akopvannet" />
		<tag k="natural" v="water" />
		<tag k="ssr:stedsnr" v="696750" />
	</node>
	<node lat="70.7673361191067" lon="24.355849868477602" id="-38360">
		<tag k="name" v="Andvannet" />
		<tag k="natural" v="water" />
		<tag k="ssr:stedsnr" v="626353" />
	</node>
	<node lat="71.0662888933859" lon="24.73864153608622" id="-38367">
		<tag k="fixme" v="multiple name tags, choose one and add the other to alt_name" />
		<tag k="name" v="Akkarfjordvatn;Akkarfjordvatna" />
		<tag k="natural" v="water" />
		<tag k="ssr:stedsnr" v="626702" />
	</node>
	<node lat="70.74682500745816" lon="24.83599428846405" id="-38368">
		<tag k="name" v="Ráššaláhkojávrrit" />
		<tag k="name:se" v="Ráššaláhkojávrrit" />
		<tag k="natural" v="water" />
		<tag k="old_name:se" v="Raššalakkujavrit;Rásseláhkojávrrit" />
		<tag k="ssr:stedsnr" v="626848" />
		<tag k="water" v="lake" />
	</node>
	<node lat="70.77036389016803" lon="24.275091557760867" id="-38388">
		<tag k="name" v="Laukelva" />
		<tag k="ssr:stedsnr" v="687336" />
		<tag k="waterway" v="stream" />
	</node>
	<node lat="70.77516111837274" lon="24.68305262838903" id="-38391">
		<tag k="name" v="Muorraljohka" />
		<tag k="name:se" v="Muorraljohka" />
		<tag k="old_name:se" v="Muorraljåkka" />
		<tag k="ssr:stedsnr" v="687485" />
		<tag k="waterway" v="river" />
	</node>
	<node lat="70.99844722302218" lon="24.644013744123683" id="-38414">
		<tag k="name" v="Storvannet" />
		<tag k="natural" v="water" />
		<tag k="ssr:stedsnr" v="692394" />
		<tag k="water" v="lake" />
	</node>
	<node lat="70.78281111520312" lon="24.592013745472496" id="-38416">
		<tag k="name" v="Førstevannet" />
		<tag k="natural" v="water" />
		<tag k="ssr:stedsnr" v="693506" />
	</node>
	<node lat="71.02244166855407" lon="24.02472213250547" id="-38430">
		<tag k="name" v="Perselva" />
		<tag k="ssr:stedsnr" v="898915" />
		<tag k="waterway" v="river" />
	</node>
	<node lat="70.79627500451205" lon="25.22187481648736" id="-38433">
		<tag k="name" v="Vesterelva" />
		<tag k="ssr:stedsnr" v="747504" />
		<tag k="waterway" v="river" />
	</node>
	<node lat="70.99654722832462" lon="23.9281943401608" id="-38439">
		<tag k="fixme" v="multiple name tags, choose one and add the other to alt_name" />
		<tag k="name" v="Storvannet;Hagerupvannet" />
		<tag k="natural" v="water" />
		<tag k="ssr:stedsnr" v="748181" />
		<tag k="water" v="lake" />
	</node>
	<node lat="70.88895555972803" lon="24.804072081042577" id="-38450">
		<tag k="name" v="Molvikvannet" />
		<tag k="natural" v="water" />
		<tag k="ssr:stedsnr" v="748373" />
	</node>
	<node lat="70.78649722943602" lon="24.616480418209438" id="-38463">
		<tag k="name" v="Snefjordelva" />
		<tag k="ssr:stedsnr" v="754517" />
		<tag k="waterway" v="river" />
	</node>
	<node lat="70.77441667371335" lon="25.22444426563934" id="-38473">
		<tag k="name" v="Jođáhatjávrrit" />
		<tag k="name:se" v="Jođáhatjávrrit" />
		<tag k="natural" v="water" />
		<tag k="old_name:se" v="Jådahatjavrit" />
		<tag k="ssr:stedsnr" v="809104" />
		<tag k="water" v="lake" />
	</node>
	<node lat="70.79986944886112" lon="24.70143875725992" id="-38476">
		<tag k="name" v="Iŋggájávri" />
		<tag k="name:se" v="Iŋggájávri" />
		<tag k="natural" v="water" />
		<tag k="old_name:se" v="Iŋgajavri;Inkajavri" />
		<tag k="ssr:stedsnr" v="809502" />
	</node>
	<node lat="70.82687500430097" lon="24.41004709141597" id="-38477">
		<tag k="name" v="Fartøyvikelva" />
		<tag k="ssr:stedsnr" v="809383" />
		<tag k="waterway" v="stream" />
	</node>
	<node lat="70.67995000754652" lon="24.840997069891742" id="-38481">
		<tag k="name" v="Havvannet - Vuolit Áhpelanjávri" />
		<tag k="name:no" v="Havvannet" />
		<tag k="name:se" v="Vuolit Áhpelanjávri" />
		<tag k="natural" v="water" />
		<tag k="old_name:se" v="Appelanjavri, vuolit;Vuolit Áhpelaujávri" />
		<tag k="ssr:stedsnr" v="809888" />
		<tag k="water" v="lake" />
	</node>
	<node lat="70.96744167223996" lon="24.69575542969669" id="-38493">
		<tag k="name" v="Svartvannet" />
		<tag k="natural" v="water" />
		<tag k="ssr:stedsnr" v="814439" />
		<tag k="water" v="lake" />
	</node>
	<node lat="70.96574722843435" lon="24.6943165298416" id="-38494">
		<tag k="name" v="Lillevannet" />
		<tag k="natural" v="water" />
		<tag k="ssr:stedsnr" v="814441" />
	</node>
	<node lat="70.995308332415" lon="24.19050822616672" id="-38496">
		<tag k="name" v="Småvatnan" />
		<tag k="natural" v="water" />
		<tag k="ssr:stedsnr" v="815471" />
	</node>
	<node lat="70.77721111590625" lon="24.56511096443357" id="-38497">
		<tag k="name" v="Sandvannet" />
		<tag k="natural" v="water" />
		<tag k="ssr:stedsnr" v="815476" />
	</node>
	<node lat="70.95393333356331" lon="23.973736016899615" id="-38503">
		<tag k="name" v="Storvannet" />
		<tag k="natural" v="water" />
		<tag k="ssr:stedsnr" v="930138" />
		<tag k="water" v="lake" />
	</node>
	<node lat="70.8309722219051" lon="24.270644330121527" id="-38506">
		<tag k="name" v="Grytvikvannet" />
=======
		<tag k="ssr:stedsnr" v="687048" />
	</node>
	<node id="-903552" lat="70.7673361191" lon="24.3558498685">
		<tag k="name" v="Andvannet" />
		<tag k="natural" v="water" />
		<tag k="ssr:stedsnr" v="626353" />
	</node>
	<node id="-902805" lat="70.9632500071" lon="25.3984886915">
		<tag k="name" v="Slettelva" />
		<tag k="ssr:stedsnr" v="870472" />
		<tag k="waterway" v="stream" />
	</node>
	<node id="-902634" lat="70.7835583348" lon="24.6710526384">
		<tag k="name" v="Sirielva" />
		<tag k="ssr:stedsnr" v="571496" />
		<tag k="waterway" v="stream" />
	</node>
	<node id="-902225" lat="70.8454583407" lon="24.952674839">
		<tag k="name" v="Svartfossen" />
		<tag k="natural" v="waterfall" />
		<tag k="ssr:stedsnr" v="269386" />
	</node>
	<node id="-903315" lat="70.7204166689" lon="25.0029720438">
		<tag k="name" v="Bajit Rávdojávri" />
		<tag k="name:se" v="Bajit Rávdojávri" />
		<tag k="natural" v="water" />
		<tag k="old_name:se" v="Ravduljavri, bajit" />
		<tag k="ssr:stedsnr" v="323829" />
	</node>
	<node id="-903023" lat="70.7931555547" lon="24.6543693057">
		<tag k="name" v="Fakkonbakkevannet" />
		<tag k="natural" v="water" />
		<tag k="ssr:stedsnr" v="86424" />
		<tag k="water" v="lake" />
	</node>
	<node id="-902509" lat="70.7983444531" lon="25.1292081477">
		<tag k="name" v="Suolojávri" />
		<tag k="name:se" v="Suolojávri" />
		<tag k="natural" v="water" />
		<tag k="old_name:se" v="Suolujavri" />
		<tag k="ssr:stedsnr" v="445502" />
	</node>
	<node id="-902506" lat="70.8291527829" lon="24.6634387414">
		<tag k="alt_name" v="Moskevatnet" />
		<tag k="name" v="Moskevatna" />
		<tag k="natural" v="water" />
		<tag k="ssr:stedsnr" v="445421" />
		<tag k="water" v="lake" />
	</node>
	<node id="-903860" lat="71.0575222205" lon="24.7760943157">
		<tag k="name" v="Rundvannet" />
		<tag k="natural" v="water" />
		<tag k="ssr:stedsnr" v="869713" />
	</node>
	<node id="-902503" lat="70.9787749987" lon="23.96394157">
		<tag k="name" v="Elvedalsvannet" />
		<tag k="natural" v="water" />
		<tag k="ssr:stedsnr" v="445138" />
	</node>
	<node id="-903014" lat="70.6678861148" lon="24.7215026215">
		<tag k="name" v="Suolojávri" />
		<tag k="name:se" v="Suolojávri" />
		<tag k="natural" v="water" />
		<tag k="old_name:se" v="Suolujavri" />
		<tag k="ssr:stedsnr" v="81879" />
	</node>
	<node id="-903825" lat="70.9985027784" lon="24.0628110229">
		<tag k="name" v="Risnasvannet" />
		<tag k="natural" v="water" />
		<tag k="ssr:stedsnr" v="869258" />
	</node>
	<node id="-903522" lat="70.6833416683" lon="24.6426248442">
		<tag k="name" v="Holmevannet" />
		<tag k="natural" v="water" />
		<tag k="ssr:stedsnr" v="575747" />
	</node>
	<node id="-903521" lat="70.7015416705" lon="24.6675248636">
		<tag k="name" v="Evaldelva" />
		<tag k="ssr:stedsnr" v="575744" />
		<tag k="waterway" v="stream" />
	</node>
	<node id="-903520" lat="70.7624361109" lon="24.544283198">
		<tag k="name" v="Tverrelv" />
		<tag k="ssr:stedsnr" v="575740" />
		<tag k="waterway" v="stream" />
	</node>
	<node id="-902544" lat="70.7703638902" lon="24.2750915578">
		<tag k="name" v="Laukelva" />
		<tag k="ssr:stedsnr" v="687336" />
		<tag k="waterway" v="stream" />
	</node>
	<node id="-902494" lat="70.717513891" lon="25.1317442619">
		<tag k="name" v="Gáranasjávrrit" />
		<tag k="name:se" v="Gáranasjávrrit" />
		<tag k="natural" v="water" />
		<tag k="old_name:se" v="Garanasjavrit" />
		<tag k="ssr:stedsnr" v="444822" />
		<tag k="water" v="lake" />
	</node>
	<node id="-902490" lat="71.0776500003" lon="24.7925276321">
		<tag k="name" v="Russesandvannet" />
		<tag k="natural" v="water" />
		<tag k="ssr:stedsnr" v="514018" />
	</node>
	<node id="-902487" lat="70.8548500027" lon="24.9739803927">
		<tag k="name" v="Roggevannet" />
		<tag k="natural" v="water" />
		<tag k="ssr:stedsnr" v="512400" />
		<tag k="water" v="lake" />
	</node>
	<node id="-902998" lat="70.8009555583" lon="24.6661276469">
		<tag k="name" v="Krokelva - Sieiddejohka" />
		<tag k="name:no" v="Krokelva" />
		<tag k="name:se" v="Sieiddejohka" />
		<tag k="old_name:se" v="Sieidejåkka" />
		<tag k="ssr:stedsnr" v="81539" />
		<tag k="waterway" v="river" />
	</node>
	<node id="-902485" lat="70.7768000057" lon="24.5764081877">
		<tag k="name" v="Andrevannet" />
		<tag k="natural" v="water" />
		<tag k="ssr:stedsnr" v="511474" />
		<tag k="water" v="lake" />
	</node>
	<node id="-902994" lat="70.7548000086" lon="25.1331998247">
		<tag k="name" v="Mohkkejávri" />
		<tag k="name:se" v="Mohkkejávri" />
		<tag k="natural" v="water" />
		<tag k="old_name:se" v="Måkkejavri;Mohkejávri" />
		<tag k="ssr:stedsnr" v="81473" />
		<tag k="water" v="lake" />
	</node>
	<node id="-903504" lat="71.054825002" lon="24.0049054523">
		<tag k="name" v="Lemelva" />
		<tag k="ssr:stedsnr" v="570014" />
		<tag k="waterway" v="stream" />
	</node>
	<node id="-902478" lat="70.7817861131" lon="24.5628609836">
		<tag k="name" v="Dalvannet" />
		<tag k="natural" v="water" />
		<tag k="ssr:stedsnr" v="511471" />
		<tag k="water" v="lake" />
	</node>
	<node id="-902988" lat="70.7902666668" lon="24.5534387538">
		<tag k="alt_name" v="Skavikvatnet" />
		<tag k="name" v="Skavvikvatnet" />
		<tag k="natural" v="water" />
		<tag k="ssr:stedsnr" v="81390" />
	</node>
	<node id="-902882" lat="70.7898305616" lon="25.1820248206">
		<tag k="name" v="Báhpagorži" />
		<tag k="name:se" v="Báhpagorži" />
		<tag k="natural" v="waterfall" />
		<tag k="old_name:se" v="Rappagårži" />
		<tag k="ssr:stedsnr" v="20484" />
	</node>
	<node id="-902986" lat="70.757277785" lon="24.3751109901">
		<tag k="name" v="Goahtejávri" />
		<tag k="name:se" v="Goahtejávri" />
		<tag k="natural" v="water" />
		<tag k="old_name:se" v="Goattejavri" />
		<tag k="ssr:stedsnr" v="81366" />
	</node>
	<node id="-903497" lat="70.684850005" lon="24.8780637189">
		<tag k="name" v="Ráššanjárga" />
		<tag k="name:se" v="Ráššanjárga" />
		<tag k="natural" v="cape" />
		<tag k="old_name:se" v="Raššanjarga" />
		<tag k="ssr:stedsnr" v="566835" />
	</node>
	<node id="-902983" lat="70.7838472208" lon="24.3602193306">
		<tag k="name" v="Fádnojuovašjávrrit" />
		<tag k="name:se" v="Fádnojuovašjávrrit" />
		<tag k="natural" v="water" />
		<tag k="old_name:se" v="Fadnujuovašjavrit" />
		<tag k="ssr:stedsnr" v="81349" />
		<tag k="water" v="lake" />
	</node>
	<node id="-902982" lat="70.7754805619" lon="24.566335967">
		<tag k="fixme" v="multiple name tags, choose one and add the other to alt_name" />
		<tag k="name" v="Langvannet;Smalvannet" />
		<tag k="natural" v="water" />
		<tag k="ssr:stedsnr" v="81345" />
	</node>
	<node id="-902205" lat="70.7701444479" lon="25.0989109465">
		<tag k="name" v="Suolojávri" />
		<tag k="name:se" v="Suolojávri" />
		<tag k="natural" v="water" />
		<tag k="old_name:se" v="Suolujavri" />
		<tag k="ssr:stedsnr" v="263528" />
	</node>
	<node id="-903487" lat="70.8095555633" lon="25.0100664963">
		<tag k="name" v="Stuorraguotkkojávri" />
		<tag k="name:se" v="Stuorraguotkkojávri" />
		<tag k="natural" v="water" />
		<tag k="old_name:se" v="Stuorraguotkujavri" />
		<tag k="ssr:stedsnr" v="566490" />
		<tag k="water" v="lake" />
	</node>
	<node id="-903486" lat="70.8040027847" lon="24.9007554098">
		<tag k="name" v="Ráššavuolesjávrrit" />
		<tag k="name:se" v="Ráššavuolesjávrrit" />
		<tag k="natural" v="water" />
		<tag k="old_name:se" v="Raššavuolesjavrit" />
		<tag k="ssr:stedsnr" v="566487" />
	</node>
	<node id="-902460" lat="70.7209083404" lon="25.0305331642">
		<tag k="name" v="Vilgesráššajohka" />
		<tag k="name:se" v="Vilgesráššajohka" />
		<tag k="old_name:se" v="Vilgesraššajåkka" />
		<tag k="ssr:stedsnr" v="505831" />
		<tag k="waterway" v="river" />
	</node>
	<node id="-903483" lat="70.7578861173" lon="24.3879276691">
		<tag k="alt_name" v="Sauhamnvatnet, in" />
		<tag k="name" v="Indre Sauhamnvatnet" />
		<tag k="natural" v="water" />
		<tag k="ssr:stedsnr" v="566351" />
	</node>
	<node id="-903482" lat="70.7547444508" lon="24.5446942992">
		<tag k="name" v="Ørretvannet" />
		<tag k="natural" v="water" />
		<tag k="ssr:stedsnr" v="566350" />
		<tag k="water" v="lake" />
	</node>
	<node id="-902214" lat="70.9623055593" lon="24.05218047">
		<tag k="name" v="Langfjordelva" />
		<tag k="ssr:stedsnr" v="266197" />
		<tag k="waterway" v="river" />
	</node>
	<node id="-902281" lat="70.8898861116" lon="24.8448748394">
		<tag k="name" v="Vilgesjávrrit" />
		<tag k="name:se" v="Vilgesjávrrit" />
		<tag k="natural" v="water" />
		<tag k="old_name:se" v="Vilgesjavrit" />
		<tag k="ssr:stedsnr" v="444364" />
	</node>
	<node id="-902964" lat="70.7198111173" lon="25.23576093">
		<tag k="name" v="Golbmajávrrit" />
		<tag k="name:se" v="Golbmajávrrit" />
		<tag k="natural" v="water" />
		<tag k="old_name:se" v="Gålbmajavrit" />
		<tag k="ssr:stedsnr" v="80949" />
		<tag k="water" v="lake" />
	</node>
	<node id="-903219" lat="70.7379805632" lon="24.712360964">
		<tag k="name" v="Bajit Čáhppesjávri" />
		<tag k="name:se" v="Bajit Čáhppesjávri" />
		<tag k="natural" v="water" />
		<tag k="old_name:se" v="Čappesjavri, bajit" />
		<tag k="ssr:stedsnr" v="202845" />
		<tag k="water" v="lake" />
	</node>
	<node id="-903472" lat="70.8008777841" lon="25.3232887084">
		<tag k="name" v="Austerbotnelva - Bealččajohka" />
		<tag k="name:no" v="Austerbotnelva" />
		<tag k="name:se" v="Bealččajohka" />
		<tag k="old_name:se" v="Bælčajåkka" />
		<tag k="ssr:stedsnr" v="566106" />
		<tag k="waterway" v="river" />
	</node>
	<node id="-902435" lat="70.8575888969" lon="24.9326665121">
		<tag k="name" v="Hamnevannet" />
		<tag k="natural" v="water" />
		<tag k="ssr:stedsnr" v="505405" />
		<tag k="water" v="lake" />
	</node>
	<node id="-902432" lat="70.7989527803" lon="24.3005526645">
		<tag k="name" v="Stuorrajávrrit" />
		<tag k="name:se" v="Stuorrajávrrit" />
		<tag k="natural" v="water" />
		<tag k="old_name:se" v="Stuorrajavrit" />
		<tag k="ssr:stedsnr" v="505379" />
		<tag k="water" v="lake" />
	</node>
	<node id="-902430" lat="70.7595638964" lon="24.5153526501">
		<tag k="name" v="Barnevannet" />
		<tag k="natural" v="water" />
		<tag k="ssr:stedsnr" v="505353" />
	</node>
	<node id="-902429" lat="70.981377781" lon="24.6571081884">
		<tag k="alt_name" v="Gurihollvatnet" />
		<tag k="name" v="Guriholvatnet" />
		<tag k="natural" v="water" />
		<tag k="ssr:stedsnr" v="505347" />
	</node>
	<node id="-903363" lat="70.8128194475" lon="24.4143054212">
		<tag k="alt_name" v="Fjellvatnet, øvre" />
		<tag k="name" v="Øvre Fjellvatnet" />
		<tag k="natural" v="water" />
		<tag k="ssr:stedsnr" v="383368" />
		<tag k="water" v="lake" />
	</node>
	<node id="-903449" lat="70.8375861134" lon="24.4067998632">
		<tag k="name" v="Lille Rundvannet" />
		<tag k="natural" v="water" />
		<tag k="ssr:stedsnr" v="565272" />
	</node>
	<node id="-903448" lat="70.8302472278" lon="24.3829804487">
		<tag k="name" v="Stjernvannet" />
>>>>>>> e1d4bc35ff8a6074a6f2e91616a996b547c36f15
		<tag k="natural" v="water" />
		<tag k="ssr:stedsnr" v="565264" />
	</node>
<<<<<<< HEAD
	<node lat="70.83972778504916" lon="24.42504986994428" id="-38507">
		<tag k="name" v="Grasvannet" />
		<tag k="natural" v="water" />
		<tag k="ssr:stedsnr" v="869307" />
	</node>
	<node lat="70.87053611115708" lon="24.911216511965495" id="-38512">
		<tag k="name" v="Djupvannet" />
		<tag k="natural" v="water" />
		<tag k="ssr:stedsnr" v="869429" />
	</node>
	<node lat="70.87112778216576" lon="24.931810966946543" id="-38513">
		<tag k="name" v="Isvannet" />
		<tag k="natural" v="water" />
		<tag k="ssr:stedsnr" v="869432" />
	</node>
	<node lat="70.83880278191188" lon="24.632460970893973" id="-38515">
		<tag k="name" v="Kobbevikvatna" />
		<tag k="natural" v="water" />
		<tag k="ssr:stedsnr" v="869442" />
	</node>
	<node lat="70.95429166752562" lon="24.024927683311756" id="-38522">
		<tag k="name" v="Kuvannet" />
		<tag k="natural" v="water" />
		<tag k="ssr:stedsnr" v="930192" />
	</node>
	<node lat="71.07771389112804" lon="24.106488776680298" id="-38523">
		<tag k="name" v="Storvannet" />
		<tag k="natural" v="water" />
		<tag k="ssr:stedsnr" v="869618" />
		<tag k="water" v="lake" />
	</node>
	<node lat="70.94405000496185" lon="24.15879433292901" id="-38527">
		<tag k="name" v="Staufjellvannet" />
		<tag k="natural" v="water" />
		<tag k="ssr:stedsnr" v="930201" />
	</node>
	<node lat="70.9345916726585" lon="24.02263601197667" id="-38528">
		<tag k="name" v="Gåsvikvannet" />
		<tag k="natural" v="water" />
		<tag k="ssr:stedsnr" v="930214" />
	</node>
	<node lat="70.97796388827284" lon="24.01838878823599" id="-38533">
		<tag k="alt_name" v="Solomvatnet" />
		<tag k="fixme" v="multiple name tags, choose one and add the other to alt_name" />
		<tag k="name" v="Solumvatnet;Storvatnet" />
		<tag k="natural" v="water" />
		<tag k="ssr:stedsnr" v="930239" />
	</node>
	<node lat="70.65227500031567" lon="24.791916514738734" id="-38535">
		<tag k="alt_name:no" v="Svaneelva" />
		<tag k="name" v="Svanelva - Njukčunjohka" />
		<tag k="name:no" v="Svanelva" />
		<tag k="name:se" v="Njukčunjohka" />
		<tag k="old_name:se" v="Njukčonjåkka" />
		<tag k="ssr:stedsnr" v="870022" />
		<tag k="waterway" v="river" />
	</node>
	<node lat="70.84285555663176" lon="24.414710973610692" id="-38541">
		<tag k="name" v="Nonstadvannet" />
		<tag k="natural" v="water" />
		<tag k="ssr:stedsnr" v="870306" />
		<tag k="water" v="lake" />
	</node>
	<node lat="70.68615556186484" lon="25.081727613280066" id="-38550">
		<tag k="name" v="Goahtečomajávri" />
		<tag k="name:se" v="Goahtečomajávri" />
		<tag k="natural" v="water" />
		<tag k="old_name:se" v="Goattečåmajavri" />
		<tag k="ssr:stedsnr" v="870869" />
	</node>
	<node lat="70.76573889672457" lon="24.546863747772022" id="-38555">
		<tag k="fixme" v="multiple name tags, choose one and add the other to alt_name" />
		<tag k="name" v="Langvannet;Storvannet" />
		<tag k="natural" v="water" />
		<tag k="ssr:stedsnr" v="930334" />
		<tag k="water" v="lake" />
	</node>
	<node lat="70.76393889373576" lon="24.489260986339605" id="-38556">
		<tag k="name" v="Storevannet" />
		<tag k="natural" v="water" />
		<tag k="ssr:stedsnr" v="930340" />
		<tag k="water" v="lake" />
	</node>
	<node lat="70.78895278110004" lon="24.387391543199133" id="-38558">
		<tag k="name" v="Gárdatjávri" />
		<tag k="name:se" v="Gárdatjávri" />
		<tag k="natural" v="water" />
		<tag k="old_name:se" v="Gardatjavri" />
		<tag k="ssr:stedsnr" v="930384" />
	</node>
	<node lat="70.85032222954293" lon="25.202216495349948" id="-38562">
		<tag k="name" v="Hálddajávri" />
		<tag k="name:se" v="Hálddajávri" />
		<tag k="natural" v="water" />
		<tag k="old_name:se" v="Haldajavri" />
		<tag k="ssr:stedsnr" v="930413" />
	</node>
	<node lat="70.78976389167981" lon="25.201988700873184" id="-38567">
		<tag k="name" v="Oarjjijávri" />
		<tag k="name:se" v="Oarjjijávri" />
		<tag k="natural" v="water" />
		<tag k="old_name:se" v="Oarjijavri" />
		<tag k="ssr:stedsnr" v="930515" />
	</node>
	<node lat="70.7612500060864" lon="24.708038741587643" id="-38568">
		<tag k="name" v="Stuorra Skoahpajávri" />
		<tag k="name:se" v="Stuorra Skoahpajávri" />
		<tag k="natural" v="water" />
		<tag k="old_name:se" v="Skoappajavri, stuorra" />
		<tag k="ssr:stedsnr" v="930520" />
	</node>
	<node lat="70.7368250023372" lon="24.73922207827441" id="-38584">
		<tag k="name" v="Vuolit Čáhppesjávri" />
		<tag k="name:se" v="Vuolit Čáhppesjávri" />
=======
	<node id="-902105" lat="70.808722221" lon="24.4607832153">
		<tag k="name" v="Lamvannet" />
		<tag k="natural" v="water" />
		<tag k="ssr:stedsnr" v="20336" />
	</node>
	<node id="-903443" lat="70.9618750038" lon="24.1513943402">
		<tag k="name" v="Kvalvikvannet" />
		<tag k="natural" v="water" />
		<tag k="ssr:stedsnr" v="565168" />
		<tag k="water" v="lake" />
	</node>
	<node id="-902929" lat="70.7598277773" lon="24.5436470889">
		<tag k="name" v="Slåtteneidet" />
		<tag k="natural" v="strait" />
		<tag k="ssr:stedsnr" v="29770" />
	</node>
	<node id="-902415" lat="70.9944888886" lon="23.9430749071">
		<tag k="fixme" v="multiple name tags, choose one and add the other to alt_name" />
		<tag k="name" v="Badevannet;Storbadevannet" />
		<tag k="natural" v="water" />
		<tag k="ssr:stedsnr" v="505194" />
		<tag k="water" v="lake" />
	</node>
	<node id="-902923" lat="70.9984166704" lon="24.9760303915">
		<tag k="name" v="Lillevannet" />
		<tag k="natural" v="water" />
		<tag k="ssr:stedsnr" v="29074" />
	</node>
	<node id="-902410" lat="70.9961277767" lon="23.9870749065">
		<tag k="fixme" v="multiple name tags, choose one and add the other to alt_name" />
		<tag k="name" v="Kallvatnet;Karivatnet" />
		<tag k="natural" v="water" />
		<tag k="ssr:stedsnr" v="505134" />
	</node>
	<node id="-902409" lat="70.775322224" lon="25.3323970261">
		<tag k="name" v="Gámasjávrrit" />
		<tag k="name:se" v="Gámasjávrrit" />
		<tag k="natural" v="water" />
		<tag k="old_name:se" v="Gamasjavrit" />
		<tag k="ssr:stedsnr" v="505096" />
		<tag k="water" v="lake" />
	</node>
	<node id="-902406" lat="70.7704833385" lon="24.5576859904">
		<tag k="name" v="Slåtteneidet" />
		<tag k="natural" v="strait" />
		<tag k="ssr:stedsnr" v="389502" />
	</node>
	<node id="-902358" lat="70.715966673" lon="24.5929748542">
		<tag k="name" v="Latterelva" />
		<tag k="ssr:stedsnr" v="272705" />
		<tag k="waterway" v="stream" />
	</node>
	<node id="-902855" lat="70.9504416678" lon="24.5944554285">
		<tag k="name" v="Sommarbuktvannet" />
		<tag k="natural" v="water" />
		<tag k="ssr:stedsnr" v="20200" />
	</node>
	<node id="-903415" lat="70.9756416699" lon="24.0086665662">
		<tag k="name" v="Lamvannet" />
		<tag k="natural" v="water" />
		<tag k="ssr:stedsnr" v="388231" />
	</node>
	<node id="-902902" lat="70.6275861157" lon="24.7545359606">
		<tag k="name" v="Rávdoljohka" />
		<tag k="name:se" v="Rávdoljohka" />
		<tag k="old_name:se" v="Ravduljåkka" />
		<tag k="ssr:stedsnr" v="20877" />
		<tag k="waterway" v="river" />
	</node>
	<node id="-902901" lat="70.6924666688" lon="25.1400581633">
		<tag k="name" v="Gahčahatjávri" />
		<tag k="name:se" v="Gahčahatjávri" />
		<tag k="natural" v="water" />
		<tag k="old_name:se" v="Gaččahatjavri" />
		<tag k="ssr:stedsnr" v="20876" />
		<tag k="water" v="lake" />
	</node>
	<node id="-902898" lat="70.6493638936" lon="24.9997664983">
		<tag k="name" v="Gorsajávri" />
		<tag k="name:se" v="Gorsajávri" />
		<tag k="natural" v="water" />
		<tag k="old_name:se" v="Gårsajavri" />
		<tag k="ssr:stedsnr" v="20865" />
	</node>
	<node id="-903409" lat="70.6278666736" lon="24.9556109345">
		<tag k="name" v="Jassadievajávri" />
		<tag k="name:se" v="Jassadievajávri" />
		<tag k="natural" v="water" />
		<tag k="old_name:se" v="Jassadievajavri" />
		<tag k="ssr:stedsnr" v="384834" />
	</node>
	<node id="-902896" lat="70.7404000066" lon="25.10623316">
		<tag k="name" v="Ráhpesvárjávri" />
		<tag k="name:se" v="Ráhpesvárjávri" />
		<tag k="natural" v="water" />
		<tag k="old_name:se" v="Rappesvarjavri" />
		<tag k="ssr:stedsnr" v="20841" />
		<tag k="water" v="lake" />
	</node>
	<node id="-903404" lat="70.7137944524" lon="25.1503748341">
		<tag k="name" v="Guhkesjávri" />
		<tag k="name:se" v="Guhkesjávri" />
		<tag k="natural" v="water" />
		<tag k="old_name:se" v="Gukkesjavri" />
		<tag k="ssr:stedsnr" v="384799" />
		<tag k="water" v="lake" />
	</node>
	<node id="-903399" lat="70.7630500023" lon="25.0124220423">
		<tag k="name" v="Stuorra Ráššajávri" />
		<tag k="name:se" v="Stuorra Ráššajávri" />
>>>>>>> e1d4bc35ff8a6074a6f2e91616a996b547c36f15
		<tag k="natural" v="water" />
		<tag k="old_name:se" v="Raššajavri, stuorra" />
		<tag k="ssr:stedsnr" v="384490" />
		<tag k="water" v="lake" />
	</node>
<<<<<<< HEAD
	<node lat="71.06842222762344" lon="24.740452655889076" id="-38589">
		<tag k="name" v="Lillevannet" />
		<tag k="natural" v="water" />
		<tag k="ssr:stedsnr" v="882903" />
	</node>
	<node lat="71.0079722261891" lon="23.906761012816084" id="-38590">
		<tag k="name" v="Storskøytebanen" />
		<tag k="natural" v="water" />
		<tag k="ssr:stedsnr" v="934472" />
	</node>
	<node lat="70.78344166748003" lon="24.512013760897247" id="-38605">
		<tag k="name" v="Ellenvannet" />
		<tag k="natural" v="water" />
		<tag k="ssr:stedsnr" v="930349" />
	</node>
	<node lat="70.87612500699188" lon="24.865880414451663" id="-38606">
		<tag k="name" v="Ruitojávri" />
		<tag k="name:se" v="Ruitojávri" />
		<tag k="natural" v="water" />
		<tag k="old_name:se" v="Ruitujavri" />
		<tag k="ssr:stedsnr" v="930399" />
	</node>
	<node lat="70.80255277971914" lon="24.936749851113003" id="-38611">
		<tag k="name" v="Ullováhjohka" />
		<tag k="name:se" v="Ullováhjohka" />
		<tag k="old_name:se" v="Ulluvagjåkka" />
		<tag k="ssr:stedsnr" v="930501" />
		<tag k="waterway" v="stream" />
	</node>
	<node lat="70.95044166780158" lon="24.594455428548557" id="-38632">
		<tag k="name" v="Sommarbuktvannet" />
		<tag k="natural" v="water" />
		<tag k="ssr:stedsnr" v="20200" />
	</node>
	<node lat="70.83655000530644" lon="24.772188736359734" id="-38634">
		<tag k="name" v="Doaresjávri" />
		<tag k="name:se" v="Doaresjávri" />
		<tag k="natural" v="water" />
		<tag k="old_name:se" v="Doaresjavri" />
		<tag k="ssr:stedsnr" v="20408" />
	</node>
	<node lat="70.75232499963272" lon="24.81997485308715" id="-38639">
		<tag k="name" v="Oaivvošjávri" />
		<tag k="name:se" v="Oaivvošjávri" />
		<tag k="natural" v="water" />
		<tag k="old_name:se" v="Oaivušjavri" />
		<tag k="ssr:stedsnr" v="20436" />
	</node>
	<node lat="70.79693056333261" lon="25.249347028850515" id="-38640">
		<tag k="name" v="Austerelva - Oalanjohka" />
		<tag k="name:no" v="Austerelva" />
		<tag k="name:se" v="Oalanjohka" />
		<tag k="old_name:se" v="Oalanjåkka" />
		<tag k="ssr:stedsnr" v="20530" />
		<tag k="waterway" v="river" />
	</node>
	<node lat="70.75420555776174" lon="24.448377651230743" id="-38643">
		<tag k="name" v="Trangsvikvannet" />
		<tag k="natural" v="water" />
		<tag k="ssr:stedsnr" v="20334" />
	</node>
	<node lat="70.80872222098392" lon="24.460783215260502" id="-38644">
		<tag k="name" v="Lamvannet" />
		<tag k="natural" v="water" />
		<tag k="ssr:stedsnr" v="20336" />
	</node>
	<node lat="70.82434444985577" lon="24.87768041002532" id="-38650">
		<tag k="name" v="Boršojohka" />
		<tag k="name:se" v="Boršojohka" />
		<tag k="old_name:se" v="Båršujåkka" />
		<tag k="ssr:stedsnr" v="20464" />
		<tag k="waterway" v="river" />
	</node>
	<node lat="70.7898305615934" lon="25.182024820587866" id="-38653">
		<tag k="name" v="Báhpagorži" />
		<tag k="name:se" v="Báhpagorži" />
		<tag k="natural" v="waterfall" />
		<tag k="old_name:se" v="Rappagårži" />
		<tag k="ssr:stedsnr" v="20484" />
	</node>
	<node lat="70.64936389363926" lon="24.999766498344112" id="-38674">
		<tag k="name" v="Gorsajávri" />
		<tag k="name:se" v="Gorsajávri" />
		<tag k="natural" v="water" />
		<tag k="old_name:se" v="Gårsajavri" />
		<tag k="ssr:stedsnr" v="20865" />
	</node>
	<node lat="70.69246666879283" lon="25.14005816328115" id="-38677">
		<tag k="name" v="Gahčahatjávri" />
		<tag k="name:se" v="Gahčahatjávri" />
		<tag k="natural" v="water" />
		<tag k="old_name:se" v="Gaččahatjavri" />
		<tag k="ssr:stedsnr" v="20876" />
		<tag k="water" v="lake" />
	</node>
	<node lat="70.62758611566731" lon="24.754535960643636" id="-38678">
		<tag k="name" v="Rávdoljohka" />
		<tag k="name:se" v="Rávdoljohka" />
		<tag k="old_name:se" v="Ravduljåkka" />
		<tag k="ssr:stedsnr" v="20877" />
		<tag k="waterway" v="river" />
	</node>
	<node lat="70.99841667040732" lon="24.976030391473238" id="-38697">
		<tag k="name" v="Lillevannet" />
		<tag k="natural" v="water" />
		<tag k="ssr:stedsnr" v="29074" />
	</node>
	<node lat="70.71981111726036" lon="25.235760930013196" id="-38727">
		<tag k="name" v="Golbmajávrrit" />
		<tag k="name:se" v="Golbmajávrrit" />
		<tag k="natural" v="water" />
		<tag k="old_name:se" v="Gålbmajavrit" />
		<tag k="ssr:stedsnr" v="80949" />
		<tag k="water" v="lake" />
	</node>
	<node lat="70.77548056185766" lon="24.56633596699782" id="-38734">
		<tag k="fixme" v="multiple name tags, choose one and add the other to alt_name" />
		<tag k="name" v="Smalvannet;Langvannet" />
		<tag k="natural" v="water" />
		<tag k="ssr:stedsnr" v="81345" />
	</node>
	<node lat="70.78384722076524" lon="24.360219330621806" id="-38735">
		<tag k="name" v="Fádnojuovašjávrrit" />
		<tag k="name:se" v="Fádnojuovašjávrrit" />
		<tag k="natural" v="water" />
		<tag k="old_name:se" v="Fadnujuovašjavrit" />
		<tag k="ssr:stedsnr" v="81349" />
		<tag k="water" v="lake" />
	</node>
	<node lat="70.75727778495703" lon="24.375110990130196" id="-38738">
		<tag k="name" v="Goahtejávri" />
		<tag k="name:se" v="Goahtejávri" />
		<tag k="natural" v="water" />
		<tag k="old_name:se" v="Goattejavri" />
		<tag k="ssr:stedsnr" v="81366" />
	</node>
	<node lat="70.75480000864206" lon="25.133199824732152" id="-38742">
		<tag k="name" v="Mohkkejávri" />
		<tag k="name:se" v="Mohkkejávri" />
		<tag k="natural" v="water" />
		<tag k="old_name:se" v="Måkkejavri;Mohkejávri" />
		<tag k="ssr:stedsnr" v="81473" />
		<tag k="water" v="lake" />
	</node>
	<node lat="70.66788611483594" lon="24.721502621488376" id="-38748">
		<tag k="name" v="Suolojávri" />
		<tag k="name:se" v="Suolojávri" />
		<tag k="natural" v="water" />
		<tag k="old_name:se" v="Suolujavri" />
		<tag k="ssr:stedsnr" v="81879" />
	</node>
	<node lat="70.75717778115562" lon="24.423441546524412" id="-38795">
		<tag k="name" v="Ollošjávrrit" />
		<tag k="name:se" v="Ollošjávrrit" />
		<tag k="natural" v="water" />
		<tag k="old_name:se" v="Ållušjavrit" />
		<tag k="ssr:stedsnr" v="141348" />
	</node>
	<node lat="70.81067500153421" lon="24.292369324332448" id="-38796">
		<tag k="name" v="Elvevikvatna" />
		<tag k="natural" v="water" />
		<tag k="ssr:stedsnr" v="141352" />
	</node>
	<node lat="70.81705555560394" lon="24.416899866525135" id="-38797">
		<tag k="alt_name" v="Fjellvatnet, nedre" />
		<tag k="name" v="Nedre Fjellvatnet" />
		<tag k="natural" v="water" />
		<tag k="ssr:stedsnr" v="141361" />
		<tag k="water" v="lake" />
	</node>
	<node lat="70.83058056117903" lon="24.414785985710367" id="-38799">
		<tag k="name" v="Dalvannet" />
		<tag k="natural" v="water" />
		<tag k="ssr:stedsnr" v="141371" />
	</node>
	<node lat="70.84333611994985" lon="24.751110959023904" id="-38818">
		<tag k="name" v="Bakfjordvannet - Báhkajávri" />
		<tag k="name:no" v="Bakfjordvannet" />
		<tag k="name:se" v="Báhkajávri" />
		<tag k="natural" v="water" />
		<tag k="old_name:se" v="Bakkajavri" />
		<tag k="ssr:stedsnr" v="141418" />
		<tag k="water" v="lake" />
	</node>
	<node lat="70.91136389657905" lon="25.09274149480814" id="-38820">
		<tag k="name" v="Kongelvikvannet" />
		<tag k="natural" v="water" />
		<tag k="ssr:stedsnr" v="141449" />
		<tag k="water" v="lake" />
	</node>
	<node lat="70.77122500233824" lon="25.03640537141293" id="-38824">
		<tag k="name" v="Ráššajohka" />
		<tag k="name:se" v="Ráššajohka" />
		<tag k="old_name:se" v="Raššajåkka" />
		<tag k="ssr:stedsnr" v="141529" />
		<tag k="waterway" v="river" />
	</node>
	<node lat="70.71585000698097" lon="25.070135936590688" id="-38835">
		<tag k="name" v="Vuolit Rávdoljávri" />
		<tag k="name:se" v="Vuolit Rávdoljávri" />
		<tag k="natural" v="water" />
		<tag k="old_name:se" v="Ravduljavri, vuolit" />
		<tag k="ssr:stedsnr" v="141811" />
		<tag k="water" v="lake" />
	</node>
	<node lat="70.7949694480605" lon="24.637249867050034" id="-38853">
		<tag k="name" v="Gressvannet" />
		<tag k="natural" v="water" />
		<tag k="ssr:stedsnr" v="147431" />
	</node>
	<node lat="70.78051111067273" lon="24.635824868693565" id="-38854">
		<tag k="name" v="Godtplassneset" />
		<tag k="natural" v="cape" />
		<tag k="ssr:stedsnr" v="147479" />
	</node>
	<node lat="70.77622222342205" lon="24.66811374343627" id="-38855">
		<tag k="name" v="Vesterelva" />
		<tag k="ssr:stedsnr" v="147480" />
		<tag k="waterway" v="river" />
	</node>
	<node lat="70.73481667195969" lon="24.551597096083285" id="-38870">
		<tag k="name" v="Gorbuselva - Gurbbošjohka" />
		<tag k="name:no" v="Gorbuselva" />
		<tag k="name:se" v="Gurbbošjohka" />
		<tag k="old_name:se" v="Gurbušjåkka" />
		<tag k="ssr:stedsnr" v="202179" />
		<tag k="waterway" v="river" />
	</node>
	<node lat="70.96202500212517" lon="24.020338789250815" id="-38873">
		<tag k="name" v="Kuelva" />
		<tag k="ssr:stedsnr" v="202243" />
		<tag k="waterway" v="stream" />
	</node>
	<node lat="70.96185000604716" lon="24.693960965051478" id="-38885">
		<tag k="name" v="Boalonjármuotki" />
		<tag k="name:se" v="Boalonjármuotki" />
		<tag k="old_name:se" v="Boalunjarmuotki" />
		<tag k="place" v="locality" />
		<tag k="ssr:stedsnr" v="202416" />
	</node>
	<node lat="70.7379805632353" lon="24.712360963956765" id="-38902">
		<tag k="name" v="Bajit Čáhppesjávri" />
		<tag k="name:se" v="Bajit Čáhppesjávri" />
=======
	<node id="-903398" lat="70.7775083351" lon="24.7261081989">
		<tag k="name" v="Lárka" />
		<tag k="name:se" v="Lárka" />
		<tag k="natural" v="water" />
		<tag k="old_name:se" v="Larka" />
		<tag k="ssr:stedsnr" v="384483" />
	</node>
	<node id="-903397" lat="70.7819277846" lon="24.9066442982">
		<tag k="name" v="Johtinleagejávrrit" />
		<tag k="name:se" v="Johtinleagejávrrit" />
		<tag k="natural" v="water" />
		<tag k="old_name:se" v="Jåttinlægejavrit" />
		<tag k="ssr:stedsnr" v="384481" />
	</node>
	<node id="-903396" lat="70.8131638928" lon="24.9947276171">
		<tag k="name" v="Ruvžaguotku" />
		<tag k="name:se" v="Ruvžaguotku" />
		<tag k="natural" v="strait" />
		<tag k="old_name:se" v="Ruvžaguotko" />
		<tag k="ssr:stedsnr" v="384479" />
	</node>
	<node id="-903394" lat="70.8226333372" lon="24.8432915211">
		<tag k="name" v="Guollejávrrit" />
		<tag k="name:se" v="Guollejávrrit" />
		<tag k="natural" v="water" />
		<tag k="old_name:se" v="Guollejavrit" />
		<tag k="ssr:stedsnr" v="384469" />
	</node>
	<node id="-902879" lat="70.8243444499" lon="24.87768041">
		<tag k="name" v="Boršojohka" />
		<tag k="name:se" v="Boršojohka" />
		<tag k="old_name:se" v="Båršujåkka" />
		<tag k="ssr:stedsnr" v="20464" />
		<tag k="waterway" v="river" />
	</node>
	<node id="-902181" lat="70.8557305602" lon="24.3522637643">
		<tag k="name" v="Badevannet" />
		<tag k="natural" v="water" />
		<tag k="ssr:stedsnr" v="263287" />
	</node>
	<node id="-902876" lat="70.7523249996" lon="24.8199748531">
		<tag k="name" v="Oaivvošjávri" />
		<tag k="name:se" v="Oaivvošjávri" />
		<tag k="natural" v="water" />
		<tag k="old_name:se" v="Oaivušjavri" />
		<tag k="ssr:stedsnr" v="20436" />
	</node>
	<node id="-903387" lat="70.773975" lon="24.3697526504">
		<tag k="alt_name" v="Sauhamnvatnet, yt" />
		<tag k="name" v="Ytre Sauhamnvatnet" />
		<tag k="natural" v="water" />
		<tag k="ssr:stedsnr" v="384346" />
	</node>
	<node id="-903386" lat="70.7664750027" lon="24.3381221137">
		<tag k="name" v="Sommarelva" />
		<tag k="ssr:stedsnr" v="384343" />
		<tag k="waterway" v="stream" />
	</node>
	<node id="-903385" lat="70.7629500004" lon="24.5497109658">
		<tag k="name" v="Hammarvannet" />
		<tag k="natural" v="water" />
		<tag k="ssr:stedsnr" v="384339" />
		<tag k="water" v="lake" />
	</node>
	<node id="-902871" lat="70.8365500053" lon="24.7721887364">
		<tag k="name" v="Doaresjávri" />
		<tag k="name:se" v="Doaresjávri" />
		<tag k="natural" v="water" />
		<tag k="old_name:se" v="Doaresjavri" />
		<tag k="ssr:stedsnr" v="20408" />
	</node>
	<node id="-902870" lat="70.8550055611" lon="25.0298970625">
		<tag k="alt_name" v="Alkavatn" />
		<tag k="name" v="Alkevatnet" />
		<tag k="natural" v="water" />
		<tag k="ssr:stedsnr" v="20403" />
	</node>
	<node id="-902869" lat="70.8534555624" lon="24.6548776563">
		<tag k="name" v="Lomvannet" />
		<tag k="natural" v="water" />
		<tag k="ssr:stedsnr" v="20395" />
	</node>
	<node id="-903891" lat="70.9958138881" lon="24.1823498998">
		<tag k="name" v="Storvannet" />
		<tag k="natural" v="water" />
		<tag k="ssr:stedsnr" v="875474" />
		<tag k="water" v="lake" />
	</node>
	<node id="-903378" lat="70.7458111192" lon="24.9809748326">
		<tag k="name" v="Nuorttat Ráššaláhkojávri" />
		<tag k="name:se" v="Nuorttat Ráššaláhkojávri" />
		<tag k="natural" v="water" />
		<tag k="old_name:se" v="Raššalakkujavri, nuortat" />
		<tag k="ssr:stedsnr" v="383856" />
		<tag k="water" v="lake" />
	</node>
	<node id="-903377" lat="70.7415277823" lon="24.7759137511">
		<tag k="name" v="Suolojávri" />
		<tag k="name:se" v="Suolojávri" />
		<tag k="natural" v="water" />
		<tag k="old_name:se" v="Suolujavri" />
		<tag k="ssr:stedsnr" v="383851" />
		<tag k="water" v="lake" />
	</node>
	<node id="-902864" lat="70.8248805628" lon="24.3944609892">
		<tag k="name" v="Middagsfjellvannet" />
		<tag k="natural" v="water" />
		<tag k="ssr:stedsnr" v="20277" />
	</node>
	<node id="-903372" lat="70.9540055605" lon="25.336105364">
		<tag k="name" v="Stiikovákjávri" />
		<tag k="name:se" v="Stiikovákjávri" />
		<tag k="natural" v="water" />
		<tag k="old_name:se" v="Stiikuvakjavri" />
		<tag k="ssr:stedsnr" v="383494" />
	</node>
	<node id="-903241" lat="70.8389861145" lon="24.916335966">
		<tag k="name" v="Finnvannet" />
		<tag k="natural" v="water" />
		<tag k="ssr:stedsnr" v="208377" />
	</node>
	<node id="-903881" lat="71.0219333357" lon="24.0362082377">
		<tag k="name" v="Skarvvannet" />
		<tag k="natural" v="water" />
		<tag k="ssr:stedsnr" v="870599" />
	</node>
	<node id="-903367" lat="70.8598055604" lon="24.7855553962">
		<tag k="name" v="Gjerdevannet" />
		<tag k="natural" v="water" />
		<tag k="ssr:stedsnr" v="383418" />
	</node>
	<node id="-903875" lat="70.7770333344" lon="24.7537470649">
		<tag k="name" v="Ovllášjávri" />
		<tag k="name:se" v="Ovllášjávri" />
		<tag k="natural" v="water" />
		<tag k="old_name:se" v="Åvlašjavri;Ovllášjavri" />
		<tag k="ssr:stedsnr" v="870495" />
		<tag k="water" v="lake" />
	</node>
	<node id="-903361" lat="70.8144138959" lon="24.4351026636">
		<tag k="name" v="Amundvikvannet" />
		<tag k="natural" v="water" />
		<tag k="ssr:stedsnr" v="383355" />
	</node>
	<node id="-903285" lat="70.9504000061" lon="24.6618498708">
		<tag k="name" v="Heastajávri" />
		<tag k="name:se" v="Heastajávri" />
		<tag k="natural" v="water" />
		<tag k="old_name:se" v="Hæstajavri" />
		<tag k="ssr:stedsnr" v="323422" />
		<tag k="water" v="lake" />
	</node>
	<node id="-902729" lat="70.9542916675" lon="24.0249276833">
		<tag k="name" v="Kuvannet" />
		<tag k="natural" v="water" />
		<tag k="ssr:stedsnr" v="930192" />
	</node>
	<node id="-903353" lat="70.9555027775" lon="24.0685526643">
		<tag k="name" v="Langfjordvannet" />
		<tag k="natural" v="water" />
		<tag k="ssr:stedsnr" v="383200" />
	</node>
	<node id="-902328" lat="71.0238027845" lon="25.0137165145">
		<tag k="name" v="Skjåvikvannet" />
		<tag k="natural" v="water" />
		<tag k="ssr:stedsnr" v="445727" />
	</node>
	<node id="-903863" lat="70.6522750003" lon="24.7919165147">
		<tag k="alt_name:no" v="Svaneelva" />
		<tag k="name" v="Svanelva - Njukčunjohka" />
		<tag k="name:no" v="Svanelva" />
		<tag k="name:se" v="Njukčunjohka" />
		<tag k="old_name:se" v="Njukčonjåkka" />
		<tag k="ssr:stedsnr" v="870022" />
		<tag k="waterway" v="river" />
	</node>
	<node id="-902326" lat="70.8432000049" lon="25.0960775989">
		<tag k="name" v="Guotkkojávrrit" />
		<tag k="name:se" v="Guotkkojávrrit" />
		<tag k="natural" v="water" />
		<tag k="old_name:se" v="Guotkujavrit;Guotkujávrrit" />
		<tag k="ssr:stedsnr" v="445498" />
		<tag k="water" v="lake" />
	</node>
	<node id="-902345" lat="70.986794446" lon="24.6500137482">
		<tag k="name" v="Kvalvikvannet" />
		<tag k="natural" v="water" />
		<tag k="ssr:stedsnr" v="449386" />
		<tag k="water" v="lake" />
	</node>
	<node id="-902836" lat="70.7612500061" lon="24.7080387416">
		<tag k="name" v="Stuorra Skoahpajávri" />
		<tag k="name:se" v="Stuorra Skoahpajávri" />
		<tag k="natural" v="water" />
		<tag k="old_name:se" v="Skoappajavri, stuorra" />
		<tag k="ssr:stedsnr" v="930520" />
	</node>
	<node id="-902835" lat="70.7897638917" lon="25.2019887009">
		<tag k="name" v="Oarjjijávri" />
		<tag k="name:se" v="Oarjjijávri" />
		<tag k="natural" v="water" />
		<tag k="old_name:se" v="Oarjijavri" />
		<tag k="ssr:stedsnr" v="930515" />
	</node>
	<node id="-902831" lat="70.9345916727" lon="24.022636012">
		<tag k="name" v="Gåsvikvannet" />
		<tag k="natural" v="water" />
		<tag k="ssr:stedsnr" v="930214" />
	</node>
	<node id="-902318" lat="70.789252783" lon="24.468499872">
		<tag k="alt_name" v="Saltfjellvatnet, øvre" />
		<tag k="name" v="Øvre Saltfjellvatnet" />
>>>>>>> e1d4bc35ff8a6074a6f2e91616a996b547c36f15
		<tag k="natural" v="water" />
		<tag k="ssr:stedsnr" v="445380" />
	</node>
<<<<<<< HEAD
	<node lat="70.64494167154686" lon="24.83378316896946" id="-38905">
		<tag k="name" v="Njukčunskáidi" />
		<tag k="name:se" v="Njukčunskáidi" />
		<tag k="natural" v="cape" />
		<tag k="old_name:se" v="Njukčonskaidi" />
		<tag k="ssr:stedsnr" v="202863" />
	</node>
	<node lat="70.97949444919755" lon="24.027872127303624" id="-38916">
		<tag k="name" v="Klebervannet" />
		<tag k="natural" v="water" />
		<tag k="ssr:stedsnr" v="206508" />
	</node>
	<node lat="70.83898611445622" lon="24.91633596597064" id="-38917">
		<tag k="name" v="Finnvannet" />
		<tag k="natural" v="water" />
		<tag k="ssr:stedsnr" v="208377" />
	</node>
	<node lat="70.8612527818125" lon="24.958735942490645" id="-38941">
		<tag k="alt_name" v="Fiskevatn" />
		<tag k="name" v="Fiskevatna" />
		<tag k="natural" v="water" />
		<tag k="ssr:stedsnr" v="323396" />
	</node>
	<node lat="70.9590750019741" lon="23.967894342671162" id="-38949">
		<tag k="name" v="Stoppelfjordvatna" />
		<tag k="natural" v="water" />
		<tag k="ssr:stedsnr" v="323155" />
		<tag k="water" v="lake" />
	</node>
	<node lat="70.9895222236804" lon="24.044716566957646" id="-38954">
		<tag k="name" v="Sandfjordvannet" />
		<tag k="natural" v="water" />
		<tag k="ssr:stedsnr" v="323247" />
		<tag k="water" v="lake" />
	</node>
	<node lat="70.83491111362854" lon="24.403638773970886" id="-38956">
		<tag k="fixme" v="multiple name tags, choose one and add the other to alt_name" />
		<tag k="name" v="Rundvannet;Store Rundvannet" />
		<tag k="natural" v="water" />
		<tag k="ssr:stedsnr" v="323288" />
	</node>
	<node lat="70.77862500190652" lon="24.380166539265627" id="-38957">
		<tag k="name" v="Njunnošjohka" />
		<tag k="name:se" v="Njunnošjohka" />
		<tag k="old_name:se" v="Njunnušjåkka" />
		<tag k="ssr:stedsnr" v="323320" />
		<tag k="waterway" v="stream" />
	</node>
	<node lat="70.75485555860065" lon="24.464563754858933" id="-38958">
		<tag k="name" v="Dážagurjávri" />
		<tag k="name:se" v="Dážagurjávri" />
		<tag k="natural" v="water" />
		<tag k="old_name:se" v="Dažagurjavri" />
		<tag k="ssr:stedsnr" v="323336" />
	</node>
	<node lat="70.7204166689496" lon="25.002972043813024" id="-38969">
		<tag k="name" v="Bajit Rávdojávri" />
		<tag k="name:se" v="Bajit Rávdojávri" />
		<tag k="natural" v="water" />
		<tag k="old_name:se" v="Ravduljavri, bajit" />
		<tag k="ssr:stedsnr" v="323829" />
	</node>
	<node lat="71.03973611461993" lon="24.970985967926012" id="-38983">
		<tag k="name" v="Rorvannet" />
		<tag k="natural" v="water" />
		<tag k="ssr:stedsnr" v="323673" />
	</node>
	<node lat="71.05812222714339" lon="24.76264709656148" id="-38988">
		<tag k="fixme" v="multiple name tags, choose one and add the other to alt_name" />
		<tag k="name" v="Elvevikvannet;Kiholmvannet" />
		<tag k="natural" v="water" />
		<tag k="ssr:stedsnr" v="323693" />
	</node>
	<node lat="70.66109167084916" lon="25.015369270390092" id="-38992">
		<tag k="name" v="Suolojávri" />
		<tag k="name:se" v="Suolojávri" />
		<tag k="natural" v="water" />
		<tag k="old_name:se" v="Suolujavri" />
		<tag k="ssr:stedsnr" v="323870" />
	</node>
	<node lat="70.99824167147959" lon="23.926227677552248" id="-38996">
		<tag k="name" v="Fiskelva" />
		<tag k="ssr:stedsnr" v="327500" />
		<tag k="waterway" v="river" />
	</node>
	<node lat="70.99928056247009" lon="24.969213731699988" id="-39008">
		<tag k="name" v="Lomvannet" />
		<tag k="natural" v="water" />
		<tag k="ssr:stedsnr" v="332074" />
	</node>
	<node lat="70.81281944748049" lon="24.414305421151354" id="-39028">
		<tag k="alt_name" v="Fjellvatnet, øvre" />
		<tag k="name" v="Øvre Fjellvatnet" />
		<tag k="natural" v="water" />
		<tag k="ssr:stedsnr" v="383368" />
		<tag k="water" v="lake" />
	</node>
	<node lat="70.85980556043074" lon="24.78555539619414" id="-39032">
		<tag k="name" v="Gjerdevannet" />
		<tag k="natural" v="water" />
		<tag k="ssr:stedsnr" v="383418" />
	</node>
	<node lat="70.95400556053625" lon="25.336105363976742" id="-39036">
		<tag k="name" v="Stiikovákjávri" />
		<tag k="name:se" v="Stiikovákjávri" />
		<tag k="natural" v="water" />
		<tag k="old_name:se" v="Stiikuvakjavri" />
		<tag k="ssr:stedsnr" v="383494" />
	</node>
	<node lat="70.74152778229326" lon="24.775913751139726" id="-39041">
		<tag k="name" v="Suolojávri" />
		<tag k="name:se" v="Suolojávri" />
		<tag k="natural" v="water" />
		<tag k="old_name:se" v="Suolujavri" />
		<tag k="ssr:stedsnr" v="383851" />
		<tag k="water" v="lake" />
	</node>
	<node lat="70.74581111920224" lon="24.980974832553283" id="-39042">
		<tag k="name" v="Nuorttat Ráššaláhkojávri" />
		<tag k="name:se" v="Nuorttat Ráššaláhkojávri" />
		<tag k="natural" v="water" />
		<tag k="old_name:se" v="Raššalakkujavri, nuortat" />
		<tag k="ssr:stedsnr" v="383856" />
		<tag k="water" v="lake" />
	</node>
	<node lat="70.76295000039876" lon="24.54971096577691" id="-39052">
		<tag k="name" v="Hammarvannet" />
		<tag k="natural" v="water" />
		<tag k="ssr:stedsnr" v="384339" />
		<tag k="water" v="lake" />
	</node>
	<node lat="70.76647500271366" lon="24.33812211370959" id="-39053">
		<tag k="name" v="Sommarelva" />
		<tag k="ssr:stedsnr" v="384343" />
		<tag k="waterway" v="stream" />
	</node>
	<node lat="70.77397499999745" lon="24.369752650411545" id="-39054">
		<tag k="alt_name" v="Sauhamnvatnet, yt" />
		<tag k="name" v="Ytre Sauhamnvatnet" />
		<tag k="natural" v="water" />
		<tag k="ssr:stedsnr" v="384346" />
	</node>
	<node lat="70.82263333715439" lon="24.843291521138013" id="-39057">
		<tag k="name" v="Guollejávrrit" />
		<tag k="name:se" v="Guollejávrrit" />
		<tag k="natural" v="water" />
		<tag k="old_name:se" v="Guollejavrit" />
		<tag k="ssr:stedsnr" v="384469" />
	</node>
	<node lat="70.81316389284255" lon="24.99472761714014" id="-39059">
		<tag k="name" v="Ruvžaguotku" />
		<tag k="name:se" v="Ruvžaguotku" />
		<tag k="old_name:se" v="Ruvžaguotko" />
		<tag k="place" v="locality" />
		<tag k="ssr:stedsnr" v="384479" />
	</node>
	<node lat="70.78192778464634" lon="24.906644298235616" id="-39060">
		<tag k="name" v="Johtinleagejávrrit" />
		<tag k="name:se" v="Johtinleagejávrrit" />
		<tag k="natural" v="water" />
		<tag k="old_name:se" v="Jåttinlægejavrit" />
		<tag k="ssr:stedsnr" v="384481" />
	</node>
	<node lat="70.77750833511885" lon="24.726108198859666" id="-39061">
		<tag k="name" v="Lárka" />
		<tag k="name:se" v="Lárka" />
		<tag k="natural" v="water" />
		<tag k="old_name:se" v="Larka" />
		<tag k="ssr:stedsnr" v="384483" />
	</node>
	<node lat="70.76305000233607" lon="25.012422042303513" id="-39062">
		<tag k="name" v="Stuorra Ráššajávri" />
		<tag k="name:se" v="Stuorra Ráššajávri" />
		<tag k="natural" v="water" />
		<tag k="old_name:se" v="Raššajavri, stuorra" />
		<tag k="ssr:stedsnr" v="384490" />
		<tag k="water" v="lake" />
	</node>
	<node lat="70.6278666735971" lon="24.95561093447875" id="-39070">
		<tag k="name" v="Jassadievajávri" />
		<tag k="name:se" v="Jassadievajávri" />
		<tag k="natural" v="water" />
		<tag k="old_name:se" v="Jassadievajavri" />
		<tag k="ssr:stedsnr" v="384834" />
	</node>
	<node lat="70.9756416699362" lon="24.008666566159132" id="-39074">
		<tag k="name" v="Lamvannet" />
		<tag k="natural" v="water" />
		<tag k="ssr:stedsnr" v="388231" />
	</node>
	<node lat="70.96628055626604" lon="24.094386006518814" id="-39100">
		<tag k="name" v="Roggervannet" />
		<tag k="natural" v="water" />
		<tag k="ssr:stedsnr" v="444222" />
	</node>
	<node lat="70.88988611162274" lon="24.844874839390528" id="-39108">
		<tag k="name" v="Vilgesjávrrit" />
		<tag k="name:se" v="Vilgesjávrrit" />
		<tag k="natural" v="water" />
		<tag k="old_name:se" v="Vilgesjavrit" />
		<tag k="ssr:stedsnr" v="444364" />
	</node>
	<node lat="71.07416111625628" lon="24.752313751130227" id="-39124">
		<tag k="name" v="Skolevannet" />
		<tag k="natural" v="water" />
		<tag k="ssr:stedsnr" v="444623" />
	</node>
	<node lat="70.7175138910297" lon="25.131744261855488" id="-39130">
		<tag k="name" v="Gáranasjávrrit" />
		<tag k="name:se" v="Gáranasjávrrit" />
		<tag k="natural" v="water" />
		<tag k="old_name:se" v="Garanasjavrit" />
		<tag k="ssr:stedsnr" v="444822" />
		<tag k="water" v="lake" />
	</node>
	<node lat="70.97877499871494" lon="23.96394157003748" id="-39135">
		<tag k="name" v="Elvedalsvannet" />
		<tag k="natural" v="water" />
		<tag k="ssr:stedsnr" v="445138" />
	</node>
	<node lat="70.82915278285907" lon="24.663438741446484" id="-39144">
		<tag k="alt_name" v="Moskevatnet" />
		<tag k="name" v="Moskevatna" />
		<tag k="natural" v="water" />
		<tag k="ssr:stedsnr" v="445421" />
		<tag k="water" v="lake" />
	</node>
	<node lat="70.75610833779595" lon="24.53934154222778" id="-39150">
		<tag k="name" v="Lomvannet" />
		<tag k="natural" v="water" />
		<tag k="ssr:stedsnr" v="445349" />
	</node>
	<node lat="71.02380278451464" lon="25.013716514491666" id="-39155">
		<tag k="name" v="Skjåvikvannet" />
		<tag k="natural" v="water" />
		<tag k="ssr:stedsnr" v="445727" />
	</node>
	<node lat="70.77532222396565" lon="25.33239702606244" id="-39164">
		<tag k="name" v="Gámasjávrrit" />
		<tag k="name:se" v="Gámasjávrrit" />
		<tag k="natural" v="water" />
		<tag k="old_name:se" v="Gamasjavrit" />
		<tag k="ssr:stedsnr" v="505096" />
		<tag k="water" v="lake" />
	</node>
	<node lat="70.99612777665087" lon="23.987074906488825" id="-39167">
		<tag k="fixme" v="multiple name tags, choose one and add the other to alt_name" />
		<tag k="name" v="Kallvatnet;Karivatnet" />
		<tag k="natural" v="water" />
		<tag k="ssr:stedsnr" v="505134" />
	</node>
	<node lat="70.99448888859554" lon="23.943074907097827" id="-39170">
		<tag k="fixme" v="multiple name tags, choose one and add the other to alt_name" />
		<tag k="name" v="Badevannet;Storbadevannet" />
		<tag k="natural" v="water" />
		<tag k="ssr:stedsnr" v="505194" />
		<tag k="water" v="lake" />
	</node>
	<node lat="70.79895278025015" lon="24.300552664532646" id="-39175">
		<tag k="name" v="Stuorrajávrrit" />
		<tag k="name:se" v="Stuorrajávrrit" />
		<tag k="natural" v="water" />
		<tag k="old_name:se" v="Stuorrajavrit" />
		<tag k="ssr:stedsnr" v="505379" />
		<tag k="water" v="lake" />
	</node>
	<node lat="70.98137778101793" lon="24.657108188389614" id="-39182">
		<tag k="alt_name" v="Gurihollvatnet" />
		<tag k="name" v="Guriholvatnet" />
		<tag k="natural" v="water" />
		<tag k="ssr:stedsnr" v="505347" />
	</node>
	<node lat="70.75956389641394" lon="24.515352650148053" id="-39183">
		<tag k="name" v="Barnevannet" />
		<tag k="natural" v="water" />
		<tag k="ssr:stedsnr" v="505353" />
	</node>
	<node lat="70.72090834036227" lon="25.030533164199326" id="-39211">
		<tag k="name" v="Vilgesráššajohka" />
		<tag k="name:se" v="Vilgesráššajohka" />
		<tag k="old_name:se" v="Vilgesraššajåkka" />
		<tag k="ssr:stedsnr" v="505831" />
		<tag k="waterway" v="river" />
	</node>
	<node lat="70.78178611306268" lon="24.562860983559986" id="-39225">
		<tag k="name" v="Dalvannet" />
		<tag k="natural" v="water" />
		<tag k="ssr:stedsnr" v="511471" />
		<tag k="water" v="lake" />
	</node>
	<node lat="70.77680000568736" lon="24.576408187700185" id="-39226">
		<tag k="name" v="Andrevannet" />
		<tag k="natural" v="water" />
		<tag k="ssr:stedsnr" v="511474" />
		<tag k="water" v="lake" />
	</node>
	<node lat="70.8548500027334" lon="24.973980392715685" id="-39229">
		<tag k="name" v="Roggevannet" />
		<tag k="natural" v="water" />
		<tag k="ssr:stedsnr" v="512400" />
		<tag k="water" v="lake" />
	</node>
	<node lat="70.75474445076905" lon="24.54469429920191" id="-39274">
		<tag k="name" v="Ørretvannet" />
		<tag k="natural" v="water" />
		<tag k="ssr:stedsnr" v="566350" />
		<tag k="water" v="lake" />
	</node>
	<node lat="70.75788611733867" lon="24.387927669098207" id="-39275">
		<tag k="alt_name" v="Sauhamnvatnet, in" />
		<tag k="name" v="Indre Sauhamnvatnet" />
		<tag k="natural" v="water" />
		<tag k="ssr:stedsnr" v="566351" />
	</node>
	<node lat="70.8040027846842" lon="24.900755409804574" id="-39278">
		<tag k="name" v="Ráššavuolesjávrrit" />
		<tag k="name:se" v="Ráššavuolesjávrrit" />
		<tag k="natural" v="water" />
		<tag k="old_name:se" v="Raššavuolesjavrit" />
		<tag k="ssr:stedsnr" v="566487" />
	</node>
	<node lat="70.80955556334452" lon="25.010066496317474" id="-39279">
		<tag k="name" v="Stuorraguotkkojávri" />
		<tag k="name:se" v="Stuorraguotkkojávri" />
		<tag k="natural" v="water" />
		<tag k="old_name:se" v="Stuorraguotkujavri" />
		<tag k="ssr:stedsnr" v="566490" />
		<tag k="water" v="lake" />
	</node>
	<node lat="70.68485000496916" lon="24.87806371889887" id="-39287">
		<tag k="name" v="Ráššanjárga" />
		<tag k="name:se" v="Ráššanjárga" />
		<tag k="natural" v="cape" />
		<tag k="old_name:se" v="Raššanjarga" />
		<tag k="ssr:stedsnr" v="566835" />
	</node>
	<node lat="70.99654444716988" lon="23.94119433803487" id="-39295">
		<tag k="name" v="Jarlvannet" />
		<tag k="natural" v="water" />
		<tag k="ssr:stedsnr" v="570459" />
	</node>
	<node lat="70.78355833482297" lon="24.671052638434485" id="-39302">
		<tag k="name" v="Sirielva" />
		<tag k="ssr:stedsnr" v="571496" />
		<tag k="waterway" v="stream" />
	</node>
	<node lat="70.76243611094844" lon="24.544283198031753" id="-39308">
		<tag k="name" v="Tverrelv" />
		<tag k="ssr:stedsnr" v="575740" />
		<tag k="waterway" v="stream" />
	</node>
	<node lat="70.80600556343408" lon="25.027669284985468" id="-39326">
		<tag k="name" v="Stuorraguotku" />
		<tag k="name:se" v="Stuorraguotku" />
		<tag k="old_name:se" v="Stuorraguotko" />
		<tag k="place" v="locality" />
		<tag k="ssr:stedsnr" v="626516" />
	</node>
	<node lat="70.78649444766201" lon="24.711335972658958" id="-39327">
		<tag k="name" v="Látnjajávri" />
		<tag k="name:se" v="Látnjajávri" />
		<tag k="natural" v="water" />
		<tag k="old_name:se" v="Ladnjajavri" />
		<tag k="ssr:stedsnr" v="626526" />
	</node>
	<node lat="70.77616944815553" lon="25.17766093904266" id="-39329">
		<tag k="name" v="Lagešjávri" />
		<tag k="name:se" v="Lagešjávri" />
		<tag k="natural" v="water" />
		<tag k="old_name:se" v="Lagešjavri" />
		<tag k="ssr:stedsnr" v="626532" />
	</node>
	<node lat="70.8632611165704" lon="24.791383197571594" id="-39342">
		<tag k="name" v="Finnvannet" />
		<tag k="natural" v="water" />
		<tag k="ssr:stedsnr" v="626433" />
	</node>
	<node lat="70.91186666748271" lon="24.89318038782654" id="-39346">
		<tag k="name" v="Risvikvannet - Suolojávri" />
		<tag k="name:no" v="Risvikvannet" />
		<tag k="name:se" v="Suolojávri" />
		<tag k="natural" v="water" />
		<tag k="old_name:se" v="Suolujavri" />
		<tag k="ssr:stedsnr" v="626468" />
		<tag k="water" v="lake" />
	</node>
	<node lat="70.64569444556261" lon="24.952458159083186" id="-39363">
		<tag k="name" v="Siremáhtejogaš" />
		<tag k="name:se" v="Siremáhtejogaš" />
		<tag k="old_name:se" v="Siremattejågaš" />
		<tag k="ssr:stedsnr" v="626868" />
		<tag k="waterway" v="stream" />
	</node>
	<node lat="70.69686666966982" lon="24.96105537505134" id="-39364">
		<tag k="alt_name:no" v="Havvatnet, litle" />
		<tag k="name" v="Lille Havvannet - Bajit Áhpelanjávri" />
		<tag k="name:no" v="Lille Havvannet" />
		<tag k="name:se" v="Bajit Áhpelanjávri" />
		<tag k="natural" v="water" />
		<tag k="old_name:se" v="Appelanjavri bajit" />
		<tag k="ssr:stedsnr" v="626877" />
		<tag k="water" v="lake" />
	</node>
	<node lat="70.94409167358536" lon="25.01095262834221" id="-39369">
		<tag k="name" v="Reinelva" />
		<tag k="ssr:stedsnr" v="627442" />
		<tag k="waterway" v="stream" />
	</node>
	<node lat="70.6940055595651" lon="24.694105398081728" id="-39404">
		<tag k="name" v="Fosselva - Goržžijohka" />
		<tag k="name:no" v="Fosselva" />
		<tag k="name:se" v="Goržžijohka" />
		<tag k="ssr:stedsnr" v="748029" />
		<tag k="waterway" v="river" />
	</node>
	<node lat="70.9131222264731" lon="25.467522023711386" id="-39405">
		<tag k="name" v="Čeavrresjávri" />
		<tag k="name:se" v="Čeavrresjávri" />
		<tag k="natural" v="water" />
		<tag k="old_name:se" v="Čævresjavri" />
		<tag k="ssr:stedsnr" v="748043" />
	</node>
	<node lat="70.7794055599235" lon="25.296941475094552" id="-39410">
		<tag k="name" v="Bealččajávri" />
		<tag k="name:se" v="Bealččajávri" />
		<tag k="natural" v="water" />
		<tag k="old_name:se" v="Bælčajavri" />
		<tag k="ssr:stedsnr" v="748096" />
	</node>
	<node lat="70.86928055893145" lon="24.964305405024362" id="-39435">
		<tag k="name" v="Strandvannet" />
		<tag k="natural" v="water" />
		<tag k="ssr:stedsnr" v="748380" />
	</node>
	<node lat="70.78068889177109" lon="24.647197082210525" id="-39440">
		<tag k="name" v="Snefjordvannet - Muorraljávri" />
		<tag k="name:no" v="Snefjordvannet" />
		<tag k="name:se" v="Muorraljávri" />
		<tag k="natural" v="water" />
		<tag k="ssr:stedsnr" v="748494" />
		<tag k="water" v="lake" />
	</node>
	<node lat="70.75808334006449" lon="24.94332762760214" id="-39441">
		<tag k="name" v="Buvrejávri" />
		<tag k="name:se" v="Buvrejávri" />
		<tag k="natural" v="water" />
		<tag k="old_name:se" v="Buvrejavri" />
		<tag k="ssr:stedsnr" v="748500" />
	</node>
	<node lat="70.76183889152223" lon="24.56516930419805" id="-39444">
		<tag k="name" v="Rundvannet" />
		<tag k="natural" v="water" />
		<tag k="ssr:stedsnr" v="748337" />
	</node>
	<node lat="70.79221389401422" lon="24.338083212393947" id="-39446">
		<tag k="name" v="Muohtajávrrit" />
		<tag k="name:se" v="Muohtajávrrit" />
		<tag k="natural" v="water" />
		<tag k="old_name:se" v="Muottajavrit" />
		<tag k="ssr:stedsnr" v="748361" />
	</node>
	<node lat="70.68807222970639" lon="24.700847069092283" id="-39457">
		<tag k="name" v="Lillefjordelva - Uhcavuonašjohka" />
		<tag k="name:no" v="Lillefjordelva" />
		<tag k="name:se" v="Uhcavuonašjohka" />
		<tag k="ssr:stedsnr" v="748830" />
		<tag k="waterway" v="river" />
	</node>
	<node lat="70.70123333553371" lon="24.697022076595616" id="-39458">
		<tag k="name" v="Fossevannet - Goržžijávri" />
		<tag k="name:no" v="Fossevannet" />
		<tag k="name:se" v="Goržžijávri" />
		<tag k="natural" v="water" />
		<tag k="ssr:stedsnr" v="748837" />
		<tag k="water" v="lake" />
	</node>
	<node lat="70.74085278202594" lon="24.663922089647343" id="-39459">
		<tag k="name" v="Gurbbošjávri" />
		<tag k="name:se" v="Gurbbošjávri" />
		<tag k="natural" v="water" />
		<tag k="old_name:se" v="Gurbušjavri" />
		<tag k="ssr:stedsnr" v="748847" />
	</node>
	<node lat="71.01325277891736" lon="24.588910990483303" id="-39473">
		<tag k="name" v="Skjåvikvannet" />
		<tag k="natural" v="water" />
		<tag k="ssr:stedsnr" v="757127" />
	</node>
	<node lat="70.82094444761807" lon="25.22269426596072" id="-39495">
		<tag k="name" v="Neselva - Ávžejohka" />
		<tag k="name:no" v="Neselva" />
		<tag k="name:se" v="Ávžejohka" />
		<tag k="old_name:se" v="Avžejåkka" />
		<tag k="ssr:stedsnr" v="809132" />
		<tag k="waterway" v="river" />
	</node>
	<node lat="70.82503611090124" lon="24.608158205867497" id="-39511">
		<tag k="name" v="Petternesvannet" />
		<tag k="natural" v="water" />
		<tag k="ssr:stedsnr" v="809373" />
	</node>
	<node lat="70.70533889231001" lon="25.069274831534003" id="-39518">
		<tag k="name" v="Láhkoskáidi" />
		<tag k="name:se" v="Láhkoskáidi" />
		<tag k="natural" v="cape" />
		<tag k="old_name:se" v="Lakkuskaidi" />
		<tag k="ssr:stedsnr" v="809817" />
	</node>
	<node lat="70.72686667051676" lon="24.74569428161572" id="-39520">
		<tag k="name" v="Borjjasjávri" />
		<tag k="name:se" v="Borjjasjávri" />
		<tag k="natural" v="water" />
		<tag k="old_name:se" v="Bårjasjavri" />
		<tag k="ssr:stedsnr" v="809828" />
	</node>
	<node lat="71.01330555621877" lon="24.006319357428932" id="-39523">
		<tag k="alt_name" v="Nordmannselvvatnan" />
		<tag k="name" v="Nordmannselvvatna" />
		<tag k="natural" v="water" />
		<tag k="ssr:stedsnr" v="809643" />
		<tag k="water" v="lake" />
	</node>
	<node lat="70.7093805637312" lon="24.6208165208772" id="-39528">
		<tag k="name" v="Hammarvannet" />
		<tag k="natural" v="water" />
		<tag k="ssr:stedsnr" v="809831" />
	</node>
	<node lat="70.97661388799433" lon="24.029013798696827" id="-39537">
		<tag k="name" v="Rivgobakkevannet" />
		<tag k="natural" v="water" />
		<tag k="ssr:stedsnr" v="813143" />
	</node>
	<node lat="71.00703611683608" lon="23.907608254314415" id="-39538">
		<tag k="name" v="Lilleskøytebanen" />
		<tag k="natural" v="water" />
		<tag k="ssr:stedsnr" v="813459" />
	</node>
	<node lat="70.91815833921976" lon="25.378505359470523" id="-39553">
		<tag k="name" v="Ruksesjávri" />
		<tag k="name:se" v="Ruksesjávri" />
		<tag k="natural" v="water" />
		<tag k="old_name:se" v="Ruksesjavri" />
		<tag k="ssr:stedsnr" v="869057" />
	</node>
	<node lat="70.998502778405" lon="24.062811022915465" id="-39560">
		<tag k="name" v="Risnasvannet" />
		<tag k="natural" v="water" />
		<tag k="ssr:stedsnr" v="869258" />
	</node>
	<node lat="70.8023138918224" lon="24.48364153767509" id="-39568">
		<tag k="alt_name" v="Saltfjellvatnet, nedre" />
		<tag k="name" v="Nedre Saltfjellvatnet" />
		<tag k="natural" v="water" />
		<tag k="ssr:stedsnr" v="869409" />
	</node>
	<node lat="71.09507778487315" lon="24.734374869001066" id="-39573">
		<tag k="name" v="Ledningsvatna" />
		<tag k="natural" v="water" />
		<tag k="ssr:stedsnr" v="869664" />
	</node>
	<node lat="71.05752222052078" lon="24.776094315652454" id="-39579">
		<tag k="name" v="Rundvannet" />
		<tag k="natural" v="water" />
		<tag k="ssr:stedsnr" v="869713" />
	</node>
	<node lat="70.96325000714666" lon="25.398488691497555" id="-39591">
		<tag k="name" v="Slettelva" />
		<tag k="ssr:stedsnr" v="870472" />
		<tag k="waterway" v="stream" />
	</node>
	<node lat="70.77703333439392" lon="24.753747064851286" id="-39598">
		<tag k="name" v="Ovllášjávri" />
		<tag k="name:se" v="Ovllášjávri" />
		<tag k="natural" v="water" />
		<tag k="old_name:se" v="Åvlašjavri;Ovllášjavri" />
		<tag k="ssr:stedsnr" v="870495" />
		<tag k="water" v="lake" />
	</node>
	<node lat="71.02193333570774" lon="24.036208237746177" id="-39599">
		<tag k="name" v="Skarvvannet" />
		<tag k="natural" v="water" />
		<tag k="ssr:stedsnr" v="870599" />
	</node>
	<node lat="70.99581388807326" lon="24.182349899800712" id="-39620">
		<tag k="name" v="Storvannet" />
		<tag k="natural" v="water" />
		<tag k="ssr:stedsnr" v="875474" />
		<tag k="water" v="lake" />
	</node>
	<node lat="71.00600555629008" lon="24.646285964658937" id="-39634">
		<tag k="name" v="Store Lomvannet" />
		<tag k="natural" v="water" />
		<tag k="ssr:stedsnr" v="939151" />
=======
	<node id="-903853" lat="71.0950777849" lon="24.734374869">
		<tag k="name" v="Ledningsvatna" />
		<tag k="natural" v="water" />
		<tag k="ssr:stedsnr" v="869664" />
	</node>
	<node id="-902217" lat="70.9702055608" lon="24.0062443519">
		<tag k="name" v="Gunnarvannet" />
		<tag k="natural" v="water" />
		<tag k="ssr:stedsnr" v="267136" />
	</node>
	<node id="-903338" lat="70.9992805625" lon="24.9692137317">
		<tag k="name" v="Lomvannet" />
		<tag k="natural" v="water" />
		<tag k="ssr:stedsnr" v="332074" />
	</node>
	<node id="-903849" lat="71.0777138911" lon="24.1064887767">
		<tag k="name" v="Storvannet" />
		<tag k="natural" v="water" />
		<tag k="ssr:stedsnr" v="869618" />
		<tag k="water" v="lake" />
	</node>
	<node id="-902308" lat="70.9959138935" lon="23.9666332341">
		<tag k="alt_name" v="Skarvatnet" />
		<tag k="name" v="Skardvatnet" />
		<tag k="natural" v="water" />
		<tag k="ssr:stedsnr" v="445184" />
	</node>
	<node id="-903841" lat="70.8388027819" lon="24.6324609709">
		<tag k="name" v="Kobbevikvatna" />
		<tag k="natural" v="water" />
		<tag k="ssr:stedsnr" v="869442" />
	</node>
	<node id="-903839" lat="70.8711277822" lon="24.9318109669">
		<tag k="name" v="Isvannet" />
		<tag k="natural" v="water" />
		<tag k="ssr:stedsnr" v="869432" />
	</node>
	<node id="-903838" lat="70.8705361112" lon="24.911216512">
		<tag k="name" v="Djupvannet" />
		<tag k="natural" v="water" />
		<tag k="ssr:stedsnr" v="869429" />
	</node>
	<node id="-902300" lat="71.0741611163" lon="24.7523137511">
		<tag k="name" v="Skolevannet" />
		<tag k="natural" v="water" />
		<tag k="ssr:stedsnr" v="444623" />
	</node>
	<node id="-902810" lat="70.6861555619" lon="25.0817276133">
		<tag k="name" v="Goahtečomajávri" />
		<tag k="name:se" v="Goahtečomajávri" />
		<tag k="natural" v="water" />
		<tag k="old_name:se" v="Goattečåmajavri" />
		<tag k="ssr:stedsnr" v="870869" />
	</node>
	<node id="-903833" lat="70.8023138918" lon="24.4836415377">
		<tag k="alt_name" v="Saltfjellvatnet, nedre" />
		<tag k="name" v="Nedre Saltfjellvatnet" />
		<tag k="natural" v="water" />
		<tag k="ssr:stedsnr" v="869409" />
	</node>
	<node id="-903318" lat="70.6802138921" lon="24.6790692862">
		<tag k="name" v="Langvannet" />
		<tag k="natural" v="water" />
		<tag k="ssr:stedsnr" v="323873" />
	</node>
	<node id="-903317" lat="70.6610916708" lon="25.0153692704">
		<tag k="name" v="Suolojávri" />
		<tag k="name:se" v="Suolojávri" />
		<tag k="natural" v="water" />
		<tag k="old_name:se" v="Suolujavri" />
		<tag k="ssr:stedsnr" v="323870" />
	</node>
	<node id="-903828" lat="70.839727785" lon="24.4250498699">
		<tag k="name" v="Grasvannet" />
		<tag k="natural" v="water" />
		<tag k="ssr:stedsnr" v="869307" />
	</node>
	<node id="-903827" lat="70.8309722219" lon="24.2706443301">
		<tag k="name" v="Grytvikvannet" />
		<tag k="natural" v="water" />
		<tag k="ssr:stedsnr" v="869305" />
	</node>
	<node id="-902801" lat="70.8428555566" lon="24.4147109736">
		<tag k="name" v="Nonstadvannet" />
		<tag k="natural" v="water" />
		<tag k="ssr:stedsnr" v="870306" />
		<tag k="water" v="lake" />
	</node>
	<node id="-903310" lat="71.0581222271" lon="24.7626470966">
		<tag k="fixme" v="multiple name tags, choose one and add the other to alt_name" />
		<tag k="name" v="Elvevikvannet;Kiholmvannet" />
		<tag k="natural" v="water" />
		<tag k="ssr:stedsnr" v="323693" />
	</node>
	<node id="-903305" lat="71.0397361146" lon="24.9709859679">
		<tag k="name" v="Rorvannet" />
		<tag k="natural" v="water" />
		<tag k="ssr:stedsnr" v="323673" />
	</node>
	<node id="-903816" lat="70.9181583392" lon="25.3785053595">
		<tag k="name" v="Ruksesjávri" />
		<tag k="name:se" v="Ruksesjávri" />
		<tag k="natural" v="water" />
		<tag k="old_name:se" v="Ruksesjavri" />
		<tag k="ssr:stedsnr" v="869057" />
	</node>
	<node id="-902791" lat="71.0060055563" lon="24.6462859647">
		<tag k="name" v="Store Lomvannet" />
		<tag k="natural" v="water" />
		<tag k="ssr:stedsnr" v="939151" />
	</node>
	<node id="-902278" lat="70.8165750057" lon="24.4596998684">
		<tag k="name" v="Daudmannsvannet" />
		<tag k="natural" v="water" />
		<tag k="ssr:stedsnr" v="444322" />
	</node>
	<node id="-902273" lat="70.9662805563" lon="24.0943860065">
		<tag k="name" v="Roggervannet" />
		<tag k="natural" v="water" />
		<tag k="ssr:stedsnr" v="444222" />
	</node>
	<node id="-903804" lat="70.7772111159" lon="24.5651109644">
		<tag k="name" v="Sandvannet" />
		<tag k="natural" v="water" />
		<tag k="ssr:stedsnr" v="815476" />
	</node>
	<node id="-903803" lat="70.9657472284" lon="24.6943165298">
		<tag k="name" v="Lillevannet" />
		<tag k="natural" v="water" />
		<tag k="ssr:stedsnr" v="814441" />
	</node>
	<node id="-903802" lat="70.9674416722" lon="24.6957554297">
		<tag k="name" v="Svartvannet" />
		<tag k="natural" v="water" />
		<tag k="ssr:stedsnr" v="814439" />
		<tag k="water" v="lake" />
	</node>
	<node id="-902829" lat="71.0224416686" lon="24.0247221325">
		<tag k="name" v="Perselva" />
		<tag k="ssr:stedsnr" v="898915" />
		<tag k="waterway" v="river" />
	</node>
	<node id="-902773" lat="71.0079722262" lon="23.9067610128">
		<tag k="name" v="Storskøytebanen" />
		<tag k="natural" v="water" />
		<tag k="ssr:stedsnr" v="934472" />
	</node>
	<node id="-903282" lat="70.8612527818" lon="24.9587359425">
		<tag k="alt_name" v="Fiskevatn" />
		<tag k="name" v="Fiskevatna" />
		<tag k="natural" v="water" />
		<tag k="ssr:stedsnr" v="323396" />
	</node>
	<node id="-902769" lat="70.7368250023" lon="24.7392220783">
		<tag k="name" v="Vuolit Čáhppesjávri" />
		<tag k="name:se" v="Vuolit Čáhppesjávri" />
		<tag k="natural" v="water" />
		<tag k="old_name:se" v="Čappesjavri, vuolit" />
		<tag k="ssr:stedsnr" v="930839" />
		<tag k="water" v="lake" />
	</node>
	<node id="-902767" lat="70.9953083324" lon="24.1905082262">
		<tag k="name" v="Småvatnan" />
		<tag k="natural" v="water" />
		<tag k="ssr:stedsnr" v="815471" />
	</node>
	<node id="-903357" lat="70.9479472249" lon="24.0840554397">
		<tag k="name" v="Svarthattvannet" />
		<tag k="natural" v="water" />
		<tag k="ssr:stedsnr" v="383216" />
	</node>
	<node id="-902266" lat="71.0184000062" lon="23.9932332389">
		<tag k="name" v="Russelva" />
		<tag k="ssr:stedsnr" v="230910" />
		<tag k="waterway" v="river" />
	</node>
	<node id="-903273" lat="70.7548555586" lon="24.4645637549">
		<tag k="name" v="Dážagurjávri" />
		<tag k="name:se" v="Dážagurjávri" />
		<tag k="natural" v="water" />
		<tag k="old_name:se" v="Dažagurjavri" />
		<tag k="ssr:stedsnr" v="323336" />
	</node>
	<node id="-903271" lat="70.7786250019" lon="24.3801665393">
		<tag k="name" v="Njunnošjohka" />
		<tag k="name:se" v="Njunnošjohka" />
		<tag k="old_name:se" v="Njunnušjåkka" />
		<tag k="ssr:stedsnr" v="323320" />
		<tag k="waterway" v="stream" />
	</node>
	<node id="-903269" lat="70.8349111136" lon="24.403638774">
		<tag k="fixme" v="multiple name tags, choose one and add the other to alt_name" />
		<tag k="name" v="Rundvannet;Store Rundvannet" />
		<tag k="natural" v="water" />
		<tag k="ssr:stedsnr" v="323288" />
	</node>
	<node id="-903266" lat="70.9895222237" lon="24.044716567">
		<tag k="name" v="Sandfjordvannet" />
		<tag k="natural" v="water" />
		<tag k="ssr:stedsnr" v="323247" />
		<tag k="water" v="lake" />
	</node>
	<node id="-903777" lat="70.6799500075" lon="24.8409970699">
		<tag k="name" v="Havvannet - Vuolit Áhpelanjávri" />
		<tag k="name:no" v="Havvannet" />
		<tag k="name:se" v="Vuolit Áhpelanjávri" />
		<tag k="natural" v="water" />
		<tag k="old_name:se" v="Appelanjavri, vuolit;Vuolit Áhpelaujávri" />
		<tag k="ssr:stedsnr" v="809888" />
		<tag k="water" v="lake" />
	</node>
	<node id="-902752" lat="70.8025527797" lon="24.9367498511">
		<tag k="name" v="Ullováhjohka" />
		<tag k="name:se" v="Ullováhjohka" />
		<tag k="old_name:se" v="Ulluvagjåkka" />
		<tag k="ssr:stedsnr" v="930501" />
		<tag k="waterway" v="stream" />
	</node>
	<node id="-903775" lat="70.7093805637" lon="24.6208165209">
		<tag k="name" v="Hammarvannet" />
		<tag k="natural" v="water" />
		<tag k="ssr:stedsnr" v="809831" />
	</node>
	<node id="-903262" lat="70.959075002" lon="23.9678943427">
		<tag k="name" v="Stoppelfjordvatna" />
		<tag k="natural" v="water" />
		<tag k="ssr:stedsnr" v="323155" />
		<tag k="water" v="lake" />
	</node>
	<node id="-903772" lat="70.7053388923" lon="25.0692748315">
		<tag k="name" v="Láhkoskáidi" />
		<tag k="name:se" v="Láhkoskáidi" />
		<tag k="natural" v="cape" />
		<tag k="old_name:se" v="Lakkuskaidi" />
		<tag k="ssr:stedsnr" v="809817" />
	</node>
	<node id="-902747" lat="70.876125007" lon="24.8658804145">
		<tag k="name" v="Ruitojávri" />
		<tag k="name:se" v="Ruitojávri" />
		<tag k="natural" v="water" />
		<tag k="old_name:se" v="Ruitujavri" />
		<tag k="ssr:stedsnr" v="930399" />
	</node>
	<node id="-902745" lat="70.7889527811" lon="24.3873915432">
		<tag k="name" v="Gárdatjávri" />
		<tag k="name:se" v="Gárdatjávri" />
		<tag k="natural" v="water" />
		<tag k="old_name:se" v="Gardatjavri" />
		<tag k="ssr:stedsnr" v="930384" />
	</node>
	<node id="-902232" lat="71.0162694472" lon="24.5759526512">
		<tag k="name" v="Gavlvannet" />
		<tag k="natural" v="water" />
		<tag k="ssr:stedsnr" v="272130" />
	</node>
	<node id="-902742" lat="70.8503222295" lon="25.2022164953">
		<tag k="name" v="Hálddajávri" />
		<tag k="name:se" v="Hálddajávri" />
		<tag k="natural" v="water" />
		<tag k="old_name:se" v="Haldajavri" />
		<tag k="ssr:stedsnr" v="930413" />
	</node>
	<node id="-903765" lat="71.0133055562" lon="24.0063193574">
		<tag k="alt_name" v="Nordmannselvvatnan" />
		<tag k="name" v="Nordmannselvvatna" />
		<tag k="natural" v="water" />
		<tag k="ssr:stedsnr" v="809643" />
		<tag k="water" v="lake" />
	</node>
	<node id="-902226" lat="70.8467000017" lon="24.9353470563">
		<tag k="name" v="Langvannet" />
		<tag k="natural" v="water" />
		<tag k="ssr:stedsnr" v="269389" />
		<tag k="water" v="lake" />
	</node>
	<node id="-903761" lat="70.7998694489" lon="24.7014387573">
		<tag k="name" v="Iŋggájávri" />
		<tag k="name:se" v="Iŋggájávri" />
		<tag k="natural" v="water" />
		<tag k="old_name:se" v="Iŋgajavri;Inkajavri" />
		<tag k="ssr:stedsnr" v="809502" />
	</node>
	<node id="-902736" lat="70.7834416675" lon="24.5120137609">
		<tag k="name" v="Ellenvannet" />
		<tag k="natural" v="water" />
		<tag k="ssr:stedsnr" v="930349" />
	</node>
	<node id="-902735" lat="70.7639388937" lon="24.4892609863">
		<tag k="name" v="Storevannet" />
		<tag k="natural" v="water" />
		<tag k="ssr:stedsnr" v="930340" />
		<tag k="water" v="lake" />
	</node>
	<node id="-902734" lat="70.7657388967" lon="24.5468637478">
		<tag k="fixme" v="multiple name tags, choose one and add the other to alt_name" />
		<tag k="name" v="Langvannet;Storvannet" />
		<tag k="natural" v="water" />
		<tag k="ssr:stedsnr" v="930334" />
		<tag k="water" v="lake" />
	</node>
	<node id="-903322" lat="70.9982416715" lon="23.9262276776">
		<tag k="name" v="Fiskelva" />
		<tag k="ssr:stedsnr" v="327500" />
		<tag k="waterway" v="river" />
	</node>
	<node id="-902730" lat="70.944050005" lon="24.1587943329">
		<tag k="name" v="Staufjellvannet" />
		<tag k="natural" v="water" />
		<tag k="ssr:stedsnr" v="930201" />
	</node>
	<node id="-903753" lat="70.8268750043" lon="24.4100470914">
		<tag k="name" v="Fartøyvikelva" />
		<tag k="ssr:stedsnr" v="809383" />
		<tag k="waterway" v="stream" />
	</node>
	<node id="-902216" lat="70.968100004" lon="24.0159499093">
		<tag k="name" v="Småvatnan" />
		<tag k="natural" v="water" />
		<tag k="ssr:stedsnr" v="267134" />
	</node>
	<node id="-903239" lat="70.9794944492" lon="24.0278721273">
		<tag k="name" v="Klebervannet" />
		<tag k="natural" v="water" />
		<tag k="ssr:stedsnr" v="206508" />
	</node>
	<node id="-903750" lat="70.8250361109" lon="24.6081582059">
		<tag k="name" v="Petternesvannet" />
		<tag k="natural" v="water" />
		<tag k="ssr:stedsnr" v="809373" />
	</node>
	<node id="-902720" lat="70.9779638883" lon="24.0183887882">
		<tag k="alt_name" v="Solomvatnet" />
		<tag k="fixme" v="multiple name tags, choose one and add the other to alt_name" />
		<tag k="name" v="Solumvatnet;Storvatnet" />
		<tag k="natural" v="water" />
		<tag k="ssr:stedsnr" v="930239" />
	</node>
	<node id="-902207" lat="70.768102778" lon="24.7785192959">
		<tag k="name" v="Ráššaláhkojohka" />
		<tag k="name:se" v="Ráššaláhkojohka" />
		<tag k="old_name:se" v="Raššalakkujåkka" />
		<tag k="ssr:stedsnr" v="263533" />
		<tag k="waterway" v="river" />
	</node>
	<node id="-903742" lat="70.8209444476" lon="25.222694266">
		<tag k="name" v="Neselva - Ávžejohka" />
		<tag k="name:no" v="Neselva" />
		<tag k="name:se" v="Ávžejohka" />
		<tag k="old_name:se" v="Avžejåkka" />
		<tag k="ssr:stedsnr" v="809132" />
		<tag k="waterway" v="river" />
	</node>
	<node id="-903741" lat="70.7744166737" lon="25.2244442656">
		<tag k="name" v="Jođáhatjávrrit" />
		<tag k="name:se" v="Jođáhatjávrrit" />
		<tag k="natural" v="water" />
		<tag k="old_name:se" v="Jådahatjavrit" />
		<tag k="ssr:stedsnr" v="809104" />
		<tag k="water" v="lake" />
	</node>
	<node id="-902716" lat="70.9539333336" lon="23.9737360169">
		<tag k="name" v="Storvannet" />
		<tag k="natural" v="water" />
		<tag k="ssr:stedsnr" v="930138" />
		<tag k="water" v="lake" />
	</node>
	<node id="-902202" lat="70.7913166661" lon="24.811652632">
		<tag k="name" v="Náránašjávri" />
		<tag k="name:se" v="Náránašjávri" />
		<tag k="natural" v="water" />
		<tag k="old_name:se" v="Naranašjavri" />
		<tag k="ssr:stedsnr" v="263519" />
	</node>
	<node id="-902201" lat="70.8065194517" lon="24.8187554108">
		<tag k="name" v="Lápmejávrrit" />
		<tag k="name:se" v="Lápmejávrrit" />
		<tag k="natural" v="water" />
		<tag k="old_name:se" v="Labmejavrit;Labmejávrit" />
		<tag k="ssr:stedsnr" v="263511" />
		<tag k="water" v="lake" />
	</node>
	<node id="-902200" lat="70.79663889" lon="25.0477803949">
		<tag k="name" v="Ávžejávri" />
		<tag k="name:se" v="Ávžejávri" />
		<tag k="natural" v="water" />
		<tag k="old_name:se" v="Avžejavri" />
		<tag k="ssr:stedsnr" v="263508" />
		<tag k="water" v="lake" />
	</node>
	<node id="-902324" lat="70.8171638958" lon="24.985838737">
		<tag k="name" v="Ruvžaguotkkojávri" />
		<tag k="name:se" v="Ruvžaguotkkojávri" />
		<tag k="natural" v="water" />
		<tag k="old_name:se" v="Ruvžaguotkujavri" />
		<tag k="ssr:stedsnr" v="445490" />
	</node>
	<node id="-903222" lat="70.6449416715" lon="24.833783169">
		<tag k="name" v="Njukčunskáidi" />
		<tag k="name:se" v="Njukčunskáidi" />
		<tag k="natural" v="cape" />
		<tag k="old_name:se" v="Njukčonskaidi" />
		<tag k="ssr:stedsnr" v="202863" />
	</node>
	<node id="-903774" lat="70.7268666705" lon="24.7456942816">
		<tag k="name" v="Borjjasjávri" />
		<tag k="name:se" v="Borjjasjávri" />
		<tag k="natural" v="water" />
		<tag k="old_name:se" v="Bårjasjavri" />
		<tag k="ssr:stedsnr" v="809828" />
	</node>
	<node id="-902192" lat="70.7810083388" lon="24.6027831913">
		<tag k="name" v="Sørkjoselva" />
		<tag k="ssr:stedsnr" v="263361" />
		<tag k="waterway" v="stream" />
	</node>
	<node id="-902188" lat="70.8699472228" lon="24.2500165407">
		<tag k="name" v="Storvannet" />
		<tag k="natural" v="water" />
		<tag k="ssr:stedsnr" v="263337" />
	</node>
	<node id="-903089" lat="70.8305805612" lon="24.4147859857">
		<tag k="name" v="Dalvannet" />
		<tag k="natural" v="water" />
		<tag k="ssr:stedsnr" v="141371" />
	</node>
	<node id="-903716" lat="71.0132527789" lon="24.5889109905">
		<tag k="name" v="Sjåvikvannet" />
		<tag k="natural" v="water" />
		<tag k="ssr:stedsnr" v="757127" />
	</node>
	<node id="-902417" lat="70.9468000047" lon="24.1832248824">
		<tag k="name" v="Lomvannet" />
		<tag k="natural" v="water" />
		<tag k="ssr:stedsnr" v="505210" />
	</node>
	<node id="-903712" lat="70.7864972294" lon="24.6164804182">
		<tag k="name" v="Snefjordelva" />
		<tag k="ssr:stedsnr" v="754517" />
		<tag k="waterway" v="river" />
	</node>
	<node id="-902576" lat="70.7472111147" lon="25.284016463">
		<tag k="name" v="Bealjáidjávri" />
		<tag k="name:se" v="Bealjáidjávri" />
		<tag k="natural" v="water" />
		<tag k="old_name:se" v="Bælljaidjavri" />
		<tag k="ssr:stedsnr" v="687972" />
		<tag k="water" v="lake" />
	</node>
	<node id="-902686" lat="70.6940055596" lon="24.6941053981">
		<tag k="name" v="Fosselva - Goržžijohka" />
		<tag k="name:no" v="Fosselva" />
		<tag k="name:se" v="Goržžijohka" />
		<tag k="ssr:stedsnr" v="748029" />
		<tag k="waterway" v="river" />
	</node>
	<node id="-902173" lat="70.72435556" lon="25.2225303644">
		<tag k="name" v="Heaikkánddejávri" />
		<tag k="name:se" v="Heaikkánddejávri" />
		<tag k="natural" v="water" />
		<tag k="old_name:se" v="Hæikandejavri" />
		<tag k="ssr:stedsnr" v="262980" />
	</node>
	<node id="-902170" lat="70.7220000023" lon="25.0958970397">
		<tag k="name" v="Láhkojávri" />
		<tag k="name:se" v="Láhkojávri" />
		<tag k="natural" v="water" />
		<tag k="old_name:se" v="Lakkujavri" />
		<tag k="ssr:stedsnr" v="262859" />
	</node>
	<node id="-903193" lat="70.7561694521" lon="25.1744387037">
		<tag k="name" v="Rátkkajávri" />
		<tag k="name:se" v="Rátkkajávri" />
		<tag k="natural" v="water" />
		<tag k="old_name:se" v="Ratkajavri" />
		<tag k="ssr:stedsnr" v="202450" />
	</node>
	<node id="-903191" lat="70.961850006" lon="24.6939609651">
		<tag k="name" v="Boalonjármuotki" />
		<tag k="name:se" v="Boalonjármuotki" />
		<tag k="natural" v="strait" />
		<tag k="old_name:se" v="Boalunjarmuotki" />
		<tag k="ssr:stedsnr" v="202416" />
	</node>
	<node id="-903186" lat="70.8574111168" lon="24.7465693002">
		<tag k="name" v="Lávvojávrrit" />
		<tag k="name:se" v="Lávvojávrrit" />
		<tag k="natural" v="water" />
		<tag k="old_name:se" v="Lavvujavrit" />
		<tag k="ssr:stedsnr" v="202394" />
		<tag k="water" v="lake" />
	</node>
	<node id="-902147" lat="70.8219500026" lon="24.3289554275">
		<tag k="name" v="Hattvikvannet" />
		<tag k="natural" v="water" />
		<tag k="ssr:stedsnr" v="262354" />
	</node>
	<node id="-903695" lat="70.740852782" lon="24.6639220896">
		<tag k="name" v="Gurbbošjávri" />
		<tag k="name:se" v="Gurbbošjávri" />
		<tag k="natural" v="water" />
		<tag k="old_name:se" v="Gurbušjavri" />
		<tag k="ssr:stedsnr" v="748847" />
	</node>
	<node id="-903694" lat="70.7012333355" lon="24.6970220766">
		<tag k="name" v="Fossevannet - Goržžijávri" />
		<tag k="name:no" v="Fossevannet" />
		<tag k="name:se" v="Goržžijávri" />
		<tag k="natural" v="water" />
		<tag k="ssr:stedsnr" v="748837" />
		<tag k="water" v="lake" />
	</node>
	<node id="-903693" lat="70.6880722297" lon="24.7008470691">
		<tag k="name" v="Lillefjordelva - Uhcavuonašjohka" />
		<tag k="name:no" v="Lillefjordelva" />
		<tag k="name:se" v="Uhcavuonašjohka" />
		<tag k="ssr:stedsnr" v="748830" />
		<tag k="waterway" v="river" />
	</node>
	<node id="-902668" lat="70.998447223" lon="24.6440137441">
		<tag k="name" v="Storvannet" />
		<tag k="natural" v="water" />
		<tag k="ssr:stedsnr" v="692394" />
		<tag k="water" v="lake" />
	</node>
	<node id="-902663" lat="71.0684222276" lon="24.7404526559">
		<tag k="name" v="Lillevannet" />
		<tag k="natural" v="water" />
		<tag k="ssr:stedsnr" v="882903" />
	</node>
	<node id="-902150" lat="70.9216888895" lon="24.782538756">
		<tag k="name" v="Sekkevannet" />
		<tag k="natural" v="water" />
		<tag k="ssr:stedsnr" v="262437" />
	</node>
	<node id="-903684" lat="70.7580833401" lon="24.9433276276">
		<tag k="name" v="Buvrejávri" />
		<tag k="name:se" v="Buvrejávri" />
		<tag k="natural" v="water" />
		<tag k="old_name:se" v="Buvrejavri" />
		<tag k="ssr:stedsnr" v="748500" />
	</node>
	<node id="-903683" lat="70.7806888918" lon="24.6471970822">
		<tag k="name" v="Snefjordvannet - Muorraljávri" />
		<tag k="name:no" v="Snefjordvannet" />
		<tag k="name:se" v="Muorraljávri" />
		<tag k="natural" v="water" />
		<tag k="ssr:stedsnr" v="748494" />
		<tag k="water" v="lake" />
	</node>
	<node id="-903791" lat="70.976613888" lon="24.0290137987">
		<tag k="name" v="Rivgobakkevannet" />
		<tag k="natural" v="water" />
		<tag k="ssr:stedsnr" v="813143" />
>>>>>>> e1d4bc35ff8a6074a6f2e91616a996b547c36f15
	</node>
</osm>
