<?xml version="1.0" encoding="UTF-8"?>
<osm version="0.6" generator="osmapis">
	<node lat="71.11322500558747" lon="24.71157208266393" id="-40495">
		<tag k="name" v="Kvænnesen" />
		<tag k="natural" v="cape" />
		<tag k="ssr:stedsnr" v="230025" />
	</node>
	<node lat="71.01363611401652" lon="25.061224852490945" id="-40496">
		<tag k="name" v="Småskallen" />
		<tag k="natural" v="shoal" />
		<tag k="place" v="locality" />
		<tag k="ssr:stedsnr" v="230070" />
	</node>
	<node lat="70.92417778014045" lon="25.25916649134465" id="-40497">
		<tag k="name" v="Lillebåen" />
		<tag k="natural" v="shoal" />
		<tag k="place" v="locality" />
		<tag k="ssr:stedsnr" v="230190" />
	</node>
	<node lat="70.99375833542062" lon="24.179741569690144" id="-40498">
		<tag k="name" v="Kobbevika" />
		<tag k="natural" v="bay" />
		<tag k="ssr:stedsnr" v="230815" />
	</node>
	<node lat="70.8549222297841" lon="25.311005381572006" id="-40499">
		<tag k="name" v="Veidnesgrunnen" />
		<tag k="natural" v="shoal" />
		<tag k="place" v="locality" />
		<tag k="ssr:stedsnr" v="20008" />
	</node>
	<node lat="70.95153333342523" lon="24.512677648976116" id="-40500">
		<tag k="alt_name" v="Nebbegrunnen, bortre" />
		<tag k="name" v="Bortre Nebbegrunnen" />
		<tag k="natural" v="shoal" />
		<tag k="place" v="locality" />
		<tag k="ssr:stedsnr" v="20201" />
	</node>
	<node lat="70.97066111550832" lon="24.121374904197978" id="-40504">
		<tag k="name" v="Elvevika" />
		<tag k="natural" v="bay" />
		<tag k="ssr:stedsnr" v="20246" />
	</node>
	<node lat="70.80412778559547" lon="25.234683144227855" id="-40505">
		<tag k="bay" v="fjord" />
		<tag k="name" v="Vesterbotnen - Oalangohppi" />
		<tag k="name:no" v="Vesterbotnen" />
		<tag k="name:se" v="Oalangohppi" />
		<tag k="natural" v="bay" />
		<tag k="old_name:se" v="Oalangåppi" />
		<tag k="ssr:stedsnr" v="20101" />
	</node>
	<node lat="70.84918611373064" lon="24.399277668926256" id="-40508">
		<tag k="name" v="Nonstadvika - Siidagohppi" />
		<tag k="name:no" v="Nonstadvika" />
		<tag k="name:se" v="Siidagohppi" />
		<tag k="natural" v="bay" />
		<tag k="old_name:se" v="Siidagåppi" />
		<tag k="ssr:stedsnr" v="20251" />
	</node>
	<node lat="70.8563527831157" lon="24.56787208481303" id="-40509">
		<tag k="name" v="Marilandet" />
		<tag k="natural" v="beach" />
		<tag k="ssr:stedsnr" v="20253" />
	</node>
	<node lat="70.84121944983332" lon="24.241416541285403" id="-40510">
		<tag k="name" v="Vesternesnæringen" />
		<tag k="natural" v="cape" />
		<tag k="ssr:stedsnr" v="20254" />
	</node>
	<node lat="70.8568111111373" lon="24.317185979681234" id="-40513">
		<tag k="name" v="Ytre Pollen" />
		<tag k="natural" v="bay" />
		<tag k="old_name" v="Pollen, yt" />
		<tag k="ssr:stedsnr" v="20266" />
	</node>
	<node lat="71.04978056185772" lon="24.923413732524946" id="-40520">
		<tag k="fixme" v="consider seamark:type=rock or natural=shoal" />
		<tag k="name" v="Kalveskjæret" />
		<tag k="place" v="islet" />
		<tag k="ssr:stedsnr" v="20705" />
	</node>
	<node lat="71.00846111670228" lon="24.912444287240184" id="-40522">
		<tag k="name" v="Vestervåggrunnen" />
		<tag k="natural" v="shoal" />
		<tag k="place" v="locality" />
		<tag k="ssr:stedsnr" v="20740" />
	</node>
	<node lat="71.04077777894774" lon="25.04382483426626" id="-40525">
		<tag k="name" v="Ålmannvikneset" />
		<tag k="natural" v="cape" />
		<tag k="ssr:stedsnr" v="20694" />
	</node>
	<node lat="70.78936944413809" lon="24.60812207904636" id="-40528">
		<tag k="name" v="Elvenes" />
		<tag k="natural" v="cape" />
		<tag k="ssr:stedsnr" v="24387" />
	</node>
	<node lat="71.01405833180162" lon="23.934019355068514" id="-40529">
		<tag k="name" v="Langkjeila" />
		<tag k="natural" v="bay" />
		<tag k="ssr:stedsnr" v="24534" />
	</node>
	<node lat="70.78560833769487" lon="24.5910748737499" id="-40530">
		<tag k="name" v="Seibergneset" />
		<tag k="natural" v="cape" />
		<tag k="ssr:stedsnr" v="26505" />
	</node>
	<node lat="71.02661666983472" lon="23.99396379768388" id="-40535">
		<tag k="name" v="Kalveneset" />
		<tag k="natural" v="cape" />
		<tag k="ssr:stedsnr" v="48923" />
	</node>
	<node lat="71.03531111623568" lon="24.021699894087043" id="-40536">
		<tag k="name" v="Floneset" />
		<tag k="natural" v="cape" />
		<tag k="ssr:stedsnr" v="48925" />
	</node>
	<node lat="70.83929722529781" lon="25.340133154598455" id="-40538">
		<tag k="name" v="Øyregrunnen" />
		<tag k="natural" v="shoal" />
		<tag k="place" v="locality" />
		<tag k="ssr:stedsnr" v="80008" />
	</node>
	<node lat="70.67630833861035" lon="24.615885977394115" id="-40539">
		<tag k="fixme" v="consider seamark:type=rock or natural=shoal" />
		<tag k="name" v="Vekselvikskjæret - Vieksaluohlássá" />
		<tag k="name:no" v="Vekselvikskjæret" />
		<tag k="name:se" v="Vieksaluohlássá" />
		<tag k="old_name:se" v="Vieksaluoklassa" />
		<tag k="place" v="islet" />
		<tag k="ssr:stedsnr" v="80125" />
	</node>
	<node lat="71.09149166946783" lon="23.983716564377975" id="-40542">
		<tag k="alt_name" v="Kvannholmen, vestre" />
		<tag k="fixme" v="multiple name tags, choose one and add the other to alt_name" />
		<tag k="name" v="Kvannholman;Vestre Kvannholmen" />
		<tag k="place" v="islet" />
		<tag k="ssr:stedsnr" v="80504" />
	</node>
	<node lat="71.08055833924539" lon="24.00109156611148" id="-40543">
		<tag k="name" v="Prestholmen" />
		<tag k="place" v="islet" />
		<tag k="ssr:stedsnr" v="80588" />
	</node>
	<node lat="71.08511389179311" lon="24.03595545635249" id="-40544">
		<tag k="name" v="Rekvika" />
		<tag k="natural" v="bay" />
		<tag k="ssr:stedsnr" v="80589" />
	</node>
	<node lat="71.1152777770426" lon="24.597222097089364" id="-40545">
		<tag k="name" v="Akkarfjordskallen" />
		<tag k="natural" v="shoal" />
		<tag k="place" v="locality" />
		<tag k="ssr:stedsnr" v="80597" />
	</node>
	<node lat="70.88140555547783" lon="25.38352203731181" id="-40547">
		<tag k="name" v="Oterneset" />
		<tag k="natural" v="cape" />
		<tag k="ssr:stedsnr" v="81027" />
	</node>
	<node lat="70.70254999985505" lon="24.454435982169528" id="-40550">
		<tag k="bay" v="fjord" />
		<tag k="name" v="Revsbotn - Jáhkovuonna" />
		<tag k="name:no" v="Revsbotn" />
		<tag k="name:se" v="Jáhkovuonna" />
		<tag k="natural" v="bay" />
		<tag k="old_name:se" v="Jakkuvuodna;Jáhkovuotna" />
		<tag k="ssr:stedsnr" v="81190" />
	</node>
	<node lat="70.93317499864962" lon="24.0957804612029" id="-40552">
		<tag k="name" v="Sørhamn" />
		<tag k="natural" v="bay" />
		<tag k="ssr:stedsnr" v="81241" />
	</node>
	<node lat="70.94885277916241" lon="24.792558195562357" id="-40553">
		<tag k="alt_name" v="Storvika, in" />
		<tag k="name" v="Indre Storvika" />
		<tag k="natural" v="bay" />
		<tag k="ssr:stedsnr" v="81441" />
	</node>
	<node lat="70.72075000231452" lon="24.52765541022524" id="-40554">
		<tag k="name" v="Akneset - Áhkonjárga" />
		<tag k="name:no" v="Akneset" />
		<tag k="name:se" v="Áhkonjárga" />
		<tag k="natural" v="cape" />
		<tag k="old_name:se" v="Akkunjarga" />
		<tag k="ssr:stedsnr" v="81197" />
	</node>
	<node lat="70.73222777934886" lon="24.528949871988658" id="-40555">
		<tag k="name" v="Gorbus - Gurbbošgohppi" />
		<tag k="name:no" v="Gorbus" />
		<tag k="name:se" v="Gurbbošgohppi" />
		<tag k="natural" v="bay" />
		<tag k="old_name:se" v="Gurbušgåppi" />
		<tag k="ssr:stedsnr" v="81199" />
	</node>
	<node lat="70.92233333512536" lon="24.555858212021562" id="-40556">
		<tag k="alt_name" v="Hattebukta" />
		<tag k="name" v="Hattevika" />
		<tag k="natural" v="bay" />
		<tag k="ssr:stedsnr" v="81304" />
	</node>
	<node lat="70.92438611892385" lon="24.39173876135831" id="-40557">
		<tag k="name" v="Nipgrunnen" />
		<tag k="natural" v="shoal" />
		<tag k="place" v="locality" />
		<tag k="ssr:stedsnr" v="81313" />
	</node>
	<node lat="70.78588333610975" lon="24.248533204920985" id="-40560">
		<tag k="alt_name" v="Hattvika" />
		<tag k="name" v="Hattevika" />
		<tag k="natural" v="bay" />
		<tag k="ssr:stedsnr" v="81397" />
	</node>
	<node lat="70.91473333901575" lon="24.605024880724937" id="-40562">
		<tag k="name" v="Skjåneset" />
		<tag k="natural" v="cape" />
		<tag k="ssr:stedsnr" v="81543" />
	</node>
	<node lat="70.79718889451054" lon="24.5549582052157" id="-40563">
		<tag k="alt_name" v="Gytevik;Gytvika" />
		<tag k="name" v="Djupvika" />
		<tag k="natural" v="bay" />
		<tag k="ssr:stedsnr" v="81546" />
	</node>
	<node lat="71.08105833405" lon="24.348591558417695" id="-40564">
		<tag k="name" v="Trondgrunnen" />
		<tag k="natural" v="shoal" />
		<tag k="place" v="locality" />
		<tag k="ssr:stedsnr" v="81585" />
	</node>
	<node lat="71.04211944669237" lon="24.052347131574315" id="-40565">
		<tag k="alt_name" v="Kuhellarn;Kuhellaren" />
		<tag k="name" v="Kuhelleran" />
		<tag k="natural" v="cape" />
		<tag k="ssr:stedsnr" v="81641" />
	</node>
	<node lat="71.05662777988961" lon="24.09286934649166" id="-40567">
		<tag k="name" v="Eidnesbukta" />
		<tag k="natural" v="bay" />
		<tag k="ssr:stedsnr" v="85030" />
	</node>
	<node lat="70.9994666655773" lon="23.853783236235483" id="-40569">
		<tag k="fixme" v="consider seamark:type=rock or natural=shoal" />
		<tag k="name" v="Gekkoskjæret" />
		<tag k="place" v="islet" />
		<tag k="ssr:stedsnr" v="85478" />
	</node>
	<node lat="71.08910000803087" lon="24.692474863279603" id="-40578">
		<tag k="name" v="Holmen" />
		<tag k="natural" v="cape" />
		<tag k="ssr:stedsnr" v="108025" />
	</node>
	<node lat="70.9225305610779" lon="24.812683200013325" id="-40579">
		<tag k="name" v="Nordstrand" />
		<tag k="natural" v="beach" />
		<tag k="ssr:stedsnr" v="109222" />
	</node>
	<node lat="71.09395278116463" lon="24.06057491300723" id="-40580">
		<tag k="fixme" v="consider seamark:type=rock or natural=shoal" />
		<tag k="name" v="Storskarvbaren" />
		<tag k="place" v="islet" />
		<tag k="ssr:stedsnr" v="140576" />
	</node>
	<node lat="71.00748611009868" lon="24.607402657021343" id="-40581">
		<tag k="name" v="Havøya - Ávvá" />
		<tag k="name:no" v="Havøya" />
		<tag k="name:se" v="Ávvá" />
		<tag k="old_name:se" v="Avva" />
		<tag k="place" v="island" />
		<tag k="ssr:stedsnr" v="141239" />
	</node>
	<node lat="70.97273889177667" lon="23.92063601345884" id="-40582">
		<tag k="name" v="Rossvikodden" />
		<tag k="natural" v="cape" />
		<tag k="ssr:stedsnr" v="141133" />
	</node>
	<node lat="70.96308611282323" lon="24.218260998147255" id="-40583">
		<tag k="fixme" v="multiple name tags, choose one and add the other to alt_name; consider seamark:type=rock or natural=shoal" />
		<tag k="name" v="Krykkjenesskjæret;Krykkjeskjæret" />
		<tag k="place" v="islet" />
		<tag k="ssr:stedsnr" v="141184" />
	</node>
	<node lat="70.80281111239545" lon="24.52968598656091" id="-40585">
		<tag k="name" v="Sinkos - Čiŋkošgáddi" />
		<tag k="name:no" v="Sinkos" />
		<tag k="name:se" v="Čiŋkošgáddi" />
		<tag k="natural" v="beach" />
		<tag k="old_name:se" v="Čiŋkušgaddi" />
		<tag k="ssr:stedsnr" v="141385" />
	</node>
	<node lat="70.80300277677017" lon="24.586474871210054" id="-40586">
		<tag k="name" v="Snefjordholmen - Muorralsuolu" />
		<tag k="name:no" v="Snefjordholmen" />
		<tag k="name:se" v="Muorralsuolu" />
		<tag k="place" v="island" />
		<tag k="ssr:stedsnr" v="141386" />
	</node>
	<node lat="70.87573611730319" lon="25.00227484700862" id="-40588">
		<tag k="alt_name" v="Alkanes" />
		<tag k="name" v="Alkeneset" />
		<tag k="natural" v="cape" />
		<tag k="ssr:stedsnr" v="141404" />
	</node>
	<node lat="70.86672500876902" lon="25.02284149874856" id="-40590">
		<tag k="name" v="Álka" />
		<tag k="name:se" v="Álka" />
		<tag k="natural" v="bay" />
		<tag k="old_name:se" v="Alka" />
		<tag k="ssr:stedsnr" v="141414" />
	</node>
	<node lat="70.92914444799494" lon="24.836980395010908" id="-40592">
		<tag k="name" v="Sandvikneset" />
		<tag k="natural" v="cape" />
		<tag k="ssr:stedsnr" v="141435" />
	</node>
	<node lat="70.94171389161997" lon="25.040380406042726" id="-40593">
		<tag k="name" v="Hornvika" />
		<tag k="natural" v="bay" />
		<tag k="ssr:stedsnr" v="141436" />
	</node>
	<node lat="71.03705833354364" lon="24.0201748940085" id="-40596">
		<tag k="fixme" v="consider seamark:type=rock or natural=shoal" />
		<tag k="name" v="Flåskjæret" />
		<tag k="place" v="islet" />
		<tag k="ssr:stedsnr" v="141624" />
	</node>
	<node lat="71.0463249971705" lon="24.035277690193382" id="-40597">
		<tag k="name" v="Båtkeila" />
		<tag k="natural" v="bay" />
		<tag k="ssr:stedsnr" v="141635" />
	</node>
	<node lat="71.07707222282444" lon="24.140541575458187" id="-40598">
		<tag k="name" v="Gåsnes" />
		<tag k="natural" v="cape" />
		<tag k="ssr:stedsnr" v="141585" />
	</node>
	<node lat="71.09075000711617" lon="24.113502671288988" id="-40599">
		<tag k="alt_name" v="Kartøya, store" />
		<tag k="fixme" v="multiple name tags, choose one and add the other to alt_name" />
		<tag k="name" v="Kartøya;Store Kartøya" />
		<tag k="place" v="island" />
		<tag k="ssr:stedsnr" v="141591" />
	</node>
	<node lat="71.0838111119881" lon="24.010233223874348" id="-40600">
		<tag k="alt_name" v="Toften" />
		<tag k="name" v="Tufta" />
		<tag k="natural" v="cape" />
		<tag k="ssr:stedsnr" v="141594" />
	</node>
	<node lat="71.00778055640755" lon="24.782949864438418" id="-40601">
		<tag k="name" v="Trollfjordnesgrunnen" />
		<tag k="natural" v="shoal" />
		<tag k="place" v="locality" />
		<tag k="ssr:stedsnr" v="141687" />
	</node>
	<node lat="71.07458611433354" lon="24.071263796909605" id="-40603">
		<tag k="name" v="Valan" />
		<tag k="natural" v="cape" />
		<tag k="ssr:stedsnr" v="145012" />
	</node>
	<node lat="71.06819167385703" lon="24.04003045078199" id="-40604">
		<tag k="name" v="Holmestrand" />
		<tag k="natural" v="beach" />
		<tag k="ssr:stedsnr" v="145120" />
	</node>
	<node lat="71.06611111054289" lon="24.594347096499874" id="-40605">
		<tag k="name" v="Geitingsundet" />
		<tag k="natural" v="strait" />
		<tag k="ssr:stedsnr" v="145402" />
	</node>
	<node lat="70.86427500045576" lon="24.680263747037436" id="-40608">
		<tag k="name" v="Pollen" />
		<tag k="natural" v="bay" />
		<tag k="ssr:stedsnr" v="145395" />
	</node>
	<node lat="70.80315833543416" lon="24.62216376259719" id="-40609">
		<tag k="name" v="Ongelneset" />
		<tag k="natural" v="cape" />
		<tag k="ssr:stedsnr" v="145396" />
	</node>
	<node lat="71.07343333561006" lon="24.741849853040815" id="-40613">
		<tag k="name" v="Lillevik" />
		<tag k="natural" v="bay" />
		<tag k="ssr:stedsnr" v="150006" />
	</node>
	<node lat="71.00267500148873" lon="25.020677618672316" id="-40614">
		<tag k="fixme" v="consider seamark:type=rock or natural=shoal" />
		<tag k="name" v="Steinen" />
		<tag k="place" v="islet" />
		<tag k="ssr:stedsnr" v="150059" />
	</node>
	<node lat="70.98735833385317" lon="24.124497128407857" id="-40615">
		<tag k="fixme" v="consider seamark:type=rock or natural=shoal" />
		<tag k="name" v="Gunnarnesskjæret" />
		<tag k="place" v="islet" />
		<tag k="ssr:stedsnr" v="169823" />
	</node>
	<node lat="70.68581111583701" lon="24.601499857549726" id="-40616">
		<tag k="name" v="Krokvika - Roahkkegávva" />
		<tag k="name:no" v="Krokvika" />
		<tag k="name:se" v="Roahkkegávva" />
		<tag k="natural" v="bay" />
		<tag k="old_name:se" v="Roakkegavva" />
		<tag k="ssr:stedsnr" v="262126" />
	</node>
	<node lat="70.94128334099517" lon="25.31264982005167" id="-40618">
		<tag k="name" v="Finnstadneset" />
		<tag k="natural" v="cape" />
		<tag k="ssr:stedsnr" v="262056" />
	</node>
	<node lat="70.94018889411336" lon="25.498619235231946" id="-40620">
		<tag k="name" v="Magerøysundet - Máhkarainuorri" />
		<tag k="name:no" v="Magerøysundet" />
		<tag k="name:se" v="Máhkarainuorri" />
		<tag k="natural" v="strait" />
		<tag k="old_name:se" v="Makkarajnuorri" />
		<tag k="ssr:stedsnr" v="262060" />
	</node>
	<node lat="70.9437833327022" lon="23.93386934831366" id="-40621">
		<tag k="bay" v="fjord" />
		<tag k="name" v="Stoppelfjorden" />
		<tag k="natural" v="bay" />
		<tag k="ssr:stedsnr" v="262141" />
	</node>
	<node lat="70.8068583389198" lon="24.27176378536949" id="-40624">
		<tag k="name" v="Jogašluokta" />
		<tag k="name:se" v="Jogašluokta" />
		<tag k="natural" v="bay" />
		<tag k="old_name:se" v="Jågašluokta" />
		<tag k="ssr:stedsnr" v="262336" />
	</node>
	<node lat="70.9187583368726" lon="24.821827631946036" id="-40629">
		<tag k="name" v="Vesterbotn - Veahčervuotna" />
		<tag k="name:no" v="Vesterbotn" />
		<tag k="name:se" v="Veahčervuotna" />
		<tag k="natural" v="bay" />
		<tag k="old_name:se" v="Væččervuodna" />
		<tag k="ssr:stedsnr" v="262439" />
	</node>
	<node lat="70.92334444670051" lon="24.870530405546273" id="-40630">
		<tag k="alt_name" v="Nordmannsvik, yt" />
		<tag k="name" v="Ytre Nordmannsvika" />
		<tag k="natural" v="bay" />
		<tag k="ssr:stedsnr" v="262440" />
	</node>
	<node lat="70.91792500560645" lon="24.925330409429503" id="-40631">
		<tag k="name" v="Risvika" />
		<tag k="natural" v="bay" />
		<tag k="ssr:stedsnr" v="262442" />
	</node>
	<node lat="71.09863333839115" lon="24.06988322907293" id="-40632">
		<tag k="fixme" v="consider seamark:type=rock or natural=shoal" />
		<tag k="name" v="Lilleskarvbaren" />
		<tag k="place" v="islet" />
		<tag k="ssr:stedsnr" v="262601" />
	</node>
	<node lat="71.04420000555515" lon="23.968486025543612" id="-40633">
		<tag k="name" v="Hammarneset" />
		<tag k="natural" v="cape" />
		<tag k="ssr:stedsnr" v="262562" />
	</node>
	<node lat="71.07045277652601" lon="23.983122129143343" id="-40634">
		<tag k="name" v="Porthola" />
		<tag k="natural" v="bay" />
		<tag k="ssr:stedsnr" v="262568" />
	</node>
	<node lat="71.06208333764734" lon="24.009999893249425" id="-40635">
		<tag k="name" v="Langnesklubben" />
		<tag k="natural" v="cape" />
		<tag k="ssr:stedsnr" v="262579" />
	</node>
	<node lat="71.05118889057916" lon="25.103924835752608" id="-40637">
		<tag k="name" v="Storskallen" />
		<tag k="natural" v="shoal" />
		<tag k="place" v="locality" />
		<tag k="ssr:stedsnr" v="262674" />
	</node>
	<node lat="71.10588889167188" lon="24.840191527680506" id="-40638">
		<tag k="fixme" v="multiple name tags, choose one and add the other to alt_name; consider seamark:type=rock or natural=shoal" />
		<tag k="name" v="Rundskjæret;Lilleskjæret" />
		<tag k="place" v="islet" />
		<tag k="ssr:stedsnr" v="262632" />
	</node>
	<node lat="71.03999167352217" lon="25.103458166468034" id="-40640">
		<tag k="name" v="Kvannligrunnen" />
		<tag k="natural" v="shoal" />
		<tag k="place" v="locality" />
		<tag k="ssr:stedsnr" v="262682" />
	</node>
	<node lat="71.02922500390008" lon="24.72515264151219" id="-40641">
		<tag k="name" v="Sirielva" />
		<tag k="natural" v="bay" />
		<tag k="ssr:stedsnr" v="262684" />
	</node>
	<node lat="70.88921389162758" lon="25.317947030124905" id="-40646">
		<tag k="fixme" v="consider seamark:type=rock or natural=shoal" />
		<tag k="name" v="Kobbeskjæret - Gáhppovuonlásis" />
		<tag k="name:no" v="Kobbeskjæret" />
		<tag k="name:se" v="Gáhppovuonlásis" />
		<tag k="old_name:se" v="Gappuvuonlasis" />
		<tag k="place" v="islet" />
		<tag k="ssr:stedsnr" v="263049" />
	</node>
	<node lat="70.8120944527384" lon="25.266569255517684" id="-40647">
		<tag k="name" v="Kjerringvika" />
		<tag k="natural" v="bay" />
		<tag k="ssr:stedsnr" v="263118" />
	</node>
	<node lat="70.90865833372902" lon="24.58090263243614" id="-40649">
		<tag k="name" v="Sætervika" />
		<tag k="natural" v="bay" />
		<tag k="ssr:stedsnr" v="263327" />
	</node>
	<node lat="70.9216805596076" lon="24.485722108960836" id="-40650">
		<tag k="name" v="Lille Latøya - Duolbaláhttá" />
		<tag k="name:no" v="Lille Latøya" />
		<tag k="name:se" v="Duolbaláhttá" />
		<tag k="old_name:no" v="Latøya, l" />
		<tag k="old_name:se" v="Duolbalatta" />
		<tag k="place" v="island" />
		<tag k="ssr:stedsnr" v="263332" />
	</node>
	<node lat="70.92534166872822" lon="24.547949877293146" id="-40651">
		<tag k="name" v="Straumsneset" />
		<tag k="natural" v="cape" />
		<tag k="ssr:stedsnr" v="263333" />
	</node>
	<node lat="70.92906666662937" lon="24.55039985920001" id="-40652">
		<tag k="alt_name" v="Tarevika" />
		<tag k="name" v="Tarvika" />
		<tag k="natural" v="bay" />
		<tag k="ssr:stedsnr" v="263335" />
	</node>
	<node lat="70.87560000005959" lon="24.365780425192007" id="-40653">
		<tag k="fixme" v="consider seamark:type=rock or natural=shoal" />
		<tag k="name" v="Steinen" />
		<tag k="place" v="islet" />
		<tag k="ssr:stedsnr" v="263336" />
	</node>
	<node lat="70.96020555657564" lon="24.834308174924537" id="-40655">
		<tag k="name" v="Storvikgrunnen" />
		<tag k="natural" v="shoal" />
		<tag k="place" v="locality" />
		<tag k="ssr:stedsnr" v="263431" />
	</node>
	<node lat="70.89544722662306" lon="24.58843320641722" id="-40659">
		<tag k="name" v="Skjarvelandet" />
		<tag k="natural" v="beach" />
		<tag k="ssr:stedsnr" v="263344" />
	</node>
	<node lat="70.75107500070206" lon="24.367008205089743" id="-40663">
		<tag k="name" v="Reinofferbukta" />
		<tag k="natural" v="bay" />
		<tag k="ssr:stedsnr" v="263375" />
	</node>
	<node lat="71.14708333606202" lon="24.782827651621464" id="-40665">
		<tag k="name" v="Nilsråsa" />
		<tag k="natural" v="shoal" />
		<tag k="place" v="locality" />
		<tag k="ssr:stedsnr" v="263663" />
	</node>
	<node lat="71.12363055696613" lon="24.63014152728163" id="-40666">
		<tag k="name" v="Staurgrunnen" />
		<tag k="natural" v="shoal" />
		<tag k="place" v="locality" />
		<tag k="ssr:stedsnr" v="263666" />
	</node>
	<node lat="71.02795555612708" lon="24.4921748728368" id="-40676">
		<tag k="name" v="Staurgrunnen" />
		<tag k="natural" v="shoal" />
		<tag k="place" v="locality" />
		<tag k="ssr:stedsnr" v="263620" />
	</node>
	<node lat="71.05543056059767" lon="24.550763763330263" id="-40677">
		<tag k="name" v="Latøygrunnen" />
		<tag k="natural" v="shoal" />
		<tag k="place" v="locality" />
		<tag k="ssr:stedsnr" v="263629" />
	</node>
	<node lat="70.68450555969848" lon="24.627999866251496" id="-40679">
		<tag k="name" v="Lillefjordneset - Vuoŧkevuonnjárga" />
		<tag k="name:no" v="Lillefjordneset" />
		<tag k="name:se" v="Vuoŧkevuonnjárga" />
		<tag k="natural" v="cape" />
		<tag k="ssr:stedsnr" v="263825" />
	</node>
	<node lat="70.99106667190512" lon="24.62273876432434" id="-40681">
		<tag k="name" v="Råskjæringsneset" />
		<tag k="natural" v="cape" />
		<tag k="ssr:stedsnr" v="267374" />
	</node>
	<node lat="70.92969444508296" lon="23.94298878970445" id="-40685">
		<tag k="name" v="Gåsvikneset" />
		<tag k="natural" v="cape" />
		<tag k="ssr:stedsnr" v="202141" />
	</node>
	<node lat="70.86892777917882" lon="24.373841541459445" id="-40686">
		<tag k="name" v="Tarevika" />
		<tag k="natural" v="bay" />
		<tag k="ssr:stedsnr" v="202302" />
	</node>
	<node lat="70.86911944579819" lon="24.263822104287964" id="-40687">
		<tag k="name" v="Purkevika" />
		<tag k="natural" v="bay" />
		<tag k="ssr:stedsnr" v="202304" />
	</node>
	<node lat="70.88360000545298" lon="24.302266561219852" id="-40688">
		<tag k="name" v="Reinøyspira" />
		<tag k="natural" v="cape" />
		<tag k="ssr:stedsnr" v="202310" />
	</node>
	<node lat="70.87802777690163" lon="24.28687487905213" id="-40689">
		<tag k="name" v="Reinøyvalen" />
		<tag k="natural" v="bay" />
		<tag k="ssr:stedsnr" v="202311" />
	</node>
	<node lat="70.80998056011201" lon="24.031733241088148" id="-40691">
		<tag k="name" v="Bjørnøyskallen" />
		<tag k="natural" v="shoal" />
		<tag k="place" v="locality" />
		<tag k="ssr:stedsnr" v="202349" />
	</node>
	<node lat="70.95307222866849" lon="24.54518877616273" id="-40693">
		<tag k="name" v="Nebben" />
		<tag k="natural" v="cape" />
		<tag k="ssr:stedsnr" v="202203" />
	</node>
	<node lat="70.93812500067475" lon="24.454397097748238" id="-40694">
		<tag k="name" v="Småskallen" />
		<tag k="natural" v="shoal" />
		<tag k="place" v="locality" />
		<tag k="ssr:stedsnr" v="202207" />
	</node>
	<node lat="70.93413333580489" lon="24.401052657696912" id="-40695">
		<tag k="name" v="Lysgrunnan" />
		<tag k="natural" v="shoal" />
		<tag k="place" v="locality" />
		<tag k="ssr:stedsnr" v="202209" />
	</node>
	<node lat="70.92940555997431" lon="24.144588785371777" id="-40696">
		<tag k="name" v="Rolvshamnneset" />
		<tag k="natural" v="cape" />
		<tag k="ssr:stedsnr" v="202211" />
	</node>
	<node lat="70.93447499922091" lon="24.157161014138943" id="-40697">
		<tag k="name" v="Spira" />
		<tag k="natural" v="cape" />
		<tag k="ssr:stedsnr" v="202214" />
	</node>
	<node lat="70.9162222261858" lon="24.601899864398057" id="-40703">
		<tag k="name" v="Klubben" />
		<tag k="place" v="islet" />
		<tag k="ssr:stedsnr" v="202291" />
	</node>
	<node lat="70.92720000382293" lon="24.427033218731253" id="-40704">
		<tag k="name" v="Store Latøya - Čohkaláhttá" />
		<tag k="name:no" v="Store Latøya" />
		<tag k="name:se" v="Čohkaláhttá" />
		<tag k="old_name:no" v="Latøya, store" />
		<tag k="old_name:se" v="Čåkkalatta" />
		<tag k="place" v="island" />
		<tag k="ssr:stedsnr" v="202295" />
	</node>
	<node lat="71.06221389621055" lon="24.77080263210761" id="-40705">
		<tag k="alt_name" v="Elvevik" />
		<tag k="name" v="Elvevika" />
		<tag k="natural" v="bay" />
		<tag k="ssr:stedsnr" v="202402" />
	</node>
	<node lat="71.06903056082744" lon="24.124955460499592" id="-40709">
		<tag k="fixme" v="consider seamark:type=rock or natural=shoal" />
		<tag k="name" v="Småvikran" />
		<tag k="place" v="islet" />
		<tag k="ssr:stedsnr" v="202605" />
	</node>
	<node lat="71.04644166559352" lon="24.024819340322082" id="-40710">
		<tag k="name" v="Stokkneset" />
		<tag k="natural" v="cape" />
		<tag k="ssr:stedsnr" v="202651" />
	</node>
	<node lat="70.8627388906183" lon="24.31358876263158" id="-40714">
		<tag k="alt_name" v="Stormolla" />
		<tag k="name" v="Molla" />
		<tag k="natural" v="bay" />
		<tag k="ssr:stedsnr" v="202551" />
	</node>
	<node lat="70.79311944988704" lon="24.169958222801426" id="-40715">
		<tag k="name" v="Store Rypøya - Rihpat" />
		<tag k="name:no" v="Store Rypøya" />
		<tag k="name:se" v="Rihpat" />
		<tag k="old_name:no" v="Rypøya, store" />
		<tag k="old_name:se" v="Rippat" />
		<tag k="place" v="island" />
		<tag k="ssr:stedsnr" v="202552" />
	</node>
	<node lat="71.05542222614655" lon="24.79974985417276" id="-40716">
		<tag k="alt_name" v="Kiholmen" />
		<tag k="name" v="Kjeholmen" />
		<tag k="place" v="islet" />
		<tag k="ssr:stedsnr" v="202704" />
	</node>
	<node lat="71.07591944735724" lon="24.018761019928544" id="-40718">
		<tag k="name" v="Edorbukta" />
		<tag k="natural" v="bay" />
		<tag k="ssr:stedsnr" v="206108" />
	</node>
	<node lat="71.08071388920165" lon="24.009072137382446" id="-40719">
		<tag k="name" v="Finnesvågen" />
		<tag k="natural" v="bay" />
		<tag k="ssr:stedsnr" v="206111" />
	</node>
	<node lat="71.0791472281229" lon="23.998341579792655" id="-40720">
		<tag k="fixme" v="consider seamark:type=rock or natural=shoal" />
		<tag k="name" v="Prestholmspira" />
		<tag k="place" v="islet" />
		<tag k="ssr:stedsnr" v="206112" />
	</node>
	<node lat="70.99988056179318" lon="23.90650268445304" id="-40725">
		<tag k="name" v="Djupvikneset" />
		<tag k="natural" v="cape" />
		<tag k="ssr:stedsnr" v="206340" />
	</node>
	<node lat="70.96372500674623" lon="24.617999881218687" id="-40727">
		<tag k="name" v="Djupvika" />
		<tag k="natural" v="bay" />
		<tag k="ssr:stedsnr" v="208418" />
	</node>
	<node lat="70.82000555902654" lon="24.607872093414894" id="-40730">
		<tag k="alt_name" v="Reinoksevika" />
		<tag k="name" v="Petternesbukt" />
		<tag k="natural" v="bay" />
		<tag k="ssr:stedsnr" v="208503" />
	</node>
	<node lat="70.87640834016305" lon="24.904769293557933" id="-40732">
		<tag k="alt_name" v="Stilbukta" />
		<tag k="name" v="Maritbukta" />
		<tag k="natural" v="bay" />
		<tag k="ssr:stedsnr" v="269400" />
	</node>
	<node lat="71.07493055967402" lon="24.741813757593388" id="-40734">
		<tag k="name" v="Buckstøa" />
		<tag k="natural" v="bay" />
		<tag k="ssr:stedsnr" v="211007" />
	</node>
	<node lat="70.9966666723059" lon="24.60913044023946" id="-40735">
		<tag k="name" v="Storvika" />
		<tag k="natural" v="bay" />
		<tag k="ssr:stedsnr" v="211144" />
	</node>
	<node lat="70.69824444594713" lon="24.639380403623925" id="-40737">
		<tag k="name" v="Langstrand" />
		<tag k="natural" v="beach" />
		<tag k="ssr:stedsnr" v="272741" />
	</node>
	<node lat="70.69760556068081" lon="24.650877624654257" id="-40738">
		<tag k="name" v="Omnsbukta" />
		<tag k="natural" v="bay" />
		<tag k="ssr:stedsnr" v="449340" />
	</node>
	<node lat="71.0096222255592" lon="25.015880411746462" id="-40742">
		<tag k="name" v="Ringen" />
		<tag k="natural" v="bay" />
		<tag k="ssr:stedsnr" v="451148" />
	</node>
	<node lat="71.01970556058092" lon="24.943852636870037" id="-40744">
		<tag k="alt_name" v="Snekkarvika" />
		<tag k="name" v="Snekkarhagen" />
		<tag k="natural" v="bay" />
		<tag k="ssr:stedsnr" v="454056" />
	</node>
	<node lat="71.00323055854402" lon="24.57973321667702" id="-40746">
		<tag k="fixme" v="consider seamark:type=rock or natural=shoal" />
		<tag k="name" v="Skarvsteinen" />
		<tag k="place" v="islet" />
		<tag k="ssr:stedsnr" v="454134" />
	</node>
	<node lat="70.90751667157018" lon="24.966291521805147" id="-40749">
		<tag k="name" v="Kabelbukta" />
		<tag k="natural" v="bay" />
		<tag k="ssr:stedsnr" v="262446" />
	</node>
	<node lat="70.92029166815291" lon="25.038902615088237" id="-40750">
		<tag k="bay" v="fjord" />
		<tag k="name" v="Ryggefjorden - Čielgevuotna" />
		<tag k="name:no" v="Ryggefjorden" />
		<tag k="name:se" v="Čielgevuotna" />
		<tag k="natural" v="bay" />
		<tag k="old_name:se" v="Čielgevuodna" />
		<tag k="ssr:stedsnr" v="262447" />
	</node>
	<node lat="70.82799722922093" lon="24.430513755523712" id="-40752">
		<tag k="name" v="Fartøyvikneset" />
		<tag k="natural" v="cape" />
		<tag k="ssr:stedsnr" v="262355" />
	</node>
	<node lat="70.70414166856744" lon="24.602635962204463" id="-40757">
		<tag k="bay" v="fjord" />
		<tag k="fixme" v="multiple name tags, choose one and add the other to alt_name" />
		<tag k="name" v="Lillefjorden - Vuoŧkevuotna;Uhcavuonaš" />
		<tag k="name:no" v="Lillefjorden" />
		<tag k="name:se" v="Vuoŧkevuotna;Uhcavuonaš" />
		<tag k="natural" v="bay" />
		<tag k="ssr:stedsnr" v="263195" />
	</node>
	<node lat="70.98821666966582" lon="24.02294712887147" id="-40758">
		<tag k="alt_name" v="Valfjordbotten" />
		<tag k="name" v="Valfjordbotn" />
		<tag k="natural" v="bay" />
		<tag k="ssr:stedsnr" v="263276" />
	</node>
	<node lat="70.84765833461607" lon="24.404999865450193" id="-40759">
		<tag k="fixme" v="consider seamark:type=rock or natural=shoal" />
		<tag k="name" v="Finngudskjæret" />
		<tag k="place" v="islet" />
		<tag k="ssr:stedsnr" v="263295" />
	</node>
	<node lat="70.99332500507307" lon="24.15545823910856" id="-40763">
		<tag k="name" v="Oldavioholmen" />
		<tag k="place" v="islet" />
		<tag k="ssr:stedsnr" v="267218" />
	</node>
	<node lat="71.00398611481857" lon="24.144688775970362" id="-40764">
		<tag k="name" v="Vevika" />
		<tag k="natural" v="bay" />
		<tag k="ssr:stedsnr" v="267220" />
	</node>
	<node lat="71.01968056340081" lon="25.027180391821098" id="-40769">
		<tag k="name" v="Vestre Holmbukta" />
		<tag k="natural" v="bay" />
		<tag k="ssr:stedsnr" v="269405" />
	</node>
	<node lat="71.08566944673034" lon="24.087963791043197" id="-40777">
		<tag k="name" v="Uran" />
		<tag k="place" v="locality" />
		<tag k="seamark:type" v="rock" />
		<tag k="ssr:stedsnr" v="291976" />
	</node>
	<node lat="70.88645277936" lon="25.390969242509023" id="-40778">
		<tag k="alt_name" v="Sinkelvika, in" />
		<tag k="name" v="Indre Sinkelvika" />
		<tag k="natural" v="bay" />
		<tag k="ssr:stedsnr" v="323026" />
	</node>
	<node lat="70.8186611115702" lon="25.295369262538543" id="-40779">
		<tag k="name" v="Bealča" />
		<tag k="name:se" v="Bealča" />
		<tag k="natural" v="cape" />
		<tag k="old_name:se" v="Bælča;Bealčča" />
		<tag k="ssr:stedsnr" v="323135" />
	</node>
	<node lat="70.87817777911143" lon="24.231380430737048" id="-40780">
		<tag k="name" v="Blankkeila" />
		<tag k="natural" v="bay" />
		<tag k="ssr:stedsnr" v="323305" />
	</node>
	<node lat="70.98196111322356" lon="24.7257637561934" id="-40781">
		<tag k="name" v="Sandvika" />
		<tag k="natural" v="bay" />
		<tag k="ssr:stedsnr" v="323325" />
	</node>
	<node lat="71.02701944440743" lon="24.06169434317154" id="-40782">
		<tag k="name" v="Eidneset" />
		<tag k="natural" v="cape" />
		<tag k="ssr:stedsnr" v="323404" />
	</node>
	<node lat="70.95861667575117" lon="25.02511649696602" id="-40783">
		<tag k="name" v="Værbukta" />
		<tag k="natural" v="bay" />
		<tag k="ssr:stedsnr" v="323410" />
	</node>
	<node lat="71.06323333814183" lon="24.03581656675602" id="-40786">
		<tag k="alt_name" v="Kjerringholman" />
		<tag k="name" v="Kjerringholmen" />
		<tag k="place" v="islet" />
		<tag k="ssr:stedsnr" v="323576" />
	</node>
	<node lat="71.07187500085301" lon="24.033905465527337" id="-40788">
		<tag k="name" v="Køysand" />
		<tag k="natural" v="cape" />
		<tag k="ssr:stedsnr" v="327118" />
	</node>
	<node lat="71.08456944779242" lon="24.13036379258048" id="-40789">
		<tag k="name" v="Klubben" />
		<tag k="natural" v="cape" />
		<tag k="ssr:stedsnr" v="327007" />
	</node>
	<node lat="71.00776944973383" lon="24.039958227256193" id="-40790">
		<tag k="name" v="Badestrand" />
		<tag k="natural" v="beach" />
		<tag k="ssr:stedsnr" v="327210" />
	</node>
	<node lat="70.83388611659247" lon="24.250552668567742" id="-40791">
		<tag k="name" v="Hattviknæringen" />
		<tag k="natural" v="cape" />
		<tag k="ssr:stedsnr" v="327359" />
	</node>
	<node lat="71.0895027826931" lon="24.04728878369372" id="-40793">
		<tag k="fixme" v="consider seamark:type=rock or natural=shoal" />
		<tag k="name" v="Fikenskjæret" />
		<tag k="place" v="islet" />
		<tag k="ssr:stedsnr" v="328013" />
	</node>
	<node lat="70.9615277781979" lon="24.630824865486165" id="-40797">
		<tag k="alt_name" v="Fjordbotn" />
		<tag k="name" v="Myrfjordbotn" />
		<tag k="natural" v="bay" />
		<tag k="ssr:stedsnr" v="329405" />
	</node>
	<node lat="71.00895000337177" lon="25.018930392109958" id="-40798">
		<tag k="name" v="Russekorset" />
		<tag k="natural" v="cape" />
		<tag k="ssr:stedsnr" v="330160" />
	</node>
	<node lat="71.08961111279233" lon="24.82076652688592" id="-40801">
		<tag k="name" v="Russen" />
		<tag k="natural" v="cape" />
		<tag k="ssr:stedsnr" v="332051" />
	</node>
	<node lat="71.02095000162807" lon="25.040108170634493" id="-40804">
		<tag k="name" v="Kvalen" />
		<tag k="natural" v="shoal" />
		<tag k="place" v="locality" />
		<tag k="ssr:stedsnr" v="472046" />
	</node>
	<node lat="70.79256945011986" lon="24.144752666454416" id="-40805">
		<tag k="name" v="Krykjegrunnen" />
		<tag k="natural" v="shoal" />
		<tag k="place" v="locality" />
		<tag k="ssr:stedsnr" v="473992" />
	</node>
	<node lat="70.89206111895422" lon="24.96488039834039" id="-40806">
		<tag k="name" v="Ryggen" />
		<tag k="natural" v="shoal" />
		<tag k="place" v="locality" />
		<tag k="ssr:stedsnr" v="351166" />
	</node>
	<node lat="70.91443611507344" lon="25.367527574455305" id="-40807">
		<tag k="name" v="Stokkevika" />
		<tag k="natural" v="bay" />
		<tag k="ssr:stedsnr" v="351202" />
	</node>
	<node lat="70.76587777762597" lon="24.31146931802374" id="-40808">
		<tag k="name" v="Nasebukta" />
		<tag k="natural" v="bay" />
		<tag k="ssr:stedsnr" v="351564" />
	</node>
	<node lat="70.96726666841585" lon="24.20479433783501" id="-40810">
		<tag k="fixme" v="consider seamark:type=rock or natural=shoal" />
		<tag k="name" v="Fuglebergskjæret" />
		<tag k="place" v="islet" />
		<tag k="ssr:stedsnr" v="383206" />
	</node>
	<node lat="70.96354167202378" lon="24.55447208860791" id="-40812">
		<tag k="name" v="Nipholmen" />
		<tag k="place" v="islet" />
		<tag k="ssr:stedsnr" v="383211" />
	</node>
	<node lat="70.96985833388699" lon="23.922874915151457" id="-40816">
		<tag k="name" v="Rossvika" />
		<tag k="natural" v="bay" />
		<tag k="ssr:stedsnr" v="384154" />
	</node>
	<node lat="70.91879722597989" lon="24.196899899897314" id="-40817">
		<tag k="name" v="Storskallen" />
		<tag k="natural" v="shoal" />
		<tag k="place" v="locality" />
		<tag k="ssr:stedsnr" v="384307" />
	</node>
	<node lat="70.91508610909516" lon="24.023205461628095" id="-40818">
		<tag k="name" v="Storvika" />
		<tag k="natural" v="bay" />
		<tag k="ssr:stedsnr" v="384311" />
	</node>
	<node lat="70.99039166853721" lon="24.701141530146412" id="-40819">
		<tag k="name" v="Eiterfjordholmen" />
		<tag k="place" v="islet" />
		<tag k="ssr:stedsnr" v="384351" />
	</node>
	<node lat="71.02735833577826" lon="24.932310960659855" id="-40820">
		<tag k="name" v="Elvevika" />
		<tag k="natural" v="bay" />
		<tag k="ssr:stedsnr" v="384403" />
	</node>
	<node lat="71.09813055773338" lon="24.78867207315024" id="-40822">
		<tag k="bay" v="fjord" />
		<tag k="name" v="Sandfjorden" />
		<tag k="natural" v="bay" />
		<tag k="ssr:stedsnr" v="384409" />
	</node>
	<node lat="70.77465278140764" lon="24.25039989520849" id="-40824">
		<tag k="name" v="Jernneset - Ruovdenjárga" />
		<tag k="name:no" v="Jernneset" />
		<tag k="name:se" v="Ruovdenjárga" />
		<tag k="natural" v="cape" />
		<tag k="old_name:se" v="Ruovdenjarga" />
		<tag k="ssr:stedsnr" v="384514" />
	</node>
	<node lat="71.0257694516048" lon="24.929435956462246" id="-40826">
		<tag k="alt_name" v="Hattvikodden" />
		<tag k="name" v="Hattvikneset" />
		<tag k="natural" v="cape" />
		<tag k="ssr:stedsnr" v="384712" />
	</node>
	<node lat="71.01414722841399" lon="25.09637204719629" id="-40827">
		<tag k="name" v="Torveskallen" />
		<tag k="natural" v="shoal" />
		<tag k="place" v="locality" />
		<tag k="ssr:stedsnr" v="384717" />
	</node>
	<node lat="71.03878056033726" lon="24.015405462912625" id="-40828">
		<tag k="name" v="Russeskjæret" />
		<tag k="place" v="locality" />
		<tag k="seamark:type" v="rock" />
		<tag k="ssr:stedsnr" v="384605" />
	</node>
	<node lat="71.05648333773534" lon="24.234119332598826" id="-40829">
		<tag k="fixme" v="consider seamark:type=rock or natural=shoal" />
		<tag k="name" v="Mefjordskjæret" />
		<tag k="place" v="islet" />
		<tag k="ssr:stedsnr" v="384616" />
	</node>
	<node lat="71.06035000670133" lon="24.04047767417004" id="-40830">
		<tag k="name" v="Østerbotn" />
		<tag k="natural" v="bay" />
		<tag k="ssr:stedsnr" v="384618" />
	</node>
	<node lat="71.05000000559424" lon="24.189444337130897" id="-40831">
		<tag k="name" v="Skogbåen" />
		<tag k="natural" v="shoal" />
		<tag k="place" v="locality" />
		<tag k="ssr:stedsnr" v="384620" />
	</node>
	<node lat="71.00734167128299" lon="24.56439987957306" id="-40832">
		<tag k="alt_name" v="Sjåvika" />
		<tag k="name" v="Skjåvika" />
		<tag k="natural" v="bay" />
		<tag k="ssr:stedsnr" v="384649" />
	</node>
	<node lat="71.1454194498283" lon="24.857135961789023" id="-40833">
		<tag k="name" v="Øvregrunnen" />
		<tag k="natural" v="shoal" />
		<tag k="place" v="locality" />
		<tag k="ssr:stedsnr" v="384654" />
	</node>
	<node lat="71.00515555439948" lon="24.062994345241762" id="-40835">
		<tag k="name" v="Hamneneset" />
		<tag k="natural" v="cape" />
		<tag k="ssr:stedsnr" v="388196" />
	</node>
	<node lat="70.82127778382858" lon="24.566358195605638" id="-40842">
		<tag k="name" v="Hellnesgrunnen" />
		<tag k="natural" v="shoal" />
		<tag k="place" v="locality" />
		<tag k="ssr:stedsnr" v="412289" />
	</node>
	<node lat="70.90261944814539" lon="25.378794263104677" id="-40843">
		<tag k="fixme" v="multiple name tags, choose one and add the other to alt_name" />
		<tag k="loc_name:no" v="Sinkelvika" />
		<tag k="name" v="Sinkelvika, yt;Ytre Sinkelvika - Suoŋkaluovttat" />
		<tag k="name:no" v="Sinkelvika, yt;Ytre Sinkelvika" />
		<tag k="name:se" v="Suoŋkaluovttat" />
		<tag k="natural" v="bay" />
		<tag k="old_name:se" v="Suoŋkaluovtat" />
		<tag k="ssr:stedsnr" v="444032" />
	</node>
	<node lat="70.92332777731312" lon="24.836566526296394" id="-40845">
		<tag k="name" v="Kanonodden" />
		<tag k="natural" v="cape" />
		<tag k="ssr:stedsnr" v="444406" />
	</node>
	<node lat="71.07406667239802" lon="24.62393876557872" id="-40846">
		<tag k="name" v="Spissbergvika" />
		<tag k="natural" v="bay" />
		<tag k="ssr:stedsnr" v="444629" />
	</node>
	<node lat="70.938958332839" lon="24.14018600547369" id="-40848">
		<tag k="name" v="Rolvsøyhamn" />
		<tag k="natural" v="bay" />
		<tag k="ssr:stedsnr" v="445210" />
	</node>
	<node lat="70.99870278286028" lon="24.190688796051266" id="-40849">
		<tag k="fixme" v="consider seamark:type=rock or natural=shoal" />
		<tag k="name" v="Kalvoffer" />
		<tag k="place" v="islet" />
		<tag k="ssr:stedsnr" v="445230" />
	</node>
	<node lat="70.99029722957421" lon="23.881708235620067" id="-40850">
		<tag k="alt_name" v="Tufjord Mollvika;Mollvika" />
		<tag k="name" v="Molvika" />
		<tag k="natural" v="bay" />
		<tag k="ssr:stedsnr" v="445132" />
	</node>
	<node lat="70.70065000532307" lon="24.59718320694806" id="-40851">
		<tag k="name" v="Jordholmen - Gieddesuolu" />
		<tag k="name:no" v="Jordholmen" />
		<tag k="name:se" v="Gieddesuolu" />
		<tag k="old_name:se" v="Gieddesuolo" />
		<tag k="place" v="islet" />
		<tag k="ssr:stedsnr" v="445177" />
	</node>
	<node lat="70.91939166725673" lon="24.49669709864025" id="-40853">
		<tag k="name" v="Molla" />
		<tag k="natural" v="bay" />
		<tag k="ssr:stedsnr" v="445305" />
	</node>
	<node lat="71.0327888902865" lon="23.958824902805564" id="-40857">
		<tag k="name" v="Kjellaren" />
		<tag k="natural" v="cape" />
		<tag k="ssr:stedsnr" v="445424" />
	</node>
	<node lat="70.97255278210137" lon="24.854688753169167" id="-40858">
		<tag k="bay" v="fjord" />
		<tag k="name" v="Kullfjorden - Seahkkavuotna" />
		<tag k="name:no" v="Kullfjorden" />
		<tag k="name:se" v="Seahkkavuotna" />
		<tag k="natural" v="bay" />
		<tag k="old_name:se" v="Sækkavuodna" />
		<tag k="ssr:stedsnr" v="445429" />
	</node>
	<node lat="71.07329444368058" lon="24.144280440434454" id="-40863">
		<tag k="name" v="Laukholmen" />
		<tag k="place" v="islet" />
		<tag k="ssr:stedsnr" v="445578" />
	</node>
	<node lat="71.007241669476" lon="24.979235969488304" id="-40864">
		<tag k="name" v="Vestervågen" />
		<tag k="natural" v="bay" />
		<tag k="ssr:stedsnr" v="445739" />
	</node>
	<node lat="71.10335833610024" lon="24.702141526352392" id="-40865">
		<tag k="name" v="Omnanbukta" />
		<tag k="natural" v="bay" />
		<tag k="ssr:stedsnr" v="445674" />
	</node>
	<node lat="71.0658972273226" lon="24.040099918365765" id="-40870">
		<tag k="name" v="Lyngholmen" />
		<tag k="place" v="islet" />
		<tag k="ssr:stedsnr" v="449003" />
	</node>
	<node lat="71.00476111004657" lon="24.132386015030608" id="-40871">
		<tag k="fixme" v="consider seamark:type=rock or natural=shoal" />
		<tag k="name" v="Storskjæret" />
		<tag k="place" v="islet" />
		<tag k="ssr:stedsnr" v="449232" />
	</node>
	<node lat="71.07524166767877" lon="24.79552207688504" id="-40874">
		<tag k="name" v="Vestre Russesand" />
		<tag k="natural" v="bay" />
		<tag k="ssr:stedsnr" v="454020" />
	</node>
	<node lat="70.8557277800525" lon="24.326147095520987" id="-40876">
		<tag k="name" v="Innerrevet" />
		<tag k="natural" v="cape" />
		<tag k="ssr:stedsnr" v="454821" />
	</node>
	<node lat="70.96697222185526" lon="24.20182488347999" id="-40877">
		<tag k="name" v="Fugleberget" />
		<tag k="natural" v="cape" />
		<tag k="ssr:stedsnr" v="472809" />
	</node>
	<node lat="71.02806111283216" lon="24.299572121001027" id="-40879">
		<tag k="name" v="Ytre Vestervåggrunnen" />
		<tag k="natural" v="shoal" />
		<tag k="place" v="locality" />
		<tag k="ssr:stedsnr" v="472760" />
	</node>
	<node lat="70.86048333777497" lon="24.181949881942703" id="-40880">
		<tag k="name" v="Kjellaren" />
		<tag k="natural" v="cape" />
		<tag k="ssr:stedsnr" v="505314" />
	</node>
	<node lat="70.85172222410596" lon="24.44008043952488" id="-40882">
		<tag k="name" v="Holmegrunnen" />
		<tag k="natural" v="shoal" />
		<tag k="place" v="locality" />
		<tag k="ssr:stedsnr" v="505280" />
	</node>
	<node lat="71.09424167321318" lon="23.981599895811428" id="-40884">
		<tag k="name" v="Fruholmen" />
		<tag k="place" v="islet" />
		<tag k="ssr:stedsnr" v="505509" />
	</node>
	<node lat="70.96524166897572" lon="25.400638704478293" id="-40885">
		<tag k="name" v="Slettelvlandet" />
		<tag k="natural" v="beach" />
		<tag k="ssr:stedsnr" v="505471" />
	</node>
	<node lat="71.01202499958623" lon="24.22071378077097" id="-40886">
		<tag k="alt_name" v="Stoppelnæringsgrunnen" />
		<tag k="name" v="Stoppelnæringen" />
		<tag k="natural" v="shoal" />
		<tag k="place" v="locality" />
		<tag k="ssr:stedsnr" v="505609" />
	</node>
	<node lat="71.02296945030234" lon="24.061449891602482" id="-40887">
		<tag k="alt_name" v="Eidnessundet;Sandbukta" />
		<tag k="name" v="Eidnessanden" />
		<tag k="natural" v="bay" />
		<tag k="ssr:stedsnr" v="505614" />
	</node>
	<node lat="71.04442222572632" lon="24.936719294435477" id="-40888">
		<tag k="fixme" v="multiple name tags, choose one and add the other to alt_name" />
		<tag k="name" v="Rorneset;Hartvikrorneset" />
		<tag k="natural" v="cape" />
		<tag k="ssr:stedsnr" v="505679" />
	</node>
	<node lat="71.08129444792237" lon="24.107699907563724" id="-40891">
		<tag k="name" v="Stompevika" />
		<tag k="natural" v="bay" />
		<tag k="ssr:stedsnr" v="509004" />
	</node>
	<node lat="71.08328889307312" lon="24.11753879187394" id="-40892">
		<tag k="name" v="Lyngholmvalen" />
		<tag k="natural" v="bay" />
		<tag k="ssr:stedsnr" v="509005" />
	</node>
	<node lat="71.08484166550254" lon="24.117808225711908" id="-40895">
		<tag k="name" v="Gilkoven" />
		<tag k="natural" v="cape" />
		<tag k="ssr:stedsnr" v="509009" />
	</node>
	<node lat="71.07598333524624" lon="24.159419347291326" id="-40896">
		<tag k="name" v="Likholmsundet" />
		<tag k="natural" v="strait" />
		<tag k="ssr:stedsnr" v="509014" />
	</node>
	<node lat="71.08051388669956" lon="24.06546380164393" id="-40897">
		<tag k="name" v="Kvænneset" />
		<tag k="natural" v="cape" />
		<tag k="ssr:stedsnr" v="509107" />
	</node>
	<node lat="71.00658333846172" lon="25.00622763567719" id="-40900">
		<tag k="name" v="Handelen" />
		<tag k="natural" v="bay" />
		<tag k="ssr:stedsnr" v="512125" />
	</node>
	<node lat="70.82013889717088" lon="24.451433201903367" id="-40902">
		<tag k="name" v="Amundvika" />
		<tag k="natural" v="bay" />
		<tag k="ssr:stedsnr" v="533304" />
	</node>
	<node lat="70.86229444760448" lon="25.35802202202338" id="-40903">
		<tag k="name" v="Veidnesbukta - Dávlegohppi" />
		<tag k="name:no" v="Veidnesbukta" />
		<tag k="name:se" v="Dávlegohppi" />
		<tag k="natural" v="bay" />
		<tag k="old_name:se" v="Davlegåppi" />
		<tag k="ssr:stedsnr" v="687019" />
	</node>
	<node lat="70.92775555753369" lon="24.089924883869564" id="-40906">
		<tag k="name" v="Jonneset" />
		<tag k="natural" v="cape" />
		<tag k="ssr:stedsnr" v="687217" />
	</node>
	<node lat="70.93123611412481" lon="24.14726100780664" id="-40907">
		<tag k="name" v="Daudmannsvika" />
		<tag k="natural" v="bay" />
		<tag k="ssr:stedsnr" v="687221" />
	</node>
	<node lat="70.99440278167228" lon="24.164658237997934" id="-40908">
		<tag k="fixme" v="multiple name tags, choose one and add the other to alt_name" />
		<tag k="name" v="Tarevika;Torvvika;Torvelvik" />
		<tag k="natural" v="bay" />
		<tag k="ssr:stedsnr" v="687225" />
	</node>
	<node lat="70.76438333693962" lon="24.32159988104761" id="-40910">
		<tag k="name" v="Hamna" />
		<tag k="natural" v="bay" />
		<tag k="ssr:stedsnr" v="687315" />
	</node>
	<node lat="70.83521389683669" lon="24.438913761823237" id="-40912">
		<tag k="alt_name:no" v="Klubben" />
		<tag k="name" v="Kvitnesklubben - Vilgesnjárga" />
		<tag k="name:no" v="Kvitnesklubben" />
		<tag k="name:se" v="Vilgesnjárga" />
		<tag k="natural" v="cape" />
		<tag k="old_name:se" v="Vilgesnjarga" />
		<tag k="ssr:stedsnr" v="687258" />
	</node>
	<node lat="70.91845833796056" lon="24.615591522193853" id="-40914">
		<tag k="fixme" v="multiple name tags, choose one and add the other to alt_name" />
		<tag k="name" v="Storbukta;Store Sandbukta" />
		<tag k="natural" v="bay" />
		<tag k="ssr:stedsnr" v="687279" />
	</node>
	<node lat="70.76628056368105" lon="24.28107765414971" id="-40915">
		<tag k="alt_name:no" v="Spinosskjera" />
		<tag k="fixme" v="consider seamark:type=rock or natural=shoal" />
		<tag k="name" v="Speinosskjæret - Speinnošlásis" />
		<tag k="name:no" v="Speinosskjæret" />
		<tag k="name:se" v="Speinnošlásis" />
		<tag k="old_name:se" v="Speinušlasis" />
		<tag k="place" v="islet" />
		<tag k="ssr:stedsnr" v="687329" />
	</node>
	<node lat="70.82040000470745" lon="24.448885976207183" id="-40916">
		<tag k="name" v="Amundvikneset" />
		<tag k="natural" v="cape" />
		<tag k="ssr:stedsnr" v="687357" />
	</node>
	<node lat="70.82063611586258" lon="24.598266536192156" id="-40917">
		<tag k="name" v="Petterneset" />
		<tag k="natural" v="cape" />
		<tag k="ssr:stedsnr" v="687358" />
	</node>
	<node lat="70.83218889337829" lon="24.431880440200707" id="-40918">
		<tag k="name" v="Kvitneset" />
		<tag k="natural" v="cape" />
		<tag k="ssr:stedsnr" v="687367" />
	</node>
	<node lat="70.9236000016117" lon="25.096549833622035" id="-40921">
		<tag k="alt_name:no" v="Konglevik" />
		<tag k="name" v="Kongelvika - Márri" />
		<tag k="name:no" v="Kongelvika" />
		<tag k="name:se" v="Márri" />
		<tag k="natural" v="bay" />
		<tag k="old_name:se" v="Marri" />
		<tag k="ssr:stedsnr" v="687423" />
	</node>
	<node lat="71.10030833837494" lon="23.965949898877938" id="-40923">
		<tag k="name" v="Jernsteinskallen" />
		<tag k="natural" v="shoal" />
		<tag k="place" v="locality" />
		<tag k="ssr:stedsnr" v="687500" />
	</node>
	<node lat="71.12182777953613" lon="24.25531377616716" id="-40924">
		<tag k="name" v="Båen" />
		<tag k="natural" v="shoal" />
		<tag k="place" v="locality" />
		<tag k="ssr:stedsnr" v="687528" />
	</node>
	<node lat="71.11942500624738" lon="24.172583233869975" id="-40925">
		<tag k="name" v="Rossmålhella" />
		<tag k="natural" v="shoal" />
		<tag k="place" v="locality" />
		<tag k="ssr:stedsnr" v="687529" />
	</node>
	<node lat="71.01459166893673" lon="23.898805470037228" id="-40928">
		<tag k="name" v="Trollvika" />
		<tag k="natural" v="bay" />
		<tag k="ssr:stedsnr" v="687544" />
	</node>
	<node lat="71.02956945024961" lon="23.992049906901048" id="-40929">
		<tag k="alt_name" v="Sandneset" />
		<tag k="name" v="Sandklubben" />
		<tag k="natural" v="cape" />
		<tag k="ssr:stedsnr" v="687554" />
	</node>
	<node lat="71.06851388624041" lon="23.94823047238266" id="-40930">
		<tag k="name" v="Skjerkeila" />
		<tag k="natural" v="bay" />
		<tag k="ssr:stedsnr" v="687567" />
	</node>
	<node lat="71.0751749995454" lon="23.95701933584071" id="-40931">
		<tag k="name" v="Stokkneset" />
		<tag k="natural" v="cape" />
		<tag k="ssr:stedsnr" v="687578" />
	</node>
	<node lat="71.08293888993276" lon="23.988833232865385" id="-40932">
		<tag k="name" v="Flaget" />
		<tag k="natural" v="strait" />
		<tag k="ssr:stedsnr" v="687583" />
	</node>
	<node lat="71.07156111466908" lon="24.874788732058253" id="-40933">
		<tag k="name" v="Nissegrunnen" />
		<tag k="natural" v="shoal" />
		<tag k="place" v="locality" />
		<tag k="ssr:stedsnr" v="687681" />
	</node>
	<node lat="70.98058611655846" lon="23.810316578988882" id="-40937">
		<tag k="name" v="Kolgrunnen" />
		<tag k="natural" v="shoal" />
		<tag k="place" v="locality" />
		<tag k="ssr:stedsnr" v="688152" />
	</node>
	<node lat="70.95690000273517" lon="23.898649921167717" id="-40938">
		<tag k="name" v="Svarthola" />
		<tag k="natural" v="bay" />
		<tag k="ssr:stedsnr" v="688159" />
	</node>
	<node lat="70.72637500382224" lon="24.23517487609825" id="-40940">
		<tag k="alt_name" v="Andøvergrunnen" />
		<tag k="name" v="Andøvegrunnen" />
		<tag k="natural" v="shoal" />
		<tag k="place" v="locality" />
		<tag k="ssr:stedsnr" v="688176" />
	</node>
	<node lat="70.75380556029309" lon="24.354669309457652" id="-40944">
		<tag k="name" v="Steinvika - Geađgeluokta" />
		<tag k="name:no" v="Steinvika" />
		<tag k="name:se" v="Geađgeluokta" />
		<tag k="natural" v="bay" />
		<tag k="old_name:se" v="Gæđgeluokta" />
		<tag k="ssr:stedsnr" v="688337" />
	</node>
	<node lat="70.99333056244309" lon="24.84300820341666" id="-40945">
		<tag k="name" v="Mefjordgrunnen" />
		<tag k="natural" v="shoal" />
		<tag k="place" v="locality" />
		<tag k="ssr:stedsnr" v="688357" />
	</node>
	<node lat="71.01104167279492" lon="24.09531378724131" id="-40946">
		<tag k="alt_name" v="Lyngvikskjera" />
		<tag k="fixme" v="consider seamark:type=rock or natural=shoal" />
		<tag k="name" v="Lyngvikskjæran" />
		<tag k="place" v="islet" />
		<tag k="ssr:stedsnr" v="688615" />
	</node>
	<node lat="71.12089167295542" lon="24.972691524297808" id="-40947">
		<tag k="name" v="Tarvikakselgrunnen" />
		<tag k="natural" v="shoal" />
		<tag k="place" v="locality" />
		<tag k="ssr:stedsnr" v="688660" />
	</node>
	<node lat="71.10315278342675" lon="24.80508320590245" id="-40948">
		<tag k="name" v="Garpholmen" />
		<tag k="place" v="islet" />
		<tag k="ssr:stedsnr" v="688668" />
	</node>
	<node lat="71.10808333875896" lon="24.856963736419996" id="-40949">
		<tag k="fixme" v="consider seamark:type=rock or natural=shoal" />
		<tag k="name" v="Næringskjæret" />
		<tag k="place" v="islet" />
		<tag k="ssr:stedsnr" v="688669" />
	</node>
	<node lat="70.92520000225007" lon="24.8405303984429" id="-40950">
		<tag k="name" v="Sandvika" />
		<tag k="natural" v="bay" />
		<tag k="ssr:stedsnr" v="688525" />
	</node>
	<node lat="71.07875555550338" lon="24.0084971229507" id="-40955">
		<tag k="name" v="Finnesodden" />
		<tag k="natural" v="cape" />
		<tag k="ssr:stedsnr" v="692100" />
	</node>
	<node lat="71.08156389022119" lon="24.02016936057666" id="-40956">
		<tag k="name" v="Glasskavelholla" />
		<tag k="natural" v="bay" />
		<tag k="ssr:stedsnr" v="692102" />
	</node>
	<node lat="70.86763889307781" lon="24.676316521776847" id="-40957">
		<tag k="name" v="Varnesbukta" />
		<tag k="natural" v="bay" />
		<tag k="ssr:stedsnr" v="692334" />
	</node>
	<node lat="71.08745833623428" lon="24.002816576857338" id="-40962">
		<tag k="name" v="Garpholmen" />
		<tag k="place" v="islet" />
		<tag k="ssr:stedsnr" v="565602" />
	</node>
	<node lat="71.04801111180721" lon="24.80736930369758" id="-40964">
		<tag k="alt_name" v="Ærskjera;Æskjæran" />
		<tag k="fixme" v="consider seamark:type=rock or natural=shoal" />
		<tag k="name" v="Eskjæran" />
		<tag k="place" v="islet" />
		<tag k="ssr:stedsnr" v="565691" />
	</node>
	<node lat="70.79143333706412" lon="24.57051653946518" id="-40967">
		<tag k="name" v="Skavika" />
		<tag k="natural" v="bay" />
		<tag k="ssr:stedsnr" v="566370" />
	</node>
	<node lat="70.97818055784022" lon="25.321819263107983" id="-40970">
		<tag k="name" v="Stikkelvågkjerringa" />
		<tag k="natural" v="cape" />
		<tag k="ssr:stedsnr" v="566461" />
	</node>
	<node lat="71.03371389067222" lon="24.03721655794587" id="-40971">
		<tag k="name" v="Nordstranda" />
		<tag k="natural" v="beach" />
		<tag k="ssr:stedsnr" v="566615" />
	</node>
	<node lat="71.07134444484895" lon="24.50184432616338" id="-40972">
		<tag k="name" v="Fiskarnesgrunnen" />
		<tag k="natural" v="shoal" />
		<tag k="place" v="locality" />
		<tag k="ssr:stedsnr" v="566565" />
	</node>
	<node lat="70.97434999944684" lon="24.061477688334648" id="-40974">
		<tag k="fixme" v="consider seamark:type=rock or natural=shoal" />
		<tag k="name" v="Gargoskjæret" />
		<tag k="place" v="islet" />
		<tag k="ssr:stedsnr" v="569220" />
	</node>
	<node lat="71.0854916730045" lon="24.152433221380203" id="-40978">
		<tag k="fixme" v="consider seamark:type=rock or natural=shoal" />
		<tag k="name" v="Skrapleia" />
		<tag k="place" v="islet" />
		<tag k="ssr:stedsnr" v="570021" />
	</node>
	<node lat="71.00950833591682" lon="25.013155404798745" id="-40982">
		<tag k="name" v="Langskjærbukt" />
		<tag k="natural" v="bay" />
		<tag k="ssr:stedsnr" v="572154" />
	</node>
	<node lat="71.00471944976871" lon="25.019591502826547" id="-40983">
		<tag k="name" v="Klubben" />
		<tag k="natural" v="cape" />
		<tag k="ssr:stedsnr" v="572155" />
	</node>
	<node lat="70.8702916680483" lon="24.97809150205631" id="-40984">
		<tag k="name" v="Falkebergstranda" />
		<tag k="natural" v="beach" />
		<tag k="ssr:stedsnr" v="572403" />
	</node>
	<node lat="70.59166667029696" lon="24.86666650093002" id="-40988">
		<tag k="name" v="Porsangerhalvøya" />
		<tag k="name:no" v="Porsangerhalvøya" />
		<tag k="natural" v="cape" />
		<tag k="ssr:stedsnr" v="574811" />
	</node>
	<node lat="71.06161667037722" lon="24.776324859045953" id="-40994">
		<tag k="name" v="Elvevikklubben" />
		<tag k="natural" v="cape" />
		<tag k="ssr:stedsnr" v="696044" />
	</node>
	<node lat="71.07862778271475" lon="24.841383203634262" id="-40996">
		<tag k="fixme" v="consider seamark:type=rock or natural=shoal" />
		<tag k="name" v="Nesseskjæret" />
		<tag k="place" v="islet" />
		<tag k="ssr:stedsnr" v="696053" />
	</node>
	<node lat="71.01001111725537" lon="24.645960981006372" id="-40998">
		<tag k="name" v="Segelvika" />
		<tag k="natural" v="bay" />
		<tag k="ssr:stedsnr" v="696159" />
	</node>
	<node lat="71.00392500402724" lon="24.7185387412174" id="-40999">
		<tag k="name" v="Garpholmen" />
		<tag k="place" v="islet" />
		<tag k="ssr:stedsnr" v="696160" />
	</node>
	<node lat="70.83542222315222" lon="24.440030441453075" id="-41001">
		<tag k="name" v="Kvitneset" />
		<tag k="natural" v="cape" />
		<tag k="ssr:stedsnr" v="696800" />
	</node>
	<node lat="71.00966944830388" lon="24.975088721852256" id="-41002">
		<tag k="name" v="Fagerneset" />
		<tag k="natural" v="cape" />
		<tag k="ssr:stedsnr" v="593053" />
	</node>
	<node lat="70.87777222236078" lon="24.282474869153905" id="-41003">
		<tag k="name" v="Vesterkeila" />
		<tag k="natural" v="bay" />
		<tag k="ssr:stedsnr" v="594300" />
	</node>
	<node lat="70.86777778029585" lon="24.391510984599716" id="-41004">
		<tag k="name" v="Nonstadbukta" />
		<tag k="natural" v="bay" />
		<tag k="ssr:stedsnr" v="594303" />
	</node>
	<node lat="70.99733333611394" lon="24.212613776801195" id="-41005">
		<tag k="fixme" v="consider seamark:type=rock or natural=shoal" />
		<tag k="name" v="Kalveskjæret" />
		<tag k="place" v="islet" />
		<tag k="ssr:stedsnr" v="594805" />
	</node>
	<node lat="70.90276111782202" lon="25.289160937132063" id="-41007">
		<tag k="name" v="Storegrunnen" />
		<tag k="natural" v="shoal" />
		<tag k="place" v="locality" />
		<tag k="ssr:stedsnr" v="626058" />
	</node>
	<node lat="70.91973611498463" lon="24.60572486494554" id="-41009">
		<tag k="name" v="Bærvika" />
		<tag k="natural" v="bay" />
		<tag k="ssr:stedsnr" v="626303" />
	</node>
	<node lat="70.90230277849177" lon="24.549860971766883" id="-41010">
		<tag k="name" v="Skjarvebukta" />
		<tag k="natural" v="bay" />
		<tag k="ssr:stedsnr" v="626311" />
	</node>
	<node lat="70.79193611719474" lon="24.206505434115517" id="-41011">
		<tag k="name" v="Mellomgrunnen" />
		<tag k="natural" v="shoal" />
		<tag k="place" v="locality" />
		<tag k="ssr:stedsnr" v="626407" />
	</node>
	<node lat="70.81001111302477" lon="24.554072082275145" id="-41012">
		<tag k="name" v="Flua" />
		<tag k="natural" v="shoal" />
		<tag k="place" v="locality" />
		<tag k="ssr:stedsnr" v="626419" />
	</node>
	<node lat="71.00305555477331" lon="23.914024896724353" id="-41017">
		<tag k="alt_name" v="Tufjord" />
		<tag k="bay" v="fjord" />
		<tag k="name" v="Tufjorden" />
		<tag k="natural" v="bay" />
		<tag k="ssr:stedsnr" v="626561" />
	</node>
	<node lat="71.08270833305876" lon="24.231283228330014" id="-41018">
		<tag k="name" v="Gåsøygrunnen" />
		<tag k="natural" v="shoal" />
		<tag k="place" v="locality" />
		<tag k="ssr:stedsnr" v="626598" />
	</node>
	<node lat="70.7101583378546" lon="24.54243596563197" id="-41022">
		<tag k="name" v="Kvalneset - Fálesnjárga" />
		<tag k="name:no" v="Kvalneset" />
		<tag k="name:se" v="Fálesnjárga" />
		<tag k="natural" v="cape" />
		<tag k="old_name:se" v="Falesnjarga" />
		<tag k="ssr:stedsnr" v="627202" />
	</node>
	<node lat="71.07417222567766" lon="24.02496934285683" id="-41023">
		<tag k="name" v="Segelbergbukta" />
		<tag k="natural" v="bay" />
		<tag k="ssr:stedsnr" v="630107" />
	</node>
	<node lat="71.00138889656013" lon="25.00138872972031" id="-41031">
		<tag k="name" v="Raet" />
		<tag k="place" v="locality" />
		<tag k="ssr:stedsnr" v="631388" />
	</node>
	<node lat="70.88038333334094" lon="24.933483175819227" id="-41032">
		<tag k="name" v="Hamneklubben" />
		<tag k="natural" v="cape" />
		<tag k="ssr:stedsnr" v="633429" />
	</node>
	<node lat="71.0571944481675" lon="25.078222066645136" id="-41034">
		<tag k="name" v="Austre Kulskallan" />
		<tag k="natural" v="shoal" />
		<tag k="place" v="locality" />
		<tag k="ssr:stedsnr" v="654001" />
	</node>
	<node lat="70.91973889032052" lon="24.53274154202333" id="-41036">
		<tag k="name" v="Landsundet" />
		<tag k="natural" v="strait" />
		<tag k="ssr:stedsnr" v="654802" />
	</node>
	<node lat="71.09560000381927" lon="24.16164711715994" id="-41037">
		<tag k="name" v="Hella" />
		<tag k="place" v="locality" />
		<tag k="seamark:type" v="rock" />
		<tag k="ssr:stedsnr" v="654984" />
	</node>
	<node lat="71.09676667109562" lon="24.069319355678985" id="-41038">
		<tag k="fixme" v="consider seamark:type=rock or natural=shoal" />
		<tag k="name" v="Rundskjæret" />
		<tag k="place" v="islet" />
		<tag k="ssr:stedsnr" v="654987" />
	</node>
	<node lat="70.95783611744754" lon="24.546110991888543" id="-41039">
		<tag k="alt_name" v="Nebbegrunnen, øvre" />
		<tag k="name" v="Øvre Nebbegrunnen" />
		<tag k="natural" v="shoal" />
		<tag k="place" v="locality" />
		<tag k="ssr:stedsnr" v="687204" />
	</node>
	<node lat="71.10244166617002" lon="24.09608878156179" id="-41046">
		<tag k="name" v="Langskjæret" />
		<tag k="place" v="islet" />
		<tag k="ssr:stedsnr" v="687613" />
	</node>
	<node lat="71.02398611578192" lon="24.28100544789198" id="-41047">
		<tag k="fixme" v="multiple name tags, choose one and add the other to alt_name" />
		<tag k="name" v="Vestervåggrunnen;Øvre Vestervåggrunnen" />
		<tag k="natural" v="shoal" />
		<tag k="place" v="locality" />
		<tag k="ssr:stedsnr" v="687620" />
	</node>
	<node lat="71.05290000399022" lon="24.458277656771884" id="-41048">
		<tag k="name" v="Vestervåggrunnen" />
		<tag k="natural" v="shoal" />
		<tag k="place" v="locality" />
		<tag k="ssr:stedsnr" v="687622" />
	</node>
	<node lat="71.08852499895967" lon="23.87644989557232" id="-41049">
		<tag k="name" v="Råsa" />
		<tag k="natural" v="shoal" />
		<tag k="place" v="locality" />
		<tag k="ssr:stedsnr" v="687585" />
	</node>
	<node lat="71.0664333368799" lon="24.092608240326705" id="-41050">
		<tag k="alt_name" v="Seterbukta" />
		<tag k="name" v="Sæterbukta" />
		<tag k="natural" v="bay" />
		<tag k="ssr:stedsnr" v="687587" />
	</node>
	<node lat="70.9820111175386" lon="23.990758232080967" id="-41054">
		<tag k="fixme" v="consider seamark:type=rock or natural=shoal" />
		<tag k="name" v="Sørkjosskjæret" />
		<tag k="place" v="islet" />
		<tag k="ssr:stedsnr" v="688149" />
	</node>
	<node lat="71.03279166875133" lon="23.993452682155965" id="-41055">
		<tag k="bay" v="fjord" />
		<tag k="name" v="Trollfjorden" />
		<tag k="natural" v="bay" />
		<tag k="ssr:stedsnr" v="688419" />
	</node>
	<node lat="70.95515000272972" lon="24.98202485124528" id="-41056">
		<tag k="name" v="Njoalonjárga" />
		<tag k="name:se" v="Njoalonjárga" />
		<tag k="natural" v="cape" />
		<tag k="old_name:se" v="Njoalunjarga" />
		<tag k="ssr:stedsnr" v="688432" />
	</node>
	<node lat="70.9333333344595" lon="24.919680388861483" id="-41057">
		<tag k="alt_name" v="Kulabukta, in" />
		<tag k="fixme" v="multiple name tags, choose one and add the other to alt_name" />
		<tag k="name" v="Indre Kula;Indre Kulabukta" />
		<tag k="natural" v="bay" />
		<tag k="ssr:stedsnr" v="688433" />
	</node>
	<node lat="71.08628889089968" lon="24.123002671127537" id="-41059">
		<tag k="name" v="Russen" />
		<tag k="natural" v="cape" />
		<tag k="ssr:stedsnr" v="692009" />
	</node>
	<node lat="71.05444444668409" lon="24.019130468975355" id="-41061">
		<tag k="name" v="Vikranleira" />
		<tag k="natural" v="bay" />
		<tag k="ssr:stedsnr" v="692012" />
	</node>
	<node lat="71.05569166719417" lon="24.07535822107803" id="-41062">
		<tag k="name" v="Torvenesen" />
		<tag k="natural" v="cape" />
		<tag k="ssr:stedsnr" v="692034" />
	</node>
	<node lat="71.08681111456227" lon="24.011480468963153" id="-41063">
		<tag k="fixme" v="consider seamark:type=rock or natural=shoal" />
		<tag k="name" v="Maltsekken" />
		<tag k="place" v="islet" />
		<tag k="ssr:stedsnr" v="692074" />
	</node>
	<node lat="71.08466111215905" lon="24.061091559679394" id="-41065">
		<tag k="name" v="Nordneset" />
		<tag k="natural" v="cape" />
		<tag k="ssr:stedsnr" v="692106" />
	</node>
	<node lat="70.98342500085569" lon="24.68042765150477" id="-41066">
		<tag k="name" v="Sukkertoppneset" />
		<tag k="natural" v="cape" />
		<tag k="ssr:stedsnr" v="692391" />
	</node>
	<node lat="70.9713055576275" lon="24.67104986168152" id="-41068">
		<tag k="name" v="Kobbevika" />
		<tag k="natural" v="bay" />
		<tag k="ssr:stedsnr" v="693425" />
	</node>
	<node lat="71.00752500287909" lon="24.987630402922708" id="-41070">
		<tag k="name" v="Holmen" />
		<tag k="place" v="islet" />
		<tag k="ssr:stedsnr" v="694405" />
	</node>
	<node lat="71.0537222276457" lon="24.79319708693481" id="-41073">
		<tag k="name" v="Russeneset" />
		<tag k="natural" v="cape" />
		<tag k="ssr:stedsnr" v="696072" />
	</node>
	<node lat="71.01912500255088" lon="25.049935951048983" id="-41074">
		<tag k="name" v="Knausen" />
		<tag k="natural" v="shoal" />
		<tag k="place" v="locality" />
		<tag k="ssr:stedsnr" v="897051" />
	</node>
	<node lat="70.90248889491154" lon="24.314424882041802" id="-41075">
		<tag k="name" v="Storskallen" />
		<tag k="natural" v="shoal" />
		<tag k="place" v="locality" />
		<tag k="ssr:stedsnr" v="898166" />
	</node>
	<node lat="70.95729722659642" lon="25.298144252937465" id="-41076">
		<tag k="fixme" v="consider seamark:type=rock or natural=shoal" />
		<tag k="name" v="Nebbeskjæret" />
		<tag k="place" v="islet" />
		<tag k="ssr:stedsnr" v="898176" />
	</node>
	<node lat="70.8586083381539" lon="24.304105428204345" id="-41077">
		<tag k="name" v="Fyrneset" />
		<tag k="natural" v="cape" />
		<tag k="ssr:stedsnr" v="898294" />
	</node>
	<node lat="70.92044722863206" lon="24.560358211314686" id="-41078">
		<tag k="name" v="Sæter" />
		<tag k="natural" v="cape" />
		<tag k="ssr:stedsnr" v="898787" />
	</node>
	<node lat="70.99718333679196" lon="24.107116558971754" id="-41079">
		<tag k="name" v="Gunnarnesleira" />
		<tag k="natural" v="beach" />
		<tag k="ssr:stedsnr" v="715833" />
	</node>
	<node lat="71.11530555537647" lon="23.983966579886008" id="-41080">
		<tag k="name" v="Revlet" />
		<tag k="natural" v="shoal" />
		<tag k="place" v="locality" />
		<tag k="ssr:stedsnr" v="898983" />
	</node>
	<node lat="70.82095278643762" lon="25.245563707717434" id="-41081">
		<tag k="name" v="Neselvneset" />
		<tag k="natural" v="cape" />
		<tag k="ssr:stedsnr" v="715909" />
	</node>
	<node lat="70.80874445371303" lon="25.238894259122702" id="-41082">
		<tag k="name" v="Kobbesteinen" />
		<tag k="place" v="locality" />
		<tag k="seamark:type" v="rock" />
		<tag k="ssr:stedsnr" v="898910" />
	</node>
	<node lat="70.98417222360959" lon="23.89969991778149" id="-41084">
		<tag k="name" v="Skarvnæringen" />
		<tag k="natural" v="cape" />
		<tag k="ssr:stedsnr" v="898928" />
	</node>
	<node lat="71.09487778264807" lon="24.01351658252075" id="-41085">
		<tag k="name" v="Kamsen" />
		<tag k="natural" v="shoal" />
		<tag k="place" v="locality" />
		<tag k="ssr:stedsnr" v="898985" />
	</node>
	<node lat="70.85379166763272" lon="25.233244257013936" id="-41087">
		<tag k="name" v="Pålsvika" />
		<tag k="natural" v="bay" />
		<tag k="ssr:stedsnr" v="748011" />
	</node>
	<node lat="70.93816666829395" lon="24.545688759487405" id="-41089">
		<tag k="name" v="Hestneset - Heastanjárga" />
		<tag k="name:no" v="Hestneset" />
		<tag k="name:se" v="Heastanjárga" />
		<tag k="natural" v="cape" />
		<tag k="old_name:se" v="Hæstanjarga" />
		<tag k="ssr:stedsnr" v="748210" />
	</node>
	<node lat="70.89086389560687" lon="24.339088762791633" id="-41094">
		<tag k="name" v="Spirgrunnen" />
		<tag k="natural" v="shoal" />
		<tag k="place" v="locality" />
		<tag k="ssr:stedsnr" v="748314" />
	</node>
	<node lat="70.75608889608553" lon="24.34865543362291" id="-41095">
		<tag k="alt_name" v="Kvalneset, store" />
		<tag k="fixme" v="multiple name tags, choose one and add the other to alt_name" />
		<tag k="name" v="Fellneset;Store Kvalneset" />
		<tag k="natural" v="cape" />
		<tag k="ssr:stedsnr" v="748320" />
	</node>
	<node lat="70.86573334122117" lon="24.394947090717007" id="-41096">
		<tag k="name" v="Skjeivmattiskeila" />
		<tag k="natural" v="bay" />
		<tag k="ssr:stedsnr" v="748267" />
	</node>
	<node lat="70.7909055596207" lon="24.18610266578279" id="-41100">
		<tag k="name" v="Notgrunnen" />
		<tag k="natural" v="shoal" />
		<tag k="place" v="locality" />
		<tag k="ssr:stedsnr" v="748363" />
	</node>
	<node lat="70.88243611322586" lon="24.666727646513376" id="-41102">
		<tag k="fixme" v="multiple name tags, choose one and add the other to alt_name" />
		<tag k="name" v="Molvika;Indre Mollvika" />
		<tag k="natural" v="bay" />
		<tag k="ssr:stedsnr" v="748372" />
	</node>
	<node lat="70.866402781514" lon="24.686308185854077" id="-41104">
		<tag k="name" v="Varneset - Rivdnji" />
		<tag k="name:no" v="Varneset" />
		<tag k="name:se" v="Rivdnji" />
		<tag k="natural" v="cape" />
		<tag k="ssr:stedsnr" v="748376" />
	</node>
	<node lat="71.05825278086193" lon="25.010538727973003" id="-41105">
		<tag k="name" v="Kobbøygrunnen" />
		<tag k="natural" v="shoal" />
		<tag k="place" v="locality" />
		<tag k="ssr:stedsnr" v="748704" />
	</node>
	<node lat="71.0975500048251" lon="24.713227648750454" id="-41107">
		<tag k="name" v="Lendinga" />
		<tag k="natural" v="cape" />
		<tag k="ssr:stedsnr" v="748666" />
	</node>
	<node lat="70.96557777853934" lon="24.050091555486972" id="-41109">
		<tag k="name" v="Lammenarget" />
		<tag k="natural" v="cape" />
		<tag k="ssr:stedsnr" v="751214" />
	</node>
	<node lat="71.08520000318542" lon="24.133047135607644" id="-41111">
		<tag k="name" v="Rørnesbukta" />
		<tag k="natural" v="bay" />
		<tag k="ssr:stedsnr" v="752015" />
	</node>
	<node lat="70.98900555599897" lon="24.061249897926803" id="-41113">
		<tag k="name" v="Sandfjordbotten" />
		<tag k="natural" v="bay" />
		<tag k="ssr:stedsnr" v="752215" />
	</node>
	<node lat="71.0070416695392" lon="25.004744273802334" id="-41114">
		<tag k="name" v="Tøllefsenfjæra" />
		<tag k="natural" v="beach" />
		<tag k="ssr:stedsnr" v="754149" />
	</node>
	<node lat="71.07220833939287" lon="24.78601097303177" id="-41117">
		<tag k="name" v="Sandnessanden" />
		<tag k="natural" v="bay" />
		<tag k="ssr:stedsnr" v="757012" />
	</node>
	<node lat="70.85997222877272" lon="24.3134360038696" id="-41118">
		<tag k="name" v="Ytterrevet" />
		<tag k="natural" v="cape" />
		<tag k="ssr:stedsnr" v="757757" />
	</node>
	<node lat="70.94439444659211" lon="23.966411017000965" id="-41119">
		<tag k="name" v="Moldvikodden" />
		<tag k="natural" v="cape" />
		<tag k="ssr:stedsnr" v="908433" />
	</node>
	<node lat="70.69453333656584" lon="24.60961097045109" id="-41120">
		<tag k="name" v="Elvevika" />
		<tag k="natural" v="bay" />
		<tag k="ssr:stedsnr" v="776466" />
	</node>
	<node lat="70.96935278419811" lon="24.33806656131402" id="-41121">
		<tag k="name" v="Seglskallen" />
		<tag k="natural" v="shoal" />
		<tag k="place" v="locality" />
		<tag k="ssr:stedsnr" v="776753" />
	</node>
	<node lat="70.99088056125774" lon="24.185274889957427" id="-41122">
		<tag k="fixme" v="consider seamark:type=rock or natural=shoal" />
		<tag k="name" v="Kobbeskjæret" />
		<tag k="place" v="islet" />
		<tag k="ssr:stedsnr" v="776812" />
	</node>
	<node lat="70.83510556313337" lon="25.285199819195487" id="-41124">
		<tag k="name" v="Lille-Kobbøya - Uhcasulloš" />
		<tag k="name:no" v="Lille-Kobbøya" />
		<tag k="name:se" v="Uhcasulloš" />
		<tag k="old_name:se" v="Uccasulluš" />
		<tag k="place" v="island" />
		<tag k="ssr:stedsnr" v="809003" />
	</node>
	<node lat="70.8233750048147" lon="24.26518876670835" id="-41127">
		<tag k="alt_name:no" v="Skjærhattevika" />
		<tag k="name" v="Skjerhattvika - Lássáluokta" />
		<tag k="name:no" v="Skjerhattvika" />
		<tag k="name:se" v="Lássáluokta" />
		<tag k="natural" v="bay" />
		<tag k="old_name:se" v="Lassaluokta" />
		<tag k="ssr:stedsnr" v="809286" />
	</node>
	<node lat="70.81096666747719" lon="24.514605430289258" id="-41131">
		<tag k="alt_name" v="Svartbergneset, in" />
		<tag k="name" v="Indre Svartbergneset" />
		<tag k="natural" v="cape" />
		<tag k="ssr:stedsnr" v="809398" />
	</node>
	<node lat="71.06079444788598" lon="24.686127645986527" id="-41132">
		<tag k="alt_name" v="Hjelmsøy" />
		<tag k="name" v="Hjelmsøya" />
		<tag k="place" v="island" />
		<tag k="ssr:stedsnr" v="809597" />
	</node>
	<node lat="71.08735000388448" lon="24.113449890334927" id="-41136">
		<tag k="alt_name" v="Gyllekoven" />
		<tag k="fixme" v="consider seamark:type=rock or natural=shoal" />
		<tag k="name" v="Yttergilkoven" />
		<tag k="place" v="islet" />
		<tag k="ssr:stedsnr" v="813008" />
	</node>
	<node lat="71.00664722453725" lon="24.069977687275518" id="-41138">
		<tag k="fixme" v="consider seamark:type=rock or natural=shoal" />
		<tag k="name" v="Hamneskjæret" />
		<tag k="place" v="islet" />
		<tag k="ssr:stedsnr" v="813193" />
	</node>
	<node lat="71.0066472248197" lon="24.05148322484638" id="-41139">
		<tag k="name" v="Langneset" />
		<tag k="natural" v="cape" />
		<tag k="ssr:stedsnr" v="813194" />
	</node>
	<node lat="71.08154166943136" lon="24.0230693505595" id="-41141">
		<tag k="name" v="Tarreholla" />
		<tag k="natural" v="bay" />
		<tag k="ssr:stedsnr" v="813083" />
	</node>
	<node lat="71.08198333599069" lon="24.061258247228217" id="-41142">
		<tag k="name" v="Ryholmneset" />
		<tag k="natural" v="cape" />
		<tag k="ssr:stedsnr" v="813092" />
	</node>
	<node lat="70.99636944285066" lon="24.121088786243668" id="-41153">
		<tag k="name" v="Gunnarnesbukta" />
		<tag k="natural" v="bay" />
		<tag k="ssr:stedsnr" v="837830" />
	</node>
	<node lat="70.83105000290604" lon="25.33842479677461" id="-41155">
		<tag k="name" v="Langnesbukta" />
		<tag k="natural" v="bay" />
		<tag k="ssr:stedsnr" v="930123" />
	</node>
	<node lat="70.86140556024446" lon="25.33854981413908" id="-41158">
		<tag k="name" v="Veidneset - Dávlenjárga" />
		<tag k="name:no" v="Veidneset" />
		<tag k="name:se" v="Dávlenjárga" />
		<tag k="natural" v="cape" />
		<tag k="old_name:se" v="Davlenjarga" />
		<tag k="ssr:stedsnr" v="869009" />
	</node>
	<node lat="70.7330611140664" lon="24.40576099764455" id="-41162">
		<tag k="name" v="Darbobåan" />
		<tag k="natural" v="shoal" />
		<tag k="place" v="locality" />
		<tag k="ssr:stedsnr" v="930183" />
	</node>
	<node lat="70.88999723132187" lon="24.930860946465845" id="-41163">
		<tag k="alt_name" v="Skinnstavik" />
		<tag k="name" v="Skinnstakkvika" />
		<tag k="natural" v="bay" />
		<tag k="ssr:stedsnr" v="869421" />
	</node>
	<node lat="70.88355000039566" lon="24.915194297829135" id="-41164">
		<tag k="name" v="Hareneset" />
		<tag k="natural" v="cape" />
		<tag k="ssr:stedsnr" v="869425" />
	</node>
	<node lat="70.9205305607252" lon="24.975097058016818" id="-41169">
		<tag k="name" v="Yttereidet" />
		<tag k="place" v="locality" />
		<tag k="ssr:stedsnr" v="869472" />
	</node>
	<node lat="70.91278056043761" lon="24.98310818572777" id="-41170">
		<tag k="name" v="Notbukta" />
		<tag k="natural" v="bay" />
		<tag k="ssr:stedsnr" v="869473" />
	</node>
	<node lat="70.96145833196408" lon="24.21858878500592" id="-41172">
		<tag k="alt_name" v="Krykkjenesbukta" />
		<tag k="name" v="Krykkjebukta" />
		<tag k="natural" v="bay" />
		<tag k="ssr:stedsnr" v="930188" />
	</node>
	<node lat="70.96323888920439" lon="24.27289989900596" id="-41173">
		<tag k="name" v="Gorgebåen" />
		<tag k="natural" v="shoal" />
		<tag k="place" v="locality" />
		<tag k="ssr:stedsnr" v="930189" />
	</node>
	<node lat="71.09469722822239" lon="24.140808240552325" id="-41177">
		<tag k="fixme" v="consider seamark:type=rock or natural=shoal" />
		<tag k="name" v="Småkartøyan" />
		<tag k="place" v="islet" />
		<tag k="ssr:stedsnr" v="869619" />
	</node>
	<node lat="71.04553611524086" lon="24.943199846408397" id="-41179">
		<tag k="name" v="Nordmannsvika" />
		<tag k="natural" v="bay" />
		<tag k="ssr:stedsnr" v="869681" />
	</node>
	<node lat="71.0002527819318" lon="23.94096101585548" id="-41183">
		<tag k="alt_name" v="Fjordbotten" />
		<tag k="name" v="Fjordbotn" />
		<tag k="natural" v="bay" />
		<tag k="ssr:stedsnr" v="869570" />
	</node>
	<node lat="70.74824722857763" lon="24.535944303226866" id="-41185">
		<tag k="alt_name:no" v="Rottvika" />
		<tag k="name" v="Råtvika - Guohcagohppi" />
		<tag k="name:no" v="Råtvika" />
		<tag k="name:se" v="Guohcagohppi" />
		<tag k="natural" v="bay" />
		<tag k="old_name:se" v="Guoccagåppi" />
		<tag k="ssr:stedsnr" v="870176" />
	</node>
	<node lat="70.86340000557591" lon="25.231930388737908" id="-41187">
		<tag k="name" v="Smedbergbukta" />
		<tag k="natural" v="bay" />
		<tag k="ssr:stedsnr" v="870017" />
	</node>
	<node lat="70.99490555863633" lon="23.821074903336797" id="-41189">
		<tag k="name" v="Bjørnøyskallen" />
		<tag k="natural" v="shoal" />
		<tag k="place" v="locality" />
		<tag k="ssr:stedsnr" v="870204" />
	</node>
	<node lat="70.99051111422403" lon="24.280797111926827" id="-41190">
		<tag k="name" v="Kalveskallen" />
		<tag k="natural" v="shoal" />
		<tag k="place" v="locality" />
		<tag k="ssr:stedsnr" v="930241" />
	</node>
	<node lat="70.98966667124259" lon="24.089883240636222" id="-41191">
		<tag k="name" v="Irbergneset" />
		<tag k="natural" v="cape" />
		<tag k="ssr:stedsnr" v="930242" />
	</node>
	<node lat="70.98552222062588" lon="24.14622768237145" id="-41192">
		<tag k="name" v="Mefjordskjæret" />
		<tag k="natural" v="shoal" />
		<tag k="place" v="locality" />
		<tag k="ssr:stedsnr" v="930243" />
	</node>
	<node lat="70.92705000622261" lon="24.18820544077069" id="-41193">
		<tag k="alt_name" v="Revsholmgrunnen" />
		<tag k="name" v="Revsholmsgrunnen" />
		<tag k="natural" v="shoal" />
		<tag k="place" v="locality" />
		<tag k="ssr:stedsnr" v="930301" />
	</node>
	<node lat="70.87271388955782" lon="25.013235944593216" id="-41196">
		<tag k="name" v="Østerbotn" />
		<tag k="natural" v="bay" />
		<tag k="ssr:stedsnr" v="870525" />
	</node>
	<node lat="70.98608055913805" lon="24.070886000716953" id="-41197">
		<tag k="bay" v="fjord" />
		<tag k="name" v="Sandfjorden" />
		<tag k="natural" v="bay" />
		<tag k="ssr:stedsnr" v="870266" />
	</node>
	<node lat="70.97359722901484" lon="24.959394287292138" id="-41198">
		<tag k="name" v="Fiskeneset" />
		<tag k="natural" v="cape" />
		<tag k="ssr:stedsnr" v="870421" />
	</node>
	<node lat="71.03701389378095" lon="24.24516654781189" id="-41199">
		<tag k="name" v="Urdan" />
		<tag k="natural" v="shoal" />
		<tag k="place" v="locality" />
		<tag k="ssr:stedsnr" v="870614" />
	</node>
	<node lat="71.03708888688568" lon="24.205483231656704" id="-41200">
		<tag k="name" v="Brottet" />
		<tag k="natural" v="shoal" />
		<tag k="place" v="locality" />
		<tag k="ssr:stedsnr" v="870615" />
	</node>
	<node lat="70.99873333512211" lon="24.69394154331777" id="-41204">
		<tag k="name" v="Hallvika" />
		<tag k="natural" v="bay" />
		<tag k="ssr:stedsnr" v="930358" />
	</node>
	<node lat="70.87212500696387" lon="24.592666534092608" id="-41205">
		<tag k="alt_name" v="Hammarneset" />
		<tag k="name" v="Hammaren" />
		<tag k="natural" v="cape" />
		<tag k="ssr:stedsnr" v="930321" />
	</node>
	<node lat="70.8767861119716" lon="24.15835821027155" id="-41206">
		<tag k="name" v="Saugrunnen" />
		<tag k="natural" v="shoal" />
		<tag k="place" v="locality" />
		<tag k="ssr:stedsnr" v="930324" />
	</node>
	<node lat="70.87661389042074" lon="24.244785987722285" id="-41207">
		<tag k="name" v="Kalvsundet" />
		<tag k="natural" v="strait" />
		<tag k="ssr:stedsnr" v="930330" />
	</node>
	<node lat="70.8029305565334" lon="24.261141543612116" id="-41212">
		<tag k="name" v="Stokkrev" />
		<tag k="natural" v="cape" />
		<tag k="ssr:stedsnr" v="930391" />
	</node>
	<node lat="71.03804167175147" lon="25.01313595518031" id="-41214">
		<tag k="alt_name" v="Sandsfjorden" />
		<tag k="bay" v="fjord" />
		<tag k="name" v="Sandfjorden" />
		<tag k="natural" v="bay" />
		<tag k="ssr:stedsnr" v="930411" />
	</node>
	<node lat="70.96345833793656" lon="24.769347068657567" id="-41216">
		<tag k="alt_name" v="Storvika, yt" />
		<tag k="name" v="Ytre Storvika" />
		<tag k="natural" v="bay" />
		<tag k="ssr:stedsnr" v="930423" />
	</node>
	<node lat="71.00938334047476" lon="23.893508237721257" id="-41218">
		<tag k="name" v="Kvalkeila" />
		<tag k="natural" v="bay" />
		<tag k="ssr:stedsnr" v="930567" />
	</node>
	<node lat="71.09528888754836" lon="23.968941564066093" id="-41222">
		<tag k="fixme" v="multiple name tags, choose one and add the other to alt_name" />
		<tag k="name" v="Skagskjera;Skagholman" />
		<tag k="place" v="islet" />
		<tag k="ssr:stedsnr" v="930524" />
	</node>
	<node lat="71.07937777751306" lon="24.010127676205197" id="-41224">
		<tag k="name" v="Finneset" />
		<tag k="natural" v="cape" />
		<tag k="ssr:stedsnr" v="930617" />
	</node>
	<node lat="71.07982778459123" lon="24.08100267913902" id="-41225">
		<tag k="name" v="Samuelholman" />
		<tag k="place" v="islet" />
		<tag k="ssr:stedsnr" v="930618" />
	</node>
	<node lat="71.09896389194523" lon="24.157727688168652" id="-41226">
		<tag k="alt_name" v="Gåsøya, l" />
		<tag k="name" v="Lille Gåsøya" />
		<tag k="place" v="islet" />
		<tag k="ssr:stedsnr" v="930624" />
	</node>
	<node lat="71.03394444526732" lon="24.048677690142267" id="-41227">
		<tag k="fixme" v="consider seamark:type=rock or natural=shoal" />
		<tag k="name" v="Kjerringskjæret" />
		<tag k="place" v="islet" />
		<tag k="ssr:stedsnr" v="930633" />
	</node>
	<node lat="71.05954722336921" lon="24.139469339527995" id="-41228">
		<tag k="alt_name" v="Kiholmen" />
		<tag k="name" v="Kjeholmen" />
		<tag k="place" v="islet" />
		<tag k="ssr:stedsnr" v="930635" />
	</node>
	<node lat="71.0574333390833" lon="24.075211019763103" id="-41229">
		<tag k="alt_name" v="Langsand" />
		<tag k="name" v="Sanden" />
		<tag k="natural" v="bay" />
		<tag k="ssr:stedsnr" v="930640" />
	</node>
	<node lat="71.0635305563555" lon="24.931163744060523" id="-41230">
		<tag k="name" v="Kalveskallen" />
		<tag k="natural" v="shoal" />
		<tag k="place" v="locality" />
		<tag k="ssr:stedsnr" v="930698" />
	</node>
	<node lat="71.01686666788513" lon="24.911758190107843" id="-41231">
		<tag k="name" v="Snekkarvikgrunnen" />
		<tag k="natural" v="shoal" />
		<tag k="place" v="locality" />
		<tag k="ssr:stedsnr" v="930732" />
	</node>
	<node lat="71.00330555956242" lon="24.699972074891814" id="-41232">
		<tag k="name" v="Materialodden" />
		<tag k="natural" v="cape" />
		<tag k="ssr:stedsnr" v="930736" />
	</node>
	<node lat="71.07006388892876" lon="24.783233196153624" id="-41233">
		<tag k="name" v="Sandneset" />
		<tag k="natural" v="cape" />
		<tag k="ssr:stedsnr" v="930684" />
	</node>
	<node lat="71.05325834113046" lon="24.826658195268344" id="-41234">
		<tag k="fixme" v="multiple name tags, choose one and add the other to alt_name; consider seamark:type=rock or natural=shoal" />
		<tag k="name" v="Stangskjæret;Rundskjæret" />
		<tag k="place" v="islet" />
		<tag k="ssr:stedsnr" v="930688" />
	</node>
	<node lat="71.04605000280189" lon="24.779499872392208" id="-41235">
		<tag k="alt_name" v="Svinvik" />
		<tag k="name" v="Svinvika" />
		<tag k="natural" v="bay" />
		<tag k="ssr:stedsnr" v="930690" />
	</node>
	<node lat="70.84678889719694" lon="24.415558201470365" id="-41239">
		<tag k="name" v="Plankevika" />
		<tag k="natural" v="bay" />
		<tag k="ssr:stedsnr" v="931287" />
	</node>
	<node lat="70.956808339657" lon="24.886149854841083" id="-41240">
		<tag k="alt_name" v="Lysgrunnen, øvre" />
		<tag k="name" v="Øvre Lysgrunnen" />
		<tag k="natural" v="shoal" />
		<tag k="place" v="locality" />
		<tag k="ssr:stedsnr" v="931433" />
	</node>
	<node lat="71.07825277683199" lon="24.708313765823625" id="-41241">
		<tag k="name" v="Hamneklubben" />
		<tag k="natural" v="cape" />
		<tag k="ssr:stedsnr" v="878014" />
	</node>
	<node lat="71.07666389243555" lon="24.166133223615194" id="-41244">
		<tag k="fixme" v="consider seamark:type=rock or natural=shoal" />
		<tag k="name" v="Likholmskjæret" />
		<tag k="place" v="islet" />
		<tag k="ssr:stedsnr" v="935015" />
	</node>
	<node lat="71.00137778164533" lon="23.885408249182102" id="-41249">
		<tag k="name" v="Kirkenesspira" />
		<tag k="natural" v="cape" />
		<tag k="ssr:stedsnr" v="935563" />
	</node>
	<node lat="71.02795278464087" lon="25.040652630310483" id="-41250">
		<tag k="name" v="Skjåvikneset" />
		<tag k="natural" v="cape" />
		<tag k="ssr:stedsnr" v="897007" />
	</node>
	<node lat="70.95869722342755" lon="24.63019986148929" id="-41251">
		<tag k="name" v="Kobbevikneset" />
		<tag k="natural" v="cape" />
		<tag k="ssr:stedsnr" v="898212" />
	</node>
	<node lat="70.86995833987166" lon="24.65604709132093" id="-41252">
		<tag k="name" v="Varneset" />
		<tag k="natural" v="cape" />
		<tag k="ssr:stedsnr" v="898354" />
	</node>
	<node lat="70.74433611700947" lon="24.53810264096557" id="-41254">
		<tag k="alt_name:no" v="Leirvika" />
		<tag k="name" v="Leirbukta - Láiragohppi" />
		<tag k="name:no" v="Leirbukta" />
		<tag k="name:se" v="Láiragohppi" />
		<tag k="natural" v="bay" />
		<tag k="old_name:se" v="Lairagåppi" />
		<tag k="ssr:stedsnr" v="930153" />
	</node>
	<node lat="70.9191222294505" lon="25.304499810217116" id="-41255">
		<tag k="name" v="Kobbevika" />
		<tag k="natural" v="bay" />
		<tag k="ssr:stedsnr" v="930053" />
	</node>
	<node lat="70.99739444794348" lon="24.209552672464174" id="-41256">
		<tag k="name" v="Kalvodden" />
		<tag k="natural" v="cape" />
		<tag k="ssr:stedsnr" v="930247" />
	</node>
	<node lat="70.97875556118822" lon="24.187686000053553" id="-41257">
		<tag k="alt_name" v="Djeolingen" />
		<tag k="name" v="Djevlingen" />
		<tag k="natural" v="shoal" />
		<tag k="place" v="locality" />
		<tag k="ssr:stedsnr" v="930254" />
	</node>
	<node lat="70.87121945010462" lon="24.70156095860486" id="-41260">
		<tag k="alt_name" v="Skipsbukta" />
		<tag k="name" v="Skibsbukta" />
		<tag k="natural" v="bay" />
		<tag k="ssr:stedsnr" v="930401" />
	</node>
	<node lat="71.11510278111615" lon="24.721688744432033" id="-41266">
		<tag k="name" v="Avløysinga" />
		<tag k="natural" v="cape" />
		<tag k="ssr:stedsnr" v="930655" />
	</node>
	<node lat="71.08747777840165" lon="24.135613779619575" id="-41268">
		<tag k="fixme" v="consider seamark:type=rock or natural=shoal" />
		<tag k="name" v="Russespira" />
		<tag k="place" v="islet" />
		<tag k="ssr:stedsnr" v="934021" />
	</node>
	<node lat="71.07146111156963" lon="24.033841567559115" id="-41269">
		<tag k="fixme" v="consider seamark:type=rock or natural=shoal" />
		<tag k="name" v="Storsteinen" />
		<tag k="place" v="islet" />
		<tag k="ssr:stedsnr" v="934108" />
	</node>
	<node lat="71.00171111048928" lon="23.898847119360397" id="-41270">
		<tag k="name" v="Starholmen" />
		<tag k="place" v="islet" />
		<tag k="ssr:stedsnr" v="934488" />
	</node>
	<node lat="71.00319167108789" lon="24.68489707930621" id="-41273">
		<tag k="name" v="Garpholmvikneset" />
		<tag k="natural" v="cape" />
		<tag k="ssr:stedsnr" v="935435" />
	</node>
	<node lat="70.9952027845759" lon="24.63731375241114" id="-41274">
		<tag k="name" v="Stranda" />
		<tag k="natural" v="beach" />
		<tag k="ssr:stedsnr" v="936437" />
	</node>
	<node lat="70.68216944646431" lon="24.613899851229515" id="-41282">
		<tag k="name" v="Mollvika" />
		<tag k="natural" v="bay" />
		<tag k="ssr:stedsnr" v="958509" />
	</node>
	<node lat="70.77566666812623" lon="23.982124901496977" id="-41283">
		<tag k="name" v="Ytre Tjuvgrunnen" />
		<tag k="natural" v="shoal" />
		<tag k="place" v="locality" />
		<tag k="ssr:stedsnr" v="958926" />
	</node>
	<node lat="70.97432500357277" lon="23.783249915419617" id="-41286">
		<tag k="name" v="Votten" />
		<tag k="natural" v="shoal" />
		<tag k="place" v="locality" />
		<tag k="ssr:stedsnr" v="20130" />
	</node>
	<node lat="70.95819167114121" lon="24.779988738661032" id="-41288">
		<tag k="name" v="Kabelneset" />
		<tag k="natural" v="cape" />
		<tag k="ssr:stedsnr" v="20415" />
	</node>
	<node lat="70.95215833423802" lon="25.18043870610107" id="-41289">
		<tag k="name" v="Abagrunnen" />
		<tag k="natural" v="shoal" />
		<tag k="place" v="locality" />
		<tag k="ssr:stedsnr" v="20416" />
	</node>
	<node lat="70.91633056199888" lon="24.843969300051384" id="-41290">
		<tag k="alt_name" v="Nordmannsvik, in" />
		<tag k="fixme" v="multiple name tags, choose one and add the other to alt_name" />
		<tag k="name" v="Store Nordmannsvik;Indre Nordmannsvik" />
		<tag k="natural" v="bay" />
		<tag k="ssr:stedsnr" v="20427" />
	</node>
	<node lat="70.91637500565275" lon="24.803769308811944" id="-41291">
		<tag k="name" v="Sekken" />
		<tag k="natural" v="bay" />
		<tag k="ssr:stedsnr" v="20429" />
	</node>
	<node lat="70.83526945002116" lon="24.590085985260007" id="-41298">
		<tag k="alt_name" v="Kobbevika, yt" />
		<tag k="fixme" v="multiple name tags, choose one and add the other to alt_name" />
		<tag k="name" v="Lille Kobbevika;Ytre Kobbevika" />
		<tag k="natural" v="bay" />
		<tag k="ssr:stedsnr" v="20345" />
	</node>
	<node lat="70.81333055747315" lon="24.27271376063175" id="-41299">
		<tag k="name" v="Elvevika" />
		<tag k="natural" v="bay" />
		<tag k="ssr:stedsnr" v="20348" />
	</node>
	<node lat="71.08175000082296" lon="23.977249910552672" id="-41309">
		<tag k="alt_name" v="Terningsteinan" />
		<tag k="name" v="Steinan" />
		<tag k="place" v="islet" />
		<tag k="ssr:stedsnr" v="20580" />
	</node>
	<node lat="71.08005556249519" lon="23.985327683783744" id="-41310">
		<tag k="name" v="Terningen" />
		<tag k="place" v="islet" />
		<tag k="ssr:stedsnr" v="20583" />
	</node>
	<node lat="71.03213333668248" lon="24.009374907659435" id="-41312">
		<tag k="name" v="Buvikneset" />
		<tag k="natural" v="cape" />
		<tag k="ssr:stedsnr" v="20655" />
	</node>
	<node lat="71.05047222656592" lon="24.09171377936286" id="-41313">
		<tag k="name" v="Eidneset" />
		<tag k="natural" v="cape" />
		<tag k="ssr:stedsnr" v="20657" />
	</node>
	<node lat="71.06555278265303" lon="24.604883195517306" id="-41314">
		<tag k="name" v="Stor-Geitingsodden" />
		<tag k="natural" v="cape" />
		<tag k="ssr:stedsnr" v="20662" />
	</node>
	<node lat="71.07706389421776" lon="24.078322120826847" id="-41316">
		<tag k="name" v="Knutholmen" />
		<tag k="place" v="islet" />
		<tag k="ssr:stedsnr" v="20607" />
	</node>
	<node lat="71.09381111865738" lon="24.22755822133385" id="-41317">
		<tag k="alt_name" v="Gåsøynaget, yt" />
		<tag k="name" v="Ytre Gåsøysnaget" />
		<tag k="natural" v="shoal" />
		<tag k="place" v="locality" />
		<tag k="ssr:stedsnr" v="20614" />
	</node>
	<node lat="71.09292222066016" lon="24.279005457995538" id="-41318">
		<tag k="name" v="Reinøyskallen" />
		<tag k="natural" v="shoal" />
		<tag k="place" v="locality" />
		<tag k="ssr:stedsnr" v="20617" />
	</node>
	<node lat="71.08391666888325" lon="24.019677688213076" id="-41319">
		<tag k="name" v="Vika" />
		<tag k="natural" v="bay" />
		<tag k="ssr:stedsnr" v="20620" />
	</node>
	<node lat="71.11537777783279" lon="24.188941554297216" id="-41320">
		<tag k="alt_name" v="Rossmåland" />
		<tag k="name" v="Rossmålland" />
		<tag k="natural" v="shoal" />
		<tag k="place" v="locality" />
		<tag k="ssr:stedsnr" v="20621" />
	</node>
	<node lat="71.08971111298128" lon="24.07859433733023" id="-41321">
		<tag k="alt_name" v="Svennholmen" />
		<tag k="name" v="Henrikholmen" />
		<tag k="place" v="islet" />
		<tag k="ssr:stedsnr" v="20627" />
	</node>
	<node lat="71.00814999922491" lon="24.27506933058668" id="-41322">
		<tag k="name" v="Saramanngrunnen" />
		<tag k="natural" v="shoal" />
		<tag k="place" v="locality" />
		<tag k="ssr:stedsnr" v="20633" />
	</node>
	<node lat="71.02161389184475" lon="25.05508040618888" id="-41324">
		<tag k="name" v="Skjåvikbåen" />
		<tag k="natural" v="shoal" />
		<tag k="place" v="locality" />
		<tag k="ssr:stedsnr" v="20729" />
	</node>
	<node lat="70.65958611886137" lon="24.65778875151652" id="-41328">
		<tag k="name" v="Kysservika - Čussaluokta" />
		<tag k="name:no" v="Kysservika" />
		<tag k="name:se" v="Čussaluokta" />
		<tag k="natural" v="bay" />
		<tag k="ssr:stedsnr" v="20869" />
	</node>
	<node lat="71.08265277961677" lon="24.002024913462968" id="-41332">
		<tag k="name" v="Jonsundet" />
		<tag k="natural" v="strait" />
		<tag k="ssr:stedsnr" v="24092" />
	</node>
	<node lat="71.08156666874578" lon="24.064288796995907" id="-41334">
		<tag k="fixme" v="consider seamark:type=rock or natural=shoal" />
		<tag k="name" v="Petterspira" />
		<tag k="place" v="islet" />
		<tag k="ssr:stedsnr" v="24096" />
	</node>
	<node lat="70.99971388769605" lon="24.13909990156837" id="-41337">
		<tag k="name" v="Lillekroknes" />
		<tag k="natural" v="cape" />
		<tag k="ssr:stedsnr" v="24250" />
	</node>
	<node lat="70.99809166934433" lon="23.900952673030893" id="-41339">
		<tag k="name" v="Vassvika" />
		<tag k="natural" v="bay" />
		<tag k="ssr:stedsnr" v="24519" />
	</node>
	<node lat="70.81225000451856" lon="24.62307764324668" id="-41342">
		<tag k="name" v="Indrevika" />
		<tag k="natural" v="bay" />
		<tag k="ssr:stedsnr" v="26452" />
	</node>
	<node lat="71.08528055770935" lon="24.719024852261562" id="-41345">
		<tag k="fixme" v="consider seamark:type=rock or natural=shoal" />
		<tag k="name" v="Mefjordskjæret" />
		<tag k="place" v="islet" />
		<tag k="ssr:stedsnr" v="26460" />
	</node>
	<node lat="71.0902750013161" lon="24.82217485231654" id="-41346">
		<tag k="name" v="Langkjeila" />
		<tag k="natural" v="bay" />
		<tag k="ssr:stedsnr" v="29016" />
	</node>
	<node lat="71.0835444486112" lon="24.802388758650288" id="-41348">
		<tag k="name" v="Elvevika" />
		<tag k="natural" v="bay" />
		<tag k="ssr:stedsnr" v="29044" />
	</node>
	<node lat="71.08784444853659" lon="24.821905412402533" id="-41349">
		<tag k="fixme" v="consider seamark:type=rock or natural=shoal" />
		<tag k="name" v="Magnusskjæret" />
		<tag k="place" v="islet" />
		<tag k="ssr:stedsnr" v="29047" />
	</node>
	<node lat="71.01534166866047" lon="24.60046930283804" id="-41354">
		<tag k="name" v="Gavlbukta" />
		<tag k="natural" v="bay" />
		<tag k="ssr:stedsnr" v="29145" />
	</node>
	<node lat="70.85962500730778" lon="24.305577664977207" id="-41355">
		<tag k="name" v="Lyktneset" />
		<tag k="natural" v="cape" />
		<tag k="ssr:stedsnr" v="29791" />
	</node>
	<node lat="71.0856972234271" lon="23.986830454987107" id="-41356">
		<tag k="name" v="Sandholmen" />
		<tag k="place" v="islet" />
		<tag k="ssr:stedsnr" v="32258" />
	</node>
	<node lat="70.88946944400634" lon="24.629835970282837" id="-41357">
		<tag k="name" v="Saulineset" />
		<tag k="natural" v="cape" />
		<tag k="ssr:stedsnr" v="48350" />
	</node>
	<node lat="70.78992222658522" lon="24.22398600302727" id="-41358">
		<tag k="name" v="Lysgrunnen" />
		<tag k="natural" v="shoal" />
		<tag k="place" v="locality" />
		<tag k="ssr:stedsnr" v="48255" />
	</node>
	<node lat="70.92044722863206" lon="24.560358211314686" id="-41361">
		<tag k="name" v="Hatteneset" />
		<tag k="natural" v="cape" />
		<tag k="ssr:stedsnr" v="48783" />
	</node>
	<node lat="70.98909166612945" lon="24.072399887539593" id="-41362">
		<tag k="name" v="Ørnberget" />
		<tag k="natural" v="cape" />
		<tag k="ssr:stedsnr" v="48820" />
	</node>
	<node lat="70.795091669463" lon="24.163113780382275" id="-41363">
		<tag k="name" v="Rypøyan" />
		<tag k="place" v="island" />
		<tag k="ssr:stedsnr" v="48999" />
	</node>
	<node lat="70.83184444824127" lon="23.937633245059317" id="-41367">
		<tag k="alt_name" v="Håøyagrunnen" />
		<tag k="name" v="Håjagrunnen" />
		<tag k="natural" v="shoal" />
		<tag k="place" v="locality" />
		<tag k="ssr:stedsnr" v="80166" />
	</node>
	<node lat="70.83601945113224" lon="24.430902662918754" id="-41368">
		<tag k="name" v="Kvitnesvågen" />
		<tag k="natural" v="bay" />
		<tag k="ssr:stedsnr" v="80276" />
	</node>
	<node lat="70.8310277788246" lon="24.4317720849031" id="-41369">
		<tag k="alt_name" v="Fartøyvika, yt" />
		<tag k="fixme" v="multiple name tags, choose one and add the other to alt_name" />
		<tag k="name" v="Fartøyvika;Ytre Fartøyvika" />
		<tag k="natural" v="bay" />
		<tag k="ssr:stedsnr" v="80365" />
	</node>
	<node lat="70.80116388690391" lon="24.256902669156585" id="-41370">
		<tag k="name" v="Roamšenjárga" />
		<tag k="name:se" v="Roamšenjárga" />
		<tag k="natural" v="cape" />
		<tag k="old_name:se" v="Roamšenjarga" />
		<tag k="ssr:stedsnr" v="80380" />
	</node>
	<node lat="71.00528333897226" lon="23.891622134344708" id="-41372">
		<tag k="name" v="Tapperkeila" />
		<tag k="natural" v="bay" />
		<tag k="ssr:stedsnr" v="80549" />
	</node>
	<node lat="71.02108888804135" lon="23.895286010538058" id="-41373">
		<tag k="alt_name" v="Skjerkvalen" />
		<tag k="name" v="Skjærvalen" />
		<tag k="natural" v="bay" />
		<tag k="ssr:stedsnr" v="80552" />
	</node>
	<node lat="71.05361944555246" lon="23.94547213870057" id="-41374">
		<tag k="name" v="Smøromnneset" />
		<tag k="natural" v="cape" />
		<tag k="ssr:stedsnr" v="80560" />
	</node>
	<node lat="71.07506944768113" lon="23.94166381071646" id="-41375">
		<tag k="alt_name" v="Storskjer, austre" />
		<tag k="fixme" v="multiple name tags, choose one and add the other to alt_name" />
		<tag k="name" v="Storskjær;Austre Storskjer" />
		<tag k="place" v="islet" />
		<tag k="ssr:stedsnr" v="80564" />
	</node>
	<node lat="71.08322778380621" lon="24.1135915727508" id="-41376">
		<tag k="name" v="Lyngholmen" />
		<tag k="place" v="islet" />
		<tag k="ssr:stedsnr" v="80579" />
	</node>
	<node lat="71.08285278101472" lon="24.13095544390742" id="-41377">
		<tag k="alt_name" v="Rørnes;Rønes" />
		<tag k="name" v="Røyrnes" />
		<tag k="natural" v="cape" />
		<tag k="ssr:stedsnr" v="80580" />
	</node>
	<node lat="71.07368889344247" lon="24.790474864906116" id="-41378">
		<tag k="alt_name" v="Hardevika" />
		<tag k="name" v="Hardervika" />
		<tag k="natural" v="bay" />
		<tag k="ssr:stedsnr" v="80680" />
	</node>
	<node lat="70.7026416665517" lon="24.63046374427716" id="-41379">
		<tag k="alt_name" v="Djupbukta" />
		<tag k="name" v="Djupvika" />
		<tag k="natural" v="bay" />
		<tag k="ssr:stedsnr" v="80836" />
	</node>
	<node lat="70.98357777681566" lon="23.915613806581828" id="-41381">
		<tag k="name" v="Båtholmen" />
		<tag k="place" v="islet" />
		<tag k="ssr:stedsnr" v="81129" />
	</node>
	<node lat="70.94657222416276" lon="24.546563766647534" id="-41383">
		<tag k="name" v="Sommarbukta" />
		<tag k="natural" v="bay" />
		<tag k="ssr:stedsnr" v="81229" />
	</node>
	<node lat="70.7623472210278" lon="24.311685999425574" id="-41386">
		<tag k="fixme" v="multiple name tags, choose one and add the other to alt_name" />
		<tag k="name" v="Ytre Sauhamnneset;Sauhamnneset - Njunnošnjárga" />
		<tag k="name:no" v="Ytre Sauhamnneset;Sauhamnneset" />
		<tag k="name:se" v="Njunnošnjárga" />
		<tag k="natural" v="cape" />
		<tag k="old_name:se" v="Njunnušnjarga" />
		<tag k="ssr:stedsnr" v="81343" />
	</node>
	<node lat="71.06416389605991" lon="24.11053323199145" id="-41396">
		<tag k="alt_name" v="Maritholmen" />
		<tag k="name" v="Grasholmen" />
		<tag k="place" v="islet" />
		<tag k="ssr:stedsnr" v="81592" />
	</node>
	<node lat="71.00068334003514" lon="25.009508185672175" id="-41399">
		<tag k="alt_name" v="Mollvika;Mollvikbukta" />
		<tag k="name" v="Molvika" />
		<tag k="natural" v="bay" />
		<tag k="ssr:stedsnr" v="81428" />
	</node>
	<node lat="71.05932222400077" lon="24.022372127531824" id="-41404">
		<tag k="name" v="Langneset" />
		<tag k="natural" v="cape" />
		<tag k="ssr:stedsnr" v="81645" />
	</node>
	<node lat="71.05162500300861" lon="24.10758045783922" id="-41405">
		<tag k="name" v="Eidnesklubben" />
		<tag k="natural" v="cape" />
		<tag k="ssr:stedsnr" v="81648" />
	</node>
	<node lat="71.00600277872212" lon="24.144805451947615" id="-41406">
		<tag k="fixme" v="multiple name tags, choose one and add the other to alt_name; consider seamark:type=rock or natural=shoal" />
		<tag k="name" v="Kvalskjera;Valskjæran" />
		<tag k="place" v="islet" />
		<tag k="ssr:stedsnr" v="81625" />
	</node>
	<node lat="71.00372778386112" lon="24.1268721100118" id="-41407">
		<tag k="name" v="Myrvika" />
		<tag k="natural" v="bay" />
		<tag k="ssr:stedsnr" v="81627" />
	</node>
	<node lat="71.01495833994005" lon="24.696283188743628" id="-41408">
		<tag k="name" v="Kalveryggen" />
		<tag k="natural" v="shoal" />
		<tag k="place" v="locality" />
		<tag k="ssr:stedsnr" v="81726" />
	</node>
	<node lat="71.1148083367006" lon="25.055999857528224" id="-41409">
		<tag k="alt_name" v="Stabbegrunnen, øvre" />
		<tag k="name" v="Øvre Stabbegrunnen" />
		<tag k="natural" v="shoal" />
		<tag k="place" v="locality" />
		<tag k="ssr:stedsnr" v="81680" />
	</node>
	<node lat="71.08848055653769" lon="24.115511020219383" id="-41410">
		<tag k="name" v="Kartøysundet" />
		<tag k="natural" v="strait" />
		<tag k="ssr:stedsnr" v="85004" />
	</node>
	<node lat="70.99365833674608" lon="24.655569322272747" id="-41412">
		<tag k="name" v="Trangsundet" />
		<tag k="natural" v="strait" />
		<tag k="ssr:stedsnr" v="85288" />
	</node>
	<node lat="70.98878333219317" lon="24.00906934921188" id="-41414">
		<tag k="name" v="Sandbukta" />
		<tag k="natural" v="bay" />
		<tag k="ssr:stedsnr" v="85449" />
	</node>
	<node lat="71.00394722399972" lon="23.91312767888006" id="-41415">
		<tag k="name" v="Lamnes" />
		<tag k="natural" v="cape" />
		<tag k="ssr:stedsnr" v="85458" />
	</node>
	<node lat="71.06691667251337" lon="24.76574986978079" id="-41419">
		<tag k="name" v="Lillesanden" />
		<tag k="natural" v="bay" />
		<tag k="ssr:stedsnr" v="89028" />
	</node>
	<node lat="71.04586388652694" lon="23.95142769017499" id="-41421">
		<tag k="name" v="Fallet" />
		<tag k="natural" v="shoal" />
		<tag k="place" v="locality" />
		<tag k="ssr:stedsnr" v="93255" />
	</node>
	<node lat="70.99684722598776" lon="24.970541524535086" id="-41423">
		<tag k="name" v="Klubben" />
		<tag k="natural" v="cape" />
		<tag k="ssr:stedsnr" v="108051" />
	</node>
	<node lat="70.86942778266483" lon="24.695860960660365" id="-41424">
		<tag k="name" v="Lillebukta" />
		<tag k="natural" v="bay" />
		<tag k="ssr:stedsnr" v="109357" />
	</node>
	<node lat="70.87680833333548" lon="24.692022082334496" id="-41425">
		<tag k="name" v="Vassberget" />
		<tag k="natural" v="cape" />
		<tag k="ssr:stedsnr" v="109365" />
	</node>
	<node lat="70.85627222541916" lon="24.39140542306979" id="-41426">
		<tag k="name" v="Rottvika" />
		<tag k="natural" v="bay" />
		<tag k="ssr:stedsnr" v="109293" />
	</node>
	<node lat="70.6893222273575" lon="24.596158194976326" id="-41427">
		<tag k="name" v="Mastervika" />
		<tag k="natural" v="bay" />
		<tag k="ssr:stedsnr" v="109452" />
	</node>
	<node lat="70.91843056019587" lon="24.555860983455002" id="-41428">
		<tag k="fixme" v="consider seamark:type=rock or natural=shoal" />
		<tag k="name" v="Hatteskjæran" />
		<tag k="place" v="islet" />
		<tag k="ssr:stedsnr" v="109762" />
	</node>
	<node lat="70.94406389442955" lon="24.550305429640964" id="-41429">
		<tag k="name" v="Elvevika" />
		<tag k="natural" v="bay" />
		<tag k="ssr:stedsnr" v="109766" />
	</node>
	<node lat="70.96291389038996" lon="24.598083210840326" id="-41430">
		<tag k="name" v="Klubben" />
		<tag k="natural" v="cape" />
		<tag k="ssr:stedsnr" v="109767" />
	</node>
	<node lat="71.06280000574307" lon="24.834672080571025" id="-41433">
		<tag k="name" v="Lysgrunnan" />
		<tag k="natural" v="shoal" />
		<tag k="place" v="locality" />
		<tag k="ssr:stedsnr" v="140659" />
	</node>
	<node lat="70.95497777593577" lon="23.88980824922649" id="-41434">
		<tag k="name" v="Stoppelfjordnæringen" />
		<tag k="natural" v="cape" />
		<tag k="ssr:stedsnr" v="140115" />
	</node>
	<node lat="70.9494611132844" lon="23.945786004235696" id="-41435">
		<tag k="name" v="Stoppelfjordmolvika" />
		<tag k="natural" v="bay" />
		<tag k="ssr:stedsnr" v="140117" />
	</node>
	<node lat="70.844688891647" lon="24.435999868786162" id="-41436">
		<tag k="alt_name" v="Sommerbukta;Sommarvika" />
		<tag k="name" v="Sommarbukta" />
		<tag k="natural" v="bay" />
		<tag k="ssr:stedsnr" v="140282" />
	</node>
	<node lat="71.10871111509715" lon="24.02354989532029" id="-41438">
		<tag k="name" v="Grasholmskallen" />
		<tag k="natural" v="shoal" />
		<tag k="place" v="locality" />
		<tag k="ssr:stedsnr" v="140507" />
	</node>
	<node lat="71.00086389348263" lon="23.863147130221446" id="-41439">
		<tag k="fixme" v="consider seamark:type=rock or natural=shoal" />
		<tag k="name" v="Leikua" />
		<tag k="place" v="islet" />
		<tag k="ssr:stedsnr" v="140515" />
	</node>
	<node lat="71.06082777999501" lon="23.94767213539304" id="-41441">
		<tag k="name" v="Skablineset" />
		<tag k="natural" v="cape" />
		<tag k="ssr:stedsnr" v="140534" />
	</node>
	<node lat="71.07065556168232" lon="23.934111027442516" id="-41442">
		<tag k="alt_name" v="Storskjer, vestre" />
		<tag k="fixme" v="multiple name tags, choose one and add the other to alt_name" />
		<tag k="name" v="Vesterskjæran;Vestre Storskjer" />
		<tag k="place" v="islet" />
		<tag k="ssr:stedsnr" v="140544" />
	</node>
	<node lat="70.97311388803605" lon="24.14282490250886" id="-41444">
		<tag k="name" v="Kvalvikneset" />
		<tag k="natural" v="cape" />
		<tag k="ssr:stedsnr" v="141251" />
	</node>
	<node lat="70.86412499949611" lon="24.3981415406581" id="-41446">
		<tag k="alt_name" v="Rottvikneset" />
		<tag k="name" v="Rotvikneset" />
		<tag k="natural" v="cape" />
		<tag k="ssr:stedsnr" v="141274" />
	</node>
	<node lat="70.86671111786171" lon="24.582349883434556" id="-41447">
		<tag k="name" v="Breivika - Govdaluokta" />
		<tag k="name:no" v="Breivika" />
		<tag k="name:se" v="Govdaluokta" />
		<tag k="natural" v="bay" />
		<tag k="old_name:se" v="Gåvdaluokta" />
		<tag k="ssr:stedsnr" v="141279" />
	</node>
	<node lat="70.83039167213386" lon="24.589533199098323" id="-41451">
		<tag k="alt_name" v="Kobbevika, in;Indre Kobbevik" />
		<tag k="fixme" v="multiple name tags, choose one and add the other to alt_name" />
		<tag k="name" v="Store Kobbevika;Indre Kobbevika" />
		<tag k="natural" v="bay" />
		<tag k="ssr:stedsnr" v="141366" />
	</node>
	<node lat="70.77941111438591" lon="24.243899875076416" id="-41453">
		<tag k="name" v="Bekkevika" />
		<tag k="natural" v="bay" />
		<tag k="ssr:stedsnr" v="141375" />
	</node>
	<node lat="71.0999638888917" lon="24.958233184116786" id="-41454">
		<tag k="name" v="Kjerkegrunnen" />
		<tag k="natural" v="shoal" />
		<tag k="place" v="locality" />
		<tag k="ssr:stedsnr" v="140613" />
	</node>
	<node lat="70.83020555759724" lon="25.331624797554092" id="-41456">
		<tag k="name" v="Skjærneset - Seakkesnjárga" />
		<tag k="name:no" v="Skjærneset" />
		<tag k="name:se" v="Seakkesnjárga" />
		<tag k="natural" v="cape" />
		<tag k="old_name:se" v="Sæggesnjarga" />
		<tag k="ssr:stedsnr" v="141125" />
	</node>
	<node lat="70.9519027815235" lon="24.181749888867266" id="-41458">
		<tag k="alt_name" v="Dyfjorden, in" />
		<tag k="name" v="Indre Dyfjorden" />
		<tag k="natural" v="bay" />
		<tag k="ssr:stedsnr" v="141193" />
	</node>
	<node lat="70.94944166787732" lon="24.21559989750941" id="-41459">
		<tag k="name" v="Dyfjordneset" />
		<tag k="natural" v="cape" />
		<tag k="ssr:stedsnr" v="141196" />
	</node>
	<node lat="70.6933166706305" lon="24.59605818444513" id="-41461">
		<tag k="alt_name:no" v="Brattnesset" />
		<tag k="name" v="Brottneset - Doaddjinnjárga" />
		<tag k="name:no" v="Brottneset" />
		<tag k="name:se" v="Doaddjinnjárga" />
		<tag k="natural" v="cape" />
		<tag k="old_name:se" v="Doaddjinnjarga" />
		<tag k="ssr:stedsnr" v="141180" />
	</node>
	<node lat="70.96252500189696" lon="24.600735970009293" id="-41462">
		<tag k="alt_name" v="Hamna, in" />
		<tag k="name" v="Indre Hamna" />
		<tag k="natural" v="bay" />
		<tag k="ssr:stedsnr" v="141201" />
	</node>
	<node lat="70.95810833840339" lon="24.60582486465131" id="-41463">
		<tag k="name" v="Høyholmen" />
		<tag k="place" v="islet" />
		<tag k="ssr:stedsnr" v="141209" />
	</node>
	<node lat="70.92581389556095" lon="24.418647112316684" id="-41465">
		<tag k="name" v="Straumneset" />
		<tag k="natural" v="cape" />
		<tag k="ssr:stedsnr" v="141307" />
	</node>
	<node lat="70.9328916704318" lon="24.54811099149211" id="-41466">
		<tag k="alt_name" v="Båtkeila" />
		<tag k="name" v="Båtvika" />
		<tag k="natural" v="bay" />
		<tag k="ssr:stedsnr" v="141310" />
	</node>
	<node lat="70.9212500018331" lon="24.077922128818233" id="-41467">
		<tag k="name" v="Buldervika" />
		<tag k="natural" v="bay" />
		<tag k="ssr:stedsnr" v="141315" />
	</node>
	<node lat="70.92575000294828" lon="24.38579709555869" id="-41468">
		<tag k="name" v="Nebbegrunnen" />
		<tag k="natural" v="shoal" />
		<tag k="place" v="locality" />
		<tag k="ssr:stedsnr" v="141316" />
	</node>
	<node lat="70.8763750026864" lon="24.358399887210858" id="-41469">
		<tag k="name" v="Auskarkeila" />
		<tag k="natural" v="bay" />
		<tag k="ssr:stedsnr" v="141320" />
	</node>
	<node lat="70.88091111085119" lon="24.187208224129126" id="-41470">
		<tag k="name" v="Rypøygrunnen" />
		<tag k="natural" v="shoal" />
		<tag k="place" v="locality" />
		<tag k="ssr:stedsnr" v="141325" />
	</node>
	<node lat="70.90734444564994" lon="25.051849835510374" id="-41472">
		<tag k="name" v="Måsneset" />
		<tag k="natural" v="cape" />
		<tag k="ssr:stedsnr" v="141448" />
	</node>
	<node lat="70.97895000752318" lon="25.329885925663984" id="-41474">
		<tag k="name" v="Stikkelvågnæringen" />
		<tag k="natural" v="cape" />
		<tag k="ssr:stedsnr" v="141458" />
	</node>
	<node lat="71.09342778457358" lon="24.700460990516703" id="-41476">
		<tag k="bay" v="fjord" />
		<tag k="name" v="Akkarfjorden" />
		<tag k="natural" v="bay" />
		<tag k="ssr:stedsnr" v="141425" />
	</node>
	<node lat="71.13513333737046" lon="25.061319300900085" id="-41479">
		<tag k="name" v="Mellomgrunnen" />
		<tag k="natural" v="shoal" />
		<tag k="place" v="locality" />
		<tag k="ssr:stedsnr" v="141644" />
	</node>
	<node lat="71.11327777761403" lon="24.733513747299426" id="-41480">
		<tag k="name" v="Krykkjeskjåen" />
		<tag k="natural" v="bay" />
		<tag k="ssr:stedsnr" v="141646" />
	</node>
	<node lat="71.10071666750356" lon="24.769613740924665" id="-41481">
		<tag k="name" v="Tarevikbukta" />
		<tag k="natural" v="bay" />
		<tag k="ssr:stedsnr" v="141649" />
	</node>
	<node lat="71.10914444955182" lon="24.748716531148816" id="-41482">
		<tag k="name" v="Keila" />
		<tag k="natural" v="bay" />
		<tag k="ssr:stedsnr" v="141651" />
	</node>
	<node lat="71.04271111063785" lon="24.945999846990848" id="-41483">
		<tag k="name" v="Hartvikroren" />
		<tag k="natural" v="bay" />
		<tag k="ssr:stedsnr" v="141653" />
	</node>
	<node lat="71.03904444540288" lon="24.776574864654798" id="-41484">
		<tag k="alt_name" v="Skarvbergbukta" />
		<tag k="name" v="Molla" />
		<tag k="natural" v="bay" />
		<tag k="ssr:stedsnr" v="141655" />
	</node>
	<node lat="70.66561389272194" lon="24.64782485343084" id="-41492">
		<tag k="name" v="Skogvika - Sváskkogávva" />
		<tag k="name:no" v="Skogvika" />
		<tag k="name:se" v="Sváskkogávva" />
		<tag k="natural" v="bay" />
		<tag k="old_name:se" v="Svaškugavva" />
		<tag k="ssr:stedsnr" v="141860" />
	</node>
	<node lat="71.0477888888758" lon="24.018047134802757" id="-41495">
		<tag k="name" v="Vikranbukta" />
		<tag k="natural" v="bay" />
		<tag k="ssr:stedsnr" v="145038" />
	</node>
	<node lat="70.8520277866016" lon="25.360269259245516" id="-41497">
		<tag k="name" v="Steingamneset" />
		<tag k="natural" v="cape" />
		<tag k="ssr:stedsnr" v="145341" />
	</node>
	<node lat="71.01451666653807" lon="25.018280394560016" id="-41500">
		<tag k="name" v="Stian" />
		<tag k="natural" v="bay" />
		<tag k="ssr:stedsnr" v="147394" />
	</node>
	<node lat="70.79013333881198" lon="24.60796653112749" id="-41505">
		<tag k="name" v="Gargoneset" />
		<tag k="natural" v="cape" />
		<tag k="ssr:stedsnr" v="147427" />
	</node>
	<node lat="71.10192499827745" lon="24.06057212396002" id="-41513">
		<tag k="fixme" v="consider seamark:type=rock or natural=shoal" />
		<tag k="name" v="Stabben" />
		<tag k="place" v="islet" />
		<tag k="ssr:stedsnr" v="169977" />
	</node>
	<node lat="70.7427194496986" lon="24.508097091360437" id="-41514">
		<tag k="alt_name:no" v="Slåtten" />
		<tag k="name" v="Slåttenbukta - Muotkegohppi" />
		<tag k="name:no" v="Slåttenbukta" />
		<tag k="name:se" v="Muotkegohppi" />
		<tag k="natural" v="bay" />
		<tag k="old_name:se" v="Muotkegåppi" />
		<tag k="ssr:stedsnr" v="202156" />
	</node>
	<node lat="70.98759444348964" lon="23.880933244852844" id="-41516">
		<tag k="name" v="Pålkeilneset" />
		<tag k="natural" v="cape" />
		<tag k="ssr:stedsnr" v="202129" />
	</node>
	<node lat="70.77500000108394" lon="23.983333232912184" id="-41517">
		<tag k="alt_name" v="Tjuvgrunnen, yt" />
		<tag k="name" v="Ytre Tjuvgrunnen" />
		<tag k="natural" v="shoal" />
		<tag k="place" v="locality" />
		<tag k="ssr:stedsnr" v="202221" />
	</node>
	<node lat="70.9678222254089" lon="24.14404989047388" id="-41518">
		<tag k="name" v="Kvalvika" />
		<tag k="natural" v="bay" />
		<tag k="ssr:stedsnr" v="202240" />
	</node>
	<node lat="70.97323889515839" lon="24.681452648974147" id="-41519">
		<tag k="bay" v="fjord" />
		<tag k="name" v="Eiterfjorden - Árresvuotna" />
		<tag k="name:no" v="Eiterfjorden" />
		<tag k="name:se" v="Árresvuotna" />
		<tag k="natural" v="bay" />
		<tag k="old_name:se" v="Arresvuodna" />
		<tag k="ssr:stedsnr" v="202332" />
	</node>
	<node lat="70.70618889219033" lon="24.577449850749463" id="-41522">
		<tag k="name" v="Sommarneset - Geassenjárga" />
		<tag k="name:no" v="Sommarneset" />
		<tag k="name:se" v="Geassenjárga" />
		<tag k="natural" v="cape" />
		<tag k="old_name:se" v="Gæssenjarga" />
		<tag k="ssr:stedsnr" v="202174" />
	</node>
	<node lat="70.72755555638675" lon="24.41763042447327" id="-41524">
		<tag k="name" v="Storgrunnen" />
		<tag k="natural" v="shoal" />
		<tag k="place" v="locality" />
		<tag k="ssr:stedsnr" v="202181" />
	</node>
	<node lat="70.96804722939684" lon="24.052788784667914" id="-41525">
		<tag k="name" v="Langfjordbotn" />
		<tag k="natural" v="bay" />
		<tag k="ssr:stedsnr" v="202242" />
	</node>
	<node lat="70.98110556206565" lon="24.22254154835328" id="-41527">
		<tag k="name" v="Mefjordgrunnen" />
		<tag k="natural" v="shoal" />
		<tag k="place" v="locality" />
		<tag k="ssr:stedsnr" v="202247" />
	</node>
	<node lat="70.83856667171779" lon="24.579599859996474" id="-41528">
		<tag k="name" v="Kobbevikneset" />
		<tag k="natural" v="cape" />
		<tag k="ssr:stedsnr" v="202276" />
	</node>
	<node lat="70.91496945042893" lon="24.582230425763495" id="-41530">
		<tag k="name" v="Selvika - Čuovgavuotna" />
		<tag k="name:no" v="Selvika" />
		<tag k="name:se" v="Čuovgavuotna" />
		<tag k="natural" v="bay" />
		<tag k="old_name:se" v="Čuovgavuodna" />
		<tag k="ssr:stedsnr" v="202290" />
	</node>
	<node lat="70.83121666818808" lon="24.56853875184204" id="-41531">
		<tag k="alt_name:se" v="Guoskala;Goeskela" />
		<tag k="name" v="Guoskat" />
		<tag k="name:se" v="Guoskat" />
		<tag k="place" v="island" />
		<tag k="ssr:stedsnr" v="202362" />
	</node>
	<node lat="70.81221389200552" lon="24.500441539389513" id="-41532">
		<tag k="alt_name" v="Svartbergvika, in" />
		<tag k="name" v="Indre Svartbergvika" />
		<tag k="natural" v="bay" />
		<tag k="ssr:stedsnr" v="202379" />
	</node>
	<node lat="71.00278055654692" lon="23.88817767673136" id="-41535">
		<tag k="name" v="Kjerkeneset" />
		<tag k="natural" v="cape" />
		<tag k="ssr:stedsnr" v="202564" />
	</node>
	<node lat="70.97510277673508" lon="24.970908183253833" id="-41536">
		<tag k="name" v="Fastlandsbukta" />
		<tag k="natural" v="bay" />
		<tag k="ssr:stedsnr" v="202411" />
	</node>
	<node lat="70.974280559503" lon="24.739583188389986" id="-41537">
		<tag k="name" v="Boalonjárga" />
		<tag k="name:se" v="Boalonjárga" />
		<tag k="natural" v="cape" />
		<tag k="old_name:se" v="Boalunjarga" />
		<tag k="ssr:stedsnr" v="202413" />
	</node>
	<node lat="71.00342500678055" lon="24.064561001077426" id="-41540">
		<tag k="alt_name" v="Nordhamna, in" />
		<tag k="name" v="Indre Nordhamna" />
		<tag k="natural" v="bay" />
		<tag k="ssr:stedsnr" v="202637" />
	</node>
	<node lat="71.02270833810307" lon="25.0332442854749" id="-41542">
		<tag k="alt_name" v="Skjåvika, l;Lille Sjåvika" />
		<tag k="name" v="Lille Skjåvika" />
		<tag k="natural" v="bay" />
		<tag k="ssr:stedsnr" v="202728" />
	</node>
	<node lat="71.00245000108917" lon="24.677694311838646" id="-41543">
		<tag k="name" v="Garpholmvika" />
		<tag k="natural" v="bay" />
		<tag k="ssr:stedsnr" v="202731" />
	</node>
	<node lat="71.03211111344164" lon="23.93636103051311" id="-41544">
		<tag k="fixme" v="multiple name tags, choose one and add the other to alt_name" />
		<tag k="name" v="Storsteinneset;Stortindneset" />
		<tag k="natural" v="cape" />
		<tag k="ssr:stedsnr" v="202576" />
	</node>
	<node lat="71.0473833354836" lon="23.960077682352445" id="-41545">
		<tag k="name" v="Fallvika" />
		<tag k="natural" v="bay" />
		<tag k="ssr:stedsnr" v="202582" />
	</node>
	<node lat="71.04597500409352" lon="23.959494349649503" id="-41546">
		<tag k="name" v="Fallneset" />
		<tag k="natural" v="cape" />
		<tag k="ssr:stedsnr" v="202583" />
	</node>
	<node lat="71.06999999827475" lon="23.987872130872834" id="-41548">
		<tag k="name" v="Portholneset" />
		<tag k="natural" v="cape" />
		<tag k="ssr:stedsnr" v="202589" />
	</node>
	<node lat="71.05670556087102" lon="24.61526376222631" id="-41549">
		<tag k="name" v="Lille-Geitingsodden" />
		<tag k="natural" v="cape" />
		<tag k="ssr:stedsnr" v="202641" />
	</node>
	<node lat="71.08279444856636" lon="24.646435969016586" id="-41550">
		<tag k="name" v="Skinnstadvika" />
		<tag k="natural" v="bay" />
		<tag k="ssr:stedsnr" v="202658" />
	</node>
	<node lat="71.03266389380063" lon="24.779035959904395" id="-41554">
		<tag k="name" v="Purkevika" />
		<tag k="natural" v="bay" />
		<tag k="ssr:stedsnr" v="202686" />
	</node>
	<node lat="71.06605277592354" lon="24.02516102062619" id="-41564">
		<tag k="fixme" v="consider seamark:type=rock or natural=shoal" />
		<tag k="name" v="Skarvnakken" />
		<tag k="place" v="islet" />
		<tag k="ssr:stedsnr" v="206008" />
	</node>
	<node lat="71.06143055914153" lon="24.015952682353962" id="-41565">
		<tag k="name" v="Langnesbukta" />
		<tag k="natural" v="bay" />
		<tag k="ssr:stedsnr" v="206023" />
	</node>
	<node lat="71.02066111422637" lon="25.03244707250321" id="-41571">
		<tag k="name" v="Østre Holmbukta" />
		<tag k="natural" v="bay" />
		<tag k="ssr:stedsnr" v="208384" />
	</node>
	<node lat="71.00769166824134" lon="24.99407205570279" id="-41572">
		<tag k="name" v="Vestervågsanden" />
		<tag k="natural" v="beach" />
		<tag k="ssr:stedsnr" v="208393" />
	</node>
	<node lat="71.00492222427525" lon="24.97974707185296" id="-41573">
		<tag k="name" v="Lenningen" />
		<tag k="natural" v="bay" />
		<tag k="ssr:stedsnr" v="208395" />
	</node>
	<node lat="71.00956945001437" lon="24.98888038962799" id="-41574">
		<tag k="name" v="Bukta" />
		<tag k="natural" v="bay" />
		<tag k="ssr:stedsnr" v="208396" />
	</node>
	<node lat="70.96320555968568" lon="24.673280414779924" id="-41576">
		<tag k="name" v="Eiterfjordbotn" />
		<tag k="natural" v="bay" />
		<tag k="ssr:stedsnr" v="208425" />
	</node>
	<node lat="70.81413889159737" lon="24.622399854741058" id="-41577">
		<tag k="name" v="Ytrevika" />
		<tag k="natural" v="bay" />
		<tag k="ssr:stedsnr" v="208441" />
	</node>
	<node lat="70.79773056261766" lon="24.56246376863308" id="-41578">
		<tag k="name" v="Skavikneset" />
		<tag k="natural" v="cape" />
		<tag k="ssr:stedsnr" v="208444" />
	</node>
	<node lat="71.06597500658467" lon="24.59626931041933" id="-41582">
		<tag k="fixme" v="consider seamark:type=rock or natural=shoal" />
		<tag k="name" v="Geitingsskjæret" />
		<tag k="place" v="islet" />
		<tag k="ssr:stedsnr" v="290020" />
	</node>
	<node lat="71.02039445070034" lon="24.943558170762877" id="-41583">
		<tag k="name" v="Snekkarvikodden" />
		<tag k="natural" v="cape" />
		<tag k="ssr:stedsnr" v="290064" />
	</node>
	<node lat="70.91298055908882" lon="24.583622102886665" id="-41584">
		<tag k="fixme" v="consider seamark:type=rock or natural=shoal" />
		<tag k="name" v="Eiaskjæran" />
		<tag k="place" v="islet" />
		<tag k="ssr:stedsnr" v="290759" />
	</node>
	<node lat="70.96888334040989" lon="24.16343600792329" id="-41586">
		<tag k="name" v="Mortenberget" />
		<tag k="natural" v="cape" />
		<tag k="ssr:stedsnr" v="291825" />
	</node>
	<node lat="70.97199445180361" lon="25.357799817564597" id="-41587">
		<tag k="name" v="Kjerkeneset" />
		<tag k="natural" v="cape" />
		<tag k="ssr:stedsnr" v="291895" />
	</node>
	<node lat="70.8456250001798" lon="25.236833154043175" id="-41588">
		<tag k="name" v="Pålsaneset" />
		<tag k="natural" v="cape" />
		<tag k="ssr:stedsnr" v="291908" />
	</node>
	<node lat="71.16027777774292" lon="24.94444428863019" id="-41589">
		<tag k="name" v="Middagshøygrunnen" />
		<tag k="natural" v="shoal" />
		<tag k="place" v="locality" />
		<tag k="ssr:stedsnr" v="303181" />
	</node>
	<node lat="70.9018055642884" lon="24.958808174923696" id="-41590">
		<tag k="name" v="Kråkvika" />
		<tag k="natural" v="bay" />
		<tag k="ssr:stedsnr" v="323382" />
	</node>
	<node lat="70.87804722767775" lon="24.898291516320892" id="-41592">
		<tag k="alt_name" v="Vesterbotn" />
		<tag k="name" v="Vesterbotnen" />
		<tag k="natural" v="bay" />
		<tag k="ssr:stedsnr" v="323389" />
	</node>
	<node lat="70.88424444647049" lon="25.212802596415088" id="-41593">
		<tag k="fixme" v="multiple name tags, choose one and add the other to alt_name" />
		<tag k="name" v="Studentervika;Store Studentervika" />
		<tag k="natural" v="bay" />
		<tag k="ssr:stedsnr" v="323390" />
	</node>
	<node lat="70.92849445130429" lon="25.178513723548974" id="-41596">
		<tag k="bay" v="fjord" />
		<tag k="name" v="Kobbefjorden - Gáhppovuotna" />
		<tag k="name:no" v="Kobbefjorden" />
		<tag k="name:se" v="Gáhppovuotna" />
		<tag k="natural" v="bay" />
		<tag k="old_name:se" v="Gappuvuodna" />
		<tag k="ssr:stedsnr" v="323049" />
	</node>
	<node lat="70.93447222982142" lon="25.34146092904576" id="-41597">
		<tag k="name" v="Ytre Gavas - Olggut Gávaš" />
		<tag k="name:no" v="Ytre Gavas" />
		<tag k="name:se" v="Olggut Gávaš" />
		<tag k="natural" v="bay" />
		<tag k="old_name:se" v="Gavaš, ålgot" />
		<tag k="ssr:stedsnr" v="323072" />
	</node>
	<node lat="70.9412694528668" lon="25.474452586080783" id="-41598">
		<tag k="name" v="Vuojahangohppi" />
		<tag k="name:se" v="Vuojahangohppi" />
		<tag k="natural" v="bay" />
		<tag k="old_name:se" v="Vuojahangåppi" />
		<tag k="ssr:stedsnr" v="323074" />
	</node>
	<node lat="70.96762222384984" lon="23.937263804596046" id="-41601">
		<tag k="alt_name:no" v="Rolvsøy" />
		<tag k="name" v="Rolvsøya - Gádde-Iččát" />
		<tag k="name:no" v="Rolvsøya" />
		<tag k="name:se" v="Gádde-Iččát" />
		<tag k="old_name:se" v="Gadde-Ižžat;Gádde-lččat" />
		<tag k="place" v="island" />
		<tag k="ssr:stedsnr" v="323153" />
	</node>
	<node lat="70.71525555926289" lon="24.565822082452197" id="-41603">
		<tag k="alt_name:no" v="Bestemorsbukta" />
		<tag k="name" v="Bestemorvika - Áhkogohppi" />
		<tag k="name:no" v="Bestemorvika" />
		<tag k="name:se" v="Áhkogohppi" />
		<tag k="natural" v="bay" />
		<tag k="old_name:se" v="Akkugåppi" />
		<tag k="ssr:stedsnr" v="323194" />
	</node>
	<node lat="70.99713055356585" lon="23.8437332458061" id="-41604">
		<tag k="name" v="Tunæringen" />
		<tag k="natural" v="cape" />
		<tag k="ssr:stedsnr" v="323199" />
	</node>
	<node lat="70.85651111864753" lon="24.215185991673216" id="-41605">
		<tag k="name" v="Bismarvika" />
		<tag k="natural" v="bay" />
		<tag k="ssr:stedsnr" v="323273" />
	</node>
	<node lat="70.99680833313461" lon="24.110491554340157" id="-41606">
		<tag k="name" v="Leira" />
		<tag k="natural" v="bay" />
		<tag k="ssr:stedsnr" v="323238" />
	</node>
	<node lat="70.98160556201319" lon="24.250122123027282" id="-41608">
		<tag k="name" v="Mariagrunnen" />
		<tag k="natural" v="shoal" />
		<tag k="place" v="locality" />
		<tag k="ssr:stedsnr" v="323253" />
	</node>
	<node lat="70.81481389304804" lon="24.488388747456845" id="-41612">
		<tag k="alt_name" v="Svartbergvika, yt" />
		<tag k="name" v="Ytre Svartbergvika" />
		<tag k="natural" v="bay" />
		<tag k="ssr:stedsnr" v="323342" />
	</node>
	<node lat="71.01850000081595" lon="23.880297120353735" id="-41616">
		<tag k="fixme" v="multiple name tags, choose one and add the other to alt_name; consider seamark:type=rock or natural=shoal" />
		<tag k="name" v="Kvalskjæret;Langskjæret" />
		<tag k="place" v="islet" />
		<tag k="ssr:stedsnr" v="323550" />
	</node>
	<node lat="71.02834444857493" lon="23.991266561977366" id="-41617">
		<tag k="name" v="Kalvbukta" />
		<tag k="natural" v="bay" />
		<tag k="ssr:stedsnr" v="323551" />
	</node>
	<node lat="71.02866666453154" lon="23.908380469855693" id="-41618">
		<tag k="name" v="Brosmekeila" />
		<tag k="natural" v="bay" />
		<tag k="ssr:stedsnr" v="323554" />
	</node>
	<node lat="71.0765000016505" lon="23.987691570780566" id="-41619">
		<tag k="name" v="Mafjordholmen" />
		<tag k="place" v="islet" />
		<tag k="ssr:stedsnr" v="323564" />
	</node>
	<node lat="70.92448611063092" lon="24.916288744928153" id="-41623">
		<tag k="name" v="Østerbotn" />
		<tag k="natural" v="bay" />
		<tag k="ssr:stedsnr" v="323434" />
	</node>
	<node lat="70.96679167286582" lon="25.36371370971436" id="-41625">
		<tag k="name" v="Stikkelvågen" />
		<tag k="natural" v="bay" />
		<tag k="ssr:stedsnr" v="323457" />
	</node>
	<node lat="71.09974167070075" lon="23.90956379782421" id="-41627">
		<tag k="name" v="Hammarøyskallen" />
		<tag k="natural" v="shoal" />
		<tag k="place" v="locality" />
		<tag k="ssr:stedsnr" v="323516" />
	</node>
	<node lat="71.08921389149194" lon="23.965683234661032" id="-41628">
		<tag k="name" v="Leisund" />
		<tag k="natural" v="strait" />
		<tag k="ssr:stedsnr" v="323517" />
	</node>
	<node lat="71.0783805607779" lon="24.0718249064224" id="-41629">
		<tag k="alt_name" v="Russehamn" />
		<tag k="name" v="Russehamna" />
		<tag k="natural" v="bay" />
		<tag k="ssr:stedsnr" v="323584" />
	</node>
	<node lat="71.08951388983773" lon="24.1519526644793" id="-41630">
		<tag k="name" v="Svartoksen" />
		<tag k="place" v="islet" />
		<tag k="ssr:stedsnr" v="323591" />
	</node>
	<node lat="71.0850527816601" lon="24.082411018475018" id="-41631">
		<tag k="alt_name" v="Juksholmen" />
		<tag k="name" v="Jaksholmen" />
		<tag k="place" v="islet" />
		<tag k="ssr:stedsnr" v="323597" />
	</node>
	<node lat="71.01670833370704" lon="24.107774903743227" id="-41632">
		<tag k="name" v="Midtergrunnen" />
		<tag k="natural" v="shoal" />
		<tag k="place" v="locality" />
		<tag k="ssr:stedsnr" v="323613" />
	</node>
	<node lat="71.04222499942856" lon="24.035816553727173" id="-41633">
		<tag k="fixme" v="consider seamark:type=rock or natural=shoal" />
		<tag k="name" v="Klubben" />
		<tag k="place" v="islet" />
		<tag k="ssr:stedsnr" v="323623" />
	</node>
	<node lat="71.07042778053967" lon="24.729394311356664" id="-41634">
		<tag k="name" v="Elvevika" />
		<tag k="natural" v="bay" />
		<tag k="ssr:stedsnr" v="323651" />
	</node>
	<node lat="71.11143889474755" lon="24.762702653925764" id="-41635">
		<tag k="name" v="Kjerkenesholmen" />
		<tag k="place" v="islet" />
		<tag k="ssr:stedsnr" v="323670" />
	</node>
	<node lat="71.03736389295754" lon="24.703424851992114" id="-41637">
		<tag k="alt_name" v="Knarrvika, l" />
		<tag k="name" v="Lille Knarrvika" />
		<tag k="natural" v="bay" />
		<tag k="ssr:stedsnr" v="323677" />
	</node>
	<node lat="71.08114722312497" lon="24.963074834392454" id="-41639">
		<tag k="name" v="Nipgrunnen" />
		<tag k="natural" v="shoal" />
		<tag k="place" v="locality" />
		<tag k="ssr:stedsnr" v="323686" />
	</node>
	<node lat="71.04744722555171" lon="24.677097089320025" id="-41640">
		<tag k="alt_name" v="Knarrvika, store" />
		<tag k="name" v="Store Knarrvika" />
		<tag k="natural" v="bay" />
		<tag k="ssr:stedsnr" v="323689" />
	</node>
	<node lat="71.02205000290685" lon="25.033697050891075" id="-41642">
		<tag k="alt_name" v="Sjåviknesset" />
		<tag k="name" v="Skjåvikneset" />
		<tag k="natural" v="cape" />
		<tag k="ssr:stedsnr" v="323706" />
	</node>
</osm>
