<?xml version="1.0" encoding="UTF-8"?>
<osm version="0.6" generator="osmapis">
	<node lat="65.44275000144464" lon="12.57572777389899" id="-13741">
		<tag k="name" v="Nevernes" />
		<tag k="ssr:date" v="2016-05-10" />
		<tag k="ssr:gruppe" v="navigasjon" />
		<tag k="ssr:hovedgruppe" v="infrastruktur" />
		<tag k="ssr:stedsnr" v="257530" />
		<tag k="ssr:type" v="fyrlykt" />
	</node>
	<node lat="65.44847420357306" lon="12.101437914573888" id="-15220">
		<tag k="name" v="Toftøya" />
		<tag k="ssr:date" v="2020-09-15" />
		<tag k="ssr:gruppe" v="navigasjon" />
		<tag k="ssr:hovedgruppe" v="infrastruktur" />
		<tag k="ssr:stedsnr" v="783954" />
		<tag k="ssr:type" v="fyrlykt" />
	</node>
	<node lat="65.46785278073878" lon="12.206252773698921" id="-15314">
		<tag k="name" v="Brønnøy kommune" />
		<tag k="ssr:date" v="2016-05-11" />
		<tag k="ssr:gruppe" v="administrativeIndelinger" />
		<tag k="ssr:hovedgruppe" v="offentligAdministrasjon" />
		<tag k="ssr:stedsnr" v="815317" />
		<tag k="ssr:type" v="kommune" />
	</node>
	<node lat="65.43305555222976" lon="12.133333322483253" id="-15638">
		<tag k="name" v="Kobbskjærryggen" />
		<tag k="ssr:date" v="2016-05-11" />
		<tag k="ssr:gruppe" v="sjøbunn" />
		<tag k="ssr:hovedgruppe" v="sjø" />
		<tag k="ssr:stedsnr" v="969339" />
		<tag k="ssr:type" v="ryggISjø" />
	</node>
	<node lat="65.47945720113451" lon="12.217699356931004" id="-15657">
		<tag k="name" v="Blomstervikveien" />
		<tag k="ssr:date" v="2019-05-30" />
		<tag k="ssr:gruppe" v="veg" />
		<tag k="ssr:hovedgruppe" v="infrastruktur" />
		<tag k="ssr:stedsnr" v="999036" />
		<tag k="ssr:type" v="adressenavn" />
	</node>
	<node lat="65.47739872684876" lon="12.22443232082056" id="-15660">
		<tag k="name" v="Bjørkveien" />
		<tag k="ssr:date" v="2019-05-30" />
		<tag k="ssr:gruppe" v="veg" />
		<tag k="ssr:hovedgruppe" v="infrastruktur" />
		<tag k="ssr:stedsnr" v="999118" />
		<tag k="ssr:type" v="adressenavn" />
	</node>
	<node lat="65.45883281307565" lon="12.197674415649628" id="-15665">
		<tag k="name" v="Heireveien" />
		<tag k="ssr:date" v="2019-05-30" />
		<tag k="ssr:gruppe" v="veg" />
		<tag k="ssr:hovedgruppe" v="infrastruktur" />
		<tag k="ssr:stedsnr" v="999386" />
		<tag k="ssr:type" v="adressenavn" />
	</node>
	<node lat="65.47156032622321" lon="12.207400193032973" id="-15668">
		<tag k="name" v="Innerveien" />
		<tag k="ssr:date" v="2019-05-30" />
		<tag k="ssr:gruppe" v="veg" />
		<tag k="ssr:hovedgruppe" v="infrastruktur" />
		<tag k="ssr:stedsnr" v="999645" />
		<tag k="ssr:type" v="adressenavn" />
	</node>
	<node lat="65.48886491966357" lon="12.350420842670365" id="-15673">
		<tag k="name" v="Furuveien" />
		<tag k="ssr:date" v="2019-05-30" />
		<tag k="ssr:gruppe" v="veg" />
		<tag k="ssr:hovedgruppe" v="infrastruktur" />
		<tag k="ssr:stedsnr" v="999822" />
		<tag k="ssr:type" v="adressenavn" />
	</node>
	<node lat="65.47070232954432" lon="12.214402695366642" id="-15676">
		<tag k="name" v="Engveien" />
		<tag k="ssr:date" v="2019-05-30" />
		<tag k="ssr:gruppe" v="veg" />
		<tag k="ssr:hovedgruppe" v="infrastruktur" />
		<tag k="ssr:stedsnr" v="999721" />
		<tag k="ssr:type" v="adressenavn" />
	</node>
	<node lat="65.47012940740085" lon="12.220164668543905" id="-15677">
		<tag k="name" v="Even Ulvings vei" />
		<tag k="ssr:date" v="2019-05-30" />
		<tag k="ssr:gruppe" v="veg" />
		<tag k="ssr:hovedgruppe" v="infrastruktur" />
		<tag k="ssr:stedsnr" v="999723" />
		<tag k="ssr:type" v="adressenavn" />
	</node>
	<node lat="65.48872387628494" lon="12.34741941609575" id="-15680">
		<tag k="name" v="Einerveien" />
		<tag k="ssr:date" v="2019-05-30" />
		<tag k="ssr:gruppe" v="veg" />
		<tag k="ssr:hovedgruppe" v="infrastruktur" />
		<tag k="ssr:stedsnr" v="999730" />
		<tag k="ssr:type" v="adressenavn" />
	</node>
	<node lat="65.4703967747693" lon="12.206804824511023" id="-15684">
		<tag k="name" v="Dr. Sællegs plass" />
		<tag k="ssr:date" v="2019-05-30" />
		<tag k="ssr:gruppe" v="veg" />
		<tag k="ssr:hovedgruppe" v="infrastruktur" />
		<tag k="ssr:stedsnr" v="999736" />
		<tag k="ssr:type" v="adressenavn" />
	</node>
	<node lat="65.47037076259235" lon="12.206743443162326" id="-15686">
		<tag k="name" v="Frøkenosveien" />
		<tag k="ssr:date" v="2019-05-30" />
		<tag k="ssr:gruppe" v="veg" />
		<tag k="ssr:hovedgruppe" v="infrastruktur" />
		<tag k="ssr:stedsnr" v="999770" />
		<tag k="ssr:type" v="adressenavn" />
	</node>
	<node lat="65.48941804745783" lon="12.349089365097218" id="-15692">
		<tag k="name" v="Lyngveien" />
		<tag k="ssr:date" v="2019-05-30" />
		<tag k="ssr:gruppe" v="veg" />
		<tag k="ssr:hovedgruppe" v="infrastruktur" />
		<tag k="ssr:stedsnr" v="1000282" />
		<tag k="ssr:type" v="adressenavn" />
	</node>
	<node lat="65.46193786490002" lon="12.19981033534914" id="-15694">
		<tag k="name" v="Kirkealleen" />
		<tag k="ssr:date" v="2019-05-30" />
		<tag k="ssr:gruppe" v="veg" />
		<tag k="ssr:hovedgruppe" v="infrastruktur" />
		<tag k="ssr:stedsnr" v="1000442" />
		<tag k="ssr:type" v="adressenavn" />
	</node>
	<node lat="65.4847426188909" lon="12.224846537419008" id="-15695">
		<tag k="name" v="Jektskipperveien" />
		<tag k="ssr:date" v="2019-05-30" />
		<tag k="ssr:gruppe" v="veg" />
		<tag k="ssr:hovedgruppe" v="infrastruktur" />
		<tag k="ssr:stedsnr" v="1000464" />
		<tag k="ssr:type" v="adressenavn" />
	</node>
	<node lat="65.46837276515419" lon="12.208036226873508" id="-15697">
		<tag k="name" v="Lenningsveien" />
		<tag k="ssr:date" v="2019-05-30" />
		<tag k="ssr:gruppe" v="veg" />
		<tag k="ssr:hovedgruppe" v="infrastruktur" />
		<tag k="ssr:stedsnr" v="1000375" />
		<tag k="ssr:type" v="adressenavn" />
	</node>
	<node lat="65.48281605264502" lon="12.222514345816917" id="-15698">
		<tag k="name" v="Kjærlighetsstien" />
		<tag k="ssr:date" v="2019-05-30" />
		<tag k="ssr:gruppe" v="veg" />
		<tag k="ssr:hovedgruppe" v="infrastruktur" />
		<tag k="ssr:stedsnr" v="1000581" />
		<tag k="ssr:type" v="adressenavn" />
	</node>
	<node lat="65.49176751055101" lon="12.239965586291492" id="-15701">
		<tag k="name" v="Sømnaveien" />
		<tag k="ssr:date" v="2019-05-30" />
		<tag k="ssr:gruppe" v="veg" />
		<tag k="ssr:hovedgruppe" v="infrastruktur" />
		<tag k="ssr:stedsnr" v="1000714" />
		<tag k="ssr:type" v="adressenavn" />
	</node>
	<node lat="65.49461636578528" lon="12.244903606134214" id="-15709">
		<tag k="name" v="Slettaunåsen" />
		<tag k="ssr:date" v="2019-05-30" />
		<tag k="ssr:gruppe" v="veg" />
		<tag k="ssr:hovedgruppe" v="infrastruktur" />
		<tag k="ssr:stedsnr" v="1000685" />
		<tag k="ssr:type" v="adressenavn" />
	</node>
	<node lat="65.46325140667206" lon="12.204719837553304" id="-15710">
		<tag k="name" v="Skules vei" />
		<tag k="ssr:date" v="2019-05-30" />
		<tag k="ssr:gruppe" v="veg" />
		<tag k="ssr:hovedgruppe" v="infrastruktur" />
		<tag k="ssr:stedsnr" v="1000686" />
		<tag k="ssr:type" v="adressenavn" />
	</node>
	<node lat="65.4659421467182" lon="12.183782318061942" id="-15713">
		<tag k="name" v="Skrenten" />
		<tag k="ssr:date" v="2019-05-30" />
		<tag k="ssr:gruppe" v="veg" />
		<tag k="ssr:hovedgruppe" v="infrastruktur" />
		<tag k="ssr:stedsnr" v="1000690" />
		<tag k="ssr:type" v="adressenavn" />
	</node>
	<node lat="65.47410426418853" lon="12.219097013980772" id="-15714">
		<tag k="name" v="Sira Erlends vei" />
		<tag k="ssr:date" v="2019-05-30" />
		<tag k="ssr:gruppe" v="veg" />
		<tag k="ssr:hovedgruppe" v="infrastruktur" />
		<tag k="ssr:stedsnr" v="1000822" />
		<tag k="ssr:type" v="adressenavn" />
	</node>
	<node lat="65.47406491616408" lon="12.227116135588266" id="-15716">
		<tag k="name" v="Røsslyngveien" />
		<tag k="ssr:date" v="2019-05-30" />
		<tag k="ssr:gruppe" v="veg" />
		<tag k="ssr:hovedgruppe" v="infrastruktur" />
		<tag k="ssr:stedsnr" v="1000864" />
		<tag k="ssr:type" v="adressenavn" />
	</node>
	<node lat="65.46559546177652" lon="12.184960731901178" id="-15717">
		<tag k="name" v="Røysveien" />
		<tag k="ssr:date" v="2019-05-30" />
		<tag k="ssr:gruppe" v="veg" />
		<tag k="ssr:hovedgruppe" v="infrastruktur" />
		<tag k="ssr:stedsnr" v="1000866" />
		<tag k="ssr:type" v="adressenavn" />
	</node>
	<node lat="65.47816247174804" lon="12.21710219377477" id="-15722">
		<tag k="name" v="Punktumveien" />
		<tag k="ssr:date" v="2019-05-30" />
		<tag k="ssr:gruppe" v="veg" />
		<tag k="ssr:hovedgruppe" v="infrastruktur" />
		<tag k="ssr:stedsnr" v="1000873" />
		<tag k="ssr:type" v="adressenavn" />
	</node>
	<node lat="65.46516001626141" lon="12.198666302746267" id="-15723">
		<tag k="name" v="Ytre Høgåsvei" />
		<tag k="ssr:date" v="2019-05-30" />
		<tag k="ssr:gruppe" v="veg" />
		<tag k="ssr:hovedgruppe" v="infrastruktur" />
		<tag k="ssr:stedsnr" v="1000889" />
		<tag k="ssr:type" v="adressenavn" />
	</node>
	<node lat="65.46833861113701" lon="12.202790940685768" id="-15730">
		<tag k="name" v="E.Olsens gate" />
		<tag k="ssr:date" v="2019-05-30" />
		<tag k="ssr:gruppe" v="veg" />
		<tag k="ssr:hovedgruppe" v="infrastruktur" />
		<tag k="ssr:stedsnr" v="1000771" />
		<tag k="ssr:type" v="adressenavn" />
	</node>
	<node lat="65.47775045510252" lon="12.225232114564962" id="-15733">
		<tag k="name" v="Ospveien" />
		<tag k="ssr:date" v="2019-05-30" />
		<tag k="ssr:gruppe" v="veg" />
		<tag k="ssr:hovedgruppe" v="infrastruktur" />
		<tag k="ssr:stedsnr" v="1000774" />
		<tag k="ssr:type" v="adressenavn" />
	</node>
	<node lat="65.46628095009494" lon="12.184854579595083" id="-15738">
		<tag k="name" v="Myrveien" />
		<tag k="ssr:date" v="2019-05-30" />
		<tag k="ssr:gruppe" v="veg" />
		<tag k="ssr:hovedgruppe" v="infrastruktur" />
		<tag k="ssr:stedsnr" v="1000783" />
		<tag k="ssr:type" v="adressenavn" />
	</node>
	<node lat="65.49077002644671" lon="12.234908406157311" id="-15740">
		<tag k="name" v="Mosheimsjøveien" />
		<tag k="ssr:date" v="2019-05-30" />
		<tag k="ssr:gruppe" v="veg" />
		<tag k="ssr:hovedgruppe" v="infrastruktur" />
		<tag k="ssr:stedsnr" v="1000785" />
		<tag k="ssr:type" v="adressenavn" />
	</node>
	<node lat="65.46973524149166" lon="12.226285463104281" id="-15742">
		<tag k="name" v="Måkeveien" />
		<tag k="ssr:date" v="2019-05-30" />
		<tag k="ssr:gruppe" v="veg" />
		<tag k="ssr:hovedgruppe" v="infrastruktur" />
		<tag k="ssr:stedsnr" v="1000787" />
		<tag k="ssr:type" v="adressenavn" />
	</node>
	<node lat="65.49624300997792" lon="12.238728155763255" id="-15743">
		<tag k="name" v="Vikaveien" />
		<tag k="ssr:date" v="2019-05-30" />
		<tag k="ssr:gruppe" v="veg" />
		<tag k="ssr:hovedgruppe" v="infrastruktur" />
		<tag k="ssr:stedsnr" v="1000936" />
		<tag k="ssr:type" v="adressenavn" />
	</node>
	<node lat="65.46571572135063" lon="12.2011360949418" id="-15745">
		<tag k="name" v="Utsikten" />
		<tag k="ssr:date" v="2019-05-30" />
		<tag k="ssr:gruppe" v="veg" />
		<tag k="ssr:hovedgruppe" v="infrastruktur" />
		<tag k="ssr:stedsnr" v="1001086" />
		<tag k="ssr:type" v="adressenavn" />
	</node>
	<node lat="65.47214846393815" lon="12.208870885565604" id="-15746">
		<tag k="name" v="Åsveien" />
		<tag k="ssr:date" v="2019-05-30" />
		<tag k="ssr:gruppe" v="veg" />
		<tag k="ssr:hovedgruppe" v="infrastruktur" />
		<tag k="ssr:stedsnr" v="1001216" />
		<tag k="ssr:type" v="adressenavn" />
	</node>
	<node lat="65.4513149796528" lon="12.186041534089208" id="-15755">
		<tag k="name" v="Tussevegen" />
		<tag k="ssr:date" v="2019-05-30" />
		<tag k="ssr:gruppe" v="veg" />
		<tag k="ssr:hovedgruppe" v="infrastruktur" />
		<tag k="ssr:stedsnr" v="1001370" />
		<tag k="ssr:type" v="adressenavn" />
	</node>
	<node lat="65.47201004725913" lon="12.195665239263183" id="-15756">
		<tag k="name" v="Tverrøyveien" />
		<tag k="ssr:date" v="2019-05-30" />
		<tag k="ssr:gruppe" v="veg" />
		<tag k="ssr:hovedgruppe" v="infrastruktur" />
		<tag k="ssr:stedsnr" v="1001383" />
		<tag k="ssr:type" v="adressenavn" />
	</node>
	<node lat="65.46583810148542" lon="12.186434918974127" id="-15757">
		<tag k="name" v="Trappveien" />
		<tag k="ssr:date" v="2019-05-30" />
		<tag k="ssr:gruppe" v="veg" />
		<tag k="ssr:hovedgruppe" v="infrastruktur" />
		<tag k="ssr:stedsnr" v="1001467" />
		<tag k="ssr:type" v="adressenavn" />
	</node>
	<node lat="65.49038324712735" lon="11.669154996158548" id="-15834">
		<tag k="name" v="Kversteinen" />
		<tag k="ssr:date" v="2020-09-15" />
		<tag k="ssr:gruppe" v="navigasjon" />
		<tag k="ssr:hovedgruppe" v="infrastruktur" />
		<tag k="ssr:stedsnr" v="15995" />
		<tag k="ssr:type" v="fyrlykt" />
	</node>
	<node lat="65.47756666658778" lon="12.20490277219649" id="-16157">
		<tag k="name" v="Hestøyodden" />
		<tag k="ssr:date" v="2016-05-10" />
		<tag k="ssr:gruppe" v="navigasjon" />
		<tag k="ssr:hovedgruppe" v="infrastruktur" />
		<tag k="ssr:stedsnr" v="135075" />
		<tag k="ssr:type" v="fyrlykt" />
	</node>
	<node lat="65.4772854936956" lon="12.073008132081357" id="-16256">
		<tag k="name" v="Storøytaren" />
		<tag k="ssr:date" v="2020-09-02" />
		<tag k="ssr:gruppe" v="navigasjon" />
		<tag k="ssr:hovedgruppe" v="infrastruktur" />
		<tag k="ssr:stedsnr" v="176948" />
		<tag k="ssr:type" v="lanterne" />
	</node>
	<node lat="65.40296944611814" lon="11.983658326314496" id="-16870">
		<tag k="name" v="Fleina" />
		<tag k="ssr:date" v="2016-05-10" />
		<tag k="ssr:gruppe" v="navigasjon" />
		<tag k="ssr:hovedgruppe" v="infrastruktur" />
		<tag k="ssr:stedsnr" v="439168" />
		<tag k="ssr:type" v="fyrlykt" />
	</node>
	<node lat="65.37201110808562" lon="12.17160555496805" id="-16943">
		<tag k="name" v="Sømnes" />
		<tag k="ssr:date" v="2016-05-10" />
		<tag k="ssr:gruppe" v="navigasjon" />
		<tag k="ssr:hovedgruppe" v="infrastruktur" />
		<tag k="ssr:stedsnr" v="500247" />
		<tag k="ssr:type" v="fyrlykt" />
	</node>
	<node lat="65.40020691958334" lon="11.537184231308958" id="-16967">
		<tag k="name" v="Storbraken" />
		<tag k="ssr:date" v="2020-09-15" />
		<tag k="ssr:gruppe" v="navigasjon" />
		<tag k="ssr:hovedgruppe" v="infrastruktur" />
		<tag k="ssr:stedsnr" v="500977" />
		<tag k="ssr:type" v="fyrlykt" />
	</node>
	<node lat="67.2804027758844" lon="14.376388898255625" id="-16995">
		<tag k="alt_name:no" v="Nordland" />
		<tag k="loc_name:se" v="Nordlándda fylka" />
		<tag k="loc_name:sma" v="Nordlaanten fylhke" />
		<tag k="name" v="Nordland fylke" />
		<tag k="name:no" v="Nordland fylke" />
		<tag k="name:smj" v="Nordlánda fylkka" />
		<tag k="ssr:date" v="2021-02-03" />
		<tag k="ssr:gruppe" v="administrativeIndelinger" />
		<tag k="ssr:hovedgruppe" v="offentligAdministrasjon" />
		<tag k="ssr:stedsnr" v="511766" />
		<tag k="ssr:type" v="fylke" />
	</node>
	<node lat="65.49456944798006" lon="12.08975277681767" id="-17854">
		<tag k="name" v="Trollholmen" />
		<tag k="ssr:date" v="2016-05-11" />
		<tag k="ssr:gruppe" v="navigasjon" />
		<tag k="ssr:hovedgruppe" v="infrastruktur" />
		<tag k="ssr:stedsnr" v="804885" />
		<tag k="ssr:type" v="fyrlykt" />
	</node>
	<node lat="65.45777687363999" lon="12.196366686488387" id="-18271">
		<tag k="name" v="Alkeveien" />
		<tag k="ssr:date" v="2019-05-30" />
		<tag k="ssr:gruppe" v="veg" />
		<tag k="ssr:hovedgruppe" v="infrastruktur" />
		<tag k="ssr:stedsnr" v="998802" />
		<tag k="ssr:type" v="adressenavn" />
	</node>
	<node lat="65.46717813349802" lon="12.181330421801777" id="-18274">
		<tag k="name" v="Sundveien" />
		<tag k="ssr:date" v="2019-05-30" />
		<tag k="ssr:gruppe" v="veg" />
		<tag k="ssr:hovedgruppe" v="infrastruktur" />
		<tag k="ssr:stedsnr" v="1000731" />
		<tag k="ssr:type" v="adressenavn" />
	</node>
	<node lat="65.45204132509024" lon="12.18825934751639" id="-18276">
		<tag k="name" v="Sverdrups vei" />
		<tag k="ssr:date" v="2019-05-30" />
		<tag k="ssr:gruppe" v="veg" />
		<tag k="ssr:hovedgruppe" v="infrastruktur" />
		<tag k="ssr:stedsnr" v="1000742" />
		<tag k="ssr:type" v="adressenavn" />
	</node>
	<node lat="65.46928445573202" lon="12.20329465448008" id="-18284">
		<tag k="name" v="Havnegata" />
		<tag k="ssr:date" v="2019-05-30" />
		<tag k="ssr:gruppe" v="veg" />
		<tag k="ssr:hovedgruppe" v="infrastruktur" />
		<tag k="ssr:stedsnr" v="999493" />
		<tag k="ssr:type" v="adressenavn" />
	</node>
	<node lat="65.46114931203067" lon="12.200771499961656" id="-18287">
		<tag k="name" v="Gilleskålveien" />
		<tag k="ssr:date" v="2019-05-30" />
		<tag k="ssr:gruppe" v="veg" />
		<tag k="ssr:hovedgruppe" v="infrastruktur" />
		<tag k="ssr:stedsnr" v="999612" />
		<tag k="ssr:type" v="adressenavn" />
	</node>
	<node lat="65.46314143339877" lon="12.198033654349448" id="-18298">
		<tag k="name" v="Høgåsveien" />
		<tag k="ssr:date" v="2019-05-30" />
		<tag k="ssr:gruppe" v="veg" />
		<tag k="ssr:hovedgruppe" v="infrastruktur" />
		<tag k="ssr:stedsnr" v="999712" />
		<tag k="ssr:type" v="adressenavn" />
	</node>
	<node lat="65.48833922947412" lon="12.231546596351656" id="-18301">
		<tag k="name" v="Industriveien" />
		<tag k="ssr:date" v="2019-05-30" />
		<tag k="ssr:gruppe" v="veg" />
		<tag k="ssr:hovedgruppe" v="infrastruktur" />
		<tag k="ssr:stedsnr" v="999655" />
		<tag k="ssr:type" v="adressenavn" />
	</node>
	<node lat="65.47446156369007" lon="12.218046987886252" id="-18303">
		<tag k="name" v="Bunes alle" />
		<tag k="ssr:date" v="2019-05-30" />
		<tag k="ssr:gruppe" v="veg" />
		<tag k="ssr:hovedgruppe" v="infrastruktur" />
		<tag k="ssr:stedsnr" v="999750" />
		<tag k="ssr:type" v="adressenavn" />
	</node>
	<node lat="65.47070232954432" lon="12.214402695366642" id="-18308">
		<tag k="name" v="Flatåsen" />
		<tag k="ssr:date" v="2019-05-30" />
		<tag k="ssr:gruppe" v="veg" />
		<tag k="ssr:hovedgruppe" v="infrastruktur" />
		<tag k="ssr:stedsnr" v="999839" />
		<tag k="ssr:type" v="adressenavn" />
	</node>
	<node lat="65.46193786490002" lon="12.19981033534914" id="-18313">
		<tag k="name" v="Farmenveien" />
		<tag k="ssr:date" v="2019-05-30" />
		<tag k="ssr:gruppe" v="veg" />
		<tag k="ssr:hovedgruppe" v="infrastruktur" />
		<tag k="ssr:stedsnr" v="999866" />
		<tag k="ssr:type" v="adressenavn" />
	</node>
	<node lat="65.4513149796528" lon="12.186041534089208" id="-18314">
		<tag k="name" v="Laukholmveien" />
		<tag k="ssr:date" v="2019-05-30" />
		<tag k="ssr:gruppe" v="veg" />
		<tag k="ssr:hovedgruppe" v="infrastruktur" />
		<tag k="ssr:stedsnr" v="1000003" />
		<tag k="ssr:type" v="adressenavn" />
	</node>
	<node lat="65.46597284671424" lon="12.19964845225903" id="-18317">
		<tag k="name" v="Kapteinveien" />
		<tag k="ssr:date" v="2019-05-30" />
		<tag k="ssr:gruppe" v="veg" />
		<tag k="ssr:hovedgruppe" v="infrastruktur" />
		<tag k="ssr:stedsnr" v="1000450" />
		<tag k="ssr:type" v="adressenavn" />
	</node>
	<node lat="65.47059262597588" lon="12.207959339364873" id="-18318">
		<tag k="name" v="Kildeveien" />
		<tag k="ssr:date" v="2019-05-30" />
		<tag k="ssr:gruppe" v="veg" />
		<tag k="ssr:hovedgruppe" v="infrastruktur" />
		<tag k="ssr:stedsnr" v="1000455" />
		<tag k="ssr:type" v="adressenavn" />
	</node>
	<node lat="65.45255729172422" lon="12.189352447638768" id="-18320">
		<tag k="name" v="Krokstien" />
		<tag k="ssr:date" v="2019-05-30" />
		<tag k="ssr:gruppe" v="veg" />
		<tag k="ssr:hovedgruppe" v="infrastruktur" />
		<tag k="ssr:stedsnr" v="1000193" />
		<tag k="ssr:type" v="adressenavn" />
	</node>
	<node lat="65.47028104497569" lon="12.216493345282485" id="-18322">
		<tag k="name" v="Lærer Andersens vei" />
		<tag k="ssr:date" v="2019-05-30" />
		<tag k="ssr:gruppe" v="veg" />
		<tag k="ssr:hovedgruppe" v="infrastruktur" />
		<tag k="ssr:stedsnr" v="1000229" />
		<tag k="ssr:type" v="adressenavn" />
	</node>
	<node lat="65.45848720295696" lon="12.195739958209959" id="-18323">
		<tag k="name" v="Løkkeveien" />
		<tag k="ssr:date" v="2019-05-30" />
		<tag k="ssr:gruppe" v="veg" />
		<tag k="ssr:hovedgruppe" v="infrastruktur" />
		<tag k="ssr:stedsnr" v="1000232" />
		<tag k="ssr:type" v="adressenavn" />
	</node>
	<node lat="65.46754961121732" lon="12.200134158200557" id="-18325">
		<tag k="name" v="Lensmannsveien" />
		<tag k="ssr:date" v="2019-05-30" />
		<tag k="ssr:gruppe" v="veg" />
		<tag k="ssr:hovedgruppe" v="infrastruktur" />
		<tag k="ssr:stedsnr" v="1000333" />
		<tag k="ssr:type" v="adressenavn" />
	</node>
	<node lat="65.47306178902501" lon="12.222110728993336" id="-18328">
		<tag k="name" v="Konvallveien" />
		<tag k="ssr:date" v="2019-05-30" />
		<tag k="ssr:gruppe" v="veg" />
		<tag k="ssr:hovedgruppe" v="infrastruktur" />
		<tag k="ssr:stedsnr" v="1000503" />
		<tag k="ssr:type" v="adressenavn" />
	</node>
	<node lat="65.48584993576291" lon="12.22804481553117" id="-18329">
		<tag k="name" v="Kirsten Hansdatters vei" />
		<tag k="ssr:date" v="2019-05-30" />
		<tag k="ssr:gruppe" v="veg" />
		<tag k="ssr:hovedgruppe" v="infrastruktur" />
		<tag k="ssr:stedsnr" v="1000595" />
		<tag k="ssr:type" v="adressenavn" />
	</node>
	<node lat="65.46833861113701" lon="12.202790940685768" id="-18332">
		<tag k="name" v="Storgata" />
		<tag k="ssr:date" v="2019-05-30" />
		<tag k="ssr:gruppe" v="veg" />
		<tag k="ssr:hovedgruppe" v="infrastruktur" />
		<tag k="ssr:stedsnr" v="1000602" />
		<tag k="ssr:type" v="adressenavn" />
	</node>
	<node lat="65.46963626978622" lon="12.204894934193275" id="-18336">
		<tag k="name" v="Strandveien" />
		<tag k="ssr:date" v="2019-05-30" />
		<tag k="ssr:gruppe" v="veg" />
		<tag k="ssr:hovedgruppe" v="infrastruktur" />
		<tag k="ssr:stedsnr" v="1000617" />
		<tag k="ssr:type" v="adressenavn" />
	</node>
	<node lat="65.48863622812755" lon="12.226871606479651" id="-18337">
		<tag k="name" v="Stabbursveien" />
		<tag k="ssr:date" v="2019-05-30" />
		<tag k="ssr:gruppe" v="veg" />
		<tag k="ssr:hovedgruppe" v="infrastruktur" />
		<tag k="ssr:stedsnr" v="1000621" />
		<tag k="ssr:type" v="adressenavn" />
	</node>
	<node lat="65.47221039581466" lon="12.22440263876476" id="-18340">
		<tag k="name" v="Kløverveien" />
		<tag k="ssr:date" v="2019-05-30" />
		<tag k="ssr:gruppe" v="veg" />
		<tag k="ssr:hovedgruppe" v="infrastruktur" />
		<tag k="ssr:stedsnr" v="1000552" />
		<tag k="ssr:type" v="adressenavn" />
	</node>
	<node lat="65.4657423344749" lon="12.182376749722488" id="-18342">
		<tag k="name" v="Sørmarkveien" />
		<tag k="ssr:date" v="2019-05-30" />
		<tag k="ssr:gruppe" v="veg" />
		<tag k="ssr:hovedgruppe" v="infrastruktur" />
		<tag k="ssr:stedsnr" v="1000695" />
		<tag k="ssr:type" v="adressenavn" />
	</node>
	<node lat="65.48502166329153" lon="12.223625066128001" id="-18346">
		<tag k="name" v="Svingen" />
		<tag k="ssr:date" v="2019-05-30" />
		<tag k="ssr:gruppe" v="veg" />
		<tag k="ssr:hovedgruppe" v="infrastruktur" />
		<tag k="ssr:stedsnr" v="1000704" />
		<tag k="ssr:type" v="adressenavn" />
	</node>
	<node lat="65.49180798798561" lon="12.237161464732774" id="-18347">
		<tag k="name" v="Salhusåsen" />
		<tag k="ssr:date" v="2019-05-30" />
		<tag k="ssr:gruppe" v="veg" />
		<tag k="ssr:hovedgruppe" v="infrastruktur" />
		<tag k="ssr:stedsnr" v="1000842" />
		<tag k="ssr:type" v="adressenavn" />
	</node>
	<node lat="65.49330528192313" lon="12.241366831468854" id="-18358">
		<tag k="name" v="Russesletta" />
		<tag k="ssr:date" v="2019-05-30" />
		<tag k="ssr:gruppe" v="veg" />
		<tag k="ssr:hovedgruppe" v="infrastruktur" />
		<tag k="ssr:stedsnr" v="1000856" />
		<tag k="ssr:type" v="adressenavn" />
	</node>
	<node lat="65.47907885971998" lon="12.2204060933713" id="-18363">
		<tag k="name" v="Valneskroken" />
		<tag k="ssr:date" v="2019-05-30" />
		<tag k="ssr:gruppe" v="veg" />
		<tag k="ssr:hovedgruppe" v="infrastruktur" />
		<tag k="ssr:stedsnr" v="1000991" />
		<tag k="ssr:type" v="adressenavn" />
	</node>
	<node lat="65.49031296653246" lon="12.236668791630073" id="-18369">
		<tag k="name" v="Sommerslettveien" />
		<tag k="ssr:date" v="2019-05-30" />
		<tag k="ssr:gruppe" v="veg" />
		<tag k="ssr:hovedgruppe" v="infrastruktur" />
		<tag k="ssr:stedsnr" v="1000657" />
		<tag k="ssr:type" v="adressenavn" />
	</node>
	<node lat="65.47816247174804" lon="12.21710219377477" id="-18375">
		<tag k="name" v="Mellomveien" />
		<tag k="ssr:date" v="2019-05-30" />
		<tag k="ssr:gruppe" v="veg" />
		<tag k="ssr:hovedgruppe" v="infrastruktur" />
		<tag k="ssr:stedsnr" v="1000801" />
		<tag k="ssr:type" v="adressenavn" />
	</node>
	<node lat="65.45780270487978" lon="12.193671296644297" id="-18381">
		<tag k="name" v="Strømmenveien" />
		<tag k="ssr:date" v="2019-05-30" />
		<tag k="ssr:gruppe" v="veg" />
		<tag k="ssr:hovedgruppe" v="infrastruktur" />
		<tag k="ssr:stedsnr" v="1000757" />
		<tag k="ssr:type" v="adressenavn" />
	</node>
	<node lat="65.46945560823862" lon="12.215015035820521" id="-18382">
		<tag k="name" v="Nedre Flatåsvei" />
		<tag k="ssr:date" v="2019-05-30" />
		<tag k="ssr:gruppe" v="veg" />
		<tag k="ssr:hovedgruppe" v="infrastruktur" />
		<tag k="ssr:stedsnr" v="1000762" />
		<tag k="ssr:type" v="adressenavn" />
	</node>
	<node lat="65.46521368322608" lon="12.152641388456184" id="-18383">
		<tag k="name" v="Vargåsen" />
		<tag k="ssr:date" v="2019-05-30" />
		<tag k="ssr:gruppe" v="veg" />
		<tag k="ssr:hovedgruppe" v="infrastruktur" />
		<tag k="ssr:stedsnr" v="1000940" />
		<tag k="ssr:type" v="adressenavn" />
	</node>
	<node lat="65.47633325252242" lon="12.21419224341768" id="-18388">
		<tag k="name" v="Valveien" />
		<tag k="ssr:date" v="2019-05-30" />
		<tag k="ssr:gruppe" v="veg" />
		<tag k="ssr:hovedgruppe" v="infrastruktur" />
		<tag k="ssr:stedsnr" v="1001047" />
		<tag k="ssr:type" v="adressenavn" />
	</node>
	<node lat="65.45881278182877" lon="12.195904371106074" id="-18394">
		<tag k="name" v="Terneveien" />
		<tag k="ssr:date" v="2019-05-30" />
		<tag k="ssr:gruppe" v="veg" />
		<tag k="ssr:hovedgruppe" v="infrastruktur" />
		<tag k="ssr:stedsnr" v="1001284" />
		<tag k="ssr:type" v="adressenavn" />
	</node>
	<node lat="65.49148437344674" lon="12.238224802636436" id="-18395">
		<tag k="name" v="Tettingveien" />
		<tag k="ssr:date" v="2019-05-30" />
		<tag k="ssr:gruppe" v="veg" />
		<tag k="ssr:hovedgruppe" v="infrastruktur" />
		<tag k="ssr:stedsnr" v="1001286" />
		<tag k="ssr:type" v="adressenavn" />
	</node>
	<node lat="65.4775515523104" lon="12.216741525644785" id="-18396">
		<tag k="name" v="Tverveien" />
		<tag k="ssr:date" v="2019-05-30" />
		<tag k="ssr:gruppe" v="veg" />
		<tag k="ssr:hovedgruppe" v="infrastruktur" />
		<tag k="ssr:stedsnr" v="1001390" />
		<tag k="ssr:type" v="adressenavn" />
	</node>
	<node lat="65.46961895239326" lon="12.216866237119095" id="-18397">
		<tag k="name" v="Øvre Flatåsvei" />
		<tag k="ssr:date" v="2019-05-30" />
		<tag k="ssr:gruppe" v="veg" />
		<tag k="ssr:hovedgruppe" v="infrastruktur" />
		<tag k="ssr:stedsnr" v="1001246" />
		<tag k="ssr:type" v="adressenavn" />
	</node>
	<node lat="65.48236363635604" lon="12.221953790786001" id="-18399">
		<tag k="name" v="Torgnesveien" />
		<tag k="ssr:date" v="2019-05-30" />
		<tag k="ssr:gruppe" v="veg" />
		<tag k="ssr:hovedgruppe" v="infrastruktur" />
		<tag k="ssr:stedsnr" v="1001261" />
		<tag k="ssr:type" v="adressenavn" />
	</node>
	<node lat="65.48558220346654" lon="12.229557534713734" id="-18400">
		<tag k="name" v="Urstabbveien" />
		<tag k="ssr:date" v="2019-05-30" />
		<tag k="ssr:gruppe" v="veg" />
		<tag k="ssr:hovedgruppe" v="infrastruktur" />
		<tag k="ssr:stedsnr" v="1001352" />
		<tag k="ssr:type" v="adressenavn" />
	</node>
	<node lat="65.46953169493628" lon="12.228193553876446" id="-18404">
		<tag k="name" v="Trælvikveien" />
		<tag k="ssr:date" v="2019-05-30" />
		<tag k="ssr:gruppe" v="veg" />
		<tag k="ssr:hovedgruppe" v="infrastruktur" />
		<tag k="ssr:stedsnr" v="1001491" />
		<tag k="ssr:type" v="adressenavn" />
	</node>
</osm>
