<?xml version="1.0" encoding="UTF-8"?>
<<<<<<< HEAD
<osm version="0.6" generator="osmapis">
	<node lat="63.22931388830652" lon="8.236916657150434" id="-2382">
		<tag k="name" v="Aukanflu" />
		<tag k="ssr:date" v="2016-05-10" />
		<tag k="ssr:gruppe" v="navigasjon" />
		<tag k="ssr:hovedgruppe" v="infrastruktur" />
		<tag k="ssr:stedsnr" v="110915" />
		<tag k="ssr:type" v="lysbøye" />
	</node>
	<node lat="63.283799997179784" lon="8.32732499669331" id="-2626">
		<tag k="alt_name" v="Stenholmen" />
		<tag k="name" v="Steinholmen" />
		<tag k="ssr:date" v="2016-05-10" />
		<tag k="ssr:gruppe" v="navigasjon" />
		<tag k="ssr:hovedgruppe" v="infrastruktur" />
		<tag k="ssr:stedsnr" v="255372" />
		<tag k="ssr:type" v="fyrlykt" />
	</node>
	<node lat="63.26095808398155" lon="8.224341428589113" id="-2701">
		<tag k="name" v="Gråskjæret" />
		<tag k="old_name" v="Gråskjeret" />
		<tag k="ssr:date" v="2020-09-08" />
		<tag k="ssr:gruppe" v="navigasjon" />
		<tag k="ssr:hovedgruppe" v="infrastruktur" />
		<tag k="ssr:stedsnr" v="315261" />
		<tag k="ssr:type" v="fyrlykt" />
	</node>
	<node lat="63.17241542685744" lon="8.179203302826991" id="-2704">
		<tag k="name" v="Seterfløa" />
		<tag k="ssr:date" v="2021-06-08" />
		<tag k="ssr:gruppe" v="navigasjon" />
		<tag k="ssr:hovedgruppe" v="infrastruktur" />
		<tag k="ssr:stedsnr" v="315269" />
		<tag k="ssr:type" v="fyrlykt" />
	</node>
	<node lat="63.30574167023139" lon="8.488902779499467" id="-2978">
		<tag k="name" v="Molta" />
		<tag k="ssr:date" v="2016-05-10" />
		<tag k="ssr:gruppe" v="navigasjon" />
		<tag k="ssr:hovedgruppe" v="infrastruktur" />
		<tag k="ssr:stedsnr" v="418309" />
		<tag k="ssr:type" v="lanterne" />
	</node>
	<node lat="63.26213889282346" lon="8.32746666794449" id="-2997">
		<tag k="name" v="Araneset" />
		<tag k="ssr:date" v="2016-05-10" />
		<tag k="ssr:gruppe" v="navigasjon" />
		<tag k="ssr:hovedgruppe" v="infrastruktur" />
		<tag k="ssr:stedsnr" v="437301" />
		<tag k="ssr:type" v="fyrlykt" />
	</node>
	<node lat="63.27960833759159" lon="8.480649991243405" id="-3069">
=======
<osm generator="osmapis" version="0.6">
	<node id="-95104" lat="63.2679777743" lon="8.53136111632">
		<tag k="name" v="Aure kommune" />
		<tag k="ssr:date" v="2016-05-11" />
		<tag k="ssr:gruppe" v="administrativeIndelinger" />
		<tag k="ssr:hovedgruppe" v="offentligAdministrasjon" />
		<tag k="ssr:stedsnr" v="814756" />
		<tag k="ssr:type" v="kommune" />
	</node>
	<node id="-94461" lat="63.2796083376" lon="8.48064999124">
>>>>>>> e1d4bc35ff8a6074a6f2e91616a996b547c36f15
		<tag k="name" v="Sveholmen" />
		<tag k="ssr:date" v="2016-05-11" />
		<tag k="ssr:gruppe" v="navigasjon" />
		<tag k="ssr:hovedgruppe" v="infrastruktur" />
		<tag k="ssr:stedsnr" v="679333" />
		<tag k="ssr:type" v="fyrlykt" />
	</node>
<<<<<<< HEAD
	<node lat="63.178964832948076" lon="7.914695912673357" id="-3227">
		<tag k="name" v="Lindvågodden" />
		<tag k="old_name" v="Linvågholmen" />
		<tag k="ssr:date" v="2020-09-08" />
=======
	<node id="-95935" lat="63.2065138926" lon="7.96183889691">
		<tag k="name" v="Hammarsundet" />
		<tag k="ssr:date" v="2016-05-10" />
		<tag k="ssr:gruppe" v="navigasjon" />
		<tag k="ssr:hovedgruppe" v="infrastruktur" />
		<tag k="ssr:stedsnr" v="316545" />
		<tag k="ssr:type" v="fyrlykt" />
	</node>
	<node id="-97013" lat="63.2318222233" lon="8.24122778189">
		<tag k="name" v="Henrikøya" />
		<tag k="old_name" v="Henrikøy" />
		<tag k="ssr:date" v="2016-05-11" />
>>>>>>> e1d4bc35ff8a6074a6f2e91616a996b547c36f15
		<tag k="ssr:gruppe" v="navigasjon" />
		<tag k="ssr:hovedgruppe" v="infrastruktur" />
		<tag k="ssr:stedsnr" v="565205" />
		<tag k="ssr:type" v="fyrlykt" />
	</node>
<<<<<<< HEAD
	<node lat="63.35505908542556" lon="8.404068656264545" id="-3298">
		<tag k="name" v="Klakksbroren" />
		<tag k="old_name" v="Klaksbroren" />
		<tag k="ssr:date" v="2020-09-08" />
=======
	<node id="-97396" lat="63.4143495131" lon="8.72205839136">
		<tag k="alt_name" v="Kjørsvikbogen" />
		<tag k="name" v="Kjørsvikbugen" />
		<tag k="ssr:date" v="2017-12-19" />
>>>>>>> e1d4bc35ff8a6074a6f2e91616a996b547c36f15
		<tag k="ssr:gruppe" v="navigasjon" />
		<tag k="ssr:hovedgruppe" v="infrastruktur" />
		<tag k="ssr:stedsnr" v="618195" />
		<tag k="ssr:type" v="fyrlykt" />
	</node>
<<<<<<< HEAD
	<node lat="63.16990277591005" lon="7.85892500776919" id="-3532">
		<tag k="name" v="Storramsøy" />
		<tag k="ssr:date" v="2016-05-11" />
=======
	<node id="-95345" lat="63.1591555515" lon="8.19089722764">
		<tag k="name" v="Halsneset" />
		<tag k="ssr:date" v="2016-05-10" />
>>>>>>> e1d4bc35ff8a6074a6f2e91616a996b547c36f15
		<tag k="ssr:gruppe" v="navigasjon" />
		<tag k="ssr:hovedgruppe" v="infrastruktur" />
		<tag k="ssr:stedsnr" v="723620" />
		<tag k="ssr:type" v="fyrlykt" />
	</node>
<<<<<<< HEAD
	<node lat="63.31064444556793" lon="8.474369439705669" id="-3637">
		<tag k="name" v="Korsnesskjæret" />
		<tag k="ssr:date" v="2016-05-11" />
		<tag k="ssr:gruppe" v="navigasjon" />
		<tag k="ssr:hovedgruppe" v="infrastruktur" />
		<tag k="ssr:stedsnr" v="782297" />
		<tag k="ssr:type" v="lanterne" />
	</node>
	<node lat="63.199980091373135" lon="7.951946160738467" id="-3658">
=======
	<node id="-95977" lat="63.2705944473" lon="8.37516666837">
		<tag k="name" v="Slyngestein" />
		<tag k="ssr:date" v="2016-05-10" />
		<tag k="ssr:gruppe" v="navigasjon" />
		<tag k="ssr:hovedgruppe" v="infrastruktur" />
		<tag k="ssr:stedsnr" v="352996" />
		<tag k="ssr:type" v="fyrlykt" />
	</node>
	<node id="-97127" lat="63.2001611087" lon="7.95126944085">
>>>>>>> e1d4bc35ff8a6074a6f2e91616a996b547c36f15
		<tag k="name" v="Stongdragsøya" />
		<tag k="ssr:date" v="2021-06-08" />
		<tag k="ssr:gruppe" v="navigasjon" />
		<tag k="ssr:hovedgruppe" v="infrastruktur" />
		<tag k="ssr:stedsnr" v="801484" />
		<tag k="ssr:type" v="fyrlykt" />
	</node>
<<<<<<< HEAD
	<node lat="63.38249942745918" lon="8.647307305828273" id="-3813">
		<tag k="name" v="Rogntangan" />
		<tag k="ssr:date" v="2021-06-08" />
=======
	<node id="-93794" lat="63.20806111" lon="8.16081943503">
		<tag k="name" v="Soleimsund bru vest" />
		<tag k="ssr:date" v="2016-05-10" />
>>>>>>> e1d4bc35ff8a6074a6f2e91616a996b547c36f15
		<tag k="ssr:gruppe" v="navigasjon" />
		<tag k="ssr:hovedgruppe" v="infrastruktur" />
		<tag k="ssr:stedsnr" v="863203" />
		<tag k="ssr:type" v="fyrlykt" />
	</node>
<<<<<<< HEAD
	<node lat="63.200740875122854" lon="8.583357216337387" id="-3816">
		<tag k="name" v="Vikanes" />
		<tag k="old_name" v="Vikaneset" />
		<tag k="ssr:date" v="2021-06-08" />
=======
	<node id="-94175" lat="63.2608277759" lon="8.22432777326">
		<tag k="name" v="Gråskjæret" />
		<tag k="old_name" v="Gråskjeret" />
		<tag k="ssr:date" v="2016-05-10" />
>>>>>>> e1d4bc35ff8a6074a6f2e91616a996b547c36f15
		<tag k="ssr:gruppe" v="navigasjon" />
		<tag k="ssr:hovedgruppe" v="infrastruktur" />
		<tag k="ssr:stedsnr" v="870210" />
		<tag k="ssr:type" v="fyrlykt" />
	</node>
<<<<<<< HEAD
	<node lat="63.17242778073612" lon="8.179127780317392" id="-3834">
=======
	<node id="-95196" lat="63.1724277807" lon="8.17912778032">
>>>>>>> e1d4bc35ff8a6074a6f2e91616a996b547c36f15
		<tag k="name" v="Sæterfløa" />
		<tag k="ssr:date" v="2016-05-11" />
		<tag k="ssr:gruppe" v="navigasjon" />
		<tag k="ssr:hovedgruppe" v="infrastruktur" />
		<tag k="ssr:stedsnr" v="898316" />
		<tag k="ssr:type" v="fyrlykt" />
	</node>
<<<<<<< HEAD
	<node lat="63.41434951311761" lon="8.72205839135611" id="-3924">
		<tag k="alt_name" v="Kjørsvikbogen" />
		<tag k="name" v="Kjørsvikbugen" />
		<tag k="ssr:date" v="2017-12-19" />
=======
	<node id="-96347" lat="63.2621388928" lon="8.32746666794">
		<tag k="name" v="Araneset" />
		<tag k="ssr:date" v="2016-05-10" />
>>>>>>> e1d4bc35ff8a6074a6f2e91616a996b547c36f15
		<tag k="ssr:gruppe" v="navigasjon" />
		<tag k="ssr:hovedgruppe" v="infrastruktur" />
		<tag k="ssr:stedsnr" v="958841" />
		<tag k="ssr:type" v="fyrlykt" />
	</node>
<<<<<<< HEAD
	<node lat="63.15915555149872" lon="8.190897227641612" id="-4029">
		<tag k="name" v="Halsneset" />
		<tag k="ssr:date" v="2016-05-10" />
=======
	<node id="-97369" lat="63.3192999969" lon="8.62946945166">
		<tag k="name" v="Glomstadholmen" />
		<tag k="ssr:date" v="2016-05-11" />
>>>>>>> e1d4bc35ff8a6074a6f2e91616a996b547c36f15
		<tag k="ssr:gruppe" v="navigasjon" />
		<tag k="ssr:hovedgruppe" v="infrastruktur" />
		<tag k="ssr:stedsnr" v="41582" />
		<tag k="ssr:type" v="lanterne" />
	</node>
	<node lat="63.24297222589858" lon="8.275936106417515" id="-4149">
		<tag k="name" v="Kjøtholmen" />
		<tag k="ssr:date" v="2021-06-08" />
		<tag k="ssr:gruppe" v="navigasjon" />
		<tag k="ssr:hovedgruppe" v="infrastruktur" />
		<tag k="ssr:stedsnr" v="55371" />
		<tag k="ssr:type" v="lanterne" />
	</node>
	<node lat="63.27040555195609" lon="8.375802776828513" id="-4150">
		<tag k="name" v="Slyngsteinen" />
		<tag k="ssr:date" v="2021-06-08" />
		<tag k="ssr:gruppe" v="navigasjon" />
		<tag k="ssr:hovedgruppe" v="infrastruktur" />
		<tag k="ssr:stedsnr" v="59000" />
		<tag k="ssr:type" v="fyrlykt" />
	</node>
<<<<<<< HEAD
	<node lat="63.34650833625904" lon="8.701405564705928" id="-4165">
		<tag k="name" v="Espeneset" />
		<tag k="old_name" v="Espneset;Espenes" />
=======
	<node id="-96594" lat="63.1790083308" lon="7.91502499742">
		<tag k="name" v="Lindvågodden" />
		<tag k="old_name" v="Linvågholmen" />
>>>>>>> e1d4bc35ff8a6074a6f2e91616a996b547c36f15
		<tag k="ssr:date" v="2016-05-10" />
		<tag k="ssr:gruppe" v="navigasjon" />
		<tag k="ssr:hovedgruppe" v="infrastruktur" />
		<tag k="ssr:stedsnr" v="73151" />
		<tag k="ssr:type" v="fyrlykt" />
	</node>
<<<<<<< HEAD
	<node lat="63.404844445917846" lon="8.634772217339583" id="-4306">
		<tag k="name" v="Storflua" />
=======
	<node id="-93649" lat="63.2429722259" lon="8.27593610642">
		<tag k="name" v="Kjøtholmen" />
>>>>>>> e1d4bc35ff8a6074a6f2e91616a996b547c36f15
		<tag k="ssr:date" v="2016-05-10" />
		<tag k="ssr:gruppe" v="navigasjon" />
		<tag k="ssr:hovedgruppe" v="infrastruktur" />
		<tag k="ssr:stedsnr" v="115330" />
		<tag k="ssr:type" v="lanterne" />
	</node>
<<<<<<< HEAD
	<node lat="63.189477542134775" lon="7.859724142450731" id="-4308">
=======
	<node id="-95694" lat="63.1895111084" lon="7.85968333339">
>>>>>>> e1d4bc35ff8a6074a6f2e91616a996b547c36f15
		<tag k="name" v="Lyktlangholmen" />
		<tag k="ssr:date" v="2021-06-08" />
		<tag k="ssr:gruppe" v="navigasjon" />
		<tag k="ssr:hovedgruppe" v="infrastruktur" />
		<tag k="ssr:stedsnr" v="133396" />
		<tag k="ssr:type" v="fyrlykt" />
	</node>
<<<<<<< HEAD
	<node lat="62.73392710705581" lon="7.14918030614603" id="-4348">
		<tag k="alt_name" v="Møre og Romsdal" />
		<tag k="name" v="Møre og Romsdal fylke" />
		<tag k="ssr:date" v="2021-09-21" />
		<tag k="ssr:gruppe" v="administrativeIndelinger" />
		<tag k="ssr:hovedgruppe" v="offentligAdministrasjon" />
		<tag k="ssr:stedsnr" v="145583" />
		<tag k="ssr:type" v="fylke" />
	</node>
	<node lat="63.20793550207469" lon="8.161183929710502" id="-4524">
		<tag k="name" v="Sålåsundbrua vest" />
		<tag k="ssr:date" v="2020-09-16" />
		<tag k="ssr:gruppe" v="navigasjon" />
		<tag k="ssr:hovedgruppe" v="infrastruktur" />
		<tag k="ssr:stedsnr" v="282532" />
		<tag k="ssr:type" v="lanterne" />
	</node>
	<node lat="63.239405552265204" lon="8.131025002665252" id="-4556">
		<tag k="name" v="Nordre Sandvikflua" />
		<tag k="ssr:date" v="2016-05-10" />
=======
	<node id="-95180" lat="63.2007527742" lon="8.58361388564">
		<tag k="name" v="Vikanes" />
		<tag k="old_name" v="Vikaneset" />
		<tag k="ssr:date" v="2016-05-11" />
		<tag k="ssr:gruppe" v="navigasjon" />
		<tag k="ssr:hovedgruppe" v="infrastruktur" />
		<tag k="ssr:stedsnr" v="870210" />
		<tag k="ssr:type" v="fyrlykt" />
	</node>
	<node id="-95947" lat="63.2085222218" lon="8.16273332707">
		<tag k="name" v="Soleimsund bru øst" />
		<tag k="ssr:date" v="2016-05-10" />
		<tag k="ssr:gruppe" v="navigasjon" />
		<tag k="ssr:hovedgruppe" v="infrastruktur" />
		<tag k="ssr:stedsnr" v="342475" />
		<tag k="ssr:type" v="lanterne" />
	</node>
	<node id="-95178" lat="63.3824805534" lon="8.64701666838">
		<tag k="name" v="Rogntangan" />
		<tag k="ssr:date" v="2016-05-11" />
>>>>>>> e1d4bc35ff8a6074a6f2e91616a996b547c36f15
		<tag k="ssr:gruppe" v="navigasjon" />
		<tag k="ssr:hovedgruppe" v="infrastruktur" />
		<tag k="ssr:stedsnr" v="291622" />
		<tag k="ssr:type" v="lanterne" />
	</node>
<<<<<<< HEAD
	<node lat="63.243358329858985" lon="8.121566669611576" id="-4557">
		<tag k="name" v="Austre Sandvikbåen" />
=======
	<node id="-96834" lat="63.2335861113" lon="8.1426416615">
		<tag k="name" v="Steintangskjærflua" />
>>>>>>> e1d4bc35ff8a6074a6f2e91616a996b547c36f15
		<tag k="ssr:date" v="2016-05-10" />
		<tag k="ssr:gruppe" v="navigasjon" />
		<tag k="ssr:hovedgruppe" v="infrastruktur" />
		<tag k="ssr:stedsnr" v="291623" />
		<tag k="ssr:type" v="lanterne" />
	</node>
<<<<<<< HEAD
	<node lat="63.2064054860043" lon="7.962022659464792" id="-4689">
		<tag k="name" v="Hammarsundet" />
		<tag k="ssr:date" v="2021-06-08" />
=======
	<node id="-96971" lat="63.2063638889" lon="7.96203333659">
		<tag k="name" v="Skjeringsskjerlykta" />
		<tag k="ssr:date" v="2016-05-11" />
>>>>>>> e1d4bc35ff8a6074a6f2e91616a996b547c36f15
		<tag k="ssr:gruppe" v="navigasjon" />
		<tag k="ssr:hovedgruppe" v="infrastruktur" />
		<tag k="ssr:stedsnr" v="777070" />
		<tag k="ssr:type" v="fyrlykt" />
	</node>
<<<<<<< HEAD
	<node lat="63.20852222182254" lon="8.16273332707179" id="-4698">
		<tag k="name" v="Sålåsundbrua øst" />
		<tag k="ssr:date" v="2016-05-10" />
=======
	<node id="-97087" lat="63.3106444456" lon="8.47436943971">
		<tag k="name" v="Korsnesskjæret" />
		<tag k="ssr:date" v="2016-05-11" />
		<tag k="ssr:gruppe" v="navigasjon" />
		<tag k="ssr:hovedgruppe" v="infrastruktur" />
		<tag k="ssr:stedsnr" v="782297" />
		<tag k="ssr:type" v="lanterne" />
	</node>
	<node id="-96957" lat="63.2453999987" lon="8.13691666578">
		<tag k="name" v="Hummerskjerbåen" />
		<tag k="ssr:date" v="2016-05-11" />
>>>>>>> e1d4bc35ff8a6074a6f2e91616a996b547c36f15
		<tag k="ssr:gruppe" v="navigasjon" />
		<tag k="ssr:hovedgruppe" v="infrastruktur" />
		<tag k="ssr:stedsnr" v="342475" />
		<tag k="ssr:type" v="lanterne" />
	</node>
<<<<<<< HEAD
	<node lat="63.27059444733391" lon="8.375166668366903" id="-4778">
		<tag k="name" v="Slyngestein" />
=======
	<node id="-95674" lat="63.4048444459" lon="8.63477221734">
		<tag k="name" v="Storflua" />
>>>>>>> e1d4bc35ff8a6074a6f2e91616a996b547c36f15
		<tag k="ssr:date" v="2016-05-10" />
		<tag k="ssr:gruppe" v="navigasjon" />
		<tag k="ssr:hovedgruppe" v="infrastruktur" />
		<tag k="ssr:stedsnr" v="352996" />
		<tag k="ssr:type" v="fyrlykt" />
	</node>
<<<<<<< HEAD
	<node lat="63.23776931710197" lon="8.263909972377403" id="-4892">
		<tag k="name" v="Vorpa" />
		<tag k="ssr:date" v="2020-01-28" />
		<tag k="ssr:gruppe" v="farvann" />
		<tag k="ssr:hovedgruppe" v="sjø" />
		<tag k="ssr:stedsnr" v="412581" />
		<tag k="ssr:type" v="fiskeplassISjø" />
	</node>
	<node lat="63.211430915466885" lon="8.157022777918778" id="-5010">
		<tag k="name" v="Mevikholmen" />
		<tag k="ssr:date" v="2021-06-08" />
=======
	<node id="-96953" lat="63.1906944467" lon="7.93567500792">
		<tag k="name" v="Ramsøybåen" />
		<tag k="ssr:date" v="2016-05-11" />
>>>>>>> e1d4bc35ff8a6074a6f2e91616a996b547c36f15
		<tag k="ssr:gruppe" v="navigasjon" />
		<tag k="ssr:hovedgruppe" v="infrastruktur" />
		<tag k="ssr:stedsnr" v="437495" />
		<tag k="ssr:type" v="fyrlykt" />
	</node>
<<<<<<< HEAD
	<node lat="63.169882471759394" lon="7.859018851084191" id="-5221">
		<tag k="name" v="Storramsøya" />
		<tag k="ssr:date" v="2021-06-08" />
		<tag k="ssr:gruppe" v="navigasjon" />
		<tag k="ssr:hovedgruppe" v="infrastruktur" />
		<tag k="ssr:stedsnr" v="558487" />
		<tag k="ssr:type" v="fyrlykt" />
	</node>
	<node lat="63.23339775446302" lon="8.142536702401577" id="-5372">
		<tag k="name" v="Steintangskjærflua" />
		<tag k="ssr:date" v="2021-06-08" />
		<tag k="ssr:gruppe" v="navigasjon" />
		<tag k="ssr:hovedgruppe" v="infrastruktur" />
		<tag k="ssr:stedsnr" v="619458" />
		<tag k="ssr:type" v="fyrlykt" />
	</node>
	<node lat="63.17371944457362" lon="8.57353333636253" id="-5566">
		<tag k="name" v="Brattsetegga" />
		<tag k="ssr:date" v="2016-05-11" />
		<tag k="ssr:gruppe" v="sjøbunn" />
		<tag k="ssr:hovedgruppe" v="sjø" />
		<tag k="ssr:stedsnr" v="716759" />
		<tag k="ssr:type" v="eggISjø" />
	</node>
	<node lat="63.16338333385562" lon="8.187683340182586" id="-5668">
=======
	<node id="-96940" lat="63.1633833339" lon="8.18768334018">
>>>>>>> e1d4bc35ff8a6074a6f2e91616a996b547c36f15
		<tag k="name" v="Åsneset" />
		<tag k="ssr:date" v="2016-05-11" />
		<tag k="ssr:gruppe" v="navigasjon" />
		<tag k="ssr:hovedgruppe" v="infrastruktur" />
		<tag k="ssr:stedsnr" v="769577" />
		<tag k="ssr:type" v="lanterne" />
	</node>
<<<<<<< HEAD
	<node lat="63.190694446704676" lon="7.9356750079235425" id="-5684">
		<tag k="name" v="Ramsøybåen" />
		<tag k="ssr:date" v="2016-05-11" />
=======
	<node id="-93736" lat="63.2293138883" lon="8.23691665715">
		<tag k="name" v="Aukanflu" />
		<tag k="ssr:date" v="2016-05-10" />
>>>>>>> e1d4bc35ff8a6074a6f2e91616a996b547c36f15
		<tag k="ssr:gruppe" v="navigasjon" />
		<tag k="ssr:hovedgruppe" v="infrastruktur" />
		<tag k="ssr:stedsnr" v="776348" />
		<tag k="ssr:type" v="fyrlykt" />
	</node>
<<<<<<< HEAD
	<node lat="63.24539999869821" lon="8.136916665777063" id="-5691">
		<tag k="name" v="Hummerskjerbåen" />
		<tag k="ssr:date" v="2016-05-11" />
		<tag k="ssr:gruppe" v="navigasjon" />
		<tag k="ssr:hovedgruppe" v="infrastruktur" />
		<tag k="ssr:stedsnr" v="776585" />
		<tag k="ssr:type" v="lanterne" />
	</node>
	<node lat="63.206363888867" lon="7.962033336590938" id="-5702">
		<tag k="name" v="Skjeringsskjerlykta" />
		<tag k="ssr:date" v="2016-05-11" />
=======
	<node id="-95907" lat="63.1724083342" lon="8.17926666069">
		<tag k="name" v="Seterfløa" />
		<tag k="ssr:date" v="2016-05-10" />
		<tag k="ssr:gruppe" v="navigasjon" />
		<tag k="ssr:hovedgruppe" v="infrastruktur" />
		<tag k="ssr:stedsnr" v="315269" />
		<tag k="ssr:type" v="fyrlykt" />
	</node>
	<node id="-93702" lat="63.2837999972" lon="8.32732499669">
		<tag k="alt_name" v="Stenholmen" />
		<tag k="name" v="Steinholmen" />
		<tag k="ssr:date" v="2016-05-10" />
		<tag k="ssr:gruppe" v="navigasjon" />
		<tag k="ssr:hovedgruppe" v="infrastruktur" />
		<tag k="ssr:stedsnr" v="255372" />
		<tag k="ssr:type" v="fyrlykt" />
	</node>
	<node id="-97565" lat="69.6388889725" lon="30.5666644427">
		<tag k="fixme" v="multiple name tags, choose one and add the other to alt_name" />
		<tag k="loc_name:se" v="Norgga gonagasriika" />
		<tag k="loc_name:sma" v="Nöörjen gånkarïjhke" />
		<tag k="loc_name:smj" v="Vuona gånågisrijkka" />
		<tag k="name" v="Noreg;Norge" />
		<tag k="name:en" v="Norway" />
		<tag k="name:no" v="Noreg;Norge" />
		<tag k="ssr:date" v="2020-06-04" />
		<tag k="ssr:gruppe" v="administrativeIndelinger" />
		<tag k="ssr:hovedgruppe" v="offentligAdministrasjon" />
		<tag k="ssr:stedsnr" v="26330" />
		<tag k="ssr:type" v="nasjon" />
	</node>
	<node id="-93979" lat="63.2080611135" lon="8.1607972231">
		<tag k="name" v="Solemsund bru" />
		<tag k="ssr:date" v="2016-05-10" />
>>>>>>> e1d4bc35ff8a6074a6f2e91616a996b547c36f15
		<tag k="ssr:gruppe" v="navigasjon" />
		<tag k="ssr:hovedgruppe" v="infrastruktur" />
		<tag k="ssr:stedsnr" v="777070" />
		<tag k="ssr:type" v="fyrlykt" />
	</node>
<<<<<<< HEAD
	<node lat="63.23182222325834" lon="8.241227781887652" id="-5743">
		<tag k="name" v="Henrikøya" />
		<tag k="old_name" v="Henrikøy" />
		<tag k="ssr:date" v="2016-05-11" />
=======
	<node id="-96792" lat="63.3550805542" lon="8.40386667178">
		<tag k="name" v="Klakksbroren" />
		<tag k="old_name" v="Klaksbroren" />
		<tag k="ssr:date" v="2016-05-10" />
>>>>>>> e1d4bc35ff8a6074a6f2e91616a996b547c36f15
		<tag k="ssr:gruppe" v="navigasjon" />
		<tag k="ssr:hovedgruppe" v="infrastruktur" />
		<tag k="ssr:stedsnr" v="777884" />
		<tag k="ssr:type" v="fyrlykt" />
	</node>
<<<<<<< HEAD
	<node lat="63.26797777430635" lon="8.531361116317045" id="-5843">
		<tag k="alt_name" v="Aure" />
		<tag k="name" v="Aure kommune" />
		<tag k="ssr:date" v="2016-05-11" />
		<tag k="ssr:gruppe" v="administrativeIndelinger" />
		<tag k="ssr:hovedgruppe" v="offentligAdministrasjon" />
		<tag k="ssr:stedsnr" v="814756" />
		<tag k="ssr:type" v="kommune" />
	</node>
	<node lat="63.31923766764001" lon="8.62945989300053" id="-6032">
		<tag k="name" v="Glomstadholmen" />
		<tag k="ssr:date" v="2020-09-08" />
=======
	<node id="-94357" lat="63.3057416702" lon="8.4889027795">
		<tag k="name" v="Molta" />
		<tag k="ssr:date" v="2016-05-10" />
		<tag k="ssr:gruppe" v="navigasjon" />
		<tag k="ssr:hovedgruppe" v="infrastruktur" />
		<tag k="ssr:stedsnr" v="418309" />
		<tag k="ssr:type" v="lanterne" />
	</node>
	<node id="-95507" lat="63.3465083363" lon="8.70140556471">
		<tag k="name" v="Espeneset" />
		<tag k="old_name" v="Espneset;Espenes" />
		<tag k="ssr:date" v="2016-05-10" />
>>>>>>> e1d4bc35ff8a6074a6f2e91616a996b547c36f15
		<tag k="ssr:gruppe" v="navigasjon" />
		<tag k="ssr:hovedgruppe" v="infrastruktur" />
		<tag k="ssr:stedsnr" v="957224" />
		<tag k="ssr:type" v="fyrlykt" />
	</node>
	<node id="-94737" lat="63.1699027759" lon="7.85892500777">
		<tag k="name" v="Storramsøy" />
		<tag k="ssr:date" v="2016-05-11" />
		<tag k="ssr:gruppe" v="navigasjon" />
		<tag k="ssr:hovedgruppe" v="infrastruktur" />
		<tag k="ssr:stedsnr" v="723620" />
		<tag k="ssr:type" v="fyrlykt" />
	</node>
	<node id="-96578" lat="63.1698083298" lon="7.85870833432">
		<tag k="name" v="Storramsøya" />
		<tag k="ssr:date" v="2016-05-10" />
		<tag k="ssr:gruppe" v="navigasjon" />
		<tag k="ssr:hovedgruppe" v="infrastruktur" />
		<tag k="ssr:stedsnr" v="558487" />
		<tag k="ssr:type" v="fyrlykt" />
	</node>
	<node id="-95497" lat="63.270405552" lon="8.37580277683">
		<tag k="name" v="Slyngsteinen" />
		<tag k="ssr:date" v="2016-05-10" />
		<tag k="ssr:gruppe" v="navigasjon" />
		<tag k="ssr:hovedgruppe" v="infrastruktur" />
		<tag k="ssr:stedsnr" v="59000" />
		<tag k="ssr:type" v="fyrlykt" />
	</node>
	<node id="-93831" lat="63.2433583299" lon="8.12156666961">
		<tag k="name" v="Austre Sandvikbåen" />
		<tag k="ssr:date" v="2016-05-10" />
		<tag k="ssr:gruppe" v="navigasjon" />
		<tag k="ssr:hovedgruppe" v="infrastruktur" />
		<tag k="ssr:stedsnr" v="291623" />
		<tag k="ssr:type" v="lanterne" />
	</node>
	<node id="-93830" lat="63.2394055523" lon="8.13102500267">
		<tag k="name" v="Nordre Sandvikflua" />
		<tag k="ssr:date" v="2016-05-10" />
		<tag k="ssr:gruppe" v="navigasjon" />
		<tag k="ssr:hovedgruppe" v="infrastruktur" />
		<tag k="ssr:stedsnr" v="291622" />
		<tag k="ssr:type" v="lanterne" />
	</node>
	<node id="-96388" lat="63.2115916655" lon="8.1571555633">
		<tag k="name" v="Mevikholmen" />
		<tag k="ssr:date" v="2016-05-10" />
		<tag k="ssr:gruppe" v="navigasjon" />
		<tag k="ssr:hovedgruppe" v="infrastruktur" />
		<tag k="ssr:stedsnr" v="437495" />
		<tag k="ssr:type" v="fyrlykt" />
	</node>
</osm>
