<?xml version="1.0" encoding="UTF-8"?>
<osm generator="osmapis" version="0.6">
	<node id="-913692" lat="64.5045011203" lon="12.1953133091">
		<tag k="name" v="Føynestjønna" />
		<tag k="ssr:date" v="2019-05-31" />
		<tag k="ssr:gruppe" v="veg" />
		<tag k="ssr:hovedgruppe" v="infrastruktur" />
		<tag k="ssr:stedsnr" v="1041422" />
		<tag k="ssr:type" v="adressenavn" />
	</node>
	<node id="-914374" lat="64.4639694451" lon="12.3111305495">
		<tag k="name" v="Grong kommune" />
		<tag k="ssr:date" v="2018-01-09" />
		<tag k="ssr:gruppe" v="administrativeIndelinger" />
		<tag k="ssr:hovedgruppe" v="offentligAdministrasjon" />
		<tag k="ssr:stedsnr" v="26198" />
		<tag k="ssr:type" v="kommune" />
	</node>
	<node id="-913724" lat="64.5593575718" lon="12.4795512107">
		<tag k="name" v="Bruhaugvegen" />
		<tag k="ssr:date" v="2019-05-31" />
		<tag k="ssr:gruppe" v="veg" />
		<tag k="ssr:hovedgruppe" v="infrastruktur" />
		<tag k="ssr:stedsnr" v="1041634" />
		<tag k="ssr:type" v="adressenavn" />
	</node>
	<node id="-913723" lat="64.5692416891" lon="12.5106453177">
		<tag k="name" v="Myrvollvegen" />
		<tag k="ssr:date" v="2019-05-31" />
		<tag k="ssr:gruppe" v="veg" />
		<tag k="ssr:hovedgruppe" v="infrastruktur" />
		<tag k="ssr:stedsnr" v="1041633" />
		<tag k="ssr:type" v="adressenavn" />
	</node>
	<node id="-913722" lat="64.4596559105" lon="12.3347954259">
		<tag k="name" v="Rønningentunet" />
		<tag k="ssr:date" v="2019-05-31" />
		<tag k="ssr:gruppe" v="veg" />
		<tag k="ssr:hovedgruppe" v="infrastruktur" />
		<tag k="ssr:stedsnr" v="1041541" />
		<tag k="ssr:type" v="adressenavn" />
	</node>
	<node id="-913721" lat="64.5234413931" lon="12.5252936026">
		<tag k="name" v="Ramsjøen" />
		<tag k="ssr:date" v="2019-05-31" />
		<tag k="ssr:gruppe" v="veg" />
		<tag k="ssr:hovedgruppe" v="infrastruktur" />
		<tag k="ssr:stedsnr" v="1041505" />
		<tag k="ssr:type" v="adressenavn" />
	</node>
	<node id="-913720" lat="64.5757246878" lon="12.6655780476">
		<tag k="name" v="Solesskaftet" />
		<tag k="ssr:date" v="2019-05-31" />
		<tag k="ssr:gruppe" v="veg" />
		<tag k="ssr:hovedgruppe" v="infrastruktur" />
		<tag k="ssr:stedsnr" v="1041504" />
		<tag k="ssr:type" v="adressenavn" />
	</node>
	<node id="-913719" lat="64.5322576199" lon="12.5290488096">
		<tag k="name" v="Seterlia" />
		<tag k="ssr:date" v="2019-05-31" />
		<tag k="ssr:gruppe" v="veg" />
		<tag k="ssr:hovedgruppe" v="infrastruktur" />
		<tag k="ssr:stedsnr" v="1041503" />
		<tag k="ssr:type" v="adressenavn" />
	</node>
	<node id="-913718" lat="64.5013010273" lon="12.5863941696">
		<tag k="name" v="Elstadsetran" />
		<tag k="ssr:date" v="2019-05-31" />
		<tag k="ssr:gruppe" v="veg" />
		<tag k="ssr:hovedgruppe" v="infrastruktur" />
		<tag k="ssr:stedsnr" v="1041502" />
		<tag k="ssr:type" v="adressenavn" />
	</node>
	<node id="-913717" lat="64.5147445092" lon="12.5207273711">
		<tag k="name" v="Finnmyrsetran" />
		<tag k="ssr:date" v="2019-05-31" />
		<tag k="ssr:gruppe" v="veg" />
		<tag k="ssr:hovedgruppe" v="infrastruktur" />
		<tag k="ssr:stedsnr" v="1041501" />
		<tag k="ssr:type" v="adressenavn" />
	</node>
	<node id="-914612" lat="64.4860916671" lon="13.0642166586">
		<tag k="name" v="Kjerringsvingen" />
		<tag k="ssr:date" v="2018-01-09" />
		<tag k="ssr:gruppe" v="veg" />
		<tag k="ssr:hovedgruppe" v="infrastruktur" />
		<tag k="ssr:stedsnr" v="742301" />
		<tag k="ssr:type" v="vegstrekning" />
	</node>
	<node id="-913715" lat="64.4863313869" lon="12.9782154928">
		<tag k="name" v="Langtjønna" />
		<tag k="ssr:date" v="2019-05-31" />
		<tag k="ssr:gruppe" v="veg" />
		<tag k="ssr:hovedgruppe" v="infrastruktur" />
		<tag k="ssr:stedsnr" v="1041499" />
		<tag k="ssr:type" v="adressenavn" />
	</node>
	<node id="-913714" lat="64.504455406" lon="12.8051191339">
		<tag k="name" v="Geitingvatnet" />
		<tag k="ssr:date" v="2019-05-31" />
		<tag k="ssr:gruppe" v="veg" />
		<tag k="ssr:hovedgruppe" v="infrastruktur" />
		<tag k="ssr:stedsnr" v="1041498" />
		<tag k="ssr:type" v="adressenavn" />
	</node>
	<node id="-913713" lat="64.4682178097" lon="12.637719757">
		<tag k="name" v="Småtjønnin" />
		<tag k="ssr:date" v="2019-05-31" />
		<tag k="ssr:gruppe" v="veg" />
		<tag k="ssr:hovedgruppe" v="infrastruktur" />
		<tag k="ssr:stedsnr" v="1041497" />
		<tag k="ssr:type" v="adressenavn" />
	</node>
	<node id="-913712" lat="64.4308285906" lon="12.8503669441">
		<tag k="name" v="Dalvassfjellet" />
		<tag k="ssr:date" v="2019-05-31" />
		<tag k="ssr:gruppe" v="veg" />
		<tag k="ssr:hovedgruppe" v="infrastruktur" />
		<tag k="ssr:stedsnr" v="1041495" />
		<tag k="ssr:type" v="adressenavn" />
	</node>
	<node id="-913711" lat="64.5385212928" lon="12.7616900287">
		<tag k="name" v="Solemsmosetran" />
		<tag k="ssr:date" v="2019-05-31" />
		<tag k="ssr:gruppe" v="veg" />
		<tag k="ssr:hovedgruppe" v="infrastruktur" />
		<tag k="ssr:stedsnr" v="1041494" />
		<tag k="ssr:type" v="adressenavn" />
	</node>
	<node id="-913710" lat="64.5654227648" lon="12.855856962">
		<tag k="name" v="Finnsela" />
		<tag k="ssr:date" v="2019-05-31" />
		<tag k="ssr:gruppe" v="veg" />
		<tag k="ssr:hovedgruppe" v="infrastruktur" />
		<tag k="ssr:stedsnr" v="1041493" />
		<tag k="ssr:type" v="adressenavn" />
	</node>
	<node id="-913709" lat="64.4993415963" lon="12.7439064057">
		<tag k="name" v="Brennmoen" />
		<tag k="ssr:date" v="2019-05-31" />
		<tag k="ssr:gruppe" v="veg" />
		<tag k="ssr:hovedgruppe" v="infrastruktur" />
		<tag k="ssr:stedsnr" v="1041492" />
		<tag k="ssr:type" v="adressenavn" />
	</node>
	<node id="-913708" lat="64.5022437362" lon="12.7110098175">
		<tag k="name" v="Trekvisla" />
		<tag k="ssr:date" v="2019-05-31" />
		<tag k="ssr:gruppe" v="veg" />
		<tag k="ssr:hovedgruppe" v="infrastruktur" />
		<tag k="ssr:stedsnr" v="1041491" />
		<tag k="ssr:type" v="adressenavn" />
	</node>
	<node id="-913707" lat="64.6434295734" lon="12.8191520025">
		<tag k="name" v="Litlånessa" />
		<tag k="ssr:date" v="2019-05-31" />
		<tag k="ssr:gruppe" v="veg" />
		<tag k="ssr:hovedgruppe" v="infrastruktur" />
		<tag k="ssr:stedsnr" v="1041490" />
		<tag k="ssr:type" v="adressenavn" />
	</node>
	<node id="-913706" lat="64.6220035596" lon="12.5477684079">
		<tag k="name" v="Aunfjellet" />
		<tag k="ssr:date" v="2019-05-31" />
		<tag k="ssr:gruppe" v="veg" />
		<tag k="ssr:hovedgruppe" v="infrastruktur" />
		<tag k="ssr:stedsnr" v="1041489" />
		<tag k="ssr:type" v="adressenavn" />
	</node>
	<node id="-913705" lat="64.6032315518" lon="12.8044069884">
		<tag k="name" v="Heimdalvatnet" />
		<tag k="ssr:date" v="2019-05-31" />
		<tag k="ssr:gruppe" v="veg" />
		<tag k="ssr:hovedgruppe" v="infrastruktur" />
		<tag k="ssr:stedsnr" v="1041488" />
		<tag k="ssr:type" v="adressenavn" />
	</node>
	<node id="-913704" lat="64.6557547615" lon="12.5216292402">
		<tag k="name" v="Aunsetran" />
		<tag k="ssr:date" v="2019-05-31" />
		<tag k="ssr:gruppe" v="veg" />
		<tag k="ssr:hovedgruppe" v="infrastruktur" />
		<tag k="ssr:stedsnr" v="1041486" />
		<tag k="ssr:type" v="adressenavn" />
	</node>
	<node id="-913703" lat="64.6841702149" lon="12.527749564">
		<tag k="name" v="Besvatnet" />
		<tag k="ssr:date" v="2019-05-31" />
		<tag k="ssr:gruppe" v="veg" />
		<tag k="ssr:hovedgruppe" v="infrastruktur" />
		<tag k="ssr:stedsnr" v="1041485" />
		<tag k="ssr:type" v="adressenavn" />
	</node>
	<node id="-913702" lat="64.4849440285" lon="12.2638992697">
		<tag k="name" v="Fagerliklumpen" />
		<tag k="ssr:date" v="2019-05-31" />
		<tag k="ssr:gruppe" v="veg" />
		<tag k="ssr:hovedgruppe" v="infrastruktur" />
		<tag k="ssr:stedsnr" v="1041435" />
		<tag k="ssr:type" v="adressenavn" />
	</node>
	<node id="-913701" lat="64.3719791016" lon="12.3282950067">
		<tag k="name" v="Raudhylla" />
		<tag k="ssr:date" v="2019-05-31" />
		<tag k="ssr:gruppe" v="veg" />
		<tag k="ssr:hovedgruppe" v="infrastruktur" />
		<tag k="ssr:stedsnr" v="1041434" />
		<tag k="ssr:type" v="adressenavn" />
	</node>
	<node id="-913700" lat="64.3570221526" lon="12.3174693863">
		<tag k="name" v="Heia" />
		<tag k="ssr:date" v="2019-05-31" />
		<tag k="ssr:gruppe" v="veg" />
		<tag k="ssr:hovedgruppe" v="infrastruktur" />
		<tag k="ssr:stedsnr" v="1041431" />
		<tag k="ssr:type" v="adressenavn" />
	</node>
	<node id="-913699" lat="64.5280596997" lon="12.3100814579">
		<tag k="name" v="Tjønnengtjønna" />
		<tag k="ssr:date" v="2019-05-31" />
		<tag k="ssr:gruppe" v="veg" />
		<tag k="ssr:hovedgruppe" v="infrastruktur" />
		<tag k="ssr:stedsnr" v="1041430" />
		<tag k="ssr:type" v="adressenavn" />
	</node>
	<node id="-913698" lat="64.5347134565" lon="12.2882027112">
		<tag k="name" v="Finnhaugsetran" />
		<tag k="ssr:date" v="2019-05-31" />
		<tag k="ssr:gruppe" v="veg" />
		<tag k="ssr:hovedgruppe" v="infrastruktur" />
		<tag k="ssr:stedsnr" v="1041429" />
		<tag k="ssr:type" v="adressenavn" />
	</node>
	<node id="-913697" lat="64.5192584036" lon="12.281529544">
		<tag k="name" v="Austtundalssetran" />
		<tag k="ssr:date" v="2019-05-31" />
		<tag k="ssr:gruppe" v="veg" />
		<tag k="ssr:hovedgruppe" v="infrastruktur" />
		<tag k="ssr:stedsnr" v="1041428" />
		<tag k="ssr:type" v="adressenavn" />
	</node>
	<node id="-913696" lat="64.5398007828" lon="12.3173030978">
		<tag k="name" v="Nordsetran" />
		<tag k="ssr:date" v="2019-05-31" />
		<tag k="ssr:gruppe" v="veg" />
		<tag k="ssr:hovedgruppe" v="infrastruktur" />
		<tag k="ssr:stedsnr" v="1041427" />
		<tag k="ssr:type" v="adressenavn" />
	</node>
	<node id="-913695" lat="64.5050504273" lon="12.2863604083">
		<tag k="name" v="Nyhagan" />
		<tag k="ssr:date" v="2019-05-31" />
		<tag k="ssr:gruppe" v="veg" />
		<tag k="ssr:hovedgruppe" v="infrastruktur" />
		<tag k="ssr:stedsnr" v="1041425" />
		<tag k="ssr:type" v="adressenavn" />
	</node>
	<node id="-913694" lat="64.5023865258" lon="12.3041045541">
		<tag k="name" v="Dalsetran" />
		<tag k="ssr:date" v="2019-05-31" />
		<tag k="ssr:gruppe" v="veg" />
		<tag k="ssr:hovedgruppe" v="infrastruktur" />
		<tag k="ssr:stedsnr" v="1041424" />
		<tag k="ssr:type" v="adressenavn" />
	</node>
	<node id="-913693" lat="64.4925662117" lon="12.2631803923">
		<tag k="name" v="Bergsmosetran" />
		<tag k="ssr:date" v="2019-05-31" />
		<tag k="ssr:gruppe" v="veg" />
		<tag k="ssr:hovedgruppe" v="infrastruktur" />
		<tag k="ssr:stedsnr" v="1041423" />
		<tag k="ssr:type" v="adressenavn" />
	</node>
	<node id="-913716" lat="64.4928020497" lon="12.6331420371">
		<tag k="name" v="Møkkelvatnet" />
		<tag k="ssr:date" v="2019-05-31" />
		<tag k="ssr:gruppe" v="veg" />
		<tag k="ssr:hovedgruppe" v="infrastruktur" />
		<tag k="ssr:stedsnr" v="1041500" />
		<tag k="ssr:type" v="adressenavn" />
	</node>
	<node id="-913691" lat="64.5133301323" lon="12.1543113205">
		<tag k="name" v="Nåltjønnin" />
		<tag k="ssr:date" v="2019-05-31" />
		<tag k="ssr:gruppe" v="veg" />
		<tag k="ssr:hovedgruppe" v="infrastruktur" />
		<tag k="ssr:stedsnr" v="1041421" />
		<tag k="ssr:type" v="adressenavn" />
	</node>
	<node id="-913690" lat="64.5019407928" lon="12.2396350507">
		<tag k="name" v="Fisklaushytta" />
		<tag k="ssr:date" v="2019-05-31" />
		<tag k="ssr:gruppe" v="veg" />
		<tag k="ssr:hovedgruppe" v="infrastruktur" />
		<tag k="ssr:stedsnr" v="1041420" />
		<tag k="ssr:type" v="adressenavn" />
	</node>
	<node id="-913689" lat="64.5151556608" lon="12.2383192945">
		<tag k="name" v="Svarttjønna" />
		<tag k="ssr:date" v="2019-05-31" />
		<tag k="ssr:gruppe" v="veg" />
		<tag k="ssr:hovedgruppe" v="infrastruktur" />
		<tag k="ssr:stedsnr" v="1041419" />
		<tag k="ssr:type" v="adressenavn" />
	</node>
	<node id="-913688" lat="64.43301717" lon="12.1320969377">
		<tag k="name" v="Konnovatnet" />
		<tag k="ssr:date" v="2019-05-31" />
		<tag k="ssr:gruppe" v="veg" />
		<tag k="ssr:hovedgruppe" v="infrastruktur" />
		<tag k="ssr:stedsnr" v="1041418" />
		<tag k="ssr:type" v="adressenavn" />
	</node>
	<node id="-913687" lat="64.4265814976" lon="12.1308819008">
		<tag k="name" v="Småsetran" />
		<tag k="ssr:date" v="2019-05-31" />
		<tag k="ssr:gruppe" v="veg" />
		<tag k="ssr:hovedgruppe" v="infrastruktur" />
		<tag k="ssr:stedsnr" v="1041417" />
		<tag k="ssr:type" v="adressenavn" />
	</node>
	<node id="-913686" lat="64.484778224" lon="12.1122872229">
		<tag k="name" v="Samuelsetran" />
		<tag k="ssr:date" v="2019-05-31" />
		<tag k="ssr:gruppe" v="veg" />
		<tag k="ssr:hovedgruppe" v="infrastruktur" />
		<tag k="ssr:stedsnr" v="1041416" />
		<tag k="ssr:type" v="adressenavn" />
	</node>
	<node id="-913685" lat="64.450270592" lon="12.1392974133">
		<tag k="name" v="Garnåsen" />
		<tag k="ssr:date" v="2019-05-31" />
		<tag k="ssr:gruppe" v="veg" />
		<tag k="ssr:hovedgruppe" v="infrastruktur" />
		<tag k="ssr:stedsnr" v="1041414" />
		<tag k="ssr:type" v="adressenavn" />
	</node>
	<node id="-913684" lat="64.3434576496" lon="12.2327224585">
		<tag k="name" v="Rostasetran" />
		<tag k="ssr:date" v="2019-05-31" />
		<tag k="ssr:gruppe" v="veg" />
		<tag k="ssr:hovedgruppe" v="infrastruktur" />
		<tag k="ssr:stedsnr" v="1041413" />
		<tag k="ssr:type" v="adressenavn" />
	</node>
	<node id="-913683" lat="64.3371482707" lon="12.1332574773">
		<tag k="name" v="Øyster-Bangsjøen" />
		<tag k="ssr:date" v="2019-05-31" />
		<tag k="ssr:gruppe" v="veg" />
		<tag k="ssr:hovedgruppe" v="infrastruktur" />
		<tag k="ssr:stedsnr" v="1041412" />
		<tag k="ssr:type" v="adressenavn" />
	</node>
	<node id="-913682" lat="64.4038753223" lon="12.2447801455">
		<tag k="name" v="Snøådalen" />
		<tag k="ssr:date" v="2019-05-31" />
		<tag k="ssr:gruppe" v="veg" />
		<tag k="ssr:hovedgruppe" v="infrastruktur" />
		<tag k="ssr:stedsnr" v="1041411" />
		<tag k="ssr:type" v="adressenavn" />
	</node>
	<node id="-913681" lat="64.3776049343" lon="12.2141682623">
		<tag k="name" v="Rundtjønna" />
		<tag k="ssr:date" v="2019-05-31" />
		<tag k="ssr:gruppe" v="veg" />
		<tag k="ssr:hovedgruppe" v="infrastruktur" />
		<tag k="ssr:stedsnr" v="1041409" />
		<tag k="ssr:type" v="adressenavn" />
	</node>
	<node id="-913680" lat="64.4402813443" lon="12.439206607">
		<tag k="name" v="Rønningsetran" />
		<tag k="ssr:date" v="2019-05-31" />
		<tag k="ssr:gruppe" v="veg" />
		<tag k="ssr:hovedgruppe" v="infrastruktur" />
		<tag k="ssr:stedsnr" v="1041408" />
		<tag k="ssr:type" v="adressenavn" />
	</node>
	<node id="-913679" lat="64.4417519897" lon="12.4611641255">
		<tag k="name" v="Raudsandan" />
		<tag k="ssr:date" v="2019-05-31" />
		<tag k="ssr:gruppe" v="veg" />
		<tag k="ssr:hovedgruppe" v="infrastruktur" />
		<tag k="ssr:stedsnr" v="1041407" />
		<tag k="ssr:type" v="adressenavn" />
	</node>
	<node id="-913678" lat="64.4345183744" lon="12.4413251578">
		<tag k="name" v="Ånessetran" />
		<tag k="ssr:date" v="2019-05-31" />
		<tag k="ssr:gruppe" v="veg" />
		<tag k="ssr:hovedgruppe" v="infrastruktur" />
		<tag k="ssr:stedsnr" v="1041406" />
		<tag k="ssr:type" v="adressenavn" />
	</node>
	<node id="-913677" lat="64.4652581517" lon="12.4472998132">
		<tag k="name" v="Rabalskheia" />
		<tag k="ssr:date" v="2019-05-31" />
		<tag k="ssr:gruppe" v="veg" />
		<tag k="ssr:hovedgruppe" v="infrastruktur" />
		<tag k="ssr:stedsnr" v="1041404" />
		<tag k="ssr:type" v="adressenavn" />
	</node>
	<node id="-913676" lat="64.4821485207" lon="12.4734443263">
		<tag k="name" v="Brynntjønnin" />
		<tag k="ssr:date" v="2019-05-31" />
		<tag k="ssr:gruppe" v="veg" />
		<tag k="ssr:hovedgruppe" v="infrastruktur" />
		<tag k="ssr:stedsnr" v="1041403" />
		<tag k="ssr:type" v="adressenavn" />
	</node>
	<node id="-913675" lat="64.5942647385" lon="12.6936698251">
		<tag k="name" v="Heimdalhaugen" />
		<tag k="ssr:date" v="2019-05-31" />
		<tag k="ssr:gruppe" v="veg" />
		<tag k="ssr:hovedgruppe" v="infrastruktur" />
		<tag k="ssr:stedsnr" v="1041402" />
		<tag k="ssr:type" v="adressenavn" />
	</node>
	<node id="-915971" lat="63.5169210211" lon="10.4860505232">
		<tag k="name" v="Trøndelag fylke - Trööndelagen fylhke" />
		<tag k="name:no" v="Trøndelag fylke" />
		<tag k="name:sma" v="Trööndelagen fylhke" />
		<tag k="ssr:date" v="2018-06-27" />
		<tag k="ssr:gruppe" v="administrativeIndelinger" />
		<tag k="ssr:hovedgruppe" v="offentligAdministrasjon" />
		<tag k="ssr:stedsnr" v="980645" />
		<tag k="ssr:type" v="fylke" />
	</node>
</osm>
