<?xml version="1.0" encoding="UTF-8"?>
<osm version="0.6" generator="osmapis">
	<node lat="59.01813055878574" lon="8.35943055991144" id="-26597">
		<tag k="name" v="Skoren" />
		<tag k="place" v="isolated_dwelling" />
		<tag k="ssr:stedsnr" v="229752" />
	</node>
	<node lat="59.16318611074418" lon="8.272527786049775" id="-26600">
		<tag k="name" v="Sandvik" />
		<tag k="place" v="locality" />
		<tag k="ssr:stedsnr" v="230597" />
	</node>
	<node lat="59.228483337536794" lon="8.173836106459381" id="-26604">
		<tag k="alt_name" v="Brokkestøl" />
		<tag k="historic" v="shieling" />
		<tag k="name" v="Brokkestøylen" />
		<tag k="place" v="isolated_dwelling" />
		<tag k="ssr:stedsnr" v="1009" />
	</node>
	<node lat="59.24288889070425" lon="7.782777776177644" id="-26606">
		<tag k="alt_name" v="Brokkestøyl" />
		<tag k="historic" v="shieling" />
		<tag k="name" v="Brøkkestøyl" />
		<tag k="old_name" v="Brøkkestøl" />
		<tag k="place" v="isolated_dwelling" />
		<tag k="ssr:stedsnr" v="1310" />
	</node>
	<node lat="59.23608055112718" lon="8.058724991612374" id="-26607">
		<tag k="name" v="Skori" />
		<tag k="place" v="farm" />
		<tag k="ssr:stedsnr" v="1317" />
	</node>
	<node lat="59.14416389115162" lon="7.808872217499582" id="-26608">
		<tag k="alt_name" v="Klovsteinstøylen" />
		<tag k="name" v="Kløvsteinstøylen" />
		<tag k="old_name" v="Kløvsteinstølen" />
		<tag k="place" v="isolated_dwelling" />
		<tag k="ssr:stedsnr" v="1404" />
	</node>
	<node lat="59.17189166268174" lon="8.038355555093643" id="-26613">
		<tag k="name" v="Vik" />
		<tag k="place" v="farm" />
		<tag k="ssr:stedsnr" v="1387" />
	</node>
	<node lat="59.138669442626764" lon="7.882661118773194" id="-26615">
		<tag k="historic" v="shieling" />
		<tag k="name" v="Grodvasstøylen" />
		<tag k="old_name" v="Grodvasstøl" />
		<tag k="place" v="isolated_dwelling" />
		<tag k="ssr:stedsnr" v="1397" />
	</node>
	<node lat="59.216936112258736" lon="7.978013887748474" id="-26618">
		<tag k="name" v="Finndalstveit" />
		<tag k="place" v="farm" />
		<tag k="ssr:stedsnr" v="2351" />
	</node>
	<node lat="59.27781110668738" lon="8.149149998563619" id="-26622">
		<tag k="name" v="Nybu" />
		<tag k="place" v="locality" />
		<tag k="ssr:stedsnr" v="2231" />
	</node>
	<node lat="59.28307500250176" lon="8.067716661372465" id="-26629">
		<tag k="name" v="Lund" />
		<tag k="place" v="isolated_dwelling" />
		<tag k="ssr:stedsnr" v="2906" />
	</node>
	<node lat="59.34023333449575" lon="8.020055554129419" id="-26633">
		<tag k="alt_name" v="Erhommen" />
		<tag k="historic" v="shieling" />
		<tag k="name" v="Erahommen" />
		<tag k="place" v="isolated_dwelling" />
		<tag k="ssr:stedsnr" v="2988" />
	</node>
	<node lat="59.32691667113147" lon="7.996555557467658" id="-26637">
		<tag k="alt_name" v="Vihovdstøylen" />
		<tag k="name" v="Vehovd" />
		<tag k="place" v="locality" />
		<tag k="ssr:stedsnr" v="3000" />
	</node>
	<node lat="59.12752499878603" lon="8.127422215526293" id="-26651">
		<tag k="name" v="Skjeri" />
		<tag k="place" v="isolated_dwelling" />
		<tag k="ssr:stedsnr" v="230568" />
	</node>
	<node lat="59.34336389193178" lon="8.08151388049598" id="-26659">
		<tag k="name" v="Heggtveit" />
		<tag k="place" v="locality" />
		<tag k="ssr:stedsnr" v="230889" />
	</node>
	<node lat="59.31618055637314" lon="8.155091671871908" id="-26663">
		<tag k="name" v="Bergedal" />
		<tag k="place" v="farm" />
		<tag k="ssr:stedsnr" v="230939" />
	</node>
	<node lat="59.32520555752589" lon="7.906888887216438" id="-26676">
		<tag k="name" v="Aslestad uppigard" />
		<tag k="place" v="farm" />
		<tag k="ssr:stedsnr" v="231660" />
	</node>
	<node lat="59.18609721803849" lon="8.088794438084813" id="-26683">
		<tag k="name" v="Landstad" />
		<tag k="place" v="quarter" />
		<tag k="ssr:stedsnr" v="231943" />
	</node>
	<node lat="59.117427780464" lon="7.893858327331813" id="-26686">
		<tag k="name" v="Sandvasstøylen" />
		<tag k="place" v="isolated_dwelling" />
		<tag k="ssr:stedsnr" v="27515" />
	</node>
	<node lat="59.18752777702542" lon="8.109925000274746" id="-26695">
		<tag k="name" v="Sitje søndre" />
		<tag k="place" v="farm" />
		<tag k="ssr:stedsnr" v="33211" />
	</node>
	<node lat="59.24145833400293" lon="8.058863896435865" id="-26697">
		<tag k="name" v="Hovstad" />
		<tag k="place" v="farm" />
		<tag k="ssr:stedsnr" v="33421" />
	</node>
	<node lat="59.216722220736294" lon="8.095311104170216" id="-26698">
		<tag k="name" v="Skogheim" />
		<tag k="place" v="isolated_dwelling" />
		<tag k="ssr:stedsnr" v="33580" />
	</node>
	<node lat="59.25767222115761" lon="7.752327771753366" id="-26705">
		<tag k="name" v="Sollistøyl" />
		<tag k="place" v="locality" />
		<tag k="ssr:stedsnr" v="35261" />
	</node>
	<node lat="59.24916111296379" lon="7.8561722243251735" id="-26709">
		<tag k="historic" v="shieling" />
		<tag k="name" v="Djuptjønnstøylen" />
		<tag k="place" v="isolated_dwelling" />
		<tag k="ssr:stedsnr" v="35172" />
	</node>
	<node lat="59.313019441408244" lon="7.733366662614745" id="-26715">
		<tag k="name" v="Blomstøyl" />
		<tag k="place" v="locality" />
		<tag k="ssr:stedsnr" v="35413" />
	</node>
	<node lat="59.27778055642476" lon="7.75979444800728" id="-26716">
		<tag k="name" v="Huslandhytta" />
		<tag k="place" v="isolated_dwelling" />
		<tag k="ssr:stedsnr" v="35477" />
	</node>
	<node lat="59.06503610812562" lon="8.303049998472485" id="-26724">
		<tag k="name" v="Himmelstøyl" />
		<tag k="place" v="locality" />
		<tag k="ssr:stedsnr" v="47922" />
	</node>
	<node lat="59.32605833236032" lon="8.195969448893615" id="-26738">
		<tag k="historic" v="shieling" />
		<tag k="name" v="Nystøyl" />
		<tag k="place" v="isolated_dwelling" />
		<tag k="ssr:stedsnr" v="48699" />
	</node>
	<node lat="59.352083337686466" lon="7.850166662865946" id="-26740">
		<tag k="name" v="Storli" />
		<tag k="place" v="locality" />
		<tag k="ssr:stedsnr" v="48926" />
	</node>
	<node lat="59.164236110803216" lon="8.083977775268762" id="-26745">
		<tag k="name" v="Kjellberg" />
		<tag k="place" v="isolated_dwelling" />
		<tag k="ssr:stedsnr" v="49725" />
	</node>
	<node lat="59.3279972180256" lon="7.909397230076756" id="-26746">
		<tag k="name" v="Fjøddi" />
		<tag k="place" v="locality" />
		<tag k="ssr:stedsnr" v="49607" />
	</node>
	<node lat="59.184047217951715" lon="8.09364444217356" id="-26751">
		<tag k="name" v="Folkestadbyen" />
		<tag k="place" v="quarter" />
		<tag k="ssr:stedsnr" v="59981" />
	</node>
	<node lat="59.234999997144385" lon="7.833094446216492" id="-26755">
		<tag k="name" v="Audjordet" />
		<tag k="place" v="farm" />
		<tag k="ssr:stedsnr" v="62315" />
	</node>
	<node lat="59.24485555304223" lon="8.025099992343817" id="-26762">
		<tag k="alt_name" v="Jore øvre" />
		<tag k="name" v="Jordet" />
		<tag k="place" v="farm" />
		<tag k="ssr:stedsnr" v="62286" />
	</node>
	<node lat="59.06370277921216" lon="7.922066660784245" id="-26763">
		<tag k="fixme" v="consider tourism=alpine_hut or tourism=chalet" />
		<tag k="name" v="Kvipt" />
		<tag k="ssr:stedsnr" v="62469" />
		<tag k="tourism" v="wilderness_hut" />
	</node>
	<node lat="58.98160277462898" lon="7.9660666743010875" id="-26765">
		<tag k="alt_name" v="Selbustøyl" />
		<tag k="name" v="Selbustøl" />
		<tag k="place" v="locality" />
		<tag k="ssr:stedsnr" v="62626" />
	</node>
	<node lat="59.33062405533602" lon="8.138282562661468" id="-26775">
		<tag k="name" v="Helland" />
		<tag k="place" v="farm" />
		<tag k="ssr:stedsnr" v="63364" />
	</node>
	<node lat="59.28513888608442" lon="7.943905551670021" id="-26776">
		<tag k="alt_name" v="Hovdestøyl øvri" />
		<tag k="name" v="Hovdestøyl" />
		<tag k="old_name" v="Hovdestøl" />
		<tag k="place" v="locality" />
		<tag k="ssr:stedsnr" v="63905" />
	</node>
	<node lat="59.089663891555766" lon="8.243186115374868" id="-26777">
		<tag k="name" v="Våmur" />
		<tag k="place" v="neighbourhood" />
		<tag k="ssr:stedsnr" v="242218" />
	</node>
	<node lat="59.21643889018978" lon="8.09668055214926" id="-26779">
		<tag k="name" v="Heggland" />
		<tag k="place" v="farm" />
		<tag k="ssr:stedsnr" v="244061" />
	</node>
	<node lat="59.22565833228869" lon="8.25695832558977" id="-26780">
		<tag k="alt_name" v="Løestøl" />
		<tag k="historic" v="shieling" />
		<tag k="name" v="Løestøyl" />
		<tag k="place" v="isolated_dwelling" />
		<tag k="ssr:stedsnr" v="244065" />
	</node>
	<node lat="59.154683329191585" lon="8.201791665329448" id="-26784">
		<tag k="alt_name" v="Nape" />
		<tag k="fixme" v="consider place=hamlet" />
		<tag k="name" v="Vestre Nape" />
		<tag k="place" v="farm" />
		<tag k="ssr:stedsnr" v="244119" />
	</node>
	<node lat="59.21638332995492" lon="8.092408340477292" id="-26794">
		<tag k="name" v="Flatland" />
		<tag k="place" v="farm" />
		<tag k="ssr:stedsnr" v="244356" />
	</node>
	<node lat="58.99368611278179" lon="8.288863896693577" id="-26801">
		<tag k="name" v="Sønderland" />
		<tag k="place" v="farm" />
		<tag k="ssr:stedsnr" v="244860" />
	</node>
	<node lat="58.98995277951265" lon="8.1344583291436" id="-26802">
		<tag k="name" v="Nilsebu" />
		<tag k="place" v="isolated_dwelling" />
		<tag k="ssr:stedsnr" v="244869" />
	</node>
	<node lat="59.3225583334797" lon="8.173983341286284" id="-26806">
		<tag k="alt_name" v="Fjellet, øvre" />
		<tag k="historic" v="shieling" />
		<tag k="name" v="Øvre Fjøddi" />
		<tag k="place" v="isolated_dwelling" />
		<tag k="ssr:stedsnr" v="245174" />
	</node>
	<node lat="59.26200000190454" lon="8.156961106323392" id="-26809">
		<tag k="name" v="Liene" />
		<tag k="place" v="isolated_dwelling" />
		<tag k="ssr:stedsnr" v="245208" />
	</node>
	<node lat="59.33053333689399" lon="7.964180546776629" id="-26823">
		<tag k="name" v="Tverrli" />
		<tag k="place" v="isolated_dwelling" />
		<tag k="ssr:stedsnr" v="246000" />
	</node>
	<node lat="59.29198097616006" lon="7.749472045909934" id="-26825">
		<tag k="name" v="Åsbu" />
		<tag k="place" v="locality" />
		<tag k="ssr:stedsnr" v="245952" />
	</node>
	<node lat="59.29540000064437" lon="8.05507221593739" id="-26826">
		<tag k="name" v="Bakken" />
		<tag k="place" v="farm" />
		<tag k="ssr:stedsnr" v="245961" />
	</node>
	<node lat="59.23753889097936" lon="8.064613895954487" id="-26827">
		<tag k="name" v="Furemo" />
		<tag k="place" v="isolated_dwelling" />
		<tag k="ssr:stedsnr" v="94076" />
	</node>
	<node lat="59.29067500161201" lon="7.773700001696224" id="-26837">
		<tag k="name" v="Huslanda" />
		<tag k="place" v="locality" />
		<tag k="ssr:stedsnr" v="96224" />
	</node>
	<node lat="59.31874722539444" lon="7.785241674904688" id="-26842">
		<tag k="name" v="Klavneshytta" />
		<tag k="place" v="isolated_dwelling" />
		<tag k="ssr:stedsnr" v="96614" />
	</node>
	<node lat="59.17979444250846" lon="8.09246389214419" id="-26868">
		<tag k="name" v="Moghus nordre" />
		<tag k="place" v="farm" />
		<tag k="ssr:stedsnr" v="108776" />
	</node>
	<node lat="59.1794861077482" lon="8.1027138920712" id="-26869">
		<tag k="name" v="Uppstad" />
		<tag k="place" v="locality" />
		<tag k="ssr:stedsnr" v="108783" />
	</node>
	<node lat="59.28362500259879" lon="8.06808889561911" id="-26885">
		<tag k="name" v="Nedrebø" />
		<tag k="place" v="farm" />
		<tag k="ssr:stedsnr" v="109722" />
	</node>
	<node lat="59.01591388685555" lon="8.267330562974015" id="-26888">
		<tag k="name" v="Lønegrav" />
		<tag k="place" v="locality" />
		<tag k="ssr:stedsnr" v="109819" />
	</node>
	<node lat="59.30090277620967" lon="7.8992805562780815" id="-26890">
		<tag k="name" v="Nørstestøylen" />
		<tag k="place" v="locality" />
		<tag k="ssr:stedsnr" v="110212" />
	</node>
	<node lat="59.31466388634375" lon="7.8803305473751895" id="-26892">
		<tag k="name" v="Nystøyl" />
		<tag k="place" v="locality" />
		<tag k="ssr:stedsnr" v="110530" />
	</node>
	<node lat="59.287769443682045" lon="7.947263880335654" id="-26896">
		<tag k="name" v="Hovdestøyl neiri" />
		<tag k="place" v="locality" />
		<tag k="ssr:stedsnr" v="110682" />
	</node>
	<node lat="59.18271110755674" lon="8.111833324787325" id="-26901">
		<tag k="alt_name" v="Lie" />
		<tag k="name" v="Li" />
		<tag k="place" v="farm" />
		<tag k="ssr:stedsnr" v="122076" />
	</node>
	<node lat="59.24509999788467" lon="7.92862778118842" id="-26906">
		<tag k="name" v="Rui" />
		<tag k="place" v="farm" />
		<tag k="ssr:stedsnr" v="122312" />
	</node>
	<node lat="59.24658610862474" lon="7.803777777207261" id="-26907">
		<tag k="alt_name" v="Nos" />
		<tag k="historic" v="shieling" />
		<tag k="name" v="Nøs" />
		<tag k="place" v="isolated_dwelling" />
		<tag k="ssr:stedsnr" v="122320" />
	</node>
	<node lat="59.21942500101415" lon="8.094099993056533" id="-26911">
		<tag k="fixme" v="consider place=hamlet" />
		<tag k="name" v="Brokke" />
		<tag k="place" v="farm" />
		<tag k="ssr:stedsnr" v="123073" />
	</node>
	<node lat="59.17188888702556" lon="8.119916660991512" id="-26912">
		<tag k="alt_name" v="Kanekro" />
		<tag k="name" v="Kanebu" />
		<tag k="place" v="isolated_dwelling" />
		<tag k="ssr:stedsnr" v="123079" />
	</node>
	<node lat="59.23476389092626" lon="8.123186112975327" id="-26928">
		<tag k="historic" v="shieling" />
		<tag k="name" v="Evenstad" />
		<tag k="place" v="isolated_dwelling" />
		<tag k="ssr:stedsnr" v="155325" />
	</node>
	<node lat="59.20464166372774" lon="8.09968611083521" id="-26930">
		<tag k="name" v="Rydland" />
		<tag k="place" v="isolated_dwelling" />
		<tag k="ssr:stedsnr" v="155818" />
	</node>
	<node lat="59.24691944139253" lon="7.89802222303714" id="-26931">
		<tag k="name" v="Haugane" />
		<tag k="place" v="farm" />
		<tag k="ssr:stedsnr" v="156154" />
	</node>
	<node lat="59.19241558504605" lon="8.000353840963465" id="-26937">
		<tag k="name" v="Gausvassbui" />
		<tag k="place" v="isolated_dwelling" />
		<tag k="ssr:stedsnr" v="156552" />
	</node>
	<node lat="59.19887222617243" lon="7.8061694401253625" id="-26944">
		<tag k="name" v="Valalia" />
		<tag k="place" v="isolated_dwelling" />
		<tag k="ssr:stedsnr" v="157249" />
	</node>
	<node lat="59.236805554467836" lon="8.27396111764381" id="-26949">
		<tag k="name" v="Stallane" />
		<tag k="place" v="locality" />
		<tag k="ssr:stedsnr" v="157651" />
	</node>
	<node lat="59.317477780285195" lon="7.7544611176565565" id="-26951">
		<tag k="name" v="Bøsstjønnstøylen" />
		<tag k="place" v="locality" />
		<tag k="ssr:stedsnr" v="157655" />
	</node>
	<node lat="59.26981667096422" lon="7.840750000862004" id="-26952">
		<tag k="historic" v="shieling" />
		<tag k="name" v="Nystøyl" />
		<tag k="place" v="isolated_dwelling" />
		<tag k="ssr:stedsnr" v="157552" />
	</node>
	<node lat="59.27019166444246" lon="7.836080561090288" id="-26954">
		<tag k="historic" v="shieling" />
		<tag k="name" v="Mørktjønnstøylen" />
		<tag k="place" v="isolated_dwelling" />
		<tag k="ssr:stedsnr" v="157566" />
	</node>
	<node lat="59.295661108113514" lon="8.250913893431823" id="-26971">
		<tag k="name" v="Luffendal" />
		<tag k="place" v="locality" />
		<tag k="ssr:stedsnr" v="169459" />
	</node>
	<node lat="59.30807222426175" lon="8.091208336022552" id="-26977">
		<tag k="name" v="Håtveit" />
		<tag k="place" v="locality" />
		<tag k="ssr:stedsnr" v="169713" />
	</node>
	<node lat="59.33870278038801" lon="8.066463888715464" id="-26979">
		<tag k="name" v="Toli" />
		<tag k="place" v="locality" />
		<tag k="ssr:stedsnr" v="169894" />
	</node>
	<node lat="59.248694440856184" lon="8.177144450061192" id="-26982">
		<tag k="name" v="Sunnstøyl" />
		<tag k="place" v="locality" />
		<tag k="ssr:stedsnr" v="169912" />
	</node>
	<node lat="59.29083888750486" lon="7.943802783871966" id="-26987">
		<tag k="name" v="Nystøyl" />
		<tag k="place" v="locality" />
		<tag k="ssr:stedsnr" v="170665" />
	</node>
	<node lat="59.18473332915315" lon="8.104716666047654" id="-26993">
		<tag k="name" v="Kasebua" />
		<tag k="place" v="locality" />
		<tag k="ssr:stedsnr" v="170961" />
	</node>
	<node lat="59.249091667563334" lon="8.088922218793344" id="-27003">
		<tag k="fixme" v="consider place=hamlet" />
		<tag k="name" v="Gryte nordre" />
		<tag k="place" v="farm" />
		<tag k="ssr:stedsnr" v="183302" />
	</node>
	<node lat="59.2359027779508" lon="7.983394444998996" id="-27008">
		<tag k="alt_name" v="Håmmårsjordet;Hamarsjordet" />
		<tag k="name" v="Hammarsjordet" />
		<tag k="place" v="isolated_dwelling" />
		<tag k="ssr:stedsnr" v="183293" />
	</node>
	<node lat="59.034063884682645" lon="7.97780277117746" id="-27009">
		<tag k="alt_name" v="Birtestøylen" />
		<tag k="historic" v="shieling" />
		<tag k="name" v="Birte" />
		<tag k="old_name" v="Birtestølen" />
		<tag k="place" v="isolated_dwelling" />
		<tag k="ssr:stedsnr" v="183440" />
	</node>
	<node lat="59.14981666784173" lon="8.17933054725307" id="-27012">
		<tag k="name" v="Lisland" />
		<tag k="place" v="farm" />
		<tag k="ssr:stedsnr" v="184085" />
	</node>
	<node lat="59.31894444676441" lon="8.135927783273194" id="-27017">
		<tag k="name" v="Moen" />
		<tag k="place" v="farm" />
		<tag k="ssr:stedsnr" v="184192" />
	</node>
	<node lat="59.32062222234446" lon="8.139280562314914" id="-27018">
		<tag k="fixme" v="consider place=hamlet" />
		<tag k="name" v="Hauggrend" />
		<tag k="place" v="village" />
		<tag k="ssr:stedsnr" v="184194" />
	</node>
	<node lat="59.13342500412197" lon="7.996219450234262" id="-27019">
		<tag k="name" v="Kleivane" />
		<tag k="place" v="farm" />
		<tag k="ssr:stedsnr" v="184432" />
	</node>
	<node lat="59.326674999011374" lon="8.144624998370487" id="-27021">
		<tag k="alt_name" v="Haugene" />
		<tag k="fixme" v="consider place=hamlet" />
		<tag k="name" v="Haugane" />
		<tag k="place" v="farm" />
		<tag k="ssr:stedsnr" v="184341" />
	</node>
	<node lat="59.28744166595924" lon="8.045077785725862" id="-27023">
		<tag k="name" v="Tveit" />
		<tag k="place" v="farm" />
		<tag k="ssr:stedsnr" v="184887" />
	</node>
	<node lat="59.275761111692425" lon="8.114486114999098" id="-27026">
		<tag k="alt_name" v="Gjerli" />
		<tag k="name" v="Gjerdli" />
		<tag k="place" v="farm" />
		<tag k="ssr:stedsnr" v="185199" />
	</node>
	<node lat="59.17711944105884" lon="8.050308333608283" id="-27027">
		<tag k="name" v="Bukti" />
		<tag k="place" v="isolated_dwelling" />
		<tag k="ssr:stedsnr" v="209447" />
	</node>
	<node lat="59.23981666532259" lon="8.097338887381468" id="-27035">
		<tag k="name" v="Askland" />
		<tag k="place" v="farm" />
		<tag k="ssr:stedsnr" v="216376" />
	</node>
	<node lat="59.196102773633264" lon="8.083730562227595" id="-27036">
		<tag k="name" v="Nordheim" />
		<tag k="place" v="farm" />
		<tag k="ssr:stedsnr" v="216815" />
	</node>
	<node lat="59.19986110842002" lon="8.085883342013673" id="-27037">
		<tag k="name" v="Verpe" />
		<tag k="place" v="isolated_dwelling" />
		<tag k="ssr:stedsnr" v="216785" />
	</node>
	<node lat="59.2366866579813" lon="8.24248128404674" id="-27038">
		<tag k="name" v="Fiskå" />
		<tag k="place" v="locality" />
		<tag k="ssr:stedsnr" v="217112" />
	</node>
	<node lat="59.28013888779138" lon="7.7937138889307" id="-27039">
		<tag k="name" v="Sollistøylen" />
		<tag k="place" v="locality" />
		<tag k="ssr:stedsnr" v="217004" />
	</node>
	<node lat="59.24592778173351" lon="7.920763888329766" id="-27042">
		<tag k="name" v="Midtbø" />
		<tag k="place" v="locality" />
		<tag k="ssr:stedsnr" v="217217" />
	</node>
	<node lat="59.167963890206956" lon="7.955155562601286" id="-27049">
		<tag k="alt_name" v="Olimstad" />
		<tag k="name" v="Olemstad" />
		<tag k="place" v="farm" />
		<tag k="ssr:stedsnr" v="270435" />
	</node>
	<node lat="59.178852777336864" lon="8.092383339653173" id="-27078">
		<tag k="name" v="Moghus søndre" />
		<tag k="place" v="farm" />
		<tag k="ssr:stedsnr" v="229781" />
	</node>
	<node lat="59.30449444836887" lon="8.093591672080663" id="-27094">
		<tag k="alt_name" v="Lieplassen" />
		<tag k="name" v="Liplassen" />
		<tag k="place" v="farm" />
		<tag k="ssr:stedsnr" v="230699" />
	</node>
	<node lat="59.322202780982494" lon="8.140380549123758" id="-27097">
		<tag k="name" v="Neirigrendi" />
		<tag k="place" v="quarter" />
		<tag k="ssr:stedsnr" v="230880" />
	</node>
	<node lat="59.02148610848175" lon="8.085036111111982" id="-27114">
		<tag k="name" v="Vinsneslia" />
		<tag k="place" v="neighbourhood" />
		<tag k="ssr:stedsnr" v="241910" />
	</node>
	<node lat="59.20596944409864" lon="8.10790278411515" id="-27121">
		<tag k="alt_name" v="Vadli nordre" />
		<tag k="name" v="Vadli" />
		<tag k="place" v="farm" />
		<tag k="ssr:stedsnr" v="244049" />
	</node>
	<node lat="59.18901388973699" lon="8.109055551425039" id="-27123">
		<tag k="alt_name" v="Sitje midtre" />
		<tag k="fixme" v="consider place=hamlet" />
		<tag k="name" v="Sitje" />
		<tag k="place" v="farm" />
		<tag k="ssr:stedsnr" v="244087" />
	</node>
	<node lat="59.18376111398666" lon="8.112611104876251" id="-27124">
		<tag k="name" v="Lauvdal" />
		<tag k="place" v="farm" />
		<tag k="ssr:stedsnr" v="244089" />
	</node>
	<node lat="59.12687499677796" lon="8.059216663977217" id="-27131">
		<tag k="alt_name" v="Skrei" />
		<tag k="fixme" v="consider place=hamlet" />
		<tag k="name" v="Skredi" />
		<tag k="place" v="farm" />
		<tag k="ssr:stedsnr" v="244436" />
	</node>
	<node lat="59.00026111127637" lon="8.273286111604705" id="-27144">
		<tag k="alt_name" v="Lomkilen" />
		<tag k="name" v="Låmkilen" />
		<tag k="place" v="farm" />
		<tag k="ssr:stedsnr" v="244979" />
	</node>
	<node lat="59.28648333153528" lon="7.993608337519827" id="-27147">
		<tag k="alt_name" v="Songdalstveiten" />
		<tag k="fixme" v="consider place=hamlet" />
		<tag k="name" v="Songedalstveiten" />
		<tag k="place" v="farm" />
		<tag k="ssr:stedsnr" v="452384" />
	</node>
	<node lat="59.186872220744455" lon="8.11482777414156" id="-27154">
		<tag k="name" v="Bergan" />
		<tag k="place" v="isolated_dwelling" />
		<tag k="ssr:stedsnr" v="458268" />
	</node>
	<node lat="59.2304222180123" lon="8.091725003302793" id="-27162">
		<tag k="alt_name" v="Lillestu" />
		<tag k="fixme" v="consider place=hamlet" />
		<tag k="name" v="Lislestog" />
		<tag k="place" v="farm" />
		<tag k="ssr:stedsnr" v="458492" />
	</node>
	<node lat="59.2367694400645" lon="7.9739055534422985" id="-27163">
		<tag k="name" v="Bondal søgard" />
		<tag k="place" v="farm" />
		<tag k="ssr:stedsnr" v="458629" />
	</node>
	<node lat="59.22718055597685" lon="8.090616659136552" id="-27165">
		<tag k="name" v="Nyheim" />
		<tag k="place" v="isolated_dwelling" />
		<tag k="ssr:stedsnr" v="458600" />
	</node>
	<node lat="59.07149167067533" lon="8.082849991454909" id="-27168">
		<tag k="fixme" v="consider tourism=alpine_hut or tourism=chalet" />
		<tag k="name" v="Hengeltjørnloftet" />
		<tag k="ssr:stedsnr" v="270021" />
		<tag k="tourism" v="wilderness_hut" />
	</node>
	<node lat="59.18938888526187" lon="8.086413896894989" id="-27171">
		<tag k="name" v="Bakketun" />
		<tag k="place" v="isolated_dwelling" />
		<tag k="ssr:stedsnr" v="270495" />
	</node>
	<node lat="59.1894305559439" lon="8.086588882558246" id="-27173">
		<tag k="name" v="Bergvoll" />
		<tag k="place" v="isolated_dwelling" />
		<tag k="ssr:stedsnr" v="458834" />
	</node>
	<node lat="59.293213884980354" lon="7.754525004495119" id="-27194">
		<tag k="name" v="Listøyl" />
		<tag k="place" v="locality" />
		<tag k="ssr:stedsnr" v="278369" />
	</node>
	<node lat="59.1889722261223" lon="7.998733340568976" id="-27198">
		<tag k="name" v="Lislegaussvasstøylen" />
		<tag k="place" v="locality" />
		<tag k="ssr:stedsnr" v="278616" />
	</node>
	<node lat="59.197127776027834" lon="7.981997223812101" id="-27201">
		<tag k="name" v="Hestekvævstøylen" />
		<tag k="place" v="locality" />
		<tag k="ssr:stedsnr" v="278579" />
	</node>
	<node lat="59.2301166645591" lon="7.825466668789818" id="-27204">
		<tag k="historic" v="shieling" />
		<tag k="name" v="Ulvsvass-støylen" />
		<tag k="old_name" v="Ullvassstøylen" />
		<tag k="place" v="isolated_dwelling" />
		<tag k="ssr:stedsnr" v="460084" />
	</node>
	<node lat="59.23041666998292" lon="8.250002777384625" id="-27209">
		<tag k="name" v="Løestøylen" />
		<tag k="place" v="locality" />
		<tag k="ssr:stedsnr" v="460139" />
	</node>
	<node lat="59.24808889009408" lon="7.9083444451427924" id="-27210">
		<tag k="alt_name" v="Søristog" />
		<tag k="name" v="Søristog Bergland" />
		<tag k="place" v="farm" />
		<tag k="ssr:stedsnr" v="460224" />
	</node>
	<node lat="59.217100000359025" lon="8.162108325849873" id="-27218">
		<tag k="name" v="Steanstøylen" />
		<tag k="place" v="locality" />
		<tag k="ssr:stedsnr" v="460541" />
	</node>
	<node lat="59.16840833656182" lon="8.002219450086455" id="-27226">
		<tag k="name" v="Homme" />
		<tag k="place" v="isolated_dwelling" />
		<tag k="ssr:stedsnr" v="460641" />
	</node>
	<node lat="59.24146944050662" lon="8.302102777951019" id="-27227">
		<tag k="name" v="Føreheistøylen" />
		<tag k="place" v="locality" />
		<tag k="ssr:stedsnr" v="460697" />
	</node>
	<node lat="59.31700277349575" lon="8.051161117083748" id="-27258">
		<tag k="name" v="Plassestøylen" />
		<tag k="place" v="locality" />
		<tag k="ssr:stedsnr" v="291928" />
	</node>
	<node lat="59.32640555517453" lon="7.977469451472684" id="-27259">
		<tag k="name" v="Saupstaul" />
		<tag k="place" v="locality" />
		<tag k="ssr:stedsnr" v="292059" />
	</node>
	<node lat="59.18287499743028" lon="7.944647229684964" id="-27275">
		<tag k="alt_name" v="Festøyl" />
		<tag k="name" v="Fis-støyl" />
		<tag k="old_name" v="Festøl" />
		<tag k="place" v="locality" />
		<tag k="ssr:stedsnr" v="304376" />
	</node>
	<node lat="59.24013055647995" lon="8.101594444093042" id="-27285">
		<tag k="alt_name" v="Geitestad" />
		<tag k="fixme" v="consider place=hamlet" />
		<tag k="name" v="Geitstad" />
		<tag k="place" v="farm" />
		<tag k="ssr:stedsnr" v="305019" />
	</node>
	<node lat="59.004141662300064" lon="7.9483888883079885" id="-27287">
		<tag k="alt_name" v="Grånbudalen" />
		<tag k="historic" v="shieling" />
		<tag k="name" v="Granbudalen" />
		<tag k="place" v="isolated_dwelling" />
		<tag k="ssr:stedsnr" v="305023" />
	</node>
	<node lat="59.01171944215057" lon="7.9975138838046735" id="-27288">
		<tag k="historic" v="shieling" />
		<tag k="name" v="Krokstøyl" />
		<tag k="old_name" v="Krokstøl" />
		<tag k="place" v="isolated_dwelling" />
		<tag k="ssr:stedsnr" v="305025" />
	</node>
	<node lat="59.03195278075594" lon="8.082338881965589" id="-27290">
		<tag k="name" v="Åland" />
		<tag k="place" v="locality" />
		<tag k="ssr:stedsnr" v="305526" />
	</node>
	<node lat="59.15188610699876" lon="7.804827778577342" id="-27291">
		<tag k="name" v="Kilstøyl" />
		<tag k="old_name" v="Kilstøl" />
		<tag k="place" v="locality" />
		<tag k="ssr:stedsnr" v="305411" />
	</node>
	<node lat="59.14242222459455" lon="7.985197220978681" id="-27293">
		<tag k="name" v="Jordfall" />
		<tag k="old_name" v="Jordfoll" />
		<tag k="place" v="farm" />
		<tag k="ssr:stedsnr" v="305434" />
	</node>
	<node lat="59.136766662573045" lon="7.992480558166183" id="-27294">
		<tag k="name" v="Jernberg" />
		<tag k="place" v="farm" />
		<tag k="ssr:stedsnr" v="305435" />
	</node>
	<node lat="59.34396944119066" lon="7.784869452986572" id="-27300">
		<tag k="name" v="Steastøyl" />
		<tag k="old_name" v="Steastøl" />
		<tag k="place" v="locality" />
		<tag k="ssr:stedsnr" v="305978" />
	</node>
	<node lat="59.30627222424289" lon="7.999572214152761" id="-27302">
		<tag k="alt_name" v="Øvre Liene" />
		<tag k="name" v="Øverliene" />
		<tag k="place" v="isolated_dwelling" />
		<tag k="ssr:stedsnr" v="306958" />
	</node>
	<node lat="59.07133055437747" lon="8.338358341689498" id="-27305">
		<tag k="name" v="Siplestøyl" />
		<tag k="place" v="locality" />
		<tag k="ssr:stedsnr" v="469047" />
	</node>
	<node lat="59.01633333534348" lon="7.918475008581678" id="-27311">
		<tag k="alt_name" v="Storli" />
		<tag k="name" v="Storeli" />
		<tag k="place" v="locality" />
		<tag k="ssr:stedsnr" v="330483" />
	</node>
	<node lat="59.29157221840222" lon="8.112444439329794" id="-27324">
		<tag k="alt_name" v="Søndre Veum" />
		<tag k="fixme" v="consider place=hamlet" />
		<tag k="name" v="Veum sørigard" />
		<tag k="place" v="farm" />
		<tag k="ssr:stedsnr" v="472225" />
	</node>
	<node lat="59.006713891813845" lon="8.281791674652084" id="-27330">
		<tag k="name" v="Berg" />
		<tag k="place" v="isolated_dwelling" />
		<tag k="ssr:stedsnr" v="471656" />
	</node>
	<node lat="59.20864166981554" lon="8.08622499742746" id="-27334">
		<tag k="name" v="Furuheim" />
		<tag k="place" v="isolated_dwelling" />
		<tag k="ssr:stedsnr" v="337515" />
	</node>
	<node lat="59.1924333293675" lon="8.100472220101228" id="-27335">
		<tag k="name" v="Kåsegrend" />
		<tag k="place" v="hamlet" />
		<tag k="ssr:stedsnr" v="337805" />
	</node>
	<node lat="59.24526666943199" lon="7.754488887089536" id="-27347">
		<tag k="name" v="Lortebergkroa" />
		<tag k="place" v="locality" />
		<tag k="ssr:stedsnr" v="339107" />
	</node>
	<node lat="59.19946944091026" lon="8.00578888737604" id="-27357">
		<tag k="name" v="Listøyl" />
		<tag k="place" v="locality" />
		<tag k="ssr:stedsnr" v="339545" />
	</node>
	<node lat="59.05300555443146" lon="8.331013889660904" id="-27369">
		<tag k="name" v="Kroktjønnstøylen" />
		<tag k="place" v="locality" />
		<tag k="ssr:stedsnr" v="472488" />
	</node>
	<node lat="59.09979166690457" lon="8.23025278458623" id="-27370">
		<tag k="name" v="Brautstøyl" />
		<tag k="place" v="locality" />
		<tag k="ssr:stedsnr" v="472582" />
	</node>
	<node lat="59.26806666293685" lon="7.897122226013474" id="-27396">
		<tag k="historic" v="shieling" />
		<tag k="name" v="Fosstjønn" />
		<tag k="place" v="isolated_dwelling" />
		<tag k="ssr:stedsnr" v="473650" />
	</node>
	<node lat="59.32663888671157" lon="8.144708325025386" id="-27399">
		<tag k="name" v="Øvre Haugan" />
		<tag k="place" v="farm" />
		<tag k="ssr:stedsnr" v="473880" />
	</node>
	<node lat="59.13167499879193" lon="8.221705561912495" id="-27404">
		<tag k="name" v="Teigen" />
		<tag k="place" v="locality" />
		<tag k="ssr:stedsnr" v="350576" />
	</node>
	<node lat="59.308947224990185" lon="8.131633336826317" id="-27409">
		<tag k="name" v="Bjåland søndre" />
		<tag k="place" v="farm" />
		<tag k="ssr:stedsnr" v="351110" />
	</node>
	<node lat="59.06163055422786" lon="7.9747277747716705" id="-27416">
		<tag k="name" v="Espeli" />
		<tag k="place" v="locality" />
		<tag k="ssr:stedsnr" v="474181" />
	</node>
	<node lat="59.17459166439798" lon="8.08969166494181" id="-27432">
		<tag k="name" v="Kåsa søndre" />
		<tag k="place" v="farm" />
		<tag k="ssr:stedsnr" v="351807" />
	</node>
	<node lat="59.17633611361718" lon="8.087927784411193" id="-27433">
		<tag k="name" v="Segtun" />
		<tag k="place" v="isolated_dwelling" />
		<tag k="ssr:stedsnr" v="351809" />
	</node>
	<node lat="59.291991666779246" lon="7.989536119873533" id="-27436">
		<tag k="name" v="Songedal burtistog" />
		<tag k="place" v="farm" />
		<tag k="ssr:stedsnr" v="474267" />
	</node>
	<node lat="59.08543055434259" lon="8.126833338517551" id="-27437">
		<tag k="name" v="Mjåvasstøylen" />
		<tag k="place" v="locality" />
		<tag k="ssr:stedsnr" v="351753" />
	</node>
	<node lat="59.33025277957959" lon="8.07179444307261" id="-27438">
		<tag k="name" v="Nystøyl" />
		<tag k="place" v="locality" />
		<tag k="ssr:stedsnr" v="351904" />
	</node>
	<node lat="59.28931666957895" lon="7.998252773357206" id="-27443">
		<tag k="name" v="Nedrebø" />
		<tag k="place" v="farm" />
		<tag k="ssr:stedsnr" v="352210" />
	</node>
	<node lat="59.340663891338195" lon="7.9068277714267134" id="-27456">
		<tag k="name" v="Nystøyl" />
		<tag k="place" v="locality" />
		<tag k="ssr:stedsnr" v="474375" />
	</node>
	<node lat="59.344688884811404" lon="7.870441672000735" id="-27465">
		<tag k="name" v="Borgedalen" />
		<tag k="place" v="locality" />
		<tag k="ssr:stedsnr" v="474987" />
	</node>
	<node lat="59.24883332906144" lon="7.907047225882719" id="-27469">
		<tag k="fixme" v="consider place=hamlet" />
		<tag k="name" v="Bergland" />
		<tag k="place" v="farm" />
		<tag k="ssr:stedsnr" v="365308" />
	</node>
	<node lat="59.0465555589788" lon="8.110044441182492" id="-27472">
		<tag k="historic" v="shieling" />
		<tag k="name" v="Kongsberg" />
		<tag k="place" v="isolated_dwelling" />
		<tag k="ssr:stedsnr" v="365247" />
	</node>
	<node lat="59.16909722620069" lon="7.953094450479118" id="-27476">
		<tag k="name" v="Nordheim" />
		<tag k="place" v="farm" />
		<tag k="ssr:stedsnr" v="365399" />
	</node>
	<node lat="59.053427778587185" lon="8.039708339231924" id="-27479">
		<tag k="alt_name" v="Selbergstøylen" />
		<tag k="name" v="Selbergmyr" />
		<tag k="place" v="isolated_dwelling" />
		<tag k="ssr:stedsnr" v="365494" />
	</node>
	<node lat="59.23843333749668" lon="8.051955554618328" id="-27495">
		<tag k="name" v="Rindeplassen" />
		<tag k="place" v="locality" />
		<tag k="ssr:stedsnr" v="397092" />
	</node>
	<node lat="59.22485833253859" lon="8.100549999365654" id="-27498">
		<tag k="name" v="Lundetoa" />
		<tag k="place" v="locality" />
		<tag k="ssr:stedsnr" v="397593" />
	</node>
	<node lat="59.191894448187305" lon="8.08758055718214" id="-27499">
		<tag k="name" v="Dølen" />
		<tag k="place" v="isolated_dwelling" />
		<tag k="ssr:stedsnr" v="397830" />
	</node>
	<node lat="59.246705553219364" lon="7.903247217233601" id="-27505">
		<tag k="name" v="Tuftine" />
		<tag k="place" v="locality" />
		<tag k="ssr:stedsnr" v="399187" />
	</node>
	<node lat="59.20191944112784" lon="7.75845832971349" id="-27507">
		<tag k="name" v="Rakkestøyl" />
		<tag k="place" v="locality" />
		<tag k="ssr:stedsnr" v="399306" />
	</node>
	<node lat="59.203844445139445" lon="7.821802777901699" id="-27508">
		<tag k="name" v="Nystøyl" />
		<tag k="place" v="locality" />
		<tag k="ssr:stedsnr" v="399328" />
	</node>
	<node lat="59.25623333237564" lon="7.858061117011413" id="-27512">
		<tag k="name" v="Skarstøyl" />
		<tag k="place" v="locality" />
		<tag k="ssr:stedsnr" v="399606" />
	</node>
	<node lat="59.19506389109444" lon="8.000219441050751" id="-27514">
		<tag k="name" v="Brattstøyl" />
		<tag k="place" v="locality" />
		<tag k="ssr:stedsnr" v="399587" />
	</node>
	<node lat="59.2479277761509" lon="8.093491669534231" id="-27519">
		<tag k="name" v="Grythe søndre" />
		<tag k="place" v="farm" />
		<tag k="ssr:stedsnr" v="484843" />
	</node>
	<node lat="59.18874444287784" lon="7.946966669078913" id="-27520">
		<tag k="name" v="Midtstøyl" />
		<tag k="place" v="locality" />
		<tag k="ssr:stedsnr" v="399682" />
	</node>
	<node lat="59.242524997309495" lon="7.936074993094816" id="-27523">
		<tag k="name" v="Metveit, uppigard" />
		<tag k="place" v="farm" />
		<tag k="ssr:stedsnr" v="399997" />
	</node>
	<node lat="59.19546111076566" lon="7.953100005617754" id="-27532">
		<tag k="name" v="Grimhombui" />
		<tag k="place" v="isolated_dwelling" />
		<tag k="ssr:stedsnr" v="486370" />
	</node>
	<node lat="59.24779721835108" lon="8.039902772725855" id="-27533">
		<tag k="name" v="Rinden" />
		<tag k="place" v="farm" />
		<tag k="ssr:stedsnr" v="486321" />
	</node>
	<node lat="59.242725002093266" lon="8.035388887709185" id="-27534">
		<tag k="alt_name" v="Holir" />
		<tag k="fixme" v="consider place=hamlet" />
		<tag k="name" v="Holer" />
		<tag k="old_name" v="Høler" />
		<tag k="place" v="farm" />
		<tag k="ssr:stedsnr" v="486342" />
	</node>
	<node lat="59.24346111433859" lon="7.863897230645461" id="-27536">
		<tag k="name" v="Skåltjørn" />
		<tag k="place" v="isolated_dwelling" />
		<tag k="ssr:stedsnr" v="486346" />
	</node>
	<node lat="59.23735555559157" lon="7.938963890348573" id="-27540">
		<tag k="fixme" v="consider place=hamlet" />
		<tag k="name" v="Landsverk" />
		<tag k="place" v="farm" />
		<tag k="ssr:stedsnr" v="486350" />
	</node>
	<node lat="59.06227500014233" lon="8.343322218754816" id="-27541">
		<tag k="name" v="Nesbu" />
		<tag k="place" v="isolated_dwelling" />
		<tag k="ssr:stedsnr" v="408111" />
	</node>
	<node lat="59.21270555577164" lon="8.096658340074674" id="-27548">
		<tag k="fixme" v="consider place=hamlet" />
		<tag k="name" v="Greivstad" />
		<tag k="place" v="farm" />
		<tag k="ssr:stedsnr" v="487041" />
	</node>
	<node lat="59.25717499622161" lon="8.318583333036734" id="-27555">
		<tag k="alt_name" v="Raudhellstøylen, heimre" />
		<tag k="name" v="Heimre Raudhellstøylen" />
		<tag k="place" v="locality" />
		<tag k="ssr:stedsnr" v="487185" />
	</node>
	<node lat="59.304216665386335" lon="8.096822222615101" id="-27559">
		<tag k="name" v="Ligrend" />
		<tag k="place" v="hamlet" />
		<tag k="ssr:stedsnr" v="487137" />
	</node>
	<node lat="59.1314666695479" lon="8.126686106047304" id="-27560">
		<tag k="fixme" v="consider place=hamlet" />
		<tag k="name" v="Momrak" />
		<tag k="place" v="farm" />
		<tag k="ssr:stedsnr" v="487141" />
	</node>
	<node lat="59.12902777988882" lon="8.217463887348568" id="-27562">
		<tag k="name" v="Vindåsen" />
		<tag k="place" v="isolated_dwelling" />
		<tag k="ssr:stedsnr" v="487148" />
	</node>
	<node lat="59.0094861129382" lon="8.258338883154577" id="-27569">
		<tag k="name" v="Bakken" />
		<tag k="place" v="farm" />
		<tag k="ssr:stedsnr" v="411191" />
	</node>
	<node lat="59.23588611295091" lon="8.074702775891689" id="-27571">
		<tag k="name" v="Lauvås" />
		<tag k="place" v="farm" />
		<tag k="ssr:stedsnr" v="487359" />
	</node>
	<node lat="59.20461944197592" lon="7.947513894863666" id="-27572">
		<tag k="historic" v="shieling" />
		<tag k="name" v="Dydding" />
		<tag k="place" v="isolated_dwelling" />
		<tag k="ssr:stedsnr" v="487360" />
	</node>
	<node lat="58.98832777349218" lon="7.9543694429346985" id="-27589">
		<tag k="historic" v="shieling" />
		<tag k="name" v="Øytjønnåsen" />
		<tag k="place" v="isolated_dwelling" />
		<tag k="ssr:stedsnr" v="412295" />
	</node>
	<node lat="59.12886944165859" lon="8.12676388765162" id="-27592">
		<tag k="name" v="Sundbø" />
		<tag k="place" v="isolated_dwelling" />
		<tag k="ssr:stedsnr" v="412549" />
	</node>
	<node lat="59.197347220999255" lon="8.175886112474798" id="-27600">
		<tag k="name" v="Grasstøyl" />
		<tag k="place" v="locality" />
		<tag k="ssr:stedsnr" v="412442" />
	</node>
	<node lat="59.04672778127009" lon="8.3469500003997" id="-27601">
		<tag k="name" v="Nystøyl" />
		<tag k="place" v="locality" />
		<tag k="ssr:stedsnr" v="412454" />
	</node>
	<node lat="59.33257499995503" lon="7.921894443175831" id="-27615">
		<tag k="name" v="Sellibo" />
		<tag k="place" v="locality" />
		<tag k="ssr:stedsnr" v="413592" />
	</node>
	<node lat="59.28568889265092" lon="8.101386104474846" id="-27618">
		<tag k="name" v="Steivoll" />
		<tag k="place" v="isolated_dwelling" />
		<tag k="ssr:stedsnr" v="413796" />
	</node>
	<node lat="59.32099166747283" lon="7.883613896223519" id="-27622">
		<tag k="historic" v="shieling" />
		<tag k="name" v="Slystøyl" />
		<tag k="old_name" v="Slystøl" />
		<tag k="place" v="isolated_dwelling" />
		<tag k="ssr:stedsnr" v="487941" />
	</node>
	<node lat="59.31878889126399" lon="7.867375002107075" id="-27623">
		<tag k="name" v="Løyning" />
		<tag k="place" v="locality" />
		<tag k="ssr:stedsnr" v="487943" />
	</node>
	<node lat="59.31035278185692" lon="7.736655556485723" id="-27624">
		<tag k="historic" v="shieling" />
		<tag k="name" v="Fagerdalsstøylen" />
		<tag k="old_name" v="Fagerdalsstøl" />
		<tag k="place" v="isolated_dwelling" />
		<tag k="ssr:stedsnr" v="487947" />
	</node>
	<node lat="59.02037777555407" lon="8.259050008514462" id="-27626">
		<tag k="name" v="Jørundland" />
		<tag k="place" v="farm" />
		<tag k="ssr:stedsnr" v="487980" />
	</node>
	<node lat="59.00861388999581" lon="8.275338882437257" id="-27628">
		<tag k="name" v="Lunde" />
		<tag k="place" v="isolated_dwelling" />
		<tag k="ssr:stedsnr" v="487995" />
	</node>
	<node lat="59.28207499886887" lon="8.035174998223395" id="-27631">
		<tag k="name" v="Ravndalen" />
		<tag k="old_name" v="Ramndalen" />
		<tag k="place" v="farm" />
		<tag k="ssr:stedsnr" v="488907" />
	</node>
	<node lat="59.28740277800006" lon="8.041180562694302" id="-27632">
		<tag k="name" v="Storli" />
		<tag k="place" v="isolated_dwelling" />
		<tag k="ssr:stedsnr" v="488908" />
	</node>
	<node lat="59.26330000279077" lon="7.938958335110152" id="-27633">
		<tag k="name" v="Lomstjørn" />
		<tag k="place" v="locality" />
		<tag k="ssr:stedsnr" v="488927" />
	</node>
	<node lat="59.24202499879365" lon="7.976869435757154" id="-27640">
		<tag k="name" v="Ekrune" />
		<tag k="old_name" v="Ekrene" />
		<tag k="place" v="locality" />
		<tag k="ssr:stedsnr" v="426307" />
	</node>
	<node lat="59.23876111135958" lon="7.93794165857535" id="-27641">
		<tag k="name" v="Medtveit" />
		<tag k="place" v="farm" />
		<tag k="ssr:stedsnr" v="426318" />
	</node>
	<node lat="59.14360833481627" lon="8.040194436174106" id="-27647">
		<tag k="name" v="Fardal" />
		<tag k="place" v="hamlet" />
		<tag k="ssr:stedsnr" v="426387" />
	</node>
	<node lat="59.15183888949098" lon="8.292686109350377" id="-27650">
		<tag k="alt_name" v="Strånd" />
		<tag k="name" v="Strond" />
		<tag k="place" v="isolated_dwelling" />
		<tag k="ssr:stedsnr" v="427112" />
	</node>
	<node lat="59.31174999817235" lon="8.134125004991196" id="-27655">
		<tag k="name" v="Onstad" />
		<tag k="place" v="farm" />
		<tag k="ssr:stedsnr" v="427186" />
	</node>
	<node lat="59.20528055198615" lon="7.759288892942748" id="-27658">
		<tag k="name" v="Torsdalen" />
		<tag k="place" v="locality" />
		<tag k="ssr:stedsnr" v="427384" />
	</node>
	<node lat="59.201144440680736" lon="7.867316667603543" id="-27659">
		<tag k="alt_name" v="Geitsmyrane" />
		<tag k="historic" v="shieling" />
		<tag k="name" v="Geismyrane" />
		<tag k="old_name" v="Geismyr" />
		<tag k="place" v="isolated_dwelling" />
		<tag k="ssr:stedsnr" v="427390" />
	</node>
	<node lat="59.28550833129767" lon="7.841291666720274" id="-27661">
		<tag k="name" v="Teigen" />
		<tag k="place" v="isolated_dwelling" />
		<tag k="ssr:stedsnr" v="427902" />
	</node>
	<node lat="59.27255962887386" lon="7.981612815441242" id="-27663">
		<tag k="name" v="Fitilen" />
		<tag k="place" v="locality" />
		<tag k="ssr:stedsnr" v="427905" />
	</node>
	<node lat="59.30050555276137" lon="7.916347221230325" id="-27667">
		<tag k="fixme" v="consider place=hamlet" />
		<tag k="name" v="Skåli" />
		<tag k="place" v="farm" />
		<tag k="ssr:stedsnr" v="670961" />
	</node>
	<node lat="59.29241388743247" lon="7.884900000674831" id="-27668">
		<tag k="name" v="Sollistøylen" />
		<tag k="old_name" v="Sollistøl" />
		<tag k="place" v="locality" />
		<tag k="ssr:stedsnr" v="670967" />
	</node>
	<node lat="59.11259444020937" lon="8.218305563656248" id="-27672">
		<tag k="name" v="Kvitjønnstøylen" />
		<tag k="place" v="locality" />
		<tag k="ssr:stedsnr" v="453566" />
	</node>
	<node lat="59.11290277725297" lon="8.235236108630529" id="-27673">
		<tag k="name" v="Grotstøyl" />
		<tag k="place" v="locality" />
		<tag k="ssr:stedsnr" v="453567" />
	</node>
	<node lat="59.245619442059045" lon="8.08698610719062" id="-27675">
		<tag k="name" v="Brokka" />
		<tag k="place" v="locality" />
		<tag k="ssr:stedsnr" v="458513" />
	</node>
	<node lat="59.249208335906474" lon="8.098433333638454" id="-27676">
		<tag k="name" v="Øverket" />
		<tag k="place" v="locality" />
		<tag k="ssr:stedsnr" v="458514" />
	</node>
	<node lat="59.23317222534355" lon="7.994777783998334" id="-27682">
		<tag k="name" v="Fantehola" />
		<tag k="place" v="locality" />
		<tag k="ssr:stedsnr" v="459308" />
	</node>
	<node lat="59.14424999610733" lon="7.983761105843792" id="-27694">
		<tag k="name" v="Bergtun" />
		<tag k="place" v="farm" />
		<tag k="ssr:stedsnr" v="460619" />
	</node>
	<node lat="59.24389167013713" lon="8.301186102601466" id="-27699">
		<tag k="name" v="Granhomen" />
		<tag k="place" v="locality" />
		<tag k="ssr:stedsnr" v="460709" />
	</node>
	<node lat="59.19138889025874" lon="7.942822220400465" id="-27701">
		<tag k="historic" v="shieling" />
		<tag k="name" v="Nørstestøyl" />
		<tag k="place" v="isolated_dwelling" />
		<tag k="ssr:stedsnr" v="460723" />
	</node>
	<node lat="59.08870833543306" lon="8.240927783945777" id="-27707">
		<tag k="name" v="Valebu" />
		<tag k="place" v="isolated_dwelling" />
		<tag k="ssr:stedsnr" v="471560" />
	</node>
	<node lat="59.12548055123378" lon="8.129077785491926" id="-27717">
		<tag k="name" v="Fiskeodden" />
		<tag k="place" v="isolated_dwelling" />
		<tag k="ssr:stedsnr" v="472579" />
	</node>
	<node lat="59.30851944192134" lon="8.082936112828227" id="-27718">
		<tag k="name" v="Luffendal" />
		<tag k="place" v="locality" />
		<tag k="ssr:stedsnr" v="472713" />
	</node>
	<node lat="59.02013888775005" lon="8.117424993893327" id="-27720">
		<tag k="name" v="Nystøyl" />
		<tag k="place" v="locality" />
		<tag k="ssr:stedsnr" v="472813" />
	</node>
	<node lat="59.04074722329814" lon="8.282574995063124" id="-27725">
		<tag k="name" v="Kleivstøyl" />
		<tag k="place" v="locality" />
		<tag k="ssr:stedsnr" v="472873" />
	</node>
	<node lat="59.055391667918514" lon="8.257066664628454" id="-27731">
		<tag k="name" v="Brokke" />
		<tag k="place" v="locality" />
		<tag k="ssr:stedsnr" v="472969" />
	</node>
	<node lat="59.169575002545955" lon="8.156230561101946" id="-27732">
		<tag k="name" v="Åsbu" />
		<tag k="place" v="locality" />
		<tag k="ssr:stedsnr" v="472980" />
	</node>
	<node lat="59.072699998549" lon="8.255974998877491" id="-27740">
		<tag k="name" v="Lauvvik" />
		<tag k="place" v="isolated_dwelling" />
		<tag k="ssr:stedsnr" v="486207" />
	</node>
	<node lat="59.16524722660398" lon="7.857883339170768" id="-27742">
		<tag k="name" v="Løyning" />
		<tag k="place" v="isolated_dwelling" />
		<tag k="ssr:stedsnr" v="486402" />
	</node>
	<node lat="59.16708333106545" lon="7.73598610988311" id="-27743">
		<tag k="fixme" v="consider tourism=alpine_hut or tourism=chalet" />
		<tag k="name" v="Nystøyl" />
		<tag k="old_name" v="Nystøl" />
		<tag k="ssr:stedsnr" v="486403" />
		<tag k="tourism" v="wilderness_hut" />
	</node>
	<node lat="59.15574166751501" lon="8.084761113315167" id="-27745">
		<tag k="fixme" v="consider place=hamlet" />
		<tag k="name" v="Nesland" />
		<tag k="place" v="farm" />
		<tag k="ssr:stedsnr" v="486414" />
	</node>
	<node lat="59.01414722574997" lon="7.982530552909754" id="-27751">
		<tag k="historic" v="shieling" />
		<tag k="name" v="Fjalebu" />
		<tag k="place" v="isolated_dwelling" />
		<tag k="ssr:stedsnr" v="487021" />
	</node>
	<node lat="59.22741111186159" lon="8.059455552384408" id="-27756">
		<tag k="alt_name" v="Tåråldli;Taraldlien" />
		<tag k="fixme" v="consider place=hamlet" />
		<tag k="name" v="Taraldli" />
		<tag k="place" v="farm" />
		<tag k="ssr:stedsnr" v="487357" />
	</node>
	<node lat="59.23242499879497" lon="8.088030553350935" id="-27757">
		<tag k="alt_name" v="Haugen nedre" />
		<tag k="fixme" v="consider place=hamlet" />
		<tag k="name" v="Haugen" />
		<tag k="place" v="farm" />
		<tag k="ssr:stedsnr" v="487358" />
	</node>
	<node lat="59.08228055880891" lon="8.236724995605153" id="-27759">
		<tag k="name" v="Skomdal" />
		<tag k="place" v="farm" />
		<tag k="ssr:stedsnr" v="487206" />
	</node>
	<node lat="59.08447500066954" lon="7.924277782569768" id="-27761">
		<tag k="historic" v="shieling" />
		<tag k="name" v="Nuten" />
		<tag k="place" v="isolated_dwelling" />
		<tag k="ssr:stedsnr" v="487480" />
	</node>
	<node lat="59.30385000244999" lon="7.947375000103198" id="-27762">
		<tag k="name" v="Blikar" />
		<tag k="place" v="isolated_dwelling" />
		<tag k="ssr:stedsnr" v="487956" />
	</node>
	<node lat="59.24385555211314" lon="7.931650000305523" id="-27771">
		<tag k="fixme" v="consider place=hamlet" />
		<tag k="name" v="Kleivgrend" />
		<tag k="place" v="village" />
		<tag k="ssr:stedsnr" v="513030" />
	</node>
	<node lat="59.20305277581786" lon="8.108538884773274" id="-27781">
		<tag k="name" v="Vadli søndre" />
		<tag k="place" v="farm" />
		<tag k="ssr:stedsnr" v="519209" />
	</node>
	<node lat="59.23304444350768" lon="8.124986112847635" id="-27782">
		<tag k="historic" v="shieling" />
		<tag k="name" v="Knutsbu" />
		<tag k="place" v="isolated_dwelling" />
		<tag k="ssr:stedsnr" v="519323" />
	</node>
	<node lat="59.20968333483037" lon="8.087108334415518" id="-27783">
		<tag k="historic" v="shieling" />
		<tag k="name" v="Modøl" />
		<tag k="place" v="isolated_dwelling" />
		<tag k="ssr:stedsnr" v="519510" />
	</node>
	<node lat="59.232183332916875" lon="8.011938894561382" id="-27788">
		<tag k="name" v="Kåsa nord" />
		<tag k="place" v="farm" />
		<tag k="ssr:stedsnr" v="520303" />
	</node>
	<node lat="59.281455559041625" lon="7.747569447375574" id="-27791">
		<tag k="name" v="Gilbergdalsstøylen" />
		<tag k="place" v="locality" />
		<tag k="ssr:stedsnr" v="520421" />
	</node>
	<node lat="59.24741111536377" lon="8.233424998784185" id="-27792">
		<tag k="name" v="Foldsæ" />
		<tag k="place" v="locality" />
		<tag k="ssr:stedsnr" v="521003" />
	</node>
	<node lat="59.18868055900351" lon="8.019119436179041" id="-27801">
		<tag k="name" v="Gausvatn hyttefelt" />
		<tag k="place" v="neighbourhood" />
		<tag k="ssr:stedsnr" v="521573" />
	</node>
	<node lat="59.25418888541274" lon="8.160494445860914" id="-27819">
		<tag k="name" v="Harto" />
		<tag k="place" v="locality" />
		<tag k="ssr:stedsnr" v="533209" />
	</node>
	<node lat="59.03991388464732" lon="8.35256666795245" id="-27829">
		<tag k="name" v="Krossvasshytta" />
		<tag k="place" v="isolated_dwelling" />
		<tag k="ssr:stedsnr" v="533519" />
	</node>
	<node lat="59.339486107770504" lon="8.063661117644136" id="-27834">
		<tag k="name" v="Fjøllstøyl" />
		<tag k="place" v="locality" />
		<tag k="ssr:stedsnr" v="533917" />
	</node>
	<node lat="59.29057222569445" lon="8.060513883274247" id="-27838">
		<tag k="name" v="Skari" />
		<tag k="place" v="locality" />
		<tag k="ssr:stedsnr" v="534777" />
	</node>
	<node lat="59.33454444161403" lon="7.967547229788737" id="-27842">
		<tag k="name" v="Nystøyl" />
		<tag k="place" v="locality" />
		<tag k="ssr:stedsnr" v="535073" />
	</node>
	<node lat="59.2422472218515" lon="8.266619444727054" id="-27851">
		<tag k="alt_name" v="Sveigstøl" />
		<tag k="historic" v="shieling" />
		<tag k="name" v="Sveigstøyl" />
		<tag k="place" v="isolated_dwelling" />
		<tag k="ssr:stedsnr" v="547018" />
	</node>
	<node lat="59.00611667020831" lon="8.0362027814814" id="-27853">
		<tag k="alt_name" v="Kleivland" />
		<tag k="name" v="Kleivi" />
		<tag k="place" v="isolated_dwelling" />
		<tag k="ssr:stedsnr" v="547028" />
	</node>
	<node lat="59.23299999847996" lon="7.948777772989504" id="-27859">
		<tag k="name" v="Nygard" />
		<tag k="place" v="isolated_dwelling" />
		<tag k="ssr:stedsnr" v="547368" />
	</node>
	<node lat="59.21779166715988" lon="7.85305278513678" id="-27877">
		<tag k="historic" v="shieling" />
		<tag k="name" v="Varmekro" />
		<tag k="place" v="isolated_dwelling" />
		<tag k="ssr:stedsnr" v="548356" />
	</node>
	<node lat="59.28743333619638" lon="7.732736119609412" id="-27882">
		<tag k="historic" v="shieling" />
		<tag k="name" v="Torfonnstøylen" />
		<tag k="old_name" v="Torfonnstøl" />
		<tag k="place" v="isolated_dwelling" />
		<tag k="ssr:stedsnr" v="548958" />
	</node>
	<node lat="59.343550509140854" lon="7.87867800851257" id="-27884">
		<tag k="name" v="Stavsli" />
		<tag k="place" v="locality" />
		<tag k="ssr:stedsnr" v="548974" />
	</node>
	<node lat="59.16711667021196" lon="7.9571250034412895" id="-27890">
		<tag k="alt_name" v="Lie" />
		<tag k="name" v="Lia" />
		<tag k="place" v="farm" />
		<tag k="ssr:stedsnr" v="573418" />
	</node>
	<node lat="59.059099998409515" lon="7.96695277645281" id="-27896">
		<tag k="alt_name" v="Kili" />
		<tag k="fixme" v="consider place=hamlet" />
		<tag k="name" v="Kile" />
		<tag k="place" v="farm" />
		<tag k="ssr:stedsnr" v="695061" />
	</node>
	<node lat="59.21665555719271" lon="8.135880560732964" id="-27898">
		<tag k="historic" v="shieling" />
		<tag k="name" v="Lagjikøsstøylen" />
		<tag k="place" v="isolated_dwelling" />
		<tag k="ssr:stedsnr" v="579051" />
	</node>
	<node lat="59.18632222288628" lon="8.105125001419802" id="-27899">
		<tag k="name" v="Undedal" />
		<tag k="place" v="isolated_dwelling" />
		<tag k="ssr:stedsnr" v="579244" />
	</node>
	<node lat="59.24379721937852" lon="7.970105556429016" id="-27902">
		<tag k="name" v="Ækrune" />
		<tag k="place" v="locality" />
		<tag k="ssr:stedsnr" v="579600" />
	</node>
	<node lat="59.24013055186368" lon="8.042372219653304" id="-27904">
		<tag k="name" v="Stubbsjord" />
		<tag k="place" v="locality" />
		<tag k="ssr:stedsnr" v="580248" />
	</node>
	<node lat="59.26491388788572" lon="7.879847223329015" id="-27911">
		<tag k="name" v="Heddi" />
		<tag k="place" v="isolated_dwelling" />
		<tag k="ssr:stedsnr" v="695395" />
	</node>
	<node lat="59.23808333108603" lon="8.268419439607495" id="-27916">
		<tag k="historic" v="shieling" />
		<tag k="name" v="Matnapp" />
		<tag k="place" v="isolated_dwelling" />
		<tag k="ssr:stedsnr" v="581007" />
	</node>
	<node lat="59.243450001827604" lon="7.906413883111299" id="-27918">
		<tag k="name" v="Lisle Bondal" />
		<tag k="place" v="locality" />
		<tag k="ssr:stedsnr" v="581192" />
	</node>
	<node lat="59.294786113381605" lon="7.723941673024468" id="-27920">
		<tag k="name" v="Brårvasshytta" />
		<tag k="place" v="isolated_dwelling" />
		<tag k="ssr:stedsnr" v="581349" />
	</node>
	<node lat="59.191686109981084" lon="7.9992250052627245" id="-27923">
		<tag k="historic" v="shieling" />
		<tag k="name" v="Gausvasstøylen" />
		<tag k="place" v="isolated_dwelling" />
		<tag k="ssr:stedsnr" v="581602" />
	</node>
	<node lat="59.15556944787522" lon="7.883599997928849" id="-27926">
		<tag k="historic" v="shieling" />
		<tag k="name" v="Nørstebu" />
		<tag k="place" v="isolated_dwelling" />
		<tag k="ssr:stedsnr" v="581639" />
	</node>
	<node lat="59.13355555490126" lon="7.894944437211467" id="-27927">
		<tag k="historic" v="shieling" />
		<tag k="name" v="Klinkenberg" />
		<tag k="place" v="isolated_dwelling" />
		<tag k="ssr:stedsnr" v="581712" />
	</node>
	<node lat="59.13776066948682" lon="8.153001112012571" id="-27947">
		<tag k="name" v="Brattebrokk" />
		<tag k="place" v="locality" />
		<tag k="ssr:stedsnr" v="594613" />
	</node>
	<node lat="59.24004444054676" lon="8.215833337623929" id="-27950">
		<tag k="name" v="Sagstoga" />
		<tag k="place" v="isolated_dwelling" />
		<tag k="ssr:stedsnr" v="594817" />
	</node>
	<node lat="59.32603333545888" lon="8.142288893864592" id="-27957">
		<tag k="name" v="Nedre Haugan" />
		<tag k="place" v="farm" />
		<tag k="ssr:stedsnr" v="594862" />
	</node>
	<node lat="59.29978889290945" lon="7.910969449523139" id="-27958">
		<tag k="name" v="Skåli uppigard" />
		<tag k="place" v="farm" />
		<tag k="ssr:stedsnr" v="595013" />
	</node>
	<node lat="59.33061944317149" lon="7.964099994669624" id="-27959">
		<tag k="name" v="Tverrli" />
		<tag k="place" v="locality" />
		<tag k="ssr:stedsnr" v="595065" />
	</node>
	<node lat="59.27407221806596" lon="7.98907777997631" id="-27965">
		<tag k="name" v="Lyslistøylen" />
		<tag k="place" v="locality" />
		<tag k="ssr:stedsnr" v="595299" />
	</node>
	<node lat="59.03695555795818" lon="8.014230548370623" id="-27970">
		<tag k="historic" v="shieling" />
		<tag k="name" v="Gamlestøyl" />
		<tag k="place" v="isolated_dwelling" />
		<tag k="ssr:stedsnr" v="595910" />
	</node>
	<node lat="59.205261108040105" lon="8.168827769514278" id="-27973">
		<tag k="alt_name" v="Bjåstøyl" />
		<tag k="name" v="Bjåstøl" />
		<tag k="place" v="isolated_dwelling" />
		<tag k="ssr:stedsnr" v="607047" />
	</node>
	<node lat="59.069699998678" lon="8.166030559533777" id="-27974">
		<tag k="alt_name" v="Gjevesto" />
		<tag k="name" v="Gjævestø" />
		<tag k="place" v="isolated_dwelling" />
		<tag k="ssr:stedsnr" v="607220" />
	</node>
	<node lat="59.17716388855869" lon="8.091713886406021" id="-27978">
		<tag k="fixme" v="consider place=hamlet" />
		<tag k="name" v="Lofthus" />
		<tag k="place" v="farm" />
		<tag k="ssr:stedsnr" v="607396" />
	</node>
	<node lat="59.162455558023076" lon="7.958633338895876" id="-27993">
		<tag k="name" v="Storrud" />
		<tag k="place" v="farm" />
		<tag k="ssr:stedsnr" v="608404" />
	</node>
	<node lat="59.15878055627172" lon="7.8236500005465155" id="-27994">
		<tag k="name" v="Geitsund" />
		<tag k="place" v="isolated_dwelling" />
		<tag k="ssr:stedsnr" v="608408" />
	</node>
	<node lat="59.121024997827995" lon="8.070802770395089" id="-27995">
		<tag k="name" v="Svivet" />
		<tag k="place" v="farm" />
		<tag k="ssr:stedsnr" v="608442" />
	</node>
	<node lat="59.14176944723482" lon="8.042124999401548" id="-27996">
		<tag k="fixme" v="consider place=hamlet" />
		<tag k="name" v="Tveit" />
		<tag k="place" v="farm" />
		<tag k="ssr:stedsnr" v="608412" />
	</node>
	<node lat="59.221599999421976" lon="8.02865555594313" id="-27997">
		<tag k="historic" v="shieling" />
		<tag k="name" v="Bjåstøyl" />
		<tag k="old_name" v="Bjåstøl" />
		<tag k="place" v="isolated_dwelling" />
		<tag k="ssr:stedsnr" v="608339" />
	</node>
	<node lat="59.20824444253184" lon="8.089905561164977" id="-27999">
		<tag k="name" v="Skoglund" />
		<tag k="place" v="locality" />
		<tag k="ssr:stedsnr" v="608352" />
	</node>
	<node lat="59.04380833633111" lon="7.88706944781125" id="-28000">
		<tag k="alt_name" v="Nordre Grøssæ" />
		<tag k="name" v="Nørdre Grøssæ" />
		<tag k="old_name" v="Grøssæ, nordre" />
		<tag k="place" v="isolated_dwelling" />
		<tag k="ssr:stedsnr" v="608507" />
	</node>
	<node lat="59.27500000288536" lon="7.79809999566723" id="-28006">
		<tag k="alt_name" v="Strond" />
		<tag k="name" v="Strånd" />
		<tag k="old_name" v="Strand" />
		<tag k="place" v="farm" />
		<tag k="ssr:stedsnr" v="609920" />
	</node>
	<node lat="59.270297225585644" lon="7.8545277725082805" id="-28008">
		<tag k="alt_name" v="Sveinsbulia" />
		<tag k="name" v="Sveinsbuli" />
		<tag k="place" v="isolated_dwelling" />
		<tag k="ssr:stedsnr" v="609928" />
	</node>
	<node lat="59.26683611320987" lon="7.9005083316712" id="-28009">
		<tag k="name" v="Fosstjørn" />
		<tag k="old_name" v="Fosstjørno" />
		<tag k="place" v="isolated_dwelling" />
		<tag k="ssr:stedsnr" v="609930" />
	</node>
	<node lat="59.281366665444985" lon="8.087386116780907" id="-28011">
		<tag k="name" v="Spokkeligrend" />
		<tag k="place" v="hamlet" />
		<tag k="ssr:stedsnr" v="609932" />
	</node>
	<node lat="59.314252781527465" lon="7.732866671390055" id="-28012">
		<tag k="historic" v="shieling" />
		<tag k="name" v="Bordbu" />
		<tag k="place" v="isolated_dwelling" />
		<tag k="ssr:stedsnr" v="609940" />
	</node>
	<node lat="59.29697499657659" lon="7.745802769334339" id="-28013">
		<tag k="historic" v="shieling" />
		<tag k="name" v="Nordfit" />
		<tag k="place" v="isolated_dwelling" />
		<tag k="ssr:stedsnr" v="609951" />
	</node>
	<node lat="59.2421999989996" lon="8.098999997369418" id="-28017">
		<tag k="name" v="Nordheim" />
		<tag k="place" v="farm" />
		<tag k="ssr:stedsnr" v="701481" />
	</node>
	<node lat="59.22023333119239" lon="8.098888894355197" id="-28020">
		<tag k="name" v="Kålgardsdalen" />
		<tag k="place" v="locality" />
		<tag k="ssr:stedsnr" v="701583" />
	</node>
	<node lat="59.20320555661388" lon="8.065499996281664" id="-28021">
		<tag k="name" v="Lund" />
		<tag k="place" v="farm" />
		<tag k="ssr:stedsnr" v="701810" />
	</node>
	<node lat="59.16675833687288" lon="7.801363893843176" id="-28039">
		<tag k="name" v="Austmannlistøylen" />
		<tag k="place" v="locality" />
		<tag k="ssr:stedsnr" v="703296" />
	</node>
	<node lat="59.17168055769445" lon="8.038850004010577" id="-28042">
		<tag k="name" v="Vik midtbø" />
		<tag k="place" v="farm" />
		<tag k="ssr:stedsnr" v="703629" />
	</node>
	<node lat="59.242661107575216" lon="7.792016671115802" id="-28046">
		<tag k="name" v="Krostøylen" />
		<tag k="place" v="locality" />
		<tag k="ssr:stedsnr" v="703745" />
	</node>
	<node lat="59.242391666441435" lon="7.78573055154341" id="-28047">
		<tag k="name" v="Brattstøyl" />
		<tag k="place" v="locality" />
		<tag k="ssr:stedsnr" v="703747" />
	</node>
	<node lat="59.00668889098244" lon="7.948858332586438" id="-28050">
		<tag k="fixme" v="consider tourism=alpine_hut or tourism=chalet" />
		<tag k="name" v="Granbustøyl" />
		<tag k="ssr:stedsnr" v="633483" />
		<tag k="tourism" v="wilderness_hut" />
	</node>
	<node lat="59.28265467680042" lon="7.836868897087038" id="-28052">
		<tag k="name" v="Kråknes" />
		<tag k="place" v="locality" />
		<tag k="ssr:stedsnr" v="633389" />
	</node>
	<node lat="59.265605552942816" lon="7.864422217816331" id="-28057">
		<tag k="name" v="Odden" />
		<tag k="place" v="isolated_dwelling" />
		<tag k="ssr:stedsnr" v="634405" />
	</node>
	<node lat="59.266836113758224" lon="7.900386108217066" id="-28058">
		<tag k="name" v="Fosstjørn" />
		<tag k="place" v="isolated_dwelling" />
		<tag k="ssr:stedsnr" v="634406" />
	</node>
	<node lat="59.24897777892221" lon="8.079647223974337" id="-28065">
		<tag k="name" v="Brattli" />
		<tag k="place" v="farm" />
		<tag k="ssr:stedsnr" v="640374" />
	</node>
	<node lat="59.18810833454415" lon="8.085941662787414" id="-28067">
		<tag k="fixme" v="consider place=suburb, village or hamlet" />
		<tag k="name" v="Lyngdal" />
		<tag k="place" v="quarter" />
		<tag k="ssr:stedsnr" v="640804" />
	</node>
	<node lat="59.18696944448919" lon="8.0976666597432" id="-28069">
		<tag k="name" v="Svalastog nordre" />
		<tag k="place" v="farm" />
		<tag k="ssr:stedsnr" v="640829" />
	</node>
	<node lat="59.24444444318987" lon="7.918138890952505" id="-28071">
		<tag k="amenity" v="school" />
		<tag k="name" v="Skulen" />
		<tag k="ssr:stedsnr" v="641127" />
	</node>
	<node lat="59.24714999738651" lon="8.032258328465872" id="-28074">
		<tag k="name" v="Hadder" />
		<tag k="place" v="farm" />
		<tag k="ssr:stedsnr" v="641323" />
	</node>
	<node lat="59.24279166899465" lon="8.04427222141287" id="-28077">
		<tag k="name" v="Jordsbø" />
		<tag k="place" v="locality" />
		<tag k="ssr:stedsnr" v="641235" />
	</node>
	<node lat="59.230416668980794" lon="8.012727782545968" id="-28078">
		<tag k="name" v="Bjørnerud nord" />
		<tag k="place" v="farm" />
		<tag k="ssr:stedsnr" v="641250" />
	</node>
	<node lat="59.167666664669" lon="7.994708335407991" id="-28083">
		<tag k="name" v="Jordal" />
		<tag k="place" v="locality" />
		<tag k="ssr:stedsnr" v="642612" />
	</node>
	<node lat="59.174088888019455" lon="8.040066675250007" id="-28084">
		<tag k="alt_name" v="Nordre Vik" />
		<tag k="fixme" v="consider place=hamlet" />
		<tag k="name" v="Vik norigard" />
		<tag k="place" v="farm" />
		<tag k="ssr:stedsnr" v="642614" />
	</node>
	<node lat="59.05140000032926" lon="7.965522221661493" id="-28092">
		<tag k="name" v="Solliåsen" />
		<tag k="place" v="neighbourhood" />
		<tag k="ssr:stedsnr" v="707887" />
	</node>
	<node lat="59.1505277798134" lon="8.173188892865454" id="-28100">
		<tag k="name" v="Elgbu" />
		<tag k="place" v="isolated_dwelling" />
		<tag k="ssr:stedsnr" v="654434" />
	</node>
	<node lat="59.20700833618676" lon="8.235077779595326" id="-28107">
		<tag k="name" v="Hægebu" />
		<tag k="place" v="locality" />
		<tag k="ssr:stedsnr" v="654699" />
	</node>
	<node lat="59.13167222609982" lon="8.127424997813504" id="-28112">
		<tag k="name" v="Søndre Momrak" />
		<tag k="place" v="farm" />
		<tag k="ssr:stedsnr" v="654709" />
	</node>
	<node lat="59.337930553853425" lon="8.135666669667136" id="-28121">
		<tag k="name" v="Timmerudjuvet" />
		<tag k="place" v="locality" />
		<tag k="ssr:stedsnr" v="655486" />
	</node>
	<node lat="59.349716666737564" lon="7.844086119107027" id="-28124">
		<tag k="name" v="Hommen" />
		<tag k="place" v="locality" />
		<tag k="ssr:stedsnr" v="655911" />
	</node>
	<node lat="59.182333335464385" lon="8.088066666747318" id="-28126">
		<tag k="alt_name" v="Moland prestegard" />
		<tag k="fixme" v="consider place=hamlet" />
		<tag k="name" v="Prestegarden" />
		<tag k="place" v="farm" />
		<tag k="ssr:stedsnr" v="655935" />
	</node>
	<node lat="59.18189444019205" lon="8.104005558652972" id="-28127">
		<tag k="name" v="Bakken" />
		<tag k="place" v="locality" />
		<tag k="ssr:stedsnr" v="655987" />
	</node>
	<node lat="59.322338884764825" lon="7.87371667287792" id="-28132">
		<tag k="name" v="Homen" />
		<tag k="place" v="locality" />
		<tag k="ssr:stedsnr" v="656885" />
	</node>
	<node lat="59.17345555732334" lon="7.943458338514918" id="-28140">
		<tag k="name" v="Nordbø" />
		<tag k="place" v="farm" />
		<tag k="ssr:stedsnr" v="668398" />
	</node>
	<node lat="59.27988333434535" lon="8.282638886760509" id="-28148">
		<tag k="historic" v="shieling" />
		<tag k="name" v="Svanestøyl" />
		<tag k="place" v="isolated_dwelling" />
		<tag k="ssr:stedsnr" v="669209" />
	</node>
	<node lat="59.077225001095236" lon="8.119736116998796" id="-28154">
		<tag k="alt_name" v="Sandbu" />
		<tag k="name" v="Sandebu" />
		<tag k="place" v="isolated_dwelling" />
		<tag k="ssr:stedsnr" v="669179" />
	</node>
	<node lat="59.233069443642016" lon="8.002327782713506" id="-28157">
		<tag k="alt_name" v="Flaten" />
		<tag k="name" v="Flata" />
		<tag k="place" v="farm" />
		<tag k="ssr:stedsnr" v="669316" />
	</node>
	<node lat="59.14745555576489" lon="7.940283327345736" id="-28158">
		<tag k="name" v="Madjestøylen" />
		<tag k="old_name" v="Madjestølen" />
		<tag k="place" v="locality" />
		<tag k="ssr:stedsnr" v="669406" />
	</node>
	<node lat="59.14397499768572" lon="7.953833337055331" id="-28160">
		<tag k="alt_name" v="Saupstøyl" />
		<tag k="name" v="Saupstøylane" />
		<tag k="old_name" v="Saupstøl" />
		<tag k="place" v="locality" />
		<tag k="ssr:stedsnr" v="669421" />
	</node>
	<node lat="59.169547223093176" lon="8.007249991678004" id="-28162">
		<tag k="name" v="Homme" />
		<tag k="place" v="farm" />
		<tag k="ssr:stedsnr" v="669377" />
	</node>
	<node lat="59.018561112427165" lon="8.278002781131613" id="-28167">
		<tag k="name" v="Sundsli" />
		<tag k="place" v="farm" />
		<tag k="ssr:stedsnr" v="669990" />
	</node>
	<node lat="59.30984999765251" lon="8.133541673702402" id="-28169">
		<tag k="name" v="Bjåland" />
		<tag k="place" v="farm" />
		<tag k="ssr:stedsnr" v="670178" />
	</node>
	<node lat="59.272141665419475" lon="8.054330551945359" id="-28170">
		<tag k="alt_name" v="Tveitene" />
		<tag k="fixme" v="consider place=hamlet" />
		<tag k="name" v="Tveitane" />
		<tag k="place" v="farm" />
		<tag k="ssr:stedsnr" v="670920" />
	</node>
	<node lat="59.289163885997155" lon="7.769358327450898" id="-28186">
		<tag k="name" v="Øyse uppigard" />
		<tag k="place" v="farm" />
		<tag k="ssr:stedsnr" v="702174" />
	</node>
	<node lat="59.20809167085287" lon="7.836575005832469" id="-28194">
		<tag k="name" v="Haukerei, heimre" />
		<tag k="place" v="farm" />
		<tag k="ssr:stedsnr" v="702519" />
	</node>
	<node lat="59.15576944767513" lon="8.120652778357725" id="-28197">
		<tag k="name" v="Våkås" />
		<tag k="place" v="locality" />
		<tag k="ssr:stedsnr" v="896289" />
	</node>
	<node lat="59.24048055211706" lon="8.249436118684468" id="-28198">
		<tag k="name" v="Solvangstoga" />
		<tag k="place" v="locality" />
		<tag k="ssr:stedsnr" v="703010" />
	</node>
	<node lat="59.24149721826665" lon="8.268741660791711" id="-28199">
		<tag k="name" v="Byen" />
		<tag k="place" v="locality" />
		<tag k="ssr:stedsnr" v="703015" />
	</node>
	<node lat="59.18368333336188" lon="8.11329721452222" id="-28212">
		<tag k="name" v="Lauvdal søndre" />
		<tag k="place" v="farm" />
		<tag k="ssr:stedsnr" v="897433" />
	</node>
	<node lat="59.17752221882104" lon="8.08837221412367" id="-28217">
		<tag k="name" v="Bjørgheim" />
		<tag k="place" v="isolated_dwelling" />
		<tag k="ssr:stedsnr" v="897762" />
	</node>
	<node lat="59.06267500124602" lon="8.288327779443934" id="-28222">
		<tag k="name" v="Skarbu" />
		<tag k="place" v="locality" />
		<tag k="ssr:stedsnr" v="897908" />
	</node>
	<node lat="59.06188332886515" lon="8.265236109646644" id="-28247">
		<tag k="name" v="Midtgarden" />
		<tag k="place" v="farm" />
		<tag k="ssr:stedsnr" v="714490" />
	</node>
	<node lat="59.30051666915573" lon="8.062769451538195" id="-28260">
		<tag k="name" v="Åsbu" />
		<tag k="place" v="locality" />
		<tag k="ssr:stedsnr" v="715326" />
	</node>
	<node lat="59.32378055538444" lon="8.152194445054798" id="-28263">
		<tag k="name" v="Bergland" />
		<tag k="place" v="isolated_dwelling" />
		<tag k="ssr:stedsnr" v="898892" />
	</node>
	<node lat="59.02629999905851" lon="8.289566665410538" id="-28266">
		<tag k="name" v="Sundskarstøylen" />
		<tag k="place" v="locality" />
		<tag k="ssr:stedsnr" v="715674" />
	</node>
	<node lat="59.17576666766874" lon="8.089524994687393" id="-28268">
		<tag k="name" v="Kåsa nordre" />
		<tag k="place" v="farm" />
		<tag k="ssr:stedsnr" v="715807" />
	</node>
	<node lat="59.06236944640896" lon="8.25944722094635" id="-28276">
		<tag k="name" v="Åsen" />
		<tag k="place" v="isolated_dwelling" />
		<tag k="ssr:stedsnr" v="715942" />
	</node>
	<node lat="59.06050277988991" lon="8.074769437151133" id="-28282">
		<tag k="name" v="Øvre Berge" />
		<tag k="place" v="farm" />
		<tag k="ssr:stedsnr" v="716479" />
	</node>
	<node lat="59.300483331147575" lon="7.916855548453062" id="-28284">
		<tag k="name" v="Skåli nigard" />
		<tag k="place" v="farm" />
		<tag k="ssr:stedsnr" v="899021" />
	</node>
	<node lat="59.16919444815989" lon="8.088794442185957" id="-28287">
		<tag k="name" v="Lauvrak" />
		<tag k="place" v="isolated_dwelling" />
		<tag k="ssr:stedsnr" v="716675" />
	</node>
	<node lat="59.33003889217796" lon="8.104491667321359" id="-28289">
		<tag k="name" v="Plassen" />
		<tag k="place" v="locality" />
		<tag k="ssr:stedsnr" v="716912" />
	</node>
	<node lat="59.29373611550117" lon="8.040652785871387" id="-28290">
		<tag k="name" v="Tortveit nistog" />
		<tag k="place" v="farm" />
		<tag k="ssr:stedsnr" v="716913" />
	</node>
	<node lat="59.287813888326" lon="7.988777783546876" id="-28302">
		<tag k="name" v="Støyl" />
		<tag k="place" v="locality" />
		<tag k="ssr:stedsnr" v="899283" />
	</node>
	<node lat="59.3185111124984" lon="7.9201555491586255" id="-28305">
		<tag k="name" v="Rombui" />
		<tag k="place" v="locality" />
		<tag k="ssr:stedsnr" v="899396" />
	</node>
	<node lat="59.29756388869841" lon="7.947277781171065" id="-28309">
		<tag k="name" v="Nivelkinn" />
		<tag k="place" v="locality" />
		<tag k="ssr:stedsnr" v="899720" />
	</node>
	<node lat="59.076758333440885" lon="8.039066671889083" id="-28311">
		<tag k="historic" v="shieling" />
		<tag k="name" v="Småstøylane" />
		<tag k="place" v="isolated_dwelling" />
		<tag k="ssr:stedsnr" v="899878" />
	</node>
	<node lat="59.32808055285005" lon="7.825022227963802" id="-28315">
		<tag k="name" v="Setali" />
		<tag k="place" v="locality" />
		<tag k="ssr:stedsnr" v="899976" />
	</node>
	<node lat="59.0434888847893" lon="7.978100001385138" id="-28317">
		<tag k="name" v="Åbodokki" />
		<tag k="place" v="neighbourhood" />
		<tag k="ssr:stedsnr" v="727894" />
	</node>
	<node lat="59.073397224407394" lon="7.935833340434263" id="-28318">
		<tag k="name" v="Griddalen" />
		<tag k="place" v="neighbourhood" />
		<tag k="ssr:stedsnr" v="727982" />
	</node>
	<node lat="59.18798055226948" lon="8.095786113514007" id="-28319">
		<tag k="alt_name" v="Svalastog nedre;Svalestu" />
		<tag k="fixme" v="consider place=hamlet" />
		<tag k="name" v="Svalestog" />
		<tag k="place" v="farm" />
		<tag k="ssr:stedsnr" v="729079" />
	</node>
	<node lat="59.09944662736858" lon="8.227948060223177" id="-28325">
		<tag k="name" v="Kolshus" />
		<tag k="place" v="locality" />
		<tag k="ssr:stedsnr" v="730184" />
	</node>
	<node lat="59.33900404545658" lon="8.063725770449567" id="-28332">
		<tag k="name" v="Kråkehommen" />
		<tag k="place" v="locality" />
		<tag k="ssr:stedsnr" v="730985" />
	</node>
	<node lat="59.248138887116426" lon="8.042222226235365" id="-28333">
		<tag k="alt_name" v="Eikjæ;Eiken" />
		<tag k="fixme" v="consider place=hamlet" />
		<tag k="name" v="Eiki" />
		<tag k="place" v="farm" />
		<tag k="ssr:stedsnr" v="755448" />
	</node>
	<node lat="59.2269583335501" lon="8.092124998384202" id="-28341">
		<tag k="name" v="Jonsborg" />
		<tag k="place" v="farm" />
		<tag k="ssr:stedsnr" v="761603" />
	</node>
	<node lat="59.19030833166717" lon="8.108958335759928" id="-28342">
		<tag k="name" v="Sitje nordre" />
		<tag k="place" v="farm" />
		<tag k="ssr:stedsnr" v="762191" />
	</node>
	<node lat="59.18646944830432" lon="8.086352782493568" id="-28347">
		<tag k="amenity" v="school" />
		<tag k="name" v="Gimle skule" />
		<tag k="ssr:stedsnr" v="762812" />
	</node>
	<node lat="59.188519445922054" lon="8.08841665993844" id="-28348">
		<tag k="name" v="Jørundland" />
		<tag k="place" v="isolated_dwelling" />
		<tag k="ssr:stedsnr" v="762815" />
	</node>
	<node lat="59.21392222511043" lon="8.168413895939995" id="-28355">
		<tag k="name" v="Steanhytta" />
		<tag k="place" v="isolated_dwelling" />
		<tag k="ssr:stedsnr" v="763506" />
	</node>
	<node lat="59.281399998627656" lon="7.750569451181209" id="-28361">
		<tag k="name" v="Krokstøyl" />
		<tag k="place" v="locality" />
		<tag k="ssr:stedsnr" v="763456" />
	</node>
	<node lat="59.18776388772227" lon="7.954327780028085" id="-28365">
		<tag k="name" v="Grimbu" />
		<tag k="place" v="isolated_dwelling" />
		<tag k="ssr:stedsnr" v="763740" />
	</node>
	<node lat="59.06304444834105" lon="8.261274995186934" id="-28376">
		<tag k="name" v="Nigard" />
		<tag k="place" v="farm" />
		<tag k="ssr:stedsnr" v="775504" />
	</node>
	<node lat="58.99128333157788" lon="8.305511117499845" id="-28381">
		<tag k="name" v="Ångåstangen" />
		<tag k="place" v="isolated_dwelling" />
		<tag k="ssr:stedsnr" v="776061" />
	</node>
	<node lat="59.28929166544613" lon="8.108022221964706" id="-28383">
		<tag k="name" v="Søvei nordre" />
		<tag k="place" v="locality" />
		<tag k="ssr:stedsnr" v="776220" />
	</node>
	<node lat="59.239713885070294" lon="8.202833327651254" id="-28394">
		<tag k="name" v="Fjellstøyl" />
		<tag k="place" v="locality" />
		<tag k="ssr:stedsnr" v="776804" />
	</node>
	<node lat="59.24103055215034" lon="8.208363896592223" id="-28395">
		<tag k="name" v="Fjellstøyl" />
		<tag k="place" v="locality" />
		<tag k="ssr:stedsnr" v="776807" />
	</node>
	<node lat="59.35404444315869" lon="7.844808334162196" id="-28408">
		<tag k="name" v="Danskor" />
		<tag k="place" v="locality" />
		<tag k="ssr:stedsnr" v="777897" />
	</node>
	<node lat="59.178561109384226" lon="8.091875000687068" id="-28419">
		<tag k="fixme" v="consider place=hamlet" />
		<tag k="name" v="Moghus" />
		<tag k="place" v="farm" />
		<tag k="ssr:stedsnr" v="911398" />
	</node>
	<node lat="58.99698611436315" lon="8.267002769932393" id="-28421">
		<tag k="name" v="Gjerli" />
		<tag k="place" v="isolated_dwelling" />
		<tag k="ssr:stedsnr" v="789863" />
	</node>
	<node lat="59.17663611421231" lon="8.175611109547994" id="-28425">
		<tag k="alt_name" v="Hønestøyl" />
		<tag k="historic" v="shieling" />
		<tag k="name" v="Hønestøl" />
		<tag k="place" v="isolated_dwelling" />
		<tag k="ssr:stedsnr" v="790055" />
	</node>
	<node lat="59.29432222520554" lon="8.104224995081642" id="-28437">
		<tag k="name" v="Dalen" />
		<tag k="place" v="farm" />
		<tag k="ssr:stedsnr" v="791141" />
	</node>
	<node lat="59.26898332956373" lon="8.142491658822594" id="-28438">
		<tag k="alt_name" v="Høghovden" />
		<tag k="name" v="Hæghovden" />
		<tag k="place" v="isolated_dwelling" />
		<tag k="ssr:stedsnr" v="791205" />
	</node>
	<node lat="59.28807499928525" lon="7.860408341134785" id="-28440">
		<tag k="alt_name" v="Leivdalen" />
		<tag k="name" v="Leivsdalen" />
		<tag k="place" v="isolated_dwelling" />
		<tag k="ssr:stedsnr" v="791907" />
	</node>
	<node lat="59.27379166267365" lon="7.839991662925334" id="-28441">
		<tag k="alt_name" v="Listøyl" />
		<tag k="name" v="Listøylen" />
		<tag k="old_name" v="Listølen" />
		<tag k="place" v="locality" />
		<tag k="ssr:stedsnr" v="791913" />
	</node>
	<node lat="59.32844721837475" lon="7.850819447633955" id="-28447">
		<tag k="name" v="Heknenystøyl" />
		<tag k="old_name" v="Heknenystøl" />
		<tag k="place" v="isolated_dwelling" />
		<tag k="ssr:stedsnr" v="791995" />
	</node>
	<node lat="59.3179472242546" lon="7.779144444188209" id="-28449">
		<tag k="alt_name" v="Kjøpsvasstøylane" />
		<tag k="historic" v="shieling" />
		<tag k="loc_name" v="Kjøpvasstøylane" />
		<tag k="name" v="Kjøpsvasstøylen" />
		<tag k="old_name" v="Kjøpvasstølen" />
		<tag k="place" v="isolated_dwelling" />
		<tag k="ssr:stedsnr" v="791999" />
	</node>
	<node lat="59.00805277462035" lon="8.033274991576993" id="-28450">
		<tag k="name" v="Vik" />
		<tag k="place" v="isolated_dwelling" />
		<tag k="ssr:stedsnr" v="912024" />
	</node>
	<node lat="59.012602776375324" lon="8.066430554141853" id="-28451">
		<tag k="name" v="Vinsnes" />
		<tag k="place" v="isolated_dwelling" />
		<tag k="ssr:stedsnr" v="912028" />
	</node>
	<node lat="59.30137221938772" lon="8.09657777143614" id="-28458">
		<tag k="alt_name" v="Vestre Tveiten" />
		<tag k="fixme" v="consider place=hamlet" />
		<tag k="name" v="Tveiten" />
		<tag k="place" v="farm" />
		<tag k="ssr:stedsnr" v="912156" />
	</node>
	<node lat="59.10123611154848" lon="8.234683331340829" id="-28461">
		<tag k="alt_name" v="Nystøyl" />
		<tag k="name" v="Nystøl" />
		<tag k="place" v="isolated_dwelling" />
		<tag k="ssr:stedsnr" v="912180" />
	</node>
	<node lat="59.100244023029425" lon="7.991038592217025" id="-28469">
		<tag k="name" v="Espeli" />
		<tag k="place" v="locality" />
		<tag k="ssr:stedsnr" v="912464" />
	</node>
	<node lat="59.081966663188666" lon="7.924119436661508" id="-28471">
		<tag k="alt_name" v="Flotta" />
		<tag k="historic" v="shieling" />
		<tag k="name" v="Flottine" />
		<tag k="old_name" v="Flottene" />
		<tag k="place" v="isolated_dwelling" />
		<tag k="ssr:stedsnr" v="912476" />
	</node>
	<node lat="59.31621944587874" lon="8.155969440563304" id="-28476">
		<tag k="name" v="Solheim" />
		<tag k="place" v="isolated_dwelling" />
		<tag k="ssr:stedsnr" v="913165" />
	</node>
	<node lat="59.25310833257253" lon="8.15963610492766" id="-28478">
		<tag k="fixme" v="consider place=hamlet" />
		<tag k="name" v="Husstøyl" />
		<tag k="place" v="farm" />
		<tag k="ssr:stedsnr" v="913183" />
	</node>
	<node lat="59.317352780587264" lon="8.054838883204766" id="-28480">
		<tag k="name" v="Listøylen" />
		<tag k="old_name" v="Listølen" />
		<tag k="place" v="locality" />
		<tag k="ssr:stedsnr" v="913949" />
	</node>
	<node lat="59.29363889133975" lon="8.040216659478652" id="-28482">
		<tag k="fixme" v="consider place=hamlet" />
		<tag k="name" v="Tortveit" />
		<tag k="place" v="farm" />
		<tag k="ssr:stedsnr" v="913970" />
	</node>
	<node lat="59.18730277678047" lon="8.10597222135728" id="-28490">
		<tag k="name" v="Lundi" />
		<tag k="place" v="isolated_dwelling" />
		<tag k="ssr:stedsnr" v="823193" />
	</node>
	<node lat="59.23678055351891" lon="7.966144450801402" id="-28491">
		<tag k="name" v="Vødd" />
		<tag k="place" v="locality" />
		<tag k="ssr:stedsnr" v="823477" />
	</node>
	<node lat="59.21360000005046" lon="8.05813610376178" id="-28492">
		<tag k="name" v="Skåren" />
		<tag k="place" v="farm" />
		<tag k="ssr:stedsnr" v="823479" />
	</node>
	<node lat="59.20822222375829" lon="8.060969446552901" id="-28494">
		<tag k="name" v="Presteåker" />
		<tag k="place" v="isolated_dwelling" />
		<tag k="ssr:stedsnr" v="823481" />
	</node>
	<node lat="59.27527222114562" lon="7.768066663555673" id="-28498">
		<tag k="name" v="Kallstogvikja" />
		<tag k="place" v="farm" />
		<tag k="ssr:stedsnr" v="824015" />
	</node>
	<node lat="59.18929999720413" lon="8.088041664057272" id="-28499">
		<tag k="name" v="Bolstad" />
		<tag k="place" v="isolated_dwelling" />
		<tag k="ssr:stedsnr" v="823768" />
	</node>
	<node lat="59.24022500042274" lon="7.932844440773634" id="-28507">
		<tag k="name" v="Metveit, nordre" />
		<tag k="place" v="farm" />
		<tag k="ssr:stedsnr" v="824985" />
	</node>
	<node lat="59.06125833685169" lon="8.339855549372519" id="-28512">
		<tag k="name" v="Holmekollen" />
		<tag k="place" v="isolated_dwelling" />
		<tag k="ssr:stedsnr" v="833089" />
	</node>
	<node lat="59.279977775580114" lon="8.11322223083949" id="-28521">
		<tag k="name" v="Vestgarden" />
		<tag k="place" v="locality" />
		<tag k="ssr:stedsnr" v="837133" />
	</node>
	<node lat="59.278788889497605" lon="8.142541672720247" id="-28525">
		<tag k="name" v="Solli" />
		<tag k="place" v="locality" />
		<tag k="ssr:stedsnr" v="837178" />
	</node>
	<node lat="59.125797221257955" lon="8.130300000216193" id="-28536">
		<tag k="name" v="Kåsa" />
		<tag k="place" v="locality" />
		<tag k="ssr:stedsnr" v="837592" />
	</node>
	<node lat="59.32292499623028" lon="8.110941666088841" id="-28549">
		<tag k="alt_name" v="Søndre Skrei" />
		<tag k="fixme" v="consider place=hamlet" />
		<tag k="name" v="Søndre Skredi" />
		<tag k="place" v="farm" />
		<tag k="ssr:stedsnr" v="837991" />
	</node>
	<node lat="59.087491662955074" lon="8.092375003919985" id="-28554">
		<tag k="name" v="Godlistøylen" />
		<tag k="place" v="locality" />
		<tag k="ssr:stedsnr" v="838436" />
	</node>
	<node lat="59.04337777943579" lon="8.08335555729624" id="-28559">
		<tag k="name" v="Kvisleåne" />
		<tag k="place" v="neighbourhood" />
		<tag k="ssr:stedsnr" v="848893" />
	</node>
	<node lat="58.99203611547498" lon="8.06792499543054" id="-28560">
		<tag k="name" v="Homme" />
		<tag k="place" v="locality" />
		<tag k="ssr:stedsnr" v="850589" />
	</node>
	<node lat="59.15903688816122" lon="8.15075853240684" id="-28562">
		<tag k="alt_name" v="Vefsåsstøylen" />
		<tag k="name" v="Vepsåsen" />
		<tag k="place" v="locality" />
		<tag k="ssr:stedsnr" v="851106" />
	</node>
	<node lat="59.13784999977274" lon="8.318333334174177" id="-28564">
		<tag k="alt_name" v="Flottine" />
		<tag k="name" v="Flottene" />
		<tag k="place" v="isolated_dwelling" />
		<tag k="ssr:stedsnr" v="851136" />
	</node>
	<node lat="59.18018888857789" lon="8.093949995518324" id="-28565">
		<tag k="fixme" v="consider place=hamlet" />
		<tag k="name" v="Væting" />
		<tag k="place" v="farm" />
		<tag k="ssr:stedsnr" v="851073" />
	</node>
	<node lat="59.13774999648724" lon="8.109830559850593" id="-28567">
		<tag k="name" v="Momrak" />
		<tag k="place" v="farm" />
		<tag k="ssr:stedsnr" v="851095" />
	</node>
	<node lat="59.05995277840038" lon="8.07494721355405" id="-28576">
		<tag k="fixme" v="consider place=hamlet" />
		<tag k="name" v="Berge" />
		<tag k="place" v="farm" />
		<tag k="ssr:stedsnr" v="851442" />
	</node>
	<node lat="59.25089444749151" lon="8.279119440385704" id="-28581">
		<tag k="historic" v="shieling" />
		<tag k="name" v="Smedbu" />
		<tag k="place" v="isolated_dwelling" />
		<tag k="ssr:stedsnr" v="852208" />
	</node>
	<node lat="59.26406388837968" lon="8.173486107493476" id="-28583">
		<tag k="name" v="Midstøyl" />
		<tag k="place" v="isolated_dwelling" />
		<tag k="ssr:stedsnr" v="852224" />
	</node>
	<node lat="59.25939166644129" lon="7.806894441257577" id="-28587">
		<tag k="historic" v="shieling" />
		<tag k="name" v="Brunli" />
		<tag k="old_name" v="Bronli" />
		<tag k="place" v="isolated_dwelling" />
		<tag k="ssr:stedsnr" v="852920" />
	</node>
	<node lat="59.26314166758602" lon="8.0515499982172" id="-28590">
		<tag k="alt_name" v="Håsum" />
		<tag k="fixme" v="consider place=hamlet" />
		<tag k="name" v="Håsom" />
		<tag k="place" v="farm" />
		<tag k="ssr:stedsnr" v="852866" />
	</node>
	<node lat="59.24962222052507" lon="8.033827777412752" id="-28615">
		<tag k="name" v="Lauvland øvre" />
		<tag k="place" v="isolated_dwelling" />
		<tag k="ssr:stedsnr" v="884347" />
	</node>
	<node lat="59.1329361122069" lon="8.029288896809932" id="-28618">
		<tag k="name" v="Libjå øvre" />
		<tag k="place" v="farm" />
		<tag k="ssr:stedsnr" v="884356" />
	</node>
	<node lat="59.24321944459124" lon="8.270136111513763" id="-28620">
		<tag k="historic" v="shieling" />
		<tag k="name" v="Sveigstøyl" />
		<tag k="place" v="isolated_dwelling" />
		<tag k="ssr:stedsnr" v="885005" />
	</node>
	<node lat="59.27669999816641" lon="7.733697224151506" id="-28623">
		<tag k="historic" v="shieling" />
		<tag k="name" v="Vebergstøylen" />
		<tag k="place" v="isolated_dwelling" />
		<tag k="ssr:stedsnr" v="885396" />
	</node>
	<node lat="59.145197219813454" lon="7.880763891884536" id="-28625">
		<tag k="historic" v="shieling" />
		<tag k="name" v="Vålå" />
		<tag k="place" v="isolated_dwelling" />
		<tag k="ssr:stedsnr" v="885652" />
	</node>
	<node lat="59.15841666754379" lon="7.822869452167194" id="-28629">
		<tag k="historic" v="shieling" />
		<tag k="name" v="Geitsund" />
		<tag k="place" v="isolated_dwelling" />
		<tag k="ssr:stedsnr" v="887932" />
	</node>
	<node lat="59.00498055715839" lon="8.279411111665725" id="-28641">
		<tag k="name" v="Slettemo" />
		<tag k="place" v="isolated_dwelling" />
		<tag k="ssr:stedsnr" v="897604" />
	</node>
	<node lat="59.17671944443452" lon="8.24182499361478" id="-28642">
		<tag k="historic" v="shieling" />
		<tag k="name" v="Vidstøylhytta" />
		<tag k="place" v="isolated_dwelling" />
		<tag k="ssr:stedsnr" v="897608" />
	</node>
	<node lat="59.30426666848048" lon="8.116905556542125" id="-28645">
		<tag k="name" v="Skarkrud" />
		<tag k="place" v="locality" />
		<tag k="ssr:stedsnr" v="898104" />
	</node>
	<node lat="59.2740138874501" lon="8.084297219217197" id="-28647">
		<tag k="name" v="Dølemo" />
		<tag k="place" v="isolated_dwelling" />
		<tag k="ssr:stedsnr" v="898366" />
	</node>
	<node lat="59.28379444742111" lon="8.082175004236847" id="-28653">
		<tag k="name" v="Myrland" />
		<tag k="place" v="locality" />
		<tag k="ssr:stedsnr" v="898803" />
	</node>
	<node lat="58.996172218180895" lon="8.114394448148145" id="-28656">
		<tag k="name" v="Nilsebu" />
		<tag k="place" v="isolated_dwelling" />
		<tag k="ssr:stedsnr" v="898970" />
	</node>
	<node lat="59.287372220860746" lon="7.8554166708132485" id="-28661">
		<tag k="name" v="Ormsteig" />
		<tag k="place" v="locality" />
		<tag k="ssr:stedsnr" v="899518" />
	</node>
	<node lat="59.199030551881314" lon="8.108466665468487" id="-28669">
		<tag k="name" v="Omsberg" />
		<tag k="place" v="farm" />
		<tag k="ssr:stedsnr" v="911044" />
	</node>
	<node lat="59.245599996095955" lon="7.888769437140377" id="-28671">
		<tag k="fixme" v="consider place=hamlet" />
		<tag k="name" v="Homsli" />
		<tag k="place" v="farm" />
		<tag k="ssr:stedsnr" v="911315" />
	</node>
	<node lat="59.02943333432771" lon="8.272200001913271" id="-28685">
		<tag k="name" v="Åmevje" />
		<tag k="place" v="isolated_dwelling" />
		<tag k="ssr:stedsnr" v="912235" />
	</node>
	<node lat="59.26969166991098" lon="7.755741669778971" id="-28696">
		<tag k="name" v="Nystøyl" />
		<tag k="old_name" v="Nystøl" />
		<tag k="place" v="locality" />
		<tag k="ssr:stedsnr" v="913929" />
	</node>
	<node lat="59.2278083363869" lon="8.090908335524746" id="-28700">
		<tag k="name" v="Vollane" />
		<tag k="place" v="isolated_dwelling" />
		<tag k="ssr:stedsnr" v="938005" />
	</node>
	<node lat="59.234533330733846" lon="7.943694448031549" id="-28703">
		<tag k="name" v="Gåren" />
		<tag k="place" v="farm" />
		<tag k="ssr:stedsnr" v="944608" />
	</node>
	<node lat="59.24532499732914" lon="7.92851943962381" id="-28709">
		<tag k="name" v="Rui, uppistog" />
		<tag k="place" v="farm" />
		<tag k="ssr:stedsnr" v="945998" />
	</node>
	<node lat="59.12821666679517" lon="8.13635833931091" id="-28742">
		<tag k="name" v="Rugkåsa" />
		<tag k="place" v="locality" />
		<tag k="ssr:stedsnr" v="958604" />
	</node>
	<node lat="59.1725527815903" lon="8.150616669761392" id="-28748">
		<tag k="name" v="Nystøyl" />
		<tag k="place" v="locality" />
		<tag k="ssr:stedsnr" v="958990" />
	</node>
	<node lat="58.984288884644684" lon="8.071705563579487" id="-28750">
		<tag k="name" v="Homme" />
		<tag k="place" v="locality" />
		<tag k="ssr:stedsnr" v="959111" />
	</node>
	<node lat="59.34237778095677" lon="7.862586117234835" id="-28758">
		<tag k="historic" v="shieling" />
		<tag k="name" v="Grasstøyl" />
		<tag k="place" v="isolated_dwelling" />
		<tag k="ssr:stedsnr" v="959985" />
	</node>
	<node lat="59.0387305587159" lon="8.00066110809023" id="-28762">
		<tag k="name" v="Annebu" />
		<tag k="place" v="isolated_dwelling" />
		<tag k="ssr:stedsnr" v="960903" />
	</node>
	<node lat="59.19734166657689" lon="8.0836111114605" id="-28764">
		<tag k="name" v="Grunnvik" />
		<tag k="place" v="quarter" />
		<tag k="ssr:stedsnr" v="969984" />
	</node>
	<node lat="59.17354269219688" lon="7.914192993687858" id="-28765">
		<tag k="fixme" v="consider place=hamlet" />
		<tag k="name" v="Borgen" />
		<tag k="place" v="farm" />
		<tag k="ssr:stedsnr" v="984041" />
	</node>
	<node lat="59.115600831554275" lon="8.083892445205521" id="-28766">
		<tag k="fixme" v="consider place=hamlet" />
		<tag k="name" v="Søndre Breivik" />
		<tag k="place" v="farm" />
		<tag k="ssr:stedsnr" v="984126" />
	</node>
	<node lat="59.11517925158062" lon="8.08057143074579" id="-28767">
		<tag k="name" v="Breivik" />
		<tag k="place" v="hamlet" />
		<tag k="ssr:stedsnr" v="984127" />
	</node>
	<node lat="59.062761365521574" lon="7.923649499936025" id="-28768">
		<tag k="fixme" v="consider place=hamlet" />
		<tag k="name" v="Kvipt" />
		<tag k="place" v="farm" />
		<tag k="ssr:stedsnr" v="984128" />
	</node>
	<node lat="58.999714037195055" lon="8.040900466886407" id="-28769">
		<tag k="name" v="Søndre Nesi" />
		<tag k="place" v="isolated_dwelling" />
		<tag k="ssr:stedsnr" v="984132" />
	</node>
	<node lat="59.07173112045286" lon="8.165322291331783" id="-28770">
		<tag k="fixme" v="consider place=hamlet" />
		<tag k="name" v="Gjevesta" />
		<tag k="place" v="farm" />
		<tag k="ssr:stedsnr" v="984135" />
	</node>
	<node lat="59.190302997021305" lon="8.216510761640823" id="-28771">
		<tag k="fixme" v="consider place=hamlet" />
		<tag k="name" v="Nape vestgarden" />
		<tag k="place" v="farm" />
		<tag k="ssr:stedsnr" v="984139" />
	</node>
	<node lat="59.009611114315426" lon="8.067627785532594" id="-28778">
		<tag k="alt_name" v="Kåsa" />
		<tag k="name" v="Kosi" />
		<tag k="old_name" v="Kåsi" />
		<tag k="place" v="locality" />
		<tag k="ssr:stedsnr" v="1032" />
	</node>
	<node lat="59.239883335785166" lon="7.812652773493705" id="-28780">
		<tag k="historic" v="shieling" />
		<tag k="name" v="Slådalen" />
		<tag k="place" v="isolated_dwelling" />
		<tag k="ssr:stedsnr" v="1327" />
	</node>
	<node lat="59.32544444842782" lon="8.150416659908643" id="-28789">
		<tag k="alt_name" v="Østre Tveiten" />
		<tag k="fixme" v="consider place=hamlet" />
		<tag k="name" v="Tveiten" />
		<tag k="place" v="farm" />
		<tag k="ssr:stedsnr" v="2187" />
	</node>
	<node lat="59.26908889274508" lon="8.096080548524503" id="-28791">
		<tag k="fixme" v="consider place=hamlet" />
		<tag k="name" v="Bjørnestad" />
		<tag k="place" v="farm" />
		<tag k="ssr:stedsnr" v="2197" />
	</node>
	<node lat="59.20800484584432" lon="8.111823836057741" id="-28793">
		<tag k="name" v="Nordbø" />
		<tag k="place" v="locality" />
		<tag k="ssr:stedsnr" v="2045" />
	</node>
	<node lat="59.305469444738385" lon="8.124449994308584" id="-28798">
		<tag k="name" v="Veamyrane" />
		<tag k="place" v="farm" />
		<tag k="ssr:stedsnr" v="2155" />
	</node>
	<node lat="59.31078889144328" lon="8.131461111366264" id="-28799">
		<tag k="alt_name" v="Garmo" />
		<tag k="name" v="Gardmo" />
		<tag k="place" v="farm" />
		<tag k="ssr:stedsnr" v="2157" />
	</node>
	<node lat="59.21662499760193" lon="8.014980551603113" id="-28801">
		<tag k="alt_name" v="Russland" />
		<tag k="historic" v="shieling" />
		<tag k="name" v="Rudsland" />
		<tag k="old_name" v="Rusland" />
		<tag k="place" v="isolated_dwelling" />
		<tag k="ssr:stedsnr" v="2375" />
	</node>
	<node lat="59.20707777472736" lon="7.834580560037287" id="-28802">
		<tag k="alt_name" v="Haukrei nordre" />
		<tag k="historic" v="shieling" />
		<tag k="name" v="Haukreistøylane" />
		<tag k="old_name" v="Haukrei" />
		<tag k="place" v="isolated_dwelling" />
		<tag k="ssr:stedsnr" v="2378" />
	</node>
	<node lat="59.10175555296253" lon="7.872022227626967" id="-28803">
		<tag k="historic" v="shieling" />
		<tag k="name" v="Fitjedalen" />
		<tag k="place" v="isolated_dwelling" />
		<tag k="ssr:stedsnr" v="2458" />
	</node>
	<node lat="59.11269721806019" lon="8.075452781593553" id="-28805">
		<tag k="alt_name" v="Kåsa" />
		<tag k="name" v="Kosi" />
		<tag k="old_name" v="Kåsi" />
		<tag k="place" v="isolated_dwelling" />
		<tag k="ssr:stedsnr" v="2462" />
	</node>
	<node lat="59.10007499601593" lon="7.952847226534148" id="-28806">
		<tag k="name" v="Nystøyl" />
		<tag k="old_name" v="Nystøl" />
		<tag k="place" v="locality" />
		<tag k="ssr:stedsnr" v="2465" />
	</node>
	<node lat="59.28433611192141" lon="8.089663890224335" id="-28808">
		<tag k="fixme" v="consider place=hamlet" />
		<tag k="name" v="Øyane" />
		<tag k="place" v="village" />
		<tag k="ssr:stedsnr" v="2921" />
	</node>
	<node lat="59.25898611150988" lon="7.758569438585467" id="-28809">
		<tag k="alt_name" v="Fugldalsstøyl" />
		<tag k="historic" v="shieling" />
		<tag k="name" v="Fugledalsstøylen" />
		<tag k="old_name" v="Fugledalsstøl" />
		<tag k="place" v="isolated_dwelling" />
		<tag k="ssr:stedsnr" v="2931" />
	</node>
	<node lat="59.30963570288066" lon="7.9277898678178955" id="-28811">
		<tag k="name" v="Simonsfit" />
		<tag k="place" v="locality" />
		<tag k="ssr:stedsnr" v="2939" />
	</node>
	<node lat="59.30263055340175" lon="7.97228056188411" id="-28813">
		<tag k="name" v="Ystesund" />
		<tag k="place" v="farm" />
		<tag k="ssr:stedsnr" v="2947" />
	</node>
	<node lat="59.292100003255534" lon="7.990030549468005" id="-28814">
		<tag k="fixme" v="consider place=hamlet" />
		<tag k="name" v="Songedal" />
		<tag k="place" v="farm" />
		<tag k="ssr:stedsnr" v="2962" />
	</node>
	<node lat="59.16509999603539" lon="7.95610834059731" id="-28817">
		<tag k="name" v="Plassen" />
		<tag k="place" v="isolated_dwelling" />
		<tag k="ssr:stedsnr" v="27453" />
	</node>
	<node lat="59.28402777914681" lon="7.789766672370113" id="-28823">
		<tag k="name" v="Åsistøylen" />
		<tag k="place" v="locality" />
		<tag k="ssr:stedsnr" v="35528" />
	</node>
	<node lat="59.22343889156656" lon="8.147880563706924" id="-28826">
		<tag k="historic" v="shieling" />
		<tag k="name" v="Greivstjønnstøylen" />
		<tag k="place" v="isolated_dwelling" />
		<tag k="ssr:stedsnr" v="33065" />
	</node>
	<node lat="59.18888610823344" lon="8.08722222147194" id="-28833">
		<tag k="name" v="Smeland" />
		<tag k="place" v="isolated_dwelling" />
		<tag k="ssr:stedsnr" v="33830" />
	</node>
	<node lat="59.24597221942169" lon="8.031922215222282" id="-28836">
		<tag k="name" v="Åland" />
		<tag k="place" v="isolated_dwelling" />
		<tag k="ssr:stedsnr" v="34339" />
	</node>
	<node lat="59.21796944730411" lon="7.980927773835429" id="-28839">
		<tag k="alt_name" v="Findalstveit" />
		<tag k="fixme" v="consider place=hamlet" />
		<tag k="name" v="Finndalstveit" />
		<tag k="place" v="farm" />
		<tag k="ssr:stedsnr" v="34550" />
	</node>
	<node lat="59.26462499605108" lon="7.770102778293318" id="-28851">
		<tag k="name" v="Ørnekrostøylen" />
		<tag k="place" v="locality" />
		<tag k="ssr:stedsnr" v="35871" />
	</node>
	<node lat="59.26203888540196" lon="8.014833342058058" id="-28867">
		<tag k="name" v="Rantekåsene" />
		<tag k="place" v="locality" />
		<tag k="ssr:stedsnr" v="49097" />
	</node>
	<node lat="59.08124444643134" lon="8.238586104963101" id="-28874">
		<tag k="name" v="Plassen" />
		<tag k="place" v="locality" />
		<tag k="ssr:stedsnr" v="47540" />
	</node>
	<node lat="59.13777777341955" lon="8.110433340970568" id="-28878">
		<tag k="name" v="Nistog Momrak" />
		<tag k="place" v="farm" />
		<tag k="ssr:stedsnr" v="47746" />
	</node>
	<node lat="59.03107222441001" lon="8.113036107283648" id="-28882">
		<tag k="historic" v="shieling" />
		<tag k="name" v="Himmelstøyl" />
		<tag k="place" v="isolated_dwelling" />
		<tag k="ssr:stedsnr" v="47837" />
	</node>
	<node lat="59.180297220848786" lon="8.144422217806493" id="-28887">
		<tag k="name" v="Kjekhusdalen" />
		<tag k="place" v="isolated_dwelling" />
		<tag k="ssr:stedsnr" v="48380" />
	</node>
	<node lat="59.15277222245343" lon="8.197380549347649" id="-28889">
		<tag k="name" v="Plassen" />
		<tag k="place" v="isolated_dwelling" />
		<tag k="ssr:stedsnr" v="48395" />
	</node>
	<node lat="59.00953611459831" lon="8.274838894985137" id="-28897">
		<tag k="building" v="industrial" />
		<tag k="name" v="Grindberg" />
		<tag k="ssr:stedsnr" v="48232" />
	</node>
	<node lat="59.00860277989866" lon="8.238224992754704" id="-28898">
		<tag k="name" v="Solom" />
		<tag k="place" v="locality" />
		<tag k="ssr:stedsnr" v="48143" />
	</node>
	<node lat="59.00176944852614" lon="8.292977775190638" id="-28907">
		<tag k="name" v="Uppistog Kiland" />
		<tag k="place" v="farm" />
		<tag k="ssr:stedsnr" v="48346" />
	</node>
	<node lat="59.17851388890667" lon="8.188158330379308" id="-28909">
		<tag k="name" v="Hukebu" />
		<tag k="place" v="locality" />
		<tag k="ssr:stedsnr" v="48356" />
	</node>
	<node lat="59.20294722487109" lon="8.198011108205538" id="-28912">
		<tag k="name" v="Stavstøylen" />
		<tag k="place" v="locality" />
		<tag k="ssr:stedsnr" v="48449" />
	</node>
	<node lat="59.133763891667314" lon="8.126972219847987" id="-28917">
		<tag k="name" v="Nordre Momrak" />
		<tag k="place" v="farm" />
		<tag k="ssr:stedsnr" v="48681" />
	</node>
	<node lat="59.31611667077446" lon="8.170405549443426" id="-28918">
		<tag k="name" v="Lyngstad" />
		<tag k="place" v="locality" />
		<tag k="ssr:stedsnr" v="48657" />
	</node>
	<node lat="59.28338332993495" lon="8.071125007445676" id="-28919">
		<tag k="name" v="Furuheim" />
		<tag k="place" v="isolated_dwelling" />
		<tag k="ssr:stedsnr" v="48737" />
	</node>
	<node lat="59.28402500039583" lon="8.073172226907435" id="-28921">
		<tag k="name" v="Groven" />
		<tag k="place" v="farm" />
		<tag k="ssr:stedsnr" v="48741" />
	</node>
	<node lat="59.32092778207314" lon="8.134933337344608" id="-28925">
		<tag k="name" v="Fossumsanden camping" />
		<tag k="ssr:stedsnr" v="48889" />
		<tag k="tourism" v="camp_site" />
	</node>
	<node lat="59.32497777967836" lon="8.140769438530567" id="-28932">
		<tag k="name" v="Haugland" />
		<tag k="place" v="farm" />
		<tag k="ssr:stedsnr" v="48866" />
	</node>
	<node lat="59.00194444590463" lon="8.039616659509093" id="-28934">
		<tag k="fixme" v="consider place=hamlet" />
		<tag k="name" v="Midtgarden" />
		<tag k="place" v="farm" />
		<tag k="ssr:stedsnr" v="49148" />
	</node>
	<node lat="59.08396666272412" lon="7.843349992832726" id="-28938">
		<tag k="name" v="Olstadhytta" />
		<tag k="place" v="isolated_dwelling" />
		<tag k="ssr:stedsnr" v="49293" />
	</node>
	<node lat="59.290052781759556" lon="7.9896638817756225" id="-28941">
		<tag k="name" v="Songedal nistog" />
		<tag k="place" v="farm" />
		<tag k="ssr:stedsnr" v="49329" />
	</node>
	<node lat="58.99918610862445" lon="8.24376943595916" id="-28962">
		<tag k="name" v="Rui" />
		<tag k="place" v="farm" />
		<tag k="ssr:stedsnr" v="61851" />
	</node>
	<node lat="59.17358055749546" lon="7.959455558547011" id="-28966">
		<tag k="name" v="Vassli" />
		<tag k="place" v="locality" />
		<tag k="ssr:stedsnr" v="62387" />
	</node>
	<node lat="59.151902780850726" lon="7.974691670332668" id="-28967">
		<tag k="name" v="Jopperud" />
		<tag k="place" v="farm" />
		<tag k="ssr:stedsnr" v="62405" />
	</node>
	<node lat="59.171600000814564" lon="7.969202782631695" id="-28968">
		<tag k="alt_name" v="Hedderstøylen" />
		<tag k="name" v="Hedderstølen" />
		<tag k="place" v="locality" />
		<tag k="ssr:stedsnr" v="62406" />
	</node>
	<node lat="59.10225000322543" lon="7.897591671038807" id="-28977">
		<tag k="alt_name" v="Trosvikstøylen" />
		<tag k="name" v="Trosvik" />
		<tag k="old_name" v="Trosvikstøl" />
		<tag k="place" v="locality" />
		<tag k="ssr:stedsnr" v="62436" />
	</node>
	<node lat="59.09965555838338" lon="7.896411106336315" id="-28978">
		<tag k="historic" v="shieling" />
		<tag k="name" v="Kultrane" />
		<tag k="place" v="isolated_dwelling" />
		<tag k="ssr:stedsnr" v="62444" />
	</node>
	<node lat="59.30928333541019" lon="8.12798611226143" id="-28984">
		<tag k="name" v="Rindebakken" />
		<tag k="place" v="farm" />
		<tag k="ssr:stedsnr" v="63162" />
	</node>
	<node lat="59.26179167045598" lon="8.151002784634514" id="-28985">
		<tag k="name" v="Nystøyl" />
		<tag k="place" v="locality" />
		<tag k="ssr:stedsnr" v="63224" />
	</node>
	<node lat="59.267708330095495" lon="7.963963896384124" id="-28989">
		<tag k="historic" v="shieling" />
		<tag k="name" v="Vembedalen" />
		<tag k="place" v="isolated_dwelling" />
		<tag k="ssr:stedsnr" v="63919" />
	</node>
	<node lat="59.30000601395384" lon="7.96836487067053" id="-28991">
		<tag k="name" v="Donstad" />
		<tag k="place" v="locality" />
		<tag k="ssr:stedsnr" v="63956" />
	</node>
	<node lat="59.28896389202524" lon="7.7684500028445616" id="-28992">
		<tag k="name" v="Øysæ" />
		<tag k="place" v="locality" />
		<tag k="ssr:stedsnr" v="63962" />
	</node>
	<node lat="59.3253083368464" lon="7.90718888444325" id="-28997">
		<tag k="fixme" v="consider place=hamlet" />
		<tag k="name" v="Aslestad" />
		<tag k="place" v="farm" />
		<tag k="ssr:stedsnr" v="63999" />
	</node>
	<node lat="59.10436666588892" lon="8.007494440778148" id="-29013">
		<tag k="historic" v="shieling" />
		<tag k="name" v="Bjøllii" />
		<tag k="place" v="isolated_dwelling" />
		<tag k="ssr:stedsnr" v="88439" />
	</node>
	<node lat="59.23373055908105" lon="8.089541666281754" id="-29017">
		<tag k="name" v="Haugen øvre" />
		<tag k="place" v="farm" />
		<tag k="ssr:stedsnr" v="94459" />
	</node>
	<node lat="59.195508332232464" lon="8.086255564227319" id="-29018">
		<tag k="name" v="Furulund" />
		<tag k="place" v="farm" />
		<tag k="ssr:stedsnr" v="94878" />
	</node>
	<node lat="59.20317221946176" lon="8.10111667408567" id="-29019">
		<tag k="name" v="Hovland" />
		<tag k="place" v="isolated_dwelling" />
		<tag k="ssr:stedsnr" v="94880" />
	</node>
	<node lat="59.24877222364754" lon="7.9082833398659" id="-29024">
		<tag k="alt_name" v="Uppistog" />
		<tag k="name" v="Uppistog Bergland" />
		<tag k="place" v="farm" />
		<tag k="ssr:stedsnr" v="95146" />
	</node>
	<node lat="59.249958334888" lon="8.041869444468295" id="-29025">
		<tag k="fixme" v="consider place=hamlet" />
		<tag k="name" v="Austjord" />
		<tag k="place" v="farm" />
		<tag k="ssr:stedsnr" v="95263" />
	</node>
	<node lat="59.19941111137817" lon="7.7996861081546545" id="-29036">
		<tag k="name" v="Valalia" />
		<tag k="place" v="locality" />
		<tag k="ssr:stedsnr" v="96306" />
	</node>
	<node lat="59.24114722231092" lon="7.93460278336656" id="-29044">
		<tag k="alt_name" v="Midtgarden" />
		<tag k="name" v="Midtgarden Metveit" />
		<tag k="place" v="farm" />
		<tag k="ssr:stedsnr" v="96994" />
	</node>
	<node lat="59.24338055273265" lon="7.929174992697112" id="-29045">
		<tag k="name" v="Askerud" />
		<tag k="place" v="farm" />
		<tag k="ssr:stedsnr" v="96995" />
	</node>
	<node lat="59.24474166234542" lon="7.925933327577572" id="-29046">
		<tag k="name" v="Rui, nistog" />
		<tag k="place" v="farm" />
		<tag k="ssr:stedsnr" v="96999" />
	</node>
	<node lat="59.253352780342105" lon="8.33351666981063" id="-29063">
		<tag k="name" v="Austre Rauhelle" />
		<tag k="place" v="locality" />
		<tag k="ssr:stedsnr" v="108150" />
	</node>
	<node lat="59.29439722627681" lon="8.102700001344148" id="-29072">
		<tag k="name" v="Heimtun" />
		<tag k="place" v="isolated_dwelling" />
		<tag k="ssr:stedsnr" v="109344" />
	</node>
	<node lat="59.26541388551456" lon="8.095577771435615" id="-29076">
		<tag k="name" v="Rullan" />
		<tag k="place" v="locality" />
		<tag k="ssr:stedsnr" v="109440" />
	</node>
	<node lat="59.062644448330616" lon="8.265094438234122" id="-29078">
		<tag k="name" v="Norigard" />
		<tag k="place" v="farm" />
		<tag k="ssr:stedsnr" v="108553" />
	</node>
	<node lat="59.29301389205687" lon="8.114136108829221" id="-29086">
		<tag k="name" v="Veum nordigard" />
		<tag k="place" v="farm" />
		<tag k="ssr:stedsnr" v="109228" />
	</node>
	<node lat="59.34976110928702" lon="8.072616669147221" id="-29092">
		<tag k="name" v="Krålen" />
		<tag k="place" v="locality" />
		<tag k="ssr:stedsnr" v="109495" />
	</node>
	<node lat="59.269077776948585" lon="8.096161106120242" id="-29094">
		<tag k="name" v="Bjørnstad nordre" />
		<tag k="place" v="farm" />
		<tag k="ssr:stedsnr" v="109443" />
	</node>
	<node lat="59.06634444775196" lon="8.264800001370377" id="-29106">
		<tag k="name" v="Sandvoll" />
		<tag k="place" v="isolated_dwelling" />
		<tag k="ssr:stedsnr" v="109939" />
	</node>
	<node lat="59.15005277388852" lon="7.766736118237258" id="-29111">
		<tag k="historic" v="shieling" />
		<tag k="name" v="Bærvasstøylen" />
		<tag k="place" v="isolated_dwelling" />
		<tag k="ssr:stedsnr" v="110841" />
	</node>
	<node lat="59.28000833601429" lon="8.086313881976125" id="-29113">
		<tag k="name" v="Dale" />
		<tag k="place" v="farm" />
		<tag k="ssr:stedsnr" v="109961" />
	</node>
	<node lat="59.31345277914054" lon="7.882822226545621" id="-29118">
		<tag k="name" v="Sveigstøyl" />
		<tag k="place" v="locality" />
		<tag k="ssr:stedsnr" v="110229" />
	</node>
	<node lat="59.34362777795425" lon="7.8840611027483325" id="-29122">
		<tag k="name" v="Stavli" />
		<tag k="place" v="locality" />
		<tag k="ssr:stedsnr" v="110384" />
	</node>
	<node lat="59.25941111046381" lon="7.944194437390919" id="-29128">
		<tag k="name" v="Krokstjønnbua" />
		<tag k="place" v="locality" />
		<tag k="ssr:stedsnr" v="110424" />
	</node>
	<node lat="59.2360944447906" lon="7.831111112540263" id="-29138">
		<tag k="alt_name" v="Nusvik" />
		<tag k="fixme" v="consider place=hamlet" />
		<tag k="name" v="Nussvik" />
		<tag k="place" v="farm" />
		<tag k="ssr:stedsnr" v="122341" />
	</node>
	<node lat="59.06157500040104" lon="8.265175002330794" id="-29139">
		<tag k="alt_name" v="Valebjør" />
		<tag k="fixme" v="consider place=hamlet" />
		<tag k="name" v="Valebjørg" />
		<tag k="place" v="farm" />
		<tag k="ssr:stedsnr" v="122188" />
	</node>
	<node lat="59.17229167009349" lon="7.91845277820109" id="-29141">
		<tag k="name" v="Borggrend" />
		<tag k="place" v="hamlet" />
		<tag k="ssr:stedsnr" v="122371" />
	</node>
	<node lat="59.180177777411004" lon="7.794802781682513" id="-29142">
		<tag k="fixme" v="consider place=hamlet" />
		<tag k="name" v="Ramsvatn" />
		<tag k="place" v="farm" />
		<tag k="ssr:stedsnr" v="122374" />
	</node>
	<node lat="59.16637777923896" lon="8.086383330829982" id="-29144">
		<tag k="name" v="Bergland" />
		<tag k="place" v="farm" />
		<tag k="ssr:stedsnr" v="122385" />
	</node>
	<node lat="59.161586111864516" lon="8.039533340431271" id="-29145">
		<tag k="name" v="Ålandsli" />
		<tag k="place" v="farm" />
		<tag k="ssr:stedsnr" v="122398" />
	</node>
	<node lat="59.15361944145229" lon="7.876463887947137" id="-29146">
		<tag k="alt_name" v="Nørdsteli" />
		<tag k="historic" v="shieling" />
		<tag k="name" v="Nørstelistøylen" />
		<tag k="place" v="isolated_dwelling" />
		<tag k="ssr:stedsnr" v="122399" />
	</node>
	<node lat="58.95898889109692" lon="8.325305561265777" id="-29153">
		<tag k="name" v="Drangstveit" />
		<tag k="place" v="farm" />
		<tag k="ssr:stedsnr" v="122893" />
	</node>
	<node lat="59.224394442979005" lon="8.093530560322808" id="-29165">
		<tag k="alt_name" v="Lunden søndre" />
		<tag k="name" v="Lunden" />
		<tag k="place" v="farm" />
		<tag k="ssr:stedsnr" v="123302" />
	</node>
	<node lat="59.225541669937876" lon="8.092152782760937" id="-29166">
		<tag k="fixme" v="consider place=hamlet" />
		<tag k="name" v="Lunden" />
		<tag k="place" v="farm" />
		<tag k="ssr:stedsnr" v="123364" />
	</node>
	<node lat="59.146911115558595" lon="8.053230564084092" id="-29173">
		<tag k="name" v="Fardal" />
		<tag k="place" v="isolated_dwelling" />
		<tag k="ssr:stedsnr" v="123449" />
	</node>
	<node lat="59.260666670803104" lon="7.830669436370132" id="-29175">
		<tag k="alt_name" v="Rekfjellstølen;Rekedalsstøylen" />
		<tag k="name" v="Rekefjellstøylen" />
		<tag k="place" v="locality" />
		<tag k="ssr:stedsnr" v="123947" />
	</node>
	<node lat="59.256763891223294" lon="7.737602778739859" id="-29176">
		<tag k="alt_name" v="Øytjørnstøyl" />
		<tag k="name" v="Øytjønnstøylen" />
		<tag k="old_name" v="Øytjørnstøl" />
		<tag k="place" v="locality" />
		<tag k="ssr:stedsnr" v="123950" />
	</node>
	<node lat="59.238269442296854" lon="8.096441671997363" id="-29191">
		<tag k="name" v="Smeland" />
		<tag k="place" v="farm" />
		<tag k="ssr:stedsnr" v="155396" />
	</node>
	<node lat="59.22194444517315" lon="8.094180547279526" id="-29192">
		<tag k="name" v="Liarheim" />
		<tag k="place" v="farm" />
		<tag k="ssr:stedsnr" v="155509" />
	</node>
	<node lat="59.207249997657925" lon="8.086624994827474" id="-29193">
		<tag k="name" v="Furuly" />
		<tag k="place" v="isolated_dwelling" />
		<tag k="ssr:stedsnr" v="155476" />
	</node>
	<node lat="59.20364721835181" lon="8.10095554782494" id="-29195">
		<tag k="name" v="Nyland" />
		<tag k="place" v="isolated_dwelling" />
		<tag k="ssr:stedsnr" v="155826" />
	</node>
	<node lat="59.207438887222146" lon="7.804377785581487" id="-29214">
		<tag k="name" v="Haugebreihomstøylen" />
		<tag k="place" v="locality" />
		<tag k="ssr:stedsnr" v="157093" />
	</node>
	<node lat="59.060936109148855" lon="8.338791669577095" id="-29227">
		<tag k="name" v="Røykbu" />
		<tag k="place" v="isolated_dwelling" />
		<tag k="ssr:stedsnr" v="166095" />
	</node>
	<node lat="59.02892500368912" lon="8.202386116365082" id="-29230">
		<tag k="name" v="Stråndestøylen" />
		<tag k="place" v="locality" />
		<tag k="ssr:stedsnr" v="166140" />
	</node>
	<node lat="59.26346111101363" lon="7.9391277746024205" id="-29233">
		<tag k="name" v="Lamstjønnbua" />
		<tag k="place" v="isolated_dwelling" />
		<tag k="ssr:stedsnr" v="170426" />
	</node>
	<node lat="59.00670833068566" lon="8.285794452234574" id="-29234">
		<tag k="name" v="Skarnes" />
		<tag k="place" v="isolated_dwelling" />
		<tag k="ssr:stedsnr" v="168646" />
	</node>
	<node lat="59.191052773944506" lon="8.217811109386133" id="-29259">
		<tag k="name" v="Midtgarden" />
		<tag k="place" v="farm" />
		<tag k="ssr:stedsnr" v="169450" />
	</node>
	<node lat="59.307755554876636" lon="8.220791660979781" id="-29261">
		<tag k="name" v="Myrsenden" />
		<tag k="place" v="locality" />
		<tag k="ssr:stedsnr" v="169481" />
	</node>
	<node lat="59.177908337064096" lon="8.088455561834014" id="-29267">
		<tag k="name" v="Seljestad" />
		<tag k="place" v="isolated_dwelling" />
		<tag k="ssr:stedsnr" v="169786" />
	</node>
	<node lat="59.293902777799836" lon="8.114724994311787" id="-29275">
		<tag k="fixme" v="consider place=hamlet" />
		<tag k="name" v="Nordre Veum" />
		<tag k="place" v="farm" />
		<tag k="ssr:stedsnr" v="170095" />
	</node>
	<node lat="59.28626666874369" lon="7.984813892928834" id="-29285">
		<tag k="name" v="Byggstøyl" />
		<tag k="place" v="locality" />
		<tag k="ssr:stedsnr" v="171278" />
	</node>
	<node lat="59.058983337622294" lon="7.985397227272294" id="-29288">
		<tag k="name" v="Klauvås" />
		<tag k="old_name" v="Klauvstad" />
		<tag k="place" v="farm" />
		<tag k="ssr:stedsnr" v="183415" />
	</node>
	<node lat="59.04802452206962" lon="7.982458298634043" id="-29289">
		<tag k="alt_name" v="Fisketjørnstøylen" />
		<tag k="historic" v="shieling" />
		<tag k="name" v="Fisketjønnstøylen" />
		<tag k="old_name" v="Fisketjørnstøl" />
		<tag k="place" v="isolated_dwelling" />
		<tag k="ssr:stedsnr" v="183425" />
	</node>
	<node lat="59.04337222250232" lon="8.043133337421686" id="-29291">
		<tag k="name" v="Buvik" />
		<tag k="place" v="locality" />
		<tag k="ssr:stedsnr" v="183433" />
	</node>
	<node lat="59.106599998781114" lon="8.26267778609245" id="-29295">
		<tag k="alt_name" v="Fisketjørn" />
		<tag k="name" v="Fisketjønnstøylen" />
		<tag k="place" v="isolated_dwelling" />
		<tag k="ssr:stedsnr" v="183158" />
	</node>
	<node lat="59.24535000308776" lon="7.916244436043299" id="-29298">
		<tag k="alt_name" v="Kleivi" />
		<tag k="fixme" v="consider place=hamlet" />
		<tag k="name" v="Kleiva" />
		<tag k="place" v="farm" />
		<tag k="ssr:stedsnr" v="183273" />
	</node>
	<node lat="59.24890555672078" lon="8.037797224334586" id="-29299">
		<tag k="alt_name" v="Haga nordre" />
		<tag k="fixme" v="consider place=hamlet" />
		<tag k="name" v="Haga" />
		<tag k="place" v="farm" />
		<tag k="ssr:stedsnr" v="183275" />
	</node>
	<node lat="58.994813886424474" lon="8.259269450343169" id="-29304">
		<tag k="name" v="Eidskard" />
		<tag k="place" v="farm" />
		<tag k="ssr:stedsnr" v="183856" />
	</node>
	<node lat="59.003922219504375" lon="8.037247219352697" id="-29309">
		<tag k="name" v="Midtgarden" />
		<tag k="place" v="farm" />
		<tag k="ssr:stedsnr" v="184015" />
	</node>
	<node lat="59.30584721828038" lon="8.100866661385412" id="-29311">
		<tag k="alt_name" v="Grånli" />
		<tag k="name" v="Granli" />
		<tag k="place" v="isolated_dwelling" />
		<tag k="ssr:stedsnr" v="184151" />
	</node>
	<node lat="59.132963886828065" lon="7.805611115207104" id="-29317">
		<tag k="alt_name" v="Hedderstøylen" />
		<tag k="name" v="Helleren" />
		<tag k="old_name" v="Hedderstølen" />
		<tag k="place" v="locality" />
		<tag k="ssr:stedsnr" v="184418" />
	</node>
	<node lat="59.30077499735545" lon="8.041577778651309" id="-29319">
		<tag k="name" v="Fossås" />
		<tag k="place" v="farm" />
		<tag k="ssr:stedsnr" v="184951" />
	</node>
	<node lat="59.25326388921517" lon="8.062761111784697" id="-29320">
		<tag k="alt_name" v="Besjord" />
		<tag k="fixme" v="consider place=hamlet" />
		<tag k="name" v="Bessjord" />
		<tag k="place" v="farm" />
		<tag k="ssr:stedsnr" v="184854" />
	</node>
	<node lat="59.24978611361947" lon="8.041675002554122" id="-29321">
		<tag k="name" v="Austjord" />
		<tag k="place" v="farm" />
		<tag k="ssr:stedsnr" v="184857" />
	</node>
	<node lat="59.31779166854472" lon="7.891888882743914" id="-29323">
		<tag k="alt_name" v="Midtstøyl" />
		<tag k="name" v="Midstøyl" />
		<tag k="old_name" v="Midstøl" />
		<tag k="place" v="locality" />
		<tag k="ssr:stedsnr" v="184928" />
	</node>
	<node lat="59.30653610936288" lon="7.9937666711430975" id="-29330">
		<tag k="alt_name" v="Dokkji" />
		<tag k="name" v="Dokki" />
		<tag k="place" v="farm" />
		<tag k="ssr:stedsnr" v="209368" />
	</node>
	<node lat="59.24935000175003" lon="8.0783999922435" id="-29341">
		<tag k="name" v="Kleiv" />
		<tag k="place" v="locality" />
		<tag k="ssr:stedsnr" v="210035" />
	</node>
	<node lat="59.22831111421688" lon="8.095124993803942" id="-29349">
		<tag k="name" v="Jægersborg" />
		<tag k="place" v="locality" />
		<tag k="ssr:stedsnr" v="216457" />
	</node>
	<node lat="59.24420833415486" lon="7.95029722100316" id="-29352">
		<tag k="name" v="Metveitstøylen" />
		<tag k="place" v="locality" />
		<tag k="ssr:stedsnr" v="216492" />
	</node>
	<node lat="59.145216667043485" lon="8.042263896862686" id="-29368">
		<tag k="amenity" v="school" />
		<tag k="name" v="Grendeskule" />
		<tag k="ssr:stedsnr" v="217584" />
	</node>
	<node lat="59.17891666559584" lon="8.038636114411267" id="-29369">
		<tag k="name" v="Buine" />
		<tag k="place" v="locality" />
		<tag k="ssr:stedsnr" v="217597" />
	</node>
	<node lat="59.24548611099523" lon="7.898569441955821" id="-29370">
		<tag k="name" v="Øygarden" />
		<tag k="place" v="farm" />
		<tag k="ssr:stedsnr" v="217954" />
	</node>
	<node lat="59.23982222442736" lon="7.93348055659865" id="-29371">
		<tag k="name" v="Haugom" />
		<tag k="place" v="farm" />
		<tag k="ssr:stedsnr" v="217988" />
	</node>
	<node lat="59.240758329598144" lon="8.288630560544878" id="-29377">
		<tag k="name" v="Homvasshytta" />
		<tag k="place" v="isolated_dwelling" />
		<tag k="ssr:stedsnr" v="218661" />
	</node>
	<node lat="59.32604999554089" lon="7.748697222132452" id="-29380">
		<tag k="name" v="Gullbu" />
		<tag k="place" v="locality" />
		<tag k="ssr:stedsnr" v="218674" />
	</node>
	<node lat="59.15951389252354" lon="7.803133327425514" id="-29382">
		<tag k="name" v="Bjønnebåsen" />
		<tag k="place" v="locality" />
		<tag k="ssr:stedsnr" v="219943" />
	</node>
	<node lat="59.13117222319572" lon="7.7930833349772906" id="-29383">
		<tag k="name" v="Slåki" />
		<tag k="place" v="isolated_dwelling" />
		<tag k="ssr:stedsnr" v="219966" />
	</node>
	<node lat="59.24851944375457" lon="8.065016662450404" id="-29392">
		<tag k="name" v="Kroa" />
		<tag k="place" v="farm" />
		<tag k="ssr:stedsnr" v="276448" />
	</node>
	<node lat="59.24353055400281" lon="8.084866664563807" id="-29394">
		<tag k="historic" v="shieling" />
		<tag k="name" v="Juvi" />
		<tag k="place" v="isolated_dwelling" />
		<tag k="ssr:stedsnr" v="276501" />
	</node>
	<node lat="59.19028055824721" lon="8.089274997925838" id="-29397">
		<tag k="building" v="industrial" />
		<tag k="name" v="Bondalsheim" />
		<tag k="ssr:stedsnr" v="276849" />
	</node>
	<node lat="59.19056111472906" lon="8.086052786133873" id="-29398">
		<tag k="name" v="Furuheim" />
		<tag k="place" v="isolated_dwelling" />
		<tag k="ssr:stedsnr" v="276854" />
	</node>
	<node lat="59.20333889075864" lon="8.058322215117352" id="-29399">
		<tag k="name" v="Snarteland Søgard" />
		<tag k="place" v="farm" />
		<tag k="ssr:stedsnr" v="276865" />
	</node>
	<node lat="59.14763055957162" lon="7.974250003130369" id="-29402">
		<tag k="historic" v="shieling" />
		<tag k="name" v="Glomstøyl" />
		<tag k="place" v="isolated_dwelling" />
		<tag k="ssr:stedsnr" v="278439" />
	</node>
	<node lat="59.246380551482495" lon="7.8907388914647525" id="-29410">
		<tag k="alt_name" v="Løngdal" />
		<tag k="name" v="Lyngdal" />
		<tag k="place" v="farm" />
		<tag k="ssr:stedsnr" v="277183" />
	</node>
	<node lat="59.24865833757685" lon="8.03562500516746" id="-29411">
		<tag k="name" v="Lauvland" />
		<tag k="place" v="isolated_dwelling" />
		<tag k="ssr:stedsnr" v="277351" />
	</node>
	<node lat="59.24768333393528" lon="8.040508338011204" id="-29413">
		<tag k="fixme" v="consider place=hamlet" />
		<tag k="name" v="Rinden" />
		<tag k="place" v="farm" />
		<tag k="ssr:stedsnr" v="277359" />
	</node>
	<node lat="59.24628055776514" lon="7.9861277760043325" id="-29416">
		<tag k="historic" v="shieling" />
		<tag k="name" v="Saupstøyl" />
		<tag k="place" v="isolated_dwelling" />
		<tag k="ssr:stedsnr" v="277557" />
	</node>
	<node lat="59.24361666751799" lon="7.872152778774516" id="-29421">
		<tag k="name" v="Osi" />
		<tag k="place" v="locality" />
		<tag k="ssr:stedsnr" v="278125" />
	</node>
	<node lat="59.208838884451616" lon="8.183869447101694" id="-29428">
		<tag k="name" v="Prestedalstøylen" />
		<tag k="place" v="locality" />
		<tag k="ssr:stedsnr" v="278528" />
	</node>
	<node lat="59.144325003963914" lon="8.034463885206383" id="-29429">
		<tag k="fixme" v="consider place=hamlet" />
		<tag k="name" v="Nøra" />
		<tag k="place" v="farm" />
		<tag k="ssr:stedsnr" v="278629" />
	</node>
	<node lat="59.24909166647486" lon="8.291919450213571" id="-29435">
		<tag k="historic" v="shieling" />
		<tag k="name" v="Nystøyl" />
		<tag k="place" v="isolated_dwelling" />
		<tag k="ssr:stedsnr" v="278700" />
	</node>
	<node lat="59.18186111371668" lon="7.83712221406999" id="-29436">
		<tag k="historic" v="shieling" />
		<tag k="name" v="Fiskeløysstøylen" />
		<tag k="place" v="isolated_dwelling" />
		<tag k="ssr:stedsnr" v="278790" />
	</node>
	<node lat="59.17229166483545" lon="7.916858329680325" id="-29437">
		<tag k="name" v="Borgen nedre" />
		<tag k="place" v="farm" />
		<tag k="ssr:stedsnr" v="278874" />
	</node>
	<node lat="59.24104166260248" lon="7.7810944370511" id="-29439">
		<tag k="name" v="Nystøyl" />
		<tag k="place" v="locality" />
		<tag k="ssr:stedsnr" v="278748" />
	</node>
	<node lat="59.18431388598573" lon="8.114150002271275" id="-29448">
		<tag k="name" v="Lauvdal nordre" />
		<tag k="place" v="farm" />
		<tag k="ssr:stedsnr" v="290415" />
	</node>
	<node lat="59.00711388477641" lon="8.277108327842072" id="-29473">
		<tag k="name" v="Karisholmen" />
		<tag k="place" v="isolated_dwelling" />
		<tag k="ssr:stedsnr" v="291272" />
	</node>
	<node lat="59.278180553136465" lon="8.248088896252725" id="-29475">
		<tag k="name" v="Fiskehytta" />
		<tag k="place" v="locality" />
		<tag k="ssr:stedsnr" v="291443" />
	</node>
	<node lat="59.28658055791355" lon="8.057602770089698" id="-29484">
		<tag k="name" v="Spokkeli sørigard" />
		<tag k="place" v="farm" />
		<tag k="ssr:stedsnr" v="291763" />
	</node>
	<node lat="59.318811115192226" lon="8.139813892169194" id="-29486">
		<tag k="name" v="Berge" />
		<tag k="place" v="farm" />
		<tag k="ssr:stedsnr" v="291887" />
	</node>
	<node lat="59.32509166639076" lon="8.157647230779068" id="-29488">
		<tag k="name" v="Støylen" />
		<tag k="place" v="locality" />
		<tag k="ssr:stedsnr" v="291896" />
	</node>
	<node lat="59.06389444194354" lon="7.960947214950421" id="-29497">
		<tag k="name" v="Lia" />
		<tag k="place" v="neighbourhood" />
		<tag k="ssr:stedsnr" v="292141" />
	</node>
	<node lat="59.304316666503766" lon="7.876833326763118" id="-29498">
		<tag k="name" v="Fjellstøyl" />
		<tag k="place" v="locality" />
		<tag k="ssr:stedsnr" v="292142" />
	</node>
	<node lat="59.20502222271431" lon="8.082688890802004" id="-29507">
		<tag k="name" v="Molandsmoen industriområde" />
		<tag k="place" v="quarter" />
		<tag k="ssr:stedsnr" v="302971" />
	</node>
	<node lat="59.06146388660511" lon="8.133916666949107" id="-29511">
		<tag k="alt_name" v="Sandvasstøylen" />
		<tag k="name" v="Sandvasstøl" />
		<tag k="place" v="isolated_dwelling" />
		<tag k="ssr:stedsnr" v="304172" />
	</node>
	<node lat="59.06041388971802" lon="7.980466670989731" id="-29514">
		<tag k="fixme" v="consider place=hamlet" />
		<tag k="name" v="Tovsli" />
		<tag k="place" v="farm" />
		<tag k="ssr:stedsnr" v="304461" />
	</node>
	<node lat="59.17522500161765" lon="8.103124996125464" id="-29520">
		<tag k="name" v="Åsberg" />
		<tag k="place" v="farm" />
		<tag k="ssr:stedsnr" v="305066" />
	</node>
	<node lat="59.18958888619492" lon="8.213266663461134" id="-29521">
		<tag k="alt_name" v="Austre Nape" />
		<tag k="name" v="Nape" />
		<tag k="place" v="farm" />
		<tag k="ssr:stedsnr" v="305077" />
	</node>
	<node lat="59.292124996537844" lon="8.11783889395049" id="-29523">
		<tag k="alt_name" v="Veom" />
		<tag k="name" v="Veum" />
		<tag k="place" v="hamlet" />
		<tag k="ssr:stedsnr" v="305135" />
	</node>
	<node lat="59.0950916668811" lon="8.241213887038626" id="-29527">
		<tag k="alt_name" v="Stuvestøl" />
		<tag k="name" v="Stuvestøyl" />
		<tag k="place" v="isolated_dwelling" />
		<tag k="ssr:stedsnr" v="305174" />
	</node>
	<node lat="59.09553889200549" lon="8.234074996840011" id="-29528">
		<tag k="alt_name" v="Stebua" />
		<tag k="name" v="Stebui" />
		<tag k="place" v="isolated_dwelling" />
		<tag k="ssr:stedsnr" v="305177" />
	</node>
	<node lat="59.26163333084698" lon="8.337225006275666" id="-29529">
		<tag k="name" v="Kråbu" />
		<tag k="place" v="locality" />
		<tag k="ssr:stedsnr" v="305189" />
	</node>
	<node lat="59.25093055910516" lon="8.096075002581962" id="-29530">
		<tag k="name" v="Kasine" />
		<tag k="place" v="isolated_dwelling" />
		<tag k="ssr:stedsnr" v="305193" />
	</node>
	<node lat="59.32793055377969" lon="7.946972222549512" id="-29536">
		<tag k="alt_name" v="Buene" />
		<tag k="historic" v="shieling" />
		<tag k="name" v="Buine" />
		<tag k="place" v="isolated_dwelling" />
		<tag k="ssr:stedsnr" v="305998" />
	</node>
	<node lat="59.31937500008622" lon="7.817016669427106" id="-29538">
		<tag k="alt_name" v="Uvtjørn" />
		<tag k="historic" v="shieling" />
		<tag k="name" v="Uvtjønnstøylen" />
		<tag k="place" v="isolated_dwelling" />
		<tag k="ssr:stedsnr" v="305948" />
	</node>
	<node lat="59.31854444819133" lon="8.155666669338533" id="-29540">
		<tag k="name" v="Remberg" />
		<tag k="place" v="isolated_dwelling" />
		<tag k="ssr:stedsnr" v="306178" />
	</node>
	<node lat="59.101750003472006" lon="7.848952774308693" id="-29545">
		<tag k="alt_name" v="Båsfjellstøylen" />
		<tag k="historic" v="shieling" />
		<tag k="name" v="Båsfjell" />
		<tag k="place" v="isolated_dwelling" />
		<tag k="ssr:stedsnr" v="330500" />
	</node>
	<node lat="59.17637607847701" lon="7.898513180766227" id="-29546">
		<tag k="name" v="Skrimsdalen" />
		<tag k="place" v="locality" />
		<tag k="ssr:stedsnr" v="330445" />
	</node>
	<node lat="59.18206666414391" lon="8.053141672323479" id="-29547">
		<tag k="name" v="Sandland" />
		<tag k="place" v="farm" />
		<tag k="ssr:stedsnr" v="330447" />
	</node>
	<node lat="59.104274995860706" lon="7.982488894865834" id="-29550">
		<tag k="historic" v="shieling" />
		<tag k="name" v="Furestøyl" />
		<tag k="place" v="isolated_dwelling" />
		<tag k="ssr:stedsnr" v="330536" />
	</node>
	<node lat="59.11526111035552" lon="8.240899998681398" id="-29551">
		<tag k="name" v="Fritjønnstøylen" />
		<tag k="place" v="locality" />
		<tag k="ssr:stedsnr" v="331545" />
	</node>
	<node lat="59.246258331477414" lon="8.065583339829486" id="-29553">
		<tag k="name" v="Hagedalen" />
		<tag k="place" v="farm" />
		<tag k="ssr:stedsnr" v="337383" />
	</node>
	<node lat="59.20350277984136" lon="8.09588056356396" id="-29555">
		<tag k="name" v="Stykket" />
		<tag k="place" v="isolated_dwelling" />
		<tag k="ssr:stedsnr" v="337834" />
	</node>
	<node lat="59.24720833121232" lon="7.90098055460271" id="-29559">
		<tag k="name" v="Midli" />
		<tag k="place" v="locality" />
		<tag k="ssr:stedsnr" v="338130" />
	</node>
	<node lat="59.24906389307686" lon="7.907052785766286" id="-29560">
		<tag k="alt_name" v="Nordistog" />
		<tag k="name" v="Nordistog Bergland" />
		<tag k="place" v="farm" />
		<tag k="ssr:stedsnr" v="338134" />
	</node>
	<node lat="59.24863333615409" lon="8.033241665325741" id="-29564">
		<tag k="name" v="Hagajorde" />
		<tag k="old_name" v="Hagajore" />
		<tag k="place" v="farm" />
		<tag k="ssr:stedsnr" v="338326" />
	</node>
	<node lat="59.23668333744898" lon="7.944647215639029" id="-29566">
		<tag k="name" v="Åsen" />
		<tag k="place" v="locality" />
		<tag k="ssr:stedsnr" v="338429" />
	</node>
	<node lat="59.14650833452596" lon="7.871747218024792" id="-29580">
		<tag k="historic" v="shieling" />
		<tag k="name" v="Rotbulistøylen" />
		<tag k="place" v="isolated_dwelling" />
		<tag k="ssr:stedsnr" v="339601" />
	</node>
	<node lat="59.06200555738897" lon="8.349527783900127" id="-29583">
		<tag k="name" v="Trollbu" />
		<tag k="place" v="isolated_dwelling" />
		<tag k="ssr:stedsnr" v="347097" />
	</node>
	<node lat="59.07302221935562" lon="8.255797221411086" id="-29589">
		<tag k="name" v="Lauvik" />
		<tag k="place" v="farm" />
		<tag k="ssr:stedsnr" v="350499" />
	</node>
	<node lat="59.29212222522295" lon="8.117880555021591" id="-29602">
		<tag k="name" v="Veum uppigard" />
		<tag k="place" v="farm" />
		<tag k="ssr:stedsnr" v="351248" />
	</node>
	<node lat="59.310908337601745" lon="8.116413891549668" id="-29603">
		<tag k="name" v="Solli" />
		<tag k="place" v="locality" />
		<tag k="ssr:stedsnr" v="351331" />
	</node>
	<node lat="59.059708333414285" lon="8.069949991395962" id="-29613">
		<tag k="name" v="Borghildsbu" />
		<tag k="place" v="isolated_dwelling" />
		<tag k="ssr:stedsnr" v="351449" />
	</node>
	<node lat="59.160877778638785" lon="8.099547224306963" id="-29614">
		<tag k="name" v="Lauvstadhytta" />
		<tag k="place" v="locality" />
		<tag k="ssr:stedsnr" v="351587" />
	</node>
	<node lat="59.24237499807002" lon="8.211861115955067" id="-29616">
		<tag k="name" v="Nystøyl" />
		<tag k="place" v="locality" />
		<tag k="ssr:stedsnr" v="351834" />
	</node>
	<node lat="59.324472219229676" lon="8.107452772979986" id="-29627">
		<tag k="alt_name" v="Nordre Skrei" />
		<tag k="name" v="Nordre Skredi" />
		<tag k="place" v="locality" />
		<tag k="ssr:stedsnr" v="351995" />
	</node>
	<node lat="59.263883337404565" lon="8.000611106899129" id="-29629">
		<tag k="name" v="Nystøyl" />
		<tag k="place" v="locality" />
		<tag k="ssr:stedsnr" v="352080" />
	</node>
	<node lat="59.282394443336976" lon="7.849705556501825" id="-29638">
		<tag k="name" v="Åsi" />
		<tag k="place" v="locality" />
		<tag k="ssr:stedsnr" v="352452" />
	</node>
	<node lat="59.18142500321723" lon="8.094302785095177" id="-29646">
		<tag k="name" v="Væting øvre" />
		<tag k="place" v="farm" />
		<tag k="ssr:stedsnr" v="352994" />
	</node>
	<node lat="59.16934722464414" lon="8.087508333939738" id="-29654">
		<tag k="name" v="Sørbygda" />
		<tag k="place" v="hamlet" />
		<tag k="ssr:stedsnr" v="363985" />
	</node>
	<node lat="58.97257499825386" lon="7.979566665551446" id="-29656">
		<tag k="alt_name" v="Selbustøylen" />
		<tag k="name" v="Selbustøl" />
		<tag k="place" v="isolated_dwelling" />
		<tag k="ssr:stedsnr" v="365633" />
	</node>
	<node lat="59.107900002770194" lon="8.126705564189107" id="-29658">
		<tag k="name" v="Åmli" />
		<tag k="place" v="farm" />
		<tag k="ssr:stedsnr" v="365175" />
	</node>
	<node lat="59.00682499984864" lon="8.16985000182377" id="-29667">
		<tag k="alt_name" v="Nussli" />
		<tag k="name" v="Knutslii" />
		<tag k="place" v="isolated_dwelling" />
		<tag k="ssr:stedsnr" v="366996" />
	</node>
	<node lat="58.9922194440874" lon="8.255044440428774" id="-29668">
		<tag k="name" v="Skjeggerud" />
		<tag k="place" v="farm" />
		<tag k="ssr:stedsnr" v="365876" />
	</node>
	<node lat="59.32039999865416" lon="8.19176389115993" id="-29674">
		<tag k="name" v="Høystøylane" />
		<tag k="place" v="isolated_dwelling" />
		<tag k="ssr:stedsnr" v="366179" />
	</node>
	<node lat="59.28468333398685" lon="8.093999993198748" id="-29675">
		<tag k="name" v="Veum" />
		<tag k="place" v="hamlet" />
		<tag k="ssr:stedsnr" v="366235" />
	</node>
	<node lat="59.293811114641386" lon="8.049199996934993" id="-29680">
		<tag k="fixme" v="consider place=hamlet" />
		<tag k="name" v="Hæstad" />
		<tag k="place" v="farm" />
		<tag k="ssr:stedsnr" v="366954" />
	</node>
	<node lat="59.35468691397432" lon="7.854363262844328" id="-29681">
		<tag k="alt_name" v="Danskor" />
		<tag k="historic" v="shieling" />
		<tag k="name" v="Dansskorstøyl" />
		<tag k="old_name" v="Dansskorstølen" />
		<tag k="place" v="isolated_dwelling" />
		<tag k="ssr:stedsnr" v="366961" />
	</node>
	<node lat="59.25611666750411" lon="7.772097223972112" id="-29690">
		<tag k="historic" v="shieling" />
		<tag k="name" v="Hovstøyl" />
		<tag k="old_name" v="Hovstølen" />
		<tag k="place" v="isolated_dwelling" />
		<tag k="ssr:stedsnr" v="391400" />
	</node>
	<node lat="59.20346111060554" lon="7.7670638817152176" id="-29694">
		<tag k="fixme" v="consider tourism=alpine_hut or tourism=chalet" />
		<tag k="name" v="Torsdalsbu" />
		<tag k="ssr:stedsnr" v="392023" />
		<tag k="tourism" v="wilderness_hut" />
	</node>
	<node lat="59.235297220777575" lon="8.09134999720617" id="-29704">
		<tag k="name" v="Kvålen" />
		<tag k="place" v="locality" />
		<tag k="ssr:stedsnr" v="397454" />
	</node>
	<node lat="59.232883337131426" lon="8.09951666301317" id="-29705">
		<tag k="name" v="Annbjønnbrokka" />
		<tag k="place" v="locality" />
		<tag k="ssr:stedsnr" v="397455" />
	</node>
	<node lat="59.221186112543585" lon="7.990958325164353" id="-29708">
		<tag k="name" v="Liborg" />
		<tag k="place" v="locality" />
		<tag k="ssr:stedsnr" v="397624" />
	</node>
	<node lat="59.230513891313436" lon="7.8015138827749055" id="-29723">
		<tag k="historic" v="shieling" />
		<tag k="name" v="Emondkvævstøylen" />
		<tag k="place" v="isolated_dwelling" />
		<tag k="ssr:stedsnr" v="399529" />
	</node>
	<node lat="59.26498055997602" lon="7.87905277178092" id="-29724">
		<tag k="name" v="Heddi" />
		<tag k="place" v="isolated_dwelling" />
		<tag k="ssr:stedsnr" v="399540" />
	</node>
	<node lat="59.25707777560532" lon="7.871580556082114" id="-29725">
		<tag k="historic" v="shieling" />
		<tag k="name" v="Langli" />
		<tag k="place" v="isolated_dwelling" />
		<tag k="ssr:stedsnr" v="399543" />
	</node>
	<node lat="59.1691833359234" lon="8.038369437150305" id="-29727">
		<tag k="alt_name" v="Søndre Vik" />
		<tag k="fixme" v="consider place=hamlet" />
		<tag k="name" v="Vik søgard" />
		<tag k="place" v="farm" />
		<tag k="ssr:stedsnr" v="399616" />
	</node>
	<node lat="59.25025555599873" lon="8.298347214732383" id="-29730">
		<tag k="name" v="Godokk" />
		<tag k="place" v="locality" />
		<tag k="ssr:stedsnr" v="399666" />
	</node>
	<node lat="59.199844440989416" lon="7.826961117079725" id="-29733">
		<tag k="historic" v="shieling" />
		<tag k="name" v="Bjorfitstøylen" />
		<tag k="place" v="isolated_dwelling" />
		<tag k="ssr:stedsnr" v="399745" />
	</node>
	<node lat="59.247924996975364" lon="8.090441669759418" id="-29737">
		<tag k="name" v="Gryte" />
		<tag k="place" v="hamlet" />
		<tag k="ssr:stedsnr" v="404641" />
	</node>
	<node lat="59.06529722665395" lon="8.373022220951285" id="-29744">
		<tag k="name" v="Ånundsbu" />
		<tag k="place" v="locality" />
		<tag k="ssr:stedsnr" v="409114" />
	</node>
	<node lat="59.057005559844946" lon="8.350336117350466" id="-29745">
		<tag k="historic" v="shieling" />
		<tag k="name" v="Midtstøyl" />
		<tag k="place" v="isolated_dwelling" />
		<tag k="ssr:stedsnr" v="409167" />
	</node>
	<node lat="59.05902222055431" lon="8.067847228175319" id="-29761">
		<tag k="name" v="Nedre Berge" />
		<tag k="place" v="farm" />
		<tag k="ssr:stedsnr" v="412421" />
	</node>
	<node lat="59.30977777476939" lon="8.133541666502547" id="-29765">
		<tag k="name" v="Bjåland nordre" />
		<tag k="place" v="farm" />
		<tag k="ssr:stedsnr" v="412091" />
	</node>
	<node lat="59.25289721978434" lon="8.166724999755298" id="-29766">
		<tag k="name" v="Sæsjori" />
		<tag k="place" v="locality" />
		<tag k="ssr:stedsnr" v="412118" />
	</node>
	<node lat="59.30937777404775" lon="8.08898333870482" id="-29774">
		<tag k="name" v="Berstøyl" />
		<tag k="place" v="isolated_dwelling" />
		<tag k="ssr:stedsnr" v="412664" />
	</node>
	<node lat="59.04631388621645" lon="8.16875278420355" id="-29778">
		<tag k="name" v="Solli" />
		<tag k="place" v="locality" />
		<tag k="ssr:stedsnr" v="412260" />
	</node>
	<node lat="59.30514721924042" lon="8.09684999539238" id="-29781">
		<tag k="alt_name" v="Lie;Øvre Li" />
		<tag k="fixme" v="consider place=hamlet" />
		<tag k="name" v="Li" />
		<tag k="place" v="farm" />
		<tag k="ssr:stedsnr" v="412687" />
	</node>
	<node lat="59.32489166392041" lon="8.11449166228156" id="-29790">
		<tag k="name" v="Strånd" />
		<tag k="place" v="locality" />
		<tag k="ssr:stedsnr" v="412998" />
	</node>
	<node lat="59.27279722377498" lon="7.971852783578566" id="-29793">
		<tag k="name" v="Nystøyl" />
		<tag k="place" v="locality" />
		<tag k="ssr:stedsnr" v="413326" />
	</node>
	<node lat="59.32012222088721" lon="8.136605564173674" id="-29799">
		<tag k="name" v="Fossum" />
		<tag k="place" v="farm" />
		<tag k="ssr:stedsnr" v="412858" />
	</node>
	<node lat="59.033244442533125" lon="8.041944443816076" id="-29810">
		<tag k="name" v="Sandvik" />
		<tag k="place" v="farm" />
		<tag k="ssr:stedsnr" v="413574" />
	</node>
	<node lat="59.16962222461534" lon="8.091780557463137" id="-29816">
		<tag k="name" v="Bakka" />
		<tag k="place" v="farm" />
		<tag k="ssr:stedsnr" v="413677" />
	</node>
	<node lat="59.34285555278905" lon="7.8415611160382435" id="-29818">
		<tag k="name" v="Skarstøyl" />
		<tag k="place" v="locality" />
		<tag k="ssr:stedsnr" v="413922" />
	</node>
	<node lat="59.340049998011494" lon="7.898752780280951" id="-29827">
		<tag k="name" v="Bersli" />
		<tag k="place" v="locality" />
		<tag k="ssr:stedsnr" v="414370" />
	</node>
	<node lat="59.05757777821248" lon="7.958572227996003" id="-29828">
		<tag k="name" v="Åsen" />
		<tag k="place" v="neighbourhood" />
		<tag k="ssr:stedsnr" v="424966" />
	</node>
	<node lat="59.18579166813859" lon="8.098866658826196" id="-29829">
		<tag k="name" v="Tøddebakkane" />
		<tag k="place" v="quarter" />
		<tag k="ssr:stedsnr" v="424974" />
	</node>
	<node lat="59.18907777805302" lon="8.087349991611198" id="-29831">
		<tag k="name" v="Prærien" />
		<tag k="place" v="quarter" />
		<tag k="ssr:stedsnr" v="424989" />
	</node>
	<node lat="59.13091111139013" lon="7.932952770325331" id="-29832">
		<tag k="name" v="Nystøyl" />
		<tag k="old_name" v="Nystøl" />
		<tag k="place" v="locality" />
		<tag k="ssr:stedsnr" v="426394" />
	</node>
	<node lat="59.13442500173834" lon="8.02881666575025" id="-29833">
		<tag k="name" v="Libjå" />
		<tag k="place" v="farm" />
		<tag k="ssr:stedsnr" v="426398" />
	</node>
	<node lat="59.130605553166355" lon="8.068674991511205" id="-29834">
		<tag k="alt_name" v="Lia" />
		<tag k="name" v="Lii" />
		<tag k="place" v="isolated_dwelling" />
		<tag k="ssr:stedsnr" v="426401" />
	</node>
	<node lat="58.976311112117884" lon="8.304650004903811" id="-29835">
		<tag k="name" v="Lindborg" />
		<tag k="place" v="isolated_dwelling" />
		<tag k="ssr:stedsnr" v="425885" />
	</node>
	<node lat="59.012767677204394" lon="8.006235140919781" id="-29837">
		<tag k="alt_name" v="Kråkelistøylen" />
		<tag k="name" v="Kråkelii" />
		<tag k="place" v="locality" />
		<tag k="ssr:stedsnr" v="426029" />
	</node>
	<node lat="59.19112777723577" lon="8.118800007709169" id="-29841">
		<tag k="name" v="Heistad" />
		<tag k="place" v="isolated_dwelling" />
		<tag k="ssr:stedsnr" v="426082" />
	</node>
	<node lat="59.17778610724335" lon="7.761930553050931" id="-29844">
		<tag k="historic" v="shieling" />
		<tag k="name" v="Høydalsstøylen" />
		<tag k="old_name" v="Høydalsstøl" />
		<tag k="place" v="isolated_dwelling" />
		<tag k="ssr:stedsnr" v="426346" />
	</node>
	<node lat="59.16969721996535" lon="8.082202776664568" id="-29846">
		<tag k="name" v="Berve" />
		<tag k="place" v="farm" />
		<tag k="ssr:stedsnr" v="426359" />
	</node>
	<node lat="59.17126389174081" lon="7.929622218263199" id="-29847">
		<tag k="name" v="Vassbø" />
		<tag k="place" v="farm" />
		<tag k="ssr:stedsnr" v="426363" />
	</node>
	<node lat="59.16956944045696" lon="7.893869444909307" id="-29848">
		<tag k="name" v="Krøni" />
		<tag k="old_name" v="Krøne" />
		<tag k="place" v="isolated_dwelling" />
		<tag k="ssr:stedsnr" v="426365" />
	</node>
	<node lat="58.990686109464285" lon="8.312299997834165" id="-29853">
		<tag k="name" v="Ångard" />
		<tag k="place" v="isolated_dwelling" />
		<tag k="ssr:stedsnr" v="426857" />
	</node>
	<node lat="59.254622221926034" lon="8.32185832624872" id="-29858">
		<tag k="name" v="Plagestad" />
		<tag k="place" v="locality" />
		<tag k="ssr:stedsnr" v="427219" />
	</node>
	<node lat="59.297013890936185" lon="8.253805548747817" id="-29859">
		<tag k="alt_name" v="Kvæven, øvre;Øvrekvæv" />
		<tag k="name" v="Øvre Kvæven" />
		<tag k="place" v="locality" />
		<tag k="ssr:stedsnr" v="427140" />
	</node>
	<node lat="59.30720832981794" lon="8.124105549182149" id="-29863">
		<tag k="name" v="Myrvang" />
		<tag k="place" v="farm" />
		<tag k="ssr:stedsnr" v="427164" />
	</node>
	<node lat="59.22979444441599" lon="8.014575006613477" id="-29867">
		<tag k="alt_name" v="Bjørnrud;Bjørnerud sør" />
		<tag k="name" v="Bjørnerud" />
		<tag k="place" v="farm" />
		<tag k="ssr:stedsnr" v="427364" />
	</node>
	<node lat="59.11279025609193" lon="8.049824019062164" id="-29868">
		<tag k="alt_name" v="Vedlia" />
		<tag k="name" v="Vedlii" />
		<tag k="place" v="locality" />
		<tag k="ssr:stedsnr" v="427440" />
	</node>
	<node lat="59.10440555455747" lon="8.007555561279393" id="-29869">
		<tag k="alt_name" v="Bjøllia" />
		<tag k="name" v="Bjøllii" />
		<tag k="place" v="isolated_dwelling" />
		<tag k="ssr:stedsnr" v="427445" />
	</node>
	<node lat="59.08549444374541" lon="8.017947220968768" id="-29871">
		<tag k="alt_name" v="Lomstøyl" />
		<tag k="name" v="Lomestøyl" />
		<tag k="old_name" v="Lomestøl" />
		<tag k="place" v="isolated_dwelling" />
		<tag k="ssr:stedsnr" v="427464" />
	</node>
	<node lat="59.287008330921324" lon="7.849672218077272" id="-29873">
		<tag k="name" v="Støylsåi" />
		<tag k="old_name" v="Stølsåi" />
		<tag k="place" v="isolated_dwelling" />
		<tag k="ssr:stedsnr" v="427901" />
	</node>
	<node lat="59.32127499655922" lon="7.990150004328831" id="-29874">
		<tag k="alt_name" v="Gullborgdalen" />
		<tag k="historic" v="shieling" />
		<tag k="name" v="Gullbjørgdalen" />
		<tag k="place" v="isolated_dwelling" />
		<tag k="ssr:stedsnr" v="427936" />
	</node>
	<node lat="59.1809944421781" lon="7.878866673591892" id="-29876">
		<tag k="historic" v="shieling" />
		<tag k="name" v="Krokstøyl" />
		<tag k="place" v="isolated_dwelling" />
		<tag k="ssr:stedsnr" v="448589" />
	</node>
	<node lat="59.24495833212739" lon="8.03477499934671" id="-29881">
		<tag k="name" v="Åslandsgrend" />
		<tag k="place" v="hamlet" />
		<tag k="ssr:stedsnr" v="513003" />
	</node>
	<node lat="59.234094442249486" lon="8.08771667222626" id="-29886">
		<tag k="amenity" v="school" />
		<tag k="name" v="Heggland skule" />
		<tag k="ssr:stedsnr" v="519095" />
	</node>
	<node lat="59.228927779867135" lon="8.090233332469731" id="-29892">
		<tag k="name" v="Lundevall" />
		<tag k="place" v="farm" />
		<tag k="ssr:stedsnr" v="519423" />
	</node>
	<node lat="59.23705277512292" lon="8.097397230128102" id="-29893">
		<tag k="name" v="Kleivane" />
		<tag k="place" v="farm" />
		<tag k="ssr:stedsnr" v="519427" />
	</node>
	<node lat="59.19036666595723" lon="8.087333336383464" id="-29896">
		<tag k="name" v="Heimdal" />
		<tag k="place" v="isolated_dwelling" />
		<tag k="ssr:stedsnr" v="519818" />
	</node>
	<node lat="59.193786108796715" lon="8.08712778056221" id="-29898">
		<tag k="name" v="Grunnvik" />
		<tag k="place" v="farm" />
		<tag k="ssr:stedsnr" v="519836" />
	</node>
	<node lat="59.195061110684264" lon="8.086819449915478" id="-29899">
		<tag k="name" v="Oland" />
		<tag k="place" v="isolated_dwelling" />
		<tag k="ssr:stedsnr" v="519842" />
	</node>
	<node lat="59.13404722436923" lon="8.000491661464505" id="-29908">
		<tag k="name" v="Moen" />
		<tag k="place" v="farm" />
		<tag k="ssr:stedsnr" v="520382" />
	</node>
	<node lat="59.1350694442982" lon="8.027955562441093" id="-29909">
		<tag k="name" v="Libjå nedre" />
		<tag k="place" v="farm" />
		<tag k="ssr:stedsnr" v="520388" />
	</node>
	<node lat="59.14690555534332" lon="7.939783324904359" id="-29923">
		<tag k="name" v="Margitstøyl" />
		<tag k="place" v="locality" />
		<tag k="ssr:stedsnr" v="521393" />
	</node>
	<node lat="59.15197777439641" lon="7.974755552239776" id="-29924">
		<tag k="name" v="Jopperud" />
		<tag k="place" v="farm" />
		<tag k="ssr:stedsnr" v="521592" />
	</node>
	<node lat="59.265761109663806" lon="7.865225006968256" id="-29926">
		<tag k="name" v="Bullhytta" />
		<tag k="place" v="isolated_dwelling" />
		<tag k="ssr:stedsnr" v="521599" />
	</node>
	<node lat="59.2860805571486" lon="7.8357361091509" id="-29932">
		<tag k="name" v="Støylsdalen" />
		<tag k="place" v="locality" />
		<tag k="ssr:stedsnr" v="522464" />
	</node>
	<node lat="59.26564999974233" lon="7.921091673389864" id="-29933">
		<tag k="name" v="Fjellstøyl" />
		<tag k="place" v="locality" />
		<tag k="ssr:stedsnr" v="522557" />
	</node>
	<node lat="59.061822226653256" lon="8.337866665087494" id="-29935">
		<tag k="name" v="Fiskebu" />
		<tag k="place" v="isolated_dwelling" />
		<tag k="ssr:stedsnr" v="530119" />
	</node>
	<node lat="59.08098333575092" lon="8.245147225432099" id="-29940">
		<tag k="name" v="Uppigard Vik" />
		<tag k="place" v="farm" />
		<tag k="ssr:stedsnr" v="532536" />
	</node>
	<node lat="59.28998888939928" lon="8.110438886815018" id="-29950">
		<tag k="name" v="Floske" />
		<tag k="place" v="locality" />
		<tag k="ssr:stedsnr" v="533236" />
	</node>
	<node lat="59.14673333362901" lon="8.05254165815424" id="-29963">
		<tag k="name" v="Åbø" />
		<tag k="place" v="isolated_dwelling" />
		<tag k="ssr:stedsnr" v="533378" />
	</node>
	<node lat="59.30751388990011" lon="8.083136114218409" id="-29978">
		<tag k="name" v="Nystøyl" />
		<tag k="place" v="locality" />
		<tag k="ssr:stedsnr" v="533764" />
	</node>
	<node lat="59.05888333324196" lon="8.255086119811848" id="-29980">
		<tag k="name" v="Nesi" />
		<tag k="place" v="locality" />
		<tag k="ssr:stedsnr" v="533959" />
	</node>
	<node lat="59.03736944217933" lon="8.234788896243767" id="-29981">
		<tag k="name" v="Lønhommen" />
		<tag k="place" v="isolated_dwelling" />
		<tag k="ssr:stedsnr" v="533836" />
	</node>
	<node lat="59.015558332898024" lon="8.273441662803574" id="-29982">
		<tag k="name" v="Granheim" />
		<tag k="place" v="isolated_dwelling" />
		<tag k="ssr:stedsnr" v="533847" />
	</node>
	<node lat="59.261975002482906" lon="8.183586106485416" id="-29989">
		<tag k="historic" v="shieling" />
		<tag k="name" v="Kvamoen" />
		<tag k="place" v="isolated_dwelling" />
		<tag k="ssr:stedsnr" v="534158" />
	</node>
	<node lat="59.32060555146699" lon="8.139261111733894" id="-29995">
		<tag k="name" v="Ystehaughallet" />
		<tag k="place" v="quarter" />
		<tag k="ssr:stedsnr" v="534930" />
	</node>
	<node lat="59.275730558570515" lon="7.980025003981689" id="-30006">
		<tag k="name" v="Kvæven" />
		<tag k="place" v="locality" />
		<tag k="ssr:stedsnr" v="535328" />
	</node>
	<node lat="59.05542777600578" lon="7.985383337800541" id="-30011">
		<tag k="name" v="Bergåsen" />
		<tag k="place" v="neighbourhood" />
		<tag k="ssr:stedsnr" v="545957" />
	</node>
	<node lat="59.05140000032926" lon="7.965522221661493" id="-30012">
		<tag k="name" v="Solliåsen" />
		<tag k="place" v="neighbourhood" />
		<tag k="ssr:stedsnr" v="545958" />
	</node>
	<node lat="58.99888055686901" lon="8.271975005203" id="-30018">
		<tag k="name" v="Bråten" />
		<tag k="place" v="isolated_dwelling" />
		<tag k="ssr:stedsnr" v="546845" />
	</node>
	<node lat="59.1849999963275" lon="8.116550003788808" id="-30020">
		<tag k="name" v="Berge" />
		<tag k="place" v="farm" />
		<tag k="ssr:stedsnr" v="547093" />
	</node>
	<node lat="59.245966665871954" lon="7.899833339507755" id="-30021">
		<tag k="alt_name" v="Li;Lien" />
		<tag k="fixme" v="consider place=hamlet" />
		<tag k="name" v="Lia" />
		<tag k="place" v="farm" />
		<tag k="ssr:stedsnr" v="547332" />
	</node>
	<node lat="59.24448055491037" lon="7.802763882607346" id="-30023">
		<tag k="historic" v="shieling" />
		<tag k="name" v="Røynbrokke" />
		<tag k="old_name" v="Røynbrøkke" />
		<tag k="place" v="isolated_dwelling" />
		<tag k="ssr:stedsnr" v="547336" />
	</node>
	<node lat="59.128522077771784" lon="8.289417291859035" id="-30026">
		<tag k="alt_name" v="Osvasstøyl" />
		<tag k="historic" v="shieling" />
		<tag k="name" v="Osvasstøl" />
		<tag k="place" v="isolated_dwelling" />
		<tag k="ssr:stedsnr" v="548130" />
	</node>
	<node lat="59.296363884677284" lon="8.241897224018476" id="-30027">
		<tag k="historic" v="shieling" />
		<tag k="name" v="Kvæven" />
		<tag k="place" v="isolated_dwelling" />
		<tag k="ssr:stedsnr" v="548133" />
	</node>
	<node lat="59.31522499701299" lon="8.129030557845336" id="-30029">
		<tag k="alt_name" v="Rinden" />
		<tag k="name" v="Rindi" />
		<tag k="place" v="farm" />
		<tag k="ssr:stedsnr" v="548157" />
	</node>
	<node lat="59.14394444376907" lon="7.874977786336663" id="-30030">
		<tag k="historic" v="shieling" />
		<tag k="name" v="Nesstøylen" />
		<tag k="old_name" v="Nesstølen" />
		<tag k="place" v="isolated_dwelling" />
		<tag k="ssr:stedsnr" v="547430" />
	</node>
	<node lat="59.13175833675447" lon="7.81359721521929" id="-30031">
		<tag k="name" v="Hovasshytta" />
		<tag k="place" v="isolated_dwelling" />
		<tag k="ssr:stedsnr" v="547438" />
	</node>
	<node lat="59.11996111184915" lon="7.907158326666619" id="-30033">
		<tag k="historic" v="shieling" />
		<tag k="name" v="Lauvåsen" />
		<tag k="place" v="isolated_dwelling" />
		<tag k="ssr:stedsnr" v="547453" />
	</node>
	<node lat="59.024541668547656" lon="7.969497216344281" id="-30034">
		<tag k="alt_name" v="Nistogstøylen" />
		<tag k="name" v="Nedstogstøylen" />
		<tag k="old_name" v="Nestogsstølen" />
		<tag k="place" v="locality" />
		<tag k="ssr:stedsnr" v="547538" />
	</node>
	<node lat="58.95391944675918" lon="8.310994443175241" id="-30036">
		<tag k="name" v="Fosstveit" />
		<tag k="place" v="isolated_dwelling" />
		<tag k="ssr:stedsnr" v="547928" />
	</node>
	<node lat="59.28537499806068" lon="8.058422224516017" id="-30059">
		<tag k="fixme" v="consider place=hamlet" />
		<tag k="name" v="Spokkeli" />
		<tag k="place" v="farm" />
		<tag k="ssr:stedsnr" v="670915" />
	</node>
	<node lat="59.18046666362935" lon="8.08749167275392" id="-30062">
		<tag k="name" v="Fyresdal hotell" />
		<tag k="ssr:stedsnr" v="573475" />
		<tag k="tourism" v="hotel" />
	</node>
	<node lat="59.20027221946987" lon="8.109155555303223" id="-30072">
		<tag k="name" v="Undeberg" />
		<tag k="place" v="farm" />
		<tag k="ssr:stedsnr" v="579239" />
	</node>
	<node lat="59.21443611181922" lon="8.092669445467852" id="-30074">
		<tag k="name" v="Kjellemo" />
		<tag k="place" v="isolated_dwelling" />
		<tag k="ssr:stedsnr" v="579580" />
	</node>
	<node lat="59.24055555415514" lon="8.050533328597504" id="-30075">
		<tag k="name" v="Stigansjord" />
		<tag k="place" v="locality" />
		<tag k="ssr:stedsnr" v="579413" />
	</node>
	<node lat="59.245438887193686" lon="8.078961103068876" id="-30077">
		<tag k="name" v="Gryteskøti" />
		<tag k="place" v="locality" />
		<tag k="ssr:stedsnr" v="579421" />
	</node>
	<node lat="59.2430972197549" lon="7.863958335310745" id="-30082">
		<tag k="name" v="Skåltjønn" />
		<tag k="place" v="farm" />
		<tag k="ssr:stedsnr" v="581133" />
	</node>
	<node lat="59.27560000280855" lon="7.758150003125512" id="-30087">
		<tag k="name" v="Listøyl" />
		<tag k="place" v="locality" />
		<tag k="ssr:stedsnr" v="581421" />
	</node>
	<node lat="59.25029999837429" lon="8.311755551749796" id="-30088">
		<tag k="historic" v="shieling" />
		<tag k="name" v="Neiri Smedbu" />
		<tag k="place" v="isolated_dwelling" />
		<tag k="ssr:stedsnr" v="581673" />
	</node>
	<node lat="59.14392499697171" lon="8.0361277697746" id="-30092">
		<tag k="alt_name" v="Åketun" />
		<tag k="fixme" v="consider place=hamlet" />
		<tag k="name" v="Aketun" />
		<tag k="place" v="farm" />
		<tag k="ssr:stedsnr" v="581622" />
	</node>
	<node lat="59.29825000312654" lon="8.228911110549504" id="-30108">
		<tag k="name" v="Bekkedalen" />
		<tag k="place" v="locality" />
		<tag k="ssr:stedsnr" v="593420" />
	</node>
	<node lat="59.17698055605794" lon="8.090494438509744" id="-30114">
		<tag k="name" v="Sølofthus" />
		<tag k="place" v="locality" />
		<tag k="ssr:stedsnr" v="593758" />
	</node>
	<node lat="59.33190555995643" lon="8.050733340165907" id="-30116">
		<tag k="name" v="Trættekrylen" />
		<tag k="place" v="locality" />
		<tag k="ssr:stedsnr" v="593912" />
	</node>
	<node lat="59.09691666648104" lon="8.281755558043386" id="-30119">
		<tag k="name" v="Sandvasstøylen" />
		<tag k="place" v="locality" />
		<tag k="ssr:stedsnr" v="593997" />
	</node>
	<node lat="59.28870555979679" lon="8.106852772397032" id="-30126">
		<tag k="name" v="Søvei søndre" />
		<tag k="place" v="locality" />
		<tag k="ssr:stedsnr" v="594195" />
	</node>
	<node lat="59.35198610904066" lon="7.861086119684812" id="-30147">
		<tag k="name" v="Nystøyl" />
		<tag k="place" v="locality" />
		<tag k="ssr:stedsnr" v="594896" />
	</node>
	<node lat="59.2913833356261" lon="7.96502777703474" id="-30160">
		<tag k="name" v="Skrykkja" />
		<tag k="place" v="locality" />
		<tag k="ssr:stedsnr" v="595631" />
	</node>
	<node lat="59.19264999765255" lon="8.100461116145857" id="-30168">
		<tag k="name" v="Kåsi" />
		<tag k="place" v="isolated_dwelling" />
		<tag k="ssr:stedsnr" v="607038" />
	</node>
	<node lat="59.1834277772917" lon="8.092102769263546" id="-30172">
		<tag k="alt_name" v="Kyrkjebygdi" />
		<tag k="name" v="Fyresdal" />
		<tag k="place" v="village" />
		<tag k="ssr:stedsnr" v="607379" />
	</node>
	<node lat="59.173838886779556" lon="7.912238891158319" id="-30173">
		<tag k="name" v="Borgi" />
		<tag k="place" v="isolated_dwelling" />
		<tag k="ssr:stedsnr" v="607386" />
	</node>
	<node lat="59.05692221847179" lon="7.975288893419743" id="-30174">
		<tag k="name" v="Lyngstad" />
		<tag k="place" v="farm" />
		<tag k="ssr:stedsnr" v="607478" />
	</node>
	<node lat="58.979219442109326" lon="8.015783336808482" id="-30175">
		<tag k="alt_name" v="Grotåstøylen" />
		<tag k="historic" v="shieling" />
		<tag k="name" v="Grotåstøl" />
		<tag k="place" v="isolated_dwelling" />
		<tag k="ssr:stedsnr" v="607618" />
	</node>
	<node lat="59.00867500330187" lon="8.186466663404067" id="-30183">
		<tag k="alt_name" v="Bindalstøl" />
		<tag k="historic" v="shieling" />
		<tag k="name" v="Bindalstøylen" />
		<tag k="place" v="isolated_dwelling" />
		<tag k="ssr:stedsnr" v="609000" />
	</node>
	<node lat="59.13158889026504" lon="8.065502777818285" id="-30185">
		<tag k="name" v="Høyland" />
		<tag k="place" v="farm" />
		<tag k="ssr:stedsnr" v="608427" />
	</node>
	<node lat="59.05600555442532" lon="8.042625002549363" id="-30188">
		<tag k="name" v="Sandvik" />
		<tag k="place" v="isolated_dwelling" />
		<tag k="ssr:stedsnr" v="608520" />
	</node>
	<node lat="59.02657777335965" lon="7.965474991792384" id="-30190">
		<tag k="name" v="Rjupeto" />
		<tag k="place" v="locality" />
		<tag k="ssr:stedsnr" v="608534" />
	</node>
	<node lat="59.338050001052586" lon="8.148502779099893" id="-30194">
		<tag k="name" v="Timmerud" />
		<tag k="place" v="farm" />
		<tag k="ssr:stedsnr" v="609320" />
	</node>
	<node lat="59.238869447494345" lon="8.076513891635605" id="-30199">
		<tag k="name" v="Haugfoss" />
		<tag k="place" v="farm" />
		<tag k="ssr:stedsnr" v="633454" />
	</node>
	<node lat="59.23264722654014" lon="8.00781666259854" id="-30203">
		<tag k="alt_name" v="Mørkjæ" />
		<tag k="name" v="Morki" />
		<tag k="place" v="farm" />
		<tag k="ssr:stedsnr" v="634009" />
	</node>
	<node lat="59.256515756524" lon="7.985666177535717" id="-30205">
		<tag k="name" v="Granakjerr" />
		<tag k="place" v="locality" />
		<tag k="ssr:stedsnr" v="634301" />
	</node>
	<node lat="59.30135555963666" lon="7.964652771490291" id="-30208">
		<tag k="alt_name" v="Midtsund" />
		<tag k="name" v="Midsund" />
		<tag k="place" v="farm" />
		<tag k="ssr:stedsnr" v="634396" />
	</node>
	<node lat="59.281905554149354" lon="8.000197216273184" id="-30209">
		<tag k="name" v="Myrane" />
		<tag k="place" v="farm" />
		<tag k="ssr:stedsnr" v="634413" />
	</node>
	<node lat="59.24214167047638" lon="7.977255551683694" id="-30215">
		<tag k="historic" v="shieling" />
		<tag k="name" v="Ækrune" />
		<tag k="place" v="isolated_dwelling" />
		<tag k="ssr:stedsnr" v="640544" />
	</node>
	<node lat="59.19266666722063" lon="8.087766664113584" id="-30217">
		<tag k="name" v="Årak" />
		<tag k="place" v="isolated_dwelling" />
		<tag k="ssr:stedsnr" v="640834" />
	</node>
	<node lat="59.28990000075392" lon="7.756027774621899" id="-30230">
		<tag k="name" v="Sniptorv" />
		<tag k="place" v="locality" />
		<tag k="ssr:stedsnr" v="641371" />
	</node>
	<node lat="59.19967500344834" lon="8.014658332319248" id="-30241">
		<tag k="name" v="Stemtjønnhytta" />
		<tag k="old_name" v="Stemmtjønnhytta" />
		<tag k="place" v="isolated_dwelling" />
		<tag k="ssr:stedsnr" v="642558" />
	</node>
	<node lat="59.07951944259609" lon="8.245833341240608" id="-30258">
		<tag k="name" v="Søstog Vik" />
		<tag k="place" v="farm" />
		<tag k="ssr:stedsnr" v="653550" />
	</node>
	<node lat="59.29880555399217" lon="8.098466663496948" id="-30272">
		<tag k="name" v="Rui" />
		<tag k="place" v="locality" />
		<tag k="ssr:stedsnr" v="654347" />
	</node>
	<node lat="59.11309444504342" lon="8.174680549490182" id="-30280">
		<tag k="name" v="Basthomstøylen" />
		<tag k="place" v="locality" />
		<tag k="ssr:stedsnr" v="654317" />
	</node>
	<node lat="59.18411666846761" lon="8.082280548092267" id="-30284">
		<tag k="name" v="Klokkargarden" />
		<tag k="place" v="isolated_dwelling" />
		<tag k="ssr:stedsnr" v="655928" />
	</node>
	<node lat="59.01520833406496" lon="8.327508336596583" id="-30290">
		<tag k="name" v="Saurlistøylen" />
		<tag k="place" v="locality" />
		<tag k="ssr:stedsnr" v="654617" />
	</node>
	<node lat="59.070347223298896" lon="8.022044442953776" id="-30319">
		<tag k="name" v="Bondalshytta" />
		<tag k="place" v="locality" />
		<tag k="ssr:stedsnr" v="656828" />
	</node>
	<node lat="59.28385277504637" lon="8.069402772538046" id="-30322">
		<tag k="name" v="Midtbø" />
		<tag k="place" v="isolated_dwelling" />
		<tag k="ssr:stedsnr" v="655754" />
	</node>
	<node lat="59.32546944851155" lon="7.908236111963509" id="-30333">
		<tag k="name" v="Aslestad midtgarden" />
		<tag k="place" v="farm" />
		<tag k="ssr:stedsnr" v="656616" />
	</node>
	<node lat="59.32263888631277" lon="7.888552784646081" id="-30334">
		<tag k="name" v="Hæknine" />
		<tag k="place" v="locality" />
		<tag k="ssr:stedsnr" v="656622" />
	</node>
	<node lat="59.041080557000136" lon="7.969927779831207" id="-30337">
		<tag k="name" v="Bjorhustjønn" />
		<tag k="place" v="neighbourhood" />
		<tag k="ssr:stedsnr" v="666969" />
	</node>
	<node lat="59.25711389058967" lon="7.8219694515292195" id="-30338">
		<tag k="name" v="Normanndalen" />
		<tag k="place" v="neighbourhood" />
		<tag k="ssr:stedsnr" v="666973" />
	</node>
	<node lat="59.23680000346544" lon="7.972274992103789" id="-30339">
		<tag k="fixme" v="consider place=hamlet" />
		<tag k="name" v="Bondal" />
		<tag k="place" v="farm" />
		<tag k="ssr:stedsnr" v="668346" />
	</node>
	<node lat="59.2406583356849" lon="7.787550003827421" id="-30342">
		<tag k="historic" v="shieling" />
		<tag k="name" v="Krokstøyl" />
		<tag k="old_name" v="Krokstøl" />
		<tag k="place" v="isolated_dwelling" />
		<tag k="ssr:stedsnr" v="668357" />
	</node>
	<node lat="59.05970555284903" lon="7.965308340750773" id="-30350">
		<tag k="name" v="Øvre Birtedalen" />
		<tag k="old_name" v="Birtedalen,øvre" />
		<tag k="place" v="hamlet" />
		<tag k="ssr:stedsnr" v="668478" />
	</node>
	<node lat="58.99545555479989" lon="8.246305562076746" id="-30353">
		<tag k="name" v="Flatland" />
		<tag k="place" v="farm" />
		<tag k="ssr:stedsnr" v="668858" />
	</node>
	<node lat="59.16869722286006" lon="7.98527221556939" id="-30363">
		<tag k="alt_name" v="Jordal" />
		<tag k="fixme" v="consider place=hamlet" />
		<tag k="name" v="Jorddal" />
		<tag k="place" v="farm" />
		<tag k="ssr:stedsnr" v="669378" />
	</node>
	<node lat="59.116144440961754" lon="8.078444442699126" id="-30369">
		<tag k="alt_name" v="Breidvik" />
		<tag k="name" v="Breivik" />
		<tag k="place" v="hamlet" />
		<tag k="ssr:stedsnr" v="669452" />
	</node>
	<node lat="59.008449999729535" lon="8.256152783574661" id="-30370">
		<tag k="name" v="Lunde" />
		<tag k="place" v="farm" />
		<tag k="ssr:stedsnr" v="669998" />
	</node>
	<node lat="59.2527555546784" lon="7.968555547029392" id="-30371">
		<tag k="historic" v="shieling" />
		<tag k="name" v="Høydalen" />
		<tag k="place" v="isolated_dwelling" />
		<tag k="ssr:stedsnr" v="669931" />
	</node>
	<node lat="59.25078889202549" lon="7.751608325329078" id="-30372">
		<tag k="alt_name" v="Rishovden" />
		<tag k="name" v="Rishovdstøyl" />
		<tag k="old_name" v="Rishovdstøl" />
		<tag k="place" v="locality" />
		<tag k="ssr:stedsnr" v="669939" />
	</node>
	<node lat="59.31260833513983" lon="8.135033330970616" id="-30373">
		<tag k="name" v="Rindom" />
		<tag k="place" v="farm" />
		<tag k="ssr:stedsnr" v="670160" />
	</node>
	<node lat="59.13138332912957" lon="8.175666671456643" id="-30383">
		<tag k="name" v="Støylshovden" />
		<tag k="place" v="locality" />
		<tag k="ssr:stedsnr" v="715346" />
	</node>
	<node lat="59.06475277859287" lon="8.184447223267652" id="-30388">
		<tag k="name" v="Skjeggestahytta" />
		<tag k="place" v="locality" />
		<tag k="ssr:stedsnr" v="715368" />
	</node>
	<node lat="58.99042499970974" lon="8.312227783403566" id="-30392">
		<tag k="name" v="Ångås" />
		<tag k="place" v="farm" />
		<tag k="ssr:stedsnr" v="715047" />
	</node>
	<node lat="59.1918888920916" lon="8.218349992743867" id="-30405">
		<tag k="name" v="Austigard" />
		<tag k="place" v="farm" />
		<tag k="ssr:stedsnr" v="715477" />
	</node>
	<node lat="59.17016110925377" lon="8.088558336785908" id="-30410">
		<tag k="name" v="Solberg" />
		<tag k="place" v="isolated_dwelling" />
		<tag k="ssr:stedsnr" v="715631" />
	</node>
	<node lat="59.31688889082428" lon="8.12979999596332" id="-30414">
		<tag k="name" v="Telemark Camping &amp; Inn" />
		<tag k="old_name" v="Roan camping" />
		<tag k="ssr:stedsnr" v="715985" />
		<tag k="tourism" v="camp_site" />
	</node>
	<node lat="59.0527972263546" lon="8.264430549959044" id="-30416">
		<tag k="name" v="Dale" />
		<tag k="place" v="isolated_dwelling" />
		<tag k="ssr:stedsnr" v="716000" />
	</node>
	<node lat="59.2941611136441" lon="8.04161389670111" id="-30432">
		<tag k="name" v="Tortveit uppistog" />
		<tag k="place" v="farm" />
		<tag k="ssr:stedsnr" v="716896" />
	</node>
	<node lat="59.317666671049466" lon="8.08353888761035" id="-30433">
		<tag k="name" v="Grønlistøylen" />
		<tag k="place" v="locality" />
		<tag k="ssr:stedsnr" v="716900" />
	</node>
	<node lat="59.180344445855305" lon="8.093769443138461" id="-30436">
		<tag k="name" v="Væting nedre" />
		<tag k="place" v="farm" />
		<tag k="ssr:stedsnr" v="716997" />
	</node>
	<node lat="59.32163889264223" lon="7.9112250037536676" id="-30440">
		<tag k="name" v="Slettfit" />
		<tag k="place" v="locality" />
		<tag k="ssr:stedsnr" v="717393" />
	</node>
	<node lat="59.27476389192708" lon="7.934102782056813" id="-30446">
		<tag k="name" v="Reidalsstøylen" />
		<tag k="place" v="locality" />
		<tag k="ssr:stedsnr" v="717444" />
	</node>
	<node lat="59.203799997521884" lon="8.260830564132034" id="-30456">
		<tag k="alt_name" v="Napestøyl" />
		<tag k="historic" v="shieling" />
		<tag k="name" v="Napestøl" />
		<tag k="place" v="isolated_dwelling" />
		<tag k="ssr:stedsnr" v="729039" />
	</node>
	<node lat="59.238911108291475" lon="8.03260833054874" id="-30459">
		<tag k="alt_name" v="Gravir" />
		<tag k="fixme" v="consider place=hamlet" />
		<tag k="name" v="Graver" />
		<tag k="place" v="farm" />
		<tag k="ssr:stedsnr" v="729336" />
	</node>
	<node lat="59.24418888966011" lon="7.890105555274754" id="-30461">
		<tag k="name" v="Homme" />
		<tag k="place" v="farm" />
		<tag k="ssr:stedsnr" v="729347" />
	</node>
	<node lat="59.047774999098614" lon="8.169088896150773" id="-30482">
		<tag k="alt_name" v="Gjevestostøylen" />
		<tag k="name" v="Solli" />
		<tag k="place" v="isolated_dwelling" />
		<tag k="ssr:stedsnr" v="730238" />
	</node>
	<node lat="59.20470832930386" lon="8.060391672681996" id="-30487">
		<tag k="alt_name" v="Snarteland norigard;Snartland" />
		<tag k="fixme" v="consider place=hamlet" />
		<tag k="name" v="Snarteland" />
		<tag k="place" v="farm" />
		<tag k="ssr:stedsnr" v="730354" />
	</node>
	<node lat="59.2144972228334" lon="8.09107777064277" id="-30490">
		<tag k="name" v="Moheim" />
		<tag k="place" v="farm" />
		<tag k="ssr:stedsnr" v="730368" />
	</node>
	<node lat="59.171063891350045" lon="7.955605549347984" id="-30492">
		<tag k="fixme" v="consider place=hamlet" />
		<tag k="name" v="Rui" />
		<tag k="place" v="farm" />
		<tag k="ssr:stedsnr" v="730399" />
	</node>
	<node lat="59.30214722150154" lon="7.95619166124734" id="-30493">
		<tag k="alt_name" v="Homseker" />
		<tag k="name" v="Homsekre" />
		<tag k="place" v="farm" />
		<tag k="ssr:stedsnr" v="730958" />
	</node>
	<node lat="59.2947083354806" lon="7.794349999904395" id="-30495">
		<tag k="alt_name" v="Mykletjørnstøylen" />
		<tag k="historic" v="shieling" />
		<tag k="name" v="Mykletjønnstøylen" />
		<tag k="old_name" v="Mykletjørnstølen" />
		<tag k="place" v="isolated_dwelling" />
		<tag k="ssr:stedsnr" v="730964" />
	</node>
	<node lat="59.01029167096294" lon="8.262252781764051" id="-30497">
		<tag k="alt_name" v="Øyne" />
		<tag k="name" v="Øyni" />
		<tag k="place" v="farm" />
		<tag k="ssr:stedsnr" v="730995" />
	</node>
	<node lat="59.25962777795616" lon="7.969774993310463" id="-30498">
		<tag k="alt_name" v="Bøysæstøylen" />
		<tag k="historic" v="shieling" />
		<tag k="name" v="Bøysæ" />
		<tag k="place" v="isolated_dwelling" />
		<tag k="ssr:stedsnr" v="730937" />
	</node>
	<node lat="59.25516666553781" lon="7.7706777775560365" id="-30500">
		<tag k="fixme" v="consider tourism=alpine_hut or tourism=chalet" />
		<tag k="name" v="Hovstøyl" />
		<tag k="ssr:stedsnr" v="730946" />
		<tag k="tourism" v="wilderness_hut" />
	</node>
	<node lat="59.31431389208935" lon="7.878824995043416" id="-30501">
		<tag k="alt_name" v="Nystøyl" />
		<tag k="fixme" v="multiple name tags, choose one and add the other to alt_name" />
		<tag k="name" v="Moberg;Nystøl" />
		<tag k="place" v="locality" />
		<tag k="ssr:stedsnr" v="730951" />
	</node>
	<node lat="59.28542221981258" lon="8.066108334749314" id="-30506">
		<tag k="fixme" v="consider place=hamlet" />
		<tag k="name" v="Kvassjord" />
		<tag k="place" v="farm" />
		<tag k="ssr:stedsnr" v="731896" />
	</node>
	<node lat="59.288138888308076" lon="8.062049994144582" id="-30507">
		<tag k="name" v="Seljehommen" />
		<tag k="place" v="farm" />
		<tag k="ssr:stedsnr" v="731922" />
	</node>
	<node lat="59.00907777683124" lon="8.27439722615928" id="-30512">
		<tag k="name" v="Kilegrend" />
		<tag k="place" v="hamlet" />
		<tag k="ssr:stedsnr" v="755345" />
	</node>
	<node lat="59.23939166901737" lon="8.07274443598387" id="-30519">
		<tag k="name" v="Landheim" />
		<tag k="place" v="isolated_dwelling" />
		<tag k="ssr:stedsnr" v="761074" />
	</node>
	<node lat="59.22274167016528" lon="8.130986119062726" id="-30521">
		<tag k="historic" v="shieling" />
		<tag k="name" v="Fonnstøyl" />
		<tag k="place" v="isolated_dwelling" />
		<tag k="ssr:stedsnr" v="762060" />
	</node>
	<node lat="59.23196666869161" lon="8.014794442389245" id="-30527">
		<tag k="name" v="Kåsa sør" />
		<tag k="place" v="farm" />
		<tag k="ssr:stedsnr" v="762281" />
	</node>
	<node lat="59.23434444853563" lon="7.987283328208085" id="-30529">
		<tag k="name" v="Brattland" />
		<tag k="place" v="farm" />
		<tag k="ssr:stedsnr" v="762535" />
	</node>
	<node lat="59.238858334567475" lon="7.9376472207574835" id="-30530">
		<tag k="name" v="Sørum" />
		<tag k="place" v="isolated_dwelling" />
		<tag k="ssr:stedsnr" v="762536" />
	</node>
	<node lat="59.20578888906039" lon="7.796774997563072" id="-30538">
		<tag k="historic" v="shieling" />
		<tag k="name" v="Breihomstøylen" />
		<tag k="place" v="isolated_dwelling" />
		<tag k="ssr:stedsnr" v="764266" />
	</node>
	<node lat="59.23933333130117" lon="7.934416670988143" id="-30547">
		<tag k="name" v="Metveit, søndre" />
		<tag k="place" v="farm" />
		<tag k="ssr:stedsnr" v="763983" />
	</node>
	<node lat="59.25397499885764" lon="8.303000003392846" id="-30549">
		<tag k="name" v="Godokk" />
		<tag k="place" v="locality" />
		<tag k="ssr:stedsnr" v="764659" />
	</node>
	<node lat="59.14788055313302" lon="8.130133342059032" id="-30562">
		<tag k="name" v="Midtdammen" />
		<tag k="place" v="isolated_dwelling" />
		<tag k="ssr:stedsnr" v="775275" />
	</node>
	<node lat="59.08003055427731" lon="8.24436389440668" id="-30565">
		<tag k="name" v="Nordstog Vik" />
		<tag k="place" v="farm" />
		<tag k="ssr:stedsnr" v="775517" />
	</node>
	<node lat="59.01901111320866" lon="8.278322219143929" id="-30567">
		<tag k="name" v="Søndre Sundsli" />
		<tag k="place" v="farm" />
		<tag k="ssr:stedsnr" v="775587" />
	</node>
	<node lat="59.27418333693056" lon="8.107833334768515" id="-30582">
		<tag k="name" v="Norskog" />
		<tag k="place" v="locality" />
		<tag k="ssr:stedsnr" v="776147" />
	</node>
	<node lat="59.00107778106514" lon="8.29236945018235" id="-30593">
		<tag k="name" v="Nistog Kiland" />
		<tag k="place" v="farm" />
		<tag k="ssr:stedsnr" v="776349" />
	</node>
	<node lat="59.3014805573035" lon="7.929602770349135" id="-30618">
		<tag k="name" v="Nevstøyl" />
		<tag k="place" v="locality" />
		<tag k="ssr:stedsnr" v="777027" />
	</node>
	<node lat="59.29939444558005" lon="8.000524991346794" id="-30621">
		<tag k="name" v="Flottveit" />
		<tag k="place" v="locality" />
		<tag k="ssr:stedsnr" v="777836" />
	</node>
	<node lat="59.101366668992206" lon="7.848063894817948" id="-30624">
		<tag k="name" v="Tussehaugen" />
		<tag k="place" v="isolated_dwelling" />
		<tag k="ssr:stedsnr" v="777150" />
	</node>
	<node lat="59.324788884832664" lon="7.911180561508247" id="-30629">
		<tag k="name" v="Aslestad nigard" />
		<tag k="place" v="farm" />
		<tag k="ssr:stedsnr" v="777589" />
	</node>
	<node lat="59.0362416626533" lon="8.009397227448218" id="-30631">
		<tag k="historic" v="shieling" />
		<tag k="name" v="Smylemoen" />
		<tag k="place" v="isolated_dwelling" />
		<tag k="ssr:stedsnr" v="777895" />
	</node>
	<node lat="59.080666668087304" lon="7.964994443890915" id="-30633">
		<tag k="name" v="Gjevarbu" />
		<tag k="place" v="isolated_dwelling" />
		<tag k="ssr:stedsnr" v="778198" />
	</node>
	<node lat="58.98208055632756" lon="8.277341671056087" id="-30637">
		<tag k="name" v="Åsen" />
		<tag k="place" v="locality" />
		<tag k="ssr:stedsnr" v="789897" />
	</node>
	<node lat="59.19454444790554" lon="8.108380549306922" id="-30640">
		<tag k="alt_name" v="Nordgarden" />
		<tag k="name" v="Nordgard" />
		<tag k="place" v="farm" />
		<tag k="ssr:stedsnr" v="790033" />
	</node>
	<node lat="59.19869999644351" lon="8.10071666016205" id="-30641">
		<tag k="name" v="Nyli" />
		<tag k="place" v="farm" />
		<tag k="ssr:stedsnr" v="790035" />
	</node>
	<node lat="59.20917222141817" lon="7.927675001734495" id="-30648">
		<tag k="alt_name" v="Votnæ" />
		<tag k="name" v="Votni" />
		<tag k="place" v="locality" />
		<tag k="ssr:stedsnr" v="790316" />
	</node>
	<node lat="59.04242778065275" lon="7.932963885666707" id="-30652">
		<tag k="name" v="Nuten" />
		<tag k="place" v="locality" />
		<tag k="ssr:stedsnr" v="790497" />
	</node>
	<node lat="59.17468055319855" lon="8.089699991961707" id="-30656">
		<tag k="name" v="Landvik" />
		<tag k="place" v="isolated_dwelling" />
		<tag k="ssr:stedsnr" v="790374" />
	</node>
	<node lat="59.064147220401296" lon="7.9418138903376025" id="-30659">
		<tag k="name" v="Fjellheim" />
		<tag k="place" v="farm" />
		<tag k="ssr:stedsnr" v="790466" />
	</node>
	<node lat="59.02107499871893" lon="8.347080551072475" id="-30666">
		<tag k="alt_name" v="Krokvasstøylen" />
		<tag k="name" v="Krokvasstøl" />
		<tag k="place" v="isolated_dwelling" />
		<tag k="ssr:stedsnr" v="790986" />
	</node>
	<node lat="59.30827777724236" lon="8.235555553436267" id="-30667">
		<tag k="name" v="Håvestøyl" />
		<tag k="place" v="locality" />
		<tag k="ssr:stedsnr" v="791130" />
	</node>
	<node lat="59.259561112871026" lon="8.076988887781527" id="-30670">
		<tag k="name" v="Rudvang" />
		<tag k="place" v="farm" />
		<tag k="ssr:stedsnr" v="791881" />
	</node>
	<node lat="59.301200000684304" lon="8.104661110028802" id="-30671">
		<tag k="fixme" v="consider place=hamlet" />
		<tag k="name" v="Brokke" />
		<tag k="place" v="farm" />
		<tag k="ssr:stedsnr" v="791146" />
	</node>
	<node lat="59.317877779852864" lon="8.153944445183704" id="-30674">
		<tag k="name" v="Nedrebø" />
		<tag k="place" v="farm" />
		<tag k="ssr:stedsnr" v="791171" />
	</node>
	<node lat="59.32053055817965" lon="8.14699444308322" id="-30675">
		<tag k="amenity" v="school" />
		<tag k="name" v="Foldsæ utdanningssenter" />
		<tag k="old_name" v="Foldsæ landbruksskole;Foldsæ" />
		<tag k="ssr:stedsnr" v="791186" />
	</node>
	<node lat="59.32404444657774" lon="8.143758332838129" id="-30676">
		<tag k="alt_name" v="Midtgarden" />
		<tag k="fixme" v="consider place=hamlet" />
		<tag k="name" v="Midgarden" />
		<tag k="place" v="farm" />
		<tag k="ssr:stedsnr" v="791187" />
	</node>
	<node lat="59.2608444479942" lon="8.342644446429475" id="-30678">
		<tag k="alt_name" v="Finnflata" />
		<tag k="name" v="Finnfloti" />
		<tag k="place" v="isolated_dwelling" />
		<tag k="ssr:stedsnr" v="791192" />
	</node>
	<node lat="59.25301944888123" lon="8.196513883369986" id="-30680">
		<tag k="fixme" v="consider place=hamlet" />
		<tag k="name" v="Rolleivstad" />
		<tag k="place" v="farm" />
		<tag k="ssr:stedsnr" v="791195" />
	</node>
	<node lat="59.07927500218587" lon="8.24583055609672" id="-30681">
		<tag k="name" v="Vik" />
		<tag k="place" v="farm" />
		<tag k="ssr:stedsnr" v="791201" />
	</node>
	<node lat="59.27871388853608" lon="8.114024992584785" id="-30682">
		<tag k="alt_name" v="Norli" />
		<tag k="name" v="Nordli" />
		<tag k="place" v="farm" />
		<tag k="ssr:stedsnr" v="791216" />
	</node>
	<node lat="59.32183055450334" lon="7.850077778827753" id="-30685">
		<tag k="name" v="Hovdestøyl" />
		<tag k="old_name" v="Hovdestøl" />
		<tag k="place" v="isolated_dwelling" />
		<tag k="ssr:stedsnr" v="791930" />
	</node>
	<node lat="59.00700278068179" lon="8.279166664989669" id="-30687">
		<tag k="name" v="Flaten" />
		<tag k="place" v="isolated_dwelling" />
		<tag k="ssr:stedsnr" v="791968" />
	</node>
	<node lat="59.00175833524802" lon="8.277952784589209" id="-30688">
		<tag k="name" v="Saurnes" />
		<tag k="place" v="isolated_dwelling" />
		<tag k="ssr:stedsnr" v="791978" />
	</node>
	<node lat="59.000688888060274" lon="8.292100001954921" id="-30689">
		<tag k="alt_name" v="Kilan" />
		<tag k="fixme" v="consider place=hamlet" />
		<tag k="name" v="Kiland" />
		<tag k="place" v="farm" />
		<tag k="ssr:stedsnr" v="791979" />
	</node>
	<node lat="59.244113892195074" lon="7.965613892464749" id="-30690">
		<tag k="name" v="Fjellstøyl" />
		<tag k="place" v="locality" />
		<tag k="ssr:stedsnr" v="823486" />
	</node>
	<node lat="59.20705277616497" lon="7.940061111941189" id="-30707">
		<tag k="name" v="Nissebu" />
		<tag k="place" v="isolated_dwelling" />
		<tag k="ssr:stedsnr" v="823557" />
	</node>
	<node lat="59.21455833528217" lon="8.047305559734394" id="-30708">
		<tag k="name" v="Snoregjil" />
		<tag k="place" v="locality" />
		<tag k="ssr:stedsnr" v="823886" />
	</node>
	<node lat="59.21615277793572" lon="8.006983333967318" id="-30709">
		<tag k="historic" v="shieling" />
		<tag k="name" v="Røynbustøylen" />
		<tag k="place" v="isolated_dwelling" />
		<tag k="ssr:stedsnr" v="823887" />
	</node>
	<node lat="59.22160555749955" lon="7.808477777298577" id="-30713">
		<tag k="name" v="Gaukåsstøylen" />
		<tag k="place" v="locality" />
		<tag k="ssr:stedsnr" v="824125" />
	</node>
	<node lat="59.24133610795927" lon="7.8308361188432345" id="-30718">
		<tag k="historic" v="shieling" />
		<tag k="name" v="Uvlistøylen" />
		<tag k="place" v="isolated_dwelling" />
		<tag k="ssr:stedsnr" v="824181" />
	</node>
	<node lat="59.24470555397135" lon="7.903205556297991" id="-30722">
		<tag k="name" v="Liæ sørgård" />
		<tag k="place" v="farm" />
		<tag k="ssr:stedsnr" v="824196" />
	</node>
	<node lat="59.28864999809793" lon="7.765102772588213" id="-30730">
		<tag k="name" v="Skålane" />
		<tag k="place" v="locality" />
		<tag k="ssr:stedsnr" v="824439" />
	</node>
	<node lat="59.236288892020625" lon="7.971772225807875" id="-30735">
		<tag k="name" v="Bondal norigard" />
		<tag k="place" v="farm" />
		<tag k="ssr:stedsnr" v="824590" />
	</node>
	<node lat="59.3164027770585" lon="7.767527782880907" id="-30751">
		<tag k="historic" v="shieling" />
		<tag k="name" v="Bjørkeholta" />
		<tag k="place" v="isolated_dwelling" />
		<tag k="ssr:stedsnr" v="825628" />
	</node>
	<node lat="59.28703610674088" lon="7.845561107642567" id="-30754">
		<tag k="name" v="Torsstøyl" />
		<tag k="place" v="locality" />
		<tag k="ssr:stedsnr" v="826473" />
	</node>
	<node lat="58.95124444722996" lon="8.306302770496858" id="-30756">
		<tag k="name" v="Fosstøyl" />
		<tag k="place" v="locality" />
		<tag k="ssr:stedsnr" v="834065" />
	</node>
	<node lat="59.01999999774912" lon="8.208772218978542" id="-30757">
		<tag k="name" v="Tjønnheihytta" />
		<tag k="place" v="isolated_dwelling" />
		<tag k="ssr:stedsnr" v="834142" />
	</node>
	<node lat="59.003024998461164" lon="8.294383325738453" id="-30770">
		<tag k="name" v="Århus" />
		<tag k="place" v="locality" />
		<tag k="ssr:stedsnr" v="837293" />
	</node>
	<node lat="59.02113888806264" lon="8.280022218511906" id="-30774">
		<tag k="name" v="Nordre Sundsli" />
		<tag k="place" v="isolated_dwelling" />
		<tag k="ssr:stedsnr" v="836598" />
	</node>
	<node lat="59.13814721948888" lon="8.1073750018049" id="-30777">
		<tag k="name" v="Nordre Momrak" />
		<tag k="place" v="farm" />
		<tag k="ssr:stedsnr" v="836742" />
	</node>
	<node lat="59.111224997766016" lon="8.304158340165383" id="-30778">
		<tag k="name" v="Hågstøyl" />
		<tag k="place" v="locality" />
		<tag k="ssr:stedsnr" v="836771" />
	</node>
	<node lat="59.092602775228144" lon="8.287247224844952" id="-30780">
		<tag k="name" v="Sandvasshytta" />
		<tag k="place" v="isolated_dwelling" />
		<tag k="ssr:stedsnr" v="836960" />
	</node>
	<node lat="59.267863889478086" lon="8.095119441143453" id="-30794">
		<tag k="name" v="Bjørnstad søndre" />
		<tag k="place" v="farm" />
		<tag k="ssr:stedsnr" v="837474" />
	</node>
	<node lat="59.008747222032994" lon="8.275050002748397" id="-30797">
		<tag k="name" v="Fjellstad" />
		<tag k="place" v="isolated_dwelling" />
		<tag k="ssr:stedsnr" v="837259" />
	</node>
	<node lat="59.1755472252509" lon="8.238069445226735" id="-30804">
		<tag k="name" v="Kil" />
		<tag k="place" v="locality" />
		<tag k="ssr:stedsnr" v="837649" />
	</node>
	<node lat="59.25421944075653" lon="8.230080556791625" id="-30812">
		<tag k="name" v="Nystøyl" />
		<tag k="place" v="locality" />
		<tag k="ssr:stedsnr" v="837848" />
	</node>
	<node lat="59.294383332066225" lon="8.104558338752788" id="-30817">
		<tag k="name" v="Dalen" />
		<tag k="place" v="farm" />
		<tag k="ssr:stedsnr" v="838114" />
	</node>
	<node lat="59.29891944387647" lon="7.894622215247374" id="-30824">
		<tag k="name" v="Håmsbu" />
		<tag k="place" v="isolated_dwelling" />
		<tag k="ssr:stedsnr" v="838268" />
	</node>
	<node lat="59.035080556094364" lon="8.07548889674228" id="-30827">
		<tag k="name" v="Sandnes" />
		<tag k="place" v="locality" />
		<tag k="ssr:stedsnr" v="838516" />
	</node>
	<node lat="59.292427779489685" lon="8.081166670311145" id="-30828">
		<tag k="name" v="Morkji" />
		<tag k="place" v="locality" />
		<tag k="ssr:stedsnr" v="838838" />
	</node>
	<node lat="59.33835555940842" lon="7.830299994531196" id="-30830">
		<tag k="historic" v="shieling" />
		<tag k="name" v="Hæknenystøyl" />
		<tag k="place" v="isolated_dwelling" />
		<tag k="ssr:stedsnr" v="838999" />
	</node>
	<node lat="59.18338889319711" lon="8.098572224308645" id="-30833">
		<tag k="name" v="Homland" />
		<tag k="place" v="isolated_dwelling" />
		<tag k="ssr:stedsnr" v="838963" />
	</node>
	<node lat="59.183236107175624" lon="8.097766670010914" id="-30834">
		<tag k="name" v="Nordjordet" />
		<tag k="place" v="isolated_dwelling" />
		<tag k="ssr:stedsnr" v="838965" />
	</node>
	<node lat="59.29137777955692" lon="7.988436114425343" id="-30835">
		<tag k="name" v="Songedal uppistog" />
		<tag k="place" v="farm" />
		<tag k="ssr:stedsnr" v="839268" />
	</node>
	<node lat="58.99615833671458" lon="7.991413893811379" id="-30840">
		<tag k="name" v="Bronbakkskaret" />
		<tag k="place" v="locality" />
		<tag k="ssr:stedsnr" v="839502" />
	</node>
	<node lat="59.08138476449903" lon="8.035544473306741" id="-30843">
		<tag k="name" v="Ljosdalen" />
		<tag k="place" v="locality" />
		<tag k="ssr:stedsnr" v="851423" />
	</node>
	<node lat="59.24568888834324" lon="8.043069446518649" id="-30856">
		<tag k="alt_name" v="Londehall" />
		<tag k="fixme" v="consider place=hamlet" />
		<tag k="name" v="Lundehall" />
		<tag k="place" v="farm" />
		<tag k="ssr:stedsnr" v="851296" />
	</node>
	<node lat="59.19205187474982" lon="8.100124457655074" id="-30862">
		<tag k="name" v="Århus" />
		<tag k="place" v="farm" />
		<tag k="ssr:stedsnr" v="851345" />
	</node>
	<node lat="59.1660999969963" lon="7.738347229318569" id="-30863">
		<tag k="name" v="Listøyl" />
		<tag k="old_name" v="Listøl" />
		<tag k="place" v="locality" />
		<tag k="ssr:stedsnr" v="851356" />
	</node>
	<node lat="58.98885833398116" lon="8.266983332174426" id="-30873">
		<tag k="name" v="Moen" />
		<tag k="place" v="farm" />
		<tag k="ssr:stedsnr" v="851848" />
	</node>
	<node lat="59.014699998969654" lon="8.25163054983018" id="-30875">
		<tag k="alt_name" v="Strånd" />
		<tag k="name" v="Strond" />
		<tag k="place" v="isolated_dwelling" />
		<tag k="ssr:stedsnr" v="851983" />
	</node>
	<node lat="59.28336944232258" lon="7.795341672647026" id="-30885">
		<tag k="alt_name" v="Kveldbekklii" />
		<tag k="name" v="Kveldbekklistøylen" />
		<tag k="place" v="locality" />
		<tag k="ssr:stedsnr" v="852898" />
	</node>
	<node lat="59.31144166394945" lon="7.7290361126660665" id="-30888">
		<tag k="name" v="Haugen" />
		<tag k="place" v="locality" />
		<tag k="ssr:stedsnr" v="852937" />
	</node>
	<node lat="59.314369445168715" lon="7.9969666634741445" id="-30889">
		<tag k="name" v="Fistøyl" />
		<tag k="old_name" v="Fistøl" />
		<tag k="place" v="locality" />
		<tag k="ssr:stedsnr" v="852940" />
	</node>
	<node lat="59.299480555111415" lon="7.905349996326491" id="-30890">
		<tag k="fixme" v="consider place=hamlet" />
		<tag k="name" v="Nordbø" />
		<tag k="place" v="farm" />
		<tag k="ssr:stedsnr" v="852945" />
	</node>
	<node lat="59.3014638912205" lon="8.003555561385848" id="-30891">
		<tag k="alt_name" v="Neiri Liene" />
		<tag k="name" v="Nerliene" />
		<tag k="place" v="farm" />
		<tag k="ssr:stedsnr" v="852953" />
	</node>
	<node lat="59.11280555954744" lon="8.075238881748344" id="-30905">
		<tag k="name" v="Liane" />
		<tag k="place" v="farm" />
		<tag k="ssr:stedsnr" v="877495" />
	</node>
	<node lat="59.24328611231023" lon="8.027936110262901" id="-30913">
		<tag k="name" v="Jore nedre" />
		<tag k="place" v="isolated_dwelling" />
		<tag k="ssr:stedsnr" v="884323" />
	</node>
	<node lat="59.21948888920116" lon="8.10316944256679" id="-30914">
		<tag k="name" v="Huslænde" />
		<tag k="place" v="locality" />
		<tag k="ssr:stedsnr" v="883623" />
	</node>
	<node lat="59.165883329798476" lon="7.8043166642499955" id="-30927">
		<tag k="name" v="Smalebu" />
		<tag k="place" v="isolated_dwelling" />
		<tag k="ssr:stedsnr" v="885267" />
	</node>
	<node lat="59.18388333609279" lon="7.792499999025761" id="-30928">
		<tag k="name" v="Saupstøyl" />
		<tag k="place" v="locality" />
		<tag k="ssr:stedsnr" v="885270" />
	</node>
	<node lat="59.1446638908437" lon="8.040102781005553" id="-30934">
		<tag k="fixme" v="consider place=hamlet" />
		<tag k="name" v="Lofthus" />
		<tag k="place" v="farm" />
		<tag k="ssr:stedsnr" v="885585" />
	</node>
	<node lat="59.267161115060816" lon="7.852069447025267" id="-30935">
		<tag k="name" v="Eikedalsstøylen" />
		<tag k="place" v="locality" />
		<tag k="ssr:stedsnr" v="885587" />
	</node>
	<node lat="59.144041670090004" lon="8.039080561854421" id="-30936">
		<tag k="alt_name" v="Bekkjerhus" />
		<tag k="fixme" v="consider place=hamlet" />
		<tag k="name" v="Bekkerhus" />
		<tag k="place" v="farm" />
		<tag k="ssr:stedsnr" v="885588" />
	</node>
	<node lat="59.173586112368284" lon="7.912555555541415" id="-30941">
		<tag k="name" v="Borgen øvre" />
		<tag k="place" v="farm" />
		<tag k="ssr:stedsnr" v="885838" />
	</node>
	<node lat="59.24317778140675" lon="7.933191661474027" id="-30943">
		<tag k="name" v="Porsgrunn" />
		<tag k="place" v="farm" />
		<tag k="ssr:stedsnr" v="885995" />
	</node>
	<node lat="59.159919441484206" lon="7.80786389759758" id="-30944">
		<tag k="name" v="Skorstøylen" />
		<tag k="place" v="locality" />
		<tag k="ssr:stedsnr" v="886932" />
	</node>
	<node lat="59.13641388524825" lon="8.030594449247543" id="-30947">
		<tag k="alt_name" v="Nedstebø" />
		<tag k="name" v="Nestebø" />
		<tag k="place" v="farm" />
		<tag k="ssr:stedsnr" v="937492" />
	</node>
	<node lat="59.10676666864461" lon="7.81712500298357" id="-30949">
		<tag k="fixme" v="consider tourism=alpine_hut or tourism=chalet" />
		<tag k="name" v="Nutevasshytta" />
		<tag k="old_name" v="Nutvasshytta" />
		<tag k="ssr:stedsnr" v="937497" />
		<tag k="tourism" v="wilderness_hut" />
	</node>
	<node lat="59.23503333703345" lon="7.98356110804661" id="-30963">
		<tag k="name" v="Vegheim" />
		<tag k="place" v="isolated_dwelling" />
		<tag k="ssr:stedsnr" v="944553" />
	</node>
	<node lat="59.23256944350779" lon="8.091761106571981" id="-30971">
		<tag k="name" v="Bjørge" />
		<tag k="place" v="farm" />
		<tag k="ssr:stedsnr" v="944459" />
	</node>
	<node lat="59.24981111228935" lon="8.076205564125756" id="-30972">
		<tag k="name" v="Granheim" />
		<tag k="place" v="farm" />
		<tag k="ssr:stedsnr" v="944417" />
	</node>
	<node lat="59.24705278128947" lon="8.095444440233813" id="-30973">
		<tag k="fixme" v="consider place=hamlet" />
		<tag k="name" v="Gryte søndre" />
		<tag k="place" v="farm" />
		<tag k="ssr:stedsnr" v="944419" />
	</node>
	<node lat="59.18594444653293" lon="8.096344439402358" id="-30974">
		<tag k="name" v="Svalastog søndre/nordre" />
		<tag k="place" v="farm" />
		<tag k="ssr:stedsnr" v="944825" />
	</node>
	<node lat="59.28815555211799" lon="7.768272219313595" id="-30977">
		<tag k="name" v="Øyse nigard" />
		<tag k="place" v="farm" />
		<tag k="ssr:stedsnr" v="945176" />
	</node>
	<node lat="59.24008889024413" lon="8.029897227568515" id="-30978">
		<tag k="name" v="Graver øvre" />
		<tag k="place" v="farm" />
		<tag k="ssr:stedsnr" v="945343" />
	</node>
	<node lat="59.2466388923884" lon="8.035769452511174" id="-30979">
		<tag k="name" v="Breiland" />
		<tag k="place" v="farm" />
		<tag k="ssr:stedsnr" v="945347" />
	</node>
	<node lat="59.14629999589267" lon="7.976624994989804" id="-30986">
		<tag k="name" v="Torshus" />
		<tag k="place" v="isolated_dwelling" />
		<tag k="ssr:stedsnr" v="946360" />
	</node>
	<node lat="59.29454721914474" lon="8.04876945246949" id="-31007">
		<tag k="name" v="Hærstad noristøg" />
		<tag k="place" v="farm" />
		<tag k="ssr:stedsnr" v="958313" />
	</node>
	<node lat="59.29410278146127" lon="8.050213896905706" id="-31008">
		<tag k="name" v="Hærstad søstøg" />
		<tag k="place" v="farm" />
		<tag k="ssr:stedsnr" v="958317" />
	</node>
	<node lat="59.060975003801616" lon="8.265499996994576" id="-31009">
		<tag k="name" v="Søgard" />
		<tag k="place" v="farm" />
		<tag k="ssr:stedsnr" v="957523" />
	</node>
	<node lat="59.09331389140444" lon="8.21285277842112" id="-31019">
		<tag k="name" v="Lianstøylane" />
		<tag k="place" v="locality" />
		<tag k="ssr:stedsnr" v="958350" />
	</node>
	<node lat="59.17376388903309" lon="8.113255563742879" id="-31024">
		<tag k="name" v="Vårfjoset" />
		<tag k="place" v="locality" />
		<tag k="ssr:stedsnr" v="958436" />
	</node>
	<node lat="59.20233055541255" lon="8.250238897084866" id="-31032">
		<tag k="name" v="Røynebu" />
		<tag k="place" v="locality" />
		<tag k="ssr:stedsnr" v="958724" />
	</node>
	<node lat="59.173866662741204" lon="8.103163891868276" id="-31038">
		<tag k="name" v="Glitta" />
		<tag k="place" v="locality" />
		<tag k="ssr:stedsnr" v="958864" />
	</node>
	<node lat="59.024136107602196" lon="8.019733337461311" id="-31053">
		<tag k="name" v="Revdalen" />
		<tag k="place" v="locality" />
		<tag k="ssr:stedsnr" v="959533" />
	</node>
	<node lat="59.28725833669962" lon="8.056263887262274" id="-31057">
		<tag k="name" v="Spokkeli norigard" />
		<tag k="place" v="farm" />
		<tag k="ssr:stedsnr" v="959738" />
	</node>
	<node lat="59.28410278149723" lon="8.068558332466484" id="-31058">
		<tag k="name" v="Soltun" />
		<tag k="place" v="isolated_dwelling" />
		<tag k="ssr:stedsnr" v="959750" />
	</node>
	<node lat="59.175552777102524" lon="8.098113897024735" id="-31061">
		<tag k="name" v="Flatine" />
		<tag k="place" v="locality" />
		<tag k="ssr:stedsnr" v="959815" />
	</node>
	<node lat="59.16468757003702" lon="7.956877275187188" id="-31069">
		<tag k="fixme" v="consider place=hamlet" />
		<tag k="name" v="Store Rui" />
		<tag k="place" v="farm" />
		<tag k="ssr:stedsnr" v="984095" />
	</node>
	<node lat="59.11643213063828" lon="8.076633234762264" id="-31070">
		<tag k="fixme" v="consider place=hamlet" />
		<tag k="name" v="Nordre Breivik" />
		<tag k="place" v="farm" />
		<tag k="ssr:stedsnr" v="984125" />
	</node>
	<node lat="59.19137293563629" lon="8.221372908548908" id="-31071">
		<tag k="fixme" v="consider place=hamlet" />
		<tag k="name" v="Østre Nape" />
		<tag k="place" v="farm" />
		<tag k="ssr:stedsnr" v="984141" />
	</node>
	<node lat="59.18957658656401" lon="8.229526987472061" id="-31072">
		<tag k="name" v="Nape" />
		<tag k="place" v="hamlet" />
		<tag k="ssr:stedsnr" v="984142" />
	</node>
	<node lat="59.23894454566389" lon="7.934618986448815" id="-31073">
		<tag k="fixme" v="consider place=hamlet" />
		<tag k="name" v="Nedre Metveit" />
		<tag k="place" v="farm" />
		<tag k="ssr:stedsnr" v="984157" />
	</node>
	<node lat="59.2427927274254" lon="7.933648531799799" id="-31074">
		<tag k="fixme" v="consider place=hamlet" />
		<tag k="name" v="Øvre Metveit" />
		<tag k="place" v="farm" />
		<tag k="ssr:stedsnr" v="984158" />
	</node>
	<node lat="59.2416166694919" lon="7.933774758689662" id="-31075">
		<tag k="name" v="Metveit" />
		<tag k="place" v="hamlet" />
		<tag k="ssr:stedsnr" v="984164" />
	</node>
	<node lat="59.32165646045252" lon="8.146394252739277" id="-31076">
		<tag k="fixme" v="consider place=hamlet" />
		<tag k="name" v="Foldsæ" />
		<tag k="place" v="farm" />
		<tag k="ssr:stedsnr" v="984165" />
	</node>
	<node lat="59.323919325088795" lon="8.10900609002802" id="-31078">
		<tag k="name" v="Skredi" />
		<tag k="place" v="hamlet" />
		<tag k="ssr:stedsnr" v="1073792" />
	</node>
</osm>
