<?xml version="1.0" encoding="UTF-8"?>
<osm version="0.6" generator="osmapis">
	<node lat="59.004666668855364" lon="8.20161111643305" id="-25039">
		<tag k="ford" v="yes" />
		<tag k="name" v="Midtre vadet" />
		<tag k="place" v="locality" />
		<tag k="ssr:stedsnr" v="230014" />
	</node>
	<node lat="59.147016664224005" lon="8.086752770481208" id="-25063">
		<tag k="highway" v="path" />
		<tag k="name" v="Ligringsvikslepa" />
		<tag k="ssr:stedsnr" v="230373" />
	</node>
	<node lat="59.15306944213085" lon="8.084513882855475" id="-25070">
		<tag k="highway" v="path" />
		<tag k="name" v="Sønstebøslepa" />
		<tag k="ssr:stedsnr" v="230559" />
	</node>
	<node lat="59.151813884753054" lon="8.088633330452696" id="-25072">
		<tag k="bridge" v="yes" />
		<tag k="layer" v="1" />
		<tag k="name" v="Tullebru" />
		<tag k="ssr:stedsnr" v="230574" />
	</node>
	<node lat="59.05942500081844" lon="8.248633334204245" id="-25085">
		<tag k="name" v="Urneskasti" />
		<tag k="place" v="locality" />
		<tag k="ssr:stedsnr" v="230966" />
	</node>
	<node lat="59.076858335692506" lon="8.2575444472277" id="-25143">
		<tag k="highway" v="path" />
		<tag k="name" v="Ålmannvegen" />
		<tag k="ssr:stedsnr" v="47511" />
	</node>
	<node lat="59.24007500443801" lon="8.275683329082185" id="-25266">
		<tag k="ford" v="yes" />
		<tag k="name" v="Matnappvai" />
		<tag k="place" v="locality" />
		<tag k="ssr:stedsnr" v="96662" />
	</node>
	<node lat="59.28373055558197" lon="8.088711114160953" id="-25278">
		<tag k="bridge" v="yes" />
		<tag k="layer" v="1" />
		<tag k="name" v="Veum søndre" />
		<tag k="ssr:stedsnr" v="107426" />
	</node>
	<node lat="59.28852222637542" lon="8.048399993910962" id="-25279">
		<tag k="bridge" v="yes" />
		<tag k="layer" v="1" />
		<tag k="name" v="Spokli" />
		<tag k="ssr:stedsnr" v="107432" />
	</node>
	<node lat="59.23670000257817" lon="7.968908333852086" id="-25280">
		<tag k="bridge" v="yes" />
		<tag k="layer" v="1" />
		<tag k="name" v="Bøysebekk" />
		<tag k="ssr:stedsnr" v="107441" />
	</node>
	<node lat="59.14738611395236" lon="8.054894442160675" id="-25298">
		<tag k="man_made" v="quay" />
		<tag k="name" v="Fardal brygge" />
		<tag k="place" v="locality" />
		<tag k="ssr:stedsnr" v="109370" />
	</node>
	<node lat="58.98255555170219" lon="8.325105549088144" id="-25375">
		<tag k="bridge" v="yes" />
		<tag k="layer" v="1" />
		<tag k="name" v="Ronemonuten halvbru" />
		<tag k="ssr:stedsnr" v="168416" />
	</node>
	<node lat="59.26571388867595" lon="8.079069439427872" id="-25376">
		<tag k="bridge" v="yes" />
		<tag k="layer" v="1" />
		<tag k="name" v="Bjørnstad søndre" />
		<tag k="ssr:stedsnr" v="168422" />
	</node>
	<node lat="59.12887777394321" lon="8.125561110464547" id="-25395">
		<tag k="man_made" v="quay" />
		<tag k="name" v="Momrak brygge" />
		<tag k="place" v="locality" />
		<tag k="ssr:stedsnr" v="169582" />
	</node>
	<node lat="59.24039166260147" lon="8.023427775415124" id="-25473">
		<tag k="fixme" v="consider highway=path" />
		<tag k="highway" v="track" />
		<tag k="name" v="Stigen" />
		<tag k="ssr:stedsnr" v="217281" />
	</node>
	<node lat="59.25103333677576" lon="7.915366669418439" id="-25485">
		<tag k="highway" v="path" />
		<tag k="name" v="Saurkleiv" />
		<tag k="ssr:stedsnr" v="219589" />
	</node>
	<node lat="59.0821277741057" lon="8.249083334559264" id="-25496">
		<tag k="highway" v="path" />
		<tag k="name" v="Vikkleivane" />
		<tag k="ssr:stedsnr" v="229490" />
	</node>
	<node lat="59.29488611145602" lon="8.225066663132512" id="-25511">
		<tag k="highway" v="path" />
		<tag k="name" v="Bekkedalsbakkane" />
		<tag k="ssr:stedsnr" v="230442" />
	</node>
	<node lat="59.04499444625835" lon="8.263519444789416" id="-25519">
		<tag k="highway" v="path" />
		<tag k="name" v="Merraskotbakkane" />
		<tag k="ssr:stedsnr" v="230792" />
	</node>
	<node lat="59.028333335026495" lon="8.285066673035885" id="-25666">
		<tag k="highway" v="path" />
		<tag k="name" v="Sundskleiv" />
		<tag k="ssr:stedsnr" v="290630" />
	</node>
	<node lat="59.06782777598126" lon="8.265375004665676" id="-25727">
		<tag k="bridge" v="yes" />
		<tag k="layer" v="1" />
		<tag k="name" v="Valå" />
		<tag k="ssr:stedsnr" v="471430" />
	</node>
	<node lat="59.23930277485277" lon="8.07690000574254" id="-25728">
		<tag k="bridge" v="yes" />
		<tag k="layer" v="1" />
		<tag k="name" v="Haugfoss" />
		<tag k="ssr:stedsnr" v="471433" />
	</node>
	<node lat="59.20753055489842" lon="8.088508338976753" id="-25742">
		<tag k="aeroway" v="airstrip" />
		<tag k="name" v="Fyresdal flyplass" />
		<tag k="ssr:stedsnr" v="331493" />
	</node>
	<node lat="59.059730553120104" lon="8.267508341170393" id="-25747">
		<tag k="highway" v="path" />
		<tag k="name" v="Juringvegen" />
		<tag k="ssr:stedsnr" v="471553" />
	</node>
	<node lat="59.211311114551414" lon="8.061974997955028" id="-25753">
		<tag k="highway" v="path" />
		<tag k="name" v="Ovnen" />
		<tag k="ssr:stedsnr" v="337511" />
	</node>
	<node lat="59.22857221859832" lon="8.011505552348675" id="-25758">
		<tag k="bridge" v="yes" />
		<tag k="layer" v="1" />
		<tag k="name" v="Bjørnerudbrua" />
		<tag k="ssr:stedsnr" v="338202" />
	</node>
	<node lat="59.29761388638914" lon="8.223841667952346" id="-25787">
		<tag k="ford" v="yes" />
		<tag k="name" v="Bergvaet" />
		<tag k="place" v="locality" />
		<tag k="ssr:stedsnr" v="472444" />
	</node>
	<node lat="59.26483889221649" lon="8.076261119726537" id="-25844">
		<tag k="ford" v="yes" />
		<tag k="name" v="Håsomvai" />
		<tag k="place" v="locality" />
		<tag k="ssr:stedsnr" v="351463" />
	</node>
	<node lat="59.06198333389256" lon="7.97848888976556" id="-25875">
		<tag k="highway" v="path" />
		<tag k="name" v="Smoken" />
		<tag k="ssr:stedsnr" v="353214" />
	</node>
	<node lat="59.222772217824065" lon="8.014038894465209" id="-26099">
		<tag k="bridge" v="yes" />
		<tag k="layer" v="1" />
		<tag k="name" v="Russlandsbrua" />
		<tag k="ssr:stedsnr" v="458937" />
	</node>
	<node lat="59.24390277922979" lon="8.040074999128608" id="-26100">
		<tag k="fixme" v="consider highway=path" />
		<tag k="highway" v="track" />
		<tag k="name" v="Bronanevegen" />
		<tag k="ssr:stedsnr" v="459266" />
	</node>
	<node lat="58.98982778148175" lon="8.291183332020283" id="-26124">
		<tag k="fixme" v="verify maritime location" />
		<tag k="mooring" v="yes" />
		<tag k="name" v="Øvre Vettersto" />
		<tag k="place" v="locality" />
		<tag k="ssr:stedsnr" v="469075" />
	</node>
	<node lat="59.05580833159352" lon="8.259872213583787" id="-26150">
		<tag k="highway" v="path" />
		<tag k="name" v="Brokkebakken" />
		<tag k="ssr:stedsnr" v="472967" />
	</node>
	<node lat="58.97261666436618" lon="8.314372223843591" id="-26229">
		<tag k="highway" v="path" />
		<tag k="name" v="Løkjebakken" />
		<tag k="ssr:stedsnr" v="530082" />
	</node>
	<node lat="58.98943610736908" lon="8.295341664166775" id="-26230">
		<tag k="fixme" v="verify maritime location" />
		<tag k="mooring" v="yes" />
		<tag k="name" v="Ytre Vettersto" />
		<tag k="place" v="locality" />
		<tag k="ssr:stedsnr" v="530086" />
	</node>
	<node lat="59.25896666638647" lon="8.068388881550474" id="-26245">
		<tag k="ford" v="yes" />
		<tag k="name" v="Sandvai" />
		<tag k="place" v="locality" />
		<tag k="ssr:stedsnr" v="533481" />
	</node>
	<node lat="59.07558055295527" lon="8.027955555422167" id="-26353">
		<tag k="bridge" v="yes" />
		<tag k="layer" v="1" />
		<tag k="name" v="Løkedalen" />
		<tag k="ssr:stedsnr" v="592460" />
	</node>
	<node lat="59.118005555339245" lon="8.078961109160398" id="-26354">
		<tag k="bridge" v="yes" />
		<tag k="layer" v="1" />
		<tag k="name" v="Breivik" />
		<tag k="ssr:stedsnr" v="592463" />
	</node>
	<node lat="59.106349999133755" lon="8.05439166279744" id="-26355">
		<tag k="bridge" v="yes" />
		<tag k="layer" v="1" />
		<tag k="name" v="Breivikkleivane" />
		<tag k="ssr:stedsnr" v="592465" />
	</node>
	<node lat="59.00606111130148" lon="8.173674998150206" id="-26361">
		<tag k="ford" v="yes" />
		<tag k="name" v="Nusslivadet" />
		<tag k="place" v="locality" />
		<tag k="ssr:stedsnr" v="594101" />
	</node>
	<node lat="59.0461555600835" lon="8.257155558132737" id="-26369">
		<tag k="name" v="Haukebekkasti" />
		<tag k="place" v="locality" />
		<tag k="ssr:stedsnr" v="594803" />
	</node>
	<node lat="59.136602782036434" lon="8.125675001271876" id="-26513">
		<tag k="bridge" v="yes" />
		<tag k="layer" v="1" />
		<tag k="name" v="Nordå" />
		<tag k="ssr:stedsnr" v="653410" />
	</node>
	<node lat="59.0032972204731" lon="8.287138886763842" id="-26514">
		<tag k="alt_name" v="Kilandsbru" />
		<tag k="bridge" v="yes" />
		<tag k="layer" v="1" />
		<tag k="name" v="Killand" />
		<tag k="ssr:stedsnr" v="653412" />
	</node>
	<node lat="59.101252777751455" lon="8.237244448729262" id="-26531">
		<tag k="name" v="Solbergrullane" />
		<tag k="place" v="locality" />
		<tag k="ssr:stedsnr" v="654587" />
	</node>
	<node lat="59.31610555589775" lon="8.158427785893092" id="-26545">
		<tag k="highway" v="path" />
		<tag k="name" v="Fjøddeverpet" />
		<tag k="ssr:stedsnr" v="655933" />
	</node>
	<node lat="58.99520000344501" lon="8.263699995662373" id="-26627">
		<tag k="highway" v="path" />
		<tag k="name" v="Eidskarbakken" />
		<tag k="ssr:stedsnr" v="897187" />
	</node>
	<node lat="59.07376389160587" lon="8.261669447198052" id="-26634">
		<tag k="highway" v="path" />
		<tag k="name" v="Urvegen" />
		<tag k="ssr:stedsnr" v="897493" />
	</node>
	<node lat="59.17647777789654" lon="8.086458337692806" id="-26641">
		<tag k="man_made" v="quay" />
		<tag k="name" v="Segtunbryggja" />
		<tag k="place" v="locality" />
		<tag k="ssr:stedsnr" v="897833" />
	</node>
	<node lat="59.14616389067395" lon="8.054555561002733" id="-26654">
		<tag k="name" v="Nausskota" />
		<tag k="place" v="locality" />
		<tag k="ssr:stedsnr" v="898375" />
	</node>
	<node lat="59.15623333735776" lon="8.089886106265535" id="-26685">
		<tag k="highway" v="path" />
		<tag k="name" v="Stigen" />
		<tag k="ssr:stedsnr" v="715607" />
	</node>
	<node lat="59.182713885655815" lon="8.092786107240677" id="-26708">
		<tag k="bridge" v="yes" />
		<tag k="layer" v="1" />
		<tag k="name" v="Skinnfaddarbru" />
		<tag k="ssr:stedsnr" v="898993" />
	</node>
	<node lat="59.14552777479894" lon="7.768372214357758" id="-26730">
		<tag k="highway" v="path" />
		<tag k="name" v="Saukleiv" />
		<tag k="ssr:stedsnr" v="899836" />
	</node>
	<node lat="58.975583332846256" lon="8.262797220131967" id="-26791">
		<tag k="highway" v="path" />
		<tag k="name" v="Stigen" />
		<tag k="ssr:stedsnr" v="772103" />
	</node>
	<node lat="58.97660833268736" lon="8.311649998571895" id="-26792">
		<tag k="name" v="Bjalkekastet" />
		<tag k="place" v="locality" />
		<tag k="ssr:stedsnr" v="772066" />
	</node>
	<node lat="59.026897226052775" lon="7.974447224313027" id="-26829">
		<tag k="ford" v="yes" />
		<tag k="name" v="Åraksvadet" />
		<tag k="place" v="locality" />
		<tag k="ssr:stedsnr" v="778063" />
	</node>
	<node lat="59.00366944391442" lon="8.213519443283626" id="-26942">
		<tag k="ford" v="yes" />
		<tag k="name" v="Nedre  vadet" />
		<tag k="place" v="locality" />
		<tag k="ssr:stedsnr" v="837007" />
	</node>
	<node lat="59.34133610720216" lon="8.136888897297528" id="-26954">
		<tag k="name" v="Gunnbjønnskast" />
		<tag k="place" v="locality" />
		<tag k="ssr:stedsnr" v="837490" />
	</node>
	<node lat="59.06787778006287" lon="8.108052778425495" id="-26962">
		<tag k="highway" v="path" />
		<tag k="name" v="Bjønnstigane" />
		<tag k="ssr:stedsnr" v="837833" />
	</node>
	<node lat="59.165041662382045" lon="8.142100003930413" id="-26970">
		<tag k="name" v="Tømmerrulla" />
		<tag k="place" v="locality" />
		<tag k="ssr:stedsnr" v="837992" />
	</node>
	<node lat="59.22979167103799" lon="8.075738891086901" id="-27024">
		<tag k="name" v="Storkasti" />
		<tag k="place" v="locality" />
		<tag k="ssr:stedsnr" v="883062" />
	</node>
	<node lat="59.141850002692365" lon="8.035363889625527" id="-27036">
		<tag k="alt_name" v="Tveit" />
		<tag k="bridge" v="yes" />
		<tag k="layer" v="1" />
		<tag k="name" v="Tveitbrua" />
		<tag k="ssr:stedsnr" v="884351" />
	</node>
	<node lat="59.24847500174484" lon="8.255502780463644" id="-27130">
		<tag k="man_made" v="cairn" />
		<tag k="name" v="Urdalsvaren" />
		<tag k="place" v="locality" />
		<tag k="ssr:stedsnr" v="946001" />
	</node>
	<node lat="59.129969445980755" lon="8.143683338796407" id="-27149">
		<tag k="bridge" v="yes" />
		<tag k="layer" v="1" />
		<tag k="name" v="Grandalen" />
		<tag k="ssr:stedsnr" v="957410" />
	</node>
</osm>
