<?xml version="1.0" encoding="UTF-8"?>
<osm version="0.6" generator="osmapis">
	<node lat="59.017572219256444" lon="8.362041660224893" id="-18694">
		<tag k="name" v="Stevilen" />
		<tag k="natural" v="valley" />
		<tag k="place" v="locality" />
		<tag k="ssr:stedsnr" v="229751" />
	</node>
	<node lat="59.1813250041407" lon="8.260624999452661" id="-18699">
		<tag k="name" v="Mjølteskar" />
		<tag k="natural" v="valley" />
		<tag k="place" v="locality" />
		<tag k="ssr:stedsnr" v="230622" />
	</node>
	<node lat="59.13484722620778" lon="8.121550003429462" id="-18701">
		<tag k="name" v="Åsen" />
		<tag k="natural" v="hill" />
		<tag k="place" v="locality" />
		<tag k="ssr:stedsnr" v="229715" />
	</node>
	<node lat="59.148061108287735" lon="8.288274997210445" id="-18703">
		<tag k="alt_name" v="Stråndenuten" />
		<tag k="fixme" v="consider natural=peak for the most distinct mountains in the district" />
		<tag k="name" v="Strondnuten" />
		<tag k="natural" v="hill" />
		<tag k="place" v="locality" />
		<tag k="ssr:stedsnr" v="1115" />
	</node>
	<node lat="58.98615833008154" lon="7.962411119046642" id="-18710">
		<tag k="alt_name" v="Øytjørnåsen" />
		<tag k="fixme" v="consider natural=peak for the most distinct mountains in the district" />
		<tag k="name" v="Øytjønnåsen" />
		<tag k="natural" v="hill" />
		<tag k="place" v="locality" />
		<tag k="ssr:stedsnr" v="1602" />
	</node>
	<node lat="59.149644443947196" lon="8.008330563460339" id="-18714">
		<tag k="alt_name" v="Tjørndalsheii" />
		<tag k="fixme" v="consider natural=peak for the most distinct mountains in the district" />
		<tag k="name" v="Tjønndalsheia" />
		<tag k="natural" v="hill" />
		<tag k="place" v="locality" />
		<tag k="ssr:stedsnr" v="1400" />
	</node>
	<node lat="59.29175555282115" lon="8.186788884666115" id="-18715">
		<tag k="name" v="Kvislebukvæven" />
		<tag k="natural" v="valley" />
		<tag k="place" v="locality" />
		<tag k="ssr:stedsnr" v="2136" />
	</node>
	<node lat="59.27444166424553" lon="8.197011112078167" id="-18719">
		<tag k="fixme" v="consider natural=peak for the most distinct mountains in the district" />
		<tag k="name" v="Ørnekvævnutane" />
		<tag k="natural" v="hill" />
		<tag k="place" v="locality" />
		<tag k="ssr:stedsnr" v="2227" />
	</node>
	<node lat="59.278550002466034" lon="8.258508337236021" id="-18721">
		<tag k="fixme" v="consider natural=peak for the most distinct mountains in the district" />
		<tag k="name" v="Venekvævnuten" />
		<tag k="natural" v="hill" />
		<tag k="place" v="locality" />
		<tag k="ssr:stedsnr" v="2234" />
	</node>
	<node lat="58.985050000761035" lon="8.318744436931764" id="-18726">
		<tag k="name" v="Steinkartane" />
		<tag k="natural" v="cliff" />
		<tag k="ssr:stedsnr" v="230064" />
	</node>
	<node lat="59.004013893319836" lon="8.347650002159769" id="-18729">
		<tag k="alt_name" v="Øvre Lauvnuten" />
		<tag k="fixme" v="consider natural=peak for the most distinct mountains in the district" />
		<tag k="name" v="Lauvnuten, øvre" />
		<tag k="natural" v="hill" />
		<tag k="place" v="locality" />
		<tag k="ssr:stedsnr" v="2977" />
	</node>
	<node lat="59.00037777701889" lon="8.342702781516353" id="-18730">
		<tag k="alt_name" v="Nedre Lauvnuten" />
		<tag k="fixme" v="consider natural=peak for the most distinct mountains in the district" />
		<tag k="name" v="Lauvnuten, nedre" />
		<tag k="natural" v="hill" />
		<tag k="place" v="locality" />
		<tag k="ssr:stedsnr" v="2978" />
	</node>
	<node lat="59.33313888544867" lon="7.791608338144417" id="-18732">
		<tag k="fixme" v="consider natural=peak for the most distinct mountains in the district" />
		<tag k="name" v="Garpekvævnuten" />
		<tag k="natural" v="hill" />
		<tag k="place" v="locality" />
		<tag k="ssr:stedsnr" v="2991" />
	</node>
	<node lat="59.32460833572663" lon="7.772502782973609" id="-18733">
		<tag k="fixme" v="consider natural=peak for the most distinct mountains in the district" />
		<tag k="name" v="Kjøpvassnuten" />
		<tag k="natural" v="hill" />
		<tag k="old_name" v="Kjøpvassåsen" />
		<tag k="place" v="locality" />
		<tag k="ssr:stedsnr" v="2993" />
	</node>
	<node lat="59.251061112393714" lon="8.117188895454925" id="-18736">
		<tag k="name" v="Tverråsen" />
		<tag k="natural" v="hill" />
		<tag k="place" v="locality" />
		<tag k="ssr:stedsnr" v="230233" />
	</node>
	<node lat="58.99751388802637" lon="8.282986110893741" id="-18738">
		<tag k="name" v="Bjønndalen" />
		<tag k="natural" v="valley" />
		<tag k="place" v="locality" />
		<tag k="ssr:stedsnr" v="230347" />
	</node>
	<node lat="59.30401388962467" lon="8.087433328960108" id="-18739">
		<tag k="name" v="Plasslii" />
		<tag k="natural" v="slope" />
		<tag k="place" v="locality" />
		<tag k="ssr:stedsnr" v="230353" />
	</node>
	<node lat="59.16695555844023" lon="8.167719446432603" id="-18742">
		<tag k="name" v="Åsbuheia" />
		<tag k="natural" v="hill" />
		<tag k="place" v="locality" />
		<tag k="ssr:stedsnr" v="230379" />
	</node>
	<node lat="59.19243889077032" lon="8.17320555393791" id="-18745">
		<tag k="name" v="Grasstøyllia" />
		<tag k="natural" v="slope" />
		<tag k="place" v="locality" />
		<tag k="ssr:stedsnr" v="230459" />
	</node>
	<node lat="59.05297222469148" lon="8.34173056102171" id="-18747">
		<tag k="name" v="Midvassheia" />
		<tag k="natural" v="hill" />
		<tag k="place" v="locality" />
		<tag k="ssr:stedsnr" v="230478" />
	</node>
	<node lat="59.165505555086185" lon="8.267466674718309" id="-18752">
		<tag k="name" v="Ursteinen" />
		<tag k="place" v="locality" />
		<tag k="ssr:stedsnr" v="230628" />
	</node>
	<node lat="59.19951111035985" lon="8.219608342087737" id="-18754">
		<tag k="name" v="Stutfuholet" />
		<tag k="natural" v="valley" />
		<tag k="place" v="locality" />
		<tag k="ssr:stedsnr" v="230663" />
	</node>
	<node lat="59.01808610670025" lon="8.097613884309313" id="-18758">
		<tag k="fixme" v="consider natural=peak for the most distinct mountains in the district" />
		<tag k="name" v="Vindåsen" />
		<tag k="natural" v="hill" />
		<tag k="place" v="locality" />
		<tag k="ssr:stedsnr" v="230916" />
	</node>
	<node lat="58.99934721856567" lon="8.350677773874793" id="-18760">
		<tag k="name" v="Fureåsen" />
		<tag k="natural" v="hill" />
		<tag k="place" v="locality" />
		<tag k="ssr:stedsnr" v="7052" />
	</node>
	<node lat="59.06378333351206" lon="8.25415833680058" id="-18762">
		<tag k="name" v="Mølen" />
		<tag k="place" v="locality" />
		<tag k="ssr:stedsnr" v="230948" />
	</node>
	<node lat="59.00911111323746" lon="8.017874995175791" id="-18765">
		<tag k="name" v="Fagerlia" />
		<tag k="natural" v="slope" />
		<tag k="place" v="locality" />
		<tag k="ssr:stedsnr" v="231120" />
	</node>
	<node lat="59.09218333507081" lon="7.852622220454428" id="-18766">
		<tag k="name" v="Smådalane" />
		<tag k="natural" v="valley" />
		<tag k="place" v="locality" />
		<tag k="ssr:stedsnr" v="231258" />
	</node>
	<node lat="59.08571667087765" lon="7.874474993751159" id="-18768">
		<tag k="name" v="Bindøksbladet" />
		<tag k="natural" v="hill" />
		<tag k="place" v="locality" />
		<tag k="ssr:stedsnr" v="231276" />
	</node>
	<node lat="59.06314722051993" lon="7.934252772141288" id="-18770">
		<tag k="name" v="Plasslia" />
		<tag k="natural" v="slope" />
		<tag k="place" v="locality" />
		<tag k="ssr:stedsnr" v="231362" />
	</node>
	<node lat="59.08082221923698" lon="7.936180560001035" id="-18772">
		<tag k="name" v="Løyningslia" />
		<tag k="natural" v="slope" />
		<tag k="place" v="locality" />
		<tag k="ssr:stedsnr" v="231425" />
	</node>
	<node lat="59.06081111461988" lon="7.901566664544813" id="-18773">
		<tag k="name" v="Blakstjønnkvæven" />
		<tag k="natural" v="valley" />
		<tag k="place" v="locality" />
		<tag k="ssr:stedsnr" v="231462" />
	</node>
	<node lat="59.32450555468244" lon="7.892933328658531" id="-18775">
		<tag k="name" v="Hæknefjødd" />
		<tag k="natural" v="hill" />
		<tag k="place" v="locality" />
		<tag k="ssr:stedsnr" v="231663" />
	</node>
	<node lat="59.078525001331926" lon="8.015522217198093" id="-18778">
		<tag k="name" v="Knattane" />
		<tag k="natural" v="hill" />
		<tag k="place" v="locality" />
		<tag k="ssr:stedsnr" v="231847" />
	</node>
	<node lat="59.302955555968914" lon="7.990652770700151" id="-18780">
		<tag k="fixme" v="consider natural=peak for the most distinct mountains in the district" />
		<tag k="name" v="Liaråsen" />
		<tag k="natural" v="hill" />
		<tag k="place" v="locality" />
		<tag k="ssr:stedsnr" v="231874" />
	</node>
	<node lat="59.002074996692265" lon="7.952866661224238" id="-18786">
		<tag k="name" v="Granbudalen" />
		<tag k="natural" v="valley" />
		<tag k="place" v="locality" />
		<tag k="ssr:stedsnr" v="27484" />
	</node>
	<node lat="59.14388055851456" lon="8.01613332937365" id="-18787">
		<tag k="name" v="Fardalsnipa" />
		<tag k="natural" v="hill" />
		<tag k="place" v="locality" />
		<tag k="ssr:stedsnr" v="27488" />
	</node>
	<node lat="59.087713886357456" lon="7.83903888497677" id="-18791">
		<tag k="alt_name" v="Grautlia" />
		<tag k="name" v="Grautelii" />
		<tag k="natural" v="slope" />
		<tag k="place" v="locality" />
		<tag k="ssr:stedsnr" v="28070" />
	</node>
	<node lat="59.214738887086526" lon="8.138119445753006" id="-18792">
		<tag k="name" v="Lagjikøslia" />
		<tag k="natural" v="slope" />
		<tag k="place" v="locality" />
		<tag k="ssr:stedsnr" v="33063" />
	</node>
	<node lat="59.204699995771904" lon="8.141341660422935" id="-18794">
		<tag k="name" v="Nipeskaret" />
		<tag k="natural" v="valley" />
		<tag k="place" v="locality" />
		<tag k="ssr:stedsnr" v="33275" />
	</node>
	<node lat="59.23014722660718" lon="8.077277773610875" id="-18797">
		<tag k="name" v="Kristiansand" />
		<tag k="place" v="locality" />
		<tag k="ssr:stedsnr" v="33465" />
	</node>
	<node lat="59.2156138919545" lon="7.939511106789672" id="-18801">
		<tag k="name" v="Votnekvæven" />
		<tag k="natural" v="valley" />
		<tag k="place" v="locality" />
		<tag k="ssr:stedsnr" v="34862" />
	</node>
	<node lat="59.28857499562086" lon="7.810708334832906" id="-18802">
		<tag k="fixme" v="consider natural=peak for the most distinct mountains in the district" />
		<tag k="name" v="Kaupreitjønnuten" />
		<tag k="natural" v="hill" />
		<tag k="place" v="locality" />
		<tag k="ssr:stedsnr" v="35209" />
	</node>
	<node lat="59.24273055840388" lon="7.846916662614284" id="-18806">
		<tag k="name" v="Støylsdalen" />
		<tag k="natural" v="valley" />
		<tag k="place" v="locality" />
		<tag k="ssr:stedsnr" v="35169" />
	</node>
	<node lat="59.1749833346667" lon="7.7821277796826935" id="-18808">
		<tag k="name" v="Hestekvæven" />
		<tag k="natural" v="valley" />
		<tag k="place" v="locality" />
		<tag k="ssr:stedsnr" v="35303" />
	</node>
	<node lat="59.30546110823865" lon="7.747891664030358" id="-18809">
		<tag k="fixme" v="consider natural=peak for the most distinct mountains in the district" />
		<tag k="name" v="Stokktjønnhaugane" />
		<tag k="natural" v="hill" />
		<tag k="place" v="locality" />
		<tag k="ssr:stedsnr" v="35371" />
	</node>
	<node lat="59.30349999553362" lon="7.742888885770847" id="-18810">
		<tag k="fixme" v="consider natural=peak for the most distinct mountains in the district" />
		<tag k="name" v="Rokonkleiva" />
		<tag k="natural" v="hill" />
		<tag k="place" v="locality" />
		<tag k="ssr:stedsnr" v="35372" />
	</node>
	<node lat="59.29351388607562" lon="7.73144444416358" id="-18811">
		<tag k="fixme" v="consider natural=peak for the most distinct mountains in the district" />
		<tag k="name" v="Kvitrapi" />
		<tag k="natural" v="hill" />
		<tag k="place" v="locality" />
		<tag k="ssr:stedsnr" v="35378" />
	</node>
	<node lat="59.29639999789459" lon="7.739513881353192" id="-18812">
		<tag k="name" v="Nordfitlia" />
		<tag k="natural" v="slope" />
		<tag k="place" v="locality" />
		<tag k="ssr:stedsnr" v="35381" />
	</node>
	<node lat="59.20533611495948" lon="7.8285694435892" id="-18818">
		<tag k="fixme" v="consider natural=peak for the most distinct mountains in the district" />
		<tag k="name" v="Haukreifjellet" />
		<tag k="natural" v="hill" />
		<tag k="place" v="locality" />
		<tag k="ssr:stedsnr" v="35777" />
	</node>
	<node lat="59.295377777053176" lon="8.071961107366597" id="-18820">
		<tag k="name" v="Erteknappdalen" />
		<tag k="natural" v="valley" />
		<tag k="place" v="locality" />
		<tag k="ssr:stedsnr" v="47302" />
	</node>
	<node lat="58.99736944576499" lon="8.324322215480313" id="-18824">
		<tag k="name" v="Styggedal" />
		<tag k="natural" v="valley" />
		<tag k="place" v="locality" />
		<tag k="ssr:stedsnr" v="48303" />
	</node>
	<node lat="59.105669445995495" lon="8.214955563239624" id="-18825">
		<tag k="name" v="Futelia" />
		<tag k="natural" v="slope" />
		<tag k="place" v="locality" />
		<tag k="ssr:stedsnr" v="48307" />
	</node>
	<node lat="59.05889722009556" lon="8.195427773925596" id="-18826">
		<tag k="name" v="Lauvdalen" />
		<tag k="natural" v="valley" />
		<tag k="place" v="locality" />
		<tag k="ssr:stedsnr" v="48316" />
	</node>
	<node lat="59.300083330327766" lon="8.084238888131413" id="-18827">
		<tag k="name" v="Tveitlii" />
		<tag k="natural" v="slope" />
		<tag k="place" v="locality" />
		<tag k="ssr:stedsnr" v="48338" />
	</node>
	<node lat="58.98029999644844" lon="8.039383325132125" id="-18828">
		<tag k="name" v="Dagsbeitnuten" />
		<tag k="natural" v="hill" />
		<tag k="place" v="locality" />
		<tag k="ssr:stedsnr" v="48213" />
	</node>
	<node lat="59.06455833746072" lon="8.066538892105854" id="-18831">
		<tag k="name" v="Bergefjell" />
		<tag k="natural" v="hill" />
		<tag k="place" v="locality" />
		<tag k="ssr:stedsnr" v="48427" />
	</node>
	<node lat="59.30474722387596" lon="8.10219165840754" id="-18835">
		<tag k="name" v="Grånliufsi" />
		<tag k="natural" v="cliff" />
		<tag k="ssr:stedsnr" v="48718" />
	</node>
	<node lat="59.05793055714183" lon="8.247055551823092" id="-18837">
		<tag k="name" v="Åsneshola" />
		<tag k="natural" v="valley" />
		<tag k="place" v="locality" />
		<tag k="ssr:stedsnr" v="48968" />
	</node>
	<node lat="59.260766666232065" lon="8.000033333556617" id="-18847">
		<tag k="name" v="Vardalen" />
		<tag k="natural" v="valley" />
		<tag k="place" v="locality" />
		<tag k="ssr:stedsnr" v="49919" />
	</node>
	<node lat="58.99933611064635" lon="7.971124993707556" id="-18848">
		<tag k="name" v="Raunekvæven" />
		<tag k="natural" v="valley" />
		<tag k="place" v="locality" />
		<tag k="ssr:stedsnr" v="50471" />
	</node>
	<node lat="58.96437499981912" lon="8.238811107531" id="-18850">
		<tag k="name" v="Rundtjørndalen" />
		<tag k="natural" v="valley" />
		<tag k="place" v="locality" />
		<tag k="ssr:stedsnr" v="61205" />
	</node>
	<node lat="59.184216669925014" lon="8.157541671308937" id="-18857">
		<tag k="fixme" v="consider natural=peak for the most distinct mountains in the district" />
		<tag k="name" v="Søtdalsvarden" />
		<tag k="natural" v="hill" />
		<tag k="place" v="locality" />
		<tag k="ssr:stedsnr" v="62071" />
	</node>
	<node lat="59.182311110714316" lon="8.247608327163878" id="-18858">
		<tag k="alt_name" v="Vidstøyllia" />
		<tag k="name" v="Vidstøllii" />
		<tag k="natural" v="slope" />
		<tag k="place" v="locality" />
		<tag k="ssr:stedsnr" v="62078" />
	</node>
	<node lat="58.95694166920102" lon="8.308255559647698" id="-18864">
		<tag k="alt_name" v="Barlindkrone" />
		<tag k="name" v="Barlindkruna" />
		<tag k="natural" v="slope" />
		<tag k="place" v="locality" />
		<tag k="ssr:stedsnr" v="62920" />
	</node>
	<node lat="59.01393333410158" lon="8.323949999960572" id="-18866">
		<tag k="alt_name" v="Saurli" />
		<tag k="name" v="Saurlii" />
		<tag k="natural" v="slope" />
		<tag k="place" v="locality" />
		<tag k="ssr:stedsnr" v="62991" />
	</node>
	<node lat="59.082724999116635" lon="8.309044446228084" id="-18869">
		<tag k="alt_name" v="Maurdalsristene" />
		<tag k="name" v="Maurdalsristi" />
		<tag k="natural" v="hill" />
		<tag k="place" v="locality" />
		<tag k="ssr:stedsnr" v="63214" />
	</node>
	<node lat="59.27220833299964" lon="8.183255549657986" id="-18870">
		<tag k="name" v="Ørnekvæven" />
		<tag k="natural" v="valley" />
		<tag k="place" v="locality" />
		<tag k="ssr:stedsnr" v="63219" />
	</node>
	<node lat="59.25503611485878" lon="8.104380558583761" id="-18872">
		<tag k="fixme" v="consider natural=peak for the most distinct mountains in the district" />
		<tag k="name" v="Hardåsen" />
		<tag k="natural" v="hill" />
		<tag k="place" v="locality" />
		<tag k="ssr:stedsnr" v="63222" />
	</node>
	<node lat="59.16418055131562" lon="8.104930552792341" id="-18881">
		<tag k="fixme" v="consider natural=peak for the most distinct mountains in the district" />
		<tag k="name" v="Geitnetten" />
		<tag k="natural" v="hill" />
		<tag k="place" v="locality" />
		<tag k="ssr:stedsnr" v="244076" />
	</node>
	<node lat="59.24143888703182" lon="8.109186102982397" id="-18883">
		<tag k="fixme" v="consider natural=peak for the most distinct mountains in the district" />
		<tag k="name" v="Kleivnetten" />
		<tag k="natural" v="hill" />
		<tag k="place" v="locality" />
		<tag k="ssr:stedsnr" v="244018" />
	</node>
	<node lat="59.003330559660945" lon="8.087150000913043" id="-18884">
		<tag k="alt_name" v="Fiskåfjell" />
		<tag k="fixme" v="consider natural=peak for the most distinct mountains in the district" />
		<tag k="name" v="Fiskåfjellet" />
		<tag k="natural" v="hill" />
		<tag k="place" v="locality" />
		<tag k="ssr:stedsnr" v="244029" />
	</node>
	<node lat="59.17117777944325" lon="8.153474995945114" id="-18886">
		<tag k="alt_name" v="Nystøyldalen" />
		<tag k="name" v="Nystøldalen" />
		<tag k="natural" v="valley" />
		<tag k="place" v="locality" />
		<tag k="ssr:stedsnr" v="244128" />
	</node>
	<node lat="59.18251944085581" lon="8.036136102522317" id="-18894">
		<tag k="alt_name" v="Vikfjell" />
		<tag k="fixme" v="consider natural=peak for the most distinct mountains in the district" />
		<tag k="name" v="Vikefjell" />
		<tag k="natural" v="hill" />
		<tag k="place" v="locality" />
		<tag k="ssr:stedsnr" v="244364" />
	</node>
	<node lat="59.123574996685036" lon="7.995022214193631" id="-18896">
		<tag k="alt_name" v="Svodskredheii" />
		<tag k="fixme" v="consider natural=peak for the most distinct mountains in the district" />
		<tag k="name" v="Svårtskredheia" />
		<tag k="natural" v="hill" />
		<tag k="old_name" v="Svåskredheii" />
		<tag k="place" v="locality" />
		<tag k="ssr:stedsnr" v="244439" />
	</node>
	<node lat="59.08753889313721" lon="8.081511110729013" id="-18898">
		<tag k="alt_name" v="Mjåvassfjell" />
		<tag k="fixme" v="consider natural=peak for the most distinct mountains in the district" />
		<tag k="name" v="Mjåvassfjellet" />
		<tag k="natural" v="hill" />
		<tag k="place" v="locality" />
		<tag k="ssr:stedsnr" v="244462" />
	</node>
	<node lat="58.94024999938355" lon="8.282713884784519" id="-18903">
		<tag k="fixme" v="consider natural=peak for the most distinct mountains in the district" />
		<tag k="name" v="Gama" />
		<tag k="natural" v="hill" />
		<tag k="place" v="locality" />
		<tag k="ssr:stedsnr" v="244950" />
	</node>
	<node lat="59.286705559881796" lon="8.28099166476199" id="-18908">
		<tag k="alt_name" v="Svanesteinan" />
		<tag k="name" v="Svanesteinane" />
		<tag k="place" v="locality" />
		<tag k="ssr:stedsnr" v="245231" />
	</node>
	<node lat="59.20658610735674" lon="7.851713887669274" id="-18911">
		<tag k="name" v="Karten" />
		<tag k="natural" v="hill" />
		<tag k="place" v="locality" />
		<tag k="ssr:stedsnr" v="88003" />
	</node>
	<node lat="59.29103888729309" lon="7.7861777814794255" id="-18915">
		<tag k="fixme" v="consider natural=peak for the most distinct mountains in the district" />
		<tag k="name" v="Sylvnetten" />
		<tag k="natural" v="hill" />
		<tag k="place" v="locality" />
		<tag k="ssr:stedsnr" v="88303" />
	</node>
	<node lat="59.290572218350626" lon="7.832677774508592" id="-18916">
		<tag k="fixme" v="consider natural=peak for the most distinct mountains in the district" />
		<tag k="name" v="Leivslinuten" />
		<tag k="natural" v="hill" />
		<tag k="place" v="locality" />
		<tag k="ssr:stedsnr" v="88304" />
	</node>
	<node lat="59.13399166501106" lon="7.890388892015156" id="-18917">
		<tag k="name" v="Klinkenberg" />
		<tag k="natural" v="hill" />
		<tag k="place" v="locality" />
		<tag k="ssr:stedsnr" v="88409" />
	</node>
	<node lat="59.24621944293022" lon="8.090677775893365" id="-18926">
		<tag k="name" v="Gaushola" />
		<tag k="natural" v="valley" />
		<tag k="place" v="locality" />
		<tag k="ssr:stedsnr" v="94114" />
	</node>
	<node lat="59.204111108116436" lon="8.147386116081785" id="-18927">
		<tag k="name" v="Bjåstøyllia" />
		<tag k="natural" v="slope" />
		<tag k="place" v="locality" />
		<tag k="ssr:stedsnr" v="94303" />
	</node>
	<node lat="59.21825833335181" lon="7.996244436107422" id="-18928">
		<tag k="name" v="Dyddingsliane" />
		<tag k="natural" v="slope" />
		<tag k="place" v="locality" />
		<tag k="ssr:stedsnr" v="94945" />
	</node>
	<node lat="59.2439694457038" lon="8.037847221293022" id="-18929">
		<tag k="name" v="Bronane" />
		<tag k="natural" v="slope" />
		<tag k="place" v="locality" />
		<tag k="ssr:stedsnr" v="95237" />
	</node>
	<node lat="59.232238884795095" lon="8.018908325826946" id="-18930">
		<tag k="name" v="Snodalskleiva" />
		<tag k="natural" v="slope" />
		<tag k="place" v="locality" />
		<tag k="ssr:stedsnr" v="95176" />
	</node>
	<node lat="59.281655558299434" lon="7.7912833384381965" id="-18932">
		<tag k="fixme" v="consider natural=peak for the most distinct mountains in the district" />
		<tag k="name" v="Sollidalsnuten" />
		<tag k="natural" v="hill" />
		<tag k="place" v="locality" />
		<tag k="ssr:stedsnr" v="96003" />
	</node>
	<node lat="59.27261666975608" lon="7.805455556704551" id="-18934">
		<tag k="name" v="Haukedalen" />
		<tag k="natural" v="valley" />
		<tag k="place" v="locality" />
		<tag k="ssr:stedsnr" v="96011" />
	</node>
	<node lat="59.229408329110534" lon="7.889513885807483" id="-18937">
		<tag k="name" v="Vøgga" />
		<tag k="place" v="locality" />
		<tag k="ssr:stedsnr" v="96311" />
	</node>
	<node lat="59.14224999642745" lon="7.920538889419703" id="-18942">
		<tag k="fixme" v="consider natural=peak for the most distinct mountains in the district" />
		<tag k="name" v="Tverrfjellet" />
		<tag k="natural" v="hill" />
		<tag k="place" v="locality" />
		<tag k="ssr:stedsnr" v="96617" />
	</node>
	<node lat="59.31404167089474" lon="7.727430547251769" id="-18943">
		<tag k="fixme" v="consider natural=peak for the most distinct mountains in the district" />
		<tag k="name" v="Bøsstjønn-nuten" />
		<tag k="natural" v="hill" />
		<tag k="place" v="locality" />
		<tag k="ssr:stedsnr" v="96659" />
	</node>
	<node lat="58.98672499583843" lon="8.245747216608576" id="-18954">
		<tag k="name" v="Kåvedalen" />
		<tag k="natural" v="valley" />
		<tag k="place" v="locality" />
		<tag k="ssr:stedsnr" v="105097" />
	</node>
	<node lat="59.00884444318581" lon="8.246838893758326" id="-18960">
		<tag k="name" v="Åsli" />
		<tag k="natural" v="slope" />
		<tag k="place" v="locality" />
		<tag k="ssr:stedsnr" v="108177" />
	</node>
	<node lat="59.1250305530084" lon="8.194897220409041" id="-18961">
		<tag k="name" v="Nedre Aslomdalen" />
		<tag k="natural" v="valley" />
		<tag k="place" v="locality" />
		<tag k="ssr:stedsnr" v="108317" />
	</node>
	<node lat="59.204494446822466" lon="8.188199999627642" id="-18963">
		<tag k="name" v="Løkjedalen" />
		<tag k="natural" v="valley" />
		<tag k="place" v="locality" />
		<tag k="ssr:stedsnr" v="108485" />
	</node>
	<node lat="59.125305553427246" lon="8.224722223208067" id="-18964">
		<tag k="fixme" v="consider natural=peak for the most distinct mountains in the district" />
		<tag k="name" v="Middagsnetten" />
		<tag k="natural" v="hill" />
		<tag k="place" v="locality" />
		<tag k="ssr:stedsnr" v="108608" />
	</node>
	<node lat="59.257963891119175" lon="8.148863895104192" id="-18969">
		<tag k="name" v="Halvheia" />
		<tag k="natural" v="hill" />
		<tag k="place" v="locality" />
		<tag k="ssr:stedsnr" v="109079" />
	</node>
	<node lat="59.25525555636119" lon="8.199575003814346" id="-18973">
		<tag k="name" v="Rolleivstadnuten" />
		<tag k="natural" v="hill" />
		<tag k="place" v="locality" />
		<tag k="ssr:stedsnr" v="109124" />
	</node>
	<node lat="59.2553333335265" lon="8.184605556881388" id="-18974">
		<tag k="name" v="Bronane" />
		<tag k="place" v="locality" />
		<tag k="ssr:stedsnr" v="109129" />
	</node>
	<node lat="59.08731389267423" lon="8.098269452065374" id="-18977">
		<tag k="name" v="Godlidalen" />
		<tag k="natural" v="valley" />
		<tag k="place" v="locality" />
		<tag k="ssr:stedsnr" v="109380" />
	</node>
	<node lat="59.009119444068304" lon="7.982233339070031" id="-18978">
		<tag k="name" v="Fjalebuåsen" />
		<tag k="natural" v="hill" />
		<tag k="place" v="locality" />
		<tag k="ssr:stedsnr" v="109381" />
	</node>
	<node lat="59.1637444404546" lon="8.170483328696864" id="-18980">
		<tag k="name" v="Elgdalen" />
		<tag k="natural" v="valley" />
		<tag k="place" v="locality" />
		<tag k="ssr:stedsnr" v="109386" />
	</node>
	<node lat="58.98254999664181" lon="7.952772224508555" id="-18981">
		<tag k="name" v="Syrlekvæven" />
		<tag k="natural" v="valley" />
		<tag k="place" v="locality" />
		<tag k="ssr:stedsnr" v="109387" />
	</node>
	<node lat="59.293086111191826" lon="8.063997214761748" id="-18984">
		<tag k="name" v="Skarsnuten" />
		<tag k="natural" v="hill" />
		<tag k="place" v="locality" />
		<tag k="ssr:stedsnr" v="109736" />
	</node>
	<node lat="59.298541668534526" lon="7.9012638913451845" id="-18987">
		<tag k="name" v="Kvålen" />
		<tag k="natural" v="slope" />
		<tag k="place" v="locality" />
		<tag k="ssr:stedsnr" v="110002" />
	</node>
	<node lat="59.257233329128525" lon="7.974883335563627" id="-18989">
		<tag k="name" v="Jaseheia" />
		<tag k="natural" v="hill" />
		<tag k="place" v="locality" />
		<tag k="ssr:stedsnr" v="110408" />
	</node>
	<node lat="59.016622225162365" lon="8.033530550799759" id="-18991">
		<tag k="name" v="Storeto" />
		<tag k="place" v="locality" />
		<tag k="ssr:stedsnr" v="110583" />
	</node>
	<node lat="59.29358333651875" lon="7.973230548915823" id="-18993">
		<tag k="name" v="Songedalsheii" />
		<tag k="natural" v="hill" />
		<tag k="place" v="locality" />
		<tag k="ssr:stedsnr" v="110704" />
	</node>
	<node lat="59.03997500392146" lon="8.03388332519876" id="-18995">
		<tag k="name" v="Buvikbakkane" />
		<tag k="natural" v="slope" />
		<tag k="place" v="locality" />
		<tag k="ssr:stedsnr" v="110919" />
	</node>
	<node lat="59.30447222469801" lon="8.040874991582951" id="-18996">
		<tag k="name" v="Løedalen" />
		<tag k="natural" v="valley" />
		<tag k="place" v="locality" />
		<tag k="ssr:stedsnr" v="110872" />
	</node>
	<node lat="59.17872500204606" lon="8.155825002725326" id="-19000">
		<tag k="alt_name" v="Nystøylnuten" />
		<tag k="name" v="Nystølnuten" />
		<tag k="natural" v="hill" />
		<tag k="place" v="locality" />
		<tag k="ssr:stedsnr" v="122080" />
	</node>
	<node lat="59.25623889002691" lon="8.152088894381384" id="-19011">
		<tag k="fixme" v="consider natural=peak for the most distinct mountains in the district" />
		<tag k="name" v="Husstøylnuten" />
		<tag k="natural" v="hill" />
		<tag k="place" v="locality" />
		<tag k="ssr:stedsnr" v="123208" />
	</node>
	<node lat="59.158050003312646" lon="8.236324996239102" id="-19012">
		<tag k="fixme" v="consider natural=peak for the most distinct mountains in the district" />
		<tag k="name" v="Napen" />
		<tag k="natural" v="hill" />
		<tag k="place" v="locality" />
		<tag k="ssr:stedsnr" v="123118" />
	</node>
	<node lat="59.16548611123754" lon="8.287050002108957" id="-19013">
		<tag k="fixme" v="consider natural=peak for the most distinct mountains in the district" />
		<tag k="name" v="Kråknuten" />
		<tag k="natural" v="hill" />
		<tag k="place" v="locality" />
		<tag k="ssr:stedsnr" v="123126" />
	</node>
	<node lat="59.307783330302094" lon="8.244436113484165" id="-19014">
		<tag k="name" v="Mjåvassdalen" />
		<tag k="natural" v="valley" />
		<tag k="place" v="locality" />
		<tag k="ssr:stedsnr" v="123140" />
	</node>
	<node lat="59.09767499835393" lon="8.27547500636694" id="-19016">
		<tag k="alt_name" v="Osmundsskar" />
		<tag k="name" v="Åsmundskard" />
		<tag k="natural" v="valley" />
		<tag k="place" v="locality" />
		<tag k="ssr:stedsnr" v="123174" />
	</node>
	<node lat="59.26152221901669" lon="7.735444442226421" id="-19018">
		<tag k="fixme" v="consider natural=peak for the most distinct mountains in the district" />
		<tag k="name" v="Brattrapnuten" />
		<tag k="natural" v="hill" />
		<tag k="place" v="locality" />
		<tag k="ssr:stedsnr" v="124919" />
	</node>
	<node lat="59.31081389277284" lon="7.8691722223318" id="-19021">
		<tag k="fixme" v="consider natural=peak for the most distinct mountains in the district" />
		<tag k="name" v="Gruvenutane" />
		<tag k="natural" v="hill" />
		<tag k="place" v="locality" />
		<tag k="ssr:stedsnr" v="148371" />
	</node>
	<node lat="59.14909166378105" lon="7.9383222143387115" id="-19032">
		<tag k="fixme" v="consider natural=peak for the most distinct mountains in the district" />
		<tag k="name" v="Jøkulen" />
		<tag k="natural" v="hill" />
		<tag k="place" v="locality" />
		<tag k="ssr:stedsnr" v="156361" />
	</node>
	<node lat="59.145722223277396" lon="7.9479416706230435" id="-19033">
		<tag k="fixme" v="consider natural=peak for the most distinct mountains in the district" />
		<tag k="name" v="Saupstøylnipa" />
		<tag k="natural" v="hill" />
		<tag k="place" v="locality" />
		<tag k="ssr:stedsnr" v="156363" />
	</node>
	<node lat="59.29056388662183" lon="7.745205554701727" id="-19036">
		<tag k="name" v="Åsbudalen" />
		<tag k="natural" v="valley" />
		<tag k="place" v="locality" />
		<tag k="ssr:stedsnr" v="156405" />
	</node>
	<node lat="59.20555555442471" lon="7.7850333412719674" id="-19038">
		<tag k="name" v="Breihomrei" />
		<tag k="natural" v="valley" />
		<tag k="place" v="locality" />
		<tag k="ssr:stedsnr" v="157213" />
	</node>
	<node lat="59.17672777913785" lon="7.818333329032706" id="-19041">
		<tag k="name" v="Revebøli" />
		<tag k="natural" v="slope" />
		<tag k="place" v="locality" />
		<tag k="ssr:stedsnr" v="157224" />
	</node>
	<node lat="59.19044166852442" lon="7.811875005076096" id="-19043">
		<tag k="fixme" v="consider natural=peak for the most distinct mountains in the district" />
		<tag k="name" v="Ørrebakk" />
		<tag k="natural" v="hill" />
		<tag k="place" v="locality" />
		<tag k="ssr:stedsnr" v="157270" />
	</node>
	<node lat="59.23916389033415" lon="7.890722224833376" id="-19045">
		<tag k="fixme" v="consider natural=peak for the most distinct mountains in the district" />
		<tag k="name" v="Syrhovd" />
		<tag k="natural" v="hill" />
		<tag k="place" v="locality" />
		<tag k="ssr:stedsnr" v="156949" />
	</node>
	<node lat="59.27818332930218" lon="8.277188897669314" id="-19046">
		<tag k="name" v="Bordbudalen" />
		<tag k="natural" v="valley" />
		<tag k="place" v="locality" />
		<tag k="ssr:stedsnr" v="157630" />
	</node>
	<node lat="59.25435000069665" lon="7.851516667329686" id="-19051">
		<tag k="name" v="Berstøyllia" />
		<tag k="natural" v="slope" />
		<tag k="place" v="locality" />
		<tag k="ssr:stedsnr" v="157561" />
	</node>
	<node lat="59.061277779885025" lon="8.273011109611796" id="-19055">
		<tag k="name" v="Rebbåsnuten" />
		<tag k="natural" v="hill" />
		<tag k="place" v="locality" />
		<tag k="ssr:stedsnr" v="168513" />
	</node>
	<node lat="59.04808611281242" lon="8.316038884090096" id="-19056">
		<tag k="name" v="Fugleholet" />
		<tag k="natural" v="valley" />
		<tag k="place" v="locality" />
		<tag k="ssr:stedsnr" v="168566" />
	</node>
	<node lat="59.02430833647725" lon="8.373877778723266" id="-19058">
		<tag k="name" v="Bjørgulfsli" />
		<tag k="natural" v="slope" />
		<tag k="place" v="locality" />
		<tag k="ssr:stedsnr" v="168705" />
	</node>
	<node lat="59.11102222573293" lon="7.838677781638186" id="-19061">
		<tag k="name" v="Tretteskordalen" />
		<tag k="natural" v="valley" />
		<tag k="place" v="locality" />
		<tag k="ssr:stedsnr" v="169109" />
	</node>
	<node lat="59.281138887762644" lon="8.132227776767706" id="-19063">
		<tag k="name" v="Veumjuvi" />
		<tag k="natural" v="gorge" />
		<tag k="ssr:stedsnr" v="169116" />
	</node>
	<node lat="59.12352222362926" lon="8.061011119641904" id="-19064">
		<tag k="name" v="Kortonslia" />
		<tag k="natural" v="slope" />
		<tag k="place" v="locality" />
		<tag k="ssr:stedsnr" v="169166" />
	</node>
	<node lat="59.0003972183891" lon="8.31227500703349" id="-19065">
		<tag k="name" v="Skarkebekkmoen" />
		<tag k="place" v="locality" />
		<tag k="ssr:stedsnr" v="169312" />
	</node>
	<node lat="59.155908332671046" lon="8.169486116680302" id="-19067">
		<tag k="name" v="Tudål" />
		<tag k="natural" v="valley" />
		<tag k="place" v="locality" />
		<tag k="ssr:stedsnr" v="169402" />
	</node>
	<node lat="59.176847221616846" lon="8.157458324864534" id="-19068">
		<tag k="name" v="Søtdalen" />
		<tag k="natural" v="valley" />
		<tag k="place" v="locality" />
		<tag k="ssr:stedsnr" v="169414" />
	</node>
	<node lat="59.02476111074226" lon="8.09212499154108" id="-19079">
		<tag k="name" v="Holbekkfjell" />
		<tag k="natural" v="hill" />
		<tag k="place" v="locality" />
		<tag k="ssr:stedsnr" v="169906" />
	</node>
	<node lat="59.29973333328642" lon="8.12554166036722" id="-19081">
		<tag k="name" v="Juvkanten" />
		<tag k="natural" v="slope" />
		<tag k="place" v="locality" />
		<tag k="ssr:stedsnr" v="170104" />
	</node>
	<node lat="59.01271667096815" lon="8.001544449854062" id="-19082">
		<tag k="name" v="Røtten" />
		<tag k="natural" v="hill" />
		<tag k="place" v="locality" />
		<tag k="ssr:stedsnr" v="170114" />
	</node>
	<node lat="59.0180472245448" lon="7.92471388522918" id="-19083">
		<tag k="name" v="Høyskogsdalen" />
		<tag k="natural" v="valley" />
		<tag k="place" v="locality" />
		<tag k="ssr:stedsnr" v="170207" />
	</node>
	<node lat="59.25256389157832" lon="8.036094445927471" id="-19084">
		<tag k="name" v="Hagås" />
		<tag k="natural" v="hill" />
		<tag k="place" v="locality" />
		<tag k="ssr:stedsnr" v="170221" />
	</node>
	<node lat="59.16043611200308" lon="7.755130563753456" id="-19089">
		<tag k="name" v="Hyttekvævskaret" />
		<tag k="natural" v="valley" />
		<tag k="place" v="locality" />
		<tag k="ssr:stedsnr" v="170863" />
	</node>
	<node lat="59.35035000206197" lon="7.8837333312985765" id="-19092">
		<tag k="name" v="Mørkelii" />
		<tag k="natural" v="slope" />
		<tag k="place" v="locality" />
		<tag k="ssr:stedsnr" v="171364" />
	</node>
	<node lat="59.032574998666604" lon="8.127324997654268" id="-19095">
		<tag k="alt_name" v="Videkvævane" />
		<tag k="name" v="Videkvæv" />
		<tag k="natural" v="valley" />
		<tag k="place" v="locality" />
		<tag k="ssr:stedsnr" v="183224" />
	</node>
	<node lat="59.0477250016374" lon="8.306363892702729" id="-19096">
		<tag k="alt_name" v="Åbogsfjell" />
		<tag k="fixme" v="consider natural=peak for the most distinct mountains in the district" />
		<tag k="name" v="Åbogsfjellet" />
		<tag k="natural" v="hill" />
		<tag k="place" v="locality" />
		<tag k="ssr:stedsnr" v="183225" />
	</node>
	<node lat="59.07764166406307" lon="8.37959722542043" id="-19098">
		<tag k="name" v="Mjådalen" />
		<tag k="natural" v="valley" />
		<tag k="place" v="locality" />
		<tag k="ssr:stedsnr" v="183191" />
	</node>
	<node lat="59.069241665334054" lon="8.106230548899697" id="-19099">
		<tag k="alt_name" v="Bjønnstigfjell" />
		<tag k="fixme" v="consider natural=peak for the most distinct mountains in the district" />
		<tag k="name" v="Bjørnstigfjellet" />
		<tag k="natural" v="hill" />
		<tag k="place" v="locality" />
		<tag k="ssr:stedsnr" v="183193" />
	</node>
	<node lat="59.069099996585145" lon="8.309874994134985" id="-19100">
		<tag k="name" v="Maureggen" />
		<tag k="natural" v="ridge" />
		<tag k="place" v="locality" />
		<tag k="ssr:stedsnr" v="183195" />
	</node>
	<node lat="59.14649722135784" lon="7.785061114154926" id="-19103">
		<tag k="alt_name" v="Tjønndalsristine" />
		<tag k="fixme" v="consider natural=peak for the most distinct mountains in the district" />
		<tag k="name" v="Tjørndalsristene" />
		<tag k="natural" v="hill" />
		<tag k="place" v="locality" />
		<tag k="ssr:stedsnr" v="183351" />
	</node>
	<node lat="59.21260278129892" lon="8.147430553459325" id="-19109">
		<tag k="alt_name" v="Tjønndalsnuten" />
		<tag k="fixme" v="consider natural=peak for the most distinct mountains in the district" />
		<tag k="name" v="Tjørndalsnuten" />
		<tag k="natural" v="hill" />
		<tag k="place" v="locality" />
		<tag k="ssr:stedsnr" v="184034" />
	</node>
	<node lat="59.02133611034724" lon="8.113725002674297" id="-19112">
		<tag k="alt_name" v="Støylsnuten" />
		<tag k="name" v="Stølsnuten" />
		<tag k="natural" v="hill" />
		<tag k="place" v="locality" />
		<tag k="ssr:stedsnr" v="184221" />
	</node>
	<node lat="59.027850003069354" lon="8.326413892752942" id="-19113">
		<tag k="fixme" v="consider natural=peak for the most distinct mountains in the district" />
		<tag k="name" v="Bergeheii" />
		<tag k="natural" v="hill" />
		<tag k="place" v="locality" />
		<tag k="ssr:stedsnr" v="184227" />
	</node>
	<node lat="59.092280551811236" lon="8.114288887287486" id="-19114">
		<tag k="alt_name" v="Austheia" />
		<tag k="fixme" v="consider natural=peak for the most distinct mountains in the district" />
		<tag k="name" v="Austheii" />
		<tag k="natural" v="hill" />
		<tag k="place" v="locality" />
		<tag k="ssr:stedsnr" v="184188" />
	</node>
	<node lat="59.10524721797382" lon="7.94711944355243" id="-19118">
		<tag k="alt_name" v="Langevassfjell" />
		<tag k="fixme" v="consider natural=peak for the most distinct mountains in the district" />
		<tag k="name" v="Langvassfjell" />
		<tag k="natural" v="hill" />
		<tag k="place" v="locality" />
		<tag k="ssr:stedsnr" v="184442" />
	</node>
	<node lat="59.27012499597203" lon="8.001016667954598" id="-19127">
		<tag k="name" v="Djupedalen" />
		<tag k="natural" v="valley" />
		<tag k="place" v="locality" />
		<tag k="ssr:stedsnr" v="270389" />
	</node>
	<node lat="59.00937221820155" lon="7.958391674859486" id="-19129">
		<tag k="name" v="Steindiket" />
		<tag k="place" v="locality" />
		<tag k="ssr:stedsnr" v="270019" />
	</node>
	<node lat="59.23200833305531" lon="7.810836106732918" id="-19130">
		<tag k="alt_name" v="Tjønneheii" />
		<tag k="fixme" v="consider natural=peak for the most distinct mountains in the district" />
		<tag k="name" v="Tjønnheia" />
		<tag k="natural" v="hill" />
		<tag k="place" v="locality" />
		<tag k="ssr:stedsnr" v="270044" />
	</node>
	<node lat="59.19799167087733" lon="8.139641672748782" id="-19131">
		<tag k="name" v="Bjønnfallia" />
		<tag k="natural" v="slope" />
		<tag k="place" v="locality" />
		<tag k="ssr:stedsnr" v="216206" />
	</node>
	<node lat="59.28201388752327" lon="7.769961111648956" id="-19138">
		<tag k="name" v="Storste" />
		<tag k="place" v="locality" />
		<tag k="ssr:stedsnr" v="217007" />
	</node>
	<node lat="59.16796110940413" lon="7.738941665216302" id="-19139">
		<tag k="name" v="Nystøylknattane" />
		<tag k="natural" v="hill" />
		<tag k="place" v="locality" />
		<tag k="ssr:stedsnr" v="217073" />
	</node>
	<node lat="59.28072777447423" lon="7.732813890708431" id="-19142">
		<tag k="name" v="Veberghaddine" />
		<tag k="natural" v="slope" />
		<tag k="place" v="locality" />
		<tag k="ssr:stedsnr" v="217377" />
	</node>
	<node lat="59.12203055194935" lon="8.032302771028073" id="-19145">
		<tag k="name" v="Rosshomman" />
		<tag k="natural" v="valley" />
		<tag k="place" v="locality" />
		<tag k="ssr:stedsnr" v="217387" />
	</node>
	<node lat="59.23864444106524" lon="7.800794445532208" id="-19148">
		<tag k="fixme" v="consider natural=peak for the most distinct mountains in the district" />
		<tag k="name" v="Lauvåsen" />
		<tag k="natural" v="hill" />
		<tag k="place" v="locality" />
		<tag k="ssr:stedsnr" v="270439" />
	</node>
	<node lat="59.246400003624004" lon="7.9081416702221" id="-19150">
		<tag k="name" v="Bronane" />
		<tag k="natural" v="slope" />
		<tag k="place" v="locality" />
		<tag k="ssr:stedsnr" v="217276" />
	</node>
	<node lat="59.28526666577498" lon="7.761480561489469" id="-19152">
		<tag k="name" v="Heggedokkja" />
		<tag k="place" v="locality" />
		<tag k="ssr:stedsnr" v="217425" />
	</node>
	<node lat="59.189652780785266" lon="7.955669437813485" id="-19154">
		<tag k="name" v="Slåtta ved Ospelunden" />
		<tag k="place" v="locality" />
		<tag k="ssr:stedsnr" v="217720" />
	</node>
	<node lat="59.318850000809626" lon="7.834450005642788" id="-19155">
		<tag k="alt_name" v="Fossebrote" />
		<tag k="name" v="Fossebrotet" />
		<tag k="natural" v="slope" />
		<tag k="place" v="locality" />
		<tag k="ssr:stedsnr" v="270356" />
	</node>
	<node lat="59.31925833189731" lon="8.01229999308365" id="-19156">
		<tag k="alt_name" v="Fjøllstøylnuten" />
		<tag k="fixme" v="consider natural=peak for the most distinct mountains in the district" />
		<tag k="name" v="Fjellstøylnuten" />
		<tag k="natural" v="hill" />
		<tag k="place" v="locality" />
		<tag k="ssr:stedsnr" v="270358" />
	</node>
	<node lat="59.342277781254474" lon="8.01220833921569" id="-19157">
		<tag k="fixme" v="consider natural=peak for the most distinct mountains in the district" />
		<tag k="name" v="Erahomnuten" />
		<tag k="natural" v="hill" />
		<tag k="place" v="locality" />
		<tag k="ssr:stedsnr" v="270364" />
	</node>
	<node lat="59.292552777159784" lon="7.751974991263769" id="-19158">
		<tag k="name" v="Fagerdalen" />
		<tag k="natural" v="valley" />
		<tag k="place" v="locality" />
		<tag k="ssr:stedsnr" v="270368" />
	</node>
	<node lat="59.25398889256842" lon="7.7778833402134655" id="-19159">
		<tag k="name" v="Hovstøylskari" />
		<tag k="natural" v="valley" />
		<tag k="place" v="locality" />
		<tag k="ssr:stedsnr" v="217808" />
	</node>
	<node lat="59.22112499827295" lon="8.256080554110957" id="-19161">
		<tag k="name" v="Sandvasslia" />
		<tag k="natural" v="slope" />
		<tag k="place" v="locality" />
		<tag k="ssr:stedsnr" v="218474" />
	</node>
	<node lat="58.98596666286973" lon="8.251558337572673" id="-19166">
		<tag k="name" v="Kåvedalsbrota" />
		<tag k="natural" v="ridge" />
		<tag k="place" v="locality" />
		<tag k="ssr:stedsnr" v="227099" />
	</node>
	<node lat="59.15790832890023" lon="8.12098610473634" id="-19168">
		<tag k="name" v="Våkåsnettane" />
		<tag k="natural" v="hill" />
		<tag k="place" v="locality" />
		<tag k="ssr:stedsnr" v="229287" />
	</node>
	<node lat="59.04211388905714" lon="8.309936116112207" id="-19172">
		<tag k="name" v="Kjekkhusdalsrista" />
		<tag k="place" v="locality" />
		<tag k="ssr:stedsnr" v="229592" />
	</node>
	<node lat="59.014361106870666" lon="8.30275833861958" id="-19175">
		<tag k="name" v="Kleivfjellhelleren" />
		<tag k="place" v="locality" />
		<tag k="ssr:stedsnr" v="229632" />
	</node>
	<node lat="59.08048333267416" lon="8.299402780535802" id="-19177">
		<tag k="name" v="Gråndalen" />
		<tag k="natural" v="valley" />
		<tag k="place" v="locality" />
		<tag k="ssr:stedsnr" v="229938" />
	</node>
	<node lat="59.00688889214475" lon="8.205636104993513" id="-19178">
		<tag k="name" v="Nybudalen" />
		<tag k="natural" v="valley" />
		<tag k="place" v="locality" />
		<tag k="ssr:stedsnr" v="230008" />
	</node>
	<node lat="59.01150555596657" lon="8.188122222695378" id="-19183">
		<tag k="name" v="Bjønnetone" />
		<tag k="place" v="locality" />
		<tag k="ssr:stedsnr" v="230100" />
	</node>
	<node lat="59.1082361099998" lon="8.17329722916837" id="-19185">
		<tag k="name" v="Børousto" />
		<tag k="place" v="locality" />
		<tag k="ssr:stedsnr" v="230331" />
	</node>
	<node lat="59.15234444704461" lon="8.187841671975223" id="-19186">
		<tag k="name" v="Lislevassli" />
		<tag k="natural" v="slope" />
		<tag k="place" v="locality" />
		<tag k="ssr:stedsnr" v="230412" />
	</node>
	<node lat="59.182358329880906" lon="8.147730555003543" id="-19187">
		<tag k="name" v="Jasdalen" />
		<tag k="natural" v="valley" />
		<tag k="place" v="locality" />
		<tag k="ssr:stedsnr" v="230431" />
	</node>
	<node lat="59.19394722220723" lon="8.227369436447004" id="-19188">
		<tag k="name" v="Moen" />
		<tag k="place" v="locality" />
		<tag k="ssr:stedsnr" v="230440" />
	</node>
	<node lat="59.06952777572028" lon="8.309141662962952" id="-19196">
		<tag k="name" v="Løyningnuten" />
		<tag k="natural" v="hill" />
		<tag k="place" v="locality" />
		<tag k="ssr:stedsnr" v="230881" />
	</node>
	<node lat="59.26712500146902" lon="8.007274995623636" id="-19201">
		<tag k="name" v="Lisleto" />
		<tag k="place" v="locality" />
		<tag k="ssr:stedsnr" v="231099" />
	</node>
	<node lat="59.26545000331785" lon="7.949025002514093" id="-19204">
		<tag k="name" v="Krokstjønnkvæven" />
		<tag k="natural" v="valley" />
		<tag k="place" v="locality" />
		<tag k="ssr:stedsnr" v="231103" />
	</node>
	<node lat="58.99006666991907" lon="8.010844436067453" id="-19206">
		<tag k="name" v="Hestehagheia" />
		<tag k="natural" v="hill" />
		<tag k="place" v="locality" />
		<tag k="ssr:stedsnr" v="231483" />
	</node>
	<node lat="59.31847499604291" lon="8.00522500430837" id="-19211">
		<tag k="name" v="Fjellstøylbenkjine" />
		<tag k="place" v="locality" />
		<tag k="ssr:stedsnr" v="231886" />
	</node>
	<node lat="59.08435277717251" lon="8.2753416611302" id="-19214">
		<tag k="name" v="Dei grøne brota" />
		<tag k="natural" v="cliff" />
		<tag k="ssr:stedsnr" v="471952" />
	</node>
	<node lat="59.1906166694029" lon="8.146869448679837" id="-19223">
		<tag k="alt_name" v="Vardalen" />
		<tag k="name" v="Varddalen" />
		<tag k="natural" v="valley" />
		<tag k="place" v="locality" />
		<tag k="ssr:stedsnr" v="244090" />
	</node>
	<node lat="59.01791667122806" lon="8.09747500646232" id="-19224">
		<tag k="fixme" v="consider natural=peak for the most distinct mountains in the district" />
		<tag k="name" v="Luråsen" />
		<tag k="natural" v="hill" />
		<tag k="place" v="locality" />
		<tag k="ssr:stedsnr" v="244237" />
	</node>
	<node lat="59.03945000304798" lon="8.280150000715494" id="-19226">
		<tag k="alt_name" v="Hakkleivrista" />
		<tag k="name" v="Hakkleivristi" />
		<tag k="place" v="locality" />
		<tag k="ssr:stedsnr" v="244243" />
	</node>
	<node lat="59.10820833682741" lon="8.099316659798028" id="-19232">
		<tag k="alt_name" v="Breivikslia" />
		<tag k="name" v="Breidviklii" />
		<tag k="natural" v="slope" />
		<tag k="place" v="locality" />
		<tag k="ssr:stedsnr" v="244185" />
	</node>
	<node lat="59.10563611404302" lon="8.115988888975386" id="-19233">
		<tag k="fixme" v="consider natural=peak for the most distinct mountains in the district" />
		<tag k="name" v="Dugurdsnuten" />
		<tag k="natural" v="hill" />
		<tag k="place" v="locality" />
		<tag k="ssr:stedsnr" v="244186" />
	</node>
	<node lat="59.1649972220934" lon="7.798772221853677" id="-19236">
		<tag k="alt_name" v="Austmannlii" />
		<tag k="name" v="Austmannlia" />
		<tag k="natural" v="slope" />
		<tag k="place" v="locality" />
		<tag k="ssr:stedsnr" v="244380" />
	</node>
	<node lat="59.15913333776355" lon="7.761602779320456" id="-19237">
		<tag k="alt_name" v="Berefjell" />
		<tag k="fixme" v="consider natural=peak for the most distinct mountains in the district" />
		<tag k="name" v="Bærfjell" />
		<tag k="natural" v="hill" />
		<tag k="place" v="locality" />
		<tag k="ssr:stedsnr" v="244391" />
	</node>
	<node lat="59.25492777621994" lon="8.053055552095456" id="-19243">
		<tag k="fixme" v="consider natural=peak for the most distinct mountains in the district" />
		<tag k="name" v="Hovås" />
		<tag k="natural" v="hill" />
		<tag k="place" v="locality" />
		<tag k="ssr:stedsnr" v="452261" />
	</node>
	<node lat="59.27865000205961" lon="7.9890972243462235" id="-19247">
		<tag k="name" v="Grønlikvæven" />
		<tag k="natural" v="valley" />
		<tag k="place" v="locality" />
		<tag k="ssr:stedsnr" v="452390" />
	</node>
	<node lat="59.28109444660392" lon="7.763469439132008" id="-19248">
		<tag k="fixme" v="consider natural=peak for the most distinct mountains in the district" />
		<tag k="name" v="Vassfitnuten" />
		<tag k="natural" v="hill" />
		<tag k="place" v="locality" />
		<tag k="ssr:stedsnr" v="245908" />
	</node>
	<node lat="59.22318332900847" lon="8.12338056085915" id="-19251">
		<tag k="fixme" v="consider natural=peak for the most distinct mountains in the district" />
		<tag k="name" v="Kallåknuten" />
		<tag k="natural" v="hill" />
		<tag k="place" v="locality" />
		<tag k="ssr:stedsnr" v="458047" />
	</node>
	<node lat="59.188511109992945" lon="8.113136114240739" id="-19253">
		<tag k="name" v="Høgvoll" />
		<tag k="natural" v="hill" />
		<tag k="place" v="locality" />
		<tag k="ssr:stedsnr" v="458270" />
	</node>
	<node lat="59.20676944298416" lon="8.111991668223153" id="-19254">
		<tag k="name" v="Plassen" />
		<tag k="natural" v="slope" />
		<tag k="place" v="locality" />
		<tag k="ssr:stedsnr" v="458246" />
	</node>
	<node lat="59.19066666224121" lon="8.131541666213446" id="-19255">
		<tag k="name" v="Kvistekåsa" />
		<tag k="natural" v="slope" />
		<tag k="place" v="locality" />
		<tag k="ssr:stedsnr" v="458289" />
	</node>
	<node lat="59.19516666241517" lon="8.137336107994841" id="-19256">
		<tag k="fixme" v="consider natural=peak for the most distinct mountains in the district" />
		<tag k="name" v="Kvildefallnuten" />
		<tag k="natural" v="hill" />
		<tag k="place" v="locality" />
		<tag k="ssr:stedsnr" v="458291" />
	</node>
	<node lat="59.23974722216174" lon="8.133152772594007" id="-19258">
		<tag k="name" v="Fossli" />
		<tag k="natural" v="slope" />
		<tag k="place" v="locality" />
		<tag k="ssr:stedsnr" v="458388" />
	</node>
	<node lat="59.21136110680204" lon="8.075347223919126" id="-19262">
		<tag k="name" v="Einangsmoen" />
		<tag k="place" v="locality" />
		<tag k="ssr:stedsnr" v="458595" />
	</node>
	<node lat="59.21390555228982" lon="7.965394435986166" id="-19264">
		<tag k="fixme" v="consider natural=peak for the most distinct mountains in the district" />
		<tag k="name" v="Finndalstveitfjøddi" />
		<tag k="natural" v="hill" />
		<tag k="place" v="locality" />
		<tag k="ssr:stedsnr" v="458654" />
	</node>
	<node lat="59.23758333304751" lon="8.052683339892805" id="-19265">
		<tag k="name" v="Skornuten" />
		<tag k="natural" v="hill" />
		<tag k="place" v="locality" />
		<tag k="ssr:stedsnr" v="270007" />
	</node>
	<node lat="59.154347220137254" lon="7.971386110438096" id="-19268">
		<tag k="name" v="Borggrendsdalen" />
		<tag k="natural" v="valley" />
		<tag k="place" v="locality" />
		<tag k="ssr:stedsnr" v="270488" />
	</node>
	<node lat="59.199311111942414" lon="8.035086119444266" id="-19270">
		<tag k="alt_name" v="Storskard" />
		<tag k="name" v="Storeskard" />
		<tag k="natural" v="valley" />
		<tag k="place" v="locality" />
		<tag k="ssr:stedsnr" v="270501" />
	</node>
	<node lat="59.31092499861886" lon="7.832174991856031" id="-19272">
		<tag k="name" v="Storekvæv" />
		<tag k="natural" v="valley" />
		<tag k="place" v="locality" />
		<tag k="ssr:stedsnr" v="270380" />
	</node>
	<node lat="59.19831111136629" lon="8.079213889054154" id="-19275">
		<tag k="name" v="Kynjushamaren" />
		<tag k="natural" v="hill" />
		<tag k="place" v="locality" />
		<tag k="ssr:stedsnr" v="458839" />
	</node>
	<node lat="59.20718889011252" lon="8.083036117470854" id="-19276">
		<tag k="name" v="Diltardalen" />
		<tag k="natural" v="valley" />
		<tag k="place" v="locality" />
		<tag k="ssr:stedsnr" v="458840" />
	</node>
	<node lat="59.24531666696493" lon="7.997372228146855" id="-19277">
		<tag k="name" v="Søylekvæven" />
		<tag k="place" v="locality" />
		<tag k="ssr:stedsnr" v="459279" />
	</node>
	<node lat="59.239113888189536" lon="7.9850722262896845" id="-19280">
		<tag k="name" v="Skometo" />
		<tag k="natural" v="slope" />
		<tag k="place" v="locality" />
		<tag k="ssr:stedsnr" v="459552" />
	</node>
	<node lat="59.23780277607012" lon="8.159586111710286" id="-19281">
		<tag k="fixme" v="consider natural=peak for the most distinct mountains in the district" />
		<tag k="name" v="Storsteinfjellet" />
		<tag k="natural" v="hill" />
		<tag k="place" v="locality" />
		<tag k="ssr:stedsnr" v="276373" />
	</node>
	<node lat="59.24282500363336" lon="7.961319447835696" id="-19283">
		<tag k="alt_name" v="Brårfjødd" />
		<tag k="fixme" v="consider natural=peak for the most distinct mountains in the district" />
		<tag k="name" v="Brårfjell" />
		<tag k="natural" v="hill" />
		<tag k="place" v="locality" />
		<tag k="ssr:stedsnr" v="276603" />
	</node>
	<node lat="59.21364444792637" lon="7.837800005138051" id="-19284">
		<tag k="name" v="Storlikvæven" />
		<tag k="natural" v="valley" />
		<tag k="place" v="locality" />
		<tag k="ssr:stedsnr" v="277518" />
	</node>
	<node lat="59.245980554697994" lon="8.223669444454067" id="-19286">
		<tag k="name" v="Tjøreberga" />
		<tag k="natural" v="hill" />
		<tag k="place" v="locality" />
		<tag k="ssr:stedsnr" v="278003" />
	</node>
	<node lat="59.173383330018794" lon="7.7910916693320695" id="-19287">
		<tag k="name" v="Solli" />
		<tag k="natural" v="slope" />
		<tag k="place" v="locality" />
		<tag k="ssr:stedsnr" v="278280" />
	</node>
	<node lat="59.2447333340694" lon="7.908549994207127" id="-19289">
		<tag k="name" v="Lisle Bondalsufsa" />
		<tag k="natural" v="cliff" />
		<tag k="ssr:stedsnr" v="278179" />
	</node>
	<node lat="59.18315000451759" lon="7.789608339358027" id="-19290">
		<tag k="name" v="Høydalskleiv" />
		<tag k="natural" v="slope" />
		<tag k="place" v="locality" />
		<tag k="ssr:stedsnr" v="278305" />
	</node>
	<node lat="59.13920000214545" lon="7.968236114804125" id="-19297">
		<tag k="fixme" v="consider natural=peak for the most distinct mountains in the district" />
		<tag k="name" v="Kleivanheia" />
		<tag k="natural" v="hill" />
		<tag k="place" v="locality" />
		<tag k="ssr:stedsnr" v="278519" />
	</node>
	<node lat="59.19501388797256" lon="7.947655564078053" id="-19300">
		<tag k="name" v="Kilslåtta" />
		<tag k="place" v="locality" />
		<tag k="ssr:stedsnr" v="278714" />
	</node>
	<node lat="59.174144446013266" lon="7.742041675066497" id="-19303">
		<tag k="name" v="Kroktjønnristine" />
		<tag k="place" v="locality" />
		<tag k="ssr:stedsnr" v="460085" />
	</node>
	<node lat="59.17711389294097" lon="7.760333337043657" id="-19304">
		<tag k="name" v="Høydalen" />
		<tag k="natural" v="valley" />
		<tag k="place" v="locality" />
		<tag k="ssr:stedsnr" v="460088" />
	</node>
	<node lat="59.232325001767585" lon="7.842194447444213" id="-19305">
		<tag k="name" v="Varmekro" />
		<tag k="place" v="locality" />
		<tag k="ssr:stedsnr" v="460091" />
	</node>
	<node lat="59.210813891026774" lon="7.774805546792265" id="-19306">
		<tag k="name" v="Torsdalsstørrdalen" />
		<tag k="natural" v="valley" />
		<tag k="place" v="locality" />
		<tag k="ssr:stedsnr" v="460129" />
	</node>
	<node lat="59.29593888950145" lon="7.776097215398161" id="-19313">
		<tag k="fixme" v="consider natural=peak for the most distinct mountains in the district" />
		<tag k="name" v="Huslandsnuten" />
		<tag k="natural" v="hill" />
		<tag k="place" v="locality" />
		<tag k="ssr:stedsnr" v="460457" />
	</node>
	<node lat="59.21918610944309" lon="8.174699993590457" id="-19314">
		<tag k="name" v="Mjøltenetten" />
		<tag k="natural" v="hill" />
		<tag k="place" v="locality" />
		<tag k="ssr:stedsnr" v="460533" />
	</node>
	<node lat="59.28448888626931" lon="7.716844438419826" id="-19319">
		<tag k="fixme" v="consider natural=peak for the most distinct mountains in the district" />
		<tag k="name" v="Nussfjøddnipa" />
		<tag k="natural" v="hill" />
		<tag k="place" v="locality" />
		<tag k="ssr:stedsnr" v="460542" />
	</node>
	<node lat="59.26903055351314" lon="7.833311103857752" id="-19320">
		<tag k="name" v="Åsbubrotet" />
		<tag k="natural" v="slope" />
		<tag k="place" v="locality" />
		<tag k="ssr:stedsnr" v="460567" />
	</node>
	<node lat="58.98144444736956" lon="8.29193610943732" id="-19328">
		<tag k="name" v="Slarpedalen" />
		<tag k="natural" v="valley" />
		<tag k="place" v="locality" />
		<tag k="ssr:stedsnr" v="287035" />
	</node>
	<node lat="58.98686666342213" lon="8.238144448611472" id="-19329">
		<tag k="name" v="Sletteheipasset" />
		<tag k="natural" v="valley" />
		<tag k="place" v="locality" />
		<tag k="ssr:stedsnr" v="287079" />
	</node>
	<node lat="58.97638611563549" lon="8.258638894695434" id="-19330">
		<tag k="name" v="Bronane" />
		<tag k="natural" v="hill" />
		<tag k="place" v="locality" />
		<tag k="ssr:stedsnr" v="287109" />
	</node>
	<node lat="59.25251944802391" lon="7.902341673768865" id="-19331">
		<tag k="name" v="Piggane" />
		<tag k="natural" v="hill" />
		<tag k="place" v="locality" />
		<tag k="ssr:stedsnr" v="461607" />
	</node>
	<node lat="59.30233888585077" lon="7.921236106281338" id="-19332">
		<tag k="name" v="Veustøylnuten" />
		<tag k="natural" v="hill" />
		<tag k="place" v="locality" />
		<tag k="ssr:stedsnr" v="288028" />
	</node>
	<node lat="59.01186944861846" lon="8.245955563919074" id="-19340">
		<tag k="name" v="Russli" />
		<tag k="natural" v="slope" />
		<tag k="place" v="locality" />
		<tag k="ssr:stedsnr" v="290187" />
	</node>
	<node lat="59.1408444413666" lon="8.185986107012363" id="-19341">
		<tag k="name" v="Lislevasslia" />
		<tag k="natural" v="slope" />
		<tag k="place" v="locality" />
		<tag k="ssr:stedsnr" v="290302" />
	</node>
	<node lat="59.032797226662645" lon="8.35581389288868" id="-19343">
		<tag k="name" v="Fjellskovasslia" />
		<tag k="natural" v="slope" />
		<tag k="place" v="locality" />
		<tag k="ssr:stedsnr" v="290708" />
	</node>
	<node lat="59.176711107376896" lon="8.10207222330627" id="-19346">
		<tag k="name" v="Åsbergufsine" />
		<tag k="natural" v="cliff" />
		<tag k="ssr:stedsnr" v="290809" />
	</node>
	<node lat="59.0593083300957" lon="7.990144443204515" id="-19348">
		<tag k="name" v="Klauvås" />
		<tag k="natural" v="hill" />
		<tag k="place" v="locality" />
		<tag k="ssr:stedsnr" v="291079" />
	</node>
	<node lat="59.04709722484554" lon="8.350886110848883" id="-19351">
		<tag k="name" v="Nystøylrista" />
		<tag k="place" v="locality" />
		<tag k="ssr:stedsnr" v="291511" />
	</node>
	<node lat="59.18328611246949" lon="8.139994441678631" id="-19353">
		<tag k="name" v="Garden" />
		<tag k="natural" v="slope" />
		<tag k="place" v="locality" />
		<tag k="ssr:stedsnr" v="291475" />
	</node>
	<node lat="59.00800277342153" lon="8.013413891959539" id="-19358">
		<tag k="name" v="Nesskard" />
		<tag k="natural" v="valley" />
		<tag k="place" v="locality" />
		<tag k="ssr:stedsnr" v="292085" />
	</node>
	<node lat="59.03718888871992" lon="7.922611109228072" id="-19360">
		<tag k="name" v="Nuten" />
		<tag k="natural" v="hill" />
		<tag k="place" v="locality" />
		<tag k="ssr:stedsnr" v="292235" />
	</node>
	<node lat="59.075316663435366" lon="7.900855560943559" id="-19362">
		<tag k="name" v="Golifjell" />
		<tag k="natural" v="hill" />
		<tag k="place" v="locality" />
		<tag k="ssr:stedsnr" v="292304" />
	</node>
	<node lat="59.27805278108482" lon="7.948688893755585" id="-19363">
		<tag k="name" v="Songedalskaret" />
		<tag k="natural" v="valley" />
		<tag k="place" v="locality" />
		<tag k="ssr:stedsnr" v="292276" />
	</node>
	<node lat="59.000808336753344" lon="7.974116667810969" id="-19364">
		<tag k="name" v="Krokstøylheia" />
		<tag k="natural" v="hill" />
		<tag k="place" v="locality" />
		<tag k="ssr:stedsnr" v="292412" />
	</node>
	<node lat="59.092752777162204" lon="7.8921111087062" id="-19365">
		<tag k="name" v="Urefjell" />
		<tag k="natural" v="hill" />
		<tag k="place" v="locality" />
		<tag k="ssr:stedsnr" v="292381" />
	</node>
	<node lat="59.3482472257939" lon="7.969136112895468" id="-19366">
		<tag k="name" v="Brennevinsdokkji" />
		<tag k="natural" v="valley" />
		<tag k="place" v="locality" />
		<tag k="ssr:stedsnr" v="292395" />
	</node>
	<node lat="59.13348611303886" lon="7.79893055351548" id="-19369">
		<tag k="name" v="Hedderen" />
		<tag k="place" v="locality" />
		<tag k="ssr:stedsnr" v="462982" />
	</node>
	<node lat="59.06320000109571" lon="8.129324991742461" id="-19370">
		<tag k="alt_name" v="Sandvassfjell" />
		<tag k="fixme" v="consider natural=peak for the most distinct mountains in the district" />
		<tag k="name" v="Sandvassfjellet" />
		<tag k="natural" v="hill" />
		<tag k="place" v="locality" />
		<tag k="ssr:stedsnr" v="304174" />
	</node>
	<node lat="58.96466388905508" lon="8.31978610711004" id="-19378">
		<tag k="alt_name" v="Drangstveitfjell" />
		<tag k="fixme" v="consider natural=peak for the most distinct mountains in the district" />
		<tag k="name" v="Drangstveitfjellet" />
		<tag k="natural" v="hill" />
		<tag k="place" v="locality" />
		<tag k="ssr:stedsnr" v="304920" />
	</node>
	<node lat="59.162452774793564" lon="8.223225001093212" id="-19379">
		<tag k="name" v="Sveigen" />
		<tag k="place" v="locality" />
		<tag k="ssr:stedsnr" v="305108" />
	</node>
	<node lat="59.166200003900016" lon="8.168061104903982" id="-19380">
		<tag k="fixme" v="consider natural=peak for the most distinct mountains in the district" />
		<tag k="name" v="Åsbunuten" />
		<tag k="natural" v="hill" />
		<tag k="place" v="locality" />
		<tag k="ssr:stedsnr" v="305116" />
	</node>
	<node lat="58.98340000105141" lon="8.329144439668996" id="-19381">
		<tag k="name" v="Ronmonuten" />
		<tag k="natural" v="hill" />
		<tag k="place" v="locality" />
		<tag k="ssr:stedsnr" v="304870" />
	</node>
	<node lat="58.98514166251848" lon="8.341047214670205" id="-19382">
		<tag k="alt_name" v="Jydhomsfjell" />
		<tag k="fixme" v="consider natural=peak for the most distinct mountains in the district" />
		<tag k="name" v="Jyddhomsfjellet" />
		<tag k="natural" v="hill" />
		<tag k="place" v="locality" />
		<tag k="ssr:stedsnr" v="304871" />
	</node>
	<node lat="59.00383055756911" lon="8.013619450519384" id="-19384">
		<tag k="alt_name" v="Hovtjørnnuten" />
		<tag k="fixme" v="consider natural=peak for the most distinct mountains in the district" />
		<tag k="name" v="Hovtjønnuten" />
		<tag k="natural" v="hill" />
		<tag k="place" v="locality" />
		<tag k="ssr:stedsnr" v="305021" />
	</node>
	<node lat="59.067961109890724" lon="8.333413886503031" id="-19402">
		<tag k="name" v="Vestre Siplelia" />
		<tag k="natural" v="slope" />
		<tag k="place" v="locality" />
		<tag k="ssr:stedsnr" v="469046" />
	</node>
	<node lat="59.24859999703415" lon="6.806783328633947" id="-19404">
		<tag k="name" v="Heiane" />
		<tag k="natural" v="mountain_range" />
		<tag k="ssr:stedsnr" v="326179" />
	</node>
	<node lat="59.06583333023686" lon="7.911266668024273" id="-19411">
		<tag k="name" v="Kviptefjell" />
		<tag k="natural" v="hill" />
		<tag k="place" v="locality" />
		<tag k="ssr:stedsnr" v="330504" />
	</node>
	<node lat="59.153049996092484" lon="7.937786109904233" id="-19413">
		<tag k="name" v="Grønli" />
		<tag k="natural" v="slope" />
		<tag k="place" v="locality" />
		<tag k="ssr:stedsnr" v="330519" />
	</node>
	<node lat="59.18723889146601" lon="7.927505560416674" id="-19414">
		<tag k="name" v="Nørdstestøylskardet" />
		<tag k="natural" v="valley" />
		<tag k="place" v="locality" />
		<tag k="ssr:stedsnr" v="331007" />
	</node>
	<node lat="59.008102781289935" lon="8.28751110287416" id="-19429">
		<tag k="name" v="Skarketo" />
		<tag k="place" v="locality" />
		<tag k="ssr:stedsnr" v="471659" />
	</node>
	<node lat="59.242449996042126" lon="8.017413880544472" id="-19437">
		<tag k="name" v="Grønvasi" />
		<tag k="natural" v="valley" />
		<tag k="place" v="locality" />
		<tag k="ssr:stedsnr" v="338144" />
	</node>
	<node lat="59.2363861146453" lon="8.003483337168012" id="-19438">
		<tag k="fixme" v="consider natural=peak for the most distinct mountains in the district" />
		<tag k="name" v="Flatefjella" />
		<tag k="natural" v="hill" />
		<tag k="place" v="locality" />
		<tag k="ssr:stedsnr" v="338196" />
	</node>
	<node lat="59.15605555765232" lon="7.953733338549098" id="-19439">
		<tag k="name" v="Storrudlia" />
		<tag k="natural" v="slope" />
		<tag k="place" v="locality" />
		<tag k="ssr:stedsnr" v="338316" />
	</node>
	<node lat="59.291222225687704" lon="7.742155558335974" id="-19440">
		<tag k="name" v="Åsbuhaugane" />
		<tag k="place" v="locality" />
		<tag k="ssr:stedsnr" v="338349" />
	</node>
	<node lat="59.16657222262538" lon="8.015841669243693" id="-19442">
		<tag k="name" v="Midtfitberget" />
		<tag k="natural" v="hill" />
		<tag k="place" v="locality" />
		<tag k="ssr:stedsnr" v="338546" />
	</node>
	<node lat="59.209741666459024" lon="7.817450003209218" id="-19446">
		<tag k="alt_name" v="Nystøylfjøddi" />
		<tag k="fixme" v="consider natural=peak for the most distinct mountains in the district" />
		<tag k="name" v="Nystøylfjellet" />
		<tag k="natural" v="hill" />
		<tag k="place" v="locality" />
		<tag k="ssr:stedsnr" v="339118" />
	</node>
	<node lat="59.163391662714794" lon="7.79505833498027" id="-19447">
		<tag k="fixme" v="consider natural=peak for the most distinct mountains in the district" />
		<tag k="name" v="Austmannlifjøddi" />
		<tag k="natural" v="hill" />
		<tag k="place" v="locality" />
		<tag k="ssr:stedsnr" v="339244" />
	</node>
	<node lat="59.14025000254033" lon="7.985047219567704" id="-19449">
		<tag k="name" v="Løkstøi" />
		<tag k="place" v="locality" />
		<tag k="ssr:stedsnr" v="339453" />
	</node>
	<node lat="58.97091110715527" lon="8.249652775634654" id="-19450">
		<tag k="name" v="Lomkilheia" />
		<tag k="place" v="locality" />
		<tag k="ssr:stedsnr" v="472142" />
	</node>
	<node lat="59.01333889197529" lon="8.235297225244654" id="-19451">
		<tag k="name" v="Solomstone" />
		<tag k="place" v="locality" />
		<tag k="ssr:stedsnr" v="472151" />
	</node>
	<node lat="59.189336111565844" lon="8.27431110935036" id="-19453">
		<tag k="name" v="Grytekrone" />
		<tag k="natural" v="slope" />
		<tag k="place" v="locality" />
		<tag k="ssr:stedsnr" v="339354" />
	</node>
	<node lat="59.246033332274" lon="8.31088889119113" id="-19454">
		<tag k="fixme" v="consider natural=peak for the most distinct mountains in the district" />
		<tag k="name" v="Føreheia" />
		<tag k="natural" v="hill" />
		<tag k="place" v="locality" />
		<tag k="ssr:stedsnr" v="339645" />
	</node>
	<node lat="59.24557222269644" lon="7.778594451433956" id="-19456">
		<tag k="name" v="Langlidalen" />
		<tag k="natural" v="valley" />
		<tag k="place" v="locality" />
		<tag k="ssr:stedsnr" v="339711" />
	</node>
	<node lat="59.300074999043574" lon="8.051802783741627" id="-19457">
		<tag k="name" v="Huvestadbakkane" />
		<tag k="natural" v="slope" />
		<tag k="place" v="locality" />
		<tag k="ssr:stedsnr" v="472277" />
	</node>
	<node lat="58.996969440223644" lon="8.299652777948985" id="-19458">
		<tag k="name" v="Klova" />
		<tag k="natural" v="valley" />
		<tag k="place" v="locality" />
		<tag k="ssr:stedsnr" v="472295" />
	</node>
	<node lat="58.99762778119018" lon="8.30408889702206" id="-19459">
		<tag k="name" v="Bakli" />
		<tag k="natural" v="slope" />
		<tag k="place" v="locality" />
		<tag k="ssr:stedsnr" v="472296" />
	</node>
	<node lat="59.124580557123046" lon="8.188736115072698" id="-19460">
		<tag k="name" v="Aslombrotet" />
		<tag k="place" v="locality" />
		<tag k="ssr:stedsnr" v="472300" />
	</node>
	<node lat="59.31312777838269" lon="8.20552499274918" id="-19461">
		<tag k="name" v="Røyningdalsslækjene" />
		<tag k="natural" v="slope" />
		<tag k="place" v="locality" />
		<tag k="ssr:stedsnr" v="472301" />
	</node>
	<node lat="59.19675555413849" lon="8.200161114982599" id="-19462">
		<tag k="name" v="Baklidalen" />
		<tag k="natural" v="valley" />
		<tag k="place" v="locality" />
		<tag k="ssr:stedsnr" v="472343" />
	</node>
	<node lat="59.2072083310075" lon="8.168650004182124" id="-19466">
		<tag k="name" v="Prestedalen" />
		<tag k="natural" v="valley" />
		<tag k="place" v="locality" />
		<tag k="ssr:stedsnr" v="472454" />
	</node>
	<node lat="59.307269447603076" lon="8.0531194424427" id="-19469">
		<tag k="name" v="Stakkslåttedalen" />
		<tag k="natural" v="valley" />
		<tag k="place" v="locality" />
		<tag k="ssr:stedsnr" v="472665" />
	</node>
	<node lat="59.13711388894176" lon="8.146913896265323" id="-19470">
		<tag k="name" v="Napali" />
		<tag k="natural" v="slope" />
		<tag k="place" v="locality" />
		<tag k="ssr:stedsnr" v="472726" />
	</node>
	<node lat="59.070136114331035" lon="8.119941663251284" id="-19474">
		<tag k="name" v="Hestekvæven" />
		<tag k="natural" v="valley" />
		<tag k="place" v="locality" />
		<tag k="ssr:stedsnr" v="472825" />
	</node>
	<node lat="59.16830555745665" lon="8.159930563674875" id="-19479">
		<tag k="name" v="Åsbunuten" />
		<tag k="natural" v="hill" />
		<tag k="place" v="locality" />
		<tag k="ssr:stedsnr" v="472986" />
	</node>
	<node lat="59.05610000207166" lon="8.254886108494064" id="-19480">
		<tag k="name" v="Brokkekroa" />
		<tag k="natural" v="valley" />
		<tag k="place" v="locality" />
		<tag k="ssr:stedsnr" v="472991" />
	</node>
	<node lat="59.105197226455026" lon="7.874216671355745" id="-19483">
		<tag k="name" v="Leivshol" />
		<tag k="natural" v="valley" />
		<tag k="place" v="locality" />
		<tag k="ssr:stedsnr" v="473177" />
	</node>
	<node lat="59.06460555597185" lon="7.984558341319485" id="-19484">
		<tag k="name" v="Brokkelia" />
		<tag k="natural" v="slope" />
		<tag k="place" v="locality" />
		<tag k="ssr:stedsnr" v="473092" />
	</node>
	<node lat="59.30471388462509" lon="8.129241672488314" id="-19485">
		<tag k="name" v="Veamyrliane" />
		<tag k="natural" v="slope" />
		<tag k="place" v="locality" />
		<tag k="ssr:stedsnr" v="473131" />
	</node>
	<node lat="58.9684166710498" lon="7.968041666586253" id="-19487">
		<tag k="name" v="Svenskedalen" />
		<tag k="natural" v="valley" />
		<tag k="place" v="locality" />
		<tag k="ssr:stedsnr" v="473350" />
	</node>
	<node lat="59.08395555985877" lon="8.084219447280583" id="-19489">
		<tag k="name" v="Voggesteindalen" />
		<tag k="natural" v="valley" />
		<tag k="place" v="locality" />
		<tag k="ssr:stedsnr" v="473434" />
	</node>
	<node lat="59.162097225786134" lon="8.087319437874388" id="-19492">
		<tag k="name" v="Nordbølia" />
		<tag k="natural" v="slope" />
		<tag k="place" v="locality" />
		<tag k="ssr:stedsnr" v="473525" />
	</node>
	<node lat="59.068597225506586" lon="8.35445556017807" id="-19493">
		<tag k="name" v="Stråndlia" />
		<tag k="natural" v="slope" />
		<tag k="place" v="locality" />
		<tag k="ssr:stedsnr" v="348016" />
	</node>
	<node lat="59.25609999883343" lon="8.240205553774691" id="-19496">
		<tag k="name" v="Kvæven" />
		<tag k="natural" v="valley" />
		<tag k="place" v="locality" />
		<tag k="ssr:stedsnr" v="473755" />
	</node>
	<node lat="59.278294443980165" lon="8.065155552114975" id="-19499">
		<tag k="name" v="Spokkelimoen" />
		<tag k="place" v="locality" />
		<tag k="ssr:stedsnr" v="473951" />
	</node>
	<node lat="59.0406666645063" lon="7.994088890646631" id="-19505">
		<tag k="name" v="Linuten" />
		<tag k="natural" v="hill" />
		<tag k="place" v="locality" />
		<tag k="ssr:stedsnr" v="351005" />
	</node>
	<node lat="59.30406666589656" lon="8.123788891903926" id="-19506">
		<tag k="name" v="Leirfallsbakkane" />
		<tag k="place" v="locality" />
		<tag k="ssr:stedsnr" v="351102" />
	</node>
	<node lat="59.3087000000155" lon="8.107669446783625" id="-19509">
		<tag k="name" v="Talleivsrudlii" />
		<tag k="natural" v="slope" />
		<tag k="place" v="locality" />
		<tag k="ssr:stedsnr" v="351313" />
	</node>
	<node lat="59.119716667159544" lon="8.166241671562034" id="-19510">
		<tag k="name" v="Sletteheia" />
		<tag k="natural" v="slope" />
		<tag k="place" v="locality" />
		<tag k="ssr:stedsnr" v="351314" />
	</node>
	<node lat="59.12537500303073" lon="8.180366665376976" id="-19511">
		<tag k="name" v="Øvre Aslomdalen" />
		<tag k="natural" v="valley" />
		<tag k="place" v="locality" />
		<tag k="ssr:stedsnr" v="351318" />
	</node>
	<node lat="58.99855277963625" lon="8.290097223279021" id="-19512">
		<tag k="name" v="Skulenuten" />
		<tag k="natural" v="hill" />
		<tag k="place" v="locality" />
		<tag k="ssr:stedsnr" v="351356" />
	</node>
	<node lat="59.00022500283291" lon="8.293588883154193" id="-19513">
		<tag k="name" v="Leirgrovsbakkane" />
		<tag k="natural" v="slope" />
		<tag k="place" v="locality" />
		<tag k="ssr:stedsnr" v="351358" />
	</node>
	<node lat="59.30256944322361" lon="8.07970555790509" id="-19517">
		<tag k="name" v="Kjellnuten" />
		<tag k="place" v="locality" />
		<tag k="ssr:stedsnr" v="351262" />
	</node>
	<node lat="59.1848194482521" lon="8.142955550273838" id="-19518">
		<tag k="name" v="Røysdalen" />
		<tag k="natural" v="valley" />
		<tag k="place" v="locality" />
		<tag k="ssr:stedsnr" v="351454" />
	</node>
	<node lat="59.17854999889365" lon="8.10651665800778" id="-19520">
		<tag k="name" v="Mikkjelsli" />
		<tag k="natural" v="slope" />
		<tag k="place" v="locality" />
		<tag k="ssr:stedsnr" v="351461" />
	</node>
	<node lat="59.30146111446706" lon="8.221172226132529" id="-19521">
		<tag k="name" v="Tverrheii" />
		<tag k="natural" v="hill" />
		<tag k="place" v="locality" />
		<tag k="ssr:stedsnr" v="351462" />
	</node>
	<node lat="59.32601388624548" lon="8.172905547537633" id="-19523">
		<tag k="name" v="Husdalen" />
		<tag k="natural" v="valley" />
		<tag k="place" v="locality" />
		<tag k="ssr:stedsnr" v="351606" />
	</node>
	<node lat="59.32692222230962" lon="8.163274995254202" id="-19524">
		<tag k="name" v="Tveitfjelldalen" />
		<tag k="natural" v="valley" />
		<tag k="place" v="locality" />
		<tag k="ssr:stedsnr" v="351615" />
	</node>
	<node lat="59.132497222598474" lon="8.233786111423218" id="-19527">
		<tag k="name" v="Vindåsnuten" />
		<tag k="natural" v="hill" />
		<tag k="place" v="locality" />
		<tag k="ssr:stedsnr" v="351565" />
	</node>
	<node lat="59.17303611323555" lon="8.09311666480411" id="-19532">
		<tag k="name" v="Sjavskotdalen" />
		<tag k="natural" v="valley" />
		<tag k="place" v="locality" />
		<tag k="ssr:stedsnr" v="351856" />
	</node>
	<node lat="59.28345555240971" lon="8.043633330733076" id="-19538">
		<tag k="name" v="Mørkelii" />
		<tag k="natural" v="slope" />
		<tag k="place" v="locality" />
		<tag k="ssr:stedsnr" v="474225" />
	</node>
	<node lat="59.279508329144974" lon="8.017713886079878" id="-19539">
		<tag k="name" v="Undeberg" />
		<tag k="natural" v="slope" />
		<tag k="place" v="locality" />
		<tag k="ssr:stedsnr" v="474227" />
	</node>
	<node lat="59.33113055920084" lon="7.955872220785612" id="-19542">
		<tag k="name" v="Tjønnekvæven" />
		<tag k="natural" v="valley" />
		<tag k="place" v="locality" />
		<tag k="ssr:stedsnr" v="352420" />
	</node>
	<node lat="59.041694447812695" lon="7.995313891610168" id="-19543">
		<tag k="name" v="Fisketjønnskaret" />
		<tag k="natural" v="valley" />
		<tag k="place" v="locality" />
		<tag k="ssr:stedsnr" v="352511" />
	</node>
	<node lat="59.05275555419115" lon="8.023086111729993" id="-19544">
		<tag k="name" v="Tovsliheia" />
		<tag k="natural" v="hill" />
		<tag k="place" v="locality" />
		<tag k="ssr:stedsnr" v="352512" />
	</node>
	<node lat="59.00200277970785" lon="8.031680562461021" id="-19545">
		<tag k="name" v="Ratebudalsnuten" />
		<tag k="natural" v="hill" />
		<tag k="place" v="locality" />
		<tag k="ssr:stedsnr" v="474247" />
	</node>
	<node lat="59.05491944864573" lon="8.08599166803759" id="-19546">
		<tag k="name" v="Grennlia" />
		<tag k="natural" v="slope" />
		<tag k="place" v="locality" />
		<tag k="ssr:stedsnr" v="352479" />
	</node>
	<node lat="59.15201666270534" lon="7.76056667360667" id="-19547">
		<tag k="name" v="Bærvassknatten" />
		<tag k="natural" v="hill" />
		<tag k="place" v="locality" />
		<tag k="ssr:stedsnr" v="352802" />
	</node>
	<node lat="59.07489444704491" lon="8.002344436705227" id="-19548">
		<tag k="name" v="Roskoglia" />
		<tag k="natural" v="slope" />
		<tag k="place" v="locality" />
		<tag k="ssr:stedsnr" v="352806" />
	</node>
	<node lat="59.05958888909848" lon="8.011491663583735" id="-19550">
		<tag k="name" v="Bergstiglia" />
		<tag k="natural" v="slope" />
		<tag k="place" v="locality" />
		<tag k="ssr:stedsnr" v="352828" />
	</node>
	<node lat="59.32630833314447" lon="7.896930549552771" id="-19551">
		<tag k="name" v="Våkneskarnuten" />
		<tag k="natural" v="hill" />
		<tag k="place" v="locality" />
		<tag k="ssr:stedsnr" v="352559" />
	</node>
	<node lat="59.053597219300485" lon="7.9123500031979805" id="-19552">
		<tag k="name" v="Kviptefjell" />
		<tag k="natural" v="hill" />
		<tag k="place" v="locality" />
		<tag k="ssr:stedsnr" v="474343" />
	</node>
	<node lat="59.056636115473395" lon="8.002636107189323" id="-19559">
		<tag k="name" v="Tykkli" />
		<tag k="natural" v="slope" />
		<tag k="place" v="locality" />
		<tag k="ssr:stedsnr" v="474840" />
	</node>
	<node lat="59.33015277966512" lon="7.8565388826998035" id="-19562">
		<tag k="name" v="Lisleliåsen" />
		<tag k="natural" v="hill" />
		<tag k="place" v="locality" />
		<tag k="ssr:stedsnr" v="474964" />
	</node>
	<node lat="58.967724998335996" lon="8.300511113386165" id="-19565">
		<tag k="fixme" v="consider natural=peak for the most distinct mountains in the district" />
		<tag k="name" v="Lindborgfjellet" />
		<tag k="natural" v="hill" />
		<tag k="place" v="locality" />
		<tag k="ssr:stedsnr" v="364899" />
	</node>
	<node lat="59.23755277742893" lon="8.165525007434214" id="-19566">
		<tag k="fixme" v="consider natural=peak for the most distinct mountains in the district" />
		<tag k="name" v="Storsteinfjellet" />
		<tag k="natural" v="hill" />
		<tag k="place" v="locality" />
		<tag k="ssr:stedsnr" v="365018" />
	</node>
	<node lat="59.02385277421374" lon="8.000838882100474" id="-19576">
		<tag k="alt_name" v="Jomsfjell" />
		<tag k="fixme" v="consider natural=peak for the most distinct mountains in the district" />
		<tag k="name" v="Jåmsfjell" />
		<tag k="natural" v="hill" />
		<tag k="place" v="locality" />
		<tag k="ssr:stedsnr" v="365506" />
	</node>
	<node lat="58.988516666294316" lon="7.986458331795663" id="-19578">
		<tag k="alt_name" v="Ytretjørnfjell" />
		<tag k="fixme" v="consider natural=peak for the most distinct mountains in the district" />
		<tag k="name" v="Ytretjønnfjell" />
		<tag k="natural" v="hill" />
		<tag k="place" v="locality" />
		<tag k="ssr:stedsnr" v="365608" />
	</node>
	<node lat="58.98800555932159" lon="8.026983339121642" id="-19579">
		<tag k="name" v="Geiterådalen" />
		<tag k="natural" v="valley" />
		<tag k="place" v="locality" />
		<tag k="ssr:stedsnr" v="365609" />
	</node>
	<node lat="59.27473055927273" lon="8.128836113409875" id="-19580">
		<tag k="alt_name" v="Gjerlinuten" />
		<tag k="fixme" v="consider natural=peak for the most distinct mountains in the district" />
		<tag k="name" v="Gjerdlinuten" />
		<tag k="natural" v="hill" />
		<tag k="place" v="locality" />
		<tag k="ssr:stedsnr" v="366220" />
	</node>
	<node lat="59.32924444743663" lon="8.173116660805075" id="-19582">
		<tag k="fixme" v="consider natural=peak for the most distinct mountains in the district" />
		<tag k="name" v="Haugheii" />
		<tag k="natural" v="hill" />
		<tag k="place" v="locality" />
		<tag k="ssr:stedsnr" v="366344" />
	</node>
	<node lat="59.355977779335326" lon="8.075177778004905" id="-19585">
		<tag k="alt_name" v="Ruste" />
		<tag k="fixme" v="consider natural=peak for the most distinct mountains in the district" />
		<tag k="name" v="Røsti" />
		<tag k="natural" v="hill" />
		<tag k="place" v="locality" />
		<tag k="ssr:stedsnr" v="366976" />
	</node>
	<node lat="59.27036666815691" lon="7.992080558153953" id="-19587">
		<tag k="fixme" v="consider natural=peak for the most distinct mountains in the district" />
		<tag k="name" v="Sletteberg" />
		<tag k="natural" v="hill" />
		<tag k="place" v="locality" />
		<tag k="ssr:stedsnr" v="391403" />
	</node>
	<node lat="59.27444721863252" lon="7.858602782423523" id="-19588">
		<tag k="fixme" v="consider natural=peak for the most distinct mountains in the district" />
		<tag k="name" v="Orrnesnut" />
		<tag k="natural" v="hill" />
		<tag k="place" v="locality" />
		<tag k="ssr:stedsnr" v="391410" />
	</node>
	<node lat="59.29668611311537" lon="8.023449999655924" id="-19589">
		<tag k="fixme" v="consider natural=peak for the most distinct mountains in the district" />
		<tag k="name" v="Lienenuten" />
		<tag k="natural" v="hill" />
		<tag k="place" v="locality" />
		<tag k="ssr:stedsnr" v="391385" />
	</node>
	<node lat="59.282238889412405" lon="7.72055000240835" id="-19590">
		<tag k="fixme" v="consider natural=peak for the most distinct mountains in the district" />
		<tag k="name" v="Nusfjell" />
		<tag k="natural" v="hill" />
		<tag k="place" v="locality" />
		<tag k="ssr:stedsnr" v="391387" />
	</node>
	<node lat="59.241002780635796" lon="8.082594435830348" id="-19592">
		<tag k="name" v="Spøkjeufsa" />
		<tag k="natural" v="slope" />
		<tag k="place" v="locality" />
		<tag k="ssr:stedsnr" v="397089" />
	</node>
	<node lat="59.20276944815499" lon="8.105408336302197" id="-19594">
		<tag k="name" v="Kasine" />
		<tag k="natural" v="slope" />
		<tag k="place" v="locality" />
		<tag k="ssr:stedsnr" v="397236" />
	</node>
	<node lat="59.21564444491514" lon="8.086619451067412" id="-19595">
		<tag k="name" v="Strigemoen" />
		<tag k="place" v="locality" />
		<tag k="ssr:stedsnr" v="397581" />
	</node>
	<node lat="59.21115555347479" lon="7.83326944461534" id="-19598">
		<tag k="name" v="Bjønneto" />
		<tag k="natural" v="slope" />
		<tag k="place" v="locality" />
		<tag k="ssr:stedsnr" v="398506" />
	</node>
	<node lat="59.2408555556129" lon="7.8576333386055985" id="-19600">
		<tag k="fixme" v="consider natural=peak for the most distinct mountains in the district" />
		<tag k="name" v="Skåltjønnfjøddi" />
		<tag k="natural" v="hill" />
		<tag k="place" v="locality" />
		<tag k="ssr:stedsnr" v="399078" />
	</node>
	<node lat="59.242350001882464" lon="7.9224249989866" id="-19602">
		<tag k="name" v="Skarvestein" />
		<tag k="place" v="locality" />
		<tag k="ssr:stedsnr" v="399185" />
	</node>
	<node lat="59.19578888600326" lon="8.283652776100977" id="-19607">
		<tag k="fixme" v="consider natural=peak for the most distinct mountains in the district" />
		<tag k="name" v="Dyrevassristine" />
		<tag k="natural" v="hill" />
		<tag k="place" v="locality" />
		<tag k="ssr:stedsnr" v="399391" />
	</node>
	<node lat="59.124913892726596" lon="8.029583331797223" id="-19608">
		<tag k="name" v="Jordtjønndalen" />
		<tag k="natural" v="valley" />
		<tag k="place" v="locality" />
		<tag k="ssr:stedsnr" v="399435" />
	</node>
	<node lat="59.17210555630601" lon="8.007388884788567" id="-19609">
		<tag k="name" v="Homsskotet" />
		<tag k="natural" v="cliff" />
		<tag k="ssr:stedsnr" v="399605" />
	</node>
	<node lat="59.16460278214522" lon="8.024325008187581" id="-19611">
		<tag k="name" v="Synkleivdokka" />
		<tag k="place" v="locality" />
		<tag k="ssr:stedsnr" v="399611" />
	</node>
	<node lat="59.20212777338067" lon="7.999527773154665" id="-19613">
		<tag k="name" v="Kåvekvæven" />
		<tag k="natural" v="valley" />
		<tag k="place" v="locality" />
		<tag k="ssr:stedsnr" v="399591" />
	</node>
	<node lat="59.26530000327449" lon="7.844927770616226" id="-19615">
		<tag k="fixme" v="consider natural=peak for the most distinct mountains in the district" />
		<tag k="name" v="Eikedalsnuten" />
		<tag k="natural" v="hill" />
		<tag k="place" v="locality" />
		<tag k="ssr:stedsnr" v="399600" />
	</node>
	<node lat="59.26309444519708" lon="7.797727782721736" id="-19619">
		<tag k="name" v="Kaldbekkdalen" />
		<tag k="natural" v="valley" />
		<tag k="place" v="locality" />
		<tag k="ssr:stedsnr" v="399830" />
	</node>
	<node lat="59.1860250014347" lon="8.142450001327887" id="-19624">
		<tag k="name" v="Røysnetten" />
		<tag k="natural" v="hill" />
		<tag k="place" v="locality" />
		<tag k="ssr:stedsnr" v="486065" />
	</node>
	<node lat="59.172875002780174" lon="7.83326110852267" id="-19635">
		<tag k="alt_name" v="Nystølfjellet" />
		<tag k="fixme" v="consider natural=peak for the most distinct mountains in the district" />
		<tag k="name" v="Nystøylfjellet" />
		<tag k="natural" v="hill" />
		<tag k="place" v="locality" />
		<tag k="ssr:stedsnr" v="486386" />
	</node>
	<node lat="59.17896389337462" lon="7.869891673260213" id="-19636">
		<tag k="alt_name" v="Brokkenuten" />
		<tag k="fixme" v="consider natural=peak for the most distinct mountains in the district" />
		<tag k="name" v="Brokkonuten" />
		<tag k="natural" v="hill" />
		<tag k="old_name" v="Brokkenut" />
		<tag k="place" v="locality" />
		<tag k="ssr:stedsnr" v="486389" />
	</node>
	<node lat="58.98109166889265" lon="8.27233332901927" id="-19642">
		<tag k="fixme" v="consider natural=peak for the most distinct mountains in the district" />
		<tag k="name" v="Lauvnuten" />
		<tag k="natural" v="hill" />
		<tag k="place" v="locality" />
		<tag k="ssr:stedsnr" v="486898" />
	</node>
	<node lat="58.9770527738012" lon="8.287275000754112" id="-19644">
		<tag k="fixme" v="consider natural=peak for the most distinct mountains in the district" />
		<tag k="name" v="Rustedalsnuten" />
		<tag k="natural" v="hill" />
		<tag k="place" v="locality" />
		<tag k="ssr:stedsnr" v="486900" />
	</node>
	<node lat="59.15388055751646" lon="8.325483332391421" id="-19648">
		<tag k="fixme" v="consider natural=peak for the most distinct mountains in the district" />
		<tag k="name" v="Russnuten" />
		<tag k="natural" v="hill" />
		<tag k="place" v="locality" />
		<tag k="ssr:stedsnr" v="487087" />
	</node>
	<node lat="59.14093611430412" lon="8.146211118948136" id="-19650">
		<tag k="fixme" v="consider natural=peak for the most distinct mountains in the district" />
		<tag k="name" v="Napalinuten" />
		<tag k="natural" v="hill" />
		<tag k="place" v="locality" />
		<tag k="ssr:stedsnr" v="487093" />
	</node>
	<node lat="59.1474111118823" lon="8.109738880248905" id="-19651">
		<tag k="fixme" v="consider natural=peak for the most distinct mountains in the district" />
		<tag k="name" v="Tørne" />
		<tag k="natural" v="hill" />
		<tag k="place" v="locality" />
		<tag k="ssr:stedsnr" v="487094" />
	</node>
	<node lat="59.263244445658515" lon="8.197555555879156" id="-19652">
		<tag k="alt_name" v="Kvåmon" />
		<tag k="name" v="Kvåmonuten" />
		<tag k="natural" v="hill" />
		<tag k="place" v="locality" />
		<tag k="ssr:stedsnr" v="487184" />
	</node>
	<node lat="59.132524997741214" lon="8.233933335773022" id="-19656">
		<tag k="fixme" v="consider natural=peak for the most distinct mountains in the district" />
		<tag k="name" v="Vindåsfjellet" />
		<tag k="natural" v="hill" />
		<tag k="place" v="locality" />
		<tag k="ssr:stedsnr" v="487135" />
	</node>
	<node lat="59.306852777393026" lon="8.16718055382204" id="-19659">
		<tag k="alt_name" v="Ørvelåsen" />
		<tag k="fixme" v="consider natural=peak for the most distinct mountains in the district" />
		<tag k="name" v="Ørvellåsen" />
		<tag k="natural" v="hill" />
		<tag k="place" v="locality" />
		<tag k="ssr:stedsnr" v="487146" />
	</node>
	<node lat="59.02584166665933" lon="8.306924993777073" id="-19661">
		<tag k="alt_name" v="Kyrefjellet" />
		<tag k="fixme" v="consider natural=peak for the most distinct mountains in the district" />
		<tag k="name" v="Kyrefjell" />
		<tag k="natural" v="hill" />
		<tag k="place" v="locality" />
		<tag k="ssr:stedsnr" v="487228" />
	</node>
	<node lat="59.04043025919126" lon="8.166886107442322" id="-19665">
		<tag k="fixme" v="consider natural=peak for the most distinct mountains in the district" />
		<tag k="loc_name" v="Storlinuten" />
		<tag k="name" v="Sollinuten" />
		<tag k="natural" v="hill" />
		<tag k="place" v="locality" />
		<tag k="ssr:stedsnr" v="487242" />
	</node>
	<node lat="59.07544444405005" lon="8.253938893776493" id="-19668">
		<tag k="name" v="Lauviklia" />
		<tag k="natural" v="slope" />
		<tag k="place" v="locality" />
		<tag k="ssr:stedsnr" v="411514" />
	</node>
	<node lat="59.213469441480704" lon="7.9500611033597" id="-19671">
		<tag k="alt_name" v="Skarnut" />
		<tag k="name" v="Skardnuten" />
		<tag k="natural" v="hill" />
		<tag k="old_name" v="Skardnut" />
		<tag k="place" v="locality" />
		<tag k="ssr:stedsnr" v="487374" />
	</node>
	<node lat="59.33360000230052" lon="8.181730550562005" id="-19673">
		<tag k="fixme" v="consider natural=peak for the most distinct mountains in the district" />
		<tag k="name" v="Storlihovet" />
		<tag k="natural" v="hill" />
		<tag k="place" v="locality" />
		<tag k="ssr:stedsnr" v="487346" />
	</node>
	<node lat="59.05775833706562" lon="8.29270000707157" id="-19675">
		<tag k="name" v="Skuggefjell" />
		<tag k="natural" v="hill" />
		<tag k="place" v="locality" />
		<tag k="ssr:stedsnr" v="411919" />
	</node>
	<node lat="59.0000833316468" lon="8.210283330611896" id="-19677">
		<tag k="name" v="Vidkjærliane" />
		<tag k="natural" v="slope" />
		<tag k="place" v="locality" />
		<tag k="ssr:stedsnr" v="412052" />
	</node>
	<node lat="59.28879166935949" lon="8.139136108981889" id="-19678">
		<tag k="name" v="Bakri Gluggvarlii" />
		<tag k="natural" v="slope" />
		<tag k="place" v="locality" />
		<tag k="ssr:stedsnr" v="412202" />
	</node>
	<node lat="59.28528888740125" lon="8.173636102826748" id="-19679">
		<tag k="name" v="Middagshola" />
		<tag k="natural" v="valley" />
		<tag k="place" v="locality" />
		<tag k="ssr:stedsnr" v="412207" />
	</node>
	<node lat="58.99993055924728" lon="8.224344448782253" id="-19682">
		<tag k="name" v="Hægeshei" />
		<tag k="natural" v="slope" />
		<tag k="place" v="locality" />
		<tag k="ssr:stedsnr" v="412140" />
	</node>
	<node lat="59.10918333110841" lon="8.192788888738269" id="-19683">
		<tag k="name" v="Storsteindalen" />
		<tag k="natural" v="valley" />
		<tag k="place" v="locality" />
		<tag k="ssr:stedsnr" v="412303" />
	</node>
	<node lat="59.000397226429946" lon="8.326022221935728" id="-19684">
		<tag k="name" v="Skipmannmoen" />
		<tag k="place" v="locality" />
		<tag k="ssr:stedsnr" v="412308" />
	</node>
	<node lat="59.06454166529665" lon="8.176602780528393" id="-19685">
		<tag k="name" v="Gjevestolia" />
		<tag k="natural" v="slope" />
		<tag k="place" v="locality" />
		<tag k="ssr:stedsnr" v="412319" />
	</node>
	<node lat="59.00015000192907" lon="8.317166662056758" id="-19686">
		<tag k="name" v="Veddalen" />
		<tag k="natural" v="valley" />
		<tag k="place" v="locality" />
		<tag k="ssr:stedsnr" v="412293" />
	</node>
	<node lat="59.161527779704066" lon="8.117461116852137" id="-19688">
		<tag k="name" v="Grønom" />
		<tag k="natural" v="slope" />
		<tag k="place" v="locality" />
		<tag k="ssr:stedsnr" v="412512" />
	</node>
	<node lat="59.32842778159405" lon="8.171519439426772" id="-19691">
		<tag k="name" v="Husdalsnuten" />
		<tag k="natural" v="ridge" />
		<tag k="place" v="locality" />
		<tag k="ssr:stedsnr" v="412589" />
	</node>
	<node lat="59.092236111871344" lon="8.114761118165752" id="-19693">
		<tag k="name" v="Mjåvassristine" />
		<tag k="natural" v="ridge" />
		<tag k="place" v="locality" />
		<tag k="ssr:stedsnr" v="412708" />
	</node>
	<node lat="59.25709999921771" lon="8.236116673525377" id="-19694">
		<tag k="name" v="Røyningstangnuten" />
		<tag k="natural" v="hill" />
		<tag k="place" v="locality" />
		<tag k="ssr:stedsnr" v="412709" />
	</node>
	<node lat="59.06669444604172" lon="8.100844445354035" id="-19697">
		<tag k="name" v="Skotjønnlia" />
		<tag k="natural" v="slope" />
		<tag k="place" v="locality" />
		<tag k="ssr:stedsnr" v="412437" />
	</node>
	<node lat="59.014022220715134" lon="8.075594444825482" id="-19702">
		<tag k="name" v="Bakli" />
		<tag k="natural" v="slope" />
		<tag k="place" v="locality" />
		<tag k="ssr:stedsnr" v="412890" />
	</node>
	<node lat="59.31558888610795" lon="7.706938890225748" id="-19704">
		<tag k="alt_name" v="Dilleskar" />
		<tag k="name" v="Dilleskard" />
		<tag k="natural" v="valley" />
		<tag k="place" v="locality" />
		<tag k="ssr:stedsnr" v="487546" />
	</node>
	<node lat="59.25800555615986" lon="7.981133329625704" id="-19709">
		<tag k="name" v="Granakjerrdalen" />
		<tag k="natural" v="valley" />
		<tag k="place" v="locality" />
		<tag k="ssr:stedsnr" v="413086" />
	</node>
	<node lat="59.099794448387904" lon="7.822977777431651" id="-19710">
		<tag k="name" v="Mjåvassdalen" />
		<tag k="natural" v="valley" />
		<tag k="place" v="locality" />
		<tag k="ssr:stedsnr" v="413199" />
	</node>
	<node lat="59.28034999876934" lon="7.970183339922914" id="-19711">
		<tag k="name" v="Ristene" />
		<tag k="natural" v="ridge" />
		<tag k="place" v="locality" />
		<tag k="ssr:stedsnr" v="413343" />
	</node>
	<node lat="59.16896944279385" lon="8.093341670519814" id="-19712">
		<tag k="name" v="Åkerdalen" />
		<tag k="natural" v="valley" />
		<tag k="place" v="locality" />
		<tag k="ssr:stedsnr" v="413639" />
	</node>
	<node lat="59.309447220440305" lon="7.713269450140998" id="-19714">
		<tag k="alt_name" v="Kjøpstadfjellet" />
		<tag k="fixme" v="consider natural=peak for the most distinct mountains in the district" />
		<tag k="name" v="Kaupstadheii" />
		<tag k="natural" v="hill" />
		<tag k="old_name" v="Kjøpstadheii" />
		<tag k="place" v="locality" />
		<tag k="ssr:stedsnr" v="487773" />
	</node>
	<node lat="59.06874166996962" lon="7.931877780948035" id="-19717">
		<tag k="name" v="Baklia" />
		<tag k="natural" v="slope" />
		<tag k="place" v="locality" />
		<tag k="ssr:stedsnr" v="414407" />
	</node>
	<node lat="59.3202250017599" lon="8.18127777356732" id="-19723">
		<tag k="alt_name" v="Igletjørnåsen" />
		<tag k="fixme" v="consider natural=peak for the most distinct mountains in the district" />
		<tag k="name" v="Igletjønnåsen" />
		<tag k="natural" v="hill" />
		<tag k="place" v="locality" />
		<tag k="ssr:stedsnr" v="488154" />
	</node>
	<node lat="59.28244999816533" lon="8.125688894939232" id="-19727">
		<tag k="name" v="Gjuvkanten" />
		<tag k="place" v="locality" />
		<tag k="ssr:stedsnr" v="488202" />
	</node>
	<node lat="59.288149996859104" lon="8.214855551796195" id="-19728">
		<tag k="fixme" v="consider natural=peak for the most distinct mountains in the district" />
		<tag k="name" v="Roan" />
		<tag k="natural" v="hill" />
		<tag k="place" v="locality" />
		<tag k="ssr:stedsnr" v="488207" />
	</node>
	<node lat="59.082886114734876" lon="8.370099991792019" id="-19733">
		<tag k="fixme" v="consider natural=peak for the most distinct mountains in the district" />
		<tag k="name" v="Stakkhomfjellet" />
		<tag k="natural" v="hill" />
		<tag k="place" v="locality" />
		<tag k="ssr:stedsnr" v="426208" />
	</node>
	<node lat="59.069124997730576" lon="8.304780548420448" id="-19734">
		<tag k="name" v="Maurdalen" />
		<tag k="natural" v="valley" />
		<tag k="place" v="locality" />
		<tag k="ssr:stedsnr" v="426217" />
	</node>
	<node lat="58.96402500050807" lon="8.265200003505516" id="-19747">
		<tag k="alt_name" v="Skurvenuten" />
		<tag k="fixme" v="consider natural=peak for the most distinct mountains in the district" />
		<tag k="name" v="Skurvenut" />
		<tag k="natural" v="hill" />
		<tag k="place" v="locality" />
		<tag k="ssr:stedsnr" v="426927" />
	</node>
	<node lat="59.25942500315661" lon="8.338899992834396" id="-19749">
		<tag k="name" v="Bomnesdalen" />
		<tag k="natural" v="valley" />
		<tag k="place" v="locality" />
		<tag k="ssr:stedsnr" v="427210" />
	</node>
	<node lat="59.08606111244011" lon="8.336863888536428" id="-19751">
		<tag k="name" v="Gråstakk" />
		<tag k="natural" v="hill" />
		<tag k="place" v="locality" />
		<tag k="ssr:stedsnr" v="427180" />
	</node>
	<node lat="59.19969999631359" lon="7.968119447906497" id="-19755">
		<tag k="fixme" v="consider natural=peak for the most distinct mountains in the district" />
		<tag k="name" v="Skjevleheii" />
		<tag k="natural" v="hill" />
		<tag k="old_name" v="Skevleheii" />
		<tag k="place" v="locality" />
		<tag k="ssr:stedsnr" v="427376" />
	</node>
	<node lat="59.07652499833659" lon="7.930075004646511" id="-19758">
		<tag k="name" v="Griddalen" />
		<tag k="natural" v="valley" />
		<tag k="place" v="locality" />
		<tag k="ssr:stedsnr" v="427473" />
	</node>
	<node lat="59.277036114302874" lon="7.9979527765420455" id="-19760">
		<tag k="name" v="Songedalsdalen" />
		<tag k="natural" v="valley" />
		<tag k="place" v="locality" />
		<tag k="ssr:stedsnr" v="427904" />
	</node>
	<node lat="59.00193888799631" lon="8.196930550801731" id="-19763">
		<tag k="name" v="Bindalen" />
		<tag k="natural" v="valley" />
		<tag k="place" v="locality" />
		<tag k="ssr:stedsnr" v="427967" />
	</node>
	<node lat="59.184858335133846" lon="7.7437888890968045" id="-19769">
		<tag k="name" v="Bergeheii" />
		<tag k="natural" v="hill" />
		<tag k="place" v="locality" />
		<tag k="ssr:stedsnr" v="453807" />
	</node>
	<node lat="59.24637500343066" lon="8.091569441110344" id="-19772">
		<tag k="name" v="Djupedal" />
		<tag k="natural" v="valley" />
		<tag k="place" v="locality" />
		<tag k="ssr:stedsnr" v="458104" />
	</node>
	<node lat="59.219152778534074" lon="8.01024166987041" id="-19776">
		<tag k="fixme" v="consider natural=peak for the most distinct mountains in the district" />
		<tag k="name" v="Russlandsnuten" />
		<tag k="natural" v="hill" />
		<tag k="place" v="locality" />
		<tag k="ssr:stedsnr" v="458935" />
	</node>
	<node lat="59.23450277748843" lon="8.026049994017944" id="-19781">
		<tag k="name" v="Snodalen" />
		<tag k="natural" v="valley" />
		<tag k="place" v="locality" />
		<tag k="ssr:stedsnr" v="459310" />
	</node>
	<node lat="59.23594444770658" lon="7.764330546725182" id="-19785">
		<tag k="name" v="Brurmannskardi" />
		<tag k="natural" v="valley" />
		<tag k="place" v="locality" />
		<tag k="ssr:stedsnr" v="460118" />
	</node>
	<node lat="59.24559444036968" lon="7.910536104498816" id="-19786">
		<tag k="fixme" v="consider natural=peak for the most distinct mountains in the district" />
		<tag k="name" v="Åhåmar" />
		<tag k="natural" v="hill" />
		<tag k="place" v="locality" />
		<tag k="ssr:stedsnr" v="460209" />
	</node>
	<node lat="59.1787499999061" lon="7.786836112939489" id="-19789">
		<tag k="name" v="Plasskvæven" />
		<tag k="natural" v="valley" />
		<tag k="place" v="locality" />
		<tag k="ssr:stedsnr" v="460315" />
	</node>
	<node lat="59.17998055660677" lon="7.803080556556643" id="-19790">
		<tag k="name" v="Huvarbergji" />
		<tag k="natural" v="hill" />
		<tag k="place" v="locality" />
		<tag k="ssr:stedsnr" v="460325" />
	</node>
	<node lat="59.13555833389662" lon="7.978027780790487" id="-19791">
		<tag k="fixme" v="consider natural=peak for the most distinct mountains in the district" />
		<tag k="name" v="Brokkoheia" />
		<tag k="natural" v="hill" />
		<tag k="place" v="locality" />
		<tag k="ssr:stedsnr" v="460524" />
	</node>
	<node lat="59.16763611536318" lon="7.870169446063494" id="-19795">
		<tag k="fixme" v="consider natural=peak for the most distinct mountains in the district" />
		<tag k="name" v="Fjelltjønnfjellet" />
		<tag k="natural" v="hill" />
		<tag k="place" v="locality" />
		<tag k="ssr:stedsnr" v="460804" />
	</node>
	<node lat="59.31854166492426" lon="7.753105554351442" id="-19796">
		<tag k="name" v="Bøsstjønnskardi" />
		<tag k="natural" v="valley" />
		<tag k="place" v="locality" />
		<tag k="ssr:stedsnr" v="460705" />
	</node>
	<node lat="59.19252500177181" lon="7.947005556921819" id="-19798">
		<tag k="name" v="Maurli" />
		<tag k="natural" v="slope" />
		<tag k="place" v="locality" />
		<tag k="ssr:stedsnr" v="460722" />
	</node>
	<node lat="59.10373611539591" lon="8.193655562802137" id="-19808">
		<tag k="name" v="Storsteinheia" />
		<tag k="natural" v="hill" />
		<tag k="place" v="locality" />
		<tag k="ssr:stedsnr" v="472310" />
	</node>
	<node lat="59.294636107570824" lon="8.100555552205542" id="-19810">
		<tag k="name" v="Sandane" />
		<tag k="place" v="locality" />
		<tag k="ssr:stedsnr" v="472321" />
	</node>
	<node lat="59.33157222592781" lon="8.168830557475227" id="-19812">
		<tag k="name" v="Drivandekkane" />
		<tag k="natural" v="slope" />
		<tag k="place" v="locality" />
		<tag k="ssr:stedsnr" v="472616" />
	</node>
	<node lat="59.32676667071117" lon="8.177397223211688" id="-19813">
		<tag k="name" v="Fjøddenuten" />
		<tag k="place" v="locality" />
		<tag k="ssr:stedsnr" v="472617" />
	</node>
	<node lat="59.173080553175744" lon="8.217691668641308" id="-19817">
		<tag k="name" v="Tjosli" />
		<tag k="natural" v="slope" />
		<tag k="place" v="locality" />
		<tag k="ssr:stedsnr" v="472719" />
	</node>
	<node lat="59.23392222127058" lon="8.172419443079841" id="-19820">
		<tag k="name" v="Nystøylheia" />
		<tag k="natural" v="hill" />
		<tag k="place" v="locality" />
		<tag k="ssr:stedsnr" v="472815" />
	</node>
	<node lat="59.03473055960172" lon="7.990411113738476" id="-19824">
		<tag k="name" v="Birteskard" />
		<tag k="natural" v="valley" />
		<tag k="place" v="locality" />
		<tag k="ssr:stedsnr" v="473016" />
	</node>
	<node lat="59.31886667108511" lon="8.081613895829866" id="-19825">
		<tag k="name" v="Grønlinuten" />
		<tag k="natural" v="hill" />
		<tag k="place" v="locality" />
		<tag k="ssr:stedsnr" v="472907" />
	</node>
	<node lat="59.16852222103171" lon="8.093258331665583" id="-19832">
		<tag k="name" v="Bytingsdalen" />
		<tag k="natural" v="valley" />
		<tag k="place" v="locality" />
		<tag k="ssr:stedsnr" v="473617" />
	</node>
	<node lat="59.334822219018676" lon="8.133527779221899" id="-19833">
		<tag k="name" v="Kløvsteinane" />
		<tag k="place" v="locality" />
		<tag k="ssr:stedsnr" v="473873" />
	</node>
	<node lat="59.11938888686007" lon="8.224925004821168" id="-19839">
		<tag k="name" v="Kallemsvasslia" />
		<tag k="natural" v="slope" />
		<tag k="place" v="locality" />
		<tag k="ssr:stedsnr" v="679485" />
	</node>
	<node lat="59.23198888752931" lon="8.22228333994092" id="-19846">
		<tag k="alt_name" v="Kaldvetfjellet" />
		<tag k="fixme" v="consider natural=peak for the most distinct mountains in the district" />
		<tag k="name" v="Kaldvætfjell" />
		<tag k="natural" v="hill" />
		<tag k="place" v="locality" />
		<tag k="ssr:stedsnr" v="487010" />
	</node>
	<node lat="59.24656667111205" lon="8.327691662811192" id="-19847">
		<tag k="alt_name" v="Løfjell" />
		<tag k="fixme" v="consider natural=peak for the most distinct mountains in the district" />
		<tag k="name" v="Løefjødd" />
		<tag k="natural" v="hill" />
		<tag k="place" v="locality" />
		<tag k="ssr:stedsnr" v="487014" />
	</node>
	<node lat="59.096086114208354" lon="8.25598889319075" id="-19851">
		<tag k="alt_name" v="Svoune" />
		<tag k="name" v="Svåone" />
		<tag k="natural" v="slope" />
		<tag k="place" v="locality" />
		<tag k="ssr:stedsnr" v="487177" />
	</node>
	<node lat="59.20951111441659" lon="7.753022213459753" id="-19852">
		<tag k="alt_name" v="Torsdalsfjell;Trosdalsfjøddet" />
		<tag k="fixme" v="consider natural=peak for the most distinct mountains in the district" />
		<tag k="name" v="Torsdalsfjellet" />
		<tag k="natural" v="hill" />
		<tag k="place" v="locality" />
		<tag k="ssr:stedsnr" v="487352" />
	</node>
	<node lat="59.217077777280736" lon="7.8306361084807925" id="-19853">
		<tag k="alt_name" v="Haukreifjøddi" />
		<tag k="fixme" v="consider natural=peak for the most distinct mountains in the district" />
		<tag k="name" v="Haukreifjellet" />
		<tag k="natural" v="hill" />
		<tag k="place" v="locality" />
		<tag k="ssr:stedsnr" v="487356" />
	</node>
	<node lat="59.26841944267302" lon="8.159400006101597" id="-19856">
		<tag k="fixme" v="consider natural=peak for the most distinct mountains in the district" />
		<tag k="name" v="Olov" />
		<tag k="natural" v="hill" />
		<tag k="place" v="locality" />
		<tag k="ssr:stedsnr" v="487204" />
	</node>
	<node lat="59.00295833219956" lon="8.262699995722674" id="-19862">
		<tag k="fixme" v="consider natural=peak for the most distinct mountains in the district" />
		<tag k="name" v="Øynuten" />
		<tag k="natural" v="hill" />
		<tag k="place" v="locality" />
		<tag k="ssr:stedsnr" v="487970" />
	</node>
	<node lat="59.27579166811701" lon="8.170500008719017" id="-19864">
		<tag k="name" v="Isdalen" />
		<tag k="natural" v="valley" />
		<tag k="place" v="locality" />
		<tag k="ssr:stedsnr" v="488187" />
	</node>
	<node lat="59.03689999924913" lon="8.170330548847149" id="-19866">
		<tag k="name" v="Storeli" />
		<tag k="natural" v="slope" />
		<tag k="place" v="locality" />
		<tag k="ssr:stedsnr" v="506272" />
	</node>
	<node lat="59.056080556467926" lon="7.867655551794455" id="-19867">
		<tag k="alt_name" v="Grøssenuten" />
		<tag k="name" v="Grøsænuten" />
		<tag k="natural" v="hill" />
		<tag k="place" v="locality" />
		<tag k="ssr:stedsnr" v="512473" />
	</node>
	<node lat="59.06280000423471" lon="8.033399999461405" id="-19868">
		<tag k="alt_name" v="Storosfjellet" />
		<tag k="name" v="Storosfjell" />
		<tag k="natural" v="hill" />
		<tag k="place" v="locality" />
		<tag k="ssr:stedsnr" v="513024" />
	</node>
	<node lat="59.28207499872334" lon="7.928058331402256" id="-19871">
		<tag k="name" v="Hassdalen" />
		<tag k="natural" v="valley" />
		<tag k="place" v="locality" />
		<tag k="ssr:stedsnr" v="513419" />
	</node>
	<node lat="59.256130557621034" lon="8.0023583254848" id="-19873">
		<tag k="alt_name" v="Tjørnekvæven" />
		<tag k="name" v="Tjønnekvæven" />
		<tag k="natural" v="valley" />
		<tag k="place" v="locality" />
		<tag k="ssr:stedsnr" v="513308" />
	</node>
	<node lat="59.21663055814536" lon="8.106605563793675" id="-19877">
		<tag k="name" v="Kvennhuslia" />
		<tag k="natural" v="slope" />
		<tag k="place" v="locality" />
		<tag k="ssr:stedsnr" v="519059" />
	</node>
	<node lat="59.24615833163424" lon="8.107747217743173" id="-19882">
		<tag k="name" v="Kleivkasine" />
		<tag k="natural" v="slope" />
		<tag k="place" v="locality" />
		<tag k="ssr:stedsnr" v="519711" />
	</node>
	<node lat="59.23595277780152" lon="7.842291661177024" id="-19884">
		<tag k="fixme" v="consider natural=peak for the most distinct mountains in the district" />
		<tag k="name" v="Audjordsfjøddi" />
		<tag k="natural" v="hill" />
		<tag k="place" v="locality" />
		<tag k="ssr:stedsnr" v="520061" />
	</node>
	<node lat="59.28938611461832" lon="7.79185000828453" id="-19885">
		<tag k="name" v="Sløkjelia" />
		<tag k="natural" v="slope" />
		<tag k="place" v="locality" />
		<tag k="ssr:stedsnr" v="520184" />
	</node>
	<node lat="59.26999167019314" lon="7.741700001683622" id="-19888">
		<tag k="alt_name" v="Vebergfjødde" />
		<tag k="fixme" v="consider natural=peak for the most distinct mountains in the district" />
		<tag k="name" v="Vegbergfjøddi" />
		<tag k="natural" v="hill" />
		<tag k="place" v="locality" />
		<tag k="ssr:stedsnr" v="520210" />
	</node>
	<node lat="59.190322221892" lon="7.795063881044846" id="-19893">
		<tag k="name" v="Bergan" />
		<tag k="natural" v="hill" />
		<tag k="place" v="locality" />
		<tag k="ssr:stedsnr" v="521305" />
	</node>
	<node lat="59.18214166599576" lon="7.816808328122976" id="-19894">
		<tag k="name" v="Persskard" />
		<tag k="natural" v="valley" />
		<tag k="place" v="locality" />
		<tag k="ssr:stedsnr" v="521260" />
	</node>
	<node lat="59.17903333034929" lon="7.82216110413704" id="-19895">
		<tag k="fixme" v="consider natural=peak for the most distinct mountains in the district" />
		<tag k="name" v="Gjygeren" />
		<tag k="natural" v="hill" />
		<tag k="place" v="locality" />
		<tag k="ssr:stedsnr" v="521261" />
	</node>
	<node lat="59.209763886499" lon="8.243766660920395" id="-19896">
		<tag k="name" v="Grotstøylkvæven" />
		<tag k="natural" v="valley" />
		<tag k="place" v="locality" />
		<tag k="ssr:stedsnr" v="521423" />
	</node>
	<node lat="59.130274995726666" lon="7.956905560116634" id="-19898">
		<tag k="name" v="Ambulia" />
		<tag k="natural" v="slope" />
		<tag k="place" v="locality" />
		<tag k="ssr:stedsnr" v="521467" />
	</node>
	<node lat="59.23304166804819" lon="8.29289167293717" id="-19901">
		<tag k="name" v="Revedalen" />
		<tag k="natural" v="valley" />
		<tag k="place" v="locality" />
		<tag k="ssr:stedsnr" v="521670" />
	</node>
	<node lat="59.02497222246417" lon="8.188408331048825" id="-19905">
		<tag k="name" v="Bindalsfjellet" />
		<tag k="natural" v="hill" />
		<tag k="place" v="locality" />
		<tag k="ssr:stedsnr" v="530125" />
	</node>
	<node lat="58.997650003232145" lon="8.324894447415975" id="-19916">
		<tag k="name" v="Styggedalsnut" />
		<tag k="natural" v="hill" />
		<tag k="place" v="locality" />
		<tag k="ssr:stedsnr" v="533324" />
	</node>
	<node lat="58.9688083328273" lon="8.032144442075898" id="-19918">
		<tag k="name" v="Feltedalsristine" />
		<tag k="natural" v="ridge" />
		<tag k="place" v="locality" />
		<tag k="ssr:stedsnr" v="533211" />
	</node>
	<node lat="59.15330833360101" lon="8.114800001113649" id="-19919">
		<tag k="name" v="Jammerdalen" />
		<tag k="natural" v="valley" />
		<tag k="place" v="locality" />
		<tag k="ssr:stedsnr" v="533276" />
	</node>
	<node lat="59.178397223014876" lon="8.146447213564667" id="-19920">
		<tag k="name" v="Kjekhuslia" />
		<tag k="natural" v="slope" />
		<tag k="place" v="locality" />
		<tag k="ssr:stedsnr" v="533417" />
	</node>
	<node lat="59.182763885858336" lon="8.116191671971494" id="-19921">
		<tag k="name" v="Steindalen" />
		<tag k="natural" v="valley" />
		<tag k="place" v="locality" />
		<tag k="ssr:stedsnr" v="533474" />
	</node>
	<node lat="59.30988055469906" lon="8.056252780832265" id="-19928">
		<tag k="name" v="Skavlen" />
		<tag k="natural" v="ridge" />
		<tag k="place" v="locality" />
		<tag k="ssr:stedsnr" v="533718" />
	</node>
	<node lat="59.1378555530589" lon="8.159397227918005" id="-19929">
		<tag k="name" v="Støylsliane" />
		<tag k="natural" v="slope" />
		<tag k="place" v="locality" />
		<tag k="ssr:stedsnr" v="533721" />
	</node>
	<node lat="59.07303332943119" lon="8.145688889371845" id="-19930">
		<tag k="name" v="Langedal" />
		<tag k="natural" v="valley" />
		<tag k="place" v="locality" />
		<tag k="ssr:stedsnr" v="533802" />
	</node>
	<node lat="59.069277779249184" lon="8.324624995151089" id="-19931">
		<tag k="name" v="Sipleskard" />
		<tag k="natural" v="valley" />
		<tag k="place" v="locality" />
		<tag k="ssr:stedsnr" v="533903" />
	</node>
	<node lat="59.02955278226393" lon="7.916375004792387" id="-19934">
		<tag k="name" v="Stignuten" />
		<tag k="natural" v="hill" />
		<tag k="place" v="locality" />
		<tag k="ssr:stedsnr" v="534273" />
	</node>
	<node lat="59.18161111499951" lon="8.101647214778888" id="-19937">
		<tag k="name" v="Homlandsdalen" />
		<tag k="natural" v="valley" />
		<tag k="place" v="locality" />
		<tag k="ssr:stedsnr" v="534983" />
	</node>
	<node lat="59.32665277855496" lon="8.147799998083908" id="-19938">
		<tag k="name" v="Stigufs" />
		<tag k="natural" v="hill" />
		<tag k="place" v="locality" />
		<tag k="ssr:stedsnr" v="534870" />
	</node>
	<node lat="59.26663611060557" lon="8.00566666748454" id="-19941">
		<tag k="name" v="Storeto" />
		<tag k="place" v="locality" />
		<tag k="ssr:stedsnr" v="535074" />
	</node>
	<node lat="59.316611113967504" lon="7.8822666695709485" id="-19944">
		<tag k="name" v="Nystøyllii" />
		<tag k="natural" v="slope" />
		<tag k="place" v="locality" />
		<tag k="ssr:stedsnr" v="535506" />
	</node>
	<node lat="58.973761109641615" lon="8.283202782267864" id="-19945">
		<tag k="name" v="Rustedalen" />
		<tag k="natural" v="valley" />
		<tag k="place" v="locality" />
		<tag k="ssr:stedsnr" v="546871" />
	</node>
	<node lat="58.95917500352256" lon="8.128675004063343" id="-19946">
		<tag k="name" v="Hegestøyldalen" />
		<tag k="natural" v="valley" />
		<tag k="place" v="locality" />
		<tag k="ssr:stedsnr" v="546877" />
	</node>
	<node lat="59.23976111332091" lon="8.193880562510076" id="-19948">
		<tag k="alt_name" v="Fjellstøylnuten" />
		<tag k="fixme" v="consider natural=peak for the most distinct mountains in the district" />
		<tag k="name" v="Fjellstølnuten" />
		<tag k="natural" v="hill" />
		<tag k="place" v="locality" />
		<tag k="ssr:stedsnr" v="547016" />
	</node>
	<node lat="59.15227499845958" lon="8.15581111906462" id="-19954">
		<tag k="fixme" v="consider natural=peak for the most distinct mountains in the district" />
		<tag k="name" v="Tverrfjell" />
		<tag k="natural" v="hill" />
		<tag k="place" v="locality" />
		<tag k="ssr:stedsnr" v="547122" />
	</node>
	<node lat="59.11099166326712" lon="8.256488889294374" id="-19955">
		<tag k="alt_name" v="Fisketjørnnuten" />
		<tag k="fixme" v="consider natural=peak for the most distinct mountains in the district" />
		<tag k="name" v="Fisketjønnuten" />
		<tag k="natural" v="hill" />
		<tag k="place" v="locality" />
		<tag k="ssr:stedsnr" v="547186" />
	</node>
	<node lat="59.10300277598349" lon="8.210233325345696" id="-19956">
		<tag k="alt_name" v="Brautestøylnuten" />
		<tag k="fixme" v="consider natural=peak for the most distinct mountains in the district" />
		<tag k="name" v="Brautestølnuten" />
		<tag k="natural" v="hill" />
		<tag k="place" v="locality" />
		<tag k="ssr:stedsnr" v="547195" />
	</node>
	<node lat="59.23223610760877" lon="7.91203333510348" id="-19958">
		<tag k="alt_name" v="Ramnefjell" />
		<tag k="fixme" v="consider natural=peak for the most distinct mountains in the district" />
		<tag k="name" v="Ramnefjødd" />
		<tag k="natural" v="hill" />
		<tag k="place" v="locality" />
		<tag k="ssr:stedsnr" v="547369" />
	</node>
	<node lat="59.04160555164266" lon="8.230602770886927" id="-19963">
		<tag k="name" v="Lønhomstolpen" />
		<tag k="natural" v="hill" />
		<tag k="place" v="locality" />
		<tag k="ssr:stedsnr" v="547266" />
	</node>
	<node lat="59.035924999481274" lon="8.226302769399092" id="-19964">
		<tag k="alt_name" v="Kyndelsmessnuten" />
		<tag k="fixme" v="consider natural=peak for the most distinct mountains in the district" />
		<tag k="name" v="Kyndelsmessnetten" />
		<tag k="natural" v="hill" />
		<tag k="place" v="locality" />
		<tag k="ssr:stedsnr" v="547275" />
	</node>
	<node lat="58.96539999802636" lon="8.048452772638582" id="-19967">
		<tag k="name" v="Gråndalen" />
		<tag k="natural" v="valley" />
		<tag k="place" v="locality" />
		<tag k="ssr:stedsnr" v="547680" />
	</node>
	<node lat="58.9918861080168" lon="8.322088895977377" id="-19968">
		<tag k="alt_name" v="Broneberga" />
		<tag k="fixme" v="consider natural=peak for the most distinct mountains in the district" />
		<tag k="name" v="Bronbergi" />
		<tag k="natural" v="hill" />
		<tag k="place" v="locality" />
		<tag k="ssr:stedsnr" v="547875" />
	</node>
	<node lat="58.99834999923067" lon="8.298011112983595" id="-19970">
		<tag k="alt_name" v="Husfjell" />
		<tag k="fixme" v="consider natural=peak for the most distinct mountains in the district" />
		<tag k="name" v="Husefjell" />
		<tag k="natural" v="hill" />
		<tag k="place" v="locality" />
		<tag k="ssr:stedsnr" v="547885" />
	</node>
	<node lat="59.21927777580957" lon="8.194608333245093" id="-19971">
		<tag k="fixme" v="consider natural=peak for the most distinct mountains in the district" />
		<tag k="name" v="Høgenuten" />
		<tag k="natural" v="hill" />
		<tag k="place" v="locality" />
		<tag k="ssr:stedsnr" v="548060" />
	</node>
	<node lat="59.08853610798781" lon="7.897175007029443" id="-19973">
		<tag k="alt_name" v="Ureheia" />
		<tag k="fixme" v="consider natural=peak for the most distinct mountains in the district" />
		<tag k="name" v="Urdeheii" />
		<tag k="natural" v="hill" />
		<tag k="place" v="locality" />
		<tag k="ssr:stedsnr" v="548460" />
	</node>
	<node lat="59.262555556713956" lon="8.247313880425214" id="-19974">
		<tag k="alt_name" v="Hestekvævnutane" />
		<tag k="fixme" v="consider natural=peak for the most distinct mountains in the district" />
		<tag k="name" v="Hestekvævnuten" />
		<tag k="natural" v="hill" />
		<tag k="place" v="locality" />
		<tag k="ssr:stedsnr" v="548197" />
	</node>
	<node lat="59.11756666478365" lon="7.804588895584112" id="-19984">
		<tag k="name" v="Tretteskorskardet" />
		<tag k="natural" v="valley" />
		<tag k="place" v="locality" />
		<tag k="ssr:stedsnr" v="569605" />
	</node>
	<node lat="59.19606944359436" lon="7.929908329118967" id="-19985">
		<tag k="fixme" v="consider natural=peak for the most distinct mountains in the district" />
		<tag k="name" v="Nonnuten" />
		<tag k="natural" v="hill" />
		<tag k="place" v="locality" />
		<tag k="ssr:stedsnr" v="573005" />
	</node>
	<node lat="59.15098888789843" lon="7.804411119048801" id="-19991">
		<tag k="name" v="Hestekvæven" />
		<tag k="natural" v="valley" />
		<tag k="place" v="locality" />
		<tag k="ssr:stedsnr" v="695036" />
	</node>
	<node lat="59.229325002308414" lon="7.773113893653664" id="-19992">
		<tag k="name" v="Himmelkvæven" />
		<tag k="natural" v="valley" />
		<tag k="place" v="locality" />
		<tag k="ssr:stedsnr" v="695045" />
	</node>
	<node lat="59.083030552350884" lon="7.857469442877557" id="-19993">
		<tag k="alt_name" v="Skarketjørnsfjellet" />
		<tag k="name" v="Skarketjønnfjell" />
		<tag k="natural" v="hill" />
		<tag k="place" v="locality" />
		<tag k="ssr:stedsnr" v="695052" />
	</node>
	<node lat="59.243213893355254" lon="8.094997214806028" id="-19998">
		<tag k="fixme" v="consider natural=peak for the most distinct mountains in the district" />
		<tag k="name" v="Asklandsåsen" />
		<tag k="natural" v="hill" />
		<tag k="place" v="locality" />
		<tag k="ssr:stedsnr" v="579493" />
	</node>
	<node lat="59.23113889197391" lon="8.020322228026293" id="-20001">
		<tag k="fixme" v="consider natural=peak for the most distinct mountains in the district" />
		<tag k="name" v="Kleivnuten" />
		<tag k="natural" v="hill" />
		<tag k="place" v="locality" />
		<tag k="ssr:stedsnr" v="580207" />
	</node>
	<node lat="59.135705557758634" lon="8.017538885741043" id="-20003">
		<tag k="name" v="Breiskotet" />
		<tag k="natural" v="slope" />
		<tag k="place" v="locality" />
		<tag k="ssr:stedsnr" v="580326" />
	</node>
	<node lat="59.245369443954026" lon="7.938349996991231" id="-20006">
		<tag k="name" v="Gonsteinsto" />
		<tag k="natural" v="slope" />
		<tag k="place" v="locality" />
		<tag k="ssr:stedsnr" v="580554" />
	</node>
	<node lat="59.218519444948214" lon="7.835916666520543" id="-20010">
		<tag k="name" v="Sveigsto" />
		<tag k="natural" v="slope" />
		<tag k="place" v="locality" />
		<tag k="ssr:stedsnr" v="580497" />
	</node>
	<node lat="59.217752780952246" lon="7.796550006385418" id="-20013">
		<tag k="name" v="Gaukåsskari" />
		<tag k="natural" v="valley" />
		<tag k="place" v="locality" />
		<tag k="ssr:stedsnr" v="581114" />
	</node>
	<node lat="59.275497219124524" lon="7.777919440589671" id="-20015">
		<tag k="name" v="Kråkodden" />
		<tag k="place" v="locality" />
		<tag k="ssr:stedsnr" v="581013" />
	</node>
	<node lat="59.134705558485166" lon="7.955819449402628" id="-20020">
		<tag k="fixme" v="consider natural=peak for the most distinct mountains in the district" />
		<tag k="name" v="Ambulijøkulen" />
		<tag k="natural" v="hill" />
		<tag k="place" v="locality" />
		<tag k="ssr:stedsnr" v="581511" />
	</node>
	<node lat="59.160105551813636" lon="7.775661110092245" id="-20026">
		<tag k="name" v="Heidisdal" />
		<tag k="natural" v="valley" />
		<tag k="place" v="locality" />
		<tag k="ssr:stedsnr" v="582941" />
	</node>
	<node lat="59.07074722508773" lon="8.34343333075235" id="-20027">
		<tag k="name" v="Nordre Siplelia" />
		<tag k="natural" v="slope" />
		<tag k="place" v="locality" />
		<tag k="ssr:stedsnr" v="590013" />
	</node>
	<node lat="58.9756972254848" lon="8.195699998685026" id="-20037">
		<tag k="name" v="Mjåvassnuten" />
		<tag k="natural" v="hill" />
		<tag k="place" v="locality" />
		<tag k="ssr:stedsnr" v="593959" />
	</node>
	<node lat="58.99956110966038" lon="8.263336117192933" id="-20040">
		<tag k="name" v="Lisle Barlinddalen" />
		<tag k="natural" v="valley" />
		<tag k="place" v="locality" />
		<tag k="ssr:stedsnr" v="594203" />
	</node>
	<node lat="59.254055556389105" lon="8.150994443478547" id="-20042">
		<tag k="name" v="Sjavskottoa" />
		<tag k="place" v="locality" />
		<tag k="ssr:stedsnr" v="594253" />
	</node>
	<node lat="59.34840555536657" lon="8.065244445474118" id="-20044">
		<tag k="name" v="Tjovskori" />
		<tag k="natural" v="cliff" />
		<tag k="ssr:stedsnr" v="594515" />
	</node>
	<node lat="59.32371666659607" lon="8.19691388382781" id="-20049">
		<tag k="name" v="Fjøsåsen" />
		<tag k="natural" v="hill" />
		<tag k="place" v="locality" />
		<tag k="ssr:stedsnr" v="594707" />
	</node>
	<node lat="59.036175000837915" lon="8.268688882549242" id="-20050">
		<tag k="name" v="Revurdalen" />
		<tag k="natural" v="valley" />
		<tag k="place" v="locality" />
		<tag k="ssr:stedsnr" v="594800" />
	</node>
	<node lat="59.03292777525174" lon="8.099630551849241" id="-20052">
		<tag k="name" v="Bergheia" />
		<tag k="natural" v="hill" />
		<tag k="place" v="locality" />
		<tag k="ssr:stedsnr" v="594906" />
	</node>
	<node lat="59.11576110809842" lon="8.03118054879837" id="-20058">
		<tag k="name" v="Jordtjønndalen" />
		<tag k="natural" v="valley" />
		<tag k="place" v="locality" />
		<tag k="ssr:stedsnr" v="595166" />
	</node>
	<node lat="59.119052775483965" lon="7.999597220650749" id="-20060">
		<tag k="name" v="Svårtskreheia" />
		<tag k="natural" v="hill" />
		<tag k="place" v="locality" />
		<tag k="ssr:stedsnr" v="595168" />
	</node>
	<node lat="59.259266668503194" lon="8.04166943854722" id="-20061">
		<tag k="name" v="Bekkedalen" />
		<tag k="natural" v="valley" />
		<tag k="place" v="locality" />
		<tag k="ssr:stedsnr" v="595169" />
	</node>
	<node lat="59.33576388873181" lon="7.924819451254357" id="-20064">
		<tag k="name" v="Storselli" />
		<tag k="natural" v="hill" />
		<tag k="place" v="locality" />
		<tag k="ssr:stedsnr" v="595563" />
	</node>
	<node lat="59.29607499699126" lon="8.026219449893727" id="-20066">
		<tag k="fixme" v="consider natural=peak for the most distinct mountains in the district" />
		<tag k="name" v="Jeddenuten" />
		<tag k="natural" v="hill" />
		<tag k="place" v="locality" />
		<tag k="ssr:stedsnr" v="595902" />
	</node>
	<node lat="59.25968611536072" lon="7.996452781796043" id="-20067">
		<tag k="name" v="Øvre Vardalen" />
		<tag k="natural" v="valley" />
		<tag k="place" v="locality" />
		<tag k="ssr:stedsnr" v="595909" />
	</node>
	<node lat="59.19751667007461" lon="7.977808329504027" id="-20075">
		<tag k="name" v="Hestekvæven" />
		<tag k="natural" v="valley" />
		<tag k="place" v="locality" />
		<tag k="ssr:stedsnr" v="607364" />
	</node>
	<node lat="59.17481388590364" lon="7.970599999601878" id="-20077">
		<tag k="alt_name" v="Hedderfjell" />
		<tag k="fixme" v="consider natural=peak for the most distinct mountains in the district" />
		<tag k="name" v="Hellerfjell" />
		<tag k="natural" v="hill" />
		<tag k="place" v="locality" />
		<tag k="ssr:stedsnr" v="607399" />
	</node>
	<node lat="58.99411388894263" lon="8.189127781072077" id="-20080">
		<tag k="alt_name" v="Grøtjørnnuten" />
		<tag k="fixme" v="consider natural=peak for the most distinct mountains in the district" />
		<tag k="name" v="Grøtjønnuten" />
		<tag k="natural" v="hill" />
		<tag k="place" v="locality" />
		<tag k="ssr:stedsnr" v="607845" />
	</node>
	<node lat="59.246063891532714" lon="8.258841658165748" id="-20081">
		<tag k="alt_name" v="Sveigstølnuten" />
		<tag k="fixme" v="consider natural=peak for the most distinct mountains in the district" />
		<tag k="name" v="Sveigestøylnuten" />
		<tag k="natural" v="hill" />
		<tag k="place" v="locality" />
		<tag k="ssr:stedsnr" v="608016" />
	</node>
	<node lat="59.24227500239599" lon="8.122655549125279" id="-20082">
		<tag k="alt_name" v="Bjønnåsen" />
		<tag k="fixme" v="consider natural=peak for the most distinct mountains in the district" />
		<tag k="name" v="Bjørnåsen" />
		<tag k="natural" v="hill" />
		<tag k="place" v="locality" />
		<tag k="ssr:stedsnr" v="608020" />
	</node>
	<node lat="59.12837499589171" lon="8.202313896753733" id="-20085">
		<tag k="fixme" v="consider natural=peak for the most distinct mountains in the district" />
		<tag k="name" v="Aslomfjellet" />
		<tag k="natural" v="hill" />
		<tag k="place" v="locality" />
		<tag k="ssr:stedsnr" v="608141" />
	</node>
	<node lat="59.04943611165104" lon="8.288705548480484" id="-20087">
		<tag k="alt_name" v="Grisemyrnuten" />
		<tag k="name" v="Grismyrnuten" />
		<tag k="natural" v="hill" />
		<tag k="place" v="locality" />
		<tag k="ssr:stedsnr" v="608193" />
	</node>
	<node lat="59.26690555700432" lon="8.132316658173437" id="-20088">
		<tag k="name" v="Mørkedalen" />
		<tag k="natural" v="valley" />
		<tag k="place" v="locality" />
		<tag k="ssr:stedsnr" v="608197" />
	</node>
	<node lat="59.317324999450726" lon="7.714697224668735" id="-20099">
		<tag k="name" v="Fagredalen" />
		<tag k="natural" v="valley" />
		<tag k="old_name" v="Fagerdal" />
		<tag k="place" v="locality" />
		<tag k="ssr:stedsnr" v="608542" />
	</node>
	<node lat="59.28768332933206" lon="7.939536107748939" id="-20103">
		<tag k="fixme" v="consider natural=peak for the most distinct mountains in the district" />
		<tag k="name" v="Hovdenuten" />
		<tag k="natural" v="hill" />
		<tag k="place" v="locality" />
		<tag k="ssr:stedsnr" v="609906" />
	</node>
	<node lat="59.26113055749908" lon="7.786777784259274" id="-20105">
		<tag k="fixme" v="consider natural=peak for the most distinct mountains in the district" />
		<tag k="name" v="Ukvitnuten" />
		<tag k="natural" v="hill" />
		<tag k="place" v="locality" />
		<tag k="ssr:stedsnr" v="609926" />
	</node>
	<node lat="59.2123777746057" lon="8.11954444653675" id="-20112">
		<tag k="name" v="Fidjekøsa" />
		<tag k="natural" v="slope" />
		<tag k="place" v="locality" />
		<tag k="ssr:stedsnr" v="701052" />
	</node>
	<node lat="59.21829166933167" lon="7.947619444663718" id="-20120">
		<tag k="fixme" v="consider natural=peak for the most distinct mountains in the district" />
		<tag k="name" v="Middagsnuten" />
		<tag k="natural" v="hill" />
		<tag k="place" v="locality" />
		<tag k="ssr:stedsnr" v="701885" />
	</node>
	<node lat="59.22851944192826" lon="7.996197214239418" id="-20122">
		<tag k="fixme" v="consider natural=peak for the most distinct mountains in the district" />
		<tag k="name" v="Henriksnetten" />
		<tag k="natural" v="hill" />
		<tag k="place" v="locality" />
		<tag k="ssr:stedsnr" v="701912" />
	</node>
	<node lat="59.25967499609187" lon="7.754113896141388" id="-20125">
		<tag k="name" v="Sollidalen" />
		<tag k="place" v="locality" />
		<tag k="ssr:stedsnr" v="702198" />
	</node>
	<node lat="59.31404167089474" lon="7.727430547251769" id="-20127">
		<tag k="fixme" v="consider natural=peak for the most distinct mountains in the district" />
		<tag k="name" v="Blomstøylnuten" />
		<tag k="natural" v="hill" />
		<tag k="place" v="locality" />
		<tag k="ssr:stedsnr" v="702293" />
	</node>
	<node lat="59.24710000234075" lon="8.017872216501457" id="-20129">
		<tag k="fixme" v="consider natural=peak for the most distinct mountains in the district" />
		<tag k="name" v="Espenut" />
		<tag k="natural" v="hill" />
		<tag k="place" v="locality" />
		<tag k="ssr:stedsnr" v="702257" />
	</node>
	<node lat="59.12661111346285" lon="8.024255562026202" id="-20130">
		<tag k="name" v="Rosshammaren" />
		<tag k="place" v="locality" />
		<tag k="ssr:stedsnr" v="702351" />
	</node>
	<node lat="59.247674997548884" lon="7.981536107032899" id="-20131">
		<tag k="fixme" v="consider natural=peak for the most distinct mountains in the district" />
		<tag k="name" v="Saupstøylnuten" />
		<tag k="natural" v="hill" />
		<tag k="place" v="locality" />
		<tag k="ssr:stedsnr" v="702558" />
	</node>
	<node lat="59.232049999886776" lon="8.22452500492825" id="-20134">
		<tag k="name" v="Muren" />
		<tag k="place" v="locality" />
		<tag k="ssr:stedsnr" v="703101" />
	</node>
	<node lat="59.15892221936967" lon="7.976891669490762" id="-20138">
		<tag k="fixme" v="consider natural=peak for the most distinct mountains in the district" />
		<tag k="name" v="Sjåbergnuten" />
		<tag k="natural" v="hill" />
		<tag k="place" v="locality" />
		<tag k="ssr:stedsnr" v="703441" />
	</node>
	<node lat="59.24978610997641" lon="7.877913897403094" id="-20139">
		<tag k="fixme" v="consider natural=peak for the most distinct mountains in the district" />
		<tag k="name" v="Lifjell" />
		<tag k="natural" v="hill" />
		<tag k="place" v="locality" />
		<tag k="ssr:stedsnr" v="703549" />
	</node>
	<node lat="59.14644722636555" lon="7.924097222431954" id="-20141">
		<tag k="name" v="Høyskvævristine" />
		<tag k="natural" v="valley" />
		<tag k="place" v="locality" />
		<tag k="ssr:stedsnr" v="703632" />
	</node>
	<node lat="59.19072777604382" lon="7.880402776211252" id="-20143">
		<tag k="name" v="Tåraldskvæv" />
		<tag k="natural" v="valley" />
		<tag k="place" v="locality" />
		<tag k="ssr:stedsnr" v="703778" />
	</node>
	<node lat="59.29585000076627" lon="7.982458337131903" id="-20151">
		<tag k="alt_name" v="Haddron" />
		<tag k="name" v="Haddroen" />
		<tag k="natural" v="slope" />
		<tag k="place" v="locality" />
		<tag k="ssr:stedsnr" v="633395" />
	</node>
	<node lat="59.17750833258539" lon="7.996500005741457" id="-20153">
		<tag k="alt_name" v="Svartviknuten" />
		<tag k="name" v="Svarteviknuten" />
		<tag k="natural" v="hill" />
		<tag k="place" v="locality" />
		<tag k="ssr:stedsnr" v="633510" />
	</node>
	<node lat="59.11776944111838" lon="8.229227771759602" id="-20158">
		<tag k="name" v="Hattefjellet" />
		<tag k="natural" v="hill" />
		<tag k="place" v="locality" />
		<tag k="ssr:stedsnr" v="634581" />
	</node>
	<node lat="59.246933333210315" lon="8.101027784226975" id="-20162">
		<tag k="name" v="Smedalen" />
		<tag k="natural" v="valley" />
		<tag k="place" v="locality" />
		<tag k="ssr:stedsnr" v="640436" />
	</node>
	<node lat="59.20286111390969" lon="8.053216660385283" id="-20166">
		<tag k="name" v="Snartelandslia" />
		<tag k="natural" v="slope" />
		<tag k="place" v="locality" />
		<tag k="ssr:stedsnr" v="640825" />
	</node>
	<node lat="59.27701666236125" lon="7.739408329255964" id="-20173">
		<tag k="name" v="Vebergkroa" />
		<tag k="place" v="locality" />
		<tag k="ssr:stedsnr" v="641327" />
	</node>
	<node lat="59.274266667210746" lon="7.740672223074311" id="-20174">
		<tag k="name" v="Finnkro" />
		<tag k="place" v="locality" />
		<tag k="ssr:stedsnr" v="641332" />
	</node>
	<node lat="59.23563610690209" lon="8.017750007707486" id="-20178">
		<tag k="fixme" v="consider natural=peak for the most distinct mountains in the district" />
		<tag k="name" v="Kåsafjøddi" />
		<tag k="natural" v="hill" />
		<tag k="place" v="locality" />
		<tag k="ssr:stedsnr" v="641266" />
	</node>
	<node lat="59.25748611019348" lon="7.8025916602944765" id="-20180">
		<tag k="fixme" v="consider natural=peak for the most distinct mountains in the district" />
		<tag k="name" v="Bronlifjøddi" />
		<tag k="natural" v="hill" />
		<tag k="place" v="locality" />
		<tag k="ssr:stedsnr" v="641808" />
	</node>
	<node lat="59.15785555270803" lon="7.794158327964629" id="-20186">
		<tag k="name" v="Skorskaret" />
		<tag k="natural" v="valley" />
		<tag k="place" v="locality" />
		<tag k="ssr:stedsnr" v="643931" />
	</node>
	<node lat="59.047288887694826" lon="8.177788880236198" id="-20187">
		<tag k="name" v="Svartvikreet" />
		<tag k="natural" v="valley" />
		<tag k="place" v="locality" />
		<tag k="ssr:stedsnr" v="650241" />
	</node>
	<node lat="58.9908138878952" lon="8.249608329230117" id="-20188">
		<tag k="name" v="Trongedal" />
		<tag k="natural" v="valley" />
		<tag k="place" v="locality" />
		<tag k="ssr:stedsnr" v="651103" />
	</node>
	<node lat="59.27414166413124" lon="8.130613896829662" id="-20194">
		<tag k="name" v="Mørkedalsskaret" />
		<tag k="natural" v="valley" />
		<tag k="place" v="locality" />
		<tag k="ssr:stedsnr" v="654105" />
	</node>
	<node lat="58.984336110810936" lon="8.32542499237911" id="-20195">
		<tag k="name" v="Ronmodalen" />
		<tag k="natural" v="valley" />
		<tag k="place" v="locality" />
		<tag k="ssr:stedsnr" v="654040" />
	</node>
	<node lat="59.171655558235614" lon="8.118972214611365" id="-20197">
		<tag k="name" v="Jennbergsmøget" />
		<tag k="place" v="locality" />
		<tag k="ssr:stedsnr" v="654411" />
	</node>
	<node lat="59.29188333694525" lon="8.251438881548856" id="-20199">
		<tag k="name" v="Gråndalen" />
		<tag k="natural" v="valley" />
		<tag k="place" v="locality" />
		<tag k="ssr:stedsnr" v="654435" />
	</node>
	<node lat="59.17870555257109" lon="8.208463882060272" id="-20201">
		<tag k="name" v="Høndalen" />
		<tag k="natural" v="valley" />
		<tag k="place" v="locality" />
		<tag k="ssr:stedsnr" v="654394" />
	</node>
	<node lat="59.02048055838591" lon="8.131541670450693" id="-20206">
		<tag k="name" v="Heknedalen" />
		<tag k="natural" v="valley" />
		<tag k="place" v="locality" />
		<tag k="ssr:stedsnr" v="654832" />
	</node>
	<node lat="59.014822221365606" lon="8.273133334344505" id="-20207">
		<tag k="name" v="Fyrismoen" />
		<tag k="place" v="locality" />
		<tag k="ssr:stedsnr" v="654841" />
	</node>
	<node lat="59.06977778211169" lon="7.970444450348439" id="-20217">
		<tag k="name" v="Bergheia" />
		<tag k="natural" v="hill" />
		<tag k="place" v="locality" />
		<tag k="ssr:stedsnr" v="655112" />
	</node>
	<node lat="59.152894444777054" lon="7.754852781742121" id="-20220">
		<tag k="name" v="Varmedal" />
		<tag k="natural" v="valley" />
		<tag k="place" v="locality" />
		<tag k="ssr:stedsnr" v="655809" />
	</node>
	<node lat="58.992686113943975" lon="8.025305560998294" id="-20227">
		<tag k="name" v="Hestehagskaret" />
		<tag k="natural" v="valley" />
		<tag k="place" v="locality" />
		<tag k="ssr:stedsnr" v="656230" />
	</node>
	<node lat="59.26689166366113" lon="7.937555562165879" id="-20229">
		<tag k="name" v="Storsetkvæven" />
		<tag k="natural" v="valley" />
		<tag k="place" v="locality" />
		<tag k="ssr:stedsnr" v="656320" />
	</node>
	<node lat="59.07160555903293" lon="8.3215305501677" id="-20233">
		<tag k="fixme" v="consider natural=peak for the most distinct mountains in the district" />
		<tag k="name" v="Sletteheinuten" />
		<tag k="natural" v="hill" />
		<tag k="place" v="locality" />
		<tag k="ssr:stedsnr" v="668237" />
	</node>
	<node lat="59.18127221980212" lon="7.920349995093348" id="-20235">
		<tag k="fixme" v="consider natural=peak for the most distinct mountains in the district" />
		<tag k="name" v="Borgefjell" />
		<tag k="natural" v="hill" />
		<tag k="place" v="locality" />
		<tag k="ssr:stedsnr" v="668406" />
	</node>
	<node lat="58.96392500253893" lon="8.303838883302749" id="-20240">
		<tag k="name" v="Kovane" />
		<tag k="natural" v="valley" />
		<tag k="place" v="locality" />
		<tag k="ssr:stedsnr" v="668916" />
	</node>
	<node lat="59.143699996044916" lon="8.2504111137133" id="-20242">
		<tag k="alt_name" v="Båsliane" />
		<tag k="name" v="Båsli" />
		<tag k="natural" v="slope" />
		<tag k="place" v="locality" />
		<tag k="ssr:stedsnr" v="669080" />
	</node>
	<node lat="59.152527777761584" lon="8.129016668380494" id="-20244">
		<tag k="alt_name" v="Fisketjørnåsen" />
		<tag k="fixme" v="consider natural=peak for the most distinct mountains in the district" />
		<tag k="name" v="Fisketjønnåsen" />
		<tag k="natural" v="hill" />
		<tag k="place" v="locality" />
		<tag k="ssr:stedsnr" v="669093" />
	</node>
	<node lat="59.27526111479336" lon="8.31020277822163" id="-20247">
		<tag k="fixme" v="consider natural=peak for the most distinct mountains in the district" />
		<tag k="name" v="Sveinsheii" />
		<tag k="natural" v="hill" />
		<tag k="place" v="locality" />
		<tag k="ssr:stedsnr" v="669212" />
	</node>
	<node lat="59.13699166523294" lon="8.235213895982051" id="-20248">
		<tag k="alt_name" v="Smedalshola" />
		<tag k="name" v="Smedalsholet" />
		<tag k="natural" v="valley" />
		<tag k="place" v="locality" />
		<tag k="ssr:stedsnr" v="669127" />
	</node>
	<node lat="59.142263885647004" lon="8.274113882723407" id="-20249">
		<tag k="alt_name" v="Bakheii" />
		<tag k="fixme" v="consider natural=peak for the most distinct mountains in the district" />
		<tag k="name" v="Bakheia" />
		<tag k="natural" v="hill" />
		<tag k="place" v="locality" />
		<tag k="ssr:stedsnr" v="669129" />
	</node>
	<node lat="59.268066669677644" lon="8.290741675268858" id="-20253">
		<tag k="name" v="Langedal" />
		<tag k="natural" v="valley" />
		<tag k="place" v="locality" />
		<tag k="ssr:stedsnr" v="669187" />
	</node>
	<node lat="59.146472224910916" lon="7.861163892584101" id="-20257">
		<tag k="alt_name" v="Rappolifjell" />
		<tag k="fixme" v="consider natural=peak for the most distinct mountains in the district" />
		<tag k="name" v="Rotbulifjellet" />
		<tag k="natural" v="hill" />
		<tag k="place" v="locality" />
		<tag k="ssr:stedsnr" v="669409" />
	</node>
	<node lat="59.265763884639036" lon="8.039244437914371" id="-20261">
		<tag k="fixme" v="consider natural=peak for the most distinct mountains in the district" />
		<tag k="name" v="Håsomfjellet" />
		<tag k="natural" v="hill" />
		<tag k="place" v="locality" />
		<tag k="ssr:stedsnr" v="669916" />
	</node>
	<node lat="59.01128611001852" lon="8.162513884426668" id="-20266">
		<tag k="alt_name" v="Nusslinuten" />
		<tag k="fixme" v="consider natural=peak for the most distinct mountains in the district" />
		<tag k="name" v="Knutslinuten" />
		<tag k="natural" v="hill" />
		<tag k="place" v="locality" />
		<tag k="ssr:stedsnr" v="669991" />
	</node>
	<node lat="59.29273333125731" lon="8.010572229754198" id="-20269">
		<tag k="alt_name" v="Skarsheii" />
		<tag k="fixme" v="consider natural=peak for the most distinct mountains in the district" />
		<tag k="name" v="Skardsheii" />
		<tag k="natural" v="hill" />
		<tag k="place" v="locality" />
		<tag k="ssr:stedsnr" v="670972" />
	</node>
	<node lat="58.99761666313997" lon="8.36033611505609" id="-20270">
		<tag k="name" v="Storli" />
		<tag k="natural" v="slope" />
		<tag k="place" v="locality" />
		<tag k="ssr:stedsnr" v="682055" />
	</node>
	<node lat="59.3551972207745" lon="8.053999995187542" id="-20271">
		<tag k="alt_name" v="Bjørndalen" />
		<tag k="name" v="Bjønndalen" />
		<tag k="natural" v="valley" />
		<tag k="place" v="locality" />
		<tag k="ssr:stedsnr" v="694323" />
	</node>
	<node lat="59.10603333510984" lon="7.82667221973015" id="-20272">
		<tag k="alt_name" v="Bjønnenutane" />
		<tag k="name" v="Bjørnnuten" />
		<tag k="natural" v="hill" />
		<tag k="place" v="locality" />
		<tag k="ssr:stedsnr" v="695012" />
	</node>
	<node lat="59.220658333040994" lon="7.807652782976583" id="-20273">
		<tag k="name" v="Gaukåsskardet" />
		<tag k="natural" v="valley" />
		<tag k="place" v="locality" />
		<tag k="ssr:stedsnr" v="695024" />
	</node>
	<node lat="59.03299999812323" lon="7.9497138908327" id="-20274">
		<tag k="alt_name" v="Hagåskulten" />
		<tag k="fixme" v="consider natural=peak for the most distinct mountains in the district" />
		<tag k="name" v="Hågås" />
		<tag k="natural" v="hill" />
		<tag k="old_name" v="Hagåskollen" />
		<tag k="place" v="locality" />
		<tag k="ssr:stedsnr" v="695072" />
	</node>
	<node lat="59.16685000071694" lon="7.842183338535925" id="-20277">
		<tag k="name" v="Ramsdalen" />
		<tag k="natural" v="valley" />
		<tag k="place" v="locality" />
		<tag k="ssr:stedsnr" v="695516" />
	</node>
	<node lat="59.0009611148596" lon="8.346291659572636" id="-20278">
		<tag k="name" v="Nedre Lauvnut" />
		<tag k="natural" v="hill" />
		<tag k="place" v="locality" />
		<tag k="ssr:stedsnr" v="895040" />
	</node>
	<node lat="59.29119722289871" lon="7.815191672662743" id="-20280">
		<tag k="name" v="Tykrape" />
		<tag k="place" v="locality" />
		<tag k="ssr:stedsnr" v="702006" />
	</node>
	<node lat="59.27142500056543" lon="7.809911113439477" id="-20281">
		<tag k="name" v="Storli" />
		<tag k="natural" v="slope" />
		<tag k="place" v="locality" />
		<tag k="ssr:stedsnr" v="702007" />
	</node>
	<node lat="59.235297220290086" lon="7.990669438029418" id="-20286">
		<tag k="name" v="Brattlandsnuten" />
		<tag k="natural" v="hill" />
		<tag k="place" v="locality" />
		<tag k="ssr:stedsnr" v="702442" />
	</node>
	<node lat="59.296747219767234" lon="7.766694449305133" id="-20288">
		<tag k="fixme" v="consider natural=peak for the most distinct mountains in the district" />
		<tag k="name" v="Piggenuten" />
		<tag k="natural" v="hill" />
		<tag k="place" v="locality" />
		<tag k="ssr:stedsnr" v="702363" />
	</node>
	<node lat="59.30634444105463" lon="7.770750007186743" id="-20289">
		<tag k="name" v="Turtelia" />
		<tag k="natural" v="slope" />
		<tag k="place" v="locality" />
		<tag k="ssr:stedsnr" v="702368" />
	</node>
	<node lat="59.31078333434134" lon="7.7694916719054605" id="-20290">
		<tag k="name" v="Turtelikvæven" />
		<tag k="natural" v="valley" />
		<tag k="place" v="locality" />
		<tag k="ssr:stedsnr" v="702370" />
	</node>
	<node lat="59.29194444642701" lon="7.75393610639655" id="-20291">
		<tag k="name" v="Skrubbehaugane" />
		<tag k="natural" v="hill" />
		<tag k="place" v="locality" />
		<tag k="ssr:stedsnr" v="702373" />
	</node>
	<node lat="59.25102777722381" lon="7.7896805503331334" id="-20294">
		<tag k="fixme" v="consider natural=peak for the most distinct mountains in the district" />
		<tag k="name" v="Naseheia" />
		<tag k="natural" v="hill" />
		<tag k="place" v="locality" />
		<tag k="ssr:stedsnr" v="702821" />
	</node>
	<node lat="59.186949997905664" lon="7.778608333141243" id="-20299">
		<tag k="fixme" v="consider natural=peak for the most distinct mountains in the district" />
		<tag k="name" v="Rondemann" />
		<tag k="natural" v="hill" />
		<tag k="place" v="locality" />
		<tag k="ssr:stedsnr" v="703334" />
	</node>
	<node lat="59.21998611326702" lon="8.234547225788145" id="-20302">
		<tag k="name" v="Røyskattlia" />
		<tag k="natural" v="slope" />
		<tag k="place" v="locality" />
		<tag k="ssr:stedsnr" v="703514" />
	</node>
	<node lat="59.177744447768326" lon="7.889044443766767" id="-20303">
		<tag k="fixme" v="consider natural=peak for the most distinct mountains in the district" />
		<tag k="name" v="Peningnuten" />
		<tag k="natural" v="hill" />
		<tag k="place" v="locality" />
		<tag k="ssr:stedsnr" v="703873" />
	</node>
	<node lat="58.99804999918496" lon="8.260975007421454" id="-20304">
		<tag k="name" v="Lauvkrone" />
		<tag k="natural" v="slope" />
		<tag k="place" v="locality" />
		<tag k="ssr:stedsnr" v="897185" />
	</node>
	<node lat="59.309458331747635" lon="8.211827774906295" id="-20308">
		<tag k="name" v="Myrsendfjellet" />
		<tag k="natural" v="ridge" />
		<tag k="place" v="locality" />
		<tag k="ssr:stedsnr" v="897240" />
	</node>
	<node lat="59.179149999088246" lon="8.097644436250045" id="-20316">
		<tag k="name" v="Moghusdalen" />
		<tag k="natural" v="valley" />
		<tag k="place" v="locality" />
		<tag k="ssr:stedsnr" v="897772" />
	</node>
	<node lat="59.02644722023295" lon="8.134386111064932" id="-20317">
		<tag k="name" v="Kråka" />
		<tag k="natural" v="hill" />
		<tag k="place" v="locality" />
		<tag k="ssr:stedsnr" v="897791" />
	</node>
	<node lat="59.049469445944304" lon="7.992611103767271" id="-20324">
		<tag k="name" v="Håbakkåsen" />
		<tag k="natural" v="hill" />
		<tag k="place" v="locality" />
		<tag k="ssr:stedsnr" v="898001" />
	</node>
	<node lat="59.28996944140076" lon="8.220158329862544" id="-20326">
		<tag k="name" v="Roanholet" />
		<tag k="place" v="locality" />
		<tag k="ssr:stedsnr" v="898092" />
	</node>
	<node lat="59.05998888755721" lon="7.972430550949629" id="-20327">
		<tag k="name" v="Husarhaugen" />
		<tag k="natural" v="hill" />
		<tag k="place" v="locality" />
		<tag k="ssr:stedsnr" v="898095" />
	</node>
	<node lat="58.99023055350581" lon="8.234652781855155" id="-20329">
		<tag k="name" v="Søndre Rotedalen" />
		<tag k="natural" v="valley" />
		<tag k="place" v="locality" />
		<tag k="ssr:stedsnr" v="712079" />
	</node>
	<node lat="58.98843055738672" lon="8.272369439198151" id="-20330">
		<tag k="name" v="Straumsmoen" />
		<tag k="place" v="locality" />
		<tag k="ssr:stedsnr" v="712083" />
	</node>
	<node lat="59.10465833521172" lon="8.1645416645576" id="-20333">
		<tag k="name" v="Gamaløstknatten" />
		<tag k="natural" v="hill" />
		<tag k="place" v="locality" />
		<tag k="ssr:stedsnr" v="898323" />
	</node>
	<node lat="58.99817221968174" lon="7.944902773131602" id="-20336">
		<tag k="name" v="Tjønnåsheia" />
		<tag k="natural" v="hill" />
		<tag k="place" v="locality" />
		<tag k="ssr:stedsnr" v="898396" />
	</node>
	<node lat="59.05239166874874" lon="8.099972218340815" id="-20339">
		<tag k="name" v="Røynlidalen" />
		<tag k="natural" v="valley" />
		<tag k="place" v="locality" />
		<tag k="ssr:stedsnr" v="898449" />
	</node>
	<node lat="59.14736666414886" lon="8.090750006443043" id="-20341">
		<tag k="name" v="Løysnuten" />
		<tag k="natural" v="hill" />
		<tag k="place" v="locality" />
		<tag k="ssr:stedsnr" v="898576" />
	</node>
	<node lat="59.353136111276214" lon="8.069383330974201" id="-20342">
		<tag k="name" v="Krålkroi" />
		<tag k="natural" v="valley" />
		<tag k="place" v="locality" />
		<tag k="ssr:stedsnr" v="898516" />
	</node>
	<node lat="59.34100277680448" lon="8.056494442387592" id="-20343">
		<tag k="name" v="Fjøllstøylnuten" />
		<tag k="natural" v="hill" />
		<tag k="place" v="locality" />
		<tag k="ssr:stedsnr" v="898536" />
	</node>
	<node lat="59.1386999972884" lon="8.233741672468742" id="-20344">
		<tag k="name" v="Smedalsheia" />
		<tag k="natural" v="hill" />
		<tag k="place" v="locality" />
		<tag k="ssr:stedsnr" v="714511" />
	</node>
	<node lat="59.017674997641336" lon="8.37574165922107" id="-20347">
		<tag k="name" v="Skjevlemyrlia" />
		<tag k="natural" v="slope" />
		<tag k="place" v="locality" />
		<tag k="ssr:stedsnr" v="714683" />
	</node>
	<node lat="59.0029361067314" lon="8.21569721483035" id="-20349">
		<tag k="name" v="Bjønnebakk" />
		<tag k="natural" v="slope" />
		<tag k="place" v="locality" />
		<tag k="ssr:stedsnr" v="715008" />
	</node>
	<node lat="59.00445833542123" lon="8.170813897220153" id="-20350">
		<tag k="name" v="Hagemyrskrone" />
		<tag k="natural" v="valley" />
		<tag k="place" v="locality" />
		<tag k="ssr:stedsnr" v="715022" />
	</node>
	<node lat="59.05993611357078" lon="8.28999166141029" id="-20352">
		<tag k="name" v="Trasteskar" />
		<tag k="natural" v="valley" />
		<tag k="place" v="locality" />
		<tag k="ssr:stedsnr" v="714927" />
	</node>
	<node lat="59.06502500139258" lon="8.113183338649137" id="-20353">
		<tag k="name" v="Skotjønnlia" />
		<tag k="natural" v="slope" />
		<tag k="place" v="locality" />
		<tag k="ssr:stedsnr" v="898828" />
	</node>
	<node lat="59.31045833236125" lon="8.229908327116696" id="-20355">
		<tag k="name" v="Håvstøylnuten" />
		<tag k="natural" v="hill" />
		<tag k="place" v="locality" />
		<tag k="ssr:stedsnr" v="715408" />
	</node>
	<node lat="59.30219167059982" lon="8.072022224687199" id="-20357">
		<tag k="name" v="Grånåsen" />
		<tag k="natural" v="hill" />
		<tag k="place" v="locality" />
		<tag k="ssr:stedsnr" v="715325" />
	</node>
	<node lat="59.03969722329883" lon="8.346313887426637" id="-20360">
		<tag k="name" v="Blakktjønnbrota" />
		<tag k="natural" v="hill" />
		<tag k="place" v="locality" />
		<tag k="ssr:stedsnr" v="715533" />
	</node>
	<node lat="59.1011499985194" lon="8.226461114600463" id="-20362">
		<tag k="name" v="Nystøyllia" />
		<tag k="natural" v="slope" />
		<tag k="place" v="locality" />
		<tag k="ssr:stedsnr" v="715604" />
	</node>
	<node lat="59.04193333139473" lon="8.262380556780863" id="-20367">
		<tag k="name" v="Valneshalsen" />
		<tag k="natural" v="cliff" />
		<tag k="ssr:stedsnr" v="715819" />
	</node>
	<node lat="59.24553611084323" lon="8.176638887147902" id="-20371">
		<tag k="name" v="Sunnstøyldalen" />
		<tag k="natural" v="valley" />
		<tag k="place" v="locality" />
		<tag k="ssr:stedsnr" v="715919" />
	</node>
	<node lat="58.9763444400077" lon="7.976341663248171" id="-20378">
		<tag k="name" v="Selbuheia" />
		<tag k="natural" v="hill" />
		<tag k="place" v="locality" />
		<tag k="ssr:stedsnr" v="716340" />
	</node>
	<node lat="59.05493889049371" lon="8.102930555516366" id="-20381">
		<tag k="name" v="Dagsbeite" />
		<tag k="natural" v="valley" />
		<tag k="place" v="locality" />
		<tag k="ssr:stedsnr" v="716488" />
	</node>
	<node lat="59.28856944436587" lon="7.971608326358685" id="-20384">
		<tag k="name" v="Hestekvæven" />
		<tag k="natural" v="valley" />
		<tag k="place" v="locality" />
		<tag k="ssr:stedsnr" v="716674" />
	</node>
	<node lat="59.07873888957047" lon="7.941177785922978" id="-20389">
		<tag k="name" v="Griddalsfjell" />
		<tag k="natural" v="hill" />
		<tag k="place" v="locality" />
		<tag k="ssr:stedsnr" v="717203" />
	</node>
	<node lat="59.2569611102518" lon="8.035066663412097" id="-20390">
		<tag k="name" v="Solbakkdalen" />
		<tag k="natural" v="valley" />
		<tag k="place" v="locality" />
		<tag k="ssr:stedsnr" v="717208" />
	</node>
	<node lat="59.275986115589" lon="8.032994444721366" id="-20391">
		<tag k="name" v="Åsmorklii" />
		<tag k="natural" v="slope" />
		<tag k="place" v="locality" />
		<tag k="ssr:stedsnr" v="717217" />
	</node>
	<node lat="59.286783336830844" lon="8.025758340242245" id="-20392">
		<tag k="name" v="Ravndalshola" />
		<tag k="natural" v="valley" />
		<tag k="place" v="locality" />
		<tag k="ssr:stedsnr" v="717220" />
	</node>
	<node lat="59.25514444150889" lon="8.008583336385698" id="-20393">
		<tag k="name" v="Rotenuten" />
		<tag k="natural" v="hill" />
		<tag k="place" v="locality" />
		<tag k="ssr:stedsnr" v="899079" />
	</node>
	<node lat="59.254361106803024" lon="7.9693972298377345" id="-20394">
		<tag k="name" v="Høydalshola" />
		<tag k="natural" v="valley" />
		<tag k="place" v="locality" />
		<tag k="ssr:stedsnr" v="899093" />
	</node>
	<node lat="59.291838887586316" lon="8.001697219268653" id="-20397">
		<tag k="name" v="Nedrebølii" />
		<tag k="natural" v="slope" />
		<tag k="place" v="locality" />
		<tag k="ssr:stedsnr" v="899236" />
	</node>
	<node lat="59.06828055158663" lon="8.02508333125742" id="-20399">
		<tag k="name" v="Ørnefloget" />
		<tag k="place" v="locality" />
		<tag k="ssr:stedsnr" v="717873" />
	</node>
	<node lat="59.067077778662856" lon="7.928255557378619" id="-20401">
		<tag k="name" v="Toa" />
		<tag k="place" v="locality" />
		<tag k="ssr:stedsnr" v="899323" />
	</node>
	<node lat="59.065925003514906" lon="7.932263888421228" id="-20402">
		<tag k="name" v="Fjellheimsnut" />
		<tag k="natural" v="hill" />
		<tag k="place" v="locality" />
		<tag k="ssr:stedsnr" v="899332" />
	</node>
	<node lat="59.02650277945111" lon="8.015388883193753" id="-20405">
		<tag k="name" v="Bytingsdalen" />
		<tag k="natural" v="valley" />
		<tag k="place" v="locality" />
		<tag k="ssr:stedsnr" v="899571" />
	</node>
	<node lat="59.32803333099454" lon="7.926647219912377" id="-20406">
		<tag k="name" v="Tembås" />
		<tag k="natural" v="hill" />
		<tag k="place" v="locality" />
		<tag k="ssr:stedsnr" v="899587" />
	</node>
	<node lat="59.32830277442203" lon="7.995994451195346" id="-20411">
		<tag k="name" v="Vihovd" />
		<tag k="natural" v="hill" />
		<tag k="place" v="locality" />
		<tag k="ssr:stedsnr" v="899937" />
	</node>
	<node lat="59.10845277563598" lon="8.28159999387177" id="-20419">
		<tag k="alt_name" v="Samlagskaret" />
		<tag k="name" v="Samlogskardet" />
		<tag k="natural" v="valley" />
		<tag k="place" v="locality" />
		<tag k="ssr:stedsnr" v="729172" />
	</node>
	<node lat="58.95451388761226" lon="8.322994446752483" id="-20420">
		<tag k="name" v="Soleglad" />
		<tag k="place" v="locality" />
		<tag k="ssr:stedsnr" v="729908" />
	</node>
	<node lat="59.02742499600496" lon="8.169024993542386" id="-20422">
		<tag k="alt_name" v="Elgheiristi" />
		<tag k="fixme" v="consider natural=peak for the most distinct mountains in the district" />
		<tag k="name" v="Elgeheirista" />
		<tag k="natural" v="hill" />
		<tag k="place" v="locality" />
		<tag k="ssr:stedsnr" v="730225" />
	</node>
	<node lat="59.15160833507961" lon="8.038269441002393" id="-20425">
		<tag k="fixme" v="consider natural=peak for the most distinct mountains in the district" />
		<tag k="name" v="Nesnuten" />
		<tag k="natural" v="hill" />
		<tag k="old_name" v="Nesnut" />
		<tag k="place" v="locality" />
		<tag k="ssr:stedsnr" v="730416" />
	</node>
	<node lat="59.14376388901828" lon="7.994913890349651" id="-20427">
		<tag k="fixme" v="consider natural=peak for the most distinct mountains in the district" />
		<tag k="name" v="Hurvaråsen" />
		<tag k="natural" v="hill" />
		<tag k="place" v="locality" />
		<tag k="ssr:stedsnr" v="730426" />
	</node>
	<node lat="59.36029722438036" lon="7.846927772065577" id="-20429">
		<tag k="fixme" v="multiple name tags, choose one and add the other to alt_name; consider natural=peak for the most distinct mountains in the district" />
		<tag k="name" v="Daudmannsheii;Dansskorheii" />
		<tag k="natural" v="hill" />
		<tag k="place" v="locality" />
		<tag k="ssr:stedsnr" v="730973" />
	</node>
	<node lat="59.28256389311881" lon="7.849255560815693" id="-20434">
		<tag k="fixme" v="consider natural=peak for the most distinct mountains in the district" />
		<tag k="name" v="Åsanuten" />
		<tag k="natural" v="hill" />
		<tag k="place" v="locality" />
		<tag k="ssr:stedsnr" v="755365" />
	</node>
	<node lat="59.138377777514634" lon="8.017602783361555" id="-20435">
		<tag k="name" v="Fardal" />
		<tag k="natural" v="valley" />
		<tag k="place" v="locality" />
		<tag k="ssr:stedsnr" v="755499" />
	</node>
	<node lat="59.203144442154574" lon="8.073322228678032" id="-20444">
		<tag k="name" v="Molandsmoen" />
		<tag k="place" v="locality" />
		<tag k="ssr:stedsnr" v="762808" />
	</node>
	<node lat="59.240100003109404" lon="8.01174445180732" id="-20447">
		<tag k="fixme" v="consider natural=peak for the most distinct mountains in the district" />
		<tag k="name" v="Åstøylnuten" />
		<tag k="natural" v="hill" />
		<tag k="place" v="locality" />
		<tag k="ssr:stedsnr" v="763206" />
	</node>
	<node lat="59.2413472255195" lon="7.850861110583902" id="-20449">
		<tag k="fixme" v="consider natural=peak for the most distinct mountains in the district" />
		<tag k="name" v="Skarsheia" />
		<tag k="natural" v="hill" />
		<tag k="place" v="locality" />
		<tag k="ssr:stedsnr" v="763115" />
	</node>
	<node lat="59.31030278114218" lon="7.721655558941715" id="-20452">
		<tag k="fixme" v="consider natural=peak for the most distinct mountains in the district" />
		<tag k="name" v="Haugenuten" />
		<tag k="natural" v="hill" />
		<tag k="place" v="locality" />
		<tag k="ssr:stedsnr" v="763341" />
	</node>
	<node lat="59.27812778142851" lon="7.749650003211033" id="-20455">
		<tag k="fixme" v="consider natural=peak for the most distinct mountains in the district" />
		<tag k="name" v="Talabekknuten" />
		<tag k="natural" v="hill" />
		<tag k="place" v="locality" />
		<tag k="ssr:stedsnr" v="763404" />
	</node>
	<node lat="59.28010278060325" lon="7.71924721710364" id="-20457">
		<tag k="name" v="Nussfjøddkvæven" />
		<tag k="natural" v="valley" />
		<tag k="place" v="locality" />
		<tag k="ssr:stedsnr" v="763410" />
	</node>
	<node lat="59.171277775265644" lon="8.00414444606871" id="-20461">
		<tag k="name" v="Homsto" />
		<tag k="natural" v="slope" />
		<tag k="place" v="locality" />
		<tag k="ssr:stedsnr" v="763614" />
	</node>
	<node lat="59.24295555972396" lon="7.898955548178916" id="-20464">
		<tag k="name" v="Temmerva" />
		<tag k="place" v="locality" />
		<tag k="ssr:stedsnr" v="763947" />
	</node>
	<node lat="59.16759166950865" lon="7.920330549410987" id="-20466">
		<tag k="fixme" v="consider natural=peak for the most distinct mountains in the district" />
		<tag k="name" v="Kviteberg" />
		<tag k="natural" v="hill" />
		<tag k="place" v="locality" />
		<tag k="ssr:stedsnr" v="763854" />
	</node>
	<node lat="59.17666944129016" lon="7.777847227996762" id="-20467">
		<tag k="fixme" v="consider natural=peak for the most distinct mountains in the district" />
		<tag k="name" v="Ravneflæa" />
		<tag k="natural" v="hill" />
		<tag k="place" v="locality" />
		<tag k="ssr:stedsnr" v="764225" />
	</node>
	<node lat="59.08644444862544" lon="8.331638891317267" id="-20472">
		<tag k="name" v="Maurdalen" />
		<tag k="natural" v="valley" />
		<tag k="place" v="locality" />
		<tag k="ssr:stedsnr" v="775421" />
	</node>
	<node lat="59.01100833533318" lon="8.239555549205416" id="-20473">
		<tag k="name" v="Tjostovsdal" />
		<tag k="natural" v="valley" />
		<tag k="place" v="locality" />
		<tag k="ssr:stedsnr" v="775164" />
	</node>
	<node lat="59.023500003672055" lon="8.382269438288775" id="-20475">
		<tag k="name" v="Slarpedalen" />
		<tag k="natural" v="valley" />
		<tag k="place" v="locality" />
		<tag k="ssr:stedsnr" v="775672" />
	</node>
	<node lat="59.310483337560015" lon="8.142086113532532" id="-20476">
		<tag k="name" v="Foldsæliane" />
		<tag k="natural" v="slope" />
		<tag k="place" v="locality" />
		<tag k="ssr:stedsnr" v="776122" />
	</node>
	<node lat="59.007393578080666" lon="8.241767977871845" id="-20477">
		<tag k="fixme" v="consider natural=peak for the most distinct mountains in the district" />
		<tag k="name" v="Diplefjell" />
		<tag k="natural" v="hill" />
		<tag k="place" v="locality" />
		<tag k="ssr:stedsnr" v="776168" />
	</node>
	<node lat="59.286530557980406" lon="8.182050008162754" id="-20480">
		<tag k="name" v="Kvisleburoi" />
		<tag k="natural" v="valley" />
		<tag k="place" v="locality" />
		<tag k="ssr:stedsnr" v="776213" />
	</node>
	<node lat="59.19525000404589" lon="8.214816662138968" id="-20483">
		<tag k="name" v="Vritt" />
		<tag k="place" v="locality" />
		<tag k="ssr:stedsnr" v="776355" />
	</node>
	<node lat="59.193749997220905" lon="8.194650000535683" id="-20484">
		<tag k="name" v="Saurdalstøne" />
		<tag k="place" v="locality" />
		<tag k="ssr:stedsnr" v="776356" />
	</node>
	<node lat="59.17795555692941" lon="8.17067221497123" id="-20485">
		<tag k="name" v="Fagerli" />
		<tag k="natural" v="slope" />
		<tag k="place" v="locality" />
		<tag k="ssr:stedsnr" v="776358" />
	</node>
	<node lat="59.189849997606544" lon="8.204433333448122" id="-20486">
		<tag k="name" v="Ingeleivskar" />
		<tag k="natural" v="valley" />
		<tag k="place" v="locality" />
		<tag k="ssr:stedsnr" v="776360" />
	</node>
	<node lat="59.33349722487947" lon="8.149402771518782" id="-20494">
		<tag k="name" v="Hauganliane" />
		<tag k="natural" v="slope" />
		<tag k="place" v="locality" />
		<tag k="ssr:stedsnr" v="776853" />
	</node>
	<node lat="59.32766944013915" lon="8.14839167119748" id="-20495">
		<tag k="name" v="Kråkufs" />
		<tag k="natural" v="hill" />
		<tag k="place" v="locality" />
		<tag k="ssr:stedsnr" v="776866" />
	</node>
	<node lat="58.99251110851404" lon="8.027222223514748" id="-20497">
		<tag k="name" v="Hestehagnuten" />
		<tag k="natural" v="hill" />
		<tag k="place" v="locality" />
		<tag k="ssr:stedsnr" v="777252" />
	</node>
	<node lat="58.98532499786783" lon="8.03167778603503" id="-20498">
		<tag k="name" v="Geiterådalsbråtet" />
		<tag k="place" v="locality" />
		<tag k="ssr:stedsnr" v="777259" />
	</node>
	<node lat="59.031461109194034" lon="7.935400008388163" id="-20500">
		<tag k="name" v="Linnårskaret" />
		<tag k="natural" v="valley" />
		<tag k="place" v="locality" />
		<tag k="ssr:stedsnr" v="777269" />
	</node>
	<node lat="59.04008888952203" lon="8.008136115995816" id="-20502">
		<tag k="name" v="Lislebergstadheia" />
		<tag k="natural" v="hill" />
		<tag k="place" v="locality" />
		<tag k="ssr:stedsnr" v="777522" />
	</node>
	<node lat="59.02130277989116" lon="8.008638882849791" id="-20503">
		<tag k="name" v="Kråkeliheia" />
		<tag k="natural" v="hill" />
		<tag k="place" v="locality" />
		<tag k="ssr:stedsnr" v="777561" />
	</node>
	<node lat="59.16577777979419" lon="8.090694440312117" id="-20505">
		<tag k="name" v="Berglandslia" />
		<tag k="natural" v="slope" />
		<tag k="place" v="locality" />
		<tag k="ssr:stedsnr" v="777709" />
	</node>
	<node lat="59.02439444463237" lon="7.99176944712454" id="-20508">
		<tag k="name" v="Jomskvæven" />
		<tag k="natural" v="valley" />
		<tag k="place" v="locality" />
		<tag k="ssr:stedsnr" v="778064" />
	</node>
	<node lat="59.328925003847246" lon="8.024569448518657" id="-20509">
		<tag k="name" v="Russkvæven" />
		<tag k="natural" v="valley" />
		<tag k="place" v="locality" />
		<tag k="ssr:stedsnr" v="777922" />
	</node>
	<node lat="59.33373333435961" lon="8.020408331858038" id="-20510">
		<tag k="name" v="Torjusdalane" />
		<tag k="natural" v="valley" />
		<tag k="place" v="locality" />
		<tag k="ssr:stedsnr" v="777926" />
	</node>
	<node lat="59.120800002278635" lon="8.268925004056117" id="-20512">
		<tag k="alt_name" v="Osvassheia" />
		<tag k="name" v="Osvassheii" />
		<tag k="natural" v="hill" />
		<tag k="place" v="locality" />
		<tag k="ssr:stedsnr" v="911136" />
	</node>
	<node lat="59.19285833770164" lon="8.041447223496997" id="-20516">
		<tag k="fixme" v="consider natural=peak for the most distinct mountains in the district" />
		<tag k="name" v="Nystøylknatten" />
		<tag k="natural" v="hill" />
		<tag k="old_name" v="Nystølknatten" />
		<tag k="place" v="locality" />
		<tag k="ssr:stedsnr" v="911383" />
	</node>
	<node lat="58.997402781216685" lon="8.151252773122232" id="-20520">
		<tag k="fixme" v="consider natural=peak for the most distinct mountains in the district" />
		<tag k="name" v="Øyvassfjell" />
		<tag k="natural" v="hill" />
		<tag k="place" v="locality" />
		<tag k="ssr:stedsnr" v="789868" />
	</node>
	<node lat="59.2250944487205" lon="8.106222229286532" id="-20522">
		<tag k="fixme" v="consider natural=peak for the most distinct mountains in the district" />
		<tag k="name" v="Hegglandsnetten" />
		<tag k="natural" v="hill" />
		<tag k="place" v="locality" />
		<tag k="ssr:stedsnr" v="790053" />
	</node>
	<node lat="59.15878611454921" lon="8.277300006898797" id="-20524">
		<tag k="fixme" v="consider natural=peak for the most distinct mountains in the district" />
		<tag k="name" v="Hokås" />
		<tag k="natural" v="hill" />
		<tag k="place" v="locality" />
		<tag k="ssr:stedsnr" v="790097" />
	</node>
	<node lat="59.065611111075796" lon="8.32588610246923" id="-20527">
		<tag k="alt_name" v="Fiskebunuten" />
		<tag k="fixme" v="consider natural=peak for the most distinct mountains in the district" />
		<tag k="name" v="Fiskebufjellet" />
		<tag k="natural" v="hill" />
		<tag k="place" v="locality" />
		<tag k="ssr:stedsnr" v="790162" />
	</node>
	<node lat="59.2366249964879" lon="7.760619439914427" id="-20529">
		<tag k="alt_name" v="Himmelkvævristene" />
		<tag k="fixme" v="consider natural=peak for the most distinct mountains in the district" />
		<tag k="name" v="Himmelkvævristine" />
		<tag k="natural" v="hill" />
		<tag k="place" v="locality" />
		<tag k="ssr:stedsnr" v="790305" />
	</node>
	<node lat="59.134449995836945" lon="7.955469440217229" id="-20530">
		<tag k="alt_name" v="Hangefjell" />
		<tag k="fixme" v="consider natural=peak for the most distinct mountains in the district" />
		<tag k="name" v="Hangelfjell" />
		<tag k="natural" v="hill" />
		<tag k="place" v="locality" />
		<tag k="ssr:stedsnr" v="790416" />
	</node>
	<node lat="59.00299722168979" lon="8.105122227725998" id="-20534">
		<tag k="alt_name" v="Visneheii" />
		<tag k="name" v="Vinsnesheia" />
		<tag k="natural" v="hill" />
		<tag k="place" v="locality" />
		<tag k="ssr:stedsnr" v="790995" />
	</node>
	<node lat="58.9747777819466" lon="8.251750007786603" id="-20537">
		<tag k="alt_name" v="Namnfuredalen" />
		<tag k="name" v="Namnfurudalen" />
		<tag k="natural" v="valley" />
		<tag k="place" v="locality" />
		<tag k="ssr:stedsnr" v="911866" />
	</node>
	<node lat="59.258344445999455" lon="7.846500007154973" id="-20540">
		<tag k="alt_name" v="Rekfjell" />
		<tag k="fixme" v="consider natural=peak for the most distinct mountains in the district" />
		<tag k="name" v="Rekefjell" />
		<tag k="natural" v="hill" />
		<tag k="place" v="locality" />
		<tag k="ssr:stedsnr" v="791924" />
	</node>
	<node lat="59.30898333169411" lon="7.856266665036543" id="-20541">
		<tag k="alt_name" v="Grønfjødd" />
		<tag k="fixme" v="consider natural=peak for the most distinct mountains in the district" />
		<tag k="name" v="Grønfjell" />
		<tag k="natural" v="hill" />
		<tag k="place" v="locality" />
		<tag k="ssr:stedsnr" v="791941" />
	</node>
	<node lat="59.348808335645074" lon="8.04211111282735" id="-20544">
		<tag k="alt_name" v="Skipsfjell" />
		<tag k="fixme" v="consider natural=peak for the most distinct mountains in the district" />
		<tag k="name" v="Skipsfjødd" />
		<tag k="natural" v="hill" />
		<tag k="place" v="locality" />
		<tag k="ssr:stedsnr" v="791986" />
	</node>
	<node lat="59.21853332944811" lon="8.25838611584326" id="-20550">
		<tag k="alt_name" v="Løeheii" />
		<tag k="fixme" v="consider natural=peak for the most distinct mountains in the district" />
		<tag k="name" v="Løeheia" />
		<tag k="natural" v="hill" />
		<tag k="place" v="locality" />
		<tag k="ssr:stedsnr" v="912045" />
	</node>
	<node lat="59.13354999952792" lon="8.180838880510501" id="-20553">
		<tag k="alt_name" v="Støylsfjellet" />
		<tag k="fixme" v="consider natural=peak for the most distinct mountains in the district" />
		<tag k="name" v="Stølsfjellet" />
		<tag k="natural" v="hill" />
		<tag k="place" v="locality" />
		<tag k="ssr:stedsnr" v="912143" />
	</node>
	<node lat="59.13270000139131" lon="8.256908333819199" id="-20554">
		<tag k="alt_name" v="Smedalsfjell" />
		<tag k="fixme" v="consider natural=peak for the most distinct mountains in the district" />
		<tag k="name" v="Smedalsfjellet" />
		<tag k="natural" v="hill" />
		<tag k="place" v="locality" />
		<tag k="ssr:stedsnr" v="912145" />
	</node>
	<node lat="59.08385000369822" lon="8.275308324871" id="-20558">
		<tag k="alt_name" v="Stemmetjønnrista" />
		<tag k="fixme" v="consider natural=peak for the most distinct mountains in the district" />
		<tag k="name" v="Stemmetjørnristi" />
		<tag k="natural" v="hill" />
		<tag k="place" v="locality" />
		<tag k="ssr:stedsnr" v="912172" />
	</node>
	<node lat="59.21574721959622" lon="7.797238892381215" id="-20560">
		<tag k="alt_name" v="Gaukåsfjellet" />
		<tag k="fixme" v="consider natural=peak for the most distinct mountains in the district" />
		<tag k="name" v="Gaukåsfjell" />
		<tag k="natural" v="hill" />
		<tag k="place" v="locality" />
		<tag k="ssr:stedsnr" v="912351" />
	</node>
	<node lat="59.12334444848418" lon="8.042286110923994" id="-20565">
		<tag k="fixme" v="consider natural=peak for the most distinct mountains in the district" />
		<tag k="name" v="Tveithott" />
		<tag k="natural" v="hill" />
		<tag k="old_name" v="Tveithøtt" />
		<tag k="place" v="locality" />
		<tag k="ssr:stedsnr" v="912444" />
	</node>
	<node lat="59.25711389058967" lon="7.8219694515292195" id="-20571">
		<tag k="alt_name" v="Normanndalen;Nordmanndalen" />
		<tag k="name" v="Nordmannsdalen" />
		<tag k="natural" v="valley" />
		<tag k="place" v="locality" />
		<tag k="ssr:stedsnr" v="912936" />
	</node>
	<node lat="59.32290277647952" lon="8.098641664492146" id="-20575">
		<tag k="fixme" v="consider natural=peak for the most distinct mountains in the district" />
		<tag k="name" v="Skredesvodine" />
		<tag k="natural" v="hill" />
		<tag k="place" v="locality" />
		<tag k="ssr:stedsnr" v="913167" />
	</node>
	<node lat="59.31043610727383" lon="7.905086109173188" id="-20579">
		<tag k="fixme" v="consider natural=peak for the most distinct mountains in the district" />
		<tag k="name" v="Høgåsen" />
		<tag k="natural" v="hill" />
		<tag k="place" v="locality" />
		<tag k="ssr:stedsnr" v="913952" />
	</node>
	<node lat="59.2517777801254" lon="7.93698889067623" id="-20581">
		<tag k="fixme" v="consider natural=peak for the most distinct mountains in the district" />
		<tag k="name" v="Nipefjell" />
		<tag k="natural" v="hill" />
		<tag k="place" v="locality" />
		<tag k="ssr:stedsnr" v="816292" />
	</node>
	<node lat="59.28577500291632" lon="7.968911118243777" id="-20582">
		<tag k="fixme" v="consider natural=peak for the most distinct mountains in the district" />
		<tag k="name" v="Hestekvævnuten" />
		<tag k="natural" v="hill" />
		<tag k="place" v="locality" />
		<tag k="ssr:stedsnr" v="816380" />
	</node>
	<node lat="59.02833333118083" lon="8.03217499137776" id="-20584">
		<tag k="name" v="Lisletoberget" />
		<tag k="natural" v="hill" />
		<tag k="place" v="locality" />
		<tag k="ssr:stedsnr" v="816474" />
	</node>
	<node lat="59.218005555377445" lon="8.007152783395057" id="-20585">
		<tag k="fixme" v="consider natural=peak for the most distinct mountains in the district" />
		<tag k="name" v="Røynbuåsen" />
		<tag k="natural" v="hill" />
		<tag k="place" v="locality" />
		<tag k="ssr:stedsnr" v="817004" />
	</node>
	<node lat="59.23032222387659" lon="7.94008889720007" id="-20591">
		<tag k="name" v="Selli" />
		<tag k="natural" v="slope" />
		<tag k="place" v="locality" />
		<tag k="ssr:stedsnr" v="823480" />
	</node>
	<node lat="59.2813583293943" lon="7.773675007239333" id="-20595">
		<tag k="name" v="Lisleste" />
		<tag k="place" v="locality" />
		<tag k="ssr:stedsnr" v="824007" />
	</node>
	<node lat="59.129497226345336" lon="8.006866670399107" id="-20599">
		<tag k="name" v="Svårtskrea" />
		<tag k="natural" v="slope" />
		<tag k="place" v="locality" />
		<tag k="ssr:stedsnr" v="824418" />
	</node>
	<node lat="59.14893055525081" lon="7.962805559078247" id="-20600">
		<tag k="name" v="Glomlia" />
		<tag k="natural" v="slope" />
		<tag k="place" v="locality" />
		<tag k="ssr:stedsnr" v="824411" />
	</node>
	<node lat="59.145394440887515" lon="7.869369437417092" id="-20602">
		<tag k="name" v="Rotbuliskaret" />
		<tag k="natural" v="valley" />
		<tag k="place" v="locality" />
		<tag k="ssr:stedsnr" v="824666" />
	</node>
	<node lat="59.15883889243823" lon="7.868641659719868" id="-20603">
		<tag k="name" v="Bytedalen" />
		<tag k="natural" v="valley" />
		<tag k="place" v="locality" />
		<tag k="ssr:stedsnr" v="824669" />
	</node>
	<node lat="59.15343055844038" lon="7.839255563684469" id="-20604">
		<tag k="fixme" v="consider natural=peak for the most distinct mountains in the district" />
		<tag k="name" v="Tussetjønnheia" />
		<tag k="natural" v="hill" />
		<tag k="place" v="locality" />
		<tag k="ssr:stedsnr" v="824672" />
	</node>
	<node lat="59.315652780227424" lon="7.719777773786641" id="-20607">
		<tag k="name" v="Svindalen" />
		<tag k="natural" v="valley" />
		<tag k="place" v="locality" />
		<tag k="ssr:stedsnr" v="825666" />
	</node>
	<node lat="59.269655551322856" lon="7.902150002926146" id="-20608">
		<tag k="name" v="Fosstjønnuten" />
		<tag k="natural" v="hill" />
		<tag k="place" v="locality" />
		<tag k="ssr:stedsnr" v="826603" />
	</node>
	<node lat="59.25201944797696" lon="7.92732499132555" id="-20609">
		<tag k="name" v="Nipirdalane" />
		<tag k="natural" v="valley" />
		<tag k="place" v="locality" />
		<tag k="ssr:stedsnr" v="826618" />
	</node>
	<node lat="59.0007666667918" lon="8.332755549746778" id="-20611">
		<tag k="name" v="Deilderista" />
		<tag k="natural" v="ridge" />
		<tag k="place" v="locality" />
		<tag k="ssr:stedsnr" v="836013" />
	</node>
	<node lat="59.04311666268088" lon="8.322983339823645" id="-20612">
		<tag k="name" v="Folefjell" />
		<tag k="natural" v="hill" />
		<tag k="place" v="locality" />
		<tag k="ssr:stedsnr" v="836534" />
	</node>
	<node lat="59.01996666966234" lon="8.326961119143652" id="-20613">
		<tag k="name" v="Sønderlandshelleren" />
		<tag k="place" v="locality" />
		<tag k="ssr:stedsnr" v="836607" />
	</node>
	<node lat="59.01710000297392" lon="8.31766943863107" id="-20614">
		<tag k="name" v="Åmshomrista" />
		<tag k="place" v="locality" />
		<tag k="ssr:stedsnr" v="836615" />
	</node>
	<node lat="59.01631666965389" lon="8.364933328120635" id="-20615">
		<tag k="name" v="Øyufsstøyldalen" />
		<tag k="natural" v="valley" />
		<tag k="place" v="locality" />
		<tag k="ssr:stedsnr" v="836693" />
	</node>
	<node lat="59.27229721975848" lon="8.124052783202595" id="-20617">
		<tag k="name" v="Fonnstøyllii" />
		<tag k="natural" v="slope" />
		<tag k="place" v="locality" />
		<tag k="ssr:stedsnr" v="837106" />
	</node>
	<node lat="59.26511389315144" lon="8.14663888824145" id="-20621">
		<tag k="name" v="Nystøyllia" />
		<tag k="natural" v="slope" />
		<tag k="place" v="locality" />
		<tag k="ssr:stedsnr" v="837086" />
	</node>
	<node lat="59.04428611480868" lon="7.9418166628270095" id="-20622">
		<tag k="name" v="Deildebergåsen" />
		<tag k="natural" v="hill" />
		<tag k="place" v="locality" />
		<tag k="ssr:stedsnr" v="837095" />
	</node>
	<node lat="59.186397225302834" lon="8.213950003855714" id="-20625">
		<tag k="name" v="Vestigardslia" />
		<tag k="natural" v="slope" />
		<tag k="place" v="locality" />
		<tag k="ssr:stedsnr" v="837376" />
	</node>
	<node lat="59.17247777332071" lon="8.13954721926546" id="-20628">
		<tag k="name" v="Grastjønnrista" />
		<tag k="natural" v="ridge" />
		<tag k="place" v="locality" />
		<tag k="ssr:stedsnr" v="837430" />
	</node>
	<node lat="59.18105555318037" lon="8.11910833456173" id="-20629">
		<tag k="name" v="Bustone" />
		<tag k="natural" v="hill" />
		<tag k="place" v="locality" />
		<tag k="ssr:stedsnr" v="837436" />
	</node>
	<node lat="59.19604166692491" lon="8.224558334307268" id="-20630">
		<tag k="name" v="Libergsnuten" />
		<tag k="natural" v="hill" />
		<tag k="place" v="locality" />
		<tag k="ssr:stedsnr" v="837445" />
	</node>
	<node lat="59.179927778125666" lon="8.099511113183421" id="-20636">
		<tag k="name" v="Uppstadbakkane" />
		<tag k="natural" v="slope" />
		<tag k="place" v="locality" />
		<tag k="ssr:stedsnr" v="837784" />
	</node>
	<node lat="59.05719999656696" lon="8.105977786355398" id="-20637">
		<tag k="name" v="Trongedal" />
		<tag k="natural" v="valley" />
		<tag k="place" v="locality" />
		<tag k="ssr:stedsnr" v="837792" />
	</node>
	<node lat="59.068602777871014" lon="8.137561111626061" id="-20638">
		<tag k="name" v="Bjørkeholtkvæven" />
		<tag k="natural" v="valley" />
		<tag k="place" v="locality" />
		<tag k="ssr:stedsnr" v="837793" />
	</node>
	<node lat="58.98103888980455" lon="8.079769444123249" id="-20642">
		<tag k="name" v="Kolgruvedalen" />
		<tag k="natural" v="valley" />
		<tag k="place" v="locality" />
		<tag k="ssr:stedsnr" v="838094" />
	</node>
	<node lat="59.01345000147235" lon="7.916805560353123" id="-20644">
		<tag k="name" v="Rekdalskollane" />
		<tag k="natural" v="hill" />
		<tag k="place" v="locality" />
		<tag k="ssr:stedsnr" v="838229" />
	</node>
	<node lat="59.03760555474692" lon="8.080255563026432" id="-20651">
		<tag k="fixme" v="consider natural=peak for the most distinct mountains in the district" />
		<tag k="name" v="Sandnesåsen" />
		<tag k="natural" v="hill" />
		<tag k="place" v="locality" />
		<tag k="ssr:stedsnr" v="838511" />
	</node>
	<node lat="59.321330553303405" lon="8.033644449149865" id="-20653">
		<tag k="name" v="Berfjøddkvæven" />
		<tag k="natural" v="valley" />
		<tag k="place" v="locality" />
		<tag k="ssr:stedsnr" v="838907" />
	</node>
	<node lat="59.324886107444435" lon="8.003113881729371" id="-20655">
		<tag k="name" v="Hestekvæven" />
		<tag k="natural" v="valley" />
		<tag k="place" v="locality" />
		<tag k="ssr:stedsnr" v="838895" />
	</node>
	<node lat="58.956027774739646" lon="8.095394443760716" id="-20659">
		<tag k="fixme" v="consider natural=peak for the most distinct mountains in the district" />
		<tag k="name" v="Bergeheii" />
		<tag k="natural" v="hill" />
		<tag k="place" v="locality" />
		<tag k="ssr:stedsnr" v="850926" />
	</node>
	<node lat="59.1368138917517" lon="8.309250008257004" id="-20661">
		<tag k="fixme" v="consider natural=peak for the most distinct mountains in the district" />
		<tag k="name" v="Flottenuten" />
		<tag k="natural" v="hill" />
		<tag k="place" v="locality" />
		<tag k="ssr:stedsnr" v="851135" />
	</node>
	<node lat="59.18973055963831" lon="8.180219450785572" id="-20664">
		<tag k="alt_name" v="Grasstølfjellet" />
		<tag k="fixme" v="consider natural=peak for the most distinct mountains in the district" />
		<tag k="name" v="Grasstøylfjell" />
		<tag k="natural" v="hill" />
		<tag k="place" v="locality" />
		<tag k="ssr:stedsnr" v="851085" />
	</node>
	<node lat="59.02421110938044" lon="8.250975000520496" id="-20667">
		<tag k="name" v="Jørundlandsnuten" />
		<tag k="natural" v="hill" />
		<tag k="place" v="locality" />
		<tag k="ssr:stedsnr" v="851216" />
	</node>
	<node lat="59.23111389211983" lon="7.788619451972576" id="-20668">
		<tag k="alt_name" v="Emondkvævristine" />
		<tag k="fixme" v="consider natural=peak for the most distinct mountains in the district" />
		<tag k="name" v="Imunkvævristene" />
		<tag k="natural" v="hill" />
		<tag k="place" v="locality" />
		<tag k="ssr:stedsnr" v="851304" />
	</node>
	<node lat="59.21613333468281" lon="7.87095554692438" id="-20669">
		<tag k="name" v="Herbjørnsdalen" />
		<tag k="natural" v="valley" />
		<tag k="place" v="locality" />
		<tag k="ssr:stedsnr" v="851311" />
	</node>
	<node lat="58.98238333442459" lon="8.173136119691362" id="-20676">
		<tag k="fixme" v="consider natural=peak for the most distinct mountains in the district" />
		<tag k="name" v="Høgeheii" />
		<tag k="natural" v="hill" />
		<tag k="place" v="locality" />
		<tag k="ssr:stedsnr" v="851891" />
	</node>
	<node lat="59.27294166562701" lon="8.147619436074049" id="-20680">
		<tag k="name" v="Fjosi" />
		<tag k="place" v="locality" />
		<tag k="ssr:stedsnr" v="852210" />
	</node>
	<node lat="59.26199166754889" lon="8.184991662486064" id="-20682">
		<tag k="name" v="Kvåmoen" />
		<tag k="place" v="locality" />
		<tag k="ssr:stedsnr" v="852228" />
	</node>
	<node lat="59.32705555140459" lon="7.696872219165785" id="-20683">
		<tag k="fixme" v="consider natural=peak for the most distinct mountains in the district" />
		<tag k="name" v="Napuren" />
		<tag k="natural" v="hill" />
		<tag k="place" v="locality" />
		<tag k="ssr:stedsnr" v="852514" />
	</node>
	<node lat="59.00589166891488" lon="8.32865277864782" id="-20687">
		<tag k="fixme" v="consider natural=peak for the most distinct mountains in the district" />
		<tag k="name" v="Ryggsteinåsen" />
		<tag k="natural" v="hill" />
		<tag k="place" v="locality" />
		<tag k="ssr:stedsnr" v="852968" />
	</node>
	<node lat="59.284194447104" lon="8.14779444648776" id="-20689">
		<tag k="fixme" v="consider natural=peak for the most distinct mountains in the district" />
		<tag k="name" v="Solliåsen" />
		<tag k="natural" v="hill" />
		<tag k="place" v="locality" />
		<tag k="ssr:stedsnr" v="853651" />
	</node>
	<node lat="58.9982055531481" lon="7.979180551545773" id="-20690">
		<tag k="fixme" v="consider natural=peak for the most distinct mountains in the district" />
		<tag k="name" v="Krokstøylfjell" />
		<tag k="natural" v="hill" />
		<tag k="place" v="locality" />
		<tag k="ssr:stedsnr" v="930918" />
	</node>
	<node lat="59.23640278135232" lon="7.869905552532091" id="-20692">
		<tag k="fixme" v="consider natural=peak for the most distinct mountains in the district" />
		<tag k="name" v="Kleppsvassåsen" />
		<tag k="natural" v="hill" />
		<tag k="place" v="locality" />
		<tag k="ssr:stedsnr" v="877011" />
	</node>
	<node lat="59.09872777514338" lon="7.841163896102276" id="-20693">
		<tag k="alt_name" v="Storekvæv" />
		<tag k="name" v="Storekvæven" />
		<tag k="natural" v="valley" />
		<tag k="place" v="locality" />
		<tag k="ssr:stedsnr" v="877050" />
	</node>
	<node lat="59.161488893243515" lon="7.913405548715934" id="-20696">
		<tag k="fixme" v="consider natural=peak for the most distinct mountains in the district" />
		<tag k="name" v="Nonnuten" />
		<tag k="natural" v="hill" />
		<tag k="place" v="locality" />
		<tag k="ssr:stedsnr" v="877507" />
	</node>
	<node lat="59.16428333629502" lon="7.916341659692839" id="-20697">
		<tag k="name" v="Høyskvæven" />
		<tag k="natural" v="valley" />
		<tag k="place" v="locality" />
		<tag k="ssr:stedsnr" v="877508" />
	</node>
	<node lat="59.123636115533166" lon="7.883822222190046" id="-20698">
		<tag k="name" v="Kvævekvævane" />
		<tag k="natural" v="valley" />
		<tag k="place" v="locality" />
		<tag k="ssr:stedsnr" v="877519" />
	</node>
	<node lat="59.221063891832685" lon="8.110108339262437" id="-20700">
		<tag k="name" v="Kallåkskari" />
		<tag k="natural" v="valley" />
		<tag k="place" v="locality" />
		<tag k="ssr:stedsnr" v="883052" />
	</node>
	<node lat="59.217625002396666" lon="8.159372221002156" id="-20701">
		<tag k="name" v="Steandalen" />
		<tag k="natural" v="valley" />
		<tag k="place" v="locality" />
		<tag k="ssr:stedsnr" v="883054" />
	</node>
	<node lat="59.249227774060294" lon="8.138322225507936" id="-20705">
		<tag k="fixme" v="consider natural=peak for the most distinct mountains in the district" />
		<tag k="name" v="Kollhytteåsen" />
		<tag k="natural" v="hill" />
		<tag k="place" v="locality" />
		<tag k="ssr:stedsnr" v="883419" />
	</node>
	<node lat="58.97743333071676" lon="7.955205564263529" id="-20708">
		<tag k="fixme" v="consider natural=peak for the most distinct mountains in the district" />
		<tag k="name" v="Selbufjell" />
		<tag k="natural" v="hill" />
		<tag k="place" v="locality" />
		<tag k="ssr:stedsnr" v="883866" />
	</node>
	<node lat="59.231424997991894" lon="8.039658331786763" id="-20709">
		<tag k="name" v="Sessen" />
		<tag k="place" v="locality" />
		<tag k="ssr:stedsnr" v="884246" />
	</node>
	<node lat="59.247791662824426" lon="8.005544446315076" id="-20710">
		<tag k="fixme" v="consider natural=peak for the most distinct mountains in the district" />
		<tag k="name" v="Holdalsnuten" />
		<tag k="natural" v="hill" />
		<tag k="place" v="locality" />
		<tag k="ssr:stedsnr" v="884265" />
	</node>
	<node lat="59.242247220417056" lon="7.91123055433151" id="-20712">
		<tag k="name" v="Sjåheim" />
		<tag k="place" v="locality" />
		<tag k="ssr:stedsnr" v="884147" />
	</node>
	<node lat="59.2392222253784" lon="8.265647230353286" id="-20719">
		<tag k="fixme" v="consider natural=peak for the most distinct mountains in the district" />
		<tag k="name" v="Bynuten" />
		<tag k="natural" v="hill" />
		<tag k="place" v="locality" />
		<tag k="ssr:stedsnr" v="885012" />
	</node>
	<node lat="59.249474996607404" lon="7.926797228707106" id="-20720">
		<tag k="name" v="Breito" />
		<tag k="place" v="locality" />
		<tag k="ssr:stedsnr" v="885316" />
	</node>
	<node lat="59.24795555716272" lon="7.775627771589414" id="-20722">
		<tag k="fixme" v="consider natural=peak for the most distinct mountains in the district" />
		<tag k="name" v="Langlifjøddi" />
		<tag k="natural" v="hill" />
		<tag k="place" v="locality" />
		<tag k="ssr:stedsnr" v="885703" />
	</node>
	<node lat="59.31608889243159" lon="7.747533332117207" id="-20724">
		<tag k="name" v="Svirskard" />
		<tag k="natural" v="valley" />
		<tag k="place" v="locality" />
		<tag k="ssr:stedsnr" v="885657" />
	</node>
	<node lat="59.1831888891382" lon="7.937433334721451" id="-20725">
		<tag k="name" v="Bjørkedalen" />
		<tag k="natural" v="valley" />
		<tag k="place" v="locality" />
		<tag k="ssr:stedsnr" v="885846" />
	</node>
	<node lat="59.05630833523307" lon="8.160341671965277" id="-20728">
		<tag k="name" v="Skurveheia" />
		<tag k="natural" v="hill" />
		<tag k="place" v="locality" />
		<tag k="ssr:stedsnr" v="893274" />
	</node>
	<node lat="59.07293055383047" lon="8.34339445253144" id="-20729">
		<tag k="name" v="Sipleskarrista" />
		<tag k="natural" v="hill" />
		<tag k="place" v="locality" />
		<tag k="ssr:stedsnr" v="894016" />
	</node>
	<node lat="59.02851389157063" lon="8.352544435942878" id="-20738">
		<tag k="name" v="Mjåvasslia" />
		<tag k="natural" v="slope" />
		<tag k="place" v="locality" />
		<tag k="ssr:stedsnr" v="897724" />
	</node>
	<node lat="59.165911111763684" lon="8.227133336686343" id="-20741">
		<tag k="name" v="Svartufs" />
		<tag k="natural" v="cliff" />
		<tag k="ssr:stedsnr" v="897612" />
	</node>
	<node lat="59.0323222204825" lon="8.286536117258969" id="-20742">
		<tag k="name" v="Hyttedalen" />
		<tag k="natural" v="valley" />
		<tag k="place" v="locality" />
		<tag k="ssr:stedsnr" v="897658" />
	</node>
	<node lat="59.07192778137235" lon="8.088683324545018" id="-20746">
		<tag k="name" v="Knutsdal" />
		<tag k="natural" v="valley" />
		<tag k="place" v="locality" />
		<tag k="ssr:stedsnr" v="898455" />
	</node>
	<node lat="59.058927780494706" lon="8.255852770263763" id="-20753">
		<tag k="name" v="Nesskar" />
		<tag k="natural" v="valley" />
		<tag k="place" v="locality" />
		<tag k="ssr:stedsnr" v="898965" />
	</node>
	<node lat="59.18389444141075" lon="8.102852770035758" id="-20755">
		<tag k="name" v="Bakkedalen" />
		<tag k="natural" v="valley" />
		<tag k="place" v="locality" />
		<tag k="ssr:stedsnr" v="898971" />
	</node>
	<node lat="59.11775833121316" lon="7.812852780872114" id="-20756">
		<tag k="name" v="Tretteskorfjell" />
		<tag k="natural" v="hill" />
		<tag k="place" v="locality" />
		<tag k="ssr:stedsnr" v="899158" />
	</node>
	<node lat="59.26063055217035" lon="7.946213896010511" id="-20760">
		<tag k="name" v="Krokstjønnskaret" />
		<tag k="natural" v="valley" />
		<tag k="place" v="locality" />
		<tag k="ssr:stedsnr" v="899411" />
	</node>
	<node lat="59.04836666905273" lon="8.002311105223583" id="-20762">
		<tag k="name" v="Storrdalsjuvet" />
		<tag k="natural" v="valley" />
		<tag k="place" v="locality" />
		<tag k="ssr:stedsnr" v="899904" />
	</node>
	<node lat="59.14379722014797" lon="7.754216666822268" id="-20764">
		<tag k="name" v="Langekilheia" />
		<tag k="natural" v="hill" />
		<tag k="place" v="locality" />
		<tag k="ssr:stedsnr" v="899822" />
	</node>
	<node lat="59.19609999552863" lon="8.120116659268804" id="-20766">
		<tag k="fixme" v="consider natural=peak for the most distinct mountains in the district" />
		<tag k="name" v="Sitjenuten" />
		<tag k="natural" v="hill" />
		<tag k="place" v="locality" />
		<tag k="ssr:stedsnr" v="911041" />
	</node>
	<node lat="59.20813055541818" lon="8.183277776534746" id="-20768">
		<tag k="alt_name" v="Prestdalen" />
		<tag k="name" v="Prestedalen" />
		<tag k="natural" v="valley" />
		<tag k="place" v="locality" />
		<tag k="ssr:stedsnr" v="911055" />
	</node>
	<node lat="59.228533336021385" lon="7.886352769329462" id="-20770">
		<tag k="alt_name" v="Romroheii" />
		<tag k="fixme" v="consider natural=peak for the most distinct mountains in the district" />
		<tag k="name" v="Romeroheia" />
		<tag k="natural" v="hill" />
		<tag k="place" v="locality" />
		<tag k="ssr:stedsnr" v="911330" />
	</node>
	<node lat="58.98834999927166" lon="8.177450006702134" id="-20773">
		<tag k="fixme" v="consider natural=peak for the most distinct mountains in the district" />
		<tag k="name" v="Storsteinheii" />
		<tag k="natural" v="hill" />
		<tag k="place" v="locality" />
		<tag k="ssr:stedsnr" v="911845" />
	</node>
	<node lat="59.11156666415681" lon="8.013827782297247" id="-20787">
		<tag k="alt_name" v="Snjoheia" />
		<tag k="fixme" v="consider natural=peak for the most distinct mountains in the district" />
		<tag k="name" v="Snjoheii" />
		<tag k="natural" v="hill" />
		<tag k="place" v="locality" />
		<tag k="ssr:stedsnr" v="912441" />
	</node>
	<node lat="59.012525000719684" lon="8.232766675278405" id="-20788">
		<tag k="fixme" v="consider natural=peak for the most distinct mountains in the district" />
		<tag k="name" v="Falkefjell" />
		<tag k="natural" v="hill" />
		<tag k="place" v="locality" />
		<tag k="ssr:stedsnr" v="912982" />
	</node>
	<node lat="59.01675555546355" lon="8.363275005907484" id="-20791">
		<tag k="alt_name" v="Skårsnipane" />
		<tag k="fixme" v="consider natural=peak for the most distinct mountains in the district" />
		<tag k="name" v="Skorsnipane" />
		<tag k="natural" v="hill" />
		<tag k="place" v="locality" />
		<tag k="ssr:stedsnr" v="912988" />
	</node>
	<node lat="59.00857500434884" lon="8.20910555770344" id="-20792">
		<tag k="fixme" v="consider natural=peak for the most distinct mountains in the district" />
		<tag k="name" v="Nybudalsnuten" />
		<tag k="natural" v="hill" />
		<tag k="place" v="locality" />
		<tag k="ssr:stedsnr" v="912998" />
	</node>
	<node lat="59.28351666700462" lon="8.216805549619643" id="-20793">
		<tag k="name" v="Roankvæven" />
		<tag k="natural" v="valley" />
		<tag k="place" v="locality" />
		<tag k="ssr:stedsnr" v="913226" />
	</node>
	<node lat="59.008052776770825" lon="8.025847224551029" id="-20797">
		<tag k="alt_name" v="Viknipa" />
		<tag k="name" v="Viksnipa" />
		<tag k="natural" v="hill" />
		<tag k="place" v="locality" />
		<tag k="ssr:stedsnr" v="937488" />
	</node>
	<node lat="59.24235832936095" lon="7.950497216688162" id="-20799">
		<tag k="alt_name" v="Nautfjødd" />
		<tag k="name" v="Nautefjell" />
		<tag k="natural" v="hill" />
		<tag k="place" v="locality" />
		<tag k="ssr:stedsnr" v="938027" />
	</node>
	<node lat="59.190649999345574" lon="8.122880558983363" id="-20800">
		<tag k="name" v="Renna" />
		<tag k="natural" v="valley" />
		<tag k="place" v="locality" />
		<tag k="ssr:stedsnr" v="944232" />
	</node>
	<node lat="59.22674166383875" lon="8.002558333461725" id="-20802">
		<tag k="name" v="Høydalen" />
		<tag k="natural" v="valley" />
		<tag k="place" v="locality" />
		<tag k="ssr:stedsnr" v="944909" />
	</node>
	<node lat="59.24842777610439" lon="7.854572225428727" id="-20804">
		<tag k="name" v="Djuptjønnstigen" />
		<tag k="natural" v="slope" />
		<tag k="place" v="locality" />
		<tag k="ssr:stedsnr" v="945134" />
	</node>
	<node lat="59.29986110885544" lon="7.737044447566787" id="-20805">
		<tag k="name" v="Sylvtjønnskari" />
		<tag k="natural" v="valley" />
		<tag k="place" v="locality" />
		<tag k="ssr:stedsnr" v="945290" />
	</node>
	<node lat="59.21746944815585" lon="7.81087778055346" id="-20810">
		<tag k="name" v="Ægreliane" />
		<tag k="natural" v="slope" />
		<tag k="place" v="locality" />
		<tag k="ssr:stedsnr" v="946085" />
	</node>
	<node lat="59.22089444549143" lon="8.206594437011418" id="-20812">
		<tag k="name" v="Hassedal" />
		<tag k="natural" v="valley" />
		<tag k="place" v="locality" />
		<tag k="ssr:stedsnr" v="946439" />
	</node>
	<node lat="59.24236944207808" lon="7.7698027744052" id="-20813">
		<tag k="name" v="Ausekvæven" />
		<tag k="place" v="locality" />
		<tag k="ssr:stedsnr" v="946708" />
	</node>
	<node lat="59.15112222393593" lon="7.772500003082471" id="-20816">
		<tag k="name" v="Bærvassdalen" />
		<tag k="natural" v="valley" />
		<tag k="place" v="locality" />
		<tag k="ssr:stedsnr" v="946933" />
	</node>
	<node lat="59.153033332132175" lon="7.785522216198431" id="-20817">
		<tag k="name" v="Gomeskard" />
		<tag k="natural" v="valley" />
		<tag k="place" v="locality" />
		<tag k="ssr:stedsnr" v="947933" />
	</node>
	<node lat="58.97985555394056" lon="8.283072214214346" id="-20819">
		<tag k="name" v="Grånlia" />
		<tag k="natural" v="slope" />
		<tag k="place" v="locality" />
		<tag k="ssr:stedsnr" v="955042" />
	</node>
	<node lat="58.97888055386821" lon="8.27481667152232" id="-20820">
		<tag k="name" v="Trongedal" />
		<tag k="natural" v="valley" />
		<tag k="place" v="locality" />
		<tag k="ssr:stedsnr" v="955043" />
	</node>
	<node lat="58.998297219566886" lon="8.330775000487604" id="-20825">
		<tag k="name" v="Espelia" />
		<tag k="natural" v="slope" />
		<tag k="place" v="locality" />
		<tag k="ssr:stedsnr" v="957019" />
	</node>
	<node lat="59.09222499980598" lon="8.23278333199262" id="-20828">
		<tag k="name" v="Bjønndalen" />
		<tag k="natural" v="valley" />
		<tag k="place" v="locality" />
		<tag k="ssr:stedsnr" v="957490" />
	</node>
	<node lat="59.08203889112199" lon="8.315636113405917" id="-20829">
		<tag k="name" v="Maurdalkvæven" />
		<tag k="natural" v="valley" />
		<tag k="place" v="locality" />
		<tag k="ssr:stedsnr" v="957936" />
	</node>
	<node lat="59.000797226720515" lon="8.177394441954771" id="-20831">
		<tag k="name" v="Nussliskori" />
		<tag k="natural" v="valley" />
		<tag k="place" v="locality" />
		<tag k="ssr:stedsnr" v="958014" />
	</node>
	<node lat="59.13892222510663" lon="8.10023888368488" id="-20834">
		<tag k="name" v="Knausane" />
		<tag k="natural" v="hill" />
		<tag k="place" v="locality" />
		<tag k="ssr:stedsnr" v="958187" />
	</node>
	<node lat="59.12045277373404" lon="8.269111109742063" id="-20836">
		<tag k="name" v="Gunnarvassfjellet" />
		<tag k="natural" v="hill" />
		<tag k="place" v="locality" />
		<tag k="ssr:stedsnr" v="958524" />
	</node>
	<node lat="59.04262221885499" lon="8.341936113393155" id="-20837">
		<tag k="name" v="Krossvassdalen" />
		<tag k="natural" v="valley" />
		<tag k="place" v="locality" />
		<tag k="ssr:stedsnr" v="958537" />
	</node>
	<node lat="59.16359166825086" lon="8.174819436939774" id="-20839">
		<tag k="name" v="Steinuvskrøne" />
		<tag k="place" v="locality" />
		<tag k="ssr:stedsnr" v="958418" />
	</node>
	<node lat="59.14846388987031" lon="8.08776943832954" id="-20841">
		<tag k="name" v="Kåsenuten" />
		<tag k="natural" v="hill" />
		<tag k="place" v="locality" />
		<tag k="ssr:stedsnr" v="958610" />
	</node>
</osm>
