<?xml version="1.0" encoding="UTF-8"?>
<osm version="0.6" generator="osmapis">
	<node lat="59.14135277850835" lon="8.119752783745431" id="-23953">
		<tag k="name" v="Olavskøti" />
		<tag k="place" v="locality" />
		<tag k="ssr:stedsnr" v="229757" />
	</node>
	<node lat="59.20186110835862" lon="8.181983332487036" id="-24001">
		<tag k="name" v="Kolbotn" />
		<tag k="place" v="locality" />
		<tag k="ssr:stedsnr" v="230458" />
	</node>
	<node lat="59.232390909425774" lon="8.049536105443687" id="-24045">
		<tag k="name" v="Hjelldokk" />
		<tag k="place" v="locality" />
		<tag k="ssr:stedsnr" v="28015" />
	</node>
	<node lat="59.16514721892336" lon="8.097955554952753" id="-24102">
		<tag k="name" v="Puffen" />
		<tag k="place" v="locality" />
		<tag k="ssr:stedsnr" v="49676" />
	</node>
	<node lat="59.239872221742786" lon="7.9751111165787645" id="-24188">
		<tag k="name" v="Bjønnehiet" />
		<tag k="place" v="locality" />
		<tag k="ssr:stedsnr" v="95535" />
	</node>
	<node lat="58.98140000424321" lon="8.24531666837179" id="-24210">
		<tag k="name" v="Moleiken" />
		<tag k="place" v="locality" />
		<tag k="ssr:stedsnr" v="105094" />
	</node>
	<node lat="59.3265055562704" lon="8.106277783790222" id="-24242">
		<tag k="name" v="Vårfjoset" />
		<tag k="place" v="locality" />
		<tag k="ssr:stedsnr" v="109911" />
	</node>
	<node lat="59.15159166964485" lon="8.082202771022988" id="-24329">
		<tag k="name" v="Brurehola" />
		<tag k="place" v="locality" />
		<tag k="ssr:stedsnr" v="169577" />
	</node>
	<node lat="58.977041664993465" lon="8.250080550278916" id="-24436">
		<tag k="name" v="Namnfura" />
		<tag k="place" v="locality" />
		<tag k="ssr:stedsnr" v="230079" />
	</node>
	<node lat="59.31100555526474" lon="8.094974991763417" id="-24448">
		<tag k="name" v="Skøti" />
		<tag k="place" v="locality" />
		<tag k="ssr:stedsnr" v="230687" />
	</node>
	<node lat="59.324872218297706" lon="7.958288880735984" id="-24457">
		<tag k="name" v="Reveberget" />
		<tag k="place" v="locality" />
		<tag k="ssr:stedsnr" v="231098" />
	</node>
	<node lat="59.14480832975952" lon="7.7499694522570515" id="-24466">
		<tag k="name" v="Lensmannsætane" />
		<tag k="place" v="locality" />
		<tag k="ssr:stedsnr" v="231835" />
	</node>
	<node lat="59.27250265514584" lon="7.805437142578591" id="-24506">
		<tag k="name" v="Haukedalen" />
		<tag k="place" v="locality" />
		<tag k="ssr:stedsnr" v="245911" />
	</node>
	<node lat="59.18190555800409" lon="8.087080555440037" id="-24631">
		<tag k="amenity" v="place_of_worship" />
		<tag k="denomination" v="lutheran" />
		<tag k="name" v="Moland kyrkje" />
		<tag k="religion" v="christian" />
		<tag k="ssr:stedsnr" v="304381" />
	</node>
	<node lat="58.985283331487" lon="8.267455556013305" id="-24658">
		<tag k="name" v="Normannskotet" />
		<tag k="place" v="locality" />
		<tag k="ssr:stedsnr" v="469087" />
	</node>
	<node lat="59.2035944425575" lon="8.249708328668861" id="-24730">
		<tag k="name" v="Revehiet" />
		<tag k="place" v="locality" />
		<tag k="ssr:stedsnr" v="472684" />
	</node>
	<node lat="59.27802500310204" lon="7.8658777807659614" id="-24739">
		<tag k="name" v="Ånistuve" />
		<tag k="place" v="locality" />
		<tag k="ssr:stedsnr" v="473172" />
	</node>
	<node lat="59.060480553806364" lon="8.25440000256717" id="-24794">
		<tag k="name" v="Haukrei" />
		<tag k="place" v="locality" />
		<tag k="ssr:stedsnr" v="351971" />
	</node>
	<node lat="59.28458489493224" lon="8.232522981466849" id="-25007">
		<tag k="alt_name" v="Steinbrakka" />
		<tag k="name" v="Steinbu" />
		<tag k="place" v="locality" />
		<tag k="ssr:stedsnr" v="427275" />
	</node>
	<node lat="59.20224722136366" lon="8.176574995491734" id="-25179">
		<tag k="name" v="Fløtarvika" />
		<tag k="place" v="locality" />
		<tag k="ssr:stedsnr" v="533476" />
	</node>
	<node lat="59.35179252928814" lon="7.849489225501813" id="-25238">
		<tag k="name" v="Storli" />
		<tag k="place" v="locality" />
		<tag k="ssr:stedsnr" v="548965" />
	</node>
	<node lat="59.31429363143208" lon="7.878820883646096" id="-25246">
		<tag k="name" v="Moberg" />
		<tag k="place" v="locality" />
		<tag k="ssr:stedsnr" v="573345" />
	</node>
	<node lat="59.22012946978763" lon="8.078991031436436" id="-25353">
		<tag k="name" v="Heimdal" />
		<tag k="place" v="locality" />
		<tag k="ssr:stedsnr" v="608341" />
	</node>
	<node lat="59.08216944790509" lon="8.254036111719893" id="-25450">
		<tag k="name" v="Stuffen" />
		<tag k="place" v="locality" />
		<tag k="ssr:stedsnr" v="653503" />
	</node>
	<node lat="59.13353055581161" lon="8.146013892446051" id="-25461">
		<tag k="name" v="Åvelskot" />
		<tag k="place" v="locality" />
		<tag k="ssr:stedsnr" v="654611" />
	</node>
	<node lat="58.99425833655052" lon="8.042666668738084" id="-25475">
		<tag k="name" v="Holskåtet" />
		<tag k="place" v="locality" />
		<tag k="ssr:stedsnr" v="655432" />
	</node>
	<node lat="59.30668888706173" lon="8.08739167284429" id="-25608">
		<tag k="name" v="Brennevinsbergi" />
		<tag k="place" v="locality" />
		<tag k="ssr:stedsnr" v="898752" />
	</node>
	<node lat="59.305413892719976" lon="8.05050277202692" id="-25622">
		<tag k="name" v="Svartrast" />
		<tag k="place" v="locality" />
		<tag k="ssr:stedsnr" v="715684" />
	</node>
	<node lat="59.257094446626304" lon="7.834294441525794" id="-25725">
		<tag k="name" v="Normanndalsbua" />
		<tag k="place" v="locality" />
		<tag k="ssr:stedsnr" v="764592" />
	</node>
	<node lat="58.98294166843488" lon="8.260336113422726" id="-25728">
		<tag k="name" v="Lastevasen" />
		<tag k="place" v="locality" />
		<tag k="ssr:stedsnr" v="773089" />
	</node>
	<node lat="59.2799158211366" lon="7.771050881480376" id="-25834">
		<tag k="name" v="Vassfit" />
		<tag k="place" v="locality" />
		<tag k="ssr:stedsnr" v="913920" />
	</node>
	<node lat="59.282411114224665" lon="8.118361109975131" id="-25875">
		<tag k="name" v="Sandskøti" />
		<tag k="place" v="locality" />
		<tag k="ssr:stedsnr" v="837132" />
	</node>
	<node lat="59.073516667118135" lon="8.266013889904935" id="-26072">
		<tag k="name" v="Bjønnskjella" />
		<tag k="place" v="locality" />
		<tag k="ssr:stedsnr" v="229518" />
	</node>
	<node lat="59.01837500360721" lon="8.236544443703691" id="-26099">
		<tag k="name" v="Skarken" />
		<tag k="place" v="locality" />
		<tag k="ssr:stedsnr" v="958801" />
	</node>
</osm>
