<?xml version="1.0" encoding="UTF-8"?>
<osm version="0.6" generator="osmapis">
	<node lat="58.99844999914322" lon="8.281699991730335" id="-25022">
		<tag k="name" v="Krokane" />
		<tag k="place" v="locality" />
		<tag k="ssr:stedsnr" v="861" />
	</node>
	<node lat="59.14583055560164" lon="8.083958336007205" id="-25029">
		<tag k="name" v="Sandnes" />
		<tag k="natural" v="cape" />
		<tag k="ssr:stedsnr" v="1406" />
	</node>
	<node lat="59.14346666475372" lon="7.980608327853937" id="-25030">
		<tag k="name" v="Fardøl" />
		<tag k="old_name" v="Fardøla" />
		<tag k="ssr:stedsnr" v="1413" />
		<tag k="waterway" v="river" />
	</node>
	<node lat="59.044877779051525" lon="7.910875001667371" id="-25031">
		<tag k="alt_name" v="Kråketjørnane, øvre" />
		<tag k="name" v="Øvre Kråketjønn" />
		<tag k="natural" v="water" />
		<tag k="ssr:stedsnr" v="1491" />
	</node>
	<node lat="59.163423551329394" lon="7.8567637112803075" id="-25034">
		<tag k="alt_name" v="Tussetjørn" />
		<tag k="name" v="Tussetjønn" />
		<tag k="natural" v="water" />
		<tag k="ssr:stedsnr" v="1395" />
	</node>
	<node lat="59.25671666562781" lon="8.167666662785614" id="-25040">
		<tag k="alt_name" v="Hardtotjørn" />
		<tag k="name" v="Hartotjønna" />
		<tag k="natural" v="water" />
		<tag k="ssr:stedsnr" v="2216" />
	</node>
	<node lat="59.07867500408079" lon="7.861702780220576" id="-25045">
		<tag k="alt_name" v="Skarketjørnane" />
		<tag k="name" v="Skarketjønnane" />
		<tag k="natural" v="water" />
		<tag k="ssr:stedsnr" v="2478" />
	</node>
	<node lat="59.29387777459029" lon="7.710630553338531" id="-25046">
		<tag k="name" v="Brårvatn" />
		<tag k="natural" v="water" />
		<tag k="old_name" v="Brårvatnet" />
		<tag k="ssr:stedsnr" v="2703" />
		<tag k="water" v="lake" />
	</node>
	<node lat="59.27895278065095" lon="8.038924992644729" id="-25050">
		<tag k="name" v="Songedalsåi" />
		<tag k="ssr:stedsnr" v="2913" />
		<tag k="waterway" v="river" />
	</node>
	<node lat="59.013261745646425" lon="8.258605766812659" id="-25056">
		<tag k="alt_name" v="Båttjørni" />
		<tag k="name" v="Båttjønn" />
		<tag k="natural" v="water" />
		<tag k="ssr:stedsnr" v="2996" />
		<tag k="water" v="lake" />
	</node>
	<node lat="59.304455558153485" lon="8.100263883390195" id="-25062">
		<tag k="name" v="Grånlibekken" />
		<tag k="ssr:stedsnr" v="230362" />
		<tag k="waterway" v="stream" />
	</node>
	<node lat="59.18154722208515" lon="8.225991658110908" id="-25075">
		<tag k="name" v="Dammen" />
		<tag k="ssr:stedsnr" v="230717" />
		<tag k="waterway" v="dam" />
	</node>
	<node lat="59.01492777887012" lon="8.27051945275604" id="-25078">
		<tag k="name" v="Kjeddingodden" />
		<tag k="natural" v="cape" />
		<tag k="ssr:stedsnr" v="230813" />
	</node>
	<node lat="59.066919447342045" lon="8.31272222126444" id="-25081">
		<tag k="name" v="Løyningstjønn" />
		<tag k="natural" v="water" />
		<tag k="ssr:stedsnr" v="230873" />
	</node>
	<node lat="59.3533361138532" lon="7.813177772223995" id="-25086">
		<tag k="name" v="Langetjønn" />
		<tag k="natural" v="water" />
		<tag k="ssr:stedsnr" v="231114" />
	</node>
	<node lat="59.29862222083676" lon="7.892136113812142" id="-25089">
		<tag k="name" v="Håmsbekken" />
		<tag k="ssr:stedsnr" v="231266" />
		<tag k="waterway" v="stream" />
	</node>
	<node lat="59.13886944341153" lon="8.056130547704129" id="-25093">
		<tag k="name" v="Tveitsandodden" />
		<tag k="natural" v="cape" />
		<tag k="ssr:stedsnr" v="231372" />
	</node>
	<node lat="59.29950555982572" lon="7.990166673746869" id="-25098">
		<tag k="name" v="Fosshedda" />
		<tag k="ssr:stedsnr" v="231749" />
		<tag k="waterway" v="rapids" />
	</node>
	<node lat="59.28450555363084" lon="7.942411118267792" id="-25099">
		<tag k="name" v="Hovdestøyltjønni" />
		<tag k="natural" v="water" />
		<tag k="ssr:stedsnr" v="231717" />
	</node>
	<node lat="59.01663333260339" lon="7.94004444048638" id="-25107">
		<tag k="alt_name" v="Nilsestjørn" />
		<tag k="name" v="Nilsestjønn" />
		<tag k="natural" v="water" />
		<tag k="ssr:stedsnr" v="27482" />
	</node>
	<node lat="59.06091388742807" lon="7.9580055568018455" id="-25111">
		<tag k="alt_name" v="Laugkilen" />
		<tag k="name" v="Laugekilen" />
		<tag k="natural" v="bay" />
		<tag k="ssr:stedsnr" v="28029" />
	</node>
	<node lat="59.249652777634665" lon="7.971416662489013" id="-25112">
		<tag k="alt_name" v="Høydalsløkjine" />
		<tag k="name" v="Høydalsløken" />
		<tag k="natural" v="water" />
		<tag k="ssr:stedsnr" v="28035" />
		<tag k="water" v="pond" />
	</node>
	<node lat="59.23050555563092" lon="8.02884166042898" id="-25120">
		<tag k="name" v="Murthyl" />
		<tag k="natural" v="water" />
		<tag k="ssr:stedsnr" v="34210" />
		<tag k="water" v="lake" />
	</node>
	<node lat="59.2102083335128" lon="7.853277781763486" id="-25121">
		<tag k="name" v="Skåpi" />
		<tag k="natural" v="water" />
		<tag k="ssr:stedsnr" v="34503" />
		<tag k="water" v="lake" />
	</node>
	<node lat="59.29047777562363" lon="7.769686111804142" id="-25127">
		<tag k="name" v="Huslandsbekken" />
		<tag k="ssr:stedsnr" v="35224" />
		<tag k="waterway" v="stream" />
	</node>
	<node lat="59.14583611009503" lon="7.876280549376191" id="-25137">
		<tag k="name" v="Nestjønn" />
		<tag k="natural" v="water" />
		<tag k="ssr:stedsnr" v="35701" />
	</node>
	<node lat="59.245675002984356" lon="8.273125008436551" id="-25138">
		<tag k="name" v="Sveigestøylkilen" />
		<tag k="natural" v="bay" />
		<tag k="ssr:stedsnr" v="35702" />
	</node>
	<node lat="59.3159749986445" lon="7.742652784459807" id="-25139">
		<tag k="name" v="Bordbuløkjine" />
		<tag k="natural" v="water" />
		<tag k="ssr:stedsnr" v="35704" />
		<tag k="water" v="pond" />
	</node>
	<node lat="59.057652780006784" lon="8.353819437264008" id="-25141">
		<tag k="name" v="Austre Veilen" />
		<tag k="place" v="locality" />
		<tag k="ssr:stedsnr" v="45129" />
	</node>
	<node lat="59.15634444224302" lon="8.29427777050141" id="-25145">
		<tag k="name" v="Stråndåne" />
		<tag k="ssr:stedsnr" v="47806" />
		<tag k="waterway" v="river" />
	</node>
	<node lat="59.313091671105404" lon="8.181258340639257" id="-25151">
		<tag k="name" v="Tranlemyrbekken" />
		<tag k="ssr:stedsnr" v="48406" />
		<tag k="waterway" v="stream" />
	</node>
	<node lat="59.188672218057285" lon="8.217997215248449" id="-25152">
		<tag k="name" v="Tjønshøl" />
		<tag k="natural" v="water" />
		<tag k="ssr:stedsnr" v="48426" />
	</node>
	<node lat="59.29274167000743" lon="8.24041388515314" id="-25155">
		<tag k="name" v="Svarttjønn" />
		<tag k="natural" v="water" />
		<tag k="ssr:stedsnr" v="48391" />
	</node>
	<node lat="59.024961107572345" lon="8.032261105810058" id="-25163">
		<tag k="name" v="Bulibekken" />
		<tag k="ssr:stedsnr" v="49580" />
		<tag k="waterway" v="stream" />
	</node>
	<node lat="59.29093333765921" lon="7.900002780282611" id="-25164">
		<tag k="name" v="Solliodden" />
		<tag k="natural" v="cape" />
		<tag k="ssr:stedsnr" v="49583" />
	</node>
	<node lat="59.14932500012314" lon="7.760788881707696" id="-25168">
		<tag k="name" v="Grøbukta" />
		<tag k="natural" v="bay" />
		<tag k="ssr:stedsnr" v="49830" />
	</node>
	<node lat="59.244449996948354" lon="8.219683325410964" id="-25173">
		<tag k="alt_name" v="Rolleivstadvatnet" />
		<tag k="name" v="Rolleivstadvatn" />
		<tag k="natural" v="water" />
		<tag k="ssr:stedsnr" v="62017" />
		<tag k="water" v="lake" />
	</node>
	<node lat="59.24146389164658" lon="7.865036114895248" id="-25174">
		<tag k="alt_name" v="Skåltjørn" />
		<tag k="name" v="Skåltjønn" />
		<tag k="natural" v="water" />
		<tag k="ssr:stedsnr" v="62313" />
	</node>
	<node lat="59.225530557024044" lon="7.957419449994293" id="-25176">
		<tag k="alt_name" v="Skridbekk" />
		<tag k="name" v="Skredbekken" />
		<tag k="ssr:stedsnr" v="62324" />
		<tag k="waterway" v="stream" />
	</node>
	<node lat="59.21767777377961" lon="7.8872361193050855" id="-25177">
		<tag k="alt_name" v="Gråsidtjørni" />
		<tag k="name" v="Gråsitjønna" />
		<tag k="natural" v="water" />
		<tag k="old_name" v="Gråsitjørn" />
		<tag k="ssr:stedsnr" v="62325" />
	</node>
	<node lat="59.174363891062974" lon="8.141550007687652" id="-25178">
		<tag k="alt_name" v="Bjørnetjørni" />
		<tag k="name" v="Bjønnetjønn" />
		<tag k="natural" v="water" />
		<tag k="ssr:stedsnr" v="62070" />
	</node>
	<node lat="59.20013611184974" lon="8.185813895628801" id="-25181">
		<tag k="alt_name" v="Steinsmyrtjønn" />
		<tag k="name" v="Steinsmyrløken" />
		<tag k="natural" v="water" />
		<tag k="ssr:stedsnr" v="62081" />
	</node>
	<node lat="58.968788886133424" lon="7.983819447758177" id="-25184">
		<tag k="alt_name" v="Selbuvatn, nedre" />
		<tag k="name" v="Nedre Selbuvatn" />
		<tag k="natural" v="water" />
		<tag k="ssr:stedsnr" v="62620" />
		<tag k="water" v="lake" />
	</node>
	<node lat="59.02176944491998" lon="8.168166672955275" id="-25187">
		<tag k="alt_name" v="Elgheitjørni, øvre" />
		<tag k="name" v="Øvre Elgheitjønn" />
		<tag k="natural" v="water" />
		<tag k="ssr:stedsnr" v="62985" />
	</node>
	<node lat="59.078800003801284" lon="8.226038881476494" id="-25189">
		<tag k="name" v="Falkenes" />
		<tag k="natural" v="cape" />
		<tag k="ssr:stedsnr" v="63210" />
	</node>
	<node lat="59.077125002626296" lon="8.135827784002215" id="-25190">
		<tag k="alt_name" v="Skardtjørni" />
		<tag k="name" v="Skartjønn" />
		<tag k="natural" v="water" />
		<tag k="ssr:stedsnr" v="63212" />
	</node>
	<node lat="59.26494444415468" lon="8.156766662449085" id="-25193">
		<tag k="alt_name" v="Ljostjørn" />
		<tag k="name" v="Ljostjønn" />
		<tag k="natural" v="water" />
		<tag k="ssr:stedsnr" v="63220" />
	</node>
	<node lat="58.96728888551912" lon="8.325600002985905" id="-25198">
		<tag k="name" v="Kanalen" />
		<tag k="place" v="locality" />
		<tag k="ssr:stedsnr" v="243918" />
	</node>
	<node lat="59.226008337635356" lon="8.160052785194301" id="-25201">
		<tag k="alt_name" v="Mostjørni" />
		<tag k="name" v="Mostjønn" />
		<tag k="natural" v="water" />
		<tag k="ssr:stedsnr" v="244067" />
	</node>
	<node lat="59.17653889306293" lon="8.178133327978962" id="-25202">
		<tag k="alt_name" v="Hønetjørni" />
		<tag k="name" v="Hønetjønn" />
		<tag k="natural" v="water" />
		<tag k="ssr:stedsnr" v="244069" />
	</node>
	<node lat="59.13298610977499" lon="8.104611106730369" id="-25207">
		<tag k="alt_name" v="Karlsholmen" />
		<tag k="name" v="Kalsholmane" />
		<tag k="place" v="islet" />
		<tag k="ssr:stedsnr" v="244158" />
	</node>
	<node lat="59.11072499720809" lon="8.218163894650678" id="-25209">
		<tag k="alt_name" v="Kvitjørni" />
		<tag k="name" v="Kvitjønn" />
		<tag k="natural" v="water" />
		<tag k="ssr:stedsnr" v="244180" />
	</node>
	<node lat="59.08063611442236" lon="8.316730548399905" id="-25210">
		<tag k="alt_name" v="Maurdalstjørni" />
		<tag k="name" v="Maurdalstjønna" />
		<tag k="natural" v="water" />
		<tag k="ssr:stedsnr" v="244212" />
	</node>
	<node lat="59.03815277469517" lon="8.362861103266535" id="-25211">
		<tag k="alt_name" v="Krossvatn" />
		<tag k="name" v="Krossvatnet" />
		<tag k="natural" v="water" />
		<tag k="ssr:stedsnr" v="244226" />
		<tag k="water" v="lake" />
	</node>
	<node lat="59.033333334425656" lon="8.36108611282114" id="-25212">
		<tag k="name" v="Fjellskovatnet" />
		<tag k="natural" v="water" />
		<tag k="ssr:stedsnr" v="244228" />
		<tag k="water" v="lake" />
	</node>
	<node lat="59.141636111125415" lon="7.9304305607571015" id="-25213">
		<tag k="alt_name" v="Løynetjørn" />
		<tag k="name" v="Løynetjønn" />
		<tag k="natural" v="water" />
		<tag k="old_name" v="Løyntjørn" />
		<tag k="ssr:stedsnr" v="244421" />
	</node>
	<node lat="59.1999111123964" lon="7.83520833024341" id="-25215">
		<tag k="name" v="Bjorfitvatn" />
		<tag k="natural" v="water" />
		<tag k="ssr:stedsnr" v="244361" />
	</node>
	<node lat="59.190491669139334" lon="8.07511945301342" id="-25217">
		<tag k="alt_name" v="Kjeøya" />
		<tag k="name" v="Kjeøyni" />
		<tag k="place" v="island" />
		<tag k="ssr:stedsnr" v="244371" />
	</node>
	<node lat="58.99255760638802" lon="8.136558886414818" id="-25223">
		<tag k="alt_name" v="Jotjørn" />
		<tag k="name" v="Jotjønn" />
		<tag k="natural" v="water" />
		<tag k="ssr:stedsnr" v="244870" />
	</node>
	<node lat="58.99225277791322" lon="8.110575002306055" id="-25224">
		<tag k="alt_name" v="Grunntjørn" />
		<tag k="name" v="Grunntjønn" />
		<tag k="natural" v="water" />
		<tag k="ssr:stedsnr" v="244872" />
	</node>
	<node lat="59.31295555507896" lon="8.16348332991283" id="-25227">
		<tag k="name" v="Bergesåi" />
		<tag k="ssr:stedsnr" v="245160" />
		<tag k="waterway" v="river" />
	</node>
	<node lat="59.08239166324683" lon="8.131349999386957" id="-25228">
		<tag k="alt_name" v="Grånhomtjønnane" />
		<tag k="name" v="Gråndalstjørnane" />
		<tag k="natural" v="water" />
		<tag k="ssr:stedsnr" v="245193" />
	</node>
	<node lat="59.33801666388947" lon="8.10537778199495" id="-25231">
		<tag k="alt_name" v="Jennesodden" />
		<tag k="name" v="Jønnesodden" />
		<tag k="natural" v="cape" />
		<tag k="ssr:stedsnr" v="245317" />
	</node>
	<node lat="59.2949249958002" lon="7.948213885682147" id="-25232">
		<tag k="name" v="Bergebekken" />
		<tag k="ssr:stedsnr" v="87342" />
		<tag k="waterway" v="stream" />
	</node>
	<node lat="59.2187250014755" lon="7.994400007672642" id="-25234">
		<tag k="name" v="Øvre Finndøl" />
		<tag k="ssr:stedsnr" v="88005" />
		<tag k="waterway" v="river" />
	</node>
	<node lat="59.2410555538769" lon="7.984450004166347" id="-25235">
		<tag k="name" v="Håmmårsjordbekken" />
		<tag k="ssr:stedsnr" v="88024" />
		<tag k="waterway" v="stream" />
	</node>
	<node lat="59.22969999748046" lon="7.924699995935967" id="-25236">
		<tag k="name" v="Glåmbekk" />
		<tag k="ssr:stedsnr" v="88025" />
		<tag k="waterway" v="stream" />
	</node>
	<node lat="59.24816944140414" lon="7.847180564188955" id="-25240">
		<tag k="alt_name" v="Igletjørn" />
		<tag k="name" v="Igletjønn" />
		<tag k="natural" v="water" />
		<tag k="ssr:stedsnr" v="88378" />
	</node>
	<node lat="59.22693889086148" lon="8.072613885487437" id="-25241">
		<tag k="alt_name" v="Taraldlitjønna" />
		<tag k="name" v="Tåråldlitjørni" />
		<tag k="natural" v="water" />
		<tag k="ssr:stedsnr" v="88382" />
	</node>
	<node lat="59.326016668749986" lon="7.857925004340752" id="-25242">
		<tag k="name" v="Flottåi" />
		<tag k="ssr:stedsnr" v="245993" />
		<tag k="waterway" v="stream" />
	</node>
	<node lat="59.31071388956042" lon="8.073674994365042" id="-25244">
		<tag k="alt_name" v="Stemtjørn" />
		<tag k="name" v="Stemmetjønn" />
		<tag k="natural" v="water" />
		<tag k="ssr:stedsnr" v="245943" />
	</node>
	<node lat="59.24543888513872" lon="8.237463886753838" id="-25255">
		<tag k="name" v="Foldsæbekken" />
		<tag k="ssr:stedsnr" v="96004" />
		<tag k="waterway" v="stream" />
	</node>
	<node lat="59.18143333162752" lon="7.777133328920054" id="-25258">
		<tag k="name" v="Høydalstjønna" />
		<tag k="natural" v="water" />
		<tag k="ssr:stedsnr" v="96277" />
	</node>
	<node lat="59.31203055386034" lon="7.7927333328931585" id="-25260">
		<tag k="name" v="Ingusnesbekken" />
		<tag k="ssr:stedsnr" v="96363" />
		<tag k="waterway" v="stream" />
	</node>
	<node lat="59.14297500172178" lon="7.895891668425666" id="-25263">
		<tag k="name" v="Baktuvkilen" />
		<tag k="natural" v="bay" />
		<tag k="ssr:stedsnr" v="96615" />
	</node>
	<node lat="59.24304722505848" lon="8.301624995328977" id="-25267">
		<tag k="name" v="Foreheibekken" />
		<tag k="ssr:stedsnr" v="96672" />
		<tag k="waterway" v="stream" />
	</node>
	<node lat="59.31502777783006" lon="7.736313888206905" id="-25268">
		<tag k="name" v="Bordbutjønna" />
		<tag k="natural" v="water" />
		<tag k="ssr:stedsnr" v="96675" />
	</node>
	<node lat="59.19944167053242" lon="8.001694439478909" id="-25269">
		<tag k="name" v="Listøylbekken" />
		<tag k="ssr:stedsnr" v="96568" />
		<tag k="waterway" v="stream" />
	</node>
	<node lat="59.20340277837662" lon="8.018538884348647" id="-25270">
		<tag k="name" v="Gausvassdammen" />
		<tag k="ssr:stedsnr" v="96576" />
		<tag k="waterway" v="dam" />
	</node>
	<node lat="59.14456111027426" lon="7.771027774029199" id="-25271">
		<tag k="name" v="Beritstjønn" />
		<tag k="natural" v="water" />
		<tag k="ssr:stedsnr" v="98919" />
	</node>
	<node lat="59.07100555243547" lon="8.360641659354595" id="-25273">
		<tag k="name" v="Stakkhombekken" />
		<tag k="ssr:stedsnr" v="105016" />
		<tag k="waterway" v="stream" />
	</node>
	<node lat="59.08164444381436" lon="8.234469441519533" id="-25281">
		<tag k="name" v="Setebekken" />
		<tag k="ssr:stedsnr" v="107576" />
		<tag k="waterway" v="stream" />
	</node>
	<node lat="59.199813889290056" lon="8.249408336200954" id="-25287">
		<tag k="name" v="Fådapen" />
		<tag k="natural" v="water" />
		<tag k="ssr:stedsnr" v="108715" />
		<tag k="water" v="pond" />
	</node>
	<node lat="59.00936111009406" lon="8.268155554282169" id="-25292">
		<tag k="name" v="Glom" />
		<tag k="natural" v="bay" />
		<tag k="ssr:stedsnr" v="109202" />
	</node>
	<node lat="58.982258332445" lon="8.046405559653731" id="-25293">
		<tag k="name" v="Dagsbeitbukta" />
		<tag k="natural" v="bay" />
		<tag k="ssr:stedsnr" v="109226" />
	</node>
	<node lat="59.053663892659756" lon="7.972888893297554" id="-25294">
		<tag k="name" v="Osen" />
		<tag k="natural" v="bay" />
		<tag k="ssr:stedsnr" v="109118" />
	</node>
	<node lat="59.25762499708274" lon="7.909036111641383" id="-25314">
		<tag k="name" v="Fiskodden" />
		<tag k="natural" v="cape" />
		<tag k="ssr:stedsnr" v="110598" />
	</node>
	<node lat="58.9876388902374" lon="8.305502780939223" id="-25319">
		<tag k="name" v="Revsanden" />
		<tag k="natural" v="beach" />
		<tag k="ssr:stedsnr" v="250056" />
	</node>
	<node lat="59.11623888458784" lon="8.250700001674788" id="-25320">
		<tag k="alt_name" v="Fritjørni" />
		<tag k="name" v="Fritjønn" />
		<tag k="natural" v="water" />
		<tag k="ssr:stedsnr" v="122127" />
		<tag k="water" v="lake" />
	</node>
	<node lat="59.18607777389083" lon="8.286383339880862" id="-25323">
		<tag k="alt_name" v="Grytvatnet" />
		<tag k="name" v="Grytevatn" />
		<tag k="natural" v="water" />
		<tag k="ssr:stedsnr" v="122083" />
		<tag k="water" v="lake" />
	</node>
	<node lat="59.19787778190649" lon="8.192558331005653" id="-25324">
		<tag k="alt_name" v="Saurtjørn" />
		<tag k="name" v="Saurtjønn" />
		<tag k="natural" v="water" />
		<tag k="ssr:stedsnr" v="122086" />
	</node>
	<node lat="59.2006055561692" lon="8.175036112195901" id="-25325">
		<tag k="alt_name" v="Grastjørni" />
		<tag k="name" v="Grastjønn" />
		<tag k="natural" v="water" />
		<tag k="ssr:stedsnr" v="122087" />
	</node>
	<node lat="59.246780558819026" lon="8.154411107822225" id="-25328">
		<tag k="alt_name" v="Husstøylvatn" />
		<tag k="name" v="Husstøylvatnet" />
		<tag k="natural" v="water" />
		<tag k="ssr:stedsnr" v="123017" />
		<tag k="water" v="lake" />
	</node>
	<node lat="59.240399999507595" lon="8.136388893128014" id="-25329">
		<tag k="name" v="Fosslibekken" />
		<tag k="ssr:stedsnr" v="123018" />
		<tag k="waterway" v="stream" />
	</node>
	<node lat="59.22504999611793" lon="8.24273054804397" id="-25330">
		<tag k="alt_name" v="Sandvatnet" />
		<tag k="name" v="Sandvatn" />
		<tag k="natural" v="water" />
		<tag k="ssr:stedsnr" v="123068" />
		<tag k="water" v="lake" />
	</node>
	<node lat="59.126958331153254" lon="8.270680554478766" id="-25337">
		<tag k="alt_name" v="Hellestjørni" />
		<tag k="name" v="Hellestjønn" />
		<tag k="natural" v="water" />
		<tag k="ssr:stedsnr" v="123142" />
	</node>
	<node lat="59.2753999957022" lon="7.954713895605682" id="-25339">
		<tag k="alt_name" v="Hovdetjørnane" />
		<tag k="name" v="Hovdetjønnane" />
		<tag k="natural" v="water" />
		<tag k="ssr:stedsnr" v="124909" />
	</node>
	<node lat="59.14247777874257" lon="7.744144435790964" id="-25341">
		<tag k="alt_name" v="Bærvatn" />
		<tag k="name" v="Berevatn" />
		<tag k="natural" v="water" />
		<tag k="ssr:stedsnr" v="144602" />
		<tag k="water" v="lake" />
	</node>
	<node lat="58.990958337018675" lon="8.281038896535852" id="-25342">
		<tag k="name" v="Sønderlandsodden" />
		<tag k="natural" v="cape" />
		<tag k="ssr:stedsnr" v="146029" />
	</node>
	<node lat="59.2073861104083" lon="7.763941658391451" id="-25344">
		<tag k="alt_name" v="Torsdalstjørn" />
		<tag k="name" v="Torsdalstjønna" />
		<tag k="natural" v="water" />
		<tag k="ssr:stedsnr" v="148455" />
	</node>
	<node lat="59.22453889308566" lon="7.939366671849482" id="-25345">
		<tag k="name" v="Budalsbekken" />
		<tag k="ssr:stedsnr" v="149007" />
		<tag k="waterway" v="stream" />
	</node>
	<node lat="59.13341944757384" lon="7.838897227468201" id="-25346">
		<tag k="alt_name" v="Lortvarttjørni" />
		<tag k="name" v="Lortvasstjønn" />
		<tag k="natural" v="water" />
		<tag k="ssr:stedsnr" v="149014" />
	</node>
	<node lat="59.24561944831824" lon="8.133230548243827" id="-25347">
		<tag k="name" v="Bjønnåsløkjine" />
		<tag k="natural" v="water" />
		<tag k="ssr:stedsnr" v="155315" />
		<tag k="water" v="lake" />
	</node>
	<node lat="59.28011666522354" lon="7.7849777751950535" id="-25353">
		<tag k="name" v="Åsibekken" />
		<tag k="ssr:stedsnr" v="156009" />
		<tag k="waterway" v="stream" />
	</node>
	<node lat="59.27722499846155" lon="7.759611117666491" id="-25356">
		<tag k="name" v="Listøyltjønna" />
		<tag k="natural" v="water" />
		<tag k="ssr:stedsnr" v="156367" />
	</node>
	<node lat="59.16558611466628" lon="7.7359972230853575" id="-25359">
		<tag k="name" v="Folepytten" />
		<tag k="natural" v="water" />
		<tag k="ssr:stedsnr" v="157060" />
	</node>
	<node lat="59.173497223122034" lon="7.7966861043948485" id="-25361">
		<tag k="name" v="Sagodden" />
		<tag k="natural" v="cape" />
		<tag k="ssr:stedsnr" v="157219" />
	</node>
	<node lat="59.18402777687054" lon="7.806475007390955" id="-25362">
		<tag k="name" v="Kottjønn" />
		<tag k="natural" v="water" />
		<tag k="ssr:stedsnr" v="157222" />
	</node>
	<node lat="59.23928333538811" lon="7.901372223774375" id="-25366">
		<tag k="name" v="Tobakksbekken" />
		<tag k="ssr:stedsnr" v="156948" />
		<tag k="waterway" v="stream" />
	</node>
	<node lat="59.241177777148614" lon="8.284144449007144" id="-25370">
		<tag k="name" v="Homvassosen" />
		<tag k="natural" v="bay" />
		<tag k="ssr:stedsnr" v="157654" />
	</node>
	<node lat="59.01978333481461" lon="8.379291659114461" id="-25379">
		<tag k="name" v="Nedre Skulhomtjønn" />
		<tag k="natural" v="water" />
		<tag k="ssr:stedsnr" v="168703" />
	</node>
	<node lat="59.06270833389501" lon="7.985766664280017" id="-25382">
		<tag k="name" v="Tovslielva" />
		<tag k="ssr:stedsnr" v="169068" />
		<tag k="waterway" v="river" />
	</node>
	<node lat="59.25183333571282" lon="8.174741670032862" id="-25384">
		<tag k="name" v="Sjelbergvikja" />
		<tag k="natural" v="bay" />
		<tag k="ssr:stedsnr" v="169112" />
	</node>
	<node lat="59.14030555843048" lon="8.181288893593143" id="-25388">
		<tag k="name" v="Fribekk" />
		<tag k="ssr:stedsnr" v="169321" />
		<tag k="waterway" v="stream" />
	</node>
	<node lat="59.266836108595086" lon="8.078030549260982" id="-25393">
		<tag k="name" v="Lauvnesi" />
		<tag k="natural" v="cape" />
		<tag k="ssr:stedsnr" v="169475" />
	</node>
	<node lat="59.242833332963016" lon="8.2132777714529" id="-25398">
		<tag k="name" v="Fjellstøylbukta" />
		<tag k="natural" v="bay" />
		<tag k="ssr:stedsnr" v="169821" />
	</node>
	<node lat="59.02380833215224" lon="8.087972217189078" id="-25400">
		<tag k="name" v="Holbekk" />
		<tag k="ssr:stedsnr" v="169905" />
		<tag k="waterway" v="stream" />
	</node>
	<node lat="59.16808610882355" lon="8.083280549181199" id="-25408">
		<tag k="name" v="Kilengsto" />
		<tag k="natural" v="beach" />
		<tag k="ssr:stedsnr" v="170720" />
	</node>
	<node lat="59.2559638849571" lon="8.24830277798169" id="-25410">
		<tag k="name" v="Ljostjønnbekken" />
		<tag k="ssr:stedsnr" v="170767" />
		<tag k="waterway" v="stream" />
	</node>
	<node lat="59.04498888547121" lon="8.270686117253" id="-25416">
		<tag k="alt_name" v="Haukebekk" />
		<tag k="name" v="Haukebekken" />
		<tag k="ssr:stedsnr" v="183217" />
		<tag k="waterway" v="stream" />
	</node>
	<node lat="59.03791666697207" lon="8.163944445516469" id="-25419">
		<tag k="alt_name" v="Sylvtjørni" />
		<tag k="name" v="Sylvtjønn" />
		<tag k="natural" v="water" />
		<tag k="ssr:stedsnr" v="183231" />
	</node>
	<node lat="59.24227500263671" lon="7.917847218485463" id="-25424">
		<tag k="name" v="Kleivvatn" />
		<tag k="natural" v="water" />
		<tag k="ssr:stedsnr" v="183303" />
		<tag k="water" v="lake" />
	</node>
	<node lat="59.13965833026991" lon="7.810774997145089" id="-25426">
		<tag k="name" v="Hovatn" />
		<tag k="natural" v="water" />
		<tag k="ssr:stedsnr" v="183356" />
		<tag k="water" v="lake" />
	</node>
	<node lat="59.03462777452629" lon="7.883263895809742" id="-25430">
		<tag k="name" v="Grøssæ" />
		<tag k="natural" v="water" />
		<tag k="ssr:stedsnr" v="183442" />
		<tag k="water" v="lake" />
	</node>
	<node lat="59.163575001367164" lon="8.128544446615999" id="-25433">
		<tag k="alt_name" v="Øytjørn" />
		<tag k="name" v="Øytjønn" />
		<tag k="natural" v="water" />
		<tag k="ssr:stedsnr" v="184095" />
	</node>
	<node lat="59.25375833658453" lon="7.729944451114973" id="-25442">
		<tag k="alt_name" v="Øytjørn" />
		<tag k="name" v="Øytjønnane" />
		<tag k="natural" v="water" />
		<tag k="ssr:stedsnr" v="184908" />
		<tag k="water" v="lake" />
	</node>
	<node lat="59.01536666392517" lon="8.174000000164902" id="-25444">
		<tag k="alt_name" v="Elgheitjørni, nedre" />
		<tag k="name" v="Nedre Elgheitjønn" />
		<tag k="natural" v="water" />
		<tag k="ssr:stedsnr" v="184981" />
	</node>
	<node lat="59.01327500199724" lon="8.148608326372038" id="-25445">
		<tag k="alt_name" v="Øytjørn" />
		<tag k="name" v="Øytjønn" />
		<tag k="natural" v="water" />
		<tag k="ssr:stedsnr" v="184982" />
	</node>
	<node lat="59.215666663406104" lon="8.079950007583472" id="-25448">
		<tag k="fixme" v="multiple name tags, choose one and add the other to alt_name" />
		<tag k="name" v="Einangsfossen;Einang" />
		<tag k="natural" v="waterfall" />
		<tag k="ssr:stedsnr" v="210015" />
	</node>
	<node lat="59.27623888632156" lon="7.88733888618054" id="-25450">
		<tag k="alt_name" v="Flottestrånd" />
		<tag k="name" v="Flottestrond" />
		<tag k="natural" v="beach" />
		<tag k="ssr:stedsnr" v="270395" />
	</node>
	<node lat="59.257499999773984" lon="7.74828333062792" id="-25463">
		<tag k="name" v="Sollitjønna" />
		<tag k="natural" v="water" />
		<tag k="ssr:stedsnr" v="217223" />
	</node>
	<node lat="59.272472225886474" lon="7.751683328644944" id="-25466">
		<tag k="name" v="Lomstjønn" />
		<tag k="natural" v="water" />
		<tag k="ssr:stedsnr" v="217384" />
	</node>
	<node lat="59.13163333372836" lon="7.997166671112283" id="-25468">
		<tag k="alt_name" v="Tverråa" />
		<tag k="name" v="Tverråne" />
		<tag k="ssr:stedsnr" v="217389" />
		<tag k="waterway" v="river" />
	</node>
	<node lat="59.21959444590321" lon="8.090611117503501" id="-25471">
		<tag k="alt_name" v="Brokkenesi" />
		<tag k="name" v="Brokkenes" />
		<tag k="natural" v="cape" />
		<tag k="ssr:stedsnr" v="270449" />
	</node>
	<node lat="59.235208329772085" lon="7.928236119509674" id="-25475">
		<tag k="name" v="Ramnevassbukta" />
		<tag k="natural" v="bay" />
		<tag k="ssr:stedsnr" v="217715" />
	</node>
	<node lat="59.12679444801712" lon="8.01316111830926" id="-25482">
		<tag k="name" v="Godbekk" />
		<tag k="ssr:stedsnr" v="270519" />
		<tag k="waterway" v="stream" />
	</node>
	<node lat="59.2543472195976" lon="7.855355555460551" id="-25484">
		<tag k="name" v="Skarstøylbekken" />
		<tag k="ssr:stedsnr" v="218582" />
		<tag k="waterway" v="stream" />
	</node>
	<node lat="59.15571944562895" lon="8.149700005484602" id="-25491">
		<tag k="name" v="Vefsåstjønna" />
		<tag k="natural" v="water" />
		<tag k="ssr:stedsnr" v="229289" />
	</node>
	<node lat="59.152608336357005" lon="8.123508327387244" id="-25492">
		<tag k="name" v="Ufstjønn" />
		<tag k="natural" v="water" />
		<tag k="ssr:stedsnr" v="229298" />
	</node>
	<node lat="59.15249999943202" lon="8.1369305541057" id="-25493">
		<tag k="name" v="Åkrokane" />
		<tag k="place" v="locality" />
		<tag k="ssr:stedsnr" v="229300" />
	</node>
	<node lat="59.09616667094959" lon="8.24087778389253" id="-25495">
		<tag k="name" v="Fisketjønnåne" />
		<tag k="ssr:stedsnr" v="229484" />
		<tag k="waterway" v="stream" />
	</node>
	<node lat="59.065277774646475" lon="7.989152782625305" id="-25502">
		<tag k="name" v="Tverråne" />
		<tag k="ssr:stedsnr" v="230081" />
		<tag k="waterway" v="river" />
	</node>
	<node lat="59.06052499783222" lon="7.938941658791246" id="-25504">
		<tag k="name" v="Vestobukta" />
		<tag k="natural" v="bay" />
		<tag k="ssr:stedsnr" v="230092" />
	</node>
	<node lat="59.141766670016295" lon="8.21660555010471" id="-25506">
		<tag k="name" v="Tjoåne" />
		<tag k="ssr:stedsnr" v="230314" />
		<tag k="waterway" v="stream" />
	</node>
	<node lat="59.05483611363767" lon="8.360097220239249" id="-25512">
		<tag k="name" v="Langøy" />
		<tag k="place" v="island" />
		<tag k="ssr:stedsnr" v="230481" />
	</node>
	<node lat="59.04658333141375" lon="8.104480551779602" id="-25515">
		<tag k="name" v="Kvisleåne" />
		<tag k="ssr:stedsnr" v="230810" />
		<tag k="waterway" v="stream" />
	</node>
	<node lat="59.04675000238206" lon="7.962136108568839" id="-25521">
		<tag k="name" v="Småøyane" />
		<tag k="place" v="islet" />
		<tag k="ssr:stedsnr" v="231037" />
	</node>
	<node lat="59.1116277742526" lon="8.023158331882662" id="-25524">
		<tag k="name" v="Skjentjønn" />
		<tag k="natural" v="water" />
		<tag k="ssr:stedsnr" v="231203" />
	</node>
	<node lat="59.14434722183107" lon="7.7452944520146145" id="-25530">
		<tag k="name" v="Djeveløya" />
		<tag k="place" v="island" />
		<tag k="ssr:stedsnr" v="231833" />
	</node>
	<node lat="59.321561114663716" lon="7.863313888435342" id="-25532">
		<tag k="name" v="Slystøylåi" />
		<tag k="ssr:stedsnr" v="231878" />
		<tag k="waterway" v="river" />
	</node>
	<node lat="58.99804444798006" lon="8.071955561278394" id="-25537">
		<tag k="alt_name" v="Fiskåne" />
		<tag k="name" v="Fiskåni" />
		<tag k="ssr:stedsnr" v="243604" />
		<tag k="waterway" v="stream" />
	</node>
	<node lat="59.2354833291425" lon="8.036055559836756" id="-25538">
		<tag k="name" v="Sagåni" />
		<tag k="ssr:stedsnr" v="452006" />
		<tag k="waterway" v="stream" />
	</node>
	<node lat="58.98312500437807" lon="8.259574992073338" id="-25539">
		<tag k="alt_name" v="Straumsåne" />
		<tag k="name" v="Straumsåi" />
		<tag k="ssr:stedsnr" v="243888" />
		<tag k="waterway" v="stream" />
	</node>
	<node lat="58.98357499852614" lon="8.309500000171688" id="-25540">
		<tag k="name" v="Drang" />
		<tag k="natural" v="water" />
		<tag k="ssr:stedsnr" v="243891" />
		<tag k="water" v="lake" />
	</node>
	<node lat="59.11825277695269" lon="8.20120555383228" id="-25542">
		<tag k="name" v="Aslomtjørnane" />
		<tag k="natural" v="water" />
		<tag k="ssr:stedsnr" v="244136" />
	</node>
	<node lat="59.051599999598366" lon="8.330136104111116" id="-25547">
		<tag k="alt_name" v="Kroktjørni" />
		<tag k="name" v="Kroktjønn" />
		<tag k="natural" v="water" />
		<tag k="ssr:stedsnr" v="244240" />
	</node>
	<node lat="59.136897217778184" lon="7.848063888654166" id="-25549">
		<tag k="alt_name" v="Morliktjørn" />
		<tag k="name" v="Morliktjønn" />
		<tag k="natural" v="water" />
		<tag k="old_name" v="Moliktjørn" />
		<tag k="ssr:stedsnr" v="244405" />
	</node>
	<node lat="59.15537499846255" lon="7.753988896459565" id="-25552">
		<tag k="alt_name" v="Hyttekvævtjørn" />
		<tag k="name" v="Hyttekvævtjønna" />
		<tag k="natural" v="water" />
		<tag k="ssr:stedsnr" v="452037" />
	</node>
	<node lat="59.24561666400167" lon="7.824155553598425" id="-25553">
		<tag k="name" v="Løkfitbekken" />
		<tag k="ssr:stedsnr" v="452045" />
		<tag k="waterway" v="stream" />
	</node>
	<node lat="59.06190114338731" lon="8.11075005460915" id="-25556">
		<tag k="alt_name" v="Skotjørn, l" />
		<tag k="name" v="Øvre Skotjønn" />
		<tag k="natural" v="water" />
		<tag k="ssr:stedsnr" v="244195" />
	</node>
	<node lat="59.234502778095674" lon="7.970322216487642" id="-25557">
		<tag k="name" v="Bondalsvatn" />
		<tag k="natural" v="water" />
		<tag k="ssr:stedsnr" v="244338" />
		<tag k="water" v="lake" />
	</node>
	<node lat="59.16635000104281" lon="8.039280561497419" id="-25560">
		<tag k="alt_name" v="Vikebukti" />
		<tag k="name" v="Vikbukta" />
		<tag k="natural" v="bay" />
		<tag k="ssr:stedsnr" v="244393" />
	</node>
	<node lat="59.16085555712318" lon="7.737155555196588" id="-25561">
		<tag k="alt_name" v="Snigletjørn;Snigletjønn" />
		<tag k="name" v="Snigletjønnane" />
		<tag k="natural" v="water" />
		<tag k="ssr:stedsnr" v="452055" />
	</node>
	<node lat="58.97836110936742" lon="8.187583326138197" id="-25562">
		<tag k="name" v="Mjåvatn" />
		<tag k="natural" v="water" />
		<tag k="ssr:stedsnr" v="244899" />
		<tag k="water" v="lake" />
	</node>
	<node lat="59.00222499593581" lon="8.220775003559824" id="-25563">
		<tag k="name" v="Bindøl" />
		<tag k="ssr:stedsnr" v="244975" />
		<tag k="waterway" v="stream" />
	</node>
	<node lat="59.320425000563226" lon="7.820811112454982" id="-25566">
		<tag k="alt_name" v="Uvtjørn" />
		<tag k="name" v="Uvtjønna" />
		<tag k="natural" v="water" />
		<tag k="ssr:stedsnr" v="452351" />
	</node>
	<node lat="59.282346186612294" lon="7.918777028408924" id="-25568">
		<tag k="name" v="Høgetjørn" />
		<tag k="natural" v="water" />
		<tag k="ssr:stedsnr" v="452385" />
	</node>
	<node lat="59.190866669439316" lon="7.962463887350737" id="-25572">
		<tag k="name" v="Grastjørn" />
		<tag k="natural" v="water" />
		<tag k="ssr:stedsnr" v="452438" />
	</node>
	<node lat="59.23485833661311" lon="8.080266665991108" id="-25581">
		<tag k="name" v="Mørkneshylen" />
		<tag k="place" v="locality" />
		<tag k="ssr:stedsnr" v="458488" />
	</node>
	<node lat="59.145600003011225" lon="7.767663891254493" id="-25589">
		<tag k="alt_name" v="Saukleivtjørn" />
		<tag k="name" v="Saukleivtjønn" />
		<tag k="natural" v="water" />
		<tag k="ssr:stedsnr" v="270433" />
	</node>
	<node lat="59.30087500046133" lon="7.884886106064798" id="-25595">
		<tag k="alt_name" v="Fjellstøyltjørnane" />
		<tag k="name" v="Fjellstøyltjønni" />
		<tag k="natural" v="water" />
		<tag k="ssr:stedsnr" v="270383" />
	</node>
	<node lat="59.3107085681404" lon="8.061803384919246" id="-25596">
		<tag k="alt_name" v="Svoletjørnane" />
		<tag k="name" v="Svøletjønnane" />
		<tag k="natural" v="water" />
		<tag k="ssr:stedsnr" v="270384" />
	</node>
	<node lat="59.21003333155818" lon="7.845927778048599" id="-25600">
		<tag k="name" v="Nommernes" />
		<tag k="natural" v="cape" />
		<tag k="ssr:stedsnr" v="459495" />
	</node>
	<node lat="59.24893611508633" lon="8.154463893606565" id="-25604">
		<tag k="name" v="Kotodden" />
		<tag k="natural" v="cape" />
		<tag k="ssr:stedsnr" v="276392" />
	</node>
	<node lat="59.18118611344578" lon="7.774669441194938" id="-25610">
		<tag k="name" v="Sæbyggjeodden" />
		<tag k="natural" v="cape" />
		<tag k="ssr:stedsnr" v="278290" />
	</node>
	<node lat="59.17854444109388" lon="7.803174994787494" id="-25613">
		<tag k="name" v="Molteøya" />
		<tag k="place" v="island" />
		<tag k="ssr:stedsnr" v="278306" />
	</node>
	<node lat="59.30810278024738" lon="7.77433332798819" id="-25615">
		<tag k="name" v="Turtelistrånda" />
		<tag k="natural" v="beach" />
		<tag k="ssr:stedsnr" v="278469" />
	</node>
	<node lat="59.19770555531294" lon="8.012808332660448" id="-25616">
		<tag k="name" v="Nye Gausvassdammen" />
		<tag k="ssr:stedsnr" v="278609" />
		<tag k="waterway" v="dam" />
	</node>
	<node lat="59.20513610965093" lon="8.019080556256897" id="-25617">
		<tag k="name" v="Gausåa" />
		<tag k="ssr:stedsnr" v="278614" />
		<tag k="waterway" v="river" />
	</node>
	<node lat="59.124783333534104" lon="7.988547215213735" id="-25620">
		<tag k="name" v="Stavskardbekken" />
		<tag k="ssr:stedsnr" v="278523" />
		<tag k="waterway" v="stream" />
	</node>
	<node lat="59.28908611219352" lon="7.815086109893214" id="-25631">
		<tag k="name" v="Kaupreitjønnbekken" />
		<tag k="ssr:stedsnr" v="460232" />
		<tag k="waterway" v="stream" />
	</node>
	<node lat="59.29485277579796" lon="7.7821888920723845" id="-25632">
		<tag k="name" v="Kjøpvassåi" />
		<tag k="ssr:stedsnr" v="460241" />
		<tag k="waterway" v="river" />
	</node>
	<node lat="59.24338611099437" lon="7.891413892060549" id="-25633">
		<tag k="name" v="Hommebekken" />
		<tag k="ssr:stedsnr" v="460340" />
		<tag k="waterway" v="stream" />
	</node>
	<node lat="59.195736107630296" lon="7.799100008810725" id="-25634">
		<tag k="name" v="Heftarodden" />
		<tag k="natural" v="cape" />
		<tag k="ssr:stedsnr" v="460348" />
	</node>
	<node lat="59.21830277393316" lon="8.215855562951536" id="-25637">
		<tag k="name" v="Hyttetjønn" />
		<tag k="natural" v="water" />
		<tag k="ssr:stedsnr" v="460540" />
	</node>
	<node lat="59.218991666309435" lon="8.243516672534753" id="-25639">
		<tag k="name" v="Hanssonsåta" />
		<tag k="place" v="locality" />
		<tag k="ssr:stedsnr" v="460467" />
	</node>
	<node lat="59.28482222568503" lon="7.758736113913824" id="-25640">
		<tag k="name" v="Strigtjønn" />
		<tag k="natural" v="water" />
		<tag k="ssr:stedsnr" v="460494" />
	</node>
	<node lat="59.2570722261071" lon="7.774744440473819" id="-25648">
		<tag k="name" v="Hovtjønnbekken" />
		<tag k="ssr:stedsnr" v="460881" />
		<tag k="waterway" v="stream" />
	</node>
	<node lat="59.256905555872606" lon="7.817416659759768" id="-25649">
		<tag k="name" v="Nordmanndalsbekken" />
		<tag k="ssr:stedsnr" v="460891" />
		<tag k="waterway" v="stream" />
	</node>
	<node lat="58.954327774863316" lon="8.330866673598639" id="-25655">
		<tag k="name" v="Krokane" />
		<tag k="natural" v="water" />
		<tag k="ssr:stedsnr" v="287991" />
	</node>
	<node lat="58.95156944133928" lon="8.346697223578229" id="-25656">
		<tag k="name" v="Svarthyl" />
		<tag k="place" v="locality" />
		<tag k="ssr:stedsnr" v="287996" />
	</node>
	<node lat="59.061316669440885" lon="8.351133338310149" id="-25657">
		<tag k="name" v="Svenskesåta" />
		<tag k="natural" v="cape" />
		<tag k="ssr:stedsnr" v="288127" />
	</node>
	<node lat="59.063300000540536" lon="8.354216666052746" id="-25658">
		<tag k="name" v="Sundet" />
		<tag k="natural" v="strait" />
		<tag k="ssr:stedsnr" v="288128" />
	</node>
	<node lat="58.99343332954181" lon="8.27623054815041" id="-25672">
		<tag k="name" v="Raugrunn" />
		<tag k="natural" v="shoal" />
		<tag k="place" v="locality" />
		<tag k="ssr:stedsnr" v="291388" />
	</node>
	<node lat="59.0562916684108" lon="8.356538889270482" id="-25674">
		<tag k="name" v="Storøy" />
		<tag k="place" v="island" />
		<tag k="ssr:stedsnr" v="291529" />
	</node>
	<node lat="59.01454444748445" lon="8.263802774857206" id="-25677">
		<tag k="name" v="Lønegravsodden" />
		<tag k="natural" v="cape" />
		<tag k="ssr:stedsnr" v="291849" />
	</node>
	<node lat="58.973227781677835" lon="8.020591673615503" id="-25681">
		<tag k="name" v="Feltedalstjønna" />
		<tag k="natural" v="water" />
		<tag k="ssr:stedsnr" v="292227" />
	</node>
	<node lat="59.050694441128" lon="8.254802775486377" id="-25683">
		<tag k="name" v="Søndersto" />
		<tag k="natural" v="beach" />
		<tag k="ssr:stedsnr" v="291984" />
	</node>
	<node lat="59.036174998461455" lon="8.023541668908608" id="-25689">
		<tag k="name" v="Tarmtjønnane" />
		<tag k="natural" v="water" />
		<tag k="ssr:stedsnr" v="292917" />
	</node>
	<node lat="59.32821111244603" lon="7.876402785402314" id="-25690">
		<tag k="name" v="Hægevassåi" />
		<tag k="ssr:stedsnr" v="292943" />
		<tag k="waterway" v="stream" />
	</node>
	<node lat="59.0816416632801" lon="8.335780557785966" id="-25693">
		<tag k="alt_name" v="Rundemannstjørni" />
		<tag k="name" v="Rundemannstjønn" />
		<tag k="natural" v="water" />
		<tag k="ssr:stedsnr" v="304189" />
	</node>
	<node lat="59.23145833624715" lon="7.832641662786053" id="-25694">
		<tag k="name" v="Ulvsvatn" />
		<tag k="natural" v="water" />
		<tag k="ssr:stedsnr" v="304307" />
		<tag k="water" v="lake" />
	</node>
	<node lat="58.98703333083119" lon="7.997275002251395" id="-25697">
		<tag k="alt_name" v="Ytretjørn" />
		<tag k="name" v="Ytretjønn" />
		<tag k="natural" v="water" />
		<tag k="ssr:stedsnr" v="304609" />
	</node>
	<node lat="58.997277775531416" lon="7.973861113137531" id="-25698">
		<tag k="name" v="Raunekvævtjørn" />
		<tag k="natural" v="water" />
		<tag k="ssr:stedsnr" v="304614" />
	</node>
	<node lat="58.9506444486006" lon="8.29139999192456" id="-25699">
		<tag k="alt_name" v="Løkjene" />
		<tag k="name" v="Løkene" />
		<tag k="natural" v="water" />
		<tag k="ssr:stedsnr" v="304906" />
	</node>
	<node lat="59.01608611391542" lon="8.080313891948702" id="-25709">
		<tag k="alt_name" v="Einerbekk" />
		<tag k="name" v="Einerbekken" />
		<tag k="ssr:stedsnr" v="305029" />
		<tag k="waterway" v="stream" />
	</node>
	<node lat="59.15975555541662" lon="7.846655560978764" id="-25712">
		<tag k="alt_name" v="Tussetjørnbekken" />
		<tag k="name" v="Tussetjønnbekken" />
		<tag k="ssr:stedsnr" v="305419" />
		<tag k="waterway" v="stream" />
	</node>
	<node lat="59.10323055407247" lon="7.965161110002113" id="-25715">
		<tag k="name" v="Langevatn" />
		<tag k="natural" v="water" />
		<tag k="ssr:stedsnr" v="305457" />
		<tag k="water" v="lake" />
	</node>
	<node lat="59.10933888593723" lon="8.084186106571183" id="-25716">
		<tag k="name" v="Kosebekken" />
		<tag k="old_name" v="Kåsebekken" />
		<tag k="ssr:stedsnr" v="305463" />
		<tag k="waterway" v="stream" />
	</node>
	<node lat="59.076355554551185" lon="7.887252778999899" id="-25717">
		<tag k="alt_name" v="Kjellbergtjønn" />
		<tag k="name" v="Kjeldbergtjørni" />
		<tag k="natural" v="water" />
		<tag k="ssr:stedsnr" v="305478" />
	</node>
	<node lat="59.00494444489282" lon="8.288161114154574" id="-25718">
		<tag k="alt_name" v="Kleivtjørni" />
		<tag k="name" v="Kleivtjønn" />
		<tag k="natural" v="water" />
		<tag k="ssr:stedsnr" v="305973" />
	</node>
	<node lat="59.00162500018169" lon="8.304905554844268" id="-25719">
		<tag k="alt_name" v="Kilsåne" />
		<tag k="name" v="Kilåi" />
		<tag k="ssr:stedsnr" v="305976" />
		<tag k="waterway" v="river" />
	</node>
	<node lat="59.28766389024207" lon="7.911872226601635" id="-25721">
		<tag k="name" v="Ugle" />
		<tag k="ssr:stedsnr" v="306912" />
		<tag k="waterway" v="stream" />
	</node>
	<node lat="59.06441388609247" lon="8.35592221754805" id="-25729">
		<tag k="name" v="Lomøya" />
		<tag k="place" v="island" />
		<tag k="ssr:stedsnr" v="470099" />
	</node>
	<node lat="59.018922220020386" lon="7.9474666582057525" id="-25730">
		<tag k="alt_name" v="Rjupetotjørn" />
		<tag k="name" v="Rjupetotjønn" />
		<tag k="natural" v="water" />
		<tag k="ssr:stedsnr" v="330479" />
	</node>
	<node lat="59.04973888766089" lon="7.951472222000743" id="-25732">
		<tag k="alt_name" v="Lisleøy" />
		<tag k="name" v="Lisløy" />
		<tag k="place" v="islet" />
		<tag k="ssr:stedsnr" v="330494" />
	</node>
	<node lat="59.144097221239015" lon="8.088811102903652" id="-25734">
		<tag k="name" v="Ligringsviki" />
		<tag k="natural" v="bay" />
		<tag k="ssr:stedsnr" v="330514" />
	</node>
	<node lat="59.18797222427674" lon="7.9822611188873696" id="-25737">
		<tag k="name" v="Ranneitjørn" />
		<tag k="natural" v="water" />
		<tag k="ssr:stedsnr" v="331010" />
	</node>
	<node lat="59.00543332898817" lon="8.064799994391132" id="-25738">
		<tag k="alt_name" v="Plassebukta" />
		<tag k="name" v="Plassebukti" />
		<tag k="natural" v="bay" />
		<tag k="ssr:stedsnr" v="331018" />
	</node>
	<node lat="59.08393936524665" lon="8.04157389818461" id="-25739">
		<tag k="name" v="Gumsehomtjørni" />
		<tag k="natural" v="water" />
		<tag k="ssr:stedsnr" v="331020" />
	</node>
	<node lat="59.3341777790458" lon="8.065913893461543" id="-25740">
		<tag k="name" v="Nystøylbekken" />
		<tag k="ssr:stedsnr" v="331354" />
		<tag k="waterway" v="stream" />
	</node>
	<node lat="59.34071666260406" lon="8.05340000326386" id="-25741">
		<tag k="alt_name" v="Fjellstøyltjørni" />
		<tag k="name" v="Fjøllstøyltjønni" />
		<tag k="natural" v="water" />
		<tag k="ssr:stedsnr" v="331359" />
	</node>
	<node lat="59.14544166796603" lon="8.22494166089729" id="-25749">
		<tag k="name" v="Sauervikodden" />
		<tag k="natural" v="cape" />
		<tag k="ssr:stedsnr" v="471607" />
	</node>
	<node lat="59.2007999972468" lon="8.06223055931445" id="-25756">
		<tag k="name" v="Nedre Dalåa" />
		<tag k="ssr:stedsnr" v="337797" />
		<tag k="waterway" v="river" />
	</node>
	<node lat="59.237600004149584" lon="7.862958333546716" id="-25757">
		<tag k="name" v="Vinkjelda" />
		<tag k="natural" v="spring" />
		<tag k="ssr:stedsnr" v="338097" />
	</node>
	<node lat="59.28802777752121" lon="7.764394447821154" id="-25763">
		<tag k="name" v="Kvennhusfossen" />
		<tag k="natural" v="waterfall" />
		<tag k="ssr:stedsnr" v="338358" />
	</node>
	<node lat="59.26416667000312" lon="7.800688882818919" id="-25765">
		<tag k="name" v="Ukvitstrånda" />
		<tag k="natural" v="beach" />
		<tag k="ssr:stedsnr" v="338844" />
	</node>
	<node lat="59.140044444001944" lon="7.949533338350893" id="-25770">
		<tag k="name" v="Nedre Saupstøyltjønn" />
		<tag k="natural" v="water" />
		<tag k="ssr:stedsnr" v="339446" />
	</node>
	<node lat="59.261619440600285" lon="8.362783341434481" id="-25774">
		<tag k="name" v="Raudhelleåi" />
		<tag k="ssr:stedsnr" v="472153" />
		<tag k="waterway" v="river" />
	</node>
	<node lat="59.25528333294712" lon="8.070669439278678" id="-25786">
		<tag k="name" v="Øvre Dalåe" />
		<tag k="ssr:stedsnr" v="472442" />
		<tag k="waterway" v="river" />
	</node>
	<node lat="59.029830556684416" lon="8.341013883595908" id="-25794">
		<tag k="name" v="Løkjine" />
		<tag k="natural" v="water" />
		<tag k="ssr:stedsnr" v="472740" />
		<tag k="water" v="lake" />
	</node>
	<node lat="59.015411107956616" lon="8.269266668393108" id="-25797">
		<tag k="name" v="Kjeddingsundet" />
		<tag k="natural" v="strait" />
		<tag k="ssr:stedsnr" v="472826" />
	</node>
	<node lat="59.01559167028029" lon="8.261152780637326" id="-25798">
		<tag k="name" v="Fugleholet" />
		<tag k="natural" v="bay" />
		<tag k="ssr:stedsnr" v="472838" />
	</node>
	<node lat="59.31788333551835" lon="8.129686106440946" id="-25800">
		<tag k="name" v="Veumosen" />
		<tag k="natural" v="bay" />
		<tag k="ssr:stedsnr" v="472984" />
	</node>
	<node lat="59.05350833493036" lon="7.963724999424338" id="-25808">
		<tag k="name" v="Stemmen" />
		<tag k="natural" v="bay" />
		<tag k="ssr:stedsnr" v="473149" />
	</node>
	<node lat="59.08385555773818" lon="8.080000006504413" id="-25810">
		<tag k="name" v="Grøtjønn nedre" />
		<tag k="natural" v="water" />
		<tag k="ssr:stedsnr" v="473432" />
	</node>
	<node lat="59.00162499860539" lon="8.282380557664856" id="-25812">
		<tag k="name" v="Nautelibukti" />
		<tag k="natural" v="bay" />
		<tag k="ssr:stedsnr" v="473406" />
	</node>
	<node lat="59.29099999603769" lon="8.264444450607211" id="-25813">
		<tag k="name" v="Høgfoss" />
		<tag k="natural" v="waterfall" />
		<tag k="ssr:stedsnr" v="473453" />
	</node>
	<node lat="59.343208337699004" lon="8.140249994220792" id="-25817">
		<tag k="name" v="Hauggrendstråndi" />
		<tag k="natural" v="beach" />
		<tag k="ssr:stedsnr" v="473740" />
	</node>
	<node lat="59.14562499572021" lon="8.235511119258248" id="-25823">
		<tag k="name" v="Den brende odden" />
		<tag k="natural" v="cape" />
		<tag k="ssr:stedsnr" v="350556" />
	</node>
	<node lat="59.28357778023384" lon="8.118280556145656" id="-25837">
		<tag k="name" v="Veumåi" />
		<tag k="ssr:stedsnr" v="351214" />
		<tag k="waterway" v="stream" />
	</node>
	<node lat="58.981925003801436" lon="8.049902775477147" id="-25838">
		<tag k="name" v="Larviksodden" />
		<tag k="natural" v="cape" />
		<tag k="ssr:stedsnr" v="351215" />
	</node>
	<node lat="59.18265000144317" lon="8.153747222939081" id="-25841">
		<tag k="name" v="Mosetjønn" />
		<tag k="natural" v="water" />
		<tag k="ssr:stedsnr" v="351455" />
	</node>
	<node lat="59.317608331799796" lon="8.181319444944105" id="-25847">
		<tag k="name" v="Høystøylbekken" />
		<tag k="ssr:stedsnr" v="351662" />
		<tag k="waterway" v="stream" />
	</node>
	<node lat="59.137152779251785" lon="8.125286115385615" id="-25851">
		<tag k="name" v="Kvennhusfossen" />
		<tag k="natural" v="waterfall" />
		<tag k="ssr:stedsnr" v="351717" />
	</node>
	<node lat="59.33149722054405" lon="8.145483328174597" id="-25855">
		<tag k="name" v="Sagåi" />
		<tag k="ssr:stedsnr" v="351869" />
		<tag k="waterway" v="stream" />
	</node>
	<node lat="59.289313886527246" lon="8.019063892652454" id="-25862">
		<tag k="name" v="Svarttjønn" />
		<tag k="natural" v="water" />
		<tag k="ssr:stedsnr" v="474233" />
	</node>
	<node lat="59.15120555898913" lon="7.767202772317329" id="-25871">
		<tag k="name" v="Skarkepytten" />
		<tag k="natural" v="water" />
		<tag k="ssr:stedsnr" v="352816" />
	</node>
	<node lat="59.015786109982244" lon="7.9666277758775665" id="-25877">
		<tag k="name" v="Groslibekken" />
		<tag k="ssr:stedsnr" v="474466" />
		<tag k="waterway" v="stream" />
	</node>
	<node lat="59.064363887912435" lon="7.88921111670721" id="-25878">
		<tag k="name" v="Håbutjønn øvre" />
		<tag k="natural" v="water" />
		<tag k="ssr:stedsnr" v="353413" />
	</node>
	<node lat="58.99740277801337" lon="7.972888886282022" id="-25879">
		<tag k="name" v="Raunekvævtjønn" />
		<tag k="natural" v="water" />
		<tag k="ssr:stedsnr" v="353459" />
	</node>
	<node lat="59.15306944789502" lon="7.740813882900544" id="-25882">
		<tag k="name" v="Heftarodden" />
		<tag k="natural" v="cape" />
		<tag k="ssr:stedsnr" v="474845" />
	</node>
	<node lat="59.30535555717996" lon="8.045027769418159" id="-25883">
		<tag k="name" v="Løedalstjønni" />
		<tag k="natural" v="water" />
		<tag k="ssr:stedsnr" v="474861" />
	</node>
	<node lat="58.960641670218095" lon="8.299958340024837" id="-25886">
		<tag k="alt_name" v="Storlitjørnane" />
		<tag k="name" v="Storlitjønnane" />
		<tag k="natural" v="water" />
		<tag k="ssr:stedsnr" v="364938" />
	</node>
	<node lat="59.05529166247325" lon="8.206586105258955" id="-25890">
		<tag k="name" v="Svartevik" />
		<tag k="natural" v="bay" />
		<tag k="ssr:stedsnr" v="365207" />
	</node>
	<node lat="59.016999997426765" lon="8.112186104302713" id="-25891">
		<tag k="alt_name" v="Lykkjetjørni" />
		<tag k="name" v="Lykkjetjønn" />
		<tag k="natural" v="water" />
		<tag k="ssr:stedsnr" v="365240" />
	</node>
	<node lat="59.05861388545332" lon="8.299991660862977" id="-25893">
		<tag k="alt_name" v="Ålbogstjørni" />
		<tag k="name" v="Åbogstjønn" />
		<tag k="natural" v="water" />
		<tag k="ssr:stedsnr" v="365249" />
	</node>
	<node lat="59.15462221962312" lon="8.05987222921577" id="-25894">
		<tag k="alt_name" v="Gunnøyne" />
		<tag k="name" v="Gunnøyni" />
		<tag k="place" v="islet" />
		<tag k="ssr:stedsnr" v="365408" />
	</node>
	<node lat="59.140849998749495" lon="7.762994447634828" id="-25895">
		<tag k="alt_name" v="Snotjørnane" />
		<tag k="name" v="Snjotjønnane" />
		<tag k="natural" v="water" />
		<tag k="ssr:stedsnr" v="365417" />
	</node>
	<node lat="59.03709721916012" lon="7.999391665522002" id="-25897">
		<tag k="alt_name" v="Bergstadheitjørni" />
		<tag k="name" v="Bergstadtjønn" />
		<tag k="natural" v="water" />
		<tag k="old_name" v="Bergstadtjørn" />
		<tag k="ssr:stedsnr" v="365502" />
	</node>
	<node lat="59.22882221918774" lon="8.026688883511824" id="-25903">
		<tag k="name" v="Langenes" />
		<tag k="natural" v="cape" />
		<tag k="ssr:stedsnr" v="366333" />
	</node>
	<node lat="59.10371666276888" lon="8.001749996519239" id="-25905">
		<tag k="alt_name" v="Øytjørn" />
		<tag k="name" v="Øytjønn" />
		<tag k="natural" v="water" />
		<tag k="ssr:stedsnr" v="366441" />
	</node>
	<node lat="59.27672221971559" lon="7.8782027777687045" id="-25906">
		<tag k="alt_name" v="Øyulvsvatn" />
		<tag k="name" v="Øyuvsvatn" />
		<tag k="natural" v="water" />
		<tag k="ssr:stedsnr" v="366906" />
		<tag k="water" v="lake" />
	</node>
	<node lat="59.32204999744745" lon="7.726938897259656" id="-25908">
		<tag k="name" v="Gjentjørn" />
		<tag k="natural" v="water" />
		<tag k="ssr:stedsnr" v="366992" />
	</node>
	<node lat="59.01904999860281" lon="7.977855562011066" id="-25913">
		<tag k="name" v="Rupetoløken" />
		<tag k="natural" v="water" />
		<tag k="ssr:stedsnr" v="391494" />
		<tag k="water" v="lake" />
	</node>
	<node lat="59.21746944694635" lon="7.868661119655026" id="-25921">
		<tag k="name" v="Midtre Herbjønnstjønna" />
		<tag k="natural" v="water" />
		<tag k="ssr:stedsnr" v="398513" />
	</node>
	<node lat="59.239552779918405" lon="7.928649992948844" id="-25923">
		<tag k="name" v="Sondi" />
		<tag k="natural" v="strait" />
		<tag k="ssr:stedsnr" v="399183" />
	</node>
	<node lat="59.18211388506918" lon="7.80213333230726" id="-25926">
		<tag k="name" v="Osen" />
		<tag k="natural" v="bay" />
		<tag k="ssr:stedsnr" v="399303" />
	</node>
	<node lat="59.266283337748256" lon="7.850538892378678" id="-25936">
		<tag k="name" v="Eikedalsbekken" />
		<tag k="ssr:stedsnr" v="399597" />
		<tag k="waterway" v="stream" />
	</node>
	<node lat="59.233919444360275" lon="7.9348555554348295" id="-25938">
		<tag k="name" v="Fiskebergja" />
		<tag k="place" v="locality" />
		<tag k="ssr:stedsnr" v="399726" />
	</node>
	<node lat="59.26617778158611" lon="7.775841670721227" id="-25942">
		<tag k="name" v="Fugledalsåi" />
		<tag k="ssr:stedsnr" v="399835" />
		<tag k="waterway" v="river" />
	</node>
	<node lat="59.141075002594974" lon="7.778166658169226" id="-25944">
		<tag k="name" v="Ytre Tjønndalstjønn" />
		<tag k="natural" v="water" />
		<tag k="ssr:stedsnr" v="401033" />
	</node>
	<node lat="59.15726110903227" lon="7.811175006622722" id="-25945">
		<tag k="name" v="Skoråne" />
		<tag k="ssr:stedsnr" v="401911" />
		<tag k="waterway" v="stream" />
	</node>
	<node lat="59.195075001089094" lon="8.271700003983428" id="-25947">
		<tag k="alt_name" v="Åstjørni" />
		<tag k="name" v="Åstjønn" />
		<tag k="natural" v="water" />
		<tag k="ssr:stedsnr" v="486073" />
	</node>
	<node lat="59.11247500231429" lon="8.120249996676062" id="-25948">
		<tag k="name" v="Sandnesodden" />
		<tag k="natural" v="cape" />
		<tag k="ssr:stedsnr" v="486097" />
	</node>
	<node lat="59.11537499902874" lon="8.203227777288028" id="-25949">
		<tag k="alt_name" v="Igletjørni" />
		<tag k="name" v="Igletjønn" />
		<tag k="natural" v="water" />
		<tag k="ssr:stedsnr" v="486099" />
	</node>
	<node lat="59.10891389287455" lon="8.315030561340606" id="-25950">
		<tag k="alt_name" v="Hågstøylvatn" />
		<tag k="name" v="Hågstølvatnet" />
		<tag k="natural" v="water" />
		<tag k="ssr:stedsnr" v="486173" />
		<tag k="water" v="lake" />
	</node>
	<node lat="59.06194999780144" lon="8.30566110736588" id="-25951">
		<tag k="alt_name" v="Himmelstøltjørni" />
		<tag k="name" v="Himmelstøyltjønn" />
		<tag k="natural" v="water" />
		<tag k="ssr:stedsnr" v="486182" />
	</node>
	<node lat="59.23105832890472" lon="7.832397220528479" id="-25955">
		<tag k="name" v="Ulvsvatn" />
		<tag k="natural" v="water" />
		<tag k="ssr:stedsnr" v="486343" />
		<tag k="water" v="lake" />
	</node>
	<node lat="59.188075001800975" lon="7.877588888698054" id="-25959">
		<tag k="alt_name" v="Holtetjørn" />
		<tag k="name" v="Holtjønn" />
		<tag k="natural" v="water" />
		<tag k="old_name" v="Holtjørn" />
		<tag k="ssr:stedsnr" v="486398" />
	</node>
	<node lat="58.9553305582415" lon="8.069419438688248" id="-25962">
		<tag k="name" v="Stølstjørn" />
		<tag k="natural" v="water" />
		<tag k="ssr:stedsnr" v="486664" />
	</node>
	<node lat="58.9923805584856" lon="8.276986118686404" id="-25965">
		<tag k="name" v="Breidsund" />
		<tag k="natural" v="strait" />
		<tag k="ssr:stedsnr" v="486850" />
	</node>
	<node lat="59.215475000548786" lon="8.1956277695741" id="-25967">
		<tag k="alt_name" v="Greivstadtjørnane" />
		<tag k="name" v="Greivstadtjønnane" />
		<tag k="natural" v="water" />
		<tag k="ssr:stedsnr" v="487037" />
	</node>
	<node lat="59.22328611412677" lon="8.12077222139523" id="-25969">
		<tag k="alt_name" v="Kallåkstjønna" />
		<tag k="name" v="Kallak" />
		<tag k="natural" v="water" />
		<tag k="ssr:stedsnr" v="487047" />
	</node>
	<node lat="59.255336108698316" lon="8.310727772478472" id="-25976">
		<tag k="alt_name" v="Valevassåi" />
		<tag k="name" v="Valevassåa" />
		<tag k="ssr:stedsnr" v="487200" />
		<tag k="waterway" v="river" />
	</node>
	<node lat="59.29648889030732" lon="8.09865555653284" id="-25977">
		<tag k="alt_name" v="Lieåi" />
		<tag k="name" v="Liåi" />
		<tag k="ssr:stedsnr" v="487123" />
		<tag k="waterway" v="stream" />
	</node>
	<node lat="59.02659999740984" lon="8.278900004199146" id="-25984">
		<tag k="alt_name" v="Sundslibukta" />
		<tag k="name" v="Sundsbukti" />
		<tag k="natural" v="bay" />
		<tag k="ssr:stedsnr" v="487230" />
	</node>
	<node lat="59.272691664617774" lon="8.211999992475683" id="-25985">
		<tag k="alt_name" v="Øytjørnane" />
		<tag k="name" v="Øytjønnane" />
		<tag k="natural" v="water" />
		<tag k="ssr:stedsnr" v="487233" />
	</node>
	<node lat="59.03138610851749" lon="8.226250000674563" id="-25986">
		<tag k="alt_name" v="Lønnhomsbekken" />
		<tag k="name" v="Lønhombekken" />
		<tag k="ssr:stedsnr" v="487234" />
		<tag k="waterway" v="stream" />
	</node>
	<node lat="59.01139166797271" lon="8.253388885454608" id="-25988">
		<tag k="name" v="Lisleøk" />
		<tag k="place" v="island" />
		<tag k="ssr:stedsnr" v="411190" />
	</node>
	<node lat="59.20316666581928" lon="7.922922220656761" id="-25994">
		<tag k="alt_name" v="Mørketjørn" />
		<tag k="name" v="Mørktjønn" />
		<tag k="natural" v="water" />
		<tag k="old_name" v="Mørktjørn" />
		<tag k="ssr:stedsnr" v="487379" />
	</node>
	<node lat="59.16043889063942" lon="8.274391673787308" id="-25996">
		<tag k="name" v="Sandvik" />
		<tag k="natural" v="bay" />
		<tag k="ssr:stedsnr" v="411794" />
	</node>
	<node lat="58.98841666382043" lon="8.03627499647417" id="-26002">
		<tag k="name" v="Geiteråne" />
		<tag k="ssr:stedsnr" v="412211" />
		<tag k="waterway" v="stream" />
	</node>
	<node lat="59.130747224108916" lon="7.911319452869562" id="-26003">
		<tag k="name" v="Kalvetjørn" />
		<tag k="natural" v="water" />
		<tag k="old_name" v="Kåvetjørn" />
		<tag k="ssr:stedsnr" v="487439" />
	</node>
	<node lat="59.09940556003142" lon="8.134580559481645" id="-26014">
		<tag k="name" v="Jentebukta" />
		<tag k="natural" v="bay" />
		<tag k="ssr:stedsnr" v="412707" />
	</node>
	<node lat="59.149013887887094" lon="8.199358325112748" id="-26018">
		<tag k="name" v="Vestre fjorden" />
		<tag k="natural" v="water" />
		<tag k="ssr:stedsnr" v="412394" />
	</node>
	<node lat="59.23472222602307" lon="8.197149995509125" id="-26022">
		<tag k="name" v="Homvasstjønna" />
		<tag k="natural" v="water" />
		<tag k="ssr:stedsnr" v="412820" />
	</node>
	<node lat="59.03665833630766" lon="8.066913887592534" id="-26025">
		<tag k="name" v="Storøyni" />
		<tag k="place" v="islet" />
		<tag k="ssr:stedsnr" v="487530" />
	</node>
	<node lat="59.020133329505" lon="8.146444443384038" id="-26028">
		<tag k="name" v="Bjønntjønn" />
		<tag k="natural" v="water" />
		<tag k="ssr:stedsnr" v="412801" />
	</node>
	<node lat="58.98242500325413" lon="8.204566663606279" id="-26030">
		<tag k="name" v="Gjæseheitjønnane" />
		<tag k="natural" v="water" />
		<tag k="ssr:stedsnr" v="412990" />
	</node>
	<node lat="59.339030557044055" lon="7.897277782766636" id="-26047">
		<tag k="alt_name" v="Bergslitjørn" />
		<tag k="name" v="Berslitjønni" />
		<tag k="natural" v="water" />
		<tag k="ssr:stedsnr" v="487987" />
	</node>
	<node lat="58.98383889231022" lon="8.290111109384451" id="-26054">
		<tag k="alt_name" v="Svinevikja" />
		<tag k="name" v="Svineviki" />
		<tag k="natural" v="bay" />
		<tag k="ssr:stedsnr" v="425898" />
	</node>
	<node lat="59.15001944232223" lon="8.138013895924486" id="-26057">
		<tag k="alt_name" v="Fisketjørn" />
		<tag k="name" v="Fisketjønn" />
		<tag k="natural" v="water" />
		<tag k="ssr:stedsnr" v="426116" />
	</node>
	<node lat="59.11626666319312" lon="8.290975005024247" id="-26058">
		<tag k="alt_name" v="Brauttjørni" />
		<tag k="name" v="Brautjønn" />
		<tag k="natural" v="water" />
		<tag k="ssr:stedsnr" v="426147" />
	</node>
	<node lat="59.060037456821654" lon="8.366771466553356" id="-26059">
		<tag k="alt_name" v="Nuvatn" />
		<tag k="name" v="Nuvvatnet" />
		<tag k="natural" v="water" />
		<tag k="ssr:stedsnr" v="426193" />
	</node>
	<node lat="59.19068611523072" lon="8.010225003998569" id="-26062">
		<tag k="name" v="Gausvatn" />
		<tag k="natural" v="water" />
		<tag k="ssr:stedsnr" v="426333" />
		<tag k="water" v="lake" />
	</node>
	<node lat="59.192202779959075" lon="7.949941659126157" id="-26063">
		<tag k="name" v="Grimvatn" />
		<tag k="natural" v="water" />
		<tag k="ssr:stedsnr" v="426334" />
		<tag k="water" v="lake" />
	</node>
	<node lat="59.11576944508396" lon="7.813627777256587" id="-26064">
		<tag k="alt_name" v="Tretteskortjørn" />
		<tag k="name" v="Tretteskortjønn" />
		<tag k="natural" v="water" />
		<tag k="ssr:stedsnr" v="426403" />
	</node>
	<node lat="59.12221388754783" lon="7.946475001557678" id="-26065">
		<tag k="name" v="Olavstjørn" />
		<tag k="natural" v="water" />
		<tag k="ssr:stedsnr" v="426408" />
	</node>
	<node lat="59.140122224157196" lon="7.894849996650709" id="-26066">
		<tag k="name" v="Grodvatn" />
		<tag k="natural" v="water" />
		<tag k="ssr:stedsnr" v="426380" />
		<tag k="water" v="lake" />
	</node>
	<node lat="58.995105555741084" lon="8.10176665857268" id="-26068">
		<tag k="alt_name" v="Stokktjørn" />
		<tag k="name" v="Stokktjønn" />
		<tag k="natural" v="water" />
		<tag k="ssr:stedsnr" v="426874" />
	</node>
	<node lat="59.09164166271783" lon="8.3348027843479" id="-26074">
		<tag k="alt_name" v="Gråstakktjørnane" />
		<tag k="name" v="Gråstakktjønnane" />
		<tag k="natural" v="water" />
		<tag k="ssr:stedsnr" v="427183" />
	</node>
	<node lat="59.087494444799454" lon="8.29284166670555" id="-26076">
		<tag k="alt_name" v="Lomstjørni" />
		<tag k="name" v="Lomstjønn" />
		<tag k="natural" v="water" />
		<tag k="ssr:stedsnr" v="427187" />
	</node>
	<node lat="59.27371944646343" lon="7.82235832575819" id="-26084">
		<tag k="alt_name" v="Vrongbekken" />
		<tag k="name" v="Vrongbekk" />
		<tag k="ssr:stedsnr" v="427909" />
		<tag k="waterway" v="stream" />
	</node>
	<node lat="59.269650000795274" lon="7.826975004134663" id="-26086">
		<tag k="alt_name" v="Morketjørn" />
		<tag k="name" v="Mørktjønn" />
		<tag k="natural" v="water" />
		<tag k="ssr:stedsnr" v="670932" />
	</node>
	<node lat="59.023036108142705" lon="7.950416663671416" id="-26089">
		<tag k="name" v="Mjåvatn" />
		<tag k="natural" v="water" />
		<tag k="ssr:stedsnr" v="452475" />
	</node>
	<node lat="59.168769441063546" lon="7.870266673146409" id="-26090">
		<tag k="alt_name" v="Sprittjørn" />
		<tag k="name" v="Sprittjønn" />
		<tag k="natural" v="water" />
		<tag k="ssr:stedsnr" v="452507" />
	</node>
	<node lat="59.238944446216635" lon="8.241241658247553" id="-26106">
		<tag k="name" v="Tverrstranda" />
		<tag k="natural" v="beach" />
		<tag k="ssr:stedsnr" v="460018" />
	</node>
	<node lat="59.246711111527844" lon="7.919211112939991" id="-26110">
		<tag k="name" v="Kleivbekk" />
		<tag k="ssr:stedsnr" v="460261" />
		<tag k="waterway" v="stream" />
	</node>
	<node lat="59.12207381917086" lon="7.831957884673712" id="-26115">
		<tag k="name" v="Vardetjønnane" />
		<tag k="natural" v="water" />
		<tag k="ssr:stedsnr" v="460681" />
	</node>
	<node lat="59.20303544857974" lon="8.289328908158668" id="-26116">
		<tag k="name" v="Dyrvatn" />
		<tag k="natural" v="water" />
		<tag k="ssr:stedsnr" v="460682" />
		<tag k="water" v="lake" />
	</node>
	<node lat="59.238961112668385" lon="7.811461104661933" id="-26122">
		<tag k="name" v="Slådalsbekken" />
		<tag k="ssr:stedsnr" v="460763" />
		<tag k="waterway" v="stream" />
	</node>
	<node lat="59.0666138887641" lon="8.348280547029896" id="-26123">
		<tag k="name" v="Sandodden" />
		<tag k="natural" v="cape" />
		<tag k="ssr:stedsnr" v="469064" />
	</node>
	<node lat="59.09494444061688" lon="8.273508342059255" id="-26128">
		<tag k="name" v="Heggestjønnane" />
		<tag k="natural" v="water" />
		<tag k="ssr:stedsnr" v="471968" />
	</node>
	<node lat="59.153180558849606" lon="8.165097220201165" id="-26133">
		<tag k="name" v="Stabekk" />
		<tag k="ssr:stedsnr" v="472406" />
		<tag k="waterway" v="stream" />
	</node>
	<node lat="59.12878888527248" lon="8.232913885147166" id="-26136">
		<tag k="name" v="Teigtjønn" />
		<tag k="natural" v="water" />
		<tag k="ssr:stedsnr" v="472566" />
	</node>
	<node lat="59.020672224928155" lon="8.119108338425374" id="-26141">
		<tag k="name" v="Nystøyltjønn" />
		<tag k="natural" v="water" />
		<tag k="ssr:stedsnr" v="472814" />
	</node>
	<node lat="59.236336114038984" lon="8.189030558507275" id="-26143">
		<tag k="name" v="Homvasskilen" />
		<tag k="natural" v="water" />
		<tag k="ssr:stedsnr" v="472861" />
	</node>
	<node lat="59.24850000340519" lon="8.178441675149733" id="-26148">
		<tag k="name" v="Sunnstøylbekken" />
		<tag k="ssr:stedsnr" v="472908" />
		<tag k="waterway" v="stream" />
	</node>
	<node lat="59.08115555138942" lon="7.923636102791737" id="-26156">
		<tag k="name" v="Bogebergtjønna" />
		<tag k="natural" v="water" />
		<tag k="ssr:stedsnr" v="474391" />
	</node>
	<node lat="59.25581666303934" lon="7.958844444658959" id="-26157">
		<tag k="name" v="Tallakstjønn" />
		<tag k="natural" v="water" />
		<tag k="ssr:stedsnr" v="474398" />
	</node>
	<node lat="59.147780556576066" lon="7.749686107897887" id="-26158">
		<tag k="name" v="Grånøya" />
		<tag k="place" v="island" />
		<tag k="ssr:stedsnr" v="474812" />
	</node>
	<node lat="59.04720833558239" lon="8.049958328841065" id="-26159">
		<tag k="name" v="Buvikodden" />
		<tag k="natural" v="cape" />
		<tag k="ssr:stedsnr" v="474910" />
	</node>
	<node lat="59.17016944638028" lon="7.860905562803063" id="-26164">
		<tag k="alt_name" v="Øytjørn" />
		<tag k="name" v="Øytjønn" />
		<tag k="natural" v="water" />
		<tag k="ssr:stedsnr" v="486409" />
	</node>
	<node lat="58.979377775243016" lon="8.035594447876806" id="-26166">
		<tag k="alt_name" v="Grotåne" />
		<tag k="name" v="Grotåni" />
		<tag k="ssr:stedsnr" v="486631" />
		<tag k="waterway" v="river" />
	</node>
	<node lat="58.993408333583915" lon="8.195236104682005" id="-26167">
		<tag k="alt_name" v="Grøtjørn, øvre" />
		<tag k="name" v="Øvre Grøtjønn" />
		<tag k="natural" v="water" />
		<tag k="ssr:stedsnr" v="486856" />
	</node>
	<node lat="59.24847777847807" lon="8.12609999328634" id="-26170">
		<tag k="name" v="Gjuvåi" />
		<tag k="ssr:stedsnr" v="487015" />
		<tag k="waterway" v="river" />
	</node>
	<node lat="59.160975002512686" lon="8.30258888013104" id="-26172">
		<tag k="alt_name" v="Russvatn" />
		<tag k="name" v="Russvatnet" />
		<tag k="natural" v="water" />
		<tag k="ssr:stedsnr" v="487104" />
		<tag k="water" v="lake" />
	</node>
	<node lat="59.26186666969568" lon="8.16524445294038" id="-26180">
		<tag k="alt_name" v="Litjørn" />
		<tag k="name" v="Lientjønna" />
		<tag k="natural" v="water" />
		<tag k="ssr:stedsnr" v="487220" />
	</node>
	<node lat="59.30094722206169" lon="7.9444111089090494" id="-26183">
		<tag k="name" v="Sundsvatn" />
		<tag k="natural" v="water" />
		<tag k="ssr:stedsnr" v="487958" />
		<tag k="water" v="lake" />
	</node>
	<node lat="59.2781888897548" lon="8.177249998049968" id="-26187">
		<tag k="alt_name" v="Isdalstjørni" />
		<tag k="name" v="Isdalstjønna" />
		<tag k="natural" v="water" />
		<tag k="ssr:stedsnr" v="488189" />
	</node>
	<node lat="59.25976110765199" lon="8.04613332633085" id="-26194">
		<tag k="name" v="Kleivebekken" />
		<tag k="ssr:stedsnr" v="513307" />
		<tag k="waterway" v="stream" />
	</node>
	<node lat="59.34650277456804" lon="8.081630560742704" id="-26196">
		<tag k="alt_name" v="Kråketjønni" />
		<tag k="name" v="Krolitjørn" />
		<tag k="natural" v="water" />
		<tag k="ssr:stedsnr" v="513375" />
	</node>
	<node lat="59.330266668856055" lon="7.876502774464257" id="-26197">
		<tag k="name" v="Sagbekken" />
		<tag k="ssr:stedsnr" v="513378" />
		<tag k="waterway" v="stream" />
	</node>
	<node lat="59.31524722284581" lon="8.050816670508395" id="-26198">
		<tag k="name" v="Storrtjørn" />
		<tag k="natural" v="water" />
		<tag k="ssr:stedsnr" v="513382" />
	</node>
	<node lat="59.23330278102476" lon="8.083466670991816" id="-26200">
		<tag k="name" v="Leirbekk" />
		<tag k="ssr:stedsnr" v="519075" />
		<tag k="waterway" v="stream" />
	</node>
	<node lat="59.274483337568775" lon="7.770063882583538" id="-26205">
		<tag k="name" v="Kallstogvikbukta" />
		<tag k="natural" v="bay" />
		<tag k="ssr:stedsnr" v="520010" />
	</node>
	<node lat="59.18941666713383" lon="7.811508334661505" id="-26213">
		<tag k="name" v="Revne" />
		<tag k="ssr:stedsnr" v="521302" />
		<tag k="waterway" v="river" />
	</node>
	<node lat="59.19341666980871" lon="7.794591674567982" id="-26214">
		<tag k="name" v="Rjukan" />
		<tag k="natural" v="waterfall" />
		<tag k="ssr:stedsnr" v="521304" />
	</node>
	<node lat="59.12252778200198" lon="7.945986114082923" id="-26219">
		<tag k="name" v="Kottjønn" />
		<tag k="natural" v="water" />
		<tag k="ssr:stedsnr" v="521462" />
	</node>
	<node lat="59.28400555699979" lon="8.272836114654114" id="-26222">
		<tag k="name" v="Skjentjønnane" />
		<tag k="natural" v="water" />
		<tag k="ssr:stedsnr" v="521726" />
	</node>
	<node lat="59.234880557050005" lon="7.822777774833112" id="-26224">
		<tag k="name" v="Krusslistrånda" />
		<tag k="natural" v="beach" />
		<tag k="ssr:stedsnr" v="521759" />
	</node>
	<node lat="59.065072225780945" lon="8.368002782818396" id="-26226">
		<tag k="name" v="Ånundsbubekken" />
		<tag k="ssr:stedsnr" v="530111" />
		<tag k="waterway" v="stream" />
	</node>
	<node lat="59.033563688369" lon="8.285867147406755" id="-26231">
		<tag k="name" v="Hyttetjønnane" />
		<tag k="natural" v="water" />
		<tag k="ssr:stedsnr" v="532677" />
	</node>
	<node lat="59.1206305531227" lon="8.188183336710376" id="-26234">
		<tag k="name" v="Nedre Langetjønn" />
		<tag k="natural" v="water" />
		<tag k="ssr:stedsnr" v="533316" />
	</node>
	<node lat="59.00068333213508" lon="8.309527784603322" id="-26236">
		<tag k="name" v="Skarkebekk" />
		<tag k="ssr:stedsnr" v="533320" />
		<tag k="waterway" v="stream" />
	</node>
	<node lat="59.144361113962624" lon="8.216244436322299" id="-26237">
		<tag k="name" v="Myggbukta" />
		<tag k="natural" v="bay" />
		<tag k="ssr:stedsnr" v="533322" />
	</node>
	<node lat="59.25856111125585" lon="8.066780550086134" id="-26246">
		<tag k="name" v="Sandvabekken" />
		<tag k="ssr:stedsnr" v="533482" />
		<tag k="waterway" v="stream" />
	</node>
	<node lat="59.15188888475999" lon="8.085747218084391" id="-26247">
		<tag k="name" v="Tullebekk" />
		<tag k="ssr:stedsnr" v="533611" />
		<tag k="waterway" v="stream" />
	</node>
	<node lat="59.1041222194716" lon="8.258819447500777" id="-26248">
		<tag k="name" v="Fisketjønnosen" />
		<tag k="natural" v="bay" />
		<tag k="ssr:stedsnr" v="533512" />
	</node>
	<node lat="59.01081111487087" lon="7.997841657932263" id="-26255">
		<tag k="name" v="Kråkelibekken" />
		<tag k="ssr:stedsnr" v="534104" />
		<tag k="waterway" v="stream" />
	</node>
	<node lat="59.28247222407749" lon="7.9185972217522735" id="-26257">
		<tag k="name" v="Hassdalsløkjine" />
		<tag k="natural" v="water" />
		<tag k="ssr:stedsnr" v="534376" />
	</node>
	<node lat="59.034772225823865" lon="7.983305555230576" id="-26261">
		<tag k="name" v="Birtebekk" />
		<tag k="ssr:stedsnr" v="535025" />
		<tag k="waterway" v="stream" />
	</node>
	<node lat="58.96548055432409" lon="8.117369441789299" id="-26269">
		<tag k="alt_name" v="Espeliåna" />
		<tag k="name" v="Espeliåi" />
		<tag k="ssr:stedsnr" v="546878" />
		<tag k="waterway" v="river" />
	</node>
	<node lat="59.23963888480106" lon="8.116544452780053" id="-26272">
		<tag k="alt_name" v="Baklitjørni" />
		<tag k="name" v="Baklitjønna" />
		<tag k="natural" v="water" />
		<tag k="ssr:stedsnr" v="547021" />
	</node>
	<node lat="58.96822499559039" lon="8.23810000848647" id="-26274">
		<tag k="alt_name" v="Rundtjørn" />
		<tag k="name" v="Rundtjønn" />
		<tag k="natural" v="water" />
		<tag k="ssr:stedsnr" v="546913" />
	</node>
	<node lat="59.14906944101107" lon="8.237605552657154" id="-26275">
		<tag k="alt_name" v="Napevatnet" />
		<tag k="name" v="Napevatn" />
		<tag k="natural" v="water" />
		<tag k="ssr:stedsnr" v="547117" />
		<tag k="water" v="lake" />
	</node>
	<node lat="59.057950000781744" lon="8.267186112731773" id="-26281">
		<tag k="alt_name" v="Åsåne" />
		<tag k="name" v="Åsåi" />
		<tag k="ssr:stedsnr" v="547217" />
		<tag k="waterway" v="stream" />
	</node>
	<node lat="59.051774996940665" lon="8.253549995800482" id="-26282">
		<tag k="name" v="Valnes" />
		<tag k="natural" v="cape" />
		<tag k="ssr:stedsnr" v="547219" />
	</node>
	<node lat="59.05803889272516" lon="8.247274999306455" id="-26283">
		<tag k="name" v="Åsnes" />
		<tag k="natural" v="cape" />
		<tag k="ssr:stedsnr" v="547203" />
	</node>
	<node lat="59.07953610791281" lon="8.336408333266538" id="-26284">
		<tag k="alt_name" v="Laurdagstjørni" />
		<tag k="name" v="Laurdagstjønn" />
		<tag k="natural" v="water" />
		<tag k="ssr:stedsnr" v="547229" />
	</node>
	<node lat="59.03282499887258" lon="8.151380554215104" id="-26287">
		<tag k="alt_name" v="Holmevatn" />
		<tag k="name" v="Holmevatnet" />
		<tag k="natural" v="water" />
		<tag k="ssr:stedsnr" v="547277" />
	</node>
	<node lat="59.16684722352504" lon="7.756830564151161" id="-26288">
		<tag k="alt_name" v="Margitskjos" />
		<tag k="name" v="Margitstjønn" />
		<tag k="natural" v="water" />
		<tag k="old_name" v="Margitstjørn" />
		<tag k="ssr:stedsnr" v="547409" />
	</node>
	<node lat="58.98997499723252" lon="8.217938881953023" id="-26291">
		<tag k="alt_name" v="Røtedalsbekken" />
		<tag k="name" v="Rotedalsbekken" />
		<tag k="ssr:stedsnr" v="547878" />
		<tag k="waterway" v="stream" />
	</node>
	<node lat="59.25285555166023" lon="8.228436103559481" id="-26294">
		<tag k="name" v="Barstøylbekken" />
		<tag k="ssr:stedsnr" v="548209" />
		<tag k="waterway" v="stream" />
	</node>
	<node lat="59.22256110687018" lon="8.012183326277476" id="-26298">
		<tag k="name" v="Finndøl" />
		<tag k="old_name" v="Finndøla" />
		<tag k="ssr:stedsnr" v="548368" />
		<tag k="waterway" v="river" />
	</node>
	<node lat="59.205872224478796" lon="7.728005551007297" id="-26299">
		<tag k="alt_name" v="Hovatn" />
		<tag k="name" v="Hovvatn" />
		<tag k="natural" v="water" />
		<tag k="ssr:stedsnr" v="548379" />
		<tag k="water" v="lake" />
	</node>
	<node lat="59.295655558014026" lon="7.720519436354955" id="-26300">
		<tag k="name" v="Brårvatn" />
		<tag k="natural" v="water" />
		<tag k="ssr:stedsnr" v="548951" />
		<tag k="water" v="lake" />
	</node>
	<node lat="59.2971027811902" lon="7.9086750060955175" id="-26301">
		<tag k="name" v="Bjoråi" />
		<tag k="ssr:stedsnr" v="548955" />
		<tag k="waterway" v="stream" />
	</node>
	<node lat="59.25075277621569" lon="7.86346389265946" id="-26305">
		<tag k="alt_name" v="Djuptjørn" />
		<tag k="name" v="Djuptjønn" />
		<tag k="natural" v="water" />
		<tag k="ssr:stedsnr" v="549649" />
	</node>
	<node lat="59.19996025219949" lon="7.945388938356889" id="-26308">
		<tag k="name" v="Lidvordsbakktjørn" />
		<tag k="natural" v="water" />
		<tag k="ssr:stedsnr" v="573009" />
	</node>
	<node lat="59.18369999886751" lon="7.791663885816666" id="-26309">
		<tag k="name" v="Høydalsbekken" />
		<tag k="ssr:stedsnr" v="573406" />
		<tag k="waterway" v="stream" />
	</node>
	<node lat="59.15475833014372" lon="7.775833326112726" id="-26312">
		<tag k="alt_name" v="Langetjørn" />
		<tag k="name" v="Langtjønn" />
		<tag k="natural" v="water" />
		<tag k="ssr:stedsnr" v="695035" />
	</node>
	<node lat="59.24417222151758" lon="8.075205548913909" id="-26321">
		<tag k="name" v="Helvete" />
		<tag k="place" v="locality" />
		<tag k="ssr:stedsnr" v="579505" />
	</node>
	<node lat="59.31955034742738" lon="8.01812528608379" id="-26326">
		<tag k="name" v="Skintjørn" />
		<tag k="natural" v="water" />
		<tag k="ssr:stedsnr" v="695364" />
	</node>
	<node lat="59.30789999877745" lon="7.732774993442936" id="-26327">
		<tag k="alt_name" v="Fagerdalstjørni" />
		<tag k="name" v="Fagerdalstjønna" />
		<tag k="natural" v="water" />
		<tag k="ssr:stedsnr" v="695380" />
	</node>
	<node lat="59.31628745318997" lon="7.755177202435378" id="-26329">
		<tag k="alt_name" v="Bosstjørn" />
		<tag k="name" v="Bøsstjønn" />
		<tag k="natural" v="water" />
		<tag k="ssr:stedsnr" v="695383" />
	</node>
	<node lat="59.30134999889207" lon="7.781161115334963" id="-26330">
		<tag k="name" v="Kjevle" />
		<tag k="ssr:stedsnr" v="695386" />
		<tag k="waterway" v="river" />
	</node>
	<node lat="59.251063892192704" lon="7.748386109540515" id="-26333">
		<tag k="alt_name" v="Rishovdtjørnane" />
		<tag k="name" v="Rishovdtjønna" />
		<tag k="natural" v="water" />
		<tag k="ssr:stedsnr" v="695397" />
	</node>
	<node lat="59.23251944429224" lon="7.85664166698221" id="-26334">
		<tag k="name" v="Kleppvassbekken" />
		<tag k="ssr:stedsnr" v="581110" />
		<tag k="waterway" v="stream" />
	</node>
	<node lat="59.19066388597644" lon="7.746244436993004" id="-26339">
		<tag k="name" v="Hestekvævtjønnane" />
		<tag k="natural" v="water" />
		<tag k="ssr:stedsnr" v="581305" />
	</node>
	<node lat="59.12903055835243" lon="7.980288895167533" id="-26341">
		<tag k="name" v="Skottebekken" />
		<tag k="ssr:stedsnr" v="581507" />
		<tag k="waterway" v="stream" />
	</node>
	<node lat="59.26649444493055" lon="7.864372214251384" id="-26344">
		<tag k="name" v="Langnes" />
		<tag k="natural" v="cape" />
		<tag k="ssr:stedsnr" v="581604" />
	</node>
	<node lat="59.15296666705574" lon="7.9697638906605555" id="-26345">
		<tag k="name" v="Jopperudhylen" />
		<tag k="natural" v="water" />
		<tag k="ssr:stedsnr" v="581607" />
		<tag k="water" v="lake" />
	</node>
	<node lat="59.30304722504039" lon="7.911205564212936" id="-26350">
		<tag k="name" v="Lindtotjønni" />
		<tag k="natural" v="water" />
		<tag k="ssr:stedsnr" v="591014" />
	</node>
	<node lat="59.06294999797666" lon="8.353030557430348" id="-26351">
		<tag k="name" v="Nesodden" />
		<tag k="natural" v="cape" />
		<tag k="ssr:stedsnr" v="591107" />
	</node>
	<node lat="58.94699999800722" lon="8.343333326105425" id="-26352">
		<tag k="name" v="Svårtehyl" />
		<tag k="place" v="locality" />
		<tag k="ssr:stedsnr" v="591975" />
	</node>
	<node lat="58.96727222263673" lon="8.295958335553738" id="-26357">
		<tag k="name" v="Lindborgtjønnane" />
		<tag k="natural" v="water" />
		<tag k="ssr:stedsnr" v="593056" />
	</node>
	<node lat="58.984699995893436" lon="8.182258333921574" id="-26358">
		<tag k="name" v="Den lange tjønna" />
		<tag k="natural" v="water" />
		<tag k="ssr:stedsnr" v="593958" />
	</node>
	<node lat="59.16723333407106" lon="8.132958337354877" id="-26365">
		<tag k="name" v="Tverrstøylbekken" />
		<tag k="ssr:stedsnr" v="594404" />
		<tag k="waterway" v="stream" />
	</node>
	<node lat="59.03063610693081" lon="8.085822228605894" id="-26373">
		<tag k="name" v="Hækneåne" />
		<tag k="ssr:stedsnr" v="594902" />
		<tag k="waterway" v="stream" />
	</node>
	<node lat="59.328875000529436" lon="8.136663884900457" id="-26375">
		<tag k="name" v="Evja" />
		<tag k="natural" v="bay" />
		<tag k="ssr:stedsnr" v="594914" />
	</node>
	<node lat="59.11338055609727" lon="8.033805560705076" id="-26381">
		<tag k="name" v="Jordtjønn" />
		<tag k="natural" v="water" />
		<tag k="ssr:stedsnr" v="595167" />
	</node>
	<node lat="59.14014722066285" lon="8.053847227537462" id="-26384">
		<tag k="name" v="Tveitsandbukti" />
		<tag k="natural" v="bay" />
		<tag k="ssr:stedsnr" v="595306" />
	</node>
	<node lat="59.063394444417696" lon="8.020863880488326" id="-26387">
		<tag k="name" v="Tovslielva" />
		<tag k="ssr:stedsnr" v="595817" />
		<tag k="waterway" v="river" />
	</node>
	<node lat="59.32653888846069" lon="7.82980832696099" id="-26391">
		<tag k="name" v="Setalitjønni" />
		<tag k="natural" v="water" />
		<tag k="ssr:stedsnr" v="595956" />
	</node>
	<node lat="59.232400003771644" lon="7.9414638916087785" id="-26395">
		<tag k="name" v="Ramnåe" />
		<tag k="old_name" v="Ramnå" />
		<tag k="ssr:stedsnr" v="607352" />
		<tag k="waterway" v="river" />
	</node>
	<node lat="59.229266671120016" lon="7.919013896819789" id="-26396">
		<tag k="alt_name" v="Glåmbekktjørni" />
		<tag k="name" v="Glåmmbekktjønna" />
		<tag k="natural" v="water" />
		<tag k="ssr:stedsnr" v="607354" />
	</node>
	<node lat="59.07121388516216" lon="8.075944440184472" id="-26400">
		<tag k="alt_name" v="Hengeltjørn" />
		<tag k="name" v="Hengeltjønn" />
		<tag k="natural" v="water" />
		<tag k="ssr:stedsnr" v="607461" />
	</node>
	<node lat="58.98938888831645" lon="8.275083331985984" id="-26401">
		<tag k="name" v="Straumen" />
		<tag k="natural" v="bay" />
		<tag k="ssr:stedsnr" v="607840" />
	</node>
	<node lat="58.94105277409117" lon="8.303291672822697" id="-26405">
		<tag k="name" v="Furevatn" />
		<tag k="natural" v="water" />
		<tag k="ssr:stedsnr" v="607943" />
		<tag k="water" v="lake" />
	</node>
	<node lat="59.175311111326415" lon="8.170238888916852" id="-26406">
		<tag k="name" v="Nuttjørni, lange" />
		<tag k="natural" v="water" />
		<tag k="ssr:stedsnr" v="608113" />
	</node>
	<node lat="59.10207500344002" lon="8.304608330704331" id="-26408">
		<tag k="alt_name" v="T-tjørn" />
		<tag k="name" v="T-tjønn" />
		<tag k="natural" v="water" />
		<tag k="ssr:stedsnr" v="608155" />
	</node>
	<node lat="59.266427779119255" lon="8.209916661988848" id="-26411">
		<tag k="alt_name" v="Kvåmotjørnane" />
		<tag k="name" v="Kvåmotjønn" />
		<tag k="natural" v="water" />
		<tag k="ssr:stedsnr" v="608198" />
	</node>
	<node lat="59.25793332993506" lon="8.118969448102037" id="-26412">
		<tag k="alt_name" v="Tjørndalstjørni, øvre" />
		<tag k="name" v="Øvri Tjønndalstjønna" />
		<tag k="natural" v="water" />
		<tag k="ssr:stedsnr" v="608204" />
	</node>
	<node lat="59.33840833404991" lon="8.046600004760199" id="-26422">
		<tag k="alt_name" v="Fjøllstøylbekken" />
		<tag k="name" v="Fjellstøylbekken" />
		<tag k="old_name" v="Fjellstølbekken" />
		<tag k="ssr:stedsnr" v="608986" />
		<tag k="waterway" v="stream" />
	</node>
	<node lat="59.33306111211589" lon="7.908333337570451" id="-26423">
		<tag k="alt_name" v="Stemtjørn" />
		<tag k="name" v="Stemmetjønn" />
		<tag k="natural" v="water" />
		<tag k="ssr:stedsnr" v="608991" />
	</node>
	<node lat="59.252211108521934" lon="8.112400001148655" id="-26424">
		<tag k="alt_name" v="Tjørndalstjørni, nedre" />
		<tag k="name" v="Neiri Tjønndalstjønna" />
		<tag k="natural" v="water" />
		<tag k="ssr:stedsnr" v="609190" />
	</node>
	<node lat="59.275863891072426" lon="8.075949997432463" id="-26430">
		<tag k="name" v="Mosetjørn" />
		<tag k="natural" v="water" />
		<tag k="ssr:stedsnr" v="609931" />
	</node>
	<node lat="59.23816388845615" lon="8.077958325901754" id="-26435">
		<tag k="name" v="Øvre Daleåa" />
		<tag k="ssr:stedsnr" v="701092" />
		<tag k="waterway" v="river" />
	</node>
	<node lat="59.244555559670985" lon="8.145733329718343" id="-26436">
		<tag k="name" v="Husstøylosen" />
		<tag k="natural" v="bay" />
		<tag k="ssr:stedsnr" v="701394" />
	</node>
	<node lat="59.20941388566096" lon="8.078972228748555" id="-26438">
		<tag k="name" v="Dalåa" />
		<tag k="ssr:stedsnr" v="701553" />
		<tag k="waterway" v="river" />
	</node>
	<node lat="59.24174166616852" lon="8.033891658565802" id="-26439">
		<tag k="name" v="Sagåhylen" />
		<tag k="ssr:stedsnr" v="702280" />
		<tag k="waterway" v="stream" />
	</node>
	<node lat="59.20469166324895" lon="8.063874994195832" id="-26443">
		<tag k="name" v="Snartelandstjønna" />
		<tag k="natural" v="water" />
		<tag k="ssr:stedsnr" v="701834" />
	</node>
	<node lat="59.242958330027875" lon="7.906561108462404" id="-26446">
		<tag k="name" v="Lisle Bondalsvatn" />
		<tag k="natural" v="water" />
		<tag k="ssr:stedsnr" v="702159" />
		<tag k="water" v="lake" />
	</node>
	<node lat="59.3072111076968" lon="7.7313555549735495" id="-26448">
		<tag k="name" v="Fanteodden" />
		<tag k="natural" v="cape" />
		<tag k="ssr:stedsnr" v="702290" />
	</node>
	<node lat="59.24754999622181" lon="8.024475005275917" id="-26450">
		<tag k="name" v="Gravå" />
		<tag k="ssr:stedsnr" v="702254" />
		<tag k="waterway" v="river" />
	</node>
	<node lat="59.2440250023177" lon="8.225519452865013" id="-26455">
		<tag k="name" v="Hesteoddane" />
		<tag k="natural" v="cape" />
		<tag k="ssr:stedsnr" v="703002" />
	</node>
	<node lat="59.23094722472109" lon="8.233149995792493" id="-26457">
		<tag k="name" v="Ånevikja" />
		<tag k="natural" v="bay" />
		<tag k="ssr:stedsnr" v="703102" />
	</node>
	<node lat="59.2417694420864" lon="7.818913896582738" id="-26464">
		<tag k="name" v="Stuttå" />
		<tag k="ssr:stedsnr" v="703765" />
		<tag k="waterway" v="river" />
	</node>
	<node lat="59.01628333249781" lon="8.0386055559483" id="-26469">
		<tag k="alt_name" v="Rotenes" />
		<tag k="name" v="Rotnes" />
		<tag k="natural" v="cape" />
		<tag k="ssr:stedsnr" v="633482" />
	</node>
	<node lat="59.11857777630448" lon="7.941002775955897" id="-26471">
		<tag k="alt_name" v="Hyljevasstjørn" />
		<tag k="name" v="Hyljevasstjønn" />
		<tag k="natural" v="water" />
		<tag k="ssr:stedsnr" v="633487" />
	</node>
	<node lat="59.15344999945003" lon="7.948700004744499" id="-26474">
		<tag k="name" v="Madjestøylbekken" />
		<tag k="ssr:stedsnr" v="633509" />
		<tag k="waterway" v="stream" />
	</node>
	<node lat="59.316536112000925" lon="8.03965834161713" id="-26476">
		<tag k="name" v="Hommantjørnane" />
		<tag k="natural" v="water" />
		<tag k="ssr:stedsnr" v="634403" />
	</node>
	<node lat="59.26351774238074" lon="8.02413730569162" id="-26479">
		<tag k="name" v="Hagatjørn" />
		<tag k="natural" v="water" />
		<tag k="ssr:stedsnr" v="634408" />
	</node>
	<node lat="59.24214166628784" lon="8.074786113380819" id="-26481">
		<tag k="name" v="Daleåa" />
		<tag k="ssr:stedsnr" v="640101" />
		<tag k="waterway" v="river" />
	</node>
	<node lat="59.23237499568556" lon="8.081566661330434" id="-26483">
		<tag k="name" v="Rindenesi" />
		<tag k="natural" v="cape" />
		<tag k="ssr:stedsnr" v="640404" />
	</node>
	<node lat="59.20883333009506" lon="8.092052774260283" id="-26486">
		<tag k="alt_name" v="Modølåi" />
		<tag k="name" v="Modølsåi" />
		<tag k="ssr:stedsnr" v="640510" />
		<tag k="waterway" v="river" />
	</node>
	<node lat="59.24332221930143" lon="7.91046111783336" id="-26492">
		<tag k="name" v="Maurnes" />
		<tag k="natural" v="cape" />
		<tag k="ssr:stedsnr" v="641130" />
	</node>
	<node lat="59.303208335319916" lon="7.720952772940124" id="-26493">
		<tag k="name" v="Fagerdalsbukta" />
		<tag k="natural" v="bay" />
		<tag k="ssr:stedsnr" v="641307" />
	</node>
	<node lat="59.23070555781197" lon="8.00464999742289" id="-26499">
		<tag k="name" v="Mørkjahyl" />
		<tag k="natural" v="water" />
		<tag k="ssr:stedsnr" v="641263" />
		<tag k="water" v="lake" />
	</node>
	<node lat="59.208094442488836" lon="7.867911102671427" id="-26501">
		<tag k="name" v="Trøllbøtn" />
		<tag k="place" v="locality" />
		<tag k="ssr:stedsnr" v="641505" />
	</node>
	<node lat="59.19093888803675" lon="7.945205553035815" id="-26505">
		<tag k="name" v="Grimvasskilen" />
		<tag k="natural" v="bay" />
		<tag k="ssr:stedsnr" v="642684" />
	</node>
	<node lat="59.1881777775343" lon="7.982086106476382" id="-26506">
		<tag k="name" v="Ranneitjønn" />
		<tag k="natural" v="water" />
		<tag k="ssr:stedsnr" v="642685" />
	</node>
	<node lat="59.1677527769037" lon="7.943374998530372" id="-26507">
		<tag k="name" v="Sundet" />
		<tag k="natural" v="bay" />
		<tag k="ssr:stedsnr" v="642575" />
	</node>
	<node lat="59.05868055592759" lon="8.334300008548043" id="-26511">
		<tag k="name" v="Høydøl" />
		<tag k="ssr:stedsnr" v="651140" />
		<tag k="waterway" v="river" />
	</node>
	<node lat="59.046061111110106" lon="8.209175004946252" id="-26518">
		<tag k="name" v="Svartevikbekken" />
		<tag k="ssr:stedsnr" v="654296" />
		<tag k="waterway" v="stream" />
	</node>
	<node lat="59.12556666967273" lon="8.239722220609433" id="-26525">
		<tag k="name" v="Leivstjønn" />
		<tag k="natural" v="water" />
		<tag k="ssr:stedsnr" v="654605" />
	</node>
	<node lat="59.23480000246435" lon="8.165825007083857" id="-26530">
		<tag k="name" v="Nystøyltjønna" />
		<tag k="natural" v="water" />
		<tag k="ssr:stedsnr" v="654848" />
	</node>
	<node lat="59.03398333288787" lon="8.21939166421799" id="-26535">
		<tag k="name" v="Flohyl" />
		<tag k="natural" v="water" />
		<tag k="ssr:stedsnr" v="654793" />
	</node>
	<node lat="59.31532499752157" lon="8.050686117509015" id="-26536">
		<tag k="name" v="Øvre Plasstjønni" />
		<tag k="natural" v="water" />
		<tag k="ssr:stedsnr" v="654939" />
	</node>
	<node lat="59.066516669518265" lon="7.94508611545297" id="-26537">
		<tag k="name" v="Griddalsbekken" />
		<tag k="ssr:stedsnr" v="655095" />
		<tag k="waterway" v="stream" />
	</node>
	<node lat="59.34194722195648" lon="7.851716667054005" id="-26553">
		<tag k="name" v="Nordre Grastjønn" />
		<tag k="natural" v="water" />
		<tag k="ssr:stedsnr" v="656996" />
	</node>
	<node lat="59.06379444621312" lon="8.098369445375482" id="-26554">
		<tag k="alt_name" v="Skotjørn" />
		<tag k="name" v="Skotjønn" />
		<tag k="natural" v="water" />
		<tag k="ssr:stedsnr" v="668205" />
	</node>
	<node lat="59.18374721824168" lon="7.890386112519977" id="-26556">
		<tag k="alt_name" v="Kottjørn" />
		<tag k="name" v="Kottjønn" />
		<tag k="natural" v="water" />
		<tag k="old_name" v="Kortjørn" />
		<tag k="ssr:stedsnr" v="668405" />
	</node>
	<node lat="59.05552499727496" lon="7.8985083332696675" id="-26558">
		<tag k="alt_name" v="Blakstjørn" />
		<tag k="name" v="Blakstjønn" />
		<tag k="natural" v="water" />
		<tag k="ssr:stedsnr" v="668481" />
	</node>
	<node lat="59.06568333558444" lon="8.041150006064242" id="-26559">
		<tag k="alt_name" v="Bergsøytjørn" />
		<tag k="name" v="Bergsøytjønn" />
		<tag k="natural" v="water" />
		<tag k="ssr:stedsnr" v="668488" />
	</node>
	<node lat="58.951886111384205" lon="8.346722228313102" id="-26561">
		<tag k="alt_name" v="Dynjanfoss" />
		<tag k="name" v="Dynjanfossen" />
		<tag k="natural" v="waterfall" />
		<tag k="ssr:stedsnr" v="668904" />
	</node>
	<node lat="59.20340000363278" lon="8.133144441576945" id="-26563">
		<tag k="alt_name" v="Sætantjørni" />
		<tag k="name" v="Setantjønna" />
		<tag k="natural" v="water" />
		<tag k="ssr:stedsnr" v="669031" />
	</node>
	<node lat="59.147050001364406" lon="8.131799997737627" id="-26565">
		<tag k="alt_name" v="Nordåne" />
		<tag k="name" v="Nordåi" />
		<tag k="ssr:stedsnr" v="669082" />
		<tag k="waterway" v="stream" />
	</node>
	<node lat="59.164044441027514" lon="8.148455556402638" id="-26567">
		<tag k="alt_name" v="Mørketjørni" />
		<tag k="name" v="Mørketjønn" />
		<tag k="natural" v="water" />
		<tag k="ssr:stedsnr" v="669096" />
	</node>
	<node lat="59.30048889050434" lon="8.173288880799118" id="-26572">
		<tag k="alt_name" v="Bergestøyltjørni" />
		<tag k="name" v="Berstøyltjønnane" />
		<tag k="natural" v="water" />
		<tag k="ssr:stedsnr" v="669133" />
	</node>
	<node lat="59.13840277998351" lon="8.32098333814156" id="-26573">
		<tag k="alt_name" v="Flottetjørni" />
		<tag k="name" v="Flottetjønn" />
		<tag k="natural" v="water" />
		<tag k="ssr:stedsnr" v="669136" />
	</node>
	<node lat="59.03779999666475" lon="8.345530561819768" id="-26576">
		<tag k="alt_name" v="Blakktjørn" />
		<tag k="name" v="Blakktjønn" />
		<tag k="natural" v="water" />
		<tag k="ssr:stedsnr" v="669200" />
	</node>
	<node lat="59.037299997780536" lon="7.9056944379791405" id="-26581">
		<tag k="alt_name" v="Kråketjørnane, nedre" />
		<tag k="name" v="Nedre Kråketjønn" />
		<tag k="natural" v="water" />
		<tag k="ssr:stedsnr" v="669498" />
	</node>
	<node lat="59.00102499639994" lon="8.329827773271136" id="-26584">
		<tag k="name" v="Lauvnutbekken" />
		<tag k="ssr:stedsnr" v="669972" />
		<tag k="waterway" v="stream" />
	</node>
	<node lat="59.34071389286376" lon="7.928747216627792" id="-26586">
		<tag k="alt_name" v="Raudbekk;Raubekk" />
		<tag k="name" v="Raudbekken" />
		<tag k="ssr:stedsnr" v="669988" />
		<tag k="waterway" v="stream" />
	</node>
	<node lat="59.277541664754054" lon="7.845197219551706" id="-26597">
		<tag k="alt_name" v="Røymålstjønn" />
		<tag k="name" v="Reinmostjørn" />
		<tag k="natural" v="water" />
		<tag k="ssr:stedsnr" v="695409" />
	</node>
	<node lat="59.03776944827118" lon="7.890094442582851" id="-26598">
		<tag k="alt_name" v="Bikkjeøyni" />
		<tag k="name" v="Bikkjeøya" />
		<tag k="place" v="islet" />
		<tag k="ssr:stedsnr" v="695511" />
	</node>
	<node lat="59.27955000335621" lon="7.790372216738347" id="-26601">
		<tag k="name" v="Sollidalsbekken" />
		<tag k="ssr:stedsnr" v="702003" />
		<tag k="waterway" v="stream" />
	</node>
	<node lat="59.27723611463255" lon="7.769469449874048" id="-26604">
		<tag k="name" v="Jennbekk" />
		<tag k="ssr:stedsnr" v="702013" />
		<tag k="waterway" v="stream" />
	</node>
	<node lat="59.24084444707605" lon="7.866130547838782" id="-26605">
		<tag k="name" v="Skåltjønnstrånda" />
		<tag k="natural" v="beach" />
		<tag k="ssr:stedsnr" v="702076" />
	</node>
	<node lat="59.243650004200546" lon="7.895177781671087" id="-26607">
		<tag k="name" v="Storøy" />
		<tag k="place" v="island" />
		<tag k="ssr:stedsnr" v="702194" />
	</node>
	<node lat="59.23717777413284" lon="7.9803472174416195" id="-26609">
		<tag k="name" v="Hammarsjordbekken" />
		<tag k="ssr:stedsnr" v="702451" />
		<tag k="waterway" v="stream" />
	</node>
	<node lat="59.18197500292084" lon="7.795436118112796" id="-26620">
		<tag k="name" v="Tjørekilen" />
		<tag k="natural" v="bay" />
		<tag k="ssr:stedsnr" v="703310" />
	</node>
	<node lat="59.15359722428374" lon="7.948852784607836" id="-26622">
		<tag k="name" v="Jøkulbekken" />
		<tag k="ssr:stedsnr" v="703429" />
		<tag k="waterway" v="stream" />
	</node>
	<node lat="59.302549998472855" lon="8.050444443992907" id="-26628">
		<tag k="name" v="Lisleå" />
		<tag k="ssr:stedsnr" v="897288" />
		<tag k="waterway" v="stream" />
	</node>
	<node lat="59.175424998207816" lon="8.170008335772264" id="-26629">
		<tag k="name" v="Den lange Nuttjønna" />
		<tag k="natural" v="water" />
		<tag k="ssr:stedsnr" v="897363" />
	</node>
	<node lat="59.30780277367018" lon="8.237380555708077" id="-26633">
		<tag k="name" v="Kåvtjønn" />
		<tag k="natural" v="water" />
		<tag k="ssr:stedsnr" v="897445" />
	</node>
	<node lat="59.14728055722128" lon="8.311077771256743" id="-26636">
		<tag k="name" v="Flottjønnbekken" />
		<tag k="ssr:stedsnr" v="897761" />
		<tag k="waterway" v="stream" />
	</node>
	<node lat="59.06165555767779" lon="8.293299999959215" id="-26644">
		<tag k="name" v="Lianstjønn" />
		<tag k="natural" v="water" />
		<tag k="ssr:stedsnr" v="897891" />
	</node>
	<node lat="59.25181666502607" lon="8.16518889628317" id="-26650">
		<tag k="name" v="Sæsjordbekken" />
		<tag k="ssr:stedsnr" v="898142" />
		<tag k="waterway" v="stream" />
	</node>
	<node lat="59.119974998189335" lon="8.212174992046238" id="-26653">
		<tag k="name" v="Nedre Aslomtjønn" />
		<tag k="natural" v="water" />
		<tag k="ssr:stedsnr" v="898302" />
	</node>
	<node lat="59.082288890115166" lon="8.07394443651687" id="-26657">
		<tag k="name" v="Grøtjønn øvre" />
		<tag k="natural" v="water" />
		<tag k="ssr:stedsnr" v="898395" />
	</node>
	<node lat="59.0913638864798" lon="8.061236111672548" id="-26659">
		<tag k="name" v="Dagtrolltjønn" />
		<tag k="natural" v="water" />
		<tag k="ssr:stedsnr" v="898398" />
	</node>
	<node lat="58.99889722630055" lon="8.27441944292897" id="-26660">
		<tag k="name" v="Lomkilbukti" />
		<tag k="natural" v="bay" />
		<tag k="ssr:stedsnr" v="898350" />
	</node>
	<node lat="59.056063890331316" lon="8.352897222934248" id="-26662">
		<tag k="name" v="Veilebukta" />
		<tag k="natural" v="bay" />
		<tag k="ssr:stedsnr" v="898491" />
	</node>
	<node lat="59.00308055599427" lon="8.283227782566017" id="-26668">
		<tag k="name" v="Sauenes" />
		<tag k="natural" v="cape" />
		<tag k="ssr:stedsnr" v="714626" />
	</node>
	<node lat="59.31461666795785" lon="8.047972214536589" id="-26670">
		<tag k="name" v="Plasstjønni" />
		<tag k="natural" v="water" />
		<tag k="ssr:stedsnr" v="898694" />
	</node>
	<node lat="59.27713055953417" lon="8.26400277633089" id="-26678">
		<tag k="name" v="Venekvævbekken" />
		<tag k="ssr:stedsnr" v="715445" />
		<tag k="waterway" v="stream" />
	</node>
	<node lat="59.038116668023676" lon="8.236005562501106" id="-26690">
		<tag k="name" v="Geitevikja" />
		<tag k="natural" v="bay" />
		<tag k="ssr:stedsnr" v="715824" />
	</node>
	<node lat="59.24710555402495" lon="8.207016673712403" id="-26692">
		<tag k="name" v="Rauodde" />
		<tag k="natural" v="cape" />
		<tag k="ssr:stedsnr" v="715917" />
	</node>
	<node lat="59.24805278161547" lon="8.16353055281231" id="-26695">
		<tag k="name" v="Småøybukta" />
		<tag k="natural" v="bay" />
		<tag k="ssr:stedsnr" v="715922" />
	</node>
	<node lat="59.24954166546102" lon="8.2150472264657" id="-26697">
		<tag k="name" v="Kvennåodden" />
		<tag k="natural" v="cape" />
		<tag k="ssr:stedsnr" v="898922" />
	</node>
	<node lat="58.96613055904335" lon="8.076880561207593" id="-26698">
		<tag k="name" v="Raublestbukta" />
		<tag k="natural" v="bay" />
		<tag k="ssr:stedsnr" v="716017" />
	</node>
	<node lat="59.011988886447924" lon="8.004494438531323" id="-26699">
		<tag k="name" v="Kråkelitjønn" />
		<tag k="natural" v="water" />
		<tag k="ssr:stedsnr" v="716112" />
	</node>
	<node lat="59.249825743651826" lon="7.9725538264456235" id="-26717">
		<tag k="name" v="Høydalsløkjine" />
		<tag k="natural" v="water" />
		<tag k="ssr:stedsnr" v="899094" />
	</node>
	<node lat="59.05966944498817" lon="7.884222216847236" id="-26718">
		<tag k="name" v="Håbutjønn nedre" />
		<tag k="natural" v="water" />
		<tag k="ssr:stedsnr" v="717422" />
	</node>
	<node lat="59.08046389279638" lon="8.00645000330669" id="-26720">
		<tag k="name" v="Lisle Lomtjønn" />
		<tag k="natural" v="water" />
		<tag k="ssr:stedsnr" v="717816" />
	</node>
	<node lat="59.02064166538394" lon="7.9553222186420065" id="-26726">
		<tag k="name" v="Storetotjønn" />
		<tag k="natural" v="water" />
		<tag k="ssr:stedsnr" v="899464" />
	</node>
	<node lat="59.084486110834305" lon="8.012511112046127" id="-26732">
		<tag k="name" v="Lomtjønn" />
		<tag k="natural" v="water" />
		<tag k="ssr:stedsnr" v="899841" />
	</node>
	<node lat="59.33539444492813" lon="7.860708326618181" id="-26734">
		<tag k="name" v="Augontjønn" />
		<tag k="natural" v="water" />
		<tag k="ssr:stedsnr" v="899961" />
	</node>
	<node lat="59.31709721884772" lon="8.042186115955195" id="-26736">
		<tag k="name" v="Øvre Hommantjønni" />
		<tag k="natural" v="water" />
		<tag k="ssr:stedsnr" v="899986" />
	</node>
	<node lat="59.119974996716664" lon="8.173424998510502" id="-26740">
		<tag k="alt_name" v="Dryftetjørni" />
		<tag k="name" v="Dryftetjønn" />
		<tag k="natural" v="water" />
		<tag k="ssr:stedsnr" v="729125" />
	</node>
	<node lat="59.233144440637716" lon="8.205466675348303" id="-26743">
		<tag k="alt_name" v="Ørntjørni" />
		<tag k="name" v="Ørnetjønn" />
		<tag k="natural" v="water" />
		<tag k="ssr:stedsnr" v="730010" />
	</node>
	<node lat="59.322175001017385" lon="8.188452777064994" id="-26746">
		<tag k="alt_name" v="Igletjørn" />
		<tag k="name" v="Igletjønn" />
		<tag k="natural" v="water" />
		<tag k="ssr:stedsnr" v="730186" />
	</node>
	<node lat="59.15500833095291" lon="7.880436109816497" id="-26748">
		<tag k="alt_name" v="Nørdstetjørn" />
		<tag k="name" v="Nørstetjønn" />
		<tag k="natural" v="water" />
		<tag k="ssr:stedsnr" v="730419" />
	</node>
	<node lat="59.0825749967499" lon="7.9729027719571794" id="-26750">
		<tag k="alt_name" v="Ufstjørn" />
		<tag k="name" v="Ufstjønn" />
		<tag k="natural" v="water" />
		<tag k="ssr:stedsnr" v="730464" />
	</node>
	<node lat="59.247188890786745" lon="7.791650005467341" id="-26754">
		<tag k="alt_name" v="Nasetjørn;Nøstjørn" />
		<tag k="name" v="Nasetjønn" />
		<tag k="natural" v="water" />
		<tag k="ssr:stedsnr" v="755452" />
	</node>
	<node lat="59.21052778035884" lon="8.081000000284611" id="-26755">
		<tag k="name" v="Nedre Dalåni" />
		<tag k="ssr:stedsnr" v="755454" />
		<tag k="waterway" v="stream" />
	</node>
	<node lat="59.15040555328494" lon="7.796550004871737" id="-26758">
		<tag k="alt_name" v="Hestekvævtjørnane" />
		<tag k="name" v="Hestekvævtjønn" />
		<tag k="natural" v="water" />
		<tag k="ssr:stedsnr" v="756049" />
	</node>
	<node lat="59.18111944761309" lon="7.7401166732245805" id="-26759">
		<tag k="alt_name" v="Gruvekvævtjørn" />
		<tag k="name" v="Gruvetjønna" />
		<tag k="natural" v="water" />
		<tag k="ssr:stedsnr" v="756056" />
	</node>
	<node lat="59.24764722233204" lon="8.156402769820518" id="-26763">
		<tag k="name" v="Storøy" />
		<tag k="place" v="island" />
		<tag k="ssr:stedsnr" v="762307" />
	</node>
	<node lat="59.25332777399946" lon="7.7448027798173875" id="-26770">
		<tag k="name" v="Bestefartjønnane" />
		<tag k="natural" v="water" />
		<tag k="ssr:stedsnr" v="763251" />
	</node>
	<node lat="59.244727776116285" lon="7.864897225242663" id="-26772">
		<tag k="name" v="Tverrå" />
		<tag k="ssr:stedsnr" v="763125" />
		<tag k="waterway" v="river" />
	</node>
	<node lat="59.24071944058274" lon="7.99701943641445" id="-26773">
		<tag k="name" v="Fåtjønntjønna" />
		<tag k="natural" v="water" />
		<tag k="ssr:stedsnr" v="763308" />
	</node>
	<node lat="59.18590000368927" lon="7.979752777621456" id="-26776">
		<tag k="name" v="Klauvarvatn" />
		<tag k="natural" v="water" />
		<tag k="ssr:stedsnr" v="763552" />
		<tag k="water" v="lake" />
	</node>
	<node lat="59.14567777977007" lon="7.978449996042735" id="-26780">
		<tag k="name" v="Glomstøylvadet" />
		<tag k="natural" v="shoal" />
		<tag k="place" v="locality" />
		<tag k="ssr:stedsnr" v="763411" />
	</node>
	<node lat="59.27410000100662" lon="7.730466668231571" id="-26782">
		<tag k="name" v="Vegbergtjønna" />
		<tag k="natural" v="water" />
		<tag k="ssr:stedsnr" v="763494" />
	</node>
	<node lat="59.25313611072035" lon="7.809188896719671" id="-26787">
		<tag k="name" v="Sprangji" />
		<tag k="place" v="locality" />
		<tag k="ssr:stedsnr" v="763852" />
	</node>
	<node lat="59.291122222424036" lon="8.178038886010638" id="-26804">
		<tag k="name" v="Måbergtjønnbekken" />
		<tag k="ssr:stedsnr" v="776222" />
		<tag k="waterway" v="stream" />
	</node>
	<node lat="59.25884444122105" lon="8.06986388568134" id="-26811">
		<tag k="name" v="Bomnes" />
		<tag k="natural" v="cape" />
		<tag k="ssr:stedsnr" v="776457" />
	</node>
	<node lat="59.316058337688766" lon="8.075613885011052" id="-26813">
		<tag k="name" v="Storlipytten" />
		<tag k="natural" v="water" />
		<tag k="ssr:stedsnr" v="776920" />
	</node>
	<node lat="59.359424997521074" lon="7.856047223192526" id="-26818">
		<tag k="name" v="Dansskortjønn" />
		<tag k="natural" v="water" />
		<tag k="ssr:stedsnr" v="777101" />
	</node>
	<node lat="59.337966668811134" lon="7.89171943730256" id="-26833">
		<tag k="name" v="Lonetjønni" />
		<tag k="natural" v="water" />
		<tag k="ssr:stedsnr" v="778366" />
	</node>
	<node lat="58.97502778135958" lon="8.254788893613556" id="-26835">
		<tag k="name" v="Straumsåi" />
		<tag k="ssr:stedsnr" v="911215" />
		<tag k="waterway" v="stream" />
	</node>
	<node lat="59.07633055633197" lon="8.327983334362061" id="-26836">
		<tag k="alt_name" v="Sletteheitjørni" />
		<tag k="name" v="Sletteheitjønn" />
		<tag k="natural" v="water" />
		<tag k="ssr:stedsnr" v="911226" />
	</node>
	<node lat="59.17742221887535" lon="8.054927779056683" id="-26837">
		<tag k="name" v="Røykenes" />
		<tag k="natural" v="cape" />
		<tag k="ssr:stedsnr" v="911403" />
	</node>
	<node lat="59.047724998551566" lon="7.949922228576281" id="-26840">
		<tag k="name" v="Birtevatn" />
		<tag k="natural" v="water" />
		<tag k="ssr:stedsnr" v="911474" />
		<tag k="water" v="lake" />
	</node>
	<node lat="59.24318889157164" lon="8.283736110891486" id="-26843">
		<tag k="alt_name" v="Langnestjørni" />
		<tag k="name" v="Langnestjønna" />
		<tag k="natural" v="water" />
		<tag k="ssr:stedsnr" v="790010" />
	</node>
	<node lat="59.04562500169485" lon="8.15124165803817" id="-26847">
		<tag k="alt_name" v="Smymatjørn" />
		<tag k="name" v="Smymatjønn" />
		<tag k="natural" v="water" />
		<tag k="ssr:stedsnr" v="790205" />
	</node>
	<node lat="59.09653888798026" lon="7.984458328559212" id="-26853">
		<tag k="name" v="Sundbekk" />
		<tag k="natural" v="water" />
		<tag k="ssr:stedsnr" v="790453" />
		<tag k="water" v="lake" />
	</node>
	<node lat="58.98057778132155" lon="8.064497227405562" id="-26854">
		<tag k="name" v="Nesvatn" />
		<tag k="natural" v="water" />
		<tag k="ssr:stedsnr" v="911605" />
		<tag k="water" v="lake" />
	</node>
	<node lat="58.97965277625782" lon="7.963269442123184" id="-26855">
		<tag k="alt_name" v="Selbuvatn, øvre" />
		<tag k="name" v="Øvre Selbuvatn" />
		<tag k="natural" v="water" />
		<tag k="ssr:stedsnr" v="911626" />
		<tag k="water" v="lake" />
	</node>
	<node lat="59.31345000142473" lon="8.040377786289394" id="-26864">
		<tag k="name" v="Lislå" />
		<tag k="ssr:stedsnr" v="791946" />
		<tag k="waterway" v="stream" />
	</node>
	<node lat="59.3405117696539" lon="7.848574777114233" id="-26865">
		<tag k="name" v="Grastjørnane" />
		<tag k="natural" v="water" />
		<tag k="ssr:stedsnr" v="791984" />
	</node>
	<node lat="59.333433333883576" lon="8.002302780959864" id="-26868">
		<tag k="name" v="Homvatn" />
		<tag k="natural" v="water" />
		<tag k="ssr:stedsnr" v="791997" />
	</node>
	<node lat="58.957974997901005" lon="8.131716667932016" id="-26873">
		<tag k="name" v="Dragtjønn" />
		<tag k="natural" v="water" />
		<tag k="ssr:stedsnr" v="911925" />
	</node>
	<node lat="59.29911944681791" lon="8.128405557070094" id="-26874">
		<tag k="name" v="Knutsbubekken" />
		<tag k="ssr:stedsnr" v="912142" />
		<tag k="waterway" v="stream" />
	</node>
	<node lat="59.121441667336654" lon="8.193777772328028" id="-26877">
		<tag k="name" v="Langetjørnane" />
		<tag k="natural" v="water" />
		<tag k="ssr:stedsnr" v="912151" />
	</node>
	<node lat="59.19663055450395" lon="7.780888890729288" id="-26883">
		<tag k="alt_name" v="Raudhommhylen" />
		<tag k="name" v="Rauhomhylen" />
		<tag k="natural" v="water" />
		<tag k="ssr:stedsnr" v="912360" />
	</node>
	<node lat="59.041208331039165" lon="8.29827499331869" id="-26884">
		<tag k="alt_name" v="Svarvartjørnane" />
		<tag k="name" v="Svarvartjønnane" />
		<tag k="natural" v="water" />
		<tag k="ssr:stedsnr" v="912253" />
	</node>
	<node lat="59.047211115223156" lon="8.363549997217707" id="-26885">
		<tag k="name" v="Midvatn" />
		<tag k="natural" v="water" />
		<tag k="ssr:stedsnr" v="912255" />
		<tag k="water" v="lake" />
	</node>
	<node lat="59.02927500348857" lon="8.081516668909346" id="-26886">
		<tag k="alt_name" v="Hæknebukta" />
		<tag k="name" v="Heknebukti" />
		<tag k="natural" v="bay" />
		<tag k="ssr:stedsnr" v="912526" />
	</node>
	<node lat="59.09600277910895" lon="7.837649996647028" id="-26888">
		<tag k="alt_name" v="Sylvtjørn" />
		<tag k="name" v="Sylvtjønn" />
		<tag k="natural" v="water" />
		<tag k="ssr:stedsnr" v="912455" />
	</node>
	<node lat="59.08889166479513" lon="7.946724993735718" id="-26890">
		<tag k="name" v="Gjevarvatn" />
		<tag k="natural" v="water" />
		<tag k="ssr:stedsnr" v="912467" />
		<tag k="water" v="lake" />
	</node>
	<node lat="59.26185833065941" lon="8.005313884531065" id="-26892">
		<tag k="name" v="Nystøylbekken" />
		<tag k="old_name" v="Nystølbekken" />
		<tag k="ssr:stedsnr" v="912884" />
		<tag k="waterway" v="stream" />
	</node>
	<node lat="59.012038889485524" lon="8.339905548159798" id="-26894">
		<tag k="alt_name" v="Saurvatn" />
		<tag k="name" v="Saurvatnet" />
		<tag k="natural" v="water" />
		<tag k="ssr:stedsnr" v="912965" />
		<tag k="water" v="lake" />
	</node>
	<node lat="59.2570388906231" lon="7.9063805590208664" id="-26895">
		<tag k="alt_name" v="Brårtjørn" />
		<tag k="name" v="Brårtjønn" />
		<tag k="natural" v="water" />
		<tag k="ssr:stedsnr" v="912932" />
	</node>
	<node lat="59.28508611158088" lon="7.873813893226803" id="-26905">
		<tag k="name" v="Langenes" />
		<tag k="natural" v="cape" />
		<tag k="ssr:stedsnr" v="816382" />
	</node>
	<node lat="59.3088972258009" lon="7.755758340338697" id="-26908">
		<tag k="name" v="Nedre Stokktjønna" />
		<tag k="natural" v="water" />
		<tag k="ssr:stedsnr" v="817971" />
	</node>
	<node lat="59.23223333435462" lon="8.082916666203475" id="-26915">
		<tag k="name" v="Haugenesi" />
		<tag k="natural" v="cape" />
		<tag k="ssr:stedsnr" v="823371" />
	</node>
	<node lat="59.196536114446346" lon="7.825983326019956" id="-26923">
		<tag k="name" v="Bjorfitløkjen" />
		<tag k="place" v="locality" />
		<tag k="ssr:stedsnr" v="824764" />
	</node>
	<node lat="59.247927775392085" lon="8.296619451138707" id="-26928">
		<tag k="name" v="Stuppevikja" />
		<tag k="natural" v="bay" />
		<tag k="ssr:stedsnr" v="825664" />
	</node>
	<node lat="59.159511109020045" lon="8.28128055765061" id="-26938">
		<tag k="name" v="Kråketjønn" />
		<tag k="natural" v="water" />
		<tag k="ssr:stedsnr" v="836803" />
	</node>
	<node lat="59.11666388944984" lon="8.194752776096403" id="-26946">
		<tag k="name" v="Hjartetjønn" />
		<tag k="natural" v="water" />
		<tag k="ssr:stedsnr" v="837311" />
	</node>
	<node lat="58.97310833787718" lon="7.966730559411577" id="-26949">
		<tag k="name" v="Hestekvævtjønn" />
		<tag k="natural" v="water" />
		<tag k="ssr:stedsnr" v="837412" />
	</node>
	<node lat="59.07365833101819" lon="8.065583333942435" id="-26953">
		<tag k="name" v="Småtjønnane" />
		<tag k="natural" v="water" />
		<tag k="ssr:stedsnr" v="837446" />
	</node>
	<node lat="59.15406666839075" lon="8.084802780857993" id="-26955">
		<tag k="name" v="Kåsebekken" />
		<tag k="ssr:stedsnr" v="837591" />
		<tag k="waterway" v="stream" />
	</node>
	<node lat="59.067386115634484" lon="8.113775007448176" id="-26963">
		<tag k="name" v="Bjønnstigtjønnane" />
		<tag k="natural" v="water" />
		<tag k="ssr:stedsnr" v="837834" />
	</node>
	<node lat="59.03380833551447" lon="8.062055555782926" id="-26967">
		<tag k="name" v="Lisleøy" />
		<tag k="place" v="islet" />
		<tag k="ssr:stedsnr" v="837927" />
	</node>
	<node lat="58.98546944008665" lon="8.193177777404747" id="-26968">
		<tag k="name" v="Gjæsetjønn" />
		<tag k="natural" v="water" />
		<tag k="ssr:stedsnr" v="837979" />
	</node>
	<node lat="59.17496389221958" lon="8.158294439279029" id="-26971">
		<tag k="name" v="Søtdalstjønna" />
		<tag k="natural" v="water" />
		<tag k="ssr:stedsnr" v="837994" />
	</node>
	<node lat="59.29807222006522" lon="8.134366669014334" id="-26972">
		<tag k="name" v="Saghylen" />
		<tag k="place" v="locality" />
		<tag k="ssr:stedsnr" v="838110" />
	</node>
	<node lat="59.12026111197266" lon="8.00445277775524" id="-26978">
		<tag k="name" v="Ragnhildstjønn" />
		<tag k="natural" v="water" />
		<tag k="ssr:stedsnr" v="839185" />
	</node>
	<node lat="59.06879166923268" lon="8.339952779165532" id="-26988">
		<tag k="alt_name" v="Sipletjørn" />
		<tag k="name" v="Sipletjønn" />
		<tag k="natural" v="water" />
		<tag k="ssr:stedsnr" v="851205" />
	</node>
	<node lat="59.208913892733506" lon="7.843763881472233" id="-26992">
		<tag k="name" v="Haukreivatn" />
		<tag k="natural" v="water" />
		<tag k="ssr:stedsnr" v="851313" />
		<tag k="water" v="lake" />
	</node>
	<node lat="59.163622218201006" lon="8.029438895851277" id="-26993">
		<tag k="alt_name" v="Vikåni" />
		<tag k="name" v="Vikåne" />
		<tag k="old_name" v="Vikåi" />
		<tag k="ssr:stedsnr" v="851371" />
		<tag k="waterway" v="river" />
	</node>
	<node lat="59.09729048261737" lon="7.912382692971201" id="-26994">
		<tag k="name" v="Øyarvatn" />
		<tag k="natural" v="water" />
		<tag k="ssr:stedsnr" v="851413" />
		<tag k="water" v="lake" />
	</node>
	<node lat="59.06010555394908" lon="8.026866666504791" id="-26995">
		<tag k="alt_name" v="Bråtjørn" />
		<tag k="name" v="Bråtjønn" />
		<tag k="natural" v="water" />
		<tag k="ssr:stedsnr" v="851439" />
	</node>
	<node lat="59.09875000134335" lon="8.285350005923457" id="-26999">
		<tag k="alt_name" v="Sandvatn" />
		<tag k="name" v="Sandvatnet" />
		<tag k="natural" v="water" />
		<tag k="ssr:stedsnr" v="852163" />
		<tag k="water" v="lake" />
	</node>
	<node lat="59.252475002337285" lon="8.211274997115025" id="-27000">
		<tag k="alt_name" v="Kvennåa" />
		<tag k="name" v="Kvernåi" />
		<tag k="ssr:stedsnr" v="852206" />
		<tag k="waterway" v="stream" />
	</node>
	<node lat="59.26408333228679" lon="7.931783339899023" id="-27006">
		<tag k="alt_name" v="Lomstjørn" />
		<tag k="name" v="Lamstjønn" />
		<tag k="natural" v="water" />
		<tag k="ssr:stedsnr" v="852913" />
	</node>
	<node lat="59.00921666240892" lon="8.37309444536976" id="-27008">
		<tag k="alt_name" v="Dei grunne tjørnane" />
		<tag k="name" v="Dei grunne tjønnane" />
		<tag k="natural" v="water" />
		<tag k="ssr:stedsnr" v="852964" />
	</node>
	<node lat="59.207319443399044" lon="7.929466662676276" id="-27013">
		<tag k="alt_name" v="Votnevatn" />
		<tag k="name" v="Votnevatni" />
		<tag k="natural" v="water" />
		<tag k="ssr:stedsnr" v="877010" />
		<tag k="water" v="lake" />
	</node>
	<node lat="59.1445500028346" lon="7.776913886251912" id="-27016">
		<tag k="name" v="Tjørndalstjørnane" />
		<tag k="natural" v="water" />
		<tag k="ssr:stedsnr" v="877053" />
	</node>
	<node lat="59.2594361126362" lon="7.96672778161367" id="-27017">
		<tag k="alt_name" v="Bøysæ, l" />
		<tag k="name" v="Lisle Bøysæ" />
		<tag k="natural" v="water" />
		<tag k="ssr:stedsnr" v="877306" />
	</node>
	<node lat="59.051366663903664" lon="7.8901611037947985" id="-27021">
		<tag k="alt_name" v="Oksebrottjørn" />
		<tag k="name" v="Øksebrottjønnane" />
		<tag k="natural" v="water" />
		<tag k="ssr:stedsnr" v="877501" />
	</node>
	<node lat="59.229663888965554" lon="8.077947225688396" id="-27026">
		<tag k="name" v="Vassmålarhylen" />
		<tag k="place" v="locality" />
		<tag k="ssr:stedsnr" v="883515" />
	</node>
	<node lat="59.19306666420714" lon="8.086433332687564" id="-27029">
		<tag k="name" v="Kynjusbekken" />
		<tag k="ssr:stedsnr" v="883847" />
		<tag k="waterway" v="stream" />
	</node>
	<node lat="59.242938889069414" lon="7.9141111103733275" id="-27033">
		<tag k="name" v="Bjårnes" />
		<tag k="natural" v="cape" />
		<tag k="ssr:stedsnr" v="884146" />
	</node>
	<node lat="59.12404722039835" lon="8.037727780619921" id="-27037">
		<tag k="name" v="Høltetjønn" />
		<tag k="natural" v="water" />
		<tag k="ssr:stedsnr" v="884353" />
	</node>
	<node lat="59.21114999674111" lon="7.855713891885531" id="-27039">
		<tag k="name" v="Skåpfossen" />
		<tag k="natural" v="waterfall" />
		<tag k="ssr:stedsnr" v="884498" />
	</node>
	<node lat="59.13359166296915" lon="7.794108341523858" id="-27048">
		<tag k="name" v="Heddertjønn" />
		<tag k="natural" v="water" />
		<tag k="ssr:stedsnr" v="886960" />
	</node>
	<node lat="58.989752773944275" lon="8.268086116641927" id="-27052">
		<tag k="name" v="Søylebukta" />
		<tag k="natural" v="bay" />
		<tag k="ssr:stedsnr" v="894081" />
	</node>
	<node lat="59.00841111058778" lon="8.251975007391222" id="-27054">
		<tag k="name" v="Russdammen" />
		<tag k="ssr:stedsnr" v="897173" />
		<tag k="waterway" v="dam" />
	</node>
	<node lat="59.12711944775502" lon="8.257613889539856" id="-27058">
		<tag k="name" v="Grunnvassevja" />
		<tag k="place" v="locality" />
		<tag k="ssr:stedsnr" v="897566" />
	</node>
	<node lat="59.25294722452132" lon="8.069111108862826" id="-27069">
		<tag k="name" v="Besjordtjønna" />
		<tag k="natural" v="water" />
		<tag k="ssr:stedsnr" v="898464" />
	</node>
	<node lat="59.124438891940166" lon="8.128808337127172" id="-27070">
		<tag k="name" v="Odden" />
		<tag k="natural" v="cape" />
		<tag k="ssr:stedsnr" v="898556" />
	</node>
	<node lat="59.12971111026568" lon="8.139124993421573" id="-27071">
		<tag k="name" v="Gråndalsbekken" />
		<tag k="ssr:stedsnr" v="898557" />
		<tag k="waterway" v="stream" />
	</node>
	<node lat="59.06148610905105" lon="7.941541666136467" id="-27079">
		<tag k="name" v="Hagveodden" />
		<tag k="natural" v="cape" />
		<tag k="ssr:stedsnr" v="899167" />
	</node>
	<node lat="59.02407500140948" lon="7.981830562215207" id="-27080">
		<tag k="name" v="Klovbekken" />
		<tag k="ssr:stedsnr" v="899068" />
		<tag k="waterway" v="stream" />
	</node>
	<node lat="59.03527777995842" lon="8.011358339386089" id="-27085">
		<tag k="name" v="Bergstadbekken" />
		<tag k="ssr:stedsnr" v="899914" />
		<tag k="waterway" v="stream" />
	</node>
	<node lat="59.060019445480016" lon="8.040561119241406" id="-27087">
		<tag k="name" v="Storosbukta" />
		<tag k="natural" v="bay" />
		<tag k="ssr:stedsnr" v="899866" />
	</node>
	<node lat="59.19519167064428" lon="7.9096916666760295" id="-27093">
		<tag k="alt_name" v="Kråkehomtjørnane;Kråkhomtjørnane" />
		<tag k="name" v="Kråkhomtjønnane" />
		<tag k="natural" v="water" />
		<tag k="ssr:stedsnr" v="911358" />
	</node>
	<node lat="59.176794441087885" lon="7.844236109469889" id="-27094">
		<tag k="alt_name" v="Lomstjørn" />
		<tag k="name" v="Lomstjønn" />
		<tag k="natural" v="water" />
		<tag k="ssr:stedsnr" v="911376" />
	</node>
	<node lat="58.99761111447819" lon="8.123891658854472" id="-27096">
		<tag k="name" v="Fiskevatn" />
		<tag k="natural" v="water" />
		<tag k="ssr:stedsnr" v="911853" />
		<tag k="water" v="lake" />
	</node>
	<node lat="58.9445944438753" lon="8.290325007223702" id="-27097">
		<tag k="name" v="Brudesløret" />
		<tag k="natural" v="water" />
		<tag k="ssr:stedsnr" v="911947" />
	</node>
	<node lat="59.23503333262491" lon="8.160166668241333" id="-27099">
		<tag k="alt_name" v="Småtjørnane" />
		<tag k="name" v="Småtjønnane" />
		<tag k="natural" v="water" />
		<tag k="ssr:stedsnr" v="912004" />
	</node>
	<node lat="59.08443889279508" lon="8.287600003292333" id="-27100">
		<tag k="alt_name" v="Stemmetjørn" />
		<tag k="name" v="Stemmetjønn" />
		<tag k="natural" v="water" />
		<tag k="ssr:stedsnr" v="912205" />
	</node>
	<node lat="59.26962777375523" lon="8.265580552538042" id="-27101">
		<tag k="alt_name" v="Valevatn, yt;Valevatn, ytre" />
		<tag k="name" v="Ytre Valevatn" />
		<tag k="natural" v="water" />
		<tag k="ssr:stedsnr" v="912207" />
		<tag k="water" v="lake" />
	</node>
	<node lat="59.259930551900354" lon="8.13408889700465" id="-27102">
		<tag k="name" v="Torvdammen" />
		<tag k="natural" v="water" />
		<tag k="ssr:stedsnr" v="912221" />
	</node>
	<node lat="59.0269083334681" lon="8.205863894211818" id="-27103">
		<tag k="alt_name" v="Tjørneheivatnet, øvre" />
		<tag k="name" v="Øvre Tjønneheitjønn" />
		<tag k="natural" v="water" />
		<tag k="ssr:stedsnr" v="912228" />
		<tag k="water" v="lake" />
	</node>
	<node lat="59.28318055852134" lon="8.24347499492737" id="-27104">
		<tag k="alt_name" v="Nordre Valvatn" />
		<tag k="name" v="Valevatn" />
		<tag k="natural" v="water" />
		<tag k="ssr:stedsnr" v="912230" />
		<tag k="water" v="lake" />
	</node>
	<node lat="59.152925000672674" lon="8.303125008713279" id="-27106">
		<tag k="alt_name" v="Strondtjørni" />
		<tag k="name" v="Stråndetjønn" />
		<tag k="natural" v="water" />
		<tag k="ssr:stedsnr" v="912096" />
	</node>
	<node lat="59.04226111385216" lon="7.973325001981946" id="-27107">
		<tag k="alt_name" v="Bjorufstjørni" />
		<tag k="name" v="Bjorhustjønn" />
		<tag k="natural" v="water" />
		<tag k="old_name" v="Galtetjørn" />
		<tag k="ssr:stedsnr" v="912504" />
	</node>
	<node lat="59.04405555524408" lon="8.08187777410388" id="-27108">
		<tag k="name" v="Kvislåni" />
		<tag k="old_name" v="Kvislåi" />
		<tag k="ssr:stedsnr" v="912506" />
		<tag k="waterway" v="stream" />
	</node>
	<node lat="59.02161110798586" lon="8.235977775635657" id="-27111">
		<tag k="alt_name" v="Visdalsbekken" />
		<tag k="name" v="Visedalsåi" />
		<tag k="ssr:stedsnr" v="912983" />
		<tag k="waterway" v="stream" />
	</node>
	<node lat="59.02160277550787" lon="8.372363892824431" id="-27112">
		<tag k="name" v="Skulehomtjørnane" />
		<tag k="natural" v="water" />
		<tag k="ssr:stedsnr" v="912985" />
	</node>
	<node lat="59.14995833471447" lon="8.027480559210899" id="-27117">
		<tag k="name" v="Fardalsbekken" />
		<tag k="ssr:stedsnr" v="937516" />
		<tag k="waterway" v="stream" />
	</node>
	<node lat="59.20047500154766" lon="7.8559138823358525" id="-27118">
		<tag k="alt_name" v="Kottjørn" />
		<tag k="name" v="Kottjønn" />
		<tag k="natural" v="water" />
		<tag k="ssr:stedsnr" v="937527" />
	</node>
	<node lat="59.27150000259623" lon="7.806455558805288" id="-27125">
		<tag k="name" v="Haukedalsbukta" />
		<tag k="natural" v="bay" />
		<tag k="ssr:stedsnr" v="945005" />
	</node>
	<node lat="59.28029721839874" lon="7.750958340558467" id="-27128">
		<tag k="name" v="Gilbergdalsbekken" />
		<tag k="ssr:stedsnr" v="945383" />
		<tag k="waterway" v="stream" />
	</node>
	<node lat="59.16892499621642" lon="7.803880547627569" id="-27133">
		<tag k="name" v="Austmannliodden" />
		<tag k="natural" v="cape" />
		<tag k="ssr:stedsnr" v="946208" />
	</node>
	<node lat="59.18828055151519" lon="7.955475001847967" id="-27136">
		<tag k="name" v="Ospelunden" />
		<tag k="place" v="locality" />
		<tag k="ssr:stedsnr" v="946731" />
	</node>
	<node lat="59.150180557413556" lon="7.778669443105639" id="-27140">
		<tag k="name" v="Olavstjønn" />
		<tag k="natural" v="water" />
		<tag k="ssr:stedsnr" v="947934" />
	</node>
	<node lat="59.29340000242082" lon="7.9046000067159845" id="-27144">
		<tag k="name" v="Langenes" />
		<tag k="natural" v="cape" />
		<tag k="ssr:stedsnr" v="956016" />
	</node>
	<node lat="59.00397500099008" lon="8.337516661678475" id="-27146">
		<tag k="name" v="Lauvnutbekken" />
		<tag k="ssr:stedsnr" v="957017" />
		<tag k="waterway" v="stream" />
	</node>
	<node lat="59.15252499715887" lon="8.1062083393934" id="-27148">
		<tag k="name" v="Heimare Neslandstjønna" />
		<tag k="natural" v="water" />
		<tag k="ssr:stedsnr" v="957296" />
	</node>
	<node lat="59.04753333077917" lon="7.993208341270327" id="-27152">
		<tag k="name" v="Åstjønn" />
		<tag k="natural" v="water" />
		<tag k="ssr:stedsnr" v="958004" />
	</node>
	<node lat="59.26476944761975" lon="8.139716669330678" id="-27155">
		<tag k="name" v="Hæghovdtjønni" />
		<tag k="natural" v="water" />
		<tag k="ssr:stedsnr" v="958098" />
	</node>
	<node lat="58.995605558173814" lon="8.249258340011615" id="-27157">
		<tag k="name" v="Kastodden" />
		<tag k="natural" v="cape" />
		<tag k="ssr:stedsnr" v="958188" />
	</node>
	<node lat="59.176169448950304" lon="8.199225007828266" id="-27160">
		<tag k="name" v="Høndalstjønn" />
		<tag k="natural" v="water" />
		<tag k="ssr:stedsnr" v="958405" />
	</node>
	<node lat="59.24844722357584" lon="8.162844446142488" id="-27165">
		<tag k="name" v="Lisleøy" />
		<tag k="place" v="island" />
		<tag k="ssr:stedsnr" v="958934" />
	</node>
	<node lat="59.03623611339904" lon="8.23397500684406" id="-27166">
		<tag k="name" v="Lønhombukta" />
		<tag k="natural" v="bay" />
		<tag k="ssr:stedsnr" v="958837" />
	</node>
</osm>
