<?xml version="1.0" encoding="UTF-8"?>
<osm version="0.6" generator="osmapis">
	<node lat="59.00584444404393" lon="8.295611111631924" id="-59726">
		<tag k="name" v="Kleivane" />
		<tag k="place" v="locality" />
		<tag k="ssr:stedsnr" v="229662" />
	</node>
	<node lat="58.98430555526855" lon="8.201444439513564" id="-59751">
		<tag k="name" v="Finnstakkhola" />
		<tag k="natural" v="wetland" />
		<tag k="ssr:stedsnr" v="230044" />
	</node>
	<node lat="58.975883328879256" lon="8.241688881267974" id="-59754">
		<tag k="name" v="Tvistakkslåtta" />
		<tag k="natural" v="wetland" />
		<tag k="ssr:stedsnr" v="230055" />
	</node>
	<node lat="59.098536107985325" lon="8.205569437573146" id="-59766">
		<tag k="name" v="Raublesberga" />
		<tag k="place" v="locality" />
		<tag k="ssr:stedsnr" v="230345" />
	</node>
	<node lat="59.073369443701694" lon="8.094791664741177" id="-59772">
		<tag k="name" v="Kjempune" />
		<tag k="place" v="locality" />
		<tag k="ssr:stedsnr" v="230455" />
	</node>
	<node lat="59.0436055519946" lon="8.353013889096014" id="-59775">
		<tag k="name" v="Nystøylmyrane" />
		<tag k="natural" v="wetland" />
		<tag k="ssr:stedsnr" v="230466" />
	</node>
	<node lat="59.31910555796612" lon="8.185980563313393" id="-59780">
		<tag k="name" v="Høystøylsteane" />
		<tag k="natural" v="wetland" />
		<tag k="ssr:stedsnr" v="230642" />
	</node>
	<node lat="59.30641944468409" lon="8.076213895973366" id="-59784">
		<tag k="name" v="Åsmyrane" />
		<tag k="natural" v="wetland" />
		<tag k="ssr:stedsnr" v="230675" />
	</node>
	<node lat="59.05933332887598" lon="8.006930554137146" id="-59808">
		<tag k="name" v="Bergstigmyra" />
		<tag k="natural" v="wetland" />
		<tag k="ssr:stedsnr" v="231866" />
	</node>
	<node lat="58.98573888885945" lon="8.2752638874776" id="-59811">
		<tag k="name" v="Torvmyra" />
		<tag k="natural" v="wetland" />
		<tag k="ssr:stedsnr" v="25029" />
	</node>
	<node lat="59.242347217969744" lon="8.006674995527066" id="-59829">
		<tag k="name" v="Pettersmyr" />
		<tag k="natural" v="wetland" />
		<tag k="ssr:stedsnr" v="34409" />
	</node>
	<node lat="59.26143611277311" lon="7.754380563020103" id="-59833">
		<tag k="name" v="Tukkedokk" />
		<tag k="natural" v="wetland" />
		<tag k="ssr:stedsnr" v="35264" />
	</node>
	<node lat="59.27366389231319" lon="8.263822226253637" id="-59866">
		<tag k="name" v="Venekvævsteane" />
		<tag k="natural" v="wetland" />
		<tag k="ssr:stedsnr" v="48385" />
	</node>
	<node lat="59.15337777477041" lon="8.09756666128887" id="-59868">
		<tag k="name" v="Langemyr" />
		<tag k="natural" v="wetland" />
		<tag k="ssr:stedsnr" v="48569" />
	</node>
	<node lat="59.2657805530711" lon="8.002202771005045" id="-59873">
		<tag k="name" v="Rindeflæune" />
		<tag k="place" v="locality" />
		<tag k="ssr:stedsnr" v="49101" />
	</node>
	<node lat="59.13583055795739" lon="8.05060556157504" id="-59874">
		<tag k="name" v="Tveitskog" />
		<tag k="place" v="locality" />
		<tag k="ssr:stedsnr" v="49384" />
	</node>
	<node lat="59.09933394260277" lon="8.037744862043676" id="-59935">
		<tag k="historic" v="shieling" />
		<tag k="name" v="Nystøyl" />
		<tag k="old_name" v="Nystøl" />
		<tag k="place" v="locality" />
		<tag k="ssr:stedsnr" v="244453" />
	</node>
	<node lat="59.166288890329845" lon="8.011300004808266" id="-59977">
		<tag k="name" v="Fitjane" />
		<tag k="natural" v="wetland" />
		<tag k="ssr:stedsnr" v="96606" />
	</node>
	<node lat="59.074883334113935" lon="8.335233339594621" id="-59988">
		<tag k="name" v="Slåttemyra" />
		<tag k="natural" v="wetland" />
		<tag k="ssr:stedsnr" v="105005" />
	</node>
	<node lat="58.98603611305056" lon="8.267019449668156" id="-59990">
		<tag k="name" v="Migmaurmyra" />
		<tag k="natural" v="wetland" />
		<tag k="ssr:stedsnr" v="105080" />
	</node>
	<node lat="59.00709722175016" lon="8.332099998590984" id="-59993">
		<tag k="name" v="Ruggestein" />
		<tag k="natural" v="stone" />
		<tag k="ssr:stedsnr" v="107023" />
	</node>
	<node lat="59.18472778177842" lon="8.119236117790114" id="-60000">
		<tag k="name" v="Tobakshommen" />
		<tag k="place" v="locality" />
		<tag k="ssr:stedsnr" v="108470" />
	</node>
	<node lat="59.30553333215904" lon="8.158516663385651" id="-60006">
		<tag k="name" v="Ørvella" />
		<tag k="place" v="locality" />
		<tag k="ssr:stedsnr" v="109072" />
	</node>
	<node lat="59.13949166243487" lon="8.102174991941089" id="-60013">
		<tag k="name" v="Malmmyr" />
		<tag k="natural" v="wetland" />
		<tag k="ssr:stedsnr" v="109176" />
	</node>
	<node lat="58.99563333549144" lon="7.961272228016025" id="-60017">
		<tag k="name" v="Grauthommane" />
		<tag k="place" v="locality" />
		<tag k="ssr:stedsnr" v="109383" />
	</node>
	<node lat="59.16502222644766" lon="8.136802777941924" id="-60020">
		<tag k="name" v="Gampemyr" />
		<tag k="natural" v="wetland" />
		<tag k="ssr:stedsnr" v="109408" />
	</node>
	<node lat="59.233211110879544" lon="8.110586114132236" id="-60068">
		<tag k="name" v="Annbjønntjønnmyra" />
		<tag k="natural" v="wetland" />
		<tag k="ssr:stedsnr" v="155326" />
	</node>
	<node lat="58.980836110905756" lon="8.263108337028282" id="-60100">
		<tag k="name" v="Normannsmyra" />
		<tag k="natural" v="wetland" />
		<tag k="ssr:stedsnr" v="169058" />
	</node>
	<node lat="59.18216944876315" lon="8.110616671179548" id="-60111">
		<tag k="name" v="Luten" />
		<tag k="place" v="locality" />
		<tag k="ssr:stedsnr" v="169462" />
	</node>
	<node lat="59.31371944054152" lon="8.087647223137939" id="-60115">
		<tag k="name" v="Egdemyrane" />
		<tag k="natural" v="wetland" />
		<tag k="ssr:stedsnr" v="169711" />
	</node>
	<node lat="59.32522221996019" lon="8.193919447800655" id="-60128">
		<tag k="name" v="Skrivmyr" />
		<tag k="natural" v="wetland" />
		<tag k="ssr:stedsnr" v="170756" />
	</node>
	<node lat="59.150427775136755" lon="7.760683326894284" id="-60131">
		<tag k="name" v="Grødi" />
		<tag k="place" v="locality" />
		<tag k="ssr:stedsnr" v="170864" />
	</node>
	<node lat="59.318111110200796" lon="7.884966660816611" id="-60134">
		<tag k="name" v="Nordbøhomen" />
		<tag k="place" v="locality" />
		<tag k="ssr:stedsnr" v="171516" />
	</node>
	<node lat="59.14814476482161" lon="7.972312675208305" id="-60147">
		<tag k="historic" v="shieling" />
		<tag k="name" v="Glomstøyl" />
		<tag k="old_name" v="Glømstøl" />
		<tag k="place" v="locality" />
		<tag k="ssr:stedsnr" v="183361" />
	</node>
	<node lat="59.27835555616628" lon="7.761466664476513" id="-60185">
		<tag k="name" v="Ingebjørgsmyr" />
		<tag k="natural" v="wetland" />
		<tag k="ssr:stedsnr" v="217382" />
	</node>
	<node lat="58.976391668688585" lon="8.254116669453202" id="-60206">
		<tag k="name" v="Kartekjarr" />
		<tag k="place" v="locality" />
		<tag k="ssr:stedsnr" v="226109" />
	</node>
	<node lat="58.98868055114316" lon="8.25353054869788" id="-60207">
		<tag k="name" v="Kåvedalsmyra" />
		<tag k="natural" v="wetland" />
		<tag k="ssr:stedsnr" v="227097" />
	</node>
	<node lat="59.30735833395108" lon="8.118477771710605" id="-60209">
		<tag k="name" v="Brokkesteane" />
		<tag k="natural" v="wetland" />
		<tag k="ssr:stedsnr" v="229309" />
	</node>
	<node lat="59.30178611505598" lon="8.119083337800804" id="-60223">
		<tag k="name" v="Skarkmyr" />
		<tag k="natural" v="wetland" />
		<tag k="ssr:stedsnr" v="230089" />
	</node>
	<node lat="59.02484999609747" lon="8.261902774468604" id="-60236">
		<tag k="name" v="Jørundlandsura" />
		<tag k="natural" v="scree" />
		<tag k="ssr:stedsnr" v="230836" />
	</node>
	<node lat="59.0375750034588" lon="8.266611108509998" id="-60240">
		<tag k="name" v="Revura" />
		<tag k="natural" v="scree" />
		<tag k="ssr:stedsnr" v="230798" />
	</node>
	<node lat="59.182952779756164" lon="8.091402777889634" id="-60245">
		<tag k="name" v="Øyskogen" />
		<tag k="place" v="locality" />
		<tag k="ssr:stedsnr" v="230994" />
	</node>
	<node lat="59.10491944582327" lon="7.858847218060681" id="-60247">
		<tag k="name" v="Gangslåttene" />
		<tag k="natural" v="wetland" />
		<tag k="ssr:stedsnr" v="231178" />
	</node>
	<node lat="58.994297223362075" lon="8.036388885546735" id="-60249">
		<tag k="name" v="Nedre Hestehagane" />
		<tag k="place" v="locality" />
		<tag k="ssr:stedsnr" v="231497" />
	</node>
	<node lat="59.12997500208586" lon="7.983786110772648" id="-60271">
		<tag k="name" v="Brokko" />
		<tag k="place" v="locality" />
		<tag k="ssr:stedsnr" v="244427" />
	</node>
	<node lat="59.24918332913225" lon="8.142336104607837" id="-60300">
		<tag k="name" v="Kollhyttesteane" />
		<tag k="natural" v="wetland" />
		<tag k="ssr:stedsnr" v="458384" />
	</node>
	<node lat="59.213227777361745" lon="7.8455277797213565" id="-60322">
		<tag k="name" v="Haukreikartane" />
		<tag k="natural" v="wetland" />
		<tag k="ssr:stedsnr" v="459500" />
	</node>
	<node lat="59.220591667638196" lon="7.84836943902542" id="-60328">
		<tag k="name" v="Gonhildsskjot" />
		<tag k="natural" v="wetland" />
		<tag k="ssr:stedsnr" v="277530" />
	</node>
	<node lat="59.197311113898" lon="7.978041663047485" id="-60365">
		<tag k="name" v="Hestekvæven" />
		<tag k="natural" v="wetland" />
		<tag k="ssr:stedsnr" v="460587" />
	</node>
	<node lat="59.089016666916905" lon="8.229080558792353" id="-60381">
		<tag k="name" v="Hyttesteinen" />
		<tag k="natural" v="stone" />
		<tag k="ssr:stedsnr" v="289613" />
	</node>
	<node lat="59.30192222074349" lon="8.20203889321307" id="-60382">
		<tag k="name" v="Aslaksbu" />
		<tag k="natural" v="wetland" />
		<tag k="ssr:stedsnr" v="290295" />
	</node>
	<node lat="59.17497499876328" lon="8.118141667316571" id="-60383">
		<tag k="name" v="Kvennhusmyra" />
		<tag k="natural" v="wetland" />
		<tag k="ssr:stedsnr" v="290414" />
	</node>
	<node lat="59.13940555799042" lon="8.174430549718988" id="-60386">
		<tag k="name" v="Laupedalsmyra" />
		<tag k="natural" v="wetland" />
		<tag k="ssr:stedsnr" v="290303" />
	</node>
	<node lat="59.138697218916725" lon="8.124769444961037" id="-60389">
		<tag k="name" v="Kvennhuskåsa" />
		<tag k="place" v="locality" />
		<tag k="ssr:stedsnr" v="290679" />
	</node>
	<node lat="59.00321944627805" lon="8.200888885259715" id="-60391">
		<tag k="name" v="Kringlemyr" />
		<tag k="natural" v="wetland" />
		<tag k="ssr:stedsnr" v="291004" />
	</node>
	<node lat="59.263044448480414" lon="8.144163889925752" id="-60393">
		<tag k="name" v="Steane" />
		<tag k="natural" v="wetland" />
		<tag k="ssr:stedsnr" v="291090" />
	</node>
	<node lat="59.16738610747129" lon="8.103480556234702" id="-60398">
		<tag k="name" v="Geitnettkåsa øvre" />
		<tag k="place" v="locality" />
		<tag k="ssr:stedsnr" v="291625" />
	</node>
	<node lat="59.30521110907535" lon="8.176444447497014" id="-60466">
		<tag k="name" v="Goddokk" />
		<tag k="place" v="locality" />
		<tag k="ssr:stedsnr" v="471246" />
	</node>
	<node lat="59.146750003155134" lon="8.246897219142154" id="-60468">
		<tag k="name" v="Båsmyrane" />
		<tag k="natural" v="wetland" />
		<tag k="ssr:stedsnr" v="471605" />
	</node>
	<node lat="59.08355555912895" lon="8.257744436683447" id="-60469">
		<tag k="name" v="Den runde myra" />
		<tag k="natural" v="wetland" />
		<tag k="ssr:stedsnr" v="471535" />
	</node>
	<node lat="59.06043888672995" lon="8.267452771460349" id="-60471">
		<tag k="name" v="Nattarberge" />
		<tag k="place" v="locality" />
		<tag k="ssr:stedsnr" v="471556" />
	</node>
	<node lat="59.18899444700412" lon="8.138080552642904" id="-60475">
		<tag k="name" v="Dei høge myrane" />
		<tag k="natural" v="wetland" />
		<tag k="ssr:stedsnr" v="337145" />
	</node>
	<node lat="59.235663893232285" lon="8.252977769854034" id="-60489">
		<tag k="name" v="Matnappsteane" />
		<tag k="natural" v="wetland" />
		<tag k="ssr:stedsnr" v="339008" />
	</node>
	<node lat="59.165844448205966" lon="8.130188896477858" id="-60508">
		<tag k="name" v="Løkane" />
		<tag k="natural" v="wetland" />
		<tag k="ssr:stedsnr" v="472389" />
	</node>
	<node lat="59.0187777819132" lon="8.33385556145248" id="-60516">
		<tag k="name" v="Slipekrakkmyra" />
		<tag k="natural" v="wetland" />
		<tag k="ssr:stedsnr" v="472729" />
	</node>
	<node lat="59.06969166443337" lon="8.311705563880736" id="-60522">
		<tag k="name" v="Løyningberga" />
		<tag k="place" v="locality" />
		<tag k="ssr:stedsnr" v="472882" />
	</node>
	<node lat="59.06290277648487" lon="8.252647221715382" id="-60527">
		<tag k="name" v="Åsanberget" />
		<tag k="place" v="locality" />
		<tag k="ssr:stedsnr" v="472945" />
	</node>
	<node lat="59.32679444328194" lon="8.137874991755877" id="-60546">
		<tag k="name" v="Haugandukane" />
		<tag k="place" v="locality" />
		<tag k="ssr:stedsnr" v="473931" />
	</node>
	<node lat="59.02728610816363" lon="7.967008338931091" id="-60548">
		<tag k="name" v="Slomlimyrane" />
		<tag k="natural" v="wetland" />
		<tag k="ssr:stedsnr" v="474049" />
	</node>
	<node lat="59.06793055838501" lon="8.293908341738813" id="-60552">
		<tag k="name" v="Steslåtta" />
		<tag k="natural" v="wetland" />
		<tag k="ssr:stedsnr" v="350903" />
	</node>
	<node lat="59.00559444160175" lon="8.23809722497201" id="-60556">
		<tag k="name" v="Solomskåsa" />
		<tag k="place" v="locality" />
		<tag k="ssr:stedsnr" v="351157" />
	</node>
	<node lat="59.1618722178664" lon="8.08256667084353" id="-60574">
		<tag k="name" v="Galten" />
		<tag k="place" v="locality" />
		<tag k="ssr:stedsnr" v="351509" />
	</node>
	<node lat="59.313700002855796" lon="8.080308328648467" id="-60576">
		<tag k="name" v="Kårtekjerrslåtta" />
		<tag k="natural" v="wetland" />
		<tag k="ssr:stedsnr" v="351707" />
	</node>
	<node lat="59.286186106875185" lon="7.905491663784482" id="-60606">
		<tag k="name" v="Røta" />
		<tag k="natural" v="wetland" />
		<tag k="ssr:stedsnr" v="474521" />
	</node>
	<node lat="58.98247499875119" lon="8.25120832775637" id="-60694">
		<tag k="name" v="Den hole slåtta" />
		<tag k="place" v="locality" />
		<tag k="ssr:stedsnr" v="409106" />
	</node>
	<node lat="59.14021111523639" lon="8.21507778067102" id="-60702">
		<tag k="name" v="Myrbusteane" />
		<tag k="natural" v="wetland" />
		<tag k="ssr:stedsnr" v="487089" />
	</node>
	<node lat="59.00337500268695" lon="8.207430549178307" id="-60729">
		<tag k="name" v="Krossmyrane" />
		<tag k="natural" v="wetland" />
		<tag k="ssr:stedsnr" v="412007" />
	</node>
	<node lat="59.151177774305296" lon="8.085894442972812" id="-60742">
		<tag k="name" v="Sønstebø" />
		<tag k="place" v="locality" />
		<tag k="ssr:stedsnr" v="412548" />
	</node>
	<node lat="59.14956388608078" lon="8.10235277446842" id="-60748">
		<tag k="name" v="Tørne" />
		<tag k="natural" v="wetland" />
		<tag k="ssr:stedsnr" v="412392" />
	</node>
	<node lat="59.174497224497344" lon="8.099522218747648" id="-60754">
		<tag k="name" v="Rustine" />
		<tag k="place" v="locality" />
		<tag k="ssr:stedsnr" v="412849" />
	</node>
	<node lat="59.178288887370236" lon="8.101291659120017" id="-60758">
		<tag k="name" v="Kampenhaug" />
		<tag k="place" v="locality" />
		<tag k="ssr:stedsnr" v="412745" />
	</node>
	<node lat="59.05675555532173" lon="8.247894439065295" id="-60760">
		<tag k="name" v="Åsnesura" />
		<tag k="natural" v="scree" />
		<tag k="ssr:stedsnr" v="412945" />
	</node>
	<node lat="59.09536944064066" lon="8.042469452679475" id="-60768">
		<tag k="name" v="Festøylsteane" />
		<tag k="natural" v="wetland" />
		<tag k="ssr:stedsnr" v="413807" />
	</node>
	<node lat="59.25998333130692" lon="8.0254111141775" id="-60771">
		<tag k="name" v="Åslandsmyrane" />
		<tag k="natural" v="wetland" />
		<tag k="ssr:stedsnr" v="487890" />
	</node>
	<node lat="59.26776111496209" lon="8.064450007432823" id="-60772">
		<tag k="name" v="Tollebumyrane" />
		<tag k="natural" v="wetland" />
		<tag k="ssr:stedsnr" v="487929" />
	</node>
	<node lat="59.24745833695841" lon="8.22103611730924" id="-60836">
		<tag k="name" v="Presten" />
		<tag k="natural" v="stone" />
		<tag k="ssr:stedsnr" v="460007" />
	</node>
	<node lat="59.279252780728804" lon="7.821916660350923" id="-60837">
		<tag k="name" v="Vrongbekksteane" />
		<tag k="natural" v="wetland" />
		<tag k="ssr:stedsnr" v="460011" />
	</node>
	<node lat="59.24615555118227" lon="7.897769438544354" id="-60841">
		<tag k="name" v="Flaten" />
		<tag k="place" v="locality" />
		<tag k="ssr:stedsnr" v="460216" />
	</node>
	<node lat="58.97995278037389" lon="8.269058325616907" id="-60857">
		<tag k="name" v="Tjørehjeddmyra" />
		<tag k="natural" v="wetland" />
		<tag k="ssr:stedsnr" v="469084" />
	</node>
	<node lat="59.09571389093948" lon="8.245449999487787" id="-60858">
		<tag k="name" v="Treskomyra" />
		<tag k="natural" v="wetland" />
		<tag k="ssr:stedsnr" v="471518" />
	</node>
	<node lat="58.979550003915925" lon="8.253705556270036" id="-60861">
		<tag k="name" v="Namnfurerennune" />
		<tag k="place" v="locality" />
		<tag k="ssr:stedsnr" v="472064" />
	</node>
	<node lat="59.029636115214366" lon="8.247988897323959" id="-60876">
		<tag k="name" v="Lindborg" />
		<tag k="place" v="locality" />
		<tag k="ssr:stedsnr" v="472869" />
	</node>
	<node lat="59.05750832935886" lon="8.295680557215496" id="-60881">
		<tag k="name" v="Åbogskrone" />
		<tag k="place" v="locality" />
		<tag k="ssr:stedsnr" v="472913" />
	</node>
	<node lat="59.068758337545894" lon="7.974833337948567" id="-60885">
		<tag k="name" v="Svåefjell" />
		<tag k="place" v="locality" />
		<tag k="ssr:stedsnr" v="473119" />
	</node>
	<node lat="59.00589999893588" lon="8.229830559641009" id="-60918">
		<tag k="alt_name" v="Hesjedalsmyrane" />
		<tag k="name" v="Hesjedalsmyri" />
		<tag k="natural" v="wetland" />
		<tag k="ssr:stedsnr" v="487999" />
	</node>
	<node lat="59.30518611184806" lon="7.934866674882427" id="-60925">
		<tag k="name" v="Fitjane" />
		<tag k="natural" v="wetland" />
		<tag k="ssr:stedsnr" v="513404" />
	</node>
	<node lat="59.26944444494288" lon="7.745427778755198" id="-60942">
		<tag k="name" v="Sprenemyr" />
		<tag k="natural" v="wetland" />
		<tag k="ssr:stedsnr" v="520203" />
	</node>
	<node lat="58.99127777349159" lon="8.246858339670425" id="-60958">
		<tag k="name" v="Jøkulmyra" />
		<tag k="natural" v="wetland" />
		<tag k="ssr:stedsnr" v="530108" />
	</node>
	<node lat="58.990300002840335" lon="8.3004888941314" id="-60961">
		<tag k="name" v="Tjønnemyra" />
		<tag k="natural" v="wetland" />
		<tag k="ssr:stedsnr" v="530080" />
	</node>
	<node lat="59.15949444328803" lon="8.28002222154161" id="-60965">
		<tag k="name" v="Kråkemyr" />
		<tag k="natural" v="wetland" />
		<tag k="ssr:stedsnr" v="532805" />
	</node>
	<node lat="59.296408337161296" lon="8.063686114302687" id="-60966">
		<tag k="name" v="Espelimyri" />
		<tag k="natural" v="wetland" />
		<tag k="ssr:stedsnr" v="533306" />
	</node>
	<node lat="58.99998888698062" lon="8.305108330562181" id="-60968">
		<tag k="name" v="Fjellsendmyra" />
		<tag k="natural" v="wetland" />
		<tag k="ssr:stedsnr" v="533318" />
	</node>
	<node lat="59.34417777616508" lon="7.908413895832223" id="-60998">
		<tag k="name" v="Bendiksmyrane" />
		<tag k="natural" v="wetland" />
		<tag k="ssr:stedsnr" v="535380" />
	</node>
	<node lat="59.21439166918797" lon="8.121680549588142" id="-61052">
		<tag k="name" v="Følhøli" />
		<tag k="natural" v="wetland" />
		<tag k="ssr:stedsnr" v="579047" />
	</node>
	<node lat="59.088780554236386" lon="8.227111104004331" id="-61092">
		<tag k="name" v="Seten" />
		<tag k="place" v="locality" />
		<tag k="ssr:stedsnr" v="592601" />
	</node>
	<node lat="59.00098888499168" lon="8.23698888441221" id="-61096">
		<tag k="name" v="Hjasemyr" />
		<tag k="natural" v="wetland" />
		<tag k="ssr:stedsnr" v="594159" />
	</node>
	<node lat="59.25106944562335" lon="8.157849992278608" id="-61099">
		<tag k="name" v="Båtstadmyra" />
		<tag k="natural" v="wetland" />
		<tag k="ssr:stedsnr" v="594209" />
	</node>
	<node lat="59.31875277997068" lon="8.201683335836279" id="-61104">
		<tag k="name" v="Bjalkeslåttene" />
		<tag k="natural" v="wetland" />
		<tag k="ssr:stedsnr" v="594699" />
	</node>
	<node lat="58.98541944811911" lon="8.278744435791861" id="-61205">
		<tag k="name" v="Åsberga" />
		<tag k="place" v="locality" />
		<tag k="ssr:stedsnr" v="632046" />
	</node>
	<node lat="59.212391663291974" lon="7.966411118898726" id="-61227">
		<tag k="name" v="Leirrøta" />
		<tag k="place" v="locality" />
		<tag k="ssr:stedsnr" v="640878" />
	</node>
	<node lat="59.312863884627326" lon="8.106652773970016" id="-61259">
		<tag k="name" v="Dei store steinane" />
		<tag k="natural" v="stone" />
		<tag k="ssr:stedsnr" v="654335" />
	</node>
	<node lat="59.17804444715627" lon="8.224749991932697" id="-61270">
		<tag k="name" v="Mikkelskart" />
		<tag k="natural" v="wetland" />
		<tag k="ssr:stedsnr" v="654741" />
	</node>
	<node lat="59.14157499907643" lon="8.14198888048501" id="-61271">
		<tag k="name" v="Dei høge myrane" />
		<tag k="natural" v="wetland" />
		<tag k="ssr:stedsnr" v="654746" />
	</node>
	<node lat="59.07040833256217" lon="7.957675007791508" id="-61275">
		<tag k="name" v="Askautmyrane" />
		<tag k="natural" v="wetland" />
		<tag k="ssr:stedsnr" v="655104" />
	</node>
	<node lat="59.17492221971003" lon="8.096841673051015" id="-61280">
		<tag k="name" v="Hestehagen" />
		<tag k="place" v="locality" />
		<tag k="ssr:stedsnr" v="655832" />
	</node>
	<node lat="59.3138944488367" lon="7.890508333229657" id="-61285">
		<tag k="name" v="Borarot" />
		<tag k="place" v="locality" />
		<tag k="ssr:stedsnr" v="656221" />
	</node>
	<node lat="59.28524722056405" lon="7.988913883675926" id="-61287">
		<tag k="name" v="Ljosflatine" />
		<tag k="place" v="locality" />
		<tag k="ssr:stedsnr" v="656282" />
	</node>
	<node lat="59.33805727850161" lon="7.830524058624288" id="-61325">
		<tag k="historic" v="shieling" />
		<tag k="name" v="Listøyl" />
		<tag k="old_name" v="Listøl" />
		<tag k="place" v="locality" />
		<tag k="ssr:stedsnr" v="669980" />
	</node>
	<node lat="59.245397222786785" lon="7.984997225569113" id="-61356">
		<tag k="historic" v="shieling" />
		<tag k="name" v="Saupstøylkvæven" />
		<tag k="place" v="locality" />
		<tag k="ssr:stedsnr" v="702545" />
	</node>
	<node lat="59.13212500214479" lon="7.970383330306708" id="-61364">
		<tag k="name" v="Skaddemyrane" />
		<tag k="natural" v="wetland" />
		<tag k="ssr:stedsnr" v="703505" />
	</node>
	<node lat="59.1746944476958" lon="8.112758340428313" id="-61372">
		<tag k="name" v="Glomsmyr" />
		<tag k="natural" v="wetland" />
		<tag k="ssr:stedsnr" v="897429" />
	</node>
	<node lat="59.01428611085435" lon="8.310155548474862" id="-61376">
		<tag k="name" v="Åmshomberga" />
		<tag k="place" v="locality" />
		<tag k="ssr:stedsnr" v="897585" />
	</node>
	<node lat="59.11804999589539" lon="8.29576110762026" id="-61381">
		<tag k="name" v="Piltuslåttune" />
		<tag k="natural" v="wetland" />
		<tag k="ssr:stedsnr" v="897737" />
	</node>
	<node lat="59.049338885874086" lon="8.262005551863078" id="-61386">
		<tag k="name" v="Tjørejeddmyrane" />
		<tag k="natural" v="wetland" />
		<tag k="ssr:stedsnr" v="897981" />
	</node>
	<node lat="59.29559166414831" lon="8.118763883101675" id="-61388">
		<tag k="name" v="Hagebakk" />
		<tag k="place" v="locality" />
		<tag k="ssr:stedsnr" v="898078" />
	</node>
	<node lat="59.31247499920405" lon="8.220591668030782" id="-61397">
		<tag k="name" v="Skykkjemyr" />
		<tag k="natural" v="wetland" />
		<tag k="ssr:stedsnr" v="898382" />
	</node>
	<node lat="59.26399166555357" lon="8.060277777317514" id="-61417">
		<tag k="name" v="Torvmyra" />
		<tag k="natural" v="wetland" />
		<tag k="ssr:stedsnr" v="715278" />
	</node>
	<node lat="58.99938610824088" lon="8.278524999447129" id="-61422">
		<tag k="name" v="Fåmyr" />
		<tag k="natural" v="wetland" />
		<tag k="ssr:stedsnr" v="715387" />
	</node>
	<node lat="59.044161115499385" lon="8.113297217907611" id="-61432">
		<tag k="name" v="Bekkemellom" />
		<tag k="place" v="locality" />
		<tag k="ssr:stedsnr" v="715838" />
	</node>
	<node lat="59.31967777685439" lon="8.075633327345814" id="-61435">
		<tag k="name" v="Margit Ormsdotter-slåtta" />
		<tag k="place" v="locality" />
		<tag k="ssr:stedsnr" v="715921" />
	</node>
	<node lat="59.00051944114755" lon="8.064963896011562" id="-61442">
		<tag k="name" v="Fiskåmyra" />
		<tag k="natural" v="wetland" />
		<tag k="ssr:stedsnr" v="898933" />
	</node>
	<node lat="59.0361527799321" lon="7.952338896191024" id="-61446">
		<tag k="name" v="Trettemyr" />
		<tag k="natural" v="wetland" />
		<tag k="ssr:stedsnr" v="899042" />
	</node>
	<node lat="59.22003611055438" lon="8.09540554788353" id="-61504">
		<tag k="name" v="Storåker" />
		<tag k="place" v="locality" />
		<tag k="ssr:stedsnr" v="761598" />
	</node>
	<node lat="59.231899999892015" lon="8.115047230638382" id="-61508">
		<tag k="name" v="Mørketjønnrenna" />
		<tag k="natural" v="wetland" />
		<tag k="ssr:stedsnr" v="762311" />
	</node>
	<node lat="59.27678055182233" lon="7.749480561412203" id="-61522">
		<tag k="name" v="Talabekksteane" />
		<tag k="natural" v="wetland" />
		<tag k="ssr:stedsnr" v="763407" />
	</node>
	<node lat="59.17048888904789" lon="7.942761112221725" id="-61528">
		<tag k="name" v="Løkane" />
		<tag k="natural" v="wetland" />
		<tag k="ssr:stedsnr" v="763592" />
	</node>
	<node lat="59.0034861081873" lon="8.247783330696794" id="-61546">
		<tag k="name" v="Diplane" />
		<tag k="place" v="locality" />
		<tag k="ssr:stedsnr" v="776171" />
	</node>
	<node lat="59.182133333368526" lon="8.132533328494363" id="-61556">
		<tag k="name" v="Gampemyr" />
		<tag k="natural" v="wetland" />
		<tag k="ssr:stedsnr" v="776417" />
	</node>
	<node lat="59.1791888883482" lon="8.114925005956565" id="-61558">
		<tag k="name" v="Smørklepp" />
		<tag k="place" v="locality" />
		<tag k="ssr:stedsnr" v="776463" />
	</node>
	<node lat="58.975949999339285" lon="8.006113888510752" id="-61568">
		<tag k="name" v="Øvre Steane" />
		<tag k="natural" v="wetland" />
		<tag k="ssr:stedsnr" v="777264" />
	</node>
	<node lat="59.2831333365067" lon="7.852763888049913" id="-61570">
		<tag k="name" v="Åsanlandet" />
		<tag k="place" v="locality" />
		<tag k="ssr:stedsnr" v="777462" />
	</node>
	<node lat="59.16918610857992" lon="8.085455556724757" id="-61573">
		<tag k="name" v="Vadlistykket" />
		<tag k="place" v="locality" />
		<tag k="ssr:stedsnr" v="777705" />
	</node>
	<node lat="59.10329453778956" lon="8.220452480245559" id="-61598">
		<tag k="historic" v="shieling" />
		<tag k="name" v="Brautestøl" />
		<tag k="place" v="locality" />
		<tag k="ssr:stedsnr" v="790147" />
	</node>
	<node lat="59.04693611114203" lon="8.099000000020775" id="-61600">
		<tag k="alt_name" v="Stoppestadmyra" />
		<tag k="name" v="Stoppelstadmyri" />
		<tag k="natural" v="wetland" />
		<tag k="ssr:stedsnr" v="790165" />
	</node>
	<node lat="59.301691662208206" lon="8.145286110542083" id="-61629">
		<tag k="name" v="Leksmyrane" />
		<tag k="natural" v="wetland" />
		<tag k="ssr:stedsnr" v="912157" />
	</node>
	<node lat="59.24959166892104" lon="8.150272218162227" id="-61659">
		<tag k="name" v="Dikemyrane" />
		<tag k="natural" v="wetland" />
		<tag k="ssr:stedsnr" v="823276" />
	</node>
	<node lat="59.21778610862906" lon="8.09684444598375" id="-61666">
		<tag k="name" v="Brokke søndre" />
		<tag k="place" v="locality" />
		<tag k="ssr:stedsnr" v="823507" />
	</node>
	<node lat="59.23851666493648" lon="7.919483331894526" id="-61670">
		<tag k="name" v="Rakkeskrea" />
		<tag k="place" v="locality" />
		<tag k="ssr:stedsnr" v="824334" />
	</node>
	<node lat="59.15489444699903" lon="8.122580548880963" id="-61698">
		<tag k="name" v="Våkåsmyrane" />
		<tag k="natural" v="wetland" />
		<tag k="ssr:stedsnr" v="837275" />
	</node>
	<node lat="59.1353583334262" lon="8.117511117741833" id="-61707">
		<tag k="name" v="Båsbrokk" />
		<tag k="place" v="locality" />
		<tag k="ssr:stedsnr" v="837713" />
	</node>
	<node lat="59.13546944761664" lon="8.150016667269426" id="-61711">
		<tag k="name" v="Stålisteinen" />
		<tag k="natural" v="stone" />
		<tag k="ssr:stedsnr" v="837628" />
	</node>
	<node lat="59.013852774314586" lon="7.918975004736957" id="-61715">
		<tag k="name" v="Rekdalshølune" />
		<tag k="place" v="locality" />
		<tag k="ssr:stedsnr" v="838227" />
	</node>
	<node lat="58.96469444072373" lon="8.009436107241005" id="-61750">
		<tag k="alt_name" v="Kløvsteinen" />
		<tag k="name" v="Klovsteinen" />
		<tag k="natural" v="stone" />
		<tag k="ssr:stedsnr" v="851628" />
	</node>
	<node lat="59.247294447519074" lon="8.110172222880427" id="-61781">
		<tag k="name" v="Surtemyr" />
		<tag k="natural" v="wetland" />
		<tag k="ssr:stedsnr" v="883759" />
	</node>
	<node lat="58.981472218884946" lon="8.262236105130285" id="-61806">
		<tag k="name" v="Bjørkholtslåtta" />
		<tag k="place" v="locality" />
		<tag k="ssr:stedsnr" v="897064" />
	</node>
	<node lat="58.99967222192981" lon="8.315027784455632" id="-61808">
		<tag k="name" v="Halsteinsfossmyra" />
		<tag k="natural" v="wetland" />
		<tag k="ssr:stedsnr" v="897311" />
	</node>
	<node lat="59.13825278176817" lon="8.194997230382304" id="-61809">
		<tag k="name" v="Bruksmannsmyra" />
		<tag k="natural" v="wetland" />
		<tag k="ssr:stedsnr" v="897312" />
	</node>
	<node lat="59.05862777359318" lon="8.17148055829107" id="-61810">
		<tag k="name" v="Langemyr" />
		<tag k="natural" v="wetland" />
		<tag k="ssr:stedsnr" v="897324" />
	</node>
	<node lat="59.01956389090602" lon="8.3512111034336" id="-61812">
		<tag k="name" v="Laurdagsslåtta" />
		<tag k="natural" v="wetland" />
		<tag k="ssr:stedsnr" v="897707" />
	</node>
	<node lat="58.99898333350983" lon="8.290600005814534" id="-61819">
		<tag k="name" v="Rønningen" />
		<tag k="place" v="locality" />
		<tag k="ssr:stedsnr" v="898361" />
	</node>
	<node lat="59.274677773848836" lon="8.061561105439502" id="-61827">
		<tag k="name" v="Dukane" />
		<tag k="place" v="locality" />
		<tag k="ssr:stedsnr" v="898963" />
	</node>
	<node lat="59.052249999744014" lon="7.997772217603018" id="-61836">
		<tag k="name" v="Håbakksteane" />
		<tag k="natural" v="wetland" />
		<tag k="ssr:stedsnr" v="899903" />
	</node>
	<node lat="59.154525000262396" lon="8.148674991624478" id="-61851">
		<tag k="alt_name" v="Vefsåssteen" />
		<tag k="name" v="Vepsåssteane" />
		<tag k="natural" v="wetland" />
		<tag k="ssr:stedsnr" v="912112" />
	</node>
	<node lat="59.24910555397087" lon="8.218433328494976" id="-61884">
		<tag k="name" v="Tronsonlyfti" />
		<tag k="natural" v="stone" />
		<tag k="ssr:stedsnr" v="946004" />
	</node>
	<node lat="58.98542777469329" lon="8.280047223268701" id="-61896">
		<tag k="name" v="Ljågrasmyra" />
		<tag k="natural" v="wetland" />
		<tag k="ssr:stedsnr" v="955044" />
	</node>
	<node lat="59.302580554188864" lon="7.918758336021857" id="-61898">
		<tag k="name" v="Skarmyr" />
		<tag k="natural" v="wetland" />
		<tag k="ssr:stedsnr" v="956018" />
	</node>
	<node lat="59.00424166699208" lon="8.165072220532183" id="-61907">
		<tag k="name" v="Nusslihommane" />
		<tag k="place" v="locality" />
		<tag k="ssr:stedsnr" v="958017" />
	</node>
	<node lat="59.28311388445773" lon="8.20147499443958" id="-61926">
		<tag k="name" v="Skavelen" />
		<tag k="place" v="locality" />
		<tag k="ssr:stedsnr" v="959199" />
	</node>
	<node lat="59.29988611368232" lon="8.135052775955568" id="-61927">
		<tag k="name" v="Veahogsten" />
		<tag k="place" v="locality" />
		<tag k="ssr:stedsnr" v="959086" />
	</node>
	<node lat="59.31403610775969" lon="7.969083328985207" id="-61934">
		<tag k="landuse" v="quarry" />
		<tag k="name" v="Mosnap kopargruvor" />
		<tag k="ssr:stedsnr" v="960691" />
	</node>
	<node lat="59.00480833321342" lon="8.332538887431525" id="-61950">
		<tag k="name" v="Den lange myra" />
		<tag k="natural" v="wetland" />
		<tag k="ssr:stedsnr" v="229028" />
	</node>
	<node lat="59.24295832886557" lon="8.113974991931329" id="-62004">
		<tag k="name" v="Baklimyrane" />
		<tag k="natural" v="wetland" />
		<tag k="ssr:stedsnr" v="33370" />
	</node>
	<node lat="59.24938889212534" lon="8.014658340561532" id="-62010">
		<tag k="name" v="Holerkåsa" />
		<tag k="place" v="locality" />
		<tag k="ssr:stedsnr" v="34265" />
	</node>
	<node lat="59.20395555605869" lon="7.76957222503689" id="-62021">
		<tag k="name" v="Løyning" />
		<tag k="natural" v="wetland" />
		<tag k="ssr:stedsnr" v="35333" />
	</node>
	<node lat="59.02960277991418" lon="8.205011118710232" id="-62037">
		<tag k="name" v="Gunnulfsslåtta" />
		<tag k="natural" v="wetland" />
		<tag k="ssr:stedsnr" v="45133" />
	</node>
	<node lat="58.975697223339345" lon="8.280077783536155" id="-62038">
		<tag k="name" v="Rustedalsmyra" />
		<tag k="natural" v="wetland" />
		<tag k="ssr:stedsnr" v="44032" />
	</node>
	<node lat="59.18396944119381" lon="8.117161103666579" id="-62048">
		<tag k="name" v="Vårfjosmyr" />
		<tag k="natural" v="wetland" />
		<tag k="ssr:stedsnr" v="47453" />
	</node>
	<node lat="59.18271666616655" lon="8.11468611170578" id="-62049">
		<tag k="name" v="Kjellmyr" />
		<tag k="natural" v="wetland" />
		<tag k="ssr:stedsnr" v="47454" />
	</node>
	<node lat="59.13931944712102" lon="8.118561108685036" id="-62056">
		<tag k="name" v="Tomyr" />
		<tag k="natural" v="wetland" />
		<tag k="ssr:stedsnr" v="47750" />
	</node>
	<node lat="59.15965555955285" lon="8.17285278019928" id="-62062">
		<tag k="name" v="Ospemyr" />
		<tag k="natural" v="wetland" />
		<tag k="ssr:stedsnr" v="48377" />
	</node>
	<node lat="59.011802779351775" lon="8.213461111092277" id="-62069">
		<tag k="name" v="Skjeggerudslåttune" />
		<tag k="natural" v="wetland" />
		<tag k="ssr:stedsnr" v="48049" />
	</node>
	<node lat="59.31436944111001" lon="7.871572218820641" id="-62127">
		<tag k="landuse" v="quarry" />
		<tag k="name" v="Grusen" />
		<tag k="ssr:stedsnr" v="49861" />
	</node>
	<node lat="59.023044448122896" lon="7.973849991397494" id="-62134">
		<tag k="name" v="Rjupetosteane" />
		<tag k="natural" v="wetland" />
		<tag k="ssr:stedsnr" v="50429" />
	</node>
	<node lat="59.260916664056346" lon="8.35720000552579" id="-62137">
		<tag k="name" v="Øksesteinen" />
		<tag k="natural" v="stone" />
		<tag k="ssr:stedsnr" v="63199" />
	</node>
	<node lat="59.33091944175602" lon="8.090755558897733" id="-62189">
		<tag k="alt_name" v="Skredesvåune" />
		<tag k="name" v="Skredesvodine" />
		<tag k="place" v="locality" />
		<tag k="ssr:stedsnr" v="88287" />
	</node>
	<node lat="59.248541665381374" lon="7.9418472288667274" id="-62204">
		<tag k="name" v="Nipirslåtta" />
		<tag k="natural" v="wetland" />
		<tag k="ssr:stedsnr" v="95499" />
	</node>
	<node lat="59.2346527792805" lon="7.751672230344439" id="-62208">
		<tag k="name" v="Gonnbjønn" />
		<tag k="natural" v="stone" />
		<tag k="ssr:stedsnr" v="96114" />
	</node>
	<node lat="59.18891666955036" lon="7.955363890336553" id="-62220">
		<tag k="name" v="Såtesteinen" />
		<tag k="natural" v="stone" />
		<tag k="ssr:stedsnr" v="96691" />
	</node>
	<node lat="59.16110555970884" lon="7.778649991536164" id="-62228">
		<tag k="name" v="Skortjønnflæa" />
		<tag k="place" v="locality" />
		<tag k="ssr:stedsnr" v="97943" />
	</node>
	<node lat="59.25031666638882" lon="7.9087527730131395" id="-62230">
		<tag k="name" v="Bringa" />
		<tag k="place" v="locality" />
		<tag k="ssr:stedsnr" v="98589" />
	</node>
	<node lat="59.087483330471535" lon="8.230919451780357" id="-62236">
		<tag k="name" v="Puffen" />
		<tag k="place" v="locality" />
		<tag k="ssr:stedsnr" v="107584" />
	</node>
	<node lat="58.97681944443359" lon="8.047641665640846" id="-62248">
		<tag k="name" v="Tovdalsmyrane" />
		<tag k="natural" v="wetland" />
		<tag k="ssr:stedsnr" v="109190" />
	</node>
	<node lat="59.10158333244395" lon="8.18909722318883" id="-62249">
		<tag k="name" v="Svåune" />
		<tag k="place" v="locality" />
		<tag k="ssr:stedsnr" v="109331" />
	</node>
	<node lat="59.15101389045724" lon="8.083922226438755" id="-62254">
		<tag k="name" v="Søli" />
		<tag k="place" v="locality" />
		<tag k="ssr:stedsnr" v="109367" />
	</node>
	<node lat="59.06419999781606" lon="8.301188882290749" id="-62259">
		<tag k="name" v="Himmelstøylsteane" />
		<tag k="natural" v="wetland" />
		<tag k="ssr:stedsnr" v="108929" />
	</node>
	<node lat="59.268605555670966" lon="8.056427773133334" id="-62267">
		<tag k="name" v="Kvitmoækra" />
		<tag k="place" v="locality" />
		<tag k="ssr:stedsnr" v="109259" />
	</node>
	<node lat="59.16448333134564" lon="8.090077773141536" id="-62279">
		<tag k="name" v="Svartemyr" />
		<tag k="natural" v="wetland" />
		<tag k="ssr:stedsnr" v="109679" />
	</node>
	<node lat="59.04581666673015" lon="8.290711111333891" id="-62283">
		<tag k="name" v="Slåttemyra" />
		<tag k="natural" v="wetland" />
		<tag k="ssr:stedsnr" v="109857" />
	</node>
	<node lat="59.10370555512573" lon="7.911463896421039" id="-62303">
		<tag k="name" v="Kvildehommane" />
		<tag k="place" v="locality" />
		<tag k="ssr:stedsnr" v="110501" />
	</node>
	<node lat="59.210522225963906" lon="8.116563881852201" id="-62368">
		<tag k="name" v="Eggmyr" />
		<tag k="natural" v="wetland" />
		<tag k="ssr:stedsnr" v="155044" />
	</node>
	<node lat="59.28513332942798" lon="7.77643055625192" id="-62378">
		<tag k="name" v="Gonsteinsdipplane" />
		<tag k="natural" v="wetland" />
		<tag k="ssr:stedsnr" v="156170" />
	</node>
	<node lat="59.24421110742318" lon="7.900794436097371" id="-62380">
		<tag k="name" v="Dukane" />
		<tag k="place" v="locality" />
		<tag k="ssr:stedsnr" v="156191" />
	</node>
	<node lat="59.23633333104438" lon="8.029113896376812" id="-62382">
		<tag k="name" v="Leiti" />
		<tag k="place" v="locality" />
		<tag k="ssr:stedsnr" v="156196" />
	</node>
	<node lat="59.18635000314956" lon="7.795816660328535" id="-62401">
		<tag k="name" v="Dukane" />
		<tag k="place" v="locality" />
		<tag k="ssr:stedsnr" v="157273" />
	</node>
	<node lat="58.959530556495594" lon="8.26057778018868" id="-62420">
		<tag k="name" v="Steinvasstone" />
		<tag k="place" v="locality" />
		<tag k="ssr:stedsnr" v="169034" />
	</node>
	<node lat="58.95879444168873" lon="8.23696388658093" id="-62421">
		<tag k="name" v="Steinvassringen" />
		<tag k="place" v="locality" />
		<tag k="ssr:stedsnr" v="169039" />
	</node>
	<node lat="59.0024944433096" lon="8.303572223345764" id="-62425">
		<tag k="name" v="Hasledokka" />
		<tag k="place" v="locality" />
		<tag k="ssr:stedsnr" v="169261" />
	</node>
	<node lat="59.00343610886183" lon="8.319316660038503" id="-62426">
		<tag k="name" v="Røyhola" />
		<tag k="place" v="locality" />
		<tag k="ssr:stedsnr" v="169266" />
	</node>
	<node lat="59.270502775172055" lon="8.064247223963573" id="-62427">
		<tag k="name" v="Sykjemyrane" />
		<tag k="natural" v="wetland" />
		<tag k="ssr:stedsnr" v="169364" />
	</node>
	<node lat="59.14648333247757" lon="8.093430556833736" id="-62437">
		<tag k="name" v="Haverdalsmyra" />
		<tag k="natural" v="wetland" />
		<tag k="ssr:stedsnr" v="169429" />
	</node>
	<node lat="59.29670555668206" lon="8.142413891511326" id="-62455">
		<tag k="name" v="Brennåsen" />
		<tag k="place" v="locality" />
		<tag k="ssr:stedsnr" v="170094" />
	</node>
	<node lat="59.15134166954039" lon="7.754547225798814" id="-62465">
		<tag k="name" v="Varmedalslandet" />
		<tag k="place" v="locality" />
		<tag k="ssr:stedsnr" v="170832" />
	</node>
	<node lat="58.993269440911995" lon="8.360888884620516" id="-62485">
		<tag k="name" v="Storlimyra" />
		<tag k="natural" v="wetland" />
		<tag k="ssr:stedsnr" v="183853" />
	</node>
	<node lat="59.2877222179511" lon="7.762419440960146" id="-62527">
		<tag k="name" v="Kvennhusmyrane" />
		<tag k="natural" v="wetland" />
		<tag k="ssr:stedsnr" v="217419" />
	</node>
	<node lat="59.210958330662834" lon="7.953297218616703" id="-62537">
		<tag k="name" v="Stigen" />
		<tag k="place" v="locality" />
		<tag k="ssr:stedsnr" v="216551" />
	</node>
	<node lat="59.245461108718914" lon="7.921069442578613" id="-62539">
		<tag k="name" v="Bekkjemillom" />
		<tag k="place" v="locality" />
		<tag k="ssr:stedsnr" v="217089" />
	</node>
	<node lat="59.17017222343646" lon="7.822219451864528" id="-62555">
		<tag k="name" v="Klomre" />
		<tag k="natural" v="scree" />
		<tag k="ssr:stedsnr" v="218244" />
	</node>
	<node lat="59.21700000226388" lon="7.983913886670612" id="-62581">
		<tag k="name" v="Vårkro" />
		<tag k="place" v="locality" />
		<tag k="ssr:stedsnr" v="276664" />
	</node>
	<node lat="59.22825000121032" lon="8.008250005685676" id="-62591">
		<tag k="name" v="Ånismyr" />
		<tag k="natural" v="wetland" />
		<tag k="ssr:stedsnr" v="276951" />
	</node>
	<node lat="59.13103333258832" lon="8.010377777932499" id="-62597">
		<tag k="name" v="Svårtskremyra" />
		<tag k="natural" v="wetland" />
		<tag k="ssr:stedsnr" v="277357" />
	</node>
	<node lat="59.161069447132554" lon="7.988683328544238" id="-62599">
		<tag k="name" v="Stavstong" />
		<tag k="natural" v="wetland" />
		<tag k="ssr:stedsnr" v="277360" />
	</node>
	<node lat="59.23903333508198" lon="7.960019439326615" id="-62602">
		<tag k="name" v="Lykkejordet" />
		<tag k="place" v="locality" />
		<tag k="ssr:stedsnr" v="277568" />
	</node>
	<node lat="59.08228055840447" lon="8.233194438825967" id="-62632">
		<tag k="name" v="Røtebakkane" />
		<tag k="place" v="locality" />
		<tag k="ssr:stedsnr" v="289600" />
	</node>
	<node lat="58.95516388510049" lon="8.302366671516062" id="-62635">
		<tag k="name" v="Hesthommen" />
		<tag k="place" v="locality" />
		<tag k="ssr:stedsnr" v="290055" />
	</node>
	<node lat="58.991233335571074" lon="8.311077777507146" id="-62636">
		<tag k="name" v="Ångåsmyrane" />
		<tag k="natural" v="wetland" />
		<tag k="ssr:stedsnr" v="290057" />
	</node>
	<node lat="59.00504999659419" lon="8.176794453204398" id="-62638">
		<tag k="name" v="Hagemyr" />
		<tag k="natural" v="wetland" />
		<tag k="ssr:stedsnr" v="291022" />
	</node>
	<node lat="59.3059777819322" lon="8.166677784817528" id="-62642">
		<tag k="name" v="Berstøylmyrane" />
		<tag k="natural" v="wetland" />
		<tag k="ssr:stedsnr" v="290260" />
	</node>
	<node lat="59.13419444127394" lon="8.16045277182306" id="-62645">
		<tag k="name" v="Lauvbumyr" />
		<tag k="natural" v="wetland" />
		<tag k="ssr:stedsnr" v="290537" />
	</node>
	<node lat="59.13296944661888" lon="8.138452776370066" id="-62646">
		<tag k="name" v="Skitmyr" />
		<tag k="natural" v="wetland" />
		<tag k="ssr:stedsnr" v="290539" />
	</node>
	<node lat="59.17816666753497" lon="8.098841666882688" id="-62653">
		<tag k="name" v="Bratsberg" />
		<tag k="place" v="locality" />
		<tag k="ssr:stedsnr" v="290751" />
	</node>
	<node lat="59.29049166834828" lon="8.234966666617495" id="-62656">
		<tag k="name" v="Valvassberge" />
		<tag k="place" v="locality" />
		<tag k="ssr:stedsnr" v="291064" />
	</node>
	<node lat="59.259108331559496" lon="8.205813895155348" id="-62657">
		<tag k="name" v="Rullanslåttane" />
		<tag k="natural" v="wetland" />
		<tag k="ssr:stedsnr" v="291164" />
	</node>
	<node lat="59.005761110880954" lon="8.27008332818014" id="-62658">
		<tag k="name" v="Glomsura" />
		<tag k="natural" v="scree" />
		<tag k="ssr:stedsnr" v="291222" />
	</node>
	<node lat="59.16012499781602" lon="8.095288891803953" id="-62663">
		<tag k="name" v="Kaldvætune" />
		<tag k="natural" v="wetland" />
		<tag k="ssr:stedsnr" v="291562" />
	</node>
	<node lat="59.15178888535662" lon="8.102036116535002" id="-62667">
		<tag k="name" v="Brannflata" />
		<tag k="place" v="locality" />
		<tag k="ssr:stedsnr" v="291593" />
	</node>
	<node lat="59.16184444172362" lon="8.114258339891062" id="-62669">
		<tag k="name" v="Grønommyra" />
		<tag k="natural" v="wetland" />
		<tag k="ssr:stedsnr" v="291572" />
	</node>
	<node lat="59.191416666192225" lon="8.087358338172484" id="-62741">
		<tag k="name" v="Moen" />
		<tag k="place" v="locality" />
		<tag k="ssr:stedsnr" v="337820" />
	</node>
	<node lat="59.24856111421176" lon="7.8834527722019505" id="-62757">
		<tag k="name" v="Liurdine" />
		<tag k="natural" v="scree" />
		<tag k="ssr:stedsnr" v="338167" />
	</node>
	<node lat="59.04769722068326" lon="8.327938885942682" id="-62788">
		<tag k="name" v="Den runde myra" />
		<tag k="natural" v="wetland" />
		<tag k="ssr:stedsnr" v="350548" />
	</node>
	<node lat="59.16921944798599" lon="8.224633339380667" id="-62796">
		<tag k="name" v="Knarrestad" />
		<tag k="place" v="locality" />
		<tag k="ssr:stedsnr" v="351636" />
	</node>
	<node lat="59.30044444294705" lon="8.069666660786659" id="-62797">
		<tag k="name" v="Hestevassmyri" />
		<tag k="natural" v="wetland" />
		<tag k="ssr:stedsnr" v="351295" />
	</node>
	<node lat="59.132216664276896" lon="8.12156945203067" id="-62805">
		<tag k="name" v="Måla" />
		<tag k="place" v="locality" />
		<tag k="ssr:stedsnr" v="351697" />
	</node>
	<node lat="59.32401666742094" lon="8.055816670407236" id="-62812">
		<tag k="name" v="Storrfjøddkjerri" />
		<tag k="natural" v="wetland" />
		<tag k="ssr:stedsnr" v="351946" />
	</node>
	<node lat="59.01050833086555" lon="8.032444447046151" id="-62815">
		<tag k="name" v="Nordåkrane" />
		<tag k="place" v="locality" />
		<tag k="ssr:stedsnr" v="352125" />
	</node>
	<node lat="59.06361944306703" lon="8.32106111874173" id="-62816">
		<tag k="name" v="Sjeggerudslått" />
		<tag k="place" v="locality" />
		<tag k="ssr:stedsnr" v="351883" />
	</node>
	<node lat="58.97713333720375" lon="8.08246666384962" id="-62820">
		<tag k="name" v="Svåfjell" />
		<tag k="place" v="locality" />
		<tag k="ssr:stedsnr" v="352082" />
	</node>
	<node lat="59.26434999997097" lon="7.991822224845248" id="-62825">
		<tag k="name" v="Flæune" />
		<tag k="place" v="locality" />
		<tag k="ssr:stedsnr" v="352398" />
	</node>
	<node lat="59.16687500422409" lon="8.099322217337484" id="-62832">
		<tag k="name" v="Geitnettkåsa nedre" />
		<tag k="place" v="locality" />
		<tag k="ssr:stedsnr" v="352609" />
	</node>
	<node lat="59.1829638862712" lon="8.101111104699854" id="-62835">
		<tag k="name" v="Kasine" />
		<tag k="place" v="locality" />
		<tag k="ssr:stedsnr" v="352987" />
	</node>
	<node lat="59.31903888813234" lon="7.918777784000722" id="-62885">
		<tag k="name" v="Kyrkjemyrane" />
		<tag k="natural" v="wetland" />
		<tag k="ssr:stedsnr" v="391373" />
	</node>
	<node lat="59.21338333274523" lon="8.116052784817029" id="-62891">
		<tag k="name" v="Saubrumyrane" />
		<tag k="natural" v="wetland" />
		<tag k="ssr:stedsnr" v="397049" />
	</node>
	<node lat="59.19700277735947" lon="8.143972223942345" id="-62894">
		<tag k="name" v="Stoppelstadmyrane" />
		<tag k="natural" v="wetland" />
		<tag k="ssr:stedsnr" v="397174" />
	</node>
	<node lat="59.19266944150075" lon="8.09291110849964" id="-62902">
		<tag k="name" v="Stokkmyrane" />
		<tag k="place" v="locality" />
		<tag k="ssr:stedsnr" v="397837" />
	</node>
	<node lat="59.28438055468802" lon="7.782936104920842" id="-62912">
		<tag k="name" v="Åsimyrane" />
		<tag k="natural" v="wetland" />
		<tag k="ssr:stedsnr" v="399229" />
	</node>
	<node lat="58.980786114214226" lon="8.301711110065302" id="-62932">
		<tag k="name" v="Guttormsmyr" />
		<tag k="natural" v="wetland" />
		<tag k="ssr:stedsnr" v="408068" />
	</node>
	<node lat="59.075072225940616" lon="8.251011108152095" id="-62941">
		<tag k="name" v="Astriberg" />
		<tag k="place" v="locality" />
		<tag k="ssr:stedsnr" v="411519" />
	</node>
	<node lat="59.07842778152066" lon="8.24777222943817" id="-62944">
		<tag k="name" v="Trondhjem" />
		<tag k="place" v="locality" />
		<tag k="ssr:stedsnr" v="411527" />
	</node>
	<node lat="59.250805559228716" lon="8.05001111831582" id="-62957">
		<tag k="name" v="Hastjønnmyrane" />
		<tag k="natural" v="wetland" />
		<tag k="ssr:stedsnr" v="412435" />
	</node>
	<node lat="59.159136107577964" lon="8.111694448143238" id="-62958">
		<tag k="name" v="Dei høge myrane" />
		<tag k="natural" v="wetland" />
		<tag k="ssr:stedsnr" v="412522" />
	</node>
	<node lat="59.17515555230394" lon="8.10943056208732" id="-62962">
		<tag k="name" v="Langemyr" />
		<tag k="natural" v="wetland" />
		<tag k="ssr:stedsnr" v="412245" />
	</node>
	<node lat="59.30213333546256" lon="8.145797218202134" id="-62963">
		<tag k="name" v="Ørvellmyrane" />
		<tag k="natural" v="wetland" />
		<tag k="ssr:stedsnr" v="412073" />
	</node>
	<node lat="59.26759722494786" lon="8.125247217142572" id="-62964">
		<tag k="name" v="Langmyr" />
		<tag k="natural" v="wetland" />
		<tag k="ssr:stedsnr" v="412085" />
	</node>
	<node lat="59.30741666909072" lon="8.08059167200558" id="-62977">
		<tag k="name" v="Stemmebergi" />
		<tag k="place" v="locality" />
		<tag k="ssr:stedsnr" v="412695" />
	</node>
	<node lat="59.07948332919357" lon="8.112177779708679" id="-62978">
		<tag k="name" v="Nasefjellsteane" />
		<tag k="natural" v="wetland" />
		<tag k="ssr:stedsnr" v="412712" />
	</node>
	<node lat="59.24539999878065" lon="8.17127777207661" id="-62982">
		<tag k="name" v="Stormyr" />
		<tag k="natural" v="wetland" />
		<tag k="ssr:stedsnr" v="412896" />
	</node>
	<node lat="59.27440555466745" lon="7.96958888783485" id="-62988">
		<tag k="name" v="Paddane" />
		<tag k="place" v="locality" />
		<tag k="ssr:stedsnr" v="413328" />
	</node>
	<node lat="58.99765277687899" lon="8.02360000474584" id="-62990">
		<tag k="name" v="Øvre Hestehagen" />
		<tag k="place" v="locality" />
		<tag k="ssr:stedsnr" v="413411" />
	</node>
	<node lat="59.19379722390891" lon="8.120616665941073" id="-63084">
		<tag k="name" v="Torvmyrane" />
		<tag k="natural" v="wetland" />
		<tag k="ssr:stedsnr" v="519234" />
	</node>
	<node lat="59.24810833612003" lon="8.12592223065551" id="-63086">
		<tag k="name" v="Osemyr" />
		<tag k="natural" v="wetland" />
		<tag k="ssr:stedsnr" v="519344" />
	</node>
	<node lat="59.22524999807241" lon="8.011086103382704" id="-63096">
		<tag k="name" v="Høgdalsmyr" />
		<tag k="natural" v="wetland" />
		<tag k="ssr:stedsnr" v="519929" />
	</node>
	<node lat="59.19943889022859" lon="7.8120388845987785" id="-63109">
		<tag k="name" v="Beilangmyrane" />
		<tag k="natural" v="wetland" />
		<tag k="ssr:stedsnr" v="521280" />
	</node>
	<node lat="59.22922500086427" lon="7.978269441392369" id="-63111">
		<tag k="name" v="Kyrsvelt" />
		<tag k="place" v="locality" />
		<tag k="ssr:stedsnr" v="520558" />
	</node>
	<node lat="59.24105277524564" lon="7.7990555583932055" id="-63126">
		<tag k="name" v="Tverrheia" />
		<tag k="place" v="locality" />
		<tag k="ssr:stedsnr" v="521730" />
	</node>
	<node lat="59.06922499827123" lon="8.34775833946437" id="-63133">
		<tag k="name" v="Langemyr" />
		<tag k="natural" v="wetland" />
		<tag k="ssr:stedsnr" v="530063" />
	</node>
	<node lat="59.05956111331338" lon="8.268694441856882" id="-63135">
		<tag k="name" v="Støylsdokkje" />
		<tag k="place" v="locality" />
		<tag k="ssr:stedsnr" v="532530" />
	</node>
	<node lat="59.026280551452196" lon="8.361477773162477" id="-63143">
		<tag k="name" v="Fanteheii" />
		<tag k="place" v="locality" />
		<tag k="ssr:stedsnr" v="532753" />
	</node>
	<node lat="59.26191944351827" lon="8.068258325189422" id="-63149">
		<tag k="name" v="Daletjønnmyrane" />
		<tag k="natural" v="wetland" />
		<tag k="ssr:stedsnr" v="533256" />
	</node>
	<node lat="59.00331111358525" lon="8.290050007443284" id="-63150">
		<tag k="name" v="Plassebergi" />
		<tag k="place" v="locality" />
		<tag k="ssr:stedsnr" v="533264" />
	</node>
	<node lat="59.15765278226424" lon="8.161502784612633" id="-63161">
		<tag k="name" v="Dalanmyra" />
		<tag k="natural" v="wetland" />
		<tag k="ssr:stedsnr" v="533407" />
	</node>
	<node lat="59.075324996132615" lon="8.133188882469248" id="-63168">
		<tag k="name" v="Grånhommen" />
		<tag k="place" v="locality" />
		<tag k="ssr:stedsnr" v="533800" />
	</node>
	<node lat="59.308800003733325" lon="8.095661108983478" id="-63171">
		<tag k="name" v="Storekøs" />
		<tag k="place" v="locality" />
		<tag k="ssr:stedsnr" v="533741" />
	</node>
	<node lat="59.310913892295886" lon="7.876347219390503" id="-63186">
		<tag k="landuse" v="quarry" />
		<tag k="name" v="Måberg gruva" />
		<tag k="ssr:stedsnr" v="534162" />
	</node>
	<node lat="59.038327776070254" lon="7.9837333312221705" id="-63192">
		<tag k="name" v="Øymyra" />
		<tag k="natural" v="wetland" />
		<tag k="ssr:stedsnr" v="535026" />
	</node>
	<node lat="59.318999998954325" lon="8.035247220624122" id="-63205">
		<tag k="name" v="Seljehomslåtta" />
		<tag k="natural" v="wetland" />
		<tag k="ssr:stedsnr" v="535985" />
	</node>
	<node lat="59.225636110727514" lon="7.844052780496378" id="-63244">
		<tag k="name" v="Langemyr" />
		<tag k="natural" v="wetland" />
		<tag k="ssr:stedsnr" v="548355" />
	</node>
	<node lat="59.17105833299422" lon="8.01727778482891" id="-63260">
		<tag k="name" v="Kringlemyri" />
		<tag k="natural" v="wetland" />
		<tag k="ssr:stedsnr" v="573473" />
	</node>
	<node lat="59.23682222099926" lon="8.22273333638159" id="-63280">
		<tag k="name" v="Kaldvæturda" />
		<tag k="natural" v="scree" />
		<tag k="ssr:stedsnr" v="581127" />
	</node>
	<node lat="59.23576667003175" lon="7.899652774865924" id="-63284">
		<tag k="name" v="Mathølt" />
		<tag k="natural" v="wetland" />
		<tag k="ssr:stedsnr" v="581326" />
	</node>
	<node lat="59.19837221855633" lon="7.835052777160491" id="-63292">
		<tag k="name" v="Søylen" />
		<tag k="natural" v="stone" />
		<tag k="ssr:stedsnr" v="581766" />
	</node>
	<node lat="58.982436111084276" lon="8.30024721579549" id="-63301">
		<tag k="name" v="Lega" />
		<tag k="place" v="locality" />
		<tag k="ssr:stedsnr" v="590074" />
	</node>
	<node lat="58.983730559003845" lon="8.249827779855957" id="-63303">
		<tag k="name" v="Steinufsmyra" />
		<tag k="natural" v="wetland" />
		<tag k="ssr:stedsnr" v="590087" />
	</node>
	<node lat="59.01054444003615" lon="8.25838889459579" id="-63304">
		<tag k="name" v="Bakkeskogen" />
		<tag k="place" v="locality" />
		<tag k="ssr:stedsnr" v="593181" />
	</node>
	<node lat="59.14719166991921" lon="8.164911113254563" id="-63311">
		<tag k="name" v="Vettmyr" />
		<tag k="natural" v="wetland" />
		<tag k="ssr:stedsnr" v="593395" />
	</node>
	<node lat="59.1328194469912" lon="8.14507499848473" id="-63316">
		<tag k="name" v="Krossmyra" />
		<tag k="natural" v="wetland" />
		<tag k="ssr:stedsnr" v="594600" />
	</node>
	<node lat="59.064588893352486" lon="8.279694445128307" id="-63318">
		<tag k="name" v="Leikmyrane" />
		<tag k="natural" v="wetland" />
		<tag k="ssr:stedsnr" v="593916" />
	</node>
	<node lat="59.0645388929224" lon="7.954838887525526" id="-63321">
		<tag k="name" v="Krokbrotmyra" />
		<tag k="natural" v="wetland" />
		<tag k="ssr:stedsnr" v="594093" />
	</node>
	<node lat="59.305400003133" lon="8.144755547216379" id="-63323">
		<tag k="name" v="Bjårlægje" />
		<tag k="place" v="locality" />
		<tag k="ssr:stedsnr" v="594131" />
	</node>
	<node lat="59.009894445240796" lon="8.324300005876264" id="-63329">
		<tag k="name" v="Åmshommen" />
		<tag k="place" v="locality" />
		<tag k="ssr:stedsnr" v="594290" />
	</node>
	<node lat="59.15686111428416" lon="8.089900001200089" id="-63339">
		<tag k="name" v="Nordbøura" />
		<tag k="natural" v="scree" />
		<tag k="ssr:stedsnr" v="594578" />
	</node>
	<node lat="59.15657222571481" lon="8.101402781075196" id="-63340">
		<tag k="name" v="Kringlemyr" />
		<tag k="natural" v="wetland" />
		<tag k="ssr:stedsnr" v="594596" />
	</node>
	<node lat="59.164180559844745" lon="8.083174994350797" id="-63341">
		<tag k="name" v="Lettvint" />
		<tag k="place" v="locality" />
		<tag k="ssr:stedsnr" v="594685" />
	</node>
	<node lat="59.019247218432525" lon="8.235966669950233" id="-63345">
		<tag k="name" v="Møretjønna" />
		<tag k="natural" v="wetland" />
		<tag k="ssr:stedsnr" v="594770" />
	</node>
	<node lat="59.28794444487483" lon="8.082838888824305" id="-63346">
		<tag k="name" v="Kvassjordskogen" />
		<tag k="place" v="locality" />
		<tag k="ssr:stedsnr" v="594792" />
	</node>
	<node lat="59.19493888755278" lon="8.291463881157977" id="-63370">
		<tag k="name" v="Fiskebekkhommen" />
		<tag k="place" v="locality" />
		<tag k="ssr:stedsnr" v="607084" />
	</node>
	<node lat="59.24091389231167" lon="7.997530552200225" id="-63405">
		<tag k="alt_name" v="Fåtjønnmyrane" />
		<tag k="name" v="Fåtjørnmyrane" />
		<tag k="natural" v="wetland" />
		<tag k="ssr:stedsnr" v="634002" />
	</node>
	<node lat="59.230702781235344" lon="8.062647220269362" id="-63413">
		<tag k="name" v="Ketilsmyr" />
		<tag k="natural" v="wetland" />
		<tag k="ssr:stedsnr" v="640084" />
	</node>
	<node lat="59.186094443596375" lon="8.107261106067396" id="-63416">
		<tag k="name" v="Røtune" />
		<tag k="place" v="locality" />
		<tag k="ssr:stedsnr" v="640252" />
	</node>
	<node lat="59.226666662847904" lon="8.08240555056854" id="-63419">
		<tag k="name" v="Torvhuset" />
		<tag k="natural" v="wetland" />
		<tag k="ssr:stedsnr" v="640546" />
	</node>
	<node lat="59.23797777937884" lon="7.972574995049458" id="-63436">
		<tag k="name" v="Bondalspresten" />
		<tag k="place" v="locality" />
		<tag k="ssr:stedsnr" v="641545" />
	</node>
	<node lat="59.231011110860784" lon="8.241294452907024" id="-63439">
		<tag k="name" v="Vestgardsåta" />
		<tag k="place" v="locality" />
		<tag k="ssr:stedsnr" v="642101" />
	</node>
	<node lat="58.97521389113489" lon="8.253791665034461" id="-63453">
		<tag k="name" v="Bjønnebakk" />
		<tag k="place" v="locality" />
		<tag k="ssr:stedsnr" v="651112" />
	</node>
	<node lat="59.282408331948396" lon="8.135113895547052" id="-63468">
		<tag k="name" v="Våtbrokk" />
		<tag k="natural" v="wetland" />
		<tag k="ssr:stedsnr" v="654121" />
	</node>
	<node lat="59.00427222433716" lon="8.29293611855884" id="-63476">
		<tag k="name" v="Bruholta" />
		<tag k="place" v="locality" />
		<tag k="ssr:stedsnr" v="654267" />
	</node>
	<node lat="59.08422222395585" lon="8.208713893688286" id="-63479">
		<tag k="name" v="Pinerura" />
		<tag k="natural" v="scree" />
		<tag k="ssr:stedsnr" v="654356" />
	</node>
	<node lat="59.285752779053176" lon="8.110508335969515" id="-63483">
		<tag k="name" v="Kvisline" />
		<tag k="place" v="locality" />
		<tag k="ssr:stedsnr" v="654230" />
	</node>
	<node lat="59.11022222252793" lon="8.175047219759193" id="-63486">
		<tag k="name" v="Basthomen" />
		<tag k="place" v="locality" />
		<tag k="ssr:stedsnr" v="654320" />
	</node>
	<node lat="59.039580553391524" lon="7.979033331553318" id="-63490">
		<tag k="name" v="Åbodokkmyrane" />
		<tag k="natural" v="wetland" />
		<tag k="ssr:stedsnr" v="656024" />
	</node>
	<node lat="59.13580555576861" lon="8.121036109156625" id="-63496">
		<tag k="name" v="Revmyr" />
		<tag k="natural" v="wetland" />
		<tag k="ssr:stedsnr" v="654712" />
	</node>
	<node lat="59.266774997146484" lon="8.082572216140443" id="-63499">
		<tag k="name" v="Posletta" />
		<tag k="place" v="locality" />
		<tag k="ssr:stedsnr" v="654465" />
	</node>
	<node lat="59.15831666604121" lon="8.086302785708979" id="-63501">
		<tag k="name" v="Nordbø" />
		<tag k="place" v="locality" />
		<tag k="ssr:stedsnr" v="654560" />
	</node>
	<node lat="59.02356944365288" lon="8.265250000065123" id="-63505">
		<tag k="name" v="Spjot" />
		<tag k="place" v="locality" />
		<tag k="ssr:stedsnr" v="654862" />
	</node>
	<node lat="59.17172777828363" lon="8.085624997870118" id="-63506">
		<tag k="name" v="Bøsteholet" />
		<tag k="place" v="locality" />
		<tag k="ssr:stedsnr" v="654869" />
	</node>
	<node lat="59.30948333244015" lon="8.10078055731967" id="-63507">
		<tag k="name" v="Skjenhefti" />
		<tag k="place" v="locality" />
		<tag k="ssr:stedsnr" v="654731" />
	</node>
	<node lat="59.169583337315764" lon="8.102166661069784" id="-63523">
		<tag k="name" v="Hessmyr" />
		<tag k="place" v="locality" />
		<tag k="ssr:stedsnr" v="655621" />
	</node>
	<node lat="59.265863886168376" lon="8.018422214285447" id="-63529">
		<tag k="name" v="Surtemyrane" />
		<tag k="natural" v="wetland" />
		<tag k="ssr:stedsnr" v="656067" />
	</node>
	<node lat="59.10153888469879" lon="8.195727784795322" id="-63594">
		<tag k="name" v="Den store steinen" />
		<tag k="natural" v="stone" />
		<tag k="ssr:stedsnr" v="715358" />
	</node>
	<node lat="59.18353055641089" lon="8.121658336941517" id="-63608">
		<tag k="name" v="Høttane" />
		<tag k="place" v="locality" />
		<tag k="ssr:stedsnr" v="715466" />
	</node>
	<node lat="59.15301944609277" lon="8.08205000026086" id="-63609">
		<tag k="name" v="Kåsesto" />
		<tag k="place" v="locality" />
		<tag k="ssr:stedsnr" v="715590" />
	</node>
	<node lat="59.15306388953379" lon="8.08547499422621" id="-63617">
		<tag k="name" v="Kåsa" />
		<tag k="place" v="locality" />
		<tag k="ssr:stedsnr" v="715602" />
	</node>
	<node lat="59.327497221004165" lon="8.111608330534818" id="-63624">
		<tag k="name" v="Oskesleivsteinen" />
		<tag k="natural" v="stone" />
		<tag k="ssr:stedsnr" v="715999" />
	</node>
	<node lat="59.04641389005924" lon="8.28348055223075" id="-63626">
		<tag k="name" v="Rullune" />
		<tag k="natural" v="wetland" />
		<tag k="ssr:stedsnr" v="715884" />
	</node>
	<node lat="59.29484444600063" lon="8.132283338749566" id="-63628">
		<tag k="name" v="Taterbekkholene" />
		<tag k="place" v="locality" />
		<tag k="ssr:stedsnr" v="716097" />
	</node>
	<node lat="58.98120832974317" lon="8.040050006050292" id="-63633">
		<tag k="name" v="Dagsbeitet" />
		<tag k="place" v="locality" />
		<tag k="ssr:stedsnr" v="716253" />
	</node>
	<node lat="59.05281944476522" lon="7.9843472207773285" id="-63646">
		<tag k="name" v="Bergmyra" />
		<tag k="natural" v="wetland" />
		<tag k="ssr:stedsnr" v="717014" />
	</node>
	<node lat="59.04629167061462" lon="7.980730556665604" id="-63648">
		<tag k="name" v="Stormyr" />
		<tag k="natural" v="wetland" />
		<tag k="ssr:stedsnr" v="717018" />
	</node>
	<node lat="59.273058329422334" lon="7.983197225985297" id="-63654">
		<tag k="name" v="Smitilen" />
		<tag k="natural" v="wetland" />
		<tag k="ssr:stedsnr" v="717348" />
	</node>
	<node lat="59.18009999890744" lon="8.003327770426134" id="-63673">
		<tag k="name" v="Svartevikmyrane" />
		<tag k="natural" v="wetland" />
		<tag k="ssr:stedsnr" v="729389" />
	</node>
	<node lat="58.984074997820166" lon="8.27910834189856" id="-63679">
		<tag k="alt_name" v="Langemyr" />
		<tag k="name" v="Langemyri" />
		<tag k="natural" v="wetland" />
		<tag k="ssr:stedsnr" v="729895" />
	</node>
	<node lat="59.30953332941949" lon="8.213958325903565" id="-63714">
		<tag k="name" v="Langemyr" />
		<tag k="natural" v="wetland" />
		<tag k="ssr:stedsnr" v="731133" />
	</node>
	<node lat="59.19524999789062" lon="8.124699998102697" id="-63735">
		<tag k="name" v="Rundmyr" />
		<tag k="natural" v="wetland" />
		<tag k="ssr:stedsnr" v="762229" />
	</node>
	<node lat="59.23925277531674" lon="7.943002780459149" id="-63738">
		<tag k="name" v="Hestemyr" />
		<tag k="natural" v="wetland" />
		<tag k="ssr:stedsnr" v="762470" />
	</node>
	<node lat="59.24277222416193" lon="8.251405549751347" id="-63743">
		<tag k="name" v="Arenettmyra" />
		<tag k="natural" v="wetland" />
		<tag k="ssr:stedsnr" v="763012" />
	</node>
	<node lat="59.24528611076016" lon="7.820536108832937" id="-63754">
		<tag k="name" v="Løkfit" />
		<tag k="natural" v="wetland" />
		<tag k="ssr:stedsnr" v="763734" />
	</node>
	<node lat="59.24810278114003" lon="8.29155278140819" id="-63760">
		<tag k="name" v="Nystøylsteane" />
		<tag k="natural" v="wetland" />
		<tag k="ssr:stedsnr" v="764679" />
	</node>
	<node lat="59.326930553233666" lon="8.195980549885348" id="-63785">
		<tag k="name" v="Djupmyr" />
		<tag k="natural" v="wetland" />
		<tag k="ssr:stedsnr" v="776647" />
	</node>
	<node lat="59.00943888538536" lon="8.197913885087594" id="-63791">
		<tag k="name" v="Sloddune" />
		<tag k="place" v="locality" />
		<tag k="ssr:stedsnr" v="776028" />
	</node>
	<node lat="59.00223888503123" lon="8.28808611335341" id="-63793">
		<tag k="name" v="Borgstabergi" />
		<tag k="place" v="locality" />
		<tag k="ssr:stedsnr" v="776234" />
	</node>
	<node lat="59.30192222074349" lon="8.20203889321307" id="-63795">
		<tag k="name" v="Aslaksbu" />
		<tag k="natural" v="wetland" />
		<tag k="ssr:stedsnr" v="776286" />
	</node>
	<node lat="59.12649166811896" lon="8.206450005013403" id="-63796">
		<tag k="name" v="Aslommyrane" />
		<tag k="natural" v="wetland" />
		<tag k="ssr:stedsnr" v="776291" />
	</node>
	<node lat="59.31429722490732" lon="8.18867777763487" id="-63804">
		<tag k="name" v="Tranlemyrholene" />
		<tag k="natural" v="wetland" />
		<tag k="ssr:stedsnr" v="776425" />
	</node>
	<node lat="59.32417777934813" lon="8.1991416632755" id="-63809">
		<tag k="name" v="Nystøylmyri" />
		<tag k="natural" v="wetland" />
		<tag k="ssr:stedsnr" v="776705" />
	</node>
	<node lat="59.08109722452345" lon="8.118722226460077" id="-63812">
		<tag k="name" v="Sandbusteane" />
		<tag k="natural" v="wetland" />
		<tag k="ssr:stedsnr" v="776739" />
	</node>
	<node lat="59.06001110841999" lon="8.259855560596906" id="-63822">
		<tag k="name" v="Bjåmyr" />
		<tag k="natural" v="wetland" />
		<tag k="ssr:stedsnr" v="776952" />
	</node>
	<node lat="59.25328333667029" lon="8.026830547836884" id="-63829">
		<tag k="name" v="Gardsmyra" />
		<tag k="natural" v="wetland" />
		<tag k="ssr:stedsnr" v="777191" />
	</node>
	<node lat="59.324852778024244" lon="8.00660833151023" id="-63832">
		<tag k="landuse" v="quarry" />
		<tag k="name" v="Hestekvævgruva" />
		<tag k="ssr:stedsnr" v="777849" />
	</node>
	<node lat="59.00309444695246" lon="8.007863891391356" id="-63835">
		<tag k="name" v="Dagsbeite" />
		<tag k="place" v="locality" />
		<tag k="ssr:stedsnr" v="777246" />
	</node>
	<node lat="59.27251666966637" lon="7.979222223310323" id="-63836">
		<tag k="name" v="Trøskeflotta" />
		<tag k="natural" v="wetland" />
		<tag k="ssr:stedsnr" v="777299" />
	</node>
	<node lat="58.962544443950506" lon="8.104158324857998" id="-63854">
		<tag k="alt_name" v="Espelien" />
		<tag k="historic" v="shieling" />
		<tag k="name" v="Espeli" />
		<tag k="place" v="locality" />
		<tag k="ssr:stedsnr" v="789891" />
	</node>
	<node lat="59.107202780325395" lon="8.24268054882482" id="-63883">
		<tag k="name" v="Steinmyrane" />
		<tag k="natural" v="wetland" />
		<tag k="ssr:stedsnr" v="790642" />
	</node>
	<node lat="59.17046666775029" lon="8.009433334667072" id="-63952">
		<tag k="name" v="Homsli" />
		<tag k="place" v="locality" />
		<tag k="ssr:stedsnr" v="824601" />
	</node>
	<node lat="58.988102778525004" lon="8.269569441206663" id="-63975">
		<tag k="name" v="Straumsmomyra" />
		<tag k="natural" v="wetland" />
		<tag k="ssr:stedsnr" v="834088" />
	</node>
	<node lat="59.26599166377505" lon="8.330272223839655" id="-63979">
		<tag k="alt_name" v="Raudhelle" />
		<tag k="name" v="Rauhelle" />
		<tag k="place" v="locality" />
		<tag k="ssr:stedsnr" v="836111" />
	</node>
	<node lat="59.15583888741141" lon="8.15648055660058" id="-63980">
		<tag k="name" v="Dalanmyra" />
		<tag k="natural" v="wetland" />
		<tag k="ssr:stedsnr" v="836256" />
	</node>
	<node lat="59.07136111298647" lon="8.264294435733744" id="-63988">
		<tag k="name" v="Bergen" />
		<tag k="place" v="locality" />
		<tag k="ssr:stedsnr" v="836487" />
	</node>
	<node lat="59.02949444197912" lon="8.28668332764632" id="-63991">
		<tag k="name" v="Sundskleivura" />
		<tag k="natural" v="scree" />
		<tag k="ssr:stedsnr" v="836671" />
	</node>
	<node lat="59.1322999972027" lon="8.194349996258476" id="-64004">
		<tag k="name" v="Underhomshommane" />
		<tag k="place" v="locality" />
		<tag k="ssr:stedsnr" v="837323" />
	</node>
	<node lat="59.167897218041645" lon="8.252177780051266" id="-64021">
		<tag k="name" v="Kystrånd" />
		<tag k="place" v="locality" />
		<tag k="ssr:stedsnr" v="837655" />
	</node>
	<node lat="59.062344444502386" lon="8.321341659211592" id="-64023">
		<tag k="name" v="Løyning" />
		<tag k="natural" v="wetland" />
		<tag k="ssr:stedsnr" v="837897" />
	</node>
	<node lat="59.316444441474104" lon="8.206858329844493" id="-64025">
		<tag k="name" v="Persbuslåttene" />
		<tag k="natural" v="wetland" />
		<tag k="ssr:stedsnr" v="837747" />
	</node>
	<node lat="59.05801944146908" lon="8.263350005465384" id="-64029">
		<tag k="name" v="Småmyrane" />
		<tag k="natural" v="wetland" />
		<tag k="ssr:stedsnr" v="837957" />
	</node>
	<node lat="59.058861108635845" lon="8.252330547472623" id="-64031">
		<tag k="name" v="Neshagen" />
		<tag k="place" v="locality" />
		<tag k="ssr:stedsnr" v="837970" />
	</node>
	<node lat="59.298755553154514" lon="8.116458335535341" id="-64032">
		<tag k="name" v="Reinane" />
		<tag k="place" v="locality" />
		<tag k="ssr:stedsnr" v="838101" />
	</node>
	<node lat="58.97973888668678" lon="8.02784166632473" id="-64037">
		<tag k="name" v="Nedre Steane" />
		<tag k="natural" v="wetland" />
		<tag k="ssr:stedsnr" v="838308" />
	</node>
	<node lat="59.18336667027298" lon="8.080205560408135" id="-64048">
		<tag k="name" v="Saukro" />
		<tag k="place" v="locality" />
		<tag k="ssr:stedsnr" v="838944" />
	</node>
	<node lat="59.05054999742608" lon="7.9036972288072675" id="-64053">
		<tag k="name" v="Blakstjønnhommane" />
		<tag k="natural" v="wetland" />
		<tag k="ssr:stedsnr" v="839361" />
	</node>
	<node lat="58.99135555441691" lon="7.946816675139503" id="-64054">
		<tag k="name" v="Krossteane" />
		<tag k="natural" v="wetland" />
		<tag k="ssr:stedsnr" v="839454" />
	</node>
	<node lat="59.2594638927307" lon="8.2045000084433" id="-64092">
		<tag k="name" v="Rullanslåttene" />
		<tag k="place" v="locality" />
		<tag k="ssr:stedsnr" v="852197" />
	</node>
	<node lat="59.20123888938557" lon="8.153074999176857" id="-64135">
		<tag k="name" v="Kolbotn" />
		<tag k="natural" v="wetland" />
		<tag k="ssr:stedsnr" v="883296" />
	</node>
	<node lat="59.03835555517372" lon="8.04039999627703" id="-64178">
		<tag k="name" v="Storemyr" />
		<tag k="natural" v="wetland" />
		<tag k="ssr:stedsnr" v="937475" />
	</node>
	<node lat="59.227813890983576" lon="8.085724997588324" id="-64185">
		<tag k="name" v="Hegna" />
		<tag k="place" v="locality" />
		<tag k="ssr:stedsnr" v="944551" />
	</node>
	<node lat="59.2444972221908" lon="7.922519450686929" id="-64198">
		<tag k="name" v="Midtbøfitjane" />
		<tag k="natural" v="wetland" />
		<tag k="ssr:stedsnr" v="945152" />
	</node>
	<node lat="59.23372499711633" lon="7.9905138808234195" id="-64206">
		<tag k="name" v="Bondalsura" />
		<tag k="natural" v="scree" />
		<tag k="ssr:stedsnr" v="945419" />
	</node>
	<node lat="59.146494446092696" lon="8.132833330305353" id="-64227">
		<tag k="name" v="Løkene" />
		<tag k="natural" v="wetland" />
		<tag k="ssr:stedsnr" v="958288" />
	</node>
	<node lat="59.100324995746426" lon="8.316749992083059" id="-64233">
		<tag k="name" v="Urvasshommen" />
		<tag k="place" v="locality" />
		<tag k="ssr:stedsnr" v="957765" />
	</node>
	<node lat="59.28433333678284" lon="8.235466660345079" id="-64235">
		<tag k="name" v="Urskogen" />
		<tag k="place" v="locality" />
		<tag k="ssr:stedsnr" v="958067" />
	</node>
	<node lat="59.26669166772178" lon="8.056008326047671" id="-64241">
		<tag k="name" v="Båsmyr" />
		<tag k="place" v="locality" />
		<tag k="ssr:stedsnr" v="958277" />
	</node>
	<node lat="59.24529999850512" lon="8.180636104818877" id="-64259">
		<tag k="name" v="Laurdagsslåttune" />
		<tag k="natural" v="wetland" />
		<tag k="ssr:stedsnr" v="958933" />
	</node>
	<node lat="59.01944999785664" lon="8.267441665264672" id="-64260">
		<tag k="name" v="Grunnmyr" />
		<tag k="natural" v="wetland" />
		<tag k="ssr:stedsnr" v="958852" />
	</node>
	<node lat="58.98795555365956" lon="8.198136109755033" id="-64263">
		<tag k="name" v="Kvenna" />
		<tag k="natural" v="stone" />
		<tag k="ssr:stedsnr" v="958982" />
	</node>
	<node lat="58.99642777860242" lon="8.037619443612442" id="-64270">
		<tag k="name" v="Moseberget" />
		<tag k="place" v="locality" />
		<tag k="ssr:stedsnr" v="959454" />
	</node>
	<node lat="59.16771111013811" lon="8.087847214130797" id="-64278">
		<tag k="name" v="Nos" />
		<tag k="place" v="locality" />
		<tag k="ssr:stedsnr" v="959691" />
	</node>
	<node lat="59.168641665393636" lon="8.08698056116486" id="-64279">
		<tag k="name" v="Smylekås" />
		<tag k="place" v="locality" />
		<tag k="ssr:stedsnr" v="959693" />
	</node>
	<node lat="59.31136110976349" lon="8.003688895799804" id="-64282">
		<tag k="name" v="Nordkleivi" />
		<tag k="place" v="locality" />
		<tag k="ssr:stedsnr" v="959767" />
	</node>
	<node lat="59.30779444694501" lon="8.027377769672395" id="-64285">
		<tag k="name" v="Dagsbeiti" />
		<tag k="place" v="locality" />
		<tag k="ssr:stedsnr" v="959856" />
	</node>
	<node lat="59.18167500011062" lon="8.098761103637877" id="-64287">
		<tag k="landuse" v="meadow" />
		<tag k="name" v="Dalane" />
		<tag k="ssr:stedsnr" v="959980" />
	</node>
</osm>
