<?xml version="1.0" encoding="UTF-8"?>
<<<<<<< HEAD
<osm version="0.6" generator="osmapis">
	<node lat="70.28040277702281" lon="22.29170551753329" id="-43989">
		<tag k="name" v="Øksfjordklubben" />
=======
<osm generator="osmapis" version="0.6">
	<node id="-900480" lat="70.2763166687" lon="22.111174971">
		<tag k="name" v="Nuvsvåg" />
>>>>>>> e1d4bc35ff8a6074a6f2e91616a996b547c36f15
		<tag k="ssr:date" v="2019-12-27" />
		<tag k="ssr:gruppe" v="navigasjon" />
		<tag k="ssr:hovedgruppe" v="infrastruktur" />
		<tag k="ssr:stedsnr" v="20102" />
		<tag k="ssr:type" v="fyrlykt" />
	</node>
<<<<<<< HEAD
	<node lat="70.22840943201507" lon="21.181991754728827" id="-44004">
		<tag k="name" v="Brynnilen" />
		<tag k="ssr:date" v="2021-06-08" />
		<tag k="ssr:gruppe" v="navigasjon" />
		<tag k="ssr:hovedgruppe" v="infrastruktur" />
		<tag k="ssr:stedsnr" v="80130" />
		<tag k="ssr:type" v="fyrlykt" />
	</node>
	<node lat="70.25881009420632" lon="22.35016643522143" id="-44006">
		<tag k="name" v="Øksfjord" />
		<tag k="ssr:date" v="2020-11-19" />
=======
	<node id="-899930" lat="70.280402777" lon="22.2917055175">
		<tag k="name" v="Øksfjordklubben" />
		<tag k="ssr:date" v="2019-12-27" />
>>>>>>> e1d4bc35ff8a6074a6f2e91616a996b547c36f15
		<tag k="ssr:gruppe" v="navigasjon" />
		<tag k="ssr:hovedgruppe" v="infrastruktur" />
		<tag k="ssr:stedsnr" v="80089" />
		<tag k="ssr:type" v="fyrlykt" />
	</node>
<<<<<<< HEAD
	<node lat="70.23979076704006" lon="21.23443619584299" id="-44016">
		<tag k="name" v="Andsnes" />
		<tag k="ssr:date" v="2021-01-05" />
=======
	<node id="-900089" lat="70.1398888916" lon="22.4046471688">
		<tag k="name" v="Skognes" />
		<tag k="ssr:date" v="2019-12-27" />
		<tag k="ssr:gruppe" v="navigasjon" />
		<tag k="ssr:hovedgruppe" v="infrastruktur" />
		<tag k="ssr:stedsnr" v="299765" />
		<tag k="ssr:type" v="lanterne" />
	</node>
	<node id="-900376" lat="70.2344361115" lon="21.7203860839">
		<tag k="name" v="Pannarodden" />
		<tag k="ssr:date" v="2019-12-27" />
>>>>>>> e1d4bc35ff8a6074a6f2e91616a996b547c36f15
		<tag k="ssr:gruppe" v="navigasjon" />
		<tag k="ssr:hovedgruppe" v="infrastruktur" />
		<tag k="ssr:stedsnr" v="94077" />
		<tag k="ssr:type" v="fyrlykt" />
	</node>
<<<<<<< HEAD
	<node lat="70.27629535363172" lon="22.110015226520982" id="-44032">
		<tag k="name" v="Nuvsvåg" />
		<tag k="ssr:date" v="2021-01-05" />
=======
	<node id="-900919" lat="69.6388889725" lon="30.5666644427">
		<tag k="fixme" v="multiple name tags, choose one and add the other to alt_name" />
		<tag k="loc_name:se" v="Norgga gonagasriika" />
		<tag k="loc_name:sma" v="Nöörjen gånkarïjhke" />
		<tag k="loc_name:smj" v="Vuona gånågisrijkka" />
		<tag k="name" v="Noreg;Norge" />
		<tag k="name:en" v="Norway" />
		<tag k="name:no" v="Noreg;Norge" />
		<tag k="ssr:date" v="2020-06-04" />
		<tag k="ssr:gruppe" v="administrativeIndelinger" />
		<tag k="ssr:hovedgruppe" v="offentligAdministrasjon" />
		<tag k="ssr:stedsnr" v="26330" />
		<tag k="ssr:type" v="nasjon" />
	</node>
	<node id="-900310" lat="70.2395166711" lon="22.3513555066">
		<tag k="name" v="Loppa kommune" />
		<tag k="ssr:date" v="2019-12-27" />
		<tag k="ssr:gruppe" v="administrativeIndelinger" />
		<tag k="ssr:hovedgruppe" v="offentligAdministrasjon" />
		<tag k="ssr:stedsnr" v="937886" />
		<tag k="ssr:type" v="kommune" />
	</node>
	<node id="-899989" lat="70.3922833353" lon="21.7028499576">
		<tag k="name" v="Sildmylingen" />
		<tag k="ssr:date" v="2019-12-27" />
>>>>>>> e1d4bc35ff8a6074a6f2e91616a996b547c36f15
		<tag k="ssr:gruppe" v="navigasjon" />
		<tag k="ssr:hovedgruppe" v="infrastruktur" />
		<tag k="ssr:stedsnr" v="146525" />
		<tag k="ssr:type" v="fyrlykt" />
	</node>
<<<<<<< HEAD
	<node lat="70.23570555336971" lon="21.23614441089727" id="-44072">
		<tag k="name" v="Andsnes" />
		<tag k="ssr:date" v="2021-06-08" />
=======
	<node id="-900916" lat="70.082254032" lon="29.7302846866">
		<tag k="fixme" v="multiple name tags, choose one and add the other to alt_name" />
		<tag k="name" v="Troms og Finnmark;Troms og Finnmark fylke - Romssa ja Finnmárkku fylka - Tromssan ja Finmarkun fylkki" />
		<tag k="name:fkv" v="Tromssan ja Finmarkun fylkki" />
		<tag k="name:no" v="Troms og Finnmark;Troms og Finnmark fylke" />
		<tag k="name:se" v="Romssa ja Finnmárkku fylka" />
		<tag k="ssr:date" v="2020-01-13" />
>>>>>>> e1d4bc35ff8a6074a6f2e91616a996b547c36f15
		<tag k="ssr:gruppe" v="administrativeIndelinger" />
		<tag k="ssr:hovedgruppe" v="offentligAdministrasjon" />
		<tag k="ssr:stedsnr" v="1073694" />
		<tag k="ssr:type" v="fylke" />
	</node>
<<<<<<< HEAD
	<node lat="70.25512574870218" lon="21.764612201143024" id="-44076">
		<tag k="name" v="Bergsfjord" />
		<tag k="old_name" v="Klubbholmen Lykt;Bergsfjord Lykt" />
		<tag k="ssr:date" v="2020-09-10" />
=======
	<node id="-900050" lat="70.1618416708" lon="22.2912583008">
		<tag k="name" v="Bardineset" />
		<tag k="ssr:date" v="2019-12-27" />
>>>>>>> e1d4bc35ff8a6074a6f2e91616a996b547c36f15
		<tag k="ssr:gruppe" v="navigasjon" />
		<tag k="ssr:hovedgruppe" v="infrastruktur" />
		<tag k="ssr:stedsnr" v="202210" />
		<tag k="ssr:type" v="fyrlykt" />
	</node>
<<<<<<< HEAD
	<node lat="70.32418740284739" lon="22.007369609637497" id="-44100">
=======
	<node id="-899985" lat="70.324197225" lon="22.0076499486">
>>>>>>> e1d4bc35ff8a6074a6f2e91616a996b547c36f15
		<tag k="name" v="Gammelværneset" />
		<tag k="ssr:date" v="2021-06-08" />
		<tag k="ssr:gruppe" v="navigasjon" />
		<tag k="ssr:hovedgruppe" v="infrastruktur" />
		<tag k="ssr:stedsnr" v="263311" />
		<tag k="ssr:type" v="fyrlykt" />
	</node>
<<<<<<< HEAD
	<node lat="70.39235081545297" lon="21.702961031070842" id="-44109">
		<tag k="name" v="Sildmylingen" />
		<tag k="ssr:date" v="2020-09-01" />
=======
	<node id="-900431" lat="70.2398027767" lon="21.2345027395">
		<tag k="name" v="Andsnes" />
		<tag k="ssr:date" v="2019-12-27" />
>>>>>>> e1d4bc35ff8a6074a6f2e91616a996b547c36f15
		<tag k="ssr:gruppe" v="navigasjon" />
		<tag k="ssr:hovedgruppe" v="infrastruktur" />
		<tag k="ssr:stedsnr" v="268285" />
		<tag k="ssr:type" v="lanterne" />
	</node>
<<<<<<< HEAD
	<node lat="70.33594785024725" lon="21.583861090555658" id="-44154">
		<tag k="name" v="Marholmen" />
		<tag k="ssr:date" v="2021-06-08" />
=======
	<node id="-900014" lat="70.2547472232" lon="21.7634860639">
		<tag k="name" v="Bergsfjord" />
		<tag k="old_name" v="Klubbholmen Lykt;Bergsfjord Lykt" />
		<tag k="ssr:date" v="2019-12-27" />
>>>>>>> e1d4bc35ff8a6074a6f2e91616a996b547c36f15
		<tag k="ssr:gruppe" v="navigasjon" />
		<tag k="ssr:hovedgruppe" v="infrastruktur" />
		<tag k="ssr:stedsnr" v="444288" />
		<tag k="ssr:type" v="fyrlykt" />
	</node>
<<<<<<< HEAD
	<node lat="70.28122777774516" lon="21.216430522856044" id="-44236">
		<tag k="name" v="Svartskjærryggen" />
		<tag k="ssr:date" v="2021-06-08" />
		<tag k="ssr:gruppe" v="sjøbunn" />
		<tag k="ssr:hovedgruppe" v="sjø" />
		<tag k="ssr:stedsnr" v="570423" />
		<tag k="ssr:type" v="ryggISjø" />
	</node>
	<node lat="70.2395166710653" lon="22.351355506571924" id="-44394">
		<tag k="name" v="Loppa kommune" />
		<tag k="ssr:date" v="2019-12-27" />
		<tag k="ssr:gruppe" v="administrativeIndelinger" />
		<tag k="ssr:hovedgruppe" v="offentligAdministrasjon" />
		<tag k="ssr:stedsnr" v="937886" />
		<tag k="ssr:type" v="kommune" />
	</node>
	<node lat="70.23443611150974" lon="21.720386083920097" id="-44431">
		<tag k="name" v="Pannarodden" />
=======
	<node id="-900781" lat="70.3023694444" lon="21.3889388641">
		<tag k="name" v="Loppekalven" />
>>>>>>> e1d4bc35ff8a6074a6f2e91616a996b547c36f15
		<tag k="ssr:date" v="2019-12-27" />
		<tag k="ssr:gruppe" v="navigasjon" />
		<tag k="ssr:hovedgruppe" v="infrastruktur" />
		<tag k="ssr:stedsnr" v="33238" />
		<tag k="ssr:type" v="fyrlykt" />
	</node>
<<<<<<< HEAD
	<node lat="70.2610305526142" lon="21.234788874781565" id="-44552">
		<tag k="name" v="Svartskjærdjupta" />
		<tag k="ssr:date" v="2021-06-08" />
		<tag k="ssr:gruppe" v="sjøbunn" />
		<tag k="ssr:hovedgruppe" v="sjø" />
		<tag k="ssr:stedsnr" v="206450" />
		<tag k="ssr:type" v="havdyp" />
	</node>
	<node lat="70.13988889158311" lon="22.404647168768626" id="-44572">
		<tag k="name" v="Skognes" />
=======
	<node id="-900043" lat="70.3349888885" lon="21.5837721787">
		<tag k="name" v="Marholmen" />
>>>>>>> e1d4bc35ff8a6074a6f2e91616a996b547c36f15
		<tag k="ssr:date" v="2019-12-27" />
		<tag k="ssr:gruppe" v="navigasjon" />
		<tag k="ssr:hovedgruppe" v="infrastruktur" />
		<tag k="ssr:stedsnr" v="299765" />
		<tag k="ssr:type" v="lanterne" />
	</node>
<<<<<<< HEAD
	<node lat="70.16184167084593" lon="22.291258300775326" id="-44677">
		<tag k="name" v="Bardineset" />
=======
	<node id="-899988" lat="70.2357055534" lon="21.2361444109">
		<tag k="name" v="Andsnes" />
		<tag k="ssr:date" v="2019-12-27" />
		<tag k="ssr:gruppe" v="administrativeIndelinger" />
		<tag k="ssr:hovedgruppe" v="offentligAdministrasjon" />
		<tag k="ssr:stedsnr" v="267395" />
		<tag k="ssr:type" v="poststed" />
	</node>
	<node id="-900389" lat="70.2283749979" lon="21.1819999648">
		<tag k="name" v="Brynnilen" />
>>>>>>> e1d4bc35ff8a6074a6f2e91616a996b547c36f15
		<tag k="ssr:date" v="2019-12-27" />
		<tag k="ssr:gruppe" v="navigasjon" />
		<tag k="ssr:hovedgruppe" v="infrastruktur" />
		<tag k="ssr:stedsnr" v="444392" />
		<tag k="ssr:type" v="lanterne" />
	</node>
	<node lat="70.30205277254231" lon="21.389564440889814" id="-44847">
		<tag k="name" v="Loppekalven" />
		<tag k="ssr:date" v="2021-06-08" />
		<tag k="ssr:gruppe" v="navigasjon" />
		<tag k="ssr:hovedgruppe" v="infrastruktur" />
		<tag k="ssr:stedsnr" v="747320" />
		<tag k="ssr:type" v="fyrlykt" />
	</node>
<<<<<<< HEAD
	<node lat="70.08225403199775" lon="29.73028468656217" id="-44975">
		<tag k="fixme" v="multiple name tags, choose one and add the other to alt_name" />
		<tag k="name" v="Troms og Finnmark;Troms og Finnmark fylke - Romssa ja Finnmárkku fylka - Tromssan ja Finmarkun fylkki" />
		<tag k="name:fkv" v="Tromssan ja Finmarkun fylkki" />
		<tag k="name:no" v="Troms og Finnmark;Troms og Finnmark fylke" />
		<tag k="name:se" v="Romssa ja Finnmárkku fylka" />
		<tag k="ssr:date" v="2021-06-08" />
		<tag k="ssr:gruppe" v="administrativeIndelinger" />
		<tag k="ssr:hovedgruppe" v="offentligAdministrasjon" />
		<tag k="ssr:stedsnr" v="1073694" />
		<tag k="ssr:type" v="fylke" />
=======
	<node id="-900387" lat="70.2588194443" lon="22.3501193936">
		<tag k="name" v="Øksfjord" />
		<tag k="ssr:date" v="2019-12-27" />
		<tag k="ssr:gruppe" v="navigasjon" />
		<tag k="ssr:hovedgruppe" v="infrastruktur" />
		<tag k="ssr:stedsnr" v="80089" />
		<tag k="ssr:type" v="fyrlykt" />
>>>>>>> e1d4bc35ff8a6074a6f2e91616a996b547c36f15
	</node>
</osm>
