<?xml version="1.0" encoding="UTF-8"?>
<osm generator="osmapis" version="0.6">
	<node id="-94720" lat="62.4133888906" lon="10.882375009">
		<tag k="alt_name" v="Grunnva" />
		<tag k="ford" v="yes" />
		<tag k="name" v="Grunnvad" />
		<tag k="place" v="locality" />
		<tag k="ssr:stedsnr" v="176701" />
	</node>
	<node id="-94705" lat="62.4563805525" lon="10.767286105">
		<tag k="highway" v="path" />
		<tag k="name" v="Vintervegen" />
		<tag k="ssr:stedsnr" v="176329" />
	</node>
	<node id="-95211" lat="62.2086333296" lon="11.4137194482">
		<tag k="bridge" v="yes" />
		<tag k="layer" v="1" />
		<tag k="name" v="Hola bru" />
		<tag k="ssr:stedsnr" v="540854" />
	</node>
	<node id="-95204" lat="62.24592778" lon="11.4757222176">
		<tag k="highway" v="path" />
		<tag k="name" v="Vintervegen" />
		<tag k="ssr:stedsnr" v="540787" />
	</node>
	<node id="-95910" lat="62.441755554" lon="10.9556333388">
		<tag k="fixme" v="verify maritime location" />
		<tag k="mooring" v="yes" />
		<tag k="name" v="Vintervegstøa" />
		<tag k="place" v="locality" />
		<tag k="ssr:stedsnr" v="844900" />
	</node>
	<node id="-95711" lat="62.4626055511" lon="10.8328166759">
		<tag k="highway" v="path" />
		<tag k="name" v="Vintervegen" />
		<tag k="ssr:stedsnr" v="782522" />
	</node>
	<node id="-94160" lat="62.2972583329" lon="11.4145777842">
		<tag k="highway" v="path" />
		<tag k="name" v="Galådalsvegen" />
		<tag k="ssr:stedsnr" v="358695" />
	</node>
	<node id="-95177" lat="62.4091611102" lon="11.0635361197">
		<tag k="highway" v="path" />
		<tag k="name" v="Bruvollvegen" />
		<tag k="ssr:stedsnr" v="540211" />
	</node>
	<node id="-94284" lat="62.2617277799" lon="11.4488944527">
		<tag k="bridge" v="yes" />
		<tag k="layer" v="1" />
		<tag k="name" v="Stenkloppa" />
		<tag k="ssr:stedsnr" v="478837" />
	</node>
	<node id="-95686" lat="62.4037888882" lon="10.6937083243">
		<tag k="highway" v="path" />
		<tag k="name" v="Ridavegen" />
		<tag k="ssr:stedsnr" v="780015" />
	</node>
	<node id="-95682" lat="62.3684611143" lon="11.1700194525">
		<tag k="bridge" v="yes" />
		<tag k="layer" v="1" />
		<tag k="name" v="Harbekken" />
		<tag k="ssr:stedsnr" v="774286" />
	</node>
	<node id="-94657" lat="62.4636500043" lon="11.0247194418">
		<tag k="alt_name" v="Gammelalmannvegen" />
		<tag k="highway" v="path" />
		<tag k="name" v="Gammelallmannvegen" />
		<tag k="ssr:stedsnr" v="175030" />
	</node>
	<node id="-93937" lat="62.3825611071" lon="10.8233194405">
		<tag k="highway" v="path" />
		<tag k="name" v="Almannavegen" />
		<tag k="ssr:stedsnr" v="294206" />
	</node>
	<node id="-94109" lat="62.3689777803" lon="11.0379444469">
		<tag k="highway" v="path" />
		<tag k="name" v="Gamle fjellvegen" />
		<tag k="ssr:stedsnr" v="357309" />
	</node>
	<node id="-95132" lat="62.4644361119" lon="10.9673027789">
		<tag k="highway" v="path" />
		<tag k="name" v="Gamle Buhaugvegen" />
		<tag k="ssr:stedsnr" v="539043" />
	</node>
	<node id="-96152" lat="62.3685000011" lon="10.941636111">
		<tag k="fixme" v="consider highway=path" />
		<tag k="highway" v="track" />
		<tag k="name" v="Totrøvegen" />
		<tag k="ssr:stedsnr" v="965752" />
	</node>
	<node id="-96149" lat="62.3875972237" lon="10.8430138965">
		<tag k="highway" v="path" />
		<tag k="name" v="Gammelalmannvegen" />
		<tag k="ssr:stedsnr" v="965705" />
	</node>
	<node id="-95123" lat="62.2102611105" lon="11.4057888966">
		<tag k="bridge" v="yes" />
		<tag k="layer" v="1" />
		<tag k="name" v="Kvitbekken bru" />
		<tag k="ssr:stedsnr" v="532244" />
	</node>
	<node id="-95122" lat="62.3983416707" lon="10.9980972254">
		<tag k="bridge" v="yes" />
		<tag k="layer" v="1" />
		<tag k="name" v="Storbekk bru" />
		<tag k="ssr:stedsnr" v="532233" />
	</node>
	<node id="-94602" lat="62.1734999958" lon="11.5592388976">
		<tag k="highway" v="path" />
		<tag k="name" v="Sæterstien" />
		<tag k="ssr:stedsnr" v="115983" />
	</node>
	<node id="-94594" lat="62.2173000016" lon="11.4811777708">
		<tag k="alt_name" v="Vaet" />
		<tag k="ford" v="yes" />
		<tag k="name" v="Vadet" />
		<tag k="place" v="locality" />
		<tag k="ssr:stedsnr" v="115782" />
	</node>
	<node id="-95599" lat="62.2804861108" lon="11.4597499932">
		<tag k="highway" v="path" />
		<tag k="name" v="Vintervegen" />
		<tag k="ssr:stedsnr" v="722309" />
	</node>
	<node id="-95071" lat="62.4088527768" lon="10.9649861055">
		<tag k="bridge" v="yes" />
		<tag k="layer" v="1" />
		<tag k="name" v="Tolgabekken" />
		<tag k="ssr:stedsnr" v="471251" />
	</node>
	<node id="-95581" lat="62.3083249958" lon="11.3477944356">
		<tag k="highway" v="path" />
		<tag k="name" v="Volvegen" />
		<tag k="ssr:stedsnr" v="721644" />
	</node>
	<node id="-95577" lat="62.3482333355" lon="11.3008250025">
		<tag k="highway" v="path" />
		<tag k="name" v="Øver Galådalsvegen" />
		<tag k="ssr:stedsnr" v="721626" />
	</node>
	<node id="-94692" lat="62.1645777757" lon="11.5609111037">
		<tag k="highway" v="path" />
		<tag k="name" v="Livegen" />
		<tag k="ssr:stedsnr" v="175992" />
	</node>
	<node id="-94549" lat="62.2784388903" lon="11.4450027715">
		<tag k="highway" v="path" />
		<tag k="name" v="Kåsvegen" />
		<tag k="ssr:stedsnr" v="115868" />
	</node>
	<node id="-94545" lat="62.2030277767" lon="11.4153777834">
		<tag k="fixme" v="consider highway=path" />
		<tag k="highway" v="track" />
		<tag k="name" v="Prestlivegen" />
		<tag k="ssr:stedsnr" v="115856" />
	</node>
	<node id="-94519" lat="62.3064111086" lon="11.041663896">
		<tag k="highway" v="path" />
		<tag k="name" v="Sætervegen til Tolga" />
		<tag k="ssr:stedsnr" v="115322" />
	</node>
	<node id="-95539" lat="62.2092972194" lon="11.4087916628">
		<tag k="bridge" v="yes" />
		<tag k="layer" v="1" />
		<tag k="name" v="Hegerå bru" />
		<tag k="ssr:stedsnr" v="714233" />
	</node>
	<node id="-95538" lat="62.4112944463" lon="10.9909388827">
		<tag k="bridge" v="yes" />
		<tag k="layer" v="1" />
		<tag k="name" v="Hyttebrua" />
		<tag k="ssr:stedsnr" v="714231" />
	</node>
	<node id="-93998" lat="62.1769694429" lon="11.4241694519">
		<tag k="bridge" v="yes" />
		<tag k="layer" v="1" />
		<tag k="name" v="Stenkloppa" />
		<tag k="ssr:stedsnr" v="297773" />
	</node>
	<node id="-93993" lat="62.3764277803" lon="11.2260805595">
		<tag k="highway" v="path" />
		<tag k="name" v="Gråbensundvegen" />
		<tag k="ssr:stedsnr" v="297707" />
	</node>
	<node id="-95015" lat="62.3786611147" lon="11.223858339">
		<tag k="highway" v="path" />
		<tag k="name" v="Måssåbuvegen" />
		<tag k="ssr:stedsnr" v="419730" />
	</node>
	<node id="-93990" lat="62.3049388886" lon="11.340033339">
		<tag k="highway" v="path" />
		<tag k="name" v="Volvegen" />
		<tag k="ssr:stedsnr" v="297677" />
	</node>
	<node id="-95011" lat="62.3565249987" lon="11.2504861149">
		<tag k="highway" v="path" />
		<tag k="name" v="Galådalsvegen" />
		<tag k="ssr:stedsnr" v="419722" />
	</node>
	<node id="-96033" lat="62.1618833337" lon="11.5890250082">
		<tag k="fixme" v="verify maritime location" />
		<tag k="mooring" v="yes" />
		<tag k="name" v="Båthavna" />
		<tag k="place" v="locality" />
		<tag k="ssr:stedsnr" v="904979" />
	</node>
	<node id="-93982" lat="62.4000583313" lon="11.1862527853">
		<tag k="highway" v="path" />
		<tag k="name" v="Gamle fjellvegen" />
		<tag k="ssr:stedsnr" v="297578" />
	</node>
	<node id="-93979" lat="62.4210416625" lon="11.1731083377">
		<tag k="ford" v="yes" />
		<tag k="name" v="Vintervadet" />
		<tag k="place" v="locality" />
		<tag k="ssr:stedsnr" v="297487" />
	</node>
	<node id="-94998" lat="62.3761222212" lon="11.0641638925">
		<tag k="highway" v="path" />
		<tag k="name" v="Telsjøvegen" />
		<tag k="ssr:stedsnr" v="419338" />
	</node>
	<node id="-93972" lat="62.334449997" lon="11.1554444424">
		<tag k="highway" v="path" />
		<tag k="name" v="Tynsetvegen" />
		<tag k="ssr:stedsnr" v="297406" />
	</node>
	<node id="-94986" lat="62.4953055522" lon="10.7997833255">
		<tag k="highway" v="path" />
		<tag k="name" v="Gamle Bratthøvegen" />
		<tag k="ssr:stedsnr" v="418948" />
	</node>
	<node id="-93961" lat="62.4511583339" lon="11.0752499961">
		<tag k="ford" v="yes" />
		<tag k="name" v="Hørtvadet" />
		<tag k="place" v="locality" />
		<tag k="ssr:stedsnr" v="297115" />
	</node>
	<node id="-94981" lat="62.194794441" lon="11.4511472191">
		<tag k="highway" v="path" />
		<tag k="name" v="Livegen" />
		<tag k="ssr:stedsnr" v="418842" />
	</node>
	<node id="-94980" lat="62.4342555551" lon="10.8923999948">
		<tag k="bridge" v="yes" />
		<tag k="layer" v="1" />
		<tag k="name" v="Oskloppa" />
		<tag k="ssr:stedsnr" v="418843" />
	</node>
	<node id="-94979" lat="62.4339722183" lon="10.8816916748">
		<tag k="highway" v="path" />
		<tag k="name" v="Midtvegen" />
		<tag k="ssr:stedsnr" v="418838" />
	</node>
	<node id="-94966" lat="62.3453166682" lon="11.2984888856">
		<tag k="highway" v="path" />
		<tag k="name" v="Yter Galådalsvegen" />
		<tag k="ssr:stedsnr" v="418615" />
	</node>
	<node id="-95473" lat="62.2652583359" lon="11.4202166666">
		<tag k="highway" v="path" />
		<tag k="name" v="Svarthaugvegen" />
		<tag k="ssr:stedsnr" v="661814" />
	</node>
	<node id="-95980" lat="62.4324805534" lon="10.6825111109">
		<tag k="highway" v="path" />
		<tag k="name" v="Voldalsvegen" />
		<tag k="ssr:stedsnr" v="904336" />
	</node>
	<node id="-95978" lat="62.3767861095" lon="11.0329250081">
		<tag k="alt_name" v="Nedre Vaet" />
		<tag k="ford" v="yes" />
		<tag k="name" v="Nedre Vadet" />
		<tag k="place" v="locality" />
		<tag k="ssr:stedsnr" v="904334" />
	</node>
	<node id="-94406" lat="62.4460444456" lon="10.9454583357">
		<tag k="highway" v="path" />
		<tag k="name" v="Malmvegen" />
		<tag k="ssr:stedsnr" v="54908" />
	</node>
	<node id="-95425" lat="62.2569333348" lon="11.4195222255">
		<tag k="highway" v="path" />
		<tag k="name" v="Glopvegen" />
		<tag k="ssr:stedsnr" v="660822" />
	</node>
	<node id="-94908" lat="62.3095749983" lon="11.2227638905">
		<tag k="highway" v="path" />
		<tag k="name" v="Veslehøvegen" />
		<tag k="ssr:stedsnr" v="479654" />
	</node>
	<node id="-94907" lat="62.2880611104" lon="11.3234638916">
		<tag k="highway" v="path" />
		<tag k="name" v="Fjellvegen" />
		<tag k="ssr:stedsnr" v="479646" />
	</node>
	<node id="-94379" lat="62.3719583301" lon="11.0415111013">
		<tag k="alt_name" v="Øver Vaet" />
		<tag k="ford" v="yes" />
		<tag k="name" v="Øvre Vadet" />
		<tag k="place" v="locality" />
		<tag k="ssr:stedsnr" v="54335" />
	</node>
	<node id="-94377" lat="62.3913583307" lon="11.0209722305">
		<tag k="alt_name" v="Granvaet" />
		<tag k="ford" v="yes" />
		<tag k="name" v="Granvadet" />
		<tag k="place" v="locality" />
		<tag k="ssr:stedsnr" v="54360" />
	</node>
	<node id="-95399" lat="62.3487638847" lon="10.8934388948">
		<tag k="fixme" v="verify maritime location" />
		<tag k="mooring" v="yes" />
		<tag k="name" v="Båtstøa" />
		<tag k="place" v="locality" />
		<tag k="ssr:stedsnr" v="659263" />
	</node>
	<node id="-94374" lat="62.3773166709" lon="11.016677782">
		<tag k="fixme" v="consider highway=path" />
		<tag k="highway" v="track" />
		<tag k="name" v="Damvegen" />
		<tag k="ssr:stedsnr" v="54351" />
	</node>
	<node id="-95770" lat="62.355958331" lon="10.9349583303">
		<tag k="fixme" v="consider highway=path" />
		<tag k="highway" v="track" />
		<tag k="name" v="Sætervegen" />
		<tag k="ssr:stedsnr" v="783799" />
	</node>
	<node id="-95897" lat="62.1727083332" lon="11.4168527701">
		<tag k="highway" v="path" />
		<tag k="name" v="Tylldals fiskeveg" />
		<tag k="ssr:stedsnr" v="844784" />
	</node>
	<node id="-95896" lat="62.2589611086" lon="11.4716194522">
		<tag k="ford" v="yes" />
		<tag k="name" v="Vadet" />
		<tag k="place" v="locality" />
		<tag k="ssr:stedsnr" v="844773" />
	</node>
	<node id="-95886" lat="62.3003694418" lon="11.4239805554">
		<tag k="highway" v="path" />
		<tag k="name" v="Gamle postvegen" />
		<tag k="ssr:stedsnr" v="844702" />
	</node>
	<node id="-94857" lat="62.3971888862" lon="10.8856722184">
		<tag k="fixme" v="consider highway=path" />
		<tag k="highway" v="track" />
		<tag k="name" v="Gammelåsvegen" />
		<tag k="ssr:stedsnr" v="237728" />
	</node>
	<node id="-95875" lat="62.375750002" lon="11.035175006">
		<tag k="highway" v="path" />
		<tag k="name" v="Gammelvintervegen" />
		<tag k="ssr:stedsnr" v="844319" />
	</node>
	<node id="-94315" lat="62.408686671" lon="10.9982612803">
		<tag k="name" v="Tolga stasjon" />
		<tag k="railway" v="station" />
		<tag k="ssr:stedsnr" v="990091" />
		<tag k="train" v="yes" />
	</node>
	<node id="-95848" lat="62.497211112" lon="10.7756333363">
		<tag k="highway" v="path" />
		<tag k="name" v="Mosedalsvegen" />
		<tag k="ssr:stedsnr" v="843537" />
	</node>
	<node id="-94820" lat="62.3555222247" lon="11.1016027817">
		<tag k="highway" v="path" />
		<tag k="name" v="Telsjøenstien" />
		<tag k="ssr:stedsnr" v="236425" />
	</node>
	<node id="-95842" lat="62.3349555555" lon="11.2008777742">
		<tag k="highway" v="path" />
		<tag k="name" v="Yter Åsengvegen" />
		<tag k="ssr:stedsnr" v="843416" />
	</node>
	<node id="-95841" lat="62.3499055596" lon="11.1509194476">
		<tag k="highway" v="path" />
		<tag k="name" v="Storrøstvegen" />
		<tag k="ssr:stedsnr" v="843410" />
	</node>
	<node id="-95326" lat="62.3854750045" lon="10.910544442">
		<tag k="highway" v="path" />
		<tag k="name" v="Tynsetgjelen" />
		<tag k="ssr:stedsnr" v="600779" />
	</node>
	<node id="-95322" lat="62.3699722249" lon="10.935077776">
		<tag k="fixme" v="consider highway=path" />
		<tag k="highway" v="track" />
		<tag k="name" v="Akrevegen" />
		<tag k="ssr:stedsnr" v="600734" />
	</node>
	<node id="-95321" lat="62.3839805563" lon="10.8782750021">
		<tag k="fixme" v="consider highway=path" />
		<tag k="highway" v="track" />
		<tag k="name" v="Såttåvegen" />
		<tag k="ssr:stedsnr" v="600695" />
	</node>
	<node id="-95823" lat="62.4137194449" lon="10.6931388908">
		<tag k="highway" v="path" />
		<tag k="name" v="Ytter Gjervegen" />
		<tag k="ssr:stedsnr" v="841014" />
	</node>
	<node id="-95820" lat="62.2613277799" lon="11.4378944503">
		<tag k="highway" v="path" />
		<tag k="name" v="Svarthaugvegen" />
		<tag k="ssr:stedsnr" v="842844" />
	</node>
	<node id="-94794" lat="62.2616333332" lon="11.4549388864">
		<tag k="highway" v="path" />
		<tag k="name" v="Kåsvegen" />
		<tag k="ssr:stedsnr" v="235861" />
	</node>
	<node id="-95289" lat="62.3957416647" lon="11.0472166726">
		<tag k="highway" v="path" />
		<tag k="name" v="Hyllvegen" />
		<tag k="ssr:stedsnr" v="600286" />
	</node>
	<node id="-95272" lat="62.4331388909" lon="10.8222138811">
		<tag k="highway" v="path" />
		<tag k="name" v="Stenvegen" />
		<tag k="ssr:stedsnr" v="599613" />
	</node>
	<node id="-94246" lat="62.2790638852" lon="11.4588666584">
		<tag k="bridge" v="yes" />
		<tag k="layer" v="1" />
		<tag k="name" v="Halleråkloppa" />
		<tag k="ssr:stedsnr" v="479287" />
	</node>
	<node id="-95266" lat="62.327408332" lon="11.190244439">
		<tag k="highway" v="path" />
		<tag k="name" v="Åsengvegen" />
		<tag k="ssr:stedsnr" v="599405" />
	</node>
	<node id="-94241" lat="62.3805694475" lon="10.9265111125">
		<tag k="bridge" v="yes" />
		<tag k="layer" v="1" />
		<tag k="name" v="Storkvennan" />
		<tag k="ssr:stedsnr" v="410260" />
	</node>
	<node id="-94240" lat="62.3458916646" lon="11.2188416668">
		<tag k="bridge" v="yes" />
		<tag k="layer" v="1" />
		<tag k="name" v="Storbekken" />
		<tag k="ssr:stedsnr" v="410258" />
	</node>
	<node id="-95258" lat="62.3894888911" lon="11.1225416725">
		<tag k="bridge" v="yes" />
		<tag k="layer" v="1" />
		<tag k="name" v="Bjøra bru" />
		<tag k="ssr:stedsnr" v="592287" />
	</node>
	<node id="-95257" lat="62.3584361066" lon="10.9182361185">
		<tag k="bridge" v="yes" />
		<tag k="layer" v="1" />
		<tag k="name" v="Vesle Tela" />
		<tag k="ssr:stedsnr" v="592282" />
	</node>
	<node id="-95767" lat="62.2138055526" lon="11.4702305469">
		<tag k="bridge" v="yes" />
		<tag k="layer" v="1" />
		<tag k="name" v="Stenvakloppa" />
		<tag k="ssr:stedsnr" v="783785" />
	</node>
	<node id="-95764" lat="62.180788887" lon="11.4195527762">
		<tag k="alt_name" v="Kullbotnvaet" />
		<tag k="ford" v="yes" />
		<tag k="name" v="Kullbotnvadet" />
		<tag k="place" v="locality" />
		<tag k="ssr:stedsnr" v="783770" />
	</node>
	<node id="-95763" lat="62.3698805526" lon="10.912261109">
		<tag k="bridge" v="yes" />
		<tag k="layer" v="1" />
		<tag k="name" v="Nesundergangen" />
		<tag k="ssr:stedsnr" v="783754" />
	</node>
	<node id="-95756" lat="62.3707138855" lon="11.2801777763">
		<tag k="highway" v="path" />
		<tag k="name" v="Narvegen" />
		<tag k="ssr:stedsnr" v="783713" />
	</node>
	<node id="-94730" lat="62.3820388846" lon="10.9051305533">
		<tag k="fixme" v="consider highway=path" />
		<tag k="highway" v="track" />
		<tag k="name" v="Korsvegan" />
		<tag k="ssr:stedsnr" v="176783" />
	</node>
	<node id="-93974" lat="62.3347083304" lon="11.1726222304">
		<tag k="highway" v="path" />
		<tag k="name" v="Midtvegen" />
		<tag k="ssr:stedsnr" v="297407" />
	</node>
	<node id="-95749" lat="62.416361109" lon="10.7957055462">
		<tag k="highway" v="path" />
		<tag k="name" v="Vintervegen" />
		<tag k="ssr:stedsnr" v="783656" />
	</node>
</osm>
