<?xml version="1.0" encoding="UTF-8"?>
<osm generator="osmapis" version="0.6">
	<node id="-94202" lat="62.4501055569" lon="10.9044805646">
		<tag k="name" v="Skremyra" />
		<tag k="natural" v="wetland" />
		<tag k="ssr:stedsnr" v="478892" />
	</node>
	<node id="-94196" lat="62.2459555574" lon="11.4131888945">
		<tag k="name" v="Storstenen" />
		<tag k="natural" v="stone" />
		<tag k="ssr:stedsnr" v="478810" />
	</node>
	<node id="-94195" lat="62.4218333326" lon="10.7963972263">
		<tag k="name" v="Limyran" />
		<tag k="natural" v="wetland" />
		<tag k="ssr:stedsnr" v="478644" />
	</node>
	<node id="-94191" lat="62.4934555568" lon="10.7616194414">
		<tag k="landuse" v="meadow" />
		<tag k="name" v="Nyløenget" />
		<tag k="ssr:stedsnr" v="478541" />
	</node>
	<node id="-94190" lat="62.4275638889" lon="11.1982166695">
		<tag k="name" v="Storstenen" />
		<tag k="natural" v="stone" />
		<tag k="ssr:stedsnr" v="478520" />
	</node>
	<node id="-94183" lat="62.39086111" lon="11.1402333428">
		<tag k="name" v="Elgsmyrstrypet" />
		<tag k="natural" v="wetland" />
		<tag k="ssr:stedsnr" v="478466" />
	</node>
	<node id="-94176" lat="62.4490611146" lon="10.9991194352">
		<tag k="historic" v="shieling" />
		<tag k="name" v="Jamntmyrvollen" />
		<tag k="place" v="locality" />
		<tag k="ssr:stedsnr" v="478152" />
	</node>
	<node id="-94173" lat="62.4194944445" lon="11.0174611035">
		<tag k="name" v="Matiasgjelta" />
		<tag k="place" v="locality" />
		<tag k="ssr:stedsnr" v="478114" />
	</node>
	<node id="-94169" lat="62.4468916696" lon="10.7513694353">
		<tag k="name" v="Kroketmyra" />
		<tag k="natural" v="wetland" />
		<tag k="ssr:stedsnr" v="479349" />
	</node>
	<node id="-94168" lat="62.4246472189" lon="10.7551027735">
		<tag k="name" v="Åkervollen" />
		<tag k="place" v="locality" />
		<tag k="ssr:stedsnr" v="479337" />
	</node>
	<node id="-94164" lat="62.3498277776" lon="10.9423499918">
		<tag k="name" v="Jordvangen" />
		<tag k="place" v="locality" />
		<tag k="ssr:stedsnr" v="476267" />
	</node>
	<node id="-94153" lat="62.2252111141" lon="11.0634333265">
		<tag k="landuse" v="meadow" />
		<tag k="name" v="Framkåsa" />
		<tag k="ssr:stedsnr" v="237421" />
	</node>
	<node id="-94152" lat="62.2248111103" lon="11.03526111">
		<tag k="name" v="Granslette" />
		<tag k="place" v="locality" />
		<tag k="ssr:stedsnr" v="237420" />
	</node>
	<node id="-94120" lat="62.2349583348" lon="11.1133055565">
		<tag k="name" v="Fjellslættet" />
		<tag k="natural" v="wetland" />
		<tag k="ssr:stedsnr" v="375178" />
	</node>
	<node id="-93849" lat="62.4109777823" lon="10.7086749993">
		<tag k="historic" v="shieling" />
		<tag k="name" v="Langsætra" />
		<tag k="place" v="locality" />
		<tag k="ssr:stedsnr" v="294012" />
	</node>
	<node id="-94098" lat="62.2060944485" lon="11.4228472186">
		<tag k="name" v="Vesleenget" />
		<tag k="place" v="locality" />
		<tag k="ssr:stedsnr" v="358850" />
	</node>
	<node id="-94094" lat="62.235083336" lon="11.4894138956">
		<tag k="historic" v="shieling" />
		<tag k="name" v="Gjertrudvollen" />
		<tag k="place" v="locality" />
		<tag k="ssr:stedsnr" v="358798" />
	</node>
	<node id="-94091" lat="62.2055583309" lon="11.478730552">
		<tag k="name" v="Langmyra" />
		<tag k="natural" v="wetland" />
		<tag k="ssr:stedsnr" v="358790" />
	</node>
	<node id="-94088" lat="62.3967694479" lon="10.9490166673">
		<tag k="name" v="Høyåsfloen" />
		<tag k="natural" v="wetland" />
		<tag k="ssr:stedsnr" v="358778" />
	</node>
	<node id="-94085" lat="62.1802416649" lon="11.4175250054">
		<tag k="landuse" v="meadow" />
		<tag k="name" v="Djupdalsenget" />
		<tag k="ssr:stedsnr" v="358767" />
	</node>
	<node id="-94079" lat="62.4099583343" lon="10.8781583423">
		<tag k="name" v="Sagmoen" />
		<tag k="place" v="locality" />
		<tag k="ssr:stedsnr" v="358716" />
	</node>
	<node id="-94075" lat="62.2959555545" lon="11.364305559">
		<tag k="historic" v="shieling" />
		<tag k="name" v="Stenvollen" />
		<tag k="place" v="locality" />
		<tag k="ssr:stedsnr" v="358701" />
	</node>
	<node id="-94072" lat="62.414586111" lon="10.8319416703">
		<tag k="name" v="Sætermyra" />
		<tag k="natural" v="wetland" />
		<tag k="ssr:stedsnr" v="358683" />
	</node>
	<node id="-94071" lat="62.4117055566" lon="10.8196638844">
		<tag k="name" v="Blåbærfloen" />
		<tag k="natural" v="wetland" />
		<tag k="ssr:stedsnr" v="358680" />
	</node>
	<node id="-94065" lat="62.4482638933" lon="10.7583444372">
		<tag k="landuse" v="meadow" />
		<tag k="name" v="Hageneng" />
		<tag k="ssr:stedsnr" v="358346" />
	</node>
	<node id="-94062" lat="62.4857694484" lon="10.5623916578">
		<tag k="name" v="Jamtenga" />
		<tag k="place" v="locality" />
		<tag k="ssr:stedsnr" v="358333" />
	</node>
	<node id="-94061" lat="62.3687083351" lon="10.9663833369">
		<tag k="name" v="Bergevollfloen" />
		<tag k="natural" v="wetland" />
		<tag k="ssr:stedsnr" v="358309" />
	</node>
	<node id="-94060" lat="62.4561666703" lon="10.7579277784">
		<tag k="landuse" v="meadow" />
		<tag k="name" v="Fremmer Moslått" />
		<tag k="ssr:stedsnr" v="358300" />
	</node>
	<node id="-94056" lat="62.4106055522" lon="11.024627769">
		<tag k="alt_name" v="Garmakervollen" />
		<tag k="name" v="Garmåkervollen" />
		<tag k="old_name" v="Garmaakervollen" />
		<tag k="place" v="locality" />
		<tag k="ssr:stedsnr" v="358263" />
	</node>
	<node id="-94052" lat="62.1675888846" lon="11.6299499986">
		<tag k="name" v="Femundsmyran" />
		<tag k="natural" v="wetland" />
		<tag k="ssr:stedsnr" v="357977" />
	</node>
	<node id="-94050" lat="62.4990138896" lon="10.7939722248">
		<tag k="landuse" v="meadow" />
		<tag k="name" v="Nygardsenga" />
		<tag k="ssr:stedsnr" v="357956" />
	</node>
	<node id="-94043" lat="62.3962750035" lon="10.9076138974">
		<tag k="name" v="Rundmyra" />
		<tag k="natural" v="wetland" />
		<tag k="ssr:stedsnr" v="357832" />
	</node>
	<node id="-94042" lat="62.3981277817" lon="10.9169083376">
		<tag k="name" v="Betmyra" />
		<tag k="natural" v="wetland" />
		<tag k="ssr:stedsnr" v="357830" />
	</node>
	<node id="-94034" lat="62.4305027795" lon="10.8086916588">
		<tag k="landuse" v="meadow" />
		<tag k="name" v="Sumundsenget" />
		<tag k="ssr:stedsnr" v="357575" />
	</node>
	<node id="-96081" lat="62.4471361119" lon="10.8887750002">
		<tag k="historic" v="shieling" />
		<tag k="name" v="Haugsvollen" />
		<tag k="place" v="locality" />
		<tag k="ssr:stedsnr" v="965993" />
	</node>
	<node id="-94032" lat="62.4636583318" lon="10.8180527869">
		<tag k="historic" v="shieling" />
		<tag k="name" v="Markusvollen" />
		<tag k="place" v="locality" />
		<tag k="ssr:stedsnr" v="357532" />
	</node>
	<node id="-96077" lat="62.3611111121" lon="10.9329861038">
		<tag k="landuse" v="meadow" />
		<tag k="name" v="Nesenget" />
		<tag k="ssr:stedsnr" v="965802" />
	</node>
	<node id="-94027" lat="62.3753999975" lon="11.1752638918">
		<tag k="name" v="Stormyra" />
		<tag k="natural" v="wetland" />
		<tag k="ssr:stedsnr" v="357447" />
	</node>
	<node id="-96073" lat="62.3753305578" lon="10.9161222229">
		<tag k="landuse" v="meadow" />
		<tag k="name" v="Vesleenget" />
		<tag k="ssr:stedsnr" v="965786" />
	</node>
	<node id="-94018" lat="62.4349722198" lon="11.029597224">
		<tag k="name" v="Rønningen" />
		<tag k="place" v="locality" />
		<tag k="ssr:stedsnr" v="357118" />
	</node>
	<node id="-96065" lat="62.3739972249" lon="11.2550444516">
		<tag k="name" v="Jenssunda" />
		<tag k="natural" v="wetland" />
		<tag k="ssr:stedsnr" v="965713" />
	</node>
	<node id="-96064" lat="62.3913916703" lon="10.8428555618">
		<tag k="historic" v="shieling" />
		<tag k="name" v="Grønnkåsa" />
		<tag k="place" v="locality" />
		<tag k="ssr:stedsnr" v="965710" />
	</node>
	<node id="-94015" lat="62.4614361108" lon="11.019019435">
		<tag k="name" v="Karlsfloen" />
		<tag k="natural" v="wetland" />
		<tag k="ssr:stedsnr" v="357057" />
	</node>
	<node id="-94013" lat="62.4213277784" lon="10.8030138983">
		<tag k="name" v="Eriksmyra" />
		<tag k="natural" v="wetland" />
		<tag k="ssr:stedsnr" v="356947" />
	</node>
	<node id="-96059" lat="62.2951416709" lon="11.2579638811">
		<tag k="landuse" v="meadow" />
		<tag k="name" v="Skreenget" />
		<tag k="ssr:stedsnr" v="965676" />
	</node>
	<node id="-94010" lat="62.4694055545" lon="10.7436777695">
		<tag k="name" v="Garstorkåsa" />
		<tag k="place" v="locality" />
		<tag k="ssr:stedsnr" v="356281" />
	</node>
	<node id="-94008" lat="62.4545818556" lon="10.5943795387">
		<tag k="name" v="Nyutstumoengan" />
		<tag k="place" v="locality" />
		<tag k="ssr:stedsnr" v="355385" />
	</node>
	<node id="-94007" lat="62.4507666669" lon="10.6180194467">
		<tag k="name" v="Roenget" />
		<tag k="place" v="locality" />
		<tag k="ssr:stedsnr" v="355383" />
	</node>
	<node id="-94003" lat="62.4133361084" lon="10.7496916736">
		<tag k="name" v="Ytter Stenbakken" />
		<tag k="place" v="locality" />
		<tag k="ssr:stedsnr" v="355268" />
	</node>
	<node id="-94001" lat="62.3801916637" lon="10.824877781">
		<tag k="name" v="Gammelvangmyra" />
		<tag k="natural" v="wetland" />
		<tag k="ssr:stedsnr" v="355218" />
	</node>
	<node id="-96045" lat="62.2516527748" lon="11.063463881">
		<tag k="name" v="Storsteinen" />
		<tag k="natural" v="stone" />
		<tag k="ssr:stedsnr" v="965325" />
	</node>
	<node id="-96044" lat="62.2664027818" lon="11.4741722284">
		<tag k="name" v="Brestet" />
		<tag k="place" v="locality" />
		<tag k="ssr:stedsnr" v="965316" />
	</node>
	<node id="-96042" lat="62.4115250004" lon="11.0380638794">
		<tag k="name" v="Tverrmyra" />
		<tag k="natural" v="wetland" />
		<tag k="ssr:stedsnr" v="965312" />
	</node>
	<node id="-96037" lat="62.1784694459" lon="11.522919451">
		<tag k="name" v="Vargklettvollan" />
		<tag k="place" v="locality" />
		<tag k="ssr:stedsnr" v="964997" />
	</node>
	<node id="-96035" lat="62.450774999" lon="10.9130083257">
		<tag k="landuse" v="meadow" />
		<tag k="name" v="Sjøenget" />
		<tag k="ssr:stedsnr" v="964862" />
	</node>
	<node id="-93984" lat="62.3644" lon="10.9984666593">
		<tag k="alt_name" v="Veslefloen" />
		<tag k="name" v="Veslfloen" />
		<tag k="natural" v="wetland" />
		<tag k="ssr:stedsnr" v="315182" />
	</node>
	<node id="-93983" lat="62.3687000013" lon="11.0830638912">
		<tag k="alt_name" v="Engefloen" />
		<tag k="name" v="Engfloen" />
		<tag k="natural" v="wetland" />
		<tag k="ssr:stedsnr" v="315174" />
	</node>
	<node id="-96024" lat="62.3947388878" lon="11.0089222151">
		<tag k="name" v="Stamphusmyra" />
		<tag k="natural" v="wetland" />
		<tag k="ssr:stedsnr" v="964369" />
	</node>
	<node id="-96023" lat="62.3906500005" lon="11.01626944">
		<tag k="name" v="Langmyra" />
		<tag k="natural" v="wetland" />
		<tag k="ssr:stedsnr" v="964368" />
	</node>
	<node id="-96022" lat="62.4535638916" lon="10.7612361188">
		<tag k="name" v="Trøvollen" />
		<tag k="place" v="locality" />
		<tag k="ssr:stedsnr" v="964366" />
	</node>
	<node id="-96010" lat="62.4709194425" lon="10.9885250037">
		<tag k="name" v="Letjønnfloen" />
		<tag k="natural" v="wetland" />
		<tag k="ssr:stedsnr" v="964073" />
	</node>
	<node id="-96004" lat="62.2454305581" lon="11.3438722258">
		<tag k="name" v="Stenbakkfloen" />
		<tag k="natural" v="wetland" />
		<tag k="ssr:stedsnr" v="963866" />
	</node>
	<node id="-96002" lat="62.4694500039" lon="10.7774416636">
		<tag k="historic" v="shieling" />
		<tag k="name" v="Mostorkåsa" />
		<tag k="place" v="locality" />
		<tag k="ssr:stedsnr" v="963559" />
	</node>
	<node id="-96001" lat="62.4714805533" lon="10.7889027692">
		<tag k="historic" v="shieling" />
		<tag k="name" v="Trøomvollen" />
		<tag k="place" v="locality" />
		<tag k="ssr:stedsnr" v="964542" />
	</node>
	<node id="-95999" lat="62.4672111136" lon="10.7887777694">
		<tag k="historic" v="shieling" />
		<tag k="name" v="Gammeløyvollen" />
		<tag k="place" v="locality" />
		<tag k="ssr:stedsnr" v="964540" />
	</node>
	<node id="-95997" lat="62.466738888" lon="10.755033326">
		<tag k="name" v="Tøllefsslått" />
		<tag k="place" v="locality" />
		<tag k="ssr:stedsnr" v="963293" />
	</node>
	<node id="-95996" lat="62.4739472188" lon="10.7237694525">
		<tag k="landuse" v="meadow" />
		<tag k="name" v="Sumundsenga" />
		<tag k="ssr:stedsnr" v="963286" />
	</node>
	<node id="-95995" lat="62.4764750009" lon="10.5777388879">
		<tag k="name" v="Storåsfloen" />
		<tag k="natural" v="wetland" />
		<tag k="ssr:stedsnr" v="962311" />
	</node>
	<node id="-95994" lat="62.3996111125" lon="10.7643944419">
		<tag k="name" v="Storhaugenga" />
		<tag k="place" v="locality" />
		<tag k="ssr:stedsnr" v="962260" />
	</node>
	<node id="-95993" lat="62.4007416682" lon="10.7709527785">
		<tag k="name" v="Jordenga" />
		<tag k="place" v="locality" />
		<tag k="ssr:stedsnr" v="962251" />
	</node>
	<node id="-93938" lat="62.4485805575" lon="10.7715555475">
		<tag k="name" v="Fossenget" />
		<tag k="place" v="locality" />
		<tag k="ssr:stedsnr" v="419351" />
	</node>
	<node id="-93937" lat="62.4548638882" lon="10.7711583249">
		<tag k="alt_name" v="Oustuvollen" />
		<tag k="name" v="Austuvollen" />
		<tag k="place" v="locality" />
		<tag k="ssr:stedsnr" v="419349" />
	</node>
	<node id="-93936" lat="62.4758694453" lon="10.8507222221">
		<tag k="historic" v="shieling" />
		<tag k="name" v="Veslegjeltvollen" />
		<tag k="place" v="locality" />
		<tag k="ssr:stedsnr" v="297931" />
	</node>
	<node id="-93935" lat="62.4779888889" lon="10.8500138958">
		<tag k="historic" v="shieling" />
		<tag k="name" v="Ustuvollen" />
		<tag k="place" v="locality" />
		<tag k="ssr:stedsnr" v="297899" />
	</node>
	<node id="-93934" lat="62.4418583347" lon="10.9186833262">
		<tag k="name" v="Veslesætermyran" />
		<tag k="natural" v="wetland" />
		<tag k="ssr:stedsnr" v="297888" />
	</node>
	<node id="-95980" lat="62.3668666656" lon="10.8289805506">
		<tag k="name" v="Trøfloen" />
		<tag k="natural" v="wetland" />
		<tag k="ssr:stedsnr" v="922180" />
	</node>
	<node id="-95977" lat="62.3889861147" lon="11.2127833277">
		<tag k="name" v="Bruenget" />
		<tag k="place" v="locality" />
		<tag k="ssr:stedsnr" v="922164" />
	</node>
	<node id="-93926" lat="62.4017916642" lon="10.9263888964">
		<tag k="name" v="Forlotten" />
		<tag k="place" v="locality" />
		<tag k="ssr:stedsnr" v="297832" />
	</node>
	<node id="-95972" lat="62.4037833337" lon="11.0891027862">
		<tag k="alt_name" v="Enkefloen" />
		<tag k="name" v="Enkjefloen" />
		<tag k="natural" v="wetland" />
		<tag k="ssr:stedsnr" v="922143" />
	</node>
	<node id="-93923" lat="62.4070777758" lon="10.926541659">
		<tag k="name" v="Høyåsfloen" />
		<tag k="natural" v="wetland" />
		<tag k="ssr:stedsnr" v="297827" />
	</node>
	<node id="-93918" lat="62.2332972239" lon="11.4128027847">
		<tag k="name" v="Sønmørgjerdinga" />
		<tag k="place" v="locality" />
		<tag k="ssr:stedsnr" v="297809" />
	</node>
	<node id="-93917" lat="62.4366972237" lon="10.9122611107">
		<tag k="historic" v="shieling" />
		<tag k="name" v="Veslesætra" />
		<tag k="place" v="locality" />
		<tag k="ssr:stedsnr" v="297804" />
	</node>
	<node id="-93911" lat="62.3609222199" lon="10.8526222232">
		<tag k="name" v="Lauvkvervmyra" />
		<tag k="natural" v="wetland" />
		<tag k="ssr:stedsnr" v="297767" />
	</node>
	<node id="-95949" lat="62.1811916649" lon="11.4745111194">
		<tag k="historic" v="shieling" />
		<tag k="name" v="Sønmørsætran" />
		<tag k="place" v="locality" />
		<tag k="ssr:stedsnr" v="904994" />
	</node>
	<node id="-93897" lat="62.4159666685" lon="11.1967555606">
		<tag k="name" v="Masingsmedenget" />
		<tag k="place" v="locality" />
		<tag k="ssr:stedsnr" v="297580" />
	</node>
	<node id="-93895" lat="62.4076888857" lon="11.1650944429">
		<tag k="name" v="Tollenget" />
		<tag k="place" v="locality" />
		<tag k="ssr:stedsnr" v="297561" />
	</node>
	<node id="-95939" lat="62.4321916668" lon="10.8935888972">
		<tag k="name" v="Gråkjerren" />
		<tag k="place" v="locality" />
		<tag k="ssr:stedsnr" v="904852" />
	</node>
	<node id="-95937" lat="62.2090861124" lon="11.4513777858">
		<tag k="name" v="Bortaterrøsta" />
		<tag k="place" v="locality" />
		<tag k="ssr:stedsnr" v="904839" />
	</node>
	<node id="-95935" lat="62.406511108" lon="10.9143888911">
		<tag k="landuse" v="quarry" />
		<tag k="name" v="Stenbruddet" />
		<tag k="ssr:stedsnr" v="904835" />
	</node>
	<node id="-93880" lat="62.2351000022" lon="11.0777388951">
		<tag k="landuse" v="meadow" />
		<tag k="name" v="Heggkåsa" />
		<tag k="ssr:stedsnr" v="297313" />
	</node>
	<node id="-95926" lat="62.2041416698" lon="11.5025222262">
		<tag k="name" v="Koiepermyra" />
		<tag k="natural" v="wetland" />
		<tag k="ssr:stedsnr" v="904793" />
	</node>
	<node id="-93877" lat="62.427516668" lon="10.9993249999">
		<tag k="name" v="Mannstenen" />
		<tag k="natural" v="stone" />
		<tag k="ssr:stedsnr" v="297202" />
	</node>
	<node id="-95918" lat="62.1805611147" lon="11.4344666698">
		<tag k="name" v="Bakarkåsa" />
		<tag k="place" v="locality" />
		<tag k="ssr:stedsnr" v="904758" />
	</node>
	<node id="-95915" lat="62.2527638923" lon="11.4738722306">
		<tag k="name" v="Okshølmyran" />
		<tag k="natural" v="wetland" />
		<tag k="ssr:stedsnr" v="904740" />
	</node>
	<node id="-93866" lat="62.4950972255" lon="10.7626694409">
		<tag k="landuse" v="meadow" />
		<tag k="name" v="Buenget" />
		<tag k="ssr:stedsnr" v="296501" />
	</node>
	<node id="-95912" lat="62.3834805593" lon="10.859638884">
		<tag k="historic" v="shieling" />
		<tag k="name" v="Nordistuvollen" />
		<tag k="place" v="locality" />
		<tag k="ssr:stedsnr" v="904687" />
	</node>
	<node id="-93863" lat="62.4757777806" lon="10.7234222312">
		<tag k="landuse" v="meadow" />
		<tag k="name" v="Persenga" />
		<tag k="ssr:stedsnr" v="296228" />
	</node>
	<node id="-93861" lat="62.4798583355" lon="10.7257666715">
		<tag k="historic" v="shieling" />
		<tag k="name" v="Fjellrovollen" />
		<tag k="place" v="locality" />
		<tag k="ssr:stedsnr" v="296216" />
	</node>
	<node id="-93860" lat="62.4481361083" lon="10.7646388853">
		<tag k="name" v="Storenget" />
		<tag k="place" v="locality" />
		<tag k="ssr:stedsnr" v="419350" />
	</node>
	<node id="-95907" lat="62.2920694479" lon="11.3160083277">
		<tag k="name" v="Robekkmyran" />
		<tag k="natural" v="wetland" />
		<tag k="ssr:stedsnr" v="904616" />
	</node>
	<node id="-95903" lat="62.4120250044" lon="11.186652774">
		<tag k="name" v="Øvensenget" />
		<tag k="place" v="locality" />
		<tag k="ssr:stedsnr" v="904566" />
	</node>
	<node id="-93854" lat="62.2199416695" lon="11.0340000014">
		<tag k="name" v="Trettbekkfloen" />
		<tag k="natural" v="wetland" />
		<tag k="ssr:stedsnr" v="295149" />
	</node>
	<node id="-93852" lat="62.4145333295" lon="10.7625388962">
		<tag k="name" v="Persvollen" />
		<tag k="place" v="locality" />
		<tag k="ssr:stedsnr" v="294257" />
	</node>
	<node id="-93850" lat="62.4270749982" lon="10.653252778">
		<tag k="name" v="Fjerdingslåtten" />
		<tag k="place" v="locality" />
		<tag k="ssr:stedsnr" v="294047" />
	</node>
	<node id="-95897" lat="62.444275001" lon="10.7298499995">
		<tag k="name" v="Båvolvollan" />
		<tag k="place" v="locality" />
		<tag k="ssr:stedsnr" v="904346" />
	</node>
	<node id="-93848" lat="62.4134916708" lon="10.6752416715">
		<tag k="name" v="Tølleslåtten" />
		<tag k="natural" v="wetland" />
		<tag k="ssr:stedsnr" v="294002" />
	</node>
	<node id="-95895" lat="62.4671444409" lon="10.5982916705">
		<tag k="landuse" v="meadow" />
		<tag k="name" v="Frisenga" />
		<tag k="ssr:stedsnr" v="904338" />
	</node>
	<node id="-95887" lat="62.4595861137" lon="10.7626972263">
		<tag k="landuse" v="meadow" />
		<tag k="name" v="Tøllefsslått" />
		<tag k="ssr:stedsnr" v="904317" />
	</node>
	<node id="-95886" lat="62.2567500038" lon="11.0843833258">
		<tag k="name" v="Storkjærren" />
		<tag k="place" v="locality" />
		<tag k="ssr:stedsnr" v="904303" />
	</node>
	<node id="-95878" lat="62.4508166645" lon="10.7698916708">
		<tag k="name" v="Skrivarbakken" />
		<tag k="place" v="locality" />
		<tag k="ssr:stedsnr" v="903986" />
	</node>
	<node id="-95876" lat="62.4231055597" lon="10.8132194534">
		<tag k="name" v="Eggvetlkåsa" />
		<tag k="place" v="locality" />
		<tag k="ssr:stedsnr" v="903613" />
	</node>
	<node id="-95875" lat="62.4290805532" lon="10.8005194421">
		<tag k="historic" v="shieling" />
		<tag k="name" v="Gammelvangen" />
		<tag k="place" v="locality" />
		<tag k="ssr:stedsnr" v="903612" />
	</node>
	<node id="-95873" lat="62.4622916686" lon="10.7925833388">
		<tag k="historic" v="shieling" />
		<tag k="name" v="Gardsvollen" />
		<tag k="place" v="locality" />
		<tag k="ssr:stedsnr" v="903534" />
	</node>
	<node id="-95870" lat="62.3483333307" lon="10.8781861072">
		<tag k="name" v="Nedre Follstadtrøa" />
		<tag k="place" v="locality" />
		<tag k="ssr:stedsnr" v="902275" />
	</node>
	<node id="-95866" lat="62.4134000044" lon="10.7093722257">
		<tag k="historic" v="shieling" />
		<tag k="name" v="Grubbvollen" />
		<tag k="place" v="locality" />
		<tag k="ssr:stedsnr" v="901016" />
	</node>
	<node id="-95865" lat="62.4022722209" lon="10.6906555465">
		<tag k="name" v="Mostukåsa" />
		<tag k="place" v="locality" />
		<tag k="ssr:stedsnr" v="901005" />
	</node>
	<node id="-95836" lat="62.4254055597" lon="10.8976111071">
		<tag k="name" v="Stormyra" />
		<tag k="natural" v="wetland" />
		<tag k="ssr:stedsnr" v="861095" />
	</node>
	<node id="-95814" lat="62.2481722241" lon="11.4722361195">
		<tag k="name" v="Halvtakmyra" />
		<tag k="natural" v="wetland" />
		<tag k="ssr:stedsnr" v="844799" />
	</node>
	<node id="-95812" lat="62.3908222244" lon="10.9360972217">
		<tag k="name" v="Høyåsmyran" />
		<tag k="natural" v="wetland" />
		<tag k="ssr:stedsnr" v="844790" />
	</node>
	<node id="-95806" lat="62.375211113" lon="10.8481833258">
		<tag k="name" v="Tjønnvangen" />
		<tag k="place" v="locality" />
		<tag k="ssr:stedsnr" v="844730" />
	</node>
	<node id="-95805" lat="62.3914972191" lon="10.866019436">
		<tag k="landuse" v="meadow" />
		<tag k="name" v="Trøenget" />
		<tag k="ssr:stedsnr" v="844728" />
	</node>
	<node id="-95804" lat="62.3871500044" lon="11.2529388955">
		<tag k="landuse" v="meadow" />
		<tag k="name" v="Øver Kåsan" />
		<tag k="ssr:stedsnr" v="844722" />
	</node>
	<node id="-95801" lat="62.3004083332" lon="11.4072500008">
		<tag k="name" v="Gammelvollmyran" />
		<tag k="natural" v="wetland" />
		<tag k="ssr:stedsnr" v="844703" />
	</node>
	<node id="-95796" lat="62.3115305519" lon="11.2499444525">
		<tag k="historic" v="shieling" />
		<tag k="name" v="Bruvollen" />
		<tag k="place" v="locality" />
		<tag k="ssr:stedsnr" v="844672" />
	</node>
	<node id="-95794" lat="62.414602781" lon="11.1837111145">
		<tag k="name" v="Snekkarenget" />
		<tag k="place" v="locality" />
		<tag k="ssr:stedsnr" v="844618" />
	</node>
	<node id="-95792" lat="62.3973083366" lon="11.1537249969">
		<tag k="name" v="Vesltjønnenget" />
		<tag k="place" v="locality" />
		<tag k="ssr:stedsnr" v="844598" />
	</node>
	<node id="-95790" lat="62.4412611106" lon="10.7273305465">
		<tag k="name" v="Persbåvolvollen" />
		<tag k="place" v="locality" />
		<tag k="ssr:stedsnr" v="844341" />
	</node>
	<node id="-95785" lat="62.2671333303" lon="11.4632749975">
		<tag k="name" v="Stabbestøe" />
		<tag k="place" v="locality" />
		<tag k="ssr:stedsnr" v="844274" />
	</node>
	<node id="-95784" lat="62.4018611122" lon="11.0831194496">
		<tag k="name" v="Granrøsta" />
		<tag k="place" v="locality" />
		<tag k="ssr:stedsnr" v="844268" />
	</node>
	<node id="-95782" lat="62.4298611104" lon="11.0557583287">
		<tag k="name" v="Karøsta" />
		<tag k="place" v="locality" />
		<tag k="ssr:stedsnr" v="844186" />
	</node>
	<node id="-95781" lat="62.1897777766" lon="11.4960444538">
		<tag k="name" v="Smørbekkfloen" />
		<tag k="natural" v="wetland" />
		<tag k="ssr:stedsnr" v="843997" />
	</node>
	<node id="-95780" lat="62.1714027741" lon="11.5330972222">
		<tag k="landuse" v="meadow" />
		<tag k="name" v="Langsjølåttan" />
		<tag k="ssr:stedsnr" v="843982" />
	</node>
	<node id="-95779" lat="62.198919449" lon="11.4581833304">
		<tag k="landuse" v="meadow" />
		<tag k="name" v="Jamtenga" />
		<tag k="ssr:stedsnr" v="843981" />
	</node>
	<node id="-95777" lat="62.4977555583" lon="10.7994777774">
		<tag k="name" v="Gjortmyra" />
		<tag k="natural" v="wetland" />
		<tag k="ssr:stedsnr" v="843952" />
	</node>
	<node id="-95776" lat="62.2059722205" lon="11.5383666722">
		<tag k="name" v="Storfloen" />
		<tag k="natural" v="wetland" />
		<tag k="ssr:stedsnr" v="843930" />
	</node>
	<node id="-95775" lat="62.4760277822" lon="10.8640611017">
		<tag k="historic" v="shieling" />
		<tag k="name" v="Haugsvollen" />
		<tag k="place" v="locality" />
		<tag k="ssr:stedsnr" v="843925" />
	</node>
	<node id="-95773" lat="62.4422305539" lon="10.9273055559">
		<tag k="name" v="Vintervegrya" />
		<tag k="natural" v="wetland" />
		<tag k="ssr:stedsnr" v="843889" />
	</node>
	<node id="-95772" lat="62.433908337" lon="10.8899972211">
		<tag k="name" v="Bankmyra" />
		<tag k="place" v="locality" />
		<tag k="ssr:stedsnr" v="843861" />
	</node>
	<node id="-95771" lat="62.4183805527" lon="10.9513277833">
		<tag k="name" v="Langkloppfloen" />
		<tag k="natural" v="wetland" />
		<tag k="ssr:stedsnr" v="843841" />
	</node>
	<node id="-95768" lat="62.3508416695" lon="11.2834583415">
		<tag k="landuse" v="meadow" />
		<tag k="name" v="Rabbenget" />
		<tag k="ssr:stedsnr" v="843757" />
	</node>
	<node id="-95765" lat="62.4801694402" lon="10.8380777836">
		<tag k="landuse" v="meadow" />
		<tag k="name" v="Fætten" />
		<tag k="ssr:stedsnr" v="843567" />
	</node>
	<node id="-95763" lat="62.4720305581" lon="10.8389194394">
		<tag k="name" v="Stormyra" />
		<tag k="natural" v="wetland" />
		<tag k="ssr:stedsnr" v="843559" />
	</node>
	<node id="-95758" lat="62.3737388891" lon="11.19711112">
		<tag k="name" v="Langmyra" />
		<tag k="natural" v="wetland" />
		<tag k="ssr:stedsnr" v="843468" />
	</node>
	<node id="-95752" lat="62.4353305597" lon="10.9766083415">
		<tag k="name" v="Vintermyra" />
		<tag k="natural" v="wetland" />
		<tag k="ssr:stedsnr" v="843180" />
	</node>
	<node id="-95747" lat="62.429775002" lon="11.0384305535">
		<tag k="name" v="Langmyra" />
		<tag k="natural" v="wetland" />
		<tag k="ssr:stedsnr" v="843123" />
	</node>
	<node id="-95743" lat="62.4625722205" lon="10.7683027707">
		<tag k="name" v="Åshaugslått" />
		<tag k="place" v="locality" />
		<tag k="ssr:stedsnr" v="842509" />
	</node>
	<node id="-95738" lat="62.436250001" lon="10.6452750092">
		<tag k="historic" v="shieling" />
		<tag k="name" v="Gjersætra" />
		<tag k="place" v="locality" />
		<tag k="ssr:stedsnr" v="841059" />
	</node>
	<node id="-95736" lat="62.4160694464" lon="10.6863055544">
		<tag k="name" v="Nordistuslåtten" />
		<tag k="natural" v="wetland" />
		<tag k="ssr:stedsnr" v="841012" />
	</node>
	<node id="-95672" lat="62.3604444466" lon="11.2292888822">
		<tag k="name" v="Måssåmyra" />
		<tag k="natural" v="wetland" />
		<tag k="ssr:stedsnr" v="783714" />
	</node>
	<node id="-95671" lat="62.3658138905" lon="11.2238749984">
		<tag k="name" v="Stormyra" />
		<tag k="place" v="locality" />
		<tag k="ssr:stedsnr" v="783715" />
	</node>
	<node id="-95669" lat="62.4152694442" lon="10.8864666659">
		<tag k="name" v="Beggtjønnmyran" />
		<tag k="natural" v="wetland" />
		<tag k="ssr:stedsnr" v="783698" />
	</node>
	<node id="-95659" lat="62.4143111114" lon="11.1873249946">
		<tag k="name" v="Langkåsenget" />
		<tag k="place" v="locality" />
		<tag k="ssr:stedsnr" v="783596" />
	</node>
	<node id="-95657" lat="62.4327750021" lon="11.1051777736">
		<tag k="name" v="Småvollan" />
		<tag k="place" v="locality" />
		<tag k="ssr:stedsnr" v="783516" />
	</node>
	<node id="-95650" lat="62.3742555518" lon="11.0377666692">
		<tag k="name" v="Måssåbufloen" />
		<tag k="natural" v="wetland" />
		<tag k="ssr:stedsnr" v="783312" />
	</node>
	<node id="-95649" lat="62.2592999998" lon="11.0731166629">
		<tag k="landuse" v="meadow" />
		<tag k="name" v="Strypenget" />
		<tag k="ssr:stedsnr" v="783291" />
	</node>
	<node id="-95645" lat="62.2671444472" lon="11.4578638835">
		<tag k="name" v="Kuhølen" />
		<tag k="natural" v="wetland" />
		<tag k="ssr:stedsnr" v="783266" />
	</node>
	<node id="-95637" lat="62.195933335" lon="11.4267611141">
		<tag k="name" v="Veslehesja" />
		<tag k="place" v="locality" />
		<tag k="ssr:stedsnr" v="782828" />
	</node>
	<node id="-95635" lat="62.4445888883" lon="10.8729750047">
		<tag k="landuse" v="quarry" />
		<tag k="name" v="Gammelgruva" />
		<tag k="ssr:stedsnr" v="782825" />
	</node>
	<node id="-95634" lat="62.4278027777" lon="10.9332638817">
		<tag k="name" v="Engemyra" />
		<tag k="natural" v="wetland" />
		<tag k="ssr:stedsnr" v="782794" />
	</node>
	<node id="-95633" lat="62.3502499998" lon="11.3180472223">
		<tag k="name" v="Svartåsfloan" />
		<tag k="natural" v="wetland" />
		<tag k="ssr:stedsnr" v="782699" />
	</node>
	<node id="-95632" lat="62.3232055587" lon="11.3626111151">
		<tag k="name" v="Eidsengan" />
		<tag k="place" v="locality" />
		<tag k="ssr:stedsnr" v="782627" />
	</node>
	<node id="-95623" lat="62.4941388854" lon="10.7535694374">
		<tag k="name" v="Storfloen" />
		<tag k="natural" v="wetland" />
		<tag k="ssr:stedsnr" v="782497" />
	</node>
	<node id="-95621" lat="62.4309111099" lon="10.6603666573">
		<tag k="name" v="Persgjerenga" />
		<tag k="place" v="locality" />
		<tag k="ssr:stedsnr" v="782313" />
	</node>
	<node id="-95620" lat="62.4261916694" lon="10.6904361033">
		<tag k="historic" v="shieling" />
		<tag k="name" v="Nyhusveslevangan" />
		<tag k="place" v="locality" />
		<tag k="ssr:stedsnr" v="782309" />
	</node>
	<node id="-95619" lat="62.3605722263" lon="11.0529583296">
		<tag k="name" v="Gammelrabbfloan" />
		<tag k="natural" v="wetland" />
		<tag k="ssr:stedsnr" v="782301" />
	</node>
	<node id="-95617" lat="62.4578583334" lon="10.7416722189">
		<tag k="landuse" v="meadow" />
		<tag k="name" v="Storbakken" />
		<tag k="ssr:stedsnr" v="782294" />
	</node>
	<node id="-95614" lat="62.4358749965" lon="10.9675138838">
		<tag k="name" v="Jamtgjeltan" />
		<tag k="place" v="locality" />
		<tag k="ssr:stedsnr" v="782152" />
	</node>
	<node id="-95608" lat="62.4627527759" lon="10.754813893">
		<tag k="name" v="Storhaugslått" />
		<tag k="place" v="locality" />
		<tag k="ssr:stedsnr" v="781269" />
	</node>
	<node id="-95607" lat="62.4777777764" lon="10.7338333341">
		<tag k="name" v="Øster Moslått" />
		<tag k="place" v="locality" />
		<tag k="ssr:stedsnr" v="781253" />
	</node>
	<node id="-95603" lat="62.4126027741" lon="10.7269388935">
		<tag k="name" v="Rønningsenga" />
		<tag k="place" v="locality" />
		<tag k="ssr:stedsnr" v="780255" />
	</node>
	<node id="-95601" lat="62.4320638856" lon="10.6503166704">
		<tag k="name" v="Rønningsenga" />
		<tag k="place" v="locality" />
		<tag k="ssr:stedsnr" v="780059" />
	</node>
	<node id="-95594" lat="62.4232888903" lon="11.1009805526">
		<tag k="name" v="Jervåsmoen" />
		<tag k="place" v="locality" />
		<tag k="ssr:stedsnr" v="756790" />
	</node>
	<node id="-95570" lat="62.3041111072" lon="11.4182666699">
		<tag k="name" v="Kåsmyra" />
		<tag k="natural" v="wetland" />
		<tag k="ssr:stedsnr" v="739495" />
	</node>
	<node id="-95557" lat="62.3614833362" lon="11.2304888949">
		<tag k="name" v="Måssåmyra" />
		<tag k="natural" v="wetland" />
		<tag k="ssr:stedsnr" v="739412" />
	</node>
	<node id="-95543" lat="62.4689500041" lon="10.8528805645">
		<tag k="historic" v="shieling" />
		<tag k="name" v="Mussmørenga" />
		<tag k="place" v="locality" />
		<tag k="ssr:stedsnr" v="722932" />
	</node>
	<node id="-95542" lat="62.474163886" lon="10.9611222263">
		<tag k="historic" v="shieling" />
		<tag k="name" v="Jensjovollen" />
		<tag k="place" v="locality" />
		<tag k="ssr:stedsnr" v="722891" />
	</node>
	<node id="-95541" lat="62.4639972264" lon="10.915399994">
		<tag k="historic" v="shieling" />
		<tag k="name" v="Simasvollen" />
		<tag k="place" v="locality" />
		<tag k="ssr:stedsnr" v="722887" />
	</node>
	<node id="-95540" lat="62.2178750041" lon="11.4033388903">
		<tag k="name" v="Krokøyodden" />
		<tag k="place" v="locality" />
		<tag k="ssr:stedsnr" v="722882" />
	</node>
	<node id="-95536" lat="62.4530527751" lon="10.9612611105">
		<tag k="name" v="Småmyran" />
		<tag k="natural" v="wetland" />
		<tag k="ssr:stedsnr" v="722906" />
	</node>
	<node id="-95531" lat="62.2884694461" lon="11.3531805569">
		<tag k="name" v="Langkåsmyran" />
		<tag k="natural" v="wetland" />
		<tag k="ssr:stedsnr" v="722696" />
	</node>
	<node id="-95526" lat="62.3105333322" lon="11.2154333318">
		<tag k="name" v="Rugkåsfloen" />
		<tag k="natural" v="wetland" />
		<tag k="ssr:stedsnr" v="722666" />
	</node>
	<node id="-95518" lat="62.4490583308" lon="10.7658027692">
		<tag k="landuse" v="meadow" />
		<tag k="name" v="Åshaugslått" />
		<tag k="ssr:stedsnr" v="722358" />
	</node>
	<node id="-95516" lat="62.4252694444" lon="10.743916675">
		<tag k="name" v="Pålsslått" />
		<tag k="place" v="locality" />
		<tag k="ssr:stedsnr" v="722341" />
	</node>
	<node id="-95503" lat="62.4564638892" lon="10.926258326">
		<tag k="name" v="Olafloen" />
		<tag k="natural" v="wetland" />
		<tag k="ssr:stedsnr" v="721878" />
	</node>
	<node id="-95488" lat="62.4378638868" lon="10.799824991">
		<tag k="name" v="Storkåsa" />
		<tag k="place" v="locality" />
		<tag k="ssr:stedsnr" v="721614" />
	</node>
	<node id="-95483" lat="62.4459444423" lon="10.7924083301">
		<tag k="name" v="Storslette" />
		<tag k="place" v="locality" />
		<tag k="ssr:stedsnr" v="721588" />
	</node>
	<node id="-95482" lat="62.4496472182" lon="10.7807194531">
		<tag k="historic" v="shieling" />
		<tag k="name" v="Persvollen" />
		<tag k="place" v="locality" />
		<tag k="ssr:stedsnr" v="721585" />
	</node>
	<node id="-95481" lat="62.4412249988" lon="10.7936194413">
		<tag k="historic" v="shieling" />
		<tag k="name" v="Engevollen" />
		<tag k="place" v="locality" />
		<tag k="ssr:stedsnr" v="721584" />
	</node>
	<node id="-95478" lat="62.3719194463" lon="11.1831722215">
		<tag k="name" v="Kvenntrømyra" />
		<tag k="natural" v="wetland" />
		<tag k="ssr:stedsnr" v="721439" />
	</node>
	<node id="-95475" lat="62.2412638903" lon="11.3642555584">
		<tag k="name" v="Oddfloan" />
		<tag k="natural" v="wetland" />
		<tag k="ssr:stedsnr" v="721785" />
	</node>
	<node id="-95473" lat="62.4677166637" lon="10.7519916692">
		<tag k="historic" v="shieling" />
		<tag k="name" v="Jordvollen" />
		<tag k="place" v="locality" />
		<tag k="ssr:stedsnr" v="721246" />
	</node>
	<node id="-95469" lat="62.4647694404" lon="10.9855611176">
		<tag k="name" v="Stenkåsa" />
		<tag k="place" v="locality" />
		<tag k="ssr:stedsnr" v="721038" />
	</node>
	<node id="-95461" lat="62.2159805582" lon="11.0318638832">
		<tag k="name" v="Granslette" />
		<tag k="place" v="locality" />
		<tag k="ssr:stedsnr" v="720161" />
	</node>
	<node id="-95460" lat="62.4796111147" lon="10.5828999912">
		<tag k="name" v="Gammelstuenget" />
		<tag k="place" v="locality" />
		<tag k="ssr:stedsnr" v="719326" />
	</node>
	<node id="-95457" lat="62.408788892" lon="10.7260472317">
		<tag k="name" v="Storrya" />
		<tag k="place" v="locality" />
		<tag k="ssr:stedsnr" v="719262" />
	</node>
	<node id="-95456" lat="62.4129083337" lon="10.7202055622">
		<tag k="name" v="Gammelvangenget" />
		<tag k="place" v="locality" />
		<tag k="ssr:stedsnr" v="719261" />
	</node>
	<node id="-95455" lat="62.3871749994" lon="10.8318777713">
		<tag k="name" v="Stenenget" />
		<tag k="place" v="locality" />
		<tag k="ssr:stedsnr" v="719206" />
	</node>
	<node id="-95454" lat="62.4342638927" lon="10.6252027848">
		<tag k="name" v="Åkerbuvollen" />
		<tag k="place" v="locality" />
		<tag k="ssr:stedsnr" v="719037" />
	</node>
	<node id="-95450" lat="62.4441694456" lon="10.7395333247">
		<tag k="name" v="Storfloen" />
		<tag k="natural" v="wetland" />
		<tag k="ssr:stedsnr" v="692639" />
	</node>
	<node id="-95436" lat="62.3781833312" lon="11.2397388897">
		<tag k="name" v="Gjeltfloen" />
		<tag k="natural" v="wetland" />
		<tag k="ssr:stedsnr" v="679396" />
	</node>
	<node id="-95404" lat="62.1734805585" lon="11.6261500079">
		<tag k="name" v="Nyvollfloen" />
		<tag k="natural" v="wetland" />
		<tag k="ssr:stedsnr" v="678501" />
	</node>
	<node id="-95392" lat="62.4538916637" lon="10.9462166639">
		<tag k="name" v="Hansmortenmyran" />
		<tag k="natural" v="wetland" />
		<tag k="ssr:stedsnr" v="661900" />
	</node>
	<node id="-95385" lat="62.4196500021" lon="10.9258916613">
		<tag k="name" v="Nygjelta" />
		<tag k="place" v="locality" />
		<tag k="ssr:stedsnr" v="661806" />
	</node>
	<node id="-95384" lat="62.2464333365" lon="11.4002694531">
		<tag k="name" v="Gjerdinga" />
		<tag k="place" v="locality" />
		<tag k="ssr:stedsnr" v="661797" />
	</node>
	<node id="-95380" lat="62.3753388914" lon="10.9454916685">
		<tag k="name" v="Blestermyra" />
		<tag k="place" v="locality" />
		<tag k="ssr:stedsnr" v="661777" />
	</node>
	<node id="-95379" lat="62.3821444404" lon="10.9431083419">
		<tag k="name" v="Eidsåkran" />
		<tag k="place" v="locality" />
		<tag k="ssr:stedsnr" v="661773" />
	</node>
	<node id="-95378" lat="62.2062166706" lon="11.4878361066">
		<tag k="name" v="Rundmyra" />
		<tag k="natural" v="wetland" />
		<tag k="ssr:stedsnr" v="661772" />
	</node>
	<node id="-95377" lat="62.3805388926" lon="10.9128111073">
		<tag k="name" v="Stormyra" />
		<tag k="natural" v="wetland" />
		<tag k="ssr:stedsnr" v="661768" />
	</node>
	<node id="-95374" lat="62.3590305559" lon="10.860222213">
		<tag k="name" v="Veslebekkmyran" />
		<tag k="natural" v="wetland" />
		<tag k="ssr:stedsnr" v="661750" />
	</node>
	<node id="-95085" lat="62.4755416631" lon="10.8656861071">
		<tag k="historic" v="shieling" />
		<tag k="name" v="Simasvollen" />
		<tag k="place" v="locality" />
		<tag k="ssr:stedsnr" v="539923" />
	</node>
	<node id="-95370" lat="62.4435555569" lon="11.1169555585">
		<tag k="name" v="Hummelmyra" />
		<tag k="natural" v="wetland" />
		<tag k="ssr:stedsnr" v="661684" />
	</node>
	<node id="-95368" lat="62.4113083292" lon="10.8737944355">
		<tag k="name" v="Hjertmoen" />
		<tag k="place" v="locality" />
		<tag k="ssr:stedsnr" v="661656" />
	</node>
	<node id="-95366" lat="62.4118166635" lon="10.7812638948">
		<tag k="name" v="Størrmyra" />
		<tag k="natural" v="wetland" />
		<tag k="ssr:stedsnr" v="661631" />
	</node>
	<node id="-95360" lat="62.4451833334" lon="10.7613805476">
		<tag k="name" v="Lonfættmyra" />
		<tag k="natural" v="wetland" />
		<tag k="ssr:stedsnr" v="661335" />
	</node>
	<node id="-95359" lat="62.3848666677" lon="10.9775138838">
		<tag k="name" v="Granrøsta" />
		<tag k="place" v="locality" />
		<tag k="ssr:stedsnr" v="661327" />
	</node>
	<node id="-95358" lat="62.4354638859" lon="10.7374749999">
		<tag k="name" v="Vangsbåvolvollen" />
		<tag k="place" v="locality" />
		<tag k="ssr:stedsnr" v="661315" />
	</node>
	<node id="-95356" lat="62.3700305515" lon="10.9659499982">
		<tag k="historic" v="shieling" />
		<tag k="name" v="Bergevollen" />
		<tag k="place" v="locality" />
		<tag k="ssr:stedsnr" v="661308" />
	</node>
	<node id="-95354" lat="62.458005552" lon="10.7609527766">
		<tag k="landuse" v="meadow" />
		<tag k="name" v="Åshaugslått" />
		<tag k="ssr:stedsnr" v="661295" />
	</node>
	<node id="-95353" lat="62.4557305572" lon="10.7363250041">
		<tag k="landuse" v="meadow" />
		<tag k="name" v="Simaenget" />
		<tag k="ssr:stedsnr" v="661289" />
	</node>
	<node id="-95351" lat="62.2478611092" lon="11.0699611098">
		<tag k="landuse" v="meadow" />
		<tag k="name" v="Stabbstøenget" />
		<tag k="ssr:stedsnr" v="661284" />
	</node>
	<node id="-95346" lat="62.1988416686" lon="11.4727027777">
		<tag k="landuse" v="meadow" />
		<tag k="name" v="Øversjøenget" />
		<tag k="ssr:stedsnr" v="660988" />
	</node>
	<node id="-95345" lat="62.1932444424" lon="11.5098083262">
		<tag k="landuse" v="meadow" />
		<tag k="name" v="Smørbekkengan" />
		<tag k="ssr:stedsnr" v="660982" />
	</node>
	<node id="-95341" lat="62.4323138894" lon="10.8805805643">
		<tag k="name" v="Heggrøsta" />
		<tag k="place" v="locality" />
		<tag k="ssr:stedsnr" v="660832" />
	</node>
	<node id="-95333" lat="62.4542250046" lon="10.834877769">
		<tag k="name" v="Slåbakkslått" />
		<tag k="place" v="locality" />
		<tag k="ssr:stedsnr" v="660580" />
	</node>
	<node id="-95330" lat="62.4663611136" lon="10.7588694353">
		<tag k="name" v="Fremmer Moslått" />
		<tag k="place" v="locality" />
		<tag k="ssr:stedsnr" v="660527" />
	</node>
	<node id="-95326" lat="62.3451166678" lon="11.1868333305">
		<tag k="name" v="Myra" />
		<tag k="place" v="locality" />
		<tag k="ssr:stedsnr" v="660421" />
	</node>
	<node id="-95323" lat="62.4749055522" lon="10.7217722135">
		<tag k="landuse" v="meadow" />
		<tag k="name" v="Blaenget" />
		<tag k="ssr:stedsnr" v="660263" />
	</node>
	<node id="-95315" lat="62.4619250023" lon="10.9867194396">
		<tag k="name" v="Mofloen" />
		<tag k="natural" v="wetland" />
		<tag k="ssr:stedsnr" v="660054" />
	</node>
	<node id="-95310" lat="62.3823666699" lon="10.8175777725">
		<tag k="name" v="Slettenget" />
		<tag k="place" v="locality" />
		<tag k="ssr:stedsnr" v="658223" />
	</node>
	<node id="-95262" lat="62.4910222189" lon="10.8311166572">
		<tag k="landuse" v="meadow" />
		<tag k="name" v="Smeåsenga" />
		<tag k="ssr:stedsnr" v="600948" />
	</node>
	<node id="-95258" lat="62.4574861085" lon="10.9497888971">
		<tag k="name" v="Pålsolamyra" />
		<tag k="natural" v="wetland" />
		<tag k="ssr:stedsnr" v="600898" />
	</node>
	<node id="-95255" lat="62.2739583378" lon="11.4558916666">
		<tag k="name" v="Floen" />
		<tag k="natural" v="wetland" />
		<tag k="ssr:stedsnr" v="600886" />
	</node>
	<node id="-95248" lat="62.4061083363" lon="10.9607888807">
		<tag k="name" v="Gørrfloen" />
		<tag k="natural" v="wetland" />
		<tag k="ssr:stedsnr" v="600820" />
	</node>
	<node id="-95247" lat="62.4178388852" lon="10.9593166719">
		<tag k="name" v="Slåbakken" />
		<tag k="place" v="locality" />
		<tag k="ssr:stedsnr" v="600816" />
	</node>
	<node id="-95244" lat="62.2401555592" lon="11.3656000072">
		<tag k="name" v="Oddan" />
		<tag k="place" v="locality" />
		<tag k="ssr:stedsnr" v="600806" />
	</node>
	<node id="-95237" lat="62.3611000014" lon="10.8805111157">
		<tag k="name" v="Såttån" />
		<tag k="place" v="locality" />
		<tag k="ssr:stedsnr" v="600753" />
	</node>
	<node id="-95234" lat="62.3790916705" lon="11.2286972143">
		<tag k="name" v="Gråbensundet" />
		<tag k="natural" v="wetland" />
		<tag k="ssr:stedsnr" v="600694" />
	</node>
	<node id="-95224" lat="62.290272219" lon="11.3059138819">
		<tag k="name" v="Bormyran" />
		<tag k="natural" v="wetland" />
		<tag k="ssr:stedsnr" v="600612" />
	</node>
	<node id="-95219" lat="62.3703499972" lon="11.1059444492">
		<tag k="historic" v="shieling" />
		<tag k="name" v="Klettvollen" />
		<tag k="place" v="locality" />
		<tag k="ssr:stedsnr" v="600424" />
	</node>
	<node id="-95218" lat="62.3703499989" lon="11.1832833408">
		<tag k="name" v="Malmtakmyra" />
		<tag k="natural" v="wetland" />
		<tag k="ssr:stedsnr" v="600414" />
	</node>
	<node id="-95211" lat="62.3812527751" lon="11.0086972139">
		<tag k="name" v="Hammerkåsa" />
		<tag k="place" v="locality" />
		<tag k="ssr:stedsnr" v="600332" />
	</node>
	<node id="-95209" lat="62.3767055588" lon="11.0255999998">
		<tag k="name" v="Svartåsfloen" />
		<tag k="natural" v="wetland" />
		<tag k="ssr:stedsnr" v="600328" />
	</node>
	<node id="-95208" lat="62.4241027795" lon="10.6952583393">
		<tag k="alt_name" v="Oustutrøveslevangan" />
		<tag k="historic" v="shieling" />
		<tag k="name" v="Austutrøveslevangan" />
		<tag k="place" v="locality" />
		<tag k="ssr:stedsnr" v="600326" />
	</node>
	<node id="-95205" lat="62.4568861072" lon="10.758527781">
		<tag k="landuse" v="meadow" />
		<tag k="name" v="Gammelvangenget" />
		<tag k="ssr:stedsnr" v="600306" />
	</node>
	<node id="-95201" lat="62.416977782" lon="11.0770916765">
		<tag k="name" v="Stevollen" />
		<tag k="place" v="locality" />
		<tag k="ssr:stedsnr" v="600209" />
	</node>
	<node id="-95199" lat="62.4187416649" lon="10.9904777841">
		<tag k="name" v="Rabben" />
		<tag k="place" v="locality" />
		<tag k="ssr:stedsnr" v="600194" />
	</node>
	<node id="-95192" lat="62.477547218" lon="11.000216674">
		<tag k="name" v="Røstengan" />
		<tag k="place" v="locality" />
		<tag k="ssr:stedsnr" v="600050" />
	</node>
	<node id="-95187" lat="62.4295916662" lon="10.8013916626">
		<tag k="name" v="Nyhusvollen" />
		<tag k="place" v="locality" />
		<tag k="ssr:stedsnr" v="599638" />
	</node>
	<node id="-95182" lat="62.4645999967" lon="10.7633638863">
		<tag k="historic" v="shieling" />
		<tag k="name" v="Rakkestad" />
		<tag k="place" v="locality" />
		<tag k="ssr:stedsnr" v="599519" />
	</node>
	<node id="-95175" lat="62.3933059641" lon="10.7406255657">
		<tag k="name" v="Tollefshagenvollen" />
		<tag k="place" v="locality" />
		<tag k="ssr:stedsnr" v="597281" />
	</node>
	<node id="-95130" lat="62.4567250025" lon="10.9647972294">
		<tag k="historic" v="shieling" />
		<tag k="name" v="Felvollen" />
		<tag k="place" v="locality" />
		<tag k="ssr:stedsnr" v="540890" />
	</node>
	<node id="-95107" lat="62.3534388891" lon="11.2623055499">
		<tag k="name" v="Storbekkfloen" />
		<tag k="natural" v="wetland" />
		<tag k="ssr:stedsnr" v="540696" />
	</node>
	<node id="-95094" lat="62.2507861123" lon="11.0730944534">
		<tag k="landuse" v="meadow" />
		<tag k="name" v="Veslekåsa" />
		<tag k="ssr:stedsnr" v="540300" />
	</node>
	<node id="-95092" lat="62.403524996" lon="10.9751194474">
		<tag k="name" v="Bergeåkeren" />
		<tag k="place" v="locality" />
		<tag k="ssr:stedsnr" v="540261" />
	</node>
	<node id="-95086" lat="62.1839305514" lon="11.6311138792">
		<tag k="landuse" v="meadow" />
		<tag k="name" v="Fjelløenget" />
		<tag k="ssr:stedsnr" v="539969" />
	</node>
	<node id="-96061" lat="62.4005277786" lon="10.8855750013">
		<tag k="name" v="Brenna" />
		<tag k="place" v="locality" />
		<tag k="ssr:stedsnr" v="965700" />
	</node>
	<node id="-95084" lat="62.1976611073" lon="11.4172138955">
		<tag k="name" v="Rundmyra" />
		<tag k="natural" v="wetland" />
		<tag k="ssr:stedsnr" v="539841" />
	</node>
	<node id="-95083" lat="62.4305055546" lon="10.8771250046">
		<tag k="historic" v="shieling" />
		<tag k="name" v="Brøttsætra" />
		<tag k="place" v="locality" />
		<tag k="ssr:stedsnr" v="539833" />
	</node>
	<node id="-95081" lat="62.4216888922" lon="10.9573916592">
		<tag k="name" v="Slåbakkfloen" />
		<tag k="natural" v="wetland" />
		<tag k="ssr:stedsnr" v="539812" />
	</node>
	<node id="-95080" lat="62.2385694491" lon="11.4154055486">
		<tag k="name" v="Svenshammermyra" />
		<tag k="natural" v="wetland" />
		<tag k="ssr:stedsnr" v="539794" />
	</node>
	<node id="-95077" lat="62.3574277788" lon="11.2838138889">
		<tag k="name" v="Gammeltrøomfloen" />
		<tag k="natural" v="wetland" />
		<tag k="ssr:stedsnr" v="539712" />
	</node>
	<node id="-95074" lat="62.4276694451" lon="10.819930557">
		<tag k="name" v="Rabben" />
		<tag k="place" v="locality" />
		<tag k="ssr:stedsnr" v="539622" />
	</node>
	<node id="-95066" lat="62.4299722215" lon="10.8356944525">
		<tag k="landuse" v="meadow" />
		<tag k="name" v="Grønjota" />
		<tag k="ssr:stedsnr" v="539589" />
	</node>
	<node id="-95064" lat="62.4330333349" lon="10.8071111072">
		<tag k="landuse" v="meadow" />
		<tag k="name" v="Nyhusenget" />
		<tag k="ssr:stedsnr" v="539580" />
	</node>
	<node id="-95062" lat="62.4560500025" lon="10.7879972156">
		<tag k="landuse" v="meadow" />
		<tag k="name" v="Rønningsenget" />
		<tag k="ssr:stedsnr" v="539529" />
	</node>
	<node id="-95061" lat="62.4786388847" lon="10.8359583315">
		<tag k="historic" v="shieling" />
		<tag k="name" v="Gamle Nygardsvollen" />
		<tag k="place" v="locality" />
		<tag k="ssr:stedsnr" v="539526" />
	</node>
	<node id="-95060" lat="62.4785611129" lon="10.8316333295">
		<tag k="historic" v="shieling" />
		<tag k="name" v="Gamle Klokkarvollen" />
		<tag k="place" v="locality" />
		<tag k="ssr:stedsnr" v="539522" />
	</node>
	<node id="-95058" lat="62.3939888908" lon="11.2029416741">
		<tag k="name" v="Floenget" />
		<tag k="place" v="locality" />
		<tag k="ssr:stedsnr" v="539384" />
	</node>
	<node id="-95057" lat="62.3853972244" lon="11.2041972231">
		<tag k="name" v="Øver Harrbekkenget" />
		<tag k="place" v="locality" />
		<tag k="ssr:stedsnr" v="539382" />
	</node>
	<node id="-95056" lat="62.4682500011" lon="10.7185749977">
		<tag k="name" v="Hagenslått" />
		<tag k="place" v="locality" />
		<tag k="ssr:stedsnr" v="539221" />
	</node>
	<node id="-95055" lat="62.4685361123" lon="10.7184000071">
		<tag k="landuse" v="meadow" />
		<tag k="name" v="Rabbenget" />
		<tag k="ssr:stedsnr" v="539220" />
	</node>
	<node id="-95051" lat="62.443222219" lon="11.0733944532">
		<tag k="name" v="Tjukkåsmyran" />
		<tag k="natural" v="wetland" />
		<tag k="ssr:stedsnr" v="539131" />
	</node>
	<node id="-95043" lat="62.3519388874" lon="10.8806361164">
		<tag k="landuse" v="meadow" />
		<tag k="name" v="Øvre Follstadtrøa" />
		<tag k="ssr:stedsnr" v="538251" />
	</node>
	<node id="-95039" lat="62.4306611114" lon="10.6448027814">
		<tag k="name" v="Nordistuslåtten" />
		<tag k="place" v="locality" />
		<tag k="ssr:stedsnr" v="537060" />
	</node>
	<node id="-95038" lat="62.4107305555" lon="10.6838944461">
		<tag k="name" v="Moslåtten" />
		<tag k="natural" v="wetland" />
		<tag k="ssr:stedsnr" v="537025" />
	</node>
	<node id="-95033" lat="62.4100583377" lon="11.1418166638">
		<tag k="name" v="Nordfjordmyra" />
		<tag k="natural" v="wetland" />
		<tag k="ssr:stedsnr" v="539403" />
	</node>
	<node id="-95032" lat="62.3570083367" lon="10.9021222201">
		<tag k="name" v="Bjørkvisla" />
		<tag k="place" v="locality" />
		<tag k="ssr:stedsnr" v="510716" />
	</node>
	<node id="-95015" lat="62.3823055539" lon="11.2071638826">
		<tag k="name" v="Harrbekkenget" />
		<tag k="place" v="locality" />
		<tag k="ssr:stedsnr" v="497175" />
	</node>
	<node id="-93864" lat="62.3707666693" lon="11.0441250095">
		<tag k="historic" v="shieling" />
		<tag k="name" v="Måssåbudalen" />
		<tag k="place" v="locality" />
		<tag k="ssr:stedsnr" v="296307" />
	</node>
	<node id="-94997" lat="62.1837638846" lon="11.60155834">
		<tag k="name" v="Kumyra" />
		<tag k="natural" v="wetland" />
		<tag k="ssr:stedsnr" v="496516" />
	</node>
	<node id="-94992" lat="62.3539861115" lon="10.9878222212">
		<tag k="name" v="Storfloen" />
		<tag k="natural" v="wetland" />
		<tag k="ssr:stedsnr" v="496227" />
	</node>
	<node id="-94945" lat="62.2265805581" lon="11.4920055549">
		<tag k="name" v="Vasskåsan" />
		<tag k="natural" v="wetland" />
		<tag k="ssr:stedsnr" v="419795" />
	</node>
	<node id="-94931" lat="62.2629638905" lon="11.4778027809">
		<tag k="name" v="Kåsa" />
		<tag k="place" v="locality" />
		<tag k="ssr:stedsnr" v="419761" />
	</node>
	<node id="-94926" lat="62.3856666632" lon="10.8630138913">
		<tag k="historic" v="shieling" />
		<tag k="name" v="Utistuvollen" />
		<tag k="place" v="locality" />
		<tag k="ssr:stedsnr" v="419721" />
	</node>
	<node id="-94924" lat="62.2936944416" lon="11.3812527844">
		<tag k="historic" v="shieling" />
		<tag k="name" v="Hardvollen" />
		<tag k="place" v="locality" />
		<tag k="ssr:stedsnr" v="419688" />
	</node>
	<node id="-94923" lat="62.2989666701" lon="11.2689027814">
		<tag k="name" v="Stabbstøfloen" />
		<tag k="natural" v="wetland" />
		<tag k="ssr:stedsnr" v="419674" />
	</node>
	<node id="-94922" lat="62.2962861085" lon="11.2521638924">
		<tag k="landuse" v="meadow" />
		<tag k="name" v="Skreengsletta" />
		<tag k="ssr:stedsnr" v="419665" />
	</node>
	<node id="-94913" lat="62.429263893" lon="10.7319555637">
		<tag k="name" v="Oppstuslått" />
		<tag k="place" v="locality" />
		<tag k="ssr:stedsnr" v="419339" />
	</node>
	<node id="-94909" lat="62.255563891" lon="11.067605564">
		<tag k="landuse" v="meadow" />
		<tag k="name" v="Tynsetkåsa" />
		<tag k="ssr:stedsnr" v="419304" />
	</node>
	<node id="-94899" lat="62.4918138877" lon="10.817658332">
		<tag k="landuse" v="meadow" />
		<tag k="name" v="Storkåsa" />
		<tag k="ssr:stedsnr" v="418929" />
	</node>
	<node id="-94897" lat="62.443833329" lon="10.9466250008">
		<tag k="name" v="Toljemyran" />
		<tag k="natural" v="wetland" />
		<tag k="ssr:stedsnr" v="418875" />
	</node>
	<node id="-94896" lat="62.155316665" lon="11.6802277764">
		<tag k="name" v="Bakkvollen" />
		<tag k="place" v="locality" />
		<tag k="ssr:stedsnr" v="418873" />
	</node>
	<node id="-94884" lat="62.4342861104" lon="10.93013333">
		<tag k="name" v="Skuddhammermyra" />
		<tag k="natural" v="wetland" />
		<tag k="ssr:stedsnr" v="418797" />
	</node>
	<node id="-94883" lat="62.3190111107" lon="11.3747888864">
		<tag k="name" v="Galådalsmyran" />
		<tag k="natural" v="wetland" />
		<tag k="ssr:stedsnr" v="418632" />
	</node>
	<node id="-94882" lat="62.3402472227" lon="11.3258388898">
		<tag k="name" v="Holla" />
		<tag k="place" v="locality" />
		<tag k="ssr:stedsnr" v="418617" />
	</node>
	<node id="-94881" lat="62.3337361123" lon="11.2913972317">
		<tag k="landuse" v="meadow" />
		<tag k="name" v="Øver Røsvikenget" />
		<tag k="ssr:stedsnr" v="418618" />
	</node>
	<node id="-94871" lat="62.3533055575" lon="11.0031000004">
		<tag k="historic" v="shieling" />
		<tag k="name" v="Volvollen" />
		<tag k="place" v="locality" />
		<tag k="ssr:stedsnr" v="418320" />
	</node>
	<node id="-94869" lat="62.3632777806" lon="11.0396027858">
		<tag k="historic" v="shieling" />
		<tag k="name" v="Viketrøvollen" />
		<tag k="place" v="locality" />
		<tag k="ssr:stedsnr" v="418313" />
	</node>
	<node id="-94864" lat="62.4678027736" lon="11.0000472295">
		<tag k="name" v="Saurya" />
		<tag k="natural" v="wetland" />
		<tag k="ssr:stedsnr" v="418044" />
	</node>
	<node id="-94861" lat="62.2589416665" lon="11.4411083336">
		<tag k="name" v="Brenna" />
		<tag k="place" v="locality" />
		<tag k="ssr:stedsnr" v="417848" />
	</node>
	<node id="-94860" lat="62.2539833348" lon="11.4065611094">
		<tag k="name" v="Myra" />
		<tag k="place" v="locality" />
		<tag k="ssr:stedsnr" v="417846" />
	</node>
	<node id="-94859" lat="62.4590555536" lon="10.7878666724">
		<tag k="landuse" v="meadow" />
		<tag k="name" v="Vangsenga" />
		<tag k="ssr:stedsnr" v="417599" />
	</node>
	<node id="-94856" lat="62.4760361129" lon="10.7351305489">
		<tag k="alt_name" v="Oustuenga" />
		<tag k="landuse" v="meadow" />
		<tag k="name" v="Austuenga" />
		<tag k="ssr:stedsnr" v="417291" />
	</node>
	<node id="-94855" lat="62.4645999972" lon="10.5825055516">
		<tag k="name" v="Storåsfloen" />
		<tag k="natural" v="wetland" />
		<tag k="ssr:stedsnr" v="416722" />
	</node>
	<node id="-94854" lat="62.4038527801" lon="10.7359888835">
		<tag k="alt_name" v="Oustuvollen" />
		<tag k="historic" v="shieling" />
		<tag k="name" v="Austuvollen" />
		<tag k="place" v="locality" />
		<tag k="ssr:stedsnr" v="416251" />
	</node>
	<node id="-94847" lat="62.1971416702" lon="11.5627361205">
		<tag k="name" v="Toljemyran" />
		<tag k="natural" v="wetland" />
		<tag k="ssr:stedsnr" v="479948" />
	</node>
	<node id="-94843" lat="62.4014055519" lon="10.9392472265">
		<tag k="name" v="Slettan" />
		<tag k="place" v="locality" />
		<tag k="ssr:stedsnr" v="479840" />
	</node>
	<node id="-94839" lat="62.4270555511" lon="10.9628166674">
		<tag k="name" v="Løvlia" />
		<tag k="place" v="locality" />
		<tag k="ssr:stedsnr" v="479817" />
	</node>
	<node id="-94833" lat="62.1909111071" lon="11.4211305602">
		<tag k="name" v="Hesjemyran" />
		<tag k="natural" v="wetland" />
		<tag k="ssr:stedsnr" v="479770" />
	</node>
	<node id="-94832" lat="62.3543166661" lon="10.9277250051">
		<tag k="name" v="Borkgrubban" />
		<tag k="place" v="locality" />
		<tag k="ssr:stedsnr" v="479762" />
	</node>
	<node id="-94829" lat="62.4396277775" lon="11.1065416747">
		<tag k="name" v="Snødrevmyra" />
		<tag k="natural" v="wetland" />
		<tag k="ssr:stedsnr" v="479708" />
	</node>
	<node id="-94780" lat="62.4074000027" lon="11.1089333377">
		<tag k="name" v="Brenna" />
		<tag k="place" v="locality" />
		<tag k="ssr:stedsnr" v="479436" />
	</node>
	<node id="-94777" lat="62.2304833368" lon="11.4792972271">
		<tag k="name" v="Tjønnløbakken" />
		<tag k="place" v="locality" />
		<tag k="ssr:stedsnr" v="237794" />
	</node>
	<node id="-94773" lat="62.3882444473" lon="11.2141972297">
		<tag k="name" v="Bruengmyran" />
		<tag k="natural" v="wetland" />
		<tag k="ssr:stedsnr" v="237735" />
	</node>
	<node id="-94772" lat="62.3672000016" lon="11.2373055624">
		<tag k="name" v="Nylandet" />
		<tag k="place" v="locality" />
		<tag k="ssr:stedsnr" v="237730" />
	</node>
	<node id="-94764" lat="62.4094944404" lon="11.1870388879">
		<tag k="name" v="Dølmoenget" />
		<tag k="place" v="locality" />
		<tag k="ssr:stedsnr" v="237618" />
	</node>
	<node id="-94761" lat="62.2921416645" lon="11.0392749969">
		<tag k="name" v="Ivarkåsa" />
		<tag k="place" v="locality" />
		<tag k="ssr:stedsnr" v="237313" />
	</node>
	<node id="-94760" lat="62.2843777792" lon="11.4737749914">
		<tag k="historic" v="shieling" />
		<tag k="name" v="Sætre" />
		<tag k="place" v="locality" />
		<tag k="ssr:stedsnr" v="237300" />
	</node>
	<node id="-94758" lat="62.4040500043" lon="11.0585055543">
		<tag k="name" v="Vintervegmyra" />
		<tag k="natural" v="wetland" />
		<tag k="ssr:stedsnr" v="237284" />
	</node>
	<node id="-94757" lat="62.4359083349" lon="11.07406388">
		<tag k="name" v="Tjukkåsmyran" />
		<tag k="natural" v="wetland" />
		<tag k="ssr:stedsnr" v="237197" />
	</node>
	<node id="-94756" lat="62.3522138853" lon="11.1895888854">
		<tag k="name" v="Ratet" />
		<tag k="natural" v="wetland" />
		<tag k="ssr:stedsnr" v="237489" />
	</node>
	<node id="-94752" lat="62.4823972179" lon="10.8251527851">
		<tag k="landuse" v="meadow" />
		<tag k="name" v="Veslenget" />
		<tag k="ssr:stedsnr" v="236957" />
	</node>
	<node id="-94748" lat="62.3635527761" lon="10.9372333288">
		<tag k="name" v="Tovrya" />
		<tag k="natural" v="wetland" />
		<tag k="ssr:stedsnr" v="236787" />
	</node>
	<node id="-94743" lat="62.3843055581" lon="10.8605138879">
		<tag k="historic" v="shieling" />
		<tag k="name" v="Høstvollan" />
		<tag k="place" v="locality" />
		<tag k="ssr:stedsnr" v="236673" />
	</node>
	<node id="-94741" lat="62.4174694431" lon="10.7863638909">
		<tag k="name" v="Simamyra" />
		<tag k="natural" v="wetland" />
		<tag k="ssr:stedsnr" v="236586" />
	</node>
	<node id="-94730" lat="62.3940805573" lon="10.9729333264">
		<tag k="name" v="Kåsa" />
		<tag k="place" v="locality" />
		<tag k="ssr:stedsnr" v="236342" />
	</node>
	<node id="-94729" lat="62.4522222242" lon="10.7755888883">
		<tag k="landuse" v="meadow" />
		<tag k="name" v="Vesleenget" />
		<tag k="ssr:stedsnr" v="236339" />
	</node>
	<node id="-94725" lat="62.3704749967" lon="11.0540138875">
		<tag k="landuse" v="meadow" />
		<tag k="name" v="Åsengene" />
		<tag k="ssr:stedsnr" v="236326" />
	</node>
	<node id="-94723" lat="62.4565388856" lon="10.733727786">
		<tag k="landuse" v="meadow" />
		<tag k="name" v="Bakenget" />
		<tag k="ssr:stedsnr" v="236303" />
	</node>
	<node id="-94720" lat="62.4233861135" lon="11.0062166653">
		<tag k="historic" v="shieling" />
		<tag k="name" v="Olvollen" />
		<tag k="place" v="locality" />
		<tag k="ssr:stedsnr" v="236196" />
	</node>
	<node id="-94718" lat="62.4514388904" lon="11.008111116">
		<tag k="name" v="Skreddarmyran" />
		<tag k="natural" v="wetland" />
		<tag k="ssr:stedsnr" v="236179" />
	</node>
	<node id="-94715" lat="62.4349277783" lon="11.0370527868">
		<tag k="name" v="Kåsan" />
		<tag k="place" v="locality" />
		<tag k="ssr:stedsnr" v="236126" />
	</node>
	<node id="-94706" lat="62.4701722268" lon="10.7655027719">
		<tag k="name" v="Trøomslått" />
		<tag k="place" v="locality" />
		<tag k="ssr:stedsnr" v="235554" />
	</node>
	<node id="-94703" lat="62.4137861137" lon="10.734019438">
		<tag k="name" v="Veiskilløy" />
		<tag k="place" v="locality" />
		<tag k="ssr:stedsnr" v="234256" />
	</node>
	<node id="-94657" lat="62.3574166697" lon="11.2076666752">
		<tag k="name" v="Nykloppmoen" />
		<tag k="place" v="locality" />
		<tag k="ssr:stedsnr" v="186547" />
	</node>
	<node id="-94655" lat="62.462011113" lon="10.9536611208">
		<tag k="name" v="Langmyra" />
		<tag k="natural" v="wetland" />
		<tag k="ssr:stedsnr" v="176884" />
	</node>
	<node id="-94654" lat="62.4642222202" lon="10.9273583356">
		<tag k="name" v="Olamyra" />
		<tag k="natural" v="wetland" />
		<tag k="ssr:stedsnr" v="176878" />
	</node>
	<node id="-94652" lat="62.2174277772" lon="11.4049250084">
		<tag k="name" v="Storøyodden" />
		<tag k="place" v="locality" />
		<tag k="ssr:stedsnr" v="176848" />
	</node>
	<node id="-94648" lat="62.2200861153" lon="11.4755194444">
		<tag k="name" v="Myran" />
		<tag k="natural" v="wetland" />
		<tag k="ssr:stedsnr" v="176796" />
	</node>
	<node id="-94645" lat="62.384516671" lon="10.9285722262">
		<tag k="name" v="Blestermyra" />
		<tag k="natural" v="wetland" />
		<tag k="ssr:stedsnr" v="176785" />
	</node>
	<node id="-94641" lat="62.3885666666" lon="10.9546583366">
		<tag k="name" v="Granrøsta" />
		<tag k="place" v="locality" />
		<tag k="ssr:stedsnr" v="176772" />
	</node>
	<node id="-94638" lat="62.1617583328" lon="11.4277305498">
		<tag k="name" v="Vasskillet" />
		<tag k="natural" v="wetland" />
		<tag k="ssr:stedsnr" v="176754" />
	</node>
	<node id="-94637" lat="62.1664111147" lon="11.4289333418">
		<tag k="name" v="Floan" />
		<tag k="natural" v="wetland" />
		<tag k="ssr:stedsnr" v="176751" />
	</node>
	<node id="-94636" lat="62.3821638932" lon="10.8577777753">
		<tag k="historic" v="shieling" />
		<tag k="name" v="Åshaugvollen" />
		<tag k="place" v="locality" />
		<tag k="ssr:stedsnr" v="176709" />
	</node>
	<node id="-94635" lat="62.3726777811" lon="11.2331666746">
		<tag k="name" v="Sunda" />
		<tag k="natural" v="wetland" />
		<tag k="ssr:stedsnr" v="176708" />
	</node>
	<node id="-94626" lat="62.3192888918" lon="11.2140138873">
		<tag k="name" v="Nyvollmyra" />
		<tag k="natural" v="wetland" />
		<tag k="ssr:stedsnr" v="176611" />
	</node>
	<node id="-94620" lat="62.4404333369" lon="10.7261499934">
		<tag k="alt_name" v="Oustutrøbåvolvollen" />
		<tag k="name" v="Austutrøbåvolvollen" />
		<tag k="place" v="locality" />
		<tag k="ssr:stedsnr" v="176335" />
	</node>
	<node id="-94618" lat="62.4881777779" lon="10.5565611133">
		<tag k="name" v="Haugtrøa" />
		<tag k="place" v="locality" />
		<tag k="ssr:stedsnr" v="176325" />
	</node>
	<node id="-94615" lat="62.3755999958" lon="11.041549999">
		<tag k="name" v="Åsengfloan" />
		<tag k="natural" v="wetland" />
		<tag k="ssr:stedsnr" v="176308" />
	</node>
	<node id="-94611" lat="62.399205557" lon="10.972241668">
		<tag k="name" v="Rokkhesjestøet" />
		<tag k="place" v="locality" />
		<tag k="ssr:stedsnr" v="176250" />
	</node>
	<node id="-94609" lat="62.4103249973" lon="10.9661638934">
		<tag k="name" v="Gurimyra" />
		<tag k="natural" v="wetland" />
		<tag k="ssr:stedsnr" v="176241" />
	</node>
	<node id="-94608" lat="62.4250916632" lon="11.0500527692">
		<tag k="name" v="Granrøsta" />
		<tag k="place" v="locality" />
		<tag k="ssr:stedsnr" v="176198" />
	</node>
	<node id="-94607" lat="62.1802361072" lon="11.5076833348">
		<tag k="name" v="Brynhildsbotnmyran" />
		<tag k="natural" v="wetland" />
		<tag k="ssr:stedsnr" v="176000" />
	</node>
	<node id="-94604" lat="62.4913750043" lon="10.7843305481">
		<tag k="landuse" v="meadow" />
		<tag k="name" v="Storbukta" />
		<tag k="ssr:stedsnr" v="175954" />
	</node>
	<node id="-94603" lat="62.1996027756" lon="11.5319138824">
		<tag k="name" v="Kåsan" />
		<tag k="place" v="locality" />
		<tag k="ssr:stedsnr" v="175926" />
	</node>
	<node id="-94599" lat="62.43428611" lon="10.9366583391">
		<tag k="name" v="Løvmyra" />
		<tag k="natural" v="wetland" />
		<tag k="ssr:stedsnr" v="175817" />
	</node>
	<node id="-94597" lat="62.4356277781" lon="10.8036333356">
		<tag k="landuse" v="meadow" />
		<tag k="name" v="Eriksenget" />
		<tag k="ssr:stedsnr" v="175627" />
	</node>
	<node id="-94595" lat="62.4366666707" lon="10.82218612">
		<tag k="name" v="Myran" />
		<tag k="natural" v="wetland" />
		<tag k="ssr:stedsnr" v="175600" />
	</node>
	<node id="-94594" lat="62.4519333307" lon="10.7820027872">
		<tag k="historic" v="shieling" />
		<tag k="name" v="Movollen" />
		<tag k="place" v="locality" />
		<tag k="ssr:stedsnr" v="175541" />
	</node>
	<node id="-94589" lat="62.3692555521" lon="11.1225444425">
		<tag k="name" v="Bjørsjøfloen" />
		<tag k="natural" v="wetland" />
		<tag k="ssr:stedsnr" v="175459" />
	</node>
	<node id="-94587" lat="62.3689805553" lon="11.1708194454">
		<tag k="name" v="Jonsvollen" />
		<tag k="place" v="locality" />
		<tag k="ssr:stedsnr" v="175451" />
	</node>
	<node id="-94582" lat="62.4782611088" lon="10.7270861171">
		<tag k="name" v="Åshaugslått" />
		<tag k="place" v="locality" />
		<tag k="ssr:stedsnr" v="175251" />
	</node>
	<node id="-94576" lat="62.429036114" lon="10.9688527856">
		<tag k="name" v="Håmyra" />
		<tag k="natural" v="wetland" />
		<tag k="ssr:stedsnr" v="175162" />
	</node>
	<node id="-94574" lat="62.448647219" lon="10.9946611193">
		<tag k="name" v="Jamntmyran" />
		<tag k="natural" v="wetland" />
		<tag k="ssr:stedsnr" v="175153" />
	</node>
	<node id="-94573" lat="62.4513777764" lon="11.0701388965">
		<tag k="name" v="Torvfloen" />
		<tag k="natural" v="wetland" />
		<tag k="ssr:stedsnr" v="175075" />
	</node>
	<node id="-94572" lat="62.4792972259" lon="10.9859611161">
		<tag k="name" v="Vonfloen" />
		<tag k="natural" v="wetland" />
		<tag k="ssr:stedsnr" v="175038" />
	</node>
	<node id="-94567" lat="62.4424027804" lon="10.6157833356">
		<tag k="name" v="Nystumoengan" />
		<tag k="place" v="locality" />
		<tag k="ssr:stedsnr" v="173378" />
	</node>
	<node id="-94566" lat="62.4121305533" lon="10.6587805606">
		<tag k="name" v="Paulsslåtten" />
		<tag k="natural" v="wetland" />
		<tag k="ssr:stedsnr" v="173001" />
	</node>
	<node id="-94552" lat="62.3808861132" lon="11.0751861016">
		<tag k="name" v="Storfloen" />
		<tag k="natural" v="wetland" />
		<tag k="ssr:stedsnr" v="133164" />
	</node>
	<node id="-94514" lat="62.4947055558" lon="10.7831166629">
		<tag k="landuse" v="meadow" />
		<tag k="name" v="Freksenga" />
		<tag k="ssr:stedsnr" v="115955" />
	</node>
	<node id="-94513" lat="62.4758166681" lon="10.8606861028">
		<tag k="historic" v="shieling" />
		<tag k="name" v="Gammelstuvollen" />
		<tag k="place" v="locality" />
		<tag k="ssr:stedsnr" v="115926" />
	</node>
	<node id="-94512" lat="62.2687249968" lon="11.4034277684">
		<tag k="name" v="Heggkåsa" />
		<tag k="place" v="locality" />
		<tag k="ssr:stedsnr" v="115801" />
	</node>
	<node id="-94511" lat="62.272591663" lon="11.4123361074">
		<tag k="name" v="Vintervegfloen" />
		<tag k="natural" v="wetland" />
		<tag k="ssr:stedsnr" v="115798" />
	</node>
	<node id="-94509" lat="62.4344194453" lon="10.9120333324">
		<tag k="name" v="Veslesætermyra" />
		<tag k="natural" v="wetland" />
		<tag k="ssr:stedsnr" v="115788" />
	</node>
	<node id="-94507" lat="62.3612750017" lon="10.9539249957">
		<tag k="name" v="Åsmåssåmyra" />
		<tag k="natural" v="wetland" />
		<tag k="ssr:stedsnr" v="115777" />
	</node>
	<node id="-94506" lat="62.3793833335" lon="10.9362472315">
		<tag k="name" v="Fossmyra" />
		<tag k="natural" v="wetland" />
		<tag k="ssr:stedsnr" v="115778" />
	</node>
	<node id="-94505" lat="62.2395083367" lon="11.4793888809">
		<tag k="historic" v="shieling" />
		<tag k="name" v="Elvebakken" />
		<tag k="place" v="locality" />
		<tag k="ssr:stedsnr" v="115774" />
	</node>
	<node id="-94503" lat="62.2369444424" lon="11.4887500071">
		<tag k="name" v="Småmyran" />
		<tag k="natural" v="wetland" />
		<tag k="ssr:stedsnr" v="115772" />
	</node>
	<node id="-94497" lat="62.1862055558" lon="11.4180472196">
		<tag k="name" v="Rundhesjestøet" />
		<tag k="place" v="locality" />
		<tag k="ssr:stedsnr" v="115734" />
	</node>
	<node id="-94496" lat="62.3868611126" lon="10.9008277795">
		<tag k="landuse" v="meadow" />
		<tag k="name" v="Veslevangan" />
		<tag k="ssr:stedsnr" v="115682" />
	</node>
	<node id="-94495" lat="62.37603333" lon="11.2410305525">
		<tag k="landuse" v="meadow" />
		<tag k="name" v="Kåsan" />
		<tag k="ssr:stedsnr" v="115681" />
	</node>
	<node id="-94493" lat="62.3750861143" lon="10.8571861027">
		<tag k="name" v="Brøttbekkfloen" />
		<tag k="natural" v="wetland" />
		<tag k="ssr:stedsnr" v="115677" />
	</node>
	<node id="-94491" lat="62.3951055585" lon="10.8955027707">
		<tag k="name" v="Kloppmyra" />
		<tag k="natural" v="wetland" />
		<tag k="ssr:stedsnr" v="115670" />
	</node>
	<node id="-94487" lat="62.414058337" lon="10.8184138904">
		<tag k="name" v="Kråkhaugfloen" />
		<tag k="natural" v="wetland" />
		<tag k="ssr:stedsnr" v="115627" />
	</node>
	<node id="-94482" lat="62.4173944446" lon="10.7927861094">
		<tag k="name" v="Helbladmyra" />
		<tag k="natural" v="wetland" />
		<tag k="ssr:stedsnr" v="115584" />
	</node>
	<node id="-94474" lat="62.476338892" lon="10.8382166617">
		<tag k="historic" v="shieling" />
		<tag k="name" v="Gamle Stornorstuvollen" />
		<tag k="place" v="locality" />
		<tag k="ssr:stedsnr" v="115528" />
	</node>
	<node id="-94471" lat="62.4234083293" lon="11.1854333235">
		<tag k="name" v="Østre Flågåen" />
		<tag k="natural" v="wetland" />
		<tag k="ssr:stedsnr" v="115496" />
	</node>
	<node id="-94469" lat="62.3854333294" lon="11.0715944413">
		<tag k="name" v="Lyskåsa" />
		<tag k="place" v="locality" />
		<tag k="ssr:stedsnr" v="115354" />
	</node>
	<node id="-94468" lat="62.435983333" lon="10.7230888913">
		<tag k="name" v="Storstenenget" />
		<tag k="place" v="locality" />
		<tag k="ssr:stedsnr" v="115347" />
	</node>
	<node id="-94462" lat="62.4698944428" lon="10.9544972267">
		<tag k="name" v="Milskiftmyran" />
		<tag k="natural" v="wetland" />
		<tag k="ssr:stedsnr" v="115860" />
	</node>
	<node id="-94446" lat="62.2706111132" lon="11.4758749959">
		<tag k="name" v="Andersolakåsa" />
		<tag k="place" v="locality" />
		<tag k="ssr:stedsnr" v="115301" />
	</node>
	<node id="-94442" lat="62.4214694472" lon="10.9946638899">
		<tag k="historic" v="shieling" />
		<tag k="name" v="Kringlettmyra" />
		<tag k="place" v="locality" />
		<tag k="ssr:stedsnr" v="115215" />
	</node>
	<node id="-94435" lat="62.282755559" lon="11.0440888865">
		<tag k="historic" v="shieling" />
		<tag k="name" v="Gammelvollen" />
		<tag k="place" v="locality" />
		<tag k="ssr:stedsnr" v="115326" />
	</node>
	<node id="-94430" lat="62.2601222239" lon="11.4520333295">
		<tag k="name" v="Kløvmyran" />
		<tag k="natural" v="wetland" />
		<tag k="ssr:stedsnr" v="114824" />
	</node>
	<node id="-94429" lat="62.4539027771" lon="10.8066861198">
		<tag k="name" v="Sannomslått" />
		<tag k="place" v="locality" />
		<tag k="ssr:stedsnr" v="114596" />
	</node>
	<node id="-94426" lat="62.4134888932" lon="10.7439833318">
		<tag k="name" v="Øver Stenbakken" />
		<tag k="place" v="locality" />
		<tag k="ssr:stedsnr" v="112300" />
	</node>
	<node id="-94419" lat="62.4095583349" lon="10.7458972279">
		<tag k="name" v="Trøomslått" />
		<tag k="place" v="locality" />
		<tag k="ssr:stedsnr" v="112305" />
	</node>
	<node id="-94390" lat="62.4100750025" lon="11.1674666682">
		<tag k="alt_name" v="Floen" />
		<tag k="name" v="Storfloen" />
		<tag k="natural" v="wetland" />
		<tag k="ssr:stedsnr" v="72134" />
	</node>
	<node id="-94374" lat="62.2138361138" lon="11.4184083338">
		<tag k="name" v="Jordfloen" />
		<tag k="natural" v="wetland" />
		<tag k="ssr:stedsnr" v="71501" />
	</node>
	<node id="-94367" lat="62.2184444447" lon="11.4039861017">
		<tag k="name" v="Vesleøyodden" />
		<tag k="place" v="locality" />
		<tag k="ssr:stedsnr" v="55846" />
	</node>
	<node id="-94364" lat="62.2443611121" lon="11.4683916742">
		<tag k="historic" v="shieling" />
		<tag k="name" v="Gjertrudvollen" />
		<tag k="place" v="locality" />
		<tag k="ssr:stedsnr" v="55778" />
	</node>
	<node id="-94363" lat="62.2358527796" lon="11.50291666">
		<tag k="name" v="Finnteltbakken" />
		<tag k="place" v="locality" />
		<tag k="ssr:stedsnr" v="55777" />
	</node>
	<node id="-94354" lat="62.3796777796" lon="10.8836055523">
		<tag k="name" v="Bleien" />
		<tag k="place" v="locality" />
		<tag k="ssr:stedsnr" v="55680" />
	</node>
	<node id="-94340" lat="62.4879861153" lon="10.561972221">
		<tag k="name" v="Vingelsmoen" />
		<tag k="place" v="locality" />
		<tag k="ssr:stedsnr" v="55328" />
	</node>
	<node id="-94336" lat="62.3951527801" lon="11.1662805592">
		<tag k="name" v="Bjønnkåsa" />
		<tag k="place" v="locality" />
		<tag k="ssr:stedsnr" v="55563" />
	</node>
	<node id="-94333" lat="62.4023833364" lon="11.0719472194">
		<tag k="name" v="Stormyra" />
		<tag k="natural" v="wetland" />
		<tag k="ssr:stedsnr" v="55281" />
	</node>
	<node id="-93887" lat="62.3279027797" lon="11.2038333365">
		<tag k="landuse" v="meadow" />
		<tag k="name" v="Åsengan" />
		<tag k="ssr:stedsnr" v="297408" />
	</node>
	<node id="-94325" lat="62.1560861068" lon="11.6214916615">
		<tag k="name" v="Sengformyra" />
		<tag k="natural" v="wetland" />
		<tag k="ssr:stedsnr" v="54986" />
	</node>
	<node id="-94324" lat="62.4023027822" lon="10.961263889">
		<tag k="name" v="Storfloen" />
		<tag k="natural" v="wetland" />
		<tag k="ssr:stedsnr" v="54978" />
	</node>
	<node id="-94317" lat="62.4396916677" lon="10.8935527685">
		<tag k="name" v="Møkkelbekkenget" />
		<tag k="place" v="locality" />
		<tag k="ssr:stedsnr" v="54862" />
	</node>
	<node id="-94310" lat="62.4489833333" lon="10.8974416748">
		<tag k="name" v="Olderlunna" />
		<tag k="place" v="locality" />
		<tag k="ssr:stedsnr" v="54856" />
	</node>
	<node id="-94307" lat="62.4500333316" lon="10.8102416743">
		<tag k="name" v="Vangslått" />
		<tag k="place" v="locality" />
		<tag k="ssr:stedsnr" v="54608" />
	</node>
	<node id="-94306" lat="62.4496694429" lon="10.803983333">
		<tag k="name" v="Veslevolmyran" />
		<tag k="natural" v="wetland" />
		<tag k="ssr:stedsnr" v="54606" />
	</node>
	<node id="-94305" lat="62.4403416623" lon="10.7977805603">
		<tag k="historic" v="shieling" />
		<tag k="name" v="Vangsvollen" />
		<tag k="place" v="locality" />
		<tag k="ssr:stedsnr" v="54603" />
	</node>
	<node id="-94303" lat="62.4742194413" lon="10.8300472307">
		<tag k="landuse" v="meadow" />
		<tag k="name" v="Nystuenga" />
		<tag k="ssr:stedsnr" v="54559" />
	</node>
	<node id="-94297" lat="62.4271361086" lon="10.696319444">
		<tag k="historic" v="shieling" />
		<tag k="name" v="Storhaugveslevangan" />
		<tag k="place" v="locality" />
		<tag k="ssr:stedsnr" v="54349" />
	</node>
	<node id="-94290" lat="62.3902083329" lon="11.025080556">
		<tag k="name" v="Storodden" />
		<tag k="place" v="locality" />
		<tag k="ssr:stedsnr" v="54358" />
	</node>
	<node id="-94287" lat="62.4282194424" lon="11.0022166733">
		<tag k="name" v="Smeltarmyra" />
		<tag k="natural" v="wetland" />
		<tag k="ssr:stedsnr" v="54187" />
	</node>
	<node id="-94286" lat="62.429733329" lon="10.9848472296">
		<tag k="name" v="Lømyra" />
		<tag k="natural" v="wetland" />
		<tag k="ssr:stedsnr" v="54184" />
	</node>
	<node id="-94282" lat="62.4462166705" lon="11.0029472169">
		<tag k="name" v="Andersnilsafloen" />
		<tag k="natural" v="wetland" />
		<tag k="ssr:stedsnr" v="54156" />
	</node>
	<node id="-94280" lat="62.249380559" lon="11.4068611018">
		<tag k="name" v="Storfloen" />
		<tag k="natural" v="wetland" />
		<tag k="ssr:stedsnr" v="53842" />
	</node>
	<node id="-94279" lat="62.4540472227" lon="10.792313898">
		<tag k="landuse" v="meadow" />
		<tag k="name" v="Smedåsenga" />
		<tag k="ssr:stedsnr" v="53565" />
	</node>
	<node id="-94278" lat="62.4711194415" lon="10.7315249916">
		<tag k="name" v="Fjellrofloen" />
		<tag k="natural" v="wetland" />
		<tag k="ssr:stedsnr" v="53245" />
	</node>
	<node id="-94277" lat="62.221352779" lon="11.0592361133">
		<tag k="name" v="Framkåsa" />
		<tag k="place" v="locality" />
		<tag k="ssr:stedsnr" v="53155" />
	</node>
	<node id="-94276" lat="62.4507666669" lon="10.6180194467">
		<tag k="name" v="Fjellenget" />
		<tag k="place" v="locality" />
		<tag k="ssr:stedsnr" v="52381" />
	</node>
	<node id="-94265" lat="62.394966667" lon="11.1991750037">
		<tag k="name" v="Hesjestøenget" />
		<tag k="place" v="locality" />
		<tag k="ssr:stedsnr" v="12165" />
	</node>
	<node id="-94245" lat="62.3195527749" lon="11.1100805545">
		<tag k="name" v="Telsjøfloen" />
		<tag k="natural" v="wetland" />
		<tag k="ssr:stedsnr" v="11266" />
	</node>
</osm>
