<?xml version="1.0" encoding="UTF-8"?>
<osm version="0.6" generator="osmapis">
	<node lat="59.23668888934255" lon="6.179144443237538" id="-3656">
		<tag k="alt_name" v="Hjelmeland" />
		<tag k="name" v="Hjelmeland kommune" />
		<tag k="ssr:date" v="2019-11-14" />
		<tag k="ssr:gruppe" v="administrativeIndelinger" />
		<tag k="ssr:hovedgruppe" v="offentligAdministrasjon" />
		<tag k="ssr:stedsnr" v="145176" />
		<tag k="ssr:type" v="kommune" />
	</node>
	<node lat="59.18168611301564" lon="5.988055549889384" id="-3805">
		<tag k="name" v="Håganeset lanterne" />
		<tag k="ssr:date" v="2016-12-29" />
		<tag k="ssr:gruppe" v="navigasjon" />
		<tag k="ssr:hovedgruppe" v="infrastruktur" />
		<tag k="ssr:stedsnr" v="283391" />
		<tag k="ssr:type" v="lanterne" />
	</node>
	<node lat="59.14349999684574" lon="6.0226166676135" id="-4140">
		<tag k="name" v="Kolhaugneset lanterne" />
		<tag k="ssr:date" v="2016-12-30" />
		<tag k="ssr:gruppe" v="navigasjon" />
		<tag k="ssr:hovedgruppe" v="infrastruktur" />
		<tag k="ssr:stedsnr" v="464468" />
		<tag k="ssr:type" v="lanterne" />
	</node>
	<node lat="59.171383334223535" lon="6.072002770887623" id="-4147">
		<tag k="name" v="Stemveien" />
		<tag k="ssr:date" v="2016-05-10" />
		<tag k="ssr:gruppe" v="veg" />
		<tag k="ssr:hovedgruppe" v="infrastruktur" />
		<tag k="ssr:stedsnr" v="484060" />
		<tag k="ssr:type" v="vegstrekning" />
	</node>
	<node lat="59.13918889315006" lon="6.0309305525580355" id="-4214">
		<tag k="name" v="Helgøysundet lanterne" />
		<tag k="ssr:date" v="2016-12-30" />
		<tag k="ssr:gruppe" v="navigasjon" />
		<tag k="ssr:hovedgruppe" v="infrastruktur" />
		<tag k="ssr:stedsnr" v="525465" />
		<tag k="ssr:type" v="lanterne" />
	</node>
	<node lat="59.224824998593384" lon="6.124361112334327" id="-4293">
		<tag k="name" v="Raunane varde" />
		<tag k="ssr:date" v="2016-05-10" />
		<tag k="ssr:gruppe" v="navigasjon" />
		<tag k="ssr:hovedgruppe" v="infrastruktur" />
		<tag k="ssr:stedsnr" v="587115" />
		<tag k="ssr:type" v="lanterne" />
	</node>
	<node lat="59.26141666370608" lon="6.167097227013239" id="-4497">
		<tag k="alt_name" v="Jøsneset" />
		<tag k="name" v="Jøsneset lykt" />
		<tag k="ssr:date" v="2016-05-11" />
		<tag k="ssr:gruppe" v="navigasjon" />
		<tag k="ssr:hovedgruppe" v="infrastruktur" />
		<tag k="ssr:stedsnr" v="730716" />
		<tag k="ssr:type" v="fyrlykt" />
	</node>
	<node lat="59.13664444588089" lon="6.080022227138022" id="-5289">
		<tag k="name" v="Småskjerene" />
		<tag k="ssr:date" v="2016-05-10" />
		<tag k="ssr:gruppe" v="navigasjon" />
		<tag k="ssr:hovedgruppe" v="infrastruktur" />
		<tag k="ssr:stedsnr" v="282448" />
		<tag k="ssr:type" v="lanterne" />
	</node>
	<node lat="59.141975001146875" lon="6.067361108122887" id="-5518">
		<tag k="name" v="Årdalsfjord" />
		<tag k="ssr:date" v="2017-11-27" />
		<tag k="ssr:gruppe" v="navigasjon" />
		<tag k="ssr:hovedgruppe" v="infrastruktur" />
		<tag k="ssr:stedsnr" v="404427" />
		<tag k="ssr:type" v="lanterne" />
	</node>
	<node lat="59.171338889214965" lon="6.005822214167517" id="-5519">
		<tag k="alt_name" v="Børøyholmane søre" />
		<tag k="name" v="Søre Børøyholmane lanterne" />
		<tag k="ssr:date" v="2016-05-10" />
		<tag k="ssr:gruppe" v="navigasjon" />
		<tag k="ssr:hovedgruppe" v="infrastruktur" />
		<tag k="ssr:stedsnr" v="404429" />
		<tag k="ssr:type" v="lanterne" />
	</node>
	<node lat="58.9647333357896" lon="5.731188892301877" id="-5639">
		<tag k="alt_name" v="Rogaland" />
		<tag k="name" v="Rogaland fylke" />
		<tag k="ssr:date" v="2021-02-03" />
		<tag k="ssr:gruppe" v="administrativeIndelinger" />
		<tag k="ssr:hovedgruppe" v="offentligAdministrasjon" />
		<tag k="ssr:stedsnr" v="511115" />
		<tag k="ssr:type" v="fylke" />
	</node>
	<node lat="59.21959444476984" lon="6.1013500014990605" id="-5825">
		<tag k="alt_name" v="Ølesund" />
		<tag k="name" v="Ølesund lykt" />
		<tag k="ssr:date" v="2016-05-10" />
		<tag k="ssr:gruppe" v="navigasjon" />
		<tag k="ssr:hovedgruppe" v="infrastruktur" />
		<tag k="ssr:stedsnr" v="607951" />
		<tag k="ssr:type" v="fyrlykt" />
	</node>
	<node lat="59.22749999755497" lon="6.247200008274578" id="-6219">
		<tag k="name" v="Ryfylke" />
		<tag k="ssr:date" v="2019-12-27" />
		<tag k="ssr:gruppe" v="terrengområder" />
		<tag k="ssr:hovedgruppe" v="terreng" />
		<tag k="ssr:stedsnr" v="813263" />
		<tag k="ssr:type" v="landskapsområde" />
	</node>
	<node lat="59.14125555392003" lon="6.068052783744222" id="-6283">
		<tag k="loc_name" v="Langholmen lykt" />
		<tag k="name" v="Langholmen" />
		<tag k="ssr:date" v="2016-05-11" />
		<tag k="ssr:gruppe" v="navigasjon" />
		<tag k="ssr:hovedgruppe" v="infrastruktur" />
		<tag k="ssr:stedsnr" v="851532" />
		<tag k="ssr:type" v="fyrlykt" />
	</node>
	<node lat="59.10423266393768" lon="6.380891887277125" id="-6406">
		<tag k="name" v="Songesandvegen" />
		<tag k="ssr:date" v="2019-05-30" />
		<tag k="ssr:gruppe" v="veg" />
		<tag k="ssr:hovedgruppe" v="infrastruktur" />
		<tag k="ssr:stedsnr" v="1027336" />
		<tag k="ssr:type" v="adressenavn" />
	</node>
	<node lat="59.15400729917019" lon="6.216588554062863" id="-6407">
		<tag k="name" v="Skogarbøvegen" />
		<tag k="ssr:date" v="2019-05-30" />
		<tag k="ssr:gruppe" v="veg" />
		<tag k="ssr:hovedgruppe" v="infrastruktur" />
		<tag k="ssr:stedsnr" v="1027337" />
		<tag k="ssr:type" v="adressenavn" />
	</node>
	<node lat="59.13462772202418" lon="6.266583730693538" id="-6408">
		<tag k="name" v="Valheimsvegen" />
		<tag k="ssr:date" v="2019-05-30" />
		<tag k="ssr:gruppe" v="veg" />
		<tag k="ssr:hovedgruppe" v="infrastruktur" />
		<tag k="ssr:stedsnr" v="1027339" />
		<tag k="ssr:type" v="adressenavn" />
	</node>
	<node lat="59.14500463487835" lon="6.180229609932211" id="-6409">
		<tag k="name" v="Svadbergvegen" />
		<tag k="ssr:date" v="2019-05-30" />
		<tag k="ssr:gruppe" v="veg" />
		<tag k="ssr:hovedgruppe" v="infrastruktur" />
		<tag k="ssr:stedsnr" v="1027340" />
		<tag k="ssr:type" v="adressenavn" />
	</node>
	<node lat="59.14018963553071" lon="6.318205059599316" id="-6410">
		<tag k="name" v="Eglandsvegen" />
		<tag k="ssr:date" v="2019-05-30" />
		<tag k="ssr:gruppe" v="veg" />
		<tag k="ssr:hovedgruppe" v="infrastruktur" />
		<tag k="ssr:stedsnr" v="1027343" />
		<tag k="ssr:type" v="adressenavn" />
	</node>
	<node lat="59.15578618243379" lon="6.218599595627846" id="-6411">
		<tag k="name" v="Dalane" />
		<tag k="ssr:date" v="2019-05-30" />
		<tag k="ssr:gruppe" v="veg" />
		<tag k="ssr:hovedgruppe" v="infrastruktur" />
		<tag k="ssr:stedsnr" v="1027346" />
		<tag k="ssr:type" v="adressenavn" />
	</node>
	<node lat="59.134311663246685" lon="6.287424700363323" id="-6412">
		<tag k="name" v="Kaltveitvegen" />
		<tag k="ssr:date" v="2019-05-30" />
		<tag k="ssr:gruppe" v="veg" />
		<tag k="ssr:hovedgruppe" v="infrastruktur" />
		<tag k="ssr:stedsnr" v="1027348" />
		<tag k="ssr:type" v="adressenavn" />
	</node>
	<node lat="59.15047178647508" lon="6.164528296254842" id="-6413">
		<tag k="name" v="Hortane" />
		<tag k="ssr:date" v="2019-05-30" />
		<tag k="ssr:gruppe" v="veg" />
		<tag k="ssr:hovedgruppe" v="infrastruktur" />
		<tag k="ssr:stedsnr" v="1027350" />
		<tag k="ssr:type" v="adressenavn" />
	</node>
	<node lat="59.14967713189311" lon="6.224455863395356" id="-6414">
		<tag k="name" v="Kyrkjevegen" />
		<tag k="ssr:date" v="2019-05-30" />
		<tag k="ssr:gruppe" v="veg" />
		<tag k="ssr:hovedgruppe" v="infrastruktur" />
		<tag k="ssr:stedsnr" v="1027352" />
		<tag k="ssr:type" v="adressenavn" />
	</node>
	<node lat="59.156046785919145" lon="6.200297123118858" id="-6415">
		<tag k="name" v="Kyrkjebøen" />
		<tag k="ssr:date" v="2019-05-30" />
		<tag k="ssr:gruppe" v="veg" />
		<tag k="ssr:hovedgruppe" v="infrastruktur" />
		<tag k="ssr:stedsnr" v="1027353" />
		<tag k="ssr:type" v="adressenavn" />
	</node>
	<node lat="59.151021927169275" lon="6.160156784696291" id="-6416">
		<tag k="name" v="Melslia" />
		<tag k="ssr:date" v="2019-05-30" />
		<tag k="ssr:gruppe" v="veg" />
		<tag k="ssr:hovedgruppe" v="infrastruktur" />
		<tag k="ssr:stedsnr" v="1027354" />
		<tag k="ssr:type" v="adressenavn" />
	</node>
	<node lat="59.15255168587102" lon="6.171177165483824" id="-6417">
		<tag k="name" v="Melevegen" />
		<tag k="ssr:date" v="2019-05-30" />
		<tag k="ssr:gruppe" v="veg" />
		<tag k="ssr:hovedgruppe" v="infrastruktur" />
		<tag k="ssr:stedsnr" v="1027356" />
		<tag k="ssr:type" v="adressenavn" />
	</node>
	<node lat="59.28681036848158" lon="6.123421707916287" id="-6418">
		<tag k="name" v="Øygardsvegen" />
		<tag k="ssr:date" v="2019-05-30" />
		<tag k="ssr:gruppe" v="veg" />
		<tag k="ssr:hovedgruppe" v="infrastruktur" />
		<tag k="ssr:stedsnr" v="1027358" />
		<tag k="ssr:type" v="adressenavn" />
	</node>
	<node lat="59.280121899970084" lon="6.38042755631774" id="-6419">
		<tag k="name" v="Vormelandsvegen" />
		<tag k="ssr:date" v="2019-05-30" />
		<tag k="ssr:gruppe" v="veg" />
		<tag k="ssr:hovedgruppe" v="infrastruktur" />
		<tag k="ssr:stedsnr" v="1027359" />
		<tag k="ssr:type" v="adressenavn" />
	</node>
	<node lat="59.26298101611406" lon="6.15836797522236" id="-6420">
		<tag k="name" v="Indre Ryfylkevegen" />
		<tag k="ssr:date" v="2019-05-30" />
		<tag k="ssr:gruppe" v="veg" />
		<tag k="ssr:hovedgruppe" v="infrastruktur" />
		<tag k="ssr:stedsnr" v="1027360" />
		<tag k="ssr:type" v="adressenavn" />
	</node>
	<node lat="59.209326436310796" lon="6.096494514349316" id="-6421">
		<tag k="name" v="Buhammarvegen" />
		<tag k="ssr:date" v="2019-05-30" />
		<tag k="ssr:gruppe" v="veg" />
		<tag k="ssr:hovedgruppe" v="infrastruktur" />
		<tag k="ssr:stedsnr" v="1027362" />
		<tag k="ssr:type" v="adressenavn" />
	</node>
	<node lat="59.209314303767684" lon="6.098112045276358" id="-6422">
		<tag k="name" v="Døvikneset" />
		<tag k="ssr:date" v="2019-05-30" />
		<tag k="ssr:gruppe" v="veg" />
		<tag k="ssr:hovedgruppe" v="infrastruktur" />
		<tag k="ssr:stedsnr" v="1027363" />
		<tag k="ssr:type" v="adressenavn" />
	</node>
	<node lat="59.23097735134897" lon="6.154265409229717" id="-6423">
		<tag k="name" v="Søre Puntsnes" />
		<tag k="ssr:date" v="2019-05-30" />
		<tag k="ssr:gruppe" v="veg" />
		<tag k="ssr:hovedgruppe" v="infrastruktur" />
		<tag k="ssr:stedsnr" v="1027366" />
		<tag k="ssr:type" v="adressenavn" />
	</node>
	<node lat="59.19646043971511" lon="6.251115948361758" id="-6424">
		<tag k="name" v="Husstølvegen" />
		<tag k="ssr:date" v="2019-05-30" />
		<tag k="ssr:gruppe" v="veg" />
		<tag k="ssr:hovedgruppe" v="infrastruktur" />
		<tag k="ssr:stedsnr" v="1027367" />
		<tag k="ssr:type" v="adressenavn" />
	</node>
	<node lat="59.151673970976766" lon="6.1818583465193395" id="-6425">
		<tag k="name" v="Årdalstunet" />
		<tag k="ssr:date" v="2019-05-30" />
		<tag k="ssr:gruppe" v="veg" />
		<tag k="ssr:hovedgruppe" v="infrastruktur" />
		<tag k="ssr:stedsnr" v="1027369" />
		<tag k="ssr:type" v="adressenavn" />
	</node>
	<node lat="59.22025472711605" lon="6.050974513561853" id="-6426">
		<tag k="name" v="Padlvegen" />
		<tag k="ssr:date" v="2019-05-30" />
		<tag k="ssr:gruppe" v="veg" />
		<tag k="ssr:hovedgruppe" v="infrastruktur" />
		<tag k="ssr:stedsnr" v="1027370" />
		<tag k="ssr:type" v="adressenavn" />
	</node>
	<node lat="59.23407256523984" lon="6.183396737053945" id="-6427">
		<tag k="name" v="Prestagardsmarka" />
		<tag k="ssr:date" v="2019-05-30" />
		<tag k="ssr:gruppe" v="veg" />
		<tag k="ssr:hovedgruppe" v="infrastruktur" />
		<tag k="ssr:stedsnr" v="1027372" />
		<tag k="ssr:type" v="adressenavn" />
	</node>
	<node lat="59.33121511286651" lon="6.4540542476662495" id="-6428">
		<tag k="name" v="Skorpemyrvegen" />
		<tag k="ssr:date" v="2019-05-30" />
		<tag k="ssr:gruppe" v="veg" />
		<tag k="ssr:hovedgruppe" v="infrastruktur" />
		<tag k="ssr:stedsnr" v="1027374" />
		<tag k="ssr:type" v="adressenavn" />
	</node>
	<node lat="59.146154198435575" lon="6.115691328292965" id="-6429">
		<tag k="name" v="Longhammarvegen" />
		<tag k="ssr:date" v="2019-05-30" />
		<tag k="ssr:gruppe" v="veg" />
		<tag k="ssr:hovedgruppe" v="infrastruktur" />
		<tag k="ssr:stedsnr" v="1027376" />
		<tag k="ssr:type" v="adressenavn" />
	</node>
	<node lat="59.165291277784355" lon="6.047113455759533" id="-6430">
		<tag k="name" v="Båthamnvegen" />
		<tag k="ssr:date" v="2019-05-30" />
		<tag k="ssr:gruppe" v="veg" />
		<tag k="ssr:hovedgruppe" v="infrastruktur" />
		<tag k="ssr:stedsnr" v="1027378" />
		<tag k="ssr:type" v="adressenavn" />
	</node>
	<node lat="59.3284465741237" lon="6.457235147562008" id="-6431">
		<tag k="name" v="Buhagen" />
		<tag k="ssr:date" v="2019-05-30" />
		<tag k="ssr:gruppe" v="veg" />
		<tag k="ssr:hovedgruppe" v="infrastruktur" />
		<tag k="ssr:stedsnr" v="1027380" />
		<tag k="ssr:type" v="adressenavn" />
	</node>
	<node lat="59.27657035227683" lon="6.15127718721769" id="-6432">
		<tag k="name" v="Foss" />
		<tag k="ssr:date" v="2019-05-30" />
		<tag k="ssr:gruppe" v="veg" />
		<tag k="ssr:hovedgruppe" v="infrastruktur" />
		<tag k="ssr:stedsnr" v="1027436" />
		<tag k="ssr:type" v="adressenavn" />
	</node>
	<node lat="59.32502680221281" lon="6.434637895019767" id="-6433">
		<tag k="name" v="Melandsmoen" />
		<tag k="ssr:date" v="2019-05-30" />
		<tag k="ssr:gruppe" v="veg" />
		<tag k="ssr:hovedgruppe" v="infrastruktur" />
		<tag k="ssr:stedsnr" v="1027438" />
		<tag k="ssr:type" v="adressenavn" />
	</node>
	<node lat="59.26361312924366" lon="6.1595416989265726" id="-6434">
		<tag k="name" v="Jøsnesvegen" />
		<tag k="ssr:date" v="2019-05-30" />
		<tag k="ssr:gruppe" v="veg" />
		<tag k="ssr:hovedgruppe" v="infrastruktur" />
		<tag k="ssr:stedsnr" v="1027440" />
		<tag k="ssr:type" v="adressenavn" />
	</node>
	<node lat="59.276457299175114" lon="6.152852208741324" id="-6435">
		<tag k="name" v="Fosså" />
		<tag k="ssr:date" v="2019-05-30" />
		<tag k="ssr:gruppe" v="veg" />
		<tag k="ssr:hovedgruppe" v="infrastruktur" />
		<tag k="ssr:stedsnr" v="1027442" />
		<tag k="ssr:type" v="adressenavn" />
	</node>
	<node lat="59.23309386578418" lon="6.177118641673273" id="-6436">
		<tag k="name" v="Prestagarden" />
		<tag k="ssr:date" v="2019-05-30" />
		<tag k="ssr:gruppe" v="veg" />
		<tag k="ssr:hovedgruppe" v="infrastruktur" />
		<tag k="ssr:stedsnr" v="1027444" />
		<tag k="ssr:type" v="adressenavn" />
	</node>
	<node lat="59.128835049497724" lon="6.252507831114201" id="-6437">
		<tag k="name" v="Rivelandsvegen" />
		<tag k="ssr:date" v="2019-05-30" />
		<tag k="ssr:gruppe" v="veg" />
		<tag k="ssr:hovedgruppe" v="infrastruktur" />
		<tag k="ssr:stedsnr" v="1027332" />
		<tag k="ssr:type" v="adressenavn" />
	</node>
	<node lat="59.15091794627278" lon="6.166778800056377" id="-6438">
		<tag k="name" v="Sjøvegen" />
		<tag k="ssr:date" v="2019-05-30" />
		<tag k="ssr:gruppe" v="veg" />
		<tag k="ssr:hovedgruppe" v="infrastruktur" />
		<tag k="ssr:stedsnr" v="1027334" />
		<tag k="ssr:type" v="adressenavn" />
	</node>
	<node lat="59.14873017543791" lon="6.203028248494662" id="-6439">
		<tag k="name" v="Sedbergvegen" />
		<tag k="ssr:date" v="2019-05-30" />
		<tag k="ssr:gruppe" v="veg" />
		<tag k="ssr:hovedgruppe" v="infrastruktur" />
		<tag k="ssr:stedsnr" v="1027335" />
		<tag k="ssr:type" v="adressenavn" />
	</node>
	<node lat="59.209930126781195" lon="6.115865244008974" id="-6440">
		<tag k="name" v="Vigavegen" />
		<tag k="ssr:date" v="2019-05-30" />
		<tag k="ssr:gruppe" v="veg" />
		<tag k="ssr:hovedgruppe" v="infrastruktur" />
		<tag k="ssr:stedsnr" v="1027386" />
		<tag k="ssr:type" v="adressenavn" />
	</node>
	<node lat="59.263648973951696" lon="6.1620622718300355" id="-6441">
		<tag k="name" v="Nesvikvegen" />
		<tag k="ssr:date" v="2019-05-30" />
		<tag k="ssr:gruppe" v="veg" />
		<tag k="ssr:hovedgruppe" v="infrastruktur" />
		<tag k="ssr:stedsnr" v="1027387" />
		<tag k="ssr:type" v="adressenavn" />
	</node>
	<node lat="59.19078076726209" lon="6.032167017496257" id="-6442">
		<tag k="name" v="Øvre Ostervik" />
		<tag k="ssr:date" v="2019-05-30" />
		<tag k="ssr:gruppe" v="veg" />
		<tag k="ssr:hovedgruppe" v="infrastruktur" />
		<tag k="ssr:stedsnr" v="1027389" />
		<tag k="ssr:type" v="adressenavn" />
	</node>
	<node lat="59.13927298290295" lon="6.2460301016459905" id="-6443">
		<tag k="name" v="Trodla-Tysdal" />
		<tag k="ssr:date" v="2019-05-30" />
		<tag k="ssr:gruppe" v="veg" />
		<tag k="ssr:hovedgruppe" v="infrastruktur" />
		<tag k="ssr:stedsnr" v="1027390" />
		<tag k="ssr:type" v="adressenavn" />
	</node>
	<node lat="59.23220659685535" lon="6.170088957303523" id="-6444">
		<tag k="name" v="Breidablikk" />
		<tag k="ssr:date" v="2019-05-30" />
		<tag k="ssr:gruppe" v="veg" />
		<tag k="ssr:hovedgruppe" v="infrastruktur" />
		<tag k="ssr:stedsnr" v="1027400" />
		<tag k="ssr:type" v="adressenavn" />
	</node>
	<node lat="59.22122879902712" lon="6.217618569766261" id="-6445">
		<tag k="name" v="Bygdavegen" />
		<tag k="ssr:date" v="2019-05-30" />
		<tag k="ssr:gruppe" v="veg" />
		<tag k="ssr:hovedgruppe" v="infrastruktur" />
		<tag k="ssr:stedsnr" v="1027404" />
		<tag k="ssr:type" v="adressenavn" />
	</node>
	<node lat="59.23662888133028" lon="6.180346936126143" id="-6446">
		<tag k="name" v="Burmavegen" />
		<tag k="ssr:date" v="2019-05-30" />
		<tag k="ssr:gruppe" v="veg" />
		<tag k="ssr:hovedgruppe" v="infrastruktur" />
		<tag k="ssr:stedsnr" v="1027406" />
		<tag k="ssr:type" v="adressenavn" />
	</node>
	<node lat="59.23418640674015" lon="6.187921328190031" id="-6447">
		<tag k="name" v="Hagalidvegen" />
		<tag k="ssr:date" v="2019-05-30" />
		<tag k="ssr:gruppe" v="veg" />
		<tag k="ssr:hovedgruppe" v="infrastruktur" />
		<tag k="ssr:stedsnr" v="1027410" />
		<tag k="ssr:type" v="adressenavn" />
	</node>
	<node lat="59.23151289688516" lon="6.173443926283497" id="-6448">
		<tag k="name" v="Hagahaugen" />
		<tag k="ssr:date" v="2019-05-30" />
		<tag k="ssr:gruppe" v="veg" />
		<tag k="ssr:hovedgruppe" v="infrastruktur" />
		<tag k="ssr:stedsnr" v="1027412" />
		<tag k="ssr:type" v="adressenavn" />
	</node>
	<node lat="59.23214776424172" lon="6.19894546527864" id="-6449">
		<tag k="name" v="Kvame" />
		<tag k="ssr:date" v="2019-05-30" />
		<tag k="ssr:gruppe" v="veg" />
		<tag k="ssr:hovedgruppe" v="infrastruktur" />
		<tag k="ssr:stedsnr" v="1027414" />
		<tag k="ssr:type" v="adressenavn" />
	</node>
	<node lat="59.2340474466563" lon="6.176492198764941" id="-6450">
		<tag k="name" v="Hagebyen" />
		<tag k="ssr:date" v="2019-05-30" />
		<tag k="ssr:gruppe" v="veg" />
		<tag k="ssr:hovedgruppe" v="infrastruktur" />
		<tag k="ssr:stedsnr" v="1027416" />
		<tag k="ssr:type" v="adressenavn" />
	</node>
	<node lat="59.17593226355247" lon="6.068418878342137" id="-6451">
		<tag k="name" v="Solbjørvegen" />
		<tag k="ssr:date" v="2019-05-30" />
		<tag k="ssr:gruppe" v="veg" />
		<tag k="ssr:hovedgruppe" v="infrastruktur" />
		<tag k="ssr:stedsnr" v="1027417" />
		<tag k="ssr:type" v="adressenavn" />
	</node>
	<node lat="59.143166559763465" lon="6.042154221411757" id="-6452">
		<tag k="name" v="Skjelsvikvegen" />
		<tag k="ssr:date" v="2019-05-30" />
		<tag k="ssr:gruppe" v="veg" />
		<tag k="ssr:hovedgruppe" v="infrastruktur" />
		<tag k="ssr:stedsnr" v="1027419" />
		<tag k="ssr:type" v="adressenavn" />
	</node>
	<node lat="59.17905421278162" lon="6.0699034511675105" id="-6453">
		<tag k="name" v="Stølsvegen" />
		<tag k="ssr:date" v="2019-05-30" />
		<tag k="ssr:gruppe" v="veg" />
		<tag k="ssr:hovedgruppe" v="infrastruktur" />
		<tag k="ssr:stedsnr" v="1027421" />
		<tag k="ssr:type" v="adressenavn" />
	</node>
	<node lat="59.151862966373905" lon="6.033154161833207" id="-6454">
		<tag k="name" v="Solvåg" />
		<tag k="ssr:date" v="2019-05-30" />
		<tag k="ssr:gruppe" v="veg" />
		<tag k="ssr:hovedgruppe" v="infrastruktur" />
		<tag k="ssr:stedsnr" v="1027422" />
		<tag k="ssr:type" v="adressenavn" />
	</node>
	<node lat="59.237187794960015" lon="6.251327767937743" id="-6455">
		<tag k="name" v="Hegglandsvegen" />
		<tag k="ssr:date" v="2019-05-30" />
		<tag k="ssr:gruppe" v="veg" />
		<tag k="ssr:hovedgruppe" v="infrastruktur" />
		<tag k="ssr:stedsnr" v="1027423" />
		<tag k="ssr:type" v="adressenavn" />
	</node>
	<node lat="59.239504358973704" lon="6.30233567348833" id="-6456">
		<tag k="name" v="Breilandsneset" />
		<tag k="ssr:date" v="2019-05-30" />
		<tag k="ssr:gruppe" v="veg" />
		<tag k="ssr:hovedgruppe" v="infrastruktur" />
		<tag k="ssr:stedsnr" v="1027424" />
		<tag k="ssr:type" v="adressenavn" />
	</node>
	<node lat="59.24318808570192" lon="6.282162627200467" id="-6457">
		<tag k="name" v="Vigane" />
		<tag k="ssr:date" v="2019-05-30" />
		<tag k="ssr:gruppe" v="veg" />
		<tag k="ssr:hovedgruppe" v="infrastruktur" />
		<tag k="ssr:stedsnr" v="1027426" />
		<tag k="ssr:type" v="adressenavn" />
	</node>
	<node lat="59.235491322711326" lon="6.259809853975833" id="-6458">
		<tag k="name" v="Hetlandsvegen" />
		<tag k="ssr:date" v="2019-05-30" />
		<tag k="ssr:gruppe" v="veg" />
		<tag k="ssr:hovedgruppe" v="infrastruktur" />
		<tag k="ssr:stedsnr" v="1027427" />
		<tag k="ssr:type" v="adressenavn" />
	</node>
	<node lat="59.232889168101366" lon="6.171840391371456" id="-6459">
		<tag k="name" v="Vågavegen" />
		<tag k="ssr:date" v="2019-05-30" />
		<tag k="ssr:gruppe" v="veg" />
		<tag k="ssr:hovedgruppe" v="infrastruktur" />
		<tag k="ssr:stedsnr" v="1027429" />
		<tag k="ssr:type" v="adressenavn" />
	</node>
	<node lat="59.22581488995001" lon="6.20432749687078" id="-6460">
		<tag k="name" v="Vormedalsvegen" />
		<tag k="ssr:date" v="2019-05-30" />
		<tag k="ssr:gruppe" v="veg" />
		<tag k="ssr:hovedgruppe" v="infrastruktur" />
		<tag k="ssr:stedsnr" v="1027431" />
		<tag k="ssr:type" v="adressenavn" />
	</node>
	<node lat="59.312005253804585" lon="6.337198547940964" id="-6461">
		<tag k="name" v="Jøsenfjordvegen" />
		<tag k="ssr:date" v="2019-05-30" />
		<tag k="ssr:gruppe" v="veg" />
		<tag k="ssr:hovedgruppe" v="infrastruktur" />
		<tag k="ssr:stedsnr" v="1027433" />
		<tag k="ssr:type" v="adressenavn" />
	</node>
	<node lat="59.321775473447" lon="6.452155230705264" id="-6462">
		<tag k="name" v="Haugavegen" />
		<tag k="ssr:date" v="2019-05-30" />
		<tag k="ssr:gruppe" v="veg" />
		<tag k="ssr:hovedgruppe" v="infrastruktur" />
		<tag k="ssr:stedsnr" v="1027435" />
		<tag k="ssr:type" v="adressenavn" />
	</node>
	<node lat="59.15065274277634" lon="6.107642739700278" id="-6463">
		<tag k="name" v="Nessavegen" />
		<tag k="ssr:date" v="2019-05-30" />
		<tag k="ssr:gruppe" v="veg" />
		<tag k="ssr:hovedgruppe" v="infrastruktur" />
		<tag k="ssr:stedsnr" v="1027486" />
		<tag k="ssr:type" v="adressenavn" />
	</node>
	<node lat="59.28259128229187" lon="6.140332474686869" id="-6464">
		<tag k="name" v="Åslandsvegen" />
		<tag k="ssr:date" v="2019-05-30" />
		<tag k="ssr:gruppe" v="veg" />
		<tag k="ssr:hovedgruppe" v="infrastruktur" />
		<tag k="ssr:stedsnr" v="1027488" />
		<tag k="ssr:type" v="adressenavn" />
	</node>
	<node lat="59.253455701341124" lon="6.367633547971389" id="-6465">
		<tag k="name" v="Fundingslandsvegen" />
		<tag k="ssr:date" v="2019-05-30" />
		<tag k="ssr:gruppe" v="veg" />
		<tag k="ssr:hovedgruppe" v="infrastruktur" />
		<tag k="ssr:stedsnr" v="1027498" />
		<tag k="ssr:type" v="adressenavn" />
	</node>
	<node lat="59.093598467055074" lon="6.133831066100604" id="-6466">
		<tag k="name" v="Ryfylkevegen" />
		<tag k="ssr:date" v="2019-05-30" />
		<tag k="ssr:gruppe" v="veg" />
		<tag k="ssr:hovedgruppe" v="infrastruktur" />
		<tag k="ssr:stedsnr" v="1027500" />
		<tag k="ssr:type" v="adressenavn" />
	</node>
	<node lat="59.23589266275053" lon="6.384879255286132" id="-6467">
		<tag k="name" v="Kleivalandsvegen" />
		<tag k="ssr:date" v="2019-05-30" />
		<tag k="ssr:gruppe" v="veg" />
		<tag k="ssr:hovedgruppe" v="infrastruktur" />
		<tag k="ssr:stedsnr" v="1027504" />
		<tag k="ssr:type" v="adressenavn" />
	</node>
	<node lat="59.25785966133485" lon="6.370584374707317" id="-6468">
		<tag k="name" v="Tveitevegen" />
		<tag k="ssr:date" v="2019-05-30" />
		<tag k="ssr:gruppe" v="veg" />
		<tag k="ssr:hovedgruppe" v="infrastruktur" />
		<tag k="ssr:stedsnr" v="1027506" />
		<tag k="ssr:type" v="adressenavn" />
	</node>
	<node lat="59.24452295724422" lon="6.371784040167032" id="-6469">
		<tag k="name" v="Melandsvegen" />
		<tag k="ssr:date" v="2019-05-30" />
		<tag k="ssr:gruppe" v="veg" />
		<tag k="ssr:hovedgruppe" v="infrastruktur" />
		<tag k="ssr:stedsnr" v="1027509" />
		<tag k="ssr:type" v="adressenavn" />
	</node>
	<node lat="59.153585353512824" lon="6.189164792231143" id="-6470">
		<tag k="name" v="Bøen" />
		<tag k="ssr:date" v="2019-05-30" />
		<tag k="ssr:gruppe" v="veg" />
		<tag k="ssr:hovedgruppe" v="infrastruktur" />
		<tag k="ssr:stedsnr" v="1027512" />
		<tag k="ssr:type" v="adressenavn" />
	</node>
	<node lat="59.15262432050544" lon="6.18468717573469" id="-6471">
		<tag k="name" v="Bjørklund" />
		<tag k="ssr:date" v="2019-05-30" />
		<tag k="ssr:gruppe" v="veg" />
		<tag k="ssr:hovedgruppe" v="infrastruktur" />
		<tag k="ssr:stedsnr" v="1027514" />
		<tag k="ssr:type" v="adressenavn" />
	</node>
	<node lat="59.19943032815558" lon="6.0145514135540115" id="-6472">
		<tag k="name" v="Kådavågen" />
		<tag k="ssr:date" v="2019-05-30" />
		<tag k="ssr:gruppe" v="veg" />
		<tag k="ssr:hovedgruppe" v="infrastruktur" />
		<tag k="ssr:stedsnr" v="1027517" />
		<tag k="ssr:type" v="adressenavn" />
	</node>
	<node lat="59.18696281719358" lon="6.037576840897627" id="-6473">
		<tag k="name" v="Krossdalsvegen" />
		<tag k="ssr:date" v="2019-05-30" />
		<tag k="ssr:gruppe" v="veg" />
		<tag k="ssr:hovedgruppe" v="infrastruktur" />
		<tag k="ssr:stedsnr" v="1027519" />
		<tag k="ssr:type" v="adressenavn" />
	</node>
	<node lat="59.205642036440864" lon="6.01599110581958" id="-6474">
		<tag k="name" v="Randa" />
		<tag k="ssr:date" v="2019-05-30" />
		<tag k="ssr:gruppe" v="veg" />
		<tag k="ssr:hovedgruppe" v="infrastruktur" />
		<tag k="ssr:stedsnr" v="1027521" />
		<tag k="ssr:type" v="adressenavn" />
	</node>
	<node lat="59.18838935250337" lon="6.0239296146774235" id="-6475">
		<tag k="name" v="Ostervik" />
		<tag k="ssr:date" v="2019-05-30" />
		<tag k="ssr:gruppe" v="veg" />
		<tag k="ssr:hovedgruppe" v="infrastruktur" />
		<tag k="ssr:stedsnr" v="1027525" />
		<tag k="ssr:type" v="adressenavn" />
	</node>
	<node lat="59.19928957926166" lon="6.055509344729615" id="-6476">
		<tag k="name" v="Sandanger" />
		<tag k="ssr:date" v="2019-05-30" />
		<tag k="ssr:gruppe" v="veg" />
		<tag k="ssr:hovedgruppe" v="infrastruktur" />
		<tag k="ssr:stedsnr" v="1027528" />
		<tag k="ssr:type" v="adressenavn" />
	</node>
	<node lat="59.20334920131843" lon="6.052207428562573" id="-6477">
		<tag k="name" v="Randøy Ring" />
		<tag k="ssr:date" v="2019-05-30" />
		<tag k="ssr:gruppe" v="veg" />
		<tag k="ssr:hovedgruppe" v="infrastruktur" />
		<tag k="ssr:stedsnr" v="1027530" />
		<tag k="ssr:type" v="adressenavn" />
	</node>
	<node lat="59.21202738657625" lon="6.110626086342529" id="-6478">
		<tag k="name" v="Viganeset" />
		<tag k="ssr:date" v="2019-05-30" />
		<tag k="ssr:gruppe" v="veg" />
		<tag k="ssr:hovedgruppe" v="infrastruktur" />
		<tag k="ssr:stedsnr" v="1027534" />
		<tag k="ssr:type" v="adressenavn" />
	</node>
	<node lat="59.23734608633107" lon="6.179568045628415" id="-6479">
		<tag k="name" v="Nordbygda" />
		<tag k="ssr:date" v="2019-05-30" />
		<tag k="ssr:gruppe" v="veg" />
		<tag k="ssr:hovedgruppe" v="infrastruktur" />
		<tag k="ssr:stedsnr" v="1027446" />
		<tag k="ssr:type" v="adressenavn" />
	</node>
	<node lat="59.23201841965469" lon="6.156311591704184" id="-6480">
		<tag k="name" v="Puntsnes" />
		<tag k="ssr:date" v="2019-05-30" />
		<tag k="ssr:gruppe" v="veg" />
		<tag k="ssr:hovedgruppe" v="infrastruktur" />
		<tag k="ssr:stedsnr" v="1027448" />
		<tag k="ssr:type" v="adressenavn" />
	</node>
	<node lat="59.23531728202076" lon="6.177618809959017" id="-6481">
		<tag k="name" v="Prestøyra" />
		<tag k="ssr:date" v="2019-05-30" />
		<tag k="ssr:gruppe" v="veg" />
		<tag k="ssr:hovedgruppe" v="infrastruktur" />
		<tag k="ssr:stedsnr" v="1027450" />
		<tag k="ssr:type" v="adressenavn" />
	</node>
	<node lat="59.22861898283049" lon="6.174195544823846" id="-6482">
		<tag k="name" v="Røgelstadvegen" />
		<tag k="ssr:date" v="2019-05-30" />
		<tag k="ssr:gruppe" v="veg" />
		<tag k="ssr:hovedgruppe" v="infrastruktur" />
		<tag k="ssr:stedsnr" v="1027452" />
		<tag k="ssr:type" v="adressenavn" />
	</node>
	<node lat="59.23000586826476" lon="6.1716668428773405" id="-6483">
		<tag k="name" v="Ramsbu" />
		<tag k="ssr:date" v="2019-05-30" />
		<tag k="ssr:gruppe" v="veg" />
		<tag k="ssr:hovedgruppe" v="infrastruktur" />
		<tag k="ssr:stedsnr" v="1027454" />
		<tag k="ssr:type" v="adressenavn" />
	</node>
	<node lat="59.2257114495373" lon="6.176795486450281" id="-6484">
		<tag k="name" v="Tuntlandsvegen" />
		<tag k="ssr:date" v="2019-05-30" />
		<tag k="ssr:gruppe" v="veg" />
		<tag k="ssr:hovedgruppe" v="infrastruktur" />
		<tag k="ssr:stedsnr" v="1027457" />
		<tag k="ssr:type" v="adressenavn" />
	</node>
	<node lat="59.234237057494944" lon="6.187975319848163" id="-6485">
		<tag k="name" v="Sæbøvegen" />
		<tag k="ssr:date" v="2019-05-30" />
		<tag k="ssr:gruppe" v="veg" />
		<tag k="ssr:hovedgruppe" v="infrastruktur" />
		<tag k="ssr:stedsnr" v="1027459" />
		<tag k="ssr:type" v="adressenavn" />
	</node>
	<node lat="59.18168589445744" lon="5.996898885899366" id="-6486">
		<tag k="name" v="Børøyvegen" />
		<tag k="ssr:date" v="2019-05-30" />
		<tag k="ssr:gruppe" v="veg" />
		<tag k="ssr:hovedgruppe" v="infrastruktur" />
		<tag k="ssr:stedsnr" v="1027473" />
		<tag k="ssr:type" v="adressenavn" />
	</node>
	<node lat="59.21664368044909" lon="6.036812751568032" id="-6487">
		<tag k="name" v="Breivik" />
		<tag k="ssr:date" v="2019-05-30" />
		<tag k="ssr:gruppe" v="veg" />
		<tag k="ssr:hovedgruppe" v="infrastruktur" />
		<tag k="ssr:stedsnr" v="1027475" />
		<tag k="ssr:type" v="adressenavn" />
	</node>
	<node lat="59.22776590568806" lon="6.0954419646792655" id="-6488">
		<tag k="name" v="Kobbasteinen" />
		<tag k="ssr:date" v="2019-05-30" />
		<tag k="ssr:gruppe" v="veg" />
		<tag k="ssr:hovedgruppe" v="infrastruktur" />
		<tag k="ssr:stedsnr" v="1027478" />
		<tag k="ssr:type" v="adressenavn" />
	</node>
	<node lat="59.199301070005376" lon="6.038014862807614" id="-6489">
		<tag k="name" v="Hovdavegen" />
		<tag k="ssr:date" v="2019-05-30" />
		<tag k="ssr:gruppe" v="veg" />
		<tag k="ssr:hovedgruppe" v="infrastruktur" />
		<tag k="ssr:stedsnr" v="1027480" />
		<tag k="ssr:type" v="adressenavn" />
	</node>
	<node lat="59.278066637499634" lon="6.142712067646221" id="-6490">
		<tag k="name" v="Skiftun" />
		<tag k="ssr:date" v="2019-05-30" />
		<tag k="ssr:gruppe" v="veg" />
		<tag k="ssr:hovedgruppe" v="infrastruktur" />
		<tag k="ssr:stedsnr" v="1027482" />
		<tag k="ssr:type" v="adressenavn" />
	</node>
	<node lat="59.28600285061422" lon="6.127985272217212" id="-6491">
		<tag k="name" v="Knutsvik" />
		<tag k="ssr:date" v="2019-05-30" />
		<tag k="ssr:gruppe" v="veg" />
		<tag k="ssr:hovedgruppe" v="infrastruktur" />
		<tag k="ssr:stedsnr" v="1027484" />
		<tag k="ssr:type" v="adressenavn" />
	</node>
	<node lat="59.19786923027314" lon="6.045579655473841" id="-6492">
		<tag k="name" v="Sandangervågen" />
		<tag k="ssr:date" v="2019-05-30" />
		<tag k="ssr:gruppe" v="veg" />
		<tag k="ssr:hovedgruppe" v="infrastruktur" />
		<tag k="ssr:stedsnr" v="1027537" />
		<tag k="ssr:type" v="adressenavn" />
	</node>
	<node lat="59.21462218191508" lon="6.120085200099316" id="-6493">
		<tag k="name" v="Askvikbakken" />
		<tag k="ssr:date" v="2019-05-30" />
		<tag k="ssr:gruppe" v="veg" />
		<tag k="ssr:hovedgruppe" v="infrastruktur" />
		<tag k="ssr:stedsnr" v="1027585" />
		<tag k="ssr:type" v="adressenavn" />
	</node>
	<node lat="59.178454286384536" lon="6.155726052223566" id="-6494">
		<tag k="name" v="Gjessfjellvegen" />
		<tag k="ssr:date" v="2019-05-30" />
		<tag k="ssr:gruppe" v="veg" />
		<tag k="ssr:hovedgruppe" v="infrastruktur" />
		<tag k="ssr:stedsnr" v="1027589" />
		<tag k="ssr:type" v="adressenavn" />
	</node>
	<node lat="59.220475346579526" lon="6.15030262955662" id="-6495">
		<tag k="name" v="Espelandsvegen" />
		<tag k="ssr:date" v="2019-05-30" />
		<tag k="ssr:gruppe" v="veg" />
		<tag k="ssr:hovedgruppe" v="infrastruktur" />
		<tag k="ssr:stedsnr" v="1027592" />
		<tag k="ssr:type" v="adressenavn" />
	</node>
	<node lat="59.21844696291459" lon="6.125801585753329" id="-6496">
		<tag k="name" v="Hundsnesvegen" />
		<tag k="ssr:date" v="2019-05-30" />
		<tag k="ssr:gruppe" v="veg" />
		<tag k="ssr:hovedgruppe" v="infrastruktur" />
		<tag k="ssr:stedsnr" v="1027594" />
		<tag k="ssr:type" v="adressenavn" />
	</node>
	<node lat="59.2031286541379" lon="6.127204850703887" id="-6497">
		<tag k="name" v="Hauske" />
		<tag k="ssr:date" v="2019-05-30" />
		<tag k="ssr:gruppe" v="veg" />
		<tag k="ssr:hovedgruppe" v="infrastruktur" />
		<tag k="ssr:stedsnr" v="1027597" />
		<tag k="ssr:type" v="adressenavn" />
	</node>
	<node lat="59.22445040769142" lon="6.140042161046113" id="-6498">
		<tag k="name" v="Kleppa" />
		<tag k="ssr:date" v="2019-05-30" />
		<tag k="ssr:gruppe" v="veg" />
		<tag k="ssr:hovedgruppe" v="infrastruktur" />
		<tag k="ssr:stedsnr" v="1027602" />
		<tag k="ssr:type" v="adressenavn" />
	</node>
	<node lat="59.17542362786836" lon="6.060320524047107" id="-6499">
		<tag k="name" v="Klokkarjordet" />
		<tag k="ssr:date" v="2019-05-30" />
		<tag k="ssr:gruppe" v="veg" />
		<tag k="ssr:hovedgruppe" v="infrastruktur" />
		<tag k="ssr:stedsnr" v="1027618" />
		<tag k="ssr:type" v="adressenavn" />
	</node>
	<node lat="59.17661574516489" lon="6.066090977778394" id="-6500">
		<tag k="name" v="Kaivegen" />
		<tag k="ssr:date" v="2019-05-30" />
		<tag k="ssr:gruppe" v="veg" />
		<tag k="ssr:hovedgruppe" v="infrastruktur" />
		<tag k="ssr:stedsnr" v="1027619" />
		<tag k="ssr:type" v="adressenavn" />
	</node>
	<node lat="59.16300978380051" lon="6.043099175992724" id="-6501">
		<tag k="name" v="Lysåsen" />
		<tag k="ssr:date" v="2019-05-30" />
		<tag k="ssr:gruppe" v="veg" />
		<tag k="ssr:hovedgruppe" v="infrastruktur" />
		<tag k="ssr:stedsnr" v="1027620" />
		<tag k="ssr:type" v="adressenavn" />
	</node>
	<node lat="59.17570832498499" lon="6.061234592139223" id="-6502">
		<tag k="name" v="Kyrkjebakken" />
		<tag k="ssr:date" v="2019-05-30" />
		<tag k="ssr:gruppe" v="veg" />
		<tag k="ssr:hovedgruppe" v="infrastruktur" />
		<tag k="ssr:stedsnr" v="1027622" />
		<tag k="ssr:type" v="adressenavn" />
	</node>
	<node lat="59.150848692013334" lon="6.036194847272295" id="-6503">
		<tag k="name" v="Nesvegen" />
		<tag k="ssr:date" v="2019-05-30" />
		<tag k="ssr:gruppe" v="veg" />
		<tag k="ssr:hovedgruppe" v="infrastruktur" />
		<tag k="ssr:stedsnr" v="1027623" />
		<tag k="ssr:type" v="adressenavn" />
	</node>
	<node lat="59.14962185006434" lon="6.03298127933388" id="-6504">
		<tag k="name" v="Mosnes" />
		<tag k="ssr:date" v="2019-05-30" />
		<tag k="ssr:gruppe" v="veg" />
		<tag k="ssr:hovedgruppe" v="infrastruktur" />
		<tag k="ssr:stedsnr" v="1027624" />
		<tag k="ssr:type" v="adressenavn" />
	</node>
	<node lat="59.17531368940436" lon="6.057315643025213" id="-6505">
		<tag k="name" v="Sandvikvegen" />
		<tag k="ssr:date" v="2019-05-30" />
		<tag k="ssr:gruppe" v="veg" />
		<tag k="ssr:hovedgruppe" v="infrastruktur" />
		<tag k="ssr:stedsnr" v="1027625" />
		<tag k="ssr:type" v="adressenavn" />
	</node>
	<node lat="59.145456042730466" lon="6.073163721065236" id="-6506">
		<tag k="name" v="Nordskårvegen" />
		<tag k="ssr:date" v="2019-05-30" />
		<tag k="ssr:gruppe" v="veg" />
		<tag k="ssr:hovedgruppe" v="infrastruktur" />
		<tag k="ssr:stedsnr" v="1027626" />
		<tag k="ssr:type" v="adressenavn" />
	</node>
	<node lat="59.19181315727081" lon="6.140239361053633" id="-6507">
		<tag k="name" v="Øvre Byrkja" />
		<tag k="ssr:date" v="2019-05-30" />
		<tag k="ssr:gruppe" v="veg" />
		<tag k="ssr:hovedgruppe" v="infrastruktur" />
		<tag k="ssr:stedsnr" v="1027627" />
		<tag k="ssr:type" v="adressenavn" />
	</node>
	<node lat="59.192683328454414" lon="6.137362791103439" id="-6508">
		<tag k="name" v="Nedre Byrkja" />
		<tag k="ssr:date" v="2019-05-30" />
		<tag k="ssr:gruppe" v="veg" />
		<tag k="ssr:hovedgruppe" v="infrastruktur" />
		<tag k="ssr:stedsnr" v="1027629" />
		<tag k="ssr:type" v="adressenavn" />
	</node>
	<node lat="59.17464680099384" lon="6.072939632843225" id="-6509">
		<tag k="name" v="Eikehaugen" />
		<tag k="ssr:date" v="2019-05-30" />
		<tag k="ssr:gruppe" v="veg" />
		<tag k="ssr:hovedgruppe" v="infrastruktur" />
		<tag k="ssr:stedsnr" v="1027630" />
		<tag k="ssr:type" v="adressenavn" />
	</node>
	<node lat="59.16050383563653" lon="6.116230981702788" id="-6510">
		<tag k="name" v="Bratthetland" />
		<tag k="ssr:date" v="2019-05-30" />
		<tag k="ssr:gruppe" v="veg" />
		<tag k="ssr:hovedgruppe" v="infrastruktur" />
		<tag k="ssr:stedsnr" v="1027631" />
		<tag k="ssr:type" v="adressenavn" />
	</node>
	<node lat="59.17031675455125" lon="6.141381135472228" id="-6511">
		<tag k="name" v="Fistervegen" />
		<tag k="ssr:date" v="2019-05-30" />
		<tag k="ssr:gruppe" v="veg" />
		<tag k="ssr:hovedgruppe" v="infrastruktur" />
		<tag k="ssr:stedsnr" v="1027632" />
		<tag k="ssr:type" v="adressenavn" />
	</node>
	<node lat="59.17650339266096" lon="6.06132804866321" id="-6512">
		<tag k="name" v="Fisterhammaren" />
		<tag k="ssr:date" v="2019-05-30" />
		<tag k="ssr:gruppe" v="veg" />
		<tag k="ssr:hovedgruppe" v="infrastruktur" />
		<tag k="ssr:stedsnr" v="1027633" />
		<tag k="ssr:type" v="adressenavn" />
	</node>
	<node lat="59.13578393396846" lon="6.021306938254177" id="-6513">
		<tag k="name" v="Helgøyvegen" />
		<tag k="ssr:date" v="2019-05-30" />
		<tag k="ssr:gruppe" v="veg" />
		<tag k="ssr:hovedgruppe" v="infrastruktur" />
		<tag k="ssr:stedsnr" v="1027635" />
		<tag k="ssr:type" v="adressenavn" />
	</node>
	<node lat="59.14097951883937" lon="6.043405600337394" id="-6514">
		<tag k="name" v="Grønvikvegen" />
		<tag k="ssr:date" v="2019-05-30" />
		<tag k="ssr:gruppe" v="veg" />
		<tag k="ssr:hovedgruppe" v="infrastruktur" />
		<tag k="ssr:stedsnr" v="1027637" />
		<tag k="ssr:type" v="adressenavn" />
	</node>
	<node lat="59.28046590539665" lon="6.052993601340531" id="-6521">
		<tag k="name" v="Helgalandsvegen" />
		<tag k="ssr:date" v="2019-12-10" />
		<tag k="ssr:gruppe" v="veg" />
		<tag k="ssr:hovedgruppe" v="infrastruktur" />
		<tag k="ssr:stedsnr" v="1073949" />
		<tag k="ssr:type" v="adressenavn" />
	</node>
	<node lat="59.21620373491646" lon="6.020523223932984" id="-6523">
		<tag k="name" v="Bjørkåsen" />
		<tag k="ssr:date" v="2020-12-21" />
		<tag k="ssr:gruppe" v="veg" />
		<tag k="ssr:hovedgruppe" v="infrastruktur" />
		<tag k="ssr:stedsnr" v="1079429" />
		<tag k="ssr:type" v="adressenavn" />
	</node>
	<node lat="59.22177502544505" lon="6.058392162828064" id="-6524">
		<tag k="name" v="Valvikvegen" />
		<tag k="ssr:date" v="2020-12-21" />
		<tag k="ssr:gruppe" v="veg" />
		<tag k="ssr:hovedgruppe" v="infrastruktur" />
		<tag k="ssr:stedsnr" v="1079432" />
		<tag k="ssr:type" v="adressenavn" />
	</node>
</osm>
