<?xml version="1.0" encoding="UTF-8"?>
<osm generator="osmapis" version="0.6">
	<node id="-402720" lat="58.6694777759" lon="5.54204722238">
		<tag k="alt_name" v="Håtangen" />
		<tag k="name" v="Håtangen lykt" />
		<tag k="ssr:date" v="2016-05-10" />
		<tag k="ssr:gruppe" v="navigasjon" />
		<tag k="ssr:hovedgruppe" v="infrastruktur" />
		<tag k="ssr:stedsnr" v="364787" />
		<tag k="ssr:type" v="fyrlykt" />
	</node>
	<node id="-402736" lat="58.4850111152" lon="5.8237138965">
		<tag k="name" v="Vatnemoholmene, østre, øvre" />
		<tag k="ssr:date" v="2016-05-10" />
		<tag k="ssr:gruppe" v="navigasjon" />
		<tag k="ssr:hovedgruppe" v="infrastruktur" />
		<tag k="ssr:stedsnr" v="404501" />
		<tag k="ssr:type" v="lanterne" />
	</node>
	<node id="-403068" lat="58.5060249958" lon="5.78952777137">
		<tag k="name" v="Indreodden lanterne" />
		<tag k="ssr:date" v="2016-05-10" />
		<tag k="ssr:gruppe" v="navigasjon" />
		<tag k="ssr:hovedgruppe" v="infrastruktur" />
		<tag k="ssr:stedsnr" v="464507" />
		<tag k="ssr:type" v="lanterne" />
	</node>
	<node id="-403468" lat="58.6580333356" lon="5.55434166798">
		<tag k="alt_name" v="Obrestad" />
		<tag k="name" v="Obrestad fyr" />
		<tag k="ssr:date" v="2016-05-11" />
		<tag k="ssr:gruppe" v="navigasjon" />
		<tag k="ssr:hovedgruppe" v="infrastruktur" />
		<tag k="ssr:stedsnr" v="850275" />
		<tag k="ssr:type" v="fyrstasjon" />
	</node>
	<node id="-403544" lat="58.5047361132" lon="5.79005833975">
		<tag k="name" v="Vestreodden" />
		<tag k="ssr:date" v="2016-05-11" />
		<tag k="ssr:gruppe" v="navigasjon" />
		<tag k="ssr:hovedgruppe" v="infrastruktur" />
		<tag k="ssr:stedsnr" v="950484" />
		<tag k="ssr:type" v="lanterne" />
	</node>
	<node id="-402756" lat="58.507277778" lon="5.78496666897">
		<tag k="name" v="Sirevåg molo" />
		<tag k="ssr:date" v="2016-05-11" />
		<tag k="ssr:gruppe" v="navigasjon" />
		<tag k="ssr:hovedgruppe" v="infrastruktur" />
		<tag k="ssr:stedsnr" v="889492" />
		<tag k="ssr:type" v="lanterne" />
	</node>
	<node id="-402675" lat="58.5030444416" lon="5.79428333412">
		<tag k="name" v="Sirevåg, nedre" />
		<tag k="ssr:date" v="2016-05-10" />
		<tag k="ssr:gruppe" v="navigasjon" />
		<tag k="ssr:hovedgruppe" v="infrastruktur" />
		<tag k="ssr:stedsnr" v="343511" />
		<tag k="ssr:type" v="lanterne" />
	</node>
	<node id="-402676" lat="58.5016555578" lon="5.79691665959">
		<tag k="name" v="Sirevåg, øvre" />
		<tag k="ssr:date" v="2016-05-10" />
		<tag k="ssr:gruppe" v="navigasjon" />
		<tag k="ssr:hovedgruppe" v="infrastruktur" />
		<tag k="ssr:stedsnr" v="343510" />
		<tag k="ssr:type" v="lanterne" />
	</node>
	<node id="-403123" lat="58.4849305571" lon="5.81608332951">
		<tag k="name" v="Vatnemoholmene, vestre, nedre" />
		<tag k="ssr:date" v="2016-05-10" />
		<tag k="ssr:gruppe" v="navigasjon" />
		<tag k="ssr:hovedgruppe" v="infrastruktur" />
		<tag k="ssr:stedsnr" v="525518" />
		<tag k="ssr:type" v="lanterne" />
	</node>
	<node id="-402769" lat="58.7269353816" lon="5.56165368571">
		<tag k="name" v="Lågjæren" />
		<tag k="ssr:date" v="2019-09-10" />
		<tag k="ssr:gruppe" v="terrengområder" />
		<tag k="ssr:hovedgruppe" v="terreng" />
		<tag k="ssr:stedsnr" v="1072522" />
		<tag k="ssr:type" v="landskapsområde" />
	</node>
	<node id="-402864" lat="58.4851805553" lon="5.81568333974">
		<tag k="name" v="Vatnemoholmene, vestre, øvre" />
		<tag k="ssr:date" v="2016-05-10" />
		<tag k="ssr:gruppe" v="navigasjon" />
		<tag k="ssr:hovedgruppe" v="infrastruktur" />
		<tag k="ssr:stedsnr" v="100508" />
		<tag k="ssr:type" v="lanterne" />
	</node>
	<node id="-402799" lat="58.616119441" lon="5.64481666739">
		<tag k="alt_name" v="Hå" />
		<tag k="name" v="Hå kommune" />
		<tag k="ssr:date" v="2017-04-04" />
		<tag k="ssr:gruppe" v="administrativeIndelinger" />
		<tag k="ssr:hovedgruppe" v="offentligAdministrasjon" />
		<tag k="ssr:stedsnr" v="23896" />
		<tag k="ssr:type" v="kommune" />
	</node>
	<node id="-403564" lat="60.8816104596" lon="6.30047518531">
		<tag k="name" v="Vestlandet" />
		<tag k="ssr:date" v="2019-01-06" />
		<tag k="ssr:gruppe" v="administrativeIndelinger" />
		<tag k="ssr:hovedgruppe" v="offentligAdministrasjon" />
		<tag k="ssr:stedsnr" v="974777" />
		<tag k="ssr:type" v="annenAdministrativInndeling" />
	</node>
	<node id="-403403" lat="58.6468305515" lon="5.75073332528">
		<tag k="loc_name" v="Høg-Jæren" />
		<tag k="name" v="Høgjæren" />
		<tag k="ssr:date" v="2016-05-11" />
		<tag k="ssr:gruppe" v="terrengområder" />
		<tag k="ssr:hovedgruppe" v="terreng" />
		<tag k="ssr:stedsnr" v="789327" />
		<tag k="ssr:type" v="landskapsområde" />
	</node>
	<node id="-403370" lat="58.5273972242" lon="5.70477222027">
		<tag k="name" v="Rauna" />
		<tag k="ssr:date" v="2016-05-11" />
		<tag k="ssr:gruppe" v="navigasjon" />
		<tag k="ssr:hovedgruppe" v="infrastruktur" />
		<tag k="ssr:stedsnr" v="767216" />
		<tag k="ssr:type" v="lanterne" />
	</node>
	<node id="-402921" lat="58.4845055543" lon="5.82331388514">
		<tag k="name" v="Vatnemoholmene, østre, nedre" />
		<tag k="ssr:date" v="2016-05-10" />
		<tag k="ssr:gruppe" v="navigasjon" />
		<tag k="ssr:hovedgruppe" v="infrastruktur" />
		<tag k="ssr:stedsnr" v="161495" />
		<tag k="ssr:type" v="lanterne" />
	</node>
	<node id="-403048" lat="58.5072444451" lon="5.78830832761">
		<tag k="alt_name" v="Persodden" />
		<tag k="name" v="Persodden lykt" />
		<tag k="ssr:date" v="2016-05-10" />
		<tag k="ssr:gruppe" v="navigasjon" />
		<tag k="ssr:hovedgruppe" v="infrastruktur" />
		<tag k="ssr:stedsnr" v="425421" />
		<tag k="ssr:type" v="fyrlykt" />
	</node>
	<node id="-403228" lat="58.6889166675" lon="5.58042778607">
		<tag k="name" v="Jæren" />
		<tag k="ssr:date" v="2016-05-10" />
		<tag k="ssr:gruppe" v="terrengområder" />
		<tag k="ssr:hovedgruppe" v="terreng" />
		<tag k="ssr:stedsnr" v="606791" />
		<tag k="ssr:type" v="landskapsområde" />
	</node>
	<node id="-402673" lat="58.5444333352" lon="5.68041111685">
		<tag k="alt_name" v="Kvassheim" />
		<tag k="name" v="Kvassheim lykt" />
		<tag k="ssr:date" v="2016-05-10" />
		<tag k="ssr:gruppe" v="navigasjon" />
		<tag k="ssr:hovedgruppe" v="infrastruktur" />
		<tag k="ssr:stedsnr" v="343318" />
		<tag k="ssr:type" v="fyrlykt" />
	</node>
	<node id="-402788" lat="58.5440444476" lon="5.68178888825">
		<tag k="name" v="Kvassheim fyr" />
		<tag k="old_name" v="Kvassheim" />
		<tag k="ssr:date" v="2016-05-10" />
		<tag k="ssr:gruppe" v="navigasjon" />
		<tag k="ssr:hovedgruppe" v="infrastruktur" />
		<tag k="ssr:stedsnr" v="425" />
		<tag k="ssr:type" v="fyrstasjon" />
	</node>
	<node id="-403363" lat="58.6520444433" lon="5.56643611881">
		<tag k="name" v="Obrestad havn" />
		<tag k="ssr:date" v="2016-05-11" />
		<tag k="ssr:gruppe" v="navigasjon" />
		<tag k="ssr:hovedgruppe" v="infrastruktur" />
		<tag k="ssr:stedsnr" v="752410" />
		<tag k="ssr:type" v="fyrlykt" />
	</node>
</osm>
