<?xml version="1.0" encoding="UTF-8"?>
<osm generator="osmapis" version="0.6">
	<node id="-844149" lat="64.0144468016" lon="11.4818866293">
		<tag k="fixme" v="multiple name tags, choose one and add the other to alt_name" />
		<tag k="name" v="Trøndelag fylke - Trööndelage;Trööndelagen fylhke" />
		<tag k="name:no" v="Trøndelag fylke" />
		<tag k="name:sma" v="Trööndelage;Trööndelagen fylhke" />
		<tag k="ssr:date" v="2019-11-14" />
		<tag k="ssr:gruppe" v="administrativeIndelinger" />
		<tag k="ssr:hovedgruppe" v="offentligAdministrasjon" />
		<tag k="ssr:stedsnr" v="980645" />
		<tag k="ssr:type" v="fylke" />
	</node>
	<node id="-843324" lat="63.5668055568" lon="9.32194999635">
		<tag k="name" v="Neset lykt" />
		<tag k="ssr:date" v="2018-01-09" />
		<tag k="ssr:gruppe" v="navigasjon" />
		<tag k="ssr:hovedgruppe" v="infrastruktur" />
		<tag k="ssr:stedsnr" v="887977" />
		<tag k="ssr:type" v="fyrlykt" />
	</node>
	<node id="-842901" lat="63.5683861069" lon="9.27397499788">
		<tag k="name" v="Rognan" />
		<tag k="ssr:date" v="2018-01-09" />
		<tag k="ssr:gruppe" v="navigasjon" />
		<tag k="ssr:hovedgruppe" v="infrastruktur" />
		<tag k="ssr:stedsnr" v="863101" />
		<tag k="ssr:type" v="fyrlykt" />
	</node>
	<node id="-842546" lat="63.5057499961" lon="9.82622778678">
		<tag k="name" v="Agdenes kommune" />
		<tag k="ssr:date" v="2018-01-09" />
		<tag k="ssr:gruppe" v="administrativeIndelinger" />
		<tag k="ssr:hovedgruppe" v="offentligAdministrasjon" />
		<tag k="ssr:stedsnr" v="86143" />
		<tag k="ssr:type" v="kommune" />
	</node>
	<node id="-844048" lat="63.5667083368" lon="9.32137222611">
		<tag k="name" v="Sørleksa" />
		<tag k="ssr:date" v="2018-01-09" />
		<tag k="ssr:gruppe" v="navigasjon" />
		<tag k="ssr:hovedgruppe" v="infrastruktur" />
		<tag k="ssr:stedsnr" v="134150" />
		<tag k="ssr:type" v="fyrlykt" />
	</node>
	<node id="-844045" lat="63.6197486788" lon="9.59744075119">
		<tag k="name" v="Røysaneset" />
		<tag k="ssr:date" v="2019-01-03" />
		<tag k="ssr:gruppe" v="navigasjon" />
		<tag k="ssr:hovedgruppe" v="infrastruktur" />
		<tag k="ssr:stedsnr" v="13080" />
		<tag k="ssr:type" v="fyrlykt" />
	</node>
	<node id="-843239" lat="63.6475993455" lon="9.7567694994">
		<tag k="name" v="Ringflua fyr" />
		<tag k="ssr:date" v="2019-02-12" />
		<tag k="ssr:gruppe" v="navigasjon" />
		<tag k="ssr:hovedgruppe" v="infrastruktur" />
		<tag k="ssr:stedsnr" v="73818" />
		<tag k="ssr:type" v="fyrstasjon" />
	</node>
</osm>
