<?xml version="1.0" encoding="UTF-8"?>
<osm version="0.6" generator="osmapis">
	<node lat="61.45878333546281" lon="5.848955558950675" id="-60903">
		<tag k="bridge" v="yes" />
		<tag k="layer" v="1" />
		<tag k="name" v="Øyrane undergang" />
		<tag k="ssr:stedsnr" v="229623" />
	</node>
	<node lat="61.41010278163122" lon="5.910141660938764" id="-60904">
		<tag k="bridge" v="yes" />
		<tag k="layer" v="1" />
		<tag k="name" v="Ullebust" />
		<tag k="ssr:stedsnr" v="229626" />
	</node>
	<node lat="61.53654722249447" lon="6.052197222358076" id="-61074">
		<tag k="bridge" v="yes" />
		<tag k="layer" v="1" />
		<tag k="name" v="Botna" />
		<tag k="ssr:stedsnr" v="47320" />
	</node>
	<node lat="61.51741388487413" lon="6.001180551181078" id="-61075">
		<tag k="bridge" v="yes" />
		<tag k="layer" v="1" />
		<tag k="name" v="Eikeland" />
		<tag k="ssr:stedsnr" v="47322" />
	</node>
	<node lat="61.56591666543012" lon="6.460041672884456" id="-61076">
		<tag k="bridge" v="yes" />
		<tag k="layer" v="1" />
		<tag k="name" v="Haugsøyane" />
		<tag k="ssr:stedsnr" v="47325" />
	</node>
	<node lat="61.499513888249844" lon="5.974808324887811" id="-61237">
		<tag k="bridge" v="yes" />
		<tag k="layer" v="1" />
		<tag k="name" v="Grøvla" />
		<tag k="ssr:stedsnr" v="108311" />
	</node>
	<node lat="61.392041669502895" lon="5.763619445950486" id="-61347">
		<tag k="aeroway" v="aerodrome" />
		<tag k="alt_name" v="Bringeland" />
		<tag k="name" v="Førde lufthamn, Bringeland" />
		<tag k="old_name" v="Førde lufthamn" />
		<tag k="ssr:stedsnr" v="250927" />
	</node>
	<node lat="61.35613890374643" lon="5.777263321101869" id="-61359">
		<tag k="layer" v="-1" />
		<tag k="name" v="Myrmelstunnelen" />
		<tag k="old_name" v="Myrmeltunnelen" />
		<tag k="ssr:stedsnr" v="121029" />
		<tag k="tunnel" v="yes" />
	</node>
	<node lat="61.49126388463282" lon="5.980922225349076" id="-61583">
		<tag k="bridge" v="yes" />
		<tag k="layer" v="1" />
		<tag k="name" v="Grimeland" />
		<tag k="ssr:stedsnr" v="169314" />
	</node>
	<node lat="61.456505553273104" lon="5.691605550169395" id="-61584">
		<tag k="bridge" v="yes" />
		<tag k="layer" v="1" />
		<tag k="name" v="Fauskestølen" />
		<tag k="ssr:stedsnr" v="169318" />
	</node>
	<node lat="61.493130558075315" lon="5.467761106627646" id="-61585">
		<tag k="bridge" v="yes" />
		<tag k="layer" v="1" />
		<tag k="name" v="Gryta" />
		<tag k="ssr:stedsnr" v="169612" />
	</node>
	<node lat="61.598980557463285" lon="5.867791661894623" id="-61735">
		<tag k="highway" v="path" />
		<tag k="name" v="Dombestien" />
		<tag k="ssr:stedsnr" v="226892" />
	</node>
	<node lat="61.61423055377094" lon="6.7213777792276925" id="-61736">
		<tag k="bridge" v="yes" />
		<tag k="layer" v="1" />
		<tag k="name" v="Aamot" />
		<tag k="ssr:stedsnr" v="229314" />
	</node>
	<node lat="61.382116662965615" lon="5.802380548083555" id="-61737">
		<tag k="bridge" v="yes" />
		<tag k="layer" v="1" />
		<tag k="name" v="Storehaug undergang" />
		<tag k="ssr:stedsnr" v="229329" />
	</node>
	<node lat="61.450230558999344" lon="5.852697225072922" id="-61773">
		<tag k="leisure" v="marina" />
		<tag k="name" v="Naustøyna" />
		<tag k="ssr:stedsnr" v="456897" />
	</node>
	<node lat="61.336730554553114" lon="5.8206250053779724" id="-61805">
		<tag k="junction" v="yes" />
		<tag k="name" v="Vegskifte" />
		<tag k="place" v="locality" />
		<tag k="ssr:stedsnr" v="271828" />
	</node>
	<node lat="61.57799722069325" lon="5.940097224170194" id="-61877">
		<tag k="bridge" v="yes" />
		<tag k="layer" v="1" />
		<tag k="name" v="Jubrauta" />
		<tag k="ssr:stedsnr" v="289704" />
	</node>
	<node lat="61.35417222563464" lon="6.120647226883951" id="-61878">
		<tag k="bridge" v="yes" />
		<tag k="layer" v="1" />
		<tag k="name" v="Ørnehaug" />
		<tag k="ssr:stedsnr" v="290312" />
	</node>
	<node lat="61.290636112594726" lon="6.147536115510127" id="-61939">
		<tag k="man_made" v="cairn" />
		<tag k="name" v="Vindskeidvarden" />
		<tag k="place" v="locality" />
		<tag k="ssr:stedsnr" v="311629" />
	</node>
	<node lat="61.47163888667753" lon="6.054099995653442" id="-61989">
		<tag k="bridge" v="yes" />
		<tag k="layer" v="1" />
		<tag k="name" v="Støfring" />
		<tag k="ssr:stedsnr" v="471324" />
	</node>
	<node lat="61.527808336494004" lon="6.019427770756218" id="-62032">
		<tag k="bridge" v="yes" />
		<tag k="layer" v="1" />
		<tag k="name" v="Svoregrova" />
		<tag k="ssr:stedsnr" v="472293" />
	</node>
	<node lat="61.54931388574024" lon="5.6984861180057695" id="-62234">
		<tag k="highway" v="path" />
		<tag k="name" v="Horstadstølsvegen" />
		<tag k="ssr:stedsnr" v="408000" />
	</node>
	<node lat="61.487444445977275" lon="5.817002776152942" id="-62248">
		<tag k="bridge" v="yes" />
		<tag k="layer" v="1" />
		<tag k="name" v="Erdal" />
		<tag k="ssr:stedsnr" v="411300" />
	</node>
	<node lat="61.55283611332907" lon="6.47515277807413" id="-62253">
		<tag k="layer" v="-1" />
		<tag k="name" v="Kjøsnestunnelen" />
		<tag k="ssr:stedsnr" v="424114" />
		<tag k="tunnel" v="yes" />
	</node>
	<node lat="61.31796666825089" lon="6.033758341520618" id="-62583">
		<tag k="bridge" v="yes" />
		<tag k="layer" v="1" />
		<tag k="name" v="Årteig Øvre" />
		<tag k="ssr:stedsnr" v="472313" />
	</node>
	<node lat="61.38571111364973" lon="5.8098749969215255" id="-62584">
		<tag k="bridge" v="yes" />
		<tag k="layer" v="1" />
		<tag k="name" v="Skilbrei undergang" />
		<tag k="ssr:stedsnr" v="472319" />
	</node>
	<node lat="61.514299996120855" lon="5.719122220459366" id="-62587">
		<tag k="bridge" v="yes" />
		<tag k="layer" v="1" />
		<tag k="name" v="Bærelva" />
		<tag k="ssr:stedsnr" v="472603" />
	</node>
	<node lat="61.437988888741124" lon="5.656686103537223" id="-62588">
		<tag k="bridge" v="yes" />
		<tag k="layer" v="1" />
		<tag k="name" v="Øygard" />
		<tag k="ssr:stedsnr" v="472605" />
	</node>
	<node lat="61.54050277431689" lon="5.789936104684604" id="-62589">
		<tag k="bridge" v="yes" />
		<tag k="layer" v="1" />
		<tag k="name" v="Flatene" />
		<tag k="ssr:stedsnr" v="472614" />
	</node>
	<node lat="61.452311109304176" lon="5.843636110412336" id="-62786">
		<tag k="bridge" v="yes" />
		<tag k="layer" v="1" />
		<tag k="name" v="Halbrend" />
		<tag k="ssr:stedsnr" v="533312" />
	</node>
	<node lat="61.49168055447015" lon="6.119330563217967" id="-62787">
		<tag k="bridge" v="yes" />
		<tag k="layer" v="1" />
		<tag k="name" v="Gjesdal" />
		<tag k="ssr:stedsnr" v="533326" />
	</node>
	<node lat="61.335224998810894" lon="6.367519443574919" id="-62961">
		<tag k="bridge" v="yes" />
		<tag k="layer" v="1" />
		<tag k="name" v="Langestølen" />
		<tag k="ssr:stedsnr" v="592352" />
	</node>
	<node lat="61.33371944516319" lon="5.86016111625563" id="-62962">
		<tag k="bridge" v="yes" />
		<tag k="layer" v="1" />
		<tag k="name" v="Eikeland" />
		<tag k="ssr:stedsnr" v="592364" />
	</node>
	<node lat="61.60638055475136" lon="6.576677786349164" id="-63169">
		<tag k="bridge" v="yes" />
		<tag k="layer" v="1" />
		<tag k="name" v="Grebstad" />
		<tag k="ssr:stedsnr" v="653305" />
	</node>
	<node lat="61.3964194432124" lon="5.813244438401227" id="-63170">
		<tag k="bridge" v="yes" />
		<tag k="layer" v="1" />
		<tag k="name" v="Kleivabakken undergang" />
		<tag k="ssr:stedsnr" v="653328" />
	</node>
	<node lat="61.54568611369345" lon="6.432438892900347" id="-63171">
		<tag k="bridge" v="yes" />
		<tag k="layer" v="1" />
		<tag k="name" v="Dvergsdal" />
		<tag k="ssr:stedsnr" v="654337" />
	</node>
	<node lat="61.34567222617948" lon="6.321266674137736" id="-63172">
		<tag k="bridge" v="yes" />
		<tag k="layer" v="1" />
		<tag k="name" v="Mjell Østre" />
		<tag k="ssr:stedsnr" v="654344" />
	</node>
	<node lat="61.38182500204762" lon="5.474977786195278" id="-63173">
		<tag k="bridge" v="yes" />
		<tag k="layer" v="1" />
		<tag k="name" v="Standnes" />
		<tag k="ssr:stedsnr" v="654350" />
	</node>
	<node lat="61.47407222417916" lon="5.556413884890278" id="-63278">
		<tag k="highway" v="path" />
		<tag k="name" v="Stien" />
		<tag k="ssr:stedsnr" v="893837" />
	</node>
	<node lat="61.566461109735535" lon="6.478888881977037" id="-63323">
		<tag k="bridge" v="yes" />
		<tag k="layer" v="1" />
		<tag k="name" v="Skeibukta kulvert" />
		<tag k="ssr:stedsnr" v="896338" />
	</node>
	<node lat="61.39931666549463" lon="5.813327770643656" id="-63324">
		<tag k="bridge" v="yes" />
		<tag k="layer" v="1" />
		<tag k="name" v="Langeland" />
		<tag k="ssr:stedsnr" v="896352" />
	</node>
	<node lat="61.32267500151569" lon="5.916200006608364" id="-63341">
		<tag k="bridge" v="yes" />
		<tag k="layer" v="1" />
		<tag k="name" v="Nedrestrand" />
		<tag k="ssr:stedsnr" v="897326" />
	</node>
	<node lat="61.56090555200425" lon="6.399763885016711" id="-63357">
		<tag k="bridge" v="yes" />
		<tag k="layer" v="1" />
		<tag k="name" v="Helgheim" />
		<tag k="ssr:stedsnr" v="714281" />
	</node>
	<node lat="61.351186114919095" lon="6.117283330780378" id="-63358">
		<tag k="bridge" v="yes" />
		<tag k="layer" v="1" />
		<tag k="name" v="Hellebust" />
		<tag k="ssr:stedsnr" v="714307" />
	</node>
	<node lat="61.36096666609057" lon="6.148391664069294" id="-63359">
		<tag k="bridge" v="yes" />
		<tag k="layer" v="1" />
		<tag k="name" v="Hetløyane" />
		<tag k="ssr:stedsnr" v="714308" />
	</node>
	<node lat="61.60224722407408" lon="6.518874995062521" id="-63550">
		<tag k="bridge" v="yes" />
		<tag k="layer" v="1" />
		<tag k="name" v="Bolset kulvert" />
		<tag k="ssr:stedsnr" v="775301" />
	</node>
	<node lat="61.30075555168525" lon="5.849663890894431" id="-63705">
		<tag k="alt_name" v="Dalemannveien" />
		<tag k="highway" v="path" />
		<tag k="name" v="Dalemannsvegen" />
		<tag k="ssr:stedsnr" v="918565" />
	</node>
	<node lat="61.596002780658615" lon="6.511591670517312" id="-63868">
		<tag k="bridge" v="yes" />
		<tag k="layer" v="1" />
		<tag k="name" v="Grungen" />
		<tag k="ssr:stedsnr" v="836279" />
	</node>
	<node lat="61.460813888234014" lon="6.026044445550008" id="-63869">
		<tag k="bridge" v="yes" />
		<tag k="layer" v="1" />
		<tag k="name" v="Østenstad" />
		<tag k="ssr:stedsnr" v="836281" />
	</node>
	<node lat="61.519433329712555" lon="6.196702781556738" id="-63870">
		<tag k="bridge" v="yes" />
		<tag k="layer" v="1" />
		<tag k="name" v="Solheimsnes" />
		<tag k="ssr:stedsnr" v="836282" />
	</node>
	<node lat="61.324291666731625" lon="6.228741660635161" id="-63871">
		<tag k="bridge" v="yes" />
		<tag k="layer" v="1" />
		<tag k="name" v="Lyngstadbotn" />
		<tag k="ssr:stedsnr" v="836289" />
	</node>
	<node lat="61.34558333382283" lon="6.318752784663852" id="-63872">
		<tag k="bridge" v="yes" />
		<tag k="layer" v="1" />
		<tag k="name" v="Mjell Vestre" />
		<tag k="ssr:stedsnr" v="836291" />
	</node>
	<node lat="61.40994999640535" lon="6.27950833635087" id="-64064">
		<tag k="bridge" v="yes" />
		<tag k="layer" v="1" />
		<tag k="name" v="Hårklau" />
		<tag k="ssr:stedsnr" v="897306" />
	</node>
	<node lat="61.39815000014755" lon="5.690983330418832" id="-64144">
		<tag k="highway" v="path" />
		<tag k="name" v="Heistien" />
		<tag k="ssr:stedsnr" v="949901" />
	</node>
	<node lat="61.63321111430439" lon="6.524536110951609" id="-64161">
		<tag k="bridge" v="yes" />
		<tag k="layer" v="1" />
		<tag k="name" v="Våtedal" />
		<tag k="ssr:stedsnr" v="957312" />
	</node>
	<node lat="61.4943111096927" lon="6.113149990989478" id="-64162">
		<tag k="bridge" v="yes" />
		<tag k="layer" v="1" />
		<tag k="name" v="Vassenden" />
		<tag k="ssr:stedsnr" v="957313" />
	</node>
	<node lat="61.38503611197684" lon="5.74985000447711" id="-64163">
		<tag k="bridge" v="yes" />
		<tag k="layer" v="1" />
		<tag k="name" v="Bringeland Lille" />
		<tag k="ssr:stedsnr" v="957348" />
	</node>
	<node lat="61.38095555241183" lon="5.673558342172021" id="-64164">
		<tag k="bridge" v="yes" />
		<tag k="layer" v="1" />
		<tag k="name" v="Yndestad" />
		<tag k="ssr:stedsnr" v="958338" />
	</node>
	<node lat="61.54781666683334" lon="5.730775005408374" id="-64391">
		<tag k="highway" v="path" />
		<tag k="name" v="Ekrestølsvegen" />
		<tag k="ssr:stedsnr" v="43957" />
	</node>
	<node lat="61.43626111187018" lon="5.63826666206409" id="-64403">
		<tag k="bridge" v="yes" />
		<tag k="layer" v="1" />
		<tag k="name" v="Skarevollen" />
		<tag k="ssr:stedsnr" v="47317" />
	</node>
	<node lat="61.51230000443246" lon="6.267375000960049" id="-64404">
		<tag k="bridge" v="yes" />
		<tag k="layer" v="1" />
		<tag k="name" v="Sandalselva" />
		<tag k="ssr:stedsnr" v="47333" />
	</node>
	<node lat="61.37984999704062" lon="5.535691672228334" id="-64405">
		<tag k="bridge" v="yes" />
		<tag k="layer" v="1" />
		<tag k="name" v="Sunde" />
		<tag k="ssr:stedsnr" v="47336" />
	</node>
	<node lat="61.3443333333926" lon="6.347822230968949" id="-64406">
		<tag k="bridge" v="yes" />
		<tag k="layer" v="1" />
		<tag k="name" v="Byttevatn Vestre" />
		<tag k="ssr:stedsnr" v="47356" />
	</node>
	<node lat="61.385922223820344" lon="5.764383324644986" id="-64407">
		<tag k="bridge" v="yes" />
		<tag k="layer" v="1" />
		<tag k="name" v="Bringeland" />
		<tag k="ssr:stedsnr" v="47357" />
	</node>
	<node lat="61.32627778091776" lon="5.797447214883101" id="-64494">
		<tag k="bridge" v="yes" />
		<tag k="layer" v="1" />
		<tag k="name" v="Steien" />
		<tag k="ssr:stedsnr" v="229343" />
	</node>
	<node lat="61.34374444633477" lon="6.34935833904633" id="-64591">
		<tag k="bridge" v="yes" />
		<tag k="layer" v="1" />
		<tag k="name" v="Byttevatn Østre" />
		<tag k="ssr:stedsnr" v="107345" />
	</node>
	<node lat="61.38084444342033" lon="5.494152779518015" id="-64592">
		<tag k="bridge" v="yes" />
		<tag k="layer" v="1" />
		<tag k="name" v="Hestad" />
		<tag k="ssr:stedsnr" v="107354" />
	</node>
	<node lat="61.321547221779646" lon="5.965161119395199" id="-64593">
		<tag k="bridge" v="yes" />
		<tag k="layer" v="1" />
		<tag k="name" v="Strand Øvre" />
		<tag k="ssr:stedsnr" v="108332" />
	</node>
	<node lat="61.51108333739807" lon="6.285797221317577" id="-64594">
		<tag k="bridge" v="yes" />
		<tag k="layer" v="1" />
		<tag k="name" v="Bjørndalsneset" />
		<tag k="ssr:stedsnr" v="108337" />
	</node>
	<node lat="61.317350003758484" lon="6.000749991573688" id="-64595">
		<tag k="bridge" v="yes" />
		<tag k="layer" v="1" />
		<tag k="name" v="Rørstadvik" />
		<tag k="ssr:stedsnr" v="108342" />
	</node>
	<node lat="61.61416110948841" lon="6.673400000301065" id="-64827">
		<tag k="bridge" v="yes" />
		<tag k="layer" v="1" />
		<tag k="name" v="Øygard" />
		<tag k="ssr:stedsnr" v="168315" />
	</node>
	<node lat="61.521627781379664" lon="6.622324993500586" id="-64828">
		<tag k="bridge" v="yes" />
		<tag k="layer" v="1" />
		<tag k="name" v="Lunde" />
		<tag k="ssr:stedsnr" v="168323" />
	</node>
	<node lat="61.51501666889371" lon="6.657444436759329" id="-64829">
		<tag k="bridge" v="yes" />
		<tag k="layer" v="1" />
		<tag k="name" v="Lundebotn" />
		<tag k="ssr:stedsnr" v="168331" />
	</node>
	<node lat="61.33949167051525" lon="6.130425000075764" id="-64830">
		<tag k="bridge" v="yes" />
		<tag k="layer" v="1" />
		<tag k="name" v="Eldalsosen" />
		<tag k="ssr:stedsnr" v="168343" />
	</node>
	<node lat="61.31830555380595" lon="5.9959805496285306" id="-64831">
		<tag k="bridge" v="yes" />
		<tag k="layer" v="1" />
		<tag k="name" v="Bjørna" />
		<tag k="ssr:stedsnr" v="168351" />
	</node>
	<node lat="61.53728611545534" lon="5.756666669873188" id="-64832">
		<tag k="bridge" v="yes" />
		<tag k="layer" v="1" />
		<tag k="name" v="Reiakvam" />
		<tag k="ssr:stedsnr" v="168627" />
	</node>
	<node lat="61.49856388853226" lon="5.29937777644041" id="-64833">
		<tag k="bridge" v="yes" />
		<tag k="layer" v="1" />
		<tag k="name" v="Kveldestad" />
		<tag k="ssr:stedsnr" v="168629" />
	</node>
	<node lat="61.544436115653234" lon="5.785919449104144" id="-64834">
		<tag k="bridge" v="yes" />
		<tag k="layer" v="1" />
		<tag k="name" v="Trelle" />
		<tag k="ssr:stedsnr" v="168632" />
	</node>
	<node lat="61.44004444216929" lon="5.965824991820214" id="-64835">
		<tag k="bridge" v="yes" />
		<tag k="layer" v="1" />
		<tag k="name" v="Mo" />
		<tag k="ssr:stedsnr" v="169299" />
	</node>
	<node lat="61.317777776159474" lon="6.032119435854629" id="-64836">
		<tag k="bridge" v="yes" />
		<tag k="layer" v="1" />
		<tag k="name" v="Årteig Nedre" />
		<tag k="ssr:stedsnr" v="169336" />
	</node>
	<node lat="61.338252782292926" lon="6.145394444407133" id="-65155">
		<tag k="bridge" v="yes" />
		<tag k="layer" v="1" />
		<tag k="name" v="Følling" />
		<tag k="ssr:stedsnr" v="289349" />
	</node>
	<node lat="61.330788892648485" lon="5.821813882390766" id="-65156">
		<tag k="bridge" v="yes" />
		<tag k="layer" v="1" />
		<tag k="name" v="Grøvlen Øvre" />
		<tag k="ssr:stedsnr" v="289350" />
	</node>
	<node lat="61.55112778183154" lon="6.459702785275914" id="-65157">
		<tag k="bridge" v="yes" />
		<tag k="layer" v="1" />
		<tag k="name" v="Kjøsnesfjord" />
		<tag k="ssr:stedsnr" v="289321" />
	</node>
	<node lat="61.459711112177054" lon="5.889697214772435" id="-65158">
		<tag k="bridge" v="yes" />
		<tag k="layer" v="1" />
		<tag k="name" v="Prestefoss" />
		<tag k="ssr:stedsnr" v="290299" />
	</node>
	<node lat="61.53298055695477" lon="5.751611112593796" id="-65159">
		<tag k="bridge" v="yes" />
		<tag k="layer" v="1" />
		<tag k="name" v="Hove" />
		<tag k="ssr:stedsnr" v="290548" />
	</node>
	<node lat="61.56786943995457" lon="5.801074998246946" id="-65160">
		<tag k="bridge" v="yes" />
		<tag k="layer" v="1" />
		<tag k="name" v="Espehaug" />
		<tag k="ssr:stedsnr" v="290549" />
	</node>
	<node lat="61.59670000403702" lon="5.9947944436839915" id="-65161">
		<tag k="bridge" v="yes" />
		<tag k="layer" v="1" />
		<tag k="name" v="Nes" />
		<tag k="ssr:stedsnr" v="290550" />
	</node>
	<node lat="61.49295277735014" lon="5.42021665830308" id="-65162">
		<tag k="bridge" v="yes" />
		<tag k="layer" v="1" />
		<tag k="name" v="Vevring" />
		<tag k="ssr:stedsnr" v="290558" />
	</node>
	<node lat="61.57686666716839" lon="5.8644249987601125" id="-65163">
		<tag k="bridge" v="yes" />
		<tag k="layer" v="1" />
		<tag k="name" v="Øyegrova" />
		<tag k="ssr:stedsnr" v="290560" />
	</node>
	<node lat="61.43847500191891" lon="5.862888888870538" id="-65165">
		<tag k="highway" v="path" />
		<tag k="name" v="Hafstadkleiva" />
		<tag k="ssr:stedsnr" v="299226" />
	</node>
	<node lat="61.33715000179471" lon="6.28048888984685" id="-65354">
		<tag k="highway" v="path" />
		<tag k="name" v="Jotestien" />
		<tag k="ssr:stedsnr" v="337170" />
	</node>
	<node lat="61.56519721935101" lon="5.7736222275502405" id="-65403">
		<tag k="bridge" v="yes" />
		<tag k="layer" v="1" />
		<tag k="name" v="Furehaug" />
		<tag k="ssr:stedsnr" v="350599" />
	</node>
	<node lat="61.45962777961773" lon="5.847800004549909" id="-65404">
		<tag k="bridge" v="yes" />
		<tag k="layer" v="1" />
		<tag k="name" v="Krossen undergang" />
		<tag k="ssr:stedsnr" v="350265" />
	</node>
	<node lat="61.4502611093079" lon="5.849813888827308" id="-65405">
		<tag k="bridge" v="yes" />
		<tag k="layer" v="1" />
		<tag k="name" v="Storehagen" />
		<tag k="ssr:stedsnr" v="350271" />
	</node>
	<node lat="61.51968611286859" lon="6.336375002917977" id="-65406">
		<tag k="bridge" v="yes" />
		<tag k="layer" v="1" />
		<tag k="name" v="Ås Ytre" />
		<tag k="ssr:stedsnr" v="350276" />
	</node>
	<node lat="61.52080277563333" lon="6.340866669380412" id="-65407">
		<tag k="bridge" v="yes" />
		<tag k="layer" v="1" />
		<tag k="name" v="Ås Indre" />
		<tag k="ssr:stedsnr" v="350277" />
	</node>
	<node lat="61.485658334223196" lon="6.068777774575692" id="-65408">
		<tag k="bridge" v="yes" />
		<tag k="layer" v="1" />
		<tag k="name" v="Fluge" />
		<tag k="ssr:stedsnr" v="350291" />
	</node>
	<node lat="61.366941667518226" lon="5.6837972273847965" id="-65409">
		<tag k="bridge" v="yes" />
		<tag k="layer" v="1" />
		<tag k="name" v="Osen" />
		<tag k="ssr:stedsnr" v="350300" />
	</node>
	<node lat="61.384419442040084" lon="6.235708336281418" id="-65410">
		<tag k="bridge" v="yes" />
		<tag k="layer" v="1" />
		<tag k="name" v="Solheim" />
		<tag k="ssr:stedsnr" v="350301" />
	</node>
	<node lat="61.49170833631413" lon="6.119888890871346" id="-65640">
		<tag k="bridge" v="yes" />
		<tag k="layer" v="1" />
		<tag k="name" v="Gjesdalselva" />
		<tag k="ssr:stedsnr" v="411311" />
	</node>
	<node lat="61.33665555971075" lon="6.410313886863656" id="-65641">
		<tag k="bridge" v="yes" />
		<tag k="layer" v="1" />
		<tag k="name" v="Tverrlielv" />
		<tag k="ssr:stedsnr" v="411317" />
	</node>
	<node lat="61.32155555573009" lon="5.784583331346198" id="-65642">
		<tag k="bridge" v="yes" />
		<tag k="layer" v="1" />
		<tag k="name" v="Løvfallselva" />
		<tag k="ssr:stedsnr" v="411324" />
	</node>
	<node lat="61.367672223620126" lon="5.616611111765423" id="-65643">
		<tag k="bridge" v="yes" />
		<tag k="layer" v="1" />
		<tag k="name" v="Helle" />
		<tag k="ssr:stedsnr" v="411328" />
	</node>
	<node lat="61.45899444072423" lon="5.848725004195972" id="-65644">
		<tag k="bridge" v="yes" />
		<tag k="layer" v="1" />
		<tag k="name" v="Øyrane" />
		<tag k="ssr:stedsnr" v="411609" />
	</node>
</osm>
