<?xml version="1.0" encoding="UTF-8"?>
<osm version="0.6" generator="osmapis">
	<node lat="61.320961111994045" lon="6.143861107423625" id="-60913">
		<tag k="name" v="Sagelva" />
		<tag k="ssr:stedsnr" v="7515" />
		<tag k="waterway" v="stream" />
	</node>
	<node lat="61.35984999684259" lon="6.105005562217766" id="-60914">
		<tag k="alt_name" v="Haugefossen" />
		<tag k="name" v="Haugafossen" />
		<tag k="natural" v="waterfall" />
		<tag k="ssr:stedsnr" v="7446" />
	</node>
	<node lat="61.34122499684255" lon="5.968730551898589" id="-60915">
		<tag k="name" v="Livrelva" />
		<tag k="ssr:stedsnr" v="7452" />
		<tag k="waterway" v="stream" />
	</node>
	<node lat="61.35089999794429" lon="5.876411116350934" id="-60916">
		<tag k="name" v="Fesselva" />
		<tag k="ssr:stedsnr" v="7454" />
		<tag k="waterway" v="stream" />
	</node>
	<node lat="61.366419446740444" lon="6.408169435476772" id="-60924">
		<tag k="name" v="Steinbotsvatna" />
		<tag k="natural" v="water" />
		<tag k="ssr:stedsnr" v="7704" />
		<tag k="water" v="lake" />
	</node>
	<node lat="61.34917777845063" lon="5.554191672937879" id="-60928">
		<tag k="name" v="Lona" />
		<tag k="place" v="locality" />
		<tag k="ssr:stedsnr" v="8005" />
	</node>
	<node lat="61.34864999652021" lon="5.59525000211069" id="-60929">
		<tag k="name" v="Tverrelva" />
		<tag k="ssr:stedsnr" v="8009" />
		<tag k="waterway" v="stream" />
	</node>
	<node lat="61.34584721863212" lon="5.5767305502996924" id="-60930">
		<tag k="alt_name" v="Uraelva" />
		<tag k="name" v="Urdaelva" />
		<tag k="ssr:stedsnr" v="8013" />
		<tag k="waterway" v="stream" />
	</node>
	<node lat="61.30456944589813" lon="5.664163888039634" id="-60934">
		<tag k="name" v="Oksevatnet" />
		<tag k="natural" v="water" />
		<tag k="ssr:stedsnr" v="8110" />
	</node>
	<node lat="61.3957619937654" lon="5.471058321357187" id="-60937">
		<tag k="alt_name" v="Stadnesvatnet" />
		<tag k="name" v="Standnesvatnet" />
		<tag k="natural" v="water" />
		<tag k="ssr:stedsnr" v="8261" />
	</node>
	<node lat="61.49981666808503" lon="5.8771083400393405" id="-60939">
		<tag k="alt_name" v="Fremste Vasslivatn" />
		<tag k="name" v="Vasslivatnet" />
		<tag k="natural" v="water" />
		<tag k="ssr:stedsnr" v="8292" />
	</node>
	<node lat="61.42167500029828" lon="6.087161109541316" id="-60944">
		<tag k="name" v="Høgsetholmen" />
		<tag k="natural" v="cape" />
		<tag k="ssr:stedsnr" v="8407" />
	</node>
	<node lat="61.42139444701755" lon="6.3417222168662475" id="-60949">
		<tag k="name" v="Neselva" />
		<tag k="ssr:stedsnr" v="8643" />
		<tag k="waterway" v="stream" />
	</node>
	<node lat="61.50332778059191" lon="5.36774165845079" id="-60952">
		<tag k="name" v="Storelva" />
		<tag k="ssr:stedsnr" v="8657" />
		<tag k="waterway" v="stream" />
	</node>
	<node lat="61.460524736723514" lon="5.506780428173179" id="-60954">
		<tag k="name" v="Vatnevatnet" />
		<tag k="natural" v="water" />
		<tag k="ssr:stedsnr" v="8695" />
	</node>
	<node lat="61.43338611091313" lon="5.611969444347173" id="-60955">
		<tag k="name" v="Storelva" />
		<tag k="ssr:stedsnr" v="8840" />
		<tag k="waterway" v="river" />
	</node>
	<node lat="61.428780557228414" lon="5.685563890617601" id="-60957">
		<tag k="name" v="Lonafossen" />
		<tag k="natural" v="waterfall" />
		<tag k="ssr:stedsnr" v="8844" />
	</node>
	<node lat="61.42724722671641" lon="5.83083611917825" id="-60959">
		<tag k="name" v="Langeneset" />
		<tag k="natural" v="cape" />
		<tag k="ssr:stedsnr" v="8805" />
	</node>
	<node lat="61.396390169396504" lon="5.535004282672564" id="-60963">
		<tag k="name" v="Skitnevika" />
		<tag k="natural" v="bay" />
		<tag k="ssr:stedsnr" v="8794" />
	</node>
	<node lat="61.630469448920515" lon="6.165494442721019" id="-60967">
		<tag k="alt_name" v="Svartpøylevatnet, midtre" />
		<tag k="name" v="Midtre Svartpøylevatnet" />
		<tag k="natural" v="water" />
		<tag k="ssr:stedsnr" v="9216" />
	</node>
	<node lat="61.63595555644969" lon="5.996630557820807" id="-60969">
		<tag k="name" v="Kupevatna" />
		<tag k="natural" v="water" />
		<tag k="ssr:stedsnr" v="9229" />
		<tag k="water" v="lake" />
	</node>
	<node lat="61.56960000291678" lon="6.32401388026948" id="-60979">
		<tag k="name" v="Støylsgrova" />
		<tag k="ssr:stedsnr" v="9947" />
		<tag k="waterway" v="stream" />
	</node>
	<node lat="61.54608055147192" lon="6.586036103740843" id="-60980">
		<tag k="name" v="Trollebottsvatnet" />
		<tag k="natural" v="water" />
		<tag k="ssr:stedsnr" v="9987" />
	</node>
	<node lat="61.50951388717975" lon="5.636838889688953" id="-60982">
		<tag k="name" v="Svartevatnet" />
		<tag k="natural" v="water" />
		<tag k="ssr:stedsnr" v="20739" />
	</node>
	<node lat="61.50068055153294" lon="5.769052773460568" id="-60984">
		<tag k="name" v="Skredvika" />
		<tag k="natural" v="bay" />
		<tag k="ssr:stedsnr" v="20744" />
	</node>
	<node lat="61.38552499985128" lon="5.862672227439892" id="-60988">
		<tag k="name" v="Brendeskarelva" />
		<tag k="ssr:stedsnr" v="31172" />
		<tag k="waterway" v="stream" />
	</node>
	<node lat="61.40448333247944" lon="6.322713893530613" id="-60999">
		<tag k="name" v="Sørestranda" />
		<tag k="natural" v="beach" />
		<tag k="ssr:stedsnr" v="31804" />
	</node>
	<node lat="61.40978888855388" lon="5.859313887989005" id="-61015">
		<tag k="name" v="Fureholmen" />
		<tag k="place" v="islet" />
		<tag k="ssr:stedsnr" v="31973" />
	</node>
	<node lat="61.47066667089165" lon="6.058602779598728" id="-61020">
		<tag k="name" v="Sundet" />
		<tag k="ssr:stedsnr" v="32101" />
		<tag k="waterway" v="rapids" />
	</node>
	<node lat="61.571411109980815" lon="6.409874993635456" id="-61027">
		<tag k="name" v="Støylselva" />
		<tag k="ssr:stedsnr" v="32020" />
		<tag k="waterway" v="river" />
	</node>
	<node lat="61.58885555480659" lon="6.48509722974401" id="-61029">
		<tag k="name" v="Svoragrova" />
		<tag k="ssr:stedsnr" v="32073" />
		<tag k="waterway" v="stream" />
	</node>
	<node lat="61.51283889055379" lon="6.665997220857278" id="-61033">
		<tag k="name" v="Botneelva" />
		<tag k="ssr:stedsnr" v="32811" />
		<tag k="waterway" v="river" />
	</node>
	<node lat="61.48498611306521" lon="6.258991657939377" id="-61039">
		<tag k="name" v="Ytre Sandalselva" />
		<tag k="ssr:stedsnr" v="32782" />
		<tag k="waterway" v="river" />
	</node>
	<node lat="61.33381963543113" lon="5.8779999762478825" id="-61046">
		<tag k="name" v="Eikelandsfossen" />
		<tag k="natural" v="waterfall" />
		<tag k="ssr:stedsnr" v="36765" />
	</node>
	<node lat="61.33652113868007" lon="5.893981583096557" id="-61055">
		<tag k="name" v="Geiteneset" />
		<tag k="natural" v="cape" />
		<tag k="ssr:stedsnr" v="37765" />
	</node>
	<node lat="61.618794446932" lon="6.004369443547195" id="-61062">
		<tag k="name" v="Lonene" />
		<tag k="natural" v="water" />
		<tag k="ssr:stedsnr" v="43609" />
		<tag k="water" v="lake" />
	</node>
	<node lat="61.49816944211953" lon="5.377933325505279" id="-61080">
		<tag k="name" v="Storelva" />
		<tag k="ssr:stedsnr" v="68006" />
		<tag k="waterway" v="stream" />
	</node>
	<node lat="61.258288885648994" lon="5.839858331374492" id="-61084">
		<tag k="name" v="Økslandselva" />
		<tag k="ssr:stedsnr" v="68225" />
		<tag k="waterway" v="stream" />
	</node>
	<node lat="61.42864533111425" lon="6.027442956144803" id="-61088">
		<tag k="name" v="Åsvatnet" />
		<tag k="natural" v="water" />
		<tag k="ssr:stedsnr" v="68396" />
		<tag k="water" v="lake" />
	</node>
	<node lat="61.34582499598986" lon="6.055794449761164" id="-61089">
		<tag k="name" v="Kvamselva" />
		<tag k="ssr:stedsnr" v="68506" />
		<tag k="waterway" v="stream" />
	</node>
	<node lat="61.30094999739559" lon="5.874811102984958" id="-61093">
		<tag k="name" v="Langetjørna" />
		<tag k="natural" v="water" />
		<tag k="ssr:stedsnr" v="68521" />
	</node>
	<node lat="61.272877780279586" lon="5.883616658329143" id="-61102">
		<tag k="name" v="Åsvatnet" />
		<tag k="natural" v="water" />
		<tag k="old_name" v="Økslandsvatnet" />
		<tag k="ssr:stedsnr" v="68606" />
	</node>
	<node lat="61.47984722413511" lon="6.44812222854638" id="-61109">
		<tag k="name" v="Trollebotsvatnet" />
		<tag k="natural" v="water" />
		<tag k="ssr:stedsnr" v="68697" />
	</node>
	<node lat="61.48271944185101" lon="6.304797224952345" id="-61110">
		<tag k="name" v="Fagrevasselva" />
		<tag k="ssr:stedsnr" v="68699" />
		<tag k="waterway" v="stream" />
	</node>
	<node lat="61.33810978546969" lon="5.777314828643446" id="-61114">
		<tag k="alt_name" v="Sandevatn" />
		<tag k="name" v="Sandevatna" />
		<tag k="natural" v="water" />
		<tag k="ssr:stedsnr" v="69033" />
		<tag k="water" v="lake" />
	</node>
	<node lat="61.34201666916537" lon="5.672036119706716" id="-61115">
		<tag k="name" v="Svartevatnet" />
		<tag k="natural" v="water" />
		<tag k="ssr:stedsnr" v="69039" />
	</node>
	<node lat="61.39772778177338" lon="5.8682111026497905" id="-61125">
		<tag k="name" v="Kvanndalselva" />
		<tag k="ssr:stedsnr" v="69603" />
		<tag k="waterway" v="river" />
	</node>
	<node lat="61.508555555245835" lon="5.662211109552606" id="-61127">
		<tag k="name" v="Bakkeelva" />
		<tag k="ssr:stedsnr" v="69394" />
		<tag k="waterway" v="stream" />
	</node>
	<node lat="61.411404981792856" lon="5.860877357731824" id="-61129">
		<tag k="alt_name" v="Digernesvatnet" />
		<tag k="name" v="Digrenesvatnet" />
		<tag k="natural" v="water" />
		<tag k="ssr:stedsnr" v="69400" />
		<tag k="water" v="lake" />
	</node>
	<node lat="61.2669277762165" lon="5.865191659682486" id="-61131">
		<tag k="name" v="Stølselva" />
		<tag k="ssr:stedsnr" v="69541" />
		<tag k="waterway" v="stream" />
	</node>
	<node lat="61.40654167076655" lon="5.755669443288206" id="-61136">
		<tag k="name" v="Gjøsetelva" />
		<tag k="ssr:stedsnr" v="69785" />
		<tag k="waterway" v="stream" />
	</node>
	<node lat="61.570416668910255" lon="5.868647221771968" id="-61143">
		<tag k="alt_name" v="Byrkjelandselva" />
		<tag k="name" v="Stølselva" />
		<tag k="ssr:stedsnr" v="70192" />
		<tag k="waterway" v="stream" />
	</node>
	<node lat="61.6406277769072" lon="6.631074995576871" id="-61149">
		<tag k="name" v="Leitevatnet" />
		<tag k="natural" v="water" />
		<tag k="ssr:stedsnr" v="70811" />
	</node>
	<node lat="61.61287499868921" lon="6.433569448572122" id="-61153">
		<tag k="name" v="Nydalselva" />
		<tag k="ssr:stedsnr" v="71027" />
		<tag k="waterway" v="stream" />
	</node>
	<node lat="61.509258334570404" lon="5.649075009133536" id="-61156">
		<tag k="name" v="Kringlevatnet" />
		<tag k="natural" v="water" />
		<tag k="ssr:stedsnr" v="80715" />
	</node>
	<node lat="61.399600003872166" lon="6.246436106869891" id="-61170">
		<tag k="name" v="Rørvikneset" />
		<tag k="natural" v="cape" />
		<tag k="ssr:stedsnr" v="92767" />
	</node>
	<node lat="61.40307499651736" lon="5.921016663884191" id="-61177">
		<tag k="name" v="Strindaelva" />
		<tag k="ssr:stedsnr" v="92929" />
		<tag k="waterway" v="river" />
	</node>
	<node lat="61.47055833316644" lon="5.907691669090407" id="-61179">
		<tag k="name" v="Gryta" />
		<tag k="ssr:stedsnr" v="92973" />
		<tag k="waterway" v="stream" />
	</node>
	<node lat="61.5448138883395" lon="6.272680554682614" id="-61185">
		<tag k="name" v="Storegrova" />
		<tag k="ssr:stedsnr" v="93182" />
		<tag k="waterway" v="river" />
	</node>
	<node lat="61.55042222254125" lon="6.354225000958272" id="-61187">
		<tag k="name" v="Årdalselva" />
		<tag k="ssr:stedsnr" v="93724" />
		<tag k="waterway" v="river" />
	</node>
	<node lat="61.576177255090954" lon="6.4867501555748035" id="-61188">
		<tag k="name" v="Fuglevatnet" />
		<tag k="natural" v="water" />
		<tag k="ssr:stedsnr" v="93780" />
		<tag k="water" v="lake" />
	</node>
	<node lat="61.370552781495704" lon="6.145769439479211" id="-61192">
		<tag k="name" v="Lonene" />
		<tag k="natural" v="water" />
		<tag k="ssr:stedsnr" v="97670" />
		<tag k="water" v="lake" />
	</node>
	<node lat="61.32372249811657" lon="6.002778470020649" id="-61203">
		<tag k="name" v="Vågsneset" />
		<tag k="natural" v="cape" />
		<tag k="ssr:stedsnr" v="98710" />
	</node>
	<node lat="61.50227222343724" lon="5.623586112690137" id="-61216">
		<tag k="name" v="Tjørnene" />
		<tag k="natural" v="water" />
		<tag k="ssr:stedsnr" v="104122" />
		<tag k="water" v="lake" />
	</node>
	<node lat="61.50630000137361" lon="5.657977777570872" id="-61218">
		<tag k="name" v="Illevegsfossen" />
		<tag k="natural" v="waterfall" />
		<tag k="ssr:stedsnr" v="104205" />
	</node>
	<node lat="61.5763055535713" lon="5.749583341464532" id="-61223">
		<tag k="name" v="Loppegrova" />
		<tag k="ssr:stedsnr" v="104684" />
		<tag k="waterway" v="stream" />
	</node>
	<node lat="61.526936111152864" lon="5.747680552038369" id="-61225">
		<tag k="name" v="Gjelsøyna" />
		<tag k="place" v="islet" />
		<tag k="ssr:stedsnr" v="104816" />
	</node>
	<node lat="61.538977774015834" lon="5.784355559832291" id="-61234">
		<tag k="name" v="Kvamselva" />
		<tag k="ssr:stedsnr" v="104927" />
		<tag k="waterway" v="river" />
	</node>
	<node lat="61.40104444028902" lon="5.482869444640129" id="-61238">
		<tag k="name" v="Stølstjørna" />
		<tag k="natural" v="water" />
		<tag k="ssr:stedsnr" v="250791" />
	</node>
	<node lat="61.26793611199013" lon="5.833569440157472" id="-61257">
		<tag k="alt_name" v="Måseholmen" />
		<tag k="name" v="Holmen" />
		<tag k="place" v="islet" />
		<tag k="ssr:stedsnr" v="250199" />
	</node>
	<node lat="61.39965555546149" lon="5.956261105324479" id="-61270">
		<tag k="name" v="Dyttingsvatnet" />
		<tag k="natural" v="water" />
		<tag k="ssr:stedsnr" v="250391" />
	</node>
	<node lat="61.367516669723315" lon="6.202433324479474" id="-61275">
		<tag k="name" v="Klimpegrova" />
		<tag k="ssr:stedsnr" v="250441" />
		<tag k="waterway" v="stream" />
	</node>
	<node lat="61.38526388751542" lon="6.2048749993475765" id="-61280">
		<tag k="name" v="Medvatnet" />
		<tag k="natural" v="water" />
		<tag k="ssr:stedsnr" v="250425" />
	</node>
	<node lat="61.351477773836166" lon="6.036908334779448" id="-61284">
		<tag k="name" v="Trollebotnsvatnet" />
		<tag k="natural" v="water" />
		<tag k="ssr:stedsnr" v="250466" />
	</node>
	<node lat="61.33733333540881" lon="6.1017555514196085" id="-61286">
		<tag k="alt_name" v="Vareneset" />
		<tag k="name" v="Vardneset" />
		<tag k="natural" v="cape" />
		<tag k="ssr:stedsnr" v="250484" />
	</node>
	<node lat="61.308816664335204" lon="6.0614750069596335" id="-61291">
		<tag k="name" v="Sandaelva" />
		<tag k="ssr:stedsnr" v="250510" />
		<tag k="waterway" v="stream" />
	</node>
	<node lat="61.28687222093643" lon="6.0252472187796835" id="-61296">
		<tag k="alt_name" v="Jemdalsvatnet, øvre" />
		<tag k="name" v="Øvre Jemdalsvatnet" />
		<tag k="natural" v="water" />
		<tag k="ssr:stedsnr" v="250603" />
		<tag k="water" v="lake" />
	</node>
	<node lat="61.294849998169155" lon="5.979225001483512" id="-61298">
		<tag k="name" v="Rypevatnet" />
		<tag k="natural" v="water" />
		<tag k="ssr:stedsnr" v="250622" />
	</node>
	<node lat="61.29632500393955" lon="5.944675007151061" id="-61299">
		<tag k="name" v="Dyttingane" />
		<tag k="natural" v="water" />
		<tag k="ssr:stedsnr" v="250624" />
	</node>
	<node lat="61.43728055609721" lon="6.317783334193988" id="-61302">
		<tag k="name" v="Nes-Isvatnet" />
		<tag k="natural" v="water" />
		<tag k="ssr:stedsnr" v="250637" />
	</node>
	<node lat="61.46491944645687" lon="6.367899999532351" id="-61306">
		<tag k="name" v="Skryklingen" />
		<tag k="natural" v="water" />
		<tag k="ssr:stedsnr" v="250647" />
	</node>
	<node lat="61.471997223739756" lon="5.723308326449021" id="-61313">
		<tag k="name" v="Øvrestølselva" />
		<tag k="ssr:stedsnr" v="250680" />
		<tag k="waterway" v="stream" />
	</node>
	<node lat="61.48332499902516" lon="5.581916674931124" id="-61319">
		<tag k="name" v="Tungene" />
		<tag k="natural" v="cape" />
		<tag k="ssr:stedsnr" v="250718" />
	</node>
	<node lat="61.49473611063576" lon="5.803816673019407" id="-61323">
		<tag k="alt_name" v="Rotneselva" />
		<tag k="name" v="Roteneselva" />
		<tag k="ssr:stedsnr" v="250728" />
		<tag k="waterway" v="stream" />
	</node>
	<node lat="61.39510640725125" lon="5.496320286930701" id="-61332">
		<tag k="alt_name" v="Veslevatnet" />
		<tag k="name" v="Litlevatnet" />
		<tag k="natural" v="water" />
		<tag k="ssr:stedsnr" v="250744" />
	</node>
	<node lat="61.36733055839219" lon="5.741069441030571" id="-61339">
		<tag k="name" v="Åselva" />
		<tag k="ssr:stedsnr" v="250864" />
		<tag k="waterway" v="stream" />
	</node>
	<node lat="61.36865555367924" lon="5.692122226093889" id="-61340">
		<tag k="name" v="Gaula" />
		<tag k="ssr:stedsnr" v="250866" />
		<tag k="waterway" v="river" />
	</node>
	<node lat="61.36454166805642" lon="5.599044450323629" id="-61341">
		<tag k="alt_name" v="Birkelandselva" />
		<tag k="name" v="Byrkjelandselva" />
		<tag k="ssr:stedsnr" v="250876" />
		<tag k="waterway" v="stream" />
	</node>
	<node lat="61.37086205462266" lon="5.8314609042870025" id="-61343">
		<tag k="alt_name" v="Fagerdalsvatnet" />
		<tag k="name" v="Fagredalsvatnet" />
		<tag k="natural" v="water" />
		<tag k="ssr:stedsnr" v="250888" />
	</node>
	<node lat="61.39533333267591" lon="5.605383332039963" id="-61353">
		<tag k="name" v="Selselva" />
		<tag k="ssr:stedsnr" v="250975" />
		<tag k="waterway" v="stream" />
	</node>
	<node lat="61.39309999670196" lon="5.594797219586852" id="-61354">
		<tag k="name" v="Skormafossen" />
		<tag k="natural" v="waterfall" />
		<tag k="ssr:stedsnr" v="250976" />
	</node>
	<node lat="61.31193055342645" lon="5.721016672790832" id="-61356">
		<tag k="alt_name" v="Tvefosselva" />
		<tag k="name" v="Tvifosselva" />
		<tag k="ssr:stedsnr" v="251141" />
		<tag k="waterway" v="stream" />
	</node>
	<node lat="61.50187777838455" lon="5.668286108969384" id="-61368">
		<tag k="name" v="Sælaelva" />
		<tag k="ssr:stedsnr" v="251405" />
		<tag k="waterway" v="stream" />
	</node>
	<node lat="61.33580399302815" lon="5.900973270710232" id="-61373">
		<tag k="name" v="Langeneset" />
		<tag k="natural" v="cape" />
		<tag k="ssr:stedsnr" v="251526" />
	</node>
	<node lat="61.52009166848624" lon="5.7934222201360575" id="-61374">
		<tag k="name" v="Åsedøla" />
		<tag k="ssr:stedsnr" v="251452" />
		<tag k="waterway" v="stream" />
	</node>
	<node lat="61.626333333088006" lon="6.2592388944875" id="-61388">
		<tag k="name" v="Vassvendevatnet" />
		<tag k="natural" v="water" />
		<tag k="ssr:stedsnr" v="252050" />
	</node>
	<node lat="61.554555559403944" lon="5.924186109786849" id="-61400">
		<tag k="name" v="Vasslivatnet" />
		<tag k="natural" v="water" />
		<tag k="ssr:stedsnr" v="252162" />
	</node>
	<node lat="61.59934604820358" lon="5.98336236976007" id="-61406">
		<tag k="name" v="Svovatnet" />
		<tag k="natural" v="water" />
		<tag k="ssr:stedsnr" v="252206" />
	</node>
	<node lat="61.33651389022501" lon="6.1512888945644715" id="-61413">
		<tag k="name" v="Føllingsvatnet" />
		<tag k="natural" v="water" />
		<tag k="ssr:stedsnr" v="128540" />
		<tag k="water" v="lake" />
	</node>
	<node lat="61.457211109735326" lon="5.658077784972904" id="-61419">
		<tag k="alt_name" v="Fauskeelva" />
		<tag k="name" v="Fauskelva" />
		<tag k="ssr:stedsnr" v="128619" />
		<tag k="waterway" v="stream" />
	</node>
	<node lat="61.37850000231042" lon="6.15348054666989" id="-61436">
		<tag k="alt_name" v="Stølselva" />
		<tag k="name" v="Hetlaelva" />
		<tag k="ssr:stedsnr" v="129451" />
		<tag k="waterway" v="river" />
	</node>
	<node lat="61.459877781020474" lon="6.146825005851552" id="-61440">
		<tag k="alt_name" v="Bakkevatnet" />
		<tag k="name" v="Bakkesstøylsvatnet" />
		<tag k="natural" v="water" />
		<tag k="ssr:stedsnr" v="129316" />
	</node>
	<node lat="61.43905770916863" lon="5.97043689333346" id="-61443">
		<tag k="name" v="Movika" />
		<tag k="natural" v="bay" />
		<tag k="ssr:stedsnr" v="129335" />
	</node>
	<node lat="61.452630556544285" lon="6.103075000723254" id="-61445">
		<tag k="name" v="Blåfjelltjørna" />
		<tag k="natural" v="water" />
		<tag k="ssr:stedsnr" v="129340" />
	</node>
	<node lat="61.5099666673628" lon="5.611558335324178" id="-61447">
		<tag k="alt_name" v="Fammarsvikvatn" />
		<tag k="name" v="Frammarsvikvatnet" />
		<tag k="natural" v="water" />
		<tag k="ssr:stedsnr" v="129383" />
	</node>
	<node lat="61.30310555989368" lon="6.047566661857244" id="-61450">
		<tag k="name" v="Storefjellsvatnet" />
		<tag k="natural" v="water" />
		<tag k="ssr:stedsnr" v="129503" />
	</node>
	<node lat="61.46504721920383" lon="6.605097228723316" id="-61463">
		<tag k="name" v="Fjerdevatnet" />
		<tag k="natural" v="water" />
		<tag k="ssr:stedsnr" v="129839" />
	</node>
	<node lat="61.41637222011531" lon="5.673155563176345" id="-61477">
		<tag k="name" v="Venevatnet" />
		<tag k="natural" v="water" />
		<tag k="ssr:stedsnr" v="129792" />
	</node>
	<node lat="61.57350906219443" lon="6.699637740114176" id="-61485">
		<tag k="name" v="Strupevatnet" />
		<tag k="natural" v="water" />
		<tag k="ssr:stedsnr" v="130814" />
	</node>
	<node lat="61.59440833627413" lon="6.744138887033304" id="-61493">
		<tag k="name" v="Langedalselva" />
		<tag k="ssr:stedsnr" v="252805" />
		<tag k="waterway" v="river" />
	</node>
	<node lat="61.52182777918099" lon="6.55666111642941" id="-61500">
		<tag k="alt_name" v="Brelsvikelva" />
		<tag k="name" v="Elvaneselva" />
		<tag k="ssr:stedsnr" v="252858" />
		<tag k="waterway" v="stream" />
	</node>
	<node lat="61.51410555592498" lon="6.584983339798666" id="-61502">
		<tag k="name" v="Sygnesandselva" />
		<tag k="ssr:stedsnr" v="252866" />
		<tag k="waterway" v="stream" />
	</node>
	<node lat="61.60813888496461" lon="6.4025388887715" id="-61514">
		<tag k="name" v="Tverrlivatnet" />
		<tag k="natural" v="water" />
		<tag k="ssr:stedsnr" v="253027" />
	</node>
	<node lat="61.61717500449237" lon="6.286294451494288" id="-61516">
		<tag k="name" v="Stigsvatnet" />
		<tag k="natural" v="water" />
		<tag k="ssr:stedsnr" v="253043" />
		<tag k="water" v="lake" />
	</node>
	<node lat="61.40282500326339" lon="6.162472215832928" id="-61520">
		<tag k="name" v="Brunevad" />
		<tag k="natural" v="water" />
		<tag k="ssr:stedsnr" v="152803" />
		<tag k="water" v="lake" />
	</node>
	<node lat="61.41204166963664" lon="6.357108336680947" id="-61523">
		<tag k="name" v="Vindneset" />
		<tag k="natural" v="cape" />
		<tag k="ssr:stedsnr" v="152824" />
	</node>
	<node lat="61.407735489434465" lon="5.859461543846041" id="-61544">
		<tag k="name" v="Storeholmen" />
		<tag k="place" v="islet" />
		<tag k="ssr:stedsnr" v="152963" />
	</node>
	<node lat="61.632074996456055" lon="6.439319442347453" id="-61546">
		<tag k="name" v="Breimsvatnet" />
		<tag k="natural" v="water" />
		<tag k="ssr:stedsnr" v="153106" />
		<tag k="water" v="lake" />
	</node>
	<node lat="61.62824167036135" lon="6.531227770242571" id="-61548">
		<tag k="name" v="Remelva" />
		<tag k="ssr:stedsnr" v="153116" />
		<tag k="waterway" v="stream" />
	</node>
	<node lat="61.64284999928321" lon="6.434847230608595" id="-61556">
		<tag k="name" v="Førdefjorden" />
		<tag k="natural" v="water" />
		<tag k="ssr:stedsnr" v="155247" />
	</node>
	<node lat="61.471041663838314" lon="5.479375004170033" id="-61576">
		<tag k="name" v="Setelva" />
		<tag k="ssr:stedsnr" v="165105" />
		<tag k="waterway" v="stream" />
	</node>
	<node lat="61.615652774938006" lon="5.9966666750939766" id="-61580">
		<tag k="name" v="Holeelva" />
		<tag k="ssr:stedsnr" v="165590" />
		<tag k="waterway" v="river" />
	</node>
	<node lat="61.41577499650434" lon="6.129744449893571" id="-61588">
		<tag k="name" v="Driva" />
		<tag k="ssr:stedsnr" v="189372" />
		<tag k="waterway" v="stream" />
	</node>
	<node lat="61.29217499862677" lon="6.218769442327004" id="-61601">
		<tag k="name" v="Blåvatnet" />
		<tag k="natural" v="water" />
		<tag k="ssr:stedsnr" v="189727" />
	</node>
	<node lat="61.361897221121914" lon="5.729561102704281" id="-61603">
		<tag k="name" v="Åmotselva" />
		<tag k="ssr:stedsnr" v="190017" />
		<tag k="waterway" v="stream" />
	</node>
	<node lat="61.45827777617268" lon="6.119802773019487" id="-61610">
		<tag k="name" v="Støylsgrova" />
		<tag k="ssr:stedsnr" v="190320" />
		<tag k="waterway" v="stream" />
	</node>
	<node lat="61.32753333150969" lon="6.308763887751105" id="-61624">
		<tag k="alt_name" v="Skålebotnselva" />
		<tag k="name" v="Skålebotselva" />
		<tag k="ssr:stedsnr" v="190817" />
		<tag k="waterway" v="stream" />
	</node>
	<node lat="61.326869445101806" lon="6.350466667161948" id="-61626">
		<tag k="alt_name" v="Resbotnelva" />
		<tag k="name" v="Risbotnelva" />
		<tag k="ssr:stedsnr" v="190822" />
		<tag k="waterway" v="stream" />
	</node>
	<node lat="61.42680833354336" lon="5.6487805546425385" id="-61627">
		<tag k="name" v="Markafossen" />
		<tag k="natural" v="waterfall" />
		<tag k="ssr:stedsnr" v="190860" />
	</node>
	<node lat="61.393147223366626" lon="6.337341661663166" id="-61631">
		<tag k="name" v="Tjønna" />
		<tag k="natural" v="water" />
		<tag k="ssr:stedsnr" v="190764" />
	</node>
	<node lat="61.5639377464574" lon="6.122719288043435" id="-61639">
		<tag k="name" v="Tjørnene" />
		<tag k="natural" v="water" />
		<tag k="ssr:stedsnr" v="191155" />
		<tag k="water" v="lake" />
	</node>
	<node lat="61.57469444143629" lon="5.952830563902029" id="-61641">
		<tag k="name" v="Trodøla" />
		<tag k="ssr:stedsnr" v="191175" />
		<tag k="waterway" v="river" />
	</node>
	<node lat="61.55771111177419" lon="6.321008337154994" id="-61671">
		<tag k="name" v="Øyane" />
		<tag k="natural" v="water" />
		<tag k="ssr:stedsnr" v="214013" />
		<tag k="water" v="lake" />
	</node>
	<node lat="61.580158332044086" lon="6.481333340159867" id="-61676">
		<tag k="name" v="Slåttegrova" />
		<tag k="ssr:stedsnr" v="214084" />
		<tag k="waterway" v="stream" />
	</node>
	<node lat="61.469724997636376" lon="5.814411115478773" id="-61680">
		<tag k="name" v="Kattakråna" />
		<tag k="natural" v="bay" />
		<tag k="ssr:stedsnr" v="213977" />
	</node>
	<node lat="61.46960833285574" lon="5.864263888813052" id="-61683">
		<tag k="name" v="Øvre Tverrgrova" />
		<tag k="ssr:stedsnr" v="213994" />
		<tag k="waterway" v="stream" />
	</node>
	<node lat="61.61737500020548" lon="6.691025000920627" id="-61697">
		<tag k="alt_name" v="Hauaelva" />
		<tag k="name" v="Haugaelva" />
		<tag k="ssr:stedsnr" v="214811" />
		<tag k="waterway" v="river" />
	</node>
	<node lat="61.26121389241024" lon="5.820627777967444" id="-61703">
		<tag k="name" v="Skjefossen" />
		<tag k="natural" v="waterfall" />
		<tag k="ssr:stedsnr" v="219724" />
	</node>
	<node lat="61.27431944096766" lon="5.828341673312371" id="-61704">
		<tag k="name" v="Grova" />
		<tag k="ssr:stedsnr" v="219727" />
		<tag k="waterway" v="stream" />
	</node>
	<node lat="61.364416663336144" lon="6.145116673081008" id="-61708">
		<tag k="name" v="Hetleelva" />
		<tag k="ssr:stedsnr" v="219693" />
		<tag k="waterway" v="stream" />
	</node>
	<node lat="61.49438611343379" lon="5.463530553921573" id="-61728">
		<tag k="name" v="Grytaelva" />
		<tag k="ssr:stedsnr" v="226239" />
		<tag k="waterway" v="river" />
	</node>
	<node lat="61.413052682061874" lon="6.325283446322643" id="-61758">
		<tag k="name" v="Ospeneset" />
		<tag k="natural" v="cape" />
		<tag k="ssr:stedsnr" v="456798" />
	</node>
	<node lat="61.38339166658884" lon="6.232425008205459" id="-61803">
		<tag k="name" v="Solheimselva" />
		<tag k="ssr:stedsnr" v="458401" />
		<tag k="waterway" v="river" />
	</node>
	<node lat="61.37830833293642" lon="6.2876499938108115" id="-61804">
		<tag k="name" v="Lonene" />
		<tag k="natural" v="water" />
		<tag k="ssr:stedsnr" v="458531" />
		<tag k="water" v="lake" />
	</node>
	<node lat="61.43714167022712" lon="5.652047223064929" id="-61809">
		<tag k="name" v="Sommarvika" />
		<tag k="natural" v="bay" />
		<tag k="ssr:stedsnr" v="274587" />
	</node>
	<node lat="61.44260277758807" lon="5.965316660637393" id="-61813">
		<tag k="name" v="Gjelgrova" />
		<tag k="ssr:stedsnr" v="274813" />
		<tag k="waterway" v="stream" />
	</node>
	<node lat="61.43254166784777" lon="6.058830548629309" id="-61816">
		<tag k="name" v="Litleholmen" />
		<tag k="place" v="islet" />
		<tag k="ssr:stedsnr" v="274825" />
	</node>
	<node lat="61.58446944458451" lon="6.484977773785714" id="-61833">
		<tag k="name" v="Seljesvorgrova" />
		<tag k="ssr:stedsnr" v="275089" />
		<tag k="waterway" v="stream" />
	</node>
	<node lat="61.619297219060755" lon="6.002352782465934" id="-61867">
		<tag k="name" v="Lonefossen" />
		<tag k="natural" v="waterfall" />
		<tag k="ssr:stedsnr" v="286632" />
	</node>
	<node lat="61.379185725925765" lon="5.634265007905676" id="-61892">
		<tag k="fixme" v="multiple name tags, choose one and add the other to alt_name" />
		<tag k="name" v="Kappstadelva;Njøsenelva;Møsenelva" />
		<tag k="ssr:stedsnr" v="462797" />
		<tag k="waterway" v="river" />
	</node>
	<node lat="61.35868889152004" lon="6.237050004621436" id="-61895">
		<tag k="name" v="Ytre Botnaelva" />
		<tag k="ssr:stedsnr" v="462932" />
		<tag k="waterway" v="stream" />
	</node>
	<node lat="61.33478889202548" lon="5.7456888966825606" id="-61911">
		<tag k="name" v="Alverfossen" />
		<tag k="natural" v="waterfall" />
		<tag k="ssr:stedsnr" v="311098" />
	</node>
	<node lat="61.361241669651776" lon="5.992711103807758" id="-61914">
		<tag k="name" v="Grisetonnvatnet" />
		<tag k="natural" v="water" />
		<tag k="ssr:stedsnr" v="311502" />
	</node>
	<node lat="61.42165000311448" lon="5.906036116859528" id="-61929">
		<tag k="name" v="Kolltjørna" />
		<tag k="natural" v="water" />
		<tag k="ssr:stedsnr" v="311421" />
	</node>
	<node lat="61.38408333088192" lon="6.209416671077193" id="-61931">
		<tag k="name" v="Osevatnet" />
		<tag k="natural" v="water" />
		<tag k="ssr:stedsnr" v="311478" />
	</node>
	<node lat="61.372641667992035" lon="5.924458334693285" id="-61932">
		<tag k="name" v="Kvanndalsvatnet" />
		<tag k="natural" v="water" />
		<tag k="ssr:stedsnr" v="311482" />
	</node>
	<node lat="61.55286666377676" lon="5.697338879984542" id="-61937">
		<tag k="name" v="Svartevatnet" />
		<tag k="natural" v="water" />
		<tag k="ssr:stedsnr" v="311493" />
	</node>
	<node lat="61.41191666782961" lon="6.422016672621195" id="-61940">
		<tag k="name" v="Blikelva" />
		<tag k="ssr:stedsnr" v="311670" />
		<tag k="waterway" v="stream" />
	</node>
	<node lat="61.40732673638167" lon="5.522285982122289" id="-61943">
		<tag k="name" v="Blåvatnet" />
		<tag k="natural" v="water" />
		<tag k="ssr:stedsnr" v="311821" />
	</node>
	<node lat="61.446155554157095" lon="5.833869438268241" id="-61945">
		<tag k="alt_name" v="Sageelva;Halbrendselva;Hallbrendselva" />
		<tag k="name" v="Sagelva" />
		<tag k="ssr:stedsnr" v="311886" />
		<tag k="waterway" v="stream" />
	</node>
	<node lat="61.57820555455093" lon="5.875966663425587" id="-61955">
		<tag k="name" v="Styggelifossen" />
		<tag k="natural" v="waterfall" />
		<tag k="ssr:stedsnr" v="312214" />
	</node>
	<node lat="61.53255278042811" lon="5.846255559502987" id="-61972">
		<tag k="name" v="Kvamsgrova" />
		<tag k="ssr:stedsnr" v="468382" />
		<tag k="waterway" v="stream" />
	</node>
	<node lat="61.50344167021016" lon="6.254941661219739" id="-61984">
		<tag k="name" v="Husbakkelva" />
		<tag k="ssr:stedsnr" v="324609" />
		<tag k="waterway" v="river" />
	</node>
	<node lat="61.475991664287015" lon="5.7083611078816565" id="-61991">
		<tag k="name" v="Sagligrova" />
		<tag k="ssr:stedsnr" v="334606" />
		<tag k="waterway" v="stream" />
	</node>
	<node lat="61.41357500104559" lon="6.364594450557515" id="-61998">
		<tag k="name" v="Osen" />
		<tag k="natural" v="bay" />
		<tag k="ssr:stedsnr" v="334807" />
	</node>
	<node lat="61.430769974209646" lon="6.001040421704387" id="-62003">
		<tag k="name" v="Hulda" />
		<tag k="natural" v="water" />
		<tag k="ssr:stedsnr" v="334858" />
		<tag k="water" v="lake" />
	</node>
	<node lat="61.3698555516735" lon="6.277749995488789" id="-62028">
		<tag k="name" v="Øygroelva" />
		<tag k="ssr:stedsnr" v="337444" />
		<tag k="waterway" v="stream" />
	</node>
	<node lat="61.32746666759424" lon="6.09839999231883" id="-62034">
		<tag k="name" v="Geitemjølkgrova" />
		<tag k="ssr:stedsnr" v="340647" />
		<tag k="waterway" v="stream" />
	</node>
	<node lat="61.375813884781145" lon="5.774416675610064" id="-62038">
		<tag k="name" v="Øyra" />
		<tag k="place" v="islet" />
		<tag k="ssr:stedsnr" v="341454" />
	</node>
	<node lat="61.375959033657736" lon="5.762444874011302" id="-62039">
		<tag k="name" v="Klovika" />
		<tag k="natural" v="bay" />
		<tag k="ssr:stedsnr" v="341458" />
	</node>
	<node lat="61.39356944469909" lon="5.687161111487396" id="-62041">
		<tag k="name" v="Vassenden" />
		<tag k="natural" v="cape" />
		<tag k="ssr:stedsnr" v="341920" />
	</node>
	<node lat="61.5805749961131" lon="5.868241667031483" id="-62055">
		<tag k="name" v="Buneset" />
		<tag k="natural" v="cape" />
		<tag k="ssr:stedsnr" v="346772" />
	</node>
	<node lat="61.52245277514129" lon="5.744794445469422" id="-62064">
		<tag k="name" v="Grimsetelva" />
		<tag k="ssr:stedsnr" v="347857" />
		<tag k="waterway" v="river" />
	</node>
	<node lat="61.62890833342207" lon="6.633763892907199" id="-62070">
		<tag k="name" v="Veitebergselva" />
		<tag k="ssr:stedsnr" v="494799" />
		<tag k="waterway" v="stream" />
	</node>
	<node lat="61.32421944714526" lon="5.778238897773152" id="-62072">
		<tag k="alt_name" v="Sande - Foss" />
		<tag k="name" v="Sandafossen" />
		<tag k="natural" v="waterfall" />
		<tag k="ssr:stedsnr" v="371108" />
	</node>
	<node lat="61.32422499991962" lon="5.784380554050447" id="-62073">
		<tag k="name" v="Neset" />
		<tag k="natural" v="cape" />
		<tag k="ssr:stedsnr" v="371110" />
	</node>
	<node lat="61.44620277623537" lon="6.008511112855518" id="-62079">
		<tag k="name" v="Stakaldefossen" />
		<tag k="natural" v="waterfall" />
		<tag k="ssr:stedsnr" v="371329" />
	</node>
	<node lat="61.30886667030342" lon="5.932244448994923" id="-62081">
		<tag k="name" v="Stølsvatnet" />
		<tag k="natural" v="water" />
		<tag k="ssr:stedsnr" v="371507" />
	</node>
	<node lat="61.30967500377031" lon="5.983308333653913" id="-62082">
		<tag k="name" v="Synningeelva" />
		<tag k="ssr:stedsnr" v="371509" />
		<tag k="waterway" v="stream" />
	</node>
	<node lat="61.32386111502648" lon="5.975863892288058" id="-62084">
		<tag k="name" v="Holtane" />
		<tag k="natural" v="cape" />
		<tag k="ssr:stedsnr" v="371522" />
	</node>
	<node lat="61.32454166348558" lon="5.971633326225481" id="-62085">
		<tag k="name" v="Livra" />
		<tag k="natural" v="cape" />
		<tag k="ssr:stedsnr" v="371524" />
	</node>
	<node lat="61.3787000014823" lon="5.878561101654312" id="-62088">
		<tag k="alt_name" v="Brendeskarselva" />
		<tag k="name" v="Brendeskardelva" />
		<tag k="ssr:stedsnr" v="371407" />
		<tag k="waterway" v="stream" />
	</node>
	<node lat="61.3402053711034" lon="6.342143539397897" id="-62094">
		<tag k="name" v="Byttevatnet" />
		<tag k="natural" v="water" />
		<tag k="ssr:stedsnr" v="371702" />
		<tag k="water" v="lake" />
	</node>
	<node lat="61.4855166661597" lon="5.832630547413189" id="-62098">
		<tag k="name" v="Erdøla" />
		<tag k="ssr:stedsnr" v="371714" />
		<tag k="waterway" v="stream" />
	</node>
	<node lat="61.34381389266454" lon="6.276580557948671" id="-62100">
		<tag k="name" v="Skarvatnet" />
		<tag k="natural" v="water" />
		<tag k="ssr:stedsnr" v="371720" />
	</node>
	<node lat="61.381069441267464" lon="6.300113889281524" id="-62101">
		<tag k="name" v="Storevatnet" />
		<tag k="natural" v="water" />
		<tag k="ssr:stedsnr" v="371756" />
	</node>
	<node lat="61.48718889095239" lon="6.6583472168453195" id="-62106">
		<tag k="name" v="Trollavatnet" />
		<tag k="natural" v="water" />
		<tag k="ssr:stedsnr" v="371854" />
		<tag k="water" v="lake" />
	</node>
	<node lat="61.447933336922915" lon="5.767225000301771" id="-62107">
		<tag k="alt_name" v="Stølsvatnet, s" />
		<tag k="fixme" v="multiple name tags, choose one and add the other to alt_name" />
		<tag k="name" v="Gravdalsvatnet;Søre Stølsvatnet" />
		<tag k="natural" v="water" />
		<tag k="ssr:stedsnr" v="371859" />
	</node>
	<node lat="61.44684721925314" lon="5.772574999962179" id="-62108">
		<tag k="name" v="Stølstjørna" />
		<tag k="natural" v="water" />
		<tag k="ssr:stedsnr" v="371860" />
	</node>
	<node lat="61.43905833291657" lon="5.653997229509207" id="-62109">
		<tag k="name" v="Øygardsvatnet" />
		<tag k="natural" v="water" />
		<tag k="ssr:stedsnr" v="371867" />
	</node>
	<node lat="61.43888055757152" lon="5.568480548787206" id="-62110">
		<tag k="name" v="Heilevangselva" />
		<tag k="ssr:stedsnr" v="371872" />
		<tag k="waterway" v="stream" />
	</node>
	<node lat="61.39859166676157" lon="5.7264527821029345" id="-62115">
		<tag k="alt_name" v="Nyksvatnet" />
		<tag k="name" v="Nykksvatnet" />
		<tag k="natural" v="water" />
		<tag k="ssr:stedsnr" v="371970" />
	</node>
	<node lat="61.39385277400985" lon="5.721927787222981" id="-62116">
		<tag k="alt_name" v="Mevatnet" />
		<tag k="name" v="Medvatnet" />
		<tag k="natural" v="water" />
		<tag k="ssr:stedsnr" v="371972" />
	</node>
	<node lat="61.303852773931695" lon="5.717358326044586" id="-62117">
		<tag k="name" v="Dyttingane" />
		<tag k="natural" v="water" />
		<tag k="ssr:stedsnr" v="372111" />
	</node>
	<node lat="61.35054166835954" lon="5.6825638892047285" id="-62120">
		<tag k="alt_name" v="Simonløype" />
		<tag k="name" v="Simonløypet" />
		<tag k="ssr:stedsnr" v="372060" />
		<tag k="waterway" v="river" />
	</node>
	<node lat="61.38891944059449" lon="6.284302787063837" id="-62131">
		<tag k="name" v="Valdresvatnet" />
		<tag k="natural" v="water" />
		<tag k="ssr:stedsnr" v="372754" />
	</node>
	<node lat="61.429723262678415" lon="5.834262280586517" id="-62136">
		<tag k="alt_name" v="Bekkevatnet" />
		<tag k="name" v="Bekkjevatnet" />
		<tag k="natural" v="water" />
		<tag k="old_name" v="Brekkevatnet" />
		<tag k="ssr:stedsnr" v="372800" />
		<tag k="water" v="lake" />
	</node>
	<node lat="61.43258333415954" lon="5.837816673571075" id="-62137">
		<tag k="alt_name" v="Havstadlangeneset" />
		<tag k="name" v="Hafstadlangeneset" />
		<tag k="natural" v="cape" />
		<tag k="ssr:stedsnr" v="372801" />
	</node>
	<node lat="61.41927222087467" lon="5.636799999205534" id="-62140">
		<tag k="name" v="Lysaelva" />
		<tag k="ssr:stedsnr" v="372804" />
		<tag k="waterway" v="stream" />
	</node>
	<node lat="61.563358330591036" lon="5.961347223098915" id="-62143">
		<tag k="name" v="Skaflestadtjørna" />
		<tag k="natural" v="water" />
		<tag k="ssr:stedsnr" v="373202" />
	</node>
	<node lat="61.58248611541145" lon="6.015513893290468" id="-62145">
		<tag k="name" v="Bøelva" />
		<tag k="ssr:stedsnr" v="373217" />
		<tag k="waterway" v="river" />
	</node>
	<node lat="61.60525000104153" lon="6.003644441443421" id="-62147">
		<tag k="name" v="Øyane" />
		<tag k="place" v="island" />
		<tag k="ssr:stedsnr" v="373261" />
	</node>
	<node lat="61.608569444791044" lon="6.003455563625333" id="-62148">
		<tag k="name" v="Dettefossen" />
		<tag k="natural" v="waterfall" />
		<tag k="ssr:stedsnr" v="373268" />
	</node>
	<node lat="61.59588453232086" lon="6.512166103681359" id="-62157">
		<tag k="name" v="Grungen" />
		<tag k="natural" v="shoal" />
		<tag k="place" v="locality" />
		<tag k="ssr:stedsnr" v="374007" />
	</node>
	<node lat="61.59092500285724" lon="6.507224995814528" id="-62158">
		<tag k="name" v="Håheimsvatnet" />
		<tag k="natural" v="water" />
		<tag k="ssr:stedsnr" v="374008" />
	</node>
	<node lat="61.60115833621853" lon="6.581049995678317" id="-62159">
		<tag k="alt_name" v="Botnaelva" />
		<tag k="name" v="Grepstadgrova" />
		<tag k="ssr:stedsnr" v="374011" />
		<tag k="waterway" v="stream" />
	</node>
	<node lat="61.62611944267598" lon="6.286361103340338" id="-62162">
		<tag k="name" v="Kupevatnet" />
		<tag k="natural" v="water" />
		<tag k="ssr:stedsnr" v="374053" />
	</node>
	<node lat="61.633194442568715" lon="6.289855558740084" id="-62163">
		<tag k="name" v="Trollekupelva" />
		<tag k="ssr:stedsnr" v="374058" />
		<tag k="waterway" v="stream" />
	</node>
	<node lat="61.59670833477096" lon="5.776513895621833" id="-62165">
		<tag k="name" v="Blåhølen" />
		<tag k="natural" v="water" />
		<tag k="ssr:stedsnr" v="384708" />
	</node>
	<node lat="61.5750111090719" lon="5.760813886246749" id="-62166">
		<tag k="alt_name" v="Tufteelva" />
		<tag k="name" v="Blåhølelva" />
		<tag k="ssr:stedsnr" v="384709" />
		<tag k="waterway" v="river" />
	</node>
	<node lat="61.40810833076338" lon="6.349075008092084" id="-62170">
		<tag k="name" v="Karstadelva" />
		<tag k="ssr:stedsnr" v="395820" />
		<tag k="waterway" v="river" />
	</node>
	<node lat="61.51587778061002" lon="5.982716671435327" id="-62174">
		<tag k="name" v="Storegrova" />
		<tag k="ssr:stedsnr" v="395839" />
		<tag k="waterway" v="stream" />
	</node>
	<node lat="61.53636389026347" lon="6.217333328433659" id="-62200">
		<tag k="name" v="Klipperfossen" />
		<tag k="natural" v="waterfall" />
		<tag k="ssr:stedsnr" v="396180" />
	</node>
	<node lat="61.55150277448267" lon="6.216261113166614" id="-62202">
		<tag k="fixme" v="multiple name tags, choose one and add the other to alt_name" />
		<tag k="name" v="Nedrebøelva;Ålhuselva" />
		<tag k="ssr:stedsnr" v="396811" />
		<tag k="waterway" v="river" />
	</node>
	<node lat="61.3771388865653" lon="6.2224583278660885" id="-62208">
		<tag k="alt_name" v="Mossestadelva" />
		<tag k="name" v="Mosstadelva" />
		<tag k="ssr:stedsnr" v="397298" />
		<tag k="waterway" v="river" />
	</node>
	<node lat="61.363616669758656" lon="6.190172215199857" id="-62209">
		<tag k="name" v="Resgrova" />
		<tag k="ssr:stedsnr" v="397327" />
		<tag k="waterway" v="stream" />
	</node>
	<node lat="61.384772226372924" lon="5.829283335112613" id="-62218">
		<tag k="name" v="Husgrova" />
		<tag k="ssr:stedsnr" v="401806" />
		<tag k="waterway" v="stream" />
	</node>
	<node lat="61.387197225382266" lon="5.842344444858636" id="-62219">
		<tag k="name" v="Kattatjørn" />
		<tag k="natural" v="water" />
		<tag k="ssr:stedsnr" v="401809" />
	</node>
	<node lat="61.50108055584641" lon="5.555624991589325" id="-62230">
		<tag k="name" v="Leiteelva" />
		<tag k="ssr:stedsnr" v="408009" />
		<tag k="waterway" v="river" />
	</node>
	<node lat="61.510330556061525" lon="5.722844451341798" id="-62241">
		<tag k="name" v="Granøyra" />
		<tag k="natural" v="cape" />
		<tag k="ssr:stedsnr" v="408819" />
	</node>
	<node lat="61.60775277497047" lon="5.927283326362687" id="-62245">
		<tag k="name" v="Kvangredalselva" />
		<tag k="ssr:stedsnr" v="408799" />
		<tag k="waterway" v="river" />
	</node>
	<node lat="61.54889166615197" lon="5.802719435258663" id="-62246">
		<tag k="name" v="Høgefossen" />
		<tag k="natural" v="waterfall" />
		<tag k="ssr:stedsnr" v="408906" />
	</node>
	<node lat="61.37444999911659" lon="5.94233333577605" id="-62259">
		<tag k="fixme" v="multiple name tags, choose one and add the other to alt_name" />
		<tag k="name" v="Hagestølselva;Kvanndalselva" />
		<tag k="ssr:stedsnr" v="432413" />
		<tag k="waterway" v="stream" />
	</node>
	<node lat="61.37511388683777" lon="6.060900004174358" id="-62261">
		<tag k="name" v="Gøyvinga" />
		<tag k="ssr:stedsnr" v="432418" />
		<tag k="waterway" v="stream" />
	</node>
	<node lat="61.315638888247534" lon="5.908744442314183" id="-62271">
		<tag k="name" v="Nesåkerelva" />
		<tag k="ssr:stedsnr" v="432501" />
		<tag k="waterway" v="stream" />
	</node>
	<node lat="61.45549444649503" lon="5.715300002638454" id="-62273">
		<tag k="fixme" v="multiple name tags, choose one and add the other to alt_name" />
		<tag k="name" v="Litlevatnet;Søre-Fauskevatn" />
		<tag k="natural" v="water" />
		<tag k="ssr:stedsnr" v="432607" />
	</node>
	<node lat="61.47385833404472" lon="5.531072214146979" id="-62279">
		<tag k="name" v="Brunavatnet" />
		<tag k="natural" v="water" />
		<tag k="ssr:stedsnr" v="432678" />
	</node>
	<node lat="61.36810000330844" lon="6.2660999909981605" id="-62283">
		<tag k="name" v="Vindheimsvatnet" />
		<tag k="natural" v="water" />
		<tag k="ssr:stedsnr" v="432699" />
	</node>
	<node lat="61.31137222528827" lon="5.634733340741232" id="-62301">
		<tag k="name" v="Litlevatnet" />
		<tag k="natural" v="water" />
		<tag k="ssr:stedsnr" v="433532" />
	</node>
	<node lat="61.4209333354129" lon="5.750686109600454" id="-62303">
		<tag k="name" v="Fisketjørna" />
		<tag k="natural" v="water" />
		<tag k="ssr:stedsnr" v="433807" />
	</node>
	<node lat="61.42843889017356" lon="5.768175001759208" id="-62308">
		<tag k="name" v="Langeloka" />
		<tag k="natural" v="water" />
		<tag k="ssr:stedsnr" v="433842" />
	</node>
	<node lat="61.403480555328926" lon="5.7328583340295864" id="-62310">
		<tag k="name" v="Trollingsvatnet" />
		<tag k="natural" v="water" />
		<tag k="ssr:stedsnr" v="433779" />
	</node>
	<node lat="61.31633610941699" lon="6.276180557574619" id="-62312">
		<tag k="name" v="Rindebotselva" />
		<tag k="ssr:stedsnr" v="433796" />
		<tag k="waterway" v="stream" />
	</node>
	<node lat="61.31690277382854" lon="6.2650527874626505" id="-62313">
		<tag k="name" v="Litlegrova" />
		<tag k="ssr:stedsnr" v="433797" />
		<tag k="waterway" v="stream" />
	</node>
	<node lat="61.63133611314324" lon="6.0005916700220245" id="-62319">
		<tag k="name" v="Kupeelva" />
		<tag k="ssr:stedsnr" v="434231" />
		<tag k="waterway" v="stream" />
	</node>
	<node lat="61.579275000225245" lon="6.398799995499982" id="-62327">
		<tag k="name" v="Helgheimselva" />
		<tag k="ssr:stedsnr" v="435002" />
		<tag k="waterway" v="stream" />
	</node>
	<node lat="61.51842499895185" lon="6.193166667288828" id="-62330">
		<tag k="name" v="Nesodden" />
		<tag k="natural" v="cape" />
		<tag k="ssr:stedsnr" v="435167" />
	</node>
	<node lat="61.359541663425645" lon="5.984061111528257" id="-62333">
		<tag k="name" v="Langevatnet" />
		<tag k="natural" v="water" />
		<tag k="ssr:stedsnr" v="492429" />
	</node>
	<node lat="61.581819442395414" lon="6.4947083315437135" id="-62338">
		<tag k="alt_name" v="Skredevatnet" />
		<tag k="name" v="Skredvatnet" />
		<tag k="natural" v="water" />
		<tag k="ssr:stedsnr" v="435966" />
	</node>
	<node lat="61.40292500053148" lon="6.038574991726795" id="-62339">
		<tag k="name" v="Litlevatnet" />
		<tag k="natural" v="water" />
		<tag k="ssr:stedsnr" v="493392" />
	</node>
	<node lat="61.351233335660325" lon="5.758108332775221" id="-62349">
		<tag k="name" v="Løyken" />
		<tag k="ssr:stedsnr" v="493062" />
		<tag k="waterway" v="stream" />
	</node>
	<node lat="61.48002222143823" lon="6.128933336449346" id="-62357">
		<tag k="name" v="Gjesdalselva" />
		<tag k="ssr:stedsnr" v="493296" />
		<tag k="waterway" v="river" />
	</node>
	<node lat="61.55169722024265" lon="5.791636109531201" id="-62364">
		<tag k="name" v="Kvernhusgrova" />
		<tag k="ssr:stedsnr" v="493446" />
		<tag k="waterway" v="stream" />
	</node>
	<node lat="61.32376110660008" lon="5.990644439177222" id="-62367">
		<tag k="alt_name" v="Kleggen" />
		<tag k="name" v="Pleggen" />
		<tag k="natural" v="cape" />
		<tag k="ssr:stedsnr" v="493541" />
	</node>
	<node lat="61.33458888732504" lon="6.130280548557551" id="-62370">
		<tag k="name" v="Hønsetelva" />
		<tag k="ssr:stedsnr" v="493555" />
		<tag k="waterway" v="stream" />
	</node>
	<node lat="61.473733331550505" lon="6.305480548197108" id="-62375">
		<tag k="name" v="Fagrevatnet" />
		<tag k="natural" v="water" />
		<tag k="ssr:stedsnr" v="493673" />
	</node>
	<node lat="61.44565833662449" lon="6.416499995924763" id="-62381">
		<tag k="name" v="Daleelva" />
		<tag k="ssr:stedsnr" v="493655" />
		<tag k="waterway" v="river" />
	</node>
	<node lat="61.4048774156818" lon="5.646334152787913" id="-62384">
		<tag k="alt_name" v="Skardavatnet" />
		<tag k="name" v="Skaravatnet" />
		<tag k="natural" v="water" />
		<tag k="ssr:stedsnr" v="493779" />
	</node>
	<node lat="61.51940277644163" lon="5.867894449399866" id="-62409">
		<tag k="name" v="Lonene" />
		<tag k="natural" v="water" />
		<tag k="ssr:stedsnr" v="444703" />
		<tag k="water" v="lake" />
	</node>
	<node lat="61.53625833290015" lon="5.644586109748199" id="-62414">
		<tag k="name" v="Tverrgrova" />
		<tag k="ssr:stedsnr" v="445711" />
		<tag k="waterway" v="stream" />
	</node>
	<node lat="61.48227777969362" lon="5.73887499590413" id="-62421">
		<tag k="name" v="Merkestjørna" />
		<tag k="natural" v="water" />
		<tag k="ssr:stedsnr" v="456614" />
	</node>
	<node lat="61.484369446126806" lon="5.757347224632603" id="-62423">
		<tag k="name" v="Furevikelva" />
		<tag k="ssr:stedsnr" v="456619" />
		<tag k="waterway" v="stream" />
	</node>
	<node lat="61.42493333503191" lon="6.082688881039224" id="-62427">
		<tag k="name" v="Høgsetbukta" />
		<tag k="natural" v="bay" />
		<tag k="ssr:stedsnr" v="456759" />
	</node>
	<node lat="61.52852221996215" lon="6.2518666687680335" id="-62445">
		<tag k="name" v="Litleneset" />
		<tag k="natural" v="cape" />
		<tag k="ssr:stedsnr" v="457177" />
	</node>
	<node lat="61.56508888836394" lon="6.33129722286098" id="-62448">
		<tag k="name" v="Lovatnet" />
		<tag k="natural" v="water" />
		<tag k="ssr:stedsnr" v="457004" />
		<tag k="water" v="lake" />
	</node>
	<node lat="61.538652775083555" lon="6.393813896593805" id="-62452">
		<tag k="name" v="Gjøtta" />
		<tag k="ssr:stedsnr" v="457026" />
		<tag k="waterway" v="stream" />
	</node>
	<node lat="61.514186110843845" lon="6.432958330799022" id="-62456">
		<tag k="name" v="Fagredalselva" />
		<tag k="ssr:stedsnr" v="457049" />
		<tag k="waterway" v="river" />
	</node>
	<node lat="61.63795000407757" lon="5.995569437527376" id="-62460">
		<tag k="name" v="Skartjønna" />
		<tag k="natural" v="water" />
		<tag k="ssr:stedsnr" v="457426" />
	</node>
	<node lat="61.356222221749285" lon="6.129486119407861" id="-62470">
		<tag k="name" v="Soget" />
		<tag k="ssr:stedsnr" v="458006" />
		<tag k="waterway" v="rapids" />
	</node>
	<node lat="61.39331944710063" lon="5.473808324710918" id="-62489">
		<tag k="name" v="Kusmarvika" />
		<tag k="natural" v="bay" />
		<tag k="ssr:stedsnr" v="463027" />
	</node>
	<node lat="61.51884722449374" lon="5.801799990502946" id="-62503">
		<tag k="name" v="Espefessene" />
		<tag k="natural" v="water" />
		<tag k="ssr:stedsnr" v="467810" />
		<tag k="water" v="lake" />
	</node>
	<node lat="61.56930832887649" lon="5.798733328760935" id="-62513">
		<tag k="name" v="Nilsøyna" />
		<tag k="place" v="island" />
		<tag k="ssr:stedsnr" v="468493" />
	</node>
	<node lat="61.45161110895428" lon="6.150152774442114" id="-62514">
		<tag k="name" v="Litlebotnsgrova" />
		<tag k="ssr:stedsnr" v="675368" />
		<tag k="waterway" v="river" />
	</node>
	<node lat="61.46284166999062" lon="6.057650000492849" id="-62519">
		<tag k="alt_name" v="Storegrova" />
		<tag k="name" v="Slåtteelva" />
		<tag k="ssr:stedsnr" v="675330" />
		<tag k="waterway" v="stream" />
	</node>
	<node lat="61.364011112468134" lon="6.179199999504405" id="-62532">
		<tag k="name" v="Ormeresgrova" />
		<tag k="ssr:stedsnr" v="675468" />
		<tag k="waterway" v="stream" />
	</node>
	<node lat="61.39758611197707" lon="6.154438896694858" id="-62534">
		<tag k="name" v="Litlevatnet" />
		<tag k="natural" v="water" />
		<tag k="ssr:stedsnr" v="675436" />
	</node>
	<node lat="61.37978055539532" lon="6.016511112297868" id="-62535">
		<tag k="name" v="Litlevatnet" />
		<tag k="natural" v="water" />
		<tag k="ssr:stedsnr" v="675439" />
	</node>
	<node lat="61.38872777964554" lon="6.144925008968836" id="-62536">
		<tag k="name" v="Myklevatnet" />
		<tag k="natural" v="water" />
		<tag k="ssr:stedsnr" v="675443" />
		<tag k="water" v="lake" />
	</node>
	<node lat="61.536125003908694" lon="5.71511943884537" id="-62544">
		<tag k="name" v="Nordstølsvatnet" />
		<tag k="natural" v="water" />
		<tag k="ssr:stedsnr" v="675490" />
	</node>
	<node lat="61.32627499937362" lon="6.022633326105858" id="-62546">
		<tag k="name" v="Hamrelva" />
		<tag k="ssr:stedsnr" v="675569" />
		<tag k="waterway" v="stream" />
	</node>
	<node lat="61.2930638866777" lon="6.109408340998474" id="-62547">
		<tag k="name" v="Larsselvatnet" />
		<tag k="natural" v="water" />
		<tag k="ssr:stedsnr" v="675625" />
	</node>
	<node lat="61.3008527744148" lon="6.142950001421682" id="-62549">
		<tag k="name" v="Kjetjørna" />
		<tag k="natural" v="water" />
		<tag k="ssr:stedsnr" v="675633" />
	</node>
	<node lat="61.295099998211946" lon="5.865661108714654" id="-62550">
		<tag k="name" v="Sinsetelva" />
		<tag k="ssr:stedsnr" v="675635" />
		<tag k="waterway" v="stream" />
	</node>
	<node lat="61.47545000171287" lon="5.4869833349602954" id="-62553">
		<tag k="alt_name" v="Gjøringbøvatnet" />
		<tag k="name" v="Gjøringebøvatnet" />
		<tag k="natural" v="water" />
		<tag k="ssr:stedsnr" v="675716" />
	</node>
	<node lat="61.48547222235632" lon="5.726608335453985" id="-62556">
		<tag k="alt_name" v="Dormålsltjørna" />
		<tag k="name" v="Daurmålstjørna" />
		<tag k="natural" v="water" />
		<tag k="ssr:stedsnr" v="675726" />
	</node>
	<node lat="61.34121111164976" lon="6.2801916644209745" id="-62558">
		<tag k="name" v="Skarelva" />
		<tag k="ssr:stedsnr" v="675728" />
		<tag k="waterway" v="stream" />
	</node>
	<node lat="61.39841678307254" lon="5.521555647600361" id="-62567">
		<tag k="alt_name" v="Kvandalsvatnet" />
		<tag k="name" v="Kvanndalsvatnet" />
		<tag k="natural" v="water" />
		<tag k="ssr:stedsnr" v="675778" />
	</node>
	<node lat="61.395296555597355" lon="5.512733131468103" id="-62568">
		<tag k="name" v="Hestadvatnet" />
		<tag k="natural" v="water" />
		<tag k="ssr:stedsnr" v="675779" />
	</node>
	<node lat="61.44927777716085" lon="5.649277768702767" id="-62573">
		<tag k="name" v="Stølselva" />
		<tag k="ssr:stedsnr" v="675866" />
		<tag k="waterway" v="stream" />
	</node>
	<node lat="61.374247226098014" lon="5.789991674900827" id="-62575">
		<tag k="name" v="Pytten" />
		<tag k="place" v="locality" />
		<tag k="ssr:stedsnr" v="675884" />
	</node>
	<node lat="61.378498180774166" lon="5.804819100865554" id="-62576">
		<tag k="name" v="Skilbreivatnet" />
		<tag k="natural" v="water" />
		<tag k="ssr:stedsnr" v="675945" />
		<tag k="water" v="lake" />
	</node>
	<node lat="61.391688888150675" lon="5.8157250092283626" id="-62579">
		<tag k="name" v="Storelva" />
		<tag k="ssr:stedsnr" v="675950" />
		<tag k="waterway" v="stream" />
	</node>
	<node lat="61.39505833548912" lon="5.744400002598301" id="-62581">
		<tag k="name" v="Djupedalsvatnet" />
		<tag k="natural" v="water" />
		<tag k="ssr:stedsnr" v="675985" />
	</node>
	<node lat="61.60178611245734" lon="6.130663895561685" id="-62586">
		<tag k="name" v="Kvitefossen" />
		<tag k="natural" v="waterfall" />
		<tag k="ssr:stedsnr" v="676233" />
	</node>
	<node lat="61.61499182138414" lon="6.179427951414394" id="-62591">
		<tag k="alt_name" v="Langevatnet, yt" />
		<tag k="name" v="Ytre Langevatnet" />
		<tag k="natural" v="water" />
		<tag k="ssr:stedsnr" v="676252" />
		<tag k="water" v="lake" />
	</node>
	<node lat="61.58929167019076" lon="5.822225001806633" id="-62595">
		<tag k="name" v="Kalvevatnet" />
		<tag k="natural" v="water" />
		<tag k="ssr:stedsnr" v="676475" />
	</node>
	<node lat="61.571488890910075" lon="6.456975002713864" id="-62596">
		<tag k="name" v="Haugaelva" />
		<tag k="ssr:stedsnr" v="676950" />
		<tag k="waterway" v="stream" />
	</node>
	<node lat="61.59455833551283" lon="5.942016661127729" id="-62607">
		<tag k="name" v="Tverrelva" />
		<tag k="ssr:stedsnr" v="677709" />
		<tag k="waterway" v="stream" />
	</node>
	<node lat="61.347706026055256" lon="5.577788455861246" id="-62615">
		<tag k="name" v="Svartetjørna" />
		<tag k="natural" v="water" />
		<tag k="ssr:stedsnr" v="493009" />
	</node>
	<node lat="61.4971527820814" lon="5.422894440235968" id="-62616">
		<tag k="name" v="Stølselva" />
		<tag k="ssr:stedsnr" v="493016" />
		<tag k="waterway" v="stream" />
	</node>
	<node lat="61.47899167015233" lon="6.050433328901697" id="-62620">
		<tag k="name" v="Dalevatnet" />
		<tag k="natural" v="water" />
		<tag k="ssr:stedsnr" v="493317" />
	</node>
	<node lat="61.421900001044776" lon="6.161244443257041" id="-62624">
		<tag k="name" v="Norddøla" />
		<tag k="ssr:stedsnr" v="493378" />
		<tag k="waterway" v="stream" />
	</node>
	<node lat="61.5054083304083" lon="5.570113883629701" id="-62625">
		<tag k="name" v="Skitnestølsvatnet" />
		<tag k="natural" v="water" />
		<tag k="ssr:stedsnr" v="493380" />
	</node>
	<node lat="61.40965833218136" lon="6.1079444383524875" id="-62626">
		<tag k="alt_name" v="Fossaelva" />
		<tag k="name" v="Fossafjellelva" />
		<tag k="ssr:stedsnr" v="493386" />
		<tag k="waterway" v="stream" />
	</node>
	<node lat="61.307125003106776" lon="5.874941670885781" id="-62630">
		<tag k="name" v="Trolltjørna" />
		<tag k="natural" v="water" />
		<tag k="ssr:stedsnr" v="493522" />
	</node>
	<node lat="61.43199999702196" lon="5.60509999881528" id="-62632">
		<tag k="name" v="Stølselva" />
		<tag k="ssr:stedsnr" v="493528" />
		<tag k="waterway" v="stream" />
	</node>
	<node lat="61.495094446402256" lon="6.132888890808589" id="-62636">
		<tag k="name" v="Jølstravatnet" />
		<tag k="natural" v="water" />
		<tag k="ssr:stedsnr" v="493280" />
		<tag k="water" v="lake" />
	</node>
	<node lat="61.338500000572054" lon="6.014461107832875" id="-62644">
		<tag k="name" v="Roskevatnet" />
		<tag k="natural" v="water" />
		<tag k="ssr:stedsnr" v="493489" />
	</node>
	<node lat="61.2989861115017" lon="6.049299995571464" id="-62645">
		<tag k="name" v="Strupevatnet" />
		<tag k="natural" v="water" />
		<tag k="ssr:stedsnr" v="493612" />
	</node>
	<node lat="61.334583337445856" lon="6.269586107557637" id="-62650">
		<tag k="name" v="Flatelva" />
		<tag k="ssr:stedsnr" v="493712" />
		<tag k="waterway" v="stream" />
	</node>
	<node lat="61.404658328908276" lon="5.513299994839174" id="-62652">
		<tag k="name" v="Gøylefossen" />
		<tag k="natural" v="waterfall" />
		<tag k="ssr:stedsnr" v="493769" />
	</node>
	<node lat="61.333650000052806" lon="6.398186114291936" id="-62660">
		<tag k="name" v="Holmevatnet" />
		<tag k="natural" v="water" />
		<tag k="ssr:stedsnr" v="493815" />
		<tag k="water" v="lake" />
	</node>
	<node lat="61.60583610866062" lon="6.042916669588709" id="-62665">
		<tag k="name" v="Tangane" />
		<tag k="natural" v="cape" />
		<tag k="ssr:stedsnr" v="494218" />
	</node>
	<node lat="61.5878166633012" lon="5.862988893297417" id="-62666">
		<tag k="name" v="Herstadelva" />
		<tag k="ssr:stedsnr" v="494224" />
		<tag k="waterway" v="stream" />
	</node>
	<node lat="61.60396111246973" lon="6.510061112594074" id="-62674">
		<tag k="name" v="Bolsetvatnet" />
		<tag k="natural" v="water" />
		<tag k="ssr:stedsnr" v="495018" />
	</node>
	<node lat="61.52454999856588" lon="6.186780559201077" id="-62679">
		<tag k="name" v="Neselva" />
		<tag k="ssr:stedsnr" v="495167" />
		<tag k="waterway" v="stream" />
	</node>
	<node lat="61.63381389259063" lon="6.446699999594027" id="-62688">
		<tag k="name" v="Sliregrøvene" />
		<tag k="ssr:stedsnr" v="506619" />
		<tag k="waterway" v="stream" />
	</node>
	<node lat="61.41081388720375" lon="6.3059861140780615" id="-62693">
		<tag k="name" v="Illesva" />
		<tag k="natural" v="bay" />
		<tag k="ssr:stedsnr" v="516802" />
	</node>
	<node lat="61.420311111419146" lon="6.158674997429299" id="-62697">
		<tag k="name" v="Kjerringfossen" />
		<tag k="natural" v="waterfall" />
		<tag k="ssr:stedsnr" v="516773" />
	</node>
	<node lat="61.366088892752195" lon="5.989130555418428" id="-62700">
		<tag k="name" v="Storelva" />
		<tag k="ssr:stedsnr" v="516939" />
		<tag k="waterway" v="river" />
	</node>
	<node lat="61.38113694247016" lon="5.913659486434585" id="-62701">
		<tag k="name" v="Gyttevatnet" />
		<tag k="natural" v="water" />
		<tag k="ssr:stedsnr" v="516940" />
		<tag k="water" v="lake" />
	</node>
	<node lat="61.42840277838925" lon="6.01139444940331" id="-62705">
		<tag k="name" v="Sagelva" />
		<tag k="ssr:stedsnr" v="516872" />
		<tag k="waterway" v="river" />
	</node>
	<node lat="61.44336110763253" lon="6.007263881989435" id="-62706">
		<tag k="name" v="Moøyane" />
		<tag k="natural" v="water" />
		<tag k="ssr:stedsnr" v="516873" />
		<tag k="water" v="lake" />
	</node>
	<node lat="61.41241513914783" lon="5.857099171359857" id="-62716">
		<tag k="name" v="Viseholmen" />
		<tag k="place" v="islet" />
		<tag k="ssr:stedsnr" v="516961" />
	</node>
	<node lat="61.47990278096817" lon="6.249200004615977" id="-62718">
		<tag k="name" v="Tverrelva" />
		<tag k="ssr:stedsnr" v="517176" />
		<tag k="waterway" v="river" />
	</node>
	<node lat="61.34660277645286" lon="6.112066668517337" id="-62721">
		<tag k="name" v="Grandane" />
		<tag k="natural" v="bay" />
		<tag k="ssr:stedsnr" v="519012" />
	</node>
	<node lat="61.32583055216582" lon="6.203883334204486" id="-62723">
		<tag k="name" v="Storøyna" />
		<tag k="natural" v="cape" />
		<tag k="ssr:stedsnr" v="521871" />
	</node>
	<node lat="61.53001666982509" lon="5.689833328075053" id="-62748">
		<tag k="name" v="Skeislona" />
		<tag k="natural" v="water" />
		<tag k="ssr:stedsnr" v="528042" />
		<tag k="water" v="lake" />
	</node>
	<node lat="61.55555555335894" lon="5.96534444733665" id="-62753">
		<tag k="name" v="Lonene" />
		<tag k="natural" v="water" />
		<tag k="ssr:stedsnr" v="528529" />
		<tag k="water" v="lake" />
	</node>
	<node lat="61.44632499725847" lon="6.121511109850387" id="-62803">
		<tag k="name" v="Fossavatnet" />
		<tag k="natural" v="water" />
		<tag k="ssr:stedsnr" v="553327" />
	</node>
	<node lat="61.38633889226235" lon="6.124538882706054" id="-62811">
		<tag k="alt_name" v="Kvangreelva" />
		<tag k="name" v="Kvanngrødelva" />
		<tag k="ssr:stedsnr" v="553418" />
		<tag k="waterway" v="stream" />
	</node>
	<node lat="61.32523055190744" lon="6.035033333015087" id="-62814">
		<tag k="name" v="Selsneset" />
		<tag k="natural" v="cape" />
		<tag k="ssr:stedsnr" v="553534" />
	</node>
	<node lat="61.27520555895035" lon="5.872966659689099" id="-62816">
		<tag k="name" v="Geitevatnet" />
		<tag k="natural" v="water" />
		<tag k="ssr:stedsnr" v="553601" />
	</node>
	<node lat="61.346119444876" lon="6.294897221020267" id="-62818">
		<tag k="name" v="Storeskredelva" />
		<tag k="ssr:stedsnr" v="553729" />
		<tag k="waterway" v="stream" />
	</node>
	<node lat="61.496436108046694" lon="6.298816668728976" id="-62829">
		<tag k="alt_name" v="Bjørndøla" />
		<tag k="name" v="Bjørndalselva" />
		<tag k="ssr:stedsnr" v="553691" />
		<tag k="waterway" v="stream" />
	</node>
	<node lat="61.41556666436689" lon="5.712841660414885" id="-62830">
		<tag k="name" v="Heielva" />
		<tag k="ssr:stedsnr" v="553804" />
		<tag k="waterway" v="stream" />
	</node>
	<node lat="61.41005555981025" lon="5.709691663310889" id="-62831">
		<tag k="name" v="Botnavatnet" />
		<tag k="natural" v="water" />
		<tag k="ssr:stedsnr" v="553805" />
	</node>
	<node lat="61.41402499879534" lon="5.795052777432039" id="-62832">
		<tag k="name" v="Tjørnane" />
		<tag k="natural" v="water" />
		<tag k="ssr:stedsnr" v="553809" />
		<tag k="water" v="lake" />
	</node>
	<node lat="61.61684166897756" lon="6.006238890120195" id="-62843">
		<tag k="name" v="Oddane" />
		<tag k="natural" v="cape" />
		<tag k="ssr:stedsnr" v="554305" />
	</node>
	<node lat="61.424402778468554" lon="6.158352785781993" id="-62849">
		<tag k="name" v="Utigardselva" />
		<tag k="ssr:stedsnr" v="554399" />
		<tag k="waterway" v="stream" />
	</node>
	<node lat="61.59288610797373" lon="5.8072611025227445" id="-62850">
		<tag k="name" v="Hyvatnet" />
		<tag k="natural" v="water" />
		<tag k="ssr:stedsnr" v="554505" />
		<tag k="water" v="lake" />
	</node>
	<node lat="61.49683888470361" lon="5.4992555589504395" id="-62861">
		<tag k="name" v="Stølselva" />
		<tag k="ssr:stedsnr" v="554572" />
		<tag k="waterway" v="stream" />
	</node>
	<node lat="61.34312500148765" lon="5.558955547961399" id="-62865">
		<tag k="name" v="Storelva" />
		<tag k="ssr:stedsnr" v="554593" />
		<tag k="waterway" v="stream" />
	</node>
	<node lat="61.511619447674896" lon="5.999972217631353" id="-62871">
		<tag k="name" v="Skogstadtjørna" />
		<tag k="natural" v="water" />
		<tag k="ssr:stedsnr" v="555110" />
	</node>
	<node lat="61.567841665560366" lon="6.4912583397065875" id="-62877">
		<tag k="name" v="Løkjagrova" />
		<tag k="ssr:stedsnr" v="555946" />
		<tag k="waterway" v="stream" />
	</node>
	<node lat="61.51065277509457" lon="6.4985583271293015" id="-62880">
		<tag k="name" v="Vidunderdalsvatnet" />
		<tag k="natural" v="water" />
		<tag k="ssr:stedsnr" v="555862" />
	</node>
	<node lat="61.53127222218036" lon="6.363000005211196" id="-62905">
		<tag k="name" v="Nesodden" />
		<tag k="natural" v="cape" />
		<tag k="ssr:stedsnr" v="578213" />
	</node>
	<node lat="61.56768055571762" lon="5.7831083419033344" id="-62941">
		<tag k="name" v="Åmotselva" />
		<tag k="ssr:stedsnr" v="588556" />
		<tag k="waterway" v="river" />
	</node>
	<node lat="61.55068333319708" lon="5.673866666155828" id="-62944">
		<tag k="name" v="Storefossen" />
		<tag k="natural" v="waterfall" />
		<tag k="ssr:stedsnr" v="589458" />
	</node>
	<node lat="61.57610278063517" lon="5.780813882498499" id="-62950">
		<tag k="name" v="Lialona" />
		<tag k="natural" v="water" />
		<tag k="ssr:stedsnr" v="589563" />
	</node>
	<node lat="61.476777779754045" lon="5.938875003975515" id="-62967">
		<tag k="name" v="Strandaøyna" />
		<tag k="natural" v="water" />
		<tag k="ssr:stedsnr" v="698734" />
		<tag k="water" v="lake" />
	</node>
	<node lat="61.37857777597641" lon="6.068744437916169" id="-62968">
		<tag k="name" v="Gøyvingelva" />
		<tag k="ssr:stedsnr" v="698735" />
		<tag k="waterway" v="river" />
	</node>
	<node lat="61.421562725689164" lon="5.882982206771633" id="-62972">
		<tag k="name" v="Lomtjørna" />
		<tag k="natural" v="water" />
		<tag k="ssr:stedsnr" v="698929" />
	</node>
	<node lat="61.52932499748345" lon="6.051300005759608" id="-62977">
		<tag k="name" v="Svidalsgrova" />
		<tag k="ssr:stedsnr" v="699791" />
		<tag k="waterway" v="stream" />
	</node>
	<node lat="61.38717222227484" lon="5.858766672476411" id="-62986">
		<tag k="name" v="Tverligrova" />
		<tag k="ssr:stedsnr" v="699942" />
		<tag k="waterway" v="stream" />
	</node>
	<node lat="61.55160833371844" lon="6.450705554116682" id="-62992">
		<tag k="name" v="Hamnaodden" />
		<tag k="natural" v="cape" />
		<tag k="ssr:stedsnr" v="700093" />
	</node>
	<node lat="61.52296111355016" lon="6.406038897856825" id="-63007">
		<tag k="name" v="Øyna" />
		<tag k="natural" v="water" />
		<tag k="ssr:stedsnr" v="700256" />
		<tag k="water" v="lake" />
	</node>
	<node lat="61.25737500261304" lon="5.808963884144676" id="-63017">
		<tag k="alt_name" v="Storebotnvatn" />
		<tag k="name" v="Storebotnvatnet" />
		<tag k="natural" v="water" />
		<tag k="ssr:stedsnr" v="614223" />
	</node>
	<node lat="61.30394721850098" lon="5.68864999473514" id="-63019">
		<tag k="name" v="Alverelva" />
		<tag k="ssr:stedsnr" v="614105" />
		<tag k="waterway" v="stream" />
	</node>
	<node lat="61.45639166882181" lon="6.107966658906324" id="-63023">
		<tag k="name" v="Grønelitjørna" />
		<tag k="natural" v="water" />
		<tag k="ssr:stedsnr" v="614316" />
	</node>
	<node lat="61.556236107845436" lon="5.731713891509456" id="-63030">
		<tag k="name" v="Solheimsvatnet" />
		<tag k="natural" v="water" />
		<tag k="ssr:stedsnr" v="614452" />
	</node>
	<node lat="61.30015277670994" lon="6.129600007467061" id="-63034">
		<tag k="name" v="Blåvatnet" />
		<tag k="natural" v="water" />
		<tag k="ssr:stedsnr" v="614618" />
	</node>
	<node lat="61.29737778158549" lon="6.137455552061914" id="-63035">
		<tag k="name" v="Holmevatnet" />
		<tag k="natural" v="water" />
		<tag k="ssr:stedsnr" v="614621" />
	</node>
	<node lat="61.293833332133346" lon="6.050755551154472" id="-63036">
		<tag k="name" v="Tredjevatnet" />
		<tag k="natural" v="water" />
		<tag k="ssr:stedsnr" v="614624" />
	</node>
	<node lat="61.33417499819484" lon="6.209111110583002" id="-63045">
		<tag k="alt_name" v="Halfargrova" />
		<tag k="name" v="Halvfargrova" />
		<tag k="ssr:stedsnr" v="614559" />
		<tag k="waterway" v="stream" />
	</node>
	<node lat="61.4196638868643" lon="5.935738898098193" id="-63047">
		<tag k="alt_name" v="Storelva" />
		<tag k="name" v="Sagelva" />
		<tag k="ssr:stedsnr" v="614570" />
		<tag k="waterway" v="stream" />
	</node>
	<node lat="61.31333055652495" lon="5.929361107274822" id="-63072">
		<tag k="name" v="Sagelva" />
		<tag k="ssr:stedsnr" v="615494" />
		<tag k="waterway" v="stream" />
	</node>
	<node lat="61.55369722433792" lon="6.1301361132851575" id="-63082">
		<tag k="name" v="Kvitefossen" />
		<tag k="natural" v="waterfall" />
		<tag k="ssr:stedsnr" v="616158" />
	</node>
	<node lat="61.62328888562193" lon="6.003183326280385" id="-63083">
		<tag k="name" v="Stølsvatnet" />
		<tag k="natural" v="water" />
		<tag k="ssr:stedsnr" v="616241" />
	</node>
	<node lat="61.58121111068515" lon="6.273063890362522" id="-63086">
		<tag k="name" v="Geitafossgrova" />
		<tag k="ssr:stedsnr" v="617004" />
		<tag k="waterway" v="stream" />
	</node>
	<node lat="61.32194444706086" lon="6.228380555717991" id="-63087">
		<tag k="name" v="Langeneset" />
		<tag k="natural" v="cape" />
		<tag k="ssr:stedsnr" v="702902" />
	</node>
	<node lat="61.481580551792426" lon="5.845861115506272" id="-63116">
		<tag k="name" v="Dyregrova" />
		<tag k="ssr:stedsnr" v="637994" />
		<tag k="waterway" v="stream" />
	</node>
	<node lat="61.31974166999131" lon="6.243155560333415" id="-63135">
		<tag k="name" v="Gjermundstadholmen" />
		<tag k="natural" v="cape" />
		<tag k="ssr:stedsnr" v="640909" />
	</node>
	<node lat="61.38563055575485" lon="5.626505558662193" id="-63141">
		<tag k="name" v="Taraldefossen" />
		<tag k="natural" v="waterfall" />
		<tag k="ssr:stedsnr" v="643680" />
	</node>
	<node lat="61.538275004317235" lon="5.778927780827724" id="-63165">
		<tag k="name" v="Kvitla" />
		<tag k="ssr:stedsnr" v="650934" />
		<tag k="waterway" v="river" />
	</node>
	<node lat="61.29920543178595" lon="5.6528567377345995" id="-63180">
		<tag k="name" v="Smørtjørna" />
		<tag k="natural" v="water" />
		<tag k="ssr:stedsnr" v="675116" />
	</node>
	<node lat="61.26474722233165" lon="5.835944436131656" id="-63191">
		<tag k="name" v="Vikabneselva" />
		<tag k="ssr:stedsnr" v="675268" />
		<tag k="waterway" v="stream" />
	</node>
	<node lat="61.502975001187416" lon="5.504733336430768" id="-63193">
		<tag k="name" v="Nordvikstølsvatnet" />
		<tag k="natural" v="water" />
		<tag k="ssr:stedsnr" v="675413" />
	</node>
	<node lat="61.322655554261246" lon="5.864833326081165" id="-63204">
		<tag k="name" v="Stølselva" />
		<tag k="ssr:stedsnr" v="675516" />
		<tag k="waterway" v="stream" />
	</node>
	<node lat="61.326549998534134" lon="6.199136113507981" id="-63206">
		<tag k="alt_name" v="Seteneset" />
		<tag k="name" v="Sætenes" />
		<tag k="natural" v="cape" />
		<tag k="ssr:stedsnr" v="675548" />
	</node>
	<node lat="61.39214722478322" lon="5.563997223032305" id="-63213">
		<tag k="name" v="Bergsvatnet" />
		<tag k="natural" v="water" />
		<tag k="ssr:stedsnr" v="675803" />
	</node>
	<node lat="61.41609444625514" lon="5.5657888888970035" id="-63214">
		<tag k="name" v="Svartetjørna" />
		<tag k="natural" v="water" />
		<tag k="ssr:stedsnr" v="675808" />
	</node>
	<node lat="61.30388888984826" lon="6.258900008957432" id="-63217">
		<tag k="name" v="Litlegrovatnet" />
		<tag k="natural" v="water" />
		<tag k="ssr:stedsnr" v="675823" />
	</node>
	<node lat="61.3035666701662" lon="6.338855549924876" id="-63227">
		<tag k="name" v="Kyravatnet" />
		<tag k="natural" v="water" />
		<tag k="ssr:stedsnr" v="675792" />
	</node>
	<node lat="61.37449999647863" lon="5.802680549542538" id="-63229">
		<tag k="alt_name" v="Skreneset" />
		<tag k="name" v="Skredneset" />
		<tag k="natural" v="cape" />
		<tag k="ssr:stedsnr" v="675909" />
	</node>
	<node lat="61.36035278187962" lon="5.547552772341216" id="-63233">
		<tag k="name" v="Bjørvikelva" />
		<tag k="ssr:stedsnr" v="675896" />
		<tag k="waterway" v="stream" />
	</node>
	<node lat="61.5791361153051" lon="5.787244434589836" id="-63236">
		<tag k="name" v="Hyelva" />
		<tag k="ssr:stedsnr" v="676495" />
		<tag k="waterway" v="stream" />
	</node>
	<node lat="61.57992500127418" lon="6.511819450514691" id="-63240">
		<tag k="name" v="Fossheimselva" />
		<tag k="ssr:stedsnr" v="676942" />
		<tag k="waterway" v="stream" />
	</node>
	<node lat="61.63771388747223" lon="6.588033328478083" id="-63243">
		<tag k="name" v="Trollebottsvatnet" />
		<tag k="natural" v="water" />
		<tag k="ssr:stedsnr" v="677038" />
		<tag k="water" v="lake" />
	</node>
	<node lat="61.5238416650405" lon="6.153547215442504" id="-63244">
		<tag k="name" v="Bergselva" />
		<tag k="ssr:stedsnr" v="677143" />
		<tag k="waterway" v="stream" />
	</node>
	<node lat="61.603263885067086" lon="6.697249991490164" id="-63246">
		<tag k="name" v="Støylselva" />
		<tag k="ssr:stedsnr" v="677839" />
		<tag k="waterway" v="stream" />
	</node>
	<node lat="61.54332222595535" lon="5.654158331262722" id="-63248">
		<tag k="name" v="Storetangen" />
		<tag k="natural" v="cape" />
		<tag k="ssr:stedsnr" v="892429" />
	</node>
	<node lat="61.50008888936991" lon="5.30061111681012" id="-63252">
		<tag k="name" v="Storelva" />
		<tag k="ssr:stedsnr" v="893297" />
		<tag k="waterway" v="river" />
	</node>
	<node lat="61.57747222105819" lon="5.7790138893515435" id="-63266">
		<tag k="name" v="Liagrova" />
		<tag k="ssr:stedsnr" v="893638" />
		<tag k="waterway" v="stream" />
	</node>
	<node lat="61.54672777489535" lon="5.665341664486719" id="-63267">
		<tag k="name" v="Espene" />
		<tag k="natural" v="cape" />
		<tag k="ssr:stedsnr" v="893482" />
	</node>
	<node lat="61.59555555597931" lon="5.9152972297114275" id="-63270">
		<tag k="name" v="Verehaugtjørn" />
		<tag k="natural" v="water" />
		<tag k="ssr:stedsnr" v="893784" />
	</node>
	<node lat="61.66895277738563" lon="6.516175003748582" id="-63273">
		<tag k="name" v="Votedalselva" />
		<tag k="ssr:stedsnr" v="688634" />
		<tag k="waterway" v="river" />
	</node>
	<node lat="61.520822222726316" lon="5.742330555846464" id="-63277">
		<tag k="name" v="Brokøyna" />
		<tag k="place" v="islet" />
		<tag k="ssr:stedsnr" v="893834" />
	</node>
	<node lat="61.4075277774633" lon="5.968433331239671" id="-63282">
		<tag k="name" v="Vaskarelva" />
		<tag k="ssr:stedsnr" v="698813" />
		<tag k="waterway" v="stream" />
	</node>
	<node lat="61.411441671055506" lon="5.869516674012796" id="-63292">
		<tag k="name" v="Bøvika" />
		<tag k="natural" v="bay" />
		<tag k="ssr:stedsnr" v="698966" />
	</node>
	<node lat="61.407183333581855" lon="5.856213880197189" id="-63302">
		<tag k="name" v="Steinsundet" />
		<tag k="natural" v="strait" />
		<tag k="ssr:stedsnr" v="699967" />
	</node>
	<node lat="61.47948611344088" lon="6.069777770573801" id="-63310">
		<tag k="name" v="Gravøyna" />
		<tag k="place" v="islet" />
		<tag k="ssr:stedsnr" v="700166" />
	</node>
	<node lat="61.34803611107344" lon="6.171847229982795" id="-63321">
		<tag k="name" v="Grøfta" />
		<tag k="ssr:stedsnr" v="701104" />
		<tag k="waterway" v="stream" />
	</node>
	<node lat="61.289561114737936" lon="5.748552783662661" id="-63331">
		<tag k="name" v="Tverrelvane" />
		<tag k="ssr:stedsnr" v="704860" />
		<tag k="waterway" v="stream" />
	</node>
	<node lat="61.55899444244997" lon="5.748794445699984" id="-63345">
		<tag k="name" v="Nåletjørna" />
		<tag k="natural" v="water" />
		<tag k="ssr:stedsnr" v="710713" />
	</node>
	<node lat="61.40829166853063" lon="6.0843611114538545" id="-63365">
		<tag k="alt_name" v="Nydalselva" />
		<tag k="name" v="Nyddalselva" />
		<tag k="ssr:stedsnr" v="735385" />
		<tag k="waterway" v="river" />
	</node>
	<node lat="61.404347487653126" lon="6.1127546756804385" id="-63367">
		<tag k="name" v="Tjørnane" />
		<tag k="natural" v="water" />
		<tag k="ssr:stedsnr" v="735397" />
		<tag k="water" v="lake" />
	</node>
	<node lat="61.40384999764495" lon="6.16790554675635" id="-63369">
		<tag k="name" v="Fosselva" />
		<tag k="ssr:stedsnr" v="735401" />
		<tag k="waterway" v="stream" />
	</node>
	<node lat="61.36921666583909" lon="6.144961117900787" id="-63372">
		<tag k="name" v="Myklevasselva" />
		<tag k="ssr:stedsnr" v="735431" />
		<tag k="waterway" v="stream" />
	</node>
	<node lat="61.32933630548913" lon="5.917253624035153" id="-63374">
		<tag k="name" v="Hestadfjorden" />
		<tag k="natural" v="water" />
		<tag k="ssr:stedsnr" v="735477" />
		<tag k="water" v="lake" />
	</node>
	<node lat="61.302336107980125" lon="6.0663750069048215" id="-63375">
		<tag k="name" v="Litlevatnet" />
		<tag k="natural" v="water" />
		<tag k="ssr:stedsnr" v="735494" />
	</node>
	<node lat="61.45681666745409" lon="5.753105553113661" id="-63377">
		<tag k="name" v="Svartetjørn" />
		<tag k="natural" v="water" />
		<tag k="ssr:stedsnr" v="735619" />
	</node>
	<node lat="61.45961666584483" lon="5.684058338863432" id="-63379">
		<tag k="name" v="Katemannselva" />
		<tag k="ssr:stedsnr" v="735627" />
		<tag k="waterway" v="stream" />
	</node>
	<node lat="61.4875027735568" lon="5.707524992796635" id="-63380">
		<tag k="name" v="Kråkeneselva" />
		<tag k="ssr:stedsnr" v="735703" />
		<tag k="waterway" v="stream" />
	</node>
	<node lat="61.36620555992499" lon="6.320224992388983" id="-63382">
		<tag k="name" v="Kjellstadstølsvatnet" />
		<tag k="natural" v="water" />
		<tag k="ssr:stedsnr" v="735707" />
	</node>
	<node lat="61.391387822239295" lon="6.492844495732155" id="-63386">
		<tag k="name" v="Norddalsvatnet" />
		<tag k="natural" v="water" />
		<tag k="ssr:stedsnr" v="735729" />
		<tag k="water" v="lake" />
	</node>
	<node lat="61.35715277412944" lon="5.84042221667526" id="-63389">
		<tag k="alt_name" v="Kvamstølvatnet" />
		<tag k="name" v="Kvamsstølsvatnet" />
		<tag k="natural" v="water" />
		<tag k="ssr:stedsnr" v="736013" />
	</node>
	<node lat="61.32695278060539" lon="5.7191111023249785" id="-63394">
		<tag k="name" v="Årøyfossen" />
		<tag k="natural" v="waterfall" />
		<tag k="ssr:stedsnr" v="736120" />
	</node>
	<node lat="61.488111108679746" lon="6.007908342938857" id="-63397">
		<tag k="name" v="Litledalsvatnet" />
		<tag k="natural" v="water" />
		<tag k="ssr:stedsnr" v="736269" />
	</node>
	<node lat="61.37704999738103" lon="5.847905549404381" id="-63403">
		<tag k="alt_name" v="Mosatjørn" />
		<tag k="name" v="Mosetjørna" />
		<tag k="natural" v="water" />
		<tag k="ssr:stedsnr" v="736415" />
	</node>
	<node lat="61.40658610922893" lon="5.8727249934108015" id="-63409">
		<tag k="name" v="Sandvika" />
		<tag k="natural" v="bay" />
		<tag k="ssr:stedsnr" v="736383" />
	</node>
	<node lat="61.493275225288905" lon="5.535248858360723" id="-63410">
		<tag k="name" v="Dalevatnet" />
		<tag k="natural" v="water" />
		<tag k="ssr:stedsnr" v="736503" />
	</node>
	<node lat="61.29148671802246" lon="5.9630824950665025" id="-63412">
		<tag k="name" v="Seltuftevatnet" />
		<tag k="natural" v="water" />
		<tag k="ssr:stedsnr" v="736605" />
	</node>
	<node lat="61.289041669641286" lon="5.9339361166348885" id="-63413">
		<tag k="name" v="Jakobsvatnet" />
		<tag k="natural" v="water" />
		<tag k="ssr:stedsnr" v="736606" />
	</node>
	<node lat="61.41307777367343" lon="5.744886108686804" id="-63424">
		<tag k="alt_name" v="Gjøsetvatn" />
		<tag k="name" v="Gjøsetvatnet" />
		<tag k="natural" v="water" />
		<tag k="ssr:stedsnr" v="736821" />
		<tag k="water" v="lake" />
	</node>
	<node lat="61.5504407592931" lon="6.099832074692597" id="-63436">
		<tag k="name" v="Botnavatnet" />
		<tag k="natural" v="water" />
		<tag k="ssr:stedsnr" v="737167" />
	</node>
	<node lat="61.55420833664946" lon="6.0013194375387275" id="-63441">
		<tag k="name" v="Nordavatnet" />
		<tag k="natural" v="water" />
		<tag k="ssr:stedsnr" v="737179" />
	</node>
	<node lat="61.49075277686126" lon="5.5441916719175905" id="-63446">
		<tag k="name" v="Stølselva" />
		<tag k="ssr:stedsnr" v="737529" />
		<tag k="waterway" v="stream" />
	</node>
	<node lat="61.62009999905891" lon="6.607477784986773" id="-63448">
		<tag k="name" v="Kvernhusgrova" />
		<tag k="ssr:stedsnr" v="737815" />
		<tag k="waterway" v="stream" />
	</node>
	<node lat="61.57253536105998" lon="6.3357900971724215" id="-63456">
		<tag k="name" v="Dalevatnet" />
		<tag k="natural" v="water" />
		<tag k="ssr:stedsnr" v="737957" />
		<tag k="water" v="lake" />
	</node>
	<node lat="61.415366667505616" lon="6.410061103688857" id="-63483">
		<tag k="name" v="Holmane" />
		<tag k="natural" v="water" />
		<tag k="ssr:stedsnr" v="759809" />
		<tag k="water" v="lake" />
	</node>
	<node lat="61.42853888673413" lon="6.066744453921992" id="-63489">
		<tag k="name" v="Stølsvika" />
		<tag k="natural" v="bay" />
		<tag k="ssr:stedsnr" v="759849" />
	</node>
	<node lat="61.313649999924195" lon="6.229119452453488" id="-63526">
		<tag k="name" v="Austangrova" />
		<tag k="ssr:stedsnr" v="765903" />
		<tag k="waterway" v="stream" />
	</node>
	<node lat="61.538691666208756" lon="5.751455554565415" id="-63540">
		<tag k="name" v="Kvernhusgrova" />
		<tag k="ssr:stedsnr" v="771961" />
		<tag k="waterway" v="stream" />
	</node>
	<node lat="61.60013055545403" lon="5.817052770505242" id="-63546">
		<tag k="name" v="Hydalselva" />
		<tag k="ssr:stedsnr" v="772865" />
		<tag k="waterway" v="river" />
	</node>
	<node lat="61.54966944355166" lon="5.815802785072445" id="-63549">
		<tag k="name" v="Vassdalsvatn" />
		<tag k="natural" v="water" />
		<tag k="ssr:stedsnr" v="772907" />
		<tag k="water" v="lake" />
	</node>
	<node lat="61.40001111480567" lon="5.899636110916077" id="-63555">
		<tag k="name" v="Flategrova" />
		<tag k="ssr:stedsnr" v="796403" />
		<tag k="waterway" v="stream" />
	</node>
	<node lat="61.30234166333356" lon="6.078255557125228" id="-63561">
		<tag k="name" v="Holtsnipvatnet" />
		<tag k="natural" v="water" />
		<tag k="ssr:stedsnr" v="796507" />
	</node>
	<node lat="61.47056389273799" lon="6.339838889591153" id="-63566">
		<tag k="name" v="Styggevatnet" />
		<tag k="natural" v="water" />
		<tag k="ssr:stedsnr" v="796654" />
	</node>
	<node lat="61.474816669814565" lon="6.256669440124546" id="-63567">
		<tag k="name" v="Botnavatnet" />
		<tag k="natural" v="water" />
		<tag k="ssr:stedsnr" v="796659" />
	</node>
	<node lat="61.43924722646741" lon="5.750430552634587" id="-63572">
		<tag k="name" v="Liastølsvatnet" />
		<tag k="natural" v="water" />
		<tag k="ssr:stedsnr" v="796821" />
	</node>
	<node lat="61.34251666638068" lon="6.315575004479642" id="-63574">
		<tag k="name" v="Mjellsvatnet" />
		<tag k="natural" v="water" />
		<tag k="ssr:stedsnr" v="796703" />
	</node>
	<node lat="61.49118611216841" lon="5.819855564349092" id="-63575">
		<tag k="alt_name" v="Løypingselva" />
		<tag k="name" v="Løypingelva" />
		<tag k="ssr:stedsnr" v="796711" />
		<tag k="waterway" v="stream" />
	</node>
	<node lat="61.34789186834006" lon="5.584365713281595" id="-63582">
		<tag k="name" v="Brokatjørna" />
		<tag k="natural" v="water" />
		<tag k="ssr:stedsnr" v="797006" />
	</node>
	<node lat="61.42952778186441" lon="6.181933327261371" id="-63589">
		<tag k="name" v="Norddalsvatnet" />
		<tag k="natural" v="water" />
		<tag k="ssr:stedsnr" v="797348" />
	</node>
	<node lat="61.406575000389964" lon="6.221844452959587" id="-63607">
		<tag k="alt_name" v="Tjønna" />
		<tag k="name" v="Fjelltjønna" />
		<tag k="natural" v="water" />
		<tag k="ssr:stedsnr" v="797644" />
	</node>
	<node lat="61.411083157323304" lon="5.534622816768418" id="-63614">
		<tag k="name" v="Litlevatnet" />
		<tag k="natural" v="water" />
		<tag k="ssr:stedsnr" v="797808" />
	</node>
	<node lat="61.41040555338677" lon="5.594033333657498" id="-63615">
		<tag k="name" v="Selsvatnet" />
		<tag k="natural" v="water" />
		<tag k="ssr:stedsnr" v="797809" />
		<tag k="water" v="lake" />
	</node>
	<node lat="61.610722220374875" lon="6.123686106020022" id="-63617">
		<tag k="name" v="Lofthusvatnet" />
		<tag k="natural" v="water" />
		<tag k="ssr:stedsnr" v="798245" />
	</node>
	<node lat="61.5717861093931" lon="6.122697226373503" id="-63622">
		<tag k="name" v="Nordvatnet" />
		<tag k="natural" v="water" />
		<tag k="ssr:stedsnr" v="798202" />
	</node>
	<node lat="61.511330551931394" lon="6.158808335554741" id="-63637">
		<tag k="name" v="Svidalsneset" />
		<tag k="natural" v="cape" />
		<tag k="ssr:stedsnr" v="799145" />
	</node>
	<node lat="61.33688888472658" lon="5.992899993586562" id="-63650">
		<tag k="name" v="Svartetjørna" />
		<tag k="natural" v="water" />
		<tag k="ssr:stedsnr" v="917454" />
	</node>
	<node lat="61.3220898895696" lon="5.653196874490199" id="-63660">
		<tag k="name" v="Litlevatnet" />
		<tag k="natural" v="water" />
		<tag k="ssr:stedsnr" v="918131" />
	</node>
	<node lat="61.33675833161282" lon="5.660194448764616" id="-63666">
		<tag k="name" v="Sundsdalsvatnet" />
		<tag k="natural" v="water" />
		<tag k="ssr:stedsnr" v="918047" />
	</node>
	<node lat="61.29541388775114" lon="5.665697230686497" id="-63673">
		<tag k="alt_name" v="Skarsvatnet" />
		<tag k="name" v="Skardsvatnet" />
		<tag k="natural" v="water" />
		<tag k="ssr:stedsnr" v="918145" />
	</node>
	<node lat="61.48167500105813" lon="6.0962249929796135" id="-63678">
		<tag k="name" v="Storegrova" />
		<tag k="ssr:stedsnr" v="918335" />
		<tag k="waterway" v="stream" />
	</node>
	<node lat="61.46505555458684" lon="5.947513892252612" id="-63681">
		<tag k="alt_name" v="Gjelgrova" />
		<tag k="name" v="Gilgrova" />
		<tag k="ssr:stedsnr" v="918347" />
		<tag k="waterway" v="stream" />
	</node>
	<node lat="61.45219444548848" lon="6.172005547356619" id="-63685">
		<tag k="name" v="Skargrova" />
		<tag k="ssr:stedsnr" v="918382" />
		<tag k="waterway" v="stream" />
	</node>
	<node lat="61.424583335550125" lon="5.8525999961722786" id="-63688">
		<tag k="alt_name" v="Hunsrasta" />
		<tag k="name" v="Hundsrasta" />
		<tag k="ssr:stedsnr" v="918398" />
		<tag k="waterway" v="stream" />
	</node>
	<node lat="61.38590277891428" lon="5.8444833287365885" id="-63693">
		<tag k="alt_name" v="Skintjørn" />
		<tag k="name" v="Skjentjørna" />
		<tag k="natural" v="water" />
		<tag k="ssr:stedsnr" v="918476" />
	</node>
	<node lat="61.3855055979405" lon="6.10801648551314" id="-63695">
		<tag k="name" v="Kvanngrødvatnet" />
		<tag k="natural" v="water" />
		<tag k="ssr:stedsnr" v="918484" />
		<tag k="water" v="lake" />
	</node>
	<node lat="61.33070555880664" lon="5.93562499888582" id="-63700">
		<tag k="name" v="Øyratangen" />
		<tag k="natural" v="cape" />
		<tag k="ssr:stedsnr" v="918552" />
	</node>
	<node lat="61.30775555296724" lon="6.0923388920491774" id="-63701">
		<tag k="name" v="Styggevatnet" />
		<tag k="natural" v="water" />
		<tag k="ssr:stedsnr" v="918556" />
	</node>
	<node lat="61.300375002227824" lon="6.115886112036474" id="-63702">
		<tag k="name" v="Kyravatnet" />
		<tag k="natural" v="water" />
		<tag k="ssr:stedsnr" v="918559" />
	</node>
	<node lat="61.30121111254124" lon="6.184850000181317" id="-63703">
		<tag k="name" v="Oppedalselva" />
		<tag k="ssr:stedsnr" v="918561" />
		<tag k="waterway" v="stream" />
	</node>
	<node lat="61.30485555146803" lon="6.0137361147244635" id="-63704">
		<tag k="name" v="Rørstaddyttingen" />
		<tag k="natural" v="water" />
		<tag k="ssr:stedsnr" v="918562" />
	</node>
	<node lat="61.303866667967206" lon="5.858619444560166" id="-63706">
		<tag k="alt_name" v="Svegardelva" />
		<tag k="name" v="Svidgardselva" />
		<tag k="ssr:stedsnr" v="918567" />
		<tag k="waterway" v="stream" />
	</node>
	<node lat="61.31290833492377" lon="6.099730563758697" id="-63707">
		<tag k="name" v="Mjelkegeitgrova" />
		<tag k="ssr:stedsnr" v="918579" />
		<tag k="waterway" v="stream" />
	</node>
	<node lat="61.32413978806104" lon="6.027757674438055" id="-63709">
		<tag k="alt_name" v="Øvste Kråka;Kråka, øvre" />
		<tag k="name" v="Øvre Kråka" />
		<tag k="natural" v="cape" />
		<tag k="ssr:stedsnr" v="918594" />
	</node>
	<node lat="61.396819447138675" lon="5.773805555598378" id="-63710">
		<tag k="name" v="Gjøsetelva" />
		<tag k="ssr:stedsnr" v="918598" />
		<tag k="waterway" v="stream" />
	</node>
	<node lat="61.32937499783151" lon="6.057411112199016" id="-63715">
		<tag k="name" v="Vaulodden" />
		<tag k="natural" v="cape" />
		<tag k="ssr:stedsnr" v="918620" />
	</node>
	<node lat="61.4309250040016" lon="6.136374999522898" id="-63716">
		<tag k="name" v="Sagelva" />
		<tag k="ssr:stedsnr" v="918419" />
		<tag k="waterway" v="stream" />
	</node>
	<node lat="61.448124998363106" lon="6.351827768630457" id="-63722">
		<tag k="alt_name" v="Jørva" />
		<tag k="name" v="Gyrva" />
		<tag k="ssr:stedsnr" v="918700" />
		<tag k="waterway" v="stream" />
	</node>
	<node lat="61.493769447878265" lon="6.35905833869098" id="-63726">
		<tag k="name" v="Åselva" />
		<tag k="ssr:stedsnr" v="918746" />
		<tag k="waterway" v="stream" />
	</node>
	<node lat="61.39616630600151" lon="5.504520364524636" id="-63727">
		<tag k="name" v="Fyrsteneset" />
		<tag k="natural" v="cape" />
		<tag k="ssr:stedsnr" v="918809" />
	</node>
	<node lat="61.40425833023794" lon="5.754519447996153" id="-63729">
		<tag k="alt_name" v="Storegjøset;Gjøsetvatnet, l" />
		<tag k="name" v="Litle Gjøsetvatnet" />
		<tag k="natural" v="water" />
		<tag k="ssr:stedsnr" v="918820" />
	</node>
	<node lat="61.390858331147605" lon="5.53410278047379" id="-63731">
		<tag k="name" v="Jonstjørna" />
		<tag k="natural" v="water" />
		<tag k="ssr:stedsnr" v="918829" />
	</node>
	<node lat="61.36461388752903" lon="6.3899222224950005" id="-63734">
		<tag k="name" v="Langetjønna" />
		<tag k="natural" v="water" />
		<tag k="ssr:stedsnr" v="918793" />
	</node>
	<node lat="61.40266858926721" lon="6.484741850706088" id="-63735">
		<tag k="name" v="Kvanngrøvatnet" />
		<tag k="natural" v="water" />
		<tag k="ssr:stedsnr" v="918796" />
	</node>
	<node lat="61.435327774174354" lon="5.785849997817688" id="-63737">
		<tag k="name" v="Stølselva" />
		<tag k="ssr:stedsnr" v="918873" />
		<tag k="waterway" v="stream" />
	</node>
	<node lat="61.30740555794813" lon="6.227786110531585" id="-63753">
		<tag k="name" v="Skarelva" />
		<tag k="ssr:stedsnr" v="919509" />
		<tag k="waterway" v="stream" />
	</node>
	<node lat="61.60459722486318" lon="6.688822214289484" id="-63763">
		<tag k="name" v="Fessegrova" />
		<tag k="ssr:stedsnr" v="919824" />
		<tag k="waterway" v="stream" />
	</node>
	<node lat="61.49944922651007" lon="5.884060473697507" id="-63773">
		<tag k="alt_name" v="Inste Vasslivatn" />
		<tag k="name" v="Vasslivatna" />
		<tag k="natural" v="water" />
		<tag k="ssr:stedsnr" v="920138" />
		<tag k="water" v="lake" />
	</node>
	<node lat="61.504911113507454" lon="5.987436118134467" id="-63777">
		<tag k="name" v="Storøyna" />
		<tag k="natural" v="water" />
		<tag k="ssr:stedsnr" v="819810" />
		<tag k="water" v="lake" />
	</node>
	<node lat="61.57917499617895" lon="6.7244361039156955" id="-63791">
		<tag k="name" v="Kvannebottselva" />
		<tag k="ssr:stedsnr" v="920867" />
		<tag k="waterway" v="stream" />
	</node>
	<node lat="61.569327779096916" lon="6.653675003662252" id="-63792">
		<tag k="name" v="Lonene" />
		<tag k="place" v="locality" />
		<tag k="ssr:stedsnr" v="920869" />
	</node>
	<node lat="61.43756111429011" lon="5.886930562842261" id="-63800">
		<tag k="name" v="Mellomgrova" />
		<tag k="ssr:stedsnr" v="820922" />
		<tag k="waterway" v="stream" />
	</node>
	<node lat="61.49995278181343" lon="5.882891675295887" id="-63805">
		<tag k="name" v="Vasslielva" />
		<tag k="ssr:stedsnr" v="820877" />
		<tag k="waterway" v="river" />
	</node>
	<node lat="61.52284166597304" lon="6.359599999031982" id="-63820">
		<tag k="name" v="Fessene" />
		<tag k="natural" v="water" />
		<tag k="ssr:stedsnr" v="821213" />
		<tag k="water" v="lake" />
	</node>
	<node lat="61.5189499998297" lon="6.619461111730843" id="-63835">
		<tag k="name" v="Lundaelva" />
		<tag k="ssr:stedsnr" v="821847" />
		<tag k="waterway" v="river" />
	</node>
	<node lat="61.34672222324004" lon="5.621316659832827" id="-63881">
		<tag k="name" v="Oladyttingane" />
		<tag k="natural" v="water" />
		<tag k="ssr:stedsnr" v="857052" />
	</node>
	<node lat="61.455250001509505" lon="5.968916665516154" id="-63886">
		<tag k="name" v="Krokevatnet" />
		<tag k="natural" v="water" />
		<tag k="ssr:stedsnr" v="857341" />
	</node>
	<node lat="61.42488779486217" lon="6.0272396779325215" id="-63890">
		<tag k="name" v="Kyraneset" />
		<tag k="natural" v="cape" />
		<tag k="ssr:stedsnr" v="857405" />
	</node>
	<node lat="61.310536107918715" lon="6.008244442872439" id="-63900">
		<tag k="name" v="Rørstadelva" />
		<tag k="ssr:stedsnr" v="857527" />
		<tag k="waterway" v="stream" />
	</node>
	<node lat="61.30936110953063" lon="6.033724995504839" id="-63902">
		<tag k="name" v="Årteigselva" />
		<tag k="ssr:stedsnr" v="857531" />
		<tag k="waterway" v="stream" />
	</node>
	<node lat="61.34932777967928" lon="6.352308324573158" id="-63908">
		<tag k="alt_name" v="Øyaelvane" />
		<tag k="name" v="Øyvelva" />
		<tag k="ssr:stedsnr" v="857729" />
		<tag k="waterway" v="stream" />
	</node>
	<node lat="61.28034166334191" lon="5.85501666949058" id="-63911">
		<tag k="name" v="Daurmålsvatnet" />
		<tag k="natural" v="water" />
		<tag k="ssr:stedsnr" v="857619" />
	</node>
	<node lat="61.28878611140955" lon="5.850980559067447" id="-63912">
		<tag k="name" v="Grova" />
		<tag k="ssr:stedsnr" v="857626" />
		<tag k="waterway" v="stream" />
	</node>
	<node lat="61.45586389199699" lon="5.686313897185452" id="-63913">
		<tag k="name" v="Trongaelva" />
		<tag k="ssr:stedsnr" v="857628" />
		<tag k="waterway" v="stream" />
	</node>
	<node lat="61.313980560002044" lon="6.276069444190684" id="-63926">
		<tag k="name" v="Storegrova" />
		<tag k="ssr:stedsnr" v="857782" />
		<tag k="waterway" v="stream" />
	</node>
	<node lat="61.32235000099684" lon="6.325169445789446" id="-63927">
		<tag k="name" v="Skålebotsvatnet" />
		<tag k="natural" v="water" />
		<tag k="ssr:stedsnr" v="857785" />
	</node>
	<node lat="61.52970555407327" lon="5.911852771163375" id="-63933">
		<tag k="name" v="Gavlevatnet" />
		<tag k="natural" v="water" />
		<tag k="ssr:stedsnr" v="858171" />
	</node>
	<node lat="61.543922225418974" lon="5.645286108716874" id="-63940">
		<tag k="name" v="Storevatnet" />
		<tag k="natural" v="water" />
		<tag k="ssr:stedsnr" v="858469" />
		<tag k="water" v="lake" />
	</node>
	<node lat="61.424244448563904" lon="5.63549444078144" id="-63944">
		<tag k="name" v="Rimmavatnet" />
		<tag k="natural" v="water" />
		<tag k="ssr:stedsnr" v="858812" />
	</node>
	<node lat="61.39929444279567" lon="6.358233329945067" id="-63945">
		<tag k="alt_name" v="Nykkjevatna" />
		<tag k="fixme" v="multiple name tags, choose one and add the other to alt_name" />
		<tag k="name" v="Årskogstølsvatnet;Nykkjevatnet" />
		<tag k="natural" v="water" />
		<tag k="ssr:stedsnr" v="858771" />
	</node>
	<node lat="61.406569447904545" lon="5.62898333050762" id="-63946">
		<tag k="name" v="Grunnevatnet" />
		<tag k="natural" v="water" />
		<tag k="ssr:stedsnr" v="858792" />
	</node>
	<node lat="61.52089167091743" lon="6.093247225277189" id="-63948">
		<tag k="name" v="Tverrgrovvatnet" />
		<tag k="natural" v="water" />
		<tag k="ssr:stedsnr" v="859125" />
	</node>
	<node lat="61.65560000342553" lon="6.630194438414588" id="-63958">
		<tag k="name" v="Skitnevatnet" />
		<tag k="natural" v="water" />
		<tag k="ssr:stedsnr" v="859916" />
	</node>
	<node lat="61.64696666536547" lon="6.628966670434181" id="-63959">
		<tag k="name" v="Reinevatnet" />
		<tag k="natural" v="water" />
		<tag k="ssr:stedsnr" v="859918" />
	</node>
	<node lat="61.60876388480537" lon="6.747002775983199" id="-63960">
		<tag k="name" v="Svoraelva" />
		<tag k="ssr:stedsnr" v="859810" />
		<tag k="waterway" v="stream" />
	</node>
	<node lat="61.58479166722114" lon="6.33933888045557" id="-63963">
		<tag k="name" v="Engjagrova" />
		<tag k="ssr:stedsnr" v="860014" />
		<tag k="waterway" v="stream" />
	</node>
	<node lat="61.61263888737576" lon="6.5023083388335445" id="-63965">
		<tag k="name" v="Paulsvatnet" />
		<tag k="natural" v="water" />
		<tag k="ssr:stedsnr" v="860023" />
	</node>
	<node lat="61.620152781489764" lon="6.460652777559238" id="-63974">
		<tag k="name" v="Kupefossen" />
		<tag k="natural" v="waterfall" />
		<tag k="ssr:stedsnr" v="931632" />
	</node>
	<node lat="61.430958337058165" lon="6.461474997991494" id="-63995">
		<tag k="name" v="Øyane" />
		<tag k="natural" v="water" />
		<tag k="ssr:stedsnr" v="881807" />
		<tag k="water" v="lake" />
	</node>
	<node lat="61.50153611552581" lon="5.912586114208274" id="-63996">
		<tag k="name" v="Tjørnali-tjørna" />
		<tag k="natural" v="water" />
		<tag k="ssr:stedsnr" v="881856" />
	</node>
	<node lat="61.56016944283028" lon="6.3671194436325" id="-64002">
		<tag k="name" v="Skrehammargrova" />
		<tag k="ssr:stedsnr" v="882009" />
		<tag k="waterway" v="stream" />
	</node>
	<node lat="61.47184999861463" lon="6.0575666674053075" id="-64009">
		<tag k="name" v="Kvamshølen" />
		<tag k="place" v="locality" />
		<tag k="ssr:stedsnr" v="882112" />
	</node>
	<node lat="61.50289444270987" lon="6.263808333266954" id="-64017">
		<tag k="name" v="Sandalselva" />
		<tag k="ssr:stedsnr" v="882717" />
		<tag k="waterway" v="river" />
	</node>
	<node lat="61.382494440744004" lon="6.224355549572778" id="-64025">
		<tag k="name" v="Solheimselva" />
		<tag k="ssr:stedsnr" v="883319" />
		<tag k="waterway" v="river" />
	</node>
	<node lat="61.33846944358282" lon="6.1383916730074795" id="-64028">
		<tag k="name" v="Øyrane" />
		<tag k="natural" v="cape" />
		<tag k="ssr:stedsnr" v="884700" />
	</node>
	<node lat="61.33500287370118" lon="6.09698093478484" id="-64029">
		<tag k="name" v="Storeneset" />
		<tag k="natural" v="cape" />
		<tag k="ssr:stedsnr" v="886649" />
	</node>
	<node lat="61.24394127470006" lon="5.82713872017188" id="-64037">
		<tag k="name" v="Lona" />
		<tag k="natural" v="water" />
		<tag k="ssr:stedsnr" v="887708" />
		<tag k="water" v="lake" />
	</node>
	<node lat="61.332541663291906" lon="5.940697222216122" id="-64045">
		<tag k="name" v="Fløne" />
		<tag k="natural" v="shoal" />
		<tag k="place" v="locality" />
		<tag k="ssr:stedsnr" v="888645" />
	</node>
	<node lat="61.333863885252356" lon="5.946855550160585" id="-64046">
		<tag k="name" v="Øyna" />
		<tag k="natural" v="cape" />
		<tag k="ssr:stedsnr" v="888647" />
	</node>
	<node lat="61.52244999650852" lon="5.740002771663916" id="-64061">
		<tag k="name" v="Kvitla" />
		<tag k="ssr:stedsnr" v="893884" />
		<tag k="waterway" v="river" />
	</node>
	<node lat="61.33478954866051" lon="5.84757872877712" id="-64066">
		<tag k="alt_name" v="Haukevatn" />
		<tag k="name" v="Haukevatnet" />
		<tag k="natural" v="water" />
		<tag k="ssr:stedsnr" v="917458" />
		<tag k="water" v="lake" />
	</node>
	<node lat="61.33752777808084" lon="6.050174999742117" id="-64067">
		<tag k="alt_name" v="Roskeelva" />
		<tag k="name" v="Roskelva" />
		<tag k="ssr:stedsnr" v="917465" />
		<tag k="waterway" v="stream" />
	</node>
	<node lat="61.551924997342" lon="5.7309444395631735" id="-64082">
		<tag k="name" v="Horstadvatnet" />
		<tag k="natural" v="water" />
		<tag k="ssr:stedsnr" v="918506" />
	</node>
	<node lat="61.423833332569316" lon="6.264036114279898" id="-64084">
		<tag k="name" v="Hårklauelva" />
		<tag k="ssr:stedsnr" v="918705" />
		<tag k="waterway" v="stream" />
	</node>
	<node lat="61.282658337030654" lon="6.19791667220591" id="-64087">
		<tag k="name" v="Skardvatnet" />
		<tag k="natural" v="water" />
		<tag k="ssr:stedsnr" v="918653" />
	</node>
	<node lat="61.291413893320595" lon="6.077255552325308" id="-64089">
		<tag k="alt_name" v="Blankedalsvatnet, øvre" />
		<tag k="name" v="Øvre Blankedalsvatnet" />
		<tag k="natural" v="water" />
		<tag k="ssr:stedsnr" v="918668" />
		<tag k="water" v="lake" />
	</node>
	<node lat="61.293336110870044" lon="5.925936111954804" id="-64092">
		<tag k="name" v="Storevatnet" />
		<tag k="natural" v="water" />
		<tag k="ssr:stedsnr" v="918684" />
	</node>
	<node lat="61.30770000382568" lon="6.2839916752853995" id="-64099">
		<tag k="name" v="Geitebotsvatnet" />
		<tag k="natural" v="water" />
		<tag k="ssr:stedsnr" v="918857" />
	</node>
	<node lat="61.47744167014392" lon="5.759355547608119" id="-64102">
		<tag k="alt_name" v="Slåtteelva" />
		<tag k="name" v="Slåttelva" />
		<tag k="ssr:stedsnr" v="918749" />
		<tag k="waterway" v="stream" />
	</node>
	<node lat="61.24232777874546" lon="5.811419445389237" id="-64111">
		<tag k="alt_name" v="Fureåselva" />
		<tag k="name" v="Furåselva" />
		<tag k="ssr:stedsnr" v="919942" />
		<tag k="waterway" v="stream" />
	</node>
	<node lat="61.52467222652225" lon="6.197544436195102" id="-64115">
		<tag k="alt_name" v="Ørnebottgrova" />
		<tag k="name" v="Bakkeelva" />
		<tag k="ssr:stedsnr" v="920144" />
		<tag k="waterway" v="stream" />
	</node>
	<node lat="61.59426110957085" lon="6.529433341058987" id="-64118">
		<tag k="name" v="Bolsetelva" />
		<tag k="ssr:stedsnr" v="920007" />
		<tag k="waterway" v="stream" />
	</node>
	<node lat="61.61404999587245" lon="6.479199996061001" id="-64128">
		<tag k="alt_name" v="Storelva" />
		<tag k="name" v="Paulselva" />
		<tag k="ssr:stedsnr" v="920715" />
		<tag k="waterway" v="river" />
	</node>
	<node lat="61.329052775051835" lon="6.275966667253218" id="-64131">
		<tag k="name" v="Lona" />
		<tag k="natural" v="water" />
		<tag k="ssr:stedsnr" v="944173" />
		<tag k="water" v="lake" />
	</node>
	<node lat="61.321791663157036" lon="6.0645416653179" id="-64136">
		<tag k="name" v="Sandaneelva" />
		<tag k="ssr:stedsnr" v="947631" />
		<tag k="waterway" v="river" />
	</node>
	<node lat="61.31635555278729" lon="5.696600003269775" id="-64139">
		<tag k="name" v="Krokane" />
		<tag k="natural" v="cape" />
		<tag k="ssr:stedsnr" v="948028" />
	</node>
	<node lat="61.467538891331436" lon="5.461938888173884" id="-64147">
		<tag k="name" v="Litlevatnet" />
		<tag k="natural" v="water" />
		<tag k="ssr:stedsnr" v="953803" />
		<tag k="water" v="lake" />
	</node>
	<node lat="61.32723626743307" lon="6.137205807447738" id="-64175">
		<tag k="name" v="Snøgjelelva" />
		<tag k="ssr:stedsnr" v="990941" />
		<tag k="waterway" v="stream" />
	</node>
	<node lat="61.33590833048222" lon="5.842563883300451" id="-64177">
		<tag k="name" v="Fossfossen" />
		<tag k="natural" v="waterfall" />
		<tag k="ssr:stedsnr" v="7079" />
	</node>
	<node lat="61.356602781097806" lon="5.667397216705738" id="-64183">
		<tag k="alt_name" v="Skykkjeelva" />
		<tag k="name" v="Skytjelva" />
		<tag k="ssr:stedsnr" v="7037" />
		<tag k="waterway" v="stream" />
	</node>
	<node lat="61.48074444280371" lon="5.581963884339334" id="-64184">
		<tag k="name" v="Einevollsvatnet" />
		<tag k="natural" v="water" />
		<tag k="ssr:stedsnr" v="7695" />
	</node>
	<node lat="61.39139999853608" lon="6.3815250014295835" id="-64185">
		<tag k="name" v="Eggjavatnet" />
		<tag k="natural" v="water" />
		<tag k="ssr:stedsnr" v="7731" />
	</node>
	<node lat="61.36705623499726" lon="5.681685245936617" id="-64190">
		<tag k="name" v="Osfossen" />
		<tag k="natural" v="waterfall" />
		<tag k="ssr:stedsnr" v="7887" />
	</node>
	<node lat="61.45071944655363" lon="5.8589749921337795" id="-64192">
		<tag k="name" v="Jølstra" />
		<tag k="ssr:stedsnr" v="7328" />
		<tag k="waterway" v="river" />
	</node>
	<node lat="61.370127780709005" lon="5.998486116859109" id="-64195">
		<tag k="name" v="Gravvatnet" />
		<tag k="natural" v="water" />
		<tag k="ssr:stedsnr" v="7443" />
		<tag k="water" v="lake" />
	</node>
	<node lat="61.322155552360506" lon="5.770049992850517" id="-64197">
		<tag k="name" v="Lona" />
		<tag k="place" v="locality" />
		<tag k="ssr:stedsnr" v="7133" />
	</node>
	<node lat="61.325766667947335" lon="5.687316665280774" id="-64198">
		<tag k="name" v="Stølsvatnet" />
		<tag k="natural" v="water" />
		<tag k="ssr:stedsnr" v="7135" />
	</node>
	<node lat="61.41361666349883" lon="6.067030558123201" id="-64200">
		<tag k="name" v="Husetuftelva" />
		<tag k="ssr:stedsnr" v="7388" />
		<tag k="waterway" v="stream" />
	</node>
	<node lat="61.337180551553026" lon="5.907069438304945" id="-64201">
		<tag k="name" v="Holmevika" />
		<tag k="natural" v="bay" />
		<tag k="ssr:stedsnr" v="7467" />
	</node>
	<node lat="61.33992500393993" lon="6.127825000107571" id="-64202">
		<tag k="alt_name" v="Osen" />
		<tag k="name" v="Eldalsosen" />
		<tag k="natural" v="bay" />
		<tag k="ssr:stedsnr" v="7474" />
	</node>
	<node lat="61.342450003388876" lon="6.18713055659917" id="-64203">
		<tag k="name" v="Stølstjønna" />
		<tag k="natural" v="water" />
		<tag k="ssr:stedsnr" v="7481" />
	</node>
	<node lat="61.52613610876729" lon="5.609530555125452" id="-64224">
		<tag k="name" v="Boltevatnet" />
		<tag k="natural" v="water" />
		<tag k="ssr:stedsnr" v="8435" />
	</node>
	<node lat="61.49626389317821" lon="5.626416666919024" id="-64227">
		<tag k="alt_name" v="Indreelva" />
		<tag k="name" v="Indrelva" />
		<tag k="ssr:stedsnr" v="8532" />
		<tag k="waterway" v="stream" />
	</node>
	<node lat="61.49535555517106" lon="5.614369452919168" id="-64228">
		<tag k="alt_name" v="Ytsteelva" />
		<tag k="name" v="Ytstelva" />
		<tag k="ssr:stedsnr" v="8534" />
		<tag k="waterway" v="stream" />
	</node>
	<node lat="61.51123333759103" lon="5.534333341783323" id="-64234">
		<tag k="name" v="Viddalselva" />
		<tag k="ssr:stedsnr" v="8457" />
		<tag k="waterway" v="stream" />
	</node>
	<node lat="61.474711108953436" lon="5.752575003448557" id="-64239">
		<tag k="name" v="Elvakrokane" />
		<tag k="place" v="locality" />
		<tag k="ssr:stedsnr" v="8729" />
	</node>
	<node lat="61.43878333098457" lon="5.806641668059112" id="-64250">
		<tag k="name" v="Prestestølselva" />
		<tag k="ssr:stedsnr" v="8854" />
		<tag k="waterway" v="stream" />
	</node>
	<node lat="61.5742660428296" lon="6.16155727414717" id="-64258">
		<tag k="name" v="Isvatnet" />
		<tag k="natural" v="water" />
		<tag k="ssr:stedsnr" v="9181" />
		<tag k="water" v="lake" />
	</node>
	<node lat="61.587388890989" lon="6.505586112660169" id="-64266">
		<tag k="name" v="Juvikvatnet" />
		<tag k="natural" v="water" />
		<tag k="ssr:stedsnr" v="10951" />
	</node>
	<node lat="61.52120278137176" lon="6.382961115165602" id="-64267">
		<tag k="name" v="Myklebustelva" />
		<tag k="ssr:stedsnr" v="9862" />
		<tag k="waterway" v="river" />
	</node>
	<node lat="61.57823610887658" lon="6.335008334697279" id="-64276">
		<tag k="name" v="Daleelva" />
		<tag k="ssr:stedsnr" v="20656" />
		<tag k="waterway" v="river" />
	</node>
	<node lat="61.58491111204919" lon="5.74278611594717" id="-64278">
		<tag k="name" v="Blåhølen" />
		<tag k="place" v="locality" />
		<tag k="ssr:stedsnr" v="20724" />
	</node>
	<node lat="61.40149166905091" lon="6.069466667720044" id="-64287">
		<tag k="name" v="Øyna" />
		<tag k="natural" v="water" />
		<tag k="ssr:stedsnr" v="31760" />
		<tag k="water" v="lake" />
	</node>
	<node lat="61.550519447431775" lon="6.090633327693959" id="-64289">
		<tag k="name" v="Naustneset" />
		<tag k="natural" v="cape" />
		<tag k="ssr:stedsnr" v="31835" />
	</node>
	<node lat="61.439496260750666" lon="5.966864794092448" id="-64292">
		<tag k="name" v="Bårdkvibukta" />
		<tag k="natural" v="bay" />
		<tag k="ssr:stedsnr" v="31839" />
	</node>
	<node lat="61.47877499999969" lon="6.062366666163395" id="-64300">
		<tag k="name" v="Kvamsfossen" />
		<tag k="natural" v="waterfall" />
		<tag k="ssr:stedsnr" v="32095" />
	</node>
	<node lat="61.567777778131635" lon="6.2656444489897485" id="-64304">
		<tag k="name" v="Fossgrova" />
		<tag k="ssr:stedsnr" v="32182" />
		<tag k="waterway" v="river" />
	</node>
	<node lat="61.41807147154021" lon="5.8860595738124735" id="-64309">
		<tag k="name" v="Reinetjørna" />
		<tag k="natural" v="water" />
		<tag k="ssr:stedsnr" v="31933" />
	</node>
	<node lat="61.42612222594216" lon="5.8457944403341475" id="-64312">
		<tag k="name" v="Turtletjørna" />
		<tag k="natural" v="water" />
		<tag k="ssr:stedsnr" v="31954" />
	</node>
	<node lat="61.438891664112084" lon="5.859269447611276" id="-64314">
		<tag k="name" v="Lamanderstjørna" />
		<tag k="natural" v="water" />
		<tag k="ssr:stedsnr" v="31959" />
	</node>
	<node lat="61.56811111085057" lon="6.4601361092099046" id="-64319">
		<tag k="name" v="Kvernhuselva" />
		<tag k="ssr:stedsnr" v="32050" />
		<tag k="waterway" v="river" />
	</node>
	<node lat="61.614308335415984" lon="6.538780551475858" id="-64334">
		<tag k="name" v="Stardalselva" />
		<tag k="ssr:stedsnr" v="32829" />
		<tag k="waterway" v="river" />
	</node>
	<node lat="61.59952500084641" lon="6.5379055558544525" id="-64335">
		<tag k="name" v="Øygrova" />
		<tag k="ssr:stedsnr" v="32831" />
		<tag k="waterway" v="stream" />
	</node>
	<node lat="61.32875555876332" lon="6.404561105168462" id="-64341">
		<tag k="name" v="Storebotnelva" />
		<tag k="ssr:stedsnr" v="34176" />
		<tag k="waterway" v="river" />
	</node>
	<node lat="61.32305277464617" lon="6.223233342824613" id="-64343">
		<tag k="name" v="Heggøyra" />
		<tag k="place" v="islet" />
		<tag k="ssr:stedsnr" v="34878" />
	</node>
	<node lat="61.39801666822107" lon="5.731300000743282" id="-64347">
		<tag k="name" v="Nykstangen" />
		<tag k="natural" v="cape" />
		<tag k="ssr:stedsnr" v="37057" />
	</node>
	<node lat="61.39973910684478" lon="5.523024041537834" id="-64366">
		<tag k="alt_name" v="Kvandalsneset" />
		<tag k="name" v="Kvanndalsneset" />
		<tag k="natural" v="cape" />
		<tag k="ssr:stedsnr" v="38034" />
	</node>
	<node lat="61.54955833149542" lon="5.666302782369725" id="-64379">
		<tag k="name" v="Litlefossen" />
		<tag k="natural" v="waterfall" />
		<tag k="ssr:stedsnr" v="43468" />
	</node>
	<node lat="61.520086111795734" lon="5.73854166806638" id="-64388">
		<tag k="name" v="Flatøyna" />
		<tag k="natural" v="cape" />
		<tag k="ssr:stedsnr" v="43888" />
	</node>
	<node lat="61.325048443863864" lon="5.651537193712818" id="-64412">
		<tag k="name" v="Storevatnet" />
		<tag k="natural" v="water" />
		<tag k="ssr:stedsnr" v="68060" />
	</node>
	<node lat="61.33145277461775" lon="5.674336104279752" id="-64413">
		<tag k="name" v="Knoltravatnet" />
		<tag k="natural" v="water" />
		<tag k="ssr:stedsnr" v="68080" />
	</node>
	<node lat="61.38575833548065" lon="5.424441659155638" id="-64421">
		<tag k="name" v="Laukelandsfossen" />
		<tag k="natural" v="waterfall" />
		<tag k="ssr:stedsnr" v="68155" />
	</node>
	<node lat="61.37627499838923" lon="5.854124991756365" id="-64425">
		<tag k="alt_name" v="Rundetjørn" />
		<tag k="name" v="Rundetjørna" />
		<tag k="natural" v="water" />
		<tag k="ssr:stedsnr" v="68451" />
	</node>
	<node lat="61.442511110430154" lon="6.3787972308196155" id="-64433">
		<tag k="name" v="Skryklingselva" />
		<tag k="ssr:stedsnr" v="68653" />
		<tag k="waterway" v="stream" />
	</node>
	<node lat="61.472679288513596" lon="5.96831259630857" id="-64456">
		<tag k="fixme" v="multiple name tags, choose one and add the other to alt_name" />
		<tag k="name" v="Liavatna;Bakkevatna" />
		<tag k="natural" v="water" />
		<tag k="ssr:stedsnr" v="69310" />
		<tag k="water" v="lake" />
	</node>
	<node lat="61.52885000053828" lon="5.729100000763021" id="-64458">
		<tag k="name" v="Skeisgrova" />
		<tag k="ssr:stedsnr" v="69448" />
		<tag k="waterway" v="stream" />
	</node>
	<node lat="61.51645555943932" lon="5.602911117594142" id="-64464">
		<tag k="name" v="Langevatnet" />
		<tag k="natural" v="water" />
		<tag k="ssr:stedsnr" v="69457" />
	</node>
	<node lat="61.52591666998837" lon="5.831244438745466" id="-64466">
		<tag k="name" v="Lonefossen" />
		<tag k="natural" v="waterfall" />
		<tag k="ssr:stedsnr" v="69470" />
	</node>
	<node lat="61.50658333039905" lon="5.3425888925298155" id="-64468">
		<tag k="name" v="Spenehaugsvatnet" />
		<tag k="natural" v="water" />
		<tag k="ssr:stedsnr" v="69666" />
	</node>
	<node lat="61.4271166627555" lon="6.4670583349159925" id="-64470">
		<tag k="name" v="Botnaelva" />
		<tag k="ssr:stedsnr" v="69672" />
		<tag k="waterway" v="stream" />
	</node>
	<node lat="61.39265832914601" lon="6.2893555566757104" id="-64473">
		<tag k="name" v="Svinebotstjønna" />
		<tag k="natural" v="water" />
		<tag k="ssr:stedsnr" v="69764" />
	</node>
	<node lat="61.3773719368064" lon="5.776990740348482" id="-64474">
		<tag k="name" v="Espelandsvatnet" />
		<tag k="natural" v="water" />
		<tag k="ssr:stedsnr" v="69919" />
	</node>
	<node lat="61.59323889027516" lon="5.96209723041721" id="-64475">
		<tag k="name" v="Teigavatnet" />
		<tag k="natural" v="water" />
		<tag k="ssr:stedsnr" v="70236" />
	</node>
	<node lat="61.50013889329737" lon="6.648027779057686" id="-64481">
		<tag k="name" v="Langevatnet" />
		<tag k="natural" v="water" />
		<tag k="ssr:stedsnr" v="70759" />
	</node>
	<node lat="61.59821389004218" lon="6.759811106133438" id="-64482">
		<tag k="name" v="Tverrdalselva" />
		<tag k="ssr:stedsnr" v="70837" />
		<tag k="waterway" v="stream" />
	</node>
	<node lat="61.57129999734747" lon="6.271805548418155" id="-64489">
		<tag k="name" v="Fossgrova" />
		<tag k="ssr:stedsnr" v="70940" />
		<tag k="waterway" v="stream" />
	</node>
	<node lat="61.574358336949764" lon="6.56897500547596" id="-64491">
		<tag k="name" v="Styggevatnet" />
		<tag k="natural" v="water" />
		<tag k="ssr:stedsnr" v="70953" />
	</node>
	<node lat="61.392774997361876" lon="5.988883327495811" id="-64497">
		<tag k="name" v="Løkene" />
		<tag k="natural" v="water" />
		<tag k="ssr:stedsnr" v="92746" />
		<tag k="water" v="lake" />
	</node>
	<node lat="61.40785278071809" lon="6.3797944459752705" id="-64507">
		<tag k="name" v="Kvernagrova" />
		<tag k="ssr:stedsnr" v="92797" />
		<tag k="waterway" v="river" />
	</node>
	<node lat="61.43549722631899" lon="6.054016675264681" id="-64517">
		<tag k="name" v="Viskedalsvika" />
		<tag k="natural" v="bay" />
		<tag k="ssr:stedsnr" v="92834" />
	</node>
	<node lat="61.48728611139103" lon="5.814813889948396" id="-64519">
		<tag k="name" v="Trollehølen" />
		<tag k="place" v="locality" />
		<tag k="ssr:stedsnr" v="92993" />
	</node>
	<node lat="61.535491668762" lon="6.518011109223146" id="-64520">
		<tag k="name" v="Bliksteinvika" />
		<tag k="natural" v="bay" />
		<tag k="ssr:stedsnr" v="93067" />
	</node>
	<node lat="61.49680277319801" lon="6.094505547928799" id="-64527">
		<tag k="name" v="Fossen" />
		<tag k="natural" v="waterfall" />
		<tag k="ssr:stedsnr" v="93157" />
	</node>
	<node lat="61.51504722294111" lon="6.660816666937928" id="-64535">
		<tag k="name" v="Tongelva" />
		<tag k="ssr:stedsnr" v="93755" />
		<tag k="waterway" v="river" />
	</node>
	<node lat="61.340738890689295" lon="5.553200007273275" id="-64538">
		<tag k="name" v="Tverrlielva" />
		<tag k="ssr:stedsnr" v="93960" />
		<tag k="waterway" v="river" />
	</node>
	<node lat="61.33199802361235" lon="6.160100572302363" id="-64540">
		<tag k="name" v="Kleivafossen" />
		<tag k="natural" v="waterfall" />
		<tag k="ssr:stedsnr" v="95688" />
	</node>
	<node lat="61.323294447149244" lon="6.208391671166614" id="-64541">
		<tag k="name" v="Gjerdeholmen" />
		<tag k="place" v="islet" />
		<tag k="ssr:stedsnr" v="96896" />
	</node>
	<node lat="61.33701111007339" lon="6.071608340385082" id="-64544">
		<tag k="name" v="Stampeelva" />
		<tag k="ssr:stedsnr" v="97655" />
		<tag k="waterway" v="stream" />
	</node>
	<node lat="61.55902500233553" lon="5.755341664107331" id="-64564">
		<tag k="name" v="Lometjørna" />
		<tag k="natural" v="water" />
		<tag k="ssr:stedsnr" v="103566" />
	</node>
	<node lat="61.55867500337812" lon="5.77210555492394" id="-64565">
		<tag k="name" v="Vellegrova" />
		<tag k="ssr:stedsnr" v="103567" />
		<tag k="waterway" v="stream" />
	</node>
	<node lat="61.55765000054059" lon="5.793544453453954" id="-64571">
		<tag k="name" v="Kleivdalselva" />
		<tag k="ssr:stedsnr" v="104537" />
		<tag k="waterway" v="stream" />
	</node>
	<node lat="61.59962499872476" lon="5.907266658720646" id="-64602">
		<tag k="alt_name" v="Savlandsvatn" />
		<tag k="name" v="Savlandsvatnet" />
		<tag k="natural" v="water" />
		<tag k="ssr:stedsnr" v="130247" />
	</node>
	<node lat="61.61156666856703" lon="6.024238887652689" id="-64603">
		<tag k="name" v="Vonavatnet" />
		<tag k="natural" v="water" />
		<tag k="ssr:stedsnr" v="130254" />
		<tag k="water" v="lake" />
	</node>
	<node lat="61.337666668844335" lon="5.818988885752653" id="-64604">
		<tag k="name" v="Grøvla" />
		<tag k="ssr:stedsnr" v="128068" />
		<tag k="waterway" v="river" />
	</node>
	<node lat="61.317386110261076" lon="5.893433337067204" id="-64609">
		<tag k="name" v="Sagelva" />
		<tag k="ssr:stedsnr" v="128532" />
		<tag k="waterway" v="stream" />
	</node>
	<node lat="61.35579999862072" lon="6.011333341779278" id="-64610">
		<tag k="name" v="Vågsdalsvatnet" />
		<tag k="natural" v="water" />
		<tag k="ssr:stedsnr" v="128440" />
	</node>
	<node lat="61.334529996404754" lon="5.869528017006176" id="-64611">
		<tag k="name" v="Nesavatnet" />
		<tag k="natural" v="water" />
		<tag k="ssr:stedsnr" v="128456" />
		<tag k="water" v="lake" />
	</node>
	<node lat="61.35740555833596" lon="6.221622225101626" id="-64615">
		<tag k="name" v="Vallestadfossen" />
		<tag k="natural" v="waterfall" />
		<tag k="ssr:stedsnr" v="128720" />
	</node>
	<node lat="61.397186110084405" lon="5.7525555639523" id="-64621">
		<tag k="alt_name" v="Svartetjørne" />
		<tag k="name" v="Svartetjørna" />
		<tag k="natural" v="water" />
		<tag k="ssr:stedsnr" v="128966" />
	</node>
	<node lat="61.34138546638193" lon="5.577024863794046" id="-64626">
		<tag k="alt_name" v="Bjørvikvatnet" />
		<tag k="name" v="Bjørvikevatnet" />
		<tag k="natural" v="water" />
		<tag k="ssr:stedsnr" v="129056" />
	</node>
	<node lat="61.339938889597704" lon="5.636919444883369" id="-64627">
		<tag k="name" v="Rånevatnet" />
		<tag k="natural" v="water" />
		<tag k="ssr:stedsnr" v="129062" />
	</node>
	<node lat="61.316777780630524" lon="5.689705548659055" id="-64631">
		<tag k="name" v="Årøyelva" />
		<tag k="ssr:stedsnr" v="129171" />
		<tag k="waterway" v="stream" />
	</node>
	<node lat="61.4298111154524" lon="6.053636103642913" id="-64633">
		<tag k="alt_name" v="Vettreiene" />
		<tag k="name" v="Vetreidene" />
		<tag k="place" v="locality" />
		<tag k="ssr:stedsnr" v="129374" />
	</node>
	<node lat="61.27850833432148" lon="5.834258336736882" id="-64641">
		<tag k="name" v="Økslandsvatnet" />
		<tag k="natural" v="water" />
		<tag k="ssr:stedsnr" v="129236" />
		<tag k="water" v="lake" />
	</node>
	<node lat="61.254305557521405" lon="5.799108342068944" id="-64644">
		<tag k="name" v="Litlebotnvatnet" />
		<tag k="natural" v="water" />
		<tag k="ssr:stedsnr" v="129254" />
	</node>
	<node lat="61.49265000075611" lon="5.942611102881261" id="-64645">
		<tag k="alt_name" v="Flora;Fora" />
		<tag k="name" v="Fura" />
		<tag k="ssr:stedsnr" v="129271" />
		<tag k="waterway" v="river" />
	</node>
	<node lat="61.53961110779624" lon="5.615930550186235" id="-64649">
		<tag k="name" v="Jonstadvatnet" />
		<tag k="natural" v="water" />
		<tag k="ssr:stedsnr" v="129468" />
	</node>
	<node lat="61.294241668571175" lon="6.095924991700886" id="-64656">
		<tag k="name" v="Steinbruvatnet" />
		<tag k="natural" v="water" />
		<tag k="ssr:stedsnr" v="129602" />
		<tag k="water" v="lake" />
	</node>
	<node lat="61.465091664317406" lon="6.404047217370238" id="-64662">
		<tag k="alt_name" v="Tjørna" />
		<tag k="name" v="Tverrgrovvatnet" />
		<tag k="natural" v="water" />
		<tag k="ssr:stedsnr" v="129660" />
	</node>
	<node lat="61.44348888844063" lon="6.237413897353046" id="-64665">
		<tag k="loc_name" v="Instevatnet" />
		<tag k="name" v="Krokavatnet" />
		<tag k="natural" v="water" />
		<tag k="ssr:stedsnr" v="129671" />
	</node>
	<node lat="61.4557055539384" lon="6.433394453413643" id="-64666">
		<tag k="name" v="Dalevatnet" />
		<tag k="natural" v="water" />
		<tag k="ssr:stedsnr" v="129674" />
	</node>
	<node lat="61.40335277419282" lon="6.263599993762677" id="-64670">
		<tag k="name" v="Haukedalsvatnet" />
		<tag k="natural" v="water" />
		<tag k="ssr:stedsnr" v="129750" />
		<tag k="water" v="lake" />
	</node>
	<node lat="61.389558329010704" lon="6.312791673251524" id="-64671">
		<tag k="name" v="Trolletjønna" />
		<tag k="natural" v="water" />
		<tag k="ssr:stedsnr" v="129756" />
	</node>
	<node lat="61.42168888815145" lon="5.816472222337326" id="-64676">
		<tag k="name" v="Timbrevika" />
		<tag k="natural" v="bay" />
		<tag k="ssr:stedsnr" v="129796" />
	</node>
	<node lat="61.377191671078855" lon="5.678538889155485" id="-64680">
		<tag k="alt_name" v="Loneelv" />
		<tag k="name" v="Lona" />
		<tag k="ssr:stedsnr" v="129917" />
		<tag k="waterway" v="stream" />
	</node>
	<node lat="61.433797223867806" lon="5.564761114335522" id="-64682">
		<tag k="name" v="Storevatnet" />
		<tag k="natural" v="water" />
		<tag k="ssr:stedsnr" v="129871" />
	</node>
	<node lat="61.38583888934589" lon="5.655888893066038" id="-64685">
		<tag k="name" v="Kvamselva" />
		<tag k="ssr:stedsnr" v="129946" />
		<tag k="waterway" v="river" />
	</node>
	<node lat="61.39383611025749" lon="5.842711117098278" id="-64687">
		<tag k="name" v="Kattatjørna" />
		<tag k="natural" v="water" />
		<tag k="ssr:stedsnr" v="129963" />
	</node>
	<node lat="61.59890000168843" lon="6.418716665253035" id="-64690">
		<tag k="name" v="Botnavatnet" />
		<tag k="natural" v="water" />
		<tag k="ssr:stedsnr" v="131022" />
	</node>
	<node lat="61.595924998367906" lon="6.314152780634827" id="-64691">
		<tag k="name" v="Nilsgrova" />
		<tag k="ssr:stedsnr" v="131026" />
		<tag k="waterway" v="stream" />
	</node>
	<node lat="61.506705552854065" lon="5.958136110098445" id="-64694">
		<tag k="name" v="Grøvla" />
		<tag k="ssr:stedsnr" v="131152" />
		<tag k="waterway" v="stream" />
	</node>
	<node lat="61.534452780260374" lon="6.493538883355671" id="-64699">
		<tag k="alt_name" v="Groaelva" />
		<tag k="name" v="Sægrova" />
		<tag k="ssr:stedsnr" v="130995" />
		<tag k="waterway" v="stream" />
	</node>
	<node lat="61.24457500169324" lon="5.775033325444953" id="-64702">
		<tag k="name" v="Karidalsvatnet" />
		<tag k="natural" v="water" />
		<tag k="ssr:stedsnr" v="130949" />
	</node>
	<node lat="61.63628611091677" lon="6.190055548611955" id="-64706">
		<tag k="alt_name" v="Svartpøylevatnet, in" />
		<tag k="name" v="Inste Svartpøylevatnet" />
		<tag k="natural" v="water" />
		<tag k="ssr:stedsnr" v="131252" />
	</node>
	<node lat="61.33290555946646" lon="6.412911115375211" id="-64708">
		<tag k="name" v="Kviteforklefossen" />
		<tag k="natural" v="waterfall" />
		<tag k="ssr:stedsnr" v="142523" />
	</node>
	<node lat="61.52485000039573" lon="6.4556499960166995" id="-64709">
		<tag k="name" v="Langevatnet" />
		<tag k="natural" v="water" />
		<tag k="ssr:stedsnr" v="141500" />
	</node>
	<node lat="61.53637222657184" lon="5.620133337595112" id="-64710">
		<tag k="name" v="Lona" />
		<tag k="natural" v="water" />
		<tag k="ssr:stedsnr" v="141668" />
	</node>
	<node lat="61.537908331051675" lon="6.24907499734249" id="-64712">
		<tag k="name" v="Hegreneselva" />
		<tag k="ssr:stedsnr" v="142597" />
		<tag k="waterway" v="river" />
	</node>
	<node lat="61.59695000393259" lon="6.513588890533369" id="-64719">
		<tag k="name" v="Grungeelva" />
		<tag k="ssr:stedsnr" v="153093" />
		<tag k="waterway" v="river" />
	</node>
	<node lat="61.46334444724564" lon="5.968969438757811" id="-64741">
		<tag k="name" v="Lonene" />
		<tag k="natural" v="water" />
		<tag k="ssr:stedsnr" v="152788" />
		<tag k="water" v="lake" />
	</node>
	<node lat="61.45019444856355" lon="6.476772221956698" id="-64745">
		<tag k="name" v="Stranda" />
		<tag k="natural" v="beach" />
		<tag k="ssr:stedsnr" v="152859" />
	</node>
	<node lat="61.40309722229771" lon="5.891991658316027" id="-64750">
		<tag k="name" v="Tverrgrova" />
		<tag k="ssr:stedsnr" v="152939" />
		<tag k="waterway" v="stream" />
	</node>
	<node lat="61.6094416672877" lon="6.649508337844905" id="-64768">
		<tag k="name" v="Åsvorgrova" />
		<tag k="ssr:stedsnr" v="153894" />
		<tag k="waterway" v="stream" />
	</node>
	<node lat="61.3900194475824" lon="5.560674999674037" id="-64776">
		<tag k="name" v="Symje" />
		<tag k="natural" v="bay" />
		<tag k="ssr:stedsnr" v="158051" />
	</node>
	<node lat="61.24626944798127" lon="5.824483342031694" id="-64779">
		<tag k="name" v="Storefjellselva" />
		<tag k="ssr:stedsnr" v="158687" />
		<tag k="waterway" v="stream" />
	</node>
	<node lat="61.59445158795901" lon="6.084844267136189" id="-64797">
		<tag k="name" v="Rundebotnselva" />
		<tag k="ssr:stedsnr" v="164653" />
		<tag k="waterway" v="river" />
	</node>
	<node lat="61.519863889701966" lon="5.731422213449058" id="-64800">
		<tag k="name" v="Husøyna" />
		<tag k="natural" v="cape" />
		<tag k="ssr:stedsnr" v="164880" />
	</node>
	<node lat="61.5606972259089" lon="5.854155546870174" id="-64802">
		<tag k="name" v="Lonene" />
		<tag k="ssr:stedsnr" v="164928" />
		<tag k="waterway" v="river" />
	</node>
	<node lat="61.56584722188307" lon="5.886300009032247" id="-64805">
		<tag k="name" v="Tjørna" />
		<tag k="natural" v="water" />
		<tag k="ssr:stedsnr" v="164957" />
	</node>
	<node lat="61.40960555311739" lon="5.864341674440172" id="-64846">
		<tag k="name" v="Langeneset" />
		<tag k="natural" v="cape" />
		<tag k="ssr:stedsnr" v="190553" />
	</node>
	<node lat="61.326224996659896" lon="5.97995834064592" id="-64854">
		<tag k="name" v="Vågsvatnet" />
		<tag k="natural" v="water" />
		<tag k="ssr:stedsnr" v="189461" />
	</node>
	<node lat="61.3128305522315" lon="5.996105561363486" id="-64856">
		<tag k="name" v="Vikaelva" />
		<tag k="ssr:stedsnr" v="189491" />
		<tag k="waterway" v="stream" />
	</node>
	<node lat="61.32020000346906" lon="6.0680111065694335" id="-64857">
		<tag k="name" v="Storeneselva" />
		<tag k="ssr:stedsnr" v="189498" />
		<tag k="waterway" v="stream" />
	</node>
	<node lat="61.318741664225996" lon="6.0266944429613245" id="-64858">
		<tag k="alt_name" v="Viksvatnet" />
		<tag k="name" v="Viksdalsvatnet" />
		<tag k="natural" v="water" />
		<tag k="ssr:stedsnr" v="189501" />
		<tag k="water" v="lake" />
	</node>
	<node lat="61.446166665824876" lon="5.623775002790077" id="-64862">
		<tag k="name" v="Langetjørna" />
		<tag k="natural" v="water" />
		<tag k="ssr:stedsnr" v="189844" />
	</node>
	<node lat="61.374924998843696" lon="5.81920832671442" id="-64866">
		<tag k="name" v="Saupdøla" />
		<tag k="ssr:stedsnr" v="189893" />
		<tag k="waterway" v="stream" />
	</node>
	<node lat="61.40146111283578" lon="5.859533334643896" id="-64869">
		<tag k="name" v="Lona" />
		<tag k="natural" v="bay" />
		<tag k="ssr:stedsnr" v="189997" />
	</node>
	<node lat="61.44710277643244" lon="6.1566055604286065" id="-64875">
		<tag k="name" v="Finneskotgrova" />
		<tag k="ssr:stedsnr" v="190336" />
		<tag k="waterway" v="stream" />
	</node>
	<node lat="61.262272220167546" lon="5.748386104350193" id="-64880">
		<tag k="name" v="Grødtjørna" />
		<tag k="natural" v="water" />
		<tag k="ssr:stedsnr" v="190232" />
	</node>
	<node lat="61.423777774632306" lon="6.119258332461133" id="-64889">
		<tag k="name" v="Sandvikodden" />
		<tag k="natural" v="cape" />
		<tag k="ssr:stedsnr" v="190396" />
	</node>
	<node lat="61.398191669556105" lon="6.0508833351295905" id="-64892">
		<tag k="name" v="Fossavatnet" />
		<tag k="natural" v="water" />
		<tag k="ssr:stedsnr" v="190434" />
	</node>
	<node lat="61.37756389175517" lon="5.90223333402758" id="-64893">
		<tag k="name" v="Kvanndalselva" />
		<tag k="ssr:stedsnr" v="190445" />
		<tag k="waterway" v="stream" />
	</node>
	<node lat="61.50627532974878" lon="5.482340482915933" id="-64895">
		<tag k="name" v="Småtjønnane" />
		<tag k="natural" v="water" />
		<tag k="ssr:stedsnr" v="190449" />
		<tag k="water" v="lake" />
	</node>
	<node lat="61.46269167003404" lon="6.495538886735198" id="-64898">
		<tag k="alt_name" v="Breelvane" />
		<tag k="name" v="Breelva" />
		<tag k="ssr:stedsnr" v="190689" />
		<tag k="waterway" v="river" />
	</node>
	<node lat="61.44624111356793" lon="6.478965234482373" id="-64903">
		<tag k="name" v="Grøningsstølsvatnet" />
		<tag k="natural" v="water" />
		<tag k="ssr:stedsnr" v="190655" />
		<tag k="water" v="lake" />
	</node>
	<node lat="61.478486108793135" lon="6.623672217409119" id="-64909">
		<tag k="name" v="Femtevatnet" />
		<tag k="natural" v="water" />
		<tag k="ssr:stedsnr" v="190851" />
		<tag k="water" v="lake" />
	</node>
	<node lat="61.61416666777662" lon="5.97244166457466" id="-64923">
		<tag k="name" v="Svartebottsvatna" />
		<tag k="natural" v="water" />
		<tag k="ssr:stedsnr" v="191241" />
		<tag k="water" v="lake" />
	</node>
	<node lat="61.502019446133474" lon="6.054063893285" id="-64925">
		<tag k="name" v="Hjelmbrekkelva" />
		<tag k="ssr:stedsnr" v="192147" />
		<tag k="waterway" v="stream" />
	</node>
	<node lat="61.555983329445866" lon="6.590311113267847" id="-64936">
		<tag k="name" v="Tverrelvebottsvatnet" />
		<tag k="natural" v="water" />
		<tag k="ssr:stedsnr" v="191970" />
	</node>
	<node lat="61.51651666475682" lon="5.720266659100377" id="-64945">
		<tag k="name" v="Naustdalsfossen" />
		<tag k="natural" v="waterfall" />
		<tag k="ssr:stedsnr" v="202733" />
	</node>
	<node lat="61.41792744781576" lon="5.854599560059118" id="-64950">
		<tag k="name" v="Mørkevika" />
		<tag k="natural" v="bay" />
		<tag k="ssr:stedsnr" v="213963" />
	</node>
	<node lat="61.41502500235363" lon="6.292599994421906" id="-64961">
		<tag k="name" v="Fossane" />
		<tag k="natural" v="waterfall" />
		<tag k="ssr:stedsnr" v="213817" />
	</node>
	<node lat="61.42818610732578" lon="5.924541660878992" id="-64965">
		<tag k="name" v="Kviegrova" />
		<tag k="ssr:stedsnr" v="213920" />
		<tag k="waterway" v="stream" />
	</node>
	<node lat="61.41378055514737" lon="6.399275002492262" id="-64974">
		<tag k="name" v="Gardafossen" />
		<tag k="natural" v="waterfall" />
		<tag k="ssr:stedsnr" v="213843" />
	</node>
	<node lat="61.44307777565455" lon="6.513936118642444" id="-64975">
		<tag k="name" v="Skålebotnselva" />
		<tag k="ssr:stedsnr" v="213849" />
		<tag k="waterway" v="river" />
	</node>
	<node lat="61.42716111216617" lon="5.949986117541205" id="-64978">
		<tag k="name" v="Korsnesodden" />
		<tag k="natural" v="cape" />
		<tag k="ssr:stedsnr" v="213856" />
	</node>
	<node lat="61.432063893214696" lon="6.04466388839703" id="-64982">
		<tag k="name" v="Stroka" />
		<tag k="ssr:stedsnr" v="213872" />
		<tag k="waterway" v="river" />
	</node>
	<node lat="61.620761111128964" lon="6.681899995902008" id="-64991">
		<tag k="name" v="Jølgrova" />
		<tag k="ssr:stedsnr" v="214846" />
		<tag k="waterway" v="stream" />
	</node>
	<node lat="61.60657499854012" lon="6.5269138855627675" id="-64994">
		<tag k="name" v="Øygrova" />
		<tag k="ssr:stedsnr" v="214856" />
		<tag k="waterway" v="stream" />
	</node>
	<node lat="61.34252500304434" lon="6.334091664622785" id="-64999">
		<tag k="name" v="Langeneset" />
		<tag k="natural" v="cape" />
		<tag k="ssr:stedsnr" v="216132" />
	</node>
	<node lat="61.29230833512952" lon="5.816088895927943" id="-65008">
		<tag k="name" v="Åbergselva" />
		<tag k="ssr:stedsnr" v="219750" />
		<tag k="waterway" v="stream" />
	</node>
	<node lat="61.60414444385245" lon="5.899997215771855" id="-65034">
		<tag k="name" v="Vindalselva" />
		<tag k="ssr:stedsnr" v="225854" />
		<tag k="waterway" v="river" />
	</node>
	<node lat="61.5605833334333" lon="5.821891667279548" id="-65048">
		<tag k="name" v="Litlelia" />
		<tag k="ssr:stedsnr" v="226953" />
		<tag k="waterway" v="stream" />
	</node>
	<node lat="61.403088892942336" lon="6.3079527830230635" id="-65055">
		<tag k="name" v="Halvrø" />
		<tag k="natural" v="beach" />
		<tag k="ssr:stedsnr" v="274760" />
	</node>
	<node lat="61.547574999682126" lon="6.096541674843441" id="-65068">
		<tag k="name" v="Djupna" />
		<tag k="natural" v="beach" />
		<tag k="ssr:stedsnr" v="274799" />
	</node>
	<node lat="61.57693889247669" lon="6.491888896131945" id="-65072">
		<tag k="name" v="Longelva" />
		<tag k="ssr:stedsnr" v="275091" />
		<tag k="waterway" v="river" />
	</node>
	<node lat="61.53602468546646" lon="6.399074945780198" id="-65084">
		<tag k="name" v="Gjøttavatnet" />
		<tag k="natural" v="water" />
		<tag k="ssr:stedsnr" v="275032" />
		<tag k="water" v="lake" />
	</node>
	<node lat="61.532299999268204" lon="6.4820527749904775" id="-65086">
		<tag k="name" v="Tungeelva" />
		<tag k="ssr:stedsnr" v="275048" />
		<tag k="waterway" v="river" />
	</node>
	<node lat="61.60879722154965" lon="6.501197221436171" id="-65090">
		<tag k="name" v="Flategrova" />
		<tag k="ssr:stedsnr" v="275067" />
		<tag k="waterway" v="stream" />
	</node>
	<node lat="61.49868354603426" lon="6.16138256367429" id="-65097">
		<tag k="name" v="Hamarsvika" />
		<tag k="natural" v="bay" />
		<tag k="ssr:stedsnr" v="275159" />
	</node>
	<node lat="61.3192388856999" lon="5.782166671106996" id="-65114">
		<tag k="name" v="Kvernafossen" />
		<tag k="natural" v="waterfall" />
		<tag k="ssr:stedsnr" v="280034" />
	</node>
	<node lat="61.33679166536894" lon="5.865455550172322" id="-65119">
		<tag k="name" v="Skudalsnes" />
		<tag k="natural" v="cape" />
		<tag k="ssr:stedsnr" v="280756" />
	</node>
	<node lat="61.57811389350186" lon="5.7282361164483975" id="-65150">
		<tag k="name" v="Ragnhildfossen" />
		<tag k="natural" v="waterfall" />
		<tag k="ssr:stedsnr" v="286760" />
	</node>
	<node lat="61.497808333567285" lon="6.10180833500687" id="-65169">
		<tag k="name" v="Årsetelva" />
		<tag k="ssr:stedsnr" v="311332" />
		<tag k="waterway" v="stream" />
	</node>
	<node lat="61.47137777586945" lon="5.988611115985994" id="-65173">
		<tag k="name" v="Storetjørna" />
		<tag k="natural" v="water" />
		<tag k="ssr:stedsnr" v="311353" />
	</node>
	<node lat="61.353788885667925" lon="5.711152775584356" id="-65177">
		<tag k="alt_name" v="Rekevikfoss" />
		<tag k="name" v="Rekevikfossen" />
		<tag k="natural" v="waterfall" />
		<tag k="ssr:stedsnr" v="311037" />
	</node>
	<node lat="61.340086114550765" lon="5.607497223693769" id="-65179">
		<tag k="name" v="Hellevatnet" />
		<tag k="natural" v="water" />
		<tag k="ssr:stedsnr" v="311054" />
	</node>
	<node lat="61.386574997397865" lon="5.977411116939186" id="-65194">
		<tag k="name" v="Annegrova" />
		<tag k="ssr:stedsnr" v="311464" />
		<tag k="waterway" v="river" />
	</node>
	<node lat="61.46077777711602" lon="6.1609750012412" id="-65196">
		<tag k="name" v="Storehaugtjørna" />
		<tag k="natural" v="water" />
		<tag k="ssr:stedsnr" v="311378" />
	</node>
	<node lat="61.47182777878099" lon="6.154594443299459" id="-65198">
		<tag k="alt_name" v="Gjesdalselva;Inste-elva" />
		<tag k="name" v="Instelva" />
		<tag k="ssr:stedsnr" v="311393" />
		<tag k="waterway" v="stream" />
	</node>
	<node lat="61.35755833122991" lon="6.134836116365656" id="-65201">
		<tag k="name" v="Storeholmen" />
		<tag k="place" v="islet" />
		<tag k="ssr:stedsnr" v="311496" />
	</node>
	<node lat="61.453169441512486" lon="6.583902778862691" id="-65202">
		<tag k="fixme" v="multiple name tags, choose one and add the other to alt_name" />
		<tag k="name" v="Hestebotsvatnet;Tredjevatnet" />
		<tag k="natural" v="water" />
		<tag k="ssr:stedsnr" v="311687" />
		<tag k="water" v="lake" />
	</node>
	<node lat="61.374286555639785" lon="5.76486755253174" id="-65214">
		<tag k="name" v="Annetjønna" />
		<tag k="natural" v="water" />
		<tag k="ssr:stedsnr" v="311900" />
	</node>
	<node lat="61.46847778055105" lon="6.226730546256124" id="-65230">
		<tag k="name" v="Gjesdalsvatnet" />
		<tag k="natural" v="water" />
		<tag k="ssr:stedsnr" v="311728" />
	</node>
	<node lat="61.478833337983914" lon="5.779747229845306" id="-65232">
		<tag k="alt_name" v="Ulltangstjørna" />
		<tag k="name" v="Ulltangetjørna" />
		<tag k="natural" v="water" />
		<tag k="ssr:stedsnr" v="311733" />
	</node>
	<node lat="61.34292221943965" lon="6.410094453486454" id="-65237">
		<tag k="name" v="Tverrlielva" />
		<tag k="ssr:stedsnr" v="311747" />
		<tag k="waterway" v="stream" />
	</node>
	<node lat="61.44325043231912" lon="5.74233332900122" id="-65247">
		<tag k="name" v="Flotevotna" />
		<tag k="natural" v="water" />
		<tag k="ssr:stedsnr" v="311844" />
		<tag k="water" v="lake" />
	</node>
	<node lat="61.442733331477434" lon="5.828399999361663" id="-65249">
		<tag k="alt_name" v="Halbrendsfossen" />
		<tag k="name" v="Hallbrendsfossen" />
		<tag k="natural" v="waterfall" />
		<tag k="ssr:stedsnr" v="311852" />
	</node>
	<node lat="61.391655556500716" lon="5.746702786765951" id="-65252">
		<tag k="alt_name" v="Stongtjørna" />
		<tag k="name" v="Stangatjørna" />
		<tag k="natural" v="water" />
		<tag k="ssr:stedsnr" v="311964" />
	</node>
	<node lat="61.588466663595725" lon="5.790408327366196" id="-65256">
		<tag k="name" v="Vardegrova" />
		<tag k="ssr:stedsnr" v="312474" />
		<tag k="waterway" v="stream" />
	</node>
	<node lat="61.59156388529048" lon="5.987488891144764" id="-65258">
		<tag k="name" v="Nykkjevatnet" />
		<tag k="natural" v="water" />
		<tag k="ssr:stedsnr" v="312237" />
	</node>
	<node lat="61.62170969934571" lon="6.2217438882071" id="-65259">
		<tag k="name" v="Inste Langevatnet" />
		<tag k="natural" v="water" />
		<tag k="ssr:stedsnr" v="312256" />
		<tag k="water" v="lake" />
	</node>
	<node lat="61.63810833183851" lon="6.745888891302186" id="-65263">
		<tag k="name" v="Tverrelva" />
		<tag k="ssr:stedsnr" v="312801" />
		<tag k="waterway" v="stream" />
	</node>
	<node lat="61.51675277559618" lon="5.915113887789499" id="-65268">
		<tag k="name" v="Høgefjellvatnet" />
		<tag k="natural" v="water" />
		<tag k="ssr:stedsnr" v="313187" />
	</node>
	<node lat="61.53160193496076" lon="5.851618450381924" id="-65269">
		<tag k="name" v="Kleppsstølsvatnet" />
		<tag k="natural" v="water" />
		<tag k="ssr:stedsnr" v="313192" />
	</node>
	<node lat="61.5400555593902" lon="6.18031388737367" id="-65271">
		<tag k="name" v="Styggtjørna" />
		<tag k="natural" v="water" />
		<tag k="ssr:stedsnr" v="313195" />
	</node>
	<node lat="61.553655556443054" lon="5.968925007715283" id="-65273">
		<tag k="name" v="Strupen" />
		<tag k="natural" v="strait" />
		<tag k="ssr:stedsnr" v="313199" />
	</node>
	<node lat="61.559061112242524" lon="6.654677769593188" id="-65280">
		<tag k="name" v="Blåvatnet" />
		<tag k="natural" v="water" />
		<tag k="ssr:stedsnr" v="313865" />
	</node>
	<node lat="61.55204166436892" lon="5.766430554934373" id="-65285">
		<tag k="name" v="Træla" />
		<tag k="ssr:stedsnr" v="323699" />
		<tag k="waterway" v="river" />
	</node>
	<node lat="61.540147220033454" lon="5.710697214716827" id="-65286">
		<tag k="name" v="Vardevatnet" />
		<tag k="natural" v="water" />
		<tag k="ssr:stedsnr" v="323700" />
	</node>
	<node lat="61.37949722381836" lon="6.078561114048558" id="-65294">
		<tag k="name" v="Blåfjellselva" />
		<tag k="ssr:stedsnr" v="334733" />
		<tag k="waterway" v="river" />
	</node>
	<node lat="61.484147221341395" lon="5.982261106454603" id="-65296">
		<tag k="name" v="Geitafossen" />
		<tag k="ssr:stedsnr" v="334741" />
		<tag k="waterway" v="stream" />
	</node>
	<node lat="61.40942499896646" lon="6.289041668227933" id="-65302">
		<tag k="name" v="Skjeret" />
		<tag k="place" v="islet" />
		<tag k="ssr:stedsnr" v="334769" />
	</node>
	<node lat="61.49767778155117" lon="5.9773444527706205" id="-65306">
		<tag k="name" v="Langestrekkja" />
		<tag k="ssr:stedsnr" v="334780" />
		<tag k="waterway" v="stream" />
	</node>
	<node lat="61.3920944451521" lon="6.157908340311215" id="-65309">
		<tag k="name" v="Mysedalstjørna" />
		<tag k="natural" v="water" />
		<tag k="ssr:stedsnr" v="334784" />
	</node>
	<node lat="61.569891669451025" lon="6.3966611062312415" id="-65322">
		<tag k="name" v="Øyagropa" />
		<tag k="ssr:stedsnr" v="335026" />
		<tag k="waterway" v="stream" />
	</node>
	<node lat="61.5393277812184" lon="6.326252786531246" id="-65324">
		<tag k="name" v="Storegrova" />
		<tag k="ssr:stedsnr" v="335033" />
		<tag k="waterway" v="stream" />
	</node>
	<node lat="61.56836666349321" lon="6.4766499950083" id="-65328">
		<tag k="name" v="Skeisbukta" />
		<tag k="natural" v="water" />
		<tag k="ssr:stedsnr" v="335058" />
		<tag k="water" v="lake" />
	</node>
	<node lat="61.461541666927744" lon="5.876083327200929" id="-65331">
		<tag k="name" v="Tverrgrova" />
		<tag k="ssr:stedsnr" v="334922" />
		<tag k="waterway" v="stream" />
	</node>
	<node lat="61.3739750006885" lon="5.9195972165202955" id="-65335">
		<tag k="name" v="Fuglegapet" />
		<tag k="natural" v="cape" />
		<tag k="ssr:stedsnr" v="334942" />
	</node>
	<node lat="61.39077500061999" lon="6.232691668929935" id="-65355">
		<tag k="name" v="Nesaelva" />
		<tag k="ssr:stedsnr" v="337350" />
		<tag k="waterway" v="stream" />
	</node>
	<node lat="61.2829694410051" lon="5.723199997258821" id="-65368">
		<tag k="name" v="Fesselvane" />
		<tag k="ssr:stedsnr" v="340876" />
		<tag k="waterway" v="stream" />
	</node>
	<node lat="61.49175277431672" lon="5.525719436515173" id="-65379">
		<tag k="name" v="Vassneset" />
		<tag k="natural" v="cape" />
		<tag k="ssr:stedsnr" v="347050" />
	</node>
	<node lat="61.54535555230183" lon="5.658455549589489" id="-65383">
		<tag k="name" v="Litletangen" />
		<tag k="natural" v="cape" />
		<tag k="ssr:stedsnr" v="346430" />
	</node>
	<node lat="61.55631388552571" lon="5.738644439917244" id="-65387">
		<tag k="name" v="Dyttinga" />
		<tag k="natural" v="cape" />
		<tag k="ssr:stedsnr" v="346727" />
	</node>
	<node lat="61.56660832949761" lon="5.763358340336175" id="-65389">
		<tag k="name" v="Grøgrova" />
		<tag k="ssr:stedsnr" v="346578" />
		<tag k="waterway" v="stream" />
	</node>
	<node lat="61.56479444658715" lon="5.770941659992115" id="-65390">
		<tag k="name" v="Dalegrova" />
		<tag k="ssr:stedsnr" v="346580" />
		<tag k="waterway" v="stream" />
	</node>
	<node lat="61.553297223125846" lon="5.758086118735984" id="-65400">
		<tag k="name" v="Lonene" />
		<tag k="natural" v="water" />
		<tag k="ssr:stedsnr" v="347945" />
		<tag k="water" v="lake" />
	</node>
	<node lat="61.55552500157664" lon="5.852122222284212" id="-65401">
		<tag k="name" v="Betnegrova" />
		<tag k="ssr:stedsnr" v="347950" />
		<tag k="waterway" v="stream" />
	</node>
	<node lat="61.29978333593111" lon="6.106436109335268" id="-65415">
		<tag k="name" v="Djupegilstjørna" />
		<tag k="natural" v="water" />
		<tag k="ssr:stedsnr" v="371601" />
	</node>
	<node lat="61.38082777746294" lon="5.883858341518403" id="-65421">
		<tag k="name" v="Svartetjørna" />
		<tag k="natural" v="water" />
		<tag k="ssr:stedsnr" v="371408" />
	</node>
	<node lat="61.35683055548414" lon="6.203819453352036" id="-65424">
		<tag k="alt_name" v="Råeimsdalselva" />
		<tag k="name" v="Råheimsdalselva" />
		<tag k="ssr:stedsnr" v="371444" />
		<tag k="waterway" v="river" />
	</node>
	<node lat="61.367077774564855" lon="6.359247226556773" id="-65425">
		<tag k="name" v="Storebotnvatna" />
		<tag k="natural" v="water" />
		<tag k="ssr:stedsnr" v="371729" />
		<tag k="water" v="lake" />
	</node>
	<node lat="61.36183055438783" lon="6.453797215266268" id="-65427">
		<tag k="name" v="Skarvedalsvatnet" />
		<tag k="natural" v="water" />
		<tag k="ssr:stedsnr" v="371737" />
		<tag k="water" v="lake" />
	</node>
	<node lat="61.3075361099243" lon="6.178900003956582" id="-65432">
		<tag k="name" v="Tverrelva" />
		<tag k="ssr:stedsnr" v="371485" />
		<tag k="waterway" v="stream" />
	</node>
	<node lat="61.41606944174817" lon="5.812433326630819" id="-65443">
		<tag k="name" v="Langelandsvatnet" />
		<tag k="natural" v="water" />
		<tag k="ssr:stedsnr" v="372784" />
		<tag k="water" v="lake" />
	</node>
	<node lat="61.46903611004757" lon="5.924925000366445" id="-65455">
		<tag k="name" v="Kvamsfossen" />
		<tag k="natural" v="waterfall" />
		<tag k="ssr:stedsnr" v="372307" />
	</node>
	<node lat="61.410574998813516" lon="5.8823333413495655" id="-65457">
		<tag k="name" v="Litlevatnet" />
		<tag k="natural" v="water" />
		<tag k="ssr:stedsnr" v="372402" />
	</node>
	<node lat="61.516008334197" lon="5.689891663640236" id="-65462">
		<tag k="name" v="Bærelva" />
		<tag k="ssr:stedsnr" v="372395" />
		<tag k="waterway" v="stream" />
	</node>
	<node lat="61.41532499809116" lon="6.495699997934772" id="-65472">
		<tag k="name" v="Breibotsvatnet" />
		<tag k="natural" v="water" />
		<tag k="ssr:stedsnr" v="372658" />
	</node>
	<node lat="61.52451388529492" lon="5.731455555447063" id="-65479">
		<tag k="name" v="Vollagrova" />
		<tag k="ssr:stedsnr" v="372441" />
		<tag k="waterway" v="stream" />
	</node>
	<node lat="61.523297223566416" lon="5.8266611060901745" id="-65480">
		<tag k="name" v="Sollifossen" />
		<tag k="natural" v="waterfall" />
		<tag k="ssr:stedsnr" v="372448" />
	</node>
	<node lat="61.41905833578903" lon="5.65810833949062" id="-65481">
		<tag k="name" v="Middagsvatnet" />
		<tag k="natural" v="water" />
		<tag k="ssr:stedsnr" v="372809" />
	</node>
	<node lat="61.42634722402026" lon="5.745958328527784" id="-65482">
		<tag k="alt_name" v="Soleimselva" />
		<tag k="name" v="Solheimselva" />
		<tag k="ssr:stedsnr" v="372811" />
		<tag k="waterway" v="river" />
	</node>
	<node lat="61.309025002937204" lon="6.315002775907606" id="-65486">
		<tag k="name" v="Blådalsvatnet" />
		<tag k="natural" v="water" />
		<tag k="ssr:stedsnr" v="372834" />
	</node>
	<node lat="61.60515000039474" lon="6.204533331357367" id="-65494">
		<tag k="name" v="Trollebottsvatnet" />
		<tag k="natural" v="water" />
		<tag k="ssr:stedsnr" v="373233" />
		<tag k="water" v="lake" />
	</node>
	<node lat="61.52619722342855" lon="5.91919999331693" id="-65495">
		<tag k="name" v="Svartevatnet" />
		<tag k="natural" v="water" />
		<tag k="ssr:stedsnr" v="373146" />
	</node>
	<node lat="61.55338611008291" lon="5.969461117418994" id="-65496">
		<tag k="name" v="Årevika" />
		<tag k="natural" v="bay" />
		<tag k="ssr:stedsnr" v="373174" />
	</node>
	<node lat="61.545113890492146" lon="5.973974999281657" id="-65499">
		<tag k="alt_name" v="Trodalsvatn" />
		<tag k="name" v="Trodalsvatnet" />
		<tag k="natural" v="water" />
		<tag k="ssr:stedsnr" v="373180" />
		<tag k="water" v="lake" />
	</node>
	<node lat="61.556749999896965" lon="6.555044437533716" id="-65515">
		<tag k="name" v="Instebotnvatnet" />
		<tag k="natural" v="water" />
		<tag k="ssr:stedsnr" v="494986" />
	</node>
	<node lat="61.53996944276056" lon="6.529399999634064" id="-65518">
		<tag k="name" v="Kjøsnesfjorden" />
		<tag k="natural" v="water" />
		<tag k="ssr:stedsnr" v="494992" />
	</node>
	<node lat="61.41764444163126" lon="6.132863898229188" id="-65537">
		<tag k="name" v="Oksen" />
		<tag k="place" v="islet" />
		<tag k="ssr:stedsnr" v="395783" />
	</node>
	<node lat="61.39733333049462" lon="5.986661105936779" id="-65550">
		<tag k="name" v="Løkene" />
		<tag k="natural" v="water" />
		<tag k="ssr:stedsnr" v="395773" />
		<tag k="water" v="lake" />
	</node>
	<node lat="61.42738611422207" lon="6.424711117782841" id="-65554">
		<tag k="name" v="Blåsvagrova" />
		<tag k="ssr:stedsnr" v="395856" />
		<tag k="waterway" v="stream" />
	</node>
	<node lat="61.531761108601735" lon="6.475297229930766" id="-65563">
		<tag k="name" v="Innlogeelva" />
		<tag k="ssr:stedsnr" v="396041" />
		<tag k="waterway" v="river" />
	</node>
	<node lat="61.60991944718865" lon="6.483916659243168" id="-65565">
		<tag k="name" v="Seljesvorgrova" />
		<tag k="ssr:stedsnr" v="396053" />
		<tag k="waterway" v="stream" />
	</node>
	<node lat="61.63975833629356" lon="6.514580558832579" id="-65572">
		<tag k="name" v="Sletteskregrova" />
		<tag k="ssr:stedsnr" v="396074" />
		<tag k="waterway" v="stream" />
	</node>
	<node lat="61.62285278210653" lon="6.016394448982192" id="-65583">
		<tag k="name" v="Steinbotnselva" />
		<tag k="ssr:stedsnr" v="396445" />
		<tag k="waterway" v="river" />
	</node>
	<node lat="61.62644722063712" lon="5.993877786697693" id="-65584">
		<tag k="name" v="Fagerdalselva" />
		<tag k="ssr:stedsnr" v="396446" />
		<tag k="waterway" v="river" />
	</node>
	<node lat="61.58653611238175" lon="6.74114443881375" id="-65586">
		<tag k="name" v="Øyane" />
		<tag k="natural" v="water" />
		<tag k="ssr:stedsnr" v="396766" />
		<tag k="water" v="lake" />
	</node>
	<node lat="61.628947224646154" lon="6.625075000962383" id="-65587">
		<tag k="name" v="Kvanngrova" />
		<tag k="ssr:stedsnr" v="396851" />
		<tag k="waterway" v="stream" />
	</node>
	<node lat="61.33947745100405" lon="6.334570920815468" id="-65594">
		<tag k="name" v="Sandvika" />
		<tag k="natural" v="bay" />
		<tag k="ssr:stedsnr" v="398177" />
	</node>
	<node lat="61.32772500378944" lon="6.19412499518948" id="-65596">
		<tag k="name" v="Eldalselva" />
		<tag k="ssr:stedsnr" v="399859" />
		<tag k="waterway" v="river" />
	</node>
	<node lat="61.36745833523744" lon="6.144602770836836" id="-65604">
		<tag k="name" v="Fossbrotet" />
		<tag k="natural" v="waterfall" />
		<tag k="ssr:stedsnr" v="401669" />
	</node>
	<node lat="61.59308333175918" lon="6.115061108706312" id="-65623">
		<tag k="name" v="Kupehølen" />
		<tag k="place" v="locality" />
		<tag k="ssr:stedsnr" v="407627" />
	</node>
	<node lat="61.560777777607036" lon="5.736472226875925" id="-65624">
		<tag k="name" v="Kroketjørna" />
		<tag k="natural" v="water" />
		<tag k="ssr:stedsnr" v="407735" />
	</node>
	<node lat="61.51967777755036" lon="5.728813895326439" id="-65628">
		<tag k="name" v="Litleøyna" />
		<tag k="place" v="islet" />
		<tag k="ssr:stedsnr" v="407880" />
	</node>
	<node lat="61.58573055296369" lon="5.798636109245835" id="-65638">
		<tag k="name" v="Kvernhusøya" />
		<tag k="place" v="island" />
		<tag k="ssr:stedsnr" v="408642" />
	</node>
	<node lat="61.25571110901062" lon="5.830269443730592" id="-65650">
		<tag k="alt_name" v="Drægebøvatn" />
		<tag k="name" v="Dregebøvatnet" />
		<tag k="natural" v="water" />
		<tag k="ssr:stedsnr" v="432197" />
	</node>
</osm>
