<?xml version="1.0" encoding="UTF-8"?>
<osm version="0.6" generator="osmapis">
	<node lat="61.40746110983124" lon="6.188475008473766" id="-60906">
		<tag k="name" v="Heimestølen" />
		<tag k="place" v="farm" />
		<tag k="ssr:stedsnr" v="7402" />
	</node>
	<node lat="61.40530833450137" lon="6.175513890386824" id="-60908">
		<tag k="name" v="Nyestølen" />
		<tag k="place" v="farm" />
		<tag k="ssr:stedsnr" v="7405" />
	</node>
	<node lat="61.454068039959104" lon="6.021333179206838" id="-60911">
		<tag k="alt_name" v="Grimsbø" />
		<tag k="fixme" v="consider place=hamlet" />
		<tag k="name" v="Grimsbøen" />
		<tag k="place" v="farm" />
		<tag k="ssr:stedsnr" v="7318" />
	</node>
	<node lat="61.45193333274136" lon="5.887333342433033" id="-60912">
		<tag k="name" v="Øyane" />
		<tag k="place" v="farm" />
		<tag k="ssr:stedsnr" v="7327" />
	</node>
	<node lat="61.35123958831907" lon="6.110365133994258" id="-60917">
		<tag k="alt_name" v="Viken" />
		<tag k="fixme" v="consider place=hamlet" />
		<tag k="name" v="Vika" />
		<tag k="place" v="farm" />
		<tag k="ssr:stedsnr" v="7459" />
	</node>
	<node lat="61.45683068570356" lon="5.609186165007194" id="-60918">
		<tag k="alt_name" v="Friborg" />
		<tag k="fixme" v="consider place=hamlet" />
		<tag k="name" v="Friborga" />
		<tag k="place" v="farm" />
		<tag k="ssr:stedsnr" v="7607" />
	</node>
	<node lat="61.45363813936308" lon="5.626541866182591" id="-60919">
		<tag k="alt_name" v="Ervik" />
		<tag k="fixme" v="consider place=hamlet" />
		<tag k="name" v="Ervika" />
		<tag k="place" v="farm" />
		<tag k="ssr:stedsnr" v="7610" />
	</node>
	<node lat="61.334233330932896" lon="6.031808342894084" id="-60923">
		<tag k="historic" v="shieling" />
		<tag k="name" v="Roskestølen" />
		<tag k="place" v="isolated_dwelling" />
		<tag k="ssr:stedsnr" v="7547" />
	</node>
	<node lat="61.45216944578536" lon="5.857175004985152" id="-60925">
		<tag k="name" v="Førde" />
		<tag k="place" v="town" />
		<tag k="ssr:stedsnr" v="7844" />
	</node>
	<node lat="61.49034531202433" lon="5.380115869868735" id="-60927">
		<tag k="fixme" v="consider place=hamlet" />
		<tag k="name" v="Årset" />
		<tag k="place" v="farm" />
		<tag k="ssr:stedsnr" v="8003" />
	</node>
	<node lat="61.48968955736125" lon="5.440847361667466" id="-60931">
		<tag k="alt_name" v="Engebø" />
		<tag k="fixme" v="consider place=hamlet" />
		<tag k="name" v="Engjabøen" />
		<tag k="place" v="farm" />
		<tag k="ssr:stedsnr" v="8016" />
	</node>
	<node lat="61.381345200354474" lon="5.483545048053156" id="-60932">
		<tag k="fixme" v="consider place=hamlet" />
		<tag k="name" v="Standnes" />
		<tag k="place" v="farm" />
		<tag k="ssr:stedsnr" v="7996" />
	</node>
	<node lat="61.25123889167594" lon="5.80660277640997" id="-60938">
		<tag k="historic" v="shieling" />
		<tag k="name" v="Dregebøstølen" />
		<tag k="place" v="isolated_dwelling" />
		<tag k="ssr:stedsnr" v="8263" />
	</node>
	<node lat="61.47906111381033" lon="5.954427773211151" id="-60940">
		<tag k="alt_name" v="Instebø" />
		<tag k="name" v="Instebøen" />
		<tag k="place" v="farm" />
		<tag k="ssr:stedsnr" v="8300" />
	</node>
	<node lat="61.42690602354272" lon="5.981423798655547" id="-60941">
		<tag k="alt_name" v="Ytre Åsen" />
		<tag k="name" v="Ytråsane" />
		<tag k="place" v="locality" />
		<tag k="ssr:stedsnr" v="8402" />
	</node>
	<node lat="61.42712907583802" lon="5.997098611511296" id="-60942">
		<tag k="alt_name" v="Indre Åsen" />
		<tag k="name" v="Indråsane" />
		<tag k="place" v="farm" />
		<tag k="ssr:stedsnr" v="8403" />
	</node>
	<node lat="61.424810033632085" lon="6.020210207422124" id="-60943">
		<tag k="name" v="Åsen" />
		<tag k="place" v="farm" />
		<tag k="ssr:stedsnr" v="8406" />
	</node>
	<node lat="61.50045419814833" lon="5.6825181601406936" id="-60945">
		<tag k="fixme" v="consider place=hamlet" />
		<tag k="name" v="Sæla" />
		<tag k="place" v="farm" />
		<tag k="ssr:stedsnr" v="8411" />
	</node>
	<node lat="61.41641111235715" lon="6.276477775388272" id="-60947">
		<tag k="alt_name" v="Hårklaustølen, in" />
		<tag k="name" v="Hårklaustølen" />
		<tag k="place" v="locality" />
		<tag k="ssr:stedsnr" v="8641" />
	</node>
	<node lat="61.501294447589565" lon="5.291641660046555" id="-60948">
		<tag k="alt_name" v="Skår" />
		<tag k="name" v="Skorene" />
		<tag k="place" v="farm" />
		<tag k="ssr:stedsnr" v="8642" />
	</node>
	<node lat="61.506416665749285" lon="5.370649993605463" id="-60951">
		<tag k="historic" v="shieling" />
		<tag k="name" v="Gamlestølen" />
		<tag k="place" v="isolated_dwelling" />
		<tag k="ssr:stedsnr" v="8655" />
	</node>
	<node lat="61.37333803645879" lon="5.700168549349665" id="-60965">
		<tag k="alt_name" v="Fauske, s" />
		<tag k="fixme" v="consider place=hamlet" />
		<tag k="name" v="Søre Fauske" />
		<tag k="place" v="farm" />
		<tag k="ssr:stedsnr" v="8912" />
	</node>
	<node lat="61.598494444934815" lon="5.861983335026328" id="-60970">
		<tag k="historic" v="shieling" />
		<tag k="name" v="Kleivastølane" />
		<tag k="place" v="isolated_dwelling" />
		<tag k="ssr:stedsnr" v="9231" />
	</node>
	<node lat="61.60227523251778" lon="6.745957286542964" id="-60972">
		<tag k="fixme" v="consider place=hamlet" />
		<tag k="name" v="Fonn" />
		<tag k="place" v="farm" />
		<tag k="ssr:stedsnr" v="9820" />
	</node>
	<node lat="61.59290935936643" lon="6.504268350658772" id="-60975">
		<tag k="fixme" v="consider place=hamlet" />
		<tag k="name" v="Håheim" />
		<tag k="place" v="farm" />
		<tag k="ssr:stedsnr" v="10016" />
	</node>
	<node lat="61.57360912251805" lon="6.477432140203053" id="-60976">
		<tag k="fixme" v="consider place=hamlet" />
		<tag k="name" v="Fygla" />
		<tag k="place" v="farm" />
		<tag k="ssr:stedsnr" v="9939" />
	</node>
	<node lat="61.472391670877585" lon="5.875702780975334" id="-61017">
		<tag k="historic" v="shieling" />
		<tag k="name" v="Flatestølen" />
		<tag k="place" v="isolated_dwelling" />
		<tag k="ssr:stedsnr" v="31983" />
	</node>
	<node lat="61.37129999589725" lon="6.260480549640775" id="-61043">
		<tag k="name" v="Vonheim" />
		<tag k="place" v="farm" />
		<tag k="ssr:stedsnr" v="33562" />
	</node>
	<node lat="61.57100555862088" lon="5.948211105166493" id="-61073">
		<tag k="historic" v="shieling" />
		<tag k="name" v="Skaflestadstøl" />
		<tag k="place" v="isolated_dwelling" />
		<tag k="ssr:stedsnr" v="44489" />
	</node>
	<node lat="61.49608889051419" lon="5.796311117782338" id="-61077">
		<tag k="name" v="Skogen" />
		<tag k="place" v="farm" />
		<tag k="ssr:stedsnr" v="53702" />
	</node>
	<node lat="61.26382499683384" lon="5.8355916676986475" id="-61078">
		<tag k="name" v="Øksland" />
		<tag k="place" v="farm" />
		<tag k="ssr:stedsnr" v="241898" />
	</node>
	<node lat="61.44201890024535" lon="5.9553686971864375" id="-61087">
		<tag k="fixme" v="consider place=hamlet" />
		<tag k="name" v="Solheim" />
		<tag k="place" v="farm" />
		<tag k="ssr:stedsnr" v="68354" />
	</node>
	<node lat="61.31482777707418" lon="6.06188056043821" id="-61094">
		<tag k="historic" v="shieling" />
		<tag k="name" v="Tormodsetstølen" />
		<tag k="place" v="isolated_dwelling" />
		<tag k="ssr:stedsnr" v="68533" />
	</node>
	<node lat="61.46793055659605" lon="5.966161107512114" id="-61097">
		<tag k="alt_name" v="Bakkestølen" />
		<tag k="historic" v="shieling" />
		<tag k="name" v="Kvamsbakkestølen" />
		<tag k="place" v="isolated_dwelling" />
		<tag k="ssr:stedsnr" v="68300" />
	</node>
	<node lat="61.416755559785464" lon="6.083924993102684" id="-61098">
		<tag k="name" v="Stranda" />
		<tag k="place" v="farm" />
		<tag k="ssr:stedsnr" v="68413" />
	</node>
	<node lat="61.26482777922634" lon="5.861349992519593" id="-61103">
		<tag k="historic" v="shieling" />
		<tag k="name" v="Økslandsstølen" />
		<tag k="place" v="isolated_dwelling" />
		<tag k="ssr:stedsnr" v="68588" />
	</node>
	<node lat="61.47286388695248" lon="5.755452774397104" id="-61104">
		<tag k="historic" v="shieling" />
		<tag k="name" v="Furevikstølen" />
		<tag k="place" v="isolated_dwelling" />
		<tag k="ssr:stedsnr" v="68705" />
	</node>
	<node lat="61.492894448939246" lon="6.308333338550777" id="-61105">
		<tag k="alt_name" v="Bjørndalsstøylane" />
		<tag k="historic" v="shieling" />
		<tag k="name" v="Bjørndalsstøylen" />
		<tag k="place" v="isolated_dwelling" />
		<tag k="ssr:stedsnr" v="68706" />
	</node>
	<node lat="61.38638888770569" lon="5.8110944365885935" id="-61106">
		<tag k="name" v="Solvang" />
		<tag k="place" v="farm" />
		<tag k="ssr:stedsnr" v="68925" />
	</node>
	<node lat="61.49049166498018" lon="6.244613897564659" id="-61108">
		<tag k="alt_name" v="Nansnipestøylen" />
		<tag k="historic" v="shieling" />
		<tag k="name" v="Nonsnipestøylen" />
		<tag k="place" v="isolated_dwelling" />
		<tag k="ssr:stedsnr" v="68687" />
	</node>
	<node lat="61.437861107368136" lon="5.664163896514287" id="-61111">
		<tag k="name" v="Fredheim" />
		<tag k="place" v="farm" />
		<tag k="ssr:stedsnr" v="68812" />
	</node>
	<node lat="61.48215832947872" lon="6.045324996382065" id="-61121">
		<tag k="name" v="Støvringsstøylen" />
		<tag k="place" v="farm" />
		<tag k="ssr:stedsnr" v="69290" />
	</node>
	<node lat="61.50100833257326" lon="5.4967555626417" id="-61122">
		<tag k="historic" v="shieling" />
		<tag k="name" v="Nordvikstølen" />
		<tag k="place" v="isolated_dwelling" />
		<tag k="ssr:stedsnr" v="69401" />
	</node>
	<node lat="61.555800060449755" lon="5.795926570198091" id="-61124">
		<tag k="alt_name" v="Rognebakke" />
		<tag k="fixme" v="consider place=hamlet" />
		<tag k="name" v="Rognebakken" />
		<tag k="place" v="farm" />
		<tag k="ssr:stedsnr" v="69488" />
	</node>
	<node lat="61.59029444611467" lon="5.79749723015097" id="-61130">
		<tag k="historic" v="shieling" />
		<tag k="name" v="Fitjestølane" />
		<tag k="place" v="isolated_dwelling" />
		<tag k="ssr:stedsnr" v="69510" />
	</node>
	<node lat="61.486664467626646" lon="5.500894418463113" id="-61134">
		<tag k="alt_name" v="Underlid;Underli" />
		<tag k="fixme" v="consider place=hamlet" />
		<tag k="name" v="Under Li" />
		<tag k="place" v="farm" />
		<tag k="ssr:stedsnr" v="69548" />
	</node>
	<node lat="61.37589444235538" lon="5.753830553234477" id="-61139">
		<tag k="name" v="Bjørkehagen" />
		<tag k="place" v="locality" />
		<tag k="ssr:stedsnr" v="69917" />
	</node>
	<node lat="61.55748333705698" lon="6.073155552659421" id="-61141">
		<tag k="historic" v="shieling" />
		<tag k="name" v="Brekkestølen" />
		<tag k="place" v="isolated_dwelling" />
		<tag k="ssr:stedsnr" v="70179" />
	</node>
	<node lat="61.551608331870064" lon="6.228252772552855" id="-61154">
		<tag k="historic" v="shieling" />
		<tag k="name" v="Nedrebøstøylen" />
		<tag k="place" v="isolated_dwelling" />
		<tag k="ssr:stedsnr" v="70977" />
	</node>
	<node lat="61.436886114207404" lon="5.664980558228444" id="-61239">
		<tag k="name" v="Teigane" />
		<tag k="place" v="farm" />
		<tag k="ssr:stedsnr" v="250797" />
	</node>
	<node lat="61.36351497444131" lon="5.780739542956036" id="-61244">
		<tag k="fixme" v="consider place=hamlet" />
		<tag k="name" v="Lunde" />
		<tag k="place" v="farm" />
		<tag k="ssr:stedsnr" v="250018" />
	</node>
	<node lat="61.361778458752234" lon="5.756728383266866" id="-61245">
		<tag k="alt_name" v="Noss" />
		<tag k="fixme" v="consider place=hamlet" />
		<tag k="name" v="Nos" />
		<tag k="place" v="farm" />
		<tag k="ssr:stedsnr" v="250019" />
	</node>
	<node lat="61.49393611497209" lon="5.319966656819615" id="-61246">
		<tag k="fixme" v="consider place=hamlet" />
		<tag k="name" v="Seter" />
		<tag k="place" v="farm" />
		<tag k="ssr:stedsnr" v="250026" />
	</node>
	<node lat="61.338080554914036" lon="5.722958336111526" id="-61248">
		<tag k="alt_name" v="Sygna;Sygna, øvre" />
		<tag k="name" v="Øvre Sygna" />
		<tag k="place" v="farm" />
		<tag k="ssr:stedsnr" v="250038" />
	</node>
	<node lat="61.32958888655766" lon="5.7476305625275685" id="-61251">
		<tag k="alt_name" v="Døskelandlia" />
		<tag k="name" v="Dysjelandslia" />
		<tag k="place" v="farm" />
		<tag k="ssr:stedsnr" v="250081" />
	</node>
	<node lat="61.32970277980867" lon="5.8141888930149905" id="-61253">
		<tag k="name" v="Lidal" />
		<tag k="place" v="farm" />
		<tag k="ssr:stedsnr" v="250116" />
	</node>
	<node lat="61.38077779398892" lon="5.462853798926889" id="-61254">
		<tag k="fixme" v="consider place=hamlet" />
		<tag k="name" v="Laukeland" />
		<tag k="place" v="farm" />
		<tag k="ssr:stedsnr" v="250130" />
	</node>
	<node lat="61.26379134952408" lon="5.836544903830737" id="-61259">
		<tag k="fixme" v="consider place=hamlet" />
		<tag k="name" v="Øksland" />
		<tag k="place" v="farm" />
		<tag k="ssr:stedsnr" v="250233" />
	</node>
	<node lat="61.46803140000688" lon="6.027033243958471" id="-61260">
		<tag k="alt_name" v="Eikås, yt" />
		<tag k="fixme" v="consider place=hamlet" />
		<tag k="name" v="Ytre Eikås" />
		<tag k="place" v="farm" />
		<tag k="ssr:stedsnr" v="250296" />
	</node>
	<node lat="61.492172040750724" lon="6.062642610444265" id="-61261">
		<tag k="fixme" v="consider place=hamlet" />
		<tag k="name" v="Flugekvam" />
		<tag k="place" v="farm" />
		<tag k="ssr:stedsnr" v="250265" />
	</node>
	<node lat="61.496211111010616" lon="5.932786107223526" id="-61262">
		<tag k="historic" v="shieling" />
		<tag k="name" v="Ramstadstølen" />
		<tag k="place" v="isolated_dwelling" />
		<tag k="ssr:stedsnr" v="250269" />
	</node>
	<node lat="61.49490698531398" lon="5.971047522746413" id="-61263">
		<tag k="alt_name" v="Tjønneland" />
		<tag k="fixme" v="consider place=hamlet" />
		<tag k="name" v="Tjørnaland" />
		<tag k="place" v="farm" />
		<tag k="ssr:stedsnr" v="250270" />
	</node>
	<node lat="61.4790388899127" lon="5.905899997889608" id="-61264">
		<tag k="historic" v="shieling" />
		<tag k="name" v="Hjellestølen" />
		<tag k="place" v="isolated_dwelling" />
		<tag k="ssr:stedsnr" v="250276" />
	</node>
	<node lat="61.47693055875111" lon="5.905324997780876" id="-61265">
		<tag k="historic" v="shieling" />
		<tag k="name" v="Slåttestølen" />
		<tag k="place" v="isolated_dwelling" />
		<tag k="ssr:stedsnr" v="250277" />
	</node>
	<node lat="61.415469444931375" lon="6.1679527840290955" id="-61269">
		<tag k="alt_name" v="Alberget" />
		<tag k="name" v="Almberget" />
		<tag k="place" v="locality" />
		<tag k="ssr:stedsnr" v="250390" />
	</node>
	<node lat="61.39178967426319" lon="5.99779371700518" id="-61277">
		<tag k="alt_name" v="Ytreåsstølen" />
		<tag k="historic" v="shieling" />
		<tag k="name" v="Ytråsstølen" />
		<tag k="place" v="isolated_dwelling" />
		<tag k="ssr:stedsnr" v="250409" />
	</node>
	<node lat="61.340235230933665" lon="5.9139768194719435" id="-61285">
		<tag k="fixme" v="consider place=hamlet" />
		<tag k="name" v="Kjelstad" />
		<tag k="place" v="farm" />
		<tag k="ssr:stedsnr" v="250475" />
	</node>
	<node lat="61.33951388963" lon="6.054461116653577" id="-61287">
		<tag k="alt_name" v="Kvamstølen" />
		<tag k="historic" v="shieling" />
		<tag k="name" v="Kvamsstølen" />
		<tag k="place" v="isolated_dwelling" />
		<tag k="ssr:stedsnr" v="250486" />
	</node>
	<node lat="61.340234003148325" lon="6.194977151867533" id="-61289">
		<tag k="fixme" v="multiple name tags, choose one and add the other to alt_name; consider place=hamlet" />
		<tag k="name" v="Tjønneland;Knutsstølen;Stølen" />
		<tag k="place" v="farm" />
		<tag k="ssr:stedsnr" v="250489" />
	</node>
	<node lat="61.31363333758239" lon="5.9500166619149955" id="-61292">
		<tag k="alt_name" v="Strandsstølen;Strondstølen, øvre" />
		<tag k="historic" v="shieling" />
		<tag k="name" v="Øvre Strondstølen" />
		<tag k="place" v="isolated_dwelling" />
		<tag k="ssr:stedsnr" v="250515" />
	</node>
	<node lat="61.40187222286809" lon="6.2259722154438535" id="-61301">
		<tag k="name" v="Rørvik Fjellstove" />
		<tag k="ssr:stedsnr" v="250633" />
		<tag k="tourism" v="guest_house" />
	</node>
	<node lat="61.45843610696969" lon="5.53528612037975" id="-61303">
		<tag k="name" v="Nåtun" />
		<tag k="place" v="farm" />
		<tag k="ssr:stedsnr" v="250638" />
	</node>
	<node lat="61.491462944905706" lon="5.842049970552414" id="-61305">
		<tag k="fixme" v="consider place=hamlet" />
		<tag k="name" v="Fossen" />
		<tag k="place" v="farm" />
		<tag k="ssr:stedsnr" v="250704" />
	</node>
	<node lat="61.477712529273006" lon="5.7891207190333285" id="-61310">
		<tag k="alt_name" v="Ulltang" />
		<tag k="fixme" v="consider place=hamlet" />
		<tag k="name" v="Ulltangen" />
		<tag k="place" v="farm" />
		<tag k="ssr:stedsnr" v="250665" />
	</node>
	<node lat="61.477786108574215" lon="5.743611111064584" id="-61316">
		<tag k="alt_name" v="Haugastøl" />
		<tag k="historic" v="shieling" />
		<tag k="name" v="Haugastølen" />
		<tag k="place" v="isolated_dwelling" />
		<tag k="ssr:stedsnr" v="250687" />
	</node>
	<node lat="61.49293888990674" lon="5.592808338471908" id="-61317">
		<tag k="historic" v="shieling" />
		<tag k="name" v="Buanesstølen" />
		<tag k="place" v="isolated_dwelling" />
		<tag k="ssr:stedsnr" v="250741" />
	</node>
	<node lat="61.34568435896881" lon="6.317287927888602" id="-61318">
		<tag k="fixme" v="consider place=hamlet" />
		<tag k="name" v="Mjell" />
		<tag k="place" v="farm" />
		<tag k="ssr:stedsnr" v="250714" />
	</node>
	<node lat="61.497355557409655" lon="5.822836112875993" id="-61322">
		<tag k="alt_name" v="Kvienesstølen" />
		<tag k="historic" v="shieling" />
		<tag k="name" v="Kvinesstølen" />
		<tag k="place" v="isolated_dwelling" />
		<tag k="ssr:stedsnr" v="250727" />
	</node>
	<node lat="61.39087722557685" lon="6.269699430057451" id="-61326">
		<tag k="alt_name" v="Skjepnaneset" />
		<tag k="name" v="Nesheim" />
		<tag k="place" v="farm" />
		<tag k="ssr:stedsnr" v="250734" />
	</node>
	<node lat="61.37799558925229" lon="6.274147942886642" id="-61327">
		<tag k="historic" v="shieling" />
		<tag k="name" v="Årnesstølen" />
		<tag k="place" v="isolated_dwelling" />
		<tag k="ssr:stedsnr" v="250738" />
	</node>
	<node lat="61.322199182996606" lon="6.253886393904985" id="-61335">
		<tag k="alt_name" v="Hoff" />
		<tag k="fixme" v="consider place=hamlet" />
		<tag k="name" v="Hov" />
		<tag k="place" v="farm" />
		<tag k="ssr:stedsnr" v="250776" />
	</node>
	<node lat="61.430934188405764" lon="5.706255373888885" id="-61337">
		<tag k="alt_name" v="Solheimslid;Soleimslia" />
		<tag k="fixme" v="consider place=hamlet" />
		<tag k="name" v="Solheimslia" />
		<tag k="place" v="farm" />
		<tag k="ssr:stedsnr" v="250812" />
	</node>
	<node lat="61.367994445103776" lon="5.676855560535673" id="-61342">
		<tag k="name" v="Vollen" />
		<tag k="place" v="farm" />
		<tag k="ssr:stedsnr" v="250877" />
	</node>
	<node lat="61.38488055402262" lon="5.777230550748154" id="-61348">
		<tag k="name" v="Rindane" />
		<tag k="place" v="locality" />
		<tag k="ssr:stedsnr" v="250930" />
	</node>
	<node lat="61.31905833447782" lon="5.681933324694226" id="-61357">
		<tag k="historic" v="shieling" />
		<tag k="name" v="Gamlestølen" />
		<tag k="place" v="isolated_dwelling" />
		<tag k="ssr:stedsnr" v="251162" />
	</node>
	<node lat="61.31805746626802" lon="5.722329175375057" id="-61358">
		<tag k="alt_name" v="Høgelid" />
		<tag k="fixme" v="consider place=hamlet" />
		<tag k="name" v="Høgelia" />
		<tag k="place" v="farm" />
		<tag k="ssr:stedsnr" v="251163" />
	</node>
	<node lat="61.47049855513972" lon="5.93437125453919" id="-61362">
		<tag k="fixme" v="consider place=hamlet" />
		<tag k="name" v="Kvamme" />
		<tag k="place" v="farm" />
		<tag k="ssr:stedsnr" v="251311" />
	</node>
	<node lat="61.47476389224375" lon="5.904375003355419" id="-61364">
		<tag k="historic" v="shieling" />
		<tag k="name" v="Furekamben" />
		<tag k="place" v="isolated_dwelling" />
		<tag k="ssr:stedsnr" v="251314" />
	</node>
	<node lat="61.519643358393886" lon="5.82151508083742" id="-61367">
		<tag k="fixme" v="consider place=hamlet" />
		<tag k="name" v="Øydbost" />
		<tag k="place" v="farm" />
		<tag k="ssr:stedsnr" v="251403" />
	</node>
	<node lat="61.5274972207386" lon="5.719888884128275" id="-61371">
		<tag k="name" v="Gamlestølen" />
		<tag k="place" v="locality" />
		<tag k="ssr:stedsnr" v="251437" />
	</node>
	<node lat="61.38192499813219" lon="6.140113897043712" id="-61375">
		<tag k="alt_name" v="Vikastølane" />
		<tag k="historic" v="shieling" />
		<tag k="name" v="Vikastølen" />
		<tag k="place" v="isolated_dwelling" />
		<tag k="ssr:stedsnr" v="251458" />
	</node>
	<node lat="61.543374997457235" lon="5.675736106379865" id="-61376">
		<tag k="historic" v="shieling" />
		<tag k="name" v="Reiakvamsstølen" />
		<tag k="place" v="isolated_dwelling" />
		<tag k="ssr:stedsnr" v="251475" />
	</node>
	<node lat="61.50286388965973" lon="5.302419440123669" id="-61379">
		<tag k="name" v="Sæterkvia" />
		<tag k="place" v="locality" />
		<tag k="ssr:stedsnr" v="251654" />
	</node>
	<node lat="61.38186983134634" lon="5.781127313609417" id="-61386">
		<tag k="fixme" v="consider place=hamlet" />
		<tag k="name" v="Espeland" />
		<tag k="place" v="farm" />
		<tag k="ssr:stedsnr" v="251939" />
	</node>
	<node lat="61.54941666486675" lon="6.06817222330991" id="-61390">
		<tag k="historic" v="shieling" />
		<tag k="name" v="Øyastølen" />
		<tag k="place" v="isolated_dwelling" />
		<tag k="ssr:stedsnr" v="252139" />
	</node>
	<node lat="61.51354194511836" lon="5.9910254462509265" id="-61393">
		<tag k="fixme" v="consider place=hamlet" />
		<tag k="name" v="Kvål" />
		<tag k="place" v="farm" />
		<tag k="ssr:stedsnr" v="252120" />
	</node>
	<node lat="61.55923333660262" lon="5.853483335275379" id="-61395">
		<tag k="historic" v="shieling" />
		<tag k="name" v="Øvre Kallands-stølen" />
		<tag k="place" v="isolated_dwelling" />
		<tag k="ssr:stedsnr" v="252185" />
	</node>
	<node lat="61.57916916369601" lon="5.924338622172183" id="-61398">
		<tag k="fixme" v="consider place=hamlet" />
		<tag k="name" v="Slettemark" />
		<tag k="place" v="farm" />
		<tag k="ssr:stedsnr" v="252198" />
	</node>
	<node lat="61.568700002740265" lon="5.970941673189841" id="-61403">
		<tag k="historic" v="shieling" />
		<tag k="name" v="Bruflotstølen" />
		<tag k="place" v="isolated_dwelling" />
		<tag k="ssr:stedsnr" v="252181" />
	</node>
	<node lat="61.599475002204144" lon="6.149847228709499" id="-61407">
		<tag k="historic" v="shieling" />
		<tag k="name" v="Gotdalsstølen" />
		<tag k="place" v="isolated_dwelling" />
		<tag k="ssr:stedsnr" v="252220" />
	</node>
	<node lat="61.58201645831189" lon="5.844741506027562" id="-61408">
		<tag k="alt_name" v="Kleiva" />
		<tag k="fixme" v="consider place=hamlet" />
		<tag k="name" v="Kleivane" />
		<tag k="place" v="farm" />
		<tag k="ssr:stedsnr" v="252221" />
	</node>
	<node lat="61.469674997023276" lon="6.178175007796651" id="-61412">
		<tag k="fixme" v="multiple name tags, choose one and add the other to alt_name" />
		<tag k="historic" v="shieling" />
		<tag k="name" v="Fremstestøylane;Gjesdalsstøylen" />
		<tag k="place" v="isolated_dwelling" />
		<tag k="ssr:stedsnr" v="128298" />
	</node>
	<node lat="61.33059269241494" lon="6.05630713127174" id="-61414">
		<tag k="fixme" v="consider place=hamlet" />
		<tag k="name" v="Roska" />
		<tag k="place" v="farm" />
		<tag k="ssr:stedsnr" v="128545" />
	</node>
	<node lat="61.4813424539949" lon="5.626448544032974" id="-61421">
		<tag k="fixme" v="consider place=hamlet" />
		<tag k="name" v="Frammarsvika" />
		<tag k="place" v="farm" />
		<tag k="ssr:stedsnr" v="128699" />
	</node>
	<node lat="61.343194446390704" lon="5.565963895893766" id="-61427">
		<tag k="alt_name" v="Bjørvikstølen" />
		<tag k="historic" v="shieling" />
		<tag k="name" v="Bjørvikestølen" />
		<tag k="place" v="isolated_dwelling" />
		<tag k="ssr:stedsnr" v="129002" />
	</node>
	<node lat="61.485449998974744" lon="5.872447213090872" id="-61431">
		<tag k="historic" v="shieling" />
		<tag k="name" v="Tuftene" />
		<tag k="place" v="isolated_dwelling" />
		<tag k="ssr:stedsnr" v="129279" />
	</node>
	<node lat="61.48582500069037" lon="6.128586111583431" id="-61432">
		<tag k="name" v="Nedsttunet" />
		<tag k="place" v="farm" />
		<tag k="ssr:stedsnr" v="129299" />
	</node>
	<node lat="61.51057222506484" lon="5.542830555823221" id="-61434">
		<tag k="historic" v="shieling" />
		<tag k="name" v="Viddalsstølen" />
		<tag k="place" v="isolated_dwelling" />
		<tag k="ssr:stedsnr" v="129430" />
	</node>
	<node lat="61.56307382830951" lon="5.8112111567964355" id="-61437">
		<tag k="fixme" v="consider place=hamlet" />
		<tag k="name" v="Øvre Kalland" />
		<tag k="place" v="farm" />
		<tag k="ssr:stedsnr" v="129454" />
	</node>
	<node lat="61.54906666612228" lon="5.666369436212372" id="-61438">
		<tag k="historic" v="shieling" />
		<tag k="name" v="Horstadstølen" />
		<tag k="place" v="isolated_dwelling" />
		<tag k="ssr:stedsnr" v="129458" />
	</node>
	<node lat="61.54796439890619" lon="5.789988143836335" id="-61439">
		<tag k="fixme" v="consider place=hamlet" />
		<tag k="name" v="Indrekvam" />
		<tag k="place" v="farm" />
		<tag k="ssr:stedsnr" v="129461" />
	</node>
	<node lat="61.46085555777119" lon="6.136375002584079" id="-61441">
		<tag k="historic" v="shieling" />
		<tag k="name" v="Bakkestøylen" />
		<tag k="place" v="isolated_dwelling" />
		<tag k="ssr:stedsnr" v="129320" />
	</node>
	<node lat="61.435180381139574" lon="5.955996085786168" id="-61442">
		<tag k="alt_name" v="Kusslid" />
		<tag k="fixme" v="consider place=hamlet" />
		<tag k="name" v="Kusslia" />
		<tag k="place" v="farm" />
		<tag k="ssr:stedsnr" v="129333" />
	</node>
	<node lat="61.50320555839658" lon="5.781455556917358" id="-61448">
		<tag k="name" v="Svistølen" />
		<tag k="place" v="farm" />
		<tag k="ssr:stedsnr" v="129386" />
	</node>
	<node lat="61.47211944292986" lon="5.81177221930366" id="-61453">
		<tag k="name" v="Hornnesvika" />
		<tag k="place" v="farm" />
		<tag k="ssr:stedsnr" v="129632" />
	</node>
	<node lat="61.470002944853256" lon="5.81967994806826" id="-61454">
		<tag k="alt_name" v="Hornes" />
		<tag k="fixme" v="consider place=hamlet" />
		<tag k="name" v="Hornnes" />
		<tag k="place" v="farm" />
		<tag k="ssr:stedsnr" v="129634" />
	</node>
	<node lat="61.41538610682685" lon="5.7053416639533365" id="-61456">
		<tag k="historic" v="shieling" />
		<tag k="name" v="Åsstølen" />
		<tag k="place" v="isolated_dwelling" />
		<tag k="ssr:stedsnr" v="129804" />
	</node>
	<node lat="61.43098889099338" lon="5.643774993838648" id="-61461">
		<tag k="alt_name" v="Hellevangsdal" />
		<tag k="fixme" v="multiple name tags, choose one and add the other to alt_name" />
		<tag k="name" v="Marka;Heilevangsdalen" />
		<tag k="place" v="farm" />
		<tag k="ssr:stedsnr" v="129833" />
	</node>
	<node lat="61.31681077156643" lon="6.025425919354407" id="-61465">
		<tag k="alt_name" v="Årli" />
		<tag k="fixme" v="consider place=hamlet" />
		<tag k="name" v="Årlia" />
		<tag k="place" v="farm" />
		<tag k="ssr:stedsnr" v="129516" />
	</node>
	<node lat="61.473859155168576" lon="5.573159608984826" id="-61468">
		<tag k="alt_name" v="Einevoll" />
		<tag k="fixme" v="consider place=hamlet" />
		<tag k="name" v="Einevollen" />
		<tag k="place" v="farm" />
		<tag k="ssr:stedsnr" v="129710" />
	</node>
	<node lat="61.33774265053447" lon="6.313933692670775" id="-61469">
		<tag k="fixme" v="consider place=hamlet" />
		<tag k="name" v="Mjellsmyra" />
		<tag k="place" v="farm" />
		<tag k="ssr:stedsnr" v="129713" />
	</node>
	<node lat="61.39513611357099" lon="5.536252779105915" id="-61472">
		<tag k="name" v="Indrestølen" />
		<tag k="place" v="locality" />
		<tag k="ssr:stedsnr" v="129778" />
	</node>
	<node lat="61.32037777657936" lon="6.318030550332714" id="-61475">
		<tag k="name" v="Skålebotnen" />
		<tag k="place" v="isolated_dwelling" />
		<tag k="ssr:stedsnr" v="129787" />
	</node>
	<node lat="61.36202615070615" lon="5.578823773535916" id="-61478">
		<tag k="alt_name" v="Bjørvik" />
		<tag k="fixme" v="consider place=hamlet" />
		<tag k="name" v="Bjørvika" />
		<tag k="place" v="farm" />
		<tag k="ssr:stedsnr" v="129927" />
	</node>
	<node lat="61.579583335302196" lon="5.961397218327677" id="-61479">
		<tag k="name" v="Gavlane" />
		<tag k="place" v="locality" />
		<tag k="ssr:stedsnr" v="130203" />
	</node>
	<node lat="61.584644444789866" lon="5.958152785143262" id="-61481">
		<tag k="fixme" v="consider place=hamlet" />
		<tag k="name" v="Fimland" />
		<tag k="place" v="village" />
		<tag k="ssr:stedsnr" v="130227" />
	</node>
	<node lat="61.48080329330428" lon="6.087309276382917" id="-61483">
		<tag k="fixme" v="consider place=hamlet" />
		<tag k="name" v="Øygarden" />
		<tag k="place" v="farm" />
		<tag k="ssr:stedsnr" v="130804" />
	</node>
	<node lat="61.615616826871054" lon="6.698165334658485" id="-61484">
		<tag k="alt_name" v="Stardalshaugen" />
		<tag k="fixme" v="consider place=hamlet" />
		<tag k="loc_name" v="Navnløs" />
		<tag k="name" v="Haugen" />
		<tag k="place" v="farm" />
		<tag k="ssr:stedsnr" v="130806" />
	</node>
	<node lat="61.51838501204031" lon="6.634974783488778" id="-61489">
		<tag k="alt_name" v="Lunde turisthytte" />
		<tag k="fixme" v="consider tourism=alpine_hut or tourism=chalet" />
		<tag k="name" v="Lunde turiststasjon" />
		<tag k="ssr:stedsnr" v="130834" />
		<tag k="tourism" v="wilderness_hut" />
	</node>
	<node lat="61.58738889326059" lon="6.64058888151092" id="-61494">
		<tag k="historic" v="shieling" />
		<tag k="name" v="Grepstadstøylen" />
		<tag k="place" v="isolated_dwelling" />
		<tag k="ssr:stedsnr" v="252832" />
	</node>
	<node lat="61.611607473316255" lon="6.632185680037242" id="-61497">
		<tag k="fixme" v="consider place=hamlet" />
		<tag k="name" v="Befring" />
		<tag k="place" v="farm" />
		<tag k="ssr:stedsnr" v="252816" />
	</node>
	<node lat="61.51528333627564" lon="6.412588883868572" id="-61499">
		<tag k="historic" v="shieling" />
		<tag k="name" v="Myklebuststøylen" />
		<tag k="place" v="isolated_dwelling" />
		<tag k="ssr:stedsnr" v="252857" />
	</node>
	<node lat="61.57383611284758" lon="6.488438894911326" id="-61503">
		<tag k="name" v="Nydal" />
		<tag k="place" v="farm" />
		<tag k="ssr:stedsnr" v="252940" />
	</node>
	<node lat="61.53146667129016" lon="6.277277782991532" id="-61504">
		<tag k="historic" v="shieling" />
		<tag k="name" v="Bjørsetstøylen" />
		<tag k="place" v="isolated_dwelling" />
		<tag k="ssr:stedsnr" v="252985" />
	</node>
	<node lat="61.526783334814084" lon="6.432286103299084" id="-61505">
		<tag k="name" v="Svorheim" />
		<tag k="place" v="farm" />
		<tag k="ssr:stedsnr" v="252989" />
	</node>
	<node lat="61.524613888100596" lon="6.400244438749974" id="-61508">
		<tag k="alt_name" v="Løgarden" />
		<tag k="name" v="Løgard" />
		<tag k="place" v="farm" />
		<tag k="ssr:stedsnr" v="253000" />
	</node>
	<node lat="61.560891666187466" lon="6.494305548344388" id="-61509">
		<tag k="historic" v="shieling" />
		<tag k="name" v="Vikastøylen" />
		<tag k="place" v="isolated_dwelling" />
		<tag k="ssr:stedsnr" v="252943" />
	</node>
	<node lat="61.56950833137587" lon="6.468688886099564" id="-61510">
		<tag k="fixme" v="consider place=hamlet" />
		<tag k="name" v="Haugen" />
		<tag k="place" v="farm" />
		<tag k="ssr:stedsnr" v="252945" />
	</node>
	<node lat="61.56448780413934" lon="6.45264151983539" id="-61511">
		<tag k="fixme" v="consider place=hamlet" />
		<tag k="name" v="Fyglastranda" />
		<tag k="place" v="farm" />
		<tag k="ssr:stedsnr" v="252947" />
	</node>
	<node lat="61.55328834295249" lon="6.352845237426868" id="-61512">
		<tag k="alt_name" v="Årdal Indre;Årdal, in" />
		<tag k="fixme" v="consider place=hamlet" />
		<tag k="name" v="Indre Årdal" />
		<tag k="place" v="farm" />
		<tag k="ssr:stedsnr" v="252954" />
	</node>
	<node lat="61.565866665597376" lon="6.539633324347125" id="-61513">
		<tag k="historic" v="shieling" />
		<tag k="name" v="Indre Fossheimsstøylen" />
		<tag k="place" v="isolated_dwelling" />
		<tag k="ssr:stedsnr" v="252960" />
	</node>
	<node lat="61.621216667760265" lon="6.494013889755686" id="-61515">
		<tag k="name" v="Flatheiholten" />
		<tag k="place" v="locality" />
		<tag k="ssr:stedsnr" v="253031" />
	</node>
	<node lat="61.40500000378234" lon="6.1831027743235385" id="-61589">
		<tag k="name" v="Redalen" />
		<tag k="place" v="isolated_dwelling" />
		<tag k="ssr:stedsnr" v="189383" />
	</node>
	<node lat="61.322070955500884" lon="5.964779554711411" id="-61590">
		<tag k="alt_name" v="Øvre Strand" />
		<tag k="fixme" v="consider place=hamlet" />
		<tag k="name" v="Øvrestrond" />
		<tag k="place" v="farm" />
		<tag k="ssr:stedsnr" v="189502" />
	</node>
	<node lat="61.317016670055224" lon="5.895919448984675" id="-61591">
		<tag k="alt_name" v="Nedre Strand - støl" />
		<tag k="historic" v="shieling" />
		<tag k="name" v="Nedrestrondstølen" />
		<tag k="place" v="isolated_dwelling" />
		<tag k="ssr:stedsnr" v="189508" />
	</node>
	<node lat="61.33375583157095" lon="6.174642371762428" id="-61592">
		<tag k="name" v="Eldalen" />
		<tag k="place" v="hamlet" />
		<tag k="ssr:stedsnr" v="189515" />
	</node>
	<node lat="61.455681982823265" lon="5.865538853567055" id="-61596">
		<tag k="fixme" v="consider place=hamlet" />
		<tag k="name" v="Skei" />
		<tag k="place" v="farm" />
		<tag k="ssr:stedsnr" v="189280" />
	</node>
	<node lat="61.48211944646866" lon="5.626672212727091" id="-61599">
		<tag k="name" v="Frammarsvik" />
		<tag k="place" v="hamlet" />
		<tag k="ssr:stedsnr" v="189682" />
	</node>
	<node lat="61.35552723465682" lon="5.7733017975424765" id="-61604">
		<tag k="fixme" v="consider place=hamlet" />
		<tag k="name" v="Myrmel" />
		<tag k="place" v="farm" />
		<tag k="ssr:stedsnr" v="190058" />
	</node>
	<node lat="61.34988888882533" lon="5.664763897702989" id="-61606">
		<tag k="historic" v="shieling" />
		<tag k="name" v="Vollastølen" />
		<tag k="place" v="isolated_dwelling" />
		<tag k="ssr:stedsnr" v="190062" />
	</node>
	<node lat="61.48435706249213" lon="6.116930849365826" id="-61609">
		<tag k="alt_name" v="Espehaug" />
		<tag k="fixme" v="consider place=hamlet" />
		<tag k="name" v="Ospehaugen" />
		<tag k="place" v="farm" />
		<tag k="ssr:stedsnr" v="190306" />
	</node>
	<node lat="61.53798333465148" lon="5.623827773792025" id="-61613">
		<tag k="historic" v="shieling" />
		<tag k="name" v="Jonstadstølen" />
		<tag k="place" v="isolated_dwelling" />
		<tag k="ssr:stedsnr" v="190484" />
	</node>
	<node lat="61.42104999953574" lon="6.373869444554337" id="-61614">
		<tag k="fixme" v="consider place=hamlet" />
		<tag k="name" v="Haukedalen" />
		<tag k="place" v="village" />
		<tag k="ssr:stedsnr" v="190628" />
	</node>
	<node lat="61.438624998852724" lon="6.089069450139201" id="-61615">
		<tag k="historic" v="shieling" />
		<tag k="name" v="Høgsetstølen" />
		<tag k="place" v="isolated_dwelling" />
		<tag k="ssr:stedsnr" v="190359" />
	</node>
	<node lat="61.43681666408922" lon="6.004124994923419" id="-61616">
		<tag k="name" v="Moneset" />
		<tag k="place" v="farm" />
		<tag k="ssr:stedsnr" v="190364" />
	</node>
	<node lat="61.43542500381404" lon="5.987369440717377" id="-61617">
		<tag k="fixme" v="consider place=hamlet" />
		<tag k="name" v="Mo" />
		<tag k="place" v="farm" />
		<tag k="ssr:stedsnr" v="190365" />
	</node>
	<node lat="61.4303027750641" lon="6.177713883689866" id="-61618">
		<tag k="historic" v="shieling" />
		<tag k="name" v="Norddalen" />
		<tag k="place" v="isolated_dwelling" />
		<tag k="ssr:stedsnr" v="190369" />
	</node>
	<node lat="61.42340277897856" lon="6.342038886599392" id="-61621">
		<tag k="name" v="Nesstølen" />
		<tag k="place" v="locality" />
		<tag k="ssr:stedsnr" v="190665" />
	</node>
	<node lat="61.42359444894701" lon="5.659125008379955" id="-61623">
		<tag k="historic" v="shieling" />
		<tag k="name" v="Karstadstølen" />
		<tag k="place" v="isolated_dwelling" />
		<tag k="ssr:stedsnr" v="190814" />
	</node>
	<node lat="61.389324048472716" lon="6.233073097535875" id="-61630">
		<tag k="alt_name" v="Solheimsbakke" />
		<tag k="fixme" v="consider place=hamlet" />
		<tag k="name" v="Solheimsbakken" />
		<tag k="place" v="farm" />
		<tag k="ssr:stedsnr" v="190758" />
	</node>
	<node lat="61.402008336160826" lon="5.529527783634193" id="-61633">
		<tag k="alt_name" v="Kvandalsstølen" />
		<tag k="historic" v="shieling" />
		<tag k="name" v="Kvanndalen" />
		<tag k="place" v="isolated_dwelling" />
		<tag k="ssr:stedsnr" v="190776" />
	</node>
	<node lat="61.37756885367616" lon="5.689090473565157" id="-61636">
		<tag k="alt_name" v="Lien" />
		<tag k="name" v="Lia" />
		<tag k="place" v="farm" />
		<tag k="ssr:stedsnr" v="190928" />
	</node>
	<node lat="61.38297777816588" lon="5.636438892795536" id="-61638">
		<tag k="name" v="Bruahaugen" />
		<tag k="place" v="farm" />
		<tag k="ssr:stedsnr" v="190977" />
	</node>
	<node lat="61.61088587854036" lon="6.612142663871481" id="-61648">
		<tag k="fixme" v="consider place=hamlet" />
		<tag k="name" v="Flatjorda" />
		<tag k="place" v="farm" />
		<tag k="ssr:stedsnr" v="191807" />
	</node>
	<node lat="61.50690833376334" lon="6.244211102699386" id="-61649">
		<tag k="historic" v="shieling" />
		<tag k="name" v="Årnesstøylen" />
		<tag k="place" v="isolated_dwelling" />
		<tag k="ssr:stedsnr" v="191850" />
	</node>
	<node lat="61.526083329824765" lon="6.557049991411012" id="-61654">
		<tag k="historic" v="shieling" />
		<tag k="name" v="Støylen" />
		<tag k="place" v="isolated_dwelling" />
		<tag k="ssr:stedsnr" v="263817" />
	</node>
	<node lat="61.62679999659625" lon="6.246952782540816" id="-61655">
		<tag k="fixme" v="consider tourism=alpine_hut or tourism=chalet" />
		<tag k="name" v="Longevasshytta" />
		<tag k="ssr:stedsnr" v="209681" />
		<tag k="tourism" v="wilderness_hut" />
	</node>
	<node lat="61.52191110736599" lon="6.018441669201219" id="-61759">
		<tag k="name" v="Indreli" />
		<tag k="place" v="farm" />
		<tag k="ssr:stedsnr" v="456800" />
	</node>
	<node lat="61.53533287521372" lon="6.058910872325715" id="-61801">
		<tag k="fixme" v="consider place=hamlet" />
		<tag k="name" v="Botnen" />
		<tag k="place" v="farm" />
		<tag k="ssr:stedsnr" v="267102" />
	</node>
	<node lat="61.38648611157929" lon="6.286869449442406" id="-61802">
		<tag k="historic" v="shieling" />
		<tag k="name" v="Skjepnastølane" />
		<tag k="place" v="isolated_dwelling" />
		<tag k="ssr:stedsnr" v="458377" />
	</node>
	<node lat="61.50950000281846" lon="6.283177776089063" id="-61837">
		<tag k="name" v="Rabben" />
		<tag k="place" v="farm" />
		<tag k="ssr:stedsnr" v="275175" />
	</node>
	<node lat="61.37707500196076" lon="5.643269441116816" id="-61853">
		<tag k="name" v="Gjerde" />
		<tag k="place" v="farm" />
		<tag k="ssr:stedsnr" v="280809" />
	</node>
	<node lat="61.48898610759765" lon="5.6020916631396" id="-61863">
		<tag k="name" v="Skitnestølen" />
		<tag k="place" v="locality" />
		<tag k="ssr:stedsnr" v="286227" />
	</node>
	<node lat="61.319991662648306" lon="5.786780556558647" id="-61902">
		<tag k="alt_name" v="Løvfallsfeltet" />
		<tag k="name" v="Løfallsfeltet" />
		<tag k="place" v="quarter" />
		<tag k="ssr:stedsnr" v="464343" />
	</node>
	<node lat="61.492169741991965" lon="5.406868213841258" id="-61903">
		<tag k="alt_name" v="Indrevevring;Indre Vefring" />
		<tag k="name" v="Indre Vevring" />
		<tag k="place" v="farm" />
		<tag k="ssr:stedsnr" v="311007" />
	</node>
	<node lat="61.30712777906583" lon="5.697527780438522" id="-61905">
		<tag k="alt_name" v="Høgelidstøl" />
		<tag k="historic" v="shieling" />
		<tag k="name" v="Høgelistølen" />
		<tag k="place" v="isolated_dwelling" />
		<tag k="ssr:stedsnr" v="311130" />
	</node>
	<node lat="61.33813902048627" lon="5.842415147546344" id="-61909">
		<tag k="fixme" v="consider place=hamlet" />
		<tag k="name" v="Foss" />
		<tag k="place" v="farm" />
		<tag k="ssr:stedsnr" v="311088" />
	</node>
	<node lat="61.33405315236051" lon="5.8153952169162695" id="-61910">
		<tag k="alt_name" v="Lien" />
		<tag k="fixme" v="consider place=hamlet" />
		<tag k="name" v="Lia" />
		<tag k="place" v="farm" />
		<tag k="ssr:stedsnr" v="311090" />
	</node>
	<node lat="61.29227122165639" lon="5.835471180069155" id="-61912">
		<tag k="fixme" v="consider place=hamlet" />
		<tag k="name" v="Senneset" />
		<tag k="place" v="farm" />
		<tag k="ssr:stedsnr" v="311210" />
	</node>
	<node lat="61.46019999924969" lon="6.190219440185885" id="-61913">
		<tag k="alt_name" v="Systestøylen" />
		<tag k="historic" v="shieling" />
		<tag k="name" v="Søstestøylen" />
		<tag k="place" v="isolated_dwelling" />
		<tag k="ssr:stedsnr" v="311375" />
	</node>
	<node lat="61.539116670805946" lon="5.6787333369815025" id="-61915">
		<tag k="historic" v="shieling" />
		<tag k="name" v="Hovestølen" />
		<tag k="place" v="isolated_dwelling" />
		<tag k="ssr:stedsnr" v="311503" />
	</node>
	<node lat="61.36179518226704" lon="6.149999168709375" id="-61916">
		<tag k="alt_name" v="Hetle" />
		<tag k="fixme" v="consider place=hamlet" />
		<tag k="name" v="Hetla" />
		<tag k="place" v="farm" />
		<tag k="ssr:stedsnr" v="311509" />
	</node>
	<node lat="61.34353815962139" lon="5.865448429923889" id="-61917">
		<tag k="alt_name" v="Skudal" />
		<tag k="fixme" v="consider place=hamlet" />
		<tag k="name" v="Skudalen" />
		<tag k="place" v="farm" />
		<tag k="ssr:stedsnr" v="311512" />
	</node>
	<node lat="61.33755318621357" lon="5.854983708627713" id="-61918">
		<tag k="alt_name" v="Fossevik" />
		<tag k="fixme" v="consider place=hamlet" />
		<tag k="name" v="Fossevika" />
		<tag k="place" v="farm" />
		<tag k="ssr:stedsnr" v="311525" />
	</node>
	<node lat="61.32360277989534" lon="6.115436102297123" id="-61920">
		<tag k="name" v="Espesetstølen" />
		<tag k="place" v="farm" />
		<tag k="ssr:stedsnr" v="311574" />
	</node>
	<node lat="61.331961107659964" lon="6.17371110899592" id="-61922">
		<tag k="name" v="Toa" />
		<tag k="place" v="farm" />
		<tag k="ssr:stedsnr" v="311591" />
	</node>
	<node lat="61.52392185365421" lon="5.740245583112781" id="-61933">
		<tag k="fixme" v="consider place=hamlet" />
		<tag k="name" v="Skei" />
		<tag k="place" v="farm" />
		<tag k="ssr:stedsnr" v="311483" />
	</node>
	<node lat="61.38210000125059" lon="6.167177773953369" id="-61936">
		<tag k="alt_name" v="Hetlestølen" />
		<tag k="historic" v="shieling" />
		<tag k="name" v="Hetlastølen" />
		<tag k="place" v="isolated_dwelling" />
		<tag k="ssr:stedsnr" v="311488" />
	</node>
	<node lat="61.410908335356524" lon="6.28511110496534" id="-61941">
		<tag k="name" v="Indre Hårklau" />
		<tag k="place" v="farm" />
		<tag k="ssr:stedsnr" v="311672" />
	</node>
	<node lat="61.49581388806323" lon="5.790716672230391" id="-61946">
		<tag k="alt_name" v="Nedre Klopstad;Kloppstad, nedre" />
		<tag k="name" v="Nedre Kloppstad" />
		<tag k="place" v="farm" />
		<tag k="ssr:stedsnr" v="311778" />
	</node>
	<node lat="61.386478101493395" lon="6.270391811193098" id="-61947">
		<tag k="fixme" v="multiple name tags, choose one and add the other to alt_name; consider place=hamlet" />
		<tag k="name" v="Skipnaset;Vikum" />
		<tag k="place" v="farm" />
		<tag k="ssr:stedsnr" v="311781" />
	</node>
	<node lat="61.37084444751967" lon="5.746502784713327" id="-61948">
		<tag k="name" v="Øyra" />
		<tag k="place" v="farm" />
		<tag k="ssr:stedsnr" v="311902" />
	</node>
	<node lat="61.38971832052457" lon="5.622434996127519" id="-61953">
		<tag k="alt_name" v="Rytne" />
		<tag k="fixme" v="consider place=hamlet" />
		<tag k="name" v="Rytnane" />
		<tag k="place" v="farm" />
		<tag k="ssr:stedsnr" v="311990" />
	</node>
	<node lat="61.57916944644628" lon="5.8592638878893455" id="-61956">
		<tag k="alt_name" v="Birkeland" />
		<tag k="name" v="Byrkjeland" />
		<tag k="place" v="farm" />
		<tag k="ssr:stedsnr" v="312215" />
	</node>
	<node lat="61.60174261726368" lon="5.979016499221573" id="-61957">
		<tag k="fixme" v="consider place=hamlet" />
		<tag k="name" v="Svoa" />
		<tag k="place" v="farm" />
		<tag k="ssr:stedsnr" v="312226" />
	</node>
	<node lat="61.56194389380753" lon="6.409019527047307" id="-61959">
		<tag k="fixme" v="consider place=hamlet" />
		<tag k="name" v="Hus" />
		<tag k="place" v="farm" />
		<tag k="ssr:stedsnr" v="312969" />
	</node>
	<node lat="61.562419441724735" lon="6.40081110770917" id="-61960">
		<tag k="fixme" v="consider place=hamlet" />
		<tag k="name" v="Helgheim" />
		<tag k="place" v="village" />
		<tag k="ssr:stedsnr" v="312972" />
	</node>
	<node lat="61.56507500381345" lon="6.529711119425904" id="-61961">
		<tag k="historic" v="shieling" />
		<tag k="name" v="Ytre Fossheimsstøylen" />
		<tag k="place" v="isolated_dwelling" />
		<tag k="ssr:stedsnr" v="312978" />
	</node>
	<node lat="61.509244387245275" lon="5.997572490565938" id="-61964">
		<tag k="fixme" v="consider place=hamlet" />
		<tag k="name" v="Skogstad" />
		<tag k="place" v="farm" />
		<tag k="ssr:stedsnr" v="313173" />
	</node>
	<node lat="61.514388891595594" lon="6.236119453366192" id="-61965">
		<tag k="alt_name" v="Årneset" />
		<tag k="name" v="Årnes" />
		<tag k="place" v="farm" />
		<tag k="ssr:stedsnr" v="312863" />
	</node>
	<node lat="61.60072098985009" lon="6.519427242721016" id="-61966">
		<tag k="fixme" v="consider place=hamlet" />
		<tag k="name" v="Bolset" />
		<tag k="place" v="farm" />
		<tag k="ssr:stedsnr" v="313019" />
	</node>
	<node lat="61.56514166293043" lon="5.91149443607273" id="-61967">
		<tag k="historic" v="shieling" />
		<tag k="name" v="Espelandsstølane" />
		<tag k="place" v="isolated_dwelling" />
		<tag k="ssr:stedsnr" v="313210" />
	</node>
	<node lat="61.33657500404953" lon="5.927997227890392" id="-61987">
		<tag k="barrier" v="fence" />
		<tag k="name" v="Hansgjerdet" />
		<tag k="ssr:stedsnr" v="331798" />
	</node>
	<node lat="61.4675888891739" lon="6.026483336004137" id="-62022">
		<tag k="name" v="Eikås" />
		<tag k="place" v="hamlet" />
		<tag k="ssr:stedsnr" v="336359" />
	</node>
	<node lat="61.31998333280721" lon="5.798633326064801" id="-62045">
		<tag k="name" v="Steia" />
		<tag k="place" v="quarter" />
		<tag k="ssr:stedsnr" v="343300" />
	</node>
	<node lat="61.51316389079928" lon="5.725838890490463" id="-62052">
		<tag k="name" v="Øyra" />
		<tag k="place" v="farm" />
		<tag k="ssr:stedsnr" v="346865" />
	</node>
	<node lat="61.58263055534509" lon="5.983077775487273" id="-62063">
		<tag k="name" v="Rabben" />
		<tag k="place" v="isolated_dwelling" />
		<tag k="ssr:stedsnr" v="347612" />
	</node>
	<node lat="61.50424999649298" lon="5.6892833285194495" id="-62068">
		<tag k="name" v="Ytre Mallasvika" />
		<tag k="place" v="farm" />
		<tag k="ssr:stedsnr" v="356649" />
	</node>
	<node lat="61.33108397884052" lon="5.700887790013571" id="-62075">
		<tag k="fixme" v="multiple name tags, choose one and add the other to alt_name; consider place=hamlet" />
		<tag k="name" v="Torsstølen;Øvrebø" />
		<tag k="place" v="farm" />
		<tag k="ssr:stedsnr" v="371065" />
	</node>
	<node lat="61.345144444238436" lon="5.824741670236048" id="-62077">
		<tag k="alt_name" v="Foss - støl" />
		<tag k="historic" v="shieling" />
		<tag k="name" v="Fosstølen" />
		<tag k="place" v="isolated_dwelling" />
		<tag k="ssr:stedsnr" v="371076" />
	</node>
	<node lat="61.31573333533795" lon="5.882608325674391" id="-62086">
		<tag k="alt_name" v="Årnesstøl" />
		<tag k="historic" v="shieling" />
		<tag k="name" v="Årsnesstølen" />
		<tag k="place" v="isolated_dwelling" />
		<tag k="ssr:stedsnr" v="371527" />
	</node>
	<node lat="61.384633333677584" lon="5.987675003824639" id="-62087">
		<tag k="alt_name" v="Kusslidstølen" />
		<tag k="historic" v="shieling" />
		<tag k="name" v="Kusslistølen" />
		<tag k="place" v="isolated_dwelling" />
		<tag k="ssr:stedsnr" v="371405" />
	</node>
	<node lat="61.340605552799936" lon="6.130213895285855" id="-62089">
		<tag k="name" v="Osvollen" />
		<tag k="place" v="farm" />
		<tag k="ssr:stedsnr" v="371463" />
	</node>
	<node lat="61.32649999674593" lon="5.969930550150177" id="-62090">
		<tag k="name" v="Nybø" />
		<tag k="place" v="farm" />
		<tag k="ssr:stedsnr" v="371473" />
	</node>
	<node lat="61.330987374039466" lon="5.8914705023860625" id="-62091">
		<tag k="alt_name" v="Horsevik" />
		<tag k="fixme" v="consider place=hamlet" />
		<tag k="name" v="Horsevika" />
		<tag k="place" v="farm" />
		<tag k="ssr:stedsnr" v="371476" />
	</node>
	<node lat="61.45669444685155" lon="5.592980549494084" id="-62093">
		<tag k="name" v="Friborgneset" />
		<tag k="place" v="farm" />
		<tag k="ssr:stedsnr" v="371628" />
	</node>
	<node lat="61.47160555493043" lon="5.520294453131732" id="-62096">
		<tag k="historic" v="shieling" />
		<tag k="name" v="Bakkestølen" />
		<tag k="place" v="isolated_dwelling" />
		<tag k="ssr:stedsnr" v="371704" />
	</node>
	<node lat="61.47101666673007" lon="5.487147217629955" id="-62097">
		<tag k="historic" v="shieling" />
		<tag k="name" v="Kleivastølen" />
		<tag k="place" v="isolated_dwelling" />
		<tag k="ssr:stedsnr" v="371705" />
	</node>
	<node lat="61.48641397120504" lon="5.7603423155618305" id="-62099">
		<tag k="alt_name" v="Furevik" />
		<tag k="fixme" v="consider place=hamlet" />
		<tag k="name" v="Furevika" />
		<tag k="place" v="farm" />
		<tag k="ssr:stedsnr" v="371716" />
	</node>
	<node lat="61.37900605642764" lon="6.259287914137051" id="-62102">
		<tag k="fixme" v="consider place=hamlet" />
		<tag k="name" v="Årnes" />
		<tag k="place" v="farm" />
		<tag k="ssr:stedsnr" v="371757" />
	</node>
	<node lat="61.37214444704075" lon="5.8360055580951" id="-62104">
		<tag k="alt_name" v="Fagerdalsstølen" />
		<tag k="historic" v="shieling" />
		<tag k="name" v="Fagredalen" />
		<tag k="place" v="isolated_dwelling" />
		<tag k="ssr:stedsnr" v="371917" />
	</node>
	<node lat="61.43687499653928" lon="5.598480553974654" id="-62111">
		<tag k="name" v="Haugen" />
		<tag k="place" v="farm" />
		<tag k="ssr:stedsnr" v="371876" />
	</node>
	<node lat="61.39706111122806" lon="5.774886105346008" id="-62113">
		<tag k="historic" v="shieling" />
		<tag k="name" v="Gamlestølen" />
		<tag k="place" v="isolated_dwelling" />
		<tag k="ssr:stedsnr" v="371967" />
	</node>
	<node lat="61.3127861073985" lon="5.6657555624478535" id="-62118">
		<tag k="alt_name" v="Årøstøl" />
		<tag k="historic" v="shieling" />
		<tag k="name" v="Årøystølen" />
		<tag k="place" v="isolated_dwelling" />
		<tag k="ssr:stedsnr" v="372159" />
	</node>
	<node lat="61.42488610911267" lon="5.948816670333592" id="-62123">
		<tag k="fixme" v="multiple name tags, choose one and add the other to alt_name" />
		<tag k="name" v="Saga;Flatjord" />
		<tag k="place" v="farm" />
		<tag k="ssr:stedsnr" v="372366" />
	</node>
	<node lat="61.50637778083601" lon="5.31793333553697" id="-62127">
		<tag k="historic" v="shieling" />
		<tag k="name" v="Kvellestadstølen" />
		<tag k="place" v="isolated_dwelling" />
		<tag k="ssr:stedsnr" v="372617" />
	</node>
	<node lat="61.505499998329924" lon="5.452219436251068" id="-62129">
		<tag k="historic" v="shieling" />
		<tag k="name" v="Kjerringkleiva" />
		<tag k="place" v="isolated_dwelling" />
		<tag k="ssr:stedsnr" v="372650" />
	</node>
	<node lat="61.48940986410992" lon="5.655661624153603" id="-62132">
		<tag k="fixme" v="consider place=hamlet" />
		<tag k="name" v="Holmeset" />
		<tag k="place" v="farm" />
		<tag k="ssr:stedsnr" v="372761" />
	</node>
	<node lat="61.48784166730016" lon="5.579041660399777" id="-62133">
		<tag k="alt_name" v="Andalstølen" />
		<tag k="historic" v="shieling" />
		<tag k="name" v="Andalsstølen" />
		<tag k="place" v="isolated_dwelling" />
		<tag k="ssr:stedsnr" v="372764" />
	</node>
	<node lat="61.378858336382294" lon="5.684580546772671" id="-62138">
		<tag k="name" v="Haugen" />
		<tag k="place" v="farm" />
		<tag k="ssr:stedsnr" v="372925" />
	</node>
	<node lat="61.55123333328913" lon="6.071980550810377" id="-62141">
		<tag k="name" v="Øyane" />
		<tag k="place" v="locality" />
		<tag k="ssr:stedsnr" v="373159" />
	</node>
	<node lat="61.6235777815966" lon="5.997172223247464" id="-62146">
		<tag k="historic" v="shieling" />
		<tag k="name" v="Bergsstølen" />
		<tag k="place" v="isolated_dwelling" />
		<tag k="ssr:stedsnr" v="373246" />
	</node>
	<node lat="61.493208331300984" lon="5.468886119402507" id="-62150">
		<tag k="name" v="Gryta" />
		<tag k="place" v="farm" />
		<tag k="ssr:stedsnr" v="373548" />
	</node>
	<node lat="61.56790555620996" lon="6.255074999757954" id="-62151">
		<tag k="historic" v="shieling" />
		<tag k="name" v="Brekka" />
		<tag k="place" v="isolated_dwelling" />
		<tag k="ssr:stedsnr" v="373945" />
	</node>
	<node lat="61.57963333626408" lon="6.496580563444805" id="-62152">
		<tag k="name" v="Nylund" />
		<tag k="place" v="farm" />
		<tag k="ssr:stedsnr" v="373952" />
	</node>
	<node lat="61.575166670687736" lon="6.412533326433291" id="-62153">
		<tag k="historic" v="shieling" />
		<tag k="name" v="Husstøylen" />
		<tag k="place" v="isolated_dwelling" />
		<tag k="ssr:stedsnr" v="373956" />
	</node>
	<node lat="61.50908888732574" lon="6.346808329193841" id="-62155">
		<tag k="historic" v="shieling" />
		<tag k="name" v="Åsstøylen" />
		<tag k="place" v="isolated_dwelling" />
		<tag k="ssr:stedsnr" v="373891" />
	</node>
	<node lat="61.592627105860544" lon="6.305748784126819" id="-62160">
		<tag k="historic" v="shieling" />
		<tag k="name" v="Svartestøylen" />
		<tag k="place" v="isolated_dwelling" />
		<tag k="ssr:stedsnr" v="374013" />
	</node>
	<node lat="61.499730554729666" lon="6.175941674361183" id="-62167">
		<tag k="name" v="Hammar" />
		<tag k="place" v="farm" />
		<tag k="ssr:stedsnr" v="385807" />
	</node>
	<node lat="61.31199167045674" lon="6.228008331076411" id="-62223">
		<tag k="name" v="Hopeteigen" />
		<tag k="place" v="locality" />
		<tag k="ssr:stedsnr" v="401881" />
	</node>
	<node lat="61.58420277787843" lon="5.81286388953385" id="-62239">
		<tag k="name" v="Gamlestølen" />
		<tag k="place" v="locality" />
		<tag k="ssr:stedsnr" v="408810" />
	</node>
	<node lat="61.36416011643727" lon="5.7674345389739194" id="-62255">
		<tag k="alt_name" v="Lundekvam" />
		<tag k="fixme" v="consider place=hamlet" />
		<tag k="name" v="Lundakvammen" />
		<tag k="place" v="farm" />
		<tag k="ssr:stedsnr" v="432012" />
	</node>
	<node lat="61.49879868565846" lon="5.28061217258494" id="-62256">
		<tag k="fixme" v="consider place=hamlet" />
		<tag k="name" v="Horne" />
		<tag k="place" v="farm" />
		<tag k="ssr:stedsnr" v="432020" />
	</node>
	<node lat="61.32511111086095" lon="5.797752771266135" id="-62257">
		<tag k="name" v="Sande" />
		<tag k="place" v="village" />
		<tag k="ssr:stedsnr" v="432108" />
	</node>
	<node lat="61.25056781211348" lon="5.827929668229616" id="-62258">
		<tag k="alt_name" v="Dregebø" />
		<tag k="fixme" v="consider place=hamlet" />
		<tag k="name" v="Dregebøen" />
		<tag k="place" v="farm" />
		<tag k="ssr:stedsnr" v="432217" />
	</node>
	<node lat="61.40946944278378" lon="6.174794438386927" id="-62263">
		<tag k="name" v="Slettebakken" />
		<tag k="place" v="isolated_dwelling" />
		<tag k="ssr:stedsnr" v="432387" />
	</node>
	<node lat="61.32311388666184" lon="6.111850007577935" id="-62264">
		<tag k="historic" v="shieling" />
		<tag k="name" v="Hestebeitstølen" />
		<tag k="place" v="isolated_dwelling" />
		<tag k="ssr:stedsnr" v="432510" />
	</node>
	<node lat="61.31787778029402" lon="5.843625007319892" id="-62265">
		<tag k="historic" v="shieling" />
		<tag k="name" v="Haukestølen" />
		<tag k="place" v="isolated_dwelling" />
		<tag k="ssr:stedsnr" v="432522" />
	</node>
	<node lat="61.33674365369433" lon="6.180715689876507" id="-62266">
		<tag k="alt_name" v="Bratteteig;Bratteigen" />
		<tag k="fixme" v="consider place=hamlet" />
		<tag k="name" v="Bratteina" />
		<tag k="place" v="farm" />
		<tag k="ssr:stedsnr" v="432524" />
	</node>
	<node lat="61.354477112639" lon="6.10917393427331" id="-62269">
		<tag k="alt_name" v="Haugene" />
		<tag k="fixme" v="consider place=hamlet" />
		<tag k="name" v="Haugane" />
		<tag k="place" v="farm" />
		<tag k="ssr:stedsnr" v="432434" />
	</node>
	<node lat="61.47300555326702" lon="5.490755563124801" id="-62280">
		<tag k="alt_name" v="Gjøringbøstølen" />
		<tag k="historic" v="shieling" />
		<tag k="name" v="Gjøringebøstølen" />
		<tag k="place" v="isolated_dwelling" />
		<tag k="ssr:stedsnr" v="432681" />
	</node>
	<node lat="61.35145555605788" lon="6.224019450268109" id="-62286">
		<tag k="historic" v="shieling" />
		<tag k="name" v="Øyastølen" />
		<tag k="place" v="isolated_dwelling" />
		<tag k="ssr:stedsnr" v="432712" />
	</node>
	<node lat="61.38137777374159" lon="6.218744436850874" id="-62287">
		<tag k="historic" v="shieling" />
		<tag k="name" v="Mosstadstølen" />
		<tag k="place" v="isolated_dwelling" />
		<tag k="ssr:stedsnr" v="432728" />
	</node>
	<node lat="61.36536388651243" lon="5.81808333118812" id="-62289">
		<tag k="historic" v="shieling" />
		<tag k="name" v="Krististølen" />
		<tag k="place" v="isolated_dwelling" />
		<tag k="ssr:stedsnr" v="432906" />
	</node>
	<node lat="61.39691111323816" lon="5.646797212973361" id="-62291">
		<tag k="historic" v="shieling" />
		<tag k="name" v="Kårstadstølen" />
		<tag k="place" v="isolated_dwelling" />
		<tag k="ssr:stedsnr" v="432977" />
	</node>
	<node lat="61.53291110942118" lon="5.7242472244619655" id="-62296">
		<tag k="name" v="Vegastølen" />
		<tag k="place" v="locality" />
		<tag k="ssr:stedsnr" v="433384" />
	</node>
	<node lat="61.53449722518762" lon="5.839744438943396" id="-62298">
		<tag k="historic" v="shieling" />
		<tag k="name" v="Kvamsstølane" />
		<tag k="place" v="isolated_dwelling" />
		<tag k="ssr:stedsnr" v="433393" />
	</node>
	<node lat="61.33232222557057" lon="6.366213891596942" id="-62304">
		<tag k="historic" v="shieling" />
		<tag k="name" v="Langestølen" />
		<tag k="place" v="isolated_dwelling" />
		<tag k="ssr:stedsnr" v="433815" />
	</node>
	<node lat="61.42937222489058" lon="5.704391675063997" id="-62306">
		<tag k="name" v="Jarane" />
		<tag k="place" v="farm" />
		<tag k="ssr:stedsnr" v="433837" />
	</node>
	<node lat="61.42945277454994" lon="5.745841673057888" id="-62307">
		<tag k="alt_name" v="Soleimsstølen" />
		<tag k="historic" v="shieling" />
		<tag k="name" v="Solheimsstølen" />
		<tag k="place" v="isolated_dwelling" />
		<tag k="ssr:stedsnr" v="433841" />
	</node>
	<node lat="61.381580715497314" lon="5.687276505211757" id="-62314">
		<tag k="fixme" v="consider place=hamlet" />
		<tag k="name" v="Lia" />
		<tag k="place" v="farm" />
		<tag k="ssr:stedsnr" v="433910" />
	</node>
	<node lat="61.3743993739006" lon="5.645624662743924" id="-62315">
		<tag k="alt_name" v="Sveen" />
		<tag k="fixme" v="consider place=hamlet" />
		<tag k="name" v="Svædene" />
		<tag k="place" v="farm" />
		<tag k="ssr:stedsnr" v="433916" />
	</node>
	<node lat="61.55312777340367" lon="5.861030548883556" id="-62321">
		<tag k="historic" v="shieling" />
		<tag k="name" v="Ospehaugstølen" />
		<tag k="place" v="isolated_dwelling" />
		<tag k="ssr:stedsnr" v="434176" />
	</node>
	<node lat="61.61004721997345" lon="5.828833327103619" id="-62322">
		<tag k="historic" v="shieling" />
		<tag k="name" v="Mattisstølen" />
		<tag k="place" v="isolated_dwelling" />
		<tag k="ssr:stedsnr" v="434708" />
	</node>
	<node lat="61.51967893739215" lon="6.6284816827315165" id="-62324">
		<tag k="fixme" v="consider place=hamlet" />
		<tag k="name" v="Lunde" />
		<tag k="place" v="farm" />
		<tag k="ssr:stedsnr" v="434829" />
	</node>
	<node lat="61.59952499682252" lon="6.510550004095434" id="-62328">
		<tag k="loc_name" v="Orrehaugen;Orrhaugen" />
		<tag k="name" v="Århaugen" />
		<tag k="place" v="farm" />
		<tag k="ssr:stedsnr" v="435020" />
	</node>
	<node lat="61.51582011492965" lon="6.167947820415239" id="-62331">
		<tag k="fixme" v="consider place=hamlet" />
		<tag k="name" v="Svidal" />
		<tag k="place" v="farm" />
		<tag k="ssr:stedsnr" v="435169" />
	</node>
	<node lat="61.51485453278799" lon="6.152551106076276" id="-62332">
		<tag k="fixme" v="consider place=hamlet" />
		<tag k="name" v="Stølen" />
		<tag k="place" v="farm" />
		<tag k="ssr:stedsnr" v="435172" />
	</node>
	<node lat="61.35851935069005" lon="6.201005001847766" id="-62335">
		<tag k="alt_name" v="Øen" />
		<tag k="fixme" v="consider place=hamlet" />
		<tag k="name" v="Øyna" />
		<tag k="place" v="farm" />
		<tag k="ssr:stedsnr" v="492437" />
	</node>
	<node lat="61.58134999961409" lon="6.455341667289788" id="-62337">
		<tag k="historic" v="shieling" />
		<tag k="name" v="Fyglastøylen" />
		<tag k="place" v="isolated_dwelling" />
		<tag k="ssr:stedsnr" v="435963" />
	</node>
	<node lat="61.36792955985702" lon="5.620229189145213" id="-62340">
		<tag k="fixme" v="consider place=hamlet" />
		<tag k="name" v="Helle" />
		<tag k="place" v="farm" />
		<tag k="ssr:stedsnr" v="492880" />
	</node>
	<node lat="61.33444444650725" lon="5.767736112740449" id="-62342">
		<tag k="name" v="Tunvald" />
		<tag k="place" v="locality" />
		<tag k="ssr:stedsnr" v="493095" />
	</node>
	<node lat="61.35929828872014" lon="5.764678722226483" id="-62344">
		<tag k="name" v="Myrmelshaugen" />
		<tag k="place" v="farm" />
		<tag k="ssr:stedsnr" v="493032" />
	</node>
	<node lat="61.32281630361213" lon="5.737642455444975" id="-62350">
		<tag k="alt_name" v="Solås" />
		<tag k="fixme" v="consider place=hamlet" />
		<tag k="name" v="Solåsen" />
		<tag k="place" v="farm" />
		<tag k="ssr:stedsnr" v="493130" />
	</node>
	<node lat="61.300358332961046" lon="5.683013887817228" id="-62352">
		<tag k="alt_name" v="Hatlebrekkestøl" />
		<tag k="historic" v="shieling" />
		<tag k="name" v="Hatlebrekkestølen" />
		<tag k="place" v="isolated_dwelling" />
		<tag k="ssr:stedsnr" v="493156" />
	</node>
	<node lat="61.45704335373892" lon="6.05767455324207" id="-62356">
		<tag k="historic" v="shieling" />
		<tag k="name" v="Slåttestøylen" />
		<tag k="place" v="isolated_dwelling" />
		<tag k="ssr:stedsnr" v="493326" />
	</node>
	<node lat="61.308825002723395" lon="6.02941110615314" id="-62362">
		<tag k="alt_name" v="Årli Stølen;Sandane Stølen" />
		<tag k="historic" v="shieling" />
		<tag k="name" v="Årteigstølen" />
		<tag k="place" v="isolated_dwelling" />
		<tag k="ssr:stedsnr" v="493499" />
	</node>
	<node lat="61.54637222587889" lon="5.782783334158534" id="-62363">
		<tag k="name" v="Træla" />
		<tag k="place" v="farm" />
		<tag k="ssr:stedsnr" v="493438" />
	</node>
	<node lat="61.3202305547582" lon="5.926555561554781" id="-62368">
		<tag k="name" v="Indrebø" />
		<tag k="place" v="farm" />
		<tag k="ssr:stedsnr" v="493546" />
	</node>
	<node lat="61.3355194454893" lon="6.188616665540872" id="-62369">
		<tag k="alt_name" v="Almyra" />
		<tag k="name" v="Almmyra" />
		<tag k="place" v="isolated_dwelling" />
		<tag k="ssr:stedsnr" v="493551" />
	</node>
	<node lat="61.31091762338672" lon="6.20390234415831" id="-62371">
		<tag k="alt_name" v="Oppedalsstølen;Oppedalsstøl Indre" />
		<tag k="historic" v="shieling" />
		<tag k="name" v="Indre Oppedalsstølen" />
		<tag k="place" v="isolated_dwelling" />
		<tag k="ssr:stedsnr" v="493626" />
	</node>
	<node lat="61.500976277126206" lon="5.3041988391609145" id="-62372">
		<tag k="alt_name" v="Kleiven" />
		<tag k="fixme" v="consider place=hamlet" />
		<tag k="name" v="Kleiva" />
		<tag k="place" v="farm" />
		<tag k="ssr:stedsnr" v="493629" />
	</node>
	<node lat="61.4663648634052" lon="5.592302255157101" id="-62373">
		<tag k="name" v="Andalsberget" />
		<tag k="place" v="farm" />
		<tag k="ssr:stedsnr" v="493665" />
	</node>
	<node lat="61.46155833296021" lon="5.53151943586879" id="-62378">
		<tag k="alt_name" v="Nestun" />
		<tag k="name" v="Nedsttun" />
		<tag k="place" v="farm" />
		<tag k="ssr:stedsnr" v="493689" />
	</node>
	<node lat="61.40443889161119" lon="5.735699999994279" id="-62385">
		<tag k="alt_name" v="Hjelmelandstølen;Hjelmelandsstølen, in" />
		<tag k="historic" v="shieling" />
		<tag k="name" v="Indre Hjelmelandsstølen" />
		<tag k="place" v="isolated_dwelling" />
		<tag k="ssr:stedsnr" v="493783" />
	</node>
	<node lat="61.35685278106131" lon="6.257147225655146" id="-62394">
		<tag k="historic" v="shieling" />
		<tag k="name" v="Botnastølane" />
		<tag k="place" v="isolated_dwelling" />
		<tag k="ssr:stedsnr" v="493746" />
	</node>
	<node lat="61.49915278159014" lon="5.792872221761673" id="-62396">
		<tag k="alt_name" v="Langebø" />
		<tag k="name" v="Langebøen" />
		<tag k="place" v="farm" />
		<tag k="ssr:stedsnr" v="493755" />
	</node>
	<node lat="61.38253506113252" lon="5.651115307864175" id="-62398">
		<tag k="fixme" v="consider place=hamlet" />
		<tag k="name" v="Kvamme" />
		<tag k="place" v="farm" />
		<tag k="ssr:stedsnr" v="493956" />
	</node>
	<node lat="61.561677778087365" lon="5.98445555904082" id="-62404">
		<tag k="name" v="Reinestølen" />
		<tag k="place" v="locality" />
		<tag k="ssr:stedsnr" v="494191" />
	</node>
	<node lat="61.536271328531164" lon="5.7882287667187216" id="-62408">
		<tag k="fixme" v="consider place=hamlet" />
		<tag k="name" v="Kvamme" />
		<tag k="place" v="farm" />
		<tag k="ssr:stedsnr" v="444702" />
	</node>
	<node lat="61.50315277425208" lon="6.358050006049668" id="-62412">
		<tag k="historic" v="shieling" />
		<tag k="name" v="Skryklingsstøylen" />
		<tag k="place" v="isolated_dwelling" />
		<tag k="ssr:stedsnr" v="494890" />
	</node>
	<node lat="61.615291665653864" lon="6.667702786926238" id="-62415">
		<tag k="name" v="Vindheim" />
		<tag k="place" v="farm" />
		<tag k="ssr:stedsnr" v="494828" />
	</node>
	<node lat="61.61584999577322" lon="6.70606666526728" id="-62416">
		<tag k="name" v="Høyvik" />
		<tag k="place" v="farm" />
		<tag k="ssr:stedsnr" v="494829" />
	</node>
	<node lat="61.36804208565609" lon="6.233959633921656" id="-62473">
		<tag k="alt_name" v="Mossestadhaug" />
		<tag k="fixme" v="consider place=hamlet" />
		<tag k="name" v="Mosstadhaugen" />
		<tag k="place" v="farm" />
		<tag k="ssr:stedsnr" v="458515" />
	</node>
	<node lat="61.360383695499664" lon="5.716443006699608" id="-62492">
		<tag k="fixme" v="consider place=hamlet" />
		<tag k="name" v="Furneset" />
		<tag k="place" v="farm" />
		<tag k="ssr:stedsnr" v="675035" />
	</node>
	<node lat="61.347763885020676" lon="5.720830558736517" id="-62495">
		<tag k="fixme" v="consider place=hamlet" />
		<tag k="name" v="Sygna" />
		<tag k="place" v="village" />
		<tag k="ssr:stedsnr" v="675044" />
	</node>
	<node lat="61.31014444845736" lon="5.755102769432908" id="-62496">
		<tag k="alt_name" v="Døskelandstøl" />
		<tag k="historic" v="shieling" />
		<tag k="name" v="Dysjelandsstølen" />
		<tag k="place" v="isolated_dwelling" />
		<tag k="ssr:stedsnr" v="675102" />
	</node>
	<node lat="61.41097499815544" lon="5.7367055602434895" id="-62501">
		<tag k="historic" v="shieling" />
		<tag k="name" v="Nasastølen" />
		<tag k="place" v="isolated_dwelling" />
		<tag k="ssr:stedsnr" v="675826" />
	</node>
	<node lat="61.32676331061781" lon="5.7894996050327165" id="-62502">
		<tag k="alt_name" v="Sande" />
		<tag k="fixme" v="consider place=hamlet" />
		<tag k="name" v="Sanda" />
		<tag k="place" v="farm" />
		<tag k="ssr:stedsnr" v="675137" />
	</node>
	<node lat="61.28992499902704" lon="5.742252773696077" id="-62504">
		<tag k="alt_name" v="Storedalen" />
		<tag k="historic" v="shieling" />
		<tag k="name" v="Stordalen" />
		<tag k="place" v="isolated_dwelling" />
		<tag k="ssr:stedsnr" v="675184" />
	</node>
	<node lat="61.40445963174552" lon="5.4449025856172" id="-62508">
		<tag k="alt_name" v="Laukelandsstølen, øvre" />
		<tag k="historic" v="shieling" />
		<tag k="name" v="Øvre Laukelandsstølen" />
		<tag k="place" v="isolated_dwelling" />
		<tag k="ssr:stedsnr" v="675218" />
	</node>
	<node lat="61.478766663238105" lon="6.022311107174696" id="-62517">
		<tag k="alt_name" v="Eikåsstøylen, in" />
		<tag k="historic" v="shieling" />
		<tag k="name" v="Indre Eikåsstøylen" />
		<tag k="place" v="isolated_dwelling" />
		<tag k="ssr:stedsnr" v="675318" />
	</node>
	<node lat="61.46458069928796" lon="6.021014191047621" id="-62518">
		<tag k="alt_name" v="Insteinstad" />
		<tag k="fixme" v="consider place=hamlet" />
		<tag k="name" v="Innsteinstad" />
		<tag k="place" v="farm" />
		<tag k="ssr:stedsnr" v="675326" />
	</node>
	<node lat="61.448863886742544" lon="5.870836117936287" id="-62523">
		<tag k="alt_name" v="Havstad" />
		<tag k="fixme" v="consider place=hamlet" />
		<tag k="name" v="Hafstad" />
		<tag k="place" v="village" />
		<tag k="ssr:stedsnr" v="675338" />
	</node>
	<node lat="61.43811110803822" lon="6.007824992050175" id="-62531">
		<tag k="name" v="Reinene" />
		<tag k="place" v="farm" />
		<tag k="ssr:stedsnr" v="675389" />
	</node>
	<node lat="61.54923333406857" lon="5.715786106696552" id="-62533">
		<tag k="historic" v="shieling" />
		<tag k="name" v="Ekrestølen" />
		<tag k="place" v="isolated_dwelling" />
		<tag k="ssr:stedsnr" v="675472" />
	</node>
	<node lat="61.49370837760996" lon="5.525757048503346" id="-62538">
		<tag k="alt_name" v="Midtvatne;Midtvatn" />
		<tag k="fixme" v="consider place=hamlet" />
		<tag k="name" v="Med Vatnet" />
		<tag k="place" v="farm" />
		<tag k="ssr:stedsnr" v="675531" />
	</node>
	<node lat="61.35733055160227" lon="6.1283083301438035" id="-62541">
		<tag k="name" v="Nyheim" />
		<tag k="place" v="farm" />
		<tag k="ssr:stedsnr" v="675479" />
	</node>
	<node lat="61.33197914145063" lon="6.144805126357076" id="-62545">
		<tag k="fixme" v="consider place=hamlet" />
		<tag k="name" v="Følling" />
		<tag k="place" v="farm" />
		<tag k="ssr:stedsnr" v="675564" />
	</node>
	<node lat="61.48413055152786" lon="5.766363890218427" id="-62555">
		<tag k="name" v="Orevika" />
		<tag k="place" v="farm" />
		<tag k="ssr:stedsnr" v="675724" />
	</node>
	<node lat="61.46233805102675" lon="5.526354493916745" id="-62564">
		<tag k="alt_name" v="Mortensbakke;Mortensbakken" />
		<tag k="fixme" v="consider place=hamlet" />
		<tag k="name" v="Marteinsbakken" />
		<tag k="place" v="farm" />
		<tag k="ssr:stedsnr" v="675690" />
	</node>
	<node lat="61.49373333389577" lon="5.641766657658993" id="-62566">
		<tag k="historic" v="shieling" />
		<tag k="name" v="Holmesetstølen" />
		<tag k="place" v="isolated_dwelling" />
		<tag k="ssr:stedsnr" v="675767" />
	</node>
	<node lat="61.453136136375115" lon="5.839669346987544" id="-62574">
		<tag k="fixme" v="consider place=hamlet" />
		<tag k="loc_name" v="Halbrend" />
		<tag k="name" v="Hallbrend" />
		<tag k="place" v="farm" />
		<tag k="ssr:stedsnr" v="675872" />
	</node>
	<node lat="61.388948153315916" lon="5.814610203094817" id="-62578">
		<tag k="alt_name" v="Myren" />
		<tag k="fixme" v="consider place=hamlet" />
		<tag k="name" v="Myra" />
		<tag k="place" v="farm" />
		<tag k="ssr:stedsnr" v="675949" />
	</node>
	<node lat="61.38536944520553" lon="5.741347222203016" id="-62580">
		<tag k="name" v="Hjelmås" />
		<tag k="place" v="farm" />
		<tag k="ssr:stedsnr" v="675958" />
	</node>
	<node lat="61.584367799963246" lon="5.960199614316054" id="-62585">
		<tag k="fixme" v="consider place=hamlet" />
		<tag k="name" v="Fimland" />
		<tag k="place" v="farm" />
		<tag k="ssr:stedsnr" v="676223" />
	</node>
	<node lat="61.58699546462685" lon="6.000671775594244" id="-62590">
		<tag k="fixme" v="consider place=hamlet" />
		<tag k="name" v="Svorstøl" />
		<tag k="place" v="farm" />
		<tag k="ssr:stedsnr" v="676240" />
	</node>
	<node lat="61.59338333722437" lon="5.863649991949006" id="-62592">
		<tag k="alt_name" v="Herstadstøl" />
		<tag k="historic" v="shieling" />
		<tag k="name" v="Herstadstølane" />
		<tag k="place" v="isolated_dwelling" />
		<tag k="ssr:stedsnr" v="676253" />
	</node>
	<node lat="61.51611736093776" lon="6.335952778043507" id="-62597">
		<tag k="fixme" v="consider place=hamlet" />
		<tag k="name" v="Åsen" />
		<tag k="place" v="farm" />
		<tag k="ssr:stedsnr" v="676863" />
	</node>
	<node lat="61.61564999633932" lon="6.46433612056705" id="-62600">
		<tag k="name" v="Indrebø" />
		<tag k="place" v="farm" />
		<tag k="ssr:stedsnr" v="677028" />
	</node>
	<node lat="61.506556136043216" lon="5.9862483897734515" id="-62601">
		<tag k="fixme" v="consider place=hamlet" />
		<tag k="name" v="Slåtten" />
		<tag k="place" v="farm" />
		<tag k="ssr:stedsnr" v="677147" />
	</node>
	<node lat="61.61390555348127" lon="6.621102786230697" id="-62608">
		<tag k="name" v="Bakke" />
		<tag k="place" v="farm" />
		<tag k="ssr:stedsnr" v="677847" />
	</node>
	<node lat="61.4985222260317" lon="5.822058334500854" id="-62613">
		<tag k="alt_name" v="Klopstadstølen" />
		<tag k="historic" v="shieling" />
		<tag k="name" v="Kloppstadstølen" />
		<tag k="place" v="isolated_dwelling" />
		<tag k="ssr:stedsnr" v="492718" />
	</node>
	<node lat="61.271525000855675" lon="5.820686110815377" id="-62618">
		<tag k="alt_name" v="Utigardstøl" />
		<tag k="historic" v="shieling" />
		<tag k="name" v="Utigardsstølen" />
		<tag k="place" v="isolated_dwelling" />
		<tag k="ssr:stedsnr" v="493204" />
	</node>
	<node lat="61.490201263850736" lon="5.504970073364196" id="-62627">
		<tag k="alt_name" v="Redalen, nedre;Redal nedre;Redal" />
		<tag k="fixme" v="consider place=hamlet" />
		<tag k="name" v="Nedre Redalen" />
		<tag k="place" v="farm" />
		<tag k="ssr:stedsnr" v="493502" />
	</node>
	<node lat="61.311788885456664" lon="5.984861107917224" id="-62629">
		<tag k="alt_name" v="Rørstadstølane" />
		<tag k="historic" v="shieling" />
		<tag k="name" v="Rørstadstølen" />
		<tag k="place" v="isolated_dwelling" />
		<tag k="ssr:stedsnr" v="493515" />
	</node>
	<node lat="61.324654484513836" lon="6.216286454059305" id="-62631">
		<tag k="fixme" v="consider place=hamlet" />
		<tag k="name" v="Lyngstad" />
		<tag k="place" v="farm" />
		<tag k="ssr:stedsnr" v="493524" />
	</node>
	<node lat="61.49060675982085" lon="6.059873065065245" id="-62633">
		<tag k="fixme" v="consider place=hamlet" />
		<tag k="name" v="Hjelmbrekka" />
		<tag k="place" v="farm" />
		<tag k="ssr:stedsnr" v="493267" />
	</node>
	<node lat="61.486834407683695" lon="6.034970540176315" id="-62635">
		<tag k="alt_name" v="Støfringstøylen" />
		<tag k="historic" v="shieling" />
		<tag k="name" v="Støvringsstøylen" />
		<tag k="place" v="isolated_dwelling" />
		<tag k="ssr:stedsnr" v="493278" />
	</node>
	<node lat="61.34960277943595" lon="6.07650554927088" id="-62639">
		<tag k="historic" v="shieling" />
		<tag k="name" v="Hatlestadstølen" />
		<tag k="place" v="isolated_dwelling" />
		<tag k="ssr:stedsnr" v="493470" />
	</node>
	<node lat="61.346243704120816" lon="6.094134059898667" id="-62640">
		<tag k="fixme" v="consider place=hamlet" />
		<tag k="name" v="Hatlestad" />
		<tag k="place" v="farm" />
		<tag k="ssr:stedsnr" v="493472" />
	</node>
	<node lat="61.350050000411635" lon="6.072500007941714" id="-62641">
		<tag k="historic" v="shieling" />
		<tag k="name" v="Hagestølen" />
		<tag k="place" v="isolated_dwelling" />
		<tag k="ssr:stedsnr" v="493474" />
	</node>
	<node lat="61.336130554978844" lon="6.284949998724607" id="-62649">
		<tag k="alt_name" v="Mjellsholten" />
		<tag k="name" v="Holtane" />
		<tag k="place" v="farm" />
		<tag k="ssr:stedsnr" v="493710" />
	</node>
	<node lat="61.35894107701487" lon="5.547753550028646" id="-62653">
		<tag k="fixme" v="multiple name tags, choose one and add the other to alt_name; consider place=hamlet" />
		<tag k="name" v="Setane;Fleten" />
		<tag k="place" v="farm" />
		<tag k="ssr:stedsnr" v="493904" />
	</node>
	<node lat="61.378462769978164" lon="5.701939941780244" id="-62655">
		<tag k="alt_name" v="Fauske;Fauske, nordre" />
		<tag k="fixme" v="consider place=hamlet" />
		<tag k="name" v="Nordre Fauske" />
		<tag k="place" v="farm" />
		<tag k="ssr:stedsnr" v="493919" />
	</node>
	<node lat="61.31716111058569" lon="6.252880547938427" id="-62658">
		<tag k="name" v="Langøyra" />
		<tag k="place" v="farm" />
		<tag k="ssr:stedsnr" v="493806" />
	</node>
	<node lat="61.4118833369679" lon="5.808622227155882" id="-62662">
		<tag k="historic" v="shieling" />
		<tag k="name" v="Espelandsstølen" />
		<tag k="place" v="isolated_dwelling" />
		<tag k="ssr:stedsnr" v="493828" />
	</node>
	<node lat="61.450691668210254" lon="5.58972777805075" id="-62664">
		<tag k="name" v="Mulanobba" />
		<tag k="place" v="locality" />
		<tag k="ssr:stedsnr" v="493870" />
	</node>
	<node lat="61.526006918277176" lon="6.209774412782782" id="-62678">
		<tag k="fixme" v="consider place=hamlet" />
		<tag k="name" v="Sårheim" />
		<tag k="place" v="farm" />
		<tag k="ssr:stedsnr" v="495164" />
	</node>
	<node lat="61.52623333771868" lon="5.894624994500327" id="-62682">
		<tag k="name" v="Salmundstølen" />
		<tag k="place" v="locality" />
		<tag k="ssr:stedsnr" v="495180" />
	</node>
	<node lat="61.444777780710574" lon="5.96851944352888" id="-62704">
		<tag k="historic" v="shieling" />
		<tag k="name" v="Fletestølen" />
		<tag k="place" v="isolated_dwelling" />
		<tag k="ssr:stedsnr" v="516867" />
	</node>
	<node lat="61.38107221895609" lon="6.214005554476513" id="-62722">
		<tag k="alt_name" v="Mossestadhaugstølen" />
		<tag k="historic" v="shieling" />
		<tag k="name" v="Mosstadhaugstølen" />
		<tag k="place" v="isolated_dwelling" />
		<tag k="ssr:stedsnr" v="519268" />
	</node>
	<node lat="61.517886110197594" lon="5.683927774527549" id="-62751">
		<tag k="name" v="Elvareinene" />
		<tag k="place" v="locality" />
		<tag k="ssr:stedsnr" v="528503" />
	</node>
	<node lat="61.552011115134505" lon="5.965130551491331" id="-62770">
		<tag k="name" v="Plassaselet" />
		<tag k="place" v="locality" />
		<tag k="ssr:stedsnr" v="529482" />
	</node>
	<node lat="61.50780833161468" lon="5.7393333410879" id="-62789">
		<tag k="name" v="Hjellelia" />
		<tag k="place" v="farm" />
		<tag k="ssr:stedsnr" v="687713" />
	</node>
	<node lat="61.50675277722053" lon="5.666738882291459" id="-62791">
		<tag k="historic" v="shieling" />
		<tag k="name" v="Kringlestølen" />
		<tag k="place" v="isolated_dwelling" />
		<tag k="ssr:stedsnr" v="687724" />
	</node>
	<node lat="61.4892310736644" lon="5.360017612473488" id="-62792">
		<tag k="fixme" v="consider place=hamlet" />
		<tag k="name" v="Apalset" />
		<tag k="place" v="farm" />
		<tag k="ssr:stedsnr" v="553007" />
	</node>
	<node lat="61.36159323082554" lon="5.658582386274191" id="-62795">
		<tag k="alt_name" v="Grønehaug" />
		<tag k="fixme" v="consider place=hamlet" />
		<tag k="name" v="Grønhaugen" />
		<tag k="place" v="farm" />
		<tag k="ssr:stedsnr" v="553020" />
	</node>
	<node lat="61.35414722500187" lon="5.626486102334291" id="-62796">
		<tag k="historic" v="shieling" />
		<tag k="name" v="Båtevikstølen" />
		<tag k="place" v="isolated_dwelling" />
		<tag k="ssr:stedsnr" v="553021" />
	</node>
	<node lat="61.436966665353765" lon="5.958650000249343" id="-62800">
		<tag k="name" v="Oppheim" />
		<tag k="place" v="farm" />
		<tag k="ssr:stedsnr" v="553316" />
	</node>
	<node lat="61.439086106921984" lon="5.960091665601743" id="-62801">
		<tag k="alt_name" v="Hellarskvia" />
		<tag k="name" v="Hellerskvia" />
		<tag k="place" v="farm" />
		<tag k="ssr:stedsnr" v="553317" />
	</node>
	<node lat="61.4382333342311" lon="5.896650001338802" id="-62802">
		<tag k="fixme" v="consider place=hamlet" />
		<tag k="name" v="Bruland" />
		<tag k="place" v="village" />
		<tag k="ssr:stedsnr" v="553322" />
	</node>
	<node lat="61.428413893032456" lon="5.971574991924403" id="-62805">
		<tag k="name" v="Kinnaneset" />
		<tag k="place" v="farm" />
		<tag k="ssr:stedsnr" v="553331" />
	</node>
	<node lat="61.4247833366551" lon="5.869869439365991" id="-62806">
		<tag k="alt_name" v="Brulandsstølen" />
		<tag k="historic" v="shieling" />
		<tag k="name" v="Brulandsstølane" />
		<tag k="place" v="isolated_dwelling" />
		<tag k="ssr:stedsnr" v="553333" />
	</node>
	<node lat="61.39808055148516" lon="5.453358337511676" id="-62807">
		<tag k="alt_name" v="Nedre Laukelandstølen;Laukelandsstølen, nedre" />
		<tag k="historic" v="shieling" />
		<tag k="name" v="Nedre Laukelandsstølen" />
		<tag k="place" v="isolated_dwelling" />
		<tag k="ssr:stedsnr" v="553207" />
	</node>
	<node lat="61.38377499574271" lon="5.8928166607062025" id="-62810">
		<tag k="alt_name" v="Masdalstølen" />
		<tag k="historic" v="shieling" />
		<tag k="name" v="Masdalsstølen" />
		<tag k="place" v="isolated_dwelling" />
		<tag k="ssr:stedsnr" v="553417" />
	</node>
	<node lat="61.31657876071457" lon="6.009396011611064" id="-62813">
		<tag k="fixme" v="consider place=hamlet" />
		<tag k="name" v="Rørstad" />
		<tag k="place" v="farm" />
		<tag k="ssr:stedsnr" v="553514" />
	</node>
	<node lat="61.32083322892729" lon="6.058550756164536" id="-62815">
		<tag k="fixme" v="consider place=hamlet" />
		<tag k="name" v="Sandane" />
		<tag k="place" v="farm" />
		<tag k="ssr:stedsnr" v="553536" />
	</node>
	<node lat="61.48516908875062" lon="5.624480091794702" id="-62820">
		<tag k="alt_name" v="Slettehaug" />
		<tag k="fixme" v="consider place=hamlet" />
		<tag k="name" v="Slettehaugen" />
		<tag k="place" v="farm" />
		<tag k="ssr:stedsnr" v="553739" />
	</node>
	<node lat="61.462841668372555" lon="5.5169722230424485" id="-62827">
		<tag k="name" v="Vatnebotnen" />
		<tag k="place" v="farm" />
		<tag k="ssr:stedsnr" v="553687" />
	</node>
	<node lat="61.43468332928038" lon="5.600033338073238" id="-62841">
		<tag k="name" v="Stølen" />
		<tag k="place" v="farm" />
		<tag k="ssr:stedsnr" v="553882" />
	</node>
	<node lat="61.4778902460888" lon="5.950392718307192" id="-62844">
		<tag k="alt_name" v="Kvamstad" />
		<tag k="name" v="Kvamsstad" />
		<tag k="place" v="farm" />
		<tag k="ssr:stedsnr" v="554312" />
	</node>
	<node lat="61.486724999861096" lon="6.154191674621992" id="-62845">
		<tag k="historic" v="shieling" />
		<tag k="name" v="Kjelsnesstøylen" />
		<tag k="place" v="isolated_dwelling" />
		<tag k="ssr:stedsnr" v="554316" />
	</node>
	<node lat="61.48053888832386" lon="5.9590000046424" id="-62851">
		<tag k="alt_name" v="Liabø" />
		<tag k="name" v="Liabøen" />
		<tag k="place" v="farm" />
		<tag k="ssr:stedsnr" v="554287" />
	</node>
	<node lat="61.610464921454906" lon="6.048692518088757" id="-62852">
		<tag k="fixme" v="consider place=hamlet" />
		<tag k="name" v="Vona" />
		<tag k="place" v="farm" />
		<tag k="ssr:stedsnr" v="554295" />
	</node>
	<node lat="61.54177291747516" lon="5.775526854411492" id="-62854">
		<tag k="fixme" v="consider place=hamlet" />
		<tag k="name" v="Horstad" />
		<tag k="place" v="farm" />
		<tag k="ssr:stedsnr" v="554484" />
	</node>
	<node lat="61.41048117725495" lon="6.270886223910801" id="-62856">
		<tag k="alt_name" v="Hårklau" />
		<tag k="name" v="Ytre Hårklau" />
		<tag k="place" v="farm" />
		<tag k="ssr:stedsnr" v="554680" />
	</node>
	<node lat="61.39080000019267" lon="5.502386104213428" id="-62859">
		<tag k="historic" v="shieling" />
		<tag k="name" v="Hestadstølen" />
		<tag k="place" v="isolated_dwelling" />
		<tag k="ssr:stedsnr" v="554808" />
	</node>
	<node lat="61.48913428295047" lon="5.706730418238268" id="-62866">
		<tag k="alt_name" v="Kråkeneset, yt;Ytre Kråkenes" />
		<tag k="fixme" v="consider place=hamlet" />
		<tag k="name" v="Ytre Kråkeneset" />
		<tag k="place" v="farm" />
		<tag k="ssr:stedsnr" v="554770" />
	</node>
	<node lat="61.492764543323844" lon="5.71068395867857" id="-62867">
		<tag k="alt_name" v="Indre Kråkenes;Kråkeneset, in" />
		<tag k="fixme" v="consider place=hamlet" />
		<tag k="name" v="Indre Kråkeneset" />
		<tag k="place" v="farm" />
		<tag k="ssr:stedsnr" v="554772" />
	</node>
	<node lat="61.57897509376278" lon="5.907879649902815" id="-62873">
		<tag k="fixme" v="consider place=hamlet" />
		<tag k="name" v="Sunde" />
		<tag k="place" v="farm" />
		<tag k="ssr:stedsnr" v="555183" />
	</node>
	<node lat="61.58303119976481" lon="6.491189279300123" id="-62874">
		<tag k="fixme" v="consider place=hamlet" />
		<tag k="name" v="Skrede" />
		<tag k="place" v="farm" />
		<tag k="ssr:stedsnr" v="555922" />
	</node>
	<node lat="61.570266663915795" lon="6.4714972139338585" id="-62875">
		<tag k="name" v="Fyglabakken" />
		<tag k="place" v="farm" />
		<tag k="ssr:stedsnr" v="555923" />
	</node>
	<node lat="61.576308334583445" lon="6.493041660875944" id="-62876">
		<tag k="name" v="Vika" />
		<tag k="place" v="farm" />
		<tag k="ssr:stedsnr" v="555940" />
	</node>
	<node lat="61.60935870836234" lon="6.620376279633077" id="-62882">
		<tag k="fixme" v="consider place=hamlet" />
		<tag k="name" v="Lyngstad" />
		<tag k="place" v="farm" />
		<tag k="ssr:stedsnr" v="688622" />
	</node>
	<node lat="61.51175555747017" lon="5.797586113526754" id="-62883">
		<tag k="historic" v="shieling" />
		<tag k="name" v="Einestølen" />
		<tag k="place" v="isolated_dwelling" />
		<tag k="ssr:stedsnr" v="565716" />
	</node>
	<node lat="61.501213887998084" lon="5.528844445889888" id="-62885">
		<tag k="historic" v="shieling" />
		<tag k="name" v="Vasstølen" />
		<tag k="place" v="isolated_dwelling" />
		<tag k="ssr:stedsnr" v="565724" />
	</node>
	<node lat="61.505138888562215" lon="6.03541388031765" id="-62914">
		<tag k="historic" v="shieling" />
		<tag k="name" v="Hjellbrekkestøylen" />
		<tag k="place" v="isolated_dwelling" />
		<tag k="ssr:stedsnr" v="578116" />
	</node>
	<node lat="61.614359407089914" lon="6.6232032692432465" id="-62923">
		<tag k="alt_name" v="Veitebergsbakke" />
		<tag k="fixme" v="consider place=hamlet" />
		<tag k="name" v="Veitebergsbakken" />
		<tag k="place" v="farm" />
		<tag k="ssr:stedsnr" v="578843" />
	</node>
	<node lat="61.42765833346814" lon="5.980594438861369" id="-62929">
		<tag k="historic" v="shieling" />
		<tag k="name" v="Stølen" />
		<tag k="place" v="isolated_dwelling" />
		<tag k="ssr:stedsnr" v="698842" />
	</node>
	<node lat="61.39852499639134" lon="5.694383330147449" id="-62936">
		<tag k="name" v="Gamlestølen" />
		<tag k="place" v="locality" />
		<tag k="ssr:stedsnr" v="583950" />
	</node>
	<node lat="61.5573694424525" lon="5.782822217625261" id="-62949">
		<tag k="name" v="Loftheim" />
		<tag k="place" v="farm" />
		<tag k="ssr:stedsnr" v="589554" />
	</node>
	<node lat="61.49060530297968" lon="5.751593218508652" id="-62966">
		<tag k="fixme" v="consider place=hamlet" />
		<tag k="name" v="Svinevik" />
		<tag k="place" v="farm" />
		<tag k="ssr:stedsnr" v="599858" />
	</node>
	<node lat="61.4487361071913" lon="5.847177770516114" id="-62981">
		<tag k="name" v="Nytun" />
		<tag k="place" v="quarter" />
		<tag k="ssr:stedsnr" v="699893" />
	</node>
	<node lat="61.342772222245884" lon="5.807958328924759" id="-63016">
		<tag k="alt_name" v="Skagestøl" />
		<tag k="historic" v="shieling" />
		<tag k="name" v="Skagestølen" />
		<tag k="place" v="isolated_dwelling" />
		<tag k="ssr:stedsnr" v="614051" />
	</node>
	<node lat="61.29545833212215" lon="5.731741665959564" id="-63021">
		<tag k="alt_name" v="Døskelandstøl" />
		<tag k="historic" v="shieling" />
		<tag k="name" v="Dysjelandsstølen" />
		<tag k="place" v="isolated_dwelling" />
		<tag k="ssr:stedsnr" v="614170" />
	</node>
	<node lat="61.441691233643915" lon="6.000408656407899" id="-63025">
		<tag k="amenity" v="cafe" />
		<tag k="name" v="Moskog" />
		<tag k="ssr:stedsnr" v="614353" />
	</node>
	<node lat="61.43071388582209" lon="5.983666664403433" id="-63028">
		<tag k="name" v="Moøyra" />
		<tag k="place" v="farm" />
		<tag k="ssr:stedsnr" v="614369" />
	</node>
	<node lat="61.552966302183115" lon="5.775335111256308" id="-63033">
		<tag k="fixme" v="consider place=hamlet" />
		<tag k="name" v="Solheim" />
		<tag k="place" v="farm" />
		<tag k="ssr:stedsnr" v="614461" />
	</node>
	<node lat="61.40440833040248" lon="6.23537777087942" id="-63039">
		<tag k="name" v="Rørvikstølen" />
		<tag k="place" v="locality" />
		<tag k="ssr:stedsnr" v="614654" />
	</node>
	<node lat="61.47156944742317" lon="5.838530555197027" id="-63040">
		<tag k="historic" v="shieling" />
		<tag k="name" v="Hornnesstølen" />
		<tag k="place" v="isolated_dwelling" />
		<tag k="ssr:stedsnr" v="614656" />
	</node>
	<node lat="61.336641669847936" lon="6.0873833264495225" id="-63046">
		<tag k="name" v="Kvamsneset" />
		<tag k="place" v="farm" />
		<tag k="ssr:stedsnr" v="614567" />
	</node>
	<node lat="61.476129469703274" lon="5.5987160345386195" id="-63051">
		<tag k="alt_name" v="Storelid" />
		<tag k="fixme" v="consider place=hamlet" />
		<tag k="name" v="Storelia" />
		<tag k="place" v="farm" />
		<tag k="ssr:stedsnr" v="614716" />
	</node>
	<node lat="61.33561160813189" lon="6.3405073072795" id="-63052">
		<tag k="alt_name" v="Eldals og Bratteteigs  stølane" />
		<tag k="historic" v="shieling" />
		<tag k="name" v="Bratteteigstølen" />
		<tag k="place" v="isolated_dwelling" />
		<tag k="ssr:stedsnr" v="614719" />
	</node>
	<node lat="61.4692222195551" lon="5.554166668069099" id="-63053">
		<tag k="alt_name" v="Helle, øvre;Øvre Hella" />
		<tag k="name" v="Øvre Helle" />
		<tag k="place" v="farm" />
		<tag k="ssr:stedsnr" v="614725" />
	</node>
	<node lat="61.398794642227955" lon="5.8151485523240645" id="-63066">
		<tag k="fixme" v="consider place=hamlet" />
		<tag k="name" v="Langeland" />
		<tag k="place" v="farm" />
		<tag k="ssr:stedsnr" v="615000" />
	</node>
	<node lat="61.57919166409384" lon="5.921422226290906" id="-63068">
		<tag k="name" v="Heimtun" />
		<tag k="place" v="farm" />
		<tag k="ssr:stedsnr" v="615204" />
	</node>
	<node lat="61.581927060561966" lon="5.863499120535629" id="-63070">
		<tag k="fixme" v="consider place=hamlet" />
		<tag k="name" v="Herstad" />
		<tag k="place" v="farm" />
		<tag k="ssr:stedsnr" v="615226" />
	</node>
	<node lat="61.60576944407311" lon="5.935138884335054" id="-63071">
		<tag k="alt_name" v="Teigastøl" />
		<tag k="historic" v="shieling" />
		<tag k="name" v="Teigastølen" />
		<tag k="place" v="isolated_dwelling" />
		<tag k="ssr:stedsnr" v="615246" />
	</node>
	<node lat="61.538562864655226" lon="6.244796718658709" id="-63077">
		<tag k="alt_name" v="Bø nedre" />
		<tag k="fixme" v="consider place=hamlet" />
		<tag k="name" v="Nedrebø" />
		<tag k="place" v="farm" />
		<tag k="ssr:stedsnr" v="615979" />
	</node>
	<node lat="61.5283499954976" lon="6.21875555028171" id="-63078">
		<tag k="name" v="Brattland" />
		<tag k="place" v="farm" />
		<tag k="ssr:stedsnr" v="615996" />
	</node>
	<node lat="61.415147219232765" lon="5.918366673307834" id="-63112">
		<tag k="name" v="Øyestad" />
		<tag k="place" v="farm" />
		<tag k="ssr:stedsnr" v="637929" />
	</node>
	<node lat="61.50883400032726" lon="6.272293537131838" id="-63123">
		<tag k="name" v="Midttunet" />
		<tag k="place" v="farm" />
		<tag k="ssr:stedsnr" v="638179" />
	</node>
	<node lat="61.504855558907614" lon="5.700558337474738" id="-63174">
		<tag k="name" v="Indre Mallasvika" />
		<tag k="place" v="farm" />
		<tag k="ssr:stedsnr" v="660653" />
	</node>
	<node lat="61.50457221779422" lon="5.378972220895537" id="-63178">
		<tag k="name" v="Tingnesstølen" />
		<tag k="place" v="locality" />
		<tag k="ssr:stedsnr" v="710363" />
	</node>
	<node lat="61.38079127044082" lon="5.45018069784624" id="-63183">
		<tag k="name" v="Husvika" />
		<tag k="place" v="farm" />
		<tag k="ssr:stedsnr" v="675147" />
	</node>
	<node lat="61.49283978287553" lon="5.462797022134472" id="-63185">
		<tag k="alt_name" v="Grytten" />
		<tag k="fixme" v="consider place=hamlet" />
		<tag k="loc_name" v="Gryten" />
		<tag k="name" v="Gryta" />
		<tag k="place" v="farm" />
		<tag k="ssr:stedsnr" v="675015" />
	</node>
	<node lat="61.34875277528336" lon="5.761097217079314" id="-63186">
		<tag k="alt_name" v="Sagehaug" />
		<tag k="name" v="Saghaugen" />
		<tag k="place" v="farm" />
		<tag k="ssr:stedsnr" v="675060" />
	</node>
	<node lat="61.505086110365006" lon="5.6273777741036985" id="-63194">
		<tag k="name" v="Areklettstølen" />
		<tag k="place" v="locality" />
		<tag k="ssr:stedsnr" v="675415" />
	</node>
	<node lat="61.409448370257444" lon="6.172829726929251" id="-63195">
		<tag k="name" v="Støa" />
		<tag k="place" v="locality" />
		<tag k="ssr:stedsnr" v="675420" />
	</node>
	<node lat="61.57185644227266" lon="5.816510417186887" id="-63198">
		<tag k="fixme" v="consider place=hamlet" />
		<tag k="name" v="Kalland" />
		<tag k="place" v="farm" />
		<tag k="ssr:stedsnr" v="675461" />
	</node>
	<node lat="61.33905833566966" lon="6.054111117520934" id="-63203">
		<tag k="historic" v="shieling" />
		<tag k="name" v="Nesstølen" />
		<tag k="place" v="isolated_dwelling" />
		<tag k="ssr:stedsnr" v="675512" />
	</node>
	<node lat="61.31937778101477" lon="5.860280554838783" id="-63207">
		<tag k="alt_name" v="Eikelandstøl" />
		<tag k="historic" v="shieling" />
		<tag k="name" v="Eikelandsstølen" />
		<tag k="place" v="isolated_dwelling" />
		<tag k="ssr:stedsnr" v="675561" />
	</node>
	<node lat="61.413144448633496" lon="6.252675000539998" id="-63208">
		<tag k="name" v="Teigastølen" />
		<tag k="place" v="locality" />
		<tag k="ssr:stedsnr" v="675647" />
	</node>
	<node lat="61.43386667079948" lon="6.3626194532455616" id="-63210">
		<tag k="alt_name" v="Gjerlandsstølen, yt" />
		<tag k="historic" v="shieling" />
		<tag k="name" v="Gjerlandsstølen" />
		<tag k="place" v="isolated_dwelling" />
		<tag k="ssr:stedsnr" v="675659" />
	</node>
	<node lat="61.39710555476912" lon="6.349105558294465" id="-63224">
		<tag k="historic" v="shieling" />
		<tag k="name" v="Årskogstølen" />
		<tag k="place" v="isolated_dwelling" />
		<tag k="ssr:stedsnr" v="675754" />
	</node>
	<node lat="61.38501090081339" lon="6.235598595399691" id="-63225">
		<tag k="fixme" v="consider place=hamlet" />
		<tag k="name" v="Solheim" />
		<tag k="place" v="farm" />
		<tag k="ssr:stedsnr" v="675756" />
	</node>
	<node lat="61.54736110849157" lon="6.458524998706037" id="-63241">
		<tag k="name" v="Vollen" />
		<tag k="place" v="farm" />
		<tag k="ssr:stedsnr" v="676982" />
	</node>
	<node lat="61.61592127490313" lon="6.721454172684553" id="-63247">
		<tag k="fixme" v="consider place=hamlet" />
		<tag k="name" v="Åmot" />
		<tag k="place" v="farm" />
		<tag k="ssr:stedsnr" v="677840" />
	</node>
	<node lat="61.5575583313226" lon="5.72611943689" id="-63263">
		<tag k="historic" v="shieling" />
		<tag k="name" v="Solheimsstølane" />
		<tag k="place" v="isolated_dwelling" />
		<tag k="ssr:stedsnr" v="687700" />
	</node>
	<node lat="61.52305555280885" lon="6.114274995927281" id="-63315">
		<tag k="historic" v="shieling" />
		<tag k="name" v="Ytre Svidalsstøylen" />
		<tag k="place" v="isolated_dwelling" />
		<tag k="ssr:stedsnr" v="700183" />
	</node>
	<node lat="61.36090833303153" lon="6.143725003386293" id="-63320">
		<tag k="alt_name" v="Hetleøen" />
		<tag k="name" v="Hetløyane" />
		<tag k="place" v="farm" />
		<tag k="ssr:stedsnr" v="701007" />
	</node>
	<node lat="61.37476111127651" lon="6.215430563518234" id="-63322">
		<tag k="historic" v="shieling" />
		<tag k="name" v="Vallestadstølane" />
		<tag k="place" v="isolated_dwelling" />
		<tag k="ssr:stedsnr" v="701365" />
	</node>
	<node lat="61.57384444489675" lon="6.000058340614054" id="-63334">
		<tag k="name" v="Øyjordstølen" />
		<tag k="place" v="locality" />
		<tag k="ssr:stedsnr" v="705431" />
	</node>
	<node lat="61.614394731948764" lon="6.682636813894693" id="-63360">
		<tag k="fixme" v="consider place=hamlet" />
		<tag k="name" v="Øygarden" />
		<tag k="place" v="farm" />
		<tag k="ssr:stedsnr" v="735307" />
	</node>
	<node lat="61.46419999640865" lon="5.905138894782664" id="-63362">
		<tag k="name" v="Bergstad" />
		<tag k="place" v="farm" />
		<tag k="ssr:stedsnr" v="735315" />
	</node>
	<node lat="61.413674998511524" lon="6.161711109511915" id="-63366">
		<tag k="name" v="Vika" />
		<tag k="place" v="farm" />
		<tag k="ssr:stedsnr" v="735392" />
	</node>
	<node lat="61.32837500265177" lon="6.19493611825974" id="-63370">
		<tag k="name" v="Nybø" />
		<tag k="place" v="farm" />
		<tag k="ssr:stedsnr" v="735514" />
	</node>
	<node lat="61.393580555152376" lon="5.898980559801857" id="-63371">
		<tag k="alt_name" v="Ullebuststølen" />
		<tag k="historic" v="shieling" />
		<tag k="name" v="Ullebostølen" />
		<tag k="place" v="isolated_dwelling" />
		<tag k="ssr:stedsnr" v="735403" />
	</node>
	<node lat="61.32503611207391" lon="5.957761105820233" id="-63373">
		<tag k="name" v="Fredheim" />
		<tag k="place" v="farm" />
		<tag k="ssr:stedsnr" v="735476" />
	</node>
	<node lat="61.464850003804045" lon="5.803727784068641" id="-63378">
		<tag k="alt_name" v="Gravdalen, yt" />
		<tag k="name" v="Ytre Gravdalen" />
		<tag k="place" v="farm" />
		<tag k="ssr:stedsnr" v="735623" />
	</node>
	<node lat="61.37200917587594" lon="6.236947669084628" id="-63381">
		<tag k="fixme" v="consider place=hamlet" />
		<tag k="name" v="Mosstad" />
		<tag k="place" v="farm" />
		<tag k="ssr:stedsnr" v="735704" />
	</node>
	<node lat="61.32492777723626" lon="5.765802775440373" id="-63395">
		<tag k="name" v="Myrane" />
		<tag k="place" v="farm" />
		<tag k="ssr:stedsnr" v="736124" />
	</node>
	<node lat="61.493931170310525" lon="5.984500974276893" id="-63398">
		<tag k="fixme" v="consider place=hamlet" />
		<tag k="name" v="Grimeland" />
		<tag k="place" v="farm" />
		<tag k="ssr:stedsnr" v="736270" />
	</node>
	<node lat="61.49467777577868" lon="6.03600000943267" id="-63399">
		<tag k="alt_name" v="Dalestøylane" />
		<tag k="historic" v="shieling" />
		<tag k="name" v="Dalestøylen" />
		<tag k="place" v="isolated_dwelling" />
		<tag k="ssr:stedsnr" v="736271" />
	</node>
	<node lat="61.4966478526058" lon="6.151316696509649" id="-63401">
		<tag k="alt_name" v="Kjelsnes" />
		<tag k="fixme" v="consider place=hamlet" />
		<tag k="name" v="Kjelsneset" />
		<tag k="place" v="farm" />
		<tag k="ssr:stedsnr" v="736290" />
	</node>
	<node lat="61.53117596485896" lon="5.755312898151954" id="-63402">
		<tag k="fixme" v="consider place=hamlet" />
		<tag k="name" v="Hukset" />
		<tag k="place" v="farm" />
		<tag k="ssr:stedsnr" v="736414" />
	</node>
	<node lat="61.383786115454384" lon="6.137566661790451" id="-63404">
		<tag k="historic" v="shieling" />
		<tag k="name" v="Haugastølen" />
		<tag k="place" v="isolated_dwelling" />
		<tag k="ssr:stedsnr" v="736423" />
	</node>
	<node lat="61.52342027252899" lon="5.804970854114044" id="-63405">
		<tag k="fixme" v="consider place=hamlet" />
		<tag k="name" v="Byrkjelia" />
		<tag k="place" v="farm" />
		<tag k="ssr:stedsnr" v="736426" />
	</node>
	<node lat="61.50753611443069" lon="5.569233333023236" id="-63408">
		<tag k="historic" v="shieling" />
		<tag k="name" v="Skitnestølen" />
		<tag k="place" v="isolated_dwelling" />
		<tag k="ssr:stedsnr" v="736369" />
	</node>
	<node lat="61.41608147804" lon="6.38720558276829" id="-63414">
		<tag k="fixme" v="consider place=hamlet" />
		<tag k="name" v="Frøysland" />
		<tag k="place" v="farm" />
		<tag k="ssr:stedsnr" v="736617" />
	</node>
	<node lat="61.4711706214125" lon="5.792130166651153" id="-63415">
		<tag k="alt_name" v="Kirketeig" />
		<tag k="fixme" v="consider place=hamlet" />
		<tag k="name" v="Kyrkjeteigen" />
		<tag k="place" v="farm" />
		<tag k="ssr:stedsnr" v="736663" />
	</node>
	<node lat="61.46286984360026" lon="5.508313532711401" id="-63418">
		<tag k="fixme" v="consider place=hamlet" />
		<tag k="name" v="Vatne" />
		<tag k="place" v="farm" />
		<tag k="ssr:stedsnr" v="736680" />
	</node>
	<node lat="61.46688889044487" lon="5.5489222275627315" id="-63419">
		<tag k="alt_name" v="Helle, nedre;Nedre Hella" />
		<tag k="name" v="Nedre Helle" />
		<tag k="place" v="farm" />
		<tag k="ssr:stedsnr" v="736682" />
	</node>
	<node lat="61.323852781085016" lon="6.23119443593862" id="-63427">
		<tag k="name" v="Lyngstadbotnen" />
		<tag k="place" v="farm" />
		<tag k="ssr:stedsnr" v="736727" />
	</node>
	<node lat="61.47025277497791" lon="5.500794438471965" id="-63428">
		<tag k="historic" v="shieling" />
		<tag k="name" v="Vatnestølen" />
		<tag k="place" v="isolated_dwelling" />
		<tag k="ssr:stedsnr" v="736729" />
	</node>
	<node lat="61.38003611454335" lon="5.63526944355159" id="-63430">
		<tag k="name" v="Øyra" />
		<tag k="place" v="farm" />
		<tag k="ssr:stedsnr" v="736912" />
	</node>
	<node lat="61.37789775264459" lon="5.659484895369915" id="-63431">
		<tag k="alt_name" v="Eide;Eidet" />
		<tag k="fixme" v="consider place=hamlet" />
		<tag k="name" v="Eida" />
		<tag k="place" v="farm" />
		<tag k="ssr:stedsnr" v="736913" />
	</node>
	<node lat="61.525727774799506" lon="5.88304722006193" id="-63437">
		<tag k="alt_name" v="Sollidstølen" />
		<tag k="name" v="Sollistølen" />
		<tag k="place" v="locality" />
		<tag k="ssr:stedsnr" v="737170" />
	</node>
	<node lat="61.5214999971623" lon="5.878222216142808" id="-63438">
		<tag k="historic" v="shieling" />
		<tag k="name" v="Åsestølane" />
		<tag k="place" v="isolated_dwelling" />
		<tag k="ssr:stedsnr" v="737171" />
	</node>
	<node lat="61.555027776980545" lon="5.865527772687327" id="-63442">
		<tag k="historic" v="shieling" />
		<tag k="name" v="Kallandsstølane" />
		<tag k="place" v="isolated_dwelling" />
		<tag k="ssr:stedsnr" v="737182" />
	</node>
	<node lat="61.5768700605398" lon="5.851201619294359" id="-63447">
		<tag k="fixme" v="consider place=hamlet" />
		<tag k="name" v="Byrkjeland" />
		<tag k="place" v="farm" />
		<tag k="ssr:stedsnr" v="737704" />
	</node>
	<node lat="61.631468840419245" lon="6.6358547129819065" id="-63449">
		<tag k="historic" v="shieling" />
		<tag k="name" v="Gunnastøylen" />
		<tag k="place" v="isolated_dwelling" />
		<tag k="ssr:stedsnr" v="737822" />
	</node>
	<node lat="61.58854166579766" lon="6.640708327359572" id="-63451">
		<tag k="historic" v="shieling" />
		<tag k="name" v="Flatjordstøylen" />
		<tag k="place" v="isolated_dwelling" />
		<tag k="ssr:stedsnr" v="737855" />
	</node>
	<node lat="61.52477566983895" lon="6.614243296405226" id="-63453">
		<tag k="fixme" v="consider place=hamlet" />
		<tag k="name" v="Ripe" />
		<tag k="place" v="farm" />
		<tag k="ssr:stedsnr" v="737865" />
	</node>
	<node lat="61.54478044303378" lon="6.429628605043383" id="-63460">
		<tag k="fixme" v="consider place=hamlet" />
		<tag k="name" v="Dvergsdalen" />
		<tag k="place" v="farm" />
		<tag k="ssr:stedsnr" v="737980" />
	</node>
	<node lat="61.57787500440916" lon="6.353744448383425" id="-63461">
		<tag k="historic" v="shieling" />
		<tag k="name" v="Fjellstøylen" />
		<tag k="place" v="isolated_dwelling" />
		<tag k="ssr:stedsnr" v="738006" />
	</node>
	<node lat="61.50323611186623" lon="5.850552780629236" id="-63464">
		<tag k="historic" v="shieling" />
		<tag k="name" v="Fossastølen" />
		<tag k="place" v="isolated_dwelling" />
		<tag k="ssr:stedsnr" v="738158" />
	</node>
	<node lat="61.32471110850846" lon="5.796661104807364" id="-63466">
		<tag k="alt_name" v="Steia" />
		<tag k="name" v="Sande prestegard" />
		<tag k="place" v="farm" />
		<tag k="ssr:stedsnr" v="748482" />
	</node>
	<node lat="61.46062499653234" lon="6.001252785696583" id="-63467">
		<tag k="historic" v="shieling" />
		<tag k="name" v="Gamlestøylsmyra" />
		<tag k="place" v="isolated_dwelling" />
		<tag k="ssr:stedsnr" v="748809" />
	</node>
	<node lat="61.33495786951375" lon="5.939169594153053" id="-63468">
		<tag k="fixme" v="consider place=hamlet" />
		<tag k="name" v="Hestad" />
		<tag k="place" v="farm" />
		<tag k="ssr:stedsnr" v="756808" />
	</node>
	<node lat="61.311230559786864" lon="6.1948000044544855" id="-63519">
		<tag k="alt_name" v="Oppedalsstøl Ytre;Ytre Oppedalsstøl" />
		<tag k="historic" v="shieling" />
		<tag k="name" v="Ytre Oppedalsstølen" />
		<tag k="place" v="isolated_dwelling" />
		<tag k="ssr:stedsnr" v="764922" />
	</node>
	<node lat="61.47688333257575" lon="5.56778888326799" id="-63530">
		<tag k="name" v="Gamlestølen" />
		<tag k="place" v="locality" />
		<tag k="ssr:stedsnr" v="918759" />
	</node>
	<node lat="61.359425002262256" lon="5.6659555588336925" id="-63551">
		<tag k="alt_name" v="Setter" />
		<tag k="name" v="Sæter" />
		<tag k="place" v="farm" />
		<tag k="ssr:stedsnr" v="796021" />
	</node>
	<node lat="61.33397008747658" lon="5.8235370662653425" id="-63552">
		<tag k="fixme" v="consider place=hamlet" />
		<tag k="name" v="Grøvlebakken" />
		<tag k="place" v="farm" />
		<tag k="ssr:stedsnr" v="796068" />
	</node>
	<node lat="61.31954444624624" lon="5.658941674540948" id="-63553">
		<tag k="alt_name" v="Sygnestølen, nedre;Sygnestølen" />
		<tag k="historic" v="shieling" />
		<tag k="name" v="Nedre Sygnestølen" />
		<tag k="place" v="isolated_dwelling" />
		<tag k="ssr:stedsnr" v="796111" />
	</node>
	<node lat="61.320843339786116" lon="5.717477518560493" id="-63554">
		<tag k="alt_name" v="Årøy" />
		<tag k="fixme" v="consider place=hamlet" />
		<tag k="name" v="Årøyane" />
		<tag k="place" v="farm" />
		<tag k="ssr:stedsnr" v="796114" />
	</node>
	<node lat="61.46640281998869" lon="5.913899266937168" id="-63558">
		<tag k="fixme" v="consider place=hamlet" />
		<tag k="name" v="Hjelle" />
		<tag k="place" v="farm" />
		<tag k="ssr:stedsnr" v="796308" />
	</node>
	<node lat="61.318172504654186" lon="6.21358199927221" id="-63563">
		<tag k="alt_name" v="Oppedal Ytre;Oppedal Indre" />
		<tag k="fixme" v="consider place=hamlet" />
		<tag k="name" v="Oppedal" />
		<tag k="place" v="farm" />
		<tag k="ssr:stedsnr" v="796516" />
	</node>
	<node lat="61.454722222352785" lon="5.707100006919544" id="-63565">
		<tag k="alt_name" v="Søre-Fauskestøl;Fauskestølen, s" />
		<tag k="historic" v="shieling" />
		<tag k="name" v="Søre Fauskestølen" />
		<tag k="place" v="isolated_dwelling" />
		<tag k="ssr:stedsnr" v="796627" />
	</node>
	<node lat="61.46518679940709" lon="5.505129922570149" id="-63568">
		<tag k="fixme" v="consider place=hamlet" />
		<tag k="name" v="Vatnelia" />
		<tag k="old_name" v="Matslia" />
		<tag k="place" v="farm" />
		<tag k="ssr:stedsnr" v="796663" />
	</node>
	<node lat="61.479805380677995" lon="5.795543050917024" id="-63570">
		<tag k="name" v="Nesbø" />
		<tag k="place" v="farm" />
		<tag k="ssr:stedsnr" v="796672" />
	</node>
	<node lat="61.48825555981011" lon="6.254902785039448" id="-63571">
		<tag k="alt_name" v="Øvre Sandalstøylane" />
		<tag k="historic" v="shieling" />
		<tag k="name" v="Ytre Sanddalsstøylen" />
		<tag k="place" v="isolated_dwelling" />
		<tag k="ssr:stedsnr" v="796674" />
	</node>
	<node lat="61.44022221859154" lon="5.653758324988778" id="-63573">
		<tag k="name" v="Øygarden" />
		<tag k="place" v="farm" />
		<tag k="ssr:stedsnr" v="796827" />
	</node>
	<node lat="61.352791669439895" lon="6.3164722198351" id="-63576">
		<tag k="historic" v="shieling" />
		<tag k="name" v="Mjellsstølen" />
		<tag k="place" v="isolated_dwelling" />
		<tag k="ssr:stedsnr" v="796712" />
	</node>
	<node lat="61.482533331975084" lon="5.767524993782465" id="-63577">
		<tag k="name" v="Indrebotnen" />
		<tag k="place" v="farm" />
		<tag k="ssr:stedsnr" v="796719" />
	</node>
	<node lat="61.385238073327486" lon="5.718757514834061" id="-63578">
		<tag k="alt_name" v="Hjelmeland, yt" />
		<tag k="fixme" v="consider place=hamlet" />
		<tag k="name" v="Ytre Hjelmeland" />
		<tag k="place" v="farm" />
		<tag k="ssr:stedsnr" v="796951" />
	</node>
	<node lat="61.30554444674653" lon="5.788727786283854" id="-63584">
		<tag k="name" v="Nybø" />
		<tag k="place" v="farm" />
		<tag k="ssr:stedsnr" v="797101" />
	</node>
	<node lat="61.35016944868078" lon="5.67027223101768" id="-63587">
		<tag k="historic" v="shieling" />
		<tag k="name" v="Osstølen" />
		<tag k="place" v="isolated_dwelling" />
		<tag k="ssr:stedsnr" v="797064" />
	</node>
	<node lat="61.431966669115724" lon="6.122066664352715" id="-63591">
		<tag k="alt_name" v="Ytreflet-stølen" />
		<tag k="historic" v="shieling" />
		<tag k="name" v="Fletestølen" />
		<tag k="place" v="isolated_dwelling" />
		<tag k="ssr:stedsnr" v="797353" />
	</node>
	<node lat="61.327854956575244" lon="5.84038653305546" id="-63594">
		<tag k="alt_name" v="Hauken" />
		<tag k="fixme" v="consider place=hamlet" />
		<tag k="name" v="Hauka" />
		<tag k="place" v="farm" />
		<tag k="ssr:stedsnr" v="797509" />
	</node>
	<node lat="61.49305179007381" lon="5.54582891601843" id="-63595">
		<tag k="alt_name" v="Redalen, øvre;Redalen;Redal øvre;Øvre Redal" />
		<tag k="fixme" v="consider place=hamlet" />
		<tag k="name" v="Øvre Redalen" />
		<tag k="place" v="farm" />
		<tag k="ssr:stedsnr" v="797517" />
	</node>
	<node lat="61.49875833581952" lon="5.794905557715686" id="-63600">
		<tag k="name" v="Haslelia" />
		<tag k="place" v="farm" />
		<tag k="ssr:stedsnr" v="797748" />
	</node>
	<node lat="61.490832729159116" lon="5.75163031472258" id="-63601">
		<tag k="name" v="Svinevikhaugen" />
		<tag k="place" v="farm" />
		<tag k="ssr:stedsnr" v="797749" />
	</node>
	<node lat="61.319367869049195" lon="6.236640476136575" id="-63604">
		<tag k="fixme" v="consider place=hamlet" />
		<tag k="name" v="Gjermundstad" />
		<tag k="place" v="farm" />
		<tag k="ssr:stedsnr" v="797796" />
	</node>
	<node lat="61.369757176423825" lon="5.632189962080609" id="-63605">
		<tag k="alt_name" v="Båtevik;Båtvik" />
		<tag k="fixme" v="consider place=hamlet" />
		<tag k="name" v="Båtevika" />
		<tag k="place" v="farm" />
		<tag k="ssr:stedsnr" v="797905" />
	</node>
	<node lat="61.380586114291006" lon="5.666622220006466" id="-63606">
		<tag k="name" v="Reita" />
		<tag k="place" v="farm" />
		<tag k="ssr:stedsnr" v="797908" />
	</node>
	<node lat="61.47115832937681" lon="5.83993611897396" id="-63609">
		<tag k="historic" v="shieling" />
		<tag k="name" v="Strandastølen" />
		<tag k="place" v="isolated_dwelling" />
		<tag k="ssr:stedsnr" v="797648" />
	</node>
	<node lat="61.60465555343812" lon="5.929549992928344" id="-63618">
		<tag k="historic" v="shieling" />
		<tag k="name" v="Slettemarkstølen" />
		<tag k="place" v="isolated_dwelling" />
		<tag k="ssr:stedsnr" v="798249" />
	</node>
	<node lat="61.530138891292474" lon="5.9851222266902315" id="-63620">
		<tag k="name" v="Eikelandsstølen" />
		<tag k="place" v="locality" />
		<tag k="ssr:stedsnr" v="798147" />
	</node>
	<node lat="61.58016111450128" lon="5.767855550423838" id="-63624">
		<tag k="name" v="Liastølen" />
		<tag k="place" v="locality" />
		<tag k="ssr:stedsnr" v="798449" />
	</node>
	<node lat="61.61002671284064" lon="6.583454582446442" id="-63628">
		<tag k="fixme" v="consider place=hamlet" />
		<tag k="name" v="Heggheim" />
		<tag k="place" v="farm" />
		<tag k="ssr:stedsnr" v="799016" />
	</node>
	<node lat="61.61085000009732" lon="6.431249990628531" id="-63630">
		<tag k="name" v="Nydalsstøylen" />
		<tag k="place" v="locality" />
		<tag k="ssr:stedsnr" v="799020" />
	</node>
	<node lat="61.519038891141335" lon="5.759236107755077" id="-63638">
		<tag k="name" v="Bjørndalen" />
		<tag k="place" v="farm" />
		<tag k="ssr:stedsnr" v="799738" />
	</node>
	<node lat="61.48039722256403" lon="5.716958338936889" id="-63639">
		<tag k="alt_name" v="Nedre Kråkenesstølen" />
		<tag k="historic" v="shieling" />
		<tag k="name" v="Nedrestølen" />
		<tag k="place" v="isolated_dwelling" />
		<tag k="ssr:stedsnr" v="917691" />
	</node>
	<node lat="61.34662228450833" lon="5.749706197677332" id="-63645">
		<tag k="alt_name" v="Hatlebrekke" />
		<tag k="fixme" v="consider place=hamlet" />
		<tag k="name" v="Hatlebrekka" />
		<tag k="place" v="farm" />
		<tag k="ssr:stedsnr" v="918038" />
	</node>
	<node lat="61.34151111406707" lon="5.606633334212638" id="-63646">
		<tag k="historic" v="shieling" />
		<tag k="name" v="Hellestølen" />
		<tag k="place" v="isolated_dwelling" />
		<tag k="ssr:stedsnr" v="918043" />
	</node>
	<node lat="61.34892499806836" lon="6.1843361037948625" id="-63648">
		<tag k="historic" v="shieling" />
		<tag k="name" v="Tuftestølen" />
		<tag k="place" v="isolated_dwelling" />
		<tag k="ssr:stedsnr" v="917446" />
	</node>
	<node lat="61.347644403033854" lon="6.103640127172851" id="-63649">
		<tag k="fixme" v="consider place=hamlet" />
		<tag k="name" v="Hage" />
		<tag k="place" v="farm" />
		<tag k="ssr:stedsnr" v="917450" />
	</node>
	<node lat="61.33447371336296" lon="5.929211739702428" id="-63651">
		<tag k="name" v="Hestad" />
		<tag k="place" v="farm" />
		<tag k="ssr:stedsnr" v="917456" />
	</node>
	<node lat="61.44175277440431" lon="5.567694438080721" id="-63652">
		<tag k="name" v="Skjeret" />
		<tag k="place" v="isolated_dwelling" />
		<tag k="ssr:stedsnr" v="917850" />
	</node>
	<node lat="61.368896206703944" lon="5.680402075292456" id="-63654">
		<tag k="alt_name" v="Lervik" />
		<tag k="fixme" v="consider place=hamlet" />
		<tag k="name" v="Leirvika" />
		<tag k="place" v="farm" />
		<tag k="ssr:stedsnr" v="917884" />
	</node>
	<node lat="61.624827779222535" lon="6.000402783992375" id="-63655">
		<tag k="historic" v="shieling" />
		<tag k="name" v="Svostølen" />
		<tag k="place" v="isolated_dwelling" />
		<tag k="ssr:stedsnr" v="809489" />
	</node>
	<node lat="61.57321303898413" lon="5.879632961438722" id="-63656">
		<tag k="fixme" v="consider place=hamlet" />
		<tag k="name" v="Heia" />
		<tag k="place" v="farm" />
		<tag k="ssr:stedsnr" v="809490" />
	</node>
	<node lat="61.391544440503985" lon="5.598355564161082" id="-63662">
		<tag k="alt_name" v="Nymarka" />
		<tag k="name" v="Nyemarka" />
		<tag k="place" v="locality" />
		<tag k="ssr:stedsnr" v="917985" />
	</node>
	<node lat="61.34666944514692" lon="5.722583326232673" id="-63663">
		<tag k="name" v="Bjørkelund" />
		<tag k="place" v="farm" />
		<tag k="ssr:stedsnr" v="918052" />
	</node>
	<node lat="61.35211944241103" lon="5.695008334809617" id="-63668">
		<tag k="alt_name" v="Korsvollstøl" />
		<tag k="historic" v="shieling" />
		<tag k="name" v="Korsvollstølen" />
		<tag k="place" v="isolated_dwelling" />
		<tag k="ssr:stedsnr" v="918067" />
	</node>
	<node lat="61.33433402355719" lon="5.74265478374704" id="-63670">
		<tag k="fixme" v="consider place=hamlet" />
		<tag k="name" v="Sygnebotnen" />
		<tag k="place" v="farm" />
		<tag k="ssr:stedsnr" v="918084" />
	</node>
	<node lat="61.48998055791893" lon="6.1339555612244965" id="-63677">
		<tag k="name" v="Garden" />
		<tag k="old_name" v="Gurden" />
		<tag k="place" v="farm" />
		<tag k="ssr:stedsnr" v="918332" />
	</node>
	<node lat="61.47311294603244" lon="6.050881799825987" id="-63683">
		<tag k="alt_name" v="Støfringshaug" />
		<tag k="fixme" v="consider place=hamlet" />
		<tag k="name" v="Støvring" />
		<tag k="place" v="farm" />
		<tag k="ssr:stedsnr" v="918357" />
	</node>
	<node lat="61.43547499988371" lon="5.921738894678809" id="-63684">
		<tag k="name" v="Berget" />
		<tag k="place" v="farm" />
		<tag k="ssr:stedsnr" v="918378" />
	</node>
	<node lat="61.44230832941558" lon="5.971375008838462" id="-63686">
		<tag k="alt_name" v="Mofleten" />
		<tag k="name" v="Mofletene" />
		<tag k="place" v="farm" />
		<tag k="ssr:stedsnr" v="918392" />
	</node>
	<node lat="61.4243993751509" lon="5.966883536239755" id="-63687">
		<tag k="alt_name" v="Li" />
		<tag k="fixme" v="consider place=hamlet" />
		<tag k="name" v="Lia" />
		<tag k="place" v="farm" />
		<tag k="ssr:stedsnr" v="918394" />
	</node>
	<node lat="61.41448055592082" lon="6.175030561571651" id="-63689">
		<tag k="name" v="Annestølen" />
		<tag k="place" v="locality" />
		<tag k="ssr:stedsnr" v="918455" />
	</node>
	<node lat="61.38783055883147" lon="6.0706999996050195" id="-63696">
		<tag k="alt_name" v="Nydalsstølen" />
		<tag k="historic" v="shieling" />
		<tag k="name" v="Nyddalsstølen" />
		<tag k="place" v="isolated_dwelling" />
		<tag k="ssr:stedsnr" v="918487" />
	</node>
	<node lat="61.52405022823509" lon="5.748361234852051" id="-63697">
		<tag k="fixme" v="consider place=hamlet" />
		<tag k="name" v="Grimset" />
		<tag k="place" v="farm" />
		<tag k="ssr:stedsnr" v="918491" />
	</node>
	<node lat="61.32508806563559" lon="6.080469423055917" id="-63708">
		<tag k="fixme" v="consider place=hamlet" />
		<tag k="name" v="Tormodset" />
		<tag k="place" v="farm" />
		<tag k="ssr:stedsnr" v="918592" />
	</node>
	<node lat="61.38654408549234" lon="5.7603427279014685" id="-63711">
		<tag k="fixme" v="consider place=hamlet" />
		<tag k="name" v="Bringeland" />
		<tag k="place" v="farm" />
		<tag k="ssr:stedsnr" v="918600" />
	</node>
	<node lat="61.33771156463963" lon="6.077945373466975" id="-63714">
		<tag k="alt_name" v="Kvamen" />
		<tag k="fixme" v="consider place=hamlet" />
		<tag k="name" v="Kvammen" />
		<tag k="place" v="farm" />
		<tag k="ssr:stedsnr" v="918615" />
	</node>
	<node lat="61.51731866263149" lon="5.800094640347838" id="-63717">
		<tag k="fixme" v="consider place=hamlet" />
		<tag k="name" v="Espe" />
		<tag k="place" v="farm" />
		<tag k="ssr:stedsnr" v="918429" />
	</node>
	<node lat="61.510924996269154" lon="5.612469438937976" id="-63718">
		<tag k="historic" v="shieling" />
		<tag k="name" v="Frammarsvikstølen" />
		<tag k="place" v="isolated_dwelling" />
		<tag k="ssr:stedsnr" v="918432" />
	</node>
	<node lat="61.41911389271029" lon="6.156066661047084" id="-63720">
		<tag k="fixme" v="consider place=hamlet" />
		<tag k="name" v="Holsen" />
		<tag k="place" v="village" />
		<tag k="ssr:stedsnr" v="918434" />
	</node>
	<node lat="61.40501666380318" lon="5.9245500043663935" id="-63721">
		<tag k="name" v="Betnene" />
		<tag k="place" v="locality" />
		<tag k="ssr:stedsnr" v="918441" />
	</node>
	<node lat="61.45964166362613" lon="5.470569436959078" id="-63723">
		<tag k="alt_name" v="Skjerli" />
		<tag k="name" v="Kuneset" />
		<tag k="place" v="farm" />
		<tag k="ssr:stedsnr" v="918737" />
	</node>
	<node lat="61.47803332965076" lon="6.260236109985597" id="-63725">
		<tag k="name" v="Gamlestøylen" />
		<tag k="place" v="locality" />
		<tag k="ssr:stedsnr" v="918744" />
	</node>
	<node lat="61.39187221895204" lon="5.556738892659834" id="-63733">
		<tag k="alt_name" v="Bergestølen" />
		<tag k="historic" v="shieling" />
		<tag k="name" v="Bergsstølen" />
		<tag k="place" v="isolated_dwelling" />
		<tag k="ssr:stedsnr" v="918835" />
	</node>
	<node lat="61.43606111343589" lon="5.612333336431645" id="-63740">
		<tag k="name" v="Mulastølen" />
		<tag k="place" v="locality" />
		<tag k="ssr:stedsnr" v="918892" />
	</node>
	<node lat="61.43352500292889" lon="5.617363885703074" id="-63741">
		<tag k="name" v="Ospelia" />
		<tag k="place" v="farm" />
		<tag k="ssr:stedsnr" v="918895" />
	</node>
	<node lat="61.39686389160945" lon="5.691086112400467" id="-63743">
		<tag k="historic" v="shieling" />
		<tag k="name" v="Liastølen" />
		<tag k="place" v="isolated_dwelling" />
		<tag k="ssr:stedsnr" v="918978" />
	</node>
	<node lat="61.37876944693076" lon="5.790950007163005" id="-63746">
		<tag k="name" v="Espelandsdalen" />
		<tag k="place" v="farm" />
		<tag k="ssr:stedsnr" v="918944" />
	</node>
	<node lat="61.58511388927098" lon="6.038030550989059" id="-63748">
		<tag k="historic" v="shieling" />
		<tag k="name" v="Gardastølane" />
		<tag k="place" v="isolated_dwelling" />
		<tag k="ssr:stedsnr" v="919217" />
	</node>
	<node lat="61.59856084165555" lon="5.991934191629688" id="-63749">
		<tag k="fixme" v="consider place=hamlet" />
		<tag k="name" v="Nes" />
		<tag k="place" v="farm" />
		<tag k="ssr:stedsnr" v="919227" />
	</node>
	<node lat="61.58595213715462" lon="5.91285675569758" id="-63751">
		<tag k="fixme" v="consider place=hamlet" />
		<tag k="name" v="Savland" />
		<tag k="place" v="farm" />
		<tag k="ssr:stedsnr" v="919237" />
	</node>
	<node lat="61.591799350858714" lon="5.945875434932867" id="-63752">
		<tag k="fixme" v="consider place=hamlet" />
		<tag k="name" v="Teigen" />
		<tag k="place" v="farm" />
		<tag k="ssr:stedsnr" v="919238" />
	</node>
	<node lat="61.62022968237251" lon="6.642234189386348" id="-63756">
		<tag k="fixme" v="consider place=hamlet" />
		<tag k="name" v="Veiteberg" />
		<tag k="place" v="farm" />
		<tag k="ssr:stedsnr" v="919788" />
	</node>
	<node lat="61.6123298311042" lon="6.499718142358828" id="-63758">
		<tag k="fixme" v="consider place=hamlet" />
		<tag k="name" v="Paulen" />
		<tag k="place" v="farm" />
		<tag k="ssr:stedsnr" v="920027" />
	</node>
	<node lat="61.50029444389566" lon="6.0061944389285316" id="-63761">
		<tag k="name" v="Morgildra" />
		<tag k="place" v="locality" />
		<tag k="ssr:stedsnr" v="920135" />
	</node>
	<node lat="61.63411666603629" lon="6.7302500026262395" id="-63762">
		<tag k="historic" v="shieling" />
		<tag k="name" v="Haugastøylen" />
		<tag k="place" v="isolated_dwelling" />
		<tag k="ssr:stedsnr" v="919796" />
	</node>
	<node lat="61.54869210650358" lon="6.262816923562223" id="-63764">
		<tag k="name" v="Åhaug" />
		<tag k="place" v="farm" />
		<tag k="ssr:stedsnr" v="919964" />
	</node>
	<node lat="61.52961667078738" lon="6.422875009016622" id="-63767">
		<tag k="name" v="Dallheim" />
		<tag k="old_name" v="Dalheim" />
		<tag k="place" v="farm" />
		<tag k="ssr:stedsnr" v="919986" />
	</node>
	<node lat="61.51458333515363" lon="5.952100005139292" id="-63768">
		<tag k="historic" v="shieling" />
		<tag k="name" v="Tjørnalandsstølen" />
		<tag k="place" v="isolated_dwelling" />
		<tag k="ssr:stedsnr" v="920159" />
	</node>
	<node lat="61.51993800434615" lon="6.00300575812488" id="-63769">
		<tag k="fixme" v="consider place=hamlet" />
		<tag k="name" v="Eikeland" />
		<tag k="place" v="farm" />
		<tag k="ssr:stedsnr" v="920163" />
	</node>
	<node lat="61.55467777505247" lon="5.928336109429482" id="-63774">
		<tag k="historic" v="shieling" />
		<tag k="name" v="Vasslistølen" />
		<tag k="place" v="isolated_dwelling" />
		<tag k="ssr:stedsnr" v="920183" />
	</node>
	<node lat="61.43795555313201" lon="5.556536109285289" id="-63781">
		<tag k="historic" v="shieling" />
		<tag k="name" v="Fengestølen" />
		<tag k="place" v="isolated_dwelling" />
		<tag k="ssr:stedsnr" v="820574" />
	</node>
	<node lat="61.40063611092049" lon="6.180186105647743" id="-63796">
		<tag k="historic" v="shieling" />
		<tag k="name" v="Heimestølen" />
		<tag k="place" v="isolated_dwelling" />
		<tag k="ssr:stedsnr" v="820779" />
	</node>
	<node lat="61.49227500284205" lon="6.108963890695282" id="-63826">
		<tag k="name" v="Årset" />
		<tag k="place" v="farm" />
		<tag k="ssr:stedsnr" v="821167" />
	</node>
	<node lat="61.50327499693724" lon="5.392163892429141" id="-63852">
		<tag k="historic" v="shieling" />
		<tag k="name" v="Ytre Vefringstølen" />
		<tag k="place" v="isolated_dwelling" />
		<tag k="ssr:stedsnr" v="832603" />
	</node>
	<node lat="61.50384721808983" lon="5.781094445534819" id="-63864">
		<tag k="name" v="Svalheim" />
		<tag k="place" v="farm" />
		<tag k="ssr:stedsnr" v="833838" />
	</node>
	<node lat="61.44837948792468" lon="5.8685549370541645" id="-63876">
		<tag k="fixme" v="consider place=hamlet" />
		<tag k="name" v="Hafstad" />
		<tag k="place" v="farm" />
		<tag k="ssr:stedsnr" v="846186" />
	</node>
	<node lat="61.49116097440308" lon="5.397050049531274" id="-63878">
		<tag k="alt_name" v="Ytrevevring;Ytre Vefring" />
		<tag k="name" v="Ytre Vevring" />
		<tag k="place" v="farm" />
		<tag k="ssr:stedsnr" v="857009" />
	</node>
	<node lat="61.46449095826173" lon="5.958745724605776" id="-63883">
		<tag k="alt_name" v="Flugedal" />
		<tag k="fixme" v="consider place=hamlet" />
		<tag k="name" v="Flugedalen" />
		<tag k="place" v="farm" />
		<tag k="ssr:stedsnr" v="857320" />
	</node>
	<node lat="61.44988087406523" lon="5.903512128647491" id="-63885">
		<tag k="alt_name" v="Vie" />
		<tag k="fixme" v="consider place=hamlet" />
		<tag k="name" v="Via" />
		<tag k="place" v="farm" />
		<tag k="ssr:stedsnr" v="857339" />
	</node>
	<node lat="61.49589999959037" lon="5.928230563617938" id="-63889">
		<tag k="historic" v="shieling" />
		<tag k="name" v="Kvammestølen" />
		<tag k="place" v="isolated_dwelling" />
		<tag k="ssr:stedsnr" v="857287" />
	</node>
	<node lat="61.33032455445799" lon="5.868621068646893" id="-63895">
		<tag k="name" v="Eikeland" />
		<tag k="place" v="hamlet" />
		<tag k="ssr:stedsnr" v="857504" />
	</node>
	<node lat="61.49935000150451" lon="5.648738887925098" id="-63896">
		<tag k="historic" v="shieling" />
		<tag k="name" v="Liabøstølen" />
		<tag k="place" v="isolated_dwelling" />
		<tag k="ssr:stedsnr" v="857510" />
	</node>
	<node lat="61.491733334365634" lon="5.503986103239729" id="-63897">
		<tag k="fixme" v="consider place=hamlet" />
		<tag k="name" v="Redal" />
		<tag k="place" v="village" />
		<tag k="ssr:stedsnr" v="857511" />
	</node>
	<node lat="61.314430492453326" lon="6.004871263846963" id="-63901">
		<tag k="alt_name" v="Rørstadbotten" />
		<tag k="fixme" v="consider place=hamlet" />
		<tag k="name" v="Rørstadbotnen" />
		<tag k="place" v="farm" />
		<tag k="ssr:stedsnr" v="857528" />
	</node>
	<node lat="61.26855277483694" lon="6.172733338240845" id="-63903">
		<tag k="historic" v="shieling" />
		<tag k="name" v="Oppdalen" />
		<tag k="place" v="isolated_dwelling" />
		<tag k="ssr:stedsnr" v="857591" />
	</node>
	<node lat="61.4661167851185" lon="5.4833410794078" id="-63904">
		<tag k="alt_name" v="Gjøringbø" />
		<tag k="fixme" v="consider place=hamlet" />
		<tag k="name" v="Gjøringebøen" />
		<tag k="place" v="farm" />
		<tag k="ssr:stedsnr" v="857709" />
	</node>
	<node lat="61.366226963559015" lon="6.241412080443293" id="-63910">
		<tag k="alt_name" v="Øvrebotten" />
		<tag k="fixme" v="consider place=hamlet" />
		<tag k="name" v="Øvrebotnen" />
		<tag k="old_name" v="Øverbotnen" />
		<tag k="place" v="farm" />
		<tag k="ssr:stedsnr" v="857741" />
	</node>
	<node lat="61.459158648811396" lon="5.668493311105699" id="-63915">
		<tag k="fixme" v="consider place=hamlet" />
		<tag k="name" v="Fauske" />
		<tag k="place" v="farm" />
		<tag k="ssr:stedsnr" v="857639" />
	</node>
	<node lat="61.47129966865439" lon="5.597394460803939" id="-63918">
		<tag k="fixme" v="consider place=hamlet" />
		<tag k="name" v="Andalen" />
		<tag k="place" v="farm" />
		<tag k="ssr:stedsnr" v="857691" />
	</node>
	<node lat="61.43498610879605" lon="5.654708329095599" id="-63923">
		<tag k="name" v="Langeneset" />
		<tag k="place" v="farm" />
		<tag k="ssr:stedsnr" v="857815" />
	</node>
	<node lat="61.373847226365896" lon="5.640675003751162" id="-63928">
		<tag k="name" v="Bygstad" />
		<tag k="place" v="village" />
		<tag k="ssr:stedsnr" v="857913" />
	</node>
	<node lat="61.37854444847532" lon="5.678658334369913" id="-63929">
		<tag k="name" v="Hauge" />
		<tag k="place" v="farm" />
		<tag k="ssr:stedsnr" v="857914" />
	</node>
	<node lat="61.386198732179324" lon="5.637440186134804" id="-63930">
		<tag k="fixme" v="consider place=hamlet" />
		<tag k="name" v="Kårstad" />
		<tag k="place" v="farm" />
		<tag k="ssr:stedsnr" v="857987" />
	</node>
	<node lat="61.37147473477682" lon="5.73973392533875" id="-63931">
		<tag k="fixme" v="consider place=hamlet" />
		<tag k="name" v="Åse" />
		<tag k="place" v="farm" />
		<tag k="ssr:stedsnr" v="857876" />
	</node>
	<node lat="61.369376425514695" lon="5.6643972840238535" id="-63932">
		<tag k="name" v="Kviteneset" />
		<tag k="place" v="farm" />
		<tag k="ssr:stedsnr" v="857892" />
	</node>
	<node lat="61.49013055583282" lon="6.185508338499091" id="-63934">
		<tag k="historic" v="shieling" />
		<tag k="name" v="Holestøylane" />
		<tag k="place" v="isolated_dwelling" />
		<tag k="ssr:stedsnr" v="858305" />
	</node>
	<node lat="61.43230556010554" lon="6.155625007733005" id="-63935">
		<tag k="historic" v="shieling" />
		<tag k="name" v="Finneskotet" />
		<tag k="place" v="isolated_dwelling" />
		<tag k="ssr:stedsnr" v="858373" />
	</node>
	<node lat="61.413425002944294" lon="5.938369438323402" id="-63937">
		<tag k="alt_name" v="Refsdalstølen" />
		<tag k="fixme" v="multiple name tags, choose one and add the other to alt_name" />
		<tag k="historic" v="shieling" />
		<tag k="name" v="Vårstølen;Revsdalen" />
		<tag k="place" v="isolated_dwelling" />
		<tag k="ssr:stedsnr" v="858394" />
	</node>
	<node lat="61.489298868430176" lon="6.0837595181917115" id="-63939">
		<tag k="fixme" v="consider place=hamlet" />
		<tag k="name" v="Fluge" />
		<tag k="place" v="farm" />
		<tag k="ssr:stedsnr" v="858280" />
	</node>
	<node lat="61.45664166814568" lon="5.505797227831241" id="-63941">
		<tag k="name" v="Fossheim" />
		<tag k="place" v="farm" />
		<tag k="ssr:stedsnr" v="858674" />
	</node>
	<node lat="61.46734999598872" lon="5.724700009132583" id="-63942">
		<tag k="historic" v="shieling" />
		<tag k="name" v="Øvrestølen" />
		<tag k="place" v="isolated_dwelling" />
		<tag k="ssr:stedsnr" v="858681" />
	</node>
	<node lat="61.574727335534554" lon="5.887762320363624" id="-63953">
		<tag k="fixme" v="consider place=hamlet" />
		<tag k="name" v="Espeland" />
		<tag k="place" v="farm" />
		<tag k="ssr:stedsnr" v="859179" />
	</node>
	<node lat="61.576462079723264" lon="5.948365144289166" id="-63955">
		<tag k="name" v="Gamlestølen" />
		<tag k="place" v="farm" />
		<tag k="ssr:stedsnr" v="859209" />
	</node>
	<node lat="61.599316662811596" lon="6.071808336184832" id="-63956">
		<tag k="historic" v="shieling" />
		<tag k="name" v="Nesstølen" />
		<tag k="place" v="isolated_dwelling" />
		<tag k="ssr:stedsnr" v="859220" />
	</node>
	<node lat="61.60889167038752" lon="6.600383332312269" id="-63961">
		<tag k="name" v="Grepstad" />
		<tag k="place" v="farm" />
		<tag k="ssr:stedsnr" v="859824" />
	</node>
	<node lat="61.5805527781495" lon="6.2545583318036915" id="-63962">
		<tag k="historic" v="shieling" />
		<tag k="name" v="Gotdalsstøylen" />
		<tag k="place" v="isolated_dwelling" />
		<tag k="ssr:stedsnr" v="860007" />
	</node>
	<node lat="61.60638205535408" lon="6.582352356137257" id="-63964">
		<tag k="fixme" v="consider place=hamlet" />
		<tag k="name" v="Grepstad" />
		<tag k="place" v="farm" />
		<tag k="ssr:stedsnr" v="860016" />
	</node>
	<node lat="61.55715278042578" lon="5.790775008858475" id="-63967">
		<tag k="name" v="Fletene" />
		<tag k="place" v="farm" />
		<tag k="ssr:stedsnr" v="930707" />
	</node>
	<node lat="61.53548055683616" lon="5.706763884323043" id="-63968">
		<tag k="historic" v="shieling" />
		<tag k="name" v="Nordstølen" />
		<tag k="place" v="isolated_dwelling" />
		<tag k="ssr:stedsnr" v="930712" />
	</node>
	<node lat="61.57688610985802" lon="5.739766657593437" id="-63970">
		<tag k="historic" v="shieling" />
		<tag k="name" v="Haugastølen" />
		<tag k="place" v="isolated_dwelling" />
		<tag k="ssr:stedsnr" v="930723" />
	</node>
	<node lat="61.522558332377635" lon="6.132549992757425" id="-63971">
		<tag k="historic" v="shieling" />
		<tag k="name" v="Simastøylane" />
		<tag k="place" v="isolated_dwelling" />
		<tag k="ssr:stedsnr" v="931480" />
	</node>
	<node lat="61.57203611397585" lon="5.9658972221338" id="-63972">
		<tag k="name" v="Nordre Reinene" />
		<tag k="place" v="farm" />
		<tag k="ssr:stedsnr" v="931490" />
	</node>
	<node lat="61.324922222221986" lon="5.798622227218255" id="-63973">
		<tag k="fixme" v="consider place=hamlet" />
		<tag k="name" v="Steia" />
		<tag k="place" v="farm" />
		<tag k="ssr:stedsnr" v="931499" />
	</node>
	<node lat="61.57525277473267" lon="6.338702785693642" id="-64001">
		<tag k="historic" v="shieling" />
		<tag k="name" v="Gamlestøylen" />
		<tag k="place" v="isolated_dwelling" />
		<tag k="ssr:stedsnr" v="882005" />
	</node>
	<node lat="61.541477775424234" lon="6.3236666758807685" id="-64003">
		<tag k="historic" v="shieling" />
		<tag k="name" v="Sandnesstøylen" />
		<tag k="place" v="isolated_dwelling" />
		<tag k="ssr:stedsnr" v="882015" />
	</node>
	<node lat="61.529897225685254" lon="6.192469442129896" id="-64011">
		<tag k="historic" v="shieling" />
		<tag k="name" v="Nesstøylen" />
		<tag k="place" v="isolated_dwelling" />
		<tag k="ssr:stedsnr" v="882156" />
	</node>
	<node lat="61.37848333652269" lon="6.275755550378934" id="-64027">
		<tag k="historic" v="shieling" />
		<tag k="name" v="Vikumstølen" />
		<tag k="place" v="isolated_dwelling" />
		<tag k="ssr:stedsnr" v="883550" />
	</node>
	<node lat="61.49823333499055" lon="5.830866663264904" id="-64069">
		<tag k="historic" v="shieling" />
		<tag k="name" v="Rotenesstølen" />
		<tag k="place" v="isolated_dwelling" />
		<tag k="ssr:stedsnr" v="917712" />
	</node>
	<node lat="61.36073646045366" lon="5.738619427696006" id="-64071">
		<tag k="alt_name" v="Undeland" />
		<tag k="fixme" v="consider place=hamlet" />
		<tag k="name" v="Undelendene" />
		<tag k="place" v="farm" />
		<tag k="ssr:stedsnr" v="918017" />
	</node>
	<node lat="61.3634008567427" lon="5.70676858918649" id="-64073">
		<tag k="alt_name" v="Korsvoll" />
		<tag k="fixme" v="consider place=hamlet" />
		<tag k="name" v="Korsvellene" />
		<tag k="place" v="farm" />
		<tag k="ssr:stedsnr" v="918027" />
	</node>
	<node lat="61.489800002516944" lon="5.843844440714991" id="-64076">
		<tag k="alt_name" v="Kleiven" />
		<tag k="name" v="Kleivane" />
		<tag k="place" v="farm" />
		<tag k="ssr:stedsnr" v="918314" />
	</node>
	<node lat="61.498630553126965" lon="6.205186117244815" id="-64078">
		<tag k="alt_name" v="Strandstøylen" />
		<tag k="historic" v="shieling" />
		<tag k="name" v="Strandsstøylen" />
		<tag k="place" v="isolated_dwelling" />
		<tag k="ssr:stedsnr" v="918321" />
	</node>
	<node lat="61.28973888491127" lon="5.725166658748143" id="-64079">
		<tag k="alt_name" v="Lærsstølen" />
		<tag k="historic" v="shieling" />
		<tag k="name" v="Larsstølen" />
		<tag k="place" v="isolated_dwelling" />
		<tag k="ssr:stedsnr" v="918207" />
	</node>
	<node lat="61.435521241635115" lon="6.057786194721431" id="-64080">
		<tag k="alt_name" v="Viskedal" />
		<tag k="fixme" v="consider place=hamlet" />
		<tag k="name" v="Viskedalen" />
		<tag k="place" v="farm" />
		<tag k="ssr:stedsnr" v="918403" />
	</node>
	<node lat="61.54929722188564" lon="5.7398083281520975" id="-64081">
		<tag k="historic" v="shieling" />
		<tag k="name" v="Bakkestølen" />
		<tag k="place" v="isolated_dwelling" />
		<tag k="ssr:stedsnr" v="918504" />
	</node>
	<node lat="61.551724996946376" lon="5.806352778352373" id="-64083">
		<tag k="historic" v="shieling" />
		<tag k="name" v="Indrekvamsstølen" />
		<tag k="place" v="isolated_dwelling" />
		<tag k="ssr:stedsnr" v="918509" />
	</node>
	<node lat="61.47272499815043" lon="5.793938895303871" id="-64086">
		<tag k="alt_name" v="Havnen" />
		<tag k="name" v="Hamnen" />
		<tag k="place" v="farm" />
		<tag k="ssr:stedsnr" v="918714" />
	</node>
	<node lat="61.509836108762684" lon="5.363463897993699" id="-64091">
		<tag k="alt_name" v="Årsetstølane" />
		<tag k="historic" v="shieling" />
		<tag k="name" v="Årsetstølen" />
		<tag k="place" v="isolated_dwelling" />
		<tag k="ssr:stedsnr" v="918676" />
	</node>
	<node lat="61.39972844009186" lon="6.238908533312146" id="-64094">
		<tag k="fixme" v="consider place=hamlet" />
		<tag k="name" v="Rørvika" />
		<tag k="place" v="farm" />
		<tag k="ssr:stedsnr" v="918693" />
	</node>
	<node lat="61.501008430812284" lon="5.369964878565898" id="-64096">
		<tag k="fixme" v="consider place=hamlet" />
		<tag k="name" v="Vassbotnen" />
		<tag k="place" v="farm" />
		<tag k="ssr:stedsnr" v="918695" />
	</node>
	<node lat="61.40036111526955" lon="5.479702785375304" id="-64100">
		<tag k="historic" v="shieling" />
		<tag k="name" v="Standnesstølen" />
		<tag k="place" v="isolated_dwelling" />
		<tag k="ssr:stedsnr" v="918859" />
	</node>
	<node lat="61.48544166938227" lon="6.265072224795032" id="-64103">
		<tag k="fixme" v="multiple name tags, choose one and add the other to alt_name" />
		<tag k="historic" v="shieling" />
		<tag k="name" v="Ytredalstøylen;Indre Sanddalsstøylen" />
		<tag k="place" v="isolated_dwelling" />
		<tag k="ssr:stedsnr" v="918750" />
	</node>
	<node lat="61.388216156034225" lon="5.766795082304069" id="-64105">
		<tag k="name" v="Bringeland" />
		<tag k="place" v="farm" />
		<tag k="ssr:stedsnr" v="918953" />
	</node>
	<node lat="61.38311310968573" lon="5.683077343233337" id="-64106">
		<tag k="fixme" v="consider place=hamlet" />
		<tag k="name" v="Haugsbø" />
		<tag k="place" v="farm" />
		<tag k="ssr:stedsnr" v="918959" />
	</node>
	<node lat="61.38255227301879" lon="5.664728445343" id="-64107">
		<tag k="fixme" v="consider place=hamlet" />
		<tag k="name" v="Selberg" />
		<tag k="place" v="farm" />
		<tag k="ssr:stedsnr" v="918960" />
	</node>
	<node lat="61.5683027754286" lon="6.330749999062078" id="-64112">
		<tag k="historic" v="shieling" />
		<tag k="name" v="Fremstestøylen" />
		<tag k="place" v="isolated_dwelling" />
		<tag k="ssr:stedsnr" v="919944" />
	</node>
	<node lat="61.52466110874224" lon="6.1164111158923475" id="-64116">
		<tag k="historic" v="shieling" />
		<tag k="name" v="Svidalsstøylane" />
		<tag k="place" v="isolated_dwelling" />
		<tag k="ssr:stedsnr" v="920150" />
	</node>
	<node lat="61.58501667085579" lon="6.391638884722388" id="-64120">
		<tag k="historic" v="shieling" />
		<tag k="name" v="Helgheimsstøylen" />
		<tag k="place" v="isolated_dwelling" />
		<tag k="ssr:stedsnr" v="920015" />
	</node>
	<node lat="61.54591944251668" lon="5.859800003590879" id="-64125">
		<tag k="historic" v="shieling" />
		<tag k="name" v="Stehogestølane" />
		<tag k="place" v="isolated_dwelling" />
		<tag k="ssr:stedsnr" v="920190" />
	</node>
	<node lat="61.50125555642095" lon="5.272688879540021" id="-64129">
		<tag k="name" v="Horne" />
		<tag k="place" v="farm" />
		<tag k="ssr:stedsnr" v="920806" />
	</node>
	<node lat="61.59821666713791" lon="5.807241667944949" id="-64130">
		<tag k="alt_name" v="Hystølane" />
		<tag k="fixme" v="multiple name tags, choose one and add the other to alt_name" />
		<tag k="historic" v="shieling" />
		<tag k="name" v="Ullalandsstølane;Hystølen" />
		<tag k="place" v="isolated_dwelling" />
		<tag k="ssr:stedsnr" v="937617" />
	</node>
	<node lat="61.556266668637086" lon="5.82739721271207" id="-64148">
		<tag k="name" v="Pæstølen" />
		<tag k="place" v="locality" />
		<tag k="ssr:stedsnr" v="953912" />
	</node>
	<node lat="61.45316944590521" lon="5.818216666497255" id="-64166">
		<tag k="name" v="Slåttebakkane" />
		<tag k="place" v="quarter" />
		<tag k="ssr:stedsnr" v="963792" />
	</node>
	<node lat="61.49191044980646" lon="5.4001920340359" id="-64167">
		<tag k="fixme" v="consider place=hamlet" />
		<tag k="name" v="Vevring" />
		<tag k="place" v="farm" />
		<tag k="ssr:stedsnr" v="973792" />
	</node>
	<node lat="61.46753143462539" lon="5.551691183953775" id="-64168">
		<tag k="fixme" v="consider place=hamlet" />
		<tag k="name" v="Helle" />
		<tag k="place" v="farm" />
		<tag k="ssr:stedsnr" v="973793" />
	</node>
	<node lat="61.508629953513264" lon="5.714062283843559" id="-64169">
		<tag k="fixme" v="consider place=hamlet" />
		<tag k="name" v="Naustdal" />
		<tag k="place" v="farm" />
		<tag k="ssr:stedsnr" v="973794" />
	</node>
	<node lat="61.54502628343124" lon="5.983701319118756" id="-64170">
		<tag k="fixme" v="consider place=hamlet" />
		<tag k="name" v="Trodalsstranda" />
		<tag k="place" v="farm" />
		<tag k="ssr:stedsnr" v="973799" />
	</node>
	<node lat="61.3419578813105" lon="6.146266134444843" id="-64171">
		<tag k="name" v="Øvre Bell" />
		<tag k="place" v="farm" />
		<tag k="ssr:stedsnr" v="974339" />
	</node>
	<node lat="61.33983783950762" lon="6.146585683562178" id="-64172">
		<tag k="name" v="Nedre Bell" />
		<tag k="place" v="farm" />
		<tag k="ssr:stedsnr" v="974340" />
	</node>
	<node lat="61.33288332996126" lon="5.826449998713566" id="-64178">
		<tag k="name" v="Nybø" />
		<tag k="place" v="farm" />
		<tag k="ssr:stedsnr" v="7083" />
	</node>
	<node lat="61.360855551619025" lon="5.725141668035994" id="-64182">
		<tag k="name" v="Løyken" />
		<tag k="place" v="farm" />
		<tag k="ssr:stedsnr" v="7025" />
	</node>
	<node lat="61.45012222105698" lon="5.785752776169781" id="-64188">
		<tag k="historic" v="shieling" />
		<tag k="name" v="Gravdalsstølen" />
		<tag k="place" v="isolated_dwelling" />
		<tag k="ssr:stedsnr" v="7866" />
	</node>
	<node lat="61.36454197752994" lon="5.6781615371306575" id="-64189">
		<tag k="fixme" v="consider place=hamlet" />
		<tag k="name" v="Osen" />
		<tag k="place" v="farm" />
		<tag k="ssr:stedsnr" v="7886" />
	</node>
	<node lat="61.37108993615416" lon="5.647222999078271" id="-64191">
		<tag k="alt_name" v="Lending" />
		<tag k="fixme" v="consider place=hamlet" />
		<tag k="name" v="Lendinga" />
		<tag k="place" v="farm" />
		<tag k="ssr:stedsnr" v="7890" />
	</node>
	<node lat="61.329773253233554" lon="6.10001215271523" id="-64205">
		<tag k="alt_name" v="Hestebeit" />
		<tag k="fixme" v="consider place=hamlet" />
		<tag k="name" v="Hestebeita" />
		<tag k="place" v="farm" />
		<tag k="ssr:stedsnr" v="7544" />
	</node>
	<node lat="61.48372222512185" lon="5.764300007835442" id="-64207">
		<tag k="name" v="Slåtten" />
		<tag k="place" v="farm" />
		<tag k="ssr:stedsnr" v="7679" />
	</node>
	<node lat="61.32108289003366" lon="5.7556772264104294" id="-64212">
		<tag k="alt_name" v="Døskeland" />
		<tag k="fixme" v="consider place=hamlet" />
		<tag k="name" v="Dysjeland" />
		<tag k="place" v="farm" />
		<tag k="ssr:stedsnr" v="8137" />
	</node>
	<node lat="61.39551666885981" lon="5.682363892776575" id="-64213">
		<tag k="alt_name" v="Haugsbø  Stølen" />
		<tag k="historic" v="shieling" />
		<tag k="name" v="Haugsstølen" />
		<tag k="place" v="isolated_dwelling" />
		<tag k="ssr:stedsnr" v="7976" />
	</node>
	<node lat="61.37911230433649" lon="5.537345615299936" id="-64215">
		<tag k="fixme" v="consider place=hamlet" />
		<tag k="name" v="Sunde" />
		<tag k="place" v="farm" />
		<tag k="ssr:stedsnr" v="7989" />
	</node>
	<node lat="61.294505557654574" lon="5.815966663748262" id="-64218">
		<tag k="building" v="industrial" />
		<tag k="industrial" v="factory" />
		<tag k="name" v="Årbergsdalen" />
		<tag k="ssr:stedsnr" v="8169" />
	</node>
	<node lat="61.49036388519623" lon="5.960836112120407" id="-64221">
		<tag k="name" v="Kvia" />
		<tag k="place" v="farm" />
		<tag k="ssr:stedsnr" v="8285" />
	</node>
	<node lat="61.491594446258254" lon="6.170661106935751" id="-64222">
		<tag k="historic" v="shieling" />
		<tag k="name" v="Bakkestøylen" />
		<tag k="place" v="isolated_dwelling" />
		<tag k="ssr:stedsnr" v="8310" />
	</node>
	<node lat="61.52911944132138" lon="5.695930548814038" id="-64223">
		<tag k="name" v="Skeisstølen" />
		<tag k="place" v="locality" />
		<tag k="ssr:stedsnr" v="8432" />
	</node>
	<node lat="61.5410303572488" lon="5.838543799966205" id="-64225">
		<tag k="historic" v="shieling" />
		<tag k="name" v="Kleppsstølen" />
		<tag k="place" v="isolated_dwelling" />
		<tag k="ssr:stedsnr" v="8496" />
	</node>
	<node lat="61.41580277519232" lon="5.928105550434101" id="-64231">
		<tag k="name" v="Myrane" />
		<tag k="place" v="farm" />
		<tag k="ssr:stedsnr" v="8382" />
	</node>
	<node lat="61.41461441445586" lon="5.865529401764181" id="-64232">
		<tag k="alt_name" v="Digernes" />
		<tag k="fixme" v="consider place=hamlet" />
		<tag k="name" v="Digreneset" />
		<tag k="place" v="farm" />
		<tag k="ssr:stedsnr" v="8385" />
	</node>
	<node lat="61.529170711531926" lon="5.747184267709777" id="-64233">
		<tag k="fixme" v="consider place=hamlet" />
		<tag k="name" v="Veien" />
		<tag k="place" v="farm" />
		<tag k="ssr:stedsnr" v="8445" />
	</node>
	<node lat="61.52166099304783" lon="5.822666979183926" id="-64236">
		<tag k="fixme" v="consider place=hamlet" />
		<tag k="name" v="Sollia" />
		<tag k="place" v="farm" />
		<tag k="ssr:stedsnr" v="8464" />
	</node>
	<node lat="61.42528888643698" lon="5.808283339891455" id="-64240">
		<tag k="alt_name" v="Havstadstølane" />
		<tag k="historic" v="shieling" />
		<tag k="name" v="Hafstadstølane" />
		<tag k="place" v="isolated_dwelling" />
		<tag k="ssr:stedsnr" v="8806" />
	</node>
	<node lat="61.468027776289915" lon="5.842108331863863" id="-64246">
		<tag k="alt_name" v="Bergumstølen" />
		<tag k="historic" v="shieling" />
		<tag k="name" v="Bergumsstølen" />
		<tag k="place" v="isolated_dwelling" />
		<tag k="ssr:stedsnr" v="8663" />
	</node>
	<node lat="61.43223888534274" lon="5.8076861176556225" id="-64251">
		<tag k="historic" v="shieling" />
		<tag k="name" v="Prestestølen" />
		<tag k="place" v="isolated_dwelling" />
		<tag k="ssr:stedsnr" v="8856" />
	</node>
	<node lat="61.552324998141664" lon="6.078122227890276" id="-64255">
		<tag k="historic" v="shieling" />
		<tag k="name" v="Vassbrekka" />
		<tag k="place" v="isolated_dwelling" />
		<tag k="ssr:stedsnr" v="9169" />
	</node>
	<node lat="61.57273610904605" lon="5.963255564381387" id="-64257">
		<tag k="name" v="Nordbøen" />
		<tag k="place" v="farm" />
		<tag k="ssr:stedsnr" v="9179" />
	</node>
	<node lat="61.61730555534292" lon="6.024177786240508" id="-64261">
		<tag k="name" v="Stranda" />
		<tag k="place" v="locality" />
		<tag k="ssr:stedsnr" v="9248" />
	</node>
	<node lat="61.58261388654433" lon="5.773822224836222" id="-64262">
		<tag k="name" v="Persstølen" />
		<tag k="place" v="locality" />
		<tag k="ssr:stedsnr" v="9480" />
	</node>
	<node lat="61.606438892553676" lon="6.696449990897295" id="-64263">
		<tag k="historic" v="shieling" />
		<tag k="name" v="Øygardsstøylen" />
		<tag k="place" v="isolated_dwelling" />
		<tag k="ssr:stedsnr" v="9823" />
	</node>
	<node lat="61.5857611079451" lon="6.644630555541456" id="-64264">
		<tag k="historic" v="shieling" />
		<tag k="name" v="Befringsstøylen" />
		<tag k="place" v="isolated_dwelling" />
		<tag k="ssr:stedsnr" v="9835" />
	</node>
	<node lat="61.622033329261996" lon="6.449680552800144" id="-64265">
		<tag k="name" v="Ytrebø" />
		<tag k="place" v="farm" />
		<tag k="ssr:stedsnr" v="10032" />
	</node>
	<node lat="61.505269445808274" lon="6.2608638955869935" id="-64269">
		<tag k="alt_name" v="Husebakken" />
		<tag k="name" v="Husbakke" />
		<tag k="place" v="farm" />
		<tag k="ssr:stedsnr" v="9871" />
	</node>
	<node lat="61.57840000313279" lon="6.530388880333957" id="-64270">
		<tag k="name" v="Bolsetstøylen" />
		<tag k="place" v="locality" />
		<tag k="ssr:stedsnr" v="9955" />
	</node>
	<node lat="61.54530858006127" lon="6.256436295596314" id="-64271">
		<tag k="alt_name" v="Bø øvre" />
		<tag k="fixme" v="consider place=hamlet" />
		<tag k="name" v="Øvrebø" />
		<tag k="place" v="farm" />
		<tag k="ssr:stedsnr" v="9975" />
	</node>
	<node lat="61.53624655243853" lon="6.3311073643486555" id="-64273">
		<tag k="fixme" v="consider place=hamlet" />
		<tag k="name" v="Juklestad" />
		<tag k="place" v="farm" />
		<tag k="ssr:stedsnr" v="9981" />
	</node>
	<node lat="61.534818830254814" lon="6.493574214057779" id="-64274">
		<tag k="fixme" v="consider place=hamlet" />
		<tag k="name" v="Sægrov" />
		<tag k="place" v="farm" />
		<tag k="ssr:stedsnr" v="9985" />
	</node>
	<node lat="61.51882495837651" lon="6.012276733139552" id="-64275">
		<tag k="fixme" v="consider place=hamlet" />
		<tag k="name" v="Haugen" />
		<tag k="place" v="farm" />
		<tag k="ssr:stedsnr" v="10171" />
	</node>
	<node lat="61.53415487890484" lon="5.7452151864278145" id="-64277">
		<tag k="name" v="Hovskletten" />
		<tag k="place" v="farm" />
		<tag k="ssr:stedsnr" v="20718" />
	</node>
	<node lat="61.56056058763749" lon="5.790966066798665" id="-64279">
		<tag k="fixme" v="consider place=hamlet" />
		<tag k="name" v="Smådal" />
		<tag k="place" v="farm" />
		<tag k="ssr:stedsnr" v="20732" />
	</node>
	<node lat="61.41725833330693" lon="6.083594448848024" id="-64280">
		<tag k="name" v="Husetuftstranda" />
		<tag k="place" v="farm" />
		<tag k="ssr:stedsnr" v="31223" />
	</node>
	<node lat="61.52434444187901" lon="6.116736102811032" id="-64323">
		<tag k="historic" v="shieling" />
		<tag k="name" v="Indre Svidalsstøylen" />
		<tag k="place" v="isolated_dwelling" />
		<tag k="ssr:stedsnr" v="32130" />
	</node>
	<node lat="61.486258331447" lon="6.255958337773794" id="-64325">
		<tag k="historic" v="shieling" />
		<tag k="name" v="Brendestøylen" />
		<tag k="place" v="isolated_dwelling" />
		<tag k="ssr:stedsnr" v="32135" />
	</node>
	<node lat="61.38405277869126" lon="5.678124995308682" id="-64369">
		<tag k="historic" v="shieling" />
		<tag k="name" v="Vårstølen" />
		<tag k="place" v="isolated_dwelling" />
		<tag k="ssr:stedsnr" v="38931" />
	</node>
	<node lat="61.39018888803272" lon="5.972525008509052" id="-64408">
		<tag k="historic" v="shieling" />
		<tag k="name" v="Liastølen" />
		<tag k="place" v="isolated_dwelling" />
		<tag k="ssr:stedsnr" v="68431" />
	</node>
	<node lat="61.498896632678345" lon="5.298486936531169" id="-64410">
		<tag k="fixme" v="consider place=hamlet" />
		<tag k="name" v="Kvellestad" />
		<tag k="place" v="farm" />
		<tag k="ssr:stedsnr" v="68024" />
	</node>
	<node lat="61.34979126713652" lon="5.714836194895703" id="-64411">
		<tag k="fixme" v="consider place=hamlet" />
		<tag k="name" v="Leirsand" />
		<tag k="place" v="farm" />
		<tag k="ssr:stedsnr" v="68055" />
	</node>
	<node lat="61.472093678360416" lon="6.060727772498673" id="-64416">
		<tag k="fixme" v="consider place=hamlet" />
		<tag k="name" v="Kvammen" />
		<tag k="place" v="farm" />
		<tag k="ssr:stedsnr" v="68312" />
	</node>
	<node lat="61.299413637180336" lon="5.823457883995065" id="-64423">
		<tag k="fixme" v="consider place=hamlet" />
		<tag k="name" v="Årberg" />
		<tag k="place" v="farm" />
		<tag k="ssr:stedsnr" v="68175" />
	</node>
	<node lat="61.49765165300583" lon="6.117080344268042" id="-64424">
		<tag k="fixme" v="consider place=hamlet" />
		<tag k="name" v="Løset" />
		<tag k="place" v="farm" />
		<tag k="ssr:stedsnr" v="68274" />
	</node>
	<node lat="61.35537371467757" lon="6.121127551877072" id="-64426">
		<tag k="alt_name" v="Ørnehaug" />
		<tag k="fixme" v="consider place=hamlet" />
		<tag k="name" v="Ørnehaugen" />
		<tag k="place" v="farm" />
		<tag k="ssr:stedsnr" v="68478" />
	</node>
	<node lat="61.45392499707261" lon="5.602572216284243" id="-64431">
		<tag k="name" v="Botnen" />
		<tag k="place" v="farm" />
		<tag k="ssr:stedsnr" v="68647" />
	</node>
	<node lat="61.43539721842938" lon="6.385411118523016" id="-64434">
		<tag k="name" v="Bakkestølen" />
		<tag k="place" v="locality" />
		<tag k="ssr:stedsnr" v="68658" />
	</node>
	<node lat="61.460472221005936" lon="5.5362055470519875" id="-64436">
		<tag k="name" v="Nybø" />
		<tag k="place" v="farm" />
		<tag k="ssr:stedsnr" v="68681" />
	</node>
	<node lat="61.440886925635326" lon="5.6256957048952" id="-64445">
		<tag k="alt_name" v="Muledalen" />
		<tag k="fixme" v="consider place=hamlet" />
		<tag k="name" v="Muladalen" />
		<tag k="place" v="farm" />
		<tag k="ssr:stedsnr" v="68860" />
	</node>
	<node lat="61.435944445899096" lon="5.63879444309392" id="-64446">
		<tag k="name" v="Skardvollen" />
		<tag k="place" v="farm" />
		<tag k="ssr:stedsnr" v="68863" />
	</node>
	<node lat="61.365305555566415" lon="5.697380552973015" id="-64448">
		<tag k="name" v="Futegota" />
		<tag k="place" v="farm" />
		<tag k="ssr:stedsnr" v="68871" />
	</node>
	<node lat="61.36542222648767" lon="5.6381694498575525" id="-64449">
		<tag k="name" v="Hjellen" />
		<tag k="place" v="isolated_dwelling" />
		<tag k="ssr:stedsnr" v="68879" />
	</node>
	<node lat="61.36465665618983" lon="5.597610222753551" id="-64450">
		<tag k="alt_name" v="Birkeland" />
		<tag k="fixme" v="consider place=hamlet" />
		<tag k="name" v="Byrkjeland" />
		<tag k="place" v="farm" />
		<tag k="ssr:stedsnr" v="68880" />
	</node>
	<node lat="61.300372218200366" lon="5.691305553564504" id="-64452">
		<tag k="alt_name" v="Solåsstøl" />
		<tag k="historic" v="shieling" />
		<tag k="name" v="Solåsstølen" />
		<tag k="place" v="isolated_dwelling" />
		<tag k="ssr:stedsnr" v="69147" />
	</node>
	<node lat="61.414277779083854" lon="5.8491361094689465" id="-64459">
		<tag k="alt_name" v="Viastølen" />
		<tag k="historic" v="shieling" />
		<tag k="name" v="Viestølen" />
		<tag k="place" v="isolated_dwelling" />
		<tag k="ssr:stedsnr" v="69371" />
	</node>
	<node lat="61.37575833066452" lon="5.792777770896658" id="-64462">
		<tag k="name" v="Smylmehaugen" />
		<tag k="place" v="farm" />
		<tag k="ssr:stedsnr" v="69945" />
	</node>
	<node lat="61.518958329085955" lon="5.7018638822815655" id="-64463">
		<tag k="alt_name" v="Naustdalslid" />
		<tag k="name" v="Naustdalslia" />
		<tag k="place" v="farm" />
		<tag k="ssr:stedsnr" v="69452" />
	</node>
	<node lat="61.52392222419735" lon="5.6140249965211515" id="-64465">
		<tag k="historic" v="shieling" />
		<tag k="name" v="Boltestølen" />
		<tag k="place" v="isolated_dwelling" />
		<tag k="ssr:stedsnr" v="69458" />
	</node>
	<node lat="61.5633666622804" lon="5.755644444077904" id="-64467">
		<tag k="historic" v="shieling" />
		<tag k="name" v="Instebøstølen" />
		<tag k="place" v="isolated_dwelling" />
		<tag k="ssr:stedsnr" v="69478" />
	</node>
	<node lat="61.42523620506844" lon="6.437536597337929" id="-64469">
		<tag k="fixme" v="consider place=hamlet" />
		<tag k="name" v="Grøning" />
		<tag k="place" v="farm" />
		<tag k="ssr:stedsnr" v="69669" />
	</node>
	<node lat="61.50413055752504" lon="5.426927784535022" id="-64471">
		<tag k="historic" v="shieling" />
		<tag k="name" v="Indre Vevringstølen" />
		<tag k="place" v="isolated_dwelling" />
		<tag k="ssr:stedsnr" v="69676" />
	</node>
	<node lat="61.52695833369886" lon="6.418180560761109" id="-64480">
		<tag k="name" v="Nyset" />
		<tag k="place" v="farm" />
		<tag k="ssr:stedsnr" v="71000" />
	</node>
	<node lat="61.528566663974246" lon="6.499655556942921" id="-64484">
		<tag k="historic" v="shieling" />
		<tag k="name" v="Sægrovstøylen" />
		<tag k="place" v="isolated_dwelling" />
		<tag k="ssr:stedsnr" v="70856" />
	</node>
	<node lat="61.64511666648056" lon="6.6310750060112555" id="-64486">
		<tag k="historic" v="shieling" />
		<tag k="name" v="Bakkestøylen" />
		<tag k="place" v="isolated_dwelling" />
		<tag k="ssr:stedsnr" v="70933" />
	</node>
	<node lat="61.57522499660053" lon="6.49075556129815" id="-64492">
		<tag k="name" v="Myrvoll" />
		<tag k="place" v="farm" />
		<tag k="ssr:stedsnr" v="70962" />
	</node>
	<node lat="61.42679722382949" lon="5.991038885492514" id="-64515">
		<tag k="name" v="Midtåsen" />
		<tag k="place" v="farm" />
		<tag k="ssr:stedsnr" v="92831" />
	</node>
	<node lat="61.51406944695773" lon="5.725472229901665" id="-64585">
		<tag k="name" v="Løken" />
		<tag k="place" v="farm" />
		<tag k="ssr:stedsnr" v="104867" />
	</node>
	<node lat="61.47726666921247" lon="5.733147230662391" id="-64596">
		<tag k="leisure" v="pitch" />
		<tag k="name" v="Kråkenesmarka" />
		<tag k="ssr:stedsnr" v="113766" />
	</node>
	<node lat="61.52247778169304" lon="6.34785276924109" id="-64599">
		<tag k="fixme" v="consider place=hamlet" />
		<tag k="name" v="Myklebust" />
		<tag k="old_name" v="Myklebust, yt" />
		<tag k="place" v="village" />
		<tag k="ssr:stedsnr" v="117998" />
	</node>
	<node lat="61.600283332777884" lon="5.925249997937281" id="-64601">
		<tag k="historic" v="shieling" />
		<tag k="name" v="Savlandsstølen" />
		<tag k="place" v="isolated_dwelling" />
		<tag k="ssr:stedsnr" v="130246" />
	</node>
	<node lat="61.4109666633574" lon="6.163625006851883" id="-64606">
		<tag k="name" v="Skorpa" />
		<tag k="place" v="farm" />
		<tag k="ssr:stedsnr" v="128373" />
	</node>
	<node lat="61.320700305092465" lon="5.919645253648583" id="-64608">
		<tag k="alt_name" v="Nedre Strand" />
		<tag k="fixme" v="consider place=hamlet" />
		<tag k="name" v="Nedrestrond" />
		<tag k="place" v="farm" />
		<tag k="ssr:stedsnr" v="128531" />
	</node>
	<node lat="61.33836855667883" lon="5.847173248280059" id="-64612">
		<tag k="name" v="Fosshaugen" />
		<tag k="place" v="farm" />
		<tag k="ssr:stedsnr" v="128459" />
	</node>
	<node lat="61.36425428799215" lon="6.226157240661726" id="-64614">
		<tag k="fixme" v="consider place=hamlet" />
		<tag k="name" v="Vallestad" />
		<tag k="place" v="farm" />
		<tag k="ssr:stedsnr" v="128711" />
	</node>
	<node lat="61.449311316719665" lon="5.647060149100452" id="-64616">
		<tag k="fixme" v="consider place=hamlet" />
		<tag k="name" v="Fengestad" />
		<tag k="place" v="farm" />
		<tag k="ssr:stedsnr" v="128853" />
	</node>
	<node lat="61.36847121629879" lon="5.699419848124239" id="-64619">
		<tag k="alt_name" v="Hagenes" />
		<tag k="fixme" v="consider place=hamlet" />
		<tag k="name" v="Hageneset" />
		<tag k="place" v="farm" />
		<tag k="ssr:stedsnr" v="128874" />
	</node>
	<node lat="61.324080551366066" lon="5.6753055549545035" id="-64630">
		<tag k="alt_name" v="Sygnestølen, øvre" />
		<tag k="historic" v="shieling" />
		<tag k="name" v="Øvre Sygnestølen" />
		<tag k="place" v="isolated_dwelling" />
		<tag k="ssr:stedsnr" v="129148" />
	</node>
	<node lat="61.415880560173704" lon="5.913961119653068" id="-64632">
		<tag k="name" v="Skogstad" />
		<tag k="place" v="farm" />
		<tag k="ssr:stedsnr" v="129366" />
	</node>
	<node lat="61.57263771264717" lon="5.78459386743451" id="-64635">
		<tag k="fixme" v="consider place=hamlet" />
		<tag k="name" v="Fitje" />
		<tag k="place" v="farm" />
		<tag k="ssr:stedsnr" v="129442" />
	</node>
	<node lat="61.32816551449618" lon="5.8188702580895" id="-64636">
		<tag k="fixme" v="consider place=hamlet" />
		<tag k="name" v="Selstad" />
		<tag k="place" v="farm" />
		<tag k="ssr:stedsnr" v="129128" />
	</node>
	<node lat="61.52259167111266" lon="5.687197227948104" id="-64647">
		<tag k="name" v="Varlia" />
		<tag k="place" v="locality" />
		<tag k="ssr:stedsnr" v="129424" />
	</node>
	<node lat="61.54183388589797" lon="5.794101770334927" id="-64650">
		<tag k="fixme" v="consider place=hamlet" />
		<tag k="name" v="Stuhaugen" />
		<tag k="place" v="farm" />
		<tag k="ssr:stedsnr" v="129471" />
	</node>
	<node lat="61.54021413287723" lon="5.795194296332634" id="-64651">
		<tag k="fixme" v="consider place=hamlet" />
		<tag k="name" v="Bakken" />
		<tag k="place" v="farm" />
		<tag k="ssr:stedsnr" v="129472" />
	</node>
	<node lat="61.380980551353076" lon="5.470138896033664" id="-64652">
		<tag k="name" v="Laukeland" />
		<tag k="place" v="farm" />
		<tag k="ssr:stedsnr" v="129532" />
	</node>
	<node lat="61.461408112425026" lon="5.648099056396554" id="-64661">
		<tag k="alt_name" v="Bjørkedal" />
		<tag k="fixme" v="consider place=hamlet" />
		<tag k="name" v="Bjørkedalen" />
		<tag k="place" v="farm" />
		<tag k="ssr:stedsnr" v="129659" />
	</node>
	<node lat="61.46250277659683" lon="5.69185554671253" id="-64663">
		<tag k="alt_name" v="Nordre-Fauskestøl;Fauskestølen, nordre" />
		<tag k="historic" v="shieling" />
		<tag k="name" v="Nordre Fauskestølen" />
		<tag k="place" v="isolated_dwelling" />
		<tag k="ssr:stedsnr" v="129667" />
	</node>
	<node lat="61.410586112227534" lon="5.807686119247523" id="-64674">
		<tag k="historic" v="shieling" />
		<tag k="name" v="Furnesstølen" />
		<tag k="place" v="isolated_dwelling" />
		<tag k="ssr:stedsnr" v="129771" />
	</node>
	<node lat="61.50436388970686" lon="5.451747231406294" id="-64675">
		<tag k="historic" v="shieling" />
		<tag k="name" v="Engjabøstølen" />
		<tag k="place" v="isolated_dwelling" />
		<tag k="ssr:stedsnr" v="129619" />
	</node>
	<node lat="61.38556289421924" lon="5.732598390461897" id="-64684">
		<tag k="alt_name" v="Hjelmeland, in" />
		<tag k="fixme" v="consider place=hamlet" />
		<tag k="name" v="Indre Hjelmeland" />
		<tag k="place" v="farm" />
		<tag k="ssr:stedsnr" v="129944" />
	</node>
	<node lat="61.53171944508044" lon="6.210711117339523" id="-64688">
		<tag k="name" v="Sårheimsstøylen" />
		<tag k="place" v="locality" />
		<tag k="ssr:stedsnr" v="130143" />
	</node>
	<node lat="61.55297777392367" lon="6.102049992119038" id="-64689">
		<tag k="name" v="Nordkvia" />
		<tag k="place" v="isolated_dwelling" />
		<tag k="ssr:stedsnr" v="130171" />
	</node>
	<node lat="61.51915390084714" lon="6.152228200308704" id="-64693">
		<tag k="fixme" v="consider place=hamlet" />
		<tag k="name" v="Berg Ytre" />
		<tag k="place" v="farm" />
		<tag k="ssr:stedsnr" v="131142" />
	</node>
	<node lat="61.57687777644803" lon="5.755099997475229" id="-64695">
		<tag k="historic" v="shieling" />
		<tag k="name" v="Tuftestølen" />
		<tag k="place" v="isolated_dwelling" />
		<tag k="ssr:stedsnr" v="130449" />
	</node>
	<node lat="61.512915936592265" lon="6.255388530581107" id="-64696">
		<tag k="fixme" v="consider place=hamlet" />
		<tag k="name" v="Tohaugen" />
		<tag k="old_name" v="Tåhaug" />
		<tag k="place" v="farm" />
		<tag k="ssr:stedsnr" v="130851" />
	</node>
	<node lat="61.53923888845394" lon="6.338836110442561" id="-64697">
		<tag k="fixme" v="consider place=hamlet" />
		<tag k="name" v="Sandnes" />
		<tag k="place" v="farm" />
		<tag k="ssr:stedsnr" v="130985" />
	</node>
	<node lat="61.53275422047178" lon="6.239785792716834" id="-64698">
		<tag k="fixme" v="consider place=hamlet" />
		<tag k="name" v="Hegrenes" />
		<tag k="place" v="farm" />
		<tag k="ssr:stedsnr" v="130991" />
	</node>
	<node lat="61.57150277636885" lon="6.479100004689223" id="-64701">
		<tag k="name" v="Skei" />
		<tag k="place" v="village" />
		<tag k="ssr:stedsnr" v="130945" />
	</node>
	<node lat="61.50053055872409" lon="5.798908335030479" id="-64707">
		<tag k="name" v="Rotenesbakken" />
		<tag k="place" v="farm" />
		<tag k="ssr:stedsnr" v="140699" />
	</node>
	<node lat="61.528761108516534" lon="6.220680555046723" id="-64722">
		<tag k="name" v="Stranda" />
		<tag k="place" v="hamlet" />
		<tag k="ssr:stedsnr" v="153175" />
	</node>
	<node lat="61.34350278041154" lon="6.311194438559607" id="-64772">
		<tag k="name" v="Mjellshaugen" />
		<tag k="place" v="farm" />
		<tag k="ssr:stedsnr" v="155168" />
	</node>
	<node lat="61.33137499708239" lon="6.277327774216136" id="-64773">
		<tag k="name" v="Hoff pensjonat" />
		<tag k="ssr:stedsnr" v="155173" />
		<tag k="tourism" v="guest_house" />
	</node>
	<node lat="61.53573055831539" lon="5.713566662194173" id="-64826">
		<tag k="name" v="Stølen" />
		<tag k="place" v="locality" />
		<tag k="ssr:stedsnr" v="165977" />
	</node>
	<node lat="61.36721667016854" lon="6.031994443403737" id="-64851">
		<tag k="historic" v="shieling" />
		<tag k="name" v="Gøyvinga" />
		<tag k="place" v="isolated_dwelling" />
		<tag k="ssr:stedsnr" v="189432" />
	</node>
	<node lat="61.39092500174044" lon="5.963408333958432" id="-64855">
		<tag k="historic" v="shieling" />
		<tag k="name" v="Kinnastølen" />
		<tag k="place" v="isolated_dwelling" />
		<tag k="ssr:stedsnr" v="189397" />
	</node>
	<node lat="61.31776667038276" lon="5.793008338600571" id="-64872">
		<tag k="name" v="Løvstad" />
		<tag k="place" v="farm" />
		<tag k="ssr:stedsnr" v="190137" />
	</node>
	<node lat="61.48559219145687" lon="5.844659471274286" id="-64882">
		<tag k="alt_name" v="Erdalsdal" />
		<tag k="fixme" v="consider place=hamlet" />
		<tag k="name" v="Erdalsdalen" />
		<tag k="place" v="farm" />
		<tag k="ssr:stedsnr" v="190269" />
	</node>
	<node lat="61.482725003891744" lon="6.065880551209522" id="-64883">
		<tag k="name" v="Moland" />
		<tag k="place" v="farm" />
		<tag k="ssr:stedsnr" v="190276" />
	</node>
	<node lat="61.5078638919825" lon="5.6463722128527145" id="-64885">
		<tag k="name" v="Sælastølen" />
		<tag k="place" v="locality" />
		<tag k="ssr:stedsnr" v="190386" />
	</node>
	<node lat="61.42056482392747" lon="5.970241975671914" id="-64886">
		<tag k="fixme" v="consider place=hamlet" />
		<tag k="name" v="Kinna" />
		<tag k="place" v="farm" />
		<tag k="ssr:stedsnr" v="190387" />
	</node>
	<node lat="61.4243976469106" lon="6.092869717871479" id="-64887">
		<tag k="fixme" v="consider place=hamlet" />
		<tag k="name" v="Høgset" />
		<tag k="place" v="farm" />
		<tag k="ssr:stedsnr" v="190394" />
	</node>
	<node lat="61.420095223067115" lon="6.111451958527606" id="-64888">
		<tag k="alt_name" v="Nydal" />
		<tag k="fixme" v="consider place=hamlet" />
		<tag k="name" v="Nyddalen" />
		<tag k="place" v="farm" />
		<tag k="ssr:stedsnr" v="190395" />
	</node>
	<node lat="61.505269054451404" lon="5.674645834898176" id="-64890">
		<tag k="fixme" v="consider place=hamlet" />
		<tag k="name" v="Kringla" />
		<tag k="place" v="farm" />
		<tag k="ssr:stedsnr" v="190397" />
	</node>
	<node lat="61.44601666284273" lon="5.983458325574788" id="-64891">
		<tag k="historic" v="shieling" />
		<tag k="name" v="Mostølen" />
		<tag k="place" v="isolated_dwelling" />
		<tag k="ssr:stedsnr" v="190345" />
	</node>
	<node lat="61.5059861104894" lon="5.557000001687793" id="-64894">
		<tag k="historic" v="shieling" />
		<tag k="name" v="Dalestølen" />
		<tag k="place" v="isolated_dwelling" />
		<tag k="ssr:stedsnr" v="190448" />
	</node>
	<node lat="61.50262777445071" lon="5.4040444541970905" id="-64901">
		<tag k="historic" v="shieling" />
		<tag k="name" v="Bjørndalen" />
		<tag k="place" v="isolated_dwelling" />
		<tag k="ssr:stedsnr" v="190639" />
	</node>
	<node lat="61.45531882108849" lon="5.48235184010849" id="-64902">
		<tag k="fixme" v="consider place=hamlet" />
		<tag k="name" v="Helleneset" />
		<tag k="place" v="farm" />
		<tag k="ssr:stedsnr" v="190651" />
	</node>
	<node lat="61.4381333316503" lon="5.65944444839108" id="-64908">
		<tag k="name" v="Runnane" />
		<tag k="place" v="farm" />
		<tag k="ssr:stedsnr" v="190850" />
	</node>
	<node lat="61.382325002767026" lon="5.8038083344852485" id="-64910">
		<tag k="name" v="Nyheim" />
		<tag k="place" v="farm" />
		<tag k="ssr:stedsnr" v="190931" />
	</node>
	<node lat="61.3810121449182" lon="5.817416439966963" id="-64911">
		<tag k="fixme" v="consider place=hamlet" />
		<tag k="name" v="Skilbrei" />
		<tag k="place" v="farm" />
		<tag k="ssr:stedsnr" v="190933" />
	</node>
	<node lat="61.405530104575284" lon="5.783308312561011" id="-64914">
		<tag k="historic" v="shieling" />
		<tag k="name" v="Bringelandsstølane" />
		<tag k="place" v="isolated_dwelling" />
		<tag k="ssr:stedsnr" v="190790" />
	</node>
	<node lat="61.58013889013409" lon="5.933958340928954" id="-64917">
		<tag k="name" v="Kleiveland" />
		<tag k="place" v="farm" />
		<tag k="ssr:stedsnr" v="191198" />
	</node>
	<node lat="61.382553324720874" lon="5.670597241010458" id="-64918">
		<tag k="fixme" v="consider place=hamlet" />
		<tag k="name" v="Yndestad" />
		<tag k="place" v="farm" />
		<tag k="ssr:stedsnr" v="190949" />
	</node>
	<node lat="61.37798901972599" lon="5.633309682006493" id="-64919">
		<tag k="fixme" v="consider place=hamlet" />
		<tag k="name" v="Kappstad" />
		<tag k="place" v="farm" />
		<tag k="ssr:stedsnr" v="190951" />
	</node>
	<node lat="61.53434722386062" lon="6.1498194420346906" id="-64920">
		<tag k="historic" v="shieling" />
		<tag k="name" v="Bergsstøylane" />
		<tag k="place" v="isolated_dwelling" />
		<tag k="ssr:stedsnr" v="191138" />
	</node>
	<node lat="61.508452775712506" lon="6.066127771735314" id="-64926">
		<tag k="historic" v="shieling" />
		<tag k="name" v="Vårstøylen" />
		<tag k="place" v="isolated_dwelling" />
		<tag k="ssr:stedsnr" v="192174" />
	</node>
	<node lat="61.59834444427596" lon="5.812886115254473" id="-64929">
		<tag k="historic" v="shieling" />
		<tag k="name" v="Hamrestølen" />
		<tag k="place" v="isolated_dwelling" />
		<tag k="ssr:stedsnr" v="191440" />
	</node>
	<node lat="61.562983331215776" lon="6.446150006118904" id="-64933">
		<tag k="name" v="Husslåttene" />
		<tag k="place" v="farm" />
		<tag k="ssr:stedsnr" v="191951" />
	</node>
	<node lat="61.54851388914863" lon="6.266802774721809" id="-64934">
		<tag k="name" v="Dalebø" />
		<tag k="place" v="farm" />
		<tag k="ssr:stedsnr" v="191955" />
	</node>
	<node lat="61.52957499833564" lon="6.223802768901441" id="-64938">
		<tag k="name" v="Solli" />
		<tag k="place" v="farm" />
		<tag k="ssr:stedsnr" v="191993" />
	</node>
	<node lat="61.48818333631349" lon="6.106286115692211" id="-64973">
		<tag k="alt_name" v="Lergrovbakke;Lergrovbakken" />
		<tag k="fixme" v="consider place=hamlet" />
		<tag k="name" v="Leirgrovbakken" />
		<tag k="place" v="farm" />
		<tag k="ssr:stedsnr" v="214123" />
	</node>
	<node lat="61.32525000109088" lon="5.680063890957528" id="-65016">
		<tag k="historic" v="shieling" />
		<tag k="name" v="Øvrebøstøl" />
		<tag k="place" v="isolated_dwelling" />
		<tag k="ssr:stedsnr" v="220356" />
	</node>
	<node lat="61.546519441914896" lon="5.786397231093008" id="-65031">
		<tag k="name" v="Nyheim" />
		<tag k="place" v="farm" />
		<tag k="ssr:stedsnr" v="225923" />
	</node>
	<node lat="61.43527777715612" lon="5.891974993725022" id="-65069">
		<tag k="historic" v="shieling" />
		<tag k="name" v="Nyestølen" />
		<tag k="place" v="isolated_dwelling" />
		<tag k="ssr:stedsnr" v="274898" />
	</node>
	<node lat="61.32161388655847" lon="5.732474993650783" id="-65166">
		<tag k="name" v="Ytrebø" />
		<tag k="place" v="farm" />
		<tag k="ssr:stedsnr" v="311148" />
	</node>
	<node lat="61.31057826654338" lon="5.794400578949585" id="-65167">
		<tag k="fixme" v="consider place=hamlet" />
		<tag k="name" v="Løfall" />
		<tag k="place" v="farm" />
		<tag k="ssr:stedsnr" v="311155" />
	</node>
	<node lat="61.48682499864509" lon="6.093491659442679" id="-65171">
		<tag k="name" v="Bakkeslåttene" />
		<tag k="place" v="farm" />
		<tag k="ssr:stedsnr" v="311338" />
	</node>
	<node lat="61.48180710302898" lon="5.945544090131271" id="-65172">
		<tag k="fixme" v="consider place=hamlet" />
		<tag k="name" v="Ramstad" />
		<tag k="place" v="farm" />
		<tag k="ssr:stedsnr" v="311345" />
	</node>
	<node lat="61.485090163594656" lon="6.126565058285625" id="-65174">
		<tag k="alt_name" v="Gjesdal" />
		<tag k="fixme" v="consider place=hamlet" />
		<tag k="name" v="Gjesdalen" />
		<tag k="place" v="farm" />
		<tag k="ssr:stedsnr" v="311355" />
	</node>
	<node lat="61.47330000167639" lon="6.092836115546296" id="-65175">
		<tag k="alt_name" v="Støylen" />
		<tag k="historic" v="shieling" />
		<tag k="name" v="Øygardsstøylen" />
		<tag k="place" v="isolated_dwelling" />
		<tag k="ssr:stedsnr" v="311368" />
	</node>
	<node lat="61.34004915159772" lon="5.7458765445144655" id="-65178">
		<tag k="fixme" v="consider place=hamlet" />
		<tag k="name" v="Alvera" />
		<tag k="place" v="farm" />
		<tag k="ssr:stedsnr" v="311046" />
	</node>
	<node lat="61.618371320208325" lon="6.450546270180987" id="-65182">
		<tag k="fixme" v="consider place=hamlet" />
		<tag k="name" v="Førde" />
		<tag k="place" v="farm" />
		<tag k="ssr:stedsnr" v="313033" />
	</node>
	<node lat="61.30387610775189" lon="5.802887642797192" id="-65183">
		<tag k="fixme" v="consider place=hamlet" />
		<tag k="name" v="Årbergsbotnen" />
		<tag k="place" v="farm" />
		<tag k="ssr:stedsnr" v="311119" />
	</node>
	<node lat="61.5019361265107" lon="5.792128896506665" id="-65187">
		<tag k="fixme" v="consider place=hamlet" />
		<tag k="name" v="Kloppstad" />
		<tag k="old_name" v="Øvre Klopstad;Øvre Kloppstad" />
		<tag k="place" v="farm" />
		<tag k="ssr:stedsnr" v="311434" />
	</node>
	<node lat="61.411033241154676" lon="5.894350219118177" id="-65188">
		<tag k="alt_name" v="Masdal" />
		<tag k="fixme" v="consider place=hamlet" />
		<tag k="name" v="Masdalen" />
		<tag k="place" v="farm" />
		<tag k="ssr:stedsnr" v="311435" />
	</node>
	<node lat="61.410786113626564" lon="5.913955552320046" id="-65189">
		<tag k="name" v="Åsen" />
		<tag k="place" v="farm" />
		<tag k="ssr:stedsnr" v="311436" />
	</node>
	<node lat="61.40516666933082" lon="6.068050008162695" id="-65191">
		<tag k="historic" v="shieling" />
		<tag k="name" v="Husetuftstølen" />
		<tag k="place" v="isolated_dwelling" />
		<tag k="ssr:stedsnr" v="311446" />
	</node>
	<node lat="61.520805559485666" lon="5.6567750012149896" id="-65195">
		<tag k="historic" v="shieling" />
		<tag k="name" v="Liastølen" />
		<tag k="place" v="isolated_dwelling" />
		<tag k="ssr:stedsnr" v="311469" />
	</node>
	<node lat="61.4320036730695" lon="5.925076589113569" id="-65200">
		<tag k="fixme" v="consider place=hamlet" />
		<tag k="name" v="Hagen" />
		<tag k="place" v="farm" />
		<tag k="ssr:stedsnr" v="311409" />
	</node>
	<node lat="61.49131944362807" lon="5.753905561847637" id="-65206">
		<tag k="alt_name" v="Furevikstrand" />
		<tag k="name" v="Furevikstranda" />
		<tag k="place" v="farm" />
		<tag k="ssr:stedsnr" v="311784" />
	</node>
	<node lat="61.49500744976844" lon="5.669714426383254" id="-65209">
		<tag k="alt_name" v="Liabø" />
		<tag k="fixme" v="consider place=hamlet" />
		<tag k="name" v="Liabøen" />
		<tag k="place" v="farm" />
		<tag k="ssr:stedsnr" v="311788" />
	</node>
	<node lat="61.49081634375009" lon="5.619189931015361" id="-65210">
		<tag k="alt_name" v="Øvrebø" />
		<tag k="fixme" v="consider place=hamlet" />
		<tag k="name" v="Bunnestølen" />
		<tag k="place" v="farm" />
		<tag k="ssr:stedsnr" v="311791" />
	</node>
	<node lat="61.3853916706824" lon="6.2898333370632304" id="-65211">
		<tag k="historic" v="shieling" />
		<tag k="name" v="Vikumstølen" />
		<tag k="place" v="isolated_dwelling" />
		<tag k="ssr:stedsnr" v="311795" />
	</node>
	<node lat="61.33101628256297" lon="6.296920983122665" id="-65213">
		<tag k="alt_name" v="Hoffstølen" />
		<tag k="historic" v="shieling" />
		<tag k="name" v="Hovstølen" />
		<tag k="place" v="isolated_dwelling" />
		<tag k="ssr:stedsnr" v="311816" />
	</node>
	<node lat="61.32742013628307" lon="5.9794594697101795" id="-65217">
		<tag k="fixme" v="consider place=hamlet" />
		<tag k="name" v="Vågen" />
		<tag k="place" v="farm" />
		<tag k="ssr:stedsnr" v="311533" />
	</node>
	<node lat="61.492447588277145" lon="5.507201175903711" id="-65220">
		<tag k="alt_name" v="Nordvika;Nordvik" />
		<tag k="fixme" v="consider place=hamlet" />
		<tag k="name" v="Horsevik" />
		<tag k="place" v="farm" />
		<tag k="ssr:stedsnr" v="311545" />
	</node>
	<node lat="61.30948611411203" lon="5.9337166714457" id="-65223">
		<tag k="historic" v="shieling" />
		<tag k="name" v="Kyrkjelistølen" />
		<tag k="place" v="isolated_dwelling" />
		<tag k="ssr:stedsnr" v="311563" />
	</node>
	<node lat="61.27704166698272" lon="5.889080550856641" id="-65225">
		<tag k="historic" v="shieling" />
		<tag k="name" v="Grytåsstølen" />
		<tag k="place" v="isolated_dwelling" />
		<tag k="ssr:stedsnr" v="311630" />
	</node>
	<node lat="61.47258333557345" lon="5.581861106877161" id="-65235">
		<tag k="name" v="Øyrane" />
		<tag k="place" v="locality" />
		<tag k="ssr:stedsnr" v="311742" />
	</node>
	<node lat="61.36237777475655" lon="5.58692221848285" id="-65251">
		<tag k="name" v="Hingarden" />
		<tag k="place" v="farm" />
		<tag k="ssr:stedsnr" v="311951" />
	</node>
	<node lat="61.52843047837242" lon="6.0135684875137905" id="-65253">
		<tag k="fixme" v="consider place=hamlet" />
		<tag k="name" v="Bruket" />
		<tag k="place" v="farm" />
		<tag k="ssr:stedsnr" v="312136" />
	</node>
	<node lat="61.573126530023806" lon="5.915518878742266" id="-65255">
		<tag k="fixme" v="consider place=hamlet" />
		<tag k="name" v="Skaflestad" />
		<tag k="place" v="farm" />
		<tag k="ssr:stedsnr" v="312198" />
	</node>
	<node lat="61.53035223971564" lon="6.232239125360599" id="-65265">
		<tag k="fixme" v="consider place=hamlet" />
		<tag k="name" v="Ålhus" />
		<tag k="place" v="village" />
		<tag k="ssr:stedsnr" v="312992" />
	</node>
	<node lat="61.52207222492706" lon="5.9724750064292245" id="-65267">
		<tag k="historic" v="shieling" />
		<tag k="name" v="Slåttestølen" />
		<tag k="place" v="isolated_dwelling" />
		<tag k="ssr:stedsnr" v="313185" />
	</node>
	<node lat="61.53293660328103" lon="6.032803360313865" id="-65272">
		<tag k="fixme" v="consider place=hamlet" />
		<tag k="name" v="Indrebø" />
		<tag k="place" v="farm" />
		<tag k="ssr:stedsnr" v="313197" />
	</node>
	<node lat="61.570075001408746" lon="6.252188879910922" id="-65275">
		<tag k="alt_name" v="Jostøylen" />
		<tag k="historic" v="shieling" />
		<tag k="name" v="Lia" />
		<tag k="place" v="isolated_dwelling" />
		<tag k="ssr:stedsnr" v="312937" />
	</node>
	<node lat="61.500118962895385" lon="6.17210952171541" id="-65278">
		<tag k="fixme" v="consider place=hamlet" />
		<tag k="name" v="Hammar" />
		<tag k="place" v="farm" />
		<tag k="ssr:stedsnr" v="313148" />
	</node>
	<node lat="61.521367575343156" lon="6.198479046348284" id="-65279">
		<tag k="fixme" v="consider place=hamlet" />
		<tag k="name" v="Solheim" />
		<tag k="place" v="farm" />
		<tag k="ssr:stedsnr" v="313161" />
	</node>
	<node lat="61.43409999675344" lon="5.985783339301555" id="-65288">
		<tag k="amenity" v="school" />
		<tag k="name" v="Mo" />
		<tag k="ssr:stedsnr" v="328496" />
	</node>
	<node lat="61.57990277820474" lon="6.4509361176239155" id="-65341">
		<tag k="historic" v="shieling" />
		<tag k="name" v="Strandastøylen" />
		<tag k="place" v="isolated_dwelling" />
		<tag k="ssr:stedsnr" v="336091" />
	</node>
	<node lat="61.50843333696575" lon="6.060980558208005" id="-65343">
		<tag k="historic" v="shieling" />
		<tag k="name" v="Laremstøylen" />
		<tag k="place" v="isolated_dwelling" />
		<tag k="ssr:stedsnr" v="336165" />
	</node>
	<node lat="61.31753611412682" lon="6.242916661094136" id="-65357">
		<tag k="name" v="Gjermundstadmyra" />
		<tag k="place" v="farm" />
		<tag k="ssr:stedsnr" v="338919" />
	</node>
	<node lat="61.404552797739505" lon="5.444897101668922" id="-65359">
		<tag k="fixme" v="consider tourism=alpine_hut or tourism=chalet" />
		<tag k="name" v="Massbu" />
		<tag k="ssr:stedsnr" v="339279" />
		<tag k="tourism" v="wilderness_hut" />
	</node>
	<node lat="61.52518295585885" lon="6.357057678886459" id="-65412">
		<tag k="fixme" v="consider place=hamlet" />
		<tag k="name" v="Myklebust" />
		<tag k="old_name" v="Myklebust, in" />
		<tag k="place" v="farm" />
		<tag k="ssr:stedsnr" v="360995" />
	</node>
	<node lat="61.27113610682812" lon="5.773055560856492" id="-65417">
		<tag k="historic" v="shieling" />
		<tag k="name" v="Årbergsstølen" />
		<tag k="place" v="isolated_dwelling" />
		<tag k="ssr:stedsnr" v="371180" />
	</node>
	<node lat="61.46505833163351" lon="6.002555546843749" id="-65418">
		<tag k="historic" v="shieling" />
		<tag k="name" v="Innsteinstadstøylen" />
		<tag k="place" v="isolated_dwelling" />
		<tag k="ssr:stedsnr" v="371281" />
	</node>
	<node lat="61.464532915288295" lon="6.047781853835618" id="-65419">
		<tag k="alt_name" v="Slåtten" />
		<tag k="fixme" v="consider place=hamlet" />
		<tag k="name" v="Slåttene" />
		<tag k="place" v="farm" />
		<tag k="ssr:stedsnr" v="371290" />
	</node>
	<node lat="61.46301709307013" lon="5.897188151196901" id="-65420">
		<tag k="alt_name" v="Slåtten" />
		<tag k="fixme" v="consider place=hamlet" />
		<tag k="name" v="Slåttene" />
		<tag k="place" v="farm" />
		<tag k="ssr:stedsnr" v="371295" />
	</node>
	<node lat="61.34664166716594" lon="5.94629999646082" id="-65422">
		<tag k="alt_name" v="Indre Hestadstølane" />
		<tag k="historic" v="shieling" />
		<tag k="name" v="Hestadstølen" />
		<tag k="place" v="isolated_dwelling" />
		<tag k="ssr:stedsnr" v="371437" />
	</node>
	<node lat="61.346575003318684" lon="5.9180999903372635" id="-65423">
		<tag k="historic" v="shieling" />
		<tag k="name" v="Kjelstadstølen" />
		<tag k="place" v="isolated_dwelling" />
		<tag k="ssr:stedsnr" v="371439" />
	</node>
	<node lat="61.485794443172146" lon="5.5656027784412165" id="-65426">
		<tag k="historic" v="shieling" />
		<tag k="name" v="Einevollsstølen" />
		<tag k="place" v="isolated_dwelling" />
		<tag k="ssr:stedsnr" v="371732" />
	</node>
	<node lat="61.475576064381585" lon="5.627767703700841" id="-65436">
		<tag k="fixme" v="consider place=hamlet" />
		<tag k="name" v="Buanes" />
		<tag k="place" v="farm" />
		<tag k="ssr:stedsnr" v="371692" />
	</node>
	<node lat="61.33355226721877" lon="6.277400103038383" id="-65437">
		<tag k="alt_name" v="Hoffslåttene;Hov" />
		<tag k="name" v="Hovslåttene" />
		<tag k="old_name" v="Hev" />
		<tag k="place" v="locality" />
		<tag k="ssr:stedsnr" v="371699" />
	</node>
	<node lat="61.30249444871724" lon="5.816052774708647" id="-65438">
		<tag k="alt_name" v="Birkehaug" />
		<tag k="name" v="Byrkjehaugen" />
		<tag k="place" v="farm" />
		<tag k="ssr:stedsnr" v="372181" />
	</node>
	<node lat="61.49171647468384" lon="6.070160752372184" id="-65439">
		<tag k="fixme" v="consider place=hamlet" />
		<tag k="name" v="Storetræet" />
		<tag k="place" v="farm" />
		<tag k="ssr:stedsnr" v="372299" />
	</node>
	<node lat="61.39986944261795" lon="5.68428333157356" id="-65440">
		<tag k="historic" v="shieling" />
		<tag k="name" v="Yndestadstølen" />
		<tag k="place" v="isolated_dwelling" />
		<tag k="ssr:stedsnr" v="372773" />
	</node>
	<node lat="61.39879444640098" lon="5.705536117962321" id="-65441">
		<tag k="historic" v="shieling" />
		<tag k="name" v="Fauskestølen" />
		<tag k="place" v="isolated_dwelling" />
		<tag k="ssr:stedsnr" v="372775" />
	</node>
	<node lat="61.40136944631411" lon="5.663711112863477" id="-65442">
		<tag k="historic" v="shieling" />
		<tag k="name" v="Kvamsstølen" />
		<tag k="place" v="isolated_dwelling" />
		<tag k="ssr:stedsnr" v="372776" />
	</node>
	<node lat="61.44238889353954" lon="5.7991027863982705" id="-65445">
		<tag k="alt_name" v="Halbrendstølane" />
		<tag k="historic" v="shieling" />
		<tag k="name" v="Hallbrendstølane" />
		<tag k="place" v="isolated_dwelling" />
		<tag k="ssr:stedsnr" v="371826" />
	</node>
	<node lat="61.39370987233318" lon="5.624049289194757" id="-65447">
		<tag k="name" v="Meltavollen" />
		<tag k="place" v="locality" />
		<tag k="ssr:stedsnr" v="371974" />
	</node>
	<node lat="61.38844123674008" lon="5.617063939610076" id="-65448">
		<tag k="fixme" v="consider place=hamlet" />
		<tag k="name" v="Berge" />
		<tag k="place" v="farm" />
		<tag k="ssr:stedsnr" v="371979" />
	</node>
	<node lat="61.38702222192187" lon="5.611530551998003" id="-65449">
		<tag k="name" v="Teigen" />
		<tag k="place" v="farm" />
		<tag k="ssr:stedsnr" v="371984" />
	</node>
	<node lat="61.381158513026506" lon="5.6479803557759025" id="-65450">
		<tag k="fixme" v="consider place=hamlet" />
		<tag k="name" v="Bygstad" />
		<tag k="place" v="farm" />
		<tag k="ssr:stedsnr" v="371986" />
	</node>
	<node lat="61.38028347906184" lon="5.495898288856945" id="-65451">
		<tag k="fixme" v="consider place=hamlet" />
		<tag k="name" v="Hestad" />
		<tag k="place" v="farm" />
		<tag k="ssr:stedsnr" v="371991" />
	</node>
	<node lat="61.3664102408534" lon="5.609593526156867" id="-65453">
		<tag k="alt_name" v="Ekehaug" />
		<tag k="fixme" v="consider place=hamlet" />
		<tag k="name" v="Eikehaugen" />
		<tag k="place" v="farm" />
		<tag k="ssr:stedsnr" v="371892" />
	</node>
	<node lat="61.417926287819284" lon="5.933848614580875" id="-65460">
		<tag k="alt_name" v="Refsdal" />
		<tag k="fixme" v="consider place=hamlet" />
		<tag k="name" v="Revsdalen" />
		<tag k="place" v="farm" />
		<tag k="ssr:stedsnr" v="372380" />
	</node>
	<node lat="61.508549997419635" lon="5.656774999638355" id="-65461">
		<tag k="historic" v="shieling" />
		<tag k="name" v="Mallasvikstølane" />
		<tag k="place" v="isolated_dwelling" />
		<tag k="ssr:stedsnr" v="372392" />
	</node>
	<node lat="61.50937471046105" lon="5.772956967218947" id="-65463">
		<tag k="fixme" v="consider place=hamlet" />
		<tag k="name" v="Helgås" />
		<tag k="place" v="farm" />
		<tag k="ssr:stedsnr" v="372398" />
	</node>
	<node lat="61.50677979183268" lon="5.737033701387771" id="-65464">
		<tag k="name" v="Kletten" />
		<tag k="place" v="locality" />
		<tag k="ssr:stedsnr" v="372399" />
	</node>
	<node lat="61.57303005558315" lon="5.776934296097956" id="-65465">
		<tag k="fixme" v="consider place=hamlet" />
		<tag k="name" v="Byrkjeflot" />
		<tag k="place" v="farm" />
		<tag k="ssr:stedsnr" v="372455" />
	</node>
	<node lat="61.56948052941824" lon="5.781303399491136" id="-65467">
		<tag k="fixme" v="consider place=hamlet" />
		<tag k="name" v="Åmot" />
		<tag k="place" v="farm" />
		<tag k="ssr:stedsnr" v="372458" />
	</node>
	<node lat="61.566772988477844" lon="5.792669726307758" id="-65468">
		<tag k="fixme" v="consider place=hamlet" />
		<tag k="name" v="Ospehaugen" />
		<tag k="place" v="farm" />
		<tag k="ssr:stedsnr" v="372459" />
	</node>
	<node lat="61.552986108775556" lon="5.819574991505901" id="-65469">
		<tag k="historic" v="shieling" />
		<tag k="name" v="Rognebakkstølen" />
		<tag k="place" v="isolated_dwelling" />
		<tag k="ssr:stedsnr" v="372475" />
	</node>
	<node lat="61.50530555238245" lon="5.461702769072926" id="-65470">
		<tag k="historic" v="shieling" />
		<tag k="name" v="Grytastølen" />
		<tag k="place" v="isolated_dwelling" />
		<tag k="ssr:stedsnr" v="372655" />
	</node>
	<node lat="61.40877234180835" lon="5.9768451678897385" id="-65476">
		<tag k="alt_name" v="Byrkjeflot" />
		<tag k="fixme" v="consider place=hamlet" />
		<tag k="name" v="Byrkjefloten" />
		<tag k="place" v="farm" />
		<tag k="ssr:stedsnr" v="372408" />
	</node>
	<node lat="61.53445577897365" lon="5.753641998060568" id="-65478">
		<tag k="fixme" v="consider place=hamlet" />
		<tag k="name" v="Hove" />
		<tag k="place" v="farm" />
		<tag k="ssr:stedsnr" v="372439" />
	</node>
	<node lat="61.41280277384989" lon="5.715533336036369" id="-65484">
		<tag k="alt_name" v="Åmotstølen" />
		<tag k="historic" v="shieling" />
		<tag k="name" v="Åmotsstølen" />
		<tag k="place" v="isolated_dwelling" />
		<tag k="ssr:stedsnr" v="372828" />
	</node>
	<node lat="61.411305557285445" lon="5.7640249904911895" id="-65485">
		<tag k="historic" v="shieling" />
		<tag k="name" v="Gjøsetstølen" />
		<tag k="place" v="isolated_dwelling" />
		<tag k="ssr:stedsnr" v="372832" />
	</node>
	<node lat="61.38164999683449" lon="5.800619436850921" id="-65490">
		<tag k="alt_name" v="Storehaug" />
		<tag k="name" v="Storehaugen" />
		<tag k="place" v="farm" />
		<tag k="ssr:stedsnr" v="372944" />
	</node>
	<node lat="61.55345277893412" lon="6.070877785261978" id="-65498">
		<tag k="historic" v="shieling" />
		<tag k="name" v="Gamlestølen" />
		<tag k="place" v="isolated_dwelling" />
		<tag k="ssr:stedsnr" v="373178" />
	</node>
	<node lat="61.57132527227548" lon="5.965619615648029" id="-65500">
		<tag k="name" v="Reinene" />
		<tag k="place" v="farm" />
		<tag k="ssr:stedsnr" v="373194" />
	</node>
	<node lat="61.59525833567156" lon="6.306463886231378" id="-65503">
		<tag k="historic" v="shieling" />
		<tag k="name" v="Legestøylen" />
		<tag k="place" v="isolated_dwelling" />
		<tag k="ssr:stedsnr" v="374025" />
	</node>
	<node lat="61.60985555383965" lon="6.529752770988386" id="-65504">
		<tag k="fixme" v="consider place=hamlet" />
		<tag k="name" v="Klakegg" />
		<tag k="place" v="village" />
		<tag k="ssr:stedsnr" v="374031" />
	</node>
	<node lat="61.54642499633665" lon="5.880272218289246" id="-65508">
		<tag k="historic" v="shieling" />
		<tag k="name" v="Smådalsstølen" />
		<tag k="place" v="isolated_dwelling" />
		<tag k="ssr:stedsnr" v="495212" />
	</node>
	<node lat="61.5472750000006" lon="6.284344449183177" id="-65517">
		<tag k="historic" v="shieling" />
		<tag k="name" v="Skarstøylen" />
		<tag k="place" v="isolated_dwelling" />
		<tag k="ssr:stedsnr" v="494991" />
	</node>
	<node lat="61.52710824731874" lon="6.308228092454291" id="-65519">
		<tag k="fixme" v="consider place=hamlet" />
		<tag k="name" v="Bjørset" />
		<tag k="place" v="farm" />
		<tag k="ssr:stedsnr" v="494996" />
	</node>
	<node lat="61.529244442984606" lon="6.2515083350565295" id="-65520">
		<tag k="name" v="Skjervane" />
		<tag k="place" v="farm" />
		<tag k="ssr:stedsnr" v="494999" />
	</node>
	<node lat="61.536133500299705" lon="5.853777313293884" id="-65521">
		<tag k="alt_name" v="Kløpstølen;Kleppstølen" />
		<tag k="fixme" v="consider place=hamlet" />
		<tag k="name" v="Kleppsstølen" />
		<tag k="place" v="farm" />
		<tag k="ssr:stedsnr" v="495191" />
	</node>
	<node lat="61.54555833758542" lon="5.984325004236204" id="-65522">
		<tag k="name" v="Stranda" />
		<tag k="place" v="locality" />
		<tag k="ssr:stedsnr" v="495192" />
	</node>
	<node lat="61.500511111788" lon="5.984686112914537" id="-65526">
		<tag k="alt_name" v="Grimelandshaug" />
		<tag k="name" v="Grimelandshaugen" />
		<tag k="place" v="farm" />
		<tag k="ssr:stedsnr" v="495155" />
	</node>
	<node lat="61.52946944835158" lon="6.198249998796176" id="-65574">
		<tag k="historic" v="shieling" />
		<tag k="name" v="Bakkestøylen" />
		<tag k="place" v="isolated_dwelling" />
		<tag k="ssr:stedsnr" v="396150" />
	</node>
	<node lat="61.58442222410522" lon="5.9475805570024916" id="-65635">
		<tag k="fixme" v="consider place=hamlet" />
		<tag k="name" v="Bruflot" />
		<tag k="place" v="farm" />
		<tag k="ssr:stedsnr" v="408619" />
	</node>
	<node lat="61.51008033188161" lon="6.264238906799861" id="-65648">
		<tag k="alt_name" v="Sanddalen" />
		<tag k="fixme" v="consider place=hamlet" />
		<tag k="name" v="Sanddal" />
		<tag k="old_name" v="Sanddal, yt" />
		<tag k="place" v="farm" />
		<tag k="ssr:stedsnr" v="421889" />
	</node>
</osm>
