<?xml version="1.0" encoding="UTF-8"?>
<osm version="0.6" generator="osmapis">
	<node lat="61.406599999594825" lon="6.20901945168752" id="-42858">
		<tag k="name" v="Svoramyrane" />
		<tag k="natural" v="wetland" />
		<tag k="ssr:stedsnr" v="7403" />
	</node>
	<node lat="61.49708333710425" lon="6.044505555006866" id="-42972">
		<tag k="name" v="Kvilesteinen" />
		<tag k="natural" v="stone" />
		<tag k="ssr:stedsnr" v="32108" />
	</node>
	<node lat="61.43379721960954" lon="5.699183332311999" id="-42975">
		<tag k="name" v="Gjestebodmyrane" />
		<tag k="natural" v="wetland" />
		<tag k="ssr:stedsnr" v="31876" />
	</node>
	<node lat="61.46936666975211" lon="6.0016222183661725" id="-42985">
		<tag k="name" v="Gråura" />
		<tag k="natural" v="scree" />
		<tag k="ssr:stedsnr" v="32815" />
	</node>
	<node lat="61.592683330021586" lon="6.738130555178506" id="-42988">
		<tag k="name" v="Geitbruura" />
		<tag k="natural" v="scree" />
		<tag k="ssr:stedsnr" v="32771" />
	</node>
	<node lat="61.383049998927085" lon="5.613522216501489" id="-43001">
		<tag k="name" v="Vedalsmyrane" />
		<tag k="natural" v="wetland" />
		<tag k="ssr:stedsnr" v="37162" />
	</node>
	<node lat="61.32955555765642" lon="6.05673889662128" id="-43003">
		<tag k="name" v="Fura" />
		<tag k="place" v="locality" />
		<tag k="ssr:stedsnr" v="37666" />
	</node>
	<node lat="61.39868333423614" lon="5.48778332476844" id="-43009">
		<tag k="name" v="Geitesteinen" />
		<tag k="natural" v="stone" />
		<tag k="ssr:stedsnr" v="38013" />
	</node>
	<node lat="61.385636111608505" lon="5.605702776982964" id="-43010">
		<tag k="name" v="Kalveskinnsmyra" />
		<tag k="natural" v="wetland" />
		<tag k="ssr:stedsnr" v="38022" />
	</node>
	<node lat="61.52081389307089" lon="5.7930444519080435" id="-43016">
		<tag k="name" v="Jarane" />
		<tag k="natural" v="wetland" />
		<tag k="ssr:stedsnr" v="43801" />
	</node>
	<node lat="61.57439722161872" lon="6.396122222513212" id="-43118">
		<tag k="name" v="Svevamyrane" />
		<tag k="natural" v="wetland" />
		<tag k="ssr:stedsnr" v="93020" />
	</node>
	<node lat="61.43482500317888" lon="6.403552785341597" id="-43125">
		<tag k="name" v="Blåfjellsura" />
		<tag k="natural" v="scree" />
		<tag k="ssr:stedsnr" v="92776" />
	</node>
	<node lat="61.320661113041474" lon="6.196747214806191" id="-43141">
		<tag k="name" v="Bjørnemyra" />
		<tag k="natural" v="wetland" />
		<tag k="ssr:stedsnr" v="96869" />
	</node>
	<node lat="61.36345000105974" lon="5.621463897364408" id="-43149">
		<tag k="name" v="Storemyra" />
		<tag k="natural" v="wetland" />
		<tag k="ssr:stedsnr" v="98211" />
	</node>
	<node lat="61.36463055478759" lon="5.620902770791105" id="-43150">
		<tag k="name" v="Teigen" />
		<tag k="place" v="locality" />
		<tag k="ssr:stedsnr" v="98212" />
	</node>
	<node lat="61.481797225562225" lon="5.5135944451126235" id="-43164">
		<tag k="name" v="Tjørnamyra" />
		<tag k="natural" v="wetland" />
		<tag k="ssr:stedsnr" v="104075" />
	</node>
	<node lat="61.470724995717404" lon="5.561027783132478" id="-43175">
		<tag k="name" v="Langura" />
		<tag k="natural" v="scree" />
		<tag k="ssr:stedsnr" v="104815" />
	</node>
	<node lat="61.58306110932086" lon="5.827597231740157" id="-43180">
		<tag k="name" v="Slåttemyrane" />
		<tag k="natural" v="wetland" />
		<tag k="ssr:stedsnr" v="104774" />
	</node>
	<node lat="61.55298610862421" lon="5.7636388883302" id="-43184">
		<tag k="name" v="Fessene" />
		<tag k="place" v="locality" />
		<tag k="ssr:stedsnr" v="104915" />
	</node>
	<node lat="61.34622499587477" lon="5.608199994399762" id="-43200">
		<tag k="name" v="Storediket" />
		<tag k="natural" v="wetland" />
		<tag k="ssr:stedsnr" v="250055" />
	</node>
	<node lat="61.406930554421805" lon="6.175475007759764" id="-43223">
		<tag k="name" v="Leitet" />
		<tag k="place" v="locality" />
		<tag k="ssr:stedsnr" v="250401" />
	</node>
	<node lat="61.45829166580686" lon="5.765627779454752" id="-43251">
		<tag k="alt_name" v="Sjurstølslonene" />
		<tag k="name" v="Sjurdsstølslonene" />
		<tag k="natural" v="wetland" />
		<tag k="ssr:stedsnr" v="250631" />
	</node>
	<node lat="61.37998055200063" lon="5.729769438382752" id="-43296">
		<tag k="alt_name" v="Tjørnarmyra" />
		<tag k="name" v="Tjørnamyra" />
		<tag k="natural" v="wetland" />
		<tag k="ssr:stedsnr" v="250900" />
	</node>
	<node lat="61.55831944285261" lon="5.8597527704400365" id="-43345">
		<tag k="name" v="Løkene" />
		<tag k="natural" v="wetland" />
		<tag k="ssr:stedsnr" v="252183" />
	</node>
	<node lat="61.57580555933788" lon="5.90751666494642" id="-43348">
		<tag k="name" v="Skogaøyna" />
		<tag k="natural" v="wetland" />
		<tag k="ssr:stedsnr" v="252193" />
	</node>
	<node lat="61.60076111395352" lon="6.0521138924381885" id="-43431">
		<tag k="name" v="Gamlestølsmyrane" />
		<tag k="natural" v="wetland" />
		<tag k="ssr:stedsnr" v="130216" />
	</node>
	<node lat="61.65853055789794" lon="6.722905552401618" id="-43433">
		<tag k="name" v="Haugabreen" />
		<tag k="natural" v="glacier" />
		<tag k="ssr:stedsnr" v="130922" />
	</node>
	<node lat="61.521524997008115" lon="6.691100008576651" id="-43447">
		<tag k="name" v="Lundabreen" />
		<tag k="natural" v="glacier" />
		<tag k="ssr:stedsnr" v="252842" />
	</node>
	<node lat="61.55881667037618" lon="6.25873333325516" id="-43490">
		<tag k="name" v="Ursteinen" />
		<tag k="natural" v="stone" />
		<tag k="ssr:stedsnr" v="153218" />
	</node>
	<node lat="61.40931388764861" lon="5.808136115705771" id="-43523">
		<tag k="name" v="Steinen" />
		<tag k="natural" v="stone" />
		<tag k="ssr:stedsnr" v="159411" />
	</node>
	<node lat="61.38028055275411" lon="5.735880548950995" id="-43585">
		<tag k="name" v="Styggemyra" />
		<tag k="natural" v="wetland" />
		<tag k="ssr:stedsnr" v="190919" />
	</node>
	<node lat="61.56075833576443" lon="5.844041672165802" id="-43593">
		<tag k="name" v="Storemyra" />
		<tag k="natural" v="wetland" />
		<tag k="ssr:stedsnr" v="191180" />
	</node>
	<node lat="61.49445278094884" lon="5.9563499992676" id="-43609">
		<tag k="name" v="Kyramyra" />
		<tag k="natural" v="wetland" />
		<tag k="ssr:stedsnr" v="213807" />
	</node>
	<node lat="61.431980555361704" lon="6.362549998867219" id="-43611">
		<tag k="name" v="Fjellmyrane" />
		<tag k="natural" v="wetland" />
		<tag k="ssr:stedsnr" v="213810" />
	</node>
	<node lat="61.527733336554206" lon="6.098280557563004" id="-43637">
		<tag k="name" v="Skjenstosteinen" />
		<tag k="natural" v="stone" />
		<tag k="ssr:stedsnr" v="214116" />
	</node>
	<node lat="61.50303333061815" lon="6.057763879924268" id="-43640">
		<tag k="name" v="Trollhamarmyra" />
		<tag k="natural" v="wetland" />
		<tag k="ssr:stedsnr" v="214129" />
	</node>
	<node lat="61.36527777934448" lon="5.6412555525441235" id="-43660">
		<tag k="name" v="Sponmyra" />
		<tag k="natural" v="wetland" />
		<tag k="ssr:stedsnr" v="219804" />
	</node>
	<node lat="61.603769447836974" lon="5.975644452468921" id="-43672">
		<tag k="name" v="Slåttene" />
		<tag k="place" v="locality" />
		<tag k="ssr:stedsnr" v="225595" />
	</node>
	<node lat="61.571627778741345" lon="5.964433330519247" id="-43673">
		<tag k="name" v="Kalvegjerdet" />
		<tag k="place" v="locality" />
		<tag k="ssr:stedsnr" v="225491" />
	</node>
	<node lat="61.39491944258536" lon="6.172675007287833" id="-43699">
		<tag k="name" v="Høgelisteinen" />
		<tag k="natural" v="stone" />
		<tag k="ssr:stedsnr" v="456782" />
	</node>
	<node lat="61.47425000144989" lon="5.964877777389598" id="-43706">
		<tag k="name" v="Stesteinen" />
		<tag k="natural" v="stone" />
		<tag k="ssr:stedsnr" v="456754" />
	</node>
	<node lat="61.442011108812544" lon="6.481391674628707" id="-43727">
		<tag k="name" v="Storura" />
		<tag k="natural" v="scree" />
		<tag k="ssr:stedsnr" v="456852" />
	</node>
	<node lat="61.44223888894824" lon="5.8920333272673995" id="-43734">
		<tag k="name" v="Ingvaldmyra" />
		<tag k="natural" v="wetland" />
		<tag k="ssr:stedsnr" v="456925" />
	</node>
	<node lat="61.505844447029894" lon="5.276872214189798" id="-43748">
		<tag k="name" v="Tuemyra" />
		<tag k="natural" v="wetland" />
		<tag k="ssr:stedsnr" v="263397" />
	</node>
	<node lat="61.35681110821126" lon="6.102386104801327" id="-43750">
		<tag k="name" v="Haugemarka" />
		<tag k="place" v="locality" />
		<tag k="ssr:stedsnr" v="458030" />
	</node>
	<node lat="61.360388886380825" lon="6.167408331975429" id="-43751">
		<tag k="name" v="Urene" />
		<tag k="natural" v="scree" />
		<tag k="ssr:stedsnr" v="458128" />
	</node>
	<node lat="61.43938055448943" lon="5.878741665530542" id="-43776">
		<tag k="name" v="Viåtemyra" />
		<tag k="natural" v="wetland" />
		<tag k="ssr:stedsnr" v="274905" />
	</node>
	<node lat="61.486636115287396" lon="6.1056916699147035" id="-43782">
		<tag k="name" v="Hjellsteinen" />
		<tag k="natural" v="stone" />
		<tag k="ssr:stedsnr" v="275129" />
	</node>
	<node lat="61.348955557345484" lon="6.10570000657256" id="-43791">
		<tag k="name" v="Kongsteigen" />
		<tag k="place" v="locality" />
		<tag k="ssr:stedsnr" v="276043" />
	</node>
	<node lat="61.3616861110689" lon="5.786433329287734" id="-43803">
		<tag k="name" v="Slåttene" />
		<tag k="place" v="locality" />
		<tag k="ssr:stedsnr" v="280416" />
	</node>
	<node lat="61.5987388920994" lon="6.062422222051416" id="-43809">
		<tag k="name" v="Lægdene" />
		<tag k="place" v="locality" />
		<tag k="ssr:stedsnr" v="281477" />
	</node>
	<node lat="61.5278666636503" lon="5.840047217865748" id="-43816">
		<tag k="name" v="Myrane" />
		<tag k="natural" v="wetland" />
		<tag k="ssr:stedsnr" v="286437" />
	</node>
	<node lat="61.357913889822576" lon="5.758894442485714" id="-43830">
		<tag k="name" v="Tjørnamyra" />
		<tag k="natural" v="wetland" />
		<tag k="ssr:stedsnr" v="462024" />
	</node>
	<node lat="61.312002780228376" lon="5.957008333009928" id="-43838">
		<tag k="name" v="Myrane" />
		<tag k="natural" v="wetland" />
		<tag k="ssr:stedsnr" v="462677" />
	</node>
	<node lat="61.32475256548451" lon="6.012691061305457" id="-43874">
		<tag k="alt_name" v="Riura" />
		<tag k="name" v="Riurda" />
		<tag k="natural" v="scree" />
		<tag k="ssr:stedsnr" v="311596" />
	</node>
	<node lat="61.577208331322986" lon="5.736866670619002" id="-43929">
		<tag k="name" v="Storemyra" />
		<tag k="natural" v="wetland" />
		<tag k="ssr:stedsnr" v="468739" />
	</node>
	<node lat="61.58653333488076" lon="5.8605805504274295" id="-43930">
		<tag k="name" v="Gamlestølsmyra" />
		<tag k="natural" v="wetland" />
		<tag k="ssr:stedsnr" v="468790" />
	</node>
	<node lat="61.50828332935564" lon="5.317583335812243" id="-43936">
		<tag k="name" v="Storesteinane" />
		<tag k="natural" v="stone" />
		<tag k="ssr:stedsnr" v="469257" />
	</node>
	<node lat="61.49466944171009" lon="6.044369435715825" id="-43970">
		<tag k="name" v="Porsmyra" />
		<tag k="natural" v="wetland" />
		<tag k="ssr:stedsnr" v="336150" />
	</node>
	<node lat="61.36120833510681" lon="6.232280564124039" id="-43984">
		<tag k="name" v="Loftsteinen" />
		<tag k="natural" v="stone" />
		<tag k="ssr:stedsnr" v="340947" />
	</node>
	<node lat="61.34170278101674" lon="5.583538879599918" id="-43994">
		<tag k="name" v="Skinøyrane" />
		<tag k="natural" v="wetland" />
		<tag k="ssr:stedsnr" v="341929" />
	</node>
	<node lat="61.482408333921434" lon="5.4834250004710645" id="-44010">
		<tag k="name" v="Rapemyra" />
		<tag k="natural" v="wetland" />
		<tag k="ssr:stedsnr" v="347111" />
	</node>
	<node lat="61.579516664347246" lon="5.942063887485432" id="-44012">
		<tag k="name" v="Slettemarkmyrane" />
		<tag k="natural" v="wetland" />
		<tag k="ssr:stedsnr" v="347602" />
	</node>
	<node lat="61.53314722007641" lon="5.7642749970824045" id="-44016">
		<tag k="name" v="Holemyrane" />
		<tag k="natural" v="wetland" />
		<tag k="ssr:stedsnr" v="347868" />
	</node>
	<node lat="61.579738887436335" lon="5.792177773677616" id="-44076">
		<tag k="name" v="Fitjemyrane" />
		<tag k="natural" v="wetland" />
		<tag k="ssr:stedsnr" v="372517" />
	</node>
	<node lat="61.5035138890852" lon="5.453274999653119" id="-44081">
		<tag k="name" v="Stølsmyra" />
		<tag k="natural" v="wetland" />
		<tag k="ssr:stedsnr" v="372652" />
	</node>
	<node lat="61.498955559950325" lon="6.044477781226907" id="-44136">
		<tag k="name" v="Løkemyra" />
		<tag k="natural" v="wetland" />
		<tag k="ssr:stedsnr" v="396107" />
	</node>
	<node lat="61.60654722216246" lon="6.629586103472022" id="-44158">
		<tag k="name" v="Ospehammarsmyra" />
		<tag k="natural" v="wetland" />
		<tag k="ssr:stedsnr" v="396837" />
	</node>
	<node lat="61.52312777651949" lon="6.4322305628951835" id="-44277">
		<tag k="name" v="Svoramyrane" />
		<tag k="natural" v="wetland" />
		<tag k="ssr:stedsnr" v="434995" />
	</node>
	<node lat="61.34480833192988" lon="5.734166667535163" id="-44299">
		<tag k="name" v="Myrane" />
		<tag k="natural" v="wetland" />
		<tag k="ssr:stedsnr" v="493049" />
	</node>
	<node lat="61.32043888762946" lon="5.707658342242809" id="-44302">
		<tag k="name" v="Langemyra" />
		<tag k="natural" v="wetland" />
		<tag k="ssr:stedsnr" v="493138" />
	</node>
	<node lat="61.348650000893066" lon="5.993211118184451" id="-44316">
		<tag k="name" v="Seltuftene" />
		<tag k="natural" v="wetland" />
		<tag k="ssr:stedsnr" v="493455" />
	</node>
	<node lat="61.526580559754116" lon="5.887758331417967" id="-44356">
		<tag k="name" v="Blautemyra" />
		<tag k="natural" v="wetland" />
		<tag k="ssr:stedsnr" v="494138" />
	</node>
	<node lat="61.493016662731016" lon="6.076288884321624" id="-44390">
		<tag k="name" v="Feflotmyra" />
		<tag k="natural" v="wetland" />
		<tag k="ssr:stedsnr" v="457137" />
	</node>
	<node lat="61.48193055279701" lon="6.0496749924316475" id="-44413">
		<tag k="name" v="Osemyrane" />
		<tag k="natural" v="wetland" />
		<tag k="ssr:stedsnr" v="457812" />
	</node>
	<node lat="61.60641110951491" lon="6.5475999964812015" id="-44417">
		<tag k="name" v="Moldmyrane" />
		<tag k="natural" v="wetland" />
		<tag k="ssr:stedsnr" v="457843" />
	</node>
	<node lat="61.600649998169516" lon="6.7400999912571065" id="-44418">
		<tag k="name" v="Storura" />
		<tag k="natural" v="scree" />
		<tag k="ssr:stedsnr" v="457771" />
	</node>
	<node lat="61.33641944900442" lon="5.734944450268688" id="-44433">
		<tag k="name" v="Storemyra" />
		<tag k="natural" v="wetland" />
		<tag k="ssr:stedsnr" v="462171" />
	</node>
	<node lat="61.38721388536136" lon="5.5033888983154515" id="-44438">
		<tag k="name" v="Sandgotmyra" />
		<tag k="natural" v="wetland" />
		<tag k="ssr:stedsnr" v="463015" />
	</node>
	<node lat="61.357577781535745" lon="5.651066674005985" id="-44442">
		<tag k="alt_name" v="Grønhaugura" />
		<tag k="name" v="Grønhaugurda" />
		<tag k="natural" v="scree" />
		<tag k="ssr:stedsnr" v="675031" />
	</node>
	<node lat="61.544588892198526" lon="5.663749992469118" id="-44466">
		<tag k="name" v="Myrane" />
		<tag k="natural" v="wetland" />
		<tag k="ssr:stedsnr" v="468366" />
	</node>
	<node lat="61.58244999656391" lon="5.904925007920272" id="-44478">
		<tag k="name" v="Starmyrane" />
		<tag k="natural" v="wetland" />
		<tag k="ssr:stedsnr" v="468774" />
	</node>
	<node lat="61.538625001784645" lon="5.775127782937221" id="-44479">
		<tag k="name" v="Horstadøyane" />
		<tag k="place" v="locality" />
		<tag k="ssr:stedsnr" v="468920" />
	</node>
	<node lat="61.39018055313077" lon="6.437741658335928" id="-44516">
		<tag k="name" v="Skarvedalsbreen" />
		<tag k="natural" v="glacier" />
		<tag k="ssr:stedsnr" v="675763" />
	</node>
	<node lat="61.52479444061055" lon="6.008691675219004" id="-44553">
		<tag k="name" v="Eikelandsmyrane" />
		<tag k="natural" v="wetland" />
		<tag k="ssr:stedsnr" v="677159" />
	</node>
	<node lat="61.49101111452283" lon="5.970555550722168" id="-44647">
		<tag k="name" v="Tjønnelandsmyrane" />
		<tag k="natural" v="wetland" />
		<tag k="ssr:stedsnr" v="516772" />
	</node>
	<node lat="61.44550833031631" lon="5.843469440582008" id="-44653">
		<tag k="name" v="Svoramyra" />
		<tag k="natural" v="wetland" />
		<tag k="ssr:stedsnr" v="516943" />
	</node>
	<node lat="61.561522222101566" lon="6.3268638933282375" id="-44661">
		<tag k="name" v="Tverlimyrane" />
		<tag k="natural" v="wetland" />
		<tag k="ssr:stedsnr" v="517010" />
	</node>
	<node lat="61.492208333528495" lon="6.172713895685001" id="-44671">
		<tag k="name" v="Steinmyra" />
		<tag k="natural" v="wetland" />
		<tag k="ssr:stedsnr" v="517183" />
	</node>
	<node lat="61.458727779024144" lon="5.479113896815757" id="-44708">
		<tag k="name" v="Bårdmyra" />
		<tag k="natural" v="wetland" />
		<tag k="ssr:stedsnr" v="528780" />
	</node>
	<node lat="61.59475277626303" lon="5.9027944498196465" id="-44728">
		<tag k="name" v="Sundeslåttene" />
		<tag k="place" v="locality" />
		<tag k="ssr:stedsnr" v="529804" />
	</node>
	<node lat="61.430330554669595" lon="6.392655561133738" id="-44776">
		<tag k="historic" v="shieling" />
		<tag k="name" v="Frøyslandsstølen" />
		<tag k="place" v="locality" />
		<tag k="ssr:stedsnr" v="553631" />
	</node>
	<node lat="61.42823333337752" lon="6.362994436292539" id="-44844">
		<tag k="name" v="Einebakksteinen" />
		<tag k="natural" v="stone" />
		<tag k="ssr:stedsnr" v="577808" />
	</node>
	<node lat="61.373288890255395" lon="5.915319445911929" id="-44859">
		<tag k="name" v="Grønemyra" />
		<tag k="natural" v="wetland" />
		<tag k="ssr:stedsnr" v="577955" />
	</node>
	<node lat="61.48296388576508" lon="6.054936102054904" id="-44864">
		<tag k="name" v="Orremyra" />
		<tag k="natural" v="wetland" />
		<tag k="ssr:stedsnr" v="578113" />
	</node>
	<node lat="61.51515833267619" lon="6.140258326185278" id="-44866">
		<tag k="name" v="Bjørnasteinen" />
		<tag k="natural" v="stone" />
		<tag k="ssr:stedsnr" v="578143" />
	</node>
	<node lat="61.51854999707525" lon="6.6461527830356975" id="-44871">
		<tag k="name" v="Lundekyrkja" />
		<tag k="natural" v="stone" />
		<tag k="ssr:stedsnr" v="578815" />
	</node>
	<node lat="61.43213333718283" lon="5.942216663883454" id="-44879">
		<tag k="name" v="Storemyra" />
		<tag k="natural" v="wetland" />
		<tag k="ssr:stedsnr" v="698838" />
	</node>
	<node lat="61.36571944803771" lon="5.802850008794698" id="-44882">
		<tag k="name" v="Svartefjellsmyra" />
		<tag k="natural" v="wetland" />
		<tag k="ssr:stedsnr" v="583099" />
	</node>
	<node lat="61.489255558022734" lon="5.814877776332516" id="-44939">
		<tag k="name" v="Ringesteinen" />
		<tag k="natural" v="stone" />
		<tag k="ssr:stedsnr" v="699990" />
	</node>
	<node lat="61.48243333405758" lon="6.083616675496002" id="-44951">
		<tag k="name" v="Øygardsmyrane" />
		<tag k="natural" v="wetland" />
		<tag k="ssr:stedsnr" v="700151" />
	</node>
	<node lat="61.615280555386214" lon="6.599566675203245" id="-44962">
		<tag k="name" v="Tjovura" />
		<tag k="natural" v="wetland" />
		<tag k="ssr:stedsnr" v="700860" />
	</node>
</osm>
