<?xml version="1.0" encoding="UTF-8"?>
<osm generator="osmapis" version="0.6">
	<node id="-676094" lat="61.4851361151" lon="5.76593888168">
		<tag k="name" v="Furevika" />
		<tag k="natural" v="bay" />
		<tag k="ssr:stedsnr" v="554570" />
	</node>
	<node id="-676684" lat="61.4868944451" lon="5.66070000646">
		<tag k="name" v="Holmesetholmane" />
		<tag k="place" v="islet" />
		<tag k="ssr:stedsnr" v="903780" />
	</node>
	<node id="-676987" lat="61.4907444412" lon="5.71623055488">
		<tag k="name" v="Søreneset" />
		<tag k="natural" v="cape" />
		<tag k="ssr:stedsnr" v="941565" />
	</node>
	<node id="-674937" lat="61.4956111127" lon="5.29935000306">
		<tag k="fixme" v="consider seamark:type=rock or natural=shoal" />
		<tag k="name" v="Kvellestad" />
		<tag k="place" v="islet" />
		<tag k="ssr:stedsnr" v="286299" />
	</node>
	<node id="-676983" lat="61.3714495421" lon="5.59625838198">
		<tag k="name" v="Hårkallevika" />
		<tag k="natural" v="bay" />
		<tag k="ssr:stedsnr" v="841226" />
	</node>
	<node id="-676009" lat="61.4884499989" lon="5.3793972156">
		<tag k="alt_name" v="Årsetnes" />
		<tag k="name" v="Årsetneset" />
		<tag k="natural" v="cape" />
		<tag k="ssr:stedsnr" v="529031" />
	</node>
	<node id="-677364" lat="61.4843138855" lon="5.66477221593">
		<tag k="name" v="Litleholmen" />
		<tag k="place" v="islet" />
		<tag k="ssr:stedsnr" v="7687" />
	</node>
	<node id="-677363" lat="61.4872972211" lon="5.65448889516">
		<tag k="alt_name" v="Pikneset" />
		<tag k="name" v="Pikaneset" />
		<tag k="natural" v="cape" />
		<tag k="ssr:stedsnr" v="7685" />
	</node>
	<node id="-677362" lat="61.4841416711" lon="5.7850027779">
		<tag k="alt_name" v="Halvrø" />
		<tag k="name" v="Stranda" />
		<tag k="natural" v="cape" />
		<tag k="ssr:stedsnr" v="7682" />
	</node>
	<node id="-677360" lat="61.4765916709" lon="5.66343889566">
		<tag k="alt_name" v="Gjesneset" />
		<tag k="name" v="Geitsneset" />
		<tag k="natural" v="cape" />
		<tag k="ssr:stedsnr" v="7666" />
	</node>
	<node id="-676685" lat="61.4461638312" lon="5.55788000119">
		<tag k="name" v="Søre Nobbaneset" />
		<tag k="natural" v="cape" />
		<tag k="ssr:stedsnr" v="903751" />
	</node>
	<node id="-674663" lat="61.3652517296" lon="5.58301023336">
		<tag k="alt_name" v="Indre Bjørvika" />
		<tag k="name" v="Bjørvika" />
		<tag k="natural" v="bay" />
		<tag k="ssr:stedsnr" v="251952" />
	</node>
	<node id="-674915" lat="61.3709042773" lon="5.63660724563">
		<tag k="name" v="Båtevik" />
		<tag k="natural" v="bay" />
		<tag k="ssr:stedsnr" v="280820" />
	</node>
	<node id="-677474" lat="61.4538833323" lon="5.58750278533">
		<tag k="name" v="Litleholmen" />
		<tag k="place" v="islet" />
		<tag k="ssr:stedsnr" v="31603" />
	</node>
	<node id="-676048" lat="61.4630666712" lon="5.84111389736">
		<tag k="name" v="Klettavika" />
		<tag k="natural" v="bay" />
		<tag k="ssr:stedsnr" v="699888" />
	</node>
	<node id="-674654" lat="61.4809527797" lon="5.79568889456">
		<tag k="name" v="Skjeret" />
		<tag k="natural" v="cape" />
		<tag k="ssr:stedsnr" v="251558" />
	</node>
	<node id="-674394" lat="61.4590611088" lon="5.46834166336">
		<tag k="name" v="Kuneset" />
		<tag k="natural" v="cape" />
		<tag k="ssr:stedsnr" v="8711" />
	</node>
	<node id="-674453" lat="61.50150278" lon="5.76742500171">
		<tag k="name" v="Skredvika" />
		<tag k="natural" v="bay" />
		<tag k="ssr:stedsnr" v="226848" />
	</node>
	<node id="-677587" lat="61.3690000028" lon="5.62067499466">
		<tag k="name" v="Joansneset" />
		<tag k="natural" v="cape" />
		<tag k="ssr:stedsnr" v="36216" />
	</node>
	<node id="-675875" lat="61.4966666664" lon="5.27361110555">
		<tag k="name" v="Horneneset" />
		<tag k="natural" v="cape" />
		<tag k="ssr:stedsnr" v="675036" />
	</node>
	<node id="-674640" lat="61.3784944488" lon="5.50716944584">
		<tag k="alt_name" v="Grimmeneset" />
		<tag k="name" v="Grimeneset" />
		<tag k="natural" v="cape" />
		<tag k="ssr:stedsnr" v="250997" />
	</node>
	<node id="-675023" lat="61.3603388888" lon="5.67358888699">
		<tag k="name" v="Myrneset" />
		<tag k="natural" v="cape" />
		<tag k="ssr:stedsnr" v="220634" />
	</node>
	<node id="-675790" lat="61.5250999993" lon="6.56186666946">
		<tag k="name" v="Elvaneset" />
		<tag k="natural" v="cape" />
		<tag k="ssr:stedsnr" v="518132" />
	</node>
	<node id="-675661" lat="61.3766638874" lon="5.54019166377">
		<tag k="name" v="Sundshamna" />
		<tag k="natural" v="bay" />
		<tag k="ssr:stedsnr" v="417244" />
	</node>
	<node id="-675660" lat="61.5034444453" lon="5.72483333349">
		<tag k="name" v="Naustdalsneset" />
		<tag k="natural" v="cape" />
		<tag k="ssr:stedsnr" v="408822" />
	</node>
	<node id="-677538" lat="61.5597972197" lon="6.41590832763">
		<tag k="name" v="Hatleneset" />
		<tag k="natural" v="cape" />
		<tag k="ssr:stedsnr" v="32049" />
	</node>
	<node id="-676298" lat="61.3756277748" lon="5.54225278304">
		<tag k="name" v="Lyngneset" />
		<tag k="natural" v="cape" />
		<tag k="ssr:stedsnr" v="645933" />
	</node>
	<node id="-677063" lat="61.4650749995" lon="5.4470888855">
		<tag k="name" v="Klenevika" />
		<tag k="natural" v="bay" />
		<tag k="ssr:stedsnr" v="857093" />
	</node>
	<node id="-676933" lat="61.5319194471" lon="6.535997213">
		<tag k="name" v="Kvannevikneset" />
		<tag k="natural" v="cape" />
		<tag k="ssr:stedsnr" v="821111" />
	</node>
	<node id="-676164" lat="61.4848111131" lon="5.63552221379">
		<tag k="name" v="Saltneset" />
		<tag k="natural" v="cape" />
		<tag k="ssr:stedsnr" v="710146" />
	</node>
	<node id="-676675" lat="61.3701361133" lon="5.66298055958">
		<tag k="name" v="Kviteneset" />
		<tag k="natural" v="cape" />
		<tag k="ssr:stedsnr" v="902329" />
	</node>
	<node id="-674862" lat="61.4926305564" lon="5.71400832396">
		<tag k="name" v="Gamlestøa" />
		<tag k="natural" v="bay" />
		<tag k="ssr:stedsnr" v="152602" />
	</node>
	<node id="-676670" lat="61.5050972212" lon="5.70305277546">
		<tag k="name" v="Mallasvik" />
		<tag k="natural" v="bay" />
		<tag k="ssr:stedsnr" v="711833" />
	</node>
	<node id="-676750" lat="61.484880553" lon="5.69355833594">
		<tag k="name" v="Skjeret" />
		<tag k="natural" v="cape" />
		<tag k="ssr:stedsnr" v="917694" />
	</node>
	<node id="-674548" lat="61.3824611099" lon="5.44538888717">
		<tag k="name" v="Røneset" />
		<tag k="natural" v="cape" />
		<tag k="ssr:stedsnr" v="250131" />
	</node>
	<node id="-674485" lat="61.4557999975" lon="5.63032777056">
		<tag k="name" v="Ervika" />
		<tag k="natural" v="bay" />
		<tag k="ssr:stedsnr" v="235872" />
	</node>
	<node id="-674484" lat="61.4812805533" lon="5.63381110276">
		<tag k="name" v="Frammarsvika" />
		<tag k="natural" v="bay" />
		<tag k="ssr:stedsnr" v="235810" />
	</node>
	<node id="-675763" lat="61.4815972229" lon="5.79336388545">
		<tag k="alt_name" v="Ulltangvika" />
		<tag k="name" v="Ulltangevika" />
		<tag k="natural" v="bay" />
		<tag k="ssr:stedsnr" v="432648" />
	</node>
	<node id="-675600" lat="61.3723674475" lon="5.61161167857">
		<tag k="name" v="Korsvika" />
		<tag k="natural" v="bay" />
		<tag k="ssr:stedsnr" v="372961" />
	</node>
	<node id="-677425" lat="61.3697027756" lon="5.56739999714">
		<tag k="name" v="Geiteneset" />
		<tag k="natural" v="cape" />
		<tag k="ssr:stedsnr" v="8957" />
	</node>
	<node id="-674864" lat="61.4568861154" lon="5.61713888291">
		<tag k="name" v="Gamlestøa" />
		<tag k="natural" v="bay" />
		<tag k="ssr:stedsnr" v="152622" />
	</node>
	<node id="-677295" lat="61.3620527761" lon="5.67189167422">
		<tag k="name" v="Osbogen" />
		<tag k="natural" v="bay" />
		<tag k="ssr:stedsnr" v="963323" />
	</node>
	<node id="-676910" lat="61.4440611151" lon="5.58502221518">
		<tag k="name" v="Leirvikneset" />
		<tag k="natural" v="cape" />
		<tag k="ssr:stedsnr" v="820570" />
	</node>
	<node id="-674477" lat="61.4607500039" lon="5.54081665698">
		<tag k="name" v="Klubbatåna" />
		<tag k="natural" v="cape" />
		<tag k="ssr:stedsnr" v="42341" />
	</node>
	<node id="-675116" lat="61.5446944438" lon="6.39127222516">
		<tag k="name" v="Uraneset" />
		<tag k="natural" v="cape" />
		<tag k="ssr:stedsnr" v="457029" />
	</node>
	<node id="-675883" lat="61.4725499985" lon="5.46209444066">
		<tag k="name" v="Midtverpet" />
		<tag k="natural" v="cape" />
		<tag k="ssr:stedsnr" v="675100" />
	</node>
	<node id="-677555" lat="61.4984361073" lon="6.15759443781">
		<tag k="name" v="Slåtteneset" />
		<tag k="natural" v="cape" />
		<tag k="ssr:stedsnr" v="32140" />
	</node>
	<node id="-676521" lat="61.3728833296" lon="5.64429721808">
		<tag k="alt_name" v="Svesundet" />
		<tag k="name" v="Svædsundet" />
		<tag k="natural" v="strait" />
		<tag k="ssr:stedsnr" v="675924" />
	</node>
	<node id="-676518" lat="61.4916805593" lon="5.74531666942">
		<tag k="name" v="Haugavika" />
		<tag k="natural" v="bay" />
		<tag k="ssr:stedsnr" v="675759" />
	</node>
	<node id="-675493" lat="61.4405638864" lon="5.53924165932">
		<tag k="name" v="Neset" />
		<tag k="natural" v="cape" />
		<tag k="ssr:stedsnr" v="494512" />
	</node>
	<node id="-676003" lat="61.4631194472" lon="5.45496944149">
		<tag k="name" v="Bukkeneset" />
		<tag k="natural" v="cape" />
		<tag k="ssr:stedsnr" v="528788" />
	</node>
	<node id="-675121" lat="61.5593361139" lon="6.46574999367">
		<tag k="name" v="Grunneset" />
		<tag k="natural" v="cape" />
		<tag k="ssr:stedsnr" v="457057" />
	</node>
	<node id="-675872" lat="61.4864305564" lon="5.46950555298">
		<tag k="name" v="Liaverpflua" />
		<tag k="natural" v="shoal" />
		<tag k="place" v="locality" />
		<tag k="ssr:stedsnr" v="478016" />
	</node>
	<node id="-674591" lat="61.4801305577" lon="5.80929999382">
		<tag k="name" v="Smedneset" />
		<tag k="natural" v="cape" />
		<tag k="ssr:stedsnr" v="250668" />
	</node>
	<node id="-676382" lat="61.44078333" lon="5.54816111603">
		<tag k="name" v="Verpe" />
		<tag k="natural" v="cape" />
		<tag k="ssr:stedsnr" v="881563" />
	</node>
	<node id="-676893" lat="61.4895361116" lon="5.69689721554">
		<tag k="name" v="Kastevika" />
		<tag k="natural" v="bay" />
		<tag k="ssr:stedsnr" v="797754" />
	</node>
	<node id="-677532" lat="61.5571472196" lon="6.38008332589">
		<tag k="name" v="Langeneset" />
		<tag k="natural" v="cape" />
		<tag k="ssr:stedsnr" v="32010" />
	</node>
	<node id="-675739" lat="61.4920361144" lon="6.1230750009">
		<tag k="name" v="Gjesdalsøyane" />
		<tag k="natural" v="cape" />
		<tag k="ssr:stedsnr" v="517156" />
	</node>
	<node id="-676378" lat="61.3778083301" lon="5.50943889811">
		<tag k="name" v="Grimnesflua" />
		<tag k="natural" v="shoal" />
		<tag k="place" v="locality" />
		<tag k="ssr:stedsnr" v="659254" />
	</node>
	<node id="-676020" lat="61.4790277739" lon="5.79685000368">
		<tag k="name" v="Åleneset" />
		<tag k="natural" v="cape" />
		<tag k="ssr:stedsnr" v="698546" />
	</node>
	<node id="-676501" lat="61.4547944461" lon="5.53024444166">
		<tag k="name" v="Nåneset" />
		<tag k="natural" v="cape" />
		<tag k="ssr:stedsnr" v="675665" />
	</node>
	<node id="-676500" lat="61.4564444419" lon="5.50231667157">
		<tag k="name" v="Hillersvika" />
		<tag k="natural" v="bay" />
		<tag k="ssr:stedsnr" v="675661" />
	</node>
	<node id="-674990" lat="61.4917388887" lon="5.71958056349">
		<tag k="name" v="Indre Kråkenesvika" />
		<tag k="natural" v="bay" />
		<tag k="ssr:stedsnr" v="296849" />
	</node>
	<node id="-677648" lat="61.4715416709" lon="5.44420833141">
		<tag k="name" v="Russenes" />
		<tag k="natural" v="cape" />
		<tag k="ssr:stedsnr" v="44063" />
	</node>
	<node id="-676879" lat="61.4882416683" lon="5.44087499181">
		<tag k="alt_name" v="Engebøneset" />
		<tag k="name" v="Engjabøneset" />
		<tag k="natural" v="cape" />
		<tag k="ssr:stedsnr" v="797010" />
	</node>
	<node id="-674481" lat="61.4933527751" lon="5.49218333156">
		<tag k="name" v="Redalsvika" />
		<tag k="natural" v="bay" />
		<tag k="ssr:stedsnr" v="235053" />
	</node>
	<node id="-676621" lat="61.4642527782" lon="5.44365556252">
		<tag k="name" v="Engelneset" />
		<tag k="natural" v="cape" />
		<tag k="ssr:stedsnr" v="893071" />
	</node>
	<node id="-677294" lat="61.3750111115" lon="5.65652500768">
		<tag k="name" v="Eidavika" />
		<tag k="natural" v="bay" />
		<tag k="ssr:stedsnr" v="963319" />
	</node>
	<node id="-675627" lat="61.5378361119" lon="6.37279443549">
		<tag k="name" v="Nyesvorodden" />
		<tag k="natural" v="cape" />
		<tag k="ssr:stedsnr" v="396028" />
	</node>
	<node id="-674988" lat="61.4862305532" lon="5.65235000473">
		<tag k="name" v="Ytre Holmesetvika" />
		<tag k="natural" v="bay" />
		<tag k="ssr:stedsnr" v="296785" />
	</node>
	<node id="-677420" lat="61.4578194484" lon="5.59121944572">
		<tag k="alt_name" v="Barholmen" />
		<tag k="name" v="Bardholmen" />
		<tag k="place" v="islet" />
		<tag k="ssr:stedsnr" v="8674" />
	</node>
	<node id="-676486" lat="61.4930277823" lon="5.50092500809">
		<tag k="name" v="Nordvika" />
		<tag k="natural" v="bay" />
		<tag k="ssr:stedsnr" v="675528" />
	</node>
	<node id="-674989" lat="61.4679305547" lon="5.7997111078">
		<tag k="alt_name" v="Kirketeigvik" />
		<tag k="name" v="Kyrkjeteigvika" />
		<tag k="natural" v="bay" />
		<tag k="ssr:stedsnr" v="296848" />
	</node>
	<node id="-674483" lat="61.4878583359" lon="5.37336389788">
		<tag k="name" v="Trøsevika" />
		<tag k="natural" v="bay" />
		<tag k="ssr:stedsnr" v="235120" />
	</node>
	<node id="-677419" lat="61.4521861076" lon="5.55988055905">
		<tag k="alt_name" v="Nobbeneset, nordre;Nordre Nobbeneset" />
		<tag k="name" v="Nordre Nobbaneset" />
		<tag k="natural" v="cape" />
		<tag k="ssr:stedsnr" v="8671" />
	</node>
</osm>
