<?xml version="1.0" encoding="UTF-8"?>
<osm version="0.6" generator="osmapis">
	<node lat="58.063163888014344" lon="6.725922227703827" id="-25258">
		<tag k="fixme" v="consider natural=peak for the most distinct mountains in the district" />
		<tag k="name" v="Måkefjellet" />
		<tag k="natural" v="hill" />
		<tag k="place" v="locality" />
		<tag k="ssr:stedsnr" v="21507" />
	</node>
	<node lat="58.07894722028156" lon="6.97379444593741" id="-25260">
		<tag k="name" v="Reiskar" />
		<tag k="natural" v="valley" />
		<tag k="place" v="locality" />
		<tag k="ssr:stedsnr" v="21484" />
	</node>
	<node lat="58.151213892225236" lon="6.72974165974031" id="-25262">
		<tag k="fixme" v="consider natural=peak for the most distinct mountains in the district" />
		<tag k="name" v="Vågefjellet" />
		<tag k="natural" v="hill" />
		<tag k="place" v="locality" />
		<tag k="ssr:stedsnr" v="21493" />
	</node>
	<node lat="58.06788610877627" lon="6.782388896992002" id="-25267">
		<tag k="name" v="Sandfjellet" />
		<tag k="natural" v="hill" />
		<tag k="place" v="locality" />
		<tag k="ssr:stedsnr" v="21688" />
	</node>
	<node lat="58.17145277826278" lon="6.785941661201119" id="-25268">
		<tag k="name" v="Solheia" />
		<tag k="natural" v="hill" />
		<tag k="place" v="locality" />
		<tag k="ssr:stedsnr" v="21835" />
	</node>
	<node lat="58.18980833712682" lon="6.899308334049965" id="-25270">
		<tag k="name" v="Tverrskoran" />
		<tag k="natural" v="valley" />
		<tag k="place" v="locality" />
		<tag k="ssr:stedsnr" v="21787" />
	</node>
	<node lat="58.18647222374814" lon="6.873244441838237" id="-25271">
		<tag k="name" v="Mørkedalen" />
		<tag k="natural" v="valley" />
		<tag k="place" v="locality" />
		<tag k="ssr:stedsnr" v="21792" />
	</node>
	<node lat="58.061261106839694" lon="6.960688890827946" id="-25272">
		<tag k="fixme" v="consider natural=peak for the most distinct mountains in the district" />
		<tag k="name" v="Gumpåsen" />
		<tag k="natural" v="hill" />
		<tag k="place" v="locality" />
		<tag k="ssr:stedsnr" v="21938" />
	</node>
	<node lat="58.20547222401297" lon="6.800133337473395" id="-25276">
		<tag k="name" v="Sævelandsheia" />
		<tag k="natural" v="hill" />
		<tag k="place" v="locality" />
		<tag k="ssr:stedsnr" v="21888" />
	</node>
	<node lat="58.09751944056313" lon="6.835241659499667" id="-25279">
		<tag k="fixme" v="consider natural=peak for the most distinct mountains in the district" />
		<tag k="name" v="Storåsen" />
		<tag k="natural" v="hill" />
		<tag k="place" v="locality" />
		<tag k="ssr:stedsnr" v="22388" />
	</node>
	<node lat="58.20820000256513" lon="6.879499998261179" id="-25280">
		<tag k="name" v="Vestre Kråkedalen" />
		<tag k="natural" v="valley" />
		<tag k="place" v="locality" />
		<tag k="ssr:stedsnr" v="22819" />
	</node>
	<node lat="58.06585277982735" lon="6.738558339003997" id="-25313">
		<tag k="name" v="Skiphaugen" />
		<tag k="natural" v="hill" />
		<tag k="place" v="locality" />
		<tag k="ssr:stedsnr" v="242346" />
	</node>
	<node lat="58.15690833371114" lon="6.666480550668673" id="-25317">
		<tag k="alt_name" v="Ørnekniben" />
		<tag k="fixme" v="consider natural=peak for the most distinct mountains in the district" />
		<tag k="name" v="Ørnefjellet" />
		<tag k="natural" v="hill" />
		<tag k="place" v="locality" />
		<tag k="ssr:stedsnr" v="243216" />
	</node>
	<node lat="58.14481944346276" lon="6.769230562291972" id="-25318">
		<tag k="name" v="Kjerringdalen" />
		<tag k="natural" v="valley" />
		<tag k="place" v="locality" />
		<tag k="ssr:stedsnr" v="243235" />
	</node>
	<node lat="58.09502222061843" lon="6.899505552345406" id="-25331">
		<tag k="fixme" v="consider natural=peak for the most distinct mountains in the district" />
		<tag k="name" v="Hegnåsen" />
		<tag k="natural" v="hill" />
		<tag k="place" v="locality" />
		<tag k="ssr:stedsnr" v="82511" />
	</node>
	<node lat="58.08860277528151" lon="6.910516672941813" id="-25332">
		<tag k="fixme" v="consider natural=peak for the most distinct mountains in the district" />
		<tag k="name" v="Børseheia" />
		<tag k="natural" v="hill" />
		<tag k="place" v="locality" />
		<tag k="ssr:stedsnr" v="82517" />
	</node>
	<node lat="58.113958332451496" lon="6.67945277518495" id="-25335">
		<tag k="name" v="Løyndalen" />
		<tag k="natural" v="valley" />
		<tag k="place" v="locality" />
		<tag k="ssr:stedsnr" v="82703" />
	</node>
	<node lat="58.120050000197196" lon="6.672433334377548" id="-25337">
		<tag k="name" v="Vindåsen" />
		<tag k="natural" v="hill" />
		<tag k="place" v="locality" />
		<tag k="ssr:stedsnr" v="82717" />
	</node>
	<node lat="58.21462777925892" lon="6.892183324984537" id="-25338">
		<tag k="name" v="Klungelandsheia" />
		<tag k="natural" v="hill" />
		<tag k="place" v="locality" />
		<tag k="ssr:stedsnr" v="82742" />
	</node>
	<node lat="58.17604444597369" lon="6.728355559379824" id="-25340">
		<tag k="name" v="Grindheia" />
		<tag k="natural" v="hill" />
		<tag k="place" v="locality" />
		<tag k="ssr:stedsnr" v="82432" />
	</node>
	<node lat="58.07102778014495" lon="6.984366669609259" id="-25341">
		<tag k="fixme" v="consider natural=peak for the most distinct mountains in the district" />
		<tag k="name" v="Åsen" />
		<tag k="natural" v="hill" />
		<tag k="place" v="locality" />
		<tag k="ssr:stedsnr" v="82481" />
	</node>
	<node lat="58.128544973621366" lon="6.730907387961207" id="-25343">
		<tag k="alt_name" v="Frestads Husefjell" />
		<tag k="fixme" v="consider natural=peak for the most distinct mountains in the district" />
		<tag k="name" v="Frestad Husefjell" />
		<tag k="natural" v="hill" />
		<tag k="place" v="locality" />
		<tag k="ssr:stedsnr" v="82604" />
	</node>
	<node lat="58.10752500239815" lon="6.7090555494610165" id="-25346">
		<tag k="fixme" v="consider natural=peak for the most distinct mountains in the district" />
		<tag k="name" v="Jonsokåsen" />
		<tag k="natural" v="hill" />
		<tag k="place" v="locality" />
		<tag k="ssr:stedsnr" v="82628" />
	</node>
	<node lat="58.108041662959955" lon="6.724986110940262" id="-25347">
		<tag k="name" v="Stemman" />
		<tag k="place" v="locality" />
		<tag k="ssr:stedsnr" v="82630" />
	</node>
	<node lat="58.113213891929625" lon="6.7319361134599" id="-25348">
		<tag k="name" v="Vollan" />
		<tag k="natural" v="slope" />
		<tag k="place" v="locality" />
		<tag k="ssr:stedsnr" v="82633" />
	</node>
	<node lat="58.13036388760912" lon="6.6798305491755" id="-25349">
		<tag k="fixme" v="consider natural=peak for the most distinct mountains in the district" />
		<tag k="name" v="Jåtogberget" />
		<tag k="natural" v="hill" />
		<tag k="place" v="locality" />
		<tag k="ssr:stedsnr" v="82635" />
	</node>
	<node lat="58.13205555288064" lon="6.622113891087575" id="-25352">
		<tag k="fixme" v="consider natural=peak for the most distinct mountains in the district" />
		<tag k="name" v="Sjerberget" />
		<tag k="natural" v="hill" />
		<tag k="place" v="locality" />
		<tag k="ssr:stedsnr" v="82685" />
	</node>
	<node lat="58.20830000281366" lon="6.730269444588391" id="-25354">
		<tag k="name" v="Bukkshorn" />
		<tag k="natural" v="hill" />
		<tag k="place" v="locality" />
		<tag k="ssr:stedsnr" v="82911" />
	</node>
	<node lat="58.15735555147196" lon="6.767013889717962" id="-25355">
		<tag k="name" v="Mattisheia" />
		<tag k="natural" v="hill" />
		<tag k="place" v="locality" />
		<tag k="ssr:stedsnr" v="82913" />
	</node>
	<node lat="58.050711112440666" lon="6.952941672172657" id="-25358">
		<tag k="fixme" v="consider natural=peak for the most distinct mountains in the district" />
		<tag k="name" v="Gullberget" />
		<tag k="natural" v="hill" />
		<tag k="place" v="locality" />
		<tag k="ssr:stedsnr" v="82937" />
	</node>
	<node lat="58.09826110774049" lon="6.818777773556074" id="-25359">
		<tag k="fixme" v="consider natural=peak for the most distinct mountains in the district" />
		<tag k="name" v="Jentefjellan" />
		<tag k="natural" v="hill" />
		<tag k="place" v="locality" />
		<tag k="ssr:stedsnr" v="83402" />
	</node>
	<node lat="58.20437222560274" lon="6.900561115234829" id="-25363">
		<tag k="name" v="Reiliheia" />
		<tag k="natural" v="hill" />
		<tag k="place" v="locality" />
		<tag k="ssr:stedsnr" v="83813" />
	</node>
	<node lat="58.16062777769784" lon="6.882427772969396" id="-25364">
		<tag k="fixme" v="consider natural=peak for the most distinct mountains in the district" />
		<tag k="name" v="Sveen" />
		<tag k="natural" v="hill" />
		<tag k="place" v="locality" />
		<tag k="ssr:stedsnr" v="83832" />
	</node>
	<node lat="58.07370833378431" lon="6.800383340262889" id="-25384">
		<tag k="alt_name" v="Skjoldnesveten" />
		<tag k="name" v="Skjolnesveten" />
		<tag k="natural" v="hill" />
		<tag k="place" v="locality" />
		<tag k="ssr:stedsnr" v="121362" />
	</node>
	<node lat="58.1673944416953" lon="6.7658194440994" id="-25388">
		<tag k="alt_name" v="Gryteheia" />
		<tag k="fixme" v="consider natural=peak for the most distinct mountains in the district" />
		<tag k="name" v="Kalvenesfjellet" />
		<tag k="natural" v="hill" />
		<tag k="place" v="locality" />
		<tag k="ssr:stedsnr" v="121206" />
	</node>
	<node lat="58.17018333669285" lon="6.693577774442723" id="-25397">
		<tag k="fixme" v="consider natural=peak for the most distinct mountains in the district" />
		<tag k="name" v="Salslottet" />
		<tag k="natural" v="hill" />
		<tag k="place" v="locality" />
		<tag k="ssr:stedsnr" v="142385" />
	</node>
	<node lat="58.118563886226156" lon="6.847844442310643" id="-25399">
		<tag k="fixme" v="consider natural=peak for the most distinct mountains in the district" />
		<tag k="name" v="Meåsen" />
		<tag k="natural" v="hill" />
		<tag k="place" v="locality" />
		<tag k="ssr:stedsnr" v="142531" />
	</node>
	<node lat="58.13281111425193" lon="6.74815555775157" id="-25400">
		<tag k="fixme" v="consider natural=peak for the most distinct mountains in the district" />
		<tag k="name" v="Bøensfjell" />
		<tag k="natural" v="hill" />
		<tag k="place" v="locality" />
		<tag k="ssr:stedsnr" v="142540" />
	</node>
	<node lat="58.138786114517075" lon="6.705227772080325" id="-25401">
		<tag k="fixme" v="consider natural=peak for the most distinct mountains in the district" />
		<tag k="name" v="Hestefjell" />
		<tag k="natural" v="hill" />
		<tag k="place" v="locality" />
		<tag k="ssr:stedsnr" v="142543" />
	</node>
	<node lat="58.14505000439318" lon="6.802049994758628" id="-25402">
		<tag k="name" v="Sandstjønndalen" />
		<tag k="natural" v="valley" />
		<tag k="place" v="locality" />
		<tag k="ssr:stedsnr" v="142546" />
	</node>
	<node lat="58.083566664256445" lon="6.9393833332413895" id="-25404">
		<tag k="name" v="Helleheia" />
		<tag k="natural" v="hill" />
		<tag k="place" v="locality" />
		<tag k="ssr:stedsnr" v="142432" />
	</node>
	<node lat="58.186652778682515" lon="6.754908337252559" id="-25405">
		<tag k="name" v="Åsegløva" />
		<tag k="natural" v="valley" />
		<tag k="place" v="locality" />
		<tag k="ssr:stedsnr" v="142435" />
	</node>
	<node lat="58.186544443164095" lon="6.754305556760008" id="-25406">
		<tag k="fixme" v="consider natural=peak for the most distinct mountains in the district" />
		<tag k="name" v="Ytreåsen" />
		<tag k="natural" v="hill" />
		<tag k="place" v="locality" />
		<tag k="ssr:stedsnr" v="142436" />
	</node>
	<node lat="58.081930557025224" lon="6.945161109066923" id="-25407">
		<tag k="fixme" v="consider natural=peak for the most distinct mountains in the district" />
		<tag k="name" v="Kløktåsen" />
		<tag k="natural" v="hill" />
		<tag k="place" v="locality" />
		<tag k="ssr:stedsnr" v="142439" />
	</node>
	<node lat="58.10096666952108" lon="6.887608339250816" id="-25409">
		<tag k="fixme" v="consider natural=peak for the most distinct mountains in the district" />
		<tag k="name" v="Høgåsen" />
		<tag k="natural" v="hill" />
		<tag k="place" v="locality" />
		<tag k="ssr:stedsnr" v="142482" />
	</node>
	<node lat="58.09317222578442" lon="6.883652773018326" id="-25411">
		<tag k="fixme" v="consider natural=peak for the most distinct mountains in the district" />
		<tag k="name" v="Bjorsåsen" />
		<tag k="natural" v="hill" />
		<tag k="place" v="locality" />
		<tag k="ssr:stedsnr" v="142489" />
	</node>
	<node lat="58.17999444062277" lon="6.868380559626736" id="-25413">
		<tag k="name" v="Orrekneben" />
		<tag k="natural" v="hill" />
		<tag k="place" v="locality" />
		<tag k="ssr:stedsnr" v="142809" />
	</node>
	<node lat="58.18044722503131" lon="6.770044441357712" id="-25414">
		<tag k="name" v="Storheia" />
		<tag k="natural" v="hill" />
		<tag k="place" v="locality" />
		<tag k="ssr:stedsnr" v="142858" />
	</node>
	<node lat="58.21954999701629" lon="6.767841674445353" id="-25415">
		<tag k="name" v="Trolltuna" />
		<tag k="natural" v="valley" />
		<tag k="place" v="locality" />
		<tag k="ssr:stedsnr" v="142862" />
	</node>
	<node lat="58.19165277355303" lon="6.761930552732512" id="-25417">
		<tag k="name" v="Stegeheia" />
		<tag k="natural" v="hill" />
		<tag k="place" v="locality" />
		<tag k="ssr:stedsnr" v="142867" />
	</node>
	<node lat="58.206411111184636" lon="6.916180559809707" id="-25422">
		<tag k="fixme" v="consider natural=peak for the most distinct mountains in the district" />
		<tag k="name" v="Osebergknatten" />
		<tag k="natural" v="hill" />
		<tag k="place" v="locality" />
		<tag k="ssr:stedsnr" v="143778" />
	</node>
	<node lat="58.19316666277679" lon="6.850505557501563" id="-25423">
		<tag k="name" v="Kjellekneben" />
		<tag k="natural" v="hill" />
		<tag k="place" v="locality" />
		<tag k="ssr:stedsnr" v="143786" />
	</node>
	<node lat="58.20383888540934" lon="6.817238885844102" id="-25424">
		<tag k="name" v="Røyneskogheia" />
		<tag k="natural" v="hill" />
		<tag k="place" v="locality" />
		<tag k="ssr:stedsnr" v="143800" />
	</node>
	<node lat="58.082155552009674" lon="6.67859166966466" id="-25445">
		<tag k="name" v="Holman" />
		<tag k="natural" v="hill" />
		<tag k="place" v="locality" />
		<tag k="ssr:stedsnr" v="264399" />
	</node>
	<node lat="58.161536111773366" lon="6.723916674057088" id="-25446">
		<tag k="name" v="Ulgjelsskaret" />
		<tag k="natural" v="valley" />
		<tag k="place" v="locality" />
		<tag k="ssr:stedsnr" v="264459" />
	</node>
	<node lat="58.190397223356" lon="6.698394438813119" id="-25448">
		<tag k="name" v="Urfjell" />
		<tag k="natural" v="hill" />
		<tag k="place" v="locality" />
		<tag k="ssr:stedsnr" v="264375" />
	</node>
	<node lat="58.16904444227589" lon="6.697538891707559" id="-25449">
		<tag k="name" v="Kneben" />
		<tag k="natural" v="hill" />
		<tag k="place" v="locality" />
		<tag k="ssr:stedsnr" v="264380" />
	</node>
	<node lat="58.165005560110224" lon="6.696236119175627" id="-25450">
		<tag k="name" v="Trolldalen" />
		<tag k="natural" v="valley" />
		<tag k="place" v="locality" />
		<tag k="ssr:stedsnr" v="264383" />
	</node>
	<node lat="58.168069443204615" lon="6.794880549355727" id="-25454">
		<tag k="name" v="Røynåsbrotan" />
		<tag k="natural" v="slope" />
		<tag k="place" v="locality" />
		<tag k="ssr:stedsnr" v="264919" />
	</node>
	<node lat="58.172913885684814" lon="6.658522217240211" id="-25458">
		<tag k="fixme" v="consider natural=peak for the most distinct mountains in the district" />
		<tag k="name" v="Rosåsen" />
		<tag k="natural" v="hill" />
		<tag k="place" v="locality" />
		<tag k="ssr:stedsnr" v="264483" />
	</node>
	<node lat="58.175658330063484" lon="6.671433337393858" id="-25459">
		<tag k="name" v="Lian" />
		<tag k="natural" v="slope" />
		<tag k="place" v="locality" />
		<tag k="ssr:stedsnr" v="264484" />
	</node>
	<node lat="58.12062222173381" lon="6.823149996014541" id="-25460">
		<tag k="fixme" v="consider natural=peak for the most distinct mountains in the district" />
		<tag k="name" v="Vardefjell" />
		<tag k="natural" v="hill" />
		<tag k="place" v="locality" />
		<tag k="ssr:stedsnr" v="264555" />
	</node>
	<node lat="58.1454277777548" lon="6.7774388944981245" id="-25462">
		<tag k="name" v="Kjerringdalsfjellan" />
		<tag k="natural" v="hill" />
		<tag k="place" v="locality" />
		<tag k="ssr:stedsnr" v="264566" />
	</node>
	<node lat="58.16502778054906" lon="6.627186106763352" id="-25468">
		<tag k="name" v="Husefjellet" />
		<tag k="natural" v="hill" />
		<tag k="place" v="locality" />
		<tag k="ssr:stedsnr" v="264681" />
	</node>
	<node lat="58.21997777583706" lon="6.836716668545754" id="-25473">
		<tag k="fixme" v="consider natural=peak for the most distinct mountains in the district" />
		<tag k="name" v="Bakkabergan" />
		<tag k="natural" v="hill" />
		<tag k="place" v="locality" />
		<tag k="ssr:stedsnr" v="264769" />
	</node>
	<node lat="58.22175833586132" lon="6.840319446982482" id="-25474">
		<tag k="name" v="Kvassekleiva" />
		<tag k="natural" v="slope" />
		<tag k="place" v="locality" />
		<tag k="ssr:stedsnr" v="264770" />
	</node>
	<node lat="58.217305553572906" lon="6.8288611099873515" id="-25475">
		<tag k="name" v="Rabbusheidalen" />
		<tag k="natural" v="valley" />
		<tag k="place" v="locality" />
		<tag k="ssr:stedsnr" v="264771" />
	</node>
	<node lat="58.218766667179345" lon="6.877491671726439" id="-25476">
		<tag k="name" v="Grønnestøa" />
		<tag k="natural" v="hill" />
		<tag k="place" v="locality" />
		<tag k="ssr:stedsnr" v="264775" />
	</node>
	<node lat="58.14651388633993" lon="6.640852781935781" id="-25479">
		<tag k="name" v="Tjenndalen" />
		<tag k="natural" v="valley" />
		<tag k="place" v="locality" />
		<tag k="ssr:stedsnr" v="264698" />
	</node>
	<node lat="58.121608334816834" lon="6.662288886425409" id="-25480">
		<tag k="name" v="Haustefjellet" />
		<tag k="natural" v="hill" />
		<tag k="place" v="locality" />
		<tag k="ssr:stedsnr" v="264722" />
	</node>
	<node lat="58.17701389196388" lon="6.799608331570158" id="-25483">
		<tag k="name" v="Odrelia" />
		<tag k="natural" v="slope" />
		<tag k="place" v="locality" />
		<tag k="ssr:stedsnr" v="264862" />
	</node>
	<node lat="58.195177778342305" lon="6.7769583409383705" id="-25485">
		<tag k="name" v="Slettan" />
		<tag k="place" v="locality" />
		<tag k="ssr:stedsnr" v="264867" />
	</node>
	<node lat="58.21401111023346" lon="6.774988880869671" id="-25486">
		<tag k="name" v="Odden" />
		<tag k="natural" v="hill" />
		<tag k="place" v="locality" />
		<tag k="ssr:stedsnr" v="264875" />
	</node>
	<node lat="58.18237222399063" lon="6.828908334818987" id="-25490">
		<tag k="fixme" v="consider natural=peak for the most distinct mountains in the district" />
		<tag k="name" v="Sarpa" />
		<tag k="natural" v="hill" />
		<tag k="place" v="locality" />
		<tag k="ssr:stedsnr" v="264966" />
	</node>
	<node lat="58.21261111078398" lon="6.864052781331053" id="-25491">
		<tag k="fixme" v="consider natural=peak for the most distinct mountains in the district" />
		<tag k="name" v="Hestheia" />
		<tag k="natural" v="hill" />
		<tag k="place" v="locality" />
		<tag k="ssr:stedsnr" v="265846" />
	</node>
	<node lat="58.085263889150205" lon="6.967269445946712" id="-25494">
		<tag k="name" v="Tonsbergheia" />
		<tag k="natural" v="hill" />
		<tag k="place" v="locality" />
		<tag k="ssr:stedsnr" v="265483" />
	</node>
	<node lat="58.200405558908486" lon="6.842408326863971" id="-25495">
		<tag k="name" v="Mørkelia" />
		<tag k="natural" v="slope" />
		<tag k="place" v="locality" />
		<tag k="ssr:stedsnr" v="265833" />
	</node>
	<node lat="58.19245277497381" lon="6.687283330674335" id="-25497">
		<tag k="name" v="Sandheia" />
		<tag k="natural" v="hill" />
		<tag k="place" v="locality" />
		<tag k="ssr:stedsnr" v="203401" />
	</node>
	<node lat="58.157461114109914" lon="6.756586110779261" id="-25499">
		<tag k="fixme" v="consider natural=peak for the most distinct mountains in the district" />
		<tag k="name" v="Runefjellet" />
		<tag k="natural" v="hill" />
		<tag k="place" v="locality" />
		<tag k="ssr:stedsnr" v="203495" />
	</node>
	<node lat="58.11549444661173" lon="6.760933327139717" id="-25501">
		<tag k="fixme" v="consider natural=peak for the most distinct mountains in the district" />
		<tag k="name" v="Veggefjell" />
		<tag k="natural" v="hill" />
		<tag k="place" v="locality" />
		<tag k="ssr:stedsnr" v="203607" />
	</node>
	<node lat="58.08872777541869" lon="6.683925003005318" id="-25504">
		<tag k="name" v="Ropen" />
		<tag k="natural" v="hill" />
		<tag k="place" v="locality" />
		<tag k="ssr:stedsnr" v="203715" />
	</node>
	<node lat="58.10684444837128" lon="6.657955552068757" id="-25508">
		<tag k="fixme" v="consider natural=peak for the most distinct mountains in the district" />
		<tag k="name" v="Mabergåsen" />
		<tag k="natural" v="hill" />
		<tag k="place" v="locality" />
		<tag k="ssr:stedsnr" v="203752" />
	</node>
	<node lat="58.18497222027729" lon="6.712822228316323" id="-25509">
		<tag k="name" v="Slethei" />
		<tag k="natural" v="hill" />
		<tag k="place" v="locality" />
		<tag k="ssr:stedsnr" v="203997" />
	</node>
	<node lat="58.186227774054785" lon="6.707583327613035" id="-25510">
		<tag k="name" v="Kjørkleiva" />
		<tag k="natural" v="slope" />
		<tag k="place" v="locality" />
		<tag k="ssr:stedsnr" v="203999" />
	</node>
	<node lat="58.09529166464291" lon="6.987255551174748" id="-25513">
		<tag k="name" v="Gluva" />
		<tag k="place" v="locality" />
		<tag k="ssr:stedsnr" v="204406" />
	</node>
	<node lat="58.09631110657401" lon="6.988147216288163" id="-25515">
		<tag k="fixme" v="consider natural=peak for the most distinct mountains in the district" />
		<tag k="name" v="Husefjellet" />
		<tag k="natural" v="hill" />
		<tag k="place" v="locality" />
		<tag k="ssr:stedsnr" v="204413" />
	</node>
	<node lat="58.086727779050776" lon="6.939902784868198" id="-25516">
		<tag k="fixme" v="consider natural=peak for the most distinct mountains in the district" />
		<tag k="name" v="Knollen" />
		<tag k="natural" v="hill" />
		<tag k="place" v="locality" />
		<tag k="ssr:stedsnr" v="204417" />
	</node>
	<node lat="58.15594444773242" lon="6.6600555571848385" id="-25532">
		<tag k="fixme" v="consider natural=peak for the most distinct mountains in the district" />
		<tag k="name" v="Borgåsen" />
		<tag k="natural" v="hill" />
		<tag k="place" v="locality" />
		<tag k="ssr:stedsnr" v="264385" />
	</node>
	<node lat="58.19039444413488" lon="6.715113888806275" id="-25535">
		<tag k="fixme" v="consider natural=peak for the most distinct mountains in the district" />
		<tag k="name" v="Forekamhei" />
		<tag k="natural" v="hill" />
		<tag k="place" v="locality" />
		<tag k="ssr:stedsnr" v="264444" />
	</node>
	<node lat="58.13593333030553" lon="6.825136105763127" id="-25537">
		<tag k="name" v="Jakobsdalen" />
		<tag k="natural" v="valley" />
		<tag k="place" v="locality" />
		<tag k="ssr:stedsnr" v="264449" />
	</node>
	<node lat="58.17600277839477" lon="6.660847220303355" id="-25538">
		<tag k="name" v="Breili" />
		<tag k="natural" v="valley" />
		<tag k="place" v="locality" />
		<tag k="ssr:stedsnr" v="264487" />
	</node>
	<node lat="58.18023888981715" lon="6.697641663074008" id="-25539">
		<tag k="name" v="Raundalsheia" />
		<tag k="natural" v="hill" />
		<tag k="place" v="locality" />
		<tag k="ssr:stedsnr" v="264494" />
	</node>
	<node lat="58.13159166866987" lon="6.682430563848101" id="-25543">
		<tag k="name" v="Eigelandsberget" />
		<tag k="natural" v="hill" />
		<tag k="place" v="locality" />
		<tag k="ssr:stedsnr" v="264636" />
	</node>
	<node lat="58.10488333474914" lon="6.8667555510787945" id="-25545">
		<tag k="fixme" v="consider natural=peak for the most distinct mountains in the district" />
		<tag k="name" v="Storafjellet" />
		<tag k="natural" v="hill" />
		<tag k="place" v="locality" />
		<tag k="ssr:stedsnr" v="264502" />
	</node>
	<node lat="58.09480833404935" lon="6.882536110472203" id="-25547">
		<tag k="fixme" v="consider natural=peak for the most distinct mountains in the district" />
		<tag k="name" v="Moldingbakkåsen" />
		<tag k="natural" v="hill" />
		<tag k="place" v="locality" />
		<tag k="ssr:stedsnr" v="264507" />
	</node>
	<node lat="58.12425555600741" lon="6.850872216191729" id="-25550">
		<tag k="fixme" v="consider natural=peak for the most distinct mountains in the district" />
		<tag k="name" v="Borgåsen" />
		<tag k="natural" v="hill" />
		<tag k="place" v="locality" />
		<tag k="ssr:stedsnr" v="264548" />
	</node>
	<node lat="58.10691666880272" lon="6.774811117033814" id="-25551">
		<tag k="name" v="Øyvollsreet" />
		<tag k="natural" v="ridge" />
		<tag k="place" v="locality" />
		<tag k="ssr:stedsnr" v="264589" />
	</node>
	<node lat="58.10911388600956" lon="6.6892333281482586" id="-25554">
		<tag k="name" v="Hetlandsheia" />
		<tag k="natural" v="hill" />
		<tag k="place" v="locality" />
		<tag k="ssr:stedsnr" v="264714" />
	</node>
	<node lat="58.11817222299777" lon="6.674827784314836" id="-25555">
		<tag k="name" v="Varbakk" />
		<tag k="natural" v="slope" />
		<tag k="place" v="locality" />
		<tag k="ssr:stedsnr" v="264717" />
	</node>
	<node lat="58.20345277927277" lon="6.746722229596588" id="-25557">
		<tag k="fixme" v="consider natural=peak for the most distinct mountains in the district" />
		<tag k="name" v="Austeskårfjellet" />
		<tag k="natural" v="hill" />
		<tag k="place" v="locality" />
		<tag k="ssr:stedsnr" v="264900" />
	</node>
	<node lat="58.04253055719655" lon="6.929233325704508" id="-25558">
		<tag k="fixme" v="consider natural=peak for the most distinct mountains in the district" />
		<tag k="name" v="Åsen" />
		<tag k="natural" v="hill" />
		<tag k="place" v="locality" />
		<tag k="ssr:stedsnr" v="264936" />
	</node>
	<node lat="58.10440832944713" lon="6.897077780837035" id="-25596">
		<tag k="name" v="Støa" />
		<tag k="place" v="locality" />
		<tag k="ssr:stedsnr" v="324509" />
	</node>
	<node lat="58.143336108845105" lon="6.825836109526681" id="-25597">
		<tag k="name" v="Sletthei" />
		<tag k="natural" v="hill" />
		<tag k="place" v="locality" />
		<tag k="ssr:stedsnr" v="324469" />
	</node>
	<node lat="58.15666666482539" lon="6.725680563510883" id="-25598">
		<tag k="fixme" v="consider natural=peak for the most distinct mountains in the district" />
		<tag k="name" v="Glenderfjell" />
		<tag k="natural" v="hill" />
		<tag k="place" v="locality" />
		<tag k="ssr:stedsnr" v="324470" />
	</node>
	<node lat="58.14606667111565" lon="6.736916666167307" id="-25606">
		<tag k="fixme" v="consider natural=peak for the most distinct mountains in the district" />
		<tag k="name" v="Ørnåsen" />
		<tag k="natural" v="hill" />
		<tag k="place" v="locality" />
		<tag k="ssr:stedsnr" v="324603" />
	</node>
	<node lat="58.12189167107823" lon="6.755574998613337" id="-25608">
		<tag k="name" v="Fossekleiv" />
		<tag k="natural" v="slope" />
		<tag k="place" v="locality" />
		<tag k="ssr:stedsnr" v="324613" />
	</node>
	<node lat="58.16251944809857" lon="6.853058327590311" id="-25615">
		<tag k="name" v="Fagerdalen" />
		<tag k="natural" v="valley" />
		<tag k="place" v="locality" />
		<tag k="ssr:stedsnr" v="324832" />
	</node>
	<node lat="58.19352777344838" lon="6.730511108978636" id="-25617">
		<tag k="name" v="Dalan" />
		<tag k="natural" v="valley" />
		<tag k="place" v="locality" />
		<tag k="ssr:stedsnr" v="324889" />
	</node>
	<node lat="58.19765833526454" lon="6.747480559499024" id="-25618">
		<tag k="name" v="Djuphagheia" />
		<tag k="natural" v="hill" />
		<tag k="place" v="locality" />
		<tag k="ssr:stedsnr" v="324892" />
	</node>
	<node lat="58.20648333255037" lon="6.721433335926132" id="-25619">
		<tag k="name" v="Storjeholet" />
		<tag k="natural" v="gorge" />
		<tag k="ssr:stedsnr" v="324894" />
	</node>
	<node lat="58.2078472211256" lon="6.722213892330799" id="-25620">
		<tag k="name" v="Kjeskåra" />
		<tag k="place" v="locality" />
		<tag k="ssr:stedsnr" v="324895" />
	</node>
	<node lat="58.19440832901892" lon="6.701649996663746" id="-25622">
		<tag k="name" v="Hestefjellet" />
		<tag k="natural" v="hill" />
		<tag k="place" v="locality" />
		<tag k="ssr:stedsnr" v="324921" />
	</node>
	<node lat="58.20720277438681" lon="6.908413890255569" id="-25625">
		<tag k="fixme" v="consider natural=peak for the most distinct mountains in the district" />
		<tag k="name" v="Pressfjellet" />
		<tag k="natural" v="hill" />
		<tag k="place" v="locality" />
		<tag k="ssr:stedsnr" v="325768" />
	</node>
	<node lat="58.182105556020396" lon="6.8294277782368376" id="-25639">
		<tag k="fixme" v="consider natural=peak for the most distinct mountains in the district" />
		<tag k="name" v="Tosåsen" />
		<tag k="natural" v="hill" />
		<tag k="place" v="locality" />
		<tag k="ssr:stedsnr" v="364218" />
	</node>
	<node lat="58.111905551945696" lon="6.811050005124364" id="-25653">
		<tag k="fixme" v="consider natural=peak for the most distinct mountains in the district" />
		<tag k="name" v="Beiskefjell" />
		<tag k="natural" v="hill" />
		<tag k="place" v="locality" />
		<tag k="ssr:stedsnr" v="385604" />
	</node>
	<node lat="58.16280555337764" lon="6.6218916713132066" id="-25655">
		<tag k="name" v="Dufjell" />
		<tag k="natural" v="hill" />
		<tag k="place" v="locality" />
		<tag k="ssr:stedsnr" v="385706" />
	</node>
	<node lat="58.160383333482386" lon="6.625997225954083" id="-25656">
		<tag k="fixme" v="consider natural=peak for the most distinct mountains in the district" />
		<tag k="name" v="Trinta" />
		<tag k="natural" v="hill" />
		<tag k="place" v="locality" />
		<tag k="ssr:stedsnr" v="385709" />
	</node>
	<node lat="58.16024166660246" lon="6.6306972294169455" id="-25657">
		<tag k="name" v="Hestedalen" />
		<tag k="natural" v="valley" />
		<tag k="place" v="locality" />
		<tag k="ssr:stedsnr" v="385711" />
	</node>
	<node lat="58.13718055177937" lon="6.636586103714599" id="-25658">
		<tag k="name" v="Skeibrokrøysa" />
		<tag k="natural" v="hill" />
		<tag k="place" v="locality" />
		<tag k="ssr:stedsnr" v="385727" />
	</node>
	<node lat="58.11862500108232" lon="6.680713885575808" id="-25659">
		<tag k="name" v="Smibakk" />
		<tag k="natural" v="slope" />
		<tag k="place" v="locality" />
		<tag k="ssr:stedsnr" v="385740" />
	</node>
	<node lat="58.12070555345693" lon="6.6567222261619605" id="-25661">
		<tag k="name" v="Frøylandsdalen" />
		<tag k="natural" v="valley" />
		<tag k="place" v="locality" />
		<tag k="ssr:stedsnr" v="385747" />
	</node>
	<node lat="58.12834166313124" lon="6.658844451401941" id="-25663">
		<tag k="name" v="Revfjell" />
		<tag k="natural" v="hill" />
		<tag k="place" v="locality" />
		<tag k="ssr:stedsnr" v="385768" />
	</node>
	<node lat="58.12744721914671" lon="6.654663893783868" id="-25664">
		<tag k="fixme" v="consider natural=peak for the most distinct mountains in the district" />
		<tag k="name" v="Breifjellet" />
		<tag k="natural" v="hill" />
		<tag k="place" v="locality" />
		<tag k="ssr:stedsnr" v="385769" />
	</node>
	<node lat="58.14692499996247" lon="6.667530554408917" id="-25665">
		<tag k="name" v="Danseråsen" />
		<tag k="natural" v="hill" />
		<tag k="place" v="locality" />
		<tag k="ssr:stedsnr" v="385681" />
	</node>
	<node lat="58.188441666201626" lon="6.775388888458165" id="-25669">
		<tag k="fixme" v="consider natural=peak for the most distinct mountains in the district" />
		<tag k="name" v="Blåfjellet" />
		<tag k="natural" v="hill" />
		<tag k="place" v="locality" />
		<tag k="ssr:stedsnr" v="385851" />
	</node>
	<node lat="58.18512499652128" lon="6.7600222220092245" id="-25670">
		<tag k="name" v="Stakkebakken" />
		<tag k="natural" v="slope" />
		<tag k="place" v="locality" />
		<tag k="ssr:stedsnr" v="385855" />
	</node>
	<node lat="58.0865111096662" lon="6.921527780951978" id="-25672">
		<tag k="fixme" v="consider natural=peak for the most distinct mountains in the district" />
		<tag k="name" v="Kompåsen" />
		<tag k="natural" v="hill" />
		<tag k="place" v="locality" />
		<tag k="ssr:stedsnr" v="386453" />
	</node>
	<node lat="58.20585555974704" lon="6.89360832875601" id="-25674">
		<tag k="fixme" v="consider natural=peak for the most distinct mountains in the district" />
		<tag k="name" v="Båtheia" />
		<tag k="natural" v="hill" />
		<tag k="place" v="locality" />
		<tag k="ssr:stedsnr" v="386795" />
	</node>
	<node lat="58.2023361089252" lon="6.890530547601192" id="-25675">
		<tag k="name" v="Høgda" />
		<tag k="natural" v="hill" />
		<tag k="place" v="locality" />
		<tag k="ssr:stedsnr" v="386796" />
	</node>
	<node lat="58.20327500117377" lon="6.877486111124623" id="-25678">
		<tag k="fixme" v="consider natural=peak for the most distinct mountains in the district" />
		<tag k="name" v="Askundsfjellet" />
		<tag k="natural" v="hill" />
		<tag k="place" v="locality" />
		<tag k="ssr:stedsnr" v="386809" />
	</node>
	<node lat="58.19425555528195" lon="6.860763893625791" id="-25680">
		<tag k="name" v="Stakkebakken" />
		<tag k="natural" v="slope" />
		<tag k="place" v="locality" />
		<tag k="ssr:stedsnr" v="386814" />
	</node>
	<node lat="58.09316388957246" lon="6.822213889361196" id="-25719">
		<tag k="name" v="Spindslandet" />
		<tag k="place" v="locality" />
		<tag k="ssr:stedsnr" v="422909" />
	</node>
	<node lat="58.09950000362042" lon="6.897966663428445" id="-25735">
		<tag k="fixme" v="consider natural=peak for the most distinct mountains in the district" />
		<tag k="name" v="Årikstadåsen" />
		<tag k="natural" v="hill" />
		<tag k="place" v="locality" />
		<tag k="ssr:stedsnr" v="446501" />
	</node>
	<node lat="58.091125003875185" lon="6.79082500164483" id="-25736">
		<tag k="fixme" v="consider natural=peak for the most distinct mountains in the district" />
		<tag k="name" v="Trollkirka" />
		<tag k="natural" v="hill" />
		<tag k="place" v="locality" />
		<tag k="ssr:stedsnr" v="446622" />
	</node>
	<node lat="58.140686107245024" lon="6.783786118681769" id="-25739">
		<tag k="name" v="Mørkevannsheia" />
		<tag k="natural" v="hill" />
		<tag k="place" v="locality" />
		<tag k="ssr:stedsnr" v="446576" />
	</node>
	<node lat="58.11061388881904" lon="6.774247219310457" id="-25743">
		<tag k="name" v="Hestedalen" />
		<tag k="natural" v="valley" />
		<tag k="place" v="locality" />
		<tag k="ssr:stedsnr" v="446591" />
	</node>
	<node lat="58.113341663730736" lon="6.682438896243636" id="-25744">
		<tag k="name" v="Omdalslian" />
		<tag k="natural" v="slope" />
		<tag k="place" v="locality" />
		<tag k="ssr:stedsnr" v="446725" />
	</node>
	<node lat="58.15133889114554" lon="6.614247228140882" id="-25745">
		<tag k="fixme" v="consider natural=peak for the most distinct mountains in the district" />
		<tag k="name" v="Sedberget" />
		<tag k="natural" v="hill" />
		<tag k="place" v="locality" />
		<tag k="ssr:stedsnr" v="446710" />
	</node>
	<node lat="58.21843333146219" lon="6.824208340016578" id="-25746">
		<tag k="name" v="Bjellandsdalen" />
		<tag k="natural" v="valley" />
		<tag k="place" v="locality" />
		<tag k="ssr:stedsnr" v="446777" />
	</node>
	<node lat="58.18563333008452" lon="6.871988891723986" id="-25747">
		<tag k="fixme" v="consider natural=peak for the most distinct mountains in the district" />
		<tag k="name" v="Rabnefjellnosa" />
		<tag k="natural" v="hill" />
		<tag k="place" v="locality" />
		<tag k="ssr:stedsnr" v="446790" />
	</node>
	<node lat="58.182277774835235" lon="6.884094451804358" id="-25748">
		<tag k="fixme" v="consider natural=peak for the most distinct mountains in the district" />
		<tag k="name" v="Vardehei" />
		<tag k="natural" v="hill" />
		<tag k="place" v="locality" />
		<tag k="ssr:stedsnr" v="446794" />
	</node>
	<node lat="58.216983331811555" lon="6.772961119267334" id="-25751">
		<tag k="name" v="Rundehaugen" />
		<tag k="natural" v="hill" />
		<tag k="place" v="locality" />
		<tag k="ssr:stedsnr" v="446856" />
	</node>
	<node lat="58.18531666879613" lon="6.769608338511846" id="-25752">
		<tag k="name" v="Borknebakken" />
		<tag k="natural" v="slope" />
		<tag k="place" v="locality" />
		<tag k="ssr:stedsnr" v="446871" />
	</node>
	<node lat="58.191019447809886" lon="6.848238888538383" id="-25754">
		<tag k="name" v="Ørnedalen" />
		<tag k="natural" v="valley" />
		<tag k="place" v="locality" />
		<tag k="ssr:stedsnr" v="446979" />
	</node>
	<node lat="58.11489722110743" lon="6.900288895714542" id="-25755">
		<tag k="name" v="Groboheia" />
		<tag k="natural" v="hill" />
		<tag k="place" v="locality" />
		<tag k="ssr:stedsnr" v="446983" />
	</node>
	<node lat="58.11156944797632" lon="6.9040833405293105" id="-25756">
		<tag k="name" v="Hestebakken" />
		<tag k="natural" v="slope" />
		<tag k="place" v="locality" />
		<tag k="ssr:stedsnr" v="446987" />
	</node>
	<node lat="58.20869444781806" lon="6.853380547389732" id="-25759">
		<tag k="name" v="Husdalen" />
		<tag k="natural" v="valley" />
		<tag k="place" v="locality" />
		<tag k="ssr:stedsnr" v="447810" />
	</node>
	<node lat="58.20549444871549" lon="6.891380551497369" id="-25761">
		<tag k="name" v="Kattundalen" />
		<tag k="natural" v="valley" />
		<tag k="place" v="locality" />
		<tag k="ssr:stedsnr" v="447774" />
	</node>
	<node lat="58.20042500319439" lon="6.9059694459714" id="-25762">
		<tag k="fixme" v="consider natural=peak for the most distinct mountains in the district" />
		<tag k="name" v="Kveinåsen" />
		<tag k="natural" v="hill" />
		<tag k="place" v="locality" />
		<tag k="ssr:stedsnr" v="447777" />
	</node>
	<node lat="58.22534307532585" lon="6.8385836305529635" id="-25764">
		<tag k="name" v="Revsdalen" />
		<tag k="natural" v="valley" />
		<tag k="place" v="locality" />
		<tag k="ssr:stedsnr" v="456381" />
	</node>
	<node lat="58.132508334270106" lon="6.789411113977481" id="-25775">
		<tag k="fixme" v="consider natural=peak for the most distinct mountains in the district" />
		<tag k="name" v="Tollakskårfjellet" />
		<tag k="natural" v="hill" />
		<tag k="place" v="locality" />
		<tag k="ssr:stedsnr" v="506573" />
	</node>
	<node lat="58.19993611305" lon="6.754633326149316" id="-25776">
		<tag k="name" v="Storheia" />
		<tag k="natural" v="hill" />
		<tag k="place" v="locality" />
		<tag k="ssr:stedsnr" v="506903" />
	</node>
	<node lat="58.11513889088868" lon="6.892383325888681" id="-25779">
		<tag k="fixme" v="consider natural=peak for the most distinct mountains in the district" />
		<tag k="name" v="Lyngfjell" />
		<tag k="natural" v="hill" />
		<tag k="place" v="locality" />
		<tag k="ssr:stedsnr" v="506971" />
	</node>
	<node lat="58.094941665806765" lon="6.864469442832154" id="-25785">
		<tag k="name" v="Nenningskar" />
		<tag k="natural" v="valley" />
		<tag k="place" v="locality" />
		<tag k="ssr:stedsnr" v="507373" />
	</node>
	<node lat="58.062366663618555" lon="6.957036109107856" id="-25789">
		<tag k="fixme" v="consider natural=peak for the most distinct mountains in the district" />
		<tag k="name" v="Steindalsfjellet" />
		<tag k="natural" v="hill" />
		<tag k="place" v="locality" />
		<tag k="ssr:stedsnr" v="507420" />
	</node>
	<node lat="58.179861107159326" lon="6.754391667449103" id="-25790">
		<tag k="fixme" v="consider natural=peak for the most distinct mountains in the district" />
		<tag k="name" v="Kjørkebergflåna" />
		<tag k="natural" v="hill" />
		<tag k="place" v="locality" />
		<tag k="ssr:stedsnr" v="507427" />
	</node>
	<node lat="58.09976666684008" lon="6.931563888964877" id="-25793">
		<tag k="fixme" v="consider natural=peak for the most distinct mountains in the district" />
		<tag k="name" v="Fjellet" />
		<tag k="natural" v="hill" />
		<tag k="place" v="locality" />
		<tag k="ssr:stedsnr" v="507458" />
	</node>
	<node lat="58.17352222001412" lon="6.698555549431168" id="-25796">
		<tag k="name" v="Grytedalen" />
		<tag k="natural" v="valley" />
		<tag k="place" v="locality" />
		<tag k="ssr:stedsnr" v="507465" />
	</node>
	<node lat="58.11375277860602" lon="6.829886109430289" id="-25797">
		<tag k="fixme" v="consider natural=peak for the most distinct mountains in the district" />
		<tag k="name" v="Solbjørfjellan" />
		<tag k="natural" v="hill" />
		<tag k="place" v="locality" />
		<tag k="ssr:stedsnr" v="507470" />
	</node>
	<node lat="58.1021666704395" lon="6.912977774260494" id="-25798">
		<tag k="fixme" v="consider natural=peak for the most distinct mountains in the district" />
		<tag k="name" v="Lyngåsen" />
		<tag k="natural" v="hill" />
		<tag k="place" v="locality" />
		<tag k="ssr:stedsnr" v="507476" />
	</node>
	<node lat="58.09690833356272" lon="6.708174997464094" id="-25799">
		<tag k="name" v="Kråkedalen" />
		<tag k="natural" v="valley" />
		<tag k="place" v="locality" />
		<tag k="ssr:stedsnr" v="507602" />
	</node>
	<node lat="58.132316670725515" lon="6.613444450748432" id="-25801">
		<tag k="name" v="Jærbergsletta" />
		<tag k="place" v="locality" />
		<tag k="ssr:stedsnr" v="507703" />
	</node>
	<node lat="58.13098055156638" lon="6.607897217501647" id="-25802">
		<tag k="name" v="Mona" />
		<tag k="place" v="locality" />
		<tag k="ssr:stedsnr" v="507705" />
	</node>
	<node lat="58.1370583348414" lon="6.645444446682542" id="-25804">
		<tag k="name" v="Brødkorja" />
		<tag k="place" v="locality" />
		<tag k="ssr:stedsnr" v="507715" />
	</node>
	<node lat="58.14845278085472" lon="6.610466671388533" id="-25805">
		<tag k="name" v="Kasseberje" />
		<tag k="natural" v="hill" />
		<tag k="place" v="locality" />
		<tag k="ssr:stedsnr" v="507716" />
	</node>
	<node lat="58.12391944700243" lon="6.641691672666034" id="-25806">
		<tag k="name" v="Ådnesknuten" />
		<tag k="natural" v="hill" />
		<tag k="place" v="locality" />
		<tag k="ssr:stedsnr" v="507762" />
	</node>
	<node lat="58.19889722002041" lon="6.912427774728223" id="-25808">
		<tag k="name" v="Teigen" />
		<tag k="natural" v="hill" />
		<tag k="place" v="locality" />
		<tag k="ssr:stedsnr" v="507786" />
	</node>
	<node lat="58.197913889343404" lon="6.913252777501737" id="-25809">
		<tag k="name" v="Vaddelia" />
		<tag k="natural" v="slope" />
		<tag k="place" v="locality" />
		<tag k="ssr:stedsnr" v="507787" />
	</node>
	<node lat="58.11336389090587" lon="6.739119450405734" id="-25811">
		<tag k="fixme" v="consider natural=peak for the most distinct mountains in the district" />
		<tag k="name" v="Helvikåsen" />
		<tag k="natural" v="hill" />
		<tag k="place" v="locality" />
		<tag k="ssr:stedsnr" v="507663" />
	</node>
	<node lat="58.19620000252632" lon="6.8361972299638145" id="-25812">
		<tag k="name" v="Harsdalen" />
		<tag k="natural" v="valley" />
		<tag k="place" v="locality" />
		<tag k="ssr:stedsnr" v="507806" />
	</node>
	<node lat="58.195391666390464" lon="6.855075004243148" id="-25813">
		<tag k="name" v="Flåna" />
		<tag k="natural" v="ridge" />
		<tag k="place" v="locality" />
		<tag k="ssr:stedsnr" v="507810" />
	</node>
	<node lat="58.1962138865084" lon="6.821577784368055" id="-25814">
		<tag k="fixme" v="consider natural=peak for the most distinct mountains in the district" />
		<tag k="name" v="Veggberget" />
		<tag k="natural" v="hill" />
		<tag k="place" v="locality" />
		<tag k="ssr:stedsnr" v="507819" />
	</node>
	<node lat="58.09804722241676" lon="6.594736104511038" id="-25829">
		<tag k="name" v="Tjørvehaugen" />
		<tag k="natural" v="hill" />
		<tag k="place" v="locality" />
		<tag k="ssr:stedsnr" v="767162" />
	</node>
	<node lat="58.167494440473384" lon="6.685199998903169" id="-25833">
		<tag k="name" v="Groverheia" />
		<tag k="natural" v="hill" />
		<tag k="place" v="locality" />
		<tag k="ssr:stedsnr" v="689372" />
	</node>
	<node lat="58.15587499935466" lon="6.655211105633797" id="-25834">
		<tag k="name" v="Bakken" />
		<tag k="natural" v="slope" />
		<tag k="place" v="locality" />
		<tag k="ssr:stedsnr" v="689374" />
	</node>
	<node lat="58.14170555482729" lon="6.834766661620638" id="-25837">
		<tag k="fixme" v="consider natural=peak for the most distinct mountains in the district" />
		<tag k="name" v="Høylandsfjellet" />
		<tag k="natural" v="hill" />
		<tag k="place" v="locality" />
		<tag k="ssr:stedsnr" v="689444" />
	</node>
	<node lat="58.102619441617385" lon="6.928166660202259" id="-25844">
		<tag k="fixme" v="consider natural=peak for the most distinct mountains in the district" />
		<tag k="name" v="Skargrotheia" />
		<tag k="natural" v="hill" />
		<tag k="place" v="locality" />
		<tag k="ssr:stedsnr" v="689459" />
	</node>
	<node lat="58.08735277979215" lon="6.888969443747979" id="-25846">
		<tag k="fixme" v="consider natural=peak for the most distinct mountains in the district" />
		<tag k="name" v="Solåsen" />
		<tag k="natural" v="hill" />
		<tag k="place" v="locality" />
		<tag k="ssr:stedsnr" v="689473" />
	</node>
	<node lat="58.08996666371522" lon="6.903288883072171" id="-25847">
		<tag k="fixme" v="consider natural=peak for the most distinct mountains in the district" />
		<tag k="name" v="Rødlandsåsen" />
		<tag k="natural" v="hill" />
		<tag k="place" v="locality" />
		<tag k="ssr:stedsnr" v="689476" />
	</node>
	<node lat="58.1027333304984" lon="6.755155557913358" id="-25848">
		<tag k="name" v="Sandfjellet" />
		<tag k="natural" v="hill" />
		<tag k="place" v="locality" />
		<tag k="ssr:stedsnr" v="689556" />
	</node>
	<node lat="58.1308444477163" lon="6.72500833074296" id="-25849">
		<tag k="name" v="Perstø" />
		<tag k="natural" v="slope" />
		<tag k="place" v="locality" />
		<tag k="ssr:stedsnr" v="689525" />
	</node>
	<node lat="58.14294166482286" lon="6.683113888467801" id="-25850">
		<tag k="name" v="Tussefjell" />
		<tag k="natural" v="hill" />
		<tag k="place" v="locality" />
		<tag k="ssr:stedsnr" v="689618" />
	</node>
	<node lat="58.219755559918624" lon="6.769349996007981" id="-25852">
		<tag k="fixme" v="consider natural=peak for the most distinct mountains in the district" />
		<tag k="name" v="Reverknutene" />
		<tag k="natural" v="hill" />
		<tag k="place" v="locality" />
		<tag k="ssr:stedsnr" v="689824" />
	</node>
	<node lat="58.1692750043997" lon="6.788586115796757" id="-25853">
		<tag k="name" v="Austheia" />
		<tag k="natural" v="hill" />
		<tag k="place" v="locality" />
		<tag k="ssr:stedsnr" v="689921" />
	</node>
	<node lat="58.10707777819346" lon="6.922688889847108" id="-25854">
		<tag k="fixme" v="consider natural=peak for the most distinct mountains in the district" />
		<tag k="name" v="Vindåsen" />
		<tag k="natural" v="hill" />
		<tag k="place" v="locality" />
		<tag k="ssr:stedsnr" v="689925" />
	</node>
	<node lat="58.074788891503324" lon="6.77327222243683" id="-25856">
		<tag k="name" v="Langebakk" />
		<tag k="natural" v="hill" />
		<tag k="place" v="locality" />
		<tag k="ssr:stedsnr" v="689635" />
	</node>
	<node lat="58.15776111453102" lon="6.646444451725918" id="-25857">
		<tag k="name" v="Trettebakken" />
		<tag k="natural" v="slope" />
		<tag k="place" v="locality" />
		<tag k="ssr:stedsnr" v="689636" />
	</node>
	<node lat="58.087508331757434" lon="6.682038888963122" id="-25859">
		<tag k="name" v="Lille Danmark" />
		<tag k="natural" v="hill" />
		<tag k="place" v="locality" />
		<tag k="ssr:stedsnr" v="689653" />
	</node>
	<node lat="58.15115833762128" lon="6.628800003781354" id="-25861">
		<tag k="name" v="Litlehola" />
		<tag k="natural" v="valley" />
		<tag k="place" v="locality" />
		<tag k="ssr:stedsnr" v="689674" />
	</node>
	<node lat="58.21983333677034" lon="6.865005556883254" id="-25862">
		<tag k="name" v="Åsen" />
		<tag k="natural" v="hill" />
		<tag k="place" v="locality" />
		<tag k="ssr:stedsnr" v="689727" />
	</node>
	<node lat="58.18704721822751" lon="6.894225006092655" id="-25864">
		<tag k="name" v="Enkesete" />
		<tag k="natural" v="slope" />
		<tag k="place" v="locality" />
		<tag k="ssr:stedsnr" v="689743" />
	</node>
	<node lat="58.200894442995015" lon="6.902633338899596" id="-25866">
		<tag k="name" v="Einerbakken" />
		<tag k="natural" v="slope" />
		<tag k="place" v="locality" />
		<tag k="ssr:stedsnr" v="689768" />
	</node>
	<node lat="58.20236111488016" lon="6.859819438203037" id="-25867">
		<tag k="name" v="Nosa" />
		<tag k="natural" v="ridge" />
		<tag k="place" v="locality" />
		<tag k="ssr:stedsnr" v="689775" />
	</node>
	<node lat="58.18470555362152" lon="6.763783336833265" id="-25868">
		<tag k="name" v="Upsan" />
		<tag k="natural" v="slope" />
		<tag k="place" v="locality" />
		<tag k="ssr:stedsnr" v="689844" />
	</node>
	<node lat="58.186422218098556" lon="6.781436116903377" id="-25869">
		<tag k="name" v="Sveinsoksdalen" />
		<tag k="natural" v="valley" />
		<tag k="place" v="locality" />
		<tag k="ssr:stedsnr" v="689848" />
	</node>
	<node lat="58.19977500039538" lon="6.784441666796008" id="-25870">
		<tag k="fixme" v="consider natural=peak for the most distinct mountains in the district" />
		<tag k="name" v="Laufjellet" />
		<tag k="natural" v="hill" />
		<tag k="place" v="locality" />
		<tag k="ssr:stedsnr" v="689851" />
	</node>
	<node lat="58.20248611260594" lon="6.77612221992082" id="-25871">
		<tag k="fixme" v="consider natural=peak for the most distinct mountains in the district" />
		<tag k="name" v="Ytre Espeåsen" />
		<tag k="natural" v="hill" />
		<tag k="place" v="locality" />
		<tag k="ssr:stedsnr" v="689852" />
	</node>
	<node lat="58.19036666319775" lon="6.772041663343678" id="-25872">
		<tag k="name" v="Kalvehagen" />
		<tag k="natural" v="slope" />
		<tag k="place" v="locality" />
		<tag k="ssr:stedsnr" v="689853" />
	</node>
	<node lat="58.212158330971995" lon="6.797219448287849" id="-25873">
		<tag k="name" v="Austrekneben" />
		<tag k="natural" v="hill" />
		<tag k="place" v="locality" />
		<tag k="ssr:stedsnr" v="689861" />
	</node>
	<node lat="58.197333335556706" lon="6.75646667453237" id="-25874">
		<tag k="fixme" v="consider natural=peak for the most distinct mountains in the district" />
		<tag k="name" v="Langfjellan" />
		<tag k="natural" v="hill" />
		<tag k="place" v="locality" />
		<tag k="ssr:stedsnr" v="689874" />
	</node>
	<node lat="58.184813885076" lon="6.865255550051655" id="-25877">
		<tag k="name" v="Annaskåra" />
		<tag k="place" v="locality" />
		<tag k="ssr:stedsnr" v="689958" />
	</node>
	<node lat="58.178041662915575" lon="6.843236103538247" id="-25878">
		<tag k="fixme" v="consider natural=peak for the most distinct mountains in the district" />
		<tag k="name" v="Dyttingsberget" />
		<tag k="natural" v="hill" />
		<tag k="place" v="locality" />
		<tag k="ssr:stedsnr" v="689966" />
	</node>
	<node lat="58.10150555881964" lon="6.793577781448399" id="-25882">
		<tag k="name" v="Flyndreberget" />
		<tag k="natural" v="hill" />
		<tag k="place" v="locality" />
		<tag k="ssr:stedsnr" v="692761" />
	</node>
	<node lat="58.08373055828209" lon="6.909811112591586" id="-25892">
		<tag k="fixme" v="consider natural=peak for the most distinct mountains in the district" />
		<tag k="name" v="Agnefjellet" />
		<tag k="natural" v="hill" />
		<tag k="place" v="locality" />
		<tag k="ssr:stedsnr" v="567524" />
	</node>
	<node lat="58.12892222352644" lon="6.732397228474846" id="-25893">
		<tag k="name" v="Lindalen" />
		<tag k="natural" v="valley" />
		<tag k="place" v="locality" />
		<tag k="ssr:stedsnr" v="567557" />
	</node>
	<node lat="58.17105555355359" lon="6.736416662940816" id="-25896">
		<tag k="fixme" v="consider natural=peak for the most distinct mountains in the district" />
		<tag k="name" v="Kolås" />
		<tag k="natural" v="hill" />
		<tag k="place" v="locality" />
		<tag k="ssr:stedsnr" v="567457" />
	</node>
	<node lat="58.17090555352278" lon="6.72700277341267" id="-25897">
		<tag k="name" v="Mevollen" />
		<tag k="natural" v="slope" />
		<tag k="place" v="locality" />
		<tag k="ssr:stedsnr" v="567459" />
	</node>
	<node lat="58.115566670764274" lon="6.709297229196977" id="-25899">
		<tag k="fixme" v="consider natural=peak for the most distinct mountains in the district" />
		<tag k="name" v="Klovåsen" />
		<tag k="natural" v="hill" />
		<tag k="place" v="locality" />
		<tag k="ssr:stedsnr" v="567608" />
	</node>
	<node lat="58.120322226324966" lon="6.684052777121237" id="-25903">
		<tag k="name" v="Faksvoll" />
		<tag k="natural" v="slope" />
		<tag k="place" v="locality" />
		<tag k="ssr:stedsnr" v="567713" />
	</node>
	<node lat="58.12487500339271" lon="6.696844436398329" id="-25905">
		<tag k="name" v="Revsdalen" />
		<tag k="natural" v="valley" />
		<tag k="place" v="locality" />
		<tag k="ssr:stedsnr" v="567717" />
	</node>
	<node lat="58.22098055650702" lon="6.819016671610768" id="-25906">
		<tag k="name" v="Bjellandsheia" />
		<tag k="natural" v="hill" />
		<tag k="place" v="locality" />
		<tag k="ssr:stedsnr" v="567757" />
	</node>
	<node lat="58.19136389147387" lon="6.887019450453155" id="-25909">
		<tag k="name" v="Steinsheia" />
		<tag k="natural" v="hill" />
		<tag k="place" v="locality" />
		<tag k="ssr:stedsnr" v="567777" />
	</node>
	<node lat="58.20453610961069" lon="6.711000006805713" id="-25911">
		<tag k="fixme" v="consider natural=peak for the most distinct mountains in the district" />
		<tag k="name" v="Kjeupsa" />
		<tag k="natural" v="hill" />
		<tag k="place" v="locality" />
		<tag k="ssr:stedsnr" v="567906" />
	</node>
	<node lat="58.18598610706767" lon="6.786744446186806" id="-25913">
		<tag k="fixme" v="consider natural=peak for the most distinct mountains in the district" />
		<tag k="name" v="Langåsen" />
		<tag k="natural" v="hill" />
		<tag k="place" v="locality" />
		<tag k="ssr:stedsnr" v="567874" />
	</node>
	<node lat="58.08407499593016" lon="6.944586117059177" id="-25915">
		<tag k="fixme" v="consider natural=peak for the most distinct mountains in the district" />
		<tag k="name" v="Slottsfjellet" />
		<tag k="natural" v="hill" />
		<tag k="place" v="locality" />
		<tag k="ssr:stedsnr" v="568455" />
	</node>
	<node lat="58.205188891095496" lon="6.843513893800922" id="-25919">
		<tag k="fixme" v="consider natural=peak for the most distinct mountains in the district" />
		<tag k="name" v="Volleknepen" />
		<tag k="natural" v="hill" />
		<tag k="place" v="locality" />
		<tag k="ssr:stedsnr" v="568806" />
	</node>
	<node lat="58.2123611108977" lon="6.823722226210423" id="-25921">
		<tag k="name" v="Revehola" />
		<tag k="natural" v="valley" />
		<tag k="place" v="locality" />
		<tag k="ssr:stedsnr" v="568826" />
	</node>
	<node lat="58.06399999615438" lon="6.8760388907588075" id="-25929">
		<tag k="fixme" v="consider natural=peak for the most distinct mountains in the district" />
		<tag k="name" v="Bremerfjell" />
		<tag k="natural" v="hill" />
		<tag k="place" v="locality" />
		<tag k="ssr:stedsnr" v="603106" />
	</node>
	<node lat="58.15896944722291" lon="6.797205562837115" id="-25935">
		<tag k="fixme" v="consider natural=peak for the most distinct mountains in the district" />
		<tag k="name" v="Sandsfjellet" />
		<tag k="natural" v="hill" />
		<tag k="place" v="locality" />
		<tag k="ssr:stedsnr" v="606203" />
	</node>
	<node lat="58.18675277801669" lon="6.9230499930847" id="-25940">
		<tag k="alt_name" v="Lyheia" />
		<tag k="fixme" v="consider natural=peak for the most distinct mountains in the district" />
		<tag k="name" v="Lyfjellet" />
		<tag k="natural" v="hill" />
		<tag k="place" v="locality" />
		<tag k="ssr:stedsnr" v="606187" />
	</node>
	<node lat="58.194719442701334" lon="6.684244442008786" id="-25952">
		<tag k="fixme" v="consider natural=peak for the most distinct mountains in the district" />
		<tag k="name" v="Gjestebudfjellet" />
		<tag k="natural" v="hill" />
		<tag k="place" v="locality" />
		<tag k="ssr:stedsnr" v="627945" />
	</node>
	<node lat="58.18996944833908" lon="6.756497222338797" id="-25953">
		<tag k="name" v="Stegelia" />
		<tag k="natural" v="slope" />
		<tag k="place" v="locality" />
		<tag k="ssr:stedsnr" v="628443" />
	</node>
	<node lat="58.15105555614357" lon="6.736324997319955" id="-25954">
		<tag k="name" v="Kvithei" />
		<tag k="natural" v="hill" />
		<tag k="place" v="locality" />
		<tag k="ssr:stedsnr" v="628444" />
	</node>
	<node lat="58.14150833531628" lon="6.817716664963432" id="-25955">
		<tag k="fixme" v="consider natural=peak for the most distinct mountains in the district" />
		<tag k="name" v="Furuheia" />
		<tag k="natural" v="hill" />
		<tag k="place" v="locality" />
		<tag k="ssr:stedsnr" v="628449" />
	</node>
	<node lat="58.11645833438319" lon="6.717294439497673" id="-25958">
		<tag k="name" v="Langeskåra" />
		<tag k="place" v="locality" />
		<tag k="ssr:stedsnr" v="628609" />
	</node>
	<node lat="58.11929444577333" lon="6.77221111538404" id="-25960">
		<tag k="fixme" v="consider natural=peak for the most distinct mountains in the district" />
		<tag k="name" v="Raufjellet" />
		<tag k="natural" v="hill" />
		<tag k="place" v="locality" />
		<tag k="ssr:stedsnr" v="628627" />
	</node>
	<node lat="58.11187777672007" lon="6.727488896429918" id="-25961">
		<tag k="fixme" v="consider natural=peak for the most distinct mountains in the district" />
		<tag k="name" v="Haukåsen" />
		<tag k="natural" v="hill" />
		<tag k="place" v="locality" />
		<tag k="ssr:stedsnr" v="628642" />
	</node>
	<node lat="58.07560833328865" lon="6.797330554135065" id="-25965">
		<tag k="fixme" v="consider natural=peak for the most distinct mountains in the district" />
		<tag k="name" v="Geitefjellet" />
		<tag k="natural" v="hill" />
		<tag k="place" v="locality" />
		<tag k="ssr:stedsnr" v="628659" />
	</node>
	<node lat="58.12844722563022" lon="6.7229333278022905" id="-25967">
		<tag k="fixme" v="consider natural=peak for the most distinct mountains in the district" />
		<tag k="name" v="Varåsen" />
		<tag k="natural" v="hill" />
		<tag k="place" v="locality" />
		<tag k="ssr:stedsnr" v="628550" />
	</node>
	<node lat="58.097427778606686" lon="6.69831667185855" id="-25970">
		<tag k="name" v="Djupedalen" />
		<tag k="natural" v="valley" />
		<tag k="place" v="locality" />
		<tag k="ssr:stedsnr" v="628711" />
	</node>
	<node lat="58.19865833262552" lon="6.91950277362464" id="-25972">
		<tag k="fixme" v="consider natural=peak for the most distinct mountains in the district" />
		<tag k="name" v="Heimre Åsen" />
		<tag k="natural" v="hill" />
		<tag k="place" v="locality" />
		<tag k="ssr:stedsnr" v="628759" />
	</node>
	<node lat="58.1180166665456" lon="6.928027781749555" id="-25976">
		<tag k="fixme" v="consider natural=peak for the most distinct mountains in the district" />
		<tag k="name" v="Husefjellet" />
		<tag k="natural" v="hill" />
		<tag k="place" v="locality" />
		<tag k="ssr:stedsnr" v="628907" />
	</node>
	<node lat="58.16592222156342" lon="6.783061104209312" id="-25977">
		<tag k="fixme" v="consider natural=peak for the most distinct mountains in the district" />
		<tag k="name" v="Venafjellet" />
		<tag k="natural" v="hill" />
		<tag k="place" v="locality" />
		<tag k="ssr:stedsnr" v="628897" />
	</node>
	<node lat="58.160141668890475" lon="6.7946250063337565" id="-25978">
		<tag k="name" v="Svelan" />
		<tag k="place" v="locality" />
		<tag k="ssr:stedsnr" v="628900" />
	</node>
	<node lat="58.17954722047597" lon="6.851086103119676" id="-25979">
		<tag k="name" v="Beitesletta" />
		<tag k="place" v="locality" />
		<tag k="ssr:stedsnr" v="628943" />
	</node>
	<node lat="58.163036109945075" lon="6.722088883651189" id="-26002">
		<tag k="fixme" v="consider natural=peak for the most distinct mountains in the district" />
		<tag k="name" v="Villheia" />
		<tag k="natural" v="hill" />
		<tag k="place" v="locality" />
		<tag k="ssr:stedsnr" v="667217" />
	</node>
	<node lat="58.07318610979933" lon="6.634605551451984" id="-26011">
		<tag k="name" v="Marka" />
		<tag k="natural" v="hill" />
		<tag k="place" v="locality" />
		<tag k="ssr:stedsnr" v="667326" />
	</node>
	<node lat="58.062344444095146" lon="6.9657305634110855" id="-26016">
		<tag k="fixme" v="consider natural=peak for the most distinct mountains in the district" />
		<tag k="name" v="Kyråsen" />
		<tag k="natural" v="hill" />
		<tag k="place" v="locality" />
		<tag k="ssr:stedsnr" v="689430" />
	</node>
	<node lat="58.13093055713562" lon="6.83438332959944" id="-26017">
		<tag k="name" v="Steian" />
		<tag k="natural" v="slope" />
		<tag k="place" v="locality" />
		<tag k="ssr:stedsnr" v="689442" />
	</node>
	<node lat="58.146669444183566" lon="6.813605549285386" id="-26019">
		<tag k="name" v="Snabbefjellet" />
		<tag k="natural" v="hill" />
		<tag k="place" v="locality" />
		<tag k="ssr:stedsnr" v="689484" />
	</node>
	<node lat="58.081474996115254" lon="6.917719452670207" id="-26020">
		<tag k="fixme" v="consider natural=peak for the most distinct mountains in the district" />
		<tag k="name" v="Husefjellet" />
		<tag k="natural" v="hill" />
		<tag k="place" v="locality" />
		<tag k="ssr:stedsnr" v="689500" />
	</node>
	<node lat="58.13267222068133" lon="6.651116662216581" id="-26021">
		<tag k="fixme" v="consider natural=peak for the most distinct mountains in the district" />
		<tag k="name" v="Bergåsen" />
		<tag k="natural" v="hill" />
		<tag k="place" v="locality" />
		<tag k="ssr:stedsnr" v="689608" />
	</node>
	<node lat="58.1397027735511" lon="6.679799992208216" id="-26022">
		<tag k="fixme" v="consider natural=peak for the most distinct mountains in the district" />
		<tag k="name" v="Haugriloptet" />
		<tag k="natural" v="hill" />
		<tag k="place" v="locality" />
		<tag k="ssr:stedsnr" v="689610" />
	</node>
	<node lat="58.14180000135694" lon="6.68788333467385" id="-26024">
		<tag k="fixme" v="consider natural=peak for the most distinct mountains in the district" />
		<tag k="name" v="Kjefjellet" />
		<tag k="natural" v="hill" />
		<tag k="place" v="locality" />
		<tag k="ssr:stedsnr" v="689614" />
	</node>
	<node lat="58.10802778166337" lon="6.711602783122359" id="-26031">
		<tag k="name" v="Trætevollen" />
		<tag k="natural" v="hill" />
		<tag k="place" v="locality" />
		<tag k="ssr:stedsnr" v="689602" />
	</node>
	<node lat="58.095700002836516" lon="6.701563895708787" id="-26032">
		<tag k="name" v="Bryneheia" />
		<tag k="natural" v="hill" />
		<tag k="place" v="locality" />
		<tag k="ssr:stedsnr" v="689704" />
	</node>
	<node lat="58.11539444216204" lon="6.655144441788171" id="-26033">
		<tag k="fixme" v="consider natural=peak for the most distinct mountains in the district" />
		<tag k="name" v="Øygardsåsen" />
		<tag k="natural" v="hill" />
		<tag k="place" v="locality" />
		<tag k="ssr:stedsnr" v="689709" />
	</node>
	<node lat="58.21710277705266" lon="6.882022224577857" id="-26034">
		<tag k="name" v="Daltestø" />
		<tag k="natural" v="valley" />
		<tag k="place" v="locality" />
		<tag k="ssr:stedsnr" v="689714" />
	</node>
	<node lat="58.10357499806704" lon="6.6862055532476745" id="-26038">
		<tag k="fixme" v="consider natural=peak for the most distinct mountains in the district" />
		<tag k="name" v="Mindeåsen" />
		<tag k="natural" v="hill" />
		<tag k="place" v="locality" />
		<tag k="ssr:stedsnr" v="689702" />
	</node>
	<node lat="58.18285555479452" lon="6.790608333460073" id="-26040">
		<tag k="name" v="Ryggåsen" />
		<tag k="natural" v="ridge" />
		<tag k="place" v="locality" />
		<tag k="ssr:stedsnr" v="689838" />
	</node>
	<node lat="58.19921111057862" lon="6.7111416693087715" id="-26041">
		<tag k="alt_name" v="Skipmannsheia" />
		<tag k="name" v="Skipmannhei" />
		<tag k="natural" v="hill" />
		<tag k="place" v="locality" />
		<tag k="ssr:stedsnr" v="689880" />
	</node>
	<node lat="58.20348888592634" lon="6.852241662285631" id="-26046">
		<tag k="fixme" v="consider natural=peak for the most distinct mountains in the district" />
		<tag k="name" v="Apalvollåsen" />
		<tag k="natural" v="hill" />
		<tag k="place" v="locality" />
		<tag k="ssr:stedsnr" v="689782" />
	</node>
	<node lat="58.15219166789359" lon="6.860613883011312" id="-26048">
		<tag k="name" v="Kjeskår" />
		<tag k="natural" v="slope" />
		<tag k="place" v="locality" />
		<tag k="ssr:stedsnr" v="689794" />
	</node>
	<node lat="58.10876111461268" lon="6.9331305485287675" id="-26050">
		<tag k="fixme" v="consider natural=peak for the most distinct mountains in the district" />
		<tag k="name" v="Lindåsen" />
		<tag k="natural" v="hill" />
		<tag k="place" v="locality" />
		<tag k="ssr:stedsnr" v="689927" />
	</node>
	<node lat="58.04866944549165" lon="6.910225005538231" id="-26052">
		<tag k="alt_name" v="Molaugdalen" />
		<tag k="name" v="Malungdalen" />
		<tag k="natural" v="valley" />
		<tag k="place" v="locality" />
		<tag k="ssr:stedsnr" v="689997" />
	</node>
	<node lat="58.22612499884616" lon="6.758933341862665" id="-26053">
		<tag k="fixme" v="consider natural=peak for the most distinct mountains in the district" />
		<tag k="name" v="Lyrberget" />
		<tag k="natural" v="hill" />
		<tag k="place" v="locality" />
		<tag k="ssr:stedsnr" v="689999" />
	</node>
	<node lat="58.120416662287326" lon="6.708833332617964" id="-26062">
		<tag k="fixme" v="consider natural=peak for the most distinct mountains in the district" />
		<tag k="name" v="Skardsfjellet" />
		<tag k="natural" v="hill" />
		<tag k="place" v="locality" />
		<tag k="ssr:stedsnr" v="728224" />
	</node>
	<node lat="58.17102777827271" lon="6.671338882026079" id="-26074">
		<tag k="fixme" v="consider natural=peak for the most distinct mountains in the district" />
		<tag k="name" v="Husfjellet" />
		<tag k="natural" v="hill" />
		<tag k="place" v="locality" />
		<tag k="ssr:stedsnr" v="749404" />
	</node>
	<node lat="58.159455556616116" lon="6.652227772791759" id="-26075">
		<tag k="name" v="Åsen" />
		<tag k="natural" v="hill" />
		<tag k="place" v="locality" />
		<tag k="ssr:stedsnr" v="749409" />
	</node>
	<node lat="58.073947218023214" lon="6.642869443167575" id="-26076">
		<tag k="name" v="Veten" />
		<tag k="place" v="locality" />
		<tag k="ssr:stedsnr" v="749423" />
	</node>
	<node lat="58.18190000279534" lon="6.749361119338749" id="-26077">
		<tag k="fixme" v="consider natural=peak for the most distinct mountains in the district" />
		<tag k="name" v="Kjørkeberget" />
		<tag k="natural" v="hill" />
		<tag k="place" v="locality" />
		<tag k="ssr:stedsnr" v="749470" />
	</node>
	<node lat="58.19153889057678" lon="6.708449999075434" id="-26080">
		<tag k="name" v="Revsknepen" />
		<tag k="natural" v="hill" />
		<tag k="place" v="locality" />
		<tag k="ssr:stedsnr" v="749476" />
	</node>
	<node lat="58.10350555542514" lon="6.725930548511724" id="-26082">
		<tag k="fixme" v="consider natural=peak for the most distinct mountains in the district" />
		<tag k="name" v="Rossåsen" />
		<tag k="natural" v="hill" />
		<tag k="place" v="locality" />
		<tag k="ssr:stedsnr" v="749608" />
	</node>
	<node lat="58.106041667121886" lon="6.780005548018359" id="-26083">
		<tag k="name" v="Berge" />
		<tag k="natural" v="hill" />
		<tag k="place" v="locality" />
		<tag k="ssr:stedsnr" v="749616" />
	</node>
	<node lat="58.07231944652307" lon="6.9814444396359185" id="-26085">
		<tag k="fixme" v="consider natural=peak for the most distinct mountains in the district" />
		<tag k="name" v="Legeåsen" />
		<tag k="natural" v="hill" />
		<tag k="place" v="locality" />
		<tag k="ssr:stedsnr" v="749509" />
	</node>
	<node lat="58.12236111015585" lon="6.828799992960379" id="-26086">
		<tag k="name" v="Solbjørdalen" />
		<tag k="natural" v="valley" />
		<tag k="place" v="locality" />
		<tag k="ssr:stedsnr" v="749559" />
	</node>
	<node lat="58.138811106988165" lon="6.760847228863962" id="-26088">
		<tag k="fixme" v="consider natural=peak for the most distinct mountains in the district" />
		<tag k="name" v="Storheia" />
		<tag k="natural" v="hill" />
		<tag k="place" v="locality" />
		<tag k="ssr:stedsnr" v="749566" />
	</node>
	<node lat="58.15906388839073" lon="6.632472225282583" id="-26090">
		<tag k="name" v="Rudjords Gråfjell" />
		<tag k="natural" v="hill" />
		<tag k="place" v="locality" />
		<tag k="ssr:stedsnr" v="749709" />
	</node>
	<node lat="58.152938885180106" lon="6.6340027781519035" id="-26091">
		<tag k="fixme" v="consider natural=peak for the most distinct mountains in the district" />
		<tag k="name" v="Raunefjellet" />
		<tag k="natural" v="hill" />
		<tag k="place" v="locality" />
		<tag k="ssr:stedsnr" v="749710" />
	</node>
	<node lat="58.16843055522888" lon="6.635905552634944" id="-26092">
		<tag k="name" v="Perlesletta" />
		<tag k="place" v="locality" />
		<tag k="ssr:stedsnr" v="749714" />
	</node>
	<node lat="58.16756388810339" lon="6.643572223067903" id="-26093">
		<tag k="name" v="Honnsknuden" />
		<tag k="natural" v="ridge" />
		<tag k="place" v="locality" />
		<tag k="ssr:stedsnr" v="749716" />
	</node>
	<node lat="58.08763333067005" lon="6.677955548909802" id="-26094">
		<tag k="name" v="Store Danmark" />
		<tag k="natural" v="hill" />
		<tag k="place" v="locality" />
		<tag k="ssr:stedsnr" v="749721" />
	</node>
	<node lat="58.18902500204299" lon="6.921602771048131" id="-26095">
		<tag k="name" v="Tikhei" />
		<tag k="natural" v="hill" />
		<tag k="place" v="locality" />
		<tag k="ssr:stedsnr" v="749805" />
	</node>
	<node lat="58.181386108797184" lon="6.869219451372303" id="-26096">
		<tag k="name" v="Selandskleiva" />
		<tag k="natural" v="slope" />
		<tag k="place" v="locality" />
		<tag k="ssr:stedsnr" v="749813" />
	</node>
	<node lat="58.18281389004235" lon="6.759958339693647" id="-26097">
		<tag k="name" v="Lausebakken" />
		<tag k="natural" v="slope" />
		<tag k="place" v="locality" />
		<tag k="ssr:stedsnr" v="749867" />
	</node>
	<node lat="58.18108333443988" lon="6.760313888379857" id="-26098">
		<tag k="name" v="Svartedalen" />
		<tag k="natural" v="valley" />
		<tag k="place" v="locality" />
		<tag k="ssr:stedsnr" v="749869" />
	</node>
	<node lat="58.16335555585892" lon="6.86576111857851" id="-26099">
		<tag k="name" v="Gunnarsdal" />
		<tag k="natural" v="valley" />
		<tag k="place" v="locality" />
		<tag k="ssr:stedsnr" v="749873" />
	</node>
	<node lat="58.22183611449853" lon="6.7605027824436545" id="-26100">
		<tag k="fixme" v="consider natural=peak for the most distinct mountains in the district" />
		<tag k="name" v="Hesteheia" />
		<tag k="natural" v="hill" />
		<tag k="place" v="locality" />
		<tag k="ssr:stedsnr" v="749875" />
	</node>
	<node lat="58.20948888894102" lon="6.722341665012952" id="-26101">
		<tag k="fixme" v="consider natural=peak for the most distinct mountains in the district" />
		<tag k="name" v="Kinna" />
		<tag k="natural" v="hill" />
		<tag k="place" v="locality" />
		<tag k="ssr:stedsnr" v="749906" />
	</node>
	<node lat="58.20295277408145" lon="6.708283331747625" id="-26102">
		<tag k="fixme" v="consider natural=peak for the most distinct mountains in the district" />
		<tag k="name" v="Raunefjellet" />
		<tag k="natural" v="hill" />
		<tag k="place" v="locality" />
		<tag k="ssr:stedsnr" v="749911" />
	</node>
	<node lat="58.14987777435482" lon="6.792777771915033" id="-26103">
		<tag k="name" v="Ravneheia" />
		<tag k="natural" v="hill" />
		<tag k="place" v="locality" />
		<tag k="ssr:stedsnr" v="749917" />
	</node>
	<node lat="58.16388055219356" lon="6.775811114037606" id="-26105">
		<tag k="name" v="Ramsdalen" />
		<tag k="natural" v="valley" />
		<tag k="place" v="locality" />
		<tag k="ssr:stedsnr" v="749926" />
	</node>
	<node lat="58.07294721966731" lon="6.8635166682276845" id="-26122">
		<tag k="name" v="Skifjellet" />
		<tag k="natural" v="hill" />
		<tag k="place" v="locality" />
		<tag k="ssr:stedsnr" v="907190" />
	</node>
	<node lat="58.103991663205186" lon="6.927377770613288" id="-26133">
		<tag k="fixme" v="consider natural=peak for the most distinct mountains in the district" />
		<tag k="name" v="Kyråsen" />
		<tag k="natural" v="hill" />
		<tag k="place" v="locality" />
		<tag k="ssr:stedsnr" v="910289" />
	</node>
	<node lat="58.09368611030349" lon="6.895811118356463" id="-26158">
		<tag k="name" v="Geitestien" />
		<tag k="natural" v="slope" />
		<tag k="place" v="locality" />
		<tag k="ssr:stedsnr" v="810513" />
	</node>
	<node lat="58.07776944276172" lon="6.915538895938662" id="-26159">
		<tag k="fixme" v="consider natural=peak for the most distinct mountains in the district" />
		<tag k="name" v="Risåsen" />
		<tag k="natural" v="hill" />
		<tag k="place" v="locality" />
		<tag k="ssr:stedsnr" v="810537" />
	</node>
	<node lat="58.14643611385998" lon="6.61547222774149" id="-26161">
		<tag k="fixme" v="consider natural=peak for the most distinct mountains in the district" />
		<tag k="name" v="Rabnefjellet" />
		<tag k="natural" v="hill" />
		<tag k="place" v="locality" />
		<tag k="ssr:stedsnr" v="810717" />
	</node>
	<node lat="58.11677222124505" lon="6.661777771456629" id="-26162">
		<tag k="fixme" v="consider natural=peak for the most distinct mountains in the district" />
		<tag k="name" v="Vindåsen" />
		<tag k="natural" v="hill" />
		<tag k="place" v="locality" />
		<tag k="ssr:stedsnr" v="810728" />
	</node>
	<node lat="58.11220000360808" lon="6.688302782407439" id="-26163">
		<tag k="name" v="Øyskog" />
		<tag k="natural" v="slope" />
		<tag k="place" v="locality" />
		<tag k="ssr:stedsnr" v="810733" />
	</node>
	<node lat="58.12388611056867" lon="6.694711118118426" id="-26164">
		<tag k="name" v="Husefjellet" />
		<tag k="natural" v="hill" />
		<tag k="place" v="locality" />
		<tag k="ssr:stedsnr" v="810745" />
	</node>
	<node lat="58.09996944266302" lon="6.690202779002429" id="-26165">
		<tag k="name" v="Lunderhaug" />
		<tag k="natural" v="hill" />
		<tag k="place" v="locality" />
		<tag k="ssr:stedsnr" v="810750" />
	</node>
	<node lat="58.176180556658316" lon="6.68771111715319" id="-26166">
		<tag k="fixme" v="consider natural=peak for the most distinct mountains in the district" />
		<tag k="name" v="Åsestøa" />
		<tag k="natural" v="hill" />
		<tag k="place" v="locality" />
		<tag k="ssr:stedsnr" v="810488" />
	</node>
	<node lat="58.17616388789278" lon="6.8444749920241845" id="-26175">
		<tag k="name" v="Svenskedalen" />
		<tag k="natural" v="valley" />
		<tag k="place" v="locality" />
		<tag k="ssr:stedsnr" v="810960" />
	</node>
	<node lat="58.18375277511597" lon="6.85566388106731" id="-26177">
		<tag k="name" v="Omnen" />
		<tag k="place" v="locality" />
		<tag k="ssr:stedsnr" v="810968" />
	</node>
	<node lat="58.116625000298576" lon="6.887816667618619" id="-26178">
		<tag k="name" v="Støyden" />
		<tag k="natural" v="slope" />
		<tag k="place" v="locality" />
		<tag k="ssr:stedsnr" v="810983" />
	</node>
	<node lat="58.211772220423214" lon="6.8550805533954975" id="-26181">
		<tag k="fixme" v="consider natural=peak for the most distinct mountains in the district" />
		<tag k="name" v="Høgheia" />
		<tag k="natural" v="hill" />
		<tag k="place" v="locality" />
		<tag k="ssr:stedsnr" v="811808" />
	</node>
	<node lat="58.21291666488541" lon="6.863602776731049" id="-26182">
		<tag k="name" v="Hestheiskaret" />
		<tag k="natural" v="valley" />
		<tag k="place" v="locality" />
		<tag k="ssr:stedsnr" v="811809" />
	</node>
	<node lat="58.212208333274596" lon="6.850449998139509" id="-26183">
		<tag k="name" v="Skarpheia" />
		<tag k="natural" v="hill" />
		<tag k="place" v="locality" />
		<tag k="ssr:stedsnr" v="811810" />
	</node>
	<node lat="58.19320833094039" lon="6.855838883644017" id="-26184">
		<tag k="name" v="Tvørbakken" />
		<tag k="natural" v="slope" />
		<tag k="place" v="locality" />
		<tag k="ssr:stedsnr" v="811782" />
	</node>
	<node lat="58.20388055185334" lon="6.87189443898175" id="-26185">
		<tag k="name" v="Kråkedalen" />
		<tag k="natural" v="valley" />
		<tag k="place" v="locality" />
		<tag k="ssr:stedsnr" v="811788" />
	</node>
	<node lat="58.21323888654907" lon="6.901894445797129" id="-26186">
		<tag k="name" v="Slettheia" />
		<tag k="natural" v="hill" />
		<tag k="place" v="locality" />
		<tag k="ssr:stedsnr" v="811791" />
	</node>
	<node lat="58.161555556983075" lon="6.773302782879374" id="-26199">
		<tag k="name" v="Logedalen" />
		<tag k="natural" v="valley" />
		<tag k="place" v="locality" />
		<tag k="ssr:stedsnr" v="850203" />
	</node>
	<node lat="58.15601666984541" lon="6.704550002904946" id="-26204">
		<tag k="alt_name" v="Flauråsen" />
		<tag k="fixme" v="consider natural=peak for the most distinct mountains in the district" />
		<tag k="name" v="Floråsen" />
		<tag k="natural" v="hill" />
		<tag k="place" v="locality" />
		<tag k="ssr:stedsnr" v="850227" />
	</node>
	<node lat="58.167022222411205" lon="6.681811103480716" id="-26207">
		<tag k="name" v="Krusdalsheia" />
		<tag k="natural" v="hill" />
		<tag k="place" v="locality" />
		<tag k="ssr:stedsnr" v="871361" />
	</node>
	<node lat="58.07544722643681" lon="6.812808338541679" id="-26210">
		<tag k="name" v="Eikeli" />
		<tag k="natural" v="slope" />
		<tag k="place" v="locality" />
		<tag k="ssr:stedsnr" v="871514" />
	</node>
	<node lat="58.12075555929911" lon="6.669733332100245" id="-26213">
		<tag k="name" v="Risdalen" />
		<tag k="natural" v="valley" />
		<tag k="place" v="locality" />
		<tag k="ssr:stedsnr" v="871704" />
	</node>
	<node lat="58.09891111341661" lon="6.871186118879811" id="-26216">
		<tag k="fixme" v="consider natural=peak for the most distinct mountains in the district" />
		<tag k="name" v="Bjørnåsen" />
		<tag k="natural" v="hill" />
		<tag k="place" v="locality" />
		<tag k="ssr:stedsnr" v="871476" />
	</node>
	<node lat="58.126194447308364" lon="6.742380550962511" id="-26218">
		<tag k="name" v="Holta" />
		<tag k="natural" v="slope" />
		<tag k="place" v="locality" />
		<tag k="ssr:stedsnr" v="871613" />
	</node>
	<node lat="58.1267694452941" lon="6.723363893518193" id="-26219">
		<tag k="name" v="Lumberholet" />
		<tag k="natural" v="valley" />
		<tag k="place" v="locality" />
		<tag k="ssr:stedsnr" v="871614" />
	</node>
	<node lat="58.121800003892695" lon="6.7355472287873335" id="-26220">
		<tag k="fixme" v="consider natural=peak for the most distinct mountains in the district" />
		<tag k="name" v="Hålandsfjell" />
		<tag k="natural" v="hill" />
		<tag k="place" v="locality" />
		<tag k="ssr:stedsnr" v="871616" />
	</node>
	<node lat="58.19881666570483" lon="6.706194442137814" id="-26221">
		<tag k="fixme" v="consider natural=peak for the most distinct mountains in the district" />
		<tag k="name" v="Skarvefjellet" />
		<tag k="natural" v="hill" />
		<tag k="place" v="locality" />
		<tag k="ssr:stedsnr" v="871882" />
	</node>
	<node lat="58.16256110786823" lon="6.849402774515435" id="-26222">
		<tag k="name" v="Gjeiddalen" />
		<tag k="natural" v="valley" />
		<tag k="place" v="locality" />
		<tag k="ssr:stedsnr" v="871802" />
	</node>
	<node lat="58.164508336560516" lon="6.769305547046323" id="-26223">
		<tag k="name" v="Øygardsbakken" />
		<tag k="natural" v="slope" />
		<tag k="place" v="locality" />
		<tag k="ssr:stedsnr" v="871904" />
	</node>
	<node lat="58.19091111021055" lon="6.85136944100295" id="-26225">
		<tag k="name" v="Austerdalen" />
		<tag k="natural" v="valley" />
		<tag k="place" v="locality" />
		<tag k="ssr:stedsnr" v="871964" />
	</node>
	<node lat="58.18839722299456" lon="6.840400006001451" id="-26227">
		<tag k="name" v="Sveian" />
		<tag k="natural" v="slope" />
		<tag k="place" v="locality" />
		<tag k="ssr:stedsnr" v="871969" />
	</node>
	<node lat="58.160216664224215" lon="6.7353916663810045" id="-26230">
		<tag k="name" v="Blåkneben" />
		<tag k="natural" v="hill" />
		<tag k="place" v="locality" />
		<tag k="ssr:stedsnr" v="932437" />
	</node>
	<node lat="58.10877222218286" lon="6.568041670914029" id="-26231">
		<tag k="name" v="Gunnarshaug" />
		<tag k="natural" v="hill" />
		<tag k="place" v="locality" />
		<tag k="ssr:stedsnr" v="931437" />
	</node>
	<node lat="58.157427775291296" lon="6.685580547787773" id="-26233">
		<tag k="name" v="Gåsebo" />
		<tag k="natural" v="hill" />
		<tag k="place" v="locality" />
		<tag k="ssr:stedsnr" v="932358" />
	</node>
	<node lat="58.09591944807323" lon="6.836713895589677" id="-26237">
		<tag k="fixme" v="consider natural=peak for the most distinct mountains in the district" />
		<tag k="name" v="Vardåsen" />
		<tag k="natural" v="hill" />
		<tag k="place" v="locality" />
		<tag k="ssr:stedsnr" v="932387" />
	</node>
	<node lat="58.069427775346355" lon="6.9467694407525755" id="-26238">
		<tag k="fixme" v="consider natural=peak for the most distinct mountains in the district" />
		<tag k="name" v="Linddalsfjellet" />
		<tag k="natural" v="hill" />
		<tag k="place" v="locality" />
		<tag k="ssr:stedsnr" v="932421" />
	</node>
	<node lat="58.18529444389527" lon="6.739427777736947" id="-26239">
		<tag k="name" v="Lauvodden" />
		<tag k="natural" v="hill" />
		<tag k="place" v="locality" />
		<tag k="ssr:stedsnr" v="932422" />
	</node>
	<node lat="58.15847222446347" lon="6.731350005159501" id="-26244">
		<tag k="fixme" v="consider natural=peak for the most distinct mountains in the district" />
		<tag k="name" v="Øygardsåsen" />
		<tag k="natural" v="hill" />
		<tag k="place" v="locality" />
		<tag k="ssr:stedsnr" v="932435" />
	</node>
	<node lat="58.094447225349604" lon="6.87504722509571" id="-26247">
		<tag k="fixme" v="consider natural=peak for the most distinct mountains in the district" />
		<tag k="name" v="Nenningsåsen" />
		<tag k="natural" v="hill" />
		<tag k="place" v="locality" />
		<tag k="ssr:stedsnr" v="932489" />
	</node>
	<node lat="58.08087222112649" lon="6.894902779495756" id="-26250">
		<tag k="fixme" v="consider natural=peak for the most distinct mountains in the district" />
		<tag k="name" v="Oddevikheia" />
		<tag k="natural" v="hill" />
		<tag k="place" v="locality" />
		<tag k="ssr:stedsnr" v="932508" />
	</node>
	<node lat="58.13950555477184" lon="6.815666665702325" id="-26254">
		<tag k="fixme" v="consider natural=peak for the most distinct mountains in the district" />
		<tag k="name" v="Djupemyrheia" />
		<tag k="natural" v="hill" />
		<tag k="place" v="locality" />
		<tag k="ssr:stedsnr" v="932444" />
	</node>
	<node lat="58.16358332920516" lon="6.738811114361743" id="-26255">
		<tag k="name" v="Sauemarka" />
		<tag k="natural" v="slope" />
		<tag k="place" v="locality" />
		<tag k="ssr:stedsnr" v="932451" />
	</node>
	<node lat="58.159583333709996" lon="6.758388890856702" id="-26257">
		<tag k="name" v="Holkedalen" />
		<tag k="natural" v="valley" />
		<tag k="place" v="locality" />
		<tag k="ssr:stedsnr" v="932453" />
	</node>
	<node lat="58.06670833272529" lon="6.959361112336586" id="-26262">
		<tag k="fixme" v="consider natural=peak for the most distinct mountains in the district" />
		<tag k="name" v="Kasvikfjellet" />
		<tag k="natural" v="hill" />
		<tag k="place" v="locality" />
		<tag k="ssr:stedsnr" v="932472" />
	</node>
	<node lat="58.13918889300082" lon="6.782750006028706" id="-26265">
		<tag k="name" v="Mørkevannsknuten" />
		<tag k="natural" v="hill" />
		<tag k="place" v="locality" />
		<tag k="ssr:stedsnr" v="932537" />
	</node>
	<node lat="58.14314721817554" lon="6.796044443809866" id="-26266">
		<tag k="name" v="Trolldalen" />
		<tag k="natural" v="valley" />
		<tag k="place" v="locality" />
		<tag k="ssr:stedsnr" v="932538" />
	</node>
	<node lat="58.133452777429056" lon="6.80435554825495" id="-26267">
		<tag k="name" v="Kvednhusdalen" />
		<tag k="natural" v="valley" />
		<tag k="place" v="locality" />
		<tag k="ssr:stedsnr" v="932540" />
	</node>
	<node lat="58.11153055479813" lon="6.779113881435975" id="-26269">
		<tag k="fixme" v="consider natural=peak for the most distinct mountains in the district" />
		<tag k="name" v="Kjeften" />
		<tag k="natural" v="hill" />
		<tag k="place" v="locality" />
		<tag k="ssr:stedsnr" v="932555" />
	</node>
	<node lat="58.115969445816454" lon="6.765194443705003" id="-26270">
		<tag k="name" v="Gumpen" />
		<tag k="natural" v="ridge" />
		<tag k="place" v="locality" />
		<tag k="ssr:stedsnr" v="932569" />
	</node>
	<node lat="58.08522222073017" lon="6.782836108199467" id="-26272">
		<tag k="name" v="Rokkefjell" />
		<tag k="natural" v="hill" />
		<tag k="place" v="locality" />
		<tag k="ssr:stedsnr" v="932583" />
	</node>
	<node lat="58.20440000333714" lon="6.718872228225239" id="-26273">
		<tag k="name" v="Geiskeli" />
		<tag k="natural" v="slope" />
		<tag k="place" v="locality" />
		<tag k="ssr:stedsnr" v="932886" />
	</node>
	<node lat="58.21146389249554" lon="6.756161107930562" id="-26275">
		<tag k="name" v="Egelandsheia" />
		<tag k="natural" v="hill" />
		<tag k="place" v="locality" />
		<tag k="ssr:stedsnr" v="932890" />
	</node>
	<node lat="58.19524444544927" lon="6.88897222540989" id="-26282">
		<tag k="fixme" v="consider natural=peak for the most distinct mountains in the district" />
		<tag k="name" v="Faråsen" />
		<tag k="natural" v="hill" />
		<tag k="place" v="locality" />
		<tag k="ssr:stedsnr" v="932745" />
	</node>
	<node lat="58.1795611139669" lon="6.880619450684065" id="-26284">
		<tag k="fixme" v="consider natural=peak for the most distinct mountains in the district" />
		<tag k="name" v="Urehei" />
		<tag k="natural" v="hill" />
		<tag k="place" v="locality" />
		<tag k="ssr:stedsnr" v="932754" />
	</node>
	<node lat="58.20186388959048" lon="6.900644449015959" id="-26285">
		<tag k="name" v="Åbrotan" />
		<tag k="natural" v="slope" />
		<tag k="place" v="locality" />
		<tag k="ssr:stedsnr" v="932763" />
	</node>
	<node lat="58.204969447834806" lon="6.903347225766046" id="-26286">
		<tag k="name" v="Budalen" />
		<tag k="natural" v="valley" />
		<tag k="place" v="locality" />
		<tag k="ssr:stedsnr" v="932768" />
	</node>
	<node lat="58.19424722058477" lon="6.8525250055831854" id="-26288">
		<tag k="name" v="Harevollen" />
		<tag k="natural" v="slope" />
		<tag k="place" v="locality" />
		<tag k="ssr:stedsnr" v="932778" />
	</node>
	<node lat="58.19741944201221" lon="6.828838880580246" id="-26289">
		<tag k="fixme" v="consider natural=peak for the most distinct mountains in the district" />
		<tag k="name" v="Børshammaren" />
		<tag k="natural" v="hill" />
		<tag k="place" v="locality" />
		<tag k="ssr:stedsnr" v="932793" />
	</node>
	<node lat="58.1626111100372" lon="6.861825002002433" id="-26291">
		<tag k="name" v="Stakkslåta" />
		<tag k="natural" v="slope" />
		<tag k="place" v="locality" />
		<tag k="ssr:stedsnr" v="932801" />
	</node>
	<node lat="58.1629694406283" lon="6.858372225064131" id="-26292">
		<tag k="name" v="Løvollen" />
		<tag k="place" v="locality" />
		<tag k="ssr:stedsnr" v="932802" />
	</node>
	<node lat="58.21518333013" lon="6.77026943744325" id="-26293">
		<tag k="name" v="Strondebakkan" />
		<tag k="natural" v="slope" />
		<tag k="place" v="locality" />
		<tag k="ssr:stedsnr" v="932834" />
	</node>
	<node lat="58.21148611324209" lon="6.791505548391668" id="-26294">
		<tag k="fixme" v="consider natural=peak for the most distinct mountains in the district" />
		<tag k="name" v="Jonsokkneben" />
		<tag k="natural" v="hill" />
		<tag k="place" v="locality" />
		<tag k="ssr:stedsnr" v="932873" />
	</node>
	<node lat="58.187886108971334" lon="6.8457166590623695" id="-26295">
		<tag k="name" v="Kobbelia" />
		<tag k="natural" v="slope" />
		<tag k="place" v="locality" />
		<tag k="ssr:stedsnr" v="932960" />
	</node>
	<node lat="58.11606388620354" lon="6.908702783518448" id="-26297">
		<tag k="fixme" v="consider natural=peak for the most distinct mountains in the district" />
		<tag k="name" v="Kirkefjellet" />
		<tag k="natural" v="hill" />
		<tag k="place" v="locality" />
		<tag k="ssr:stedsnr" v="932968" />
	</node>
	<node lat="58.10616389289235" lon="6.904452776115831" id="-26298">
		<tag k="name" v="Hollandskleiva" />
		<tag k="natural" v="slope" />
		<tag k="place" v="locality" />
		<tag k="ssr:stedsnr" v="932970" />
	</node>
	<node lat="58.118450002061444" lon="6.89034999947797" id="-26299">
		<tag k="fixme" v="consider natural=peak for the most distinct mountains in the district" />
		<tag k="name" v="Lilleåsen" />
		<tag k="natural" v="hill" />
		<tag k="place" v="locality" />
		<tag k="ssr:stedsnr" v="932978" />
	</node>
	<node lat="58.21947222494824" lon="6.75303333783271" id="-26301">
		<tag k="name" v="Rabneheia" />
		<tag k="natural" v="hill" />
		<tag k="place" v="locality" />
		<tag k="ssr:stedsnr" v="933000" />
	</node>
	<node lat="58.156350003107534" lon="6.7651555512672426" id="-26302">
		<tag k="name" v="Flåda" />
		<tag k="place" v="locality" />
		<tag k="ssr:stedsnr" v="932899" />
	</node>
	<node lat="58.161230558780275" lon="6.792430561826946" id="-26303">
		<tag k="name" v="Rosshagen" />
		<tag k="natural" v="slope" />
		<tag k="place" v="locality" />
		<tag k="ssr:stedsnr" v="932907" />
	</node>
	<node lat="58.10856944677701" lon="6.9578444519800895" id="-26305">
		<tag k="fixme" v="consider natural=peak for the most distinct mountains in the district" />
		<tag k="name" v="Vågsåsen" />
		<tag k="natural" v="hill" />
		<tag k="place" v="locality" />
		<tag k="ssr:stedsnr" v="932924" />
	</node>
	<node lat="58.19503332986325" lon="6.929408327148614" id="-26306">
		<tag k="name" v="Vaddelihola" />
		<tag k="natural" v="valley" />
		<tag k="place" v="locality" />
		<tag k="ssr:stedsnr" v="932925" />
	</node>
	<node lat="58.19707500146367" lon="6.70290555808438" id="-26307">
		<tag k="alt_name" v="Skagelia" />
		<tag k="name" v="Skageli" />
		<tag k="natural" v="slope" />
		<tag k="place" v="locality" />
		<tag k="ssr:stedsnr" v="932926" />
	</node>
	<node lat="58.211255551294464" lon="6.887166661879185" id="-26318">
		<tag k="alt_name" v="Trollkunheia" />
		<tag k="fixme" v="consider natural=peak for the most distinct mountains in the district" />
		<tag k="name" v="Indreheia" />
		<tag k="natural" v="hill" />
		<tag k="place" v="locality" />
		<tag k="ssr:stedsnr" v="910169" />
	</node>
	<node lat="58.172608334063646" lon="6.867688886107249" id="-26321">
		<tag k="alt_name" v="Nordhei" />
		<tag k="fixme" v="consider natural=peak for the most distinct mountains in the district" />
		<tag k="name" v="Breidfjellet" />
		<tag k="natural" v="hill" />
		<tag k="place" v="locality" />
		<tag k="ssr:stedsnr" v="910214" />
	</node>
	<node lat="58.10364444672089" lon="6.678166669438376" id="-26329">
		<tag k="name" v="Naddal" />
		<tag k="natural" v="valley" />
		<tag k="place" v="locality" />
		<tag k="ssr:stedsnr" v="932703" />
	</node>
	<node lat="58.125899995817434" lon="6.645263881901363" id="-26331">
		<tag k="name" v="Elledalen" />
		<tag k="natural" v="valley" />
		<tag k="place" v="locality" />
		<tag k="ssr:stedsnr" v="932716" />
	</node>
	<node lat="58.17836944117097" lon="6.872847221911071" id="-26333">
		<tag k="name" v="Åndalen" />
		<tag k="natural" v="valley" />
		<tag k="place" v="locality" />
		<tag k="ssr:stedsnr" v="932731" />
	</node>
	<node lat="58.121236109131765" lon="6.66605278387469" id="-26334">
		<tag k="name" v="Hoggstadheia" />
		<tag k="natural" v="hill" />
		<tag k="place" v="locality" />
		<tag k="ssr:stedsnr" v="932690" />
	</node>
	<node lat="58.10570555210256" lon="6.6916833351516525" id="-26336">
		<tag k="name" v="Årdal" />
		<tag k="natural" v="valley" />
		<tag k="place" v="locality" />
		<tag k="ssr:stedsnr" v="932702" />
	</node>
	<node lat="58.2093055519448" lon="6.85131388833768" id="-26337">
		<tag k="name" v="Lille Saudan" />
		<tag k="natural" v="valley" />
		<tag k="place" v="locality" />
		<tag k="ssr:stedsnr" v="932808" />
	</node>
	<node lat="58.21032221906506" lon="6.85676389047935" id="-26338">
		<tag k="fixme" v="consider natural=peak for the most distinct mountains in the district" />
		<tag k="name" v="Bøsjheia" />
		<tag k="natural" v="hill" />
		<tag k="place" v="locality" />
		<tag k="ssr:stedsnr" v="932810" />
	</node>
	<node lat="58.17586389144455" lon="6.781283340808046" id="-26340">
		<tag k="name" v="Låliheia" />
		<tag k="natural" v="hill" />
		<tag k="place" v="locality" />
		<tag k="ssr:stedsnr" v="932818" />
	</node>
	<node lat="58.173161110555384" lon="6.842366674727125" id="-26341">
		<tag k="fixme" v="consider natural=peak for the most distinct mountains in the district" />
		<tag k="name" v="Orrefjell" />
		<tag k="natural" v="hill" />
		<tag k="place" v="locality" />
		<tag k="ssr:stedsnr" v="932947" />
	</node>
	<node lat="58.18287499713384" lon="6.858505562832535" id="-26342">
		<tag k="name" v="Mørkedalen" />
		<tag k="natural" v="valley" />
		<tag k="place" v="locality" />
		<tag k="ssr:stedsnr" v="932955" />
	</node>
	<node lat="58.14058889313453" lon="6.630177774696176" id="-26430">
		<tag k="alt_name" v="Lofjell" />
		<tag k="fixme" v="consider natural=peak for the most distinct mountains in the district" />
		<tag k="name" v="Lofjellet" />
		<tag k="natural" v="hill" />
		<tag k="place" v="locality" />
		<tag k="ssr:stedsnr" v="227" />
	</node>
	<node lat="58.15324166380169" lon="6.865858328736866" id="-26431">
		<tag k="alt_name" v="Stangelifjell" />
		<tag k="fixme" v="consider natural=peak for the most distinct mountains in the district" />
		<tag k="name" v="Stangfjellet" />
		<tag k="natural" v="hill" />
		<tag k="place" v="locality" />
		<tag k="ssr:stedsnr" v="233" />
	</node>
	<node lat="58.17444166800916" lon="6.754352775701052" id="-26447">
		<tag k="fixme" v="consider natural=peak for the most distinct mountains in the district" />
		<tag k="name" v="Sølvårfjellet" />
		<tag k="natural" v="hill" />
		<tag k="place" v="locality" />
		<tag k="ssr:stedsnr" v="21481" />
	</node>
	<node lat="58.174772224144625" lon="6.656513880986857" id="-26451">
		<tag k="name" v="Gloppehagen" />
		<tag k="natural" v="slope" />
		<tag k="place" v="locality" />
		<tag k="ssr:stedsnr" v="21517" />
	</node>
	<node lat="58.17740832966963" lon="6.680108339521751" id="-26452">
		<tag k="name" v="Varbakk" />
		<tag k="natural" v="hill" />
		<tag k="place" v="locality" />
		<tag k="ssr:stedsnr" v="21521" />
	</node>
	<node lat="58.17369999597538" lon="6.699827781836657" id="-26453">
		<tag k="fixme" v="consider natural=peak for the most distinct mountains in the district" />
		<tag k="name" v="Kjelen" />
		<tag k="natural" v="hill" />
		<tag k="place" v="locality" />
		<tag k="ssr:stedsnr" v="21525" />
	</node>
	<node lat="58.087108330464446" lon="6.724363888510305" id="-26458">
		<tag k="name" v="Hanangerheia" />
		<tag k="natural" v="hill" />
		<tag k="place" v="locality" />
		<tag k="ssr:stedsnr" v="21627" />
	</node>
	<node lat="58.12687499628441" lon="6.811830556117044" id="-26461">
		<tag k="fixme" v="consider natural=peak for the most distinct mountains in the district" />
		<tag k="name" v="Bukkeknuten" />
		<tag k="natural" v="hill" />
		<tag k="place" v="locality" />
		<tag k="ssr:stedsnr" v="21656" />
	</node>
	<node lat="58.0942111135845" lon="6.689069438240102" id="-26462">
		<tag k="name" v="Storsteinsvollen" />
		<tag k="natural" v="slope" />
		<tag k="place" v="locality" />
		<tag k="ssr:stedsnr" v="21740" />
	</node>
	<node lat="58.109049996302815" lon="6.670955553391127" id="-26463">
		<tag k="name" v="Rygla" />
		<tag k="natural" v="hill" />
		<tag k="place" v="locality" />
		<tag k="ssr:stedsnr" v="21757" />
	</node>
	<node lat="58.21669444382558" lon="6.873508327567426" id="-26464">
		<tag k="name" v="Hellerheia" />
		<tag k="natural" v="hill" />
		<tag k="place" v="locality" />
		<tag k="ssr:stedsnr" v="21762" />
	</node>
	<node lat="58.111633330906876" lon="6.640727772462128" id="-26465">
		<tag k="name" v="Falketeigen" />
		<tag k="place" v="locality" />
		<tag k="ssr:stedsnr" v="21767" />
	</node>
	<node lat="58.18116388495526" lon="6.903255563431509" id="-26467">
		<tag k="name" v="Unnlisegan" />
		<tag k="natural" v="slope" />
		<tag k="place" v="locality" />
		<tag k="ssr:stedsnr" v="21775" />
	</node>
	<node lat="58.215111107725726" lon="6.866655564042471" id="-26468">
		<tag k="name" v="Følledalsrinnan" />
		<tag k="natural" v="ridge" />
		<tag k="place" v="locality" />
		<tag k="ssr:stedsnr" v="21780" />
	</node>
	<node lat="58.18776944003434" lon="6.760444445798524" id="-26469">
		<tag k="name" v="Skaret" />
		<tag k="natural" v="valley" />
		<tag k="place" v="locality" />
		<tag k="ssr:stedsnr" v="21861" />
	</node>
	<node lat="58.185783329272674" lon="6.772058333706374" id="-26472">
		<tag k="name" v="Bergebakken" />
		<tag k="natural" v="slope" />
		<tag k="place" v="locality" />
		<tag k="ssr:stedsnr" v="21868" />
	</node>
	<node lat="58.1465249957996" lon="6.629350000181094" id="-26473">
		<tag k="name" v="Stålhagen" />
		<tag k="natural" v="hill" />
		<tag k="place" v="locality" />
		<tag k="ssr:stedsnr" v="21723" />
	</node>
	<node lat="58.15508610890416" lon="6.641852778175359" id="-26475">
		<tag k="name" v="Ingersfjellet" />
		<tag k="natural" v="hill" />
		<tag k="place" v="locality" />
		<tag k="ssr:stedsnr" v="21727" />
	</node>
	<node lat="58.15129167032669" lon="6.617969435780534" id="-26476">
		<tag k="fixme" v="consider natural=peak for the most distinct mountains in the district" />
		<tag k="name" v="Klovsteinfjellet" />
		<tag k="natural" v="hill" />
		<tag k="place" v="locality" />
		<tag k="ssr:stedsnr" v="21728" />
	</node>
	<node lat="58.16757777894431" lon="6.784647220707472" id="-26478">
		<tag k="fixme" v="consider natural=peak for the most distinct mountains in the district" />
		<tag k="name" v="Røveheia" />
		<tag k="natural" v="hill" />
		<tag k="place" v="locality" />
		<tag k="ssr:stedsnr" v="21920" />
	</node>
	<node lat="58.111330559087904" lon="6.910883338686429" id="-26482">
		<tag k="fixme" v="consider natural=peak for the most distinct mountains in the district" />
		<tag k="name" v="Husefjellet" />
		<tag k="natural" v="hill" />
		<tag k="place" v="locality" />
		<tag k="ssr:stedsnr" v="21972" />
	</node>
	<node lat="58.11799444247957" lon="6.900447223577564" id="-26483">
		<tag k="fixme" v="consider natural=peak for the most distinct mountains in the district" />
		<tag k="name" v="Husefjellet" />
		<tag k="natural" v="hill" />
		<tag k="place" v="locality" />
		<tag k="ssr:stedsnr" v="21980" />
	</node>
	<node lat="58.11464722487336" lon="6.881747218287509" id="-26484">
		<tag k="fixme" v="consider natural=peak for the most distinct mountains in the district" />
		<tag k="name" v="Bjørgefjellet" />
		<tag k="natural" v="hill" />
		<tag k="place" v="locality" />
		<tag k="ssr:stedsnr" v="21982" />
	</node>
	<node lat="58.089527778102465" lon="6.857149995535035" id="-26485">
		<tag k="fixme" v="consider natural=peak for the most distinct mountains in the district" />
		<tag k="name" v="Vedåsen" />
		<tag k="natural" v="hill" />
		<tag k="place" v="locality" />
		<tag k="ssr:stedsnr" v="22381" />
	</node>
	<node lat="58.095683333570676" lon="6.923583328856265" id="-26489">
		<tag k="fixme" v="consider natural=peak for the most distinct mountains in the district" />
		<tag k="name" v="Lauåsen" />
		<tag k="natural" v="hill" />
		<tag k="place" v="locality" />
		<tag k="ssr:stedsnr" v="22464" />
	</node>
	<node lat="58.075772220620664" lon="6.815644451329842" id="-26499">
		<tag k="name" v="Grønnsletta" />
		<tag k="place" v="locality" />
		<tag k="ssr:stedsnr" v="39994" />
	</node>
	<node lat="58.068983333382576" lon="6.872638884436533" id="-26505">
		<tag k="name" v="Geitestien" />
		<tag k="natural" v="slope" />
		<tag k="place" v="locality" />
		<tag k="ssr:stedsnr" v="58151" />
	</node>
	<node lat="58.08639166752759" lon="6.769627770994097" id="-26523">
		<tag k="alt_name" v="Kaneheia" />
		<tag k="name" v="Kanehei" />
		<tag k="natural" v="hill" />
		<tag k="place" v="locality" />
		<tag k="ssr:stedsnr" v="61329" />
	</node>
	<node lat="58.131663889943546" lon="6.820605549561012" id="-26528">
		<tag k="name" v="Buheia" />
		<tag k="natural" v="hill" />
		<tag k="place" v="locality" />
		<tag k="ssr:stedsnr" v="82440" />
	</node>
	<node lat="58.07242777917975" lon="6.962483329706825" id="-26531">
		<tag k="fixme" v="consider natural=peak for the most distinct mountains in the district" />
		<tag k="name" v="Knutskaråsen" />
		<tag k="natural" v="hill" />
		<tag k="place" v="locality" />
		<tag k="ssr:stedsnr" v="82448" />
	</node>
	<node lat="58.15411667100111" lon="6.742336107781384" id="-26533">
		<tag k="name" v="Fotskår" />
		<tag k="place" v="locality" />
		<tag k="ssr:stedsnr" v="82454" />
	</node>
	<node lat="58.189677774929024" lon="6.708724993744912" id="-26534">
		<tag k="name" v="Molandshei" />
		<tag k="natural" v="hill" />
		<tag k="place" v="locality" />
		<tag k="ssr:stedsnr" v="82457" />
	</node>
	<node lat="58.15511944867069" lon="6.75761666855359" id="-26537">
		<tag k="name" v="Hulkedalen" />
		<tag k="natural" v="valley" />
		<tag k="place" v="locality" />
		<tag k="ssr:stedsnr" v="82462" />
	</node>
	<node lat="58.0991000014053" lon="6.97114444652906" id="-26539">
		<tag k="name" v="Kårikstadheia" />
		<tag k="natural" v="hill" />
		<tag k="place" v="locality" />
		<tag k="ssr:stedsnr" v="82473" />
	</node>
	<node lat="58.17812777910279" lon="6.698227770776831" id="-26542">
		<tag k="fixme" v="consider natural=peak for the most distinct mountains in the district" />
		<tag k="name" v="Stifjellet" />
		<tag k="natural" v="hill" />
		<tag k="place" v="locality" />
		<tag k="ssr:stedsnr" v="82489" />
	</node>
	<node lat="58.102091668447656" lon="6.875216661069235" id="-26544">
		<tag k="fixme" v="consider natural=peak for the most distinct mountains in the district" />
		<tag k="name" v="Floråsen" />
		<tag k="natural" v="hill" />
		<tag k="place" v="locality" />
		<tag k="ssr:stedsnr" v="82499" />
	</node>
	<node lat="58.0903999989636" lon="6.915091671622648" id="-26545">
		<tag k="fixme" v="consider natural=peak for the most distinct mountains in the district" />
		<tag k="name" v="Høgåsen" />
		<tag k="natural" v="hill" />
		<tag k="place" v="locality" />
		<tag k="ssr:stedsnr" v="82520" />
	</node>
	<node lat="58.14329722181997" lon="6.740697218749845" id="-26547">
		<tag k="name" v="Hestespranget" />
		<tag k="place" v="locality" />
		<tag k="ssr:stedsnr" v="82601" />
	</node>
	<node lat="58.17841111026904" lon="6.883449997061707" id="-26549">
		<tag k="fixme" v="consider natural=peak for the most distinct mountains in the district" />
		<tag k="name" v="Loptsheia" />
		<tag k="natural" v="hill" />
		<tag k="place" v="locality" />
		<tag k="ssr:stedsnr" v="82788" />
	</node>
	<node lat="58.13598888535417" lon="6.764480555853081" id="-26550">
		<tag k="fixme" v="consider natural=peak for the most distinct mountains in the district" />
		<tag k="name" v="Holmåsen" />
		<tag k="natural" v="hill" />
		<tag k="place" v="locality" />
		<tag k="ssr:stedsnr" v="82554" />
	</node>
	<node lat="58.22306944630578" lon="6.840622222195771" id="-26557">
		<tag k="name" v="Taggbakkan" />
		<tag k="natural" v="slope" />
		<tag k="place" v="locality" />
		<tag k="ssr:stedsnr" v="82767" />
	</node>
	<node lat="58.21771111167196" lon="6.840172229886116" id="-26558">
		<tag k="name" v="Rørkjerra" />
		<tag k="natural" v="slope" />
		<tag k="place" v="locality" />
		<tag k="ssr:stedsnr" v="82771" />
	</node>
	<node lat="58.22101111098381" lon="6.878969443385374" id="-26559">
		<tag k="name" v="Rørdalshola" />
		<tag k="natural" v="valley" />
		<tag k="place" v="locality" />
		<tag k="ssr:stedsnr" v="82772" />
	</node>
	<node lat="58.222358336749636" lon="6.872994445336991" id="-26560">
		<tag k="name" v="Refsdalen" />
		<tag k="natural" v="valley" />
		<tag k="place" v="locality" />
		<tag k="ssr:stedsnr" v="82773" />
	</node>
	<node lat="58.1820277750412" lon="6.76054722735026" id="-26561">
		<tag k="name" v="Fokka" />
		<tag k="natural" v="hill" />
		<tag k="place" v="locality" />
		<tag k="ssr:stedsnr" v="82855" />
	</node>
	<node lat="58.04310277512776" lon="6.9174472259941755" id="-26564">
		<tag k="fixme" v="consider natural=peak for the most distinct mountains in the district" />
		<tag k="name" v="Kalvarbergan" />
		<tag k="natural" v="hill" />
		<tag k="place" v="locality" />
		<tag k="ssr:stedsnr" v="82989" />
	</node>
	<node lat="58.18923332916488" lon="6.773775007273227" id="-26566">
		<tag k="name" v="Rista" />
		<tag k="natural" v="ridge" />
		<tag k="place" v="locality" />
		<tag k="ssr:stedsnr" v="82870" />
	</node>
	<node lat="58.19661388844278" lon="6.9094777780498084" id="-26572">
		<tag k="fixme" v="consider natural=peak for the most distinct mountains in the district" />
		<tag k="name" v="Ytre Åsen" />
		<tag k="natural" v="hill" />
		<tag k="place" v="locality" />
		<tag k="ssr:stedsnr" v="83786" />
	</node>
	<node lat="58.20498332894647" lon="6.848575003763774" id="-26573">
		<tag k="name" v="Stakkslåta" />
		<tag k="natural" v="slope" />
		<tag k="place" v="locality" />
		<tag k="ssr:stedsnr" v="83821" />
	</node>
	<node lat="58.20108889314361" lon="6.918819445996675" id="-26574">
		<tag k="name" v="Vaddeliheia" />
		<tag k="natural" v="hill" />
		<tag k="place" v="locality" />
		<tag k="ssr:stedsnr" v="83823" />
	</node>
	<node lat="58.05546666720363" lon="6.7885777850261215" id="-26578">
		<tag k="name" v="Kveldsundbergan" />
		<tag k="natural" v="hill" />
		<tag k="place" v="locality" />
		<tag k="ssr:stedsnr" v="86747" />
	</node>
	<node lat="58.120719444643306" lon="6.854897220137906" id="-26611">
		<tag k="fixme" v="consider natural=peak for the most distinct mountains in the district" />
		<tag k="name" v="Fullandsraua" />
		<tag k="natural" v="hill" />
		<tag k="place" v="locality" />
		<tag k="ssr:stedsnr" v="142528" />
	</node>
	<node lat="58.164166671181725" lon="6.670616672551688" id="-26612">
		<tag k="name" v="Rasensheia" />
		<tag k="natural" v="hill" />
		<tag k="place" v="locality" />
		<tag k="ssr:stedsnr" v="142374" />
	</node>
	<node lat="58.077413884581794" lon="6.65217778399158" id="-26613">
		<tag k="name" v="Møllebakken" />
		<tag k="natural" v="slope" />
		<tag k="place" v="locality" />
		<tag k="ssr:stedsnr" v="142379" />
	</node>
	<node lat="58.133244440678475" lon="6.82997500372494" id="-26614">
		<tag k="fixme" v="consider natural=peak for the most distinct mountains in the district" />
		<tag k="name" v="Runneheia" />
		<tag k="natural" v="hill" />
		<tag k="place" v="locality" />
		<tag k="ssr:stedsnr" v="142441" />
	</node>
	<node lat="58.168424996098615" lon="6.74852500004542" id="-26616">
		<tag k="fixme" v="consider natural=peak for the most distinct mountains in the district" />
		<tag k="name" v="Stikkelsberget" />
		<tag k="natural" v="hill" />
		<tag k="place" v="locality" />
		<tag k="ssr:stedsnr" v="142451" />
	</node>
	<node lat="58.17071111266602" lon="6.75298888188216" id="-26617">
		<tag k="name" v="Store Gjersdal" />
		<tag k="natural" v="valley" />
		<tag k="place" v="locality" />
		<tag k="ssr:stedsnr" v="142453" />
	</node>
	<node lat="58.07399999563702" lon="6.980266670221402" id="-26618">
		<tag k="fixme" v="consider natural=peak for the most distinct mountains in the district" />
		<tag k="name" v="Kjerråsen" />
		<tag k="natural" v="hill" />
		<tag k="place" v="locality" />
		<tag k="ssr:stedsnr" v="142471" />
	</node>
	<node lat="58.112505555729825" lon="6.821052785310763" id="-26619">
		<tag k="name" v="Knygen" />
		<tag k="natural" v="hill" />
		<tag k="place" v="locality" />
		<tag k="ssr:stedsnr" v="142473" />
	</node>
	<node lat="58.114516665722846" lon="6.752361112962008" id="-26626">
		<tag k="name" v="Lindlandsåsen" />
		<tag k="natural" v="hill" />
		<tag k="place" v="locality" />
		<tag k="ssr:stedsnr" v="142623" />
	</node>
	<node lat="58.202625001175676" lon="6.790527773291414" id="-26627">
		<tag k="name" v="Kleivebakkan" />
		<tag k="natural" v="slope" />
		<tag k="place" v="locality" />
		<tag k="ssr:stedsnr" v="142887" />
	</node>
	<node lat="58.13818055668235" lon="6.667188883257587" id="-26630">
		<tag k="fixme" v="consider natural=peak for the most distinct mountains in the district" />
		<tag k="name" v="Bronåsen" />
		<tag k="natural" v="hill" />
		<tag k="place" v="locality" />
		<tag k="ssr:stedsnr" v="142660" />
	</node>
	<node lat="58.170961114583534" lon="6.6313083271043975" id="-26632">
		<tag k="name" v="Tjortemyrfjellet" />
		<tag k="natural" v="hill" />
		<tag k="place" v="locality" />
		<tag k="ssr:stedsnr" v="142698" />
	</node>
	<node lat="58.112999999436894" lon="6.678100007004642" id="-26634">
		<tag k="fixme" v="consider natural=peak for the most distinct mountains in the district" />
		<tag k="name" v="Gråfjell" />
		<tag k="natural" v="hill" />
		<tag k="place" v="locality" />
		<tag k="ssr:stedsnr" v="142728" />
	</node>
	<node lat="58.112883332131204" lon="6.674983338861084" id="-26636">
		<tag k="name" v="Varen" />
		<tag k="natural" v="hill" />
		<tag k="place" v="locality" />
		<tag k="ssr:stedsnr" v="142733" />
	</node>
	<node lat="58.122394445558456" lon="6.680536115238602" id="-26638">
		<tag k="name" v="Skranefjellet" />
		<tag k="natural" v="hill" />
		<tag k="place" v="locality" />
		<tag k="ssr:stedsnr" v="142738" />
	</node>
	<node lat="58.11958332949914" lon="6.650816674495506" id="-26639">
		<tag k="name" v="Stemman" />
		<tag k="place" v="locality" />
		<tag k="ssr:stedsnr" v="142743" />
	</node>
	<node lat="58.093663887864324" lon="6.694352774644093" id="-26641">
		<tag k="name" v="Bryneåsen" />
		<tag k="natural" v="hill" />
		<tag k="place" v="locality" />
		<tag k="ssr:stedsnr" v="142753" />
	</node>
	<node lat="58.12308611425608" lon="6.636619449289677" id="-26645">
		<tag k="name" v="Lund" />
		<tag k="natural" v="slope" />
		<tag k="place" v="locality" />
		<tag k="ssr:stedsnr" v="142775" />
	</node>
	<node lat="58.1743027759143" lon="6.839069444278578" id="-26652">
		<tag k="name" v="Veidalen" />
		<tag k="natural" v="valley" />
		<tag k="place" v="locality" />
		<tag k="ssr:stedsnr" v="142961" />
	</node>
	<node lat="58.18540277847038" lon="6.82651667025765" id="-26654">
		<tag k="fixme" v="consider natural=peak for the most distinct mountains in the district" />
		<tag k="name" v="Litlåsen" />
		<tag k="natural" v="hill" />
		<tag k="place" v="locality" />
		<tag k="ssr:stedsnr" v="142977" />
	</node>
	<node lat="58.101255557651754" lon="6.836058336045854" id="-26656">
		<tag k="fixme" v="consider natural=peak for the most distinct mountains in the district" />
		<tag k="name" v="Følsvikåsen" />
		<tag k="natural" v="hill" />
		<tag k="place" v="locality" />
		<tag k="ssr:stedsnr" v="143367" />
	</node>
	<node lat="58.095205555295465" lon="6.983674998334869" id="-26657">
		<tag k="name" v="Uradalen" />
		<tag k="natural" v="valley" />
		<tag k="place" v="locality" />
		<tag k="ssr:stedsnr" v="143466" />
	</node>
	<node lat="58.099613892556654" lon="6.847424992542167" id="-26658">
		<tag k="fixme" v="consider natural=peak for the most distinct mountains in the district" />
		<tag k="name" v="Lensmannsåsen" />
		<tag k="natural" v="hill" />
		<tag k="place" v="locality" />
		<tag k="ssr:stedsnr" v="143469" />
	</node>
	<node lat="58.212713892156195" lon="6.906419438833972" id="-26659">
		<tag k="name" v="Krogen" />
		<tag k="natural" v="valley" />
		<tag k="place" v="locality" />
		<tag k="ssr:stedsnr" v="143771" />
	</node>
	<node lat="58.20828055274348" lon="6.894122222821078" id="-26660">
		<tag k="fixme" v="consider natural=peak for the most distinct mountains in the district" />
		<tag k="name" v="Tungefjellet" />
		<tag k="natural" v="hill" />
		<tag k="place" v="locality" />
		<tag k="ssr:stedsnr" v="143772" />
	</node>
	<node lat="58.21016111314417" lon="6.900186103940825" id="-26661">
		<tag k="name" v="Husdalsheia" />
		<tag k="natural" v="ridge" />
		<tag k="place" v="locality" />
		<tag k="ssr:stedsnr" v="143775" />
	</node>
	<node lat="58.11885277587856" lon="6.693905557605987" id="-26697">
		<tag k="alt_name" v="Snarefjell" />
		<tag k="fixme" v="consider natural=peak for the most distinct mountains in the district" />
		<tag k="name" v="Snarefjellet" />
		<tag k="natural" v="hill" />
		<tag k="place" v="locality" />
		<tag k="ssr:stedsnr" v="182243" />
	</node>
	<node lat="58.205438885311395" lon="6.869450004695451" id="-26701">
		<tag k="fixme" v="consider natural=peak for the most distinct mountains in the district" />
		<tag k="name" v="Ramsåsen" />
		<tag k="natural" v="hill" />
		<tag k="place" v="locality" />
		<tag k="ssr:stedsnr" v="182180" />
	</node>
	<node lat="58.219863886829316" lon="6.763141663263779" id="-26719">
		<tag k="fixme" v="consider natural=peak for the most distinct mountains in the district" />
		<tag k="name" v="Helleråsen" />
		<tag k="natural" v="hill" />
		<tag k="place" v="locality" />
		<tag k="ssr:stedsnr" v="203864" />
	</node>
	<node lat="58.06478055582273" lon="6.956852771502725" id="-26724">
		<tag k="fixme" v="consider natural=peak for the most distinct mountains in the district" />
		<tag k="name" v="Øyagfjellet" />
		<tag k="natural" v="hill" />
		<tag k="place" v="locality" />
		<tag k="ssr:stedsnr" v="203469" />
	</node>
	<node lat="58.190352779426334" lon="6.723161105703681" id="-26726">
		<tag k="fixme" v="consider natural=peak for the most distinct mountains in the district" />
		<tag k="name" v="Høghei" />
		<tag k="natural" v="hill" />
		<tag k="place" v="locality" />
		<tag k="ssr:stedsnr" v="203476" />
	</node>
	<node lat="58.141627773912646" lon="6.829811107717121" id="-26727">
		<tag k="name" v="Halen" />
		<tag k="natural" v="ridge" />
		<tag k="place" v="locality" />
		<tag k="ssr:stedsnr" v="203483" />
	</node>
	<node lat="58.137688890149484" lon="6.825530557206861" id="-26728">
		<tag k="name" v="Løyningen" />
		<tag k="natural" v="slope" />
		<tag k="place" v="locality" />
		<tag k="ssr:stedsnr" v="203484" />
	</node>
	<node lat="58.16378610937699" lon="6.734394440305996" id="-26730">
		<tag k="name" v="Bjøllespranget" />
		<tag k="place" v="locality" />
		<tag k="ssr:stedsnr" v="203487" />
	</node>
	<node lat="58.130463891447604" lon="6.7115027767899615" id="-26731">
		<tag k="name" v="Bjørga" />
		<tag k="natural" v="slope" />
		<tag k="place" v="locality" />
		<tag k="ssr:stedsnr" v="203562" />
	</node>
	<node lat="58.13758889309112" lon="6.716286118986395" id="-26732">
		<tag k="name" v="Svartefjell" />
		<tag k="natural" v="hill" />
		<tag k="place" v="locality" />
		<tag k="ssr:stedsnr" v="203567" />
	</node>
	<node lat="58.14124999712853" lon="6.80999999421412" id="-26733">
		<tag k="name" v="Hauskedalsbrodet" />
		<tag k="natural" v="slope" />
		<tag k="place" v="locality" />
		<tag k="ssr:stedsnr" v="203569" />
	</node>
	<node lat="58.114213885646826" lon="6.729297224130595" id="-26734">
		<tag k="fixme" v="consider natural=peak for the most distinct mountains in the district" />
		<tag k="name" v="Kjelåsen" />
		<tag k="natural" v="hill" />
		<tag k="place" v="locality" />
		<tag k="ssr:stedsnr" v="203663" />
	</node>
	<node lat="58.18552221902723" lon="6.701658326645067" id="-26736">
		<tag k="fixme" v="consider natural=peak for the most distinct mountains in the district" />
		<tag k="name" v="Glovfjell" />
		<tag k="natural" v="hill" />
		<tag k="place" v="locality" />
		<tag k="ssr:stedsnr" v="203513" />
	</node>
	<node lat="58.09938888635952" lon="6.9175944367318944" id="-26737">
		<tag k="fixme" v="consider natural=peak for the most distinct mountains in the district" />
		<tag k="name" v="Varåsen" />
		<tag k="natural" v="hill" />
		<tag k="place" v="locality" />
		<tag k="ssr:stedsnr" v="203517" />
	</node>
	<node lat="58.14387499866851" lon="6.849797214460224" id="-26739">
		<tag k="fixme" v="consider natural=peak for the most distinct mountains in the district" />
		<tag k="name" v="Hisåsen" />
		<tag k="natural" v="hill" />
		<tag k="place" v="locality" />
		<tag k="ssr:stedsnr" v="203527" />
	</node>
	<node lat="58.11843611145639" lon="6.746749997542329" id="-26744">
		<tag k="name" v="Nodebakk" />
		<tag k="natural" v="slope" />
		<tag k="place" v="locality" />
		<tag k="ssr:stedsnr" v="203628" />
	</node>
	<node lat="58.20964722242074" lon="6.74704999569972" id="-26747">
		<tag k="name" v="Sandvikdalen" />
		<tag k="natural" v="valley" />
		<tag k="place" v="locality" />
		<tag k="ssr:stedsnr" v="203910" />
	</node>
	<node lat="58.14236667065026" lon="6.69750833891668" id="-26751">
		<tag k="fixme" v="consider natural=peak for the most distinct mountains in the district" />
		<tag k="name" v="Stardalsfjellet" />
		<tag k="natural" v="hill" />
		<tag k="place" v="locality" />
		<tag k="ssr:stedsnr" v="203682" />
	</node>
	<node lat="58.13693610847649" lon="6.701775005445683" id="-26752">
		<tag k="name" v="Nissefjell" />
		<tag k="natural" v="hill" />
		<tag k="place" v="locality" />
		<tag k="ssr:stedsnr" v="203684" />
	</node>
	<node lat="58.1151555593296" lon="6.646605555405272" id="-26754">
		<tag k="name" v="Sekken" />
		<tag k="place" v="locality" />
		<tag k="ssr:stedsnr" v="203770" />
	</node>
	<node lat="58.201558335319085" lon="6.699566660377514" id="-26757">
		<tag k="name" v="Skarvehelleren" />
		<tag k="place" v="locality" />
		<tag k="ssr:stedsnr" v="203947" />
	</node>
	<node lat="58.18698055706253" lon="6.8423472230344675" id="-26759">
		<tag k="fixme" v="consider natural=peak for the most distinct mountains in the district" />
		<tag k="name" v="Molandsfjellet" />
		<tag k="natural" v="hill" />
		<tag k="place" v="locality" />
		<tag k="ssr:stedsnr" v="203970" />
	</node>
	<node lat="58.190544447039294" lon="6.839197215752253" id="-26760">
		<tag k="fixme" v="consider natural=peak for the most distinct mountains in the district" />
		<tag k="name" v="Havråsen" />
		<tag k="natural" v="hill" />
		<tag k="place" v="locality" />
		<tag k="ssr:stedsnr" v="203976" />
	</node>
	<node lat="58.2104416656655" lon="6.8043694488338655" id="-26761">
		<tag k="name" v="Djupedalen" />
		<tag k="natural" v="valley" />
		<tag k="place" v="locality" />
		<tag k="ssr:stedsnr" v="203887" />
	</node>
	<node lat="58.20681111399907" lon="6.726319445335207" id="-26762">
		<tag k="fixme" v="consider natural=peak for the most distinct mountains in the district" />
		<tag k="name" v="Kinnefjell" />
		<tag k="natural" v="hill" />
		<tag k="place" v="locality" />
		<tag k="ssr:stedsnr" v="203914" />
	</node>
	<node lat="58.16411944473278" lon="6.783886110577627" id="-26763">
		<tag k="name" v="Rokkheia" />
		<tag k="natural" v="hill" />
		<tag k="place" v="locality" />
		<tag k="ssr:stedsnr" v="203929" />
	</node>
	<node lat="58.09691111414979" lon="6.817727781991542" id="-26765">
		<tag k="name" v="Spindsoddheia" />
		<tag k="natural" v="hill" />
		<tag k="place" v="locality" />
		<tag k="ssr:stedsnr" v="204345" />
	</node>
	<node lat="58.19303610940104" lon="6.89941667016511" id="-26767">
		<tag k="name" v="Storkleivdalshola" />
		<tag k="natural" v="valley" />
		<tag k="place" v="locality" />
		<tag k="ssr:stedsnr" v="204760" />
	</node>
	<node lat="58.206741666437026" lon="6.887322226459041" id="-26768">
		<tag k="name" v="Rørkjerrheia" />
		<tag k="natural" v="hill" />
		<tag k="place" v="locality" />
		<tag k="ssr:stedsnr" v="204780" />
	</node>
	<node lat="58.20640000376397" lon="6.906761119368843" id="-26769">
		<tag k="fixme" v="consider natural=peak for the most distinct mountains in the district" />
		<tag k="name" v="Jonsokkneben" />
		<tag k="natural" v="hill" />
		<tag k="place" v="locality" />
		<tag k="ssr:stedsnr" v="204782" />
	</node>
	<node lat="58.139244446105224" lon="6.724313888656693" id="-26799">
		<tag k="fixme" v="consider natural=peak for the most distinct mountains in the district" />
		<tag k="name" v="Andråsen" />
		<tag k="natural" v="hill" />
		<tag k="place" v="locality" />
		<tag k="ssr:stedsnr" v="303241" />
	</node>
	<node lat="58.13773888957965" lon="6.7957611042971555" id="-26802">
		<tag k="alt_name" v="Sant Olavsvarden" />
		<tag k="fixme" v="consider natural=peak for the most distinct mountains in the district" />
		<tag k="name" v="St. Olavsvarden" />
		<tag k="natural" v="hill" />
		<tag k="place" v="locality" />
		<tag k="ssr:stedsnr" v="303268" />
	</node>
	<node lat="58.14019999603919" lon="6.794286102867437" id="-26803">
		<tag k="name" v="Ravneheia" />
		<tag k="natural" v="hill" />
		<tag k="place" v="locality" />
		<tag k="ssr:stedsnr" v="303269" />
	</node>
	<node lat="58.15109166314299" lon="6.657083326884311" id="-26814">
		<tag k="name" v="Risdalsfjellet" />
		<tag k="natural" v="hill" />
		<tag k="place" v="locality" />
		<tag k="ssr:stedsnr" v="324384" />
	</node>
	<node lat="58.15664444373626" lon="6.787616663549197" id="-26815">
		<tag k="name" v="Jærfallet" />
		<tag k="natural" v="slope" />
		<tag k="place" v="locality" />
		<tag k="ssr:stedsnr" v="324906" />
	</node>
	<node lat="58.153047223291956" lon="6.7633916611145235" id="-26816">
		<tag k="name" v="Buheia" />
		<tag k="natural" v="hill" />
		<tag k="place" v="locality" />
		<tag k="ssr:stedsnr" v="324910" />
	</node>
	<node lat="58.18076666407305" lon="6.713908334002509" id="-26818">
		<tag k="name" v="Varhei" />
		<tag k="natural" v="hill" />
		<tag k="place" v="locality" />
		<tag k="ssr:stedsnr" v="324442" />
	</node>
	<node lat="58.17704999975924" lon="6.7317361044243995" id="-26819">
		<tag k="fixme" v="consider natural=peak for the most distinct mountains in the district" />
		<tag k="name" v="Bjørnefjellet" />
		<tag k="natural" v="hill" />
		<tag k="place" v="locality" />
		<tag k="ssr:stedsnr" v="324444" />
	</node>
	<node lat="58.063536114479334" lon="6.9602527756448636" id="-26820">
		<tag k="fixme" v="consider natural=peak for the most distinct mountains in the district" />
		<tag k="name" v="Vindåsen" />
		<tag k="natural" v="hill" />
		<tag k="place" v="locality" />
		<tag k="ssr:stedsnr" v="324447" />
	</node>
	<node lat="58.17224166249963" lon="6.754624999920269" id="-26821">
		<tag k="fixme" v="consider natural=peak for the most distinct mountains in the district" />
		<tag k="name" v="Rødafjell" />
		<tag k="natural" v="hill" />
		<tag k="place" v="locality" />
		<tag k="ssr:stedsnr" v="324448" />
	</node>
	<node lat="58.178922224653476" lon="6.757097226397763" id="-26822">
		<tag k="fixme" v="consider natural=peak for the most distinct mountains in the district" />
		<tag k="name" v="Fiskestongheia" />
		<tag k="natural" v="hill" />
		<tag k="place" v="locality" />
		<tag k="ssr:stedsnr" v="324454" />
	</node>
	<node lat="58.11719166613936" lon="6.758386105510557" id="-26829">
		<tag k="fixme" v="consider natural=peak for the most distinct mountains in the district" />
		<tag k="name" v="Vardefjell" />
		<tag k="natural" v="hill" />
		<tag k="place" v="locality" />
		<tag k="ssr:stedsnr" v="324593" />
	</node>
	<node lat="58.125108333176875" lon="6.718700006656319" id="-26832">
		<tag k="fixme" v="consider natural=peak for the most distinct mountains in the district" />
		<tag k="name" v="Kjeldeåsen" />
		<tag k="natural" v="hill" />
		<tag k="place" v="locality" />
		<tag k="ssr:stedsnr" v="324629" />
	</node>
	<node lat="58.12565277611277" lon="6.738155563043193" id="-26833">
		<tag k="fixme" v="consider natural=peak for the most distinct mountains in the district" />
		<tag k="name" v="Hyttebakk" />
		<tag k="natural" v="hill" />
		<tag k="place" v="locality" />
		<tag k="ssr:stedsnr" v="324632" />
	</node>
	<node lat="58.142702774905146" lon="6.802555551970993" id="-26838">
		<tag k="name" v="Hauskedalsheia" />
		<tag k="natural" v="hill" />
		<tag k="place" v="locality" />
		<tag k="ssr:stedsnr" v="324546" />
	</node>
	<node lat="58.06299999943133" lon="6.784916659482698" id="-26839">
		<tag k="name" v="Einarsneshalsen" />
		<tag k="natural" v="valley" />
		<tag k="place" v="locality" />
		<tag k="ssr:stedsnr" v="324669" />
	</node>
	<node lat="58.16763610822208" lon="6.635619451855776" id="-26841">
		<tag k="name" v="Uddalen" />
		<tag k="natural" v="valley" />
		<tag k="place" v="locality" />
		<tag k="ssr:stedsnr" v="324695" />
	</node>
	<node lat="58.086250000230976" lon="6.67036943911983" id="-26842">
		<tag k="name" v="Bakken" />
		<tag k="natural" v="slope" />
		<tag k="place" v="locality" />
		<tag k="ssr:stedsnr" v="324700" />
	</node>
	<node lat="58.138597222118584" lon="6.692127782256938" id="-26843">
		<tag k="fixme" v="consider natural=peak for the most distinct mountains in the district" />
		<tag k="name" v="Forefjellet" />
		<tag k="natural" v="hill" />
		<tag k="place" v="locality" />
		<tag k="ssr:stedsnr" v="324655" />
	</node>
	<node lat="58.14004722239556" lon="6.689291659080933" id="-26844">
		<tag k="fixme" v="consider natural=peak for the most distinct mountains in the district" />
		<tag k="name" v="Rosåsen" />
		<tag k="natural" v="hill" />
		<tag k="place" v="locality" />
		<tag k="ssr:stedsnr" v="324662" />
	</node>
	<node lat="58.13333333299149" lon="6.687941659211995" id="-26845">
		<tag k="fixme" v="consider natural=peak for the most distinct mountains in the district" />
		<tag k="name" v="Husefjellet" />
		<tag k="natural" v="hill" />
		<tag k="place" v="locality" />
		<tag k="ssr:stedsnr" v="324665" />
	</node>
	<node lat="58.18824999854978" lon="6.767302779016198" id="-26847">
		<tag k="name" v="Bastubakken" />
		<tag k="natural" v="hill" />
		<tag k="place" v="locality" />
		<tag k="ssr:stedsnr" v="324855" />
	</node>
	<node lat="58.186738884652385" lon="6.832325003783328" id="-26851">
		<tag k="name" v="Fladen" />
		<tag k="place" v="locality" />
		<tag k="ssr:stedsnr" v="324971" />
	</node>
	<node lat="58.106502781977724" lon="6.875502779932217" id="-26855">
		<tag k="fixme" v="consider natural=peak for the most distinct mountains in the district" />
		<tag k="name" v="Hunstra" />
		<tag k="natural" v="hill" />
		<tag k="place" v="locality" />
		<tag k="ssr:stedsnr" v="324986" />
	</node>
	<node lat="58.119466664343406" lon="6.909452770505084" id="-26858">
		<tag k="fixme" v="consider natural=peak for the most distinct mountains in the district" />
		<tag k="name" v="Bukkåsen" />
		<tag k="natural" v="hill" />
		<tag k="place" v="locality" />
		<tag k="ssr:stedsnr" v="324992" />
	</node>
	<node lat="58.19141111537073" lon="6.8420444518911525" id="-26859">
		<tag k="name" v="Saueheia" />
		<tag k="natural" v="hill" />
		<tag k="place" v="locality" />
		<tag k="ssr:stedsnr" v="324965" />
	</node>
	<node lat="58.211513890357615" lon="6.822725006232434" id="-26865">
		<tag k="name" v="Stigningan" />
		<tag k="natural" v="slope" />
		<tag k="place" v="locality" />
		<tag k="ssr:stedsnr" v="325814" />
	</node>
	<node lat="58.21149999813524" lon="6.902252771112894" id="-26869">
		<tag k="name" v="Veadalen" />
		<tag k="natural" v="valley" />
		<tag k="place" v="locality" />
		<tag k="ssr:stedsnr" v="325763" />
	</node>
	<node lat="58.21206110715295" lon="6.900188884160252" id="-26870">
		<tag k="fixme" v="consider natural=peak for the most distinct mountains in the district" />
		<tag k="name" v="Tjoveheia" />
		<tag k="natural" v="hill" />
		<tag k="place" v="locality" />
		<tag k="ssr:stedsnr" v="325764" />
	</node>
	<node lat="58.07940278099374" lon="6.916049993916294" id="-26914">
		<tag k="fixme" v="consider natural=peak for the most distinct mountains in the district" />
		<tag k="name" v="Fløyfjellet" />
		<tag k="natural" v="hill" />
		<tag k="place" v="locality" />
		<tag k="ssr:stedsnr" v="385540" />
	</node>
	<node lat="58.11873333257365" lon="6.835455556854385" id="-26925">
		<tag k="name" v="Heigrelunden" />
		<tag k="natural" v="hill" />
		<tag k="place" v="locality" />
		<tag k="ssr:stedsnr" v="385562" />
	</node>
	<node lat="58.11836666390247" lon="6.824977784102879" id="-26926">
		<tag k="name" v="Lihagen" />
		<tag k="natural" v="slope" />
		<tag k="place" v="locality" />
		<tag k="ssr:stedsnr" v="385564" />
	</node>
	<node lat="58.14663888966288" lon="6.718638893576015" id="-26927">
		<tag k="fixme" v="consider natural=peak for the most distinct mountains in the district" />
		<tag k="name" v="Glifjell" />
		<tag k="natural" v="hill" />
		<tag k="place" v="locality" />
		<tag k="ssr:stedsnr" v="385573" />
	</node>
	<node lat="58.13962500355225" lon="6.8027083409845215" id="-26930">
		<tag k="name" v="Hellerdalen" />
		<tag k="natural" v="valley" />
		<tag k="place" v="locality" />
		<tag k="ssr:stedsnr" v="385591" />
	</node>
	<node lat="58.111508335041535" lon="6.775474991703456" id="-26931">
		<tag k="fixme" v="consider natural=peak for the most distinct mountains in the district" />
		<tag k="name" v="Ribbåsen" />
		<tag k="natural" v="hill" />
		<tag k="place" v="locality" />
		<tag k="ssr:stedsnr" v="385610" />
	</node>
	<node lat="58.09780000043808" lon="6.740630558760741" id="-26932">
		<tag k="name" v="Ørnekula" />
		<tag k="natural" v="hill" />
		<tag k="place" v="locality" />
		<tag k="ssr:stedsnr" v="385615" />
	</node>
	<node lat="58.09715000161621" lon="6.956244450837114" id="-26941">
		<tag k="fixme" v="consider natural=peak for the most distinct mountains in the district" />
		<tag k="name" v="Skalkåsen" />
		<tag k="natural" v="hill" />
		<tag k="place" v="locality" />
		<tag k="ssr:stedsnr" v="386468" />
	</node>
	<node lat="58.19179443991135" lon="6.802608326865892" id="-26948">
		<tag k="fixme" v="consider natural=peak for the most distinct mountains in the district" />
		<tag k="name" v="Andråsen" />
		<tag k="natural" v="hill" />
		<tag k="place" v="locality" />
		<tag k="ssr:stedsnr" v="385883" />
	</node>
	<node lat="58.2092499970332" lon="6.781630548554998" id="-26949">
		<tag k="fixme" v="consider natural=peak for the most distinct mountains in the district" />
		<tag k="name" v="Langheia" />
		<tag k="natural" v="hill" />
		<tag k="place" v="locality" />
		<tag k="ssr:stedsnr" v="385885" />
	</node>
	<node lat="58.177591663296596" lon="6.819802771181373" id="-26951">
		<tag k="name" v="Odrestien" />
		<tag k="place" v="locality" />
		<tag k="ssr:stedsnr" v="385968" />
	</node>
	<node lat="58.1137888905074" lon="6.915919440789218" id="-26952">
		<tag k="fixme" v="consider natural=peak for the most distinct mountains in the district" />
		<tag k="name" v="Boråsen" />
		<tag k="natural" v="hill" />
		<tag k="place" v="locality" />
		<tag k="ssr:stedsnr" v="385976" />
	</node>
	<node lat="58.117858332690574" lon="6.7221305485552625" id="-26956">
		<tag k="name" v="Røssegrava" />
		<tag k="place" v="locality" />
		<tag k="ssr:stedsnr" v="385635" />
	</node>
	<node lat="58.16209166383874" lon="6.762416665142851" id="-26959">
		<tag k="name" v="Rona" />
		<tag k="natural" v="ridge" />
		<tag k="place" v="locality" />
		<tag k="ssr:stedsnr" v="385912" />
	</node>
	<node lat="58.15971389211973" lon="6.791469446053638" id="-26960">
		<tag k="name" v="Dalten" />
		<tag k="natural" v="ridge" />
		<tag k="place" v="locality" />
		<tag k="ssr:stedsnr" v="385924" />
	</node>
	<node lat="58.11480833099728" lon="6.930630557367923" id="-26962">
		<tag k="name" v="Ramsdal" />
		<tag k="natural" v="valley" />
		<tag k="place" v="locality" />
		<tag k="ssr:stedsnr" v="385932" />
	</node>
	<node lat="58.05982500014415" lon="6.906950007327871" id="-26964">
		<tag k="fixme" v="consider natural=peak for the most distinct mountains in the district" />
		<tag k="name" v="Skarvefjell" />
		<tag k="natural" v="hill" />
		<tag k="place" v="locality" />
		<tag k="ssr:stedsnr" v="385992" />
	</node>
	<node lat="58.213508330887045" lon="6.844883338234984" id="-26966">
		<tag k="fixme" v="consider natural=peak for the most distinct mountains in the district" />
		<tag k="name" v="Øksnefjellet" />
		<tag k="natural" v="hill" />
		<tag k="place" v="locality" />
		<tag k="ssr:stedsnr" v="386833" />
	</node>
	<node lat="58.205188884825716" lon="6.783116667073058" id="-26985">
		<tag k="alt_name" v="Espeåsen" />
		<tag k="name" v="Melandsheia" />
		<tag k="natural" v="hill" />
		<tag k="place" v="locality" />
		<tag k="ssr:stedsnr" v="425185" />
	</node>
	<node lat="58.09194444877095" lon="6.8824583330861575" id="-27003">
		<tag k="name" v="Bjorsdalen" />
		<tag k="natural" v="valley" />
		<tag k="place" v="locality" />
		<tag k="ssr:stedsnr" v="446513" />
	</node>
	<node lat="58.191700003777036" lon="6.767002778248973" id="-27004">
		<tag k="name" v="Abaldalen" />
		<tag k="natural" v="valley" />
		<tag k="place" v="locality" />
		<tag k="ssr:stedsnr" v="446865" />
	</node>
	<node lat="58.076177778124816" lon="6.915472225910144" id="-27005">
		<tag k="name" v="Slette Bugdøy" />
		<tag k="natural" v="valley" />
		<tag k="place" v="locality" />
		<tag k="ssr:stedsnr" v="446538" />
	</node>
	<node lat="58.06896666600553" lon="6.962663896008267" id="-27008">
		<tag k="fixme" v="consider natural=peak for the most distinct mountains in the district" />
		<tag k="name" v="Myråsen" />
		<tag k="natural" v="hill" />
		<tag k="place" v="locality" />
		<tag k="ssr:stedsnr" v="446444" />
	</node>
	<node lat="58.17638611394337" lon="6.75449999700539" id="-27009">
		<tag k="name" v="Kompanfladen" />
		<tag k="natural" v="hill" />
		<tag k="place" v="locality" />
		<tag k="ssr:stedsnr" v="446451" />
	</node>
	<node lat="58.140824996424385" lon="6.82125000376276" id="-27011">
		<tag k="name" v="Jordbakkan" />
		<tag k="natural" v="slope" />
		<tag k="place" v="locality" />
		<tag k="ssr:stedsnr" v="446461" />
	</node>
	<node lat="58.12282221929833" lon="6.831925004730333" id="-27018">
		<tag k="name" v="Kjeseheia" />
		<tag k="natural" v="hill" />
		<tag k="place" v="locality" />
		<tag k="ssr:stedsnr" v="446558" />
	</node>
	<node lat="58.109080551256255" lon="6.7728138845484525" id="-27019">
		<tag k="fixme" v="consider natural=peak for the most distinct mountains in the district" />
		<tag k="name" v="Kistefjellet" />
		<tag k="natural" v="hill" />
		<tag k="place" v="locality" />
		<tag k="ssr:stedsnr" v="446594" />
	</node>
	<node lat="58.109761111594715" lon="6.663561108250347" id="-27021">
		<tag k="fixme" v="consider natural=peak for the most distinct mountains in the district" />
		<tag k="name" v="Jonsogfjellet" />
		<tag k="natural" v="hill" />
		<tag k="place" v="locality" />
		<tag k="ssr:stedsnr" v="446761" />
	</node>
	<node lat="58.16281944274396" lon="6.855586117177945" id="-27023">
		<tag k="fixme" v="consider natural=peak for the most distinct mountains in the district" />
		<tag k="name" v="Krossberget" />
		<tag k="natural" v="hill" />
		<tag k="place" v="locality" />
		<tag k="ssr:stedsnr" v="446828" />
	</node>
	<node lat="58.214400000597536" lon="6.782827782378322" id="-27025">
		<tag k="name" v="Åseglova" />
		<tag k="natural" v="valley" />
		<tag k="place" v="locality" />
		<tag k="ssr:stedsnr" v="446846" />
	</node>
	<node lat="58.11681944723382" lon="6.780127776349586" id="-27028">
		<tag k="fixme" v="consider natural=peak for the most distinct mountains in the district" />
		<tag k="name" v="Nørskårstranda" />
		<tag k="natural" v="hill" />
		<tag k="place" v="locality" />
		<tag k="ssr:stedsnr" v="446653" />
	</node>
	<node lat="58.1413527822576" lon="6.671611114177" id="-27030">
		<tag k="name" v="Storefjell" />
		<tag k="natural" v="hill" />
		<tag k="place" v="locality" />
		<tag k="ssr:stedsnr" v="446670" />
	</node>
	<node lat="58.145999995947406" lon="6.62241666501617" id="-27034">
		<tag k="name" v="Breiskaret" />
		<tag k="natural" v="valley" />
		<tag k="place" v="locality" />
		<tag k="ssr:stedsnr" v="446720" />
	</node>
	<node lat="58.16281666435682" lon="6.795636113204515" id="-27036">
		<tag k="name" v="Heigrehalsen" />
		<tag k="natural" v="valley" />
		<tag k="place" v="locality" />
		<tag k="ssr:stedsnr" v="446926" />
	</node>
	<node lat="58.19504166460702" lon="6.699377776272173" id="-27038">
		<tag k="name" v="Skagelidalen" />
		<tag k="natural" v="valley" />
		<tag k="place" v="locality" />
		<tag k="ssr:stedsnr" v="446940" />
	</node>
	<node lat="58.11863889056061" lon="6.92851111094122" id="-27039">
		<tag k="name" v="Olsakerbakken" />
		<tag k="natural" v="slope" />
		<tag k="place" v="locality" />
		<tag k="ssr:stedsnr" v="446941" />
	</node>
	<node lat="58.09732777454036" lon="6.8233361178725795" id="-27047">
		<tag k="fixme" v="consider natural=peak for the most distinct mountains in the district" />
		<tag k="name" v="Ørnesede" />
		<tag k="natural" v="hill" />
		<tag k="place" v="locality" />
		<tag k="ssr:stedsnr" v="447368" />
	</node>
	<node lat="58.20546111292731" lon="6.831083334521522" id="-27049">
		<tag k="name" v="Tona" />
		<tag k="place" v="locality" />
		<tag k="ssr:stedsnr" v="447798" />
	</node>
	<node lat="58.20258888639828" lon="6.840508328890915" id="-27050">
		<tag k="fixme" v="consider natural=peak for the most distinct mountains in the district" />
		<tag k="name" v="Husebakken" />
		<tag k="natural" v="hill" />
		<tag k="place" v="locality" />
		<tag k="ssr:stedsnr" v="447799" />
	</node>
	<node lat="58.17892777526016" lon="6.732530548311312" id="-27051">
		<tag k="name" v="Kjørvikskaret" />
		<tag k="natural" v="valley" />
		<tag k="place" v="locality" />
		<tag k="ssr:stedsnr" v="506441" />
	</node>
	<node lat="58.143941670067306" lon="6.833766658918692" id="-27052">
		<tag k="name" v="Støa" />
		<tag k="natural" v="valley" />
		<tag k="place" v="locality" />
		<tag k="ssr:stedsnr" v="506528" />
	</node>
	<node lat="58.11961944124267" lon="6.80725000839876" id="-27053">
		<tag k="fixme" v="consider natural=peak for the most distinct mountains in the district" />
		<tag k="name" v="Revestølen" />
		<tag k="natural" v="hill" />
		<tag k="place" v="locality" />
		<tag k="ssr:stedsnr" v="506593" />
	</node>
	<node lat="58.16030000069257" lon="6.764055547713707" id="-27055">
		<tag k="name" v="Teinlia" />
		<tag k="natural" v="slope" />
		<tag k="place" v="locality" />
		<tag k="ssr:stedsnr" v="506911" />
	</node>
	<node lat="58.16561944585712" lon="6.7725388948504275" id="-27056">
		<tag k="name" v="Logsheia" />
		<tag k="natural" v="hill" />
		<tag k="place" v="locality" />
		<tag k="ssr:stedsnr" v="506914" />
	</node>
	<node lat="58.122213892583126" lon="6.929802784985179" id="-27058">
		<tag k="fixme" v="consider natural=peak for the most distinct mountains in the district" />
		<tag k="loc_name" v="Skådåsen" />
		<tag k="name" v="Skodåsen" />
		<tag k="natural" v="hill" />
		<tag k="place" v="locality" />
		<tag k="ssr:stedsnr" v="506935" />
	</node>
	<node lat="58.06093333113236" lon="6.9408583291906565" id="-27061">
		<tag k="fixme" v="consider natural=peak for the most distinct mountains in the district" />
		<tag k="name" v="Hovdefjell" />
		<tag k="natural" v="hill" />
		<tag k="place" v="locality" />
		<tag k="ssr:stedsnr" v="506945" />
	</node>
	<node lat="58.1745944488581" lon="6.863680557846068" id="-27064">
		<tag k="name" v="Venehei" />
		<tag k="natural" v="hill" />
		<tag k="place" v="locality" />
		<tag k="ssr:stedsnr" v="506951" />
	</node>
	<node lat="58.16523333472602" lon="6.856641674637806" id="-27066">
		<tag k="name" v="Flordalen" />
		<tag k="natural" v="valley" />
		<tag k="place" v="locality" />
		<tag k="ssr:stedsnr" v="507837" />
	</node>
	<node lat="58.20801666474231" lon="6.866652778617867" id="-27068">
		<tag k="fixme" v="consider natural=peak for the most distinct mountains in the district" />
		<tag k="name" v="Meheia" />
		<tag k="natural" v="hill" />
		<tag k="place" v="locality" />
		<tag k="ssr:stedsnr" v="507843" />
	</node>
	<node lat="58.19019166881808" lon="6.780052782752927" id="-27072">
		<tag k="name" v="Haugere" />
		<tag k="natural" v="ridge" />
		<tag k="place" v="locality" />
		<tag k="ssr:stedsnr" v="506877" />
	</node>
	<node lat="58.194325001867085" lon="6.739991665457674" id="-27074">
		<tag k="fixme" v="consider natural=peak for the most distinct mountains in the district" />
		<tag k="name" v="Helleråsen" />
		<tag k="natural" v="hill" />
		<tag k="place" v="locality" />
		<tag k="ssr:stedsnr" v="506892" />
	</node>
	<node lat="58.193288891362556" lon="6.709766660184456" id="-27075">
		<tag k="name" v="Refsdalen" />
		<tag k="natural" v="valley" />
		<tag k="place" v="locality" />
		<tag k="ssr:stedsnr" v="506894" />
	</node>
	<node lat="58.08517500441193" lon="6.867138894690172" id="-27080">
		<tag k="fixme" v="consider natural=peak for the most distinct mountains in the district" />
		<tag k="name" v="Døråsen" />
		<tag k="natural" v="hill" />
		<tag k="place" v="locality" />
		<tag k="ssr:stedsnr" v="507489" />
	</node>
	<node lat="58.091452778536855" lon="6.898908338557311" id="-27081">
		<tag k="fixme" v="consider natural=peak for the most distinct mountains in the district" />
		<tag k="name" v="Kålåsen" />
		<tag k="natural" v="hill" />
		<tag k="place" v="locality" />
		<tag k="ssr:stedsnr" v="507498" />
	</node>
	<node lat="58.166216665198554" lon="6.736277772940825" id="-27083">
		<tag k="name" v="Kalvehagen" />
		<tag k="natural" v="slope" />
		<tag k="place" v="locality" />
		<tag k="ssr:stedsnr" v="507443" />
	</node>
	<node lat="58.1268055556585" lon="6.824463884163035" id="-27087">
		<tag k="fixme" v="consider natural=peak for the most distinct mountains in the district" />
		<tag k="name" v="Ravnefjell" />
		<tag k="natural" v="hill" />
		<tag k="place" v="locality" />
		<tag k="ssr:stedsnr" v="507545" />
	</node>
	<node lat="58.06238611563056" lon="6.789916671137427" id="-27088">
		<tag k="name" v="Risbakk" />
		<tag k="natural" v="hill" />
		<tag k="place" v="locality" />
		<tag k="ssr:stedsnr" v="507680" />
	</node>
	<node lat="58.155663893129066" lon="6.625155554857606" id="-27093">
		<tag k="fixme" v="consider natural=peak for the most distinct mountains in the district" />
		<tag k="name" v="Sjonefjellet" />
		<tag k="natural" v="hill" />
		<tag k="place" v="locality" />
		<tag k="ssr:stedsnr" v="507691" />
	</node>
	<node lat="58.113383337150935" lon="6.657336108816397" id="-27095">
		<tag k="name" v="Langebakk" />
		<tag k="natural" v="ridge" />
		<tag k="place" v="locality" />
		<tag k="ssr:stedsnr" v="507755" />
	</node>
	<node lat="58.11366111233407" lon="6.662836103068926" id="-27096">
		<tag k="fixme" v="consider natural=peak for the most distinct mountains in the district" />
		<tag k="name" v="Donåsen" />
		<tag k="natural" v="hill" />
		<tag k="place" v="locality" />
		<tag k="ssr:stedsnr" v="507756" />
	</node>
	<node lat="58.09467777352902" lon="6.723252778396663" id="-27098">
		<tag k="name" v="Grimsbyheia" />
		<tag k="natural" v="hill" />
		<tag k="place" v="locality" />
		<tag k="ssr:stedsnr" v="507600" />
	</node>
	<node lat="58.09552777440481" lon="6.742497223250318" id="-27100">
		<tag k="name" v="Kjørrefjorddalen" />
		<tag k="natural" v="valley" />
		<tag k="place" v="locality" />
		<tag k="ssr:stedsnr" v="507616" />
	</node>
	<node lat="58.11666944773745" lon="6.71460833344731" id="-27103">
		<tag k="fixme" v="consider natural=peak for the most distinct mountains in the district" />
		<tag k="name" v="Skåråsen" />
		<tag k="natural" v="hill" />
		<tag k="place" v="locality" />
		<tag k="ssr:stedsnr" v="507631" />
	</node>
	<node lat="58.116433332394216" lon="6.705836112729797" id="-27104">
		<tag k="name" v="Langebakk" />
		<tag k="natural" v="slope" />
		<tag k="place" v="locality" />
		<tag k="ssr:stedsnr" v="507632" />
	</node>
	<node lat="58.122350004325924" lon="6.791055548823561" id="-27108">
		<tag k="fixme" v="consider natural=peak for the most distinct mountains in the district" />
		<tag k="name" v="Bukkeknuten" />
		<tag k="natural" v="hill" />
		<tag k="place" v="locality" />
		<tag k="ssr:stedsnr" v="507649" />
	</node>
	<node lat="58.14994721978829" lon="6.634680548484344" id="-27109">
		<tag k="name" v="Gråfjell" />
		<tag k="natural" v="hill" />
		<tag k="place" v="locality" />
		<tag k="ssr:stedsnr" v="507721" />
	</node>
	<node lat="58.12043055831985" lon="6.677075004490022" id="-27111">
		<tag k="name" v="Kallshaug" />
		<tag k="natural" v="hill" />
		<tag k="place" v="locality" />
		<tag k="ssr:stedsnr" v="507736" />
	</node>
	<node lat="58.15057500328814" lon="6.765224999796073" id="-27128">
		<tag k="alt_name" v="Buheia" />
		<tag k="fixme" v="consider natural=peak for the most distinct mountains in the district" />
		<tag k="name" v="Briseidheia" />
		<tag k="natural" v="hill" />
		<tag k="place" v="locality" />
		<tag k="ssr:stedsnr" v="546217" />
	</node>
	<node lat="58.15381944796256" lon="6.712013884036018" id="-27129">
		<tag k="alt_name" v="Storefjell" />
		<tag k="fixme" v="consider natural=peak for the most distinct mountains in the district" />
		<tag k="name" v="Storfjellet" />
		<tag k="natural" v="hill" />
		<tag k="place" v="locality" />
		<tag k="ssr:stedsnr" v="546219" />
	</node>
	<node lat="58.152613886885725" lon="6.680675000367713" id="-27130">
		<tag k="fixme" v="consider natural=peak for the most distinct mountains in the district" />
		<tag k="name" v="Hekkenfjellet" />
		<tag k="natural" v="hill" />
		<tag k="place" v="locality" />
		<tag k="ssr:stedsnr" v="546220" />
	</node>
	<node lat="58.11888333778022" lon="6.742194447113778" id="-27136">
		<tag k="alt_name" v="Straumslandshusefjell" />
		<tag k="fixme" v="consider natural=peak for the most distinct mountains in the district" />
		<tag k="name" v="Husafjellet" />
		<tag k="natural" v="hill" />
		<tag k="place" v="locality" />
		<tag k="ssr:stedsnr" v="546252" />
	</node>
	<node lat="58.16227777750751" lon="6.779736112328042" id="-27143">
		<tag k="fixme" v="consider natural=peak for the most distinct mountains in the district" />
		<tag k="name" v="Forefjellet" />
		<tag k="natural" v="hill" />
		<tag k="place" v="locality" />
		<tag k="ssr:stedsnr" v="567931" />
	</node>
	<node lat="58.19456111194242" lon="6.691925005750601" id="-27144">
		<tag k="name" v="Groderfjellet" />
		<tag k="natural" v="hill" />
		<tag k="place" v="locality" />
		<tag k="ssr:stedsnr" v="567935" />
	</node>
	<node lat="58.11188889043956" lon="6.928941667986837" id="-27145">
		<tag k="name" v="Tangen" />
		<tag k="natural" v="ridge" />
		<tag k="place" v="locality" />
		<tag k="ssr:stedsnr" v="567940" />
	</node>
	<node lat="58.18748610977526" lon="6.7304944396123165" id="-27147">
		<tag k="name" v="Dalan" />
		<tag k="natural" v="valley" />
		<tag k="place" v="locality" />
		<tag k="ssr:stedsnr" v="567432" />
	</node>
	<node lat="58.178886110581125" lon="6.75582221407425" id="-27148">
		<tag k="name" v="Ruskedalen" />
		<tag k="natural" v="valley" />
		<tag k="place" v="locality" />
		<tag k="ssr:stedsnr" v="567433" />
	</node>
	<node lat="58.18423333035633" lon="6.7520777777520715" id="-27149">
		<tag k="fixme" v="consider natural=peak for the most distinct mountains in the district" />
		<tag k="name" v="Ydderstøfjellet" />
		<tag k="natural" v="hill" />
		<tag k="place" v="locality" />
		<tag k="ssr:stedsnr" v="567436" />
	</node>
	<node lat="58.13435833319483" lon="6.83568611245812" id="-27151">
		<tag k="fixme" v="consider natural=peak for the most distinct mountains in the district" />
		<tag k="name" v="Rinna" />
		<tag k="natural" v="hill" />
		<tag k="place" v="locality" />
		<tag k="ssr:stedsnr" v="567440" />
	</node>
	<node lat="58.136872225646556" lon="6.749100002418489" id="-27157">
		<tag k="name" v="Klubben" />
		<tag k="natural" v="hill" />
		<tag k="place" v="locality" />
		<tag k="ssr:stedsnr" v="567546" />
	</node>
	<node lat="58.13698888890913" lon="6.724780547270735" id="-27159">
		<tag k="fixme" v="consider natural=peak for the most distinct mountains in the district" />
		<tag k="name" v="Andråskneben" />
		<tag k="natural" v="hill" />
		<tag k="place" v="locality" />
		<tag k="ssr:stedsnr" v="567554" />
	</node>
	<node lat="58.17282778166094" lon="6.696561115286471" id="-27160">
		<tag k="fixme" v="consider natural=peak for the most distinct mountains in the district" />
		<tag k="name" v="Stifjellet" />
		<tag k="natural" v="hill" />
		<tag k="place" v="locality" />
		<tag k="ssr:stedsnr" v="567474" />
	</node>
	<node lat="58.10191667018962" lon="6.958383329736051" id="-27162">
		<tag k="fixme" v="consider natural=peak for the most distinct mountains in the district" />
		<tag k="name" v="Brennefjell" />
		<tag k="natural" v="hill" />
		<tag k="place" v="locality" />
		<tag k="ssr:stedsnr" v="567480" />
	</node>
	<node lat="58.102486110049945" lon="6.900041658430167" id="-27163">
		<tag k="name" v="Vassenden" />
		<tag k="natural" v="valley" />
		<tag k="place" v="locality" />
		<tag k="ssr:stedsnr" v="567485" />
	</node>
	<node lat="58.093005553000715" lon="6.8969722228594605" id="-27167">
		<tag k="fixme" v="consider natural=peak for the most distinct mountains in the district" />
		<tag k="name" v="Liåsen" />
		<tag k="natural" v="hill" />
		<tag k="place" v="locality" />
		<tag k="ssr:stedsnr" v="567499" />
	</node>
	<node lat="58.089050004285426" lon="6.708658337386274" id="-27169">
		<tag k="name" v="Rødlandsheia" />
		<tag k="natural" v="hill" />
		<tag k="place" v="locality" />
		<tag k="ssr:stedsnr" v="567592" />
	</node>
	<node lat="58.15158888613207" lon="6.627147222237824" id="-27172">
		<tag k="name" v="Åsnefjellet" />
		<tag k="natural" v="hill" />
		<tag k="place" v="locality" />
		<tag k="ssr:stedsnr" v="567696" />
	</node>
	<node lat="58.108111111967965" lon="6.719197221125234" id="-27174">
		<tag k="fixme" v="consider natural=peak for the most distinct mountains in the district" />
		<tag k="name" v="Geitefjell" />
		<tag k="natural" v="hill" />
		<tag k="place" v="locality" />
		<tag k="ssr:stedsnr" v="567636" />
	</node>
	<node lat="58.14575832966427" lon="6.664452774808541" id="-27175">
		<tag k="fixme" v="consider natural=peak for the most distinct mountains in the district" />
		<tag k="name" v="Ravnefjell" />
		<tag k="natural" v="hill" />
		<tag k="place" v="locality" />
		<tag k="ssr:stedsnr" v="567645" />
	</node>
	<node lat="58.17168055990454" lon="6.767575004572249" id="-27183">
		<tag k="name" v="Austheian" />
		<tag k="natural" v="hill" />
		<tag k="place" v="locality" />
		<tag k="ssr:stedsnr" v="567885" />
	</node>
	<node lat="58.18094166739836" lon="6.857411108472448" id="-27185">
		<tag k="fixme" v="consider natural=peak for the most distinct mountains in the district" />
		<tag k="name" v="Vedremarkfjellan" />
		<tag k="natural" v="hill" />
		<tag k="place" v="locality" />
		<tag k="ssr:stedsnr" v="567971" />
	</node>
	<node lat="57.996388884771726" lon="6.554166666283206" id="-27199">
		<tag k="name" v="Varnesgrabenen" />
		<tag k="place" v="locality" />
		<tag k="ssr:stedsnr" v="587583" />
	</node>
	<node lat="58.162602780384006" lon="6.763563883470375" id="-27226">
		<tag k="name" v="Tjødnehelleren" />
		<tag k="place" v="locality" />
		<tag k="ssr:stedsnr" v="627935" />
	</node>
	<node lat="58.13422499941894" lon="6.850641662956701" id="-27229">
		<tag k="name" v="Skåra" />
		<tag k="natural" v="hill" />
		<tag k="place" v="locality" />
		<tag k="ssr:stedsnr" v="628440" />
	</node>
	<node lat="58.07639999985278" lon="6.811641659367595" id="-27230">
		<tag k="name" v="Eikebakken" />
		<tag k="natural" v="hill" />
		<tag k="place" v="locality" />
		<tag k="ssr:stedsnr" v="628525" />
	</node>
	<node lat="58.114672222734534" lon="6.897683334599225" id="-27231">
		<tag k="name" v="Stordalen" />
		<tag k="natural" v="valley" />
		<tag k="place" v="locality" />
		<tag k="ssr:stedsnr" v="627984" />
	</node>
	<node lat="58.107144440714606" lon="6.891736115573475" id="-27232">
		<tag k="name" v="Skjebheia" />
		<tag k="natural" v="hill" />
		<tag k="place" v="locality" />
		<tag k="ssr:stedsnr" v="627985" />
	</node>
	<node lat="58.163069444970645" lon="6.735505559859159" id="-27234">
		<tag k="fixme" v="consider natural=peak for the most distinct mountains in the district" />
		<tag k="name" v="Legefjellan" />
		<tag k="natural" v="hill" />
		<tag k="place" v="locality" />
		<tag k="ssr:stedsnr" v="628451" />
	</node>
	<node lat="58.168652778936284" lon="6.729547220914162" id="-27235">
		<tag k="name" v="Legebakkan" />
		<tag k="natural" v="slope" />
		<tag k="place" v="locality" />
		<tag k="ssr:stedsnr" v="628455" />
	</node>
	<node lat="58.09400833479731" lon="6.851158341343514" id="-27236">
		<tag k="fixme" v="consider natural=peak for the most distinct mountains in the district" />
		<tag k="name" v="Furåsen" />
		<tag k="natural" v="hill" />
		<tag k="place" v="locality" />
		<tag k="ssr:stedsnr" v="628456" />
	</node>
	<node lat="58.09854722524392" lon="6.8597805535454865" id="-27237">
		<tag k="fixme" v="consider natural=peak for the most distinct mountains in the district" />
		<tag k="name" v="Tolåsen" />
		<tag k="natural" v="hill" />
		<tag k="place" v="locality" />
		<tag k="ssr:stedsnr" v="628457" />
	</node>
	<node lat="58.09473610689594" lon="6.930824997774298" id="-27239">
		<tag k="fixme" v="consider natural=peak for the most distinct mountains in the district" />
		<tag k="name" v="Rabneåsen" />
		<tag k="natural" v="hill" />
		<tag k="place" v="locality" />
		<tag k="ssr:stedsnr" v="628466" />
	</node>
	<node lat="58.174150000288826" lon="6.683252774463718" id="-27242">
		<tag k="name" v="Lunnan" />
		<tag k="natural" v="slope" />
		<tag k="place" v="locality" />
		<tag k="ssr:stedsnr" v="628472" />
	</node>
	<node lat="58.103044446513735" lon="6.941780548201384" id="-27244">
		<tag k="fixme" v="consider natural=peak for the most distinct mountains in the district" />
		<tag k="name" v="Berkjåsen" />
		<tag k="natural" v="hill" />
		<tag k="place" v="locality" />
		<tag k="ssr:stedsnr" v="628480" />
	</node>
	<node lat="58.17714721840911" lon="6.876755554802171" id="-27248">
		<tag k="name" v="Storhei" />
		<tag k="natural" v="hill" />
		<tag k="place" v="locality" />
		<tag k="ssr:stedsnr" v="628740" />
	</node>
	<node lat="58.14435277742339" lon="6.762502770557189" id="-27255">
		<tag k="fixme" v="consider natural=peak for the most distinct mountains in the district" />
		<tag k="name" v="Knuten" />
		<tag k="natural" v="hill" />
		<tag k="place" v="locality" />
		<tag k="ssr:stedsnr" v="628561" />
	</node>
	<node lat="58.11584444138152" lon="6.803872222125458" id="-27258">
		<tag k="fixme" v="multiple name tags, choose one and add the other to alt_name" />
		<tag k="name" v="Hotledalen;Hjortedalen" />
		<tag k="natural" v="valley" />
		<tag k="place" v="locality" />
		<tag k="ssr:stedsnr" v="628582" />
	</node>
	<node lat="58.18007222468391" lon="6.8843916692096725" id="-27262">
		<tag k="name" v="Skjoldalsdalen" />
		<tag k="natural" v="valley" />
		<tag k="place" v="locality" />
		<tag k="ssr:stedsnr" v="628770" />
	</node>
	<node lat="58.20704721795988" lon="6.8807361060813435" id="-27263">
		<tag k="fixme" v="consider natural=peak for the most distinct mountains in the district" />
		<tag k="name" v="Forekammen" />
		<tag k="natural" v="hill" />
		<tag k="place" v="locality" />
		<tag k="ssr:stedsnr" v="628777" />
	</node>
	<node lat="58.20156666920979" lon="6.784063893805249" id="-27269">
		<tag k="name" v="Astersheia" />
		<tag k="natural" v="hill" />
		<tag k="place" v="locality" />
		<tag k="ssr:stedsnr" v="628862" />
	</node>
	<node lat="58.19590833123171" lon="6.711755563121413" id="-27270">
		<tag k="name" v="Erskaran" />
		<tag k="natural" v="valley" />
		<tag k="place" v="locality" />
		<tag k="ssr:stedsnr" v="628871" />
	</node>
	<node lat="58.11125277820921" lon="6.88519166105684" id="-27272">
		<tag k="name" v="Høgabakken" />
		<tag k="natural" v="slope" />
		<tag k="place" v="locality" />
		<tag k="ssr:stedsnr" v="628970" />
	</node>
	<node lat="58.16754444605866" lon="6.889619446024408" id="-27313">
		<tag k="fixme" v="consider natural=peak for the most distinct mountains in the district" />
		<tag k="name" v="Stifjellet" />
		<tag k="natural" v="hill" />
		<tag k="place" v="locality" />
		<tag k="ssr:stedsnr" v="728176" />
	</node>
	<node lat="58.09906667050738" lon="6.907666662576765" id="-27324">
		<tag k="name" v="Disken" />
		<tag k="natural" v="hill" />
		<tag k="place" v="locality" />
		<tag k="ssr:stedsnr" v="728255" />
	</node>
	<node lat="58.10838610894045" lon="6.8765472222176225" id="-27333">
		<tag k="fixme" v="consider natural=peak for the most distinct mountains in the district" />
		<tag k="name" v="Vardåsen" />
		<tag k="natural" v="hill" />
		<tag k="place" v="locality" />
		<tag k="ssr:stedsnr" v="749987" />
	</node>
	<node lat="58.15189722235002" lon="6.668750000533083" id="-27335">
		<tag k="name" v="Tomstadmarka" />
		<tag k="natural" v="hill" />
		<tag k="place" v="locality" />
		<tag k="ssr:stedsnr" v="749398" />
	</node>
	<node lat="58.08304444462497" lon="6.6580722257806455" id="-27337">
		<tag k="name" v="Bjødnnes" />
		<tag k="place" v="locality" />
		<tag k="ssr:stedsnr" v="749428" />
	</node>
	<node lat="58.138169443316585" lon="6.801597225425372" id="-27343">
		<tag k="fixme" v="consider natural=peak for the most distinct mountains in the district" />
		<tag k="name" v="Trofjellet" />
		<tag k="natural" v="hill" />
		<tag k="place" v="locality" />
		<tag k="ssr:stedsnr" v="749587" />
	</node>
	<node lat="58.07807500161499" lon="6.855311111293077" id="-27345">
		<tag k="fixme" v="consider natural=peak for the most distinct mountains in the district" />
		<tag k="name" v="Åsefjell" />
		<tag k="natural" v="hill" />
		<tag k="place" v="locality" />
		<tag k="ssr:stedsnr" v="749600" />
	</node>
	<node lat="58.129422221360116" lon="6.677758326837683" id="-27347">
		<tag k="name" v="Bronebakk" />
		<tag k="natural" v="slope" />
		<tag k="place" v="locality" />
		<tag k="ssr:stedsnr" v="749671" />
	</node>
	<node lat="58.13934167016562" lon="6.658452781092219" id="-27348">
		<tag k="fixme" v="consider natural=peak for the most distinct mountains in the district" />
		<tag k="name" v="Legåsen" />
		<tag k="natural" v="hill" />
		<tag k="place" v="locality" />
		<tag k="ssr:stedsnr" v="749676" />
	</node>
	<node lat="58.140844445286476" lon="6.700483327871752" id="-27349">
		<tag k="name" v="Dyrefjell" />
		<tag k="natural" v="hill" />
		<tag k="place" v="locality" />
		<tag k="ssr:stedsnr" v="749681" />
	</node>
	<node lat="58.0925722203714" lon="6.6917999961198795" id="-27351">
		<tag k="name" v="Stillodden" />
		<tag k="natural" v="slope" />
		<tag k="place" v="locality" />
		<tag k="ssr:stedsnr" v="749764" />
	</node>
	<node lat="58.175600001201246" lon="6.887861107747376" id="-27353">
		<tag k="name" v="Breihei" />
		<tag k="natural" v="hill" />
		<tag k="place" v="locality" />
		<tag k="ssr:stedsnr" v="749784" />
	</node>
	<node lat="58.22400000216138" lon="6.868066662812483" id="-27354">
		<tag k="name" v="Laundalsslåta" />
		<tag k="natural" v="slope" />
		<tag k="place" v="locality" />
		<tag k="ssr:stedsnr" v="749792" />
	</node>
	<node lat="58.08374722463301" lon="6.890497214158031" id="-27358">
		<tag k="name" v="Knollen" />
		<tag k="natural" v="hill" />
		<tag k="place" v="locality" />
		<tag k="ssr:stedsnr" v="749533" />
	</node>
	<node lat="58.07420555318175" lon="6.9127416741477" id="-27360">
		<tag k="name" v="Bugdøyheia" />
		<tag k="natural" v="hill" />
		<tag k="place" v="locality" />
		<tag k="ssr:stedsnr" v="749540" />
	</node>
	<node lat="58.14534166560527" lon="6.6196805538854" id="-27370">
		<tag k="fixme" v="consider natural=peak for the most distinct mountains in the district" />
		<tag k="name" v="Breiskarfjellet" />
		<tag k="natural" v="hill" />
		<tag k="place" v="locality" />
		<tag k="ssr:stedsnr" v="749740" />
	</node>
	<node lat="58.11908332943787" lon="6.684263897597776" id="-27371">
		<tag k="name" v="Krusebakk" />
		<tag k="natural" v="slope" />
		<tag k="place" v="locality" />
		<tag k="ssr:stedsnr" v="749750" />
	</node>
	<node lat="58.161477779248855" lon="6.85262222518996" id="-27372">
		<tag k="fixme" v="consider natural=peak for the most distinct mountains in the district" />
		<tag k="name" v="Firfjellet" />
		<tag k="natural" v="hill" />
		<tag k="place" v="locality" />
		<tag k="ssr:stedsnr" v="749852" />
	</node>
	<node lat="58.16523333273796" lon="6.806063885323314" id="-27374">
		<tag k="name" v="Sandsheia" />
		<tag k="natural" v="hill" />
		<tag k="place" v="locality" />
		<tag k="ssr:stedsnr" v="749945" />
	</node>
	<node lat="58.168055556351" lon="6.778644450582842" id="-27376">
		<tag k="name" v="Ombostadheia" />
		<tag k="natural" v="hill" />
		<tag k="place" v="locality" />
		<tag k="ssr:stedsnr" v="749947" />
	</node>
	<node lat="58.12227221877448" lon="6.923475006558571" id="-27377">
		<tag k="fixme" v="consider natural=peak for the most distinct mountains in the district" />
		<tag k="name" v="Rebbåsen" />
		<tag k="natural" v="hill" />
		<tag k="place" v="locality" />
		<tag k="ssr:stedsnr" v="749954" />
	</node>
	<node lat="58.194672224005224" lon="6.773791659960612" id="-27378">
		<tag k="name" v="Maurbakken" />
		<tag k="natural" v="slope" />
		<tag k="place" v="locality" />
		<tag k="ssr:stedsnr" v="749893" />
	</node>
	<node lat="58.192961115469245" lon="6.87633055371513" id="-27379">
		<tag k="fixme" v="consider natural=peak for the most distinct mountains in the district" />
		<tag k="name" v="Salthaug" />
		<tag k="natural" v="hill" />
		<tag k="place" v="locality" />
		<tag k="ssr:stedsnr" v="750759" />
	</node>
</osm>
