<?xml version="1.0" encoding="UTF-8"?>
<<<<<<< HEAD
<osm version="0.6" generator="osmapis">
	<node lat="58.131894448210005" lon="6.824666665221476" id="-20727">
		<tag k="name" v="Bergetjønn" />
		<tag k="natural" v="water" />
		<tag k="ssr:stedsnr" v="21496" />
	</node>
	<node lat="58.21466666275161" lon="6.763630559389558" id="-20733">
		<tag k="name" v="Trollandsvannet" />
		<tag k="natural" v="water" />
		<tag k="ssr:stedsnr" v="21841" />
		<tag k="water" v="lake" />
	</node>
	<node lat="58.20633055467887" lon="6.742258333900563" id="-20741">
		<tag k="name" v="Nordtjødn" />
		<tag k="natural" v="water" />
		<tag k="ssr:stedsnr" v="21897" />
	</node>
	<node lat="58.175241667933854" lon="6.7757500026022885" id="-20766">
		<tag k="name" v="Loglivatna" />
		<tag k="natural" v="water" />
		<tag k="ssr:stedsnr" v="61207" />
	</node>
	<node lat="58.191808333208414" lon="6.778566671224949" id="-20768">
		<tag k="alt_name" v="Rutlevannet" />
		<tag k="name" v="Rutlevatnet" />
		<tag k="natural" v="water" />
		<tag k="ssr:stedsnr" v="61173" />
	</node>
	<node lat="58.200061114997524" lon="6.835427772903911" id="-20769">
		<tag k="alt_name" v="Svindalstjødna" />
		<tag k="name" v="Svindalstjørna" />
		<tag k="natural" v="water" />
		<tag k="ssr:stedsnr" v="61181" />
	</node>
	<node lat="58.103852779363386" lon="6.701577771890277" id="-20786">
		<tag k="alt_name" v="Prestvannet" />
		<tag k="name" v="Prestvatnet" />
		<tag k="natural" v="water" />
		<tag k="ssr:stedsnr" v="243270" />
	</node>
	<node lat="58.171174998690795" lon="6.662919443230611" id="-20788">
		<tag k="alt_name" v="Stemsvann" />
		<tag k="name" v="Stemtjørna" />
		<tag k="natural" v="water" />
		<tag k="ssr:stedsnr" v="243181" />
	</node>
	<node lat="58.20239166882663" lon="6.903705553966274" id="-20826">
		<tag k="name" v="Langetjønn" />
		<tag k="natural" v="water" />
		<tag k="ssr:stedsnr" v="83806" />
	</node>
	<node lat="58.20757500309295" lon="6.9152472176653115" id="-20841">
		<tag k="alt_name" v="Klungelandsvannet" />
		<tag k="name" v="Klungelandsvatnet" />
=======
<osm generator="osmapis" version="0.6">
	<node id="-512512" lat="58.0860805599" lon="6.69303333499">
		<tag k="name" v="Vatnebukta" />
		<tag k="natural" v="bay" />
		<tag k="ssr:stedsnr" v="203717" />
	</node>
	<node id="-511488" lat="58.0994055555" lon="6.88074443908">
		<tag k="name" v="Udestadtjønna" />
		<tag k="natural" v="water" />
		<tag k="ssr:stedsnr" v="446503" />
		<tag k="water" v="lake" />
	</node>
	<node id="-513022" lat="58.1314999981" lon="6.80586110345">
		<tag k="name" v="Litjønn" />
		<tag k="natural" v="water" />
		<tag k="ssr:stedsnr" v="749580" />
	</node>
	<node id="-511485" lat="58.0915638849" lon="6.8874944516">
		<tag k="alt_name" v="Bjorvann" />
		<tag k="name" v="Bjåvatnet" />
		<tag k="natural" v="water" />
		<tag k="ssr:stedsnr" v="425349" />
	</node>
	<node id="-511480" lat="58.1135944464" lon="6.88870276998">
		<tag k="alt_name" v="Stemtjønn" />
		<tag k="name" v="Stemtjørna" />
		<tag k="natural" v="water" />
		<tag k="ssr:stedsnr" v="425316" />
	</node>
	<node id="-511109" lat="58.0939333374" lon="6.8777222171">
		<tag k="name" v="Moldingstjønn" />
		<tag k="natural" v="water" />
		<tag k="ssr:stedsnr" v="264510" />
	</node>
	<node id="-513010" lat="58.2189166664" lon="6.84556943736">
		<tag k="name" v="Laundalsholmen" />
		<tag k="place" v="islet" />
		<tag k="ssr:stedsnr" v="749794" />
	</node>
	<node id="-512495" lat="58.1254166673" lon="6.82615277274">
		<tag k="name" v="Myrtetjønn" />
>>>>>>> e1d4bc35ff8a6074a6f2e91616a996b547c36f15
		<tag k="natural" v="water" />
		<tag k="ssr:stedsnr" v="203548" />
	</node>
<<<<<<< HEAD
	<node lat="58.08408888674645" lon="6.699194449792542" id="-20860">
		<tag k="name" v="Rødlandsbukta" />
		<tag k="natural" v="bay" />
		<tag k="ssr:stedsnr" v="142382" />
	</node>
	<node lat="58.13786388588783" lon="6.785566668837599" id="-20867">
		<tag k="name" v="Mørkevann" />
		<tag k="natural" v="water" />
		<tag k="ssr:stedsnr" v="142548" />
	</node>
	<node lat="58.187786111941676" lon="6.763691670754702" id="-20880">
		<tag k="name" v="Vabukta" />
		<tag k="natural" v="bay" />
		<tag k="ssr:stedsnr" v="142864" />
	</node>
	<node lat="58.09393333737809" lon="6.87772221710052" id="-20916">
		<tag k="name" v="Moldingstjønn" />
		<tag k="natural" v="water" />
		<tag k="ssr:stedsnr" v="264510" />
	</node>
	<node lat="58.087819441582326" lon="6.8956416732855335" id="-20917">
		<tag k="name" v="Espelandstjønna" />
		<tag k="natural" v="water" />
		<tag k="ssr:stedsnr" v="264513" />
	</node>
	<node lat="58.16306388566097" lon="6.696013893331439" id="-20960">
		<tag k="name" v="Trolldalstjønn" />
		<tag k="natural" v="water" />
		<tag k="ssr:stedsnr" v="203411" />
	</node>
	<node lat="58.12541666726826" lon="6.826152772740855" id="-20967">
		<tag k="name" v="Myrtetjønn" />
		<tag k="natural" v="water" />
		<tag k="ssr:stedsnr" v="203548" />
	</node>
	<node lat="58.08608055991809" lon="6.693033334986552" id="-20969">
		<tag k="name" v="Vatnebukta" />
		<tag k="natural" v="bay" />
		<tag k="ssr:stedsnr" v="203717" />
	</node>
	<node lat="58.14598055259484" lon="6.685786117552165" id="-20970">
		<tag k="name" v="Storestem" />
		<tag k="natural" v="water" />
		<tag k="ssr:stedsnr" v="203721" />
	</node>
	<node lat="58.19722777490057" lon="6.738761110704604" id="-20976">
		<tag k="name" v="Grønnskartjødna" />
		<tag k="natural" v="water" />
		<tag k="ssr:stedsnr" v="203898" />
	</node>
	<node lat="58.08804166756324" lon="6.92558888653678" id="-20981">
		<tag k="name" v="Ersåkerstranda" />
		<tag k="natural" v="beach" />
		<tag k="ssr:stedsnr" v="204423" />
	</node>
	<node lat="58.16386388922554" lon="6.876477774577431" id="-20982">
		<tag k="name" v="Ospelundstjønna" />
		<tag k="natural" v="water" />
		<tag k="ssr:stedsnr" v="204801" />
	</node>
	<node lat="58.11947533338201" lon="6.560422802694873" id="-20997">
		<tag k="name" v="Fugletjønna" />
		<tag k="natural" v="water" />
		<tag k="ssr:stedsnr" v="264403" />
	</node>
	<node lat="58.1375138851849" lon="6.685205552448341" id="-21008">
		<tag k="name" v="Heimetjønna" />
		<tag k="natural" v="water" />
		<tag k="ssr:stedsnr" v="264652" />
	</node>
	<node lat="58.098524997287235" lon="6.9042694436482" id="-21010">
		<tag k="name" v="Stemtjønn" />
		<tag k="natural" v="water" />
		<tag k="ssr:stedsnr" v="264503" />
	</node>
	<node lat="58.12746110976074" lon="6.817408338638661" id="-21013">
		<tag k="name" v="Espelandsosen" />
		<tag k="natural" v="bay" />
		<tag k="ssr:stedsnr" v="264544" />
	</node>
	<node lat="58.153391669719525" lon="6.638930560446786" id="-21017">
		<tag k="name" v="Villumstemmen" />
		<tag k="natural" v="water" />
		<tag k="ssr:stedsnr" v="264706" />
	</node>
	<node lat="58.16726666517273" lon="6.715722225761845" id="-21027">
		<tag k="name" v="Libakktjønn" />
		<tag k="natural" v="water" />
		<tag k="ssr:stedsnr" v="507435" />
	</node>
	<node lat="58.21326944172899" lon="6.77847776951061" id="-21047">
		<tag k="alt_name" v="Urdevatnet" />
		<tag k="name" v="Urevannet" />
		<tag k="natural" v="water" />
		<tag k="ssr:stedsnr" v="303176" />
	</node>
	<node lat="58.19495555221879" lon="6.710280563501964" id="-21048">
		<tag k="alt_name" v="Skagelivannet" />
		<tag k="name" v="Skagelivatnet" />
		<tag k="natural" v="water" />
		<tag k="ssr:stedsnr" v="303179" />
	</node>
	<node lat="58.16005833336869" lon="6.742127775442425" id="-21064">
		<tag k="name" v="Ormevika" />
		<tag k="natural" v="bay" />
		<tag k="ssr:stedsnr" v="324474" />
	</node>
	<node lat="58.13958333354014" lon="6.848161107090649" id="-21065">
		<tag k="name" v="Flatbergtjønna" />
=======
	<node id="-513003" lat="58.1492777784" lon="6.68037499194">
		<tag k="name" v="Gulltjønn" />
		<tag k="natural" v="water" />
		<tag k="ssr:stedsnr" v="749733" />
	</node>
	<node id="-511977" lat="58.2015250013" lon="6.71835832765">
		<tag k="name" v="Langebakktjødna" />
		<tag k="natural" v="water" />
		<tag k="ssr:stedsnr" v="932888" />
	</node>
	<node id="-512997" lat="58.1901555535" lon="6.75388333342">
		<tag k="name" v="Stiodden" />
		<tag k="natural" v="cape" />
		<tag k="ssr:stedsnr" v="749473" />
	</node>
	<node id="-512996" lat="58.0722222215" lon="6.96674166151">
		<tag k="name" v="Uråstjønn" />
		<tag k="natural" v="water" />
		<tag k="ssr:stedsnr" v="749471" />
	</node>
	<node id="-512483" lat="58.1739500001" lon="6.74798888376">
		<tag k="name" v="Gjersdals Kalvenes" />
		<tag k="natural" v="cape" />
		<tag k="ssr:stedsnr" v="203473" />
	</node>
	<node id="-512482" lat="58.1630638857" lon="6.69601389333">
		<tag k="name" v="Trolldalstjønn" />
		<tag k="natural" v="water" />
		<tag k="ssr:stedsnr" v="203411" />
	</node>
	<node id="-511963" lat="58.0777249982" lon="6.72013888191">
		<tag k="name" v="Kalvodden" />
		<tag k="natural" v="cape" />
		<tag k="ssr:stedsnr" v="932460" />
	</node>
	<node id="-511962" lat="58.0913277806" lon="6.97089445266">
		<tag k="name" v="Lomtjønna" />
		<tag k="natural" v="water" />
		<tag k="ssr:stedsnr" v="932455" />
	</node>
	<node id="-511959" lat="58.0858972189" lon="6.98138888958">
		<tag k="name" v="Stemtjønn" />
		<tag k="natural" v="water" />
		<tag k="ssr:stedsnr" v="932452" />
	</node>
	<node id="-511445" lat="58.0915805528" lon="6.73336388406">
		<tag k="name" v="Grimsbykilen" />
		<tag k="natural" v="bay" />
		<tag k="ssr:stedsnr" v="507601" />
	</node>
	<node id="-511441" lat="58.127600002" lon="6.81355834111">
		<tag k="alt_name" v="Langevann" />
		<tag k="name" v="Langvann" />
		<tag k="natural" v="water" />
		<tag k="ssr:stedsnr" v="507543" />
		<tag k="water" v="lake" />
	</node>
	<node id="-512574" lat="58.1330138905" lon="6.85001111339">
		<tag k="name" v="Litlatjønna" />
		<tag k="natural" v="water" />
		<tag k="ssr:stedsnr" v="324460" />
	</node>
	<node id="-511948" lat="58.2253111101" lon="6.8177222295">
		<tag k="name" v="Hånne" />
		<tag k="natural" v="cape" />
		<tag k="ssr:stedsnr" v="932737" />
	</node>
	<node id="-512459" lat="58.1051194435" lon="6.90636944797">
		<tag k="alt_name" v="Viksvann" />
		<tag k="name" v="Viksvatnet" />
		<tag k="natural" v="water" />
		<tag k="ssr:stedsnr" v="182275" />
	</node>
	<node id="-511654" lat="58.1618499983" lon="6.76439444646">
		<tag k="name" v="Logedalstjønn" />
		<tag k="natural" v="water" />
		<tag k="ssr:stedsnr" v="689901" />
	</node>
	<node id="-512457" lat="58.1269666687" lon="6.85126111256">
		<tag k="alt_name" v="Laulandstjønna" />
		<tag k="name" v="Lauvlandsvatnet" />
		<tag k="natural" v="water" />
		<tag k="ssr:stedsnr" v="182267" />
	</node>
	<node id="-512456" lat="58.1268027765" lon="6.71073333316">
		<tag k="alt_name" v="Hallandsvatnet" />
		<tag k="name" v="Hallandsvannet" />
		<tag k="natural" v="water" />
		<tag k="ssr:stedsnr" v="182261" />
	</node>
	<node id="-512455" lat="58.1259166701" lon="6.66377777229">
		<tag k="alt_name" v="Kleivelandsvannet" />
		<tag k="name" v="Kleivlandsvatnet" />
		<tag k="natural" v="water" />
		<tag k="ssr:stedsnr" v="182257" />
	</node>
	<node id="-512452" lat="58.2272333371" lon="6.81770278146">
		<tag k="alt_name" v="Handelandsvatnet" />
		<tag k="name" v="Handelandsvannet" />
		<tag k="natural" v="water" />
		<tag k="ssr:stedsnr" v="182133" />
		<tag k="water" v="lake" />
	</node>
	<node id="-512963" lat="58.1985777795" lon="6.82654166365">
		<tag k="name" v="Timrestø" />
		<tag k="natural" v="bay" />
		<tag k="ssr:stedsnr" v="628796" />
	</node>
	<node id="-512962" lat="58.2065111137" lon="6.8271472177">
		<tag k="name" v="Svartbekk" />
		<tag k="ssr:stedsnr" v="628792" />
		<tag k="waterway" v="stream" />
	</node>
	<node id="-512961" lat="58.1430166706" lon="6.66304444711">
		<tag k="name" v="Elvetjønn" />
		<tag k="natural" v="water" />
		<tag k="ssr:stedsnr" v="628649" />
	</node>
	<node id="-511933" lat="58.0634361101" lon="6.96531389481">
		<tag k="name" v="Kyråstjønn" />
		<tag k="natural" v="water" />
		<tag k="ssr:stedsnr" v="932427" />
	</node>
	<node id="-511420" lat="58.0813722237" lon="6.68413333005">
		<tag k="name" v="Bjødnen" />
		<tag k="natural" v="cape" />
		<tag k="ssr:stedsnr" v="507376" />
	</node>
	<node id="-511931" lat="58.1683888884" lon="6.69421388892">
		<tag k="name" v="Salstjønn" />
		<tag k="natural" v="water" />
		<tag k="ssr:stedsnr" v="932362" />
	</node>
	<node id="-511107" lat="58.0985249973" lon="6.90426944365">
		<tag k="name" v="Stemtjønn" />
		<tag k="natural" v="water" />
		<tag k="ssr:stedsnr" v="264503" />
	</node>
	<node id="-511561" lat="58.1197166688" lon="6.92376667389">
		<tag k="name" v="Storetjønn" />
		<tag k="natural" v="water" />
		<tag k="ssr:stedsnr" v="506933" />
	</node>
	<node id="-511923" lat="58.1690250041" lon="6.80176110957">
		<tag k="alt_name" v="Sandsheivannet" />
		<tag k="name" v="Salvestjørna" />
		<tag k="natural" v="water" />
		<tag k="ssr:stedsnr" v="789211" />
	</node>
	<node id="-512946" lat="58.0943972199" lon="6.77198611331">
		<tag k="name" v="Mosvolltjønn" />
>>>>>>> e1d4bc35ff8a6074a6f2e91616a996b547c36f15
		<tag k="natural" v="water" />
		<tag k="ssr:stedsnr" v="628592" />
	</node>
<<<<<<< HEAD
	<node lat="58.080505555505326" lon="6.7274000065795" id="-21067">
		<tag k="name" v="Storeholmen" />
		<tag k="place" v="islet" />
		<tag k="ssr:stedsnr" v="324490" />
	</node>
	<node lat="58.17563333376937" lon="6.6569888920986315" id="-21068">
		<tag k="name" v="Migaren" />
		<tag k="ssr:stedsnr" v="324492" />
		<tag k="waterway" v="stream" />
	</node>
	<node lat="58.086841663081124" lon="6.738641668287092" id="-21069">
		<tag k="name" v="Grønnodden" />
		<tag k="natural" v="cape" />
		<tag k="ssr:stedsnr" v="324602" />
	</node>
	<node lat="58.176726438181255" lon="6.921091072548867" id="-21076">
		<tag k="name" v="Hunsvann" />
		<tag k="natural" v="water" />
		<tag k="ssr:stedsnr" v="324748" />
		<tag k="water" v="lake" />
	</node>
	<node lat="58.12563889237977" lon="6.67368333295613" id="-21078">
		<tag k="name" v="Jåtogkilen" />
		<tag k="natural" v="bay" />
		<tag k="ssr:stedsnr" v="324757" />
	</node>
	<node lat="58.167441667952616" lon="6.788238890401003" id="-21087">
		<tag k="name" v="Krossvannan" />
		<tag k="natural" v="water" />
		<tag k="ssr:stedsnr" v="324927" />
		<tag k="water" v="lake" />
	</node>
	<node lat="58.21233055781962" lon="6.896441663834571" id="-21090">
		<tag k="name" v="Dunkerdalstjødna" />
		<tag k="natural" v="water" />
		<tag k="ssr:stedsnr" v="325791" />
	</node>
	<node lat="58.15689444767595" lon="6.637850003677021" id="-21099">
		<tag k="alt_name" v="Rydjordvatnet" />
		<tag k="name" v="Rudjordsvannet" />
		<tag k="natural" v="water" />
		<tag k="ssr:stedsnr" v="364253" />
	</node>
	<node lat="58.16819167096058" lon="6.657011115565962" id="-21100">
		<tag k="alt_name" v="Midvann" />
		<tag k="name" v="Råna" />
		<tag k="natural" v="water" />
		<tag k="ssr:stedsnr" v="364210" />
	</node>
	<node lat="58.22561111508035" lon="6.84773054927433" id="-21106">
		<tag k="name" v="Oppoftsvann" />
		<tag k="natural" v="water" />
		<tag k="ssr:stedsnr" v="546150" />
		<tag k="water" v="lake" />
	</node>
	<node lat="58.0821250022036" lon="6.67293332750562" id="-21114">
		<tag k="name" v="Åna" />
		<tag k="ssr:stedsnr" v="385405" />
		<tag k="waterway" v="river" />
	</node>
	<node lat="58.062713885081706" lon="6.963074995290598" id="-21116">
		<tag k="name" v="Viestadtjønn" />
		<tag k="natural" v="water" />
		<tag k="ssr:stedsnr" v="385444" />
	</node>
	<node lat="58.22248611084167" lon="6.810869436533605" id="-21132">
		<tag k="name" v="Handelandsvannet" />
		<tag k="natural" v="water" />
		<tag k="ssr:stedsnr" v="385847" />
		<tag k="water" v="lake" />
	</node>
	<node lat="58.20199444846549" lon="6.885491670128821" id="-21141">
		<tag k="name" v="Drangsåna" />
		<tag k="ssr:stedsnr" v="386805" />
		<tag k="waterway" v="river" />
	</node>
	<node lat="58.19644167098047" lon="6.725566673958395" id="-21150">
		<tag k="alt_name" v="Kjørkleivvannet" />
		<tag k="name" v="Stemsvann" />
=======
	<node id="-511921" lat="58.0857416684" lon="6.6860194371">
		<tag k="alt_name" v="Nesheimsvatnet" />
		<tag k="name" v="Nesheimvannet" />
		<tag k="natural" v="water" />
		<tag k="ssr:stedsnr" v="789358" />
		<tag k="water" v="lake" />
	</node>
	<node id="-512938" lat="58.0981250042" lon="6.85270555626">
		<tag k="name" v="Småtjønn" />
		<tag k="natural" v="water" />
		<tag k="ssr:stedsnr" v="628391" />
	</node>
	<node id="-511397" lat="58.2019944485" lon="6.88549167013">
		<tag k="name" v="Drangsåna" />
		<tag k="ssr:stedsnr" v="386805" />
		<tag k="waterway" v="river" />
	</node>
	<node id="-512411" lat="58.0924305589" lon="6.84752500414">
		<tag k="name" v="Nøtlandstjønna" />
		<tag k="natural" v="water" />
		<tag k="ssr:stedsnr" v="143358" />
	</node>
	<node id="-511038" lat="58.1038527794" lon="6.70157777189">
		<tag k="alt_name" v="Prestvannet" />
		<tag k="name" v="Prestvatnet" />
		<tag k="natural" v="water" />
		<tag k="ssr:stedsnr" v="243270" />
	</node>
	<node id="-511903" lat="58.1253749969" lon="6.8176305511">
		<tag k="alt_name" v="Måvann" />
		<tag k="name" v="Måvatnet" />
		<tag k="natural" v="water" />
		<tag k="ssr:stedsnr" v="911299" />
	</node>
	<node id="-511390" lat="58.1679416665" lon="6.78285554794">
		<tag k="name" v="Svartevannet" />
		<tag k="natural" v="water" />
		<tag k="ssr:stedsnr" v="385929" />
		<tag k="water" v="lake" />
	</node>
	<node id="-512923" lat="58.1053277765" lon="6.88644167424">
		<tag k="alt_name" v="Lønningsvannet" />
		<tag k="name" v="Løyningstjørna" />
		<tag k="natural" v="water" />
		<tag k="ssr:stedsnr" v="606276" />
	</node>
	<node id="-512410" lat="58.1813694418" lon="6.70826667395">
		<tag k="name" v="Blokketjønn" />
		<tag k="natural" v="water" />
		<tag k="ssr:stedsnr" v="142998" />
	</node>
	<node id="-512921" lat="58.1239111093" lon="6.80780277702">
		<tag k="alt_name" v="Midtvann" />
		<tag k="name" v="Midtvatnet" />
		<tag k="natural" v="water" />
		<tag k="ssr:stedsnr" v="606245" />
	</node>
	<node id="-513092" lat="58.1432083302" lon="6.79682776953">
		<tag k="name" v="Sandstjønn" />
		<tag k="natural" v="water" />
		<tag k="ssr:stedsnr" v="789276" />
	</node>
	<node id="-512406" lat="58.1905416653" lon="6.84359166843">
		<tag k="name" v="Gunndammen" />
		<tag k="natural" v="water" />
		<tag k="ssr:stedsnr" v="142973" />
		<tag k="water" v="pond" />
	</node>
	<node id="-511893" lat="58.121952774" lon="6.79803889673">
		<tag k="alt_name" v="Skidvann" />
		<tag k="name" v="Skittvatnet" />
>>>>>>> e1d4bc35ff8a6074a6f2e91616a996b547c36f15
		<tag k="natural" v="water" />
		<tag k="ssr:stedsnr" v="485149" />
		<tag k="water" v="lake" />
	</node>
<<<<<<< HEAD
	<node lat="58.08352500232611" lon="6.758169438821688" id="-21159">
		<tag k="alt_name" v="Kråkenesvannet;Krågenesvannet" />
		<tag k="name" v="Kråkenesvatnet" />
		<tag k="natural" v="water" />
		<tag k="ssr:stedsnr" v="485260" />
	</node>
	<node lat="58.103225001170344" lon="6.991825001138673" id="-21168">
		<tag k="alt_name" v="Skiftestjønn" />
		<tag k="name" v="Skiftingstjørn" />
		<tag k="natural" v="water" />
		<tag k="ssr:stedsnr" v="485456" />
	</node>
	<node lat="58.0915507459464" lon="6.887475819146711" id="-21188">
		<tag k="name" v="Bjorvannet" />
		<tag k="natural" v="water" />
		<tag k="ssr:stedsnr" v="425349" />
	</node>
	<node lat="58.1426777766507" lon="6.841669449886888" id="-21191">
		<tag k="name" v="Bedringåstjønna" />
		<tag k="natural" v="water" />
		<tag k="ssr:stedsnr" v="446526" />
	</node>
	<node lat="58.09940555548293" lon="6.880744439076603" id="-21193">
		<tag k="name" v="Udestadtjønna" />
		<tag k="natural" v="water" />
		<tag k="ssr:stedsnr" v="446503" />
		<tag k="water" v="lake" />
	</node>
	<node lat="58.11803610951774" lon="6.724563897477282" id="-21201">
		<tag k="name" v="Veisa" />
		<tag k="natural" v="water" />
		<tag k="ssr:stedsnr" v="446633" />
	</node>
	<node lat="58.13110277892194" lon="6.783805550110294" id="-21204">
		<tag k="name" v="Tverrbekken" />
		<tag k="ssr:stedsnr" v="446578" />
		<tag k="waterway" v="stream" />
	</node>
	<node lat="58.12968055190787" lon="6.78489999348475" id="-21205">
		<tag k="name" v="Blokktjønn" />
		<tag k="natural" v="water" />
		<tag k="ssr:stedsnr" v="446580" />
	</node>
	<node lat="58.2069111086976" lon="6.75265278635343" id="-21213">
		<tag k="name" v="Sandviktjødna" />
		<tag k="natural" v="water" />
		<tag k="ssr:stedsnr" v="446911" />
	</node>
	<node lat="58.20748055857432" lon="6.893791664320539" id="-21224">
		<tag k="name" v="Kattundalstjønn" />
		<tag k="natural" v="water" />
		<tag k="ssr:stedsnr" v="447773" />
	</node>
	<node lat="58.18652499904092" lon="6.763444446739697" id="-21242">
		<tag k="name" v="Gjersdalstjødna" />
		<tag k="natural" v="water" />
		<tag k="ssr:stedsnr" v="506859" />
	</node>
	<node lat="58.081372223691226" lon="6.684133330049982" id="-21250">
		<tag k="name" v="Bjødnen" />
		<tag k="natural" v="cape" />
		<tag k="ssr:stedsnr" v="507376" />
	</node>
	<node lat="58.09605277458862" lon="6.844069448264796" id="-21251">
		<tag k="name" v="Bekkeviktjønna" />
		<tag k="natural" v="water" />
		<tag k="ssr:stedsnr" v="507379" />
	</node>
	<node lat="58.14712778216245" lon="6.820202783819444" id="-21252">
		<tag k="name" v="Torjebekken" />
		<tag k="ssr:stedsnr" v="507506" />
		<tag k="waterway" v="stream" />
	</node>
	<node lat="58.08364444042142" lon="6.744944441222483" id="-21256">
		<tag k="name" v="Stokkesundet" />
		<tag k="natural" v="bay" />
		<tag k="ssr:stedsnr" v="507457" />
	</node>
	<node lat="58.139419441089146" lon="6.634930559188507" id="-21267">
		<tag k="name" v="Midtstemmen" />
		<tag k="natural" v="water" />
		<tag k="ssr:stedsnr" v="507712" />
	</node>
	<node lat="58.194886109790154" lon="6.810088894745392" id="-21285">
		<tag k="alt_name" v="Strupen" />
		<tag k="name" v="Strupåna" />
		<tag k="ssr:stedsnr" v="546175" />
		<tag k="waterway" v="stream" />
	</node>
	<node lat="58.20341666864783" lon="6.73124999489411" id="-21286">
		<tag k="alt_name" v="Kinnevannet" />
		<tag k="name" v="Tjørnsvatnet" />
		<tag k="natural" v="water" />
		<tag k="ssr:stedsnr" v="546177" />
	</node>
	<node lat="58.18684444089173" lon="6.741666662629047" id="-21295">
		<tag k="name" v="Stølstrand" />
		<tag k="natural" v="beach" />
		<tag k="ssr:stedsnr" v="689426" />
	</node>
	<node lat="58.08866944649704" lon="6.967175003167399" id="-21304">
		<tag k="name" v="Tonsbergtjønna" />
		<tag k="natural" v="water" />
		<tag k="ssr:stedsnr" v="689450" />
	</node>
	<node lat="58.07151944287419" lon="6.733369436140846" id="-21305">
		<tag k="name" v="Oteråna" />
		<tag k="ssr:stedsnr" v="689451" />
		<tag k="waterway" v="river" />
	</node>
	<node lat="58.096611114783606" lon="6.9704527739313145" id="-21309">
		<tag k="name" v="Kårikstadtjønna" />
		<tag k="natural" v="water" />
		<tag k="ssr:stedsnr" v="689461" />
	</node>
	<node lat="58.09681110867117" lon="6.731730559780163" id="-21319">
		<tag k="name" v="Duetjønn" />
		<tag k="natural" v="water" />
		<tag k="ssr:stedsnr" v="689569" />
	</node>
	<node lat="58.13238055529498" lon="6.631711109246484" id="-21324">
		<tag k="name" v="Skeibrokstemmen" />
		<tag k="natural" v="water" />
		<tag k="ssr:stedsnr" v="689655" />
	</node>
	<node lat="58.21000555174108" lon="6.9187722147847435" id="-21344">
		<tag k="name" v="Mannehølen" />
		<tag k="place" v="locality" />
		<tag k="ssr:stedsnr" v="689973" />
	</node>
	<node lat="58.174155559605886" lon="6.74530278358764" id="-21350">
		<tag k="name" v="Kolnesodden" />
		<tag k="natural" v="cape" />
		<tag k="ssr:stedsnr" v="567428" />
	</node>
	<node lat="58.07886944073155" lon="6.6791027827118015" id="-21354">
		<tag k="name" v="Kviljobukta" />
		<tag k="natural" v="bay" />
		<tag k="ssr:stedsnr" v="567376" />
	</node>
	<node lat="58.11600000287728" lon="6.665411104023588" id="-21366">
=======
	<node id="-512400" lat="58.195916668" lon="6.79605278267">
		<tag k="name" v="Hølan" />
		<tag k="natural" v="water" />
		<tag k="ssr:stedsnr" v="142877" />
		<tag k="water" v="lake" />
	</node>
	<node id="-512399" lat="58.1854499955" lon="6.78454721864">
		<tag k="name" v="Ormetjødn" />
		<tag k="natural" v="water" />
		<tag k="ssr:stedsnr" v="142875" />
	</node>
	<node id="-512397" lat="58.1877861119" lon="6.76369167075">
		<tag k="name" v="Vabukta" />
		<tag k="natural" v="bay" />
		<tag k="ssr:stedsnr" v="142864" />
	</node>
	<node id="-511569" lat="58.0836444404" lon="6.74494444122">
		<tag k="name" v="Stokkesundet" />
		<tag k="natural" v="bay" />
		<tag k="ssr:stedsnr" v="507457" />
	</node>
	<node id="-511368" lat="58.1467888859" lon="6.74126111166">
		<tag k="name" v="Launes" />
		<tag k="natural" v="cape" />
		<tag k="ssr:stedsnr" v="385618" />
	</node>
	<node id="-511363" lat="58.1332916627" lon="6.81856666187">
		<tag k="name" v="Botnetjønn" />
		<tag k="natural" v="water" />
		<tag k="ssr:stedsnr" v="385462" />
	</node>
	<node id="-511362" lat="58.0821250022" lon="6.67293332751">
		<tag k="name" v="Åna" />
		<tag k="ssr:stedsnr" v="385405" />
		<tag k="waterway" v="river" />
	</node>
	<node id="-511360" lat="58.168191671" lon="6.65701111557">
		<tag k="alt_name" v="Midvann" />
		<tag k="name" v="Råna" />
		<tag k="natural" v="water" />
		<tag k="ssr:stedsnr" v="364210" />
	</node>
	<node id="-512376" lat="58.1416111117" lon="6.80308611145">
		<tag k="name" v="Ospetjønn" />
		<tag k="natural" v="water" />
		<tag k="ssr:stedsnr" v="142558" />
	</node>
	<node id="-512375" lat="58.1311222235" lon="6.79645833169">
		<tag k="name" v="Ragnhildstjønn" />
		<tag k="natural" v="water" />
		<tag k="ssr:stedsnr" v="142556" />
	</node>
	<node id="-512374" lat="58.1311111127" lon="6.76111943946">
		<tag k="name" v="Holmevann" />
		<tag k="natural" v="water" />
		<tag k="ssr:stedsnr" v="142555" />
		<tag k="water" v="lake" />
	</node>
	<node id="-512373" lat="58.1378638859" lon="6.78556666884">
		<tag k="name" v="Mørkevann" />
		<tag k="natural" v="water" />
		<tag k="ssr:stedsnr" v="142548" />
	</node>
	<node id="-513396" lat="58.1302771621" lon="6.72412950455">
		<tag k="name" v="Eitlandsbekken" />
		<tag k="ssr:stedsnr" v="990475" />
		<tag k="waterway" v="stream" />
	</node>
	<node id="-511859" lat="58.084663885" lon="6.87489443888">
		<tag k="name" v="Hovdetjønna" />
		<tag k="natural" v="water" />
		<tag k="ssr:stedsnr" v="907168" />
	</node>
	<node id="-511123" lat="58.1375138852" lon="6.68520555245">
		<tag k="name" v="Heimetjønna" />
		<tag k="natural" v="water" />
		<tag k="ssr:stedsnr" v="264652" />
	</node>
	<node id="-512878" lat="58.104408334" lon="6.85825278579">
		<tag k="name" v="Bryggetjønn" />
		<tag k="natural" v="water" />
		<tag k="ssr:stedsnr" v="568448" />
	</node>
	<node id="-511633" lat="58.1008305585" lon="6.68577222968">
		<tag k="name" v="Sandvika" />
		<tag k="natural" v="bay" />
		<tag k="ssr:stedsnr" v="689696" />
	</node>
	<node id="-513383" lat="58.1928271419" lon="6.79855240767">
		<tag k="name" v="Åptefossen" />
		<tag k="natural" v="waterfall" />
		<tag k="ssr:stedsnr" v="986821" />
	</node>
	<node id="-512869" lat="58.2111388847" lon="6.76017777898">
		<tag k="name" v="Grimestadtjødna" />
		<tag k="natural" v="water" />
		<tag k="ssr:stedsnr" v="567892" />
	</node>
	<node id="-512867" lat="58.2035222224" lon="6.7706027718">
		<tag k="name" v="Bjortjødn" />
		<tag k="natural" v="water" />
		<tag k="ssr:stedsnr" v="567882" />
	</node>
	<node id="-511547" lat="58.1032250012" lon="6.99182500114">
		<tag k="alt_name" v="Skiftestjønn" />
		<tag k="name" v="Skiftingstjørn" />
		<tag k="natural" v="water" />
		<tag k="ssr:stedsnr" v="485456" />
	</node>
	<node id="-512862" lat="58.2223888861" lon="6.8658499928">
		<tag k="name" v="Svartetjødn" />
		<tag k="natural" v="water" />
		<tag k="ssr:stedsnr" v="567760" />
	</node>
	<node id="-512860" lat="58.1787916704" lon="6.89030277864">
		<tag k="name" v="Bergtjønn" />
		<tag k="natural" v="water" />
		<tag k="ssr:stedsnr" v="567754" />
	</node>
	<node id="-512346" lat="58.0840888867" lon="6.69919444979">
		<tag k="name" v="Rødlandsbukta" />
		<tag k="natural" v="bay" />
		<tag k="ssr:stedsnr" v="142382" />
	</node>
	<node id="-511887" lat="58.1677972187" lon="6.70626666048">
		<tag k="alt_name" v="Frøystivannet" />
		<tag k="name" v="Frøystivatnet" />
		<tag k="natural" v="water" />
		<tag k="ssr:stedsnr" v="910211" />
	</node>
	<node id="-511320" lat="58.1286749961" lon="6.82342777158">
		<tag k="name" v="Espelandstjønna" />
		<tag k="natural" v="water" />
		<tag k="ssr:stedsnr" v="324455" />
	</node>
	<node id="-512853" lat="58.1160000029" lon="6.66541110402">
>>>>>>> e1d4bc35ff8a6074a6f2e91616a996b547c36f15
		<tag k="name" v="Limtjønn" />
		<tag k="natural" v="water" />
		<tag k="ssr:stedsnr" v="567706" />
	</node>
<<<<<<< HEAD
	<node lat="58.222388886077056" lon="6.8658499927959085" id="-21371">
		<tag k="name" v="Svartetjødn" />
=======
	<node id="-511459" lat="58.2034416633" lon="6.90651944311">
		<tag k="name" v="Smaltjønn" />
>>>>>>> e1d4bc35ff8a6074a6f2e91616a996b547c36f15
		<tag k="natural" v="water" />
		<tag k="ssr:stedsnr" v="567760" />
	</node>
<<<<<<< HEAD
	<node lat="58.14301667060913" lon="6.663044447109295" id="-21426">
		<tag k="name" v="Elvetjønn" />
		<tag k="natural" v="water" />
		<tag k="ssr:stedsnr" v="628649" />
	</node>
	<node lat="58.130699996553936" lon="6.694780559907487" id="-21427">
		<tag k="name" v="Grostøltjønna" />
=======
	<node id="-511311" lat="58.0942888875" lon="6.69116943775">
		<tag k="alt_name" v="Bryneåna" />
		<tag k="name" v="Brynebekken" />
		<tag k="ssr:stedsnr" v="303872" />
		<tag k="waterway" v="stream" />
	</node>
	<node id="-511629" lat="58.1323805553" lon="6.63171110925">
		<tag k="name" v="Skeibrokstemmen" />
>>>>>>> e1d4bc35ff8a6074a6f2e91616a996b547c36f15
		<tag k="natural" v="water" />
		<tag k="ssr:stedsnr" v="628654" />
	</node>
	<node lat="58.094397219911315" lon="6.7719861133089845" id="-21432">
		<tag k="name" v="Mosvolltjønn" />
		<tag k="natural" v="water" />
		<tag k="ssr:stedsnr" v="628592" />
	</node>
	<node lat="58.2065111137088" lon="6.827147217701527" id="-21437">
		<tag k="name" v="Svartbekk" />
		<tag k="ssr:stedsnr" v="628792" />
		<tag k="waterway" v="stream" />
	</node>
<<<<<<< HEAD
	<node lat="58.198577779518395" lon="6.826541663651564" id="-21438">
		<tag k="name" v="Timrestø" />
		<tag k="natural" v="bay" />
		<tag k="ssr:stedsnr" v="628796" />
	</node>
	<node lat="58.18383333239001" lon="6.722886110823871" id="-21465">
		<tag k="alt_name" v="Dalevann" />
		<tag k="name" v="Dalevatnet" />
		<tag k="natural" v="water" />
		<tag k="ssr:stedsnr" v="667206" />
	</node>
	<node lat="58.099472219321974" lon="6.680719440353584" id="-21469">
		<tag k="alt_name" v="Brastadvannet" />
		<tag k="name" v="Brastadvatnet" />
		<tag k="natural" v="water" />
		<tag k="ssr:stedsnr" v="667286" />
	</node>
	<node lat="58.08819999775924" lon="6.913700005179553" id="-21482">
		<tag k="name" v="Lauringtjønn" />
		<tag k="natural" v="water" />
		<tag k="ssr:stedsnr" v="689480" />
	</node>
	<node lat="58.166347219658356" lon="6.66737500680036" id="-21489">
		<tag k="name" v="Åvolltjønn" />
		<tag k="natural" v="water" />
		<tag k="ssr:stedsnr" v="689380" />
	</node>
	<node lat="58.12734444377217" lon="6.7686750006893375" id="-21494">
		<tag k="name" v="Fisteltjønn" />
		<tag k="natural" v="water" />
		<tag k="ssr:stedsnr" v="689594" />
	</node>
	<node lat="58.099411110850724" lon="6.685113892827505" id="-21500">
		<tag k="name" v="Holmen" />
		<tag k="natural" v="cape" />
		<tag k="ssr:stedsnr" v="689695" />
	</node>
	<node lat="58.10083055847595" lon="6.685772229678333" id="-21501">
		<tag k="name" v="Sandvika" />
		<tag k="natural" v="bay" />
		<tag k="ssr:stedsnr" v="689696" />
	</node>
	<node lat="58.173902773981524" lon="6.794002782301603" id="-21503">
		<tag k="name" v="Heimartjødn" />
=======
	<node id="-513081" lat="58.1885638923" lon="6.71745278062">
		<tag k="alt_name" v="Ronevannet" />
		<tag k="name" v="Rånevatnet" />
		<tag k="natural" v="water" />
		<tag k="ssr:stedsnr" v="788188" />
	</node>
	<node id="-511305" lat="58.2132694417" lon="6.77847776951">
		<tag k="alt_name" v="Urdevatnet" />
		<tag k="name" v="Urevannet" />
		<tag k="natural" v="water" />
		<tag k="ssr:stedsnr" v="303176" />
	</node>
	<node id="-512327" lat="58.1477749971" lon="6.70707500678">
		<tag k="alt_name" v="Ulgjelsvannet" />
		<tag k="name" v="Ulgjellvatnet" />
		<tag k="natural" v="water" />
		<tag k="ssr:stedsnr" v="121252" />
	</node>
	<node id="-512835" lat="58.1358555535" lon="6.72301944373">
		<tag k="name" v="Andråstjønn" />
		<tag k="natural" v="water" />
		<tag k="ssr:stedsnr" v="567551" />
	</node>
	<node id="-511200" lat="58.0926805519" lon="6.90281110688">
		<tag k="name" v="Kirketjønn" />
>>>>>>> e1d4bc35ff8a6074a6f2e91616a996b547c36f15
		<tag k="natural" v="water" />
		<tag k="ssr:stedsnr" v="689808" />
	</node>
<<<<<<< HEAD
	<node lat="58.20353889032699" lon="6.744983337020327" id="-21507">
		<tag k="name" v="Spangreitjødn" />
		<tag k="natural" v="water" />
		<tag k="ssr:stedsnr" v="689893" />
	</node>
	<node lat="58.161849998316235" lon="6.764394446455263" id="-21508">
		<tag k="name" v="Logedalstjønn" />
		<tag k="natural" v="water" />
		<tag k="ssr:stedsnr" v="689901" />
	</node>
	<node lat="58.144775002070055" lon="6.724925003539989" id="-21525">
		<tag k="alt_name" v="Krossvannet" />
		<tag k="name" v="Krossvatnet" />
		<tag k="natural" v="water" />
		<tag k="ssr:stedsnr" v="728220" />
	</node>
	<node lat="58.11160555956769" lon="6.8954250005640985" id="-21527">
		<tag k="alt_name" v="Hengenesvannet" />
		<tag k="name" v="Hengenestjørna" />
		<tag k="natural" v="water" />
		<tag k="ssr:stedsnr" v="728273" />
	</node>
	<node lat="58.09616944851423" lon="6.869013888448106" id="-21529">
		<tag k="alt_name" v="Nenningvann" />
		<tag k="name" v="Nenningsvatnet" />
		<tag k="natural" v="water" />
		<tag k="ssr:stedsnr" v="728292" />
	</node>
	<node lat="58.072222221541644" lon="6.966741661512712" id="-21542">
		<tag k="name" v="Uråstjønn" />
		<tag k="natural" v="water" />
		<tag k="ssr:stedsnr" v="749471" />
	</node>
	<node lat="58.190155553493376" lon="6.753883333418172" id="-21543">
		<tag k="name" v="Stiodden" />
		<tag k="natural" v="cape" />
		<tag k="ssr:stedsnr" v="749473" />
	</node>
	<node lat="58.13149999814126" lon="6.805861103452739" id="-21553">
		<tag k="name" v="Litjønn" />
		<tag k="natural" v="water" />
		<tag k="ssr:stedsnr" v="749580" />
	</node>
	<node lat="58.22506625591613" lon="6.825471988623447" id="-21574">
		<tag k="name" v="Volletjødn" />
		<tag k="natural" v="water" />
		<tag k="ssr:stedsnr" v="759359" />
	</node>
	<node lat="58.12305278186712" lon="6.731605558263023" id="-21613">
		<tag k="alt_name" v="Monetjønna" />
		<tag k="name" v="Monetjørna" />
		<tag k="natural" v="water" />
		<tag k="ssr:stedsnr" v="788259" />
	</node>
	<node lat="58.12537499692708" lon="6.817630551101221" id="-21615">
		<tag k="alt_name" v="Måvann" />
		<tag k="name" v="Måvatnet" />
		<tag k="natural" v="water" />
		<tag k="ssr:stedsnr" v="911299" />
	</node>
	<node lat="58.182644446799564" lon="6.712652780711471" id="-21616">
		<tag k="alt_name" v="Vivivann" />
		<tag k="name" v="Vivivatnet" />
		<tag k="natural" v="water" />
		<tag k="ssr:stedsnr" v="789206" />
	</node>
	<node lat="58.085741668424994" lon="6.686019437103486" id="-21617">
		<tag k="alt_name" v="Nesheimsvatnet" />
		<tag k="name" v="Nesheimvannet" />
		<tag k="natural" v="water" />
		<tag k="ssr:stedsnr" v="789358" />
		<tag k="water" v="lake" />
	</node>
	<node lat="58.09109167082872" lon="6.910719440213627" id="-21621">
		<tag k="name" v="Slåttetjønn" />
		<tag k="natural" v="water" />
		<tag k="ssr:stedsnr" v="810510" />
	</node>
	<node lat="58.085588888887514" lon="6.984019449498542" id="-21643">
		<tag k="name" v="Fossen" />
		<tag k="natural" v="waterfall" />
		<tag k="ssr:stedsnr" v="811447" />
	</node>
	<node lat="58.13440000230627" lon="6.783986104184583" id="-21669">
		<tag k="alt_name" v="Sandvann" />
		<tag k="name" v="Sandvatnet" />
		<tag k="natural" v="water" />
		<tag k="ssr:stedsnr" v="850236" />
	</node>
	<node lat="58.16315278099864" lon="6.655486114684977" id="-21672">
		<tag k="name" v="Heskestadtjønn" />
		<tag k="natural" v="water" />
		<tag k="ssr:stedsnr" v="871367" />
	</node>
	<node lat="58.16838888837341" lon="6.694213888920787" id="-21698">
		<tag k="name" v="Salstjønn" />
		<tag k="natural" v="water" />
		<tag k="ssr:stedsnr" v="932362" />
	</node>
	<node lat="58.0634361100554" lon="6.965313894810485" id="-21705">
		<tag k="name" v="Kyråstjønn" />
		<tag k="natural" v="water" />
		<tag k="ssr:stedsnr" v="932427" />
	</node>
	<node lat="58.085897218911306" lon="6.981388889581487" id="-21720">
		<tag k="name" v="Stemtjønn" />
		<tag k="natural" v="water" />
		<tag k="ssr:stedsnr" v="932452" />
	</node>
	<node lat="58.091327780563006" lon="6.970894452664562" id="-21723">
		<tag k="name" v="Lomtjønna" />
		<tag k="natural" v="water" />
		<tag k="ssr:stedsnr" v="932455" />
	</node>
	<node lat="58.077724998152696" lon="6.720138881914471" id="-21724">
		<tag k="name" v="Kalvodden" />
		<tag k="natural" v="cape" />
		<tag k="ssr:stedsnr" v="932460" />
	</node>
	<node lat="58.20152500125165" lon="6.718358327653912" id="-21738">
		<tag k="name" v="Langebakktjødna" />
		<tag k="natural" v="water" />
		<tag k="ssr:stedsnr" v="932888" />
	</node>
	<node lat="58.22531111014233" lon="6.817722229496433" id="-21745">
		<tag k="name" v="Hånne" />
		<tag k="natural" v="cape" />
		<tag k="ssr:stedsnr" v="932737" />
	</node>
	<node lat="58.20518611422259" lon="6.876394444497313" id="-21751">
		<tag k="name" v="Fallbekken" />
		<tag k="ssr:stedsnr" v="932770" />
		<tag k="waterway" v="stream" />
	</node>
	<node lat="58.084663884967846" lon="6.874894438883421" id="-21777">
		<tag k="name" v="Hovdetjønna" />
		<tag k="natural" v="water" />
		<tag k="ssr:stedsnr" v="907168" />
	</node>
	<node lat="58.167797218672945" lon="6.706266660478931" id="-21784">
		<tag k="alt_name" v="Frøystivannet" />
		<tag k="name" v="Frøystivatnet" />
		<tag k="natural" v="water" />
		<tag k="ssr:stedsnr" v="910211" />
	</node>
	<node lat="58.121952774019384" lon="6.7980388967281735" id="-21788">
		<tag k="alt_name" v="Skidvann" />
		<tag k="name" v="Skittvatnet" />
		<tag k="natural" v="water" />
		<tag k="ssr:stedsnr" v="910258" />
	</node>
	<node lat="58.17667500194067" lon="6.77115555597651" id="-21803">
		<tag k="name" v="Litla Låglivannet" />
		<tag k="natural" v="water" />
		<tag k="ssr:stedsnr" v="932817" />
		<tag k="water" v="lake" />
	</node>
	<node lat="58.192827141880336" lon="6.798552407666513" id="-21878">
		<tag k="name" v="Åptefossen" />
		<tag k="natural" v="waterfall" />
		<tag k="ssr:stedsnr" v="986821" />
	</node>
	<node lat="58.13027716210588" lon="6.724129504549916" id="-21884">
		<tag k="name" v="Eitlandsbekken" />
		<tag k="ssr:stedsnr" v="990475" />
		<tag k="waterway" v="stream" />
	</node>
	<node lat="58.208761112680314" lon="6.7994249990252955" id="-21885">
		<tag k="alt_name" v="Gjervollstadvannet" />
		<tag k="name" v="Gjervollstadvatnet" />
		<tag k="natural" v="water" />
		<tag k="ssr:stedsnr" v="176" />
	</node>
	<node lat="58.18965278138995" lon="6.824219435767886" id="-21886">
		<tag k="alt_name" v="Tosåstjødna" />
		<tag k="name" v="Tosåstjørna" />
=======
	<node id="-512830" lat="58.0976861102" lon="6.8859999982">
		<tag k="name" v="Eigelandstjønna" />
		<tag k="natural" v="water" />
		<tag k="ssr:stedsnr" v="567493" />
	</node>
	<node id="-512138" lat="58.1410027755" lon="6.62258888103">
		<tag k="name" v="Jølletjønna" />
		<tag k="natural" v="water" />
		<tag k="ssr:stedsnr" v="21718" />
	</node>
	<node id="-512314" lat="58.2075750031" lon="6.91524721767">
		<tag k="alt_name" v="Klungelandsvannet" />
		<tag k="name" v="Klungelandsvatnet" />
		<tag k="natural" v="water" />
		<tag k="ssr:stedsnr" v="121172" />
	</node>
	<node id="-511797" lat="58.1838333324" lon="6.72288611082">
		<tag k="alt_name" v="Dalevann" />
		<tag k="name" v="Dalevatnet" />
		<tag k="natural" v="water" />
		<tag k="ssr:stedsnr" v="667206" />
	</node>
	<node id="-512819" lat="58.1385444418" lon="6.8430499945">
		<tag k="name" v="Hovelandstjønna" />
		<tag k="natural" v="water" />
		<tag k="ssr:stedsnr" v="567451" />
	</node>
	<node id="-512818" lat="58.0788694407" lon="6.67910278271">
		<tag k="name" v="Kviljobukta" />
		<tag k="natural" v="bay" />
		<tag k="ssr:stedsnr" v="567376" />
	</node>
	<node id="-511279" lat="58.1533916697" lon="6.63893056045">
		<tag k="name" v="Villumstemmen" />
		<tag k="natural" v="water" />
		<tag k="ssr:stedsnr" v="264706" />
	</node>
	<node id="-511375" lat="58.126772218" lon="6.84996389741">
		<tag k="name" v="Stemmen" />
		<tag k="natural" v="bay" />
		<tag k="ssr:stedsnr" v="385553" />
	</node>
	<node id="-511783" lat="58.0961694485" lon="6.86901388845">
		<tag k="alt_name" v="Nenningvann" />
		<tag k="name" v="Nenningsvatnet" />
		<tag k="natural" v="water" />
		<tag k="ssr:stedsnr" v="728292" />
	</node>
	<node id="-512806" lat="58.1329194479" lon="6.79207777332">
		<tag k="alt_name" v="Struntevann" />
		<tag k="name" v="Struntevatnet" />
		<tag k="natural" v="water" />
		<tag k="ssr:stedsnr" v="546264" />
	</node>
	<node id="-511781" lat="58.1116055596" lon="6.89542500056">
		<tag k="alt_name" v="Hengenesvannet" />
		<tag k="name" v="Hengenestjørna" />
		<tag k="natural" v="water" />
		<tag k="ssr:stedsnr" v="728273" />
	</node>
	<node id="-512798" lat="58.2034166686" lon="6.73124999489">
		<tag k="alt_name" v="Kinnevannet" />
		<tag k="name" v="Tjørnsvatnet" />
		<tag k="natural" v="water" />
		<tag k="ssr:stedsnr" v="546177" />
	</node>
	<node id="-512797" lat="58.1948861098" lon="6.81008889475">
		<tag k="alt_name" v="Strupen" />
		<tag k="name" v="Strupåna" />
		<tag k="ssr:stedsnr" v="546175" />
		<tag k="waterway" v="stream" />
	</node>
	<node id="-512796" lat="58.2256111151" lon="6.84773054927">
		<tag k="name" v="Oppoftsvann" />
		<tag k="natural" v="water" />
		<tag k="ssr:stedsnr" v="546150" />
		<tag k="water" v="lake" />
	</node>
	<node id="-512283" lat="58.1814250012" lon="6.7730833357">
		<tag k="name" v="Gåsetjødn" />
		<tag k="natural" v="water" />
		<tag k="ssr:stedsnr" v="82880" />
	</node>
	<node id="-512282" lat="58.1824333351" lon="6.77901667332">
		<tag k="name" v="Lundemyrbekken" />
		<tag k="ssr:stedsnr" v="82879" />
		<tag k="waterway" v="stream" />
	</node>
	<node id="-512281" lat="58.1895416678" lon="6.79053611538">
		<tag k="name" v="Bonntjødn" />
		<tag k="natural" v="water" />
		<tag k="ssr:stedsnr" v="82875" />
	</node>
	<node id="-512280" lat="58.1892861085" lon="6.78689444345">
		<tag k="name" v="Lonan" />
		<tag k="natural" v="water" />
		<tag k="ssr:stedsnr" v="82874" />
		<tag k="water" v="lake" />
	</node>
	<node id="-511766" lat="58.1352333289" lon="6.80265554987">
		<tag k="alt_name" v="Øyvindselvann" />
		<tag k="name" v="Øyvindshellevatnet" />
		<tag k="natural" v="water" />
		<tag k="ssr:stedsnr" v="728235" />
	</node>
	<node id="-511764" lat="58.1447750021" lon="6.72492500354">
		<tag k="alt_name" v="Krossvannet" />
		<tag k="name" v="Krossvatnet" />
		<tag k="natural" v="water" />
		<tag k="ssr:stedsnr" v="728220" />
	</node>
	<node id="-511762" lat="58.1421805536" lon="6.64242499939">
		<tag k="alt_name" v="Vestretjønna" />
		<tag k="name" v="Tomstadtjørna" />
		<tag k="natural" v="water" />
		<tag k="ssr:stedsnr" v="728189" />
	</node>
	<node id="-512131" lat="58.1874555577" lon="6.74901389579">
		<tag k="name" v="Litleholmen" />
		<tag k="place" v="islet" />
		<tag k="ssr:stedsnr" v="21475" />
	</node>
	<node id="-511754" lat="58.1919361076" lon="6.77480832844">
		<tag k="name" v="Pråmstøane" />
		<tag k="natural" v="bay" />
		<tag k="ssr:stedsnr" v="628853" />
	</node>
	<node id="-511753" lat="58.2154111099" lon="6.76575000847">
		<tag k="name" v="Storevika" />
		<tag k="natural" v="bay" />
		<tag k="ssr:stedsnr" v="628827" />
	</node>
	<node id="-511747" lat="58.1306999966" lon="6.69478055991">
		<tag k="name" v="Grostøltjønna" />
		<tag k="natural" v="water" />
		<tag k="ssr:stedsnr" v="628654" />
	</node>
	<node id="-512769" lat="58.2190638907" lon="6.79926943873">
		<tag k="name" v="Sandvatn" />
		<tag k="natural" v="water" />
		<tag k="ssr:stedsnr" v="425140" />
	</node>
	<node id="-511743" lat="58.1828194441" lon="6.87098611257">
		<tag k="name" v="Stemmetjødn" />
		<tag k="natural" v="water" />
		<tag k="ssr:stedsnr" v="628768" />
	</node>
	<node id="-512251" lat="58.1690638885" lon="6.73837778023">
		<tag k="name" v="Helgestø" />
		<tag k="natural" v="bay" />
		<tag k="ssr:stedsnr" v="82461" />
	</node>
	<node id="-512250" lat="58.1560055588" lon="6.72226665827">
		<tag k="name" v="Botnetjønn" />
		<tag k="natural" v="water" />
		<tag k="ssr:stedsnr" v="82460" />
	</node>
	<node id="-511615" lat="58.0881999978" lon="6.91370000518">
		<tag k="name" v="Lauringtjønn" />
>>>>>>> e1d4bc35ff8a6074a6f2e91616a996b547c36f15
		<tag k="natural" v="water" />
		<tag k="ssr:stedsnr" v="186" />
	</node>
<<<<<<< HEAD
	<node lat="58.17936667005045" lon="6.765438887959889" id="-21892">
		<tag k="alt_name" v="Mørkvannet" />
		<tag k="name" v="Mørktjørna" />
		<tag k="natural" v="water" />
		<tag k="ssr:stedsnr" v="210" />
	</node>
	<node lat="58.11380000298085" lon="6.9260750060439795" id="-21897">
		<tag k="name" v="Dåreidvannet" />
		<tag k="natural" v="water" />
		<tag k="ssr:stedsnr" v="320" />
	</node>
	<node lat="58.081305553882146" lon="6.7296638929939645" id="-21901">
		<tag k="alt_name" v="Hanangervannet" />
		<tag k="name" v="Hanangervatnet" />
		<tag k="natural" v="water" />
		<tag k="ssr:stedsnr" v="342" />
		<tag k="water" v="lake" />
	</node>
	<node lat="58.14100277546941" lon="6.622588881026634" id="-21906">
		<tag k="name" v="Jølletjønna" />
		<tag k="natural" v="water" />
		<tag k="ssr:stedsnr" v="21718" />
	</node>
	<node lat="58.187455557676124" lon="6.749013895794408" id="-21910">
		<tag k="name" v="Litleholmen" />
		<tag k="place" v="islet" />
		<tag k="ssr:stedsnr" v="21475" />
	</node>
	<node lat="58.07472499980542" lon="6.964102783802139" id="-21912">
		<tag k="name" v="Vasdalstjønna" />
		<tag k="natural" v="water" />
		<tag k="ssr:stedsnr" v="21482" />
	</node>
	<node lat="58.12956944484012" lon="6.767044445975569" id="-21919">
		<tag k="name" v="Rydlandstjønn" />
		<tag k="natural" v="water" />
		<tag k="ssr:stedsnr" v="21595" />
	</node>
	<node lat="58.187961112708436" lon="6.78913332885998" id="-21934">
		<tag k="name" v="Rutlebekken" />
		<tag k="ssr:stedsnr" v="21862" />
		<tag k="waterway" v="stream" />
	</node>
	<node lat="58.153075000302145" lon="6.644313890609087" id="-21938">
		<tag k="name" v="Krogevannet" />
		<tag k="natural" v="water" />
		<tag k="ssr:stedsnr" v="21724" />
		<tag k="water" v="lake" />
	</node>
	<node lat="58.198547224860675" lon="6.797444437835427" id="-21944">
		<tag k="name" v="Klumpen" />
		<tag k="natural" v="cape" />
		<tag k="ssr:stedsnr" v="21876" />
	</node>
	<node lat="58.11752222094705" lon="6.737361106823838" id="-21979">
		<tag k="alt_name" v="Straumslandstjønna" />
		<tag k="name" v="Straumslandstjørna" />
=======
	<node id="-511222" lat="58.1670027736" lon="6.75076666252">
		<tag k="name" v="Store Sundedalsbukta" />
		<tag k="natural" v="bay" />
		<tag k="ssr:stedsnr" v="446471" />
	</node>
	<node id="-511733" lat="58.1435833314" lon="6.71607221399">
		<tag k="name" v="Ausa" />
		<tag k="natural" v="water" />
		<tag k="ssr:stedsnr" v="628555" />
	</node>
	<node id="-511732" lat="58.140063892" lon="6.70673611076">
		<tag k="name" v="Rotjønn" />
		<tag k="natural" v="water" />
		<tag k="ssr:stedsnr" v="628553" />
	</node>
	<node id="-511218" lat="58.1296805519" lon="6.78489999348">
		<tag k="name" v="Blokktjønn" />
		<tag k="natural" v="water" />
		<tag k="ssr:stedsnr" v="446580" />
	</node>
	<node id="-511217" lat="58.1311027789" lon="6.78380555011">
		<tag k="name" v="Tverrbekken" />
		<tag k="ssr:stedsnr" v="446578" />
		<tag k="waterway" v="stream" />
	</node>
	<node id="-511680" lat="58.186922218" lon="6.75151666729">
		<tag k="name" v="Åsodden" />
		<tag k="natural" v="cape" />
		<tag k="ssr:stedsnr" v="567439" />
	</node>
	<node id="-511214" lat="58.159716667" lon="6.72719722995">
		<tag k="name" v="Langetjønn" />
		<tag k="natural" v="water" />
		<tag k="ssr:stedsnr" v="446465" />
	</node>
	<node id="-511725" lat="58.1021583333" lon="6.86403055227">
		<tag k="name" v="Sæviktjønna" />
		<tag k="natural" v="water" />
		<tag k="ssr:stedsnr" v="628461" />
	</node>
	<node id="-511212" lat="58.1774194467" lon="6.7562583363">
		<tag k="name" v="Kolnestjødna" />
		<tag k="natural" v="water" />
		<tag k="ssr:stedsnr" v="446452" />
	</node>
	<node id="-511721" lat="58.1724472248" lon="6.74785000776">
		<tag k="name" v="Kjerra" />
		<tag k="natural" v="bay" />
		<tag k="ssr:stedsnr" v="628432" />
	</node>
	<node id="-512742" lat="58.2105166707" lon="6.84151388565">
		<tag k="name" v="Lundebekk" />
		<tag k="ssr:stedsnr" v="386831" />
		<tag k="waterway" v="stream" />
	</node>
	<node id="-512209" lat="58.1175222209" lon="6.73736110682">
		<tag k="alt_name" v="Straumslandstjønna" />
		<tag k="name" v="Straumslandstjørna" />
		<tag k="natural" v="water" />
		<tag k="ssr:stedsnr" v="60254" />
	</node>
	<node id="-512227" lat="58.1752416679" lon="6.7757500026">
		<tag k="name" v="Loglivatna" />
		<tag k="natural" v="water" />
		<tag k="ssr:stedsnr" v="61207" />
	</node>
	<node id="-511202" lat="58.1765833364" lon="6.74945278312">
		<tag k="name" v="Følgevika" />
		<tag k="natural" v="bay" />
		<tag k="ssr:stedsnr" v="203466" />
	</node>
	<node id="-511201" lat="58.174922226" lon="6.74692221761">
		<tag k="name" v="Sanden" />
		<tag k="natural" v="beach" />
		<tag k="ssr:stedsnr" v="203463" />
	</node>
	<node id="-512224" lat="58.200061115" lon="6.8354277729">
		<tag k="alt_name" v="Svindalstjødna" />
		<tag k="name" v="Svindalstjørna" />
		<tag k="natural" v="water" />
		<tag k="ssr:stedsnr" v="61181" />
	</node>
	<node id="-512223" lat="58.1918083332" lon="6.77856667122">
		<tag k="alt_name" v="Rutlevannet" />
		<tag k="name" v="Rutlevatnet" />
		<tag k="natural" v="water" />
		<tag k="ssr:stedsnr" v="61173" />
	</node>
	<node id="-512617" lat="58.2189416638" lon="6.79995554957">
		<tag k="name" v="Sandvann" />
		<tag k="natural" v="water" />
		<tag k="ssr:stedsnr" v="324847" />
		<tag k="water" v="lake" />
	</node>
	<node id="-512122" lat="58.113800003" lon="6.92607500604">
		<tag k="name" v="Dåreidvannet" />
		<tag k="natural" v="water" />
		<tag k="ssr:stedsnr" v="320" />
	</node>
	<node id="-513231" lat="58.1490666642" lon="6.72936667306">
		<tag k="name" v="Skistadtjønn" />
>>>>>>> e1d4bc35ff8a6074a6f2e91616a996b547c36f15
		<tag k="natural" v="water" />
		<tag k="ssr:stedsnr" v="60254" />
	</node>
<<<<<<< HEAD
	<node lat="58.15600555875294" lon="6.722266658268848" id="-21999">
		<tag k="name" v="Botnetjønn" />
		<tag k="natural" v="water" />
		<tag k="ssr:stedsnr" v="82460" />
	</node>
	<node lat="58.16906388850901" lon="6.738377780232405" id="-22000">
		<tag k="name" v="Helgestø" />
		<tag k="natural" v="bay" />
		<tag k="ssr:stedsnr" v="82461" />
	</node>
	<node lat="58.15714721919588" lon="6.63639999639312" id="-22018">
		<tag k="name" v="Gylbergodden" />
		<tag k="natural" v="cape" />
		<tag k="ssr:stedsnr" v="82671" />
	</node>
	<node lat="58.18928610848043" lon="6.786894443445225" id="-22031">
		<tag k="name" v="Lonan" />
		<tag k="natural" v="water" />
		<tag k="ssr:stedsnr" v="82874" />
		<tag k="water" v="lake" />
	</node>
	<node lat="58.189541667795496" lon="6.790536115378639" id="-22032">
		<tag k="name" v="Bonntjødn" />
		<tag k="natural" v="water" />
		<tag k="ssr:stedsnr" v="82875" />
	</node>
	<node lat="58.18243333505535" lon="6.779016673319915" id="-22033">
		<tag k="name" v="Lundemyrbekken" />
		<tag k="ssr:stedsnr" v="82879" />
		<tag k="waterway" v="stream" />
	</node>
	<node lat="58.181425001249316" lon="6.77308333570286" id="-22034">
		<tag k="name" v="Gåsetjødn" />
=======
	<node id="-511270" lat="58.2074805586" lon="6.89379166432">
		<tag k="name" v="Kattundalstjønn" />
		<tag k="natural" v="water" />
		<tag k="ssr:stedsnr" v="447773" />
	</node>
	<node id="-512723" lat="58.2224861108" lon="6.81086943653">
		<tag k="name" v="Handelandsvannet" />
		<tag k="natural" v="water" />
		<tag k="ssr:stedsnr" v="385847" />
		<tag k="water" v="lake" />
	</node>
	<node id="-512721" lat="58.2195361077" lon="6.89039443931">
		<tag k="name" v="Heptetjødn" />
		<tag k="natural" v="water" />
		<tag k="ssr:stedsnr" v="385780" />
	</node>
	<node id="-512719" lat="58.1252305513" lon="6.71638610631">
		<tag k="name" v="Helvikvigan" />
		<tag k="natural" v="bay" />
		<tag k="ssr:stedsnr" v="385641" />
	</node>
	<node id="-513229" lat="58.0955861082" lon="6.90689445149">
		<tag k="name" v="Kovann" />
		<tag k="natural" v="water" />
		<tag k="ssr:stedsnr" v="871490" />
		<tag k="water" v="lake" />
	</node>
	<node id="-511522" lat="58.199266668" lon="6.80188889302">
		<tag k="alt_name" v="Sævelandsvannet" />
		<tag k="name" v="Sævelandsvatnet" />
>>>>>>> e1d4bc35ff8a6074a6f2e91616a996b547c36f15
		<tag k="natural" v="water" />
		<tag k="ssr:stedsnr" v="82880" />
	</node>
<<<<<<< HEAD
	<node lat="58.084994446173454" lon="6.95153055553834" id="-22035">
		<tag k="name" v="Liantjønna" />
		<tag k="natural" v="water" />
		<tag k="ssr:stedsnr" v="83468" />
	</node>
	<node lat="58.20461110842997" lon="6.833069436408244" id="-22039">
		<tag k="name" v="Einarsnes" />
		<tag k="natural" v="cape" />
		<tag k="ssr:stedsnr" v="83828" />
	</node>
	<node lat="58.14777499714888" lon="6.707075006777851" id="-22062">
		<tag k="alt_name" v="Ulgjelsvannet" />
		<tag k="name" v="Ulgjellvatnet" />
		<tag k="natural" v="water" />
		<tag k="ssr:stedsnr" v="121252" />
	</node>
	<node lat="58.13111111270652" lon="6.761119439461571" id="-22085">
		<tag k="name" v="Holmevann" />
		<tag k="natural" v="water" />
		<tag k="ssr:stedsnr" v="142555" />
		<tag k="water" v="lake" />
	</node>
	<node lat="58.131122223492206" lon="6.796458331691782" id="-22086">
		<tag k="name" v="Ragnhildstjønn" />
		<tag k="natural" v="water" />
		<tag k="ssr:stedsnr" v="142556" />
	</node>
	<node lat="58.141611111734086" lon="6.8030861114483425" id="-22087">
		<tag k="name" v="Ospetjønn" />
		<tag k="natural" v="water" />
		<tag k="ssr:stedsnr" v="142558" />
	</node>
	<node lat="58.181369441759465" lon="6.708266673952016" id="-22092">
		<tag k="name" v="Blokketjønn" />
		<tag k="natural" v="water" />
		<tag k="ssr:stedsnr" v="142998" />
	</node>
	<node lat="58.141116664812536" lon="6.689213888205386" id="-22097">
		<tag k="name" v="Rostjønn" />
		<tag k="natural" v="water" />
		<tag k="ssr:stedsnr" v="142714" />
	</node>
	<node lat="58.11099722126339" lon="6.672369450058632" id="-22099">
		<tag k="name" v="Vetlandstjønn" />
		<tag k="natural" v="water" />
		<tag k="ssr:stedsnr" v="142730" />
	</node>
	<node lat="58.18544999548239" lon="6.784547218642206" id="-22113">
		<tag k="name" v="Ormetjødn" />
		<tag k="natural" v="water" />
		<tag k="ssr:stedsnr" v="142875" />
	</node>
	<node lat="58.19591666795638" lon="6.796052782668515" id="-22114">
		<tag k="name" v="Hølan" />
		<tag k="natural" v="water" />
		<tag k="ssr:stedsnr" v="142877" />
		<tag k="water" v="lake" />
	</node>
	<node lat="58.19054166533335" lon="6.843591668433196" id="-22117">
		<tag k="name" v="Gunndammen" />
		<tag k="natural" v="water" />
		<tag k="ssr:stedsnr" v="142973" />
		<tag k="water" v="pond" />
	</node>
	<node lat="58.092430558930886" lon="6.847525004136" id="-22119">
		<tag k="name" v="Nøtlandstjønna" />
		<tag k="natural" v="water" />
		<tag k="ssr:stedsnr" v="143358" />
	</node>
	<node lat="58.227233337067375" lon="6.8177027814578235" id="-22163">
		<tag k="alt_name" v="Handelandsvatnet" />
		<tag k="name" v="Handelandsvannet" />
		<tag k="natural" v="water" />
		<tag k="ssr:stedsnr" v="182133" />
		<tag k="water" v="lake" />
	</node>
	<node lat="58.12591667013531" lon="6.663777772291788" id="-22168">
		<tag k="alt_name" v="Kleivelandsvannet" />
		<tag k="name" v="Kleivlandsvatnet" />
		<tag k="natural" v="water" />
		<tag k="ssr:stedsnr" v="182257" />
	</node>
	<node lat="58.12680277647033" lon="6.710733333157979" id="-22169">
		<tag k="alt_name" v="Hallandsvatnet" />
		<tag k="name" v="Hallandsvannet" />
		<tag k="natural" v="water" />
		<tag k="ssr:stedsnr" v="182261" />
	</node>
	<node lat="58.126966668660856" lon="6.851261112561956" id="-22170">
		<tag k="alt_name" v="Laulandstjønna" />
		<tag k="name" v="Lauvlandsvatnet" />
		<tag k="natural" v="water" />
		<tag k="ssr:stedsnr" v="182267" />
	</node>
	<node lat="58.105119443490345" lon="6.906369447974287" id="-22172">
		<tag k="alt_name" v="Viksvann" />
		<tag k="name" v="Viksvatnet" />
		<tag k="natural" v="water" />
		<tag k="ssr:stedsnr" v="182275" />
	</node>
	<node lat="58.17492222600167" lon="6.746922217611245" id="-22186">
		<tag k="name" v="Sanden" />
		<tag k="natural" v="beach" />
		<tag k="ssr:stedsnr" v="203463" />
	</node>
	<node lat="58.1765833363965" lon="6.749452783116004" id="-22187">
		<tag k="name" v="Følgevika" />
		<tag k="natural" v="bay" />
		<tag k="ssr:stedsnr" v="203466" />
	</node>
	<node lat="58.17395000010024" lon="6.747988883764044" id="-22189">
		<tag k="name" v="Gjersdals Kalvenes" />
		<tag k="natural" v="cape" />
		<tag k="ssr:stedsnr" v="203473" />
	</node>
	<node lat="58.09268055192933" lon="6.902811106881682" id="-22202">
		<tag k="name" v="Kirketjønn" />
		<tag k="natural" v="water" />
		<tag k="ssr:stedsnr" v="203524" />
	</node>
	<node lat="58.224849996458154" lon="6.833991667286453" id="-22219">
		<tag k="name" v="Båskartjødn" />
		<tag k="natural" v="water" />
		<tag k="ssr:stedsnr" v="203774" />
	</node>
	<node lat="58.22191111204308" lon="6.846194448814492" id="-22220">
		<tag k="name" v="Sundet" />
		<tag k="natural" v="strait" />
		<tag k="ssr:stedsnr" v="203785" />
	</node>
	<node lat="58.19430833446101" lon="6.847025001703578" id="-22259">
		<tag k="alt_name" v="Havåsvannet" />
		<tag k="name" v="Havåsvatnet" />
		<tag k="natural" v="water" />
		<tag k="ssr:stedsnr" v="303184" />
	</node>
	<node lat="58.20466111223076" lon="6.763594448416804" id="-22260">
		<tag k="name" v="Saudlandsvannet" />
		<tag k="natural" v="water" />
		<tag k="ssr:stedsnr" v="303188" />
	</node>
	<node lat="58.094288887499694" lon="6.691169437750705" id="-22272">
		<tag k="alt_name" v="Bryneåna" />
		<tag k="name" v="Brynebekken" />
		<tag k="ssr:stedsnr" v="303872" />
		<tag k="waterway" v="stream" />
	</node>
	<node lat="58.0754944403489" lon="6.700524992662645" id="-22281">
		<tag k="name" v="Brunnen" />
=======
	<node id="-513225" lat="58.1446694437" lon="6.65229165891">
		<tag k="name" v="Tomstadtjønn" />
		<tag k="natural" v="water" />
		<tag k="ssr:stedsnr" v="871632" />
	</node>
	<node id="-513222" lat="58.1377583329" lon="6.7294194393">
		<tag k="name" v="Frestadvika" />
		<tag k="natural" v="bay" />
		<tag k="ssr:stedsnr" v="871548" />
	</node>
	<node id="-513220" lat="58.1226055539" lon="6.84993333232">
		<tag k="name" v="Fullandstjønna" />
		<tag k="natural" v="water" />
		<tag k="ssr:stedsnr" v="871532" />
	</node>
	<node id="-511683" lat="58.1536527751" lon="6.72328333892">
		<tag k="name" v="Stemtjønn" />
		<tag k="natural" v="water" />
		<tag k="ssr:stedsnr" v="567447" />
	</node>
	<node id="-512706" lat="58.100902774" lon="6.93233055874">
		<tag k="name" v="Støletjønna" />
		<tag k="natural" v="water" />
		<tag k="ssr:stedsnr" v="385481" />
	</node>
	<node id="-512705" lat="58.0755527817" lon="6.71737499818">
		<tag k="name" v="Gloppan" />
		<tag k="natural" v="bay" />
		<tag k="ssr:stedsnr" v="385479" />
	</node>
	<node id="-512704" lat="58.1721333291" lon="6.74474722177">
		<tag k="name" v="Kolnessundet" />
		<tag k="natural" v="strait" />
		<tag k="ssr:stedsnr" v="385447" />
	</node>
	<node id="-512703" lat="58.0627138851" lon="6.96307499529">
		<tag k="name" v="Viestadtjønn" />
		<tag k="natural" v="water" />
		<tag k="ssr:stedsnr" v="385444" />
	</node>
	<node id="-511676" lat="58.1741555596" lon="6.74530278359">
		<tag k="name" v="Kolnesodden" />
		<tag k="natural" v="cape" />
		<tag k="ssr:stedsnr" v="567428" />
	</node>
	<node id="-511162" lat="58.1109972213" lon="6.67236945006">
		<tag k="name" v="Vetlandstjønn" />
		<tag k="natural" v="water" />
		<tag k="ssr:stedsnr" v="142730" />
	</node>
	<node id="-511160" lat="58.1411166648" lon="6.68921388821">
		<tag k="name" v="Rostjønn" />
		<tag k="natural" v="water" />
		<tag k="ssr:stedsnr" v="142714" />
	</node>
	<node id="-513207" lat="58.1344000023" lon="6.78398610418">
		<tag k="alt_name" v="Sandvann" />
		<tag k="name" v="Sandvatnet" />
		<tag k="natural" v="water" />
		<tag k="ssr:stedsnr" v="850236" />
	</node>
	<node id="-511664" lat="58.2100055517" lon="6.91877221478">
		<tag k="name" v="Mannehølen" />
		<tag k="place" v="locality" />
		<tag k="ssr:stedsnr" v="689973" />
	</node>
	<node id="-512171" lat="58.2063305547" lon="6.7422583339">
		<tag k="name" v="Nordtjødn" />
		<tag k="natural" v="water" />
		<tag k="ssr:stedsnr" v="21897" />
	</node>
	<node id="-512682" lat="58.1568944477" lon="6.63785000368">
		<tag k="alt_name" v="Rydjordvatnet" />
		<tag k="name" v="Rudjordsvannet" />
		<tag k="natural" v="water" />
		<tag k="ssr:stedsnr" v="364253" />
	</node>
	<node id="-512169" lat="58.1985472249" lon="6.79744443784">
		<tag k="name" v="Klumpen" />
		<tag k="natural" v="cape" />
		<tag k="ssr:stedsnr" v="21876" />
	</node>
	<node id="-511322" lat="58.2085333341" lon="6.84018611488">
		<tag k="name" v="Lundebekktjødna" />
		<tag k="natural" v="water" />
		<tag k="ssr:stedsnr" v="325815" />
	</node>
	<node id="-512679" lat="58.1596750027" lon="6.68896944976">
		<tag k="alt_name" v="Austre Torvtjønn" />
		<tag k="name" v="Torvtjørna" />
		<tag k="natural" v="water" />
		<tag k="ssr:stedsnr" v="364236" />
	</node>
	<node id="-512166" lat="58.1879611127" lon="6.78913332886">
		<tag k="name" v="Rutlebekken" />
		<tag k="ssr:stedsnr" v="21862" />
		<tag k="waterway" v="stream" />
	</node>
	<node id="-511653" lat="58.2035388903" lon="6.74498333702">
		<tag k="name" v="Spangreitjødn" />
		<tag k="natural" v="water" />
		<tag k="ssr:stedsnr" v="689893" />
	</node>
	<node id="-512164" lat="58.2146666628" lon="6.76363055939">
		<tag k="name" v="Trollandsvannet" />
		<tag k="natural" v="water" />
		<tag k="ssr:stedsnr" v="21841" />
		<tag k="water" v="lake" />
	</node>
	<node id="-511771" lat="58.2093666656" lon="6.81319166097">
		<tag k="alt_name" v="Bjortjødna" />
		<tag k="name" v="Bjørtjørna" />
		<tag k="natural" v="water" />
		<tag k="ssr:stedsnr" v="728136" />
	</node>
	<node id="-511770" lat="58.2164916694" lon="6.89340554984">
		<tag k="alt_name" v="Heievannet" />
		<tag k="name" v="Indretjørna" />
		<tag k="natural" v="water" />
		<tag k="ssr:stedsnr" v="728135" />
	</node>
	<node id="-511641" lat="58.173902774" lon="6.7940027823">
		<tag k="name" v="Heimartjødn" />
		<tag k="natural" v="water" />
		<tag k="ssr:stedsnr" v="689808" />
	</node>
	<node id="-512149" lat="58.1295694448" lon="6.76704444598">
		<tag k="name" v="Rydlandstjønn" />
		<tag k="natural" v="water" />
		<tag k="ssr:stedsnr" v="21595" />
	</node>
	<node id="-511342" lat="58.196441671" lon="6.72556667396">
		<tag k="alt_name" v="Kjørkleivvannet" />
		<tag k="name" v="Stemsvann" />
		<tag k="natural" v="water" />
		<tag k="ssr:stedsnr" v="485149" />
		<tag k="water" v="lake" />
	</node>
	<node id="-512707" lat="58.1730666685" lon="6.6908027707">
		<tag k="name" v="Sigersvolltjønna" />
		<tag k="natural" v="water" />
		<tag k="ssr:stedsnr" v="385484" />
	</node>
	<node id="-511632" lat="58.0994111109" lon="6.68511389283">
		<tag k="name" v="Holmen" />
		<tag k="natural" v="cape" />
		<tag k="ssr:stedsnr" v="689695" />
	</node>
	<node id="-511421" lat="58.0960527746" lon="6.84406944826">
		<tag k="name" v="Bekkeviktjønna" />
		<tag k="natural" v="water" />
		<tag k="ssr:stedsnr" v="507379" />
	</node>
	<node id="-513165" lat="58.0855888889" lon="6.9840194495">
		<tag k="name" v="Fossen" />
		<tag k="natural" v="waterfall" />
		<tag k="ssr:stedsnr" v="811447" />
	</node>
	<node id="-512140" lat="58.1530750003" lon="6.64431389061">
		<tag k="name" v="Krogevannet" />
		<tag k="natural" v="water" />
		<tag k="ssr:stedsnr" v="21724" />
		<tag k="water" v="lake" />
	</node>
	<node id="-512651" lat="58.2123305578" lon="6.89644166383">
		<tag k="name" v="Dunkerdalstjødna" />
		<tag k="natural" v="water" />
		<tag k="ssr:stedsnr" v="325791" />
	</node>
	<node id="-513162" lat="58.1752444442" lon="6.77574999925">
		<tag k="name" v="Stora Lålivannet" />
		<tag k="natural" v="water" />
		<tag k="ssr:stedsnr" v="811378" />
	</node>
	<node id="-512137" lat="58.1318944482" lon="6.82466666522">
		<tag k="name" v="Bergetjønn" />
		<tag k="natural" v="water" />
		<tag k="ssr:stedsnr" v="21496" />
	</node>
	<node id="-511623" lat="58.0968111087" lon="6.73173055978">
		<tag k="name" v="Duetjønn" />
		<tag k="natural" v="water" />
		<tag k="ssr:stedsnr" v="689569" />
	</node>
	<node id="-511110" lat="58.0878194416" lon="6.89564167329">
		<tag k="name" v="Espelandstjønna" />
		<tag k="natural" v="water" />
		<tag k="ssr:stedsnr" v="264513" />
	</node>
	<node id="-511425" lat="58.1672666652" lon="6.71572222576">
		<tag k="name" v="Libakktjønn" />
>>>>>>> e1d4bc35ff8a6074a6f2e91616a996b547c36f15
		<tag k="natural" v="water" />
		<tag k="ssr:stedsnr" v="324394" />
	</node>
<<<<<<< HEAD
	<node lat="58.12867499605377" lon="6.823427771577387" id="-22287">
		<tag k="name" v="Espelandstjønna" />
		<tag k="natural" v="water" />
		<tag k="ssr:stedsnr" v="324455" />
	</node>
	<node lat="58.13301389048364" lon="6.850011113392021" id="-22289">
		<tag k="name" v="Litlatjønna" />
		<tag k="natural" v="water" />
		<tag k="ssr:stedsnr" v="324460" />
	</node>
	<node lat="58.128772223999206" lon="6.849861107871888" id="-22290">
		<tag k="name" v="Stakkenes" />
		<tag k="natural" v="cape" />
		<tag k="ssr:stedsnr" v="324463" />
	</node>
	<node lat="58.21894166381488" lon="6.799955549567402" id="-22310">
		<tag k="name" v="Sandvann" />
		<tag k="natural" v="water" />
		<tag k="ssr:stedsnr" v="324847" />
		<tag k="water" v="lake" />
	</node>
	<node lat="58.10716389023396" lon="6.941602784631979" id="-22313">
		<tag k="name" v="Lonåstjønn" />
		<tag k="natural" v="water" />
		<tag k="ssr:stedsnr" v="324932" />
	</node>
	<node lat="58.113608335833185" lon="6.90964444724442" id="-22316">
		<tag k="name" v="Gluggvartjønna" />
		<tag k="natural" v="water" />
		<tag k="ssr:stedsnr" v="324977" />
	</node>
	<node lat="58.11945833019275" lon="6.906736112325258" id="-22321">
		<tag k="name" v="Bukketjønn" />
		<tag k="natural" v="water" />
		<tag k="ssr:stedsnr" v="324991" />
	</node>
	<node lat="58.20784444208849" lon="6.924097228792284" id="-22324">
=======
	<node id="-512644" lat="58.1027583296" lon="6.85766945084">
		<tag k="name" v="Vestertjønna" />
		<tag k="natural" v="water" />
		<tag k="ssr:stedsnr" v="325465" />
	</node>
	<node id="-512643" lat="58.0861888891" lon="6.99243055079">
		<tag k="name" v="Stautlandstjønn" />
		<tag k="natural" v="water" />
		<tag k="ssr:stedsnr" v="325458" />
	</node>
	<node id="-512639" lat="58.1194583302" lon="6.90673611233">
		<tag k="name" v="Bukketjønn" />
		<tag k="natural" v="water" />
		<tag k="ssr:stedsnr" v="324991" />
	</node>
	<node id="-512126" lat="58.0813055539" lon="6.72966389299">
		<tag k="alt_name" v="Hanangervannet" />
		<tag k="name" v="Hanangervatnet" />
		<tag k="natural" v="water" />
		<tag k="ssr:stedsnr" v="342" />
		<tag k="water" v="lake" />
	</node>
	<node id="-513149" lat="58.2141472229" lon="6.76006666289">
		<tag k="name" v="Homstjødna" />
		<tag k="natural" v="water" />
		<tag k="ssr:stedsnr" v="810891" />
	</node>
	<node id="-511612" lat="58.0966111148" lon="6.97045277393">
		<tag k="name" v="Kårikstadtjønna" />
		<tag k="natural" v="water" />
		<tag k="ssr:stedsnr" v="689461" />
	</node>
	<node id="-512634" lat="58.1136083358" lon="6.90964444724">
		<tag k="name" v="Gluggvartjønna" />
		<tag k="natural" v="water" />
		<tag k="ssr:stedsnr" v="324977" />
	</node>
	<node id="-512632" lat="58.2078444421" lon="6.92409722879">
>>>>>>> e1d4bc35ff8a6074a6f2e91616a996b547c36f15
		<tag k="name" v="Klungelandsvannet" />
		<tag k="natural" v="water" />
		<tag k="ssr:stedsnr" v="324968" />
		<tag k="water" v="lake" />
	</node>
<<<<<<< HEAD
	<node lat="58.08618888905656" lon="6.9924305507875575" id="-22326">
		<tag k="name" v="Stautlandstjønn" />
		<tag k="natural" v="water" />
		<tag k="ssr:stedsnr" v="325458" />
	</node>
	<node lat="58.10275832960699" lon="6.8576694508427645" id="-22327">
		<tag k="name" v="Vestertjønna" />
		<tag k="natural" v="water" />
		<tag k="ssr:stedsnr" v="325465" />
	</node>
	<node lat="58.208533334089964" lon="6.840186114884447" id="-22330">
		<tag k="name" v="Lundebekktjødna" />
		<tag k="natural" v="water" />
		<tag k="ssr:stedsnr" v="325815" />
	</node>
	<node lat="58.15967500267277" lon="6.6889694497623" id="-22373">
		<tag k="alt_name" v="Austre Torvtjønn" />
		<tag k="name" v="Torvtjørna" />
		<tag k="natural" v="water" />
		<tag k="ssr:stedsnr" v="364236" />
	</node>
	<node lat="58.17213332911145" lon="6.744747221773017" id="-22379">
		<tag k="name" v="Kolnessundet" />
		<tag k="natural" v="strait" />
		<tag k="ssr:stedsnr" v="385447" />
	</node>
	<node lat="58.126772218016015" lon="6.849963897405844" id="-22387">
		<tag k="name" v="Stemmen" />
		<tag k="natural" v="bay" />
		<tag k="ssr:stedsnr" v="385553" />
	</node>
	<node lat="58.14678888587874" lon="6.741261111660077" id="-22397">
		<tag k="name" v="Launes" />
		<tag k="natural" v="cape" />
		<tag k="ssr:stedsnr" v="385618" />
	</node>
	<node lat="58.13329166267022" lon="6.8185666618741205" id="-22400">
		<tag k="name" v="Botnetjønn" />
		<tag k="natural" v="water" />
		<tag k="ssr:stedsnr" v="385462" />
	</node>
	<node lat="58.07555278174706" lon="6.717374998176097" id="-22402">
		<tag k="name" v="Gloppan" />
		<tag k="natural" v="bay" />
		<tag k="ssr:stedsnr" v="385479" />
	</node>
	<node lat="58.1009027740487" lon="6.932330558738154" id="-22403">
		<tag k="name" v="Støletjønna" />
		<tag k="natural" v="water" />
		<tag k="ssr:stedsnr" v="385481" />
	</node>
	<node lat="58.17306666853361" lon="6.690802770698738" id="-22404">
		<tag k="name" v="Sigersvolltjønna" />
		<tag k="natural" v="water" />
		<tag k="ssr:stedsnr" v="385484" />
	</node>
	<node lat="58.2195361076595" lon="6.8903944393073555" id="-22408">
		<tag k="name" v="Heptetjødn" />
		<tag k="natural" v="water" />
		<tag k="ssr:stedsnr" v="385780" />
	</node>
	<node lat="58.12523055126869" lon="6.716386106311989" id="-22421">
		<tag k="name" v="Helvikvigan" />
		<tag k="natural" v="bay" />
		<tag k="ssr:stedsnr" v="385641" />
	</node>
	<node lat="58.167941666533736" lon="6.782855547938086" id="-22425">
		<tag k="name" v="Svartevannet" />
		<tag k="natural" v="water" />
		<tag k="ssr:stedsnr" v="385929" />
		<tag k="water" v="lake" />
	</node>
	<node lat="58.21051667073018" lon="6.84151388564855" id="-22429">
		<tag k="name" v="Lundebekk" />
		<tag k="ssr:stedsnr" v="386831" />
		<tag k="waterway" v="stream" />
	</node>
	<node lat="58.21906389070838" lon="6.7992694387347274" id="-22452">
		<tag k="name" v="Sandvatn" />
		<tag k="natural" v="water" />
		<tag k="ssr:stedsnr" v="425140" />
	</node>
	<node lat="58.113594446423846" lon="6.88870276997592" id="-22457">
		<tag k="alt_name" v="Stemtjønn" />
		<tag k="name" v="Stemtjørna" />
		<tag k="natural" v="water" />
		<tag k="ssr:stedsnr" v="425316" />
	</node>
	<node lat="58.16700277364708" lon="6.750766662521136" id="-22466">
		<tag k="name" v="Store Sundedalsbukta" />
		<tag k="natural" v="bay" />
		<tag k="ssr:stedsnr" v="446471" />
	</node>
	<node lat="58.1774194466802" lon="6.756258336296943" id="-22474">
		<tag k="name" v="Kolnestjødna" />
		<tag k="natural" v="water" />
		<tag k="ssr:stedsnr" v="446452" />
	</node>
	<node lat="58.159716667048514" lon="6.727197229950981" id="-22476">
		<tag k="name" v="Langetjønn" />
		<tag k="natural" v="water" />
		<tag k="ssr:stedsnr" v="446465" />
	</node>
	<node lat="58.1278611138736" lon="6.777622214548639" id="-22490">
		<tag k="name" v="Furåstjønn" />
		<tag k="natural" v="water" />
		<tag k="ssr:stedsnr" v="446646" />
	</node>
	<node lat="58.12392499956722" lon="6.7611499939135085" id="-22491">
		<tag k="name" v="Osan" />
		<tag k="ssr:stedsnr" v="446650" />
		<tag k="waterway" v="stream" />
	</node>
	<node lat="58.11971666878475" lon="6.923766673888442" id="-22521">
		<tag k="name" v="Storetjønn" />
		<tag k="natural" v="water" />
		<tag k="ssr:stedsnr" v="506933" />
	</node>
	<node lat="58.19663333134706" lon="6.730502783231749" id="-22537">
=======
	<node id="-511607" lat="58.0886694465" lon="6.96717500317">
		<tag k="name" v="Tonsbergtjønna" />
		<tag k="natural" v="water" />
		<tag k="ssr:stedsnr" v="689450" />
	</node>
	<node id="-512630" lat="58.1071638902" lon="6.94160278463">
		<tag k="name" v="Lonåstjønn" />
		<tag k="natural" v="water" />
		<tag k="ssr:stedsnr" v="324932" />
	</node>
	<node id="-512629" lat="58.167441668" lon="6.7882388904">
		<tag k="name" v="Krossvannan" />
		<tag k="natural" v="water" />
		<tag k="ssr:stedsnr" v="324927" />
		<tag k="water" v="lake" />
	</node>
	<node id="-511092" lat="58.1194753334" lon="6.56042280269">
		<tag k="name" v="Fugletjønna" />
		<tag k="natural" v="water" />
		<tag k="ssr:stedsnr" v="264403" />
	</node>
	<node id="-512113" lat="58.1793666701" lon="6.76543888796">
		<tag k="alt_name" v="Mørkvannet" />
		<tag k="name" v="Mørktjørna" />
		<tag k="natural" v="water" />
		<tag k="ssr:stedsnr" v="210" />
	</node>
	<node id="-511599" lat="58.1868444409" lon="6.74166666263">
		<tag k="name" v="Stølstrand" />
		<tag k="natural" v="beach" />
		<tag k="ssr:stedsnr" v="689426" />
	</node>
	<node id="-511597" lat="58.1663472197" lon="6.6673750068">
		<tag k="name" v="Åvolltjønn" />
		<tag k="natural" v="water" />
		<tag k="ssr:stedsnr" v="689380" />
	</node>
	<node id="-512108" lat="58.1896527814" lon="6.82421943577">
		<tag k="alt_name" v="Tosåstjødna" />
		<tag k="name" v="Tosåstjørna" />
		<tag k="natural" v="water" />
		<tag k="ssr:stedsnr" v="186" />
	</node>
	<node id="-513129" lat="58.1142666662" lon="6.77533333734">
		<tag k="name" v="Hoskuldsnes" />
		<tag k="natural" v="cape" />
		<tag k="ssr:stedsnr" v="810598" />
	</node>
	<node id="-512615" lat="58.1256388924" lon="6.67368333296">
		<tag k="name" v="Jåtogkilen" />
		<tag k="natural" v="bay" />
		<tag k="ssr:stedsnr" v="324757" />
	</node>
	<node id="-512613" lat="58.1767264382" lon="6.92109107255">
		<tag k="name" v="Hunsvann" />
		<tag k="natural" v="water" />
		<tag k="ssr:stedsnr" v="324748" />
		<tag k="water" v="lake" />
	</node>
	<node id="-511625" lat="58.1273444438" lon="6.76867500069">
		<tag k="name" v="Fisteltjønn" />
		<tag k="natural" v="water" />
		<tag k="ssr:stedsnr" v="689594" />
	</node>
	<node id="-511074" lat="58.2046111084" lon="6.83306943641">
		<tag k="name" v="Einarsnes" />
		<tag k="natural" v="cape" />
		<tag k="ssr:stedsnr" v="83828" />
	</node>
	<node id="-511585" lat="58.0693722201" lon="6.79410832796">
		<tag k="alt_name" v="Røyrtjørna" />
		<tag k="name" v="Røyrtjønn" />
		<tag k="natural" v="water" />
		<tag k="ssr:stedsnr" v="507687" />
	</node>
	<node id="-511983" lat="58.2051861142" lon="6.8763944445">
		<tag k="name" v="Fallbekken" />
		<tag k="ssr:stedsnr" v="932770" />
		<tag k="waterway" v="stream" />
	</node>
	<node id="-511070" lat="58.2023916688" lon="6.90370555397">
		<tag k="name" v="Langetjønn" />
		<tag k="natural" v="water" />
		<tag k="ssr:stedsnr" v="83806" />
	</node>
	<node id="-511580" lat="58.1394194411" lon="6.63493055919">
		<tag k="name" v="Midtstemmen" />
		<tag k="natural" v="water" />
		<tag k="ssr:stedsnr" v="507712" />
	</node>
	<node id="-513115" lat="58.0910916708" lon="6.91071944021">
		<tag k="name" v="Slåttetjønn" />
		<tag k="natural" v="water" />
		<tag k="ssr:stedsnr" v="810510" />
	</node>
	<node id="-511503" lat="58.1278611139" lon="6.77762221455">
		<tag k="name" v="Furåstjønn" />
		<tag k="natural" v="water" />
		<tag k="ssr:stedsnr" v="446646" />
	</node>
	<node id="-511576" lat="58.1471277822" lon="6.82020278382">
		<tag k="name" v="Torjebekken" />
		<tag k="ssr:stedsnr" v="507506" />
		<tag k="waterway" v="stream" />
	</node>
	<node id="-512597" lat="58.0868416631" lon="6.73864166829">
		<tag k="name" v="Grønnodden" />
		<tag k="natural" v="cape" />
		<tag k="ssr:stedsnr" v="324602" />
	</node>
	<node id="-513105" lat="58.1918333335" lon="6.74986666733">
		<tag k="name" v="Djuphagstrand" />
		<tag k="natural" v="beach" />
		<tag k="ssr:stedsnr" v="810456" />
	</node>
	<node id="-511056" lat="58.1571472192" lon="6.63639999639">
		<tag k="name" v="Gylbergodden" />
		<tag k="natural" v="cape" />
		<tag k="ssr:stedsnr" v="82671" />
	</node>
	<node id="-513097" lat="58.1605333322" lon="6.67814722326">
		<tag k="name" v="Vestre Torvtjønn" />
		<tag k="natural" v="water" />
		<tag k="ssr:stedsnr" v="810374" />
	</node>
	<node id="-512072" lat="58.1766750019" lon="6.77115555598">
		<tag k="name" v="Litla Låglivannet" />
		<tag k="natural" v="water" />
		<tag k="ssr:stedsnr" v="932817" />
		<tag k="water" v="lake" />
	</node>
	<node id="-512583" lat="58.1756333338" lon="6.6569888921">
		<tag k="name" v="Migaren" />
		<tag k="ssr:stedsnr" v="324492" />
		<tag k="waterway" v="stream" />
	</node>
	<node id="-512582" lat="58.0805055555" lon="6.72740000658">
		<tag k="name" v="Storeholmen" />
		<tag k="place" v="islet" />
		<tag k="ssr:stedsnr" v="324490" />
	</node>
	<node id="-512580" lat="58.1395833335" lon="6.84816110709">
		<tag k="name" v="Flatbergtjønna" />
		<tag k="natural" v="water" />
		<tag k="ssr:stedsnr" v="324476" />
	</node>
	<node id="-512579" lat="58.1600583334" lon="6.74212777544">
		<tag k="name" v="Ormevika" />
		<tag k="natural" v="bay" />
		<tag k="ssr:stedsnr" v="324474" />
	</node>
	<node id="-511554" lat="58.1966333313" lon="6.73050278323">
>>>>>>> e1d4bc35ff8a6074a6f2e91616a996b547c36f15
		<tag k="name" v="Molbukta" />
		<tag k="natural" v="bay" />
		<tag k="ssr:stedsnr" v="506891" />
	</node>
<<<<<<< HEAD
	<node lat="58.127600001972894" lon="6.813558341113848" id="-22550">
		<tag k="alt_name" v="Langevann" />
		<tag k="name" v="Langvann" />
		<tag k="natural" v="water" />
		<tag k="ssr:stedsnr" v="507543" />
		<tag k="water" v="lake" />
	</node>
	<node lat="58.06937222014153" lon="6.794108327957974" id="-22554">
		<tag k="alt_name" v="Røyrtjørna" />
		<tag k="name" v="Røyrtjønn" />
		<tag k="natural" v="water" />
		<tag k="ssr:stedsnr" v="507687" />
	</node>
	<node lat="58.20344166333996" lon="6.90651944310671" id="-22561">
		<tag k="name" v="Smaltjønn" />
		<tag k="natural" v="water" />
		<tag k="ssr:stedsnr" v="507797" />
	</node>
	<node lat="58.091580552848136" lon="6.7333638840589405" id="-22563">
		<tag k="name" v="Grimsbykilen" />
		<tag k="natural" v="bay" />
		<tag k="ssr:stedsnr" v="507601" />
	</node>
	<node lat="58.13291944786486" lon="6.792077773322237" id="-22603">
		<tag k="alt_name" v="Struntevann" />
		<tag k="name" v="Struntevatnet" />
		<tag k="natural" v="water" />
		<tag k="ssr:stedsnr" v="546264" />
	</node>
	<node lat="58.18692221804655" lon="6.751516667291029" id="-22614">
		<tag k="name" v="Åsodden" />
		<tag k="natural" v="cape" />
		<tag k="ssr:stedsnr" v="567439" />
	</node>
	<node lat="58.153652775051455" lon="6.723283338917549" id="-22617">
		<tag k="name" v="Stemtjønn" />
		<tag k="natural" v="water" />
		<tag k="ssr:stedsnr" v="567447" />
	</node>
	<node lat="58.13854444182166" lon="6.8430499944989185" id="-22619">
		<tag k="name" v="Hovelandstjønna" />
		<tag k="natural" v="water" />
		<tag k="ssr:stedsnr" v="567451" />
	</node>
	<node lat="58.135855553486884" lon="6.723019443729712" id="-22622">
		<tag k="name" v="Andråstjønn" />
		<tag k="natural" v="water" />
		<tag k="ssr:stedsnr" v="567551" />
	</node>
	<node lat="58.0976861102203" lon="6.885999998197962" id="-22630">
		<tag k="name" v="Eigelandstjønna" />
		<tag k="natural" v="water" />
		<tag k="ssr:stedsnr" v="567493" />
	</node>
	<node lat="58.10371348660278" lon="6.6013912800838" id="-22643">
		<tag k="name" v="Slevdalsvannet" />
=======
	<node id="-512575" lat="58.128772224" lon="6.84986110787">
		<tag k="name" v="Stakkenes" />
		<tag k="natural" v="cape" />
		<tag k="ssr:stedsnr" v="324463" />
	</node>
	<node id="-511550" lat="58.186524999" lon="6.76344444674">
		<tag k="name" v="Gjersdalstjødna" />
		<tag k="natural" v="water" />
		<tag k="ssr:stedsnr" v="506859" />
	</node>
	<node id="-513085" lat="58.1166833348" lon="6.81330556299">
		<tag k="alt_name" v="Beiskevatnet" />
		<tag k="name" v="Beiskevann" />
		<tag k="natural" v="water" />
		<tag k="ssr:stedsnr" v="788272" />
	</node>
	<node id="-512572" lat="58.0754944403" lon="6.70052499266">
		<tag k="name" v="Brunnen" />
		<tag k="natural" v="water" />
		<tag k="ssr:stedsnr" v="324394" />
	</node>
	<node id="-513083" lat="58.1230527819" lon="6.73160555826">
		<tag k="alt_name" v="Monetjønna" />
		<tag k="name" v="Monetjørna" />
		<tag k="natural" v="water" />
		<tag k="ssr:stedsnr" v="788259" />
	</node>
	<node id="-513082" lat="58.2004611096" lon="6.75002499586">
		<tag k="alt_name" v="Krossvann" />
		<tag k="name" v="Krossvatnet" />
		<tag k="natural" v="water" />
		<tag k="ssr:stedsnr" v="788189" />
	</node>
	<node id="-511545" lat="58.0835250023" lon="6.75816943882">
		<tag k="alt_name" v="Kråkenesvannet" />
		<tag k="fixme" v="multiple name tags, choose one and add the other to alt_name" />
		<tag k="name" v="Kråkenesvatnet;Krågenesvannet" />
		<tag k="natural" v="water" />
		<tag k="ssr:stedsnr" v="485260" />
	</node>
	<node id="-511030" lat="58.1711749987" lon="6.66291944323">
		<tag k="alt_name" v="Stemsvann" />
		<tag k="name" v="Stemtjørna" />
		<tag k="natural" v="water" />
		<tag k="ssr:stedsnr" v="243181" />
	</node>
	<node id="-512561" lat="58.2046611122" lon="6.76359444842">
		<tag k="name" v="Saudlandsvannet" />
		<tag k="natural" v="water" />
		<tag k="ssr:stedsnr" v="303188" />
	</node>
	<node id="-512560" lat="58.1943083345" lon="6.8470250017">
		<tag k="alt_name" v="Havåsvannet" />
		<tag k="name" v="Havåsvatnet" />
>>>>>>> e1d4bc35ff8a6074a6f2e91616a996b547c36f15
		<tag k="natural" v="water" />
		<tag k="ssr:stedsnr" v="303184" />
	</node>
<<<<<<< HEAD
	<node lat="58.17879167039877" lon="6.890302778643681" id="-22645">
		<tag k="name" v="Bergtjønn" />
		<tag k="natural" v="water" />
		<tag k="ssr:stedsnr" v="567754" />
	</node>
	<node lat="58.20352222240529" lon="6.770602771804571" id="-22646">
		<tag k="name" v="Bjortjødn" />
		<tag k="natural" v="water" />
		<tag k="ssr:stedsnr" v="567882" />
	</node>
	<node lat="58.21113888465201" lon="6.7601777789809" id="-22648">
		<tag k="name" v="Grimestadtjødna" />
		<tag k="natural" v="water" />
		<tag k="ssr:stedsnr" v="567892" />
	</node>
	<node lat="58.104408333992616" lon="6.858252785792091" id="-22650">
		<tag k="name" v="Bryggetjønn" />
		<tag k="natural" v="water" />
		<tag k="ssr:stedsnr" v="568448" />
	</node>
	<node lat="58.12391110932264" lon="6.807802777021837" id="-22685">
		<tag k="alt_name" v="Midtvann" />
		<tag k="name" v="Midtvatnet" />
		<tag k="natural" v="water" />
		<tag k="ssr:stedsnr" v="606245" />
	</node>
	<node lat="58.105327776541316" lon="6.886441674239907" id="-22686">
		<tag k="alt_name" v="Lønningsvannet" />
		<tag k="name" v="Løyningstjørna" />
		<tag k="natural" v="water" />
		<tag k="ssr:stedsnr" v="606276" />
	</node>
	<node lat="58.172447224829966" lon="6.747850007757989" id="-22691">
		<tag k="name" v="Kjerra" />
		<tag k="natural" v="bay" />
		<tag k="ssr:stedsnr" v="628432" />
	</node>
	<node lat="58.098125004240245" lon="6.852705556258952" id="-22697">
		<tag k="name" v="Småtjønn" />
		<tag k="natural" v="water" />
		<tag k="ssr:stedsnr" v="628391" />
	</node>
	<node lat="58.1021583333035" lon="6.8640305522663745" id="-22702">
		<tag k="name" v="Sæviktjønna" />
		<tag k="natural" v="water" />
		<tag k="ssr:stedsnr" v="628461" />
	</node>
	<node lat="58.140063892035734" lon="6.70673611075841" id="-22715">
		<tag k="name" v="Rotjønn" />
		<tag k="natural" v="water" />
		<tag k="ssr:stedsnr" v="628553" />
	</node>
	<node lat="58.143583331383624" lon="6.716072213989356" id="-22716">
		<tag k="name" v="Ausa" />
		<tag k="natural" v="water" />
		<tag k="ssr:stedsnr" v="628555" />
	</node>
	<node lat="58.18281944405782" lon="6.870986112567581" id="-22725">
		<tag k="name" v="Stemmetjødn" />
		<tag k="natural" v="water" />
		<tag k="ssr:stedsnr" v="628768" />
	</node>
	<node lat="58.215411109852795" lon="6.7657500084708095" id="-22729">
		<tag k="name" v="Storevika" />
		<tag k="natural" v="bay" />
		<tag k="ssr:stedsnr" v="628827" />
	</node>
	<node lat="58.19193610763627" lon="6.77480832843776" id="-22731">
		<tag k="name" v="Pråmstøane" />
		<tag k="natural" v="bay" />
		<tag k="ssr:stedsnr" v="628853" />
	</node>
	<node lat="58.199266668016676" lon="6.8018888930164385" id="-22758">
		<tag k="alt_name" v="Sævelandsvannet" />
		<tag k="name" v="Sævelandsvatnet" />
		<tag k="natural" v="water" />
		<tag k="ssr:stedsnr" v="667199" />
	</node>
	<node lat="58.216491669400106" lon="6.893405549842159" id="-22773">
		<tag k="alt_name" v="Heievannet" />
		<tag k="name" v="Indretjørna" />
		<tag k="natural" v="water" />
		<tag k="ssr:stedsnr" v="728135" />
	</node>
	<node lat="58.20936666563256" lon="6.8131916609695224" id="-22774">
		<tag k="alt_name" v="Bjortjødna" />
		<tag k="name" v="Bjørtjørna" />
		<tag k="natural" v="water" />
		<tag k="ssr:stedsnr" v="728136" />
	</node>
	<node lat="58.14218055364309" lon="6.642424999391367" id="-22780">
		<tag k="alt_name" v="Vestretjønna" />
		<tag k="name" v="Tomstadtjørna" />
		<tag k="natural" v="water" />
		<tag k="ssr:stedsnr" v="728189" />
	</node>
	<node lat="58.135233328889626" lon="6.802655549870696" id="-22786">
		<tag k="alt_name" v="Øyvindselvann" />
		<tag k="name" v="Øyvindshellevatnet" />
		<tag k="natural" v="water" />
		<tag k="ssr:stedsnr" v="728235" />
	</node>
	<node lat="58.11635555785688" lon="6.897119445401846" id="-22798">
		<tag k="name" v="Grobotjønna" />
		<tag k="natural" v="water" />
		<tag k="ssr:stedsnr" v="749989" />
	</node>
	<node lat="58.21891666639174" lon="6.845569437357052" id="-22819">
		<tag k="name" v="Laundalsholmen" />
		<tag k="place" v="islet" />
		<tag k="ssr:stedsnr" v="749794" />
	</node>
	<node lat="58.14927777835346" lon="6.680374991935511" id="-22833">
		<tag k="name" v="Gulltjønn" />
		<tag k="natural" v="water" />
		<tag k="ssr:stedsnr" v="749733" />
=======
	<node id="-512559" lat="58.1949555522" lon="6.7102805635">
		<tag k="alt_name" v="Skagelivannet" />
		<tag k="name" v="Skagelivatnet" />
		<tag k="natural" v="water" />
		<tag k="ssr:stedsnr" v="303179" />
	</node>
	<node id="-511922" lat="58.1826444468" lon="6.71265278071">
		<tag k="alt_name" v="Vivivann" />
		<tag k="name" v="Vivivatnet" />
		<tag k="natural" v="water" />
		<tag k="ssr:stedsnr" v="789206" />
	</node>
	<node id="-511068" lat="58.0849944462" lon="6.95153055554">
		<tag k="name" v="Liantjønna" />
		<tag k="natural" v="water" />
		<tag k="ssr:stedsnr" v="83468" />
	</node>
	<node id="-513062" lat="58.2250662559" lon="6.82547198862">
		<tag k="name" v="Volletjødn" />
		<tag k="natural" v="water" />
		<tag k="ssr:stedsnr" v="759359" />
	</node>
	<node id="-511525" lat="58.0994722193" lon="6.68071944035">
		<tag k="alt_name" v="Brastadvannet" />
		<tag k="name" v="Brastadvatnet" />
		<tag k="natural" v="water" />
		<tag k="ssr:stedsnr" v="667286" />
	</node>
	<node id="-512546" lat="58.1638638892" lon="6.87647777458">
		<tag k="name" v="Ospelundstjønna" />
		<tag k="natural" v="water" />
		<tag k="ssr:stedsnr" v="204801" />
	</node>
	<node id="-512542" lat="58.0880416676" lon="6.92558888654">
		<tag k="name" v="Ersåkerstranda" />
		<tag k="natural" v="beach" />
		<tag k="ssr:stedsnr" v="204423" />
	</node>
	<node id="-511608" lat="58.0715194429" lon="6.73336943614">
		<tag k="name" v="Oteråna" />
		<tag k="ssr:stedsnr" v="689451" />
		<tag k="waterway" v="river" />
	</node>
	<node id="-512858" lat="58.1037134866" lon="6.60139128008">
		<tag k="name" v="Slevdalsvannet" />
		<tag k="natural" v="water" />
		<tag k="ssr:stedsnr" v="567736" />
		<tag k="water" v="lake" />
	</node>
	<node id="-512026" lat="58.1069638935" lon="6.71678611913">
		<tag k="name" v="Pengevollbukta" />
		<tag k="natural" v="bay" />
		<tag k="ssr:stedsnr" v="871622" />
	</node>
	<node id="-513049" lat="58.1163555579" lon="6.8971194454">
		<tag k="name" v="Grobotjønna" />
		<tag k="natural" v="water" />
		<tag k="ssr:stedsnr" v="749989" />
	</node>
	<node id="-511511" lat="58.2069111087" lon="6.75265278635">
		<tag k="name" v="Sandviktjødna" />
		<tag k="natural" v="water" />
		<tag k="ssr:stedsnr" v="446911" />
	</node>
	<node id="-512133" lat="58.0747249998" lon="6.9641027838">
		<tag k="name" v="Vasdalstjønna" />
		<tag k="natural" v="water" />
		<tag k="ssr:stedsnr" v="21482" />
	</node>
	<node id="-511113" lat="58.1274611098" lon="6.81740833864">
		<tag k="name" v="Espelandsosen" />
		<tag k="natural" v="bay" />
		<tag k="ssr:stedsnr" v="264544" />
	</node>
	<node id="-510980" lat="58.2087611127" lon="6.79942499903">
		<tag k="alt_name" v="Gjervollstadvannet" />
		<tag k="name" v="Gjervollstadvatnet" />
		<tag k="natural" v="water" />
		<tag k="ssr:stedsnr" v="176" />
	</node>
	<node id="-511504" lat="58.1239249996" lon="6.76114999391">
		<tag k="name" v="Osan" />
		<tag k="ssr:stedsnr" v="446650" />
		<tag k="waterway" v="stream" />
	</node>
	<node id="-512015" lat="58.163152781" lon="6.65548611468">
		<tag k="name" v="Heskestadtjønn" />
		<tag k="natural" v="water" />
		<tag k="ssr:stedsnr" v="871367" />
	</node>
	<node id="-512526" lat="58.1972277749" lon="6.7387611107">
		<tag k="name" v="Grønnskartjødna" />
		<tag k="natural" v="water" />
		<tag k="ssr:stedsnr" v="203898" />
	</node>
	<node id="-511501" lat="58.1180361095" lon="6.72456389748">
		<tag k="name" v="Veisa" />
		<tag k="natural" v="water" />
		<tag k="ssr:stedsnr" v="446633" />
	</node>
	<node id="-512011" lat="58.1908222253" lon="6.74487222919">
		<tag k="name" v="Kjørkleivstranda" />
		<tag k="natural" v="beach" />
		<tag k="ssr:stedsnr" v="871428" />
	</node>
	<node id="-512010" lat="58.1378555529" lon="6.851030558">
		<tag k="name" v="Botnetjønna" />
		<tag k="natural" v="water" />
		<tag k="ssr:stedsnr" v="871426" />
	</node>
	<node id="-512518" lat="58.221911112" lon="6.84619444881">
		<tag k="name" v="Sundet" />
		<tag k="natural" v="strait" />
		<tag k="ssr:stedsnr" v="203785" />
	</node>
	<node id="-512517" lat="58.2248499965" lon="6.83399166729">
		<tag k="name" v="Båskartjødn" />
		<tag k="natural" v="water" />
		<tag k="ssr:stedsnr" v="203774" />
	</node>
	<node id="-511492" lat="58.1426777767" lon="6.84166944989">
		<tag k="name" v="Bedringåstjønna" />
		<tag k="natural" v="water" />
		<tag k="ssr:stedsnr" v="446526" />
	</node>
	<node id="-512513" lat="58.1459805526" lon="6.68578611755">
		<tag k="name" v="Storestem" />
		<tag k="natural" v="water" />
		<tag k="ssr:stedsnr" v="203721" />
>>>>>>> e1d4bc35ff8a6074a6f2e91616a996b547c36f15
	</node>
</osm>
