<?xml version="1.0" encoding="UTF-8"?>
<<<<<<< HEAD
<osm version="0.6" generator="osmapis">
	<node lat="58.213847219719675" lon="6.759172228838384" id="-20710">
		<tag k="fixme" v="consider place=hamlet" />
		<tag k="name" v="Egeland" />
		<tag k="place" v="farm" />
		<tag k="ssr:stedsnr" v="160" />
	</node>
	<node lat="58.20625833624678" lon="6.82223332489494" id="-20711">
		<tag k="fixme" v="consider place=hamlet" />
		<tag k="name" v="Røyneskogen" />
		<tag k="place" v="farm" />
		<tag k="ssr:stedsnr" v="199" />
	</node>
	<node lat="58.14481110959669" lon="6.730477781752098" id="-20717">
		<tag k="fixme" v="consider place=hamlet" />
		<tag k="name" v="Frestadheia" />
		<tag k="place" v="farm" />
		<tag k="ssr:stedsnr" v="253" />
	</node>
	<node lat="58.12120277592119" lon="6.6940416662607305" id="-20718">
		<tag k="fixme" v="consider place=hamlet" />
		<tag k="name" v="Halland" />
		<tag k="place" v="farm" />
		<tag k="ssr:stedsnr" v="268" />
	</node>
	<node lat="58.10576944151539" lon="6.764869444239543" id="-20719">
		<tag k="fixme" v="consider place=hamlet" />
		<tag k="name" v="Øyvoll" />
		<tag k="place" v="farm" />
		<tag k="ssr:stedsnr" v="296" />
	</node>
	<node lat="58.10687499963981" lon="6.871819446830972" id="-20720">
		<tag k="fixme" v="consider place=hamlet" />
		<tag k="name" v="Forberg" />
		<tag k="place" v="farm" />
		<tag k="ssr:stedsnr" v="300" />
	</node>
	<node lat="58.12959722214895" lon="6.854894436152354" id="-20725">
		<tag k="name" v="Øygarden" />
		<tag k="place" v="locality" />
		<tag k="ssr:stedsnr" v="21491" />
	</node>
	<node lat="58.06779444269995" lon="6.971097224901785" id="-20745">
		<tag k="fixme" v="consider place=hamlet" />
		<tag k="name" v="Ytre Skarstein" />
		<tag k="place" v="farm" />
		<tag k="ssr:stedsnr" v="33104" />
	</node>
	<node lat="58.09488055900411" lon="6.805041667026345" id="-20747">
		<tag k="name" v="Farsund torv" />
		<tag k="place" v="square" />
		<tag k="ssr:stedsnr" v="41304" />
	</node>
	<node lat="58.087613885529656" lon="6.796188885870276" id="-20754">
		<tag k="name" v="Farsund fjordhotell" />
		<tag k="ssr:stedsnr" v="58870" />
		<tag k="tourism" v="hotel" />
	</node>
	<node lat="58.10070833197561" lon="6.788727780361573" id="-20756">
		<tag k="alt_name" v="Øyhovden" />
		<tag k="fixme" v="consider place=hamlet" />
		<tag k="name" v="Øyhovda" />
		<tag k="place" v="farm" />
		<tag k="ssr:stedsnr" v="60280" />
	</node>
	<node lat="58.1093611117127" lon="6.640636108005048" id="-20757">
		<tag k="fixme" v="consider place=hamlet" />
		<tag k="name" v="Ore" />
		<tag k="place" v="farm" />
		<tag k="ssr:stedsnr" v="60288" />
	</node>
	<node lat="58.108725004229825" lon="6.728611109413373" id="-20758">
		<tag k="fixme" v="consider place=hamlet" />
		<tag k="name" v="Helvik" />
		<tag k="place" v="farm" />
		<tag k="ssr:stedsnr" v="60291" />
	</node>
	<node lat="58.11287499987099" lon="6.931880563391558" id="-20759">
		<tag k="fixme" v="consider place=hamlet" />
		<tag k="name" v="Rona" />
		<tag k="place" v="farm" />
		<tag k="ssr:stedsnr" v="60305" />
	</node>
	<node lat="58.09171944529225" lon="6.906230555672001" id="-20760">
		<tag k="fixme" v="consider place=hamlet" />
		<tag k="name" v="Rødland" />
		<tag k="place" v="farm" />
		<tag k="ssr:stedsnr" v="60310" />
	</node>
	<node lat="58.08732777624376" lon="6.86516389539548" id="-20761">
		<tag k="fixme" v="consider place=hamlet" />
		<tag k="name" v="Birkenes" />
		<tag k="place" v="farm" />
		<tag k="ssr:stedsnr" v="60312" />
	</node>
	<node lat="58.09199444731752" lon="6.851819439844984" id="-20762">
		<tag k="alt_name" v="Nøtland" />
		<tag k="fixme" v="consider place=hamlet" />
		<tag k="name" v="Nautland" />
		<tag k="place" v="farm" />
		<tag k="ssr:stedsnr" v="60313" />
	</node>
	<node lat="58.07512222088844" lon="6.6857583270325796" id="-20763">
		<tag k="name" v="Kviljo" />
		<tag k="place" v="hamlet" />
		<tag k="ssr:stedsnr" v="60324" />
	</node>
	<node lat="58.195119443092096" lon="6.735269445998609" id="-20764">
		<tag k="fixme" v="consider place=hamlet" />
		<tag k="name" v="Kjørkleiv" />
		<tag k="place" v="farm" />
		<tag k="ssr:stedsnr" v="60514" />
	</node>
	<node lat="58.16089166888076" lon="6.664155561321233" id="-20765">
		<tag k="alt_name" v="Gjeldal" />
		<tag k="fixme" v="consider place=hamlet" />
		<tag k="name" v="Gjelldal" />
		<tag k="place" v="farm" />
		<tag k="ssr:stedsnr" v="61202" />
	</node>
	<node lat="58.147816670971764" lon="6.612600006422999" id="-20767">
		<tag k="fixme" v="consider place=hamlet" />
		<tag k="name" v="Håle" />
		<tag k="place" v="farm" />
		<tag k="ssr:stedsnr" v="61214" />
	</node>
	<node lat="58.18971944373875" lon="6.89131666131679" id="-20770">
		<tag k="fixme" v="consider place=hamlet" />
		<tag k="name" v="Holmen" />
		<tag k="place" v="farm" />
		<tag k="ssr:stedsnr" v="61195" />
	</node>
	<node lat="58.09811944060875" lon="6.691838882677227" id="-20771">
		<tag k="name" v="Vanse" />
		<tag k="place" v="village" />
		<tag k="ssr:stedsnr" v="61326" />
	</node>
	<node lat="58.118852782086606" lon="6.627008336096947" id="-20772">
		<tag k="alt_name" v="Hauge, vestre;Hauge vestre" />
		<tag k="name" v="Vestre Hauge" />
		<tag k="place" v="hamlet" />
		<tag k="ssr:stedsnr" v="242239" />
	</node>
	<node lat="58.11497777782551" lon="6.638855551419889" id="-20773">
		<tag k="fixme" v="consider place=hamlet" />
		<tag k="name" v="Langeland" />
		<tag k="place" v="farm" />
		<tag k="ssr:stedsnr" v="242249" />
	</node>
	<node lat="58.076741666880615" lon="6.860233341559936" id="-20775">
		<tag k="alt_name" v="Langøy, vestre" />
		<tag k="fixme" v="consider place=hamlet" />
		<tag k="name" v="Vestre Langøy" />
		<tag k="place" v="farm" />
		<tag k="ssr:stedsnr" v="242338" />
	</node>
	<node lat="58.10148512852584" lon="6.586921511422604" id="-20778">
		<tag k="fixme" v="multiple name tags, choose one and add the other to alt_name; consider place=hamlet" />
		<tag k="name" v="Vatne;Vatne vestre" />
		<tag k="place" v="farm" />
		<tag k="ssr:stedsnr" v="243107" />
	</node>
	<node lat="58.1077944473157" lon="6.584399991352216" id="-20779">
		<tag k="fixme" v="consider place=hamlet" />
		<tag k="name" v="Skollevoll" />
		<tag k="place" v="farm" />
		<tag k="ssr:stedsnr" v="243109" />
	</node>
	<node lat="58.15018055926843" lon="6.727686103025076" id="-20783">
		<tag k="fixme" v="consider place=hamlet" />
		<tag k="name" v="Skistad" />
		<tag k="place" v="farm" />
		<tag k="ssr:stedsnr" v="243237" />
	</node>
	<node lat="58.13016110786532" lon="6.672366662447413" id="-20784">
		<tag k="fixme" v="consider place=hamlet" />
		<tag k="name" v="Jåtog" />
		<tag k="place" v="farm" />
		<tag k="ssr:stedsnr" v="243255" />
	</node>
	<node lat="58.09305833019538" lon="6.600108341357552" id="-20785">
		<tag k="fixme" v="consider place=suburb, village or hamlet" />
		<tag k="name" v="Tjørve" />
		<tag k="place" v="quarter" />
		<tag k="ssr:stedsnr" v="243268" />
	</node>
	<node lat="58.104291668002496" lon="6.953272213962985" id="-20787">
		<tag k="name" v="Bakken" />
		<tag k="place" v="farm" />
		<tag k="ssr:stedsnr" v="243284" />
	</node>
	<node lat="58.18183055372502" lon="6.793727780108511" id="-20789">
		<tag k="fixme" v="consider place=hamlet" />
		<tag k="name" v="Kvåle" />
		<tag k="place" v="farm" />
		<tag k="ssr:stedsnr" v="243182" />
	</node>
	<node lat="58.1137361152999" lon="6.780074998542557" id="-20790">
		<tag k="fixme" v="consider place=hamlet" />
		<tag k="name" v="Suggenes" />
		<tag k="place" v="farm" />
		<tag k="ssr:stedsnr" v="243299" />
	</node>
	<node lat="58.082283329177216" lon="6.77153611506897" id="-20791">
		<tag k="fixme" v="consider place=hamlet" />
		<tag k="name" v="Lunde" />
		<tag k="place" v="farm" />
		<tag k="ssr:stedsnr" v="243312" />
	</node>
	<node lat="58.09565555273046" lon="6.677488891154163" id="-20792">
		<tag k="alt_name" v="Skeime, øvre;Skeime øvre" />
		<tag k="name" v="Øvre Skeime" />
		<tag k="place" v="hamlet" />
		<tag k="ssr:stedsnr" v="243325" />
	</node>
	<node lat="58.11787500393807" lon="6.677316661736239" id="-20800">
		<tag k="name" v="Leide" />
		<tag k="place" v="farm" />
		<tag k="ssr:stedsnr" v="82714" />
	</node>
	<node lat="58.14243611520567" lon="6.650705563131891" id="-20814">
		<tag k="name" v="Nyhagen" />
		<tag k="place" v="farm" />
		<tag k="ssr:stedsnr" v="82639" />
	</node>
	<node lat="58.13828889327098" lon="6.652113891619961" id="-20815">
		<tag k="name" v="Nyhagen" />
		<tag k="place" v="farm" />
		<tag k="ssr:stedsnr" v="82642" />
	</node>
	<node lat="58.16755000401798" lon="6.8056194437971005" id="-20821">
		<tag k="fixme" v="consider place=hamlet" />
		<tag k="name" v="Sandsheia" />
		<tag k="place" v="farm" />
		<tag k="ssr:stedsnr" v="82923" />
	</node>
	<node lat="58.056933333283304" lon="6.9665611150814115" id="-20832">
		<tag k="name" v="Kalshovud" />
		<tag k="place" v="farm" />
		<tag k="ssr:stedsnr" v="99410" />
	</node>
	<node lat="58.190200000444825" lon="6.8304305482190335" id="-20842">
		<tag k="fixme" v="consider place=hamlet" />
		<tag k="name" v="Tosås" />
		<tag k="place" v="farm" />
		<tag k="ssr:stedsnr" v="121175" />
	</node>
	<node lat="58.195119443092096" lon="6.735269445998609" id="-20843">
		<tag k="alt_name" v="Kjørrkleiv" />
		<tag k="name" v="Kjørkleiv" />
		<tag k="place" v="hamlet" />
		<tag k="ssr:stedsnr" v="121177" />
	</node>
	<node lat="58.174205552371454" lon="6.652713897465886" id="-20844">
		<tag k="fixme" v="consider place=hamlet" />
		<tag k="name" v="Ellenes" />
		<tag k="place" v="farm" />
		<tag k="ssr:stedsnr" v="121192" />
	</node>
	<node lat="58.17777499600354" lon="6.701536116444149" id="-20845">
		<tag k="alt_name" v="Skumsvoll" />
		<tag k="name" v="Skomvoll" />
		<tag k="place" v="farm" />
		<tag k="ssr:stedsnr" v="121196" />
	</node>
	<node lat="58.10570833215986" lon="6.704380563761763" id="-20846">
		<tag k="fixme" v="consider place=hamlet" />
		<tag k="name" v="Knivsland" />
		<tag k="place" v="farm" />
		<tag k="ssr:stedsnr" v="121303" />
	</node>
	<node lat="58.116294442801596" lon="6.785655562066511" id="-20847">
		<tag k="fixme" v="consider place=hamlet" />
		<tag k="name" v="Sellegrod" />
		<tag k="place" v="farm" />
		<tag k="ssr:stedsnr" v="121313" />
	</node>
	<node lat="58.186011305939154" lon="6.737340926809125" id="-20850">
		<tag k="alt_name" v="Stølen, yt" />
		<tag k="fixme" v="consider place=hamlet" />
		<tag k="name" v="Ytre Stølen" />
		<tag k="place" v="farm" />
		<tag k="ssr:stedsnr" v="121202" />
	</node>
	<node lat="58.158383335356085" lon="6.783227777830918" id="-20853">
		<tag k="fixme" v="consider place=hamlet" />
		<tag k="name" v="Log" />
		<tag k="place" v="farm" />
		<tag k="ssr:stedsnr" v="121221" />
	</node>
	<node lat="58.132494443613254" lon="6.624741661483465" id="-20855">
		<tag k="alt_name" v="Skeibrok" />
		<tag k="name" v="Skeibrokk" />
		<tag k="place" v="hamlet" />
		<tag k="ssr:stedsnr" v="121237" />
	</node>
	<node lat="58.1184916639531" lon="6.923952784633662" id="-20856">
		<tag k="fixme" v="consider place=hamlet" />
		<tag k="name" v="Dåreid" />
		<tag k="place" v="farm" />
		<tag k="ssr:stedsnr" v="121265" />
	</node>
	<node lat="58.12311944421809" lon="6.8483499920763435" id="-20857">
		<tag k="fixme" v="consider place=hamlet" />
		<tag k="name" v="Fulland" />
		<tag k="place" v="farm" />
		<tag k="ssr:stedsnr" v="121267" />
	</node>
	<node lat="58.13128888741234" lon="6.767516664993434" id="-20858">
		<tag k="alt_name" v="Rydland" />
		<tag k="fixme" v="consider place=hamlet" />
		<tag k="name" v="Rødland på Heia" />
		<tag k="place" v="farm" />
		<tag k="ssr:stedsnr" v="121279" />
	</node>
	<node lat="58.12820555725946" lon="6.82151667204258" id="-20859">
		<tag k="fixme" v="consider place=hamlet" />
		<tag k="name" v="Espeland" />
		<tag k="place" v="farm" />
		<tag k="ssr:stedsnr" v="121285" />
	</node>
	<node lat="58.096405558203756" lon="6.898963884532283" id="-20874">
		<tag k="name" v="Nygård" />
		<tag k="place" v="farm" />
		<tag k="ssr:stedsnr" v="142486" />
	</node>
	<node lat="58.15512381362006" lon="6.811007154604967" id="-20882">
		<tag k="name" v="Hauli" />
		<tag k="place" v="farm" />
		<tag k="ssr:stedsnr" v="142920" />
	</node>
	<node lat="58.08236388753202" lon="6.896572215087836" id="-20895">
		<tag k="name" v="Notodden" />
		<tag k="place" v="isolated_dwelling" />
		<tag k="ssr:stedsnr" v="179204" />
	</node>
	<node lat="58.0851111115307" lon="6.893319437596501" id="-20902">
		<tag k="fixme" v="consider place=hamlet" />
		<tag k="name" v="Reisvåg" />
		<tag k="place" v="farm" />
		<tag k="ssr:stedsnr" v="182306" />
	</node>
	<node lat="58.175566664324585" lon="6.692869438666112" id="-20905">
		<tag k="fixme" v="consider place=hamlet" />
		<tag k="name" v="Sigersvoll" />
		<tag k="place" v="farm" />
		<tag k="ssr:stedsnr" v="182201" />
	</node>
	<node lat="58.08774999772408" lon="6.968486111099167" id="-20906">
		<tag k="fixme" v="consider place=hamlet" />
		<tag k="name" v="Tonsberg" />
		<tag k="place" v="farm" />
		<tag k="ssr:stedsnr" v="182514" />
	</node>
	<node lat="58.10794999662073" lon="6.64559444990412" id="-20936">
		<tag k="name" v="Dyttan" />
		<tag k="place" v="farm" />
		<tag k="ssr:stedsnr" v="264767" />
	</node>
	<node lat="58.12247778198019" lon="6.689075005706773" id="-20945">
		<tag k="name" v="Kleivollen" />
		<tag k="place" v="farm" />
		<tag k="ssr:stedsnr" v="264725" />
	</node>
	<node lat="58.18447864574597" lon="6.792464313193888" id="-20948">
		<tag k="name" v="Åptelia" />
		<tag k="place" v="farm" />
		<tag k="ssr:stedsnr" v="264865" />
	</node>
	<node lat="58.104486113909644" lon="6.721330548975109" id="-20964">
		<tag k="name" v="Høygård" />
		<tag k="place" v="farm" />
		<tag k="ssr:stedsnr" v="203605" />
	</node>
	<node lat="58.079458336444944" lon="6.752336115762565" id="-20991">
		<tag k="fixme" v="consider place=hamlet" />
		<tag k="name" v="Torp" />
		<tag k="place" v="farm" />
		<tag k="ssr:stedsnr" v="242305" />
	</node>
	<node lat="58.08875223006261" lon="6.925436260201001" id="-20992">
		<tag k="fixme" v="consider place=hamlet" />
		<tag k="name" v="Ersåker" />
		<tag k="place" v="farm" />
		<tag k="ssr:stedsnr" v="242308" />
	</node>
	<node lat="58.07967500155305" lon="6.768722214332984" id="-20995">
		<tag k="name" v="Lunde" />
		<tag k="place" v="farm" />
		<tag k="ssr:stedsnr" v="243735" />
	</node>
	<node lat="58.1237361068652" lon="6.724758325909612" id="-21006">
		<tag k="name" v="Nyhagen" />
		<tag k="place" v="locality" />
		<tag k="ssr:stedsnr" v="264615" />
	</node>
	<node lat="58.12692777832622" lon="6.6017472144788165" id="-21020">
		<tag k="name" v="Vestre Vere" />
		<tag k="place" v="hamlet" />
		<tag k="ssr:stedsnr" v="264751" />
	</node>
	<node lat="58.08927499948061" lon="6.891241663572837" id="-21049">
		<tag k="fixme" v="consider place=hamlet" />
		<tag k="name" v="Espeland" />
		<tag k="place" v="farm" />
		<tag k="ssr:stedsnr" v="303309" />
	</node>
	<node lat="58.16799999621398" lon="6.735783333891367" id="-21051">
		<tag k="fixme" v="consider place=hamlet" />
		<tag k="name" v="Listeid" />
		<tag k="place" v="farm" />
		<tag k="ssr:stedsnr" v="303205" />
	</node>
	<node lat="58.15935832924666" lon="6.657824993499259" id="-21052">
		<tag k="fixme" v="consider place=hamlet" />
		<tag k="name" v="Heskestad" />
		<tag k="place" v="farm" />
		<tag k="ssr:stedsnr" v="303210" />
	</node>
	<node lat="58.167750000776024" lon="6.698274995238771" id="-21053">
		<tag k="fixme" v="consider place=hamlet" />
		<tag k="name" v="Frøysti" />
		<tag k="place" v="farm" />
		<tag k="ssr:stedsnr" v="303211" />
	</node>
	<node lat="58.12663888632032" lon="6.626080557644644" id="-21054">
		<tag k="fixme" v="consider place=hamlet" />
		<tag k="name" v="Meberg" />
		<tag k="place" v="farm" />
		<tag k="ssr:stedsnr" v="303270" />
	</node>
	<node lat="58.08908333646788" lon="6.718175006248341" id="-21056">
		<tag k="fixme" v="consider place=hamlet" />
		<tag k="name" v="Steinsvoll" />
		<tag k="place" v="farm" />
		<tag k="ssr:stedsnr" v="304327" />
	</node>
	<node lat="58.07072499684655" lon="6.811508325251267" id="-21096">
		<tag k="name" v="Eigvåg" />
		<tag k="place" v="hamlet" />
		<tag k="ssr:stedsnr" v="342996" />
	</node>
	<node lat="58.17555555403185" lon="6.674349999346032" id="-21101">
		<tag k="fixme" v="consider place=hamlet" />
		<tag k="name" v="Elle" />
		<tag k="place" v="farm" />
		<tag k="ssr:stedsnr" v="364211" />
	</node>
	<node lat="58.13549444750999" lon="6.657952782107411" id="-21102">
		<tag k="fixme" v="consider place=hamlet" />
		<tag k="name" v="Tveit" />
		<tag k="place" v="farm" />
		<tag k="ssr:stedsnr" v="364258" />
	</node>
	<node lat="58.107691667601394" lon="6.62594721736124" id="-21104">
		<tag k="alt_name" v="Råstad, nedre;Råstad nedre" />
		<tag k="fixme" v="consider place=hamlet" />
		<tag k="name" v="Nedre Råstad" />
		<tag k="place" v="farm" />
		<tag k="ssr:stedsnr" v="364302" />
	</node>
	<node lat="58.10703888586084" lon="6.649599994135568" id="-21105">
		<tag k="fixme" v="consider place=hamlet" />
		<tag k="name" v="Maberg" />
		<tag k="place" v="farm" />
		<tag k="ssr:stedsnr" v="364303" />
	</node>
	<node lat="58.164111114491604" lon="6.663455562672442" id="-21112">
		<tag k="name" v="Levoll" />
		<tag k="place" v="farm" />
		<tag k="ssr:stedsnr" v="385396" />
	</node>
	<node lat="58.171455553887185" lon="6.680938892890118" id="-21113">
		<tag k="name" v="Brattevoll" />
		<tag k="place" v="farm" />
		<tag k="ssr:stedsnr" v="385398" />
	</node>
	<node lat="58.183263887234226" lon="6.784800003418416" id="-21135">
		<tag k="name" v="Lundemyr" />
		<tag k="place" v="farm" />
		<tag k="ssr:stedsnr" v="385864" />
	</node>
	<node lat="58.12961111123412" lon="6.810749996826565" id="-21148">
		<tag k="fixme" v="consider place=hamlet" />
		<tag k="name" v="Lia" />
		<tag k="place" v="farm" />
		<tag k="ssr:stedsnr" v="485222" />
	</node>
	<node lat="58.18621110952044" lon="6.90411388527974" id="-21151">
		<tag k="fixme" v="consider place=hamlet" />
		<tag k="name" v="Seland" />
		<tag k="place" v="farm" />
		<tag k="ssr:stedsnr" v="485155" />
	</node>
	<node lat="58.15125000297364" lon="6.652158331661309" id="-21155">
		<tag k="fixme" v="consider place=hamlet" />
		<tag k="name" v="Vigmostad" />
		<tag k="place" v="farm" />
		<tag k="ssr:stedsnr" v="485186" />
	</node>
	<node lat="58.133600001429315" lon="6.609102771171544" id="-21156">
		<tag k="fixme" v="consider place=hamlet" />
		<tag k="name" v="Penne" />
		<tag k="place" v="farm" />
		<tag k="ssr:stedsnr" v="485193" />
	</node>
	<node lat="58.14257499985928" lon="6.759844443825291" id="-21157">
		<tag k="alt_name" v="Bøen" />
		<tag k="fixme" v="consider place=hamlet" />
		<tag k="name" v="Kjellingbø" />
		<tag k="place" v="farm" />
		<tag k="ssr:stedsnr" v="485196" />
	</node>
	<node lat="58.077761107522804" lon="6.778119439119236" id="-21160">
		<tag k="alt_name" v="Vollmona" />
		<tag k="name" v="Vollmoen" />
		<tag k="place" v="farm" />
		<tag k="ssr:stedsnr" v="485262" />
	</node>
	<node lat="58.108597219252665" lon="6.680736108690554" id="-21163">
		<tag k="name" v="Øygard" />
		<tag k="place" v="farm" />
		<tag k="ssr:stedsnr" v="485241" />
	</node>
	<node lat="58.17860000095563" lon="6.638975001220814" id="-21185">
		<tag k="alt_name" v="Vikane;Vikene" />
		<tag k="fixme" v="consider place=hamlet" />
		<tag k="name" v="Vigan" />
		<tag k="place" v="farm" />
		<tag k="ssr:stedsnr" v="425197" />
	</node>
	<node lat="58.09516388636407" lon="6.954013885839556" id="-21187">
		<tag k="alt_name" v="Abelvik" />
		<tag k="fixme" v="consider place=hamlet" />
		<tag k="name" v="Apalvik" />
		<tag k="place" v="farm" />
		<tag k="ssr:stedsnr" v="425346" />
	</node>
	<node lat="58.064650001287404" lon="6.951233325778688" id="-21189">
		<tag k="fixme" v="consider place=hamlet" />
		<tag k="name" v="Viestad" />
		<tag k="place" v="farm" />
		<tag k="ssr:stedsnr" v="425353" />
	</node>
	<node lat="58.08983888442462" lon="6.867991659053336" id="-21194">
		<tag k="name" v="Bjorsbakken" />
		<tag k="place" v="farm" />
		<tag k="ssr:stedsnr" v="446509" />
	</node>
	<node lat="58.08877499674954" lon="6.790077777381378" id="-21233">
		<tag k="name" v="Fjellestad" />
		<tag k="place" v="farm" />
		<tag k="ssr:stedsnr" v="482838" />
	</node>
	<node lat="58.208397221177314" lon="6.856511119148657" id="-21234">
		<tag k="fixme" v="consider place=hamlet" />
		<tag k="name" v="Saudland" />
		<tag k="place" v="farm" />
		<tag k="ssr:stedsnr" v="485129" />
	</node>
	<node lat="58.081258329682676" lon="6.96310555184911" id="-21237">
		<tag k="fixme" v="consider place=hamlet" />
		<tag k="name" v="Bjørnevåg" />
		<tag k="place" v="farm" />
		<tag k="ssr:stedsnr" v="485296" />
	</node>
	<node lat="58.11673611316932" lon="6.6474749953741865" id="-21271">
		<tag k="name" v="Vinni" />
		<tag k="place" v="farm" />
		<tag k="ssr:stedsnr" v="507770" />
	</node>
	<node lat="58.116744442543684" lon="6.733136113421627" id="-21274">
		<tag k="name" v="Torvollen" />
		<tag k="place" v="farm" />
		<tag k="ssr:stedsnr" v="507662" />
	</node>
	<node lat="58.072350000830795" lon="6.910999992369281" id="-21281">
		<tag k="name" v="Svinehagen" />
		<tag k="place" v="farm" />
		<tag k="ssr:stedsnr" v="543188" />
	</node>
	<node lat="58.17993889276586" lon="6.692724992483363" id="-21288">
		<tag k="name" v="Stibakken" />
		<tag k="place" v="farm" />
		<tag k="ssr:stedsnr" v="546192" />
	</node>
	<node lat="58.098030560058184" lon="6.830144446025982" id="-21289">
		<tag k="alt_name" v="Håvika" />
		<tag k="fixme" v="consider place=hamlet" />
		<tag k="name" v="Havik" />
		<tag k="old_name" v="Håvik" />
		<tag k="place" v="farm" />
		<tag k="ssr:stedsnr" v="546307" />
	</node>
	<node lat="58.04535833029496" lon="6.919805558957376" id="-21291">
		<tag k="fixme" v="consider place=hamlet" />
		<tag k="name" v="Ullerøy" />
		<tag k="place" v="farm" />
		<tag k="ssr:stedsnr" v="546374" />
	</node>
	<node lat="58.07924999807524" lon="6.651519449586053" id="-21299">
		<tag k="name" v="Årvoll" />
		<tag k="place" v="farm" />
		<tag k="ssr:stedsnr" v="689375" />
	</node>
	<node lat="58.1601638904847" lon="6.740044444004875" id="-21302">
		<tag k="name" v="Goneshus" />
		<tag k="place" v="locality" />
		<tag k="ssr:stedsnr" v="689445" />
	</node>
	<node lat="58.1152277774982" lon="6.7745777723836875" id="-21359">
		<tag k="name" v="Heiastrand" />
		<tag k="place" v="farm" />
		<tag k="ssr:stedsnr" v="567571" />
	</node>
	<node lat="58.125211111844095" lon="6.660572217034758" id="-21368">
		<tag k="name" v="Kleiveland" />
		<tag k="place" v="locality" />
		<tag k="ssr:stedsnr" v="567716" />
	</node>
	<node lat="58.163183336247094" lon="6.62423611513594" id="-21400">
		<tag k="alt_name" v="Uddal" />
		<tag k="fixme" v="consider place=hamlet" />
		<tag k="name" v="Udal" />
		<tag k="place" v="farm" />
		<tag k="ssr:stedsnr" v="606204" />
	</node>
	<node lat="58.172341667533125" lon="6.709058333521707" id="-21401">
		<tag k="alt_name" v="Knustad" />
		<tag k="fixme" v="consider place=hamlet" />
		<tag k="name" v="Knutstad" />
		<tag k="place" v="farm" />
		<tag k="ssr:stedsnr" v="606212" />
	</node>
	<node lat="58.14398333525576" lon="6.6543527856603015" id="-21402">
		<tag k="name" v="Grønhaug" />
		<tag k="place" v="farm" />
		<tag k="ssr:stedsnr" v="606217" />
	</node>
	<node lat="58.2036499977602" lon="6.839255559025242" id="-21403">
		<tag k="fixme" v="consider place=hamlet" />
		<tag k="name" v="Svindal" />
		<tag k="place" v="farm" />
		<tag k="ssr:stedsnr" v="606181" />
	</node>
	<node lat="58.114111106754294" lon="6.880719448713802" id="-21410">
		<tag k="alt_name" v="Bjørgen" />
		<tag k="fixme" v="consider place=hamlet" />
		<tag k="name" v="Bjørga" />
		<tag k="place" v="farm" />
		<tag k="ssr:stedsnr" v="606297" />
	</node>
	<node lat="58.10632499655818" lon="6.950505557622157" id="-21412">
		<tag k="alt_name" v="Nordre Våge" />
		<tag k="fixme" v="consider place=hamlet" />
		<tag k="name" v="Våge" />
		<tag k="place" v="farm" />
		<tag k="ssr:stedsnr" v="607305" />
	</node>
	<node lat="58.09193611088618" lon="6.684872221193595" id="-21413">
		<tag k="alt_name" v="Skeime, nedre;Skeime nedre" />
		<tag k="fixme" v="multiple name tags, choose one and add the other to alt_name" />
		<tag k="name" v="Skeime;Nedre Skeime" />
		<tag k="place" v="hamlet" />
		<tag k="ssr:stedsnr" v="607310" />
	</node>
	<node lat="58.04550000207771" lon="6.9184305514744" id="-21451">
		<tag k="name" v="Lega" />
		<tag k="place" v="isolated_dwelling" />
		<tag k="ssr:stedsnr" v="706302" />
	</node>
	<node lat="58.21516666487523" lon="6.7717222203436656" id="-21464">
		<tag k="name" v="Strondebakken" />
		<tag k="place" v="farm" />
		<tag k="ssr:stedsnr" v="666315" />
	</node>
	<node lat="58.15554999661755" lon="6.787075006749415" id="-21467">
		<tag k="fixme" v="consider place=hamlet" />
		<tag k="name" v="Briseid" />
		<tag k="place" v="farm" />
		<tag k="ssr:stedsnr" v="667234" />
	</node>
	<node lat="58.125672221070616" lon="6.688455556720567" id="-21468">
		<tag k="fixme" v="consider place=hamlet" />
		<tag k="name" v="Reisvoll" />
		<tag k="place" v="farm" />
		<tag k="ssr:stedsnr" v="667280" />
	</node>
	<node lat="58.11155277387851" lon="6.6621250014722255" id="-21471">
		<tag k="fixme" v="consider place=hamlet" />
		<tag k="name" v="Kotland" />
		<tag k="place" v="farm" />
		<tag k="ssr:stedsnr" v="667301" />
	</node>
	<node lat="58.08850946582365" lon="6.897595036684813" id="-21472">
		<tag k="fixme" v="consider place=hamlet" />
		<tag k="name" v="Egra" />
		<tag k="place" v="farm" />
		<tag k="ssr:stedsnr" v="667312" />
	</node>
	<node lat="58.08169999964924" lon="6.810816659502689" id="-21473">
		<tag k="fixme" v="consider place=hamlet" />
		<tag k="name" v="Skjolnes" />
		<tag k="place" v="farm" />
		<tag k="ssr:stedsnr" v="667321" />
	</node>
	<node lat="58.07088055846715" lon="6.731750000307171" id="-21474">
		<tag k="fixme" v="consider place=hamlet" />
		<tag k="name" v="Åsen" />
		<tag k="place" v="farm" />
		<tag k="ssr:stedsnr" v="667322" />
	</node>
	<node lat="58.082972220241054" lon="6.765372216202249" id="-21487">
		<tag k="fixme" v="multiple name tags, choose one and add the other to alt_name" />
		<tag k="name" v="Kråkenes;Krågenes" />
		<tag k="place" v="farm" />
		<tag k="ssr:stedsnr" v="689612" />
	</node>
	<node lat="58.16246041616524" lon="6.865888063595505" id="-21511">
		<tag k="alt_name" v="Austad" />
		<tag k="fixme" v="consider place=hamlet" />
		<tag k="name" v="Nedre Austad" />
		<tag k="place" v="farm" />
		<tag k="ssr:stedsnr" v="689791" />
	</node>
	<node lat="58.08805555321859" lon="6.907974993404009" id="-21528">
		<tag k="name" v="Myra" />
		<tag k="place" v="farm" />
		<tag k="ssr:stedsnr" v="728275" />
	</node>
	<node lat="58.19590000187339" lon="6.861411112405674" id="-21530">
		<tag k="fixme" v="consider place=hamlet" />
		<tag k="name" v="Litland" />
		<tag k="place" v="farm" />
		<tag k="ssr:stedsnr" v="728173" />
	</node>
	<node lat="58.056461109449145" lon="6.968786114952504" id="-21537">
		<tag k="name" v="Sandvik" />
		<tag k="place" v="farm" />
		<tag k="ssr:stedsnr" v="728604" />
	</node>
	<node lat="58.087325004498226" lon="6.847619449344613" id="-21571">
		<tag k="name" v="Ramsdalen" />
		<tag k="place" v="farm" />
		<tag k="ssr:stedsnr" v="750375" />
	</node>
	<node lat="58.1395666631256" lon="6.6462861127685295" id="-21591">
		<tag k="fixme" v="consider place=hamlet" />
		<tag k="name" v="Tomstad" />
		<tag k="place" v="farm" />
		<tag k="ssr:stedsnr" v="910239" />
	</node>
	<node lat="58.140263892689205" lon="6.670158326575441" id="-21592">
		<tag k="fixme" v="consider place=hamlet" />
		<tag k="name" v="Sudland" />
		<tag k="place" v="farm" />
		<tag k="ssr:stedsnr" v="910245" />
	</node>
	<node lat="58.12644166796757" lon="6.733266667151963" id="-21593">
		<tag k="fixme" v="consider place=hamlet" />
		<tag k="name" v="Frestad" />
		<tag k="place" v="farm" />
		<tag k="ssr:stedsnr" v="910280" />
	</node>
	<node lat="58.09310277815398" lon="6.836030557648588" id="-21595">
		<tag k="alt_name" v="Bekkevik" />
		<tag k="name" v="Bekkevika" />
		<tag k="place" v="hamlet" />
		<tag k="ssr:stedsnr" v="910323" />
	</node>
	<node lat="58.10118599720167" lon="6.871702282295307" id="-21596">
		<tag k="fixme" v="consider place=hamlet" />
		<tag k="name" v="Sævik" />
		<tag k="place" v="farm" />
		<tag k="ssr:stedsnr" v="910288" />
	</node>
	<node lat="58.07391666525785" lon="6.868594436668589" id="-21600">
		<tag k="alt_name" v="Langøy, midtre" />
		<tag k="fixme" v="consider place=hamlet" />
		<tag k="name" v="Midtre Langøy" />
		<tag k="place" v="farm" />
		<tag k="ssr:stedsnr" v="910361" />
	</node>
	<node lat="58.09331388929213" lon="6.754569445804848" id="-21602">
		<tag k="fixme" v="consider place=hamlet" />
		<tag k="name" v="Buland" />
		<tag k="place" v="farm" />
		<tag k="ssr:stedsnr" v="910329" />
	</node>
	<node lat="58.08164166412469" lon="6.663502786107926" id="-21603">
		<tag k="fixme" v="consider place=hamlet" />
		<tag k="name" v="Nesheim" />
		<tag k="place" v="farm" />
		<tag k="ssr:stedsnr" v="910334" />
	</node>
	<node lat="58.078411107249664" lon="6.918377784099251" id="-21604">
		<tag k="name" v="Risodden" />
		<tag k="place" v="isolated_dwelling" />
		<tag k="ssr:stedsnr" v="786120" />
	</node>
	<node lat="58.11047777997174" lon="6.699199996481462" id="-21610">
		<tag k="name" v="Gaupeland" />
		<tag k="place" v="farm" />
		<tag k="ssr:stedsnr" v="788304" />
	</node>
	<node lat="58.11151388711978" lon="6.80428610447164" id="-21611">
		<tag k="fixme" v="consider place=hamlet" />
		<tag k="name" v="Beiske" />
		<tag k="place" v="farm" />
		<tag k="ssr:stedsnr" v="788310" />
	</node>
	<node lat="58.11781667015254" lon="6.772469439982373" id="-21614">
		<tag k="name" v="Heia" />
		<tag k="place" v="farm" />
		<tag k="ssr:stedsnr" v="788264" />
	</node>
	<node lat="58.09561666798035" lon="6.988736114168898" id="-21618">
		<tag k="fixme" v="consider place=hamlet" />
		<tag k="name" v="Bostevoll" />
		<tag k="place" v="farm" />
		<tag k="ssr:stedsnr" v="789522" />
	</node>
	<node lat="58.084506301776756" lon="6.985753117075105" id="-21619">
		<tag k="alt_name" v="Stautland, yt" />
		<tag k="fixme" v="consider place=hamlet" />
		<tag k="name" v="Ytre Stautland" />
		<tag k="place" v="farm" />
		<tag k="ssr:stedsnr" v="789525" />
	</node>
	<node lat="58.10381666543195" lon="6.958941659437827" id="-21631">
		<tag k="name" v="Nordskog" />
		<tag k="place" v="farm" />
		<tag k="ssr:stedsnr" v="810491" />
	</node>
	<node lat="58.08716389294094" lon="6.785919451515656" id="-21633">
		<tag k="name" v="Danefjell" />
		<tag k="place" v="quarter" />
		<tag k="ssr:stedsnr" v="810614" />
	</node>
	<node lat="58.09183889006033" lon="6.800652781332568" id="-21634">
		<tag k="leisure" v="park" />
		<tag k="name" v="Varbak" />
		<tag k="ssr:stedsnr" v="810616" />
	</node>
	<node lat="58.209819445320086" lon="6.792583326483635" id="-21657">
		<tag k="fixme" v="consider place=hamlet" />
		<tag k="name" v="Gjervollstad" />
		<tag k="place" v="farm" />
		<tag k="ssr:stedsnr" v="849189" />
	</node>
	<node lat="58.10444444457832" lon="6.668602777109836" id="-21658">
		<tag k="fixme" v="consider place=hamlet" />
		<tag k="name" v="Brastad" />
		<tag k="place" v="farm" />
		<tag k="ssr:stedsnr" v="849310" />
	</node>
	<node lat="58.11811111403764" lon="6.644861107700435" id="-21659">
		<tag k="name" v="Frøyland" />
		<tag k="place" v="quarter" />
		<tag k="ssr:stedsnr" v="849288" />
	</node>
	<node lat="58.18058333107743" lon="6.782200002662237" id="-21664">
		<tag k="alt_name" v="Gauteland" />
		<tag k="fixme" v="consider place=hamlet" />
		<tag k="name" v="Gautland" />
		<tag k="place" v="farm" />
		<tag k="ssr:stedsnr" v="850191" />
	</node>
	<node lat="58.08943055461637" lon="6.667811118651676" id="-21665">
		<tag k="fixme" v="consider place=hamlet" />
		<tag k="name" v="Dyngvoll" />
		<tag k="place" v="farm" />
		<tag k="ssr:stedsnr" v="850334" />
	</node>
	<node lat="58.08907221815527" lon="6.694933325216259" id="-21666">
		<tag k="fixme" v="consider place=hamlet" />
		<tag k="name" v="Østre Vatne " />
		<tag k="place" v="farm" />
		<tag k="ssr:stedsnr" v="850338" />
	</node>
	<node lat="58.06253611479915" lon="6.941216663943302" id="-21704">
		<tag k="name" v="Hummervika" />
		<tag k="place" v="farm" />
		<tag k="ssr:stedsnr" v="932425" />
	</node>
	<node lat="58.09158888455776" lon="6.91263610777565" id="-21712">
		<tag k="name" v="Slåta" />
		<tag k="place" v="farm" />
		<tag k="ssr:stedsnr" v="932493" />
	</node>
	<node lat="58.07911388765447" lon="6.768605562181353" id="-21743">
		<tag k="amenity" v="school" />
		<tag k="name" v="Lunde skole" />
		<tag k="ssr:stedsnr" v="932637" />
	</node>
	<node lat="58.19345555661758" lon="6.890566670091803" id="-21747">
		<tag k="name" v="Sigvollstø" />
		<tag k="place" v="locality" />
		<tag k="ssr:stedsnr" v="932746" />
	</node>
	<node lat="58.168433332602746" lon="6.87162778473554" id="-21754">
		<tag k="fixme" v="consider place=hamlet" />
		<tag k="name" v="Lille Skjoldal" />
		<tag k="place" v="farm" />
		<tag k="ssr:stedsnr" v="932797" />
	</node>
	<node lat="58.074641669333474" lon="6.774113881909083" id="-21774">
		<tag k="name" v="Einarsnes" />
		<tag k="place" v="isolated_dwelling" />
		<tag k="ssr:stedsnr" v="889055" />
	</node>
	<node lat="58.097897224333586" lon="6.697994445120708" id="-21780">
		<tag k="fixme" v="consider place=hamlet" />
		<tag k="name" v="Bryne" />
		<tag k="place" v="farm" />
		<tag k="ssr:stedsnr" v="909771" />
	</node>
	<node lat="58.220499999574066" lon="6.868002775203913" id="-21781">
		<tag k="fixme" v="consider place=hamlet" />
		<tag k="name" v="Røynåsen" />
		<tag k="place" v="farm" />
		<tag k="ssr:stedsnr" v="910152" />
	</node>
	<node lat="58.11970277949674" lon="6.642008330543792" id="-21786">
		<tag k="fixme" v="consider place=hamlet" />
		<tag k="name" v="Kalleberg" />
		<tag k="place" v="farm" />
		<tag k="ssr:stedsnr" v="910249" />
	</node>
	<node lat="58.12006944017456" lon="6.6190138838371855" id="-21787">
		<tag k="alt_name" v="Slevedal" />
		<tag k="name" v="Slevdal" />
		<tag k="place" v="hamlet" />
		<tag k="ssr:stedsnr" v="910250" />
	</node>
	<node lat="58.11951388845051" lon="6.785336118922874" id="-21789">
		<tag k="fixme" v="consider place=hamlet" />
		<tag k="name" v="Halland" />
		<tag k="place" v="farm" />
		<tag k="ssr:stedsnr" v="910259" />
	</node>
	<node lat="58.12279722338141" lon="6.616741661218491" id="-21790">
		<tag k="alt_name" v="Vinneim" />
		<tag k="fixme" v="consider place=hamlet" />
		<tag k="name" v="Venneim" />
		<tag k="place" v="farm" />
		<tag k="ssr:stedsnr" v="910272" />
	</node>
	<node lat="58.08474000961131" lon="6.902537472886717" id="-21813">
		<tag k="fixme" v="consider place=hamlet" />
		<tag k="name" v="Øygarden" />
		<tag k="place" v="farm" />
		<tag k="ssr:stedsnr" v="968215" />
	</node>
	<node lat="58.19585886779319" lon="6.734082683027033" id="-21814">
		<tag k="name" v="Kjørkleiv" />
		<tag k="place" v="farm" />
		<tag k="ssr:stedsnr" v="974218" />
	</node>
	<node lat="58.190528942472724" lon="6.735708991678799" id="-21815">
		<tag k="name" v="Kjørkleiv" />
		<tag k="place" v="farm" />
		<tag k="ssr:stedsnr" v="974219" />
	</node>
	<node lat="58.192944710352265" lon="6.736077042047504" id="-21816">
		<tag k="name" v="Kjørkleiv" />
		<tag k="place" v="farm" />
		<tag k="ssr:stedsnr" v="974220" />
	</node>
	<node lat="58.195310733067984" lon="6.736401899200957" id="-21817">
		<tag k="name" v="Kjørkleiv" />
		<tag k="place" v="farm" />
		<tag k="ssr:stedsnr" v="974221" />
	</node>
	<node lat="58.19583062155331" lon="6.739221383371451" id="-21818">
		<tag k="name" v="Kjørkleiv" />
		<tag k="place" v="farm" />
		<tag k="ssr:stedsnr" v="974222" />
	</node>
	<node lat="58.20008499599813" lon="6.7644555536660205" id="-21819">
		<tag k="name" v="Saudland" />
		<tag k="place" v="farm" />
		<tag k="ssr:stedsnr" v="974223" />
	</node>
	<node lat="58.20170203417084" lon="6.768343470537416" id="-21820">
		<tag k="name" v="Saudland" />
		<tag k="place" v="farm" />
		<tag k="ssr:stedsnr" v="974224" />
	</node>
	<node lat="58.21084125792716" lon="6.8606886284051445" id="-21821">
		<tag k="name" v="Saudland" />
		<tag k="place" v="farm" />
		<tag k="ssr:stedsnr" v="974225" />
	</node>
	<node lat="58.08533973610954" lon="6.706841139875391" id="-21822">
		<tag k="fixme" v="consider place=hamlet" />
		<tag k="name" v="Østre Rødland" />
		<tag k="place" v="farm" />
		<tag k="ssr:stedsnr" v="977999" />
	</node>
	<node lat="58.07541405437671" lon="6.685723932004212" id="-21823">
		<tag k="fixme" v="consider place=hamlet" />
		<tag k="name" v="Kviljo" />
		<tag k="place" v="farm" />
		<tag k="ssr:stedsnr" v="978000" />
	</node>
	<node lat="58.09188653079626" lon="6.684523207764651" id="-21824">
		<tag k="fixme" v="consider place=hamlet" />
		<tag k="name" v="Nedre Skeime" />
		<tag k="place" v="farm" />
		<tag k="ssr:stedsnr" v="978001" />
	</node>
	<node lat="58.09474205236596" lon="6.675612656746059" id="-21825">
		<tag k="fixme" v="consider place=hamlet" />
		<tag k="name" v="Øvre Skeime" />
		<tag k="place" v="farm" />
		<tag k="ssr:stedsnr" v="978002" />
	</node>
	<node lat="58.08852386212301" lon="6.6286842560990085" id="-21826">
		<tag k="fixme" v="consider place=hamlet" />
		<tag k="name" v="Øvre Nordhassel" />
		<tag k="place" v="farm" />
		<tag k="ssr:stedsnr" v="978003" />
	</node>
	<node lat="58.085760830171516" lon="6.628524046505304" id="-21827">
		<tag k="fixme" v="consider place=hamlet" />
		<tag k="name" v="Nedre Nordhassel" />
		<tag k="place" v="farm" />
		<tag k="ssr:stedsnr" v="978005" />
	</node>
	<node lat="58.09350705894736" lon="6.598406644245998" id="-21828">
		<tag k="fixme" v="consider place=hamlet" />
		<tag k="name" v="Tjørve" />
		<tag k="place" v="farm" />
		<tag k="ssr:stedsnr" v="978006" />
	</node>
	<node lat="58.12483539080964" lon="6.609540887592058" id="-21829">
		<tag k="fixme" v="consider place=hamlet" />
		<tag k="name" v="Østre Vere" />
		<tag k="place" v="farm" />
		<tag k="ssr:stedsnr" v="978007" />
	</node>
	<node lat="58.12631375644357" lon="6.6038072920417275" id="-21830">
		<tag k="fixme" v="consider place=hamlet" />
		<tag k="name" v="Midtre Vere" />
		<tag k="place" v="farm" />
		<tag k="ssr:stedsnr" v="978008" />
	</node>
	<node lat="58.15517416450541" lon="6.6276167132531" id="-21831">
		<tag k="fixme" v="consider place=hamlet" />
		<tag k="name" v="Rudjord" />
		<tag k="place" v="farm" />
		<tag k="ssr:stedsnr" v="978009" />
	</node>
	<node lat="58.19117508432847" lon="6.6822222162524865" id="-21832">
		<tag k="fixme" v="consider place=hamlet" />
		<tag k="name" v="Åsalviken" />
		<tag k="place" v="farm" />
		<tag k="ssr:stedsnr" v="978014" />
	</node>
	<node lat="58.197864726816995" lon="6.702403388225398" id="-21833">
		<tag k="fixme" v="consider place=hamlet" />
		<tag k="name" v="Skagelien" />
		<tag k="place" v="farm" />
		<tag k="ssr:stedsnr" v="978016" />
	</node>
	<node lat="58.133185101478034" lon="6.685459810676893" id="-21834">
		<tag k="fixme" v="consider place=hamlet" />
		<tag k="name" v="Eikeland" />
		<tag k="place" v="farm" />
		<tag k="ssr:stedsnr" v="978021" />
	</node>
	<node lat="58.119504394416765" lon="6.680614634541103" id="-21835">
		<tag k="fixme" v="consider place=hamlet" />
		<tag k="name" v="Åmdal" />
		<tag k="place" v="farm" />
		<tag k="ssr:stedsnr" v="978026" />
	</node>
	<node lat="58.13559852985449" lon="6.857007982213805" id="-21836">
		<tag k="fixme" v="consider place=hamlet" />
		<tag k="name" v="Lille Sæveland" />
		<tag k="place" v="farm" />
		<tag k="ssr:stedsnr" v="978109" />
	</node>
	<node lat="58.1309573254631" lon="6.8361925343671635" id="-21837">
		<tag k="fixme" v="consider place=hamlet" />
		<tag k="name" v="Steian" />
		<tag k="place" v="farm" />
		<tag k="ssr:stedsnr" v="978111" />
	</node>
	<node lat="58.13340612546468" lon="6.795403384476186" id="-21838">
		<tag k="fixme" v="consider place=hamlet" />
		<tag k="name" v="Eivenshelle" />
		<tag k="place" v="farm" />
		<tag k="ssr:stedsnr" v="978114" />
	</node>
	<node lat="58.144549318643406" lon="6.83808996308811" id="-21839">
		<tag k="fixme" v="consider place=hamlet" />
		<tag k="name" v="Bidingsås" />
		<tag k="place" v="farm" />
		<tag k="ssr:stedsnr" v="978115" />
	</node>
	<node lat="58.166742485583285" lon="6.7731825893070745" id="-21840">
		<tag k="fixme" v="consider place=hamlet" />
		<tag k="name" v="Logsheien" />
		<tag k="place" v="farm" />
		<tag k="ssr:stedsnr" v="978119" />
	</node>
	<node lat="58.19471029471118" lon="6.757285149682913" id="-21841">
		<tag k="fixme" v="consider place=hamlet" />
		<tag k="name" v="Djuphagen" />
		<tag k="place" v="farm" />
		<tag k="ssr:stedsnr" v="978122" />
	</node>
	<node lat="58.094005018053615" lon="6.698921647692998" id="-21848">
		<tag k="name" v="Østre Vatne" />
		<tag k="place" v="farm" />
		<tag k="ssr:stedsnr" v="983315" />
	</node>
	<node lat="58.08874555311497" lon="6.697249204492714" id="-21849">
		<tag k="name" v="Østre Vatne" />
		<tag k="place" v="farm" />
		<tag k="ssr:stedsnr" v="983319" />
	</node>
	<node lat="58.093720021823785" lon="6.701853516246232" id="-21850">
		<tag k="name" v="Østre Vatne " />
		<tag k="place" v="farm" />
		<tag k="ssr:stedsnr" v="983322" />
	</node>
	<node lat="58.08697669016692" lon="6.692578288557581" id="-21851">
		<tag k="name" v="Østre Vatne" />
		<tag k="place" v="farm" />
		<tag k="ssr:stedsnr" v="983324" />
	</node>
	<node lat="58.13533792728859" lon="6.623180318001535" id="-21852">
		<tag k="name" v="Hervoll" />
		<tag k="place" v="farm" />
		<tag k="ssr:stedsnr" v="983332" />
	</node>
	<node lat="58.13610282949233" lon="6.624877447609422" id="-21853">
		<tag k="name" v="Hervoll" />
=======
<osm generator="osmapis" version="0.6">
	<node id="-511986" lat="58.1684333326" lon="6.87162778474">
		<tag k="fixme" v="consider place=hamlet" />
		<tag k="name" v="Lille Skjoldal" />
		<tag k="place" v="farm" />
		<tag k="ssr:stedsnr" v="932797" />
	</node>
	<node id="-511969" lat="58.0915888846" lon="6.91263610778">
		<tag k="name" v="Slåta" />
		<tag k="place" v="farm" />
		<tag k="ssr:stedsnr" v="932493" />
	</node>
	<node id="-511950" lat="58.1934555566" lon="6.89056667009">
		<tag k="name" v="Sigvollstø" />
		<tag k="place" v="locality" />
		<tag k="ssr:stedsnr" v="932746" />
	</node>
	<node id="-511309" lat="58.1266388863" lon="6.62608055764">
		<tag k="fixme" v="consider place=hamlet" />
		<tag k="name" v="Meberg" />
		<tag k="place" v="farm" />
		<tag k="ssr:stedsnr" v="303270" />
	</node>
	<node id="-511932" lat="58.0625361148" lon="6.94121666394">
		<tag k="name" v="Hummervika" />
		<tag k="place" v="farm" />
		<tag k="ssr:stedsnr" v="932425" />
	</node>
	<node id="-511926" lat="58.1324833331" lon="6.68624999939">
		<tag k="alt_name" v="Eigeland" />
		<tag k="name" v="Eikeland" />
		<tag k="place" v="hamlet" />
		<tag k="ssr:stedsnr" v="789244" />
	</node>
	<node id="-511925" lat="58.1737249958" lon="6.83745832685">
		<tag k="fixme" v="consider place=hamlet" />
		<tag k="name" v="Bines" />
		<tag k="place" v="farm" />
		<tag k="ssr:stedsnr" v="789220" />
	</node>
	<node id="-511304" lat="58.1031305559" lon="6.579113895">
		<tag k="fixme" v="consider place=hamlet" />
		<tag k="name" v="Borhaug" />
		<tag k="place" v="farm" />
		<tag k="ssr:stedsnr" v="303119" />
	</node>
	<node id="-511302" lat="58.0896444444" lon="6.79679445192">
		<tag k="leisure" v="pitch" />
		<tag k="name" v="Farsund stadion" />
		<tag k="ssr:stedsnr" v="300869" />
	</node>
	<node id="-511900" lat="58.0739166653" lon="6.86859443667">
		<tag k="alt_name" v="Langøy, midtre" />
		<tag k="fixme" v="consider place=hamlet" />
		<tag k="name" v="Midtre Langøy" />
		<tag k="place" v="farm" />
		<tag k="ssr:stedsnr" v="910361" />
	</node>
	<node id="-511897" lat="58.1011859972" lon="6.8717022823">
		<tag k="fixme" v="consider place=hamlet" />
		<tag k="name" v="Sævik" />
		<tag k="place" v="farm" />
		<tag k="ssr:stedsnr" v="910288" />
	</node>
	<node id="-511896" lat="58.126441668" lon="6.73326666715">
		<tag k="fixme" v="consider place=hamlet" />
		<tag k="name" v="Frestad" />
		<tag k="place" v="farm" />
		<tag k="ssr:stedsnr" v="910280" />
	</node>
	<node id="-511895" lat="58.1227972234" lon="6.61674166122">
		<tag k="alt_name" v="Vinneim" />
		<tag k="fixme" v="consider place=hamlet" />
		<tag k="name" v="Venneim" />
		<tag k="place" v="farm" />
		<tag k="ssr:stedsnr" v="910272" />
	</node>
	<node id="-511894" lat="58.1195138885" lon="6.78533611892">
		<tag k="fixme" v="consider place=hamlet" />
		<tag k="name" v="Halland" />
		<tag k="place" v="farm" />
		<tag k="ssr:stedsnr" v="910259" />
	</node>
	<node id="-511892" lat="58.1200694402" lon="6.61901388384">
		<tag k="alt_name" v="Slevedal" />
		<tag k="name" v="Slevdal" />
		<tag k="place" v="hamlet" />
		<tag k="ssr:stedsnr" v="910250" />
	</node>
	<node id="-511891" lat="58.1197027795" lon="6.64200833054">
		<tag k="fixme" v="consider place=hamlet" />
		<tag k="name" v="Kalleberg" />
		<tag k="place" v="farm" />
		<tag k="ssr:stedsnr" v="910249" />
	</node>
	<node id="-511890" lat="58.1402638927" lon="6.67015832658">
		<tag k="fixme" v="consider place=hamlet" />
		<tag k="name" v="Sudland" />
		<tag k="place" v="farm" />
		<tag k="ssr:stedsnr" v="910245" />
	</node>
	<node id="-511889" lat="58.1395666631" lon="6.64628611277">
		<tag k="fixme" v="consider place=hamlet" />
		<tag k="name" v="Tomstad" />
		<tag k="place" v="farm" />
		<tag k="ssr:stedsnr" v="910239" />
	</node>
	<node id="-511885" lat="58.2204999996" lon="6.8680027752">
		<tag k="fixme" v="consider place=hamlet" />
		<tag k="name" v="Røynåsen" />
		<tag k="place" v="farm" />
		<tag k="ssr:stedsnr" v="910152" />
	</node>
	<node id="-511882" lat="58.0978972243" lon="6.69799444512">
		<tag k="fixme" v="consider place=hamlet" />
		<tag k="name" v="Bryne" />
		<tag k="place" v="farm" />
		<tag k="ssr:stedsnr" v="909771" />
	</node>
	<node id="-512377" lat="58.1095416697" lon="6.79143889256">
		<tag k="name" v="Hovden" />
		<tag k="place" v="farm" />
		<tag k="ssr:stedsnr" v="142565" />
	</node>
	<node id="-511855" lat="58.1757861123" lon="6.78528888639">
		<tag k="alt_name" v="Kvålshei" />
		<tag k="fixme" v="consider place=hamlet" />
		<tag k="name" v="Kvålsheia" />
		<tag k="place" v="farm" />
		<tag k="ssr:stedsnr" v="728185" />
	</node>
	<node id="-511853" lat="58.1959000019" lon="6.86141111241">
		<tag k="fixme" v="consider place=hamlet" />
		<tag k="name" v="Litland" />
		<tag k="place" v="farm" />
		<tag k="ssr:stedsnr" v="728173" />
	</node>
	<node id="-511846" lat="58.2108412579" lon="6.86068862841">
		<tag k="name" v="Saudland" />
		<tag k="place" v="farm" />
		<tag k="ssr:stedsnr" v="974225" />
	</node>
	<node id="-511845" lat="58.2017020342" lon="6.76834347054">
		<tag k="name" v="Saudland" />
		<tag k="place" v="farm" />
		<tag k="ssr:stedsnr" v="974224" />
	</node>
	<node id="-511844" lat="58.200084996" lon="6.76445555367">
		<tag k="name" v="Saudland" />
		<tag k="place" v="farm" />
		<tag k="ssr:stedsnr" v="974223" />
	</node>
	<node id="-511843" lat="58.1958306216" lon="6.73922138337">
		<tag k="name" v="Kjørkleiv" />
		<tag k="place" v="farm" />
		<tag k="ssr:stedsnr" v="974222" />
	</node>
	<node id="-511842" lat="58.1953107331" lon="6.7364018992">
		<tag k="name" v="Kjørkleiv" />
		<tag k="place" v="farm" />
		<tag k="ssr:stedsnr" v="974221" />
	</node>
	<node id="-511841" lat="58.1929447104" lon="6.73607704205">
		<tag k="name" v="Kjørkleiv" />
		<tag k="place" v="farm" />
		<tag k="ssr:stedsnr" v="974220" />
	</node>
	<node id="-511840" lat="58.1905289425" lon="6.73570899168">
		<tag k="name" v="Kjørkleiv" />
		<tag k="place" v="farm" />
		<tag k="ssr:stedsnr" v="974219" />
	</node>
	<node id="-511829" lat="58.0746416693" lon="6.77411388191">
		<tag k="name" v="Einarsnes" />
		<tag k="place" v="isolated_dwelling" />
		<tag k="ssr:stedsnr" v="889055" />
	</node>
	<node id="-511815" lat="58.0829722202" lon="6.7653722162">
		<tag k="fixme" v="multiple name tags, choose one and add the other to alt_name" />
		<tag k="name" v="Kråkenes;Krågenes" />
		<tag k="place" v="farm" />
		<tag k="ssr:stedsnr" v="689612" />
	</node>
	<node id="-511803" lat="58.0708805585" lon="6.73175000031">
		<tag k="fixme" v="consider place=hamlet" />
		<tag k="name" v="Åsen" />
		<tag k="place" v="farm" />
		<tag k="ssr:stedsnr" v="667322" />
	</node>
	<node id="-511802" lat="58.0816999996" lon="6.8108166595">
		<tag k="fixme" v="consider place=hamlet" />
		<tag k="name" v="Skjolnes" />
		<tag k="place" v="farm" />
		<tag k="ssr:stedsnr" v="667321" />
	</node>
	<node id="-511801" lat="58.0883611147" lon="6.89765834105">
		<tag k="alt_name" v="Egre" />
		<tag k="fixme" v="consider place=hamlet" />
		<tag k="name" v="Ekre" />
		<tag k="place" v="farm" />
		<tag k="ssr:stedsnr" v="667312" />
	</node>
	<node id="-511800" lat="58.1189944488" lon="6.79209166578">
		<tag k="fixme" v="consider place=hamlet" />
		<tag k="name" v="Snabbe" />
		<tag k="place" v="farm" />
		<tag k="ssr:stedsnr" v="667257" />
	</node>
	<node id="-511799" lat="58.1555499966" lon="6.78707500675">
		<tag k="fixme" v="consider place=hamlet" />
		<tag k="name" v="Briseid" />
		<tag k="place" v="farm" />
		<tag k="ssr:stedsnr" v="667234" />
	</node>
	<node id="-511796" lat="58.2151666649" lon="6.77172222034">
		<tag k="name" v="Strondebakken" />
		<tag k="place" v="farm" />
		<tag k="ssr:stedsnr" v="666315" />
	</node>
	<node id="-511283" lat="58.122477782" lon="6.68907500571">
		<tag k="name" v="Kleivollen" />
		<tag k="place" v="farm" />
		<tag k="ssr:stedsnr" v="264725" />
	</node>
	<node id="-511792" lat="58.0564611094" lon="6.96878611495">
		<tag k="name" v="Sandvik" />
		<tag k="place" v="farm" />
		<tag k="ssr:stedsnr" v="728604" />
	</node>
	<node id="-511791" lat="58.0726277811" lon="6.96364721445">
		<tag k="name" v="Lyngsvåg" />
		<tag k="place" v="farm" />
		<tag k="ssr:stedsnr" v="728594" />
	</node>
	<node id="-511785" lat="58.0814888876" lon="6.65152499948">
		<tag k="name" v="Vesthassel" />
		<tag k="place" v="farm" />
		<tag k="ssr:stedsnr" v="728299" />
	</node>
	<node id="-511784" lat="58.08549167" lon="6.63753054991">
		<tag k="fixme" v="consider place=hamlet" />
		<tag k="name" v="Midthassel" />
		<tag k="place" v="farm" />
		<tag k="ssr:stedsnr" v="728297" />
	</node>
	<node id="-511782" lat="58.0880555532" lon="6.9079749934">
		<tag k="name" v="Myra" />
		<tag k="place" v="farm" />
		<tag k="ssr:stedsnr" v="728275" />
	</node>
	<node id="-511779" lat="58.1105916694" lon="6.63073054748">
		<tag k="alt_name" v="Råstad, øvre;Råstad øvre" />
		<tag k="name" v="Øvre Råstad" />
		<tag k="place" v="hamlet" />
		<tag k="ssr:stedsnr" v="728264" />
	</node>
	<node id="-511778" lat="58.089366774" lon="6.628591523">
		<tag k="name" v="Nordhassel" />
		<tag k="place" v="hamlet" />
		<tag k="ssr:stedsnr" v="728258" />
	</node>
	<node id="-511777" lat="58.0981944463" lon="6.93092499207">
		<tag k="fixme" v="consider place=hamlet" />
		<tag k="name" v="Spindanger" />
		<tag k="place" v="farm" />
		<tag k="ssr:stedsnr" v="728256" />
	</node>
	<node id="-511772" lat="58.2005166653" lon="6.91860277402">
		<tag k="name" v="Vaddelia" />
		<tag k="place" v="isolated_dwelling" />
		<tag k="ssr:stedsnr" v="728150" />
	</node>
	<node id="-511769" lat="58.2184138892" lon="6.85610556283">
		<tag k="fixme" v="consider place=hamlet" />
		<tag k="name" v="Laundal" />
		<tag k="place" v="farm" />
		<tag k="ssr:stedsnr" v="728129" />
	</node>
	<node id="-511763" lat="58.1544055517" lon="6.62882221801">
		<tag k="alt_name" v="Rydjord" />
		<tag k="name" v="Rudjord" />
		<tag k="place" v="hamlet" />
		<tag k="ssr:stedsnr" v="728201" />
	</node>
	<node id="-511713" lat="58.1063249966" lon="6.95050555762">
		<tag k="alt_name" v="Nordre Våge" />
		<tag k="fixme" v="consider place=hamlet" />
		<tag k="name" v="Våge" />
		<tag k="place" v="farm" />
		<tag k="ssr:stedsnr" v="607305" />
	</node>
	<node id="-511710" lat="58.1439833353" lon="6.65435278566">
		<tag k="name" v="Grønhaug" />
		<tag k="place" v="farm" />
		<tag k="ssr:stedsnr" v="606217" />
	</node>
	<node id="-511709" lat="58.1723416675" lon="6.70905833352">
		<tag k="alt_name" v="Knustad" />
		<tag k="fixme" v="consider place=hamlet" />
		<tag k="name" v="Knutstad" />
		<tag k="place" v="farm" />
		<tag k="ssr:stedsnr" v="606212" />
	</node>
	<node id="-511708" lat="58.1631833362" lon="6.62423611514">
		<tag k="alt_name" v="Uddal" />
		<tag k="fixme" v="consider place=hamlet" />
		<tag k="name" v="Udal" />
		<tag k="place" v="farm" />
		<tag k="ssr:stedsnr" v="606204" />
	</node>
	<node id="-511268" lat="58.1301611079" lon="6.67236666245">
		<tag k="fixme" v="consider place=hamlet" />
		<tag k="name" v="Jåtog" />
		<tag k="place" v="farm" />
		<tag k="ssr:stedsnr" v="243255" />
	</node>
	<node id="-511266" lat="58.1077944473" lon="6.58439999135">
		<tag k="fixme" v="consider place=hamlet" />
		<tag k="name" v="Skollevoll" />
		<tag k="place" v="farm" />
		<tag k="ssr:stedsnr" v="243109" />
	</node>
	<node id="-511687" lat="58.0455000021" lon="6.91843055147">
		<tag k="name" v="Lega" />
		<tag k="place" v="isolated_dwelling" />
		<tag k="ssr:stedsnr" v="706302" />
	</node>
	<node id="-511265" lat="58.1014851285" lon="6.58692151142">
		<tag k="fixme" v="multiple name tags, choose one and add the other to alt_name; consider place=hamlet" />
		<tag k="name" v="Vatne;Vatne vestre" />
		<tag k="place" v="farm" />
		<tag k="ssr:stedsnr" v="243107" />
	</node>
	<node id="-511263" lat="58.0887522301" lon="6.9254362602">
		<tag k="fixme" v="consider place=hamlet" />
		<tag k="name" v="Ersåker" />
		<tag k="place" v="farm" />
		<tag k="ssr:stedsnr" v="242308" />
	</node>
	<node id="-511672" lat="58.0980305601" lon="6.83014444603">
		<tag k="alt_name" v="Håvika" />
		<tag k="fixme" v="consider place=hamlet" />
		<tag k="name" v="Havik" />
		<tag k="old_name" v="Håvik" />
		<tag k="place" v="farm" />
		<tag k="ssr:stedsnr" v="546307" />
	</node>
	<node id="-511262" lat="58.0794583364" lon="6.75233611576">
		<tag k="fixme" v="consider place=hamlet" />
		<tag k="name" v="Torp" />
		<tag k="place" v="farm" />
		<tag k="ssr:stedsnr" v="242305" />
	</node>
	<node id="-511639" lat="58.1624604162" lon="6.8658880636">
		<tag k="alt_name" v="Austad" />
		<tag k="fixme" v="consider place=hamlet" />
		<tag k="name" v="Nedre Austad" />
		<tag k="place" v="farm" />
		<tag k="ssr:stedsnr" v="689791" />
	</node>
	<node id="-511595" lat="58.0792499981" lon="6.65151944959">
		<tag k="name" v="Årvoll" />
		<tag k="place" v="farm" />
		<tag k="ssr:stedsnr" v="689375" />
	</node>
	<node id="-511605" lat="58.1601638905" lon="6.740044444">
		<tag k="name" v="Goneshus" />
		<tag k="place" v="locality" />
		<tag k="ssr:stedsnr" v="689445" />
	</node>
	<node id="-511250" lat="58.1804500013" lon="6.86204722273">
		<tag k="fixme" v="consider place=hamlet" />
		<tag k="name" v="Vedremark" />
		<tag k="place" v="farm" />
		<tag k="ssr:stedsnr" v="446969" />
	</node>
	<node id="-511284" lat="58.1269277783" lon="6.60174721448">
		<tag k="name" v="Vestre Vere" />
		<tag k="place" v="hamlet" />
		<tag k="ssr:stedsnr" v="264751" />
	</node>
	<node id="-511581" lat="58.1167444425" lon="6.73313611342">
		<tag k="name" v="Torvollen" />
		<tag k="place" v="farm" />
		<tag k="ssr:stedsnr" v="507662" />
	</node>
	<node id="-511566" lat="58.0616777791" lon="6.939169452">
		<tag k="name" v="Hovden" />
		<tag k="place" v="farm" />
		<tag k="ssr:stedsnr" v="506946" />
	</node>
	<node id="-511552" lat="58.1845499983" lon="6.77699722226">
		<tag k="alt_name" v="Lille Jersdal" />
		<tag k="fixme" v="consider place=hamlet" />
		<tag k="name" v="Lille Gjersdal" />
		<tag k="place" v="farm" />
		<tag k="ssr:stedsnr" v="506871" />
	</node>
	<node id="-511546" lat="58.0777611075" lon="6.77811943912">
		<tag k="alt_name" v="Vollmona" />
		<tag k="name" v="Vollmoen" />
		<tag k="place" v="farm" />
		<tag k="ssr:stedsnr" v="485262" />
	</node>
	<node id="-511539" lat="58.1862111095" lon="6.90411388528">
		<tag k="fixme" v="consider place=hamlet" />
		<tag k="name" v="Seland" />
		<tag k="place" v="farm" />
		<tag k="ssr:stedsnr" v="485155" />
	</node>
	<node id="-511537" lat="58.1296111112" lon="6.81074999683">
		<tag k="fixme" v="consider place=hamlet" />
		<tag k="name" v="Lia" />
		<tag k="place" v="farm" />
		<tag k="ssr:stedsnr" v="485222" />
	</node>
	<node id="-511536" lat="58.0838611148" lon="6.72211110705">
		<tag k="name" v="Hananger" />
		<tag k="place" v="farm" />
		<tag k="ssr:stedsnr" v="668371" />
	</node>
	<node id="-511535" lat="58.0897888928" lon="6.73156389105">
		<tag k="fixme" v="consider place=hamlet" />
		<tag k="name" v="Grimsby" />
		<tag k="place" v="farm" />
		<tag k="ssr:stedsnr" v="668364" />
	</node>
	<node id="-511534" lat="58.0733805572" lon="6.97644444731">
		<tag k="alt_name" v="Skarstein" />
		<tag k="name" v="Indre Skarstein" />
		<tag k="place" v="hamlet" />
		<tag k="ssr:stedsnr" v="667571" />
	</node>
	<node id="-511528" lat="58.0661583338" lon="6.87980278368">
		<tag k="alt_name" v="Langøy, austre;Østre Langøy" />
		<tag k="fixme" v="consider place=hamlet" />
		<tag k="name" v="Austre Langøy" />
		<tag k="place" v="farm" />
		<tag k="ssr:stedsnr" v="667357" />
	</node>
	<node id="-511527" lat="58.1115527739" lon="6.66212500147">
		<tag k="fixme" v="consider place=hamlet" />
		<tag k="name" v="Kotland" />
		<tag k="place" v="farm" />
		<tag k="ssr:stedsnr" v="667301" />
	</node>
	<node id="-511524" lat="58.1256722211" lon="6.68845555672">
		<tag k="fixme" v="consider place=hamlet" />
		<tag k="name" v="Reisvoll" />
		<tag k="place" v="farm" />
		<tag k="ssr:stedsnr" v="667280" />
	</node>
	<node id="-511523" lat="58.2042500006" lon="6.79092500095">
		<tag k="fixme" v="consider place=hamlet" />
		<tag k="name" v="Meland" />
		<tag k="place" v="farm" />
		<tag k="ssr:stedsnr" v="667200" />
	</node>
	<node id="-511521" lat="58.2016916695" lon="6.76272500826">
		<tag k="fixme" v="consider place=hamlet" />
		<tag k="name" v="Saudland" />
		<tag k="place" v="farm" />
		<tag k="ssr:stedsnr" v="667195" />
	</node>
	<node id="-511520" lat="58.2094104892" lon="6.74443740149">
		<tag k="fixme" v="consider place=hamlet" />
		<tag k="name" v="Buleg" />
		<tag k="place" v="farm" />
		<tag k="ssr:stedsnr" v="667190" />
	</node>
	<node id="-511519" lat="58.2076944446" lon="6.7613944404">
		<tag k="fixme" v="consider place=hamlet" />
		<tag k="name" v="Grimestad" />
		<tag k="place" v="farm" />
		<tag k="ssr:stedsnr" v="667188" />
	</node>
	<node id="-511496" lat="58.1708277777" lon="6.67521111182">
		<tag k="name" v="Lega" />
		<tag k="place" v="farm" />
		<tag k="ssr:stedsnr" v="446403" />
	</node>
	<node id="-511489" lat="58.0898388844" lon="6.86799165905">
		<tag k="name" v="Bjorsbakken" />
		<tag k="place" v="farm" />
		<tag k="ssr:stedsnr" v="446509" />
	</node>
	<node id="-511486" lat="58.0646500013" lon="6.95123332578">
		<tag k="fixme" v="consider place=hamlet" />
		<tag k="name" v="Viestad" />
		<tag k="place" v="farm" />
		<tag k="ssr:stedsnr" v="425353" />
	</node>
	<node id="-511484" lat="58.0951638864" lon="6.95401388584">
		<tag k="alt_name" v="Abelvik" />
		<tag k="fixme" v="consider place=hamlet" />
		<tag k="name" v="Apalvik" />
		<tag k="place" v="farm" />
		<tag k="ssr:stedsnr" v="425346" />
	</node>
	<node id="-511483" lat="58.0858444435" lon="6.70623611436">
		<tag k="alt_name" v="Rødland østre" />
		<tag k="name" v="Rødland" />
		<tag k="place" v="hamlet" />
		<tag k="ssr:stedsnr" v="425338" />
	</node>
	<node id="-511482" lat="58.0729277755" lon="6.76366665861">
		<tag k="fixme" v="consider place=hamlet" />
		<tag k="name" v="Huseby" />
		<tag k="place" v="farm" />
		<tag k="ssr:stedsnr" v="425326" />
	</node>
	<node id="-511479" lat="58.1101805557" lon="6.88060277472">
		<tag k="name" v="Bjørnestad" />
		<tag k="place" v="farm" />
		<tag k="ssr:stedsnr" v="425314" />
	</node>
	<node id="-511478" lat="58.1124805564" lon="6.79791110618">
		<tag k="fixme" v="consider place=hamlet" />
		<tag k="name" v="Slettestrand" />
		<tag k="place" v="farm" />
		<tag k="ssr:stedsnr" v="425313" />
	</node>
	<node id="-511449" lat="58.0906249998" lon="6.79844721564">
		<tag k="fixme" v="consider place=suburb, village or hamlet" />
		<tag k="name" v="Kjørestad" />
		<tag k="place" v="quarter" />
		<tag k="ssr:stedsnr" v="507620" />
	</node>
	<node id="-511439" lat="58.1167361132" lon="6.64747499537">
		<tag k="name" v="Vinni" />
		<tag k="place" v="farm" />
		<tag k="ssr:stedsnr" v="507770" />
	</node>
	<node id="-511434" lat="58.1212555585" lon="6.69307222062">
		<tag k="name" v="Bakkan" />
		<tag k="place" v="farm" />
		<tag k="ssr:stedsnr" v="507741" />
	</node>
	<node id="-511432" lat="58.1152888857" lon="6.67774445225">
		<tag k="name" v="Oddersbo" />
		<tag k="place" v="locality" />
		<tag k="ssr:stedsnr" v="507727" />
	</node>
	<node id="-511392" lat="58.1832638872" lon="6.78480000342">
		<tag k="name" v="Lundemyr" />
		<tag k="place" v="farm" />
		<tag k="ssr:stedsnr" v="385864" />
	</node>
	<node id="-511373" lat="58.1336194442" lon="6.85892221893">
		<tag k="name" v="Børo" />
		<tag k="place" v="farm" />
		<tag k="ssr:stedsnr" v="385524" />
	</node>
	<node id="-511370" lat="58.0875305559" lon="6.77507500278">
		<tag k="name" v="Kårsbakk" />
		<tag k="place" v="farm" />
		<tag k="ssr:stedsnr" v="385623" />
	</node>
	<node id="-511361" lat="58.175555554" lon="6.67434999935">
		<tag k="fixme" v="consider place=hamlet" />
		<tag k="name" v="Elle" />
		<tag k="place" v="farm" />
		<tag k="ssr:stedsnr" v="364211" />
	</node>
	<node id="-513408" lat="58.0713740558" lon="6.97356877136">
		<tag k="name" v="Skarstein" />
		<tag k="place" v="hamlet" />
		<tag k="ssr:stedsnr" v="1075818" />
	</node>
	<node id="-511346" lat="58.0812583297" lon="6.96310555185">
		<tag k="fixme" v="consider place=hamlet" />
		<tag k="name" v="Bjørnevåg" />
		<tag k="place" v="farm" />
		<tag k="ssr:stedsnr" v="485296" />
	</node>
	<node id="-513389" lat="58.1568862192" lon="6.79376349848">
		<tag k="fixme" v="consider place=hamlet" />
		<tag k="name" v="Herad" />
		<tag k="place" v="village" />
		<tag k="ssr:stedsnr" v="988099" />
	</node>
	<node id="-513388" lat="58.1843952518" lon="6.79303526924">
		<tag k="name" v="Åptelia" />
		<tag k="place" v="farm" />
		<tag k="ssr:stedsnr" v="986854" />
	</node>
	<node id="-513387" lat="58.1881733329" lon="6.79866870452">
		<tag k="name" v="Åpta" />
		<tag k="place" v="farm" />
		<tag k="ssr:stedsnr" v="986853" />
	</node>
	<node id="-511338" lat="58.151250003" lon="6.65215833166">
		<tag k="fixme" v="consider place=hamlet" />
		<tag k="name" v="Vigmostad" />
		<tag k="place" v="farm" />
		<tag k="ssr:stedsnr" v="485186" />
	</node>
	<node id="-513385" lat="58.1873039133" lon="6.80233968463">
		<tag k="name" v="Åpta" />
		<tag k="place" v="farm" />
		<tag k="ssr:stedsnr" v="986823" />
	</node>
	<node id="-513384" lat="58.1836501016" lon="6.79287322473">
		<tag k="name" v="Åpta" />
		<tag k="place" v="farm" />
		<tag k="ssr:stedsnr" v="986822" />
	</node>
	<node id="-513382" lat="58.1922764618" lon="6.79819166688">
		<tag k="name" v="Åptefossen" />
		<tag k="place" v="farm" />
		<tag k="ssr:stedsnr" v="986819" />
	</node>
	<node id="-513381" lat="58.1888780905" lon="6.80428960718">
		<tag k="name" v="Åpta" />
		<tag k="place" v="farm" />
		<tag k="ssr:stedsnr" v="986818" />
	</node>
	<node id="-513380" lat="58.1879056807" lon="6.79816426539">
		<tag k="name" v="Åpta" />
		<tag k="place" v="farm" />
		<tag k="ssr:stedsnr" v="986817" />
	</node>
	<node id="-513379" lat="58.1889778784" lon="6.80067420855">
		<tag k="name" v="Åpta" />
		<tag k="place" v="farm" />
		<tag k="ssr:stedsnr" v="986816" />
	</node>
	<node id="-513378" lat="58.1950497286" lon="6.79623784684">
		<tag k="name" v="Åpta" />
		<tag k="place" v="farm" />
		<tag k="ssr:stedsnr" v="986815" />
	</node>
	<node id="-513377" lat="58.1875378758" lon="6.79423773615">
		<tag k="name" v="Åpta" />
		<tag k="place" v="farm" />
		<tag k="ssr:stedsnr" v="986814" />
	</node>
	<node id="-513376" lat="58.1882599893" lon="6.79830929192">
		<tag k="name" v="Åpta" />
		<tag k="place" v="farm" />
		<tag k="ssr:stedsnr" v="986813" />
	</node>
	<node id="-513375" lat="58.1898147726" lon="6.79634602391">
		<tag k="name" v="Åpta" />
		<tag k="place" v="farm" />
		<tag k="ssr:stedsnr" v="986807" />
	</node>
	<node id="-513374" lat="58.1173968972" lon="6.92367773006">
		<tag k="name" v="Dåreid" />
		<tag k="place" v="farm" />
		<tag k="ssr:stedsnr" v="983359" />
	</node>
	<node id="-513373" lat="58.117761817" lon="6.92507057351">
		<tag k="name" v="Dåreid" />
		<tag k="place" v="farm" />
		<tag k="ssr:stedsnr" v="983357" />
	</node>
	<node id="-513372" lat="58.1159030963" lon="6.92349060913">
		<tag k="name" v="Dåreid" />
		<tag k="place" v="farm" />
		<tag k="ssr:stedsnr" v="983339" />
	</node>
	<node id="-513371" lat="58.117745647" lon="6.9231725177">
		<tag k="name" v="Dåreid" />
		<tag k="place" v="farm" />
		<tag k="ssr:stedsnr" v="983338" />
	</node>
	<node id="-513370" lat="58.1181580925" lon="6.91166131104">
		<tag k="name" v="Dåreid" />
		<tag k="place" v="farm" />
		<tag k="ssr:stedsnr" v="983337" />
	</node>
	<node id="-513369" lat="58.137122144" lon="6.62152017502">
		<tag k="name" v="Hervoll" />
		<tag k="place" v="farm" />
		<tag k="ssr:stedsnr" v="983336" />
	</node>
	<node id="-513368" lat="58.1373562566" lon="6.6236532075">
		<tag k="name" v="Hervoll" />
		<tag k="place" v="farm" />
		<tag k="ssr:stedsnr" v="983335" />
	</node>
	<node id="-513367" lat="58.1361028295" lon="6.62487744761">
		<tag k="name" v="Hervoll" />
		<tag k="place" v="farm" />
		<tag k="ssr:stedsnr" v="983333" />
	</node>
	<node id="-513366" lat="58.1353379273" lon="6.623180318">
		<tag k="name" v="Hervoll" />
		<tag k="place" v="farm" />
		<tag k="ssr:stedsnr" v="983332" />
	</node>
	<node id="-513365" lat="58.0869766902" lon="6.69257828856">
		<tag k="name" v="Østre Vatne" />
		<tag k="place" v="farm" />
		<tag k="ssr:stedsnr" v="983324" />
	</node>
	<node id="-513364" lat="58.0937200218" lon="6.70185351625">
		<tag k="name" v="Østre Vatne " />
		<tag k="place" v="farm" />
		<tag k="ssr:stedsnr" v="983322" />
	</node>
	<node id="-513363" lat="58.0887455531" lon="6.69724920449">
		<tag k="name" v="Østre Vatne" />
		<tag k="place" v="farm" />
		<tag k="ssr:stedsnr" v="983319" />
	</node>
	<node id="-513362" lat="58.0940050181" lon="6.69892164769">
		<tag k="name" v="Østre Vatne" />
		<tag k="place" v="farm" />
		<tag k="ssr:stedsnr" v="983315" />
	</node>
	<node id="-513361" lat="58.0895526557" lon="6.69199190009">
		<tag k="name" v="Østre Vatne" />
		<tag k="place" v="farm" />
		<tag k="ssr:stedsnr" v="983313" />
	</node>
	<node id="-511312" lat="58.0890833365" lon="6.71817500625">
		<tag k="fixme" v="consider place=hamlet" />
		<tag k="name" v="Steinsvoll" />
		<tag k="place" v="farm" />
		<tag k="ssr:stedsnr" v="304327" />
	</node>
	<node id="-513359" lat="58.084616362" lon="6.65649449401">
		<tag k="name" v="Østhassel" />
		<tag k="place" v="farm" />
		<tag k="ssr:stedsnr" v="983307" />
	</node>
	<node id="-513358" lat="58.0717246361" lon="6.64804644295">
		<tag k="name" v="Østhassel" />
		<tag k="place" v="farm" />
		<tag k="ssr:stedsnr" v="983306" />
	</node>
	<node id="-513357" lat="58.0824762509" lon="6.64321430778">
		<tag k="name" v="Østhassel" />
		<tag k="place" v="farm" />
		<tag k="ssr:stedsnr" v="983305" />
	</node>
	<node id="-513356" lat="58.0822302512" lon="6.64815917708">
		<tag k="name" v="Østhassel" />
		<tag k="place" v="farm" />
		<tag k="ssr:stedsnr" v="983304" />
	</node>
	<node id="-513355" lat="58.0832301383" lon="6.65286767564">
		<tag k="name" v="Østhassel" />
		<tag k="place" v="farm" />
		<tag k="ssr:stedsnr" v="983303" />
	</node>
	<node id="-513354" lat="58.0832435807" lon="6.64454393722">
		<tag k="name" v="Østhassel" />
		<tag k="place" v="farm" />
		<tag k="ssr:stedsnr" v="983302" />
	</node>
	<node id="-513353" lat="58.0816024584" lon="6.64702567124">
		<tag k="name" v="Østhassel" />
		<tag k="place" v="farm" />
		<tag k="ssr:stedsnr" v="983301" />
	</node>
	<node id="-513352" lat="58.1193059482" lon="6.92105291677">
		<tag k="name" v="Dåreid" />
		<tag k="place" v="farm" />
		<tag k="ssr:stedsnr" v="983397" />
	</node>
	<node id="-513351" lat="58.1210575031" lon="6.92135040165">
		<tag k="name" v="Dåreid" />
		<tag k="place" v="farm" />
		<tag k="ssr:stedsnr" v="983395" />
	</node>
	<node id="-513350" lat="58.1209010727" lon="6.92453659442">
		<tag k="name" v="Dåreid" />
		<tag k="place" v="farm" />
		<tag k="ssr:stedsnr" v="983382" />
	</node>
	<node id="-513349" lat="58.0827371545" lon="6.64728146897">
		<tag k="name" v="Østhassel" />
		<tag k="place" v="farm" />
		<tag k="ssr:stedsnr" v="983300" />
	</node>
	<node id="-513348" lat="58.1526678006" lon="6.81737891957">
		<tag k="name" v="Sande" />
		<tag k="place" v="farm" />
		<tag k="ssr:stedsnr" v="983295" />
	</node>
	<node id="-513347" lat="58.1578550234" lon="6.80066725482">
		<tag k="name" v="Sande" />
		<tag k="place" v="farm" />
		<tag k="ssr:stedsnr" v="983294" />
	</node>
	<node id="-513346" lat="58.1584025271" lon="6.80189978035">
		<tag k="name" v="Sande" />
		<tag k="place" v="farm" />
		<tag k="ssr:stedsnr" v="983293" />
	</node>
	<node id="-513344" lat="58.1588676772" lon="6.80291086199">
		<tag k="name" v="Sande" />
		<tag k="place" v="farm" />
		<tag k="ssr:stedsnr" v="983291" />
	</node>
	<node id="-511288" lat="58.1094555576" lon="6.93216389281">
		<tag k="fixme" v="consider place=hamlet" />
		<tag k="name" v="Farbrot" />
		<tag k="place" v="farm" />
		<tag k="ssr:stedsnr" v="546271" />
	</node>
	<node id="-511287" lat="58.1237361069" lon="6.72475832591">
		<tag k="name" v="Nyhagen" />
		<tag k="place" v="locality" />
		<tag k="ssr:stedsnr" v="264615" />
	</node>
	<node id="-513332" lat="58.0730761236" lon="6.97674099405">
		<tag k="fixme" v="consider place=hamlet" />
		<tag k="name" v="Indre Skarstein" />
		<tag k="place" v="farm" />
		<tag k="ssr:stedsnr" v="978200" />
	</node>
	<node id="-513331" lat="58.1061653875" lon="6.94391480789">
		<tag k="fixme" v="consider place=hamlet" />
		<tag k="name" v="Vestre Våge" />
		<tag k="place" v="farm" />
		<tag k="ssr:stedsnr" v="978199" />
	</node>
	<node id="-513330" lat="58.1026135521" lon="6.94979975832">
		<tag k="fixme" v="consider place=hamlet" />
		<tag k="name" v="Søndre Våge" />
		<tag k="place" v="farm" />
		<tag k="ssr:stedsnr" v="978198" />
	</node>
	<node id="-513329" lat="58.0983556122" lon="6.97642721676">
		<tag k="alt_name" v="Kårisstad" />
		<tag k="fixme" v="consider place=hamlet" />
		<tag k="name" v="Kårikstad" />
		<tag k="place" v="farm" />
		<tag k="ssr:stedsnr" v="978197" />
	</node>
	<node id="-513328" lat="58.08028169" lon="6.97502811286">
		<tag k="fixme" v="consider place=hamlet" />
		<tag k="name" v="Reiskar" />
		<tag k="place" v="farm" />
		<tag k="ssr:stedsnr" v="978189" />
	</node>
	<node id="-513327" lat="58.0724352699" lon="6.95689629231">
		<tag k="fixme" v="consider place=hamlet" />
		<tag k="name" v="Lyngsvåg" />
		<tag k="place" v="farm" />
		<tag k="ssr:stedsnr" v="978188" />
	</node>
	<node id="-513326" lat="58.0528970093" lon="6.92483248234">
		<tag k="fixme" v="consider place=hamlet" />
		<tag k="name" v="Terøy" />
		<tag k="place" v="farm" />
		<tag k="ssr:stedsnr" v="978187" />
	</node>
	<node id="-513325" lat="58.0608540543" lon="6.9125666498">
		<tag k="fixme" v="consider place=hamlet" />
		<tag k="name" v="Skarvøy" />
		<tag k="place" v="farm" />
		<tag k="ssr:stedsnr" v="978186" />
	</node>
	<node id="-513324" lat="58.097248291" lon="6.88060120504">
		<tag k="fixme" v="consider place=hamlet" />
		<tag k="name" v="Ytre Eikeland" />
		<tag k="place" v="farm" />
		<tag k="ssr:stedsnr" v="978155" />
	</node>
	<node id="-513323" lat="58.0761890108" lon="6.83273429238">
		<tag k="fixme" v="consider place=hamlet" />
		<tag k="name" v="Prestøy" />
		<tag k="place" v="farm" />
		<tag k="ssr:stedsnr" v="978150" />
	</node>
	<node id="-513322" lat="58.09313114" lon="6.83491828285">
		<tag k="fixme" v="consider place=hamlet" />
		<tag k="name" v="Bekkeviken" />
		<tag k="place" v="farm" />
		<tag k="ssr:stedsnr" v="978147" />
	</node>
	<node id="-513321" lat="58.1617861251" lon="6.87430972794">
		<tag k="fixme" v="consider place=hamlet" />
		<tag k="name" v="Øvre Austad" />
		<tag k="place" v="farm" />
		<tag k="ssr:stedsnr" v="978144" />
	</node>
	<node id="-513320" lat="58.1964742125" lon="6.91653292585">
		<tag k="fixme" v="consider place=hamlet" />
		<tag k="name" v="Vallelien" />
		<tag k="place" v="farm" />
		<tag k="ssr:stedsnr" v="978141" />
	</node>
	<node id="-513319" lat="58.2011726288" lon="6.87612355185">
		<tag k="fixme" v="consider place=hamlet" />
		<tag k="name" v="Drange" />
		<tag k="place" v="farm" />
		<tag k="ssr:stedsnr" v="978140" />
	</node>
	<node id="-513318" lat="58.2139948011" lon="6.87482717962">
		<tag k="fixme" v="consider place=hamlet" />
		<tag k="name" v="Drangsheien" />
		<tag k="place" v="farm" />
		<tag k="ssr:stedsnr" v="978139" />
	</node>
	<node id="-513317" lat="58.2020541315" lon="6.80180347709">
		<tag k="fixme" v="consider place=hamlet" />
		<tag k="name" v="Store Sæveland" />
		<tag k="place" v="farm" />
		<tag k="ssr:stedsnr" v="978137" />
	</node>
	<node id="-513316" lat="58.1901271383" lon="6.79670831525">
		<tag k="fixme" v="consider place=hamlet" />
		<tag k="name" v="Åpta" />
		<tag k="place" v="farm" />
		<tag k="ssr:stedsnr" v="978136" />
	</node>
	<node id="-513315" lat="58.1947102947" lon="6.75728514968">
		<tag k="fixme" v="consider place=hamlet" />
		<tag k="name" v="Djuphagen" />
		<tag k="place" v="farm" />
		<tag k="ssr:stedsnr" v="978122" />
	</node>
	<node id="-513314" lat="58.1667424856" lon="6.77318258931">
		<tag k="fixme" v="consider place=hamlet" />
		<tag k="name" v="Logsheien" />
		<tag k="place" v="farm" />
		<tag k="ssr:stedsnr" v="978119" />
	</node>
	<node id="-513313" lat="58.1445493186" lon="6.83808996309">
		<tag k="fixme" v="consider place=hamlet" />
		<tag k="name" v="Bidingsås" />
		<tag k="place" v="farm" />
		<tag k="ssr:stedsnr" v="978115" />
	</node>
	<node id="-513312" lat="58.1334061255" lon="6.79540338448">
		<tag k="fixme" v="consider place=hamlet" />
		<tag k="name" v="Eivenshelle" />
		<tag k="place" v="farm" />
		<tag k="ssr:stedsnr" v="978114" />
	</node>
	<node id="-513311" lat="58.1309573255" lon="6.83619253437">
		<tag k="fixme" v="consider place=hamlet" />
		<tag k="name" v="Steian" />
		<tag k="place" v="farm" />
		<tag k="ssr:stedsnr" v="978111" />
	</node>
	<node id="-513310" lat="58.1355985299" lon="6.85700798221">
		<tag k="fixme" v="consider place=hamlet" />
		<tag k="name" v="Lille Sæveland" />
		<tag k="place" v="farm" />
		<tag k="ssr:stedsnr" v="978109" />
	</node>
	<node id="-513309" lat="58.1142886829" lon="6.7733507803">
		<tag k="fixme" v="consider place=hamlet" />
		<tag k="name" v="Hoskuldsnes" />
		<tag k="place" v="farm" />
		<tag k="ssr:stedsnr" v="978092" />
	</node>
	<node id="-513308" lat="58.1159283267" lon="6.77688449282">
		<tag k="fixme" v="consider place=hamlet" />
		<tag k="name" v="Hoskuldsnesstranden" />
		<tag k="place" v="farm" />
		<tag k="ssr:stedsnr" v="978088" />
	</node>
	<node id="-513307" lat="58.12769142" lon="6.74980533536">
		<tag k="fixme" v="consider place=hamlet" />
		<tag k="name" v="Sutteviken" />
		<tag k="place" v="farm" />
		<tag k="ssr:stedsnr" v="978043" />
	</node>
	<node id="-513306" lat="58.1089616339" lon="6.71902692334">
		<tag k="fixme" v="consider place=hamlet" />
		<tag k="name" v="Åmland" />
		<tag k="place" v="farm" />
		<tag k="ssr:stedsnr" v="978035" />
	</node>
	<node id="-513305" lat="58.1013841678" lon="6.6924444144">
		<tag k="fixme" v="consider place=hamlet" />
		<tag k="name" v="Prestegården" />
		<tag k="place" v="farm" />
		<tag k="ssr:stedsnr" v="978034" />
	</node>
	<node id="-513304" lat="58.1137024361" lon="6.67211637795">
		<tag k="fixme" v="consider place=hamlet" />
		<tag k="name" v="Vetteland" />
		<tag k="place" v="farm" />
		<tag k="ssr:stedsnr" v="978032" />
	</node>
	<node id="-513303" lat="58.1184008562" lon="6.64498385514">
		<tag k="fixme" v="consider place=hamlet" />
		<tag k="name" v="Frøyland" />
		<tag k="place" v="farm" />
		<tag k="ssr:stedsnr" v="978031" />
	</node>
	<node id="-513302" lat="58.1094527012" lon="6.63083629259">
		<tag k="fixme" v="consider place=hamlet" />
		<tag k="name" v="Øvre Råstad" />
		<tag k="place" v="farm" />
		<tag k="ssr:stedsnr" v="978030" />
	</node>
	<node id="-513301" lat="58.1186672782" lon="6.62790206">
		<tag k="fixme" v="consider place=hamlet" />
		<tag k="name" v="Vestre Hauge" />
		<tag k="place" v="farm" />
		<tag k="ssr:stedsnr" v="978029" />
	</node>
	<node id="-513300" lat="58.119673142" lon="6.61873202079">
		<tag k="fixme" v="consider place=hamlet" />
		<tag k="name" v="Slevdal" />
		<tag k="place" v="farm" />
		<tag k="ssr:stedsnr" v="978028" />
	</node>
	<node id="-513299" lat="58.1326419385" lon="6.62499877416">
		<tag k="fixme" v="consider place=hamlet" />
		<tag k="name" v="Skeibrok" />
		<tag k="place" v="farm" />
		<tag k="ssr:stedsnr" v="978027" />
	</node>
	<node id="-513298" lat="58.1195043944" lon="6.68061463454">
		<tag k="fixme" v="consider place=hamlet" />
		<tag k="name" v="Åmdal" />
		<tag k="place" v="farm" />
		<tag k="ssr:stedsnr" v="978026" />
	</node>
	<node id="-513297" lat="58.1331851015" lon="6.68545981068">
		<tag k="fixme" v="consider place=hamlet" />
		<tag k="name" v="Eikeland" />
		<tag k="place" v="farm" />
		<tag k="ssr:stedsnr" v="978021" />
	</node>
	<node id="-513296" lat="58.1978647268" lon="6.70240338823">
		<tag k="fixme" v="consider place=hamlet" />
		<tag k="name" v="Skagelien" />
		<tag k="place" v="farm" />
		<tag k="ssr:stedsnr" v="978016" />
	</node>
	<node id="-513295" lat="58.1911750843" lon="6.68222221625">
		<tag k="fixme" v="consider place=hamlet" />
		<tag k="name" v="Åsalviken" />
		<tag k="place" v="farm" />
		<tag k="ssr:stedsnr" v="978014" />
	</node>
	<node id="-513294" lat="58.1551741645" lon="6.62761671325">
		<tag k="fixme" v="consider place=hamlet" />
		<tag k="name" v="Rudjord" />
		<tag k="place" v="farm" />
		<tag k="ssr:stedsnr" v="978009" />
	</node>
	<node id="-513293" lat="58.1263137564" lon="6.60380729204">
		<tag k="fixme" v="consider place=hamlet" />
		<tag k="name" v="Midtre Vere" />
		<tag k="place" v="farm" />
		<tag k="ssr:stedsnr" v="978008" />
	</node>
	<node id="-513292" lat="58.1248353908" lon="6.60954088759">
		<tag k="fixme" v="consider place=hamlet" />
		<tag k="name" v="Østre Vere" />
		<tag k="place" v="farm" />
		<tag k="ssr:stedsnr" v="978007" />
	</node>
	<node id="-513291" lat="58.0935070589" lon="6.59840664425">
		<tag k="fixme" v="consider place=hamlet" />
		<tag k="name" v="Tjørve" />
		<tag k="place" v="farm" />
		<tag k="ssr:stedsnr" v="978006" />
	</node>
	<node id="-513290" lat="58.0857608302" lon="6.62852404651">
		<tag k="fixme" v="consider place=hamlet" />
		<tag k="name" v="Nedre Nordhassel" />
		<tag k="place" v="farm" />
		<tag k="ssr:stedsnr" v="978005" />
	</node>
	<node id="-513289" lat="58.0885238621" lon="6.6286842561">
		<tag k="fixme" v="consider place=hamlet" />
		<tag k="name" v="Øvre Nordhassel" />
		<tag k="place" v="farm" />
		<tag k="ssr:stedsnr" v="978003" />
	</node>
	<node id="-513288" lat="58.0947420524" lon="6.67561265675">
		<tag k="fixme" v="consider place=hamlet" />
		<tag k="name" v="Øvre Skeime" />
		<tag k="place" v="farm" />
		<tag k="ssr:stedsnr" v="978002" />
	</node>
	<node id="-513287" lat="58.0918865308" lon="6.68452320776">
		<tag k="fixme" v="consider place=hamlet" />
		<tag k="name" v="Nedre Skeime" />
>>>>>>> e1d4bc35ff8a6074a6f2e91616a996b547c36f15
		<tag k="place" v="farm" />
		<tag k="ssr:stedsnr" v="978001" />
	</node>
<<<<<<< HEAD
	<node lat="58.1373562566159" lon="6.6236532074954475" id="-21854">
		<tag k="name" v="Hervoll" />
		<tag k="place" v="farm" />
		<tag k="ssr:stedsnr" v="983335" />
	</node>
	<node lat="58.13712214395364" lon="6.621520175022869" id="-21855">
		<tag k="name" v="Hervoll" />
		<tag k="place" v="farm" />
		<tag k="ssr:stedsnr" v="983336" />
	</node>
	<node lat="58.118158092469876" lon="6.911661311038135" id="-21856">
		<tag k="name" v="Dåreid" />
		<tag k="place" v="farm" />
		<tag k="ssr:stedsnr" v="983337" />
	</node>
	<node lat="58.11774564699674" lon="6.923172517704003" id="-21857">
		<tag k="name" v="Dåreid" />
		<tag k="place" v="farm" />
		<tag k="ssr:stedsnr" v="983338" />
	</node>
	<node lat="58.11590309626307" lon="6.923490609127326" id="-21858">
		<tag k="name" v="Dåreid" />
		<tag k="place" v="farm" />
		<tag k="ssr:stedsnr" v="983339" />
	</node>
	<node lat="58.117761817030036" lon="6.925070573513724" id="-21859">
		<tag k="name" v="Dåreid" />
		<tag k="place" v="farm" />
		<tag k="ssr:stedsnr" v="983357" />
	</node>
	<node lat="58.117396897221376" lon="6.92367773005676" id="-21860">
		<tag k="name" v="Dåreid" />
		<tag k="place" v="farm" />
		<tag k="ssr:stedsnr" v="983359" />
	</node>
	<node lat="58.09385376723078" lon="6.698977120795593" id="-21861">
		<tag k="name" v="Østre Vatne" />
		<tag k="place" v="farm" />
		<tag k="ssr:stedsnr" v="983490" />
	</node>
	<node lat="58.088529609844066" lon="6.918392304448407" id="-21862">
		<tag k="name" v="Ersåker" />
		<tag k="place" v="farm" />
		<tag k="ssr:stedsnr" v="983428" />
	</node>
	<node lat="58.0903288055379" lon="6.926573560480419" id="-21863">
		<tag k="name" v="Ersåker" />
		<tag k="place" v="farm" />
		<tag k="ssr:stedsnr" v="983429" />
	</node>
	<node lat="58.0886703262115" lon="6.923494537947427" id="-21864">
		<tag k="name" v="Ersåker" />
		<tag k="place" v="farm" />
		<tag k="ssr:stedsnr" v="983430" />
	</node>
	<node lat="58.08859483502439" lon="6.92408420582884" id="-21865">
		<tag k="name" v="Ersåker" />
		<tag k="place" v="farm" />
		<tag k="ssr:stedsnr" v="983432" />
	</node>
	<node lat="58.18810089166381" lon="6.798361597702071" id="-21867">
		<tag k="name" v="Åpta" />
		<tag k="place" v="farm" />
		<tag k="ssr:stedsnr" v="986852" />
	</node>
	<node lat="58.18817333287647" lon="6.79866870451931" id="-21868">
		<tag k="name" v="Åpta" />
		<tag k="place" v="farm" />
		<tag k="ssr:stedsnr" v="986853" />
	</node>
	<node lat="58.184395251793035" lon="6.793035269236136" id="-21869">
		<tag k="name" v="Åptelia" />
		<tag k="place" v="farm" />
		<tag k="ssr:stedsnr" v="986854" />
	</node>
	<node lat="58.18981477256631" lon="6.796346023914426" id="-21870">
		<tag k="name" v="Åpta" />
		<tag k="place" v="farm" />
		<tag k="ssr:stedsnr" v="986807" />
	</node>
	<node lat="58.1882599893306" lon="6.798309291916006" id="-21871">
		<tag k="name" v="Åpta" />
		<tag k="place" v="farm" />
		<tag k="ssr:stedsnr" v="986813" />
	</node>
	<node lat="58.18753787577988" lon="6.794237736149404" id="-21872">
		<tag k="name" v="Åpta" />
		<tag k="place" v="farm" />
		<tag k="ssr:stedsnr" v="986814" />
	</node>
	<node lat="58.19504972855125" lon="6.796237846840091" id="-21873">
		<tag k="name" v="Åpta" />
		<tag k="place" v="farm" />
		<tag k="ssr:stedsnr" v="986815" />
	</node>
	<node lat="58.188977878363296" lon="6.800674208545763" id="-21874">
		<tag k="name" v="Åpta" />
		<tag k="place" v="farm" />
		<tag k="ssr:stedsnr" v="986816" />
	</node>
	<node lat="58.187905680726196" lon="6.798164265386092" id="-21875">
		<tag k="name" v="Åpta" />
		<tag k="place" v="farm" />
		<tag k="ssr:stedsnr" v="986817" />
	</node>
	<node lat="58.188878090544534" lon="6.804289607176544" id="-21876">
		<tag k="name" v="Åpta" />
		<tag k="place" v="farm" />
		<tag k="ssr:stedsnr" v="986818" />
	</node>
	<node lat="58.19227646178355" lon="6.798191666880613" id="-21877">
		<tag k="name" v="Åptefossen" />
		<tag k="place" v="farm" />
		<tag k="ssr:stedsnr" v="986819" />
	</node>
	<node lat="58.18365010163171" lon="6.792873224726456" id="-21879">
		<tag k="name" v="Åpta" />
		<tag k="place" v="farm" />
		<tag k="ssr:stedsnr" v="986822" />
	</node>
	<node lat="58.18730391326295" lon="6.802339684632119" id="-21880">
		<tag k="name" v="Åpta" />
		<tag k="place" v="farm" />
		<tag k="ssr:stedsnr" v="986823" />
	</node>
	<node lat="58.09991388783866" lon="6.586958325559396" id="-21887">
		<tag k="name" v="Vestbygd" />
		<tag k="place" v="village" />
		<tag k="ssr:stedsnr" v="125" />
	</node>
	<node lat="58.069327781003395" lon="6.7606416595372485" id="-21888">
		<tag k="alt_name" v="Hauge østre;Hauge, austre" />
		<tag k="name" v="Austre Hauge" />
		<tag k="place" v="hamlet" />
		<tag k="ssr:stedsnr" v="374" />
	</node>
	<node lat="58.18867222580815" lon="6.798730550090817" id="-21889">
		<tag k="fixme" v="consider place=hamlet" />
		<tag k="name" v="Åpta" />
		<tag k="place" v="village" />
		<tag k="ssr:stedsnr" v="201" />
	</node>
	<node lat="58.186752774225646" lon="6.769347218678219" id="-21890">
		<tag k="alt_name" v="Store Jersdal" />
		<tag k="fixme" v="consider place=hamlet" />
		<tag k="name" v="Gjersdal" />
		<tag k="place" v="farm" />
		<tag k="ssr:stedsnr" v="202" />
	</node>
	<node lat="58.18579999555463" lon="6.694588885887304" id="-21891">
		<tag k="fixme" v="consider place=hamlet" />
		<tag k="name" v="Skagen" />
		<tag k="place" v="farm" />
		<tag k="ssr:stedsnr" v="208" />
	</node>
	<node lat="58.173363885497615" lon="6.740441664220236" id="-21893">
		<tag k="name" v="Listeidlia" />
		<tag k="place" v="farm" />
		<tag k="ssr:stedsnr" v="224" />
	</node>
	<node lat="58.13344721775094" lon="6.6689083262090625" id="-21896">
		<tag k="alt_name" v="Rødland, vestre;Rødland vestre" />
		<tag k="fixme" v="consider place=hamlet" />
		<tag k="name" v="Vestre Rødland" />
		<tag k="place" v="farm" />
		<tag k="ssr:stedsnr" v="244" />
	</node>
	<node lat="58.08408611037225" lon="6.950680561664581" id="-21898">
		<tag k="name" v="Lian" />
		<tag k="place" v="farm" />
		<tag k="ssr:stedsnr" v="333" />
	</node>
	<node lat="58.088986111015195" lon="6.945241659800658" id="-21899">
		<tag k="name" v="Helle" />
		<tag k="place" v="farm" />
		<tag k="ssr:stedsnr" v="336" />
	</node>
	<node lat="58.08744999775382" lon="6.7440805591867345" id="-21900">
		<tag k="fixme" v="consider place=hamlet" />
		<tag k="name" v="Stokke" />
		<tag k="place" v="farm" />
		<tag k="ssr:stedsnr" v="339" />
	</node>
	<node lat="58.0838999969913" lon="6.655363884472543" id="-21902">
		<tag k="fixme" v="consider place=hamlet" />
		<tag k="name" v="Østhassel" />
		<tag k="place" v="farm" />
		<tag k="ssr:stedsnr" v="345" />
	</node>
	<node lat="58.11933888489671" lon="6.74910278277234" id="-21923">
		<tag k="name" v="Neset" />
		<tag k="place" v="farm" />
		<tag k="ssr:stedsnr" v="21639" />
	</node>
	<node lat="58.18063888617178" lon="6.794297227045704" id="-21935">
		<tag k="name" v="Øvre Kvåle" />
		<tag k="place" v="farm" />
		<tag k="ssr:stedsnr" v="21867" />
	</node>
	<node lat="58.107944447182334" lon="6.92828333878184" id="-21943">
		<tag k="name" v="Nyjordet" />
		<tag k="place" v="farm" />
		<tag k="ssr:stedsnr" v="21929" />
	</node>
	<node lat="58.084511112463844" lon="6.957855548149455" id="-21950">
		<tag k="fixme" v="consider place=hamlet" />
		<tag k="name" v="Helle" />
		<tag k="place" v="farm" />
		<tag k="ssr:stedsnr" v="22453" />
	</node>
	<node lat="58.09912777562784" lon="6.9385305476615" id="-21951">
		<tag k="name" v="Buvika" />
		<tag k="place" v="farm" />
		<tag k="ssr:stedsnr" v="22460" />
	</node>
	<node lat="58.07417221801882" lon="6.8728888895505555" id="-21967">
		<tag k="name" v="Bakken" />
		<tag k="place" v="isolated_dwelling" />
		<tag k="ssr:stedsnr" v="58148" />
	</node>
	<node lat="58.213488088571225" lon="6.74322158851477" id="-21976">
		<tag k="fixme" v="consider place=hamlet" />
		<tag k="name" v="Sandvik" />
		<tag k="place" v="farm" />
		<tag k="ssr:stedsnr" v="60180" />
	</node>
	<node lat="58.10930833411215" lon="6.8160833319326155" id="-21977">
		<tag k="fixme" v="consider place=hamlet" />
		<tag k="name" v="Sandvika" />
		<tag k="place" v="farm" />
		<tag k="ssr:stedsnr" v="60299" />
	</node>
	<node lat="58.10075555970379" lon="6.962452769639081" id="-21978">
		<tag k="alt_name" v="Berghøydne" />
		<tag k="fixme" v="consider place=hamlet" />
		<tag k="name" v="Berghydne" />
		<tag k="place" v="farm" />
		<tag k="ssr:stedsnr" v="61285" />
	</node>
	<node lat="58.20744444632683" lon="6.899302781443357" id="-21982">
		<tag k="alt_name" v="Klungland" />
		<tag k="fixme" v="consider place=hamlet" />
		<tag k="name" v="Klungeland" />
		<tag k="place" v="farm" />
		<tag k="ssr:stedsnr" v="61164" />
	</node>
	<node lat="58.13559444020447" lon="6.85558332980262" id="-21983">
		<tag k="alt_name" v="Sæveland ytre" />
		<tag k="name" v="Sæveland" />
		<tag k="place" v="farm" />
		<tag k="ssr:stedsnr" v="61251" />
	</node>
	<node lat="58.12698333068852" lon="6.601800004295244" id="-21984">
		<tag k="name" v="Vere" />
		<tag k="place" v="farm" />
		<tag k="ssr:stedsnr" v="61258" />
	</node>
	<node lat="58.12695833385939" lon="6.750669445256705" id="-21985">
		<tag k="name" v="Suttevik" />
		<tag k="place" v="isolated_dwelling" />
		<tag k="ssr:stedsnr" v="61260" />
	</node>
	<node lat="58.13136388461048" lon="6.6960194440938405" id="-21986">
		<tag k="fixme" v="consider place=hamlet" />
		<tag k="name" v="Grostøl" />
		<tag k="place" v="farm" />
		<tag k="ssr:stedsnr" v="61262" />
	</node>
	<node lat="58.07613611053369" lon="6.970161107935436" id="-21994">
		<tag k="fixme" v="consider place=hamlet" />
		<tag k="name" v="Vasdal" />
		<tag k="place" v="farm" />
		<tag k="ssr:stedsnr" v="82445" />
	</node>
	<node lat="58.13319721947456" lon="6.852122219569599" id="-21996">
		<tag k="name" v="Dalen" />
		<tag k="place" v="farm" />
		<tag k="ssr:stedsnr" v="82452" />
	</node>
	<node lat="58.08057499944971" lon="6.654011110249298" id="-22004">
		<tag k="name" v="Odden" />
		<tag k="place" v="farm" />
		<tag k="ssr:stedsnr" v="82387" />
	</node>
	<node lat="58.11285833466754" lon="6.784041658410125" id="-22015">
		<tag k="name" v="Gura" />
		<tag k="place" v="farm" />
		<tag k="ssr:stedsnr" v="82568" />
	</node>
	<node lat="58.073869446175294" lon="6.784380554999709" id="-22045">
		<tag k="building" v="industrial" />
		<tag k="industrial" v="factory" />
		<tag k="name" v="Alcoa Lista" />
		<tag k="old_name" v="Lista Aluminiumsverk" />
		<tag k="ssr:stedsnr" v="100155" />
	</node>
	<node lat="58.17016666932812" lon="6.696824991751275" id="-22061">
		<tag k="fixme" v="consider place=hamlet" />
		<tag k="name" v="Salen" />
		<tag k="place" v="farm" />
		<tag k="ssr:stedsnr" v="121211" />
	</node>
	<node lat="58.09478611536257" lon="6.804655556419668" id="-22063">
		<tag k="name" v="Farsund" />
		<tag k="place" v="town" />
		<tag k="ssr:stedsnr" v="121334" />
	</node>
	<node lat="58.092274996821025" lon="6.783341666305475" id="-22064">
		<tag k="name" v="Sunde" />
		<tag k="place" v="quarter" />
		<tag k="ssr:stedsnr" v="121335" />
	</node>
	<node lat="58.09886388847969" lon="6.890666667580824" id="-22065">
		<tag k="alt_name" v="Årisstad" />
		<tag k="fixme" v="consider place=hamlet" />
		<tag k="name" v="Årikstad" />
		<tag k="place" v="farm" />
		<tag k="ssr:stedsnr" v="121345" />
	</node>
	<node lat="58.10884999881768" lon="6.910794447685836" id="-22067">
		<tag k="fixme" v="consider place=hamlet" />
		<tag k="name" v="Vik" />
		<tag k="place" v="farm" />
		<tag k="ssr:stedsnr" v="121293" />
	</node>
	<node lat="58.08298888952667" lon="6.874327781673043" id="-22074">
		<tag k="alt_name" v="Hovden" />
		<tag k="fixme" v="consider place=hamlet" />
		<tag k="name" v="Vestre Hovden" />
		<tag k="place" v="farm" />
		<tag k="ssr:stedsnr" v="142510" />
	</node>
	<node lat="58.10954166969911" lon="6.791438892563802" id="-22088">
		<tag k="name" v="Hovden" />
		<tag k="place" v="farm" />
		<tag k="ssr:stedsnr" v="142565" />
	</node>
	<node lat="58.10936666429303" lon="6.63720000745251" id="-22111">
		<tag k="name" v="Kloppan" />
		<tag k="place" v="farm" />
		<tag k="ssr:stedsnr" v="142783" />
	</node>
	<node lat="58.175124999482556" lon="6.675708334187649" id="-22128">
		<tag k="name" v="Elle" />
		<tag k="place" v="hamlet" />
		<tag k="ssr:stedsnr" v="145590" />
	</node>
	<node lat="58.139333336770186" lon="6.733102782189742" id="-22156">
		<tag k="fixme" v="consider place=hamlet" />
		<tag k="name" v="Vika" />
		<tag k="place" v="farm" />
		<tag k="ssr:stedsnr" v="182222" />
	</node>
	<node lat="58.137224995674586" lon="6.692208336608442" id="-22158">
		<tag k="alt_name" v="Øygarden" />
		<tag k="name" v="Øygard" />
		<tag k="place" v="farm" />
		<tag k="ssr:stedsnr" v="182227" />
	</node>
	<node lat="58.13686111245243" lon="6.623702786063813" id="-22159">
		<tag k="fixme" v="consider place=hamlet" />
		<tag k="name" v="Hervoll" />
		<tag k="place" v="farm" />
		<tag k="ssr:stedsnr" v="182230" />
	</node>
	<node lat="58.114202774818374" lon="6.62215000072755" id="-22160">
		<tag k="fixme" v="consider place=hamlet" />
		<tag k="name" v="Velle" />
		<tag k="place" v="farm" />
		<tag k="ssr:stedsnr" v="182240" />
	</node>
	<node lat="58.20011944867271" lon="6.732258333845518" id="-22164">
		<tag k="alt_name" v="Stølen, in" />
		<tag k="fixme" v="consider place=hamlet" />
		<tag k="name" v="Indre Stølen" />
		<tag k="place" v="farm" />
		<tag k="ssr:stedsnr" v="182177" />
	</node>
	<node lat="58.12019166633797" lon="6.776713884913388" id="-22166">
		<tag k="alt_name" v="Nøringskår" />
		<tag k="fixme" v="consider place=hamlet" />
		<tag k="name" v="Nørskår" />
		<tag k="place" v="farm" />
		<tag k="ssr:stedsnr" v="182248" />
	</node>
	<node lat="58.11532221815431" lon="6.741538896587945" id="-22167">
		<tag k="fixme" v="consider place=hamlet" />
		<tag k="name" v="Straumsland" />
		<tag k="place" v="farm" />
		<tag k="ssr:stedsnr" v="182249" />
	</node>
	<node lat="58.103111110616446" lon="6.712849991875558" id="-22171">
		<tag k="fixme" v="consider place=hamlet" />
		<tag k="name" v="Høyland" />
		<tag k="place" v="farm" />
		<tag k="ssr:stedsnr" v="182272" />
	</node>
	<node lat="58.1060083366967" lon="6.945669439292932" id="-22173">
		<tag k="name" v="Lega" />
		<tag k="place" v="farm" />
		<tag k="ssr:stedsnr" v="182278" />
	</node>
	<node lat="58.113949995603974" lon="6.673055548244447" id="-22174">
		<tag k="alt_name" v="Vetteland" />
		<tag k="name" v="Vetland" />
		<tag k="place" v="hamlet" />
		<tag k="ssr:stedsnr" v="182289" />
	</node>
	<node lat="58.073119447959876" lon="6.949197215361438" id="-22179">
		<tag k="fixme" v="consider place=hamlet" />
		<tag k="name" v="Bervåg" />
		<tag k="place" v="farm" />
		<tag k="ssr:stedsnr" v="182361" />
	</node>
	<node lat="58.09782222017377" lon="6.976077775242473" id="-22180">
		<tag k="alt_name" v="Kårikstad" />
		<tag k="name" v="Kåristad" />
		<tag k="place" v="hamlet" />
		<tag k="ssr:stedsnr" v="182498" />
	</node>
	<node lat="58.14016666673329" lon="6.6770250011238375" id="-22214">
		<tag k="name" v="Haugri" />
		<tag k="place" v="farm" />
		<tag k="ssr:stedsnr" v="203675" />
	</node>
	<node lat="58.08964444443574" lon="6.796794451921981" id="-22257">
		<tag k="leisure" v="pitch" />
		<tag k="name" v="Farsund stadion" />
		<tag k="ssr:stedsnr" v="300869" />
	</node>
	<node lat="58.1031305558987" lon="6.5791138949974854" id="-22258">
		<tag k="fixme" v="consider place=hamlet" />
		<tag k="name" v="Borhaug" />
		<tag k="place" v="farm" />
		<tag k="ssr:stedsnr" v="303119" />
	</node>
	<node lat="58.202786107537115" lon="6.802450007426232" id="-22261">
		<tag k="name" v="Sæveland" />
		<tag k="place" v="farm" />
		<tag k="ssr:stedsnr" v="303190" />
	</node>
	<node lat="58.1350333301633" lon="6.703255552724336" id="-22264">
		<tag k="fixme" v="consider place=hamlet" />
		<tag k="name" v="Trøyborg" />
		<tag k="place" v="farm" />
		<tag k="ssr:stedsnr" v="303245" />
	</node>
	<node lat="58.11173333547719" lon="6.751425004786123" id="-22268">
		<tag k="fixme" v="consider place=hamlet" />
		<tag k="name" v="Lindland" />
		<tag k="place" v="farm" />
		<tag k="ssr:stedsnr" v="303297" />
	</node>
	<node lat="58.128925003968625" lon="6.834752780621332" id="-22273">
		<tag k="fixme" v="consider place=hamlet" />
		<tag k="name" v="Dalland" />
		<tag k="place" v="farm" />
		<tag k="ssr:stedsnr" v="304270" />
	</node>
	<node lat="58.09795278034635" lon="6.947016673866641" id="-22275">
		<tag k="fixme" v="consider place=hamlet" />
		<tag k="name" v="Hønevika" />
		<tag k="place" v="farm" />
		<tag k="ssr:stedsnr" v="304341" />
	</node>
	<node lat="58.086616665266384" lon="6.780813891849238" id="-22294">
		<tag k="name" v="Fjellestad" />
		<tag k="place" v="hamlet" />
		<tag k="ssr:stedsnr" v="324597" />
	</node>
	<node lat="58.10277222326032" lon="6.774241670204051" id="-22295">
		<tag k="name" v="Bruvika" />
		<tag k="place" v="farm" />
		<tag k="ssr:stedsnr" v="324599" />
	</node>
	<node lat="58.11247777444537" lon="6.876649994342237" id="-22318">
		<tag k="fixme" v="consider place=hamlet" />
		<tag k="name" v="Nordre Bjørnestad" />
		<tag k="place" v="farm" />
		<tag k="ssr:stedsnr" v="324983" />
	</node>
	<node lat="58.101972223075556" lon="6.932800001358079" id="-22331">
		<tag k="name" v="Stølen" />
		<tag k="place" v="farm" />
		<tag k="ssr:stedsnr" v="325470" />
	</node>
	<node lat="58.099220429540786" lon="6.591023490775014" id="-22338">
		<tag k="fixme" v="consider place=hamlet" />
		<tag k="name" v="Brekne" />
		<tag k="place" v="farm" />
		<tag k="ssr:stedsnr" v="342181" />
	</node>
	<node lat="58.21240833650957" lon="6.773388896280702" id="-22359">
		<tag k="fixme" v="consider place=hamlet" />
		<tag k="name" v="Åsen" />
		<tag k="place" v="farm" />
		<tag k="ssr:stedsnr" v="364193" />
	</node>
	<node lat="58.11556944531858" lon="6.603077769372946" id="-22360">
		<tag k="fixme" v="consider place=hamlet" />
		<tag k="name" v="Langåker" />
		<tag k="place" v="farm" />
		<tag k="ssr:stedsnr" v="364268" />
	</node>
	<node lat="58.120736110111665" lon="6.60047500114897" id="-22361">
		<tag k="fixme" v="consider place=hamlet" />
		<tag k="name" v="Stave" />
		<tag k="place" v="farm" />
		<tag k="ssr:stedsnr" v="364269" />
	</node>
	<node lat="58.11818888561358" lon="6.895055560312159" id="-22362">
		<tag k="alt_name" v="Grabu" />
		<tag k="fixme" v="consider place=hamlet" />
		<tag k="name" v="Grobo" />
		<tag k="place" v="farm" />
		<tag k="ssr:stedsnr" v="364274" />
	</node>
	<node lat="58.1165444415997" lon="6.829222228930573" id="-22363">
		<tag k="alt_name" v="Solbjør" />
		<tag k="fixme" v="consider place=hamlet" />
		<tag k="name" v="Solbjørg" />
		<tag k="place" v="farm" />
		<tag k="ssr:stedsnr" v="364275" />
	</node>
	<node lat="58.13741111503136" lon="6.844483329365277" id="-22364">
		<tag k="fixme" v="consider place=hamlet" />
		<tag k="name" v="Hoveland" />
		<tag k="place" v="farm" />
		<tag k="ssr:stedsnr" v="364278" />
	</node>
	<node lat="58.1306713997789" lon="6.722305567806612" id="-22365">
		<tag k="fixme" v="consider place=hamlet" />
		<tag k="name" v="Eitland" />
		<tag k="place" v="farm" />
		<tag k="ssr:stedsnr" v="364286" />
	</node>
	<node lat="58.05467539185043" lon="6.945639597147393" id="-22368">
		<tag k="fixme" v="consider place=hamlet" />
		<tag k="name" v="Austre Tranevåg" />
		<tag k="place" v="farm" />
		<tag k="ssr:stedsnr" v="364366" />
	</node>
	<node lat="58.074211110513545" lon="6.906633335778207" id="-22369">
		<tag k="alt_name" v="Bugdøy, yt;Store Bugdøy" />
		<tag k="fixme" v="consider place=hamlet" />
		<tag k="name" v="Ytre Bugdøy" />
		<tag k="place" v="farm" />
		<tag k="ssr:stedsnr" v="364378" />
	</node>
	<node lat="58.190411108250515" lon="6.861655557245986" id="-22371">
		<tag k="alt_name" v="Østre Kalvenes" />
		<tag k="fixme" v="consider place=hamlet" />
		<tag k="name" v="Kalvenes" />
		<tag k="place" v="farm" />
		<tag k="ssr:stedsnr" v="364230" />
	</node>
	<node lat="58.16426388541774" lon="6.851869450354114" id="-22372">
		<tag k="alt_name" v="Store Skjoldal" />
		<tag k="fixme" v="consider place=hamlet" />
		<tag k="name" v="Skjoldal" />
		<tag k="place" v="farm" />
		<tag k="ssr:stedsnr" v="364235" />
	</node>
	<node lat="58.17591110928701" lon="6.718427783196324" id="-22374">
		<tag k="alt_name" v="Kjørvik" />
		<tag k="fixme" v="consider place=hamlet" />
		<tag k="name" v="Kjørvika" />
		<tag k="place" v="farm" />
		<tag k="ssr:stedsnr" v="364239" />
	</node>
	<node lat="58.13994444152345" lon="6.610663893123036" id="-22375">
		<tag k="fixme" v="consider place=hamlet" />
		<tag k="name" v="Jølle" />
		<tag k="place" v="farm" />
		<tag k="ssr:stedsnr" v="364242" />
	</node>
	<node lat="58.086738891162135" lon="6.85414721478169" id="-22376">
		<tag k="fixme" v="consider place=hamlet" />
		<tag k="name" v="Varden" />
		<tag k="place" v="farm" />
		<tag k="ssr:stedsnr" v="364319" />
	</node>
	<node lat="58.088614964325544" lon="6.991390401487582" id="-22377">
		<tag k="alt_name" v="Stautland, in" />
		<tag k="fixme" v="consider place=hamlet" />
		<tag k="name" v="Indre Stautland" />
		<tag k="place" v="farm" />
		<tag k="ssr:stedsnr" v="364532" />
	</node>
	<node lat="58.13361944416403" lon="6.858922218934612" id="-22382">
		<tag k="name" v="Børo" />
		<tag k="place" v="farm" />
		<tag k="ssr:stedsnr" v="385524" />
	</node>
	<node lat="58.0875305558966" lon="6.775075002776708" id="-22399">
		<tag k="name" v="Kårsbakk" />
		<tag k="place" v="farm" />
		<tag k="ssr:stedsnr" v="385623" />
	</node>
	<node lat="58.10946666689928" lon="6.8821944431489195" id="-22418">
=======
	<node id="-513286" lat="58.0754140544" lon="6.685723932">
		<tag k="fixme" v="consider place=hamlet" />
		<tag k="name" v="Kviljo" />
		<tag k="place" v="farm" />
		<tag k="ssr:stedsnr" v="978000" />
	</node>
	<node id="-513285" lat="58.0853397361" lon="6.70684113988">
		<tag k="fixme" v="consider place=hamlet" />
		<tag k="name" v="Østre Rødland" />
		<tag k="place" v="farm" />
		<tag k="ssr:stedsnr" v="977999" />
	</node>
	<node id="-513284" lat="58.0844942775" lon="6.71336597431">
		<tag k="fixme" v="consider place=hamlet" />
		<tag k="name" v="Hananger" />
		<tag k="place" v="farm" />
		<tag k="ssr:stedsnr" v="977998" />
	</node>
	<node id="-513283" lat="58.0685475011" lon="6.76101787896">
		<tag k="fixme" v="consider place=hamlet" />
		<tag k="name" v="Østre Hauge" />
		<tag k="place" v="farm" />
		<tag k="ssr:stedsnr" v="977996" />
	</node>
	<node id="-513282" lat="58.0879224775" lon="6.77849017824">
		<tag k="fixme" v="consider place=hamlet" />
		<tag k="name" v="Fjellestad" />
		<tag k="place" v="farm" />
		<tag k="ssr:stedsnr" v="977992" />
	</node>
	<node id="-513281" lat="58.0952985807" lon="6.77977771744">
		<tag k="fixme" v="consider place=hamlet" />
		<tag k="name" v="Mosvold" />
		<tag k="place" v="farm" />
		<tag k="ssr:stedsnr" v="977991" />
	</node>
	<node id="-513280" lat="58.0916299024" lon="6.81053653666">
		<tag k="fixme" v="consider place=hamlet" />
		<tag k="name" v="Farøy" />
		<tag k="place" v="farm" />
		<tag k="ssr:stedsnr" v="977990" />
	</node>
	<node id="-513279" lat="58.0935616779" lon="6.78316610894">
		<tag k="fixme" v="consider place=hamlet" />
		<tag k="name" v="Sunde" />
		<tag k="place" v="farm" />
		<tag k="ssr:stedsnr" v="977989" />
	</node>
	<node id="-513278" lat="58.1974261726" lon="6.73502650776">
		<tag k="name" v="Kjørkleiv" />
		<tag k="place" v="farm" />
		<tag k="ssr:stedsnr" v="974217" />
	</node>
	<node id="-513277" lat="58.1251152479" lon="6.68553357624">
		<tag k="name" v="Reisvoll" />
		<tag k="place" v="farm" />
		<tag k="ssr:stedsnr" v="974216" />
	</node>
	<node id="-513276" lat="58.1236166676" lon="6.68629040823">
		<tag k="name" v="Reisvold" />
		<tag k="place" v="farm" />
		<tag k="ssr:stedsnr" v="974215" />
	</node>
	<node id="-513275" lat="58.1263816685" lon="6.68682863263">
		<tag k="name" v="Reisvold" />
		<tag k="place" v="farm" />
		<tag k="ssr:stedsnr" v="974214" />
	</node>
	<node id="-513274" lat="58.1244962554" lon="6.68617550508">
		<tag k="name" v="Reisvold" />
		<tag k="place" v="farm" />
		<tag k="ssr:stedsnr" v="974213" />
	</node>
	<node id="-513273" lat="58.1263136693" lon="6.68780519348">
		<tag k="name" v="Reisvold" />
		<tag k="place" v="farm" />
		<tag k="ssr:stedsnr" v="974212" />
	</node>
	<node id="-513272" lat="58.125834385" lon="6.6893986246">
		<tag k="name" v="Reisvold" />
		<tag k="place" v="farm" />
		<tag k="ssr:stedsnr" v="974211" />
	</node>
	<node id="-513271" lat="58.1958588678" lon="6.73408268303">
		<tag k="name" v="Kjørkleiv" />
		<tag k="place" v="farm" />
		<tag k="ssr:stedsnr" v="974218" />
	</node>
	<node id="-513267" lat="58.0846138867" lon="6.90222500662">
		<tag k="fixme" v="consider place=hamlet" />
		<tag k="name" v="Øygarden" />
		<tag k="place" v="farm" />
		<tag k="ssr:stedsnr" v="968215" />
	</node>
	<node id="-511207" lat="58.0786388852" lon="6.64596944344">
		<tag k="name" v="Kåde" />
		<tag k="place" v="farm" />
		<tag k="ssr:stedsnr" v="446415" />
	</node>
	<node id="-511336" lat="58.2083972212" lon="6.85651111915">
		<tag k="fixme" v="consider place=hamlet" />
		<tag k="name" v="Saudland" />
		<tag k="place" v="farm" />
		<tag k="ssr:stedsnr" v="485129" />
	</node>
	<node id="-511191" lat="58.0823638875" lon="6.89657221509">
		<tag k="name" v="Notodden" />
		<tag k="place" v="isolated_dwelling" />
		<tag k="ssr:stedsnr" v="179204" />
	</node>
	<node id="-513210" lat="58.0890722182" lon="6.69493332522">
		<tag k="fixme" v="consider place=hamlet" />
		<tag k="name" v="Østre Vatne " />
		<tag k="place" v="farm" />
		<tag k="ssr:stedsnr" v="850338" />
	</node>
	<node id="-513209" lat="58.0894305546" lon="6.66781111865">
		<tag k="fixme" v="consider place=hamlet" />
		<tag k="name" v="Dyngvoll" />
		<tag k="place" v="farm" />
		<tag k="ssr:stedsnr" v="850334" />
	</node>
	<node id="-513208" lat="58.0977002664" lon="6.8814836289">
		<tag k="alt_name" v="Eikeland, ytre;Egeland" />
		<tag k="name" v="Ytre Eikeland" />
		<tag k="place" v="hamlet" />
		<tag k="ssr:stedsnr" v="850325" />
	</node>
	<node id="-513205" lat="58.1512249977" lon="6.70629167363">
		<tag k="alt_name" v="Ulgjel" />
		<tag k="fixme" v="consider place=hamlet" />
		<tag k="name" v="Ulgjell" />
		<tag k="place" v="farm" />
		<tag k="ssr:stedsnr" v="850226" />
	</node>
	<node id="-513204" lat="58.1734111089" lon="6.71814167478">
		<tag k="fixme" v="consider place=hamlet" />
		<tag k="name" v="Duvoll" />
		<tag k="place" v="farm" />
		<tag k="ssr:stedsnr" v="850218" />
	</node>
	<node id="-513202" lat="58.1805833311" lon="6.78220000266">
		<tag k="alt_name" v="Gauteland" />
		<tag k="fixme" v="consider place=hamlet" />
		<tag k="name" v="Gautland" />
		<tag k="place" v="farm" />
		<tag k="ssr:stedsnr" v="850191" />
	</node>
	<node id="-513201" lat="58.107791669" lon="6.57945832898">
		<tag k="fixme" v="consider place=hamlet" />
		<tag k="name" v="Vågsvoll" />
		<tag k="place" v="farm" />
		<tag k="ssr:stedsnr" v="850123" />
	</node>
	<node id="-513197" lat="58.1044444446" lon="6.66860277711">
		<tag k="fixme" v="consider place=hamlet" />
		<tag k="name" v="Brastad" />
		<tag k="place" v="farm" />
		<tag k="ssr:stedsnr" v="849310" />
	</node>
	<node id="-513196" lat="58.118111114" lon="6.6448611077">
		<tag k="name" v="Frøyland" />
		<tag k="place" v="quarter" />
		<tag k="ssr:stedsnr" v="849288" />
	</node>
	<node id="-513195" lat="58.2098194453" lon="6.79258332648">
		<tag k="fixme" v="consider place=hamlet" />
		<tag k="name" v="Gjervollstad" />
		<tag k="place" v="farm" />
		<tag k="ssr:stedsnr" v="849189" />
	</node>
	<node id="-511138" lat="58.1844786457" lon="6.79246431319">
		<tag k="name" v="Åptelia" />
		<tag k="place" v="farm" />
		<tag k="ssr:stedsnr" v="264865" />
	</node>
	<node id="-511131" lat="58.1079499966" lon="6.6455944499">
		<tag k="name" v="Dyttan" />
		<tag k="place" v="farm" />
		<tag k="ssr:stedsnr" v="264767" />
	</node>
	<node id="-513163" lat="58.0935194441" lon="6.8567055605">
		<tag k="name" v="Moldbrokka" />
		<tag k="place" v="farm" />
		<tag k="ssr:stedsnr" v="811379" />
	</node>
	<node id="-513133" lat="58.0918388901" lon="6.80065278133">
		<tag k="leisure" v="park" />
		<tag k="name" v="Varbak" />
		<tag k="ssr:stedsnr" v="810616" />
	</node>
	<node id="-513132" lat="58.0871638929" lon="6.78591945152">
		<tag k="name" v="Danefjell" />
		<tag k="place" v="quarter" />
		<tag k="ssr:stedsnr" v="810614" />
	</node>
	<node id="-513128" lat="58.1197416627" lon="6.78090556314">
		<tag k="name" v="Nesan" />
		<tag k="place" v="farm" />
		<tag k="ssr:stedsnr" v="810597" />
	</node>
	<node id="-511077" lat="58.0569333333" lon="6.96656111508">
		<tag k="name" v="Kalshovud" />
		<tag k="place" v="farm" />
		<tag k="ssr:stedsnr" v="99410" />
	</node>
	<node id="-513117" lat="58.0877138857" lon="6.91715832787">
		<tag k="name" v="Lauringen" />
		<tag k="place" v="farm" />
		<tag k="ssr:stedsnr" v="810515" />
	</node>
	<node id="-513113" lat="58.1038166654" lon="6.95894165944">
		<tag k="name" v="Nordskog" />
		<tag k="place" v="farm" />
		<tag k="ssr:stedsnr" v="810491" />
	</node>
	<node id="-511064" lat="58.167550004" lon="6.8056194438">
		<tag k="fixme" v="consider place=hamlet" />
		<tag k="name" v="Sandsheia" />
		<tag k="place" v="farm" />
		<tag k="ssr:stedsnr" v="82923" />
	</node>
	<node id="-511058" lat="58.1178750039" lon="6.67731666174">
		<tag k="name" v="Leide" />
		<tag k="place" v="farm" />
		<tag k="ssr:stedsnr" v="82714" />
	</node>
	<node id="-513095" lat="58.0834388926" lon="6.77480277028">
		<tag k="name" v="Lundestranda" />
		<tag k="place" v="farm" />
		<tag k="ssr:stedsnr" v="797946" />
	</node>
	<node id="-513094" lat="58.0845063018" lon="6.98575311708">
		<tag k="alt_name" v="Stautland, yt" />
		<tag k="fixme" v="consider place=hamlet" />
		<tag k="name" v="Ytre Stautland" />
		<tag k="place" v="farm" />
		<tag k="ssr:stedsnr" v="789525" />
	</node>
	<node id="-513093" lat="58.095616668" lon="6.98873611417">
		<tag k="fixme" v="consider place=hamlet" />
		<tag k="name" v="Bostevoll" />
		<tag k="place" v="farm" />
		<tag k="ssr:stedsnr" v="789522" />
	</node>
	<node id="-513089" lat="58.0710611086" lon="6.95576110665">
		<tag k="name" v="Lyngsvåg" />
		<tag k="place" v="hamlet" />
		<tag k="ssr:stedsnr" v="788333" />
	</node>
	<node id="-513088" lat="58.1115138871" lon="6.80428610447">
		<tag k="fixme" v="consider place=hamlet" />
		<tag k="name" v="Beiske" />
		<tag k="place" v="farm" />
		<tag k="ssr:stedsnr" v="788310" />
	</node>
	<node id="-513087" lat="58.11047778" lon="6.69919999648">
		<tag k="name" v="Gaupeland" />
		<tag k="place" v="farm" />
		<tag k="ssr:stedsnr" v="788304" />
	</node>
	<node id="-511037" lat="58.0930583302" lon="6.60010834136">
		<tag k="fixme" v="consider place=suburb, village or hamlet" />
		<tag k="name" v="Tjørve" />
		<tag k="place" v="quarter" />
		<tag k="ssr:stedsnr" v="243268" />
	</node>
	<node id="-513084" lat="58.1178166702" lon="6.77246943998">
		<tag k="name" v="Heia" />
		<tag k="place" v="farm" />
		<tag k="ssr:stedsnr" v="788264" />
	</node>
	<node id="-511035" lat="58.0822833292" lon="6.77153611507">
		<tag k="fixme" v="consider place=hamlet" />
		<tag k="name" v="Lunde" />
		<tag k="place" v="farm" />
		<tag k="ssr:stedsnr" v="243312" />
	</node>
	<node id="-511034" lat="58.1501805593" lon="6.72768610303">
		<tag k="fixme" v="consider place=hamlet" />
		<tag k="name" v="Skistad" />
		<tag k="place" v="farm" />
		<tag k="ssr:stedsnr" v="243237" />
	</node>
	<node id="-513080" lat="58.1919499976" lon="6.84453055465">
		<tag k="fixme" v="consider place=hamlet" />
		<tag k="name" v="Havås" />
		<tag k="place" v="farm" />
		<tag k="ssr:stedsnr" v="788186" />
	</node>
	<node id="-511031" lat="58.1818305537" lon="6.79372778011">
		<tag k="fixme" v="consider place=hamlet" />
		<tag k="name" v="Kvåle" />
		<tag k="place" v="farm" />
		<tag k="ssr:stedsnr" v="243182" />
	</node>
	<node id="-513077" lat="58.1998138907" lon="6.87620555523">
		<tag k="fixme" v="consider place=hamlet" />
		<tag k="name" v="Drange" />
		<tag k="place" v="village" />
		<tag k="ssr:stedsnr" v="788183" />
	</node>
	<node id="-511027" lat="58.0767416669" lon="6.86023334156">
		<tag k="alt_name" v="Langøy, vestre" />
		<tag k="fixme" v="consider place=hamlet" />
		<tag k="name" v="Vestre Langøy" />
		<tag k="place" v="farm" />
		<tag k="ssr:stedsnr" v="242338" />
	</node>
	<node id="-513073" lat="58.0784111072" lon="6.9183777841">
		<tag k="name" v="Risodden" />
		<tag k="place" v="isolated_dwelling" />
		<tag k="ssr:stedsnr" v="786120" />
	</node>
	<node id="-511024" lat="58.1188527821" lon="6.6270083361">
		<tag k="alt_name" v="Hauge, vestre;Hauge vestre" />
		<tag k="name" v="Vestre Hauge" />
		<tag k="place" v="hamlet" />
		<tag k="ssr:stedsnr" v="242239" />
	</node>
	<node id="-511018" lat="58.1007555597" lon="6.96245276964">
		<tag k="alt_name" v="Berghøydne" />
		<tag k="fixme" v="consider place=hamlet" />
		<tag k="name" v="Berghydne" />
		<tag k="place" v="farm" />
		<tag k="ssr:stedsnr" v="61285" />
	</node>
	<node id="-511017" lat="58.0876138855" lon="6.79618888587">
		<tag k="name" v="Farsund fjordhotell" />
		<tag k="ssr:stedsnr" v="58870" />
		<tag k="tourism" v="hotel" />
	</node>
	<node id="-511015" lat="58.094880559" lon="6.80504166703">
		<tag k="name" v="Farsund torv" />
		<tag k="place" v="square" />
		<tag k="ssr:stedsnr" v="41304" />
	</node>
	<node id="-511012" lat="58.0677944427" lon="6.9710972249">
		<tag k="fixme" v="consider place=hamlet" />
		<tag k="name" v="Ytre Skarstein" />
		<tag k="place" v="farm" />
		<tag k="ssr:stedsnr" v="33104" />
	</node>
	<node id="-511008" lat="58.0845111125" lon="6.95785554815">
		<tag k="fixme" v="consider place=hamlet" />
		<tag k="name" v="Helle" />
		<tag k="place" v="farm" />
		<tag k="ssr:stedsnr" v="22453" />
	</node>
	<node id="-511006" lat="58.1079444472" lon="6.92828333878">
		<tag k="name" v="Nyjordet" />
		<tag k="place" v="farm" />
		<tag k="ssr:stedsnr" v="21929" />
	</node>
	<node id="-513052" lat="58.0873250045" lon="6.84761944934">
		<tag k="name" v="Ramsdalen" />
		<tag k="place" v="farm" />
		<tag k="ssr:stedsnr" v="750375" />
	</node>
	<node id="-513040" lat="58.1553527744" lon="6.80136389289">
		<tag k="name" v="Vollan" />
		<tag k="place" v="farm" />
		<tag k="ssr:stedsnr" v="749935" />
	</node>
	<node id="-510984" lat="58.069327781" lon="6.76064165954">
		<tag k="alt_name" v="Hauge østre;Hauge, austre" />
		<tag k="name" v="Austre Hauge" />
		<tag k="place" v="hamlet" />
		<tag k="ssr:stedsnr" v="374" />
	</node>
	<node id="-510979" lat="58.2138472197" lon="6.75917222884">
		<tag k="fixme" v="consider place=hamlet" />
		<tag k="name" v="Eikeland" />
		<tag k="place" v="farm" />
		<tag k="ssr:stedsnr" v="160" />
	</node>
	<node id="-513002" lat="58.0815429432" lon="6.7117754655">
		<tag k="fixme" v="consider place=hamlet" />
		<tag k="name" v="Langvoll" />
		<tag k="place" v="farm" />
		<tag k="ssr:stedsnr" v="749500" />
	</node>
	<node id="-513000" lat="58.1700500031" lon="6.73145278199">
		<tag k="name" v="Rognehaugen" />
		<tag k="place" v="farm" />
		<tag k="ssr:stedsnr" v="749491" />
	</node>
	<node id="-512991" lat="58.0828083338" lon="6.65513889207">
		<tag k="name" v="Voan" />
		<tag k="place" v="farm" />
		<tag k="ssr:stedsnr" v="749429" />
	</node>
	<node id="-512988" lat="58.0662583348" lon="6.96752500412">
		<tag k="name" v="Kvineset" />
		<tag k="place" v="farm" />
		<tag k="ssr:stedsnr" v="645356" />
	</node>
	<node id="-512970" lat="58.1213250009" lon="6.92767222717">
		<tag k="name" v="Hogga" />
		<tag k="place" v="farm" />
		<tag k="ssr:stedsnr" v="628920" />
	</node>
	<node id="-512939" lat="58.0690111103" lon="6.97126666752">
		<tag k="name" v="Ytre Skarstein" />
		<tag k="place" v="hamlet" />
		<tag k="ssr:stedsnr" v="628433" />
	</node>
	<node id="-512934" lat="58.0919361109" lon="6.68487222119">
		<tag k="alt_name" v="Skeime, nedre;Skeime nedre" />
		<tag k="fixme" v="multiple name tags, choose one and add the other to alt_name" />
		<tag k="name" v="Skeime;Nedre Skeime" />
		<tag k="place" v="hamlet" />
		<tag k="ssr:stedsnr" v="607310" />
	</node>
	<node id="-512932" lat="58.081091666" lon="6.91831944742">
		<tag k="alt_name" v="Bugdøy, in;Lille Bugdøy" />
		<tag k="fixme" v="consider place=hamlet" />
		<tag k="name" v="Indre Bugdøy" />
		<tag k="place" v="farm" />
		<tag k="ssr:stedsnr" v="606337" />
	</node>
	<node id="-512930" lat="58.0617027805" lon="6.94423333194">
		<tag k="alt_name" v="Fidje" />
		<tag k="fixme" v="consider place=hamlet" />
		<tag k="name" v="Fidja" />
		<tag k="place" v="farm" />
		<tag k="ssr:stedsnr" v="606333" />
	</node>
	<node id="-512927" lat="58.1141111068" lon="6.88071944871">
		<tag k="alt_name" v="Bjørgen" />
		<tag k="fixme" v="consider place=hamlet" />
		<tag k="name" v="Bjørga" />
		<tag k="place" v="farm" />
		<tag k="ssr:stedsnr" v="606297" />
	</node>
	<node id="-512925" lat="58.1093999977" lon="6.78696389433">
		<tag k="fixme" v="consider place=hamlet" />
		<tag k="name" v="Bjørnestad" />
		<tag k="place" v="farm" />
		<tag k="ssr:stedsnr" v="606290" />
	</node>
	<node id="-512924" lat="58.1079972229" lon="6.71745833995">
		<tag k="alt_name" v="Omland" />
		<tag k="name" v="Åmland" />
		<tag k="place" v="hamlet" />
		<tag k="ssr:stedsnr" v="606288" />
	</node>
	<node id="-512922" lat="58.1298083336" lon="6.61529444334">
		<tag k="fixme" v="consider place=hamlet" />
		<tag k="name" v="Nordberg" />
		<tag k="place" v="farm" />
		<tag k="ssr:stedsnr" v="606264" />
	</node>
	<node id="-512920" lat="58.13704167" lon="6.60563054914">
		<tag k="alt_name" v="Kylleberg" />
		<tag k="fixme" v="consider place=hamlet" />
		<tag k="name" v="Kjølleberg" />
		<tag k="place" v="farm" />
		<tag k="ssr:stedsnr" v="606231" />
	</node>
	<node id="-512919" lat="58.1330777778" lon="6.64433333771">
		<tag k="fixme" v="consider place=hamlet" />
		<tag k="name" v="Jørstad" />
		<tag k="place" v="farm" />
		<tag k="ssr:stedsnr" v="606230" />
	</node>
	<node id="-512918" lat="58.151666664" lon="6.62121944338">
		<tag k="alt_name" v="Senegre" />
		<tag k="fixme" v="consider place=hamlet" />
		<tag k="name" v="Sennekre" />
		<tag k="place" v="farm" />
		<tag k="ssr:stedsnr" v="606227" />
	</node>
	<node id="-512917" lat="58.221761115" lon="6.82724444286">
		<tag k="fixme" v="consider place=hamlet" />
		<tag k="name" v="Bjelland" />
		<tag k="place" v="farm" />
		<tag k="ssr:stedsnr" v="606146" />
	</node>
	<node id="-512914" lat="58.1580638846" lon="6.79992499873">
		<tag k="fixme" v="consider place=hamlet" />
		<tag k="name" v="Sande" />
		<tag k="place" v="farm" />
		<tag k="ssr:stedsnr" v="606222" />
	</node>
	<node id="-512910" lat="58.2036499978" lon="6.83925555903">
		<tag k="fixme" v="consider place=hamlet" />
		<tag k="name" v="Svindal" />
		<tag k="place" v="farm" />
		<tag k="ssr:stedsnr" v="606181" />
	</node>
	<node id="-512890" lat="58.0564999979" lon="6.93319999632">
		<tag k="name" v="Flægholmen" />
		<tag k="place" v="farm" />
		<tag k="ssr:stedsnr" v="574836" />
	</node>
	<node id="-512879" lat="58.0862444477" lon="6.94992778227">
		<tag k="name" v="Klelia" />
		<tag k="place" v="farm" />
		<tag k="ssr:stedsnr" v="568450" />
	</node>
	<node id="-512859" lat="58.1249805542" lon="6.60922499794">
		<tag k="alt_name" v="Vere" />
		<tag k="name" v="Austre Vere" />
		<tag k="place" v="hamlet" />
		<tag k="ssr:stedsnr" v="567744" />
	</node>
	<node id="-512857" lat="58.1033777783" lon="6.68856111504">
		<tag k="name" v="Minde" />
		<tag k="place" v="quarter" />
		<tag k="ssr:stedsnr" v="567730" />
	</node>
	<node id="-512855" lat="58.1252111118" lon="6.66057221703">
		<tag k="name" v="Kleiveland" />
		<tag k="place" v="locality" />
		<tag k="ssr:stedsnr" v="567716" />
	</node>
	<node id="-512848" lat="58.1349277809" lon="6.6757916661">
		<tag k="fixme" v="consider place=hamlet" />
		<tag k="name" v="Launes" />
		<tag k="place" v="farm" />
		<tag k="ssr:stedsnr" v="567649" />
	</node>
	<node id="-512845" lat="58.1108388867" lon="6.70364443631">
		<tag k="name" v="Harbakk" />
		<tag k="place" v="farm" />
		<tag k="ssr:stedsnr" v="567633" />
	</node>
	<node id="-512842" lat="58.0922638855" lon="6.77381111424">
		<tag k="name" v="Haugbakk" />
		<tag k="place" v="quarter" />
		<tag k="ssr:stedsnr" v="567600" />
	</node>
	<node id="-512840" lat="58.0956055538" lon="6.77740555292">
		<tag k="name" v="Mosvoll" />
		<tag k="place" v="quarter" />
		<tag k="ssr:stedsnr" v="567583" />
	</node>
	<node id="-512839" lat="58.1152277775" lon="6.77457777238">
		<tag k="name" v="Heiastrand" />
		<tag k="place" v="farm" />
		<tag k="ssr:stedsnr" v="567571" />
	</node>
	<node id="-512829" lat="58.0958750023" lon="6.88074721839">
		<tag k="name" v="Svinejordet" />
		<tag k="place" v="farm" />
		<tag k="ssr:stedsnr" v="567491" />
	</node>
	<node id="-512828" lat="58.1021499998" lon="6.87869166671">
		<tag k="name" v="Udestad" />
		<tag k="place" v="hamlet" />
		<tag k="ssr:stedsnr" v="567487" />
	</node>
	<node id="-512814" lat="58.0453583303" lon="6.91980555896">
		<tag k="fixme" v="consider place=hamlet" />
		<tag k="name" v="Ullerøy" />
		<tag k="place" v="farm" />
		<tag k="ssr:stedsnr" v="546374" />
	</node>
	<node id="-512810" lat="58.0576441119" lon="6.93908558875">
		<tag k="alt_name" v="Tranevåg, l;Vestre Tranevåg" />
		<tag k="fixme" v="consider place=hamlet" />
		<tag k="name" v="Litle Tranevåg" />
		<tag k="place" v="farm" />
		<tag k="ssr:stedsnr" v="546327" />
	</node>
	<node id="-512808" lat="58.0731527812" lon="6.71923888269">
		<tag k="name" v="Hanangermona" />
		<tag k="place" v="farm" />
		<tag k="ssr:stedsnr" v="546301" />
	</node>
	<node id="-512807" lat="58.0851249966" lon="6.88375277747">
		<tag k="alt_name" v="Viken" />
		<tag k="fixme" v="consider place=hamlet" />
		<tag k="name" v="Vika" />
		<tag k="place" v="farm" />
		<tag k="ssr:stedsnr" v="546293" />
	</node>
	<node id="-512805" lat="58.131788893" lon="6.8481222181">
		<tag k="alt_name" v="Lauland" />
		<tag k="fixme" v="consider place=hamlet" />
		<tag k="name" v="Lauvland" />
		<tag k="place" v="farm" />
		<tag k="ssr:stedsnr" v="546262" />
	</node>
	<node id="-512804" lat="58.1212861134" lon="6.9319027861">
		<tag k="alt_name" v="Skodeland" />
		<tag k="fixme" v="consider place=hamlet" />
		<tag k="name" v="Skåteland" />
		<tag k="place" v="farm" />
		<tag k="ssr:stedsnr" v="546253" />
	</node>
	<node id="-512802" lat="58.1191000004" lon="6.67996944669">
		<tag k="alt_name" v="Omdal" />
		<tag k="name" v="Åmdal" />
		<tag k="place" v="hamlet" />
		<tag k="ssr:stedsnr" v="546246" />
	</node>
	<node id="-512800" lat="58.1799388928" lon="6.69272499248">
		<tag k="name" v="Stibakken" />
		<tag k="place" v="farm" />
		<tag k="ssr:stedsnr" v="546192" />
	</node>
	<node id="-512789" lat="58.0723500008" lon="6.91099999237">
		<tag k="name" v="Svinehagen" />
		<tag k="place" v="farm" />
		<tag k="ssr:stedsnr" v="543188" />
	</node>
	<node id="-512780" lat="58.0646027817" lon="6.81628611085">
		<tag k="alt_name" v="Loshamn" />
		<tag k="fixme" v="consider place=suburb, village or hamlet" />
		<tag k="name" v="Loshavn" />
		<tag k="place" v="quarter" />
		<tag k="ssr:stedsnr" v="425376" />
	</node>
	<node id="-512778" lat="58.0996333298" lon="6.73980555008">
		<tag k="fixme" v="consider place=hamlet" />
		<tag k="name" v="Biland" />
		<tag k="place" v="farm" />
		<tag k="ssr:stedsnr" v="425288" />
	</node>
	<node id="-512777" lat="58.1001777787" lon="6.75700556115">
		<tag k="fixme" v="consider place=hamlet" />
		<tag k="name" v="Kjørrefjord" />
		<tag k="place" v="farm" />
		<tag k="ssr:stedsnr" v="425286" />
	</node>
	<node id="-512776" lat="58.1387555598" lon="6.82744444246">
		<tag k="fixme" v="consider place=hamlet" />
		<tag k="name" v="Høyland" />
		<tag k="place" v="farm" />
		<tag k="ssr:stedsnr" v="425271" />
	</node>
	<node id="-512774" lat="58.144238888" lon="6.8373444394">
		<tag k="alt_name" v="Bedringsås" />
		<tag k="name" v="Bidringsås" />
		<tag k="place" v="hamlet" />
		<tag k="ssr:stedsnr" v="425242" />
	</node>
	<node id="-512773" lat="58.178600001" lon="6.63897500122">
		<tag k="alt_name" v="Vikane;Vikene" />
		<tag k="fixme" v="consider place=hamlet" />
		<tag k="name" v="Vigan" />
		<tag k="place" v="farm" />
		<tag k="ssr:stedsnr" v="425197" />
	</node>
	<node id="-512772" lat="58.1894888896" lon="6.84995555013">
		<tag k="alt_name" v="Selte" />
		<tag k="name" v="Solheim" />
		<tag k="place" v="farm" />
		<tag k="ssr:stedsnr" v="425189" />
	</node>
	<node id="-512767" lat="58.0804999971" lon="6.78913056407">
		<tag k="name" v="Lunde" />
		<tag k="place" v="locality" />
		<tag k="ssr:stedsnr" v="422899" />
	</node>
	<node id="-512754" lat="58.1031305559" lon="6.579113895">
		<tag k="name" v="Borhaug" />
		<tag k="place" v="farm" />
		<tag k="ssr:stedsnr" v="405471" />
	</node>
	<node id="-512746" lat="58.0711805519" lon="6.81868889466">
		<tag k="name" v="Store Eigerøy" />
		<tag k="place" v="farm" />
		<tag k="ssr:stedsnr" v="392844" />
	</node>
	<node id="-512738" lat="58.1094666669" lon="6.88219444315">
		<tag k="fixme" v="consider place=hamlet" />
		<tag k="name" v="Søndre Bjørnestad" />
		<tag k="place" v="farm" />
		<tag k="ssr:stedsnr" v="385982" />
	</node>
	<node id="-512717" lat="58.1181666702" lon="6.73993056028">
		<tag k="name" v="Lunden" />
		<tag k="place" v="farm" />
		<tag k="ssr:stedsnr" v="385634" />
	</node>
	<node id="-512701" lat="58.1714555539" lon="6.68093889289">
		<tag k="name" v="Brattevoll" />
		<tag k="place" v="farm" />
		<tag k="ssr:stedsnr" v="385398" />
	</node>
	<node id="-512700" lat="58.1641111145" lon="6.66345556267">
		<tag k="name" v="Levoll" />
		<tag k="place" v="farm" />
		<tag k="ssr:stedsnr" v="385396" />
	</node>
	<node id="-512698" lat="58.0886149643" lon="6.99139040149">
		<tag k="alt_name" v="Stautland, in" />
		<tag k="fixme" v="consider place=hamlet" />
		<tag k="name" v="Indre Stautland" />
		<tag k="place" v="farm" />
		<tag k="ssr:stedsnr" v="364532" />
	</node>
	<node id="-512696" lat="58.0742111105" lon="6.90663333578">
		<tag k="alt_name" v="Bugdøy, yt;Store Bugdøy" />
		<tag k="fixme" v="consider place=hamlet" />
		<tag k="name" v="Ytre Bugdøy" />
		<tag k="place" v="farm" />
		<tag k="ssr:stedsnr" v="364378" />
	</node>
	<node id="-512695" lat="58.0546753919" lon="6.94563959715">
		<tag k="alt_name" v="Tranevåg, austre;Østre Tranevåg" />
		<tag k="fixme" v="consider place=hamlet" />
		<tag k="name" v="Austre Tranevåg" />
		<tag k="place" v="farm" />
		<tag k="ssr:stedsnr" v="364366" />
	</node>
	<node id="-512693" lat="58.0867388912" lon="6.85414721478">
		<tag k="fixme" v="consider place=hamlet" />
		<tag k="name" v="Varden" />
		<tag k="place" v="farm" />
		<tag k="ssr:stedsnr" v="364319" />
	</node>
	<node id="-512692" lat="58.1070388859" lon="6.64959999414">
		<tag k="fixme" v="consider place=hamlet" />
		<tag k="name" v="Maberg" />
		<tag k="place" v="farm" />
		<tag k="ssr:stedsnr" v="364303" />
	</node>
	<node id="-512691" lat="58.1076916676" lon="6.62594721736">
		<tag k="alt_name" v="Råstad, nedre;Råstad nedre" />
		<tag k="fixme" v="consider place=hamlet" />
		<tag k="name" v="Nedre Råstad" />
		<tag k="place" v="farm" />
		<tag k="ssr:stedsnr" v="364302" />
	</node>
	<node id="-512689" lat="58.1306713998" lon="6.72230556781">
		<tag k="fixme" v="consider place=hamlet" />
		<tag k="name" v="Eitland" />
		<tag k="place" v="farm" />
		<tag k="ssr:stedsnr" v="364286" />
	</node>
	<node id="-512688" lat="58.137411115" lon="6.84448332937">
		<tag k="fixme" v="consider place=hamlet" />
		<tag k="name" v="Hoveland" />
		<tag k="place" v="farm" />
		<tag k="ssr:stedsnr" v="364278" />
	</node>
	<node id="-512687" lat="58.1165444416" lon="6.82922222893">
		<tag k="alt_name" v="Solbjør" />
		<tag k="fixme" v="consider place=hamlet" />
		<tag k="name" v="Solbjørg" />
		<tag k="place" v="farm" />
		<tag k="ssr:stedsnr" v="364275" />
	</node>
	<node id="-512686" lat="58.1181888856" lon="6.89505556031">
		<tag k="alt_name" v="Grabu" />
		<tag k="fixme" v="consider place=hamlet" />
		<tag k="name" v="Grobo" />
		<tag k="place" v="farm" />
		<tag k="ssr:stedsnr" v="364274" />
	</node>
	<node id="-512685" lat="58.1207361101" lon="6.60047500115">
		<tag k="fixme" v="consider place=hamlet" />
		<tag k="name" v="Stave" />
		<tag k="place" v="farm" />
		<tag k="ssr:stedsnr" v="364269" />
	</node>
	<node id="-512684" lat="58.1155694453" lon="6.60307776937">
		<tag k="fixme" v="consider place=hamlet" />
		<tag k="name" v="Langåker" />
		<tag k="place" v="farm" />
		<tag k="ssr:stedsnr" v="364268" />
	</node>
	<node id="-512683" lat="58.1354944475" lon="6.65795278211">
		<tag k="fixme" v="consider place=hamlet" />
		<tag k="name" v="Tveit" />
		<tag k="place" v="farm" />
		<tag k="ssr:stedsnr" v="364258" />
	</node>
	<node id="-512681" lat="58.1399444415" lon="6.61066389312">
		<tag k="fixme" v="consider place=hamlet" />
		<tag k="name" v="Jølle" />
		<tag k="place" v="farm" />
		<tag k="ssr:stedsnr" v="364242" />
	</node>
	<node id="-512680" lat="58.1759111093" lon="6.7184277832">
		<tag k="alt_name" v="Kjørvik" />
		<tag k="fixme" v="consider place=hamlet" />
		<tag k="name" v="Kjørvika" />
		<tag k="place" v="farm" />
		<tag k="ssr:stedsnr" v="364239" />
	</node>
	<node id="-512678" lat="58.1642638854" lon="6.85186945035">
		<tag k="alt_name" v="Store Skjoldal" />
		<tag k="fixme" v="consider place=hamlet" />
		<tag k="name" v="Skjoldal" />
		<tag k="place" v="farm" />
		<tag k="ssr:stedsnr" v="364235" />
	</node>
	<node id="-512677" lat="58.1904111083" lon="6.86165555725">
		<tag k="alt_name" v="Østre Kalvenes" />
		<tag k="fixme" v="consider place=hamlet" />
		<tag k="name" v="Kalvenes" />
		<tag k="place" v="farm" />
		<tag k="ssr:stedsnr" v="364230" />
	</node>
	<node id="-512675" lat="58.2124083365" lon="6.77338889628">
		<tag k="fixme" v="consider place=hamlet" />
		<tag k="name" v="Åsen" />
		<tag k="place" v="farm" />
		<tag k="ssr:stedsnr" v="364193" />
	</node>
	<node id="-512663" lat="58.0707249968" lon="6.81150832525">
		<tag k="name" v="Eigvåg" />
		<tag k="place" v="hamlet" />
		<tag k="ssr:stedsnr" v="342996" />
	</node>
	<node id="-512659" lat="58.0992204295" lon="6.59102349078">
		<tag k="fixme" v="consider place=hamlet" />
		<tag k="name" v="Brekne" />
		<tag k="place" v="farm" />
		<tag k="ssr:stedsnr" v="342181" />
	</node>
	<node id="-512646" lat="58.1019722231" lon="6.93280000136">
		<tag k="name" v="Stølen" />
		<tag k="place" v="farm" />
		<tag k="ssr:stedsnr" v="325470" />
	</node>
	<node id="-512636" lat="58.1124777744" lon="6.87664999434">
		<tag k="fixme" v="consider place=hamlet" />
		<tag k="name" v="Nordre Bjørnestad" />
		<tag k="place" v="farm" />
		<tag k="ssr:stedsnr" v="324983" />
	</node>
	<node id="-512596" lat="58.1027722233" lon="6.7742416702">
		<tag k="name" v="Bruvika" />
		<tag k="place" v="farm" />
		<tag k="ssr:stedsnr" v="324599" />
	</node>
	<node id="-512595" lat="58.0866166653" lon="6.78081389185">
		<tag k="name" v="Fjellestad" />
		<tag k="place" v="hamlet" />
		<tag k="ssr:stedsnr" v="324597" />
	</node>
	<node id="-512569" lat="58.0979527803" lon="6.94701667387">
		<tag k="fixme" v="consider place=hamlet" />
		<tag k="name" v="Hønevika" />
		<tag k="place" v="farm" />
		<tag k="ssr:stedsnr" v="304341" />
	</node>
	<node id="-512567" lat="58.128925004" lon="6.83475278062">
		<tag k="fixme" v="consider place=hamlet" />
		<tag k="name" v="Dalland" />
		<tag k="place" v="farm" />
		<tag k="ssr:stedsnr" v="304270" />
	</node>
	<node id="-512563" lat="58.1117333355" lon="6.75142500479">
		<tag k="fixme" v="consider place=hamlet" />
		<tag k="name" v="Lindland" />
		<tag k="place" v="farm" />
		<tag k="ssr:stedsnr" v="303297" />
	</node>
	<node id="-512562" lat="58.2027861075" lon="6.80245000743">
		<tag k="name" v="Sæveland" />
		<tag k="place" v="farm" />
		<tag k="ssr:stedsnr" v="303190" />
	</node>
	<node id="-512558" lat="58.0892749995" lon="6.89124166357">
		<tag k="fixme" v="consider place=hamlet" />
		<tag k="name" v="Espeland" />
		<tag k="place" v="farm" />
		<tag k="ssr:stedsnr" v="303309" />
	</node>
	<node id="-512557" lat="58.1350333302" lon="6.70325555272">
		<tag k="fixme" v="consider place=hamlet" />
		<tag k="name" v="Trøyborg" />
		<tag k="place" v="farm" />
		<tag k="ssr:stedsnr" v="303245" />
	</node>
	<node id="-512554" lat="58.1677500008" lon="6.69827499524">
		<tag k="fixme" v="consider place=hamlet" />
		<tag k="name" v="Frøysti" />
		<tag k="place" v="farm" />
		<tag k="ssr:stedsnr" v="303211" />
	</node>
	<node id="-512553" lat="58.1593583292" lon="6.6578249935">
		<tag k="fixme" v="consider place=hamlet" />
		<tag k="name" v="Heskestad" />
		<tag k="place" v="farm" />
		<tag k="ssr:stedsnr" v="303210" />
	</node>
	<node id="-512552" lat="58.1679999962" lon="6.73578333389">
		<tag k="fixme" v="consider place=hamlet" />
		<tag k="name" v="Listeid" />
		<tag k="place" v="farm" />
		<tag k="ssr:stedsnr" v="303205" />
	</node>
	<node id="-512507" lat="58.1401666667" lon="6.67702500112">
		<tag k="name" v="Haugri" />
		<tag k="place" v="farm" />
		<tag k="ssr:stedsnr" v="203675" />
	</node>
	<node id="-512501" lat="58.1044861139" lon="6.72133054898">
		<tag k="name" v="Høygård" />
		<tag k="place" v="farm" />
		<tag k="ssr:stedsnr" v="203605" />
	</node>
	<node id="-512480" lat="58.0877499977" lon="6.9684861111">
		<tag k="fixme" v="consider place=hamlet" />
		<tag k="name" v="Tonsberg" />
		<tag k="place" v="farm" />
		<tag k="ssr:stedsnr" v="182514" />
	</node>
	<node id="-512479" lat="58.0978222202" lon="6.97607777524">
		<tag k="alt_name" v="Kårikstad" />
		<tag k="name" v="Kåristad" />
		<tag k="place" v="hamlet" />
		<tag k="ssr:stedsnr" v="182498" />
	</node>
	<node id="-512476" lat="58.073119448" lon="6.94919721536">
		<tag k="fixme" v="consider place=hamlet" />
		<tag k="name" v="Bervåg" />
		<tag k="place" v="farm" />
		<tag k="ssr:stedsnr" v="182361" />
	</node>
	<node id="-512475" lat="58.1153222182" lon="6.74153889659">
		<tag k="fixme" v="consider place=hamlet" />
		<tag k="name" v="Straumsland" />
		<tag k="place" v="farm" />
		<tag k="ssr:stedsnr" v="182249" />
	</node>
	<node id="-512474" lat="58.1201916663" lon="6.77671388491">
		<tag k="alt_name" v="Nøringskår" />
		<tag k="fixme" v="consider place=hamlet" />
		<tag k="name" v="Nørskår" />
		<tag k="place" v="farm" />
		<tag k="ssr:stedsnr" v="182248" />
	</node>
	<node id="-512472" lat="58.1142027748" lon="6.62215000073">
		<tag k="fixme" v="consider place=hamlet" />
		<tag k="name" v="Velle" />
		<tag k="place" v="farm" />
		<tag k="ssr:stedsnr" v="182240" />
	</node>
	<node id="-512471" lat="58.1368611125" lon="6.62370278606">
		<tag k="fixme" v="consider place=hamlet" />
		<tag k="name" v="Hervoll" />
		<tag k="place" v="farm" />
		<tag k="ssr:stedsnr" v="182230" />
	</node>
	<node id="-512470" lat="58.1372249957" lon="6.69220833661">
		<tag k="alt_name" v="Øygarden" />
		<tag k="name" v="Øygard" />
		<tag k="place" v="farm" />
		<tag k="ssr:stedsnr" v="182227" />
	</node>
	<node id="-512468" lat="58.1393333368" lon="6.73310278219">
		<tag k="fixme" v="consider place=hamlet" />
		<tag k="name" v="Vika" />
		<tag k="place" v="farm" />
		<tag k="ssr:stedsnr" v="182222" />
	</node>
	<node id="-512462" lat="58.0851111115" lon="6.8933194376">
		<tag k="fixme" v="consider place=hamlet" />
		<tag k="name" v="Reisvåg" />
		<tag k="place" v="farm" />
		<tag k="ssr:stedsnr" v="182306" />
	</node>
	<node id="-512461" lat="58.1139499956" lon="6.67305554824">
		<tag k="alt_name" v="Vetteland" />
		<tag k="name" v="Vetland" />
		<tag k="place" v="hamlet" />
		<tag k="ssr:stedsnr" v="182289" />
	</node>
	<node id="-512460" lat="58.1060083367" lon="6.94566943929">
		<tag k="name" v="Lega" />
		<tag k="place" v="farm" />
		<tag k="ssr:stedsnr" v="182278" />
	</node>
	<node id="-512458" lat="58.1031111106" lon="6.71284999188">
		<tag k="fixme" v="consider place=hamlet" />
		<tag k="name" v="Høyland" />
		<tag k="place" v="farm" />
		<tag k="ssr:stedsnr" v="182272" />
	</node>
	<node id="-512454" lat="58.1755666643" lon="6.69286943867">
		<tag k="fixme" v="consider place=hamlet" />
		<tag k="name" v="Sigersvoll" />
		<tag k="place" v="farm" />
		<tag k="ssr:stedsnr" v="182201" />
	</node>
	<node id="-512450" lat="58.2001194487" lon="6.73225833385">
		<tag k="alt_name" v="Stølen, in" />
		<tag k="fixme" v="consider place=hamlet" />
		<tag k="name" v="Indre Stølen" />
		<tag k="place" v="farm" />
		<tag k="ssr:stedsnr" v="182177" />
	</node>
	<node id="-511047" lat="58.1331972195" lon="6.85212221957">
		<tag k="name" v="Dalen" />
		<tag k="place" v="farm" />
		<tag k="ssr:stedsnr" v="82452" />
	</node>
	<node id="-511046" lat="58.1128583347" lon="6.78404165841">
		<tag k="name" v="Gura" />
		<tag k="place" v="farm" />
		<tag k="ssr:stedsnr" v="82568" />
	</node>
	<node id="-512392" lat="58.1093666643" lon="6.63720000745">
		<tag k="name" v="Kloppan" />
		<tag k="place" v="farm" />
		<tag k="ssr:stedsnr" v="142783" />
	</node>
	<node id="-511041" lat="58.0796750016" lon="6.76872221433">
		<tag k="name" v="Lunde" />
		<tag k="place" v="farm" />
		<tag k="ssr:stedsnr" v="243735" />
	</node>
	<node id="-511040" lat="58.1137361153" lon="6.78007499854">
		<tag k="fixme" v="consider place=hamlet" />
		<tag k="name" v="Suggenes" />
		<tag k="place" v="farm" />
		<tag k="ssr:stedsnr" v="243299" />
	</node>
	<node id="-511039" lat="58.104291668" lon="6.95327221396">
		<tag k="name" v="Bakken" />
		<tag k="place" v="farm" />
		<tag k="ssr:stedsnr" v="243284" />
	</node>
	<node id="-512367" lat="58.0829888895" lon="6.87432778167">
		<tag k="alt_name" v="Hovden" />
		<tag k="fixme" v="consider place=hamlet" />
		<tag k="name" v="Vestre Hovden" />
		<tag k="place" v="farm" />
		<tag k="ssr:stedsnr" v="142510" />
	</node>
	<node id="-512362" lat="58.0964055582" lon="6.89896388453">
		<tag k="name" v="Nygård" />
		<tag k="place" v="farm" />
		<tag k="ssr:stedsnr" v="142486" />
	</node>
	<node id="-511036" lat="58.0956555527" lon="6.67748889115">
		<tag k="alt_name" v="Skeime, øvre;Skeime øvre" />
		<tag k="name" v="Øvre Skeime" />
		<tag k="place" v="hamlet" />
		<tag k="ssr:stedsnr" v="243325" />
	</node>
	<node id="-512343" lat="58.1751249995" lon="6.67570833419">
		<tag k="name" v="Elle" />
		<tag k="place" v="hamlet" />
		<tag k="ssr:stedsnr" v="145590" />
	</node>
	<node id="-512337" lat="58.0988638885" lon="6.89066666758">
		<tag k="alt_name" v="Årisstad" />
		<tag k="fixme" v="consider place=hamlet" />
		<tag k="name" v="Årikstad" />
		<tag k="place" v="farm" />
		<tag k="ssr:stedsnr" v="121345" />
	</node>
	<node id="-512336" lat="58.0922749968" lon="6.78334166631">
		<tag k="name" v="Sunde" />
		<tag k="place" v="quarter" />
		<tag k="ssr:stedsnr" v="121335" />
	</node>
	<node id="-512335" lat="58.0947861154" lon="6.80465555642">
		<tag k="name" v="Farsund" />
		<tag k="place" v="town" />
		<tag k="ssr:stedsnr" v="121334" />
	</node>
	<node id="-512334" lat="58.1162944428" lon="6.78565556207">
		<tag k="fixme" v="consider place=hamlet" />
		<tag k="name" v="Sellegrod" />
		<tag k="place" v="farm" />
		<tag k="ssr:stedsnr" v="121313" />
	</node>
	<node id="-512333" lat="58.1057083322" lon="6.70438056376">
		<tag k="fixme" v="consider place=hamlet" />
		<tag k="name" v="Knivsland" />
		<tag k="place" v="farm" />
		<tag k="ssr:stedsnr" v="121303" />
	</node>
	<node id="-512332" lat="58.1088499988" lon="6.91079444769">
		<tag k="fixme" v="consider place=hamlet" />
		<tag k="name" v="Vik" />
		<tag k="place" v="farm" />
		<tag k="ssr:stedsnr" v="121293" />
	</node>
	<node id="-512331" lat="58.1282055573" lon="6.82151667204">
		<tag k="fixme" v="consider place=hamlet" />
		<tag k="name" v="Espeland" />
		<tag k="place" v="farm" />
		<tag k="ssr:stedsnr" v="121285" />
	</node>
	<node id="-512330" lat="58.1312888874" lon="6.76751666499">
		<tag k="alt_name" v="Rydland" />
		<tag k="fixme" v="consider place=hamlet" />
		<tag k="name" v="Rødland på Heia" />
		<tag k="place" v="farm" />
		<tag k="ssr:stedsnr" v="121279" />
	</node>
	<node id="-512329" lat="58.1231194442" lon="6.84834999208">
		<tag k="fixme" v="consider place=hamlet" />
		<tag k="name" v="Fulland" />
		<tag k="place" v="farm" />
		<tag k="ssr:stedsnr" v="121267" />
	</node>
	<node id="-512328" lat="58.118491664" lon="6.92395278463">
>>>>>>> e1d4bc35ff8a6074a6f2e91616a996b547c36f15
		<tag k="fixme" v="consider place=hamlet" />
		<tag k="name" v="Dåreid" />
		<tag k="place" v="farm" />
		<tag k="ssr:stedsnr" v="121265" />
	</node>
<<<<<<< HEAD
	<node lat="58.118166670225094" lon="6.7399305602799275" id="-22419">
		<tag k="name" v="Lunden" />
=======
	<node id="-512326" lat="58.1324944436" lon="6.62474166148">
		<tag k="alt_name" v="Skeibrok" />
		<tag k="name" v="Skeibrokk" />
		<tag k="place" v="hamlet" />
		<tag k="ssr:stedsnr" v="121237" />
	</node>
	<node id="-512324" lat="58.1583833354" lon="6.78322777783">
		<tag k="fixme" v="consider place=hamlet" />
		<tag k="name" v="Log" />
>>>>>>> e1d4bc35ff8a6074a6f2e91616a996b547c36f15
		<tag k="place" v="farm" />
		<tag k="ssr:stedsnr" v="121221" />
	</node>
<<<<<<< HEAD
	<node lat="58.0711805519353" lon="6.818688894655991" id="-22434">
		<tag k="name" v="Store Eigerøy" />
		<tag k="place" v="farm" />
		<tag k="ssr:stedsnr" v="392844" />
	</node>
	<node lat="58.1031305558987" lon="6.5791138949974854" id="-22441">
		<tag k="name" v="Borhaug" />
		<tag k="place" v="farm" />
		<tag k="ssr:stedsnr" v="405471" />
	</node>
	<node lat="58.08049999714852" lon="6.78913056407233" id="-22447">
		<tag k="name" v="Lunde" />
		<tag k="place" v="locality" />
		<tag k="ssr:stedsnr" v="422899" />
	</node>
	<node lat="58.18948888961913" lon="6.8499555501303435" id="-22450">
		<tag k="alt_name" v="Selte" />
		<tag k="name" v="Solheim" />
		<tag k="place" v="farm" />
		<tag k="ssr:stedsnr" v="425189" />
	</node>
	<node lat="58.13875555979724" lon="6.82744444246198" id="-22451">
		<tag k="fixme" v="consider place=hamlet" />
		<tag k="name" v="Høyland" />
		<tag k="place" v="farm" />
		<tag k="ssr:stedsnr" v="425271" />
	</node>
	<node lat="58.14423888797257" lon="6.837344439395119" id="-22453">
		<tag k="alt_name" v="Bedringsås" />
		<tag k="name" v="Bidringsås" />
		<tag k="place" v="hamlet" />
		<tag k="ssr:stedsnr" v="425242" />
	</node>
	<node lat="58.11248055635464" lon="6.797911106176686" id="-22455">
		<tag k="fixme" v="consider place=hamlet" />
		<tag k="name" v="Slettestrand" />
		<tag k="place" v="farm" />
		<tag k="ssr:stedsnr" v="425313" />
	</node>
	<node lat="58.11018055574487" lon="6.880602774717652" id="-22456">
		<tag k="name" v="Bjørnestad" />
		<tag k="place" v="farm" />
		<tag k="ssr:stedsnr" v="425314" />
	</node>
	<node lat="58.07292777549066" lon="6.763666658613584" id="-22459">
		<tag k="fixme" v="consider place=hamlet" />
		<tag k="name" v="Huseby" />
		<tag k="place" v="farm" />
		<tag k="ssr:stedsnr" v="425326" />
	</node>
	<node lat="58.085844443499624" lon="6.706236114362177" id="-22460">
		<tag k="alt_name" v="Rødland østre" />
		<tag k="name" v="Rødland" />
		<tag k="place" v="hamlet" />
		<tag k="ssr:stedsnr" v="425338" />
	</node>
	<node lat="58.10017777868598" lon="6.75700556114624" id="-22461">
		<tag k="fixme" v="consider place=hamlet" />
		<tag k="name" v="Kjørrefjord" />
		<tag k="place" v="farm" />
		<tag k="ssr:stedsnr" v="425286" />
	</node>
	<node lat="58.09963332979609" lon="6.739805550080755" id="-22462">
		<tag k="fixme" v="consider place=hamlet" />
		<tag k="name" v="Biland" />
		<tag k="place" v="farm" />
		<tag k="ssr:stedsnr" v="425288" />
	</node>
	<node lat="58.064602781669386" lon="6.816286110851502" id="-22465">
		<tag k="alt_name" v="Loshamn" />
		<tag k="fixme" v="consider place=suburb, village or hamlet" />
		<tag k="name" v="Loshavn" />
		<tag k="place" v="quarter" />
		<tag k="ssr:stedsnr" v="425376" />
	</node>
	<node lat="58.170827777695" lon="6.675211111815001" id="-22477">
		<tag k="name" v="Lega" />
		<tag k="place" v="farm" />
		<tag k="ssr:stedsnr" v="446403" />
	</node>
	<node lat="58.0786388852033" lon="6.645969443440497" id="-22480">
		<tag k="name" v="Kåde" />
		<tag k="place" v="farm" />
		<tag k="ssr:stedsnr" v="446415" />
	</node>
	<node lat="58.18045000130771" lon="6.862047222732677" id="-22507">
		<tag k="fixme" v="consider place=hamlet" />
		<tag k="name" v="Vedremark" />
		<tag k="place" v="farm" />
		<tag k="ssr:stedsnr" v="446969" />
	</node>
	<node lat="58.061677779129184" lon="6.939169452002554" id="-22526">
		<tag k="name" v="Hovden" />
		<tag k="place" v="farm" />
		<tag k="ssr:stedsnr" v="506946" />
	</node>
	<node lat="58.18454999832687" lon="6.7769972222638755" id="-22535">
		<tag k="alt_name" v="Lille Jersdal" />
		<tag k="fixme" v="consider place=hamlet" />
		<tag k="name" v="Lille Gjersdal" />
		<tag k="place" v="farm" />
		<tag k="ssr:stedsnr" v="506871" />
	</node>
	<node lat="58.09062499978119" lon="6.798447215638113" id="-22565">
		<tag k="fixme" v="consider place=suburb, village or hamlet" />
		<tag k="name" v="Kjørestad" />
		<tag k="place" v="quarter" />
		<tag k="ssr:stedsnr" v="507620" />
	</node>
	<node lat="58.11528888573371" lon="6.677744452248326" id="-22574">
		<tag k="name" v="Oddersbo" />
		<tag k="place" v="locality" />
		<tag k="ssr:stedsnr" v="507727" />
	</node>
	<node lat="58.12125555852189" lon="6.693072220615115" id="-22576">
		<tag k="name" v="Bakkan" />
		<tag k="place" v="farm" />
		<tag k="ssr:stedsnr" v="507741" />
	</node>
	<node lat="58.05764411193209" lon="6.939085588746861" id="-22595">
		<tag k="fixme" v="multiple name tags, choose one and add the other to alt_name; consider place=hamlet" />
		<tag k="name" v="Litle Tranevåg;Vestre Tranevåg" />
		<tag k="place" v="farm" />
		<tag k="ssr:stedsnr" v="546327" />
	</node>
	<node lat="58.11910000039777" lon="6.679969446691192" id="-22599">
		<tag k="alt_name" v="Omdal" />
		<tag k="name" v="Åmdal" />
		<tag k="place" v="hamlet" />
		<tag k="ssr:stedsnr" v="546246" />
	</node>
	<node lat="58.1212861133708" lon="6.931902786104913" id="-22601">
		<tag k="fixme" v="consider place=hamlet" />
		<tag k="name" v="Skådeland" />
		<tag k="place" v="farm" />
		<tag k="ssr:stedsnr" v="546253" />
	</node>
	<node lat="58.13178889296558" lon="6.848122218097192" id="-22602">
		<tag k="alt_name" v="Lauland" />
		<tag k="fixme" v="consider place=hamlet" />
		<tag k="name" v="Lauvland" />
		<tag k="place" v="farm" />
		<tag k="ssr:stedsnr" v="546262" />
	</node>
	<node lat="58.109455557596355" lon="6.932163892814948" id="-22604">
		<tag k="fixme" v="consider place=hamlet" />
		<tag k="name" v="Farbrot" />
		<tag k="place" v="farm" />
		<tag k="ssr:stedsnr" v="546271" />
	</node>
	<node lat="58.085124996619626" lon="6.883752777465763" id="-22605">
		<tag k="alt_name" v="Viken" />
		<tag k="fixme" v="consider place=hamlet" />
		<tag k="name" v="Vika" />
		<tag k="place" v="farm" />
		<tag k="ssr:stedsnr" v="546293" />
	</node>
	<node lat="58.07315278120247" lon="6.719238882692462" id="-22606">
		<tag k="name" v="Hanangermona" />
		<tag k="place" v="farm" />
		<tag k="ssr:stedsnr" v="546301" />
	</node>
	<node lat="58.102149999843455" lon="6.878691666714991" id="-22628">
		<tag k="name" v="Udestad" />
		<tag k="place" v="hamlet" />
		<tag k="ssr:stedsnr" v="567487" />
	</node>
	<node lat="58.09587500231001" lon="6.880747218392627" id="-22629">
		<tag k="name" v="Svinejordet" />
		<tag k="place" v="farm" />
		<tag k="ssr:stedsnr" v="567491" />
	</node>
	<node lat="58.0956055537508" lon="6.777405552919593" id="-22632">
		<tag k="name" v="Mosvoll" />
		<tag k="place" v="quarter" />
		<tag k="ssr:stedsnr" v="567583" />
	</node>
	<node lat="58.09226388545662" lon="6.7738111142432516" id="-22634">
		<tag k="name" v="Haugbakk" />
		<tag k="place" v="quarter" />
		<tag k="ssr:stedsnr" v="567600" />
	</node>
	<node lat="58.11083888667883" lon="6.703644436308505" id="-22637">
		<tag k="name" v="Harbakk" />
		<tag k="place" v="farm" />
		<tag k="ssr:stedsnr" v="567633" />
	</node>
	<node lat="58.134927780945254" lon="6.6757916661015235" id="-22640">
		<tag k="fixme" v="consider place=hamlet" />
		<tag k="name" v="Launes" />
		<tag k="place" v="farm" />
		<tag k="ssr:stedsnr" v="567649" />
	</node>
	<node lat="58.103377778259855" lon="6.688561115040802" id="-22642">
		<tag k="name" v="Minde" />
		<tag k="place" v="quarter" />
		<tag k="ssr:stedsnr" v="567730" />
	</node>
	<node lat="58.124980554178116" lon="6.609224997944241" id="-22644">
		<tag k="alt_name" v="Vere" />
		<tag k="name" v="Austre Vere" />
		<tag k="place" v="hamlet" />
		<tag k="ssr:stedsnr" v="567744" />
	</node>
	<node lat="58.0862444476763" lon="6.949927782270187" id="-22651">
		<tag k="name" v="Klelia" />
		<tag k="place" v="farm" />
		<tag k="ssr:stedsnr" v="568450" />
	</node>
	<node lat="58.0564999979195" lon="6.93319999632229" id="-22656">
		<tag k="name" v="Flægholmen" />
		<tag k="place" v="farm" />
		<tag k="ssr:stedsnr" v="574836" />
	</node>
	<node lat="58.06170278051892" lon="6.9442333319422715" id="-22673">
		<tag k="alt_name" v="Fidje" />
		<tag k="fixme" v="consider place=hamlet" />
		<tag k="name" v="Fidja" />
		<tag k="place" v="farm" />
		<tag k="ssr:stedsnr" v="606333" />
	</node>
	<node lat="58.081091666036485" lon="6.918319447420897" id="-22675">
		<tag k="alt_name" v="Bugdøy, in;Lille Bugdøy" />
		<tag k="fixme" v="consider place=hamlet" />
		<tag k="name" v="Indre Bugdøy" />
		<tag k="place" v="farm" />
		<tag k="ssr:stedsnr" v="606337" />
	</node>
	<node lat="58.12980833364923" lon="6.615294443343729" id="-22677">
		<tag k="fixme" v="consider place=hamlet" />
		<tag k="name" v="Nordberg" />
		<tag k="place" v="farm" />
		<tag k="ssr:stedsnr" v="606264" />
	</node>
	<node lat="58.22176111501101" lon="6.827244442859375" id="-22680">
		<tag k="fixme" v="consider place=hamlet" />
		<tag k="name" v="Bjelland" />
		<tag k="place" v="farm" />
		<tag k="ssr:stedsnr" v="606146" />
	</node>
	<node lat="58.158063884578816" lon="6.799924998729681" id="-22681">
		<tag k="fixme" v="consider place=hamlet" />
		<tag k="name" v="Sande" />
		<tag k="place" v="farm" />
		<tag k="ssr:stedsnr" v="606222" />
	</node>
	<node lat="58.15166666404613" lon="6.621219443379712" id="-22682">
		<tag k="fixme" v="consider place=hamlet" />
		<tag k="name" v="Senegre" />
		<tag k="place" v="farm" />
		<tag k="ssr:stedsnr" v="606227" />
	</node>
	<node lat="58.13307777777166" lon="6.644333337705434" id="-22683">
		<tag k="fixme" v="consider place=hamlet" />
		<tag k="name" v="Jørstad" />
		<tag k="place" v="farm" />
		<tag k="ssr:stedsnr" v="606230" />
	</node>
	<node lat="58.13704167000186" lon="6.605630549144226" id="-22684">
		<tag k="fixme" v="consider place=hamlet" />
		<tag k="name" v="Kjølleberg" />
		<tag k="place" v="farm" />
		<tag k="ssr:stedsnr" v="606231" />
	</node>
	<node lat="58.10799722286591" lon="6.71745833994987" id="-22687">
		<tag k="alt_name" v="Omland" />
		<tag k="name" v="Åmland" />
		<tag k="place" v="hamlet" />
		<tag k="ssr:stedsnr" v="606288" />
	</node>
	<node lat="58.109399997721276" lon="6.786963894326871" id="-22688">
		<tag k="fixme" v="consider place=hamlet" />
		<tag k="name" v="Bjørnestad" />
		<tag k="place" v="farm" />
		<tag k="ssr:stedsnr" v="606290" />
	</node>
	<node lat="58.06901111031568" lon="6.971266667520687" id="-22692">
		<tag k="name" v="Ytre Skarstein" />
		<tag k="place" v="hamlet" />
		<tag k="ssr:stedsnr" v="628433" />
	</node>
	<node lat="58.121325000887474" lon="6.927672227170183" id="-22730">
		<tag k="name" v="Hogga" />
		<tag k="place" v="farm" />
		<tag k="ssr:stedsnr" v="628920" />
	</node>
	<node lat="58.066258334817135" lon="6.967525004121746" id="-22751">
		<tag k="name" v="Kvineset" />
		<tag k="place" v="farm" />
		<tag k="ssr:stedsnr" v="645356" />
	</node>
	<node lat="58.207694444605565" lon="6.761394440400309" id="-22755">
		<tag k="fixme" v="consider place=hamlet" />
		<tag k="name" v="Grimestad" />
		<tag k="place" v="farm" />
		<tag k="ssr:stedsnr" v="667188" />
	</node>
	<node lat="58.20941048916007" lon="6.74443740148844" id="-22756">
		<tag k="fixme" v="consider place=hamlet" />
		<tag k="name" v="Bulega" />
		<tag k="place" v="farm" />
		<tag k="ssr:stedsnr" v="667190" />
	</node>
	<node lat="58.20169166953703" lon="6.762725008264999" id="-22757">
		<tag k="fixme" v="consider place=hamlet" />
		<tag k="name" v="Saudland" />
		<tag k="place" v="farm" />
		<tag k="ssr:stedsnr" v="667195" />
	</node>
	<node lat="58.20425000062665" lon="6.790925000950476" id="-22759">
		<tag k="fixme" v="consider place=hamlet" />
		<tag k="name" v="Meland" />
		<tag k="place" v="farm" />
		<tag k="ssr:stedsnr" v="667200" />
	</node>
	<node lat="58.11899444875257" lon="6.792091665779418" id="-22760">
		<tag k="fixme" v="consider place=hamlet" />
		<tag k="name" v="Snabbe" />
		<tag k="place" v="farm" />
		<tag k="ssr:stedsnr" v="667257" />
	</node>
	<node lat="58.06615833377965" lon="6.879802783679872" id="-22762">
		<tag k="alt_name" v="Langøy, austre;Østre Langøy" />
		<tag k="fixme" v="consider place=hamlet" />
		<tag k="name" v="Austre Langøy" />
		<tag k="place" v="farm" />
		<tag k="ssr:stedsnr" v="667357" />
	</node>
	<node lat="58.07338055716273" lon="6.976444447306647" id="-22763">
		<tag k="alt_name" v="Skarstein" />
		<tag k="name" v="Indre Skarstein" />
		<tag k="place" v="hamlet" />
		<tag k="ssr:stedsnr" v="667571" />
	</node>
	<node lat="58.089788892841064" lon="6.731563891051821" id="-22764">
		<tag k="fixme" v="consider place=hamlet" />
		<tag k="name" v="Grimsby" />
		<tag k="place" v="farm" />
		<tag k="ssr:stedsnr" v="668364" />
	</node>
	<node lat="58.083861114832146" lon="6.722111107050449" id="-22765">
		<tag k="name" v="Hananger" />
		<tag k="place" v="farm" />
		<tag k="ssr:stedsnr" v="668371" />
	</node>
	<node lat="58.21841388918088" lon="6.856105562828662" id="-22772">
		<tag k="fixme" v="consider place=hamlet" />
		<tag k="name" v="Laundal" />
		<tag k="place" v="farm" />
		<tag k="ssr:stedsnr" v="728129" />
	</node>
	<node lat="58.20051666527711" lon="6.918602774021464" id="-22775">
		<tag k="name" v="Vaddelia" />
		<tag k="place" v="isolated_dwelling" />
		<tag k="ssr:stedsnr" v="728150" />
	</node>
	<node lat="58.17578611229546" lon="6.785288886387219" id="-22778">
		<tag k="alt_name" v="Kvålshei" />
		<tag k="fixme" v="consider place=hamlet" />
		<tag k="name" v="Kvålsheia" />
		<tag k="place" v="farm" />
		<tag k="ssr:stedsnr" v="728185" />
	</node>
	<node lat="58.15440555170344" lon="6.628822218013982" id="-22781">
		<tag k="alt_name" v="Rydjord" />
		<tag k="name" v="Rudjord" />
		<tag k="place" v="hamlet" />
		<tag k="ssr:stedsnr" v="728201" />
	</node>
	<node lat="58.08549167000405" lon="6.637530549913845" id="-22782">
		<tag k="fixme" v="consider place=hamlet" />
		<tag k="name" v="Midthassel" />
		<tag k="place" v="farm" />
		<tag k="ssr:stedsnr" v="728297" />
	</node>
	<node lat="58.08148888763429" lon="6.651524999482467" id="-22783">
		<tag k="name" v="Vesthassel" />
		<tag k="place" v="farm" />
		<tag k="ssr:stedsnr" v="728299" />
	</node>
	<node lat="58.07262778106391" lon="6.9636472144489385" id="-22784">
		<tag k="name" v="Lyngsvåg" />
		<tag k="place" v="farm" />
		<tag k="ssr:stedsnr" v="728594" />
	</node>
	<node lat="58.09819444626339" lon="6.930924992074538" id="-22789">
		<tag k="fixme" v="consider place=hamlet" />
		<tag k="name" v="Spindanger" />
		<tag k="place" v="farm" />
		<tag k="ssr:stedsnr" v="728256" />
	</node>
	<node lat="58.08936677400363" lon="6.628591523003084" id="-22790">
		<tag k="name" v="Nordhassel" />
		<tag k="place" v="hamlet" />
		<tag k="ssr:stedsnr" v="728258" />
	</node>
	<node lat="58.11059166937187" lon="6.630730547482093" id="-22791">
		<tag k="alt_name" v="Råstad, øvre;Råstad øvre" />
		<tag k="name" v="Øvre Råstad" />
		<tag k="place" v="hamlet" />
		<tag k="ssr:stedsnr" v="728264" />
	</node>
	<node lat="58.170050003066244" lon="6.7314527819884065" id="-22793">
		<tag k="name" v="Rognehaugen" />
		<tag k="place" v="farm" />
		<tag k="ssr:stedsnr" v="749491" />
	</node>
	<node lat="58.082808333801324" lon="6.655138892071569" id="-22802">
		<tag k="name" v="Voan" />
		<tag k="place" v="farm" />
		<tag k="ssr:stedsnr" v="749429" />
	</node>
	<node lat="58.08154294321439" lon="6.711775465504316" id="-22806">
		<tag k="fixme" v="consider place=hamlet" />
		<tag k="name" v="Langvoll" />
		<tag k="place" v="farm" />
		<tag k="ssr:stedsnr" v="749500" />
	</node>
	<node lat="58.15535277436684" lon="6.801363892893736" id="-22837">
		<tag k="name" v="Vollan" />
		<tag k="place" v="farm" />
		<tag k="ssr:stedsnr" v="749935" />
=======
	<node id="-512322" lat="58.1701666693" lon="6.69682499175">
		<tag k="fixme" v="consider place=hamlet" />
		<tag k="name" v="Salen" />
		<tag k="place" v="farm" />
		<tag k="ssr:stedsnr" v="121211" />
	</node>
	<node id="-512319" lat="58.1859027792" lon="6.73714444808">
		<tag k="alt_name" v="Ytre Stølen" />
		<tag k="fixme" v="consider place=hamlet" />
		<tag k="name" v="Stølen, yt" />
		<tag k="place" v="farm" />
		<tag k="ssr:stedsnr" v="121202" />
	</node>
	<node id="-512318" lat="58.177774996" lon="6.70153611644">
		<tag k="alt_name" v="Skumsvoll" />
		<tag k="name" v="Skomvoll" />
		<tag k="place" v="farm" />
		<tag k="ssr:stedsnr" v="121196" />
	</node>
	<node id="-512317" lat="58.1742055524" lon="6.65271389747">
		<tag k="fixme" v="consider place=hamlet" />
		<tag k="name" v="Ellenes" />
		<tag k="place" v="farm" />
		<tag k="ssr:stedsnr" v="121192" />
	</node>
	<node id="-512316" lat="58.1951194431" lon="6.735269446">
		<tag k="alt_name" v="Kjørrkleiv" />
		<tag k="name" v="Kjørkleiv" />
		<tag k="place" v="hamlet" />
		<tag k="ssr:stedsnr" v="121177" />
	</node>
	<node id="-512315" lat="58.1902000004" lon="6.83043054822">
		<tag k="fixme" v="consider place=hamlet" />
		<tag k="name" v="Tosås" />
		<tag k="place" v="farm" />
		<tag k="ssr:stedsnr" v="121175" />
	</node>
	<node id="-512295" lat="58.0738694462" lon="6.784380555">
		<tag k="building" v="industrial" />
		<tag k="industrial" v="factory" />
		<tag k="name" v="Alcoa Lista" />
		<tag k="old_name" v="Lista Aluminiumsverk" />
		<tag k="ssr:stedsnr" v="100155" />
	</node>
	<node id="-511025" lat="58.1149777778" lon="6.63885555142">
		<tag k="fixme" v="consider place=hamlet" />
		<tag k="name" v="Langeland" />
		<tag k="place" v="farm" />
		<tag k="ssr:stedsnr" v="242249" />
	</node>
	<node id="-513386" lat="58.1881008917" lon="6.7983615977">
		<tag k="name" v="Åpta" />
		<tag k="place" v="farm" />
		<tag k="ssr:stedsnr" v="986852" />
	</node>
	<node id="-511340" lat="58.1425749999" lon="6.75984444383">
		<tag k="alt_name" v="Bøen" />
		<tag k="fixme" v="consider place=hamlet" />
		<tag k="name" v="Kjellingbø" />
		<tag k="place" v="farm" />
		<tag k="ssr:stedsnr" v="485196" />
	</node>
	<node id="-512265" lat="58.1382888933" lon="6.65211389162">
		<tag k="name" v="Nyhagen" />
		<tag k="place" v="farm" />
		<tag k="ssr:stedsnr" v="82642" />
	</node>
	<node id="-512264" lat="58.1424361152" lon="6.65070556313">
		<tag k="name" v="Nyhagen" />
		<tag k="place" v="farm" />
		<tag k="ssr:stedsnr" v="82639" />
	</node>
	<node id="-512248" lat="58.0805749994" lon="6.65401111025">
		<tag k="name" v="Odden" />
		<tag k="place" v="farm" />
		<tag k="ssr:stedsnr" v="82387" />
	</node>
	<node id="-512245" lat="58.0761361105" lon="6.97016110794">
		<tag k="fixme" v="consider place=hamlet" />
		<tag k="name" v="Vasdal" />
		<tag k="place" v="farm" />
		<tag k="ssr:stedsnr" v="82445" />
	</node>
	<node id="-512233" lat="58.0981194406" lon="6.69183888268">
		<tag k="name" v="Vanse" />
		<tag k="place" v="village" />
		<tag k="ssr:stedsnr" v="61326" />
	</node>
	<node id="-512232" lat="58.1313638846" lon="6.69601944409">
		<tag k="fixme" v="consider place=hamlet" />
		<tag k="name" v="Grostøl" />
		<tag k="place" v="farm" />
		<tag k="ssr:stedsnr" v="61262" />
	</node>
	<node id="-512231" lat="58.1269583339" lon="6.75066944526">
		<tag k="name" v="Suttevik" />
		<tag k="place" v="isolated_dwelling" />
		<tag k="ssr:stedsnr" v="61260" />
	</node>
	<node id="-512230" lat="58.1269833307" lon="6.6018000043">
		<tag k="name" v="Vere" />
		<tag k="place" v="farm" />
		<tag k="ssr:stedsnr" v="61258" />
	</node>
	<node id="-512229" lat="58.1355944402" lon="6.8555833298">
		<tag k="alt_name" v="Sæveland ytre" />
		<tag k="name" v="Sæveland" />
		<tag k="place" v="farm" />
		<tag k="ssr:stedsnr" v="61251" />
	</node>
	<node id="-512228" lat="58.147816671" lon="6.61260000642">
		<tag k="fixme" v="consider place=hamlet" />
		<tag k="name" v="Håle" />
		<tag k="place" v="farm" />
		<tag k="ssr:stedsnr" v="61214" />
	</node>
	<node id="-512226" lat="58.1608916689" lon="6.66415556132">
		<tag k="alt_name" v="Gjeldal" />
		<tag k="fixme" v="consider place=hamlet" />
		<tag k="name" v="Gjelldal" />
		<tag k="place" v="farm" />
		<tag k="ssr:stedsnr" v="61202" />
	</node>
	<node id="-512225" lat="58.1897194437" lon="6.89131666132">
		<tag k="fixme" v="consider place=hamlet" />
		<tag k="name" v="Holmen" />
		<tag k="place" v="farm" />
		<tag k="ssr:stedsnr" v="61195" />
	</node>
	<node id="-512222" lat="58.2074444463" lon="6.89930278144">
		<tag k="alt_name" v="Klungland" />
		<tag k="fixme" v="consider place=hamlet" />
		<tag k="name" v="Klungeland" />
		<tag k="place" v="farm" />
		<tag k="ssr:stedsnr" v="61164" />
	</node>
	<node id="-512221" lat="58.1951194431" lon="6.735269446">
		<tag k="fixme" v="consider place=hamlet" />
		<tag k="name" v="Kjørkleiv" />
		<tag k="place" v="farm" />
		<tag k="ssr:stedsnr" v="60514" />
	</node>
	<node id="-512218" lat="58.0751222209" lon="6.68575832703">
		<tag k="name" v="Kviljo" />
		<tag k="place" v="hamlet" />
		<tag k="ssr:stedsnr" v="60324" />
	</node>
	<node id="-512217" lat="58.0919944473" lon="6.85181943984">
		<tag k="alt_name" v="Nøtland" />
		<tag k="fixme" v="consider place=hamlet" />
		<tag k="name" v="Nautland" />
		<tag k="place" v="farm" />
		<tag k="ssr:stedsnr" v="60313" />
	</node>
	<node id="-512216" lat="58.0873277762" lon="6.8651638954">
		<tag k="fixme" v="consider place=hamlet" />
		<tag k="name" v="Birkenes" />
		<tag k="place" v="farm" />
		<tag k="ssr:stedsnr" v="60312" />
	</node>
	<node id="-512215" lat="58.0917194453" lon="6.90623055567">
		<tag k="fixme" v="consider place=hamlet" />
		<tag k="name" v="Rødland" />
		<tag k="place" v="farm" />
		<tag k="ssr:stedsnr" v="60310" />
	</node>
	<node id="-512214" lat="58.1128749999" lon="6.93188056339">
		<tag k="fixme" v="consider place=hamlet" />
		<tag k="name" v="Rona" />
		<tag k="place" v="farm" />
		<tag k="ssr:stedsnr" v="60305" />
	</node>
	<node id="-512213" lat="58.1093083341" lon="6.81608333193">
		<tag k="fixme" v="consider place=hamlet" />
		<tag k="name" v="Sandvika" />
		<tag k="place" v="farm" />
		<tag k="ssr:stedsnr" v="60299" />
	</node>
	<node id="-512212" lat="58.1087250042" lon="6.72861110941">
		<tag k="fixme" v="consider place=hamlet" />
		<tag k="name" v="Helvik" />
		<tag k="place" v="farm" />
		<tag k="ssr:stedsnr" v="60291" />
	</node>
	<node id="-512211" lat="58.1093611117" lon="6.64063610801">
		<tag k="fixme" v="consider place=hamlet" />
		<tag k="name" v="Ore" />
		<tag k="place" v="farm" />
		<tag k="ssr:stedsnr" v="60288" />
	</node>
	<node id="-512210" lat="58.100708332" lon="6.78872778036">
		<tag k="alt_name" v="Øyhovden" />
		<tag k="fixme" v="consider place=hamlet" />
		<tag k="name" v="Øyhovda" />
		<tag k="place" v="farm" />
		<tag k="ssr:stedsnr" v="60280" />
	</node>
	<node id="-512208" lat="58.2134880886" lon="6.74322158851">
		<tag k="fixme" v="consider place=hamlet" />
		<tag k="name" v="Sandvik" />
		<tag k="place" v="farm" />
		<tag k="ssr:stedsnr" v="60180" />
	</node>
	<node id="-512196" lat="58.074172218" lon="6.87288888955">
		<tag k="name" v="Bakken" />
		<tag k="place" v="isolated_dwelling" />
		<tag k="ssr:stedsnr" v="58148" />
	</node>
	<node id="-512181" lat="58.0991277756" lon="6.93853054766">
		<tag k="name" v="Buvika" />
		<tag k="place" v="farm" />
		<tag k="ssr:stedsnr" v="22460" />
	</node>
	<node id="-512167" lat="58.1806388862" lon="6.79429722705">
		<tag k="name" v="Øvre Kvåle" />
		<tag k="place" v="farm" />
		<tag k="ssr:stedsnr" v="21867" />
	</node>
	<node id="-512150" lat="58.1193388849" lon="6.74910278277">
		<tag k="name" v="Neset" />
		<tag k="place" v="farm" />
		<tag k="ssr:stedsnr" v="21639" />
	</node>
	<node id="-511341" lat="58.1085972193" lon="6.68073610869">
		<tag k="name" v="Øygard" />
		<tag k="place" v="farm" />
		<tag k="ssr:stedsnr" v="485241" />
	</node>
	<node id="-512135" lat="58.1295972221" lon="6.85489443615">
		<tag k="name" v="Øygarden" />
		<tag k="place" v="locality" />
		<tag k="ssr:stedsnr" v="21491" />
	</node>
	<node id="-511339" lat="58.1336000014" lon="6.60910277117">
		<tag k="fixme" v="consider place=hamlet" />
		<tag k="name" v="Penne" />
		<tag k="place" v="farm" />
		<tag k="ssr:stedsnr" v="485193" />
	</node>
	<node id="-512127" lat="58.083899997" lon="6.65536388447">
		<tag k="fixme" v="consider place=hamlet" />
		<tag k="name" v="Østhassel" />
		<tag k="place" v="farm" />
		<tag k="ssr:stedsnr" v="345" />
	</node>
	<node id="-512125" lat="58.0874499978" lon="6.74408055919">
		<tag k="fixme" v="consider place=hamlet" />
		<tag k="name" v="Stokke" />
		<tag k="place" v="farm" />
		<tag k="ssr:stedsnr" v="339" />
	</node>
	<node id="-512124" lat="58.088986111" lon="6.9452416598">
		<tag k="name" v="Helle" />
		<tag k="place" v="farm" />
		<tag k="ssr:stedsnr" v="336" />
	</node>
	<node id="-512123" lat="58.0840861104" lon="6.95068056166">
		<tag k="name" v="Lian" />
		<tag k="place" v="farm" />
		<tag k="ssr:stedsnr" v="333" />
	</node>
	<node id="-512121" lat="58.1068749996" lon="6.87181944683">
		<tag k="fixme" v="consider place=hamlet" />
		<tag k="name" v="Forberg" />
		<tag k="place" v="farm" />
		<tag k="ssr:stedsnr" v="300" />
	</node>
	<node id="-512120" lat="58.1057694415" lon="6.76486944424">
		<tag k="fixme" v="consider place=hamlet" />
		<tag k="name" v="Øyvoll" />
		<tag k="place" v="farm" />
		<tag k="ssr:stedsnr" v="296" />
	</node>
	<node id="-512119" lat="58.1212027759" lon="6.69404166626">
		<tag k="fixme" v="consider place=hamlet" />
		<tag k="name" v="Halland" />
		<tag k="place" v="farm" />
		<tag k="ssr:stedsnr" v="268" />
	</node>
	<node id="-512118" lat="58.1448111096" lon="6.73047778175">
		<tag k="fixme" v="consider place=hamlet" />
		<tag k="name" v="Frestadheia" />
		<tag k="place" v="farm" />
		<tag k="ssr:stedsnr" v="253" />
	</node>
	<node id="-512117" lat="58.1334472178" lon="6.66890832621">
		<tag k="alt_name" v="Rødland, vestre;Rødland vestre" />
		<tag k="fixme" v="consider place=hamlet" />
		<tag k="name" v="Vestre Rødland" />
		<tag k="place" v="farm" />
		<tag k="ssr:stedsnr" v="244" />
	</node>
	<node id="-512114" lat="58.1733638855" lon="6.74044166422">
		<tag k="name" v="Listeidlia" />
		<tag k="place" v="farm" />
		<tag k="ssr:stedsnr" v="224" />
	</node>
	<node id="-512112" lat="58.1857999956" lon="6.69458888589">
		<tag k="fixme" v="consider place=hamlet" />
		<tag k="name" v="Skagen" />
		<tag k="place" v="farm" />
		<tag k="ssr:stedsnr" v="208" />
	</node>
	<node id="-512111" lat="58.1867527742" lon="6.76934721868">
		<tag k="alt_name" v="Store Jersdal" />
		<tag k="fixme" v="consider place=hamlet" />
		<tag k="name" v="Gjersdal" />
		<tag k="place" v="farm" />
		<tag k="ssr:stedsnr" v="202" />
	</node>
	<node id="-512110" lat="58.1886722258" lon="6.79873055009">
		<tag k="fixme" v="consider place=hamlet" />
		<tag k="name" v="Åpta" />
		<tag k="place" v="village" />
		<tag k="ssr:stedsnr" v="201" />
	</node>
	<node id="-512109" lat="58.2062583362" lon="6.82223332489">
		<tag k="fixme" v="consider place=hamlet" />
		<tag k="name" v="Røyneskogen" />
		<tag k="place" v="farm" />
		<tag k="ssr:stedsnr" v="199" />
	</node>
	<node id="-512106" lat="58.0999138878" lon="6.58695832556">
		<tag k="name" v="Vestbygd" />
		<tag k="place" v="village" />
		<tag k="ssr:stedsnr" v="125" />
	</node>
	<node id="-512104" lat="58.1577981449" lon="6.79842615174">
		<tag k="name" v="Sande prestegård" />
		<tag k="place" v="farm" />
		<tag k="ssr:stedsnr" v="983547" />
	</node>
	<node id="-512103" lat="58.2076834502" lon="6.74844835685">
		<tag k="name" v="Bulæg" />
		<tag k="place" v="farm" />
		<tag k="ssr:stedsnr" v="983535" />
	</node>
	<node id="-512102" lat="58.0938537672" lon="6.6989771208">
		<tag k="name" v="Østre Vatne" />
		<tag k="place" v="farm" />
		<tag k="ssr:stedsnr" v="983490" />
	</node>
	<node id="-512101" lat="58.088594835" lon="6.92408420583">
		<tag k="name" v="Ersåker" />
		<tag k="place" v="farm" />
		<tag k="ssr:stedsnr" v="983432" />
	</node>
	<node id="-512100" lat="58.0886703262" lon="6.92349453795">
		<tag k="name" v="Ersåker" />
		<tag k="place" v="farm" />
		<tag k="ssr:stedsnr" v="983430" />
	</node>
	<node id="-512099" lat="58.0903288055" lon="6.92657356048">
		<tag k="name" v="Ersåker" />
		<tag k="place" v="farm" />
		<tag k="ssr:stedsnr" v="983429" />
	</node>
	<node id="-512098" lat="58.0885296098" lon="6.91839230445">
		<tag k="name" v="Ersåker" />
		<tag k="place" v="farm" />
		<tag k="ssr:stedsnr" v="983428" />
	</node>
	<node id="-512097" lat="58.0887701035" lon="6.92441438645">
		<tag k="name" v="Ersåker" />
		<tag k="place" v="farm" />
		<tag k="ssr:stedsnr" v="983427" />
	</node>
	<node id="-512096" lat="58.0886623012" lon="6.9247719364">
		<tag k="name" v="Ersåker" />
		<tag k="place" v="farm" />
		<tag k="ssr:stedsnr" v="983425" />
	</node>
	<node id="-512095" lat="58.2050864386" lon="6.74889892489">
		<tag k="name" v="Buleg" />
		<tag k="place" v="farm" />
		<tag k="ssr:stedsnr" v="983418" />
	</node>
	<node id="-512094" lat="58.2077796443" lon="6.74846580845">
		<tag k="name" v="Bulæg" />
		<tag k="place" v="farm" />
		<tag k="ssr:stedsnr" v="983408" />
	</node>
	<node id="-512093" lat="58.2091709353" lon="6.74414201067">
		<tag k="name" v="Buleg" />
		<tag k="place" v="farm" />
		<tag k="ssr:stedsnr" v="983407" />
	</node>
	<node id="-512092" lat="58.1188149886" lon="6.92643977402">
		<tag k="name" v="Dåreid" />
		<tag k="place" v="farm" />
		<tag k="ssr:stedsnr" v="983363" />
	</node>
	<node id="-512091" lat="58.120313733" lon="6.92592110009">
		<tag k="name" v="Dåreid" />
		<tag k="place" v="farm" />
		<tag k="ssr:stedsnr" v="983362" />
	</node>
	<node id="-512062" lat="58.0791138877" lon="6.76860556218">
		<tag k="amenity" v="school" />
		<tag k="name" v="Lunde skole" />
		<tag k="ssr:stedsnr" v="932637" />
	</node>
	<node id="-511333" lat="58.0887749967" lon="6.79007777738">
		<tag k="name" v="Fjellestad" />
		<tag k="place" v="farm" />
		<tag k="ssr:stedsnr" v="482838" />
	</node>
	<node id="-512053" lat="58.0816416641" lon="6.66350278611">
		<tag k="fixme" v="consider place=hamlet" />
		<tag k="name" v="Nesheim" />
		<tag k="place" v="farm" />
		<tag k="ssr:stedsnr" v="910334" />
	</node>
	<node id="-512052" lat="58.0933138893" lon="6.7545694458">
		<tag k="fixme" v="consider place=hamlet" />
		<tag k="name" v="Buland" />
		<tag k="place" v="farm" />
		<tag k="ssr:stedsnr" v="910329" />
	</node>
	<node id="-512051" lat="58.0931027782" lon="6.83603055765">
		<tag k="alt_name" v="Bekkevik" />
		<tag k="name" v="Bekkevika" />
		<tag k="place" v="hamlet" />
		<tag k="ssr:stedsnr" v="910323" />
>>>>>>> e1d4bc35ff8a6074a6f2e91616a996b547c36f15
	</node>
</osm>
