<?xml version="1.0" encoding="UTF-8"?>
<<<<<<< HEAD
<osm version="0.6" generator="osmapis">
	<node lat="58.089797221751894" lon="6.689041660189634" id="-20728">
		<tag k="name" v="Løgan" />
=======
<osm generator="osmapis" version="0.6">
	<node id="-512510" lat="58.1345138894" lon="6.68812221524">
		<tag k="name" v="Stemman" />
		<tag k="natural" v="wetland" />
		<tag k="ssr:stedsnr" v="203687" />
	</node>
	<node id="-513020" lat="58.121302779" lon="6.81466666741">
		<tag k="name" v="Blåmyra" />
		<tag k="natural" v="wetland" />
		<tag k="ssr:stedsnr" v="749560" />
	</node>
	<node id="-512506" lat="58.1103666634" lon="6.7170777782">
		<tag k="name" v="Pollan" />
		<tag k="natural" v="wetland" />
		<tag k="ssr:stedsnr" v="203666" />
	</node>
	<node id="-511060" lat="58.2153916694" lon="6.83000000045">
		<tag k="name" v="Langemyra" />
		<tag k="natural" v="wetland" />
		<tag k="ssr:stedsnr" v="82760" />
	</node>
	<node id="-513011" lat="58.2211805536" lon="6.87248611896">
		<tag k="name" v="Stegjan" />
		<tag k="natural" v="wetland" />
		<tag k="ssr:stedsnr" v="749798" />
	</node>
	<node id="-513007" lat="58.1114111106" lon="6.60820554926">
		<tag k="name" v="Groda" />
		<tag k="place" v="locality" />
		<tag k="ssr:stedsnr" v="749782" />
	</node>
	<node id="-512489" lat="58.1359000009" lon="6.83985278391">
		<tag k="name" v="Hønnedokka" />
		<tag k="place" v="locality" />
		<tag k="ssr:stedsnr" v="203489" />
	</node>
	<node id="-511464" lat="58.2068166635" lon="6.86646944007">
		<tag k="name" v="Fuglemyra" />
		<tag k="natural" v="wetland" />
		<tag k="ssr:stedsnr" v="507840" />
	</node>
	<node id="-512487" lat="58.1376083364" lon="6.81460555672">
		<tag k="name" v="Steinsmyr" />
		<tag k="natural" v="wetland" />
		<tag k="ssr:stedsnr" v="203485" />
	</node>
	<node id="-511972" lat="58.1024861085" lon="6.69032777229">
		<tag k="name" v="Mindejordet" />
		<tag k="place" v="locality" />
		<tag k="ssr:stedsnr" v="932698" />
	</node>
	<node id="-512993" lat="58.1098750034" lon="6.59233055197">
		<tag k="name" v="Groda" />
		<tag k="place" v="locality" />
		<tag k="ssr:stedsnr" v="749434" />
	</node>
	<node id="-512989" lat="58.0716638857" lon="6.67886944155">
		<tag k="name" v="Sandmarka" />
		<tag k="place" v="locality" />
		<tag k="ssr:stedsnr" v="749426" />
	</node>
	<node id="-511447" lat="58.0950944417" lon="6.71076111074">
		<tag k="name" v="Kjelmemyra" />
		<tag k="natural" v="wetland" />
		<tag k="ssr:stedsnr" v="507615" />
	</node>
	<node id="-511956" lat="58.1411194429" lon="6.82780277509">
		<tag k="name" v="Fidjan" />
		<tag k="natural" v="wetland" />
		<tag k="ssr:stedsnr" v="932442" />
	</node>
	<node id="-511955" lat="58.1557388907" lon="6.72027222105">
		<tag k="name" v="Skrigermyra" />
		<tag k="natural" v="wetland" />
		<tag k="ssr:stedsnr" v="932441" />
	</node>
	<node id="-511953" lat="58.1577861116" lon="6.73451389234">
		<tag k="name" v="Øygardsmyra" />
		<tag k="natural" v="wetland" />
		<tag k="ssr:stedsnr" v="932436" />
	</node>
	<node id="-511951" lat="58.1813999973" lon="6.75340556415">
		<tag k="name" v="Kjørkebergura" />
		<tag k="natural" v="scree" />
		<tag k="ssr:stedsnr" v="932432" />
	</node>
	<node id="-512972" lat="58.185538888" lon="6.86036666588">
		<tag k="name" v="Klovsteinan" />
		<tag k="natural" v="stone" />
		<tag k="ssr:stedsnr" v="628944" />
	</node>
	<node id="-511435" lat="58.0980583359" lon="6.65080554762">
		<tag k="name" v="Hellemyra" />
		<tag k="natural" v="wetland" />
		<tag k="ssr:stedsnr" v="507746" />
	</node>
	<node id="-511946" lat="58.1083444434" lon="6.63727499929">
		<tag k="name" v="Tønnesed" />
		<tag k="place" v="locality" />
		<tag k="ssr:stedsnr" v="932718" />
	</node>
	<node id="-511944" lat="58.12565278" lon="6.61779166722">
		<tag k="name" v="Rullen" />
		<tag k="place" v="locality" />
		<tag k="ssr:stedsnr" v="932710" />
	</node>
	<node id="-512967" lat="58.1985361127" lon="6.75468333109">
		<tag k="name" v="Dyblemyra" />
		<tag k="natural" v="wetland" />
		<tag k="ssr:stedsnr" v="628883" />
	</node>
	<node id="-512966" lat="58.2215555528" lon="6.74609722118">
		<tag k="name" v="Straumsteinen" />
		<tag k="natural" v="stone" />
		<tag k="ssr:stedsnr" v="629000" />
	</node>
	<node id="-511418" lat="58.0811555595" lon="6.69784167094">
		<tag k="name" v="Sauehagan" />
		<tag k="place" v="locality" />
		<tag k="ssr:stedsnr" v="507367" />
	</node>
	<node id="-511417" lat="58.1757583307" lon="6.636325002">
		<tag k="name" v="Blautkjerr" />
		<tag k="natural" v="wetland" />
		<tag k="ssr:stedsnr" v="507366" />
	</node>
	<node id="-511928" lat="58.2076333317" lon="6.78227777094">
		<tag k="name" v="Sankemyra" />
		<tag k="natural" v="wetland" />
		<tag k="ssr:stedsnr" v="931900" />
	</node>
	<node id="-512949" lat="58.1239138918" lon="6.79296667468">
		<tag k="name" v="Skjæremyra" />
		<tag k="natural" v="wetland" />
		<tag k="ssr:stedsnr" v="628625" />
	</node>
	<node id="-511475" lat="58.1736583305" lon="6.63021389582">
		<tag k="name" v="Tjortemyra" />
		<tag k="natural" v="wetland" />
		<tag k="ssr:stedsnr" v="568393" />
	</node>
	<node id="-511406" lat="58.1776888884" lon="6.85472499162">
		<tag k="name" v="Storamyra" />
		<tag k="natural" v="wetland" />
		<tag k="ssr:stedsnr" v="506955" />
	</node>
	<node id="-511405" lat="58.1169499964" lon="6.79424722943">
		<tag k="name" v="Vardejordet" />
		<tag k="place" v="locality" />
		<tag k="ssr:stedsnr" v="506594" />
	</node>
	<node id="-512935" lat="58.2138055533" lon="6.75386666718">
		<tag k="name" v="Smesmyr" />
		<tag k="natural" v="wetland" />
		<tag k="ssr:stedsnr" v="627919" />
	</node>
	<node id="-511394" lat="58.1976111145" lon="6.78033055176">
		<tag k="name" v="Botnen" />
		<tag k="natural" v="wetland" />
		<tag k="ssr:stedsnr" v="385873" />
	</node>
	<node id="-511387" lat="58.1556472215" lon="6.77025555508">
		<tag k="name" v="Roddemyra" />
		<tag k="natural" v="wetland" />
		<tag k="ssr:stedsnr" v="385910" />
	</node>
	<node id="-511386" lat="58.2151444445" lon="6.82413610293">
		<tag k="name" v="Stormyra" />
		<tag k="natural" v="wetland" />
		<tag k="ssr:stedsnr" v="385773" />
	</node>
	<node id="-512408" lat="58.1159499971" lon="6.88553333149">
		<tag k="name" v="Bjørgemyra" />
		<tag k="natural" v="wetland" />
		<tag k="ssr:stedsnr" v="142988" />
	</node>
	<node id="-511383" lat="58.1173916693" lon="6.6436499971">
		<tag k="name" v="Storågran" />
		<tag k="place" v="locality" />
		<tag k="ssr:stedsnr" v="385765" />
	</node>
	<node id="-512403" lat="58.1983638847" lon="6.6973750065">
		<tag k="name" v="Gulesteinen" />
		<tag k="natural" v="stone" />
		<tag k="ssr:stedsnr" v="142941" />
	</node>
	<node id="-511374" lat="58.1352777814" lon="6.8606277723">
		<tag k="name" v="Stemmyra" />
		<tag k="natural" v="wetland" />
		<tag k="ssr:stedsnr" v="385526" />
	</node>
	<node id="-511372" lat="58.0950111082" lon="6.91493888087">
		<tag k="name" v="Torvemyra" />
		<tag k="natural" v="wetland" />
		<tag k="ssr:stedsnr" v="385514" />
	</node>
	<node id="-511371" lat="58.0952805571" lon="6.89087222765">
		<tag k="name" v="Svinemyra" />
		<tag k="natural" v="wetland" />
		<tag k="ssr:stedsnr" v="385512" />
	</node>
	<node id="-512391" lat="58.1118666708" lon="6.63935000028">
		<tag k="name" v="Engebrokka" />
		<tag k="place" v="locality" />
		<tag k="ssr:stedsnr" v="142776" />
	</node>
	<node id="-512389" lat="58.1240583323" lon="6.60668888876">
		<tag k="name" v="Storågren" />
		<tag k="place" v="locality" />
		<tag k="ssr:stedsnr" v="142774" />
	</node>
	<node id="-511364" lat="58.0769222233" lon="6.74420000803">
		<tag k="name" v="Torpmarka" />
		<tag k="place" v="locality" />
		<tag k="ssr:stedsnr" v="385476" />
	</node>
	<node id="-512387" lat="58.0934361148" lon="6.6304972296">
		<tag k="name" v="Mona" />
		<tag k="place" v="locality" />
		<tag k="ssr:stedsnr" v="142759" />
	</node>
	<node id="-512385" lat="58.0987111122" lon="6.66481110849">
		<tag k="name" v="Skeimemona" />
		<tag k="place" v="locality" />
		<tag k="ssr:stedsnr" v="142747" />
	</node>
	<node id="-511869" lat="58.1145416694" lon="6.70607222365">
		<tag k="name" v="Migmyr" />
		<tag k="natural" v="wetland" />
		<tag k="ssr:stedsnr" v="749638" />
	</node>
	<node id="-512380" lat="58.1269055589" lon="6.80940833916">
		<tag k="name" v="Botnekjerra" />
		<tag k="natural" v="wetland" />
		<tag k="ssr:stedsnr" v="142632" />
	</node>
	<node id="-512887" lat="58.2082944415" lon="6.86415554779">
		<tag k="name" v="Stormyra" />
		<tag k="natural" v="wetland" />
		<tag k="ssr:stedsnr" v="568820" />
	</node>
	<node id="-512885" lat="58.1966527776" lon="6.84845833998">
		<tag k="name" v="Stemmyra" />
		<tag k="natural" v="wetland" />
		<tag k="ssr:stedsnr" v="568799" />
	</node>
	<node id="-512884" lat="58.1990916658" lon="6.83937499178">
		<tag k="name" v="Slåttan" />
		<tag k="place" v="locality" />
		<tag k="ssr:stedsnr" v="568797" />
	</node>
	<node id="-512883" lat="58.1958166663" lon="6.91095833741">
		<tag k="name" v="Leidingsmyra" />
		<tag k="natural" v="wetland" />
		<tag k="ssr:stedsnr" v="568770" />
	</node>
	<node id="-513394" lat="58.0945186294" lon="6.70496617915">
		<tag k="name" v="Kråkedalsmyra" />
		<tag k="natural" v="wetland" />
		<tag k="ssr:stedsnr" v="989898" />
	</node>
	<node id="-512366" lat="58.1358083364" lon="6.86276111126">
		<tag k="landuse" v="meadow" />
		<tag k="name" v="Kristens hage" />
		<tag k="ssr:stedsnr" v="142504" />
	</node>
	<node id="-512999" lat="58.1517722191" lon="6.72541110958">
		<tag k="name" v="Storemyra" />
		<tag k="natural" v="wetland" />
		<tag k="ssr:stedsnr" v="749480" />
	</node>
	<node id="-511331" lat="58.0808472241" lon="6.80239166541">
		<tag k="name" v="Skoltemyra" />
		<tag k="place" v="locality" />
		<tag k="ssr:stedsnr" v="482884" />
	</node>
	<node id="-512354" lat="58.158813891" lon="6.70852777507">
		<tag k="name" v="Indremyra" />
		<tag k="natural" v="wetland" />
		<tag k="ssr:stedsnr" v="142447" />
	</node>
	<node id="-512865" lat="58.1848194407" lon="6.89140277695">
		<tag k="name" v="Hesthagmyra" />
		<tag k="natural" v="wetland" />
		<tag k="ssr:stedsnr" v="567781" />
	</node>
	<node id="-511631" lat="58.1255472188" lon="6.67898611723">
		<tag k="name" v="Kjellemyra" />
		<tag k="natural" v="wetland" />
		<tag k="ssr:stedsnr" v="689691" />
	</node>
	<node id="-512850" lat="58.1602055593" lon="6.6400416602">
		<tag k="name" v="Ellnesskarmyra" />
		<tag k="natural" v="wetland" />
		<tag k="ssr:stedsnr" v="567667" />
	</node>
	<node id="-512849" lat="58.1361638904" lon="6.69240277184">
		<tag k="name" v="Plassen" />
		<tag k="place" v="locality" />
		<tag k="ssr:stedsnr" v="567650" />
	</node>
	<node id="-512844" lat="58.1200166664" lon="6.76442777036">
		<tag k="name" v="Vamyra" />
>>>>>>> e1d4bc35ff8a6074a6f2e91616a996b547c36f15
		<tag k="natural" v="wetland" />
		<tag k="ssr:stedsnr" v="21712" />
	</node>
<<<<<<< HEAD
	<node lat="58.1127305543384" lon="6.640136106726492" id="-20803">
		<tag k="name" v="Mona" />
		<tag k="place" v="locality" />
		<tag k="ssr:stedsnr" v="82750" />
	</node>
	<node lat="58.12182777361509" lon="6.719336108562276" id="-20808">
		<tag k="name" v="Langemyra" />
=======
	<node id="-512838" lat="58.130580556" lon="6.77582499461">
		<tag k="name" v="Løslåta" />
		<tag k="natural" v="wetland" />
		<tag k="ssr:stedsnr" v="567559" />
	</node>
	<node id="-511810" lat="58.1995055536" lon="6.92120833318">
		<tag k="name" v="Torvmyra" />
>>>>>>> e1d4bc35ff8a6074a6f2e91616a996b547c36f15
		<tag k="natural" v="wetland" />
		<tag k="ssr:stedsnr" v="82611" />
	</node>
<<<<<<< HEAD
	<node lat="58.20862221938619" lon="6.916491667270217" id="-20825">
		<tag k="name" v="Neset" />
=======
	<node id="-511286" lat="58.1223972208" lon="6.60448888199">
		<tag k="name" v="Loga" />
>>>>>>> e1d4bc35ff8a6074a6f2e91616a996b547c36f15
		<tag k="place" v="locality" />
		<tag k="ssr:stedsnr" v="83805" />
	</node>
<<<<<<< HEAD
	<node lat="58.21258611381526" lon="6.866869451893703" id="-20829">
		<tag k="name" v="Torvmyra" />
=======
	<node id="-511285" lat="58.1271250021" lon="6.64005556347">
		<tag k="name" v="Stormyra" />
>>>>>>> e1d4bc35ff8a6074a6f2e91616a996b547c36f15
		<tag k="natural" v="wetland" />
		<tag k="ssr:stedsnr" v="83843" />
	</node>
<<<<<<< HEAD
	<node lat="58.1269055589183" lon="6.809408339164823" id="-20876">
		<tag k="name" v="Botnekjerra" />
=======
	<node id="-512817" lat="58.1544277791" lon="6.65830555012">
		<tag k="name" v="Litlehola" />
>>>>>>> e1d4bc35ff8a6074a6f2e91616a996b547c36f15
		<tag k="natural" v="wetland" />
		<tag k="ssr:stedsnr" v="142632" />
	</node>
<<<<<<< HEAD
	<node lat="58.19836388466647" lon="6.6973750064970705" id="-20883">
		<tag k="name" v="Gulesteinen" />
		<tag k="natural" v="stone" />
		<tag k="ssr:stedsnr" v="142941" />
	</node>
	<node lat="58.115949997061854" lon="6.885533331490932" id="-20884">
		<tag k="name" v="Bjørgemyra" />
		<tag k="natural" v="wetland" />
		<tag k="ssr:stedsnr" v="142988" />
	</node>
	<node lat="58.15778611164477" lon="6.681380562800192" id="-20911">
		<tag k="name" v="Orremyra" />
=======
	<node id="-512290" lat="58.2125861138" lon="6.86686945189">
		<tag k="name" v="Torvmyra" />
>>>>>>> e1d4bc35ff8a6074a6f2e91616a996b547c36f15
		<tag k="natural" v="wetland" />
		<tag k="ssr:stedsnr" v="264368" />
	</node>
<<<<<<< HEAD
	<node lat="58.156919448365315" lon="6.662947229706123" id="-20915">
		<tag k="name" v="Storhola" />
=======
	<node id="-512284" lat="58.2064138872" lon="6.76993055354">
		<tag k="name" v="Myran" />
>>>>>>> e1d4bc35ff8a6074a6f2e91616a996b547c36f15
		<tag k="natural" v="wetland" />
		<tag k="ssr:stedsnr" v="264384" />
	</node>
<<<<<<< HEAD
	<node lat="58.0765805579768" lon="6.706936116192905" id="-20921">
		<tag k="name" v="Stormyra" />
=======
	<node id="-512277" lat="58.1833916662" lon="6.90969167012">
		<tag k="name" v="Vasskjerran" />
>>>>>>> e1d4bc35ff8a6074a6f2e91616a996b547c36f15
		<tag k="natural" v="wetland" />
		<tag k="ssr:stedsnr" v="264478" />
	</node>
<<<<<<< HEAD
	<node lat="58.16358888932246" lon="6.64254166582992" id="-20933">
		<tag k="name" v="Skrubbemyra" />
=======
	<node id="-512272" lat="58.2226083355" lon="6.86237777353">
		<tag k="name" v="Torvmyra" />
>>>>>>> e1d4bc35ff8a6074a6f2e91616a996b547c36f15
		<tag k="natural" v="wetland" />
		<tag k="ssr:stedsnr" v="264682" />
	</node>
<<<<<<< HEAD
	<node lat="58.127125002103696" lon="6.640055563473061" id="-20934">
		<tag k="name" v="Stormyra" />
		<tag k="natural" v="wetland" />
		<tag k="ssr:stedsnr" v="264753" />
	</node>
	<node lat="58.122397220803876" lon="6.604488881991268" id="-20935">
		<tag k="name" v="Loga" />
		<tag k="place" v="locality" />
		<tag k="ssr:stedsnr" v="264761" />
	</node>
	<node lat="58.138477776828935" lon="6.630761114252304" id="-20942">
		<tag k="name" v="Heimarstemmen" />
=======
	<node id="-512267" lat="58.1127305543" lon="6.64013610673">
		<tag k="name" v="Mona" />
		<tag k="place" v="locality" />
		<tag k="ssr:stedsnr" v="82750" />
	</node>
	<node id="-511239" lat="58.1128805566" lon="6.66742499571">
		<tag k="name" v="Nyhagen" />
		<tag k="place" v="locality" />
		<tag k="ssr:stedsnr" v="446764" />
	</node>
	<node id="-511235" lat="58.194291663" lon="6.77104444978">
		<tag k="name" v="Oskjerrmyra" />
		<tag k="natural" v="wetland" />
		<tag k="ssr:stedsnr" v="446881" />
	</node>
	<node id="-511741" lat="58.1980138879" lon="6.90541111341">
		<tag k="name" v="Djupamyra" />
>>>>>>> e1d4bc35ff8a6074a6f2e91616a996b547c36f15
		<tag k="natural" v="wetland" />
		<tag k="ssr:stedsnr" v="264694" />
	</node>
<<<<<<< HEAD
	<node lat="58.13590000093282" lon="6.839852783909443" id="-20962">
		<tag k="name" v="Hønnedokka" />
=======
	<node id="-511740" lat="58.1195333317" lon="6.63383888281">
		<tag k="name" v="Haugedugan" />
>>>>>>> e1d4bc35ff8a6074a6f2e91616a996b547c36f15
		<tag k="place" v="locality" />
		<tag k="ssr:stedsnr" v="203489" />
	</node>
<<<<<<< HEAD
	<node lat="58.101613886071405" lon="6.657327781171036" id="-20971">
		<tag k="name" v="Kringsmona" />
=======
	<node id="-511225" lat="58.1719888896" lon="6.69509443772">
		<tag k="name" v="Smidalsflakka" />
>>>>>>> e1d4bc35ff8a6074a6f2e91616a996b547c36f15
		<tag k="place" v="locality" />
		<tag k="ssr:stedsnr" v="203746" />
	</node>
<<<<<<< HEAD
	<node lat="58.2105972210576" lon="6.782030548786018" id="-20975">
		<tag k="name" v="Nordmyra" />
=======
	<node id="-511735" lat="58.1413333296" lon="6.81181110508">
		<tag k="name" v="Djupemyr" />
>>>>>>> e1d4bc35ff8a6074a6f2e91616a996b547c36f15
		<tag k="natural" v="wetland" />
		<tag k="ssr:stedsnr" v="203894" />
	</node>
<<<<<<< HEAD
	<node lat="58.10040833198646" lon="6.843527775241877" id="-20978">
		<tag k="name" v="Havikmyra" />
=======
	<node id="-512758" lat="58.2090916676" lon="6.78439721929">
		<tag k="name" v="Langheimyra" />
>>>>>>> e1d4bc35ff8a6074a6f2e91616a996b547c36f15
		<tag k="natural" v="wetland" />
		<tag k="ssr:stedsnr" v="204407" />
	</node>
<<<<<<< HEAD
	<node lat="58.13527499607458" lon="6.851344439949153" id="-21000">
		<tag k="name" v="Kringlemyra" />
		<tag k="natural" v="wetland" />
		<tag k="ssr:stedsnr" v="264446" />
	</node>
	<node lat="58.053030552509505" lon="6.953769450460608" id="-21023">
		<tag k="name" v="Migermyr" />
		<tag k="natural" v="wetland" />
		<tag k="ssr:stedsnr" v="264940" />
	</node>
	<node lat="58.11763055971669" lon="6.878558325202624" id="-21025">
		<tag k="name" v="Brennevinskjerra" />
		<tag k="natural" v="wetland" />
		<tag k="ssr:stedsnr" v="264987" />
	</node>
	<node lat="58.182963885430055" lon="6.919402770916982" id="-21026">
		<tag k="name" v="Dalemyra" />
=======
	<node id="-511208" lat="58.1178249976" lon="6.56177222993">
		<tag k="name" v="Ogmundsrøysa" />
		<tag k="natural" v="scree" />
		<tag k="ssr:stedsnr" v="446419" />
	</node>
	<node id="-511099" lat="58.076580558" lon="6.70693611619">
		<tag k="name" v="Stormyra" />
		<tag k="natural" v="wetland" />
		<tag k="ssr:stedsnr" v="264478" />
	</node>
	<node id="-512732" lat="58.2117750019" lon="6.78210277451">
		<tag k="name" v="Uran" />
		<tag k="natural" v="scree" />
		<tag k="ssr:stedsnr" v="385886" />
	</node>
	<node id="-513243" lat="58.059872219" lon="6.96396111965">
		<tag k="name" v="Nadlemyr" />
>>>>>>> e1d4bc35ff8a6074a6f2e91616a996b547c36f15
		<tag k="natural" v="wetland" />
		<tag k="ssr:stedsnr" v="265810" />
	</node>
<<<<<<< HEAD
	<node lat="58.15748889098474" lon="6.718833338466244" id="-21063">
		<tag k="name" v="Snømyra" />
=======
	<node id="-513242" lat="58.0568638897" lon="6.95252499654">
		<tag k="name" v="Myran" />
>>>>>>> e1d4bc35ff8a6074a6f2e91616a996b547c36f15
		<tag k="natural" v="wetland" />
		<tag k="ssr:stedsnr" v="324471" />
	</node>
	<node lat="58.102036112463836" lon="6.677633328128963" id="-21074">
		<tag k="name" v="Klokkhammer" />
		<tag k="natural" v="beach" />
		<tag k="ssr:stedsnr" v="324733" />
		<tag k="surface" v="sand" />
	</node>
	<node lat="58.122658336366904" lon="6.625613881856535" id="-21077">
		<tag k="name" v="Torsteinen" />
		<tag k="natural" v="stone" />
		<tag k="ssr:stedsnr" v="324751" />
	</node>
<<<<<<< HEAD
	<node lat="58.20577777471846" lon="6.7787166678431685" id="-21080">
		<tag k="name" v="Djupemyra" />
=======
	<node id="-513241" lat="58.185563885" lon="6.76093888563">
		<tag k="name" v="Teinermyra" />
>>>>>>> e1d4bc35ff8a6074a6f2e91616a996b547c36f15
		<tag k="natural" v="wetland" />
		<tag k="ssr:stedsnr" v="324886" />
	</node>
	<node lat="58.15769166284403" lon="6.792813897343662" id="-21085">
		<tag k="name" v="Fidjan" />
		<tag k="place" v="locality" />
		<tag k="ssr:stedsnr" v="324920" />
	</node>
<<<<<<< HEAD
	<node lat="58.1194416698374" lon="6.688508338900788" id="-21124">
=======
	<node id="-512728" lat="58.1194416698" lon="6.6885083389">
>>>>>>> e1d4bc35ff8a6074a6f2e91616a996b547c36f15
		<tag k="name" v="Sjurslega" />
		<tag k="natural" v="wetland" />
		<tag k="ssr:stedsnr" v="385742" />
	</node>
<<<<<<< HEAD
	<node lat="58.11739166929556" lon="6.643649997096463" id="-21126">
		<tag k="name" v="Storågran" />
=======
	<node id="-513239" lat="58.0952694423" lon="6.60863055416">
		<tag k="name" v="Døttan" />
>>>>>>> e1d4bc35ff8a6074a6f2e91616a996b547c36f15
		<tag k="place" v="locality" />
		<tag k="ssr:stedsnr" v="385765" />
	</node>
<<<<<<< HEAD
	<node lat="58.08084722412223" lon="6.802391665407195" id="-21137">
		<tag k="name" v="Skoltemyra" />
=======
	<node id="-513236" lat="58.0946250034" lon="6.65768888429">
		<tag k="name" v="Øymona" />
>>>>>>> e1d4bc35ff8a6074a6f2e91616a996b547c36f15
		<tag k="place" v="locality" />
		<tag k="ssr:stedsnr" v="482884" />
	</node>
<<<<<<< HEAD
	<node lat="58.14576388469708" lon="6.822288882748924" id="-21190">
		<tag k="name" v="Tvermyr" />
		<tag k="natural" v="wetland" />
		<tag k="ssr:stedsnr" v="446523" />
	</node>
	<node lat="58.17198888955081" lon="6.695094437721459" id="-21197">
		<tag k="name" v="Smidalsflakka" />
		<tag k="place" v="locality" />
		<tag k="ssr:stedsnr" v="446488" />
	</node>
	<node lat="58.15221666624877" lon="6.789497221013485" id="-21214">
		<tag k="name" v="Lahelle" />
		<tag k="place" v="locality" />
		<tag k="ssr:stedsnr" v="446915" />
	</node>
	<node lat="58.19429166302059" lon="6.771044449783001" id="-21217">
		<tag k="name" v="Oskjerrmyra" />
=======
	<node id="-512720" lat="58.1137222242" lon="6.75074721389">
		<tag k="name" v="Slettingan" />
		<tag k="place" v="locality" />
		<tag k="ssr:stedsnr" v="385646" />
	</node>
	<node id="-513228" lat="58.0891916682" lon="6.87428332752">
		<tag k="name" v="Birkenesmyran" />
		<tag k="natural" v="wetland" />
		<tag k="ssr:stedsnr" v="871478" />
	</node>
	<node id="-512715" lat="58.1307055576" lon="6.79047777186">
		<tag k="name" v="Dyblemyr" />
		<tag k="natural" v="wetland" />
		<tag k="ssr:stedsnr" v="385585" />
	</node>
	<node id="-512714" lat="58.1380111119" lon="6.80861666227">
		<tag k="name" v="Krossmyr" />
>>>>>>> e1d4bc35ff8a6074a6f2e91616a996b547c36f15
		<tag k="natural" v="wetland" />
		<tag k="ssr:stedsnr" v="446881" />
	</node>
<<<<<<< HEAD
	<node lat="58.15358610893495" lon="6.7941583276139745" id="-21241">
		<tag k="name" v="Monen" />
		<tag k="place" v="locality" />
		<tag k="ssr:stedsnr" v="506906" />
	</node>
	<node lat="58.175758330698045" lon="6.636325001995239" id="-21247">
		<tag k="name" v="Blautkjerr" />
=======
	<node id="-511684" lat="58.1338000026" lon="6.84673333138">
		<tag k="name" v="Haglura" />
		<tag k="natural" v="scree" />
		<tag k="ssr:stedsnr" v="567448" />
	</node>
	<node id="-511682" lat="58.1602861084" lon="6.72080555044">
		<tag k="name" v="Lauåsmyra" />
>>>>>>> e1d4bc35ff8a6074a6f2e91616a996b547c36f15
		<tag k="natural" v="wetland" />
		<tag k="ssr:stedsnr" v="507366" />
	</node>
<<<<<<< HEAD
	<node lat="58.081155559454686" lon="6.697841670935327" id="-21248">
		<tag k="name" v="Sauehagan" />
=======
	<node id="-511164" lat="58.1157750017" lon="6.67533610862">
		<tag k="name" v="Drefta" />
>>>>>>> e1d4bc35ff8a6074a6f2e91616a996b547c36f15
		<tag k="place" v="locality" />
		<tag k="ssr:stedsnr" v="507367" />
	</node>
<<<<<<< HEAD
	<node lat="58.095094441689966" lon="6.710761110736728" id="-21264">
		<tag k="name" v="Kjelmemyra" />
=======
	<node id="-511154" lat="58.1829638854" lon="6.91940277092">
		<tag k="name" v="Dalemyra" />
>>>>>>> e1d4bc35ff8a6074a6f2e91616a996b547c36f15
		<tag k="natural" v="wetland" />
		<tag k="ssr:stedsnr" v="507615" />
	</node>
<<<<<<< HEAD
	<node lat="58.19950555358659" lon="6.921208333175953" id="-21327">
		<tag k="name" v="Torvmyra" />
=======
	<node id="-511151" lat="58.1176305597" lon="6.8785583252">
		<tag k="name" v="Brennevinskjerra" />
>>>>>>> e1d4bc35ff8a6074a6f2e91616a996b547c36f15
		<tag k="natural" v="wetland" />
		<tag k="ssr:stedsnr" v="689735" />
	</node>
<<<<<<< HEAD
	<node lat="58.0601555574552" lon="6.957577776517168" id="-21339">
=======
	<node id="-511659" lat="58.0601555575" lon="6.95757777652">
>>>>>>> e1d4bc35ff8a6074a6f2e91616a996b547c36f15
		<tag k="name" v="Lammåsmyr" />
		<tag k="natural" v="wetland" />
		<tag k="ssr:stedsnr" v="689944" />
	</node>
<<<<<<< HEAD
	<node lat="58.154427779087726" lon="6.658305550120188" id="-21353">
		<tag k="name" v="Litlehola" />
=======
	<node id="-511144" lat="58.0530305525" lon="6.95376945046">
		<tag k="name" v="Migermyr" />
>>>>>>> e1d4bc35ff8a6074a6f2e91616a996b547c36f15
		<tag k="natural" v="wetland" />
		<tag k="ssr:stedsnr" v="567370" />
	</node>
<<<<<<< HEAD
	<node lat="58.13058055604027" lon="6.775824994611104" id="-21358">
		<tag k="name" v="Løslåta" />
		<tag k="natural" v="wetland" />
		<tag k="ssr:stedsnr" v="567559" />
	</node>
	<node lat="58.12001666640018" lon="6.764427770363943" id="-21364">
		<tag k="name" v="Vamyra" />
		<tag k="natural" v="wetland" />
		<tag k="ssr:stedsnr" v="567626" />
	</node>
	<node lat="58.160205559281806" lon="6.64004166019875" id="-21365">
		<tag k="name" v="Ellnesskarmyra" />
=======
	<node id="-512158" lat="58.1108111072" lon="6.64024444978">
		<tag k="name" v="Feda" />
		<tag k="place" v="locality" />
		<tag k="ssr:stedsnr" v="21769" />
	</node>
	<node id="-512668" lat="58.0719722184" lon="6.8880444376">
		<tag k="name" v="Oddeura" />
		<tag k="natural" v="scree" />
		<tag k="ssr:stedsnr" v="361151" />
	</node>
	<node id="-511129" lat="58.1384777768" lon="6.63076111425">
		<tag k="name" v="Heimarstemmen" />
>>>>>>> e1d4bc35ff8a6074a6f2e91616a996b547c36f15
		<tag k="natural" v="wetland" />
		<tag k="ssr:stedsnr" v="567667" />
	</node>
<<<<<<< HEAD
	<node lat="58.184819440684045" lon="6.8914027769541395" id="-21374">
		<tag k="name" v="Hesthagmyra" />
=======
	<node id="-511128" lat="58.1635888893" lon="6.64254166583">
		<tag k="name" v="Skrubbemyra" />
>>>>>>> e1d4bc35ff8a6074a6f2e91616a996b547c36f15
		<tag k="natural" v="wetland" />
		<tag k="ssr:stedsnr" v="567781" />
	</node>
<<<<<<< HEAD
	<node lat="58.1958166663143" lon="6.910958337413326" id="-21382">
		<tag k="name" v="Leidingsmyra" />
=======
	<node id="-512151" lat="58.1152138931" lon="6.71411666841">
		<tag k="name" v="Stemmemyr" />
>>>>>>> e1d4bc35ff8a6074a6f2e91616a996b547c36f15
		<tag k="natural" v="wetland" />
		<tag k="ssr:stedsnr" v="568770" />
	</node>
<<<<<<< HEAD
	<node lat="58.20829444145446" lon="6.864155547787686" id="-21384">
		<tag k="name" v="Stormyra" />
=======
	<node id="-510995" lat="58.0739694399" lon="6.70667777516">
		<tag k="name" v="Kviljomarkan" />
		<tag k="place" v="locality" />
		<tag k="ssr:stedsnr" v="21514" />
	</node>
	<node id="-512147" lat="58.1189083359" lon="6.82928611642">
		<tag k="name" v="Øvrejordet" />
>>>>>>> e1d4bc35ff8a6074a6f2e91616a996b547c36f15
		<tag k="natural" v="wetland" />
		<tag k="ssr:stedsnr" v="568820" />
	</node>
<<<<<<< HEAD
	<node lat="58.213805553272984" lon="6.753866667178833" id="-21415">
		<tag k="name" v="Smesmyr" />
=======
	<node id="-512146" lat="58.124725001" lon="6.81398888961">
		<tag k="name" v="Nesmyr" />
>>>>>>> e1d4bc35ff8a6074a6f2e91616a996b547c36f15
		<tag k="natural" v="wetland" />
		<tag k="ssr:stedsnr" v="627919" />
	</node>
<<<<<<< HEAD
	<node lat="58.1239138918089" lon="6.792966674679446" id="-21423">
		<tag k="name" v="Skjæremyra" />
=======
	<node id="-512143" lat="58.1131666707" lon="6.68406944117">
		<tag k="name" v="Fidjan" />
>>>>>>> e1d4bc35ff8a6074a6f2e91616a996b547c36f15
		<tag k="natural" v="wetland" />
		<tag k="ssr:stedsnr" v="628625" />
	</node>
	<node lat="58.19801388785648" lon="6.905411113406699" id="-21435">
		<tag k="name" v="Djupamyra" />
		<tag k="natural" v="wetland" />
		<tag k="ssr:stedsnr" v="628754" />
	</node>
	<node lat="58.18553888797836" lon="6.86036666587884" id="-21444">
		<tag k="name" v="Klovsteinan" />
		<tag k="natural" v="stone" />
		<tag k="ssr:stedsnr" v="628944" />
	</node>
	<node lat="58.22155555284916" lon="6.746097221175148" id="-21446">
		<tag k="name" v="Straumsteinen" />
		<tag k="natural" v="stone" />
		<tag k="ssr:stedsnr" v="629000" />
	</node>
<<<<<<< HEAD
	<node lat="58.11740833245683" lon="6.704216674080835" id="-21493">
=======
	<node id="-511624" lat="58.1174083325" lon="6.70421667408">
>>>>>>> e1d4bc35ff8a6074a6f2e91616a996b547c36f15
		<tag k="name" v="Løynemyr" />
		<tag k="natural" v="wetland" />
		<tag k="ssr:stedsnr" v="689587" />
	</node>
<<<<<<< HEAD
	<node lat="58.12554721880963" lon="6.678986117228889" id="-21499">
		<tag k="name" v="Kjellemyra" />
=======
	<node id="-512647" lat="58.219611108" lon="6.88036388104">
		<tag k="name" v="Dyblemyr" />
>>>>>>> e1d4bc35ff8a6074a6f2e91616a996b547c36f15
		<tag k="natural" v="wetland" />
		<tag k="ssr:stedsnr" v="689691" />
	</node>
<<<<<<< HEAD
	<node lat="58.15177221908291" lon="6.725411109584587" id="-21545">
		<tag k="name" v="Storemyra" />
=======
	<node id="-513153" lat="58.0593444423" lon="6.96168611524">
		<tag k="name" v="Tomsemyr" />
>>>>>>> e1d4bc35ff8a6074a6f2e91616a996b547c36f15
		<tag k="natural" v="wetland" />
		<tag k="ssr:stedsnr" v="749480" />
	</node>
<<<<<<< HEAD
	<node lat="58.12130277900098" lon="6.814666667414625" id="-21551">
		<tag k="name" v="Blåmyra" />
		<tag k="natural" v="wetland" />
		<tag k="ssr:stedsnr" v="749560" />
	</node>
	<node lat="58.15207499919412" lon="6.7646472141075185" id="-21568">
		<tag k="name" v="Langemyra" />
=======
	<node id="-512635" lat="58.1085361089" lon="6.87158611212">
		<tag k="name" v="Kjerra" />
		<tag k="natural" v="wetland" />
		<tag k="ssr:stedsnr" v="324980" />
	</node>
	<node id="-511095" lat="58.1352749961" lon="6.85134443995">
		<tag k="name" v="Kringlemyra" />
>>>>>>> e1d4bc35ff8a6074a6f2e91616a996b547c36f15
		<tag k="natural" v="wetland" />
		<tag k="ssr:stedsnr" v="749922" />
	</node>
<<<<<<< HEAD
	<node lat="58.05934444234401" lon="6.961686115238015" id="-21637">
		<tag k="name" v="Tomsemyr" />
		<tag k="natural" v="wetland" />
		<tag k="ssr:stedsnr" v="810947" />
	</node>
	<node lat="58.09462500343483" lon="6.657688884291962" id="-21678">
		<tag k="name" v="Øymona" />
=======
	<node id="-512065" lat="58.1274194442" lon="6.83557222623">
		<tag k="name" v="Krossegra" />
		<tag k="place" v="locality" />
		<tag k="ssr:stedsnr" v="932521" />
	</node>
	<node id="-512627" lat="58.1576916628" lon="6.79281389734">
		<tag k="name" v="Fidjan" />
		<tag k="place" v="locality" />
		<tag k="ssr:stedsnr" v="324920" />
	</node>
	<node id="-513137" lat="58.078049997" lon="6.76991667041">
		<tag k="name" v="Spanslåta" />
>>>>>>> e1d4bc35ff8a6074a6f2e91616a996b547c36f15
		<tag k="place" v="locality" />
		<tag k="ssr:stedsnr" v="871713" />
	</node>
<<<<<<< HEAD
	<node lat="58.08919166815713" lon="6.874283327522142" id="-21681">
		<tag k="name" v="Birkenesmyran" />
=======
	<node id="-511087" lat="58.1569194484" lon="6.66294722971">
		<tag k="name" v="Storhola" />
>>>>>>> e1d4bc35ff8a6074a6f2e91616a996b547c36f15
		<tag k="natural" v="wetland" />
		<tag k="ssr:stedsnr" v="871478" />
	</node>
<<<<<<< HEAD
	<node lat="58.118011107127515" lon="6.931652783807252" id="-21688">
		<tag k="name" v="Ronemyra" />
=======
	<node id="-513134" lat="58.1229972258" lon="6.773413886">
		<tag k="name" v="Nørskårmyra" />
>>>>>>> e1d4bc35ff8a6074a6f2e91616a996b547c36f15
		<tag k="natural" v="wetland" />
		<tag k="ssr:stedsnr" v="871920" />
	</node>
<<<<<<< HEAD
	<node lat="58.15778611161601" lon="6.734513892342911" id="-21693">
		<tag k="name" v="Øygardsmyra" />
=======
	<node id="-512620" lat="58.2057777747" lon="6.77871666784">
		<tag k="name" v="Djupemyra" />
>>>>>>> e1d4bc35ff8a6074a6f2e91616a996b547c36f15
		<tag k="natural" v="wetland" />
		<tag k="ssr:stedsnr" v="932436" />
	</node>
<<<<<<< HEAD
	<node lat="58.1813999973258" lon="6.753405564146688" id="-21707">
		<tag k="name" v="Kjørkebergura" />
		<tag k="natural" v="scree" />
		<tag k="ssr:stedsnr" v="932432" />
	</node>
	<node lat="58.108713890459384" lon="6.704933327733891" id="-21710">
		<tag k="name" v="Indrejordet" />
		<tag k="place" v="locality" />
		<tag k="ssr:stedsnr" v="932612" />
	</node>
	<node lat="58.12741944423743" lon="6.8355722262271446" id="-21715">
		<tag k="name" v="Krossegra" />
=======
	<node id="-511083" lat="58.1577861116" lon="6.6813805628">
		<tag k="name" v="Orremyra" />
		<tag k="natural" v="wetland" />
		<tag k="ssr:stedsnr" v="264368" />
	</node>
	<node id="-512614" lat="58.1226583364" lon="6.62561388186">
		<tag k="name" v="Torsteinen" />
		<tag k="natural" v="stone" />
		<tag k="ssr:stedsnr" v="324751" />
	</node>
	<node id="-512611" lat="58.1020361125" lon="6.67763332813">
		<tag k="name" v="Klokkhammer" />
		<tag k="natural" v="beach" />
		<tag k="ssr:stedsnr" v="324733" />
		<tag k="surface" v="sand" />
	</node>
	<node id="-511069" lat="58.2086222194" lon="6.91649166727">
		<tag k="name" v="Neset" />
>>>>>>> e1d4bc35ff8a6074a6f2e91616a996b547c36f15
		<tag k="place" v="locality" />
		<tag k="ssr:stedsnr" v="932521" />
	</node>
<<<<<<< HEAD
	<node lat="58.155738890679636" lon="6.720272221049242" id="-21716">
		<tag k="name" v="Skrigermyra" />
		<tag k="natural" v="wetland" />
		<tag k="ssr:stedsnr" v="932441" />
	</node>
	<node lat="58.14111944286404" lon="6.827802775088819" id="-21717">
		<tag k="name" v="Fidjan" />
=======
	<node id="-513108" lat="58.1367027787" lon="6.82094167166">
		<tag k="name" v="Raddemyra" />
>>>>>>> e1d4bc35ff8a6074a6f2e91616a996b547c36f15
		<tag k="natural" v="wetland" />
		<tag k="ssr:stedsnr" v="932442" />
	</node>
<<<<<<< HEAD
	<node lat="58.20763333172675" lon="6.7822777709446385" id="-21792">
		<tag k="name" v="Sankemyra" />
=======
	<node id="-510990" lat="58.1546750034" lon="6.63670278183">
		<tag k="landuse" v="meadow" />
		<tag k="name" v="Stølen" />
		<tag k="ssr:stedsnr" v="21418" />
	</node>
	<node id="-511587" lat="58.0760388856" lon="6.78854444223">
		<tag k="name" v="Botnan" />
		<tag k="place" v="locality" />
		<tag k="ssr:stedsnr" v="507690" />
	</node>
	<node id="-512592" lat="58.1341250046" lon="6.77291111886">
		<tag k="name" v="Botnen" />
>>>>>>> e1d4bc35ff8a6074a6f2e91616a996b547c36f15
		<tag k="natural" v="wetland" />
		<tag k="ssr:stedsnr" v="931900" />
	</node>
<<<<<<< HEAD
	<node lat="58.125652780028204" lon="6.617791667223809" id="-21794">
		<tag k="name" v="Rullen" />
		<tag k="place" v="locality" />
		<tag k="ssr:stedsnr" v="932710" />
	</node>
	<node lat="58.10834444341371" lon="6.637274999293058" id="-21796">
		<tag k="name" v="Tønnesed" />
		<tag k="place" v="locality" />
		<tag k="ssr:stedsnr" v="932718" />
	</node>
	<node lat="58.10248610845181" lon="6.690327772293298" id="-21799">
		<tag k="name" v="Mindejordet" />
=======
	<node id="-513102" lat="58.1853194404" lon="6.75721944206">
		<tag k="name" v="Myran" />
		<tag k="natural" v="wetland" />
		<tag k="ssr:stedsnr" v="810447" />
	</node>
	<node id="-511051" lat="58.1218277736" lon="6.71933610856">
		<tag k="name" v="Langemyra" />
		<tag k="natural" v="wetland" />
		<tag k="ssr:stedsnr" v="82611" />
	</node>
	<node id="-511558" lat="58.1535861089" lon="6.79415832761">
		<tag k="name" v="Monen" />
>>>>>>> e1d4bc35ff8a6074a6f2e91616a996b547c36f15
		<tag k="place" v="locality" />
		<tag k="ssr:stedsnr" v="932698" />
	</node>
<<<<<<< HEAD
	<node lat="58.124725001012195" lon="6.813988889605285" id="-21904">
		<tag k="name" v="Nesmyr" />
		<tag k="natural" v="wetland" />
		<tag k="ssr:stedsnr" v="21574" />
	</node>
	<node lat="58.1189083358735" lon="6.829286116417209" id="-21905">
		<tag k="name" v="Øvrejordet" />
		<tag k="natural" v="wetland" />
		<tag k="ssr:stedsnr" v="21579" />
	</node>
	<node lat="58.15467500338591" lon="6.63670278183277" id="-21907">
		<tag k="landuse" v="meadow" />
		<tag k="name" v="Stølen" />
		<tag k="ssr:stedsnr" v="21418" />
	</node>
	<node lat="58.073969439943475" lon="6.7066777751562485" id="-21914">
		<tag k="name" v="Kviljomarkan" />
=======
	<node id="-512578" lat="58.157488891" lon="6.71883333847">
		<tag k="name" v="Snømyra" />
		<tag k="natural" v="wetland" />
		<tag k="ssr:stedsnr" v="324471" />
	</node>
	<node id="-511755" lat="58.2034444466" lon="6.78122500193">
		<tag k="name" v="Torvmyra" />
		<tag k="natural" v="wetland" />
		<tag k="ssr:stedsnr" v="628861" />
	</node>
	<node id="-512058" lat="58.1087138905" lon="6.70493332773">
		<tag k="name" v="Indrejordet" />
>>>>>>> e1d4bc35ff8a6074a6f2e91616a996b547c36f15
		<tag k="place" v="locality" />
		<tag k="ssr:stedsnr" v="21514" />
	</node>
	<node lat="58.11521389308727" lon="6.7141166684059606" id="-21924">
		<tag k="name" v="Stemmemyr" />
		<tag k="natural" v="wetland" />
		<tag k="ssr:stedsnr" v="21644" />
	</node>
<<<<<<< HEAD
	<node lat="58.11081110724769" lon="6.640244449775621" id="-21930">
		<tag k="name" v="Feda" />
=======
	<node id="-513064" lat="58.0487472205" lon="6.91752778294">
		<tag k="historic" v="shieling" />
		<tag k="name" v="Midvollen" />
>>>>>>> e1d4bc35ff8a6074a6f2e91616a996b547c36f15
		<tag k="place" v="locality" />
		<tag k="ssr:stedsnr" v="21769" />
	</node>
<<<<<<< HEAD
	<node lat="58.1131666707419" lon="6.684069441169126" id="-21941">
		<tag k="name" v="Fidjan" />
		<tag k="natural" v="wetland" />
		<tag k="ssr:stedsnr" v="21730" />
	</node>
	<node lat="58.18339166623667" lon="6.909691670123924" id="-22012">
		<tag k="name" v="Vasskjerran" />
=======
	<node id="-512035" lat="58.1878000015" lon="6.84761110458">
		<tag k="name" v="Kobbesteinen" />
		<tag k="natural" v="stone" />
		<tag k="ssr:stedsnr" v="871959" />
	</node>
	<node id="-512032" lat="58.1834666646" lon="6.76211388275">
		<tag k="name" v="Torvmyra av Greta" />
>>>>>>> e1d4bc35ff8a6074a6f2e91616a996b547c36f15
		<tag k="natural" v="wetland" />
		<tag k="ssr:stedsnr" v="82783" />
	</node>
<<<<<<< HEAD
	<node lat="58.21539166943208" lon="6.8300000004536345" id="-22019">
		<tag k="name" v="Langemyra" />
=======
	<node id="-512029" lat="58.1180111071" lon="6.93165278381">
		<tag k="name" v="Ronemyra" />
>>>>>>> e1d4bc35ff8a6074a6f2e91616a996b547c36f15
		<tag k="natural" v="wetland" />
		<tag k="ssr:stedsnr" v="82760" />
	</node>
<<<<<<< HEAD
	<node lat="58.22260833552418" lon="6.862377773527324" id="-22020">
		<tag k="name" v="Torvmyra" />
=======
	<node id="-511004" lat="58.0897972218" lon="6.68904166019">
		<tag k="name" v="Løgan" />
>>>>>>> e1d4bc35ff8a6074a6f2e91616a996b547c36f15
		<tag k="natural" v="wetland" />
		<tag k="ssr:stedsnr" v="82766" />
	</node>
<<<<<<< HEAD
	<node lat="58.2064138871917" lon="6.76993055354309" id="-22027">
		<tag k="name" v="Myran" />
=======
	<node id="-512539" lat="58.100408332" lon="6.84352777524">
		<tag k="name" v="Havikmyra" />
>>>>>>> e1d4bc35ff8a6074a6f2e91616a996b547c36f15
		<tag k="natural" v="wetland" />
		<tag k="ssr:stedsnr" v="82898" />
	</node>
<<<<<<< HEAD
	<node lat="58.13580833643934" lon="6.862761111256597" id="-22073">
		<tag k="landuse" v="meadow" />
		<tag k="name" v="Kristens hage" />
		<tag k="ssr:stedsnr" v="142504" />
	</node>
	<node lat="58.158813891031656" lon="6.708527775074593" id="-22079">
		<tag k="name" v="Indremyra" />
=======
	<node id="-511512" lat="58.1522166662" lon="6.78949722101">
		<tag k="name" v="Lahelle" />
		<tag k="place" v="locality" />
		<tag k="ssr:stedsnr" v="446915" />
	</node>
	<node id="-513047" lat="58.1770138884" lon="6.86520556111">
		<tag k="name" v="Slåtemyra" />
>>>>>>> e1d4bc35ff8a6074a6f2e91616a996b547c36f15
		<tag k="natural" v="wetland" />
		<tag k="ssr:stedsnr" v="142447" />
	</node>
<<<<<<< HEAD
	<node lat="58.115775001707384" lon="6.675336108623331" id="-22101">
		<tag k="name" v="Drefta" />
		<tag k="place" v="locality" />
		<tag k="ssr:stedsnr" v="142734" />
	</node>
	<node lat="58.09871111223259" lon="6.664811108491414" id="-22104">
		<tag k="name" v="Skeimemona" />
		<tag k="place" v="locality" />
		<tag k="ssr:stedsnr" v="142747" />
	</node>
	<node lat="58.09343611480174" lon="6.630497229596822" id="-22106">
		<tag k="name" v="Mona" />
		<tag k="place" v="locality" />
		<tag k="ssr:stedsnr" v="142759" />
	</node>
	<node lat="58.1240583323171" lon="6.6066888887615285" id="-22108">
		<tag k="name" v="Storågren" />
		<tag k="place" v="locality" />
		<tag k="ssr:stedsnr" v="142774" />
	</node>
	<node lat="58.11186667082408" lon="6.639350000277496" id="-22110">
		<tag k="name" v="Engebrokka" />
		<tag k="place" v="locality" />
		<tag k="ssr:stedsnr" v="142776" />
	</node>
	<node lat="58.18318611473892" lon="6.763972229065901" id="-22182">
		<tag k="name" v="Litla myra" />
=======
	<node id="-513046" lat="58.0587611104" lon="6.95523888199">
		<tag k="name" v="Stormyr" />
		<tag k="natural" v="wetland" />
		<tag k="ssr:stedsnr" v="749964" />
	</node>
	<node id="-512531" lat="58.1602972208" lon="6.80525277059">
		<tag k="name" v="Gullura" />
		<tag k="natural" v="scree" />
		<tag k="ssr:stedsnr" v="203932" />
	</node>
	<node id="-513042" lat="58.1707666624" lon="6.78550832643">
		<tag k="name" v="Solheimyra" />
		<tag k="natural" v="wetland" />
		<tag k="ssr:stedsnr" v="749946" />
	</node>
	<node id="-513038" lat="58.1520749992" lon="6.76464721411">
		<tag k="name" v="Langemyra" />
		<tag k="natural" v="wetland" />
		<tag k="ssr:stedsnr" v="749922" />
	</node>
	<node id="-512525" lat="58.2105972211" lon="6.78203054879">
		<tag k="name" v="Nordmyra" />
		<tag k="natural" v="wetland" />
		<tag k="ssr:stedsnr" v="203894" />
	</node>
	<node id="-512012" lat="58.1314083343" lon="6.85447499559">
		<tag k="name" v="Flåttemyra" />
>>>>>>> e1d4bc35ff8a6074a6f2e91616a996b547c36f15
		<tag k="natural" v="wetland" />
		<tag k="ssr:stedsnr" v="203859" />
	</node>
<<<<<<< HEAD
	<node lat="58.19841111507315" lon="6.769283328837678" id="-22185">
=======
	<node id="-512523" lat="58.1984111151" lon="6.76928332884">
>>>>>>> e1d4bc35ff8a6074a6f2e91616a996b547c36f15
		<tag k="name" v="Svinehagen" />
		<tag k="place" v="locality" />
		<tag k="ssr:stedsnr" v="203880" />
	</node>
<<<<<<< HEAD
	<node lat="58.13760833642115" lon="6.814605556723473" id="-22193">
		<tag k="name" v="Steinsmyr" />
=======
	<node id="-512520" lat="58.1831861147" lon="6.76397222907">
		<tag k="name" v="Litla myra" />
>>>>>>> e1d4bc35ff8a6074a6f2e91616a996b547c36f15
		<tag k="natural" v="wetland" />
		<tag k="ssr:stedsnr" v="203485" />
	</node>
<<<<<<< HEAD
	<node lat="58.18618889087358" lon="6.879161108283229" id="-22210">
=======
	<node id="-512519" lat="58.1861888909" lon="6.87916110828">
>>>>>>> e1d4bc35ff8a6074a6f2e91616a996b547c36f15
		<tag k="name" v="Åndsmyra" />
		<tag k="natural" v="wetland" />
		<tag k="ssr:stedsnr" v="203799" />
	</node>
<<<<<<< HEAD
	<node lat="58.110366663383694" lon="6.717077778204562" id="-22213">
		<tag k="name" v="Pollan" />
		<tag k="natural" v="wetland" />
		<tag k="ssr:stedsnr" v="203666" />
	</node>
	<node lat="58.134513889422124" lon="6.688122215240869" id="-22217">
		<tag k="name" v="Stemman" />
		<tag k="natural" v="wetland" />
		<tag k="ssr:stedsnr" v="203687" />
	</node>
	<node lat="58.16029722077259" lon="6.8052527705912915" id="-22228">
		<tag k="name" v="Gullura" />
		<tag k="natural" v="scree" />
		<tag k="ssr:stedsnr" v="203932" />
	</node>
	<node lat="58.13412500458517" lon="6.772911118861162" id="-22291">
		<tag k="name" v="Botnen" />
		<tag k="natural" v="wetland" />
		<tag k="ssr:stedsnr" v="324572" />
	</node>
	<node lat="58.108536108911565" lon="6.871586112119982" id="-22317">
		<tag k="name" v="Kjerra" />
		<tag k="natural" v="wetland" />
		<tag k="ssr:stedsnr" v="324980" />
	</node>
	<node lat="58.21961110796262" lon="6.880363881038807" id="-22332">
		<tag k="name" v="Dyblemyr" />
		<tag k="natural" v="wetland" />
		<tag k="ssr:stedsnr" v="325749" />
	</node>
	<node lat="58.07197221839009" lon="6.888044437603038" id="-22350">
		<tag k="name" v="Oddeura" />
		<tag k="natural" v="scree" />
		<tag k="ssr:stedsnr" v="361151" />
	</node>
	<node lat="58.09528055709165" lon="6.890872227653896" id="-22380">
		<tag k="name" v="Svinemyra" />
		<tag k="natural" v="wetland" />
		<tag k="ssr:stedsnr" v="385512" />
	</node>
	<node lat="58.09501110824657" lon="6.914938880873394" id="-22381">
		<tag k="name" v="Torvemyra" />
		<tag k="natural" v="wetland" />
		<tag k="ssr:stedsnr" v="385514" />
	</node>
	<node lat="58.135277781354894" lon="6.860627772297033" id="-22383">
		<tag k="name" v="Stemmyra" />
		<tag k="natural" v="wetland" />
		<tag k="ssr:stedsnr" v="385526" />
	</node>
	<node lat="58.13801111193394" lon="6.80861666227198" id="-22392">
		<tag k="name" v="Krossmyr" />
		<tag k="natural" v="wetland" />
		<tag k="ssr:stedsnr" v="385582" />
	</node>
	<node lat="58.13070555760155" lon="6.7904777718557865" id="-22393">
		<tag k="name" v="Dyblemyr" />
		<tag k="natural" v="wetland" />
		<tag k="ssr:stedsnr" v="385585" />
	</node>
	<node lat="58.07692222331987" lon="6.744200008029448" id="-22401">
		<tag k="name" v="Torpmarka" />
		<tag k="place" v="locality" />
		<tag k="ssr:stedsnr" v="385476" />
	</node>
	<node lat="58.11372222420415" lon="6.750747213887379" id="-22406">
		<tag k="name" v="Slettingan" />
		<tag k="place" v="locality" />
		<tag k="ssr:stedsnr" v="385646" />
	</node>
	<node lat="58.215144444538836" lon="6.824136102930545" id="-22407">
		<tag k="name" v="Stormyra" />
		<tag k="natural" v="wetland" />
		<tag k="ssr:stedsnr" v="385773" />
	</node>
	<node lat="58.197611114500106" lon="6.780330551758024" id="-22411">
		<tag k="name" v="Botnen" />
		<tag k="natural" v="wetland" />
		<tag k="ssr:stedsnr" v="385873" />
	</node>
	<node lat="58.21177500193385" lon="6.782102774509574" id="-22414">
		<tag k="name" v="Uran" />
		<tag k="natural" v="scree" />
		<tag k="ssr:stedsnr" v="385886" />
	</node>
	<node lat="58.15564722153689" lon="6.770255555081475" id="-22422">
		<tag k="name" v="Roddemyra" />
		<tag k="natural" v="wetland" />
		<tag k="ssr:stedsnr" v="385910" />
	</node>
	<node lat="58.20909166760402" lon="6.784397219289925" id="-22443">
		<tag k="name" v="Langheimyra" />
		<tag k="natural" v="wetland" />
		<tag k="ssr:stedsnr" v="415260" />
	</node>
	<node lat="58.117824997602014" lon="6.561772229925" id="-22481">
		<tag k="name" v="Ogmundsrøysa" />
		<tag k="natural" v="scree" />
		<tag k="ssr:stedsnr" v="446419" />
	</node>
	<node lat="58.11288055657763" lon="6.667424995713591" id="-22486">
		<tag k="name" v="Nyhagen" />
		<tag k="place" v="locality" />
		<tag k="ssr:stedsnr" v="446764" />
	</node>
	<node lat="58.11694999636596" lon="6.794247229430443" id="-22518">
		<tag k="name" v="Vardejordet" />
		<tag k="place" v="locality" />
		<tag k="ssr:stedsnr" v="506594" />
	</node>
	<node lat="58.17768888837939" lon="6.854724991620298" id="-22529">
		<tag k="name" v="Storamyra" />
		<tag k="natural" v="wetland" />
		<tag k="ssr:stedsnr" v="506955" />
	</node>
	<node lat="58.20681666354216" lon="6.866469440070643" id="-22531">
		<tag k="name" v="Fuglemyra" />
		<tag k="natural" v="wetland" />
		<tag k="ssr:stedsnr" v="507840" />
	</node>
	<node lat="58.07603888555638" lon="6.788544442231543" id="-22556">
		<tag k="name" v="Botnan" />
		<tag k="place" v="locality" />
		<tag k="ssr:stedsnr" v="507690" />
	</node>
	<node lat="58.09805833594393" lon="6.650805547619132" id="-22577">
		<tag k="name" v="Hellemyra" />
		<tag k="natural" v="wetland" />
		<tag k="ssr:stedsnr" v="507746" />
	</node>
	<node lat="58.16028610840195" lon="6.720805550437829" id="-22616">
		<tag k="name" v="Lauåsmyra" />
		<tag k="natural" v="wetland" />
		<tag k="ssr:stedsnr" v="567444" />
	</node>
	<node lat="58.13380000260658" lon="6.8467333313847965" id="-22618">
		<tag k="name" v="Haglura" />
		<tag k="natural" v="scree" />
		<tag k="ssr:stedsnr" v="567448" />
	</node>
	<node lat="58.136163890442745" lon="6.692402771840687" id="-22641">
		<tag k="name" v="Plassen" />
		<tag k="place" v="locality" />
		<tag k="ssr:stedsnr" v="567650" />
	</node>
	<node lat="58.17365833049653" lon="6.630213895821974" id="-22652">
		<tag k="name" v="Tjortemyra" />
		<tag k="natural" v="wetland" />
		<tag k="ssr:stedsnr" v="568393" />
	</node>
	<node lat="58.19909166575163" lon="6.839374991782017" id="-22653">
		<tag k="name" v="Slåttan" />
		<tag k="place" v="locality" />
		<tag k="ssr:stedsnr" v="568797" />
	</node>
	<node lat="58.19665277764832" lon="6.848458339976358" id="-22654">
		<tag k="name" v="Stemmyra" />
		<tag k="natural" v="wetland" />
		<tag k="ssr:stedsnr" v="568799" />
	</node>
	<node lat="58.11953333165371" lon="6.633838882814896" id="-22711">
		<tag k="name" v="Haugedugan" />
		<tag k="place" v="locality" />
		<tag k="ssr:stedsnr" v="628726" />
	</node>
	<node lat="58.141333329626235" lon="6.811811105079548" id="-22718">
		<tag k="name" v="Djupemyr" />
		<tag k="natural" v="wetland" />
		<tag k="ssr:stedsnr" v="628559" />
	</node>
	<node lat="58.20344444660448" lon="6.781225001928495" id="-22732">
		<tag k="name" v="Torvmyra" />
		<tag k="natural" v="wetland" />
		<tag k="ssr:stedsnr" v="628861" />
	</node>
	<node lat="58.1985361127109" lon="6.754683331086186" id="-22735">
		<tag k="name" v="Dyblemyra" />
		<tag k="natural" v="wetland" />
		<tag k="ssr:stedsnr" v="628883" />
	</node>
	<node lat="58.05876111036854" lon="6.955238881986609" id="-22795">
		<tag k="name" v="Stormyr" />
		<tag k="natural" v="wetland" />
		<tag k="ssr:stedsnr" v="749964" />
	</node>
	<node lat="58.17701388838488" lon="6.8652055611079135" id="-22796">
		<tag k="name" v="Slåtemyra" />
		<tag k="natural" v="wetland" />
		<tag k="ssr:stedsnr" v="749975" />
	</node>
	<node lat="58.071663885707174" lon="6.678869441549937" id="-22800">
		<tag k="name" v="Sandmarka" />
		<tag k="place" v="locality" />
		<tag k="ssr:stedsnr" v="749426" />
	</node>
	<node lat="58.109875003357345" lon="6.592330551965737" id="-22804">
		<tag k="name" v="Groda" />
		<tag k="place" v="locality" />
		<tag k="ssr:stedsnr" v="749434" />
	</node>
	<node lat="58.111411110585244" lon="6.608205549259065" id="-22816">
		<tag k="name" v="Groda" />
		<tag k="place" v="locality" />
		<tag k="ssr:stedsnr" v="749782" />
	</node>
	<node lat="58.22118055361657" lon="6.872486118960352" id="-22820">
		<tag k="name" v="Stegjan" />
		<tag k="natural" v="wetland" />
		<tag k="ssr:stedsnr" v="749798" />
	</node>
	<node lat="58.114541669366474" lon="6.7060722236543935" id="-22828">
		<tag k="name" v="Migmyr" />
		<tag k="natural" v="wetland" />
		<tag k="ssr:stedsnr" v="749638" />
	</node>
	<node lat="58.17076666244313" lon="6.785508326427226" id="-22839">
		<tag k="name" v="Solheimyra" />
		<tag k="natural" v="wetland" />
		<tag k="ssr:stedsnr" v="749946" />
	</node>
=======
	<node id="-511491" lat="58.1457638847" lon="6.82228888275">
		<tag k="name" v="Tvermyr" />
		<tag k="natural" v="wetland" />
		<tag k="ssr:stedsnr" v="446523" />
	</node>
	<node id="-512514" lat="58.1016138861" lon="6.65732778117">
		<tag k="name" v="Kringsmona" />
		<tag k="place" v="locality" />
		<tag k="ssr:stedsnr" v="203746" />
	</node>
>>>>>>> e1d4bc35ff8a6074a6f2e91616a996b547c36f15
</osm>
