<?xml version="1.0" encoding="UTF-8"?>
<osm version="0.6" generator="osmapis">
	<node lat="58.055255556648675" lon="6.782572214274694" id="-20722">
		<tag k="alt_name" v="Hummerdus" />
		<tag k="fixme" v="consider seamark:type=rock or natural=shoal" />
		<tag k="name" v="Hummardus" />
		<tag k="place" v="islet" />
		<tag k="ssr:stedsnr" v="352" />
	</node>
	<node lat="58.078986110006824" lon="6.945936104767248" id="-20723">
		<tag k="alt_name" v="Bjørnevågfjorden" />
		<tag k="bay" v="fjord" />
		<tag k="name" v="Bjørnevågen" />
		<tag k="natural" v="bay" />
		<tag k="ssr:stedsnr" v="363" />
	</node>
	<node lat="58.06513610767959" lon="6.859927772088532" id="-20724">
		<tag k="name" v="Brattholmen" />
		<tag k="place" v="islet" />
		<tag k="ssr:stedsnr" v="368" />
	</node>
	<node lat="58.021647225846365" lon="6.878180551973396" id="-20725">
		<tag k="fixme" v="consider seamark:type=rock or natural=shoal" />
		<tag k="name" v="Ystesteinen" />
		<tag k="place" v="islet" />
		<tag k="ssr:stedsnr" v="399" />
	</node>
	<node lat="58.07528610797667" lon="6.816383340938512" id="-20730">
		<tag k="name" v="Grønnslettvika" />
		<tag k="natural" v="bay" />
		<tag k="ssr:stedsnr" v="21549" />
	</node>
	<node lat="58.121194441425786" lon="6.566186116407566" id="-20732">
		<tag k="name" v="Karvenes" />
		<tag k="natural" v="cape" />
		<tag k="ssr:stedsnr" v="21440" />
	</node>
	<node lat="58.131958332746414" lon="6.738949994806862" id="-20738">
		<tag k="name" v="Svinnes" />
		<tag k="natural" v="cape" />
		<tag k="ssr:stedsnr" v="21583" />
	</node>
	<node lat="58.063136110596396" lon="6.771127781716708" id="-20739">
		<tag k="fixme" v="consider seamark:type=rock or natural=shoal" />
		<tag k="name" v="Mågesteinen" />
		<tag k="place" v="islet" />
		<tag k="ssr:stedsnr" v="21679" />
	</node>
	<node lat="58.12571111175757" lon="6.90294722164412" id="-20746">
		<tag k="name" v="Trosvika" />
		<tag k="natural" v="bay" />
		<tag k="ssr:stedsnr" v="21985" />
	</node>
	<node lat="58.045958335778195" lon="6.898166659062862" id="-20747">
		<tag k="name" v="Asalholmen" />
		<tag k="place" v="islet" />
		<tag k="ssr:stedsnr" v="21990" />
	</node>
	<node lat="58.22520555100344" lon="6.757216660044681" id="-20748">
		<tag k="name" v="Egelandsstronda" />
		<tag k="natural" v="beach" />
		<tag k="ssr:stedsnr" v="21997" />
	</node>
	<node lat="58.09105833356305" lon="6.833166669230147" id="-20751">
		<tag k="name" v="Brunsvik" />
		<tag k="natural" v="bay" />
		<tag k="ssr:stedsnr" v="22386" />
	</node>
	<node lat="58.041402778913806" lon="6.903522222843798" id="-20755">
		<tag k="name" v="Røyskattsundet" />
		<tag k="natural" v="strait" />
		<tag k="ssr:stedsnr" v="39258" />
	</node>
	<node lat="58.069402774999695" lon="6.869766660818334" id="-20757">
		<tag k="name" v="Øygardsholmen" />
		<tag k="place" v="islet" />
		<tag k="ssr:stedsnr" v="240143" />
	</node>
	<node lat="58.06688610957853" lon="6.881019443541772" id="-20758">
		<tag k="name" v="Nordalsbukta" />
		<tag k="natural" v="bay" />
		<tag k="ssr:stedsnr" v="240145" />
	</node>
	<node lat="58.08150833198764" lon="6.874761109034678" id="-20759">
		<tag k="name" v="Jakobsholmen" />
		<tag k="place" v="islet" />
		<tag k="ssr:stedsnr" v="58223" />
	</node>
	<node lat="58.07626111504347" lon="6.913841674464647" id="-20760">
		<tag k="name" v="Vestre Slettebugdøybukta" />
		<tag k="natural" v="bay" />
		<tag k="ssr:stedsnr" v="58170" />
	</node>
	<node lat="58.066533330222114" lon="6.91623889658259" id="-20761">
		<tag k="name" v="Østre Myravika" />
		<tag k="natural" v="bay" />
		<tag k="ssr:stedsnr" v="58178" />
	</node>
	<node lat="58.04578611304318" lon="6.855566662688818" id="-20762">
		<tag k="name" v="Nordre Roholmflua" />
		<tag k="natural" v="shoal" />
		<tag k="place" v="locality" />
		<tag k="ssr:stedsnr" v="240274" />
	</node>
	<node lat="58.090555557424594" lon="6.812566665715821" id="-20764">
		<tag k="name" v="Sør-østre Engøybåen" />
		<tag k="natural" v="shoal" />
		<tag k="place" v="locality" />
		<tag k="ssr:stedsnr" v="58914" />
	</node>
	<node lat="58.0768277795165" lon="6.832450007248023" id="-20783">
		<tag k="name" v="Prestøy" />
		<tag k="place" v="islet" />
		<tag k="ssr:stedsnr" v="242332" />
	</node>
	<node lat="58.05257499714278" lon="6.925844437655945" id="-20803">
		<tag k="name" v="Terøy" />
		<tag k="place" v="islet" />
		<tag k="ssr:stedsnr" v="243406" />
	</node>
	<node lat="58.07228333340146" lon="6.881083330398912" id="-20806">
		<tag k="name" v="Kollavika" />
		<tag k="natural" v="bay" />
		<tag k="ssr:stedsnr" v="82538" />
	</node>
	<node lat="58.11274722235831" lon="6.769530556525185" id="-20807">
		<tag k="name" v="Hølen" />
		<tag k="natural" v="bay" />
		<tag k="ssr:stedsnr" v="82582" />
	</node>
	<node lat="58.18061388986997" lon="6.737641667601585" id="-20815">
		<tag k="name" v="Krogan" />
		<tag k="natural" v="bay" />
		<tag k="ssr:stedsnr" v="82437" />
	</node>
	<node lat="58.107511107625356" lon="6.760383327341057" id="-20818">
		<tag k="name" v="Øyvollsundet" />
		<tag k="natural" v="strait" />
		<tag k="ssr:stedsnr" v="82626" />
	</node>
	<node lat="58.13581168286799" lon="6.601018904294036" id="-20826">
		<tag k="name" v="Kjøllebergstranda" />
		<tag k="natural" v="beach" />
		<tag k="ssr:stedsnr" v="82687" />
	</node>
	<node lat="58.161783330809946" lon="6.809180549619481" id="-20829">
		<tag k="name" v="Hessnesodden" />
		<tag k="natural" v="cape" />
		<tag k="ssr:stedsnr" v="82918" />
	</node>
	<node lat="58.086319441333245" lon="6.834541674898566" id="-20833">
		<tag k="alt_name" v="Midtfjordskjeret" />
		<tag k="fixme" v="consider seamark:type=rock or natural=shoal" />
		<tag k="name" v="Midtfjordskjær" />
		<tag k="place" v="islet" />
		<tag k="ssr:stedsnr" v="83394" />
	</node>
	<node lat="58.07063611366233" lon="6.8400361030791705" id="-20839">
		<tag k="name" v="Pettersgrunna" />
		<tag k="natural" v="shoal" />
		<tag k="place" v="locality" />
		<tag k="ssr:stedsnr" v="300215" />
	</node>
	<node lat="58.03733055274663" lon="6.913347223205225" id="-20840">
		<tag k="name" v="Klauvholmflua" />
		<tag k="natural" v="shoal" />
		<tag k="place" v="locality" />
		<tag k="ssr:stedsnr" v="99321" />
	</node>
	<node lat="58.06275000218252" lon="6.657652773734693" id="-20842">
		<tag k="name" v="Teistegrunnen" />
		<tag k="natural" v="shoal" />
		<tag k="place" v="locality" />
		<tag k="ssr:stedsnr" v="100274" />
	</node>
	<node lat="58.05916944828833" lon="6.875188888274263" id="-20844">
		<tag k="fixme" v="consider seamark:type=rock or natural=shoal" />
		<tag k="name" v="Hoffmannsknubben" />
		<tag k="place" v="islet" />
		<tag k="ssr:stedsnr" v="118118" />
	</node>
	<node lat="58.07807500042076" lon="6.84636945255071" id="-20845">
		<tag k="fixme" v="consider seamark:type=rock or natural=shoal" />
		<tag k="name" v="Tangeskjera" />
		<tag k="place" v="islet" />
		<tag k="ssr:stedsnr" v="118188" />
	</node>
	<node lat="58.037447221496215" lon="6.872091662077343" id="-20846">
		<tag k="name" v="Østre Roholmflua" />
		<tag k="natural" v="shoal" />
		<tag k="place" v="locality" />
		<tag k="ssr:stedsnr" v="118224" />
	</node>
	<node lat="58.11860555508833" lon="6.555838880980983" id="-20848">
		<tag k="name" v="Steinodden" />
		<tag k="natural" v="cape" />
		<tag k="ssr:stedsnr" v="121116" />
	</node>
	<node lat="58.18590000353992" lon="6.653841671117899" id="-20849">
		<tag k="name" v="Elleholman" />
		<tag k="place" v="islet" />
		<tag k="ssr:stedsnr" v="121167" />
	</node>
	<node lat="58.176330554040625" lon="6.70625555302742" id="-20858">
		<tag k="alt_name" v="Pollen, in" />
		<tag k="name" v="Indre Pollen" />
		<tag k="natural" v="bay" />
		<tag k="ssr:stedsnr" v="121213" />
	</node>
	<node lat="58.180086110714655" lon="6.633486111647094" id="-20860">
		<tag k="name" v="Vikholmen" />
		<tag k="place" v="islet" />
		<tag k="ssr:stedsnr" v="121204" />
	</node>
	<node lat="58.15957777706848" lon="6.745361109877378" id="-20863">
		<tag k="bay" v="fjord" />
		<tag k="name" v="Framvaren" />
		<tag k="natural" v="bay" />
		<tag k="ssr:stedsnr" v="121223" />
	</node>
	<node lat="58.0766138932848" lon="6.662561112248714" id="-20871">
		<tag k="name" v="Nesheimsanden" />
		<tag k="natural" v="beach" />
		<tag k="ssr:stedsnr" v="142387" />
	</node>
	<node lat="58.070838891131075" lon="6.9779388842313175" id="-20881">
		<tag k="fixme" v="consider seamark:type=rock or natural=shoal" />
		<tag k="name" v="Kileskjæran" />
		<tag k="place" v="islet" />
		<tag k="ssr:stedsnr" v="142469" />
	</node>
	<node lat="58.05053611177337" lon="6.90582499178437" id="-20894">
		<tag k="alt_name" v="Molaugdalsholmane" />
		<tag k="fixme" v="consider seamark:type=rock or natural=shoal" />
		<tag k="name" v="Malungdalsskjærene" />
		<tag k="place" v="islet" />
		<tag k="ssr:stedsnr" v="142994" />
	</node>
	<node lat="58.10614167000865" lon="6.790052770785445" id="-20898">
		<tag k="fixme" v="consider seamark:type=rock or natural=shoal" />
		<tag k="name" v="Steinskjeret" />
		<tag k="place" v="islet" />
		<tag k="ssr:stedsnr" v="145772" />
	</node>
	<node lat="58.10702222119267" lon="6.749727772514496" id="-20899">
		<tag k="name" v="Tåsvigbukta" />
		<tag k="natural" v="strait" />
		<tag k="ssr:stedsnr" v="145786" />
	</node>
	<node lat="58.18108333416899" lon="6.691580554895498" id="-20900">
		<tag k="name" v="Gunnarsholet" />
		<tag k="natural" v="bay" />
		<tag k="ssr:stedsnr" v="161646" />
	</node>
	<node lat="58.025336113666874" lon="6.856536106733175" id="-20902">
		<tag k="name" v="Øygardsgrunnen" />
		<tag k="natural" v="shoal" />
		<tag k="place" v="locality" />
		<tag k="ssr:stedsnr" v="162469" />
	</node>
	<node lat="58.08407499713285" lon="6.897372217955268" id="-20903">
		<tag k="name" v="Reisvågvika" />
		<tag k="natural" v="bay" />
		<tag k="ssr:stedsnr" v="179202" />
	</node>
	<node lat="58.06948055779969" lon="6.845530549031289" id="-20905">
		<tag k="name" v="Litle Lyngholmen" />
		<tag k="place" v="islet" />
		<tag k="ssr:stedsnr" v="179218" />
	</node>
	<node lat="58.07191388784276" lon="6.838583327579835" id="-20906">
		<tag k="name" v="Urøyodden" />
		<tag k="natural" v="cape" />
		<tag k="ssr:stedsnr" v="179231" />
	</node>
	<node lat="58.08983610879864" lon="6.811475007633864" id="-20907">
		<tag k="name" v="Søndre Engøybåen" />
		<tag k="natural" v="shoal" />
		<tag k="place" v="locality" />
		<tag k="ssr:stedsnr" v="179920" />
	</node>
	<node lat="58.081719448420365" lon="6.823386110044259" id="-20908">
		<tag k="name" v="Lamholmflua" />
		<tag k="natural" v="shoal" />
		<tag k="place" v="locality" />
		<tag k="ssr:stedsnr" v="179962" />
	</node>
	<node lat="58.09993115319464" lon="6.582124154853849" id="-20909">
		<tag k="alt_name" v="Borshamn" />
		<tag k="name" v="Borshavn" />
		<tag k="natural" v="bay" />
		<tag k="ssr:stedsnr" v="182102" />
	</node>
	<node lat="58.19045277735296" lon="6.681997219007026" id="-20910">
		<tag k="alt_name" v="Åsalvika" />
		<tag k="name" v="Asalvika" />
		<tag k="natural" v="bay" />
		<tag k="ssr:stedsnr" v="182162" />
	</node>
	<node lat="58.087525000176086" lon="6.815802772198027" id="-20912">
		<tag k="name" v="Fisholmen" />
		<tag k="place" v="islet" />
		<tag k="ssr:stedsnr" v="182311" />
	</node>
	<node lat="58.075344440769996" lon="6.651400006258803" id="-20913">
		<tag k="name" v="Østhasselstrand" />
		<tag k="natural" v="beach" />
		<tag k="ssr:stedsnr" v="182317" />
	</node>
	<node lat="58.07842222074904" lon="6.620883333350995" id="-20916">
		<tag k="fixme" v="consider seamark:type=rock or natural=shoal" />
		<tag k="name" v="Bergyltsteinen" />
		<tag k="place" v="islet" />
		<tag k="ssr:stedsnr" v="264392" />
	</node>
	<node lat="58.0702916646072" lon="6.6443722250784925" id="-20917">
		<tag k="name" v="Fuglevika" />
		<tag k="natural" v="bay" />
		<tag k="ssr:stedsnr" v="264393" />
	</node>
	<node lat="58.06938610842692" lon="6.974658326777112" id="-20928">
		<tag k="name" v="Skarsteinbukta" />
		<tag k="natural" v="bay" />
		<tag k="ssr:stedsnr" v="265946" />
	</node>
	<node lat="58.067136107982385" lon="6.726855560849514" id="-20929">
		<tag k="name" v="Tarevika" />
		<tag k="natural" v="bay" />
		<tag k="ssr:stedsnr" v="264472" />
	</node>
	<node lat="58.1301555587399" lon="6.743819448833138" id="-20934">
		<tag k="name" v="Hagenes" />
		<tag k="natural" v="cape" />
		<tag k="ssr:stedsnr" v="264556" />
	</node>
	<node lat="58.11136111311195" lon="6.787983333940683" id="-20936">
		<tag k="name" v="Brattestø" />
		<tag k="natural" v="bay" />
		<tag k="ssr:stedsnr" v="264576" />
	</node>
	<node lat="58.10916666264114" lon="6.809927774145068" id="-20937">
		<tag k="name" v="Gyrvika" />
		<tag k="natural" v="bay" />
		<tag k="ssr:stedsnr" v="264577" />
	</node>
	<node lat="58.05875277588926" lon="6.765288887748577" id="-20938">
		<tag k="fixme" v="consider seamark:type=rock or natural=shoal" />
		<tag k="name" v="Svartodden" />
		<tag k="place" v="islet" />
		<tag k="ssr:stedsnr" v="264655" />
	</node>
	<node lat="58.05774722304552" lon="6.785613884953719" id="-20939">
		<tag k="name" v="Storevik" />
		<tag k="natural" v="bay" />
		<tag k="ssr:stedsnr" v="264659" />
	</node>
	<node lat="58.1594305577662" lon="6.619061115298745" id="-20940">
		<tag k="fixme" v="consider seamark:type=rock or natural=shoal" />
		<tag k="name" v="Håskjer" />
		<tag k="place" v="islet" />
		<tag k="ssr:stedsnr" v="264678" />
	</node>
	<node lat="58.072691665439564" lon="6.8125194374143065" id="-20950">
		<tag k="name" v="Persholmen" />
		<tag k="place" v="islet" />
		<tag k="ssr:stedsnr" v="264525" />
	</node>
	<node lat="58.18443333571079" lon="6.809644449189392" id="-20955">
		<tag k="name" v="Sundet" />
		<tag k="natural" v="strait" />
		<tag k="ssr:stedsnr" v="264856" />
	</node>
	<node lat="58.04005278087797" lon="6.928761114700706" id="-20960">
		<tag k="name" v="Rekevika" />
		<tag k="natural" v="bay" />
		<tag k="ssr:stedsnr" v="264956" />
	</node>
	<node lat="58.17205277933497" lon="6.834994452530663" id="-20961">
		<tag k="name" v="Varodden" />
		<tag k="natural" v="cape" />
		<tag k="ssr:stedsnr" v="264957" />
	</node>
	<node lat="58.184472218070205" lon="6.8581472207683225" id="-20962">
		<tag k="name" v="Vedremarkstranda" />
		<tag k="natural" v="beach" />
		<tag k="ssr:stedsnr" v="264965" />
	</node>
	<node lat="58.183733329346126" lon="6.815077786377543" id="-20965">
		<tag k="name" v="Gloppebukta" />
		<tag k="natural" v="bay" />
		<tag k="ssr:stedsnr" v="264975" />
	</node>
	<node lat="58.103547220607695" lon="6.848316673841626" id="-20966">
		<tag k="name" v="Sævikbukta" />
		<tag k="natural" v="bay" />
		<tag k="ssr:stedsnr" v="265474" />
	</node>
	<node lat="58.04268055572602" lon="6.857816658803634" id="-20975">
		<tag k="alt_name" v="Roholman" />
		<tag k="name" v="Roholmene" />
		<tag k="place" v="islet" />
		<tag k="ssr:stedsnr" v="203545" />
	</node>
	<node lat="58.06434999705112" lon="6.771344446186064" id="-20992">
		<tag k="fixme" v="consider seamark:type=rock or natural=shoal" />
		<tag k="name" v="Litle Vragskjer" />
		<tag k="place" v="islet" />
		<tag k="ssr:stedsnr" v="268401" />
	</node>
	<node lat="58.06976110671156" lon="6.68051389197547" id="-20993">
		<tag k="name" v="Kalsodden" />
		<tag k="natural" v="cape" />
		<tag k="ssr:stedsnr" v="268917" />
	</node>
	<node lat="58.060888889670395" lon="6.82268888426093" id="-20994">
		<tag k="alt_name" v="Flåmaflua" />
		<tag k="name" v="Flommaflua" />
		<tag k="natural" v="shoal" />
		<tag k="place" v="locality" />
		<tag k="ssr:stedsnr" v="221102" />
	</node>
	<node lat="58.06312222135048" lon="6.820891659019986" id="-20995">
		<tag k="name" v="Storesundflua" />
		<tag k="natural" v="shoal" />
		<tag k="place" v="locality" />
		<tag k="ssr:stedsnr" v="221103" />
	</node>
	<node lat="58.04009444366722" lon="6.9065277850213" id="-20996">
		<tag k="fixme" v="consider seamark:type=rock or natural=shoal" />
		<tag k="name" v="Svartskjera" />
		<tag k="place" v="islet" />
		<tag k="ssr:stedsnr" v="221291" />
	</node>
	<node lat="58.06707499758056" lon="6.850983337897239" id="-20998">
		<tag k="name" v="Benteflua" />
		<tag k="natural" v="shoal" />
		<tag k="place" v="locality" />
		<tag k="ssr:stedsnr" v="240227" />
	</node>
	<node lat="58.06214999643455" lon="6.833852769756245" id="-20999">
		<tag k="name" v="Engelskjerflua" />
		<tag k="natural" v="shoal" />
		<tag k="place" v="locality" />
		<tag k="ssr:stedsnr" v="240234" />
	</node>
	<node lat="58.08602500249023" lon="6.931450006474814" id="-21002">
		<tag k="name" v="Dottholmen" />
		<tag k="place" v="islet" />
		<tag k="ssr:stedsnr" v="242310" />
	</node>
	<node lat="58.18632222142976" lon="6.81852777309117" id="-21003">
		<tag k="name" v="Gloppen" />
		<tag k="natural" v="cape" />
		<tag k="ssr:stedsnr" v="451838" />
	</node>
	<node lat="58.081047224804145" lon="6.925166664182661" id="-21007">
		<tag k="name" v="Vestre Vrangholmsundet" />
		<tag k="natural" v="strait" />
		<tag k="ssr:stedsnr" v="264441" />
	</node>
	<node lat="58.065224997678044" lon="6.974349996375231" id="-21013">
		<tag k="name" v="Kolevika" />
		<tag k="natural" v="bay" />
		<tag k="ssr:stedsnr" v="264496" />
	</node>
	<node lat="58.10847777651809" lon="6.812827784523874" id="-21014">
		<tag k="name" v="Vestervika" />
		<tag k="natural" v="bay" />
		<tag k="ssr:stedsnr" v="264500" />
	</node>
	<node lat="58.075808335778106" lon="6.87427777403395" id="-21021">
		<tag k="name" v="Terneholmen" />
		<tag k="place" v="islet" />
		<tag k="ssr:stedsnr" v="264536" />
	</node>
	<node lat="58.09877222082113" lon="6.790002780513418" id="-21025">
		<tag k="name" v="Klubben" />
		<tag k="natural" v="cape" />
		<tag k="ssr:stedsnr" v="264590" />
	</node>
	<node lat="58.03593611554345" lon="6.932586118749066" id="-21033">
		<tag k="fixme" v="consider seamark:type=rock or natural=shoal" />
		<tag k="name" v="Lille Kubbesteinen" />
		<tag k="place" v="islet" />
		<tag k="ssr:stedsnr" v="264953" />
	</node>
	<node lat="58.05192222035392" lon="6.968422223009181" id="-21037">
		<tag k="fixme" v="consider seamark:type=rock or natural=shoal" />
		<tag k="name" v="Bukkan" />
		<tag k="place" v="islet" />
		<tag k="ssr:stedsnr" v="282006" />
	</node>
	<node lat="58.06351110980531" lon="6.819986106672779" id="-21038">
		<tag k="name" v="Rundholmen" />
		<tag k="place" v="islet" />
		<tag k="ssr:stedsnr" v="282118" />
	</node>
	<node lat="58.06383889033004" lon="6.819169451649676" id="-21039">
		<tag k="name" v="Klaras holme" />
		<tag k="place" v="islet" />
		<tag k="ssr:stedsnr" v="282119" />
	</node>
	<node lat="58.073805551674646" lon="6.829769436598833" id="-21040">
		<tag k="name" v="Kong Sverre båen" />
		<tag k="place" v="locality" />
		<tag k="seamark:type" v="rock" />
		<tag k="ssr:stedsnr" v="282121" />
	</node>
	<node lat="58.04345277324195" lon="6.823361106165413" id="-21041">
		<tag k="name" v="Færøyflua" />
		<tag k="natural" v="shoal" />
		<tag k="place" v="locality" />
		<tag k="ssr:stedsnr" v="282229" />
	</node>
	<node lat="58.102630551949275" lon="6.80218889252188" id="-21042">
		<tag k="name" v="Litle Kilsholmen" />
		<tag k="place" v="islet" />
		<tag k="ssr:stedsnr" v="282288" />
	</node>
	<node lat="58.17316388744086" lon="6.62291388941685" id="-21043">
		<tag k="name" v="Solodden" />
		<tag k="natural" v="cape" />
		<tag k="ssr:stedsnr" v="283677" />
	</node>
	<node lat="58.05173610955149" lon="6.922913887801723" id="-21045">
		<tag k="name" v="Boltodden" />
		<tag k="natural" v="cape" />
		<tag k="ssr:stedsnr" v="463300" />
	</node>
	<node lat="58.045419448738954" lon="6.910741659998499" id="-21046">
		<tag k="fixme" v="consider seamark:type=rock or natural=shoal" />
		<tag k="name" v="Skjeret" />
		<tag k="place" v="islet" />
		<tag k="ssr:stedsnr" v="463302" />
	</node>
	<node lat="58.06343888437906" lon="6.918266663011217" id="-21047">
		<tag k="name" v="Skarvøyvika" />
		<tag k="natural" v="bay" />
		<tag k="ssr:stedsnr" v="300405" />
	</node>
	<node lat="58.088325002851896" lon="6.814622229921855" id="-21048">
		<tag k="name" v="Fisholmflua" />
		<tag k="natural" v="shoal" />
		<tag k="place" v="locality" />
		<tag k="ssr:stedsnr" v="300909" />
	</node>
	<node lat="58.10099166744216" lon="6.7752500036761445" id="-21049">
		<tag k="name" v="Sandvigodden" />
		<tag k="natural" v="cape" />
		<tag k="ssr:stedsnr" v="509741" />
	</node>
	<node lat="58.05595555873661" lon="6.775325007379934" id="-21050">
		<tag k="name" v="Langebåan" />
		<tag k="natural" v="shoal" />
		<tag k="place" v="locality" />
		<tag k="ssr:stedsnr" v="464038" />
	</node>
	<node lat="58.1061972214184" lon="6.566808325012966" id="-21051">
		<tag k="name" v="Torborgflua" />
		<tag k="place" v="locality" />
		<tag k="seamark:type" v="rock" />
		<tag k="ssr:stedsnr" v="464198" />
	</node>
	<node lat="58.08143055504532" lon="6.612191673496766" id="-21053">
		<tag k="fixme" v="consider seamark:type=rock or natural=shoal" />
		<tag k="name" v="Lakseskjeret" />
		<tag k="place" v="islet" />
		<tag k="ssr:stedsnr" v="464206" />
	</node>
	<node lat="58.19303611411765" lon="6.677330562003375" id="-21054">
		<tag k="name" v="Skagesteinodden" />
		<tag k="natural" v="cape" />
		<tag k="ssr:stedsnr" v="464225" />
	</node>
	<node lat="58.0934111096263" lon="6.588750000950292" id="-21055">
		<tag k="name" v="Tjørvebukta" />
		<tag k="natural" v="bay" />
		<tag k="ssr:stedsnr" v="303116" />
	</node>
	<node lat="58.0635861111942" lon="6.812286104515056" id="-21059">
		<tag k="name" v="Torkelsodden" />
		<tag k="natural" v="cape" />
		<tag k="ssr:stedsnr" v="464136" />
	</node>
	<node lat="58.06522777699314" lon="6.980777774198687" id="-21064">
		<tag k="bay" v="fjord" />
		<tag k="name" v="Rosfjorden" />
		<tag k="natural" v="bay" />
		<tag k="ssr:stedsnr" v="303613" />
	</node>
	<node lat="58.0719388886342" lon="6.814638897062701" id="-21066">
		<tag k="name" v="Fiskeholmen" />
		<tag k="place" v="islet" />
		<tag k="ssr:stedsnr" v="464990" />
	</node>
	<node lat="58.17758333487496" lon="6.662263891419823" id="-21067">
		<tag k="name" v="Breidvikbukta" />
		<tag k="natural" v="bay" />
		<tag k="ssr:stedsnr" v="465685" />
	</node>
	<node lat="58.0687611075351" lon="6.975450003875558" id="-21068">
		<tag k="fixme" v="consider seamark:type=rock or natural=shoal" />
		<tag k="name" v="Skarviksteinen" />
		<tag k="place" v="islet" />
		<tag k="ssr:stedsnr" v="324504" />
	</node>
	<node lat="58.04533333737745" lon="6.749319437352855" id="-21075">
		<tag k="fixme" v="consider seamark:type=rock or natural=shoal" />
		<tag k="name" v="Svaneflua" />
		<tag k="place" v="islet" />
		<tag k="ssr:stedsnr" v="324483" />
	</node>
	<node lat="58.086419448986156" lon="6.8056861130448745" id="-21080">
		<tag k="alt_name" v="Sundsodden" />
		<tag k="name" v="Naudodden" />
		<tag k="natural" v="cape" />
		<tag k="ssr:stedsnr" v="324608" />
	</node>
	<node lat="58.09035277916523" lon="6.612800005461019" id="-21084">
		<tag k="name" v="Bausje" />
		<tag k="natural" v="beach" />
		<tag k="ssr:stedsnr" v="324741" />
	</node>
	<node lat="58.08656667054322" lon="6.820550004951304" id="-21097">
		<tag k="alt_name" v="Skyskjer" />
		<tag k="fixme" v="consider seamark:type=rock or natural=shoal" />
		<tag k="name" v="Skydskjær" />
		<tag k="place" v="islet" />
		<tag k="ssr:stedsnr" v="325394" />
	</node>
	<node lat="58.085994444888264" lon="6.605050005350316" id="-21100">
		<tag k="fixme" v="consider seamark:type=rock or natural=shoal" />
		<tag k="name" v="Tjørsteinen" />
		<tag k="place" v="islet" />
		<tag k="ssr:stedsnr" v="328715" />
	</node>
	<node lat="58.049711114388664" lon="6.792950003311478" id="-21102">
		<tag k="fixme" v="consider seamark:type=rock or natural=shoal" />
		<tag k="name" v="Ytre Tolleskjeret" />
		<tag k="place" v="islet" />
		<tag k="ssr:stedsnr" v="342041" />
	</node>
	<node lat="58.05811666372875" lon="6.816536113543962" id="-21103">
		<tag k="name" v="Sandøyodden" />
		<tag k="natural" v="cape" />
		<tag k="ssr:stedsnr" v="342099" />
	</node>
	<node lat="58.066180552756244" lon="6.905052769524523" id="-21104">
		<tag k="name" v="Forostangen" />
		<tag k="natural" v="cape" />
		<tag k="ssr:stedsnr" v="342318" />
	</node>
	<node lat="58.06872221953809" lon="6.916499992784673" id="-21116">
		<tag k="name" v="Tjuvholmane" />
		<tag k="place" v="islet" />
		<tag k="ssr:stedsnr" v="482150" />
	</node>
	<node lat="58.04446666396415" lon="6.858880557274451" id="-21117">
		<tag k="name" v="Indre Roholmflua" />
		<tag k="natural" v="shoal" />
		<tag k="place" v="locality" />
		<tag k="ssr:stedsnr" v="482232" />
	</node>
	<node lat="58.064699997720155" lon="6.838630551722453" id="-21118">
		<tag k="fixme" v="consider seamark:type=rock or natural=shoal" />
		<tag k="name" v="Raudsteinen" />
		<tag k="place" v="islet" />
		<tag k="ssr:stedsnr" v="482183" />
	</node>
	<node lat="58.0764027757978" lon="6.853763887684083" id="-21119">
		<tag k="name" v="Pelodden" />
		<tag k="natural" v="cape" />
		<tag k="ssr:stedsnr" v="482198" />
	</node>
	<node lat="58.0537638870804" lon="6.921016667092994" id="-21120">
		<tag k="name" v="Kilodden" />
		<tag k="natural" v="cape" />
		<tag k="ssr:stedsnr" v="482387" />
	</node>
	<node lat="58.08033055615172" lon="6.62323889000831" id="-21124">
		<tag k="name" v="Steinsvika" />
		<tag k="natural" v="bay" />
		<tag k="ssr:stedsnr" v="385410" />
	</node>
	<node lat="58.15423610695927" lon="6.615991670217289" id="-21127">
		<tag k="name" v="Sillevika" />
		<tag k="natural" v="bay" />
		<tag k="ssr:stedsnr" v="385705" />
	</node>
	<node lat="58.05443889205131" lon="6.777397220325487" id="-21139">
		<tag k="alt_name" v="Flyndreskjeret" />
		<tag k="fixme" v="consider seamark:type=rock or natural=shoal" />
		<tag k="name" v="Pilkeskjær" />
		<tag k="place" v="islet" />
		<tag k="ssr:stedsnr" v="385692" />
	</node>
	<node lat="58.0710555584839" lon="6.773888888379629" id="-21140">
		<tag k="alt_name" v="Storskjeret" />
		<tag k="fixme" v="consider seamark:type=rock or natural=shoal" />
		<tag k="name" v="Storskjær" />
		<tag k="place" v="islet" />
		<tag k="ssr:stedsnr" v="385699" />
	</node>
	<node lat="58.093225004259274" lon="6.810605562264927" id="-21149">
		<tag k="name" v="Nordre Engøybåen" />
		<tag k="natural" v="shoal" />
		<tag k="place" v="locality" />
		<tag k="ssr:stedsnr" v="482897" />
	</node>
	<node lat="58.19834999933976" lon="6.866277775360464" id="-21152">
		<tag k="name" v="Litlandstrand" />
		<tag k="natural" v="bay" />
		<tag k="ssr:stedsnr" v="386813" />
	</node>
	<node lat="58.07914722473167" lon="6.822680558279031" id="-21154">
		<tag k="name" v="Store Bukkholmen" />
		<tag k="place" v="islet" />
		<tag k="ssr:stedsnr" v="482940" />
	</node>
	<node lat="58.103611114373614" lon="6.761666668653294" id="-21155">
		<tag k="name" v="Langebukta" />
		<tag k="natural" v="bay" />
		<tag k="ssr:stedsnr" v="388758" />
	</node>
	<node lat="58.182288892938956" lon="6.844911109633195" id="-21161">
		<tag k="bay" v="fjord" />
		<tag k="name" v="Drangsfjorden" />
		<tag k="natural" v="bay" />
		<tag k="ssr:stedsnr" v="485159" />
	</node>
	<node lat="58.139594440677776" lon="6.605827782458574" id="-21162">
		<tag k="name" v="Jøllestø" />
		<tag k="natural" v="beach" />
		<tag k="ssr:stedsnr" v="485174" />
	</node>
	<node lat="58.08398888976649" lon="6.794922220679869" id="-21167">
		<tag k="name" v="Lundevågen" />
		<tag k="natural" v="bay" />
		<tag k="ssr:stedsnr" v="485257" />
	</node>
	<node lat="58.09125555997488" lon="6.811263892576079" id="-21170">
		<tag k="name" v="Engøy" />
		<tag k="place" v="islet" />
		<tag k="ssr:stedsnr" v="485273" />
	</node>
	<node lat="58.05954444840228" lon="6.790744445687417" id="-21171">
		<tag k="alt_name" v="Einarsnes" />
		<tag k="name" v="Einarsneset" />
		<tag k="natural" v="cape" />
		<tag k="ssr:stedsnr" v="485287" />
	</node>
	<node lat="58.08219166651423" lon="6.838652774466946" id="-21173">
		<tag k="name" v="Håøyan" />
		<tag k="place" v="islet" />
		<tag k="ssr:stedsnr" v="485253" />
	</node>
	<node lat="58.031583337463495" lon="6.891844440422431" id="-21174">
		<tag k="alt_name" v="Midtfjordskjær" />
		<tag k="fixme" v="consider seamark:type=rock or natural=shoal" />
		<tag k="name" v="Midfjordskjeret" />
		<tag k="place" v="islet" />
		<tag k="ssr:stedsnr" v="485330" />
	</node>
	<node lat="58.034611111688264" lon="6.900677776353335" id="-21175">
		<tag k="alt_name" v="Korken, l;Lille Korken" />
		<tag k="fixme" v="consider seamark:type=rock or natural=shoal" />
		<tag k="name" v="Litle Korken" />
		<tag k="place" v="islet" />
		<tag k="ssr:stedsnr" v="485332" />
	</node>
	<node lat="58.036427776273484" lon="6.900216668417882" id="-21176">
		<tag k="alt_name" v="Korken, store" />
		<tag k="fixme" v="consider seamark:type=rock or natural=shoal" />
		<tag k="name" v="Store Korken" />
		<tag k="place" v="islet" />
		<tag k="ssr:stedsnr" v="485333" />
	</node>
	<node lat="58.178313888443206" lon="6.626361119522078" id="-21178">
		<tag k="alt_name" v="Varnes" />
		<tag k="name" v="Varneset" />
		<tag k="natural" v="cape" />
		<tag k="ssr:stedsnr" v="403161" />
	</node>
	<node lat="58.051952781736624" lon="6.8900583291083874" id="-21179">
		<tag k="name" v="Nilsholmen" />
		<tag k="place" v="islet" />
		<tag k="ssr:stedsnr" v="403247" />
	</node>
	<node lat="58.06672222378603" lon="6.904155550927463" id="-21180">
		<tag k="name" v="Kobbeflaket" />
		<tag k="place" v="locality" />
		<tag k="seamark:type" v="rock" />
		<tag k="ssr:stedsnr" v="403307" />
	</node>
	<node lat="58.06168888726434" lon="6.898669452191331" id="-21181">
		<tag k="name" v="Skarvøytangen" />
		<tag k="natural" v="cape" />
		<tag k="ssr:stedsnr" v="403311" />
	</node>
	<node lat="58.041466663881614" lon="6.893927778757849" id="-21182">
		<tag k="fixme" v="consider seamark:type=rock or natural=shoal" />
		<tag k="name" v="Tønsbergskjeret" />
		<tag k="place" v="islet" />
		<tag k="ssr:stedsnr" v="403276" />
	</node>
	<node lat="58.1465083302635" lon="6.841302785958031" id="-21183">
		<tag k="name" v="Grydlingsbukta" />
		<tag k="natural" v="bay" />
		<tag k="ssr:stedsnr" v="403498" />
	</node>
	<node lat="58.01776389070659" lon="6.888922219923812" id="-21184">
		<tag k="name" v="Østre Steinflua" />
		<tag k="natural" v="shoal" />
		<tag k="place" v="locality" />
		<tag k="ssr:stedsnr" v="405486" />
	</node>
	<node lat="58.05717777854766" lon="6.840119452017806" id="-21186">
		<tag k="name" v="Søndre Katland" />
		<tag k="place" v="islet" />
		<tag k="ssr:stedsnr" v="422203" />
	</node>
	<node lat="58.07413889284848" lon="6.861191671201565" id="-21187">
		<tag k="name" v="Kollabukta" />
		<tag k="natural" v="bay" />
		<tag k="ssr:stedsnr" v="422211" />
	</node>
	<node lat="58.075525003892885" lon="6.920563882706728" id="-21188">
		<tag k="name" v="Kanonodden" />
		<tag k="natural" v="cape" />
		<tag k="ssr:stedsnr" v="422146" />
	</node>
	<node lat="58.079502776525075" lon="6.833105550677874" id="-21189">
		<tag k="fixme" v="consider seamark:type=rock or natural=shoal" />
		<tag k="name" v="Håøyskjeret" />
		<tag k="place" v="islet" />
		<tag k="ssr:stedsnr" v="422152" />
	</node>
	<node lat="58.05901944271692" lon="6.8484833315862765" id="-21190">
		<tag k="name" v="Svartskjerflua" />
		<tag k="natural" v="shoal" />
		<tag k="place" v="locality" />
		<tag k="ssr:stedsnr" v="422194" />
	</node>
	<node lat="58.07068888822619" lon="6.8490027722889435" id="-21191">
		<tag k="fixme" v="consider seamark:type=rock or natural=shoal" />
		<tag k="name" v="Fugleskjeret" />
		<tag k="place" v="islet" />
		<tag k="ssr:stedsnr" v="422201" />
	</node>
	<node lat="58.21627221782128" lon="6.719330548800932" id="-21193">
		<tag k="bay" v="fjord" />
		<tag k="name" v="Fedafjorden" />
		<tag k="natural" v="bay" />
		<tag k="ssr:stedsnr" v="425118" />
	</node>
	<node lat="58.153116669309895" lon="6.818616671696665" id="-21195">
		<tag k="name" v="Saltnes" />
		<tag k="natural" v="cape" />
		<tag k="ssr:stedsnr" v="425245" />
	</node>
	<node lat="58.065030552944336" lon="6.819722214866361" id="-21201">
		<tag k="name" v="Nesodden" />
		<tag k="natural" v="cape" />
		<tag k="ssr:stedsnr" v="446532" />
	</node>
	<node lat="58.0621777782574" lon="6.74743611043225" id="-21204">
		<tag k="fixme" v="consider seamark:type=rock or natural=shoal" />
		<tag k="name" v="Skorveskjer" />
		<tag k="place" v="islet" />
		<tag k="ssr:stedsnr" v="446474" />
	</node>
	<node lat="58.1779388929481" lon="6.654561108762167" id="-21205">
		<tag k="name" v="Ellenesbukta" />
		<tag k="natural" v="bay" />
		<tag k="ssr:stedsnr" v="446480" />
	</node>
	<node lat="58.10756666548017" lon="6.819522225742157" id="-21207">
		<tag k="name" v="Langodden" />
		<tag k="natural" v="cape" />
		<tag k="ssr:stedsnr" v="446493" />
	</node>
	<node lat="58.04965832954601" lon="6.770805548361188" id="-21211">
		<tag k="name" v="Kirsten B flua" />
		<tag k="place" v="locality" />
		<tag k="seamark:type" v="rock" />
		<tag k="ssr:stedsnr" v="446639" />
	</node>
	<node lat="58.08004444276808" lon="6.84464722531312" id="-21215">
		<tag k="name" v="Håøysundet" />
		<tag k="natural" v="strait" />
		<tag k="ssr:stedsnr" v="446589" />
	</node>
	<node lat="58.12653055197116" lon="6.908611114381459" id="-21230">
		<tag k="name" v="Dåreidneset" />
		<tag k="natural" v="cape" />
		<tag k="ssr:stedsnr" v="446992" />
	</node>
	<node lat="58.057636111976905" lon="6.908066670896076" id="-21231">
		<tag k="name" v="Hestholmen" />
		<tag k="place" v="islet" />
		<tag k="ssr:stedsnr" v="446996" />
	</node>
	<node lat="58.063324999314645" lon="6.8185555497774395" id="-21236">
		<tag k="loc_name" v="Rebeccas holme" />
		<tag k="name" v="Svineholmen" />
		<tag k="place" v="islet" />
		<tag k="ssr:stedsnr" v="450405" />
	</node>
	<node lat="58.1032972229846" lon="6.574405554810539" id="-21238">
		<tag k="name" v="Pinkesteinen" />
		<tag k="natural" v="cape" />
		<tag k="ssr:stedsnr" v="464202" />
	</node>
	<node lat="58.062230557542996" lon="6.871124992633082" id="-21239">
		<tag k="name" v="Bremerbukta" />
		<tag k="natural" v="bay" />
		<tag k="ssr:stedsnr" v="482120" />
	</node>
	<node lat="58.06397222548219" lon="6.880211109834625" id="-21240">
		<tag k="name" v="Dugevika" />
		<tag k="natural" v="bay" />
		<tag k="ssr:stedsnr" v="482122" />
	</node>
	<node lat="58.06310832964199" lon="6.885652780740655" id="-21241">
		<tag k="name" v="Kjeholmflua" />
		<tag k="natural" v="shoal" />
		<tag k="place" v="locality" />
		<tag k="ssr:stedsnr" v="482126" />
	</node>
	<node lat="58.073766670199696" lon="6.893772230076523" id="-21244">
		<tag k="alt_name" v="Kveldsundet" />
		<tag k="name" v="Kveldsund" />
		<tag k="natural" v="strait" />
		<tag k="ssr:stedsnr" v="485305" />
	</node>
	<node lat="58.06190555765805" lon="6.907638890286707" id="-21245">
		<tag k="alt_name" v="Skarvøya" />
		<tag k="name" v="Skarvøy" />
		<tag k="place" v="island" />
		<tag k="ssr:stedsnr" v="485294" />
	</node>
	<node lat="58.0679583369169" lon="6.866286113604728" id="-21247">
		<tag k="alt_name" v="Trollaskjæran;Tollakskjeret" />
		<tag k="name" v="Tollaskjera" />
		<tag k="place" v="islet" />
		<tag k="ssr:stedsnr" v="485301" />
	</node>
	<node lat="58.116011109648774" lon="6.873261104402086" id="-21253">
		<tag k="name" v="Bjørgestrand" />
		<tag k="natural" v="beach" />
		<tag k="ssr:stedsnr" v="506975" />
	</node>
	<node lat="58.186272221180964" lon="6.684547224576578" id="-21254">
		<tag k="name" v="Skageodden" />
		<tag k="natural" v="cape" />
		<tag k="ssr:stedsnr" v="507358" />
	</node>
	<node lat="58.178786111745445" lon="6.624580549461796" id="-21255">
		<tag k="name" v="Steinsvika" />
		<tag k="natural" v="bay" />
		<tag k="ssr:stedsnr" v="507364" />
	</node>
	<node lat="58.08138889163721" lon="6.931838893682964" id="-21264">
		<tag k="name" v="Østre Vrangholmsundet" />
		<tag k="natural" v="strait" />
		<tag k="ssr:stedsnr" v="507428" />
	</node>
	<node lat="58.089077781395964" lon="6.929983333715186" id="-21267">
		<tag k="name" v="Nesodden" />
		<tag k="natural" v="cape" />
		<tag k="ssr:stedsnr" v="507461" />
	</node>
	<node lat="58.1787861076156" lon="6.673438881664823" id="-21268">
		<tag k="alt_name" v="Sauhagodden" />
		<tag k="name" v="Odden" />
		<tag k="natural" v="cape" />
		<tag k="ssr:stedsnr" v="507463" />
	</node>
	<node lat="58.08077222188801" lon="6.819741675022305" id="-21288">
		<tag k="name" v="Bertasbukta" />
		<tag k="natural" v="bay" />
		<tag k="ssr:stedsnr" v="509707" />
	</node>
	<node lat="58.06631110815709" lon="6.882005548445636" id="-21289">
		<tag k="name" v="Hovdeodden" />
		<tag k="natural" v="cape" />
		<tag k="ssr:stedsnr" v="543169" />
	</node>
	<node lat="58.11486944223257" lon="6.558422229859015" id="-21291">
		<tag k="alt_name" v="Sævika" />
		<tag k="name" v="Sevika" />
		<tag k="natural" v="bay" />
		<tag k="ssr:stedsnr" v="546107" />
	</node>
	<node lat="58.12195555729946" lon="6.569261107448573" id="-21292">
		<tag k="name" v="Verevågen" />
		<tag k="natural" v="bay" />
		<tag k="ssr:stedsnr" v="546109" />
	</node>
	<node lat="58.12336389202408" lon="6.5720583295656185" id="-21293">
		<tag k="name" v="Fiskesteinsodden" />
		<tag k="natural" v="cape" />
		<tag k="ssr:stedsnr" v="546111" />
	</node>
	<node lat="58.09481666818489" lon="6.809619450948082" id="-21299">
		<tag k="name" v="Farøy" />
		<tag k="place" v="islet" />
		<tag k="ssr:stedsnr" v="546309" />
	</node>
	<node lat="58.04524166598557" lon="6.894261113464369" id="-21301">
		<tag k="alt_name" v="Store Steinsholmen" />
		<tag k="name" v="Steinsholmen" />
		<tag k="place" v="islet" />
		<tag k="ssr:stedsnr" v="546375" />
	</node>
	<node lat="58.0693916668224" lon="6.960380548413622" id="-21303">
		<tag k="name" v="Skremmestø" />
		<tag k="natural" v="beach" />
		<tag k="ssr:stedsnr" v="689424" />
	</node>
	<node lat="58.063508337735094" lon="6.938416672388816" id="-21305">
		<tag k="name" v="Hummerholmen" />
		<tag k="place" v="islet" />
		<tag k="ssr:stedsnr" v="689427" />
	</node>
	<node lat="58.087302775492965" lon="6.839855557825719" id="-21309">
		<tag k="name" v="Klubbodden" />
		<tag k="natural" v="cape" />
		<tag k="ssr:stedsnr" v="689376" />
	</node>
	<node lat="58.061949996619774" lon="6.727419445782847" id="-21312">
		<tag k="name" v="Holmen" />
		<tag k="place" v="islet" />
		<tag k="ssr:stedsnr" v="689448" />
	</node>
	<node lat="58.06589444751706" lon="6.749613893629326" id="-21315">
		<tag k="name" v="Haugestranda" />
		<tag k="natural" v="beach" />
		<tag k="ssr:stedsnr" v="689452" />
	</node>
	<node lat="58.062666667080315" lon="6.780686108487444" id="-21324">
		<tag k="name" v="Grønnodden" />
		<tag k="natural" v="cape" />
		<tag k="ssr:stedsnr" v="689620" />
	</node>
	<node lat="58.05903611353882" lon="6.924119447118625" id="-21349">
		<tag k="name" v="Skarvøytangen" />
		<tag k="natural" v="cape" />
		<tag k="ssr:stedsnr" v="689948" />
	</node>
	<node lat="58.18508888492104" lon="6.840147215682868" id="-21352">
		<tag k="name" v="Gangstø" />
		<tag k="natural" v="bay" />
		<tag k="ssr:stedsnr" v="689970" />
	</node>
	<node lat="58.09962222523992" lon="6.791930559185096" id="-21354">
		<tag k="name" v="Øydalsbukta" />
		<tag k="natural" v="bay" />
		<tag k="ssr:stedsnr" v="692759" />
	</node>
	<node lat="58.186916666536185" lon="6.7460111142061505" id="-21356">
		<tag k="name" v="Storeholmen" />
		<tag k="place" v="islet" />
		<tag k="ssr:stedsnr" v="567422" />
	</node>
	<node lat="58.06461110923564" lon="6.929950000858569" id="-21357">
		<tag k="name" v="Grasholman" />
		<tag k="place" v="islet" />
		<tag k="ssr:stedsnr" v="567425" />
	</node>
	<node lat="58.0684694461609" lon="6.93264999293422" id="-21358">
		<tag k="name" v="Flatholmen" />
		<tag k="place" v="islet" />
		<tag k="ssr:stedsnr" v="567426" />
	</node>
	<node lat="58.07271944720385" lon="6.672686109531813" id="-21360">
		<tag k="name" v="Hummarsteinen" />
		<tag k="place" v="locality" />
		<tag k="seamark:type" v="rock" />
		<tag k="ssr:stedsnr" v="692897" />
	</node>
	<node lat="58.069641668690814" lon="6.81331388160332" id="-21364">
		<tag k="name" v="Vika" />
		<tag k="natural" v="bay" />
		<tag k="ssr:stedsnr" v="567519" />
	</node>
	<node lat="58.06972222451561" lon="6.717947219598488" id="-21371">
		<tag k="name" v="Hanangersanden" />
		<tag k="natural" v="beach" />
		<tag k="ssr:stedsnr" v="567465" />
	</node>
	<node lat="58.190763889421106" lon="6.87216945066505" id="-21381">
		<tag k="name" v="Kvennevika" />
		<tag k="natural" v="bay" />
		<tag k="ssr:stedsnr" v="567776" />
	</node>
	<node lat="58.16241666316114" lon="6.760311110636184" id="-21385">
		<tag k="name" v="Logedalsbukta" />
		<tag k="natural" v="bay" />
		<tag k="ssr:stedsnr" v="567926" />
	</node>
	<node lat="58.09493332958302" lon="6.814202775807337" id="-21387">
		<tag k="name" v="Nordsundet" />
		<tag k="natural" v="strait" />
		<tag k="ssr:stedsnr" v="568406" />
	</node>
	<node lat="58.1000916682023" lon="6.954372216984306" id="-21389">
		<tag k="bay" v="fjord" />
		<tag k="name" v="Egelandsfjorden" />
		<tag k="natural" v="bay" />
		<tag k="ssr:stedsnr" v="568458" />
	</node>
	<node lat="58.09336388469396" lon="6.9295999958560905" id="-21390">
		<tag k="name" v="Rabnevika" />
		<tag k="natural" v="bay" />
		<tag k="ssr:stedsnr" v="568463" />
	</node>
	<node lat="58.0506000039472" lon="6.892577772323577" id="-21396">
		<tag k="name" v="Rundholmen" />
		<tag k="place" v="islet" />
		<tag k="ssr:stedsnr" v="584290" />
	</node>
	<node lat="58.04836389129979" lon="6.883338881813091" id="-21397">
		<tag k="fixme" v="consider seamark:type=rock or natural=shoal" />
		<tag k="name" v="Vengen" />
		<tag k="place" v="islet" />
		<tag k="ssr:stedsnr" v="584291" />
	</node>
	<node lat="58.054991670445666" lon="6.963588889040926" id="-21398">
		<tag k="name" v="Søndre Kålevika" />
		<tag k="natural" v="bay" />
		<tag k="ssr:stedsnr" v="584415" />
	</node>
	<node lat="58.04673611219438" lon="6.901141667553806" id="-21399">
		<tag k="fixme" v="consider seamark:type=rock or natural=shoal" />
		<tag k="name" v="Asalskjeret" />
		<tag k="place" v="islet" />
		<tag k="ssr:stedsnr" v="584342" />
	</node>
	<node lat="58.04984166281659" lon="6.782874995235128" id="-21400">
		<tag k="name" v="Hummardusflua" />
		<tag k="natural" v="shoal" />
		<tag k="place" v="locality" />
		<tag k="ssr:stedsnr" v="585048" />
	</node>
	<node lat="58.18774167084475" lon="6.8489750012626045" id="-21401">
		<tag k="name" v="Ytre Seltebukta" />
		<tag k="natural" v="bay" />
		<tag k="ssr:stedsnr" v="585442" />
	</node>
	<node lat="58.06426666969992" lon="6.882819437960766" id="-21403">
		<tag k="name" v="Guleholmen" />
		<tag k="place" v="islet" />
		<tag k="ssr:stedsnr" v="603110" />
	</node>
	<node lat="58.069111109190274" lon="6.883941669595934" id="-21404">
		<tag k="name" v="Brattebrokka" />
		<tag k="natural" v="cape" />
		<tag k="ssr:stedsnr" v="603121" />
	</node>
	<node lat="58.05251388565519" lon="6.82687500507934" id="-21405">
		<tag k="fixme" v="consider seamark:type=rock or natural=shoal" />
		<tag k="name" v="Tallakskjeret" />
		<tag k="place" v="islet" />
		<tag k="ssr:stedsnr" v="603221" />
	</node>
	<node lat="58.087291671018846" lon="6.797397218747379" id="-21406">
		<tag k="name" v="Florida" />
		<tag k="natural" v="cape" />
		<tag k="ssr:stedsnr" v="603857" />
	</node>
	<node lat="58.18136188935462" lon="6.810173328268964" id="-21414">
		<tag k="name" v="Åptøya" />
		<tag k="place" v="island" />
		<tag k="ssr:stedsnr" v="606192" />
	</node>
	<node lat="58.16935833774374" lon="6.749402782039237" id="-21415">
		<tag k="name" v="Kalvenes" />
		<tag k="natural" v="cape" />
		<tag k="ssr:stedsnr" v="606200" />
	</node>
	<node lat="58.053338893255024" lon="6.772299993392892" id="-21416">
		<tag k="fixme" v="consider seamark:type=rock or natural=shoal" />
		<tag k="name" v="Knottan" />
		<tag k="place" v="islet" />
		<tag k="ssr:stedsnr" v="606322" />
	</node>
	<node lat="58.04405277706968" lon="6.946447218928849" id="-21417">
		<tag k="alt_name" v="Rosfjordskjera, in;Indre Rosfjordskjæran" />
		<tag k="fixme" v="consider seamark:type=rock or natural=shoal" />
		<tag k="name" v="Indre Rosfjordskjera" />
		<tag k="place" v="islet" />
		<tag k="ssr:stedsnr" v="606378" />
	</node>
	<node lat="58.0825138858337" lon="6.605500006000605" id="-21423">
		<tag k="alt_name" v="Nordhasselbukta" />
		<tag k="name" v="Nordhasselvika" />
		<tag k="natural" v="bay" />
		<tag k="ssr:stedsnr" v="607356" />
	</node>
	<node lat="58.07294444706163" lon="6.815766660722467" id="-21429">
		<tag k="name" v="Svenholmen" />
		<tag k="place" v="islet" />
		<tag k="ssr:stedsnr" v="628512" />
	</node>
	<node lat="58.09254444447707" lon="6.807594450967152" id="-21430">
		<tag k="name" v="Gåseholmen" />
		<tag k="place" v="islet" />
		<tag k="ssr:stedsnr" v="628604" />
	</node>
	<node lat="58.056452776917595" lon="6.79475832763388" id="-21437">
		<tag k="name" v="Sauodden" />
		<tag k="natural" v="cape" />
		<tag k="ssr:stedsnr" v="628658" />
	</node>
	<node lat="58.168408334687555" lon="6.838461103444076" id="-21439">
		<tag k="name" v="Lønodden" />
		<tag k="natural" v="cape" />
		<tag k="ssr:stedsnr" v="628823" />
	</node>
	<node lat="58.0973861144932" lon="6.746886106458936" id="-21442">
		<tag k="name" v="Kjørrefjordkilen" />
		<tag k="natural" v="bay" />
		<tag k="ssr:stedsnr" v="628598" />
	</node>
	<node lat="58.16615000005925" lon="6.815688888048575" id="-21448">
		<tag k="name" v="Rundeholmen" />
		<tag k="place" v="island" />
		<tag k="ssr:stedsnr" v="628802" />
	</node>
	<node lat="58.18160277524553" lon="6.849219437895283" id="-21454">
		<tag k="name" v="Frosteskjærodden" />
		<tag k="natural" v="cape" />
		<tag k="ssr:stedsnr" v="628948" />
	</node>
	<node lat="58.09746666275936" lon="6.577772222413976" id="-21456">
		<tag k="name" v="Havneflua" />
		<tag k="place" v="locality" />
		<tag k="seamark:type" v="rock" />
		<tag k="ssr:stedsnr" v="631736" />
	</node>
	<node lat="58.07855555601417" lon="6.82016389229006" id="-21457">
		<tag k="name" v="Gjerdebergholmen" />
		<tag k="place" v="islet" />
		<tag k="ssr:stedsnr" v="632917" />
	</node>
	<node lat="58.04756111098878" lon="6.884841666352446" id="-21458">
		<tag k="fixme" v="consider seamark:type=rock or natural=shoal" />
		<tag k="name" v="Hetta" />
		<tag k="place" v="islet" />
		<tag k="ssr:stedsnr" v="706259" />
	</node>
	<node lat="58.099916666505756" lon="6.579488889429278" id="-21459">
		<tag k="name" v="Litleholmen" />
		<tag k="place" v="islet" />
		<tag k="ssr:stedsnr" v="706151" />
	</node>
	<node lat="58.04508332884924" lon="6.7768999937492165" id="-21461">
		<tag k="name" v="Ytre Hummardusflua" />
		<tag k="natural" v="shoal" />
		<tag k="place" v="locality" />
		<tag k="ssr:stedsnr" v="645024" />
	</node>
	<node lat="58.046616670282084" lon="6.786497214029809" id="-21462">
		<tag k="name" v="Knatten" />
		<tag k="natural" v="shoal" />
		<tag k="place" v="locality" />
		<tag k="ssr:stedsnr" v="645303" />
	</node>
	<node lat="58.06171666385245" lon="6.813874993382484" id="-21463">
		<tag k="name" v="Buodden" />
		<tag k="natural" v="cape" />
		<tag k="ssr:stedsnr" v="646113" />
	</node>
	<node lat="58.04651944621549" lon="6.778877784615768" id="-21464">
		<tag k="name" v="Flaten" />
		<tag k="natural" v="shoal" />
		<tag k="place" v="locality" />
		<tag k="ssr:stedsnr" v="707033" />
	</node>
	<node lat="58.07293055961901" lon="6.827041661611031" id="-21465">
		<tag k="name" v="Øynalandet" />
		<tag k="natural" v="cape" />
		<tag k="ssr:stedsnr" v="707133" />
	</node>
	<node lat="58.07574444254317" lon="6.882600004716987" id="-21467">
		<tag k="name" v="Kjeldevika" />
		<tag k="natural" v="bay" />
		<tag k="ssr:stedsnr" v="664109" />
	</node>
	<node lat="58.078819442789445" lon="6.9110277841323215" id="-21468">
		<tag k="name" v="Bronodden" />
		<tag k="natural" v="cape" />
		<tag k="ssr:stedsnr" v="664111" />
	</node>
	<node lat="58.08086111183215" lon="6.835211118027229" id="-21469">
		<tag k="name" v="Håøysundet" />
		<tag k="natural" v="strait" />
		<tag k="ssr:stedsnr" v="664147" />
	</node>
	<node lat="58.065241671089034" lon="6.837613889723934" id="-21470">
		<tag k="name" v="Raudsteinflua" />
		<tag k="natural" v="shoal" />
		<tag k="place" v="locality" />
		<tag k="ssr:stedsnr" v="664182" />
	</node>
	<node lat="58.18594999757437" lon="6.6864333254317465" id="-21471">
		<tag k="name" v="Skagestranda" />
		<tag k="natural" v="beach" />
		<tag k="ssr:stedsnr" v="709829" />
	</node>
	<node lat="58.20562222417868" lon="6.717102784143224" id="-21472">
		<tag k="name" v="Gjeiskelibukta" />
		<tag k="natural" v="bay" />
		<tag k="ssr:stedsnr" v="709830" />
	</node>
	<node lat="58.10405277754793" lon="6.7896055621559" id="-21479">
		<tag k="name" v="Bjørsvika" />
		<tag k="natural" v="bay" />
		<tag k="ssr:stedsnr" v="667287" />
	</node>
	<node lat="58.043216665461166" lon="6.903208326460864" id="-21485">
		<tag k="name" v="Vikelen" />
		<tag k="place" v="island" />
		<tag k="ssr:stedsnr" v="667390" />
	</node>
	<node lat="58.039225001388125" lon="6.912102785406086" id="-21486">
		<tag k="name" v="Klauholmen" />
		<tag k="place" v="islet" />
		<tag k="ssr:stedsnr" v="667391" />
	</node>
	<node lat="58.06355555904472" lon="6.944177781494865" id="-21488">
		<tag k="name" v="Skjølvika" />
		<tag k="natural" v="bay" />
		<tag k="ssr:stedsnr" v="689429" />
	</node>
	<node lat="58.06935277670047" lon="6.88469166375678" id="-21499">
		<tag k="name" v="Hagevika" />
		<tag k="natural" v="bay" />
		<tag k="ssr:stedsnr" v="689504" />
	</node>
	<node lat="58.053072222088225" lon="6.820561107390331" id="-21500">
		<tag k="alt_name" v="Olaskjeret" />
		<tag k="name" v="Olavsholmen" />
		<tag k="place" v="islet" />
		<tag k="ssr:stedsnr" v="689508" />
	</node>
	<node lat="58.12307777390235" lon="6.861563887466857" id="-21501">
		<tag k="name" v="Spundsodden" />
		<tag k="natural" v="cape" />
		<tag k="ssr:stedsnr" v="689512" />
	</node>
	<node lat="58.21391110711674" lon="6.73305278429764" id="-21515">
		<tag k="name" v="Sandviksodden" />
		<tag k="natural" v="cape" />
		<tag k="ssr:stedsnr" v="689885" />
	</node>
	<node lat="58.15809166948493" lon="6.805224996129111" id="-21522">
		<tag k="name" v="Sandsbukta" />
		<tag k="natural" v="bay" />
		<tag k="ssr:stedsnr" v="689912" />
	</node>
	<node lat="58.043994445306986" lon="6.882350008045537" id="-21524">
		<tag k="alt_name" v="Klauskjær" />
		<tag k="fixme" v="consider seamark:type=rock or natural=shoal" />
		<tag k="name" v="Klauskjer" />
		<tag k="place" v="islet" />
		<tag k="ssr:stedsnr" v="689990" />
	</node>
	<node lat="58.05215609537143" lon="6.7931986183123865" id="-21527">
		<tag k="name" v="Revøysundflua" />
		<tag k="natural" v="shoal" />
		<tag k="place" v="locality" />
		<tag k="ssr:stedsnr" v="707058" />
	</node>
	<node lat="58.056572226434255" lon="6.797375007181725" id="-21528">
		<tag k="name" v="Manndraparen" />
		<tag k="natural" v="shoal" />
		<tag k="place" v="locality" />
		<tag k="ssr:stedsnr" v="707071" />
	</node>
	<node lat="58.054052777859106" lon="6.817019452100973" id="-21529">
		<tag k="name" v="Kalveflua" />
		<tag k="natural" v="shoal" />
		<tag k="place" v="locality" />
		<tag k="ssr:stedsnr" v="707075" />
	</node>
	<node lat="58.05743888891821" lon="6.8074222233974835" id="-21530">
		<tag k="fixme" v="consider seamark:type=rock or natural=shoal" />
		<tag k="name" v="Kastellet" />
		<tag k="place" v="islet" />
		<tag k="ssr:stedsnr" v="707080" />
	</node>
	<node lat="58.058252777908194" lon="6.879327776483322" id="-21531">
		<tag k="name" v="Ingeborgflua" />
		<tag k="natural" v="shoal" />
		<tag k="place" v="locality" />
		<tag k="ssr:stedsnr" v="725122" />
	</node>
	<node lat="58.074347224632746" lon="6.857549999081831" id="-21532">
		<tag k="name" v="Kjerringa" />
		<tag k="natural" v="shoal" />
		<tag k="place" v="locality" />
		<tag k="ssr:stedsnr" v="725204" />
	</node>
	<node lat="58.09439722635604" lon="6.787422215731487" id="-21533">
		<tag k="name" v="Sundestranda" />
		<tag k="natural" v="beach" />
		<tag k="ssr:stedsnr" v="725834" />
	</node>
	<node lat="58.056627776147955" lon="6.8253333341160305" id="-21540">
		<tag k="alt_name" v="Færøya" />
		<tag k="name" v="Færøy" />
		<tag k="place" v="islet" />
		<tag k="ssr:stedsnr" v="728305" />
	</node>
	<node lat="58.060899998625786" lon="6.818224996249886" id="-21542">
		<tag k="alt_name" v="Sandøya" />
		<tag k="name" v="Sandøy" />
		<tag k="place" v="island" />
		<tag k="ssr:stedsnr" v="728308" />
	</node>
	<node lat="58.05189919239215" lon="6.756853304473683" id="-21543">
		<tag k="alt_name" v="Skågskjera" />
		<tag k="fixme" v="consider seamark:type=rock or natural=shoal" />
		<tag k="name" v="Skårskjera" />
		<tag k="place" v="islet" />
		<tag k="ssr:stedsnr" v="728313" />
	</node>
	<node lat="58.04176388512808" lon="6.95650000261379" id="-21545">
		<tag k="alt_name" v="Rosfjordskjera, yt;Ytre Rosfjordskjæran" />
		<tag k="fixme" v="consider seamark:type=rock or natural=shoal" />
		<tag k="name" v="Ytre Rosfjordskjera" />
		<tag k="place" v="islet" />
		<tag k="ssr:stedsnr" v="728372" />
	</node>
	<node lat="58.17662499833983" lon="6.665033335146544" id="-21557">
		<tag k="name" v="Teines" />
		<tag k="natural" v="cape" />
		<tag k="ssr:stedsnr" v="749505" />
	</node>
	<node lat="58.177880552600925" lon="6.628694452524162" id="-21579">
		<tag k="name" v="Svendsvika" />
		<tag k="natural" v="bay" />
		<tag k="ssr:stedsnr" v="750365" />
	</node>
	<node lat="58.09332777557422" lon="6.942627775065936" id="-21581">
		<tag k="name" v="Lyngholman" />
		<tag k="place" v="island" />
		<tag k="ssr:stedsnr" v="750466" />
	</node>
	<node lat="58.101208329281" lon="6.740852786437274" id="-21582">
		<tag k="name" v="Bilandsbukta" />
		<tag k="natural" v="bay" />
		<tag k="ssr:stedsnr" v="752767" />
	</node>
	<node lat="58.07423889202669" lon="6.824675003270402" id="-21584">
		<tag k="name" v="Tjuvholmbukta" />
		<tag k="natural" v="bay" />
		<tag k="ssr:stedsnr" v="767110" />
	</node>
	<node lat="58.06878055257537" lon="6.819225000561263" id="-21585">
		<tag k="fixme" v="consider seamark:type=rock or natural=shoal" />
		<tag k="name" v="Svartskjeret" />
		<tag k="place" v="islet" />
		<tag k="ssr:stedsnr" v="767112" />
	</node>
	<node lat="58.070049998588" lon="6.81673888886146" id="-21586">
		<tag k="fixme" v="consider seamark:type=rock or natural=shoal" />
		<tag k="name" v="Sølvskjeret" />
		<tag k="place" v="islet" />
		<tag k="ssr:stedsnr" v="767113" />
	</node>
	<node lat="58.11888888831996" lon="6.550575000306208" id="-21587">
		<tag k="name" v="Manneflua" />
		<tag k="place" v="locality" />
		<tag k="seamark:type" v="rock" />
		<tag k="ssr:stedsnr" v="767161" />
	</node>
	<node lat="58.04707499726358" lon="6.763355549486692" id="-21588">
		<tag k="name" v="Svensflua" />
		<tag k="place" v="locality" />
		<tag k="seamark:type" v="rock" />
		<tag k="ssr:stedsnr" v="767309" />
	</node>
	<node lat="58.06540555913787" lon="6.733947220722435" id="-21589">
		<tag k="name" v="Store Havika" />
		<tag k="natural" v="bay" />
		<tag k="ssr:stedsnr" v="767311" />
	</node>
	<node lat="58.05110833112608" lon="6.879261104549679" id="-21590">
		<tag k="name" v="Måkeholman" />
		<tag k="place" v="islet" />
		<tag k="ssr:stedsnr" v="767238" />
	</node>
	<node lat="58.04810277664108" lon="6.874677771972878" id="-21591">
		<tag k="name" v="Flassa" />
		<tag k="natural" v="shoal" />
		<tag k="place" v="locality" />
		<tag k="ssr:stedsnr" v="767241" />
	</node>
	<node lat="58.07302777423895" lon="6.905752773843933" id="-21592">
		<tag k="name" v="Sørstranda" />
		<tag k="natural" v="beach" />
		<tag k="ssr:stedsnr" v="907147" />
	</node>
	<node lat="58.06674999582431" lon="6.923430547684047" id="-21593">
		<tag k="name" v="Tåfjellflua" />
		<tag k="natural" v="shoal" />
		<tag k="place" v="locality" />
		<tag k="ssr:stedsnr" v="907149" />
	</node>
	<node lat="58.17867778171821" lon="6.690308325892688" id="-21594">
		<tag k="name" v="Hausen" />
		<tag k="natural" v="shoal" />
		<tag k="place" v="locality" />
		<tag k="ssr:stedsnr" v="768697" />
	</node>
	<node lat="58.057011110188434" lon="6.9174722298524225" id="-21596">
		<tag k="name" v="Skarvøyflua" />
		<tag k="natural" v="shoal" />
		<tag k="place" v="locality" />
		<tag k="ssr:stedsnr" v="907349" />
	</node>
	<node lat="58.12750278066813" lon="6.59105277701764" id="-21599">
		<tag k="alt_name" v="Stavestø" />
		<tag k="name" v="Stavstø" />
		<tag k="natural" v="bay" />
		<tag k="ssr:stedsnr" v="910112" />
	</node>
	<node lat="58.088911110650116" lon="6.598047217268138" id="-21603">
		<tag k="name" v="Tjørveneset" />
		<tag k="natural" v="cape" />
		<tag k="ssr:stedsnr" v="910120" />
	</node>
	<node lat="58.049055556230385" lon="6.79580000221391" id="-21607">
		<tag k="alt_name" v="Revøy" />
		<tag k="name" v="Revøya" />
		<tag k="place" v="islet" />
		<tag k="ssr:stedsnr" v="910351" />
	</node>
	<node lat="58.072230556759116" lon="6.819891668084995" id="-21608">
		<tag k="name" v="Store Eigerøya" />
		<tag k="place" v="island" />
		<tag k="ssr:stedsnr" v="910357" />
	</node>
	<node lat="58.049369444769404" lon="6.8857138839594345" id="-21610">
		<tag k="alt_name" v="Gåsholmane;Store Gåsøy" />
		<tag k="name" v="Gåsholman" />
		<tag k="place" v="islet" />
		<tag k="ssr:stedsnr" v="910397" />
	</node>
	<node lat="58.065358328973325" lon="6.879838887339201" id="-21614">
		<tag k="name" v="Sjøbuvika" />
		<tag k="natural" v="bay" />
		<tag k="ssr:stedsnr" v="786128" />
	</node>
	<node lat="58.06263888988315" lon="6.884358336631535" id="-21615">
		<tag k="name" v="Kjeholmen" />
		<tag k="place" v="islet" />
		<tag k="ssr:stedsnr" v="786130" />
	</node>
	<node lat="58.06085277570212" lon="6.835811112932757" id="-21616">
		<tag k="fixme" v="consider seamark:type=rock or natural=shoal" />
		<tag k="name" v="Engelskjer" />
		<tag k="place" v="islet" />
		<tag k="ssr:stedsnr" v="786206" />
	</node>
	<node lat="58.07590278188352" lon="6.836919437091406" id="-21617">
		<tag k="fixme" v="consider seamark:type=rock or natural=shoal" />
		<tag k="name" v="Ankerskjeret" />
		<tag k="place" v="islet" />
		<tag k="ssr:stedsnr" v="786219" />
	</node>
	<node lat="58.05455000380129" lon="6.918547230151997" id="-21618">
		<tag k="name" v="Terøybåen" />
		<tag k="place" v="locality" />
		<tag k="seamark:type" v="rock" />
		<tag k="ssr:stedsnr" v="786411" />
	</node>
	<node lat="58.06964999796921" lon="6.878124995178281" id="-21621">
		<tag k="name" v="Langøy" />
		<tag k="place" v="island" />
		<tag k="ssr:stedsnr" v="788349" />
	</node>
	<node lat="58.06018055704023" lon="6.674002775993474" id="-21629">
		<tag k="name" v="Steintangen" />
		<tag k="natural" v="cape" />
		<tag k="ssr:stedsnr" v="810382" />
	</node>
	<node lat="58.06743888641441" lon="6.872963894849799" id="-21633">
		<tag k="name" v="Sørbukta" />
		<tag k="natural" v="bay" />
		<tag k="ssr:stedsnr" v="810542" />
	</node>
	<node lat="58.10988611528122" lon="6.821369450537229" id="-21641">
		<tag k="name" v="Knygebukta" />
		<tag k="natural" v="bay" />
		<tag k="ssr:stedsnr" v="810492" />
	</node>
	<node lat="58.193344440486705" lon="6.672691671461914" id="-21644">
		<tag k="name" v="Skageflua" />
		<tag k="place" v="locality" />
		<tag k="seamark:type" v="rock" />
		<tag k="ssr:stedsnr" v="810931" />
	</node>
	<node lat="58.051994440391404" lon="6.9470500023638575" id="-21645">
		<tag k="name" v="Søvågen" />
		<tag k="natural" v="bay" />
		<tag k="ssr:stedsnr" v="810944" />
	</node>
	<node lat="58.05910833290143" lon="6.943405553873089" id="-21647">
		<tag k="name" v="Rona" />
		<tag k="natural" v="bay" />
		<tag k="ssr:stedsnr" v="810952" />
	</node>
	<node lat="58.182833331624494" lon="6.854541670768026" id="-21649">
		<tag k="name" v="Seilbørvika" />
		<tag k="natural" v="bay" />
		<tag k="ssr:stedsnr" v="810966" />
	</node>
	<node lat="58.100447219331116" lon="6.830377777305922" id="-21653">
		<tag k="name" v="Følsvika" />
		<tag k="natural" v="bay" />
		<tag k="ssr:stedsnr" v="811392" />
	</node>
	<node lat="58.04145555781809" lon="6.919341672780756" id="-21661">
		<tag k="name" v="Oksebåsen" />
		<tag k="natural" v="shoal" />
		<tag k="place" v="locality" />
		<tag k="ssr:stedsnr" v="828307" />
	</node>
	<node lat="58.07806666868347" lon="6.86826666099799" id="-21662">
		<tag k="name" v="Sandvika" />
		<tag k="natural" v="bay" />
		<tag k="ssr:stedsnr" v="847204" />
	</node>
	<node lat="58.091186113501756" lon="6.835280557717727" id="-21663">
		<tag k="name" v="Bekkevika" />
		<tag k="natural" v="bay" />
		<tag k="ssr:stedsnr" v="847207" />
	</node>
	<node lat="58.06469166554505" lon="6.845447225875297" id="-21664">
		<tag k="fixme" v="consider seamark:type=rock or natural=shoal" />
		<tag k="name" v="Østre Raudsteinen" />
		<tag k="place" v="islet" />
		<tag k="ssr:stedsnr" v="847222" />
	</node>
	<node lat="58.087651112857074" lon="6.799654199667942" id="-21665">
		<tag k="name" v="Kjørestadflua" />
		<tag k="natural" v="shoal" />
		<tag k="place" v="locality" />
		<tag k="ssr:stedsnr" v="847857" />
	</node>
	<node lat="58.0839027806504" lon="6.916305557313498" id="-21669">
		<tag k="name" v="Agnekilen" />
		<tag k="natural" v="bay" />
		<tag k="ssr:stedsnr" v="849373" />
	</node>
	<node lat="58.113424996228034" lon="6.55727777184831" id="-21670">
		<tag k="name" v="Skarvodden" />
		<tag k="natural" v="cape" />
		<tag k="ssr:stedsnr" v="850106" />
	</node>
	<node lat="58.194316664363214" lon="6.613652782654308" id="-21671">
		<tag k="bay" v="fjord" />
		<tag k="name" v="Listafjorden" />
		<tag k="natural" v="bay" />
		<tag k="ssr:stedsnr" v="850111" />
	</node>
	<node lat="58.066005551972026" lon="6.935388881456316" id="-21676">
		<tag k="alt_name" v="Håøy" />
		<tag k="name" v="Håøya" />
		<tag k="place" v="islet" />
		<tag k="ssr:stedsnr" v="850381" />
	</node>
	<node lat="58.04036944466167" lon="6.860175005157302" id="-21679">
		<tag k="name" v="Roholmen" />
		<tag k="place" v="islet" />
		<tag k="ssr:stedsnr" v="850421" />
	</node>
	<node lat="58.06932500390766" lon="6.683680550546799" id="-21682">
		<tag k="name" v="Kviljosanden" />
		<tag k="natural" v="beach" />
		<tag k="ssr:stedsnr" v="871373" />
	</node>
	<node lat="58.07497499899834" lon="6.915394449509291" id="-21684">
		<tag k="alt_name" v="Ytre Bugdøy" />
		<tag k="name" v="Bugdøy" />
		<tag k="natural" v="cape" />
		<tag k="ssr:stedsnr" v="871516" />
	</node>
	<node lat="58.07816944486267" lon="6.86932500729297" id="-21685">
		<tag k="alt_name" v="Bjørnnesodden" />
		<tag k="name" v="Bjødnesodden" />
		<tag k="natural" v="cape" />
		<tag k="ssr:stedsnr" v="871519" />
	</node>
	<node lat="58.18155277860584" lon="6.69131110357647" id="-21688">
		<tag k="name" v="Jensestø" />
		<tag k="natural" v="bay" />
		<tag k="ssr:stedsnr" v="871465" />
	</node>
	<node lat="58.12538611437357" lon="6.9130944391893445" id="-21701">
		<tag k="name" v="Dåreidstranda" />
		<tag k="natural" v="bay" />
		<tag k="ssr:stedsnr" v="871986" />
	</node>
	<node lat="58.19783611431132" lon="6.696133336635088" id="-21705">
		<tag k="name" v="Skagelistranda" />
		<tag k="natural" v="beach" />
		<tag k="ssr:stedsnr" v="931955" />
	</node>
	<node lat="58.17436944005023" lon="6.623880548648073" id="-21708">
		<tag k="name" v="Varnesvika" />
		<tag k="natural" v="bay" />
		<tag k="ssr:stedsnr" v="932372" />
	</node>
	<node lat="58.05886388872542" lon="6.661744446162899" id="-21709">
		<tag k="fixme" v="consider seamark:type=rock or natural=shoal" />
		<tag k="name" v="Vestre Kattesteinen" />
		<tag k="place" v="islet" />
		<tag k="ssr:stedsnr" v="932380" />
	</node>
	<node lat="58.071752777213376" lon="6.920577778689105" id="-21715">
		<tag k="name" v="Austnes" />
		<tag k="natural" v="cape" />
		<tag k="ssr:stedsnr" v="932428" />
	</node>
	<node lat="58.05008611096138" lon="6.768516674273322" id="-21718">
		<tag k="fixme" v="consider seamark:type=rock or natural=shoal" />
		<tag k="name" v="Knattan" />
		<tag k="place" v="islet" />
		<tag k="ssr:stedsnr" v="932596" />
	</node>
	<node lat="58.147208333388946" lon="6.838513892947004" id="-21722">
		<tag k="name" v="Abalnes" />
		<tag k="natural" v="cape" />
		<tag k="ssr:stedsnr" v="932499" />
	</node>
	<node lat="58.06638055510338" lon="6.723016668072392" id="-21731">
		<tag k="fixme" v="consider seamark:type=rock or natural=shoal" />
		<tag k="name" v="Store Naudeskjeret" />
		<tag k="place" v="islet" />
		<tag k="ssr:stedsnr" v="932454" />
	</node>
	<node lat="58.098697223744594" lon="6.939958341641222" id="-21734">
		<tag k="name" v="Buvika" />
		<tag k="natural" v="bay" />
		<tag k="ssr:stedsnr" v="932462" />
	</node>
	<node lat="58.183288891547754" lon="6.688733324940509" id="-21736">
		<tag k="name" v="Sniksodden" />
		<tag k="natural" v="cape" />
		<tag k="ssr:stedsnr" v="932475" />
	</node>
	<node lat="58.066658334421184" lon="6.975919451740744" id="-21737">
		<tag k="name" v="Espenesodden" />
		<tag k="natural" v="cape" />
		<tag k="ssr:stedsnr" v="932476" />
	</node>
	<node lat="58.08417221819106" lon="6.85527222720959" id="-21741">
		<tag k="name" v="Vardodden" />
		<tag k="natural" v="cape" />
		<tag k="ssr:stedsnr" v="932548" />
	</node>
	<node lat="58.101669446269156" lon="6.794922219047027" id="-21744">
		<tag k="name" v="Øynehobden" />
		<tag k="natural" v="cape" />
		<tag k="ssr:stedsnr" v="932571" />
	</node>
	<node lat="58.05168888675032" lon="6.7599999981157115" id="-21749">
		<tag k="alt_name" v="Lille Skårskjær" />
		<tag k="fixme" v="consider seamark:type=rock or natural=shoal" />
		<tag k="name" v="Lille Skårskjer" />
		<tag k="place" v="islet" />
		<tag k="ssr:stedsnr" v="932632" />
	</node>
	<node lat="58.08251388499785" lon="6.778705560159255" id="-21750">
		<tag k="name" v="Fjellestadbukta" />
		<tag k="natural" v="bay" />
		<tag k="ssr:stedsnr" v="932635" />
	</node>
	<node lat="58.06440277831215" lon="6.80539444988888" id="-21751">
		<tag k="name" v="Søndrehall" />
		<tag k="natural" v="cape" />
		<tag k="ssr:stedsnr" v="932636" />
	</node>
	<node lat="58.16170833423498" lon="6.620324999180233" id="-21753">
		<tag k="name" v="Drengesundet" />
		<tag k="natural" v="strait" />
		<tag k="ssr:stedsnr" v="932645" />
	</node>
	<node lat="58.13234721997734" lon="6.867938887801449" id="-21769">
		<tag k="name" v="Dridarodden" />
		<tag k="natural" v="cape" />
		<tag k="ssr:stedsnr" v="932966" />
	</node>
	<node lat="58.05866944781806" lon="6.879283327461837" id="-21773">
		<tag k="name" v="Bremerodden" />
		<tag k="natural" v="cape" />
		<tag k="ssr:stedsnr" v="932994" />
	</node>
	<node lat="58.1681555584379" lon="6.811463886520941" id="-21777">
		<tag k="name" v="Homsundet" />
		<tag k="natural" v="strait" />
		<tag k="ssr:stedsnr" v="932914" />
	</node>
	<node lat="58.04098055379864" lon="6.889483341318944" id="-21781">
		<tag k="fixme" v="consider seamark:type=rock or natural=shoal" />
		<tag k="name" v="Ruskjeret" />
		<tag k="place" v="islet" />
		<tag k="ssr:stedsnr" v="888264" />
	</node>
	<node lat="58.0515638871364" lon="6.800191670247942" id="-21782">
		<tag k="name" v="Oddeflua" />
		<tag k="natural" v="shoal" />
		<tag k="place" v="locality" />
		<tag k="ssr:stedsnr" v="889047" />
	</node>
	<node lat="58.068927779821266" lon="6.669272214470965" id="-21784">
		<tag k="fixme" v="consider seamark:type=rock or natural=shoal" />
		<tag k="name" v="Lakseskjeret" />
		<tag k="place" v="islet" />
		<tag k="ssr:stedsnr" v="889303" />
	</node>
	<node lat="58.08090277919389" lon="6.884852777129831" id="-21785">
		<tag k="name" v="Vikholmsundet" />
		<tag k="natural" v="strait" />
		<tag k="ssr:stedsnr" v="907167" />
	</node>
	<node lat="58.055297217718135" lon="6.865977772036707" id="-21787">
		<tag k="name" v="Lindholmbåen" />
		<tag k="place" v="locality" />
		<tag k="seamark:type" v="rock" />
		<tag k="ssr:stedsnr" v="907208" />
	</node>
	<node lat="58.06106388998008" lon="6.919133332471828" id="-21788">
		<tag k="name" v="Tjoren" />
		<tag k="natural" v="cape" />
		<tag k="ssr:stedsnr" v="907350" />
	</node>
	<node lat="58.0891861107193" lon="6.935355557599201" id="-21792">
		<tag k="alt_name" v="Spindsfjorden" />
		<tag k="bay" v="fjord" />
		<tag k="name" v="Spindfjorden" />
		<tag k="natural" v="bay" />
		<tag k="ssr:stedsnr" v="910320" />
	</node>
	<node lat="58.044280551572406" lon="6.921836118745995" id="-21800">
		<tag k="alt_name" v="Ullerøya" />
		<tag k="name" v="Ullerøy" />
		<tag k="place" v="island" />
		<tag k="ssr:stedsnr" v="910398" />
	</node>
	<node lat="58.06946388596306" lon="6.625708331601835" id="-21816">
		<tag k="fixme" v="consider seamark:type=rock or natural=shoal" />
		<tag k="name" v="Skallen" />
		<tag k="place" v="islet" />
		<tag k="ssr:stedsnr" v="935741" />
	</node>
	<node lat="58.066641669533844" lon="6.775475004178936" id="-21817">
		<tag k="name" v="Tjuvholman" />
		<tag k="place" v="islet" />
		<tag k="ssr:stedsnr" v="935883" />
	</node>
	<node lat="58.07478888940694" lon="6.822180555908009" id="-21818">
		<tag k="name" v="Veodden" />
		<tag k="natural" v="cape" />
		<tag k="ssr:stedsnr" v="949112" />
	</node>
	<node lat="58.03272500373619" lon="6.913447223713734" id="-21820">
		<tag k="name" v="Breiflua" />
		<tag k="natural" v="shoal" />
		<tag k="place" v="locality" />
		<tag k="ssr:stedsnr" v="949289" />
	</node>
	<node lat="58.056419447067455" lon="6.833413888955154" id="-21912">
		<tag k="alt_name" v="Østre Færøysundet" />
		<tag k="name" v="Østre Færøyrenna" />
		<tag k="natural" v="strait" />
		<tag k="ssr:stedsnr" v="21573" />
	</node>
	<node lat="58.06658888691879" lon="6.641208337009552" id="-21917">
		<tag k="name" v="Østhasselneset" />
		<tag k="natural" v="cape" />
		<tag k="ssr:stedsnr" v="21424" />
	</node>
	<node lat="58.076480559589605" lon="6.654863895344904" id="-21918">
		<tag k="name" v="Kådesanden" />
		<tag k="natural" v="beach" />
		<tag k="ssr:stedsnr" v="21426" />
	</node>
	<node lat="58.067713888119634" lon="6.707274995214611" id="-21922">
		<tag k="name" v="Kviljobukta" />
		<tag k="natural" v="bay" />
		<tag k="ssr:stedsnr" v="21511" />
	</node>
	<node lat="58.17686944306294" lon="6.699233327038138" id="-21927">
		<tag k="alt_name" v="Ytre Pollen" />
		<tag k="name" v="Pollen" />
		<tag k="natural" v="bay" />
		<tag k="ssr:stedsnr" v="21526" />
	</node>
	<node lat="58.081113886622596" lon="6.832058329190981" id="-21929">
		<tag k="alt_name" v="Lille Håøy" />
		<tag k="name" v="Litle Håøy" />
		<tag k="place" v="island" />
		<tag k="ssr:stedsnr" v="21605" />
	</node>
	<node lat="58.10077221916285" lon="6.766150006733286" id="-21930">
		<tag k="name" v="Bulandsholmen" />
		<tag k="place" v="islet" />
		<tag k="ssr:stedsnr" v="21624" />
	</node>
	<node lat="58.177830557735355" lon="6.830883336711577" id="-21954">
		<tag k="name" v="Tjorsodden" />
		<tag k="natural" v="cape" />
		<tag k="ssr:stedsnr" v="21955" />
	</node>
	<node lat="58.111374996448454" lon="6.764625008173975" id="-21963">
		<tag k="name" v="Veisegabet" />
		<tag k="natural" v="strait" />
		<tag k="ssr:stedsnr" v="24797" />
	</node>
	<node lat="58.04587778033699" lon="6.829194449173345" id="-21964">
		<tag k="name" v="Villaflua" />
		<tag k="natural" v="shoal" />
		<tag k="place" v="locality" />
		<tag k="ssr:stedsnr" v="39046" />
	</node>
	<node lat="58.136786110429846" lon="6.597730556216681" id="-21965">
		<tag k="name" v="Iverstøflua" />
		<tag k="natural" v="shoal" />
		<tag k="place" v="locality" />
		<tag k="ssr:stedsnr" v="39139" />
	</node>
	<node lat="58.130500001071354" lon="6.583663895827521" id="-21966">
		<tag k="name" v="Stavstøflua" />
		<tag k="natural" v="shoal" />
		<tag k="place" v="locality" />
		<tag k="ssr:stedsnr" v="39140" />
	</node>
	<node lat="58.043299997683114" lon="6.887380558693397" id="-21968">
		<tag k="alt_name" v="Vrakskjera" />
		<tag k="fixme" v="consider seamark:type=rock or natural=shoal" />
		<tag k="name" v="Vrageskjera" />
		<tag k="place" v="islet" />
		<tag k="ssr:stedsnr" v="39244" />
	</node>
	<node lat="58.0369166697282" lon="6.897991671961327" id="-21969">
		<tag k="name" v="Korkehausen" />
		<tag k="natural" v="shoal" />
		<tag k="place" v="locality" />
		<tag k="ssr:stedsnr" v="39253" />
	</node>
	<node lat="58.18878055307172" lon="6.853080558738375" id="-21970">
		<tag k="name" v="Indre Seltebukta" />
		<tag k="natural" v="bay" />
		<tag k="ssr:stedsnr" v="39442" />
	</node>
	<node lat="58.07127777647613" lon="6.815461107520658" id="-21971">
		<tag k="name" v="Svineholmen" />
		<tag k="place" v="islet" />
		<tag k="ssr:stedsnr" v="39988" />
	</node>
	<node lat="58.07476944494421" lon="6.814805561206572" id="-21973">
		<tag k="name" v="Langodden" />
		<tag k="natural" v="cape" />
		<tag k="ssr:stedsnr" v="39998" />
	</node>
	<node lat="58.2020805564487" lon="6.680380563911995" id="-21974">
		<tag k="bay" v="fjord" />
		<tag k="name" v="Fedafjorden" />
		<tag k="natural" v="bay" />
		<tag k="ssr:stedsnr" v="42553" />
	</node>
	<node lat="58.075688892751366" lon="6.88034722384852" id="-21975">
		<tag k="name" v="Kjeldevikodden" />
		<tag k="natural" v="cape" />
		<tag k="ssr:stedsnr" v="58137" />
	</node>
	<node lat="58.07092500034043" lon="6.871013889376643" id="-21977">
		<tag k="name" v="Sørstranda" />
		<tag k="natural" v="beach" />
		<tag k="ssr:stedsnr" v="58149" />
	</node>
	<node lat="58.06895555455555" lon="6.887613894195422" id="-21979">
		<tag k="name" v="Beinåsflua" />
		<tag k="natural" v="shoal" />
		<tag k="place" v="locality" />
		<tag k="ssr:stedsnr" v="58156" />
	</node>
	<node lat="58.07348610672254" lon="6.860297215154643" id="-21980">
		<tag k="name" v="Langskjera" />
		<tag k="place" v="islet" />
		<tag k="ssr:stedsnr" v="58252" />
	</node>
	<node lat="58.072136113420804" lon="6.86450000137136" id="-21981">
		<tag k="name" v="Steinsvika" />
		<tag k="natural" v="bay" />
		<tag k="ssr:stedsnr" v="58254" />
	</node>
	<node lat="58.07019166596145" lon="6.643211114688418" id="-21982">
		<tag k="name" v="Døsen" />
		<tag k="natural" v="cape" />
		<tag k="ssr:stedsnr" v="58331" />
	</node>
	<node lat="58.07675833529464" lon="6.820127774645066" id="-21983">
		<tag k="name" v="Paradisbukta" />
		<tag k="natural" v="bay" />
		<tag k="ssr:stedsnr" v="58960" />
	</node>
	<node lat="58.083580557652006" lon="6.811400004208985" id="-21984">
		<tag k="name" v="Skjolnesodden" />
		<tag k="natural" v="cape" />
		<tag k="ssr:stedsnr" v="58961" />
	</node>
	<node lat="58.07344722035578" lon="6.888094441380167" id="-21989">
		<tag k="alt_name" v="Skudevika;Skutevika" />
		<tag k="name" v="Skutevik" />
		<tag k="natural" v="bay" />
		<tag k="ssr:stedsnr" v="60356" />
	</node>
	<node lat="58.07397499591779" lon="6.837913884817294" id="-21990">
		<tag k="alt_name" v="Urdøy" />
		<tag k="name" v="Urøy" />
		<tag k="place" v="islet" />
		<tag k="ssr:stedsnr" v="60363" />
	</node>
	<node lat="58.062463889569514" lon="6.757136116787921" id="-21997">
		<tag k="alt_name" v="Svartskjera, l;Lille Svartskjær" />
		<tag k="fixme" v="consider seamark:type=rock or natural=shoal" />
		<tag k="name" v="Litle Svartskjera" />
		<tag k="place" v="islet" />
		<tag k="ssr:stedsnr" v="61343" />
	</node>
	<node lat="58.04747499905118" lon="6.760194446810283" id="-21998">
		<tag k="fixme" v="consider seamark:type=rock or natural=shoal" />
		<tag k="name" v="Skvettskjersteinen" />
		<tag k="place" v="islet" />
		<tag k="ssr:stedsnr" v="61344" />
	</node>
	<node lat="58.052627779516875" lon="6.8839805596314765" id="-21999">
		<tag k="alt_name" v="Gåsøy;Litle Gåsøy" />
		<tag k="name" v="Gåsøya" />
		<tag k="place" v="islet" />
		<tag k="ssr:stedsnr" v="61348" />
	</node>
	<node lat="58.05682499888565" lon="6.932533341160208" id="-22000">
		<tag k="alt_name" v="Terøy, l;Flægholmen" />
		<tag k="name" v="Litle Terøy" />
		<tag k="place" v="islet" />
		<tag k="ssr:stedsnr" v="61350" />
	</node>
	<node lat="58.08161667017834" lon="6.941572226311352" id="-22002">
		<tag k="name" v="Knivvika" />
		<tag k="natural" v="bay" />
		<tag k="ssr:stedsnr" v="82442" />
	</node>
	<node lat="58.06121110934652" lon="6.727741672081475" id="-22011">
		<tag k="fixme" v="consider seamark:type=rock or natural=shoal" />
		<tag k="name" v="Notungen" />
		<tag k="place" v="islet" />
		<tag k="ssr:stedsnr" v="82465" />
	</node>
	<node lat="58.12546944572449" lon="6.581844439699389" id="-22014">
		<tag k="name" v="Trihaugodden" />
		<tag k="natural" v="cape" />
		<tag k="ssr:stedsnr" v="82391" />
	</node>
	<node lat="58.107374997610755" lon="6.859630553526571" id="-22016">
		<tag k="name" v="Forbergvika" />
		<tag k="natural" v="bay" />
		<tag k="ssr:stedsnr" v="82495" />
	</node>
	<node lat="58.06790555371044" lon="6.8238555583699085" id="-22019">
		<tag k="name" v="Litle Eigerøy" />
		<tag k="place" v="island" />
		<tag k="ssr:stedsnr" v="82530" />
	</node>
	<node lat="58.05215555209694" lon="6.794480548076708" id="-22025">
		<tag k="name" v="Revøysundet" />
		<tag k="natural" v="strait" />
		<tag k="ssr:stedsnr" v="82659" />
	</node>
	<node lat="58.05678333548709" lon="6.7903222185974546" id="-22026">
		<tag k="name" v="Teineviga" />
		<tag k="natural" v="bay" />
		<tag k="ssr:stedsnr" v="82660" />
	</node>
	<node lat="58.168150003341076" lon="6.813513882021012" id="-22035">
		<tag k="name" v="Prestøyna" />
		<tag k="place" v="island" />
		<tag k="ssr:stedsnr" v="82862" />
	</node>
	<node lat="58.04300000229908" lon="6.890213886416929" id="-22038">
		<tag k="alt_name" v="Vrakholmen" />
		<tag k="name" v="Vrageholmen" />
		<tag k="place" v="islet" />
		<tag k="ssr:stedsnr" v="82992" />
	</node>
	<node lat="58.10480555455149" lon="6.734841660127946" id="-22050">
		<tag k="name" v="Høgenes" />
		<tag k="natural" v="cape" />
		<tag k="ssr:stedsnr" v="85737" />
	</node>
	<node lat="58.05292222173769" lon="6.832358331872418" id="-22052">
		<tag k="name" v="Broddfluskjeret" />
		<tag k="place" v="locality" />
		<tag k="seamark:type" v="rock" />
		<tag k="ssr:stedsnr" v="86749" />
	</node>
	<node lat="58.05754444888834" lon="6.796908331096583" id="-22053">
		<tag k="fixme" v="consider seamark:type=rock or natural=shoal" />
		<tag k="name" v="Kristenskjeret" />
		<tag k="place" v="islet" />
		<tag k="ssr:stedsnr" v="100056" />
	</node>
	<node lat="58.060988885980095" lon="6.793558325222739" id="-22055">
		<tag k="name" v="Svartodden" />
		<tag k="natural" v="cape" />
		<tag k="ssr:stedsnr" v="100094" />
	</node>
	<node lat="58.064483335663596" lon="6.676258334275501" id="-22056">
		<tag k="name" v="Revet" />
		<tag k="natural" v="shoal" />
		<tag k="place" v="locality" />
		<tag k="ssr:stedsnr" v="100178" />
	</node>
	<node lat="58.10218610729403" lon="6.761161109036379" id="-22057">
		<tag k="name" v="Kjørrefjordbuktene" />
		<tag k="natural" v="bay" />
		<tag k="ssr:stedsnr" v="100584" />
	</node>
	<node lat="58.179800001043354" lon="6.6468944403404535" id="-22058">
		<tag k="name" v="Nautholmen" />
		<tag k="place" v="islet" />
		<tag k="ssr:stedsnr" v="101692" />
	</node>
	<node lat="58.1779472234512" lon="6.621641670437954" id="-22059">
		<tag k="name" v="Varnesholmen" />
		<tag k="place" v="islet" />
		<tag k="ssr:stedsnr" v="101696" />
	</node>
	<node lat="58.01789166410759" lon="6.872252773953779" id="-22060">
		<tag k="name" v="Ytre Steinflua" />
		<tag k="natural" v="shoal" />
		<tag k="place" v="locality" />
		<tag k="ssr:stedsnr" v="101454" />
	</node>
	<node lat="58.086622225444934" lon="6.795488892408529" id="-22062">
		<tag k="name" v="Danevika" />
		<tag k="natural" v="bay" />
		<tag k="ssr:stedsnr" v="118855" />
	</node>
	<node lat="58.06954166240995" lon="6.886763882202018" id="-22063">
		<tag k="name" v="Beinåsodden" />
		<tag k="natural" v="cape" />
		<tag k="ssr:stedsnr" v="118120" />
	</node>
	<node lat="58.07338333219973" lon="6.919791671866018" id="-22064">
		<tag k="name" v="Austnesbukta" />
		<tag k="natural" v="bay" />
		<tag k="ssr:stedsnr" v="118136" />
	</node>
	<node lat="58.08509444075595" lon="6.851783328993559" id="-22065">
		<tag k="name" v="Vika" />
		<tag k="natural" v="bay" />
		<tag k="ssr:stedsnr" v="118158" />
	</node>
	<node lat="58.05869166462842" lon="6.908086119554595" id="-22066">
		<tag k="name" v="Hestholmsundet" />
		<tag k="natural" v="beach" />
		<tag k="ssr:stedsnr" v="118365" />
	</node>
	<node lat="58.08412499638086" lon="6.813774992978203" id="-22067">
		<tag k="name" v="Østre Bergodden" />
		<tag k="natural" v="cape" />
		<tag k="ssr:stedsnr" v="118886" />
	</node>
	<node lat="58.08307777652417" lon="6.8234916636513026" id="-22068">
		<tag k="name" v="Nordre Lamholmflua" />
		<tag k="natural" v="shoal" />
		<tag k="place" v="locality" />
		<tag k="ssr:stedsnr" v="118954" />
	</node>
	<node lat="58.07925832943577" lon="6.8202305473484195" id="-22069">
		<tag k="name" v="Tønnesbukta" />
		<tag k="natural" v="bay" />
		<tag k="ssr:stedsnr" v="118959" />
	</node>
	<node lat="58.028391663069485" lon="6.828052775738774" id="-22078">
		<tag k="name" v="Kletten" />
		<tag k="natural" v="shoal" />
		<tag k="place" v="locality" />
		<tag k="ssr:stedsnr" v="121396" />
	</node>
	<node lat="58.05131388838839" lon="6.89788611675279" id="-22079">
		<tag k="alt_name" v="Leitsholmen" />
		<tag k="name" v="Leirsholmen" />
		<tag k="place" v="islet" />
		<tag k="ssr:stedsnr" v="121400" />
	</node>
	<node lat="58.12854722249821" lon="6.863469446629602" id="-22080">
		<tag k="alt_name" v="Laulandstronda" />
		<tag k="name" v="Laulandsstronda" />
		<tag k="natural" v="beach" />
		<tag k="ssr:stedsnr" v="142496" />
	</node>
	<node lat="58.110658334311374" lon="6.857058325764237" id="-22093">
		<tag k="name" v="Forodden" />
		<tag k="natural" v="cape" />
		<tag k="ssr:stedsnr" v="142475" />
	</node>
	<node lat="58.04450555775193" lon="6.796972230134944" id="-22098">
		<tag k="name" v="Revøyflua" />
		<tag k="place" v="locality" />
		<tag k="seamark:type" v="rock" />
		<tag k="ssr:stedsnr" v="142617" />
	</node>
	<node lat="58.15967222453115" lon="6.6218666667240225" id="-22104">
		<tag k="name" v="Stegseda" />
		<tag k="natural" v="cape" />
		<tag k="ssr:stedsnr" v="142694" />
	</node>
	<node lat="58.17345000423911" lon="6.8367361032668255" id="-22124">
		<tag k="name" v="Indre Varvika" />
		<tag k="natural" v="bay" />
		<tag k="ssr:stedsnr" v="142958" />
	</node>
	<node lat="58.06437777971224" lon="6.801861110176524" id="-22138">
		<tag k="name" v="Wesselholmen" />
		<tag k="place" v="islet" />
		<tag k="ssr:stedsnr" v="147416" />
	</node>
	<node lat="58.0534972228118" lon="6.808613888422471" id="-22139">
		<tag k="alt_name" v="Ytre Saltråskjeret" />
		<tag k="fixme" v="consider seamark:type=rock or natural=shoal" />
		<tag k="name" v="Ytre Saltråkskjeret" />
		<tag k="place" v="islet" />
		<tag k="ssr:stedsnr" v="160049" />
	</node>
	<node lat="58.09195555535835" lon="6.589038891026006" id="-22140">
		<tag k="name" v="Drengskjeret" />
		<tag k="natural" v="cape" />
		<tag k="ssr:stedsnr" v="160151" />
	</node>
	<node lat="58.0599666707455" lon="6.648511115673951" id="-22141">
		<tag k="name" v="Vestre Rauneflua" />
		<tag k="natural" v="shoal" />
		<tag k="place" v="locality" />
		<tag k="ssr:stedsnr" v="160157" />
	</node>
	<node lat="58.0523388887928" lon="6.8798305538010345" id="-22143">
		<tag k="name" v="Mannholmen" />
		<tag k="place" v="islet" />
		<tag k="ssr:stedsnr" v="160204" />
	</node>
	<node lat="58.0339361103434" lon="6.894336106226374" id="-22144">
		<tag k="name" v="Midtfjordskjerflua" />
		<tag k="natural" v="shoal" />
		<tag k="place" v="locality" />
		<tag k="ssr:stedsnr" v="160271" />
	</node>
	<node lat="58.03844444079599" lon="6.904491675042975" id="-22145">
		<tag k="name" v="Svartskjerflua" />
		<tag k="natural" v="shoal" />
		<tag k="place" v="locality" />
		<tag k="ssr:stedsnr" v="160280" />
	</node>
	<node lat="58.03838888475912" lon="6.897361104893179" id="-22146">
		<tag k="name" v="Dritarsteinen" />
		<tag k="place" v="locality" />
		<tag k="seamark:type" v="rock" />
		<tag k="ssr:stedsnr" v="160282" />
	</node>
	<node lat="58.04419166696154" lon="6.908202782919852" id="-22147">
		<tag k="name" v="Eiebukta" />
		<tag k="natural" v="bay" />
		<tag k="ssr:stedsnr" v="160284" />
	</node>
	<node lat="58.04407222169869" lon="6.911836119489118" id="-22148">
		<tag k="name" v="Kalveflua" />
		<tag k="natural" v="shoal" />
		<tag k="place" v="locality" />
		<tag k="ssr:stedsnr" v="160286" />
	</node>
	<node lat="58.06962222632261" lon="6.827430559962339" id="-22149">
		<tag k="name" v="Fribergsodden" />
		<tag k="natural" v="cape" />
		<tag k="ssr:stedsnr" v="160990" />
	</node>
	<node lat="58.07017777973341" lon="6.81941111768412" id="-22150">
		<tag k="name" v="Mosesholmen" />
		<tag k="place" v="islet" />
		<tag k="ssr:stedsnr" v="160995" />
	</node>
	<node lat="58.07941111384211" lon="6.913027785843981" id="-22154">
		<tag k="name" v="Bræberget" />
		<tag k="natural" v="cape" />
		<tag k="ssr:stedsnr" v="179123" />
	</node>
	<node lat="58.07437777961687" lon="6.877186112620538" id="-22155">
		<tag k="name" v="Kobbeskjera" />
		<tag k="natural" v="shoal" />
		<tag k="place" v="locality" />
		<tag k="ssr:stedsnr" v="179127" />
	</node>
	<node lat="58.07632500170241" lon="6.917161105002232" id="-22156">
		<tag k="name" v="Østre Slettebugdøybukta" />
		<tag k="natural" v="bay" />
		<tag k="ssr:stedsnr" v="179157" />
	</node>
	<node lat="58.086847218690934" lon="6.8465888833481925" id="-22157">
		<tag k="name" v="Ramsdalsvika" />
		<tag k="natural" v="bay" />
		<tag k="ssr:stedsnr" v="179183" />
	</node>
	<node lat="58.08226944155383" lon="6.9136944451756985" id="-22159">
		<tag k="name" v="Agnekilodden" />
		<tag k="natural" v="cape" />
		<tag k="ssr:stedsnr" v="179129" />
	</node>
	<node lat="58.06689166544576" lon="6.866813892412988" id="-22160">
		<tag k="name" v="Litle Tollakskjeret" />
		<tag k="place" v="islet" />
		<tag k="ssr:stedsnr" v="179132" />
	</node>
	<node lat="58.0684777783493" lon="6.882163896374634" id="-22161">
		<tag k="name" v="Holet" />
		<tag k="natural" v="bay" />
		<tag k="ssr:stedsnr" v="179146" />
	</node>
	<node lat="58.0739916645336" lon="6.900999994167152" id="-22162">
		<tag k="name" v="Pelevika" />
		<tag k="natural" v="bay" />
		<tag k="ssr:stedsnr" v="179154" />
	</node>
	<node lat="58.050144445597795" lon="6.824902780328926" id="-22163">
		<tag k="fixme" v="consider seamark:type=rock or natural=shoal" />
		<tag k="name" v="Gunnarskjeret" />
		<tag k="place" v="islet" />
		<tag k="ssr:stedsnr" v="179252" />
	</node>
	<node lat="58.154738891438704" lon="6.823633330262776" id="-22164">
		<tag k="name" v="Terneholmen" />
		<tag k="place" v="islet" />
		<tag k="ssr:stedsnr" v="182213" />
	</node>
	<node lat="58.13467500077787" lon="6.7283194453332005" id="-22166">
		<tag k="name" v="Frestadbukta" />
		<tag k="natural" v="bay" />
		<tag k="ssr:stedsnr" v="182225" />
	</node>
	<node lat="58.15130833030587" lon="6.29712777180919" id="-22171">
		<tag k="name" v="Nordsjøen" />
		<tag k="name:en" v="North Sea" />
		<tag k="name:no" v="Nordsjøen" />
		<tag k="place" v="sea" />
		<tag k="ssr:stedsnr" v="182096" />
	</node>
	<node lat="58.057119448450344" lon="6.766044450086224" id="-22184">
		<tag k="alt_name" v="Lamholmane, store;Lamholmen" />
		<tag k="name" v="Store Lamholman" />
		<tag k="place" v="islet" />
		<tag k="ssr:stedsnr" v="182338" />
	</node>
	<node lat="58.059266669412466" lon="6.668597218884634" id="-22185">
		<tag k="name" v="Rauna" />
		<tag k="place" v="island" />
		<tag k="ssr:stedsnr" v="182340" />
	</node>
	<node lat="58.060788886026835" lon="6.771341658910563" id="-22186">
		<tag k="alt_name" v="Lamholmane, l;Lille Lamholmen" />
		<tag k="name" v="Litle Lamholman" />
		<tag k="place" v="islet" />
		<tag k="ssr:stedsnr" v="182342" />
	</node>
	<node lat="58.05989444832747" lon="6.750908330065113" id="-22187">
		<tag k="alt_name" v="Svartskjera, store;Svartskjær" />
		<tag k="fixme" v="consider seamark:type=rock or natural=shoal" />
		<tag k="name" v="Store Svartskjera" />
		<tag k="place" v="islet" />
		<tag k="ssr:stedsnr" v="182343" />
	</node>
	<node lat="58.08226388788933" lon="6.786138884452848" id="-22190">
		<tag k="name" v="Sauoddbukta" />
		<tag k="natural" v="bay" />
		<tag k="ssr:stedsnr" v="191927" />
	</node>
	<node lat="58.18021944838512" lon="6.799122216058732" id="-22193">
		<tag k="name" v="Heigarneset" />
		<tag k="natural" v="cape" />
		<tag k="ssr:stedsnr" v="203876" />
	</node>
	<node lat="58.07049721794921" lon="6.987863881599895" id="-22208">
		<tag k="name" v="Indre Klubbodden" />
		<tag k="natural" v="cape" />
		<tag k="ssr:stedsnr" v="203511" />
	</node>
	<node lat="58.06413055923872" lon="6.813983336727114" id="-22213">
		<tag k="name" v="Bukta" />
		<tag k="natural" v="bay" />
		<tag k="ssr:stedsnr" v="203535" />
	</node>
	<node lat="58.080372221989634" lon="6.900733340027276" id="-22214">
		<tag k="name" v="Ystenesodden" />
		<tag k="natural" v="cape" />
		<tag k="ssr:stedsnr" v="203537" />
	</node>
	<node lat="58.075558333268056" lon="6.837097217168122" id="-22215">
		<tag k="alt_name" v="Skottehamna" />
		<tag k="name" v="Skottehavnen" />
		<tag k="natural" v="bay" />
		<tag k="ssr:stedsnr" v="203592" />
	</node>
	<node lat="58.10711666418201" lon="6.79418889463197" id="-22216">
		<tag k="name" v="Vagleodden" />
		<tag k="natural" v="cape" />
		<tag k="ssr:stedsnr" v="203597" />
	</node>
	<node lat="58.05266944767033" lon="6.7674944420503325" id="-22218">
		<tag k="fixme" v="consider seamark:type=rock or natural=shoal" />
		<tag k="name" v="Nilseskjær" />
		<tag k="place" v="islet" />
		<tag k="ssr:stedsnr" v="203636" />
	</node>
	<node lat="58.05440555492811" lon="6.9377138883584335" id="-22231">
		<tag k="name" v="Kongenesodden" />
		<tag k="natural" v="cape" />
		<tag k="ssr:stedsnr" v="203952" />
	</node>
	<node lat="58.09305278029755" lon="6.831769437912906" id="-22239">
		<tag k="name" v="Havikbukta" />
		<tag k="natural" v="bay" />
		<tag k="ssr:stedsnr" v="204348" />
	</node>
	<node lat="58.11333333089976" lon="6.791666661298738" id="-22243">
		<tag k="name" v="Klubben" />
		<tag k="natural" v="cape" />
		<tag k="ssr:stedsnr" v="206782" />
	</node>
	<node lat="58.076888886986914" lon="6.821019452191071" id="-22244">
		<tag k="name" v="Hundvigholmen" />
		<tag k="place" v="islet" />
		<tag k="ssr:stedsnr" v="207892" />
	</node>
	<node lat="58.144119448877326" lon="6.606413896682944" id="-22245">
		<tag k="name" v="Tjeldnes" />
		<tag k="natural" v="cape" />
		<tag k="ssr:stedsnr" v="208748" />
	</node>
	<node lat="58.053605558233485" lon="6.812947215027232" id="-22246">
		<tag k="name" v="Reiarsleia" />
		<tag k="natural" v="strait" />
		<tag k="ssr:stedsnr" v="221051" />
	</node>
	<node lat="58.0584972218208" lon="6.7044638867455495" id="-22247">
		<tag k="name" v="Oddeflua" />
		<tag k="natural" v="shoal" />
		<tag k="place" v="locality" />
		<tag k="ssr:stedsnr" v="221165" />
	</node>
	<node lat="58.05011944232859" lon="6.7621666719152955" id="-22248">
		<tag k="name" v="Langgrunnen" />
		<tag k="natural" v="shoal" />
		<tag k="place" v="locality" />
		<tag k="ssr:stedsnr" v="221313" />
	</node>
	<node lat="58.05149166839233" lon="6.788280563369783" id="-22250">
		<tag k="name" v="Fredriksflua" />
		<tag k="natural" v="shoal" />
		<tag k="place" v="locality" />
		<tag k="ssr:stedsnr" v="282061" />
	</node>
	<node lat="58.0152944481582" lon="6.838191661139148" id="-22251">
		<tag k="name" v="Kyremed" />
		<tag k="natural" v="shoal" />
		<tag k="place" v="locality" />
		<tag k="ssr:stedsnr" v="283394" />
	</node>
	<node lat="58.06815833036888" lon="6.982013894529551" id="-22252">
		<tag k="name" v="Klubboddflua" />
		<tag k="place" v="locality" />
		<tag k="seamark:type" v="rock" />
		<tag k="ssr:stedsnr" v="282345" />
	</node>
	<node lat="58.070619448595984" lon="6.813805563446035" id="-22253">
		<tag k="name" v="Eigvågflua" />
		<tag k="natural" v="shoal" />
		<tag k="place" v="locality" />
		<tag k="ssr:stedsnr" v="282998" />
	</node>
	<node lat="58.08032777532656" lon="6.887450006050218" id="-22255">
		<tag k="name" v="Salthella" />
		<tag k="natural" v="cape" />
		<tag k="ssr:stedsnr" v="300189" />
	</node>
	<node lat="58.079827773941915" lon="6.886019448243706" id="-22256">
		<tag k="name" v="Vikholmfluan" />
		<tag k="natural" v="shoal" />
		<tag k="place" v="locality" />
		<tag k="ssr:stedsnr" v="300190" />
	</node>
	<node lat="58.08290277706808" lon="6.881274995964842" id="-22257">
		<tag k="name" v="Vikbukta" />
		<tag k="natural" v="bay" />
		<tag k="ssr:stedsnr" v="300192" />
	</node>
	<node lat="58.08223333143264" lon="6.8676611044376" id="-22258">
		<tag k="name" v="Hovdeodden" />
		<tag k="natural" v="cape" />
		<tag k="ssr:stedsnr" v="300197" />
	</node>
	<node lat="58.08137777995706" lon="6.872241663731456" id="-22259">
		<tag k="name" v="Kålholmen" />
		<tag k="place" v="islet" />
		<tag k="ssr:stedsnr" v="300198" />
	</node>
	<node lat="58.05177499787956" lon="6.823022222363237" id="-22260">
		<tag k="fixme" v="consider seamark:type=rock or natural=shoal" />
		<tag k="name" v="Gabrielskjeret" />
		<tag k="place" v="islet" />
		<tag k="ssr:stedsnr" v="300242" />
	</node>
	<node lat="58.051138885156355" lon="6.824655553415532" id="-22261">
		<tag k="fixme" v="consider seamark:type=rock or natural=shoal" />
		<tag k="name" v="Skarveskjeret" />
		<tag k="place" v="islet" />
		<tag k="ssr:stedsnr" v="300243" />
	</node>
	<node lat="58.05046111526373" lon="6.820272219350629" id="-22262">
		<tag k="name" v="Vestre Mellomflua" />
		<tag k="natural" v="shoal" />
		<tag k="place" v="locality" />
		<tag k="ssr:stedsnr" v="300253" />
	</node>
	<node lat="58.056977774465864" lon="6.838316667140951" id="-22263">
		<tag k="name" v="Katlandflua" />
		<tag k="natural" v="shoal" />
		<tag k="place" v="locality" />
		<tag k="ssr:stedsnr" v="300218" />
	</node>
	<node lat="58.08410555616376" lon="6.811655561588315" id="-22264">
		<tag k="name" v="Vestre Bergodden" />
		<tag k="natural" v="cape" />
		<tag k="ssr:stedsnr" v="300895" />
	</node>
	<node lat="58.07641667057871" lon="6.821200006584022" id="-22265">
		<tag k="fixme" v="consider seamark:type=rock or natural=shoal" />
		<tag k="name" v="Judeskjeret" />
		<tag k="place" v="islet" />
		<tag k="ssr:stedsnr" v="300948" />
	</node>
	<node lat="58.15568610859149" lon="6.614541671113588" id="-22271">
		<tag k="name" v="Snekkestøholman" />
		<tag k="place" v="islet" />
		<tag k="ssr:stedsnr" v="303238" />
	</node>
	<node lat="58.124294446438306" lon="6.885241666707799" id="-22274">
		<tag k="bay" v="fjord" />
		<tag k="name" v="Lyngdalsfjorden" />
		<tag k="natural" v="bay" />
		<tag k="ssr:stedsnr" v="303257" />
	</node>
	<node lat="58.11035277377348" lon="6.762038894643779" id="-22278">
		<tag k="alt_name" v="Hanesund" />
		<tag k="name" v="Hanersundet" />
		<tag k="natural" v="strait" />
		<tag k="ssr:stedsnr" v="303298" />
	</node>
	<node lat="58.05654668062077" lon="6.809305288293291" id="-22279">
		<tag k="name" v="Saltråk" />
		<tag k="place" v="islet" />
		<tag k="ssr:stedsnr" v="303343" />
	</node>
	<node lat="58.051136107993116" lon="6.8715277751067525" id="-22280">
		<tag k="name" v="Lindholmen" />
		<tag k="place" v="islet" />
		<tag k="ssr:stedsnr" v="303354" />
	</node>
	<node lat="58.08118055853512" lon="6.617788888033105" id="-22283">
		<tag k="name" v="Litlerauna" />
		<tag k="natural" v="cape" />
		<tag k="ssr:stedsnr" v="304339" />
	</node>
	<node lat="58.056647221487864" lon="6.670833328580382" id="-22285">
		<tag k="fixme" v="consider seamark:type=rock or natural=shoal" />
		<tag k="name" v="Kattesteinen" />
		<tag k="place" v="islet" />
		<tag k="ssr:stedsnr" v="306284" />
	</node>
	<node lat="58.082466664968926" lon="6.780291668923845" id="-22286">
		<tag k="name" v="Grønnodden" />
		<tag k="natural" v="cape" />
		<tag k="ssr:stedsnr" v="312962" />
	</node>
	<node lat="58.18516110921233" lon="6.75240277697157" id="-22297">
		<tag k="name" v="Gjersdalstrand" />
		<tag k="natural" v="beach" />
		<tag k="ssr:stedsnr" v="324458" />
	</node>
	<node lat="58.082455553036475" lon="6.850133336932991" id="-22301">
		<tag k="bay" v="fjord" />
		<tag k="name" v="Indre Spindsfjorden" />
		<tag k="natural" v="bay" />
		<tag k="ssr:stedsnr" v="324575" />
	</node>
	<node lat="58.06924444220103" lon="6.984461106224065" id="-22307">
		<tag k="name" v="Klubbodden" />
		<tag k="natural" v="cape" />
		<tag k="ssr:stedsnr" v="324496" />
	</node>
	<node lat="58.17751388842641" lon="6.695025006657598" id="-22308">
		<tag k="name" v="Gapet" />
		<tag k="natural" v="strait" />
		<tag k="ssr:stedsnr" v="324501" />
	</node>
	<node lat="58.06699721807063" lon="6.820533334848249" id="-22310">
		<tag k="bay" v="fjord" />
		<tag k="name" v="Eigvåggabet" />
		<tag k="natural" v="bay" />
		<tag k="ssr:stedsnr" v="324524" />
	</node>
	<node lat="58.056338893028716" lon="6.780730563373009" id="-22313">
		<tag k="name" v="Kilen" />
		<tag k="natural" v="strait" />
		<tag k="ssr:stedsnr" v="324675" />
	</node>
	<node lat="58.18698657625231" lon="6.8015731478955095" id="-22321">
		<tag k="name" v="Neset" />
		<tag k="natural" v="cape" />
		<tag k="ssr:stedsnr" v="324859" />
	</node>
	<node lat="58.14599999760052" lon="6.61173889124911" id="-22323">
		<tag k="name" v="Tareviga" />
		<tag k="natural" v="bay" />
		<tag k="ssr:stedsnr" v="324712" />
	</node>
	<node lat="58.12231944219726" lon="6.892383341235824" id="-22329">
		<tag k="name" v="Grobostrand" />
		<tag k="natural" v="beach" />
		<tag k="ssr:stedsnr" v="324989" />
	</node>
	<node lat="58.10513055536041" lon="6.847061115344784" id="-22334">
		<tag k="name" v="Sævikneset" />
		<tag k="natural" v="cape" />
		<tag k="ssr:stedsnr" v="325457" />
	</node>
	<node lat="58.103169440517824" lon="6.85176666568699" id="-22337">
		<tag k="name" v="Sævikstrand" />
		<tag k="natural" v="beach" />
		<tag k="ssr:stedsnr" v="325466" />
	</node>
	<node lat="58.05690555868233" lon="6.785436105388216" id="-22344">
		<tag k="fixme" v="consider seamark:type=rock or natural=shoal" />
		<tag k="name" v="Sugga" />
		<tag k="place" v="islet" />
		<tag k="ssr:stedsnr" v="342028" />
	</node>
	<node lat="58.04785555268844" lon="6.805111111410332" id="-22345">
		<tag k="name" v="Revøyskjergrunnen" />
		<tag k="natural" v="shoal" />
		<tag k="place" v="locality" />
		<tag k="ssr:stedsnr" v="342031" />
	</node>
	<node lat="58.14615833638406" lon="6.604883335686125" id="-22346">
		<tag k="name" v="Håleflua" />
		<tag k="natural" v="shoal" />
		<tag k="place" v="locality" />
		<tag k="ssr:stedsnr" v="342170" />
	</node>
	<node lat="58.0647916667756" lon="6.640344442471954" id="-22348">
		<tag k="name" v="Dyna" />
		<tag k="natural" v="shoal" />
		<tag k="place" v="locality" />
		<tag k="ssr:stedsnr" v="342275" />
	</node>
	<node lat="58.04874721788981" lon="6.887552778690183" id="-22349">
		<tag k="name" v="Vingleholmen" />
		<tag k="place" v="islet" />
		<tag k="ssr:stedsnr" v="342240" />
	</node>
	<node lat="58.068908337646995" lon="6.821369442610354" id="-22350">
		<tag k="name" v="Kålholmen" />
		<tag k="place" v="islet" />
		<tag k="ssr:stedsnr" v="342990" />
	</node>
	<node lat="58.026094440290805" lon="6.897136111005799" id="-22351">
		<tag k="name" v="Midtfjordskjerflua" />
		<tag k="natural" v="shoal" />
		<tag k="place" v="locality" />
		<tag k="ssr:stedsnr" v="344487" />
	</node>
	<node lat="58.078755556281735" lon="6.7735500062354195" id="-22355">
		<tag k="name" v="Sanden" />
		<tag k="natural" v="shoal" />
		<tag k="place" v="locality" />
		<tag k="ssr:stedsnr" v="361975" />
	</node>
	<node lat="58.08132145300393" lon="6.922254347662879" id="-22356">
		<tag k="name" v="Odden" />
		<tag k="natural" v="cape" />
		<tag k="ssr:stedsnr" v="361126" />
	</node>
	<node lat="58.06766944688535" lon="6.875158327370006" id="-22357">
		<tag k="name" v="Vestrebukta" />
		<tag k="natural" v="bay" />
		<tag k="ssr:stedsnr" v="361128" />
	</node>
	<node lat="58.08245555660555" lon="6.8792999987572765" id="-22358">
		<tag k="name" v="Stegelsnes" />
		<tag k="natural" v="cape" />
		<tag k="ssr:stedsnr" v="361203" />
	</node>
	<node lat="58.047955554551955" lon="6.823508341171365" id="-22360">
		<tag k="name" v="Østre Mellomflua" />
		<tag k="natural" v="shoal" />
		<tag k="place" v="locality" />
		<tag k="ssr:stedsnr" v="361268" />
	</node>
	<node lat="58.05443611019109" lon="6.857488896713059" id="-22361">
		<tag k="name" v="Ytre Svartskjergrunnen" />
		<tag k="natural" v="shoal" />
		<tag k="place" v="locality" />
		<tag k="ssr:stedsnr" v="361270" />
	</node>
	<node lat="58.0337194474348" lon="6.852833339275367" id="-22362">
		<tag k="name" v="Vestre Roholmflua" />
		<tag k="natural" v="shoal" />
		<tag k="place" v="locality" />
		<tag k="ssr:stedsnr" v="361278" />
	</node>
	<node lat="58.07773889063592" lon="6.849900005905325" id="-22363">
		<tag k="name" v="Tangebukta" />
		<tag k="natural" v="bay" />
		<tag k="ssr:stedsnr" v="361237" />
	</node>
	<node lat="58.07404444590845" lon="6.858855549662192" id="-22364">
		<tag k="name" v="Kjerringholmen" />
		<tag k="place" v="islet" />
		<tag k="ssr:stedsnr" v="361244" />
	</node>
	<node lat="58.055466668935594" lon="6.739966672333686" id="-22365">
		<tag k="name" v="Persflua" />
		<tag k="natural" v="shoal" />
		<tag k="place" v="locality" />
		<tag k="ssr:stedsnr" v="361343" />
	</node>
	<node lat="58.05798888790338" lon="6.784708329238576" id="-22366">
		<tag k="name" v="Grønnodden" />
		<tag k="natural" v="cape" />
		<tag k="ssr:stedsnr" v="361468" />
	</node>
	<node lat="58.0913027792139" lon="6.808500007451447" id="-22367">
		<tag k="fixme" v="consider seamark:type=rock or natural=shoal" />
		<tag k="name" v="Gulsteinane" />
		<tag k="place" v="islet" />
		<tag k="ssr:stedsnr" v="361925" />
	</node>
	<node lat="58.098977778732454" lon="6.7792194528511605" id="-22375">
		<tag k="name" v="Krossnessundet" />
		<tag k="natural" v="strait" />
		<tag k="ssr:stedsnr" v="364292" />
	</node>
	<node lat="58.062694445340256" lon="6.729249993674473" id="-22376">
		<tag k="name" v="Havika" />
		<tag k="natural" v="bay" />
		<tag k="ssr:stedsnr" v="364361" />
	</node>
	<node lat="58.06616111212594" lon="6.7005944457466065" id="-22379">
		<tag k="alt_name" v="Skiphaug;Kviljo-odden" />
		<tag k="name" v="Kviljoodden" />
		<tag k="natural" v="cape" />
		<tag k="ssr:stedsnr" v="364383" />
	</node>
	<node lat="58.06502221899653" lon="6.8999999998237005" id="-22393">
		<tag k="name" v="Bukkholmen" />
		<tag k="place" v="islet" />
		<tag k="ssr:stedsnr" v="385544" />
	</node>
	<node lat="58.064475001574905" lon="6.9069888875114085" id="-22394">
		<tag k="name" v="Dålibukta" />
		<tag k="natural" v="bay" />
		<tag k="ssr:stedsnr" v="385545" />
	</node>
	<node lat="58.05928055689837" lon="6.85840277688392" id="-22395">
		<tag k="alt_name" v="Svartskjær" />
		<tag k="name" v="Svartskjer" />
		<tag k="place" v="islet" />
		<tag k="ssr:stedsnr" v="385546" />
	</node>
	<node lat="58.1228805588702" lon="6.859405551870315" id="-22397">
		<tag k="name" v="Flådalsbukta" />
		<tag k="natural" v="bay" />
		<tag k="ssr:stedsnr" v="385561" />
	</node>
	<node lat="58.141130556175185" lon="6.751122214641645" id="-22407">
		<tag k="name" v="Bøensodden" />
		<tag k="natural" v="cape" />
		<tag k="ssr:stedsnr" v="385621" />
	</node>
	<node lat="58.19014722430705" lon="6.872541670097994" id="-22418">
		<tag k="fixme" v="consider seamark:type=rock or natural=shoal" />
		<tag k="name" v="Eirik" />
		<tag k="place" v="islet" />
		<tag k="ssr:stedsnr" v="385793" />
	</node>
	<node lat="58.18352221810696" lon="6.79973055637571" id="-22419">
		<tag k="name" v="Åptebukta" />
		<tag k="natural" v="bay" />
		<tag k="ssr:stedsnr" v="385868" />
	</node>
	<node lat="58.114638884742014" lon="6.868458329504334" id="-22426">
		<tag k="name" v="Bjørnestadstrand" />
		<tag k="natural" v="beach" />
		<tag k="ssr:stedsnr" v="385981" />
	</node>
	<node lat="58.20218889291564" lon="6.6995277854899165" id="-22436">
		<tag k="name" v="Skarvodden" />
		<tag k="natural" v="cape" />
		<tag k="ssr:stedsnr" v="385935" />
	</node>
	<node lat="58.08204722359529" lon="6.77733333025029" id="-22441">
		<tag k="name" v="Hammaren" />
		<tag k="natural" v="cape" />
		<tag k="ssr:stedsnr" v="494966" />
	</node>
	<node lat="58.06350277706612" lon="6.7000055499562565" id="-22442">
		<tag k="name" v="Oddesteinan" />
		<tag k="place" v="locality" />
		<tag k="seamark:type" v="rock" />
		<tag k="ssr:stedsnr" v="389429" />
	</node>
	<node lat="58.17908055154629" lon="6.641005548967722" id="-22444">
		<tag k="alt_name" v="Vikansbukta" />
		<tag k="name" v="Vigansbukt" />
		<tag k="natural" v="bay" />
		<tag k="ssr:stedsnr" v="403187" />
	</node>
	<node lat="58.05309106719383" lon="6.795765416378672" id="-22445">
		<tag k="fixme" v="consider seamark:type=rock or natural=shoal" />
		<tag k="name" v="Revøysundskjera" />
		<tag k="place" v="islet" />
		<tag k="ssr:stedsnr" v="403032" />
	</node>
	<node lat="58.054824998027534" lon="6.7898722220158945" id="-22446">
		<tag k="fixme" v="consider seamark:type=rock or natural=shoal" />
		<tag k="name" v="Kverna" />
		<tag k="place" v="islet" />
		<tag k="ssr:stedsnr" v="403033" />
	</node>
	<node lat="58.05708055497586" lon="6.820105557527041" id="-22447">
		<tag k="name" v="Vrakeskjergrunnen" />
		<tag k="natural" v="shoal" />
		<tag k="place" v="locality" />
		<tag k="ssr:stedsnr" v="403062" />
	</node>
	<node lat="58.06246388521679" lon="6.79716388910226" id="-22448">
		<tag k="name" v="Vestreholmen" />
		<tag k="place" v="islet" />
		<tag k="ssr:stedsnr" v="403065" />
	</node>
	<node lat="58.06120277750116" lon="6.902886114346934" id="-22449">
		<tag k="name" v="Treisensholet" />
		<tag k="natural" v="bay" />
		<tag k="ssr:stedsnr" v="403315" />
	</node>
	<node lat="58.05240555367775" lon="6.820511112194828" id="-22453">
		<tag k="fixme" v="consider seamark:type=rock or natural=shoal" />
		<tag k="name" v="Flateskjeret" />
		<tag k="place" v="islet" />
		<tag k="ssr:stedsnr" v="422226" />
	</node>
	<node lat="58.06147221832846" lon="6.855372215881864" id="-22454">
		<tag k="name" v="Indre Svartskjergrunnen" />
		<tag k="natural" v="shoal" />
		<tag k="place" v="locality" />
		<tag k="ssr:stedsnr" v="422233" />
	</node>
	<node lat="58.05975555589543" lon="6.921008331460605" id="-22455">
		<tag k="name" v="Melkevika" />
		<tag k="natural" v="bay" />
		<tag k="ssr:stedsnr" v="422382" />
	</node>
	<node lat="58.188699998508454" lon="6.673850005674087" id="-22457">
		<tag k="name" v="Filleholmen" />
		<tag k="place" v="islet" />
		<tag k="ssr:stedsnr" v="425174" />
	</node>
	<node lat="58.10820277477283" lon="6.74227778592374" id="-22463">
		<tag k="bay" v="fjord" />
		<tag k="name" v="Helvikfjorden" />
		<tag k="natural" v="bay" />
		<tag k="ssr:stedsnr" v="425307" />
	</node>
	<node lat="58.08246944261249" lon="6.825541671337019" id="-22467">
		<tag k="alt_name" v="Lamholmane" />
		<tag k="name" v="Lamholmen" />
		<tag k="place" v="islet" />
		<tag k="ssr:stedsnr" v="425322" />
	</node>
	<node lat="58.062500003325376" lon="6.839927777570687" id="-22472">
		<tag k="alt_name" v="Kattland, nordre;Indre Katland" />
		<tag k="name" v="Nordre Katland" />
		<tag k="place" v="islet" />
		<tag k="ssr:stedsnr" v="425358" />
	</node>
	<node lat="58.07511388478345" lon="6.8265194411785455" id="-22473">
		<tag k="name" v="Tjuvholmen" />
		<tag k="place" v="islet" />
		<tag k="ssr:stedsnr" v="425366" />
	</node>
	<node lat="58.05176110908928" lon="6.823150005456936" id="-22479">
		<tag k="fixme" v="consider seamark:type=rock or natural=shoal" />
		<tag k="name" v="Færøyskjærene" />
		<tag k="place" v="islet" />
		<tag k="ssr:stedsnr" v="446546" />
	</node>
	<node lat="58.10604166572501" lon="6.5735138949079435" id="-22480">
		<tag k="name" v="Vågsvollvika" />
		<tag k="natural" v="bay" />
		<tag k="ssr:stedsnr" v="446428" />
	</node>
	<node lat="58.05681944719995" lon="6.6729527846896435" id="-22487">
		<tag k="name" v="Kattegrunnen" />
		<tag k="natural" v="shoal" />
		<tag k="place" v="locality" />
		<tag k="ssr:stedsnr" v="446411" />
	</node>
	<node lat="58.07388889101535" lon="6.624502770425329" id="-22488">
		<tag k="name" v="Storestranda" />
		<tag k="natural" v="beach" />
		<tag k="ssr:stedsnr" v="446414" />
	</node>
	<node lat="58.08696388841031" lon="6.800108332431168" id="-22493">
		<tag k="name" v="Kjørestadbukta" />
		<tag k="natural" v="bay" />
		<tag k="ssr:stedsnr" v="446620" />
	</node>
	<node lat="58.15913611130119" lon="6.85107222904226" id="-22497">
		<tag k="name" v="Skjoldalstrand" />
		<tag k="natural" v="bay" />
		<tag k="ssr:stedsnr" v="446833" />
	</node>
	<node lat="58.11069999884358" lon="6.73727499393396" id="-22502">
		<tag k="name" v="Nordstranda" />
		<tag k="natural" v="beach" />
		<tag k="ssr:stedsnr" v="446666" />
	</node>
	<node lat="58.0617750010734" lon="6.765297216466754" id="-22504">
		<tag k="fixme" v="consider seamark:type=rock or natural=shoal" />
		<tag k="name" v="Sillevikholmen" />
		<tag k="place" v="islet" />
		<tag k="ssr:stedsnr" v="446685" />
	</node>
	<node lat="58.08201944527101" lon="6.806641666582428" id="-22505">
		<tag k="name" v="Kjellsviga" />
		<tag k="natural" v="bay" />
		<tag k="ssr:stedsnr" v="446689" />
	</node>
	<node lat="58.04659722607886" lon="6.908058338630904" id="-22508">
		<tag k="name" v="Vikelsundet" />
		<tag k="natural" v="strait" />
		<tag k="ssr:stedsnr" v="446998" />
	</node>
	<node lat="58.193758331450404" lon="6.678208339548222" id="-22510">
		<tag k="name" v="Odreholet" />
		<tag k="natural" v="bay" />
		<tag k="ssr:stedsnr" v="446932" />
	</node>
	<node lat="58.037205551210576" lon="6.949144446361688" id="-22513">
		<tag k="fixme" v="consider seamark:type=rock or natural=shoal" />
		<tag k="name" v="Midfjordskjær" />
		<tag k="place" v="islet" />
		<tag k="ssr:stedsnr" v="446959" />
	</node>
	<node lat="58.03338611438194" lon="6.926350005312094" id="-22514">
		<tag k="name" v="Brotsteinen" />
		<tag k="place" v="locality" />
		<tag k="seamark:type" v="rock" />
		<tag k="ssr:stedsnr" v="446962" />
	</node>
	<node lat="58.03100000384439" lon="6.926799991601684" id="-22515">
		<tag k="fixme" v="consider seamark:type=rock or natural=shoal" />
		<tag k="name" v="Store Kubbesteinen" />
		<tag k="place" v="islet" />
		<tag k="ssr:stedsnr" v="446963" />
	</node>
	<node lat="58.17938888851415" lon="6.647486102630595" id="-22517">
		<tag k="name" v="Høgsetodden" />
		<tag k="natural" v="cape" />
		<tag k="ssr:stedsnr" v="447359" />
	</node>
	<node lat="58.088450004424764" lon="6.842105550737397" id="-22518">
		<tag k="name" v="Bastuvika" />
		<tag k="natural" v="bay" />
		<tag k="ssr:stedsnr" v="447366" />
	</node>
	<node lat="58.09684444423075" lon="6.815619440296553" id="-22519">
		<tag k="name" v="Spindsodden" />
		<tag k="natural" v="cape" />
		<tag k="ssr:stedsnr" v="447367" />
	</node>
	<node lat="58.09059166623693" lon="6.928702773055551" id="-22521">
		<tag k="name" v="Langvika" />
		<tag k="natural" v="bay" />
		<tag k="ssr:stedsnr" v="447455" />
	</node>
	<node lat="58.046988888300575" lon="6.925511119424874" id="-22532">
		<tag k="name" v="Østre Stø" />
		<tag k="natural" v="bay" />
		<tag k="ssr:stedsnr" v="506938" />
	</node>
	<node lat="58.0516750038517" lon="6.939161105018184" id="-22533">
		<tag k="name" v="Geitebergodden" />
		<tag k="natural" v="cape" />
		<tag k="ssr:stedsnr" v="506939" />
	</node>
	<node lat="58.06194166500693" lon="6.927994447611846" id="-22536">
		<tag k="name" v="Kråkeholmen" />
		<tag k="place" v="islet" />
		<tag k="ssr:stedsnr" v="506947" />
	</node>
	<node lat="58.17264166878291" lon="6.8098416737575995" id="-22542">
		<tag k="name" v="Bjørnbergneset" />
		<tag k="natural" v="cape" />
		<tag k="ssr:stedsnr" v="507851" />
	</node>
	<node lat="58.18661944872166" lon="6.806824992693052" id="-22543">
		<tag k="name" v="Halen" />
		<tag k="natural" v="shoal" />
		<tag k="place" v="locality" />
		<tag k="ssr:stedsnr" v="506863" />
	</node>
	<node lat="58.04192499915921" lon="6.913844446419701" id="-22549">
		<tag k="name" v="Kalvarsundet" />
		<tag k="natural" v="strait" />
		<tag k="ssr:stedsnr" v="506984" />
	</node>
	<node lat="58.04191666710909" lon="6.897783339173874" id="-22550">
		<tag k="name" v="Stolsholmen" />
		<tag k="place" v="islet" />
		<tag k="ssr:stedsnr" v="506986" />
	</node>
	<node lat="58.04138888905965" lon="6.90190000779029" id="-22551">
		<tag k="name" v="Røysekattholmen" />
		<tag k="place" v="islet" />
		<tag k="ssr:stedsnr" v="506988" />
	</node>
	<node lat="58.22205278197925" lon="6.749836108948885" id="-22552">
		<tag k="name" v="Havkattholet" />
		<tag k="natural" v="bay" />
		<tag k="ssr:stedsnr" v="506997" />
	</node>
	<node lat="58.07515000046128" lon="6.843019439238234" id="-22555">
		<tag k="name" v="Risholmen" />
		<tag k="place" v="islet" />
		<tag k="ssr:stedsnr" v="507582" />
	</node>
	<node lat="58.0767111128464" lon="6.889222227380504" id="-22557">
		<tag k="name" v="Strontan" />
		<tag k="natural" v="beach" />
		<tag k="ssr:stedsnr" v="507528" />
	</node>
	<node lat="58.060627864867854" lon="6.82656320502277" id="-22558">
		<tag k="alt_name" v="Flåma" />
		<tag k="name" v="Flomma" />
		<tag k="natural" v="bay" />
		<tag k="ssr:stedsnr" v="507542" />
	</node>
	<node lat="58.082058329129914" lon="6.789580547692419" id="-22562">
		<tag k="name" v="Smalsundet" />
		<tag k="natural" v="strait" />
		<tag k="ssr:stedsnr" v="507684" />
	</node>
	<node lat="58.06988333220284" lon="6.777747225002063" id="-22564">
		<tag k="name" v="Husebysanden" />
		<tag k="natural" v="beach" />
		<tag k="ssr:stedsnr" v="507688" />
	</node>
	<node lat="58.16647500079341" lon="6.624097221862855" id="-22567">
		<tag k="name" v="Uddalsstranda" />
		<tag k="natural" v="bay" />
		<tag k="ssr:stedsnr" v="507699" />
	</node>
	<node lat="58.11586111311379" lon="6.74780833764088" id="-22575">
		<tag k="name" v="Straumen" />
		<tag k="natural" v="strait" />
		<tag k="ssr:stedsnr" v="507628" />
	</node>
	<node lat="58.049586111019025" lon="6.798824992692356" id="-22578">
		<tag k="alt_name" v="Litle Revøy" />
		<tag k="name" v="Lille Revøy" />
		<tag k="place" v="islet" />
		<tag k="ssr:stedsnr" v="507639" />
	</node>
	<node lat="58.04763888886137" lon="6.797533330268229" id="-22579">
		<tag k="alt_name" v="Kråka" />
		<tag k="name" v="Kråga" />
		<tag k="place" v="islet" />
		<tag k="ssr:stedsnr" v="507641" />
	</node>
	<node lat="58.110808331253025" lon="6.748919442832981" id="-22580">
		<tag k="name" v="Lindlandshovden" />
		<tag k="natural" v="cape" />
		<tag k="ssr:stedsnr" v="507648" />
	</node>
	<node lat="58.10083333277823" lon="6.796666662506777" id="-22587">
		<tag k="name" v="Estaholet" />
		<tag k="natural" v="bay" />
		<tag k="ssr:stedsnr" v="510792" />
	</node>
	<node lat="58.06305278100764" lon="6.798991667051124" id="-22588">
		<tag k="name" v="Rundeholmen" />
		<tag k="place" v="islet" />
		<tag k="ssr:stedsnr" v="524051" />
	</node>
	<node lat="58.10271666342236" lon="6.572697216213652" id="-22589">
		<tag k="fixme" v="consider seamark:type=rock or natural=shoal" />
		<tag k="name" v="Skallen" />
		<tag k="place" v="islet" />
		<tag k="ssr:stedsnr" v="524147" />
	</node>
	<node lat="58.117275002364714" lon="6.551686118304728" id="-22590">
		<tag k="name" v="Hågmennene" />
		<tag k="place" v="locality" />
		<tag k="seamark:type" v="rock" />
		<tag k="ssr:stedsnr" v="524151" />
	</node>
	<node lat="58.064442864030894" lon="6.894423214651089" id="-22591">
		<tag k="name" v="Bukkholmfluan" />
		<tag k="natural" v="shoal" />
		<tag k="place" v="locality" />
		<tag k="ssr:stedsnr" v="524300" />
	</node>
	<node lat="58.04990277724413" lon="6.7889055527309985" id="-22592">
		<tag k="name" v="Sjuhausflua" />
		<tag k="natural" v="shoal" />
		<tag k="place" v="locality" />
		<tag k="ssr:stedsnr" v="525056" />
	</node>
	<node lat="58.060444440658564" lon="6.810833340911915" id="-22593">
		<tag k="name" v="Lauvodden" />
		<tag k="natural" v="cape" />
		<tag k="ssr:stedsnr" v="525130" />
	</node>
	<node lat="58.074002780999066" lon="6.814580549077199" id="-22594">
		<tag k="name" v="Vågen" />
		<tag k="natural" v="bay" />
		<tag k="ssr:stedsnr" v="525999" />
	</node>
	<node lat="58.07235833406092" lon="6.814055560452351" id="-22595">
		<tag k="name" v="Saras holme" />
		<tag k="place" v="islet" />
		<tag k="ssr:stedsnr" v="526000" />
	</node>
	<node lat="58.17844444781208" lon="6.6529027787092385" id="-22596">
		<tag k="name" v="Skvettodden" />
		<tag k="natural" v="cape" />
		<tag k="ssr:stedsnr" v="525666" />
	</node>
	<node lat="58.07249444220686" lon="6.92370833672337" id="-22598">
		<tag k="name" v="Austnesholmen" />
		<tag k="place" v="islet" />
		<tag k="ssr:stedsnr" v="543195" />
	</node>
	<node lat="58.07783055890105" lon="6.8362083318411235" id="-22599">
		<tag k="name" v="Skotteholmen" />
		<tag k="place" v="islet" />
		<tag k="ssr:stedsnr" v="543200" />
	</node>
	<node lat="58.06100833697722" lon="6.843430563302123" id="-22600">
		<tag k="name" v="Seieribba" />
		<tag k="natural" v="shoal" />
		<tag k="place" v="locality" />
		<tag k="ssr:stedsnr" v="543237" />
	</node>
	<node lat="58.069833337605566" lon="6.844336114403081" id="-22605">
		<tag k="alt_name" v="Store Lyngholmen" />
		<tag k="name" v="Lyngholmen" />
		<tag k="place" v="islet" />
		<tag k="ssr:stedsnr" v="546334" />
	</node>
	<node lat="58.06989999659913" lon="6.932605553100791" id="-22606">
		<tag k="alt_name" v="Kjeholmane" />
		<tag k="name" v="Kjeholman" />
		<tag k="place" v="islet" />
		<tag k="ssr:stedsnr" v="546337" />
	</node>
	<node lat="58.06536666851649" lon="6.792758336517587" id="-22607">
		<tag k="name" v="Lomsesanden" />
		<tag k="natural" v="beach" />
		<tag k="ssr:stedsnr" v="546339" />
	</node>
	<node lat="58.04993610852474" lon="6.928605550024905" id="-22619">
		<tag k="fixme" v="consider seamark:type=rock or natural=shoal" />
		<tag k="name" v="Vasskjær" />
		<tag k="place" v="islet" />
		<tag k="ssr:stedsnr" v="567947" />
	</node>
	<node lat="58.16216389172545" lon="6.741855555251263" id="-22629">
		<tag k="name" v="Blånes" />
		<tag k="natural" v="cape" />
		<tag k="ssr:stedsnr" v="567453" />
	</node>
	<node lat="58.17598611394737" lon="6.702311108928735" id="-22634">
		<tag k="name" v="Tangen" />
		<tag k="natural" v="cape" />
		<tag k="ssr:stedsnr" v="567475" />
	</node>
	<node lat="58.14625277696179" lon="6.609458326289652" id="-22644">
		<tag k="name" v="Hålebukta" />
		<tag k="natural" v="bay" />
		<tag k="ssr:stedsnr" v="567689" />
	</node>
	<node lat="58.06743333574232" lon="6.744855558619732" id="-22664">
		<tag k="name" v="Haugviga" />
		<tag k="natural" v="bay" />
		<tag k="ssr:stedsnr" v="570849" />
	</node>
	<node lat="58.0399444420555" lon="6.8979305503380175" id="-22666">
		<tag k="fixme" v="consider seamark:type=rock or natural=shoal" />
		<tag k="name" v="Dritarskjera" />
		<tag k="place" v="islet" />
		<tag k="ssr:stedsnr" v="584330" />
	</node>
	<node lat="58.0457444459727" lon="6.9048583291767" id="-22667">
		<tag k="name" v="Sandviksbukta" />
		<tag k="natural" v="bay" />
		<tag k="ssr:stedsnr" v="584337" />
	</node>
	<node lat="58.05076666742256" lon="6.794155557183627" id="-22668">
		<tag k="fixme" v="consider seamark:type=rock or natural=shoal" />
		<tag k="name" v="Indre Tolleskjeret" />
		<tag k="place" v="islet" />
		<tag k="ssr:stedsnr" v="585072" />
	</node>
	<node lat="58.054186108552116" lon="6.680705552927307" id="-22669">
		<tag k="name" v="Østre Rauneflua" />
		<tag k="natural" v="shoal" />
		<tag k="place" v="locality" />
		<tag k="ssr:stedsnr" v="585180" />
	</node>
	<node lat="58.040936110887216" lon="6.7307861086649545" id="-22670">
		<tag k="name" v="Åsegrunnen" />
		<tag k="natural" v="shoal" />
		<tag k="place" v="locality" />
		<tag k="ssr:stedsnr" v="585293" />
	</node>
	<node lat="58.057149996075125" lon="6.904580551334875" id="-22674">
		<tag k="name" v="Hestholmflua" />
		<tag k="natural" v="shoal" />
		<tag k="place" v="locality" />
		<tag k="ssr:stedsnr" v="603370" />
	</node>
	<node lat="58.06044444826641" lon="6.915797222550706" id="-22675">
		<tag k="name" v="Sandøyhamn" />
		<tag k="natural" v="bay" />
		<tag k="ssr:stedsnr" v="603371" />
	</node>
	<node lat="58.057819440327876" lon="6.832333340801052" id="-22676">
		<tag k="name" v="Færøysundflua" />
		<tag k="natural" v="shoal" />
		<tag k="place" v="locality" />
		<tag k="ssr:stedsnr" v="603184" />
	</node>
	<node lat="58.0721250021226" lon="6.902111110711404" id="-22677">
		<tag k="name" v="Østre Steinsvik" />
		<tag k="natural" v="bay" />
		<tag k="ssr:stedsnr" v="603140" />
	</node>
	<node lat="58.07864444730075" lon="6.84704722054525" id="-22678">
		<tag k="name" v="Øytangen" />
		<tag k="natural" v="cape" />
		<tag k="ssr:stedsnr" v="603143" />
	</node>
	<node lat="58.07958055811847" lon="6.834950004552551" id="-22679">
		<tag k="name" v="Vestre Håøyflua" />
		<tag k="natural" v="shoal" />
		<tag k="place" v="locality" />
		<tag k="ssr:stedsnr" v="603144" />
	</node>
	<node lat="58.061497218318124" lon="6.849486119587888" id="-22680">
		<tag k="name" v="Bukkegrunnene" />
		<tag k="natural" v="shoal" />
		<tag k="place" v="locality" />
		<tag k="ssr:stedsnr" v="603229" />
	</node>
	<node lat="58.066361114710126" lon="6.756502770817006" id="-22681">
		<tag k="name" v="Falkhaugsanden" />
		<tag k="natural" v="beach" />
		<tag k="ssr:stedsnr" v="605088" />
	</node>
	<node lat="58.08030833013258" lon="6.882463884964615" id="-22683">
		<tag k="name" v="Vikholmen" />
		<tag k="place" v="islet" />
		<tag k="ssr:stedsnr" v="606336" />
	</node>
	<node lat="58.08044999571308" lon="6.927958341700526" id="-22685">
		<tag k="name" v="Vrangholmen" />
		<tag k="place" v="islet" />
		<tag k="ssr:stedsnr" v="606338" />
	</node>
	<node lat="58.10706111028318" lon="6.776266662333119" id="-22698">
		<tag k="name" v="Øyna" />
		<tag k="place" v="island" />
		<tag k="ssr:stedsnr" v="606292" />
	</node>
	<node lat="58.09823610940993" lon="6.944125002642683" id="-22713">
		<tag k="name" v="Hønevika" />
		<tag k="natural" v="bay" />
		<tag k="ssr:stedsnr" v="628468" />
	</node>
	<node lat="58.18381944119373" lon="6.688008338421259" id="-22718">
		<tag k="name" v="Sangodden" />
		<tag k="natural" v="cape" />
		<tag k="ssr:stedsnr" v="628485" />
	</node>
	<node lat="58.082133329384284" lon="6.910399992317992" id="-22722">
		<tag k="name" v="Snornes" />
		<tag k="natural" v="cape" />
		<tag k="ssr:stedsnr" v="628533" />
	</node>
	<node lat="58.057933336449985" lon="6.820375007934486" id="-22723">
		<tag k="alt_name" v="Vestre Færøysundet" />
		<tag k="name" v="Færøysundet" />
		<tag k="natural" v="strait" />
		<tag k="ssr:stedsnr" v="628539" />
	</node>
	<node lat="58.13700555866478" lon="6.735408331659784" id="-22726">
		<tag k="name" v="Vikodden" />
		<tag k="natural" v="cape" />
		<tag k="ssr:stedsnr" v="628557" />
	</node>
	<node lat="58.0751805559046" lon="6.829530552118695" id="-22729">
		<tag k="name" v="Prestøysundet" />
		<tag k="natural" v="strait" />
		<tag k="ssr:stedsnr" v="628570" />
	</node>
	<node lat="58.078969440775005" lon="6.846577785666931" id="-22730">
		<tag k="name" v="Langøytangen" />
		<tag k="natural" v="cape" />
		<tag k="ssr:stedsnr" v="628573" />
	</node>
	<node lat="58.15546111285567" lon="6.616108334096437" id="-22732">
		<tag k="name" v="Skonersundet" />
		<tag k="natural" v="strait" />
		<tag k="ssr:stedsnr" v="628664" />
	</node>
	<node lat="58.16170277443927" lon="6.623100003454484" id="-22733">
		<tag k="name" v="Slogvika" />
		<tag k="natural" v="bay" />
		<tag k="ssr:stedsnr" v="628669" />
	</node>
	<node lat="58.195583334681764" lon="6.878855563298166" id="-22737">
		<tag k="name" v="Akstø" />
		<tag k="natural" v="beach" />
		<tag k="ssr:stedsnr" v="628781" />
	</node>
	<node lat="58.04589722083549" lon="6.915341674573296" id="-22747">
		<tag k="name" v="Ullerøybukta" />
		<tag k="natural" v="bay" />
		<tag k="ssr:stedsnr" v="628982" />
	</node>
	<node lat="58.103072225119035" lon="6.7944250047234425" id="-22748">
		<tag k="name" v="Skudeviga" />
		<tag k="natural" v="bay" />
		<tag k="ssr:stedsnr" v="631769" />
	</node>
	<node lat="58.065869441283226" lon="6.720327769605803" id="-22750">
		<tag k="name" v="Naudeskjerfluan" />
		<tag k="natural" v="shoal" />
		<tag k="place" v="locality" />
		<tag k="ssr:stedsnr" v="632056" />
	</node>
	<node lat="58.168250002811085" lon="6.621505560734853" id="-22751">
		<tag k="name" v="Igenesodden" />
		<tag k="natural" v="cape" />
		<tag k="ssr:stedsnr" v="632675" />
	</node>
	<node lat="58.062697222182145" lon="6.80128611110342" id="-22752">
		<tag k="fixme" v="consider seamark:type=rock or natural=shoal" />
		<tag k="name" v="Sønderhallskjera" />
		<tag k="place" v="islet" />
		<tag k="ssr:stedsnr" v="645063" />
	</node>
	<node lat="58.13872499795285" lon="6.600997230634247" id="-22753">
		<tag k="name" v="Hammaren" />
		<tag k="natural" v="cape" />
		<tag k="ssr:stedsnr" v="645156" />
	</node>
	<node lat="58.05917778109288" lon="6.694316672553563" id="-22754">
		<tag k="fixme" v="consider seamark:type=rock or natural=shoal" />
		<tag k="name" v="Steinen" />
		<tag k="place" v="islet" />
		<tag k="ssr:stedsnr" v="645164" />
	</node>
	<node lat="58.057575003470006" lon="6.698591660978832" id="-22755">
		<tag k="name" v="Lundeflua" />
		<tag k="natural" v="shoal" />
		<tag k="place" v="locality" />
		<tag k="ssr:stedsnr" v="645166" />
	</node>
	<node lat="58.050538889765505" lon="6.909594449347576" id="-22756">
		<tag k="name" v="Ullerøytangen" />
		<tag k="natural" v="cape" />
		<tag k="ssr:stedsnr" v="645301" />
	</node>
	<node lat="58.06334721899608" lon="6.8994222210948335" id="-22757">
		<tag k="name" v="Indre Tangen" />
		<tag k="natural" v="cape" />
		<tag k="ssr:stedsnr" v="645318" />
	</node>
	<node lat="58.05963333036783" lon="6.973611108264349" id="-22759">
		<tag k="name" v="Nordre Kålevika" />
		<tag k="natural" v="bay" />
		<tag k="ssr:stedsnr" v="645355" />
	</node>
	<node lat="58.06054444046258" lon="6.733983329695662" id="-22761">
		<tag k="name" v="Skolteflua" />
		<tag k="natural" v="shoal" />
		<tag k="place" v="locality" />
		<tag k="ssr:stedsnr" v="664274" />
	</node>
	<node lat="58.093791667892084" lon="6.809519446179525" id="-22762">
		<tag k="name" v="Farøysundet" />
		<tag k="natural" v="strait" />
		<tag k="ssr:stedsnr" v="664918" />
	</node>
	<node lat="58.08074166735182" lon="6.819308325487818" id="-22763">
		<tag k="name" v="Bertasbukta" />
		<tag k="natural" v="bay" />
		<tag k="ssr:stedsnr" v="664960" />
	</node>
	<node lat="58.05377499912965" lon="6.773519445695118" id="-22770">
		<tag k="name" v="Breiholman" />
		<tag k="place" v="islet" />
		<tag k="ssr:stedsnr" v="667346" />
	</node>
	<node lat="58.067099997195676" lon="6.910747221631836" id="-22775">
		<tag k="name" v="Østre Myravika" />
		<tag k="natural" v="bay" />
		<tag k="ssr:stedsnr" v="725147" />
	</node>
	<node lat="58.067099997195676" lon="6.910747221631836" id="-22776">
		<tag k="name" v="Vestre Myravika" />
		<tag k="natural" v="bay" />
		<tag k="ssr:stedsnr" v="725149" />
	</node>
	<node lat="58.050955557498604" lon="6.843019438724257" id="-22777">
		<tag k="name" v="Hellene" />
		<tag k="natural" v="shoal" />
		<tag k="place" v="locality" />
		<tag k="ssr:stedsnr" v="725234" />
	</node>
	<node lat="58.067302777141855" lon="6.843644445187868" id="-22778">
		<tag k="name" v="Lyngholmflua" />
		<tag k="natural" v="shoal" />
		<tag k="place" v="locality" />
		<tag k="ssr:stedsnr" v="725192" />
	</node>
	<node lat="58.05746666769979" lon="6.841780562785035" id="-22779">
		<tag k="name" v="Bjørnestein" />
		<tag k="natural" v="shoal" />
		<tag k="place" v="locality" />
		<tag k="ssr:stedsnr" v="725199" />
	</node>
	<node lat="58.079794443823026" lon="6.82803334106671" id="-22780">
		<tag k="name" v="Søndre Lamholmflua" />
		<tag k="natural" v="shoal" />
		<tag k="place" v="locality" />
		<tag k="ssr:stedsnr" v="725961" />
	</node>
	<node lat="58.095319447530976" lon="6.582238888477117" id="-22785">
		<tag k="name" v="Brekneholmen" />
		<tag k="place" v="islet" />
		<tag k="ssr:stedsnr" v="728094" />
	</node>
	<node lat="58.17190000246956" lon="6.722627769888353" id="-22788">
		<tag k="name" v="Listeidet" />
		<tag k="place" v="locality" />
		<tag k="ssr:stedsnr" v="728188" />
	</node>
	<node lat="58.183524997799005" lon="6.663916669660901" id="-22794">
		<tag k="bay" v="fjord" />
		<tag k="name" v="Eidsfjorden" />
		<tag k="natural" v="bay" />
		<tag k="ssr:stedsnr" v="728168" />
	</node>
	<node lat="58.12621110679775" lon="6.74657778477578" id="-22796">
		<tag k="name" v="Suttevikpollen" />
		<tag k="natural" v="strait" />
		<tag k="ssr:stedsnr" v="728241" />
	</node>
	<node lat="58.112744446336926" lon="6.78788333219512" id="-22801">
		<tag k="bay" v="fjord" />
		<tag k="name" v="Sellegrodsfjorden" />
		<tag k="natural" v="bay" />
		<tag k="ssr:stedsnr" v="728268" />
	</node>
	<node lat="58.05383610719967" lon="6.964080561096255" id="-22803">
		<tag k="name" v="Odreholmsbukta" />
		<tag k="natural" v="bay" />
		<tag k="ssr:stedsnr" v="749958" />
	</node>
	<node lat="58.06613055287974" lon="6.732122230216705" id="-22814">
		<tag k="name" v="Skiphaugsanden" />
		<tag k="natural" v="beach" />
		<tag k="ssr:stedsnr" v="749496" />
	</node>
	<node lat="58.07883888533718" lon="6.823111108554086" id="-22817">
		<tag k="name" v="Bukkholmene" />
		<tag k="place" v="island" />
		<tag k="ssr:stedsnr" v="749594" />
	</node>
	<node lat="58.07436944617143" lon="6.861447224997452" id="-22819">
		<tag k="name" v="Sørstranda" />
		<tag k="natural" v="beach" />
		<tag k="ssr:stedsnr" v="749602" />
	</node>
	<node lat="58.057922224907166" lon="6.7756388941457075" id="-22823">
		<tag k="alt_name" v="Indre Flyndreskjeret" />
		<tag k="fixme" v="consider seamark:type=rock or natural=shoal" />
		<tag k="name" v="Flyndreskjær" />
		<tag k="place" v="islet" />
		<tag k="ssr:stedsnr" v="749694" />
	</node>
	<node lat="58.14079444567073" lon="6.855888887039543" id="-22830">
		<tag k="name" v="Grydingsbukta" />
		<tag k="natural" v="bay" />
		<tag k="ssr:stedsnr" v="749528" />
	</node>
	<node lat="58.07461944360361" lon="6.813500001315512" id="-22832">
		<tag k="name" v="Mellemvika" />
		<tag k="natural" v="bay" />
		<tag k="ssr:stedsnr" v="749537" />
	</node>
	<node lat="58.08178055722915" lon="6.900183328726175" id="-22834">
		<tag k="name" v="Notodden" />
		<tag k="natural" v="cape" />
		<tag k="ssr:stedsnr" v="749547" />
	</node>
	<node lat="58.053933331351146" lon="6.819363884759204" id="-22836">
		<tag k="name" v="Vestre Kalven" />
		<tag k="place" v="islet" />
		<tag k="ssr:stedsnr" v="749551" />
	</node>
	<node lat="58.05103333548623" lon="6.773819444395345" id="-22838">
		<tag k="name" v="Kobbeflua" />
		<tag k="place" v="locality" />
		<tag k="seamark:type" v="rock" />
		<tag k="ssr:stedsnr" v="749643" />
	</node>
	<node lat="58.05625000316504" lon="6.76815277254777" id="-22839">
		<tag k="name" v="Kneben" />
		<tag k="place" v="islet" />
		<tag k="ssr:stedsnr" v="749644" />
	</node>
	<node lat="58.04630277804555" lon="6.802988881181192" id="-22840">
		<tag k="alt_name" v="Revøyskjær" />
		<tag k="fixme" v="consider seamark:type=rock or natural=shoal" />
		<tag k="name" v="Revøyskjeret" />
		<tag k="place" v="islet" />
		<tag k="ssr:stedsnr" v="749646" />
	</node>
	<node lat="58.108622222798104" lon="6.754977771113617" id="-22841">
		<tag k="name" v="Fugletangen" />
		<tag k="natural" v="cape" />
		<tag k="ssr:stedsnr" v="749653" />
	</node>
</osm>
