<?xml version="1.0" encoding="UTF-8"?>
<<<<<<< HEAD
<osm version="0.6" generator="osmapis">
	<node lat="58.093083336510674" lon="6.901788892032446" id="-20712">
		<tag k="alt_name" v="Spind" />
		<tag k="amenity" v="place_of_worship" />
		<tag k="denomination" v="lutheran" />
		<tag k="name" v="Spind kirke" />
		<tag k="religion" v="christian" />
		<tag k="ssr:stedsnr" v="349" />
	</node>
	<node lat="58.10057142106196" lon="6.694009280618598" id="-21149">
		<tag k="amenity" v="place_of_worship" />
		<tag k="denomination" v="lutheran" />
		<tag k="name" v="Vanse kirke" />
		<tag k="old_name" v="Vanse;Lista" />
		<tag k="religion" v="christian" />
		<tag k="ssr:stedsnr" v="485225" />
	</node>
	<node lat="58.15622777755826" lon="6.795449995184507" id="-21154">
		<tag k="alt_name" v="Herad" />
		<tag k="amenity" v="place_of_worship" />
		<tag k="denomination" v="lutheran" />
		<tag k="name" v="Herad kirke" />
		<tag k="religion" v="christian" />
		<tag k="ssr:stedsnr" v="485180" />
	</node>
	<node lat="58.188550000209226" lon="6.8759472221719" id="-21329">
		<tag k="name" v="Utsikten" />
		<tag k="ssr:stedsnr" v="689744" />
		<tag k="tourism" v="viewpoint" />
	</node>
	<node lat="58.094283335372715" lon="6.8015472162426835" id="-21589">
=======
<osm generator="osmapis" version="0.6">
	<node id="-512128" lat="58.0930833365" lon="6.90178889203">
		<tag k="alt_name" v="Spind kirke" />
>>>>>>> e1d4bc35ff8a6074a6f2e91616a996b547c36f15
		<tag k="amenity" v="place_of_worship" />
		<tag k="denomination" v="lutheran" />
		<tag k="name" v="Farsund" />
		<tag k="religion" v="christian" />
		<tag k="ssr:stedsnr" v="907829" />
	</node>
<<<<<<< HEAD
	<node lat="58.072247222704696" lon="6.759694444295269" id="-22497">
=======
	<node id="-511232" lat="58.0722472227" lon="6.7596944443">
>>>>>>> e1d4bc35ff8a6074a6f2e91616a996b547c36f15
		<tag k="name" v="KongsgÃ¥rden" />
		<tag k="ssr:stedsnr" v="446693" />
		<tag k="tourism" v="attraction" />
	</node>
<<<<<<< HEAD
	<node lat="58.100338470170854" lon="6.586181068820913" id="-22678">
=======
	<node id="-512915" lat="58.1003384702" lon="6.58618106882">
>>>>>>> e1d4bc35ff8a6074a6f2e91616a996b547c36f15
		<tag k="amenity" v="place_of_worship" />
		<tag k="denomination" v="lutheran" />
		<tag k="name" v="Vestbygd" />
		<tag k="religion" v="christian" />
		<tag k="ssr:stedsnr" v="606115" />
	</node>
<<<<<<< HEAD
=======
	<node id="-511538" lat="58.1005861105" lon="6.69359721429">
		<tag k="amenity" v="place_of_worship" />
		<tag k="denomination" v="lutheran" />
		<tag k="name" v="Vanse kirke" />
		<tag k="old_name" v="Lista;Vanse" />
		<tag k="religion" v="christian" />
		<tag k="ssr:stedsnr" v="485225" />
	</node>
	<node id="-512049" lat="58.0942833354" lon="6.80154721624">
		<tag k="amenity" v="place_of_worship" />
		<tag k="denomination" v="lutheran" />
		<tag k="name" v="Farsund" />
		<tag k="religion" v="christian" />
		<tag k="ssr:stedsnr" v="907829" />
	</node>
	<node id="-511337" lat="58.1562277776" lon="6.79544999518">
		<tag k="alt_name" v="Herad kirke" />
		<tag k="amenity" v="place_of_worship" />
		<tag k="denomination" v="lutheran" />
		<tag k="name" v="Herad" />
		<tag k="religion" v="christian" />
		<tag k="ssr:stedsnr" v="485180" />
	</node>
	<node id="-511812" lat="58.1885500002" lon="6.87594722217">
		<tag k="name" v="Utsikten" />
		<tag k="ssr:stedsnr" v="689744" />
		<tag k="tourism" v="viewpoint" />
	</node>
	<node id="-512002" lat="58.1275527815" lon="6.68454445195">
		<tag k="amenity" v="community_centre" />
		<tag k="name" v="Gullsmedbakk" />
		<tag k="ssr:stedsnr" v="938776" />
	</node>
>>>>>>> e1d4bc35ff8a6074a6f2e91616a996b547c36f15
</osm>
