<?xml version="1.0" encoding="UTF-8"?>
<osm version="0.6" generator="osmapis">
	<node lat="58.78731944098191" lon="6.813775007068102" id="-28744">
		<tag k="name" v="Reveura" />
		<tag k="natural" v="scree" />
		<tag k="ssr:stedsnr" v="43186" />
	</node>
	<node lat="58.612622225915196" lon="6.666436112048726" id="-28746">
		<tag k="name" v="Skiljingsfloda" />
		<tag k="natural" v="wetland" />
		<tag k="ssr:stedsnr" v="43192" />
	</node>
	<node lat="58.53180832982115" lon="6.750380550791474" id="-28756">
		<tag k="name" v="Liemyr" />
		<tag k="natural" v="wetland" />
		<tag k="ssr:stedsnr" v="43586" />
	</node>
	<node lat="58.906005555008754" lon="6.847591661151897" id="-28760">
		<tag k="name" v="Lassemyra" />
		<tag k="natural" v="wetland" />
		<tag k="ssr:stedsnr" v="43595" />
	</node>
	<node lat="58.51909999661948" lon="6.749650001514032" id="-28780">
		<tag k="name" v="Bervamyr" />
		<tag k="natural" v="wetland" />
		<tag k="ssr:stedsnr" v="43615" />
	</node>
	<node lat="58.86399166758985" lon="6.90815833127574" id="-28802">
		<tag k="name" v="Finnane" />
		<tag k="natural" v="wetland" />
		<tag k="ssr:stedsnr" v="44345" />
	</node>
	<node lat="58.729072222794656" lon="6.743349992586433" id="-29011">
		<tag k="name" v="Varpemyra" />
		<tag k="natural" v="wetland" />
		<tag k="ssr:stedsnr" v="104607" />
	</node>
	<node lat="58.72487222087567" lon="6.739416674447032" id="-29012">
		<tag k="name" v="Steiekleivmyra" />
		<tag k="natural" v="wetland" />
		<tag k="ssr:stedsnr" v="104608" />
	</node>
	<node lat="58.867263890592056" lon="6.799802772536858" id="-29043">
		<tag k="name" v="Myra" />
		<tag k="place" v="locality" />
		<tag k="ssr:stedsnr" v="105317" />
	</node>
	<node lat="59.01801357572337" lon="6.935685105175164" id="-29049">
		<tag k="name" v="Kallsrein" />
		<tag k="natural" v="wetland" />
		<tag k="ssr:stedsnr" v="105544" />
	</node>
	<node lat="58.83383333412985" lon="6.75134722534483" id="-29055">
		<tag k="name" v="Myran" />
		<tag k="natural" v="wetland" />
		<tag k="ssr:stedsnr" v="105586" />
	</node>
	<node lat="59.03256666584271" lon="6.954369448155937" id="-29061">
		<tag k="name" v="Bronnstedjane" />
		<tag k="natural" v="wetland" />
		<tag k="ssr:stedsnr" v="105675" />
	</node>
	<node lat="58.57008055620575" lon="6.63876389169787" id="-29106">
		<tag k="name" v="Videmyran" />
		<tag k="natural" v="wetland" />
		<tag k="ssr:stedsnr" v="158402" />
	</node>
	<node lat="58.666244446736215" lon="6.7002194468205705" id="-29119">
		<tag k="name" v="Dompa" />
		<tag k="place" v="locality" />
		<tag k="ssr:stedsnr" v="164268" />
	</node>
	<node lat="58.52829722077185" lon="6.7810555629373725" id="-29132">
		<tag k="historic" v="shieling" />
		<tag k="name" v="Gamlestølen" />
		<tag k="place" v="locality" />
		<tag k="ssr:stedsnr" v="164607" />
	</node>
	<node lat="58.644091667184775" lon="6.534172216241069" id="-29142">
		<tag k="name" v="Nyland" />
		<tag k="place" v="locality" />
		<tag k="ssr:stedsnr" v="164778" />
	</node>
	<node lat="58.86311944796312" lon="6.904461119049951" id="-29172">
		<tag k="name" v="Gorrmyrane" />
		<tag k="natural" v="wetland" />
		<tag k="ssr:stedsnr" v="165364" />
	</node>
	<node lat="58.86039166340406" lon="6.897202780088358" id="-29174">
		<tag k="name" v="Stilkemyr" />
		<tag k="natural" v="wetland" />
		<tag k="ssr:stedsnr" v="165370" />
	</node>
	<node lat="58.90193888597141" lon="6.9547416601551255" id="-29175">
		<tag k="name" v="Heimre Svåen" />
		<tag k="natural" v="wetland" />
		<tag k="ssr:stedsnr" v="165371" />
	</node>
	<node lat="58.69800277603749" lon="6.725677779248496" id="-29178">
		<tag k="name" v="Urene" />
		<tag k="natural" v="scree" />
		<tag k="ssr:stedsnr" v="165505" />
	</node>
	<node lat="59.04584954510099" lon="6.956168028060652" id="-29187">
		<tag k="name" v="Fruggemyr" />
		<tag k="natural" v="wetland" />
		<tag k="ssr:stedsnr" v="165581" />
	</node>
	<node lat="59.04700970961937" lon="6.951189547675853" id="-29188">
		<tag k="name" v="Flatstølmyrane" />
		<tag k="natural" v="wetland" />
		<tag k="ssr:stedsnr" v="165583" />
	</node>
	<node lat="58.908166669147526" lon="6.984419439315817" id="-29203">
		<tag k="name" v="Finnen" />
		<tag k="natural" v="wetland" />
		<tag k="ssr:stedsnr" v="165761" />
	</node>
	<node lat="58.62188333555982" lon="6.510830548682698" id="-29223">
		<tag k="alt_name" v="Fenmyrane" />
		<tag k="name" v="Fenemyrane" />
		<tag k="natural" v="wetland" />
		<tag k="ssr:stedsnr" v="182825" />
	</node>
	<node lat="58.505497224157736" lon="6.773719440658208" id="-29248">
		<tag k="name" v="Kleivsmyr" />
		<tag k="natural" v="wetland" />
		<tag k="ssr:stedsnr" v="224114" />
	</node>
	<node lat="58.70713611255478" lon="6.8641888885506175" id="-29255">
		<tag k="name" v="Brudgomssteinen" />
		<tag k="natural" v="stone" />
		<tag k="ssr:stedsnr" v="225304" />
	</node>
	<node lat="58.5842388878385" lon="6.675208337103595" id="-29266">
		<tag k="name" v="Myran" />
		<tag k="place" v="locality" />
		<tag k="ssr:stedsnr" v="225409" />
	</node>
	<node lat="58.55305277728829" lon="6.788730554307242" id="-29267">
		<tag k="name" v="Klovsteinan" />
		<tag k="natural" v="stone" />
		<tag k="ssr:stedsnr" v="225577" />
	</node>
	<node lat="58.74001389105052" lon="6.875572215847623" id="-29277">
		<tag k="name" v="Rålshola" />
		<tag k="natural" v="wetland" />
		<tag k="ssr:stedsnr" v="225716" />
	</node>
	<node lat="58.71191110877338" lon="6.797277776505686" id="-29303">
		<tag k="name" v="Løesletta" />
		<tag k="natural" v="wetland" />
		<tag k="ssr:stedsnr" v="226346" />
	</node>
	<node lat="59.02277968166076" lon="6.972244279522606" id="-29312">
		<tag k="name" v="Bekkestean" />
		<tag k="natural" v="wetland" />
		<tag k="ssr:stedsnr" v="226640" />
	</node>
	<node lat="58.507674997876016" lon="6.772574997276223" id="-29395">
		<tag k="name" v="Grøne tødnan" />
		<tag k="place" v="locality" />
		<tag k="ssr:stedsnr" v="285096" />
	</node>
	<node lat="58.783519445373344" lon="6.782913891657264" id="-29406">
		<tag k="name" v="Hausteslåtten" />
		<tag k="natural" v="wetland" />
		<tag k="ssr:stedsnr" v="286191" />
	</node>
	<node lat="58.57825000290013" lon="6.733888880961754" id="-29419">
		<tag k="name" v="Tønneslåta" />
		<tag k="natural" v="wetland" />
		<tag k="ssr:stedsnr" v="286467" />
	</node>
	<node lat="59.04155555217953" lon="6.979413896574944" id="-29461">
		<tag k="name" v="Storrslåtten" />
		<tag k="natural" v="wetland" />
		<tag k="ssr:stedsnr" v="287614" />
	</node>
	<node lat="58.84417777722976" lon="6.716563892553818" id="-29473">
		<tag k="historic" v="shieling" />
		<tag k="name" v="Surpestøl" />
		<tag k="place" v="locality" />
		<tag k="ssr:stedsnr" v="287688" />
	</node>
	<node lat="58.62230833308496" lon="6.666622221459177" id="-29508">
		<tag k="name" v="Smøreholet" />
		<tag k="natural" v="wetland" />
		<tag k="ssr:stedsnr" v="467234" />
	</node>
	<node lat="58.5137999972006" lon="6.82467499477914" id="-29517">
		<tag k="name" v="Heddå i skaret" />
		<tag k="natural" v="stone" />
		<tag k="ssr:stedsnr" v="467691" />
	</node>
	<node lat="58.66673611449727" lon="6.618286111990911" id="-29524">
		<tag k="name" v="Marteskjerr" />
		<tag k="natural" v="wetland" />
		<tag k="ssr:stedsnr" v="468152" />
	</node>
	<node lat="58.69692777959969" lon="6.786111107852157" id="-29533">
		<tag k="name" v="Skjørbu" />
		<tag k="place" v="locality" />
		<tag k="ssr:stedsnr" v="468335" />
	</node>
	<node lat="58.54873888903457" lon="6.787608341451928" id="-29548">
		<tag k="name" v="Atlaksmyr" />
		<tag k="natural" v="wetland" />
		<tag k="ssr:stedsnr" v="468384" />
	</node>
	<node lat="58.52395833125784" lon="6.72705555371942" id="-29568">
		<tag k="name" v="Solli" />
		<tag k="natural" v="wetland" />
		<tag k="ssr:stedsnr" v="468597" />
	</node>
	<node lat="58.91401110718656" lon="6.842308337910677" id="-29577">
		<tag k="name" v="Vigestølmyrane" />
		<tag k="natural" v="wetland" />
		<tag k="ssr:stedsnr" v="468551" />
	</node>
	<node lat="58.96348610832326" lon="6.912925005029135" id="-29594">
		<tag k="name" v="Vika" />
		<tag k="natural" v="wetland" />
		<tag k="ssr:stedsnr" v="468786" />
	</node>
	<node lat="58.90931388844868" lon="6.979747215143578" id="-29596">
		<tag k="name" v="Holmane" />
		<tag k="natural" v="wetland" />
		<tag k="ssr:stedsnr" v="468728" />
	</node>
	<node lat="58.90498055860786" lon="6.818294441033497" id="-29637">
		<tag k="name" v="Flatbergmyra" />
		<tag k="natural" v="wetland" />
		<tag k="ssr:stedsnr" v="469638" />
	</node>
	<node lat="58.572616665151266" lon="6.658966664196655" id="-29663">
		<tag k="name" v="Mannhom" />
		<tag k="natural" v="wetland" />
		<tag k="ssr:stedsnr" v="346508" />
	</node>
	<node lat="58.569705555360734" lon="6.730080554635606" id="-29672">
		<tag k="name" v="Flotmyr" />
		<tag k="natural" v="wetland" />
		<tag k="ssr:stedsnr" v="346468" />
	</node>
	<node lat="58.71623611210534" lon="6.722369446494253" id="-29676">
		<tag k="name" v="Stora ura" />
		<tag k="natural" v="scree" />
		<tag k="ssr:stedsnr" v="346666" />
	</node>
	<node lat="58.860986113125584" lon="6.795924997630415" id="-29693">
		<tag k="name" v="Rekeviksmyra" />
		<tag k="place" v="locality" />
		<tag k="ssr:stedsnr" v="347307" />
	</node>
	<node lat="58.794136108295724" lon="6.863375002627808" id="-29719">
		<tag k="name" v="Nyestølmyra" />
		<tag k="natural" v="wetland" />
		<tag k="ssr:stedsnr" v="347626" />
	</node>
	<node lat="58.84955277617342" lon="6.849505548527902" id="-29735">
		<tag k="name" v="Fosseslåta" />
		<tag k="natural" v="wetland" />
		<tag k="ssr:stedsnr" v="347814" />
	</node>
	<node lat="58.85370000150958" lon="6.87413611941833" id="-29745">
		<tag k="name" v="Ketilsslåta" />
		<tag k="natural" v="wetland" />
		<tag k="ssr:stedsnr" v="347878" />
	</node>
	<node lat="58.864250003103635" lon="6.741194439043558" id="-29750">
		<tag k="name" v="Myran" />
		<tag k="natural" v="wetland" />
		<tag k="ssr:stedsnr" v="347980" />
	</node>
	<node lat="58.62723055231412" lon="6.829461104187285" id="-29839">
		<tag k="name" v="Samlogslåten" />
		<tag k="natural" v="wetland" />
		<tag k="ssr:stedsnr" v="407115" />
	</node>
	<node lat="58.610341666133785" lon="6.686886117400033" id="-29848">
		<tag k="name" v="Kyrkjemyra" />
		<tag k="natural" v="wetland" />
		<tag k="ssr:stedsnr" v="407248" />
	</node>
	<node lat="58.57630832957285" lon="6.666061104425542" id="-29853">
		<tag k="name" v="Sleten" />
		<tag k="place" v="locality" />
		<tag k="ssr:stedsnr" v="407416" />
	</node>
	<node lat="58.53880277876193" lon="6.760050003113411" id="-29863">
		<tag k="name" v="Sprangreidshommen" />
		<tag k="natural" v="wetland" />
		<tag k="ssr:stedsnr" v="407602" />
	</node>
	<node lat="58.682399996592316" lon="6.733894450743045" id="-29882">
		<tag k="name" v="Mørkeskog" />
		<tag k="place" v="locality" />
		<tag k="ssr:stedsnr" v="407794" />
	</node>
	<node lat="58.85083888550334" lon="6.776997213937744" id="-29883">
		<tag k="name" v="Geitesteinen" />
		<tag k="natural" v="stone" />
		<tag k="ssr:stedsnr" v="407841" />
	</node>
	<node lat="58.90099444016583" lon="6.964172228912268" id="-29905">
		<tag k="name" v="Kvistein" />
		<tag k="natural" v="stone" />
		<tag k="ssr:stedsnr" v="408399" />
	</node>
	<node lat="58.88290000301503" lon="6.850322218876551" id="-29908">
		<tag k="name" v="Sletta" />
		<tag k="place" v="locality" />
		<tag k="ssr:stedsnr" v="408515" />
	</node>
	<node lat="58.726622219629206" lon="6.695724998285086" id="-29915">
		<tag k="name" v="Kjellslåttene" />
		<tag k="natural" v="wetland" />
		<tag k="ssr:stedsnr" v="408606" />
	</node>
	<node lat="58.90661110686438" lon="6.977194445719319" id="-29932">
		<tag k="name" v="Jakkemyrane" />
		<tag k="natural" v="wetland" />
		<tag k="ssr:stedsnr" v="408744" />
	</node>
	<node lat="58.66538333432804" lon="6.663083337499308" id="-30018">
		<tag k="name" v="Skrubbemyr" />
		<tag k="place" v="locality" />
		<tag k="ssr:stedsnr" v="467167" />
	</node>
	<node lat="58.66421389315164" lon="6.831900005870724" id="-30024">
		<tag k="name" v="Halsen" />
		<tag k="natural" v="wetland" />
		<tag k="ssr:stedsnr" v="467516" />
	</node>
	<node lat="58.58809722454416" lon="6.675516660272985" id="-30046">
		<tag k="name" v="Holan" />
		<tag k="place" v="locality" />
		<tag k="ssr:stedsnr" v="468322" />
	</node>
	<node lat="58.69015555129497" lon="6.7788138842860395" id="-30047">
		<tag k="name" v="Klovsteinen" />
		<tag k="natural" v="stone" />
		<tag k="ssr:stedsnr" v="468331" />
	</node>
	<node lat="58.56815833028842" lon="6.745397225128319" id="-30054">
		<tag k="name" v="Nilsslåtten" />
		<tag k="natural" v="wetland" />
		<tag k="ssr:stedsnr" v="468419" />
	</node>
	<node lat="58.889633336860776" lon="6.8517611041292925" id="-30055">
		<tag k="name" v="Ura" />
		<tag k="natural" v="scree" />
		<tag k="ssr:stedsnr" v="468421" />
	</node>
	<node lat="58.55139444376531" lon="6.722497228534186" id="-30082">
		<tag k="name" v="Hologsmyra" />
		<tag k="natural" v="wetland" />
		<tag k="ssr:stedsnr" v="468525" />
	</node>
	<node lat="58.90244722342073" lon="6.602316662714985" id="-30126">
		<tag k="name" v="Indre Tverrlega" />
		<tag k="natural" v="wetland" />
		<tag k="ssr:stedsnr" v="468981" />
	</node>
	<node lat="58.6010388884106" lon="6.732902780693563" id="-30186">
		<tag k="name" v="Revura" />
		<tag k="natural" v="scree" />
		<tag k="ssr:stedsnr" v="528383" />
	</node>
	<node lat="58.594394447733976" lon="6.7599472190700745" id="-30188">
		<tag k="name" v="Stora myra" />
		<tag k="natural" v="wetland" />
		<tag k="ssr:stedsnr" v="528396" />
	</node>
	<node lat="58.676266670437094" lon="6.838752780031751" id="-30194">
		<tag k="name" v="Dauremålshommen" />
		<tag k="natural" v="wetland" />
		<tag k="ssr:stedsnr" v="528481" />
	</node>
	<node lat="58.73356181568766" lon="6.691077414274459" id="-30210">
		<tag k="name" v="Kjerringslåtene" />
		<tag k="natural" v="wetland" />
		<tag k="ssr:stedsnr" v="529202" />
	</node>
	<node lat="58.732704939560165" lon="6.705553251464078" id="-30211">
		<tag k="name" v="Piggsteinen" />
		<tag k="natural" v="stone" />
		<tag k="ssr:stedsnr" v="529207" />
	</node>
	<node lat="58.883758335681954" lon="6.872191670650252" id="-30221">
		<tag k="name" v="Brende myrane" />
		<tag k="natural" v="wetland" />
		<tag k="ssr:stedsnr" v="529480" />
	</node>
	<node lat="59.01726137964829" lon="6.9771251514160735" id="-30226">
		<tag k="name" v="Stilkemyr" />
		<tag k="natural" v="wetland" />
		<tag k="ssr:stedsnr" v="529612" />
	</node>
	<node lat="58.79225555983307" lon="6.865716660095681" id="-30227">
		<tag k="name" v="Pråmstømyra" />
		<tag k="natural" v="wetland" />
		<tag k="ssr:stedsnr" v="529619" />
	</node>
	<node lat="58.7941777745797" lon="6.86700833077467" id="-30230">
		<tag k="name" v="Todlakstølmyra" />
		<tag k="natural" v="wetland" />
		<tag k="ssr:stedsnr" v="529629" />
	</node>
	<node lat="58.6646583331951" lon="6.675874999490399" id="-30321">
		<tag k="name" v="Fjerdingsmyr" />
		<tag k="natural" v="wetland" />
		<tag k="ssr:stedsnr" v="588154" />
	</node>
	<node lat="58.5964972194351" lon="6.769377776370046" id="-30324">
		<tag k="name" v="Trælemyr" />
		<tag k="natural" v="wetland" />
		<tag k="ssr:stedsnr" v="588175" />
	</node>
	<node lat="58.507013888571784" lon="6.713250004656059" id="-30325">
		<tag k="name" v="Saueliura" />
		<tag k="natural" v="scree" />
		<tag k="ssr:stedsnr" v="588707" />
	</node>
	<node lat="58.60939722441047" lon="6.726252779705564" id="-30328">
		<tag k="name" v="Fjordingsmyr" />
		<tag k="natural" v="wetland" />
		<tag k="ssr:stedsnr" v="589055" />
	</node>
	<node lat="58.661886109490254" lon="6.634680548039868" id="-30342">
		<tag k="name" v="Storemyr" />
		<tag k="natural" v="wetland" />
		<tag k="ssr:stedsnr" v="589178" />
	</node>
	<node lat="58.690297218343176" lon="6.788680558105493" id="-30350">
		<tag k="name" v="Lillemyra" />
		<tag k="natural" v="wetland" />
		<tag k="ssr:stedsnr" v="589358" />
	</node>
	<node lat="58.69066388958845" lon="6.774477778872831" id="-30351">
		<tag k="name" v="Kyrremyr" />
		<tag k="natural" v="wetland" />
		<tag k="ssr:stedsnr" v="589361" />
	</node>
	<node lat="58.52656110812416" lon="6.75760834016294" id="-30370">
		<tag k="name" v="Røskosteinan" />
		<tag k="natural" v="stone" />
		<tag k="ssr:stedsnr" v="589562" />
	</node>
	<node lat="58.5232027789341" lon="6.7066361082277055" id="-30372">
		<tag k="name" v="Stølssteinan" />
		<tag k="natural" v="stone" />
		<tag k="ssr:stedsnr" v="589575" />
	</node>
	<node lat="58.516027780257254" lon="6.698316666132777" id="-30395">
		<tag k="name" v="Gurslisteinen" />
		<tag k="natural" v="stone" />
		<tag k="ssr:stedsnr" v="589658" />
	</node>
	<node lat="58.86704721893574" lon="6.794147223868489" id="-30409">
		<tag k="name" v="Evjemoen" />
		<tag k="place" v="locality" />
		<tag k="ssr:stedsnr" v="590321" />
	</node>
	<node lat="58.84033611128786" lon="6.7622999962530255" id="-30424">
		<tag k="name" v="Stidlingssteinen" />
		<tag k="natural" v="stone" />
		<tag k="ssr:stedsnr" v="590858" />
	</node>
	<node lat="58.570000003139086" lon="6.655777771079436" id="-30474">
		<tag k="name" v="Legemyr" />
		<tag k="natural" v="wetland" />
		<tag k="ssr:stedsnr" v="643408" />
	</node>
	<node lat="58.51189999710945" lon="6.731302782090007" id="-30481">
		<tag k="name" v="Myrbersteinen" />
		<tag k="natural" v="stone" />
		<tag k="ssr:stedsnr" v="648092" />
	</node>
	<node lat="58.635297218165896" lon="6.575408325081057" id="-30508">
		<tag k="name" v="Forelokken" />
		<tag k="place" v="locality" />
		<tag k="ssr:stedsnr" v="649706" />
	</node>
	<node lat="58.63633055866053" lon="6.516074997693671" id="-30510">
		<tag k="name" v="Kydland" />
		<tag k="natural" v="wetland" />
		<tag k="ssr:stedsnr" v="649785" />
	</node>
	<node lat="58.77337778040657" lon="6.627461115015345" id="-30517">
		<tag k="name" v="Kusteinen" />
		<tag k="natural" v="stone" />
		<tag k="ssr:stedsnr" v="650135" />
	</node>
	<node lat="58.71349722034963" lon="6.8221944375113575" id="-30526">
		<tag k="name" v="Piggsteinen" />
		<tag k="natural" v="stone" />
		<tag k="ssr:stedsnr" v="650287" />
	</node>
	<node lat="59.0230863991404" lon="6.963139228326047" id="-30542">
		<tag k="name" v="Smålimyrane" />
		<tag k="natural" v="wetland" />
		<tag k="ssr:stedsnr" v="650538" />
	</node>
	<node lat="58.722730553947585" lon="6.70231666923721" id="-30543">
		<tag k="name" v="Sirisfænet" />
		<tag k="natural" v="wetland" />
		<tag k="ssr:stedsnr" v="650542" />
	</node>
	<node lat="58.942352779106585" lon="6.829144439034861" id="-30545">
		<tag k="name" v="Jenteslåttene" />
		<tag k="natural" v="wetland" />
		<tag k="ssr:stedsnr" v="650715" />
	</node>
	<node lat="58.61665555472889" lon="6.747402785253321" id="-30601">
		<tag k="name" v="Stakkhomstøl" />
		<tag k="natural" v="wetland" />
		<tag k="ssr:stedsnr" v="710061" />
	</node>
	<node lat="58.63191666436286" lon="6.835661105309528" id="-30669">
		<tag k="name" v="Hausteslåten" />
		<tag k="natural" v="wetland" />
		<tag k="ssr:stedsnr" v="893097" />
	</node>
	<node lat="58.58526389211527" lon="6.680227780594827" id="-30700">
		<tag k="name" v="Viraksmyra" />
		<tag k="natural" v="wetland" />
		<tag k="ssr:stedsnr" v="893377" />
	</node>
	<node lat="58.536858331828824" lon="6.7675305481215755" id="-30715">
		<tag k="name" v="Liemyr" />
		<tag k="natural" v="wetland" />
		<tag k="ssr:stedsnr" v="893590" />
	</node>
	<node lat="58.741522221202615" lon="6.626108325822323" id="-30734">
		<tag k="name" v="Holemyran" />
		<tag k="natural" v="wetland" />
		<tag k="ssr:stedsnr" v="893721" />
	</node>
	<node lat="58.71120833380161" lon="6.8833138973763495" id="-30735">
		<tag k="name" v="Videmyran" />
		<tag k="natural" v="wetland" />
		<tag k="ssr:stedsnr" v="893722" />
	</node>
	<node lat="58.75157499578943" lon="6.7911444402534675" id="-30742">
		<tag k="name" v="Fuglemonen" />
		<tag k="natural" v="wetland" />
		<tag k="ssr:stedsnr" v="893734" />
	</node>
	<node lat="58.63211944304418" lon="6.691172224506871" id="-30749">
		<tag k="name" v="Ulvshom" />
		<tag k="natural" v="wetland" />
		<tag k="ssr:stedsnr" v="893747" />
	</node>
	<node lat="58.73929166697118" lon="6.854900001620407" id="-30755">
		<tag k="name" v="Halvfarstein" />
		<tag k="natural" v="stone" />
		<tag k="ssr:stedsnr" v="893699" />
	</node>
	<node lat="58.92737777966407" lon="6.8139111196357804" id="-30757">
		<tag k="name" v="Reinsholene" />
		<tag k="natural" v="wetland" />
		<tag k="ssr:stedsnr" v="893818" />
	</node>
	<node lat="58.85850555806904" lon="6.87786944185886" id="-30770">
		<tag k="name" v="Grasmyran" />
		<tag k="natural" v="wetland" />
		<tag k="ssr:stedsnr" v="893856" />
	</node>
	<node lat="58.79653333070846" lon="6.873288894618564" id="-30781">
		<tag k="name" v="Andestølmyr" />
		<tag k="natural" v="wetland" />
		<tag k="ssr:stedsnr" v="894492" />
	</node>
	<node lat="58.6070611092099" lon="6.674750006687641" id="-30820">
		<tag k="name" v="Kringlemyr" />
		<tag k="natural" v="wetland" />
		<tag k="ssr:stedsnr" v="710213" />
	</node>
	<node lat="58.56207500264384" lon="6.780877785935648" id="-30845">
		<tag k="name" v="Store Myra" />
		<tag k="natural" v="wetland" />
		<tag k="ssr:stedsnr" v="711295" />
	</node>
	<node lat="58.69646666888436" lon="6.791552773826011" id="-30846">
		<tag k="name" v="Skoremyran" />
		<tag k="natural" v="wetland" />
		<tag k="ssr:stedsnr" v="711403" />
	</node>
	<node lat="58.86071389307758" lon="6.890277782170413" id="-30861">
		<tag k="name" v="Duntekvæv" />
		<tag k="natural" v="wetland" />
		<tag k="ssr:stedsnr" v="711397" />
	</node>
	<node lat="58.92087778057816" lon="6.819827770681442" id="-30867">
		<tag k="name" v="Dåfjellstean" />
		<tag k="natural" v="wetland" />
		<tag k="ssr:stedsnr" v="711512" />
	</node>
	<node lat="58.51944721932067" lon="6.719744446891786" id="-30882">
		<tag k="name" v="Myran" />
		<tag k="natural" v="wetland" />
		<tag k="ssr:stedsnr" v="711616" />
	</node>
	<node lat="58.94854722287989" lon="6.827302771386757" id="-30903">
		<tag k="name" v="Toresteig" />
		<tag k="natural" v="wetland" />
		<tag k="ssr:stedsnr" v="711796" />
	</node>
	<node lat="58.50434166493609" lon="6.769683336643274" id="-30971">
		<tag k="name" v="Brattebrodet" />
		<tag k="place" v="locality" />
		<tag k="ssr:stedsnr" v="770107" />
	</node>
	<node lat="58.57449999817125" lon="6.68196111021383" id="-30992">
		<tag k="name" v="Honneflåtmyra" />
		<tag k="natural" v="wetland" />
		<tag k="ssr:stedsnr" v="771425" />
	</node>
	<node lat="58.881738892175846" lon="6.822638890489188" id="-31030">
		<tag k="name" v="Heggura" />
		<tag k="natural" v="scree" />
		<tag k="ssr:stedsnr" v="772311" />
	</node>
	<node lat="58.99587777461272" lon="6.904908336598641" id="-31042">
		<tag k="name" v="Kvithedlarmyran" />
		<tag k="natural" v="wetland" />
		<tag k="ssr:stedsnr" v="772516" />
	</node>
	<node lat="59.02872766358932" lon="6.950727785346537" id="-31052">
		<tag k="name" v="Kallemyr" />
		<tag k="natural" v="wetland" />
		<tag k="ssr:stedsnr" v="772604" />
	</node>
	<node lat="58.93649722172036" lon="6.778247222287262" id="-31064">
		<tag k="name" v="Bjørnesteinen" />
		<tag k="natural" v="stone" />
		<tag k="ssr:stedsnr" v="772814" />
	</node>
	<node lat="58.72687777372696" lon="6.682283340052551" id="-31074">
		<tag k="name" v="Fudemyra" />
		<tag k="natural" v="wetland" />
		<tag k="ssr:stedsnr" v="772562" />
	</node>
	<node lat="58.92580277557152" lon="6.877594447348449" id="-31078">
		<tag k="name" v="Dipledalsmyrane" />
		<tag k="natural" v="wetland" />
		<tag k="ssr:stedsnr" v="772709" />
	</node>
	<node lat="58.58694444044915" lon="6.818136111622199" id="-31210">
		<tag k="name" v="Storemyra" />
		<tag k="natural" v="wetland" />
		<tag k="ssr:stedsnr" v="832193" />
	</node>
	<node lat="58.61636944182044" lon="6.689922229995715" id="-31215">
		<tag k="name" v="Gulåspodlan" />
		<tag k="natural" v="wetland" />
		<tag k="ssr:stedsnr" v="832234" />
	</node>
	<node lat="58.579580558408246" lon="6.772850002895593" id="-31228">
		<tag k="name" v="Joda" />
		<tag k="natural" v="wetland" />
		<tag k="ssr:stedsnr" v="832496" />
	</node>
	<node lat="59.016333606543824" lon="6.947377841277408" id="-31257">
		<tag k="name" v="Via myra" />
		<tag k="natural" v="wetland" />
		<tag k="ssr:stedsnr" v="833584" />
	</node>
	<node lat="58.73128332940115" lon="6.67543888430873" id="-31258">
		<tag k="name" v="Grønheisteian" />
		<tag k="natural" v="wetland" />
		<tag k="ssr:stedsnr" v="833586" />
	</node>
	<node lat="59.014705508595256" lon="6.958305279175174" id="-31259">
		<tag k="name" v="Hesture" />
		<tag k="natural" v="scree" />
		<tag k="ssr:stedsnr" v="833589" />
	</node>
	<node lat="58.619105559565774" lon="6.634986119411218" id="-31325">
		<tag k="name" v="Helgasmyran" />
		<tag k="natural" v="wetland" />
		<tag k="ssr:stedsnr" v="892145" />
	</node>
	<node lat="58.513061113970295" lon="6.745405554388611" id="-31330">
		<tag k="name" v="Kvednhusbakken" />
		<tag k="place" v="locality" />
		<tag k="ssr:stedsnr" v="892066" />
	</node>
	<node lat="58.73028333582837" lon="6.798238891654636" id="-31341">
		<tag k="name" v="Myrberkjeret" />
		<tag k="natural" v="wetland" />
		<tag k="ssr:stedsnr" v="893316" />
	</node>
	<node lat="58.53818333492447" lon="6.774650002746191" id="-31357">
		<tag k="name" v="Steiane" />
		<tag k="natural" v="wetland" />
		<tag k="ssr:stedsnr" v="893407" />
	</node>
	<node lat="58.97123055351483" lon="6.916211112400642" id="-31367">
		<tag k="name" v="Kusteinen" />
		<tag k="natural" v="stone" />
		<tag k="ssr:stedsnr" v="893536" />
	</node>
	<node lat="58.52904444430347" lon="6.759766663568677" id="-31371">
		<tag k="name" v="Linnekringen" />
		<tag k="natural" v="wetland" />
		<tag k="ssr:stedsnr" v="893558" />
	</node>
	<node lat="58.761699997994455" lon="6.8085527771272565" id="-31382">
		<tag k="name" v="Ras-ur" />
		<tag k="natural" v="scree" />
		<tag k="ssr:stedsnr" v="893714" />
	</node>
	<node lat="58.724002773937485" lon="6.734238890076493" id="-31392">
		<tag k="name" v="Stimyra" />
		<tag k="natural" v="wetland" />
		<tag k="ssr:stedsnr" v="893613" />
	</node>
	<node lat="58.88662500328475" lon="7.061730559091446" id="-31394">
		<tag k="name" v="Stedjane" />
		<tag k="natural" v="wetland" />
		<tag k="ssr:stedsnr" v="893620" />
	</node>
	<node lat="58.74217777380615" lon="6.774902784896055" id="-31409">
		<tag k="name" v="Andemyr" />
		<tag k="place" v="locality" />
		<tag k="ssr:stedsnr" v="893773" />
	</node>
	<node lat="58.862858332118485" lon="6.804250007662288" id="-31419">
		<tag k="name" v="Torvmyra" />
		<tag k="natural" v="wetland" />
		<tag k="ssr:stedsnr" v="894361" />
	</node>
	<node lat="58.79855833100454" lon="6.784147229500362" id="-31424">
		<tag k="name" v="Borkneslåtten" />
		<tag k="natural" v="wetland" />
		<tag k="ssr:stedsnr" v="894460" />
	</node>
	<node lat="58.76142222330065" lon="6.6772694501421315" id="-31443">
		<tag k="alt_name" v="Vikstøl" />
		<tag k="historic" v="shieling" />
		<tag k="name" v="Vikestøl" />
		<tag k="place" v="locality" />
		<tag k="ssr:stedsnr" v="911003" />
	</node>
	<node lat="58.50369166500831" lon="6.744083335154204" id="-31467">
		<tag k="name" v="Talsteinen" />
		<tag k="natural" v="stone" />
		<tag k="ssr:stedsnr" v="952100" />
	</node>
	<node lat="58.50374166448668" lon="6.747677778121596" id="-31468">
		<tag k="name" v="Huldresteinen" />
		<tag k="natural" v="stone" />
		<tag k="ssr:stedsnr" v="952101" />
	</node>
	<node lat="58.50990000273633" lon="6.766177779505541" id="-31470">
		<tag k="name" v="Litla Seljord" />
		<tag k="place" v="locality" />
		<tag k="ssr:stedsnr" v="952109" />
	</node>
	<node lat="58.665311108263815" lon="6.689344437344133" id="-31496">
		<tag k="name" v="Nedstemyr" />
		<tag k="natural" v="wetland" />
		<tag k="ssr:stedsnr" v="953245" />
	</node>
	<node lat="58.58767777765444" lon="6.676936106783425" id="-31499">
		<tag k="name" v="Klyppehola" />
		<tag k="place" v="locality" />
		<tag k="ssr:stedsnr" v="953414" />
	</node>
	<node lat="58.730069447135904" lon="6.777672216334971" id="-31526">
		<tag k="historic" v="shieling" />
		<tag k="name" v="Bakkestøl" />
		<tag k="place" v="locality" />
		<tag k="ssr:stedsnr" v="954240" />
	</node>
	<node lat="58.72201389019533" lon="6.849500002173143" id="-31529">
		<tag k="name" v="Moldbrodhommen" />
		<tag k="natural" v="wetland" />
		<tag k="ssr:stedsnr" v="954291" />
	</node>
	<node lat="59.015441854050906" lon="6.971197675594319" id="-31537">
		<tag k="name" v="Bjødnura" />
		<tag k="natural" v="scree" />
		<tag k="ssr:stedsnr" v="954608" />
	</node>
	<node lat="58.9605361133915" lon="6.90968888468772" id="-31559">
		<tag k="name" v="Stedjan" />
		<tag k="natural" v="wetland" />
		<tag k="ssr:stedsnr" v="954790" />
	</node>
</osm>
