<?xml version="1.0" encoding="UTF-8"?>
<osm version="0.6" generator="osmapis">
	<node lat="58.86321388731722" lon="7.031813883778566" id="-31493">
		<tag k="alt_name" v="Persvatnet" />
		<tag k="name" v="Persvatn" />
		<tag k="natural" v="water" />
		<tag k="ssr:stedsnr" v="151" />
	</node>
	<node lat="58.88597777361588" lon="7.030233336915788" id="-31494">
		<tag k="alt_name" v="Langetjørn" />
		<tag k="name" v="Langetjødn" />
		<tag k="natural" v="water" />
		<tag k="ssr:stedsnr" v="170" />
	</node>
	<node lat="58.66027777338349" lon="6.811741662890294" id="-31501">
		<tag k="alt_name" v="Mevatnet" />
		<tag k="name" v="Mevatn" />
		<tag k="natural" v="water" />
		<tag k="ssr:stedsnr" v="597" />
	</node>
	<node lat="58.84622777866181" lon="6.738708341654498" id="-31505">
		<tag k="alt_name" v="Øyertjørn" />
		<tag k="name" v="Øyartjødn" />
		<tag k="natural" v="water" />
		<tag k="ssr:stedsnr" v="920" />
	</node>
	<node lat="58.79669444624415" lon="6.942761114145159" id="-31508">
		<tag k="alt_name" v="Tollakstjørn" />
		<tag k="name" v="Tollakstjønn" />
		<tag k="natural" v="water" />
		<tag k="ssr:stedsnr" v="1044" />
	</node>
	<node lat="58.939910348717376" lon="7.095204546409353" id="-31511">
		<tag k="alt_name" v="Støyrlotjørnene" />
		<tag k="name" v="Staurlitjødn" />
		<tag k="natural" v="water" />
		<tag k="old_name" v="Støyrlotjørnenne" />
		<tag k="ssr:stedsnr" v="1212" />
		<tag k="water" v="lake" />
	</node>
	<node lat="59.053083334402125" lon="6.88548054721594" id="-31515">
		<tag k="alt_name" v="Dyngjandtjørni" />
		<tag k="name" v="Dyngjantjødn" />
		<tag k="natural" v="water" />
		<tag k="ssr:stedsnr" v="1782" />
	</node>
	<node lat="59.04640833583277" lon="6.787558341128188" id="-31516">
		<tag k="alt_name" v="Matupstjørni" />
		<tag k="name" v="Matupstjødn" />
		<tag k="natural" v="water" />
		<tag k="ssr:stedsnr" v="1785" />
	</node>
	<node lat="58.868322217998916" lon="6.8542361193725725" id="-31520">
		<tag k="alt_name" v="Skardtjørn" />
		<tag k="name" v="Skartjønn" />
		<tag k="natural" v="water" />
		<tag k="ssr:stedsnr" v="1938" />
	</node>
	<node lat="58.91317499825723" lon="6.927452783487371" id="-31521">
		<tag k="name" v="Høna" />
		<tag k="ssr:stedsnr" v="1980" />
		<tag k="waterway" v="river" />
	</node>
	<node lat="59.03289999636407" lon="7.0216249986258354" id="-31529">
		<tag k="alt_name" v="Melrakktjørni, stora" />
		<tag k="name" v="Store Meraktjødn" />
		<tag k="natural" v="water" />
		<tag k="ssr:stedsnr" v="2902" />
	</node>
	<node lat="59.029105555550494" lon="7.072663886935328" id="-31530">
		<tag k="alt_name" v="Monstjørn" />
		<tag k="name" v="Monstjødn" />
		<tag k="natural" v="water" />
		<tag k="ssr:stedsnr" v="2903" />
	</node>
	<node lat="58.73281666576446" lon="6.6811277695646645" id="-31539">
		<tag k="name" v="Nystøltjønn" />
		<tag k="natural" v="water" />
		<tag k="ssr:stedsnr" v="43202" />
	</node>
	<node lat="58.75220830434752" lon="6.732172999023391" id="-31541">
		<tag k="name" v="Øykhomtjønna" />
		<tag k="natural" v="water" />
		<tag k="ssr:stedsnr" v="43214" />
	</node>
	<node lat="58.596900003494795" lon="6.664888893413384" id="-31542">
		<tag k="name" v="Breilibekken" />
		<tag k="ssr:stedsnr" v="43278" />
		<tag k="waterway" v="stream" />
	</node>
	<node lat="58.73540000385304" lon="6.6981472181696535" id="-31549">
		<tag k="name" v="Holeosen" />
		<tag k="natural" v="bay" />
		<tag k="ssr:stedsnr" v="43188" />
	</node>
	<node lat="58.68214722315501" lon="6.644927772624747" id="-31552">
		<tag k="name" v="Svartatjønn" />
		<tag k="natural" v="water" />
		<tag k="ssr:stedsnr" v="43194" />
	</node>
	<node lat="58.97054444083514" lon="6.916958339233517" id="-31558">
		<tag k="name" v="Ristangen" />
		<tag k="natural" v="cape" />
		<tag k="ssr:stedsnr" v="43530" />
	</node>
	<node lat="58.52841111009984" lon="6.752580550422003" id="-31559">
		<tag k="name" v="Strandeliåna" />
		<tag k="ssr:stedsnr" v="43578" />
		<tag k="waterway" v="river" />
	</node>
	<node lat="58.5261722208487" lon="6.724747219996996" id="-31585">
		<tag k="name" v="Støa" />
		<tag k="natural" v="water" />
		<tag k="ssr:stedsnr" v="43623" />
	</node>
	<node lat="58.76999722053766" lon="6.874516661313274" id="-31587">
		<tag k="name" v="Svarttjødn" />
		<tag k="natural" v="water" />
		<tag k="ssr:stedsnr" v="43679" />
	</node>
	<node lat="58.883088888117555" lon="6.855858326352725" id="-31621">
		<tag k="name" v="Øyna" />
		<tag k="place" v="islet" />
		<tag k="ssr:stedsnr" v="44475" />
	</node>
	<node lat="59.019305735897255" lon="6.912517378220984" id="-31622">
		<tag k="name" v="Skreppelona" />
		<tag k="natural" v="water" />
		<tag k="ssr:stedsnr" v="44528" />
		<tag k="water" v="lake" />
	</node>
	<node lat="59.0205884342884" lon="6.91120663069214" id="-31623">
		<tag k="name" v="Lysskartjødn" />
		<tag k="natural" v="water" />
		<tag k="ssr:stedsnr" v="44530" />
	</node>
	<node lat="58.94527500101021" lon="6.901527782369397" id="-31629">
		<tag k="name" v="Skvagrautjønn" />
		<tag k="natural" v="water" />
		<tag k="ssr:stedsnr" v="44640" />
	</node>
	<node lat="59.03037500445053" lon="6.864452777215519" id="-31631">
		<tag k="name" v="Bjødnsiåna" />
		<tag k="ssr:stedsnr" v="44802" />
		<tag k="waterway" v="river" />
	</node>
	<node lat="58.93372777569585" lon="6.872277773911546" id="-31637">
		<tag k="name" v="Slåttetjønn" />
		<tag k="natural" v="water" />
		<tag k="ssr:stedsnr" v="44729" />
	</node>
	<node lat="58.71575555140609" lon="6.721255553036795" id="-31649">
		<tag k="alt_name" v="Haugåni" />
		<tag k="name" v="Haugå" />
		<tag k="ssr:stedsnr" v="60517" />
		<tag k="waterway" v="stream" />
	</node>
	<node lat="58.84451944800713" lon="6.838808326784727" id="-31655">
		<tag k="name" v="Ousdalsvatn" />
		<tag k="natural" v="water" />
		<tag k="ssr:stedsnr" v="61086" />
		<tag k="water" v="lake" />
	</node>
	<node lat="58.829411114698566" lon="6.904599995941627" id="-31656">
		<tag k="name" v="Langevatn" />
		<tag k="natural" v="water" />
		<tag k="ssr:stedsnr" v="61090" />
	</node>
	<node lat="58.82288888966287" lon="6.774358334569268" id="-31659">
		<tag k="alt_name" v="Lomtjørn" />
		<tag k="name" v="Lomtjødn" />
		<tag k="natural" v="water" />
		<tag k="ssr:stedsnr" v="61100" />
	</node>
	<node lat="58.82533055316752" lon="6.6002194363505176" id="-31660">
		<tag k="alt_name" v="Heftetjørn" />
		<tag k="name" v="Heptetjødn" />
		<tag k="natural" v="water" />
		<tag k="ssr:stedsnr" v="61103" />
	</node>
	<node lat="58.621732678711076" lon="6.660350091039017" id="-31663">
		<tag k="name" v="Sjursvatnet" />
		<tag k="natural" v="water" />
		<tag k="ssr:stedsnr" v="61610" />
	</node>
	<node lat="58.70799713867958" lon="6.875845066372057" id="-31664">
		<tag k="alt_name" v="Ribjalsvatnan;Indre Ribjalsvatn" />
		<tag k="name" v="Ribjalsvatn" />
		<tag k="natural" v="water" />
		<tag k="ssr:stedsnr" v="61569" />
	</node>
	<node lat="58.69466944625708" lon="6.619391671259026" id="-31665">
		<tag k="alt_name" v="Holmavatnet" />
		<tag k="name" v="Holmevatn" />
		<tag k="natural" v="water" />
		<tag k="ssr:stedsnr" v="61577" />
	</node>
	<node lat="58.58896944081652" lon="6.6384416659588235" id="-31666">
		<tag k="alt_name" v="Heptetjørna" />
		<tag k="name" v="Heptetjødn" />
		<tag k="natural" v="water" />
		<tag k="ssr:stedsnr" v="61703" />
	</node>
	<node lat="58.591949999935174" lon="6.810969441118075" id="-31667">
		<tag k="alt_name" v="Sauetjørn" />
		<tag k="name" v="Sandtjødn" />
		<tag k="natural" v="water" />
		<tag k="ssr:stedsnr" v="61704" />
	</node>
	<node lat="58.621127781754545" lon="6.5777777745820645" id="-31674">
		<tag k="alt_name" v="Fiskeløysvatnet, nedre" />
		<tag k="name" v="Nedre Fiskeløys" />
		<tag k="natural" v="water" />
		<tag k="ssr:stedsnr" v="61827" />
	</node>
	<node lat="58.742905554796096" lon="6.801652776502052" id="-31678">
		<tag k="name" v="Indre Rosstølstjørna" />
		<tag k="natural" v="water" />
		<tag k="ssr:stedsnr" v="62512" />
	</node>
	<node lat="59.05575277796406" lon="7.130855559047825" id="-31681">
		<tag k="name" v="Bogetjørn" />
		<tag k="natural" v="water" />
		<tag k="ssr:stedsnr" v="62887" />
		<tag k="water" v="lake" />
	</node>
	<node lat="59.01908889316064" lon="7.0799555625140655" id="-31685">
		<tag k="name" v="Hestesundet" />
		<tag k="natural" v="strait" />
		<tag k="ssr:stedsnr" v="62971" />
	</node>
	<node lat="59.09043611343025" lon="6.919858324639134" id="-31688">
		<tag k="alt_name" v="Råni" />
		<tag k="name" v="Råna" />
		<tag k="natural" v="strait" />
		<tag k="ssr:stedsnr" v="63181" />
	</node>
	<node lat="58.768419446699774" lon="6.666611104035471" id="-31693">
		<tag k="alt_name" v="Langavatn" />
		<tag k="name" v="Langevatn" />
		<tag k="natural" v="water" />
		<tag k="ssr:stedsnr" v="243043" />
	</node>
	<node lat="58.88955833314333" lon="6.97143333571516" id="-31696">
		<tag k="alt_name" v="Nepetjørn" />
		<tag k="name" v="Nebetjødn" />
		<tag k="natural" v="water" />
		<tag k="ssr:stedsnr" v="243158" />
	</node>
	<node lat="58.85869166434788" lon="6.97522778016827" id="-31697">
		<tag k="alt_name" v="Bånefjellstjørni, store" />
		<tag k="name" v="Bånefjelltjønn" />
		<tag k="natural" v="water" />
		<tag k="ssr:stedsnr" v="243163" />
	</node>
	<node lat="58.81125555511312" lon="6.897188891997644" id="-31698">
		<tag k="alt_name" v="Skardsvatn" />
		<tag k="name" v="Skarsvatn" />
		<tag k="natural" v="water" />
		<tag k="ssr:stedsnr" v="243061" />
	</node>
	<node lat="58.79212500392781" lon="6.711208331052601" id="-31701">
		<tag k="name" v="Løkjebekken" />
		<tag k="ssr:stedsnr" v="243086" />
		<tag k="waterway" v="stream" />
	</node>
	<node lat="58.796891664063054" lon="6.7066527770872355" id="-31702">
		<tag k="alt_name" v="Løkjevatn" />
		<tag k="name" v="Løgjevatn" />
		<tag k="natural" v="water" />
		<tag k="ssr:stedsnr" v="243087" />
	</node>
	<node lat="58.829408333712415" lon="6.645250001966352" id="-31704">
		<tag k="name" v="Djupevatn" />
		<tag k="natural" v="water" />
		<tag k="ssr:stedsnr" v="243102" />
		<tag k="water" v="lake" />
	</node>
	<node lat="58.8489472210778" lon="7.074008327009935" id="-31707">
		<tag k="name" v="Halvfarodden" />
		<tag k="natural" v="cape" />
		<tag k="ssr:stedsnr" v="243121" />
	</node>
	<node lat="58.861736115349565" lon="7.042149994386151" id="-31708">
		<tag k="alt_name" v="Grånetjørn" />
		<tag k="name" v="Grånetjødn" />
		<tag k="natural" v="water" />
		<tag k="ssr:stedsnr" v="243129" />
	</node>
	<node lat="58.62189166654064" lon="6.599458341146389" id="-31715">
		<tag k="alt_name" v="Fiskløysvatnet, øvre" />
		<tag k="name" v="Øvre Fiskeløys" />
		<tag k="natural" v="water" />
		<tag k="ssr:stedsnr" v="243629" />
	</node>
	<node lat="58.58817023153116" lon="6.608188215982935" id="-31717">
		<tag k="name" v="Myklebergvatnet" />
		<tag k="natural" v="water" />
		<tag k="ssr:stedsnr" v="243674" />
		<tag k="water" v="lake" />
	</node>
	<node lat="58.53145278133298" lon="6.7122305518542005" id="-31719">
		<tag k="alt_name" v="Totjørn" />
		<tag k="name" v="Totjødn" />
		<tag k="natural" v="water" />
		<tag k="ssr:stedsnr" v="243729" />
	</node>
	<node lat="58.646793043704605" lon="6.545785881400847" id="-31722">
		<tag k="alt_name" v="Stakklitjørni" />
		<tag k="name" v="Stakklitjønna" />
		<tag k="natural" v="water" />
		<tag k="ssr:stedsnr" v="243813" />
	</node>
	<node lat="58.6394333352977" lon="6.591430549291856" id="-31723">
		<tag k="alt_name" v="Røynestjørni" />
		<tag k="name" v="Nedre Røynesvatn" />
		<tag k="natural" v="water" />
		<tag k="ssr:stedsnr" v="243822" />
	</node>
	<node lat="58.854756153553964" lon="6.644772428605384" id="-31729">
		<tag k="alt_name" v="Øydevatn" />
		<tag k="name" v="Store Øyevatn" />
		<tag k="natural" v="water" />
		<tag k="ssr:stedsnr" v="243930" />
		<tag k="water" v="lake" />
	</node>
	<node lat="59.05350000333807" lon="6.816827771562444" id="-31733">
		<tag k="name" v="Vardetjørni" />
		<tag k="natural" v="water" />
		<tag k="ssr:stedsnr" v="244799" />
	</node>
	<node lat="58.967577778380885" lon="6.66046111354273" id="-31734">
		<tag k="name" v="Sandvasskilen" />
		<tag k="natural" v="bay" />
		<tag k="ssr:stedsnr" v="244820" />
	</node>
	<node lat="58.890863892329705" lon="6.818627779539913" id="-31736">
		<tag k="alt_name" v="Listølstjørni" />
		<tag k="name" v="Listøltjønnan" />
		<tag k="natural" v="water" />
		<tag k="old_name" v="Listøltjørni" />
		<tag k="ssr:stedsnr" v="244909" />
		<tag k="water" v="lake" />
	</node>
	<node lat="58.74272499820174" lon="6.669108338863976" id="-31737">
		<tag k="name" v="Hemsåni" />
		<tag k="ssr:stedsnr" v="244534" />
		<tag k="waterway" v="stream" />
	</node>
	<node lat="58.74267499563421" lon="6.616680556612172" id="-31738">
		<tag k="alt_name" v="Kulivatnet" />
		<tag k="name" v="Kulivatn" />
		<tag k="natural" v="water" />
		<tag k="ssr:stedsnr" v="244543" />
		<tag k="water" v="lake" />
	</node>
	<node lat="58.71569722430728" lon="6.644891667496138" id="-31740">
		<tag k="alt_name" v="Furevatnet;Føre-vatn" />
		<tag k="name" v="Førevatn" />
		<tag k="natural" v="water" />
		<tag k="ssr:stedsnr" v="244570" />
		<tag k="water" v="lake" />
	</node>
	<node lat="59.01029444558145" lon="6.933355563441619" id="-31741">
		<tag k="alt_name" v="Råmarstjørni" />
		<tag k="name" v="Romarstjødn" />
		<tag k="natural" v="water" />
		<tag k="ssr:stedsnr" v="244772" />
	</node>
	<node lat="59.047461111946724" lon="6.947947222056457" id="-31744">
		<tag k="alt_name" v="Loni" />
		<tag k="name" v="Stølstjødn" />
		<tag k="natural" v="water" />
		<tag k="ssr:stedsnr" v="244829" />
	</node>
	<node lat="59.16347500123269" lon="7.045847215372238" id="-31745">
		<tag k="alt_name" v="Vardetjørn" />
		<tag k="name" v="Varetjødn" />
		<tag k="natural" v="water" />
		<tag k="ssr:stedsnr" v="244871" />
		<tag k="water" v="lake" />
	</node>
	<node lat="59.089547221515154" lon="7.093922221025029" id="-31748">
		<tag k="alt_name" v="Dyrgrovvatnet" />
		<tag k="name" v="Dygråvatnet" />
		<tag k="natural" v="water" />
		<tag k="ssr:stedsnr" v="244936" />
		<tag k="water" v="lake" />
	</node>
	<node lat="59.02492222421243" lon="7.006408339779" id="-31751">
		<tag k="alt_name" v="Flogvatnet, vestra" />
		<tag k="name" v="Heimre Flogvatn" />
		<tag k="natural" v="water" />
		<tag k="ssr:stedsnr" v="244969" />
	</node>
	<node lat="58.514724998658586" lon="6.766744451437092" id="-31756">
		<tag k="name" v="Nedre Trøskjetjødn" />
		<tag k="natural" v="water" />
		<tag k="ssr:stedsnr" v="103089" />
	</node>
	<node lat="58.662880553497345" lon="6.826908333924781" id="-31758">
		<tag k="name" v="Skibusanden" />
		<tag k="natural" v="beach" />
		<tag k="ssr:stedsnr" v="103507" />
	</node>
	<node lat="58.6151138932059" lon="6.792197216165841" id="-31760">
		<tag k="name" v="Osmundsåna" />
		<tag k="ssr:stedsnr" v="104016" />
		<tag k="waterway" v="river" />
	</node>
	<node lat="58.60432777478983" lon="6.666222230538549" id="-31775">
		<tag k="name" v="Mobekken" />
		<tag k="ssr:stedsnr" v="104209" />
		<tag k="waterway" v="stream" />
	</node>
	<node lat="58.58985555550084" lon="6.593802783579018" id="-31780">
		<tag k="name" v="Stemtjødn" />
		<tag k="natural" v="water" />
		<tag k="ssr:stedsnr" v="104297" />
	</node>
	<node lat="58.6735666659259" lon="6.8412777719641475" id="-31786">
		<tag k="name" v="Dauremålstjødn" />
		<tag k="natural" v="water" />
		<tag k="ssr:stedsnr" v="104431" />
	</node>
	<node lat="58.89398333281553" lon="6.878122225098282" id="-31787">
		<tag k="name" v="Litle Kvitsanden" />
		<tag k="natural" v="beach" />
		<tag k="ssr:stedsnr" v="104432" />
	</node>
	<node lat="58.67451388756117" lon="6.80604999569044" id="-31791">
		<tag k="name" v="Laurdagstjødn" />
		<tag k="natural" v="water" />
		<tag k="ssr:stedsnr" v="104385" />
	</node>
	<node lat="58.67795000449729" lon="6.795625001102594" id="-31794">
		<tag k="name" v="Graudekleivtjødn" />
		<tag k="natural" v="water" />
		<tag k="ssr:stedsnr" v="104390" />
	</node>
	<node lat="58.69784999560352" lon="6.765950001983781" id="-31797">
		<tag k="name" v="Raubergtjønn" />
		<tag k="natural" v="water" />
		<tag k="ssr:stedsnr" v="104508" />
	</node>
	<node lat="58.71688055497004" lon="6.701466662191325" id="-31806">
		<tag k="name" v="Vårtjønn" />
		<tag k="natural" v="water" />
		<tag k="ssr:stedsnr" v="104577" />
	</node>
	<node lat="58.78720555489863" lon="6.85785278074723" id="-31820">
		<tag k="name" v="Fiskelaustjødn" />
		<tag k="natural" v="water" />
		<tag k="ssr:stedsnr" v="104625" />
	</node>
	<node lat="58.78391944044359" lon="6.844566671392434" id="-31821">
		<tag k="name" v="Osen" />
		<tag k="natural" v="bay" />
		<tag k="ssr:stedsnr" v="104628" />
	</node>
	<node lat="58.911574999398105" lon="6.920158332229011" id="-31823">
		<tag k="name" v="Raunelihølane" />
		<tag k="place" v="locality" />
		<tag k="ssr:stedsnr" v="104632" />
	</node>
	<node lat="58.789344441745826" lon="6.85444444852901" id="-31825">
		<tag k="name" v="Halvroodden" />
		<tag k="natural" v="cape" />
		<tag k="ssr:stedsnr" v="104687" />
	</node>
	<node lat="58.844033336530316" lon="6.802630559067714" id="-31830">
		<tag k="name" v="Åmlibekken" />
		<tag k="ssr:stedsnr" v="104824" />
		<tag k="waterway" v="stream" />
	</node>
	<node lat="58.77122499903403" lon="6.783661102732033" id="-31833">
		<tag k="name" v="Hekkfjelltjødn" />
		<tag k="natural" v="water" />
		<tag k="ssr:stedsnr" v="104706" />
	</node>
	<node lat="58.8167166668327" lon="6.7060222153762705" id="-31845">
		<tag k="name" v="Slåttelibekken" />
		<tag k="ssr:stedsnr" v="105309" />
		<tag k="waterway" v="stream" />
	</node>
	<node lat="58.992655554927794" lon="6.906063892676147" id="-31852">
		<tag k="name" v="Lomstjødn" />
		<tag k="natural" v="water" />
		<tag k="ssr:stedsnr" v="105537" />
	</node>
	<node lat="59.01684645756114" lon="6.959708627000049" id="-31860">
		<tag k="name" v="Kalveneset" />
		<tag k="natural" v="cape" />
		<tag k="ssr:stedsnr" v="105596" />
	</node>
	<node lat="58.952636112365624" lon="7.119222217690077" id="-31861">
		<tag k="name" v="Sundet" />
		<tag k="natural" v="strait" />
		<tag k="ssr:stedsnr" v="105723" />
	</node>
	<node lat="59.128255552119285" lon="6.952266672324063" id="-31871">
		<tag k="name" v="Tjødnene" />
		<tag k="natural" v="water" />
		<tag k="ssr:stedsnr" v="105896" />
	</node>
	<node lat="58.855516668830404" lon="6.976008332226987" id="-31876">
		<tag k="alt_name" v="Bånefjellstjørni, l" />
		<tag k="name" v="Oppstøltjønn" />
		<tag k="natural" v="water" />
		<tag k="ssr:stedsnr" v="121168" />
	</node>
	<node lat="58.85584444694544" lon="6.994108341397528" id="-31877">
		<tag k="alt_name" v="Svartavatnet;Svartavatn" />
		<tag k="name" v="Svartevatn" />
		<tag k="natural" v="water" />
		<tag k="ssr:stedsnr" v="121169" />
	</node>
	<node lat="58.667588884467506" lon="6.845555550459173" id="-31884">
		<tag k="alt_name" v="Slåttstjørn" />
		<tag k="name" v="Slottstjødn" />
		<tag k="natural" v="water" />
		<tag k="ssr:stedsnr" v="121602" />
	</node>
	<node lat="58.65679166866644" lon="6.801430550003205" id="-31885">
		<tag k="alt_name" v="Førevatnet, nedre" />
		<tag k="name" v="Nedre Førevatn" />
		<tag k="natural" v="water" />
		<tag k="ssr:stedsnr" v="121611" />
		<tag k="water" v="lake" />
	</node>
	<node lat="58.64762499890571" lon="6.523094446703592" id="-31889">
		<tag k="alt_name" v="Midbekken" />
		<tag k="name" v="Midtbekk" />
		<tag k="ssr:stedsnr" v="121805" />
		<tag k="waterway" v="stream" />
	</node>
	<node lat="58.85671111233673" lon="6.787024998662387" id="-31893">
		<tag k="name" v="Dorgefoss" />
		<tag k="natural" v="waterfall" />
		<tag k="ssr:stedsnr" v="121927" />
	</node>
	<node lat="58.75497778141289" lon="6.667799991751349" id="-31897">
		<tag k="name" v="Hemsevatn" />
		<tag k="natural" v="water" />
		<tag k="ssr:stedsnr" v="122007" />
	</node>
	<node lat="58.91555000167857" lon="7.1589499995471115" id="-31902">
		<tag k="name" v="Langaloni" />
		<tag k="place" v="locality" />
		<tag k="ssr:stedsnr" v="122203" />
	</node>
	<node lat="59.07816110913284" lon="6.877505561629338" id="-31904">
		<tag k="alt_name" v="Salomonsvatnet, stora" />
		<tag k="name" v="Store Salamonsvatn" />
		<tag k="natural" v="water" />
		<tag k="ssr:stedsnr" v="123166" />
		<tag k="water" v="lake" />
	</node>
	<node lat="59.07143888462648" lon="6.878947219673041" id="-31905">
		<tag k="alt_name" v="Salomonsvatnet, litla" />
		<tag k="name" v="Litle Salamonsvatnet" />
		<tag k="natural" v="water" />
		<tag k="ssr:stedsnr" v="123173" />
		<tag k="water" v="lake" />
	</node>
	<node lat="59.04187826125393" lon="7.142483962472468" id="-31907">
		<tag k="name" v="Fossen" />
		<tag k="natural" v="waterfall" />
		<tag k="ssr:stedsnr" v="123907" />
	</node>
	<node lat="59.10441944194809" lon="6.9735999925248695" id="-31909">
		<tag k="alt_name" v="Taunevatn, krokete;Taumevatn, krokete" />
		<tag k="name" v="Krogete Taumevatn" />
		<tag k="natural" v="water" />
		<tag k="ssr:stedsnr" v="123921" />
	</node>
	<node lat="58.63908333047878" lon="6.783266672198969" id="-31913">
		<tag k="name" v="Store Sivatnet" />
		<tag k="natural" v="water" />
		<tag k="ssr:stedsnr" v="164123" />
	</node>
	<node lat="58.609600003003564" lon="6.814188889118601" id="-31915">
		<tag k="alt_name" v="Skågji" />
		<tag k="name" v="Skågje" />
		<tag k="natural" v="water" />
		<tag k="ssr:stedsnr" v="164003" />
		<tag k="water" v="lake" />
	</node>
	<node lat="58.598455559817715" lon="6.641213884132326" id="-31918">
		<tag k="name" v="Rundetjødna" />
		<tag k="natural" v="water" />
		<tag k="ssr:stedsnr" v="164362" />
	</node>
	<node lat="58.62171111340309" lon="6.671224995811197" id="-31921">
		<tag k="name" v="Borknelitjødna" />
		<tag k="natural" v="water" />
		<tag k="ssr:stedsnr" v="164259" />
	</node>
	<node lat="58.655611109844386" lon="6.69917777418207" id="-31924">
		<tag k="name" v="Halvfjerdingsbekken" />
		<tag k="ssr:stedsnr" v="164274" />
		<tag k="waterway" v="stream" />
	</node>
	<node lat="58.57100277523148" lon="6.61253888399074" id="-31929">
		<tag k="name" v="Vigå" />
		<tag k="natural" v="bay" />
		<tag k="ssr:stedsnr" v="164463" />
	</node>
	<node lat="58.67955555376764" lon="6.815830554825312" id="-31930">
		<tag k="name" v="Nedre Mågevatn" />
		<tag k="natural" v="water" />
		<tag k="ssr:stedsnr" v="164464" />
		<tag k="water" v="lake" />
	</node>
	<node lat="58.671086110398434" lon="6.816316666228958" id="-31931">
		<tag k="name" v="Prestkleivtjødn" />
		<tag k="natural" v="water" />
		<tag k="ssr:stedsnr" v="164466" />
	</node>
	<node lat="58.521783337563555" lon="6.790102777005425" id="-31935">
		<tag k="name" v="Gofartjødn" />
		<tag k="natural" v="water" />
		<tag k="ssr:stedsnr" v="164605" />
	</node>
	<node lat="58.711338886151665" lon="6.731680562580434" id="-31944">
		<tag k="name" v="Haugelona" />
		<tag k="natural" v="water" />
		<tag k="ssr:stedsnr" v="164708" />
		<tag k="water" v="lake" />
	</node>
	<node lat="58.633452782049595" lon="6.544097228389669" id="-31947">
		<tag k="name" v="Bjordalsbekken" />
		<tag k="ssr:stedsnr" v="164782" />
		<tag k="waterway" v="stream" />
	</node>
	<node lat="58.674975003490815" lon="6.700983335950564" id="-31948">
		<tag k="name" v="Bjørnebekken" />
		<tag k="ssr:stedsnr" v="164784" />
		<tag k="waterway" v="stream" />
	</node>
	<node lat="58.72770277993653" lon="6.784736115451626" id="-31956">
		<tag k="name" v="Fossbrotbekken" />
		<tag k="ssr:stedsnr" v="165317" />
		<tag k="waterway" v="stream" />
	</node>
	<node lat="58.87661389123846" lon="6.793016662771248" id="-31961">
		<tag k="name" v="Heimste Klatten" />
		<tag k="natural" v="cape" />
		<tag k="ssr:stedsnr" v="165268" />
	</node>
	<node lat="58.88291111458751" lon="6.893866670588414" id="-31967">
		<tag k="name" v="Raudetjønn" />
		<tag k="natural" v="water" />
		<tag k="ssr:stedsnr" v="165412" />
	</node>
	<node lat="58.81519444064715" lon="6.824544451714461" id="-31971">
		<tag k="name" v="Skinansbekken" />
		<tag k="ssr:stedsnr" v="165427" />
		<tag k="waterway" v="stream" />
	</node>
	<node lat="58.9895500005592" lon="6.899066673240053" id="-31985">
		<tag k="name" v="Kilevika" />
		<tag k="natural" v="bay" />
		<tag k="ssr:stedsnr" v="165510" />
	</node>
	<node lat="59.05733888830023" lon="7.044183341081892" id="-31998">
		<tag k="name" v="Åklævatnet" />
		<tag k="natural" v="water" />
		<tag k="ssr:stedsnr" v="165861" />
		<tag k="water" v="lake" />
	</node>
	<node lat="58.8484166692668" lon="7.063619444475264" id="-32002">
		<tag k="name" v="Våvika" />
		<tag k="natural" v="bay" />
		<tag k="ssr:stedsnr" v="165868" />
	</node>
	<node lat="58.8554194441683" lon="6.858875000575562" id="-32004">
		<tag k="name" v="Myrstøltjødn" />
		<tag k="natural" v="water" />
		<tag k="ssr:stedsnr" v="165870" />
	</node>
	<node lat="58.71868610918719" lon="6.887669448088607" id="-32006">
		<tag k="name" v="Tverrbekken" />
		<tag k="ssr:stedsnr" v="165760" />
		<tag k="waterway" v="stream" />
	</node>
	<node lat="58.74114444818779" lon="6.6594833366554695" id="-32008">
		<tag k="name" v="Rona" />
		<tag k="natural" v="strait" />
		<tag k="ssr:stedsnr" v="165765" />
	</node>
	<node lat="58.73502221986792" lon="6.815330549133047" id="-32014">
		<tag k="name" v="Snøfonnbekken" />
		<tag k="ssr:stedsnr" v="165783" />
		<tag k="waterway" v="stream" />
	</node>
	<node lat="58.86615555897788" lon="6.739291663373545" id="-32018">
		<tag k="name" v="Smog-åna" />
		<tag k="ssr:stedsnr" v="165984" />
		<tag k="waterway" v="river" />
	</node>
	<node lat="58.85289166824192" lon="7.032769448288306" id="-32021">
		<tag k="alt_name" v="Vanskjervatnet" />
		<tag k="name" v="Vannskjervatn" />
		<tag k="natural" v="water" />
		<tag k="ssr:stedsnr" v="182113" />
		<tag k="water" v="lake" />
	</node>
	<node lat="58.71031111269561" lon="6.7819222201898075" id="-32022">
		<tag k="alt_name" v="Flotetjørnan" />
		<tag k="name" v="Flåtjødnen" />
		<tag k="natural" v="water" />
		<tag k="ssr:stedsnr" v="182530" />
		<tag k="water" v="lake" />
	</node>
	<node lat="58.57644166981374" lon="6.670066670038917" id="-32024">
		<tag k="name" v="Skogestadåna" />
		<tag k="ssr:stedsnr" v="182703" />
		<tag k="waterway" v="stream" />
	</node>
	<node lat="58.79206116612667" lon="6.949786429921652" id="-32031">
		<tag k="name" v="Sandvatn" />
		<tag k="natural" v="water" />
		<tag k="ssr:stedsnr" v="183047" />
	</node>
	<node lat="58.81937222209296" lon="6.636491662870327" id="-32033">
		<tag k="alt_name" v="Kilen" />
		<tag k="name" v="Langevasskilen" />
		<tag k="natural" v="bay" />
		<tag k="ssr:stedsnr" v="183104" />
	</node>
	<node lat="58.92851944879502" lon="7.1357583353106255" id="-32034">
		<tag k="alt_name" v="Dyrgrovvatnet" />
		<tag k="name" v="Dygråvatn" />
		<tag k="natural" v="water" />
		<tag k="old_name" v="Dygrovvatnet" />
		<tag k="ssr:stedsnr" v="183194" />
		<tag k="water" v="lake" />
	</node>
	<node lat="58.72402778146078" lon="6.883291660760341" id="-32037">
		<tag k="alt_name" v="Holmevatnan" />
		<tag k="name" v="Holmevatn" />
		<tag k="natural" v="water" />
		<tag k="ssr:stedsnr" v="183498" />
		<tag k="water" v="lake" />
	</node>
	<node lat="59.06399444844319" lon="6.924408338435531" id="-32039">
		<tag k="alt_name" v="Tjørnene" />
		<tag k="name" v="Tjødnen" />
		<tag k="natural" v="water" />
		<tag k="ssr:stedsnr" v="183804" />
	</node>
	<node lat="58.943130551811805" lon="6.655611116069486" id="-32040">
		<tag k="alt_name" v="Motjørn" />
		<tag k="name" v="Mohedlartjødn" />
		<tag k="natural" v="water" />
		<tag k="ssr:stedsnr" v="183805" />
	</node>
	<node lat="58.970824997798424" lon="6.6893472215574485" id="-32042">
		<tag k="alt_name" v="Langatjørn" />
		<tag k="name" v="Langatjødn" />
		<tag k="natural" v="water" />
		<tag k="ssr:stedsnr" v="183815" />
	</node>
	<node lat="59.022377781389274" lon="6.9452416740544045" id="-32043">
		<tag k="alt_name" v="Flatstølåni" />
		<tag k="name" v="Flatstølåna" />
		<tag k="ssr:stedsnr" v="183818" />
		<tag k="waterway" v="river" />
	</node>
	<node lat="59.12065833543693" lon="7.1089916717684405" id="-32044">
		<tag k="alt_name" v="Hellerkvævtjørni" />
		<tag k="name" v="Hedlerkvævtjødn" />
		<tag k="natural" v="water" />
		<tag k="ssr:stedsnr" v="184803" />
	</node>
	<node lat="58.51149722056584" lon="6.779141675229056" id="-32049">
		<tag k="name" v="Karis tjødn" />
		<tag k="natural" v="water" />
		<tag k="ssr:stedsnr" v="224105" />
	</node>
	<node lat="58.50934722136472" lon="6.791066663399407" id="-32050">
		<tag k="name" v="Olaspytten" />
		<tag k="natural" v="water" />
		<tag k="ssr:stedsnr" v="224110" />
	</node>
	<node lat="58.766966663652006" lon="6.759791667819376" id="-32061">
		<tag k="name" v="Sølvbergtjønn" />
		<tag k="natural" v="water" />
		<tag k="ssr:stedsnr" v="225093" />
	</node>
	<node lat="58.62392500137045" lon="6.676169437554414" id="-32063">
		<tag k="name" v="Djubedalstjødna" />
		<tag k="natural" v="water" />
		<tag k="ssr:stedsnr" v="225238" />
	</node>
	<node lat="58.665983329123435" lon="6.701783332665097" id="-32065">
		<tag k="name" v="Holmen" />
		<tag k="natural" v="cape" />
		<tag k="ssr:stedsnr" v="225247" />
	</node>
	<node lat="58.6568555538951" lon="6.699408337532393" id="-32066">
		<tag k="name" v="Rutlebekk" />
		<tag k="ssr:stedsnr" v="225248" />
		<tag k="waterway" v="stream" />
	</node>
	<node lat="58.968422218636626" lon="6.919913883344219" id="-32073">
		<tag k="name" v="Sauhellaroddan" />
		<tag k="natural" v="cape" />
		<tag k="ssr:stedsnr" v="225579" />
	</node>
	<node lat="58.74056666476172" lon="6.591172220186082" id="-32083">
		<tag k="name" v="Holmeåna" />
		<tag k="ssr:stedsnr" v="225724" />
		<tag k="waterway" v="river" />
	</node>
	<node lat="58.66440277752134" lon="6.7924444398410575" id="-32084">
		<tag k="name" v="Goedalsvigja" />
		<tag k="natural" v="bay" />
		<tag k="ssr:stedsnr" v="225493" />
	</node>
	<node lat="58.68793333797758" lon="6.670666673950237" id="-32093">
		<tag k="name" v="Slettetjønn" />
		<tag k="natural" v="water" />
		<tag k="ssr:stedsnr" v="225789" />
	</node>
	<node lat="58.95297221966244" lon="6.896747216527711" id="-32095">
		<tag k="name" v="Degdammen" />
		<tag k="ssr:stedsnr" v="225944" />
		<tag k="waterway" v="dam" />
	</node>
	<node lat="58.80721666409264" lon="6.638380557715664" id="-32098">
		<tag k="name" v="Indre Reinstjødn" />
		<tag k="natural" v="water" />
		<tag k="ssr:stedsnr" v="226293" />
	</node>
	<node lat="58.88762222250178" lon="6.9478833308785894" id="-32101">
		<tag k="name" v="Store Øyna" />
		<tag k="place" v="islet" />
		<tag k="ssr:stedsnr" v="226439" />
	</node>
	<node lat="58.68945277723577" lon="6.810544440670788" id="-32102">
		<tag k="name" v="Rundatjødn" />
		<tag k="natural" v="water" />
		<tag k="ssr:stedsnr" v="226402" />
	</node>
	<node lat="58.886941664354346" lon="6.907663886276541" id="-32105">
		<tag k="name" v="Holelitjønn" />
		<tag k="natural" v="water" />
		<tag k="ssr:stedsnr" v="226452" />
	</node>
	<node lat="58.877494445210075" lon="6.785163888639736" id="-32110">
		<tag k="name" v="Sandvasshølen" />
		<tag k="place" v="locality" />
		<tag k="ssr:stedsnr" v="226303" />
	</node>
	<node lat="58.86110278009847" lon="6.903908336667804" id="-32111">
		<tag k="name" v="Skrigarhøl" />
		<tag k="place" v="locality" />
		<tag k="ssr:stedsnr" v="226397" />
	</node>
	<node lat="59.03830277561002" lon="6.967202781601532" id="-32118">
		<tag k="name" v="Jonsbekken" />
		<tag k="ssr:stedsnr" v="226689" />
		<tag k="waterway" v="stream" />
	</node>
	<node lat="59.04163055507955" lon="6.954730549091009" id="-32120">
		<tag k="name" v="Lona" />
		<tag k="natural" v="water" />
		<tag k="ssr:stedsnr" v="226696" />
		<tag k="water" v="lake" />
	</node>
	<node lat="58.878066663643054" lon="6.604202782972224" id="-32124">
		<tag k="name" v="Hunnå" />
		<tag k="ssr:stedsnr" v="226815" />
		<tag k="waterway" v="river" />
	</node>
	<node lat="59.008194443578226" lon="6.908833333280967" id="-32130">
		<tag k="name" v="Svartetjødn" />
		<tag k="natural" v="water" />
		<tag k="ssr:stedsnr" v="226587" />
	</node>
	<node lat="58.82802500419142" lon="6.730766672626671" id="-32131">
		<tag k="name" v="Hagebakkbekken" />
		<tag k="ssr:stedsnr" v="226588" />
		<tag k="waterway" v="stream" />
	</node>
	<node lat="59.01617404862139" lon="6.95372314298868" id="-32138">
		<tag k="name" v="Storebekk" />
		<tag k="ssr:stedsnr" v="226601" />
		<tag k="waterway" v="stream" />
	</node>
	<node lat="58.71126111196925" lon="6.860763896761113" id="-32145">
		<tag k="name" v="Åmeltjødn" />
		<tag k="natural" v="water" />
		<tag k="ssr:stedsnr" v="226782" />
	</node>
	<node lat="58.93571666729493" lon="6.902161113637724" id="-32147">
		<tag k="name" v="Ytre Stemtjønn" />
		<tag k="natural" v="water" />
		<tag k="ssr:stedsnr" v="226785" />
	</node>
	<node lat="58.68146944198191" lon="6.575244445959538" id="-32156">
		<tag k="name" v="Samlogtjørn" />
		<tag k="natural" v="water" />
		<tag k="ssr:stedsnr" v="228234" />
	</node>
	<node lat="58.882538801048774" lon="6.577007836594109" id="-32159">
		<tag k="name" v="Fossetjørnene" />
		<tag k="natural" v="water" />
		<tag k="ssr:stedsnr" v="241904" />
		<tag k="water" v="lake" />
	</node>
	<node lat="58.62813611190738" lon="6.642574994251923" id="-32161">
		<tag k="name" v="Bjortjørna" />
		<tag k="natural" v="water" />
		<tag k="ssr:stedsnr" v="243638" />
	</node>
	<node lat="58.63144999735778" lon="6.614775002451605" id="-32162">
		<tag k="alt_name" v="Lindtjørn" />
		<tag k="name" v="Lindtjønn" />
		<tag k="natural" v="water" />
		<tag k="ssr:stedsnr" v="243639" />
	</node>
	<node lat="58.641288890314144" lon="6.690458333345023" id="-32163">
		<tag k="alt_name" v="Lindåni" />
		<tag k="name" v="Lindåna" />
		<tag k="ssr:stedsnr" v="243644" />
		<tag k="waterway" v="stream" />
	</node>
	<node lat="58.568174996781806" lon="6.662361112242952" id="-32167">
		<tag k="alt_name" v="Flåtetjørna" />
		<tag k="name" v="Flottjødn" />
		<tag k="natural" v="water" />
		<tag k="ssr:stedsnr" v="243709" />
	</node>
	<node lat="58.6424944414999" lon="6.50943889256092" id="-32169">
		<tag k="alt_name" v="Stemmevatnet" />
		<tag k="name" v="Stemmetjønn" />
		<tag k="natural" v="water" />
		<tag k="ssr:stedsnr" v="243803" />
		<tag k="water" v="lake" />
	</node>
	<node lat="58.849511107689565" lon="6.94272499885803" id="-32170">
		<tag k="alt_name" v="Godfarstjørn" />
		<tag k="name" v="Gofartjønn" />
		<tag k="natural" v="water" />
		<tag k="ssr:stedsnr" v="243898" />
	</node>
	<node lat="58.922400003605425" lon="6.780019452097" id="-32174">
		<tag k="alt_name" v="Stutestrondi;Stutestronda" />
		<tag k="name" v="Stutestranda" />
		<tag k="natural" v="beach" />
		<tag k="ssr:stedsnr" v="243992" />
	</node>
	<node lat="59.100933330860634" lon="6.961624996760809" id="-32179">
		<tag k="name" v="Djupevatnet" />
		<tag k="natural" v="water" />
		<tag k="ssr:stedsnr" v="244190" />
	</node>
	<node lat="59.06658055299895" lon="6.845916658390871" id="-32180">
		<tag k="alt_name" v="Svartetjørni" />
		<tag k="name" v="Svartetjødn" />
		<tag k="natural" v="water" />
		<tag k="ssr:stedsnr" v="244803" />
	</node>
	<node lat="58.720311113467545" lon="6.7992361194224085" id="-32184">
		<tag k="alt_name" v="Solkjellvatnan" />
		<tag k="name" v="Solkilvotnan" />
		<tag k="natural" v="water" />
		<tag k="ssr:stedsnr" v="244599" />
		<tag k="water" v="lake" />
	</node>
	<node lat="59.012226907023766" lon="6.718499171514568" id="-32185">
		<tag k="name" v="Vasstjørna" />
		<tag k="natural" v="water" />
		<tag k="ssr:stedsnr" v="244777" />
	</node>
	<node lat="58.886869445646" lon="6.877313886971017" id="-32189">
		<tag k="alt_name" v="Raudåni" />
		<tag k="name" v="Raudåna" />
		<tag k="ssr:stedsnr" v="244891" />
		<tag k="waterway" v="stream" />
	</node>
	<node lat="59.041308336704574" lon="7.089591657892106" id="-32190">
		<tag k="alt_name" v="Skjerevatnet, austra" />
		<tag k="name" v="Austre Skjerevatn" />
		<tag k="natural" v="water" />
		<tag k="ssr:stedsnr" v="244897" />
		<tag k="water" v="lake" />
	</node>
	<node lat="58.8973361117416" lon="6.951602779073263" id="-32191">
		<tag k="alt_name" v="Grønelitjørn" />
		<tag k="name" v="Grønelitjødn" />
		<tag k="natural" v="water" />
		<tag k="ssr:stedsnr" v="244898" />
	</node>
	<node lat="58.5854777795107" lon="6.76176111662712" id="-32201">
		<tag k="name" v="Løyntjødn" />
		<tag k="natural" v="water" />
		<tag k="ssr:stedsnr" v="285208" />
	</node>
	<node lat="58.58509444797695" lon="6.78546388491763" id="-32203">
		<tag k="name" v="Kleivtjødn" />
		<tag k="natural" v="water" />
		<tag k="ssr:stedsnr" v="285181" />
	</node>
	<node lat="58.6939416691466" lon="6.670272223278945" id="-32205">
		<tag k="name" v="Ormetjønn" />
		<tag k="natural" v="water" />
		<tag k="ssr:stedsnr" v="285979" />
	</node>
	<node lat="58.640036107832046" lon="6.792636110040343" id="-32206">
		<tag k="name" v="Moldtjødn" />
		<tag k="natural" v="water" />
		<tag k="ssr:stedsnr" v="286135" />
	</node>
	<node lat="58.774494446554115" lon="6.733858332957943" id="-32212">
		<tag k="name" v="Breilobekk" />
		<tag k="ssr:stedsnr" v="286202" />
		<tag k="waterway" v="stream" />
	</node>
	<node lat="58.675286107284386" lon="6.617355558842085" id="-32218">
		<tag k="name" v="Svartetjønn" />
		<tag k="natural" v="water" />
		<tag k="ssr:stedsnr" v="286233" />
	</node>
	<node lat="58.57211944330425" lon="6.721447218732903" id="-32221">
		<tag k="name" v="Trongsbekken" />
		<tag k="ssr:stedsnr" v="286455" />
		<tag k="waterway" v="stream" />
	</node>
	<node lat="58.69129166626413" lon="6.7284444384343045" id="-32229">
		<tag k="name" v="Rekeviks-vika" />
		<tag k="natural" v="bay" />
		<tag k="ssr:stedsnr" v="286550" />
	</node>
	<node lat="58.55338055249216" lon="6.771661109374137" id="-32231">
		<tag k="name" v="Lomtjødn" />
		<tag k="natural" v="water" />
		<tag k="ssr:stedsnr" v="286564" />
	</node>
	<node lat="58.58095000402219" lon="6.814394451326284" id="-32233">
		<tag k="name" v="Svartepytten" />
		<tag k="natural" v="water" />
		<tag k="ssr:stedsnr" v="286478" />
	</node>
	<node lat="58.72020833652711" lon="6.694588885891767" id="-32234">
		<tag k="name" v="Nedre Løyntjønn" />
		<tag k="natural" v="water" />
		<tag k="ssr:stedsnr" v="286602" />
		<tag k="water" v="lake" />
	</node>
	<node lat="58.85481666333472" lon="6.6731055472100245" id="-32243">
		<tag k="name" v="Brattebekk" />
		<tag k="ssr:stedsnr" v="286690" />
		<tag k="waterway" v="stream" />
	</node>
	<node lat="58.75457777763514" lon="6.780927776261611" id="-32245">
		<tag k="name" v="Slettesbekk" />
		<tag k="ssr:stedsnr" v="286697" />
		<tag k="waterway" v="stream" />
	</node>
	<node lat="58.63434999923003" lon="6.514738893411632" id="-32246">
		<tag k="name" v="Kydlandsbekken" />
		<tag k="ssr:stedsnr" v="286806" />
		<tag k="waterway" v="stream" />
	</node>
	<node lat="58.76761111323896" lon="6.787422219397" id="-32248">
		<tag k="name" v="Hekkfjelltjødn" />
		<tag k="natural" v="water" />
		<tag k="ssr:stedsnr" v="286734" />
	</node>
	<node lat="58.639572222570756" lon="6.651202781890044" id="-32249">
		<tag k="name" v="Slipebekk" />
		<tag k="ssr:stedsnr" v="286739" />
		<tag k="waterway" v="stream" />
	</node>
	<node lat="58.936741666385885" lon="6.915647217910679" id="-32250">
		<tag k="name" v="Lange odden" />
		<tag k="natural" v="cape" />
		<tag k="ssr:stedsnr" v="286778" />
	</node>
	<node lat="58.93079444292455" lon="6.919041673727676" id="-32251">
		<tag k="name" v="Inste Hellarbekken" />
		<tag k="ssr:stedsnr" v="286780" />
		<tag k="waterway" v="stream" />
	</node>
	<node lat="58.64477222665142" lon="6.527963885220173" id="-32253">
		<tag k="name" v="Midtbekk" />
		<tag k="ssr:stedsnr" v="286790" />
		<tag k="waterway" v="stream" />
	</node>
	<node lat="58.843483334327225" lon="6.929961107823404" id="-32256">
		<tag k="name" v="Lisbettjønn" />
		<tag k="natural" v="water" />
		<tag k="ssr:stedsnr" v="286887" />
	</node>
	<node lat="58.812980552325314" lon="6.708113884661673" id="-32258">
		<tag k="name" v="Upstestølbekken" />
		<tag k="ssr:stedsnr" v="287308" />
		<tag k="waterway" v="stream" />
	</node>
	<node lat="58.885022226747445" lon="6.825780563302353" id="-32269">
		<tag k="name" v="Stokkelikvævtjønn" />
		<tag k="natural" v="water" />
		<tag k="ssr:stedsnr" v="287580" />
	</node>
	<node lat="58.99450833078164" lon="6.933858340858743" id="-32271">
		<tag k="name" v="Store Kvævebekken" />
		<tag k="ssr:stedsnr" v="287594" />
		<tag k="waterway" v="stream" />
	</node>
	<node lat="58.999294447656624" lon="6.927141673598754" id="-32273">
		<tag k="name" v="Omfløyttaneset" />
		<tag k="place" v="islet" />
		<tag k="ssr:stedsnr" v="287600" />
	</node>
	<node lat="59.0733861127039" lon="7.069058325028133" id="-32275">
		<tag k="name" v="Tjødnene" />
		<tag k="natural" v="water" />
		<tag k="ssr:stedsnr" v="287837" />
	</node>
	<node lat="58.98942865147863" lon="6.686096130783999" id="-32278">
		<tag k="name" v="Tjodanpodlen" />
		<tag k="natural" v="water" />
		<tag k="ssr:stedsnr" v="287792" />
	</node>
	<node lat="59.080791667098495" lon="6.898550007543465" id="-32279">
		<tag k="name" v="Salamonslona" />
		<tag k="natural" v="water" />
		<tag k="ssr:stedsnr" v="287938" />
		<tag k="water" v="lake" />
	</node>
	<node lat="58.86272221797381" lon="6.7517361062280505" id="-32280">
		<tag k="name" v="Litle Rasstøltjødn" />
		<tag k="natural" v="water" />
		<tag k="ssr:stedsnr" v="287990" />
	</node>
	<node lat="58.711372225226796" lon="6.83219166973159" id="-32284">
		<tag k="alt_name" v="Ramnestølvatnet" />
		<tag k="name" v="Ravnestøltjødn" />
		<tag k="natural" v="water" />
		<tag k="ssr:stedsnr" v="303545" />
	</node>
	<node lat="58.753655556671795" lon="6.702561119395931" id="-32288">
		<tag k="alt_name" v="Blikstjørn" />
		<tag k="name" v="Blikkstjønn" />
		<tag k="natural" v="water" />
		<tag k="ssr:stedsnr" v="304023" />
	</node>
	<node lat="58.79751388515892" lon="6.736919440217873" id="-32291">
		<tag k="alt_name" v="Diplestøl" />
		<tag k="name" v="Diblan" />
		<tag k="natural" v="water" />
		<tag k="ssr:stedsnr" v="304079" />
	</node>
	<node lat="58.93273889159641" lon="6.975461111570839" id="-32292">
		<tag k="alt_name" v="Torbjørgtjørn" />
		<tag k="name" v="Torbjørgstjødn" />
		<tag k="natural" v="water" />
		<tag k="ssr:stedsnr" v="304181" />
	</node>
	<node lat="58.73895833665593" lon="6.846172224351696" id="-32293">
		<tag k="alt_name" v="Diplane" />
		<tag k="name" v="Rundatjødn" />
		<tag k="natural" v="water" />
		<tag k="ssr:stedsnr" v="304504" />
	</node>
	<node lat="58.7544388926955" lon="6.803427784869009" id="-32295">
		<tag k="name" v="Lilandsåni" />
		<tag k="ssr:stedsnr" v="304483" />
		<tag k="waterway" v="stream" />
	</node>
	<node lat="58.88240000177858" lon="6.587786116680094" id="-32296">
		<tag k="name" v="Tverråni" />
		<tag k="natural" v="water" />
		<tag k="ssr:stedsnr" v="304671" />
	</node>
	<node lat="59.06604999715248" lon="6.89760000861495" id="-32297">
		<tag k="alt_name" v="Dyngjanvatnet" />
		<tag k="name" v="Dyngjandvatnet" />
		<tag k="natural" v="water" />
		<tag k="ssr:stedsnr" v="304804" />
		<tag k="water" v="lake" />
	</node>
	<node lat="59.02830766430148" lon="6.875540819082349" id="-32302">
		<tag k="alt_name" v="Fisketjørni" />
		<tag k="name" v="Fisketjødn" />
		<tag k="natural" v="water" />
		<tag k="ssr:stedsnr" v="305809" />
	</node>
	<node lat="59.02479444257316" lon="6.819747227486773" id="-32304">
		<tag k="alt_name" v="Brattabrottjørni" />
		<tag k="name" v="Brattabordtjødna" />
		<tag k="natural" v="water" />
		<tag k="ssr:stedsnr" v="305760" />
	</node>
	<node lat="59.10761110981288" lon="7.090083339927888" id="-32305">
		<tag k="name" v="Simlevatn" />
		<tag k="natural" v="water" />
		<tag k="ssr:stedsnr" v="305914" />
	</node>
	<node lat="58.76971007498395" lon="6.520652205980003" id="-32317">
		<tag k="name" v="Flassevatnet" />
		<tag k="natural" v="water" />
		<tag k="ssr:stedsnr" v="468240" />
		<tag k="water" v="lake" />
	</node>
	<node lat="58.70765555805557" lon="6.732091666056214" id="-32320">
		<tag k="name" v="Sandvika" />
		<tag k="natural" v="bay" />
		<tag k="ssr:stedsnr" v="467529" />
	</node>
	<node lat="58.60891110966097" lon="6.733638886922374" id="-32322">
		<tag k="name" v="Holetjødn" />
		<tag k="natural" v="water" />
		<tag k="ssr:stedsnr" v="468048" />
	</node>
	<node lat="58.62918611410094" lon="6.825202772652384" id="-32323">
		<tag k="name" v="Litla Urdalstjødn" />
		<tag k="natural" v="water" />
		<tag k="ssr:stedsnr" v="468086" />
	</node>
	<node lat="58.626822220388775" lon="6.816869448228085" id="-32330">
		<tag k="name" v="Knausetjødn" />
		<tag k="natural" v="water" />
		<tag k="ssr:stedsnr" v="468109" />
	</node>
	<node lat="58.70635000175284" lon="6.862391659295718" id="-32341">
		<tag k="name" v="Heimre Ribjalsvatn" />
		<tag k="natural" v="water" />
		<tag k="ssr:stedsnr" v="468258" />
	</node>
	<node lat="58.560374999125976" lon="6.794174996315119" id="-32343">
		<tag k="name" v="Nyfontjødn" />
		<tag k="natural" v="water" />
		<tag k="ssr:stedsnr" v="468278" />
	</node>
	<node lat="58.88506388541505" lon="6.976152777959866" id="-32349">
		<tag k="name" v="Haugevassbekken" />
		<tag k="ssr:stedsnr" v="468358" />
		<tag k="waterway" v="stream" />
	</node>
	<node lat="58.53940000232621" lon="6.780202779378217" id="-32351">
		<tag k="name" v="Dybletjødn" />
		<tag k="natural" v="water" />
		<tag k="ssr:stedsnr" v="468379" />
	</node>
	<node lat="58.66690555130281" lon="6.842524995126484" id="-32354">
		<tag k="name" v="Svartetjødn" />
		<tag k="natural" v="water" />
		<tag k="ssr:stedsnr" v="468387" />
	</node>
	<node lat="58.89728055306863" lon="6.8604555521704516" id="-32355">
		<tag k="name" v="Snevegstjønn" />
		<tag k="natural" v="water" />
		<tag k="ssr:stedsnr" v="468389" />
	</node>
	<node lat="58.89545833406868" lon="6.879008325055111" id="-32357">
		<tag k="name" v="Store Kvitsanden" />
		<tag k="natural" v="beach" />
		<tag k="ssr:stedsnr" v="468398" />
	</node>
	<node lat="58.88670000412152" lon="6.836502769397776" id="-32363">
		<tag k="name" v="Ytrelibekken" />
		<tag k="ssr:stedsnr" v="468440" />
		<tag k="waterway" v="stream" />
	</node>
	<node lat="59.005149997835964" lon="6.9268222244625655" id="-32375">
		<tag k="name" v="Draglineset" />
		<tag k="natural" v="cape" />
		<tag k="ssr:stedsnr" v="468531" />
	</node>
	<node lat="58.909152776335475" lon="6.845355557487375" id="-32382">
		<tag k="name" v="Vika" />
		<tag k="natural" v="bay" />
		<tag k="ssr:stedsnr" v="468552" />
	</node>
	<node lat="58.71097221800878" lon="6.733208332833799" id="-32385">
		<tag k="name" v="Spjodemonhølen" />
		<tag k="place" v="locality" />
		<tag k="ssr:stedsnr" v="468636" />
	</node>
	<node lat="59.028955551313466" lon="7.08965832791127" id="-32392">
		<tag k="name" v="Heiestøltjødn" />
		<tag k="natural" v="water" />
		<tag k="ssr:stedsnr" v="468722" />
	</node>
	<node lat="58.631972225229255" lon="6.567044437299672" id="-32393">
		<tag k="name" v="Trodalsodden" />
		<tag k="natural" v="cape" />
		<tag k="ssr:stedsnr" v="468690" />
	</node>
	<node lat="58.7386666648675" lon="6.851261109296426" id="-32396">
		<tag k="name" v="Rundatjødndebelen" />
		<tag k="natural" v="water" />
		<tag k="ssr:stedsnr" v="468699" />
	</node>
	<node lat="58.732652775229305" lon="6.647802785539671" id="-32403">
		<tag k="name" v="Bulegtjønn" />
		<tag k="natural" v="water" />
		<tag k="ssr:stedsnr" v="468742" />
	</node>
	<node lat="58.75154722383508" lon="6.6676611028228265" id="-32407">
		<tag k="name" v="Kjerringhalsen" />
		<tag k="natural" v="strait" />
		<tag k="ssr:stedsnr" v="468750" />
	</node>
	<node lat="58.74620000220532" lon="6.668449998188991" id="-32408">
		<tag k="name" v="Litle Hemsevatn" />
		<tag k="natural" v="water" />
		<tag k="ssr:stedsnr" v="468753" />
		<tag k="water" v="lake" />
	</node>
	<node lat="58.91213055257002" lon="7.026475006526106" id="-32409">
		<tag k="name" v="Sunne" />
		<tag k="natural" v="bay" />
		<tag k="ssr:stedsnr" v="468755" />
	</node>
	<node lat="58.972341668407104" lon="6.8432722254590415" id="-32412">
		<tag k="name" v="Persbekken" />
		<tag k="ssr:stedsnr" v="468810" />
		<tag k="waterway" v="stream" />
	</node>
	<node lat="58.983613887640566" lon="6.92238055854499" id="-32422">
		<tag k="name" v="Simonsvika" />
		<tag k="natural" v="bay" />
		<tag k="ssr:stedsnr" v="468957" />
	</node>
	<node lat="58.81578055634119" lon="6.648355553921097" id="-32429">
		<tag k="name" v="Perskvævsundet" />
		<tag k="natural" v="strait" />
		<tag k="ssr:stedsnr" v="469250" />
	</node>
	<node lat="58.87531666685151" lon="6.849594439178451" id="-32431">
		<tag k="name" v="Kvernhusbekken" />
		<tag k="ssr:stedsnr" v="469333" />
		<tag k="waterway" v="stream" />
	</node>
	<node lat="58.8097472234403" lon="6.807066662599363" id="-32437">
		<tag k="name" v="Skurvedalsbekken" />
		<tag k="ssr:stedsnr" v="469452" />
		<tag k="waterway" v="stream" />
	</node>
	<node lat="58.82478055701255" lon="6.774725005254095" id="-32444">
		<tag k="name" v="Storlibekken" />
		<tag k="ssr:stedsnr" v="469741" />
		<tag k="waterway" v="stream" />
	</node>
	<node lat="58.820911112463584" lon="6.792630552829161" id="-32445">
		<tag k="name" v="Furedalsbekken" />
		<tag k="ssr:stedsnr" v="469744" />
		<tag k="waterway" v="stream" />
	</node>
	<node lat="58.77623610861179" lon="6.7455444450970905" id="-32449">
		<tag k="name" v="Breilo" />
		<tag k="ssr:stedsnr" v="530354" />
		<tag k="waterway" v="river" />
	</node>
	<node lat="58.64130832977713" lon="6.786411110081823" id="-32452">
		<tag k="name" v="Slytjødn" />
		<tag k="natural" v="water" />
		<tag k="ssr:stedsnr" v="346118" />
	</node>
	<node lat="58.656430554849386" lon="6.598944445899263" id="-32455">
		<tag k="name" v="Furenes" />
		<tag k="natural" v="cape" />
		<tag k="ssr:stedsnr" v="346169" />
	</node>
	<node lat="58.79358333556844" lon="6.719477774228813" id="-32456">
		<tag k="name" v="Skjeningstjødn" />
		<tag k="natural" v="water" />
		<tag k="ssr:stedsnr" v="346172" />
	</node>
	<node lat="58.623375003317015" lon="6.769977784889383" id="-32459">
		<tag k="name" v="Litlevatn" />
		<tag k="natural" v="water" />
		<tag k="ssr:stedsnr" v="346023" />
	</node>
	<node lat="58.762102781969" lon="6.761124999088429" id="-32460">
		<tag k="name" v="Sølvbergtjønn" />
		<tag k="natural" v="water" />
		<tag k="ssr:stedsnr" v="346063" />
	</node>
	<node lat="58.68326944828013" lon="6.790152777407803" id="-32471">
		<tag k="name" v="Grasdalstjødn" />
		<tag k="natural" v="water" />
		<tag k="ssr:stedsnr" v="346419" />
	</node>
	<node lat="58.57194999598841" lon="6.620011114677686" id="-32473">
		<tag k="name" v="Holetjødnå" />
		<tag k="natural" v="water" />
		<tag k="ssr:stedsnr" v="346424" />
	</node>
	<node lat="58.85248712980171" lon="6.804468005299329" id="-32486">
		<tag k="name" v="Stemtjødnen" />
		<tag k="natural" v="water" />
		<tag k="ssr:stedsnr" v="346873" />
		<tag k="water" v="lake" />
	</node>
	<node lat="58.955966669290696" lon="6.917761102473964" id="-32493">
		<tag k="name" v="Degodden" />
		<tag k="natural" v="cape" />
		<tag k="ssr:stedsnr" v="346928" />
	</node>
	<node lat="58.89031589295764" lon="6.9091814490852475" id="-32503">
		<tag k="name" v="Sandtjønnan" />
		<tag k="natural" v="water" />
		<tag k="ssr:stedsnr" v="347414" />
		<tag k="water" v="lake" />
	</node>
	<node lat="58.806294442454536" lon="6.781386112473879" id="-32504">
		<tag k="name" v="Stølsdalsbekken" />
		<tag k="ssr:stedsnr" v="347417" />
		<tag k="waterway" v="stream" />
	</node>
	<node lat="58.796149998743324" lon="6.783161119539405" id="-32505">
		<tag k="name" v="Glovrebekk" />
		<tag k="ssr:stedsnr" v="347422" />
		<tag k="waterway" v="stream" />
	</node>
	<node lat="58.799261113336" lon="6.8012361155789955" id="-32506">
		<tag k="name" v="Skeidsbekkdaltjødn" />
		<tag k="natural" v="water" />
		<tag k="ssr:stedsnr" v="347423" />
	</node>
	<node lat="58.794894447905754" lon="6.867077784806104" id="-32522">
		<tag k="name" v="Todlakstølbekken" />
		<tag k="ssr:stedsnr" v="347625" />
		<tag k="waterway" v="stream" />
	</node>
	<node lat="58.87117500253526" lon="6.969577776330141" id="-32524">
		<tag k="name" v="Sandtjødnbekken" />
		<tag k="ssr:stedsnr" v="347359" />
		<tag k="waterway" v="stream" />
	</node>
	<node lat="58.704819440346355" lon="6.761916666776891" id="-32527">
		<tag k="name" v="Stølsdalstjønn" />
		<tag k="natural" v="water" />
		<tag k="ssr:stedsnr" v="347512" />
	</node>
	<node lat="58.992408332400956" lon="6.893169440238132" id="-32528">
		<tag k="name" v="Kilen" />
		<tag k="natural" v="strait" />
		<tag k="ssr:stedsnr" v="347513" />
	</node>
	<node lat="58.72758889065586" lon="6.63575278159113" id="-32530">
		<tag k="name" v="Dyretjønn" />
		<tag k="natural" v="water" />
		<tag k="ssr:stedsnr" v="347515" />
	</node>
	<node lat="58.734733330118715" lon="6.876933333077582" id="-32534">
		<tag k="name" v="Holmevatn" />
		<tag k="natural" v="water" />
		<tag k="ssr:stedsnr" v="347703" />
		<tag k="water" v="lake" />
	</node>
	<node lat="58.848455552214865" lon="7.069163883726589" id="-32547">
		<tag k="name" v="Halvfarodden" />
		<tag k="place" v="islet" />
		<tag k="ssr:stedsnr" v="347874" />
	</node>
	<node lat="58.83432499915745" lon="6.927791664735788" id="-32556">
		<tag k="alt_name" v="Sandvatnet" />
		<tag k="name" v="Sandvatn" />
		<tag k="natural" v="water" />
		<tag k="ssr:stedsnr" v="364112" />
	</node>
	<node lat="58.88623610954486" lon="7.0767027825107895" id="-32558">
		<tag k="alt_name" v="Einarstjørni" />
		<tag k="name" v="Einarstjødn" />
		<tag k="natural" v="water" />
		<tag k="ssr:stedsnr" v="364177" />
	</node>
	<node lat="58.8720055532536" lon="7.062244451522358" id="-32559">
		<tag k="name" v="Kvivatnet" />
		<tag k="natural" v="water" />
		<tag k="ssr:stedsnr" v="364203" />
	</node>
	<node lat="58.71105832995949" lon="6.800330551416393" id="-32560">
		<tag k="alt_name" v="Skardtjørn" />
		<tag k="name" v="Skartjødn" />
		<tag k="natural" v="water" />
		<tag k="ssr:stedsnr" v="364548" />
	</node>
	<node lat="58.70945000185925" lon="6.702877771678595" id="-32561">
		<tag k="alt_name" v="Haugevatn" />
		<tag k="name" v="Haugavatnet" />
		<tag k="natural" v="water" />
		<tag k="ssr:stedsnr" v="364552" />
	</node>
	<node lat="58.63866544233699" lon="6.657605605910655" id="-32562">
		<tag k="name" v="Lindvatnet" />
		<tag k="natural" v="water" />
		<tag k="ssr:stedsnr" v="364653" />
		<tag k="water" v="lake" />
	</node>
	<node lat="58.65266388840066" lon="6.684063893630895" id="-32564">
		<tag k="name" v="Snertnesbekken" />
		<tag k="ssr:stedsnr" v="364663" />
		<tag k="waterway" v="stream" />
	</node>
	<node lat="58.67281110784957" lon="6.541425008019188" id="-32565">
		<tag k="alt_name" v="Bjørnestadvatnet" />
		<tag k="name" v="Bjørnestadvatn" />
		<tag k="natural" v="water" />
		<tag k="ssr:stedsnr" v="364786" />
	</node>
	<node lat="58.85845007568853" lon="6.91848181417264" id="-32569">
		<tag k="alt_name" v="Gautstøltjørn" />
		<tag k="name" v="Gautestøltjønn" />
		<tag k="natural" v="water" />
		<tag k="ssr:stedsnr" v="364933" />
	</node>
	<node lat="58.774055559267374" lon="6.684988889992112" id="-32570">
		<tag k="name" v="Øyevatn" />
		<tag k="natural" v="water" />
		<tag k="ssr:stedsnr" v="365051" />
	</node>
	<node lat="58.83737778159378" lon="7.0351194456680926" id="-32576">
		<tag k="alt_name" v="Sveinsvatnet" />
		<tag k="name" v="Sveinsvatn" />
		<tag k="natural" v="water" />
		<tag k="ssr:stedsnr" v="365151" />
	</node>
	<node lat="58.92700555154239" lon="7.050194450336815" id="-32577">
		<tag k="alt_name" v="Trollevotni" />
		<tag k="name" v="Trodlevatn" />
		<tag k="natural" v="water" />
		<tag k="old_name" v="Trollevotnan" />
		<tag k="ssr:stedsnr" v="365193" />
	</node>
	<node lat="58.96052222369317" lon="7.137313887445431" id="-32582">
		<tag k="alt_name" v="Taraldstjørn" />
		<tag k="name" v="Toralstjødn" />
		<tag k="natural" v="water" />
		<tag k="ssr:stedsnr" v="365258" />
	</node>
	<node lat="58.96413888853543" lon="6.918486103438695" id="-32589">
		<tag k="name" v="Boghølen" />
		<tag k="place" v="locality" />
		<tag k="ssr:stedsnr" v="365811" />
	</node>
	<node lat="59.0555916644166" lon="6.882105562989139" id="-32590">
		<tag k="alt_name" v="Dyngjandlonene" />
		<tag k="name" v="Dyngjanlona" />
		<tag k="place" v="locality" />
		<tag k="ssr:stedsnr" v="365812" />
	</node>
	<node lat="58.97458888738867" lon="6.894177777246072" id="-32592">
		<tag k="alt_name" v="Eigilstjørni" />
		<tag k="name" v="Eielstjødn" />
		<tag k="natural" v="water" />
		<tag k="old_name" v="Eigilstjørn" />
		<tag k="ssr:stedsnr" v="365820" />
	</node>
	<node lat="58.86705277814148" lon="6.628294443527355" id="-32595">
		<tag k="alt_name" v="Svartavatn" />
		<tag k="name" v="Svartevatn" />
		<tag k="natural" v="water" />
		<tag k="ssr:stedsnr" v="365906" />
	</node>
	<node lat="59.07072499861166" lon="7.12660555468092" id="-32599">
		<tag k="alt_name" v="Botnsåni" />
		<tag k="name" v="Bosånæ" />
		<tag k="ssr:stedsnr" v="365900" />
		<tag k="waterway" v="stream" />
	</node>
	<node lat="58.847175000881286" lon="7.077605550148014" id="-32600">
		<tag k="name" v="Kvifjorden" />
		<tag k="natural" v="water" />
		<tag k="ssr:stedsnr" v="546151" />
		<tag k="water" v="lake" />
	</node>
	<node lat="58.674961113650646" lon="6.6707305601248885" id="-32601">
		<tag k="name" v="Trongetjønn" />
		<tag k="natural" v="water" />
		<tag k="ssr:stedsnr" v="388695" />
	</node>
	<node lat="58.603002777562295" lon="6.806374992049535" id="-32604">
		<tag k="name" v="Sandvatn" />
		<tag k="natural" v="water" />
		<tag k="ssr:stedsnr" v="485615" />
	</node>
	<node lat="58.8764669460361" lon="6.993875514356588" id="-32609">
		<tag k="alt_name" v="Haugevatnet, l" />
		<tag k="name" v="Litla Haugevatn" />
		<tag k="natural" v="water" />
		<tag k="ssr:stedsnr" v="485148" />
		<tag k="water" v="lake" />
	</node>
	<node lat="58.68634722494185" lon="6.847947217972311" id="-32612">
		<tag k="alt_name" v="Langtjørn" />
		<tag k="name" v="Langetjødn" />
		<tag k="natural" v="water" />
		<tag k="ssr:stedsnr" v="485564" />
	</node>
	<node lat="58.66663055318342" lon="6.639325007938315" id="-32614">
		<tag k="name" v="Sagåni" />
		<tag k="ssr:stedsnr" v="485577" />
		<tag k="waterway" v="stream" />
	</node>
	<node lat="58.57858055381801" lon="6.7526500014482576" id="-32621">
		<tag k="alt_name" v="Sandvatnet" />
		<tag k="name" v="Sandvatn Haughom" />
		<tag k="natural" v="water" />
		<tag k="ssr:stedsnr" v="485645" />
	</node>
	<node lat="58.655433331572695" lon="6.509102770085058" id="-32622">
		<tag k="name" v="Urvatn" />
		<tag k="natural" v="water" />
		<tag k="ssr:stedsnr" v="485755" />
	</node>
	<node lat="58.993316663193376" lon="7.092050000529863" id="-32629">
		<tag k="name" v="Tjørnene" />
		<tag k="natural" v="water" />
		<tag k="ssr:stedsnr" v="486022" />
	</node>
	<node lat="58.79872951320115" lon="6.921479631963414" id="-32630">
		<tag k="alt_name" v="Guddelvatnet" />
		<tag k="name" v="Guddilsvatn" />
		<tag k="natural" v="water" />
		<tag k="old_name" v="Guddalvatnet" />
		<tag k="ssr:stedsnr" v="486028" />
		<tag k="water" v="lake" />
	</node>
	<node lat="58.79854999806284" lon="6.650983339898236" id="-32637">
		<tag k="alt_name" v="Indra Grunnetjørni" />
		<tag k="name" v="Nedre Grundetjødn" />
		<tag k="natural" v="water" />
		<tag k="old_name" v="Grundetjørn, in" />
		<tag k="ssr:stedsnr" v="486057" />
	</node>
	<node lat="58.61340555165969" lon="6.776880556584949" id="-32639">
		<tag k="name" v="Ausdalstjødn" />
		<tag k="natural" v="water" />
		<tag k="ssr:stedsnr" v="407010" />
		<tag k="water" v="lake" />
	</node>
	<node lat="58.614366666946346" lon="6.786330563778025" id="-32640">
		<tag k="name" v="Maråna" />
		<tag k="ssr:stedsnr" v="407015" />
		<tag k="waterway" v="river" />
	</node>
	<node lat="58.635666669667685" lon="6.82114444869635" id="-32644">
		<tag k="name" v="Frievatn" />
		<tag k="natural" v="water" />
		<tag k="ssr:stedsnr" v="407121" />
		<tag k="water" v="lake" />
	</node>
	<node lat="58.635430555493926" lon="6.7925222243882235" id="-32646">
		<tag k="name" v="Torkelstjødn" />
		<tag k="natural" v="water" />
		<tag k="ssr:stedsnr" v="407128" />
	</node>
	<node lat="58.742891669298295" lon="6.701013887752925" id="-32648">
		<tag k="name" v="Tåkebekk" />
		<tag k="ssr:stedsnr" v="407240" />
		<tag k="waterway" v="stream" />
	</node>
	<node lat="58.735997218570716" lon="6.684450006422227" id="-32650">
		<tag k="name" v="Håghellertjønn" />
		<tag k="natural" v="water" />
		<tag k="ssr:stedsnr" v="407244" />
	</node>
	<node lat="58.67075555493696" lon="6.656713892424801" id="-32653">
		<tag k="name" v="Rompebekk" />
		<tag k="ssr:stedsnr" v="407249" />
		<tag k="waterway" v="stream" />
	</node>
	<node lat="58.576430554934085" lon="6.6648777728974515" id="-32656">
		<tag k="fixme" v="multiple name tags, choose one and add the other to alt_name" />
		<tag k="name" v="Litlebekk;Bjelkelibekken" />
		<tag k="ssr:stedsnr" v="407414" />
		<tag k="waterway" v="stream" />
	</node>
	<node lat="58.567230552187695" lon="6.61091389380723" id="-32659">
		<tag k="name" v="Sanden" />
		<tag k="natural" v="bay" />
		<tag k="ssr:stedsnr" v="407423" />
	</node>
	<node lat="58.66721111235985" lon="6.557580547212631" id="-32660">
		<tag k="name" v="Store Legevatn" />
		<tag k="natural" v="water" />
		<tag k="ssr:stedsnr" v="407193" />
		<tag k="water" v="lake" />
	</node>
	<node lat="58.59820833636913" lon="6.8016444438565165" id="-32661">
		<tag k="name" v="Veisetjødn" />
		<tag k="natural" v="water" />
		<tag k="ssr:stedsnr" v="407199" />
	</node>
	<node lat="58.722461112943414" lon="6.653758332683362" id="-32668">
		<tag k="name" v="Bergebekk" />
		<tag k="ssr:stedsnr" v="407604" />
		<tag k="waterway" v="stream" />
	</node>
	<node lat="58.55690278118625" lon="6.79203888698179" id="-32675">
		<tag k="name" v="Nyfonsbekken" />
		<tag k="ssr:stedsnr" v="407589" />
		<tag k="waterway" v="stream" />
	</node>
	<node lat="58.661863888952425" lon="6.535569441494919" id="-32680">
		<tag k="name" v="Lille Dibletjønn" />
		<tag k="natural" v="water" />
		<tag k="ssr:stedsnr" v="407708" />
	</node>
	<node lat="58.742366668359956" lon="6.6339611173751" id="-32692">
		<tag k="alt_name" v="Piggstølvatnet" />
		<tag k="name" v="Piggstølvatn" />
		<tag k="natural" v="water" />
		<tag k="ssr:stedsnr" v="486542" />
		<tag k="water" v="lake" />
	</node>
	<node lat="58.69835833105137" lon="6.8521000038506035" id="-32696">
		<tag k="name" v="Indre Øyevatn" />
		<tag k="natural" v="water" />
		<tag k="ssr:stedsnr" v="408296" />
		<tag k="water" v="lake" />
	</node>
	<node lat="58.86582222172981" lon="6.799322219076126" id="-32697">
		<tag k="name" v="Evja" />
		<tag k="natural" v="bay" />
		<tag k="ssr:stedsnr" v="408301" />
	</node>
	<node lat="58.79327222244287" lon="6.612791663247526" id="-32705">
		<tag k="name" v="Blåfjelltjødn" />
		<tag k="natural" v="water" />
		<tag k="ssr:stedsnr" v="408352" />
	</node>
	<node lat="58.87871111138304" lon="6.840880560680239" id="-32706">
		<tag k="name" v="Finneneset" />
		<tag k="natural" v="cape" />
		<tag k="ssr:stedsnr" v="408354" />
	</node>
	<node lat="58.880166669909755" lon="6.856849996164946" id="-32707">
		<tag k="name" v="Skarbekken" />
		<tag k="ssr:stedsnr" v="408357" />
		<tag k="waterway" v="stream" />
	</node>
	<node lat="58.88341111374772" lon="6.858883339174777" id="-32711">
		<tag k="name" v="Hølen" />
		<tag k="place" v="locality" />
		<tag k="ssr:stedsnr" v="408512" />
	</node>
	<node lat="58.99167777529369" lon="6.918008339021953" id="-32714">
		<tag k="name" v="Sundeklumpen" />
		<tag k="natural" v="cape" />
		<tag k="ssr:stedsnr" v="408569" />
	</node>
	<node lat="58.88932499860546" lon="7.127716671818412" id="-32720">
		<tag k="name" v="Sandlonæ" />
		<tag k="natural" v="water" />
		<tag k="ssr:stedsnr" v="408639" />
		<tag k="water" v="lake" />
	</node>
	<node lat="58.7910305574227" lon="6.828227774550368" id="-32721">
		<tag k="name" v="Bakketjødn" />
		<tag k="natural" v="water" />
		<tag k="ssr:stedsnr" v="408689" />
	</node>
	<node lat="58.86487777660689" lon="6.646819444672082" id="-32724">
		<tag k="name" v="Hommetjødn" />
		<tag k="natural" v="water" />
		<tag k="ssr:stedsnr" v="408805" />
	</node>
	<node lat="59.04788611361555" lon="6.872633326293769" id="-32732">
		<tag k="name" v="Kjerringstølfossen" />
		<tag k="natural" v="waterfall" />
		<tag k="ssr:stedsnr" v="408850" />
	</node>
	<node lat="58.76653808956756" lon="6.540379321502085" id="-32740">
		<tag k="name" v="Bergavatnet" />
		<tag k="natural" v="water" />
		<tag k="ssr:stedsnr" v="486785" />
		<tag k="water" v="lake" />
	</node>
	<node lat="58.95430555197703" lon="6.919374993368442" id="-32742">
		<tag k="name" v="Fidjelandsvatnet" />
		<tag k="natural" v="water" />
		<tag k="ssr:stedsnr" v="486790" />
		<tag k="water" v="lake" />
	</node>
	<node lat="58.895302779680115" lon="6.593547216175313" id="-32747">
		<tag k="name" v="Tverrå lega" />
		<tag k="place" v="islet" />
		<tag k="ssr:stedsnr" v="408992" />
	</node>
	<node lat="59.181222219724326" lon="7.025844442463059" id="-32749">
		<tag k="name" v="Hyttetjødn" />
		<tag k="natural" v="water" />
		<tag k="ssr:stedsnr" v="408996" />
	</node>
	<node lat="58.888733337260156" lon="6.943963890467493" id="-32750">
		<tag k="name" v="Raudåvatnet" />
		<tag k="natural" v="water" />
		<tag k="ssr:stedsnr" v="486891" />
		<tag k="water" v="lake" />
	</node>
	<node lat="58.884616663732906" lon="6.60862499548937" id="-32752">
		<tag k="alt_name" v="Tverråtjørn" />
		<tag k="name" v="Tverråtjødnen" />
		<tag k="natural" v="water" />
		<tag k="ssr:stedsnr" v="486895" />
	</node>
	<node lat="58.89799207991627" lon="6.867981180503368" id="-32753">
		<tag k="fixme" v="multiple name tags, choose one and add the other to alt_name" />
		<tag k="name" v="Foråstjødn;Lomtjødn" />
		<tag k="natural" v="water" />
		<tag k="ssr:stedsnr" v="486899" />
	</node>
	<node lat="58.865783335823046" lon="6.8936083262283825" id="-32754">
		<tag k="alt_name" v="Løkjetjørn" />
		<tag k="name" v="Løgetjønn" />
		<tag k="natural" v="water" />
		<tag k="ssr:stedsnr" v="486935" />
	</node>
	<node lat="58.8908583295535" lon="6.834808341322071" id="-32756">
		<tag k="alt_name" v="Stemtjørn" />
		<tag k="name" v="Stemtjønnan" />
		<tag k="natural" v="water" />
		<tag k="old_name" v="Stemtjørnene" />
		<tag k="ssr:stedsnr" v="486901" />
	</node>
	<node lat="58.92176666507127" lon="6.882916671428589" id="-32760">
		<tag k="alt_name" v="Andestjørn" />
		<tag k="name" v="Andetjønn" />
		<tag k="natural" v="water" />
		<tag k="ssr:stedsnr" v="486999" />
	</node>
	<node lat="59.148761109321256" lon="7.062163897038272" id="-32763">
		<tag k="alt_name" v="Rjuvtjørni" />
		<tag k="name" v="Rutjødn" />
		<tag k="natural" v="water" />
		<tag k="ssr:stedsnr" v="487831" />
		<tag k="water" v="lake" />
	</node>
	<node lat="59.125094441794225" lon="7.006461115161255" id="-32764">
		<tag k="alt_name" v="Storevassåni" />
		<tag k="name" v="Storevassånæ" />
		<tag k="ssr:stedsnr" v="487844" />
		<tag k="waterway" v="stream" />
	</node>
	<node lat="59.06111389067284" lon="7.038558325750582" id="-32766">
		<tag k="alt_name" v="Skjerevatni" />
		<tag k="name" v="Mæ sunnå" />
		<tag k="natural" v="water" />
		<tag k="ssr:stedsnr" v="487895" />
	</node>
	<node lat="58.519577776071976" lon="6.773516671616637" id="-32768">
		<tag k="name" v="Bikttjørnan" />
		<tag k="natural" v="water" />
		<tag k="ssr:stedsnr" v="417410" />
		<tag k="water" v="lake" />
	</node>
	<node lat="58.8535916642466" lon="7.058483330036378" id="-32769">
		<tag k="alt_name" v="Kotåviki" />
		<tag k="name" v="Kodåvika" />
		<tag k="natural" v="bay" />
		<tag k="ssr:stedsnr" v="425120" />
	</node>
	<node lat="58.6465138927795" lon="6.673802785871549" id="-32773">
		<tag k="name" v="Storlibekken" />
		<tag k="ssr:stedsnr" v="425645" />
		<tag k="waterway" v="stream" />
	</node>
	<node lat="58.65794167109674" lon="6.48974167168677" id="-32775">
		<tag k="alt_name" v="Svartevatnet, l" />
		<tag k="name" v="Lille Svartevatn" />
		<tag k="natural" v="water" />
		<tag k="ssr:stedsnr" v="425804" />
	</node>
	<node lat="58.65281666985104" lon="6.579111111812316" id="-32776">
		<tag k="name" v="Bjørnestadvatnet" />
		<tag k="natural" v="water" />
		<tag k="ssr:stedsnr" v="425815" />
		<tag k="water" v="lake" />
	</node>
	<node lat="58.5490083319338" lon="6.762350005790315" id="-32777">
		<tag k="alt_name" v="Fjordungstjørni" />
		<tag k="name" v="Fjordingstjødn" />
		<tag k="natural" v="water" />
		<tag k="ssr:stedsnr" v="425745" />
	</node>
	<node lat="58.56080832924603" lon="6.663419451316421" id="-32778">
		<tag k="alt_name" v="Rattjørna" />
		<tag k="name" v="Rattjødn" />
		<tag k="natural" v="water" />
		<tag k="ssr:stedsnr" v="425749" />
	</node>
	<node lat="58.66160833138008" lon="6.5530388850433114" id="-32780">
		<tag k="alt_name" v="Legetjørni, store" />
		<tag k="name" v="Store Legetjønn" />
		<tag k="natural" v="water" />
		<tag k="ssr:stedsnr" v="425799" />
	</node>
	<node lat="58.84488889243209" lon="6.653961116770925" id="-32781">
		<tag k="alt_name" v="Bytjørn" />
		<tag k="name" v="Bytjødn" />
		<tag k="natural" v="water" />
		<tag k="ssr:stedsnr" v="425912" />
	</node>
	<node lat="58.79546640062261" lon="6.666355340962062" id="-32783">
		<tag k="alt_name" v="Skeidstjørn" />
		<tag k="name" v="Skeidstjødn" />
		<tag k="natural" v="water" />
		<tag k="ssr:stedsnr" v="426098" />
	</node>
	<node lat="58.83954722202176" lon="6.909097217777135" id="-32787">
		<tag k="alt_name" v="Øyavatnet" />
		<tag k="name" v="Øyarvatn" />
		<tag k="natural" v="water" />
		<tag k="old_name" v="Øyervatnet" />
		<tag k="ssr:stedsnr" v="426104" />
	</node>
	<node lat="58.740727780370015" lon="6.697261114426475" id="-32789">
		<tag k="alt_name" v="Urdvatnet" />
		<tag k="name" v="Urdvatn" />
		<tag k="natural" v="water" />
		<tag k="ssr:stedsnr" v="426485" />
		<tag k="water" v="lake" />
	</node>
	<node lat="59.02984444602137" lon="6.932774991568371" id="-32793">
		<tag k="name" v="Klevetjødn" />
		<tag k="natural" v="water" />
		<tag k="ssr:stedsnr" v="426806" />
	</node>
	<node lat="58.959611111197226" lon="6.707911104277767" id="-32796">
		<tag k="alt_name" v="Storviki" />
		<tag k="name" v="Storavigjæ" />
		<tag k="natural" v="bay" />
		<tag k="old_name" v="Storvikje" />
		<tag k="ssr:stedsnr" v="426814" />
	</node>
	<node lat="59.16205277978502" lon="7.1014694411139905" id="-32798">
		<tag k="alt_name" v="Rjuvvatn" />
		<tag k="name" v="Ruvatnet" />
		<tag k="natural" v="water" />
		<tag k="ssr:stedsnr" v="426876" />
		<tag k="water" v="lake" />
	</node>
	<node lat="58.952855551834624" lon="6.707055549498184" id="-32802">
		<tag k="alt_name" v="Degevatnet" />
		<tag k="name" v="Degevatn" />
		<tag k="natural" v="water" />
		<tag k="old_name" v="Degjevatnet" />
		<tag k="ssr:stedsnr" v="426789" />
		<tag k="water" v="lake" />
	</node>
	<node lat="58.88809166330492" lon="6.70352778654738" id="-32805">
		<tag k="alt_name" v="Endebekken" />
		<tag k="name" v="Endebekk" />
		<tag k="ssr:stedsnr" v="426909" />
		<tag k="waterway" v="stream" />
	</node>
	<node lat="58.90627116895781" lon="6.858002785071202" id="-32806">
		<tag k="name" v="Svartevatn" />
		<tag k="natural" v="water" />
		<tag k="ssr:stedsnr" v="426978" />
		<tag k="water" v="lake" />
	</node>
	<node lat="58.89953055802563" lon="6.628919445275326" id="-32810">
		<tag k="alt_name" v="Tuptetjørni" />
		<tag k="name" v="Tuftetjødn" />
		<tag k="natural" v="water" />
		<tag k="old_name" v="Tuftetjørn" />
		<tag k="ssr:stedsnr" v="426990" />
		<tag k="water" v="lake" />
	</node>
	<node lat="58.90843889331462" lon="6.802372220384803" id="-32812">
		<tag k="alt_name" v="Røsetjørn, stora;Stora Røsetjørn" />
		<tag k="name" v="Stora Røsetjønn" />
		<tag k="natural" v="water" />
		<tag k="ssr:stedsnr" v="426995" />
	</node>
	<node lat="59.09192777390183" lon="6.9658694461142" id="-32813">
		<tag k="alt_name" v="Arnlaugbekken" />
		<tag k="name" v="Djubevassbekkjen" />
		<tag k="ssr:stedsnr" v="427178" />
		<tag k="waterway" v="stream" />
	</node>
	<node lat="58.931693422559555" lon="6.943679827917126" id="-32815">
		<tag k="alt_name" v="Rjupedalstjørni" />
		<tag k="name" v="Store Rubedalstjødn" />
		<tag k="natural" v="water" />
		<tag k="ssr:stedsnr" v="447922" />
	</node>
	<node lat="58.57983055873276" lon="6.646541670801113" id="-32816">
		<tag k="name" v="Tvillingtjødn" />
		<tag k="natural" v="water" />
		<tag k="ssr:stedsnr" v="461418" />
	</node>
	<node lat="58.574958328887924" lon="6.611327773486174" id="-32818">
		<tag k="name" v="Rompetjødn" />
		<tag k="natural" v="water" />
		<tag k="ssr:stedsnr" v="461422" />
	</node>
	<node lat="58.51005555118384" lon="6.802438893751482" id="-32821">
		<tag k="name" v="Nedre Smålitjødn" />
		<tag k="natural" v="water" />
		<tag k="ssr:stedsnr" v="467107" />
	</node>
	<node lat="58.6580749963531" lon="6.607394445702275" id="-32823">
		<tag k="name" v="Furenes" />
		<tag k="natural" v="cape" />
		<tag k="ssr:stedsnr" v="467168" />
	</node>
	<node lat="58.50290277878887" lon="6.714186118890151" id="-32831">
		<tag k="name" v="Djuvatn" />
		<tag k="natural" v="water" />
		<tag k="ssr:stedsnr" v="467720" />
	</node>
	<node lat="58.68369166283698" lon="6.625333328119962" id="-32836">
		<tag k="name" v="Kvævebekk" />
		<tag k="ssr:stedsnr" v="468204" />
		<tag k="waterway" v="stream" />
	</node>
	<node lat="58.60829722034148" lon="6.664038885278897" id="-32839">
		<tag k="name" v="Flæsebekken" />
		<tag k="ssr:stedsnr" v="468210" />
		<tag k="waterway" v="stream" />
	</node>
	<node lat="58.76257222350289" lon="6.612180547090162" id="-32844">
		<tag k="name" v="Kulitjønn" />
		<tag k="natural" v="water" />
		<tag k="ssr:stedsnr" v="468165" />
	</node>
	<node lat="58.56054722497581" lon="6.771500005117013" id="-32852">
		<tag k="name" v="Tangen" />
		<tag k="natural" v="cape" />
		<tag k="ssr:stedsnr" v="468261" />
	</node>
	<node lat="58.56240833725794" lon="6.771227775448816" id="-32853">
		<tag k="name" v="Kilen" />
		<tag k="natural" v="bay" />
		<tag k="ssr:stedsnr" v="468262" />
	</node>
	<node lat="58.57895833109605" lon="6.8034888886562035" id="-32860">
		<tag k="name" v="Flåvassbekken" />
		<tag k="ssr:stedsnr" v="468423" />
		<tag k="waterway" v="stream" />
	</node>
	<node lat="58.89462499891887" lon="7.056966671274371" id="-32874">
		<tag k="name" v="Rotledalstjødn" />
		<tag k="natural" v="water" />
		<tag k="ssr:stedsnr" v="468609" />
	</node>
	<node lat="58.796555557135356" lon="6.7532972234135435" id="-32881">
		<tag k="name" v="Nesjen" />
		<tag k="ssr:stedsnr" v="468361" />
		<tag k="waterway" v="rapids" />
	</node>
	<node lat="58.64155555339651" lon="6.551925007907536" id="-32892">
		<tag k="name" v="Stemmetjønn" />
		<tag k="natural" v="water" />
		<tag k="ssr:stedsnr" v="468542" />
	</node>
	<node lat="58.52807500220034" lon="6.7087694416739" id="-32893">
		<tag k="name" v="Flesebekken" />
		<tag k="ssr:stedsnr" v="468562" />
		<tag k="waterway" v="stream" />
	</node>
	<node lat="59.01337933728734" lon="6.9641026088156295" id="-32894">
		<tag k="name" v="Langehaugbekken" />
		<tag k="ssr:stedsnr" v="468564" />
		<tag k="waterway" v="stream" />
	</node>
	<node lat="58.7439111132271" lon="6.600655563121718" id="-32907">
		<tag k="name" v="Goetjønnelva" />
		<tag k="ssr:stedsnr" v="468707" />
		<tag k="waterway" v="river" />
	</node>
	<node lat="58.76997222239171" lon="6.806363885773086" id="-32909">
		<tag k="name" v="Stakshombekken" />
		<tag k="ssr:stedsnr" v="468710" />
		<tag k="waterway" v="stream" />
	</node>
	<node lat="58.90689722588604" lon="6.854736109586147" id="-32915">
		<tag k="alt_name" v="Svartevasstranda" />
		<tag k="name" v="Svartevass-stranda" />
		<tag k="natural" v="beach" />
		<tag k="ssr:stedsnr" v="468675" />
	</node>
	<node lat="59.0058388859197" lon="7.00140832626031" id="-32918">
		<tag k="name" v="Flæetjødn" />
		<tag k="natural" v="water" />
		<tag k="ssr:stedsnr" v="468817" />
	</node>
	<node lat="58.85929721774843" lon="6.859086104230043" id="-32920">
		<tag k="name" v="Midtstølbekken" />
		<tag k="ssr:stedsnr" v="468840" />
		<tag k="waterway" v="stream" />
	</node>
	<node lat="58.8359583351924" lon="6.980616669377573" id="-32921">
		<tag k="name" v="Skittlegetjønn" />
		<tag k="natural" v="water" />
		<tag k="ssr:stedsnr" v="468861" />
	</node>
	<node lat="58.748066664757346" lon="6.92072499449951" id="-32922">
		<tag k="name" v="Atlakstjønn" />
		<tag k="natural" v="water" />
		<tag k="ssr:stedsnr" v="468874" />
	</node>
	<node lat="58.934691665915835" lon="6.9176444468285005" id="-32924">
		<tag k="name" v="Bukketjønn" />
		<tag k="natural" v="water" />
		<tag k="ssr:stedsnr" v="468770" />
	</node>
	<node lat="58.63954444836902" lon="6.5110361046818825" id="-32932">
		<tag k="name" v="Kvernebekken" />
		<tag k="ssr:stedsnr" v="468984" />
		<tag k="waterway" v="stream" />
	</node>
	<node lat="58.801869440918495" lon="6.664830551534077" id="-32934">
		<tag k="name" v="Skeidsbekken" />
		<tag k="ssr:stedsnr" v="469277" />
		<tag k="waterway" v="stream" />
	</node>
	<node lat="58.880413885142076" lon="6.82642500652737" id="-32935">
		<tag k="name" v="Øysteinsvik" />
		<tag k="natural" v="bay" />
		<tag k="ssr:stedsnr" v="469288" />
	</node>
	<node lat="58.885205557528636" lon="6.777038891143313" id="-32939">
		<tag k="name" v="Osen" />
		<tag k="natural" v="bay" />
		<tag k="ssr:stedsnr" v="469568" />
	</node>
	<node lat="58.88801111516919" lon="6.815424993470978" id="-32942">
		<tag k="name" v="Lona" />
		<tag k="natural" v="water" />
		<tag k="ssr:stedsnr" v="469585" />
		<tag k="water" v="lake" />
	</node>
	<node lat="58.69449069420968" lon="6.684231347936718" id="-32947">
		<tag k="name" v="Ormetjørn" />
		<tag k="natural" v="water" />
		<tag k="ssr:stedsnr" v="485506" />
	</node>
	<node lat="58.717266662955126" lon="6.840261114075374" id="-32953">
		<tag k="alt_name" v="Djupetjørn" />
		<tag k="name" v="Djubetjødn" />
		<tag k="natural" v="water" />
		<tag k="ssr:stedsnr" v="485488" />
	</node>
	<node lat="58.64985555986647" lon="6.788211114266761" id="-32954">
		<tag k="alt_name" v="Føråni;Føråna" />
		<tag k="fixme" v="multiple name tags, choose one and add the other to alt_name" />
		<tag k="name" v="Ovedalsåna;Før-åna" />
		<tag k="ssr:stedsnr" v="485596" />
		<tag k="waterway" v="river" />
	</node>
	<node lat="58.59467500171346" lon="6.724491667165008" id="-32955">
		<tag k="alt_name" v="Yksnedalsvatnet" />
		<tag k="loc_name" v="Øksendalsvatnet" />
		<tag k="name" v="Øksendalstjødn" />
		<tag k="natural" v="water" />
		<tag k="ssr:stedsnr" v="485662" />
	</node>
	<node lat="58.957791667243974" lon="7.0721111167347015" id="-32960">
		<tag k="alt_name" v="Reknetjørnene" />
		<tag k="name" v="Reknetjødn" />
		<tag k="natural" v="water" />
		<tag k="old_name" v="Reknetjørnenne" />
		<tag k="ssr:stedsnr" v="486243" />
	</node>
	<node lat="58.74316944227483" lon="6.646858331494751" id="-32963">
		<tag k="alt_name" v="Øydevatnan" />
		<tag k="name" v="Nordre Øyetjønn" />
		<tag k="natural" v="water" />
		<tag k="ssr:stedsnr" v="486514" />
	</node>
	<node lat="58.731966662357316" lon="6.7221527728744" id="-32964">
		<tag k="name" v="Steian" />
		<tag k="natural" v="water" />
		<tag k="ssr:stedsnr" v="486559" />
	</node>
	<node lat="58.72305277353658" lon="6.6931750084432" id="-32966">
		<tag k="alt_name" v="Løynestølvatnet" />
		<tag k="name" v="Øvre Løyntjønn" />
		<tag k="natural" v="water" />
		<tag k="ssr:stedsnr" v="486568" />
	</node>
	<node lat="59.00595000097498" lon="6.79689721657323" id="-32969">
		<tag k="alt_name" v="Simletjørni" />
		<tag k="name" v="Simletjødn" />
		<tag k="natural" v="water" />
		<tag k="ssr:stedsnr" v="486770" />
	</node>
	<node lat="58.98285555469666" lon="6.861772220193825" id="-32971">
		<tag k="alt_name" v="Langetjørn" />
		<tag k="name" v="Langetjødn" />
		<tag k="natural" v="water" />
		<tag k="ssr:stedsnr" v="486772" />
	</node>
	<node lat="58.89241327273486" lon="6.749028710378805" id="-32972">
		<tag k="alt_name" v="Gravatnet" />
		<tag k="name" v="Gravatn" />
		<tag k="natural" v="water" />
		<tag k="ssr:stedsnr" v="486903" />
		<tag k="water" v="lake" />
	</node>
	<node lat="58.925480559887454" lon="6.790483329365671" id="-32973">
		<tag k="name" v="Valevatn" />
		<tag k="natural" v="water" />
		<tag k="ssr:stedsnr" v="486954" />
		<tag k="water" v="lake" />
	</node>
	<node lat="59.10419166917552" lon="7.066336118587897" id="-32979">
		<tag k="alt_name" v="Djupevatn" />
		<tag k="name" v="Djubevatn" />
		<tag k="natural" v="water" />
		<tag k="ssr:stedsnr" v="487923" />
	</node>
	<node lat="59.0279361088118" lon="7.120988889210687" id="-32980">
		<tag k="alt_name" v="Langetjørn" />
		<tag k="name" v="Store Ramstjødn" />
		<tag k="natural" v="water" />
		<tag k="ssr:stedsnr" v="487978" />
		<tag k="water" v="lake" />
	</node>
	<node lat="58.60306388999891" lon="6.75258610792883" id="-32982">
		<tag k="name" v="Bjølleknutbekken" />
		<tag k="ssr:stedsnr" v="528022" />
		<tag k="waterway" v="stream" />
	</node>
	<node lat="58.6261583327036" lon="6.824447230560575" id="-32984">
		<tag k="name" v="Urdalstjødn" />
		<tag k="natural" v="water" />
		<tag k="ssr:stedsnr" v="528090" />
	</node>
	<node lat="58.517536112954986" lon="6.791505551046239" id="-33005">
		<tag k="name" v="Edlingsnes" />
		<tag k="natural" v="cape" />
		<tag k="ssr:stedsnr" v="528572" />
	</node>
	<node lat="58.642277775320466" lon="6.648888882769664" id="-33009">
		<tag k="name" v="Vikestøtjønna" />
		<tag k="natural" v="water" />
		<tag k="ssr:stedsnr" v="528705" />
	</node>
	<node lat="58.50403888999403" lon="6.722100006845691" id="-33010">
		<tag k="name" v="Lomstjødn" />
		<tag k="natural" v="water" />
		<tag k="ssr:stedsnr" v="528706" />
	</node>
	<node lat="58.62743611256049" lon="6.5809722200538685" id="-33011">
		<tag k="name" v="Hestetjønn" />
		<tag k="natural" v="water" />
		<tag k="ssr:stedsnr" v="528710" />
	</node>
	<node lat="58.644080559192034" lon="6.604727781928408" id="-33012">
		<tag k="name" v="Skorfjelltjønna" />
		<tag k="natural" v="water" />
		<tag k="ssr:stedsnr" v="528713" />
	</node>
	<node lat="58.690461112386345" lon="6.708424996753435" id="-33019">
		<tag k="name" v="Glipsbekken" />
		<tag k="ssr:stedsnr" v="528986" />
		<tag k="waterway" v="stream" />
	</node>
	<node lat="58.64737777785573" lon="6.557847229077514" id="-33021">
		<tag k="name" v="Rundebekk" />
		<tag k="ssr:stedsnr" v="529182" />
		<tag k="waterway" v="stream" />
	</node>
	<node lat="59.01614875352977" lon="6.969596713696103" id="-33028">
		<tag k="name" v="Hadlebekken" />
		<tag k="ssr:stedsnr" v="529609" />
		<tag k="waterway" v="stream" />
	</node>
	<node lat="58.70411666757623" lon="6.767647218974067" id="-33037">
		<tag k="name" v="Kjepshomtjønn" />
		<tag k="natural" v="water" />
		<tag k="ssr:stedsnr" v="529510" />
	</node>
	<node lat="59.0182694551786" lon="6.913041571689895" id="-33040">
		<tag k="name" v="Skreppetjødn" />
		<tag k="natural" v="water" />
		<tag k="ssr:stedsnr" v="529522" />
	</node>
	<node lat="59.15788610705128" lon="6.987144444614102" id="-33046">
		<tag k="name" v="Fjellveggtjødnæ" />
		<tag k="natural" v="water" />
		<tag k="ssr:stedsnr" v="529903" />
	</node>
	<node lat="58.934550004058245" lon="6.782547225490963" id="-33053">
		<tag k="name" v="Klattetjønn" />
		<tag k="natural" v="water" />
		<tag k="ssr:stedsnr" v="529831" />
	</node>
	<node lat="58.84221110733584" lon="6.747722218400241" id="-33059">
		<tag k="name" v="Tveidebekken" />
		<tag k="ssr:stedsnr" v="529890" />
		<tag k="waterway" v="stream" />
	</node>
	<node lat="58.807366668449355" lon="6.671761107994768" id="-33061">
		<tag k="name" v="Raunlibekken" />
		<tag k="ssr:stedsnr" v="530324" />
		<tag k="waterway" v="stream" />
	</node>
	<node lat="58.55370833687522" lon="6.7821472280928585" id="-33075">
		<tag k="name" v="Myrbekken" />
		<tag k="ssr:stedsnr" v="710565" />
		<tag k="waterway" v="stream" />
	</node>
	<node lat="58.97903611312592" lon="6.936855550954714" id="-33076">
		<tag k="name" v="Midtre Hestedalstjødn" />
		<tag k="natural" v="water" />
		<tag k="ssr:stedsnr" v="710571" />
	</node>
	<node lat="58.87833610723676" lon="7.033369447603806" id="-33081">
		<tag k="name" v="Mjåvatn" />
		<tag k="natural" v="water" />
		<tag k="ssr:stedsnr" v="546179" />
		<tag k="water" v="lake" />
	</node>
	<node lat="58.64904050288921" lon="6.807202968409198" id="-33082">
		<tag k="alt_name" v="Småtjørnan;Småtjødnan" />
		<tag k="name" v="Småtjødnen" />
		<tag k="natural" v="water" />
		<tag k="ssr:stedsnr" v="546610" />
		<tag k="water" v="lake" />
	</node>
	<node lat="58.60028333641783" lon="6.771674991239218" id="-33083">
		<tag k="alt_name" v="Rjupetjørnan" />
		<tag k="name" v="Store Rupetjødn" />
		<tag k="natural" v="water" />
		<tag k="ssr:stedsnr" v="546618" />
	</node>
	<node lat="58.59598611239969" lon="6.658680549891314" id="-33084">
		<tag k="alt_name" v="Holetjørna" />
		<tag k="name" v="Holløtjødn" />
		<tag k="natural" v="water" />
		<tag k="ssr:stedsnr" v="546622" />
	</node>
	<node lat="58.64763610767668" lon="6.495158337869672" id="-33093">
		<tag k="alt_name" v="Grunnvatnet" />
		<tag k="name" v="Grunnevatn" />
		<tag k="natural" v="water" />
		<tag k="ssr:stedsnr" v="546778" />
	</node>
	<node lat="58.871575001671786" lon="6.952477784977782" id="-33096">
		<tag k="alt_name" v="Vardetjørn" />
		<tag k="name" v="Vardetjønn" />
		<tag k="natural" v="water" />
		<tag k="ssr:stedsnr" v="546921" />
	</node>
	<node lat="58.89668333139278" lon="7.096355562616208" id="-33097">
		<tag k="alt_name" v="Krokevatnet, Litla" />
		<tag k="name" v="Lille Krogevatn" />
		<tag k="natural" v="water" />
		<tag k="old_name" v="Krokevatnet, l" />
		<tag k="ssr:stedsnr" v="547177" />
	</node>
	<node lat="58.90286539106811" lon="7.077155324565211" id="-33101">
		<tag k="alt_name" v="Krokevatnet" />
		<tag k="name" v="Krogevatn" />
		<tag k="natural" v="water" />
		<tag k="ssr:stedsnr" v="547222" />
		<tag k="water" v="lake" />
	</node>
	<node lat="58.734187053010864" lon="6.596696522191171" id="-33103">
		<tag k="alt_name" v="Holmevatnet" />
		<tag k="name" v="Litle Holmevatn" />
		<tag k="natural" v="water" />
		<tag k="ssr:stedsnr" v="547548" />
		<tag k="water" v="lake" />
	</node>
	<node lat="58.87908333586388" lon="6.826880555371188" id="-33106">
		<tag k="alt_name" v="Øysteinevja" />
		<tag k="name" v="Øysteinsevja" />
		<tag k="natural" v="water" />
		<tag k="ssr:stedsnr" v="547902" />
		<tag k="water" v="lake" />
	</node>
	<node lat="59.030729162736705" lon="7.121962908722311" id="-33110">
		<tag k="alt_name" v="Ramstjørn" />
		<tag k="name" v="Litle Ramstjødn" />
		<tag k="natural" v="water" />
		<tag k="ssr:stedsnr" v="547919" />
	</node>
	<node lat="59.10388333742798" lon="6.98290555358985" id="-33111">
		<tag k="alt_name" v="Taunevatn, litla;Taumevatn, litla" />
		<tag k="name" v="Litla Taumevatn" />
		<tag k="natural" v="water" />
		<tag k="ssr:stedsnr" v="547927" />
	</node>
	<node lat="59.13733490822613" lon="7.072130091591693" id="-33118">
		<tag k="alt_name" v="Skrolletjørnane;Skrolletørnane" />
		<tag k="name" v="Skrålletødnane" />
		<tag k="natural" v="water" />
		<tag k="ssr:stedsnr" v="547868" />
		<tag k="water" v="lake" />
	</node>
	<node lat="58.64553055420475" lon="6.480027785908203" id="-33130">
		<tag k="name" v="Langa tangen" />
		<tag k="natural" v="cape" />
		<tag k="ssr:stedsnr" v="588975" />
	</node>
	<node lat="58.6029083298858" lon="6.710319450547415" id="-33134">
		<tag k="name" v="Bjørkenes" />
		<tag k="natural" v="cape" />
		<tag k="ssr:stedsnr" v="589068" />
	</node>
	<node lat="58.621616669311905" lon="6.746502769448758" id="-33135">
		<tag k="name" v="Stemtjødn" />
		<tag k="natural" v="water" />
		<tag k="ssr:stedsnr" v="589074" />
	</node>
	<node lat="58.659694441857134" lon="6.56257222920787" id="-33137">
		<tag k="name" v="Ytrefossen" />
		<tag k="natural" v="waterfall" />
		<tag k="ssr:stedsnr" v="589208" />
	</node>
	<node lat="58.605519442609165" lon="6.6703027769519165" id="-33139">
		<tag k="name" v="Vislandstjødna" />
		<tag k="natural" v="water" />
		<tag k="ssr:stedsnr" v="589220" />
	</node>
	<node lat="58.69271944289288" lon="6.796749998824765" id="-33157">
		<tag k="name" v="Brubekk" />
		<tag k="ssr:stedsnr" v="589372" />
		<tag k="waterway" v="stream" />
	</node>
	<node lat="58.51823333622002" lon="6.753683333637192" id="-33164">
		<tag k="name" v="Kringlenes" />
		<tag k="natural" v="cape" />
		<tag k="ssr:stedsnr" v="589606" />
	</node>
	<node lat="58.73054444721226" lon="6.727719443021965" id="-33166">
		<tag k="name" v="Rosetjønn" />
		<tag k="natural" v="water" />
		<tag k="ssr:stedsnr" v="589614" />
	</node>
	<node lat="58.90321667013383" lon="6.8984361112553545" id="-33167">
		<tag k="name" v="Storebekk" />
		<tag k="ssr:stedsnr" v="589617" />
		<tag k="waterway" v="stream" />
	</node>
	<node lat="58.793022221841724" lon="6.862311113149538" id="-33169">
		<tag k="name" v="Nyestølodden" />
		<tag k="natural" v="cape" />
		<tag k="ssr:stedsnr" v="589626" />
	</node>
	<node lat="58.52012500416136" lon="6.697586104324037" id="-33177">
		<tag k="name" v="Dannemark" />
		<tag k="natural" v="cape" />
		<tag k="ssr:stedsnr" v="589576" />
	</node>
	<node lat="58.72276110930818" lon="6.706872223507513" id="-33178">
		<tag k="name" v="Svartepollen" />
		<tag k="place" v="locality" />
		<tag k="ssr:stedsnr" v="589577" />
	</node>
	<node lat="58.90950833040465" lon="6.846111112280324" id="-33180">
		<tag k="name" v="Plukken" />
		<tag k="natural" v="cape" />
		<tag k="ssr:stedsnr" v="589580" />
	</node>
	<node lat="58.83411066275935" lon="6.845314858324702" id="-33183">
		<tag k="name" v="Vigetjødnen" />
		<tag k="natural" v="water" />
		<tag k="ssr:stedsnr" v="589713" />
		<tag k="water" v="lake" />
	</node>
	<node lat="58.8139138902706" lon="6.609869451865428" id="-33206">
		<tag k="name" v="Teinebekken" />
		<tag k="ssr:stedsnr" v="590259" />
		<tag k="waterway" v="stream" />
	</node>
	<node lat="58.86468333651567" lon="6.783422220957759" id="-33212">
		<tag k="name" v="Trodalsbekken" />
		<tag k="ssr:stedsnr" v="590311" />
		<tag k="waterway" v="stream" />
	</node>
	<node lat="58.88223055636325" lon="6.582630554329535" id="-33220">
		<tag k="name" v="Odden" />
		<tag k="natural" v="cape" />
		<tag k="ssr:stedsnr" v="590764" />
	</node>
	<node lat="58.97130832989955" lon="6.8838249967571175" id="-33224">
		<tag k="name" v="Fåreklatten" />
		<tag k="place" v="islet" />
		<tag k="ssr:stedsnr" v="590803" />
	</node>
	<node lat="58.54454999997876" lon="6.818975004401364" id="-33240">
		<tag k="alt_name" v="Sandtjørni" />
		<tag k="name" v="Sandtjødn" />
		<tag k="natural" v="water" />
		<tag k="ssr:stedsnr" v="606716" />
	</node>
	<node lat="58.76747777637329" lon="6.7262138840571986" id="-33242">
		<tag k="name" v="Tjørnhomtjørn" />
		<tag k="natural" v="water" />
		<tag k="ssr:stedsnr" v="607002" />
	</node>
	<node lat="58.76227499650814" lon="6.618377772229462" id="-33243">
		<tag k="alt_name" v="Øvra Kulivatn" />
		<tag k="name" v="Litle Kulivatn" />
		<tag k="natural" v="water" />
		<tag k="old_name" v="Kulivatn, øvre" />
		<tag k="ssr:stedsnr" v="607006" />
	</node>
	<node lat="58.760422226468556" lon="6.920755562995376" id="-33246">
		<tag k="alt_name" v="Hyttevatnet" />
		<tag k="name" v="Hyttevatnan" />
		<tag k="natural" v="water" />
		<tag k="old_name" v="Hyttevotnan" />
		<tag k="ssr:stedsnr" v="607019" />
	</node>
	<node lat="58.83230555601592" lon="6.759922226176779" id="-33249">
		<tag k="alt_name" v="Åsetjørn" />
		<tag k="name" v="Åsetjødn" />
		<tag k="natural" v="water" />
		<tag k="ssr:stedsnr" v="607102" />
	</node>
	<node lat="58.93097499810042" lon="7.088152780710566" id="-33251">
		<tag k="name" v="Hegrefossen" />
		<tag k="natural" v="waterfall" />
		<tag k="ssr:stedsnr" v="607205" />
	</node>
	<node lat="58.91584721817316" lon="7.1090472263389755" id="-33254">
		<tag k="alt_name" v="Djupevatnet, Stora" />
		<tag k="name" v="Store Djubevatn" />
		<tag k="natural" v="water" />
		<tag k="old_name" v="Djupevatnet, store" />
		<tag k="ssr:stedsnr" v="607222" />
		<tag k="water" v="lake" />
	</node>
	<node lat="58.69452222162679" lon="6.784594451009138" id="-33259">
		<tag k="alt_name" v="Skjørbutjørnan" />
		<tag k="name" v="Heimra Skjørbutjødn" />
		<tag k="natural" v="water" />
		<tag k="ssr:stedsnr" v="607571" />
	</node>
	<node lat="58.58281389008536" lon="6.651836117432039" id="-33260">
		<tag k="alt_name" v="Stemmetjørna" />
		<tag k="name" v="Stemmetjødn" />
		<tag k="natural" v="water" />
		<tag k="ssr:stedsnr" v="607708" />
	</node>
	<node lat="59.171105555624216" lon="6.935166659077964" id="-33268">
		<tag k="alt_name" v="Molteheii" />
		<tag k="name" v="Moltehei" />
		<tag k="place" v="island" />
		<tag k="ssr:stedsnr" v="608146" />
	</node>
	<node lat="59.018661107713115" lon="6.858605563650224" id="-33272">
		<tag k="alt_name" v="Bjørnsidvatnet, litla" />
		<tag k="name" v="Litle Bjødnsidvatnet" />
		<tag k="natural" v="water" />
		<tag k="ssr:stedsnr" v="608794" />
	</node>
	<node lat="58.567966663424365" lon="6.653336113471109" id="-33274">
		<tag k="name" v="Legetjødn" />
		<tag k="natural" v="water" />
		<tag k="ssr:stedsnr" v="704385" />
	</node>
	<node lat="58.58015833606313" lon="6.625180549055421" id="-33281">
		<tag k="name" v="Indre Aurtjødn" />
		<tag k="natural" v="water" />
		<tag k="ssr:stedsnr" v="643414" />
	</node>
</osm>
