<?xml version="1.0" encoding="UTF-8"?>
<osm generator="osmapis" version="0.6">
	<node id="-506367" lat="58.7721972237" lon="6.82926110785">
		<tag k="highway" v="path" />
		<tag k="name" v="Stien" />
		<tag k="ssr:stedsnr" v="893657" />
	</node>
	<node id="-505258" lat="58.6663305574" lon="6.65628055577">
		<tag k="bridge" v="yes" />
		<tag k="layer" v="1" />
		<tag k="name" v="Feed" />
		<tag k="ssr:stedsnr" v="472396" />
	</node>
	<node id="-504823" lat="58.6308111156" lon="6.75451666728">
		<tag k="highway" v="path" />
		<tag k="name" v="Kleivane" />
		<tag k="ssr:stedsnr" v="286774" />
	</node>
	<node id="-506358" lat="58.7200027776" lon="6.72487500489">
		<tag k="highway" v="path" />
		<tag k="name" v="Kleivanvegen" />
		<tag k="ssr:stedsnr" v="893626" />
	</node>
	<node id="-507817" lat="58.8763444488" lon="6.73413333563">
		<tag k="highway" v="path" />
		<tag k="name" v="Stølsvegen" />
		<tag k="ssr:stedsnr" v="165993" />
	</node>
	<node id="-507560" lat="58.763350004" lon="6.74198888339">
		<tag k="bridge" v="yes" />
		<tag k="layer" v="1" />
		<tag k="name" v="Lindeland øvre" />
		<tag k="ssr:stedsnr" v="108414" />
	</node>
	<node id="-506862" lat="58.5772138913" lon="6.6734277809">
		<tag k="bridge" v="yes" />
		<tag k="layer" v="1" />
		<tag k="name" v="Virak" />
		<tag k="ssr:stedsnr" v="897371" />
	</node>
	<node id="-506861" lat="58.8429777789" lon="6.77238332849">
		<tag k="bridge" v="yes" />
		<tag k="layer" v="1" />
		<tag k="name" v="Tveiten" />
		<tag k="ssr:stedsnr" v="897369" />
	</node>
	<node id="-504805" lat="58.8369750012" lon="6.80770833358">
		<tag k="highway" v="path" />
		<tag k="name" v="Kleivan" />
		<tag k="ssr:stedsnr" v="286525" />
	</node>
	<node id="-504796" lat="58.5651444416" lon="6.67261945162">
		<tag k="man_made" v="cairn" />
		<tag k="name" v="Varden" />
		<tag k="place" v="locality" />
		<tag k="ssr:stedsnr" v="286494" />
	</node>
	<node id="-506556" lat="58.5234777753" lon="6.75719443732">
		<tag k="bridge" v="yes" />
		<tag k="layer" v="1" />
		<tag k="name" v="Espetveit" />
		<tag k="ssr:stedsnr" v="715434" />
	</node>
	<node id="-506837" lat="58.9434583353" lon="6.92262500262">
		<tag k="bridge" v="yes" />
		<tag k="layer" v="1" />
		<tag k="name" v="Fidjeland" />
		<tag k="ssr:stedsnr" v="836366" />
	</node>
	<node id="-506836" lat="58.8427416708" lon="6.77390277797">
		<tag k="bridge" v="yes" />
		<tag k="layer" v="1" />
		<tag k="name" v="Kvitla" />
		<tag k="ssr:stedsnr" v="836356" />
	</node>
	<node id="-504264" lat="58.5085111152" lon="6.76785832871">
		<tag k="highway" v="path" />
		<tag k="name" v="Kleivan" />
		<tag k="ssr:stedsnr" v="224113" />
	</node>
	<node id="-506298" lat="58.8781638896" lon="6.97271111846">
		<tag k="highway" v="path" />
		<tag k="name" v="Taddaksveg" />
		<tag k="ssr:stedsnr" v="893371" />
	</node>
	<node id="-507818" lat="58.6217777793" lon="6.65720278582">
		<tag k="bridge" v="yes" />
		<tag k="layer" v="1" />
		<tag k="name" v="Sjursvatn" />
		<tag k="ssr:stedsnr" v="168387" />
	</node>
	<node id="-505257" lat="58.6617555569" lon="6.59524444265">
		<tag k="bridge" v="yes" />
		<tag k="layer" v="1" />
		<tag k="name" v="Stølså" />
		<tag k="ssr:stedsnr" v="472383" />
	</node>
	<node id="-504730" lat="58.9447583298" lon="6.98766943934">
		<tag k="fixme" v="multiple name tags, choose one and add the other to alt_name" />
		<tag k="man_made" v="cairn" />
		<tag k="name" v="Grubbåfjell N;Varden" />
		<tag k="place" v="locality" />
		<tag k="ssr:stedsnr" v="171827" />
	</node>
	<node id="-504728" lat="58.827580557" lon="6.7865694431">
		<tag k="bridge" v="yes" />
		<tag k="layer" v="1" />
		<tag k="name" v="Ousdal" />
		<tag k="ssr:stedsnr" v="168402" />
	</node>
	<node id="-505743" lat="58.7032833339" lon="6.84277500359">
		<tag k="highway" v="path" />
		<tag k="name" v="Moldvegen" />
		<tag k="ssr:stedsnr" v="529356" />
	</node>
	<node id="-505837" lat="58.6693055573" lon="6.71415000495">
		<tag k="alt_name" v="Tonstad" />
		<tag k="bridge" v="yes" />
		<tag k="layer" v="1" />
		<tag k="name" v="Tonstad bru" />
		<tag k="ssr:stedsnr" v="710748" />
	</node>
	<node id="-508055" lat="58.8840694453" lon="6.90629166211">
		<tag k="bridge" v="yes" />
		<tag k="layer" v="1" />
		<tag k="name" v="Flesebekk" />
		<tag k="ssr:stedsnr" v="350365" />
	</node>
	<node id="-508277" lat="58.7070361093" lon="6.78318333499">
		<tag k="man_made" v="cairn" />
		<tag k="name" v="Solbergvarden" />
		<tag k="place" v="locality" />
		<tag k="ssr:stedsnr" v="408373" />
	</node>
	<node id="-505001" lat="58.913963889" lon="6.86600554846">
		<tag k="bridge" v="yes" />
		<tag k="layer" v="1" />
		<tag k="name" v="Sinnes" />
		<tag k="ssr:stedsnr" v="290362" />
	</node>
	<node id="-507754" lat="58.911797221" lon="6.83564443884">
		<tag k="highway" v="path" />
		<tag k="name" v="Gangen" />
		<tag k="ssr:stedsnr" v="165560" />
	</node>
	<node id="-504681" lat="58.6916805556" lon="6.71712221926">
		<tag k="highway" v="path" />
		<tag k="name" v="Grastovegen" />
		<tag k="ssr:stedsnr" v="165520" />
	</node>
	<node id="-507239" lat="58.9935194456" lon="6.92895834045">
		<tag k="bridge" v="yes" />
		<tag k="layer" v="1" />
		<tag k="name" v="Kvævbekk" />
		<tag k="ssr:stedsnr" v="47398" />
	</node>
	<node id="-507238" lat="58.8918083332" lon="6.87551666586">
		<tag k="bridge" v="yes" />
		<tag k="layer" v="1" />
		<tag k="name" v="Solheim" />
		<tag k="ssr:stedsnr" v="47395" />
	</node>
	<node id="-507237" lat="58.6639000016" lon="6.61265555076">
		<tag k="bridge" v="yes" />
		<tag k="layer" v="1" />
		<tag k="name" v="Skarvassbekk" />
		<tag k="ssr:stedsnr" v="47392" />
	</node>
	<node id="-506209" lat="59.0307055559" lon="6.86692500677">
		<tag k="bridge" v="yes" />
		<tag k="layer" v="1" />
		<tag k="name" v="Sira bru" />
		<tag k="ssr:stedsnr" v="654405" />
	</node>
	<node id="-506717" lat="58.8830666671" lon="6.83177221527">
		<tag k="highway" v="path" />
		<tag k="name" v="Stokkelivegen" />
		<tag k="ssr:stedsnr" v="772486" />
	</node>
	<node id="-504662" lat="58.9228944479" lon="6.75081111496">
		<tag k="highway" v="path" />
		<tag k="name" v="Buveien" />
		<tag k="ssr:stedsnr" v="165064" />
	</node>
	<node id="-507219" lat="58.8574694481" lon="6.87569722507">
		<tag k="ford" v="yes" />
		<tag k="name" v="Vaet" />
		<tag k="place" v="locality" />
		<tag k="ssr:stedsnr" v="44842" />
	</node>
	<node id="-505158" lat="58.7298055593" lon="6.89218055547">
		<tag k="man_made" v="cairn" />
		<tag k="name" v="Varden" />
		<tag k="place" v="locality" />
		<tag k="ssr:stedsnr" v="468735" />
	</node>
	<node id="-508741" lat="58.8968138919" lon="6.85917778346">
		<tag k="highway" v="path" />
		<tag k="name" v="Snevegen" />
		<tag k="ssr:stedsnr" v="589418" />
	</node>
	<node id="-508733" lat="58.5765055586" lon="6.6793666657">
		<tag k="highway" v="path" />
		<tag k="name" v="Geitsti" />
		<tag k="ssr:stedsnr" v="589402" />
	</node>
	<node id="-508218" lat="58.5316527782" lon="6.72050833072">
		<tag k="man_made" v="cairn" />
		<tag k="name" v="Nonsvarden" />
		<tag k="place" v="locality" />
		<tag k="ssr:stedsnr" v="407634" />
	</node>
	<node id="-506168" lat="58.9028194405" lon="6.80084444326">
		<tag k="highway" v="path" />
		<tag k="name" v="Røsevegen" />
		<tag k="ssr:stedsnr" v="650464" />
	</node>
	<node id="-507700" lat="58.7208444474" lon="6.73711110826">
		<tag k="highway" v="path" />
		<tag k="name" v="Helgasvegen" />
		<tag k="ssr:stedsnr" v="164696" />
	</node>
	<node id="-505136" lat="58.7236694445" lon="6.74791943903">
		<tag k="ford" v="yes" />
		<tag k="name" v="Nesvad" />
		<tag k="place" v="locality" />
		<tag k="ssr:stedsnr" v="468584" />
	</node>
	<node id="-504607" lat="58.6070749972" lon="6.76567221975">
		<tag k="highway" v="path" />
		<tag k="name" v="Fiskestien" />
		<tag k="ssr:stedsnr" v="104021" />
	</node>
	<node id="-504605" lat="58.706011112" lon="6.70247222046">
		<tag k="highway" v="path" />
		<tag k="name" v="Urtjønnbakken" />
		<tag k="ssr:stedsnr" v="103979" />
	</node>
	<node id="-504536" lat="58.9115055512" lon="6.74781944652">
		<tag k="bridge" v="yes" />
		<tag k="layer" v="1" />
		<tag k="name" v="Løkjedal" />
		<tag k="ssr:stedsnr" v="47408" />
	</node>
	<node id="-508127" lat="58.9562055586" lon="6.75813611182">
		<tag k="ford" v="yes" />
		<tag k="name" v="Spranget" />
		<tag k="place" v="locality" />
		<tag k="ssr:stedsnr" v="365805" />
	</node>
	<node id="-504538" lat="59.0159833347" lon="6.93729443707">
		<tag k="bridge" v="yes" />
		<tag k="layer" v="1" />
		<tag k="name" v="Flatstøylåna" />
		<tag k="ssr:stedsnr" v="47413" />
	</node>
	<node id="-504537" lat="59.0310222223" lon="6.86549999725">
		<tag k="bridge" v="yes" />
		<tag k="layer" v="1" />
		<tag k="name" v="Bjørnsielv" />
		<tag k="ssr:stedsnr" v="47409" />
	</node>
	<node id="-505560" lat="58.696175001" lon="6.70556665932">
		<tag k="alt_name" v="Legavegen" />
		<tag k="highway" v="path" />
		<tag k="name" v="Fiskevegen" />
		<tag k="ssr:stedsnr" v="667532" />
	</node>
	<node id="-504535" lat="58.7626666677" lon="6.74203054733">
		<tag k="bridge" v="yes" />
		<tag k="layer" v="1" />
		<tag k="name" v="Lindeland nedre" />
		<tag k="ssr:stedsnr" v="47404" />
	</node>
	<node id="-504534" lat="58.6393222204" lon="6.6808416591">
		<tag k="bridge" v="yes" />
		<tag k="layer" v="1" />
		<tag k="name" v="Lindåna" />
		<tag k="ssr:stedsnr" v="47402" />
	</node>
	<node id="-507091" lat="58.7260888861" lon="6.74007777081">
		<tag k="highway" v="path" />
		<tag k="name" v="Steiekleiv" />
		<tag k="ssr:stedsnr" v="43619" />
	</node>
	<node id="-506486" lat="58.7276305524" lon="6.74397500627">
		<tag k="highway" v="path" />
		<tag k="name" v="Varpebakken" />
		<tag k="ssr:stedsnr" v="711615" />
	</node>
	<node id="-506560" lat="58.8633694449" lon="6.8016388904">
		<tag k="bridge" v="yes" />
		<tag k="layer" v="1" />
		<tag k="name" v="Handeland" />
		<tag k="ssr:stedsnr" v="897391" />
	</node>
	<node id="-506559" lat="58.8021694413" lon="6.75872223092">
		<tag k="bridge" v="yes" />
		<tag k="layer" v="1" />
		<tag k="name" v="Bekkå" />
		<tag k="ssr:stedsnr" v="897390" />
	</node>
	<node id="-506558" lat="58.6622027751" lon="6.61734444964">
		<tag k="bridge" v="yes" />
		<tag k="layer" v="1" />
		<tag k="name" v="Osen" />
		<tag k="ssr:stedsnr" v="897389" />
	</node>
	<node id="-506557" lat="58.6008972249" lon="6.74110833428">
		<tag k="bridge" v="yes" />
		<tag k="layer" v="1" />
		<tag k="name" v="Litlemo" />
		<tag k="ssr:stedsnr" v="897387" />
	</node>
	<node id="-504508" lat="58.5353555569" lon="6.74700277298">
		<tag k="bridge" v="yes" />
		<tag k="layer" v="1" />
		<tag k="name" v="Tverråna" />
		<tag k="ssr:stedsnr" v="229382" />
	</node>
	<node id="-504507" lat="58.6784694462" lon="6.7388638879">
		<tag k="bridge" v="yes" />
		<tag k="layer" v="1" />
		<tag k="name" v="Åsane" />
		<tag k="ssr:stedsnr" v="229380" />
	</node>
	<node id="-506554" lat="58.8274527764" lon="6.78597221606">
		<tag k="bridge" v="yes" />
		<tag k="layer" v="1" />
		<tag k="name" v="Ousdal lille" />
		<tag k="ssr:stedsnr" v="715419" />
	</node>
	<node id="-506553" lat="58.6525305554" lon="6.69701944749">
		<tag k="bridge" v="yes" />
		<tag k="layer" v="1" />
		<tag k="name" v="Skotet" />
		<tag k="ssr:stedsnr" v="715417" />
	</node>
	<node id="-505523" lat="58.9037499966" lon="6.77223332891">
		<tag k="bridge" v="yes" />
		<tag k="layer" v="1" />
		<tag k="name" v="Handelandsstølen" />
		<tag k="ssr:stedsnr" v="411391" />
	</node>
	<node id="-505522" lat="58.5472138921" lon="6.73406110926">
		<tag k="bridge" v="yes" />
		<tag k="layer" v="1" />
		<tag k="name" v="Oftedal" />
		<tag k="ssr:stedsnr" v="411385" />
	</node>
	<node id="-505521" lat="58.7158277805" lon="6.73417221863">
		<tag k="bridge" v="yes" />
		<tag k="layer" v="1" />
		<tag k="name" v="Hompland" />
		<tag k="ssr:stedsnr" v="411378" />
	</node>
	<node id="-505520" lat="58.5582305575" lon="6.72804721528">
		<tag k="bridge" v="yes" />
		<tag k="layer" v="1" />
		<tag k="name" v="Skibeli" />
		<tag k="ssr:stedsnr" v="411369" />
	</node>
	<node id="-504495" lat="58.8483305577" lon="6.75849721364">
		<tag k="highway" v="path" />
		<tag k="name" v="Reinstovegen" />
		<tag k="ssr:stedsnr" v="226893" />
	</node>
	<node id="-507562" lat="59.004175004" lon="6.93068054908">
		<tag k="bridge" v="yes" />
		<tag k="layer" v="1" />
		<tag k="name" v="Flatstølåna" />
		<tag k="ssr:stedsnr" v="108418" />
	</node>
	<node id="-507561" lat="58.7769555574" lon="6.74499443756">
		<tag k="bridge" v="yes" />
		<tag k="layer" v="1" />
		<tag k="name" v="Breilo" />
		<tag k="ssr:stedsnr" v="108417" />
	</node>
	<node id="-505000" lat="58.8415166631" lon="6.75690554843">
		<tag k="bridge" v="yes" />
		<tag k="layer" v="1" />
		<tag k="name" v="Tveitebekken" />
		<tag k="ssr:stedsnr" v="290357" />
	</node>
	<node id="-507559" lat="58.887386115" lon="6.63464444801">
		<tag k="bridge" v="yes" />
		<tag k="layer" v="1" />
		<tag k="name" v="Hunnevatn" />
		<tag k="ssr:stedsnr" v="108404" />
	</node>
	<node id="-508579" lat="58.8212111129" lon="6.71714443851">
		<tag k="bridge" v="yes" />
		<tag k="layer" v="1" />
		<tag k="name" v="Skreåbekken" />
		<tag k="ssr:stedsnr" v="532380" />
	</node>
	<node id="-508578" lat="58.664569446" lon="6.71648611155">
		<tag k="bridge" v="yes" />
		<tag k="layer" v="1" />
		<tag k="name" v="Tonstadbekken" />
		<tag k="ssr:stedsnr" v="532378" />
	</node>
	<node id="-508577" lat="59.0184861147" lon="6.96996666335">
		<tag k="bridge" v="yes" />
		<tag k="layer" v="1" />
		<tag k="name" v="Suleskard rør" />
		<tag k="ssr:stedsnr" v="532376" />
	</node>
	<node id="-508567" lat="58.8240805531" lon="6.70555278603">
		<tag k="highway" v="path" />
		<tag k="name" v="Stien" />
		<tag k="ssr:stedsnr" v="530624" />
	</node>
	<node id="-508054" lat="58.6190749972" lon="6.76533332948">
		<tag k="bridge" v="yes" />
		<tag k="layer" v="1" />
		<tag k="name" v="Jødestøl" />
		<tag k="ssr:stedsnr" v="350350" />
	</node>
	<node id="-508270" lat="58.8517694417" lon="6.75506665826">
		<tag k="highway" v="path" />
		<tag k="name" v="Stien" />
		<tag k="ssr:stedsnr" v="408868" />
	</node>
	<node id="-506514" lat="59.0309777307" lon="6.95720012409">
		<tag k="highway" v="path" />
		<tag k="name" v="Kattestien" />
		<tag k="ssr:stedsnr" v="894632" />
	</node>
	<node id="-505484" lat="58.6970666662" lon="6.72757499931">
		<tag k="bridge" v="yes" />
		<tag k="layer" v="1" />
		<tag k="name" v="Seland bru" />
		<tag k="ssr:stedsnr" v="407562" />
	</node>
	<node id="-507072" lat="58.5536527753" lon="6.72807222921">
		<tag k="highway" v="path" />
		<tag k="name" v="Skibelivegen" />
		<tag k="ssr:stedsnr" v="43567" />
	</node>
	<node id="-506493" lat="59.0002027822" lon="6.91190556017">
		<tag k="man_made" v="cairn" />
		<tag k="name" v="Vardan" />
		<tag k="place" v="locality" />
		<tag k="ssr:stedsnr" v="894562" />
	</node>
	<node id="-508022" lat="58.7258777804" lon="6.71526943675">
		<tag k="highway" v="path" />
		<tag k="name" v="Breiestølsvegen" />
		<tag k="ssr:stedsnr" v="347594" />
	</node>
	<node id="-508021" lat="58.7244861104" lon="6.69375277441">
		<tag k="highway" v="path" />
		<tag k="name" v="Rødde vegen" />
		<tag k="ssr:stedsnr" v="347588" />
	</node>
	<node id="-505458" lat="58.6607444482" lon="6.6526499996">
		<tag k="highway" v="path" />
		<tag k="name" v="Snedvegen" />
		<tag k="ssr:stedsnr" v="407155" />
	</node>
	<node id="-504509" lat="58.6703750033" lon="6.72767776909">
		<tag k="bridge" v="yes" />
		<tag k="layer" v="1" />
		<tag k="name" v="Flatebekken" />
		<tag k="ssr:stedsnr" v="229401" />
	</node>
	<node id="-507495" lat="58.9501722246" lon="6.9291527731">
		<tag k="highway" v="path" />
		<tag k="name" v="Vonde vegen" />
		<tag k="ssr:stedsnr" v="104942" />
	</node>
	<node id="-506555" lat="58.9561527734" lon="6.92836944208">
		<tag k="bridge" v="yes" />
		<tag k="layer" v="1" />
		<tag k="name" v="Jogla" />
		<tag k="ssr:stedsnr" v="715427" />
	</node>
	<node id="-504416" lat="58.8880694448" lon="6.85774443883">
		<tag k="highway" v="path" />
		<tag k="name" v="Revevegen" />
		<tag k="ssr:stedsnr" v="226503" />
	</node>
	<node id="-508508" lat="59.0119908258" lon="6.96569893115">
		<tag k="highway" v="path" />
		<tag k="name" v="Toriskvævvegen" />
		<tag k="ssr:stedsnr" v="529579" />
	</node>
	<node id="-504391" lat="58.8799555573" lon="6.8731444516">
		<tag k="highway" v="path" />
		<tag k="name" v="Indre Stien" />
		<tag k="ssr:stedsnr" v="226361" />
	</node>
	<node id="-508465" lat="58.7643138896" lon="6.55244999176">
		<tag k="ford" v="yes" />
		<tag k="name" v="Bergavad" />
		<tag k="place" v="locality" />
		<tag k="ssr:stedsnr" v="529224" />
	</node>
	<node id="-507436" lat="58.7298222202" lon="6.75403334085">
		<tag k="highway" v="path" />
		<tag k="name" v="Stien" />
		<tag k="ssr:stedsnr" v="104605" />
	</node>
	<node id="-505893" lat="58.878861108" lon="6.87025555662">
		<tag k="highway" v="path" />
		<tag k="name" v="Ytre Stien" />
		<tag k="ssr:stedsnr" v="711349" />
	</node>
	<node id="-506909" lat="58.783282287" lon="6.68545193121">
		<tag k="highway" v="path" />
		<tag k="name" v="Byvegen" />
		<tag k="ssr:stedsnr" v="1073463" />
	</node>
	<node id="-506908" lat="58.9091410384" lon="6.8938379796">
		<tag k="highway" v="path" />
		<tag k="name" v="Salomonsvegen" />
		<tag k="ssr:stedsnr" v="1073452" />
	</node>
	<node id="-505705" lat="58.5859833304" lon="6.74313333006">
		<tag k="highway" v="path" />
		<tag k="name" v="Øvre Kleivan" />
		<tag k="ssr:stedsnr" v="528203" />
	</node>
</osm>
