<?xml version="1.0" encoding="UTF-8"?>
<osm version="0.6" generator="osmapis">
	<node lat="58.692736107547816" lon="6.812408337829296" id="-28692">
		<tag k="alt_name" v="Mågestølen" />
		<tag k="name" v="Mågestøl" />
		<tag k="place" v="isolated_dwelling" />
		<tag k="ssr:stedsnr" v="559" />
	</node>
	<node lat="58.59493055633968" lon="6.606124999825858" id="-28695">
		<tag k="alt_name" v="Slåtta" />
		<tag k="name" v="Myklebergstølen" />
		<tag k="place" v="isolated_dwelling" />
		<tag k="ssr:stedsnr" v="662" />
	</node>
	<node lat="58.664208335769594" lon="6.716502786214125" id="-28696">
		<tag k="name" v="Tonstad" />
		<tag k="place" v="village" />
		<tag k="ssr:stedsnr" v="593" />
	</node>
	<node lat="58.578927777883045" lon="6.6743527771717295" id="-28698">
		<tag k="fixme" v="consider place=hamlet" />
		<tag k="name" v="Liland" />
		<tag k="place" v="farm" />
		<tag k="ssr:stedsnr" v="712" />
	</node>
	<node lat="58.95378333473923" lon="6.82197500220955" id="-28713">
		<tag k="historic" v="shieling" />
		<tag k="name" v="Åteigen" />
		<tag k="place" v="isolated_dwelling" />
		<tag k="ssr:stedsnr" v="1787" />
	</node>
	<node lat="59.075415781435886" lon="7.105985850385374" id="-28714">
		<tag k="name" v="Botnsfjell" />
		<tag k="place" v="locality" />
		<tag k="ssr:stedsnr" v="1929" />
	</node>
	<node lat="58.50933889334663" lon="6.764999999594771" id="-28730">
		<tag k="name" v="Nygård" />
		<tag k="place" v="farm" />
		<tag k="ssr:stedsnr" v="42081" />
	</node>
	<node lat="58.796536108071635" lon="6.613777777778332" id="-28796">
		<tag k="name" v="Vassvollstølen" />
		<tag k="place" v="locality" />
		<tag k="ssr:stedsnr" v="44325" />
	</node>
	<node lat="58.77871666792924" lon="6.71772222953651" id="-28798">
		<tag k="name" v="Radestøl" />
		<tag k="place" v="locality" />
		<tag k="ssr:stedsnr" v="44328" />
	</node>
	<node lat="58.94266666656717" lon="6.834863886953594" id="-28835">
		<tag k="name" v="Grosmebakken" />
		<tag k="place" v="locality" />
		<tag k="ssr:stedsnr" v="44733" />
	</node>
	<node lat="58.84914722443834" lon="6.848388883424019" id="-28839">
		<tag k="historic" v="shieling" />
		<tag k="name" v="Vigestøl" />
		<tag k="place" v="isolated_dwelling" />
		<tag k="ssr:stedsnr" v="44794" />
	</node>
	<node lat="58.760036110668786" lon="6.703344445895652" id="-28847">
		<tag k="name" v="Midtstøl" />
		<tag k="old_name" v="Midstøl" />
		<tag k="place" v="isolated_dwelling" />
		<tag k="ssr:stedsnr" v="61009" />
	</node>
	<node lat="58.81793888791604" lon="6.825161106599594" id="-28854">
		<tag k="historic" v="shieling" />
		<tag k="name" v="Instestøl" />
		<tag k="place" v="isolated_dwelling" />
		<tag k="ssr:stedsnr" v="61095" />
	</node>
	<node lat="58.85440555256294" lon="6.851575002491131" id="-28866">
		<tag k="alt_name" v="Kvæven" />
		<tag k="historic" v="shieling" />
		<tag k="name" v="Kvævestøl" />
		<tag k="place" v="isolated_dwelling" />
		<tag k="ssr:stedsnr" v="61920" />
	</node>
	<node lat="58.902477774753066" lon="6.797611109169214" id="-28868">
		<tag k="historic" v="shieling" />
		<tag k="name" v="Kvævestøl" />
		<tag k="place" v="isolated_dwelling" />
		<tag k="ssr:stedsnr" v="61974" />
	</node>
	<node lat="58.650702779878806" lon="6.563563882684716" id="-28869">
		<tag k="fixme" v="consider place=hamlet" />
		<tag k="name" v="Bjørnestad" />
		<tag k="place" v="farm" />
		<tag k="ssr:stedsnr" v="61802" />
	</node>
	<node lat="58.66955000265013" lon="6.711230551067974" id="-28885">
		<tag k="fixme" v="consider place=hamlet" />
		<tag k="name" v="Fintland" />
		<tag k="place" v="farm" />
		<tag k="ssr:stedsnr" v="242556" />
	</node>
	<node lat="58.80972499619204" lon="6.763283341845596" id="-28890">
		<tag k="fixme" v="consider place=hamlet" />
		<tag k="name" v="Lunde" />
		<tag k="place" v="farm" />
		<tag k="ssr:stedsnr" v="243053" />
	</node>
	<node lat="58.830789430899536" lon="6.798197390436619" id="-28899">
		<tag k="fixme" v="consider place=hamlet" />
		<tag k="name" v="Ousdal" />
		<tag k="place" v="farm" />
		<tag k="ssr:stedsnr" v="243100" />
	</node>
	<node lat="58.51333611100488" lon="6.761000002283646" id="-28907">
		<tag k="fixme" v="consider place=hamlet" />
		<tag k="name" v="Espetveit" />
		<tag k="place" v="farm" />
		<tag k="ssr:stedsnr" v="243346" />
	</node>
	<node lat="58.62227777788148" lon="6.64070277480969" id="-28910">
		<tag k="alt_name" v="Vislandstølen" />
		<tag k="name" v="Vislandsstølen" />
		<tag k="place" v="isolated_dwelling" />
		<tag k="ssr:stedsnr" v="243628" />
	</node>
	<node lat="58.6529750042331" lon="6.565491659667403" id="-28916">
		<tag k="name" v="Brekka" />
		<tag k="place" v="farm" />
		<tag k="ssr:stedsnr" v="243796" />
	</node>
	<node lat="58.925849996337526" lon="6.836691659290856" id="-28921">
		<tag k="alt_name" v="Nyestøl" />
		<tag k="historic" v="shieling" />
		<tag k="name" v="Nystøl" />
		<tag k="place" v="isolated_dwelling" />
		<tag k="ssr:stedsnr" v="243952" />
	</node>
	<node lat="58.847605551701115" lon="6.795686115608251" id="-28922">
		<tag k="name" v="Lega" />
		<tag k="place" v="isolated_dwelling" />
		<tag k="ssr:stedsnr" v="243909" />
	</node>
	<node lat="58.718939554680645" lon="6.652846500441412" id="-28928">
		<tag k="alt_name" v="Furestøl" />
		<tag k="historic" v="shieling" />
		<tag k="name" v="Førestøl" />
		<tag k="place" v="isolated_dwelling" />
		<tag k="ssr:stedsnr" v="244601" />
	</node>
	<node lat="59.03877306532325" lon="6.848315677886224" id="-28938">
		<tag k="alt_name" v="Grytdalslega" />
		<tag k="name" v="Grydalslegå" />
		<tag k="place" v="locality" />
		<tag k="ssr:stedsnr" v="244824" />
	</node>
	<node lat="58.57458888890612" lon="6.634286119648765" id="-28949">
		<tag k="historic" v="shieling" />
		<tag k="name" v="Skogestadstølen" />
		<tag k="place" v="isolated_dwelling" />
		<tag k="ssr:stedsnr" v="97413" />
	</node>
	<node lat="58.632580557711464" lon="6.816255551714628" id="-28958">
		<tag k="name" v="Galthomstøl" />
		<tag k="place" v="locality" />
		<tag k="ssr:stedsnr" v="104114" />
	</node>
	<node lat="58.594219448908895" lon="6.624841669997001" id="-28973">
		<tag k="name" v="Slåtestølen" />
		<tag k="place" v="locality" />
		<tag k="ssr:stedsnr" v="104274" />
	</node>
	<node lat="58.5779499999957" lon="6.679616671693843" id="-28977">
		<tag k="name" v="Litlevollen" />
		<tag k="place" v="farm" />
		<tag k="ssr:stedsnr" v="104402" />
	</node>
	<node lat="58.92167221845727" lon="6.759049997839589" id="-29040">
		<tag k="name" v="Valevatnstølen" />
		<tag k="place" v="locality" />
		<tag k="ssr:stedsnr" v="105083" />
	</node>
	<node lat="59.125794872739775" lon="6.992640526770356" id="-29066">
		<tag k="alt_name" v="Taumevassletæ" />
		<tag k="fixme" v="consider tourism=alpine_hut or tourism=chalet" />
		<tag k="name" v="Taumevassletta" />
		<tag k="ssr:stedsnr" v="105894" />
		<tag k="tourism" v="wilderness_hut" />
	</node>
	<node lat="58.879108335307734" lon="7.0643361176639905" id="-29074">
		<tag k="alt_name" v="Kvinen Turiststasjon" />
		<tag k="fixme" v="consider tourism=alpine_hut or tourism=chalet" />
		<tag k="name" v="Kvinen" />
		<tag k="ssr:stedsnr" v="121181" />
		<tag k="tourism" v="wilderness_hut" />
	</node>
	<node lat="58.689908333245995" lon="6.753786118824973" id="-29076">
		<tag k="alt_name" v="Josdal" />
		<tag k="fixme" v="consider place=hamlet" />
		<tag k="name" v="Gjosdal" />
		<tag k="place" v="farm" />
		<tag k="ssr:stedsnr" v="121575" />
	</node>
	<node lat="58.63111944860013" lon="6.501877773034294" id="-29086">
		<tag k="name" v="Nordheim" />
		<tag k="place" v="farm" />
		<tag k="ssr:stedsnr" v="121827" />
	</node>
	<node lat="58.85863888981629" lon="6.785652772280167" id="-29088">
		<tag k="alt_name" v="Dorge" />
		<tag k="fixme" v="consider place=hamlet" />
		<tag k="name" v="Dorga" />
		<tag k="place" v="farm" />
		<tag k="ssr:stedsnr" v="121926" />
	</node>
	<node lat="58.758905556216106" lon="6.74353333580524" id="-29094">
		<tag k="fixme" v="consider place=hamlet" />
		<tag k="name" v="Lindeland" />
		<tag k="place" v="farm" />
		<tag k="ssr:stedsnr" v="122014" />
	</node>
	<node lat="58.79165000150176" lon="6.733050008416205" id="-29096">
		<tag k="historic" v="shieling" />
		<tag k="name" v="Bakkestøl" />
		<tag k="place" v="isolated_dwelling" />
		<tag k="ssr:stedsnr" v="122085" />
	</node>
	<node lat="58.66368888980525" lon="6.828202777236574" id="-29107">
		<tag k="name" v="Skibulia" />
		<tag k="place" v="isolated_dwelling" />
		<tag k="ssr:stedsnr" v="163418" />
	</node>
	<node lat="58.60554245565264" lon="6.8260563330052575" id="-29112">
		<tag k="name" v="Lievasstølen" />
		<tag k="place" v="locality" />
		<tag k="ssr:stedsnr" v="164007" />
	</node>
	<node lat="58.652850002446115" lon="6.570552780626247" id="-29146">
		<tag k="name" v="Plasset" />
		<tag k="place" v="farm" />
		<tag k="ssr:stedsnr" v="165177" />
	</node>
	<node lat="58.72011944176874" lon="6.690858338758899" id="-29185">
		<tag k="name" v="Løynstøl" />
		<tag k="place" v="locality" />
		<tag k="ssr:stedsnr" v="165572" />
	</node>
	<node lat="58.88815277843022" lon="6.875291672565245" id="-29216">
		<tag k="building" v="civic" />
		<tag k="name" v="Folkehjelpshyttå" />
		<tag k="ssr:stedsnr" v="181663" />
	</node>
	<node lat="58.69052500194458" lon="6.723791658831352" id="-29219">
		<tag k="alt_name" v="Rekevik" />
		<tag k="name" v="Regevik" />
		<tag k="place" v="farm" />
		<tag k="ssr:stedsnr" v="182566" />
	</node>
	<node lat="58.58670833653418" lon="6.7242777852722515" id="-29221">
		<tag k="fixme" v="consider place=hamlet" />
		<tag k="name" v="Haughom" />
		<tag k="place" v="village" />
		<tag k="ssr:stedsnr" v="182705" />
	</node>
	<node lat="58.86000555453776" lon="6.867475005301372" id="-29224">
		<tag k="historic" v="shieling" />
		<tag k="name" v="Myrstøl" />
		<tag k="place" v="isolated_dwelling" />
		<tag k="ssr:stedsnr" v="182915" />
	</node>
	<node lat="58.74573333123216" lon="6.780013883802545" id="-29232">
		<tag k="fixme" v="consider place=hamlet" />
		<tag k="name" v="Liland" />
		<tag k="place" v="farm" />
		<tag k="ssr:stedsnr" v="183460" />
	</node>
	<node lat="58.72055555376255" lon="6.61634167092459" id="-29272">
		<tag k="name" v="Nyestøl" />
		<tag k="place" v="locality" />
		<tag k="ssr:stedsnr" v="225598" />
	</node>
	<node lat="58.90383610951529" lon="6.883025003969268" id="-29338">
		<tag k="name" v="Nygård" />
		<tag k="place" v="farm" />
		<tag k="ssr:stedsnr" v="226712" />
	</node>
	<node lat="58.70565000030986" lon="6.839102775910833" id="-29360">
		<tag k="alt_name" v="Hellerstølen" />
		<tag k="name" v="Hellestøl" />
		<tag k="place" v="isolated_dwelling" />
		<tag k="ssr:stedsnr" v="243593" />
	</node>
	<node lat="58.54397777952576" lon="6.75464166327536" id="-29361">
		<tag k="alt_name" v="Elskogstølen" />
		<tag k="name" v="Eldskostølen" />
		<tag k="place" v="locality" />
		<tag k="ssr:stedsnr" v="243734" />
	</node>
	<node lat="58.57427777585249" lon="6.791441672215862" id="-29362">
		<tag k="alt_name" v="Homstølen" />
		<tag k="name" v="Homstøl" />
		<tag k="place" v="isolated_dwelling" />
		<tag k="ssr:stedsnr" v="243702" />
	</node>
	<node lat="58.91254999928473" lon="6.831411103392544" id="-29369">
		<tag k="alt_name" v="Perskvæv" />
		<tag k="historic" v="shieling" />
		<tag k="name" v="Perskvæven" />
		<tag k="place" v="isolated_dwelling" />
		<tag k="ssr:stedsnr" v="243989" />
	</node>
	<node lat="58.92370277808494" lon="6.909450007333779" id="-29372">
		<tag k="fixme" v="consider place=hamlet" />
		<tag k="name" v="Haugen" />
		<tag k="place" v="farm" />
		<tag k="ssr:stedsnr" v="243998" />
	</node>
	<node lat="58.86897778033457" lon="6.751913888704679" id="-29383">
		<tag k="alt_name" v="Eikelandsstøl" />
		<tag k="historic" v="shieling" />
		<tag k="name" v="Heimrestølen" />
		<tag k="place" v="isolated_dwelling" />
		<tag k="ssr:stedsnr" v="244882" />
	</node>
	<node lat="58.893630559527" lon="6.66607500455957" id="-29389">
		<tag k="name" v="Hunnestøl" />
		<tag k="place" v="isolated_dwelling" />
		<tag k="ssr:stedsnr" v="244980" />
	</node>
	<node lat="58.887225001142475" lon="6.632725005744508" id="-29390">
		<tag k="name" v="Hunnebu" />
		<tag k="place" v="isolated_dwelling" />
		<tag k="ssr:stedsnr" v="244984" />
	</node>
	<node lat="58.65044999900112" lon="6.560044442941711" id="-29407">
		<tag k="name" v="Haugen" />
		<tag k="place" v="farm" />
		<tag k="ssr:stedsnr" v="286199" />
	</node>
	<node lat="58.91198888898021" lon="6.938341667954322" id="-29440">
		<tag k="name" v="Hønestøl" />
		<tag k="place" v="locality" />
		<tag k="ssr:stedsnr" v="286693" />
	</node>
	<node lat="58.66428055949114" lon="6.613658331374611" id="-29479">
		<tag k="fixme" v="consider place=hamlet" />
		<tag k="name" v="Osen" />
		<tag k="place" v="farm" />
		<tag k="ssr:stedsnr" v="303622" />
	</node>
	<node lat="58.62013889023085" lon="6.582794450683659" id="-29483">
		<tag k="name" v="Sandhaughytta" />
		<tag k="place" v="isolated_dwelling" />
		<tag k="ssr:stedsnr" v="303832" />
	</node>
	<node lat="58.58591166060633" lon="6.755974826624438" id="-29504">
		<tag k="historic" v="shieling" />
		<tag k="name" v="Svartholstøl" />
		<tag k="place" v="isolated_dwelling" />
		<tag k="ssr:stedsnr" v="467186" />
	</node>
	<node lat="58.58996666974646" lon="6.756813890748085" id="-29514">
		<tag k="name" v="Indrestøl" />
		<tag k="place" v="locality" />
		<tag k="ssr:stedsnr" v="467357" />
	</node>
	<node lat="58.76588333614836" lon="6.65056389338189" id="-29525">
		<tag k="name" v="Torstøl" />
		<tag k="place" v="locality" />
		<tag k="ssr:stedsnr" v="468155" />
	</node>
	<node lat="58.78992500207001" lon="6.82085277365584" id="-29527">
		<tag k="name" v="Bakkestøl" />
		<tag k="place" v="locality" />
		<tag k="ssr:stedsnr" v="468186" />
	</node>
	<node lat="58.76768611043541" lon="6.647241659462008" id="-29532">
		<tag k="name" v="Venelistøl" />
		<tag k="place" v="locality" />
		<tag k="ssr:stedsnr" v="468158" />
	</node>
	<node lat="58.88653055983091" lon="6.967886117047446" id="-29542">
		<tag k="historic" v="shieling" />
		<tag k="name" v="Raudåvasstøl" />
		<tag k="place" v="isolated_dwelling" />
		<tag k="ssr:stedsnr" v="468350" />
	</node>
	<node lat="58.83516111524177" lon="6.679319445467151" id="-29638">
		<tag k="name" v="Skreenordstøl" />
		<tag k="place" v="locality" />
		<tag k="ssr:stedsnr" v="469642" />
	</node>
	<node lat="58.88526893208646" lon="7.095588895138068" id="-29753">
		<tag k="alt_name" v="Kviheller" />
		<tag k="name" v="Kvihedler" />
		<tag k="place" v="locality" />
		<tag k="ssr:stedsnr" v="364175" />
	</node>
	<node lat="58.63741667024421" lon="6.637786115113977" id="-29759">
		<tag k="alt_name" v="Finsnesheii" />
		<tag k="name" v="Finsnesheia" />
		<tag k="place" v="isolated_dwelling" />
		<tag k="ssr:stedsnr" v="364655" />
	</node>
	<node lat="58.84189684023108" lon="6.776400992630105" id="-29764">
		<tag k="fixme" v="consider place=hamlet" />
		<tag k="loc_name" v="Omlid" />
		<tag k="name" v="Åmli" />
		<tag k="place" v="village" />
		<tag k="ssr:stedsnr" v="364930" />
	</node>
	<node lat="58.80459999554073" lon="6.783486109316635" id="-29775">
		<tag k="historic" v="shieling" />
		<tag k="name" v="Glovrestøl" />
		<tag k="place" v="isolated_dwelling" />
		<tag k="ssr:stedsnr" v="365095" />
	</node>
	<node lat="58.9662083327757" lon="6.99055277465061" id="-29777">
		<tag k="historic" v="shieling" />
		<tag k="name" v="Joglestøl" />
		<tag k="place" v="isolated_dwelling" />
		<tag k="ssr:stedsnr" v="365239" />
	</node>
	<node lat="59.04889999850168" lon="6.944497215942342" id="-29784">
		<tag k="historic" v="shieling" />
		<tag k="name" v="Flatstøl" />
		<tag k="place" v="isolated_dwelling" />
		<tag k="ssr:stedsnr" v="365809" />
	</node>
	<node lat="58.88032500184479" lon="6.854699992235201" id="-29790">
		<tag k="historic" v="shieling" />
		<tag k="name" v="Åmlistøl" />
		<tag k="place" v="isolated_dwelling" />
		<tag k="ssr:stedsnr" v="365904" />
	</node>
	<node lat="58.86956111557901" lon="6.794411111073251" id="-29794">
		<tag k="name" v="Bakken" />
		<tag k="place" v="farm" />
		<tag k="ssr:stedsnr" v="365899" />
	</node>
	<node lat="59.147922218706164" lon="7.022213882054516" id="-29798">
		<tag k="fixme" v="consider tourism=alpine_hut or tourism=chalet" />
		<tag k="name" v="Heibergtunet Storevatn" />
		<tag k="ssr:stedsnr" v="391343" />
		<tag k="tourism" v="wilderness_hut" />
	</node>
	<node lat="58.743797222229745" lon="6.794641675026981" id="-29799">
		<tag k="name" v="Rosstøl" />
		<tag k="place" v="farm" />
		<tag k="ssr:stedsnr" v="392095" />
	</node>
	<node lat="58.5908694482089" lon="6.6213638816101055" id="-29801">
		<tag k="alt_name" v="Heimrestølan" />
		<tag k="name" v="Heimrestølen" />
		<tag k="place" v="locality" />
		<tag k="ssr:stedsnr" v="485619" />
	</node>
	<node lat="58.5946583353778" lon="6.731727780726625" id="-29802">
		<tag k="fixme" v="consider place=hamlet" />
		<tag k="name" v="Øksendal" />
		<tag k="place" v="farm" />
		<tag k="ssr:stedsnr" v="485621" />
	</node>
	<node lat="58.702650002163615" lon="6.6610944407519606" id="-29807">
		<tag k="alt_name" v="Einarstølen" />
		<tag k="name" v="Einarstøl" />
		<tag k="place" v="isolated_dwelling" />
		<tag k="ssr:stedsnr" v="485534" />
	</node>
	<node lat="58.67026666913117" lon="6.825605560523925" id="-29812">
		<tag k="alt_name" v="Bakkestølen" />
		<tag k="name" v="Bakkestøl" />
		<tag k="place" v="isolated_dwelling" />
		<tag k="ssr:stedsnr" v="485548" />
	</node>
	<node lat="58.60823332915666" lon="6.669755548667145" id="-29815">
		<tag k="fixme" v="consider place=hamlet" />
		<tag k="name" v="Visland" />
		<tag k="place" v="farm" />
		<tag k="ssr:stedsnr" v="485627" />
	</node>
	<node lat="58.65976110762092" lon="6.471622221439316" id="-29819">
		<tag k="alt_name" v="Nystølen" />
		<tag k="name" v="Nystøl" />
		<tag k="place" v="locality" />
		<tag k="ssr:stedsnr" v="485760" />
	</node>
	<node lat="58.55583332901865" lon="6.78580000185063" id="-29822">
		<tag k="alt_name" v="Ålstølen" />
		<tag k="name" v="Ålstøl" />
		<tag k="place" v="isolated_dwelling" />
		<tag k="ssr:stedsnr" v="485681" />
	</node>
	<node lat="58.85733611427484" lon="6.8575111124683445" id="-29823">
		<tag k="historic" v="shieling" />
		<tag k="name" v="Midtstøl" />
		<tag k="place" v="isolated_dwelling" />
		<tag k="ssr:stedsnr" v="485928" />
	</node>
	<node lat="58.750605556777174" lon="6.689394449572146" id="-29828">
		<tag k="alt_name" v="Blikstøl" />
		<tag k="name" v="Blikkstjønnstøl" />
		<tag k="place" v="isolated_dwelling" />
		<tag k="ssr:stedsnr" v="486009" />
	</node>
	<node lat="58.76613333333144" lon="6.57836388764707" id="-29886">
		<tag k="name" v="Øyestølstølen" />
		<tag k="place" v="locality" />
		<tag k="ssr:stedsnr" v="408156" />
	</node>
	<node lat="58.72192221892874" lon="6.888402773411418" id="-29889">
		<tag k="alt_name" v="Hesthommen" />
		<tag k="name" v="Hestehommen" />
		<tag k="place" v="locality" />
		<tag k="ssr:stedsnr" v="486548" />
	</node>
	<node lat="58.90431388670179" lon="6.768308327784029" id="-30004">
		<tag k="alt_name" v="Gravasstøl" />
		<tag k="historic" v="shieling" />
		<tag k="name" v="Gravasstølen" />
		<tag k="place" v="isolated_dwelling" />
		<tag k="ssr:stedsnr" v="426986" />
	</node>
	<node lat="58.90266944893338" lon="6.809675002635129" id="-30005">
		<tag k="alt_name" v="Skardsstøl" />
		<tag k="historic" v="shieling" />
		<tag k="name" v="Skarstøl" />
		<tag k="place" v="isolated_dwelling" />
		<tag k="ssr:stedsnr" v="426988" />
	</node>
	<node lat="58.66549722556744" lon="6.550163894136652" id="-30015">
		<tag k="name" v="Litlestølen" />
		<tag k="place" v="locality" />
		<tag k="ssr:stedsnr" v="467080" />
	</node>
	<node lat="58.67010000414448" lon="6.648672219351142" id="-30038">
		<tag k="name" v="Storeli" />
		<tag k="place" v="farm" />
		<tag k="ssr:stedsnr" v="468221" />
	</node>
	<node lat="58.79506666588431" lon="6.868377769329504" id="-30073">
		<tag k="name" v="Todlakstøl" />
		<tag k="place" v="locality" />
		<tag k="ssr:stedsnr" v="468614" />
	</node>
	<node lat="59.01065962996865" lon="6.880542195643429" id="-30113">
		<tag k="name" v="Kregdestøl" />
		<tag k="place" v="locality" />
		<tag k="ssr:stedsnr" v="468802" />
	</node>
	<node lat="58.66656666358803" lon="6.7275944406025685" id="-30121">
		<tag k="name" v="Tonstadli" />
		<tag k="place" v="quarter" />
		<tag k="ssr:stedsnr" v="468775" />
	</node>
	<node lat="58.7628527787713" lon="6.5774833407863635" id="-30142">
		<tag k="fixme" v="consider tourism=alpine_hut or tourism=chalet" />
		<tag k="name" v="Støle" />
		<tag k="ssr:stedsnr" v="479776" />
		<tag k="tourism" v="wilderness_hut" />
	</node>
	<node lat="58.693444441966115" lon="6.7305555471146485" id="-30146">
		<tag k="fixme" v="consider place=hamlet" />
		<tag k="name" v="Seland" />
		<tag k="place" v="farm" />
		<tag k="ssr:stedsnr" v="485514" />
	</node>
	<node lat="58.54677777913744" lon="6.729300004411728" id="-30152">
		<tag k="fixme" v="consider place=hamlet" />
		<tag k="name" v="Oftedal" />
		<tag k="place" v="farm" />
		<tag k="ssr:stedsnr" v="485668" />
	</node>
	<node lat="58.970428480528696" lon="7.045434512909825" id="-30153">
		<tag k="name" v="Steinbu" />
		<tag k="place" v="locality" />
		<tag k="ssr:stedsnr" v="486224" />
	</node>
	<node lat="58.74251447626935" lon="6.798787294932123" id="-30158">
		<tag k="fixme" v="consider place=hamlet" />
		<tag k="name" v="Rosstøl" />
		<tag k="place" v="farm" />
		<tag k="ssr:stedsnr" v="486511" />
	</node>
	<node lat="58.9979305516587" lon="6.926969438946917" id="-30163">
		<tag k="alt_name" v="Neset" />
		<tag k="name" v="Via Neset" />
		<tag k="place" v="isolated_dwelling" />
		<tag k="ssr:stedsnr" v="486764" />
	</node>
	<node lat="58.6435083313765" lon="6.792572226170731" id="-30177">
		<tag k="historic" v="shieling" />
		<tag k="name" v="Heimre stølen" />
		<tag k="place" v="isolated_dwelling" />
		<tag k="ssr:stedsnr" v="528129" />
	</node>
	<node lat="58.590402778879735" lon="6.785074997845752" id="-30183">
		<tag k="historic" v="shieling" />
		<tag k="name" v="Espelistøl" />
		<tag k="place" v="isolated_dwelling" />
		<tag k="ssr:stedsnr" v="528178" />
	</node>
	<node lat="58.922311115255134" lon="6.835377778287877" id="-30265">
		<tag k="name" v="Nyestøl" />
		<tag k="place" v="locality" />
		<tag k="ssr:stedsnr" v="530629" />
	</node>
	<node lat="58.589291668977786" lon="6.602288890657723" id="-30281">
		<tag k="alt_name" v="Skardstølen" />
		<tag k="historic" v="shieling" />
		<tag k="name" v="Skarstølen" />
		<tag k="place" v="isolated_dwelling" />
		<tag k="ssr:stedsnr" v="546623" />
	</node>
	<node lat="58.71563055438717" lon="6.694452776479686" id="-30283">
		<tag k="alt_name" v="Frekkarstølen" />
		<tag k="name" v="Frekkarstøl" />
		<tag k="place" v="locality" />
		<tag k="ssr:stedsnr" v="546503" />
	</node>
	<node lat="58.77941111251274" lon="6.707688887912974" id="-30294">
		<tag k="name" v="Svodene" />
		<tag k="old_name" v="Svåen" />
		<tag k="place" v="isolated_dwelling" />
		<tag k="ssr:stedsnr" v="547067" />
	</node>
	<node lat="58.916458333359486" lon="6.962761106390942" id="-30309">
		<tag k="historic" v="shieling" />
		<tag k="name" v="Hønestøl" />
		<tag k="place" v="isolated_dwelling" />
		<tag k="ssr:stedsnr" v="547981" />
	</node>
	<node lat="58.91530555816983" lon="6.86571943592465" id="-30310">
		<tag k="fixme" v="consider place=hamlet" />
		<tag k="name" v="Sinnes" />
		<tag k="place" v="village" />
		<tag k="ssr:stedsnr" v="547985" />
	</node>
	<node lat="58.96026666288891" lon="6.956900000998371" id="-30315">
		<tag k="landuse" v="winter_sports" />
		<tag k="name" v="Sirdal høyfjellssenter" />
		<tag k="piste:type" v="downhill" />
		<tag k="ssr:stedsnr" v="690939" />
	</node>
	<node lat="58.504086110803755" lon="6.779036107038555" id="-30320">
		<tag k="historic" v="shieling" />
		<tag k="name" v="Heimre stølen" />
		<tag k="place" v="isolated_dwelling" />
		<tag k="ssr:stedsnr" v="588118" />
	</node>
	<node lat="58.600722218462735" lon="6.609777771227771" id="-30348">
		<tag k="name" v="Myrberløa" />
		<tag k="place" v="locality" />
		<tag k="ssr:stedsnr" v="589323" />
	</node>
	<node lat="58.84422222143505" lon="6.76248333455432" id="-30423">
		<tag k="name" v="Nedretveit" />
		<tag k="place" v="farm" />
		<tag k="ssr:stedsnr" v="590857" />
	</node>
	<node lat="58.617994440603816" lon="6.644622219193289" id="-30434">
		<tag k="name" v="Stuhaugstølen" />
		<tag k="place" v="isolated_dwelling" />
		<tag k="ssr:stedsnr" v="606621" />
	</node>
	<node lat="58.63689444322993" lon="6.569008331812304" id="-30437">
		<tag k="fixme" v="consider place=hamlet" />
		<tag k="name" v="Hammarsmark" />
		<tag k="place" v="farm" />
		<tag k="ssr:stedsnr" v="606813" />
	</node>
	<node lat="58.906569446562656" lon="6.98604444780829" id="-30449">
		<tag k="historic" v="shieling" />
		<tag k="name" v="Krostøl" />
		<tag k="place" v="isolated_dwelling" />
		<tag k="ssr:stedsnr" v="607219" />
	</node>
	<node lat="59.10932243535676" lon="6.9909813170935395" id="-30466">
		<tag k="alt_name" v="Oslega;Oselegå" />
		<tag k="fixme" v="consider tourism=alpine_hut or tourism=chalet" />
		<tag k="name" v="Oselega" />
		<tag k="ssr:stedsnr" v="608924" />
		<tag k="tourism" v="wilderness_hut" />
	</node>
	<node lat="59.001325002255975" lon="6.9062555515340485" id="-30467">
		<tag k="name" v="Sirekrok" />
		<tag k="place" v="farm" />
		<tag k="ssr:stedsnr" v="608791" />
	</node>
	<node lat="58.743613887722525" lon="6.7952583251844" id="-30472">
		<tag k="name" v="Rosstøl" />
		<tag k="place" v="farm" />
		<tag k="ssr:stedsnr" v="634080" />
	</node>
	<node lat="58.602547222242045" lon="6.796405552370198" id="-30484">
		<tag k="historic" v="shieling" />
		<tag k="name" v="Marestøl" />
		<tag k="place" v="isolated_dwelling" />
		<tag k="ssr:stedsnr" v="649014" />
	</node>
	<node lat="58.84293888860196" lon="6.777249995063388" id="-30504">
		<tag k="name" v="Lunden" />
		<tag k="place" v="farm" />
		<tag k="ssr:stedsnr" v="649838" />
	</node>
	<node lat="58.81171389103657" lon="6.80081111096759" id="-30572">
		<tag k="name" v="Radestøl" />
		<tag k="place" v="locality" />
		<tag k="ssr:stedsnr" v="651436" />
	</node>
	<node lat="58.71108889031456" lon="6.834530563573292" id="-30581">
		<tag k="alt_name" v="Ramnestølen" />
		<tag k="name" v="Ravnestøl" />
		<tag k="place" v="isolated_dwelling" />
		<tag k="ssr:stedsnr" v="667511" />
	</node>
	<node lat="58.56554444538551" lon="6.772116665349428" id="-30588">
		<tag k="alt_name" v="Skibelistølen" />
		<tag k="name" v="Skribelistøl" />
		<tag k="place" v="isolated_dwelling" />
		<tag k="ssr:stedsnr" v="667644" />
	</node>
	<node lat="58.5533666689246" lon="6.807269435856293" id="-30590">
		<tag k="name" v="Mikkjelstølen" />
		<tag k="place" v="locality" />
		<tag k="ssr:stedsnr" v="667688" />
	</node>
	<node lat="58.66524166447696" lon="6.648575000363817" id="-30592">
		<tag k="fixme" v="consider place=hamlet" />
		<tag k="name" v="Espetveit" />
		<tag k="place" v="farm" />
		<tag k="ssr:stedsnr" v="667581" />
	</node>
	<node lat="58.66078055276611" lon="6.624875002721149" id="-30593">
		<tag k="alt_name" v="Høyland" />
		<tag k="name" v="Høyvoll" />
		<tag k="place" v="farm" />
		<tag k="ssr:stedsnr" v="667582" />
	</node>
	<node lat="58.636308335580985" lon="6.8233944434772" id="-30595">
		<tag k="alt_name" v="Åvedalstølen" />
		<tag k="name" v="Ovedalstølen" />
		<tag k="place" v="isolated_dwelling" />
		<tag k="ssr:stedsnr" v="667589" />
	</node>
	<node lat="58.83374722665743" lon="6.742027785285117" id="-30608">
		<tag k="alt_name" v="Øygarden;Ødegården" />
		<tag k="fixme" v="consider place=hamlet" />
		<tag k="name" v="Ødegård" />
		<tag k="place" v="farm" />
		<tag k="ssr:stedsnr" v="668088" />
	</node>
	<node lat="58.587313891490346" lon="6.775913894611554" id="-30631">
		<tag k="alt_name" v="Storlistølen" />
		<tag k="name" v="Storelistøl" />
		<tag k="place" v="isolated_dwelling" />
		<tag k="ssr:stedsnr" v="668740" />
	</node>
	<node lat="59.07131898859413" lon="6.980771951921199" id="-30648">
		<tag k="alt_name" v="Finnvellene, heimre" />
		<tag k="name" v="Heimre Finnvedlen" />
		<tag k="place" v="locality" />
		<tag k="ssr:stedsnr" v="669933" />
	</node>
	<node lat="58.75565833076831" lon="6.665902777532036" id="-30672">
		<tag k="name" v="Hemsevasstøl" />
		<tag k="place" v="locality" />
		<tag k="ssr:stedsnr" v="893189" />
	</node>
	<node lat="58.87709999743245" lon="6.702422225545344" id="-30762">
		<tag k="name" v="Eldristøl" />
		<tag k="place" v="locality" />
		<tag k="ssr:stedsnr" v="893797" />
	</node>
	<node lat="58.82572777465515" lon="6.788230550308614" id="-30793">
		<tag k="name" v="Neset" />
		<tag k="place" v="farm" />
		<tag k="ssr:stedsnr" v="894745" />
	</node>
	<node lat="58.74308889297799" lon="6.693938886382499" id="-30838">
		<tag k="name" v="Urdvasstøl" />
		<tag k="place" v="locality" />
		<tag k="ssr:stedsnr" v="711207" />
	</node>
	<node lat="58.87910562593877" lon="6.77734575859846" id="-30844">
		<tag k="historic" v="shieling" />
		<tag k="name" v="Litlestøl" />
		<tag k="place" v="isolated_dwelling" />
		<tag k="ssr:stedsnr" v="711290" />
	</node>
	<node lat="58.59319444178976" lon="6.600663887622188" id="-30851">
		<tag k="name" v="Bostetjødnstølen" />
		<tag k="place" v="locality" />
		<tag k="ssr:stedsnr" v="711312" />
	</node>
	<node lat="58.727233336933764" lon="6.614513882367485" id="-30865">
		<tag k="name" v="Gamlestølen" />
		<tag k="place" v="locality" />
		<tag k="ssr:stedsnr" v="711510" />
	</node>
	<node lat="58.75553611358227" lon="6.83801389559733" id="-30886">
		<tag k="name" v="Rosstølsstølan" />
		<tag k="place" v="locality" />
		<tag k="ssr:stedsnr" v="711686" />
	</node>
	<node lat="58.915180555882536" lon="6.872083333644905" id="-30933">
		<tag k="fixme" v="consider tourism=alpine_hut or tourism=chalet" />
		<tag k="name" v="Sinnes Fjellstue" />
		<tag k="ssr:stedsnr" v="953646" />
		<tag k="tourism" v="wilderness_hut" />
	</node>
	<node lat="58.70809722572428" lon="6.696088896930886" id="-30937">
		<tag k="alt_name" v="Finnbustøl" />
		<tag k="name" v="Fimbustølen" />
		<tag k="place" v="locality" />
		<tag k="ssr:stedsnr" v="728525" />
	</node>
	<node lat="58.64990278111537" lon="6.831413892385383" id="-30940">
		<tag k="name" v="Frielistølen" />
		<tag k="place" v="isolated_dwelling" />
		<tag k="ssr:stedsnr" v="728622" />
	</node>
	<node lat="58.58325277852364" lon="6.67451944801475" id="-30941">
		<tag k="fixme" v="consider place=hamlet" />
		<tag k="name" v="Stuhaug" />
		<tag k="place" v="farm" />
		<tag k="ssr:stedsnr" v="728667" />
	</node>
	<node lat="58.81075555859933" lon="6.700250002114723" id="-30946">
		<tag k="alt_name" v="Lundestøl" />
		<tag k="historic" v="shieling" />
		<tag k="name" v="Lundestølan" />
		<tag k="place" v="isolated_dwelling" />
		<tag k="ssr:stedsnr" v="729070" />
	</node>
	<node lat="59.044511106906974" lon="6.87541110403227" id="-30960">
		<tag k="alt_name" v="Reinskvæven" />
		<tag k="name" v="Reinsdyrkvæven" />
		<tag k="place" v="isolated_dwelling" />
		<tag k="ssr:stedsnr" v="729821" />
	</node>
	<node lat="58.74062500187093" lon="6.866863897135447" id="-31005">
		<tag k="name" v="Leidestøl" />
		<tag k="place" v="locality" />
		<tag k="ssr:stedsnr" v="771730" />
	</node>
	<node lat="58.55777499638428" lon="6.728899997803776" id="-31101">
		<tag k="fixme" v="consider place=hamlet" />
		<tag k="name" v="Skibeli" />
		<tag k="place" v="farm" />
		<tag k="ssr:stedsnr" v="910733" />
	</node>
	<node lat="58.821880554790624" lon="6.717786119280108" id="-31107">
		<tag k="fixme" v="consider place=hamlet" />
		<tag k="name" v="Skreå" />
		<tag k="place" v="farm" />
		<tag k="ssr:stedsnr" v="911114" />
	</node>
	<node lat="58.93667400709501" lon="7.154174595171489" id="-31115">
		<tag k="name" v="Åmlibadstoga" />
		<tag k="old_name" v="Omlibadstog" />
		<tag k="place" v="locality" />
		<tag k="ssr:stedsnr" v="911209" />
	</node>
	<node lat="58.79887499987467" lon="6.87927778241734" id="-31125">
		<tag k="alt_name" v="Andelii" />
		<tag k="name" v="Andeli" />
		<tag k="place" v="isolated_dwelling" />
		<tag k="ssr:stedsnr" v="789026" />
	</node>
	<node lat="58.72711944507318" lon="6.686033338173161" id="-31132">
		<tag k="alt_name" v="Heimrestølen" />
		<tag k="name" v="Heimrestøl" />
		<tag k="place" v="isolated_dwelling" />
		<tag k="ssr:stedsnr" v="911564" />
	</node>
	<node lat="58.719550003179954" lon="6.732049991764898" id="-31141">
		<tag k="fixme" v="consider place=hamlet" />
		<tag k="name" v="Hompland" />
		<tag k="place" v="farm" />
		<tag k="ssr:stedsnr" v="911570" />
	</node>
	<node lat="58.72218610875364" lon="6.692624993864499" id="-31142">
		<tag k="name" v="Løynestølen" />
		<tag k="place" v="isolated_dwelling" />
		<tag k="ssr:stedsnr" v="911574" />
	</node>
	<node lat="59.03199469652811" lon="7.048897315230617" id="-31158">
		<tag k="name" v="Flogvasskvæven" />
		<tag k="place" v="locality" />
		<tag k="ssr:stedsnr" v="790913" />
	</node>
	<node lat="59.0491083350595" lon="6.957547229397193" id="-31161">
		<tag k="historic" v="shieling" />
		<tag k="name" v="Flatstøl" />
		<tag k="place" v="isolated_dwelling" />
		<tag k="ssr:stedsnr" v="790804" />
	</node>
	<node lat="58.83823888576076" lon="6.690886104113107" id="-31169">
		<tag k="historic" v="shieling" />
		<tag k="name" v="Heimrestøl" />
		<tag k="place" v="isolated_dwelling" />
		<tag k="ssr:stedsnr" v="911895" />
	</node>
	<node lat="58.84723333545436" lon="6.861405548277845" id="-31170">
		<tag k="alt_name" v="Kaldebekk" />
		<tag k="historic" v="shieling" />
		<tag k="name" v="Kallebekk" />
		<tag k="place" v="isolated_dwelling" />
		<tag k="ssr:stedsnr" v="911901" />
	</node>
	<node lat="58.8890694460318" lon="6.850955556535512" id="-31176">
		<tag k="fixme" v="consider place=hamlet" />
		<tag k="name" v="Tjørhom" />
		<tag k="place" v="village" />
		<tag k="ssr:stedsnr" v="911885" />
	</node>
	<node lat="58.9314000039032" lon="6.964749994874641" id="-31182">
		<tag k="historic" v="shieling" />
		<tag k="name" v="Finnstøl" />
		<tag k="place" v="isolated_dwelling" />
		<tag k="ssr:stedsnr" v="911931" />
	</node>
	<node lat="58.906016666712844" lon="6.709261115514996" id="-31194">
		<tag k="name" v="Midtstøl" />
		<tag k="place" v="locality" />
		<tag k="ssr:stedsnr" v="827070" />
	</node>
	<node lat="58.58411110962734" lon="6.786561113449626" id="-31207">
		<tag k="name" v="Kleivstøl" />
		<tag k="place" v="locality" />
		<tag k="ssr:stedsnr" v="832186" />
	</node>
	<node lat="58.59575555673084" lon="6.6063111182611545" id="-31217">
		<tag k="name" v="Litlevollstølen" />
		<tag k="place" v="locality" />
		<tag k="ssr:stedsnr" v="832297" />
	</node>
	<node lat="59.09639536112489" lon="6.948913829628742" id="-31276">
		<tag k="fixme" v="consider tourism=alpine_hut or tourism=chalet" />
		<tag k="name" v="Holmevasshytta" />
		<tag k="ssr:stedsnr" v="846034" />
		<tag k="tourism" v="wilderness_hut" />
	</node>
	<node lat="58.51368333772782" lon="6.799280556436433" id="-31285">
		<tag k="historic" v="shieling" />
		<tag k="name" v="Smålistølen" />
		<tag k="place" v="isolated_dwelling" />
		<tag k="ssr:stedsnr" v="850377" />
	</node>
	<node lat="58.90545000144282" lon="6.937125000750272" id="-31297">
		<tag k="historic" v="shieling" />
		<tag k="name" v="Instestøl" />
		<tag k="place" v="isolated_dwelling" />
		<tag k="ssr:stedsnr" v="850981" />
	</node>
	<node lat="58.97063055429633" lon="6.864227772224281" id="-31309">
		<tag k="historic" v="shieling" />
		<tag k="name" v="Løkjedalsstøl" />
		<tag k="place" v="isolated_dwelling" />
		<tag k="ssr:stedsnr" v="851806" />
	</node>
	<node lat="58.95400833211391" lon="6.6503861098938" id="-31319">
		<tag k="fixme" v="consider tourism=alpine_hut or tourism=chalet" />
		<tag k="name" v="Sandvatn" />
		<tag k="ssr:stedsnr" v="934475" />
		<tag k="tourism" v="wilderness_hut" />
	</node>
	<node lat="58.6197194476085" lon="6.784238890216876" id="-31332">
		<tag k="name" v="Tollakstøl" />
		<tag k="place" v="locality" />
		<tag k="ssr:stedsnr" v="893008" />
	</node>
	<node lat="58.909730558136395" lon="6.8360333407531035" id="-31374">
		<tag k="name" v="Søvrestøl" />
		<tag k="place" v="isolated_dwelling" />
		<tag k="ssr:stedsnr" v="893565" />
	</node>
	<node lat="58.744180559326175" lon="6.605166668513256" id="-31384">
		<tag k="name" v="Goetjønnstølen" />
		<tag k="place" v="locality" />
		<tag k="ssr:stedsnr" v="893706" />
	</node>
	<node lat="58.92196666299291" lon="6.901599999650928" id="-31404">
		<tag k="name" v="Nygård" />
		<tag k="place" v="farm" />
		<tag k="ssr:stedsnr" v="893677" />
	</node>
	<node lat="58.78811063769658" lon="6.7530004199846285" id="-31447">
		<tag k="name" v="Totland" />
		<tag k="place" v="locality" />
		<tag k="ssr:stedsnr" v="911049" />
	</node>
	<node lat="58.831159613059214" lon="6.643572922066501" id="-31464">
		<tag k="fixme" v="consider tourism=alpine_hut or tourism=chalet" />
		<tag k="name" v="Tomannsbu" />
		<tag k="ssr:stedsnr" v="934943" />
		<tag k="tourism" v="wilderness_hut" />
	</node>
	<node lat="58.51196944224141" lon="6.761169441662213" id="-31466">
		<tag k="name" v="Hauan" />
		<tag k="place" v="farm" />
		<tag k="ssr:stedsnr" v="952092" />
	</node>
	<node lat="58.60487222502378" lon="6.8072583414150545" id="-31474">
		<tag k="name" v="Botnen" />
		<tag k="place" v="isolated_dwelling" />
		<tag k="ssr:stedsnr" v="953008" />
	</node>
	<node lat="58.62016667064528" lon="6.781375004353983" id="-31476">
		<tag k="name" v="Stemstøl" />
		<tag k="place" v="locality" />
		<tag k="ssr:stedsnr" v="953024" />
	</node>
	<node lat="58.901819447551105" lon="6.694052783345116" id="-31560">
		<tag k="name" v="Heimrestøl" />
		<tag k="place" v="locality" />
		<tag k="ssr:stedsnr" v="954941" />
	</node>
	<node lat="59.1179432754089" lon="7.150326934580594" id="-31564">
		<tag k="fixme" v="consider tourism=alpine_hut or tourism=chalet" />
		<tag k="name" v="Stussheller" />
		<tag k="ssr:stedsnr" v="979878" />
		<tag k="tourism" v="wilderness_hut" />
	</node>
	<node lat="59.064117072746484" lon="7.11793118110801" id="-31565">
		<tag k="fixme" v="consider tourism=alpine_hut or tourism=chalet" />
		<tag k="name" v="Bossfjellhytta" />
		<tag k="ssr:stedsnr" v="979879" />
		<tag k="tourism" v="wilderness_hut" />
	</node>
	<node lat="59.032676582126655" lon="7.063950339407136" id="-31566">
		<tag k="fixme" v="consider tourism=alpine_hut or tourism=chalet" />
		<tag k="name" v="Skjerevasshytta" />
		<tag k="ssr:stedsnr" v="979882" />
		<tag k="tourism" v="wilderness_hut" />
	</node>
	<node lat="59.025706942944346" lon="7.083614106105462" id="-31567">
		<tag k="fixme" v="consider tourism=alpine_hut or tourism=chalet" />
		<tag k="name" v="Øyarvassbu" />
		<tag k="ssr:stedsnr" v="979884" />
		<tag k="tourism" v="wilderness_hut" />
	</node>
	<node lat="59.007758523733905" lon="7.1207633863872974" id="-31568">
		<tag k="fixme" v="consider tourism=alpine_hut or tourism=chalet" />
		<tag k="name" v="Sigurdsheller" />
		<tag k="ssr:stedsnr" v="979889" />
		<tag k="tourism" v="wilderness_hut" />
	</node>
	<node lat="58.95744771898768" lon="6.928102295600549" id="-31569">
		<tag k="fixme" v="consider place=hamlet" />
		<tag k="name" v="Fidjeland" />
		<tag k="place" v="farm" />
		<tag k="ssr:stedsnr" v="979893" />
	</node>
	<node lat="58.98955218839818" lon="6.865097142782672" id="-31570">
		<tag k="fixme" v="consider place=hamlet" />
		<tag k="name" v="Vatnedal" />
		<tag k="place" v="farm" />
		<tag k="ssr:stedsnr" v="979895" />
	</node>
	<node lat="58.914236044641065" lon="6.872206899710115" id="-31571">
		<tag k="fixme" v="consider place=hamlet" />
		<tag k="name" v="Sinnes" />
		<tag k="place" v="farm" />
		<tag k="ssr:stedsnr" v="979906" />
	</node>
	<node lat="58.88479457251231" lon="6.846731755619067" id="-31572">
		<tag k="fixme" v="consider place=hamlet" />
		<tag k="name" v="Tjørhom" />
		<tag k="place" v="farm" />
		<tag k="ssr:stedsnr" v="979907" />
	</node>
	<node lat="58.66347077217031" lon="6.714351564324005" id="-31573">
		<tag k="fixme" v="consider place=hamlet" />
		<tag k="name" v="Tonstad" />
		<tag k="place" v="farm" />
		<tag k="ssr:stedsnr" v="979922" />
	</node>
	<node lat="58.55388900386764" lon="6.712934393954421" id="-31574">
		<tag k="fixme" v="consider place=hamlet" />
		<tag k="name" v="Strandeli" />
		<tag k="place" v="farm" />
		<tag k="ssr:stedsnr" v="979923" />
	</node>
	<node lat="58.58478395506579" lon="6.721374766632083" id="-31575">
		<tag k="fixme" v="consider place=hamlet" />
		<tag k="name" v="Haughom" />
		<tag k="place" v="farm" />
		<tag k="ssr:stedsnr" v="979924" />
	</node>
	<node lat="59.127893079569326" lon="7.136534157493284" id="-31578">
		<tag k="name" v="Austre Suleskard driftehei" />
		<tag k="place" v="farm" />
		<tag k="ssr:stedsnr" v="989790" />
	</node>
	<node lat="59.03216828335413" lon="7.049504036781671" id="-31579">
		<tag k="name" v="Suleskard" />
		<tag k="place" v="farm" />
		<tag k="ssr:stedsnr" v="989792" />
	</node>
	<node lat="59.01792781591342" lon="6.96091319287416" id="-31580">
		<tag k="name" v="Suleskardbakken" />
		<tag k="place" v="farm" />
		<tag k="ssr:stedsnr" v="989793" />
	</node>
	<node lat="59.03622060398584" lon="7.136478283740764" id="-31581">
		<tag k="name" v="Ytre Suleskard driftehei" />
		<tag k="place" v="farm" />
		<tag k="ssr:stedsnr" v="989795" />
	</node>
	<node lat="58.84891238954128" lon="6.76663605431786" id="-31582">
		<tag k="name" v="Eigeland" />
		<tag k="place" v="farm" />
		<tag k="ssr:stedsnr" v="989797" />
	</node>
	<node lat="58.841393404055886" lon="6.756422772335845" id="-31584">
		<tag k="name" v="Tveiten" />
		<tag k="place" v="farm" />
		<tag k="ssr:stedsnr" v="989755" />
	</node>
	<node lat="58.843570774736584" lon="6.7585047640970854" id="-31585">
		<tag k="name" v="Tveiten" />
		<tag k="place" v="farm" />
		<tag k="ssr:stedsnr" v="989756" />
	</node>
	<node lat="58.70067222457543" lon="6.814219442631053" id="-31596">
		<tag k="alt_name" v="Atlaskstølen;Atlakstøl" />
		<tag k="name" v="Atlaskstøl" />
		<tag k="place" v="isolated_dwelling" />
		<tag k="ssr:stedsnr" v="581" />
	</node>
	<node lat="58.623950001838956" lon="6.759775000479431" id="-31603">
		<tag k="alt_name" v="Gjødestøl" />
		<tag k="fixme" v="consider place=hamlet" />
		<tag k="name" v="Jødestøl" />
		<tag k="place" v="farm" />
		<tag k="ssr:stedsnr" v="687" />
	</node>
</osm>
