<?xml version="1.0" encoding="UTF-8"?>
<osm version="0.6" generator="osmapis">
	<node lat="58.928458331069734" lon="7.049194436526929" id="-28871">
		<tag k="alt_name" v="Trollevassbu" />
		<tag k="name" v="Trodlevassbu" />
		<tag k="place" v="locality" />
		<tag k="ssr:stedsnr" v="62180" />
	</node>
	<node lat="58.78384407645336" lon="6.750070267645721" id="-28891">
		<tag k="name" v="Slettene" />
		<tag k="place" v="locality" />
		<tag k="ssr:stedsnr" v="243029" />
	</node>
	<node lat="58.82979806644426" lon="7.000921170261763" id="-28905">
		<tag k="alt_name" v="Torkilslega" />
		<tag k="name" v="Torkjellslega" />
		<tag k="place" v="locality" />
		<tag k="ssr:stedsnr" v="243133" />
	</node>
	<node lat="58.96567861725266" lon="6.833552802408843" id="-28939">
		<tag k="name" v="Sirisbu" />
		<tag k="place" v="locality" />
		<tag k="ssr:stedsnr" v="244827" />
	</node>
	<node lat="58.84891697780829" lon="6.982070391334876" id="-29091">
		<tag k="name" v="Børelsbu" />
		<tag k="place" v="locality" />
		<tag k="ssr:stedsnr" v="122117" />
	</node>
	<node lat="58.62570833679151" lon="6.7814222187738356" id="-29108">
		<tag k="name" v="Padlestøl" />
		<tag k="place" v="locality" />
		<tag k="ssr:stedsnr" v="164117" />
	</node>
	<node lat="58.808383331854365" lon="6.764438887292065" id="-29486">
		<tag k="amenity" v="place_of_worship" />
		<tag k="denomination" v="lutheran" />
		<tag k="name" v="Øvre Sirdal" />
		<tag k="religion" v="christian" />
		<tag k="ssr:stedsnr" v="304077" />
	</node>
	<node lat="58.83735899992853" lon="6.984462097415657" id="-29770">
		<tag k="alt_name" v="Skitlega" />
		<tag k="name" v="Skittlega" />
		<tag k="place" v="locality" />
		<tag k="ssr:stedsnr" v="365149" />
	</node>
	<node lat="58.90560832954323" lon="6.92643054758678" id="-30229">
		<tag k="name" v="Litlaløa" />
		<tag k="place" v="locality" />
		<tag k="ssr:stedsnr" v="529628" />
	</node>
	<node lat="58.80946111480717" lon="6.989511104946208" id="-30298">
		<tag k="name" v="Godfarlega" />
		<tag k="place" v="locality" />
		<tag k="ssr:stedsnr" v="547406" />
	</node>
	<node lat="59.13493611202308" lon="7.159988893408663" id="-30312">
		<tag k="name" v="Kringlestrondi" />
		<tag k="place" v="locality" />
		<tag k="ssr:stedsnr" v="547863" />
	</node>
	<node lat="58.71579444782963" lon="6.706830555004842" id="-30375">
		<tag k="name" v="Geitebru" />
		<tag k="place" v="locality" />
		<tag k="ssr:stedsnr" v="589578" />
	</node>
	<node lat="58.84622580641763" lon="6.8508798894589145" id="-30637">
		<tag k="alt_name" v="Vikelega" />
		<tag k="name" v="Lega" />
		<tag k="old_name" v="Vikelæga" />
		<tag k="place" v="locality" />
		<tag k="ssr:stedsnr" v="668907" />
	</node>
	<node lat="58.584725004058335" lon="6.722994437014595" id="-30819">
		<tag k="amenity" v="place_of_worship" />
		<tag k="denomination" v="lutheran" />
		<tag k="name" v="Kapellet" />
		<tag k="religion" v="christian" />
		<tag k="ssr:stedsnr" v="710205" />
	</node>
	<node lat="58.92043610683039" lon="7.017199992568934" id="-31302">
		<tag k="name" v="Holmane" />
		<tag k="place" v="locality" />
		<tag k="ssr:stedsnr" v="851171" />
	</node>
	<node lat="58.574758333109266" lon="6.66190833052725" id="-31500">
		<tag k="name" v="Kvednhusan" />
		<tag k="place" v="locality" />
		<tag k="ssr:stedsnr" v="953418" />
	</node>
</osm>
