<?xml version="1.0" encoding="UTF-8"?>
<osm generator="osmapis" version="0.6">
	<node id="-321536" lat="59.2440888872" lon="7.46822500653">
		<tag k="name" v="Myri" />
		<tag k="natural" v="wetland" />
		<tag k="ssr:stedsnr" v="750276" />
	</node>
	<node id="-322558" lat="59.1766583289" lon="7.64261944362">
		<tag k="name" v="Trettemyrane" />
		<tag k="natural" v="wetland" />
		<tag k="ssr:stedsnr" v="872719" />
	</node>
	<node id="-322550" lat="59.1445166677" lon="7.5332361173">
		<tag k="name" v="Kvosseberg" />
		<tag k="place" v="locality" />
		<tag k="ssr:stedsnr" v="872650" />
	</node>
	<node id="-322046" lat="59.2628805592" lon="7.5170500076">
		<tag k="name" v="Byklemyr" />
		<tag k="natural" v="wetland" />
		<tag k="ssr:stedsnr" v="811793" />
	</node>
	<node id="-316399" lat="59.2828000033" lon="7.4018861041">
		<tag k="name" v="Gygri" />
		<tag k="natural" v="stone" />
		<tag k="ssr:stedsnr" v="325138" />
	</node>
	<node id="-322030" lat="59.1673138869" lon="7.55236111626">
		<tag k="name" v="Skarmyri" />
		<tag k="natural" v="wetland" />
		<tag k="ssr:stedsnr" v="811504" />
	</node>
	<node id="-316909" lat="59.0706722216" lon="7.56451944234">
		<tag k="name" v="Godemyr" />
		<tag k="natural" v="wetland" />
		<tag k="ssr:stedsnr" v="386850" />
	</node>
	<node id="-317419" lat="59.0531166692" lon="7.56372500309">
		<tag k="name" v="Goddokksteinen" />
		<tag k="natural" v="stone" />
		<tag k="ssr:stedsnr" v="23813" />
	</node>
	<node id="-316394" lat="59.2868388867" lon="7.41987777201">
		<tag k="name" v="Såmundsslåtta" />
		<tag k="natural" v="wetland" />
		<tag k="old_name" v="Sømundsslåtten" />
		<tag k="ssr:stedsnr" v="306676" />
	</node>
	<node id="-322025" lat="59.0855500032" lon="7.42511667013">
		<tag k="name" v="Krakkemyri" />
		<tag k="natural" v="wetland" />
		<tag k="ssr:stedsnr" v="811413" />
	</node>
	<node id="-322017" lat="59.0708722198" lon="7.3000555504">
		<tag k="alt_name" v="Logbu" />
		<tag k="historic" v="shieling" />
		<tag k="name" v="Lognbru" />
		<tag k="place" v="locality" />
		<tag k="ssr:stedsnr" v="811391" />
	</node>
	<node id="-316384" lat="59.1757305512" lon="7.29170277734">
		<tag k="name" v="Kolvassfiti" />
		<tag k="natural" v="wetland" />
		<tag k="ssr:stedsnr" v="305869" />
	</node>
	<node id="-322013" lat="59.0912999964" lon="7.44784166268">
		<tag k="name" v="Finnflota" />
		<tag k="natural" v="wetland" />
		<tag k="ssr:stedsnr" v="811369" />
	</node>
	<node id="-322011" lat="59.0345333377" lon="7.34616110585">
		<tag k="landuse" v="meadow" />
		<tag k="name" v="Det håge grøe" />
		<tag k="ssr:stedsnr" v="811364" />
	</node>
	<node id="-322522" lat="59.1772444427" lon="7.51475833661">
		<tag k="landuse" v="quarry" />
		<tag k="name" v="Bøgruva" />
		<tag k="ssr:stedsnr" v="872551" />
	</node>
	<node id="-322007" lat="59.1360583345" lon="7.45541943981">
		<tag k="landuse" v="meadow" />
		<tag k="name" v="Rundeslåtta" />
		<tag k="ssr:stedsnr" v="811338" />
	</node>
	<node id="-321491" lat="59.1168083342" lon="7.74333888978">
		<tag k="landuse" v="quarry" />
		<tag k="name" v="Straumsgruvene" />
		<tag k="ssr:stedsnr" v="730430" />
	</node>
	<node id="-322514" lat="59.1050944478" lon="7.41351110792">
		<tag k="landuse" v="meadow" />
		<tag k="name" v="Gripemokjarret" />
		<tag k="ssr:stedsnr" v="872509" />
	</node>
	<node id="-316881" lat="59.1194055588" lon="7.51821110523">
		<tag k="name" v="Storemyr" />
		<tag k="place" v="locality" />
		<tag k="ssr:stedsnr" v="386523" />
	</node>
	<node id="-317392" lat="59.1611194429" lon="7.51153056345">
		<tag k="name" v="Trælskred" />
		<tag k="place" v="locality" />
		<tag k="ssr:stedsnr" v="23632" />
	</node>
	<node id="-316875" lat="59.3002388895" lon="7.50380556295">
		<tag k="name" v="Båsbakk" />
		<tag k="natural" v="wetland" />
		<tag k="ssr:stedsnr" v="386742" />
	</node>
	<node id="-317384" lat="59.2404750011" lon="7.56871111833">
		<tag k="name" v="Ungårsmyri" />
		<tag k="natural" v="wetland" />
		<tag k="ssr:stedsnr" v="23617" />
	</node>
	<node id="-319820" lat="59.0824972203" lon="7.42936389673">
		<tag k="name" v="Rotefjellsteigen" />
		<tag k="place" v="locality" />
		<tag k="ssr:stedsnr" v="508462" />
	</node>
	<node id="-321990" lat="59.2665555581" lon="7.43191666316">
		<tag k="name" v="Blautemyr" />
		<tag k="natural" v="wetland" />
		<tag k="ssr:stedsnr" v="791699" />
	</node>
	<node id="-322038" lat="59.2392055544" lon="7.52921666676">
		<tag k="name" v="Hossediki" />
		<tag k="place" v="locality" />
		<tag k="ssr:stedsnr" v="811612" />
	</node>
	<node id="-317378" lat="59.1891166679" lon="7.57947777703">
		<tag k="landuse" v="meadow" />
		<tag k="name" v="Libuteigen" />
		<tag k="ssr:stedsnr" v="23592" />
	</node>
	<node id="-322497" lat="59.176538887" lon="7.48274444962">
		<tag k="name" v="Lapriet" />
		<tag k="natural" v="wetland" />
		<tag k="ssr:stedsnr" v="872352" />
	</node>
	<node id="-316864" lat="59.0915777789" lon="7.43280277088">
		<tag k="name" v="Sitåsteigen" />
		<tag k="place" v="locality" />
		<tag k="ssr:stedsnr" v="386401" />
	</node>
	<node id="-322489" lat="59.2523194443" lon="7.54730278402">
		<tag k="name" v="Hegråmyrane" />
		<tag k="natural" v="wetland" />
		<tag k="ssr:stedsnr" v="871856" />
	</node>
	<node id="-316855" lat="59.2430249963" lon="7.44370000816">
		<tag k="name" v="Neire Spanekjarret" />
		<tag k="natural" v="wetland" />
		<tag k="ssr:stedsnr" v="386293" />
	</node>
	<node id="-317366" lat="59.0383361091" lon="7.45456110253">
		<tag k="name" v="Merlaksteet" />
		<tag k="natural" v="wetland" />
		<tag k="ssr:stedsnr" v="23545" />
	</node>
	<node id="-317365" lat="59.0996083313" lon="7.42509166362">
		<tag k="name" v="Lægjemyran" />
		<tag k="natural" v="wetland" />
		<tag k="ssr:stedsnr" v="23541" />
	</node>
	<node id="-319593" lat="59.282186111" lon="7.46191388448">
		<tag k="name" v="Svoda" />
		<tag k="place" v="locality" />
		<tag k="ssr:stedsnr" v="447136" />
	</node>
	<node id="-322120" lat="59.0417194404" lon="7.56315556067">
		<tag k="name" v="Grjosøyren" />
		<tag k="place" v="locality" />
		<tag k="ssr:stedsnr" v="812806" />
	</node>
	<node id="-322990" lat="59.2409472252" lon="7.53642500789">
		<tag k="name" v="Bronen" />
		<tag k="place" v="locality" />
		<tag k="ssr:stedsnr" v="933656" />
	</node>
	<node id="-317861" lat="59.0553805567" lon="7.56372500181">
		<tag k="name" v="Tjaberget" />
		<tag k="place" v="locality" />
		<tag k="ssr:stedsnr" v="83849" />
	</node>
	<node id="-317858" lat="59.0360194457" lon="7.51651666958">
		<tag k="name" v="Rota" />
		<tag k="place" v="locality" />
		<tag k="ssr:stedsnr" v="83831" />
	</node>
	<node id="-317855" lat="59.3451861067" lon="7.50775833136">
		<tag k="name" v="Tyrveviki" />
		<tag k="natural" v="wetland" />
		<tag k="ssr:stedsnr" v="83819" />
	</node>
	<node id="-316829" lat="59.2681777774" lon="7.44431667015">
		<tag k="name" v="Hestemyr" />
		<tag k="natural" v="wetland" />
		<tag k="ssr:stedsnr" v="366680" />
	</node>
	<node id="-319898" lat="59.0642805536" lon="7.49174722694">
		<tag k="landuse" v="meadow" />
		<tag k="name" v="Skardet" />
		<tag k="ssr:stedsnr" v="509432" />
	</node>
	<node id="-320751" lat="59.1037305528" lon="7.51758333085">
		<tag k="name" v="Breieteig" />
		<tag k="place" v="locality" />
		<tag k="ssr:stedsnr" v="629764" />
	</node>
	<node id="-317846" lat="59.3320027779" lon="7.50217500735">
		<tag k="name" v="Hestebeite" />
		<tag k="place" v="locality" />
		<tag k="ssr:stedsnr" v="83774" />
	</node>
	<node id="-317326" lat="59.2877777783" lon="7.49416944309">
		<tag k="name" v="Langemyr" />
		<tag k="natural" v="wetland" />
		<tag k="ssr:stedsnr" v="22901" />
	</node>
	<node id="-319885" lat="59.2596888869" lon="7.51613888588">
		<tag k="alt_name" v="Dyresfitjan" />
		<tag k="name" v="Dyresfitjane" />
		<tag k="natural" v="wetland" />
		<tag k="ssr:stedsnr" v="508868" />
	</node>
	<node id="-317324" lat="59.2779583352" lon="7.51807778398">
		<tag k="name" v="Kaldslækjet" />
		<tag k="natural" v="wetland" />
		<tag k="ssr:stedsnr" v="22828" />
	</node>
	<node id="-318347" lat="59.2156416636" lon="7.55795832566">
		<tag k="name" v="Fjøddemyrane" />
		<tag k="natural" v="wetland" />
		<tag k="ssr:stedsnr" v="144683" />
	</node>
	<node id="-316810" lat="59.2518750026" lon="7.31590000552">
		<tag k="name" v="Flottin" />
		<tag k="natural" v="wetland" />
		<tag k="ssr:stedsnr" v="366503" />
	</node>
	<node id="-318345" lat="59.2118638887" lon="7.5070777817">
		<tag k="name" v="Skuggerjomyrane" />
		<tag k="natural" v="wetland" />
		<tag k="ssr:stedsnr" v="144675" />
	</node>
	<node id="-319879" lat="59.0574055595" lon="7.56966943844">
		<tag k="name" v="Langeste" />
		<tag k="place" v="locality" />
		<tag k="ssr:stedsnr" v="508853" />
	</node>
	<node id="-317829" lat="59.1186500005" lon="7.53025000605">
		<tag k="name" v="Båsberga" />
		<tag k="place" v="locality" />
		<tag k="ssr:stedsnr" v="83513" />
	</node>
	<node id="-317828" lat="59.1386027738" lon="7.5174111164">
		<tag k="name" v="Holtet" />
		<tag k="place" v="locality" />
		<tag k="ssr:stedsnr" v="83508" />
	</node>
	<node id="-322944" lat="59.1914138907" lon="7.48668611466">
		<tag k="name" v="Heddismyrane" />
		<tag k="natural" v="wetland" />
		<tag k="ssr:stedsnr" v="933354" />
	</node>
	<node id="-317823" lat="59.1733166656" lon="7.51789444339">
		<tag k="name" v="Skurfe" />
		<tag k="place" v="locality" />
		<tag k="ssr:stedsnr" v="83496" />
	</node>
	<node id="-317820" lat="59.110241666" lon="7.41375834061">
		<tag k="name" v="Tykkeholtteigen" />
		<tag k="place" v="locality" />
		<tag k="ssr:stedsnr" v="83456" />
	</node>
	<node id="-317814" lat="59.079430553" lon="7.448397227">
		<tag k="landuse" v="meadow" />
		<tag k="name" v="Årebladet" />
		<tag k="ssr:stedsnr" v="83413" />
	</node>
	<node id="-318325" lat="59.2357305581" lon="7.58612222166">
		<tag k="alt_name" v="Skormyrana" />
		<tag k="name" v="Skormyrane" />
		<tag k="natural" v="wetland" />
		<tag k="ssr:stedsnr" v="144597" />
	</node>
	<node id="-322931" lat="59.2507361147" lon="7.53032776986">
		<tag k="name" v="På fjøddet" />
		<tag k="place" v="locality" />
		<tag k="ssr:stedsnr" v="932780" />
	</node>
	<node id="-316786" lat="59.2291507486" lon="7.28465798145">
		<tag k="name" v="Torolvsfonn" />
		<tag k="place" v="locality" />
		<tag k="ssr:stedsnr" v="365792" />
	</node>
	<node id="-317806" lat="59.1233666673" lon="7.45788333244">
		<tag k="name" v="Brasstein" />
		<tag k="natural" v="stone" />
		<tag k="ssr:stedsnr" v="83373" />
	</node>
	<node id="-322877" lat="59.1086166697" lon="7.56923888817">
		<tag k="name" v="Langemyr" />
		<tag k="natural" v="wetland" />
		<tag k="ssr:stedsnr" v="912661" />
	</node>
	<node id="-322922" lat="59.3005555548" lon="7.44975277282">
		<tag k="name" v="Haugefet" />
		<tag k="natural" v="wetland" />
		<tag k="ssr:stedsnr" v="932242" />
	</node>
	<node id="-318312" lat="59.233316664" lon="7.65558332645">
		<tag k="name" v="Ingeleiv" />
		<tag k="natural" v="stone" />
		<tag k="ssr:stedsnr" v="144558" />
	</node>
	<node id="-318310" lat="59.2339083358" lon="7.68854444908">
		<tag k="name" v="Bjorhola" />
		<tag k="natural" v="wetland" />
		<tag k="ssr:stedsnr" v="144552" />
	</node>
	<node id="-322916" lat="59.2832555581" lon="7.46645277581">
		<tag k="name" v="Flæene" />
		<tag k="place" v="locality" />
		<tag k="ssr:stedsnr" v="932159" />
	</node>
	<node id="-317794" lat="59.3323388897" lon="7.45390833218">
		<tag k="name" v="Podden" />
		<tag k="natural" v="wetland" />
		<tag k="ssr:stedsnr" v="83192" />
	</node>
	<node id="-322911" lat="59.2952388923" lon="7.65810832836">
		<tag k="name" v="Vom" />
		<tag k="natural" v="wetland" />
		<tag k="ssr:stedsnr" v="913695" />
	</node>
	<node id="-320350" lat="59.1753555561" lon="7.65315000418">
		<tag k="name" v="Såvesstein" />
		<tag k="natural" v="stone" />
		<tag k="ssr:stedsnr" v="569686" />
	</node>
	<node id="-318300" lat="59.037505556" lon="7.44046389054">
		<tag k="name" v="Breikroksteet" />
		<tag k="place" v="locality" />
		<tag k="ssr:stedsnr" v="144508" />
	</node>
	<node id="-316474" lat="59.1672555587" lon="7.59527500205">
		<tag k="name" v="Flæun" />
		<tag k="place" v="locality" />
		<tag k="ssr:stedsnr" v="326634" />
	</node>
	<node id="-318298" lat="59.1063833316" lon="7.42377222432">
		<tag k="name" v="Goplesteinen" />
		<tag k="natural" v="stone" />
		<tag k="ssr:stedsnr" v="144497" />
	</node>
	<node id="-318295" lat="59.0637055571" lon="7.43452222583">
		<tag k="name" v="Hovdestea" />
		<tag k="place" v="locality" />
		<tag k="ssr:stedsnr" v="144478" />
	</node>
	<node id="-319827" lat="59.1005916688" lon="7.48524999397">
		<tag k="name" v="Snippen" />
		<tag k="place" v="locality" />
		<tag k="ssr:stedsnr" v="508508" />
	</node>
	<node id="-320336" lat="59.0932722203" lon="7.73780556369">
		<tag k="name" v="Glottsmyrane" />
		<tag k="natural" v="wetland" />
		<tag k="ssr:stedsnr" v="569584" />
	</node>
	<node id="-318798" lat="59.1154527782" lon="7.58754444548">
		<tag k="name" v="Sjågemyrane" />
		<tag k="natural" v="wetland" />
		<tag k="ssr:stedsnr" v="205993" />
	</node>
	<node id="-318797" lat="59.0895472237" lon="7.55309444106">
		<tag k="name" v="Kyrkjefet" />
		<tag k="place" v="locality" />
		<tag k="ssr:stedsnr" v="205985" />
	</node>
	<node id="-322892" lat="59.2369749963" lon="7.3029638827">
		<tag k="name" v="Kvislin" />
		<tag k="natural" v="wetland" />
		<tag k="ssr:stedsnr" v="912787" />
	</node>
	<node id="-319799" lat="59.3226861114" lon="7.4943305557">
		<tag k="name" v="Ædansmyrane" />
		<tag k="natural" v="wetland" />
		<tag k="ssr:stedsnr" v="507862" />
	</node>
	<node id="-318278" lat="59.3429583312" lon="7.56485000606">
		<tag k="name" v="Kotur" />
		<tag k="natural" v="scree" />
		<tag k="ssr:stedsnr" v="143769" />
	</node>
	<node id="-319812" lat="59.0531083338" lon="7.36351944025">
		<tag k="name" v="Koturdi" />
		<tag k="natural" v="scree" />
		<tag k="ssr:stedsnr" v="508407" />
	</node>
	<node id="-321093" lat="59.265313887" lon="7.57361666041">
		<tag k="name" v="Rota" />
		<tag k="natural" v="wetland" />
		<tag k="ssr:stedsnr" v="689812" />
	</node>
	<node id="-320322" lat="59.0613250026" lon="7.42778055587">
		<tag k="name" v="Bergi" />
		<tag k="place" v="locality" />
		<tag k="ssr:stedsnr" v="569442" />
	</node>
	<node id="-318785" lat="59.1164194435" lon="7.51283888293">
		<tag k="name" v="Ækra" />
		<tag k="place" v="locality" />
		<tag k="ssr:stedsnr" v="205803" />
	</node>
	<node id="-318271" lat="59.0756027736" lon="7.42631389031">
		<tag k="landuse" v="meadow" />
		<tag k="name" v="Moslåtton" />
		<tag k="ssr:stedsnr" v="143399" />
	</node>
	<node id="-318782" lat="59.1230472197" lon="7.61902221859">
		<tag k="name" v="Stedjane" />
		<tag k="natural" v="wetland" />
		<tag k="ssr:stedsnr" v="205752" />
	</node>
	<node id="-318781" lat="59.1265638929" lon="7.62635555748">
		<tag k="name" v="Grjotvassmyrane" />
		<tag k="natural" v="wetland" />
		<tag k="ssr:stedsnr" v="205748" />
	</node>
	<node id="-320311" lat="59.0683694488" lon="7.57444167291">
		<tag k="name" v="Fossebergi" />
		<tag k="place" v="locality" />
		<tag k="ssr:stedsnr" v="568836" />
	</node>
	<node id="-318258" lat="59.3021166671" lon="7.47408333366">
		<tag k="name" v="Borkebu" />
		<tag k="natural" v="wetland" />
		<tag k="ssr:stedsnr" v="143155" />
	</node>
	<node id="-319793" lat="59.3095472196" lon="7.48795278393">
		<tag k="alt_name" v="Øybøleitet" />
		<tag k="name" v="Øybuleitet" />
		<tag k="natural" v="wetland" />
		<tag k="ssr:stedsnr" v="507763" />
	</node>
	<node id="-318255" lat="59.2414944451" lon="7.4369750023">
		<tag k="name" v="Evre Spanekjerret" />
		<tag k="natural" v="wetland" />
		<tag k="ssr:stedsnr" v="143290" />
	</node>
	<node id="-318765" lat="59.1486361108" lon="7.57605554723">
		<tag k="name" v="Forstøylsmyrane" />
		<tag k="place" v="locality" />
		<tag k="ssr:stedsnr" v="205599" />
	</node>
	<node id="-320298" lat="59.2267444449" lon="7.57832778607">
		<tag k="name" v="Blåsemyri" />
		<tag k="natural" v="wetland" />
		<tag k="ssr:stedsnr" v="568565" />
	</node>
	<node id="-320296" lat="59.2342083342" lon="7.54616943578">
		<tag k="name" v="Neset" />
		<tag k="place" v="locality" />
		<tag k="ssr:stedsnr" v="568556" />
	</node>
	<node id="-320293" lat="59.1628638925" lon="7.51045555096">
		<tag k="name" v="Grasdalssteinen" />
		<tag k="natural" v="stone" />
		<tag k="ssr:stedsnr" v="568534" />
	</node>
	<node id="-320291" lat="59.1216916625" lon="7.58742500253">
		<tag k="alt_name" v="Krøylsstøylfeta" />
		<tag k="name" v="Krøysstøylfeta" />
		<tag k="place" v="locality" />
		<tag k="ssr:stedsnr" v="568527" />
	</node>
	<node id="-320286" lat="59.1753611118" lon="7.55664167208">
		<tag k="name" v="Skavlemyran" />
		<tag k="natural" v="wetland" />
		<tag k="ssr:stedsnr" v="568498" />
	</node>
	<node id="-318742" lat="59.087222224" lon="7.39634443633">
		<tag k="landuse" v="meadow" />
		<tag k="name" v="Løkjeslåtta" />
		<tag k="ssr:stedsnr" v="205484" />
	</node>
	<node id="-320276" lat="59.0945555586" lon="7.45443611864">
		<tag k="name" v="Surtemyrteigen" />
		<tag k="place" v="locality" />
		<tag k="ssr:stedsnr" v="568390" />
	</node>
	<node id="-318738" lat="59.0937305585" lon="7.44179165975">
		<tag k="name" v="Myran" />
		<tag k="natural" v="wetland" />
		<tag k="ssr:stedsnr" v="205458" />
	</node>
	<node id="-320779" lat="59.2227333293" lon="7.55365555807">
		<tag k="landuse" v="meadow" />
		<tag k="name" v="Tussehaugen" />
		<tag k="ssr:stedsnr" v="630612" />
	</node>
	<node id="-320267" lat="59.1751638916" lon="7.4874749912">
		<tag k="name" v="Storeli" />
		<tag k="natural" v="wetland" />
		<tag k="ssr:stedsnr" v="568330" />
	</node>
	<node id="-320773" lat="59.0492999967" lon="7.45439722028">
		<tag k="name" v="Hommen" />
		<tag k="place" v="locality" />
		<tag k="ssr:stedsnr" v="630429" />
	</node>
	<node id="-317323" lat="59.2748444407" lon="7.49075278613">
		<tag k="name" v="Kyrstein" />
		<tag k="natural" v="stone" />
		<tag k="ssr:stedsnr" v="22826" />
	</node>
	<node id="-318719" lat="59.1415694481" lon="7.52238054911">
		<tag k="name" v="Homyr" />
		<tag k="natural" v="wetland" />
		<tag k="ssr:stedsnr" v="205642" />
	</node>
	<node id="-319227" lat="59.0724777753" lon="7.45945832668">
		<tag k="landuse" v="quarry" />
		<tag k="name" v="Gruva" />
		<tag k="ssr:stedsnr" v="266426" />
	</node>
	<node id="-320249" lat="59.3311083368" lon="7.49294722248">
		<tag k="name" v="Reinemyrane" />
		<tag k="natural" v="wetland" />
		<tag k="ssr:stedsnr" v="567756" />
	</node>
	<node id="-320759" lat="59.0558333296" lon="7.56536667006">
		<tag k="name" v="Heddessteinen" />
		<tag k="natural" v="stone" />
		<tag k="ssr:stedsnr" v="629854" />
	</node>
	<node id="-320758" lat="59.0366861142" lon="7.52638610244">
		<tag k="name" v="Lunnemyri" />
		<tag k="natural" v="wetland" />
		<tag k="ssr:stedsnr" v="629841" />
	</node>
	<node id="-320753" lat="59.1147888927" lon="7.52144722025">
		<tag k="name" v="Kreppin" />
		<tag k="place" v="locality" />
		<tag k="ssr:stedsnr" v="629768" />
	</node>
	<node id="-319215" lat="59.0437750008" lon="7.50155555841">
		<tag k="name" v="Svinevassmyrane" />
		<tag k="natural" v="wetland" />
		<tag k="ssr:stedsnr" v="265852" />
	</node>
	<node id="-320749" lat="59.109375003" lon="7.56653054997">
		<tag k="name" v="Stakkfet" />
		<tag k="natural" v="wetland" />
		<tag k="ssr:stedsnr" v="629748" />
	</node>
	<node id="-318188" lat="59.2203805599" lon="7.12465278469">
		<tag k="name" v="Stormsteinen" />
		<tag k="natural" v="stone" />
		<tag k="ssr:stedsnr" v="122770" />
	</node>
	<node id="-322016" lat="59.0768250035" lon="7.47368055029">
		<tag k="name" v="Rustin" />
		<tag k="place" v="locality" />
		<tag k="ssr:stedsnr" v="811387" />
	</node>
	<node id="-320742" lat="59.2161638865" lon="7.4998055572">
		<tag k="name" v="Kolåsmyrane" />
		<tag k="natural" v="wetland" />
		<tag k="old_name" v="Kolåssmyrane" />
		<tag k="ssr:stedsnr" v="629672" />
	</node>
	<node id="-320736" lat="59.1110555549" lon="7.74169444637">
		<tag k="landuse" v="quarry" />
		<tag k="name" v="Amalie-gruve" />
		<tag k="ssr:stedsnr" v="629631" />
	</node>
	<node id="-320734" lat="59.22709444" lon="7.53218610282">
		<tag k="name" v="Guddurd" />
		<tag k="natural" v="scree" />
		<tag k="ssr:stedsnr" v="629619" />
	</node>
	<node id="-320733" lat="59.1567388897" lon="7.54893055477">
		<tag k="name" v="Saudalsmyra" />
		<tag k="natural" v="wetland" />
		<tag k="ssr:stedsnr" v="629620" />
	</node>
	<node id="-320722" lat="59.1219194457" lon="7.53995832506">
		<tag k="name" v="Sigersmyrane" />
		<tag k="natural" v="wetland" />
		<tag k="old_name" v="Sigersmyrana" />
		<tag k="ssr:stedsnr" v="629548" />
	</node>
	<node id="-320719" lat="59.1639388853" lon="7.55646666769">
		<tag k="name" v="Skrea" />
		<tag k="place" v="locality" />
		<tag k="ssr:stedsnr" v="629532" />
	</node>
	<node id="-318670" lat="59.2895833325" lon="7.48092777115">
		<tag k="name" v="Langemyr" />
		<tag k="natural" v="wetland" />
		<tag k="ssr:stedsnr" v="184699" />
	</node>
	<node id="-320716" lat="59.1771666623" lon="7.49849721963">
		<tag k="alt_name" v="Skrivmyrin" />
		<tag k="name" v="Skrivmyran" />
		<tag k="natural" v="wetland" />
		<tag k="ssr:stedsnr" v="629525" />
	</node>
	<node id="-318667" lat="59.2722638873" lon="7.52600556216">
		<tag k="name" v="Ljomsfitjan" />
		<tag k="natural" v="wetland" />
		<tag k="ssr:stedsnr" v="184677" />
	</node>
	<node id="-319607" lat="59.0946055529" lon="7.4413388909">
		<tag k="name" v="Finnen" />
		<tag k="natural" v="wetland" />
		<tag k="ssr:stedsnr" v="447382" />
	</node>
	<node id="-320711" lat="59.0994000016" lon="7.41372777787">
		<tag k="name" v="Stigemyran" />
		<tag k="natural" v="wetland" />
		<tag k="ssr:stedsnr" v="629494" />
	</node>
	<node id="-320710" lat="59.1031388914" lon="7.41955276902">
		<tag k="name" v="Kringlmyri" />
		<tag k="natural" v="wetland" />
		<tag k="ssr:stedsnr" v="629486" />
	</node>
	<node id="-319173" lat="59.084608331" lon="7.38271667441">
		<tag k="name" v="Ambjønnsteinan" />
		<tag k="natural" v="stone" />
		<tag k="ssr:stedsnr" v="265457" />
	</node>
	<node id="-322934" lat="59.2721694434" lon="7.52964722245">
		<tag k="name" v="Myrane nordre" />
		<tag k="natural" v="wetland" />
		<tag k="ssr:stedsnr" v="932815" />
	</node>
	<node id="-320704" lat="59.0738694457" lon="7.27573889743">
		<tag k="loc_name" v="Jonsslåttet" />
		<tag k="name" v="Jons' slåtte" />
		<tag k="place" v="locality" />
		<tag k="ssr:stedsnr" v="629440" />
	</node>
	<node id="-319166" lat="59.0717249978" lon="7.28586389251">
		<tag k="landuse" v="meadow" />
		<tag k="name" v="Pærsslåtte" />
		<tag k="ssr:stedsnr" v="265422" />
	</node>
	<node id="-320701" lat="59.0918194486" lon="7.4238388917">
		<tag k="name" v="Steinemyri" />
		<tag k="place" v="locality" />
		<tag k="ssr:stedsnr" v="629424" />
	</node>
	<node id="-319674" lat="59.1007333363" lon="7.74623888993">
		<tag k="landuse" v="quarry" />
		<tag k="name" v="Kongens gruve" />
		<tag k="ssr:stedsnr" v="448644" />
	</node>
	<node id="-319161" lat="59.1867777817" lon="7.46609444031">
		<tag k="name" v="Tårungsgrøde" />
		<tag k="place" v="locality" />
		<tag k="ssr:stedsnr" v="265376" />
	</node>
	<node id="-319154" lat="59.164027782" lon="7.48841667299">
		<tag k="name" v="Stoa" />
		<tag k="place" v="locality" />
		<tag k="ssr:stedsnr" v="265345" />
	</node>
	<node id="-319153" lat="59.1796055577" lon="7.47822221697">
		<tag k="name" v="Stedi" />
		<tag k="natural" v="wetland" />
		<tag k="ssr:stedsnr" v="265341" />
	</node>
	<node id="-319663" lat="59.1275916634" lon="7.55066666522">
		<tag k="name" v="Holfumyrane" />
		<tag k="natural" v="wetland" />
		<tag k="ssr:stedsnr" v="448583" />
	</node>
	<node id="-320671" lat="59.2871166693" lon="7.51881389677">
		<tag k="name" v="Kyrkja" />
		<tag k="natural" v="stone" />
		<tag k="ssr:stedsnr" v="628805" />
	</node>
	<node id="-320709" lat="59.1049638893" lon="7.40126388513">
		<tag k="name" v="Myran" />
		<tag k="natural" v="wetland" />
		<tag k="ssr:stedsnr" v="629480" />
	</node>
	<node id="-321176" lat="59.0843166683" lon="7.56231110918">
		<tag k="name" v="Storfit" />
		<tag k="place" v="locality" />
		<tag k="ssr:stedsnr" v="690981" />
	</node>
	<node id="-319124" lat="59.2651472265" lon="7.3832138949">
		<tag k="alt_name" v="Gjermundsbuløken" />
		<tag k="name" v="Gjermundsbuløkin" />
		<tag k="natural" v="wetland" />
		<tag k="old_name" v="Gjermundsbuløkjene" />
		<tag k="ssr:stedsnr" v="245662" />
	</node>
	<node id="-319634" lat="59.2666888875" lon="7.51643055068">
		<tag k="alt_name" v="Samslåttene" />
		<tag k="name" v="Samsslåtta" />
		<tag k="natural" v="wetland" />
		<tag k="old_name" v="Samsslåtto" />
		<tag k="ssr:stedsnr" v="447838" />
	</node>
	<node id="-319631" lat="59.2746499987" lon="7.51621111017">
		<tag k="name" v="Stutsfet" />
		<tag k="natural" v="wetland" />
		<tag k="ssr:stedsnr" v="447806" />
	</node>
	<node id="-319853" lat="59.2410222214" lon="7.56711944069">
		<tag k="name" v="Gråur" />
		<tag k="natural" v="wetland" />
		<tag k="ssr:stedsnr" v="508622" />
	</node>
	<node id="-321164" lat="59.0485166702" lon="7.56246665939">
		<tag k="name" v="Varpet" />
		<tag k="natural" v="stone" />
		<tag k="ssr:stedsnr" v="690816" />
	</node>
	<node id="-321665" lat="59.0812666668" lon="7.56822777341">
		<tag k="name" v="Lislefet" />
		<tag k="place" v="locality" />
		<tag k="ssr:stedsnr" v="751985" />
	</node>
	<node id="-321150" lat="59.1437722267" lon="7.52651945219">
		<tag k="name" v="Krossmyr" />
		<tag k="natural" v="wetland" />
		<tag k="ssr:stedsnr" v="690663" />
	</node>
	<node id="-321655" lat="59.0422027814" lon="7.55454721502">
		<tag k="alt_name" v="Bruledbergi" />
		<tag k="name" v="Bruleberga" />
		<tag k="place" v="locality" />
		<tag k="ssr:stedsnr" v="751826" />
	</node>
	<node id="-321141" lat="59.146655553" lon="7.57903333187">
		<tag k="name" v="Vindåsmyrane" />
		<tag k="natural" v="wetland" />
		<tag k="ssr:stedsnr" v="690621" />
	</node>
	<node id="-321136" lat="59.1923861102" lon="7.56581389667">
		<tag k="name" v="Sygardsmyran" />
		<tag k="natural" v="wetland" />
		<tag k="ssr:stedsnr" v="690587" />
	</node>
	<node id="-321129" lat="59.1756611105" lon="7.5186222178">
		<tag k="name" v="Bekkjeberget" />
		<tag k="place" v="locality" />
		<tag k="ssr:stedsnr" v="690562" />
	</node>
	<node id="-321640" lat="59.2374444481" lon="7.55320832627">
		<tag k="name" v="Snipestein" />
		<tag k="natural" v="stone" />
		<tag k="ssr:stedsnr" v="751583" />
	</node>
	<node id="-321638" lat="59.1617388852" lon="7.59126110657">
		<tag k="name" v="Svoin" />
		<tag k="place" v="locality" />
		<tag k="ssr:stedsnr" v="751580" />
	</node>
	<node id="-321635" lat="59.1905222196" lon="7.58785277966">
		<tag k="name" v="Lusemyr" />
		<tag k="natural" v="wetland" />
		<tag k="ssr:stedsnr" v="751570" />
	</node>
	<node id="-321121" lat="59.1103194409" lon="7.45812777453">
		<tag k="name" v="Akslekjærr" />
		<tag k="natural" v="wetland" />
		<tag k="ssr:stedsnr" v="690500" />
	</node>
	<node id="-316512" lat="59.0800583307" lon="7.50461944887">
		<tag k="name" v="Steinestolen" />
		<tag k="natural" v="stone" />
		<tag k="ssr:stedsnr" v="326989" />
	</node>
	<node id="-321117" lat="59.0873666658" lon="7.33857500749">
		<tag k="alt_name" v="Steinslisttåttoni" />
		<tag k="name" v="Steinsliståttone" />
		<tag k="place" v="locality" />
		<tag k="ssr:stedsnr" v="690471" />
	</node>
	<node id="-320317" lat="59.084102778" lon="7.54065832778">
		<tag k="name" v="Mjunemyri" />
		<tag k="natural" v="wetland" />
		<tag k="ssr:stedsnr" v="568999" />
	</node>
	<node id="-322575" lat="59.0361638888" lon="7.52808054703">
		<tag k="name" v="Brattur" />
		<tag k="natural" v="scree" />
		<tag k="ssr:stedsnr" v="872841" />
	</node>
	<node id="-321977" lat="59.2651361092" lon="7.31534999779">
		<tag k="name" v="Gjesløy" />
		<tag k="place" v="locality" />
		<tag k="ssr:stedsnr" v="791451" />
	</node>
	<node id="-321620" lat="59.1352500032" lon="7.55774444551">
		<tag k="name" v="Gilsmyra" />
		<tag k="natural" v="wetland" />
		<tag k="ssr:stedsnr" v="751527" />
	</node>
	<node id="-321105" lat="59.1444333314" lon="7.45232500496">
		<tag k="landuse" v="meadow" />
		<tag k="name" v="Tverrgrødde" />
		<tag k="ssr:stedsnr" v="690419" />
	</node>
	<node id="-321615" lat="59.1704916663" lon="7.50829445213">
		<tag k="name" v="Mjåmyrene" />
		<tag k="natural" v="wetland" />
		<tag k="ssr:stedsnr" v="751514" />
	</node>
	<node id="-321101" lat="59.1800916691" lon="7.45056667092">
		<tag k="name" v="Åsmundsholt" />
		<tag k="place" v="locality" />
		<tag k="ssr:stedsnr" v="690380" />
	</node>
	<node id="-316489" lat="59.1819444478" lon="7.61611110397">
		<tag k="name" v="Åsmundssnipe" />
		<tag k="natural" v="stone" />
		<tag k="ssr:stedsnr" v="326717" />
	</node>
	<node id="-316488" lat="59.1998944455" lon="7.67615277518">
		<tag k="historic" v="shieling" />
		<tag k="name" v="Tirngota" />
		<tag k="place" v="locality" />
		<tag k="ssr:stedsnr" v="326713" />
	</node>
	<node id="-321094" lat="59.3145138855" lon="7.48656388371">
		<tag k="name" v="Niklossismyrane" />
		<tag k="natural" v="wetland" />
		<tag k="ssr:stedsnr" v="689819" />
	</node>
	<node id="-316485" lat="59.0323333318" lon="7.56031388647">
		<tag k="alt_name" v="Damestykki" />
		<tag k="name" v="Dammestykki" />
		<tag k="place" v="locality" />
		<tag k="ssr:stedsnr" v="326668" />
	</node>
	<node id="-320697" lat="59.0895361095" lon="7.47120832645">
		<tag k="name" v="Stavetjørnsmyrane" />
		<tag k="natural" v="wetland" />
		<tag k="ssr:stedsnr" v="629403" />
	</node>
	<node id="-321601" lat="59.217852777" lon="7.4746111103">
		<tag k="name" v="Raudekleiv" />
		<tag k="natural" v="wetland" />
		<tag k="ssr:stedsnr" v="751309" />
	</node>
	<node id="-321088" lat="59.3393249974" lon="7.53714444267">
		<tag k="name" v="Storrstein" />
		<tag k="natural" v="stone" />
		<tag k="ssr:stedsnr" v="689740" />
	</node>
	<node id="-321599" lat="59.1913333298" lon="7.52261110558">
		<tag k="name" v="Harstadberg" />
		<tag k="place" v="locality" />
		<tag k="ssr:stedsnr" v="751021" />
	</node>
	<node id="-316478" lat="59.142538885" lon="7.53104999594">
		<tag k="name" v="Doneberg" />
		<tag k="place" v="locality" />
		<tag k="ssr:stedsnr" v="326646" />
	</node>
	<node id="-318522" lat="59.2223499976" lon="7.53554444582">
		<tag k="landuse" v="meadow" />
		<tag k="name" v="Høssestøyl" />
		<tag k="ssr:stedsnr" v="174861" />
	</node>
	<node id="-322104" lat="59.2168055556" lon="7.54826388846">
		<tag k="name" v="Prestækra" />
		<tag k="place" v="locality" />
		<tag k="ssr:stedsnr" v="812689" />
	</node>
	<node id="-321591" lat="59.2872416707" lon="7.5321805633">
		<tag k="name" v="Røyrtveit" />
		<tag k="natural" v="wetland" />
		<tag k="ssr:stedsnr" v="750816" />
	</node>
	<node id="-322584" lat="59.2146416657" lon="7.47053611084">
		<tag k="name" v="Flåssa" />
		<tag k="natural" v="wetland" />
		<tag k="ssr:stedsnr" v="873279" />
	</node>
	<node id="-320348" lat="59.2187388885" lon="7.56124721399">
		<tag k="name" v="Jonsbu" />
		<tag k="place" v="locality" />
		<tag k="ssr:stedsnr" v="569664" />
	</node>
	<node id="-320689" lat="59.1357388864" lon="7.48631666247">
		<tag k="name" v="Nilsemyri" />
		<tag k="natural" v="wetland" />
		<tag k="ssr:stedsnr" v="629358" />
	</node>
	<node id="-322084" lat="59.1246916686" lon="7.4993527696">
		<tag k="name" v="Gaupestein" />
		<tag k="natural" v="stone" />
		<tag k="ssr:stedsnr" v="812605" />
	</node>
	<node id="-322079" lat="59.2166694463" lon="7.63411666643">
		<tag k="name" v="Skansen" />
		<tag k="natural" v="wetland" />
		<tag k="ssr:stedsnr" v="812579" />
	</node>
	<node id="-322590" lat="59.2063999971" lon="7.57408610328">
		<tag k="landuse" v="meadow" />
		<tag k="name" v="Skrolle" />
		<tag k="ssr:stedsnr" v="873592" />
	</node>
	<node id="-321563" lat="59.2058722242" lon="7.55886944517">
		<tag k="name" v="Sireldurdi" />
		<tag k="natural" v="scree" />
		<tag k="ssr:stedsnr" v="751692" />
	</node>
	<node id="-322106" lat="59.2113972212" lon="7.55214444119">
		<tag k="name" v="Lauvåsmyri" />
		<tag k="natural" v="wetland" />
		<tag k="ssr:stedsnr" v="812694" />
	</node>
	<node id="-316439" lat="59.115077775" lon="7.48447500695">
		<tag k="name" v="Espetveitsmyri" />
		<tag k="natural" v="wetland" />
		<tag k="ssr:stedsnr" v="326471" />
	</node>
	<node id="-322582" lat="59.0960444459" lon="7.578072223">
		<tag k="name" v="Svinegluggmyra" />
		<tag k="natural" v="wetland" />
		<tag k="ssr:stedsnr" v="872986" />
	</node>
	<node id="-322069" lat="59.0694611097" lon="7.76294722209">
		<tag k="name" v="Sundmyrane" />
		<tag k="natural" v="wetland" />
		<tag k="ssr:stedsnr" v="812543" />
	</node>
	<node id="-322580" lat="59.0905055593" lon="7.52964722812">
		<tag k="name" v="Bjørnmyr" />
		<tag k="natural" v="wetland" />
		<tag k="ssr:stedsnr" v="872975" />
	</node>
	<node id="-316944" lat="59.2154583298" lon="7.56982778397">
		<tag k="name" v="Eptesetmyrane" />
		<tag k="natural" v="wetland" />
		<tag k="ssr:stedsnr" v="387618" />
	</node>
	<node id="-316943" lat="59.1451666634" lon="7.50581944887">
		<tag k="landuse" v="meadow" />
		<tag k="name" v="Kruslegrøde" />
		<tag k="ssr:stedsnr" v="387608" />
	</node>
	<node id="-322060" lat="59.0719277744" lon="7.48523888363">
		<tag k="landuse" v="meadow" />
		<tag k="name" v="Katri-slåtta" />
		<tag k="ssr:stedsnr" v="812456" />
	</node>
	<node id="-321547" lat="59.266069444" lon="7.4662555512">
		<tag k="name" v="Fådapane" />
		<tag k="natural" v="wetland" />
		<tag k="ssr:stedsnr" v="750191" />
	</node>
	<node id="-322567" lat="59.1091583356" lon="7.51829999548">
		<tag k="name" v="Haugane" />
		<tag k="place" v="locality" />
		<tag k="ssr:stedsnr" v="872793" />
	</node>
	<node id="-322049" lat="59.2765861093" lon="7.51338889184">
		<tag k="name" v="Fiskeløys" />
		<tag k="natural" v="wetland" />
		<tag k="ssr:stedsnr" v="811799" />
	</node>
	<node id="-316929" lat="59.1387722191" lon="7.58029443698">
		<tag k="name" v="Kleivmyrane" />
		<tag k="natural" v="wetland" />
		<tag k="ssr:stedsnr" v="387535" />
	</node>
</osm>
