<?xml version="1.0" encoding="UTF-8"?>
<osm generator="osmapis" version="0.6">
	<node id="-320315" lat="59.0591361137" lon="7.5862944509">
		<tag k="name" v="Timdalsbekken" />
		<tag k="ssr:stedsnr" v="508860" />
		<tag k="waterway" v="stream" />
	</node>
	<node id="-321524" lat="59.254394447" lon="7.54002222792">
		<tag k="name" v="Stabbenes" />
		<tag k="natural" v="cape" />
		<tag k="ssr:stedsnr" v="689784" />
	</node>
	<node id="-321522" lat="59.3486750004" lon="7.51004443908">
		<tag k="name" v="Leirbekken" />
		<tag k="ssr:stedsnr" v="689767" />
		<tag k="waterway" v="stream" />
	</node>
	<node id="-321517" lat="59.2577416649" lon="7.47137222092">
		<tag k="name" v="Fodtveitstjørn" />
		<tag k="natural" v="water" />
		<tag k="ssr:stedsnr" v="689253" />
	</node>
	<node id="-321516" lat="59.3060416627" lon="7.33206944156">
		<tag k="name" v="Søndre Hisåni" />
		<tag k="ssr:stedsnr" v="689195" />
		<tag k="waterway" v="river" />
	</node>
	<node id="-321513" lat="59.2793388869" lon="7.39930832633">
		<tag k="name" v="Gyhylen" />
		<tag k="place" v="locality" />
		<tag k="ssr:stedsnr" v="689154" />
	</node>
	<node id="-321512" lat="59.2708277751" lon="7.42674166762">
		<tag k="name" v="Heddenes" />
		<tag k="natural" v="cape" />
		<tag k="ssr:stedsnr" v="689150" />
	</node>
	<node id="-321511" lat="59.273344447" lon="7.45383888488">
		<tag k="name" v="Vormeviki" />
		<tag k="natural" v="bay" />
		<tag k="ssr:stedsnr" v="689145" />
	</node>
	<node id="-321509" lat="59.2861333371" lon="7.34904167001">
		<tag k="name" v="Oddetjørni" />
		<tag k="natural" v="water" />
		<tag k="old_name" v="Oddetjørn" />
		<tag k="ssr:stedsnr" v="670721" />
	</node>
	<node id="-321508" lat="59.2993388872" lon="7.68875000622">
		<tag k="name" v="Lisletjørn" />
		<tag k="natural" v="water" />
		<tag k="ssr:stedsnr" v="670718" />
	</node>
	<node id="-321504" lat="59.0188111147" lon="7.26419167429">
		<tag k="name" v="Gunnarsvatnet" />
		<tag k="natural" v="water" />
		<tag k="ssr:stedsnr" v="669987" />
	</node>
	<node id="-321503" lat="59.0944222184" lon="7.18582778262">
		<tag k="name" v="Skarketjørni" />
		<tag k="natural" v="bay" />
		<tag k="ssr:stedsnr" v="669914" />
	</node>
	<node id="-321502" lat="59.2350027742" lon="7.22186389315">
		<tag k="name" v="Dei lange tjørnin" />
		<tag k="natural" v="water" />
		<tag k="ssr:stedsnr" v="669776" />
	</node>
	<node id="-321500" lat="59.2491527798" lon="7.16083889046">
		<tag k="name" v="Ljosåvatnet" />
		<tag k="natural" v="water" />
		<tag k="ssr:stedsnr" v="669770" />
	</node>
	<node id="-321499" lat="59.2247250036" lon="7.09956388448">
		<tag k="name" v="Annatjørni" />
		<tag k="natural" v="water" />
		<tag k="ssr:stedsnr" v="669767" />
	</node>
	<node id="-321497" lat="59.2331138868" lon="7.09227778138">
		<tag k="name" v="Fossen" />
		<tag k="natural" v="waterfall" />
		<tag k="ssr:stedsnr" v="669764" />
	</node>
	<node id="-321496" lat="59.3080611097" lon="7.63190554841">
		<tag k="alt_name" v="Hisskardåni" />
		<tag k="name" v="Hiskardåni" />
		<tag k="ssr:stedsnr" v="669744" />
		<tag k="waterway" v="stream" />
	</node>
	<node id="-321132" lat="59.0588444465" lon="7.37723333005">
		<tag k="name" v="Greini" />
		<tag k="natural" v="cape" />
		<tag k="ssr:stedsnr" v="629412" />
	</node>
	<node id="-321493" lat="59.0663722194" lon="7.67215000018">
		<tag k="name" v="Hustjørn" />
		<tag k="natural" v="water" />
		<tag k="ssr:stedsnr" v="669703" />
	</node>
	<node id="-321491" lat="59.0590472231" lon="7.42343055781">
		<tag k="alt_name" v="Øydeskarstjørn" />
		<tag k="name" v="Øydeskardtjørn" />
		<tag k="natural" v="water" />
		<tag k="ssr:stedsnr" v="669700" />
	</node>
	<node id="-321487" lat="59.1268805519" lon="7.5991416728">
		<tag k="name" v="Eksvassåni" />
		<tag k="ssr:stedsnr" v="669680" />
		<tag k="waterway" v="stream" />
	</node>
	<node id="-321486" lat="59.1333638908" lon="7.5751500028">
		<tag k="name" v="Borkebutjørn" />
		<tag k="natural" v="water" />
		<tag k="ssr:stedsnr" v="669678" />
	</node>
	<node id="-317389" lat="59.0347444422" lon="7.51780278557">
		<tag k="name" v="Bjørndalsbekken" />
		<tag k="ssr:stedsnr" v="398520" />
		<tag k="waterway" v="stream" />
	</node>
	<node id="-321480" lat="59.1134249956" lon="7.62157778506">
		<tag k="name" v="Øydetjørn" />
		<tag k="natural" v="water" />
		<tag k="ssr:stedsnr" v="669649" />
	</node>
	<node id="-321474" lat="59.1781888881" lon="7.4820361101">
		<tag k="alt_name" v="Hylesdalsåne" />
		<tag k="name" v="Hylesdalsåni" />
		<tag k="ssr:stedsnr" v="669631" />
		<tag k="waterway" v="river" />
	</node>
	<node id="-322891" lat="59.2651999965" lon="7.62978333208">
		<tag k="name" v="Grytingsbekken" />
		<tag k="ssr:stedsnr" v="852638" />
		<tag k="waterway" v="stream" />
	</node>
	<node id="-317374" lat="59.0801444411" lon="7.76948611052">
		<tag k="alt_name" v="Sollitjørni" />
		<tag k="name" v="Sollitjørn" />
		<tag k="natural" v="water" />
		<tag k="ssr:stedsnr" v="387607" />
	</node>
	<node id="-321469" lat="59.275044448" lon="7.32632499283">
		<tag k="name" v="Storrfjøddetjønnan" />
		<tag k="natural" v="water" />
		<tag k="ssr:stedsnr" v="669495" />
	</node>
	<node id="-321468" lat="59.0774833321" lon="7.74998611459">
		<tag k="name" v="Ringsholmen" />
		<tag k="place" v="islet" />
		<tag k="ssr:stedsnr" v="669469" />
	</node>
	<node id="-317371" lat="59.0975805541" lon="7.74311389002">
		<tag k="name" v="Skakketjørn" />
		<tag k="natural" v="water" />
		<tag k="ssr:stedsnr" v="387598" />
	</node>
	<node id="-317370" lat="59.086341664" lon="7.77637777848">
		<tag k="name" v="Heddertjørn" />
		<tag k="natural" v="water" />
		<tag k="ssr:stedsnr" v="387592" />
	</node>
	<node id="-317369" lat="59.1335805519" lon="7.74915555015">
		<tag k="name" v="Langetjørn" />
		<tag k="natural" v="water" />
		<tag k="ssr:stedsnr" v="387589" />
	</node>
	<node id="-317368" lat="59.1872906804" lon="7.60763404276">
		<tag k="name" v="Mjeltestjørn" />
		<tag k="natural" v="water" />
		<tag k="ssr:stedsnr" v="387579" />
	</node>
	<node id="-321463" lat="59.1286388868" lon="7.22961388369">
		<tag k="name" v="Risåni" />
		<tag k="ssr:stedsnr" v="669833" />
		<tag k="waterway" v="river" />
	</node>
	<node id="-321462" lat="59.1682277742" lon="7.24975278525">
		<tag k="name" v="Fossebrotet" />
		<tag k="place" v="locality" />
		<tag k="ssr:stedsnr" v="669830" />
	</node>
	<node id="-317365" lat="59.0639888888" lon="7.71714166198">
		<tag k="name" v="Romuntjørn nedre" />
		<tag k="natural" v="water" />
		<tag k="ssr:stedsnr" v="387545" />
	</node>
	<node id="-317363" lat="59.243444448" lon="7.68274722837">
		<tag k="name" v="Gåmålsbøbekken" />
		<tag k="ssr:stedsnr" v="387539" />
		<tag k="waterway" v="stream" />
	</node>
	<node id="-317360" lat="59.0668944427" lon="7.74612500309">
		<tag k="name" v="Djupedalspytten" />
		<tag k="natural" v="water" />
		<tag k="ssr:stedsnr" v="387534" />
		<tag k="water" v="pond" />
	</node>
	<node id="-317359" lat="59.04789444" lon="7.38542222385">
		<tag k="name" v="Rysstad Jarbutjørn" />
		<tag k="natural" v="water" />
		<tag k="ssr:stedsnr" v="387521" />
	</node>
	<node id="-321454" lat="59.0987722221" lon="7.46997500738">
		<tag k="alt_name" v="Faråna" />
		<tag k="name" v="Faråni" />
		<tag k="ssr:stedsnr" v="669243" />
		<tag k="waterway" v="river" />
	</node>
	<node id="-321453" lat="59.0388805592" lon="7.38898889324">
		<tag k="name" v="Djupetjørn" />
		<tag k="natural" v="water" />
		<tag k="ssr:stedsnr" v="669239" />
	</node>
	<node id="-317356" lat="59.0490861137" lon="7.45674722649">
		<tag k="name" v="Hommetjørn" />
		<tag k="natural" v="water" />
		<tag k="ssr:stedsnr" v="387503" />
	</node>
	<node id="-323313" lat="59.10179722" lon="7.40903611796">
		<tag k="name" v="Bjørnevassåni" />
		<tag k="ssr:stedsnr" v="912673" />
		<tag k="waterway" v="stream" />
	</node>
	<node id="-317354" lat="59.0701197482" lon="7.71540223712">
		<tag k="name" v="Løyetjørn" />
		<tag k="natural" v="water" />
		<tag k="ssr:stedsnr" v="387425" />
	</node>
	<node id="-317351" lat="59.0832500012" lon="7.54277499325">
		<tag k="name" v="Holebekk" />
		<tag k="ssr:stedsnr" v="386996" />
		<tag k="waterway" v="stream" />
	</node>
	<node id="-317348" lat="59.0957750043" lon="7.53636110513">
		<tag k="name" v="Hundehomen" />
		<tag k="place" v="islet" />
		<tag k="ssr:stedsnr" v="386968" />
	</node>
	<node id="-317346" lat="59.0732694405" lon="7.497638888">
		<tag k="name" v="Myrbubekken" />
		<tag k="ssr:stedsnr" v="386866" />
		<tag k="waterway" v="stream" />
	</node>
	<node id="-317342" lat="59.0723249984" lon="7.57024444929">
		<tag k="name" v="Vetrestoi" />
		<tag k="natural" v="beach" />
		<tag k="ssr:stedsnr" v="386853" />
	</node>
	<node id="-317338" lat="59.2826555586" lon="7.49360555773">
		<tag k="name" v="Gloppefossen" />
		<tag k="natural" v="waterfall" />
		<tag k="ssr:stedsnr" v="386825" />
	</node>
	<node id="-317335" lat="59.3421638857" lon="7.51594722854">
		<tag k="name" v="Badstogodden" />
		<tag k="natural" v="cape" />
		<tag k="ssr:stedsnr" v="386799" />
	</node>
	<node id="-317334" lat="59.334213888" lon="7.50680277969">
		<tag k="name" v="Ryseklyvi" />
		<tag k="old_name" v="Risklyvi" />
		<tag k="place" v="islet" />
		<tag k="ssr:stedsnr" v="386794" />
	</node>
	<node id="-317333" lat="59.0463194468" lon="7.56693611443">
		<tag k="name" v="Blikeskjeret" />
		<tag k="place" v="islet" />
		<tag k="ssr:stedsnr" v="386793" />
	</node>
	<node id="-317329" lat="59.2313111072" lon="7.5290305509">
		<tag k="name" v="Honnevje" />
		<tag k="natural" v="water" />
		<tag k="ssr:stedsnr" v="386624" />
		<tag k="water" v="lake" />
	</node>
	<node id="-317326" lat="59.1403388931" lon="7.53172222605">
		<tag k="name" v="Heddenes" />
		<tag k="natural" v="cape" />
		<tag k="ssr:stedsnr" v="386619" />
	</node>
	<node id="-317325" lat="59.2290555562" lon="7.53616111822">
		<tag k="name" v="Stampekvisli" />
		<tag k="place" v="locality" />
		<tag k="ssr:stedsnr" v="386608" />
	</node>
	<node id="-317319" lat="59.1369500017" lon="7.50147499189">
		<tag k="name" v="Kåvåna" />
		<tag k="ssr:stedsnr" v="386566" />
		<tag k="waterway" v="stream" />
	</node>
	<node id="-323458" lat="59.0294444472" lon="7.54747222287">
		<tag k="name" v="Kjelda" />
		<tag k="place" v="locality" />
		<tag k="ssr:stedsnr" v="945110" />
	</node>
	<node id="-317312" lat="59.121636114" lon="7.54479166255">
		<tag k="name" v="Revetjørn" />
		<tag k="natural" v="water" />
		<tag k="ssr:stedsnr" v="386520" />
	</node>
	<node id="-323454" lat="59.0500611144" lon="7.46005278537">
		<tag k="name" v="Grolifossen" />
		<tag k="natural" v="waterfall" />
		<tag k="ssr:stedsnr" v="934415" />
	</node>
	<node id="-323452" lat="59.2183805515" lon="7.48749722373">
		<tag k="alt_name" v="Kvennebekken;Kvennbekken" />
		<tag k="name" v="Kvernbekken" />
		<tag k="ssr:stedsnr" v="934247" />
		<tag k="waterway" v="stream" />
	</node>
	<node id="-323447" lat="59.0748583349" lon="7.5768027796">
		<tag k="name" v="Furenes" />
		<tag k="natural" v="cape" />
		<tag k="ssr:stedsnr" v="933861" />
	</node>
	<node id="-323444" lat="59.0400027792" lon="7.54514721411">
		<tag k="name" v="Bergebekk" />
		<tag k="ssr:stedsnr" v="933837" />
		<tag k="waterway" v="stream" />
	</node>
	<node id="-323442" lat="59.0439638874" lon="7.51309166582">
		<tag k="name" v="Langetange" />
		<tag k="natural" v="cape" />
		<tag k="ssr:stedsnr" v="933829" />
	</node>
	<node id="-323440" lat="59.0422777771" lon="7.51677500769">
		<tag k="name" v="Urestrondi" />
		<tag k="natural" v="beach" />
		<tag k="ssr:stedsnr" v="933828" />
	</node>
	<node id="-323439" lat="59.0362888931" lon="7.55705555784">
		<tag k="name" v="Bestelandhølen" />
		<tag k="place" v="locality" />
		<tag k="ssr:stedsnr" v="933823" />
	</node>
	<node id="-323438" lat="59.0513833352" lon="7.59150833836">
		<tag k="name" v="Gomelidjuvet" />
		<tag k="ssr:stedsnr" v="933810" />
		<tag k="waterway" v="stream" />
	</node>
	<node id="-323437" lat="59.1122527781" lon="7.50958610355">
		<tag k="name" v="Evja" />
		<tag k="natural" v="bay" />
		<tag k="ssr:stedsnr" v="933800" />
	</node>
	<node id="-320145" lat="58.9694749977" lon="7.23580000382">
		<tag k="name" v="Olgrimsåni" />
		<tag k="ssr:stedsnr" v="486216" />
		<tag k="waterway" v="stream" />
	</node>
	<node id="-323425" lat="59.1452138855" lon="7.54236389617">
		<tag k="name" v="Kvæasåne" />
		<tag k="ssr:stedsnr" v="933662" />
		<tag k="waterway" v="river" />
	</node>
	<node id="-323424" lat="59.1109777786" lon="7.77199444972">
		<tag k="alt_name" v="Hungsvassåni" />
		<tag k="name" v="Hongsvassåni" />
		<tag k="ssr:stedsnr" v="933658" />
		<tag k="waterway" v="river" />
	</node>
	<node id="-321168" lat="59.1563749989" lon="7.5276527859">
		<tag k="name" v="Stigenes" />
		<tag k="natural" v="cape" />
		<tag k="ssr:stedsnr" v="629629" />
	</node>
	<node id="-323421" lat="59.100508332" lon="7.79953333744">
		<tag k="name" v="Nutevatnet (midtre)" />
		<tag k="natural" v="water" />
		<tag k="ssr:stedsnr" v="933655" />
		<tag k="water" v="lake" />
	</node>
	<node id="-323420" lat="59.2319444436" lon="7.49152222521">
		<tag k="name" v="Dåsneset" />
		<tag k="natural" v="cape" />
		<tag k="ssr:stedsnr" v="933653" />
	</node>
	<node id="-323419" lat="59.0777888848" lon="7.74859166113">
		<tag k="name" v="Ringsøyane" />
		<tag k="place" v="island" />
		<tag k="ssr:stedsnr" v="933647" />
	</node>
	<node id="-317269" lat="59.0275527749" lon="7.26106666371">
		<tag k="name" v="Ivlungsvotni" />
		<tag k="natural" v="water" />
		<tag k="ssr:stedsnr" v="366974" />
		<tag k="water" v="lake" />
	</node>
	<node id="-323406" lat="59.1904250032" lon="7.52058333577">
		<tag k="name" v="Hallandsfoss" />
		<tag k="natural" v="waterfall" />
		<tag k="ssr:stedsnr" v="933569" />
	</node>
	<node id="-317257" lat="59.0964027806" lon="7.35603610685">
		<tag k="name" v="Rennevassåni" />
		<tag k="ssr:stedsnr" v="366649" />
		<tag k="waterway" v="stream" />
	</node>
	<node id="-323399" lat="59.1050861132" lon="7.72377500148">
		<tag k="name" v="Heddevasselvi" />
		<tag k="old_name" v="Heddevaselvi" />
		<tag k="ssr:stedsnr" v="933538" />
		<tag k="waterway" v="river" />
	</node>
	<node id="-317253" lat="59.1051611071" lon="7.71005833898">
		<tag k="alt_name" v="Lislestøyltjørn" />
		<tag k="name" v="Lislestøyltjørni" />
		<tag k="natural" v="water" />
		<tag k="ssr:stedsnr" v="366629" />
	</node>
	<node id="-317251" lat="59.3592499985" lon="7.53188332711">
		<tag k="alt_name" v="Reinåne" />
		<tag k="name" v="Reinsstøylsåni" />
		<tag k="old_name" v="Heisstølsåni" />
		<tag k="ssr:stedsnr" v="366589" />
		<tag k="waterway" v="stream" />
	</node>
	<node id="-317250" lat="59.3452694456" lon="7.53167500502">
		<tag k="alt_name" v="Bjørnevatn, store" />
		<tag k="name" v="Store Bjørnevatn" />
		<tag k="natural" v="water" />
		<tag k="ssr:stedsnr" v="366575" />
		<tag k="water" v="lake" />
	</node>
	<node id="-323393" lat="59.0776500042" lon="7.39848333121">
		<tag k="name" v="Kvæavebekken" />
		<tag k="ssr:stedsnr" v="933475" />
		<tag k="waterway" v="stream" />
	</node>
	<node id="-323390" lat="59.0753194434" lon="7.63402222451">
		<tag k="name" v="Soddetjørnsbekken" />
		<tag k="ssr:stedsnr" v="933467" />
		<tag k="waterway" v="stream" />
	</node>
	<node id="-323389" lat="59.0578749997" lon="7.61770556138">
		<tag k="name" v="Svartepytt" />
		<tag k="natural" v="water" />
		<tag k="ssr:stedsnr" v="933463" />
	</node>
	<node id="-323386" lat="59.0123666668" lon="7.43640555826">
		<tag k="alt_name" v="Krokevatnet" />
		<tag k="name" v="Heimre Krokevatn" />
		<tag k="natural" v="water" />
		<tag k="ssr:stedsnr" v="933454" />
		<tag k="water" v="lake" />
	</node>
	<node id="-323384" lat="59.0669472265" lon="7.63290000198">
		<tag k="name" v="Kvinnåni" />
		<tag k="ssr:stedsnr" v="933442" />
		<tag k="waterway" v="stream" />
	</node>
	<node id="-323383" lat="59.0694000015" lon="7.38833056066">
		<tag k="name" v="Breivassbekken" />
		<tag k="ssr:stedsnr" v="933441" />
		<tag k="waterway" v="river" />
	</node>
	<node id="-323382" lat="59.060288893" lon="7.36766943952">
		<tag k="name" v="Raudeåni" />
		<tag k="ssr:stedsnr" v="933426" />
		<tag k="waterway" v="river" />
	</node>
	<node id="-317237" lat="59.3001055564" lon="7.30738332592">
		<tag k="name" v="Hisåni" />
		<tag k="ssr:stedsnr" v="366470" />
		<tag k="waterway" v="river" />
	</node>
	<node id="-317236" lat="59.2132277801" lon="7.71928332702">
		<tag k="alt_name" v="Grimmsviki" />
		<tag k="name" v="Grimsviki" />
		<tag k="natural" v="bay" />
		<tag k="ssr:stedsnr" v="366342" />
	</node>
	<node id="-317235" lat="59.0328250002" lon="7.55070833065">
		<tag k="alt_name" v="Kvennåni" />
		<tag k="name" v="Kvernåni" />
		<tag k="ssr:stedsnr" v="366270" />
		<tag k="waterway" v="river" />
	</node>
	<node id="-317234" lat="59.2322638888" lon="7.44645554862">
		<tag k="alt_name" v="Håvestøylstjørn" />
		<tag k="name" v="Håvestøyltjørni" />
		<tag k="natural" v="water" />
		<tag k="ssr:stedsnr" v="365973" />
	</node>
	<node id="-317232" lat="59.1018777745" lon="7.16023610394">
		<tag k="name" v="Ånesund" />
		<tag k="natural" v="strait" />
		<tag k="ssr:stedsnr" v="365925" />
	</node>
	<node id="-317230" lat="59.1838166648" lon="7.30419999635">
		<tag k="name" v="Låghellervatnet" />
		<tag k="natural" v="water" />
		<tag k="ssr:stedsnr" v="365890" />
	</node>
	<node id="-317229" lat="59.1852916626" lon="7.3406250022">
		<tag k="name" v="Svelingsløkin" />
		<tag k="place" v="locality" />
		<tag k="ssr:stedsnr" v="365891" />
	</node>
	<node id="-317228" lat="59.1816749969" lon="7.32170278142">
		<tag k="name" v="Svelingsåni" />
		<tag k="ssr:stedsnr" v="365888" />
		<tag k="waterway" v="river" />
	</node>
	<node id="-321159" lat="59.1407388852" lon="7.56097222431">
		<tag k="name" v="Gilstjørn" />
		<tag k="natural" v="water" />
		<tag k="ssr:stedsnr" v="629575" />
	</node>
	<node id="-323362" lat="59.3417444407" lon="7.49664723035">
		<tag k="name" v="Leitestjørn" />
		<tag k="natural" v="water" />
		<tag k="ssr:stedsnr" v="932765" />
	</node>
	<node id="-323361" lat="59.3080305513" lon="7.51023333103">
		<tag k="name" v="Råsetjørn" />
		<tag k="natural" v="water" />
		<tag k="ssr:stedsnr" v="932723" />
	</node>
	<node id="-317216" lat="59.0793222227" lon="7.51521110947">
		<tag k="alt_name" v="Kvennåni" />
		<tag k="name" v="Kvernåni" />
		<tag k="ssr:stedsnr" v="365758" />
		<tag k="waterway" v="stream" />
	</node>
	<node id="-317215" lat="59.0751250001" lon="7.6782472259">
		<tag k="alt_name" v="Mjåvatn" />
		<tag k="name" v="Mjåvatnet" />
		<tag k="natural" v="water" />
		<tag k="ssr:stedsnr" v="365753" />
		<tag k="water" v="lake" />
	</node>
	<node id="-323358" lat="59.344338886" lon="7.50830833609">
		<tag k="alt_name" v="Tørvåni" />
		<tag k="name" v="Tyrvåne" />
		<tag k="ssr:stedsnr" v="932662" />
		<tag k="waterway" v="stream" />
	</node>
	<node id="-317213" lat="59.0450583351" lon="7.51684722674">
		<tag k="alt_name" v="Myklevatn" />
		<tag k="name" v="Myklevatnet" />
		<tag k="natural" v="water" />
		<tag k="ssr:stedsnr" v="365715" />
	</node>
	<node id="-317210" lat="59.1367083293" lon="7.6843861059">
		<tag k="alt_name" v="Buetjørn" />
		<tag k="name" v="Butjørn" />
		<tag k="natural" v="water" />
		<tag k="ssr:stedsnr" v="365682" />
	</node>
	<node id="-323353" lat="59.2540055538" lon="7.46938611359">
		<tag k="name" v="Hagefoss" />
		<tag k="natural" v="waterfall" />
		<tag k="ssr:stedsnr" v="932235" />
	</node>
	<node id="-317206" lat="59.2191166626" lon="7.62055000504">
		<tag k="alt_name" v="Hævatn" />
		<tag k="name" v="Hævatnet" />
		<tag k="natural" v="water" />
		<tag k="ssr:stedsnr" v="365560" />
	</node>
	<node id="-323346" lat="59.289922219" lon="7.48476389087">
		<tag k="name" v="Brakamotjørn" />
		<tag k="natural" v="water" />
		<tag k="ssr:stedsnr" v="932139" />
	</node>
	<node id="-317201" lat="59.0671833344" lon="7.7614749997">
		<tag k="alt_name" v="Gunhildstjørn" />
		<tag k="name" v="Gunnhildtjørnane" />
		<tag k="natural" v="water" />
		<tag k="ssr:stedsnr" v="365476" />
	</node>
	<node id="-317200" lat="59.136436114" lon="7.72849167215">
		<tag k="name" v="Krossvatn" />
		<tag k="natural" v="water" />
		<tag k="ssr:stedsnr" v="365423" />
		<tag k="water" v="lake" />
	</node>
	<node id="-323343" lat="59.2954805537" lon="7.68110000192">
		<tag k="name" v="Storetjørn" />
		<tag k="natural" v="water" />
		<tag k="ssr:stedsnr" v="913692" />
	</node>
	<node id="-317198" lat="59.0452027802" lon="7.6371027824">
		<tag k="alt_name" v="Rjuvvatn, nedre;Rjuvatn nedre" />
		<tag k="name" v="Nedre Rjuvvatn" />
		<tag k="natural" v="water" />
		<tag k="ssr:stedsnr" v="365277" />
	</node>
	<node id="-323340" lat="59.0262499996" lon="7.32436389115">
		<tag k="name" v="Reistjørn" />
		<tag k="natural" v="water" />
		<tag k="ssr:stedsnr" v="912977" />
	</node>
	<node id="-317195" lat="58.9765055588" lon="7.25687499813">
		<tag k="name" v="Sveinstjørn" />
		<tag k="natural" v="water" />
		<tag k="ssr:stedsnr" v="365225" />
	</node>
	<node id="-323337" lat="59.0999000017" lon="7.22658889728">
		<tag k="name" v="Skrubbsåni" />
		<tag k="ssr:stedsnr" v="912924" />
		<tag k="waterway" v="river" />
	</node>
	<node id="-323335" lat="59.0569027743" lon="7.24395833286">
		<tag k="name" v="Kyrkjenostjørnin" />
		<tag k="natural" v="water" />
		<tag k="ssr:stedsnr" v="912896" />
	</node>
	<node id="-323334" lat="59.0611527805" lon="7.20069999765">
		<tag k="name" v="Hallvorstjørn" />
		<tag k="natural" v="water" />
		<tag k="ssr:stedsnr" v="912893" />
	</node>
	<node id="-323331" lat="59.1860999998" lon="7.13502221559">
		<tag k="name" v="Tindevatni" />
		<tag k="natural" v="water" />
		<tag k="ssr:stedsnr" v="912870" />
	</node>
	<node id="-323330" lat="59.2043750041" lon="7.1699138854">
		<tag k="name" v="Revsvatnet" />
		<tag k="natural" v="water" />
		<tag k="ssr:stedsnr" v="912860" />
		<tag k="water" v="lake" />
	</node>
	<node id="-323329" lat="59.2038888913" lon="7.31895278428">
		<tag k="alt_name" v="Svartetjørni, øvre" />
		<tag k="name" v="Øvre Svartetjørni" />
		<tag k="natural" v="water" />
		<tag k="ssr:stedsnr" v="912858" />
	</node>
	<node id="-323323" lat="59.0722277791" lon="7.57867221601">
		<tag k="name" v="Straumsevja" />
		<tag k="natural" v="bay" />
		<tag k="ssr:stedsnr" v="912728" />
	</node>
	<node id="-323322" lat="59.0711027767" lon="7.40606111041">
		<tag k="alt_name" v="Stutelitjørnin" />
		<tag k="name" v="Stutelitjørni" />
		<tag k="natural" v="water" />
		<tag k="ssr:stedsnr" v="912725" />
	</node>
	<node id="-319225" lat="59.0610472243" lon="7.57347778573">
		<tag k="name" v="Sandevja" />
		<tag k="natural" v="bay" />
		<tag k="ssr:stedsnr" v="205871" />
	</node>
	<node id="-319221" lat="59.0363833319" lon="7.50513888299">
		<tag k="name" v="Kringletjørn" />
		<tag k="natural" v="water" />
		<tag k="ssr:stedsnr" v="205846" />
	</node>
	<node id="-319220" lat="59.0334916646" lon="7.52375834206">
		<tag k="name" v="Djuvstveitsbekken" />
		<tag k="ssr:stedsnr" v="205839" />
		<tag k="waterway" v="stream" />
	</node>
	<node id="-323315" lat="59.2656444415" lon="7.69103056083">
		<tag k="name" v="Lisle Gjuvvatn" />
		<tag k="natural" v="water" />
		<tag k="old_name" v="Gjuvvatnet, litle" />
		<tag k="ssr:stedsnr" v="912688" />
	</node>
	<node id="-319217" lat="59.1126416644" lon="7.51024999296">
		<tag k="name" v="Nesodden" />
		<tag k="natural" v="cape" />
		<tag k="old_name" v="Nesooden" />
		<tag k="ssr:stedsnr" v="205799" />
	</node>
	<node id="-319216" lat="59.1175600385" lon="7.56174750305">
		<tag k="name" v="Treskodalstjørni" />
		<tag k="natural" v="water" />
		<tag k="ssr:stedsnr" v="205766" />
	</node>
	<node id="-319212" lat="59.1679416697" lon="7.62786111716">
		<tag k="name" v="Småtjørnan" />
		<tag k="natural" v="water" />
		<tag k="ssr:stedsnr" v="205729" />
	</node>
	<node id="-319211" lat="59.177205556" lon="7.62080277805">
		<tag k="name" v="Evre Smådalstjørn" />
		<tag k="natural" v="water" />
		<tag k="ssr:stedsnr" v="205722" />
	</node>
	<node id="-319209" lat="59.0845694415" lon="7.65761111584">
		<tag k="name" v="Mitjørn" />
		<tag k="natural" v="water" />
		<tag k="ssr:stedsnr" v="205695" />
	</node>
	<node id="-323304" lat="59.1481833348" lon="7.47149167149">
		<tag k="alt_name" v="Håvestølåni" />
		<tag k="name" v="Håvestøylåni" />
		<tag k="ssr:stedsnr" v="912611" />
		<tag k="waterway" v="stream" />
	</node>
	<node id="-321465" lat="59.0650833306" lon="7.18958889756">
		<tag k="name" v="Flotelega" />
		<tag k="place" v="islet" />
		<tag k="ssr:stedsnr" v="669881" />
	</node>
	<node id="-323301" lat="59.2199250012" lon="7.60457500471">
		<tag k="alt_name" v="Svårtetjørn" />
		<tag k="name" v="Svortetjørn" />
		<tag k="natural" v="water" />
		<tag k="ssr:stedsnr" v="912586" />
	</node>
	<node id="-319204" lat="59.0247277786" lon="7.55659999475">
		<tag k="name" v="Åretangen" />
		<tag k="natural" v="cape" />
		<tag k="ssr:stedsnr" v="205661" />
	</node>
	<node id="-323299" lat="59.2071000016" lon="7.61585000822">
		<tag k="alt_name" v="Skjervingevatnet" />
		<tag k="name" v="Skjervingvatnet" />
		<tag k="natural" v="water" />
		<tag k="ssr:stedsnr" v="912570" />
	</node>
	<node id="-323297" lat="59.1995777736" lon="7.6940527745">
		<tag k="name" v="Opti" />
		<tag k="ssr:stedsnr" v="912554" />
		<tag k="waterway" v="stream" />
	</node>
	<node id="-323291" lat="59.3155583325" lon="7.52316667416">
		<tag k="alt_name" v="Revstj.;Revstjørn" />
		<tag k="name" v="Revstjørni" />
		<tag k="natural" v="water" />
		<tag k="ssr:stedsnr" v="912536" />
	</node>
	<node id="-323290" lat="59.1919472211" lon="7.43382499688">
		<tag k="name" v="Tjovtjørn" />
		<tag k="natural" v="water" />
		<tag k="ssr:stedsnr" v="912537" />
	</node>
	<node id="-323289" lat="59.1878166638" lon="7.44679167363">
		<tag k="name" v="Holtåni" />
		<tag k="ssr:stedsnr" v="912535" />
		<tag k="waterway" v="stream" />
	</node>
	<node id="-319192" lat="59.2185330406" lon="7.66326295643">
		<tag k="name" v="Totjørnin" />
		<tag k="natural" v="water" />
		<tag k="ssr:stedsnr" v="205567" />
	</node>
	<node id="-319191" lat="59.0544555563" lon="7.73040278571">
		<tag k="name" v="Langetjørn" />
		<tag k="natural" v="water" />
		<tag k="ssr:stedsnr" v="205566" />
	</node>
	<node id="-323286" lat="59.0318388865" lon="7.56737222011">
		<tag k="name" v="Mjunebekken" />
		<tag k="ssr:stedsnr" v="912287" />
		<tag k="waterway" v="stream" />
	</node>
	<node id="-319188" lat="59.0700166705" lon="7.75293888482">
		<tag k="name" v="Djupedalstjørn" />
		<tag k="natural" v="water" />
		<tag k="ssr:stedsnr" v="205558" />
	</node>
	<node id="-319186" lat="59.0419972225" lon="7.42896945176">
		<tag k="name" v="Tverrbekk" />
		<tag k="ssr:stedsnr" v="205536" />
		<tag k="waterway" v="stream" />
	</node>
	<node id="-323281" lat="59.0971833316" lon="7.60051111057">
		<tag k="alt_name" v="Hallvardstjørn;Halvardstjørn" />
		<tag k="name" v="Hallvordstjørn" />
		<tag k="natural" v="water" />
		<tag k="ssr:stedsnr" v="911761" />
	</node>
	<node id="-319184" lat="59.103958332" lon="7.41391944891">
		<tag k="name" v="Gripemobekken" />
		<tag k="ssr:stedsnr" v="205527" />
		<tag k="waterway" v="stream" />
	</node>
	<node id="-321485" lat="59.1258055586" lon="7.39457500822">
		<tag k="name" v="Reinstjørn" />
		<tag k="natural" v="water" />
		<tag k="ssr:stedsnr" v="669673" />
	</node>
	<node id="-319180" lat="59.0582750026" lon="7.39478611579">
		<tag k="name" v="Garevassbekken" />
		<tag k="ssr:stedsnr" v="205515" />
		<tag k="waterway" v="stream" />
	</node>
	<node id="-319179" lat="59.0594833347" lon="7.38695834171">
		<tag k="name" v="Osovstjørn" />
		<tag k="natural" v="water" />
		<tag k="ssr:stedsnr" v="205511" />
	</node>
	<node id="-319177" lat="59.1010222245" lon="7.48841388597">
		<tag k="alt_name" v="Rjukan" />
		<tag k="name" v="Rjukande" />
		<tag k="natural" v="waterfall" />
		<tag k="ssr:stedsnr" v="205500" />
	</node>
	<node id="-319174" lat="59.0599833378" lon="7.46010554957">
		<tag k="name" v="Den flate tjørni" />
		<tag k="natural" v="water" />
		<tag k="ssr:stedsnr" v="205476" />
	</node>
	<node id="-319172" lat="59.0817527752" lon="7.40191389355">
		<tag k="name" v="Hestediket" />
		<tag k="old_name" v="Hestediktet" />
		<tag k="ssr:stedsnr" v="205468" />
		<tag k="waterway" v="drain" />
	</node>
	<node id="-319170" lat="59.0688833363" lon="7.71186388801">
		<tag k="alt_name" v="Løken" />
		<tag k="name" v="Løyetjørn (heimre)" />
		<tag k="natural" v="water" />
		<tag k="ssr:stedsnr" v="205455" />
	</node>
	<node id="-319168" lat="59.0762166644" lon="7.45049443875">
		<tag k="name" v="Det omfløytte" />
		<tag k="place" v="locality" />
		<tag k="seamark:type" v="rock" />
		<tag k="ssr:stedsnr" v="205446" />
	</node>
	<node id="-319166" lat="59.0577861099" lon="7.36522222554">
		<tag k="name" v="Nedre Raudetjørn" />
		<tag k="natural" v="water" />
		<tag k="ssr:stedsnr" v="205431" />
	</node>
	<node id="-319164" lat="59.1482583341" lon="7.38839721475">
		<tag k="alt_name" v="Sandvatnet, lisle" />
		<tag k="name" v="Lisle Sandvatn" />
		<tag k="natural" v="water" />
		<tag k="ssr:stedsnr" v="205420" />
		<tag k="water" v="lake" />
	</node>
	<node id="-319161" lat="59.2225472186" lon="7.68271389166">
		<tag k="name" v="Tobekken" />
		<tag k="ssr:stedsnr" v="205390" />
		<tag k="waterway" v="stream" />
	</node>
	<node id="-319160" lat="59.184663893" lon="7.45872499435">
		<tag k="name" v="Kortetjørn" />
		<tag k="natural" v="water" />
		<tag k="ssr:stedsnr" v="205386" />
	</node>
	<node id="-321205" lat="59.0365583303" lon="7.43372778256">
		<tag k="name" v="Nyestøylåni" />
		<tag k="ssr:stedsnr" v="630428" />
		<tag k="waterway" v="river" />
	</node>
	<node id="-319155" lat="59.1932111127" lon="7.52197221462">
		<tag k="name" v="Fådapane" />
		<tag k="natural" v="water" />
		<tag k="ssr:stedsnr" v="205031" />
		<tag k="water" v="pond" />
	</node>
	<node id="-319153" lat="59.1033972197" lon="7.77606667431">
		<tag k="name" v="Kilstjønn" />
		<tag k="natural" v="water" />
		<tag k="ssr:stedsnr" v="205643" />
	</node>
	<node id="-319151" lat="59.1184111078" lon="7.77497499876">
		<tag k="name" v="Hongsvatn" />
		<tag k="natural" v="water" />
		<tag k="ssr:stedsnr" v="205640" />
		<tag k="water" v="lake" />
	</node>
	<node id="-319147" lat="59.0924222203" lon="7.72485833647">
		<tag k="name" v="Sundet" />
		<tag k="natural" v="strait" />
		<tag k="ssr:stedsnr" v="205626" />
	</node>
	<node id="-319144" lat="59.1362444481" lon="7.49302777122">
		<tag k="name" v="Nordre Tveitstøyl-bekken" />
		<tag k="ssr:stedsnr" v="205613" />
		<tag k="waterway" v="stream" />
	</node>
	<node id="-322895" lat="59.2758972264" lon="7.64972777616">
		<tag k="name" v="Finndøl" />
		<tag k="ssr:stedsnr" v="852653" />
		<tag k="waterway" v="river" />
	</node>
	<node id="-321188" lat="59.0473888905" lon="7.5125861194">
		<tag k="name" v="Flottebekken" />
		<tag k="ssr:stedsnr" v="629805" />
		<tag k="waterway" v="stream" />
	</node>
	<node id="-321183" lat="59.1020055525" lon="7.51850555542">
		<tag k="name" v="Øyane" />
		<tag k="place" v="island" />
		<tag k="ssr:stedsnr" v="629761" />
	</node>
	<node id="-319132" lat="59.3221999994" lon="7.5308833264">
		<tag k="name" v="Tverråne" />
		<tag k="ssr:stedsnr" v="204755" />
		<tag k="waterway" v="stream" />
	</node>
	<node id="-319553" lat="59.2633999962" lon="7.57331666089">
		<tag k="name" v="Lisletjørn" />
		<tag k="natural" v="water" />
		<tag k="ssr:stedsnr" v="245638" />
	</node>
	<node id="-321177" lat="59.1072694402" lon="7.62356944901">
		<tag k="name" v="Gaukåstjørni" />
		<tag k="natural" v="water" />
		<tag k="ssr:stedsnr" v="629685" />
	</node>
	<node id="-321176" lat="59.0927583357" lon="7.65345000098">
		<tag k="alt_name" v="Fiskeløys" />
		<tag k="name" v="Fiskeløysvatnet" />
		<tag k="natural" v="water" />
		<tag k="ssr:stedsnr" v="629673" />
		<tag k="water" v="lake" />
	</node>
	<node id="-321174" lat="59.1155555571" lon="7.6642055573">
		<tag k="name" v="Bergvadsbekken" />
		<tag k="ssr:stedsnr" v="629665" />
		<tag k="waterway" v="stream" />
	</node>
	<node id="-321172" lat="59.1428722179" lon="7.61243333022">
		<tag k="name" v="Ragletjørn" />
		<tag k="natural" v="water" />
		<tag k="ssr:stedsnr" v="629656" />
	</node>
	<node id="-319122" lat="59.0193416639" lon="7.316808336">
		<tag k="name" v="Langvatnet" />
		<tag k="natural" v="water" />
		<tag k="ssr:stedsnr" v="184985" />
		<tag k="water" v="lake" />
	</node>
	<node id="-319120" lat="59.0373500005" lon="7.33940554935">
		<tag k="name" v="Midttjørn" />
		<tag k="natural" v="water" />
		<tag k="ssr:stedsnr" v="184962" />
	</node>
	<node id="-319118" lat="59.2537583366" lon="7.72994445111">
		<tag k="alt_name" v="Øytjørn" />
		<tag k="name" v="Øytjønnane" />
		<tag k="natural" v="water" />
		<tag k="ssr:stedsnr" v="184908" />
	</node>
	<node id="-321163" lat="59.0955861089" lon="7.74779444047">
		<tag k="alt_name" v="Stavvatn" />
		<tag k="name" v="Stavesvatn" />
		<tag k="natural" v="water" />
		<tag k="ssr:stedsnr" v="629597" />
		<tag k="water" v="lake" />
	</node>
	<node id="-319111" lat="59.2780805535" lon="7.35655556329">
		<tag k="name" v="Raundalstjørni" />
		<tag k="natural" v="water" />
		<tag k="old_name" v="Raundalstjørn" />
		<tag k="ssr:stedsnr" v="184708" />
	</node>
	<node id="-319108" lat="59.0997361068" lon="7.62340000144">
		<tag k="alt_name" v="Skjeldalstjørni;Skjelledalstjørni" />
		<tag k="name" v="Skjeldalstjørnin" />
		<tag k="natural" v="water" />
		<tag k="ssr:stedsnr" v="184639" />
	</node>
	<node id="-319102" lat="59.2832583306" lon="7.65136667013">
		<tag k="name" v="Murtetjørn" />
		<tag k="natural" v="water" />
		<tag k="ssr:stedsnr" v="184693" />
	</node>
	<node id="-319101" lat="59.2807305535" lon="7.52985278252">
		<tag k="name" v="Ljomstjørn" />
		<tag k="natural" v="water" />
		<tag k="ssr:stedsnr" v="184687" />
	</node>
	<node id="-319099" lat="59.2548250041" lon="7.37838333153">
		<tag k="name" v="Sollitjørn" />
		<tag k="natural" v="water" />
		<tag k="ssr:stedsnr" v="184667" />
	</node>
	<node id="-319098" lat="59.2580277771" lon="7.69338888552">
		<tag k="name" v="Gjuvvatnet" />
		<tag k="natural" v="water" />
		<tag k="ssr:stedsnr" v="184661" />
	</node>
	<node id="-320788" lat="59.2237083289" lon="7.71990276923">
		<tag k="name" v="Skartjørn" />
		<tag k="natural" v="water" />
		<tag k="ssr:stedsnr" v="569892" />
	</node>
	<node id="-321140" lat="59.0568083317" lon="7.39110555226">
		<tag k="name" v="Den store viki" />
		<tag k="natural" v="bay" />
		<tag k="ssr:stedsnr" v="629472" />
	</node>
	<node id="-319090" lat="59.3533833352" lon="7.54185554775">
		<tag k="alt_name" v="Gjevorbekken" />
		<tag k="name" v="Gjevarbekken" />
		<tag k="ssr:stedsnr" v="184576" />
		<tag k="waterway" v="stream" />
	</node>
	<node id="-318169" lat="59.1103916656" lon="7.71677777548">
		<tag k="name" v="Kotetjørn" />
		<tag k="natural" v="water" />
		<tag k="ssr:stedsnr" v="62660" />
	</node>
	<node id="-319088" lat="59.1146972245" lon="7.721625">
		<tag k="alt_name" v="Heddevatnet" />
		<tag k="name" v="Heddevatn" />
		<tag k="natural" v="water" />
		<tag k="ssr:stedsnr" v="184427" />
		<tag k="water" v="lake" />
	</node>
	<node id="-321135" lat="59.0174277818" lon="7.41855833323">
		<tag k="name" v="Den bratte strondi" />
		<tag k="natural" v="beach" />
		<tag k="old_name" v="Den Bratte Strondli" />
		<tag k="ssr:stedsnr" v="629430" />
	</node>
	<node id="-319085" lat="59.220177781" lon="7.4544166604">
		<tag k="name" v="Skullevassbekken" />
		<tag k="ssr:stedsnr" v="183958" />
		<tag k="waterway" v="stream" />
	</node>
	<node id="-319084" lat="59.209236112" lon="7.06903054948">
		<tag k="name" v="Såvatn" />
		<tag k="natural" v="water" />
		<tag k="ssr:stedsnr" v="183860" />
		<tag k="water" v="lake" />
	</node>
	<node id="-320786" lat="59.1307027803" lon="7.71192499807">
		<tag k="alt_name" v="Grunnevatnet" />
		<tag k="name" v="Grunnevatn" />
		<tag k="natural" v="water" />
		<tag k="ssr:stedsnr" v="569698" />
		<tag k="water" v="lake" />
	</node>
	<node id="-321129" lat="59.0518444474" lon="7.32986111632">
		<tag k="name" v="Heimre Urdevatnet" />
		<tag k="natural" v="water" />
		<tag k="ssr:stedsnr" v="629398" />
		<tag k="water" v="lake" />
	</node>
	<node id="-321128" lat="59.0936500038" lon="7.45917778396">
		<tag k="name" v="Grasdalsbekken" />
		<tag k="ssr:stedsnr" v="629389" />
		<tag k="waterway" v="stream" />
	</node>
	<node id="-319077" lat="59.0794222259" lon="7.39073610504">
		<tag k="alt_name" v="Hestjørn" />
		<tag k="name" v="Hesttjørn" />
		<tag k="natural" v="water" />
		<tag k="ssr:stedsnr" v="183752" />
	</node>
	<node id="-319076" lat="59.1473999991" lon="7.29722500333">
		<tag k="name" v="Åmli-Midtfjellvotni" />
		<tag k="natural" v="water" />
		<tag k="ssr:stedsnr" v="183825" />
		<tag k="water" v="lake" />
	</node>
	<node id="-319075" lat="59.0989388852" lon="7.65450833381">
		<tag k="alt_name" v="Reinstjørn" />
		<tag k="name" v="Reinstjørni" />
		<tag k="natural" v="water" />
		<tag k="ssr:stedsnr" v="183743" />
	</node>
	<node id="-319074" lat="59.0780249974" lon="7.56196111131">
		<tag k="name" v="Fjellskardevja" />
		<tag k="natural" v="bay" />
		<tag k="ssr:stedsnr" v="183733" />
	</node>
	<node id="-321467" lat="59.0453277808" lon="7.32296388559">
		<tag k="name" v="Urdevotni" />
		<tag k="natural" v="water" />
		<tag k="ssr:stedsnr" v="669894" />
		<tag k="water" v="lake" />
	</node>
	<node id="-319072" lat="59.0602722198" lon="7.64074722015">
		<tag k="name" v="Trogetjørn" />
		<tag k="natural" v="water" />
		<tag k="ssr:stedsnr" v="183691" />
	</node>
	<node id="-319071" lat="59.0515666692" lon="7.71189166762">
		<tag k="alt_name" v="Åsvasstjørni" />
		<tag k="name" v="Åsvasstjørnin" />
		<tag k="natural" v="water" />
		<tag k="ssr:stedsnr" v="183689" />
	</node>
	<node id="-319070" lat="59.0484666645" lon="7.35125000506">
		<tag k="alt_name" v="Sandvatnet" />
		<tag k="name" v="Sandvatn" />
		<tag k="natural" v="water" />
		<tag k="ssr:stedsnr" v="183686" />
	</node>
	<node id="-319069" lat="59.1274944474" lon="7.54442778309">
		<tag k="alt_name" v="Øydetjørn, nedre" />
		<tag k="name" v="Nedre Øydetjørn" />
		<tag k="natural" v="water" />
		<tag k="ssr:stedsnr" v="183674" />
	</node>
	<node id="-321116" lat="59.2442500014" lon="7.47698055527">
		<tag k="name" v="Lisleå" />
		<tag k="ssr:stedsnr" v="629309" />
		<tag k="waterway" v="river" />
	</node>
	<node id="-321114" lat="59.2068361096" lon="7.43885833388">
		<tag k="name" v="Hengjåfjøddtjørn" />
		<tag k="natural" v="water" />
		<tag k="ssr:stedsnr" v="629270" />
	</node>
	<node id="-319062" lat="59.1379388864" lon="7.39951388431">
		<tag k="name" v="Halvfartjørn" />
		<tag k="natural" v="water" />
		<tag k="ssr:stedsnr" v="183543" />
	</node>
	<node id="-321109" lat="59.2533189917" lon="7.56325927072">
		<tag k="name" v="Naseheitjørnan" />
		<tag k="natural" v="water" />
		<tag k="ssr:stedsnr" v="628844" />
	</node>
	<node id="-320782" lat="59.1118833332" lon="7.61261943666">
		<tag k="name" v="Maurdalselvi" />
		<tag k="ssr:stedsnr" v="569673" />
		<tag k="waterway" v="stream" />
	</node>
	<node id="-321464" lat="59.1842305535" lon="7.02717221517">
		<tag k="name" v="Hyttetjørni" />
		<tag k="natural" v="water" />
		<tag k="ssr:stedsnr" v="669859" />
	</node>
	<node id="-319054" lat="59.20799262" lon="7.66560066711">
		<tag k="alt_name" v="Såmestjørn;Såmestjørnan" />
		<tag k="name" v="Såmistjørnin" />
		<tag k="natural" v="water" />
		<tag k="ssr:stedsnr" v="183502" />
	</node>
	<node id="-319051" lat="58.953033329" lon="7.17976389641">
		<tag k="name" v="Skifarvatnet" />
		<tag k="natural" v="water" />
		<tag k="ssr:stedsnr" v="183216" />
	</node>
	<node id="-321461" lat="59.166266667" lon="7.27705832541">
		<tag k="alt_name" v="Skardtjorn" />
		<tag k="name" v="Skardtjørn" />
		<tag k="natural" v="water" />
		<tag k="ssr:stedsnr" v="669824" />
		<tag k="water" v="lake" />
	</node>
	<node id="-321083" lat="59.2886666691" lon="7.62243055016">
		<tag k="name" v="Grasdalsbekken" />
		<tag k="ssr:stedsnr" v="609672" />
		<tag k="waterway" v="stream" />
	</node>
	<node id="-321119" lat="59.0144416661" lon="7.4210444472">
		<tag k="name" v="Nordre Krokevatnet" />
		<tag k="natural" v="water" />
		<tag k="ssr:stedsnr" v="629334" />
		<tag k="water" v="lake" />
	</node>
	<node id="-321079" lat="59.0085209164" lon="7.3158126251">
		<tag k="name" v="Haugstjørn" />
		<tag k="natural" v="water" />
		<tag k="ssr:stedsnr" v="608997" />
	</node>
	<node id="-321078" lat="59.087208331" lon="7.23333610539">
		<tag k="name" v="Buhellertjørnin" />
		<tag k="natural" v="water" />
		<tag k="ssr:stedsnr" v="608942" />
	</node>
	<node id="-321118" lat="59.2371249991" lon="7.43679999977">
		<tag k="name" v="Raudkleivtjørn" />
		<tag k="natural" v="water" />
		<tag k="ssr:stedsnr" v="629323" />
	</node>
	<node id="-321073" lat="59.136713311" lon="7.31744903185">
		<tag k="loc_name" v="Grunnevatn" />
		<tag k="name" v="Grunnevatnet" />
		<tag k="natural" v="water" />
		<tag k="ssr:stedsnr" v="608865" />
		<tag k="water" v="lake" />
	</node>
	<node id="-321072" lat="59.1716833313" lon="7.25741667486">
		<tag k="name" v="Kilen" />
		<tag k="natural" v="bay" />
		<tag k="ssr:stedsnr" v="608853" />
	</node>
	<node id="-321071" lat="59.1517138875" lon="7.22160277442">
		<tag k="name" v="Gjuvvatnet" />
		<tag k="natural" v="water" />
		<tag k="ssr:stedsnr" v="608839" />
		<tag k="water" v="lake" />
	</node>
	<node id="-321069" lat="59.2450777792" lon="7.30919167088">
		<tag k="alt_name" v="Berrstølåni" />
		<tag k="name" v="Berrstøylåni" />
		<tag k="ssr:stedsnr" v="608813" />
		<tag k="waterway" v="stream" />
	</node>
	<node id="-321067" lat="59.0736527801" lon="7.46253888464">
		<tag k="alt_name" v="Stentjørn" />
		<tag k="name" v="Stemtjørn" />
		<tag k="natural" v="water" />
		<tag k="ssr:stedsnr" v="608757" />
	</node>
	<node id="-321065" lat="59.0743888933" lon="7.53008055502">
		<tag k="alt_name" v="Støylebekken" />
		<tag k="name" v="Støylebekk" />
		<tag k="ssr:stedsnr" v="608750" />
		<tag k="waterway" v="stream" />
	</node>
	<node id="-321063" lat="59.2760888854" lon="7.70366944761">
		<tag k="name" v="Nutsfjelltjørni" />
		<tag k="natural" v="water" />
		<tag k="old_name" v="Nutstjørn" />
		<tag k="ssr:stedsnr" v="608713" />
	</node>
	<node id="-321060" lat="59.27568611" lon="7.50903610842">
		<tag k="name" v="Stemtjørni" />
		<tag k="natural" v="water" />
		<tag k="old_name" v="Stemtjørn" />
		<tag k="ssr:stedsnr" v="608709" />
	</node>
	<node id="-321057" lat="59.2692111113" lon="7.70470278126">
		<tag k="name" v="Svortetjørn" />
		<tag k="natural" v="water" />
		<tag k="old_name" v="Svartetjørn" />
		<tag k="ssr:stedsnr" v="608702" />
	</node>
	<node id="-321056" lat="59.2642583293" lon="7.68069999517">
		<tag k="name" v="Svortetjørn" />
		<tag k="natural" v="water" />
		<tag k="ssr:stedsnr" v="608700" />
	</node>
	<node id="-321456" lat="59.0859000019" lon="7.66855000189">
		<tag k="name" v="Fiskeløysbekken" />
		<tag k="ssr:stedsnr" v="668745" />
		<tag k="waterway" v="stream" />
	</node>
	<node id="-321050" lat="59.1808916657" lon="7.67150555926">
		<tag k="name" v="Ytstetjørn" />
		<tag k="natural" v="water" />
		<tag k="ssr:stedsnr" v="608655" />
	</node>
	<node id="-321047" lat="59.1345916695" lon="7.35779166446">
		<tag k="alt_name" v="Sandvatnet, øyde" />
		<tag k="name" v="Øyde Sandvatnet" />
		<tag k="natural" v="water" />
		<tag k="ssr:stedsnr" v="608614" />
	</node>
	<node id="-321044" lat="59.2241805599" lon="7.64787223071">
		<tag k="alt_name" v="Skremesvatnet" />
		<tag k="name" v="Skremisvatnet" />
		<tag k="natural" v="water" />
		<tag k="ssr:stedsnr" v="608588" />
	</node>
	<node id="-321042" lat="59.2144611078" lon="7.61263889187">
		<tag k="alt_name" v="Stavvatn" />
		<tag k="name" v="Stavvatnet" />
		<tag k="natural" v="water" />
		<tag k="ssr:stedsnr" v="608578" />
	</node>
	<node id="-322890" lat="59.2658027751" lon="7.55379999169">
		<tag k="name" v="Viddfalltjørni" />
		<tag k="natural" v="water" />
		<tag k="ssr:stedsnr" v="852635" />
	</node>
	<node id="-321039" lat="59.327749998" lon="7.54864999673">
		<tag k="name" v="Ugledalstjørn" />
		<tag k="natural" v="water" />
		<tag k="ssr:stedsnr" v="608566" />
	</node>
	<node id="-316942" lat="59.0833777785" lon="7.57733056296">
		<tag k="name" v="Faksebekk" />
		<tag k="ssr:stedsnr" v="326983" />
		<tag k="waterway" v="stream" />
	</node>
	<node id="-316940" lat="59.2114499988" lon="7.72865278028">
		<tag k="name" v="Uvdalsviki" />
		<tag k="natural" v="bay" />
		<tag k="ssr:stedsnr" v="326922" />
	</node>
	<node id="-321034" lat="59.3184722199" lon="7.66652222494">
		<tag k="name" v="Gryteviksodden" />
		<tag k="natural" v="cape" />
		<tag k="ssr:stedsnr" v="608546" />
	</node>
	<node id="-316937" lat="59.0642194489" lon="7.57312499632">
		<tag k="name" v="Eikestoi" />
		<tag k="natural" v="beach" />
		<tag k="ssr:stedsnr" v="326850" />
	</node>
	<node id="-316934" lat="59.0483805559" lon="7.49876943738">
		<tag k="name" v="Myklestøylsbekken" />
		<tag k="ssr:stedsnr" v="326828" />
		<tag k="waterway" v="stream" />
	</node>
	<node id="-321026" lat="59.0817222202" lon="7.69074999612">
		<tag k="name" v="Skarketjørn" />
		<tag k="natural" v="water" />
		<tag k="ssr:stedsnr" v="607725" />
	</node>
	<node id="-321025" lat="59.0865499983" lon="7.63518611424">
		<tag k="alt_name" v="Øyetjørn" />
		<tag k="name" v="Øydetjørn" />
		<tag k="natural" v="water" />
		<tag k="ssr:stedsnr" v="607722" />
	</node>
	<node id="-321024" lat="59.0876555539" lon="7.61501666252">
		<tag k="alt_name" v="Tjørnelitjørni" />
		<tag k="name" v="Tjørnelitjørn" />
		<tag k="natural" v="water" />
		<tag k="ssr:stedsnr" v="607723" />
	</node>
	<node id="-316927" lat="59.1145055545" lon="7.51480277767">
		<tag k="name" v="Neset" />
		<tag k="natural" v="cape" />
		<tag k="ssr:stedsnr" v="326784" />
	</node>
	<node id="-321021" lat="59.1607999983" lon="7.59875555829">
		<tag k="alt_name" v="Rossevatn" />
		<tag k="name" v="Rossvatn" />
		<tag k="natural" v="water" />
		<tag k="ssr:stedsnr" v="607595" />
	</node>
	<node id="-321019" lat="59.1514249965" lon="7.48450000101">
		<tag k="name" v="Rotebekken" />
		<tag k="ssr:stedsnr" v="607590" />
		<tag k="waterway" v="stream" />
	</node>
	<node id="-321018" lat="59.158013887" lon="7.56250833159">
		<tag k="name" v="Kokstjørn" />
		<tag k="natural" v="water" />
		<tag k="ssr:stedsnr" v="607587" />
	</node>
	<node id="-321017" lat="59.0143083311" lon="7.38639167218">
		<tag k="alt_name" v="Kråkeåni" />
		<tag k="name" v="Kråkåni" />
		<tag k="ssr:stedsnr" v="607301" />
		<tag k="waterway" v="stream" />
	</node>
	<node id="-321015" lat="59.3344027741" lon="7.45523889569">
		<tag k="name" v="Poddetjønn" />
		<tag k="natural" v="water" />
		<tag k="ssr:stedsnr" v="605451" />
	</node>
	<node id="-316918" lat="59.1418166697" lon="7.62022777868">
		<tag k="name" v="Eksvassbekken" />
		<tag k="ssr:stedsnr" v="326670" />
		<tag k="waterway" v="stream" />
	</node>
	<node id="-316914" lat="59.1604111106" lon="7.70672500795">
		<tag k="name" v="Timmervikvatnet" />
		<tag k="natural" v="water" />
		<tag k="ssr:stedsnr" v="326660" />
		<tag k="water" v="lake" />
	</node>
	<node id="-316913" lat="59.1601472215" lon="7.60978056123">
		<tag k="name" v="Stutetjørn" />
		<tag k="natural" v="water" />
		<tag k="ssr:stedsnr" v="326656" />
	</node>
	<node id="-320082" lat="59.2111908152" lon="7.65799373129">
		<tag k="name" v="Heimre Såmestjørn" />
		<tag k="natural" v="water" />
		<tag k="ssr:stedsnr" v="448548" />
	</node>
	<node id="-316905" lat="59.0898305511" lon="7.7238888918">
		<tag k="name" v="Kjeddingshomen" />
		<tag k="place" v="island" />
		<tag k="ssr:stedsnr" v="326630" />
	</node>
	<node id="-316898" lat="59.1672444407" lon="7.72514721688">
		<tag k="name" v="Murtetjørn" />
		<tag k="natural" v="water" />
		<tag k="ssr:stedsnr" v="326596" />
	</node>
	<node id="-316893" lat="59.190463885" lon="7.7133722158">
		<tag k="name" v="Roddeivstjørn" />
		<tag k="natural" v="water" />
		<tag k="ssr:stedsnr" v="326586" />
	</node>
	<node id="-320079" lat="59.0634805558" lon="7.42925833138">
		<tag k="name" v="Hovdebekken" />
		<tag k="ssr:stedsnr" v="448480" />
		<tag k="waterway" v="stream" />
	</node>
	<node id="-316886" lat="59.2095444467" lon="7.62486111349">
		<tag k="name" v="Heddeåne" />
		<tag k="ssr:stedsnr" v="326566" />
		<tag k="waterway" v="river" />
	</node>
	<node id="-323024" lat="59.2246027751" lon="7.55680556229">
		<tag k="name" v="Joresåi" />
		<tag k="ssr:stedsnr" v="873606" />
		<tag k="waterway" v="stream" />
	</node>
	<node id="-316878" lat="59.1708333311" lon="7.52486389313">
		<tag k="name" v="Botjørn" />
		<tag k="natural" v="water" />
		<tag k="ssr:stedsnr" v="326532" />
	</node>
	<node id="-316877" lat="59.0594805521" lon="7.7391944375">
		<tag k="name" v="Flotetjørnsbekken" />
		<tag k="ssr:stedsnr" v="326531" />
		<tag k="waterway" v="stream" />
	</node>
	<node id="-323019" lat="59.0716" lon="7.44201666171">
		<tag k="name" v="Den brende odden" />
		<tag k="natural" v="cape" />
		<tag k="ssr:stedsnr" v="873430" />
	</node>
	<node id="-316873" lat="59.1053888916" lon="7.47855278438">
		<tag k="name" v="Voribekk" />
		<tag k="ssr:stedsnr" v="326473" />
		<tag k="waterway" v="stream" />
	</node>
	<node id="-323016" lat="59.0808638883" lon="7.54733889295">
		<tag k="name" v="Evja" />
		<tag k="natural" v="bay" />
		<tag k="ssr:stedsnr" v="872995" />
	</node>
	<node id="-323014" lat="59.0781333349" lon="7.56343055751">
		<tag k="name" v="Odden" />
		<tag k="natural" v="cape" />
		<tag k="ssr:stedsnr" v="872977" />
	</node>
	<node id="-316868" lat="59.0853888886" lon="7.42258889558">
		<tag k="name" v="Jarnsverktjørn" />
		<tag k="natural" v="water" />
		<tag k="ssr:stedsnr" v="326461" />
	</node>
	<node id="-323011" lat="59.0727805512" lon="7.57055834081">
		<tag k="name" v="Tykkeholtsodden" />
		<tag k="natural" v="cape" />
		<tag k="ssr:stedsnr" v="872868" />
	</node>
	<node id="-316865" lat="59.0289305545" lon="7.38237221827">
		<tag k="alt_name" v="Uppsettjørni" />
		<tag k="name" v="Upsetjørni" />
		<tag k="natural" v="water" />
		<tag k="ssr:stedsnr" v="326454" />
	</node>
	<node id="-316861" lat="59.0769361097" lon="7.4424138923">
		<tag k="name" v="Lomekilen" />
		<tag k="natural" v="bay" />
		<tag k="ssr:stedsnr" v="326441" />
	</node>
	<node id="-316859" lat="59.0719944476" lon="7.67915000117">
		<tag k="alt_name" v="Homviki" />
		<tag k="name" v="Homevik" />
		<tag k="natural" v="bay" />
		<tag k="ssr:stedsnr" v="326438" />
	</node>
	<node id="-323002" lat="59.0515388932" lon="7.56352500196">
		<tag k="name" v="Rekeviki" />
		<tag k="natural" v="bay" />
		<tag k="ssr:stedsnr" v="872802" />
	</node>
	<node id="-316856" lat="59.075788888" lon="7.47921667063">
		<tag k="name" v="Kvinnåna" />
		<tag k="ssr:stedsnr" v="326426" />
		<tag k="waterway" v="river" />
	</node>
	<node id="-316855" lat="59.0775194489" lon="7.46219167291">
		<tag k="name" v="Lislestøylstoi" />
		<tag k="natural" v="beach" />
		<tag k="ssr:stedsnr" v="326418" />
	</node>
	<node id="-316853" lat="59.0724972214" lon="7.31399444764">
		<tag k="name" v="Evardalstjørn" />
		<tag k="natural" v="water" />
		<tag k="ssr:stedsnr" v="326414" />
	</node>
	<node id="-316851" lat="59.0883499977" lon="7.47683333952">
		<tag k="name" v="Stavtjørnsbekken" />
		<tag k="ssr:stedsnr" v="326410" />
		<tag k="waterway" v="stream" />
	</node>
	<node id="-316850" lat="59.0443638891" lon="7.32296389124">
		<tag k="name" v="Store Urdevatnet" />
		<tag k="natural" v="water" />
		<tag k="ssr:stedsnr" v="326406" />
		<tag k="water" v="lake" />
	</node>
	<node id="-322993" lat="59.1250583297" lon="7.66270833009">
		<tag k="name" v="Laubudalsbekken" />
		<tag k="ssr:stedsnr" v="872743" />
		<tag k="waterway" v="stream" />
	</node>
	<node id="-316848" lat="59.2198499997" lon="7.38517777237">
		<tag k="name" v="Dravleskarvtjørni" />
		<tag k="natural" v="water" />
		<tag k="ssr:stedsnr" v="326381" />
	</node>
	<node id="-322990" lat="59.182988891" lon="7.61235278336">
		<tag k="name" v="Øytjørnan" />
		<tag k="natural" v="water" />
		<tag k="ssr:stedsnr" v="872715" />
	</node>
	<node id="-316841" lat="59.2379833363" lon="7.47396944545">
		<tag k="name" v="Kvennebekken" />
		<tag k="ssr:stedsnr" v="326305" />
		<tag k="waterway" v="stream" />
	</node>
	<node id="-322984" lat="59.0239972238" lon="7.55587778033">
		<tag k="name" v="Storøy" />
		<tag k="place" v="island" />
		<tag k="ssr:stedsnr" v="872659" />
	</node>
	<node id="-316838" lat="59.3444055545" lon="7.51745832519">
		<tag k="name" v="Tyrvestøylsodden" />
		<tag k="natural" v="cape" />
		<tag k="ssr:stedsnr" v="325778" />
	</node>
	<node id="-322980" lat="59.1069305533" lon="7.81157499721">
		<tag k="alt_name" v="Nutevatnet (nørdste);Nutevatni, store;Store Nutvatn" />
		<tag k="name" v="Nørdste Nutevatnet" />
		<tag k="natural" v="water" />
		<tag k="ssr:stedsnr" v="872636" />
		<tag k="water" v="lake" />
	</node>
	<node id="-316835" lat="59.255880552" lon="7.44626944647">
		<tag k="name" v="Lisleå" />
		<tag k="ssr:stedsnr" v="325240" />
		<tag k="waterway" v="stream" />
	</node>
	<node id="-316834" lat="59.2581694421" lon="7.38578333587">
		<tag k="name" v="Sollibekken" />
		<tag k="ssr:stedsnr" v="325149" />
		<tag k="waterway" v="stream" />
	</node>
	<node id="-322977" lat="59.0865777739" lon="7.7646750078">
		<tag k="name" v="Skrumsåni" />
		<tag k="ssr:stedsnr" v="872629" />
		<tag k="waterway" v="river" />
	</node>
	<node id="-319555" lat="59.2736555566" lon="7.55610000656">
		<tag k="name" v="Reinstjørnan" />
		<tag k="natural" v="water" />
		<tag k="old_name" v="Reistjørnin" />
		<tag k="ssr:stedsnr" v="245654" />
	</node>
	<node id="-322975" lat="59.1308861083" lon="7.49871110357">
		<tag k="name" v="Ørnåsbekken" />
		<tag k="ssr:stedsnr" v="872618" />
		<tag k="waterway" v="stream" />
	</node>
	<node id="-316829" lat="59.3011305557" lon="7.62974166276">
		<tag k="name" v="Leirviksvatnet" />
		<tag k="natural" v="water" />
		<tag k="ssr:stedsnr" v="306705" />
	</node>
	<node id="-316828" lat="59.3033527791" lon="7.53618888822">
		<tag k="name" v="Undermigtjørn" />
		<tag k="natural" v="water" />
		<tag k="old_name" v="Und Migtjørni" />
		<tag k="ssr:stedsnr" v="306703" />
	</node>
	<node id="-316827" lat="59.2964361152" lon="7.43228888114">
		<tag k="name" v="Slumstjørn" />
		<tag k="natural" v="water" />
		<tag k="ssr:stedsnr" v="306699" />
	</node>
	<node id="-316825" lat="59.2583611112" lon="7.61369166531">
		<tag k="name" v="Røyrvatnet" />
		<tag k="natural" v="water" />
		<tag k="ssr:stedsnr" v="306591" />
	</node>
	<node id="-316823" lat="59.2495472193" lon="7.36861388567">
		<tag k="name" v="Hestefjelltjørni" />
		<tag k="natural" v="water" />
		<tag k="ssr:stedsnr" v="305995" />
	</node>
	<node id="-322965" lat="59.1882999999" lon="7.63671110304">
		<tag k="name" v="Evre Grunnuvstjørn" />
		<tag k="natural" v="water" />
		<tag k="ssr:stedsnr" v="872588" />
	</node>
	<node id="-316819" lat="59.098399998" lon="7.25708333924">
		<tag k="name" v="Den lange tjørni" />
		<tag k="natural" v="water" />
		<tag k="ssr:stedsnr" v="305924" />
	</node>
	<node id="-316818" lat="59.1179666633" lon="7.19882499921">
		<tag k="name" v="Hellevatnet" />
		<tag k="natural" v="water" />
		<tag k="ssr:stedsnr" v="305909" />
		<tag k="water" v="lake" />
	</node>
	<node id="-316815" lat="59.2235722187" lon="7.18513055956">
		<tag k="name" v="Rjuvtjørni" />
		<tag k="natural" v="water" />
		<tag k="ssr:stedsnr" v="305864" />
	</node>
	<node id="-316812" lat="59.160663891" lon="7.29486667074">
		<tag k="name" v="Kolsvatnet" />
		<tag k="natural" v="water" />
		<tag k="ssr:stedsnr" v="305837" />
		<tag k="water" v="lake" />
	</node>
	<node id="-322954" lat="59.2409055564" lon="7.68451388238">
		<tag k="name" v="Fiskebubekken" />
		<tag k="ssr:stedsnr" v="872546" />
		<tag k="waterway" v="stream" />
	</node>
	<node id="-322953" lat="59.1363111109" lon="7.57648611763">
		<tag k="name" v="Leppetjørn" />
		<tag k="natural" v="water" />
		<tag k="ssr:stedsnr" v="872541" />
	</node>
	<node id="-316808" lat="59.077208335" lon="7.5211138857">
		<tag k="name" v="Holtebekken" />
		<tag k="ssr:stedsnr" v="305736" />
		<tag k="waterway" v="stream" />
	</node>
	<node id="-316807" lat="59.0625805578" lon="7.34708610406">
		<tag k="alt_name" v="Nomelandsøydetjørni" />
		<tag k="name" v="Nomelandsøyetjørn" />
		<tag k="natural" v="water" />
		<tag k="ssr:stedsnr" v="305732" />
	</node>
	<node id="-316804" lat="59.060958334" lon="7.69080278221">
		<tag k="alt_name" v="Skarketjørn" />
		<tag k="name" v="Skarketjørnin" />
		<tag k="natural" v="water" />
		<tag k="ssr:stedsnr" v="305710" />
	</node>
	<node id="-316803" lat="59.1298027736" lon="7.44545000101">
		<tag k="alt_name" v="Fitjetjørni" />
		<tag k="name" v="Fitjetjørn" />
		<tag k="natural" v="water" />
		<tag k="ssr:stedsnr" v="305701" />
	</node>
	<node id="-316802" lat="59.1101222182" lon="7.45348610875">
		<tag k="name" v="Akseltjørn" />
		<tag k="natural" v="water" />
		<tag k="ssr:stedsnr" v="305695" />
	</node>
	<node id="-316800" lat="59.1041083296" lon="7.58556111361">
		<tag k="name" v="Løetjørn" />
		<tag k="natural" v="water" />
		<tag k="ssr:stedsnr" v="305670" />
	</node>
	<node id="-316796" lat="59.1365277802" lon="7.60672499335">
		<tag k="name" v="Medtjørnin" />
		<tag k="natural" v="water" />
		<tag k="ssr:stedsnr" v="305612" />
	</node>
	<node id="-322939" lat="59.0198166684" lon="7.40668054764">
		<tag k="name" v="Nordre Poddetjørn" />
		<tag k="natural" v="water" />
		<tag k="ssr:stedsnr" v="872459" />
	</node>
	<node id="-322938" lat="59.0950222194" lon="7.44038333413">
		<tag k="name" v="Øyne" />
		<tag k="place" v="island" />
		<tag k="ssr:stedsnr" v="872457" />
	</node>
	<node id="-316793" lat="59.2115583616" lon="7.59611513705">
		<tag k="alt_name" v="Prestvatn" />
		<tag k="name" v="Prestvatnet" />
		<tag k="natural" v="water" />
		<tag k="ssr:stedsnr" v="305591" />
	</node>
	<node id="-316792" lat="59.1894888849" lon="7.39013611976">
		<tag k="name" v="Svarvartjørn" />
		<tag k="natural" v="water" />
		<tag k="ssr:stedsnr" v="305576" />
	</node>
	<node id="-321180" lat="59.133175004" lon="7.65685000216">
		<tag k="alt_name" v="Reinstjørni" />
		<tag k="name" v="Reistjørn" />
		<tag k="natural" v="water" />
		<tag k="ssr:stedsnr" v="629734" />
	</node>
	<node id="-316786" lat="59.1820472247" lon="7.35754999689">
		<tag k="name" v="Svelingsløkin" />
		<tag k="natural" v="water" />
		<tag k="ssr:stedsnr" v="305548" />
	</node>
	<node id="-316784" lat="59.0494777803" lon="7.64664721999">
		<tag k="alt_name" v="Rjuvvatn, øvre;Rjuvatn øvre" />
		<tag k="name" v="Øvre Rjuvvatn" />
		<tag k="natural" v="water" />
		<tag k="ssr:stedsnr" v="305269" />
	</node>
	<node id="-316783" lat="59.0411499986" lon="7.4543166736">
		<tag k="alt_name" v="Furestøyltjørn" />
		<tag k="name" v="Furestøyltjørni" />
		<tag k="natural" v="water" />
		<tag k="ssr:stedsnr" v="305265" />
	</node>
	<node id="-316782" lat="59.2374138863" lon="7.61651111395">
		<tag k="alt_name" v="Håptuvodden" />
		<tag k="name" v="Hoftuftodden" />
		<tag k="natural" v="cape" />
		<tag k="ssr:stedsnr" v="304958" />
	</node>
	<node id="-322925" lat="59.1872638851" lon="7.5193111128">
		<tag k="name" v="Akhyl" />
		<tag k="place" v="locality" />
		<tag k="ssr:stedsnr" v="872016" />
	</node>
	<node id="-316777" lat="59.1541472254" lon="7.53061388308">
		<tag k="alt_name" v="Flåne" />
		<tag k="name" v="Flåni" />
		<tag k="natural" v="water" />
		<tag k="ssr:stedsnr" v="304606" />
		<tag k="water" v="lake" />
	</node>
	<node id="-322916" lat="59.2778166659" lon="7.5310527818">
		<tag k="name" v="Øyne" />
		<tag k="natural" v="cape" />
		<tag k="ssr:stedsnr" v="871805" />
	</node>
	<node id="-321195" lat="59.2602972265" lon="7.5160166597">
		<tag k="name" v="Sauetjørn" />
		<tag k="natural" v="water" />
		<tag k="ssr:stedsnr" v="629876" />
	</node>
	<node id="-318808" lat="59.1954166695" lon="7.73433610776">
		<tag k="name" v="Gjeldkubekken" />
		<tag k="ssr:stedsnr" v="149067" />
		<tag k="waterway" v="stream" />
	</node>
	<node id="-322903" lat="59.2557333342" lon="7.3542250084">
		<tag k="name" v="Den svarte tjørni" />
		<tag k="natural" v="water" />
		<tag k="ssr:stedsnr" v="853647" />
	</node>
	<node id="-318802" lat="59.2390972182" lon="7.72222221641">
		<tag k="name" v="Skiptesbekken" />
		<tag k="ssr:stedsnr" v="144920" />
		<tag k="waterway" v="stream" />
	</node>
	<node id="-318801" lat="59.2403305545" lon="7.72770277586">
		<tag k="name" v="Steimannetjørnan" />
		<tag k="natural" v="water" />
		<tag k="ssr:stedsnr" v="144916" />
	</node>
	<node id="-318799" lat="59.2175777805" lon="7.71842500504">
		<tag k="alt_name" v="Åsvaldstjørn" />
		<tag k="name" v="Åsvollstjørn" />
		<tag k="natural" v="water" />
		<tag k="ssr:stedsnr" v="144906" />
	</node>
	<node id="-318797" lat="59.0692638901" lon="7.50141111846">
		<tag k="name" v="Storedalsbekken" />
		<tag k="ssr:stedsnr" v="144868" />
		<tag k="waterway" v="stream" />
	</node>
	<node id="-319581" lat="59.193977775" lon="7.52295000751">
		<tag k="name" v="Grisøy" />
		<tag k="natural" v="cape" />
		<tag k="ssr:stedsnr" v="265017" />
	</node>
	<node id="-318795" lat="59.0690972205" lon="7.56987777509">
		<tag k="name" v="Raudevje" />
		<tag k="ssr:stedsnr" v="144860" />
		<tag k="waterway" v="rapids" />
	</node>
	<node id="-318794" lat="59.0608861107" lon="7.5697305471">
		<tag k="name" v="Nesodden" />
		<tag k="natural" v="cape" />
		<tag k="ssr:stedsnr" v="144854" />
	</node>
	<node id="-318792" lat="59.0425861139" lon="7.50236944216">
		<tag k="name" v="Svårthyl" />
		<tag k="place" v="locality" />
		<tag k="ssr:stedsnr" v="144834" />
	</node>
	<node id="-322886" lat="59.3283166709" lon="7.45421111012">
		<tag k="alt_name" v="Lisle Kvernvatnet" />
		<tag k="name" v="Lisle Kvernevatn" />
		<tag k="natural" v="water" />
		<tag k="old_name" v="Kvernevatni, nedre" />
		<tag k="ssr:stedsnr" v="852524" />
	</node>
	<node id="-322885" lat="59.3192638916" lon="7.64180554699">
		<tag k="name" v="Fitbekkvatnet" />
		<tag k="natural" v="water" />
		<tag k="ssr:stedsnr" v="852502" />
		<tag k="water" v="lake" />
	</node>
	<node id="-322884" lat="59.2507749974" lon="7.28852499394">
		<tag k="name" v="Nedre Rjuvetjønn" />
		<tag k="natural" v="water" />
		<tag k="ssr:stedsnr" v="852481" />
	</node>
	<node id="-322883" lat="59.2524341753" lon="7.28210788507">
		<tag k="name" v="Øvre Rjuvetjønn" />
		<tag k="natural" v="water" />
		<tag k="ssr:stedsnr" v="852479" />
	</node>
	<node id="-322882" lat="59.2833805591" lon="7.30651111553">
		<tag k="name" v="Storetjønn" />
		<tag k="natural" v="water" />
		<tag k="ssr:stedsnr" v="852467" />
	</node>
	<node id="-322881" lat="59.2449920501" lon="7.38709676699">
		<tag k="name" v="Krossheitjørni" />
		<tag k="natural" v="water" />
		<tag k="ssr:stedsnr" v="851991" />
	</node>
	<node id="-322880" lat="59.0357055549" lon="7.21635277039">
		<tag k="name" v="Vardsvatn" />
		<tag k="natural" v="water" />
		<tag k="ssr:stedsnr" v="851979" />
	</node>
	<node id="-322879" lat="59.2359555565" lon="7.62367499471">
		<tag k="name" v="Vereholmen" />
		<tag k="place" v="islet" />
		<tag k="ssr:stedsnr" v="851974" />
	</node>
	<node id="-318782" lat="59.1378583303" lon="7.71167500375">
		<tag k="alt_name" v="Søre Skumtjørn" />
		<tag k="name" v="Søndre Skumtjørn" />
		<tag k="natural" v="water" />
		<tag k="ssr:stedsnr" v="144720" />
	</node>
	<node id="-318779" lat="59.0850250041" lon="7.62901666294">
		<tag k="name" v="Heibytjørni" />
		<tag k="natural" v="water" />
		<tag k="ssr:stedsnr" v="144682" />
	</node>
	<node id="-322874" lat="59.2435611069" lon="7.65448334027">
		<tag k="name" v="Tjørnestjørn" />
		<tag k="natural" v="water" />
		<tag k="ssr:stedsnr" v="851960" />
	</node>
	<node id="-318776" lat="59.1458694464" lon="7.63071944029">
		<tag k="name" v="Hyllevassbekken" />
		<tag k="natural" v="water" />
		<tag k="ssr:stedsnr" v="144657" />
		<tag k="water" v="lake" />
	</node>
	<node id="-318775" lat="59.2234500034" lon="7.56338888533">
		<tag k="name" v="Øyanbekken" />
		<tag k="ssr:stedsnr" v="144654" />
		<tag k="waterway" v="stream" />
	</node>
	<node id="-322870" lat="59.0890305588" lon="7.16828889277">
		<tag k="name" v="Stortjørn" />
		<tag k="natural" v="water" />
		<tag k="ssr:stedsnr" v="851937" />
	</node>
	<node id="-322868" lat="59.0987861097" lon="7.2861527845">
		<tag k="name" v="Den ljote tjørni" />
		<tag k="natural" v="water" />
		<tag k="ssr:stedsnr" v="851929" />
		<tag k="water" v="lake" />
	</node>
	<node id="-318771" lat="59.1130888909" lon="7.75697222997">
		<tag k="name" v="Lisle Kråketjørn" />
		<tag k="natural" v="water" />
		<tag k="ssr:stedsnr" v="144634" />
	</node>
	<node id="-322866" lat="59.0603361092" lon="7.21062778614">
		<tag k="name" v="Hallvorsbekken" />
		<tag k="ssr:stedsnr" v="851882" />
		<tag k="waterway" v="stream" />
	</node>
	<node id="-322865" lat="59.1843805516" lon="7.19443888662">
		<tag k="alt_name" v="Botnsvatn, litla" />
		<tag k="name" v="Litla Botnsvatn" />
		<tag k="natural" v="water" />
		<tag k="ssr:stedsnr" v="851865" />
	</node>
	<node id="-322864" lat="59.1797250021" lon="7.24487777463">
		<tag k="loc_name" v="Botsvatnet" />
		<tag k="name" v="Botnsvatnet" />
		<tag k="natural" v="water" />
		<tag k="ssr:stedsnr" v="851856" />
		<tag k="water" v="lake" />
	</node>
	<node id="-322862" lat="59.2464421141" lon="7.32436286856">
		<tag k="name" v="Ausetjørni" />
		<tag k="natural" v="water" />
		<tag k="ssr:stedsnr" v="851772" />
	</node>
	<node id="-318765" lat="59.0854833366" lon="7.75941943934">
		<tag k="name" v="Skrumsviki" />
		<tag k="natural" v="bay" />
		<tag k="ssr:stedsnr" v="144613" />
	</node>
	<node id="-318764" lat="59.0921111136" lon="7.7291222308">
		<tag k="name" v="Glottsodden" />
		<tag k="natural" v="cape" />
		<tag k="ssr:stedsnr" v="144609" />
	</node>
	<node id="-318761" lat="59.1424777787" lon="7.74414443579">
		<tag k="alt_name" v="Bærvatn" />
		<tag k="name" v="Berevatn" />
		<tag k="natural" v="water" />
		<tag k="ssr:stedsnr" v="144602" />
		<tag k="water" v="lake" />
	</node>
	<node id="-318760" lat="59.129030151" lon="7.76125045513">
		<tag k="name" v="Litle Boketjørn" />
		<tag k="natural" v="water" />
		<tag k="ssr:stedsnr" v="144601" />
	</node>
	<node id="-318759" lat="59.1253861075" lon="7.51464722755">
		<tag k="name" v="Marhøl" />
		<tag k="place" v="locality" />
		<tag k="ssr:stedsnr" v="144598" />
	</node>
	<node id="-318757" lat="59.1259555573" lon="7.72497500593">
		<tag k="name" v="Litle Ramvatn" />
		<tag k="natural" v="water" />
		<tag k="ssr:stedsnr" v="144594" />
		<tag k="water" v="lake" />
	</node>
	<node id="-318756" lat="59.2279999998" lon="7.54730833795">
		<tag k="alt_name" v="Øyni" />
		<tag k="name" v="Skinøyne" />
		<tag k="place" v="island" />
		<tag k="ssr:stedsnr" v="144584" />
	</node>
	<node id="-318754" lat="59.2027888894" lon="7.60111110999">
		<tag k="name" v="Klyvtjørn" />
		<tag k="natural" v="water" />
		<tag k="ssr:stedsnr" v="144580" />
	</node>
	<node id="-322849" lat="59.1612749992" lon="7.43634722179">
		<tag k="alt_name" v="Åmli-Videlvatnet;Åmli Videlvatn" />
		<tag k="name" v="Åmlividelvatnet" />
		<tag k="natural" v="water" />
		<tag k="ssr:stedsnr" v="851601" />
	</node>
	<node id="-322848" lat="59.1759027767" lon="7.6406583317">
		<tag k="alt_name" v="Heddervatn" />
		<tag k="name" v="Hellervatnet" />
		<tag k="natural" v="water" />
		<tag k="ssr:stedsnr" v="851594" />
	</node>
	<node id="-322847" lat="59.1638916651" lon="7.69754723048">
		<tag k="name" v="Strondi" />
		<tag k="natural" v="beach" />
		<tag k="ssr:stedsnr" v="851585" />
	</node>
	<node id="-318749" lat="59.187455552" lon="7.64811944613">
		<tag k="name" v="Neire Grunnuvstjørn" />
		<tag k="natural" v="water" />
		<tag k="ssr:stedsnr" v="144571" />
	</node>
	<node id="-322844" lat="59.2182379882" lon="7.48423661249">
		<tag k="name" v="Dåstøyltjørni" />
		<tag k="natural" v="water" />
		<tag k="ssr:stedsnr" v="851525" />
	</node>
	<node id="-322843" lat="59.2109500012" lon="7.40697777178">
		<tag k="name" v="Krotjørn" />
		<tag k="natural" v="water" />
		<tag k="ssr:stedsnr" v="851522" />
	</node>
	<node id="-322839" lat="59.2046138886" lon="7.49503333699">
		<tag k="name" v="Storetjørn" />
		<tag k="natural" v="water" />
		<tag k="ssr:stedsnr" v="851504" />
	</node>
	<node id="-322838" lat="59.1972888871" lon="7.41297500576">
		<tag k="name" v="Rennevatnet" />
		<tag k="natural" v="water" />
		<tag k="ssr:stedsnr" v="851501" />
	</node>
	<node id="-322836" lat="59.1971316709" lon="7.61996182863">
		<tag k="name" v="Rjupetjørn" />
		<tag k="natural" v="water" />
		<tag k="ssr:stedsnr" v="851485" />
	</node>
	<node id="-322834" lat="58.9548166703" lon="7.15146666412">
		<tag k="name" v="Kotådalskilen" />
		<tag k="place" v="locality" />
		<tag k="ssr:stedsnr" v="851228" />
	</node>
	<node id="-322833" lat="58.9930111152" lon="7.27861667438">
		<tag k="name" v="Godetjørn" />
		<tag k="natural" v="water" />
		<tag k="ssr:stedsnr" v="851217" />
	</node>
	<node id="-318736" lat="59.114247224" lon="7.72225277809">
		<tag k="name" v="Bergoddene" />
		<tag k="natural" v="cape" />
		<tag k="ssr:stedsnr" v="144525" />
	</node>
	<node id="-322831" lat="58.9944333336" lon="7.22533333879">
		<tag k="name" v="Sandvatnet" />
		<tag k="natural" v="water" />
		<tag k="ssr:stedsnr" v="851028" />
		<tag k="water" v="lake" />
	</node>
	<node id="-322830" lat="58.996169442" lon="7.27035000436">
		<tag k="name" v="Krokevatnet" />
		<tag k="natural" v="water" />
		<tag k="ssr:stedsnr" v="851029" />
	</node>
	<node id="-318732" lat="59.0424861121" lon="7.44108333223">
		<tag k="name" v="Tjørnelibekken" />
		<tag k="ssr:stedsnr" v="144509" />
		<tag k="waterway" v="stream" />
	</node>
	<node id="-320779" lat="59.0880666698" lon="7.6525555516">
		<tag k="name" v="Heimre Fiskeløyskilen" />
		<tag k="natural" v="bay" />
		<tag k="old_name" v="Heimre Fiskeløyskillen" />
		<tag k="ssr:stedsnr" v="569654" />
	</node>
	<node id="-318729" lat="59.055547218" lon="7.40843332732">
		<tag k="name" v="Skoggetjørnin" />
		<tag k="natural" v="water" />
		<tag k="ssr:stedsnr" v="144484" />
	</node>
	<node id="-318727" lat="59.0729694453" lon="7.41133055996">
		<tag k="alt_name" v="Bekkebrobekken" />
		<tag k="name" v="Bekkekroksbekken" />
		<tag k="ssr:stedsnr" v="144472" />
		<tag k="waterway" v="stream" />
	</node>
	<node id="-320774" lat="59.1555249972" lon="7.60568333616">
		<tag k="name" v="Lisle Fiskevatn" />
		<tag k="natural" v="water" />
		<tag k="ssr:stedsnr" v="569613" />
		<tag k="water" v="lake" />
	</node>
	<node id="-320773" lat="59.1150388899" lon="7.78507777419">
		<tag k="name" v="Såvistjørn" />
		<tag k="natural" v="water" />
		<tag k="ssr:stedsnr" v="569604" />
	</node>
	<node id="-320772" lat="59.0800416679" lon="7.75789166398">
		<tag k="name" v="Solliøyane" />
		<tag k="place" v="island" />
		<tag k="ssr:stedsnr" v="569596" />
	</node>
	<node id="-320771" lat="59.0461833306" lon="7.47361110836">
		<tag k="name" v="Tjørnin" />
		<tag k="natural" v="water" />
		<tag k="ssr:stedsnr" v="569589" />
	</node>
	<node id="-318722" lat="59.0244138886" lon="7.49304443785">
		<tag k="name" v="Øyetjørn" />
		<tag k="natural" v="water" />
		<tag k="ssr:stedsnr" v="144431" />
	</node>
	<node id="-320767" lat="59.1793722228" lon="7.73016943742">
		<tag k="alt_name" v="Lislekalvetjørn" />
		<tag k="name" v="Lisle Kåvtjørn" />
		<tag k="natural" v="water" />
		<tag k="ssr:stedsnr" v="569556" />
	</node>
	<node id="-320761" lat="59.2483166642" lon="7.70096943961">
		<tag k="name" v="Neire Bjortjørn" />
		<tag k="natural" v="water" />
		<tag k="ssr:stedsnr" v="569520" />
	</node>
	<node id="-320760" lat="59.2460916704" lon="7.70362500412">
		<tag k="name" v="Finndøl" />
		<tag k="ssr:stedsnr" v="569519" />
		<tag k="waterway" v="river" />
	</node>
	<node id="-318708" lat="59.3349277769" lon="7.51977778655">
		<tag k="name" v="Søkkvabekk" />
		<tag k="ssr:stedsnr" v="143756" />
		<tag k="waterway" v="stream" />
	</node>
	<node id="-320752" lat="59.073425" lon="7.43960832814">
		<tag k="name" v="Tjurrmovatn" />
		<tag k="natural" v="water" />
		<tag k="ssr:stedsnr" v="569421" />
		<tag k="water" v="lake" />
	</node>
	<node id="-318703" lat="59.0931694486" lon="7.41829999603">
		<tag k="name" v="Uredalsbekken" />
		<tag k="ssr:stedsnr" v="143390" />
		<tag k="waterway" v="river" />
	</node>
	<node id="-318700" lat="59.0883916693" lon="7.41867777839">
		<tag k="name" v="Djupetjørn" />
		<tag k="natural" v="water" />
		<tag k="ssr:stedsnr" v="143406" />
	</node>
	<node id="-318699" lat="59.1356916695" lon="7.41320833571">
		<tag k="name" v="Skavlebekken" />
		<tag k="ssr:stedsnr" v="143338" />
		<tag k="waterway" v="stream" />
	</node>
	<node id="-318697" lat="59.0942777776" lon="7.48569166948">
		<tag k="alt_name" v="Skålesstøylenbekken" />
		<tag k="name" v="Skålestøylbekken" />
		<tag k="ssr:stedsnr" v="143352" />
		<tag k="waterway" v="stream" />
	</node>
	<node id="-318695" lat="59.2592222194" lon="7.46750833639">
		<tag k="name" v="Odden" />
		<tag k="natural" v="cape" />
		<tag k="ssr:stedsnr" v="143207" />
	</node>
	<node id="-319994" lat="59.0305916669" lon="7.55210833576">
		<tag k="alt_name" v="Åraksøyne" />
		<tag k="name" v="Åraksøyni" />
		<tag k="place" v="islet" />
		<tag k="ssr:stedsnr" v="427300" />
	</node>
	<node id="-320741" lat="59.1154833337" lon="7.51695832647">
		<tag k="name" v="Iveroet" />
		<tag k="natural" v="strait" />
		<tag k="ssr:stedsnr" v="568767" />
	</node>
	<node id="-320739" lat="59.2950361066" lon="7.52509165957">
		<tag k="name" v="Husebøvatnet" />
		<tag k="natural" v="water" />
		<tag k="old_name" v="Husebyvatnet" />
		<tag k="ssr:stedsnr" v="568742" />
		<tag k="water" v="lake" />
	</node>
	<node id="-320785" lat="59.1743305577" lon="7.62997777355">
		<tag k="name" v="Neire Smådalstjørn" />
		<tag k="natural" v="water" />
		<tag k="ssr:stedsnr" v="569691" />
	</node>
	<node id="-318685" lat="59.2324277758" lon="7.47936944523">
		<tag k="name" v="Skiptesbekken" />
		<tag k="ssr:stedsnr" v="143277" />
		<tag k="waterway" v="stream" />
	</node>
	<node id="-320732" lat="59.1208472193" lon="7.51500277775">
		<tag k="name" v="Sandhøl" />
		<tag k="place" v="locality" />
		<tag k="ssr:stedsnr" v="568568" />
	</node>
	<node id="-322426" lat="59.2987583309" lon="7.70425833075">
		<tag k="name" v="Hestetjørn" />
		<tag k="natural" v="water" />
		<tag k="ssr:stedsnr" v="791721" />
	</node>
	<node id="-320730" lat="59.1389222215" lon="7.49118611649">
		<tag k="name" v="Teustveitbekken" />
		<tag k="ssr:stedsnr" v="568560" />
		<tag k="waterway" v="stream" />
	</node>
	<node id="-318679" lat="59.078130555" lon="7.20466111493">
		<tag k="name" v="Kverevatn" />
		<tag k="natural" v="water" />
		<tag k="ssr:stedsnr" v="123949" />
		<tag k="water" v="lake" />
	</node>
	<node id="-318678" lat="59.0974805586" lon="7.20871389082">
		<tag k="name" v="Skrubbsløkin" />
		<tag k="natural" v="water" />
		<tag k="ssr:stedsnr" v="123938" />
	</node>
	<node id="-321136" lat="59.0754250042" lon="7.36853610833">
		<tag k="name" v="Tvillingstjørn" />
		<tag k="natural" v="water" />
		<tag k="ssr:stedsnr" v="629437" />
	</node>
	<node id="-318674" lat="59.192680559" lon="7.23131110518">
		<tag k="alt_name" v="Nutevatnet" />
		<tag k="name" v="Urdeviksvatnet" />
		<tag k="natural" v="water" />
		<tag k="ssr:stedsnr" v="123883" />
		<tag k="water" v="lake" />
	</node>
	<node id="-318673" lat="59.194411111" lon="7.26039165842">
		<tag k="name" v="Tjørnebekken" />
		<tag k="ssr:stedsnr" v="123881" />
		<tag k="waterway" v="stream" />
	</node>
	<node id="-322424" lat="59.2809999968" lon="7.45007221784">
		<tag k="alt_name" v="Ruafjøddtjørn" />
		<tag k="name" v="Ruafjelltjørni" />
		<tag k="natural" v="water" />
		<tag k="ssr:stedsnr" v="791704" />
	</node>
	<node id="-318670" lat="59.1600499996" lon="7.23589999152">
		<tag k="name" v="Gjuvvassåni" />
		<tag k="ssr:stedsnr" v="123825" />
		<tag k="waterway" v="stream" />
	</node>
	<node id="-318668" lat="59.1523472203" lon="7.32373333138">
		<tag k="name" v="Auguntjørnin" />
		<tag k="natural" v="water" />
		<tag k="ssr:stedsnr" v="123816" />
		<tag k="water" v="lake" />
	</node>
	<node id="-318666" lat="59.3089638928" lon="7.46253332523">
		<tag k="alt_name" v="Gryggjetveitstjørn" />
		<tag k="name" v="Gryggjetveittjørni" />
		<tag k="natural" v="water" />
		<tag k="ssr:stedsnr" v="123760" />
	</node>
	<node id="-320713" lat="59.0829444462" lon="7.41328054713">
		<tag k="name" v="Klamrebekken" />
		<tag k="ssr:stedsnr" v="568415" />
		<tag k="waterway" v="stream" />
	</node>
	<node id="-320712" lat="59.0838472223" lon="7.42479166824">
		<tag k="name" v="Fisstøylsåni" />
		<tag k="ssr:stedsnr" v="568416" />
		<tag k="waterway" v="river" />
	</node>
	<node id="-320716" lat="59.1699527751" lon="7.52599443789">
		<tag k="name" v="Storepytt" />
		<tag k="natural" v="water" />
		<tag k="ssr:stedsnr" v="568480" />
		<tag k="water" v="pond" />
	</node>
	<node id="-320710" lat="59.0955944454" lon="7.45302778629">
		<tag k="name" v="Holmen" />
		<tag k="natural" v="beach" />
		<tag k="ssr:stedsnr" v="568391" />
	</node>
	<node id="-318661" lat="59.2793861147" lon="7.62378888206">
		<tag k="name" v="Tverrbekken" />
		<tag k="ssr:stedsnr" v="123723" />
		<tag k="waterway" v="stream" />
	</node>
	<node id="-320708" lat="59.1538722243" lon="7.44891667048">
		<tag k="name" v="Uppstad Videlvatn" />
		<tag k="natural" v="water" />
		<tag k="ssr:stedsnr" v="568387" />
		<tag k="water" v="lake" />
	</node>
	<node id="-318658" lat="59.1164083374" lon="7.38555000097">
		<tag k="alt_name" v="Heddedalsåni" />
		<tag k="name" v="Helledalsåni" />
		<tag k="ssr:stedsnr" v="123718" />
		<tag k="waterway" v="stream" />
	</node>
	<node id="-323288" lat="59.2591111153" lon="7.31697777326">
		<tag k="name" v="Dampåvatnet" />
		<tag k="natural" v="water" />
		<tag k="ssr:stedsnr" v="912501" />
	</node>
	<node id="-320704" lat="59.1290493966" lon="7.38335321521">
		<tag k="name" v="Jonstjørn" />
		<tag k="natural" v="water" />
		<tag k="ssr:stedsnr" v="568372" />
	</node>
	<node id="-320703" lat="59.124997226" lon="7.3808555617">
		<tag k="name" v="Sandvassløken" />
		<tag k="natural" v="water" />
		<tag k="ssr:stedsnr" v="568371" />
	</node>
	<node id="-320699" lat="59.2432083311" lon="7.43296388026">
		<tag k="name" v="Dyrestjørnbekken" />
		<tag k="ssr:stedsnr" v="568331" />
		<tag k="waterway" v="stream" />
	</node>
	<node id="-320697" lat="59.2099805537" lon="7.45492500655">
		<tag k="alt_name" v="Grytingstjørn" />
		<tag k="name" v="Grytingstjørni" />
		<tag k="natural" v="water" />
		<tag k="ssr:stedsnr" v="568281" />
	</node>
	<node id="-320695" lat="59.3062805534" lon="7.48283333054">
		<tag k="name" v="Øybøleittjørn" />
		<tag k="natural" v="water" />
		<tag k="ssr:stedsnr" v="568196" />
		<tag k="water" v="lake" />
	</node>
	<node id="-318646" lat="59.1708833371" lon="7.53498888432">
		<tag k="alt_name" v="Regnåne" />
		<tag k="name" v="Regnåni" />
		<tag k="ssr:stedsnr" v="123663" />
		<tag k="waterway" v="stream" />
	</node>
	<node id="-318644" lat="59.3676916682" lon="7.53941389647">
		<tag k="name" v="Kleivstjørn" />
		<tag k="natural" v="water" />
		<tag k="ssr:stedsnr" v="123635" />
	</node>
	<node id="-320689" lat="59.2716833349" lon="7.49581388167">
		<tag k="name" v="Skrevdbekk" />
		<tag k="ssr:stedsnr" v="567820" />
		<tag k="waterway" v="stream" />
	</node>
	<node id="-318640" lat="59.2006944406" lon="7.37514721642">
		<tag k="alt_name" v="Krokvatnet, øvre" />
		<tag k="name" v="Øvre Krokvatnet" />
		<tag k="natural" v="water" />
		<tag k="ssr:stedsnr" v="123572" />
	</node>
	<node id="-318638" lat="59.3164805532" lon="7.60525000421">
		<tag k="name" v="Kaldheimstjørni" />
		<tag k="natural" v="water" />
		<tag k="ssr:stedsnr" v="123557" />
	</node>
	<node id="-320685" lat="59.3398888935" lon="7.48566945261">
		<tag k="name" v="Urdetjørn" />
		<tag k="natural" v="water" />
		<tag k="ssr:stedsnr" v="567791" />
	</node>
	<node id="-318636" lat="59.2653750027" lon="7.25397499723">
		<tag k="name" v="Voilane" />
		<tag k="place" v="locality" />
		<tag k="ssr:stedsnr" v="123529" />
	</node>
	<node id="-318634" lat="59.0845055578" lon="7.73017222141">
		<tag k="alt_name" v="Straumfjorden" />
		<tag k="name" v="Straumsfjorden" />
		<tag k="natural" v="water" />
		<tag k="ssr:stedsnr" v="123493" />
		<tag k="water" v="lake" />
	</node>
	<node id="-320678" lat="59.2558166648" lon="7.40181110408">
		<tag k="name" v="Kattridalstjørn" />
		<tag k="natural" v="water" />
		<tag k="ssr:stedsnr" v="567230" />
	</node>
	<node id="-320677" lat="59.309419442" lon="7.45833888157">
		<tag k="name" v="Blautegrjotsbekken" />
		<tag k="ssr:stedsnr" v="567201" />
		<tag k="waterway" v="stream" />
	</node>
	<node id="-320675" lat="59.2888249993" lon="7.47381388094">
		<tag k="alt_name" v="Fakoddtjørn" />
		<tag k="name" v="Farkoddtjørni" />
		<tag k="natural" v="water" />
		<tag k="old_name" v="Farkot" />
		<tag k="ssr:stedsnr" v="567150" />
	</node>
	<node id="-318620" lat="59.0802833344" lon="7.41479721732">
		<tag k="alt_name" v="Myklevassåna" />
		<tag k="name" v="Myklevassåni" />
		<tag k="ssr:stedsnr" v="122747" />
		<tag k="waterway" v="stream" />
	</node>
	<node id="-320665" lat="59.259669447" lon="7.44588611825">
		<tag k="name" v="Røyslandstjørni" />
		<tag k="natural" v="water" />
		<tag k="old_name" v="Røyslandstjørn" />
		<tag k="ssr:stedsnr" v="548686" />
	</node>
	<node id="-318616" lat="59.0586666712" lon="7.40332500206">
		<tag k="alt_name" v="Garevatn" />
		<tag k="name" v="Gardevatn" />
		<tag k="natural" v="water" />
		<tag k="ssr:stedsnr" v="122708" />
	</node>
	<node id="-320662" lat="59.1138638929" lon="7.66735834">
		<tag k="alt_name" v="Mjåvatnet, austre" />
		<tag k="name" v="Austre Mjåvatnet" />
		<tag k="natural" v="water" />
		<tag k="ssr:stedsnr" v="548653" />
		<tag k="water" v="lake" />
	</node>
	<node id="-318612" lat="59.1646019785" lon="7.45066701982">
		<tag k="alt_name" v="Stigtjane" />
		<tag k="name" v="Stigtjørnin" />
		<tag k="natural" v="water" />
		<tag k="ssr:stedsnr" v="122608" />
	</node>
	<node id="-318610" lat="59.1584527798" lon="7.36901389236">
		<tag k="name" v="Melrakkvatnet" />
		<tag k="natural" v="water" />
		<tag k="ssr:stedsnr" v="122596" />
	</node>
	<node id="-318608" lat="59.1510611101" lon="7.50510000683">
		<tag k="name" v="Tjørnelitjørn" />
		<tag k="natural" v="water" />
		<tag k="ssr:stedsnr" v="122582" />
	</node>
	<node id="-318606" lat="59.1517886281" lon="7.64352013854">
		<tag k="alt_name" v="Haugebuetjørnin" />
		<tag k="name" v="Haugebutjørnin" />
		<tag k="natural" v="water" />
		<tag k="ssr:stedsnr" v="122577" />
	</node>
	<node id="-320653" lat="59.2752222231" lon="7.3342972303">
		<tag k="name" v="Den nedste løkjen" />
		<tag k="place" v="locality" />
		<tag k="ssr:stedsnr" v="548483" />
	</node>
	<node id="-320652" lat="59.2671999987" lon="7.32970277583">
		<tag k="name" v="Kjeddingetjønn" />
		<tag k="natural" v="water" />
		<tag k="ssr:stedsnr" v="548478" />
	</node>
	<node id="-318603" lat="59.0608305545" lon="7.73144167232">
		<tag k="name" v="Langevatn" />
		<tag k="natural" v="water" />
		<tag k="ssr:stedsnr" v="122445" />
		<tag k="water" v="lake" />
	</node>
	<node id="-320650" lat="59.2058722245" lon="7.72800555101">
		<tag k="alt_name" v="Hovatn" />
		<tag k="name" v="Hovvatn" />
		<tag k="natural" v="water" />
		<tag k="ssr:stedsnr" v="548379" />
		<tag k="water" v="lake" />
	</node>
	<node id="-318601" lat="58.9746999988" lon="7.13366665826">
		<tag k="name" v="Bjortjørn" />
		<tag k="natural" v="water" />
		<tag k="ssr:stedsnr" v="122228" />
	</node>
	<node id="-319681" lat="59.1995962726" lon="7.66898628206">
		<tag k="name" v="Snigletjørn" />
		<tag k="natural" v="water" />
		<tag k="ssr:stedsnr" v="266682" />
	</node>
	<node id="-320643" lat="59.0967083306" lon="7.3411999975">
		<tag k="name" v="Rennevatnet" />
		<tag k="natural" v="water" />
		<tag k="ssr:stedsnr" v="547937" />
		<tag k="water" v="lake" />
	</node>
	<node id="-320639" lat="59.1806972265" lon="7.2331027735">
		<tag k="name" v="Snorrodden" />
		<tag k="natural" v="cape" />
		<tag k="ssr:stedsnr" v="547887" />
	</node>
	<node id="-320638" lat="59.2247611091" lon="7.15457221984">
		<tag k="name" v="Det lange vatnet" />
		<tag k="natural" v="water" />
		<tag k="ssr:stedsnr" v="547880" />
		<tag k="water" v="lake" />
	</node>
	<node id="-320635" lat="59.1216416635" lon="7.25282777538">
		<tag k="name" v="Merakktjørni" />
		<tag k="natural" v="water" />
		<tag k="ssr:stedsnr" v="547851" />
		<tag k="water" v="lake" />
	</node>
	<node id="-318655" lat="59.1146722188" lon="7.47757777749">
		<tag k="name" v="Storbekken" />
		<tag k="ssr:stedsnr" v="123705" />
		<tag k="waterway" v="stream" />
	</node>
	<node id="-320631" lat="59.0930277766" lon="7.69038611692">
		<tag k="name" v="Oksetjørn" />
		<tag k="natural" v="water" />
		<tag k="ssr:stedsnr" v="547773" />
	</node>
	<node id="-320629" lat="59.0551805521" lon="7.45604166163">
		<tag k="alt_name" v="Grolitjørn" />
		<tag k="name" v="Grolivatnet" />
		<tag k="natural" v="water" />
		<tag k="ssr:stedsnr" v="547747" />
	</node>
	<node id="-320625" lat="59.0588361111" lon="7.54056110838">
		<tag k="name" v="Stemtjørn" />
		<tag k="natural" v="water" />
		<tag k="ssr:stedsnr" v="547723" />
	</node>
	<node id="-320621" lat="59.1256833311" lon="7.61748611584">
		<tag k="name" v="Hovatn" />
		<tag k="natural" v="water" />
		<tag k="ssr:stedsnr" v="547694" />
	</node>
	<node id="-316946" lat="59.2103444435" lon="7.4668416607">
		<tag k="name" v="Grytingsbekken" />
		<tag k="ssr:stedsnr" v="327262" />
		<tag k="waterway" v="stream" />
	</node>
	<node id="-316522" lat="59.3664944433" lon="7.50388611323">
		<tag k="name" v="Tørvedalstjørnin" />
		<tag k="natural" v="water" />
		<tag k="ssr:stedsnr" v="270634" />
	</node>
	<node id="-320617" lat="59.1452750032" lon="7.54340833571">
		<tag k="name" v="Kveasåni" />
		<tag k="ssr:stedsnr" v="547630" />
		<tag k="waterway" v="stream" />
	</node>
	<node id="-320611" lat="59.2245999956" lon="7.60518610742">
		<tag k="alt_name" v="Gristjørn" />
		<tag k="name" v="Grisetjørn" />
		<tag k="natural" v="water" />
		<tag k="ssr:stedsnr" v="547606" />
	</node>
	<node id="-320607" lat="59.2162144706" lon="7.49403215072">
		<tag k="alt_name" v="Middalstjørn" />
		<tag k="name" v="Middalstjørni" />
		<tag k="natural" v="water" />
		<tag k="ssr:stedsnr" v="547589" />
	</node>
	<node id="-322403" lat="59.0323027817" lon="7.22907499438">
		<tag k="name" v="Knutstjørn" />
		<tag k="natural" v="water" />
		<tag k="ssr:stedsnr" v="790972" />
	</node>
	<node id="-322875" lat="59.2339833357" lon="7.53438889715">
		<tag k="alt_name" v="Kjeøyne" />
		<tag k="name" v="Kjeøyni" />
		<tag k="place" v="islet" />
		<tag k="ssr:stedsnr" v="851962" />
	</node>
	<node id="-322402" lat="59.2379777753" lon="7.69986111758">
		<tag k="alt_name" v="Raudvatn" />
		<tag k="name" v="Raudvatnet" />
		<tag k="natural" v="water" />
		<tag k="ssr:stedsnr" v="790959" />
		<tag k="water" v="lake" />
	</node>
	<node id="-320694" lat="59.2000083335" lon="7.52151943883">
		<tag k="name" v="Steinslandsneset" />
		<tag k="natural" v="cape" />
		<tag k="ssr:stedsnr" v="568025" />
	</node>
	<node id="-322400" lat="59.0884750031" lon="7.31216667414">
		<tag k="alt_name" v="Bergsøydevatnet" />
		<tag k="name" v="Bergsøydevatn" />
		<tag k="natural" v="water" />
		<tag k="ssr:stedsnr" v="790937" />
		<tag k="water" v="lake" />
	</node>
	<node id="-320692" lat="59.1924777795" lon="7.52276110773">
		<tag k="name" v="Lambarsia" />
		<tag k="place" v="locality" />
		<tag k="ssr:stedsnr" v="568019" />
	</node>
	<node id="-322397" lat="59.0572555574" lon="7.17700832568">
		<tag k="name" v="Nålevadet" />
		<tag k="place" v="locality" />
		<tag k="ssr:stedsnr" v="790905" />
	</node>
	<node id="-322396" lat="59.0698472188" lon="7.20564999734">
		<tag k="name" v="Pollen" />
		<tag k="natural" v="bay" />
		<tag k="ssr:stedsnr" v="790896" />
	</node>
	<node id="-320004" lat="59.2577249984" lon="7.64720000306">
		<tag k="name" v="Ulvtjørn" />
		<tag k="natural" v="water" />
		<tag k="ssr:stedsnr" v="427632" />
	</node>
	<node id="-322561" lat="59.0871000031" lon="7.56734999641">
		<tag k="name" v="Fjøddebekken" />
		<tag k="ssr:stedsnr" v="812984" />
		<tag k="waterway" v="stream" />
	</node>
	<node id="-322558" lat="59.0348749976" lon="7.52611388874">
		<tag k="name" v="Rjukande" />
		<tag k="natural" v="waterfall" />
		<tag k="ssr:stedsnr" v="812844" />
	</node>
	<node id="-322555" lat="59.0507916693" lon="7.51779999444">
		<tag k="name" v="Skorebekken" />
		<tag k="ssr:stedsnr" v="812817" />
		<tag k="waterway" v="stream" />
	</node>
	<node id="-321023" lat="59.1643833312" lon="7.58136110389">
		<tag k="name" v="Ferdevatn" />
		<tag k="natural" v="water" />
		<tag k="ssr:stedsnr" v="607599" />
	</node>
	<node id="-322547" lat="59.11919722" lon="7.62609721527">
		<tag k="name" v="Skarketjørn" />
		<tag k="natural" v="water" />
		<tag k="ssr:stedsnr" v="812742" />
	</node>
	<node id="-322546" lat="59.128949193" lon="7.61525485109">
		<tag k="name" v="Finnstøyltjømni" />
		<tag k="natural" v="water" />
		<tag k="ssr:stedsnr" v="812743" />
	</node>
	<node id="-322543" lat="59.1793737718" lon="7.6315907428">
		<tag k="name" v="Svårtetjørn" />
		<tag k="natural" v="water" />
		<tag k="ssr:stedsnr" v="812723" />
	</node>
	<node id="-322542" lat="59.1776611155" lon="7.68886944225">
		<tag k="name" v="Optekrokane" />
		<tag k="natural" v="cape" />
		<tag k="ssr:stedsnr" v="812706" />
	</node>
	<node id="-322541" lat="59.2175527814" lon="7.53809999157">
		<tag k="name" v="Lisløy" />
		<tag k="natural" v="cape" />
		<tag k="ssr:stedsnr" v="812701" />
	</node>
	<node id="-322530" lat="59.0638666673" lon="7.52376389529">
		<tag k="name" v="Hukebekken" />
		<tag k="ssr:stedsnr" v="812662" />
		<tag k="waterway" v="stream" />
	</node>
	<node id="-319995" lat="59.2558464986" lon="7.1490438699">
		<tag k="name" v="Den lange tjønni" />
		<tag k="natural" v="water" />
		<tag k="ssr:stedsnr" v="427491" />
	</node>
	<node id="-322528" lat="59.0305916699" lon="7.51779166763">
		<tag k="name" v="Vindsåsbekken" />
		<tag k="ssr:stedsnr" v="812648" />
		<tag k="waterway" v="stream" />
	</node>
	<node id="-322527" lat="59.1227722188" lon="7.6058472146">
		<tag k="name" v="Oksetjørn" />
		<tag k="natural" v="water" />
		<tag k="ssr:stedsnr" v="812647" />
	</node>
	<node id="-322524" lat="59.0848472228" lon="7.75421110595">
		<tag k="name" v="Kåperviki" />
		<tag k="natural" v="bay" />
		<tag k="ssr:stedsnr" v="812619" />
	</node>
	<node id="-320756" lat="59.0441861127" lon="7.46393610281">
		<tag k="name" v="Øyetjørn" />
		<tag k="natural" v="water" />
		<tag k="ssr:stedsnr" v="569456" />
	</node>
	<node id="-322521" lat="59.0867027785" lon="7.75005833607">
		<tag k="name" v="Syvråviki" />
		<tag k="natural" v="bay" />
		<tag k="ssr:stedsnr" v="812616" />
	</node>
	<node id="-322520" lat="59.0833277786" lon="7.75612499348">
		<tag k="name" v="Basstogodden" />
		<tag k="natural" v="cape" />
		<tag k="ssr:stedsnr" v="812617" />
	</node>
	<node id="-322519" lat="59.0960944463" lon="7.79624443811">
		<tag k="alt_name" v="Nutevatni, lange" />
		<tag k="name" v="Nutevatn (nedste)" />
		<tag k="natural" v="water" />
		<tag k="ssr:stedsnr" v="812610" />
		<tag k="water" v="lake" />
	</node>
	<node id="-322871" lat="59.2469499963" lon="7.54768611706">
		<tag k="alt_name" v="Hommsåne" />
		<tag k="name" v="Homsåni" />
		<tag k="ssr:stedsnr" v="851949" />
		<tag k="waterway" v="stream" />
	</node>
	<node id="-322515" lat="59.1815805527" lon="7.72966945287">
		<tag k="name" v="Øytjørn" />
		<tag k="natural" v="water" />
		<tag k="ssr:stedsnr" v="812590" />
	</node>
	<node id="-322507" lat="59.2411777755" lon="7.62162222946">
		<tag k="name" v="Neset" />
		<tag k="natural" v="cape" />
		<tag k="ssr:stedsnr" v="812568" />
	</node>
	<node id="-322500" lat="59.1187416629" lon="7.71597777666">
		<tag k="name" v="Årodde" />
		<tag k="natural" v="cape" />
		<tag k="ssr:stedsnr" v="812536" />
	</node>
	<node id="-322499" lat="59.102444447" lon="7.72402500021">
		<tag k="name" v="Løkstjørn" />
		<tag k="natural" v="water" />
		<tag k="ssr:stedsnr" v="812532" />
	</node>
	<node id="-322497" lat="59.0523916625" lon="7.38196944975">
		<tag k="name" v="Djupetjørn" />
		<tag k="natural" v="water" />
		<tag k="ssr:stedsnr" v="812521" />
	</node>
	<node id="-322494" lat="59.0635444479" lon="7.42232499498">
		<tag k="name" v="Knutstjørn" />
		<tag k="natural" v="water" />
		<tag k="ssr:stedsnr" v="812472" />
	</node>
	<node id="-322491" lat="59.018969442" lon="7.4775972229">
		<tag k="alt_name" v="Strondetjørni;Strondetjørn" />
		<tag k="name" v="Strondetjønni" />
		<tag k="natural" v="water" />
		<tag k="ssr:stedsnr" v="812415" />
	</node>
	<node id="-322490" lat="59.0223472267" lon="7.48944167366">
		<tag k="name" v="Nyestøylåni" />
		<tag k="ssr:stedsnr" v="812414" />
		<tag k="waterway" v="stream" />
	</node>
	<node id="-322486" lat="59.1688861096" lon="7.6127749963">
		<tag k="name" v="Vassendsosen" />
		<tag k="natural" v="bay" />
		<tag k="ssr:stedsnr" v="812358" />
	</node>
	<node id="-322952" lat="59.0720151723" lon="7.77096958922">
		<tag k="name" v="Hestekværtjørni" />
		<tag k="natural" v="water" />
		<tag k="ssr:stedsnr" v="872542" />
	</node>
	<node id="-322478" lat="59.344316668" lon="7.5133361034">
		<tag k="name" v="Sundet" />
		<tag k="natural" v="bay" />
		<tag k="ssr:stedsnr" v="811777" />
	</node>
	<node id="-320101" lat="59.120624999" lon="7.74569165999">
		<tag k="name" v="Kråketjørnspyttene" />
		<tag k="natural" v="water" />
		<tag k="ssr:stedsnr" v="448600" />
	</node>
	<node id="-322474" lat="59.3309416663" lon="7.50409722012">
		<tag k="name" v="Mjåvik" />
		<tag k="natural" v="bay" />
		<tag k="ssr:stedsnr" v="811740" />
	</node>
	<node id="-322473" lat="59.2300944429" lon="7.53841111869">
		<tag k="name" v="Storøyne" />
		<tag k="place" v="island" />
		<tag k="ssr:stedsnr" v="811618" />
	</node>
	<node id="-322461" lat="59.108855554" lon="7.38756388985">
		<tag k="name" v="Skartjørn" />
		<tag k="natural" v="water" />
		<tag k="ssr:stedsnr" v="811461" />
	</node>
	<node id="-322460" lat="59.0815444433" lon="7.38321389426">
		<tag k="alt_name" v="Kråkelbekken" />
		<tag k="name" v="Krokelbekken" />
		<tag k="ssr:stedsnr" v="811429" />
		<tag k="waterway" v="stream" />
	</node>
	<node id="-322457" lat="59.0217833299" lon="7.4080527741">
		<tag k="name" v="Heimre Poddetjørn" />
		<tag k="natural" v="water" />
		<tag k="ssr:stedsnr" v="811409" />
	</node>
	<node id="-322456" lat="59.0122972247" lon="7.38764722199">
		<tag k="name" v="Løkin" />
		<tag k="natural" v="water" />
		<tag k="ssr:stedsnr" v="811410" />
		<tag k="water" v="lake" />
	</node>
	<node id="-322455" lat="59.0154166687" lon="7.39608332804">
		<tag k="name" v="Nordre Teistetjørn" />
		<tag k="natural" v="water" />
		<tag k="ssr:stedsnr" v="811408" />
	</node>
	<node id="-322454" lat="59.0952833301" lon="7.43659723013">
		<tag k="name" v="Årekroksodden" />
		<tag k="natural" v="cape" />
		<tag k="ssr:stedsnr" v="811407" />
	</node>
	<node id="-322451" lat="59.078011112" lon="7.4391416656">
		<tag k="name" v="Lomstjørnbekken" />
		<tag k="ssr:stedsnr" v="811393" />
		<tag k="waterway" v="stream" />
	</node>
	<node id="-320323" lat="59.2075277795" lon="7.73516389108">
		<tag k="name" v="Lislevik" />
		<tag k="natural" v="bay" />
		<tag k="ssr:stedsnr" v="508919" />
	</node>
	<node id="-319640" lat="59.1124916656" lon="7.49907778563">
		<tag k="name" v="Bronebekken" />
		<tag k="ssr:stedsnr" v="265817" />
		<tag k="waterway" v="stream" />
	</node>
	<node id="-322445" lat="59.0404611127" lon="7.34273611491">
		<tag k="name" v="Lisletjørn" />
		<tag k="natural" v="water" />
		<tag k="ssr:stedsnr" v="811366" />
	</node>
	<node id="-322443" lat="59.0498416683" lon="7.36661111223">
		<tag k="name" v="Lisle Søtebekk" />
		<tag k="ssr:stedsnr" v="811362" />
		<tag k="waterway" v="stream" />
	</node>
	<node id="-322442" lat="59.0556638883" lon="7.37597778072">
		<tag k="name" v="Rapeodden" />
		<tag k="natural" v="cape" />
		<tag k="ssr:stedsnr" v="811360" />
	</node>
	<node id="-322438" lat="59.1924972203" lon="7.47883610264">
		<tag k="alt_name" v="Svinevadsåni" />
		<tag k="name" v="Svinevadsåne" />
		<tag k="ssr:stedsnr" v="811315" />
		<tag k="waterway" v="river" />
	</node>
	<node id="-320320" lat="59.0694277754" lon="7.57029444387">
		<tag k="name" v="Neset" />
		<tag k="natural" v="cape" />
		<tag k="ssr:stedsnr" v="508871" />
	</node>
	<node id="-322430" lat="59.2513111067" lon="7.37945832526">
		<tag k="name" v="Lomtjørn" />
		<tag k="natural" v="water" />
		<tag k="ssr:stedsnr" v="811152" />
	</node>
	<node id="-322427" lat="59.286808335" lon="7.54881388903">
		<tag k="alt_name" v="Fettebekken" />
		<tag k="name" v="Fitebekken" />
		<tag k="ssr:stedsnr" v="792642" />
		<tag k="waterway" v="stream" />
	</node>
	<node id="-318330" lat="59.2181918005" lon="7.75821393851">
		<tag k="alt_name" v="Storrdalenstjørn" />
		<tag k="name" v="Storrdalstjørn" />
		<tag k="natural" v="water" />
		<tag k="ssr:stedsnr" v="84929" />
	</node>
	<node id="-322425" lat="59.3008166634" lon="7.58357499196">
		<tag k="name" v="Bjørndalstjørnin" />
		<tag k="natural" v="water" />
		<tag k="ssr:stedsnr" v="791715" />
	</node>
	<node id="-318328" lat="59.1890444408" lon="7.6787388918">
		<tag k="name" v="Optetjørn" />
		<tag k="natural" v="water" />
		<tag k="ssr:stedsnr" v="84691" />
	</node>
	<node id="-318327" lat="59.1083527757" lon="7.63555277914">
		<tag k="name" v="Kjesetjørn" />
		<tag k="natural" v="water" />
		<tag k="ssr:stedsnr" v="84688" />
	</node>
	<node id="-322421" lat="59.27074344" lon="7.67682837521">
		<tag k="alt_name" v="Saksundvatn, øvre" />
		<tag k="name" v="Øvre Saksundvatn" />
		<tag k="natural" v="water" />
		<tag k="ssr:stedsnr" v="791685" />
	</node>
	<node id="-318320" lat="59.147933331" lon="7.61966944421">
		<tag k="name" v="Snigletjørne" />
		<tag k="natural" v="water" />
		<tag k="ssr:stedsnr" v="84653" />
	</node>
	<node id="-318319" lat="59.0779222214" lon="7.67075556151">
		<tag k="name" v="Fossebrotbekken" />
		<tag k="ssr:stedsnr" v="84646" />
		<tag k="waterway" v="stream" />
	</node>
	<node id="-322413" lat="59.3474416674" lon="7.56012499663">
		<tag k="name" v="Sandebekken" />
		<tag k="ssr:stedsnr" v="791545" />
		<tag k="waterway" v="stream" />
	</node>
	<node id="-322411" lat="59.2669277773" lon="7.33466388171">
		<tag k="name" v="Gjesløyåni" />
		<tag k="ssr:stedsnr" v="791459" />
		<tag k="waterway" v="stream" />
	</node>
	<node id="-318314" lat="59.0966527795" lon="7.72047500413">
		<tag k="name" v="Geitehomen" />
		<tag k="place" v="islet" />
		<tag k="ssr:stedsnr" v="84604" />
	</node>
	<node id="-322408" lat="59.0017222206" lon="7.29787500839">
		<tag k="name" v="Finnbuvatnet" />
		<tag k="natural" v="water" />
		<tag k="ssr:stedsnr" v="790997" />
	</node>
	<node id="-318311" lat="59.047766664" lon="7.45861388594">
		<tag k="name" v="Løken" />
		<tag k="natural" v="water" />
		<tag k="ssr:stedsnr" v="84496" />
		<tag k="water" v="lake" />
	</node>
	<node id="-322406" lat="59.000288885" lon="7.15553889181">
		<tag k="name" v="Rågeloni" />
		<tag k="natural" v="water" />
		<tag k="ssr:stedsnr" v="790982" />
		<tag k="water" v="lake" />
	</node>
	<node id="-322405" lat="59.024936108" lon="7.28238610573">
		<tag k="name" v="Steinbutjørnin" />
		<tag k="natural" v="water" />
		<tag k="ssr:stedsnr" v="790978" />
	</node>
	<node id="-318307" lat="59.0684999974" lon="7.43777222276">
		<tag k="name" v="Brussebekken" />
		<tag k="ssr:stedsnr" v="84446" />
		<tag k="waterway" v="stream" />
	</node>
	<node id="-318306" lat="59.0674694409" lon="7.47685277313">
		<tag k="name" v="Grimtsveitsfossen" />
		<tag k="natural" v="waterfall" />
		<tag k="ssr:stedsnr" v="84433" />
	</node>
	<node id="-318305" lat="59.0742666651" lon="7.47335000605">
		<tag k="name" v="Fossen" />
		<tag k="natural" v="waterfall" />
		<tag k="ssr:stedsnr" v="84430" />
	</node>
	<node id="-318304" lat="59.0618666676" lon="7.63212499533">
		<tag k="name" v="Trogetjørnsbekken" />
		<tag k="ssr:stedsnr" v="84421" />
		<tag k="waterway" v="stream" />
	</node>
	<node id="-322399" lat="59.1130888883" lon="7.196683339">
		<tag k="name" v="Linderstjørn" />
		<tag k="natural" v="water" />
		<tag k="ssr:stedsnr" v="790927" />
		<tag k="water" v="lake" />
	</node>
	<node id="-318302" lat="59.075616667" lon="7.70575834128">
		<tag k="name" v="Rossodden" />
		<tag k="place" v="islet" />
		<tag k="ssr:stedsnr" v="84391" />
	</node>
	<node id="-318301" lat="59.0698361069" lon="7.62529722935">
		<tag k="name" v="Bytesbekken" />
		<tag k="ssr:stedsnr" v="84389" />
		<tag k="waterway" v="stream" />
	</node>
	<node id="-318300" lat="59.2158361152" lon="7.47829722622">
		<tag k="name" v="Dåstøylbekken" />
		<tag k="ssr:stedsnr" v="84301" />
		<tag k="waterway" v="stream" />
	</node>
	<node id="-322393" lat="59.2086750018" lon="7.24120277844">
		<tag k="name" v="Skammevatnet" />
		<tag k="natural" v="water" />
		<tag k="ssr:stedsnr" v="790870" />
		<tag k="water" v="lake" />
	</node>
	<node id="-322392" lat="59.1339749975" lon="7.24708056242">
		<tag k="name" v="Den svarte tjørni" />
		<tag k="natural" v="water" />
		<tag k="old_name" v="Den svarte tjorni" />
		<tag k="ssr:stedsnr" v="790861" />
		<tag k="water" v="lake" />
	</node>
	<node id="-322390" lat="59.0686583304" lon="7.41702221747">
		<tag k="alt_name" v="Langetjørn" />
		<tag k="name" v="Langtjørn" />
		<tag k="natural" v="water" />
		<tag k="ssr:stedsnr" v="790756" />
	</node>
	<node id="-322385" lat="59.0444861089" lon="7.39203888576">
		<tag k="name" v="Jarbutjørn" />
		<tag k="natural" v="water" />
		<tag k="ssr:stedsnr" v="790737" />
	</node>
	<node id="-318287" lat="59.0454555601" lon="7.5520055608">
		<tag k="name" v="Sollibekken" />
		<tag k="ssr:stedsnr" v="83812" />
		<tag k="waterway" v="stream" />
	</node>
	<node id="-318286" lat="59.3385527737" lon="7.491555558">
		<tag k="name" v="Stykkedapen" />
		<tag k="place" v="locality" />
		<tag k="ssr:stedsnr" v="83807" />
	</node>
	<node id="-319623" lat="59.1653611148" lon="7.58239444034">
		<tag k="name" v="Farevatn" />
		<tag k="natural" v="water" />
		<tag k="ssr:stedsnr" v="265635" />
		<tag k="water" v="lake" />
	</node>
	<node id="-320330" lat="59.0700527747" lon="7.41473889274">
		<tag k="name" v="Langetjørnsbekken" />
		<tag k="ssr:stedsnr" v="509404" />
		<tag k="waterway" v="stream" />
	</node>
	<node id="-320329" lat="59.0726277739" lon="7.45382500533">
		<tag k="name" v="Stemmen" />
		<tag k="ssr:stedsnr" v="509401" />
		<tag k="waterway" v="dam" />
	</node>
	<node id="-322375" lat="59.1108805595" lon="7.64864722323">
		<tag k="alt_name" v="Mjåvatnet, heimre;Heimre Mjåvatn" />
		<tag k="name" v="Heimre Mjåvatnet" />
		<tag k="natural" v="water" />
		<tag k="ssr:stedsnr" v="790684" />
		<tag k="water" v="lake" />
	</node>
	<node id="-322373" lat="59.0988166644" lon="7.57900277245">
		<tag k="name" v="Taklitjørn" />
		<tag k="natural" v="water" />
		<tag k="ssr:stedsnr" v="790668" />
	</node>
	<node id="-318276" lat="59.1157666666" lon="7.55433889253">
		<tag k="name" v="Brunedalstjørni" />
		<tag k="natural" v="water" />
		<tag k="ssr:stedsnr" v="83760" />
	</node>
	<node id="-322371" lat="59.1726861105" lon="7.60493611903">
		<tag k="alt_name" v="Vasslandsvatn" />
		<tag k="name" v="Vasslandsvatnet" />
		<tag k="natural" v="water" />
		<tag k="ssr:stedsnr" v="790653" />
	</node>
	<node id="-320322" lat="59.2106999978" lon="7.72120556185">
		<tag k="name" v="Midtviki" />
		<tag k="natural" v="bay" />
		<tag k="ssr:stedsnr" v="508918" />
	</node>
	<node id="-322369" lat="59.1633388878" lon="7.39577499237">
		<tag k="name" v="Dei djupe tjørnin" />
		<tag k="natural" v="water" />
		<tag k="ssr:stedsnr" v="790646" />
	</node>
	<node id="-322368" lat="59.1726284442" lon="7.657968229">
		<tag k="name" v="Mjeltetjørn" />
		<tag k="natural" v="water" />
		<tag k="ssr:stedsnr" v="790644" />
	</node>
	<node id="-322366" lat="59.1542416642" lon="7.45127222219">
		<tag k="name" v="Oppstadvidelvatnet" />
		<tag k="natural" v="water" />
		<tag k="ssr:stedsnr" v="790635" />
	</node>
	<node id="-318602" lat="58.9863972221" lon="7.29261111748">
		<tag k="name" v="Tolleivvatnet" />
		<tag k="natural" v="water" />
		<tag k="old_name" v="Todleivvatnet" />
		<tag k="ssr:stedsnr" v="122233" />
	</node>
	<node id="-320313" lat="59.0565888928" lon="7.56543056077">
		<tag k="name" v="Bjørgi" />
		<tag k="natural" v="bay" />
		<tag k="ssr:stedsnr" v="508856" />
	</node>
	<node id="-322359" lat="59.1337636484" lon="7.55216334366">
		<tag k="alt_name" v="Øydetjørn, øvre;Øvre-Øydetjørn" />
		<tag k="name" v="Øvre Øydetjørn" />
		<tag k="natural" v="water" />
		<tag k="ssr:stedsnr" v="790595" />
	</node>
	<node id="-322356" lat="59.2296083298" lon="7.63775277166">
		<tag k="alt_name" v="Reppestjørn" />
		<tag k="name" v="Reppistjørni" />
		<tag k="natural" v="water" />
		<tag k="ssr:stedsnr" v="790586" />
	</node>
	<node id="-320307" lat="59.1001888885" lon="7.5237388803">
		<tag k="name" v="Rikreisholme" />
		<tag k="place" v="islet" />
		<tag k="ssr:stedsnr" v="508772" />
	</node>
	<node id="-320302" lat="59.1965305591" lon="7.65939999544">
		<tag k="name" v="Ytste Vøilevatnet" />
		<tag k="natural" v="water" />
		<tag k="ssr:stedsnr" v="508704" />
	</node>
	<node id="-320300" lat="59.1766694449" lon="7.67742500823">
		<tag k="name" v="Ruslestrondi" />
		<tag k="natural" v="beach" />
		<tag k="ssr:stedsnr" v="508700" />
	</node>
	<node id="-323378" lat="59.1296499991" lon="7.4792888964">
		<tag k="name" v="Tveitstøylbekken" />
		<tag k="ssr:stedsnr" v="933375" />
		<tag k="waterway" v="stream" />
	</node>
	<node id="-318250" lat="59.0832638899" lon="7.41052500658">
		<tag k="name" v="Åmstulitjørn" />
		<tag k="natural" v="water" />
		<tag k="ssr:stedsnr" v="83429" />
	</node>
	<node id="-320297" lat="59.1146416625" lon="7.6725305475">
		<tag k="name" v="Austre Mjåvatn" />
		<tag k="natural" v="water" />
		<tag k="ssr:stedsnr" v="508668" />
		<tag k="water" v="lake" />
	</node>
	<node id="-320295" lat="59.1361722218" lon="7.60563889658">
		<tag k="alt_name" v="Méetjørn" />
		<tag k="name" v="Méettjørnet" />
		<tag k="natural" v="water" />
		<tag k="ssr:stedsnr" v="508655" />
	</node>
	<node id="-320294" lat="59.1564611105" lon="7.61393334121">
		<tag k="name" v="Fiskevassbekken" />
		<tag k="ssr:stedsnr" v="508652" />
		<tag k="waterway" v="stream" />
	</node>
	<node id="-320293" lat="59.1065055549" lon="7.77325000172">
		<tag k="name" v="Kilsbukti" />
		<tag k="natural" v="bay" />
		<tag k="ssr:stedsnr" v="508646" />
	</node>
	<node id="-320287" lat="59.0903972212" lon="7.73315555105">
		<tag k="name" v="Timreviki" />
		<tag k="natural" v="bay" />
		<tag k="ssr:stedsnr" v="508631" />
	</node>
	<node id="-320285" lat="59.1443111131" lon="7.56144165906">
		<tag k="name" v="Løksåsneset" />
		<tag k="ssr:stedsnr" v="508609" />
		<tag k="waterway" v="stream" />
	</node>
	<node id="-320283" lat="59.1335638847" lon="7.51744721679">
		<tag k="name" v="Kåvenesdekken" />
		<tag k="ssr:stedsnr" v="508603" />
		<tag k="waterway" v="stream" />
	</node>
	<node id="-318233" lat="59.2309194447" lon="7.45558054795">
		<tag k="name" v="Sprenen" />
		<tag k="natural" v="waterfall" />
		<tag k="ssr:stedsnr" v="83304" />
	</node>
	<node id="-318231" lat="59.0293019239" lon="7.50038512589">
		<tag k="name" v="Vardetjørn" />
		<tag k="natural" v="water" />
		<tag k="ssr:stedsnr" v="83632" />
	</node>
	<node id="-320278" lat="59.1306591111" lon="7.58530688123">
		<tag k="name" v="Musetjørn" />
		<tag k="natural" v="water" />
		<tag k="ssr:stedsnr" v="508591" />
	</node>
	<node id="-318229" lat="59.2371333307" lon="7.52450278293">
		<tag k="name" v="Evja" />
		<tag k="ssr:stedsnr" v="83604" />
		<tag k="waterway" v="river" />
	</node>
	<node id="-318222" lat="59.2700000008" lon="7.39167500204">
		<tag k="alt_name" v="Siptesbekken;Skiftesbekken" />
		<tag k="name" v="Skiptesbekken" />
		<tag k="ssr:stedsnr" v="82136" />
		<tag k="waterway" v="stream" />
	</node>
	<node id="-318221" lat="59.2987861117" lon="7.4454555591">
		<tag k="name" v="Neiretjørn" />
		<tag k="natural" v="water" />
		<tag k="ssr:stedsnr" v="82241" />
	</node>
	<node id="-318219" lat="59.2543888851" lon="7.38188334145">
		<tag k="name" v="Solliløken" />
		<tag k="natural" v="water" />
		<tag k="ssr:stedsnr" v="82160" />
		<tag k="water" v="lake" />
	</node>
	<node id="-320266" lat="59.0710361115" lon="7.76613334192">
		<tag k="name" v="Straumssundet" />
		<tag k="natural" v="strait" />
		<tag k="ssr:stedsnr" v="508553" />
	</node>
	<node id="-320265" lat="59.1624916669" lon="7.52681110837">
		<tag k="name" v="Rossenes" />
		<tag k="natural" v="cape" />
		<tag k="ssr:stedsnr" v="508549" />
	</node>
	<node id="-318216" lat="59.2986138906" lon="7.53045277706">
		<tag k="alt_name" v="Storrlitjørni" />
		<tag k="name" v="Storrlitjønn" />
		<tag k="natural" v="water" />
		<tag k="ssr:stedsnr" v="63710" />
	</node>
	<node id="-323372" lat="59.1948666693" lon="7.52310278132">
		<tag k="name" v="Storevje" />
		<tag k="natural" v="bay" />
		<tag k="ssr:stedsnr" v="933032" />
	</node>
	<node id="-318214" lat="59.2886944429" lon="7.50786944568">
		<tag k="alt_name" v="Husebøåne" />
		<tag k="name" v="Husebøåni" />
		<tag k="old_name" v="Husebyåni" />
		<tag k="ssr:stedsnr" v="63698" />
		<tag k="waterway" v="stream" />
	</node>
	<node id="-318213" lat="59.2704583353" lon="7.40273333168">
		<tag k="name" v="Drengsøy" />
		<tag k="place" v="islet" />
		<tag k="ssr:stedsnr" v="63693" />
	</node>
	<node id="-318210" lat="59.267611099" lon="7.52096567067">
		<tag k="name" v="Hylen" />
		<tag k="natural" v="water" />
		<tag k="ssr:stedsnr" v="63676" />
	</node>
	<node id="-322347" lat="59.0302111134" lon="7.44860276991">
		<tag k="name" v="Rotveltåni" />
		<tag k="ssr:stedsnr" v="790258" />
		<tag k="waterway" v="stream" />
	</node>
	<node id="-320256" lat="59.1042638919" lon="7.47012222196">
		<tag k="name" v="Kveisemyrbekken" />
		<tag k="ssr:stedsnr" v="508483" />
		<tag k="waterway" v="stream" />
	</node>
	<node id="-318207" lat="59.3679388877" lon="7.56087499321">
		<tag k="name" v="Øyrevatn" />
		<tag k="natural" v="water" />
		<tag k="ssr:stedsnr" v="63589" />
	</node>
	<node id="-318206" lat="59.3503250026" lon="7.50161111779">
		<tag k="name" v="Kyrelitjønn" />
		<tag k="natural" v="water" />
		<tag k="ssr:stedsnr" v="63585" />
	</node>
	<node id="-322346" lat="59.0153222244" lon="7.3795333273">
		<tag k="name" v="Fiskevatnet" />
		<tag k="natural" v="water" />
		<tag k="ssr:stedsnr" v="790243" />
		<tag k="water" v="lake" />
	</node>
	<node id="-320250" lat="59.0735611154" lon="7.69408056372">
		<tag k="alt_name" v="Suggeviki" />
		<tag k="name" v="Suggevik" />
		<tag k="natural" v="bay" />
		<tag k="ssr:stedsnr" v="508450" />
	</node>
	<node id="-318201" lat="59.3215972224" lon="7.50515555206">
		<tag k="alt_name" v="Uglåne" />
		<tag k="name" v="Uglåni" />
		<tag k="ssr:stedsnr" v="63535" />
		<tag k="waterway" v="stream" />
	</node>
	<node id="-318200" lat="59.3159944445" lon="7.62335277276">
		<tag k="name" v="Vøylen" />
		<tag k="old_name" v="Voilen" />
		<tag k="place" v="locality" />
		<tag k="ssr:stedsnr" v="63531" />
	</node>
	<node id="-318199" lat="59.2525888849" lon="7.29623610976">
		<tag k="name" v="Nautetotjønn" />
		<tag k="natural" v="water" />
		<tag k="ssr:stedsnr" v="63517" />
	</node>
	<node id="-318198" lat="59.2576611084" lon="7.3299416703">
		<tag k="name" v="Den svarte tjønni" />
		<tag k="natural" v="water" />
		<tag k="ssr:stedsnr" v="63501" />
	</node>
	<node id="-318196" lat="59.2872861113" lon="7.32245278301">
		<tag k="name" v="Skarketjønn" />
		<tag k="natural" v="water" />
		<tag k="ssr:stedsnr" v="63489" />
	</node>
	<node id="-318195" lat="59.0086000003" lon="7.22923055724">
		<tag k="name" v="Svarteløken" />
		<tag k="natural" v="water" />
		<tag k="ssr:stedsnr" v="62980" />
	</node>
	<node id="-320242" lat="59.1217166656" lon="7.43853888158">
		<tag k="name" v="Leitelva" />
		<tag k="ssr:stedsnr" v="508379" />
		<tag k="waterway" v="river" />
	</node>
	<node id="-320241" lat="59.19188333" lon="7.4369305495">
		<tag k="name" v="Tverrbekken" />
		<tag k="ssr:stedsnr" v="508374" />
		<tag k="waterway" v="stream" />
	</node>
	<node id="-318189" lat="59.1073249968" lon="7.3316972172">
		<tag k="name" v="Brokkeøyvatnet" />
		<tag k="natural" v="water" />
		<tag k="ssr:stedsnr" v="62929" />
		<tag k="water" v="lake" />
	</node>
	<node id="-318187" lat="59.0741666641" lon="7.17236111058">
		<tag k="name" v="Lonene" />
		<tag k="place" v="locality" />
		<tag k="ssr:stedsnr" v="62881" />
	</node>
	<node id="-318184" lat="59.1931333345" lon="7.04147499202">
		<tag k="name" v="Øyesåtjørni" />
		<tag k="natural" v="water" />
		<tag k="ssr:stedsnr" v="62849" />
	</node>
	<node id="-318182" lat="59.1369222226" lon="7.2988277817">
		<tag k="name" v="Oppstad-Midtfjellvatnet" />
		<tag k="natural" v="water" />
		<tag k="ssr:stedsnr" v="62838" />
		<tag k="water" v="lake" />
	</node>
	<node id="-320228" lat="59.341019447" lon="7.53289444884">
		<tag k="name" v="Gruvlebekken" />
		<tag k="ssr:stedsnr" v="507788" />
		<tag k="waterway" v="stream" />
	</node>
	<node id="-318178" lat="59.0637138923" lon="7.71592222224">
		<tag k="name" v="Romundvatnet" />
		<tag k="natural" v="water" />
		<tag k="ssr:stedsnr" v="62720" />
	</node>
	<node id="-318177" lat="59.066691668" lon="7.4725000078">
		<tag k="name" v="Grimstveitbekken" />
		<tag k="ssr:stedsnr" v="62710" />
		<tag k="waterway" v="stream" />
	</node>
	<node id="-318176" lat="59.0613611085" lon="7.61778611313">
		<tag k="alt_name" v="Svartetjørn" />
		<tag k="name" v="Svortetjørn" />
		<tag k="natural" v="water" />
		<tag k="ssr:stedsnr" v="62698" />
	</node>
	<node id="-318175" lat="59.0547499979" lon="7.68975000397">
		<tag k="alt_name" v="Åsvatn" />
		<tag k="name" v="Åsvatnet" />
		<tag k="natural" v="water" />
		<tag k="ssr:stedsnr" v="62690" />
		<tag k="water" v="lake" />
	</node>
	<node id="-322341" lat="58.9958750024" lon="7.18608888917">
		<tag k="name" v="Løken fagre" />
		<tag k="natural" v="water" />
		<tag k="old_name" v="Løkjen fagre" />
		<tag k="ssr:stedsnr" v="790031" />
	</node>
	<node id="-318172" lat="59.1428171543" lon="7.71096245938">
		<tag k="alt_name" v="Skumtjørn, nørdre;Nordre Skumtørn" />
		<tag k="name" v="Nørdre Skumtjørn" />
		<tag k="natural" v="water" />
		<tag k="ssr:stedsnr" v="62677" />
	</node>
	<node id="-318171" lat="59.1173305558" lon="7.5337805625">
		<tag k="alt_name" v="Krokebekken" />
		<tag k="name" v="Krokbekken" />
		<tag k="ssr:stedsnr" v="62666" />
		<tag k="waterway" v="stream" />
	</node>
	<node id="-320217" lat="59.2464472188" lon="7.41130277829">
		<tag k="alt_name" v="Dørestjørn" />
		<tag k="name" v="Dyrestjørn" />
		<tag k="natural" v="water" />
		<tag k="ssr:stedsnr" v="487944" />
	</node>
	<node id="-320215" lat="59.094886114" lon="7.29357499575">
		<tag k="alt_name" v="Pikesteintj" />
		<tag k="name" v="Piksteintjørni" />
		<tag k="natural" v="water" />
		<tag k="ssr:stedsnr" v="487928" />
		<tag k="water" v="lake" />
	</node>
	<node id="-318166" lat="59.1729666674" lon="7.3532055477">
		<tag k="name" v="Knutstjørni" />
		<tag k="natural" v="water" />
		<tag k="ssr:stedsnr" v="62629" />
	</node>
	<node id="-320633" lat="59.2447520196" lon="7.34223249316">
		<tag k="name" v="Hovatn" />
		<tag k="natural" v="water" />
		<tag k="ssr:stedsnr" v="547800" />
		<tag k="water" v="lake" />
	</node>
	<node id="-318162" lat="59.1639361084" lon="7.67966666311">
		<tag k="name" v="Gjerdesbekken" />
		<tag k="ssr:stedsnr" v="62604" />
		<tag k="waterway" v="stream" />
	</node>
	<node id="-320209" lat="59.1844611112" lon="7.23990832633">
		<tag k="name" v="Snorrevadi" />
		<tag k="place" v="locality" />
		<tag k="ssr:stedsnr" v="487877" />
	</node>
	<node id="-320208" lat="59.2023527741" lon="7.29775000698">
		<tag k="alt_name" v="Svartetjørni, nedre" />
		<tag k="name" v="Nedre Svartetjørni" />
		<tag k="natural" v="water" />
		<tag k="ssr:stedsnr" v="487857" />
	</node>
	<node id="-320207" lat="59.2177388928" lon="7.09485277291">
		<tag k="name" v="Karintjørni" />
		<tag k="natural" v="water" />
		<tag k="ssr:stedsnr" v="487786" />
	</node>
	<node id="-318157" lat="59.1350611137" lon="7.63608889229">
		<tag k="alt_name" v="Grønlitjørni" />
		<tag k="name" v="Grønlitjørn" />
		<tag k="natural" v="water" />
		<tag k="ssr:stedsnr" v="62564" />
	</node>
	<node id="-318156" lat="59.2200750008" lon="7.6997527848">
		<tag k="alt_name" v="Fisstøylvannet;Fisstøylsvatnet" />
		<tag k="name" v="Fisstøylvatnet" />
		<tag k="natural" v="water" />
		<tag k="ssr:stedsnr" v="62533" />
		<tag k="water" v="lake" />
	</node>
	<node id="-320203" lat="59.3008166629" lon="7.43329721762">
		<tag k="name" v="Hagefoss" />
		<tag k="natural" v="waterfall" />
		<tag k="ssr:stedsnr" v="487751" />
	</node>
	<node id="-318151" lat="59.1245861078" lon="7.75213332482">
		<tag k="name" v="Boketjørn" />
		<tag k="natural" v="water" />
		<tag k="ssr:stedsnr" v="62421" />
	</node>
	<node id="-318150" lat="59.1210666691" lon="7.73089999593">
		<tag k="alt_name" v="Store Ramvatn" />
		<tag k="name" v="Ramvatn" />
		<tag k="natural" v="water" />
		<tag k="ssr:stedsnr" v="62417" />
	</node>
	<node id="-318148" lat="59.0056861146" lon="7.39156666356">
		<tag k="name" v="Kråktjørnin" />
		<tag k="natural" v="water" />
		<tag k="ssr:stedsnr" v="62273" />
	</node>
	<node id="-318147" lat="59.0240777738" lon="7.35973056036">
		<tag k="name" v="Øyevatnet" />
		<tag k="natural" v="water" />
		<tag k="ssr:stedsnr" v="62266" />
	</node>
	<node id="-318145" lat="58.9863000035" lon="7.22722777652">
		<tag k="name" v="Svoetjørnin" />
		<tag k="natural" v="water" />
		<tag k="ssr:stedsnr" v="62224" />
	</node>
	<node id="-318144" lat="58.9837805591" lon="7.20085277454">
		<tag k="name" v="Krossvatnet" />
		<tag k="natural" v="water" />
		<tag k="ssr:stedsnr" v="62215" />
	</node>
	<node id="-318143" lat="58.9968611074" lon="7.11297221822">
		<tag k="name" v="Madagaskar" />
		<tag k="place" v="islet" />
		<tag k="ssr:stedsnr" v="62031" />
	</node>
	<node id="-320190" lat="59.2636500033" lon="7.70482499856">
		<tag k="name" v="Storr-bekken" />
		<tag k="ssr:stedsnr" v="487714" />
		<tag k="waterway" v="stream" />
	</node>
	<node id="-320185" lat="59.099791665" lon="7.37337222935">
		<tag k="alt_name" v="Bjørnevatn" />
		<tag k="name" v="Bjørnevatnet" />
		<tag k="natural" v="water" />
		<tag k="ssr:stedsnr" v="487691" />
	</node>
	<node id="-320184" lat="59.2551000041" lon="7.57610000063">
		<tag k="alt_name" v="Stavvatn" />
		<tag k="name" v="Stavvatnet" />
		<tag k="natural" v="water" />
		<tag k="ssr:stedsnr" v="487686" />
		<tag k="water" v="lake" />
	</node>
	<node id="-320182" lat="59.3748250035" lon="7.55370000731">
		<tag k="name" v="Kleivsvatn" />
		<tag k="natural" v="water" />
		<tag k="ssr:stedsnr" v="487656" />
		<tag k="water" v="lake" />
	</node>
	<node id="-320178" lat="59.3253666645" lon="7.6286666664">
		<tag k="name" v="Lægdebekken" />
		<tag k="old_name" v="Lægebekken" />
		<tag k="ssr:stedsnr" v="487564" />
		<tag k="waterway" v="stream" />
	</node>
	<node id="-320176" lat="59.187349998" lon="7.37367777576">
		<tag k="alt_name" v="Krokvatnet, nedre" />
		<tag k="name" v="Nedre Krokvatnet" />
		<tag k="natural" v="water" />
		<tag k="ssr:stedsnr" v="487560" />
		<tag k="water" v="lake" />
	</node>
	<node id="-320175" lat="59.3176472201" lon="7.48781666779">
		<tag k="alt_name" v="Ædansfossen" />
		<tag k="name" v="Edlandsfossen" />
		<tag k="natural" v="waterfall" />
		<tag k="old_name" v="Edansfossen" />
		<tag k="ssr:stedsnr" v="487553" />
	</node>
	<node id="-320173" lat="59.3218083316" lon="7.67544722597">
		<tag k="name" v="Gryteviksbekken" />
		<tag k="old_name" v="Grutevikbekken" />
		<tag k="ssr:stedsnr" v="487549" />
		<tag k="waterway" v="stream" />
	</node>
	<node id="-320172" lat="59.3160888849" lon="7.69302500167">
		<tag k="name" v="Dilletjørn" />
		<tag k="natural" v="water" />
		<tag k="ssr:stedsnr" v="487547" />
	</node>
	<node id="-320171" lat="59.2570833338" lon="7.22716666916">
		<tag k="name" v="Sjedde" />
		<tag k="ssr:stedsnr" v="487531" />
		<tag k="waterway" v="stream" />
	</node>
	<node id="-320170" lat="59.2506666653" lon="7.18130833036">
		<tag k="name" v="Ljosåvatnet" />
		<tag k="natural" v="water" />
		<tag k="ssr:stedsnr" v="487521" />
		<tag k="water" v="lake" />
	</node>
	<node id="-320168" lat="59.2675833309" lon="7.27078889143">
		<tag k="name" v="Ljosåni" />
		<tag k="ssr:stedsnr" v="487511" />
		<tag k="waterway" v="river" />
	</node>
	<node id="-320167" lat="59.1173333367" lon="7.75068611525">
		<tag k="name" v="Kråketjørni" />
		<tag k="natural" v="water" />
		<tag k="ssr:stedsnr" v="487446" />
	</node>
	<node id="-320163" lat="59.2485888875" lon="7.7026194523">
		<tag k="name" v="Bjortjørnin" />
		<tag k="natural" v="water" />
		<tag k="ssr:stedsnr" v="486956" />
	</node>
	<node id="-320162" lat="59.24498889" lon="7.61808611547">
		<tag k="loc_name" v="Valevatnet" />
		<tag k="name" v="Valevatn" />
		<tag k="natural" v="water" />
		<tag k="ssr:stedsnr" v="486951" />
		<tag k="water" v="lake" />
	</node>
	<node id="-320159" lat="59.0840999986" lon="7.58596388543">
		<tag k="alt_name" v="Fjøddetjørnin" />
		<tag k="name" v="Fjelletjørnin" />
		<tag k="natural" v="water" />
		<tag k="ssr:stedsnr" v="486759" />
	</node>
	<node id="-320154" lat="59.1591472183" lon="7.69017221472">
		<tag k="name" v="Strondebekken" />
		<tag k="ssr:stedsnr" v="486599" />
		<tag k="waterway" v="stream" />
	</node>
	<node id="-320153" lat="59.1453750003" lon="7.42138888806">
		<tag k="alt_name" v="Nordmanntjørnin" />
		<tag k="name" v="Nordmannstjørnin" />
		<tag k="natural" v="water" />
		<tag k="ssr:stedsnr" v="486595" />
	</node>
	<node id="-320152" lat="59.1448999957" lon="7.44391111809">
		<tag k="name" v="Øytjørn" />
		<tag k="natural" v="water" />
		<tag k="ssr:stedsnr" v="486592" />
	</node>
	<node id="-320149" lat="59.1385749993" lon="7.37290000542">
		<tag k="alt_name" v="Sandvatnet, store;Store Sandvatn" />
		<tag k="name" v="Store Sandvatnet" />
		<tag k="natural" v="water" />
		<tag k="ssr:stedsnr" v="486579" />
		<tag k="water" v="lake" />
	</node>
	<node id="-316867" lat="59.0779750008" lon="7.34739166799">
		<tag k="name" v="Svartetjørn" />
		<tag k="natural" v="water" />
		<tag k="old_name" v="Svarrtetjørn" />
		<tag k="ssr:stedsnr" v="326460" />
	</node>
	<node id="-322860" lat="59.0862249994" lon="7.39192221613">
		<tag k="alt_name" v="Reigåstjørn" />
		<tag k="name" v="Reigårstjørni" />
		<tag k="natural" v="water" />
		<tag k="ssr:stedsnr" v="851735" />
	</node>
	<node id="-320136" lat="59.1054777788" lon="7.51264165812">
		<tag k="name" v="Neset" />
		<tag k="natural" v="cape" />
		<tag k="ssr:stedsnr" v="459252" />
	</node>
	<node id="-320133" lat="58.9515749993" lon="7.20777500223">
		<tag k="name" v="Skitvik" />
		<tag k="natural" v="bay" />
		<tag k="ssr:stedsnr" v="452933" />
	</node>
	<node id="-320131" lat="59.0823166687" lon="7.52722500281">
		<tag k="name" v="Kvennhusøyane" />
		<tag k="place" v="island" />
		<tag k="ssr:stedsnr" v="448979" />
	</node>
	<node id="-316523" lat="59.3715305573" lon="7.52062777031">
		<tag k="name" v="Steindalstjørni" />
		<tag k="natural" v="water" />
		<tag k="ssr:stedsnr" v="275199" />
	</node>
	<node id="-320128" lat="59.0591833358" lon="7.55511944939">
		<tag k="name" v="Fossebrotbekken" />
		<tag k="ssr:stedsnr" v="448884" />
		<tag k="waterway" v="stream" />
	</node>
	<node id="-319518" lat="59.1126749971" lon="7.60513611512">
		<tag k="name" v="Maurdalstjørni" />
		<tag k="natural" v="water" />
		<tag k="ssr:stedsnr" v="244679" />
	</node>
	<node id="-320125" lat="59.1198333378" lon="7.61716666623">
		<tag k="name" v="Hovassløkjene" />
		<tag k="natural" v="water" />
		<tag k="ssr:stedsnr" v="448750" />
		<tag k="water" v="lake" />
	</node>
	<node id="-320120" lat="59.0917972244" lon="7.64730554787">
		<tag k="name" v="Nordre Fiskeløyskilen" />
		<tag k="natural" v="bay" />
		<tag k="old_name" v="Nordre Fiskeløyskillen" />
		<tag k="ssr:stedsnr" v="448692" />
	</node>
	<node id="-320118" lat="59.0604805582" lon="7.51784999645">
		<tag k="name" v="Røyehomsbekken" />
		<tag k="ssr:stedsnr" v="448682" />
		<tag k="waterway" v="stream" />
	</node>
	<node id="-320116" lat="59.0836694469" lon="7.69396666949">
		<tag k="name" v="Oksetjørnbekken" />
		<tag k="ssr:stedsnr" v="448675" />
		<tag k="waterway" v="stream" />
	</node>
	<node id="-320115" lat="59.1231638893" lon="7.61442777691">
		<tag k="name" v="Vøylen" />
		<tag k="place" v="island" />
		<tag k="ssr:stedsnr" v="448665" />
	</node>
	<node id="-320114" lat="59.0190333315" lon="7.55543332752">
		<tag k="name" v="Bjugsnes" />
		<tag k="natural" v="cape" />
		<tag k="ssr:stedsnr" v="448661" />
	</node>
	<node id="-322363" lat="59.1486666698" lon="7.45606666767">
		<tag k="name" v="Drengetjørn" />
		<tag k="natural" v="water" />
		<tag k="ssr:stedsnr" v="790619" />
	</node>
	<node id="-320108" lat="59.1177055594" lon="7.74897222465">
		<tag k="name" v="Store Kråketjørn" />
		<tag k="natural" v="water" />
		<tag k="ssr:stedsnr" v="448646" />
	</node>
	<node id="-320105" lat="59.0980805595" lon="7.75754444657">
		<tag k="name" v="Flottetjørn (øvre)" />
		<tag k="natural" v="water" />
		<tag k="ssr:stedsnr" v="448619" />
	</node>
	<node id="-320104" lat="59.0967416709" lon="7.76632500516">
		<tag k="alt_name" v="Eislandvatnet;Eislansvatn;Eislandsvatnet" />
		<tag k="name" v="Eislamsvatnet" />
		<tag k="natural" v="water" />
		<tag k="old_name" v="Fislemsvatn" />
		<tag k="ssr:stedsnr" v="448618" />
		<tag k="water" v="lake" />
	</node>
	<node id="-320102" lat="59.1308638853" lon="7.50580833958">
		<tag k="name" v="Lyklebekk" />
		<tag k="ssr:stedsnr" v="448605" />
		<tag k="waterway" v="stream" />
	</node>
	<node id="-323345" lat="59.2777166652" lon="7.38173610888">
		<tag k="name" v="Nevredalsbekken" />
		<tag k="old_name" v="Neverdalsbekken" />
		<tag k="ssr:stedsnr" v="913701" />
		<tag k="waterway" v="stream" />
	</node>
	<node id="-320100" lat="59.128983331" lon="7.72435000791">
		<tag k="name" v="Ramvassåni" />
		<tag k="ssr:stedsnr" v="448598" />
		<tag k="waterway" v="river" />
	</node>
	<node id="-320099" lat="59.137027779" lon="7.72052222598">
		<tag k="name" v="Krossvassløkjene" />
		<tag k="natural" v="water" />
		<tag k="ssr:stedsnr" v="448595" />
		<tag k="water" v="lake" />
	</node>
	<node id="-320088" lat="59.2272777817" lon="7.64153333074">
		<tag k="name" v="Skremesåne" />
		<tag k="ssr:stedsnr" v="448571" />
		<tag k="waterway" v="stream" />
	</node>
	<node id="-320087" lat="59.1243388879" lon="7.54451944166">
		<tag k="name" v="Øydetjørnsbekken" />
		<tag k="ssr:stedsnr" v="448568" />
		<tag k="waterway" v="stream" />
	</node>
	<node id="-320086" lat="59.2313508082" lon="7.65304503558">
		<tag k="name" v="Bytestjørn" />
		<tag k="natural" v="water" />
		<tag k="ssr:stedsnr" v="448565" />
	</node>
	<node id="-320084" lat="59.2259833776" lon="7.66854136812">
		<tag k="alt_name" v="Kåvevoilen" />
		<tag k="name" v="Kalvevøylen" />
		<tag k="natural" v="water" />
		<tag k="ssr:stedsnr" v="448560" />
	</node>
	<node id="-320270" lat="59.2396388855" lon="7.67151389497">
		<tag k="name" v="Røylibekken" />
		<tag k="ssr:stedsnr" v="508576" />
		<tag k="waterway" v="stream" />
	</node>
	<node id="-321085" lat="59.2963888855" lon="7.6004916647">
		<tag k="name" v="Langetjørn" />
		<tag k="natural" v="water" />
		<tag k="old_name" v="Langetii" />
		<tag k="ssr:stedsnr" v="609691" />
	</node>
	<node id="-322832" lat="58.9704777807" lon="7.19770277137">
		<tag k="name" v="Øyetjørn" />
		<tag k="natural" v="water" />
		<tag k="ssr:stedsnr" v="851211" />
	</node>
	<node id="-320078" lat="59.0732138851" lon="7.45055277067">
		<tag k="alt_name" v="Hamreodden" />
		<tag k="name" v="Hamreodde" />
		<tag k="natural" v="cape" />
		<tag k="ssr:stedsnr" v="448468" />
	</node>
	<node id="-320077" lat="59.064321083" lon="7.45907711859">
		<tag k="name" v="Slipetrone" />
		<tag k="natural" v="water" />
		<tag k="ssr:stedsnr" v="448454" />
	</node>
	<node id="-320075" lat="59.0896472234" lon="7.37611111666">
		<tag k="name" v="Tjørnin" />
		<tag k="natural" v="water" />
		<tag k="ssr:stedsnr" v="448446" />
	</node>
	<node id="-320074" lat="59.0720277809" lon="7.39199165986">
		<tag k="name" v="Greinodde" />
		<tag k="natural" v="cape" />
		<tag k="ssr:stedsnr" v="448434" />
	</node>
	<node id="-320072" lat="59.0373055529" lon="7.31865832856">
		<tag k="name" v="Tåråndstjørn" />
		<tag k="natural" v="water" />
		<tag k="ssr:stedsnr" v="448422" />
	</node>
	<node id="-320071" lat="59.048630555" lon="7.32967499661">
		<tag k="name" v="Midtre Urdevatnet" />
		<tag k="natural" v="water" />
		<tag k="ssr:stedsnr" v="448417" />
		<tag k="water" v="lake" />
	</node>
	<node id="-320070" lat="59.0509083318" lon="7.37244444542">
		<tag k="name" v="Store Søtebekk" />
		<tag k="ssr:stedsnr" v="448409" />
		<tag k="waterway" v="stream" />
	</node>
	<node id="-320068" lat="59.2190694485" lon="7.45953332714">
		<tag k="name" v="Grønetjørn" />
		<tag k="natural" v="water" />
		<tag k="ssr:stedsnr" v="448303" />
	</node>
	<node id="-320060" lat="59.3158444474" lon="7.52319722269">
		<tag k="name" v="Revstj." />
		<tag k="natural" v="water" />
		<tag k="ssr:stedsnr" v="447752" />
	</node>
	<node id="-320055" lat="59.2330166655" lon="7.5073583359">
		<tag k="name" v="Juvenes" />
		<tag k="natural" v="cape" />
		<tag k="ssr:stedsnr" v="447598" />
	</node>
	<node id="-322099" lat="59.1811194476" lon="7.74011667322">
		<tag k="alt_name" v="Gruvekvævtjørn" />
		<tag k="name" v="Gruvetjønna" />
		<tag k="natural" v="water" />
		<tag k="ssr:stedsnr" v="756056" />
	</node>
	<node id="-320050" lat="59.2469472212" lon="7.56479722728">
		<tag k="alt_name" v="Skeitjørni;Skeitj" />
		<tag k="name" v="Skeidtjørni" />
		<tag k="natural" v="water" />
		<tag k="ssr:stedsnr" v="447565" />
	</node>
	<node id="-322995" lat="59.1206000002" lon="7.63813333103">
		<tag k="name" v="Prestvartjørni" />
		<tag k="natural" v="water" />
		<tag k="ssr:stedsnr" v="872753" />
	</node>
	<node id="-322095" lat="59.2157305518" lon="7.74007499496">
		<tag k="name" v="Håvestøylsbekken" />
		<tag k="ssr:stedsnr" v="751925" />
		<tag k="waterway" v="stream" />
	</node>
	<node id="-322093" lat="59.0599777736" lon="7.57067222857">
		<tag k="name" v="Vrongevja" />
		<tag k="natural" v="bay" />
		<tag k="ssr:stedsnr" v="751870" />
	</node>
	<node id="-320044" lat="59.1113972223" lon="7.42251111662">
		<tag k="name" v="Lisle Hovdevatn" />
		<tag k="natural" v="water" />
		<tag k="ssr:stedsnr" v="447433" />
		<tag k="water" v="lake" />
	</node>
	<node id="-322091" lat="59.0389361082" lon="7.55918611284">
		<tag k="name" v="Bjorodden" />
		<tag k="natural" v="cape" />
		<tag k="ssr:stedsnr" v="751834" />
	</node>
	<node id="-322090" lat="59.0357722263" lon="7.55506667158">
		<tag k="name" v="Monodden" />
		<tag k="natural" v="cape" />
		<tag k="ssr:stedsnr" v="751833" />
	</node>
	<node id="-320263" lat="59.1061888907" lon="7.42736111481">
		<tag k="name" v="Blietjørn" />
		<tag k="natural" v="water" />
		<tag k="ssr:stedsnr" v="508527" />
	</node>
	<node id="-322087" lat="59.051175001" lon="7.56756944189">
		<tag k="name" v="Bjortjørn" />
		<tag k="natural" v="water" />
		<tag k="ssr:stedsnr" v="751819" />
	</node>
	<node id="-320038" lat="59.078519445" lon="7.48209166046">
		<tag k="name" v="Rjupekilsbekken" />
		<tag k="ssr:stedsnr" v="447370" />
		<tag k="waterway" v="stream" />
	</node>
	<node id="-322085" lat="59.1036472202" lon="7.52110556236">
		<tag k="name" v="Bygd-evje" />
		<tag k="natural" v="bay" />
		<tag k="ssr:stedsnr" v="751790" />
	</node>
	<node id="-322083" lat="59.0980861142" lon="7.50271665794">
		<tag k="name" v="Heståsbekken" />
		<tag k="ssr:stedsnr" v="751781" />
		<tag k="waterway" v="stream" />
	</node>
	<node id="-322082" lat="59.1387499981" lon="7.64799722178">
		<tag k="name" v="Bokka-Småtjørnin" />
		<tag k="natural" v="water" />
		<tag k="ssr:stedsnr" v="751758" />
	</node>
	<node id="-320030" lat="59.2445388886" lon="7.43612221706">
		<tag k="name" v="Lisleå" />
		<tag k="ssr:stedsnr" v="447288" />
		<tag k="waterway" v="river" />
	</node>
	<node id="-320028" lat="59.3405472204" lon="7.48324722538">
		<tag k="name" v="Uretjørn" />
		<tag k="natural" v="water" />
		<tag k="ssr:stedsnr" v="447172" />
	</node>
	<node id="-322074" lat="59.1293250007" lon="7.51327778189">
		<tag k="name" v="Uppstadia" />
		<tag k="natural" v="bay" />
		<tag k="ssr:stedsnr" v="751589" />
	</node>
	<node id="-322072" lat="59.23016667" lon="7.57551110464">
		<tag k="name" v="Haugebekk" />
		<tag k="ssr:stedsnr" v="751582" />
		<tag k="waterway" v="stream" />
	</node>
	<node id="-320021" lat="59.1024277779" lon="7.52134722636">
		<tag k="name" v="Odde" />
		<tag k="natural" v="cape" />
		<tag k="ssr:stedsnr" v="448790" />
	</node>
	<node id="-320017" lat="59.0516750014" lon="7.22225556001">
		<tag k="name" v="Storetjørn" />
		<tag k="natural" v="water" />
		<tag k="ssr:stedsnr" v="427868" />
	</node>
	<node id="-322063" lat="59.1339138911" lon="7.52911943688">
		<tag k="name" v="Sokshyl" />
		<tag k="place" v="locality" />
		<tag k="ssr:stedsnr" v="751554" />
	</node>
	<node id="-320014" lat="59.3105972223" lon="7.7002666597">
		<tag k="name" v="Kaupstadtjørni" />
		<tag k="natural" v="water" />
		<tag k="old_name" v="Kjøpstadtjørn" />
		<tag k="ssr:stedsnr" v="427717" />
	</node>
	<node id="-320258" lat="59.1082361119" lon="7.48464166718">
		<tag k="name" v="Noribrokksbekken" />
		<tag k="ssr:stedsnr" v="508501" />
		<tag k="waterway" v="stream" />
	</node>
	<node id="-320010" lat="59.2694416686" lon="7.4277472266">
		<tag k="name" v="Drengsfoss" />
		<tag k="natural" v="waterfall" />
		<tag k="ssr:stedsnr" v="427684" />
	</node>
	<node id="-320009" lat="59.2856472252" lon="7.59515277675">
		<tag k="name" v="Grasdalstjørni" />
		<tag k="natural" v="water" />
		<tag k="ssr:stedsnr" v="427680" />
	</node>
	<node id="-322054" lat="59.1757527766" lon="7.52595277978">
		<tag k="name" v="Strengen" />
		<tag k="ssr:stedsnr" v="751528" />
		<tag k="waterway" v="rapids" />
	</node>
	<node id="-320257" lat="59.1074027806" lon="7.48562499605">
		<tag k="name" v="Kåvhagsbekken" />
		<tag k="ssr:stedsnr" v="508500" />
		<tag k="waterway" v="stream" />
	</node>
	<node id="-322052" lat="59.1399194481" lon="7.56303889676">
		<tag k="name" v="Gilsbekken" />
		<tag k="ssr:stedsnr" v="751524" />
		<tag k="waterway" v="stream" />
	</node>
	<node id="-320003" lat="59.1028472251" lon="7.63799723079">
		<tag k="name" v="Grunnevatn" />
		<tag k="natural" v="water" />
		<tag k="ssr:stedsnr" v="427624" />
	</node>
	<node id="-322050" lat="59.0996833375" lon="7.73580833166">
		<tag k="name" v="Løyetjørn" />
		<tag k="natural" v="water" />
		<tag k="ssr:stedsnr" v="751518" />
	</node>
	<node id="-320001" lat="59.3470888916" lon="7.57626110793">
		<tag k="name" v="Grytåni" />
		<tag k="ssr:stedsnr" v="427570" />
		<tag k="waterway" v="stream" />
	</node>
	<node id="-320000" lat="59.3427777823" lon="7.48850556001">
		<tag k="alt_name" v="Skarketjørn" />
		<tag k="name" v="Skarketjørnin" />
		<tag k="natural" v="water" />
		<tag k="ssr:stedsnr" v="427567" />
	</node>
	<node id="-319999" lat="59.3376055585" lon="7.48084167343">
		<tag k="alt_name" v="Fitjebekken;Fetebekken" />
		<tag k="name" v="Fitebekken" />
		<tag k="ssr:stedsnr" v="427554" />
		<tag k="waterway" v="stream" />
	</node>
	<node id="-322043" lat="59.0611805517" lon="7.39103334104">
		<tag k="name" v="Sigurdstjørn" />
		<tag k="natural" v="water" />
		<tag k="ssr:stedsnr" v="751470" />
	</node>
	<node id="-322042" lat="59.0668833358" lon="7.42867500335">
		<tag k="name" v="Skaretjørn" />
		<tag k="place" v="islet" />
		<tag k="ssr:stedsnr" v="751465" />
	</node>
	<node id="-322040" lat="59.0176972236" lon="7.40046665951">
		<tag k="name" v="Heimre Teistetjørn" />
		<tag k="natural" v="water" />
		<tag k="ssr:stedsnr" v="751434" />
	</node>
	<node id="-322038" lat="59.0746583341" lon="7.66429443614">
		<tag k="name" v="Brendodde" />
		<tag k="natural" v="cape" />
		<tag k="ssr:stedsnr" v="751429" />
	</node>
	<node id="-322037" lat="59.0758777754" lon="7.64322778498">
		<tag k="name" v="Jordtorvtjørn" />
		<tag k="natural" v="water" />
		<tag k="ssr:stedsnr" v="751423" />
	</node>
	<node id="-319987" lat="59.1804527822" lon="7.29568332589">
		<tag k="name" v="Botnsvadet" />
		<tag k="natural" v="bay" />
		<tag k="ssr:stedsnr" v="426878" />
	</node>
	<node id="-321150" lat="59.0669083329" lon="7.72463888486">
		<tag k="name" v="Romuntjørn øvre" />
		<tag k="natural" v="water" />
		<tag k="ssr:stedsnr" v="629528" />
	</node>
	<node id="-319985" lat="59.1385527755" lon="7.26530555889">
		<tag k="name" v="Kolsvassåni" />
		<tag k="ssr:stedsnr" v="426848" />
		<tag k="waterway" v="river" />
	</node>
	<node id="-322028" lat="59.3246801237" lon="7.48886210065">
		<tag k="alt_name" v="Lisle Bjørnvatnet" />
		<tag k="name" v="Lisle Bjørnevatn" />
		<tag k="natural" v="water" />
		<tag k="ssr:stedsnr" v="750833" />
		<tag k="water" v="lake" />
	</node>
	<node id="-319978" lat="59.1267250042" lon="7.36804167492">
		<tag k="name" v="Kroketjørn" />
		<tag k="natural" v="water" />
		<tag k="ssr:stedsnr" v="426674" />
	</node>
	<node id="-319976" lat="59.1203861109" lon="7.67287500785">
		<tag k="alt_name" v="Lauvåstjørn" />
		<tag k="name" v="Lauvåstjørnin" />
		<tag k="natural" v="water" />
		<tag k="ssr:stedsnr" v="426663" />
	</node>
	<node id="-322023" lat="59.2791277812" lon="7.49259721846">
		<tag k="name" v="Skravetjørn" />
		<tag k="natural" v="water" />
		<tag k="ssr:stedsnr" v="750811" />
	</node>
	<node id="-319974" lat="59.1711361124" lon="7.63920277521">
		<tag k="alt_name" v="Borgardtjørn" />
		<tag k="name" v="Borgartjørn" />
		<tag k="natural" v="water" />
		<tag k="ssr:stedsnr" v="426598" />
	</node>
	<node id="-319973" lat="59.1587499962" lon="7.65984166016">
		<tag k="alt_name" v="Nistogbuetjørn" />
		<tag k="name" v="Butjørnin" />
		<tag k="natural" v="water" />
		<tag k="ssr:stedsnr" v="426582" />
	</node>
	<node id="-319972" lat="59.2194527762" lon="7.51943610745">
		<tag k="alt_name" v="Fingredalstjørn" />
		<tag k="name" v="Fingredalstjørni" />
		<tag k="natural" v="water" />
		<tag k="ssr:stedsnr" v="426542" />
	</node>
	<node id="-319971" lat="59.2205048881" lon="7.43695656376">
		<tag k="alt_name" v="Den lange tjønni" />
		<tag k="name" v="Dei lange tjørnin" />
		<tag k="natural" v="water" />
		<tag k="ssr:stedsnr" v="426538" />
	</node>
	<node id="-322017" lat="59.3472249956" lon="7.49718611395">
		<tag k="name" v="Kyrlibekken" />
		<tag k="ssr:stedsnr" v="750774" />
		<tag k="waterway" v="stream" />
	</node>
	<node id="-322014" lat="59.3179722265" lon="7.51068333924">
		<tag k="name" v="Jasstjørn" />
		<tag k="natural" v="water" />
		<tag k="ssr:stedsnr" v="750739" />
	</node>
	<node id="-322013" lat="59.3035916694" lon="7.50914166804">
		<tag k="loc_name" v="Leitistjønn" />
		<tag k="name" v="Leitestjørn" />
		<tag k="natural" v="water" />
		<tag k="ssr:stedsnr" v="750733" />
	</node>
	<node id="-322009" lat="59.1051861117" lon="7.38890555832">
		<tag k="name" v="Vorebrokkbekken" />
		<tag k="ssr:stedsnr" v="750457" />
		<tag k="waterway" v="stream" />
	</node>
	<node id="-322005" lat="59.0813305512" lon="7.45795278351">
		<tag k="name" v="Botneosen" />
		<tag k="natural" v="bay" />
		<tag k="ssr:stedsnr" v="750392" />
	</node>
	<node id="-322003" lat="59.0946027802" lon="7.44979166026">
		<tag k="name" v="Surtebekken" />
		<tag k="ssr:stedsnr" v="750360" />
		<tag k="waterway" v="stream" />
	</node>
	<node id="-321997" lat="59.135647223" lon="7.47815555357">
		<tag k="name" v="Grjostøylbekken" />
		<tag k="ssr:stedsnr" v="750325" />
		<tag k="waterway" v="stream" />
	</node>
	<node id="-321990" lat="59.2369972178" lon="7.52716666923">
		<tag k="name" v="Lislenes" />
		<tag k="natural" v="cape" />
		<tag k="ssr:stedsnr" v="751632" />
	</node>
	<node id="-321988" lat="59.2338833302" lon="7.53898888643">
		<tag k="name" v="Kjeefoss" />
		<tag k="natural" v="waterfall" />
		<tag k="ssr:stedsnr" v="751628" />
	</node>
	<node id="-321982" lat="59.0947694423" lon="7.75645832891">
		<tag k="name" v="Flottetjørn (nedre)" />
		<tag k="natural" v="water" />
		<tag k="ssr:stedsnr" v="751605" />
	</node>
	<node id="-321979" lat="59.2525472191" lon="7.39010556108">
		<tag k="name" v="Myrbutjørn" />
		<tag k="natural" v="water" />
		<tag k="ssr:stedsnr" v="750180" />
	</node>
	<node id="-321975" lat="59.3008527747" lon="7.34014166261">
		<tag k="name" v="Raudkleivfossen" />
		<tag k="natural" v="waterfall" />
		<tag k="ssr:stedsnr" v="750141" />
	</node>
	<node id="-321972" lat="59.2748333337" lon="7.39571667388">
		<tag k="name" v="Nevredalsøyne" />
		<tag k="place" v="island" />
		<tag k="ssr:stedsnr" v="750099" />
	</node>
	<node id="-321970" lat="59.2371722196" lon="7.4811111082">
		<tag k="name" v="Fådapane" />
		<tag k="natural" v="water" />
		<tag k="ssr:stedsnr" v="750281" />
		<tag k="water" v="pond" />
	</node>
	<node id="-320243" lat="59.137625004" lon="7.3990444425">
		<tag k="name" v="Håvfartjørn" />
		<tag k="natural" v="water" />
		<tag k="ssr:stedsnr" v="508386" />
	</node>
	<node id="-321968" lat="59.3012083291" lon="7.54828889059">
		<tag k="name" v="Løyningsviki" />
		<tag k="natural" v="bay" />
		<tag k="ssr:stedsnr" v="731710" />
	</node>
	<node id="-321967" lat="59.3256194405" lon="7.43579166749">
		<tag k="alt_name" v="Store Kvernvatnet" />
		<tag k="name" v="Store Kvernevatn" />
		<tag k="natural" v="water" />
		<tag k="old_name" v="Kvernevatni, øvre" />
		<tag k="ssr:stedsnr" v="731492" />
	</node>
	<node id="-321965" lat="59.0029666704" lon="7.22309721672">
		<tag k="name" v="Øyuvsløken" />
		<tag k="natural" v="water" />
		<tag k="ssr:stedsnr" v="730999" />
	</node>
	<node id="-321964" lat="59.0042166699" lon="7.24182222917">
		<tag k="name" v="Ivlungsåni" />
		<tag k="ssr:stedsnr" v="730996" />
		<tag k="waterway" v="stream" />
	</node>
	<node id="-321962" lat="59.246774996" lon="7.37484722242">
		<tag k="name" v="Reisstøylsåni" />
		<tag k="ssr:stedsnr" v="730991" />
		<tag k="waterway" v="stream" />
	</node>
	<node id="-321961" lat="59.0373555527" lon="7.30318611158">
		<tag k="name" v="Kvislevatnet" />
		<tag k="natural" v="water" />
		<tag k="ssr:stedsnr" v="730972" />
		<tag k="water" v="lake" />
	</node>
	<node id="-321960" lat="59.0348305545" lon="7.33358334091">
		<tag k="name" v="Storetjørn" />
		<tag k="natural" v="water" />
		<tag k="ssr:stedsnr" v="730970" />
	</node>
	<node id="-321958" lat="59.081102781" lon="7.26471388019">
		<tag k="name" v="Den svarte tjørni" />
		<tag k="natural" v="water" />
		<tag k="ssr:stedsnr" v="730943" />
		<tag k="water" v="lake" />
	</node>
	<node id="-317861" lat="59.0796361135" lon="7.53064444588">
		<tag k="name" v="Tykkeholtsbekken" />
		<tag k="ssr:stedsnr" v="23993" />
		<tag k="waterway" v="stream" />
	</node>
	<node id="-317858" lat="59.0680861131" lon="7.57103888141">
		<tag k="name" v="Stoi" />
		<tag k="natural" v="beach" />
		<tag k="ssr:stedsnr" v="23871" />
	</node>
	<node id="-322971" lat="59.2274999996" lon="7.59049999947">
		<tag k="name" v="Skorbekken" />
		<tag k="ssr:stedsnr" v="872612" />
		<tag k="waterway" v="stream" />
	</node>
	<node id="-321952" lat="59.1435500019" lon="7.29248333012">
		<tag k="name" v="Tordølstjørni" />
		<tag k="natural" v="water" />
		<tag k="ssr:stedsnr" v="730859" />
	</node>
	<node id="-323312" lat="59.1063805542" lon="7.67857778376">
		<tag k="alt_name" v="Øytjørni, austre" />
		<tag k="name" v="Austre Øytjørni" />
		<tag k="natural" v="water" />
		<tag k="ssr:stedsnr" v="912669" />
		<tag k="water" v="lake" />
	</node>
	<node id="-321950" lat="59.3061416666" lon="7.67143055874">
		<tag k="name" v="Kråketjørn" />
		<tag k="natural" v="water" />
		<tag k="ssr:stedsnr" v="730788" />
	</node>
	<node id="-321949" lat="59.3067166687" lon="7.57864999217">
		<tag k="name" v="Osevatnet" />
		<tag k="natural" v="water" />
		<tag k="ssr:stedsnr" v="730787" />
	</node>
	<node id="-317852" lat="59.1118694424" lon="7.50154444941">
		<tag k="name" v="Koklejota" />
		<tag k="ssr:stedsnr" v="23811" />
		<tag k="waterway" v="stream" />
	</node>
	<node id="-321947" lat="59.0486055549" lon="7.37448055658">
		<tag k="name" v="Søtebekken" />
		<tag k="ssr:stedsnr" v="730738" />
		<tag k="waterway" v="stream" />
	</node>
	<node id="-317848" lat="59.1173166705" lon="7.51575554941">
		<tag k="name" v="Jorisøya" />
		<tag k="place" v="island" />
		<tag k="ssr:stedsnr" v="23800" />
	</node>
	<node id="-317847" lat="59.1012861146" lon="7.5325055573">
		<tag k="name" v="Bjørgevje" />
		<tag k="natural" v="bay" />
		<tag k="ssr:stedsnr" v="23788" />
	</node>
	<node id="-317845" lat="59.131719442" lon="7.68060833426">
		<tag k="name" v="Vesle Buenettjørni" />
		<tag k="natural" v="water" />
		<tag k="ssr:stedsnr" v="23740" />
	</node>
	<node id="-317841" lat="59.1993833369" lon="7.65527222625">
		<tag k="name" v="Midt-Vøylevatnet" />
		<tag k="natural" v="water" />
		<tag k="old_name" v="Midt Vøilevatnet" />
		<tag k="ssr:stedsnr" v="23709" />
		<tag k="water" v="lake" />
	</node>
	<node id="-321936" lat="59.1177854273" lon="7.56174254703">
		<tag k="alt_name" v="Krulletjørni" />
		<tag k="name" v="Krulletjørn" />
		<tag k="natural" v="water" />
		<tag k="ssr:stedsnr" v="730703" />
	</node>
	<node id="-321935" lat="59.1837378172" lon="7.70152935568">
		<tag k="alt_name" v="Neiretjørn" />
		<tag k="name" v="Nedretjørn" />
		<tag k="natural" v="water" />
		<tag k="ssr:stedsnr" v="730673" />
	</node>
	<node id="-317838" lat="59.2123583357" lon="7.52899443775">
		<tag k="name" v="Prestefossen" />
		<tag k="natural" v="waterfall" />
		<tag k="ssr:stedsnr" v="23682" />
	</node>
	<node id="-317835" lat="59.1055805586" lon="7.6769166635">
		<tag k="name" v="Austre Øydetjørn" />
		<tag k="natural" v="water" />
		<tag k="ssr:stedsnr" v="23674" />
	</node>
	<node id="-321943" lat="59.2793833328" lon="7.54179166287">
		<tag k="name" v="Glottebekken" />
		<tag k="ssr:stedsnr" v="730729" />
		<tag k="waterway" v="stream" />
	</node>
	<node id="-317831" lat="59.1463305592" lon="7.5344694466">
		<tag k="name" v="Lønes" />
		<tag k="natural" v="cape" />
		<tag k="ssr:stedsnr" v="23651" />
	</node>
	<node id="-321926" lat="59.3198027792" lon="7.6678777766">
		<tag k="name" v="Gryteviki" />
		<tag k="natural" v="bay" />
		<tag k="ssr:stedsnr" v="730530" />
	</node>
	<node id="-317829" lat="59.0789222227" lon="7.72130277142">
		<tag k="name" v="Bytesodden" />
		<tag k="natural" v="cape" />
		<tag k="ssr:stedsnr" v="23641" />
	</node>
	<node id="-317828" lat="59.1440527752" lon="7.49224166573">
		<tag k="name" v="Hovestøylåna" />
		<tag k="ssr:stedsnr" v="23634" />
		<tag k="waterway" v="river" />
	</node>
	<node id="-321923" lat="59.024891664" lon="7.49964722525">
		<tag k="name" v="Bjørndalstjørn" />
		<tag k="natural" v="water" />
		<tag k="ssr:stedsnr" v="730292" />
	</node>
	<node id="-323307" lat="59.1074416635" lon="7.62417500872">
		<tag k="name" v="Gauksåstjørni" />
		<tag k="natural" v="water" />
		<tag k="ssr:stedsnr" v="912645" />
	</node>
	<node id="-321920" lat="59.0375083371" lon="7.4617638873">
		<tag k="alt_name" v="Voiletjørn" />
		<tag k="name" v="Vøyletjørni" />
		<tag k="natural" v="water" />
		<tag k="ssr:stedsnr" v="730259" />
	</node>
	<node id="-321918" lat="59.039949997" lon="7.4960472176">
		<tag k="alt_name" v="Hægestølåni" />
		<tag k="name" v="Hægestøylåni" />
		<tag k="ssr:stedsnr" v="730255" />
		<tag k="waterway" v="stream" />
	</node>
	<node id="-321941" lat="59.1133222209" lon="7.42983054877">
		<tag k="alt_name" v="Hovdevatn" />
		<tag k="name" v="Hovdevatnet" />
		<tag k="natural" v="water" />
		<tag k="ssr:stedsnr" v="730712" />
	</node>
	<node id="-317819" lat="59.2365527818" lon="7.56744167168">
		<tag k="name" v="Øyne" />
		<tag k="place" v="island" />
		<tag k="ssr:stedsnr" v="23616" />
	</node>
	<node id="-321146" lat="59.1099611119" lon="7.71553055716">
		<tag k="name" v="Nedre Kotetjørn" />
		<tag k="natural" v="water" />
		<tag k="ssr:stedsnr" v="629516" />
	</node>
	<node id="-319551" lat="59.3350388879" lon="7.60881110312">
		<tag k="name" v="Skjulsbekk" />
		<tag k="ssr:stedsnr" v="245516" />
		<tag k="waterway" v="stream" />
	</node>
	<node id="-321912" lat="59.0790111137" lon="7.45230277953">
		<tag k="name" v="Tjøremovatnet" />
		<tag k="natural" v="water" />
		<tag k="ssr:stedsnr" v="729765" />
		<tag k="water" v="lake" />
	</node>
	<node id="-317815" lat="59.193999996" lon="7.74631111441">
		<tag k="alt_name" v="Bergeheitjørn;Bergetjørn" />
		<tag k="name" v="Bergeheitjønn" />
		<tag k="natural" v="water" />
		<tag k="old_name" v="Bergetji" />
		<tag k="ssr:stedsnr" v="23598" />
	</node>
	<node id="-321910" lat="59.0820138873" lon="7.3636916749">
		<tag k="alt_name" v="Kråkelitjørnin" />
		<tag k="name" v="Kråkelitjørn" />
		<tag k="natural" v="water" />
		<tag k="ssr:stedsnr" v="729758" />
	</node>
	<node id="-321908" lat="59.0780277735" lon="7.62697500543">
		<tag k="alt_name" v="Soddetjørni" />
		<tag k="name" v="Soddetjørn" />
		<tag k="natural" v="water" />
		<tag k="ssr:stedsnr" v="729748" />
	</node>
	<node id="-321907" lat="59.0622638889" lon="7.36330278407">
		<tag k="alt_name" v="Øvre Raudetjørn" />
		<tag k="name" v="Raudetjørn" />
		<tag k="natural" v="water" />
		<tag k="ssr:stedsnr" v="729747" />
	</node>
	<node id="-321906" lat="59.0746027848" lon="7.34525009378">
		<tag k="alt_name" v="Bergsøyetjørn" />
		<tag k="name" v="Bergsøydetjørni" />
		<tag k="natural" v="water" />
		<tag k="ssr:stedsnr" v="729742" />
	</node>
	<node id="-321905" lat="59.088736109" lon="7.47343888571">
		<tag k="name" v="Stavtjørn" />
		<tag k="natural" v="water" />
		<tag k="ssr:stedsnr" v="729651" />
	</node>
	<node id="-317808" lat="59.2126499955" lon="7.6476499938">
		<tag k="name" v="Fosstjørn" />
		<tag k="natural" v="water" />
		<tag k="ssr:stedsnr" v="23582" />
	</node>
	<node id="-317807" lat="59.1354249969" lon="7.5305027842">
		<tag k="name" v="Dekne-Flårenden" />
		<tag k="natural" v="bay" />
		<tag k="ssr:stedsnr" v="23579" />
	</node>
	<node id="-320308" lat="59.1083333352" lon="7.49994999762">
		<tag k="name" v="Bergvabekken" />
		<tag k="ssr:stedsnr" v="508786" />
		<tag k="waterway" v="stream" />
	</node>
	<node id="-321900" lat="59.1736861117" lon="7.72249444701">
		<tag k="alt_name" v="Store Kåvtjørn" />
		<tag k="name" v="Kalvetjørn" />
		<tag k="natural" v="water" />
		<tag k="old_name" v="Kovetjørn" />
		<tag k="ssr:stedsnr" v="729374" />
	</node>
	<node id="-321937" lat="59.2628722229" lon="7.50057221961">
		<tag k="alt_name" v="Rygnestadåne" />
		<tag k="name" v="Rygnestadåni" />
		<tag k="ssr:stedsnr" v="730705" />
		<tag k="waterway" v="stream" />
	</node>
	<node id="-323275" lat="58.9628251721" lon="7.21768214358">
		<tag k="loc_name" v="Nordra Monsvatnet" />
		<tag k="name" v="Monsvatnet, Nordra" />
		<tag k="natural" v="water" />
		<tag k="old_name" v="Monsvatnet, nordre" />
		<tag k="ssr:stedsnr" v="911261" />
		<tag k="water" v="lake" />
	</node>
	<node id="-317791" lat="59.1162055555" lon="7.48689445006">
		<tag k="name" v="Haugelandsbekken" />
		<tag k="ssr:stedsnr" v="23505" />
		<tag k="waterway" v="stream" />
	</node>
	<node id="-317787" lat="59.050555552" lon="7.6289472287">
		<tag k="name" v="Rjuvassbekken" />
		<tag k="ssr:stedsnr" v="23468" />
		<tag k="waterway" v="stream" />
	</node>
	<node id="-317779" lat="59.1395333364" lon="7.43633611193">
		<tag k="name" v="Djupetjørn" />
		<tag k="natural" v="water" />
		<tag k="ssr:stedsnr" v="23432" />
	</node>
	<node id="-317772" lat="59.1724944471" lon="7.48140276933">
		<tag k="name" v="Grasdalsbekken" />
		<tag k="ssr:stedsnr" v="23372" />
		<tag k="waterway" v="stream" />
	</node>
	<node id="-317770" lat="59.2295305571" lon="7.48647222945">
		<tag k="name" v="Breibekk" />
		<tag k="ssr:stedsnr" v="23348" />
		<tag k="waterway" v="stream" />
	</node>
	<node id="-317765" lat="59.2994416636" lon="7.47850555561">
		<tag k="name" v="Kvorvefossen" />
		<tag k="natural" v="waterfall" />
		<tag k="ssr:stedsnr" v="23229" />
	</node>
	<node id="-317763" lat="59.1844444444" lon="7.51361665835">
		<tag k="alt_name" v="Septisbekken" />
		<tag k="name" v="Skiptesbekken" />
		<tag k="ssr:stedsnr" v="23023" />
		<tag k="waterway" v="stream" />
	</node>
	<node id="-321931" lat="59.206001991" lon="7.64604030338">
		<tag k="alt_name" v="Voilevatnet" />
		<tag k="name" v="Vøylevatni" />
		<tag k="natural" v="water" />
		<tag k="ssr:stedsnr" v="730559" />
		<tag k="water" v="lake" />
	</node>
	<node id="-317755" lat="59.2524611092" lon="7.53964167541">
		<tag k="alt_name" v="Laugardalstjørn" />
		<tag k="name" v="Laugardalstjørni" />
		<tag k="natural" v="water" />
		<tag k="old_name" v="Laugardalsvatnet" />
		<tag k="ssr:stedsnr" v="22813" />
	</node>
	<node id="-317743" lat="59.2852777748" lon="7.40725833227">
		<tag k="name" v="Klamrebekken" />
		<tag k="ssr:stedsnr" v="22116" />
		<tag k="waterway" v="stream" />
	</node>
	<node id="-317742" lat="59.2922888898" lon="7.37136389297">
		<tag k="name" v="Sessene" />
		<tag k="ssr:stedsnr" v="22113" />
		<tag k="waterway" v="rapids" />
	</node>
	<node id="-318173" lat="59.1305916687" lon="7.68720555639">
		<tag k="alt_name" v="Buenettjørni" />
		<tag k="name" v="Bunettjørni" />
		<tag k="natural" v="water" />
		<tag k="ssr:stedsnr" v="62686" />
	</node>
	<node id="-317739" lat="59.0019888877" lon="7.24975000654">
		<tag k="name" v="Hallvorstjørni" />
		<tag k="natural" v="water" />
		<tag k="ssr:stedsnr" v="2998" />
	</node>
	<node id="-317738" lat="59.0496555541" lon="7.23348332995">
		<tag k="name" v="Lisletjørn" />
		<tag k="natural" v="water" />
		<tag k="ssr:stedsnr" v="2893" />
	</node>
	<node id="-317737" lat="59.3078611086" lon="7.56407777117">
		<tag k="name" v="Strondi" />
		<tag k="natural" v="beach" />
		<tag k="ssr:stedsnr" v="2736" />
	</node>
	<node id="-320220" lat="59.0104055532" lon="7.33356111522">
		<tag k="name" v="Gruvletjørn" />
		<tag k="natural" v="water" />
		<tag k="ssr:stedsnr" v="487998" />
	</node>
	<node id="-317732" lat="59.2938777746" lon="7.71063055334">
		<tag k="name" v="Brårvatn" />
		<tag k="natural" v="water" />
		<tag k="old_name" v="Brårvatnet" />
		<tag k="ssr:stedsnr" v="2703" />
		<tag k="water" v="lake" />
	</node>
	<node id="-317731" lat="59.2784722197" lon="7.47319167239">
		<tag k="alt_name" v="Veiåne" />
		<tag k="name" v="Veiåni" />
		<tag k="ssr:stedsnr" v="2687" />
		<tag k="waterway" v="stream" />
	</node>
	<node id="-317730" lat="59.1082879385" lon="7.6678561312">
		<tag k="alt_name" v="Øytjørni, heimre;Heimre Øydetjørn" />
		<tag k="name" v="Heimre Øytjørni" />
		<tag k="natural" v="water" />
		<tag k="ssr:stedsnr" v="2658" />
		<tag k="water" v="lake" />
	</node>
	<node id="-320219" lat="59.0154138847" lon="7.22372500291">
		<tag k="name" v="Øyuvsvatnet" />
		<tag k="natural" v="water" />
		<tag k="ssr:stedsnr" v="487985" />
		<tag k="water" v="lake" />
	</node>
	<node id="-317728" lat="59.1048055584" lon="7.55750555503">
		<tag k="alt_name" v="Bjørgåna" />
		<tag k="name" v="Bjørgåni" />
		<tag k="ssr:stedsnr" v="2639" />
		<tag k="waterway" v="stream" />
	</node>
	<node id="-317722" lat="59.1907972233" lon="7.54537777805">
		<tag k="alt_name" v="Stavedalsbekken" />
		<tag k="name" v="Stavdalsbekken" />
		<tag k="ssr:stedsnr" v="2534" />
		<tag k="waterway" v="stream" />
	</node>
	<node id="-323273" lat="58.9963249977" lon="7.28182777679">
		<tag k="name" v="Kringletjørni" />
		<tag k="natural" v="water" />
		<tag k="ssr:stedsnr" v="911039" />
	</node>
	<node id="-317718" lat="59.1888666644" lon="7.64019999605">
		<tag k="name" v="Gunnuvstjørnin" />
		<tag k="natural" v="water" />
		<tag k="ssr:stedsnr" v="2528" />
	</node>
	<node id="-317717" lat="59.1775249984" lon="7.39327222329">
		<tag k="name" v="Syngjandetjørnin" />
		<tag k="natural" v="water" />
		<tag k="ssr:stedsnr" v="2527" />
	</node>
	<node id="-317714" lat="59.0289972261" lon="7.3565888837">
		<tag k="name" v="Reiptjørni" />
		<tag k="natural" v="water" />
		<tag k="ssr:stedsnr" v="2298" />
	</node>
	<node id="-317713" lat="59.0231333326" lon="7.41733611966">
		<tag k="name" v="Pollan" />
		<tag k="natural" v="water" />
		<tag k="ssr:stedsnr" v="2294" />
	</node>
	<node id="-317712" lat="59.0393749956" lon="7.57410000427">
		<tag k="alt_name" v="Grosåne" />
		<tag k="name" v="Grosåni" />
		<tag k="ssr:stedsnr" v="2260" />
		<tag k="waterway" v="stream" />
	</node>
	<node id="-317711" lat="59.2375527756" lon="7.63056388921">
		<tag k="name" v="Ufsi" />
		<tag k="natural" v="cape" />
		<tag k="ssr:stedsnr" v="1965" />
	</node>
	<node id="-317710" lat="59.2304138872" lon="7.46091389425">
		<tag k="name" v="Flossi" />
		<tag k="ssr:stedsnr" v="1963" />
		<tag k="waterway" v="stream" />
	</node>
	<node id="-320324" lat="59.229405553" lon="7.71586666397">
		<tag k="name" v="Flossli" />
		<tag k="natural" v="water" />
		<tag k="ssr:stedsnr" v="508927" />
		<tag k="water" v="lake" />
	</node>
	<node id="-322097" lat="59.0919583309" lon="7.53046389428">
		<tag k="name" v="Håmårsbekken" />
		<tag k="ssr:stedsnr" v="751979" />
		<tag k="waterway" v="stream" />
	</node>
	<node id="-317704" lat="59.1112972256" lon="7.30218888376">
		<tag k="name" v="Beinleivotni" />
		<tag k="natural" v="water" />
		<tag k="ssr:stedsnr" v="1918" />
		<tag k="water" v="lake" />
	</node>
	<node id="-320051" lat="59.1801111146" lon="7.57089444489">
		<tag k="name" v="Kroktjørn" />
		<tag k="natural" v="water" />
		<tag k="ssr:stedsnr" v="447578" />
	</node>
	<node id="-317698" lat="59.2118666652" lon="7.02794445279">
		<tag k="alt_name" v="Såtjørn" />
		<tag k="name" v="Såtjønn" />
		<tag k="natural" v="water" />
		<tag k="ssr:stedsnr" v="1859" />
		<tag k="water" v="lake" />
	</node>
	<node id="-317694" lat="59.1263916643" lon="7.30955277543">
		<tag k="name" v="Rotevatnet" />
		<tag k="natural" v="water" />
		<tag k="ssr:stedsnr" v="1839" />
		<tag k="water" v="lake" />
	</node>
	<node id="-318165" lat="59.1869805552" lon="7.66176666089">
		<tag k="name" v="Tjørnelitjørn" />
		<tag k="natural" v="water" />
		<tag k="ssr:stedsnr" v="62628" />
	</node>
	<node id="-317689" lat="59.0784083292" lon="7.35293610297">
		<tag k="name" v="Videvadsåni" />
		<tag k="ssr:stedsnr" v="1720" />
		<tag k="waterway" v="stream" />
	</node>
	<node id="-317682" lat="59.1784749981" lon="7.59416389655">
		<tag k="alt_name" v="Ljomsvatn" />
		<tag k="name" v="Ljomsvatnet" />
		<tag k="natural" v="water" />
		<tag k="ssr:stedsnr" v="1624" />
	</node>
	<node id="-317680" lat="59.1561250005" lon="7.61040000355">
		<tag k="name" v="Fiskevatn" />
		<tag k="natural" v="water" />
		<tag k="ssr:stedsnr" v="1596" />
	</node>
	<node id="-317679" lat="59.1491472235" lon="7.67801667484">
		<tag k="name" v="Haugesmåtjørnin" />
		<tag k="natural" v="water" />
		<tag k="ssr:stedsnr" v="1585" />
	</node>
	<node id="-317677" lat="59.1342777741" lon="7.42985000436">
		<tag k="name" v="Finnbudalstjørnin" />
		<tag k="natural" v="water" />
		<tag k="ssr:stedsnr" v="1576" />
	</node>
	<node id="-317676" lat="59.2150305541" lon="7.41920832532">
		<tag k="name" v="Svarvartjørn" />
		<tag k="natural" v="water" />
		<tag k="ssr:stedsnr" v="1556" />
	</node>
	<node id="-317672" lat="59.2338611145" lon="7.75222222616">
		<tag k="alt_name" v="Gunnbjørgdaltjørni" />
		<tag k="name" v="Gonnbjønntjønnane" />
		<tag k="natural" v="water" />
		<tag k="old_name" v="Gunnbjørgtjørnane" />
		<tag k="ssr:stedsnr" v="1324" />
	</node>
	<node id="-317670" lat="58.9559277751" lon="7.22265000038">
		<tag k="name" v="Klubbetjørn" />
		<tag k="natural" v="water" />
		<tag k="ssr:stedsnr" v="1252" />
	</node>
	<node id="-317669" lat="58.9936194426" lon="7.23971667306">
		<tag k="name" v="Kalvetjørni" />
		<tag k="natural" v="water" />
		<tag k="ssr:stedsnr" v="1246" />
	</node>
	<node id="-317666" lat="59.2987669192" lon="7.3429793074">
		<tag k="name" v="Raudkleivhylen" />
		<tag k="place" v="locality" />
		<tag k="ssr:stedsnr" v="214884" />
	</node>
	<node id="-317664" lat="59.332252782" lon="7.43528888447">
		<tag k="name" v="Mørketjørn" />
		<tag k="natural" v="water" />
		<tag k="ssr:stedsnr" v="63559" />
	</node>
	<node id="-319525" lat="59.0690166703" lon="7.71350555697">
		<tag k="name" v="Løken" />
		<tag k="natural" v="water" />
		<tag k="ssr:stedsnr" v="244734" />
	</node>
	<node id="-320254" lat="59.0116388876" lon="7.3985027862">
		<tag k="name" v="Steinstjørn" />
		<tag k="natural" v="water" />
		<tag k="ssr:stedsnr" v="508463" />
	</node>
	<node id="-320205" lat="59.3041222197" lon="7.55143055441">
		<tag k="name" v="Torvikvatnet" />
		<tag k="natural" v="water" />
		<tag k="ssr:stedsnr" v="487766" />
		<tag k="water" v="lake" />
	</node>
	<node id="-321911" lat="59.0945555535" lon="7.66932777506">
		<tag k="alt_name" v="Lisle -Oksetjørn" />
		<tag k="name" v="Lisleløkstjørni" />
		<tag k="natural" v="water" />
		<tag k="old_name" v="Lisløkstjørni" />
		<tag k="ssr:stedsnr" v="729757" />
	</node>
	<node id="-320204" lat="59.3093916628" lon="7.46834722502">
		<tag k="name" v="Hesttjørn" />
		<tag k="natural" v="water" />
		<tag k="ssr:stedsnr" v="487763" />
	</node>
	<node id="-318155" lat="59.2075618676" lon="7.6714883304">
		<tag k="name" v="Rjupa" />
		<tag k="natural" v="water" />
		<tag k="ssr:stedsnr" v="62531" />
	</node>
	<node id="-319680" lat="59.1669833313" lon="7.69576667023">
		<tag k="alt_name" v="Timberviksvatnet" />
		<tag k="name" v="Timrevikvatnet" />
		<tag k="natural" v="water" />
		<tag k="ssr:stedsnr" v="266672" />
		<tag k="water" v="lake" />
	</node>
	<node id="-319676" lat="59.2064972234" lon="7.49861944599">
		<tag k="name" v="Lisletjørn" />
		<tag k="natural" v="water" />
		<tag k="ssr:stedsnr" v="266650" />
	</node>
	<node id="-319670" lat="59.1026638923" lon="7.76226110829">
		<tag k="name" v="Fløtetjørn" />
		<tag k="natural" v="water" />
		<tag k="ssr:stedsnr" v="266608" />
	</node>
	<node id="-321225" lat="59.3434083303" lon="7.51557777417">
		<tag k="alt_name" v="Kjeeholmen" />
		<tag k="name" v="Kjeholmen" />
		<tag k="place" v="islet" />
		<tag k="ssr:stedsnr" v="731512" />
	</node>
	<node id="-319668" lat="59.0799666668" lon="7.74495277476">
		<tag k="name" v="Ringsodden" />
		<tag k="natural" v="cape" />
		<tag k="ssr:stedsnr" v="266597" />
	</node>
	<node id="-319667" lat="59.0880694481" lon="7.75053055165">
		<tag k="name" v="Syvråni" />
		<tag k="ssr:stedsnr" v="266588" />
		<tag k="waterway" v="river" />
	</node>
	<node id="-319664" lat="59.2427166658" lon="7.651708333">
		<tag k="name" v="Kjønestjørn" />
		<tag k="natural" v="water" />
		<tag k="ssr:stedsnr" v="266515" />
	</node>
	<node id="-319657" lat="59.0746749968" lon="7.68065000033">
		<tag k="name" v="Homane" />
		<tag k="place" v="islet" />
		<tag k="ssr:stedsnr" v="266385" />
	</node>
	<node id="-319656" lat="59.2165166663" lon="7.4940416649">
		<tag k="name" v="Middalsbekken" />
		<tag k="natural" v="water" />
		<tag k="ssr:stedsnr" v="266352" />
	</node>
	<node id="-319649" lat="59.0606583373" lon="7.56907499985">
		<tag k="name" v="Evja" />
		<tag k="natural" v="bay" />
		<tag k="ssr:stedsnr" v="265864" />
	</node>
	<node id="-319644" lat="59.0497500005" lon="7.56288610532">
		<tag k="name" v="Bannar-ia" />
		<tag k="old_name" v="Bannar-ja" />
		<tag k="ssr:stedsnr" v="265827" />
		<tag k="waterway" v="rapids" />
	</node>
	<node id="-319643" lat="59.0473555537" lon="7.5679805525">
		<tag k="name" v="Bubakkevja" />
		<tag k="ssr:stedsnr" v="265825" />
		<tag k="waterway" v="rapids" />
	</node>
	<node id="-321903" lat="59.1543250017" lon="7.35000832755">
		<tag k="name" v="Melrakkløkin" />
		<tag k="natural" v="water" />
		<tag k="ssr:stedsnr" v="729606" />
	</node>
	<node id="-323736" lat="59.0418782613" lon="7.14248396247">
		<tag k="name" v="Fossen" />
		<tag k="natural" v="waterfall" />
		<tag k="ssr:stedsnr" v="123907" />
	</node>
	<node id="-319638" lat="59.1010416699" lon="7.5221861138">
		<tag k="name" v="Skarpøy" />
		<tag k="place" v="island" />
		<tag k="ssr:stedsnr" v="265797" />
	</node>
	<node id="-319634" lat="59.1049250034" lon="7.55730556216">
		<tag k="name" v="Ånundshøl" />
		<tag k="place" v="locality" />
		<tag k="ssr:stedsnr" v="265784" />
	</node>
	<node id="-319633" lat="59.2104611145" lon="7.50881666845">
		<tag k="alt_name" v="Skogebekk" />
		<tag k="name" v="Skuggebekk" />
		<tag k="ssr:stedsnr" v="265700" />
		<tag k="waterway" v="stream" />
	</node>
	<node id="-319630" lat="59.2325999991" lon="7.54004999879">
		<tag k="name" v="Fylgjehyl" />
		<tag k="place" v="locality" />
		<tag k="ssr:stedsnr" v="265655" />
	</node>
	<node id="-317804" lat="59.1769333376" lon="7.52678611097">
		<tag k="name" v="Sandøyrane" />
		<tag k="place" v="islet" />
		<tag k="ssr:stedsnr" v="23568" />
	</node>
	<node id="-319618" lat="59.2337777796" lon="7.55967778221">
		<tag k="name" v="Espetveitsåne" />
		<tag k="ssr:stedsnr" v="265595" />
		<tag k="waterway" v="stream" />
	</node>
	<node id="-319616" lat="59.2319527739" lon="7.54558888145">
		<tag k="name" v="Homane" />
		<tag k="place" v="islet" />
		<tag k="ssr:stedsnr" v="265588" />
	</node>
	<node id="-320192" lat="59.273241671" lon="7.52166944865">
		<tag k="name" v="Ljomsåni" />
		<tag k="old_name" v="Lyomsåni" />
		<tag k="ssr:stedsnr" v="487718" />
		<tag k="waterway" v="stream" />
	</node>
	<node id="-320251" lat="59.0271666646" lon="7.4411777796">
		<tag k="name" v="Poddebekken" />
		<tag k="ssr:stedsnr" v="508457" />
		<tag k="waterway" v="stream" />
	</node>
	<node id="-319607" lat="59.0804999996" lon="7.38180277865">
		<tag k="name" v="Vassbø" />
		<tag k="ssr:stedsnr" v="265459" />
		<tag k="waterway" v="rapids" />
	</node>
	<node id="-319602" lat="59.021680558" lon="7.44565554859">
		<tag k="name" v="Krokevassåni" />
		<tag k="ssr:stedsnr" v="265433" />
		<tag k="waterway" v="river" />
	</node>
	<node id="-319596" lat="59.0846583328" lon="7.45110833064">
		<tag k="name" v="Fjørni" />
		<tag k="natural" v="water" />
		<tag k="ssr:stedsnr" v="265411" />
	</node>
	<node id="-319595" lat="59.0502361146" lon="7.35720278148">
		<tag k="name" v="Leiteåni" />
		<tag k="ssr:stedsnr" v="265401" />
		<tag k="waterway" v="river" />
	</node>
	<node id="-319582" lat="59.1969277772" lon="7.5278694376">
		<tag k="name" v="Harstadevje" />
		<tag k="natural" v="bay" />
		<tag k="ssr:stedsnr" v="265016" />
	</node>
	<node id="-321629" lat="59.0318388857" lon="7.5104416695">
		<tag k="name" v="Fossen" />
		<tag k="natural" v="waterfall" />
		<tag k="ssr:stedsnr" v="702150" />
	</node>
	<node id="-321628" lat="59.139905554" lon="7.75036943837">
		<tag k="name" v="Langekil" />
		<tag k="natural" v="bay" />
		<tag k="ssr:stedsnr" v="695064" />
	</node>
	<node id="-321625" lat="59.2194944413" lon="7.54156388715">
		<tag k="name" v="Rekaviki" />
		<tag k="natural" v="bay" />
		<tag k="ssr:stedsnr" v="691658" />
	</node>
	<node id="-319573" lat="59.3006861149" lon="7.50869999699">
		<tag k="loc_name" v="Neire Svintjønn" />
		<tag k="name" v="Svinestjørn" />
		<tag k="natural" v="water" />
		<tag k="ssr:stedsnr" v="264757" />
	</node>
	<node id="-319570" lat="59.2535555545" lon="7.48126389029">
		<tag k="name" v="Lisleå" />
		<tag k="ssr:stedsnr" v="264234" />
		<tag k="waterway" v="river" />
	</node>
	<node id="-321614" lat="59.0369055566" lon="7.42005278126">
		<tag k="name" v="Ormetjørn" />
		<tag k="natural" v="water" />
		<tag k="ssr:stedsnr" v="691471" />
	</node>
	<node id="-321613" lat="59.0336194452" lon="7.46636945114">
		<tag k="name" v="Slytjørn" />
		<tag k="natural" v="water" />
		<tag k="ssr:stedsnr" v="691454" />
	</node>
	<node id="-321612" lat="59.0405333352" lon="7.48194444184">
		<tag k="name" v="Hægestøylbekken" />
		<tag k="ssr:stedsnr" v="691448" />
		<tag k="waterway" v="stream" />
	</node>
	<node id="-319563" lat="59.3060222227" lon="7.47159444646">
		<tag k="alt_name" v="Vasstøylsåne" />
		<tag k="loc_name" v="Vasstøylåni" />
		<tag k="name" v="Vasstøylsåni" />
		<tag k="old_name" v="Vasstølåni" />
		<tag k="ssr:stedsnr" v="245713" />
		<tag k="waterway" v="river" />
	</node>
	<node id="-321610" lat="59.0259361108" lon="7.52378054876">
		<tag k="name" v="Vindsåstjørni" />
		<tag k="natural" v="water" />
		<tag k="ssr:stedsnr" v="691377" />
	</node>
	<node id="-319560" lat="59.280227779" lon="7.67399166853">
		<tag k="name" v="Skålbutjørni" />
		<tag k="natural" v="water" />
		<tag k="old_name" v="Skålbutjørn" />
		<tag k="ssr:stedsnr" v="245673" />
	</node>
	<node id="-321607" lat="59.2274472216" lon="7.72229167142">
		<tag k="name" v="Flosslibekken" />
		<tag k="ssr:stedsnr" v="690927" />
		<tag k="waterway" v="stream" />
	</node>
	<node id="-319556" lat="59.259230555" lon="7.35664999132">
		<tag k="name" v="Katridalstjørnin" />
		<tag k="natural" v="water" />
		<tag k="ssr:stedsnr" v="245657" />
	</node>
	<node id="-321603" lat="59.0672027789" lon="7.5730583383">
		<tag k="name" v="Straumsfossen" />
		<tag k="natural" v="waterfall" />
		<tag k="ssr:stedsnr" v="690867" />
	</node>
	<node id="-321602" lat="59.0676638921" lon="7.58389723002">
		<tag k="name" v="Troskelisbekken" />
		<tag k="ssr:stedsnr" v="690864" />
		<tag k="waterway" v="stream" />
	</node>
	<node id="-321601" lat="59.0450305516" lon="7.49443056241">
		<tag k="name" v="Kaldbekk" />
		<tag k="ssr:stedsnr" v="690855" />
		<tag k="waterway" v="stream" />
	</node>
	<node id="-321600" lat="59.046161111" lon="7.54181388658">
		<tag k="name" v="Sollitjørni" />
		<tag k="natural" v="water" />
		<tag k="ssr:stedsnr" v="690842" />
	</node>
	<node id="-321599" lat="59.0435611117" lon="7.51448888199">
		<tag k="name" v="Lomshome" />
		<tag k="place" v="islet" />
		<tag k="ssr:stedsnr" v="690831" />
	</node>
	<node id="-319550" lat="59.3271972248" lon="7.46617222167">
		<tag k="alt_name" v="Kvernåne" />
		<tag k="name" v="Kvernåni" />
		<tag k="ssr:stedsnr" v="245512" />
		<tag k="waterway" v="stream" />
	</node>
	<node id="-317862" lat="59.0776944478" lon="7.54519999132">
		<tag k="name" v="Klamlibekken" />
		<tag k="ssr:stedsnr" v="23994" />
		<tag k="waterway" v="stream" />
	</node>
	<node id="-319547" lat="59.2506472252" lon="7.33847222195">
		<tag k="name" v="Hovassløkjin" />
		<tag k="natural" v="water" />
		<tag k="ssr:stedsnr" v="245470" />
	</node>
	<node id="-319542" lat="59.0116500033" lon="7.23759165953">
		<tag k="name" v="Hergjustjørn" />
		<tag k="natural" v="water" />
		<tag k="ssr:stedsnr" v="245000" />
	</node>
	<node id="-321587" lat="59.1179416665" lon="7.63387222184">
		<tag k="name" v="Fiskeløys" />
		<tag k="natural" v="water" />
		<tag k="ssr:stedsnr" v="690718" />
	</node>
	<node id="-321586" lat="59.1165749988" lon="7.63129166273">
		<tag k="name" v="Surtetjørnløkjene" />
		<tag k="natural" v="water" />
		<tag k="ssr:stedsnr" v="690716" />
		<tag k="water" v="lake" />
	</node>
	<node id="-319537" lat="59.0873571606" lon="7.29327210098">
		<tag k="alt_name" v="Dei Grunne Tjørnane" />
		<tag k="name" v="Dei grunne tjørnin" />
		<tag k="natural" v="water" />
		<tag k="ssr:stedsnr" v="244942" />
	</node>
	<node id="-319534" lat="59.1019777735" lon="7.18013610809">
		<tag k="name" v="Asbjørgbuvatnet" />
		<tag k="natural" v="strait" />
		<tag k="ssr:stedsnr" v="244920" />
	</node>
	<node id="-321580" lat="59.0909222259" lon="7.7866527836">
		<tag k="name" v="Dei tvo tjønin" />
		<tag k="natural" v="water" />
		<tag k="ssr:stedsnr" v="690643" />
	</node>
	<node id="-321203" lat="59.043819443" lon="7.45791110858">
		<tag k="name" v="Furestøylbekken" />
		<tag k="ssr:stedsnr" v="630419" />
		<tag k="waterway" v="stream" />
	</node>
	<node id="-319528" lat="59.0807749986" lon="7.62028610355">
		<tag k="alt_name" v="Salgrastjørni" />
		<tag k="name" v="Salgrastjørn" />
		<tag k="natural" v="water" />
		<tag k="ssr:stedsnr" v="244758" />
	</node>
	<node id="-319526" lat="59.0957000007" lon="7.63852222304">
		<tag k="alt_name" v="Nutetjørni" />
		<tag k="name" v="Nutetjørn" />
		<tag k="natural" v="water" />
		<tag k="ssr:stedsnr" v="244752" />
	</node>
	<node id="-321573" lat="59.1493472198" lon="7.59062222026">
		<tag k="name" v="Vindåsåna" />
		<tag k="ssr:stedsnr" v="690620" />
		<tag k="waterway" v="river" />
	</node>
	<node id="-319524" lat="59.0654250023" lon="7.62554165847">
		<tag k="alt_name" v="Spangreidtjørni" />
		<tag k="name" v="Sprangereidtjørn" />
		<tag k="natural" v="water" />
		<tag k="ssr:stedsnr" v="244735" />
	</node>
	<node id="-319523" lat="59.0550277797" lon="7.37152776993">
		<tag k="alt_name" v="Myklevatn" />
		<tag k="name" v="Myklevatnet" />
		<tag k="natural" v="water" />
		<tag k="ssr:stedsnr" v="244729" />
		<tag k="water" v="lake" />
	</node>
	<node id="-319520" lat="59.1392055541" lon="7.62379167203">
		<tag k="name" v="Eksvatn" />
		<tag k="natural" v="water" />
		<tag k="ssr:stedsnr" v="244699" />
	</node>
	<node id="-319519" lat="59.117161114" lon="7.62610832765">
		<tag k="name" v="Surtetjørn" />
		<tag k="natural" v="water" />
		<tag k="ssr:stedsnr" v="244691" />
	</node>
	<node id="-321566" lat="59.2290638888" lon="7.68273611002">
		<tag k="name" v="Vikebekken" />
		<tag k="ssr:stedsnr" v="690574" />
		<tag k="waterway" v="stream" />
	</node>
	<node id="-319516" lat="59.1459833369" lon="7.62520000379">
		<tag k="alt_name" v="Hyllvatn" />
		<tag k="name" v="Hyllvatnet" />
		<tag k="natural" v="water" />
		<tag k="ssr:stedsnr" v="244617" />
	</node>
	<node id="-319515" lat="59.1450222185" lon="7.610780563">
		<tag k="name" v="Langetjørn" />
		<tag k="natural" v="water" />
		<tag k="ssr:stedsnr" v="244613" />
	</node>
	<node id="-319514" lat="59.2334861084" lon="7.70715000248">
		<tag k="name" v="Kyrkjeholmen" />
		<tag k="place" v="islet" />
		<tag k="ssr:stedsnr" v="244586" />
	</node>
	<node id="-319511" lat="59.1939027751" lon="7.36956667043">
		<tag k="name" v="Fiskespranget" />
		<tag k="natural" v="water" />
		<tag k="ssr:stedsnr" v="244562" />
	</node>
	<node id="-319509" lat="59.1062999969" lon="7.73961388761">
		<tag k="name" v="Fossevatn" />
		<tag k="natural" v="water" />
		<tag k="ssr:stedsnr" v="244443" />
		<tag k="water" v="lake" />
	</node>
	<node id="-319508" lat="59.2404972212" lon="7.72918333723">
		<tag k="name" v="Steitjørni" />
		<tag k="natural" v="water" />
		<tag k="ssr:stedsnr" v="244316" />
	</node>
	<node id="-319506" lat="59.0146972208" lon="7.42023333079">
		<tag k="name" v="Krokevotni" />
		<tag k="natural" v="water" />
		<tag k="ssr:stedsnr" v="244268" />
		<tag k="water" v="lake" />
	</node>
	<node id="-319505" lat="59.0639833362" lon="7.59436111695">
		<tag k="alt_name" v="Kvernåna" />
		<tag k="name" v="Kvernåni" />
		<tag k="ssr:stedsnr" v="244266" />
		<tag k="waterway" v="stream" />
	</node>
	<node id="-321548" lat="59.0911361079" lon="7.39955278076">
		<tag k="name" v="Fossen" />
		<tag k="natural" v="waterfall" />
		<tag k="ssr:stedsnr" v="690464" />
	</node>
	<node id="-321546" lat="59.0773861105" lon="7.41748333856">
		<tag k="name" v="Tjørnin" />
		<tag k="natural" v="water" />
		<tag k="ssr:stedsnr" v="690455" />
	</node>
	<node id="-321545" lat="59.0624388848" lon="7.71356110894">
		<tag k="name" v="Romundtjørnin" />
		<tag k="natural" v="water" />
		<tag k="ssr:stedsnr" v="690450" />
	</node>
	<node id="-321544" lat="59.0813416679" lon="7.45422222994">
		<tag k="name" v="Botnestrondi" />
		<tag k="natural" v="beach" />
		<tag k="ssr:stedsnr" v="690449" />
	</node>
	<node id="-321542" lat="59.0792194427" lon="7.43751110724">
		<tag k="name" v="Lomstjørn" />
		<tag k="natural" v="water" />
		<tag k="ssr:stedsnr" v="690443" />
	</node>
	<node id="-321537" lat="59.1244861126" lon="7.3873138968">
		<tag k="name" v="Sandvassåni" />
		<tag k="ssr:stedsnr" v="690409" />
		<tag k="waterway" v="river" />
	</node>
</osm>
