<?xml version="1.0" encoding="UTF-8"?>
<osm generator="osmapis" version="0.6">
	<node id="-321661" lat="59.0645749965" lon="7.59503333275">
		<tag k="name" v="Kvilestaden" />
		<tag k="ssr:stedsnr" v="751874" />
		<tag k="tourism" v="viewpoint" />
	</node>
	<node id="-319855" lat="59.1457361144" lon="7.52486944087">
		<tag k="name" v="Stoa" />
		<tag k="place" v="locality" />
		<tag k="ssr:stedsnr" v="508630" />
	</node>
	<node id="-318692" lat="59.3105972233" lon="7.48440832542">
		<tag k="name" v="Steinekorplet" />
		<tag k="place" v="locality" />
		<tag k="ssr:stedsnr" v="204137" />
	</node>
	<node id="-321633" lat="59.1244277755" lon="7.53398888722">
		<tag k="name" v="Tereleiken" />
		<tag k="place" v="locality" />
		<tag k="ssr:stedsnr" v="751561" />
	</node>
	<node id="-317791" lat="59.2734722196" lon="7.46136389545">
		<tag k="name" v="Rui" />
		<tag k="ssr:stedsnr" v="82143" />
		<tag k="tourism" v="attraction" />
	</node>
	<node id="-317403" lat="59.2173222185" lon="7.53310000534">
		<tag k="name" v="Kyrkjegarden" />
		<tag k="place" v="locality" />
		<tag k="ssr:stedsnr" v="23676" />
	</node>
	<node id="-322008" lat="59.1240861099" lon="7.45680556433">
		<tag k="name" v="Bjørnehiet" />
		<tag k="place" v="locality" />
		<tag k="ssr:stedsnr" v="811356" />
	</node>
	<node id="-321108" lat="59.0881750039" lon="7.47831389233">
		<tag k="name" v="Botnebui" />
		<tag k="place" v="locality" />
		<tag k="ssr:stedsnr" v="690442" />
	</node>
	<node id="-316877" lat="59.1182194485" lon="7.53004167046">
		<tag k="name" v="Båsen" />
		<tag k="place" v="locality" />
		<tag k="ssr:stedsnr" v="386746" />
	</node>
	<node id="-318284" lat="59.2633638916" lon="7.48889999503">
		<tag k="name" v="Setesdalsmuseet" />
		<tag k="ssr:stedsnr" v="143845" />
		<tag k="tourism" v="attraction" />
	</node>
	<node id="-316876" lat="59.1180888933" lon="7.54429166037">
		<tag k="name" v="Kjimbelkistet" />
		<tag k="place" v="locality" />
		<tag k="ssr:stedsnr" v="386745" />
	</node>
	<node id="-319814" lat="59.0723083334" lon="7.29218610818">
		<tag k="name" v="Svinehaugen" />
		<tag k="place" v="locality" />
		<tag k="ssr:stedsnr" v="508428" />
	</node>
	<node id="-317281" lat="59.105914922" lon="7.77577520643">
		<tag k="name" v="Nedrekil" />
		<tag k="old_name" v="Kilstøl" />
		<tag k="place" v="locality" />
		<tag k="ssr:stedsnr" v="2461" />
	</node>
	<node id="-321092" lat="59.2895583365" lon="7.5126722182">
		<tag k="name" v="Upptaket" />
		<tag k="place" v="locality" />
		<tag k="ssr:stedsnr" v="689800" />
	</node>
	<node id="-316469" lat="59.125741666" lon="7.5156305481">
		<tag k="name" v="Prestehytta" />
		<tag k="place" v="locality" />
		<tag k="ssr:stedsnr" v="326605" />
	</node>
	<node id="-318251" lat="59.2731444432" lon="7.44024721835">
		<tag k="name" v="Skorpetveit" />
		<tag k="ssr:stedsnr" v="143116" />
		<tag k="tourism" v="attraction" />
	</node>
	<node id="-321193" lat="59.2173861078" lon="7.54083610421">
		<tag k="name" v="Brureberget" />
		<tag k="place" v="locality" />
		<tag k="ssr:stedsnr" v="691665" />
	</node>
	<node id="-321189" lat="59.209630555" lon="7.53449166844">
		<tag k="alt_name" v="Valle" />
		<tag k="amenity" v="place_of_worship" />
		<tag k="denomination" v="lutheran" />
		<tag k="name" v="Valle kyrkje" />
		<tag k="religion" v="christian" />
		<tag k="ssr:stedsnr" v="691637" />
	</node>
	<node id="-317856" lat="59.0382750023" lon="7.55914166393">
		<tag k="name" v="Overroet" />
		<tag k="place" v="locality" />
		<tag k="ssr:stedsnr" v="83818" />
	</node>
	<node id="-321560" lat="59.2216694416" lon="7.58247500313">
		<tag k="name" v="Holsete" />
		<tag k="place" v="locality" />
		<tag k="ssr:stedsnr" v="751644" />
	</node>
	<node id="-322068" lat="59.1352388877" lon="7.55950555629">
		<tag k="name" v="Beileia" />
		<tag k="place" v="locality" />
		<tag k="ssr:stedsnr" v="812542" />
	</node>
	<node id="-320784" lat="59.0405388851" lon="7.52263889016">
		<tag k="name" v="Sagtomt Vassosen" />
		<tag k="place" v="locality" />
		<tag k="ssr:stedsnr" v="641499" />
	</node>
	<node id="-322055" lat="59.0658694478" lon="7.38127778042">
		<tag k="name" v="Bilstadden" />
		<tag k="place" v="locality" />
		<tag k="ssr:stedsnr" v="812407" />
	</node>
	<node id="-321025" lat="59.0953749978" lon="7.53353888214">
		<tag k="amenity" v="place_of_worship" />
		<tag k="denomination" v="lutheran" />
		<tag k="fixme" v="multiple name tags, choose one and add the other to alt_name" />
		<tag k="name" v="Hylestad;Kyrkja" />
		<tag k="religion" v="christian" />
		<tag k="ssr:stedsnr" v="668766" />
	</node>
</osm>
