<?xml version="1.0" encoding="UTF-8"?>
<osm generator="osmapis" version="0.6">
	<node id="-316413" lat="59.1314138867" lon="7.48841944109">
		<tag k="highway" v="path" />
		<tag k="name" v="Takli-vegen" />
		<tag k="ssr:stedsnr" v="326364" />
	</node>
	<node id="-317436" lat="59.2014916642" lon="7.53180555732">
		<tag k="bridge" v="yes" />
		<tag k="layer" v="1" />
		<tag k="name" v="Viki" />
		<tag k="ssr:stedsnr" v="46169" />
	</node>
	<node id="-321146" lat="59.1259972237" lon="7.51082777622">
		<tag k="landuse" v="industrial" />
		<tag k="name" v="Brokke kraftstasjon" />
		<tag k="power" v="plant" />
		<tag k="ssr:stedsnr" v="690641" />
	</node>
	<node id="-319863" lat="59.1201305525" lon="7.60898333701">
		<tag k="ford" v="yes" />
		<tag k="name" v="Breieva" />
		<tag k="place" v="locality" />
		<tag k="ssr:stedsnr" v="508656" />
	</node>
	<node id="-319602" lat="59.1343750016" lon="7.40983889436">
		<tag k="highway" v="path" />
		<tag k="name" v="Førslevegen" />
		<tag k="ssr:stedsnr" v="447331" />
	</node>
	<node id="-322515" lat="59.0992999971" lon="7.42659721488">
		<tag k="name" v="Lægjerinden" />
		<tag k="place" v="locality" />
		<tag k="ssr:stedsnr" v="872512" />
	</node>
	<node id="-318371" lat="59.0906638874" lon="7.52653610735">
		<tag k="highway" v="path" />
		<tag k="name" v="Kleivevegen" />
		<tag k="ssr:stedsnr" v="144975" />
	</node>
	<node id="-321646" lat="59.1710500002" lon="7.70535832458">
		<tag k="fixme" v="verify maritime location" />
		<tag k="mooring" v="yes" />
		<tag k="name" v="Midstoda" />
		<tag k="place" v="locality" />
		<tag k="ssr:stedsnr" v="751717" />
	</node>
	<node id="-316525" lat="59.1457638881" lon="7.53990832985">
		<tag k="bridge" v="yes" />
		<tag k="layer" v="1" />
		<tag k="name" v="Kveaså søndre" />
		<tag k="ssr:stedsnr" v="350188" />
	</node>
	<node id="-317420" lat="59.0387555522" lon="7.55626389581">
		<tag k="junction" v="yes" />
		<tag k="name" v="Krossled" />
		<tag k="place" v="locality" />
		<tag k="ssr:stedsnr" v="23827" />
	</node>
	<node id="-316523" lat="59.2836805512" lon="7.49873054917">
		<tag k="bridge" v="yes" />
		<tag k="layer" v="1" />
		<tag k="name" v="Veiåna" />
		<tag k="ssr:stedsnr" v="350153" />
	</node>
	<node id="-320359" lat="59.1022083325" lon="7.50884445032">
		<tag k="bridge" v="yes" />
		<tag k="layer" v="1" />
		<tag k="name" v="Farå" />
		<tag k="ssr:stedsnr" v="592214" />
	</node>
	<node id="-322919" lat="59.2572666668" lon="7.46710833126">
		<tag k="bridge" v="yes" />
		<tag k="layer" v="1" />
		<tag k="name" v="Mannebrui" />
		<tag k="ssr:stedsnr" v="932233" />
	</node>
	<node id="-320358" lat="59.1462694467" lon="7.53974443639">
		<tag k="bridge" v="yes" />
		<tag k="layer" v="1" />
		<tag k="name" v="Kveaså nordre" />
		<tag k="ssr:stedsnr" v="592212" />
	</node>
	<node id="-322020" lat="59.0930194417" lon="7.44273610742">
		<tag k="fixme" v="consider highway=path" />
		<tag k="highway" v="track" />
		<tag k="name" v="Djuvevegen" />
		<tag k="ssr:stedsnr" v="811405" />
	</node>
	<node id="-317795" lat="59.1879527784" lon="7.51663333917">
		<tag k="name" v="Tjogotledet" />
		<tag k="place" v="locality" />
		<tag k="ssr:stedsnr" v="83017" />
	</node>
	<node id="-323024" lat="58.9702944428" lon="7.13463056217">
		<tag k="alt_name" v="Kvibruni, øvra" />
		<tag k="bridge" v="yes" />
		<tag k="layer" v="1" />
		<tag k="name" v="Øvra Kvibruni" />
		<tag k="ssr:stedsnr" v="938939" />
	</node>
	<node id="-322142" lat="59.1955222206" lon="7.526838897">
		<tag k="bridge" v="yes" />
		<tag k="layer" v="1" />
		<tag k="name" v="Harstad" />
		<tag k="ssr:stedsnr" v="836164" />
	</node>
	<node id="-322141" lat="59.0473805522" lon="7.35016944705">
		<tag k="bridge" v="yes" />
		<tag k="layer" v="1" />
		<tag k="name" v="Sandvatn" />
		<tag k="ssr:stedsnr" v="836127" />
	</node>
	<node id="-322140" lat="59.05070556" lon="7.36092500289">
		<tag k="bridge" v="yes" />
		<tag k="layer" v="1" />
		<tag k="name" v="Leite" />
		<tag k="ssr:stedsnr" v="836124" />
	</node>
	<node id="-322139" lat="59.2629222245" lon="7.49946389697">
		<tag k="bridge" v="yes" />
		<tag k="layer" v="1" />
		<tag k="name" v="Rygnestad" />
		<tag k="ssr:stedsnr" v="836122" />
	</node>
	<node id="-323034" lat="59.1089638859" lon="7.49566944146">
		<tag k="bridge" v="yes" />
		<tag k="layer" v="1" />
		<tag k="name" v="Bergsbekken øvre" />
		<tag k="ssr:stedsnr" v="957210" />
	</node>
	<node id="-317903" lat="59.2394972211" lon="7.53631666118">
		<tag k="bridge" v="yes" />
		<tag k="layer" v="1" />
		<tag k="name" v="Kvinåni" />
		<tag k="ssr:stedsnr" v="107177" />
	</node>
	<node id="-318808" lat="59.238397221" lon="7.53585277193">
		<tag k="bridge" v="yes" />
		<tag k="layer" v="1" />
		<tag k="name" v="Homme" />
		<tag k="ssr:stedsnr" v="228200" />
	</node>
	<node id="-318807" lat="59.2085472181" lon="7.52891944914">
		<tag k="bridge" v="yes" />
		<tag k="layer" v="1" />
		<tag k="name" v="Sagneskar" />
		<tag k="ssr:stedsnr" v="228168" />
	</node>
	<node id="-322460" lat="59.2520249989" lon="7.47448056197">
		<tag k="junction" v="yes" />
		<tag k="name" v="Oveinang" />
		<tag k="place" v="locality" />
		<tag k="ssr:stedsnr" v="852646" />
	</node>
	<node id="-318803" lat="59.0267250001" lon="7.53921666327">
		<tag k="man_made" v="cairn" />
		<tag k="name" v="Varden" />
		<tag k="place" v="locality" />
		<tag k="ssr:stedsnr" v="217131" />
	</node>
	<node id="-319826" lat="59.1009138921" lon="7.47204444849">
		<tag k="bridge" v="yes" />
		<tag k="layer" v="1" />
		<tag k="name" v="Sagebrua" />
		<tag k="ssr:stedsnr" v="508507" />
	</node>
	<node id="-316899" lat="59.1083666647" lon="7.50963055498">
		<tag k="alt_name" v="Skagen" />
		<tag k="bridge" v="yes" />
		<tag k="layer" v="1" />
		<tag k="name" v="Skagen bro" />
		<tag k="ssr:stedsnr" v="386769" />
	</node>
	<node id="-317904" lat="59.0720750007" lon="7.39547499749">
		<tag k="bridge" v="yes" />
		<tag k="layer" v="1" />
		<tag k="name" v="Greini" />
		<tag k="ssr:stedsnr" v="107184" />
	</node>
	<node id="-318799" lat="59.0823527748" lon="7.51136111204">
		<tag k="highway" v="path" />
		<tag k="name" v="Bukseparet" />
		<tag k="ssr:stedsnr" v="205994" />
	</node>
	<node id="-317902" lat="59.1129499974" lon="7.50843334155">
		<tag k="bridge" v="yes" />
		<tag k="layer" v="1" />
		<tag k="name" v="Rynningen" />
		<tag k="ssr:stedsnr" v="107127" />
	</node>
	<node id="-319693" lat="59.0372555545" lon="7.55079444973">
		<tag k="highway" v="path" />
		<tag k="name" v="Vetlevegen" />
		<tag k="ssr:stedsnr" v="448818" />
	</node>
	<node id="-317259" lat="59.1675916623" lon="7.2834833381">
		<tag k="fixme" v="verify maritime location" />
		<tag k="mooring" v="yes" />
		<tag k="name" v="Guttormsto" />
		<tag k="place" v="locality" />
		<tag k="ssr:stedsnr" v="1832" />
	</node>
	<node id="-322131" lat="59.0833999959" lon="7.53901111303">
		<tag k="bridge" v="yes" />
		<tag k="layer" v="1" />
		<tag k="name" v="Nautebrune" />
		<tag k="ssr:stedsnr" v="812997" />
	</node>
	<node id="-316941" lat="59.1461305534" lon="7.49838888401">
		<tag k="alt_name" v="Dalstøylvegen" />
		<tag k="highway" v="path" />
		<tag k="name" v="Dalsstøylvegen" />
		<tag k="ssr:stedsnr" v="387606" />
	</node>
	<node id="-318790" lat="59.0639027805" lon="7.58981943855">
		<tag k="fixme" v="consider highway=path" />
		<tag k="highway" v="track" />
		<tag k="name" v="Store sandbraut" />
		<tag k="ssr:stedsnr" v="205859" />
	</node>
	<node id="-318789" lat="59.0436833319" lon="7.50363333973">
		<tag k="ford" v="yes" />
		<tag k="name" v="Svinevaet" />
		<tag k="place" v="locality" />
		<tag k="ssr:stedsnr" v="205849" />
	</node>
	<node id="-322500" lat="59.0936305539" lon="7.45184999243">
		<tag k="highway" v="path" />
		<tag k="name" v="Grasdalsvegen" />
		<tag k="ssr:stedsnr" v="872421" />
	</node>
	<node id="-316867" lat="59.1134916663" lon="7.48613055965">
		<tag k="ford" v="yes" />
		<tag k="name" v="Normannvadet" />
		<tag k="place" v="locality" />
		<tag k="ssr:stedsnr" v="386422" />
	</node>
	<node id="-321090" lat="59.2537972188" lon="7.53445554978">
		<tag k="highway" v="path" />
		<tag k="name" v="Stigen" />
		<tag k="ssr:stedsnr" v="689776" />
	</node>
	<node id="-316491" lat="59.181272226" lon="7.6964694371">
		<tag k="ford" v="yes" />
		<tag k="name" v="Austmannsvadet" />
		<tag k="place" v="locality" />
		<tag k="ssr:stedsnr" v="326721" />
	</node>
	<node id="-322495" lat="59.2345388914" lon="7.48584722582">
		<tag k="bridge" v="yes" />
		<tag k="layer" v="1" />
		<tag k="name" v="Kallefossbru" />
		<tag k="ssr:stedsnr" v="872333" />
	</node>
	<node id="-322494" lat="59.30318889" lon="7.47110277256">
		<tag k="ford" v="yes" />
		<tag k="name" v="Tveitvad" />
		<tag k="place" v="locality" />
		<tag k="ssr:stedsnr" v="872203" />
	</node>
	<node id="-318382" lat="59.3430416639" lon="7.515247218">
		<tag k="bridge" v="yes" />
		<tag k="layer" v="1" />
		<tag k="name" v="Kjeholmen" />
		<tag k="ssr:stedsnr" v="168193" />
	</node>
	<node id="-317369" lat="59.1731000039" lon="7.53357500572">
		<tag k="highway" v="path" />
		<tag k="name" v="Stigen" />
		<tag k="ssr:stedsnr" v="23566" />
	</node>
	<node id="-321204" lat="59.0954611081" lon="7.43752222294">
		<tag k="bridge" v="yes" />
		<tag k="layer" v="1" />
		<tag k="name" v="Furustøyl" />
		<tag k="ssr:stedsnr" v="714171" />
	</node>
	<node id="-322998" lat="59.1784999985" lon="7.67582500818">
		<tag k="ford" v="yes" />
		<tag k="name" v="Austmannsvadet" />
		<tag k="place" v="locality" />
		<tag k="ssr:stedsnr" v="933724" />
	</node>
	<node id="-322484" lat="59.2666916634" lon="7.56293889235">
		<tag k="highway" v="path" />
		<tag k="name" v="Lislerovekleiv" />
		<tag k="ssr:stedsnr" v="871821" />
	</node>
	<node id="-321203" lat="59.1915027779" lon="7.52169445134">
		<tag k="bridge" v="yes" />
		<tag k="layer" v="1" />
		<tag k="name" v="Hallands" />
		<tag k="ssr:stedsnr" v="714168" />
	</node>
	<node id="-318385" lat="59.2289305529" lon="7.50019165949">
		<tag k="bridge" v="yes" />
		<tag k="layer" v="1" />
		<tag k="name" v="Dale" />
		<tag k="ssr:stedsnr" v="168207" />
	</node>
	<node id="-318384" lat="59.2436249962" lon="7.4764944427">
		<tag k="bridge" v="yes" />
		<tag k="layer" v="1" />
		<tag k="name" v="Flateland" />
		<tag k="ssr:stedsnr" v="168197" />
	</node>
	<node id="-318383" lat="59.1314333343" lon="7.51351666404">
		<tag k="bridge" v="yes" />
		<tag k="layer" v="1" />
		<tag k="name" v="Kåvenes" />
		<tag k="ssr:stedsnr" v="168195" />
	</node>
	<node id="-319918" lat="59.0956249983" lon="7.43801111168">
		<tag k="bridge" v="yes" />
		<tag k="layer" v="1" />
		<tag k="name" v="Årkroken" />
		<tag k="ssr:stedsnr" v="532146" />
	</node>
	<node id="-319709" lat="59.1085555511" lon="7.50384166362">
		<tag k="bridge" v="yes" />
		<tag k="layer" v="1" />
		<tag k="name" v="Nomeland" />
		<tag k="ssr:stedsnr" v="471161" />
	</node>
	<node id="-317228" lat="59.0787888918" lon="7.5583638908">
		<tag k="bridge" v="yes" />
		<tag k="layer" v="1" />
		<tag k="name" v="Fjellskar" />
		<tag k="ssr:stedsnr" v="896205" />
	</node>
	<node id="-317227" lat="59.1994250041" lon="7.5303611146">
		<tag k="bridge" v="yes" />
		<tag k="layer" v="1" />
		<tag k="name" v="Neset" />
		<tag k="ssr:stedsnr" v="896158" />
	</node>
	<node id="-317226" lat="59.3475277755" lon="7.53422222495">
		<tag k="bridge" v="yes" />
		<tag k="layer" v="1" />
		<tag k="name" v="Reinåna" />
		<tag k="ssr:stedsnr" v="896156" />
	</node>
	<node id="-319528" lat="59.0319444407" lon="7.55493888961">
		<tag k="aeroway" v="aerodrome" />
		<tag k="fixme" v="multiple name tags, choose one and add the other to alt_name" />
		<tag k="name" v="Sylvknapp;Valle flyplass" />
		<tag k="ssr:stedsnr" v="422543" />
	</node>
	<node id="-317351" lat="59.0686861089" lon="7.3903277849">
		<tag k="ford" v="yes" />
		<tag k="name" v="Breielva" />
		<tag k="place" v="locality" />
		<tag k="ssr:stedsnr" v="23461" />
	</node>
	<node id="-318374" lat="59.0819944408" lon="7.52003055942">
		<tag k="fixme" v="consider highway=path" />
		<tag k="highway" v="track" />
		<tag k="name" v="Haukedalsvegen" />
		<tag k="ssr:stedsnr" v="144988" />
	</node>
	<node id="-319711" lat="59.1195333292" lon="7.51277778531">
		<tag k="bridge" v="yes" />
		<tag k="layer" v="1" />
		<tag k="name" v="Nomeland" />
		<tag k="ssr:stedsnr" v="471167" />
	</node>
	<node id="-316449" lat="59.2329861112" lon="7.64833889169">
		<tag k="highway" v="path" />
		<tag k="name" v="Bispevegen" />
		<tag k="ssr:stedsnr" v="326546" />
	</node>
	<node id="-316966" lat="59.2709250015" lon="7.46540277805">
		<tag k="bridge" v="yes" />
		<tag k="layer" v="1" />
		<tag k="name" v="Veiå" />
		<tag k="ssr:stedsnr" v="411160" />
	</node>
	<node id="-319920" lat="59.2317555557" lon="7.5019444522">
		<tag k="bridge" v="yes" />
		<tag k="layer" v="1" />
		<tag k="name" v="Einang" />
		<tag k="ssr:stedsnr" v="532188" />
	</node>
	<node id="-316958" lat="59.0359916631" lon="7.52444166427">
		<tag k="ford" v="yes" />
		<tag k="name" v="Spranget" />
		<tag k="place" v="locality" />
		<tag k="ssr:stedsnr" v="398527" />
	</node>
	<node id="-320325" lat="59.0348749998" lon="7.46567499427">
		<tag k="ford" v="yes" />
		<tag k="name" v="Slyvaet" />
		<tag k="place" v="locality" />
		<tag k="ssr:stedsnr" v="569460" />
	</node>
	<node id="-316956" lat="59.0333888845" lon="7.51794167369">
		<tag k="highway" v="path" />
		<tag k="name" v="Vindsåsvegen" />
		<tag k="ssr:stedsnr" v="398521" />
	</node>
	<node id="-320795" lat="59.108847224" lon="7.4961333253">
		<tag k="bridge" v="yes" />
		<tag k="layer" v="1" />
		<tag k="name" v="Bergsbekken nedre" />
		<tag k="ssr:stedsnr" v="653189" />
	</node>
	<node id="-320794" lat="59.3449388911" lon="7.57379166485">
		<tag k="bridge" v="yes" />
		<tag k="layer" v="1" />
		<tag k="name" v="Grytå" />
		<tag k="ssr:stedsnr" v="653187" />
	</node>
	<node id="-317231" lat="59.0338944414" lon="7.55036666855">
		<tag k="bridge" v="yes" />
		<tag k="layer" v="1" />
		<tag k="name" v="Bestland søndre" />
		<tag k="ssr:stedsnr" v="896209" />
	</node>
	<node id="-317229" lat="59.135433334" lon="7.52962222611">
		<tag k="bridge" v="yes" />
		<tag k="layer" v="1" />
		<tag k="name" v="Flåren" />
		<tag k="ssr:stedsnr" v="896204" />
	</node>
	<node id="-321548" lat="59.1525166667" lon="7.49426667143">
		<tag k="name" v="Spranget" />
		<tag k="seamark:type" v="cable_submarine" />
		<tag k="ssr:stedsnr" v="751603" />
	</node>
	<node id="-318357" lat="59.0379027751" lon="7.55166388727">
		<tag k="highway" v="path" />
		<tag k="name" v="Sauevegen" />
		<tag k="ssr:stedsnr" v="144792" />
	</node>
	<node id="-317230" lat="59.0341333366" lon="7.55078611785">
		<tag k="bridge" v="yes" />
		<tag k="layer" v="1" />
		<tag k="name" v="Besteland nordre" />
		<tag k="ssr:stedsnr" v="896207" />
	</node>
	<node id="-317870" lat="59.0403166698" lon="7.45765000159">
		<tag k="ford" v="yes" />
		<tag k="name" v="Sandvaet" />
		<tag k="place" v="locality" />
		<tag k="ssr:stedsnr" v="84504" />
	</node>
	<node id="-321625" lat="59.1775277815" lon="7.52062778423">
		<tag k="highway" v="path" />
		<tag k="name" v="Stigen" />
		<tag k="ssr:stedsnr" v="751544" />
	</node>
	<node id="-317327" lat="59.1870027779" lon="7.49152777776">
		<tag k="ford" v="yes" />
		<tag k="name" v="Svinevad" />
		<tag k="place" v="locality" />
		<tag k="ssr:stedsnr" v="23012" />
	</node>
	<node id="-320793" lat="59.0300083355" lon="7.25486666213">
		<tag k="bridge" v="yes" />
		<tag k="layer" v="1" />
		<tag k="name" v="Ivelung" />
		<tag k="ssr:stedsnr" v="653178" />
	</node>
	<node id="-318381" lat="59.3198944457" lon="7.49619444704">
		<tag k="bridge" v="yes" />
		<tag k="layer" v="1" />
		<tag k="name" v="Uglevåna" />
		<tag k="ssr:stedsnr" v="168163" />
	</node>
	<node id="-322572" lat="59.037466666" lon="7.5410722241">
		<tag k="junction" v="yes" />
		<tag k="name" v="Liekroken" />
		<tag k="place" v="locality" />
		<tag k="ssr:stedsnr" v="872825" />
	</node>
	<node id="-319919" lat="59.3305305523" lon="7.49816110528">
		<tag k="bridge" v="yes" />
		<tag k="layer" v="1" />
		<tag k="name" v="Bjørnevass" />
		<tag k="ssr:stedsnr" v="532189" />
	</node>
	<node id="-320265" lat="59.2436000044" lon="7.43729166498">
		<tag k="alt_name" v="Tveitevad" />
		<tag k="ford" v="yes" />
		<tag k="name" v="Tveitvad" />
		<tag k="place" v="locality" />
		<tag k="ssr:stedsnr" v="568323" />
	</node>
	<node id="-316524" lat="59.2137388923" lon="7.53245554812">
		<tag k="bridge" v="yes" />
		<tag k="layer" v="1" />
		<tag k="name" v="Valle" />
		<tag k="ssr:stedsnr" v="350154" />
	</node>
	<node id="-319710" lat="59.0580694481" lon="7.37150278036">
		<tag k="bridge" v="yes" />
		<tag k="layer" v="1" />
		<tag k="name" v="Myklevatn" />
		<tag k="ssr:stedsnr" v="471165" />
	</node>
</osm>
