<?xml version="1.0" encoding="UTF-8"?>
<osm generator="osmapis" version="0.6">
	<node id="-235506" lat="59.3826361131" lon="8.95340833853">
		<tag k="name" v="Uvdalsheia" />
		<tag k="natural" v="hill" />
		<tag k="place" v="locality" />
		<tag k="ssr:stedsnr" v="427346" />
	</node>
	<node id="-235505" lat="59.3914305541" lon="8.97017499876">
		<tag k="name" v="Jønneberghøgda" />
		<tag k="natural" v="hill" />
		<tag k="place" v="locality" />
		<tag k="ssr:stedsnr" v="427345" />
	</node>
	<node id="-235501" lat="59.4667555529" lon="9.14424722237">
		<tag k="name" v="Løkelia" />
		<tag k="natural" v="slope" />
		<tag k="place" v="locality" />
		<tag k="ssr:stedsnr" v="268911" />
	</node>
	<node id="-235500" lat="59.5123722238" lon="9.14339444912">
		<tag k="name" v="Vatnarstuldalen" />
		<tag k="natural" v="valley" />
		<tag k="place" v="locality" />
		<tag k="ssr:stedsnr" v="268767" />
	</node>
	<node id="-235496" lat="59.4207694474" lon="8.95793333623">
		<tag k="name" v="Kolbottskora" />
		<tag k="natural" v="slope" />
		<tag k="place" v="locality" />
		<tag k="ssr:stedsnr" v="268053" />
	</node>
	<node id="-235489" lat="59.5229249977" lon="9.06846943645">
		<tag k="fixme" v="consider natural=peak for the most distinct mountains in the district" />
		<tag k="name" v="Røytebufjellet" />
		<tag k="natural" v="hill" />
		<tag k="place" v="locality" />
		<tag k="ssr:stedsnr" v="246447" />
	</node>
	<node id="-235483" lat="59.4973527748" lon="8.95489167481">
		<tag k="name" v="Oksladalen" />
		<tag k="natural" v="valley" />
		<tag k="place" v="locality" />
		<tag k="ssr:stedsnr" v="245566" />
	</node>
	<node id="-235482" lat="59.4932222216" lon="8.96935000703">
		<tag k="fixme" v="consider natural=peak for the most distinct mountains in the district" />
		<tag k="name" v="Okslanuten" />
		<tag k="natural" v="hill" />
		<tag k="place" v="locality" />
		<tag k="ssr:stedsnr" v="245565" />
	</node>
	<node id="-235473" lat="59.4112805559" lon="8.86355555226">
		<tag k="fixme" v="consider natural=peak for the most distinct mountains in the district" />
		<tag k="name" v="Kleivnuten" />
		<tag k="natural" v="hill" />
		<tag k="place" v="locality" />
		<tag k="ssr:stedsnr" v="245369" />
	</node>
	<node id="-235470" lat="59.4208749963" lon="8.94995554877">
		<tag k="name" v="Høge Livskor" />
		<tag k="place" v="locality" />
		<tag k="ssr:stedsnr" v="269044" />
	</node>
	<node id="-235469" lat="59.4821555569" lon="8.94212500598">
		<tag k="name" v="Valjuvet" />
		<tag k="natural" v="gorge" />
		<tag k="ssr:stedsnr" v="210994" />
	</node>
	<node id="-235467" lat="59.4668277787" lon="9.12512777707">
		<tag k="name" v="Hegnafjellet" />
		<tag k="place" v="locality" />
		<tag k="ssr:stedsnr" v="210918" />
	</node>
	<node id="-235458" lat="59.5026277792" lon="9.05666943582">
		<tag k="name" v="Bråtålinuten" />
		<tag k="place" v="locality" />
		<tag k="ssr:stedsnr" v="210521" />
	</node>
	<node id="-235457" lat="59.3850166636" lon="8.9430083284">
		<tag k="name" v="Storekreåsen" />
		<tag k="natural" v="hill" />
		<tag k="place" v="locality" />
		<tag k="ssr:stedsnr" v="210275" />
	</node>
	<node id="-235455" lat="59.4503333303" lon="8.95243055848">
		<tag k="name" v="Steinsruddalen" />
		<tag k="natural" v="valley" />
		<tag k="place" v="locality" />
		<tag k="ssr:stedsnr" v="210064" />
	</node>
	<node id="-235454" lat="59.4570222202" lon="9.02299167179">
		<tag k="name" v="Listeberget" />
		<tag k="natural" v="hill" />
		<tag k="place" v="locality" />
		<tag k="ssr:stedsnr" v="210057" />
	</node>
	<node id="-235450" lat="59.4017444434" lon="8.93333611917">
		<tag k="fixme" v="consider natural=peak for the most distinct mountains in the district" />
		<tag k="name" v="Tveitanåsen" />
		<tag k="natural" v="hill" />
		<tag k="place" v="locality" />
		<tag k="ssr:stedsnr" v="209125" />
	</node>
	<node id="-235448" lat="59.4576833358" lon="9.13591388748">
		<tag k="name" v="Båsdalen" />
		<tag k="natural" v="valley" />
		<tag k="place" v="locality" />
		<tag k="ssr:stedsnr" v="208932" />
	</node>
	<node id="-235446" lat="59.5124249959" lon="9.08673333338">
		<tag k="fixme" v="consider natural=peak for the most distinct mountains in the district" />
		<tag k="name" v="Hestemyrfjellet" />
		<tag k="natural" v="hill" />
		<tag k="place" v="locality" />
		<tag k="ssr:stedsnr" v="208769" />
	</node>
	<node id="-235440" lat="59.5318749968" lon="9.00894722556">
		<tag k="name" v="Tyristulskaret" />
		<tag k="natural" v="valley" />
		<tag k="place" v="locality" />
		<tag k="ssr:stedsnr" v="208583" />
	</node>
	<node id="-235439" lat="59.4925916651" lon="9.14247776899">
		<tag k="name" v="Myrjordsbråtene" />
		<tag k="natural" v="hill" />
		<tag k="place" v="locality" />
		<tag k="ssr:stedsnr" v="208582" />
	</node>
	<node id="-235438" lat="59.5109083303" lon="9.00250556057">
		<tag k="name" v="Fjellstulskorra" />
		<tag k="natural" v="gorge" />
		<tag k="ssr:stedsnr" v="208572" />
	</node>
	<node id="-235437" lat="59.5131249958" lon="9.0027222274">
		<tag k="name" v="Bjønneliane" />
		<tag k="natural" v="slope" />
		<tag k="place" v="locality" />
		<tag k="ssr:stedsnr" v="208571" />
	</node>
	<node id="-235431" lat="59.466002774" lon="9.10420832884">
		<tag k="name" v="Skarkebekkmogen" />
		<tag k="place" v="locality" />
		<tag k="ssr:stedsnr" v="208398" />
	</node>
	<node id="-235430" lat="59.3844666653" lon="9.08559722895">
		<tag k="fixme" v="consider natural=peak for the most distinct mountains in the district" />
		<tag k="name" v="Fjellet" />
		<tag k="natural" v="hill" />
		<tag k="place" v="locality" />
		<tag k="ssr:stedsnr" v="208376" />
	</node>
	<node id="-235428" lat="59.3976277788" lon="9.04386666298">
		<tag k="fixme" v="consider natural=peak for the most distinct mountains in the district" />
		<tag k="name" v="Kåsaåsen" />
		<tag k="natural" v="hill" />
		<tag k="place" v="locality" />
		<tag k="ssr:stedsnr" v="208303" />
	</node>
	<node id="-235427" lat="59.3979388913" lon="9.0356499943">
		<tag k="name" v="Tandredalen" />
		<tag k="natural" v="valley" />
		<tag k="place" v="locality" />
		<tag k="ssr:stedsnr" v="208295" />
	</node>
	<node id="-235418" lat="59.5043777743" lon="9.06878334007">
		<tag k="fixme" v="consider natural=peak for the most distinct mountains in the district" />
		<tag k="name" v="Hjuringfjell" />
		<tag k="natural" v="hill" />
		<tag k="place" v="locality" />
		<tag k="ssr:stedsnr" v="207538" />
	</node>
	<node id="-235416" lat="59.4394249981" lon="9.00865555728">
		<tag k="name" v="Skorranuten" />
		<tag k="natural" v="hill" />
		<tag k="place" v="locality" />
		<tag k="ssr:stedsnr" v="207493" />
	</node>
	<node id="-235411" lat="59.4663305525" lon="9.11793610535">
		<tag k="name" v="Vermelidalen" />
		<tag k="natural" v="valley" />
		<tag k="place" v="locality" />
		<tag k="ssr:stedsnr" v="207447" />
	</node>
	<node id="-235408" lat="59.4906388925" lon="8.99092777513">
		<tag k="name" v="Tunglijuvet" />
		<tag k="natural" v="gorge" />
		<tag k="ssr:stedsnr" v="206922" />
	</node>
	<node id="-235405" lat="59.4046333314" lon="8.87710832869">
		<tag k="fixme" v="consider natural=peak for the most distinct mountains in the district" />
		<tag k="name" v="Stigfjellet" />
		<tag k="natural" v="hill" />
		<tag k="place" v="locality" />
		<tag k="ssr:stedsnr" v="185369" />
	</node>
	<node id="-235403" lat="59.4688277816" lon="9.01926110942">
		<tag k="fixme" v="consider natural=peak for the most distinct mountains in the district" />
		<tag k="name" v="Høgefjell" />
		<tag k="natural" v="hill" />
		<tag k="place" v="locality" />
		<tag k="ssr:stedsnr" v="184495" />
	</node>
	<node id="-235399" lat="59.4469611109" lon="9.0776111074">
		<tag k="alt_name" v="Harpetjørndalen" />
		<tag k="name" v="Harpetjønndalen" />
		<tag k="natural" v="valley" />
		<tag k="place" v="locality" />
		<tag k="ssr:stedsnr" v="184463" />
	</node>
	<node id="-235397" lat="59.4912388901" lon="9.00979999757">
		<tag k="name" v="Skåråfjelldekkane" />
		<tag k="natural" v="slope" />
		<tag k="place" v="locality" />
		<tag k="ssr:stedsnr" v="184591" />
	</node>
	<node id="-235392" lat="59.4035388868" lon="9.08666944417">
		<tag k="alt_name" v="Hjåsådalen" />
		<tag k="name" v="Jåsådalen" />
		<tag k="natural" v="valley" />
		<tag k="place" v="locality" />
		<tag k="ssr:stedsnr" v="184365" />
	</node>
	<node id="-235391" lat="59.4038444426" lon="9.02269999228">
		<tag k="fixme" v="consider natural=peak for the most distinct mountains in the district" />
		<tag k="name" v="Nordbøåsane" />
		<tag k="natural" v="hill" />
		<tag k="place" v="locality" />
		<tag k="ssr:stedsnr" v="184353" />
	</node>
	<node id="-235389" lat="59.3644888908" lon="8.86928611146">
		<tag k="alt_name" v="Raunnuten" />
		<tag k="fixme" v="consider natural=peak for the most distinct mountains in the district" />
		<tag k="name" v="Rognnuten" />
		<tag k="natural" v="hill" />
		<tag k="place" v="locality" />
		<tag k="ssr:stedsnr" v="184303" />
	</node>
	<node id="-235384" lat="59.4029999979" lon="8.91828333089">
		<tag k="alt_name" v="Lovaldåsen" />
		<tag k="fixme" v="consider natural=peak for the most distinct mountains in the district" />
		<tag k="name" v="Løvollåsen" />
		<tag k="natural" v="hill" />
		<tag k="place" v="locality" />
		<tag k="ssr:stedsnr" v="184402" />
	</node>
	<node id="-235383" lat="59.3702111149" lon="9.02446944861">
		<tag k="fixme" v="consider natural=peak for the most distinct mountains in the district" />
		<tag k="name" v="Skavdalskollen" />
		<tag k="natural" v="hill" />
		<tag k="place" v="locality" />
		<tag k="ssr:stedsnr" v="184286" />
	</node>
	<node id="-235382" lat="59.3695166711" lon="8.93960555269">
		<tag k="alt_name" v="Svarttjørndalane" />
		<tag k="name" v="Svarttjønndalen" />
		<tag k="natural" v="valley" />
		<tag k="place" v="locality" />
		<tag k="ssr:stedsnr" v="184280" />
	</node>
	<node id="-235381" lat="59.5244333345" lon="9.07388888485">
		<tag k="fixme" v="consider natural=peak for the most distinct mountains in the district" />
		<tag k="name" v="Ljoslinuten" />
		<tag k="natural" v="hill" />
		<tag k="place" v="locality" />
		<tag k="ssr:stedsnr" v="268739" />
	</node>
	<node id="-235374" lat="59.4962972258" lon="9.1382333341">
		<tag k="name" v="Rotveltsdalen" />
		<tag k="natural" v="valley" />
		<tag k="place" v="locality" />
		<tag k="ssr:stedsnr" v="268580" />
	</node>
	<node id="-235372" lat="59.4958749996" lon="9.15079444349">
		<tag k="name" v="Belatjønnliane" />
		<tag k="natural" v="slope" />
		<tag k="place" v="locality" />
		<tag k="ssr:stedsnr" v="268577" />
	</node>
	<node id="-235368" lat="59.5066805516" lon="9.08191665963">
		<tag k="name" v="Stulsdalen" />
		<tag k="natural" v="valley" />
		<tag k="place" v="locality" />
		<tag k="ssr:stedsnr" v="268554" />
	</node>
	<node id="-235366" lat="59.4859250044" lon="8.93611667495">
		<tag k="name" v="Kamperhaug" />
		<tag k="natural" v="slope" />
		<tag k="place" v="locality" />
		<tag k="ssr:stedsnr" v="149989" />
	</node>
	<node id="-235362" lat="59.4340750035" lon="8.8723722287">
		<tag k="name" v="Hagahaug" />
		<tag k="natural" v="hill" />
		<tag k="place" v="locality" />
		<tag k="ssr:stedsnr" v="149880" />
	</node>
	<node id="-235357" lat="59.4531388888" lon="8.91524445016">
		<tag k="name" v="Råteli" />
		<tag k="natural" v="slope" />
		<tag k="place" v="locality" />
		<tag k="ssr:stedsnr" v="149833" />
	</node>
	<node id="-235356" lat="59.431330555" lon="8.93391667088">
		<tag k="name" v="Gråndalen" />
		<tag k="natural" v="valley" />
		<tag k="place" v="locality" />
		<tag k="ssr:stedsnr" v="149821" />
	</node>
	<node id="-235355" lat="59.4418166647" lon="8.93745276945">
		<tag k="name" v="Tjønnstauldalen" />
		<tag k="natural" v="valley" />
		<tag k="place" v="locality" />
		<tag k="ssr:stedsnr" v="149822" />
	</node>
	<node id="-235354" lat="59.4298444406" lon="8.89948056162">
		<tag k="fixme" v="consider natural=peak for the most distinct mountains in the district" />
		<tag k="name" v="Anundsås" />
		<tag k="natural" v="hill" />
		<tag k="place" v="locality" />
		<tag k="ssr:stedsnr" v="149819" />
	</node>
	<node id="-235351" lat="59.4669333348" lon="9.0061361105">
		<tag k="name" v="Blåbæråsen" />
		<tag k="natural" v="hill" />
		<tag k="place" v="locality" />
		<tag k="ssr:stedsnr" v="149693" />
	</node>
	<node id="-235350" lat="59.4722138917" lon="8.9919972229">
		<tag k="name" v="Grostuljuvet" />
		<tag k="natural" v="gorge" />
		<tag k="ssr:stedsnr" v="149690" />
	</node>
	<node id="-235347" lat="59.4532944444" lon="8.98911944776">
		<tag k="name" v="Bjønnebråtåen" />
		<tag k="natural" v="slope" />
		<tag k="place" v="locality" />
		<tag k="ssr:stedsnr" v="149061" />
	</node>
	<node id="-235345" lat="59.374163886" lon="8.94297222803">
		<tag k="fixme" v="consider natural=peak for the most distinct mountains in the district" />
		<tag k="name" v="Rivedalsnuten" />
		<tag k="natural" v="hill" />
		<tag k="place" v="locality" />
		<tag k="ssr:stedsnr" v="149031" />
	</node>
	<node id="-235343" lat="59.387102778" lon="8.93575555544">
		<tag k="name" v="Stannardalen" />
		<tag k="natural" v="valley" />
		<tag k="place" v="locality" />
		<tag k="ssr:stedsnr" v="149003" />
	</node>
	<node id="-235342" lat="59.4905499999" lon="9.01177500662">
		<tag k="name" v="Fjellstuldalen" />
		<tag k="natural" v="valley" />
		<tag k="place" v="locality" />
		<tag k="ssr:stedsnr" v="148569" />
	</node>
	<node id="-235341" lat="59.4523583378" lon="9.01288610927">
		<tag k="fixme" v="consider natural=peak for the most distinct mountains in the district" />
		<tag k="name" v="Kolmyråsen" />
		<tag k="natural" v="hill" />
		<tag k="place" v="locality" />
		<tag k="ssr:stedsnr" v="148060" />
	</node>
	<node id="-235340" lat="59.4491444418" lon="9.1441194437">
		<tag k="name" v="Gampestilla" />
		<tag k="place" v="locality" />
		<tag k="ssr:stedsnr" v="147913" />
	</node>
	<node id="-235339" lat="59.4152611075" lon="9.08666944">
		<tag k="name" v="Grivimoen" />
		<tag k="place" v="locality" />
		<tag k="ssr:stedsnr" v="147679" />
	</node>
	<node id="-235338" lat="59.4181000031" lon="9.06397222712">
		<tag k="name" v="Sisjordalen" />
		<tag k="natural" v="valley" />
		<tag k="place" v="locality" />
		<tag k="ssr:stedsnr" v="147676" />
	</node>
	<node id="-235333" lat="59.5162138868" lon="9.02309444145">
		<tag k="name" v="Bukkeliberga" />
		<tag k="natural" v="hill" />
		<tag k="place" v="locality" />
		<tag k="ssr:stedsnr" v="147546" />
	</node>
	<node id="-235332" lat="59.5127305595" lon="9.04314722222">
		<tag k="name" v="Øvrekvelv" />
		<tag k="natural" v="valley" />
		<tag k="place" v="locality" />
		<tag k="ssr:stedsnr" v="147544" />
	</node>
	<node id="-235331" lat="59.4355833302" lon="9.03288055408">
		<tag k="name" v="Oterholtmogane" />
		<tag k="place" v="locality" />
		<tag k="ssr:stedsnr" v="147543" />
	</node>
	<node id="-235326" lat="59.3938555599" lon="9.02402778346">
		<tag k="name" v="Lauvbudalen" />
		<tag k="natural" v="valley" />
		<tag k="place" v="locality" />
		<tag k="ssr:stedsnr" v="147323" />
	</node>
	<node id="-235324" lat="59.4520722257" lon="9.06829999164">
		<tag k="name" v="Dansarberga" />
		<tag k="natural" v="hill" />
		<tag k="place" v="locality" />
		<tag k="ssr:stedsnr" v="147268" />
	</node>
	<node id="-235323" lat="59.4042388902" lon="9.04145833323">
		<tag k="name" v="Niståsberga" />
		<tag k="natural" v="hill" />
		<tag k="place" v="locality" />
		<tag k="ssr:stedsnr" v="147265" />
	</node>
	<node id="-235316" lat="59.4016361127" lon="8.94197777983">
		<tag k="name" v="Svartufs" />
		<tag k="natural" v="cliff" />
		<tag k="ssr:stedsnr" v="147128" />
	</node>
	<node id="-235311" lat="59.4484777802" lon="9.03243055633">
		<tag k="name" v="Raukleivjuvet" />
		<tag k="natural" v="gorge" />
		<tag k="ssr:stedsnr" v="147047" />
	</node>
	<node id="-235308" lat="59.4484194465" lon="9.0176750002">
		<tag k="name" v="Svartufs" />
		<tag k="natural" v="cliff" />
		<tag k="ssr:stedsnr" v="147025" />
	</node>
	<node id="-235304" lat="59.4944444437" lon="9.09383055165">
		<tag k="fixme" v="consider natural=peak for the most distinct mountains in the district" />
		<tag k="name" v="Lonaråsen" />
		<tag k="natural" v="hill" />
		<tag k="place" v="locality" />
		<tag k="ssr:stedsnr" v="146543" />
	</node>
	<node id="-235301" lat="59.4303777787" lon="9.00681666795">
		<tag k="name" v="Modalen" />
		<tag k="natural" v="valley" />
		<tag k="place" v="locality" />
		<tag k="ssr:stedsnr" v="146489" />
	</node>
	<node id="-235297" lat="59.450149997" lon="9.02857500465">
		<tag k="name" v="Veslejuv" />
		<tag k="natural" v="gorge" />
		<tag k="ssr:stedsnr" v="146026" />
	</node>
	<node id="-235296" lat="59.4904888915" lon="9.00017500364">
		<tag k="name" v="Skåråfjelldekkane" />
		<tag k="natural" v="slope" />
		<tag k="place" v="locality" />
		<tag k="ssr:stedsnr" v="145923" />
	</node>
	<node id="-235295" lat="59.3985111142" lon="8.85749722333">
		<tag k="name" v="Trolldalen" />
		<tag k="natural" v="valley" />
		<tag k="place" v="locality" />
		<tag k="ssr:stedsnr" v="145172" />
	</node>
	<node id="-235294" lat="59.3800277782" lon="8.96502500485">
		<tag k="fixme" v="consider natural=peak for the most distinct mountains in the district" />
		<tag k="name" v="Vesledalsfjellet" />
		<tag k="natural" v="hill" />
		<tag k="place" v="locality" />
		<tag k="ssr:stedsnr" v="145098" />
	</node>
	<node id="-235293" lat="59.3883472201" lon="8.97933333956">
		<tag k="fixme" v="consider natural=peak for the most distinct mountains in the district" />
		<tag k="name" v="Slettåsane" />
		<tag k="natural" v="hill" />
		<tag k="place" v="locality" />
		<tag k="ssr:stedsnr" v="145072" />
	</node>
	<node id="-235290" lat="59.3874583315" lon="8.95922223036">
		<tag k="name" v="Tjønnåsen" />
		<tag k="natural" v="hill" />
		<tag k="place" v="locality" />
		<tag k="ssr:stedsnr" v="145065" />
	</node>
	<node id="-235277" lat="59.4813583306" lon="8.98501389131">
		<tag k="name" v="Anebudalen" />
		<tag k="natural" v="valley" />
		<tag k="place" v="locality" />
		<tag k="ssr:stedsnr" v="123610" />
	</node>
	<node id="-235275" lat="59.429713893" lon="8.86938332877">
		<tag k="fixme" v="consider natural=peak for the most distinct mountains in the district" />
		<tag k="name" v="Hagadragnuten" />
		<tag k="natural" v="hill" />
		<tag k="place" v="locality" />
		<tag k="ssr:stedsnr" v="123513" />
	</node>
	<node id="-235274" lat="59.4348500017" lon="8.94408055419">
		<tag k="fixme" v="consider natural=peak for the most distinct mountains in the district" />
		<tag k="name" v="Blåfjell" />
		<tag k="natural" v="hill" />
		<tag k="place" v="locality" />
		<tag k="ssr:stedsnr" v="123507" />
	</node>
	<node id="-235270" lat="59.401527776" lon="8.97632778019">
		<tag k="fixme" v="consider natural=peak for the most distinct mountains in the district" />
		<tag k="name" v="Fjosås" />
		<tag k="natural" v="hill" />
		<tag k="place" v="locality" />
		<tag k="ssr:stedsnr" v="123440" />
	</node>
	<node id="-235257" lat="59.3624694428" lon="8.91626111839">
		<tag k="alt_name" v="Benkeliane" />
		<tag k="name" v="Benkjeliane" />
		<tag k="natural" v="slope" />
		<tag k="place" v="locality" />
		<tag k="ssr:stedsnr" v="123332" />
	</node>
	<node id="-235254" lat="59.4841055512" lon="8.91097222629">
		<tag k="name" v="Trettarhaugen" />
		<tag k="natural" v="hill" />
		<tag k="place" v="locality" />
		<tag k="ssr:stedsnr" v="89989" />
	</node>
	<node id="-235252" lat="59.4601944425" lon="8.92154445169">
		<tag k="name" v="Huskarhaugane" />
		<tag k="natural" v="hill" />
		<tag k="place" v="locality" />
		<tag k="ssr:stedsnr" v="89974" />
	</node>
	<node id="-235251" lat="59.4567888879" lon="8.91794444193">
		<tag k="name" v="Langeli" />
		<tag k="natural" v="slope" />
		<tag k="place" v="locality" />
		<tag k="ssr:stedsnr" v="89957" />
	</node>
	<node id="-235250" lat="59.4710833349" lon="8.94529722882">
		<tag k="name" v="Røytejuvet" />
		<tag k="natural" v="gorge" />
		<tag k="ssr:stedsnr" v="89899" />
	</node>
	<node id="-235249" lat="59.4751222201" lon="8.93455000745">
		<tag k="name" v="Røksbulia" />
		<tag k="natural" v="slope" />
		<tag k="place" v="locality" />
		<tag k="ssr:stedsnr" v="89896" />
	</node>
	<node id="-235248" lat="59.4680416659" lon="8.9303777759">
		<tag k="name" v="Lauvli" />
		<tag k="natural" v="slope" />
		<tag k="place" v="locality" />
		<tag k="ssr:stedsnr" v="89894" />
	</node>
	<node id="-235247" lat="59.439794443" lon="8.87714166394">
		<tag k="name" v="Mastedalen" />
		<tag k="natural" v="valley" />
		<tag k="place" v="locality" />
		<tag k="ssr:stedsnr" v="89877" />
	</node>
	<node id="-235246" lat="59.4469694467" lon="8.92884444063">
		<tag k="name" v="Trongedal" />
		<tag k="natural" v="valley" />
		<tag k="place" v="locality" />
		<tag k="ssr:stedsnr" v="89820" />
	</node>
	<node id="-235243" lat="59.4685055559" lon="9.00196666968">
		<tag k="name" v="Anlaugsholune" />
		<tag k="natural" v="valley" />
		<tag k="place" v="locality" />
		<tag k="ssr:stedsnr" v="89699" />
	</node>
	<node id="-235240" lat="59.4614805593" lon="8.99309166478">
		<tag k="name" v="Nybujuvet" />
		<tag k="natural" v="gorge" />
		<tag k="ssr:stedsnr" v="89121" />
	</node>
	<node id="-235238" lat="59.4443416688" lon="8.9817861147">
		<tag k="name" v="Bryggjefjelliane" />
		<tag k="natural" v="slope" />
		<tag k="place" v="locality" />
		<tag k="ssr:stedsnr" v="89092" />
	</node>
	<node id="-235237" lat="59.4437611117" lon="9.00067222896">
		<tag k="name" v="Slettelihåva" />
		<tag k="natural" v="slope" />
		<tag k="place" v="locality" />
		<tag k="ssr:stedsnr" v="89090" />
	</node>
	<node id="-235236" lat="59.3979777809" lon="8.99759721871">
		<tag k="name" v="Glahaug" />
		<tag k="natural" v="hill" />
		<tag k="place" v="locality" />
		<tag k="ssr:stedsnr" v="89058" />
	</node>
	<node id="-235235" lat="59.3690222228" lon="8.90482500817">
		<tag k="fixme" v="consider natural=peak for the most distinct mountains in the district" />
		<tag k="name" v="Bakkjeråsane" />
		<tag k="natural" v="hill" />
		<tag k="place" v="locality" />
		<tag k="ssr:stedsnr" v="89049" />
	</node>
	<node id="-235234" lat="59.3770277778" lon="8.92298055441">
		<tag k="name" v="Spangekjerrhaugane" />
		<tag k="natural" v="hill" />
		<tag k="place" v="locality" />
		<tag k="ssr:stedsnr" v="89047" />
	</node>
	<node id="-235233" lat="59.3978527791" lon="8.89621666447">
		<tag k="name" v="Tollfuruåsen" />
		<tag k="natural" v="hill" />
		<tag k="place" v="locality" />
		<tag k="ssr:stedsnr" v="89021" />
	</node>
	<node id="-235231" lat="59.385363889" lon="8.93469167266">
		<tag k="name" v="Tveitskorra" />
		<tag k="natural" v="cliff" />
		<tag k="ssr:stedsnr" v="89002" />
	</node>
	<node id="-235230" lat="59.3876833296" lon="8.93833610719">
		<tag k="fixme" v="consider natural=peak for the most distinct mountains in the district" />
		<tag k="name" v="Hidalsnuten" />
		<tag k="natural" v="hill" />
		<tag k="place" v="locality" />
		<tag k="ssr:stedsnr" v="89003" />
	</node>
	<node id="-235229" lat="59.4286472196" lon="8.97519166865">
		<tag k="name" v="Lauvli" />
		<tag k="natural" v="slope" />
		<tag k="place" v="locality" />
		<tag k="ssr:stedsnr" v="88824" />
	</node>
	<node id="-235228" lat="59.4282805585" lon="8.95407777771">
		<tag k="name" v="Magretteshol" />
		<tag k="place" v="locality" />
		<tag k="ssr:stedsnr" v="88822" />
	</node>
	<node id="-235226" lat="59.4895527806" lon="9.06101944367">
		<tag k="name" v="Binnebotn" />
		<tag k="natural" v="valley" />
		<tag k="place" v="locality" />
		<tag k="ssr:stedsnr" v="88690" />
	</node>
	<node id="-235221" lat="59.5117416647" lon="9.05261111165">
		<tag k="name" v="Kroktjønnskaret" />
		<tag k="natural" v="valley" />
		<tag k="place" v="locality" />
		<tag k="ssr:stedsnr" v="87573" />
	</node>
	<node id="-235219" lat="59.5115833296" lon="9.0374888918">
		<tag k="name" v="Nedrekvelv" />
		<tag k="natural" v="valley" />
		<tag k="place" v="locality" />
		<tag k="ssr:stedsnr" v="87571" />
	</node>
	<node id="-235214" lat="59.4089805584" lon="8.94387499634">
		<tag k="name" v="Tveitanmoen" />
		<tag k="place" v="locality" />
		<tag k="ssr:stedsnr" v="87104" />
	</node>
	<node id="-235212" lat="59.4150138907" lon="8.96049444562">
		<tag k="name" v="Hegnaåsen" />
		<tag k="natural" v="hill" />
		<tag k="place" v="locality" />
		<tag k="ssr:stedsnr" v="87047" />
	</node>
	<node id="-235211" lat="59.441800003" lon="9.10616666779">
		<tag k="name" v="Svenkeheller" />
		<tag k="place" v="locality" />
		<tag k="ssr:stedsnr" v="87039" />
	</node>
	<node id="-235209" lat="59.4720694444" lon="9.144491668">
		<tag k="name" v="Heimlihaugane" />
		<tag k="natural" v="hill" />
		<tag k="place" v="locality" />
		<tag k="ssr:stedsnr" v="86920" />
	</node>
	<node id="-235207" lat="59.4700249976" lon="9.15167778074">
		<tag k="name" v="Buroppdalen" />
		<tag k="natural" v="valley" />
		<tag k="place" v="locality" />
		<tag k="ssr:stedsnr" v="86908" />
	</node>
	<node id="-235205" lat="59.5240972246" lon="9.0814972232">
		<tag k="name" v="Ljosliane" />
		<tag k="natural" v="slope" />
		<tag k="place" v="locality" />
		<tag k="ssr:stedsnr" v="86741" />
	</node>
	<node id="-235204" lat="59.5219750001" lon="9.06482499222">
		<tag k="fixme" v="consider natural=peak for the most distinct mountains in the district" />
		<tag k="name" v="Alfarnuten" />
		<tag k="natural" v="hill" />
		<tag k="ssr:stedsnr" v="86740" />
	</node>
	<node id="-235203" lat="59.5128416653" lon="9.08125000548">
		<tag k="name" v="Bjønneskaret" />
		<tag k="natural" v="valley" />
		<tag k="place" v="locality" />
		<tag k="ssr:stedsnr" v="86736" />
	</node>
	<node id="-235199" lat="59.4027277765" lon="9.10516388266">
		<tag k="name" v="Skogliane" />
		<tag k="natural" v="slope" />
		<tag k="place" v="locality" />
		<tag k="ssr:stedsnr" v="86648" />
	</node>
	<node id="-235197" lat="59.4243222248" lon="9.05481111156">
		<tag k="name" v="Hågåberga" />
		<tag k="natural" v="hill" />
		<tag k="place" v="locality" />
		<tag k="ssr:stedsnr" v="86582" />
	</node>
	<node id="-235190" lat="59.4771555593" lon="9.07675833547">
		<tag k="name" v="Lienjuva" />
		<tag k="natural" v="gorge" />
		<tag k="ssr:stedsnr" v="86475" />
	</node>
	<node id="-235189" lat="59.4290249964" lon="9.12088889211">
		<tag k="name" v="Tørrmo" />
		<tag k="place" v="locality" />
		<tag k="ssr:stedsnr" v="86300" />
	</node>
	<node id="-235187" lat="59.4264166699" lon="9.11047222851">
		<tag k="name" v="Øygardsdalen" />
		<tag k="natural" v="valley" />
		<tag k="place" v="locality" />
		<tag k="ssr:stedsnr" v="86200" />
	</node>
	<node id="-235185" lat="59.4049944455" lon="8.99826945099">
		<tag k="name" v="Svartsvea" />
		<tag k="natural" v="cliff" />
		<tag k="ssr:stedsnr" v="86008" />
	</node>
	<node id="-235184" lat="59.4052361124" lon="8.99058056382">
		<tag k="fixme" v="consider natural=peak for the most distinct mountains in the district" />
		<tag k="name" v="Veslebruskor" />
		<tag k="natural" v="hill" />
		<tag k="place" v="locality" />
		<tag k="ssr:stedsnr" v="86007" />
	</node>
	<node id="-235180" lat="59.3967000039" lon="8.95418333204">
		<tag k="name" v="Bugrasskota" />
		<tag k="place" v="locality" />
		<tag k="ssr:stedsnr" v="85040" />
	</node>
	<node id="-235178" lat="59.4209944414" lon="8.9636083393">
		<tag k="fixme" v="consider natural=peak for the most distinct mountains in the district" />
		<tag k="name" v="Steingardsnuten" />
		<tag k="natural" v="hill" />
		<tag k="place" v="locality" />
		<tag k="ssr:stedsnr" v="268088" />
	</node>
	<node id="-235176" lat="59.5048916701" lon="9.05753055114">
		<tag k="fixme" v="consider natural=peak for the most distinct mountains in the district" />
		<tag k="name" v="Kåsåskardnabben" />
		<tag k="natural" v="hill" />
		<tag k="ssr:stedsnr" v="64473" />
	</node>
	<node id="-235171" lat="59.4805527773" lon="9.15676666426">
		<tag k="fixme" v="consider natural=peak for the most distinct mountains in the district" />
		<tag k="name" v="Middagshaugen" />
		<tag k="natural" v="hill" />
		<tag k="place" v="locality" />
		<tag k="ssr:stedsnr" v="63606" />
	</node>
	<node id="-235169" lat="59.4700277747" lon="8.92794721393">
		<tag k="fixme" v="consider natural=peak for the most distinct mountains in the district" />
		<tag k="name" v="Røytegjuvsåsane" />
		<tag k="natural" v="hill" />
		<tag k="place" v="locality" />
		<tag k="ssr:stedsnr" v="63601" />
	</node>
	<node id="-235166" lat="59.4886111092" lon="8.96138333595">
		<tag k="fixme" v="consider natural=peak for the most distinct mountains in the district" />
		<tag k="name" v="Nybunuten" />
		<tag k="natural" v="hill" />
		<tag k="ssr:stedsnr" v="63579" />
	</node>
	<node id="-235160" lat="59.436547224" lon="8.92458055821">
		<tag k="fixme" v="consider natural=peak for the most distinct mountains in the district" />
		<tag k="name" v="Hanakam" />
		<tag k="natural" v="hill" />
		<tag k="place" v="locality" />
		<tag k="ssr:stedsnr" v="63472" />
	</node>
	<node id="-235153" lat="59.3737083371" lon="8.91727499525">
		<tag k="fixme" v="consider natural=peak for the most distinct mountains in the district" />
		<tag k="name" v="Elgsgrav" />
		<tag k="natural" v="hill" />
		<tag k="place" v="locality" />
		<tag k="ssr:stedsnr" v="63313" />
	</node>
	<node id="-235152" lat="59.3669277818" lon="8.89862221668">
		<tag k="name" v="Bråtådalen" />
		<tag k="natural" v="valley" />
		<tag k="place" v="locality" />
		<tag k="ssr:stedsnr" v="63305" />
	</node>
	<node id="-235149" lat="59.4742444457" lon="8.92763610273">
		<tag k="name" v="Langetjønndalen" />
		<tag k="natural" v="valley" />
		<tag k="place" v="locality" />
		<tag k="ssr:stedsnr" v="28926" />
	</node>
	<node id="-235148" lat="59.4387333293" lon="8.9897388823">
		<tag k="name" v="Dingdangkyrkja" />
		<tag k="place" v="locality" />
		<tag k="ssr:stedsnr" v="28883" />
	</node>
	<node id="-235143" lat="59.4571666688" lon="8.93137222943">
		<tag k="fixme" v="consider natural=peak for the most distinct mountains in the district" />
		<tag k="name" v="Rinden" />
		<tag k="natural" v="hill" />
		<tag k="place" v="locality" />
		<tag k="ssr:stedsnr" v="28972" />
	</node>
	<node id="-235142" lat="59.4770972189" lon="9.04224443992">
		<tag k="name" v="Almedalen" />
		<tag k="natural" v="valley" />
		<tag k="place" v="locality" />
		<tag k="ssr:stedsnr" v="28516" />
	</node>
	<node id="-235140" lat="59.3888361128" lon="8.94375833693">
		<tag k="fixme" v="consider natural=peak for the most distinct mountains in the district" />
		<tag k="name" v="Oredalsnuten" />
		<tag k="natural" v="hill" />
		<tag k="place" v="locality" />
		<tag k="ssr:stedsnr" v="28263" />
	</node>
	<node id="-235139" lat="59.4576583352" lon="8.96881110975">
		<tag k="fixme" v="consider natural=peak for the most distinct mountains in the district" />
		<tag k="name" v="Storskottåsen" />
		<tag k="natural" v="hill" />
		<tag k="place" v="locality" />
		<tag k="ssr:stedsnr" v="28077" />
	</node>
	<node id="-235137" lat="59.3624166666" lon="8.90917499472">
		<tag k="name" v="Løndalen" />
		<tag k="natural" v="valley" />
		<tag k="place" v="locality" />
		<tag k="ssr:stedsnr" v="28049" />
	</node>
	<node id="-235136" lat="59.3793500014" lon="8.93017778262">
		<tag k="name" v="Øverlandsholet" />
		<tag k="natural" v="valley" />
		<tag k="place" v="locality" />
		<tag k="ssr:stedsnr" v="28013" />
	</node>
	<node id="-235135" lat="59.3972388863" lon="8.93296389083">
		<tag k="name" v="Langemyrdalen" />
		<tag k="natural" v="valley" />
		<tag k="place" v="locality" />
		<tag k="ssr:stedsnr" v="28009" />
	</node>
	<node id="-235132" lat="59.5016305592" lon="9.02446110562">
		<tag k="name" v="Gjertnuten" />
		<tag k="natural" v="hill" />
		<tag k="place" v="locality" />
		<tag k="ssr:stedsnr" v="27596" />
	</node>
	<node id="-235127" lat="59.4619472225" lon="9.03276666928">
		<tag k="name" v="Gapet" />
		<tag k="natural" v="valley" />
		<tag k="place" v="locality" />
		<tag k="ssr:stedsnr" v="27050" />
	</node>
	<node id="-235122" lat="59.5091583356" lon="9.14966388655">
		<tag k="name" v="Svartufs" />
		<tag k="natural" v="cliff" />
		<tag k="ssr:stedsnr" v="26736" />
	</node>
	<node id="-235120" lat="59.5147194422" lon="9.09608889067">
		<tag k="name" v="Kjæringdalen" />
		<tag k="natural" v="valley" />
		<tag k="place" v="locality" />
		<tag k="ssr:stedsnr" v="26728" />
	</node>
	<node id="-235117" lat="59.4038527818" lon="9.09159445255">
		<tag k="fixme" v="consider natural=peak for the most distinct mountains in the district" />
		<tag k="name" v="Liaåsen" />
		<tag k="natural" v="hill" />
		<tag k="place" v="locality" />
		<tag k="ssr:stedsnr" v="26645" />
	</node>
	<node id="-235115" lat="59.5047777822" lon="9.00786667485">
		<tag k="name" v="Kranslinnatten" />
		<tag k="place" v="locality" />
		<tag k="ssr:stedsnr" v="26518" />
	</node>
	<node id="-235114" lat="59.3778861153" lon="8.9961472186">
		<tag k="fixme" v="consider natural=peak for the most distinct mountains in the district" />
		<tag k="name" v="Damfjell" />
		<tag k="natural" v="hill" />
		<tag k="place" v="locality" />
		<tag k="ssr:stedsnr" v="26473" />
	</node>
	<node id="-235111" lat="59.3672277817" lon="8.96271389037">
		<tag k="fixme" v="consider natural=peak for the most distinct mountains in the district" />
		<tag k="name" v="Fagerliåsane" />
		<tag k="natural" v="hill" />
		<tag k="place" v="locality" />
		<tag k="ssr:stedsnr" v="26464" />
	</node>
	<node id="-235109" lat="59.3614472213" lon="9.01741111235">
		<tag k="name" v="Sveigen" />
		<tag k="natural" v="valley" />
		<tag k="place" v="locality" />
		<tag k="ssr:stedsnr" v="26427" />
	</node>
	<node id="-235108" lat="59.3924416673" lon="9.03411944636">
		<tag k="fixme" v="consider natural=peak for the most distinct mountains in the district" />
		<tag k="name" v="Eikjarudkollane" />
		<tag k="natural" v="hill" />
		<tag k="place" v="locality" />
		<tag k="ssr:stedsnr" v="26325" />
	</node>
	<node id="-235102" lat="59.4077027817" lon="8.89784444594">
		<tag k="name" v="Gravsdalen" />
		<tag k="natural" v="valley" />
		<tag k="place" v="locality" />
		<tag k="ssr:stedsnr" v="26148" />
	</node>
	<node id="-235099" lat="59.4614388868" lon="8.95042777419">
		<tag k="name" v="Tjyruhjellhaugen" />
		<tag k="natural" v="hill" />
		<tag k="place" v="locality" />
		<tag k="ssr:stedsnr" v="26106" />
	</node>
	<node id="-235098" lat="59.4197111103" lon="8.95536111661">
		<tag k="name" v="Søtebakke" />
		<tag k="natural" v="valley" />
		<tag k="place" v="locality" />
		<tag k="ssr:stedsnr" v="26054" />
	</node>
	<node id="-235097" lat="59.4183194465" lon="8.95324166654">
		<tag k="name" v="Livskor" />
		<tag k="natural" v="slope" />
		<tag k="place" v="locality" />
		<tag k="ssr:stedsnr" v="26052" />
	</node>
	<node id="-235095" lat="59.4374333353" lon="9.10529721719">
		<tag k="name" v="Tølløvsondalen" />
		<tag k="natural" v="valley" />
		<tag k="place" v="locality" />
		<tag k="ssr:stedsnr" v="26040" />
	</node>
	<node id="-235090" lat="59.4909833324" lon="9.0911111147">
		<tag k="name" v="Gobledalen" />
		<tag k="natural" v="valley" />
		<tag k="place" v="locality" />
		<tag k="ssr:stedsnr" v="25561" />
	</node>
	<node id="-235083" lat="59.4466833341" lon="9.05351944373">
		<tag k="name" v="Eikamogane" />
		<tag k="place" v="locality" />
		<tag k="ssr:stedsnr" v="25035" />
	</node>
	<node id="-235082" lat="59.4905277821" lon="8.96972777748">
		<tag k="name" v="Okslakvelven" />
		<tag k="natural" v="slope" />
		<tag k="place" v="locality" />
		<tag k="ssr:stedsnr" v="24925" />
	</node>
	<node id="-235079" lat="59.3854000008" lon="8.98991111961">
		<tag k="fixme" v="consider natural=peak for the most distinct mountains in the district" />
		<tag k="name" v="Saltgravsåsen" />
		<tag k="natural" v="hill" />
		<tag k="place" v="locality" />
		<tag k="ssr:stedsnr" v="24068" />
	</node>
	<node id="-235077" lat="59.3864916668" lon="8.95068610231">
		<tag k="name" v="Normannhaugliane" />
		<tag k="natural" v="slope" />
		<tag k="place" v="locality" />
		<tag k="ssr:stedsnr" v="24054" />
	</node>
	<node id="-235076" lat="59.5018722253" lon="9.07244166301">
		<tag k="alt_name" v="Bjørndalen" />
		<tag k="name" v="Bjønndalen" />
		<tag k="natural" v="valley" />
		<tag k="place" v="locality" />
		<tag k="ssr:stedsnr" v="3431" />
	</node>
	<node id="-235072" lat="59.4817805534" lon="8.91363610656">
		<tag k="fixme" v="consider natural=peak for the most distinct mountains in the district" />
		<tag k="name" v="Røksbufjellet" />
		<tag k="natural" v="hill" />
		<tag k="place" v="locality" />
		<tag k="ssr:stedsnr" v="2627" />
	</node>
	<node id="-235071" lat="59.4808083359" lon="8.98360832798">
		<tag k="fixme" v="consider natural=peak for the most distinct mountains in the district" />
		<tag k="name" v="Anebunatten" />
		<tag k="natural" v="hill" />
		<tag k="place" v="locality" />
		<tag k="ssr:stedsnr" v="2621" />
	</node>
	<node id="-235070" lat="59.4804666686" lon="9.12166667503">
		<tag k="alt_name" v="Staskleivåsane" />
		<tag k="fixme" v="consider natural=peak for the most distinct mountains in the district" />
		<tag k="name" v="Stadskleivåsane" />
		<tag k="natural" v="hill" />
		<tag k="place" v="locality" />
		<tag k="ssr:stedsnr" v="2615" />
	</node>
	<node id="-235069" lat="59.4736833337" lon="9.12568332679">
		<tag k="name" v="Vermelifjellet" />
		<tag k="place" v="locality" />
		<tag k="ssr:stedsnr" v="2614" />
	</node>
	<node id="-235068" lat="59.4640861135" lon="8.95555277681">
		<tag k="fixme" v="consider natural=peak for the most distinct mountains in the district" />
		<tag k="name" v="Høgåsåsen" />
		<tag k="natural" v="hill" />
		<tag k="place" v="locality" />
		<tag k="ssr:stedsnr" v="2607" />
	</node>
	<node id="-235065" lat="59.4906583347" lon="8.90878054847">
		<tag k="alt_name" v="Holmetjørnresa" />
		<tag k="fixme" v="consider natural=peak for the most distinct mountains in the district" />
		<tag k="name" v="Holmetjønnresa" />
		<tag k="natural" v="hill" />
		<tag k="place" v="locality" />
		<tag k="ssr:stedsnr" v="2583" />
	</node>
	<node id="-235064" lat="59.4879527739" lon="8.98633333027">
		<tag k="name" v="Skrubbeliane" />
		<tag k="natural" v="slope" />
		<tag k="place" v="locality" />
		<tag k="ssr:stedsnr" v="2580" />
	</node>
	<node id="-235063" lat="59.4838333364" lon="8.99703611581">
		<tag k="fixme" v="consider natural=peak for the most distinct mountains in the district" />
		<tag k="name" v="Krintofjellet" />
		<tag k="natural" v="hill" />
		<tag k="place" v="locality" />
		<tag k="ssr:stedsnr" v="2579" />
	</node>
	<node id="-235061" lat="59.4616444437" lon="9.05768054993">
		<tag k="alt_name" v="Bjordalen" />
		<tag k="name" v="Revdalen" />
		<tag k="natural" v="valley" />
		<tag k="place" v="locality" />
		<tag k="ssr:stedsnr" v="2523" />
	</node>
	<node id="-235058" lat="59.4716166624" lon="9.1325527814">
		<tag k="name" v="Stulsdalen" />
		<tag k="natural" v="valley" />
		<tag k="place" v="locality" />
		<tag k="ssr:stedsnr" v="2504" />
	</node>
	<node id="-235053" lat="59.4401666707" lon="8.96631388615">
		<tag k="fixme" v="consider natural=peak for the most distinct mountains in the district" />
		<tag k="name" v="Bryggefjellnuten" />
		<tag k="natural" v="hill" />
		<tag k="place" v="locality" />
		<tag k="ssr:stedsnr" v="2466" />
	</node>
	<node id="-235050" lat="59.4328749972" lon="9.11166945266">
		<tag k="name" v="Åsekollen" />
		<tag k="natural" v="hill" />
		<tag k="place" v="locality" />
		<tag k="ssr:stedsnr" v="2441" />
	</node>
	<node id="-235046" lat="59.3981833348" lon="8.93700833317">
		<tag k="fixme" v="consider natural=peak for the most distinct mountains in the district" />
		<tag k="name" v="Skrivaråsane" />
		<tag k="natural" v="hill" />
		<tag k="place" v="locality" />
		<tag k="ssr:stedsnr" v="2385" />
	</node>
	<node id="-235043" lat="59.3752222193" lon="8.92780833887">
		<tag k="alt_name" v="Snelikleivnuten" />
		<tag k="fixme" v="consider natural=peak for the most distinct mountains in the district" />
		<tag k="name" v="Snellkleivnuten" />
		<tag k="natural" v="hill" />
		<tag k="place" v="locality" />
		<tag k="ssr:stedsnr" v="2359" />
	</node>
	<node id="-235042" lat="59.3766555542" lon="8.8787833256">
		<tag k="fixme" v="consider natural=peak for the most distinct mountains in the district" />
		<tag k="name" v="Livsholnuten" />
		<tag k="natural" v="hill" />
		<tag k="place" v="locality" />
		<tag k="ssr:stedsnr" v="2346" />
	</node>
	<node id="-235038" lat="59.4435485446" lon="8.97557302451">
		<tag k="fixme" v="consider natural=peak for the most distinct mountains in the district" />
		<tag k="loc_name" v="Bryggefjell" />
		<tag k="name" v="Bryggjefjell" />
		<tag k="natural" v="hill" />
		<tag k="place" v="locality" />
		<tag k="ssr:stedsnr" v="987182" />
	</node>
	<node id="-235028" lat="59.4993694436" lon="9.10094167288">
		<tag k="name" v="Spondalsmoen" />
		<tag k="place" v="locality" />
		<tag k="ssr:stedsnr" v="389595" />
	</node>
	<node id="-235024" lat="59.4120944467" lon="8.88806388252">
		<tag k="fixme" v="consider natural=peak for the most distinct mountains in the district" />
		<tag k="name" v="Storås" />
		<tag k="natural" v="hill" />
		<tag k="place" v="locality" />
		<tag k="ssr:stedsnr" v="269152" />
	</node>
	<node id="-235018" lat="59.375136109" lon="8.99044445148">
		<tag k="fixme" v="consider natural=peak for the most distinct mountains in the district" />
		<tag k="loc_name" v="Høgås" />
		<tag k="name" v="Gularåsen" />
		<tag k="natural" v="hill" />
		<tag k="place" v="locality" />
		<tag k="ssr:stedsnr" v="245320" />
	</node>
	<node id="-235015" lat="59.4841027797" lon="9.17241389451">
		<tag k="fixme" v="consider natural=peak for the most distinct mountains in the district" />
		<tag k="name" v="Mauråsen" />
		<tag k="natural" v="hill" />
		<tag k="place" v="locality" />
		<tag k="ssr:stedsnr" v="392936" />
	</node>
	<node id="-235014" lat="59.4742" lon="8.94714722687">
		<tag k="name" v="Køytelia" />
		<tag k="natural" v="slope" />
		<tag k="place" v="locality" />
		<tag k="ssr:stedsnr" v="392926" />
	</node>
	<node id="-235013" lat="59.4726055583" lon="8.92725833527">
		<tag k="name" v="Røksbudalen" />
		<tag k="natural" v="valley" />
		<tag k="place" v="locality" />
		<tag k="ssr:stedsnr" v="392924" />
	</node>
	<node id="-235009" lat="59.4323361072" lon="8.96496389587">
		<tag k="name" v="Åntojuvet" />
		<tag k="natural" v="gorge" />
		<tag k="ssr:stedsnr" v="392868" />
	</node>
	<node id="-235007" lat="59.4258305575" lon="8.99593333534">
		<tag k="name" v="Askeberga" />
		<tag k="natural" v="hill" />
		<tag k="place" v="locality" />
		<tag k="ssr:stedsnr" v="392858" />
	</node>
	<node id="-235004" lat="59.4246388911" lon="8.91289722318">
		<tag k="name" v="Kalvejuvet" />
		<tag k="natural" v="gorge" />
		<tag k="ssr:stedsnr" v="392821" />
	</node>
	<node id="-234997" lat="59.3765527793" lon="8.94436666495">
		<tag k="name" v="Daumannshaugen" />
		<tag k="natural" v="hill" />
		<tag k="place" v="locality" />
		<tag k="ssr:stedsnr" v="392041" />
	</node>
	<node id="-234996" lat="59.3879638911" lon="8.89756389179">
		<tag k="fixme" v="consider natural=peak for the most distinct mountains in the district" />
		<tag k="name" v="Ramsåsnuten" />
		<tag k="natural" v="hill" />
		<tag k="ssr:stedsnr" v="392019" />
	</node>
	<node id="-234995" lat="59.4978694429" lon="9.04229444511">
		<tag k="name" v="Elvetangen" />
		<tag k="place" v="locality" />
		<tag k="ssr:stedsnr" v="391594" />
	</node>
	<node id="-234993" lat="59.4626305587" lon="9.04371388708">
		<tag k="name" v="Østliholet" />
		<tag k="natural" v="gorge" />
		<tag k="ssr:stedsnr" v="391059" />
	</node>
	<node id="-234990" lat="59.5326527773" lon="9.02431943954">
		<tag k="name" v="Blåfjellskorra" />
		<tag k="natural" v="hill" />
		<tag k="place" v="locality" />
		<tag k="ssr:stedsnr" v="390576" />
	</node>
	<node id="-234986" lat="59.5138305524" lon="9.03868055679">
		<tag k="name" v="Slåkånuten" />
		<tag k="place" v="locality" />
		<tag k="ssr:stedsnr" v="390540" />
	</node>
	<node id="-234984" lat="59.3917527794" lon="9.08627499913">
		<tag k="name" v="Skrikeruddalane" />
		<tag k="natural" v="valley" />
		<tag k="place" v="locality" />
		<tag k="ssr:stedsnr" v="390365" />
	</node>
	<node id="-234981" lat="59.3901055575" lon="9.00520000413">
		<tag k="name" v="Sonstuldalen" />
		<tag k="natural" v="valley" />
		<tag k="place" v="locality" />
		<tag k="ssr:stedsnr" v="390315" />
	</node>
	<node id="-234975" lat="59.410247221" lon="8.84094999247">
		<tag k="name" v="Grasåsdalen" />
		<tag k="natural" v="valley" />
		<tag k="place" v="locality" />
		<tag k="ssr:stedsnr" v="390153" />
	</node>
	<node id="-234973" lat="59.4011027788" lon="8.93663333079">
		<tag k="name" v="Grønskdalen" />
		<tag k="natural" v="valley" />
		<tag k="place" v="locality" />
		<tag k="ssr:stedsnr" v="390134" />
	</node>
	<node id="-234972" lat="59.4641527758" lon="8.9704027716">
		<tag k="name" v="Attbråtåliane" />
		<tag k="natural" v="slope" />
		<tag k="place" v="locality" />
		<tag k="ssr:stedsnr" v="390100" />
	</node>
	<node id="-234968" lat="59.453888889" lon="9.13509166647">
		<tag k="name" v="Merraskotet" />
		<tag k="natural" v="slope" />
		<tag k="place" v="locality" />
		<tag k="ssr:stedsnr" v="389920" />
	</node>
	<node id="-234966" lat="59.4702333317" lon="9.16048611036">
		<tag k="fixme" v="consider natural=peak for the most distinct mountains in the district" />
		<tag k="name" v="Svarttjønnipen" />
		<tag k="natural" v="hill" />
		<tag k="ssr:stedsnr" v="389900" />
	</node>
	<node id="-234960" lat="59.4866444442" lon="9.06980277712">
		<tag k="name" v="Hellerhaug" />
		<tag k="natural" v="hill" />
		<tag k="place" v="locality" />
		<tag k="ssr:stedsnr" v="389457" />
	</node>
	<node id="-234959" lat="59.35670556" lon="8.91814166458">
		<tag k="name" v="Grånåstulhova" />
		<tag k="natural" v="hill" />
		<tag k="place" v="locality" />
		<tag k="ssr:stedsnr" v="389446" />
	</node>
	<node id="-234957" lat="59.3651138877" lon="9.0148416582">
		<tag k="fixme" v="consider natural=peak for the most distinct mountains in the district" />
		<tag k="name" v="Fiskestigen" />
		<tag k="natural" v="hill" />
		<tag k="place" v="locality" />
		<tag k="ssr:stedsnr" v="389415" />
	</node>
	<node id="-234955" lat="59.408894447" lon="9.0402972187">
		<tag k="name" v="Smiuhaugen" />
		<tag k="natural" v="hill" />
		<tag k="place" v="locality" />
		<tag k="ssr:stedsnr" v="389255" />
	</node>
	<node id="-234951" lat="59.4187277797" lon="8.96089166557">
		<tag k="name" v="Nyhusskora" />
		<tag k="natural" v="valley" />
		<tag k="place" v="locality" />
		<tag k="ssr:stedsnr" v="389070" />
	</node>
	<node id="-234945" lat="59.3871361083" lon="8.99103333589">
		<tag k="name" v="Dagstjønndalen" />
		<tag k="natural" v="valley" />
		<tag k="place" v="locality" />
		<tag k="ssr:stedsnr" v="388053" />
	</node>
	<node id="-234943" lat="59.4259249973" lon="9.11504445181">
		<tag k="name" v="Øygardsmoen" />
		<tag k="place" v="locality" />
		<tag k="ssr:stedsnr" v="389198" />
	</node>
	<node id="-234942" lat="59.4279361137" lon="9.07303056102">
		<tag k="name" v="Folkestaddalen" />
		<tag k="natural" v="valley" />
		<tag k="place" v="locality" />
		<tag k="ssr:stedsnr" v="389136" />
	</node>
	<node id="-234941" lat="59.5035166626" lon="9.07678333405">
		<tag k="alt_name" v="Gamlestulfjellet" />
		<tag k="fixme" v="consider natural=peak for the most distinct mountains in the district" />
		<tag k="name" v="Gamlestulfjell" />
		<tag k="natural" v="hill" />
		<tag k="place" v="locality" />
		<tag k="ssr:stedsnr" v="367413" />
	</node>
	<node id="-234937" lat="59.5082527793" lon="8.97875555371">
		<tag k="fixme" v="consider natural=peak for the most distinct mountains in the district" />
		<tag k="name" v="Øysteinnatten" />
		<tag k="natural" v="hill" />
		<tag k="ssr:stedsnr" v="367320" />
	</node>
	<node id="-234935" lat="59.4786361125" lon="8.94061943599">
		<tag k="fixme" v="consider natural=peak for the most distinct mountains in the district" />
		<tag k="name" v="Valgjuvsnatten" />
		<tag k="natural" v="hill" />
		<tag k="ssr:stedsnr" v="366617" />
	</node>
	<node id="-234933" lat="59.475274997" lon="9.15833332741">
		<tag k="alt_name" v="Krikstjørnnuten" />
		<tag k="fixme" v="consider natural=peak for the most distinct mountains in the district" />
		<tag k="name" v="Krigstjønnuten" />
		<tag k="natural" v="hill" />
		<tag k="place" v="locality" />
		<tag k="ssr:stedsnr" v="366608" />
	</node>
	<node id="-234932" lat="59.4659555588" lon="8.93496388933">
		<tag k="alt_name" v="Hugbråtan" />
		<tag k="name" v="Haugbråtåen" />
		<tag k="place" v="locality" />
		<tag k="ssr:stedsnr" v="366604" />
	</node>
	<node id="-234927" lat="59.4331583339" lon="8.93875833172">
		<tag k="fixme" v="consider natural=peak for the most distinct mountains in the district" />
		<tag k="name" v="Gråndalsnuten" />
		<tag k="natural" v="hill" />
		<tag k="place" v="locality" />
		<tag k="ssr:stedsnr" v="366466" />
	</node>
	<node id="-234922" lat="59.4023138862" lon="8.86054445129">
		<tag k="alt_name" v="Lobuhaugen" />
		<tag k="name" v="Lobuhaugane" />
		<tag k="natural" v="hill" />
		<tag k="place" v="locality" />
		<tag k="ssr:stedsnr" v="366405" />
	</node>
	<node id="-234921" lat="59.3763861076" lon="9.0261499993">
		<tag k="name" v="Åsekollen" />
		<tag k="natural" v="hill" />
		<tag k="place" v="locality" />
		<tag k="ssr:stedsnr" v="366346" />
	</node>
	<node id="-234909" lat="59.4673361116" lon="9.11966944556">
		<tag k="fixme" v="consider natural=peak for the most distinct mountains in the district" />
		<tag k="name" v="Svarvaråsen" />
		<tag k="natural" v="hill" />
		<tag k="place" v="locality" />
		<tag k="ssr:stedsnr" v="331924" />
	</node>
	<node id="-234908" lat="59.4808388913" lon="9.16618055737">
		<tag k="name" v="Skrubbelia" />
		<tag k="natural" v="slope" />
		<tag k="place" v="locality" />
		<tag k="ssr:stedsnr" v="331910" />
	</node>
	<node id="-234907" lat="59.4381194486" lon="8.87597222164">
		<tag k="fixme" v="consider natural=peak for the most distinct mountains in the district" />
		<tag k="name" v="Bergeåsen" />
		<tag k="natural" v="hill" />
		<tag k="place" v="locality" />
		<tag k="ssr:stedsnr" v="331900" />
	</node>
	<node id="-234905" lat="59.4295805545" lon="8.95878610298">
		<tag k="name" v="Vesleåntoskorra" />
		<tag k="place" v="locality" />
		<tag k="ssr:stedsnr" v="331852" />
	</node>
	<node id="-234903" lat="59.4460666681" lon="8.91723056105">
		<tag k="fixme" v="consider natural=peak for the most distinct mountains in the district" />
		<tag k="name" v="Brendeåsen" />
		<tag k="natural" v="hill" />
		<tag k="place" v="locality" />
		<tag k="ssr:stedsnr" v="331830" />
	</node>
	<node id="-234900" lat="59.5063444476" lon="9.04770278221">
		<tag k="name" v="Årmotliane" />
		<tag k="natural" v="slope" />
		<tag k="place" v="locality" />
		<tag k="ssr:stedsnr" v="331510" />
	</node>
	<node id="-234898" lat="59.4801611104" lon="9.01791666107">
		<tag k="name" v="Kikkutrustin" />
		<tag k="natural" v="slope" />
		<tag k="place" v="locality" />
		<tag k="ssr:stedsnr" v="331410" />
	</node>
	<node id="-234897" lat="59.4710166673" lon="8.95275834051">
		<tag k="name" v="Kolhuslia" />
		<tag k="natural" v="slope" />
		<tag k="place" v="locality" />
		<tag k="ssr:stedsnr" v="331303" />
	</node>
	<node id="-234895" lat="59.4694555524" lon="8.9545138977">
		<tag k="name" v="Ormåsen" />
		<tag k="natural" v="hill" />
		<tag k="place" v="locality" />
		<tag k="ssr:stedsnr" v="331298" />
	</node>
	<node id="-234894" lat="59.4620194478" lon="8.98158333091">
		<tag k="name" v="Tverrdalen" />
		<tag k="natural" v="valley" />
		<tag k="place" v="locality" />
		<tag k="ssr:stedsnr" v="331072" />
	</node>
	<node id="-234893" lat="59.4529388857" lon="8.98438610389">
		<tag k="fixme" v="consider natural=peak for the most distinct mountains in the district" />
		<tag k="name" v="Ostebekkhaugane" />
		<tag k="natural" v="hill" />
		<tag k="place" v="locality" />
		<tag k="ssr:stedsnr" v="331055" />
	</node>
	<node id="-234892" lat="59.4539888875" lon="9.01946110436">
		<tag k="name" v="Storejuv" />
		<tag k="natural" v="gorge" />
		<tag k="ssr:stedsnr" v="331047" />
	</node>
	<node id="-234891" lat="59.369263892" lon="8.92727222347">
		<tag k="name" v="Sandkleivåsen" />
		<tag k="natural" v="hill" />
		<tag k="place" v="locality" />
		<tag k="ssr:stedsnr" v="331036" />
	</node>
	<node id="-234890" lat="59.365444443" lon="8.93727222669">
		<tag k="fixme" v="consider natural=peak for the most distinct mountains in the district" />
		<tag k="name" v="Sollifjellet" />
		<tag k="natural" v="hill" />
		<tag k="place" v="locality" />
		<tag k="ssr:stedsnr" v="331035" />
	</node>
	<node id="-234889" lat="59.4922527754" lon="8.94077221935">
		<tag k="name" v="Rjupedalen" />
		<tag k="natural" v="valley" />
		<tag k="place" v="locality" />
		<tag k="ssr:stedsnr" v="330940" />
	</node>
	<node id="-234888" lat="59.5239222207" lon="9.04380555962">
		<tag k="name" v="Smånabbane" />
		<tag k="place" v="locality" />
		<tag k="ssr:stedsnr" v="330675" />
	</node>
	<node id="-234887" lat="59.5125972181" lon="9.03212222412">
		<tag k="name" v="Geiteryggen" />
		<tag k="natural" v="ridge" />
		<tag k="place" v="locality" />
		<tag k="ssr:stedsnr" v="330615" />
	</node>
	<node id="-234886" lat="59.4783916686" lon="9.11350277897">
		<tag k="name" v="Lonstuldalen" />
		<tag k="natural" v="valley" />
		<tag k="place" v="locality" />
		<tag k="ssr:stedsnr" v="330511" />
	</node>
	<node id="-234885" lat="59.4663305525" lon="9.11793610535">
		<tag k="name" v="Vermelidalen" />
		<tag k="natural" v="valley" />
		<tag k="place" v="locality" />
		<tag k="ssr:stedsnr" v="330436" />
	</node>
	<node id="-234883" lat="59.3840027806" lon="9.0083805486">
		<tag k="fixme" v="consider natural=peak for the most distinct mountains in the district" />
		<tag k="name" v="Bjønnfellåsen" />
		<tag k="natural" v="hill" />
		<tag k="place" v="locality" />
		<tag k="ssr:stedsnr" v="330355" />
	</node>
	<node id="-234882" lat="59.3847638878" lon="9.02748056378">
		<tag k="fixme" v="consider natural=peak for the most distinct mountains in the district" />
		<tag k="name" v="Brennekollen" />
		<tag k="natural" v="hill" />
		<tag k="place" v="locality" />
		<tag k="ssr:stedsnr" v="330347" />
	</node>
	<node id="-234881" lat="59.3965666625" lon="9.02789722908">
		<tag k="name" v="Mogane" />
		<tag k="place" v="locality" />
		<tag k="ssr:stedsnr" v="330325" />
	</node>
	<node id="-234880" lat="59.4015249997" lon="9.02003333609">
		<tag k="name" v="Senklenuten" />
		<tag k="natural" v="hill" />
		<tag k="place" v="locality" />
		<tag k="ssr:stedsnr" v="330295" />
	</node>
	<node id="-234879" lat="59.4056027774" lon="9.04868611533">
		<tag k="name" v="Niståsnabben" />
		<tag k="natural" v="hill" />
		<tag k="place" v="locality" />
		<tag k="ssr:stedsnr" v="330288" />
	</node>
	<node id="-234874" lat="59.4169861145" lon="8.90716110652">
		<tag k="name" v="Sandamoen" />
		<tag k="place" v="locality" />
		<tag k="ssr:stedsnr" v="330133" />
	</node>
	<node id="-234871" lat="59.4022111151" lon="8.99841388449">
		<tag k="name" v="Skorra" />
		<tag k="place" v="locality" />
		<tag k="ssr:stedsnr" v="330017" />
	</node>
	<node id="-234869" lat="59.4011861094" lon="8.97138889721">
		<tag k="name" v="Vinterdalen" />
		<tag k="natural" v="valley" />
		<tag k="place" v="locality" />
		<tag k="ssr:stedsnr" v="330007" />
	</node>
	<node id="-234866" lat="59.5168833358" lon="9.14084722233">
		<tag k="name" v="Vatnarliane" />
		<tag k="natural" v="slope" />
		<tag k="place" v="locality" />
		<tag k="ssr:stedsnr" v="329744" />
	</node>
	<node id="-234863" lat="59.5161555597" lon="9.06536388715">
		<tag k="name" v="Kleivstuldalen" />
		<tag k="natural" v="valley" />
		<tag k="place" v="locality" />
		<tag k="ssr:stedsnr" v="329713" />
	</node>
	<node id="-234858" lat="59.5034388861" lon="9.09016666517">
		<tag k="name" v="Jørgedalsliane" />
		<tag k="natural" v="slope" />
		<tag k="place" v="locality" />
		<tag k="ssr:stedsnr" v="329554" />
	</node>
	<node id="-234850" lat="59.4290777779" lon="9.06595277463">
		<tag k="name" v="Sisjordjuva" />
		<tag k="natural" v="gorge" />
		<tag k="ssr:stedsnr" v="329143" />
	</node>
	<node id="-234849" lat="59.4600305595" lon="8.95398333735">
		<tag k="name" v="Kringlåsjuvet" />
		<tag k="natural" v="valley" />
		<tag k="place" v="locality" />
		<tag k="ssr:stedsnr" v="329117" />
	</node>
	<node id="-234844" lat="59.4706750041" lon="9.17222778472">
		<tag k="name" v="Kirsdalsliane" />
		<tag k="natural" v="slope" />
		<tag k="place" v="locality" />
		<tag k="ssr:stedsnr" v="328904" />
	</node>
	<node id="-234841" lat="59.3818027737" lon="9.00325554891">
		<tag k="name" v="Kåsakollen" />
		<tag k="natural" v="hill" />
		<tag k="place" v="locality" />
		<tag k="ssr:stedsnr" v="327085" />
	</node>
	<node id="-234838" lat="59.395952774" lon="8.97531110686">
		<tag k="name" v="Vestredal" />
		<tag k="natural" v="valley" />
		<tag k="place" v="locality" />
		<tag k="ssr:stedsnr" v="328057" />
	</node>
	<node id="-234837" lat="59.4612444443" lon="9.08068888172">
		<tag k="alt_name" v="Landemyrdalen" />
		<tag k="name" v="Langemyrdalen" />
		<tag k="natural" v="valley" />
		<tag k="place" v="locality" />
		<tag k="ssr:stedsnr" v="306463" />
	</node>
	<node id="-234836" lat="59.5025611095" lon="9.10658888114">
		<tag k="name" v="Hyttedalen" />
		<tag k="natural" v="valley" />
		<tag k="place" v="locality" />
		<tag k="ssr:stedsnr" v="306445" />
	</node>
	<node id="-234833" lat="59.421322222" lon="8.9395166723">
		<tag k="fixme" v="consider natural=peak for the most distinct mountains in the district" />
		<tag k="name" v="Eriksteinfjellet" />
		<tag k="natural" v="hill" />
		<tag k="place" v="locality" />
		<tag k="ssr:stedsnr" v="306418" />
	</node>
	<node id="-234832" lat="59.422327782" lon="9.09316665938">
		<tag k="fixme" v="consider natural=peak for the most distinct mountains in the district" />
		<tag k="name" v="Gvålaåsen" />
		<tag k="natural" v="hill" />
		<tag k="place" v="locality" />
		<tag k="ssr:stedsnr" v="306413" />
	</node>
	<node id="-234829" lat="59.4265861067" lon="8.8558972273">
		<tag k="fixme" v="consider natural=peak for the most distinct mountains in the district" />
		<tag k="name" v="Gamlenut" />
		<tag k="natural" v="hill" />
		<tag k="place" v="locality" />
		<tag k="ssr:stedsnr" v="306402" />
	</node>
	<node id="-234827" lat="59.4180916672" lon="8.88070277162">
		<tag k="alt_name" v="Geitskoråsane" />
		<tag k="fixme" v="consider natural=peak for the most distinct mountains in the district" />
		<tag k="name" v="Geiteskaråsane" />
		<tag k="natural" v="hill" />
		<tag k="place" v="locality" />
		<tag k="ssr:stedsnr" v="306378" />
	</node>
	<node id="-234826" lat="59.4171166664" lon="9.01187500792">
		<tag k="fixme" v="consider natural=peak for the most distinct mountains in the district" />
		<tag k="name" v="Forbergåsen" />
		<tag k="natural" v="hill" />
		<tag k="place" v="locality" />
		<tag k="ssr:stedsnr" v="306365" />
	</node>
	<node id="-234822" lat="59.4923861127" lon="9.01623888654">
		<tag k="fixme" v="consider natural=peak for the most distinct mountains in the district" />
		<tag k="name" v="Husnatten" />
		<tag k="natural" v="hill" />
		<tag k="place" v="locality" />
		<tag k="ssr:stedsnr" v="305635" />
	</node>
	<node id="-234814" lat="59.3914861077" lon="8.97806944819">
		<tag k="alt_name" v="Gampenatten" />
		<tag k="fixme" v="consider natural=peak for the most distinct mountains in the district" />
		<tag k="name" v="Gampenuten" />
		<tag k="natural" v="hill" />
		<tag k="place" v="locality" />
		<tag k="ssr:stedsnr" v="305378" />
	</node>
	<node id="-234812" lat="59.3604222211" lon="8.94195555751">
		<tag k="alt_name" v="Bjørnhuskkollen" />
		<tag k="name" v="Bjønnhuskollen" />
		<tag k="natural" v="hill" />
		<tag k="place" v="locality" />
		<tag k="ssr:stedsnr" v="305319" />
	</node>
	<node id="-234811" lat="59.3736638876" lon="9.0230722174">
		<tag k="alt_name" v="Meungsdalen" />
		<tag k="name" v="Meongdalen" />
		<tag k="natural" v="valley" />
		<tag k="place" v="locality" />
		<tag k="ssr:stedsnr" v="305301" />
	</node>
	<node id="-234809" lat="59.3551472267" lon="8.94336388688">
		<tag k="fixme" v="consider natural=peak for the most distinct mountains in the district" />
		<tag k="name" v="Bjørnhusk" />
		<tag k="natural" v="hill" />
		<tag k="place" v="locality" />
		<tag k="ssr:stedsnr" v="305258" />
	</node>
	<node id="-234806" lat="59.4662194422" lon="8.91471944804">
		<tag k="name" v="Skartjønnjuvet" />
		<tag k="natural" v="gorge" />
		<tag k="ssr:stedsnr" v="271921" />
	</node>
	<node id="-234803" lat="59.4329249997" lon="8.92134166123">
		<tag k="name" v="Skrubbeholet" />
		<tag k="natural" v="valley" />
		<tag k="place" v="locality" />
		<tag k="ssr:stedsnr" v="271852" />
	</node>
	<node id="-234801" lat="59.4748055536" lon="9.00047499649">
		<tag k="name" v="Nutestuldalen" />
		<tag k="natural" v="valley" />
		<tag k="place" v="locality" />
		<tag k="ssr:stedsnr" v="271743" />
	</node>
	<node id="-234799" lat="59.5039111123" lon="9.04233888775">
		<tag k="name" v="Eintresletta" />
		<tag k="place" v="locality" />
		<tag k="ssr:stedsnr" v="271582" />
	</node>
	<node id="-234798" lat="59.3864166659" lon="8.94508888165">
		<tag k="name" v="Brendås" />
		<tag k="natural" v="hill" />
		<tag k="place" v="locality" />
		<tag k="ssr:stedsnr" v="271280" />
	</node>
	<node id="-234795" lat="59.3762055511" lon="8.90869999699">
		<tag k="fixme" v="consider natural=peak for the most distinct mountains in the district" />
		<tag k="name" v="Vesle Elgsgrav" />
		<tag k="natural" v="hill" />
		<tag k="place" v="locality" />
		<tag k="ssr:stedsnr" v="271049" />
	</node>
	<node id="-234788" lat="59.5196027778" lon="9.02204445301">
		<tag k="name" v="Haukelia" />
		<tag k="natural" v="slope" />
		<tag k="place" v="locality" />
		<tag k="ssr:stedsnr" v="269639" />
	</node>
	<node id="-234786" lat="59.4392305564" lon="9.03785000252">
		<tag k="fixme" v="consider natural=peak for the most distinct mountains in the district" />
		<tag k="name" v="Hegnaåsen" />
		<tag k="natural" v="hill" />
		<tag k="place" v="locality" />
		<tag k="ssr:stedsnr" v="269623" />
	</node>
	<node id="-234783" lat="59.4336499999" lon="9.05143611815">
		<tag k="name" v="Haugesagmoen" />
		<tag k="place" v="locality" />
		<tag k="ssr:stedsnr" v="269572" />
	</node>
	<node id="-234778" lat="59.3904805516" lon="9.01699445112">
		<tag k="name" v="Hasledalsfjellet" />
		<tag k="place" v="locality" />
		<tag k="ssr:stedsnr" v="269330" />
	</node>
	<node id="-236414" lat="59.4229816468" lon="9.05222288142">
		<tag k="name" v="Langkåshaugen" />
		<tag k="natural" v="hill" />
		<tag k="place" v="locality" />
		<tag k="ssr:stedsnr" v="979842" />
	</node>
	<node id="-236410" lat="59.4770833369" lon="9.16808611291">
		<tag k="name" v="Svarttjønndalen" />
		<tag k="natural" v="valley" />
		<tag k="place" v="locality" />
		<tag k="ssr:stedsnr" v="938933" />
	</node>
	<node id="-236408" lat="59.4657305564" lon="8.92481944845">
		<tag k="name" v="Oterholtjuva" />
		<tag k="natural" v="gorge" />
		<tag k="ssr:stedsnr" v="938907" />
	</node>
	<node id="-236406" lat="59.470527774" lon="8.91252778103">
		<tag k="name" v="Tallaksli" />
		<tag k="natural" v="slope" />
		<tag k="place" v="locality" />
		<tag k="ssr:stedsnr" v="938902" />
	</node>
	<node id="-236405" lat="59.4404416702" lon="8.88853611088">
		<tag k="fixme" v="consider natural=peak for the most distinct mountains in the district" />
		<tag k="name" v="Tørrfurufjellet" />
		<tag k="natural" v="hill" />
		<tag k="place" v="locality" />
		<tag k="ssr:stedsnr" v="938893" />
	</node>
	<node id="-236404" lat="59.4258888931" lon="8.95939443662">
		<tag k="name" v="Hurromskorra" />
		<tag k="place" v="locality" />
		<tag k="ssr:stedsnr" v="938837" />
	</node>
	<node id="-236402" lat="59.4736666675" lon="9.00020832571">
		<tag k="name" v="Grostulhaugane" />
		<tag k="natural" v="hill" />
		<tag k="place" v="locality" />
		<tag k="ssr:stedsnr" v="938684" />
	</node>
	<node id="-236401" lat="59.481891669" lon="8.99193888549">
		<tag k="name" v="Okslastandar" />
		<tag k="natural" v="hill" />
		<tag k="place" v="locality" />
		<tag k="ssr:stedsnr" v="938646" />
	</node>
	<node id="-236400" lat="59.4821222178" lon="8.9561722239">
		<tag k="name" v="Hellesdalen" />
		<tag k="natural" v="valley" />
		<tag k="place" v="locality" />
		<tag k="ssr:stedsnr" v="938639" />
	</node>
	<node id="-236398" lat="59.4664555512" lon="9.02163332712">
		<tag k="name" v="Jonsoknuten" />
		<tag k="place" v="locality" />
		<tag k="ssr:stedsnr" v="938502" />
	</node>
	<node id="-236395" lat="59.4505583294" lon="8.97066389189">
		<tag k="name" v="Torekåsbråten" />
		<tag k="natural" v="slope" />
		<tag k="place" v="locality" />
		<tag k="ssr:stedsnr" v="938062" />
	</node>
	<node id="-236394" lat="59.3987166622" lon="8.98102777708">
		<tag k="name" v="Skoedalen" />
		<tag k="natural" v="valley" />
		<tag k="place" v="locality" />
		<tag k="ssr:stedsnr" v="938058" />
	</node>
	<node id="-236390" lat="59.4505277763" lon="9.09088889606">
		<tag k="fixme" v="consider natural=peak for the most distinct mountains in the district" />
		<tag k="name" v="Folkestadåsane" />
		<tag k="natural" v="hill" />
		<tag k="place" v="locality" />
		<tag k="ssr:stedsnr" v="937307" />
	</node>
	<node id="-236389" lat="59.443491669" lon="9.11480277468">
		<tag k="name" v="Bruvegdalen" />
		<tag k="natural" v="valley" />
		<tag k="place" v="locality" />
		<tag k="ssr:stedsnr" v="937295" />
	</node>
	<node id="-236387" lat="59.4174166675" lon="8.94028055118">
		<tag k="name" v="Skavdalen" />
		<tag k="natural" v="valley" />
		<tag k="place" v="locality" />
		<tag k="ssr:stedsnr" v="937196" />
	</node>
	<node id="-236385" lat="59.4043888924" lon="8.93654721597">
		<tag k="name" v="Ronningkåsberga" />
		<tag k="natural" v="hill" />
		<tag k="place" v="locality" />
		<tag k="ssr:stedsnr" v="937156" />
	</node>
	<node id="-236379" lat="59.4070583369" lon="9.00233888622">
		<tag k="fixme" v="consider natural=peak for the most distinct mountains in the district" />
		<tag k="name" v="Storås" />
		<tag k="natural" v="hill" />
		<tag k="place" v="locality" />
		<tag k="ssr:stedsnr" v="937018" />
	</node>
	<node id="-236374" lat="59.4502833321" lon="9.14717499441">
		<tag k="name" v="Skarsdalen" />
		<tag k="natural" v="valley" />
		<tag k="place" v="locality" />
		<tag k="ssr:stedsnr" v="936905" />
	</node>
	<node id="-236371" lat="59.517872226" lon="9.08550277849">
		<tag k="name" v="Nystulnatten" />
		<tag k="natural" v="hill" />
		<tag k="place" v="locality" />
		<tag k="ssr:stedsnr" v="936726" />
	</node>
	<node id="-236363" lat="59.4897861142" lon="9.09362777825">
		<tag k="fixme" v="consider natural=peak for the most distinct mountains in the district" />
		<tag k="name" v="Langeskor" />
		<tag k="natural" v="hill" />
		<tag k="place" v="locality" />
		<tag k="ssr:stedsnr" v="936569" />
	</node>
	<node id="-236360" lat="59.504852782" lon="9.11398332482">
		<tag k="fixme" v="consider natural=peak for the most distinct mountains in the district" />
		<tag k="name" v="Holterholåsane" />
		<tag k="natural" v="hill" />
		<tag k="place" v="locality" />
		<tag k="ssr:stedsnr" v="936549" />
	</node>
	<node id="-236358" lat="59.3751472223" lon="8.96467777884">
		<tag k="name" v="Galtekleiv" />
		<tag k="natural" v="hill" />
		<tag k="place" v="locality" />
		<tag k="ssr:stedsnr" v="936444" />
	</node>
	<node id="-236349" lat="59.4306972223" lon="9.09932222746">
		<tag k="name" v="Djupegrop" />
		<tag k="natural" v="valley" />
		<tag k="place" v="locality" />
		<tag k="ssr:stedsnr" v="936207" />
	</node>
	<node id="-236347" lat="59.458575002" lon="9.01966945005">
		<tag k="name" v="Grindeberget" />
		<tag k="natural" v="hill" />
		<tag k="place" v="locality" />
		<tag k="ssr:stedsnr" v="938045" />
	</node>
	<node id="-236346" lat="59.3739472212" lon="8.89919999268">
		<tag k="name" v="Bjortjønnleiken" />
		<tag k="natural" v="slope" />
		<tag k="place" v="locality" />
		<tag k="ssr:stedsnr" v="938043" />
	</node>
	<node id="-236343" lat="59.421311109" lon="8.95686667004">
		<tag k="fixme" v="consider natural=peak for the most distinct mountains in the district" />
		<tag k="name" v="Avlingsbunuten" />
		<tag k="natural" v="hill" />
		<tag k="place" v="locality" />
		<tag k="ssr:stedsnr" v="936082" />
	</node>
	<node id="-236342" lat="59.4437722224" lon="9.00764722188">
		<tag k="fixme" v="consider natural=peak for the most distinct mountains in the district" />
		<tag k="name" v="Slettelinuten" />
		<tag k="natural" v="hill" />
		<tag k="place" v="locality" />
		<tag k="ssr:stedsnr" v="936030" />
	</node>
	<node id="-236340" lat="59.4065638874" lon="9.00028888439">
		<tag k="name" v="Gullbrandsdalen" />
		<tag k="natural" v="valley" />
		<tag k="old_name" v="Gullbransdalen" />
		<tag k="place" v="locality" />
		<tag k="ssr:stedsnr" v="936011" />
	</node>
	<node id="-236336" lat="59.3935166681" lon="8.97359722881">
		<tag k="fixme" v="consider natural=peak for the most distinct mountains in the district" />
		<tag k="name" v="Tiurkollen" />
		<tag k="natural" v="hill" />
		<tag k="place" v="locality" />
		<tag k="ssr:stedsnr" v="935051" />
	</node>
	<node id="-236335" lat="59.3857111124" lon="8.88100833189">
		<tag k="name" v="Ramsåsskorra" />
		<tag k="place" v="locality" />
		<tag k="ssr:stedsnr" v="934158" />
	</node>
	<node id="-236334" lat="59.3809388898" lon="8.88048055802">
		<tag k="fixme" v="consider natural=peak for the most distinct mountains in the district" />
		<tag k="name" v="Ormetjønnheia" />
		<tag k="natural" v="hill" />
		<tag k="place" v="locality" />
		<tag k="ssr:stedsnr" v="934153" />
	</node>
	<node id="-236317" lat="59.3961138932" lon="8.85225555317">
		<tag k="alt_name" v="Fjellet" />
		<tag k="fixme" v="consider natural=peak for the most distinct mountains in the district" />
		<tag k="name" v="Rugbølfjellet" />
		<tag k="natural" v="hill" />
		<tag k="place" v="locality" />
		<tag k="ssr:stedsnr" v="912763" />
	</node>
	<node id="-236311" lat="59.4389805539" lon="9.07765832895">
		<tag k="name" v="Myramoen" />
		<tag k="place" v="locality" />
		<tag k="ssr:stedsnr" v="912488" />
	</node>
	<node id="-236309" lat="59.4409555543" lon="9.14018888669">
		<tag k="name" v="Grønlia" />
		<tag k="natural" v="slope" />
		<tag k="place" v="locality" />
		<tag k="ssr:stedsnr" v="912482" />
	</node>
	<node id="-236308" lat="59.4521861131" lon="9.14468056064">
		<tag k="alt_name" v="Flogått" />
		<tag k="fixme" v="consider natural=peak for the most distinct mountains in the district" />
		<tag k="name" v="Askiltfjellet" />
		<tag k="natural" v="hill" />
		<tag k="place" v="locality" />
		<tag k="ssr:stedsnr" v="912468" />
	</node>
	<node id="-236303" lat="59.4088027802" lon="8.89082222436">
		<tag k="name" v="Gravedalen" />
		<tag k="natural" v="valley" />
		<tag k="place" v="locality" />
		<tag k="ssr:stedsnr" v="912415" />
	</node>
	<node id="-236302" lat="59.4066916654" lon="8.90619167293">
		<tag k="fixme" v="consider natural=peak for the most distinct mountains in the district" />
		<tag k="name" v="Graveåsen" />
		<tag k="natural" v="hill" />
		<tag k="place" v="locality" />
		<tag k="ssr:stedsnr" v="912410" />
	</node>
	<node id="-236297" lat="59.3596083344" lon="8.93724721766">
		<tag k="name" v="Hestedalane" />
		<tag k="natural" v="valley" />
		<tag k="place" v="locality" />
		<tag k="ssr:stedsnr" v="912316" />
	</node>
	<node id="-236296" lat="59.4641555566" lon="8.91015832788">
		<tag k="name" v="Myklestulliane" />
		<tag k="natural" v="slope" />
		<tag k="place" v="locality" />
		<tag k="ssr:stedsnr" v="878971" />
	</node>
	<node id="-236295" lat="59.4608083315" lon="8.91850277576">
		<tag k="fixme" v="consider natural=peak for the most distinct mountains in the district" />
		<tag k="name" v="Rindane" />
		<tag k="natural" v="hill" />
		<tag k="place" v="locality" />
		<tag k="ssr:stedsnr" v="878968" />
	</node>
	<node id="-236293" lat="59.4414361139" lon="8.88461944254">
		<tag k="name" v="Helvetesdalen" />
		<tag k="natural" v="valley" />
		<tag k="place" v="locality" />
		<tag k="ssr:stedsnr" v="878895" />
	</node>
	<node id="-236290" lat="59.4409083323" lon="8.9633472187">
		<tag k="name" v="Krossdalane" />
		<tag k="natural" v="valley" />
		<tag k="place" v="locality" />
		<tag k="ssr:stedsnr" v="878865" />
	</node>
	<node id="-236289" lat="59.4285833311" lon="8.88418610301">
		<tag k="name" v="Herremo" />
		<tag k="place" v="locality" />
		<tag k="ssr:stedsnr" v="878861" />
	</node>
	<node id="-236286" lat="59.4303416671" lon="8.90736388234">
		<tag k="name" v="Landsverkjuvet" />
		<tag k="natural" v="gorge" />
		<tag k="ssr:stedsnr" v="878815" />
	</node>
	<node id="-236285" lat="59.4411555518" lon="8.91502221748">
		<tag k="name" v="Hanakamliane" />
		<tag k="natural" v="slope" />
		<tag k="place" v="locality" />
		<tag k="ssr:stedsnr" v="878809" />
	</node>
	<node id="-236284" lat="59.4725138879" lon="8.95736943926">
		<tag k="name" v="Rondjuvet" />
		<tag k="natural" v="gorge" />
		<tag k="ssr:stedsnr" v="878684" />
	</node>
	<node id="-236283" lat="59.4731472241" lon="8.97218333156">
		<tag k="name" v="Lovliane" />
		<tag k="natural" v="slope" />
		<tag k="place" v="locality" />
		<tag k="ssr:stedsnr" v="878681" />
	</node>
	<node id="-236282" lat="59.4790694435" lon="9.03205000284">
		<tag k="name" v="Haugestulbråta" />
		<tag k="natural" v="slope" />
		<tag k="place" v="locality" />
		<tag k="ssr:stedsnr" v="878472" />
	</node>
	<node id="-236280" lat="59.3839472186" lon="8.94293888715">
		<tag k="fixme" v="consider natural=peak for the most distinct mountains in the district" />
		<tag k="name" v="Sommarfjosåsen" />
		<tag k="natural" v="hill" />
		<tag k="place" v="locality" />
		<tag k="ssr:stedsnr" v="878257" />
	</node>
	<node id="-236279" lat="59.4537388912" lon="8.97808889543">
		<tag k="name" v="Lavransliane" />
		<tag k="natural" v="slope" />
		<tag k="place" v="locality" />
		<tag k="ssr:stedsnr" v="878072" />
	</node>
	<node id="-236277" lat="59.3864055599" lon="8.8993722173">
		<tag k="name" v="Ramsåsmoen" />
		<tag k="place" v="locality" />
		<tag k="ssr:stedsnr" v="878016" />
	</node>
	<node id="-236276" lat="59.3839583331" lon="8.93366389497">
		<tag k="name" v="Styggedal" />
		<tag k="natural" v="valley" />
		<tag k="place" v="locality" />
		<tag k="ssr:stedsnr" v="878010" />
	</node>
	<node id="-236273" lat="59.4279666644" lon="8.95831945264">
		<tag k="fixme" v="consider natural=peak for the most distinct mountains in the district" />
		<tag k="name" v="Stegatoppen" />
		<tag k="natural" v="hill" />
		<tag k="place" v="locality" />
		<tag k="ssr:stedsnr" v="877859" />
	</node>
	<node id="-236272" lat="59.4261138861" lon="8.96728888366">
		<tag k="name" v="Stulskor" />
		<tag k="place" v="locality" />
		<tag k="ssr:stedsnr" v="877854" />
	</node>
	<node id="-236271" lat="59.4847750045" lon="8.96371666606">
		<tag k="name" v="Nybuliane" />
		<tag k="natural" v="slope" />
		<tag k="place" v="locality" />
		<tag k="ssr:stedsnr" v="877673" />
	</node>
	<node id="-236269" lat="59.4587222187" lon="9.03176944588">
		<tag k="name" v="Svartufs" />
		<tag k="natural" v="gorge" />
		<tag k="ssr:stedsnr" v="877047" />
	</node>
	<node id="-236266" lat="59.5221222241" lon="9.02120832957">
		<tag k="name" v="Mileholet" />
		<tag k="natural" v="slope" />
		<tag k="place" v="locality" />
		<tag k="ssr:stedsnr" v="876643" />
	</node>
	<node id="-236265" lat="59.5082500015" lon="9.03618889312">
		<tag k="name" v="Badstudalen" />
		<tag k="natural" v="valley" />
		<tag k="place" v="locality" />
		<tag k="ssr:stedsnr" v="876604" />
	</node>
	<node id="-236264" lat="59.5126333336" lon="9.01910554791">
		<tag k="fixme" v="consider natural=peak for the most distinct mountains in the district" />
		<tag k="name" v="Refshaug" />
		<tag k="natural" v="hill" />
		<tag k="place" v="locality" />
		<tag k="ssr:stedsnr" v="876601" />
	</node>
	<node id="-236262" lat="59.5225944405" lon="9.01068610959">
		<tag k="name" v="Jåsålia" />
		<tag k="natural" v="slope" />
		<tag k="place" v="locality" />
		<tag k="ssr:stedsnr" v="876650" />
	</node>
	<node id="-236260" lat="59.4754777744" lon="9.11771110771">
		<tag k="fixme" v="consider natural=peak for the most distinct mountains in the district" />
		<tag k="name" v="Kleiva" />
		<tag k="natural" v="hill" />
		<tag k="place" v="locality" />
		<tag k="ssr:stedsnr" v="876490" />
	</node>
	<node id="-236259" lat="59.3835638852" lon="9.01746388298">
		<tag k="name" v="Mastedalen" />
		<tag k="natural" v="valley" />
		<tag k="place" v="locality" />
		<tag k="ssr:stedsnr" v="876321" />
	</node>
	<node id="-236257" lat="59.3964527771" lon="9.01452221993">
		<tag k="name" v="Høyslassliane" />
		<tag k="natural" v="slope" />
		<tag k="place" v="locality" />
		<tag k="ssr:stedsnr" v="876291" />
	</node>
	<node id="-236255" lat="59.406822223" lon="9.05068055036">
		<tag k="name" v="Nigardsdalen" />
		<tag k="natural" v="valley" />
		<tag k="place" v="locality" />
		<tag k="ssr:stedsnr" v="876267" />
	</node>
	<node id="-236254" lat="59.4127444452" lon="8.89457222516">
		<tag k="fixme" v="consider natural=peak for the most distinct mountains in the district" />
		<tag k="name" v="Vesleås" />
		<tag k="natural" v="hill" />
		<tag k="place" v="locality" />
		<tag k="ssr:stedsnr" v="876171" />
	</node>
	<node id="-236251" lat="59.4060527821" lon="8.9267472266">
		<tag k="name" v="Kleivadalen" />
		<tag k="natural" v="valley" />
		<tag k="place" v="locality" />
		<tag k="ssr:stedsnr" v="876119" />
	</node>
	<node id="-236246" lat="59.4475083377" lon="9.13969167256">
		<tag k="name" v="Skarslebuskota" />
		<tag k="natural" v="slope" />
		<tag k="place" v="locality" />
		<tag k="ssr:stedsnr" v="875910" />
	</node>
	<node id="-236236" lat="59.488630557" lon="9.07596666453">
		<tag k="name" v="Tveitkollane" />
		<tag k="natural" v="hill" />
		<tag k="place" v="locality" />
		<tag k="ssr:stedsnr" v="875458" />
	</node>
	<node id="-236235" lat="59.36686389" lon="8.97370000835">
		<tag k="fixme" v="consider natural=peak for the most distinct mountains in the district" />
		<tag k="name" v="Maurknatten" />
		<tag k="natural" v="hill" />
		<tag k="place" v="locality" />
		<tag k="ssr:stedsnr" v="875453" />
	</node>
	<node id="-236228" lat="59.4491777781" lon="9.04280000174">
		<tag k="name" v="Krokufs" />
		<tag k="natural" v="cliff" />
		<tag k="ssr:stedsnr" v="875036" />
	</node>
	<node id="-236223" lat="59.4412750005" lon="9.02535832691">
		<tag k="name" v="Smiuhaugen" />
		<tag k="natural" v="hill" />
		<tag k="place" v="locality" />
		<tag k="ssr:stedsnr" v="874531" />
	</node>
	<node id="-236220" lat="59.5127583294" lon="9.10099166648">
		<tag k="fixme" v="consider natural=peak for the most distinct mountains in the district" />
		<tag k="name" v="Grånmåna" />
		<tag k="natural" v="hill" />
		<tag k="place" v="locality" />
		<tag k="ssr:stedsnr" v="853467" />
	</node>
	<node id="-236216" lat="59.4797666676" lon="8.96000000545">
		<tag k="fixme" v="consider natural=peak for the most distinct mountains in the district" />
		<tag k="name" v="Falkefjell" />
		<tag k="natural" v="hill" />
		<tag k="ssr:stedsnr" v="852594" />
	</node>
	<node id="-236215" lat="59.4864722233" lon="8.93248333794">
		<tag k="name" v="Valgjuvet" />
		<tag k="natural" v="valley" />
		<tag k="place" v="locality" />
		<tag k="ssr:stedsnr" v="852560" />
	</node>
	<node id="-236214" lat="59.4513583336" lon="8.99578333629">
		<tag k="alt_name" v="Geitskonatten" />
		<tag k="fixme" v="consider natural=peak for the most distinct mountains in the district" />
		<tag k="name" v="Geitskornatten" />
		<tag k="natural" v="hill" />
		<tag k="place" v="locality" />
		<tag k="ssr:stedsnr" v="852477" />
	</node>
	<node id="-236213" lat="59.4475861156" lon="8.92801111874">
		<tag k="name" v="Skålbuhaugane" />
		<tag k="natural" v="hill" />
		<tag k="place" v="locality" />
		<tag k="ssr:stedsnr" v="852475" />
	</node>
	<node id="-236212" lat="59.4672361083" lon="9.01596667476">
		<tag k="name" v="Vårbulia" />
		<tag k="natural" v="slope" />
		<tag k="place" v="locality" />
		<tag k="ssr:stedsnr" v="852471" />
	</node>
	<node id="-236207" lat="59.5345527772" lon="9.02227500855">
		<tag k="fixme" v="consider natural=peak for the most distinct mountains in the district" />
		<tag k="name" v="Blåfjell" />
		<tag k="natural" v="hill" />
		<tag k="place" v="locality" />
		<tag k="ssr:stedsnr" v="852377" />
	</node>
	<node id="-236206" lat="59.3970027808" lon="9.00572223022">
		<tag k="alt_name" v="Høylassnuten" />
		<tag k="fixme" v="consider natural=peak for the most distinct mountains in the district" />
		<tag k="name" v="Høyslassnuten" />
		<tag k="natural" v="hill" />
		<tag k="place" v="locality" />
		<tag k="ssr:stedsnr" v="852370" />
	</node>
	<node id="-236205" lat="59.3997861109" lon="8.99642500125">
		<tag k="fixme" v="consider natural=peak for the most distinct mountains in the district" />
		<tag k="name" v="Bruskor" />
		<tag k="natural" v="hill" />
		<tag k="place" v="locality" />
		<tag k="ssr:stedsnr" v="852368" />
	</node>
	<node id="-236200" lat="59.3654249986" lon="8.95447223004">
		<tag k="fixme" v="consider natural=peak for the most distinct mountains in the district" />
		<tag k="name" v="Husefjell" />
		<tag k="natural" v="hill" />
		<tag k="place" v="locality" />
		<tag k="ssr:stedsnr" v="852292" />
	</node>
	<node id="-236198" lat="59.465366665" lon="8.94299721779">
		<tag k="name" v="Langelia" />
		<tag k="natural" v="slope" />
		<tag k="place" v="locality" />
		<tag k="ssr:stedsnr" v="817933" />
	</node>
	<node id="-236197" lat="59.4728138922" lon="8.94569721891">
		<tag k="name" v="Geiteberget" />
		<tag k="natural" v="hill" />
		<tag k="place" v="locality" />
		<tag k="ssr:stedsnr" v="817926" />
	</node>
	<node id="-236196" lat="59.4680361089" lon="9.13358611112">
		<tag k="name" v="Sautjønnhaugane" />
		<tag k="natural" v="hill" />
		<tag k="place" v="locality" />
		<tag k="ssr:stedsnr" v="817924" />
	</node>
	<node id="-236195" lat="59.4368583352" lon="8.88908334108">
		<tag k="name" v="Apaldekkane" />
		<tag k="natural" v="slope" />
		<tag k="place" v="locality" />
		<tag k="ssr:stedsnr" v="817913" />
	</node>
	<node id="-236194" lat="59.4271361069" lon="8.84765834215">
		<tag k="name" v="Skotmyrdalen" />
		<tag k="natural" v="valley" />
		<tag k="place" v="locality" />
		<tag k="ssr:stedsnr" v="817868" />
	</node>
	<node id="-236193" lat="59.4455250017" lon="8.93269443776">
		<tag k="fixme" v="consider natural=peak for the most distinct mountains in the district" />
		<tag k="name" v="Anlaugsvarp" />
		<tag k="natural" v="hill" />
		<tag k="place" v="locality" />
		<tag k="ssr:stedsnr" v="817836" />
	</node>
	<node id="-236192" lat="59.4453638919" lon="8.92876666078">
		<tag k="name" v="Skråttedal" />
		<tag k="natural" v="valley" />
		<tag k="place" v="locality" />
		<tag k="ssr:stedsnr" v="817834" />
	</node>
	<node id="-236188" lat="59.5000611127" lon="9.05965555708">
		<tag k="name" v="Bekarlinuten" />
		<tag k="place" v="locality" />
		<tag k="ssr:stedsnr" v="817516" />
	</node>
	<node id="-236182" lat="59.3827111104" lon="8.91158055786">
		<tag k="fixme" v="consider natural=peak for the most distinct mountains in the district" />
		<tag k="name" v="Storskott" />
		<tag k="natural" v="hill" />
		<tag k="place" v="locality" />
		<tag k="ssr:stedsnr" v="817026" />
	</node>
	<node id="-236180" lat="59.389586114" lon="8.91682499462">
		<tag k="fixme" v="consider natural=peak for the most distinct mountains in the district" />
		<tag k="name" v="Løyningåsane" />
		<tag k="natural" v="hill" />
		<tag k="place" v="locality" />
		<tag k="ssr:stedsnr" v="817011" />
	</node>
	<node id="-236179" lat="59.4821000029" lon="8.99741388593">
		<tag k="name" v="Krintoliane" />
		<tag k="natural" v="slope" />
		<tag k="place" v="locality" />
		<tag k="ssr:stedsnr" v="816699" />
	</node>
	<node id="-236178" lat="59.4777305524" lon="8.98738332534">
		<tag k="name" v="Anebuflåtine" />
		<tag k="place" v="locality" />
		<tag k="ssr:stedsnr" v="816698" />
	</node>
	<node id="-236177" lat="59.4772444455" lon="8.97149444939">
		<tag k="name" v="Småvøllane" />
		<tag k="place" v="locality" />
		<tag k="ssr:stedsnr" v="816696" />
	</node>
	<node id="-236175" lat="59.4970500009" lon="9.0337138923">
		<tag k="name" v="Goddal" />
		<tag k="natural" v="valley" />
		<tag k="place" v="locality" />
		<tag k="ssr:stedsnr" v="816611" />
	</node>
	<node id="-236173" lat="59.4613694411" lon="9.01128888517">
		<tag k="name" v="Kjellarberget" />
		<tag k="natural" v="hill" />
		<tag k="place" v="locality" />
		<tag k="ssr:stedsnr" v="816062" />
	</node>
	<node id="-236172" lat="59.4618861149" lon="9.1353555547">
		<tag k="name" v="Fiskebekkhåva" />
		<tag k="natural" v="hill" />
		<tag k="place" v="locality" />
		<tag k="ssr:stedsnr" v="815941" />
	</node>
	<node id="-236169" lat="59.5132722198" lon="9.01348334043">
		<tag k="name" v="Bjønnlijuva" />
		<tag k="natural" v="gorge" />
		<tag k="ssr:stedsnr" v="815535" />
	</node>
	<node id="-236168" lat="59.4342583362" lon="9.02069721866">
		<tag k="name" v="Breskelimogane" />
		<tag k="place" v="locality" />
		<tag k="ssr:stedsnr" v="815534" />
	</node>
	<node id="-236167" lat="59.515833336" lon="9.05615278416">
		<tag k="name" v="Blåtjønndalen" />
		<tag k="natural" v="valley" />
		<tag k="place" v="locality" />
		<tag k="ssr:stedsnr" v="815527" />
	</node>
	<node id="-236163" lat="59.3910416695" lon="9.00833334172">
		<tag k="name" v="Hasleliane" />
		<tag k="natural" v="slope" />
		<tag k="place" v="locality" />
		<tag k="ssr:stedsnr" v="815320" />
	</node>
	<node id="-236156" lat="59.4243500001" lon="9.07727500327">
		<tag k="name" v="Ågetveitjuva" />
		<tag k="natural" v="gorge" />
		<tag k="ssr:stedsnr" v="815229" />
	</node>
	<node id="-236152" lat="59.4621138907" lon="8.96828610448">
		<tag k="fixme" v="consider natural=peak for the most distinct mountains in the district" />
		<tag k="name" v="Høystulhaugane" />
		<tag k="natural" v="hill" />
		<tag k="place" v="locality" />
		<tag k="ssr:stedsnr" v="815081" />
	</node>
	<node id="-236148" lat="59.4171194465" lon="9.1080555514">
		<tag k="name" v="Hauglandberga" />
		<tag k="natural" v="hill" />
		<tag k="place" v="locality" />
		<tag k="ssr:stedsnr" v="814730" />
	</node>
	<node id="-236144" lat="59.4942527768" lon="9.06518888793">
		<tag k="fixme" v="consider natural=peak for the most distinct mountains in the district" />
		<tag k="name" v="Bjønnhuskollen" />
		<tag k="natural" v="hill" />
		<tag k="place" v="locality" />
		<tag k="ssr:stedsnr" v="814588" />
	</node>
	<node id="-236140" lat="59.4051444469" lon="9.03422221955">
		<tag k="fixme" v="consider natural=peak for the most distinct mountains in the district" />
		<tag k="name" v="Molandsåsen" />
		<tag k="natural" v="hill" />
		<tag k="place" v="locality" />
		<tag k="ssr:stedsnr" v="814303" />
	</node>
	<node id="-236139" lat="59.4111416688" lon="9.03067222594">
		<tag k="fixme" v="consider natural=peak for the most distinct mountains in the district" />
		<tag k="name" v="Mørkholtåsen" />
		<tag k="natural" v="hill" />
		<tag k="place" v="locality" />
		<tag k="ssr:stedsnr" v="814297" />
	</node>
	<node id="-236137" lat="59.4187416666" lon="8.95789999416">
		<tag k="name" v="Geiteholet" />
		<tag k="natural" v="valley" />
		<tag k="place" v="locality" />
		<tag k="ssr:stedsnr" v="814084" />
	</node>
	<node id="-236135" lat="59.4460000003" lon="9.03734999576">
		<tag k="name" v="Trengsle" />
		<tag k="natural" v="gorge" />
		<tag k="ssr:stedsnr" v="814042" />
	</node>
	<node id="-236134" lat="59.382761107" lon="8.98831666337">
		<tag k="name" v="Barlinddalen" />
		<tag k="natural" v="valley" />
		<tag k="place" v="locality" />
		<tag k="ssr:stedsnr" v="813069" />
	</node>
	<node id="-236132" lat="59.3830805543" lon="8.98496111592">
		<tag k="fixme" v="consider natural=peak for the most distinct mountains in the district" />
		<tag k="name" v="Barlindnuten" />
		<tag k="natural" v="hill" />
		<tag k="place" v="locality" />
		<tag k="ssr:stedsnr" v="813061" />
	</node>
	<node id="-236131" lat="59.3906666662" lon="8.97895277411">
		<tag k="name" v="Mjågedal" />
		<tag k="natural" v="valley" />
		<tag k="place" v="locality" />
		<tag k="ssr:stedsnr" v="813056" />
	</node>
	<node id="-236130" lat="59.5061944428" lon="9.10055554843">
		<tag k="name" v="Bukollen" />
		<tag k="natural" v="hill" />
		<tag k="place" v="locality" />
		<tag k="ssr:stedsnr" v="792475" />
	</node>
	<node id="-236125" lat="59.4813944487" lon="8.97066111389">
		<tag k="alt_name" v="Okslagjuvet" />
		<tag k="name" v="Okslajuvet" />
		<tag k="natural" v="gorge" />
		<tag k="ssr:stedsnr" v="791596" />
	</node>
	<node id="-236123" lat="59.482577782" lon="9.00261111248">
		<tag k="name" v="Krintokleiva" />
		<tag k="natural" v="valley" />
		<tag k="place" v="locality" />
		<tag k="ssr:stedsnr" v="791587" />
	</node>
	<node id="-236115" lat="59.4515861134" lon="8.93027776912">
		<tag k="name" v="Dyrdalen" />
		<tag k="natural" v="valley" />
		<tag k="place" v="locality" />
		<tag k="ssr:stedsnr" v="791465" />
	</node>
	<node id="-236105" lat="59.4054638868" lon="8.93059444191">
		<tag k="fixme" v="consider natural=peak for the most distinct mountains in the district" />
		<tag k="name" v="Bergestigåsen" />
		<tag k="natural" v="hill" />
		<tag k="place" v="locality" />
		<tag k="ssr:stedsnr" v="791369" />
	</node>
	<node id="-236103" lat="59.4019583344" lon="9.09150277982">
		<tag k="name" v="Sandbakkdalane" />
		<tag k="natural" v="valley" />
		<tag k="place" v="locality" />
		<tag k="ssr:stedsnr" v="791344" />
	</node>
	<node id="-236096" lat="59.4606777786" lon="8.90171111921">
		<tag k="name" v="Myklestuljuvet" />
		<tag k="natural" v="gorge" />
		<tag k="ssr:stedsnr" v="756976" />
	</node>
	<node id="-236095" lat="59.470722222" lon="8.94802499417">
		<tag k="name" v="Røytejuvlia" />
		<tag k="natural" v="slope" />
		<tag k="place" v="locality" />
		<tag k="ssr:stedsnr" v="756930" />
	</node>
	<node id="-236094" lat="59.4722722258" lon="8.92499444026">
		<tag k="name" v="Røksbunuten" />
		<tag k="natural" v="hill" />
		<tag k="place" v="locality" />
		<tag k="ssr:stedsnr" v="756925" />
	</node>
	<node id="-236093" lat="59.4833861098" lon="9.15393888436">
		<tag k="name" v="Ospebotn" />
		<tag k="place" v="locality" />
		<tag k="ssr:stedsnr" v="756921" />
	</node>
	<node id="-236092" lat="59.4367999971" lon="8.87131665837">
		<tag k="name" v="Kloppmoen" />
		<tag k="place" v="locality" />
		<tag k="ssr:stedsnr" v="756912" />
	</node>
	<node id="-236090" lat="59.4363805513" lon="8.95364722595">
		<tag k="name" v="Sveivelia" />
		<tag k="natural" v="slope" />
		<tag k="place" v="locality" />
		<tag k="ssr:stedsnr" v="756870" />
	</node>
	<node id="-236088" lat="59.5015222208" lon="9.0584666586">
		<tag k="name" v="Bråtåliskaret" />
		<tag k="natural" v="valley" />
		<tag k="place" v="locality" />
		<tag k="ssr:stedsnr" v="756530" />
	</node>
	<node id="-236087" lat="59.4740388884" lon="9.01272500417">
		<tag k="name" v="Kalveliane" />
		<tag k="natural" v="slope" />
		<tag k="place" v="locality" />
		<tag k="ssr:stedsnr" v="756505" />
	</node>
	<node id="-236083" lat="59.3950638914" lon="8.98145834089">
		<tag k="fixme" v="consider natural=peak for the most distinct mountains in the district" />
		<tag k="name" v="Skrubbås" />
		<tag k="natural" v="hill" />
		<tag k="place" v="locality" />
		<tag k="ssr:stedsnr" v="756043" />
	</node>
	<node id="-236082" lat="59.3736388847" lon="8.93272500087">
		<tag k="name" v="Snellkleiv" />
		<tag k="natural" v="slope" />
		<tag k="place" v="locality" />
		<tag k="ssr:stedsnr" v="756032" />
	</node>
	<node id="-236080" lat="59.395327777" lon="8.90394167523">
		<tag k="name" v="Heggjin" />
		<tag k="place" v="locality" />
		<tag k="ssr:stedsnr" v="756015" />
	</node>
	<node id="-236078" lat="59.42715833" lon="9.00039722155">
		<tag k="name" v="Olledalen" />
		<tag k="natural" v="valley" />
		<tag k="place" v="locality" />
		<tag k="ssr:stedsnr" v="755845" />
	</node>
	<node id="-236077" lat="59.423466665" lon="8.95471945072">
		<tag k="fixme" v="consider natural=peak for the most distinct mountains in the district" />
		<tag k="name" v="Lønalinuten" />
		<tag k="natural" v="hill" />
		<tag k="place" v="locality" />
		<tag k="ssr:stedsnr" v="755842" />
	</node>
	<node id="-236069" lat="59.4524777788" lon="9.12303333857">
		<tag k="name" v="Lauvvikberga" />
		<tag k="natural" v="hill" />
		<tag k="place" v="locality" />
		<tag k="ssr:stedsnr" v="754921" />
	</node>
	<node id="-236068" lat="59.5098027785" lon="9.0871027824">
		<tag k="name" v="Hestemyrlia" />
		<tag k="natural" v="slope" />
		<tag k="place" v="locality" />
		<tag k="ssr:stedsnr" v="754750" />
	</node>
	<node id="-236058" lat="59.471216665" lon="9.11721389463">
		<tag k="name" v="Dyneberga" />
		<tag k="natural" v="hill" />
		<tag k="place" v="locality" />
		<tag k="ssr:stedsnr" v="754499" />
	</node>
	<node id="-236056" lat="59.3794222201" lon="9.00894722183">
		<tag k="fixme" v="consider natural=peak for the most distinct mountains in the district" />
		<tag k="name" v="Innleggkollen" />
		<tag k="natural" v="hill" />
		<tag k="place" v="locality" />
		<tag k="ssr:stedsnr" v="754396" />
	</node>
	<node id="-236051" lat="59.4207111103" lon="8.96117221611">
		<tag k="name" v="Tjyruhjelldokka" />
		<tag k="natural" v="valley" />
		<tag k="place" v="locality" />
		<tag k="ssr:stedsnr" v="754103" />
	</node>
	<node id="-236035" lat="59.3824722229" lon="8.96654444018">
		<tag k="name" v="Langedalsfjellet" />
		<tag k="place" v="locality" />
		<tag k="ssr:stedsnr" v="752059" />
	</node>
	<node id="-236034" lat="59.3918888877" lon="8.99433888009">
		<tag k="fixme" v="consider natural=peak for the most distinct mountains in the district" />
		<tag k="name" v="Spirdalsnutane" />
		<tag k="natural" v="hill" />
		<tag k="place" v="locality" />
		<tag k="ssr:stedsnr" v="752053" />
	</node>
	<node id="-236033" lat="59.4059750001" lon="8.83331666152">
		<tag k="fixme" v="consider natural=peak for the most distinct mountains in the district" />
		<tag k="name" v="Gautilnuten" />
		<tag k="natural" v="hill" />
		<tag k="place" v="locality" />
		<tag k="ssr:stedsnr" v="731983" />
	</node>
	<node id="-236032" lat="59.4564833333" lon="9.09841666163">
		<tag k="alt_name" v="Vrangdal" />
		<tag k="name" v="Vrangedal" />
		<tag k="natural" v="valley" />
		<tag k="place" v="locality" />
		<tag k="ssr:stedsnr" v="731460" />
	</node>
	<node id="-236023" lat="59.4833555588" lon="9.08878055342">
		<tag k="fixme" v="consider natural=peak for the most distinct mountains in the district" />
		<tag k="name" v="Klosteråsen" />
		<tag k="natural" v="hill" />
		<tag k="place" v="locality" />
		<tag k="ssr:stedsnr" v="730681" />
	</node>
	<node id="-236021" lat="59.4768444415" lon="8.96042500416">
		<tag k="fixme" v="consider natural=peak for the most distinct mountains in the district" />
		<tag k="name" v="Falkefjellåsane" />
		<tag k="natural" v="hill" />
		<tag k="place" v="locality" />
		<tag k="ssr:stedsnr" v="730667" />
	</node>
	<node id="-236016" lat="59.4450861118" lon="9.13308055126">
		<tag k="name" v="Barlinddalen" />
		<tag k="natural" v="valley" />
		<tag k="place" v="locality" />
		<tag k="ssr:stedsnr" v="730483" />
	</node>
	<node id="-236014" lat="59.3911805556" lon="8.87848055871">
		<tag k="fixme" v="consider natural=peak for the most distinct mountains in the district" />
		<tag k="name" v="Ramsåsfjellet" />
		<tag k="natural" v="hill" />
		<tag k="place" v="locality" />
		<tag k="ssr:stedsnr" v="730367" />
	</node>
	<node id="-236009" lat="59.4406750006" lon="8.87715277082">
		<tag k="fixme" v="consider natural=peak for the most distinct mountains in the district" />
		<tag k="name" v="Mastedalsåsen" />
		<tag k="natural" v="hill" />
		<tag k="place" v="locality" />
		<tag k="ssr:stedsnr" v="696868" />
	</node>
	<node id="-236005" lat="59.469961112" lon="9.00142778548">
		<tag k="name" v="Nutestulliane" />
		<tag k="natural" v="slope" />
		<tag k="place" v="locality" />
		<tag k="ssr:stedsnr" v="696689" />
	</node>
	<node id="-236000" lat="59.42311667" lon="8.85440278336">
		<tag k="name" v="Rulldal" />
		<tag k="natural" v="valley" />
		<tag k="place" v="locality" />
		<tag k="ssr:stedsnr" v="696145" />
	</node>
	<node id="-235999" lat="59.3738166689" lon="8.94229721475">
		<tag k="name" v="Rivedalen" />
		<tag k="natural" v="valley" />
		<tag k="place" v="locality" />
		<tag k="ssr:stedsnr" v="696047" />
	</node>
	<node id="-235998" lat="59.3958694413" lon="8.91673055755">
		<tag k="name" v="Røyrdalen" />
		<tag k="natural" v="valley" />
		<tag k="place" v="locality" />
		<tag k="ssr:stedsnr" v="696018" />
	</node>
	<node id="-235996" lat="59.3871888874" lon="8.92148611673">
		<tag k="name" v="Marikollskarva" />
		<tag k="natural" v="hill" />
		<tag k="place" v="locality" />
		<tag k="ssr:stedsnr" v="696015" />
	</node>
	<node id="-235995" lat="59.3861388928" lon="8.93391111581">
		<tag k="fixme" v="consider natural=peak for the most distinct mountains in the district" />
		<tag k="name" v="Tveitskornuten" />
		<tag k="natural" v="hill" />
		<tag k="place" v="locality" />
		<tag k="ssr:stedsnr" v="696003" />
	</node>
	<node id="-235994" lat="59.4774805544" lon="8.93763889593">
		<tag k="name" v="Måsådalen" />
		<tag k="natural" v="valley" />
		<tag k="place" v="locality" />
		<tag k="ssr:stedsnr" v="695997" />
	</node>
	<node id="-235993" lat="59.4676527735" lon="8.94742777999">
		<tag k="name" v="Nørstekleivbotten" />
		<tag k="natural" v="valley" />
		<tag k="place" v="locality" />
		<tag k="ssr:stedsnr" v="695902" />
	</node>
	<node id="-235992" lat="59.4416472192" lon="9.00389444599">
		<tag k="name" v="Treskjeberget" />
		<tag k="natural" v="hill" />
		<tag k="place" v="locality" />
		<tag k="ssr:stedsnr" v="695860" />
	</node>
	<node id="-235990" lat="59.4324638866" lon="8.89476110619">
		<tag k="name" v="Høgås" />
		<tag k="natural" v="hill" />
		<tag k="place" v="locality" />
		<tag k="ssr:stedsnr" v="695810" />
	</node>
	<node id="-235989" lat="59.4864833308" lon="9.05370554752">
		<tag k="name" v="Lykkja" />
		<tag k="place" v="locality" />
		<tag k="ssr:stedsnr" v="695716" />
	</node>
	<node id="-235988" lat="59.4990416643" lon="9.05544999343">
		<tag k="name" v="Bekarlia" />
		<tag k="natural" v="slope" />
		<tag k="place" v="locality" />
		<tag k="ssr:stedsnr" v="695592" />
	</node>
	<node id="-235987" lat="59.4971944439" lon="9.05333055553">
		<tag k="name" v="Myhankdalen" />
		<tag k="natural" v="valley" />
		<tag k="place" v="locality" />
		<tag k="ssr:stedsnr" v="695588" />
	</node>
	<node id="-235986" lat="59.4902777808" lon="9.05637222649">
		<tag k="fixme" v="consider natural=peak for the most distinct mountains in the district" />
		<tag k="name" v="Kollane" />
		<tag k="natural" v="hill" />
		<tag k="place" v="locality" />
		<tag k="ssr:stedsnr" v="695572" />
	</node>
	<node id="-235983" lat="59.4594361127" lon="9.03425277901">
		<tag k="name" v="Svettelia" />
		<tag k="natural" v="slope" />
		<tag k="place" v="locality" />
		<tag k="ssr:stedsnr" v="695047" />
	</node>
	<node id="-235974" lat="59.3798388875" lon="9.03791110943">
		<tag k="name" v="Tjønnåsen" />
		<tag k="natural" v="hill" />
		<tag k="place" v="locality" />
		<tag k="ssr:stedsnr" v="694304" />
	</node>
	<node id="-235971" lat="59.394022218" lon="9.00861667078">
		<tag k="fixme" v="consider natural=peak for the most distinct mountains in the district" />
		<tag k="name" v="Høyslassfjellet" />
		<tag k="natural" v="hill" />
		<tag k="place" v="locality" />
		<tag k="ssr:stedsnr" v="694281" />
	</node>
	<node id="-235970" lat="59.4201916645" lon="8.91989167179">
		<tag k="name" v="Soterudskorra" />
		<tag k="natural" v="slope" />
		<tag k="place" v="locality" />
		<tag k="ssr:stedsnr" v="694145" />
	</node>
	<node id="-235969" lat="59.4149805531" lon="8.9364722255">
		<tag k="name" v="Kattebekkdalen" />
		<tag k="natural" v="valley" />
		<tag k="place" v="locality" />
		<tag k="ssr:stedsnr" v="694136" />
	</node>
	<node id="-235962" lat="59.5164666676" lon="9.06934444417">
		<tag k="fixme" v="consider natural=peak for the most distinct mountains in the district" />
		<tag k="name" v="Anderslifjellet" />
		<tag k="natural" v="hill" />
		<tag k="place" v="locality" />
		<tag k="ssr:stedsnr" v="693767" />
	</node>
	<node id="-235960" lat="59.493438892" lon="8.91185833446">
		<tag k="name" v="Holmetjønnliane" />
		<tag k="natural" v="slope" />
		<tag k="place" v="locality" />
		<tag k="ssr:stedsnr" v="693719" />
	</node>
	<node id="-235958" lat="59.500319443" lon="9.13473888161">
		<tag k="name" v="Enganefjellet" />
		<tag k="natural" v="hill" />
		<tag k="place" v="locality" />
		<tag k="ssr:stedsnr" v="693613" />
	</node>
	<node id="-235954" lat="59.3758861142" lon="8.98210833373">
		<tag k="name" v="Kleivahaugen" />
		<tag k="natural" v="hill" />
		<tag k="place" v="locality" />
		<tag k="ssr:stedsnr" v="693464" />
	</node>
	<node id="-235951" lat="59.3493611116" lon="8.91644444172">
		<tag k="name" v="Steindalen" />
		<tag k="natural" v="valley" />
		<tag k="place" v="locality" />
		<tag k="ssr:stedsnr" v="693445" />
	</node>
	<node id="-235948" lat="59.409158331" lon="9.0061277732">
		<tag k="fixme" v="consider natural=peak for the most distinct mountains in the district" />
		<tag k="name" v="Espedalsåsen" />
		<tag k="natural" v="hill" />
		<tag k="place" v="locality" />
		<tag k="ssr:stedsnr" v="693302" />
	</node>
	<node id="-235944" lat="59.4212611141" lon="9.08085833935">
		<tag k="name" v="Piperudsletta" />
		<tag k="place" v="locality" />
		<tag k="ssr:stedsnr" v="693263" />
	</node>
	<node id="-235934" lat="59.4318277767" lon="9.01124722966">
		<tag k="name" v="Siglhusmoen" />
		<tag k="place" v="locality" />
		<tag k="ssr:stedsnr" v="692469" />
	</node>
	<node id="-235932" lat="59.3801916706" lon="8.95607221857">
		<tag k="fixme" v="consider natural=peak for the most distinct mountains in the district" />
		<tag k="name" v="Borgarås" />
		<tag k="natural" v="hill" />
		<tag k="place" v="locality" />
		<tag k="ssr:stedsnr" v="692087" />
	</node>
	<node id="-235931" lat="59.3990583323" lon="8.87929999575">
		<tag k="name" v="Kilevaliane" />
		<tag k="natural" v="slope" />
		<tag k="place" v="locality" />
		<tag k="ssr:stedsnr" v="691214" />
	</node>
	<node id="-235922" lat="59.3795083294" lon="8.90676388891">
		<tag k="fixme" v="consider natural=peak for the most distinct mountains in the district" />
		<tag k="name" v="Eikholnuten" />
		<tag k="natural" v="hill" />
		<tag k="place" v="locality" />
		<tag k="ssr:stedsnr" v="670340" />
	</node>
	<node id="-235919" lat="59.4961333366" lon="8.99662499709">
		<tag k="alt_name" v="Skåråfjellet" />
		<tag k="fixme" v="consider natural=peak for the most distinct mountains in the district" />
		<tag k="name" v="Skåråfjell" />
		<tag k="natural" v="hill" />
		<tag k="place" v="locality" />
		<tag k="ssr:stedsnr" v="669595" />
	</node>
	<node id="-235916" lat="59.4489083361" lon="8.99831389034">
		<tag k="fixme" v="consider natural=peak for the most distinct mountains in the district" />
		<tag k="name" v="Årnatten" />
		<tag k="natural" v="hill" />
		<tag k="place" v="locality" />
		<tag k="ssr:stedsnr" v="669507" />
	</node>
	<node id="-235912" lat="59.4420166638" lon="8.95582221355">
		<tag k="alt_name" v="Skinan" />
		<tag k="fixme" v="consider natural=peak for the most distinct mountains in the district" />
		<tag k="name" v="Skjenan" />
		<tag k="natural" v="hill" />
		<tag k="place" v="locality" />
		<tag k="ssr:stedsnr" v="669456" />
	</node>
	<node id="-235909" lat="59.3601833324" lon="8.89971388202">
		<tag k="name" v="Bontådalen" />
		<tag k="natural" v="valley" />
		<tag k="place" v="locality" />
		<tag k="ssr:stedsnr" v="669279" />
	</node>
	<node id="-235907" lat="59.4726138881" lon="8.91169723038">
		<tag k="fixme" v="consider natural=peak for the most distinct mountains in the district" />
		<tag k="name" v="Tallakslinuten" />
		<tag k="natural" v="hill" />
		<tag k="place" v="locality" />
		<tag k="ssr:stedsnr" v="634998" />
	</node>
	<node id="-235906" lat="59.48162778" lon="8.94832777693">
		<tag k="name" v="Rognliane" />
		<tag k="natural" v="slope" />
		<tag k="place" v="locality" />
		<tag k="ssr:stedsnr" v="634992" />
	</node>
	<node id="-235905" lat="59.4665500025" lon="8.92156944219">
		<tag k="name" v="Oterholtjuva" />
		<tag k="natural" v="gorge" />
		<tag k="ssr:stedsnr" v="634924" />
	</node>
	<node id="-235903" lat="59.4683583303" lon="8.90972499377">
		<tag k="name" v="Skartjønnuten" />
		<tag k="natural" v="hill" />
		<tag k="place" v="locality" />
		<tag k="ssr:stedsnr" v="634918" />
	</node>
	<node id="-235901" lat="59.436866668" lon="8.98138056152">
		<tag k="name" v="Busteskorra" />
		<tag k="place" v="locality" />
		<tag k="ssr:stedsnr" v="634877" />
	</node>
	<node id="-235899" lat="59.4327277789" lon="8.95157777262">
		<tag k="fixme" v="consider natural=peak for the most distinct mountains in the district" />
		<tag k="name" v="Sveivelinuten" />
		<tag k="natural" v="hill" />
		<tag k="place" v="locality" />
		<tag k="ssr:stedsnr" v="634869" />
	</node>
	<node id="-235898" lat="59.4351166669" lon="8.97953333376">
		<tag k="name" v="Langeskor" />
		<tag k="place" v="locality" />
		<tag k="ssr:stedsnr" v="634867" />
	</node>
	<node id="-235896" lat="59.4233666679" lon="8.94020000623">
		<tag k="fixme" v="consider natural=peak for the most distinct mountains in the district" />
		<tag k="name" v="Blåkoll" />
		<tag k="natural" v="hill" />
		<tag k="place" v="locality" />
		<tag k="ssr:stedsnr" v="634828" />
	</node>
	<node id="-235894" lat="59.4799750027" lon="8.96527776935">
		<tag k="name" v="Bjønneskaret" />
		<tag k="natural" v="valley" />
		<tag k="place" v="locality" />
		<tag k="ssr:stedsnr" v="634677" />
	</node>
	<node id="-235893" lat="59.4968083299" lon="9.06063333157">
		<tag k="fixme" v="consider natural=peak for the most distinct mountains in the district" />
		<tag k="name" v="Barlindstandaren" />
		<tag k="natural" v="hill" />
		<tag k="place" v="locality" />
		<tag k="ssr:stedsnr" v="634605" />
	</node>
	<node id="-235892" lat="59.4657666676" lon="8.96438055702">
		<tag k="name" v="Høgsåslia" />
		<tag k="natural" v="slope" />
		<tag k="place" v="locality" />
		<tag k="ssr:stedsnr" v="634328" />
	</node>
	<node id="-235891" lat="59.3767749966" lon="8.87303056263">
		<tag k="name" v="Livsholdalen" />
		<tag k="natural" v="valley" />
		<tag k="place" v="locality" />
		<tag k="ssr:stedsnr" v="634250" />
	</node>
	<node id="-235889" lat="59.4507138894" lon="8.96026389441">
		<tag k="name" v="Åstulliane" />
		<tag k="natural" v="slope" />
		<tag k="place" v="locality" />
		<tag k="ssr:stedsnr" v="634059" />
	</node>
	<node id="-235888" lat="59.4560944459" lon="9.00835278255">
		<tag k="name" v="Torbjønnsjuv" />
		<tag k="natural" v="gorge" />
		<tag k="ssr:stedsnr" v="634051" />
	</node>
	<node id="-235884" lat="59.4932361107" lon="8.93734722034">
		<tag k="fixme" v="consider natural=peak for the most distinct mountains in the district" />
		<tag k="name" v="Rjupetjønnuten" />
		<tag k="natural" v="hill" />
		<tag k="ssr:stedsnr" v="633937" />
	</node>
	<node id="-235877" lat="59.4172694431" lon="8.9383944431">
		<tag k="fixme" v="consider natural=peak for the most distinct mountains in the district" />
		<tag k="name" v="Korpenuten" />
		<tag k="natural" v="hill" />
		<tag k="place" v="locality" />
		<tag k="ssr:stedsnr" v="633185" />
	</node>
	<node id="-235875" lat="59.4125666683" lon="8.92570833174">
		<tag k="name" v="Eriksteinmoen" />
		<tag k="place" v="locality" />
		<tag k="ssr:stedsnr" v="633133" />
	</node>
	<node id="-235872" lat="59.4354333352" lon="9.10472778026">
		<tag k="name" v="Huldrekyrkja" />
		<tag k="natural" v="valley" />
		<tag k="place" v="locality" />
		<tag k="ssr:stedsnr" v="633042" />
	</node>
	<node id="-235870" lat="59.4041194489" lon="8.9759472144">
		<tag k="name" v="Leirdalen" />
		<tag k="natural" v="valley" />
		<tag k="place" v="locality" />
		<tag k="ssr:stedsnr" v="633006" />
	</node>
	<node id="-235868" lat="59.5277416687" lon="9.13188055214">
		<tag k="fixme" v="consider natural=peak for the most distinct mountains in the district" />
		<tag k="name" v="Lomtjønnuten" />
		<tag k="natural" v="hill" />
		<tag k="place" v="locality" />
		<tag k="ssr:stedsnr" v="632739" />
	</node>
	<node id="-235867" lat="59.4082055567" lon="9.11321944847">
		<tag k="name" v="Flatin" />
		<tag k="place" v="locality" />
		<tag k="ssr:stedsnr" v="632637" />
	</node>
	<node id="-235860" lat="59.4184249988" lon="9.0424722227">
		<tag k="fixme" v="consider natural=peak for the most distinct mountains in the district" />
		<tag k="name" v="Bergenåsen" />
		<tag k="natural" v="hill" />
		<tag k="place" v="locality" />
		<tag k="ssr:stedsnr" v="632510" />
	</node>
	<node id="-235850" lat="59.4086666652" lon="9.00367221748">
		<tag k="name" v="Refsdalen" />
		<tag k="natural" v="valley" />
		<tag k="place" v="locality" />
		<tag k="ssr:stedsnr" v="632012" />
	</node>
	<node id="-235849" lat="59.4683749995" lon="9.15739166532">
		<tag k="name" v="Svarttjønnhaugane" />
		<tag k="natural" v="hill" />
		<tag k="place" v="locality" />
		<tag k="ssr:stedsnr" v="631916" />
	</node>
	<node id="-235844" lat="59.3988805595" lon="8.82831665889">
		<tag k="name" v="Gråndokka" />
		<tag k="natural" v="valley" />
		<tag k="place" v="locality" />
		<tag k="ssr:stedsnr" v="630155" />
	</node>
	<node id="-235842" lat="59.3940944404" lon="8.99511666955">
		<tag k="name" v="Spirdalen" />
		<tag k="natural" v="valley" />
		<tag k="place" v="locality" />
		<tag k="ssr:stedsnr" v="630075" />
	</node>
	<node id="-235841" lat="59.4127833337" lon="8.83191110547">
		<tag k="fixme" v="consider natural=peak for the most distinct mountains in the district" />
		<tag k="name" v="Grasås" />
		<tag k="natural" v="hill" />
		<tag k="place" v="locality" />
		<tag k="ssr:stedsnr" v="609959" />
	</node>
	<node id="-235821" lat="59.3865361093" lon="9.10130555038">
		<tag k="fixme" v="consider natural=peak for the most distinct mountains in the district" />
		<tag k="name" v="Røysdeildåsen" />
		<tag k="natural" v="hill" />
		<tag k="place" v="locality" />
		<tag k="ssr:stedsnr" v="609324" />
	</node>
	<node id="-235819" lat="59.4951527807" lon="9.11982223064">
		<tag k="fixme" v="consider natural=peak for the most distinct mountains in the district" />
		<tag k="name" v="Slåttaåsane" />
		<tag k="natural" v="hill" />
		<tag k="place" v="locality" />
		<tag k="ssr:stedsnr" v="608616" />
	</node>
	<node id="-235818" lat="59.4456999964" lon="9.01248333411">
		<tag k="name" v="Liheia" />
		<tag k="natural" v="hill" />
		<tag k="place" v="locality" />
		<tag k="ssr:stedsnr" v="608517" />
	</node>
	<node id="-235815" lat="59.4331055578" lon="8.96363332595">
		<tag k="alt_name" v="Tjørnstuldalen" />
		<tag k="name" v="Tjønnstuldalen" />
		<tag k="natural" v="valley" />
		<tag k="place" v="locality" />
		<tag k="ssr:stedsnr" v="608418" />
	</node>
	<node id="-235814" lat="59.384947226" lon="8.91624166799">
		<tag k="fixme" v="consider natural=peak for the most distinct mountains in the district" />
		<tag k="name" v="Skanderborg" />
		<tag k="natural" v="hill" />
		<tag k="place" v="locality" />
		<tag k="ssr:stedsnr" v="608380" />
	</node>
	<node id="-235810" lat="59.3572638863" lon="9.01146110538">
		<tag k="alt_name" v="Spannslokfjellet" />
		<tag k="fixme" v="consider natural=peak for the most distinct mountains in the district" />
		<tag k="name" v="Spannslokfjell" />
		<tag k="natural" v="hill" />
		<tag k="place" v="locality" />
		<tag k="ssr:stedsnr" v="608313" />
	</node>
	<node id="-235808" lat="59.3661833372" lon="8.97742778403">
		<tag k="loc_name" v="Juvrestolen" />
		<tag k="name" v="Gygrestolen" />
		<tag k="place" v="locality" />
		<tag k="ssr:stedsnr" v="608286" />
	</node>
	<node id="-235806" lat="59.4785277756" lon="8.91646388364">
		<tag k="name" v="Langetjønnlia" />
		<tag k="natural" v="slope" />
		<tag k="place" v="locality" />
		<tag k="ssr:stedsnr" v="574998" />
	</node>
	<node id="-235801" lat="59.4817805568" lon="9.15995556048">
		<tag k="name" v="Svivarhaugen" />
		<tag k="place" v="locality" />
		<tag k="ssr:stedsnr" v="574920" />
	</node>
	<node id="-235800" lat="59.4318888896" lon="8.87154723046">
		<tag k="name" v="Hagadrag" />
		<tag k="natural" v="cliff" />
		<tag k="ssr:stedsnr" v="574907" />
	</node>
	<node id="-235799" lat="59.4288527768" lon="8.85978610996">
		<tag k="fixme" v="consider natural=peak for the most distinct mountains in the district" />
		<tag k="name" v="Basmoåsane" />
		<tag k="natural" v="hill" />
		<tag k="place" v="locality" />
		<tag k="ssr:stedsnr" v="574904" />
	</node>
	<node id="-235798" lat="59.4263444404" lon="8.87280555412">
		<tag k="name" v="Øverbømoen" />
		<tag k="place" v="locality" />
		<tag k="ssr:stedsnr" v="574877" />
	</node>
	<node id="-235794" lat="59.477030552" lon="8.95506388978">
		<tag k="name" v="Lisleli" />
		<tag k="natural" v="slope" />
		<tag k="place" v="locality" />
		<tag k="ssr:stedsnr" v="574679" />
	</node>
	<node id="-235793" lat="59.5041722225" lon="9.02021945092">
		<tag k="name" v="Årmotliane" />
		<tag k="natural" v="slope" />
		<tag k="place" v="locality" />
		<tag k="ssr:stedsnr" v="574581" />
	</node>
	<node id="-235792" lat="59.4688499997" lon="9.01271389513">
		<tag k="name" v="Skråmådal" />
		<tag k="natural" v="valley" />
		<tag k="place" v="locality" />
		<tag k="ssr:stedsnr" v="574541" />
	</node>
	<node id="-235787" lat="59.4590361118" lon="8.98184999349">
		<tag k="fixme" v="consider natural=peak for the most distinct mountains in the district" />
		<tag k="name" v="Hanakamåsen" />
		<tag k="natural" v="hill" />
		<tag k="place" v="locality" />
		<tag k="ssr:stedsnr" v="574093" />
	</node>
	<node id="-235786" lat="59.4602472261" lon="8.98818333041">
		<tag k="name" v="Brundrudholet" />
		<tag k="natural" v="valley" />
		<tag k="place" v="locality" />
		<tag k="ssr:stedsnr" v="574092" />
	</node>
	<node id="-235785" lat="59.4470555538" lon="8.97559165791">
		<tag k="name" v="Ømsdalen" />
		<tag k="natural" v="valley" />
		<tag k="place" v="locality" />
		<tag k="ssr:stedsnr" v="574080" />
	</node>
	<node id="-235775" lat="59.4638722261" lon="9.01184722318">
		<tag k="fixme" v="consider natural=peak for the most distinct mountains in the district" />
		<tag k="name" v="Vårbuåsen" />
		<tag k="natural" v="hill" />
		<tag k="place" v="locality" />
		<tag k="ssr:stedsnr" v="573036" />
	</node>
	<node id="-235773" lat="59.4401583366" lon="9.02435000439">
		<tag k="name" v="Lindeberget" />
		<tag k="natural" v="hill" />
		<tag k="place" v="locality" />
		<tag k="ssr:stedsnr" v="572626" />
	</node>
	<node id="-235772" lat="59.4722749997" lon="9.10785000338">
		<tag k="name" v="Dikedalen" />
		<tag k="natural" v="valley" />
		<tag k="place" v="locality" />
		<tag k="ssr:stedsnr" v="572506" />
	</node>
	<node id="-235769" lat="59.3962555572" lon="9.04167499344">
		<tag k="fixme" v="consider natural=peak for the most distinct mountains in the district" />
		<tag k="name" v="Klokkarstugunuten" />
		<tag k="natural" v="hill" />
		<tag k="place" v="locality" />
		<tag k="ssr:stedsnr" v="572323" />
	</node>
	<node id="-235763" lat="59.4139638895" lon="8.93513333615">
		<tag k="name" v="Brurenuten" />
		<tag k="natural" v="hill" />
		<tag k="place" v="locality" />
		<tag k="ssr:stedsnr" v="572180" />
	</node>
	<node id="-235762" lat="59.4107027766" lon="8.87187777122">
		<tag k="name" v="Kleivine" />
		<tag k="natural" v="slope" />
		<tag k="place" v="locality" />
		<tag k="ssr:stedsnr" v="572170" />
	</node>
	<node id="-235759" lat="59.4616111107" lon="9.13002222824">
		<tag k="name" v="Furustandarlia" />
		<tag k="natural" v="slope" />
		<tag k="place" v="locality" />
		<tag k="ssr:stedsnr" v="571924" />
	</node>
	<node id="-235758" lat="59.4789666645" lon="9.13776388508">
		<tag k="fixme" v="consider natural=peak for the most distinct mountains in the district" />
		<tag k="name" v="Flugaråsane" />
		<tag k="natural" v="hill" />
		<tag k="place" v="locality" />
		<tag k="ssr:stedsnr" v="571911" />
	</node>
	<node id="-235753" lat="59.5117499959" lon="9.11211943635">
		<tag k="fixme" v="consider natural=peak for the most distinct mountains in the district" />
		<tag k="name" v="Glosimot" />
		<tag k="natural" v="hill" />
		<tag k="place" v="locality" />
		<tag k="ssr:stedsnr" v="571707" />
	</node>
	<node id="-235740" lat="59.3657361075" lon="9.0196361075">
		<tag k="name" v="Postmyrdalen" />
		<tag k="natural" v="valley" />
		<tag k="place" v="locality" />
		<tag k="ssr:stedsnr" v="571412" />
	</node>
	<node id="-235738" lat="59.4101583309" lon="9.03526667297">
		<tag k="name" v="Torsbergåsen" />
		<tag k="natural" v="hill" />
		<tag k="place" v="locality" />
		<tag k="ssr:stedsnr" v="571237" />
	</node>
	<node id="-235728" lat="59.3801583375" lon="8.98821667456">
		<tag k="name" v="Sommarligravsholune" />
		<tag k="natural" v="valley" />
		<tag k="place" v="locality" />
		<tag k="ssr:stedsnr" v="570067" />
	</node>
	<node id="-235727" lat="59.3944611126" lon="8.95703333598">
		<tag k="name" v="Åsheimfjellet" />
		<tag k="place" v="locality" />
		<tag k="ssr:stedsnr" v="570046" />
	</node>
	<node id="-235722" lat="59.472877774" lon="8.98851388613">
		<tag k="fixme" v="consider natural=peak for the most distinct mountains in the district" />
		<tag k="name" v="Vihuskollen" />
		<tag k="natural" v="hill" />
		<tag k="place" v="locality" />
		<tag k="ssr:stedsnr" v="548599" />
	</node>
	<node id="-235720" lat="59.495430553" lon="9.1117333286">
		<tag k="fixme" v="consider natural=peak for the most distinct mountains in the district" />
		<tag k="name" v="Lonaråsane" />
		<tag k="natural" v="hill" />
		<tag k="place" v="locality" />
		<tag k="ssr:stedsnr" v="548575" />
	</node>
	<node id="-235719" lat="59.4635916665" lon="9.0391666718">
		<tag k="fixme" v="consider natural=peak for the most distinct mountains in the district" />
		<tag k="name" v="Østlikollen" />
		<tag k="natural" v="hill" />
		<tag k="place" v="locality" />
		<tag k="ssr:stedsnr" v="548512" />
	</node>
	<node id="-235717" lat="59.4566166698" lon="8.94191111294">
		<tag k="fixme" v="consider natural=peak for the most distinct mountains in the district" />
		<tag k="name" v="Lauvås" />
		<tag k="natural" v="hill" />
		<tag k="place" v="locality" />
		<tag k="ssr:stedsnr" v="548474" />
	</node>
	<node id="-235715" lat="59.438511107" lon="8.89449723076">
		<tag k="fixme" v="consider natural=peak for the most distinct mountains in the district" />
		<tag k="name" v="Kupanuten" />
		<tag k="natural" v="hill" />
		<tag k="place" v="locality" />
		<tag k="ssr:stedsnr" v="548466" />
	</node>
	<node id="-235710" lat="59.4184250025" lon="8.85153889655">
		<tag k="fixme" v="consider natural=peak for the most distinct mountains in the district" />
		<tag k="name" v="Meinstadfjellet" />
		<tag k="natural" v="hill" />
		<tag k="place" v="locality" />
		<tag k="ssr:stedsnr" v="548431" />
	</node>
	<node id="-235699" lat="59.477066671" lon="8.92955000279">
		<tag k="name" v="Jordfjellet" />
		<tag k="place" v="locality" />
		<tag k="ssr:stedsnr" v="514000" />
	</node>
	<node id="-235695" lat="59.4754305513" lon="9.17110277919">
		<tag k="name" v="Tokleivdalen" />
		<tag k="natural" v="valley" />
		<tag k="place" v="locality" />
		<tag k="ssr:stedsnr" v="513935" />
	</node>
	<node id="-235694" lat="59.4828166709" lon="9.17016110245">
		<tag k="name" v="Svartufs" />
		<tag k="natural" v="hill" />
		<tag k="place" v="locality" />
		<tag k="ssr:stedsnr" v="513920" />
	</node>
	<node id="-235692" lat="59.4375249978" lon="8.96713334104">
		<tag k="name" v="Hottane" />
		<tag k="natural" v="hill" />
		<tag k="place" v="locality" />
		<tag k="ssr:stedsnr" v="513880" />
	</node>
	<node id="-235687" lat="59.4359222185" lon="8.90131666031">
		<tag k="name" v="Landsverkdalen" />
		<tag k="natural" v="valley" />
		<tag k="place" v="locality" />
		<tag k="ssr:stedsnr" v="513828" />
	</node>
	<node id="-235684" lat="59.4966416671" lon="9.03476666518">
		<tag k="fixme" v="consider natural=peak for the most distinct mountains in the district" />
		<tag k="name" v="Goddalsnatten" />
		<tag k="natural" v="hill" />
		<tag k="place" v="locality" />
		<tag k="ssr:stedsnr" v="513608" />
	</node>
	<node id="-235683" lat="59.5046166627" lon="9.06232500832">
		<tag k="name" v="Grønmyrdalen" />
		<tag k="natural" v="valley" />
		<tag k="place" v="locality" />
		<tag k="ssr:stedsnr" v="513557" />
	</node>
	<node id="-235682" lat="59.5057611079" lon="9.05816111703">
		<tag k="name" v="Kåsåskaret" />
		<tag k="natural" v="valley" />
		<tag k="place" v="locality" />
		<tag k="ssr:stedsnr" v="513548" />
	</node>
	<node id="-235680" lat="59.4617194401" lon="8.97626944605">
		<tag k="fixme" v="consider natural=peak for the most distinct mountains in the district" />
		<tag k="name" v="Sauliåsen" />
		<tag k="natural" v="hill" />
		<tag k="place" v="locality" />
		<tag k="ssr:stedsnr" v="513085" />
	</node>
	<node id="-235679" lat="59.4453000008" lon="8.966641659">
		<tag k="name" v="Bryggjefjellnåsa" />
		<tag k="place" v="locality" />
		<tag k="ssr:stedsnr" v="513084" />
	</node>
	<node id="-235678" lat="59.4521500044" lon="9.0018277769">
		<tag k="name" v="Helleliane" />
		<tag k="natural" v="slope" />
		<tag k="place" v="locality" />
		<tag k="ssr:stedsnr" v="513081" />
	</node>
	<node id="-235677" lat="59.3645277783" lon="8.94154721969">
		<tag k="name" v="Svarttjønndalen" />
		<tag k="natural" v="valley" />
		<tag k="place" v="locality" />
		<tag k="ssr:stedsnr" v="513059" />
	</node>
	<node id="-235676" lat="59.3746805591" lon="8.91103332715">
		<tag k="name" v="Jammerdal" />
		<tag k="natural" v="valley" />
		<tag k="place" v="locality" />
		<tag k="ssr:stedsnr" v="513046" />
	</node>
	<node id="-235668" lat="59.4153111144" lon="8.93464444003">
		<tag k="fixme" v="consider natural=peak for the most distinct mountains in the district" />
		<tag k="name" v="Revsås" />
		<tag k="natural" v="hill" />
		<tag k="place" v="locality" />
		<tag k="ssr:stedsnr" v="512162" />
	</node>
	<node id="-235666" lat="59.379600001" lon="8.98639443941">
		<tag k="fixme" v="consider natural=peak for the most distinct mountains in the district" />
		<tag k="name" v="Damfjellet" />
		<tag k="natural" v="hill" />
		<tag k="place" v="locality" />
		<tag k="ssr:stedsnr" v="512111" />
	</node>
	<node id="-235656" lat="59.4935555595" lon="9.1559500019">
		<tag k="fixme" v="consider natural=peak for the most distinct mountains in the district" />
		<tag k="name" v="Kønnåsnuten" />
		<tag k="natural" v="hill" />
		<tag k="place" v="locality" />
		<tag k="ssr:stedsnr" v="511555" />
	</node>
	<node id="-235642" lat="59.5036333341" lon="8.99587499589">
		<tag k="name" v="Hålåmønane" />
		<tag k="natural" v="hill" />
		<tag k="place" v="locality" />
		<tag k="ssr:stedsnr" v="510935" />
	</node>
	<node id="-235639" lat="59.3673416652" lon="8.8700111123">
		<tag k="name" v="Rognliane" />
		<tag k="natural" v="slope" />
		<tag k="place" v="locality" />
		<tag k="ssr:stedsnr" v="509197" />
	</node>
	<node id="-235637" lat="59.3903972226" lon="8.89992499555">
		<tag k="fixme" v="consider natural=peak for the most distinct mountains in the district" />
		<tag k="name" v="Jomfrunatten" />
		<tag k="natural" v="hill" />
		<tag k="ssr:stedsnr" v="513022" />
	</node>
	<node id="-235636" lat="59.3878361152" lon="8.90725834122">
		<tag k="fixme" v="consider natural=peak for the most distinct mountains in the district" />
		<tag k="name" v="Borkenuten" />
		<tag k="natural" v="hill" />
		<tag k="place" v="locality" />
		<tag k="ssr:stedsnr" v="513013" />
	</node>
	<node id="-235634" lat="59.3881083297" lon="8.93969721861">
		<tag k="name" v="Hidalen" />
		<tag k="natural" v="valley" />
		<tag k="place" v="locality" />
		<tag k="ssr:stedsnr" v="513006" />
	</node>
	<node id="-235631" lat="59.5209277745" lon="9.03738611642">
		<tag k="fixme" v="consider natural=peak for the most distinct mountains in the district" />
		<tag k="name" v="Bukkelifjellet" />
		<tag k="natural" v="hill" />
		<tag k="place" v="locality" />
		<tag k="ssr:stedsnr" v="488450" />
	</node>
	<node id="-235630" lat="59.5272861103" lon="9.12390278318">
		<tag k="fixme" v="consider natural=peak for the most distinct mountains in the district" />
		<tag k="name" v="Korpenuten" />
		<tag k="natural" v="hill" />
		<tag k="ssr:stedsnr" v="488446" />
	</node>
	<node id="-235622" lat="59.4940916652" lon="8.94500833226">
		<tag k="fixme" v="consider natural=peak for the most distinct mountains in the district" />
		<tag k="name" v="Nybufjellet" />
		<tag k="natural" v="hill" />
		<tag k="place" v="locality" />
		<tag k="ssr:stedsnr" v="487628" />
	</node>
	<node id="-235621" lat="59.4915611077" lon="8.98135277139">
		<tag k="alt_name" v="Gleksefjellet" />
		<tag k="fixme" v="consider natural=peak for the most distinct mountains in the district" />
		<tag k="name" v="Gleksefjell" />
		<tag k="natural" v="hill" />
		<tag k="place" v="locality" />
		<tag k="ssr:stedsnr" v="487612" />
	</node>
	<node id="-235619" lat="59.4405805568" lon="9.08763333943">
		<tag k="alt_name" v="Folkestadmoane" />
		<tag k="name" v="Folkestadmogane" />
		<tag k="place" v="locality" />
		<tag k="ssr:stedsnr" v="487505" />
	</node>
	<node id="-235618" lat="59.4280944401" lon="8.92383889461">
		<tag k="fixme" v="consider natural=peak for the most distinct mountains in the district" />
		<tag k="name" v="Karistulfjellet" />
		<tag k="natural" v="hill" />
		<tag k="place" v="locality" />
		<tag k="ssr:stedsnr" v="487491" />
	</node>
	<node id="-235617" lat="59.4341777765" lon="8.90201389197">
		<tag k="fixme" v="consider natural=peak for the most distinct mountains in the district" />
		<tag k="name" v="Landsverknuten" />
		<tag k="natural" v="hill" />
		<tag k="place" v="locality" />
		<tag k="ssr:stedsnr" v="487490" />
	</node>
	<node id="-235615" lat="59.4011777811" lon="9.01408054911">
		<tag k="alt_name" v="Slentemoen" />
		<tag k="name" v="Slentemo" />
		<tag k="place" v="locality" />
		<tag k="ssr:stedsnr" v="487391" />
	</node>
	<node id="-235612" lat="59.4800388882" lon="8.92040277826">
		<tag k="fixme" v="consider natural=peak for the most distinct mountains in the district" />
		<tag k="name" v="Repetjønnuten" />
		<tag k="natural" v="hill" />
		<tag k="place" v="locality" />
		<tag k="ssr:stedsnr" v="453999" />
	</node>
	<node id="-235610" lat="59.4568583336" lon="8.93606944718">
		<tag k="name" v="Rindeskaret" />
		<tag k="natural" v="valley" />
		<tag k="place" v="locality" />
		<tag k="ssr:stedsnr" v="453959" />
	</node>
	<node id="-235608" lat="59.4540083333" lon="8.94346389377">
		<tag k="name" v="Dyrdalsbråta" />
		<tag k="place" v="locality" />
		<tag k="ssr:stedsnr" v="453945" />
	</node>
	<node id="-235606" lat="59.4759333369" lon="8.94684166472">
		<tag k="name" v="Standaren" />
		<tag k="natural" v="hill" />
		<tag k="place" v="locality" />
		<tag k="ssr:stedsnr" v="453899" />
	</node>
	<node id="-235603" lat="59.4804222264" lon="9.06106666578">
		<tag k="name" v="Høljarurkleiva" />
		<tag k="natural" v="slope" />
		<tag k="place" v="locality" />
		<tag k="ssr:stedsnr" v="453517" />
	</node>
	<node id="-235601" lat="59.4799888867" lon="9.01119167349">
		<tag k="name" v="Jønnbuflotine" />
		<tag k="place" v="locality" />
		<tag k="ssr:stedsnr" v="453430" />
	</node>
	<node id="-235600" lat="59.483000004" lon="9.00821388811">
		<tag k="name" v="Bøkstulliane" />
		<tag k="natural" v="slope" />
		<tag k="place" v="locality" />
		<tag k="ssr:stedsnr" v="453429" />
	</node>
	<node id="-235599" lat="59.4656166636" lon="8.95979166893">
		<tag k="fixme" v="consider natural=peak for the most distinct mountains in the district" />
		<tag k="name" v="Høgsåsåsen" />
		<tag k="natural" v="hill" />
		<tag k="place" v="locality" />
		<tag k="ssr:stedsnr" v="453318" />
	</node>
	<node id="-235598" lat="59.3793861141" lon="8.94555555132">
		<tag k="fixme" v="consider natural=peak for the most distinct mountains in the district" />
		<tag k="name" v="Borgarås" />
		<tag k="natural" v="hill" />
		<tag k="place" v="locality" />
		<tag k="ssr:stedsnr" v="453268" />
	</node>
	<node id="-235595" lat="59.4597777806" lon="8.97690554793">
		<tag k="name" v="Saulia" />
		<tag k="natural" v="slope" />
		<tag k="place" v="locality" />
		<tag k="ssr:stedsnr" v="453093" />
	</node>
	<node id="-235593" lat="59.4502055513" lon="8.9955333411">
		<tag k="name" v="Skaret" />
		<tag k="natural" v="valley" />
		<tag k="place" v="locality" />
		<tag k="ssr:stedsnr" v="453085" />
	</node>
	<node id="-235592" lat="59.4469361129" lon="8.95983055859">
		<tag k="name" v="Lauvkross" />
		<tag k="natural" v="slope" />
		<tag k="place" v="locality" />
		<tag k="ssr:stedsnr" v="453080" />
	</node>
	<node id="-235591" lat="59.3828527789" lon="8.89667777255">
		<tag k="name" v="Ramsåsdalen" />
		<tag k="natural" v="valley" />
		<tag k="place" v="locality" />
		<tag k="ssr:stedsnr" v="453026" />
	</node>
	<node id="-235590" lat="59.3847416674" lon="8.898061112">
		<tag k="fixme" v="consider natural=peak for the most distinct mountains in the district" />
		<tag k="name" v="Korpenuten" />
		<tag k="natural" v="hill" />
		<tag k="place" v="locality" />
		<tag k="ssr:stedsnr" v="453020" />
	</node>
	<node id="-235589" lat="59.3834333293" lon="8.93094721419">
		<tag k="fixme" v="consider natural=peak for the most distinct mountains in the district" />
		<tag k="name" v="Styggedalsnuten" />
		<tag k="natural" v="hill" />
		<tag k="place" v="locality" />
		<tag k="ssr:stedsnr" v="453006" />
	</node>
	<node id="-235586" lat="59.4680583352" lon="8.97830277657">
		<tag k="name" v="Vihusjuvet" />
		<tag k="natural" v="gorge" />
		<tag k="ssr:stedsnr" v="452700" />
	</node>
	<node id="-235583" lat="59.4605666711" lon="9.02501388316">
		<tag k="name" v="Halvfarshaug" />
		<tag k="natural" v="hill" />
		<tag k="place" v="locality" />
		<tag k="ssr:stedsnr" v="452042" />
	</node>
	<node id="-235582" lat="59.5198916693" lon="9.02574166734">
		<tag k="fixme" v="consider natural=peak for the most distinct mountains in the district" />
		<tag k="name" v="Haukelinuten" />
		<tag k="natural" v="hill" />
		<tag k="place" v="locality" />
		<tag k="ssr:stedsnr" v="451631" />
	</node>
	<node id="-235580" lat="59.5242583297" lon="9.02281943678">
		<tag k="name" v="Tyristulleiken" />
		<tag k="place" v="locality" />
		<tag k="ssr:stedsnr" v="451625" />
	</node>
	<node id="-235579" lat="59.5353861087" lon="9.03460555868">
		<tag k="name" v="Rassklov" />
		<tag k="natural" v="valley" />
		<tag k="place" v="locality" />
		<tag k="ssr:stedsnr" v="451603" />
	</node>
	<node id="-235578" lat="59.4934749969" lon="8.96095278089">
		<tag k="name" v="Kuvelhette" />
		<tag k="natural" v="hill" />
		<tag k="place" v="locality" />
		<tag k="ssr:stedsnr" v="451602" />
	</node>
	<node id="-235576" lat="59.5086250044" lon="9.05473889579">
		<tag k="fixme" v="consider natural=peak for the most distinct mountains in the district" />
		<tag k="name" v="Sleivelinuten" />
		<tag k="natural" v="hill" />
		<tag k="ssr:stedsnr" v="451590" />
	</node>
	<node id="-235575" lat="59.5084388873" lon="9.04170277443">
		<tag k="name" v="Skrubbedalen" />
		<tag k="natural" v="valley" />
		<tag k="place" v="locality" />
		<tag k="ssr:stedsnr" v="451587" />
	</node>
	<node id="-235573" lat="59.5169833372" lon="9.0308638814">
		<tag k="name" v="Bukkeliane" />
		<tag k="natural" v="slope" />
		<tag k="place" v="locality" />
		<tag k="ssr:stedsnr" v="451577" />
	</node>
	<node id="-235558" lat="59.4169305575" lon="8.88172499995">
		<tag k="name" v="Geiteskaret" />
		<tag k="natural" v="valley" />
		<tag k="place" v="locality" />
		<tag k="ssr:stedsnr" v="451177" />
	</node>
	<node id="-235553" lat="59.5267333303" lon="9.12162777162">
		<tag k="fixme" v="consider natural=peak for the most distinct mountains in the district" />
		<tag k="name" v="Løyteåsen" />
		<tag k="natural" v="hill" />
		<tag k="place" v="locality" />
		<tag k="ssr:stedsnr" v="450758" />
	</node>
	<node id="-235552" lat="59.525555552" lon="9.08900000679">
		<tag k="name" v="Nystulliane" />
		<tag k="natural" v="slope" />
		<tag k="place" v="locality" />
		<tag k="ssr:stedsnr" v="450750" />
	</node>
	<node id="-235550" lat="59.5112749996" lon="9.11035833588">
		<tag k="name" v="Slåttadalen" />
		<tag k="natural" v="valley" />
		<tag k="place" v="locality" />
		<tag k="ssr:stedsnr" v="450738" />
	</node>
	<node id="-235547" lat="59.5002833354" lon="9.14577500172">
		<tag k="name" v="Haugliane" />
		<tag k="natural" v="slope" />
		<tag k="place" v="locality" />
		<tag k="ssr:stedsnr" v="450611" />
	</node>
	<node id="-235542" lat="59.5011666646" lon="9.08217499247">
		<tag k="name" v="Århanekollen" />
		<tag k="place" v="locality" />
		<tag k="ssr:stedsnr" v="450573" />
	</node>
	<node id="-235540" lat="59.4341888923" lon="9.01498610403">
		<tag k="name" v="Breskelia" />
		<tag k="natural" v="slope" />
		<tag k="place" v="locality" />
		<tag k="ssr:stedsnr" v="450540" />
	</node>
	<node id="-235537" lat="59.4715638859" lon="9.07983888142">
		<tag k="name" v="Jammerdal" />
		<tag k="natural" v="valley" />
		<tag k="place" v="locality" />
		<tag k="ssr:stedsnr" v="450474" />
	</node>
	<node id="-235524" lat="59.4834694475" lon="9.07946388562">
		<tag k="fixme" v="consider natural=peak for the most distinct mountains in the district" />
		<tag k="name" v="Åsekollen" />
		<tag k="natural" v="hill" />
		<tag k="place" v="locality" />
		<tag k="ssr:stedsnr" v="427618" />
	</node>
	<node id="-235521" lat="59.4840027738" lon="9.00674721455">
		<tag k="fixme" v="consider natural=peak for the most distinct mountains in the district" />
		<tag k="name" v="Bøkstulnatten" />
		<tag k="natural" v="hill" />
		<tag k="ssr:stedsnr" v="427571" />
	</node>
</osm>
