<?xml version="1.0" encoding="UTF-8"?>
<osm generator="osmapis" version="0.6">
	<node id="-234999" lat="59.4584611136" lon="9.00173056382">
		<tag k="name" v="Stormyrhaugane" />
		<tag k="place" v="locality" />
		<tag k="ssr:stedsnr" v="392105" />
	</node>
	<node id="-235502" lat="59.4739361086" lon="9.14753055483">
		<tag k="historic" v="shieling" />
		<tag k="name" v="Knutshaug" />
		<tag k="place" v="locality" />
		<tag k="ssr:stedsnr" v="268915" />
	</node>
	<node id="-234983" lat="59.3936194421" lon="9.11116667376">
		<tag k="name" v="Diplemyr" />
		<tag k="natural" v="wetland" />
		<tag k="ssr:stedsnr" v="390361" />
	</node>
	<node id="-235494" lat="59.4050583292" lon="8.98466111475">
		<tag k="name" v="Høymyrane" />
		<tag k="natural" v="wetland" />
		<tag k="ssr:stedsnr" v="268013" />
	</node>
	<node id="-236003" lat="59.4747500016" lon="8.95689722158">
		<tag k="name" v="Lislestulmyra" />
		<tag k="natural" v="wetland" />
		<tag k="ssr:stedsnr" v="696649" />
	</node>
	<node id="-234978" lat="59.460588892" lon="9.11246944074">
		<tag k="name" v="Baronskogen" />
		<tag k="place" v="locality" />
		<tag k="ssr:stedsnr" v="390272" />
	</node>
	<node id="-234977" lat="59.4453416683" lon="9.09014722912">
		<tag k="landuse" v="quarry" />
		<tag k="name" v="Sjåberggruva" />
		<tag k="ssr:stedsnr" v="390267" />
	</node>
	<node id="-235479" lat="59.4587444444" lon="9.08700278483">
		<tag k="name" v="Viermyra" />
		<tag k="natural" v="wetland" />
		<tag k="ssr:stedsnr" v="245482" />
	</node>
	<node id="-234961" lat="59.4826944407" lon="9.10346667377">
		<tag k="name" v="Fetjønnslåttune" />
		<tag k="place" v="locality" />
		<tag k="ssr:stedsnr" v="389493" />
	</node>
	<node id="-235984" lat="59.4516694409" lon="9.0140555514">
		<tag k="name" v="Kolmyra" />
		<tag k="natural" v="wetland" />
		<tag k="ssr:stedsnr" v="695053" />
	</node>
	<node id="-235466" lat="59.4394527804" lon="8.88182499182">
		<tag k="name" v="Tussejordet" />
		<tag k="place" v="locality" />
		<tag k="ssr:stedsnr" v="210902" />
	</node>
	<node id="-235463" lat="59.4340861076" lon="8.97907500769">
		<tag k="name" v="Hestesvea" />
		<tag k="place" v="locality" />
		<tag k="ssr:stedsnr" v="210869" />
	</node>
	<node id="-235460" lat="59.4258111152" lon="8.93761665939">
		<tag k="name" v="Blåkollmyra" />
		<tag k="natural" v="wetland" />
		<tag k="ssr:stedsnr" v="210807" />
	</node>
	<node id="-236187" lat="59.4589499972" lon="8.99493332641">
		<tag k="name" v="Åkroken" />
		<tag k="place" v="locality" />
		<tag k="ssr:stedsnr" v="817102" />
	</node>
	<node id="-235447" lat="59.4536888891" lon="9.13101388741">
		<tag k="name" v="Halvfarsmyra" />
		<tag k="natural" v="wetland" />
		<tag k="ssr:stedsnr" v="208930" />
	</node>
	<node id="-235443" lat="59.4053277817" lon="9.09754167251">
		<tag k="landuse" v="quarry" />
		<tag k="name" v="Liaskotet" />
		<tag k="ssr:stedsnr" v="208669" />
	</node>
	<node id="-235953" lat="59.3732527757" lon="8.99027499835">
		<tag k="name" v="Smiumyrane" />
		<tag k="natural" v="wetland" />
		<tag k="ssr:stedsnr" v="693462" />
	</node>
	<node id="-235947" lat="59.4105777744" lon="9.03383333215">
		<tag k="name" v="Geitekåsa" />
		<tag k="place" v="locality" />
		<tag k="ssr:stedsnr" v="693299" />
	</node>
	<node id="-235434" lat="59.4800611105" lon="9.07013055108">
		<tag k="name" v="Tønsberg" />
		<tag k="place" v="locality" />
		<tag k="ssr:stedsnr" v="208476" />
	</node>
	<node id="-235432" lat="59.3942527781" lon="9.08056944237">
		<tag k="name" v="Bjønnemyr" />
		<tag k="natural" v="wetland" />
		<tag k="ssr:stedsnr" v="208423" />
	</node>
	<node id="-235425" lat="59.4114361088" lon="8.95277500057">
		<tag k="name" v="Tallaksekrune" />
		<tag k="place" v="locality" />
		<tag k="ssr:stedsnr" v="208057" />
	</node>
	<node id="-234910" lat="59.480938889" lon="8.94780555491">
		<tag k="name" v="Bjønnehisteinen" />
		<tag k="natural" v="stone" />
		<tag k="ssr:stedsnr" v="331991" />
	</node>
	<node id="-234906" lat="59.4364444466" lon="8.97766944424">
		<tag k="name" v="Svartsvea" />
		<tag k="place" v="locality" />
		<tag k="ssr:stedsnr" v="331865" />
	</node>
	<node id="-234884" lat="59.3965999996" lon="9.09454166244">
		<tag k="name" v="Storemyr" />
		<tag k="natural" v="wetland" />
		<tag k="ssr:stedsnr" v="330405" />
	</node>
	<node id="-236409" lat="59.4725333347" lon="8.93559999631">
		<tag k="name" v="Røksmyr" />
		<tag k="natural" v="wetland" />
		<tag k="ssr:stedsnr" v="938910" />
	</node>
	<node id="-235895" lat="59.4294388849" lon="8.89505277204">
		<tag k="name" v="Rønningen" />
		<tag k="place" v="locality" />
		<tag k="ssr:stedsnr" v="634826" />
	</node>
	<node id="-235380" lat="59.5103499966" lon="9.08022500096">
		<tag k="name" v="Hestmyrholet" />
		<tag k="natural" v="wetland" />
		<tag k="ssr:stedsnr" v="268733" />
	</node>
	<node id="-236403" lat="59.4230999965" lon="8.90896111852">
		<tag k="name" v="Høljarura" />
		<tag k="natural" v="scree" />
		<tag k="ssr:stedsnr" v="938792" />
	</node>
	<node id="-235887" lat="59.3634000017" lon="8.90579443607">
		<tag k="name" v="Treskomyra" />
		<tag k="natural" v="wetland" />
		<tag k="ssr:stedsnr" v="634038" />
	</node>
	<node id="-236396" lat="59.4463222258" lon="8.95419722389">
		<tag k="name" v="Sveune" />
		<tag k="place" v="locality" />
		<tag k="ssr:stedsnr" v="938068" />
	</node>
	<node id="-235881" lat="59.3847583339" lon="9.05009444677">
		<tag k="name" v="Eikjakåsine" />
		<tag k="place" v="locality" />
		<tag k="ssr:stedsnr" v="633370" />
	</node>
	<node id="-236391" lat="59.485336108" lon="9.11432499558">
		<tag k="name" v="Stasmyra" />
		<tag k="natural" v="wetland" />
		<tag k="ssr:stedsnr" v="937530" />
	</node>
	<node id="-234854" lat="59.3683972213" lon="8.97627777447">
		<tag k="name" v="Gygrestolura" />
		<tag k="natural" v="scree" />
		<tag k="ssr:stedsnr" v="329443" />
	</node>
	<node id="-235364" lat="59.4615472225" lon="8.91376943862">
		<tag k="name" v="Klokkesteinmyrane" />
		<tag k="natural" v="wetland" />
		<tag k="old_name" v="Klokkesteimyrane" />
		<tag k="ssr:stedsnr" v="149966" />
	</node>
	<node id="-235359" lat="59.4241277821" lon="8.88940555832">
		<tag k="name" v="Hestehegna" />
		<tag k="place" v="locality" />
		<tag k="ssr:stedsnr" v="149848" />
	</node>
	<node id="-235358" lat="59.4267055562" lon="8.99133332602">
		<tag k="landuse" v="quarry" />
		<tag k="name" v="Vreimsgruva" />
		<tag k="ssr:stedsnr" v="149844" />
	</node>
	<node id="-235353" lat="59.4289611092" lon="8.89768888948">
		<tag k="name" v="Hestemyra" />
		<tag k="natural" v="wetland" />
		<tag k="ssr:stedsnr" v="149816" />
	</node>
	<node id="-235349" lat="59.5021944434" lon="9.06024444724">
		<tag k="name" v="Diplemyr" />
		<tag k="natural" v="wetland" />
		<tag k="ssr:stedsnr" v="149522" />
	</node>
	<node id="-236370" lat="59.4001361111" lon="9.07794443807">
		<tag k="name" v="Skogsmyr" />
		<tag k="natural" v="wetland" />
		<tag k="ssr:stedsnr" v="936658" />
	</node>
	<node id="-235857" lat="59.3776944466" lon="8.96055277358">
		<tag k="name" v="Uvdalsfekjane" />
		<tag k="natural" v="wetland" />
		<tag k="ssr:stedsnr" v="632459" />
	</node>
	<node id="-235337" lat="59.400283332" lon="9.06180278216">
		<tag k="name" v="Håsårud" />
		<tag k="place" v="locality" />
		<tag k="ssr:stedsnr" v="147664" />
	</node>
	<node id="-235335" lat="59.4394305545" lon="9.02038889207">
		<tag k="name" v="Husjordet" />
		<tag k="place" v="locality" />
		<tag k="ssr:stedsnr" v="147582" />
	</node>
	<node id="-236356" lat="59.3716813601" lon="9.01788302997">
		<tag k="name" v="Hurrongskogen" />
		<tag k="place" v="locality" />
		<tag k="ssr:stedsnr" v="936397" />
	</node>
	<node id="-235843" lat="59.3789805527" lon="8.95821666781">
		<tag k="name" v="Vesledalskåsa" />
		<tag k="place" v="locality" />
		<tag k="ssr:stedsnr" v="630097" />
	</node>
	<node id="-235327" lat="59.3915027783" lon="9.10601667049">
		<tag k="name" v="Åsmyra" />
		<tag k="natural" v="wetland" />
		<tag k="ssr:stedsnr" v="147385" />
	</node>
	<node id="-234808" lat="59.4625722257" lon="8.94748333994">
		<tag k="name" v="Standarholet" />
		<tag k="place" v="locality" />
		<tag k="ssr:stedsnr" v="271972" />
	</node>
	<node id="-235317" lat="59.4014694435" lon="8.91706388324">
		<tag k="name" v="Bjønnesteinen" />
		<tag k="natural" v="stone" />
		<tag k="ssr:stedsnr" v="147130" />
	</node>
	<node id="-235315" lat="59.4616527793" lon="8.95679722525">
		<tag k="name" v="Loppåsmyra" />
		<tag k="natural" v="wetland" />
		<tag k="ssr:stedsnr" v="147116" />
	</node>
	<node id="-234800" lat="59.4725361101" lon="8.98041111895">
		<tag k="name" v="Okslamyra" />
		<tag k="natural" v="wetland" />
		<tag k="ssr:stedsnr" v="271741" />
	</node>
	<node id="-235310" lat="59.4145888848" lon="8.97329166614">
		<tag k="name" v="Villmyrane" />
		<tag k="natural" v="wetland" />
		<tag k="ssr:stedsnr" v="147038" />
	</node>
	<node id="-235307" lat="59.4440472251" lon="9.00669721889">
		<tag k="name" v="Skyttarsteinen" />
		<tag k="natural" v="stone" />
		<tag k="ssr:stedsnr" v="147026" />
	</node>
	<node id="-235817" lat="59.4442249979" lon="9.10584721885">
		<tag k="name" v="Fuglmyrane" />
		<tag k="natural" v="wetland" />
		<tag k="ssr:stedsnr" v="608490" />
	</node>
	<node id="-234791" lat="59.4630333319" lon="9.03313888031">
		<tag k="name" v="Gapmyra" />
		<tag k="natural" v="wetland" />
		<tag k="ssr:stedsnr" v="270050" />
	</node>
	<node id="-235299" lat="59.410358331" lon="9.03978055953">
		<tag k="name" v="England" />
		<tag k="place" v="locality" />
		<tag k="ssr:stedsnr" v="146228" />
	</node>
	<node id="-234782" lat="59.4838944421" lon="9.06855000099">
		<tag k="name" v="Villan" />
		<tag k="place" v="locality" />
		<tag k="ssr:stedsnr" v="269482" />
	</node>
	<node id="-235805" lat="59.4557166674" lon="8.91946388636">
		<tag k="name" v="Langemyr" />
		<tag k="natural" v="wetland" />
		<tag k="ssr:stedsnr" v="574973" />
	</node>
	<node id="-235291" lat="59.3892222215" lon="8.9723805529">
		<tag k="name" v="Torvmyra" />
		<tag k="natural" v="wetland" />
		<tag k="ssr:stedsnr" v="145066" />
	</node>
	<node id="-235289" lat="59.3839194449" lon="8.96611111234">
		<tag k="name" v="Oremyra" />
		<tag k="natural" v="wetland" />
		<tag k="ssr:stedsnr" v="145059" />
	</node>
	<node id="-235280" lat="59.4794222256" lon="9.09113332569">
		<tag k="name" v="Jonsmyr" />
		<tag k="natural" v="wetland" />
		<tag k="ssr:stedsnr" v="123653" />
	</node>
	<node id="-234967" lat="59.4795472188" lon="9.14582222722">
		<tag k="historic" v="shieling" />
		<tag k="name" v="Solbjørkåsa" />
		<tag k="place" v="locality" />
		<tag k="ssr:stedsnr" v="389906" />
	</node>
	<node id="-235784" lat="59.4570000002" lon="8.95544999221">
		<tag k="name" v="Tromfossmyra" />
		<tag k="natural" v="wetland" />
		<tag k="ssr:stedsnr" v="574073" />
	</node>
	<node id="-235783" lat="59.3778833331" lon="8.90443333509">
		<tag k="name" v="Tustemyr" />
		<tag k="natural" v="wetland" />
		<tag k="ssr:stedsnr" v="574051" />
	</node>
	<node id="-235781" lat="59.3836249979" lon="8.91433888486">
		<tag k="name" v="Sillebrumyra" />
		<tag k="natural" v="wetland" />
		<tag k="ssr:stedsnr" v="574023" />
	</node>
	<node id="-235776" lat="59.4611638877" lon="9.04246945177">
		<tag k="name" v="Sveune" />
		<tag k="place" v="locality" />
		<tag k="ssr:stedsnr" v="573039" />
	</node>
	<node id="-235774" lat="59.5274361139" lon="9.01711944485">
		<tag k="name" v="Løkjintangane" />
		<tag k="natural" v="wetland" />
		<tag k="ssr:stedsnr" v="572641" />
	</node>
	<node id="-236281" lat="59.4763361144" lon="9.02585555363">
		<tag k="name" v="Merraholet" />
		<tag k="natural" v="wetland" />
		<tag k="ssr:stedsnr" v="878471" />
	</node>
	<node id="-236275" lat="59.3820583311" lon="8.93565832792">
		<tag k="name" v="Tømmermyr" />
		<tag k="natural" v="wetland" />
		<tag k="ssr:stedsnr" v="878004" />
	</node>
	<node id="-236274" lat="59.4303277757" lon="8.99248888852">
		<tag k="name" v="Sprengsmyr" />
		<tag k="natural" v="wetland" />
		<tag k="old_name" v="Spremgsmyr" />
		<tag k="ssr:stedsnr" v="877862" />
	</node>
	<node id="-235761" lat="59.4055249964" lon="8.93700555608">
		<tag k="name" v="Ronningkåsa" />
		<tag k="place" v="locality" />
		<tag k="ssr:stedsnr" v="572137" />
	</node>
	<node id="-235729" lat="59.4169611129" lon="8.98645555432">
		<tag k="name" v="Slåttun" />
		<tag k="place" v="locality" />
		<tag k="ssr:stedsnr" v="571038" />
	</node>
	<node id="-235742" lat="59.3774833313" lon="8.95141666209">
		<tag k="name" v="Solberg" />
		<tag k="place" v="locality" />
		<tag k="ssr:stedsnr" v="571452" />
	</node>
	<node id="-235739" lat="59.4413694465" lon="9.12198333097">
		<tag k="name" v="Skrubbemyra" />
		<tag k="natural" v="wetland" />
		<tag k="ssr:stedsnr" v="571261" />
	</node>
	<node id="-235733" lat="59.4099222191" lon="8.96035555646">
		<tag k="name" v="Sandfett" />
		<tag k="place" v="locality" />
		<tag k="ssr:stedsnr" v="571048" />
	</node>
	<node id="-236242" lat="59.4018638865" lon="9.09403611879">
		<tag k="landuse" v="quarry" />
		<tag k="name" v="Liaslåtta" />
		<tag k="ssr:stedsnr" v="875629" />
	</node>
	<node id="-235217" lat="59.382505553" lon="9.04500000319">
		<tag k="name" v="Havrekåsa" />
		<tag k="place" v="locality" />
		<tag k="ssr:stedsnr" v="87326" />
	</node>
	<node id="-235216" lat="59.4461694423" lon="9.10980000189">
		<tag k="name" v="Spissbordet" />
		<tag k="natural" v="stone" />
		<tag k="ssr:stedsnr" v="87258" />
	</node>
	<node id="-235213" lat="59.4166333318" lon="8.96119166621">
		<tag k="name" v="Steinkåsa" />
		<tag k="place" v="locality" />
		<tag k="ssr:stedsnr" v="87046" />
	</node>
	<node id="-236230" lat="59.4585083349" lon="8.96161388744">
		<tag k="name" v="Kringlåsmyra" />
		<tag k="natural" v="wetland" />
		<tag k="ssr:stedsnr" v="875091" />
	</node>
	<node id="-235202" lat="59.5110055526" lon="9.07319166361">
		<tag k="name" v="Røytebutangane" />
		<tag k="natural" v="wetland" />
		<tag k="ssr:stedsnr" v="86732" />
	</node>
	<node id="-235198" lat="59.408224997" lon="9.07780832546">
		<tag k="name" v="Lofthus" />
		<tag k="place" v="locality" />
		<tag k="ssr:stedsnr" v="86645" />
	</node>
	<node id="-236221" lat="59.3849388873" lon="8.98867222632">
		<tag k="name" v="Saltgravsmyra" />
		<tag k="natural" v="wetland" />
		<tag k="ssr:stedsnr" v="874099" />
	</node>
	<node id="-235698" lat="59.4589888874" lon="8.92660277711">
		<tag k="name" v="Rullemyra" />
		<tag k="natural" v="wetland" />
		<tag k="ssr:stedsnr" v="513976" />
	</node>
	<node id="-235379" lat="59.4142833376" lon="9.11113055783">
		<tag k="name" v="Slåttebakken" />
		<tag k="place" v="locality" />
		<tag k="ssr:stedsnr" v="268706" />
	</node>
	<node id="-235183" lat="59.3831083323" lon="8.9887277716">
		<tag k="name" v="Steinkrossen" />
		<tag k="natural" v="stone" />
		<tag k="ssr:stedsnr" v="85057" />
	</node>
	<node id="-235181" lat="59.3827749992" lon="8.95891389504">
		<tag k="name" v="Mørkedokk" />
		<tag k="place" v="locality" />
		<tag k="ssr:stedsnr" v="85046" />
	</node>
	<node id="-235688" lat="59.4455638874" lon="8.91040000086">
		<tag k="name" v="Blåsteinmyra" />
		<tag k="natural" v="wetland" />
		<tag k="ssr:stedsnr" v="513836" />
	</node>
	<node id="-234787" lat="59.4380555571" lon="9.02090833186">
		<tag k="name" v="Liåsen" />
		<tag k="place" v="locality" />
		<tag k="ssr:stedsnr" v="269625" />
	</node>
	<node id="-236186" lat="59.4579722184" lon="8.97733332798">
		<tag k="name" v="Høystulmyra" />
		<tag k="natural" v="wetland" />
		<tag k="ssr:stedsnr" v="817098" />
	</node>
	<node id="-235161" lat="59.4413888851" lon="9.09914166152">
		<tag k="alt_name" v="Trandlemyrane" />
		<tag k="name" v="Trondlemyrane" />
		<tag k="natural" v="wetland" />
		<tag k="ssr:stedsnr" v="63487" />
	</node>
	<node id="-235146" lat="59.4449027812" lon="8.9231194483">
		<tag k="name" v="Vreimbumyra" />
		<tag k="natural" v="wetland" />
		<tag k="ssr:stedsnr" v="28848" />
	</node>
	<node id="-235145" lat="59.4271388873" lon="8.91571944914">
		<tag k="name" v="Sveune" />
		<tag k="place" v="locality" />
		<tag k="ssr:stedsnr" v="28826" />
	</node>
	<node id="-235654" lat="59.4975138888" lon="9.07499999743">
		<tag k="name" v="Storemyr" />
		<tag k="natural" v="wetland" />
		<tag k="ssr:stedsnr" v="511547" />
	</node>
	<node id="-235651" lat="59.3773222194" lon="8.97608056229">
		<tag k="name" v="Øymyrane" />
		<tag k="natural" v="wetland" />
		<tag k="ssr:stedsnr" v="511444" />
	</node>
	<node id="-235650" lat="59.3764500028" lon="9.04926389679">
		<tag k="name" v="Kåsin" />
		<tag k="place" v="locality" />
		<tag k="ssr:stedsnr" v="511407" />
	</node>
	<node id="-235649" lat="59.4123055578" lon="9.03666389208">
		<tag k="name" v="Brattsberg" />
		<tag k="place" v="locality" />
		<tag k="ssr:stedsnr" v="511262" />
	</node>
	<node id="-235133" lat="59.4278666693" lon="8.95415833768">
		<tag k="name" v="Magrettesmyr" />
		<tag k="natural" v="wetland" />
		<tag k="ssr:stedsnr" v="27851" />
	</node>
	<node id="-235125" lat="59.4158333307" lon="9.11841945302">
		<tag k="name" v="Hauglandkåsin" />
		<tag k="place" v="locality" />
		<tag k="ssr:stedsnr" v="26942" />
	</node>
	<node id="-235879" lat="59.396633332" lon="9.05430278123">
		<tag k="name" v="Klokkarflåta" />
		<tag k="place" v="locality" />
		<tag k="ssr:stedsnr" v="633323" />
	</node>
	<node id="-235112" lat="59.3729000001" lon="8.96729722392">
		<tag k="name" v="Diplemyr" />
		<tag k="natural" v="wetland" />
		<tag k="ssr:stedsnr" v="26468" />
	</node>
	<node id="-235101" lat="59.4064999978" lon="8.9007666747">
		<tag k="name" v="Gravdalsmyra" />
		<tag k="natural" v="wetland" />
		<tag k="ssr:stedsnr" v="26145" />
	</node>
	<node id="-235609" lat="59.4537805534" lon="8.92750832972">
		<tag k="name" v="Langemyrleiken" />
		<tag k="natural" v="wetland" />
		<tag k="ssr:stedsnr" v="453955" />
	</node>
	<node id="-235096" lat="59.4403611067" lon="9.11612778382">
		<tag k="name" v="Øygardsmyra" />
		<tag k="natural" v="wetland" />
		<tag k="ssr:stedsnr" v="26041" />
	</node>
	<node id="-235607" lat="59.4687638871" lon="8.9419944523">
		<tag k="name" v="Gråur" />
		<tag k="natural" v="scree" />
		<tag k="ssr:stedsnr" v="453905" />
	</node>
	<node id="-235597" lat="59.372658337" lon="8.86433610686">
		<tag k="name" v="Ormesteinen" />
		<tag k="natural" v="stone" />
		<tag k="ssr:stedsnr" v="453264" />
	</node>
	<node id="-235596" lat="59.45550833" lon="8.9974972161">
		<tag k="name" v="Fjordungsteinen" />
		<tag k="natural" v="stone" />
		<tag k="ssr:stedsnr" v="453102" />
	</node>
	<node id="-235594" lat="59.4497527785" lon="8.98625278528">
		<tag k="name" v="Kremtemyrane" />
		<tag k="natural" v="wetland" />
		<tag k="ssr:stedsnr" v="453086" />
	</node>
	<node id="-235080" lat="59.3833111073" lon="8.88948888386">
		<tag k="name" v="Tovsonmyra" />
		<tag k="natural" v="wetland" />
		<tag k="ssr:stedsnr" v="24134" />
	</node>
	<node id="-235587" lat="59.4235527756" lon="8.96585554849">
		<tag k="name" v="Varegarden" />
		<tag k="place" v="locality" />
		<tag k="ssr:stedsnr" v="452847" />
	</node>
	<node id="-235060" lat="59.4490222186" lon="8.94615555284">
		<tag k="name" v="Sveune" />
		<tag k="place" v="locality" />
		<tag k="ssr:stedsnr" v="2510" />
	</node>
	<node id="-234846" lat="59.4474333338" lon="9.03911388403">
		<tag k="name" v="Løyningen" />
		<tag k="place" v="locality" />
		<tag k="ssr:stedsnr" v="329047" />
	</node>
	<node id="-235056" lat="59.4606416623" lon="8.93123333077">
		<tag k="name" v="Stavsholtmyrane" />
		<tag k="natural" v="wetland" />
		<tag k="ssr:stedsnr" v="2494" />
	</node>
	<node id="-235561" lat="59.4612777821" lon="9.07283888367">
		<tag k="name" v="Steinsvollsmyrane" />
		<tag k="natural" v="wetland" />
		<tag k="ssr:stedsnr" v="451302" />
	</node>
	<node id="-235697" lat="59.4537166646" lon="8.93407778126">
		<tag k="name" v="Tjønnfly" />
		<tag k="natural" v="wetland" />
		<tag k="ssr:stedsnr" v="513953" />
	</node>
	<node id="-235033" lat="59.4893238063" lon="9.0498883075">
		<tag k="name" v="Øverland skog" />
		<tag k="place" v="locality" />
		<tag k="ssr:stedsnr" v="983032" />
	</node>
	<node id="-235012" lat="59.4343666634" lon="8.89038611582">
		<tag k="name" v="Milebråtane" />
		<tag k="place" v="locality" />
		<tag k="ssr:stedsnr" v="392910" />
	</node>
	<node id="-236049" lat="59.4747722248" lon="9.16095832776">
		<tag k="name" v="Krigstjønn" />
		<tag k="natural" v="wetland" />
		<tag k="ssr:stedsnr" v="753899" />
	</node>
	<node id="-236046" lat="59.4363638863" lon="9.01449721761">
		<tag k="name" v="Vakkermyr" />
		<tag k="natural" v="wetland" />
		<tag k="ssr:stedsnr" v="753467" />
	</node>
	<node id="-236039" lat="59.4094666675" lon="9.03335277002">
		<tag k="name" v="Huldrejordet" />
		<tag k="place" v="locality" />
		<tag k="ssr:stedsnr" v="753201" />
	</node>
	<node id="-236037" lat="59.3814861082" lon="8.9619888924">
		<tag k="name" v="Langedalsmyra" />
		<tag k="natural" v="wetland" />
		<tag k="ssr:stedsnr" v="752078" />
	</node>
	<node id="-236036" lat="59.3852027804" lon="8.97822221351">
		<tag k="name" v="Rakkeholune" />
		<tag k="natural" v="wetland" />
		<tag k="ssr:stedsnr" v="752058" />
	</node>
</osm>
