<?xml version="1.0" encoding="UTF-8"?>
<osm generator="osmapis" version="0.6">
	<node id="-235230" lat="59.468524997" lon="9.07069166973">
		<tag k="historic" v="boundary_stone" />
		<tag k="man_made" v="cairn" />
		<tag k="name" v="Jokkomsteinen" />
		<tag k="place" v="locality" />
		<tag k="ssr:stedsnr" v="451420" />
	</node>
	<node id="-235836" lat="59.4814833349" lon="8.97266111864">
		<tag k="historic" v="boundary_stone" />
		<tag k="man_made" v="cairn" />
		<tag k="name" v="Tørrstein" />
		<tag k="place" v="locality" />
		<tag k="ssr:stedsnr" v="816694" />
	</node>
	<node id="-235227" lat="59.3918555537" lon="9.02385000687">
		<tag k="historic" v="boundary_stone" />
		<tag k="man_made" v="cairn" />
		<tag k="name" v="Måsåberget" />
		<tag k="place" v="locality" />
		<tag k="ssr:stedsnr" v="451335" />
	</node>
	<node id="-234447" lat="59.5144361146" lon="9.04326665847">
		<tag k="historic" v="boundary_stone" />
		<tag k="man_made" v="cairn" />
		<tag k="name" v="Lutekvisten" />
		<tag k="place" v="locality" />
		<tag k="ssr:stedsnr" v="269583" />
	</node>
	<node id="-235664" lat="59.4681555534" lon="8.97257221922">
		<tag k="historic" v="boundary_stone" />
		<tag k="man_made" v="cairn" />
		<tag k="name" v="Bakkestein" />
		<tag k="place" v="locality" />
		<tag k="ssr:stedsnr" v="696678" />
	</node>
	<node id="-234671" lat="59.4302111071" lon="8.88523054863">
		<tag k="fixme" v="specify shooting=range, clay_pigeon etc" />
		<tag k="leisure" v="pitch" />
		<tag k="name" v="Øvre Bø skyttarbane" />
		<tag k="sport" v="shooting" />
		<tag k="ssr:stedsnr" v="392867" />
	</node>
	<node id="-235564" lat="59.4815805559" lon="9.13404443718">
		<tag k="historic" v="boundary_stone" />
		<tag k="man_made" v="cairn" />
		<tag k="name" v="Glimmerdelet" />
		<tag k="place" v="locality" />
		<tag k="ssr:stedsnr" v="634922" />
	</node>
	<node id="-234632" lat="59.4573138854" lon="9.13931111466">
		<tag k="historic" v="boundary_stone" />
		<tag k="man_made" v="cairn" />
		<tag k="name" v="Bandfestet" />
		<tag k="place" v="locality" />
		<tag k="ssr:stedsnr" v="389928" />
	</node>
	<node id="-234502" lat="59.3896944481" lon="8.99340277907">
		<tag k="historic" v="boundary_stone" />
		<tag k="man_made" v="cairn" />
		<tag k="name" v="Steinbåten" />
		<tag k="place" v="locality" />
		<tag k="ssr:stedsnr" v="327068" />
	</node>
	<node id="-235557" lat="59.446030558" lon="8.91000276974">
		<tag k="historic" v="boundary_stone" />
		<tag k="man_made" v="cairn" />
		<tag k="name" v="Blåstein" />
		<tag k="place" v="locality" />
		<tag k="ssr:stedsnr" v="634842" />
	</node>
	<node id="-235428" lat="59.3987222246" lon="9.02748055744">
		<tag k="fixme" v="specify shooting=range, clay_pigeon etc" />
		<tag k="leisure" v="pitch" />
		<tag k="name" v="Skyttarbanen" />
		<tag k="sport" v="shooting" />
		<tag k="ssr:stedsnr" v="572321" />
	</node>
</osm>
