<?xml version="1.0" encoding="UTF-8"?>
<osm generator="osmapis" version="0.6">
	<node id="-235518" lat="59.4514666697" lon="9.05049444758">
		<tag k="name" v="Dalen" />
		<tag k="place" v="farm" />
		<tag k="ssr:stedsnr" v="427468" />
	</node>
	<node id="-235517" lat="59.44854444" lon="9.11353610827">
		<tag k="name" v="Åsen" />
		<tag k="place" v="isolated_dwelling" />
		<tag k="ssr:stedsnr" v="427466" />
	</node>
	<node id="-235516" lat="59.4474027746" lon="9.11851944564">
		<tag k="name" v="Ralle" />
		<tag k="place" v="farm" />
		<tag k="ssr:stedsnr" v="427463" />
	</node>
	<node id="-235515" lat="59.4268674535" lon="9.05865067825">
		<tag k="name" v="Sisjord" />
		<tag k="place" v="farm" />
		<tag k="ssr:stedsnr" v="427438" />
	</node>
	<node id="-235514" lat="59.4311916698" lon="9.0703472217">
		<tag k="fixme" v="consider place=hamlet" />
		<tag k="name" v="Folkestad" />
		<tag k="place" v="farm" />
		<tag k="ssr:stedsnr" v="427435" />
	</node>
	<node id="-235513" lat="59.4345944402" lon="9.11831388758">
		<tag k="alt_name" v="Askildtrud" />
		<tag k="fixme" v="consider place=hamlet" />
		<tag k="name" v="Askiltrud" />
		<tag k="place" v="farm" />
		<tag k="ssr:stedsnr" v="427424" />
	</node>
	<node id="-235511" lat="59.402972218" lon="8.9551861091">
		<tag k="alt_name" v="Gravajordet" />
		<tag k="fixme" v="consider place=hamlet" />
		<tag k="name" v="Gravjord" />
		<tag k="place" v="farm" />
		<tag k="ssr:stedsnr" v="427393" />
	</node>
	<node id="-235510" lat="59.3997138921" lon="8.89571667107">
		<tag k="name" v="Slåtta" />
		<tag k="place" v="isolated_dwelling" />
		<tag k="ssr:stedsnr" v="427387" />
	</node>
	<node id="-235509" lat="59.4096083342" lon="9.1160138841">
		<tag k="name" v="Nymoen" />
		<tag k="place" v="farm" />
		<tag k="ssr:stedsnr" v="427377" />
	</node>
	<node id="-235507" lat="59.3799555577" lon="9.00464721744">
		<tag k="name" v="Kåsa" />
		<tag k="place" v="farm" />
		<tag k="ssr:stedsnr" v="427355" />
	</node>
	<node id="-235504" lat="59.3634666687" lon="9.0114694416">
		<tag k="name" v="Hurrongen" />
		<tag k="place" v="locality" />
		<tag k="ssr:stedsnr" v="427340" />
	</node>
	<node id="-235503" lat="59.3691499965" lon="8.88379166667">
		<tag k="alt_name" v="Bakkjerr" />
		<tag k="name" v="Bakkjer" />
		<tag k="place" v="locality" />
		<tag k="ssr:stedsnr" v="427310" />
	</node>
	<node id="-235498" lat="59.4277583293" lon="9.1254249972">
		<tag k="name" v="Fosstveit" />
		<tag k="place" v="farm" />
		<tag k="ssr:stedsnr" v="268278" />
	</node>
	<node id="-235495" lat="59.4136027773" lon="8.99858332539">
		<tag k="name" v="Forberg" />
		<tag k="place" v="farm" />
		<tag k="ssr:stedsnr" v="268039" />
	</node>
	<node id="-235493" lat="59.4064611108" lon="8.97218334031">
		<tag k="name" v="Liabakken" />
		<tag k="place" v="isolated_dwelling" />
		<tag k="ssr:stedsnr" v="268012" />
	</node>
	<node id="-235491" lat="59.3824027763" lon="9.05791110783">
		<tag k="name" v="Myre" />
		<tag k="place" v="farm" />
		<tag k="ssr:stedsnr" v="266503" />
	</node>
	<node id="-235487" lat="59.5030805555" lon="9.09498055557">
		<tag k="fixme" v="consider place=hamlet" />
		<tag k="name" v="Jørgedal" />
		<tag k="place" v="farm" />
		<tag k="ssr:stedsnr" v="246429" />
	</node>
	<node id="-235486" lat="59.5010333295" lon="9.14181666078">
		<tag k="fixme" v="consider place=hamlet" />
		<tag k="name" v="Engene" />
		<tag k="place" v="farm" />
		<tag k="ssr:stedsnr" v="246427" />
	</node>
	<node id="-235484" lat="59.4791944464" lon="9.04288611765">
		<tag k="alt_name" v="Bråtan" />
		<tag k="name" v="Bråten" />
		<tag k="place" v="farm" />
		<tag k="ssr:stedsnr" v="245582" />
	</node>
	<node id="-235481" lat="59.49257778" lon="9.02686944261">
		<tag k="name" v="Grøbuskora" />
		<tag k="place" v="locality" />
		<tag k="ssr:stedsnr" v="245563" />
	</node>
	<node id="-235480" lat="59.4981861125" lon="9.09205277419">
		<tag k="name" v="Dalen" />
		<tag k="place" v="farm" />
		<tag k="ssr:stedsnr" v="245556" />
	</node>
	<node id="-235478" lat="59.5213583337" lon="9.12891388233">
		<tag k="name" v="Brennekåsa" />
		<tag k="place" v="farm" />
		<tag k="ssr:stedsnr" v="245458" />
	</node>
	<node id="-235477" lat="59.4601500001" lon="8.96980555294">
		<tag k="name" v="Høystul" />
		<tag k="place" v="locality" />
		<tag k="ssr:stedsnr" v="245453" />
	</node>
	<node id="-235476" lat="59.4428749997" lon="9.07645278366">
		<tag k="name" v="Moen" />
		<tag k="place" v="isolated_dwelling" />
		<tag k="ssr:stedsnr" v="245446" />
	</node>
	<node id="-235475" lat="59.4336027741" lon="9.12883056041">
		<tag k="alt_name" v="Askildt" />
		<tag k="fixme" v="consider place=hamlet" />
		<tag k="name" v="Askilt" />
		<tag k="place" v="farm" />
		<tag k="ssr:stedsnr" v="245391" />
	</node>
	<node id="-235474" lat="59.409400003" lon="9.01936944951">
		<tag k="name" v="Berge" />
		<tag k="place" v="farm" />
		<tag k="ssr:stedsnr" v="245377" />
	</node>
	<node id="-235472" lat="59.4134666668" lon="8.96277777287">
		<tag k="name" v="Hegna" />
		<tag k="place" v="farm" />
		<tag k="ssr:stedsnr" v="245361" />
	</node>
	<node id="-235465" lat="59.4398416705" lon="8.87418055423">
		<tag k="name" v="Mastedalen" />
		<tag k="place" v="isolated_dwelling" />
		<tag k="ssr:stedsnr" v="210898" />
	</node>
	<node id="-235464" lat="59.4328472243" lon="8.9689388941">
		<tag k="name" v="Ånto" />
		<tag k="place" v="locality" />
		<tag k="ssr:stedsnr" v="210871" />
	</node>
	<node id="-235456" lat="59.454944441" lon="8.97357777474">
		<tag k="name" v="Lavransstul" />
		<tag k="place" v="locality" />
		<tag k="ssr:stedsnr" v="210089" />
	</node>
	<node id="-235453" lat="59.4561388884" lon="9.05094166268">
		<tag k="name" v="Lunden" />
		<tag k="place" v="farm" />
		<tag k="ssr:stedsnr" v="210054" />
	</node>
	<node id="-235451" lat="59.4887361146" lon="8.94650556218">
		<tag k="name" v="Stulsroe" />
		<tag k="place" v="locality" />
		<tag k="ssr:stedsnr" v="209916" />
	</node>
	<node id="-235449" lat="59.4113888908" lon="8.9191555533">
		<tag k="name" v="Lovald" />
		<tag k="place" v="farm" />
		<tag k="ssr:stedsnr" v="209109" />
	</node>
	<node id="-235445" lat="59.4182472235" lon="9.11063332488">
		<tag k="fixme" v="consider place=hamlet" />
		<tag k="name" v="Haugland" />
		<tag k="place" v="farm" />
		<tag k="ssr:stedsnr" v="208768" />
	</node>
	<node id="-235442" lat="59.4333777812" lon="9.06089166005">
		<tag k="name" v="Solstad" />
		<tag k="place" v="farm" />
		<tag k="ssr:stedsnr" v="208598" />
	</node>
	<node id="-235441" lat="59.4375972182" lon="9.03556388285">
		<tag k="name" v="Dikene" />
		<tag k="place" v="locality" />
		<tag k="ssr:stedsnr" v="208589" />
	</node>
	<node id="-235436" lat="59.4296888912" lon="9.04288333704">
		<tag k="fixme" v="consider place=hamlet" />
		<tag k="name" v="Oterholt" />
		<tag k="place" v="farm" />
		<tag k="ssr:stedsnr" v="208569" />
	</node>
	<node id="-235435" lat="59.5098222178" lon="9.02857222914">
		<tag k="name" v="Nord-Årmot" />
		<tag k="place" v="locality" />
		<tag k="ssr:stedsnr" v="208562" />
	</node>
	<node id="-235433" lat="59.4770472248" lon="9.06463610893">
		<tag k="name" v="Langerud" />
		<tag k="place" v="isolated_dwelling" />
		<tag k="ssr:stedsnr" v="208473" />
	</node>
	<node id="-235429" lat="59.3858861093" lon="9.03683055086">
		<tag k="amenity" v="school" />
		<tag k="name" v="Breskhaug" />
		<tag k="ssr:stedsnr" v="208325" />
	</node>
	<node id="-235426" lat="59.4227472183" lon="9.10005555409">
		<tag k="name" v="Vestgarden" />
		<tag k="place" v="farm" />
		<tag k="ssr:stedsnr" v="208232" />
	</node>
	<node id="-235424" lat="59.4133083341" lon="8.95178333978">
		<tag k="fixme" v="consider place=hamlet" />
		<tag k="name" v="Erikstein" />
		<tag k="place" v="farm" />
		<tag k="ssr:stedsnr" v="208055" />
	</node>
	<node id="-235423" lat="59.4379000019" lon="9.07478332502">
		<tag k="name" v="Tjyruberget" />
		<tag k="place" v="farm" />
		<tag k="ssr:stedsnr" v="208046" />
	</node>
	<node id="-235422" lat="59.4159583325" lon="8.96403333169">
		<tag k="name" v="Nyhus" />
		<tag k="place" v="farm" />
		<tag k="ssr:stedsnr" v="208044" />
	</node>
	<node id="-235421" lat="59.4448527763" lon="9.0194583254">
		<tag k="name" v="Innleggen" />
		<tag k="place" v="farm" />
		<tag k="ssr:stedsnr" v="208026" />
	</node>
	<node id="-235420" lat="59.4136444478" lon="9.10014445317">
		<tag k="fixme" v="consider place=hamlet" />
		<tag k="name" v="Roteberg" />
		<tag k="place" v="farm" />
		<tag k="ssr:stedsnr" v="207686" />
	</node>
	<node id="-235419" lat="59.4928305574" lon="9.07811944695">
		<tag k="name" v="Hyfsopp" />
		<tag k="place" v="locality" />
		<tag k="ssr:stedsnr" v="207543" />
	</node>
	<node id="-235417" lat="59.4406833323" lon="9.01017778192">
		<tag k="name" v="Rugkåsa" />
		<tag k="place" v="locality" />
		<tag k="ssr:stedsnr" v="207494" />
	</node>
	<node id="-235415" lat="59.4305007743" lon="9.00947415143">
		<tag k="fixme" v="consider place=hamlet" />
		<tag k="name" v="Furuvoll" />
		<tag k="place" v="farm" />
		<tag k="ssr:stedsnr" v="207492" />
	</node>
	<node id="-235414" lat="59.4160250019" lon="9.0063944399">
		<tag k="name" v="Forberg" />
		<tag k="place" v="farm" />
		<tag k="ssr:stedsnr" v="207476" />
	</node>
	<node id="-235413" lat="59.4162472195" lon="9.04873611865">
		<tag k="name" v="Hegna" />
		<tag k="place" v="farm" />
		<tag k="ssr:stedsnr" v="207469" />
	</node>
	<node id="-235412" lat="59.4203727186" lon="9.05432619516">
		<tag k="name" v="Kamperhaug" />
		<tag k="place" v="farm" />
		<tag k="ssr:stedsnr" v="207466" />
	</node>
	<node id="-235410" lat="59.4284361086" lon="9.11181945192">
		<tag k="name" v="Tjyrukåsa" />
		<tag k="place" v="locality" />
		<tag k="ssr:stedsnr" v="207219" />
	</node>
	<node id="-235407" lat="59.5068083378" lon="9.03720277599">
		<tag k="historic" v="shieling" />
		<tag k="name" v="Årmot" />
		<tag k="place" v="locality" />
		<tag k="ssr:stedsnr" v="185428" />
	</node>
	<node id="-235406" lat="59.4191805574" lon="9.11359444602">
		<tag k="name" v="Bøen" />
		<tag k="place" v="farm" />
		<tag k="ssr:stedsnr" v="185373" />
	</node>
	<node id="-235404" lat="59.4910083314" lon="9.13389722438">
		<tag k="name" v="Brånan" />
		<tag k="place" v="farm" />
		<tag k="ssr:stedsnr" v="184624" />
	</node>
	<node id="-235401" lat="59.4433083292" lon="9.12201944034">
		<tag k="name" v="Hestehegna" />
		<tag k="place" v="farm" />
		<tag k="ssr:stedsnr" v="184481" />
	</node>
	<node id="-235400" lat="59.4495444474" lon="9.03755276902">
		<tag k="alt_name" v="Raudkleiv" />
		<tag k="name" v="Raukleiv" />
		<tag k="place" v="farm" />
		<tag k="ssr:stedsnr" v="184469" />
	</node>
	<node id="-235398" lat="59.4193888921" lon="9.02193333134">
		<tag k="name" v="Nygård" />
		<tag k="place" v="farm" />
		<tag k="ssr:stedsnr" v="184451" />
	</node>
	<node id="-235396" lat="59.4924388914" lon="9.13334722649">
		<tag k="name" v="Kåsa" />
		<tag k="place" v="farm" />
		<tag k="ssr:stedsnr" v="184585" />
	</node>
	<node id="-235394" lat="59.4165083345" lon="8.89343054989">
		<tag k="fixme" v="consider place=hamlet" />
		<tag k="name" v="Øverbø" />
		<tag k="place" v="farm" />
		<tag k="ssr:stedsnr" v="184400" />
	</node>
	<node id="-235390" lat="59.3910361136" lon="8.92842777187">
		<tag k="name" v="Busil" />
		<tag k="place" v="isolated_dwelling" />
		<tag k="ssr:stedsnr" v="184313" />
	</node>
	<node id="-235388" lat="59.428341666" lon="9.05385000643">
		<tag k="name" v="Bakken" />
		<tag k="place" v="farm" />
		<tag k="ssr:stedsnr" v="184434" />
	</node>
	<node id="-235387" lat="59.4347361128" lon="9.08277221458">
		<tag k="name" v="Lia" />
		<tag k="place" v="farm" />
		<tag k="ssr:stedsnr" v="184431" />
	</node>
	<node id="-235386" lat="59.4317388877" lon="9.02195277859">
		<tag k="name" v="Myre" />
		<tag k="place" v="farm" />
		<tag k="ssr:stedsnr" v="184429" />
	</node>
	<node id="-235385" lat="59.4311888879" lon="9.0152638954">
		<tag k="name" v="Kåsa" />
		<tag k="place" v="farm" />
		<tag k="ssr:stedsnr" v="184425" />
	</node>
	<node id="-235378" lat="59.4121388927" lon="9.08824445068">
		<tag k="name" v="Sperrudstykket" />
		<tag k="place" v="farm" />
		<tag k="ssr:stedsnr" v="268668" />
	</node>
	<node id="-235377" lat="59.4102861105" lon="9.07339443615">
		<tag k="building" v="industrial" />
		<tag k="industrial" v="factory" />
		<tag k="name" v="Bø mølle" />
		<tag k="ssr:stedsnr" v="268666" />
	</node>
	<node id="-235376" lat="59.4076472214" lon="9.06813054919">
		<tag k="name" v="Flita" />
		<tag k="place" v="locality" />
		<tag k="ssr:stedsnr" v="268643" />
	</node>
	<node id="-235373" lat="59.4922333314" lon="9.1562194472">
		<tag k="name" v="Flugopp" />
		<tag k="place" v="locality" />
		<tag k="ssr:stedsnr" v="268579" />
	</node>
	<node id="-235371" lat="59.4270333321" lon="9.04987777141">
		<tag k="name" v="Langkås" />
		<tag k="place" v="farm" />
		<tag k="ssr:stedsnr" v="268576" />
	</node>
	<node id="-235367" lat="59.431688887" lon="9.02875277393">
		<tag k="name" v="Surtegro" />
		<tag k="place" v="locality" />
		<tag k="ssr:stedsnr" v="268550" />
	</node>
	<node id="-235360" lat="59.4249499969" lon="8.88363888141">
		<tag k="name" v="Raumyr" />
		<tag k="place" v="farm" />
		<tag k="ssr:stedsnr" v="149852" />
	</node>
	<node id="-235352" lat="59.4661833351" lon="8.99541389502">
		<tag k="name" v="Fønnstul" />
		<tag k="place" v="locality" />
		<tag k="ssr:stedsnr" v="149694" />
	</node>
	<node id="-235346" lat="59.3656027773" lon="8.92707499775">
		<tag k="name" v="Holmstul" />
		<tag k="place" v="locality" />
		<tag k="ssr:stedsnr" v="149037" />
	</node>
	<node id="-235344" lat="59.3894138894" lon="8.90123055371">
		<tag k="name" v="Langløyningen" />
		<tag k="place" v="locality" />
		<tag k="ssr:stedsnr" v="149016" />
	</node>
	<node id="-235336" lat="59.4066416691" lon="9.09855555232">
		<tag k="name" v="Lia" />
		<tag k="place" v="farm" />
		<tag k="ssr:stedsnr" v="147633" />
	</node>
	<node id="-235334" lat="59.4385972254" lon="9.03124722895">
		<tag k="name" v="Langemyr" />
		<tag k="place" v="farm" />
		<tag k="ssr:stedsnr" v="147578" />
	</node>
	<node id="-235330" lat="59.4321888913" lon="9.04893888481">
		<tag k="name" v="Sagamyra" />
		<tag k="place" v="farm" />
		<tag k="ssr:stedsnr" v="147540" />
	</node>
	<node id="-235328" lat="59.4807666701" lon="9.06410832749">
		<tag k="building" v="industrial" />
		<tag k="name" v="Åsesaga" />
		<tag k="ssr:stedsnr" v="147458" />
	</node>
	<node id="-235325" lat="59.4384083366" lon="9.12988611145">
		<tag k="name" v="Åbakken" />
		<tag k="place" v="locality" />
		<tag k="ssr:stedsnr" v="147288" />
	</node>
	<node id="-235322" lat="59.4060888919" lon="9.03946944816">
		<tag k="name" v="Moland" />
		<tag k="place" v="isolated_dwelling" />
		<tag k="ssr:stedsnr" v="147264" />
	</node>
	<node id="-235321" lat="59.4231638866" lon="9.07397221357">
		<tag k="name" v="Kåsa" />
		<tag k="place" v="locality" />
		<tag k="ssr:stedsnr" v="147229" />
	</node>
	<node id="-235320" lat="59.4227138894" lon="9.10637778287">
		<tag k="amenity" v="school" />
		<tag k="name" v="Valen skule" />
		<tag k="ssr:stedsnr" v="147220" />
	</node>
	<node id="-235319" lat="59.4208055572" lon="8.91056388468">
		<tag k="name" v="Soterud" />
		<tag k="place" v="farm" />
		<tag k="ssr:stedsnr" v="147158" />
	</node>
	<node id="-235318" lat="59.4191388895" lon="8.90717500175">
		<tag k="name" v="Langedrag" />
		<tag k="place" v="locality" />
		<tag k="ssr:stedsnr" v="147140" />
	</node>
	<node id="-235313" lat="59.4051138914" lon="8.93907499308">
		<tag k="name" v="Haugene" />
		<tag k="place" v="farm" />
		<tag k="ssr:stedsnr" v="147103" />
	</node>
	<node id="-235312" lat="59.4075027766" lon="8.96993054892">
		<tag k="fixme" v="consider place=hamlet" />
		<tag k="name" v="Skoe" />
		<tag k="place" v="farm" />
		<tag k="ssr:stedsnr" v="147050" />
	</node>
	<node id="-235309" lat="59.4165222244" lon="8.99791389295">
		<tag k="name" v="Forberg" />
		<tag k="place" v="farm" />
		<tag k="ssr:stedsnr" v="147034" />
	</node>
	<node id="-235305" lat="59.4132666673" lon="9.10503332505">
		<tag k="name" v="Slåttun" />
		<tag k="place" v="farm" />
		<tag k="ssr:stedsnr" v="146692" />
	</node>
	<node id="-235300" lat="59.4819305518" lon="9.08336666339">
		<tag k="name" v="Jonskåsine" />
		<tag k="place" v="locality" />
		<tag k="ssr:stedsnr" v="146421" />
	</node>
	<node id="-235298" lat="59.4305222262" lon="9.08486944798">
		<tag k="name" v="Blakåkerroa" />
		<tag k="place" v="farm" />
		<tag k="ssr:stedsnr" v="146216" />
	</node>
	<node id="-235292" lat="59.3894972238" lon="8.96949721515">
		<tag k="name" v="Kollen" />
		<tag k="place" v="locality" />
		<tag k="ssr:stedsnr" v="145069" />
	</node>
	<node id="-235288" lat="59.4161583336" lon="9.0157611176">
		<tag k="name" v="Forberg" />
		<tag k="place" v="farm" />
		<tag k="ssr:stedsnr" v="268514" />
	</node>
	<node id="-235287" lat="59.4177305536" lon="9.05209167064">
		<tag k="name" v="Lahus" />
		<tag k="place" v="farm" />
		<tag k="ssr:stedsnr" v="268504" />
	</node>
	<node id="-235286" lat="59.3866083378" lon="9.05692222111">
		<tag k="name" v="Myre" />
		<tag k="place" v="farm" />
		<tag k="ssr:stedsnr" v="268480" />
	</node>
	<node id="-235285" lat="59.5129722224" lon="9.07178056185">
		<tag k="name" v="Andersli" />
		<tag k="place" v="locality" />
		<tag k="ssr:stedsnr" v="124412" />
	</node>
	<node id="-235284" lat="59.5035611089" lon="9.13622221981">
		<tag k="alt_name" v="Bjørnemyr" />
		<tag k="name" v="Bjønnemyr" />
		<tag k="place" v="farm" />
		<tag k="ssr:stedsnr" v="124410" />
	</node>
	<node id="-235282" lat="59.3779111109" lon="9.01351111692">
		<tag k="name" v="Hegna" />
		<tag k="place" v="farm" />
		<tag k="ssr:stedsnr" v="124291" />
	</node>
	<node id="-235281" lat="59.480436111" lon="9.02427499556">
		<tag k="alt_name" v="Kikkut" />
		<tag k="name" v="Kikut" />
		<tag k="place" v="locality" />
		<tag k="ssr:stedsnr" v="123659" />
	</node>
	<node id="-235279" lat="59.4723166636" lon="8.93192778077">
		<tag k="name" v="Røksbu" />
		<tag k="place" v="locality" />
		<tag k="ssr:stedsnr" v="123646" />
	</node>
	<node id="-235276" lat="59.4585666712" lon="8.90889166912">
		<tag k="alt_name" v="Myklestøl" />
		<tag k="fixme" v="consider place=hamlet" />
		<tag k="name" v="Myklestul" />
		<tag k="place" v="farm" />
		<tag k="ssr:stedsnr" v="123522" />
	</node>
	<node id="-235272" lat="59.4111083296" lon="9.09613055041">
		<tag k="building" v="industrial" />
		<tag k="industrial" v="factory" />
		<tag k="name" v="Rotebergmoen" />
		<tag k="ssr:stedsnr" v="123453" />
	</node>
	<node id="-235271" lat="59.4098500027" lon="9.00221388505">
		<tag k="alt_name" v="Midt-Forberget" />
		<tag k="fixme" v="consider place=hamlet" />
		<tag k="name" v="Forberg" />
		<tag k="place" v="farm" />
		<tag k="ssr:stedsnr" v="123441" />
	</node>
	<node id="-235269" lat="59.4151972182" lon="8.92754444268">
		<tag k="name" v="Hegna" />
		<tag k="place" v="farm" />
		<tag k="ssr:stedsnr" v="123431" />
	</node>
	<node id="-235267" lat="59.4181888921" lon="8.92274999305">
		<tag k="name" v="Skrikerud" />
		<tag k="place" v="farm" />
		<tag k="ssr:stedsnr" v="123430" />
	</node>
	<node id="-235266" lat="59.4136999966" lon="9.02300833959">
		<tag k="name" v="Glenna" />
		<tag k="place" v="farm" />
		<tag k="ssr:stedsnr" v="123420" />
	</node>
	<node id="-235265" lat="59.4153333303" lon="9.07978611955">
		<tag k="fixme" v="consider place=hamlet" />
		<tag k="name" v="Grivi" />
		<tag k="place" v="farm" />
		<tag k="ssr:stedsnr" v="123415" />
	</node>
	<node id="-235264" lat="59.418005556" lon="8.96577777355">
		<tag k="name" v="Nyhus" />
		<tag k="place" v="farm" />
		<tag k="ssr:stedsnr" v="123412" />
	</node>
	<node id="-235263" lat="59.4121694408" lon="9.01289444813">
		<tag k="fixme" v="consider place=hamlet" />
		<tag k="name" v="Espedalen" />
		<tag k="place" v="farm" />
		<tag k="ssr:stedsnr" v="123408" />
	</node>
	<node id="-235262" lat="59.4195472259" lon="8.97660277261">
		<tag k="name" v="Åbø" />
		<tag k="place" v="farm" />
		<tag k="ssr:stedsnr" v="123409" />
	</node>
	<node id="-235261" lat="59.4000555514" lon="9.03919443655">
		<tag k="alt_name" v="Moen" />
		<tag k="name" v="Myra" />
		<tag k="place" v="farm" />
		<tag k="ssr:stedsnr" v="123395" />
	</node>
	<node id="-235260" lat="59.4057416697" lon="9.09098056254">
		<tag k="name" v="Lia" />
		<tag k="place" v="farm" />
		<tag k="ssr:stedsnr" v="123373" />
	</node>
	<node id="-235259" lat="59.378936108" lon="9.04229167439">
		<tag k="alt_name" v="Tjørnås" />
		<tag k="name" v="Tjønnås" />
		<tag k="place" v="farm" />
		<tag k="ssr:stedsnr" v="123369" />
	</node>
	<node id="-235244" lat="59.4272249977" lon="8.89868332489">
		<tag k="fixme" v="consider place=hamlet" />
		<tag k="name" v="Verpe" />
		<tag k="place" v="farm" />
		<tag k="ssr:stedsnr" v="89778" />
	</node>
	<node id="-235242" lat="59.4649666671" lon="9.01170834046">
		<tag k="name" v="Vårbu" />
		<tag k="place" v="locality" />
		<tag k="ssr:stedsnr" v="89521" />
	</node>
	<node id="-235241" lat="59.4805944452" lon="9.04653056151">
		<tag k="name" v="Bråten" />
		<tag k="place" v="farm" />
		<tag k="ssr:stedsnr" v="89439" />
	</node>
	<node id="-235239" lat="59.4570388885" lon="8.97096944935">
		<tag k="name" v="Storskott" />
		<tag k="place" v="locality" />
		<tag k="ssr:stedsnr" v="89114" />
	</node>
	<node id="-235227" lat="59.421733332" lon="9.00095000378">
		<tag k="name" v="Hegna" />
		<tag k="place" v="farm" />
		<tag k="ssr:stedsnr" v="88799" />
	</node>
	<node id="-235225" lat="59.4065666649" lon="9.12512222733">
		<tag k="name" v="Homlebrekke" />
		<tag k="place" v="farm" />
		<tag k="ssr:stedsnr" v="87977" />
	</node>
	<node id="-235224" lat="59.4043833322" lon="9.12384444177">
		<tag k="name" v="Haugen" />
		<tag k="place" v="farm" />
		<tag k="ssr:stedsnr" v="87975" />
	</node>
	<node id="-235218" lat="59.4821916681" lon="9.07131944365">
		<tag k="fixme" v="consider place=hamlet" />
		<tag k="name" v="Åse" />
		<tag k="place" v="farm" />
		<tag k="ssr:stedsnr" v="87470" />
	</node>
	<node id="-235215" lat="59.4072305541" lon="9.0407055474">
		<tag k="name" v="Nordbø" />
		<tag k="place" v="farm" />
		<tag k="ssr:stedsnr" v="87255" />
	</node>
	<node id="-235210" lat="59.4005222238" lon="8.9748972252">
		<tag k="name" v="Skoestulen" />
		<tag k="place" v="locality" />
		<tag k="ssr:stedsnr" v="87006" />
	</node>
	<node id="-235201" lat="59.4170861132" lon="9.11240556405">
		<tag k="name" v="Haugland" />
		<tag k="place" v="farm" />
		<tag k="ssr:stedsnr" v="86713" />
	</node>
	<node id="-235200" lat="59.4160499957" lon="9.09540555259">
		<tag k="name" v="Slåtta" />
		<tag k="place" v="locality" />
		<tag k="ssr:stedsnr" v="86694" />
	</node>
	<node id="-235195" lat="59.4355611135" lon="9.0428555612">
		<tag k="name" v="Skavdalen" />
		<tag k="place" v="farm" />
		<tag k="ssr:stedsnr" v="86561" />
	</node>
	<node id="-235194" lat="59.4345222247" lon="9.03125833312">
		<tag k="name" v="Oterholt" />
		<tag k="place" v="farm" />
		<tag k="ssr:stedsnr" v="86558" />
	</node>
	<node id="-235193" lat="59.4290583375" lon="9.02133889123">
		<tag k="name" v="Innleggen" />
		<tag k="place" v="farm" />
		<tag k="ssr:stedsnr" v="86543" />
	</node>
	<node id="-235192" lat="59.415858334" lon="9.02214999554">
		<tag k="name" v="Glenna" />
		<tag k="place" v="farm" />
		<tag k="ssr:stedsnr" v="86530" />
	</node>
	<node id="-235191" lat="59.5039000033" lon="9.15086943896">
		<tag k="name" v="Plasstykket" />
		<tag k="place" v="isolated_dwelling" />
		<tag k="ssr:stedsnr" v="86523" />
	</node>
	<node id="-235188" lat="59.4136111116" lon="9.05556945055">
		<tag k="name" v="Lund" />
		<tag k="place" v="isolated_dwelling" />
		<tag k="ssr:stedsnr" v="86250" />
	</node>
	<node id="-235177" lat="59.4095666684" lon="8.98368332523">
		<tag k="name" v="Skogen" />
		<tag k="place" v="isolated_dwelling" />
		<tag k="ssr:stedsnr" v="268069" />
	</node>
	<node id="-235174" lat="59.4891111151" lon="9.16959999305">
		<tag k="name" v="Kåsa" />
		<tag k="place" v="isolated_dwelling" />
		<tag k="ssr:stedsnr" v="63620" />
	</node>
	<node id="-235173" lat="59.4809305544" lon="9.09570000483">
		<tag k="name" v="Slåttedalen" />
		<tag k="place" v="farm" />
		<tag k="ssr:stedsnr" v="63613" />
	</node>
	<node id="-235172" lat="59.4810555539" lon="9.07938056239">
		<tag k="name" v="Åse" />
		<tag k="place" v="farm" />
		<tag k="ssr:stedsnr" v="63610" />
	</node>
	<node id="-235170" lat="59.4725138901" lon="8.96728610531">
		<tag k="alt_name" v="Lienstul" />
		<tag k="name" v="Lienstulen" />
		<tag k="place" v="isolated_dwelling" />
		<tag k="ssr:stedsnr" v="63605" />
	</node>
	<node id="-235167" lat="59.4969500009" lon="9.04137499926">
		<tag k="name" v="Tangen" />
		<tag k="place" v="locality" />
		<tag k="ssr:stedsnr" v="63592" />
	</node>
	<node id="-235165" lat="59.4897305599" lon="9.02750278405">
		<tag k="name" v="Knalian" />
		<tag k="place" v="locality" />
		<tag k="ssr:stedsnr" v="63573" />
	</node>
	<node id="-235163" lat="59.471780559" lon="9.0729805542">
		<tag k="alt_name" v="Breidvad" />
		<tag k="name" v="Breiva" />
		<tag k="place" v="farm" />
		<tag k="ssr:stedsnr" v="63504" />
	</node>
	<node id="-235162" lat="59.4655805541" lon="8.96982777639">
		<tag k="alt_name" v="Altbråtane" />
		<tag k="name" v="Attbråtane" />
		<tag k="place" v="locality" />
		<tag k="ssr:stedsnr" v="63502" />
	</node>
	<node id="-235159" lat="59.4263944469" lon="9.00925277296">
		<tag k="name" v="Sønstebø" />
		<tag k="place" v="farm" />
		<tag k="ssr:stedsnr" v="63454" />
	</node>
	<node id="-235158" lat="59.4266220844" lon="9.10423942567">
		<tag k="alt_name" v="Valen" />
		<tag k="fixme" v="consider place=hamlet" />
		<tag k="name" v="Gvåla" />
		<tag k="place" v="farm" />
		<tag k="ssr:stedsnr" v="63443" />
	</node>
	<node id="-235157" lat="59.4312361109" lon="9.02058610596">
		<tag k="name" v="Moland" />
		<tag k="place" v="farm" />
		<tag k="ssr:stedsnr" v="63438" />
	</node>
	<node id="-235155" lat="59.3788444451" lon="8.93569443959">
		<tag k="fixme" v="consider place=hamlet" />
		<tag k="name" v="Tveiten" />
		<tag k="place" v="farm" />
		<tag k="ssr:stedsnr" v="63356" />
	</node>
	<node id="-235147" lat="59.4260722223" lon="8.98235277572">
		<tag k="name" v="Vreim" />
		<tag k="place" v="farm" />
		<tag k="ssr:stedsnr" v="28867" />
	</node>
	<node id="-235144" lat="59.4268944465" lon="8.9005472294">
		<tag k="name" v="Verpe" />
		<tag k="place" v="farm" />
		<tag k="ssr:stedsnr" v="28808" />
	</node>
	<node id="-235134" lat="59.4319861099" lon="8.99486110238">
		<tag k="name" v="Bråten" />
		<tag k="place" v="locality" />
		<tag k="ssr:stedsnr" v="27857" />
	</node>
	<node id="-235131" lat="59.4919805541" lon="9.04592221735">
		<tag k="name" v="Skogkåsstulen" />
		<tag k="place" v="locality" />
		<tag k="ssr:stedsnr" v="27574" />
	</node>
	<node id="-235130" lat="59.4885638927" lon="9.01050278153">
		<tag k="name" v="Fjellstulroe" />
		<tag k="place" v="locality" />
		<tag k="ssr:stedsnr" v="27564" />
	</node>
	<node id="-235129" lat="59.4161638894" lon="8.90161666906">
		<tag k="name" v="Sanda" />
		<tag k="place" v="farm" />
		<tag k="ssr:stedsnr" v="27098" />
	</node>
	<node id="-235128" lat="59.4547444413" lon="9.03014166781">
		<tag k="name" v="Østli" />
		<tag k="place" v="farm" />
		<tag k="ssr:stedsnr" v="27053" />
	</node>
	<node id="-235126" lat="59.4072861111" lon="9.12026111774">
		<tag k="name" v="Haugdalen" />
		<tag k="place" v="farm" />
		<tag k="ssr:stedsnr" v="26977" />
	</node>
	<node id="-235121" lat="59.4180972185" lon="9.073413892">
		<tag k="name" v="Haugerud" />
		<tag k="place" v="farm" />
		<tag k="ssr:stedsnr" v="26730" />
	</node>
	<node id="-235119" lat="59.4157805547" lon="9.07343611667">
		<tag k="fixme" v="consider place=hamlet" />
		<tag k="name" v="Kleppen" />
		<tag k="place" v="farm" />
		<tag k="ssr:stedsnr" v="26679" />
	</node>
	<node id="-235118" lat="59.4069249968" lon="9.11558611276">
		<tag k="name" v="Myrane" />
		<tag k="place" v="farm" />
		<tag k="ssr:stedsnr" v="26653" />
	</node>
	<node id="-235116" lat="59.4230500033" lon="9.02228333606">
		<tag k="name" v="Bruserud" />
		<tag k="place" v="farm" />
		<tag k="ssr:stedsnr" v="26540" />
	</node>
	<node id="-235110" lat="59.3756746927" lon="9.00590473469">
		<tag k="name" v="Moen" />
		<tag k="place" v="farm" />
		<tag k="ssr:stedsnr" v="26428" />
	</node>
	<node id="-235107" lat="59.4257888893" lon="9.12451944321">
		<tag k="name" v="Lid" />
		<tag k="place" v="farm" />
		<tag k="ssr:stedsnr" v="26314" />
	</node>
	<node id="-235105" lat="59.4031805576" lon="9.04617499817">
		<tag k="name" v="Kåsa" />
		<tag k="place" v="farm" />
		<tag k="ssr:stedsnr" v="26296" />
	</node>
	<node id="-235104" lat="59.4243250025" lon="9.11336944934">
		<tag k="name" v="Øygarden" />
		<tag k="place" v="farm" />
		<tag k="ssr:stedsnr" v="26245" />
	</node>
	<node id="-235100" lat="59.4151333361" lon="8.91901944347">
		<tag k="name" v="Moen" />
		<tag k="place" v="farm" />
		<tag k="ssr:stedsnr" v="26120" />
	</node>
	<node id="-235094" lat="59.4445194481" lon="9.02220833378">
		<tag k="name" v="Heiberg" />
		<tag k="place" v="isolated_dwelling" />
		<tag k="ssr:stedsnr" v="26016" />
	</node>
	<node id="-235093" lat="59.4858055591" lon="9.16105277218">
		<tag k="name" v="Roheim" />
		<tag k="place" v="farm" />
		<tag k="ssr:stedsnr" v="25603" />
	</node>
	<node id="-235092" lat="59.4894944487" lon="9.15640556184">
		<tag k="name" v="Roheim" />
		<tag k="place" v="hamlet" />
		<tag k="ssr:stedsnr" v="25602" />
	</node>
	<node id="-235091" lat="59.4253888898" lon="9.03228055957">
		<tag k="name" v="Storrønningen" />
		<tag k="place" v="farm" />
		<tag k="ssr:stedsnr" v="25567" />
	</node>
	<node id="-235089" lat="59.4415694423" lon="9.02190833115">
		<tag k="name" v="Li" />
		<tag k="place" v="farm" />
		<tag k="ssr:stedsnr" v="25514" />
	</node>
	<node id="-235088" lat="59.4208722261" lon="9.01768055398">
		<tag k="name" v="Bruserud" />
		<tag k="place" v="farm" />
		<tag k="ssr:stedsnr" v="25498" />
	</node>
	<node id="-235087" lat="59.4205444457" lon="9.04214166199">
		<tag k="name" v="Haugane" />
		<tag k="place" v="farm" />
		<tag k="ssr:stedsnr" v="25494" />
	</node>
	<node id="-235086" lat="59.4794000023" lon="9.08654444906">
		<tag k="name" v="Jylland" />
		<tag k="place" v="locality" />
		<tag k="ssr:stedsnr" v="25450" />
	</node>
	<node id="-235084" lat="59.3957861156" lon="8.96231944813">
		<tag k="name" v="Åsheimkåsa" />
		<tag k="place" v="locality" />
		<tag k="ssr:stedsnr" v="25051" />
	</node>
	<node id="-235081" lat="59.4363027785" lon="8.86411389094">
		<tag k="name" v="Kasin" />
		<tag k="place" v="hamlet" />
		<tag k="ssr:stedsnr" v="24421" />
	</node>
	<node id="-235078" lat="59.3824611156" lon="8.9967749967">
		<tag k="name" v="Dagstjønndalen" />
		<tag k="place" v="farm" />
		<tag k="ssr:stedsnr" v="24066" />
	</node>
	<node id="-235074" lat="59.5046138909" lon="9.13730555938">
		<tag k="name" v="Plassen" />
		<tag k="place" v="isolated_dwelling" />
		<tag k="ssr:stedsnr" v="3424" />
	</node>
	<node id="-235073" lat="59.5068972188" lon="9.12909166686">
		<tag k="name" v="Hegna" />
		<tag k="place" v="farm" />
		<tag k="ssr:stedsnr" v="3422" />
	</node>
	<node id="-235059" lat="59.4729972253" lon="9.02720555787">
		<tag k="alt_name" v="Torildstul" />
		<tag k="name" v="Torillstul" />
		<tag k="place" v="isolated_dwelling" />
		<tag k="ssr:stedsnr" v="2509" />
	</node>
	<node id="-235057" lat="59.4629027809" lon="8.93297500295">
		<tag k="name" v="Stavsholt" />
		<tag k="place" v="locality" />
		<tag k="ssr:stedsnr" v="2496" />
	</node>
	<node id="-235054" lat="59.4540361134" lon="9.04799166912">
		<tag k="name" v="Torekåsa" />
		<tag k="place" v="farm" />
		<tag k="ssr:stedsnr" v="2480" />
	</node>
	<node id="-235052" lat="59.4215055547" lon="9.11523055767">
		<tag k="name" v="Øygarden" />
		<tag k="place" v="farm" />
		<tag k="ssr:stedsnr" v="2455" />
	</node>
	<node id="-235051" lat="59.4227055531" lon="9.06269722432">
		<tag k="name" v="Sisjord" />
		<tag k="place" v="farm" />
		<tag k="ssr:stedsnr" v="2448" />
	</node>
	<node id="-235049" lat="59.4330777778" lon="9.03466667336">
		<tag k="name" v="Oterholt" />
		<tag k="place" v="farm" />
		<tag k="ssr:stedsnr" v="2437" />
	</node>
	<node id="-235048" lat="59.4290972222" lon="9.00002499301">
		<tag k="name" v="Bekkhus" />
		<tag k="place" v="farm" />
		<tag k="ssr:stedsnr" v="2435" />
	</node>
	<node id="-235047" lat="59.4236611077" lon="8.87017777825">
		<tag k="name" v="Moen" />
		<tag k="place" v="farm" />
		<tag k="ssr:stedsnr" v="2432" />
	</node>
	<node id="-235045" lat="59.4067444468" lon="9.08285000059">
		<tag k="name" v="Torstveit" />
		<tag k="place" v="farm" />
		<tag k="ssr:stedsnr" v="2374" />
	</node>
	<node id="-235044" lat="59.3828916653" lon="9.03136110659">
		<tag k="alt_name" v="Vestre Eiken" />
		<tag k="fixme" v="consider place=hamlet" />
		<tag k="name" v="Eikja" />
		<tag k="place" v="farm" />
		<tag k="ssr:stedsnr" v="2367" />
	</node>
	<node id="-235041" lat="59.3873638862" lon="8.96852778493">
		<tag k="fixme" v="consider place=hamlet" />
		<tag k="name" v="Jønneberg" />
		<tag k="place" v="farm" />
		<tag k="ssr:stedsnr" v="2339" />
	</node>
	<node id="-235040" lat="59.3847861075" lon="8.99494999177">
		<tag k="name" v="Rydland" />
		<tag k="place" v="farm" />
		<tag k="ssr:stedsnr" v="2337" />
	</node>
	<node id="-235037" lat="59.3755987406" lon="8.95087813729">
		<tag k="fixme" v="consider place=hamlet" />
		<tag k="name" v="Oppdal" />
		<tag k="place" v="farm" />
		<tag k="ssr:stedsnr" v="983040" />
	</node>
	<node id="-235036" lat="59.3867784857" lon="9.06479452361">
		<tag k="fixme" v="consider place=hamlet" />
		<tag k="name" v="Stillingsrud" />
		<tag k="place" v="farm" />
		<tag k="ssr:stedsnr" v="983038" />
	</node>
	<node id="-235035" lat="59.4171423881" lon="9.06030826189">
		<tag k="fixme" v="consider place=hamlet" />
		<tag k="name" v="Bø prestegard" />
		<tag k="place" v="farm" />
		<tag k="ssr:stedsnr" v="983037" />
	</node>
	<node id="-235034" lat="59.4111896949" lon="9.11908182301">
		<tag k="fixme" v="consider place=hamlet" />
		<tag k="name" v="Torstveit" />
		<tag k="place" v="farm" />
		<tag k="ssr:stedsnr" v="983035" />
	</node>
	<node id="-235032" lat="59.4268754" lon="9.00191097606">
		<tag k="fixme" v="consider place=hamlet" />
		<tag k="name" v="Siverhus" />
		<tag k="place" v="farm" />
		<tag k="ssr:stedsnr" v="983031" />
	</node>
	<node id="-235031" lat="59.4423456286" lon="9.03813690549">
		<tag k="fixme" v="consider place=hamlet" />
		<tag k="name" v="Hegnåsen" />
		<tag k="place" v="farm" />
		<tag k="ssr:stedsnr" v="983029" />
	</node>
	<node id="-235030" lat="59.506455856" lon="9.03739547585">
		<tag k="fixme" v="consider place=hamlet" />
		<tag k="name" v="Årmotdalen" />
		<tag k="place" v="farm" />
		<tag k="ssr:stedsnr" v="983028" />
	</node>
	<node id="-235029" lat="59.4978888865" lon="9.13599166814">
		<tag k="name" v="Innleggen" />
		<tag k="place" v="isolated_dwelling" />
		<tag k="ssr:stedsnr" v="389597" />
	</node>
	<node id="-235023" lat="59.4169722192" lon="8.91508610364">
		<tag k="name" v="Åsen" />
		<tag k="place" v="farm" />
		<tag k="ssr:stedsnr" v="269124" />
	</node>
	<node id="-235017" lat="59.3832749994" lon="9.02724166515">
		<tag k="fixme" v="consider place=hamlet" />
		<tag k="name" v="Brenne" />
		<tag k="place" v="farm" />
		<tag k="ssr:stedsnr" v="245305" />
	</node>
	<node id="-235011" lat="59.4393333336" lon="8.86854999313">
		<tag k="name" v="Mastedalslåtta" />
		<tag k="place" v="locality" />
		<tag k="ssr:stedsnr" v="392899" />
	</node>
	<node id="-235010" lat="59.4332555518" lon="8.8557249991">
		<tag k="name" v="Basmoen" />
		<tag k="place" v="locality" />
		<tag k="ssr:stedsnr" v="392890" />
	</node>
	<node id="-235003" lat="59.4262583332" lon="8.90277499751">
		<tag k="name" v="Verpe" />
		<tag k="place" v="farm" />
		<tag k="ssr:stedsnr" v="392808" />
	</node>
	<node id="-235002" lat="59.4728222186" lon="9.00398611527">
		<tag k="name" v="Nutestul" />
		<tag k="place" v="locality" />
		<tag k="ssr:stedsnr" v="392732" />
	</node>
	<node id="-235000" lat="59.4290999994" lon="8.83490833041">
		<tag k="name" v="Massekåsa" />
		<tag k="place" v="locality" />
		<tag k="ssr:stedsnr" v="392156" />
	</node>
	<node id="-234998" lat="59.4564583309" lon="8.96815555671">
		<tag k="name" v="Skorra" />
		<tag k="place" v="locality" />
		<tag k="ssr:stedsnr" v="392099" />
	</node>
	<node id="-234994" lat="59.4564361072" lon="9.03306666373">
		<tag k="name" v="Innleggen" />
		<tag k="place" v="farm" />
		<tag k="ssr:stedsnr" v="391069" />
	</node>
	<node id="-234992" lat="59.4105416665" lon="9.11910000069">
		<tag k="name" v="Nymoen" />
		<tag k="place" v="farm" />
		<tag k="ssr:stedsnr" v="390959" />
	</node>
	<node id="-234991" lat="59.443383333" lon="9.12174722794">
		<tag k="name" v="Hestehegna" />
		<tag k="place" v="farm" />
		<tag k="ssr:stedsnr" v="390920" />
	</node>
	<node id="-234985" lat="59.4294388931" lon="9.03013889056">
		<tag k="name" v="Brenne" />
		<tag k="place" v="farm" />
		<tag k="ssr:stedsnr" v="390534" />
	</node>
	<node id="-234982" lat="59.3814388856" lon="9.03574166041">
		<tag k="name" v="Eikja" />
		<tag k="place" v="farm" />
		<tag k="ssr:stedsnr" v="390324" />
	</node>
	<node id="-234980" lat="59.3908250024" lon="9.03998610693">
		<tag k="name" v="Kryllingdalen" />
		<tag k="place" v="locality" />
		<tag k="ssr:stedsnr" v="390312" />
	</node>
	<node id="-234979" lat="59.3972805542" lon="9.04658888477">
		<tag k="name" v="Solvang" />
		<tag k="place" v="farm" />
		<tag k="ssr:stedsnr" v="390298" />
	</node>
	<node id="-234976" lat="59.4032888868" lon="9.04971388062">
		<tag k="name" v="Nerbø" />
		<tag k="place" v="farm" />
		<tag k="ssr:stedsnr" v="390264" />
	</node>
	<node id="-234971" lat="59.4357444409" lon="9.06976944856">
		<tag k="name" v="Folkestad" />
		<tag k="place" v="farm" />
		<tag k="ssr:stedsnr" v="390058" />
	</node>
	<node id="-234970" lat="59.437677774" lon="9.08455833647">
		<tag k="name" v="Sersland" />
		<tag k="place" v="farm" />
		<tag k="ssr:stedsnr" v="390046" />
	</node>
	<node id="-234964" lat="59.4153805536" lon="9.07585832867">
		<tag k="name" v="Grivi" />
		<tag k="place" v="farm" />
		<tag k="ssr:stedsnr" v="389689" />
	</node>
	<node id="-234963" lat="59.4357361139" lon="9.05794445121">
		<tag k="name" v="Eika" />
		<tag k="place" v="farm" />
		<tag k="ssr:stedsnr" v="389548" />
	</node>
	<node id="-234962" lat="59.4208722261" lon="9.01768055398">
		<tag k="name" v="Bruserud" />
		<tag k="place" v="farm" />
		<tag k="ssr:stedsnr" v="389529" />
	</node>
	<node id="-234958" lat="59.3773576461" lon="9.00595382833">
		<tag k="name" v="Åsheim" />
		<tag k="place" v="farm" />
		<tag k="ssr:stedsnr" v="389417" />
	</node>
	<node id="-234954" lat="59.4106499981" lon="9.05681388894">
		<tag k="leisure" v="pitch" />
		<tag k="name" v="Gullbring" />
		<tag k="ssr:stedsnr" v="389239" />
	</node>
	<node id="-234953" lat="59.4302166697" lon="9.10657222657">
		<tag k="name" v="Hegnun" />
		<tag k="place" v="farm" />
		<tag k="ssr:stedsnr" v="389221" />
	</node>
	<node id="-234952" lat="59.4213222225" lon="8.99669722135">
		<tag k="name" v="Åsland" />
		<tag k="place" v="farm" />
		<tag k="ssr:stedsnr" v="389079" />
	</node>
	<node id="-234948" lat="59.4873861094" lon="8.9916472249">
		<tag k="historic" v="shieling" />
		<tag k="name" v="Vierburoe" />
		<tag k="place" v="locality" />
		<tag k="ssr:stedsnr" v="388908" />
	</node>
	<node id="-234940" lat="59.522216669" lon="9.1217249933">
		<tag k="name" v="Havskolt" />
		<tag k="place" v="farm" />
		<tag k="ssr:stedsnr" v="367405" />
	</node>
	<node id="-234939" lat="59.5326361105" lon="9.12078333645">
		<tag k="historic" v="shieling" />
		<tag k="name" v="Bloddalan" />
		<tag k="place" v="locality" />
		<tag k="ssr:stedsnr" v="367403" />
	</node>
	<node id="-234938" lat="59.5081583299" lon="9.13457777565">
		<tag k="name" v="Slemmeli" />
		<tag k="place" v="farm" />
		<tag k="ssr:stedsnr" v="367398" />
	</node>
	<node id="-234936" lat="59.488500002" lon="9.04730278394">
		<tag k="name" v="Øverlandstulane" />
		<tag k="place" v="isolated_dwelling" />
		<tag k="ssr:stedsnr" v="366624" />
	</node>
	<node id="-234934" lat="59.4810444484" lon="9.02822221528">
		<tag k="name" v="Plasstulen" />
		<tag k="place" v="isolated_dwelling" />
		<tag k="ssr:stedsnr" v="366614" />
	</node>
	<node id="-234930" lat="59.4965638915" lon="9.04662776999">
		<tag k="name" v="Moen" />
		<tag k="place" v="isolated_dwelling" />
		<tag k="ssr:stedsnr" v="366592" />
	</node>
	<node id="-234926" lat="59.4432777741" lon="9.02347222276">
		<tag k="name" v="Li" />
		<tag k="place" v="farm" />
		<tag k="ssr:stedsnr" v="366449" />
	</node>
	<node id="-234925" lat="59.4204555581" lon="8.91462778162">
		<tag k="name" v="Soterud" />
		<tag k="place" v="farm" />
		<tag k="ssr:stedsnr" v="366440" />
	</node>
	<node id="-234924" lat="59.427911108" lon="9.09293888253">
		<tag k="name" v="Undermo" />
		<tag k="place" v="farm" />
		<tag k="ssr:stedsnr" v="366436" />
	</node>
	<node id="-234923" lat="59.422872218" lon="9.08712777418">
		<tag k="name" v="Helland" />
		<tag k="place" v="farm" />
		<tag k="ssr:stedsnr" v="366435" />
	</node>
	<node id="-234920" lat="59.4068138908" lon="9.10977500757">
		<tag k="name" v="Skogen" />
		<tag k="place" v="farm" />
		<tag k="ssr:stedsnr" v="366347" />
	</node>
	<node id="-234919" lat="59.3882972211" lon="9.0409944479">
		<tag k="alt_name" v="Eikenrud" />
		<tag k="fixme" v="consider place=hamlet" />
		<tag k="name" v="Eikjarud" />
		<tag k="place" v="farm" />
		<tag k="ssr:stedsnr" v="366316" />
	</node>
	<node id="-234916" lat="59.3922861123" lon="9.05654166892">
		<tag k="name" v="Kåsa" />
		<tag k="place" v="isolated_dwelling" />
		<tag k="ssr:stedsnr" v="147305" />
	</node>
	<node id="-234911" lat="59.4692416694" lon="8.98206388447">
		<tag k="historic" v="shieling" />
		<tag k="name" v="Vihus" />
		<tag k="place" v="locality" />
		<tag k="ssr:stedsnr" v="427601" />
	</node>
	<node id="-234904" lat="59.4224527806" lon="8.98098611082">
		<tag k="name" v="Haugerud" />
		<tag k="place" v="farm" />
		<tag k="ssr:stedsnr" v="331844" />
	</node>
	<node id="-234899" lat="59.4685638931" lon="9.05584167177">
		<tag k="name" v="Hugheil" />
		<tag k="place" v="locality" />
		<tag k="ssr:stedsnr" v="331488" />
	</node>
	<node id="-234896" lat="59.4717249975" lon="8.95049443647">
		<tag k="name" v="Smylestul" />
		<tag k="place" v="locality" />
		<tag k="ssr:stedsnr" v="331302" />
	</node>
	<node id="-234878" lat="59.4167027763" lon="8.84089444108">
		<tag k="name" v="Grabbu" />
		<tag k="place" v="locality" />
		<tag k="ssr:stedsnr" v="330207" />
	</node>
	<node id="-234876" lat="59.3907972209" lon="8.98953055447">
		<tag k="name" v="Dalen" />
		<tag k="place" v="farm" />
		<tag k="ssr:stedsnr" v="330153" />
	</node>
	<node id="-234873" lat="59.4112194422" lon="8.91242499783">
		<tag k="name" v="Grave" />
		<tag k="place" v="farm" />
		<tag k="ssr:stedsnr" v="330131" />
	</node>
	<node id="-234872" lat="59.4405138845" lon="9.07478332756">
		<tag k="name" v="Kultan" />
		<tag k="place" v="farm" />
		<tag k="ssr:stedsnr" v="330067" />
	</node>
	<node id="-234870" lat="59.4041527771" lon="8.9961250042">
		<tag k="name" v="Brusrudstulen" />
		<tag k="old_name" v="Brunsrudstulen" />
		<tag k="place" v="locality" />
		<tag k="ssr:stedsnr" v="330015" />
	</node>
	<node id="-234868" lat="59.4011555575" lon="8.94934723032">
		<tag k="name" v="Kåsa" />
		<tag k="place" v="isolated_dwelling" />
		<tag k="ssr:stedsnr" v="330004" />
	</node>
	<node id="-234865" lat="59.5203583359" lon="9.12037499649">
		<tag k="name" v="Havskolt" />
		<tag k="place" v="farm" />
		<tag k="ssr:stedsnr" v="329733" />
	</node>
	<node id="-234864" lat="59.4163555552" lon="9.10833889705">
		<tag k="name" v="Haugland" />
		<tag k="place" v="farm" />
		<tag k="ssr:stedsnr" v="329718" />
	</node>
	<node id="-234862" lat="59.4171472245" lon="9.10613611873">
		<tag k="name" v="Haugland" />
		<tag k="place" v="farm" />
		<tag k="ssr:stedsnr" v="329710" />
	</node>
	<node id="-234861" lat="59.4081750017" lon="9.10233611696">
		<tag k="name" v="Kåsa" />
		<tag k="place" v="farm" />
		<tag k="ssr:stedsnr" v="329669" />
	</node>
	<node id="-234860" lat="59.4131388868" lon="9.07893055641">
		<tag k="name" v="Grivi" />
		<tag k="place" v="farm" />
		<tag k="ssr:stedsnr" v="329653" />
	</node>
	<node id="-234859" lat="59.5034055567" lon="9.08313888075">
		<tag k="name" v="Pinknapp" />
		<tag k="place" v="locality" />
		<tag k="ssr:stedsnr" v="329556" />
	</node>
	<node id="-234857" lat="59.4355416677" lon="9.02283610391">
		<tag k="name" v="Plomøya" />
		<tag k="place" v="farm" />
		<tag k="ssr:stedsnr" v="329552" />
	</node>
	<node id="-234856" lat="59.4154750026" lon="9.03996667307">
		<tag k="name" v="Nordbø" />
		<tag k="place" v="farm" />
		<tag k="ssr:stedsnr" v="329523" />
	</node>
	<node id="-234855" lat="59.4379305534" lon="9.13639722785">
		<tag k="name" v="Haslekåsa" />
		<tag k="place" v="locality" />
		<tag k="ssr:stedsnr" v="329303" />
	</node>
	<node id="-234853" lat="59.3839444483" lon="9.06220000642">
		<tag k="name" v="Solvang" />
		<tag k="place" v="farm" />
		<tag k="ssr:stedsnr" v="329402" />
	</node>
	<node id="-234848" lat="59.4077777814" lon="8.9543499984">
		<tag k="name" v="Tjønntveit" />
		<tag k="place" v="farm" />
		<tag k="ssr:stedsnr" v="329058" />
	</node>
	<node id="-234847" lat="59.446533333" lon="9.03069443759">
		<tag k="name" v="Bergskås" />
		<tag k="place" v="farm" />
		<tag k="ssr:stedsnr" v="329053" />
	</node>
	<node id="-234845" lat="59.447866664" lon="9.02198888749">
		<tag k="name" v="Haugane" />
		<tag k="place" v="farm" />
		<tag k="ssr:stedsnr" v="329029" />
	</node>
	<node id="-234843" lat="59.4264694468" lon="9.02400556095">
		<tag k="name" v="Saga" />
		<tag k="place" v="farm" />
		<tag k="ssr:stedsnr" v="328558" />
	</node>
	<node id="-234842" lat="59.4259333297" lon="9.01789721736">
		<tag k="name" v="Ronninge" />
		<tag k="place" v="farm" />
		<tag k="ssr:stedsnr" v="328478" />
	</node>
	<node id="-234831" lat="59.421369445" lon="9.10413055639">
		<tag k="fixme" v="consider place=hamlet" />
		<tag k="name" v="Vestgarden" />
		<tag k="place" v="farm" />
		<tag k="ssr:stedsnr" v="306414" />
	</node>
	<node id="-234830" lat="59.4253250025" lon="9.08331945211">
		<tag k="fixme" v="consider place=hamlet" />
		<tag k="name" v="Ågetveit" />
		<tag k="place" v="farm" />
		<tag k="ssr:stedsnr" v="306410" />
	</node>
	<node id="-234828" lat="59.414272226" lon="8.84755556135">
		<tag k="name" v="Grabbu" />
		<tag k="place" v="locality" />
		<tag k="ssr:stedsnr" v="306379" />
	</node>
	<node id="-234825" lat="59.3752305565" lon="9.0125833271">
		<tag k="alt_name" v="Bergvad" />
		<tag k="name" v="Bergva" />
		<tag k="place" v="farm" />
		<tag k="ssr:stedsnr" v="306335" />
	</node>
	<node id="-234821" lat="59.484044446" lon="8.96845277034">
		<tag k="historic" v="shieling" />
		<tag k="name" v="Nybu" />
		<tag k="place" v="locality" />
		<tag k="ssr:stedsnr" v="305617" />
	</node>
	<node id="-234819" lat="59.4407444426" lon="9.03292500341">
		<tag k="alt_name" v="Hegna" />
		<tag k="name" v="Lihegna" />
		<tag k="place" v="farm" />
		<tag k="ssr:stedsnr" v="305496" />
	</node>
	<node id="-234818" lat="59.4347638926" lon="9.09075555527">
		<tag k="name" v="Rullnes" />
		<tag k="place" v="farm" />
		<tag k="ssr:stedsnr" v="305440" />
	</node>
	<node id="-234817" lat="59.404597223" lon="9.00838610919">
		<tag k="alt_name" v="Kåsa" />
		<tag k="name" v="Slåtta" />
		<tag k="place" v="farm" />
		<tag k="ssr:stedsnr" v="305418" />
	</node>
	<node id="-234816" lat="59.4090444465" lon="8.91961111752">
		<tag k="alt_name" v="Lovald" />
		<tag k="name" v="Løvoll" />
		<tag k="place" v="farm" />
		<tag k="ssr:stedsnr" v="305412" />
	</node>
	<node id="-234815" lat="59.3861999962" lon="8.89470556333">
		<tag k="alt_name" v="Ramsåsstulen" />
		<tag k="name" v="Ramsås" />
		<tag k="place" v="isolated_dwelling" />
		<tag k="ssr:stedsnr" v="305388" />
	</node>
	<node id="-234813" lat="59.401272225" lon="9.05074999848">
		<tag k="name" v="Klokkarstugo" />
		<tag k="place" v="farm" />
		<tag k="ssr:stedsnr" v="305374" />
	</node>
	<node id="-234805" lat="59.4363166652" lon="8.8824666675">
		<tag k="name" v="Kupa" />
		<tag k="place" v="locality" />
		<tag k="ssr:stedsnr" v="271914" />
	</node>
	<node id="-234802" lat="59.4220666651" lon="8.89804166818">
		<tag k="name" v="Vegheim" />
		<tag k="place" v="isolated_dwelling" />
		<tag k="ssr:stedsnr" v="271826" />
	</node>
	<node id="-234796" lat="59.455694446" lon="8.95026111163">
		<tag k="name" v="Sagalauvås" />
		<tag k="place" v="locality" />
		<tag k="ssr:stedsnr" v="271075" />
	</node>
	<node id="-234793" lat="59.4889888905" lon="9.02639445045">
		<tag k="name" v="Knaliane" />
		<tag k="place" v="locality" />
		<tag k="ssr:stedsnr" v="270721" />
	</node>
	<node id="-234785" lat="59.5147555593" lon="9.00711389728">
		<tag k="name" v="Bjønnliane" />
		<tag k="place" v="locality" />
		<tag k="ssr:stedsnr" v="269585" />
	</node>
	<node id="-234781" lat="59.4656472225" lon="9.10037222208">
		<tag k="name" v="Høgfosskåsa" />
		<tag k="place" v="locality" />
		<tag k="ssr:stedsnr" v="269419" />
	</node>
	<node id="-234780" lat="59.3791750016" lon="9.01603332913">
		<tag k="name" v="Øygarden" />
		<tag k="place" v="farm" />
		<tag k="ssr:stedsnr" v="269365" />
	</node>
	<node id="-234775" lat="59.4020666642" lon="9.05203333859">
		<tag k="name" v="Tandre" />
		<tag k="place" v="farm" />
		<tag k="ssr:stedsnr" v="269295" />
	</node>
	<node id="-236412" lat="59.4837749991" lon="8.93288611292">
		<tag k="name" v="Bjørkebulia" />
		<tag k="place" v="locality" />
		<tag k="ssr:stedsnr" v="938980" />
	</node>
	<node id="-236399" lat="59.5009055542" lon="9.02736110359">
		<tag k="name" v="Raukritholet" />
		<tag k="place" v="locality" />
		<tag k="ssr:stedsnr" v="938579" />
	</node>
	<node id="-236386" lat="59.4120805565" lon="8.89914166574">
		<tag k="name" v="Grave" />
		<tag k="place" v="farm" />
		<tag k="ssr:stedsnr" v="937179" />
	</node>
	<node id="-236382" lat="59.4100972219" lon="8.93468333768">
		<tag k="name" v="Moen" />
		<tag k="place" v="farm" />
		<tag k="ssr:stedsnr" v="937139" />
	</node>
	<node id="-236381" lat="59.4362472209" lon="9.07845000185">
		<tag k="name" v="Plassen" />
		<tag k="place" v="farm" />
		<tag k="ssr:stedsnr" v="937063" />
	</node>
	<node id="-236380" lat="59.414586107" lon="8.96335832602">
		<tag k="name" v="Nyheim" />
		<tag k="place" v="isolated_dwelling" />
		<tag k="ssr:stedsnr" v="937056" />
	</node>
	<node id="-236378" lat="59.4023777738" lon="8.95725277668">
		<tag k="name" v="Gravjord" />
		<tag k="place" v="farm" />
		<tag k="ssr:stedsnr" v="937012" />
	</node>
	<node id="-236376" lat="59.4078888892" lon="9.11810832716">
		<tag k="name" v="Bakkemoen" />
		<tag k="place" v="farm" />
		<tag k="ssr:stedsnr" v="936978" />
	</node>
	<node id="-236375" lat="59.4055055531" lon="9.12235278058">
		<tag k="name" v="Bakke" />
		<tag k="place" v="farm" />
		<tag k="ssr:stedsnr" v="936976" />
	</node>
	<node id="-236373" lat="59.4195305543" lon="9.0787611191">
		<tag k="leisure" v="pitch" />
		<tag k="name" v="Sandvoll" />
		<tag k="ssr:stedsnr" v="936750" />
	</node>
	<node id="-236369" lat="59.4872611109" lon="9.17139166871">
		<tag k="name" v="Mattisplassen" />
		<tag k="place" v="isolated_dwelling" />
		<tag k="ssr:stedsnr" v="936604" />
	</node>
	<node id="-236368" lat="59.4918222242" lon="9.14828611901">
		<tag k="name" v="Myrjord" />
		<tag k="place" v="farm" />
		<tag k="ssr:stedsnr" v="936588" />
	</node>
	<node id="-236366" lat="59.4953527822" lon="9.08828888843">
		<tag k="name" v="Plassen" />
		<tag k="place" v="farm" />
		<tag k="ssr:stedsnr" v="936577" />
	</node>
	<node id="-236365" lat="59.4957055518" lon="9.0912444401">
		<tag k="name" v="Plassen" />
		<tag k="place" v="farm" />
		<tag k="ssr:stedsnr" v="936576" />
	</node>
	<node id="-236362" lat="59.4915055583" lon="9.07191388882">
		<tag k="name" v="Slåtta" />
		<tag k="place" v="locality" />
		<tag k="ssr:stedsnr" v="936566" />
	</node>
	<node id="-236361" lat="59.4305305537" lon="9.01950000453">
		<tag k="name" v="Rue" />
		<tag k="place" v="farm" />
		<tag k="ssr:stedsnr" v="936551" />
	</node>
	<node id="-236359" lat="59.4211027743" lon="9.01082222225">
		<tag k="name" v="Bakås" />
		<tag k="place" v="farm" />
		<tag k="ssr:stedsnr" v="936511" />
	</node>
	<node id="-236353" lat="59.4227750022" lon="9.12420555578">
		<tag k="name" v="Hørte" />
		<tag k="place" v="farm" />
		<tag k="ssr:stedsnr" v="936256" />
	</node>
	<node id="-236352" lat="59.4076361142" lon="9.03673333803">
		<tag k="name" v="Lensegrav" />
		<tag k="place" v="locality" />
		<tag k="ssr:stedsnr" v="936238" />
	</node>
	<node id="-236351" lat="59.4115000034" lon="9.04702221798">
		<tag k="name" v="Nordbø" />
		<tag k="place" v="farm" />
		<tag k="ssr:stedsnr" v="936227" />
	</node>
	<node id="-236348" lat="59.4213055512" lon="9.12530276931">
		<tag k="name" v="Fosslund" />
		<tag k="place" v="farm" />
		<tag k="ssr:stedsnr" v="936173" />
	</node>
	<node id="-236341" lat="59.443669447" lon="9.02165277445">
		<tag k="name" v="Bakkåker" />
		<tag k="place" v="farm" />
		<tag k="ssr:stedsnr" v="936024" />
	</node>
	<node id="-236339" lat="59.4472472191" lon="9.07273332729">
		<tag k="name" v="Sommarland" />
		<tag k="ssr:stedsnr" v="935795" />
		<tag k="tourism" v="theme_park" />
	</node>
	<node id="-236338" lat="59.441761113" lon="9.0288388833">
		<tag k="name" v="Li" />
		<tag k="place" v="farm" />
		<tag k="ssr:stedsnr" v="935525" />
	</node>
	<node id="-236337" lat="59.4214722196" lon="8.89983888315">
		<tag k="name" v="Verpe" />
		<tag k="place" v="hamlet" />
		<tag k="ssr:stedsnr" v="935453" />
	</node>
	<node id="-236333" lat="59.4741388853" lon="9.07182777757">
		<tag k="alt_name" v="Skjellbreid" />
		<tag k="name" v="Skjelbreid" />
		<tag k="place" v="farm" />
		<tag k="ssr:stedsnr" v="913572" />
	</node>
	<node id="-236331" lat="59.4764749972" lon="9.14294721529">
		<tag k="loc_name" v="Solbjørg" />
		<tag k="name" v="Solbjør" />
		<tag k="place" v="locality" />
		<tag k="ssr:stedsnr" v="913568" />
	</node>
	<node id="-236330" lat="59.473411108" lon="8.99496388219">
		<tag k="name" v="Grostul" />
		<tag k="place" v="locality" />
		<tag k="ssr:stedsnr" v="913454" />
	</node>
	<node id="-236328" lat="59.5162194411" lon="9.11223055692">
		<tag k="alt_name" v="Rudningsland" />
		<tag k="name" v="Rønningsland" />
		<tag k="place" v="farm" />
		<tag k="ssr:stedsnr" v="913451" />
	</node>
	<node id="-236326" lat="59.4580083344" lon="8.99264167399">
		<tag k="name" v="Åbakkane" />
		<tag k="place" v="locality" />
		<tag k="ssr:stedsnr" v="913442" />
	</node>
	<node id="-236325" lat="59.4196777771" lon="9.03261388066">
		<tag k="alt_name" v="Midtbø" />
		<tag k="name" v="Midbø" />
		<tag k="place" v="farm" />
		<tag k="ssr:stedsnr" v="913420" />
	</node>
	<node id="-236323" lat="59.4224055564" lon="8.97739166089">
		<tag k="name" v="Haugerud" />
		<tag k="place" v="farm" />
		<tag k="ssr:stedsnr" v="913416" />
	</node>
	<node id="-236321" lat="59.5269749989" lon="9.02730833335">
		<tag k="name" v="Tyristul" />
		<tag k="place" v="locality" />
		<tag k="ssr:stedsnr" v="913381" />
	</node>
	<node id="-236320" lat="59.381638892" lon="8.93065277304">
		<tag k="alt_name" v="Steinurdshol" />
		<tag k="name" v="Steinulvshol" />
		<tag k="place" v="isolated_dwelling" />
		<tag k="ssr:stedsnr" v="913326" />
	</node>
	<node id="-236319" lat="59.3816888852" lon="9.02963888929">
		<tag k="fixme" v="consider place=hamlet" />
		<tag k="name" v="Eikjabygda" />
		<tag k="place" v="village" />
		<tag k="ssr:stedsnr" v="913320" />
	</node>
	<node id="-236318" lat="59.3894749999" lon="8.98846943564">
		<tag k="name" v="Dalen" />
		<tag k="place" v="farm" />
		<tag k="ssr:stedsnr" v="913306" />
	</node>
	<node id="-236313" lat="59.4982916631" lon="9.13298055229">
		<tag k="name" v="Slåtta" />
		<tag k="place" v="farm" />
		<tag k="ssr:stedsnr" v="912606" />
	</node>
	<node id="-236312" lat="59.4861166623" lon="9.02676388729">
		<tag k="name" v="Sudknalian" />
		<tag k="place" v="isolated_dwelling" />
		<tag k="ssr:stedsnr" v="912594" />
	</node>
	<node id="-236310" lat="59.4386444459" lon="9.07005554955">
		<tag k="alt_name" v="Helldal" />
		<tag k="name" v="Heldal" />
		<tag k="place" v="farm" />
		<tag k="ssr:stedsnr" v="912486" />
	</node>
	<node id="-236306" lat="59.4399583315" lon="9.01711943641">
		<tag k="alt_name" v="Torskåsa" />
		<tag k="name" v="Torekåsa" />
		<tag k="place" v="farm" />
		<tag k="ssr:stedsnr" v="912456" />
	</node>
	<node id="-236305" lat="59.4318722219" lon="9.08105556312">
		<tag k="name" v="Myrane" />
		<tag k="place" v="farm" />
		<tag k="ssr:stedsnr" v="912439" />
	</node>
	<node id="-236304" lat="59.4038249958" lon="8.95051667308">
		<tag k="name" v="Tveitan" />
		<tag k="place" v="farm" />
		<tag k="ssr:stedsnr" v="912418" />
	</node>
	<node id="-236300" lat="59.3896583361" lon="8.93203055941">
		<tag k="name" v="Kasin" />
		<tag k="place" v="isolated_dwelling" />
		<tag k="ssr:stedsnr" v="912335" />
	</node>
	<node id="-236298" lat="59.3521388921" lon="8.91343056038">
		<tag k="historic" v="shieling" />
		<tag k="name" v="Grånåstul" />
		<tag k="place" v="locality" />
		<tag k="ssr:stedsnr" v="912265" />
	</node>
	<node id="-236291" lat="59.4359027754" lon="8.87116388857">
		<tag k="name" v="Haugen" />
		<tag k="place" v="farm" />
		<tag k="ssr:stedsnr" v="878878" />
	</node>
	<node id="-236270" lat="59.4296944401" lon="8.88495555401">
		<tag k="fixme" v="consider place=hamlet" />
		<tag k="name" v="Øvre Bø" />
		<tag k="place" v="village" />
		<tag k="ssr:stedsnr" v="877620" />
	</node>
	<node id="-236267" lat="59.5184527738" lon="9.02043332971">
		<tag k="name" v="Sud Årlia" />
		<tag k="place" v="locality" />
		<tag k="ssr:stedsnr" v="876651" />
	</node>
	<node id="-236261" lat="59.4703527771" lon="9.08628888694">
		<tag k="name" v="Breiva" />
		<tag k="place" v="locality" />
		<tag k="ssr:stedsnr" v="876504" />
	</node>
	<node id="-236258" lat="59.3925666709" lon="9.05251665797">
		<tag k="name" v="Nyvoll" />
		<tag k="place" v="farm" />
		<tag k="ssr:stedsnr" v="876294" />
	</node>
	<node id="-236252" lat="59.4153194437" lon="8.91771944969">
		<tag k="name" v="Innleggen" />
		<tag k="place" v="farm" />
		<tag k="ssr:stedsnr" v="876127" />
	</node>
	<node id="-236250" lat="59.40648333" lon="8.93966111692">
		<tag k="name" v="Ronningen" />
		<tag k="place" v="farm" />
		<tag k="ssr:stedsnr" v="876116" />
	</node>
	<node id="-236249" lat="59.4424222199" lon="9.06870555351">
		<tag k="name" v="Innleggen" />
		<tag k="place" v="farm" />
		<tag k="ssr:stedsnr" v="876069" />
	</node>
	<node id="-236244" lat="59.4022083378" lon="9.06291666179">
		<tag k="name" v="Nyland" />
		<tag k="place" v="farm" />
		<tag k="ssr:stedsnr" v="875655" />
	</node>
	<node id="-236243" lat="59.4050472228" lon="9.07445278147">
		<tag k="name" v="Kåsin" />
		<tag k="place" v="locality" />
		<tag k="ssr:stedsnr" v="875630" />
	</node>
	<node id="-236241" lat="59.4094888886" lon="9.08005277756">
		<tag k="name" v="Torstveit" />
		<tag k="place" v="farm" />
		<tag k="ssr:stedsnr" v="875622" />
	</node>
	<node id="-236238" lat="59.4161583336" lon="9.0157611176">
		<tag k="name" v="Forberg" />
		<tag k="place" v="farm" />
		<tag k="ssr:stedsnr" v="875518" />
	</node>
	<node id="-236237" lat="59.4788833369" lon="9.07751666092">
		<tag k="name" v="Liene" />
		<tag k="place" v="farm" />
		<tag k="ssr:stedsnr" v="875469" />
	</node>
	<node id="-236234" lat="59.4204472194" lon="9.06470554881">
		<tag k="name" v="Sisjord" />
		<tag k="place" v="farm" />
		<tag k="ssr:stedsnr" v="875737" />
	</node>
	<node id="-236233" lat="59.418644441" lon="9.06655278468">
		<tag k="fixme" v="consider place=hamlet" />
		<tag k="name" v="Haugerud" />
		<tag k="place" v="farm" />
		<tag k="ssr:stedsnr" v="875736" />
	</node>
	<node id="-236231" lat="59.4131611141" lon="9.05894166069">
		<tag k="name" v="Helland" />
		<tag k="place" v="farm" />
		<tag k="ssr:stedsnr" v="875252" />
	</node>
	<node id="-236229" lat="59.4030388865" lon="8.96446666478">
		<tag k="name" v="Skoe" />
		<tag k="place" v="farm" />
		<tag k="ssr:stedsnr" v="875063" />
	</node>
	<node id="-236226" lat="59.4144527735" lon="9.00073056244">
		<tag k="alt_name" v="Nordre Forberget" />
		<tag k="fixme" v="consider place=hamlet" />
		<tag k="name" v="Forberg" />
		<tag k="place" v="farm" />
		<tag k="ssr:stedsnr" v="875027" />
	</node>
	<node id="-236225" lat="59.4119166686" lon="8.99975000273">
		<tag k="amenity" v="school" />
		<tag k="name" v="Forberg skule" />
		<tag k="ssr:stedsnr" v="875025" />
	</node>
	<node id="-236222" lat="59.4402138922" lon="9.05619999493">
		<tag k="name" v="Eika" />
		<tag k="place" v="farm" />
		<tag k="ssr:stedsnr" v="874530" />
	</node>
	<node id="-236218" lat="59.4900361123" lon="9.07507777535">
		<tag k="name" v="Orebakken" />
		<tag k="place" v="farm" />
		<tag k="ssr:stedsnr" v="852602" />
	</node>
	<node id="-236217" lat="59.484461114" lon="9.1559388823">
		<tag k="name" v="Stykket" />
		<tag k="place" v="farm" />
		<tag k="ssr:stedsnr" v="852600" />
	</node>
	<node id="-236211" lat="59.4255388851" lon="8.92281111082">
		<tag k="name" v="Karistul" />
		<tag k="place" v="locality" />
		<tag k="ssr:stedsnr" v="852430" />
	</node>
	<node id="-236210" lat="59.4316222264" lon="9.04581111671">
		<tag k="name" v="Oterholt" />
		<tag k="place" v="hamlet" />
		<tag k="ssr:stedsnr" v="852416" />
	</node>
	<node id="-236209" lat="59.4195083322" lon="8.89569722507">
		<tag k="name" v="Vollen" />
		<tag k="place" v="farm" />
		<tag k="ssr:stedsnr" v="852385" />
	</node>
	<node id="-236208" lat="59.4126138878" lon="9.04135555413">
		<tag k="name" v="Nordbø" />
		<tag k="place" v="farm" />
		<tag k="ssr:stedsnr" v="852381" />
	</node>
	<node id="-236204" lat="59.3959416699" lon="9.0487444363">
		<tag k="name" v="Evju" />
		<tag k="place" v="farm" />
		<tag k="ssr:stedsnr" v="852365" />
	</node>
	<node id="-236203" lat="59.3942666663" lon="9.04612500086">
		<tag k="alt_name" v="Staskleiv" />
		<tag k="fixme" v="consider place=hamlet" />
		<tag k="name" v="Stadskleiv" />
		<tag k="place" v="farm" />
		<tag k="ssr:stedsnr" v="852364" />
	</node>
	<node id="-236202" lat="59.4089888859" lon="9.02836111806">
		<tag k="name" v="Løvskeid" />
		<tag k="place" v="farm" />
		<tag k="ssr:stedsnr" v="852350" />
	</node>
	<node id="-236199" lat="59.3725000015" lon="9.04256110279">
		<tag k="name" v="Sudbø" />
		<tag k="place" v="farm" />
		<tag k="ssr:stedsnr" v="852293" />
	</node>
	<node id="-236191" lat="59.4229555593" lon="8.90451943998">
		<tag k="name" v="Sondbø" />
		<tag k="place" v="isolated_dwelling" />
		<tag k="ssr:stedsnr" v="817779" />
	</node>
	<node id="-236189" lat="59.47418889" lon="8.9664305564">
		<tag k="name" v="Lislestul" />
		<tag k="place" v="locality" />
		<tag k="ssr:stedsnr" v="817652" />
	</node>
	<node id="-236184" lat="59.3647888848" lon="8.92206666595">
		<tag k="name" v="Øyan" />
		<tag k="place" v="locality" />
		<tag k="ssr:stedsnr" v="817046" />
	</node>
	<node id="-236174" lat="59.4562888919" lon="9.04819166733">
		<tag k="name" v="Ramle" />
		<tag k="place" v="locality" />
		<tag k="ssr:stedsnr" v="816068" />
	</node>
	<node id="-236170" lat="59.43348056" lon="9.05467500743">
		<tag k="name" v="Haugesag" />
		<tag k="place" v="locality" />
		<tag k="ssr:stedsnr" v="815578" />
	</node>
	<node id="-236166" lat="59.4228805528" lon="9.05421943869">
		<tag k="name" v="Gunvorskås" />
		<tag k="place" v="farm" />
		<tag k="ssr:stedsnr" v="815513" />
	</node>
	<node id="-236162" lat="59.4346805564" lon="9.12554166092">
		<tag k="name" v="Tongarden" />
		<tag k="place" v="isolated_dwelling" />
		<tag k="ssr:stedsnr" v="815292" />
	</node>
	<node id="-236161" lat="59.4478833289" lon="9.11618333541">
		<tag k="name" v="Monsekåsa" />
		<tag k="place" v="locality" />
		<tag k="ssr:stedsnr" v="815267" />
	</node>
	<node id="-236159" lat="59.4496055563" lon="9.07346666021">
		<tag k="name" v="Steintjønndalen" />
		<tag k="place" v="locality" />
		<tag k="ssr:stedsnr" v="815263" />
	</node>
	<node id="-236158" lat="59.4045333365" lon="9.04350556173">
		<tag k="name" v="Nistås" />
		<tag k="place" v="farm" />
		<tag k="ssr:stedsnr" v="815258" />
	</node>
	<node id="-236157" lat="59.4520055598" lon="9.11405000646">
		<tag k="name" v="Fykerud" />
		<tag k="place" v="locality" />
		<tag k="ssr:stedsnr" v="815257" />
	</node>
	<node id="-236155" lat="59.4116833321" lon="8.90193611857">
		<tag k="name" v="Grave" />
		<tag k="place" v="farm" />
		<tag k="ssr:stedsnr" v="815149" />
	</node>
	<node id="-236154" lat="59.4593388914" lon="8.95633610599">
		<tag k="name" v="Kringlåsstulane" />
		<tag k="place" v="locality" />
		<tag k="ssr:stedsnr" v="815100" />
	</node>
	<node id="-236153" lat="59.4629388876" lon="8.95223333046">
		<tag k="name" v="Myrland" />
		<tag k="place" v="locality" />
		<tag k="ssr:stedsnr" v="815092" />
	</node>
	<node id="-236151" lat="59.4106805533" lon="8.98984999805">
		<tag k="name" v="Skogheim" />
		<tag k="place" v="farm" />
		<tag k="ssr:stedsnr" v="815068" />
	</node>
	<node id="-236150" lat="59.4141194452" lon="8.95535556066">
		<tag k="name" v="Skruvrud" />
		<tag k="place" v="farm" />
		<tag k="ssr:stedsnr" v="815051" />
	</node>
	<node id="-236147" lat="59.416525002" lon="9.06307777038">
		<tag k="amenity" v="school" />
		<tag k="name" v="Bø gymnas" />
		<tag k="ssr:stedsnr" v="814687" />
	</node>
	<node id="-236145" lat="59.492358329" lon="9.08583888233">
		<tag k="name" v="Tveiten" />
		<tag k="place" v="farm" />
		<tag k="ssr:stedsnr" v="814590" />
	</node>
	<node id="-236143" lat="59.4205333326" lon="9.01513888857">
		<tag k="name" v="Kåsa" />
		<tag k="place" v="farm" />
		<tag k="ssr:stedsnr" v="814532" />
	</node>
	<node id="-236142" lat="59.3896249992" lon="9.05886388554">
		<tag k="name" v="Roe" />
		<tag k="place" v="farm" />
		<tag k="ssr:stedsnr" v="814436" />
	</node>
	<node id="-236138" lat="59.4350138933" lon="9.06367500185">
		<tag k="name" v="Hellekås" />
		<tag k="place" v="farm" />
		<tag k="ssr:stedsnr" v="814153" />
	</node>
	<node id="-236136" lat="59.4186694459" lon="8.96813055204">
		<tag k="name" v="Haugen" />
		<tag k="place" v="farm" />
		<tag k="ssr:stedsnr" v="814076" />
	</node>
	<node id="-236129" lat="59.5113777735" lon="9.13489444102">
		<tag k="name" v="Vatnar" />
		<tag k="place" v="farm" />
		<tag k="ssr:stedsnr" v="792453" />
	</node>
	<node id="-236127" lat="59.4850499965" lon="9.15801666076">
		<tag k="name" v="Lauvstad" />
		<tag k="place" v="farm" />
		<tag k="ssr:stedsnr" v="791605" />
	</node>
	<node id="-236126" lat="59.4888805543" lon="9.12725000588">
		<tag k="name" v="Tjønnås" />
		<tag k="place" v="isolated_dwelling" />
		<tag k="ssr:stedsnr" v="791603" />
	</node>
	<node id="-236124" lat="59.476411113" lon="9.01370278016">
		<tag k="fixme" v="consider tourism=alpine_hut or tourism=chalet" />
		<tag k="name" v="Lifjellstua" />
		<tag k="ssr:stedsnr" v="791588" />
		<tag k="tourism" v="wilderness_hut" />
	</node>
	<node id="-236121" lat="59.4757500015" lon="9.0977972279">
		<tag k="name" v="Storemyr" />
		<tag k="place" v="farm" />
		<tag k="ssr:stedsnr" v="791582" />
	</node>
	<node id="-236120" lat="59.4956694432" lon="9.08117778138">
		<tag k="alt_name" v="Stokkland" />
		<tag k="fixme" v="consider place=hamlet" />
		<tag k="name" v="Stokland" />
		<tag k="place" v="farm" />
		<tag k="ssr:stedsnr" v="791565" />
	</node>
	<node id="-236119" lat="59.4978416623" lon="9.14753889605">
		<tag k="alt_name" v="Belatjørn" />
		<tag k="fixme" v="consider place=hamlet" />
		<tag k="name" v="Belatjønn" />
		<tag k="place" v="farm" />
		<tag k="ssr:stedsnr" v="791561" />
	</node>
	<node id="-236117" lat="59.4554527748" lon="9.02987222367">
		<tag k="alt_name" v="Lifjell Turisthotell" />
		<tag k="name" v="Lifjell hotell" />
		<tag k="ssr:stedsnr" v="791483" />
		<tag k="tourism" v="hotel" />
	</node>
	<node id="-236112" lat="59.4546527817" lon="9.0338138851">
		<tag k="alt_name" v="Østeli;Østerli" />
		<tag k="fixme" v="consider place=hamlet" />
		<tag k="name" v="Østli" />
		<tag k="place" v="farm" />
		<tag k="ssr:stedsnr" v="791433" />
	</node>
	<node id="-236111" lat="59.4511527763" lon="9.04474443772">
		<tag k="alt_name" v="Bjørnefell" />
		<tag k="name" v="Bjønnfeld" />
		<tag k="place" v="farm" />
		<tag k="ssr:stedsnr" v="791432" />
	</node>
	<node id="-236110" lat="59.4553027746" lon="9.06705834063">
		<tag k="name" v="Ufs" />
		<tag k="place" v="farm" />
		<tag k="ssr:stedsnr" v="791428" />
	</node>
	<node id="-236109" lat="59.4501305516" lon="9.11416944199">
		<tag k="name" v="Tamburkåsa" />
		<tag k="place" v="farm" />
		<tag k="ssr:stedsnr" v="791424" />
	</node>
	<node id="-236108" lat="59.438086114" lon="9.01646666667">
		<tag k="name" v="Åsane" />
		<tag k="place" v="farm" />
		<tag k="ssr:stedsnr" v="791414" />
	</node>
	<node id="-236107" lat="59.4275222263" lon="8.98771666689">
		<tag k="name" v="Vreim" />
		<tag k="place" v="farm" />
		<tag k="ssr:stedsnr" v="791409" />
	</node>
	<node id="-236106" lat="59.4057583362" lon="8.96232778611">
		<tag k="fixme" v="consider place=hamlet" />
		<tag k="name" v="Skoe" />
		<tag k="place" v="farm" />
		<tag k="ssr:stedsnr" v="791371" />
	</node>
	<node id="-236104" lat="59.4113388914" lon="8.9068277741">
		<tag k="fixme" v="consider place=hamlet" />
		<tag k="name" v="Grave" />
		<tag k="place" v="farm" />
		<tag k="ssr:stedsnr" v="791368" />
	</node>
	<node id="-236101" lat="59.3754749993" lon="9.03454166352">
		<tag k="fixme" v="consider place=hamlet" />
		<tag k="name" v="Åse" />
		<tag k="place" v="farm" />
		<tag k="ssr:stedsnr" v="791327" />
	</node>
	<node id="-236100" lat="59.3854666652" lon="9.05931111456">
		<tag k="name" v="Bergland" />
		<tag k="place" v="farm" />
		<tag k="ssr:stedsnr" v="791303" />
	</node>
	<node id="-236099" lat="59.390061114" lon="9.05605832606">
		<tag k="alt_name" v="Rui" />
		<tag k="name" v="Roe" />
		<tag k="place" v="farm" />
		<tag k="ssr:stedsnr" v="791302" />
	</node>
	<node id="-236098" lat="59.4308472247" lon="9.11580000301">
		<tag k="name" v="Langkås" />
		<tag k="place" v="farm" />
		<tag k="ssr:stedsnr" v="791378" />
	</node>
	<node id="-236089" lat="59.5056055568" lon="9.0376055485">
		<tag k="name" v="Sud Årmot" />
		<tag k="place" v="locality" />
		<tag k="ssr:stedsnr" v="756541" />
	</node>
	<node id="-236086" lat="59.4779972222" lon="9.03483332643">
		<tag k="name" v="Haugestul" />
		<tag k="place" v="locality" />
		<tag k="ssr:stedsnr" v="756503" />
	</node>
	<node id="-236079" lat="59.428069441" lon="8.98976944613">
		<tag k="name" v="Hyttekåsa" />
		<tag k="place" v="locality" />
		<tag k="ssr:stedsnr" v="755847" />
	</node>
	<node id="-236076" lat="59.4862472208" lon="9.05609999132">
		<tag k="name" v="Myrenstulen" />
		<tag k="place" v="locality" />
		<tag k="ssr:stedsnr" v="755724" />
	</node>
	<node id="-236074" lat="59.4881916626" lon="9.01328334167">
		<tag k="name" v="Fjellstul" />
		<tag k="place" v="locality" />
		<tag k="ssr:stedsnr" v="755559" />
	</node>
	<node id="-236070" lat="59.4576194404" lon="9.03841389411">
		<tag k="historic" v="shieling" />
		<tag k="name" v="Heimstulen" />
		<tag k="place" v="locality" />
		<tag k="ssr:stedsnr" v="755067" />
	</node>
	<node id="-236067" lat="59.4080472246" lon="9.09763333511">
		<tag k="fixme" v="consider place=hamlet" />
		<tag k="name" v="Lien" />
		<tag k="place" v="farm" />
		<tag k="ssr:stedsnr" v="754718" />
	</node>
	<node id="-236066" lat="59.4102361104" lon="9.11100833064">
		<tag k="name" v="Åsgrav" />
		<tag k="place" v="farm" />
		<tag k="ssr:stedsnr" v="754714" />
	</node>
	<node id="-236062" lat="59.4291777747" lon="9.02483055766">
		<tag k="name" v="Buskerønning" />
		<tag k="place" v="farm" />
		<tag k="ssr:stedsnr" v="754581" />
	</node>
	<node id="-236060" lat="59.4217083374" lon="9.00607500809">
		<tag k="name" v="Bakås" />
		<tag k="place" v="farm" />
		<tag k="ssr:stedsnr" v="754559" />
	</node>
	<node id="-236057" lat="59.3785777785" lon="9.02058055221">
		<tag k="name" v="Fossli" />
		<tag k="place" v="farm" />
		<tag k="ssr:stedsnr" v="754399" />
	</node>
	<node id="-236054" lat="59.4238555516" lon="9.10598055067">
		<tag k="name" v="Gåra" />
		<tag k="place" v="farm" />
		<tag k="ssr:stedsnr" v="754248" />
	</node>
	<node id="-236052" lat="59.4186250006" lon="8.97586389353">
		<tag k="name" v="Kåsin" />
		<tag k="place" v="farm" />
		<tag k="ssr:stedsnr" v="754110" />
	</node>
	<node id="-236050" lat="59.4389888875" lon="9.11771945311">
		<tag k="name" v="Høgemo" />
		<tag k="place" v="farm" />
		<tag k="ssr:stedsnr" v="754032" />
	</node>
	<node id="-236048" lat="59.4738861143" lon="9.14525555498">
		<tag k="name" v="Solbjør" />
		<tag k="place" v="locality" />
		<tag k="ssr:stedsnr" v="753898" />
	</node>
	<node id="-236047" lat="59.4941250039" lon="9.10296667069">
		<tag k="name" v="Såmundskast" />
		<tag k="place" v="farm" />
		<tag k="ssr:stedsnr" v="753534" />
	</node>
	<node id="-236045" lat="59.4395861101" lon="9.01080834204">
		<tag k="name" v="Skorra" />
		<tag k="place" v="locality" />
		<tag k="ssr:stedsnr" v="753465" />
	</node>
	<node id="-236044" lat="59.4146611105" lon="9.0175472252">
		<tag k="name" v="Espeland" />
		<tag k="place" v="farm" />
		<tag k="ssr:stedsnr" v="753456" />
	</node>
	<node id="-236043" lat="59.4178222181" lon="9.05514167187">
		<tag k="name" v="Høybø" />
		<tag k="place" v="farm" />
		<tag k="ssr:stedsnr" v="753442" />
	</node>
	<node id="-236042" lat="59.4187777817" lon="9.05626943639">
		<tag k="name" v="Østbø" />
		<tag k="place" v="farm" />
		<tag k="ssr:stedsnr" v="753441" />
	</node>
	<node id="-236041" lat="59.4806777799" lon="9.10794165932">
		<tag k="name" v="Lonstul" />
		<tag k="place" v="locality" />
		<tag k="ssr:stedsnr" v="753402" />
	</node>
	<node id="-236040" lat="59.404913889" lon="9.03189445029">
		<tag k="name" v="Tjønna" />
		<tag k="place" v="locality" />
		<tag k="ssr:stedsnr" v="753202" />
	</node>
	<node id="-236031" lat="59.4631694485" lon="9.07012777689">
		<tag k="name" v="Myrvoll" />
		<tag k="place" v="farm" />
		<tag k="ssr:stedsnr" v="731456" />
	</node>
	<node id="-236030" lat="59.4579694437" lon="9.11347221643">
		<tag k="name" v="Kantebakke" />
		<tag k="place" v="isolated_dwelling" />
		<tag k="ssr:stedsnr" v="731453" />
	</node>
	<node id="-236028" lat="59.5213222211" lon="9.10145833254">
		<tag k="name" v="Nystul" />
		<tag k="place" v="locality" />
		<tag k="ssr:stedsnr" v="731439" />
	</node>
	<node id="-236027" lat="59.4161694487" lon="9.11136389641">
		<tag k="name" v="Haugland" />
		<tag k="place" v="farm" />
		<tag k="ssr:stedsnr" v="731366" />
	</node>
	<node id="-236026" lat="59.4101833306" lon="9.0875333267">
		<tag k="name" v="Sperrud" />
		<tag k="place" v="farm" />
		<tag k="ssr:stedsnr" v="731364" />
	</node>
	<node id="-236025" lat="59.4136972204" lon="9.02917221895">
		<tag k="name" v="Mørkholt" />
		<tag k="place" v="farm" />
		<tag k="ssr:stedsnr" v="731347" />
	</node>
	<node id="-236019" lat="59.4988972242" lon="9.0503833314">
		<tag k="name" v="Øverland" />
		<tag k="place" v="farm" />
		<tag k="ssr:stedsnr" v="730633" />
	</node>
	<node id="-236018" lat="59.4491527817" lon="8.91711944503">
		<tag k="name" v="Skålbu" />
		<tag k="place" v="locality" />
		<tag k="ssr:stedsnr" v="730517" />
	</node>
	<node id="-236017" lat="59.4419222236" lon="9.03606944087">
		<tag k="alt_name" v="Tronskåsa" />
		<tag k="name" v="Tronskås" />
		<tag k="place" v="farm" />
		<tag k="ssr:stedsnr" v="730490" />
	</node>
	<node id="-236015" lat="59.4335444418" lon="8.90811943864">
		<tag k="name" v="Landsverk" />
		<tag k="place" v="locality" />
		<tag k="ssr:stedsnr" v="730479" />
	</node>
	<node id="-236013" lat="59.4056388915" lon="9.1028833252">
		<tag k="name" v="Kåsa" />
		<tag k="place" v="farm" />
		<tag k="ssr:stedsnr" v="730349" />
	</node>
	<node id="-236007" lat="59.4252916681" lon="8.97830556235">
		<tag k="amenity" v="school" />
		<tag k="name" v="Grotemo" />
		<tag k="ssr:stedsnr" v="696829" />
	</node>
	<node id="-236002" lat="59.4857777786" lon="9.02617499954">
		<tag k="historic" v="shieling" />
		<tag k="name" v="Liastulen" />
		<tag k="place" v="locality" />
		<tag k="ssr:stedsnr" v="696438" />
	</node>
	<node id="-236001" lat="59.4820749971" lon="9.03595277863">
		<tag k="name" v="Futhol" />
		<tag k="place" v="locality" />
		<tag k="ssr:stedsnr" v="696437" />
	</node>
	<node id="-235991" lat="59.4422749993" lon="8.99990277502">
		<tag k="name" v="Slåtta" />
		<tag k="place" v="locality" />
		<tag k="ssr:stedsnr" v="695859" />
	</node>
	<node id="-235982" lat="59.453963887" lon="9.0444638896">
		<tag k="name" v="Kytelia" />
		<tag k="place" v="farm" />
		<tag k="ssr:stedsnr" v="695044" />
	</node>
	<node id="-235980" lat="59.4329277763" lon="9.05940277096">
		<tag k="name" v="Hellos" />
		<tag k="place" v="locality" />
		<tag k="ssr:stedsnr" v="694618" />
	</node>
	<node id="-235979" lat="59.5090694489" lon="8.99275832892">
		<tag k="name" v="Fjellstul" />
		<tag k="place" v="locality" />
		<tag k="ssr:stedsnr" v="694572" />
	</node>
	<node id="-235978" lat="59.4784666671" lon="9.06771666842">
		<tag k="name" v="Flåta" />
		<tag k="place" v="isolated_dwelling" />
		<tag k="ssr:stedsnr" v="694470" />
	</node>
	<node id="-235973" lat="59.3825249957" lon="9.03537500517">
		<tag k="name" v="Eikja" />
		<tag k="place" v="farm" />
		<tag k="ssr:stedsnr" v="694301" />
	</node>
	<node id="-235968" lat="59.4057361125" lon="8.84705000566">
		<tag k="name" v="Gautil" />
		<tag k="place" v="locality" />
		<tag k="ssr:stedsnr" v="694132" />
	</node>
	<node id="-235966" lat="59.4062972256" lon="8.94543333198">
		<tag k="fixme" v="consider place=hamlet" />
		<tag k="name" v="Tveitan" />
		<tag k="place" v="farm" />
		<tag k="ssr:stedsnr" v="694083" />
	</node>
	<node id="-235965" lat="59.4074166634" lon="8.9377055586">
		<tag k="name" v="Bergstig" />
		<tag k="place" v="isolated_dwelling" />
		<tag k="ssr:stedsnr" v="694080" />
	</node>
	<node id="-235964" lat="59.4524833311" lon="9.11883889743">
		<tag k="name" v="Bjønnemyr" />
		<tag k="place" v="farm" />
		<tag k="ssr:stedsnr" v="693919" />
	</node>
	<node id="-235959" lat="59.4050638898" lon="9.0710361141">
		<tag k="name" v="Åsen" />
		<tag k="place" v="locality" />
		<tag k="ssr:stedsnr" v="693665" />
	</node>
	<node id="-235956" lat="59.4282777777" lon="9.04881111503">
		<tag k="fixme" v="consider place=hamlet" />
		<tag k="name" v="Djupskås" />
		<tag k="place" v="farm" />
		<tag k="ssr:stedsnr" v="693588" />
	</node>
	<node id="-235955" lat="59.3989333369" lon="9.05172499419">
		<tag k="name" v="Veirud" />
		<tag k="place" v="farm" />
		<tag k="ssr:stedsnr" v="693486" />
	</node>
	<node id="-235950" lat="59.4403916644" lon="9.13144444992">
		<tag k="name" v="Kleiva" />
		<tag k="place" v="locality" />
		<tag k="ssr:stedsnr" v="693343" />
	</node>
	<node id="-235949" lat="59.4248777761" lon="9.12557499713">
		<tag k="name" v="Hegnastykket" />
		<tag k="place" v="farm" />
		<tag k="ssr:stedsnr" v="693333" />
	</node>
	<node id="-235946" lat="59.4112416676" lon="9.03905834212">
		<tag k="fixme" v="consider place=hamlet" />
		<tag k="name" v="Nordbø" />
		<tag k="place" v="farm" />
		<tag k="ssr:stedsnr" v="693297" />
	</node>
	<node id="-235943" lat="59.4643305547" lon="8.95804167132">
		<tag k="name" v="Høgsås" />
		<tag k="place" v="locality" />
		<tag k="ssr:stedsnr" v="693119" />
	</node>
	<node id="-235942" lat="59.4197805595" lon="8.9707055475">
		<tag k="name" v="Haugerud" />
		<tag k="place" v="farm" />
		<tag k="ssr:stedsnr" v="693091" />
	</node>
	<node id="-235941" lat="59.4080444477" lon="8.94856111236">
		<tag k="name" v="Evju" />
		<tag k="place" v="farm" />
		<tag k="ssr:stedsnr" v="693060" />
	</node>
	<node id="-235940" lat="59.4443888863" lon="9.01302777872">
		<tag k="name" v="Liene" />
		<tag k="place" v="farm" />
		<tag k="ssr:stedsnr" v="693030" />
	</node>
	<node id="-235939" lat="59.4475527778" lon="9.02761111725">
		<tag k="name" v="Bergskås" />
		<tag k="place" v="farm" />
		<tag k="ssr:stedsnr" v="693023" />
	</node>
	<node id="-235936" lat="59.4282083337" lon="9.05703610857">
		<tag k="name" v="Sisjord" />
		<tag k="place" v="farm" />
		<tag k="ssr:stedsnr" v="692524" />
	</node>
	<node id="-235935" lat="59.4422666706" lon="9.02793055814">
		<tag k="name" v="Teig" />
		<tag k="place" v="locality" />
		<tag k="ssr:stedsnr" v="692480" />
	</node>
	<node id="-235933" lat="59.4169527766" lon="9.05822499741">
		<tag k="name" v="Holmen" />
		<tag k="place" v="farm" />
		<tag k="ssr:stedsnr" v="693522" />
	</node>
	<node id="-235928" lat="59.4669583332" lon="8.97327499344">
		<tag k="name" v="Krossmyrane" />
		<tag k="place" v="locality" />
		<tag k="ssr:stedsnr" v="670569" />
	</node>
	<node id="-235927" lat="59.4722333331" lon="9.12016389189">
		<tag k="name" v="Vermelia" />
		<tag k="place" v="locality" />
		<tag k="ssr:stedsnr" v="670451" />
	</node>
	<node id="-235925" lat="59.5127999959" lon="9.06676110646">
		<tag k="name" v="Kleivstul" />
		<tag k="place" v="locality" />
		<tag k="ssr:stedsnr" v="670448" />
	</node>
	<node id="-235924" lat="59.4235472217" lon="9.03971667499">
		<tag k="fixme" v="consider place=hamlet" />
		<tag k="name" v="Fossheim" />
		<tag k="place" v="farm" />
		<tag k="ssr:stedsnr" v="670427" />
	</node>
	<node id="-235923" lat="59.418752775" lon="9.08142223102">
		<tag k="name" v="Sanda" />
		<tag k="place" v="farm" />
		<tag k="ssr:stedsnr" v="670375" />
	</node>
	<node id="-235921" lat="59.3856777822" lon="9.0170111119">
		<tag k="name" v="Slåtta" />
		<tag k="place" v="farm" />
		<tag k="ssr:stedsnr" v="670312" />
	</node>
	<node id="-235920" lat="59.4899472486" lon="9.15637361255">
		<tag k="alt_name" v="Roem" />
		<tag k="fixme" v="consider place=hamlet" />
		<tag k="name" v="Roheim" />
		<tag k="place" v="farm" />
		<tag k="ssr:stedsnr" v="669630" />
	</node>
	<node id="-235918" lat="59.4933083373" lon="9.074280549">
		<tag k="name" v="Røysland" />
		<tag k="place" v="farm" />
		<tag k="ssr:stedsnr" v="669593" />
	</node>
	<node id="-235917" lat="59.4924388853" lon="9.09934999314">
		<tag k="name" v="Lona" />
		<tag k="place" v="farm" />
		<tag k="ssr:stedsnr" v="669592" />
	</node>
	<node id="-235914" lat="59.4378388916" lon="8.86710276922">
		<tag k="name" v="Kasin" />
		<tag k="place" v="farm" />
		<tag k="ssr:stedsnr" v="669475" />
	</node>
	<node id="-235911" lat="59.4082777765" lon="8.97519166042">
		<tag k="name" v="Orekåsa" />
		<tag k="place" v="farm" />
		<tag k="ssr:stedsnr" v="669402" />
	</node>
	<node id="-235910" lat="59.3912083356" lon="8.90599166672">
		<tag k="name" v="Løyningen" />
		<tag k="place" v="locality" />
		<tag k="ssr:stedsnr" v="669358" />
	</node>
	<node id="-235902" lat="59.4416416696" lon="9.00103888081">
		<tag k="name" v="Kolahuset" />
		<tag k="place" v="locality" />
		<tag k="ssr:stedsnr" v="634882" />
	</node>
	<node id="-235900" lat="59.4369916644" lon="8.98592777601">
		<tag k="name" v="Langeskor" />
		<tag k="place" v="locality" />
		<tag k="ssr:stedsnr" v="634876" />
	</node>
	<node id="-235880" lat="59.3984055586" lon="9.04803610627">
		<tag k="name" v="Kåsin" />
		<tag k="place" v="farm" />
		<tag k="ssr:stedsnr" v="633340" />
	</node>
	<node id="-235878" lat="59.4039972185" lon="9.01186388289">
		<tag k="name" v="Halvorskås" />
		<tag k="place" v="isolated_dwelling" />
		<tag k="ssr:stedsnr" v="633311" />
	</node>
	<node id="-235874" lat="59.4093000001" lon="8.93794721726">
		<tag k="name" v="Nymoen" />
		<tag k="place" v="farm" />
		<tag k="ssr:stedsnr" v="633130" />
	</node>
	<node id="-235873" lat="59.4369333333" lon="9.06748332516">
		<tag k="name" v="Langkås" />
		<tag k="place" v="farm" />
		<tag k="ssr:stedsnr" v="633065" />
	</node>
	<node id="-235871" lat="59.4333250024" lon="9.06924445061">
		<tag k="name" v="Folkestad" />
		<tag k="place" v="farm" />
		<tag k="ssr:stedsnr" v="633028" />
	</node>
	<node id="-235869" lat="59.4058194427" lon="9.11920834201">
		<tag k="name" v="Skogkåsa" />
		<tag k="place" v="farm" />
		<tag k="ssr:stedsnr" v="632978" />
	</node>
	<node id="-235866" lat="59.4041472206" lon="9.11131944246">
		<tag k="name" v="Skogen" />
		<tag k="place" v="farm" />
		<tag k="ssr:stedsnr" v="632635" />
	</node>
	<node id="-235864" lat="59.4904277741" lon="9.10087778034">
		<tag k="name" v="Elvestad" />
		<tag k="place" v="farm" />
		<tag k="ssr:stedsnr" v="632569" />
	</node>
	<node id="-235861" lat="59.4223027788" lon="9.04436111794">
		<tag k="name" v="Fossheim" />
		<tag k="place" v="farm" />
		<tag k="ssr:stedsnr" v="632548" />
	</node>
	<node id="-235859" lat="59.4164749956" lon="9.03720278204">
		<tag k="name" v="Bakkane" />
		<tag k="place" v="isolated_dwelling" />
		<tag k="ssr:stedsnr" v="632509" />
	</node>
	<node id="-235858" lat="59.4730305543" lon="9.07411666602">
		<tag k="name" v="Sjellbreidhaugen" />
		<tag k="place" v="locality" />
		<tag k="ssr:stedsnr" v="632479" />
	</node>
	<node id="-235856" lat="59.4288027773" lon="9.12999443907">
		<tag k="name" v="Triland" />
		<tag k="place" v="farm" />
		<tag k="ssr:stedsnr" v="632317" />
	</node>
	<node id="-235855" lat="59.411858336" lon="9.01953889749">
		<tag k="name" v="Espeset" />
		<tag k="place" v="farm" />
		<tag k="ssr:stedsnr" v="632278" />
	</node>
	<node id="-235854" lat="59.4097694447" lon="8.98500833551">
		<tag k="name" v="Bjørkestad" />
		<tag k="place" v="farm" />
		<tag k="ssr:stedsnr" v="632087" />
	</node>
	<node id="-235853" lat="59.4099805594" lon="8.98788333744">
		<tag k="name" v="Storhaug" />
		<tag k="place" v="farm" />
		<tag k="ssr:stedsnr" v="632086" />
	</node>
	<node id="-235847" lat="59.4251472202" lon="9.05539165848">
		<tag k="name" v="Langkås" />
		<tag k="place" v="farm" />
		<tag k="ssr:stedsnr" v="631568" />
	</node>
	<node id="-235846" lat="59.4237583321" lon="9.05122500789">
		<tag k="name" v="Krossvegen" />
		<tag k="place" v="farm" />
		<tag k="ssr:stedsnr" v="631554" />
	</node>
	<node id="-235840" lat="59.4850299701" lon="9.16793803267">
		<tag k="alt_name" v="Svalbjørg" />
		<tag k="name" v="Svalbjør" />
		<tag k="place" v="farm" />
		<tag k="ssr:stedsnr" v="609573" />
	</node>
	<node id="-235839" lat="59.4600444438" lon="9.10651944885">
		<tag k="name" v="Brukåsa" />
		<tag k="place" v="locality" />
		<tag k="ssr:stedsnr" v="609467" />
	</node>
	<node id="-235837" lat="59.4276111151" lon="9.04527499792">
		<tag k="name" v="Brukås" />
		<tag k="place" v="farm" />
		<tag k="ssr:stedsnr" v="609424" />
	</node>
	<node id="-235836" lat="59.4218250028" lon="9.00408888116">
		<tag k="name" v="Bakås" />
		<tag k="place" v="farm" />
		<tag k="ssr:stedsnr" v="609422" />
	</node>
	<node id="-235835" lat="59.4238500026" lon="9.02578611254">
		<tag k="name" v="Saga" />
		<tag k="place" v="farm" />
		<tag k="ssr:stedsnr" v="609421" />
	</node>
	<node id="-235833" lat="59.4308749975" lon="9.02606110516">
		<tag k="name" v="Tollehaugen" />
		<tag k="place" v="farm" />
		<tag k="ssr:stedsnr" v="609410" />
	</node>
	<node id="-235832" lat="59.431125003" lon="9.00416944581">
		<tag k="name" v="Innleggen" />
		<tag k="place" v="farm" />
		<tag k="ssr:stedsnr" v="609404" />
	</node>
	<node id="-235831" lat="59.4141166689" lon="9.12007499234">
		<tag k="name" v="Åmot" />
		<tag k="place" v="farm" />
		<tag k="ssr:stedsnr" v="609389" />
	</node>
	<node id="-235829" lat="59.4129972219" lon="9.06925277788">
		<tag k="name" v="Bø" />
		<tag k="place" v="village" />
		<tag k="ssr:stedsnr" v="609374" />
	</node>
	<node id="-235828" lat="59.4152638885" lon="8.95202778094">
		<tag k="name" v="Haugen" />
		<tag k="place" v="farm" />
		<tag k="ssr:stedsnr" v="609372" />
	</node>
	<node id="-235827" lat="59.4159777769" lon="9.00278333424">
		<tag k="name" v="Forberg" />
		<tag k="place" v="farm" />
		<tag k="ssr:stedsnr" v="609371" />
	</node>
	<node id="-235825" lat="59.379469446" lon="8.96114444108">
		<tag k="alt_name" v="Vesledala" />
		<tag k="name" v="Vesledal" />
		<tag k="place" v="isolated_dwelling" />
		<tag k="ssr:stedsnr" v="609332" />
	</node>
	<node id="-235824" lat="59.380505555" lon="8.97046945229">
		<tag k="name" v="Langedal" />
		<tag k="place" v="isolated_dwelling" />
		<tag k="ssr:stedsnr" v="609331" />
	</node>
	<node id="-235823" lat="59.38001389" lon="8.98006944559">
		<tag k="alt_name" v="Sommargrav" />
		<tag k="name" v="Sommarligrav" />
		<tag k="place" v="farm" />
		<tag k="ssr:stedsnr" v="609329" />
	</node>
	<node id="-235816" lat="59.4448138885" lon="9.0339027793">
		<tag k="fixme" v="consider place=hamlet" />
		<tag k="name" v="Li" />
		<tag k="place" v="farm" />
		<tag k="ssr:stedsnr" v="608456" />
	</node>
	<node id="-235813" lat="59.4061333372" lon="9.06427777351">
		<tag k="alt_name" v="Borgen" />
		<tag k="fixme" v="consider place=hamlet" />
		<tag k="name" v="Borgja" />
		<tag k="place" v="farm" />
		<tag k="ssr:stedsnr" v="608357" />
	</node>
	<node id="-235812" lat="59.4092805511" lon="9.05437500281">
		<tag k="fixme" v="consider place=hamlet" />
		<tag k="name" v="Bø" />
		<tag k="place" v="farm" />
		<tag k="ssr:stedsnr" v="608354" />
	</node>
	<node id="-235811" lat="59.3874333365" lon="8.9424138906">
		<tag k="name" v="Oredalen" />
		<tag k="place" v="farm" />
		<tag k="ssr:stedsnr" v="608326" />
	</node>
	<node id="-235804" lat="59.4528583296" lon="8.94157499511">
		<tag k="name" v="Dyrli" />
		<tag k="place" v="locality" />
		<tag k="ssr:stedsnr" v="574964" />
	</node>
	<node id="-235803" lat="59.4695333372" lon="8.94689443817">
		<tag k="name" v="Røytejuvstulen" />
		<tag k="place" v="locality" />
		<tag k="ssr:stedsnr" v="574928" />
	</node>
	<node id="-235788" lat="59.3701083365" lon="8.88134445147">
		<tag k="name" v="Bakkjer" />
		<tag k="place" v="locality" />
		<tag k="ssr:stedsnr" v="574257" />
	</node>
	<node id="-235782" lat="59.3796722178" lon="8.9373249983">
		<tag k="name" v="Tveiten" />
		<tag k="place" v="farm" />
		<tag k="ssr:stedsnr" v="574035" />
	</node>
	<node id="-235780" lat="59.4311694474" lon="9.00062777173">
		<tag k="name" v="Innleggen" />
		<tag k="place" v="farm" />
		<tag k="ssr:stedsnr" v="573831" />
	</node>
	<node id="-235778" lat="59.4263277782" lon="9.00289999169">
		<tag k="name" v="Siglhus" />
		<tag k="place" v="farm" />
		<tag k="ssr:stedsnr" v="573810" />
	</node>
	<node id="-235777" lat="59.4880888852" lon="9.04356944484">
		<tag k="name" v="Veltunstulen" />
		<tag k="place" v="locality" />
		<tag k="ssr:stedsnr" v="573708" />
	</node>
	<node id="-235771" lat="59.3878555575" lon="9.02870000345">
		<tag k="name" v="Dalen" />
		<tag k="place" v="farm" />
		<tag k="ssr:stedsnr" v="572334" />
	</node>
	<node id="-235770" lat="59.3882611126" lon="9.01711111343">
		<tag k="name" v="Hasledalen" />
		<tag k="place" v="locality" />
		<tag k="ssr:stedsnr" v="572333" />
	</node>
	<node id="-235767" lat="59.4535444418" lon="9.11362500833">
		<tag k="name" v="Vøllen" />
		<tag k="place" v="locality" />
		<tag k="ssr:stedsnr" v="572303" />
	</node>
	<node id="-235766" lat="59.3921583321" lon="9.10618611869">
		<tag k="name" v="Åsen" />
		<tag k="place" v="locality" />
		<tag k="ssr:stedsnr" v="572197" />
	</node>
	<node id="-235765" lat="59.4163944435" lon="8.94420832559">
		<tag k="name" v="Åsjordet" />
		<tag k="place" v="locality" />
		<tag k="ssr:stedsnr" v="572188" />
	</node>
	<node id="-235764" lat="59.4504805554" lon="9.07087499817">
		<tag k="amenity" v="sports_centre" />
		<tag k="name" v="Telemarkshallen" />
		<tag k="ssr:stedsnr" v="572182" />
	</node>
	<node id="-235760" lat="59.4080472266" lon="8.92431388471">
		<tag k="name" v="Kleiva" />
		<tag k="place" v="farm" />
		<tag k="ssr:stedsnr" v="572132" />
	</node>
	<node id="-235756" lat="59.5149694424" lon="9.13163611099">
		<tag k="name" v="Vatnar" />
		<tag k="place" v="farm" />
		<tag k="ssr:stedsnr" v="571744" />
	</node>
	<node id="-235755" lat="59.509544443" lon="9.13216943851">
		<tag k="fixme" v="consider place=hamlet" />
		<tag k="name" v="Vatnar" />
		<tag k="place" v="farm" />
		<tag k="ssr:stedsnr" v="571724" />
	</node>
	<node id="-235754" lat="59.5077694475" lon="9.14763611501">
		<tag k="name" v="Veslestandar" />
		<tag k="place" v="locality" />
		<tag k="ssr:stedsnr" v="571725" />
	</node>
	<node id="-235752" lat="59.4117444433" lon="9.09813332626">
		<tag k="name" v="Røte" />
		<tag k="place" v="locality" />
		<tag k="ssr:stedsnr" v="571677" />
	</node>
	<node id="-235751" lat="59.4080333361" lon="9.105044446">
		<tag k="name" v="Kåsa" />
		<tag k="place" v="farm" />
		<tag k="ssr:stedsnr" v="571668" />
	</node>
	<node id="-235750" lat="59.4084611116" lon="9.08742777487">
		<tag k="name" v="Røysum" />
		<tag k="place" v="farm" />
		<tag k="ssr:stedsnr" v="571647" />
	</node>
	<node id="-235748" lat="59.4268555549" lon="9.0350416677">
		<tag k="name" v="Solid" />
		<tag k="place" v="farm" />
		<tag k="ssr:stedsnr" v="571560" />
	</node>
	<node id="-235746" lat="59.4173388928" lon="9.03147776903">
		<tag k="name" v="Midtland" />
		<tag k="place" v="farm" />
		<tag k="ssr:stedsnr" v="571512" />
	</node>
	<node id="-235745" lat="59.4173416638" lon="9.0273916683">
		<tag k="name" v="Glennahaugen" />
		<tag k="place" v="farm" />
		<tag k="ssr:stedsnr" v="571513" />
	</node>
	<node id="-235744" lat="59.4192666684" lon="9.03750278347">
		<tag k="name" v="Bergland" />
		<tag k="place" v="farm" />
		<tag k="ssr:stedsnr" v="571509" />
	</node>
	<node id="-235741" lat="59.4891333368" lon="9.06563333055">
		<tag k="name" v="Glakollkåsine" />
		<tag k="place" v="isolated_dwelling" />
		<tag k="ssr:stedsnr" v="571431" />
	</node>
	<node id="-235737" lat="59.422422226" lon="9.10528056326">
		<tag k="fixme" v="consider place=hamlet" />
		<tag k="name" v="Gåra" />
		<tag k="place" v="farm" />
		<tag k="ssr:stedsnr" v="571215" />
	</node>
	<node id="-235736" lat="59.4206249988" lon="8.99784722656">
		<tag k="name" v="Åserud" />
		<tag k="place" v="farm" />
		<tag k="ssr:stedsnr" v="571078" />
	</node>
	<node id="-235735" lat="59.4041111134" lon="8.9673027841">
		<tag k="name" v="Skoe" />
		<tag k="place" v="farm" />
		<tag k="ssr:stedsnr" v="571063" />
	</node>
	<node id="-235732" lat="59.4132694456" lon="8.95275277004">
		<tag k="name" v="Skruverud" />
		<tag k="place" v="farm" />
		<tag k="ssr:stedsnr" v="571047" />
	</node>
	<node id="-235730" lat="59.4136694412" lon="8.98791110648">
		<tag k="name" v="Harpestå" />
		<tag k="place" v="farm" />
		<tag k="ssr:stedsnr" v="571037" />
	</node>
	<node id="-235726" lat="59.3998555532" lon="8.96361945261">
		<tag k="name" v="Tølløvskot" />
		<tag k="place" v="locality" />
		<tag k="ssr:stedsnr" v="570036" />
	</node>
	<node id="-235725" lat="59.5274749992" lon="9.0092555638">
		<tag k="alt_name" v="Løklia" />
		<tag k="name" v="Løkjine" />
		<tag k="place" v="locality" />
		<tag k="ssr:stedsnr" v="549385" />
	</node>
	<node id="-235724" lat="59.4906444404" lon="9.08728888354">
		<tag k="name" v="Utbråtan" />
		<tag k="place" v="farm" />
		<tag k="ssr:stedsnr" v="548621" />
	</node>
	<node id="-235723" lat="59.476591666" lon="9.01949166348">
		<tag k="historic" v="shieling" />
		<tag k="name" v="Jønnbu" />
		<tag k="place" v="locality" />
		<tag k="ssr:stedsnr" v="548600" />
	</node>
	<node id="-235716" lat="59.442930552" lon="9.06540000581">
		<tag k="name" v="Kåsa" />
		<tag k="place" v="farm" />
		<tag k="ssr:stedsnr" v="548470" />
	</node>
	<node id="-235712" lat="59.4264333327" lon="8.90163056434">
		<tag k="name" v="Verpe" />
		<tag k="place" v="farm" />
		<tag k="ssr:stedsnr" v="548442" />
	</node>
	<node id="-235711" lat="59.4310972232" lon="9.08826388116">
		<tag k="alt_name" v="Vindbekk" />
		<tag k="name" v="Vinbekk" />
		<tag k="place" v="farm" />
		<tag k="ssr:stedsnr" v="548437" />
	</node>
	<node id="-235709" lat="59.4340027768" lon="9.12131388827">
		<tag k="name" v="Hegna" />
		<tag k="place" v="farm" />
		<tag k="ssr:stedsnr" v="548422" />
	</node>
	<node id="-235708" lat="59.4176249959" lon="9.09774443636">
		<tag k="name" v="Roteberg" />
		<tag k="place" v="farm" />
		<tag k="ssr:stedsnr" v="548418" />
	</node>
	<node id="-235707" lat="59.4129416644" lon="8.94762221623">
		<tag k="name" v="Erikstein" />
		<tag k="place" v="farm" />
		<tag k="ssr:stedsnr" v="548402" />
	</node>
	<node id="-235706" lat="59.3840888921" lon="8.90421110918">
		<tag k="name" v="Stulen" />
		<tag k="place" v="isolated_dwelling" />
		<tag k="ssr:stedsnr" v="548399" />
	</node>
	<node id="-235705" lat="59.3960583348" lon="9.05969444586">
		<tag k="alt_name" v="Staurem" />
		<tag k="fixme" v="consider place=hamlet" />
		<tag k="name" v="Staurheim" />
		<tag k="place" v="farm" />
		<tag k="ssr:stedsnr" v="548387" />
	</node>
	<node id="-235704" lat="59.4032833369" lon="9.03688054902">
		<tag k="name" v="Moland" />
		<tag k="place" v="farm" />
		<tag k="ssr:stedsnr" v="548373" />
	</node>
	<node id="-235700" lat="59.3737194442" lon="8.89474721411">
		<tag k="name" v="Soffishol" />
		<tag k="place" v="locality" />
		<tag k="ssr:stedsnr" v="548299" />
	</node>
	<node id="-235696" lat="59.4563999989" lon="8.94662500058">
		<tag k="name" v="Lauvåsstulen" />
		<tag k="place" v="locality" />
		<tag k="ssr:stedsnr" v="513949" />
	</node>
	<node id="-235693" lat="59.438461109" lon="8.99599999666">
		<tag k="name" v="Slåtta" />
		<tag k="place" v="locality" />
		<tag k="ssr:stedsnr" v="513883" />
	</node>
	<node id="-235691" lat="59.4273500027" lon="8.87990278647">
		<tag k="name" v="Herrefoss" />
		<tag k="place" v="locality" />
		<tag k="ssr:stedsnr" v="513860" />
	</node>
	<node id="-235690" lat="59.4266305581" lon="8.98403611221">
		<tag k="name" v="Kåsa" />
		<tag k="place" v="locality" />
		<tag k="ssr:stedsnr" v="513852" />
	</node>
	<node id="-235689" lat="59.4269194424" lon="8.99778332623">
		<tag k="fixme" v="consider place=hamlet" />
		<tag k="name" v="Vreim" />
		<tag k="place" v="farm" />
		<tag k="ssr:stedsnr" v="513837" />
	</node>
	<node id="-235685" lat="59.4986222182" lon="9.04084166449">
		<tag k="name" v="Årmotholet" />
		<tag k="place" v="locality" />
		<tag k="ssr:stedsnr" v="513611" />
	</node>
	<node id="-235681" lat="59.4539805564" lon="8.99838611436">
		<tag k="name" v="Slettelistulen" />
		<tag k="place" v="locality" />
		<tag k="ssr:stedsnr" v="513094" />
	</node>
	<node id="-235674" lat="59.4245333372" lon="9.0592722283">
		<tag k="alt_name" v="Sissejord" />
		<tag k="fixme" v="consider place=hamlet" />
		<tag k="name" v="Sisjord" />
		<tag k="place" v="farm" />
		<tag k="ssr:stedsnr" v="512659" />
	</node>
	<node id="-235673" lat="59.3904111151" lon="9.05249166951">
		<tag k="name" v="Hynne" />
		<tag k="place" v="farm" />
		<tag k="ssr:stedsnr" v="512297" />
	</node>
	<node id="-235671" lat="59.4001861156" lon="9.05115000015">
		<tag k="name" v="Veirud" />
		<tag k="place" v="isolated_dwelling" />
		<tag k="ssr:stedsnr" v="512270" />
	</node>
	<node id="-235669" lat="59.4197611133" lon="8.91340277713">
		<tag k="name" v="Soterud" />
		<tag k="place" v="farm" />
		<tag k="ssr:stedsnr" v="512164" />
	</node>
	<node id="-235667" lat="59.4107749986" lon="8.9269805555">
		<tag k="name" v="Moen" />
		<tag k="place" v="farm" />
		<tag k="ssr:stedsnr" v="512113" />
	</node>
	<node id="-235665" lat="59.4090916653" lon="9.12458055355">
		<tag k="name" v="Stordal" />
		<tag k="place" v="farm" />
		<tag k="ssr:stedsnr" v="511982" />
	</node>
	<node id="-235663" lat="59.5250472259" lon="9.12581389242">
		<tag k="name" v="Glytten" />
		<tag k="place" v="locality" />
		<tag k="ssr:stedsnr" v="511738" />
	</node>
	<node id="-235662" lat="59.5087833324" lon="9.09449999557">
		<tag k="name" v="Kleiva" />
		<tag k="place" v="locality" />
		<tag k="ssr:stedsnr" v="511720" />
	</node>
	<node id="-235661" lat="59.4085138867" lon="9.11097222268">
		<tag k="name" v="Myrane" />
		<tag k="place" v="isolated_dwelling" />
		<tag k="ssr:stedsnr" v="511673" />
	</node>
	<node id="-235660" lat="59.4083916663" lon="9.07201945036">
		<tag k="name" v="Oppheim" />
		<tag k="place" v="farm" />
		<tag k="ssr:stedsnr" v="511623" />
	</node>
	<node id="-235659" lat="59.4062638906" lon="9.09551665825">
		<tag k="name" v="Lia" />
		<tag k="place" v="farm" />
		<tag k="ssr:stedsnr" v="511624" />
	</node>
	<node id="-235658" lat="59.4867833332" lon="9.16573334102">
		<tag k="alt_name" v="Svalbjørg" />
		<tag k="name" v="Svalbjør" />
		<tag k="place" v="farm" />
		<tag k="ssr:stedsnr" v="511586" />
	</node>
	<node id="-235657" lat="59.4877833372" lon="9.15303055405">
		<tag k="name" v="Roheim" />
		<tag k="place" v="farm" />
		<tag k="ssr:stedsnr" v="511578" />
	</node>
	<node id="-235653" lat="59.4253527822" lon="9.01387778145">
		<tag k="fixme" v="consider place=hamlet" />
		<tag k="name" v="Sønstebø" />
		<tag k="place" v="farm" />
		<tag k="ssr:stedsnr" v="511523" />
	</node>
	<node id="-235648" lat="59.4107249997" lon="9.05292500245">
		<tag k="alt_name" v="Midtbø" />
		<tag k="fixme" v="consider place=hamlet" />
		<tag k="name" v="Bø" />
		<tag k="place" v="farm" />
		<tag k="ssr:stedsnr" v="511261" />
	</node>
	<node id="-235647" lat="59.4273722254" lon="9.06225277664">
		<tag k="name" v="Sisjord" />
		<tag k="place" v="farm" />
		<tag k="ssr:stedsnr" v="511147" />
	</node>
	<node id="-235645" lat="59.4153083372" lon="8.99456388776">
		<tag k="name" v="Forberg" />
		<tag k="place" v="farm" />
		<tag k="ssr:stedsnr" v="511042" />
	</node>
	<node id="-235644" lat="59.4121749992" lon="8.99094999831">
		<tag k="name" v="Forberg" />
		<tag k="place" v="farm" />
		<tag k="ssr:stedsnr" v="511037" />
	</node>
	<node id="-235643" lat="59.4431666639" lon="9.00942221956">
		<tag k="name" v="Sletteli" />
		<tag k="place" v="farm" />
		<tag k="ssr:stedsnr" v="511030" />
	</node>
	<node id="-235641" lat="59.4268138913" lon="9.05241110746">
		<tag k="name" v="Pålskås" />
		<tag k="place" v="farm" />
		<tag k="ssr:stedsnr" v="510563" />
	</node>
	<node id="-235640" lat="59.4425750009" lon="9.01440000405">
		<tag k="name" v="Liene" />
		<tag k="place" v="farm" />
		<tag k="ssr:stedsnr" v="510520" />
	</node>
	<node id="-235638" lat="59.3878277758" lon="8.95290833612">
		<tag k="name" v="Lia" />
		<tag k="place" v="locality" />
		<tag k="ssr:stedsnr" v="509068" />
	</node>
	<node id="-235633" lat="59.4699972197" lon="9.07028055557">
		<tag k="alt_name" v="Simonbekk" />
		<tag k="name" v="Simonsbekk" />
		<tag k="place" v="farm" />
		<tag k="ssr:stedsnr" v="488451" />
	</node>
	<node id="-235632" lat="59.4643305548" lon="9.00374166531">
		<tag k="name" v="Vårbu" />
		<tag k="place" v="locality" />
		<tag k="ssr:stedsnr" v="488449" />
	</node>
	<node id="-235629" lat="59.4559361128" lon="8.9709138953">
		<tag k="name" v="Åstul" />
		<tag k="place" v="isolated_dwelling" />
		<tag k="ssr:stedsnr" v="488436" />
	</node>
	<node id="-235628" lat="59.4190722241" lon="9.07556388537">
		<tag k="alt_name" v="Nordre Sanden" />
		<tag k="fixme" v="consider place=hamlet" />
		<tag k="name" v="Sanda" />
		<tag k="place" v="farm" />
		<tag k="ssr:stedsnr" v="488398" />
	</node>
	<node id="-235627" lat="59.5202694468" lon="9.01806388522">
		<tag k="historic" v="shieling" />
		<tag k="name" v="Årlia" />
		<tag k="place" v="locality" />
		<tag k="ssr:stedsnr" v="488381" />
	</node>
	<node id="-235625" lat="59.3907972217" lon="9.0646250086">
		<tag k="name" v="Steinsrud" />
		<tag k="place" v="farm" />
		<tag k="ssr:stedsnr" v="488295" />
	</node>
	<node id="-235624" lat="59.4907861146" lon="9.08243610626">
		<tag k="name" v="Tveiten" />
		<tag k="place" v="farm" />
		<tag k="ssr:stedsnr" v="487668" />
	</node>
	<node id="-235620" lat="59.441388892" lon="9.05821388781">
		<tag k="alt_name" v="Eikja" />
		<tag k="fixme" v="consider place=hamlet" />
		<tag k="name" v="Eika" />
		<tag k="place" v="farm" />
		<tag k="ssr:stedsnr" v="487509" />
	</node>
	<node id="-235616" lat="59.4238722187" lon="8.87669999301">
		<tag k="name" v="Øverbømoen" />
		<tag k="place" v="farm" />
		<tag k="ssr:stedsnr" v="487458" />
	</node>
	<node id="-235614" lat="59.3949638896" lon="8.89840833745">
		<tag k="name" v="Sandstul" />
		<tag k="place" v="isolated_dwelling" />
		<tag k="ssr:stedsnr" v="487390" />
	</node>
	<node id="-235613" lat="59.3739861118" lon="8.95067500673">
		<tag k="name" v="Uvdal" />
		<tag k="place" v="farm" />
		<tag k="ssr:stedsnr" v="487294" />
	</node>
	<node id="-235604" lat="59.4266499996" lon="8.99374444486">
		<tag k="name" v="Vreim" />
		<tag k="place" v="farm" />
		<tag k="ssr:stedsnr" v="453838" />
	</node>
	<node id="-235602" lat="59.4653305533" lon="9.03320000823">
		<tag k="name" v="Håråldskar" />
		<tag k="place" v="locality" />
		<tag k="ssr:stedsnr" v="453512" />
	</node>
	<node id="-235588" lat="59.4290888891" lon="8.99056389123">
		<tag k="name" v="Kåsa" />
		<tag k="place" v="locality" />
		<tag k="ssr:stedsnr" v="452855" />
	</node>
	<node id="-235581" lat="59.4370333372" lon="9.04612499245">
		<tag k="amenity" v="school" />
		<tag k="name" v="Folkestad skule" />
		<tag k="ssr:stedsnr" v="451628" />
	</node>
	<node id="-235574" lat="59.5127333301" lon="9.04832221689">
		<tag k="name" v="Skarestulen" />
		<tag k="place" v="locality" />
		<tag k="ssr:stedsnr" v="451582" />
	</node>
	<node id="-235572" lat="59.4217499964" lon="9.04873611396">
		<tag k="name" v="Bergene" />
		<tag k="place" v="farm" />
		<tag k="ssr:stedsnr" v="451562" />
	</node>
	<node id="-235571" lat="59.4271111136" lon="9.01411944566">
		<tag k="name" v="Sønstebø" />
		<tag k="place" v="farm" />
		<tag k="ssr:stedsnr" v="451554" />
	</node>
	<node id="-235569" lat="59.3876222209" lon="9.0626611193">
		<tag k="alt_name" v="Rui" />
		<tag k="name" v="Roe" />
		<tag k="place" v="farm" />
		<tag k="ssr:stedsnr" v="451404" />
	</node>
	<node id="-235568" lat="59.3944555518" lon="9.09122223041">
		<tag k="name" v="Gamlestul" />
		<tag k="place" v="locality" />
		<tag k="ssr:stedsnr" v="451396" />
	</node>
	<node id="-235566" lat="59.4421444402" lon="9.1277999966">
		<tag k="name" v="Tangen" />
		<tag k="place" v="locality" />
		<tag k="ssr:stedsnr" v="451328" />
	</node>
	<node id="-235565" lat="59.3971388924" lon="9.03750277678">
		<tag k="name" v="Brekka" />
		<tag k="place" v="locality" />
		<tag k="ssr:stedsnr" v="451323" />
	</node>
	<node id="-235564" lat="59.4439138867" lon="9.07323055347">
		<tag k="name" v="Tjønntveit" />
		<tag k="place" v="farm" />
		<tag k="ssr:stedsnr" v="451322" />
	</node>
	<node id="-235563" lat="59.3972833343" lon="9.01168611547">
		<tag k="name" v="Høyslass" />
		<tag k="place" v="locality" />
		<tag k="ssr:stedsnr" v="451316" />
	</node>
	<node id="-235560" lat="59.4023250002" lon="9.03951943816">
		<tag k="name" v="Smedstad" />
		<tag k="place" v="farm" />
		<tag k="ssr:stedsnr" v="451300" />
	</node>
	<node id="-235559" lat="59.4256138896" lon="9.09311945062">
		<tag k="name" v="Valen" />
		<tag k="place" v="farm" />
		<tag k="ssr:stedsnr" v="451256" />
	</node>
	<node id="-235557" lat="59.4181138874" lon="8.90069444676">
		<tag k="name" v="Sanda" />
		<tag k="place" v="farm" />
		<tag k="ssr:stedsnr" v="451122" />
	</node>
	<node id="-235556" lat="59.4086333309" lon="8.92138334119">
		<tag k="name" v="Kleiva" />
		<tag k="place" v="farm" />
		<tag k="ssr:stedsnr" v="451115" />
	</node>
	<node id="-235555" lat="59.4337527744" lon="9.07476945122">
		<tag k="name" v="Flatland" />
		<tag k="place" v="farm" />
		<tag k="ssr:stedsnr" v="451035" />
	</node>
	<node id="-235551" lat="59.4200333352" lon="9.10220000347">
		<tag k="name" v="Vestgarden" />
		<tag k="place" v="farm" />
		<tag k="ssr:stedsnr" v="450741" />
	</node>
	<node id="-235549" lat="59.5081805547" lon="9.10962221533">
		<tag k="name" v="Slåtta" />
		<tag k="place" v="locality" />
		<tag k="ssr:stedsnr" v="450739" />
	</node>
	<node id="-235548" lat="59.4073361073" lon="9.09450000554">
		<tag k="name" v="Lia" />
		<tag k="place" v="farm" />
		<tag k="ssr:stedsnr" v="450667" />
	</node>
	<node id="-235546" lat="59.4248527755" lon="9.05122777143">
		<tag k="name" v="Langkås" />
		<tag k="place" v="farm" />
		<tag k="ssr:stedsnr" v="450591" />
	</node>
	<node id="-235544" lat="59.4935666637" lon="9.08646665895">
		<tag k="name" v="Lauvslåtten" />
		<tag k="place" v="farm" />
		<tag k="ssr:stedsnr" v="450584" />
	</node>
	<node id="-235543" lat="59.5004027741" lon="9.09077499601">
		<tag k="name" v="Jørgedal" />
		<tag k="place" v="farm" />
		<tag k="ssr:stedsnr" v="450575" />
	</node>
	<node id="-235539" lat="59.440361109" lon="9.01373055149">
		<tag k="name" v="Piparlia" />
		<tag k="place" v="locality" />
		<tag k="ssr:stedsnr" v="450538" />
	</node>
	<node id="-235538" lat="59.4209083331" lon="9.0376222208">
		<tag k="name" v="Fossheim" />
		<tag k="place" v="farm" />
		<tag k="ssr:stedsnr" v="450514" />
	</node>
	<node id="-235534" lat="59.424200002" lon="9.11965832949">
		<tag k="name" v="Myra" />
		<tag k="place" v="isolated_dwelling" />
		<tag k="ssr:stedsnr" v="450264" />
	</node>
	<node id="-235533" lat="59.4106722253" lon="9.04348332733">
		<tag k="name" v="Nordbø" />
		<tag k="place" v="farm" />
		<tag k="ssr:stedsnr" v="450233" />
	</node>
	<node id="-235531" lat="59.4273472263" lon="9.0829027696">
		<tag k="name" v="Ågetveit" />
		<tag k="place" v="farm" />
		<tag k="ssr:stedsnr" v="450220" />
	</node>
	<node id="-235529" lat="59.3894277798" lon="8.96884721512">
		<tag k="name" v="Kåsa" />
		<tag k="place" v="locality" />
		<tag k="ssr:stedsnr" v="449067" />
	</node>
	<node id="-235528" lat="59.3956055584" lon="8.96030834066">
		<tag k="name" v="Åsheim" />
		<tag k="place" v="locality" />
		<tag k="ssr:stedsnr" v="449057" />
	</node>
	<node id="-235526" lat="59.5168333365" lon="9.13577499513">
		<tag k="name" v="Lia" />
		<tag k="place" v="isolated_dwelling" />
		<tag k="ssr:stedsnr" v="428429" />
	</node>
	<node id="-235525" lat="59.4872083346" lon="9.05093055245">
		<tag k="name" v="Ufsin" />
		<tag k="place" v="isolated_dwelling" />
		<tag k="ssr:stedsnr" v="427617" />
	</node>
	<node id="-235523" lat="59.4971250013" lon="9.14236667415">
		<tag k="name" v="Haugen" />
		<tag k="place" v="farm" />
		<tag k="ssr:stedsnr" v="427584" />
	</node>
	<node id="-235522" lat="59.4876249974" lon="8.97066667427">
		<tag k="alt_name" v="Oksla seter" />
		<tag k="historic" v="shieling" />
		<tag k="name" v="Oksla" />
		<tag k="place" v="locality" />
		<tag k="ssr:stedsnr" v="427575" />
	</node>
</osm>
