<?xml version="1.0" encoding="UTF-8"?>
<osm generator="osmapis" version="0.6">
	<node id="-236032" lat="59.5196805576" lon="9.11612222223">
		<tag k="name" v="Kvitevatn" />
		<tag k="natural" v="water" />
		<tag k="ssr:stedsnr" v="936730" />
	</node>
	<node id="-234581" lat="59.3774388846" lon="8.9819749976">
		<tag k="alt_name" v="Uvdalstjørna" />
		<tag k="name" v="Uvdalstjønna" />
		<tag k="natural" v="water" />
		<tag k="ssr:stedsnr" v="366288" />
	</node>
	<node id="-236024" lat="59.4313305555" lon="9.05228888632">
		<tag k="name" v="Kvennøya" />
		<tag k="place" v="island" />
		<tag k="ssr:stedsnr" v="936570" />
	</node>
	<node id="-234487" lat="59.4829277734" lon="9.10341389701">
		<tag k="name" v="Lonåa" />
		<tag k="ssr:stedsnr" v="305663" />
		<tag k="waterway" v="river" />
	</node>
	<node id="-234486" lat="59.4846416693" lon="8.93577222341">
		<tag k="alt_name" v="Lislestulåa" />
		<tag k="name" v="Gjuvsåa" />
		<tag k="ssr:stedsnr" v="305656" />
		<tag k="waterway" v="river" />
	</node>
	<node id="-235508" lat="59.467200003" lon="9.13569999397">
		<tag k="name" v="Sautjønn" />
		<tag k="natural" v="water" />
		<tag k="ssr:stedsnr" v="631914" />
	</node>
	<node id="-234483" lat="59.4446333357" lon="9.06786667382">
		<tag k="name" v="Fuggedammen" />
		<tag k="ssr:stedsnr" v="305500" />
		<tag k="waterway" v="dam" />
	</node>
	<node id="-234989" lat="59.5058777748" lon="9.0165055639">
		<tag k="name" v="Langerenne" />
		<tag k="ssr:stedsnr" v="147486" />
		<tag k="waterway" v="stream" />
	</node>
	<node id="-235498" lat="59.5173166692" lon="9.07330277644">
		<tag k="alt_name" v="Tvottjørn" />
		<tag k="name" v="Tvottjønn" />
		<tag k="natural" v="water" />
		<tag k="ssr:stedsnr" v="609459" />
	</node>
	<node id="-234473" lat="59.3660888851" lon="8.98481944724">
		<tag k="alt_name" v="Svarttjørn" />
		<tag k="name" v="Svarttjønn" />
		<tag k="natural" v="water" />
		<tag k="ssr:stedsnr" v="305299" />
	</node>
	<node id="-234470" lat="59.4710888903" lon="8.933494445">
		<tag k="name" v="Langetjønnbekken" />
		<tag k="ssr:stedsnr" v="271924" />
		<tag k="waterway" v="stream" />
	</node>
	<node id="-236005" lat="59.3957277744" lon="8.9230111034">
		<tag k="name" v="Bekkjestultjønna" />
		<tag k="natural" v="water" />
		<tag k="ssr:stedsnr" v="938012" />
		<tag k="water" v="pond" />
	</node>
	<node id="-234467" lat="59.4323277749" lon="8.87400278618">
		<tag k="name" v="Herrefosstangen" />
		<tag k="natural" v="cape" />
		<tag k="ssr:stedsnr" v="271893" />
	</node>
	<node id="-235490" lat="59.4159388907" lon="8.84354444496">
		<tag k="alt_name" v="Grabbutjørna" />
		<tag k="name" v="Grabbutjønna" />
		<tag k="natural" v="water" />
		<tag k="ssr:stedsnr" v="609376" />
	</node>
	<node id="-235486" lat="59.5337111089" lon="9.01168333879">
		<tag k="alt_name" v="Trogatjørnan" />
		<tag k="name" v="Trogatjønn" />
		<tag k="natural" v="water" />
		<tag k="ssr:stedsnr" v="609370" />
	</node>
	<node id="-235482" lat="59.3742333348" lon="9.00721666221">
		<tag k="alt_name" v="Eikaelva" />
		<tag k="name" v="Eikjaelva" />
		<tag k="ssr:stedsnr" v="609327" />
		<tag k="waterway" v="river" />
	</node>
	<node id="-235992" lat="59.4758111072" lon="9.13995000239">
		<tag k="alt_name" v="Solbjørtjørna" />
		<tag k="loc_name" v="Solbjørgtjønna" />
		<tag k="name" v="Solbjørtjønna" />
		<tag k="natural" v="water" />
		<tag k="ssr:stedsnr" v="913569" />
	</node>
	<node id="-235172" lat="59.408824998" lon="8.85876110419">
		<tag k="alt_name" v="Gautiltjørna" />
		<tag k="name" v="Gautitjønna" />
		<tag k="natural" v="water" />
		<tag k="ssr:stedsnr" v="427414" />
		<tag k="water" v="lake" />
	</node>
	<node id="-234966" lat="59.4662222197" lon="9.15249165804">
		<tag k="name" v="Bjorholet" />
		<tag k="natural" v="bay" />
		<tag k="ssr:stedsnr" v="146898" />
	</node>
	<node id="-235989" lat="59.4629361135" lon="9.11479443747">
		<tag k="name" v="Vermelibekken" />
		<tag k="ssr:stedsnr" v="913453" />
		<tag k="waterway" v="stream" />
	</node>
	<node id="-235987" lat="59.4698055589" lon="9.13462500549">
		<tag k="alt_name" v="Sautjørn" />
		<tag k="name" v="Sautjønn" />
		<tag k="natural" v="water" />
		<tag k="ssr:stedsnr" v="913449" />
	</node>
	<node id="-235984" lat="59.4243555519" lon="8.948961106">
		<tag k="alt_name" v="Damtjørn" />
		<tag k="name" v="Damtjønn" />
		<tag k="natural" v="water" />
		<tag k="ssr:stedsnr" v="913415" />
	</node>
	<node id="-235512" lat="59.4153972223" lon="8.97875000751">
		<tag k="name" v="Igletjønn" />
		<tag k="natural" v="water" />
		<tag k="ssr:stedsnr" v="632052" />
		<tag k="water" v="pond" />
	</node>
	<node id="-235982" lat="59.4116305516" lon="9.12646666516">
		<tag k="name" v="Griviøya" />
		<tag k="place" v="island" />
		<tag k="ssr:stedsnr" v="913387" />
	</node>
	<node id="-235469" lat="59.3623222198" lon="8.93297778567">
		<tag k="alt_name" v="Kvigetjørn" />
		<tag k="name" v="Kvigetjønn" />
		<tag k="natural" v="water" />
		<tag k="ssr:stedsnr" v="608309" />
	</node>
	<node id="-235467" lat="59.3726444412" lon="8.9103527737">
		<tag k="alt_name" v="Langetjørn" />
		<tag k="name" v="Langetjønn" />
		<tag k="natural" v="water" />
		<tag k="ssr:stedsnr" v="608278" />
	</node>
	<node id="-234442" lat="59.3799194487" lon="9.03594166991">
		<tag k="name" v="Berteshøl" />
		<tag k="natural" v="water" />
		<tag k="ssr:stedsnr" v="269353" />
		<tag k="water" v="lake" />
	</node>
	<node id="-235976" lat="59.4722555548" lon="9.08461666498">
		<tag k="name" v="Åseåa" />
		<tag k="ssr:stedsnr" v="912638" />
		<tag k="waterway" v="river" />
	</node>
	<node id="-234439" lat="59.4448333345" lon="9.0742166612">
		<tag k="name" v="Harpetjønn" />
		<tag k="natural" v="water" />
		<tag k="ssr:stedsnr" v="269296" />
	</node>
	<node id="-235974" lat="59.4971583315" lon="8.99213889506">
		<tag k="name" v="Skåråfjellholmen" />
		<tag k="natural" v="water" />
		<tag k="ssr:stedsnr" v="912616" />
	</node>
	<node id="-235967" lat="59.4392416688" lon="8.94758055271">
		<tag k="alt_name" v="Tjørnstultjørna" />
		<tag k="name" v="Tjønnstultjønna" />
		<tag k="natural" v="water" />
		<tag k="ssr:stedsnr" v="912458" />
	</node>
	<node id="-235451" lat="59.4733000036" lon="9.02414166029">
		<tag k="name" v="Torillbekk" />
		<tag k="ssr:stedsnr" v="574536" />
		<tag k="waterway" v="stream" />
	</node>
	<node id="-235450" lat="59.4684638918" lon="8.95306666771">
		<tag k="name" v="Røytejuvbekken" />
		<tag k="ssr:stedsnr" v="574323" />
		<tag k="waterway" v="stream" />
	</node>
	<node id="-235961" lat="59.3840166664" lon="8.87919445199">
		<tag k="alt_name" v="Ramsåstjørna" />
		<tag k="name" v="Ramsåstjønna" />
		<tag k="natural" v="water" />
		<tag k="ssr:stedsnr" v="912381" />
	</node>
	<node id="-235959" lat="59.3618055599" lon="8.88139999401">
		<tag k="name" v="Bontåa" />
		<tag k="ssr:stedsnr" v="912309" />
		<tag k="waterway" v="stream" />
	</node>
	<node id="-234933" lat="59.4309166682" lon="8.92379999841">
		<tag k="alt_name" v="Karistultjørna" />
		<tag k="name" v="Karistultjønna" />
		<tag k="natural" v="water" />
		<tag k="ssr:stedsnr" v="123509" />
	</node>
	<node id="-235952" lat="59.4327111141" lon="8.86970834106">
		<tag k="name" v="Oregrunnen" />
		<tag k="natural" v="shoal" />
		<tag k="place" v="locality" />
		<tag k="ssr:stedsnr" v="878880" />
	</node>
	<node id="-235439" lat="59.4246083352" lon="9.00225277362">
		<tag k="name" v="Siglhusstrengen" />
		<tag k="ssr:stedsnr" v="573812" />
		<tag k="waterway" v="rapids" />
	</node>
	<node id="-235948" lat="59.4268166641" lon="8.87883889484">
		<tag k="name" v="Herrefoss" />
		<tag k="natural" v="waterfall" />
		<tag k="ssr:stedsnr" v="878852" />
	</node>
	<node id="-235947" lat="59.4229694413" lon="8.98221110303">
		<tag k="name" v="Fiskebekk" />
		<tag k="ssr:stedsnr" v="878843" />
		<tag k="waterway" v="stream" />
	</node>
	<node id="-234918" lat="59.38815278" lon="8.96062222186">
		<tag k="alt_name" v="Jønnebergtjørna" />
		<tag k="name" v="Jønnebergtjønna" />
		<tag k="natural" v="water" />
		<tag k="ssr:stedsnr" v="123345" />
	</node>
	<node id="-234916" lat="59.3753444483" lon="8.94605277327">
		<tag k="alt_name" v="Kvernabekken" />
		<tag k="name" v="Kvennebekken" />
		<tag k="ssr:stedsnr" v="123315" />
		<tag k="waterway" v="stream" />
	</node>
	<node id="-234915" lat="59.3482027795" lon="8.89143055931">
		<tag k="alt_name" v="Stroktjørn" />
		<tag k="name" v="Stroktjønn" />
		<tag k="natural" v="water" />
		<tag k="ssr:stedsnr" v="123278" />
	</node>
	<node id="-234913" lat="59.4837722222" lon="8.91370278576">
		<tag k="name" v="Repetjønn" />
		<tag k="natural" v="water" />
		<tag k="ssr:stedsnr" v="89981" />
	</node>
	<node id="-234905" lat="59.4358638897" lon="8.94616667291">
		<tag k="name" v="Blåtjønn" />
		<tag k="natural" v="water" />
		<tag k="ssr:stedsnr" v="89817" />
	</node>
	<node id="-235928" lat="59.490361112" lon="8.92683332901">
		<tag k="name" v="Holmedammen" />
		<tag k="ssr:stedsnr" v="876912" />
		<tag k="waterway" v="dam" />
	</node>
	<node id="-235923" lat="59.517072222" lon="9.04757500196">
		<tag k="name" v="Gvolvbekktjønna" />
		<tag k="natural" v="water" />
		<tag k="ssr:stedsnr" v="876593" />
	</node>
	<node id="-235409" lat="59.4910499978" lon="9.06848055864">
		<tag k="name" v="Stiklandbekken" />
		<tag k="ssr:stedsnr" v="571565" />
		<tag k="waterway" v="stream" />
	</node>
	<node id="-235407" lat="59.4246499961" lon="9.02511388386">
		<tag k="name" v="Sagafossen" />
		<tag k="natural" v="waterfall" />
		<tag k="ssr:stedsnr" v="571525" />
	</node>
	<node id="-235916" lat="59.4062916627" lon="9.05762777761">
		<tag k="name" v="Borgjaevju" />
		<tag k="ssr:stedsnr" v="876268" />
		<tag k="waterway" v="stream" />
	</node>
	<node id="-235403" lat="59.4812222228" lon="9.10496944683">
		<tag k="name" v="Teingardsdammen" />
		<tag k="ssr:stedsnr" v="571472" />
		<tag k="waterway" v="dam" />
	</node>
	<node id="-235159" lat="59.4728388891" lon="9.09969444623">
		<tag k="name" v="Storholet" />
		<tag k="place" v="locality" />
		<tag k="ssr:stedsnr" v="268462" />
	</node>
	<node id="-234883" lat="59.5242944411" lon="9.01149443881">
		<tag k="name" v="Løkjinfossen" />
		<tag k="natural" v="waterfall" />
		<tag k="ssr:stedsnr" v="87620" />
	</node>
	<node id="-235394" lat="59.411897224" lon="8.97865277164">
		<tag k="name" v="Skogtjønn" />
		<tag k="natural" v="water" />
		<tag k="ssr:stedsnr" v="571052" />
	</node>
	<node id="-234880" lat="59.5102777809" lon="9.01275555515">
		<tag k="name" v="Flåbekk" />
		<tag k="ssr:stedsnr" v="87570" />
		<tag k="waterway" v="stream" />
	</node>
	<node id="-235381" lat="59.4974305573" lon="8.96513611148">
		<tag k="alt_name" v="Sandtjørn" />
		<tag k="name" v="Sandtjønn" />
		<tag k="natural" v="water" />
		<tag k="ssr:stedsnr" v="548581" />
	</node>
	<node id="-235378" lat="59.4690222237" lon="9.16200833061">
		<tag k="alt_name" v="Svarttjørn" />
		<tag k="name" v="Svarttjønn" />
		<tag k="natural" v="water" />
		<tag k="ssr:stedsnr" v="548490" />
	</node>
	<node id="-235887" lat="59.4151861119" lon="8.98001388316">
		<tag k="name" v="Vigjilen" />
		<tag k="ssr:stedsnr" v="875032" />
		<tag k="waterway" v="stream" />
	</node>
	<node id="-235374" lat="59.4472527759" lon="9.0715166664">
		<tag k="alt_name" v="Steintjørn" />
		<tag k="name" v="Steintjønn" />
		<tag k="natural" v="water" />
		<tag k="ssr:stedsnr" v="548462" />
	</node>
	<node id="-235373" lat="59.4522750038" lon="9.093180564">
		<tag k="alt_name" v="Trytetjørnane" />
		<tag k="name" v="Trytetjønn" />
		<tag k="natural" v="water" />
		<tag k="ssr:stedsnr" v="548461" />
	</node>
	<node id="-235879" lat="59.5301500024" lon="9.04456388586">
		<tag k="alt_name" v="Damtjørn" />
		<tag k="name" v="Damtjønn" />
		<tag k="natural" v="water" />
		<tag k="ssr:stedsnr" v="853104" />
	</node>
	<node id="-235363" lat="59.3746861091" lon="8.93784444722">
		<tag k="name" v="Tveitåa" />
		<tag k="ssr:stedsnr" v="548361" />
		<tag k="waterway" v="river" />
	</node>
	<node id="-235362" lat="59.3617611096" lon="8.96678889367">
		<tag k="alt_name" v="Fagerlitjørna" />
		<tag k="name" v="Fagerlitjønna" />
		<tag k="natural" v="water" />
		<tag k="ssr:stedsnr" v="548324" />
	</node>
	<node id="-235361" lat="59.3706611146" lon="8.89691665925">
		<tag k="alt_name" v="Bakkjeråa" />
		<tag k="name" v="Bakkjerråa" />
		<tag k="ssr:stedsnr" v="548300" />
		<tag k="waterway" v="river" />
	</node>
	<node id="-234842" lat="59.3813722253" lon="8.99937499688">
		<tag k="name" v="Dagstjønn" />
		<tag k="natural" v="water" />
		<tag k="ssr:stedsnr" v="85055" />
	</node>
	<node id="-234839" lat="59.4344527812" lon="9.06461388999">
		<tag k="name" v="Helle" />
		<tag k="ssr:stedsnr" v="268134" />
		<tag k="waterway" v="stream" />
	</node>
	<node id="-235861" lat="59.3782416666" lon="8.98429999912">
		<tag k="name" v="Sauøya" />
		<tag k="place" v="islet" />
		<tag k="ssr:stedsnr" v="852333" />
	</node>
	<node id="-234835" lat="59.5218111079" lon="9.0544833303">
		<tag k="name" v="Pina" />
		<tag k="natural" v="water" />
		<tag k="ssr:stedsnr" v="64466" />
	</node>
	<node id="-234828" lat="59.4986111105" lon="8.98186110959">
		<tag k="alt_name" v="Snotjørn" />
		<tag k="name" v="Snotjønn" />
		<tag k="natural" v="water" />
		<tag k="ssr:stedsnr" v="63595" />
	</node>
	<node id="-235850" lat="59.4696777758" lon="8.96118333116">
		<tag k="name" v="Kvennhusfossen" />
		<tag k="natural" v="waterfall" />
		<tag k="ssr:stedsnr" v="817684" />
	</node>
	<node id="-234892" lat="59.3986416647" lon="8.92796945086">
		<tag k="name" v="Langemyrputtane" />
		<tag k="natural" v="water" />
		<tag k="ssr:stedsnr" v="89007" />
		<tag k="water" v="pond" />
	</node>
	<node id="-235845" lat="59.4561694442" lon="8.95838054974">
		<tag k="name" v="Tromfoss" />
		<tag k="natural" v="waterfall" />
		<tag k="ssr:stedsnr" v="817071" />
	</node>
	<node id="-235332" lat="59.4019388899" lon="9.03634444035">
		<tag k="name" v="Brukarmyra" />
		<tag k="place" v="locality" />
		<tag k="ssr:stedsnr" v="512277" />
	</node>
	<node id="-235843" lat="59.393602779" lon="8.89275556021">
		<tag k="name" v="Sandstultjønna" />
		<tag k="natural" v="water" />
		<tag k="ssr:stedsnr" v="817029" />
	</node>
	<node id="-235330" lat="59.4520527741" lon="9.08774721873">
		<tag k="name" v="Trytetjønn" />
		<tag k="natural" v="water" />
		<tag k="ssr:stedsnr" v="512267" />
	</node>
	<node id="-235841" lat="59.3987555567" lon="8.9198027777">
		<tag k="name" v="Røyrtjønn" />
		<tag k="natural" v="water" />
		<tag k="ssr:stedsnr" v="817014" />
		<tag k="water" v="pond" />
	</node>
	<node id="-234816" lat="59.400341666" lon="8.88079166562">
		<tag k="alt_name" v="Svarttjørn" />
		<tag k="name" v="Svarttjønn" />
		<tag k="natural" v="water" />
		<tag k="ssr:stedsnr" v="63375" />
	</node>
	<node id="-234814" lat="59.3887416624" lon="9.10824999597">
		<tag k="alt_name" v="Åstjørn" />
		<tag k="name" v="Åstjønn" />
		<tag k="natural" v="water" />
		<tag k="ssr:stedsnr" v="63350" />
	</node>
	<node id="-235831" lat="59.4558249994" lon="9.12303611367">
		<tag k="name" v="Fiskebekk" />
		<tag k="ssr:stedsnr" v="815933" />
		<tag k="waterway" v="stream" />
	</node>
	<node id="-235145" lat="59.4753722202" lon="8.91824443791">
		<tag k="alt_name" v="Langetjørn" />
		<tag k="name" v="Langetjønn" />
		<tag k="natural" v="water" />
		<tag k="ssr:stedsnr" v="245584" />
	</node>
	<node id="-235315" lat="59.5022416647" lon="9.11539445023">
		<tag k="name" v="Hylterhol" />
		<tag k="place" v="locality" />
		<tag k="ssr:stedsnr" v="511551" />
	</node>
	<node id="-235825" lat="59.3782277771" lon="8.97604444486">
		<tag k="name" v="Øya" />
		<tag k="natural" v="cape" />
		<tag k="ssr:stedsnr" v="815447" />
	</node>
	<node id="-235824" lat="59.3748055538" lon="8.97665277008">
		<tag k="name" v="Brudalsbukta" />
		<tag k="natural" v="bay" />
		<tag k="ssr:stedsnr" v="815446" />
	</node>
	<node id="-234798" lat="59.4503277765" lon="8.98016110704">
		<tag k="name" v="Ostebekk" />
		<tag k="ssr:stedsnr" v="28074" />
		<tag k="waterway" v="stream" />
	</node>
	<node id="-235306" lat="59.4307111114" lon="9.06231943654">
		<tag k="name" v="Berghøl" />
		<tag k="place" v="locality" />
		<tag k="ssr:stedsnr" v="511144" />
	</node>
	<node id="-234801" lat="59.4772861139" lon="9.02412777122">
		<tag k="name" v="Jønnbubekken" />
		<tag k="ssr:stedsnr" v="28428" />
		<tag k="waterway" v="stream" />
	</node>
	<node id="-235809" lat="59.4639888902" lon="9.13843610303">
		<tag k="name" v="Kattetjønn" />
		<tag k="natural" v="water" />
		<tag k="ssr:stedsnr" v="814911" />
		<tag k="water" v="pond" />
	</node>
	<node id="-234784" lat="59.4617666637" lon="9.14364166461">
		<tag k="name" v="Halvtunneputten" />
		<tag k="natural" v="water" />
		<tag k="ssr:stedsnr" v="26908" />
		<tag k="water" v="pond" />
	</node>
	<node id="-235312" lat="59.3766638858" lon="8.99230833551">
		<tag k="name" v="Uvdalsdammen" />
		<tag k="ssr:stedsnr" v="511448" />
		<tag k="waterway" v="dam" />
	</node>
	<node id="-235806" lat="59.4253472181" lon="9.02768333729">
		<tag k="name" v="Sagahølen" />
		<tag k="place" v="locality" />
		<tag k="ssr:stedsnr" v="814599" />
	</node>
	<node id="-234498" lat="59.4663083309" lon="9.0989583365">
		<tag k="name" v="Høgfoss" />
		<tag k="natural" v="waterfall" />
		<tag k="ssr:stedsnr" v="306444" />
	</node>
	<node id="-235286" lat="59.3793583302" lon="8.91541666247">
		<tag k="alt_name" v="Tveittjørn" />
		<tag k="name" v="Tveittjønna" />
		<tag k="natural" v="water" />
		<tag k="ssr:stedsnr" v="488305" />
	</node>
	<node id="-234773" lat="59.3755000003" lon="8.99949999593">
		<tag k="name" v="Finkefoss" />
		<tag k="natural" v="waterfall" />
		<tag k="ssr:stedsnr" v="26472" />
	</node>
	<node id="-235283" lat="59.4910416688" lon="9.12456111607">
		<tag k="alt_name" v="Smærtjørn" />
		<tag k="name" v="Smærtjønn" />
		<tag k="natural" v="water" />
		<tag k="ssr:stedsnr" v="487666" />
	</node>
	<node id="-235793" lat="59.3873750015" lon="8.95392222554">
		<tag k="name" v="Kvennhusbekken" />
		<tag k="ssr:stedsnr" v="813064" />
		<tag k="waterway" v="stream" />
	</node>
	<node id="-235480" lat="59.4947805531" lon="8.9173888961">
		<tag k="name" v="Holmen" />
		<tag k="natural" v="water" />
		<tag k="ssr:stedsnr" v="608630" />
	</node>
	<node id="-234766" lat="59.4612583299" lon="9.11006943756">
		<tag k="name" v="Torilldåpå" />
		<tag k="natural" v="water" />
		<tag k="ssr:stedsnr" v="26299" />
		<tag k="water" v="lake" />
	</node>
	<node id="-235788" lat="59.3958305567" lon="8.82975833755">
		<tag k="alt_name" v="Væltjørn" />
		<tag k="name" v="Veltjønn" />
		<tag k="natural" v="water" />
		<tag k="ssr:stedsnr" v="791755" />
	</node>
	<node id="-234943" lat="59.5032777751" lon="8.97331945026">
		<tag k="alt_name" v="Storsteintjørna" />
		<tag k="name" v="Storsteintjønna" />
		<tag k="natural" v="water" />
		<tag k="ssr:stedsnr" v="124339" />
	</node>
	<node id="-235271" lat="59.4599833366" lon="8.946294447">
		<tag k="name" v="Løken" />
		<tag k="ssr:stedsnr" v="453980" />
		<tag k="waterway" v="stream" />
	</node>
	<node id="-235782" lat="59.4809027764" lon="9.12886110344">
		<tag k="alt_name" v="Båntjørn" />
		<tag k="name" v="Båntjønn" />
		<tag k="natural" v="water" />
		<tag k="ssr:stedsnr" v="791584" />
		<tag k="water" v="pond" />
	</node>
	<node id="-235778" lat="59.4893527811" lon="8.90079999205">
		<tag k="alt_name" v="Jøronnattjørna" />
		<tag k="name" v="Jøronnattjønna" />
		<tag k="natural" v="water" />
		<tag k="ssr:stedsnr" v="791551" />
	</node>
	<node id="-235265" lat="59.4406388925" lon="8.9591305577">
		<tag k="name" v="Skjentjønn" />
		<tag k="natural" v="water" />
		<tag k="ssr:stedsnr" v="453857" />
	</node>
	<node id="-235776" lat="59.4629888862" lon="9.1535638815">
		<tag k="loc_name" v="Solbjørgvatnet" />
		<tag k="name" v="Solbjørvatnet" />
		<tag k="natural" v="water" />
		<tag k="ssr:stedsnr" v="791477" />
		<tag k="water" v="lake" />
	</node>
	<node id="-235774" lat="59.4669083329" lon="9.10075277501">
		<tag k="name" v="Åmøtet" />
		<tag k="ssr:stedsnr" v="791458" />
		<tag k="waterway" v="river" />
	</node>
	<node id="-235773" lat="59.4570722262" lon="8.98163888864">
		<tag k="name" v="Tilfangåa" />
		<tag k="ssr:stedsnr" v="791452" />
		<tag k="waterway" v="river" />
	</node>
	<node id="-234745" lat="59.4154916689" lon="9.04931943769">
		<tag k="name" v="Presteevju" />
		<tag k="ssr:stedsnr" v="25244" />
		<tag k="waterway" v="stream" />
	</node>
	<node id="-234735" lat="59.5169166665" lon="9.12576111806">
		<tag k="name" v="Vatnarvatnet" />
		<tag k="natural" v="water" />
		<tag k="ssr:stedsnr" v="3427" />
		<tag k="water" v="lake" />
	</node>
	<node id="-235751" lat="59.4330305577" lon="8.87558055875">
		<tag k="name" v="Herretjønn" />
		<tag k="natural" v="water" />
		<tag k="ssr:stedsnr" v="756883" />
	</node>
	<node id="-234726" lat="59.4952055532" lon="9.14698332465">
		<tag k="alt_name" v="Belatjørna" />
		<tag k="name" v="Belatjønn" />
		<tag k="natural" v="water" />
		<tag k="ssr:stedsnr" v="2591" />
	</node>
	<node id="-235237" lat="59.4301111153" lon="9.04981665989">
		<tag k="name" v="Oterholtfossen" />
		<tag k="natural" v="waterfall" />
		<tag k="ssr:stedsnr" v="451591" />
	</node>
	<node id="-234722" lat="59.460980558" lon="9.05899444581">
		<tag k="name" v="Helle" />
		<tag k="ssr:stedsnr" v="2524" />
		<tag k="waterway" v="stream" />
	</node>
	<node id="-235745" lat="59.3780749956" lon="8.88777499521">
		<tag k="name" v="Ormetjønnbekken" />
		<tag k="ssr:stedsnr" v="756230" />
		<tag k="waterway" v="stream" />
	</node>
	<node id="-235744" lat="59.4571055526" lon="8.99759722331">
		<tag k="name" v="Tilfangfossen" />
		<tag k="natural" v="waterfall" />
		<tag k="ssr:stedsnr" v="756076" />
	</node>
	<node id="-235741" lat="59.3805583332" lon="8.92458333383">
		<tag k="name" v="Tveittjønnbekken" />
		<tag k="ssr:stedsnr" v="756014" />
		<tag k="waterway" v="stream" />
	</node>
	<node id="-234715" lat="59.435227777" lon="8.88084722419">
		<tag k="alt_name" v="Kupatjørna" />
		<tag k="name" v="Kupatjønn" />
		<tag k="natural" v="water" />
		<tag k="ssr:stedsnr" v="2483" />
	</node>
	<node id="-235735" lat="59.4674972188" lon="8.97688055416">
		<tag k="name" v="Beveren" />
		<tag k="natural" v="waterfall" />
		<tag k="ssr:stedsnr" v="755691" />
	</node>
	<node id="-235732" lat="59.4068666625" lon="8.85479722502">
		<tag k="name" v="Lobutjønna" />
		<tag k="natural" v="water" />
		<tag k="ssr:stedsnr" v="755145" />
		<tag k="water" v="pond" />
	</node>
	<node id="-235725" lat="59.4116805581" lon="9.0711166632">
		<tag k="name" v="Bøevju" />
		<tag k="ssr:stedsnr" v="754696" />
		<tag k="waterway" v="stream" />
	</node>
	<node id="-235724" lat="59.4393777803" lon="9.04211666392">
		<tag k="name" v="Liskottolla" />
		<tag k="natural" v="spring" />
		<tag k="ssr:stedsnr" v="754621" />
	</node>
	<node id="-235723" lat="59.4297388862" lon="9.03846110508">
		<tag k="name" v="Oterbekk" />
		<tag k="ssr:stedsnr" v="754589" />
		<tag k="waterway" v="stream" />
	</node>
	<node id="-235721" lat="59.5168277816" lon="9.05477777325">
		<tag k="name" v="Blåtjønn" />
		<tag k="natural" v="water" />
		<tag k="ssr:stedsnr" v="754578" />
		<tag k="water" v="pond" />
	</node>
	<node id="-235715" lat="59.431091668" lon="9.1186250051">
		<tag k="name" v="Holtebekk" />
		<tag k="ssr:stedsnr" v="754344" />
		<tag k="waterway" v="stream" />
	</node>
	<node id="-235201" lat="59.4340750045" lon="9.04716111439">
		<tag k="name" v="Tiubekk" />
		<tag k="ssr:stedsnr" v="450571" />
		<tag k="waterway" v="stream" />
	</node>
	<node id="-234684" lat="59.3986722218" lon="8.87098889605">
		<tag k="alt_name" v="Tjørnflyene" />
		<tag k="name" v="Tjønnflyane" />
		<tag k="natural" v="water" />
		<tag k="ssr:stedsnr" v="245338" />
	</node>
	<node id="-234683" lat="59.3764339071" lon="9.03986025345">
		<tag k="alt_name" v="Åsetjørna" />
		<tag k="name" v="Åsetjønna" />
		<tag k="natural" v="water" />
		<tag k="ssr:stedsnr" v="245330" />
	</node>
	<node id="-234682" lat="59.3757416708" lon="8.901094446">
		<tag k="alt_name" v="Bjortjørn" />
		<tag k="name" v="Bjortjønn" />
		<tag k="natural" v="water" />
		<tag k="ssr:stedsnr" v="245323" />
	</node>
	<node id="-235295" lat="59.387452775" lon="8.90943611349">
		<tag k="name" v="Gramtjønn" />
		<tag k="natural" v="water" />
		<tag k="ssr:stedsnr" v="513014" />
		<tag k="water" v="pond" />
	</node>
	<node id="-234679" lat="59.3898750025" lon="9.0503499988">
		<tag k="alt_name" v="Rosbekken" />
		<tag k="name" v="Roebekken" />
		<tag k="ssr:stedsnr" v="245303" />
		<tag k="waterway" v="stream" />
	</node>
	<node id="-235190" lat="59.4960666667" lon="8.98772499528">
		<tag k="name" v="Sautjønn" />
		<tag k="natural" v="water" />
		<tag k="ssr:stedsnr" v="449899" />
	</node>
	<node id="-235187" lat="59.5138861105" lon="9.08203055137">
		<tag k="name" v="Svarttjønn" />
		<tag k="natural" v="water" />
		<tag k="ssr:stedsnr" v="428437" />
	</node>
	<node id="-235698" lat="59.3813361127" lon="8.87517223079">
		<tag k="name" v="Vesle Ormetjønn" />
		<tag k="natural" v="water" />
		<tag k="ssr:stedsnr" v="752142" />
	</node>
	<node id="-234669" lat="59.4315166709" lon="8.91645833946">
		<tag k="name" v="Karistulbekken" />
		<tag k="ssr:stedsnr" v="392843" />
		<tag k="waterway" v="stream" />
	</node>
	<node id="-235180" lat="59.464052779" lon="9.17956943847">
		<tag k="alt_name" v="Rennetjørn" />
		<tag k="name" v="Øvre Rennetjønn" />
		<tag k="natural" v="water" />
		<tag k="ssr:stedsnr" v="427504" />
	</node>
	<node id="-234866" lat="59.5086222228" lon="9.12561389726">
		<tag k="name" v="Vatnardammen" />
		<tag k="ssr:stedsnr" v="86755" />
		<tag k="waterway" v="dam" />
	</node>
	<node id="-235689" lat="59.5143444485" lon="9.02208611609">
		<tag k="alt_name" v="Vesleåa" />
		<tag k="name" v="Vesleå" />
		<tag k="ssr:stedsnr" v="731441" />
		<tag k="waterway" v="stream" />
	</node>
	<node id="-234664" lat="59.4835916678" lon="9.05956110521">
		<tag k="name" v="Veslehol" />
		<tag k="ssr:stedsnr" v="392444" />
		<tag k="waterway" v="rapids" />
	</node>
	<node id="-234609" lat="59.3807583292" lon="8.88981945314">
		<tag k="name" v="Stuttjønn" />
		<tag k="natural" v="water" />
		<tag k="ssr:stedsnr" v="388143" />
	</node>
	<node id="-235684" lat="59.3793972202" lon="8.87491666123">
		<tag k="alt_name" v="Ormetjørn" />
		<tag k="name" v="Ormetjønn" />
		<tag k="natural" v="water" />
		<tag k="ssr:stedsnr" v="731273" />
	</node>
	<node id="-235462" lat="59.4747555525" lon="8.92392222962">
		<tag k="name" v="Langetjønnfossen" />
		<tag k="natural" v="waterfall" />
		<tag k="ssr:stedsnr" v="574923" />
	</node>
	<node id="-235682" lat="59.4870722222" lon="9.1686805509">
		<tag k="alt_name" v="Svalbjørtjørna" />
		<tag k="loc_name" v="Svalbjørgtjønna" />
		<tag k="name" v="Svalbjørtjønna" />
		<tag k="natural" v="water" />
		<tag k="ssr:stedsnr" v="730670" />
	</node>
	<node id="-235680" lat="59.4983055518" lon="8.93267221379">
		<tag k="alt_name" v="Sautjørna" />
		<tag k="name" v="Sautjønn" />
		<tag k="natural" v="water" />
		<tag k="ssr:stedsnr" v="730645" />
	</node>
	<node id="-234652" lat="59.4309305576" lon="9.05855277682">
		<tag k="name" v="Berghølfoss" />
		<tag k="natural" v="waterfall" />
		<tag k="ssr:stedsnr" v="390556" />
	</node>
	<node id="-234651" lat="59.5079583378" lon="9.03189166439">
		<tag k="name" v="Slåttahølen" />
		<tag k="natural" v="water" />
		<tag k="ssr:stedsnr" v="390545" />
		<tag k="water" v="lake" />
	</node>
	<node id="-234650" lat="59.5158694469" lon="9.01817777113">
		<tag k="name" v="Veslefossen" />
		<tag k="natural" v="waterfall" />
		<tag k="ssr:stedsnr" v="390543" />
	</node>
	<node id="-235672" lat="59.3579638899" lon="8.95633333818">
		<tag k="alt_name" v="Grøntjørn" />
		<tag k="name" v="Grøntjønn" />
		<tag k="natural" v="water" />
		<tag k="ssr:stedsnr" v="730303" />
	</node>
	<node id="-235671" lat="59.368019443" lon="8.91548610549">
		<tag k="alt_name" v="Øyantjørna" />
		<tag k="name" v="Øyantjønna" />
		<tag k="natural" v="water" />
		<tag k="ssr:stedsnr" v="730283" />
	</node>
	<node id="-235668" lat="59.4395583322" lon="8.99952777201">
		<tag k="name" v="Slåttabekken" />
		<tag k="ssr:stedsnr" v="696845" />
		<tag k="waterway" v="stream" />
	</node>
	<node id="-235666" lat="59.468524999" lon="8.99013055976">
		<tag k="name" v="Grostulbekken" />
		<tag k="ssr:stedsnr" v="696692" />
		<tag k="waterway" v="stream" />
	</node>
	<node id="-235152" lat="59.3987111154" lon="8.84852222804">
		<tag k="name" v="Trolldalstjønna" />
		<tag k="natural" v="water" />
		<tag k="ssr:stedsnr" v="267125" />
	</node>
	<node id="-235150" lat="59.5203888911" lon="9.06576666661">
		<tag k="alt_name" v="Trolltjørn" />
		<tag k="name" v="Trolltjønn" />
		<tag k="natural" v="water" />
		<tag k="ssr:stedsnr" v="246453" />
	</node>
	<node id="-234637" lat="59.4121111134" lon="8.87468055938">
		<tag k="name" v="Gautilbekken" />
		<tag k="ssr:stedsnr" v="390150" />
		<tag k="waterway" v="stream" />
	</node>
	<node id="-235148" lat="59.5117388899" lon="9.05642500319">
		<tag k="name" v="Kroktjønn" />
		<tag k="natural" v="water" />
		<tag k="ssr:stedsnr" v="246442" />
	</node>
	<node id="-235657" lat="59.3829388866" lon="8.92624166194">
		<tag k="name" v="Steinulvsholbekken" />
		<tag k="ssr:stedsnr" v="696019" />
		<tag k="waterway" v="stream" />
	</node>
	<node id="-235179" lat="59.4646305511" lon="9.14660277191">
		<tag k="alt_name" v="Sigertjørn" />
		<tag k="name" v="Sigerstjønn" />
		<tag k="natural" v="water" />
		<tag k="ssr:stedsnr" v="427502" />
	</node>
	<node id="-234628" lat="59.4103833358" lon="9.10735000524">
		<tag k="name" v="Åsgravhølen" />
		<tag k="place" v="locality" />
		<tag k="ssr:stedsnr" v="389702" />
	</node>
	<node id="-235645" lat="59.4830805592" lon="9.06126111731">
		<tag k="name" v="Holefossen" />
		<tag k="natural" v="waterfall" />
		<tag k="ssr:stedsnr" v="695431" />
	</node>
	<node id="-234619" lat="59.4298305524" lon="9.11944444624">
		<tag k="name" v="Tunnebekk" />
		<tag k="ssr:stedsnr" v="389297" />
		<tag k="waterway" v="stream" />
	</node>
	<node id="-235641" lat="59.5271777801" lon="9.01123055256">
		<tag k="name" v="Løkjintjønna" />
		<tag k="natural" v="water" />
		<tag k="ssr:stedsnr" v="694623" />
	</node>
	<node id="-235128" lat="59.456408336" lon="8.91007499964">
		<tag k="name" v="Gullbekk" />
		<tag k="ssr:stedsnr" v="210964" />
		<tag k="waterway" v="stream" />
	</node>
	<node id="-234612" lat="59.4881611115" lon="8.96899722972">
		<tag k="name" v="Okslafoss" />
		<tag k="natural" v="waterfall" />
		<tag k="ssr:stedsnr" v="388910" />
	</node>
	<node id="-235635" lat="59.3927916637" lon="9.1145638876">
		<tag k="name" v="Åstjønnbekken" />
		<tag k="ssr:stedsnr" v="694387" />
		<tag k="waterway" v="stream" />
	</node>
	<node id="-234610" lat="59.3691472199" lon="8.87496110927">
		<tag k="name" v="Rogndalsbekken" />
		<tag k="ssr:stedsnr" v="388172" />
		<tag k="waterway" v="stream" />
	</node>
	<node id="-235121" lat="59.4303916699" lon="8.92870278146">
		<tag k="name" v="Gråndalsbekken" />
		<tag k="ssr:stedsnr" v="210828" />
		<tag k="waterway" v="stream" />
	</node>
	<node id="-235119" lat="59.4689472206" lon="8.97777221849">
		<tag k="name" v="Vihusfossen" />
		<tag k="natural" v="waterfall" />
		<tag k="ssr:stedsnr" v="210716" />
	</node>
	<node id="-234699" lat="59.3653833361" lon="9.00309444752">
		<tag k="alt_name" v="Hurrongstjørna" />
		<tag k="name" v="Hurrongstjønna" />
		<tag k="natural" v="water" />
		<tag k="ssr:stedsnr" v="2332" />
	</node>
	<node id="-235112" lat="59.3694277765" lon="8.89538611667">
		<tag k="name" v="Suggetjønn" />
		<tag k="natural" v="water" />
		<tag k="ssr:stedsnr" v="210049" />
		<tag k="water" v="pond" />
	</node>
	<node id="-235623" lat="59.4733527762" lon="9.16563611811">
		<tag k="name" v="Svarttjønn" />
		<tag k="natural" v="water" />
		<tag k="ssr:stedsnr" v="693910" />
	</node>
	<node id="-234594" lat="59.4929611139" lon="8.98143888077">
		<tag k="alt_name" v="Sleivtjørn" />
		<tag k="name" v="Sleivtjønn" />
		<tag k="natural" v="water" />
		<tag k="ssr:stedsnr" v="366596" />
	</node>
	<node id="-235617" lat="59.4919361117" lon="9.10910000438">
		<tag k="name" v="Smærtjønnhølen" />
		<tag k="place" v="locality" />
		<tag k="ssr:stedsnr" v="693595" />
	</node>
	<node id="-234592" lat="59.4861055566" lon="8.94665555443">
		<tag k="alt_name" v="Kloppesteintjørna" />
		<tag k="name" v="Kloppesteintjønn" />
		<tag k="natural" v="water" />
		<tag k="ssr:stedsnr" v="366579" />
	</node>
	<node id="-234591" lat="59.4348833367" lon="8.93688888093">
		<tag k="alt_name" v="Gråndalstjørna" />
		<tag k="name" v="Gråndalstjønna" />
		<tag k="natural" v="water" />
		<tag k="ssr:stedsnr" v="366468" />
	</node>
	<node id="-234938" lat="59.4953166648" lon="8.93529167473">
		<tag k="alt_name" v="Rjupetjørn" />
		<tag k="name" v="Rjupetjønn" />
		<tag k="natural" v="water" />
		<tag k="ssr:stedsnr" v="123630" />
	</node>
	<node id="-235449" lat="59.3944611091" lon="8.94050554946">
		<tag k="name" v="Tjønnhaugtjønna" />
		<tag k="natural" v="water" />
		<tag k="ssr:stedsnr" v="574278" />
	</node>
	<node id="-234580" lat="59.366386107" lon="8.94333055857">
		<tag k="alt_name" v="Svarttjørn" />
		<tag k="name" v="Svarttjønn" />
		<tag k="natural" v="water" />
		<tag k="ssr:stedsnr" v="366284" />
	</node>
	<node id="-235598" lat="59.4236444447" lon="9.03085833317">
		<tag k="name" v="Haugfoss" />
		<tag k="natural" v="waterfall" />
		<tag k="ssr:stedsnr" v="692535" />
	</node>
	<node id="-235597" lat="59.4229333308" lon="9.03292223024">
		<tag k="name" v="Midtbøhølen" />
		<tag k="place" v="locality" />
		<tag k="ssr:stedsnr" v="692534" />
	</node>
	<node id="-235590" lat="59.4812416707" lon="8.92621111074">
		<tag k="alt_name" v="Repetjørn" />
		<tag k="name" v="Repetjønn" />
		<tag k="natural" v="water" />
		<tag k="ssr:stedsnr" v="670584" />
	</node>
	<node id="-234565" lat="59.4350666677" lon="8.9287416739">
		<tag k="name" v="Hanakamtjønna" />
		<tag k="natural" v="water" />
		<tag k="ssr:stedsnr" v="331822" />
	</node>
	<node id="-234564" lat="59.4755472209" lon="8.97748333483">
		<tag k="name" v="Okslaåa" />
		<tag k="ssr:stedsnr" v="331654" />
		<tag k="waterway" v="river" />
	</node>
	<node id="-235586" lat="59.4689194485" lon="9.17088611557">
		<tag k="alt_name" v="Kirsdalstjørna" />
		<tag k="name" v="Kirsdalstjønna" />
		<tag k="natural" v="water" />
		<tag k="ssr:stedsnr" v="670449" />
	</node>
	<node id="-234783" lat="59.5227500018" lon="9.13200000071">
		<tag k="name" v="Fossane" />
		<tag k="natural" v="waterfall" />
		<tag k="ssr:stedsnr" v="26739" />
	</node>
	<node id="-235069" lat="59.3919861077" lon="8.95681667128">
		<tag k="name" v="Steinskotbekken" />
		<tag k="ssr:stedsnr" v="207047" />
		<tag k="waterway" v="stream" />
	</node>
	<node id="-235575" lat="59.4398333337" lon="9.12880833337">
		<tag k="loc_name" v="Hørteelva" />
		<tag k="name" v="Hørteåa" />
		<tag k="ssr:stedsnr" v="669478" />
		<tag k="waterway" v="river" />
	</node>
	<node id="-235062" lat="59.4658916679" lon="9.14270832804">
		<tag k="name" v="Løken" />
		<tag k="natural" v="water" />
		<tag k="ssr:stedsnr" v="184491" />
	</node>
	<node id="-235573" lat="59.4526638858" lon="9.02227500003">
		<tag k="alt_name" v="Gjuvsåa" />
		<tag k="name" v="Juvsåa" />
		<tag k="ssr:stedsnr" v="669468" />
		<tag k="waterway" v="river" />
	</node>
	<node id="-235055" lat="59.4851027818" lon="8.9125888923">
		<tag k="alt_name" v="Repetjørnan" />
		<tag k="name" v="Repetjønn" />
		<tag k="natural" v="water" />
		<tag k="ssr:stedsnr" v="184579" />
	</node>
	<node id="-234540" lat="59.4026888852" lon="8.87834999423">
		<tag k="name" v="Vesle Svarttjønn" />
		<tag k="natural" v="water" />
		<tag k="ssr:stedsnr" v="330205" />
	</node>
	<node id="-234538" lat="59.4125222267" lon="8.93614999954">
		<tag k="name" v="Eriksteintjønna" />
		<tag k="natural" v="water" />
		<tag k="ssr:stedsnr" v="330139" />
	</node>
	<node id="-236067" lat="59.4665555569" lon="8.90939722739">
		<tag k="name" v="Skartjønn" />
		<tag k="natural" v="water" />
		<tag k="ssr:stedsnr" v="938904" />
		<tag k="water" v="pond" />
	</node>
	<node id="-234530" lat="59.4622805515" lon="9.175277786">
		<tag k="name" v="Nedre Rennetjønn" />
		<tag k="natural" v="water" />
		<tag k="ssr:stedsnr" v="329948" />
	</node>
	<node id="-235550" lat="59.4548777816" lon="8.9544111155">
		<tag k="name" v="Dyrdalsbekken" />
		<tag k="ssr:stedsnr" v="634064" />
		<tag k="waterway" v="stream" />
	</node>
	<node id="-236037" lat="59.4026388845" lon="8.96115000807">
		<tag k="name" v="Skoebekken" />
		<tag k="ssr:stedsnr" v="937010" />
		<tag k="waterway" v="stream" />
	</node>
	<node id="-235975" lat="59.4872111149" lon="9.13400832621">
		<tag k="alt_name" v="Lauvtjørn" />
		<tag k="name" v="Lauvtjønn" />
		<tag k="natural" v="water" />
		<tag k="ssr:stedsnr" v="912635" />
	</node>
	<node id="-235546" lat="59.3713249991" lon="8.93249445215">
		<tag k="name" v="Åkroken" />
		<tag k="place" v="locality" />
		<tag k="ssr:stedsnr" v="634031" />
	</node>
	<node id="-235545" lat="59.3664333307" lon="8.92831943593">
		<tag k="name" v="Holmstuldammen" />
		<tag k="ssr:stedsnr" v="634032" />
		<tag k="waterway" v="dam" />
	</node>
	<node id="-235543" lat="59.4994027768" lon="8.95209999409">
		<tag k="name" v="Langetjønn" />
		<tag k="natural" v="water" />
		<tag k="ssr:stedsnr" v="633622" />
	</node>
	<node id="-235030" lat="59.4893361145" lon="9.10689167013">
		<tag k="name" v="Lonefoss" />
		<tag k="natural" v="waterfall" />
		<tag k="ssr:stedsnr" v="268567" />
	</node>
	<node id="-235025" lat="59.4788833292" lon="8.93263054933">
		<tag k="name" v="Repetjønnbekken" />
		<tag k="ssr:stedsnr" v="149987" />
		<tag k="waterway" v="stream" />
	</node>
	<node id="-235168" lat="59.377480556" lon="8.97066389043">
		<tag k="alt_name" v="Øvretjørn" />
		<tag k="name" v="Øvretjønn" />
		<tag k="natural" v="water" />
		<tag k="ssr:stedsnr" v="427358" />
	</node>
	<node id="-235021" lat="59.4410333314" lon="8.99518332583">
		<tag k="name" v="Smærstulbekken" />
		<tag k="ssr:stedsnr" v="149869" />
		<tag k="waterway" v="stream" />
	</node>
	<node id="-236043" lat="59.412538886" lon="8.9099444388">
		<tag k="name" v="Graveevju" />
		<tag k="ssr:stedsnr" v="937143" />
		<tag k="waterway" v="stream" />
	</node>
	<node id="-234503" lat="59.3848277794" lon="8.97601666019">
		<tag k="name" v="Rakkeholtjønnane" />
		<tag k="natural" v="water" />
		<tag k="ssr:stedsnr" v="327073" />
		<tag k="water" v="pond" />
	</node>
	<node id="-235525" lat="59.4998305596" lon="9.1050305549">
		<tag k="name" v="Åkrokane" />
		<tag k="natural" v="strait" />
		<tag k="ssr:stedsnr" v="632572" />
	</node>
	<node id="-235523" lat="59.4287722225" lon="9.01728055911">
		<tag k="name" v="Ruebekken" />
		<tag k="ssr:stedsnr" v="632559" />
		<tag k="waterway" v="stream" />
	</node>
	<node id="-235522" lat="59.5004250034" lon="9.10013332856">
		<tag k="name" v="Storbekk" />
		<tag k="ssr:stedsnr" v="632557" />
		<tag k="waterway" v="stream" />
	</node>
	<node id="-234497" lat="59.4114722221" lon="8.96950555919">
		<tag k="name" v="Bøelva" />
		<tag k="ssr:stedsnr" v="306419" />
		<tag k="waterway" v="river" />
	</node>
</osm>
