<?xml version="1.0" encoding="UTF-8"?>
<osm generator="osmapis" version="0.6">
	<node id="-235008" lat="59.4568083347" lon="8.99443611195">
		<tag k="bridge" v="yes" />
		<tag k="layer" v="1" />
		<tag k="name" v="Tilfangbrua" />
		<tag k="ssr:stedsnr" v="149086" />
	</node>
	<node id="-235391" lat="59.4088027754" lon="8.95972221382">
		<tag k="bridge" v="yes" />
		<tag k="layer" v="1" />
		<tag k="name" v="Tjønntveit bru" />
		<tag k="ssr:stedsnr" v="571046" />
	</node>
	<node id="-235605" lat="59.4151527806" lon="9.05593332708">
		<tag k="bridge" v="yes" />
		<tag k="layer" v="1" />
		<tag k="name" v="Prestebrua" />
		<tag k="ssr:stedsnr" v="693286" />
	</node>
	<node id="-236027" lat="59.4949055543" lon="9.14157499857">
		<tag k="bridge" v="yes" />
		<tag k="layer" v="1" />
		<tag k="name" v="Myrjordsbrua" />
		<tag k="ssr:stedsnr" v="936578" />
	</node>
	<node id="-235637" lat="59.4762333307" lon="9.0678305608">
		<tag k="highway" v="path" />
		<tag k="name" v="Ostebakke" />
		<tag k="ssr:stedsnr" v="694469" />
	</node>
	<node id="-235892" lat="59.4240166641" lon="9.1267694439">
		<tag k="alt_name" v="Hørte" />
		<tag k="bridge" v="yes" />
		<tag k="layer" v="1" />
		<tag k="name" v="Hørte bru" />
		<tag k="ssr:stedsnr" v="875293" />
	</node>
	<node id="-235762" lat="59.4093833359" lon="9.0690111184">
		<tag k="alt_name" v="Bø stasjon" />
		<tag k="name" v="Bø" />
		<tag k="railway" v="station" />
		<tag k="ssr:stedsnr" v="791333" />
		<tag k="train" v="yes" />
	</node>
	<node id="-236017" lat="59.3941805547" lon="9.08540833364">
		<tag k="highway" v="path" />
		<tag k="name" v="Steinskotet" />
		<tag k="ssr:stedsnr" v="936429" />
	</node>
	<node id="-236015" lat="59.3770869451" lon="9.01120761494">
		<tag k="junction" v="yes" />
		<tag k="name" v="Begvahaugen" />
		<tag k="place" v="locality" />
		<tag k="ssr:stedsnr" v="936395" />
	</node>
	<node id="-235757" lat="59.4117055562" lon="9.06943611877">
		<tag k="bridge" v="yes" />
		<tag k="layer" v="1" />
		<tag k="name" v="Bøevja" />
		<tag k="ssr:stedsnr" v="775259" />
	</node>
	<node id="-235884" lat="59.4451138914" lon="9.0272750033">
		<tag k="name" v="Bjønnåkeleet" />
		<tag k="place" v="locality" />
		<tag k="ssr:stedsnr" v="875010" />
	</node>
	<node id="-235627" lat="59.4052055548" lon="8.90805278645">
		<tag k="highway" v="path" />
		<tag k="name" v="Ollerskleiv" />
		<tag k="ssr:stedsnr" v="694111" />
	</node>
	<node id="-234856" lat="59.4308305525" lon="9.05314167538">
		<tag k="landuse" v="industrial" />
		<tag k="name" v="Kraftverk" />
		<tag k="power" v="plant" />
		<tag k="ssr:stedsnr" v="86577" />
	</node>
	<node id="-235196" lat="59.3515805589" lon="8.88174167371">
		<tag k="man_made" v="cairn" />
		<tag k="name" v="Grånåfjellvarden" />
		<tag k="place" v="locality" />
		<tag k="ssr:stedsnr" v="450432" />
	</node>
	<node id="-235621" lat="59.4141444456" lon="9.09393888723">
		<tag k="alt_name" v="Gaara" />
		<tag k="bridge" v="yes" />
		<tag k="layer" v="1" />
		<tag k="name" v="Gårabru" />
		<tag k="ssr:stedsnr" v="693728" />
	</node>
	<node id="-235899" lat="59.4294111111" lon="9.04650556029">
		<tag k="alt_name" v="Oterholt" />
		<tag k="bridge" v="yes" />
		<tag k="layer" v="1" />
		<tag k="name" v="Oterholtbrua" />
		<tag k="ssr:stedsnr" v="875564" />
	</node>
	<node id="-235104" lat="59.4094305559" lon="9.09104166126">
		<tag k="name" v="Sperrudvelta" />
		<tag k="place" v="locality" />
		<tag k="ssr:stedsnr" v="208700" />
	</node>
	<node id="-235536" lat="59.4058750009" lon="8.85656110933">
		<tag k="highway" v="path" />
		<tag k="name" v="Grisestigen" />
		<tag k="ssr:stedsnr" v="633174" />
	</node>
	<node id="-234974" lat="59.463797221" lon="8.959427778">
		<tag k="highway" v="path" />
		<tag k="name" v="Råmundsklopp" />
		<tag k="ssr:stedsnr" v="147115" />
	</node>
	<node id="-235612" lat="59.4873861072" lon="9.07202499648">
		<tag k="highway" v="path" />
		<tag k="name" v="Løyto" />
		<tag k="ssr:stedsnr" v="693455" />
	</node>
	<node id="-234457" lat="59.3849666642" lon="8.90418888346">
		<tag k="highway" v="path" />
		<tag k="name" v="Vrangeskot" />
		<tag k="ssr:stedsnr" v="271017" />
	</node>
	<node id="-235222" lat="59.4584083322" lon="9.11078334118">
		<tag k="bridge" v="yes" />
		<tag k="layer" v="1" />
		<tag k="name" v="Ølsbru" />
		<tag k="ssr:stedsnr" v="451303" />
	</node>
	<node id="-235733" lat="59.4876027803" lon="9.01646666555">
		<tag k="highway" v="path" />
		<tag k="name" v="Sandkleiv" />
		<tag k="ssr:stedsnr" v="755558" />
	</node>
	<node id="-234452" lat="59.4393083318" lon="9.04543055952">
		<tag k="bridge" v="yes" />
		<tag k="layer" v="1" />
		<tag k="name" v="Juvsåbrua" />
		<tag k="ssr:stedsnr" v="269641" />
	</node>
	<node id="-234963" lat="59.4949027788" lon="9.10356666546">
		<tag k="alt_name" v="Lona" />
		<tag k="bridge" v="yes" />
		<tag k="layer" v="1" />
		<tag k="name" v="Lonabrua" />
		<tag k="ssr:stedsnr" v="146538" />
	</node>
	<node id="-235346" lat="59.4794805538" lon="8.96909722009">
		<tag k="highway" v="path" />
		<tag k="name" v="Stretakleiv" />
		<tag k="ssr:stedsnr" v="513674" />
	</node>
	<node id="-235214" lat="59.4440777787" lon="9.01731111117">
		<tag k="name" v="Klovleet" />
		<tag k="place" v="locality" />
		<tag k="ssr:stedsnr" v="451028" />
	</node>
	<node id="-235731" lat="59.4064999978" lon="8.9007666747">
		<tag k="highway" v="path" />
		<tag k="name" v="Sandstulvegen" />
		<tag k="ssr:stedsnr" v="755122" />
	</node>
	<node id="-234824" lat="59.4519388901" lon="8.91002222395">
		<tag k="bridge" v="yes" />
		<tag k="layer" v="1" />
		<tag k="name" v="Myklestulbrua" />
		<tag k="ssr:stedsnr" v="63506" />
	</node>
	<node id="-235719" lat="59.4695416639" lon="9.09362778657">
		<tag k="alt_name" v="Høgfosskås" />
		<tag k="bridge" v="yes" />
		<tag k="layer" v="1" />
		<tag k="name" v="Høgfosskåsbrua" />
		<tag k="ssr:stedsnr" v="754510" />
	</node>
	<node id="-234962" lat="59.4989000021" lon="9.10463888985">
		<tag k="bridge" v="yes" />
		<tag k="layer" v="1" />
		<tag k="name" v="Jørgedalsbrua" />
		<tag k="ssr:stedsnr" v="146534" />
	</node>
	<node id="-235713" lat="59.4201194453" lon="8.90195833526">
		<tag k="alt_name" v="Sanda" />
		<tag k="bridge" v="yes" />
		<tag k="layer" v="1" />
		<tag k="name" v="Sandabrua" />
		<tag k="ssr:stedsnr" v="754168" />
	</node>
	<node id="-235456" lat="59.4695916694" lon="8.96441111947">
		<tag k="ford" v="yes" />
		<tag k="name" v="Lislestulvaet" />
		<tag k="place" v="locality" />
		<tag k="ssr:stedsnr" v="574711" />
	</node>
	<node id="-235455" lat="59.4756249967" lon="8.96598056315">
		<tag k="highway" v="path" />
		<tag k="name" v="Spreglebakke" />
		<tag k="ssr:stedsnr" v="574682" />
	</node>
	<node id="-235324" lat="59.4183638901" lon="9.12023611465">
		<tag k="bridge" v="yes" />
		<tag k="layer" v="1" />
		<tag k="name" v="Bergingsbru" />
		<tag k="ssr:stedsnr" v="511964" />
	</node>
	<node id="-235195" lat="59.371105559" lon="9.03196110788">
		<tag k="fixme" v="consider highway=path" />
		<tag k="highway" v="track" />
		<tag k="name" v="Hurrongvegen" />
		<tag k="ssr:stedsnr" v="450401" />
	</node>
	<node id="-234810" lat="59.3748944473" lon="9.04467499944">
		<tag k="bridge" v="yes" />
		<tag k="layer" v="1" />
		<tag k="name" v="Åse" />
		<tag k="ssr:stedsnr" v="46274" />
	</node>
	<node id="-236057" lat="59.4835055559" lon="9.05535832497">
		<tag k="highway" v="path" />
		<tag k="name" v="Grivibakken" />
		<tag k="ssr:stedsnr" v="938404" />
	</node>
	<node id="-234868" lat="59.4749027799" lon="9.16782499608">
		<tag k="highway" v="path" />
		<tag k="name" v="Sandkleiv" />
		<tag k="ssr:stedsnr" v="86910" />
	</node>
	<node id="-234846" lat="59.4452749956" lon="9.05214445131">
		<tag k="bridge" v="yes" />
		<tag k="layer" v="1" />
		<tag k="name" v="Bekkåsbru" />
		<tag k="ssr:stedsnr" v="86042" />
	</node>
	<node id="-235954" lat="59.4833555522" lon="9.13784167388">
		<tag k="highway" v="path" />
		<tag k="name" v="Ospeskåtet" />
		<tag k="ssr:stedsnr" v="878910" />
	</node>
	<node id="-235801" lat="59.3974694452" lon="9.06627222323">
		<tag k="highway" v="path" />
		<tag k="name" v="Bordvegen" />
		<tag k="ssr:stedsnr" v="814435" />
	</node>
	<node id="-235568" lat="59.4232083347" lon="8.98166943913">
		<tag k="bridge" v="yes" />
		<tag k="layer" v="1" />
		<tag k="name" v="Vreim" />
		<tag k="ssr:stedsnr" v="653249" />
	</node>
	<node id="-235820" lat="59.4011305528" lon="9.04889721391">
		<tag k="junction" v="yes" />
		<tag k="name" v="Tandrebakke" />
		<tag k="place" v="locality" />
		<tag k="ssr:stedsnr" v="815266" />
	</node>
	<node id="-235122" lat="59.4515361154" lon="8.90962777922">
		<tag k="ford" v="yes" />
		<tag k="name" v="Brekkevaet" />
		<tag k="place" v="locality" />
		<tag k="ssr:stedsnr" v="210839" />
	</node>
	<node id="-235335" lat="59.376724998" lon="8.94020000631">
		<tag k="bridge" v="yes" />
		<tag k="layer" v="1" />
		<tag k="name" v="Tveitbrua" />
		<tag k="ssr:stedsnr" v="513037" />
	</node>
	<node id="-234460" lat="59.3713416647" lon="8.88326110806">
		<tag k="ford" v="yes" />
		<tag k="name" v="Bakkjerkromla" />
		<tag k="place" v="locality" />
		<tag k="ssr:stedsnr" v="271265" />
	</node>
	<node id="-235505" lat="59.3991333378" lon="8.88352499967">
		<tag k="ford" v="yes" />
		<tag k="name" v="Kilevaet" />
		<tag k="place" v="locality" />
		<tag k="ssr:stedsnr" v="630182" />
	</node>
	<node id="-235938" lat="59.3648500044" lon="8.90653889605">
		<tag k="name" v="Rullet" />
		<tag k="place" v="locality" />
		<tag k="ssr:stedsnr" v="878046" />
	</node>
	<node id="-235035" lat="59.3827750019" lon="9.04198056002">
		<tag k="bridge" v="yes" />
		<tag k="layer" v="1" />
		<tag k="name" v="Tjønnås" />
		<tag k="ssr:stedsnr" v="168270" />
	</node>
	<node id="-234607" lat="59.3968861155" lon="8.95034999525">
		<tag k="highway" v="path" />
		<tag k="name" v="Langeskota" />
		<tag k="ssr:stedsnr" v="388048" />
	</node>
	<node id="-235131" lat="59.4228694464" lon="8.90534167497">
		<tag k="bridge" v="yes" />
		<tag k="layer" v="1" />
		<tag k="name" v="Verpe" />
		<tag k="ssr:stedsnr" v="228266" />
	</node>
	<node id="-235636" lat="59.4780972243" lon="9.07019722624">
		<tag k="bridge" v="yes" />
		<tag k="layer" v="1" />
		<tag k="name" v="Åsebrua" />
		<tag k="ssr:stedsnr" v="694467" />
	</node>
	<node id="-235670" lat="59.4075000006" lon="8.95903333182">
		<tag k="bridge" v="yes" />
		<tag k="layer" v="1" />
		<tag k="name" v="Skoe" />
		<tag k="ssr:stedsnr" v="714248" />
	</node>
	<node id="-236053" lat="59.4312805565" lon="9.06011110326">
		<tag k="name" v="Hellosvelta" />
		<tag k="place" v="locality" />
		<tag k="ssr:stedsnr" v="937659" />
	</node>
	<node id="-236052" lat="59.4326694481" lon="9.0534777863">
		<tag k="name" v="Haugesagvelta" />
		<tag k="place" v="locality" />
		<tag k="ssr:stedsnr" v="937612" />
	</node>
	<node id="-234515" lat="59.4366805521" lon="9.13236944542">
		<tag k="bridge" v="yes" />
		<tag k="layer" v="1" />
		<tag k="name" v="Skvisla" />
		<tag k="ssr:stedsnr" v="329297" />
	</node>
	<node id="-234514" lat="59.438313893" lon="9.12276388287">
		<tag k="highway" v="path" />
		<tag k="name" v="Kromla" />
		<tag k="ssr:stedsnr" v="329289" />
	</node>
	<node id="-236048" lat="59.4081944467" lon="8.88923889481">
		<tag k="highway" v="path" />
		<tag k="name" v="Stigskotet" />
		<tag k="ssr:stedsnr" v="937202" />
	</node>
	<node id="-234453" lat="59.440030554" lon="9.04082500087">
		<tag k="highway" v="path" />
		<tag k="name" v="Liskott" />
		<tag k="ssr:stedsnr" v="269647" />
	</node>
	<node id="-234811" lat="59.4259083303" lon="9.07192500062">
		<tag k="bridge" v="yes" />
		<tag k="layer" v="1" />
		<tag k="name" v="Folkestad" />
		<tag k="ssr:stedsnr" v="46293" />
	</node>
	<node id="-235245" lat="59.4783333307" lon="8.99466389164">
		<tag k="ford" v="yes" />
		<tag k="name" v="Grostulvaet" />
		<tag k="place" v="locality" />
		<tag k="ssr:stedsnr" v="452659" />
	</node>
	<node id="-236044" lat="59.4119499978" lon="8.91611666835">
		<tag k="bridge" v="yes" />
		<tag k="layer" v="1" />
		<tag k="name" v="Hålåbrua" />
		<tag k="ssr:stedsnr" v="937144" />
	</node>
	<node id="-234668" lat="59.424827776" lon="8.91693332492">
		<tag k="fixme" v="consider highway=path" />
		<tag k="highway" v="track" />
		<tag k="name" v="Karistulvegen" />
		<tag k="ssr:stedsnr" v="392823" />
	</node>
	<node id="-234882" lat="59.4914916695" lon="8.96307221701">
		<tag k="name" v="Okslagrinda" />
		<tag k="place" v="locality" />
		<tag k="ssr:stedsnr" v="87594" />
	</node>
	<node id="-235905" lat="59.4127194415" lon="9.11655555302">
		<tag k="bridge" v="yes" />
		<tag k="layer" v="1" />
		<tag k="name" v="Mannebru" />
		<tag k="ssr:stedsnr" v="875686" />
	</node>
</osm>
