<?xml version="1.0" encoding="UTF-8"?>
<osm generator="osmapis" version="0.6">
	<node id="-52800" lat="60.7962249973" lon="11.0795472254">
		<tag k="leisure" v="pitch" />
		<tag k="old_name" v="Hamar stadion" />
		<tag k="ssr:date" v="2016-05-11" />
		<tag k="ssr:gruppe" v="fritidsanlegg" />
		<tag k="ssr:hovedgruppe" v="bebyggelse" />
		<tag k="ssr:stedsnr" v="829558" />
		<tag k="ssr:type" v="idrettsanlegg" />
	</node>
	<node id="-52861" lat="60.8045166658" lon="11.0756694431">
		<tag k="amenity" v="school" />
		<tag k="old_name" v="Ankerskogen videregående skole" />
		<tag k="ssr:date" v="2016-05-11" />
		<tag k="ssr:gruppe" v="institusjoner" />
		<tag k="ssr:hovedgruppe" v="bebyggelse" />
		<tag k="ssr:stedsnr" v="905621" />
		<tag k="ssr:type" v="skole" />
	</node>
	<node id="-52045" lat="60.7989472203" lon="11.0273249956">
		<tag k="old_name" v="Hamar camping" />
		<tag k="ssr:date" v="2016-05-10" />
		<tag k="ssr:gruppe" v="næring" />
		<tag k="ssr:hovedgruppe" v="bebyggelse" />
		<tag k="ssr:stedsnr" v="345447" />
		<tag k="ssr:type" v="campingplass" />
		<tag k="tourism" v="camp_site" />
	</node>
	<node id="-52818" lat="60.7993222203" lon="11.0615805487">
		<tag k="amenity" v="nursing_home" />
		<tag k="old_name" v="Sangen sykehjem" />
		<tag k="ssr:date" v="2016-05-11" />
		<tag k="ssr:gruppe" v="institusjoner" />
		<tag k="ssr:hovedgruppe" v="bebyggelse" />
		<tag k="ssr:stedsnr" v="831451" />
		<tag k="ssr:type" v="helseinstitusjon" />
	</node>
	<node id="-52637" lat="60.7958722253" lon="11.0730055638">
		<tag k="amenity" v="school" />
		<tag k="old_name" v="Midtbyen skole" />
		<tag k="ssr:date" v="2016-05-10" />
		<tag k="ssr:gruppe" v="institusjoner" />
		<tag k="ssr:hovedgruppe" v="bebyggelse" />
		<tag k="ssr:stedsnr" v="646554" />
		<tag k="ssr:type" v="skole" />
	</node>
	<node id="-52042" lat="60.836586111" lon="11.234066668">
		<tag k="amenity" v="school" />
		<tag k="old_name" v="Skramstad skole" />
		<tag k="ssr:date" v="2016-05-10" />
		<tag k="ssr:gruppe" v="institusjoner" />
		<tag k="ssr:hovedgruppe" v="bebyggelse" />
		<tag k="ssr:stedsnr" v="345255" />
		<tag k="ssr:type" v="skole" />
	</node>
</osm>
