<?xml version="1.0" encoding="UTF-8"?>
<osm generator="osmapis" version="0.6">
	<node id="-52576" lat="60.8042111137" lon="11.1612472242">
		<tag k="name" v="Hubredgutua" />
		<tag k="ssr:date" v="2019-05-30" />
		<tag k="ssr:gruppe" v="veg" />
		<tag k="ssr:hovedgruppe" v="infrastruktur" />
		<tag k="ssr:stedsnr" v="574833" />
		<tag k="ssr:type" v="adressenavn" />
	</node>
	<node id="-52250" lat="60.7952833366" lon="11.0827222253">
		<tag k="name" v="Hedmark fylke" />
		<tag k="ssr:date" v="2016-05-10" />
		<tag k="ssr:gruppe" v="administrativeIndelinger" />
		<tag k="ssr:hovedgruppe" v="offentligAdministrasjon" />
		<tag k="ssr:stedsnr" v="88914" />
		<tag k="ssr:type" v="fylke" />
	</node>
	<node id="-52151" lat="60.8814503947" lon="11.1804117164">
		<tag k="name" v="Tyrihans" />
		<tag k="ssr:date" v="2019-05-30" />
		<tag k="ssr:gruppe" v="veg" />
		<tag k="ssr:hovedgruppe" v="infrastruktur" />
		<tag k="ssr:stedsnr" v="1007171" />
		<tag k="ssr:type" v="adressenavn" />
	</node>
	<node id="-52150" lat="60.8817841582" lon="11.1810978926">
		<tag k="name" v="Askeladden" />
		<tag k="ssr:date" v="2019-05-30" />
		<tag k="ssr:gruppe" v="veg" />
		<tag k="ssr:hovedgruppe" v="infrastruktur" />
		<tag k="ssr:stedsnr" v="1007167" />
		<tag k="ssr:type" v="adressenavn" />
	</node>
	<node id="-52149" lat="60.8153213718" lon="11.0626474477">
		<tag k="name" v="Lundgutua" />
		<tag k="ssr:date" v="2019-05-30" />
		<tag k="ssr:gruppe" v="veg" />
		<tag k="ssr:hovedgruppe" v="infrastruktur" />
		<tag k="ssr:stedsnr" v="1005501" />
		<tag k="ssr:type" v="adressenavn" />
	</node>
	<node id="-52148" lat="60.802933642" lon="11.1200765275">
		<tag k="name" v="Smørkollen" />
		<tag k="ssr:date" v="2019-05-30" />
		<tag k="ssr:gruppe" v="veg" />
		<tag k="ssr:hovedgruppe" v="infrastruktur" />
		<tag k="ssr:stedsnr" v="1002909" />
		<tag k="ssr:type" v="adressenavn" />
	</node>
	<node id="-52147" lat="60.8148875944" lon="11.0090837066">
		<tag k="name" v="Jessnesstranda" />
		<tag k="ssr:date" v="2019-05-30" />
		<tag k="ssr:gruppe" v="veg" />
		<tag k="ssr:hovedgruppe" v="infrastruktur" />
		<tag k="ssr:stedsnr" v="1002449" />
		<tag k="ssr:type" v="adressenavn" />
	</node>
	<node id="-52144" lat="60.896620437" lon="11.2059568807">
		<tag k="name" v="Multestien" />
		<tag k="ssr:date" v="2019-05-30" />
		<tag k="ssr:gruppe" v="veg" />
		<tag k="ssr:hovedgruppe" v="infrastruktur" />
		<tag k="ssr:stedsnr" v="988745" />
		<tag k="ssr:type" v="adressenavn" />
	</node>
	<node id="-52143" lat="60.8824326393" lon="11.1798779949">
		<tag k="name" v="Øvre Kirkeby" />
		<tag k="ssr:date" v="2019-05-30" />
		<tag k="ssr:gruppe" v="veg" />
		<tag k="ssr:hovedgruppe" v="infrastruktur" />
		<tag k="ssr:stedsnr" v="988742" />
		<tag k="ssr:type" v="adressenavn" />
	</node>
	<node id="-52142" lat="60.8155343754" lon="11.0635732491">
		<tag k="name" v="Veslehagan" />
		<tag k="ssr:date" v="2019-05-30" />
		<tag k="ssr:gruppe" v="veg" />
		<tag k="ssr:hovedgruppe" v="infrastruktur" />
		<tag k="ssr:stedsnr" v="988743" />
		<tag k="ssr:type" v="adressenavn" />
	</node>
	<node id="-52141" lat="60.8501433455" lon="11.0940627919">
		<tag k="name" v="Næringsparkvegen" />
		<tag k="ssr:date" v="2019-05-30" />
		<tag k="ssr:gruppe" v="veg" />
		<tag k="ssr:hovedgruppe" v="infrastruktur" />
		<tag k="ssr:stedsnr" v="988740" />
		<tag k="ssr:type" v="adressenavn" />
	</node>
	<node id="-52140" lat="60.7940504184" lon="11.1589997763">
		<tag k="name" v="Frognerhagan" />
		<tag k="ssr:date" v="2019-05-30" />
		<tag k="ssr:gruppe" v="veg" />
		<tag k="ssr:hovedgruppe" v="infrastruktur" />
		<tag k="ssr:stedsnr" v="988739" />
		<tag k="ssr:type" v="adressenavn" />
	</node>
	<node id="-52139" lat="60.8143928524" lon="11.0571925738">
		<tag k="name" v="Skisporet" />
		<tag k="ssr:date" v="2019-05-30" />
		<tag k="ssr:gruppe" v="veg" />
		<tag k="ssr:hovedgruppe" v="infrastruktur" />
		<tag k="ssr:stedsnr" v="988727" />
		<tag k="ssr:type" v="adressenavn" />
	</node>
	<node id="-52138" lat="60.8150299489" lon="11.0560566136">
		<tag k="name" v="Kaare Walbergs veg" />
		<tag k="ssr:date" v="2019-05-30" />
		<tag k="ssr:gruppe" v="veg" />
		<tag k="ssr:hovedgruppe" v="infrastruktur" />
		<tag k="ssr:stedsnr" v="988726" />
		<tag k="ssr:type" v="adressenavn" />
	</node>
	<node id="-52739" lat="60.794502778" lon="11.0783000076">
		<tag k="name" v="Hamar kommune" />
		<tag k="ssr:date" v="2016-05-11" />
		<tag k="ssr:gruppe" v="administrativeIndelinger" />
		<tag k="ssr:hovedgruppe" v="offentligAdministrasjon" />
		<tag k="ssr:stedsnr" v="753759" />
		<tag k="ssr:type" v="kommune" />
	</node>
	<node id="-52929" lat="60.5908609473" lon="9.63819281559">
		<tag k="fixme" v="multiple name tags, choose one and add the other to alt_name" />
		<tag k="name" v="Austlandet;Østlandet" />
		<tag k="ssr:date" v="2018-01-09" />
		<tag k="ssr:gruppe" v="administrativeIndelinger" />
		<tag k="ssr:hovedgruppe" v="offentligAdministrasjon" />
		<tag k="ssr:stedsnr" v="974775" />
		<tag k="ssr:type" v="annenAdministrativInndeling" />
	</node>
</osm>
