<?xml version="1.0" encoding="UTF-8"?>
<osm generator="osmapis" version="0.6">
	<node id="-57014" lat="60.7889777791" lon="11.4782055604">
		<tag k="name" v="Rokosjøen camping" />
		<tag k="ssr:stedsnr" v="967096" />
		<tag k="tourism" v="camp_site" />
	</node>
	<node id="-57013" lat="60.8534055524" lon="11.3534750006">
		<tag k="name" v="Solli" />
		<tag k="place" v="farm" />
		<tag k="ssr:stedsnr" v="959979" />
	</node>
	<node id="-57011" lat="60.8004194484" lon="11.2410944458">
		<tag k="name" v="Grindåker" />
		<tag k="place" v="farm" />
		<tag k="ssr:stedsnr" v="959951" />
	</node>
	<node id="-57010" lat="60.9951805518" lon="11.3182722157">
		<tag k="name" v="Veltkoia" />
		<tag k="place" v="isolated_dwelling" />
		<tag k="ssr:stedsnr" v="959940" />
	</node>
	<node id="-57009" lat="60.7831388859" lon="11.325041669">
		<tag k="name" v="Stenberg" />
		<tag k="place" v="isolated_dwelling" />
		<tag k="ssr:stedsnr" v="959916" />
	</node>
	<node id="-57007" lat="60.8241583349" lon="11.3074722169">
		<tag k="name" v="Åberg" />
		<tag k="place" v="farm" />
		<tag k="ssr:stedsnr" v="959909" />
	</node>
	<node id="-57006" lat="60.8217611094" lon="11.3870555614">
		<tag k="name" v="Evenstad" />
		<tag k="place" v="farm" />
		<tag k="ssr:stedsnr" v="959897" />
	</node>
	<node id="-57005" lat="60.8320333345" lon="11.3776277759">
		<tag k="name" v="Heggelund" />
		<tag k="place" v="farm" />
		<tag k="ssr:stedsnr" v="959893" />
	</node>
	<node id="-57004" lat="60.8074500024" lon="11.3724388878">
		<tag k="name" v="Engebakken" />
		<tag k="place" v="farm" />
		<tag k="ssr:stedsnr" v="959881" />
	</node>
	<node id="-57003" lat="60.8072527806" lon="11.3428611036">
		<tag k="loc_name" v="Fjell" />
		<tag k="name" v="Fjeld" />
		<tag k="place" v="farm" />
		<tag k="ssr:stedsnr" v="959871" />
	</node>
	<node id="-57002" lat="60.7407166663" lon="11.4760416588">
		<tag k="name" v="Oppegårdsstuen" />
		<tag k="place" v="farm" />
		<tag k="ssr:stedsnr" v="959758" />
	</node>
	<node id="-56996" lat="60.7267166626" lon="11.5589000066">
		<tag k="name" v="Stensåsen" />
		<tag k="place" v="farm" />
		<tag k="ssr:stedsnr" v="959588" />
	</node>
	<node id="-56995" lat="60.8563749973" lon="11.2981583423">
		<tag k="name" v="Tøråsen" />
		<tag k="place" v="farm" />
		<tag k="ssr:stedsnr" v="959579" />
	</node>
	<node id="-56994" lat="60.8018444407" lon="11.2818388969">
		<tag k="name" v="Haugset" />
		<tag k="place" v="farm" />
		<tag k="ssr:stedsnr" v="959545" />
	</node>
	<node id="-56988" lat="60.7914333295" lon="11.3045833278">
		<tag k="name" v="Østre Englaug" />
		<tag k="place" v="farm" />
		<tag k="ssr:stedsnr" v="959448" />
	</node>
	<node id="-56986" lat="60.8261972211" lon="11.3795666697">
		<tag k="name" v="Langvegg" />
		<tag k="place" v="farm" />
		<tag k="ssr:stedsnr" v="959423" />
	</node>
	<node id="-56976" lat="60.8698749977" lon="11.3018">
		<tag k="name" v="Nordre Ringnes" />
		<tag k="place" v="farm" />
		<tag k="ssr:stedsnr" v="956485" />
	</node>
	<node id="-56975" lat="60.8641750044" lon="11.3755750045">
		<tag k="name" v="Alfheim" />
		<tag k="old_name" v="Alvestad" />
		<tag k="place" v="farm" />
		<tag k="ssr:stedsnr" v="951954" />
	</node>
	<node id="-56974" lat="60.7048777805" lon="11.598322226">
		<tag k="name" v="Rotveltkoia" />
		<tag k="place" v="locality" />
		<tag k="ssr:stedsnr" v="948625" />
	</node>
	<node id="-56973" lat="60.8275250005" lon="11.3032972304">
		<tag k="fixme" v="consider place=suburb, village or hamlet" />
		<tag k="name" v="Brenneriroa" />
		<tag k="place" v="quarter" />
		<tag k="ssr:stedsnr" v="932997" />
	</node>
	<node id="-56972" lat="61.0136249993" lon="11.2688444449">
		<tag k="historic" v="shieling" />
		<tag k="name" v="Livasætra" />
		<tag k="place" v="locality" />
		<tag k="ssr:stedsnr" v="931161" />
	</node>
	<node id="-56971" lat="60.7561138878" lon="11.4510861183">
		<tag k="alt_name" v="Bjørnbekklikoia" />
		<tag k="name" v="Bjørnbekkoia" />
		<tag k="place" v="isolated_dwelling" />
		<tag k="ssr:stedsnr" v="920964" />
	</node>
	<node id="-56970" lat="60.763019446" lon="11.3666222209">
		<tag k="name" v="Hagastua" />
		<tag k="place" v="farm" />
		<tag k="ssr:stedsnr" v="920958" />
	</node>
	<node id="-56969" lat="60.7706916702" lon="11.3661388932">
		<tag k="name" v="Gammelstua" />
		<tag k="place" v="farm" />
		<tag k="ssr:stedsnr" v="920957" />
	</node>
	<node id="-56968" lat="60.771702777" lon="11.3739833279">
		<tag k="name" v="Sambu" />
		<tag k="place" v="farm" />
		<tag k="ssr:stedsnr" v="920954" />
	</node>
	<node id="-56967" lat="60.7665555546" lon="11.4630500017">
		<tag k="name" v="Kvækakoia" />
		<tag k="place" v="isolated_dwelling" />
		<tag k="ssr:stedsnr" v="920951" />
	</node>
	<node id="-56966" lat="60.7727749991" lon="11.3757166707">
		<tag k="name" v="Rønningstad" />
		<tag k="place" v="farm" />
		<tag k="ssr:stedsnr" v="920938" />
	</node>
	<node id="-56965" lat="60.7677972254" lon="11.3560472304">
		<tag k="name" v="Benningstad" />
		<tag k="place" v="farm" />
		<tag k="ssr:stedsnr" v="920934" />
	</node>
	<node id="-56964" lat="60.8774722208" lon="11.3803277853">
		<tag k="name" v="Nordberg" />
		<tag k="place" v="farm" />
		<tag k="ssr:stedsnr" v="920656" />
	</node>
	<node id="-56961" lat="60.7925666654" lon="11.2895333273">
		<tag k="name" v="Fjælgard" />
		<tag k="place" v="farm" />
		<tag k="ssr:stedsnr" v="919883" />
	</node>
	<node id="-56960" lat="60.7913499984" lon="11.3646138896">
		<tag k="name" v="Nybruket" />
		<tag k="place" v="isolated_dwelling" />
		<tag k="ssr:stedsnr" v="919874" />
	</node>
	<node id="-56958" lat="60.7995388922" lon="11.3282888965">
		<tag k="name" v="Trosthol" />
		<tag k="place" v="farm" />
		<tag k="ssr:stedsnr" v="919867" />
	</node>
	<node id="-56957" lat="60.8050972236" lon="11.2535194356">
		<tag k="name" v="Brattli" />
		<tag k="place" v="locality" />
		<tag k="ssr:stedsnr" v="919850" />
	</node>
	<node id="-56956" lat="60.8172499993" lon="11.4558583378">
		<tag k="name" v="Bondeheimen" />
		<tag k="place" v="isolated_dwelling" />
		<tag k="ssr:stedsnr" v="919799" />
	</node>
	<node id="-56954" lat="60.8538083338" lon="11.3094638841">
		<tag k="name" v="Dotterud" />
		<tag k="place" v="farm" />
		<tag k="ssr:stedsnr" v="919732" />
	</node>
	<node id="-56953" lat="60.855011107" lon="11.285463887">
		<tag k="name" v="Korsbakken" />
		<tag k="place" v="farm" />
		<tag k="ssr:stedsnr" v="919725" />
	</node>
	<node id="-56952" lat="60.8686111092" lon="11.3032361027">
		<tag k="alt_name" v="Ringnes" />
		<tag k="name" v="Søndre Ringnes" />
		<tag k="place" v="farm" />
		<tag k="ssr:stedsnr" v="919676" />
	</node>
	<node id="-56951" lat="60.8717527813" lon="11.3361277706">
		<tag k="name" v="Nordberg" />
		<tag k="place" v="farm" />
		<tag k="ssr:stedsnr" v="919672" />
	</node>
	<node id="-56948" lat="60.8732166638" lon="11.2875027782">
		<tag k="name" v="Rønningstad" />
		<tag k="place" v="farm" />
		<tag k="ssr:stedsnr" v="919653" />
	</node>
	<node id="-56947" lat="60.8796138858" lon="11.3073277787">
		<tag k="name" v="Rekstad" />
		<tag k="place" v="farm" />
		<tag k="ssr:stedsnr" v="919643" />
	</node>
	<node id="-56946" lat="60.9042194424" lon="11.4201638934">
		<tag k="name" v="Grorudkoia" />
		<tag k="place" v="isolated_dwelling" />
		<tag k="ssr:stedsnr" v="919628" />
	</node>
	<node id="-56945" lat="60.8857277817" lon="11.3726666605">
		<tag k="alt_name" v="Rom, nordre" />
		<tag k="name" v="Nordre Rom" />
		<tag k="place" v="farm" />
		<tag k="ssr:stedsnr" v="919612" />
	</node>
	<node id="-56944" lat="60.9251333327" lon="11.3037027827">
		<tag k="name" v="Gryllingsætra" />
		<tag k="place" v="hamlet" />
		<tag k="ssr:stedsnr" v="919605" />
	</node>
	<node id="-56943" lat="60.8993472251" lon="11.326086118">
		<tag k="name" v="Svestad" />
		<tag k="place" v="farm" />
		<tag k="ssr:stedsnr" v="919584" />
	</node>
	<node id="-56940" lat="60.7529833356" lon="11.5310638928">
		<tag k="name" v="Stendammen" />
		<tag k="old_name" v="Steindammen" />
		<tag k="place" v="isolated_dwelling" />
		<tag k="ssr:stedsnr" v="919410" />
	</node>
	<node id="-56939" lat="60.7589999975" lon="11.5601055554">
		<tag k="name" v="Kroken" />
		<tag k="place" v="farm" />
		<tag k="ssr:stedsnr" v="919408" />
	</node>
	<node id="-56938" lat="60.7797444444" lon="11.554324997">
		<tag k="name" v="Kroktjennkoia" />
		<tag k="place" v="isolated_dwelling" />
		<tag k="ssr:stedsnr" v="919301" />
	</node>
	<node id="-56934" lat="60.8715611136" lon="11.3772138817">
		<tag k="name" v="Anberg" />
		<tag k="place" v="farm" />
		<tag k="ssr:stedsnr" v="899998" />
	</node>
	<node id="-56933" lat="60.8838055545" lon="11.3438638902">
		<tag k="name" v="Holstua" />
		<tag k="place" v="farm" />
		<tag k="ssr:stedsnr" v="899988" />
	</node>
	<node id="-56932" lat="60.7860194434" lon="11.323613885">
		<tag k="name" v="Ålsvoll" />
		<tag k="place" v="farm" />
		<tag k="ssr:stedsnr" v="899930" />
	</node>
	<node id="-56931" lat="60.8284666671" lon="11.3132999923">
		<tag k="name" v="Løten prestegård" />
		<tag k="place" v="farm" />
		<tag k="ssr:stedsnr" v="899924" />
	</node>
	<node id="-56930" lat="60.8414249973" lon="11.3395277786">
		<tag k="name" v="Rømmabakken" />
		<tag k="place" v="farm" />
		<tag k="ssr:stedsnr" v="899913" />
	</node>
	<node id="-56929" lat="60.8376333293" lon="11.3333611184">
		<tag k="name" v="Årsrudhagen" />
		<tag k="place" v="farm" />
		<tag k="ssr:stedsnr" v="899912" />
	</node>
	<node id="-56928" lat="60.8287444482" lon="11.3736861131">
		<tag k="name" v="Nordvi" />
		<tag k="place" v="farm" />
		<tag k="ssr:stedsnr" v="899909" />
	</node>
	<node id="-56927" lat="60.820080556" lon="11.3835833359">
		<tag k="name" v="Hanstad" />
		<tag k="place" v="farm" />
		<tag k="ssr:stedsnr" v="899891" />
	</node>
	<node id="-56925" lat="60.7407666627" lon="11.505255551">
		<tag k="name" v="Fjellberg" />
		<tag k="place" v="isolated_dwelling" />
		<tag k="ssr:stedsnr" v="899777" />
	</node>
	<node id="-56920" lat="60.8328777817" lon="11.2897722145">
		<tag k="name" v="Søbakken" />
		<tag k="place" v="farm" />
		<tag k="ssr:stedsnr" v="899618" />
	</node>
	<node id="-56919" lat="60.8118277747" lon="11.29838055">
		<tag k="name" v="Rønningen" />
		<tag k="place" v="farm" />
		<tag k="ssr:stedsnr" v="899582" />
	</node>
	<node id="-56917" lat="60.8313388924" lon="11.3130305604">
		<tag k="amenity" v="school" />
		<tag k="name" v="Lund skole" />
		<tag k="ssr:stedsnr" v="899539" />
	</node>
	<node id="-56908" lat="60.7571750028" lon="11.4273388846">
		<tag k="name" v="Brennkoia" />
		<tag k="place" v="isolated_dwelling" />
		<tag k="ssr:stedsnr" v="859943" />
	</node>
	<node id="-56907" lat="60.7807305535" lon="11.3718583297">
		<tag k="name" v="Evenstad" />
		<tag k="place" v="farm" />
		<tag k="ssr:stedsnr" v="859894" />
	</node>
	<node id="-56906" lat="60.7806750026" lon="11.3648749996">
		<tag k="alt_name" v="Øvre Herdal" />
		<tag k="name" v="Herdal" />
		<tag k="place" v="farm" />
		<tag k="ssr:stedsnr" v="859891" />
	</node>
	<node id="-56905" lat="60.7777222223" lon="11.3467472274">
		<tag k="name" v="Vesle Benningstad" />
		<tag k="place" v="farm" />
		<tag k="ssr:stedsnr" v="859888" />
	</node>
	<node id="-56904" lat="60.7923361088" lon="11.2422388892">
		<tag k="name" v="Løvmo" />
		<tag k="place" v="farm" />
		<tag k="ssr:stedsnr" v="859882" />
	</node>
	<node id="-56903" lat="60.8012388907" lon="11.3614638892">
		<tag k="name" v="Midtlund" />
		<tag k="place" v="isolated_dwelling" />
		<tag k="ssr:stedsnr" v="859844" />
	</node>
	<node id="-56902" lat="60.8049777812" lon="11.2649472297">
		<tag k="alt_name" v="Søndre Torp" />
		<tag k="name" v="Torp" />
		<tag k="place" v="farm" />
		<tag k="ssr:stedsnr" v="859837" />
	</node>
	<node id="-56900" lat="60.8379805575" lon="11.3617638954">
		<tag k="alt_name" v="Vollestad" />
		<tag k="name" v="Vølestad" />
		<tag k="place" v="farm" />
		<tag k="ssr:stedsnr" v="859760" />
	</node>
	<node id="-56898" lat="60.8454583334" lon="11.3660722244">
		<tag k="name" v="Ånestad" />
		<tag k="place" v="farm" />
		<tag k="ssr:stedsnr" v="859732" />
	</node>
	<node id="-56897" lat="60.8519861117" lon="11.3396166739">
		<tag k="name" v="Røne" />
		<tag k="place" v="farm" />
		<tag k="ssr:stedsnr" v="859723" />
	</node>
	<node id="-56896" lat="60.8721694439" lon="11.3047277733">
		<tag k="name" v="Bergset" />
		<tag k="place" v="farm" />
		<tag k="ssr:stedsnr" v="859689" />
	</node>
	<node id="-56895" lat="60.864658337" lon="11.3314277788">
		<tag k="name" v="Sæter" />
		<tag k="place" v="farm" />
		<tag k="ssr:stedsnr" v="859683" />
	</node>
	<node id="-56894" lat="60.8702361116" lon="11.3453194381">
		<tag k="name" v="Riseng" />
		<tag k="place" v="farm" />
		<tag k="ssr:stedsnr" v="859675" />
	</node>
	<node id="-56893" lat="60.8890638865" lon="11.3240666636">
		<tag k="alt_name" v="Svartbekken, s" />
		<tag k="name" v="Søndre Svartbekken" />
		<tag k="place" v="farm" />
		<tag k="ssr:stedsnr" v="859620" />
	</node>
	<node id="-56892" lat="60.8864166642" lon="11.39859445">
		<tag k="name" v="Lia" />
		<tag k="place" v="farm" />
		<tag k="ssr:stedsnr" v="859607" />
	</node>
	<node id="-56891" lat="60.9020500001" lon="11.3068666594">
		<tag k="alt_name" v="Bakstad" />
		<tag k="name" v="Bakkstad" />
		<tag k="place" v="farm" />
		<tag k="ssr:stedsnr" v="859585" />
	</node>
	<node id="-56887" lat="60.9377249962" lon="11.2334444486">
		<tag k="historic" v="shieling" />
		<tag k="name" v="Østbergsætra" />
		<tag k="place" v="locality" />
		<tag k="ssr:stedsnr" v="859535" />
	</node>
	<node id="-56885" lat="60.7545250004" lon="11.5937111129">
		<tag k="name" v="Aksvollkoia" />
		<tag k="place" v="isolated_dwelling" />
		<tag k="ssr:stedsnr" v="859372" />
	</node>
	<node id="-56883" lat="60.9731999967" lon="11.2844472244">
		<tag k="alt_name" v="Ruskåsen, s;Ruskåsen" />
		<tag k="name" v="Søndre Ruskåsen" />
		<tag k="place" v="neighbourhood" />
		<tag k="ssr:stedsnr" v="859509" />
	</node>
	<node id="-56882" lat="60.7606027748" lon="11.5636777777">
		<tag k="fixme" v="multiple name tags, choose one and add the other to alt_name" />
		<tag k="name" v="Solbergsvea;Sveen" />
		<tag k="place" v="farm" />
		<tag k="ssr:stedsnr" v="859302" />
	</node>
	<node id="-56881" lat="60.7668722233" lon="11.5415416681">
		<tag k="alt_name" v="Sørberg" />
		<tag k="name" v="Søberg" />
		<tag k="place" v="farm" />
		<tag k="ssr:stedsnr" v="859299" />
	</node>
	<node id="-56880" lat="60.7429249979" lon="11.4546861108">
		<tag k="name" v="Myrvollkoia" />
		<tag k="place" v="isolated_dwelling" />
		<tag k="ssr:stedsnr" v="857758" />
	</node>
	<node id="-56878" lat="60.7488277735" lon="11.5734638828">
		<tag k="fixme" v="consider place=hamlet" />
		<tag k="name" v="Skogbygda" />
		<tag k="place" v="village" />
		<tag k="ssr:stedsnr" v="856512" />
	</node>
	<node id="-56877" lat="60.8553222262" lon="11.3263833252">
		<tag k="name" v="Lille Igulstad" />
		<tag k="place" v="isolated_dwelling" />
		<tag k="ssr:stedsnr" v="838974" />
	</node>
	<node id="-56876" lat="60.8724333351" lon="11.383858339">
		<tag k="name" v="Simenstad" />
		<tag k="place" v="farm" />
		<tag k="ssr:stedsnr" v="838968" />
	</node>
	<node id="-56875" lat="60.7844361138" lon="11.406961118">
		<tag k="name" v="Vollmo" />
		<tag k="place" v="farm" />
		<tag k="ssr:stedsnr" v="838941" />
	</node>
	<node id="-56874" lat="60.8289666659" lon="11.3203111063">
		<tag k="name" v="Holsrud" />
		<tag k="place" v="farm" />
		<tag k="ssr:stedsnr" v="838929" />
	</node>
	<node id="-56873" lat="60.8326527809" lon="11.3944000054">
		<tag k="name" v="Livenbakken" />
		<tag k="place" v="farm" />
		<tag k="ssr:stedsnr" v="838915" />
	</node>
	<node id="-56872" lat="60.8273472226" lon="11.454847229">
		<tag k="name" v="Slethellkoia" />
		<tag k="place" v="locality" />
		<tag k="ssr:stedsnr" v="838890" />
	</node>
	<node id="-56871" lat="60.8320861085" lon="11.3909166627">
		<tag k="name" v="Østre Liven" />
		<tag k="place" v="farm" />
		<tag k="ssr:stedsnr" v="838882" />
	</node>
	<node id="-56870" lat="60.7396527733" lon="11.4801611185">
		<tag k="name" v="Tofastrud" />
		<tag k="place" v="farm" />
		<tag k="ssr:stedsnr" v="838789" />
	</node>
	<node id="-56868" lat="60.825736107" lon="11.2642805569">
		<tag k="name" v="Vestli" />
		<tag k="place" v="farm" />
		<tag k="ssr:stedsnr" v="838635" />
	</node>
	<node id="-56867" lat="60.8139805526" lon="11.3795249907">
		<tag k="name" v="Dyristua" />
		<tag k="place" v="farm" />
		<tag k="ssr:stedsnr" v="838632" />
	</node>
	<node id="-56866" lat="60.7549916684" lon="11.4128388824">
		<tag k="name" v="Firkantkoia" />
		<tag k="place" v="farm" />
		<tag k="ssr:stedsnr" v="838629" />
	</node>
	<node id="-56865" lat="60.8215888879" lon="11.3515055608">
		<tag k="amenity" v="nursing_home" />
		<tag k="name" v="Løten helsetun" />
		<tag k="ssr:stedsnr" v="838561" />
	</node>
	<node id="-56860" lat="60.806177778" lon="11.3318222206">
		<tag k="name" v="Lille østre Finnstad" />
		<tag k="place" v="farm" />
		<tag k="ssr:stedsnr" v="838500" />
	</node>
	<node id="-56859" lat="60.8263805528" lon="11.3113472138">
		<tag k="name" v="Kirkenær" />
		<tag k="place" v="farm" />
		<tag k="ssr:stedsnr" v="838491" />
	</node>
	<node id="-56857" lat="60.8151111149" lon="11.3433972295">
		<tag k="name" v="Bergum F" />
		<tag k="place" v="quarter" />
		<tag k="ssr:stedsnr" v="838420" />
	</node>
	<node id="-56853" lat="60.8703250001" lon="11.3607999969">
		<tag k="name" v="Lindbo" />
		<tag k="place" v="isolated_dwelling" />
		<tag k="ssr:stedsnr" v="838293" />
	</node>
	<node id="-56852" lat="60.7456638851" lon="11.6073833361">
		<tag k="name" v="Finnsvedalskoia" />
		<tag k="place" v="isolated_dwelling" />
		<tag k="ssr:stedsnr" v="837946" />
	</node>
	<node id="-56847" lat="60.8713750045" lon="11.3112111098">
		<tag k="fixme" v="consider place=hamlet" />
		<tag k="name" v="Alfei" />
		<tag k="place" v="farm" />
		<tag k="ssr:stedsnr" v="830901" />
	</node>
	<node id="-56845" lat="60.7887194432" lon="11.4780555473">
		<tag k="name" v="Oset" />
		<tag k="place" v="farm" />
		<tag k="ssr:stedsnr" v="814003" />
	</node>
	<node id="-56843" lat="60.8491777797" lon="11.3671388859">
		<tag k="name" v="Myklegard" />
		<tag k="ssr:stedsnr" v="809223" />
		<tag k="tourism" v="hotel" />
	</node>
	<node id="-56842" lat="60.7646083361" lon="11.3697861113">
		<tag k="name" v="Hagen" />
		<tag k="place" v="farm" />
		<tag k="ssr:stedsnr" v="798943" />
	</node>
	<node id="-56841" lat="60.7734722263" lon="11.3657944383">
		<tag k="name" v="Nystua" />
		<tag k="place" v="farm" />
		<tag k="ssr:stedsnr" v="798904" />
	</node>
	<node id="-56840" lat="60.8204638898" lon="11.2664444465">
		<tag k="name" v="Balke" />
		<tag k="place" v="farm" />
		<tag k="ssr:stedsnr" v="798773" />
	</node>
	<node id="-56839" lat="60.8328888908" lon="11.3442944488">
		<tag k="alt_name" v="Karud, s" />
		<tag k="name" v="Søndre Karud" />
		<tag k="place" v="farm" />
		<tag k="ssr:stedsnr" v="798751" />
	</node>
	<node id="-56838" lat="60.8384750025" lon="11.2885722262">
		<tag k="name" v="Gjærlu" />
		<tag k="place" v="farm" />
		<tag k="ssr:stedsnr" v="798733" />
	</node>
	<node id="-56837" lat="60.8451972251" lon="11.3171972138">
		<tag k="name" v="Spangen" />
		<tag k="place" v="farm" />
		<tag k="ssr:stedsnr" v="798732" />
	</node>
	<node id="-56836" lat="60.8518944483" lon="11.3662888942">
		<tag k="name" v="Frønset" />
		<tag k="place" v="farm" />
		<tag k="ssr:stedsnr" v="798718" />
	</node>
	<node id="-56835" lat="60.8577333305" lon="11.3622472243">
		<tag k="name" v="Kjøs" />
		<tag k="place" v="farm" />
		<tag k="ssr:stedsnr" v="798693" />
	</node>
	<node id="-56834" lat="60.8635277757" lon="11.299427771">
		<tag k="name" v="Tomte" />
		<tag k="place" v="farm" />
		<tag k="ssr:stedsnr" v="798669" />
	</node>
	<node id="-56833" lat="60.865480554" lon="11.2935638918">
		<tag k="alt_name" v="Hole" />
		<tag k="name" v="Hola" />
		<tag k="place" v="farm" />
		<tag k="ssr:stedsnr" v="798668" />
	</node>
	<node id="-56832" lat="60.8673027821" lon="11.3738416618">
		<tag k="alt_name" v="Indby" />
		<tag k="name" v="Innby" />
		<tag k="place" v="farm" />
		<tag k="ssr:stedsnr" v="798659" />
	</node>
	<node id="-56830" lat="60.8743277776" lon="11.3305111036">
		<tag k="name" v="Enge" />
		<tag k="place" v="isolated_dwelling" />
		<tag k="ssr:stedsnr" v="798646" />
	</node>
	<node id="-56828" lat="60.8797777747" lon="11.3672666589">
		<tag k="name" v="Rød" />
		<tag k="place" v="farm" />
		<tag k="ssr:stedsnr" v="798632" />
	</node>
	<node id="-56827" lat="60.9037361121" lon="11.3944194412">
		<tag k="name" v="Domkjørkja" />
		<tag k="place" v="isolated_dwelling" />
		<tag k="ssr:stedsnr" v="798620" />
	</node>
	<node id="-56825" lat="60.8964916652" lon="11.3739083255">
		<tag k="alt_name" v="Li" />
		<tag k="name" v="Granlia" />
		<tag k="place" v="farm" />
		<tag k="ssr:stedsnr" v="798612" />
	</node>
	<node id="-56824" lat="60.7764111096" lon="11.3384777731">
		<tag k="name" v="Volla" />
		<tag k="place" v="farm" />
		<tag k="ssr:stedsnr" v="798900" />
	</node>
	<node id="-56823" lat="60.7813611071" lon="11.3924638825">
		<tag k="name" v="Åtjernsholen" />
		<tag k="place" v="farm" />
		<tag k="ssr:stedsnr" v="798882" />
	</node>
	<node id="-56822" lat="60.7980500016" lon="11.4482833312">
		<tag k="name" v="Høgvoll" />
		<tag k="place" v="farm" />
		<tag k="ssr:stedsnr" v="798860" />
	</node>
	<node id="-56821" lat="60.7983527754" lon="11.4106777834">
		<tag k="name" v="Jordbrua" />
		<tag k="place" v="farm" />
		<tag k="ssr:stedsnr" v="798856" />
	</node>
	<node id="-56820" lat="60.7933972259" lon="11.3440888815">
		<tag k="name" v="Klæpa" />
		<tag k="place" v="farm" />
		<tag k="ssr:stedsnr" v="798850" />
	</node>
	<node id="-56819" lat="60.8066277737" lon="11.4105666611">
		<tag k="name" v="Skårholen" />
		<tag k="place" v="farm" />
		<tag k="ssr:stedsnr" v="798846" />
	</node>
	<node id="-56818" lat="60.8056611094" lon="11.3014333326">
		<tag k="name" v="Besseby" />
		<tag k="place" v="farm" />
		<tag k="ssr:stedsnr" v="798835" />
	</node>
	<node id="-56817" lat="60.8132888888" lon="11.2652388939">
		<tag k="fixme" v="multiple name tags, choose one and add the other to alt_name" />
		<tag k="name" v="Høingstad;Nedre Høingstad" />
		<tag k="place" v="farm" />
		<tag k="ssr:stedsnr" v="798804" />
	</node>
	<node id="-56816" lat="60.7580333375" lon="11.5701805637">
		<tag k="name" v="Karlstad" />
		<tag k="place" v="farm" />
		<tag k="ssr:stedsnr" v="798378" />
	</node>
	<node id="-56813" lat="60.8069888865" lon="11.4907777773">
		<tag k="name" v="Gardsmyrkoia" />
		<tag k="place" v="isolated_dwelling" />
		<tag k="ssr:stedsnr" v="798239" />
	</node>
	<node id="-56812" lat="60.7386027812" lon="11.4810888835">
		<tag k="alt_name" v="Nordre Øie" />
		<tag k="name" v="Øye" />
		<tag k="place" v="farm" />
		<tag k="ssr:stedsnr" v="796454" />
	</node>
	<node id="-56811" lat="61.0256444469" lon="11.2625250056">
		<tag k="name" v="Gitvola" />
		<tag k="place" v="hamlet" />
		<tag k="ssr:stedsnr" v="796293" />
	</node>
	<node id="-56810" lat="60.7250583352" lon="11.5878472255">
		<tag k="name" v="Synnersvekoia" />
		<tag k="place" v="isolated_dwelling" />
		<tag k="ssr:stedsnr" v="796275" />
	</node>
	<node id="-56808" lat="60.7438444452" lon="11.5610249954">
		<tag k="name" v="Tingstadkoia" />
		<tag k="place" v="isolated_dwelling" />
		<tag k="ssr:stedsnr" v="795505" />
	</node>
	<node id="-56807" lat="60.8828638899" lon="11.3720305468">
		<tag k="alt_name" v="Rom, s" />
		<tag k="name" v="Søndre Rom" />
		<tag k="place" v="farm" />
		<tag k="ssr:stedsnr" v="798594" />
	</node>
	<node id="-56806" lat="60.8889611094" lon="11.3154694427">
		<tag k="name" v="Kvernhuslykkja" />
		<tag k="place" v="farm" />
		<tag k="ssr:stedsnr" v="798590" />
	</node>
	<node id="-56803" lat="60.902441668" lon="11.297675006">
		<tag k="name" v="Mattisrud" />
		<tag k="place" v="farm" />
		<tag k="ssr:stedsnr" v="798566" />
	</node>
	<node id="-56801" lat="60.8808055591" lon="11.3257888976">
		<tag k="name" v="Nordenga" />
		<tag k="place" v="farm" />
		<tag k="ssr:stedsnr" v="777986" />
	</node>
	<node id="-56800" lat="60.8755333334" lon="11.3159333409">
		<tag k="name" v="Mellum" />
		<tag k="place" v="farm" />
		<tag k="ssr:stedsnr" v="777985" />
	</node>
	<node id="-56799" lat="60.8646111153" lon="11.3070194461">
		<tag k="name" v="Hjelsengen" />
		<tag k="place" v="farm" />
		<tag k="ssr:stedsnr" v="777966" />
	</node>
	<node id="-56798" lat="60.7830249998" lon="11.4140083285">
		<tag k="name" v="Hjemlikoia" />
		<tag k="place" v="isolated_dwelling" />
		<tag k="ssr:stedsnr" v="777925" />
	</node>
	<node id="-56797" lat="60.7946888886" lon="11.3524361162">
		<tag k="name" v="Solbakken" />
		<tag k="place" v="isolated_dwelling" />
		<tag k="ssr:stedsnr" v="777909" />
	</node>
	<node id="-56796" lat="60.8359083375" lon="11.35851944">
		<tag k="name" v="Gårder" />
		<tag k="place" v="farm" />
		<tag k="ssr:stedsnr" v="777906" />
	</node>
	<node id="-56795" lat="60.8209138883" lon="11.3080111043">
		<tag k="name" v="Aldershvile" />
		<tag k="place" v="farm" />
		<tag k="ssr:stedsnr" v="777894" />
	</node>
	<node id="-56794" lat="60.8577777795" lon="11.2921999916">
		<tag k="name" v="Østre Kvinkholen" />
		<tag k="place" v="farm" />
		<tag k="ssr:stedsnr" v="777835" />
	</node>
	<node id="-56793" lat="60.74097778" lon="11.4944472168">
		<tag k="name" v="Oppegård" />
		<tag k="place" v="farm" />
		<tag k="ssr:stedsnr" v="777758" />
	</node>
	<node id="-56792" lat="60.7730083356" lon="11.4844111035">
		<tag k="name" v="Bjørnstad" />
		<tag k="place" v="farm" />
		<tag k="ssr:stedsnr" v="777751" />
	</node>
	<node id="-56788" lat="60.775763892" lon="11.3405972219">
		<tag k="name" v="Hagelykkja" />
		<tag k="place" v="farm" />
		<tag k="ssr:stedsnr" v="777622" />
	</node>
	<node id="-56787" lat="60.8376111132" lon="11.2775611123">
		<tag k="name" v="Skogby" />
		<tag k="place" v="farm" />
		<tag k="ssr:stedsnr" v="777613" />
	</node>
	<node id="-56786" lat="60.853650003" lon="11.2877416596">
		<tag k="name" v="Moen" />
		<tag k="place" v="farm" />
		<tag k="ssr:stedsnr" v="777586" />
	</node>
	<node id="-56785" lat="60.8092472195" lon="11.297111111">
		<tag k="name" v="Bakmoen" />
		<tag k="place" v="farm" />
		<tag k="ssr:stedsnr" v="777569" />
	</node>
	<node id="-56779" lat="60.8041583347" lon="11.2735250082">
		<tag k="name" v="Nymoen" />
		<tag k="place" v="farm" />
		<tag k="ssr:stedsnr" v="777482" />
	</node>
	<node id="-56778" lat="60.8152138934" lon="11.416194442">
		<tag k="fixme" v="consider tourism=alpine_hut or tourism=chalet" />
		<tag k="name" v="Hølmyrkoia" />
		<tag k="ssr:stedsnr" v="777481" />
		<tag k="tourism" v="wilderness_hut" />
	</node>
	<node id="-56777" lat="60.8114527776" lon="11.3346888832">
		<tag k="name" v="Øvre Hommerstad" />
		<tag k="place" v="farm" />
		<tag k="ssr:stedsnr" v="777470" />
	</node>
	<node id="-56773" lat="60.8296888882" lon="11.3227166748">
		<tag k="name" v="Skrinhagan" />
		<tag k="place" v="quarter" />
		<tag k="ssr:stedsnr" v="777380" />
	</node>
	<node id="-56772" lat="60.7353027814" lon="11.4981333289">
		<tag k="name" v="Lømo" />
		<tag k="place" v="farm" />
		<tag k="ssr:stedsnr" v="777280" />
	</node>
	<node id="-56771" lat="60.8594472217" lon="11.2875500048">
		<tag k="name" v="Tomsrønningen" />
		<tag k="place" v="farm" />
		<tag k="ssr:stedsnr" v="777254" />
	</node>
	<node id="-56770" lat="60.8559333293" lon="11.3107027824">
		<tag k="name" v="Hovinhagen" />
		<tag k="place" v="farm" />
		<tag k="ssr:stedsnr" v="776987" />
	</node>
	<node id="-56769" lat="60.8529472197" lon="11.3491861112">
		<tag k="name" v="Norrøne" />
		<tag k="place" v="farm" />
		<tag k="ssr:stedsnr" v="776977" />
	</node>
	<node id="-56768" lat="60.9186444474" lon="11.4335666591">
		<tag k="name" v="Jugerud" />
		<tag k="place" v="isolated_dwelling" />
		<tag k="ssr:stedsnr" v="776955" />
	</node>
	<node id="-56767" lat="60.9519750003" lon="11.3775250056">
		<tag k="name" v="Kjeldstadkoia" />
		<tag k="place" v="isolated_dwelling" />
		<tag k="ssr:stedsnr" v="776948" />
	</node>
	<node id="-56766" lat="60.8056888915" lon="11.2971333355">
		<tag k="name" v="Vestby" />
		<tag k="place" v="farm" />
		<tag k="ssr:stedsnr" v="776941" />
	</node>
	<node id="-56763" lat="60.9489444454" lon="11.2763361188">
		<tag k="name" v="Svaenlia" />
		<tag k="place" v="neighbourhood" />
		<tag k="ssr:stedsnr" v="776712" />
	</node>
	<node id="-56758" lat="60.8860342036" lon="11.358226757">
		<tag k="fixme" v="multiple name tags, choose one and add the other to alt_name" />
		<tag k="name" v="Nyberg;Nyborg" />
		<tag k="place" v="farm" />
		<tag k="ssr:stedsnr" v="769614" />
	</node>
	<node id="-56756" lat="60.870111115" lon="11.3723722206">
		<tag k="fixme" v="consider place=suburb, village or hamlet" />
		<tag k="name" v="Jønsrud" />
		<tag k="place" v="quarter" />
		<tag k="ssr:stedsnr" v="753014" />
	</node>
	<node id="-56755" lat="60.8090611113" lon="11.3456583295">
		<tag k="name" v="Bergum" />
		<tag k="place" v="quarter" />
		<tag k="ssr:stedsnr" v="750993" />
	</node>
	<node id="-56753" lat="60.7975583338" lon="11.2457472148">
		<tag k="name" v="Bergli" />
		<tag k="place" v="farm" />
		<tag k="ssr:stedsnr" v="737887" />
	</node>
	<node id="-56752" lat="60.7945666688" lon="11.3756388971">
		<tag k="name" v="Ringvoll" />
		<tag k="place" v="farm" />
		<tag k="ssr:stedsnr" v="737886" />
	</node>
	<node id="-56751" lat="60.8031722253" lon="11.3921777773">
		<tag k="alt_name" v="Bekkenga, nordre" />
		<tag k="name" v="Nordre Bekkenga" />
		<tag k="place" v="farm" />
		<tag k="ssr:stedsnr" v="737873" />
	</node>
	<node id="-56750" lat="60.8029861152" lon="11.3866694438">
		<tag k="name" v="Vea" />
		<tag k="place" v="farm" />
		<tag k="ssr:stedsnr" v="737871" />
	</node>
	<node id="-56749" lat="60.8021611139" lon="11.3805944491">
		<tag k="name" v="Ingstad" />
		<tag k="place" v="farm" />
		<tag k="ssr:stedsnr" v="737863" />
	</node>
	<node id="-56748" lat="60.8058842097" lon="11.3296773851">
		<tag k="fixme" v="consider place=hamlet" />
		<tag k="name" v="Finstad" />
		<tag k="place" v="farm" />
		<tag k="ssr:stedsnr" v="737860" />
	</node>
	<node id="-56746" lat="60.8172611105" lon="11.297374994">
		<tag k="name" v="Fuglset" />
		<tag k="place" v="farm" />
		<tag k="ssr:stedsnr" v="737844" />
	</node>
	<node id="-56745" lat="60.8098222201" lon="11.3330277812">
		<tag k="alt_name" v="Nedre Hommerstad" />
		<tag k="name" v="Hommerstad" />
		<tag k="place" v="farm" />
		<tag k="ssr:stedsnr" v="737843" />
	</node>
	<node id="-56744" lat="60.8190833339" lon="11.3800500076">
		<tag k="name" v="Bjørklund" />
		<tag k="place" v="farm" />
		<tag k="ssr:stedsnr" v="737827" />
	</node>
	<node id="-56741" lat="60.8333472225" lon="11.2715527733">
		<tag k="name" v="Nordaker" />
		<tag k="place" v="farm" />
		<tag k="ssr:stedsnr" v="737796" />
	</node>
	<node id="-56740" lat="60.8442999976" lon="11.3783750046">
		<tag k="name" v="Stabberud" />
		<tag k="place" v="farm" />
		<tag k="ssr:stedsnr" v="737774" />
	</node>
	<node id="-56739" lat="60.8413277804" lon="11.2877833369">
		<tag k="alt_name" v="Vestre Lund" />
		<tag k="name" v="Lund" />
		<tag k="place" v="farm" />
		<tag k="ssr:stedsnr" v="737769" />
	</node>
	<node id="-56738" lat="60.8449999986" lon="11.436080548">
		<tag k="name" v="Trollheimen" />
		<tag k="place" v="isolated_dwelling" />
		<tag k="ssr:stedsnr" v="737751" />
	</node>
	<node id="-56737" lat="60.8466833344" lon="11.3375527843">
		<tag k="name" v="Brannvoll" />
		<tag k="place" v="farm" />
		<tag k="ssr:stedsnr" v="737749" />
	</node>
	<node id="-56736" lat="60.8594027778" lon="11.3376000082">
		<tag k="name" v="Trætteberg" />
		<tag k="place" v="farm" />
		<tag k="ssr:stedsnr" v="737727" />
	</node>
	<node id="-56735" lat="60.8553638846" lon="11.4583027712">
		<tag k="name" v="Smalmyrkoia" />
		<tag k="place" v="locality" />
		<tag k="ssr:stedsnr" v="737721" />
	</node>
	<node id="-56734" lat="60.8715194472" lon="11.2838277709">
		<tag k="name" v="Graner" />
		<tag k="place" v="farm" />
		<tag k="ssr:stedsnr" v="737688" />
	</node>
	<node id="-56733" lat="60.8646194423" lon="11.4210333328">
		<tag k="name" v="Ebru" />
		<tag k="place" v="farm" />
		<tag k="ssr:stedsnr" v="737676" />
	</node>
	<node id="-56732" lat="60.911097226" lon="11.3951944529">
		<tag k="name" v="Kapellet" />
		<tag k="place" v="isolated_dwelling" />
		<tag k="ssr:stedsnr" v="737593" />
	</node>
	<node id="-56729" lat="60.9821416684" lon="11.27616112">
		<tag k="alt_name" v="Ruskåsen, nordre" />
		<tag k="name" v="Nordre Ruskåsen" />
		<tag k="place" v="neighbourhood" />
		<tag k="ssr:stedsnr" v="737522" />
	</node>
	<node id="-56728" lat="60.9852833327" lon="11.2906027793">
		<tag k="name" v="Størigarden" />
		<tag k="place" v="neighbourhood" />
		<tag k="ssr:stedsnr" v="737517" />
	</node>
	<node id="-56724" lat="60.9203861096" lon="11.4042138973">
		<tag k="name" v="Narsætra" />
		<tag k="place" v="hamlet" />
		<tag k="ssr:stedsnr" v="737618" />
	</node>
	<node id="-56723" lat="60.908580551" lon="11.265063894">
		<tag k="name" v="Elvarheim" />
		<tag k="place" v="isolated_dwelling" />
		<tag k="ssr:stedsnr" v="737604" />
	</node>
	<node id="-56722" lat="60.735497219" lon="11.5181111089">
		<tag k="alt_name" v="Hagenstuen" />
		<tag k="name" v="Hagastua" />
		<tag k="place" v="farm" />
		<tag k="ssr:stedsnr" v="735454" />
	</node>
	<node id="-56721" lat="60.7256194426" lon="11.491936112">
		<tag k="name" v="Sørsveen" />
		<tag k="place" v="farm" />
		<tag k="ssr:stedsnr" v="735313" />
	</node>
	<node id="-56718" lat="60.7968666661" lon="11.2447444376">
		<tag k="name" v="Åsheim" />
		<tag k="place" v="farm" />
		<tag k="ssr:stedsnr" v="716953" />
	</node>
	<node id="-56717" lat="60.8344888862" lon="11.3652583369">
		<tag k="name" v="Søplet" />
		<tag k="place" v="farm" />
		<tag k="ssr:stedsnr" v="716914" />
	</node>
	<node id="-56716" lat="60.8145388926" lon="11.3581611144">
		<tag k="name" v="Engesletten" />
		<tag k="place" v="farm" />
		<tag k="ssr:stedsnr" v="716889" />
	</node>
	<node id="-56715" lat="60.8233611131" lon="11.4370083413">
		<tag k="name" v="Mosjøkoia" />
		<tag k="place" v="locality" />
		<tag k="ssr:stedsnr" v="716856" />
	</node>
	<node id="-56714" lat="60.7603833329" lon="11.3356944356">
		<tag k="loc_name" v="Nybakk" />
		<tag k="name" v="Nybak" />
		<tag k="place" v="farm" />
		<tag k="ssr:stedsnr" v="716786" />
	</node>
	<node id="-56708" lat="60.8777083297" lon="11.2965222258">
		<tag k="name" v="Mykirønningen" />
		<tag k="place" v="farm" />
		<tag k="ssr:stedsnr" v="716609" />
	</node>
	<node id="-56707" lat="60.8684499974" lon="11.3611416643">
		<tag k="name" v="Sandås" />
		<tag k="place" v="isolated_dwelling" />
		<tag k="ssr:stedsnr" v="716482" />
	</node>
	<node id="-56706" lat="60.8222111112" lon="11.3406055555">
		<tag k="name" v="Elvebakken" />
		<tag k="place" v="quarter" />
		<tag k="ssr:stedsnr" v="716478" />
	</node>
	<node id="-56699" lat="60.7557472264" lon="11.564488893">
		<tag k="amenity" v="school" />
		<tag k="name" v="Solbakken" />
		<tag k="ssr:stedsnr" v="716318" />
	</node>
	<node id="-56698" lat="60.8621361122" lon="11.3682805602">
		<tag k="name" v="Haraldsrud" />
		<tag k="old_name" v="Haraldstad" />
		<tag k="place" v="farm" />
		<tag k="ssr:stedsnr" v="716311" />
	</node>
	<node id="-56693" lat="60.8696916703" lon="11.3088222242">
		<tag k="name" v="Søndre Alfei" />
		<tag k="place" v="isolated_dwelling" />
		<tag k="ssr:stedsnr" v="713437" />
	</node>
	<node id="-56692" lat="60.7870249986" lon="11.3490249914">
		<tag k="amenity" v="kindergarten" />
		<tag k="name" v="Bruvoll barnehage" />
		<tag k="ssr:stedsnr" v="677913" />
	</node>
	<node id="-56689" lat="60.8015888871" lon="11.4254805477">
		<tag k="name" v="Skogsrud" />
		<tag k="place" v="farm" />
		<tag k="ssr:stedsnr" v="677881" />
	</node>
	<node id="-56688" lat="60.8024638927" lon="11.241274998">
		<tag k="name" v="Volla" />
		<tag k="place" v="farm" />
		<tag k="ssr:stedsnr" v="677857" />
	</node>
	<node id="-56687" lat="60.8369000014" lon="11.4392027762">
		<tag k="name" v="Arnstadkoia" />
		<tag k="place" v="locality" />
		<tag k="ssr:stedsnr" v="677798" />
	</node>
	<node id="-56686" lat="60.8413833362" lon="11.381708334">
		<tag k="name" v="Butterud" />
		<tag k="place" v="farm" />
		<tag k="ssr:stedsnr" v="677791" />
	</node>
	<node id="-56685" lat="60.8834888849" lon="11.4220583284">
		<tag k="historic" v="shieling" />
		<tag k="name" v="Nysætra" />
		<tag k="place" v="locality" />
		<tag k="ssr:stedsnr" v="677675" />
	</node>
	<node id="-56684" lat="60.8890055514" lon="11.4010194522">
		<tag k="name" v="Libakk" />
		<tag k="place" v="farm" />
		<tag k="ssr:stedsnr" v="677672" />
	</node>
	<node id="-56683" lat="60.8801777818" lon="11.3556861076">
		<tag k="name" v="Kavlediket" />
		<tag k="place" v="farm" />
		<tag k="ssr:stedsnr" v="677658" />
	</node>
	<node id="-56680" lat="60.9695444488" lon="11.3045666666">
		<tag k="alt_name" v="Vesleødegardsholtet" />
		<tag k="historic" v="shieling" />
		<tag k="name" v="Veslegardsholtet" />
		<tag k="place" v="locality" />
		<tag k="ssr:stedsnr" v="677585" />
	</node>
	<node id="-56679" lat="60.9496694472" lon="11.3532888927">
		<tag k="historic" v="shieling" />
		<tag k="name" v="Storholtet" />
		<tag k="place" v="locality" />
		<tag k="ssr:stedsnr" v="677554" />
	</node>
	<node id="-56677" lat="60.8854861141" lon="11.3422750053">
		<tag k="alt_name" v="Holen, nordre" />
		<tag k="name" v="Nordre Holen" />
		<tag k="place" v="farm" />
		<tag k="ssr:stedsnr" v="677629" />
	</node>
	<node id="-56676" lat="60.8241527797" lon="11.3979972222">
		<tag k="name" v="Gauksletta" />
		<tag k="place" v="farm" />
		<tag k="ssr:stedsnr" v="676814" />
	</node>
	<node id="-56675" lat="60.8609222246" lon="11.3084111092">
		<tag k="name" v="Årsrud" />
		<tag k="place" v="farm" />
		<tag k="ssr:stedsnr" v="676735" />
	</node>
	<node id="-56674" lat="60.8682388901" lon="11.3289222135">
		<tag k="name" v="Grylling" />
		<tag k="place" v="farm" />
		<tag k="ssr:stedsnr" v="676691" />
	</node>
	<node id="-56673" lat="60.8646611138" lon="11.461780558">
		<tag k="name" v="Bjørnbekkoia" />
		<tag k="place" v="isolated_dwelling" />
		<tag k="ssr:stedsnr" v="676684" />
	</node>
	<node id="-56672" lat="60.8927694421" lon="11.3655194428">
		<tag k="name" v="Løvlia" />
		<tag k="place" v="farm" />
		<tag k="ssr:stedsnr" v="676638" />
	</node>
	<node id="-56671" lat="60.9163888895" lon="11.3306694537">
		<tag k="name" v="Djupdalskoia" />
		<tag k="place" v="isolated_dwelling" />
		<tag k="ssr:stedsnr" v="676595" />
	</node>
	<node id="-56666" lat="60.7483472207" lon="11.5694805517">
		<tag k="name" v="Midtli" />
		<tag k="place" v="farm" />
		<tag k="ssr:stedsnr" v="674429" />
	</node>
	<node id="-56662" lat="60.8619444411" lon="11.35561388">
		<tag k="name" v="Frogner" />
		<tag k="place" v="farm" />
		<tag k="ssr:stedsnr" v="655977" />
	</node>
	<node id="-56661" lat="60.6940833326" lon="11.6191499995">
		<tag k="name" v="Søndre Bendikkoia" />
		<tag k="place" v="isolated_dwelling" />
		<tag k="ssr:stedsnr" v="655969" />
	</node>
	<node id="-56659" lat="60.8896027765" lon="11.4384666691">
		<tag k="name" v="Grasbakkmyrkoia" />
		<tag k="place" v="locality" />
		<tag k="ssr:stedsnr" v="655950" />
	</node>
	<node id="-56658" lat="60.984161114" lon="11.3342805634">
		<tag k="name" v="Nordhuekoia" />
		<tag k="place" v="isolated_dwelling" />
		<tag k="ssr:stedsnr" v="655948" />
	</node>
	<node id="-56657" lat="60.7794916705" lon="11.3307666732">
		<tag k="name" v="Ekeberg" />
		<tag k="place" v="farm" />
		<tag k="ssr:stedsnr" v="655921" />
	</node>
	<node id="-56656" lat="60.8208527757" lon="11.3637555612">
		<tag k="name" v="Tangneshagen" />
		<tag k="place" v="farm" />
		<tag k="ssr:stedsnr" v="655889" />
	</node>
	<node id="-56655" lat="60.8133083299" lon="11.3364999984">
		<tag k="name" v="Breidablikk" />
		<tag k="place" v="farm" />
		<tag k="ssr:stedsnr" v="655870" />
	</node>
	<node id="-56654" lat="60.8079000043" lon="11.3133055503">
		<tag k="name" v="Finnstadødegården" />
		<tag k="place" v="farm" />
		<tag k="ssr:stedsnr" v="655864" />
	</node>
	<node id="-56653" lat="60.9081111139" lon="11.2806916745">
		<tag k="name" v="Norbykoia" />
		<tag k="place" v="isolated_dwelling" />
		<tag k="ssr:stedsnr" v="655789" />
	</node>
	<node id="-56652" lat="60.7315500011" lon="11.5519944517">
		<tag k="name" v="Borrekoia" />
		<tag k="place" v="isolated_dwelling" />
		<tag k="ssr:stedsnr" v="655762" />
	</node>
	<node id="-56651" lat="60.7162611071" lon="11.5253500051">
		<tag k="name" v="Nysvekoia" />
		<tag k="place" v="isolated_dwelling" />
		<tag k="ssr:stedsnr" v="655758" />
	</node>
	<node id="-56650" lat="60.7699444414" lon="11.4834194353">
		<tag k="name" v="Rokostuen" />
		<tag k="place" v="farm" />
		<tag k="ssr:stedsnr" v="655750" />
	</node>
	<node id="-56649" lat="60.7735361107" lon="11.472825003">
		<tag k="name" v="Prestløkken" />
		<tag k="place" v="farm" />
		<tag k="ssr:stedsnr" v="655748" />
	</node>
	<node id="-56640" lat="60.8272083315" lon="11.2808138822">
		<tag k="name" v="Østberg" />
		<tag k="place" v="farm" />
		<tag k="ssr:stedsnr" v="655571" />
	</node>
	<node id="-56639" lat="60.8238972258" lon="11.2869416737">
		<tag k="name" v="Kjeverud" />
		<tag k="place" v="farm" />
		<tag k="ssr:stedsnr" v="655562" />
	</node>
	<node id="-56636" lat="60.8230722216" lon="11.3524416688">
		<tag k="amenity" v="school" />
		<tag k="name" v="Østvang skole" />
		<tag k="ssr:stedsnr" v="655455" />
	</node>
	<node id="-56631" lat="60.8946222263" lon="11.3698972245">
		<tag k="name" v="Østre Løvlia" />
		<tag k="place" v="farm" />
		<tag k="ssr:stedsnr" v="655284" />
	</node>
	<node id="-56630" lat="60.7715722243" lon="11.4736277845">
		<tag k="name" v="Høyby" />
		<tag k="old_name" v="Høiby" />
		<tag k="place" v="farm" />
		<tag k="ssr:stedsnr" v="628858" />
	</node>
	<node id="-56629" lat="60.9749416691" lon="11.34831944">
		<tag k="name" v="Kjølstadkoia" />
		<tag k="place" v="isolated_dwelling" />
		<tag k="ssr:stedsnr" v="627233" />
	</node>
	<node id="-56628" lat="60.7912777755" lon="11.2441861127">
		<tag k="name" v="Sønstevoll" />
		<tag k="place" v="farm" />
		<tag k="ssr:stedsnr" v="616925" />
	</node>
	<node id="-56627" lat="60.794455557" lon="11.2443722299">
		<tag k="alt_name" v="Sleteng" />
		<tag k="name" v="Sletteng" />
		<tag k="place" v="farm" />
		<tag k="ssr:stedsnr" v="616912" />
	</node>
	<node id="-56626" lat="60.798152782" lon="11.301794438">
		<tag k="name" v="Løken" />
		<tag k="place" v="farm" />
		<tag k="ssr:stedsnr" v="616894" />
	</node>
	<node id="-56625" lat="60.836400004" lon="11.3887722258">
		<tag k="alt_name" v="Roset;Roset, nordre" />
		<tag k="name" v="Nordre Roset" />
		<tag k="place" v="farm" />
		<tag k="ssr:stedsnr" v="616797" />
	</node>
	<node id="-56624" lat="60.8455444437" lon="11.2964777746">
		<tag k="name" v="Morthov" />
		<tag k="place" v="farm" />
		<tag k="ssr:stedsnr" v="616787" />
	</node>
	<node id="-56623" lat="60.8458138852" lon="11.3054055537">
		<tag k="name" v="Bergseng" />
		<tag k="place" v="farm" />
		<tag k="ssr:stedsnr" v="616754" />
	</node>
	<node id="-56622" lat="60.8467805546" lon="11.2870861139">
		<tag k="name" v="Vestby" />
		<tag k="place" v="farm" />
		<tag k="ssr:stedsnr" v="616717" />
	</node>
	<node id="-56621" lat="60.853825004" lon="11.3012333423">
		<tag k="name" v="Halstenshov" />
		<tag k="place" v="farm" />
		<tag k="ssr:stedsnr" v="616716" />
	</node>
	<node id="-56620" lat="60.8777083297" lon="11.2965222258">
		<tag k="alt_name" v="Mykirønningen" />
		<tag k="name" v="Mykjurønningen" />
		<tag k="place" v="farm" />
		<tag k="ssr:stedsnr" v="616671" />
	</node>
	<node id="-56618" lat="60.8890472228" lon="11.3615777758">
		<tag k="name" v="Slåtten" />
		<tag k="place" v="farm" />
		<tag k="ssr:stedsnr" v="616636" />
	</node>
	<node id="-56614" lat="60.8172166626" lon="11.4749083363">
		<tag k="historic" v="shieling" />
		<tag k="name" v="Stålsætra" />
		<tag k="place" v="locality" />
		<tag k="ssr:stedsnr" v="616297" />
	</node>
	<node id="-56613" lat="60.8046138913" lon="11.3183444479">
		<tag k="name" v="Ommangsbakken" />
		<tag k="place" v="farm" />
		<tag k="ssr:stedsnr" v="615851" />
	</node>
	<node id="-56612" lat="60.8025027745" lon="11.3220694507">
		<tag k="alt_name" v="Nordre Bjørke" />
		<tag k="name" v="Bjørke" />
		<tag k="place" v="farm" />
		<tag k="ssr:stedsnr" v="615850" />
	</node>
	<node id="-56611" lat="60.8005555576" lon="11.3041722228">
		<tag k="amenity" v="school" />
		<tag k="name" v="Hedemarken friskole" />
		<tag k="old_name" v="Løken skole" />
		<tag k="ssr:stedsnr" v="615848" />
	</node>
	<node id="-56610" lat="60.8070027819" lon="11.2758083331">
		<tag k="alt_name" v="Skramstad vestre" />
		<tag k="name" v="Skramstad" />
		<tag k="place" v="farm" />
		<tag k="ssr:stedsnr" v="615846" />
	</node>
	<node id="-56608" lat="60.8131888858" lon="11.2521027738">
		<tag k="alt_name" v="Glabakk" />
		<tag k="name" v="Gladbakk" />
		<tag k="place" v="farm" />
		<tag k="ssr:stedsnr" v="615821" />
	</node>
	<node id="-56607" lat="60.8248611104" lon="11.2879305504">
		<tag k="name" v="Stendal" />
		<tag k="place" v="farm" />
		<tag k="ssr:stedsnr" v="615801" />
	</node>
	<node id="-56606" lat="60.8272833292" lon="11.2980194389">
		<tag k="name" v="Tønset" />
		<tag k="place" v="farm" />
		<tag k="ssr:stedsnr" v="615799" />
	</node>
	<node id="-56605" lat="60.81849167" lon="11.3089750063">
		<tag k="alt_name" v="Norseng" />
		<tag k="name" v="Nørseng" />
		<tag k="place" v="farm" />
		<tag k="ssr:stedsnr" v="615796" />
	</node>
	<node id="-56604" lat="60.8270555565" lon="11.3933388863">
		<tag k="name" v="Høgholen" />
		<tag k="place" v="farm" />
		<tag k="ssr:stedsnr" v="615785" />
	</node>
	<node id="-56603" lat="60.8278333312" lon="11.3976638807">
		<tag k="name" v="Nysvea" />
		<tag k="place" v="farm" />
		<tag k="ssr:stedsnr" v="615783" />
	</node>
	<node id="-56602" lat="60.8292694482" lon="11.2700666653">
		<tag k="name" v="Jevnaker" />
		<tag k="place" v="farm" />
		<tag k="ssr:stedsnr" v="615776" />
	</node>
	<node id="-56601" lat="60.8568888914" lon="11.3307888883">
		<tag k="name" v="Igulstad" />
		<tag k="place" v="farm" />
		<tag k="ssr:stedsnr" v="615733" />
	</node>
	<node id="-56600" lat="60.8616194434" lon="11.3274305561">
		<tag k="name" v="Kvæstad" />
		<tag k="place" v="farm" />
		<tag k="ssr:stedsnr" v="615729" />
	</node>
	<node id="-56598" lat="60.8557305542" lon="11.3875833271">
		<tag k="alt_name" v="Husom, vestre" />
		<tag k="name" v="Vestre Husom" />
		<tag k="place" v="farm" />
		<tag k="ssr:stedsnr" v="615723" />
	</node>
	<node id="-56596" lat="60.8829999958" lon="11.283633342">
		<tag k="name" v="Hjelsengsvea" />
		<tag k="place" v="farm" />
		<tag k="ssr:stedsnr" v="615620" />
	</node>
	<node id="-56595" lat="60.7763805538" lon="11.4807027839">
		<tag k="alt_name" v="Rokoengen" />
		<tag k="name" v="Rokoenga" />
		<tag k="place" v="farm" />
		<tag k="ssr:stedsnr" v="615301" />
	</node>
	<node id="-56593" lat="60.8255611117" lon="11.4704111132">
		<tag k="fixme" v="consider tourism=alpine_hut or tourism=chalet" />
		<tag k="name" v="Svarttjennkoia" />
		<tag k="old_name" v="Svarttjernkoia" />
		<tag k="ssr:stedsnr" v="615251" />
		<tag k="tourism" v="wilderness_hut" />
	</node>
	<node id="-56592" lat="60.7396055568" lon="11.5904333374">
		<tag k="name" v="Olohusa" />
		<tag k="place" v="farm" />
		<tag k="ssr:stedsnr" v="613479" />
	</node>
	<node id="-56591" lat="60.6776277766" lon="11.6220555632">
		<tag k="alt_name" v="Veltdamkoia" />
		<tag k="name" v="Vesldamkoia" />
		<tag k="place" v="isolated_dwelling" />
		<tag k="ssr:stedsnr" v="613366" />
	</node>
	<node id="-56590" lat="60.7948444442" lon="11.3553888876">
		<tag k="name" v="Bekk" />
		<tag k="place" v="farm" />
		<tag k="ssr:stedsnr" v="595915" />
	</node>
	<node id="-56589" lat="60.7904638908" lon="11.3392249959">
		<tag k="name" v="Skogly" />
		<tag k="place" v="farm" />
		<tag k="ssr:stedsnr" v="595912" />
	</node>
	<node id="-56588" lat="60.8263277809" lon="11.3532138945">
		<tag k="name" v="Granlund" />
		<tag k="place" v="farm" />
		<tag k="ssr:stedsnr" v="595888" />
	</node>
	<node id="-56587" lat="60.8245194469" lon="11.3146888871">
		<tag k="name" v="Vestre Norderhov" />
		<tag k="place" v="farm" />
		<tag k="ssr:stedsnr" v="595852" />
	</node>
	<node id="-56585" lat="60.8723972251" lon="11.3516499921">
		<tag k="name" v="Risengstua" />
		<tag k="place" v="farm" />
		<tag k="ssr:stedsnr" v="595580" />
	</node>
	<node id="-56584" lat="60.8188944415" lon="11.3038166754">
		<tag k="name" v="Bruflat" />
		<tag k="place" v="farm" />
		<tag k="ssr:stedsnr" v="595572" />
	</node>
	<node id="-56583" lat="60.8005638853" lon="11.2864527746">
		<tag k="name" v="Holmlund" />
		<tag k="place" v="farm" />
		<tag k="ssr:stedsnr" v="595558" />
	</node>
	<node id="-56576" lat="60.8645777751" lon="11.417336104">
		<tag k="building" v="industrial" />
		<tag k="industrial" v="factory" />
		<tag k="name" v="Ebru sag" />
		<tag k="ssr:stedsnr" v="595364" />
	</node>
	<node id="-56575" lat="60.8459888853" lon="11.3481444502">
		<tag k="name" v="Grimskroksti" />
		<tag k="place" v="farm" />
		<tag k="ssr:stedsnr" v="594984" />
	</node>
	<node id="-56574" lat="60.845558329" lon="11.3989750044">
		<tag k="name" v="Talbak" />
		<tag k="place" v="farm" />
		<tag k="ssr:stedsnr" v="594952" />
	</node>
	<node id="-56573" lat="60.8644527745" lon="11.381013892">
		<tag k="name" v="Ekrum" />
		<tag k="place" v="farm" />
		<tag k="ssr:stedsnr" v="594948" />
	</node>
	<node id="-56572" lat="60.7963666709" lon="11.4277555561">
		<tag k="building" v="industrial" />
		<tag k="name" v="Rokosjøen sag" />
		<tag k="ssr:stedsnr" v="594774" />
	</node>
	<node id="-56564" lat="60.7885361119" lon="11.3260944504">
		<tag k="fixme" v="consider place=suburb, village or hamlet" />
		<tag k="name" v="Klevbakken" />
		<tag k="place" v="quarter" />
		<tag k="ssr:stedsnr" v="566911" />
	</node>
	<node id="-56562" lat="60.7633749973" lon="11.3360583356">
		<tag k="name" v="Bekkevoll" />
		<tag k="place" v="farm" />
		<tag k="ssr:stedsnr" v="555950" />
	</node>
	<node id="-56561" lat="60.7544722235" lon="11.4406444506">
		<tag k="historic" v="shieling" />
		<tag k="name" v="Bjørksætra" />
		<tag k="place" v="locality" />
		<tag k="ssr:stedsnr" v="555945" />
	</node>
	<node id="-56560" lat="60.7621388847" lon="11.4443694383">
		<tag k="name" v="Bekkevoll" />
		<tag k="place" v="isolated_dwelling" />
		<tag k="ssr:stedsnr" v="555943" />
	</node>
	<node id="-56559" lat="60.7745416698" lon="11.3758472306">
		<tag k="name" v="Slåttsvea" />
		<tag k="place" v="farm" />
		<tag k="ssr:stedsnr" v="555912" />
	</node>
	<node id="-56558" lat="60.7729444415" lon="11.4025611134">
		<tag k="alt_name" v="Nordre Grønsvea" />
		<tag k="name" v="Grønsvea" />
		<tag k="place" v="farm" />
		<tag k="ssr:stedsnr" v="555910" />
	</node>
	<node id="-56557" lat="60.7810500002" lon="11.3403777741">
		<tag k="name" v="Fløtholen" />
		<tag k="place" v="farm" />
		<tag k="ssr:stedsnr" v="555889" />
	</node>
	<node id="-56556" lat="60.7745527737" lon="11.3378833307">
		<tag k="name" v="Sjurstua" />
		<tag k="place" v="farm" />
		<tag k="ssr:stedsnr" v="555887" />
	</node>
	<node id="-56555" lat="60.7966972258" lon="11.2584611117">
		<tag k="name" v="Birkely" />
		<tag k="place" v="farm" />
		<tag k="ssr:stedsnr" v="555866" />
	</node>
	<node id="-56554" lat="60.8184444459" lon="11.2764916672">
		<tag k="name" v="Mørbakken" />
		<tag k="place" v="farm" />
		<tag k="ssr:stedsnr" v="555817" />
	</node>
	<node id="-56553" lat="60.8193472238" lon="11.3711694511">
		<tag k="name" v="Hovslund" />
		<tag k="place" v="farm" />
		<tag k="ssr:stedsnr" v="555809" />
	</node>
	<node id="-56551" lat="60.8350777782" lon="11.3495694515">
		<tag k="name" v="Segla" />
		<tag k="place" v="farm" />
		<tag k="ssr:stedsnr" v="555782" />
	</node>
	<node id="-56550" lat="60.862780555" lon="11.3225611109">
		<tag k="alt_name" v="Kvæstad øde" />
		<tag k="name" v="Økvestad" />
		<tag k="place" v="farm" />
		<tag k="ssr:stedsnr" v="555710" />
	</node>
	<node id="-56548" lat="60.8690805594" lon="11.3181555528">
		<tag k="name" v="Klette" />
		<tag k="place" v="farm" />
		<tag k="ssr:stedsnr" v="555667" />
	</node>
	<node id="-56546" lat="60.8971027823" lon="11.3125388878">
		<tag k="name" v="Greften" />
		<tag k="place" v="farm" />
		<tag k="ssr:stedsnr" v="555607" />
	</node>
	<node id="-56545" lat="60.8818388889" lon="11.3242416584">
		<tag k="name" v="Stenset" />
		<tag k="place" v="farm" />
		<tag k="ssr:stedsnr" v="555592" />
	</node>
	<node id="-56544" lat="60.8875250025" lon="11.3541083273">
		<tag k="name" v="Opphus" />
		<tag k="place" v="farm" />
		<tag k="ssr:stedsnr" v="555591" />
	</node>
	<node id="-56543" lat="60.8886166639" lon="11.3102833367">
		<tag k="alt_name" v="Linsveen" />
		<tag k="name" v="Linsvea" />
		<tag k="place" v="farm" />
		<tag k="ssr:stedsnr" v="555590" />
	</node>
	<node id="-56542" lat="60.8827138878" lon="11.319844453">
		<tag k="name" v="Nordset" />
		<tag k="place" v="farm" />
		<tag k="ssr:stedsnr" v="555588" />
	</node>
	<node id="-56541" lat="60.9167388862" lon="11.3677944415">
		<tag k="name" v="Savalsætra" />
		<tag k="place" v="hamlet" />
		<tag k="ssr:stedsnr" v="555582" />
	</node>
	<node id="-56536" lat="60.7736555572" lon="11.4992999917">
		<tag k="name" v="Ytteborg" />
		<tag k="place" v="farm" />
		<tag k="ssr:stedsnr" v="555266" />
	</node>
	<node id="-56534" lat="60.7397166679" lon="11.5053027841">
		<tag k="name" v="Dalen" />
		<tag k="place" v="farm" />
		<tag k="ssr:stedsnr" v="553445" />
	</node>
	<node id="-56533" lat="60.7039555568" lon="11.573577784">
		<tag k="name" v="Krakkerud" />
		<tag k="place" v="isolated_dwelling" />
		<tag k="ssr:stedsnr" v="553247" />
	</node>
	<node id="-56530" lat="60.8757638884" lon="11.3538333383">
		<tag k="name" v="Østerhagen" />
		<tag k="place" v="farm" />
		<tag k="ssr:stedsnr" v="534993" />
	</node>
	<node id="-56529" lat="60.9027694479" lon="11.4449666712">
		<tag k="name" v="Nierkoia" />
		<tag k="place" v="locality" />
		<tag k="ssr:stedsnr" v="534953" />
	</node>
	<node id="-56528" lat="60.7907638853" lon="11.328680551">
		<tag k="name" v="Grindstua" />
		<tag k="place" v="farm" />
		<tag k="ssr:stedsnr" v="534939" />
	</node>
	<node id="-56527" lat="60.823958331" lon="11.3117249999">
		<tag k="name" v="Vesterhaug" />
		<tag k="place" v="farm" />
		<tag k="ssr:stedsnr" v="534914" />
	</node>
	<node id="-56526" lat="60.8307444405" lon="11.393486102">
		<tag k="name" v="Livensvea" />
		<tag k="place" v="farm" />
		<tag k="ssr:stedsnr" v="534899" />
	</node>
	<node id="-56525" lat="60.8016027791" lon="11.3122999921">
		<tag k="name" v="Østhagen" />
		<tag k="place" v="farm" />
		<tag k="ssr:stedsnr" v="534883" />
	</node>
	<node id="-56524" lat="60.7709111144" lon="11.4768638872">
		<tag k="name" v="Storsveen" />
		<tag k="place" v="farm" />
		<tag k="ssr:stedsnr" v="534765" />
	</node>
	<node id="-56523" lat="60.7574111067" lon="11.463633332">
		<tag k="name" v="Nedre Godbakklikoia" />
		<tag k="place" v="isolated_dwelling" />
		<tag k="ssr:stedsnr" v="534752" />
	</node>
	<node id="-56518" lat="60.8283555551" lon="11.2862111072">
		<tag k="name" v="Nordal" />
		<tag k="place" v="farm" />
		<tag k="ssr:stedsnr" v="534622" />
	</node>
	<node id="-56517" lat="60.8249805559" lon="11.2735166602">
		<tag k="name" v="Moen" />
		<tag k="place" v="farm" />
		<tag k="ssr:stedsnr" v="534583" />
	</node>
	<node id="-56516" lat="60.8258055533" lon="11.2650222296">
		<tag k="name" v="Grønli" />
		<tag k="place" v="farm" />
		<tag k="ssr:stedsnr" v="534578" />
	</node>
	<node id="-56515" lat="60.8020777785" lon="11.2749611045">
		<tag k="name" v="Furubakken" />
		<tag k="place" v="isolated_dwelling" />
		<tag k="ssr:stedsnr" v="534575" />
	</node>
	<node id="-56514" lat="60.8087833308" lon="11.2963611142">
		<tag k="name" v="Rustadstua" />
		<tag k="place" v="farm" />
		<tag k="ssr:stedsnr" v="534571" />
	</node>
	<node id="-56511" lat="60.8586472213" lon="11.3999388859">
		<tag k="building" v="civic" />
		<tag k="name" v="Husum servicestasjon" />
		<tag k="ssr:stedsnr" v="534518" />
	</node>
	<node id="-56509" lat="60.9032916693" lon="11.2629194394">
		<tag k="name" v="Midtlinkoia" />
		<tag k="place" v="isolated_dwelling" />
		<tag k="ssr:stedsnr" v="534487" />
	</node>
	<node id="-56508" lat="60.8634027821" lon="11.4196527864">
		<tag k="name" v="Rundhaug" />
		<tag k="place" v="farm" />
		<tag k="ssr:stedsnr" v="534480" />
	</node>
	<node id="-56507" lat="60.812247225" lon="11.3805361174">
		<tag k="name" v="Dyrihagen" />
		<tag k="place" v="farm" />
		<tag k="ssr:stedsnr" v="534469" />
	</node>
	<node id="-56506" lat="60.7790749973" lon="11.3562138963">
		<tag k="name" v="Torelykkja" />
		<tag k="place" v="farm" />
		<tag k="ssr:stedsnr" v="534462" />
	</node>
	<node id="-56500" lat="60.724786112" lon="11.4985472199">
		<tag k="name" v="Sørsvebakken" />
		<tag k="place" v="farm" />
		<tag k="ssr:stedsnr" v="534279" />
	</node>
	<node id="-56498" lat="60.8675916679" lon="11.3253555597">
		<tag k="name" v="Grylling" />
		<tag k="place" v="farm" />
		<tag k="ssr:stedsnr" v="522588" />
	</node>
	<node id="-56497" lat="60.8056611127" lon="11.3280166725">
		<tag k="name" v="Finnstad" />
		<tag k="place" v="farm" />
		<tag k="ssr:stedsnr" v="506085" />
	</node>
	<node id="-56495" lat="60.8369861147" lon="11.4660749913">
		<tag k="fixme" v="consider tourism=alpine_hut or tourism=chalet" />
		<tag k="name" v="Svartskogkoia" />
		<tag k="old_name" v="Svartskog" />
		<tag k="ssr:stedsnr" v="495794" />
		<tag k="tourism" v="wilderness_hut" />
	</node>
	<node id="-56494" lat="60.8772972244" lon="11.3499472135">
		<tag k="name" v="Nordby" />
		<tag k="place" v="farm" />
		<tag k="ssr:stedsnr" v="495678" />
	</node>
	<node id="-56493" lat="60.8773722258" lon="11.3081611187">
		<tag k="alt_name" v="Mykju, l;Myki lille" />
		<tag k="name" v="Lille Mykju" />
		<tag k="place" v="farm" />
		<tag k="ssr:stedsnr" v="495675" />
	</node>
	<node id="-56490" lat="60.7889944479" lon="11.296397225">
		<tag k="name" v="By" />
		<tag k="place" v="farm" />
		<tag k="ssr:stedsnr" v="494887" />
	</node>
	<node id="-56488" lat="60.7968638846" lon="11.2783972268">
		<tag k="name" v="Haukstad" />
		<tag k="place" v="farm" />
		<tag k="ssr:stedsnr" v="494882" />
	</node>
	<node id="-56486" lat="60.8137249989" lon="11.3665972299">
		<tag k="name" v="Dyri" />
		<tag k="place" v="farm" />
		<tag k="ssr:stedsnr" v="494841" />
	</node>
	<node id="-56485" lat="60.8121166669" lon="11.3182083247">
		<tag k="alt_name" v="Rustad, store" />
		<tag k="name" v="Store Rustad" />
		<tag k="place" v="farm" />
		<tag k="ssr:stedsnr" v="494826" />
	</node>
	<node id="-56484" lat="60.8129611137" lon="11.3094222154">
		<tag k="name" v="Hølingstad" />
		<tag k="place" v="farm" />
		<tag k="ssr:stedsnr" v="494825" />
	</node>
	<node id="-56483" lat="60.8157638851" lon="11.3579361071">
		<tag k="name" v="Lillehov" />
		<tag k="place" v="farm" />
		<tag k="ssr:stedsnr" v="494823" />
	</node>
	<node id="-56482" lat="60.823613891" lon="11.3624888859">
		<tag k="alt_name" v="Vestre Hov" />
		<tag k="name" v="Hov" />
		<tag k="place" v="farm" />
		<tag k="ssr:stedsnr" v="494813" />
	</node>
	<node id="-56481" lat="60.8188416681" lon="11.3499611146">
		<tag k="alt_name" v="Næstad" />
		<tag k="name" v="Nestad" />
		<tag k="place" v="farm" />
		<tag k="ssr:stedsnr" v="494812" />
	</node>
	<node id="-56480" lat="60.820899997" lon="11.3910555542">
		<tag k="alt_name" v="Bløtmyra" />
		<tag k="name" v="Myra" />
		<tag k="place" v="farm" />
		<tag k="ssr:stedsnr" v="494804" />
	</node>
	<node id="-56479" lat="60.8320833333" lon="11.3281722181">
		<tag k="name" v="Øgrøholt" />
		<tag k="place" v="farm" />
		<tag k="ssr:stedsnr" v="494776" />
	</node>
	<node id="-56478" lat="60.851097226" lon="11.3287444506">
		<tag k="alt_name" v="Berger" />
		<tag k="name" v="Berge" />
		<tag k="place" v="farm" />
		<tag k="ssr:stedsnr" v="494724" />
	</node>
	<node id="-56477" lat="60.8456888873" lon="11.3323472151">
		<tag k="name" v="Haugen" />
		<tag k="place" v="farm" />
		<tag k="ssr:stedsnr" v="494722" />
	</node>
	<node id="-56476" lat="60.8602722193" lon="11.3552888977">
		<tag k="name" v="Murstad" />
		<tag k="place" v="farm" />
		<tag k="ssr:stedsnr" v="494710" />
	</node>
	<node id="-56475" lat="60.8553305544" lon="11.3924888879">
		<tag k="alt_name" v="Husom, østre" />
		<tag k="name" v="Østre Husom" />
		<tag k="place" v="farm" />
		<tag k="ssr:stedsnr" v="494707" />
	</node>
	<node id="-56474" lat="60.8510611154" lon="11.2974249925">
		<tag k="name" v="Østby" />
		<tag k="place" v="farm" />
		<tag k="ssr:stedsnr" v="494688" />
	</node>
	<node id="-56472" lat="60.8959166691" lon="11.3010388926">
		<tag k="fixme" v="multiple name tags, choose one and add the other to alt_name" />
		<tag k="name" v="Karlsmyra;Karlstad" />
		<tag k="place" v="farm" />
		<tag k="ssr:stedsnr" v="494614" />
	</node>
	<node id="-56471" lat="60.8817666676" lon="11.3604111036">
		<tag k="name" v="Rødmoen" />
		<tag k="place" v="farm" />
		<tag k="ssr:stedsnr" v="494601" />
	</node>
	<node id="-56470" lat="60.8907166657" lon="11.3729083416">
		<tag k="name" v="Søndre Petersborg" />
		<tag k="place" v="farm" />
		<tag k="ssr:stedsnr" v="494597" />
	</node>
	<node id="-56468" lat="60.907277778" lon="11.3116166638">
		<tag k="name" v="Brattbakkoia" />
		<tag k="place" v="isolated_dwelling" />
		<tag k="ssr:stedsnr" v="494568" />
	</node>
	<node id="-56465" lat="60.7557583344" lon="11.5033777819">
		<tag k="alt_name" v="Østre Nordsveen" />
		<tag k="name" v="Nordsvea" />
		<tag k="place" v="farm" />
		<tag k="ssr:stedsnr" v="494395" />
	</node>
	<node id="-56464" lat="60.770255555" lon="11.4885305641">
		<tag k="name" v="Bjølset" />
		<tag k="place" v="farm" />
		<tag k="ssr:stedsnr" v="494311" />
	</node>
	<node id="-56463" lat="60.7678138869" lon="11.4873499913">
		<tag k="name" v="Liberg" />
		<tag k="place" v="farm" />
		<tag k="ssr:stedsnr" v="494309" />
	</node>
	<node id="-56460" lat="60.7106944465" lon="11.5874083341">
		<tag k="name" v="Høgdkoia" />
		<tag k="place" v="isolated_dwelling" />
		<tag k="ssr:stedsnr" v="492276" />
	</node>
	<node id="-56457" lat="60.763427778" lon="11.3526222158">
		<tag k="name" v="Sørli" />
		<tag k="place" v="farm" />
		<tag k="ssr:stedsnr" v="434960" />
	</node>
	<node id="-56456" lat="60.7703722255" lon="11.3361444513">
		<tag k="alt_name" v="Sandbakk" />
		<tag k="name" v="Sandbekk" />
		<tag k="place" v="farm" />
		<tag k="ssr:stedsnr" v="434922" />
	</node>
	<node id="-56455" lat="60.8217388877" lon="11.2987444408">
		<tag k="name" v="Nyland" />
		<tag k="place" v="farm" />
		<tag k="ssr:stedsnr" v="434770" />
	</node>
	<node id="-56454" lat="60.8347638902" lon="11.3572388831">
		<tag k="alt_name" v="Øvergård" />
		<tag k="name" v="Øvergard" />
		<tag k="place" v="farm" />
		<tag k="ssr:stedsnr" v="434761" />
	</node>
	<node id="-56453" lat="60.8346611144" lon="11.3462277733">
		<tag k="alt_name" v="Karud, nordre" />
		<tag k="name" v="Nordre Karud" />
		<tag k="place" v="farm" />
		<tag k="ssr:stedsnr" v="434760" />
	</node>
	<node id="-56452" lat="60.8404333295" lon="11.3489500014">
		<tag k="alt_name" v="Skramstad østre" />
		<tag k="name" v="Skramstad" />
		<tag k="place" v="farm" />
		<tag k="ssr:stedsnr" v="434740" />
	</node>
	<node id="-56451" lat="60.8425805549" lon="11.3214444379">
		<tag k="alt_name" v="Rømma, vestre;Rømma;Stor-Rømma;Rømmen store" />
		<tag k="name" v="Vestre Rømma" />
		<tag k="place" v="farm" />
		<tag k="ssr:stedsnr" v="434739" />
	</node>
	<node id="-56449" lat="60.7958972211" lon="11.4599722254">
		<tag k="name" v="Sandåker" />
		<tag k="place" v="farm" />
		<tag k="ssr:stedsnr" v="434894" />
	</node>
	<node id="-56448" lat="60.7949916639" lon="11.265436102">
		<tag k="name" v="Tofsrud" />
		<tag k="place" v="farm" />
		<tag k="ssr:stedsnr" v="434873" />
	</node>
	<node id="-56447" lat="60.7927749963" lon="11.250319449">
		<tag k="name" v="Moen" />
		<tag k="place" v="farm" />
		<tag k="ssr:stedsnr" v="434870" />
	</node>
	<node id="-56446" lat="60.7999888919" lon="11.2476083302">
		<tag k="name" v="Brattås" />
		<tag k="place" v="farm" />
		<tag k="ssr:stedsnr" v="434862" />
	</node>
	<node id="-56445" lat="60.7949388907" lon="11.2923361067">
		<tag k="name" v="Løvstad" />
		<tag k="place" v="farm" />
		<tag k="ssr:stedsnr" v="434848" />
	</node>
	<node id="-56444" lat="60.8057611143" lon="11.3761194489">
		<tag k="name" v="Færgen" />
		<tag k="place" v="farm" />
		<tag k="ssr:stedsnr" v="434828" />
	</node>
	<node id="-56443" lat="60.8101416708" lon="11.2403055646">
		<tag k="name" v="Li" />
		<tag k="place" v="isolated_dwelling" />
		<tag k="ssr:stedsnr" v="434814" />
	</node>
	<node id="-56442" lat="60.8112833349" lon="11.2776388828">
		<tag k="name" v="Skillingstad" />
		<tag k="place" v="farm" />
		<tag k="ssr:stedsnr" v="434802" />
	</node>
	<node id="-56441" lat="60.900794441" lon="11.3130833302">
		<tag k="name" v="Bråten" />
		<tag k="place" v="farm" />
		<tag k="ssr:stedsnr" v="434591" />
	</node>
	<node id="-56440" lat="60.915616665" lon="11.2972777735">
		<tag k="name" v="Lysodden" />
		<tag k="place" v="isolated_dwelling" />
		<tag k="ssr:stedsnr" v="434584" />
	</node>
	<node id="-56439" lat="60.9121833343" lon="11.4118416617">
		<tag k="name" v="Sagfallkoia" />
		<tag k="place" v="isolated_dwelling" />
		<tag k="ssr:stedsnr" v="434581" />
	</node>
	<node id="-56438" lat="60.9449444489" lon="11.3914416579">
		<tag k="alt_name" v="Hankerudkoia" />
		<tag k="name" v="Hankerud" />
		<tag k="place" v="isolated_dwelling" />
		<tag k="ssr:stedsnr" v="434536" />
	</node>
	<node id="-56437" lat="60.981452774" lon="11.2373833364">
		<tag k="name" v="Målia" />
		<tag k="place" v="hamlet" />
		<tag k="ssr:stedsnr" v="434495" />
	</node>
	<node id="-56435" lat="60.7493833349" lon="11.564625006">
		<tag k="name" v="Lundby" />
		<tag k="place" v="isolated_dwelling" />
		<tag k="ssr:stedsnr" v="434391" />
	</node>
	<node id="-56433" lat="60.7570027809" lon="11.5554666595">
		<tag k="alt_name" v="Øvre Bakken" />
		<tag k="name" v="Bakken" />
		<tag k="place" v="farm" />
		<tag k="ssr:stedsnr" v="434373" />
	</node>
	<node id="-56432" lat="60.779113886" lon="11.5216055628">
		<tag k="name" v="Sagen" />
		<tag k="place" v="farm" />
		<tag k="ssr:stedsnr" v="434329" />
	</node>
	<node id="-56431" lat="60.7755666624" lon="11.472319435">
		<tag k="alt_name" v="Vestre Roko" />
		<tag k="name" v="Roko" />
		<tag k="place" v="farm" />
		<tag k="ssr:stedsnr" v="434277" />
	</node>
	<node id="-56430" lat="60.8492138885" lon="11.2876638905">
		<tag k="name" v="Rønningen" />
		<tag k="place" v="farm" />
		<tag k="ssr:stedsnr" v="434685" />
	</node>
	<node id="-56429" lat="60.8757694421" lon="11.3036611155">
		<tag k="alt_name" v="Myki" />
		<tag k="name" v="Mykju" />
		<tag k="place" v="farm" />
		<tag k="ssr:stedsnr" v="434647" />
	</node>
	<node id="-56427" lat="60.7417944426" lon="11.4736277686">
		<tag k="alt_name" v="Nordløkken" />
		<tag k="name" v="Nordlykkja" />
		<tag k="place" v="isolated_dwelling" />
		<tag k="ssr:stedsnr" v="432437" />
	</node>
	<node id="-56425" lat="60.7294916663" lon="11.5468972162">
		<tag k="name" v="Stenset" />
		<tag k="place" v="farm" />
		<tag k="ssr:stedsnr" v="432261" />
	</node>
	<node id="-56424" lat="60.7264166682" lon="11.5588138964">
		<tag k="name" v="Stensåsen" />
		<tag k="place" v="farm" />
		<tag k="ssr:stedsnr" v="432259" />
	</node>
	<node id="-56422" lat="61.0094333318" lon="11.2753777703">
		<tag k="historic" v="shieling" />
		<tag k="name" v="Doksrudsætra" />
		<tag k="place" v="locality" />
		<tag k="ssr:stedsnr" v="263160" />
	</node>
	<node id="-56421" lat="60.7655916709" lon="11.4293527864">
		<tag k="alt_name" v="Østlikoia" />
		<tag k="name" v="Austlikoia" />
		<tag k="place" v="isolated_dwelling" />
		<tag k="ssr:stedsnr" v="252927" />
	</node>
	<node id="-56419" lat="60.778794446" lon="11.4308499939">
		<tag k="name" v="Bekken" />
		<tag k="place" v="farm" />
		<tag k="ssr:stedsnr" v="252913" />
	</node>
	<node id="-56418" lat="60.7888138856" lon="11.3484222188">
		<tag k="name" v="Klæpa bruk" />
		<tag k="place" v="farm" />
		<tag k="ssr:stedsnr" v="252869" />
	</node>
	<node id="-56417" lat="60.8007472256" lon="11.3917972149">
		<tag k="name" v="Bekkenga" />
		<tag k="place" v="farm" />
		<tag k="ssr:stedsnr" v="252853" />
	</node>
	<node id="-56416" lat="60.8064055548" lon="11.383725007">
		<tag k="name" v="Nordli" />
		<tag k="place" v="farm" />
		<tag k="ssr:stedsnr" v="252851" />
	</node>
	<node id="-56415" lat="60.8015833347" lon="11.348124997">
		<tag k="name" v="Skjerve" />
		<tag k="place" v="farm" />
		<tag k="ssr:stedsnr" v="252837" />
	</node>
	<node id="-56414" lat="60.8160361074" lon="11.3812027749">
		<tag k="name" v="Korilstad" />
		<tag k="place" v="farm" />
		<tag k="ssr:stedsnr" v="252820" />
	</node>
	<node id="-56413" lat="60.8429861157" lon="11.3946388836">
		<tag k="name" v="Vivelstad" />
		<tag k="place" v="farm" />
		<tag k="ssr:stedsnr" v="252766" />
	</node>
	<node id="-56412" lat="60.8398583358" lon="11.3916444486">
		<tag k="name" v="Synstad" />
		<tag k="place" v="farm" />
		<tag k="ssr:stedsnr" v="252765" />
	</node>
	<node id="-56410" lat="60.850833337" lon="11.39082778">
		<tag k="name" v="Granerud" />
		<tag k="place" v="farm" />
		<tag k="ssr:stedsnr" v="252733" />
	</node>
	<node id="-56409" lat="60.8488361078" lon="11.3301444418">
		<tag k="name" v="Torshov" />
		<tag k="place" v="farm" />
		<tag k="ssr:stedsnr" v="252727" />
	</node>
	<node id="-56408" lat="60.8548388887" lon="11.3464361162">
		<tag k="name" v="Stafseng" />
		<tag k="place" v="farm" />
		<tag k="ssr:stedsnr" v="252713" />
	</node>
	<node id="-56407" lat="60.8478277753" lon="11.2836805605">
		<tag k="name" v="Lundstua" />
		<tag k="place" v="farm" />
		<tag k="ssr:stedsnr" v="252701" />
	</node>
	<node id="-56406" lat="60.8834694459" lon="11.3995916616">
		<tag k="name" v="Slagsvea" />
		<tag k="place" v="farm" />
		<tag k="ssr:stedsnr" v="252648" />
	</node>
	<node id="-56405" lat="60.8790111068" lon="11.3453361165">
		<tag k="alt_name" v="Holaker" />
		<tag k="name" v="Holåker" />
		<tag k="place" v="farm" />
		<tag k="ssr:stedsnr" v="252624" />
	</node>
	<node id="-56404" lat="60.8742944431" lon="11.3495222217">
		<tag k="name" v="Nyjordet" />
		<tag k="place" v="farm" />
		<tag k="ssr:stedsnr" v="252610" />
	</node>
	<node id="-56403" lat="60.9020999975" lon="11.3767083239">
		<tag k="name" v="Granlikoia" />
		<tag k="place" v="isolated_dwelling" />
		<tag k="ssr:stedsnr" v="252601" />
	</node>
	<node id="-56402" lat="60.8905472265" lon="11.3565250044">
		<tag k="name" v="Løbakk" />
		<tag k="place" v="farm" />
		<tag k="ssr:stedsnr" v="252595" />
	</node>
	<node id="-56400" lat="60.7504472196" lon="11.5784222247">
		<tag k="name" v="Husom" />
		<tag k="place" v="farm" />
		<tag k="ssr:stedsnr" v="252372" />
	</node>
	<node id="-56398" lat="60.7690916702" lon="11.5823055498">
		<tag k="name" v="Tysbastkoia" />
		<tag k="place" v="isolated_dwelling" />
		<tag k="ssr:stedsnr" v="252303" />
	</node>
	<node id="-56397" lat="60.8290666647" lon="11.3716499952">
		<tag k="name" v="Nilsby" />
		<tag k="place" v="isolated_dwelling" />
		<tag k="ssr:stedsnr" v="251837" />
	</node>
	<node id="-56396" lat="60.8280194471" lon="11.3422444422">
		<tag k="name" v="Grindereng" />
		<tag k="place" v="farm" />
		<tag k="ssr:stedsnr" v="251831" />
	</node>
	<node id="-56395" lat="60.8679583298" lon="11.2841444516">
		<tag k="alt_name" v="Vestgård" />
		<tag k="name" v="Vestgard" />
		<tag k="place" v="farm" />
		<tag k="ssr:stedsnr" v="251733" />
	</node>
	<node id="-56394" lat="60.8657055591" lon="11.3387611191">
		<tag k="name" v="Brandsrud" />
		<tag k="place" v="farm" />
		<tag k="ssr:stedsnr" v="251730" />
	</node>
	<node id="-56393" lat="60.9031500004" lon="11.3567250012">
		<tag k="name" v="Brennkoia" />
		<tag k="place" v="locality" />
		<tag k="ssr:stedsnr" v="251678" />
	</node>
	<node id="-56392" lat="60.9258722213" lon="11.3261583383">
		<tag k="name" v="Værelsvolla" />
		<tag k="place" v="isolated_dwelling" />
		<tag k="ssr:stedsnr" v="251646" />
	</node>
	<node id="-56388" lat="60.9103777781" lon="11.4282694404">
		<tag k="alt_name" v="Tobakk-koia" />
		<tag k="name" v="Tobekkoia" />
		<tag k="place" v="isolated_dwelling" />
		<tag k="ssr:stedsnr" v="251616" />
	</node>
	<node id="-56386" lat="60.7273527754" lon="11.5468555463">
		<tag k="name" v="Stensåsstua" />
		<tag k="place" v="farm" />
		<tag k="ssr:stedsnr" v="249280" />
	</node>
	<node id="-56385" lat="60.8311777821" lon="11.2830277824">
		<tag k="name" v="Svea" />
		<tag k="place" v="farm" />
		<tag k="ssr:stedsnr" v="242022" />
	</node>
	<node id="-56384" lat="60.8837972261" lon="11.3266638966">
		<tag k="name" v="Furasaga" />
		<tag k="place" v="farm" />
		<tag k="ssr:stedsnr" v="231985" />
	</node>
	<node id="-56383" lat="60.8064999958" lon="11.3308722133">
		<tag k="name" v="Lille vestre Finnstad" />
		<tag k="place" v="farm" />
		<tag k="ssr:stedsnr" v="231879" />
	</node>
	<node id="-56382" lat="60.802469446" lon="11.3047138819">
		<tag k="name" v="Søndre Ommang" />
		<tag k="place" v="farm" />
		<tag k="ssr:stedsnr" v="231871" />
	</node>
	<node id="-56381" lat="60.7547666657" lon="11.5002722299">
		<tag k="name" v="Vestre Nordsveen" />
		<tag k="place" v="farm" />
		<tag k="ssr:stedsnr" v="231797" />
	</node>
	<node id="-56378" lat="60.8220111122" lon="11.3016611085">
		<tag k="name" v="Melby" />
		<tag k="place" v="farm" />
		<tag k="ssr:stedsnr" v="231647" />
	</node>
	<node id="-56377" lat="60.8225777749" lon="11.3058500066">
		<tag k="name" v="Ågård" />
		<tag k="place" v="farm" />
		<tag k="ssr:stedsnr" v="231648" />
	</node>
	<node id="-56376" lat="60.8033416635" lon="11.2750888837">
		<tag k="loc_name" v="Brattvoll" />
		<tag k="name" v="Bratvoll" />
		<tag k="place" v="farm" />
		<tag k="ssr:stedsnr" v="231642" />
	</node>
	<node id="-56368" lat="60.8206472265" lon="11.3380444385">
		<tag k="amenity" v="school" />
		<tag k="name" v="Løten ungdomsskole" />
		<tag k="ssr:stedsnr" v="231554" />
	</node>
	<node id="-56366" lat="60.8704194489" lon="11.2924611076">
		<tag k="name" v="Ringnesrønningen" />
		<tag k="place" v="farm" />
		<tag k="ssr:stedsnr" v="231502" />
	</node>
	<node id="-56365" lat="60.7742194455" lon="11.4035583259">
		<tag k="name" v="Grønsvebakken" />
		<tag k="place" v="farm" />
		<tag k="ssr:stedsnr" v="231495" />
	</node>
	<node id="-56364" lat="60.7709111144" lon="11.4768638872">
		<tag k="name" v="Rokosveen" />
		<tag k="place" v="farm" />
		<tag k="ssr:stedsnr" v="231489" />
	</node>
	<node id="-56363" lat="60.77934722" lon="11.522505557">
		<tag k="name" v="Sagen" />
		<tag k="place" v="neighbourhood" />
		<tag k="ssr:stedsnr" v="231486" />
	</node>
	<node id="-56357" lat="60.8500749991" lon="11.3569861181">
		<tag k="name" v="Østerhagen" />
		<tag k="place" v="farm" />
		<tag k="ssr:stedsnr" v="230985" />
	</node>
	<node id="-56356" lat="60.9252166666" lon="11.2456888917">
		<tag k="name" v="Bårdsæterkoia" />
		<tag k="place" v="isolated_dwelling" />
		<tag k="ssr:stedsnr" v="230776" />
	</node>
	<node id="-56355" lat="60.8866527802" lon="11.4200527857">
		<tag k="historic" v="shieling" />
		<tag k="name" v="Nysætra" />
		<tag k="place" v="locality" />
		<tag k="ssr:stedsnr" v="230764" />
	</node>
	<node id="-56354" lat="60.7712416696" lon="11.3352527845">
		<tag k="name" v="Åset" />
		<tag k="place" v="farm" />
		<tag k="ssr:stedsnr" v="230758" />
	</node>
	<node id="-56351" lat="60.7733666682" lon="11.3369500033">
		<tag k="fixme" v="multiple name tags, choose one and add the other to alt_name" />
		<tag k="name" v="Akselstad;Nyværelset" />
		<tag k="place" v="farm" />
		<tag k="ssr:stedsnr" v="223644" />
	</node>
	<node id="-56350" lat="60.9510916646" lon="11.2932416674">
		<tag k="alt_name" v="Budor Turisthytte" />
		<tag k="fixme" v="consider tourism=alpine_hut or tourism=chalet" />
		<tag k="name" v="Budor Gjestegård" />
		<tag k="ssr:stedsnr" v="207013" />
		<tag k="tourism" v="wilderness_hut" />
	</node>
	<node id="-56349" lat="60.7810583325" lon="11.348091672">
		<tag k="name" v="Ilseng" />
		<tag k="place" v="farm" />
		<tag k="ssr:stedsnr" v="191880" />
	</node>
	<node id="-56348" lat="60.785358331" lon="11.3590277862">
		<tag k="alt_name" v="Øvre Heggen" />
		<tag k="name" v="Heggen" />
		<tag k="place" v="farm" />
		<tag k="ssr:stedsnr" v="191868" />
	</node>
	<node id="-56347" lat="60.7940777794" lon="11.2752750073">
		<tag k="name" v="Sande" />
		<tag k="place" v="farm" />
		<tag k="ssr:stedsnr" v="191853" />
	</node>
	<node id="-56346" lat="60.7983805566" lon="11.2619805477">
		<tag k="name" v="Grimset" />
		<tag k="place" v="farm" />
		<tag k="ssr:stedsnr" v="191852" />
	</node>
	<node id="-56345" lat="60.7965611115" lon="11.2420583276">
		<tag k="name" v="Torstad" />
		<tag k="place" v="farm" />
		<tag k="ssr:stedsnr" v="191846" />
	</node>
	<node id="-56344" lat="60.7965333304" lon="11.3088277848">
		<tag k="fixme" v="consider place=hamlet" />
		<tag k="name" v="Ådalsbruk" />
		<tag k="place" v="village" />
		<tag k="ssr:stedsnr" v="191841" />
	</node>
	<node id="-56343" lat="60.8084805575" lon="11.3858638867">
		<tag k="name" v="Flakstad" />
		<tag k="place" v="farm" />
		<tag k="ssr:stedsnr" v="191815" />
	</node>
	<node id="-56342" lat="60.8172083321" lon="11.2926249969">
		<tag k="name" v="Furuset" />
		<tag k="place" v="farm" />
		<tag k="ssr:stedsnr" v="191805" />
	</node>
	<node id="-56341" lat="60.8159138926" lon="11.3256000045">
		<tag k="name" v="Skøyen" />
		<tag k="place" v="farm" />
		<tag k="ssr:stedsnr" v="191800" />
	</node>
	<node id="-56340" lat="60.8230944455" lon="11.3807166604">
		<tag k="alt_name" v="Østre Svea" />
		<tag k="name" v="Svea" />
		<tag k="place" v="farm" />
		<tag k="ssr:stedsnr" v="191787" />
	</node>
	<node id="-56339" lat="60.8241083293" lon="11.2904138961">
		<tag k="name" v="Slettvoll" />
		<tag k="place" v="farm" />
		<tag k="ssr:stedsnr" v="191774" />
	</node>
	<node id="-56338" lat="60.8303111106" lon="11.3785499989">
		<tag k="name" v="Løvhaugen" />
		<tag k="place" v="farm" />
		<tag k="ssr:stedsnr" v="191764" />
	</node>
	<node id="-56337" lat="60.8521583356" lon="11.3772833363">
		<tag k="name" v="Torvestad" />
		<tag k="place" v="farm" />
		<tag k="ssr:stedsnr" v="191706" />
	</node>
	<node id="-56336" lat="60.8509166699" lon="11.3121083278">
		<tag k="name" v="Imsetbakken" />
		<tag k="place" v="farm" />
		<tag k="ssr:stedsnr" v="191700" />
	</node>
	<node id="-56335" lat="60.8624694413" lon="11.28684444">
		<tag k="name" v="Tom" />
		<tag k="place" v="farm" />
		<tag k="ssr:stedsnr" v="191689" />
	</node>
	<node id="-56334" lat="60.8728055555" lon="11.3105583352">
		<tag k="alt_name" v="Nordre Alfei" />
		<tag k="name" v="Alfei" />
		<tag k="place" v="farm" />
		<tag k="ssr:stedsnr" v="191644" />
	</node>
	<node id="-56333" lat="60.8635500008" lon="11.3633944424">
		<tag k="name" v="Brennholen" />
		<tag k="place" v="farm" />
		<tag k="ssr:stedsnr" v="191642" />
	</node>
	<node id="-56331" lat="60.8905479372" lon="11.3624873115">
		<tag k="name" v="Lauveng" />
		<tag k="place" v="farm" />
		<tag k="ssr:stedsnr" v="191605" />
	</node>
	<node id="-56329" lat="60.8820166643" lon="11.3685944429">
		<tag k="alt_name" v="Rom, vestre" />
		<tag k="name" v="Vestre Rom" />
		<tag k="place" v="farm" />
		<tag k="ssr:stedsnr" v="191587" />
	</node>
	<node id="-56323" lat="60.7757805521" lon="11.4854888978">
		<tag k="name" v="Sandbekk" />
		<tag k="place" v="farm" />
		<tag k="ssr:stedsnr" v="191291" />
	</node>
	<node id="-56322" lat="60.7414277788" lon="11.5998638883">
		<tag k="name" v="Holtet" />
		<tag k="place" v="farm" />
		<tag k="ssr:stedsnr" v="189438" />
	</node>
	<node id="-56320" lat="60.7478361101" lon="11.5702472205">
		<tag k="name" v="Bekkevoll" />
		<tag k="place" v="farm" />
		<tag k="ssr:stedsnr" v="189430" />
	</node>
	<node id="-56319" lat="60.7421305566" lon="11.5923611157">
		<tag k="name" v="Elstad" />
		<tag k="place" v="farm" />
		<tag k="ssr:stedsnr" v="189426" />
	</node>
	<node id="-56318" lat="60.7464638866" lon="11.5114083269">
		<tag k="name" v="Østlund" />
		<tag k="place" v="farm" />
		<tag k="ssr:stedsnr" v="189421" />
	</node>
	<node id="-56317" lat="60.7151555581" lon="11.6162416759">
		<tag k="name" v="Torpsaga" />
		<tag k="place" v="isolated_dwelling" />
		<tag k="ssr:stedsnr" v="189279" />
	</node>
	<node id="-56316" lat="60.7180861154" lon="11.4941388964">
		<tag k="name" v="Vellumstadbråten" />
		<tag k="place" v="farm" />
		<tag k="ssr:stedsnr" v="189274" />
	</node>
	<node id="-56315" lat="60.7107611078" lon="11.5188694419">
		<tag k="alt_name" v="Skuggerudkoia" />
		<tag k="name" v="Skuggerud" />
		<tag k="place" v="isolated_dwelling" />
		<tag k="ssr:stedsnr" v="189269" />
	</node>
	<node id="-56313" lat="60.7932083288" lon="11.3353277819">
		<tag k="name" v="Godal" />
		<tag k="place" v="farm" />
		<tag k="ssr:stedsnr" v="170934" />
	</node>
	<node id="-56312" lat="60.8363055566" lon="11.3249277738">
		<tag k="name" v="Klammerbakken" />
		<tag k="place" v="farm" />
		<tag k="ssr:stedsnr" v="170923" />
	</node>
	<node id="-56311" lat="60.9579444468" lon="11.3423361182">
		<tag k="name" v="Plankkoia" />
		<tag k="place" v="isolated_dwelling" />
		<tag k="ssr:stedsnr" v="170827" />
	</node>
	<node id="-56310" lat="60.8162861156" lon="11.4786472188">
		<tag k="name" v="Stålsætrerkoia" />
		<tag k="place" v="isolated_dwelling" />
		<tag k="ssr:stedsnr" v="170820" />
	</node>
	<node id="-56309" lat="60.9256972208" lon="11.3250777832">
		<tag k="name" v="Værelsvolla" />
		<tag k="place" v="isolated_dwelling" />
		<tag k="ssr:stedsnr" v="170815" />
	</node>
	<node id="-56308" lat="60.7723055555" lon="11.4800944359">
		<tag k="name" v="Søndre Roko" />
		<tag k="place" v="farm" />
		<tag k="ssr:stedsnr" v="170772" />
	</node>
	<node id="-56305" lat="60.8680333306" lon="11.3843222273">
		<tag k="name" v="Ekrumshagen" />
		<tag k="place" v="farm" />
		<tag k="ssr:stedsnr" v="170967" />
	</node>
	<node id="-56304" lat="60.8203861146" lon="11.3282416665">
		<tag k="name" v="Vangli" />
		<tag k="place" v="farm" />
		<tag k="ssr:stedsnr" v="170889" />
	</node>
	<node id="-56303" lat="60.8241666698" lon="11.3531111167">
		<tag k="name" v="Søndre Spånestad" />
		<tag k="place" v="farm" />
		<tag k="ssr:stedsnr" v="170879" />
	</node>
	<node id="-56302" lat="60.7790638901" lon="11.3562694393">
		<tag k="name" v="Torelykkja" />
		<tag k="place" v="farm" />
		<tag k="ssr:stedsnr" v="170622" />
	</node>
	<node id="-56301" lat="60.827452774" lon="11.2834055481">
		<tag k="name" v="Sveberg" />
		<tag k="place" v="farm" />
		<tag k="ssr:stedsnr" v="170620" />
	</node>
	<node id="-56300" lat="60.8312944405" lon="11.26873888">
		<tag k="name" v="Grotten" />
		<tag k="place" v="farm" />
		<tag k="ssr:stedsnr" v="170617" />
	</node>
	<node id="-56284" lat="60.7751111136" lon="11.4745611187">
		<tag k="name" v="Østre Roko" />
		<tag k="place" v="farm" />
		<tag k="ssr:stedsnr" v="162995" />
	</node>
	<node id="-56282" lat="60.8259222257" lon="11.3492305629">
		<tag k="name" v="Karudhagan" />
		<tag k="place" v="quarter" />
		<tag k="ssr:stedsnr" v="170403" />
	</node>
	<node id="-56280" lat="60.8322833344" lon="11.3081305537">
		<tag k="name" v="Slettmoen" />
		<tag k="place" v="quarter" />
		<tag k="ssr:stedsnr" v="144994" />
	</node>
	<node id="-56279" lat="60.8411527745" lon="11.3638194455">
		<tag k="name" v="Sigstad" />
		<tag k="place" v="farm" />
		<tag k="ssr:stedsnr" v="131800" />
	</node>
	<node id="-56278" lat="60.8370166655" lon="11.3092250003">
		<tag k="alt_name" v="Gammalsrud" />
		<tag k="name" v="Gammelsrud" />
		<tag k="place" v="farm" />
		<tag k="ssr:stedsnr" v="131797" />
	</node>
	<node id="-56277" lat="60.8721611127" lon="11.4415027696">
		<tag k="name" v="Tobru" />
		<tag k="place" v="farm" />
		<tag k="ssr:stedsnr" v="131677" />
	</node>
	<node id="-56274" lat="60.7871166671" lon="11.4923555563">
		<tag k="name" v="Rokoskogen" />
		<tag k="place" v="farm" />
		<tag k="ssr:stedsnr" v="131353" />
	</node>
	<node id="-56273" lat="60.7677250001" lon="11.4141444441">
		<tag k="name" v="Baståskoia" />
		<tag k="place" v="isolated_dwelling" />
		<tag k="ssr:stedsnr" v="130947" />
	</node>
	<node id="-56272" lat="60.7894722251" lon="11.2447583297">
		<tag k="name" v="Sønsterud" />
		<tag k="place" v="farm" />
		<tag k="ssr:stedsnr" v="130899" />
	</node>
	<node id="-56271" lat="60.7879472215" lon="11.2687416722">
		<tag k="name" v="Sandberg" />
		<tag k="place" v="farm" />
		<tag k="ssr:stedsnr" v="130890" />
	</node>
	<node id="-56268" lat="60.7960500029" lon="11.3238638968">
		<tag k="name" v="Kurud" />
		<tag k="place" v="farm" />
		<tag k="ssr:stedsnr" v="130849" />
	</node>
	<node id="-56267" lat="60.8088138917" lon="11.3101916702">
		<tag k="name" v="Kjels-Rustad" />
		<tag k="place" v="farm" />
		<tag k="ssr:stedsnr" v="130839" />
	</node>
	<node id="-56266" lat="60.8013138895" lon="11.3388055545">
		<tag k="name" v="Finnstadsvea" />
		<tag k="place" v="farm" />
		<tag k="ssr:stedsnr" v="130831" />
	</node>
	<node id="-56265" lat="60.8090527789" lon="11.2656027789">
		<tag k="name" v="Hestvoll" />
		<tag k="place" v="farm" />
		<tag k="ssr:stedsnr" v="130823" />
	</node>
	<node id="-56264" lat="60.8146888851" lon="11.3878166711">
		<tag k="name" v="Hagastua" />
		<tag k="place" v="farm" />
		<tag k="ssr:stedsnr" v="130813" />
	</node>
	<node id="-56263" lat="60.8262249999" lon="11.3856055603">
		<tag k="name" v="Bjørnstad" />
		<tag k="place" v="farm" />
		<tag k="ssr:stedsnr" v="130785" />
	</node>
	<node id="-56262" lat="60.8227111071" lon="11.2897277751">
		<tag k="name" v="Nervoll" />
		<tag k="place" v="farm" />
		<tag k="ssr:stedsnr" v="130778" />
	</node>
	<node id="-56261" lat="60.8246222234" lon="11.3154333405">
		<tag k="alt_name" v="Østre Norderhov" />
		<tag k="name" v="Norderhov" />
		<tag k="place" v="farm" />
		<tag k="ssr:stedsnr" v="130772" />
	</node>
	<node id="-56260" lat="60.8267472199" lon="11.3697666724">
		<tag k="name" v="Tangnes" />
		<tag k="place" v="farm" />
		<tag k="ssr:stedsnr" v="130762" />
	</node>
	<node id="-56259" lat="60.8490138874" lon="11.3379833369">
		<tag k="name" v="Nordvoll" />
		<tag k="place" v="farm" />
		<tag k="ssr:stedsnr" v="130706" />
	</node>
	<node id="-56257" lat="60.851097226" lon="11.4031999913">
		<tag k="name" v="Høyås" />
		<tag k="place" v="farm" />
		<tag k="ssr:stedsnr" v="130704" />
	</node>
	<node id="-56256" lat="60.8548388869" lon="11.4658138867">
		<tag k="alt_name" v="Strømlikoia" />
		<tag k="name" v="Strømslikoia" />
		<tag k="place" v="locality" />
		<tag k="ssr:stedsnr" v="130689" />
	</node>
	<node id="-56255" lat="60.8657194429" lon="11.3178194513">
		<tag k="alt_name" v="Nordre Torp" />
		<tag k="name" v="Torp" />
		<tag k="place" v="farm" />
		<tag k="ssr:stedsnr" v="130669" />
	</node>
	<node id="-56254" lat="60.8680916664" lon="11.4296055636">
		<tag k="name" v="Østrått" />
		<tag k="place" v="isolated_dwelling" />
		<tag k="ssr:stedsnr" v="130660" />
	</node>
	<node id="-56253" lat="60.8807749999" lon="11.2925222213">
		<tag k="name" v="Stenberg" />
		<tag k="place" v="farm" />
		<tag k="ssr:stedsnr" v="130634" />
	</node>
	<node id="-56252" lat="60.8775250002" lon="11.3279444366">
		<tag k="name" v="Kvernenga" />
		<tag k="place" v="farm" />
		<tag k="ssr:stedsnr" v="130631" />
	</node>
	<node id="-56251" lat="60.8804500024" lon="11.3223750041">
		<tag k="name" v="Langenga" />
		<tag k="place" v="isolated_dwelling" />
		<tag k="ssr:stedsnr" v="130632" />
	</node>
	<node id="-56250" lat="60.8917138923" lon="11.3088666697">
		<tag k="alt_name" v="Linsvemyren" />
		<tag k="name" v="Myre" />
		<tag k="place" v="farm" />
		<tag k="ssr:stedsnr" v="130615" />
	</node>
	<node id="-56249" lat="60.9034222254" lon="11.2795638879">
		<tag k="name" v="Nordby" />
		<tag k="place" v="farm" />
		<tag k="ssr:stedsnr" v="130588" />
	</node>
	<node id="-56245" lat="60.9508611112" lon="11.2930222137">
		<tag k="name" v="Budor" />
		<tag k="place" v="hamlet" />
		<tag k="ssr:stedsnr" v="130544" />
	</node>
	<node id="-56243" lat="60.7931861147" lon="11.470663883">
		<tag k="name" v="Haverbekken" />
		<tag k="place" v="farm" />
		<tag k="ssr:stedsnr" v="130325" />
	</node>
	<node id="-56242" lat="60.791827782" lon="11.4779833282">
		<tag k="name" v="Johanstad" />
		<tag k="place" v="farm" />
		<tag k="ssr:stedsnr" v="130324" />
	</node>
	<node id="-56240" lat="60.8190498498" lon="11.470339789">
		<tag k="fixme" v="consider tourism=alpine_hut or tourism=chalet" />
		<tag k="name" v="Småsætra" />
		<tag k="ssr:stedsnr" v="130278" />
		<tag k="tourism" v="wilderness_hut" />
	</node>
	<node id="-56239" lat="60.7427722185" lon="11.5833083365">
		<tag k="name" v="Hanakne" />
		<tag k="place" v="farm" />
		<tag k="ssr:stedsnr" v="128430" />
	</node>
	<node id="-56238" lat="60.7440361084" lon="11.5740333242">
		<tag k="alt_name" v="Høgsveen" />
		<tag k="name" v="Høgsvea" />
		<tag k="place" v="farm" />
		<tag k="ssr:stedsnr" v="128429" />
	</node>
	<node id="-56237" lat="60.7096083306" lon="11.5343222296">
		<tag k="name" v="Bjørnstadkoia" />
		<tag k="place" v="isolated_dwelling" />
		<tag k="ssr:stedsnr" v="128277" />
	</node>
	<node id="-56236" lat="60.7147777803" lon="11.5708305551">
		<tag k="name" v="Stegamyrkoia" />
		<tag k="place" v="isolated_dwelling" />
		<tag k="ssr:stedsnr" v="128274" />
	</node>
	<node id="-56234" lat="60.6999777797" lon="11.5279555633">
		<tag k="name" v="Skallbergsætra" />
		<tag k="place" v="locality" />
		<tag k="ssr:stedsnr" v="128228" />
	</node>
	<node id="-56233" lat="60.8190722222" lon="11.4703638812">
		<tag k="historic" v="shieling" />
		<tag k="name" v="Små" />
		<tag k="place" v="locality" />
		<tag k="ssr:stedsnr" v="117494" />
	</node>
	<node id="-56231" lat="60.8679527783" lon="11.3659861119">
		<tag k="name" v="Jønsrud" />
		<tag k="place" v="farm" />
		<tag k="ssr:stedsnr" v="110970" />
	</node>
	<node id="-56230" lat="60.7910833291" lon="11.3382055511">
		<tag k="name" v="Moen" />
		<tag k="place" v="farm" />
		<tag k="ssr:stedsnr" v="110931" />
	</node>
	<node id="-56229" lat="60.8324888846" lon="11.3594638884">
		<tag k="name" v="Skålerud" />
		<tag k="place" v="farm" />
		<tag k="ssr:stedsnr" v="110926" />
	</node>
	<node id="-56228" lat="60.8267749964" lon="11.3532833353">
		<tag k="name" v="Myrvoll" />
		<tag k="place" v="farm" />
		<tag k="ssr:stedsnr" v="110900" />
	</node>
	<node id="-56227" lat="60.8181888921" lon="11.3854666589">
		<tag k="name" v="Østerhaug" />
		<tag k="place" v="farm" />
		<tag k="ssr:stedsnr" v="110883" />
	</node>
	<node id="-56223" lat="60.7892444434" lon="11.3038388819">
		<tag k="building" v="industrial" />
		<tag k="name" v="Nyhuset bruk" />
		<tag k="ssr:stedsnr" v="110647" />
	</node>
	<node id="-56221" lat="60.8633472208" lon="11.3032444392">
		<tag k="name" v="Lille Tomte" />
		<tag k="place" v="farm" />
		<tag k="ssr:stedsnr" v="110620" />
	</node>
	<node id="-56220" lat="60.8197" lon="11.2755499967">
		<tag k="name" v="Svestua" />
		<tag k="place" v="farm" />
		<tag k="ssr:stedsnr" v="110607" />
	</node>
	<node id="-56212" lat="60.7879333355" lon="11.3293944399">
		<tag k="amenity" v="school" />
		<tag k="name" v="Ådalsbruk skole" />
		<tag k="ssr:stedsnr" v="110498" />
	</node>
	<node id="-56211" lat="60.7988777741" lon="11.3119750045">
		<tag k="name" v="Sørhagen" />
		<tag k="place" v="farm" />
		<tag k="ssr:stedsnr" v="110478" />
	</node>
	<node id="-56208" lat="60.8176999993" lon="11.3433111154">
		<tag k="amenity" v="townhall" />
		<tag k="name" v="Tingberg" />
		<tag k="ssr:stedsnr" v="110427" />
	</node>
	<node id="-56206" lat="60.7545388882" lon="11.5655694456">
		<tag k="name" v="Solås" />
		<tag k="place" v="isolated_dwelling" />
		<tag k="ssr:stedsnr" v="110302" />
	</node>
	<node id="-56205" lat="60.7588555543" lon="11.5535388936">
		<tag k="name" v="Nedre Bakken" />
		<tag k="place" v="farm" />
		<tag k="ssr:stedsnr" v="110793" />
	</node>
	<node id="-56204" lat="60.7276972264" lon="11.5382444374">
		<tag k="name" v="Skjervkoia" />
		<tag k="place" v="isolated_dwelling" />
		<tag k="ssr:stedsnr" v="110785" />
	</node>
	<node id="-56203" lat="60.7232611146" lon="11.5635694485">
		<tag k="name" v="Nykoia" />
		<tag k="place" v="isolated_dwelling" />
		<tag k="ssr:stedsnr" v="110784" />
	</node>
	<node id="-56202" lat="60.7482472217" lon="11.4377138821">
		<tag k="name" v="Svarthattmyrkoia" />
		<tag k="place" v="isolated_dwelling" />
		<tag k="ssr:stedsnr" v="110766" />
	</node>
	<node id="-56200" lat="60.9097444415" lon="11.3761861023">
		<tag k="name" v="Bakketun" />
		<tag k="place" v="isolated_dwelling" />
		<tag k="ssr:stedsnr" v="109775" />
	</node>
	<node id="-56199" lat="60.7975583351" lon="11.4318666617">
		<tag k="name" v="Sandbekken" />
		<tag k="place" v="farm" />
		<tag k="ssr:stedsnr" v="109760" />
	</node>
	<node id="-56195" lat="60.8714611093" lon="11.3130416582">
		<tag k="name" v="Østre Alfei" />
		<tag k="place" v="farm" />
		<tag k="ssr:stedsnr" v="107450" />
	</node>
	<node id="-56189" lat="60.8652194481" lon="11.2845750073">
		<tag k="name" v="Hovinsløkken" />
		<tag k="place" v="farm" />
		<tag k="ssr:stedsnr" v="97658" />
	</node>
	<node id="-56187" lat="60.7957000037" lon="11.3664222232">
		<tag k="name" v="Trømnes" />
		<tag k="place" v="farm" />
		<tag k="ssr:stedsnr" v="70854" />
	</node>
	<node id="-56186" lat="60.8248999984" lon="11.3253500036">
		<tag k="name" v="Ven" />
		<tag k="place" v="farm" />
		<tag k="ssr:stedsnr" v="70800" />
	</node>
	<node id="-56185" lat="60.8312861146" lon="11.3843250072">
		<tag k="alt_name" v="Liven søndre" />
		<tag k="name" v="Liva" />
		<tag k="place" v="farm" />
		<tag k="ssr:stedsnr" v="70794" />
	</node>
	<node id="-56184" lat="60.8300055517" lon="11.3298055573">
		<tag k="name" v="Grøholt" />
		<tag k="place" v="farm" />
		<tag k="ssr:stedsnr" v="70787" />
	</node>
	<node id="-56183" lat="60.8422583325" lon="11.3266472201">
		<tag k="alt_name" v="Rømma, østre;Rømma" />
		<tag k="name" v="Østre Rømma" />
		<tag k="place" v="farm" />
		<tag k="ssr:stedsnr" v="70767" />
	</node>
	<node id="-56182" lat="60.8597083334" lon="11.3038861072">
		<tag k="name" v="Vesterhagen" />
		<tag k="place" v="farm" />
		<tag k="ssr:stedsnr" v="70745" />
	</node>
	<node id="-56181" lat="60.8540055522" lon="11.3709750085">
		<tag k="name" v="Heimstad" />
		<tag k="place" v="farm" />
		<tag k="ssr:stedsnr" v="70741" />
	</node>
	<node id="-56180" lat="60.8943194447" lon="11.373838898">
		<tag k="name" v="Petersborg" />
		<tag k="place" v="farm" />
		<tag k="ssr:stedsnr" v="70644" />
	</node>
	<node id="-56179" lat="60.8710861116" lon="11.3803305627">
		<tag k="alt_name" v="Søndre Sagåbakken" />
		<tag k="name" v="Sagåbakken" />
		<tag k="place" v="farm" />
		<tag k="ssr:stedsnr" v="70635" />
	</node>
	<node id="-56178" lat="60.8805722204" lon="11.3761527832">
		<tag k="name" v="Smedstad" />
		<tag k="place" v="farm" />
		<tag k="ssr:stedsnr" v="70626" />
	</node>
	<node id="-56177" lat="60.9388611109" lon="11.3825666611">
		<tag k="name" v="Sloken" />
		<tag k="place" v="hamlet" />
		<tag k="ssr:stedsnr" v="70607" />
	</node>
	<node id="-56176" lat="60.9282250003" lon="11.2388555617">
		<tag k="name" v="Bårdsætra" />
		<tag k="place" v="hamlet" />
		<tag k="ssr:stedsnr" v="70600" />
	</node>
	<node id="-56172" lat="60.871616671" lon="11.2860083407">
		<tag k="name" v="Nordli" />
		<tag k="place" v="farm" />
		<tag k="ssr:stedsnr" v="70709" />
	</node>
	<node id="-56171" lat="60.8641472226" lon="11.2826555515">
		<tag k="alt_name" v="Hovinsveen" />
		<tag k="name" v="Hovinsvea" />
		<tag k="place" v="farm" />
		<tag k="ssr:stedsnr" v="70708" />
	</node>
	<node id="-56170" lat="60.86865278" lon="11.3597750038">
		<tag k="name" v="Stensrud" />
		<tag k="place" v="farm" />
		<tag k="ssr:stedsnr" v="70699" />
	</node>
	<node id="-56169" lat="60.8674222264" lon="11.3449111134">
		<tag k="alt_name" v="Rogstad, l" />
		<tag k="name" v="Lille Rogstad" />
		<tag k="place" v="farm" />
		<tag k="ssr:stedsnr" v="70697" />
	</node>
	<node id="-56168" lat="60.8645027749" lon="11.4185749939">
		<tag k="building" v="industrial" />
		<tag k="industrial" v="factory" />
		<tag k="name" v="Ebru sag" />
		<tag k="ssr:stedsnr" v="70693" />
	</node>
	<node id="-56167" lat="60.8749527798" lon="11.3380555489">
		<tag k="alt_name" v="Langset, s;Vestre Langset" />
		<tag k="name" v="Søndre Langset" />
		<tag k="place" v="farm" />
		<tag k="ssr:stedsnr" v="70670" />
	</node>
	<node id="-56166" lat="60.8709999983" lon="11.4510500063">
		<tag k="alt_name" v="Enerholm" />
		<tag k="name" v="Enerholmen" />
		<tag k="place" v="farm" />
		<tag k="ssr:stedsnr" v="70657" />
	</node>
	<node id="-56165" lat="60.8782583363" lon="11.3713388863">
		<tag k="name" v="Stenberg" />
		<tag k="place" v="farm" />
		<tag k="ssr:stedsnr" v="70652" />
	</node>
	<node id="-56164" lat="60.7546194486" lon="11.564180556">
		<tag k="name" v="Bekk" />
		<tag k="place" v="farm" />
		<tag k="ssr:stedsnr" v="70386" />
	</node>
	<node id="-56162" lat="60.7521111097" lon="11.5713583278">
		<tag k="alt_name" v="Nedre Solberg" />
		<tag k="name" v="Solberg" />
		<tag k="place" v="farm" />
		<tag k="ssr:stedsnr" v="70384" />
	</node>
	<node id="-56161" lat="60.7729749976" lon="11.5418249919">
		<tag k="name" v="Monsrud" />
		<tag k="place" v="farm" />
		<tag k="ssr:stedsnr" v="70294" />
	</node>
	<node id="-56160" lat="60.7386055519" lon="11.581763893">
		<tag k="name" v="Totberget" />
		<tag k="place" v="farm" />
		<tag k="ssr:stedsnr" v="68484" />
	</node>
	<node id="-56159" lat="60.717558334" lon="11.5557388872">
		<tag k="name" v="Prestgardkoia" />
		<tag k="place" v="isolated_dwelling" />
		<tag k="ssr:stedsnr" v="68315" />
	</node>
	<node id="-56156" lat="60.6986611093" lon="11.6131583365">
		<tag k="alt_name" v="Nordre Bendikkoia" />
		<tag k="name" v="Bendikkoia" />
		<tag k="place" v="isolated_dwelling" />
		<tag k="ssr:stedsnr" v="68263" />
	</node>
	<node id="-56153" lat="60.7448638925" lon="11.5081083249">
		<tag k="name" v="Nøkleby" />
		<tag k="place" v="farm" />
		<tag k="ssr:stedsnr" v="67462" />
	</node>
	<node id="-56152" lat="60.7927805543" lon="11.3259055519">
		<tag k="name" v="Bjørnstad" />
		<tag k="place" v="farm" />
		<tag k="ssr:stedsnr" v="49923" />
	</node>
	<node id="-56150" lat="60.823049997" lon="11.4466777831">
		<tag k="name" v="Mosjøberget" />
		<tag k="place" v="locality" />
		<tag k="ssr:stedsnr" v="49863" />
	</node>
	<node id="-56149" lat="60.825491663" lon="11.3553416674">
		<tag k="name" v="Nordre Spånestad" />
		<tag k="place" v="farm" />
		<tag k="ssr:stedsnr" v="49853" />
	</node>
	<node id="-56148" lat="60.8736722258" lon="11.3726750083">
		<tag k="name" v="Nordre Kongstorp" />
		<tag k="place" v="locality" />
		<tag k="ssr:stedsnr" v="49850" />
	</node>
	<node id="-56147" lat="60.872730554" lon="11.3731750004">
		<tag k="alt_name" v="Søndre Kongstorp;Kongletorp" />
		<tag k="name" v="Kongstorp" />
		<tag k="place" v="farm" />
		<tag k="ssr:stedsnr" v="49849" />
	</node>
	<node id="-56146" lat="60.8922194465" lon="11.3727055635">
		<tag k="name" v="Nordre Petersborg" />
		<tag k="place" v="farm" />
		<tag k="ssr:stedsnr" v="49847" />
	</node>
	<node id="-56145" lat="60.8122583311" lon="11.3620750077">
		<tag k="name" v="Østre Enge" />
		<tag k="place" v="farm" />
		<tag k="ssr:stedsnr" v="49845" />
	</node>
	<node id="-56144" lat="60.6991666704" lon="11.5678805633">
		<tag k="name" v="Holmkoia" />
		<tag k="place" v="isolated_dwelling" />
		<tag k="ssr:stedsnr" v="49782" />
	</node>
	<node id="-56143" lat="60.7379999982" lon="11.4879222274">
		<tag k="name" v="Engesveen" />
		<tag k="place" v="farm" />
		<tag k="ssr:stedsnr" v="49779" />
	</node>
	<node id="-56142" lat="60.7963416708" lon="11.314236107">
		<tag k="name" v="Englaugsmoen" />
		<tag k="place" v="farm" />
		<tag k="ssr:stedsnr" v="49629" />
	</node>
	<node id="-56141" lat="60.8500916685" lon="11.2989027688">
		<tag k="name" v="Imsethagen" />
		<tag k="place" v="farm" />
		<tag k="ssr:stedsnr" v="49619" />
	</node>
	<node id="-56128" lat="60.8466305575" lon="11.3942861088">
		<tag k="name" v="Brenna" />
		<tag k="place" v="farm" />
		<tag k="ssr:stedsnr" v="49510" />
	</node>
	<node id="-56127" lat="60.8244333369" lon="11.3634694506">
		<tag k="name" v="Hovsødegården" />
		<tag k="place" v="isolated_dwelling" />
		<tag k="ssr:stedsnr" v="49488" />
	</node>
	<node id="-56122" lat="60.843347218" lon="11.3495361081">
		<tag k="name" v="Nedre Kroksti" />
		<tag k="place" v="farm" />
		<tag k="ssr:stedsnr" v="48979" />
	</node>
	<node id="-56121" lat="60.8553111078" lon="11.3895583344">
		<tag k="name" v="Sterud" />
		<tag k="place" v="farm" />
		<tag k="ssr:stedsnr" v="48956" />
	</node>
	<node id="-56120" lat="60.8320555592" lon="11.3656888862">
		<tag k="name" v="Ullermyra" />
		<tag k="place" v="farm" />
		<tag k="ssr:stedsnr" v="48946" />
	</node>
	<node id="-56119" lat="60.9948833297" lon="11.296130551">
		<tag k="name" v="Svarttjernskoia" />
		<tag k="place" v="isolated_dwelling" />
		<tag k="ssr:stedsnr" v="48797" />
	</node>
	<node id="-56118" lat="60.9060166701" lon="11.4035555627">
		<tag k="name" v="Fuglholskoia" />
		<tag k="place" v="locality" />
		<tag k="ssr:stedsnr" v="48786" />
	</node>
	<node id="-56112" lat="60.7866083308" lon="11.353277783">
		<tag k="name" v="Nedre Heggen" />
		<tag k="place" v="farm" />
		<tag k="ssr:stedsnr" v="41656" />
	</node>
	<node id="-56111" lat="60.928066664" lon="11.2997249988">
		<tag k="leisure" v="pitch" />
		<tag k="name" v="Budor skistadion" />
		<tag k="ssr:stedsnr" v="41605" />
	</node>
	<node id="-56110" lat="60.9836472201" lon="11.2389416606">
		<tag k="fixme" v="consider tourism=alpine_hut or tourism=chalet" />
		<tag k="name" v="Målia" />
		<tag k="ssr:stedsnr" v="25140" />
		<tag k="tourism" v="wilderness_hut" />
	</node>
	<node id="-56109" lat="60.7734249995" lon="11.3428333388">
		<tag k="alt_name" v="Nygård" />
		<tag k="name" v="Nygard" />
		<tag k="place" v="farm" />
		<tag k="ssr:stedsnr" v="9919" />
	</node>
	<node id="-56108" lat="60.778822221" lon="11.3562138854">
		<tag k="name" v="Torelykkja" />
		<tag k="place" v="farm" />
		<tag k="ssr:stedsnr" v="9899" />
	</node>
	<node id="-56107" lat="60.7780722195" lon="11.333400005">
		<tag k="name" v="Ådalssvea" />
		<tag k="place" v="farm" />
		<tag k="ssr:stedsnr" v="9892" />
	</node>
	<node id="-56106" lat="60.7991222239" lon="11.3720249964">
		<tag k="alt_name" v="Østre Holen" />
		<tag k="name" v="Holen" />
		<tag k="place" v="farm" />
		<tag k="ssr:stedsnr" v="9869" />
	</node>
	<node id="-56105" lat="60.799844443" lon="11.3835861136">
		<tag k="name" v="Vealund" />
		<tag k="place" v="farm" />
		<tag k="ssr:stedsnr" v="9858" />
	</node>
	<node id="-56104" lat="60.8186555536" lon="11.2745944521">
		<tag k="name" v="Ødegard" />
		<tag k="place" v="farm" />
		<tag k="ssr:stedsnr" v="9829" />
	</node>
	<node id="-56102" lat="60.8331333369" lon="11.3860444467">
		<tag k="alt_name" v="Roset, s" />
		<tag k="name" v="Søndre Roset" />
		<tag k="place" v="farm" />
		<tag k="ssr:stedsnr" v="9795" />
	</node>
	<node id="-56101" lat="60.8367361137" lon="11.3595194501">
		<tag k="alt_name" v="Skramstadødegården" />
		<tag k="name" v="Øgarden" />
		<tag k="place" v="farm" />
		<tag k="ssr:stedsnr" v="9777" />
	</node>
	<node id="-56100" lat="60.8610111072" lon="11.3168333397">
		<tag k="name" v="Hovin" />
		<tag k="place" v="farm" />
		<tag k="ssr:stedsnr" v="9743" />
	</node>
	<node id="-56097" lat="60.8499555542" lon="11.2932222167">
		<tag k="name" v="Nystua" />
		<tag k="place" v="farm" />
		<tag k="ssr:stedsnr" v="9725" />
	</node>
	<node id="-56096" lat="60.8651250026" lon="11.3478555561">
		<tag k="alt_name" v="Rogstad, store;Rogstad" />
		<tag k="name" v="Store Rogstad" />
		<tag k="place" v="farm" />
		<tag k="ssr:stedsnr" v="9697" />
	</node>
	<node id="-56095" lat="60.8769222265" lon="11.3435999998">
		<tag k="alt_name" v="Langset, nordre;Østre Langset" />
		<tag k="name" v="Nordre Langset" />
		<tag k="place" v="farm" />
		<tag k="ssr:stedsnr" v="9669" />
	</node>
	<node id="-56094" lat="60.8759611082" lon="11.4513749945">
		<tag k="name" v="Lundgard" />
		<tag k="place" v="farm" />
		<tag k="ssr:stedsnr" v="9663" />
	</node>
	<node id="-56093" lat="60.8949722265" lon="11.358180556">
		<tag k="name" v="Fuglebrenna" />
		<tag k="place" v="farm" />
		<tag k="ssr:stedsnr" v="9649" />
	</node>
	<node id="-56092" lat="60.8917611101" lon="11.3254611199">
		<tag k="alt_name" v="Svartbekken, nordre" />
		<tag k="name" v="Nordre Svartbekken" />
		<tag k="place" v="farm" />
		<tag k="ssr:stedsnr" v="9642" />
	</node>
	<node id="-56090" lat="60.9033305576" lon="11.3295861143">
		<tag k="alt_name" v="Foskumslåtten" />
		<tag k="name" v="Foskomslåtten" />
		<tag k="place" v="farm" />
		<tag k="ssr:stedsnr" v="9597" />
	</node>
	<node id="-56086" lat="60.7503249998" lon="11.5875333358">
		<tag k="name" v="Øverby" />
		<tag k="place" v="isolated_dwelling" />
		<tag k="ssr:stedsnr" v="9391" />
	</node>
	<node id="-56085" lat="60.7681611083" lon="11.5695055482">
		<tag k="name" v="Haratjennskoia" />
		<tag k="place" v="isolated_dwelling" />
		<tag k="ssr:stedsnr" v="9318" />
	</node>
	<node id="-56084" lat="60.7419527816" lon="11.5749694403">
		<tag k="alt_name" v="Totbergsbråten" />
		<tag k="name" v="Bråten" />
		<tag k="place" v="farm" />
		<tag k="ssr:stedsnr" v="7455" />
	</node>
	<node id="-56083" lat="60.7420250022" lon="11.5104749957">
		<tag k="name" v="Hagen" />
		<tag k="place" v="farm" />
		<tag k="ssr:stedsnr" v="7453" />
	</node>
	<node id="-56082" lat="60.7165777787" lon="11.5255916673">
		<tag k="name" v="Nysvekoia" />
		<tag k="place" v="isolated_dwelling" />
		<tag k="ssr:stedsnr" v="7304" />
	</node>
	<node id="-56080" lat="60.7355666639" lon="11.4497583306">
		<tag k="name" v="Dammen" />
		<tag k="place" v="farm" />
		<tag k="ssr:stedsnr" v="6750" />
	</node>
	<node id="-56076" lat="60.8304666669" lon="11.3895444522">
		<tag k="name" v="Livenhagen" />
		<tag k="place" v="farm" />
		<tag k="ssr:stedsnr" v="413916" />
	</node>
	<node id="-56075" lat="60.9166040762" lon="11.3679995706">
		<tag k="fixme" v="consider tourism=alpine_hut or tourism=chalet" />
		<tag k="name" v="Savalsætra" />
		<tag k="ssr:stedsnr" v="991016" />
		<tag k="tourism" v="wilderness_hut" />
	</node>
	<node id="-56074" lat="60.7488083291" lon="11.4600000015">
		<tag k="name" v="Klingenbergkoia" />
		<tag k="place" v="isolated_dwelling" />
		<tag k="ssr:stedsnr" v="413762" />
	</node>
	<node id="-56073" lat="60.7502888915" lon="11.575911105">
		<tag k="name" v="Bronkebakken" />
		<tag k="place" v="farm" />
		<tag k="ssr:stedsnr" v="899298" />
	</node>
	<node id="-56071" lat="60.8449916702" lon="11.3083277719">
		<tag k="name" v="Lillehagen" />
		<tag k="place" v="farm" />
		<tag k="ssr:stedsnr" v="898987" />
	</node>
	<node id="-56070" lat="60.8717611129" lon="11.4377888854">
		<tag k="name" v="Kjølstad" />
		<tag k="place" v="farm" />
		<tag k="ssr:stedsnr" v="898964" />
	</node>
	<node id="-56069" lat="60.9805083299" lon="11.3191416696">
		<tag k="name" v="Kjørerkoia" />
		<tag k="place" v="isolated_dwelling" />
		<tag k="ssr:stedsnr" v="898804" />
	</node>
	<node id="-56068" lat="60.9259166626" lon="11.420797226">
		<tag k="name" v="Storkoia" />
		<tag k="place" v="isolated_dwelling" />
		<tag k="ssr:stedsnr" v="898796" />
	</node>
	<node id="-56065" lat="60.7238750015" lon="11.51178888">
		<tag k="name" v="Sørsveen" />
		<tag k="place" v="farm" />
		<tag k="ssr:stedsnr" v="888506" />
	</node>
	<node id="-56064" lat="60.8932083291" lon="11.3614222242">
		<tag k="name" v="Løvlia" />
		<tag k="place" v="farm" />
		<tag k="ssr:stedsnr" v="886633" />
	</node>
	<node id="-56063" lat="60.7885194471" lon="11.3275805575">
		<tag k="name" v="Maihaugen" />
		<tag k="place" v="isolated_dwelling" />
		<tag k="ssr:stedsnr" v="474924" />
	</node>
	<node id="-56061" lat="60.827713885" lon="11.3220944406">
		<tag k="name" v="Vennerslyst" />
		<tag k="place" v="farm" />
		<tag k="ssr:stedsnr" v="474909" />
	</node>
	<node id="-56060" lat="60.7740638899" lon="11.3876944472">
		<tag k="name" v="Brennmyrkoia" />
		<tag k="place" v="isolated_dwelling" />
		<tag k="ssr:stedsnr" v="474905" />
	</node>
	<node id="-56059" lat="60.8274444427" lon="11.3739583353">
		<tag k="name" v="Østråt" />
		<tag k="place" v="farm" />
		<tag k="ssr:stedsnr" v="474900" />
	</node>
	<node id="-56058" lat="60.8002194419" lon="11.3215749922">
		<tag k="name" v="Vestre Bjørke" />
		<tag k="place" v="farm" />
		<tag k="ssr:stedsnr" v="474867" />
	</node>
	<node id="-56057" lat="60.8239250039" lon="11.3632472223">
		<tag k="name" v="Midtre Hov" />
		<tag k="place" v="farm" />
		<tag k="ssr:stedsnr" v="474854" />
	</node>
	<node id="-56056" lat="60.743877776" lon="11.5611583315">
		<tag k="name" v="Totbergskoia" />
		<tag k="place" v="isolated_dwelling" />
		<tag k="ssr:stedsnr" v="474772" />
	</node>
	<node id="-56054" lat="60.7685861094" lon="11.5392166607">
		<tag k="name" v="Øvre Kjernsholen" />
		<tag k="place" v="farm" />
		<tag k="ssr:stedsnr" v="474757" />
	</node>
	<node id="-56052" lat="60.8830222198" lon="11.3154249984">
		<tag k="name" v="Nordsetenga" />
		<tag k="place" v="farm" />
		<tag k="ssr:stedsnr" v="474611" />
	</node>
	<node id="-56051" lat="60.8623722188" lon="11.3061222162">
		<tag k="name" v="Bekkelund" />
		<tag k="place" v="isolated_dwelling" />
		<tag k="ssr:stedsnr" v="474595" />
	</node>
	<node id="-56041" lat="60.7649916639" lon="11.3355527687">
		<tag k="name" v="Enga" />
		<tag k="place" v="farm" />
		<tag k="ssr:stedsnr" v="474265" />
	</node>
	<node id="-56040" lat="60.9203444473" lon="11.3049777781">
		<tag k="name" v="Brukoia" />
		<tag k="place" v="locality" />
		<tag k="ssr:stedsnr" v="473806" />
	</node>
	<node id="-56026" lat="60.8609722213" lon="11.2866833265">
		<tag k="name" v="Vestre Tom" />
		<tag k="place" v="farm" />
		<tag k="ssr:stedsnr" v="413597" />
	</node>
	<node id="-56023" lat="60.8697138851" lon="11.3674055543">
		<tag k="amenity" v="school" />
		<tag k="name" v="Jønsrud" />
		<tag k="ssr:stedsnr" v="413541" />
	</node>
	<node id="-56013" lat="60.8294999986" lon="11.3034777822">
		<tag k="name" v="Skauen" />
		<tag k="place" v="quarter" />
		<tag k="ssr:stedsnr" v="413398" />
	</node>
	<node id="-56012" lat="60.7518166666" lon="11.5754666706">
		<tag k="name" v="Øvre Solberg" />
		<tag k="place" v="farm" />
		<tag k="ssr:stedsnr" v="413315" />
	</node>
	<node id="-56008" lat="60.9228166694" lon="11.3668638958">
		<tag k="name" v="Høglikoia" />
		<tag k="place" v="locality" />
		<tag k="ssr:stedsnr" v="412761" />
	</node>
	<node id="-56007" lat="60.7715500012" lon="11.402697218">
		<tag k="name" v="Østre Grønsvea" />
		<tag k="place" v="farm" />
		<tag k="ssr:stedsnr" v="405916" />
	</node>
	<node id="-56005" lat="60.7385833349" lon="11.4961333371">
		<tag k="fixme" v="consider place=hamlet" />
		<tag k="name" v="Oppegård" />
		<tag k="place" v="village" />
		<tag k="ssr:stedsnr" v="389003" />
	</node>
	<node id="-56003" lat="60.7672222255" lon="11.3979833318">
		<tag k="name" v="Grønsvea" />
		<tag k="place" v="farm" />
		<tag k="ssr:stedsnr" v="373958" />
	</node>
	<node id="-56002" lat="60.7672999976" lon="11.3345805514">
		<tag k="name" v="Knutsdalen" />
		<tag k="place" v="farm" />
		<tag k="ssr:stedsnr" v="373938" />
	</node>
	<node id="-56001" lat="60.7747138896" lon="11.3590166615">
		<tag k="name" v="Kollset" />
		<tag k="place" v="farm" />
		<tag k="ssr:stedsnr" v="373918" />
	</node>
	<node id="-56000" lat="60.7960027792" lon="11.3798444501">
		<tag k="name" v="Bekkelund" />
		<tag k="place" v="farm" />
		<tag k="ssr:stedsnr" v="373888" />
	</node>
	<node id="-55999" lat="60.8044361143" lon="11.4096277727">
		<tag k="name" v="Stubberud" />
		<tag k="place" v="farm" />
		<tag k="ssr:stedsnr" v="373877" />
	</node>
	<node id="-55998" lat="60.8030694427" lon="11.3047944354">
		<tag k="alt_name" v="Nordre Ommang" />
		<tag k="name" v="Ommang" />
		<tag k="place" v="farm" />
		<tag k="ssr:stedsnr" v="373864" />
	</node>
	<node id="-55997" lat="60.8120277753" lon="11.362461111">
		<tag k="alt_name" v="Søndre Enge" />
		<tag k="name" v="Enge" />
		<tag k="place" v="farm" />
		<tag k="ssr:stedsnr" v="373850" />
	</node>
	<node id="-55996" lat="60.8099583332" lon="11.3132333376">
		<tag k="alt_name" v="Rustad, l" />
		<tag k="name" v="Lille Rustad" />
		<tag k="place" v="isolated_dwelling" />
		<tag k="ssr:stedsnr" v="373836" />
	</node>
	<node id="-55995" lat="60.8194083368" lon="11.3420944458">
		<tag k="name" v="Løten" />
		<tag k="place" v="village" />
		<tag k="ssr:stedsnr" v="373820" />
	</node>
	<node id="-55994" lat="60.8262194421" lon="11.3742333386">
		<tag k="name" v="Jønsberg" />
		<tag k="place" v="farm" />
		<tag k="ssr:stedsnr" v="373818" />
	</node>
	<node id="-55991" lat="60.8312223911" lon="11.2833287377">
		<tag k="fixme" v="consider place=hamlet" />
		<tag k="name" v="Svea" />
		<tag k="place" v="farm" />
		<tag k="ssr:stedsnr" v="373790" />
	</node>
	<node id="-55990" lat="60.8486416625" lon="11.3159000009">
		<tag k="name" v="Imset" />
		<tag k="place" v="farm" />
		<tag k="ssr:stedsnr" v="373751" />
	</node>
	<node id="-55989" lat="60.8678444417" lon="11.2742999953">
		<tag k="alt_name" v="Brøttet" />
		<tag k="name" v="Brotet" />
		<tag k="place" v="farm" />
		<tag k="ssr:stedsnr" v="373718" />
	</node>
	<node id="-55988" lat="60.8760666697" lon="11.3360361198">
		<tag k="name" v="Karterud" />
		<tag k="place" v="farm" />
		<tag k="ssr:stedsnr" v="373678" />
	</node>
	<node id="-55987" lat="60.8794722232" lon="11.399180561">
		<tag k="alt_name" v="Nordre Sjølia" />
		<tag k="name" v="Sjølia" />
		<tag k="place" v="farm" />
		<tag k="ssr:stedsnr" v="373664" />
	</node>
	<node id="-55986" lat="60.8905944479" lon="11.3829277707">
		<tag k="alt_name" v="Marken" />
		<tag k="name" v="Marka" />
		<tag k="place" v="farm" />
		<tag k="ssr:stedsnr" v="373660" />
	</node>
	<node id="-55985" lat="60.8142472198" lon="11.35175834">
		<tag k="alt_name" v="Berg vestre" />
		<tag k="name" v="Berg" />
		<tag k="place" v="farm" />
		<tag k="ssr:stedsnr" v="373658" />
	</node>
	<node id="-55984" lat="60.8837055574" lon="11.3227722172">
		<tag k="name" v="Brevad" />
		<tag k="place" v="farm" />
		<tag k="ssr:stedsnr" v="373646" />
	</node>
	<node id="-55982" lat="60.9672583294" lon="11.3278138953">
		<tag k="name" v="Øysætra" />
		<tag k="place" v="hamlet" />
		<tag k="ssr:stedsnr" v="373604" />
	</node>
	<node id="-55981" lat="60.7555611066" lon="11.5638138962">
		<tag k="name" v="Rønningstad" />
		<tag k="place" v="farm" />
		<tag k="ssr:stedsnr" v="373410" />
	</node>
	<node id="-55979" lat="60.7689611122" lon="11.5397611133">
		<tag k="alt_name" v="Kjernsholen" />
		<tag k="name" v="Tjernsholen" />
		<tag k="place" v="farm" />
		<tag k="ssr:stedsnr" v="373320" />
	</node>
	<node id="-55978" lat="60.7697333307" lon="11.5421750024">
		<tag k="name" v="Nybakk" />
		<tag k="place" v="farm" />
		<tag k="ssr:stedsnr" v="373311" />
	</node>
	<node id="-55977" lat="60.8435749964" lon="11.4810694446">
		<tag k="name" v="Grønnmyrkoia" />
		<tag k="place" v="locality" />
		<tag k="ssr:stedsnr" v="373189" />
	</node>
	<node id="-55974" lat="60.7344361123" lon="11.4868749929">
		<tag k="alt_name" v="Engesverønningen" />
		<tag k="name" v="Rønningen" />
		<tag k="place" v="farm" />
		<tag k="ssr:stedsnr" v="371277" />
	</node>
	<node id="-55973" lat="60.7354888895" lon="11.491141669">
		<tag k="name" v="Skjærbakken" />
		<tag k="old_name" v="Skjerbakken" />
		<tag k="place" v="farm" />
		<tag k="ssr:stedsnr" v="371276" />
	</node>
	<node id="-55972" lat="60.8681888851" lon="11.4286916712">
		<tag k="name" v="Østjordet" />
		<tag k="place" v="farm" />
		<tag k="ssr:stedsnr" v="352959" />
	</node>
	<node id="-55971" lat="60.8334805555" lon="11.3602166649">
		<tag k="name" v="Seglahagen" />
		<tag k="place" v="farm" />
		<tag k="ssr:stedsnr" v="352912" />
	</node>
	<node id="-55970" lat="60.8412222265" lon="11.3361055594">
		<tag k="name" v="Hagabakken" />
		<tag k="place" v="farm" />
		<tag k="ssr:stedsnr" v="352902" />
	</node>
	<node id="-55969" lat="60.8255638923" lon="11.3989666672">
		<tag k="name" v="Gaukslettrønningen" />
		<tag k="place" v="farm" />
		<tag k="ssr:stedsnr" v="352894" />
	</node>
	<node id="-55968" lat="60.8020527785" lon="11.3401805588">
		<tag k="name" v="Allergodt" />
		<tag k="place" v="farm" />
		<tag k="ssr:stedsnr" v="352860" />
	</node>
	<node id="-55967" lat="60.7998916708" lon="11.3224333301">
		<tag k="name" v="Østre Bjørke" />
		<tag k="place" v="farm" />
		<tag k="ssr:stedsnr" v="352851" />
	</node>
	<node id="-55966" lat="60.8580249975" lon="11.2866388865">
		<tag k="name" v="Vestre Kvinkholen" />
		<tag k="place" v="farm" />
		<tag k="ssr:stedsnr" v="352847" />
	</node>
	<node id="-55965" lat="60.7953305582" lon="11.303558336">
		<tag k="name" v="Fagertun" />
		<tag k="place" v="farm" />
		<tag k="ssr:stedsnr" v="352607" />
	</node>
	<node id="-55964" lat="60.8348055568" lon="11.2877749992">
		<tag k="name" v="Kjeldsrud" />
		<tag k="place" v="farm" />
		<tag k="ssr:stedsnr" v="352597" />
	</node>
	<node id="-55963" lat="60.8541249961" lon="11.2910361034">
		<tag k="name" v="Verge" />
		<tag k="place" v="farm" />
		<tag k="ssr:stedsnr" v="352576" />
	</node>
	<node id="-55962" lat="60.8184861126" lon="11.3004583357">
		<tag k="name" v="Stensby" />
		<tag k="place" v="farm" />
		<tag k="ssr:stedsnr" v="352565" />
	</node>
	<node id="-55957" lat="60.7870499965" lon="11.3491388877">
		<tag k="amenity" v="school" />
		<tag k="name" v="Brovoll skole" />
		<tag k="ssr:stedsnr" v="352477" />
	</node>
	<node id="-55956" lat="60.8333777779" lon="11.3140416671">
		<tag k="name" v="Slettmoen øst" />
		<tag k="place" v="quarter" />
		<tag k="ssr:stedsnr" v="352459" />
	</node>
	<node id="-55955" lat="60.8616944405" lon="11.4130416659">
		<tag k="name" v="Smedbakken" />
		<tag k="place" v="locality" />
		<tag k="ssr:stedsnr" v="352435" />
	</node>
	<node id="-55949" lat="60.7517416629" lon="11.469016667">
		<tag k="loc_name" v="Øvre Godbakklikoia" />
		<tag k="name" v="Øvre Gobakklikoia" />
		<tag k="place" v="isolated_dwelling" />
		<tag k="ssr:stedsnr" v="352274" />
	</node>
	<node id="-55947" lat="60.8728361138" lon="11.4384416738">
		<tag k="name" v="Nordvang" />
		<tag k="place" v="farm" />
		<tag k="ssr:stedsnr" v="351969" />
	</node>
	<node id="-55946" lat="60.7815416625" lon="11.4761250051">
		<tag k="name" v="Elsebakkoia" />
		<tag k="place" v="isolated_dwelling" />
		<tag k="ssr:stedsnr" v="351790" />
	</node>
	<node id="-55944" lat="60.8704777758" lon="11.3080694505">
		<tag k="name" v="Vestre Alfei" />
		<tag k="place" v="farm" />
		<tag k="ssr:stedsnr" v="349530" />
	</node>
	<node id="-55943" lat="61.0387777796" lon="11.2479194391">
		<tag k="fixme" v="consider tourism=alpine_hut or tourism=chalet" />
		<tag k="name" v="Snippkoia" />
		<tag k="ssr:stedsnr" v="344957" />
		<tag k="tourism" v="wilderness_hut" />
	</node>
	<node id="-55942" lat="60.769152775" lon="11.3683027756">
		<tag k="name" v="Grinda" />
		<tag k="place" v="farm" />
		<tag k="ssr:stedsnr" v="313959" />
	</node>
	<node id="-55941" lat="60.8017999998" lon="11.4661444377">
		<tag k="name" v="Gaukerud" />
		<tag k="place" v="isolated_dwelling" />
		<tag k="ssr:stedsnr" v="313893" />
	</node>
	<node id="-55940" lat="60.8430305561" lon="11.3477805625">
		<tag k="name" v="Kroksti" />
		<tag k="place" v="farm" />
		<tag k="ssr:stedsnr" v="313805" />
	</node>
	<node id="-55939" lat="60.838255554" lon="11.3018805553">
		<tag k="name" v="Doksrud" />
		<tag k="place" v="farm" />
		<tag k="ssr:stedsnr" v="313800" />
	</node>
	<node id="-55938" lat="60.8803361103" lon="11.3425583385">
		<tag k="alt_name" v="Nordre Holen" />
		<tag k="name" v="Holen" />
		<tag k="place" v="farm" />
		<tag k="ssr:stedsnr" v="313674" />
	</node>
	<node id="-55937" lat="60.8788083299" lon="11.3244444351">
		<tag k="alt_name" v="Foskum" />
		<tag k="name" v="Foskom" />
		<tag k="place" v="farm" />
		<tag k="ssr:stedsnr" v="313667" />
	</node>
	<node id="-55936" lat="60.8757638884" lon="11.3538333383">
		<tag k="alt_name" v="Østhagen" />
		<tag k="name" v="Østerhagen" />
		<tag k="place" v="farm" />
		<tag k="ssr:stedsnr" v="313665" />
	</node>
	<node id="-55935" lat="60.8729499992" lon="11.3621194356">
		<tag k="name" v="Lier" />
		<tag k="place" v="farm" />
		<tag k="ssr:stedsnr" v="313662" />
	</node>
	<node id="-55934" lat="60.8757444438" lon="11.3769194372">
		<tag k="alt_name" v="Nordre Sagåbakken" />
		<tag k="name" v="Sagåbakken" />
		<tag k="place" v="farm" />
		<tag k="ssr:stedsnr" v="313659" />
	</node>
	<node id="-55933" lat="60.9585972263" lon="11.3661027784">
		<tag k="name" v="Korperud" />
		<tag k="place" v="isolated_dwelling" />
		<tag k="ssr:stedsnr" v="313607" />
	</node>
	<node id="-55932" lat="60.9671638897" lon="11.280188896">
		<tag k="historic" v="shieling" />
		<tag k="name" v="Bjørkvollen" />
		<tag k="place" v="locality" />
		<tag k="ssr:stedsnr" v="313586" />
	</node>
	<node id="-55929" lat="60.8029222182" lon="11.370450008">
		<tag k="alt_name" v="Vembstad" />
		<tag k="name" v="Vemstad" />
		<tag k="place" v="farm" />
		<tag k="ssr:stedsnr" v="312847" />
	</node>
	<node id="-55928" lat="60.8079083348" lon="11.3510166724">
		<tag k="name" v="Kjøstad" />
		<tag k="place" v="farm" />
		<tag k="ssr:stedsnr" v="312845" />
	</node>
	<node id="-55927" lat="60.816594442" lon="11.2897499963">
		<tag k="name" v="Sandmoen" />
		<tag k="place" v="farm" />
		<tag k="ssr:stedsnr" v="312826" />
	</node>
	<node id="-55926" lat="60.816483333" lon="11.3506888913">
		<tag k="alt_name" v="Berg østre" />
		<tag k="name" v="Berg" />
		<tag k="place" v="farm" />
		<tag k="ssr:stedsnr" v="312818" />
	</node>
	<node id="-55924" lat="60.8331499969" lon="11.3946583241">
		<tag k="name" v="Tømmerholen" />
		<tag k="place" v="farm" />
		<tag k="ssr:stedsnr" v="312774" />
	</node>
	<node id="-55923" lat="60.8320805514" lon="11.4147277829">
		<tag k="name" v="Grefsum" />
		<tag k="place" v="isolated_dwelling" />
		<tag k="ssr:stedsnr" v="312775" />
	</node>
	<node id="-55922" lat="60.8665194489" lon="11.3031055522">
		<tag k="name" v="Hjelseng" />
		<tag k="place" v="farm" />
		<tag k="ssr:stedsnr" v="312679" />
	</node>
	<node id="-55921" lat="60.8644611147" lon="11.3810166682">
		<tag k="alt_name" v="Ekrum" />
		<tag k="name" v="Ekrom" />
		<tag k="place" v="farm" />
		<tag k="ssr:stedsnr" v="312673" />
	</node>
	<node id="-55918" lat="60.9118805527" lon="11.2707222267">
		<tag k="name" v="Ålsætra" />
		<tag k="place" v="hamlet" />
		<tag k="ssr:stedsnr" v="312593" />
	</node>
	<node id="-55916" lat="60.7500777787" lon="11.5351305578">
		<tag k="name" v="Grav" />
		<tag k="place" v="farm" />
		<tag k="ssr:stedsnr" v="312427" />
	</node>
	<node id="-55915" lat="60.7562749996" lon="11.5009166751">
		<tag k="name" v="Myrhaug" />
		<tag k="place" v="farm" />
		<tag k="ssr:stedsnr" v="312413" />
	</node>
	<node id="-55912" lat="60.7741583326" lon="11.5337805597">
		<tag k="alt_name" v="Mellum" />
		<tag k="name" v="Mellom" />
		<tag k="place" v="farm" />
		<tag k="ssr:stedsnr" v="312316" />
	</node>
	<node id="-55911" lat="60.7742750006" lon="11.5012416672">
		<tag k="name" v="Veideborg" />
		<tag k="place" v="farm" />
		<tag k="ssr:stedsnr" v="312312" />
	</node>
	<node id="-55910" lat="60.7982777766" lon="11.497061118">
		<tag k="alt_name" v="Haugsvollkoia" />
		<tag k="name" v="Høgvollkoia" />
		<tag k="place" v="isolated_dwelling" />
		<tag k="ssr:stedsnr" v="312260" />
	</node>
	<node id="-55909" lat="60.8478749971" lon="11.4694361089">
		<tag k="name" v="Vensætra" />
		<tag k="place" v="locality" />
		<tag k="ssr:stedsnr" v="312200" />
	</node>
	<node id="-55908" lat="60.7340750036" lon="11.5870499911">
		<tag k="alt_name" v="Kjernli" />
		<tag k="name" v="Tjernli" />
		<tag k="place" v="farm" />
		<tag k="ssr:stedsnr" v="310483" />
	</node>
	<node id="-55907" lat="60.7385472215" lon="11.5101472305">
		<tag k="name" v="Engebakken" />
		<tag k="place" v="farm" />
		<tag k="ssr:stedsnr" v="310482" />
	</node>
	<node id="-55906" lat="60.7452166707" lon="11.5818555516">
		<tag k="name" v="Stenberg" />
		<tag k="place" v="farm" />
		<tag k="ssr:stedsnr" v="310472" />
	</node>
	<node id="-55905" lat="60.7493722232" lon="11.5815111041">
		<tag k="fixme" v="multiple name tags, choose one and add the other to alt_name" />
		<tag k="name" v="Lykkja;Solbergløkken" />
		<tag k="place" v="farm" />
		<tag k="ssr:stedsnr" v="310470" />
	</node>
	<node id="-55904" lat="60.7238750015" lon="11.51178888">
		<tag k="name" v="Svingkoia" />
		<tag k="place" v="isolated_dwelling" />
		<tag k="ssr:stedsnr" v="310304" />
	</node>
	<node id="-55902" lat="60.7845111122" lon="11.4082055505">
		<tag k="name" v="Vollmo" />
		<tag k="place" v="farm" />
		<tag k="ssr:stedsnr" v="313913" />
	</node>
	<node id="-55901" lat="60.7850583311" lon="11.4183138808">
		<tag k="alt_name" v="Kolboden" />
		<tag k="name" v="Kolbu" />
		<tag k="place" v="farm" />
		<tag k="ssr:stedsnr" v="313912" />
	</node>
	<node id="-55900" lat="60.7914160395" lon="11.3035435876">
		<tag k="name" v="Englaug" />
		<tag k="place" v="farm" />
		<tag k="ssr:stedsnr" v="313910" />
	</node>
	<node id="-55899" lat="60.8311777821" lon="11.2830277824">
		<tag k="name" v="Sveen Vestre" />
		<tag k="place" v="farm" />
		<tag k="ssr:stedsnr" v="303835" />
	</node>
	<node id="-55898" lat="60.8748388913" lon="11.3813472264">
		<tag k="name" v="Mellom-Sagåbakken" />
		<tag k="place" v="farm" />
		<tag k="ssr:stedsnr" v="292999" />
	</node>
	<node id="-55897" lat="60.7652888855" lon="11.3810749937">
		<tag k="name" v="Grindkoia" />
		<tag k="place" v="locality" />
		<tag k="ssr:stedsnr" v="292911" />
	</node>
	<node id="-55896" lat="60.8284444465" lon="11.3677749995">
		<tag k="name" v="Skogekern" />
		<tag k="place" v="farm" />
		<tag k="ssr:stedsnr" v="292881" />
	</node>
	<node id="-55895" lat="60.809363888" lon="11.3769944432">
		<tag k="name" v="Engemoen" />
		<tag k="place" v="farm" />
		<tag k="ssr:stedsnr" v="292878" />
	</node>
	<node id="-55893" lat="60.7702277798" lon="11.4425222142">
		<tag k="name" v="Brattbakkoia" />
		<tag k="place" v="isolated_dwelling" />
		<tag k="ssr:stedsnr" v="292747" />
	</node>
	<node id="-55891" lat="60.8244777768" lon="11.3040000024">
		<tag k="name" v="Heggedal" />
		<tag k="place" v="farm" />
		<tag k="ssr:stedsnr" v="292564" />
	</node>
	<node id="-55887" lat="60.8041666653" lon="11.2926666748">
		<tag k="name" v="Vollen" />
		<tag k="place" v="farm" />
		<tag k="ssr:stedsnr" v="292427" />
	</node>
	<node id="-55884" lat="60.7681611083" lon="11.5695055482">
		<tag k="name" v="Haratjernskoia" />
		<tag k="place" v="isolated_dwelling" />
		<tag k="ssr:stedsnr" v="292274" />
	</node>
	<node id="-55881" lat="60.781786111" lon="11.3639833331">
		<tag k="name" v="Nedre Herdal" />
		<tag k="place" v="farm" />
		<tag k="ssr:stedsnr" v="292606" />
	</node>
	<node id="-55875" lat="60.8923611082" lon="11.3724027842">
		<tag k="fixme" v="consider place=hamlet" />
		<tag k="name" v="Petersborg" />
		<tag k="place" v="farm" />
		<tag k="ssr:stedsnr" v="291130" />
	</node>
</osm>
