<?xml version="1.0" encoding="UTF-8"?>
<osm generator="osmapis" version="0.6">
	<node id="-56829" lat="60.7845888897" lon="11.4751000087">
		<tag k="name" v="Osmyra" />
		<tag k="natural" v="wetland" />
		<tag k="ssr:stedsnr" v="776729" />
	</node>
	<node id="-56826" lat="60.7381444473" lon="11.5630027814">
		<tag k="name" v="Kullsvemyrene" />
		<tag k="natural" v="wetland" />
		<tag k="ssr:stedsnr" v="776687" />
	</node>
	<node id="-56825" lat="61.0125416708" lon="11.2602972203">
		<tag k="historic" v="shieling" />
		<tag k="name" v="Ingeborgvolla" />
		<tag k="place" v="locality" />
		<tag k="ssr:stedsnr" v="776588" />
	</node>
	<node id="-56311" lat="60.9624499997" lon="11.3480500052">
		<tag k="name" v="Grønkjølen" />
		<tag k="natural" v="wetland" />
		<tag k="ssr:stedsnr" v="130564" />
	</node>
	<node id="-56297" lat="60.873900002" lon="11.4127444519">
		<tag k="name" v="Ebruslåtten" />
		<tag k="place" v="locality" />
		<tag k="ssr:stedsnr" v="111000" />
	</node>
	<node id="-56283" lat="60.7412194427" lon="11.4422527849">
		<tag k="name" v="Dammyra" />
		<tag k="natural" v="wetland" />
		<tag k="ssr:stedsnr" v="110588" />
	</node>
	<node id="-56791" lat="60.7497472246" lon="11.5102527713">
		<tag k="alt_name" v="Andholsmyra" />
		<tag k="name" v="Arneholsmyra" />
		<tag k="natural" v="wetland" />
		<tag k="ssr:stedsnr" v="737405" />
	</node>
	<node id="-56278" lat="60.821505552" lon="11.4808333373">
		<tag k="name" v="Hestmyra" />
		<tag k="natural" v="wetland" />
		<tag k="ssr:stedsnr" v="110537" />
	</node>
	<node id="-56274" lat="60.8474888903" lon="11.4027805485">
		<tag k="name" v="Bjørkholsmyra" />
		<tag k="natural" v="wetland" />
		<tag k="ssr:stedsnr" v="110431" />
	</node>
	<node id="-56272" lat="60.8376000034" lon="11.4042388915">
		<tag k="name" v="Lemmyra" />
		<tag k="natural" v="wetland" />
		<tag k="ssr:stedsnr" v="110404" />
	</node>
	<node id="-56778" lat="60.7239499979" lon="11.5748527736">
		<tag k="name" v="Småmyrene" />
		<tag k="natural" v="wetland" />
		<tag k="ssr:stedsnr" v="716729" />
	</node>
	<node id="-56775" lat="60.9986750043" lon="11.2303666577">
		<tag k="name" v="Killingkjølen" />
		<tag k="natural" v="wetland" />
		<tag k="ssr:stedsnr" v="716658" />
	</node>
	<node id="-56774" lat="60.7706555596" lon="11.544061117">
		<tag k="name" v="Mosemyra" />
		<tag k="natural" v="wetland" />
		<tag k="ssr:stedsnr" v="716569" />
	</node>
	<node id="-56770" lat="60.8350500012" lon="11.4754694389">
		<tag k="name" v="Elgslemyra" />
		<tag k="natural" v="wetland" />
		<tag k="ssr:stedsnr" v="716457" />
	</node>
	<node id="-56257" lat="60.9495916704" lon="11.2655416718">
		<tag k="name" v="Orrhanen" />
		<tag k="natural" v="wetland" />
		<tag k="ssr:stedsnr" v="101246" />
	</node>
	<node id="-56768" lat="60.9594027766" lon="11.3734416701">
		<tag k="name" v="Korperudkjølen" />
		<tag k="natural" v="wetland" />
		<tag k="ssr:stedsnr" v="716453" />
	</node>
	<node id="-56765" lat="60.7714472201" lon="11.5664055635">
		<tag k="name" v="Haratjernsmyra" />
		<tag k="natural" v="wetland" />
		<tag k="ssr:stedsnr" v="716317" />
	</node>
	<node id="-56762" lat="60.8402416705" lon="11.4300249999">
		<tag k="name" v="Trollmyra" />
		<tag k="natural" v="wetland" />
		<tag k="ssr:stedsnr" v="716540" />
	</node>
	<node id="-56532" lat="60.9704805552" lon="11.3475999934">
		<tag k="name" v="Øysæterkjølen" />
		<tag k="natural" v="wetland" />
		<tag k="ssr:stedsnr" v="494516" />
	</node>
	<node id="-56760" lat="60.8078888894" lon="11.4825833363">
		<tag k="name" v="Gardsmyra" />
		<tag k="natural" v="wetland" />
		<tag k="ssr:stedsnr" v="716525" />
	</node>
	<node id="-56755" lat="60.8061555557" lon="11.4035472198">
		<tag k="name" v="Stubberudstormyra" />
		<tag k="natural" v="wetland" />
		<tag k="ssr:stedsnr" v="677887" />
	</node>
	<node id="-56240" lat="60.9286249988" lon="11.2765333322">
		<tag k="name" v="Stormyra" />
		<tag k="natural" v="wetland" />
		<tag k="ssr:stedsnr" v="70599" />
	</node>
	<node id="-56238" lat="60.957961112" lon="11.2479972197">
		<tag k="historic" v="shieling" />
		<tag k="name" v="Furavolla" />
		<tag k="place" v="locality" />
		<tag k="ssr:stedsnr" v="70575" />
	</node>
	<node id="-56746" lat="60.868894447" lon="11.4200138807">
		<tag k="name" v="Østjordmyra" />
		<tag k="natural" v="wetland" />
		<tag k="ssr:stedsnr" v="677654" />
	</node>
	<node id="-56743" lat="60.9779500034" lon="11.3109499957">
		<tag k="name" v="Storkoiekjølen" />
		<tag k="natural" v="wetland" />
		<tag k="ssr:stedsnr" v="677528" />
	</node>
	<node id="-56735" lat="60.9945749988" lon="11.2359750014">
		<tag k="name" v="Killingkjølen" />
		<tag k="natural" v="wetland" />
		<tag k="ssr:stedsnr" v="676560" />
	</node>
	<node id="-56216" lat="60.8284916678" lon="11.411127776">
		<tag k="name" v="Livaslåtten" />
		<tag k="place" v="locality" />
		<tag k="ssr:stedsnr" v="49891" />
	</node>
	<node id="-56205" lat="60.7575944444" lon="11.435366667">
		<tag k="name" v="Bjørksætermarka" />
		<tag k="place" v="locality" />
		<tag k="ssr:stedsnr" v="49591" />
	</node>
	<node id="-56204" lat="60.741527777" lon="11.4636638864">
		<tag k="name" v="Janmyra" />
		<tag k="natural" v="wetland" />
		<tag k="ssr:stedsnr" v="49590" />
	</node>
	<node id="-56203" lat="60.7594361077" lon="11.4689888891">
		<tag k="name" v="Veltkolmyra" />
		<tag k="natural" v="wetland" />
		<tag k="ssr:stedsnr" v="49579" />
	</node>
	<node id="-56202" lat="60.7807999987" lon="11.490452771">
		<tag k="name" v="Krokgulvet" />
		<tag k="natural" v="wetland" />
		<tag k="ssr:stedsnr" v="49572" />
	</node>
	<node id="-56201" lat="60.831758331" lon="11.4542833401">
		<tag k="name" v="Finstadgardsmyra" />
		<tag k="natural" v="wetland" />
		<tag k="ssr:stedsnr" v="49566" />
	</node>
	<node id="-56200" lat="60.7256249987" lon="11.6169999999">
		<tag k="name" v="Søndre Bronkmoen" />
		<tag k="place" v="locality" />
		<tag k="ssr:stedsnr" v="49556" />
	</node>
	<node id="-56711" lat="60.7572277735" lon="11.5256833274">
		<tag k="name" v="Blekstadmyra" />
		<tag k="natural" v="wetland" />
		<tag k="ssr:stedsnr" v="655693" />
	</node>
	<node id="-56197" lat="60.7249277758" lon="11.6140083317">
		<tag k="name" v="Stormyra" />
		<tag k="natural" v="wetland" />
		<tag k="ssr:stedsnr" v="49533" />
	</node>
	<node id="-56196" lat="60.9934027822" lon="11.3010250023">
		<tag k="name" v="Svarttjernsmyrene" />
		<tag k="natural" v="wetland" />
		<tag k="ssr:stedsnr" v="49523" />
	</node>
	<node id="-56192" lat="60.705538886" lon="11.6119222264">
		<tag k="name" v="Torpkjølen" />
		<tag k="natural" v="wetland" />
		<tag k="ssr:stedsnr" v="49464" />
	</node>
	<node id="-56703" lat="60.775983329" lon="11.50209723">
		<tag k="name" v="Stormyra" />
		<tag k="natural" v="wetland" />
		<tag k="ssr:stedsnr" v="655519" />
	</node>
	<node id="-56702" lat="60.8032972179" lon="11.4868861145">
		<tag k="name" v="Bekkemyra" />
		<tag k="natural" v="wetland" />
		<tag k="ssr:stedsnr" v="655489" />
	</node>
	<node id="-56700" lat="60.8147888911" lon="11.4386555579">
		<tag k="name" v="Grasdammyra" />
		<tag k="natural" v="wetland" />
		<tag k="ssr:stedsnr" v="655428" />
	</node>
	<node id="-56698" lat="60.8713166668" lon="11.3877305587">
		<tag k="name" v="Sagåbakkmyra" />
		<tag k="natural" v="wetland" />
		<tag k="ssr:stedsnr" v="655390" />
	</node>
	<node id="-56697" lat="60.7762944429" lon="11.5491055635">
		<tag k="name" v="Rennmyra" />
		<tag k="natural" v="wetland" />
		<tag k="ssr:stedsnr" v="655297" />
	</node>
	<node id="-56183" lat="60.8879222242" lon="11.4108750082">
		<tag k="landuse" v="meadow" />
		<tag k="name" v="Rogstadslåtten" />
		<tag k="ssr:stedsnr" v="48711" />
	</node>
	<node id="-56182" lat="60.706622222" lon="11.5652611196">
		<tag k="name" v="Krokrudkjølen" />
		<tag k="natural" v="wetland" />
		<tag k="ssr:stedsnr" v="48679" />
	</node>
	<node id="-57064" lat="60.7136388927" lon="11.5692722198">
		<tag k="name" v="Stegamyra" />
		<tag k="natural" v="wetland" />
		<tag k="ssr:stedsnr" v="959697" />
	</node>
	<node id="-56164" lat="60.8541500031" lon="11.440400008">
		<tag k="alt_name" v="Ebrustormyra" />
		<tag k="name" v="Stormyra" />
		<tag k="natural" v="wetland" />
		<tag k="ssr:stedsnr" v="9740" />
	</node>
	<node id="-56157" lat="60.8963727458" lon="11.4182253033">
		<tag k="fixme" v="multiple name tags, choose one and add the other to alt_name" />
		<tag k="landuse" v="meadow" />
		<tag k="name" v="Gryllingslåtten;Rogstadslåtten" />
		<tag k="ssr:stedsnr" v="9630" />
	</node>
	<node id="-56153" lat="60.9393249979" lon="11.3406749982">
		<tag k="name" v="Savalsæterkjølen" />
		<tag k="natural" v="wetland" />
		<tag k="ssr:stedsnr" v="9570" />
	</node>
	<node id="-56664" lat="60.8601027777" lon="11.3864222268">
		<tag k="alt_name" v="Ekrumstormyra" />
		<tag k="name" v="Ekromstormyra" />
		<tag k="natural" v="wetland" />
		<tag k="ssr:stedsnr" v="615725" />
	</node>
	<node id="-56647" lat="60.7617972261" lon="11.5013583388">
		<tag k="name" v="Fallberget" />
		<tag k="place" v="locality" />
		<tag k="ssr:stedsnr" v="595532" />
	</node>
	<node id="-56646" lat="60.8829194476" lon="11.4107916738">
		<tag k="name" v="Storrogstadslåtten" />
		<tag k="place" v="locality" />
		<tag k="ssr:stedsnr" v="595512" />
	</node>
	<node id="-56644" lat="60.7335555559" lon="11.6166416594">
		<tag k="name" v="Nordre Bronkmoen" />
		<tag k="place" v="locality" />
		<tag k="ssr:stedsnr" v="595407" />
	</node>
	<node id="-56643" lat="60.7082194417" lon="11.5993166639">
		<tag k="name" v="Sagkjølen" />
		<tag k="natural" v="wetland" />
		<tag k="ssr:stedsnr" v="595405" />
	</node>
	<node id="-56633" lat="61.0039472256" lon="11.2519555489">
		<tag k="name" v="Killingkjølen" />
		<tag k="natural" v="wetland" />
		<tag k="ssr:stedsnr" v="594650" />
	</node>
	<node id="-56118" lat="60.8587750006" lon="11.4761166733">
		<tag k="name" v="Klotjernsmyra" />
		<tag k="natural" v="wetland" />
		<tag k="ssr:stedsnr" v="474686" />
	</node>
	<node id="-56115" lat="60.7710749989" lon="11.503786113">
		<tag k="name" v="Blekkmyra" />
		<tag k="natural" v="wetland" />
		<tag k="ssr:stedsnr" v="474580" />
	</node>
	<node id="-56114" lat="60.7451444408" lon="11.5142805536">
		<tag k="name" v="Katthullsmyra" />
		<tag k="natural" v="wetland" />
		<tag k="ssr:stedsnr" v="474553" />
	</node>
	<node id="-56113" lat="60.7486555537" lon="11.4919861126">
		<tag k="name" v="Dalsmyra" />
		<tag k="natural" v="wetland" />
		<tag k="ssr:stedsnr" v="474552" />
	</node>
	<node id="-56112" lat="60.8330805549" lon="11.4359277835">
		<tag k="name" v="Karikrokmyra" />
		<tag k="natural" v="wetland" />
		<tag k="ssr:stedsnr" v="474538" />
	</node>
	<node id="-56110" lat="60.6866944419" lon="11.6270083422">
		<tag k="name" v="Elgtjernsmyra" />
		<tag k="natural" v="wetland" />
		<tag k="ssr:stedsnr" v="474426" />
	</node>
	<node id="-56109" lat="60.8274750001" lon="11.4043083289">
		<tag k="name" v="Porsmyra" />
		<tag k="natural" v="wetland" />
		<tag k="ssr:stedsnr" v="474403" />
	</node>
	<node id="-56108" lat="60.8254027777" lon="11.4081555625">
		<tag k="name" v="Langmyra" />
		<tag k="natural" v="wetland" />
		<tag k="ssr:stedsnr" v="474401" />
	</node>
	<node id="-56107" lat="60.8139138933" lon="11.4097416608">
		<tag k="name" v="Hølmyra" />
		<tag k="natural" v="wetland" />
		<tag k="ssr:stedsnr" v="474395" />
	</node>
	<node id="-56199" lat="60.7905611105" lon="11.5001444372">
		<tag k="name" v="Grevlingmyra" />
		<tag k="natural" v="wetland" />
		<tag k="ssr:stedsnr" v="49547" />
	</node>
	<node id="-56101" lat="60.6961194451" lon="11.5898999987">
		<tag k="name" v="Husketjernskjølen" />
		<tag k="natural" v="wetland" />
		<tag k="ssr:stedsnr" v="473693" />
	</node>
	<node id="-56096" lat="60.8646166698" lon="11.4381083251">
		<tag k="name" v="Malmtekna" />
		<tag k="natural" v="wetland" />
		<tag k="ssr:stedsnr" v="473438" />
	</node>
	<node id="-56095" lat="60.8532861153" lon="11.4105333331">
		<tag k="name" v="Haramyra" />
		<tag k="natural" v="wetland" />
		<tag k="ssr:stedsnr" v="473427" />
	</node>
	<node id="-56094" lat="60.7961499988" lon="11.407277774">
		<tag k="name" v="Veamyra" />
		<tag k="natural" v="wetland" />
		<tag k="ssr:stedsnr" v="473418" />
	</node>
	<node id="-56093" lat="60.8396250003" lon="11.4173305557">
		<tag k="name" v="Velttjernsmyra" />
		<tag k="natural" v="wetland" />
		<tag k="ssr:stedsnr" v="473415" />
	</node>
	<node id="-56604" lat="60.9923749996" lon="11.3162083318">
		<tag k="name" v="Veltkoiekjølen" />
		<tag k="natural" v="wetland" />
		<tag k="ssr:stedsnr" v="555505" />
	</node>
	<node id="-56603" lat="60.9730000003" lon="11.2261249922">
		<tag k="name" v="Målikjølen" />
		<tag k="natural" v="wetland" />
		<tag k="ssr:stedsnr" v="555482" />
	</node>
	<node id="-56090" lat="60.7681194469" lon="11.5785166655">
		<tag k="name" v="Tysbastmyra" />
		<tag k="natural" v="wetland" />
		<tag k="ssr:stedsnr" v="413575" />
	</node>
	<node id="-56087" lat="60.8074305569" lon="11.4770388953">
		<tag k="name" v="Skjærholsmyra" />
		<tag k="natural" v="wetland" />
		<tag k="ssr:stedsnr" v="413536" />
	</node>
	<node id="-56086" lat="60.8207861077" lon="11.4879666628">
		<tag k="name" v="Tatermyra" />
		<tag k="natural" v="wetland" />
		<tag k="ssr:stedsnr" v="413533" />
	</node>
	<node id="-56085" lat="60.8099027753" lon="11.4531749937">
		<tag k="name" v="Kaffeskjæra" />
		<tag k="place" v="locality" />
		<tag k="ssr:stedsnr" v="413530" />
	</node>
	<node id="-56084" lat="60.8561388897" lon="11.4669722278">
		<tag k="name" v="Strømlimyra" />
		<tag k="natural" v="wetland" />
		<tag k="ssr:stedsnr" v="413515" />
	</node>
	<node id="-56015" lat="60.7724777755" lon="11.5589888898">
		<tag k="name" v="Snøplogmyra" />
		<tag k="natural" v="wetland" />
		<tag k="ssr:stedsnr" v="352278" />
	</node>
	<node id="-56081" lat="60.7476861131" lon="11.6119527801">
		<tag k="name" v="Olavollsmyra" />
		<tag k="natural" v="wetland" />
		<tag k="ssr:stedsnr" v="413457" />
	</node>
	<node id="-56586" lat="60.7601388882" lon="11.5412444444">
		<tag k="name" v="Stormyra" />
		<tag k="natural" v="wetland" />
		<tag k="ssr:stedsnr" v="534712" />
	</node>
	<node id="-56584" lat="60.9943111098" lon="11.3027555515">
		<tag k="alt_name" v="Svarttjernsmyrane" />
		<tag k="name" v="Svarttjernsmyrene" />
		<tag k="natural" v="wetland" />
		<tag k="ssr:stedsnr" v="534626" />
	</node>
	<node id="-56578" lat="60.7483861104" lon="11.4339972292">
		<tag k="name" v="Svarthattmyra" />
		<tag k="natural" v="wetland" />
		<tag k="ssr:stedsnr" v="534557" />
	</node>
	<node id="-56577" lat="60.8169916672" lon="11.4552666586">
		<tag k="name" v="Bondeheimsmyra" />
		<tag k="natural" v="wetland" />
		<tag k="ssr:stedsnr" v="534533" />
	</node>
	<node id="-56575" lat="60.8293722252" lon="11.4919999975">
		<tag k="name" v="Ragnhildmyra" />
		<tag k="natural" v="wetland" />
		<tag k="ssr:stedsnr" v="534506" />
	</node>
	<node id="-56568" lat="60.864344444" lon="11.464777782">
		<tag k="name" v="Bjørnbekkmyra" />
		<tag k="natural" v="wetland" />
		<tag k="ssr:stedsnr" v="534412" />
	</node>
	<node id="-56567" lat="60.8346777738" lon="11.4187222269">
		<tag k="name" v="Kulpmyra" />
		<tag k="natural" v="wetland" />
		<tag k="ssr:stedsnr" v="534397" />
	</node>
	<node id="-56566" lat="60.8409722234" lon="11.4020444531">
		<tag k="name" v="Kjeldmyra" />
		<tag k="natural" v="wetland" />
		<tag k="ssr:stedsnr" v="534384" />
	</node>
	<node id="-56564" lat="60.7020805592" lon="11.584588894">
		<tag k="name" v="Kløvmyrkjølen" />
		<tag k="natural" v="wetland" />
		<tag k="ssr:stedsnr" v="524584" />
	</node>
	<node id="-56190" lat="60.8711250037" lon="11.4294805485">
		<tag k="name" v="Tobrumyra" />
		<tag k="natural" v="wetland" />
		<tag k="ssr:stedsnr" v="49449" />
	</node>
	<node id="-56552" lat="60.8082250034" lon="11.427513888">
		<tag k="name" v="Sandbekkmyra" />
		<tag k="natural" v="wetland" />
		<tag k="ssr:stedsnr" v="494845" />
	</node>
	<node id="-57063" lat="60.750900002" lon="11.5267333275">
		<tag k="name" v="Eftasmyra" />
		<tag k="natural" v="wetland" />
		<tag k="ssr:stedsnr" v="959694" />
	</node>
	<node id="-57062" lat="60.8455805519" lon="11.4539111101">
		<tag k="name" v="Bergmyra" />
		<tag k="natural" v="wetland" />
		<tag k="ssr:stedsnr" v="959653" />
	</node>
	<node id="-57057" lat="60.7270694475" lon="11.5190444433">
		<tag k="name" v="Lemyra" />
		<tag k="natural" v="wetland" />
		<tag k="ssr:stedsnr" v="959520" />
	</node>
	<node id="-57056" lat="60.8358500003" lon="11.4853250012">
		<tag k="name" v="Olamyra" />
		<tag k="natural" v="wetland" />
		<tag k="ssr:stedsnr" v="959502" />
	</node>
	<node id="-57054" lat="60.8249666694" lon="11.4840277715">
		<tag k="loc_name" v="Lamungskjæra" />
		<tag k="name" v="Lammungskjæra" />
		<tag k="place" v="locality" />
		<tag k="ssr:stedsnr" v="959476" />
	</node>
	<node id="-56538" lat="60.8810055518" lon="11.4109055644">
		<tag k="name" v="Brennholsslåtten" />
		<tag k="place" v="locality" />
		<tag k="ssr:stedsnr" v="494650" />
	</node>
	<node id="-57049" lat="60.6972527812" lon="11.6221638909">
		<tag k="name" v="Knappkjølen" />
		<tag k="natural" v="wetland" />
		<tag k="ssr:stedsnr" v="959370" />
	</node>
	<node id="-56024" lat="60.8034222232" lon="11.4922277862">
		<tag k="name" v="Kolmyra" />
		<tag k="natural" v="wetland" />
		<tag k="ssr:stedsnr" v="352510" />
	</node>
	<node id="-57045" lat="60.8332194422" lon="11.4081111037">
		<tag k="name" v="Stigmyra" />
		<tag k="natural" v="wetland" />
		<tag k="ssr:stedsnr" v="959343" />
	</node>
	<node id="-57044" lat="60.7621666685" lon="11.3484944415">
		<tag k="name" v="Sørlikroken" />
		<tag k="place" v="locality" />
		<tag k="ssr:stedsnr" v="959340" />
	</node>
	<node id="-56019" lat="60.8701861069" lon="11.4041583368">
		<tag k="name" v="Oksbakkmyra" />
		<tag k="natural" v="wetland" />
		<tag k="ssr:stedsnr" v="352397" />
	</node>
	<node id="-56018" lat="60.859505559" lon="11.3945888802">
		<tag k="name" v="Langbrumyra" />
		<tag k="natural" v="wetland" />
		<tag k="ssr:stedsnr" v="352395" />
	</node>
	<node id="-56017" lat="60.79145833" lon="11.3779333283">
		<tag k="name" v="Trømnesmyra" />
		<tag k="natural" v="wetland" />
		<tag k="ssr:stedsnr" v="352382" />
	</node>
	<node id="-56527" lat="60.8353777747" lon="11.4857499924">
		<tag k="fixme" v="multiple name tags, choose one and add the other to alt_name" />
		<tag k="name" v="Elgslemyra;Olamyra" />
		<tag k="natural" v="wetland" />
		<tag k="ssr:stedsnr" v="494167" />
	</node>
	<node id="-57027" lat="60.9351027766" lon="11.3918638972">
		<tag k="name" v="Langjordet" />
		<tag k="natural" v="wetland" />
		<tag k="ssr:stedsnr" v="920617" />
	</node>
	<node id="-57026" lat="60.9303999993" lon="11.3327833313">
		<tag k="name" v="Værelsvollkjølen" />
		<tag k="natural" v="wetland" />
		<tag k="ssr:stedsnr" v="920612" />
	</node>
	<node id="-56266" lat="60.6997777759" lon="11.5553027797">
		<tag k="name" v="Orrhanekjølen" />
		<tag k="natural" v="wetland" />
		<tag k="ssr:stedsnr" v="110738" />
	</node>
	<node id="-57014" lat="60.8623305545" lon="11.453147215">
		<tag k="name" v="Korsmyra" />
		<tag k="natural" v="wetland" />
		<tag k="ssr:stedsnr" v="919668" />
	</node>
	<node id="-57013" lat="60.8858000023" lon="11.4409500032">
		<tag k="name" v="Grasbakkmyra" />
		<tag k="natural" v="wetland" />
		<tag k="ssr:stedsnr" v="919658" />
	</node>
	<node id="-56499" lat="60.7612388924" lon="11.4803000073">
		<tag k="name" v="Kolmyra" />
		<tag k="natural" v="wetland" />
		<tag k="ssr:stedsnr" v="434374" />
	</node>
	<node id="-55985" lat="60.8889749961" lon="11.4201999967">
		<tag k="name" v="Langjordsmyra" />
		<tag k="natural" v="wetland" />
		<tag k="ssr:stedsnr" v="312616" />
	</node>
	<node id="-56263" lat="60.7569138882" lon="11.5349916612">
		<tag k="name" v="Stormyra" />
		<tag k="natural" v="wetland" />
		<tag k="ssr:stedsnr" v="109662" />
	</node>
	<node id="-56092" lat="60.8343888933" lon="11.3995805502">
		<tag k="name" v="Tjurugrasmyra" />
		<tag k="natural" v="wetland" />
		<tag k="ssr:stedsnr" v="473414" />
	</node>
	<node id="-56988" lat="60.7550583317" lon="11.6018611059">
		<tag k="name" v="Bikkjemyra" />
		<tag k="natural" v="wetland" />
		<tag k="ssr:stedsnr" v="899684" />
	</node>
	<node id="-55959" lat="60.8186611069" lon="11.4024361152">
		<tag k="name" v="Korilstadslåtten" />
		<tag k="place" v="locality" />
		<tag k="ssr:stedsnr" v="292870" />
	</node>
	<node id="-56980" lat="60.8055861149" lon="11.4556805605">
		<tag k="name" v="Fuglmyra" />
		<tag k="natural" v="wetland" />
		<tag k="ssr:stedsnr" v="899531" />
	</node>
	<node id="-56979" lat="60.7414916637" lon="11.6029694446">
		<tag k="name" v="Holtmyra" />
		<tag k="natural" v="wetland" />
		<tag k="ssr:stedsnr" v="899516" />
	</node>
	<node id="-56978" lat="60.9901638891" lon="11.2244916651">
		<tag k="name" v="Killingkjølen" />
		<tag k="natural" v="wetland" />
		<tag k="ssr:stedsnr" v="899497" />
	</node>
	<node id="-55953" lat="60.8103333354" lon="11.3913611119">
		<tag k="name" v="Flakstadslåtten" />
		<tag k="place" v="locality" />
		<tag k="ssr:stedsnr" v="292431" />
	</node>
	<node id="-56464" lat="60.7643749972" lon="11.4916111117">
		<tag k="name" v="Husmyra" />
		<tag k="natural" v="wetland" />
		<tag k="ssr:stedsnr" v="252313" />
	</node>
	<node id="-56975" lat="60.7279916706" lon="11.6040444462">
		<tag k="name" v="Tjernlitjernsmyra" />
		<tag k="natural" v="wetland" />
		<tag k="ssr:stedsnr" v="899434" />
	</node>
	<node id="-56974" lat="60.6890833347" lon="11.6084194512">
		<tag k="name" v="Tuvbergsmyra" />
		<tag k="natural" v="wetland" />
		<tag k="ssr:stedsnr" v="899428" />
	</node>
	<node id="-55947" lat="60.8497000037" lon="11.4398305522">
		<tag k="name" v="Hestegolvsmyra" />
		<tag k="natural" v="wetland" />
		<tag k="ssr:stedsnr" v="292656" />
	</node>
	<node id="-56341" lat="60.9288777765" lon="11.2551805592">
		<tag k="name" v="Bårdsæterkjølen" />
		<tag k="natural" v="wetland" />
		<tag k="ssr:stedsnr" v="131607" />
	</node>
	<node id="-56444" lat="60.8600000031" lon="11.4663111104">
		<tag k="name" v="Svebergsmyra" />
		<tag k="natural" v="wetland" />
		<tag k="ssr:stedsnr" v="231711" />
	</node>
	<node id="-56952" lat="60.9511499981" lon="11.3075249971">
		<tag k="name" v="Budorkjølen" />
		<tag k="natural" v="wetland" />
		<tag k="ssr:stedsnr" v="859563" />
	</node>
	<node id="-56439" lat="60.7742888862" lon="11.5225861136">
		<tag k="name" v="Klyftmyra" />
		<tag k="natural" v="wetland" />
		<tag k="ssr:stedsnr" v="231631" />
	</node>
	<node id="-56437" lat="60.8008888922" lon="11.4075249942">
		<tag k="name" v="Skaugerudmyra" />
		<tag k="natural" v="wetland" />
		<tag k="ssr:stedsnr" v="231597" />
	</node>
	<node id="-56435" lat="60.8095249993" lon="11.4348222205">
		<tag k="name" v="Langsmalmyra" />
		<tag k="natural" v="wetland" />
		<tag k="ssr:stedsnr" v="231579" />
	</node>
	<node id="-56427" lat="60.8602777791" lon="11.4055055649">
		<tag k="name" v="Saumyra" />
		<tag k="natural" v="wetland" />
		<tag k="ssr:stedsnr" v="231479" />
	</node>
	<node id="-56424" lat="60.8291500037" lon="11.3597388912">
		<tag k="name" v="Ullermyra" />
		<tag k="natural" v="wetland" />
		<tag k="ssr:stedsnr" v="231422" />
	</node>
	<node id="-56927" lat="60.8298777785" lon="11.4761083401">
		<tag k="name" v="Styggmyra" />
		<tag k="natural" v="wetland" />
		<tag k="ssr:stedsnr" v="838547" />
	</node>
	<node id="-56926" lat="60.8125027752" lon="11.4482472159">
		<tag k="name" v="Markmyra" />
		<tag k="natural" v="wetland" />
		<tag k="ssr:stedsnr" v="838543" />
	</node>
	<node id="-56392" lat="60.9977250032" lon="11.2677527832">
		<tag k="name" v="Knettkjølen" />
		<tag k="natural" v="wetland" />
		<tag k="ssr:stedsnr" v="191520" />
	</node>
	<node id="-55990" lat="60.8275250003" lon="11.4228249956">
		<tag k="name" v="Grefsumstormyra" />
		<tag k="natural" v="wetland" />
		<tag k="ssr:stedsnr" v="312778" />
	</node>
	<node id="-56501" lat="60.9829249979" lon="11.3319250039">
		<tag k="name" v="Åtterkjølen" />
		<tag k="natural" v="wetland" />
		<tag k="ssr:stedsnr" v="434492" />
	</node>
	<node id="-56364" lat="60.7578722194" lon="11.5186166712">
		<tag k="landuse" v="meadow" />
		<tag k="name" v="Søndreslåtten" />
		<tag k="ssr:stedsnr" v="170545" />
	</node>
	<node id="-56362" lat="60.7482027771" lon="11.5135277829">
		<tag k="loc_name" v="Kvernmyra" />
		<tag k="name" v="Kværnmyra" />
		<tag k="natural" v="wetland" />
		<tag k="ssr:stedsnr" v="170535" />
	</node>
	<node id="-56361" lat="60.777427775" lon="11.4877472295">
		<tag k="name" v="Velttjernsmyra" />
		<tag k="natural" v="wetland" />
		<tag k="ssr:stedsnr" v="170534" />
	</node>
	<node id="-56360" lat="60.8403138857" lon="11.4634083251">
		<tag k="name" v="Tjernshaugmyra" />
		<tag k="natural" v="wetland" />
		<tag k="ssr:stedsnr" v="170533" />
	</node>
	<node id="-56359" lat="60.8110555537" lon="11.4825027829">
		<tag k="name" v="Gardsmyra" />
		<tag k="natural" v="wetland" />
		<tag k="ssr:stedsnr" v="170503" />
	</node>
	<node id="-56357" lat="60.7020611125" lon="11.6073861156">
		<tag k="name" v="Rundmyra" />
		<tag k="natural" v="wetland" />
		<tag k="ssr:stedsnr" v="170438" />
	</node>
	<node id="-56356" lat="60.6880111133" lon="11.6006222208">
		<tag k="name" v="Tuvbergskjølen" />
		<tag k="natural" v="wetland" />
		<tag k="ssr:stedsnr" v="170435" />
	</node>
	<node id="-56353" lat="60.8791972237" lon="11.4067111054">
		<tag k="name" v="Sjølimyra" />
		<tag k="natural" v="wetland" />
		<tag k="ssr:stedsnr" v="170479" />
	</node>
	<node id="-56351" lat="60.816586112" lon="11.4222444493">
		<tag k="name" v="Bumyra" />
		<tag k="natural" v="wetland" />
		<tag k="ssr:stedsnr" v="170412" />
	</node>
	<node id="-56348" lat="60.8011166666" lon="11.4147722221">
		<tag k="name" v="Gråtern" />
		<tag k="natural" v="wetland" />
		<tag k="ssr:stedsnr" v="170407" />
	</node>
	<node id="-56346" lat="60.8445777792" lon="11.471847226">
		<tag k="name" v="Gjetkløvmyra" />
		<tag k="natural" v="wetland" />
		<tag k="ssr:stedsnr" v="170396" />
	</node>
	<node id="-56855" lat="60.8621138866" lon="11.4732999924">
		<tag k="name" v="Spannjordsmyra" />
		<tag k="natural" v="wetland" />
		<tag k="ssr:stedsnr" v="777671" />
	</node>
	<node id="-56854" lat="60.8450277804" lon="11.4806888836">
		<tag k="name" v="Grønnmyra" />
		<tag k="natural" v="wetland" />
		<tag k="ssr:stedsnr" v="777669" />
	</node>
	<node id="-56853" lat="60.913597226" lon="11.4344277755">
		<tag k="name" v="Grasmyra" />
		<tag k="natural" v="wetland" />
		<tag k="ssr:stedsnr" v="777663" />
	</node>
	<node id="-56844" lat="60.8135527748" lon="11.4558027752">
		<tag k="name" v="Klevmyra" />
		<tag k="natural" v="wetland" />
		<tag k="ssr:stedsnr" v="777515" />
	</node>
	<node id="-56840" lat="60.8558000038" lon="11.3978694498">
		<tag k="name" v="Husommarka" />
		<tag k="place" v="locality" />
		<tag k="ssr:stedsnr" v="777431" />
	</node>
	<node id="-56839" lat="60.6836027749" lon="11.6053611033">
		<tag k="name" v="Nordtjernskjølen" />
		<tag k="natural" v="wetland" />
		<tag k="ssr:stedsnr" v="777418" />
	</node>
	<node id="-56838" lat="60.8810638858" lon="11.437158342">
		<tag k="name" v="Fuglmyra" />
		<tag k="natural" v="wetland" />
		<tag k="ssr:stedsnr" v="777405" />
	</node>
</osm>
