<?xml version="1.0" encoding="UTF-8"?>
<osm generator="osmapis" version="0.6">
	<node id="-829819" lat="63.4736972219" lon="9.24760278395">
		<tag k="man_made" v="cairn" />
		<tag k="name" v="Storfjellvarden" />
		<tag k="place" v="locality" />
		<tag k="ssr:stedsnr" v="276163" />
	</node>
	<node id="-830321" lat="63.5185277761" lon="9.2955861128">
		<tag k="leisure" v="marina" />
		<tag k="name" v="Vingvågen småbåthavn" />
		<tag k="ssr:stedsnr" v="119587" />
	</node>
	<node id="-831854" lat="63.498663891" lon="9.12627778686">
		<tag k="leisure" v="marina" />
		<tag k="name" v="Vorpbukta småbåthavn" />
		<tag k="ssr:stedsnr" v="726558" />
	</node>
	<node id="-831720" lat="63.5005638866" lon="9.16477499665">
		<tag k="leisure" v="marina" />
		<tag k="name" v="Skogøya marina" />
		<tag k="ssr:stedsnr" v="221679" />
	</node>
	<node id="-830673" lat="63.3197499968" lon="9.52661388745">
		<tag k="bridge" v="yes" />
		<tag k="layer" v="1" />
		<tag k="name" v="Våddåbrua" />
		<tag k="ssr:stedsnr" v="645726" />
	</node>
	<node id="-831439" lat="63.5091472204" lon="9.43851945211">
		<tag k="highway" v="path" />
		<tag k="name" v="Setervegen" />
		<tag k="ssr:stedsnr" v="458043" />
	</node>
	<node id="-829573" lat="63.3921444414" lon="9.45625556025">
		<tag k="highway" v="path" />
		<tag k="name" v="Dyrstien" />
		<tag k="ssr:stedsnr" v="761460" />
	</node>
	<node id="-831185" lat="63.320280555" lon="9.25783334229">
		<tag k="highway" v="path" />
		<tag k="name" v="Stien" />
		<tag k="ssr:stedsnr" v="639833" />
	</node>
	<node id="-830415" lat="63.5557833306" lon="9.39836667653">
		<tag k="man_made" v="quay" />
		<tag k="name" v="Kaia" />
		<tag k="place" v="locality" />
		<tag k="ssr:stedsnr" v="458738" />
	</node>
	<node id="-831436" lat="63.5519051561" lon="9.39849733623">
		<tag k="leisure" v="marina" />
		<tag k="name" v="Bystingen småbåthavn" />
		<tag k="ssr:stedsnr" v="787579" />
	</node>
	<node id="-831042" lat="63.49741389" lon="9.17988056087">
		<tag k="leisure" v="marina" />
		<tag k="name" v="Sundan marina" />
		<tag k="ssr:stedsnr" v="464740" />
	</node>
	<node id="-830012" lat="63.5457388874" lon="9.41239999451">
		<tag k="fixme" v="consider highway=path" />
		<tag k="highway" v="track" />
		<tag k="name" v="Reksteren" />
		<tag k="ssr:stedsnr" v="943707" />
	</node>
	<node id="-829960" lat="63.3482944486" lon="9.41512222959">
		<tag k="highway" v="path" />
		<tag k="name" v="Kleivavegen" />
		<tag k="ssr:stedsnr" v="396412" />
	</node>
	<node id="-830111" lat="63.5161527817" lon="9.2694861043">
		<tag k="highway" v="path" />
		<tag k="name" v="Skottstien" />
		<tag k="ssr:stedsnr" v="335198" />
	</node>
	<node id="-831288" lat="63.4481916654" lon="9.48097222929">
		<tag k="layer" v="-1" />
		<tag k="name" v="Slørdalstunnelen" />
		<tag k="old_name" v="Mjønesauntunnelen" />
		<tag k="ssr:stedsnr" v="889688" />
		<tag k="tunnel" v="yes" />
	</node>
	<node id="-830775" lat="63.3196666641" lon="9.53188334035">
		<tag k="layer" v="-1" />
		<tag k="name" v="Våvasstunnelen" />
		<tag k="ssr:stedsnr" v="585704" />
		<tag k="tunnel" v="yes" />
	</node>
	<node id="-830644" lat="63.3778527735" lon="9.33893888763">
		<tag k="highway" v="path" />
		<tag k="name" v="Bjørnåsstien" />
		<tag k="ssr:stedsnr" v="944206" />
	</node>
	<node id="-830383" lat="63.4187888851" lon="9.61892777225">
		<tag k="amenity" v="parking" />
		<tag k="name" v="Berg parkeringsplass" />
		<tag k="ssr:stedsnr" v="665612" />
	</node>
	<node id="-830116" lat="63.4981111079" lon="9.13125832467">
		<tag k="leisure" v="marina" />
		<tag k="name" v="Klakken marina" />
		<tag k="ssr:stedsnr" v="119567" />
	</node>
	<node id="-831267" lat="63.3969305589" lon="9.49548333782">
		<tag k="leisure" v="marina" />
		<tag k="name" v="Krokstadøra marina" />
		<tag k="ssr:stedsnr" v="241511" />
	</node>
	<node id="-829344" lat="63.4021083299" lon="9.54479999156">
		<tag k="bridge" v="yes" />
		<tag k="layer" v="1" />
		<tag k="name" v="Snilldalselvbrua" />
		<tag k="ssr:stedsnr" v="100656" />
	</node>
	<node id="-830367" lat="63.3128999965" lon="9.49950833874">
		<tag k="amenity" v="parking" />
		<tag k="name" v="Langlidalen parkeringsplass" />
		<tag k="ssr:stedsnr" v="665610" />
	</node>
	<node id="-831645" lat="63.5517315031" lon="9.39873039501">
		<tag k="man_made" v="quay" />
		<tag k="name" v="Innerkaia" />
		<tag k="place" v="locality" />
		<tag k="ssr:stedsnr" v="215772" />
	</node>
	<node id="-829455" lat="63.5184138858" lon="9.29515556389">
		<tag k="man_made" v="quay" />
		<tag k="name" v="Vingvågkaia" />
		<tag k="place" v="locality" />
		<tag k="ssr:stedsnr" v="458572" />
	</node>
	<node id="-830216" lat="63.4676416628" lon="9.42002223071">
		<tag k="leisure" v="marina" />
		<tag k="name" v="Mjønestrø marina" />
		<tag k="ssr:stedsnr" v="423570" />
	</node>
	<node id="-830727" lat="63.3935833344" lon="9.59396945202">
		<tag k="amenity" v="parking" />
		<tag k="name" v="Snilldalen parkeringsplass" />
		<tag k="ssr:stedsnr" v="180542" />
	</node>
	<node id="-830751" lat="63.5518394608" lon="9.39865903636">
		<tag k="leisure" v="marina" />
		<tag k="name" v="Kongensvoll marina" />
		<tag k="ssr:stedsnr" v="544557" />
	</node>
</osm>
