<?xml version="1.0" encoding="UTF-8"?>
<osm generator="osmapis" version="0.6">
	<node id="-825342" lat="63.4340250032" lon="9.25542778429">
		<tag k="name" v="Heggstadhamna" />
		<tag k="natural" v="bay" />
		<tag k="ssr:stedsnr" v="154194" />
	</node>
	<node id="-825340" lat="63.4682361078" lon="9.4292194424">
		<tag k="name" v="Innerbukta" />
		<tag k="natural" v="bay" />
		<tag k="ssr:stedsnr" v="288111" />
	</node>
	<node id="-825323" lat="63.4425805573" lon="9.1414027729">
		<tag k="name" v="Småholman" />
		<tag k="place" v="islet" />
		<tag k="ssr:stedsnr" v="559381" />
	</node>
	<node id="-825297" lat="63.4247888855" lon="9.18977777787">
		<tag k="name" v="Stokkaunbukta" />
		<tag k="natural" v="bay" />
		<tag k="ssr:stedsnr" v="316486" />
	</node>
	<node id="-825295" lat="63.3861361147" lon="9.21457500171">
		<tag k="name" v="Buvika" />
		<tag k="natural" v="bay" />
		<tag k="ssr:stedsnr" v="255747" />
	</node>
	<node id="-825294" lat="63.3588944406" lon="9.33530278413">
		<tag k="name" v="Vågslibugen" />
		<tag k="natural" v="bay" />
		<tag k="ssr:stedsnr" v="955203" />
	</node>
	<node id="-825281" lat="63.4709027784" lon="9.46177777671">
		<tag k="alt_name" v="Snauskjæret" />
		<tag k="fixme" v="consider seamark:type=rock or natural=shoal" />
		<tag k="name" v="Snauskjæra" />
		<tag k="place" v="islet" />
		<tag k="ssr:stedsnr" v="397813" />
	</node>
	<node id="-825274" lat="63.3930611125" lon="9.4755194425">
		<tag k="name" v="Slettbergneset" />
		<tag k="natural" v="cape" />
		<tag k="ssr:stedsnr" v="761168" />
	</node>
	<node id="-825272" lat="63.353686113" lon="9.28219167018">
		<tag k="name" v="Vollabukta" />
		<tag k="natural" v="bay" />
		<tag k="ssr:stedsnr" v="578971" />
	</node>
	<node id="-825268" lat="63.5736472233" lon="9.44775556315">
		<tag k="name" v="Småholman" />
		<tag k="place" v="islet" />
		<tag k="ssr:stedsnr" v="457044" />
	</node>
	<node id="-825265" lat="63.3387361083" lon="9.21890277846">
		<tag k="name" v="Hylltangen" />
		<tag k="natural" v="cape" />
		<tag k="ssr:stedsnr" v="700790" />
	</node>
	<node id="-825263" lat="63.5199833295" lon="9.31421666714">
		<tag k="name" v="Djupåvorpa" />
		<tag k="place" v="locality" />
		<tag k="ssr:stedsnr" v="33613" />
	</node>
	<node id="-825259" lat="63.4570083364" lon="9.36412777942">
		<tag k="name" v="Raudhammaren" />
		<tag k="natural" v="cape" />
		<tag k="ssr:stedsnr" v="12946" />
	</node>
	<node id="-825254" lat="63.4585777755" lon="9.40738056463">
		<tag k="name" v="Ytter Lauvnestangen" />
		<tag k="natural" v="cape" />
		<tag k="ssr:stedsnr" v="518631" />
	</node>
	<node id="-825253" lat="63.3370138872" lon="9.22426111881">
		<tag k="name" v="Skjulberget" />
		<tag k="natural" v="cape" />
		<tag k="ssr:stedsnr" v="397810" />
	</node>
	<node id="-825248" lat="63.4346138929" lon="9.20621665691">
		<tag k="name" v="Langneset" />
		<tag k="natural" v="cape" />
		<tag k="ssr:stedsnr" v="923436" />
	</node>
	<node id="-824304" lat="63.5423499966" lon="9.40668332886">
		<tag k="name" v="Raudneset" />
		<tag k="natural" v="cape" />
		<tag k="ssr:stedsnr" v="94257" />
	</node>
	<node id="-825244" lat="63.5209027755" lon="9.31826666202">
		<tag k="name" v="Djupåhammaren" />
		<tag k="natural" v="cape" />
		<tag k="ssr:stedsnr" v="33609" />
	</node>
	<node id="-825243" lat="63.5441972232" lon="9.40203054583">
		<tag k="name" v="Åsøyneset" />
		<tag k="natural" v="cape" />
		<tag k="ssr:stedsnr" v="822752" />
	</node>
	<node id="-825237" lat="63.4509111102" lon="9.13996111681">
		<tag k="name" v="Kuppelvika" />
		<tag k="natural" v="bay" />
		<tag k="ssr:stedsnr" v="802279" />
	</node>
	<node id="-825236" lat="63.4480472179" lon="9.2442555456">
		<tag k="name" v="Klubbneset" />
		<tag k="natural" v="cape" />
		<tag k="ssr:stedsnr" v="518146" />
	</node>
	<node id="-825235" lat="63.3953138849" lon="9.48447500196">
		<tag k="name" v="Blautberget" />
		<tag k="natural" v="cape" />
		<tag k="ssr:stedsnr" v="154176" />
	</node>
	<node id="-825234" lat="63.3915083368" lon="9.49164167026">
		<tag k="name" v="Sandbarøra" />
		<tag k="natural" v="beach" />
		<tag k="place" v="locality" />
		<tag k="ssr:stedsnr" v="33155" />
	</node>
	<node id="-825228" lat="63.3635499963" lon="9.34814721608">
		<tag k="alt_name" v="Vorpnessa" />
		<tag k="name" v="Vorpneset" />
		<tag k="natural" v="cape" />
		<tag k="ssr:stedsnr" v="458308" />
	</node>
	<node id="-825226" lat="63.3719611094" lon="9.23366389779">
		<tag k="name" v="Kalvika" />
		<tag k="natural" v="bay" />
		<tag k="ssr:stedsnr" v="701199" />
	</node>
	<node id="-825225" lat="63.4533555566" lon="9.39700833663">
		<tag k="name" v="Kuvika" />
		<tag k="natural" v="bay" />
		<tag k="ssr:stedsnr" v="12944" />
	</node>
	<node id="-825220" lat="63.3394527788" lon="9.24397500974">
		<tag k="name" v="Slåttavika" />
		<tag k="natural" v="bay" />
		<tag k="ssr:stedsnr" v="579838" />
	</node>
	<node id="-825212" lat="63.4536166691" lon="9.2269111175">
		<tag k="name" v="Sponvika" />
		<tag k="natural" v="bay" />
		<tag k="ssr:stedsnr" v="93113" />
	</node>
	<node id="-825211" lat="63.4324750029" lon="9.22462778076">
		<tag k="name" v="Vikavågen" />
		<tag k="natural" v="bay" />
		<tag k="ssr:stedsnr" v="154180" />
	</node>
	<node id="-825208" lat="63.4543999999" lon="9.16183611318">
		<tag k="name" v="Skrubbøya" />
		<tag k="place" v="islet" />
		<tag k="ssr:stedsnr" v="619438" />
	</node>
	<node id="-825205" lat="63.4433916681" lon="9.31561943707">
		<tag k="fixme" v="consider seamark:type=rock or natural=shoal" />
		<tag k="name" v="Litlskjæret" />
		<tag k="place" v="islet" />
		<tag k="ssr:stedsnr" v="275850" />
	</node>
	<node id="-825202" lat="63.5520666688" lon="9.40522222042">
		<tag k="name" v="Purkvika" />
		<tag k="natural" v="bay" />
		<tag k="ssr:stedsnr" v="822745" />
	</node>
	<node id="-825195" lat="63.5203861079" lon="9.29199721742">
		<tag k="name" v="Vingvorpa" />
		<tag k="place" v="locality" />
		<tag k="ssr:stedsnr" v="761580" />
	</node>
	<node id="-824635" lat="63.4672888904" lon="9.14739443805">
		<tag k="fixme" v="consider seamark:type=rock or natural=shoal" />
		<tag k="name" v="Sauskjæret" />
		<tag k="place" v="islet" />
		<tag k="ssr:stedsnr" v="518045" />
	</node>
	<node id="-825182" lat="63.4708388928" lon="9.47101667595">
		<tag k="name" v="Storøya" />
		<tag k="place" v="island" />
		<tag k="ssr:stedsnr" v="740975" />
	</node>
	<node id="-825167" lat="63.4628083342" lon="9.13233332721">
		<tag k="name" v="Synnsvikneset" />
		<tag k="natural" v="cape" />
		<tag k="ssr:stedsnr" v="457035" />
	</node>
	<node id="-825164" lat="63.4361611129" lon="9.20538888098">
		<tag k="fixme" v="consider seamark:type=rock or natural=shoal" />
		<tag k="name" v="Kvithyllskjæret" />
		<tag k="place" v="islet" />
		<tag k="ssr:stedsnr" v="652743" />
	</node>
	<node id="-825160" lat="63.4397777777" lon="9.29191388176">
		<tag k="fixme" v="consider seamark:type=rock or natural=shoal" />
		<tag k="name" v="Grønskjæret" />
		<tag k="place" v="islet" />
		<tag k="ssr:stedsnr" v="457870" />
	</node>
	<node id="-825155" lat="63.4710472208" lon="9.48320833699">
		<tag k="name" v="Djupsundet" />
		<tag k="natural" v="strait" />
		<tag k="ssr:stedsnr" v="578081" />
	</node>
	<node id="-825150" lat="63.4923722252" lon="9.29164166892">
		<tag k="name" v="Urdvika" />
		<tag k="natural" v="bay" />
		<tag k="ssr:stedsnr" v="154616" />
	</node>
	<node id="-825148" lat="63.5726499957" lon="9.45730554855">
		<tag k="alt_name" v="Gunnarøyholmen" />
		<tag k="name" v="Gunnarholmen" />
		<tag k="place" v="islet" />
		<tag k="ssr:stedsnr" v="934501" />
	</node>
	<node id="-825143" lat="63.481594446" lon="9.48709723029">
		<tag k="name" v="Kvitvikneset" />
		<tag k="natural" v="cape" />
		<tag k="ssr:stedsnr" v="578084" />
	</node>
	<node id="-825139" lat="63.4706944465" lon="9.15480555578">
		<tag k="alt_name" v="Harraholmen" />
		<tag k="name" v="Hareholmen" />
		<tag k="place" v="islet" />
		<tag k="ssr:stedsnr" v="802570" />
	</node>
	<node id="-824967" lat="63.5069527745" lon="9.25616666505">
		<tag k="name" v="Nesaholmen" />
		<tag k="place" v="islet" />
		<tag k="ssr:stedsnr" v="316199" />
	</node>
	<node id="-825124" lat="63.5282916667" lon="9.28239999623">
		<tag k="fixme" v="consider seamark:type=rock or natural=shoal" />
		<tag k="name" v="Råskjæret" />
		<tag k="place" v="islet" />
		<tag k="ssr:stedsnr" v="944196" />
	</node>
	<node id="-825113" lat="63.5206555596" lon="9.24228332534">
		<tag k="name" v="Skottbukta" />
		<tag k="natural" v="bay" />
		<tag k="ssr:stedsnr" v="214185" />
	</node>
	<node id="-825110" lat="63.4749138845" lon="9.49544445121">
		<tag k="bay" v="fjord" />
		<tag k="name" v="Remmafjorden" />
		<tag k="natural" v="bay" />
		<tag k="ssr:stedsnr" v="336084" />
	</node>
	<node id="-825105" lat="63.4897944476" lon="9.13853332331">
		<tag k="name" v="Hamnaholmen" />
		<tag k="place" v="islet" />
		<tag k="ssr:stedsnr" v="701207" />
	</node>
	<node id="-825101" lat="63.5241555578" lon="9.3224444408">
		<tag k="name" v="Neset" />
		<tag k="natural" v="cape" />
		<tag k="ssr:stedsnr" v="336546" />
	</node>
	<node id="-825100" lat="63.3838666674" lon="9.21403611866">
		<tag k="name" v="Tenneset" />
		<tag k="natural" v="cape" />
		<tag k="ssr:stedsnr" v="923160" />
	</node>
	<node id="-825099" lat="63.3559638933" lon="9.25404444525">
		<tag k="name" v="Forraflua" />
		<tag k="natural" v="shoal" />
		<tag k="place" v="locality" />
		<tag k="ssr:stedsnr" v="772971" />
	</node>
	<node id="-825091" lat="63.3846750001" lon="9.42454721285">
		<tag k="name" v="Neset" />
		<tag k="natural" v="cape" />
		<tag k="ssr:stedsnr" v="882399" />
	</node>
	<node id="-825085" lat="63.5373" lon="9.3304555533">
		<tag k="name" v="Bølsskjæret" />
		<tag k="natural" v="cape" />
		<tag k="ssr:stedsnr" v="569843" />
	</node>
	<node id="-825077" lat="63.5133749993" lon="9.18142501001">
		<tag k="name" v="Ystholmen" />
		<tag k="place" v="islet" />
		<tag k="ssr:stedsnr" v="134528" />
	</node>
	<node id="-825074" lat="63.4951974624" lon="9.15218236598">
		<tag k="name" v="Sjøholmen" />
		<tag k="place" v="islet" />
		<tag k="ssr:stedsnr" v="336062" />
	</node>
	<node id="-825069" lat="63.4618194424" lon="9.38302222669">
		<tag k="name" v="Tollvikneset" />
		<tag k="natural" v="cape" />
		<tag k="ssr:stedsnr" v="700293" />
	</node>
	<node id="-825066" lat="63.5660861113" lon="9.44045556305">
		<tag k="name" v="Skrubbøya" />
		<tag k="place" v="islet" />
		<tag k="ssr:stedsnr" v="619151" />
	</node>
	<node id="-825060" lat="63.4439499974" lon="9.33077778315">
		<tag k="name" v="Buttulsbugen" />
		<tag k="natural" v="bay" />
		<tag k="ssr:stedsnr" v="276245" />
	</node>
	<node id="-825058" lat="63.4828499988" lon="9.50630834203">
		<tag k="name" v="Tobbvika" />
		<tag k="natural" v="bay" />
		<tag k="ssr:stedsnr" v="761100" />
	</node>
	<node id="-825051" lat="63.5318805553" lon="9.42783888269">
		<tag k="name" v="Skjevikvågen" />
		<tag k="natural" v="bay" />
		<tag k="ssr:stedsnr" v="336061" />
	</node>
	<node id="-825048" lat="63.4540944451" lon="9.38663333201">
		<tag k="name" v="Engvikflua" />
		<tag k="natural" v="shoal" />
		<tag k="place" v="locality" />
		<tag k="ssr:stedsnr" v="470087" />
	</node>
	<node id="-825045" lat="63.4563388849" lon="9.34049167143">
		<tag k="alt_name" v="Stålnebbe" />
		<tag k="name" v="Stålnebben" />
		<tag k="natural" v="cape" />
		<tag k="ssr:stedsnr" v="376961" />
	</node>
	<node id="-825044" lat="63.5585833348" lon="9.3951583303">
		<tag k="fixme" v="consider seamark:type=rock or natural=shoal" />
		<tag k="name" v="Ringskjæret" />
		<tag k="place" v="islet" />
		<tag k="ssr:stedsnr" v="700732" />
	</node>
	<node id="-825041" lat="63.4837583349" lon="9.50206666759">
		<tag k="name" v="Laberget" />
		<tag k="natural" v="cape" />
		<tag k="ssr:stedsnr" v="761102" />
	</node>
	<node id="-825035" lat="63.4520166672" lon="9.3158944384">
		<tag k="name" v="Finnvika" />
		<tag k="natural" v="bay" />
		<tag k="ssr:stedsnr" v="518579" />
	</node>
	<node id="-825031" lat="63.5399777747" lon="9.40228889503">
		<tag k="name" v="Råhølen" />
		<tag k="place" v="locality" />
		<tag k="ssr:stedsnr" v="943724" />
	</node>
	<node id="-825030" lat="63.3869222227" lon="9.45055000875">
		<tag k="fixme" v="consider seamark:type=rock or natural=shoal" />
		<tag k="name" v="Kvalungan" />
		<tag k="place" v="islet" />
		<tag k="ssr:stedsnr" v="882367" />
	</node>
	<node id="-825025" lat="63.4826861124" lon="9.16910278029">
		<tag k="name" v="Håvika" />
		<tag k="natural" v="bay" />
		<tag k="ssr:stedsnr" v="255471" />
	</node>
	<node id="-825016" lat="63.5459499993" lon="9.43191666624">
		<tag k="name" v="Kvistneset" />
		<tag k="natural" v="cape" />
		<tag k="ssr:stedsnr" v="336073" />
	</node>
	<node id="-824996" lat="63.3813694402" lon="9.41519721483">
		<tag k="name" v="Breivikbukta" />
		<tag k="natural" v="bay" />
		<tag k="ssr:stedsnr" v="275392" />
	</node>
	<node id="-824995" lat="63.5130361137" lon="9.39404445433">
		<tag k="name" v="Størkaneset" />
		<tag k="natural" v="cape" />
		<tag k="ssr:stedsnr" v="458733" />
	</node>
	<node id="-824990" lat="63.5370055531" lon="9.39258054912">
		<tag k="name" v="Småvika" />
		<tag k="natural" v="bay" />
		<tag k="ssr:stedsnr" v="288886" />
	</node>
	<node id="-824985" lat="63.3810833353" lon="9.45550832376">
		<tag k="fixme" v="consider seamark:type=rock or natural=shoal" />
		<tag k="name" v="Otersteinen" />
		<tag k="place" v="islet" />
		<tag k="ssr:stedsnr" v="822277" />
	</node>
	<node id="-824980" lat="63.4687333292" lon="9.15092221481">
		<tag k="fixme" v="consider seamark:type=rock or natural=shoal" />
		<tag k="name" v="Nordskjæret" />
		<tag k="place" v="islet" />
		<tag k="ssr:stedsnr" v="215039" />
	</node>
	<node id="-824975" lat="63.4589805527" lon="9.37763887968">
		<tag k="fixme" v="consider seamark:type=rock or natural=shoal" />
		<tag k="name" v="Tollvikskjæret" />
		<tag k="place" v="islet" />
		<tag k="ssr:stedsnr" v="639671" />
	</node>
	<node id="-824973" lat="63.3633944433" lon="9.3127055578">
		<tag k="name" v="Ørtangen" />
		<tag k="natural" v="cape" />
		<tag k="ssr:stedsnr" v="578915" />
	</node>
	<node id="-824971" lat="63.47523611" lon="9.48973332349">
		<tag k="name" v="Hestøya" />
		<tag k="place" v="islet" />
		<tag k="ssr:stedsnr" v="679977" />
	</node>
	<node id="-824200" lat="63.4665249984" lon="9.18215000052">
		<tag k="name" v="Yttervågen" />
		<tag k="natural" v="bay" />
		<tag k="ssr:stedsnr" v="438480" />
	</node>
	<node id="-824939" lat="63.502511114" lon="9.18188333777">
		<tag k="name" v="Litlsundet" />
		<tag k="natural" v="strait" />
		<tag k="ssr:stedsnr" v="276241" />
	</node>
	<node id="-824959" lat="63.5013000043" lon="9.41989443651">
		<tag k="fixme" v="consider seamark:type=rock or natural=shoal" />
		<tag k="name" v="Salmonskjæret" />
		<tag k="place" v="islet" />
		<tag k="ssr:stedsnr" v="336049" />
	</node>
	<node id="-824954" lat="63.4427388889" lon="9.17492499497">
		<tag k="alt_name" v="Nordre Fuglen" />
		<tag k="name" v="Nord-Fuglet" />
		<tag k="place" v="islet" />
		<tag k="ssr:stedsnr" v="578059" />
	</node>
	<node id="-824951" lat="63.5720888928" lon="9.46698888266">
		<tag k="name" v="Råsa" />
		<tag k="natural" v="shoal" />
		<tag k="place" v="locality" />
		<tag k="ssr:stedsnr" v="349991" />
	</node>
	<node id="-824949" lat="63.5258138879" lon="9.29286667527">
		<tag k="name" v="Kamvikbukta" />
		<tag k="natural" v="bay" />
		<tag k="ssr:stedsnr" v="761572" />
	</node>
	<node id="-826642" lat="63.5174611109" lon="9.30375832794">
		<tag k="fixme" v="consider seamark:type=rock or natural=shoal" />
		<tag k="name" v="Skjæraskjæret" />
		<tag k="place" v="islet" />
		<tag k="ssr:stedsnr" v="822560" />
	</node>
	<node id="-824936" lat="63.5446222242" lon="9.41584166747">
		<tag k="name" v="Åsøya" />
		<tag k="place" v="island" />
		<tag k="ssr:stedsnr" v="619156" />
	</node>
	<node id="-824934" lat="63.5310583361" lon="9.3258611019">
		<tag k="name" v="Ørnvika" />
		<tag k="natural" v="bay" />
		<tag k="ssr:stedsnr" v="578496" />
	</node>
	<node id="-824927" lat="63.4299722236" lon="9.18560278407">
		<tag k="fixme" v="consider seamark:type=rock or natural=shoal" />
		<tag k="name" v="Stokkaunskjæret" />
		<tag k="place" v="islet" />
		<tag k="ssr:stedsnr" v="336057" />
	</node>
	<node id="-826298" lat="63.3734111123" lon="9.30717500622">
		<tag k="name" v="Klungervikkalvvika" />
		<tag k="natural" v="bay" />
		<tag k="ssr:stedsnr" v="458946" />
	</node>
	<node id="-824915" lat="63.3890972179" lon="9.20523334007">
		<tag k="name" v="Båsneset" />
		<tag k="natural" v="cape" />
		<tag k="ssr:stedsnr" v="12648" />
	</node>
	<node id="-824248" lat="63.5153638889" lon="9.38988889705">
		<tag k="name" v="Storbukta" />
		<tag k="natural" v="bay" />
		<tag k="ssr:stedsnr" v="94252" />
	</node>
	<node id="-824906" lat="63.3727305532" lon="9.32465833702">
		<tag k="name" v="Klungervikneset" />
		<tag k="natural" v="cape" />
		<tag k="ssr:stedsnr" v="640929" />
	</node>
	<node id="-824895" lat="63.4641749962" lon="9.48385277235">
		<tag k="name" v="Britvika" />
		<tag k="natural" v="bay" />
		<tag k="ssr:stedsnr" v="761110" />
	</node>
	<node id="-824894" lat="63.3611472221" lon="9.32463332348">
		<tag k="name" v="Skjelneset" />
		<tag k="natural" v="cape" />
		<tag k="ssr:stedsnr" v="215975" />
	</node>
	<node id="-824891" lat="63.4742750039" lon="9.33308333796">
		<tag k="name" v="Vedbergneset" />
		<tag k="natural" v="cape" />
		<tag k="ssr:stedsnr" v="883678" />
	</node>
	<node id="-824874" lat="63.530916663" lon="9.39882221472">
		<tag k="name" v="Svaet" />
		<tag k="natural" v="shoal" />
		<tag k="place" v="locality" />
		<tag k="ssr:stedsnr" v="700712" />
	</node>
	<node id="-824868" lat="63.3625666659" lon="9.32610277193">
		<tag k="name" v="Neståa" />
		<tag k="natural" v="cape" />
		<tag k="ssr:stedsnr" v="336944" />
	</node>
	<node id="-824864" lat="63.512702777" lon="9.25553889079">
		<tag k="name" v="Ørnvika" />
		<tag k="natural" v="bay" />
		<tag k="ssr:stedsnr" v="335197" />
	</node>
	<node id="-824858" lat="63.5746250033" lon="9.45591943901">
		<tag k="name" v="Bjørnøyaunet" />
		<tag k="natural" v="cape" />
		<tag k="ssr:stedsnr" v="578046" />
	</node>
	<node id="-824857" lat="63.4668555585" lon="9.45410277535">
		<tag k="name" v="Storvikholmen" />
		<tag k="place" v="islet" />
		<tag k="ssr:stedsnr" v="761527" />
	</node>
	<node id="-824848" lat="63.4698055581" lon="9.49355555046">
		<tag k="name" v="Sagørbukta" />
		<tag k="natural" v="bay" />
		<tag k="ssr:stedsnr" v="518090" />
	</node>
	<node id="-824834" lat="63.5702527785" lon="9.48695555553">
		<tag k="name" v="Seterneset" />
		<tag k="natural" v="cape" />
		<tag k="ssr:stedsnr" v="619133" />
	</node>
	<node id="-824827" lat="63.4749444406" lon="9.14810555429">
		<tag k="name" v="Tjuvholmen" />
		<tag k="place" v="islet" />
		<tag k="ssr:stedsnr" v="377491" />
	</node>
	<node id="-824824" lat="63.5042694463" lon="9.25940555191">
		<tag k="name" v="Kvalen" />
		<tag k="natural" v="shoal" />
		<tag k="place" v="locality" />
		<tag k="ssr:stedsnr" v="335207" />
	</node>
	<node id="-824808" lat="63.5269805576" lon="9.31909999335">
		<tag k="name" v="Våbergvorpa" />
		<tag k="place" v="locality" />
		<tag k="ssr:stedsnr" v="93488" />
	</node>
	<node id="-824807" lat="63.5373888857" lon="9.44075833684">
		<tag k="name" v="Ramvikvågen" />
		<tag k="natural" v="bay" />
		<tag k="ssr:stedsnr" v="93048" />
	</node>
	<node id="-824799" lat="63.5243888927" lon="9.29725556146">
		<tag k="name" v="Litlvika" />
		<tag k="natural" v="bay" />
		<tag k="ssr:stedsnr" v="578487" />
	</node>
	<node id="-824795" lat="63.3623027768" lon="9.32374443953">
		<tag k="name" v="Kalvtrøneset" />
		<tag k="natural" v="cape" />
		<tag k="ssr:stedsnr" v="438818" />
	</node>
	<node id="-824790" lat="63.572505554" lon="9.48681667148">
		<tag k="fixme" v="consider seamark:type=rock or natural=shoal" />
		<tag k="name" v="Oterskjæra" />
		<tag k="place" v="islet" />
		<tag k="ssr:stedsnr" v="215022" />
	</node>
	<node id="-824789" lat="63.5331277756" lon="9.42672499318">
		<tag k="name" v="Skjevikneset" />
		<tag k="natural" v="cape" />
		<tag k="ssr:stedsnr" v="761065" />
	</node>
	<node id="-824783" lat="63.5342111076" lon="9.39992221415">
		<tag k="name" v="Monsholmen" />
		<tag k="place" v="islet" />
		<tag k="ssr:stedsnr" v="13169" />
	</node>
	<node id="-824780" lat="63.4665111131" lon="9.43531389166">
		<tag k="name" v="Naustflua" />
		<tag k="natural" v="shoal" />
		<tag k="place" v="locality" />
		<tag k="ssr:stedsnr" v="712935" />
	</node>
	<node id="-824776" lat="63.4667416634" lon="9.45263888696">
		<tag k="name" v="Storvikneset" />
		<tag k="natural" v="cape" />
		<tag k="ssr:stedsnr" v="822267" />
	</node>
	<node id="-824775" lat="63.4897777788" lon="9.11908334098">
		<tag k="name" v="Hemnskjela" />
		<tag k="place" v="island" />
		<tag k="ssr:stedsnr" v="740441" />
	</node>
	<node id="-824763" lat="63.5044250006" lon="9.42357499754">
		<tag k="name" v="Litlholmen" />
		<tag k="place" v="islet" />
		<tag k="ssr:stedsnr" v="93035" />
	</node>
	<node id="-824757" lat="63.4818944463" lon="9.48768611827">
		<tag k="name" v="Kvirtvika" />
		<tag k="natural" v="bay" />
		<tag k="ssr:stedsnr" v="154106" />
	</node>
	<node id="-824755" lat="63.4472333308" lon="9.21439166285">
		<tag k="name" v="Litleflua" />
		<tag k="natural" v="shoal" />
		<tag k="place" v="locality" />
		<tag k="ssr:stedsnr" v="834054" />
	</node>
	<node id="-824754" lat="63.4388305576" lon="9.22749723082">
		<tag k="name" v="Vikaskallen" />
		<tag k="natural" v="shoal" />
		<tag k="place" v="locality" />
		<tag k="ssr:stedsnr" v="651470" />
	</node>
	<node id="-824753" lat="63.5538527791" lon="9.37329723192">
		<tag k="name" v="Sjursvikneset" />
		<tag k="natural" v="cape" />
		<tag k="ssr:stedsnr" v="822711" />
	</node>
	<node id="-824743" lat="63.4553833337" lon="9.15366111594">
		<tag k="name" v="Jamtøyneset" />
		<tag k="natural" v="cape" />
		<tag k="ssr:stedsnr" v="316436" />
	</node>
	<node id="-824740" lat="63.5376611147" lon="9.41396944939">
		<tag k="name" v="Furuholmen" />
		<tag k="place" v="islet" />
		<tag k="ssr:stedsnr" v="13167" />
	</node>
	<node id="-824728" lat="63.4871388878" lon="9.13954722143">
		<tag k="name" v="Hylltåa" />
		<tag k="natural" v="cape" />
		<tag k="ssr:stedsnr" v="578038" />
	</node>
	<node id="-824723" lat="63.4672833308" lon="9.59316111218">
		<tag k="name" v="Rørkastet" />
		<tag k="place" v="locality" />
		<tag k="ssr:stedsnr" v="33082" />
	</node>
	<node id="-824718" lat="63.4734083351" lon="9.44498056317">
		<tag k="name" v="Kvitbergbukta" />
		<tag k="natural" v="bay" />
		<tag k="ssr:stedsnr" v="578022" />
	</node>
	<node id="-824708" lat="63.5124833306" lon="9.41667499952">
		<tag k="name" v="Furuneset" />
		<tag k="natural" v="cape" />
		<tag k="ssr:stedsnr" v="518062" />
	</node>
	<node id="-824701" lat="63.524036115" lon="9.29969165873">
		<tag k="name" v="Sveltneset" />
		<tag k="natural" v="cape" />
		<tag k="ssr:stedsnr" v="93460" />
	</node>
	<node id="-824700" lat="63.481627781" lon="9.10154999126">
		<tag k="name" v="Knubben" />
		<tag k="natural" v="cape" />
		<tag k="ssr:stedsnr" v="73493" />
	</node>
	<node id="-824699" lat="63.5303361119" lon="9.41647777789">
		<tag k="name" v="Rønnessundet" />
		<tag k="natural" v="strait" />
		<tag k="ssr:stedsnr" v="518063" />
	</node>
	<node id="-824694" lat="63.429922226" lon="9.19185278508">
		<tag k="name" v="Kvithylla" />
		<tag k="natural" v="cape" />
		<tag k="ssr:stedsnr" v="518060" />
	</node>
	<node id="-824692" lat="63.4916916654" lon="9.27955277173">
		<tag k="name" v="Osaneset" />
		<tag k="natural" v="cape" />
		<tag k="ssr:stedsnr" v="397270" />
	</node>
	<node id="-824685" lat="63.464847226" lon="9.46698611015">
		<tag k="bay" v="fjord" />
		<tag k="name" v="Sagfjorden" />
		<tag k="natural" v="bay" />
		<tag k="ssr:stedsnr" v="801958" />
	</node>
	<node id="-824684" lat="63.4945666674" lon="9.17263333761">
		<tag k="alt_name" v="Skjeldneset;Skjelneset" />
		<tag k="name" v="Skjelnes" />
		<tag k="natural" v="cape" />
		<tag k="ssr:stedsnr" v="437484" />
	</node>
	<node id="-826711" lat="63.5003833359" lon="9.1299833264">
		<tag k="name" v="Vorpneset" />
		<tag k="natural" v="cape" />
		<tag k="ssr:stedsnr" v="31638" />
	</node>
	<node id="-826704" lat="63.5036749987" lon="9.11977777">
		<tag k="name" v="Skeia" />
		<tag k="place" v="locality" />
		<tag k="ssr:stedsnr" v="94221" />
	</node>
	<node id="-826701" lat="63.4782333332" lon="9.06190000703">
		<tag k="name" v="Indre Kvalholmfluan" />
		<tag k="natural" v="shoal" />
		<tag k="place" v="locality" />
		<tag k="ssr:stedsnr" v="45602" />
	</node>
	<node id="-826700" lat="63.3866777745" lon="9.44968888295">
		<tag k="name" v="Trønesholet" />
		<tag k="place" v="locality" />
		<tag k="ssr:stedsnr" v="518411" />
	</node>
	<node id="-824648" lat="63.5177555552" lon="9.29623055004">
		<tag k="name" v="Spelmannsneset" />
		<tag k="natural" v="cape" />
		<tag k="ssr:stedsnr" v="822240" />
	</node>
	<node id="-826688" lat="63.5126888917" lon="9.21078332769">
		<tag k="fixme" v="consider seamark:type=rock or natural=shoal" />
		<tag k="name" v="Trollvikskjæret" />
		<tag k="place" v="islet" />
		<tag k="ssr:stedsnr" v="74485" />
	</node>
	<node id="-824639" lat="63.4492138877" lon="9.29580000311">
		<tag k="name" v="Stokkvika" />
		<tag k="natural" v="bay" />
		<tag k="ssr:stedsnr" v="458659" />
	</node>
	<node id="-826683" lat="63.5557583303" lon="9.38102500655">
		<tag k="name" v="Risholmen" />
		<tag k="natural" v="cape" />
		<tag k="ssr:stedsnr" v="134164" />
	</node>
	<node id="-824628" lat="63.464036108" lon="9.33291387958">
		<tag k="name" v="Langnesbukta" />
		<tag k="natural" v="bay" />
		<tag k="ssr:stedsnr" v="639610" />
	</node>
	<node id="-824627" lat="63.4376583314" lon="9.15930276906">
		<tag k="alt_name" v="Søre Fuglen" />
		<tag k="name" v="Sør-Fuglet" />
		<tag k="place" v="islet" />
		<tag k="ssr:stedsnr" v="761060" />
	</node>
	<node id="-824626" lat="63.5460166696" lon="9.4340527836">
		<tag k="name" v="Kvisten" />
		<tag k="natural" v="shoal" />
		<tag k="place" v="locality" />
		<tag k="ssr:stedsnr" v="154064" />
	</node>
	<node id="-826671" lat="63.4784833307" lon="9.12678889527">
		<tag k="fixme" v="consider seamark:type=rock or natural=shoal" />
		<tag k="name" v="Småskjæra" />
		<tag k="place" v="islet" />
		<tag k="ssr:stedsnr" v="195500" />
	</node>
	<node id="-824621" lat="63.5160833346" lon="9.29674722729">
		<tag k="name" v="Innervågen" />
		<tag k="natural" v="bay" />
		<tag k="ssr:stedsnr" v="228890" />
	</node>
	<node id="-824613" lat="63.5491083356" lon="9.39725554575">
		<tag k="name" v="Litlvikneset" />
		<tag k="natural" v="bay" />
		<tag k="ssr:stedsnr" v="834872" />
	</node>
	<node id="-824612" lat="63.502244447" lon="9.42109999525">
		<tag k="name" v="Holmen" />
		<tag k="place" v="islet" />
		<tag k="ssr:stedsnr" v="33054" />
	</node>
	<node id="-824611" lat="63.4662055581" lon="9.13295277577">
		<tag k="name" v="Storurdbukta" />
		<tag k="natural" v="bay" />
		<tag k="ssr:stedsnr" v="518046" />
	</node>
	<node id="-826657" lat="63.4753222217" lon="9.47438055586">
		<tag k="name" v="Stabbursundet" />
		<tag k="natural" v="strait" />
		<tag k="ssr:stedsnr" v="639018" />
	</node>
	<node id="-824604" lat="63.5029861146" lon="9.25068887979">
		<tag k="name" v="Røssvikbukta" />
		<tag k="natural" v="bay" />
		<tag k="ssr:stedsnr" v="517204" />
	</node>
	<node id="-824598" lat="63.4800805572" lon="9.1121333363">
		<tag k="fixme" v="consider seamark:type=rock or natural=shoal" />
		<tag k="name" v="Vikaskjæret" />
		<tag k="place" v="islet" />
		<tag k="ssr:stedsnr" v="33052" />
	</node>
	<node id="-824596" lat="63.5312927639" lon="9.41377522387">
		<tag k="name" v="Tyskøya" />
		<tag k="place" v="islet" />
		<tag k="ssr:stedsnr" v="316173" />
	</node>
	<node id="-824594" lat="63.4917861113" lon="9.10188610871">
		<tag k="name" v="Kuppelvika" />
		<tag k="natural" v="bay" />
		<tag k="ssr:stedsnr" v="801448" />
	</node>
	<node id="-826639" lat="63.4894527822" lon="9.09854444112">
		<tag k="alt_name" v="Sveholmen, l" />
		<tag k="name" v="Litlsveholmen" />
		<tag k="place" v="islet" />
		<tag k="ssr:stedsnr" v="862455" />
	</node>
	<node id="-826637" lat="63.5536833322" lon="9.42187222693">
		<tag k="fixme" v="multiple name tags, choose one and add the other to alt_name" />
		<tag k="name" v="Gulholmen;Rundholmen" />
		<tag k="place" v="islet" />
		<tag k="ssr:stedsnr" v="761834" />
	</node>
	<node id="-824576" lat="63.441563892" lon="9.30188889168">
		<tag k="name" v="Fetasundet" />
		<tag k="natural" v="strait" />
		<tag k="ssr:stedsnr" v="712453" />
	</node>
	<node id="-826621" lat="63.5526277815" lon="9.4184722261">
		<tag k="name" v="Flatholmen" />
		<tag k="place" v="islet" />
		<tag k="ssr:stedsnr" v="377128" />
	</node>
	<node id="-826618" lat="63.3690027778" lon="9.35951388597">
		<tag k="bay" v="fjord" />
		<tag k="name" v="Snillfjorden" />
		<tag k="natural" v="bay" />
		<tag k="ssr:stedsnr" v="923836" />
	</node>
	<node id="-824568" lat="63.422025001" lon="9.18318054909">
		<tag k="name" v="Galtneset" />
		<tag k="natural" v="cape" />
		<tag k="ssr:stedsnr" v="822202" />
	</node>
	<node id="-824566" lat="63.457463891" lon="9.16160555206">
		<tag k="fixme" v="multiple name tags, choose one and add the other to alt_name" />
		<tag k="name" v="Skrubbøyholmen;Skrubbøyskjæret" />
		<tag k="place" v="islet" />
		<tag k="ssr:stedsnr" v="397229" />
	</node>
	<node id="-824561" lat="63.4449333361" lon="9.32451666419">
		<tag k="alt_name" v="Buttesbugneset" />
		<tag k="name" v="Buganeset" />
		<tag k="natural" v="cape" />
		<tag k="ssr:stedsnr" v="133940" />
	</node>
	<node id="-824556" lat="63.3704972242" lon="9.40820554594">
		<tag k="fixme" v="consider seamark:type=rock or natural=shoal" />
		<tag k="name" v="Åkertrøskjæret" />
		<tag k="place" v="islet" />
		<tag k="ssr:stedsnr" v="761476" />
	</node>
	<node id="-824551" lat="63.4981722247" lon="9.16817500019">
		<tag k="name" v="Skardbergflua" />
		<tag k="natural" v="shoal" />
		<tag k="place" v="locality" />
		<tag k="ssr:stedsnr" v="106914" />
	</node>
	<node id="-824547" lat="63.4482416697" lon="9.12916388545">
		<tag k="name" v="Kvitholmfluan" />
		<tag k="natural" v="shoal" />
		<tag k="place" v="locality" />
		<tag k="ssr:stedsnr" v="835679" />
	</node>
	<node id="-826591" lat="63.3729805593" lon="9.23217500832">
		<tag k="name" v="Hafsmoneset" />
		<tag k="natural" v="cape" />
		<tag k="ssr:stedsnr" v="619865" />
	</node>
	<node id="-826589" lat="63.4644833324" lon="9.46371943691">
		<tag k="name" v="Hundneset" />
		<tag k="natural" v="cape" />
		<tag k="ssr:stedsnr" v="458551" />
	</node>
	<node id="-826585" lat="63.5269166675" lon="9.32202221645">
		<tag k="name" v="Våbergsbukta" />
		<tag k="natural" v="bay" />
		<tag k="ssr:stedsnr" v="397590" />
	</node>
	<node id="-826578" lat="63.4383055537" lon="9.16088332536">
		<tag k="name" v="Fuglan" />
		<tag k="place" v="islet" />
		<tag k="ssr:stedsnr" v="498461" />
	</node>
	<node id="-826575" lat="63.563449997" lon="9.47951111749">
		<tag k="name" v="Nordvågen" />
		<tag k="natural" v="bay" />
		<tag k="ssr:stedsnr" v="134149" />
	</node>
	<node id="-826574" lat="63.5543416697" lon="9.46402500619">
		<tag k="name" v="Håvika" />
		<tag k="natural" v="bay" />
		<tag k="ssr:stedsnr" v="84570" />
	</node>
	<node id="-826570" lat="63.5078972183" lon="9.17793611271">
		<tag k="name" v="Meholmen" />
		<tag k="place" v="islet" />
		<tag k="ssr:stedsnr" v="74468" />
	</node>
	<node id="-824518" lat="63.4632527752" lon="9.45893610842">
		<tag k="name" v="Storvika" />
		<tag k="natural" v="bay" />
		<tag k="ssr:stedsnr" v="348675" />
	</node>
	<node id="-826565" lat="63.3872972205" lon="9.45160833972">
		<tag k="name" v="Seljevika" />
		<tag k="natural" v="bay" />
		<tag k="ssr:stedsnr" v="93345" />
	</node>
	<node id="-824181" lat="63.448683332" lon="9.29456112054">
		<tag k="name" v="Stokkvikneset" />
		<tag k="natural" v="cape" />
		<tag k="ssr:stedsnr" v="579659" />
	</node>
	<node id="-824507" lat="63.3770527777" lon="9.43868889652">
		<tag k="name" v="Jevikøra" />
		<tag k="natural" v="beach" />
		<tag k="place" v="locality" />
		<tag k="ssr:stedsnr" v="761467" />
	</node>
	<node id="-826551" lat="63.5526027782" lon="9.43266111722">
		<tag k="name" v="Åsøykalven" />
		<tag k="place" v="islet" />
		<tag k="ssr:stedsnr" v="377131" />
	</node>
	<node id="-826544" lat="63.4793944433" lon="9.48927778679">
		<tag k="name" v="Langneset" />
		<tag k="natural" v="cape" />
		<tag k="ssr:stedsnr" v="822083" />
	</node>
	<node id="-826542" lat="63.3516333319" lon="9.26627500037">
		<tag k="fixme" v="consider seamark:type=rock or natural=shoal" />
		<tag k="name" v="Galten" />
		<tag k="place" v="islet" />
		<tag k="ssr:stedsnr" v="579168" />
	</node>
	<node id="-826541" lat="63.4766222238" lon="9.48321111457">
		<tag k="name" v="Hundholmen" />
		<tag k="place" v="islet" />
		<tag k="ssr:stedsnr" v="822082" />
	</node>
	<node id="-826539" lat="63.4708444446" lon="9.49672221305">
		<tag k="name" v="Matiasbukta" />
		<tag k="natural" v="bay" />
		<tag k="ssr:stedsnr" v="409764" />
	</node>
	<node id="-826537" lat="63.5112777785" lon="9.24129722049">
		<tag k="name" v="Aunvika" />
		<tag k="natural" v="bay" />
		<tag k="ssr:stedsnr" v="591719" />
	</node>
	<node id="-826535" lat="63.5043638922" lon="9.20206111375">
		<tag k="alt_name" v="Slåttavika" />
		<tag k="name" v="Slåttavik" />
		<tag k="natural" v="bay" />
		<tag k="ssr:stedsnr" v="438453" />
	</node>
	<node id="-826530" lat="63.336250004" lon="9.24060834261">
		<tag k="name" v="Vikaskjæret" />
		<tag k="natural" v="cape" />
		<tag k="ssr:stedsnr" v="33832" />
	</node>
	<node id="-824478" lat="63.506322224" lon="9.27153056531">
		<tag k="alt_name" v="Sørvågen" />
		<tag k="name" v="Sørvingvågen" />
		<tag k="natural" v="bay" />
		<tag k="ssr:stedsnr" v="785166" />
	</node>
	<node id="-824517" lat="63.4967444472" lon="9.17278056239">
		<tag k="name" v="Ausa" />
		<tag k="natural" v="cape" />
		<tag k="ssr:stedsnr" v="397240" />
	</node>
	<node id="-826522" lat="63.533752778" lon="9.32741944215">
		<tag k="name" v="Meberget" />
		<tag k="natural" v="cape" />
		<tag k="ssr:stedsnr" v="943527" />
	</node>
	<node id="-826519" lat="63.4669166697" lon="9.49007221961">
		<tag k="name" v="Sagneset" />
		<tag k="natural" v="cape" />
		<tag k="ssr:stedsnr" v="701822" />
	</node>
	<node id="-826518" lat="63.334888891" lon="9.22666944527">
		<tag k="name" v="Lakshylla" />
		<tag k="natural" v="cape" />
		<tag k="ssr:stedsnr" v="33827" />
	</node>
	<node id="-824467" lat="63.4750055583" lon="9.457880549">
		<tag k="name" v="Innerneset" />
		<tag k="natural" v="cape" />
		<tag k="ssr:stedsnr" v="761029" />
	</node>
	<node id="-826513" lat="63.5267166679" lon="9.29425278061">
		<tag k="name" v="Kamvikvorpa" />
		<tag k="place" v="locality" />
		<tag k="ssr:stedsnr" v="700541" />
	</node>
	<node id="-826502" lat="63.527283329" lon="9.29384165855">
		<tag k="name" v="Kamvikneset" />
		<tag k="natural" v="cape" />
		<tag k="ssr:stedsnr" v="700543" />
	</node>
	<node id="-824453" lat="63.3745166664" lon="9.32046945335">
		<tag k="name" v="Klungervikbukta" />
		<tag k="natural" v="bay" />
		<tag k="ssr:stedsnr" v="701937" />
	</node>
	<node id="-824450" lat="63.5007027765" lon="9.18259166437">
		<tag k="name" v="Søre Rørvika" />
		<tag k="natural" v="bay" />
		<tag k="ssr:stedsnr" v="167941" />
	</node>
	<node id="-824444" lat="63.3846916642" lon="9.43641667171">
		<tag k="name" v="Hundstubben" />
		<tag k="natural" v="cape" />
		<tag k="ssr:stedsnr" v="578418" />
	</node>
	<node id="-826491" lat="63.4969250043" lon="9.15731944097">
		<tag k="name" v="Strandaholmen" />
		<tag k="natural" v="cape" />
		<tag k="ssr:stedsnr" v="882173" />
	</node>
	<node id="-826486" lat="63.5519138908" lon="9.41958334233">
		<tag k="name" v="Flatholmsundet" />
		<tag k="natural" v="strait" />
		<tag k="ssr:stedsnr" v="700078" />
	</node>
	<node id="-824431" lat="63.441263892" lon="9.29473055104">
		<tag k="fixme" v="consider seamark:type=rock or natural=shoal" />
		<tag k="name" v="Rognskjæret" />
		<tag k="place" v="islet" />
		<tag k="ssr:stedsnr" v="712454" />
	</node>
	<node id="-826478" lat="63.5505060468" lon="9.40027886506">
		<tag k="name" v="Innervågen" />
		<tag k="natural" v="bay" />
		<tag k="ssr:stedsnr" v="256134" />
	</node>
	<node id="-824429" lat="63.4737694431" lon="9.45191388491">
		<tag k="name" v="Ytterneset" />
		<tag k="natural" v="cape" />
		<tag k="ssr:stedsnr" v="518022" />
	</node>
	<node id="-826471" lat="63.4465444409" lon="9.30146110905">
		<tag k="alt_name" v="Stolpnesklakken" />
		<tag k="fixme" v="consider seamark:type=rock or natural=shoal" />
		<tag k="name" v="Klakken" />
		<tag k="place" v="islet" />
		<tag k="ssr:stedsnr" v="437927" />
	</node>
	<node id="-826469" lat="63.5327527776" lon="9.32726389194">
		<tag k="name" v="Trollvika" />
		<tag k="natural" v="bay" />
		<tag k="ssr:stedsnr" v="498211" />
	</node>
	<node id="-824417" lat="63.4465611111" lon="9.30194445433">
		<tag k="name" v="Stolpnes" />
		<tag k="natural" v="cape" />
		<tag k="ssr:stedsnr" v="93838" />
	</node>
	<node id="-826460" lat="63.4827833313" lon="9.13915834225">
		<tag k="name" v="Karneset" />
		<tag k="natural" v="cape" />
		<tag k="ssr:stedsnr" v="438458" />
	</node>
	<node id="-826457" lat="63.5223361141" lon="9.24143055416">
		<tag k="fixme" v="consider seamark:type=rock or natural=shoal" />
		<tag k="name" v="Skottskjæret" />
		<tag k="place" v="islet" />
		<tag k="ssr:stedsnr" v="882179" />
	</node>
	<node id="-826454" lat="63.5681388911" lon="9.4527500081">
		<tag k="name" v="Gunnarøya" />
		<tag k="place" v="island" />
		<tag k="ssr:stedsnr" v="134142" />
	</node>
	<node id="-826453" lat="63.4456750025" lon="9.12845834009">
		<tag k="fixme" v="consider seamark:type=rock or natural=shoal" />
		<tag k="name" v="Kvitholmskjæret" />
		<tag k="place" v="islet" />
		<tag k="ssr:stedsnr" v="943069" />
	</node>
	<node id="-824403" lat="63.4899555528" lon="9.15106944572">
		<tag k="name" v="Mannberget" />
		<tag k="natural" v="cape" />
		<tag k="ssr:stedsnr" v="154031" />
	</node>
	<node id="-826446" lat="63.5739194468" lon="9.5068555477">
		<tag k="fixme" v="consider seamark:type=rock or natural=shoal" />
		<tag k="name" v="Langskjæret" />
		<tag k="place" v="islet" />
		<tag k="ssr:stedsnr" v="377110" />
	</node>
	<node id="-826445" lat="63.4829916622" lon="9.0579972291">
		<tag k="name" v="Ytre Kvalholmfluan" />
		<tag k="natural" v="shoal" />
		<tag k="place" v="locality" />
		<tag k="ssr:stedsnr" v="773608" />
	</node>
	<node id="-826436" lat="63.5446277761" lon="9.33112223073">
		<tag k="name" v="Trettholmen" />
		<tag k="place" v="islet" />
		<tag k="ssr:stedsnr" v="802156" />
	</node>
	<node id="-826433" lat="63.4372694443" lon="9.23847777331">
		<tag k="name" v="Valholmen" />
		<tag k="place" v="islet" />
		<tag k="ssr:stedsnr" v="579157" />
	</node>
	<node id="-824382" lat="63.5484833298" lon="9.41136944555">
		<tag k="name" v="Langvika" />
		<tag k="natural" v="bay" />
		<tag k="ssr:stedsnr" v="741160" />
	</node>
	<node id="-824381" lat="63.3866388869" lon="9.21172222471">
		<tag k="name" v="Buvikneset" />
		<tag k="natural" v="cape" />
		<tag k="ssr:stedsnr" v="639075" />
	</node>
	<node id="-826425" lat="63.4693555591" lon="9.32576666081">
		<tag k="fixme" v="consider seamark:type=rock or natural=shoal" />
		<tag k="name" v="Furuholmtangen" />
		<tag k="place" v="islet" />
		<tag k="ssr:stedsnr" v="337601" />
	</node>
	<node id="-826423" lat="63.4384416707" lon="9.27965000275">
		<tag k="name" v="Båtvika" />
		<tag k="natural" v="bay" />
		<tag k="ssr:stedsnr" v="579158" />
	</node>
	<node id="-824372" lat="63.3476000029" lon="9.25885556274">
		<tag k="name" v="Forrabukta" />
		<tag k="natural" v="bay" />
		<tag k="ssr:stedsnr" v="458186" />
	</node>
	<node id="-826412" lat="63.5141750006" lon="9.21387778255">
		<tag k="name" v="Bruravika" />
		<tag k="natural" v="bay" />
		<tag k="ssr:stedsnr" v="275181" />
	</node>
	<node id="-824358" lat="63.3389277787" lon="9.22908332732">
		<tag k="alt_name" v="Berdalsbugen" />
		<tag k="name" v="Berdalsbogen" />
		<tag k="natural" v="bay" />
		<tag k="ssr:stedsnr" v="437169" />
	</node>
	<node id="-824353" lat="63.4596472205" lon="9.41544166574">
		<tag k="name" v="Sauneset" />
		<tag k="natural" v="cape" />
		<tag k="ssr:stedsnr" v="518006" />
	</node>
	<node id="-826400" lat="63.4820083295" lon="9.50240277635">
		<tag k="name" v="Stokkvika" />
		<tag k="natural" v="bay" />
		<tag k="ssr:stedsnr" v="822088" />
	</node>
	<node id="-824154" lat="63.3801861085" lon="9.23016667394">
		<tag k="name" v="Tannvikvågen" />
		<tag k="natural" v="bay" />
		<tag k="ssr:stedsnr" v="12824" />
	</node>
	<node id="-826390" lat="63.3823194471" lon="9.41600834157">
		<tag k="name" v="Oterholet" />
		<tag k="place" v="locality" />
		<tag k="ssr:stedsnr" v="458525" />
	</node>
	<node id="-826388" lat="63.5100694424" lon="9.2599305582">
		<tag k="name" v="Klippervika" />
		<tag k="natural" v="bay" />
		<tag k="ssr:stedsnr" v="275189" />
	</node>
	<node id="-826380" lat="63.5030888916" lon="9.2565916723">
		<tag k="name" v="Persneset" />
		<tag k="natural" v="cape" />
		<tag k="ssr:stedsnr" v="882192" />
	</node>
	<node id="-826379" lat="63.5183277747" lon="9.31128332379">
		<tag k="name" v="Malivika" />
		<tag k="natural" v="bay" />
		<tag k="ssr:stedsnr" v="397547" />
	</node>
	<node id="-826373" lat="63.3588805593" lon="9.31918611053">
		<tag k="name" v="Skjertåa" />
		<tag k="natural" v="cape" />
		<tag k="ssr:stedsnr" v="397977" />
	</node>
	<node id="-826371" lat="63.385424998" lon="9.42852777708">
		<tag k="name" v="Breivikbukta" />
		<tag k="natural" v="bay" />
		<tag k="ssr:stedsnr" v="822508" />
	</node>
	<node id="-824321" lat="63.463519444" lon="9.12518055306">
		<tag k="name" v="Synnsvikflua" />
		<tag k="natural" v="shoal" />
		<tag k="place" v="locality" />
		<tag k="ssr:stedsnr" v="652644" />
	</node>
	<node id="-826368" lat="63.4125083299" lon="9.17878611932">
		<tag k="name" v="Litlmoldvika" />
		<tag k="natural" v="bay" />
		<tag k="ssr:stedsnr" v="822053" />
	</node>
	<node id="-826366" lat="63.5457166642" lon="9.34731110628">
		<tag k="name" v="Bystingneset" />
		<tag k="natural" v="cape" />
		<tag k="ssr:stedsnr" v="215762" />
	</node>
	<node id="-824310" lat="63.4615027784" lon="9.42858333248">
		<tag k="name" v="Skogaholmen" />
		<tag k="place" v="islet" />
		<tag k="ssr:stedsnr" v="579248" />
	</node>
	<node id="-826352" lat="63.4846583309" lon="9.14099444748">
		<tag k="name" v="Lauvneset" />
		<tag k="natural" v="cape" />
		<tag k="ssr:stedsnr" v="700053" />
	</node>
	<node id="-824299" lat="63.5459527761" lon="9.43931943727">
		<tag k="name" v="Slavikflua" />
		<tag k="natural" v="shoal" />
		<tag k="place" v="locality" />
		<tag k="ssr:stedsnr" v="774907" />
	</node>
	<node id="-826343" lat="63.5101916685" lon="9.2511722188">
		<tag k="name" v="Valslagvågen" />
		<tag k="natural" v="bay" />
		<tag k="ssr:stedsnr" v="438169" />
	</node>
	<node id="-826342" lat="63.5190388894" lon="9.29041111567">
		<tag k="alt_name" v="Vingvågbukta" />
		<tag k="name" v="Vingbukta" />
		<tag k="natural" v="bay" />
		<tag k="ssr:stedsnr" v="397546" />
	</node>
	<node id="-824291" lat="63.3519722216" lon="9.27323333379">
		<tag k="name" v="Vennaøran" />
		<tag k="natural" v="cape" />
		<tag k="ssr:stedsnr" v="397200" />
	</node>
	<node id="-824285" lat="63.551688887" lon="9.42855000304">
		<tag k="name" v="Åsøysundet" />
		<tag k="natural" v="strait" />
		<tag k="ssr:stedsnr" v="639088" />
	</node>
	<node id="-824282" lat="63.5583611074" lon="9.46020276862">
		<tag k="name" v="Sørvågen" />
		<tag k="natural" v="bay" />
		<tag k="ssr:stedsnr" v="316137" />
	</node>
	<node id="-824278" lat="63.5547583317" lon="9.40802777952">
		<tag k="name" v="Hundneset" />
		<tag k="natural" v="cape" />
		<tag k="ssr:stedsnr" v="94259" />
	</node>
	<node id="-826322" lat="63.5182555539" lon="9.221927786">
		<tag k="name" v="Sandan" />
		<tag k="natural" v="shoal" />
		<tag k="place" v="locality" />
		<tag k="ssr:stedsnr" v="942180" />
	</node>
	<node id="-826320" lat="63.3784249995" lon="9.23681111577">
		<tag k="name" v="Heggvika" />
		<tag k="natural" v="bay" />
		<tag k="ssr:stedsnr" v="882146" />
	</node>
	<node id="-826319" lat="63.474975" lon="9.30460278035">
		<tag k="name" v="Leirvika" />
		<tag k="natural" v="bay" />
		<tag k="ssr:stedsnr" v="337597" />
	</node>
	<node id="-824270" lat="63.4731916689" lon="9.30464999666">
		<tag k="name" v="Halsneset" />
		<tag k="natural" v="cape" />
		<tag k="ssr:stedsnr" v="558989" />
	</node>
	<node id="-826315" lat="63.4515083293" lon="9.33323334265">
		<tag k="bay" v="fjord" />
		<tag k="name" v="Åstfjorden" />
		<tag k="natural" v="bay" />
		<tag k="old_name" v="Åstfjoren" />
		<tag k="ssr:stedsnr" v="497947" />
	</node>
	<node id="-826314" lat="63.5636638898" lon="9.4586777698">
		<tag k="name" v="Gunnarsundet" />
		<tag k="natural" v="strait" />
		<tag k="ssr:stedsnr" v="822044" />
	</node>
	<node id="-824262" lat="63.460925" lon="9.18901388637">
		<tag k="name" v="Rottemsbukta" />
		<tag k="natural" v="bay" />
		<tag k="ssr:stedsnr" v="195515" />
	</node>
	<node id="-824251" lat="63.5472999999" lon="9.35148888606">
		<tag k="name" v="Bystingsundet" />
		<tag k="natural" v="strait" />
		<tag k="ssr:stedsnr" v="275680" />
	</node>
	<node id="-824250" lat="63.4771083374" lon="9.17288334286">
		<tag k="name" v="Kuvika" />
		<tag k="natural" v="bay" />
		<tag k="ssr:stedsnr" v="438492" />
	</node>
	<node id="-826296" lat="63.4812472228" lon="9.49626112057">
		<tag k="alt_name" v="Kobbogneset" />
		<tag k="name" v="Storkobbugneset" />
		<tag k="natural" v="cape" />
		<tag k="ssr:stedsnr" v="397101" />
	</node>
	<node id="-824245" lat="63.3742361107" lon="9.35313055639">
		<tag k="name" v="Storvika" />
		<tag k="natural" v="bay" />
		<tag k="ssr:stedsnr" v="519307" />
	</node>
	<node id="-826288" lat="63.5015111121" lon="9.4213305566">
		<tag k="name" v="Stranda" />
		<tag k="natural" v="beach" />
		<tag k="place" v="locality" />
		<tag k="ssr:stedsnr" v="943056" />
	</node>
	<node id="-826282" lat="63.4422972254" lon="9.29832777159">
		<tag k="alt_name" v="Fættaholmen" />
		<tag k="name" v="Fetaholmen" />
		<tag k="place" v="islet" />
		<tag k="ssr:stedsnr" v="497937" />
	</node>
	<node id="-826273" lat="63.5165916655" lon="9.41363889336">
		<tag k="name" v="Ramsvikholman" />
		<tag k="place" v="islet" />
		<tag k="ssr:stedsnr" v="701814" />
	</node>
	<node id="-826270" lat="63.4456666711" lon="9.13912499087">
		<tag k="name" v="Grønvika" />
		<tag k="natural" v="bay" />
		<tag k="ssr:stedsnr" v="700073" />
	</node>
	<node id="-824221" lat="63.4535194421" lon="9.28759167594">
		<tag k="name" v="Vågavågen" />
		<tag k="natural" v="bay" />
		<tag k="ssr:stedsnr" v="397629" />
	</node>
	<node id="-824218" lat="63.500477505" lon="9.11957646653">
		<tag k="name" v="Hagatåa" />
		<tag k="natural" v="cape" />
		<tag k="ssr:stedsnr" v="639043" />
	</node>
	<node id="-824212" lat="63.5579305538" lon="9.45675555678">
		<tag k="name" v="Valholmen" />
		<tag k="natural" v="cape" />
		<tag k="ssr:stedsnr" v="206506" />
	</node>
	<node id="-826257" lat="63.4689499992" lon="9.45086110884">
		<tag k="name" v="Steinen" />
		<tag k="natural" v="shoal" />
		<tag k="place" v="locality" />
		<tag k="ssr:stedsnr" v="530137" />
	</node>
	<node id="-824207" lat="63.5224555512" lon="9.32225277796">
		<tag k="name" v="Halsabukta" />
		<tag k="natural" v="bay" />
		<tag k="ssr:stedsnr" v="822604" />
	</node>
	<node id="-826248" lat="63.5306888884" lon="9.40658054707">
		<tag k="fixme" v="consider seamark:type=rock or natural=shoal" />
		<tag k="name" v="Tyskøyskjæret" />
		<tag k="place" v="islet" />
		<tag k="ssr:stedsnr" v="215751" />
	</node>
	<node id="-826246" lat="63.4517583359" lon="9.38134722343">
		<tag k="name" v="Engvikskjæret" />
		<tag k="natural" v="shoal" />
		<tag k="place" v="locality" />
		<tag k="ssr:stedsnr" v="45112" />
	</node>
	<node id="-826244" lat="63.5534333367" lon="9.37943610389">
		<tag k="name" v="Skjeret" />
		<tag k="natural" v="cape" />
		<tag k="ssr:stedsnr" v="215739" />
	</node>
	<node id="-824470" lat="63.4829083291" lon="9.07643888044">
		<tag k="name" v="Kvalholmen" />
		<tag k="place" v="islet" />
		<tag k="ssr:stedsnr" v="133416" />
	</node>
	<node id="-826240" lat="63.3337972251" lon="9.24157499766">
		<tag k="name" v="Grønvika" />
		<tag k="natural" v="bay" />
		<tag k="ssr:stedsnr" v="518795" />
	</node>
	<node id="-824190" lat="63.4350111133" lon="9.2451611127">
		<tag k="name" v="Hestvika" />
		<tag k="natural" v="bay" />
		<tag k="ssr:stedsnr" v="822154" />
	</node>
	<node id="-826237" lat="63.5069527755" lon="9.41971666634">
		<tag k="alt_name" v="Feneset" />
		<tag k="name" v="Fætta" />
		<tag k="natural" v="cape" />
		<tag k="ssr:stedsnr" v="943050" />
	</node>
	<node id="-826232" lat="63.3926722235" lon="9.49537777955">
		<tag k="name" v="Naustvollen" />
		<tag k="natural" v="cape" />
		<tag k="ssr:stedsnr" v="579135" />
	</node>
	<node id="-824183" lat="63.5255194463" lon="9.31103888828">
		<tag k="name" v="Storholmen" />
		<tag k="place" v="islet" />
		<tag k="ssr:stedsnr" v="134174" />
	</node>
	<node id="-824182" lat="63.5623138879" lon="9.44989167014">
		<tag k="alt_name" v="Gunnarøyskjæret" />
		<tag k="fixme" v="consider seamark:type=rock or natural=shoal" />
		<tag k="name" v="Gunnaren" />
		<tag k="place" v="islet" />
		<tag k="ssr:stedsnr" v="639067" />
	</node>
	<node id="-826229" lat="63.3741416686" lon="9.2314583239">
		<tag k="name" v="Båtholet" />
		<tag k="natural" v="bay" />
		<tag k="ssr:stedsnr" v="276900" />
	</node>
	<node id="-824178" lat="63.3595749978" lon="9.32876666114">
		<tag k="name" v="Skivedberget" />
		<tag k="natural" v="cape" />
		<tag k="ssr:stedsnr" v="639976" />
	</node>
	<node id="-824174" lat="63.464869443" lon="9.14159721473">
		<tag k="name" v="Sørbukta" />
		<tag k="natural" v="bay" />
		<tag k="ssr:stedsnr" v="410651" />
	</node>
	<node id="-826221" lat="63.4264055558" lon="9.18794999944">
		<tag k="name" v="Kjerkneset" />
		<tag k="natural" v="cape" />
		<tag k="ssr:stedsnr" v="458066" />
	</node>
	<node id="-824172" lat="63.489269441" lon="9.2904555501">
		<tag k="name" v="Valslagholmen" />
		<tag k="place" v="islet" />
		<tag k="ssr:stedsnr" v="32558" />
	</node>
	<node id="-824169" lat="63.4477729077" lon="9.14225446514">
		<tag k="name" v="Jamtøya" />
		<tag k="place" v="island" />
		<tag k="ssr:stedsnr" v="802459" />
	</node>
	<node id="-826216" lat="63.38051111" lon="9.41555000413">
		<tag k="fixme" v="consider seamark:type=rock or natural=shoal" />
		<tag k="name" v="Ytre Breivikskjæret" />
		<tag k="place" v="islet" />
		<tag k="ssr:stedsnr" v="215275" />
	</node>
	<node id="-826209" lat="63.470700001" lon="9.30863333822">
		<tag k="fixme" v="multiple name tags, choose one and add the other to alt_name; consider seamark:type=rock or natural=shoal" />
		<tag k="name" v="Skjåholmen;Sjåskjæret" />
		<tag k="place" v="islet" />
		<tag k="ssr:stedsnr" v="275592" />
	</node>
	<node id="-826206" lat="63.5392888845" lon="9.43527222786">
		<tag k="name" v="Vorpneset" />
		<tag k="natural" v="cape" />
		<tag k="ssr:stedsnr" v="397067" />
	</node>
	<node id="-826202" lat="63.4788333302" lon="9.29340834029">
		<tag k="name" v="Lineset" />
		<tag k="natural" v="cape" />
		<tag k="ssr:stedsnr" v="618997" />
	</node>
	<node id="-824151" lat="63.3573194464" lon="9.28466944317">
		<tag k="name" v="Vollaneset" />
		<tag k="natural" v="cape" />
		<tag k="ssr:stedsnr" v="639970" />
	</node>
	<node id="-824121" lat="63.45135833" lon="9.21329445125">
		<tag k="alt_name" v="Tynnsøya" />
		<tag k="name" v="Tynsøya" />
		<tag k="place" v="island" />
		<tag k="ssr:stedsnr" v="316442" />
	</node>
	<node id="-824135" lat="63.3950527819" lon="9.48230834033">
		<tag k="name" v="Halvardstubukta" />
		<tag k="natural" v="bay" />
		<tag k="ssr:stedsnr" v="822150" />
	</node>
	<node id="-824133" lat="63.4509694459" lon="9.38044444983">
		<tag k="name" v="Engvikneset" />
		<tag k="natural" v="cape" />
		<tag k="ssr:stedsnr" v="822259" />
	</node>
	<node id="-824132" lat="63.5272249956" lon="9.31656388051">
		<tag k="name" v="Trunka" />
		<tag k="natural" v="cape" />
		<tag k="ssr:stedsnr" v="518541" />
	</node>
	<node id="-826177" lat="63.5392861073" lon="9.43694723222">
		<tag k="name" v="Ramvikneset" />
		<tag k="natural" v="cape" />
		<tag k="ssr:stedsnr" v="397065" />
	</node>
	<node id="-826172" lat="63.430775004" lon="9.22927499347">
		<tag k="name" v="Krombukta" />
		<tag k="natural" v="bay" />
		<tag k="ssr:stedsnr" v="376814" />
	</node>
	<node id="-824122" lat="63.4313111076" lon="9.22064444363">
		<tag k="name" v="Kråknesbukta" />
		<tag k="natural" v="bay" />
		<tag k="ssr:stedsnr" v="713781" />
	</node>
	<node id="-826169" lat="63.4604277788" lon="9.43569165978">
		<tag k="name" v="Aunbugen" />
		<tag k="natural" v="bay" />
		<tag k="ssr:stedsnr" v="215269" />
	</node>
	<node id="-824120" lat="63.4755805534" lon="9.32482499965">
		<tag k="name" v="Storvika" />
		<tag k="natural" v="bay" />
		<tag k="ssr:stedsnr" v="458256" />
	</node>
	<node id="-826167" lat="63.3939527817" lon="9.19364167045">
		<tag k="fixme" v="consider seamark:type=rock or natural=shoal" />
		<tag k="name" v="Snigeldalsskjæret" />
		<tag k="place" v="islet" />
		<tag k="ssr:stedsnr" v="531796" />
	</node>
	<node id="-824115" lat="63.5565583343" lon="9.38731110531">
		<tag k="name" v="Skarpnesbukta" />
		<tag k="natural" v="bay" />
		<tag k="ssr:stedsnr" v="943702" />
	</node>
	<node id="-824114" lat="63.5692083348" lon="9.54569443485">
		<tag k="name" v="Mulebukta" />
		<tag k="natural" v="bay" />
		<tag k="ssr:stedsnr" v="167991" />
	</node>
	<node id="-826159" lat="63.5556527749" lon="9.40118889077">
		<tag k="name" v="Litlholmen" />
		<tag k="place" v="islet" />
		<tag k="ssr:stedsnr" v="761751" />
	</node>
	<node id="-824106" lat="63.5572944463" lon="9.39539444593">
		<tag k="fixme" v="consider seamark:type=rock or natural=shoal" />
		<tag k="name" v="Bakkskjæret" />
		<tag k="place" v="islet" />
		<tag k="ssr:stedsnr" v="943703" />
	</node>
	<node id="-824102" lat="63.4519694414" lon="9.28053055309">
		<tag k="name" v="Sjåneset" />
		<tag k="natural" v="cape" />
		<tag k="ssr:stedsnr" v="883164" />
	</node>
	<node id="-826147" lat="63.4756916708" lon="9.47222222529">
		<tag k="name" v="Stabbursøya" />
		<tag k="place" v="island" />
		<tag k="ssr:stedsnr" v="822014" />
	</node>
	<node id="-824097" lat="63.5245472211" lon="9.24687499056">
		<tag k="name" v="Skottet" />
		<tag k="natural" v="shoal" />
		<tag k="place" v="locality" />
		<tag k="ssr:stedsnr" v="760205" />
	</node>
	<node id="-824092" lat="63.5066944405" lon="9.24878332411">
		<tag k="name" v="Røssvikneset" />
		<tag k="natural" v="cape" />
		<tag k="ssr:stedsnr" v="517206" />
	</node>
	<node id="-826139" lat="63.5513583318" lon="9.42332499839">
		<tag k="name" v="Stokkvika" />
		<tag k="natural" v="bay" />
		<tag k="ssr:stedsnr" v="397071" />
	</node>
	<node id="-824087" lat="63.5133444472" lon="9.40342778116">
		<tag k="alt_name" v="Imstra" />
		<tag k="bay" v="fjord" />
		<tag k="name" v="Imsterfjorden" />
		<tag k="natural" v="bay" />
		<tag k="ssr:stedsnr" v="316179" />
	</node>
	<node id="-824083" lat="63.5689277806" lon="9.54883056513">
		<tag k="name" v="Mulen" />
		<tag k="natural" v="cape" />
		<tag k="ssr:stedsnr" v="93021" />
	</node>
	<node id="-826126" lat="63.4608166677" lon="9.39443056085">
		<tag k="alt_name" v="Dalaholmen" />
		<tag k="name" v="Kverndalsholmen" />
		<tag k="place" v="islet" />
		<tag k="ssr:stedsnr" v="761318" />
	</node>
	<node id="-826125" lat="63.5754166654" lon="9.45594722417">
		<tag k="name" v="Bjørnøya" />
		<tag k="place" v="islet" />
		<tag k="ssr:stedsnr" v="802122" />
	</node>
	<node id="-824075" lat="63.4587666681" lon="9.189691665">
		<tag k="name" v="Langskagan" />
		<tag k="natural" v="cape" />
		<tag k="ssr:stedsnr" v="943214" />
	</node>
	<node id="-824074" lat="63.3898472212" lon="9.46863055743">
		<tag k="name" v="Vedberget" />
		<tag k="natural" v="shoal" />
		<tag k="place" v="locality" />
		<tag k="ssr:stedsnr" v="215476" />
	</node>
	<node id="-824073" lat="63.4143777736" lon="9.17715277903">
		<tag k="name" v="Moldvikneset" />
		<tag k="natural" v="cape" />
		<tag k="ssr:stedsnr" v="518058" />
	</node>
	<node id="-826116" lat="63.5703111101" lon="9.53793888022">
		<tag k="name" v="Mikkelsneset" />
		<tag k="natural" v="cape" />
		<tag k="ssr:stedsnr" v="943028" />
	</node>
	<node id="-826112" lat="63.4463888903" lon="9.36449444161">
		<tag k="name" v="Kvennstadbukta" />
		<tag k="natural" v="bay" />
		<tag k="ssr:stedsnr" v="33314" />
	</node>
	<node id="-824063" lat="63.4372249975" lon="9.26522777181">
		<tag k="alt_name" v="Ytre Heggstadbugen" />
		<tag k="name" v="Heggstadbukta" />
		<tag k="natural" v="bay" />
		<tag k="ssr:stedsnr" v="276191" />
	</node>
	<node id="-826104" lat="63.5502055582" lon="9.39690833466">
		<tag k="name" v="Litlvika" />
		<tag k="natural" v="bay" />
		<tag k="ssr:stedsnr" v="33758" />
	</node>
	<node id="-826102" lat="63.4660277747" lon="9.29509723174">
		<tag k="name" v="Libugen" />
		<tag k="natural" v="bay" />
		<tag k="ssr:stedsnr" v="457606" />
	</node>
	<node id="-826100" lat="63.5212166693" lon="9.3044583262">
		<tag k="name" v="Vingvågen" />
		<tag k="natural" v="bay" />
		<tag k="ssr:stedsnr" v="498168" />
	</node>
	<node id="-826099" lat="63.503766762" lon="9.15882528407">
		<tag k="name" v="Leikneset" />
		<tag k="natural" v="cape" />
		<tag k="ssr:stedsnr" v="619006" />
	</node>
	<node id="-826097" lat="63.5040416658" lon="9.27318611629">
		<tag k="name" v="Håmmållvika" />
		<tag k="natural" v="bay" />
		<tag k="ssr:stedsnr" v="699187" />
	</node>
	<node id="-826093" lat="63.5264277789" lon="9.39905277311">
		<tag k="name" v="Litlkattøya" />
		<tag k="place" v="islet" />
		<tag k="ssr:stedsnr" v="578679" />
	</node>
	<node id="-826089" lat="63.4352277766" lon="9.21495832692">
		<tag k="name" v="Smånesa" />
		<tag k="natural" v="cape" />
		<tag k="ssr:stedsnr" v="397052" />
	</node>
	<node id="-826088" lat="63.5472361067" lon="9.39726667247">
		<tag k="name" v="Storvika" />
		<tag k="natural" v="bay" />
		<tag k="ssr:stedsnr" v="761770" />
	</node>
	<node id="-826077" lat="63.5008694489" lon="9.11612499846">
		<tag k="fixme" v="consider seamark:type=rock or natural=shoal" />
		<tag k="name" v="Hagaskjæra" />
		<tag k="place" v="islet" />
		<tag k="ssr:stedsnr" v="923003" />
	</node>
	<node id="-826072" lat="63.5361083318" lon="9.43308333031">
		<tag k="name" v="Bringbærurda" />
		<tag k="natural" v="bay" />
		<tag k="ssr:stedsnr" v="397063" />
	</node>
	<node id="-826068" lat="63.4696861102" lon="9.12446666742">
		<tag k="name" v="Lintjørnneset" />
		<tag k="natural" v="cape" />
		<tag k="ssr:stedsnr" v="228702" />
	</node>
	<node id="-826055" lat="63.4797249988" lon="9.12036943982">
		<tag k="fixme" v="consider seamark:type=rock or natural=shoal" />
		<tag k="name" v="Geitbergskjæret" />
		<tag k="place" v="islet" />
		<tag k="ssr:stedsnr" v="458036" />
	</node>
	<node id="-826054" lat="63.4709277756" lon="9.46653889538">
		<tag k="name" v="Paradisbukta" />
		<tag k="natural" v="bay" />
		<tag k="ssr:stedsnr" v="943024" />
	</node>
	<node id="-826049" lat="63.5668638926" lon="9.51941111161">
		<tag k="name" v="Vorpa" />
		<tag k="place" v="locality" />
		<tag k="ssr:stedsnr" v="700033" />
	</node>
	<node id="-826048" lat="63.5582638933" lon="9.39090000415">
		<tag k="name" v="Skarpneset" />
		<tag k="natural" v="cape" />
		<tag k="ssr:stedsnr" v="33753" />
	</node>
	<node id="-826045" lat="63.4678638846" lon="9.14133055647">
		<tag k="name" v="Fugløyvågen" />
		<tag k="natural" v="bay" />
		<tag k="ssr:stedsnr" v="397040" />
	</node>
	<node id="-826032" lat="63.5527472191" lon="9.40164166779">
		<tag k="name" v="Kvalvika" />
		<tag k="natural" v="bay" />
		<tag k="ssr:stedsnr" v="154771" />
	</node>
	<node id="-826029" lat="63.4641333332" lon="9.395536107">
		<tag k="name" v="Dalabukta" />
		<tag k="natural" v="bay" />
		<tag k="ssr:stedsnr" v="578238" />
	</node>
	<node id="-826023" lat="63.4934916622" lon="9.2563472153">
		<tag k="name" v="Sørvågen" />
		<tag k="natural" v="bay" />
		<tag k="ssr:stedsnr" v="154326" />
	</node>
	<node id="-826021" lat="63.5480083299" lon="9.34699722004">
		<tag k="name" v="Bystingsholmen" />
		<tag k="place" v="islet" />
		<tag k="ssr:stedsnr" v="498158" />
	</node>
	<node id="-826016" lat="63.522741663" lon="9.39692777983">
		<tag k="name" v="Halsaneset" />
		<tag k="natural" v="cape" />
		<tag k="ssr:stedsnr" v="74149" />
	</node>
	<node id="-826004" lat="63.5255555544" lon="9.26125833198">
		<tag k="name" v="Gjuvneset" />
		<tag k="natural" v="cape" />
		<tag k="ssr:stedsnr" v="195160" />
	</node>
	<node id="-826003" lat="63.5148916642" lon="9.40192500618">
		<tag k="name" v="Innerhølen" />
		<tag k="place" v="locality" />
		<tag k="ssr:stedsnr" v="33741" />
	</node>
	<node id="-826000" lat="63.4307416704" lon="9.19779999967">
		<tag k="name" v="Langnesbukta" />
		<tag k="natural" v="bay" />
		<tag k="ssr:stedsnr" v="397047" />
	</node>
	<node id="-825998" lat="63.4571777787" lon="9.35657500772">
		<tag k="name" v="Inner Stålbukta" />
		<tag k="natural" v="bay" />
		<tag k="ssr:stedsnr" v="578244" />
	</node>
	<node id="-825984" lat="63.457452775" lon="9.34984721939">
		<tag k="name" v="Ytter Stålbukta" />
		<tag k="natural" v="bay" />
		<tag k="ssr:stedsnr" v="578246" />
	</node>
	<node id="-825983" lat="63.5503666632" lon="9.40503334197">
		<tag k="name" v="Åbordsneset" />
		<tag k="natural" v="cape" />
		<tag k="ssr:stedsnr" v="336698" />
	</node>
	<node id="-825981" lat="63.476016669" lon="9.46071945336">
		<tag k="name" v="Kuppåberget" />
		<tag k="natural" v="cape" />
		<tag k="ssr:stedsnr" v="458021" />
	</node>
	<node id="-825980" lat="63.4894777757" lon="9.15778056397">
		<tag k="alt_name" v="Malneset" />
		<tag k="name" v="Malnes" />
		<tag k="natural" v="cape" />
		<tag k="ssr:stedsnr" v="618440" />
	</node>
	<node id="-825978" lat="63.5538638863" lon="9.35574721521">
		<tag k="bay" v="fjord" />
		<tag k="name" v="Leksfjorden" />
		<tag k="natural" v="bay" />
		<tag k="ssr:stedsnr" v="154767" />
	</node>
	<node id="-825966" lat="63.5784472188" lon="9.45746666859">
		<tag k="name" v="Bjørnøyflua" />
		<tag k="natural" v="shoal" />
		<tag k="place" v="locality" />
		<tag k="ssr:stedsnr" v="107993" />
	</node>
	<node id="-825960" lat="63.549497221" lon="9.35765833919">
		<tag k="name" v="Aunneset" />
		<tag k="natural" v="cape" />
		<tag k="ssr:stedsnr" v="154756" />
	</node>
	<node id="-825956" lat="63.3591055541" lon="9.32111389368">
		<tag k="alt_name" v="Vågslibugen" />
		<tag k="name" v="Vågslivågen" />
		<tag k="natural" v="bay" />
		<tag k="ssr:stedsnr" v="882963" />
	</node>
	<node id="-825951" lat="63.5716444437" lon="9.42843888504">
		<tag k="name" v="Skallen" />
		<tag k="natural" v="shoal" />
		<tag k="place" v="locality" />
		<tag k="ssr:stedsnr" v="895984" />
	</node>
	<node id="-825949" lat="63.538163886" lon="9.39146388612">
		<tag k="name" v="Åmundholet" />
		<tag k="place" v="locality" />
		<tag k="ssr:stedsnr" v="518733" />
	</node>
	<node id="-825946" lat="63.3611361097" lon="9.29528333557">
		<tag k="name" v="Petterneset" />
		<tag k="natural" v="cape" />
		<tag k="ssr:stedsnr" v="215222" />
	</node>
	<node id="-825932" lat="63.3895055568" lon="9.46578055323">
		<tag k="name" v="Gaupholneset" />
		<tag k="natural" v="cape" />
		<tag k="ssr:stedsnr" v="822469" />
	</node>
	<node id="-825927" lat="63.5552527748" lon="9.41075556303">
		<tag k="name" v="Ytterhamna" />
		<tag k="natural" v="bay" />
		<tag k="ssr:stedsnr" v="195154" />
	</node>
	<node id="-825911" lat="63.5729944461" lon="9.453372214">
		<tag k="name" v="Gunnarøysundet" />
		<tag k="natural" v="strait" />
		<tag k="ssr:stedsnr" v="895980" />
	</node>
	<node id="-825899" lat="63.5435499978" lon="9.42989444497">
		<tag k="name" v="Hyllneset" />
		<tag k="natural" v="cape" />
		<tag k="ssr:stedsnr" v="276843" />
	</node>
	<node id="-825895" lat="63.5551333376" lon="9.45419444799">
		<tag k="name" v="Håvikneset" />
		<tag k="natural" v="cape" />
		<tag k="ssr:stedsnr" v="107988" />
	</node>
	<node id="-825891" lat="63.4440500039" lon="9.12882500616">
		<tag k="name" v="Kvitholmen" />
		<tag k="place" v="islet" />
		<tag k="ssr:stedsnr" v="195418" />
	</node>
	<node id="-825887" lat="63.4692277819" lon="9.46499166707">
		<tag k="name" v="Merkesbukta" />
		<tag k="natural" v="bay" />
		<tag k="ssr:stedsnr" v="33267" />
	</node>
	<node id="-825886" lat="63.4470111131" lon="9.23034999873">
		<tag k="fixme" v="consider seamark:type=rock or natural=shoal" />
		<tag k="name" v="Klubbausa" />
		<tag k="place" v="islet" />
		<tag k="ssr:stedsnr" v="45049" />
	</node>
	<node id="-825885" lat="63.4489888919" lon="9.36145000694">
		<tag k="name" v="Storneset" />
		<tag k="natural" v="cape" />
		<tag k="ssr:stedsnr" v="578631" />
	</node>
	<node id="-825884" lat="63.5223222205" lon="9.33715833952">
		<tag k="name" v="Kammen" />
		<tag k="natural" v="bay" />
		<tag k="ssr:stedsnr" v="154291" />
	</node>
	<node id="-825881" lat="63.3357416696" lon="9.55696666057">
		<tag k="name" v="Tømmerlibukta" />
		<tag k="natural" v="bay" />
		<tag k="ssr:stedsnr" v="397464" />
	</node>
	<node id="-824409" lat="63.4309361086" lon="9.22640832654">
		<tag k="name" v="Kromneset" />
		<tag k="natural" v="cape" />
		<tag k="ssr:stedsnr" v="943158" />
	</node>
	<node id="-825873" lat="63.443536112" lon="9.31435000931">
		<tag k="fixme" v="consider seamark:type=rock or natural=shoal" />
		<tag k="name" v="Storskjæret" />
		<tag k="place" v="islet" />
		<tag k="ssr:stedsnr" v="943865" />
	</node>
	<node id="-825870" lat="63.4965694404" lon="9.17845555174">
		<tag k="name" v="Sundbukta" />
		<tag k="natural" v="bay" />
		<tag k="ssr:stedsnr" v="336206" />
	</node>
	<node id="-825869" lat="63.3776972223" lon="9.44646944793">
		<tag k="name" v="Gjevika" />
		<tag k="natural" v="bay" />
		<tag k="ssr:stedsnr" v="469803" />
	</node>
	<node id="-825866" lat="63.5537611147" lon="9.36834721708">
		<tag k="name" v="Purkvika" />
		<tag k="natural" v="bay" />
		<tag k="ssr:stedsnr" v="761240" />
	</node>
	<node id="-825864" lat="63.5279277789" lon="9.31389722486">
		<tag k="alt_name" v="Utjuholmen" />
		<tag k="name" v="Litlholmen" />
		<tag k="place" v="islet" />
		<tag k="ssr:stedsnr" v="275523" />
	</node>
	<node id="-825862" lat="63.4815694407" lon="9.31253888228">
		<tag k="name" v="Jutulneset" />
		<tag k="natural" v="cape" />
		<tag k="ssr:stedsnr" v="882502" />
	</node>
	<node id="-825859" lat="63.439233335" lon="9.1503055471">
		<tag k="name" v="Hundholmen" />
		<tag k="place" v="islet" />
		<tag k="ssr:stedsnr" v="438386" />
	</node>
	<node id="-825856" lat="63.4689555586" lon="9.13451112066">
		<tag k="name" v="Fugløya" />
		<tag k="place" v="island" />
		<tag k="ssr:stedsnr" v="741573" />
	</node>
	<node id="-825851" lat="63.4925499995" lon="9.15743611794">
		<tag k="name" v="Sauholmen" />
		<tag k="place" v="islet" />
		<tag k="ssr:stedsnr" v="761243" />
	</node>
	<node id="-825850" lat="63.5012722239" lon="9.4098333405">
		<tag k="name" v="Elvabukta" />
		<tag k="natural" v="bay" />
		<tag k="ssr:stedsnr" v="761699" />
	</node>
	<node id="-825849" lat="63.5174222192" lon="9.21592222934">
		<tag k="fixme" v="consider seamark:type=rock or natural=shoal" />
		<tag k="name" v="Flesskjæret" />
		<tag k="place" v="islet" />
		<tag k="ssr:stedsnr" v="586111" />
	</node>
	<node id="-825844" lat="63.4616861075" lon="9.17433611535">
		<tag k="name" v="Rottemsneset" />
		<tag k="natural" v="cape" />
		<tag k="ssr:stedsnr" v="316557" />
	</node>
	<node id="-825843" lat="63.4985972199" lon="9.12953332503">
		<tag k="name" v="Vorpbukta" />
		<tag k="natural" v="bay" />
		<tag k="ssr:stedsnr" v="713921" />
	</node>
	<node id="-825833" lat="63.4664999979" lon="9.42086667643">
		<tag k="name" v="Trøøra" />
		<tag k="natural" v="shoal" />
		<tag k="place" v="locality" />
		<tag k="ssr:stedsnr" v="397014" />
	</node>
	<node id="-825832" lat="63.3478222186" lon="9.24066111437">
		<tag k="name" v="Hammarneset" />
		<tag k="natural" v="cape" />
		<tag k="ssr:stedsnr" v="761232" />
	</node>
	<node id="-825816" lat="63.4973305563" lon="9.17333055046">
		<tag k="name" v="Sundsjøen" />
		<tag k="place" v="locality" />
		<tag k="ssr:stedsnr" v="839013" />
	</node>
	<node id="-825811" lat="63.514655559" lon="9.25368054609">
		<tag k="name" v="Urdvika" />
		<tag k="natural" v="bay" />
		<tag k="ssr:stedsnr" v="578192" />
	</node>
	<node id="-825806" lat="63.515427777" lon="9.25044444765">
		<tag k="name" v="Rognneset" />
		<tag k="natural" v="cape" />
		<tag k="ssr:stedsnr" v="578193" />
	</node>
	<node id="-825796" lat="63.5571250013" lon="9.3865972192">
		<tag k="fixme" v="consider seamark:type=rock or natural=shoal" />
		<tag k="name" v="Klumpen" />
		<tag k="place" v="islet" />
		<tag k="ssr:stedsnr" v="773911" />
	</node>
	<node id="-824054" lat="63.5263833345" lon="9.40407500962">
		<tag k="name" v="Kattøya" />
		<tag k="place" v="islet" />
		<tag k="ssr:stedsnr" v="741199" />
	</node>
	<node id="-825794" lat="63.5540305565" lon="9.56825833331">
		<tag k="name" v="Digerneset" />
		<tag k="natural" v="cape" />
		<tag k="ssr:stedsnr" v="700449" />
	</node>
	<node id="-825790" lat="63.5407333353" lon="9.34087777051">
		<tag k="name" v="Kuppelkleiva" />
		<tag k="natural" v="bay" />
		<tag k="ssr:stedsnr" v="518705" />
	</node>
	<node id="-825789" lat="63.4630388899" lon="9.33665278684">
		<tag k="name" v="Bustlistraumen" />
		<tag k="natural" v="strait" />
		<tag k="ssr:stedsnr" v="640240" />
	</node>
	<node id="-825780" lat="63.3629722255" lon="9.36508611423">
		<tag k="name" v="Skårillbukta" />
		<tag k="natural" v="bay" />
		<tag k="ssr:stedsnr" v="944308" />
	</node>
	<node id="-825776" lat="63.4188166647" lon="9.18709444839">
		<tag k="name" v="Moldvika" />
		<tag k="natural" v="bay" />
		<tag k="ssr:stedsnr" v="194625" />
	</node>
	<node id="-825770" lat="63.3908166662" lon="9.47033889107">
		<tag k="name" v="Krokneset" />
		<tag k="natural" v="cape" />
		<tag k="ssr:stedsnr" v="700441" />
	</node>
	<node id="-825766" lat="63.4791861109" lon="9.301402786">
		<tag k="fixme" v="consider seamark:type=rock or natural=shoal" />
		<tag k="name" v="Linesskjæret" />
		<tag k="place" v="islet" />
		<tag k="ssr:stedsnr" v="33249" />
	</node>
	<node id="-825760" lat="63.4711416668" lon="9.28373888415">
		<tag k="name" v="Buvika" />
		<tag k="natural" v="bay" />
		<tag k="ssr:stedsnr" v="882510" />
	</node>
	<node id="-825756" lat="63.5601583303" lon="9.39994444787">
		<tag k="name" v="Ringholmen" />
		<tag k="place" v="islet" />
		<tag k="ssr:stedsnr" v="195139" />
	</node>
	<node id="-825750" lat="63.4719722203" lon="9.30069444851">
		<tag k="name" v="Halsneståa" />
		<tag k="natural" v="cape" />
		<tag k="ssr:stedsnr" v="882512" />
	</node>
	<node id="-825742" lat="63.5216055527" lon="9.3966833379">
		<tag k="name" v="Sauvika" />
		<tag k="natural" v="bay" />
		<tag k="ssr:stedsnr" v="93631" />
	</node>
	<node id="-825741" lat="63.5213611074" lon="9.22017221296">
		<tag k="name" v="Svansholmen" />
		<tag k="place" v="islet" />
		<tag k="ssr:stedsnr" v="559156" />
	</node>
	<node id="-824430" lat="63.4631944473" lon="9.49574999204">
		<tag k="name" v="Mjølkavikneset" />
		<tag k="natural" v="cape" />
		<tag k="ssr:stedsnr" v="639117" />
	</node>
	<node id="-825729" lat="63.5712944441" lon="9.50030555578">
		<tag k="fixme" v="consider seamark:type=rock or natural=shoal" />
		<tag k="name" v="Grønnskjæret" />
		<tag k="place" v="islet" />
		<tag k="ssr:stedsnr" v="74117" />
	</node>
	<node id="-825728" lat="63.4927388868" lon="9.09910000903">
		<tag k="name" v="Eikvikneset" />
		<tag k="natural" v="cape" />
		<tag k="ssr:stedsnr" v="315448" />
	</node>
	<node id="-825724" lat="63.4425138893" lon="9.27043054564">
		<tag k="name" v="Heggstadneset" />
		<tag k="natural" v="cape" />
		<tag k="ssr:stedsnr" v="215174" />
	</node>
	<node id="-825720" lat="63.4501277798" lon="9.35615555439">
		<tag k="fixme" v="multiple name tags, choose one and add the other to alt_name; consider seamark:type=rock or natural=shoal" />
		<tag k="name" v="Kvernstadskjæret;Kvennstadaunskjæret" />
		<tag k="place" v="islet" />
		<tag k="ssr:stedsnr" v="154716" />
	</node>
	<node id="-826430" lat="63.5035861139" lon="9.17993888636">
		<tag k="alt_name" v="Skogøya, store;Storskogsøya" />
		<tag k="name" v="Store Skogsøya" />
		<tag k="place" v="islet" />
		<tag k="ssr:stedsnr" v="438448" />
	</node>
	<node id="-825703" lat="63.4732055528" lon="9.14222222475">
		<tag k="alt_name" v="Neset" />
		<tag k="name" v="Nordtåa" />
		<tag k="natural" v="cape" />
		<tag k="ssr:stedsnr" v="349699" />
	</node>
	<node id="-825697" lat="63.4047277778" lon="9.18107499276">
		<tag k="fixme" v="consider seamark:type=rock or natural=shoal" />
		<tag k="name" v="Stokkaskjæret" />
		<tag k="place" v="islet" />
		<tag k="ssr:stedsnr" v="882043" />
	</node>
	<node id="-825686" lat="63.5246611083" lon="9.25087777763">
		<tag k="fixme" v="consider seamark:type=rock or natural=shoal" />
		<tag k="name" v="Småskjæra" />
		<tag k="place" v="islet" />
		<tag k="ssr:stedsnr" v="761210" />
	</node>
	<node id="-825674" lat="63.4491083313" lon="9.13230834217">
		<tag k="name" v="Brenn-neset" />
		<tag k="natural" v="cape" />
		<tag k="ssr:stedsnr" v="882032" />
	</node>
	<node id="-825666" lat="63.363105559" lon="9.31019999722">
		<tag k="alt_name" v="Stangneset" />
		<tag k="name" v="Selnestangen" />
		<tag k="natural" v="cape" />
		<tag k="ssr:stedsnr" v="134846" />
	</node>
	<node id="-825662" lat="63.4514638912" lon="9.28321943695">
		<tag k="name" v="Sjåneset" />
		<tag k="natural" v="cape" />
		<tag k="ssr:stedsnr" v="701264" />
	</node>
	<node id="-825656" lat="63.5231583295" lon="9.29891666534">
		<tag k="name" v="Pina" />
		<tag k="natural" v="bay" />
		<tag k="ssr:stedsnr" v="882470" />
	</node>
	<node id="-825639" lat="63.5539777745" lon="9.36626388734">
		<tag k="name" v="Vettaneset" />
		<tag k="natural" v="cape" />
		<tag k="ssr:stedsnr" v="93611" />
	</node>
	<node id="-825636" lat="63.5275944462" lon="9.27575277018">
		<tag k="name" v="Melkvika" />
		<tag k="natural" v="bay" />
		<tag k="ssr:stedsnr" v="559135" />
	</node>
	<node id="-825635" lat="63.465133332" lon="9.3218055568">
		<tag k="name" v="Svartdalsvika" />
		<tag k="natural" v="bay" />
		<tag k="ssr:stedsnr" v="215635" />
	</node>
	<node id="-825623" lat="63.4527666679" lon="9.27133888415">
		<tag k="name" v="Grunnvika" />
		<tag k="natural" v="bay" />
		<tag k="ssr:stedsnr" v="215163" />
	</node>
	<node id="-825611" lat="63.4356333308" lon="9.25338334251">
		<tag k="name" v="Avrista" />
		<tag k="natural" v="cape" />
		<tag k="ssr:stedsnr" v="336162" />
	</node>
	<node id="-825604" lat="63.4572083339" lon="9.20259166809">
		<tag k="name" v="Burusvika" />
		<tag k="natural" v="bay" />
		<tag k="ssr:stedsnr" v="578172" />
	</node>
	<node id="-825597" lat="63.5208027792" lon="9.39033332726">
		<tag k="name" v="Halsavågen" />
		<tag k="natural" v="bay" />
		<tag k="ssr:stedsnr" v="518681" />
	</node>
	<node id="-825594" lat="63.5091444449" lon="9.21113611539">
		<tag k="name" v="Trollvika" />
		<tag k="natural" v="bay" />
		<tag k="ssr:stedsnr" v="316529" />
	</node>
	<node id="-825582" lat="63.4714888861" lon="9.16829722687">
		<tag k="name" v="Ormneset" />
		<tag k="natural" v="cape" />
		<tag k="ssr:stedsnr" v="93171" />
	</node>
	<node id="-825580" lat="63.4582111097" lon="9.40712778038">
		<tag k="name" v="Lauvneset" />
		<tag k="natural" v="cape" />
		<tag k="ssr:stedsnr" v="895105" />
	</node>
	<node id="-825579" lat="63.5099095673" lon="9.2449757466">
		<tag k="name" v="Olaneset" />
		<tag k="natural" v="cape" />
		<tag k="ssr:stedsnr" v="586082" />
	</node>
	<node id="-825575" lat="63.4945250027" lon="9.26379722297">
		<tag k="name" v="Hylla" />
		<tag k="natural" v="cape" />
		<tag k="ssr:stedsnr" v="518233" />
	</node>
	<node id="-825574" lat="63.5564361156" lon="9.43058611103">
		<tag k="name" v="Åsøyflua" />
		<tag k="natural" v="shoal" />
		<tag k="place" v="locality" />
		<tag k="ssr:stedsnr" v="410888" />
	</node>
	<node id="-825573" lat="63.528397221" lon="9.31782777431">
		<tag k="name" v="Leirvika" />
		<tag k="natural" v="bay" />
		<tag k="ssr:stedsnr" v="882482" />
	</node>
	<node id="-825571" lat="63.4880194429" lon="9.28505277663">
		<tag k="name" v="Hysneset" />
		<tag k="natural" v="cape" />
		<tag k="ssr:stedsnr" v="215631" />
	</node>
	<node id="-825567" lat="63.4875527785" lon="9.09419999983">
		<tag k="alt_name" v="Sveholmen, store" />
		<tag k="name" v="Storsveholmen" />
		<tag k="place" v="islet" />
		<tag k="ssr:stedsnr" v="12457" />
	</node>
	<node id="-825561" lat="63.454283335" lon="9.22216665855">
		<tag k="name" v="Tynsøysundet" />
		<tag k="natural" v="strait" />
		<tag k="ssr:stedsnr" v="773049" />
	</node>
	<node id="-825556" lat="63.548505553" lon="9.40653889217">
		<tag k="name" v="Åsøysundet" />
		<tag k="natural" v="strait" />
		<tag k="ssr:stedsnr" v="639740" />
	</node>
	<node id="-825552" lat="63.5540999985" lon="9.3817055487">
		<tag k="name" v="Postvika" />
		<tag k="natural" v="bay" />
		<tag k="ssr:stedsnr" v="701247" />
	</node>
	<node id="-825549" lat="63.5552444439" lon="9.44713055188">
		<tag k="fixme" v="consider seamark:type=rock or natural=shoal" />
		<tag k="name" v="Håvikskjæret" />
		<tag k="place" v="islet" />
		<tag k="ssr:stedsnr" v="470992" />
	</node>
	<node id="-825546" lat="63.4610694484" lon="9.3324305577">
		<tag k="name" v="Melkvik" />
		<tag k="natural" v="bay" />
		<tag k="ssr:stedsnr" v="578580" />
	</node>
	<node id="-825543" lat="63.3536805538" lon="9.27614999822">
		<tag k="name" v="Lykjneset" />
		<tag k="natural" v="cape" />
		<tag k="ssr:stedsnr" v="761188" />
	</node>
	<node id="-825541" lat="63.4819888854" lon="9.10513332416">
		<tag k="name" v="Klauven" />
		<tag k="natural" v="cape" />
		<tag k="ssr:stedsnr" v="275033" />
	</node>
	<node id="-825522" lat="63.4626222197" lon="9.49143889376">
		<tag k="name" v="Lauvneset" />
		<tag k="natural" v="cape" />
		<tag k="ssr:stedsnr" v="457085" />
	</node>
	<node id="-825715" lat="63.3915750003" lon="9.20478611954">
		<tag k="name" v="Snigeldalsvika" />
		<tag k="natural" v="bay" />
		<tag k="ssr:stedsnr" v="862634" />
	</node>
	<node id="-825516" lat="63.4606555519" lon="9.33708055186">
		<tag k="name" v="Stålvikholmen" />
		<tag k="place" v="islet" />
		<tag k="ssr:stedsnr" v="578584" />
	</node>
	<node id="-825499" lat="63.4343944426" lon="9.21180555782">
		<tag k="name" v="Teistholet" />
		<tag k="natural" v="bay" />
		<tag k="ssr:stedsnr" v="275040" />
	</node>
	<node id="-825498" lat="63.5277555513" lon="9.28424166346">
		<tag k="name" v="Råskjærbukta" />
		<tag k="natural" v="bay" />
		<tag k="ssr:stedsnr" v="33207" />
	</node>
	<node id="-825493" lat="63.4298055525" lon="9.17248333387">
		<tag k="name" v="Stokkaungrunnen" />
		<tag k="natural" v="shoal" />
		<tag k="place" v="locality" />
		<tag k="ssr:stedsnr" v="349685" />
	</node>
	<node id="-825492" lat="63.5043333305" lon="9.40363056021">
		<tag k="name" v="Djupvika" />
		<tag k="natural" v="bay" />
		<tag k="ssr:stedsnr" v="701242" />
	</node>
	<node id="-825490" lat="63.5078416627" lon="9.39666389413">
		<tag k="fixme" v="consider seamark:type=rock or natural=shoal" />
		<tag k="name" v="Storstein" />
		<tag k="place" v="islet" />
		<tag k="ssr:stedsnr" v="93589" />
	</node>
	<node id="-825489" lat="63.3883083293" lon="9.48768055778">
		<tag k="name" v="Aunbukta" />
		<tag k="natural" v="bay" />
		<tag k="ssr:stedsnr" v="822805" />
	</node>
	<node id="-825474" lat="63.4879638849" lon="9.14727500527">
		<tag k="name" v="Malneståa" />
		<tag k="natural" v="cape" />
		<tag k="ssr:stedsnr" v="882024" />
	</node>
	<node id="-825463" lat="63.5626805563" lon="9.48192500081">
		<tag k="name" v="Abelvikvågen" />
		<tag k="natural" v="bay" />
		<tag k="ssr:stedsnr" v="275018" />
	</node>
	<node id="-825461" lat="63.497972219" lon="9.10432222708">
		<tag k="alt_name" v="Straumneset" />
		<tag k="name" v="Straumsneset" />
		<tag k="natural" v="cape" />
		<tag k="ssr:stedsnr" v="316503" />
	</node>
	<node id="-825447" lat="63.4656416646" lon="9.33562221277">
		<tag k="name" v="Langneset" />
		<tag k="natural" v="cape" />
		<tag k="ssr:stedsnr" v="33644" />
	</node>
	<node id="-825444" lat="63.5249353989" lon="9.4123385497">
		<tag k="name" v="Rønneset" />
		<tag k="natural" v="cape" />
		<tag k="ssr:stedsnr" v="829121" />
	</node>
	<node id="-825442" lat="63.3490370279" lon="9.25524743225">
		<tag k="name" v="Forraneset" />
		<tag k="natural" v="cape" />
		<tag k="ssr:stedsnr" v="863149" />
	</node>
	<node id="-825419" lat="63.435761108" lon="9.28639443453">
		<tag k="alt_name" v="Heggstadbugen;Indre Heggstadbugen" />
		<tag k="name" v="Heggstadbukta" />
		<tag k="natural" v="bay" />
		<tag k="ssr:stedsnr" v="73811" />
	</node>
	<node id="-824331" lat="63.504255554" lon="9.40834166117">
		<tag k="name" v="Vorpneset" />
		<tag k="natural" v="cape" />
		<tag k="ssr:stedsnr" v="377164" />
	</node>
	<node id="-825399" lat="63.4577055575" lon="9.39602778515">
		<tag k="name" v="Kuvikgrunnen" />
		<tag k="natural" v="shoal" />
		<tag k="place" v="locality" />
		<tag k="ssr:stedsnr" v="651128" />
	</node>
	<node id="-825395" lat="63.4354333331" lon="9.22831111051">
		<tag k="name" v="Vikaholmen" />
		<tag k="place" v="islet" />
		<tag k="ssr:stedsnr" v="558848" />
	</node>
	<node id="-825390" lat="63.5527777735" lon="9.4638305543">
		<tag k="name" v="Litlhåvika" />
		<tag k="natural" v="bay" />
		<tag k="ssr:stedsnr" v="275003" />
	</node>
	<node id="-825386" lat="63.349852776" lon="9.27095277961">
		<tag k="name" v="Einbukta" />
		<tag k="natural" v="bay" />
		<tag k="ssr:stedsnr" v="154202" />
	</node>
	<node id="-824623" lat="63.4664388863" lon="9.42845556284">
		<tag k="name" v="Mjønesneset" />
		<tag k="natural" v="cape" />
		<tag k="ssr:stedsnr" v="578010" />
	</node>
	<node id="-825381" lat="63.3528444433" lon="9.26809999441">
		<tag k="alt_name" v="Skjeret" />
		<tag k="fixme" v="consider seamark:type=rock or natural=shoal" />
		<tag k="name" v="Vennagalten" />
		<tag k="place" v="islet" />
		<tag k="ssr:stedsnr" v="154207" />
	</node>
	<node id="-825380" lat="63.5459027808" lon="9.44638054695">
		<tag k="name" v="Slavikskjæret" />
		<tag k="natural" v="cape" />
		<tag k="ssr:stedsnr" v="275002" />
	</node>
	<node id="-825376" lat="63.4544916628" lon="9.39969444365">
		<tag k="name" v="Kuvikneset" />
		<tag k="natural" v="cape" />
		<tag k="ssr:stedsnr" v="93572" />
	</node>
	<node id="-825371" lat="63.468447218" lon="9.32460276918">
		<tag k="name" v="Furuholmen" />
		<tag k="place" v="islet" />
		<tag k="ssr:stedsnr" v="315976" />
	</node>
	<node id="-825367" lat="63.3311361145" lon="9.55915832932">
		<tag k="name" v="Våvasslineset" />
		<tag k="natural" v="cape" />
		<tag k="ssr:stedsnr" v="215119" />
	</node>
	<node id="-825364" lat="63.4815305562" lon="9.29275000004">
		<tag k="bay" v="fjord" />
		<tag k="name" v="Bustlisundet" />
		<tag k="natural" v="bay" />
		<tag k="ssr:stedsnr" v="376998" />
	</node>
	<node id="-825363" lat="63.3351194422" lon="9.24221667136">
		<tag k="name" v="Vikahyllan" />
		<tag k="natural" v="cape" />
		<tag k="ssr:stedsnr" v="397825" />
	</node>
	<node id="-825345" lat="63.4594388863" lon="9.41753333869">
		<tag k="name" v="Mælabukta" />
		<tag k="natural" v="bay" />
		<tag k="ssr:stedsnr" v="288112" />
	</node>
</osm>
