<?xml version="1.0" encoding="UTF-8"?>
<osm generator="osmapis" version="0.6">
	<node id="-831487" lat="63.4641361132" lon="9.27843332832">
		<tag k="name" v="Øverlia" />
		<tag k="place" v="farm" />
		<tag k="ssr:stedsnr" v="679961" />
	</node>
	<node id="-831480" lat="63.4672277747" lon="9.39860556374">
		<tag k="alt_name" v="Kverndalen" />
		<tag k="name" v="Kverndal" />
		<tag k="place" v="farm" />
		<tag k="ssr:stedsnr" v="740956" />
	</node>
	<node id="-831478" lat="63.3581805556" lon="9.30394444418">
		<tag k="name" v="Larshaugen" />
		<tag k="place" v="farm" />
		<tag k="ssr:stedsnr" v="518983" />
	</node>
	<node id="-831477" lat="63.5008055549" lon="9.16367223148">
		<tag k="name" v="Stranden" />
		<tag k="place" v="farm" />
		<tag k="ssr:stedsnr" v="458245" />
	</node>
	<node id="-831472" lat="63.4956805571" lon="9.147761106">
		<tag k="name" v="Hemnskjelsjøen" />
		<tag k="place" v="farm" />
		<tag k="ssr:stedsnr" v="578034" />
	</node>
	<node id="-831469" lat="63.5468249985" lon="9.35801389511">
		<tag k="name" v="Plassen" />
		<tag k="place" v="farm" />
		<tag k="ssr:stedsnr" v="397720" />
	</node>
	<node id="-831460" lat="63.4613944461" lon="9.33916665743">
		<tag k="alt_name" v="Stålvik" />
		<tag k="name" v="Stålvika" />
		<tag k="place" v="farm" />
		<tag k="ssr:stedsnr" v="133966" />
	</node>
	<node id="-831456" lat="63.3196916648" lon="9.44104999191">
		<tag k="name" v="Løra" />
		<tag k="place" v="isolated_dwelling" />
		<tag k="ssr:stedsnr" v="397272" />
	</node>
	<node id="-831449" lat="63.4958694403" lon="9.13463611564">
		<tag k="name" v="Vollan" />
		<tag k="place" v="farm" />
		<tag k="ssr:stedsnr" v="740440" />
	</node>
	<node id="-831447" lat="63.4938833321" lon="9.13220278432">
		<tag k="amenity" v="school" />
		<tag k="name" v="Hemnskjela skole" />
		<tag k="ssr:stedsnr" v="848566" />
	</node>
	<node id="-831446" lat="63.3513749994" lon="9.27618333726">
		<tag k="amenity" v="kindergarten" />
		<tag k="name" v="Ven barnehage" />
		<tag k="ssr:stedsnr" v="968565" />
	</node>
	<node id="-831437" lat="63.3175916668" lon="9.43413889249">
		<tag k="historic" v="shieling" />
		<tag k="name" v="Vuttudalssetra" />
		<tag k="place" v="locality" />
		<tag k="ssr:stedsnr" v="741220" />
	</node>
	<node id="-831434" lat="63.4266694434" lon="9.22683888366">
		<tag k="alt_name" v="Aunet" />
		<tag k="name" v="Flesvikaunet" />
		<tag k="place" v="farm" />
		<tag k="ssr:stedsnr" v="194775" />
	</node>
	<node id="-831432" lat="63.5412555535" lon="9.42477776924">
		<tag k="fixme" v="consider place=hamlet" />
		<tag k="name" v="Aune" />
		<tag k="place" v="farm" />
		<tag k="ssr:stedsnr" v="761083" />
	</node>
	<node id="-831421" lat="63.4955972178" lon="9.27657223029">
		<tag k="name" v="Krommen" />
		<tag k="place" v="farm" />
		<tag k="ssr:stedsnr" v="397267" />
	</node>
	<node id="-831413" lat="63.5096805598" lon="9.24410276844">
		<tag k="name" v="Olaneset" />
		<tag k="place" v="farm" />
		<tag k="ssr:stedsnr" v="153227" />
	</node>
	<node id="-831407" lat="63.5442749969" lon="9.34777776842">
		<tag k="name" v="Bystingen" />
		<tag k="place" v="farm" />
		<tag k="ssr:stedsnr" v="389160" />
	</node>
	<node id="-831401" lat="63.5154638929" lon="9.23896111586">
		<tag k="alt_name" v="Valslagaunet" />
		<tag k="name" v="Aunet" />
		<tag k="place" v="farm" />
		<tag k="ssr:stedsnr" v="316183" />
	</node>
	<node id="-831399" lat="63.5327151852" lon="9.41302654209">
		<tag k="fixme" v="consider place=hamlet" />
		<tag k="name" v="Tyskøya" />
		<tag k="place" v="farm" />
		<tag k="ssr:stedsnr" v="971073" />
	</node>
	<node id="-831393" lat="63.4354111147" lon="9.23742778061">
		<tag k="alt_name" v="Vala" />
		<tag k="name" v="Valen" />
		<tag k="place" v="farm" />
		<tag k="ssr:stedsnr" v="883161" />
	</node>
	<node id="-831390" lat="63.4540111104" lon="9.28467223115">
		<tag k="name" v="Vågan" />
		<tag k="place" v="neighbourhood" />
		<tag k="ssr:stedsnr" v="177086" />
	</node>
	<node id="-831389" lat="63.4968361112" lon="9.14034999765">
		<tag k="fixme" v="consider place=hamlet" />
		<tag k="name" v="Hemnskjela" />
		<tag k="place" v="farm" />
		<tag k="ssr:stedsnr" v="255439" />
	</node>
	<node id="-831384" lat="63.5224555583" lon="9.29214999482">
		<tag k="name" v="Vingvågen" />
		<tag k="place" v="isolated_dwelling" />
		<tag k="ssr:stedsnr" v="591860" />
	</node>
	<node id="-831380" lat="63.4755222219" lon="9.45531944566">
		<tag k="name" v="Rotnes" />
		<tag k="place" v="neighbourhood" />
		<tag k="ssr:stedsnr" v="177085" />
	</node>
	<node id="-831375" lat="63.3476805543" lon="9.25160278197">
		<tag k="name" v="Høgberget" />
		<tag k="place" v="farm" />
		<tag k="ssr:stedsnr" v="458240" />
	</node>
	<node id="-831373" lat="63.4951392146" lon="9.27168745997">
		<tag k="fixme" v="consider place=hamlet" />
		<tag k="name" v="Valslag" />
		<tag k="place" v="farm" />
		<tag k="ssr:stedsnr" v="12885" />
	</node>
	<node id="-833417" lat="63.5519766594" lon="9.37165315357">
		<tag k="fixme" v="consider place=hamlet" />
		<tag k="name" v="Sjursvika" />
		<tag k="place" v="farm" />
		<tag k="ssr:stedsnr" v="802165" />
	</node>
	<node id="-833413" lat="63.4402611114" lon="9.3048888804">
		<tag k="name" v="Haugen" />
		<tag k="place" v="farm" />
		<tag k="ssr:stedsnr" v="518862" />
	</node>
	<node id="-833412" lat="63.3661166657" lon="9.3827694424">
		<tag k="name" v="Nordaunet" />
		<tag k="place" v="hamlet" />
		<tag k="ssr:stedsnr" v="337235" />
	</node>
	<node id="-833174" lat="63.3764833367" lon="9.33604166877">
		<tag k="fixme" v="multiple name tags, choose one and add the other to alt_name" />
		<tag k="name" v="Hauge;Klungervik indre" />
		<tag k="place" v="farm" />
		<tag k="ssr:stedsnr" v="822967" />
	</node>
	<node id="-833409" lat="63.4649055566" lon="9.26646388188">
		<tag k="alt_name" v="Moa" />
		<tag k="name" v="Moen" />
		<tag k="place" v="farm" />
		<tag k="ssr:stedsnr" v="194965" />
	</node>
	<node id="-831359" lat="63.3226879006" lon="9.24548324403">
		<tag k="fixme" v="consider place=hamlet" />
		<tag k="name" v="Berdal" />
		<tag k="place" v="farm" />
		<tag k="ssr:stedsnr" v="134218" />
	</node>
	<node id="-833406" lat="63.5655856675" lon="9.48510368189">
		<tag k="fixme" v="consider place=hamlet" />
		<tag k="name" v="Baret" />
		<tag k="place" v="farm" />
		<tag k="ssr:stedsnr" v="680141" />
	</node>
	<node id="-831356" lat="63.4559249981" lon="9.29265554574">
		<tag k="name" v="Reitan" />
		<tag k="place" v="farm" />
		<tag k="ssr:stedsnr" v="740941" />
	</node>
	<node id="-833401" lat="63.5320583331" lon="9.33377500136">
		<tag k="name" v="Våberghatten" />
		<tag k="place" v="neighbourhood" />
		<tag k="ssr:stedsnr" v="343123" />
	</node>
	<node id="-833400" lat="63.3788750019" lon="9.27844721406">
		<tag k="historic" v="shieling" />
		<tag k="name" v="Heggviksætra" />
		<tag k="place" v="locality" />
		<tag k="ssr:stedsnr" v="619860" />
	</node>
	<node id="-831351" lat="63.5532712552" lon="9.39717193864">
		<tag k="fixme" v="consider place=hamlet" />
		<tag k="name" v="Kongensvollen" />
		<tag k="place" v="farm" />
		<tag k="ssr:stedsnr" v="13153" />
	</node>
	<node id="-833395" lat="63.482422221" lon="9.11189444991">
		<tag k="name" v="Vikan hyttefelt" />
		<tag k="place" v="neighbourhood" />
		<tag k="ssr:stedsnr" v="464138" />
	</node>
	<node id="-833386" lat="63.3607789091" lon="9.56912097001">
		<tag k="name" v="Myrstad" />
		<tag k="place" v="farm" />
		<tag k="ssr:stedsnr" v="802166" />
	</node>
	<node id="-831335" lat="63.5594138921" lon="9.47438889346">
		<tag k="name" v="Bakken" />
		<tag k="place" v="farm" />
		<tag k="ssr:stedsnr" v="518047" />
	</node>
	<node id="-833382" lat="63.4395527751" lon="9.30475833738">
		<tag k="name" v="Aunet" />
		<tag k="place" v="farm" />
		<tag k="ssr:stedsnr" v="518864" />
	</node>
	<node id="-831325" lat="63.5002555583" lon="9.27277222092">
		<tag k="name" v="Leirvika" />
		<tag k="place" v="farm" />
		<tag k="ssr:stedsnr" v="153211" />
	</node>
	<node id="-831319" lat="63.4590472189" lon="9.43124721376">
		<tag k="alt_name" v="Hagan" />
		<tag k="name" v="Hagen" />
		<tag k="place" v="farm" />
		<tag k="ssr:stedsnr" v="679937" />
	</node>
	<node id="-833363" lat="63.400908332" lon="9.23617777183">
		<tag k="name" v="Solhaug" />
		<tag k="place" v="farm" />
		<tag k="ssr:stedsnr" v="376870" />
	</node>
	<node id="-833351" lat="63.39909167" lon="9.51868055738">
		<tag k="alt_name" v="Å" />
		<tag k="name" v="Åmo" />
		<tag k="place" v="farm" />
		<tag k="ssr:stedsnr" v="680901" />
	</node>
	<node id="-831296" lat="63.3495388923" lon="9.2734305616">
		<tag k="name" v="Einan" />
		<tag k="place" v="farm" />
		<tag k="ssr:stedsnr" v="316163" />
	</node>
	<node id="-831295" lat="63.5238881791" lon="9.32548495441">
		<tag k="fixme" v="consider place=hamlet" />
		<tag k="name" v="Halsen" />
		<tag k="place" v="farm" />
		<tag k="ssr:stedsnr" v="741182" />
	</node>
	<node id="-831293" lat="63.5692111072" lon="9.49021944623">
		<tag k="name" v="Seterneset" />
		<tag k="place" v="farm" />
		<tag k="ssr:stedsnr" v="707008" />
	</node>
	<node id="-831292" lat="63.4496804046" lon="9.24483082247">
		<tag k="alt_name" v="Vågesæter" />
		<tag k="fixme" v="consider place=hamlet" />
		<tag k="name" v="Vågasætra" />
		<tag k="place" v="farm" />
		<tag k="ssr:stedsnr" v="133936" />
	</node>
	<node id="-831291" lat="63.3352944469" lon="9.30870277312">
		<tag k="alt_name" v="Vollsetren" />
		<tag k="historic" v="shieling" />
		<tag k="name" v="Vollsætra" />
		<tag k="place" v="locality" />
		<tag k="ssr:stedsnr" v="376140" />
	</node>
	<node id="-831289" lat="63.4048722233" lon="9.24019999157">
		<tag k="name" v="Myrvoll" />
		<tag k="place" v="farm" />
		<tag k="ssr:stedsnr" v="923877" />
	</node>
	<node id="-833336" lat="63.4643305575" lon="9.32706389615">
		<tag k="name" v="Langneslia" />
		<tag k="place" v="farm" />
		<tag k="ssr:stedsnr" v="497964" />
	</node>
	<node id="-833335" lat="63.3901749984" lon="9.49279999168">
		<tag k="name" v="Sjølyst" />
		<tag k="place" v="isolated_dwelling" />
		<tag k="ssr:stedsnr" v="640786" />
	</node>
	<node id="-833334" lat="63.4631722859" lon="9.43653524082">
		<tag k="name" v="Mjønesaunet" />
		<tag k="place" v="farm" />
		<tag k="ssr:stedsnr" v="194956" />
	</node>
	<node id="-833318" lat="63.3331555565" lon="9.30550555681">
		<tag k="historic" v="shieling" />
		<tag k="name" v="Einansætra" />
		<tag k="place" v="locality" />
		<tag k="ssr:stedsnr" v="558177" />
	</node>
	<node id="-833317" lat="63.525758122" lon="9.28943986309">
		<tag k="fixme" v="consider place=hamlet" />
		<tag k="name" v="Kamvika" />
		<tag k="place" v="farm" />
		<tag k="ssr:stedsnr" v="802176" />
	</node>
	<node id="-833316" lat="63.5193194488" lon="9.31731110435">
		<tag k="alt_name" v="Djupåa" />
		<tag k="fixme" v="consider place=hamlet" />
		<tag k="name" v="Djupå" />
		<tag k="place" v="farm" />
		<tag k="ssr:stedsnr" v="700580" />
	</node>
	<node id="-831267" lat="63.5056751443" lon="9.42469088335">
		<tag k="alt_name" v="Imstera" />
		<tag k="fixme" v="consider place=hamlet" />
		<tag k="name" v="Imstra" />
		<tag k="place" v="farm" />
		<tag k="ssr:stedsnr" v="802214" />
	</node>
	<node id="-833313" lat="63.4634611073" lon="9.44070278148">
		<tag k="name" v="Stranda" />
		<tag k="place" v="isolated_dwelling" />
		<tag k="ssr:stedsnr" v="558966" />
	</node>
	<node id="-833308" lat="63.4880472192" lon="9.34024722757">
		<tag k="alt_name" v="Fossdalsetra" />
		<tag k="historic" v="shieling" />
		<tag k="name" v="Fossdalsætra" />
		<tag k="place" v="locality" />
		<tag k="ssr:stedsnr" v="740876" />
	</node>
	<node id="-833305" lat="63.4585195487" lon="9.4958039652">
		<tag k="alt_name" v="Slordalen;Slørdalen" />
		<tag k="fixme" v="consider place=hamlet" />
		<tag k="name" v="Slørdal" />
		<tag k="place" v="farm" />
		<tag k="ssr:stedsnr" v="437929" />
	</node>
	<node id="-833303" lat="63.4547777757" lon="9.29312222641">
		<tag k="name" v="Fagervollen" />
		<tag k="place" v="farm" />
		<tag k="ssr:stedsnr" v="94638" />
	</node>
	<node id="-831251" lat="63.448155735" lon="9.14803123122">
		<tag k="fixme" v="consider place=hamlet" />
		<tag k="name" v="Jamtøya" />
		<tag k="place" v="farm" />
		<tag k="ssr:stedsnr" v="680442" />
	</node>
	<node id="-831237" lat="63.3887972193" lon="9.24328334232">
		<tag k="alt_name" v="Øvre Tannvik" />
		<tag k="name" v="Oppstua" />
		<tag k="place" v="farm" />
		<tag k="ssr:stedsnr" v="822190" />
	</node>
	<node id="-831230" lat="63.5281242492" lon="9.38834362442">
		<tag k="name" v="Gullbrandsvika" />
		<tag k="place" v="farm" />
		<tag k="ssr:stedsnr" v="680182" />
	</node>
	<node id="-833277" lat="63.4687710791" lon="9.27593094219">
		<tag k="alt_name" v="Liasjøen" />
		<tag k="fixme" v="consider place=hamlet" />
		<tag k="name" v="Lian" />
		<tag k="place" v="farm" />
		<tag k="ssr:stedsnr" v="558969" />
	</node>
	<node id="-833274" lat="63.3427138895" lon="9.43180278016">
		<tag k="name" v="Vuttudal" />
		<tag k="place" v="farm" />
		<tag k="ssr:stedsnr" v="728260" />
	</node>
	<node id="-833272" lat="63.5556194401" lon="9.5035083399">
		<tag k="name" v="Brannhaugen" />
		<tag k="place" v="farm" />
		<tag k="ssr:stedsnr" v="802172" />
	</node>
	<node id="-833270" lat="63.3016277815" lon="9.42731665767">
		<tag k="historic" v="shieling" />
		<tag k="name" v="Kudalen" />
		<tag k="place" v="locality" />
		<tag k="ssr:stedsnr" v="74201" />
	</node>
	<node id="-833265" lat="63.5545666682" lon="9.50516110864">
		<tag k="name" v="Moen" />
		<tag k="place" v="farm" />
		<tag k="ssr:stedsnr" v="802171" />
	</node>
	<node id="-833262" lat="63.466961111" lon="9.27968332358">
		<tag k="alt_name" v="Mortenstua" />
		<tag k="name" v="Libogen" />
		<tag k="place" v="farm" />
		<tag k="ssr:stedsnr" v="558972" />
	</node>
	<node id="-833258" lat="63.5372666674" lon="9.34013056213">
		<tag k="name" v="Bystingen" />
		<tag k="place" v="neighbourhood" />
		<tag k="ssr:stedsnr" v="464135" />
	</node>
	<node id="-831203" lat="63.5149473966" lon="9.23990356045">
		<tag k="fixme" v="consider place=hamlet" />
		<tag k="name" v="Valslagaunet" />
		<tag k="place" v="farm" />
		<tag k="ssr:stedsnr" v="971067" />
	</node>
	<node id="-833250" lat="63.4737833336" lon="9.17479167525">
		<tag k="name" v="Rottemsvika" />
		<tag k="place" v="farm" />
		<tag k="ssr:stedsnr" v="923540" />
	</node>
	<node id="-831199" lat="63.3663527802" lon="9.57835000077">
		<tag k="name" v="Myrset" />
		<tag k="place" v="farm" />
		<tag k="ssr:stedsnr" v="559814" />
	</node>
	<node id="-831196" lat="63.454977775" lon="9.15453611351">
		<tag k="name" v="Neset" />
		<tag k="place" v="isolated_dwelling" />
		<tag k="ssr:stedsnr" v="700216" />
	</node>
	<node id="-831195" lat="63.390994443" lon="9.22225277246">
		<tag k="name" v="Trølia" />
		<tag k="place" v="farm" />
		<tag k="ssr:stedsnr" v="397221" />
	</node>
	<node id="-833242" lat="63.337780556" lon="9.24081111442">
		<tag k="name" v="Slåttavikhaugen" />
		<tag k="place" v="isolated_dwelling" />
		<tag k="ssr:stedsnr" v="93757" />
	</node>
	<node id="-831193" lat="63.4866604916" lon="9.50697023174">
		<tag k="fixme" v="consider place=hamlet" />
		<tag k="name" v="Åstan" />
		<tag k="place" v="farm" />
		<tag k="ssr:stedsnr" v="315881" />
	</node>
	<node id="-831191" lat="63.4963750016" lon="9.12998055943">
		<tag k="name" v="Grindvollan" />
		<tag k="place" v="farm" />
		<tag k="ssr:stedsnr" v="801431" />
	</node>
	<node id="-831190" lat="63.3475944462" lon="9.42305000978">
		<tag k="name" v="Østeråkeren" />
		<tag k="place" v="farm" />
		<tag k="ssr:stedsnr" v="154509" />
	</node>
	<node id="-833236" lat="63.3513472249" lon="9.2766638823">
		<tag k="amenity" v="school" />
		<tag k="name" v="Ven Oppvekstsenter" />
		<tag k="ssr:stedsnr" v="42720" />
	</node>
	<node id="-833234" lat="63.3857466278" lon="9.36008875324">
		<tag k="historic" v="shieling" />
		<tag k="name" v="Klungerviksletta" />
		<tag k="place" v="locality" />
		<tag k="ssr:stedsnr" v="376846" />
	</node>
	<node id="-833227" lat="63.4496121084" lon="9.38087705659">
		<tag k="fixme" v="consider place=hamlet" />
		<tag k="name" v="Engvika" />
		<tag k="place" v="farm" />
		<tag k="ssr:stedsnr" v="922762" />
	</node>
	<node id="-833225" lat="63.4125944454" lon="9.65029165873">
		<tag k="name" v="Auset" />
		<tag k="place" v="farm" />
		<tag k="ssr:stedsnr" v="397120" />
	</node>
	<node id="-831176" lat="63.5618669677" lon="9.50364115456">
		<tag k="fixme" v="consider place=hamlet" />
		<tag k="name" v="Terningan" />
		<tag k="place" v="farm" />
		<tag k="ssr:stedsnr" v="13135" />
	</node>
	<node id="-833222" lat="63.4929555587" lon="9.10492777562">
		<tag k="name" v="Kuppelvika" />
		<tag k="place" v="neighbourhood" />
		<tag k="ssr:stedsnr" v="585128" />
	</node>
	<node id="-831170" lat="63.4974333344" lon="9.27581944026">
		<tag k="name" v="Nyheim" />
		<tag k="place" v="farm" />
		<tag k="ssr:stedsnr" v="376906" />
	</node>
	<node id="-831167" lat="63.370663089" lon="9.41463880829">
		<tag k="alt_name" v="Sandvika" />
		<tag k="fixme" v="consider place=hamlet" />
		<tag k="name" v="Sandvik" />
		<tag k="place" v="farm" />
		<tag k="ssr:stedsnr" v="74791" />
	</node>
	<node id="-831162" lat="63.3659865792" lon="9.37587899679">
		<tag k="fixme" v="consider place=hamlet" />
		<tag k="name" v="Skårill" />
		<tag k="place" v="farm" />
		<tag k="ssr:stedsnr" v="559818" />
	</node>
	<node id="-833208" lat="63.3872944476" lon="9.22294721279">
		<tag k="name" v="Tannviktrøa" />
		<tag k="place" v="farm" />
		<tag k="ssr:stedsnr" v="376844" />
	</node>
	<node id="-833206" lat="63.4523027758" lon="9.2944416569">
		<tag k="name" v="Vågavika" />
		<tag k="place" v="farm" />
		<tag k="ssr:stedsnr" v="558959" />
	</node>
	<node id="-833202" lat="63.3632861103" lon="9.57543055918">
		<tag k="name" v="Myrheim" />
		<tag k="place" v="farm" />
		<tag k="ssr:stedsnr" v="256133" />
	</node>
	<node id="-831149" lat="63.4586305536" lon="9.28536943648">
		<tag k="name" v="Furulund" />
		<tag k="place" v="farm" />
		<tag k="ssr:stedsnr" v="822645" />
	</node>
	<node id="-831148" lat="63.4502166643" lon="9.14219999951">
		<tag k="name" v="Kuppelvika" />
		<tag k="place" v="isolated_dwelling" />
		<tag k="ssr:stedsnr" v="154033" />
	</node>
	<node id="-833193" lat="63.390630555" lon="9.23077499926">
		<tag k="name" v="Strandheim" />
		<tag k="place" v="farm" />
		<tag k="ssr:stedsnr" v="376852" />
	</node>
	<node id="-831144" lat="63.5014583314" lon="9.24658332396">
		<tag k="name" v="Røssvika" />
		<tag k="place" v="farm" />
		<tag k="ssr:stedsnr" v="134203" />
	</node>
	<node id="-831133" lat="63.5595777746" lon="9.46903333759">
		<tag k="alt_name" v="Moldtun" />
		<tag k="name" v="Søndre Moldtun" />
		<tag k="place" v="farm" />
		<tag k="ssr:stedsnr" v="900887" />
	</node>
	<node id="-833178" lat="63.364177775" lon="9.38362500058">
		<tag k="name" v="Skårilløya" />
		<tag k="place" v="farm" />
		<tag k="ssr:stedsnr" v="761352" />
	</node>
	<node id="-833176" lat="63.3430222201" lon="9.42439723134">
		<tag k="alt_name" v="Vuttudal" />
		<tag k="name" v="Asbjørnslettet" />
		<tag k="place" v="farm" />
		<tag k="ssr:stedsnr" v="788294" />
	</node>
	<node id="-831126" lat="63.3999416669" lon="9.50361666326">
		<tag k="name" v="Å" />
		<tag k="place" v="farm" />
		<tag k="ssr:stedsnr" v="33016" />
	</node>
	<node id="-831120" lat="63.3542361136" lon="9.28554443481">
		<tag k="fixme" v="consider place=hamlet" />
		<tag k="name" v="Ytre Snillfjord" />
		<tag k="place" v="village" />
		<tag k="ssr:stedsnr" v="741164" />
	</node>
	<node id="-833166" lat="63.3604373377" lon="9.31126827424">
		<tag k="fixme" v="consider place=hamlet" />
		<tag k="name" v="Selnes" />
		<tag k="place" v="farm" />
		<tag k="ssr:stedsnr" v="316872" />
	</node>
	<node id="-831117" lat="63.3198111089" lon="9.26849167002">
		<tag k="historic" v="shieling" />
		<tag k="name" v="Ytter Berdalssetra" />
		<tag k="place" v="locality" />
		<tag k="ssr:stedsnr" v="761451" />
	</node>
	<node id="-831110" lat="63.5446960626" lon="9.44693668467">
		<tag k="fixme" v="consider place=hamlet" />
		<tag k="name" v="Slavikan" />
		<tag k="place" v="farm" />
		<tag k="ssr:stedsnr" v="741162" />
	</node>
	<node id="-831109" lat="63.4143805554" lon="9.18063888084">
		<tag k="historic" v="shieling" />
		<tag k="name" v="Moldviksetra" />
		<tag k="place" v="locality" />
		<tag k="ssr:stedsnr" v="639078" />
	</node>
	<node id="-833150" lat="63.3055749996" lon="9.43759167403">
		<tag k="historic" v="shieling" />
		<tag k="name" v="Storslættet" />
		<tag k="place" v="locality" />
		<tag k="ssr:stedsnr" v="944411" />
	</node>
	<node id="-833149" lat="63.4417166627" lon="9.31375554676">
		<tag k="alt_name" v="Skjerbugen" />
		<tag k="name" v="Skjerbogen" />
		<tag k="place" v="farm" />
		<tag k="ssr:stedsnr" v="558948" />
	</node>
	<node id="-831095" lat="63.5559027744" lon="9.39730833241">
		<tag k="fixme" v="consider place=hamlet" />
		<tag k="name" v="Futstranda" />
		<tag k="place" v="village" />
		<tag k="ssr:stedsnr" v="275712" />
	</node>
	<node id="-833142" lat="63.4650749974" lon="9.49357221578">
		<tag k="name" v="Slørdal" />
		<tag k="place" v="neighbourhood" />
		<tag k="ssr:stedsnr" v="845100" />
	</node>
	<node id="-831085" lat="63.5019250041" lon="9.20033611556">
		<tag k="name" v="Stordalen" />
		<tag k="place" v="farm" />
		<tag k="ssr:stedsnr" v="498007" />
	</node>
	<node id="-831079" lat="63.3578122006" lon="9.5616384028">
		<tag k="alt_name" v="Setergarden" />
		<tag k="name" v="Sætergarden" />
		<tag k="place" v="farm" />
		<tag k="ssr:stedsnr" v="316147" />
	</node>
	<node id="-831077" lat="63.3443388869" lon="9.41375277624">
		<tag k="name" v="Aunan" />
		<tag k="place" v="farm" />
		<tag k="ssr:stedsnr" v="336422" />
	</node>
	<node id="-831074" lat="63.5659051011" lon="9.49081291522">
		<tag k="fixme" v="consider place=hamlet" />
		<tag k="name" v="Seterneset" />
		<tag k="place" v="farm" />
		<tag k="ssr:stedsnr" v="445480" />
	</node>
	<node id="-833116" lat="63.4541194402" lon="9.26934999733">
		<tag k="name" v="Sørvågen" />
		<tag k="place" v="farm" />
		<tag k="ssr:stedsnr" v="497953" />
	</node>
	<node id="-831062" lat="63.4982972239" lon="9.39528333489">
		<tag k="alt_name" v="Elvesætra" />
		<tag k="name" v="Elvasetra" />
		<tag k="place" v="farm" />
		<tag k="ssr:stedsnr" v="679894" />
	</node>
	<node id="-833108" lat="63.3922444406" lon="9.50082777431">
		<tag k="alt_name" v="Aune" />
		<tag k="fixme" v="consider place=hamlet" />
		<tag k="name" v="Aunet" />
		<tag k="place" v="farm" />
		<tag k="ssr:stedsnr" v="680894" />
	</node>
	<node id="-831058" lat="63.4567027741" lon="9.23024722494">
		<tag k="name" v="Sponvikfeltet" />
		<tag k="place" v="neighbourhood" />
		<tag k="ssr:stedsnr" v="222116" />
	</node>
	<node id="-831056" lat="63.4846666696" lon="9.51111389519">
		<tag k="alt_name" v="Åstfjorden" />
		<tag k="name" v="Åstsjøen" />
		<tag k="place" v="isolated_dwelling" />
		<tag k="ssr:stedsnr" v="558997" />
	</node>
	<node id="-833103" lat="63.3913843985" lon="9.58077155122">
		<tag k="fixme" v="consider place=hamlet" />
		<tag k="name" v="Snilldal" />
		<tag k="place" v="farm" />
		<tag k="ssr:stedsnr" v="680893" />
	</node>
	<node id="-831049" lat="63.4178416643" lon="9.55090278328">
		<tag k="name" v="Berg" />
		<tag k="place" v="farm" />
		<tag k="ssr:stedsnr" v="458163" />
	</node>
	<node id="-831042" lat="63.5062722239" lon="9.247405555">
		<tag k="name" v="Røssvikneset" />
		<tag k="place" v="farm" />
		<tag k="ssr:stedsnr" v="675570" />
	</node>
	<node id="-831038" lat="63.398799999" lon="9.54994445064">
		<tag k="name" v="Bjørnalia" />
		<tag k="place" v="farm" />
		<tag k="ssr:stedsnr" v="397193" />
	</node>
	<node id="-831037" lat="63.4664132015" lon="9.14182307201">
		<tag k="fixme" v="consider place=hamlet" />
		<tag k="name" v="Fugløya" />
		<tag k="place" v="farm" />
		<tag k="ssr:stedsnr" v="195523" />
	</node>
	<node id="-833084" lat="63.3948666648" lon="9.50026111934">
		<tag k="name" v="Aunvollan" />
		<tag k="place" v="isolated_dwelling" />
		<tag k="ssr:stedsnr" v="944786" />
	</node>
	<node id="-831034" lat="63.3906166632" lon="9.41679165949">
		<tag k="name" v="Myholet" />
		<tag k="place" v="locality" />
		<tag k="ssr:stedsnr" v="518455" />
	</node>
	<node id="-831027" lat="63.3729972228" lon="9.2432833252">
		<tag k="name" v="Hafsmo" />
		<tag k="place" v="farm" />
		<tag k="ssr:stedsnr" v="93826" />
	</node>
	<node id="-831026" lat="63.496444444" lon="9.17985277451">
		<tag k="fixme" v="consider place=hamlet" />
		<tag k="name" v="Sundan" />
		<tag k="place" v="village" />
		<tag k="ssr:stedsnr" v="558482" />
	</node>
	<node id="-833073" lat="63.3736583376" lon="9.23882221503">
		<tag k="name" v="Hafsmo" />
		<tag k="place" v="farm" />
		<tag k="ssr:stedsnr" v="639884" />
	</node>
	<node id="-831024" lat="63.3953277763" lon="9.50438332838">
		<tag k="name" v="Aunet" />
		<tag k="place" v="quarter" />
		<tag k="ssr:stedsnr" v="299088" />
	</node>
	<node id="-833071" lat="63.4914555595" lon="9.17785555562">
		<tag k="name" v="Sundan hyttefelt" />
		<tag k="place" v="neighbourhood" />
		<tag k="ssr:stedsnr" v="525149" />
	</node>
	<node id="-831021" lat="63.491563886" lon="9.27781667591">
		<tag k="name" v="Osen" />
		<tag k="place" v="isolated_dwelling" />
		<tag k="ssr:stedsnr" v="376894" />
	</node>
	<node id="-831019" lat="63.5538444407" lon="9.50108333167">
		<tag k="name" v="Dalen" />
		<tag k="place" v="farm" />
		<tag k="ssr:stedsnr" v="316140" />
	</node>
	<node id="-833065" lat="63.3367388846" lon="9.25439166173">
		<tag k="alt_name" v="Forrasetra" />
		<tag k="historic" v="shieling" />
		<tag k="name" v="Forrasætra" />
		<tag k="place" v="locality" />
		<tag k="ssr:stedsnr" v="862167" />
	</node>
	<node id="-833063" lat="63.3859527807" lon="9.24080278615">
		<tag k="name" v="Granholet" />
		<tag k="place" v="farm" />
		<tag k="ssr:stedsnr" v="680872" />
	</node>
	<node id="-831012" lat="63.4009105383" lon="9.50058833847">
		<tag k="fixme" v="consider place=hamlet" />
		<tag k="name" v="Krokstadøra" />
		<tag k="place" v="village" />
		<tag k="ssr:stedsnr" v="619899" />
	</node>
	<node id="-833059" lat="63.3780248564" lon="9.23856893455">
		<tag k="alt_name" v="Heggvika" />
		<tag k="name" v="Heggvik" />
		<tag k="place" v="farm" />
		<tag k="ssr:stedsnr" v="680873" />
	</node>
	<node id="-831010" lat="63.4173611143" lon="9.54293054696">
		<tag k="name" v="Berg" />
		<tag k="place" v="farm" />
		<tag k="ssr:stedsnr" v="458170" />
	</node>
	<node id="-831007" lat="63.463027781" lon="9.3979444367">
		<tag k="alt_name" v="Skrevikhalsen;Skreivikhalsen" />
		<tag k="name" v="Skreivika" />
		<tag k="place" v="farm" />
		<tag k="ssr:stedsnr" v="73965" />
	</node>
	<node id="-833054" lat="63.4983861092" lon="9.11769444542">
		<tag k="name" v="Hagen" />
		<tag k="place" v="farm" />
		<tag k="ssr:stedsnr" v="195470" />
	</node>
	<node id="-831003" lat="63.3201749959" lon="9.2769777789">
		<tag k="historic" v="shieling" />
		<tag k="name" v="Inner Berdalssetra" />
		<tag k="place" v="locality" />
		<tag k="ssr:stedsnr" v="215854" />
	</node>
	<node id="-833049" lat="63.3310833365" lon="9.23906667335">
		<tag k="alt_name" v="Einan" />
		<tag k="name" v="Berdal" />
		<tag k="place" v="farm" />
		<tag k="ssr:stedsnr" v="498195" />
	</node>
	<node id="-830996" lat="63.4856038829" lon="9.32800986522">
		<tag k="alt_name" v="Fossdalen" />
		<tag k="fixme" v="consider place=hamlet" />
		<tag k="name" v="Fossdal" />
		<tag k="place" v="farm" />
		<tag k="ssr:stedsnr" v="255909" />
	</node>
	<node id="-833041" lat="63.3810361153" lon="9.28426944191">
		<tag k="alt_name" v="Hafsmosetren" />
		<tag k="historic" v="shieling" />
		<tag k="name" v="Hafsmosætra" />
		<tag k="place" v="locality" />
		<tag k="ssr:stedsnr" v="680870" />
	</node>
	<node id="-833040" lat="63.365438888" lon="9.38270556533">
		<tag k="name" v="Trøhaugen" />
		<tag k="place" v="farm" />
		<tag k="ssr:stedsnr" v="640302" />
	</node>
	<node id="-830965" lat="63.4711277742" lon="9.13676944601">
		<tag k="alt_name" v="Nordgård" />
		<tag k="name" v="Nordgard" />
		<tag k="place" v="farm" />
		<tag k="ssr:stedsnr" v="438489" />
	</node>
	<node id="-833010" lat="63.4029361145" lon="9.52978056558">
		<tag k="name" v="Åøya" />
		<tag k="place" v="farm" />
		<tag k="ssr:stedsnr" v="133862" />
	</node>
	<node id="-833007" lat="63.3981401694" lon="9.49345277148">
		<tag k="fixme" v="consider place=hamlet" />
		<tag k="name" v="Krokstad" />
		<tag k="place" v="farm" />
		<tag k="ssr:stedsnr" v="133863" />
	</node>
	<node id="-833002" lat="63.4259899903" lon="9.19423503295">
		<tag k="fixme" v="consider place=hamlet" />
		<tag k="name" v="Stokkaunet" />
		<tag k="place" v="farm" />
		<tag k="ssr:stedsnr" v="256381" />
	</node>
	<node id="-830952" lat="63.3463333328" lon="9.42778056541">
		<tag k="alt_name" v="Vutudal" />
		<tag k="name" v="Vuttudal" />
		<tag k="place" v="hamlet" />
		<tag k="ssr:stedsnr" v="802182" />
	</node>
	<node id="-832994" lat="63.4036472267" lon="9.23812777418">
		<tag k="name" v="Øyan" />
		<tag k="place" v="farm" />
		<tag k="ssr:stedsnr" v="133855" />
	</node>
	<node id="-832990" lat="63.5292527769" lon="9.42040278221">
		<tag k="name" v="Rønneset" />
		<tag k="place" v="neighbourhood" />
		<tag k="ssr:stedsnr" v="161136" />
	</node>
	<node id="-830941" lat="63.4900694453" lon="9.28091667022">
		<tag k="name" v="Valslag" />
		<tag k="place" v="neighbourhood" />
		<tag k="ssr:stedsnr" v="768122" />
	</node>
	<node id="-830936" lat="63.4792666641" lon="9.50311112015">
		<tag k="alt_name" v="Kobbugen;Kobbogen" />
		<tag k="name" v="Kobbu" />
		<tag k="place" v="isolated_dwelling" />
		<tag k="ssr:stedsnr" v="497994" />
	</node>
	<node id="-830932" lat="63.3875055575" lon="9.23659444098">
		<tag k="fixme" v="consider place=hamlet" />
		<tag k="name" v="Tannvikvågen" />
		<tag k="place" v="village" />
		<tag k="ssr:stedsnr" v="12832" />
	</node>
	<node id="-832979" lat="63.5400055559" lon="9.41380276944">
		<tag k="name" v="Aunet" />
		<tag k="place" v="neighbourhood" />
		<tag k="ssr:stedsnr" v="525138" />
	</node>
	<node id="-830927" lat="63.4824388877" lon="9.48046110989">
		<tag k="name" v="Åstvik" />
		<tag k="place" v="farm" />
		<tag k="ssr:stedsnr" v="558996" />
	</node>
	<node id="-832968" lat="63.40571287" lon="9.18431151189">
		<tag k="fixme" v="consider place=hamlet" />
		<tag k="name" v="Stokken" />
		<tag k="place" v="farm" />
		<tag k="ssr:stedsnr" v="73646" />
	</node>
	<node id="-830916" lat="63.3076305564" lon="9.45434722175">
		<tag k="fixme" v="consider place=hamlet" />
		<tag k="name" v="Langlia" />
		<tag k="place" v="farm" />
		<tag k="ssr:stedsnr" v="215369" />
	</node>
	<node id="-830912" lat="63.5568145218" lon="9.47233774034">
		<tag k="fixme" v="consider place=hamlet" />
		<tag k="name" v="Moldtun" />
		<tag k="place" v="farm" />
		<tag k="ssr:stedsnr" v="741153" />
	</node>
	<node id="-830909" lat="63.4187777756" lon="9.55938610351">
		<tag k="name" v="Aunhalsen" />
		<tag k="place" v="farm" />
		<tag k="ssr:stedsnr" v="862758" />
	</node>
	<node id="-832948" lat="63.3483083289" lon="9.26942221549">
		<tag k="name" v="Hyllberget" />
		<tag k="place" v="quarter" />
		<tag k="ssr:stedsnr" v="337175" />
	</node>
	<node id="-832946" lat="63.4913297703" lon="9.18089460004">
		<tag k="fixme" v="consider place=hamlet" />
		<tag k="name" v="Sundan" />
		<tag k="place" v="farm" />
		<tag k="ssr:stedsnr" v="194404" />
	</node>
	<node id="-832943" lat="63.4666638894" lon="9.41095555978">
		<tag k="name" v="Mjønestrømyra" />
		<tag k="place" v="farm" />
		<tag k="ssr:stedsnr" v="862968" />
	</node>
	<node id="-830894" lat="63.4938833321" lon="9.13220278432">
		<tag k="amenity" v="kindergarten" />
		<tag k="name" v="Hemnskjela oppvekstsenter" />
		<tag k="ssr:stedsnr" v="726579" />
	</node>
	<node id="-832941" lat="63.4405138848" lon="9.30606667484">
		<tag k="alt_name" v="Fætten" />
		<tag k="fixme" v="consider place=hamlet" />
		<tag k="name" v="Feta" />
		<tag k="place" v="farm" />
		<tag k="ssr:stedsnr" v="255841" />
	</node>
	<node id="-832933" lat="63.5393749968" lon="9.41844722141">
		<tag k="name" v="Einvika" />
		<tag k="place" v="farm" />
		<tag k="ssr:stedsnr" v="822066" />
	</node>
	<node id="-830883" lat="63.4101888894" lon="9.70249721981">
		<tag k="historic" v="shieling" />
		<tag k="name" v="Stølen" />
		<tag k="place" v="locality" />
		<tag k="ssr:stedsnr" v="376873" />
	</node>
	<node id="-832930" lat="63.319130554" lon="9.26868889144">
		<tag k="historic" v="shieling" />
		<tag k="name" v="Berdalsætra" />
		<tag k="place" v="locality" />
		<tag k="ssr:stedsnr" v="74170" />
	</node>
	<node id="-832929" lat="63.4463229316" lon="9.35864584786">
		<tag k="alt_name" v="Kvennstad" />
		<tag k="fixme" v="consider place=hamlet" />
		<tag k="name" v="Kvernstad" />
		<tag k="place" v="farm" />
		<tag k="ssr:stedsnr" v="376825" />
	</node>
	<node id="-830880" lat="63.3263249985" lon="9.29855832547">
		<tag k="name" v="Middagslibua" />
		<tag k="place" v="locality" />
		<tag k="ssr:stedsnr" v="215825" />
	</node>
	<node id="-832922" lat="63.4866777748" lon="9.13700277985">
		<tag k="alt_name" v="Hamna" />
		<tag k="name" v="Hamn" />
		<tag k="place" v="farm" />
		<tag k="ssr:stedsnr" v="194407" />
	</node>
	<node id="-832921" lat="63.333967161" lon="9.30543799287">
		<tag k="alt_name" v="Vennasetren" />
		<tag k="historic" v="shieling" />
		<tag k="name" v="Vennasætra" />
		<tag k="place" v="locality" />
		<tag k="ssr:stedsnr" v="862170" />
	</node>
	<node id="-832918" lat="63.5004194403" lon="9.24919167282">
		<tag k="name" v="Røssvika" />
		<tag k="place" v="farm" />
		<tag k="ssr:stedsnr" v="942198" />
	</node>
	<node id="-830868" lat="63.3923222181" lon="9.50179722176">
		<tag k="name" v="Aune" />
		<tag k="place" v="farm" />
		<tag k="ssr:stedsnr" v="397172" />
	</node>
	<node id="-832909" lat="63.3853222255" lon="9.35822777324">
		<tag k="historic" v="shieling" />
		<tag k="name" v="Klungerviksetra" />
		<tag k="place" v="locality" />
		<tag k="ssr:stedsnr" v="761305" />
	</node>
	<node id="-830860" lat="63.3868944416" lon="9.24275278106">
		<tag k="alt_name" v="Nedre Tannvik" />
		<tag k="name" v="Nestua" />
		<tag k="place" v="farm" />
		<tag k="ssr:stedsnr" v="167896" />
	</node>
	<node id="-832907" lat="63.3480258261" lon="9.42031109169">
		<tag k="fixme" v="consider place=hamlet" />
		<tag k="name" v="Vuttudal" />
		<tag k="place" v="farm" />
		<tag k="ssr:stedsnr" v="822482" />
	</node>
	<node id="-832906" lat="63.3472361099" lon="9.41966389004">
		<tag k="alt_name" v="Vuttudal" />
		<tag k="name" v="Nestu" />
		<tag k="place" v="farm" />
		<tag k="ssr:stedsnr" v="363271" />
	</node>
	<node id="-832905" lat="63.4948611144" lon="9.27256667195">
		<tag k="building" v="commercial" />
		<tag k="name" v="Valslag bensinstasjon" />
		<tag k="ssr:stedsnr" v="342674" />
	</node>
	<node id="-832904" lat="63.3841805593" lon="9.35328888804">
		<tag k="historic" v="shieling" />
		<tag k="name" v="Klungerviksetra" />
		<tag k="place" v="locality" />
		<tag k="ssr:stedsnr" v="154346" />
	</node>
	<node id="-830839" lat="63.498313885" lon="9.18382222193">
		<tag k="name" v="Sundan boligfelt" />
		<tag k="place" v="quarter" />
		<tag k="ssr:stedsnr" v="39107" />
	</node>
	<node id="-832873" lat="63.3993243873" lon="9.50209083858">
		<tag k="amenity" v="school" />
		<tag k="name" v="Aa skole" />
		<tag k="ssr:stedsnr" v="787571" />
	</node>
	<node id="-830822" lat="63.4191666653" lon="9.55255556085">
		<tag k="name" v="Berg" />
		<tag k="place" v="farm" />
		<tag k="ssr:stedsnr" v="558795" />
	</node>
	<node id="-830815" lat="63.3855833317" lon="9.43122778281">
		<tag k="name" v="Bjørnaholet" />
		<tag k="place" v="locality" />
		<tag k="ssr:stedsnr" v="33532" />
	</node>
	<node id="-832858" lat="63.3509694444" lon="9.27671944107">
		<tag k="leisure" v="pitch" />
		<tag k="name" v="Vennastranda fotballbane" />
		<tag k="ssr:stedsnr" v="241536" />
	</node>
	<node id="-832856" lat="63.3456805537" lon="9.26114445393">
		<tag k="fixme" v="multiple name tags, choose one and add the other to alt_name" />
		<tag k="name" v="Forragrinda;Storaunet" />
		<tag k="place" v="farm" />
		<tag k="ssr:stedsnr" v="337162" />
	</node>
	<node id="-832854" lat="63.3441638864" lon="9.41606389871">
		<tag k="name" v="Melåsen" />
		<tag k="place" v="farm" />
		<tag k="ssr:stedsnr" v="822479" />
	</node>
	<node id="-832850" lat="63.5652583376" lon="9.51437221516">
		<tag k="name" v="Terningan" />
		<tag k="place" v="neighbourhood" />
		<tag k="ssr:stedsnr" v="525133" />
	</node>
	<node id="-832846" lat="63.3856850845" lon="9.43306305869">
		<tag k="alt_name" v="Breidvik;Breidvika" />
		<tag k="fixme" v="consider place=hamlet" />
		<tag k="name" v="Breivika" />
		<tag k="place" v="farm" />
		<tag k="ssr:stedsnr" v="13840" />
	</node>
	<node id="-830796" lat="63.4980472217" lon="9.12390555972">
		<tag k="name" v="Vorpbukta" />
		<tag k="place" v="quarter" />
		<tag k="ssr:stedsnr" v="889137" />
	</node>
	<node id="-832843" lat="63.4974888915" lon="9.11374165704">
		<tag k="name" v="Hagen" />
		<tag k="place" v="quarter" />
		<tag k="ssr:stedsnr" v="100125" />
	</node>
	<node id="-830794" lat="63.5302166663" lon="9.4284805508">
		<tag k="name" v="Skjevik" />
		<tag k="place" v="farm" />
		<tag k="ssr:stedsnr" v="741201" />
	</node>
	<node id="-832838" lat="63.4007187406" lon="9.50548720542">
		<tag k="fixme" v="consider place=hamlet" />
		<tag k="name" v="Å" />
		<tag k="place" v="farm" />
		<tag k="ssr:stedsnr" v="89472" />
	</node>
	<node id="-832834" lat="63.4884305557" lon="9.48457777181">
		<tag k="alt_name" v="Sommervoll" />
		<tag k="name" v="Sommarvollen" />
		<tag k="place" v="farm" />
		<tag k="ssr:stedsnr" v="801859" />
	</node>
	<node id="-832833" lat="63.3060555566" lon="9.44727499585">
		<tag k="alt_name" v="Slættet" />
		<tag k="historic" v="shieling" />
		<tag k="name" v="Slettet" />
		<tag k="place" v="locality" />
		<tag k="ssr:stedsnr" v="863216" />
	</node>
	<node id="-832832" lat="63.4213333301" lon="9.23518888742">
		<tag k="name" v="Oppstøa" />
		<tag k="place" v="farm" />
		<tag k="ssr:stedsnr" v="619817" />
	</node>
	<node id="-832830" lat="63.4661083295" lon="9.45194444152">
		<tag k="name" v="Ytter Storvika" />
		<tag k="place" v="isolated_dwelling" />
		<tag k="ssr:stedsnr" v="397508" />
	</node>
	<node id="-832825" lat="63.3602083334" lon="9.3139083313">
		<tag k="name" v="Selnes" />
		<tag k="place" v="farm" />
		<tag k="ssr:stedsnr" v="275982" />
	</node>
	<node id="-832821" lat="63.5443638933" lon="9.40641943828">
		<tag k="fixme" v="consider place=hamlet" />
		<tag k="name" v="Åsøya" />
		<tag k="place" v="farm" />
		<tag k="ssr:stedsnr" v="336706" />
	</node>
	<node id="-830771" lat="63.5109805592" lon="9.23844165767">
		<tag k="name" v="Aunvika" />
		<tag k="place" v="farm" />
		<tag k="ssr:stedsnr" v="517208" />
	</node>
	<node id="-833075" lat="63.4435444424" lon="9.46381111169">
		<tag k="alt_name" v="Litlbulisetra" />
		<tag k="historic" v="shieling" />
		<tag k="name" v="Litlebulia" />
		<tag k="place" v="locality" />
		<tag k="ssr:stedsnr" v="376830" />
	</node>
	<node id="-832811" lat="63.4936722211" lon="9.2700472212">
		<tag k="name" v="Vestre Valslag" />
		<tag k="place" v="farm" />
		<tag k="ssr:stedsnr" v="104683" />
	</node>
	<node id="-832800" lat="63.3983722206" lon="9.501252781">
		<tag k="leisure" v="pitch" />
		<tag k="name" v="Krokstadøra fotballbane" />
		<tag k="ssr:stedsnr" v="241532" />
	</node>
	<node id="-831023" lat="63.5189255778" lon="9.38439367779">
		<tag k="fixme" v="consider place=hamlet" />
		<tag k="name" v="Halsen" />
		<tag k="place" v="farm" />
		<tag k="ssr:stedsnr" v="134190" />
	</node>
	<node id="-832788" lat="63.3753088539" lon="9.3714061152">
		<tag k="fixme" v="consider place=hamlet" />
		<tag k="name" v="Villvangan" />
		<tag k="place" v="farm" />
		<tag k="ssr:stedsnr" v="680862" />
	</node>
	<node id="-832785" lat="63.380940995" lon="9.36524387121">
		<tag k="historic" v="shieling" />
		<tag k="name" v="Villvangsetra" />
		<tag k="place" v="locality" />
		<tag k="ssr:stedsnr" v="740824" />
	</node>
	<node id="-832783" lat="63.3483444452" lon="9.25503610895">
		<tag k="alt_name" v="Forren" />
		<tag k="fixme" v="consider place=hamlet" />
		<tag k="name" v="Forra" />
		<tag k="place" v="farm" />
		<tag k="ssr:stedsnr" v="195172" />
	</node>
	<node id="-832774" lat="63.4124444451" lon="9.35420834209">
		<tag k="name" v="Kvernstadlia" />
		<tag k="place" v="isolated_dwelling" />
		<tag k="ssr:stedsnr" v="923782" />
	</node>
	<node id="-832773" lat="63.5354121164" lon="9.44196177647">
		<tag k="fixme" v="consider place=hamlet" />
		<tag k="name" v="Ramvika" />
		<tag k="place" v="farm" />
		<tag k="ssr:stedsnr" v="438145" />
	</node>
	<node id="-832757" lat="63.4273777751" lon="9.52137499471">
		<tag k="name" v="Midgarden" />
		<tag k="place" v="isolated_dwelling" />
		<tag k="ssr:stedsnr" v="922733" />
	</node>
	<node id="-832756" lat="63.3962361093" lon="9.50651943478">
		<tag k="amenity" v="nursing_home" />
		<tag k="name" v="Snillfjord omsorgssenter" />
		<tag k="ssr:stedsnr" v="241527" />
	</node>
	<node id="-832751" lat="63.5277251272" lon="9.32405758572">
		<tag k="fixme" v="consider place=hamlet" />
		<tag k="name" v="Våberget" />
		<tag k="place" v="farm" />
		<tag k="ssr:stedsnr" v="195165" />
	</node>
	<node id="-831015" lat="63.3282055519" lon="9.30776943607">
		<tag k="alt_name" v="Myrsetra" />
		<tag k="historic" v="shieling" />
		<tag k="name" v="Myrsætra" />
		<tag k="place" v="locality" />
		<tag k="ssr:stedsnr" v="134186" />
	</node>
	<node id="-832737" lat="63.4604750001" lon="9.18454166987">
		<tag k="name" v="Rottemstrøa" />
		<tag k="place" v="farm" />
		<tag k="ssr:stedsnr" v="228697" />
	</node>
	<node id="-832732" lat="63.5564997541" lon="9.39485987763">
		<tag k="name" v="Bakken" />
		<tag k="place" v="farm" />
		<tag k="ssr:stedsnr" v="215240" />
	</node>
	<node id="-832730" lat="63.4231027817" lon="9.23472500062">
		<tag k="alt_name" v="Flesvik" />
		<tag k="name" v="Nesstrøa" />
		<tag k="place" v="farm" />
		<tag k="ssr:stedsnr" v="680836" />
	</node>
	<node id="-832718" lat="63.4917249984" lon="9.13020000602">
		<tag k="name" v="Austre Hamnabukta" />
		<tag k="place" v="farm" />
		<tag k="ssr:stedsnr" v="700455" />
	</node>
	<node id="-832707" lat="63.4164469102" lon="9.26707388021">
		<tag k="alt_name" v="Heggstadsetra" />
		<tag k="fixme" v="consider place=hamlet" />
		<tag k="name" v="Heggstadsætra" />
		<tag k="place" v="farm" />
		<tag k="ssr:stedsnr" v="376803" />
	</node>
	<node id="-832706" lat="63.3787722241" lon="9.27870832611">
		<tag k="name" v="Hopen" />
		<tag k="place" v="farm" />
		<tag k="ssr:stedsnr" v="822882" />
	</node>
	<node id="-832705" lat="63.402686108" lon="9.67265277381">
		<tag k="name" v="Ausetøya" />
		<tag k="place" v="isolated_dwelling" />
		<tag k="ssr:stedsnr" v="801830" />
	</node>
	<node id="-832699" lat="63.3854027794" lon="9.43912777811">
		<tag k="name" v="Plassen" />
		<tag k="place" v="locality" />
		<tag k="ssr:stedsnr" v="397497" />
	</node>
	<node id="-832696" lat="63.4692270334" lon="9.42628305055">
		<tag k="fixme" v="consider place=hamlet" />
		<tag k="name" v="Mjønes" />
		<tag k="place" v="farm" />
		<tag k="ssr:stedsnr" v="922983" />
	</node>
	<node id="-831347" lat="63.551149996" lon="9.37398610372">
		<tag k="name" v="Bakken" />
		<tag k="place" v="farm" />
		<tag k="ssr:stedsnr" v="700691" />
	</node>
	<node id="-832687" lat="63.3991222197" lon="9.50260833669">
		<tag k="amenity" v="school" />
		<tag k="name" v="Krokstadøra oppvekstsenter" />
		<tag k="ssr:stedsnr" v="285738" />
	</node>
	<node id="-832678" lat="63.507763885" lon="9.24363611973">
		<tag k="name" v="Stormyra" />
		<tag k="place" v="farm" />
		<tag k="ssr:stedsnr" v="559164" />
	</node>
	<node id="-832671" lat="63.3604294998" lon="9.37366514708">
		<tag k="fixme" v="consider place=hamlet" />
		<tag k="name" v="Åsen" />
		<tag k="place" v="farm" />
		<tag k="ssr:stedsnr" v="741860" />
	</node>
	<node id="-832668" lat="63.3513749994" lon="9.27618333726">
		<tag k="amenity" v="school" />
		<tag k="name" v="Ven skole" />
		<tag k="ssr:stedsnr" v="604565" />
	</node>
	<node id="-832658" lat="63.3209666664" lon="9.43473055096">
		<tag k="name" v="Seterøyan" />
		<tag k="place" v="hamlet" />
		<tag k="ssr:stedsnr" v="640268" />
	</node>
	<node id="-832657" lat="63.3606277767" lon="9.29784722862">
		<tag k="name" v="Moen" />
		<tag k="place" v="farm" />
		<tag k="ssr:stedsnr" v="215223" />
	</node>
	<node id="-832639" lat="63.4965805513" lon="9.27503332972">
		<tag k="leisure" v="pitch" />
		<tag k="name" v="Valslag fotballbane" />
		<tag k="ssr:stedsnr" v="604569" />
	</node>
	<node id="-832626" lat="63.4310818159" lon="9.47723960252">
		<tag k="alt_name" v="Fagerdalssetra" />
		<tag k="name" v="Fagerdalsætra" />
		<tag k="place" v="isolated_dwelling" />
		<tag k="ssr:stedsnr" v="376795" />
	</node>
	<node id="-832614" lat="63.3318500041" lon="9.22937778133">
		<tag k="name" v="Litlaunet" />
		<tag k="place" v="locality" />
		<tag k="ssr:stedsnr" v="276844" />
	</node>
	<node id="-832611" lat="63.3477592391" lon="9.41945794026">
		<tag k="alt_name" v="Vuttudal" />
		<tag k="name" v="Jåstu" />
		<tag k="place" v="farm" />
		<tag k="ssr:stedsnr" v="182276" />
	</node>
	<node id="-832607" lat="63.330961115" lon="9.23086112022">
		<tag k="name" v="Fagervollen" />
		<tag k="place" v="farm" />
		<tag k="ssr:stedsnr" v="276842" />
	</node>
	<node id="-832606" lat="63.4904416665" lon="9.16202500677">
		<tag k="name" v="Malnes" />
		<tag k="place" v="farm" />
		<tag k="ssr:stedsnr" v="409249" />
	</node>
	<node id="-832585" lat="63.3581055576" lon="9.30564444922">
		<tag k="name" v="Myra" />
		<tag k="place" v="farm" />
		<tag k="ssr:stedsnr" v="457983" />
	</node>
	<node id="-832578" lat="63.4487416628" lon="9.35436667087">
		<tag k="alt_name" v="Kvennstadaunet" />
		<tag k="loc_name" v="Aunet" />
		<tag k="name" v="Kvernstadaunet" />
		<tag k="place" v="farm" />
		<tag k="ssr:stedsnr" v="740786" />
	</node>
	<node id="-832570" lat="63.3379472256" lon="9.22020833533">
		<tag k="name" v="Vestre Berdal" />
		<tag k="place" v="neighbourhood" />
		<tag k="ssr:stedsnr" v="723102" />
	</node>
	<node id="-832565" lat="63.500583332" lon="9.18564444722">
		<tag k="name" v="Raudvika" />
		<tag k="place" v="hamlet" />
		<tag k="ssr:stedsnr" v="154292" />
	</node>
	<node id="-832550" lat="63.3312611123" lon="9.23619444151">
		<tag k="name" v="Naustvollen" />
		<tag k="place" v="farm" />
		<tag k="ssr:stedsnr" v="640223" />
	</node>
	<node id="-832546" lat="63.3975226457" lon="9.56021279862">
		<tag k="fixme" v="consider place=hamlet" />
		<tag k="name" v="Snilldalsli" />
		<tag k="place" v="farm" />
		<tag k="ssr:stedsnr" v="73857" />
	</node>
	<node id="-832539" lat="63.3233083331" lon="9.24630278096">
		<tag k="name" v="Ramberget" />
		<tag k="place" v="farm" />
		<tag k="ssr:stedsnr" v="822860" />
	</node>
	<node id="-832533" lat="63.3603416663" lon="9.29298055461">
		<tag k="name" v="Berget" />
		<tag k="place" v="farm" />
		<tag k="ssr:stedsnr" v="195149" />
	</node>
	<node id="-832527" lat="63.3529194434" lon="9.28423054904">
		<tag k="name" v="Vollasanden" />
		<tag k="place" v="farm" />
		<tag k="ssr:stedsnr" v="74129" />
	</node>
	<node id="-832513" lat="63.4629916683" lon="9.33952778425">
		<tag k="name" v="Stålvika" />
		<tag k="place" v="neighbourhood" />
		<tag k="ssr:stedsnr" v="966090" />
	</node>
	<node id="-832509" lat="63.4017194466" lon="9.23703056154">
		<tag k="name" v="Øytun" />
		<tag k="place" v="farm" />
		<tag k="ssr:stedsnr" v="73852" />
	</node>
	<node id="-832505" lat="63.3457277752" lon="9.25812777755">
		<tag k="alt_name" v="Forren" />
		<tag k="name" v="Forra" />
		<tag k="place" v="farm" />
		<tag k="ssr:stedsnr" v="195142" />
	</node>
	<node id="-832502" lat="63.3637694439" lon="9.38127222268">
		<tag k="name" v="Heimtun" />
		<tag k="place" v="farm" />
		<tag k="ssr:stedsnr" v="944306" />
	</node>
	<node id="-832498" lat="63.4222416643" lon="9.23345556146">
		<tag k="alt_name" v="Flesvik" />
		<tag k="name" v="Sæterstøa" />
		<tag k="place" v="farm" />
		<tag k="ssr:stedsnr" v="680826" />
	</node>
	<node id="-832494" lat="63.3998972252" lon="9.52543333042">
		<tag k="name" v="Moholt" />
		<tag k="place" v="farm" />
		<tag k="ssr:stedsnr" v="558889" />
	</node>
	<node id="-832477" lat="63.4037861113" lon="9.52533055211">
		<tag k="alt_name" v="Ålia" />
		<tag k="name" v="Åli" />
		<tag k="place" v="farm" />
		<tag k="ssr:stedsnr" v="558892" />
	</node>
	<node id="-832469" lat="63.4969999963" lon="9.18229443874">
		<tag k="name" v="Urda" />
		<tag k="place" v="farm" />
		<tag k="ssr:stedsnr" v="761247" />
	</node>
	<node id="-832437" lat="63.5656192037" lon="9.49062049399">
		<tag k="name" v="Seterneset" />
		<tag k="place" v="farm" />
		<tag k="ssr:stedsnr" v="585008" />
	</node>
	<node id="-832411" lat="63.3380027748" lon="9.24354999238">
		<tag k="name" v="Vikan" />
		<tag k="place" v="farm" />
		<tag k="ssr:stedsnr" v="822840" />
	</node>
	<node id="-832401" lat="63.4620231787" lon="9.19179736814">
		<tag k="alt_name" v="Østre Rottem" />
		<tag k="name" v="Rottem" />
		<tag k="place" v="farm" />
		<tag k="ssr:stedsnr" v="761214" />
	</node>
	<node id="-832399" lat="63.5163443533" lon="9.28189122483">
		<tag k="fixme" v="consider place=hamlet" />
		<tag k="name" v="Vingan" />
		<tag k="place" v="farm" />
		<tag k="ssr:stedsnr" v="863158" />
	</node>
	<node id="-832383" lat="63.4189611146" lon="9.54744721504">
		<tag k="name" v="Berg" />
		<tag k="place" v="farm" />
		<tag k="ssr:stedsnr" v="215168" />
	</node>
	<node id="-832381" lat="63.5183929384" lon="9.24482335887">
		<tag k="alt_name" v="Halten" />
		<tag k="fixme" v="consider place=hamlet" />
		<tag k="name" v="Hatten" />
		<tag k="place" v="farm" />
		<tag k="ssr:stedsnr" v="863157" />
	</node>
	<node id="-833244" lat="63.4641250029" lon="9.3813305463">
		<tag k="alt_name" v="Trollvik" />
		<tag k="name" v="Tollvika" />
		<tag k="place" v="locality" />
		<tag k="ssr:stedsnr" v="194951" />
	</node>
	<node id="-832364" lat="63.5617774109" lon="9.48464536806">
		<tag k="fixme" v="consider place=hamlet" />
		<tag k="name" v="Abelvika" />
		<tag k="place" v="farm" />
		<tag k="ssr:stedsnr" v="498136" />
	</node>
	<node id="-832363" lat="63.3358138911" lon="9.31003056382">
		<tag k="name" v="Kleivan" />
		<tag k="place" v="farm" />
		<tag k="ssr:stedsnr" v="639754" />
	</node>
	<node id="-832361" lat="63.5196055564" lon="9.28627221232">
		<tag k="name" v="Vingan" />
		<tag k="place" v="farm" />
		<tag k="ssr:stedsnr" v="45854" />
	</node>
	<node id="-832356" lat="63.458744449" lon="9.19381666606">
		<tag k="name" v="Skagadalen" />
		<tag k="place" v="isolated_dwelling" />
		<tag k="ssr:stedsnr" v="578166" />
	</node>
	<node id="-832353" lat="63.5007459629" lon="9.40777195466">
		<tag k="fixme" v="consider place=hamlet" />
		<tag k="name" v="Elva" />
		<tag k="place" v="farm" />
		<tag k="ssr:stedsnr" v="863172" />
	</node>
	<node id="-832343" lat="63.346022224" lon="9.42923610726">
		<tag k="alt_name" v="Vuttudal" />
		<tag k="name" v="Oppstu" />
		<tag k="place" v="farm" />
		<tag k="ssr:stedsnr" v="970440" />
	</node>
	<node id="-832337" lat="63.421288035" lon="9.23308919848">
		<tag k="fixme" v="consider place=hamlet" />
		<tag k="name" v="Flesvik" />
		<tag k="place" v="farm" />
		<tag k="ssr:stedsnr" v="971107" />
	</node>
	<node id="-830946" lat="63.3688750027" lon="9.5787027805">
		<tag k="name" v="Kjølen" />
		<tag k="place" v="farm" />
		<tag k="ssr:stedsnr" v="923839" />
	</node>
	<node id="-832329" lat="63.4192320997" lon="9.61735230972">
		<tag k="fixme" v="consider place=hamlet" />
		<tag k="name" v="Berg" />
		<tag k="place" v="farm" />
		<tag k="ssr:stedsnr" v="971106" />
	</node>
	<node id="-832325" lat="63.4052444435" lon="9.19538333007">
		<tag k="historic" v="shieling" />
		<tag k="name" v="Stokkasetra" />
		<tag k="place" v="locality" />
		<tag k="ssr:stedsnr" v="154245" />
	</node>
	<node id="-832316" lat="63.4235732335" lon="9.23454864903">
		<tag k="alt_name" v="Flesvikøra" />
		<tag k="name" v="Flesvik" />
		<tag k="place" v="farm" />
		<tag k="ssr:stedsnr" v="740778" />
	</node>
	<node id="-832315" lat="63.417430557" lon="9.5284249929">
		<tag k="name" v="Hesthaugen" />
		<tag k="place" v="farm" />
		<tag k="ssr:stedsnr" v="255778" />
	</node>
	<node id="-832301" lat="63.3460444423" lon="9.42799722768">
		<tag k="alt_name" v="Vuttudal" />
		<tag k="name" v="Nestu" />
		<tag k="place" v="farm" />
		<tag k="ssr:stedsnr" v="970443" />
	</node>
	<node id="-832297" lat="63.4058694425" lon="9.24224722046">
		<tag k="name" v="Asphaugen" />
		<tag k="place" v="farm" />
		<tag k="ssr:stedsnr" v="336174" />
	</node>
	<node id="-832288" lat="63.3466583313" lon="9.42730555457">
		<tag k="alt_name" v="Vuttudal" />
		<tag k="name" v="Nystu" />
		<tag k="place" v="farm" />
		<tag k="ssr:stedsnr" v="970442" />
	</node>
	<node id="-832267" lat="63.5139027745" lon="9.29578055472">
		<tag k="name" v="Vingvågen" />
		<tag k="place" v="neighbourhood" />
		<tag k="ssr:stedsnr" v="950149" />
	</node>
	<node id="-832254" lat="63.4005442263" lon="9.4918171544">
		<tag k="alt_name" v="Øraaunet" />
		<tag k="name" v="Øraunet" />
		<tag k="place" v="farm" />
		<tag k="ssr:stedsnr" v="497862" />
	</node>
	<node id="-832250" lat="63.4593555544" lon="9.19343333445">
		<tag k="name" v="Skagadalen" />
		<tag k="place" v="isolated_dwelling" />
		<tag k="ssr:stedsnr" v="93165" />
	</node>
	<node id="-832243" lat="63.4569916708" lon="9.49223888278">
		<tag k="name" v="Bakkan" />
		<tag k="place" v="farm" />
		<tag k="ssr:stedsnr" v="457086" />
	</node>
	<node id="-832239" lat="63.570636109" lon="9.49151389378">
		<tag k="name" v="Seterneset" />
		<tag k="place" v="neighbourhood" />
		<tag k="ssr:stedsnr" v="404117" />
	</node>
	<node id="-832238" lat="63.5599972201" lon="9.47395832496">
		<tag k="name" v="Moldtun" />
		<tag k="place" v="neighbourhood" />
		<tag k="ssr:stedsnr" v="404118" />
	</node>
	<node id="-832230" lat="63.3967916662" lon="9.23494444091">
		<tag k="name" v="Storøya" />
		<tag k="place" v="farm" />
		<tag k="ssr:stedsnr" v="154232" />
	</node>
	<node id="-832229" lat="63.3588472212" lon="9.2902472207">
		<tag k="alt_name" v="Myran" />
		<tag k="name" v="Myrvoll" />
		<tag k="place" v="farm" />
		<tag k="ssr:stedsnr" v="559129" />
	</node>
	<node id="-832228" lat="63.501036115" lon="9.1597750014">
		<tag k="name" v="Skogsøya" />
		<tag k="place" v="hamlet" />
		<tag k="ssr:stedsnr" v="518208" />
	</node>
	<node id="-832219" lat="63.4123568574" lon="9.64960841451">
		<tag k="historic" v="shieling" />
		<tag k="name" v="Ausetsætra" />
		<tag k="place" v="locality" />
		<tag k="ssr:stedsnr" v="862873" />
	</node>
	<node id="-832217" lat="63.3877027786" lon="9.23808611888">
		<tag k="name" v="Unnlendet" />
		<tag k="place" v="farm" />
		<tag k="ssr:stedsnr" v="154223" />
	</node>
	<node id="-832197" lat="63.3689527805" lon="9.40464166445">
		<tag k="alt_name" v="Sandmoen" />
		<tag k="name" v="Sandmo" />
		<tag k="place" v="farm" />
		<tag k="ssr:stedsnr" v="134837" />
	</node>
	<node id="-832194" lat="63.524676506" lon="9.41425582161">
		<tag k="fixme" v="consider place=hamlet" />
		<tag k="name" v="Rønneset" />
		<tag k="place" v="farm" />
		<tag k="ssr:stedsnr" v="619195" />
	</node>
	<node id="-832192" lat="63.4591888923" lon="9.28659999093">
		<tag k="amenity" v="school" />
		<tag k="name" v="Vågan skule" />
		<tag k="ssr:stedsnr" v="33657" />
	</node>
	<node id="-832190" lat="63.4966138916" lon="9.15032778231">
		<tag k="name" v="Nordbukta" />
		<tag k="place" v="farm" />
		<tag k="ssr:stedsnr" v="33204" />
	</node>
	<node id="-832183" lat="63.3310722182" lon="9.23628610818">
		<tag k="name" v="Berdalssjøen" />
		<tag k="place" v="farm" />
		<tag k="ssr:stedsnr" v="822822" />
	</node>
	<node id="-832177" lat="63.4336083332" lon="9.45567500446">
		<tag k="alt_name" v="Gammelsetra" />
		<tag k="historic" v="shieling" />
		<tag k="name" v="Gammalsætra" />
		<tag k="place" v="locality" />
		<tag k="ssr:stedsnr" v="133768" />
	</node>
	<node id="-832176" lat="63.3993250004" lon="9.23692221484">
		<tag k="name" v="Fjøsvollen" />
		<tag k="place" v="farm" />
		<tag k="ssr:stedsnr" v="761203" />
	</node>
	<node id="-832174" lat="63.4968361112" lon="9.14034999765">
		<tag k="name" v="Hemnskjelgården" />
		<tag k="place" v="farm" />
		<tag k="ssr:stedsnr" v="58807" />
	</node>
	<node id="-832170" lat="63.3861638898" lon="9.3406416589">
		<tag k="name" v="Grønlia" />
		<tag k="place" v="isolated_dwelling" />
		<tag k="ssr:stedsnr" v="437815" />
	</node>
	<node id="-832169" lat="63.3750451146" lon="9.33132211113">
		<tag k="alt_name" v="Klungervik indre;Sanden" />
		<tag k="fixme" v="consider place=hamlet" />
		<tag k="name" v="Klungervik" />
		<tag k="place" v="farm" />
		<tag k="ssr:stedsnr" v="134834" />
	</node>
	<node id="-832168" lat="63.4675666664" lon="9.28021944877">
		<tag k="name" v="Sjøplassen" />
		<tag k="place" v="farm" />
		<tag k="ssr:stedsnr" v="761199" />
	</node>
	<node id="-832166" lat="63.5599916668" lon="9.50671666549">
		<tag k="name" v="Øyan" />
		<tag k="place" v="farm" />
		<tag k="ssr:stedsnr" v="275016" />
	</node>
	<node id="-832160" lat="63.4997739642" lon="9.41068898478">
		<tag k="fixme" v="consider place=hamlet" />
		<tag k="name" v="Feneset" />
		<tag k="place" v="farm" />
		<tag k="ssr:stedsnr" v="619207" />
	</node>
	<node id="-832150" lat="63.4577416697" lon="9.2251777684">
		<tag k="name" v="Rottemsaunet" />
		<tag k="place" v="farm" />
		<tag k="ssr:stedsnr" v="336146" />
	</node>
	<node id="-832142" lat="63.3738888932" lon="9.51378611311">
		<tag k="alt_name" v="Aunsetra" />
		<tag k="historic" v="shieling" />
		<tag k="name" v="Aunsætra" />
		<tag k="place" v="locality" />
		<tag k="ssr:stedsnr" v="134828" />
	</node>
	<node id="-832141" lat="63.3501159777" lon="9.28067604056">
		<tag k="alt_name" v="Venn" />
		<tag k="fixme" v="consider place=hamlet" />
		<tag k="name" v="Venna" />
		<tag k="place" v="farm" />
		<tag k="ssr:stedsnr" v="863148" />
	</node>
	<node id="-831255" lat="63.506630555" lon="9.50151110908">
		<tag k="name" v="Lilleaker" />
		<tag k="place" v="isolated_dwelling" />
		<tag k="ssr:stedsnr" v="761010" />
	</node>
	<node id="-832108" lat="63.5150609632" lon="9.30013556776">
		<tag k="name" v="Fossheim" />
		<tag k="place" v="farm" />
		<tag k="ssr:stedsnr" v="979927" />
	</node>
	<node id="-832080" lat="63.4332310092" lon="9.21492691252">
		<tag k="fixme" v="consider place=hamlet" />
		<tag k="name" v="Kråkneset" />
		<tag k="place" v="farm" />
		<tag k="ssr:stedsnr" v="559378" />
	</node>
	<node id="-831017" lat="63.3561194467" lon="9.28941944231">
		<tag k="name" v="Vollen" />
		<tag k="place" v="farm" />
		<tag k="ssr:stedsnr" v="741168" />
	</node>
	<node id="-832076" lat="63.5328527769" lon="9.39107500546">
		<tag k="name" v="Kvernavika" />
		<tag k="place" v="isolated_dwelling" />
		<tag k="ssr:stedsnr" v="619180" />
	</node>
	<node id="-832075" lat="63.3294388884" lon="9.2498666725">
		<tag k="name" v="Eshaugen" />
		<tag k="place" v="isolated_dwelling" />
		<tag k="ssr:stedsnr" v="397817" />
	</node>
	<node id="-832060" lat="63.3368583377" lon="9.2426083402">
		<tag k="name" v="Oterhaugen" />
		<tag k="place" v="farm" />
		<tag k="ssr:stedsnr" v="397827" />
	</node>
	<node id="-832049" lat="63.3769020431" lon="9.31987944855">
		<tag k="alt_name" v="Klungervik" />
		<tag k="fixme" v="consider place=hamlet" />
		<tag k="name" v="Klungervik ytre" />
		<tag k="place" v="farm" />
		<tag k="ssr:stedsnr" v="44974" />
	</node>
	<node id="-830898" lat="63.4989611084" lon="9.41457221805">
		<tag k="alt_name" v="Feneset" />
		<tag k="name" v="Myra" />
		<tag k="place" v="farm" />
		<tag k="ssr:stedsnr" v="740891" />
	</node>
	<node id="-832036" lat="63.3589777752" lon="9.30567777762">
		<tag k="name" v="Myra" />
		<tag k="place" v="farm" />
		<tag k="ssr:stedsnr" v="923168" />
	</node>
	<node id="-832034" lat="63.3524874631" lon="9.29021619551">
		<tag k="fixme" v="consider place=hamlet" />
		<tag k="name" v="Vollen" />
		<tag k="place" v="farm" />
		<tag k="ssr:stedsnr" v="559117" />
	</node>
	<node id="-832024" lat="63.4360083365" lon="9.27888610952">
		<tag k="name" v="Skogvoll" />
		<tag k="place" v="farm" />
		<tag k="ssr:stedsnr" v="518161" />
	</node>
	<node id="-832022" lat="63.5186907884" lon="9.41927529486">
		<tag k="fixme" v="consider place=hamlet" />
		<tag k="name" v="Ramsvika" />
		<tag k="place" v="farm" />
		<tag k="ssr:stedsnr" v="619193" />
	</node>
	<node id="-832012" lat="63.3909083317" lon="9.42536389295">
		<tag k="historic" v="shieling" />
		<tag k="name" v="Breiviksetra" />
		<tag k="place" v="locality" />
		<tag k="ssr:stedsnr" v="275428" />
	</node>
	<node id="-832000" lat="63.4746158524" lon="9.34605131593">
		<tag k="fixme" v="consider place=hamlet" />
		<tag k="name" v="Bustlia" />
		<tag k="place" v="farm" />
		<tag k="ssr:stedsnr" v="376987" />
	</node>
	<node id="-831988" lat="63.3850944431" lon="9.59472499933">
		<tag k="name" v="Snilldalssæter" />
		<tag k="place" v="locality" />
		<tag k="ssr:stedsnr" v="344725" />
	</node>
	<node id="-831987" lat="63.4981777795" lon="9.12396389084">
		<tag k="name" v="Vorpbukta" />
		<tag k="place" v="farm" />
		<tag k="ssr:stedsnr" v="12423" />
	</node>
	<node id="-831952" lat="63.3996000018" lon="9.49927499477">
		<tag k="name" v="Ågjerdet" />
		<tag k="place" v="farm" />
		<tag k="ssr:stedsnr" v="33156" />
	</node>
	<node id="-831951" lat="63.5010000025" lon="9.254594437">
		<tag k="name" v="Pervika" />
		<tag k="place" v="farm" />
		<tag k="ssr:stedsnr" v="944179" />
	</node>
	<node id="-831949" lat="63.3993833374" lon="9.49994999724">
		<tag k="amenity" v="kindergarten" />
		<tag k="name" v="Krokstadøra barnehage" />
		<tag k="ssr:stedsnr" v="665603" />
	</node>
	<node id="-831940" lat="63.3997053191" lon="9.50178487079">
		<tag k="amenity" v="townhall" />
		<tag k="name" v="Snillfjord rådhus" />
		<tag k="ssr:stedsnr" v="161699" />
	</node>
	<node id="-831925" lat="63.3482888884" lon="9.27539444282">
		<tag k="name" v="Øvereinan" />
		<tag k="place" v="farm" />
		<tag k="ssr:stedsnr" v="165986" />
	</node>
	<node id="-831924" lat="63.3638138929" lon="9.57623334222">
		<tag k="name" v="Setra" />
		<tag k="place" v="isolated_dwelling" />
		<tag k="ssr:stedsnr" v="578101" />
	</node>
	<node id="-831903" lat="63.4596305547" lon="9.42776666234">
		<tag k="fixme" v="multiple name tags, choose one and add the other to alt_name" />
		<tag k="name" v="Nygard;Skogan" />
		<tag k="place" v="farm" />
		<tag k="ssr:stedsnr" v="619977" />
	</node>
	<node id="-831902" lat="63.4588277763" lon="9.2306388798">
		<tag k="name" v="Rønningan" />
		<tag k="place" v="farm" />
		<tag k="ssr:stedsnr" v="518151" />
	</node>
	<node id="-831894" lat="63.5004916624" lon="9.16344722805">
		<tag k="fixme" v="consider place=hamlet" />
		<tag k="name" v="Hemnskjela" />
		<tag k="place" v="village" />
		<tag k="ssr:stedsnr" v="802006" />
	</node>
	<node id="-831875" lat="63.3872268918" lon="9.24187193842">
		<tag k="fixme" v="consider place=hamlet" />
		<tag k="name" v="Tannvik" />
		<tag k="place" v="farm" />
		<tag k="ssr:stedsnr" v="498854" />
	</node>
	<node id="-831871" lat="63.4506138933" lon="9.14936389346">
		<tag k="alt_name" v="Aunet" />
		<tag k="name" v="Kammen" />
		<tag k="place" v="farm" />
		<tag k="ssr:stedsnr" v="863383" />
	</node>
	<node id="-831852" lat="63.3552638847" lon="9.29199443884">
		<tag k="name" v="Vollahaugen" />
		<tag k="place" v="farm" />
		<tag k="ssr:stedsnr" v="93963" />
	</node>
	<node id="-831828" lat="63.4426444438" lon="9.29821944333">
		<tag k="name" v="Fættaholmen" />
		<tag k="place" v="farm" />
		<tag k="ssr:stedsnr" v="457875" />
	</node>
	<node id="-831808" lat="63.4665194459" lon="9.26688056121">
		<tag k="name" v="Haugen" />
		<tag k="place" v="farm" />
		<tag k="ssr:stedsnr" v="619984" />
	</node>
	<node id="-830858" lat="63.4165555582" lon="9.55031943992">
		<tag k="name" v="Nervollen" />
		<tag k="place" v="farm" />
		<tag k="ssr:stedsnr" v="862757" />
	</node>
	<node id="-831794" lat="63.3944766634" lon="9.19511012744">
		<tag k="fixme" v="consider place=hamlet" />
		<tag k="name" v="Snigeldal" />
		<tag k="place" v="farm" />
		<tag k="ssr:stedsnr" v="578067" />
	</node>
	<node id="-830856" lat="63.4552553918" lon="9.32596393322">
		<tag k="alt_name" v="Stolpnessetra" />
		<tag k="fixme" v="consider place=hamlet" />
		<tag k="name" v="Stolpnessætra" />
		<tag k="place" v="farm" />
		<tag k="ssr:stedsnr" v="437948" />
	</node>
	<node id="-831783" lat="63.371559608" lon="9.24887425504">
		<tag k="fixme" v="consider place=hamlet" />
		<tag k="name" v="Hafsmo" />
		<tag k="place" v="farm" />
		<tag k="ssr:stedsnr" v="195842" />
	</node>
	<node id="-831777" lat="63.3488472218" lon="9.25659166782">
		<tag k="name" v="Forraneset" />
		<tag k="place" v="farm" />
		<tag k="ssr:stedsnr" v="701172" />
	</node>
	<node id="-831765" lat="63.4676972221" lon="9.41703334033">
		<tag k="name" v="Mjønestrøa" />
		<tag k="place" v="farm" />
		<tag k="ssr:stedsnr" v="740959" />
	</node>
	<node id="-831762" lat="63.3905638879" lon="9.23465000746">
		<tag k="name" v="Aunet" />
		<tag k="place" v="farm" />
		<tag k="ssr:stedsnr" v="639199" />
	</node>
	<node id="-831760" lat="63.4963500015" lon="9.27366387902">
		<tag k="name" v="Østre Valslag" />
		<tag k="place" v="farm" />
		<tag k="ssr:stedsnr" v="822286" />
	</node>
	<node id="-831759" lat="63.461424538" lon="9.18380698157">
		<tag k="alt_name" v="Vestre Rottem" />
		<tag k="name" v="Rottem" />
		<tag k="place" v="farm" />
		<tag k="ssr:stedsnr" v="657865" />
	</node>
	<node id="-831746" lat="63.3470138895" lon="9.4251944474">
		<tag k="alt_name" v="Vuttudal" />
		<tag k="name" v="Stølan" />
		<tag k="place" v="farm" />
		<tag k="ssr:stedsnr" v="667291" />
	</node>
	<node id="-831743" lat="63.4205027804" lon="9.20379445285">
		<tag k="historic" v="shieling" />
		<tag k="name" v="Stokkaunsetra" />
		<tag k="place" v="locality" />
		<tag k="ssr:stedsnr" v="336059" />
	</node>
	<node id="-831737" lat="63.4624756543" lon="9.1850497268">
		<tag k="fixme" v="consider place=hamlet" />
		<tag k="name" v="Rottem" />
		<tag k="place" v="farm" />
		<tag k="ssr:stedsnr" v="134529" />
	</node>
	<node id="-831736" lat="63.4245939773" lon="9.62456026913">
		<tag k="alt_name" v="Kleivsetra" />
		<tag k="historic" v="shieling" />
		<tag k="name" v="Kleivsætra" />
		<tag k="place" v="locality" />
		<tag k="ssr:stedsnr" v="558817" />
	</node>
	<node id="-831729" lat="63.4938833321" lon="9.13220278432">
		<tag k="amenity" v="kindergarten" />
		<tag k="name" v="Hemnskjela barnehage" />
		<tag k="ssr:stedsnr" v="119581" />
	</node>
	<node id="-831709" lat="63.4211580199" lon="9.2603049687">
		<tag k="name" v="Vassbukta" />
		<tag k="place" v="locality" />
		<tag k="ssr:stedsnr" v="558819" />
	</node>
	<node id="-831697" lat="63.5517020404" lon="9.39799614581">
		<tag k="name" v="Kongensvoll camping" />
		<tag k="ssr:stedsnr" v="423589" />
		<tag k="tourism" v="camp_site" />
	</node>
	<node id="-831692" lat="63.475038892" lon="9.45157778493">
		<tag k="name" v="Rotnes" />
		<tag k="place" v="farm" />
		<tag k="ssr:stedsnr" v="679978" />
	</node>
	<node id="-831369" lat="63.3484388916" lon="9.26670556233">
		<tag k="name" v="Vennatrøa" />
		<tag k="place" v="quarter" />
		<tag k="ssr:stedsnr" v="458217" />
	</node>
	<node id="-831672" lat="63.4691055587" lon="9.27509166961">
		<tag k="alt_name" v="Lian" />
		<tag k="name" v="Nordstua" />
		<tag k="place" v="farm" />
		<tag k="ssr:stedsnr" v="133983" />
	</node>
	<node id="-831657" lat="63.3583249958" lon="9.38205278724">
		<tag k="name" v="Vollan" />
		<tag k="place" v="isolated_dwelling" />
		<tag k="ssr:stedsnr" v="579359" />
	</node>
	<node id="-831656" lat="63.5006305558" lon="9.42231944656">
		<tag k="name" v="Strupen" />
		<tag k="place" v="farm" />
		<tag k="ssr:stedsnr" v="215043" />
	</node>
	<node id="-831653" lat="63.4538270943" lon="9.2789416519">
		<tag k="fixme" v="consider place=hamlet" />
		<tag k="name" v="Vågan" />
		<tag k="place" v="farm" />
		<tag k="ssr:stedsnr" v="619968" />
	</node>
	<node id="-831651" lat="63.3671083377" lon="9.58736944795">
		<tag k="name" v="Øybua" />
		<tag k="place" v="isolated_dwelling" />
		<tag k="ssr:stedsnr" v="154125" />
	</node>
	<node id="-831641" lat="63.3993916678" lon="9.51304166284">
		<tag k="building" v="commercial" />
		<tag k="name" v="Krokstadøra bensinstasjon" />
		<tag k="ssr:stedsnr" v="100686" />
	</node>
	<node id="-831640" lat="63.4636027743" lon="9.27278611158">
		<tag k="name" v="Myrvang" />
		<tag k="place" v="farm" />
		<tag k="ssr:stedsnr" v="740966" />
	</node>
	<node id="-831626" lat="63.3825833359" lon="9.31411944528">
		<tag k="historic" v="shieling" />
		<tag k="name" v="Klungerviksetra" />
		<tag k="place" v="locality" />
		<tag k="ssr:stedsnr" v="215971" />
	</node>
	<node id="-831622" lat="63.4476638898" lon="9.35769443731">
		<tag k="name" v="Kvennstadbukta" />
		<tag k="place" v="farm" />
		<tag k="ssr:stedsnr" v="106131" />
	</node>
	<node id="-831598" lat="63.4352138904" lon="9.28150555623">
		<tag k="name" v="Oksvika" />
		<tag k="place" v="isolated_dwelling" />
		<tag k="ssr:stedsnr" v="639173" />
	</node>
	<node id="-831595" lat="63.5186520595" lon="9.28433686887">
		<tag k="name" v="Vingan" />
		<tag k="place" v="farm" />
		<tag k="ssr:stedsnr" v="335200" />
	</node>
	<node id="-831592" lat="63.3992472239" lon="9.49526111235">
		<tag k="name" v="Krokstad" />
		<tag k="place" v="farm" />
		<tag k="ssr:stedsnr" v="944128" />
	</node>
	<node id="-831591" lat="63.4187527769" lon="9.54367223118">
		<tag k="name" v="Berg" />
		<tag k="place" v="farm" />
		<tag k="ssr:stedsnr" v="437752" />
	</node>
	<node id="-831587" lat="63.351977777" lon="9.27427222647">
		<tag k="name" v="Ven camping" />
		<tag k="ssr:stedsnr" v="119563" />
		<tag k="tourism" v="camp_site" />
	</node>
	<node id="-831576" lat="63.4909694472" lon="9.13018056431">
		<tag k="alt_name" v="Hamnebukta;Vestre Hamnabukta" />
		<tag k="name" v="Hamnabukta" />
		<tag k="place" v="farm" />
		<tag k="ssr:stedsnr" v="740434" />
	</node>
	<node id="-831569" lat="63.5017555561" lon="9.1874805617">
		<tag k="name" v="Raudvika" />
		<tag k="place" v="farm" />
		<tag k="ssr:stedsnr" v="834896" />
	</node>
	<node id="-831563" lat="63.4370631982" lon="9.26955487866">
		<tag k="fixme" v="consider place=hamlet" />
		<tag k="name" v="Heggstad" />
		<tag k="place" v="farm" />
		<tag k="ssr:stedsnr" v="497799" />
	</node>
	<node id="-831556" lat="63.366852781" lon="9.38241110747">
		<tag k="name" v="Skårilltrøa" />
		<tag k="place" v="farm" />
		<tag k="ssr:stedsnr" v="458262" />
	</node>
	<node id="-831554" lat="63.438408337" lon="9.27768333494">
		<tag k="alt_name" v="Båtvik" />
		<tag k="name" v="Båtvika" />
		<tag k="place" v="isolated_dwelling" />
		<tag k="ssr:stedsnr" v="497798" />
	</node>
	<node id="-831541" lat="63.5595777746" lon="9.46903333759">
		<tag k="fixme" v="multiple name tags, choose one and add the other to alt_name" />
		<tag k="name" v="Moldtun;Nørdre Moldtun" />
		<tag k="place" v="farm" />
		<tag k="ssr:stedsnr" v="578050" />
	</node>
	<node id="-831539" lat="63.434191665" lon="9.2361166676">
		<tag k="alt_name" v="Valstranda;Valastranda" />
		<tag k="name" v="Valsdalen" />
		<tag k="place" v="farm" />
		<tag k="ssr:stedsnr" v="497801" />
	</node>
	<node id="-831520" lat="63.3758170775" lon="9.32332719341">
		<tag k="name" v="Klungervik" />
		<tag k="place" v="hamlet" />
		<tag k="ssr:stedsnr" v="971078" />
	</node>
	<node id="-831508" lat="63.4496931564" lon="9.30284236682">
		<tag k="fixme" v="consider place=hamlet" />
		<tag k="name" v="Stolpnes" />
		<tag k="place" v="farm" />
		<tag k="ssr:stedsnr" v="740943" />
	</node>
	<node id="-831507" lat="63.3914722191" lon="9.2308055503">
		<tag k="amenity" v="school" />
		<tag k="name" v="Tannvik skule" />
		<tag k="ssr:stedsnr" v="276223" />
	</node>
	<node id="-831502" lat="63.4197000039" lon="9.5697305536">
		<tag k="name" v="Saghaugen" />
		<tag k="place" v="farm" />
		<tag k="ssr:stedsnr" v="437757" />
	</node>
</osm>
