<?xml version="1.0" encoding="UTF-8"?>
<osm generator="osmapis" version="0.6">
	<node id="-829440" lat="63.3033722202" lon="9.37828610749">
		<tag k="name" v="Tverrelva" />
		<tag k="ssr:stedsnr" v="195243" />
		<tag k="waterway" v="stream" />
	</node>
	<node id="-831486" lat="63.4978027803" lon="9.22208333903">
		<tag k="name" v="Køysvalen" />
		<tag k="natural" v="strait" />
		<tag k="ssr:stedsnr" v="821209" />
	</node>
	<node id="-831471" lat="63.4851916624" lon="9.55268332415">
		<tag k="name" v="Gammelsetertjørna" />
		<tag k="natural" v="water" />
		<tag k="ssr:stedsnr" v="639435" />
	</node>
	<node id="-829422" lat="63.3868361149" lon="9.37298055618">
		<tag k="alt_name" v="Setervatnet" />
		<tag k="name" v="Sætertjørna" />
		<tag k="natural" v="water" />
		<tag k="ssr:stedsnr" v="923849" />
	</node>
	<node id="-829421" lat="63.3907027809" lon="9.38037500608">
		<tag k="name" v="Midtertjørna" />
		<tag k="natural" v="water" />
		<tag k="ssr:stedsnr" v="316896" />
	</node>
	<node id="-831468" lat="63.494933336" lon="9.32783611377">
		<tag k="name" v="Øvre Vingvatnet" />
		<tag k="natural" v="water" />
		<tag k="ssr:stedsnr" v="801872" />
	</node>
	<node id="-829419" lat="63.4393111117" lon="9.30838056374">
		<tag k="name" v="Fættabekken" />
		<tag k="ssr:stedsnr" v="154890" />
		<tag k="waterway" v="stream" />
	</node>
	<node id="-829417" lat="63.3081666676" lon="9.52842500583">
		<tag k="name" v="Trollbekken" />
		<tag k="ssr:stedsnr" v="215827" />
		<tag k="waterway" v="stream" />
	</node>
	<node id="-831462" lat="63.5015972267" lon="9.50523056001">
		<tag k="name" v="Lauvvatnet" />
		<tag k="natural" v="water" />
		<tag k="ssr:stedsnr" v="195185" />
	</node>
	<node id="-831456" lat="63.3859277748" lon="9.42235555386">
		<tag k="name" v="Nessabekken" />
		<tag k="ssr:stedsnr" v="943470" />
		<tag k="waterway" v="stream" />
	</node>
	<node id="-829406" lat="63.4032111103" lon="9.44159444696">
		<tag k="name" v="Bekkakroktjørna" />
		<tag k="natural" v="water" />
		<tag k="ssr:stedsnr" v="518436" />
	</node>
	<node id="-831450" lat="63.429744441" lon="9.34446388443">
		<tag k="name" v="Litlevatnet" />
		<tag k="natural" v="water" />
		<tag k="ssr:stedsnr" v="376816" />
	</node>
	<node id="-829399" lat="63.466655559" lon="9.23086944974">
		<tag k="alt_name" v="Tenorlivatn" />
		<tag k="name" v="Tenorlivatnet" />
		<tag k="natural" v="water" />
		<tag k="ssr:stedsnr" v="194968" />
	</node>
	<node id="-831438" lat="63.5205055533" lon="9.48168333658">
		<tag k="name" v="Prestvika" />
		<tag k="natural" v="bay" />
		<tag k="ssr:stedsnr" v="822027" />
	</node>
	<node id="-829382" lat="63.4648499998" lon="9.36530555001">
		<tag k="name" v="Gråtjørnbekken" />
		<tag k="ssr:stedsnr" v="822264" />
		<tag k="waterway" v="stream" />
	</node>
	<node id="-829379" lat="63.4456361147" lon="9.4167500091">
		<tag k="name" v="Sørbekkvatnet" />
		<tag k="natural" v="water" />
		<tag k="ssr:stedsnr" v="194777" />
	</node>
	<node id="-829378" lat="63.4203305578" lon="9.61346110268">
		<tag k="name" v="Storslættbekken" />
		<tag k="ssr:stedsnr" v="518081" />
		<tag k="waterway" v="stream" />
	</node>
	<node id="-831425" lat="63.4188083364" lon="9.29900556192">
		<tag k="name" v="Ellingsholtjørna" />
		<tag k="natural" v="water" />
		<tag k="ssr:stedsnr" v="12771" />
	</node>
	<node id="-831423" lat="63.397202777" lon="9.52423333943">
		<tag k="name" v="Tverrbekken" />
		<tag k="ssr:stedsnr" v="579118" />
		<tag k="waterway" v="stream" />
	</node>
	<node id="-831422" lat="63.525674996" lon="9.35585278277">
		<tag k="name" v="Halsavatnet" />
		<tag k="natural" v="water" />
		<tag k="ssr:stedsnr" v="438152" />
	</node>
	<node id="-831419" lat="63.4202611125" lon="9.66222777617">
		<tag k="name" v="Larsslættbekken" />
		<tag k="ssr:stedsnr" v="822015" />
		<tag k="waterway" v="stream" />
	</node>
	<node id="-831417" lat="63.3293222225" lon="9.31491666951">
		<tag k="name" v="Vardelva" />
		<tag k="ssr:stedsnr" v="519206" />
		<tag k="waterway" v="river" />
	</node>
	<node id="-831415" lat="63.4262916668" lon="9.39250833932">
		<tag k="name" v="Tverrdalsvatnet" />
		<tag k="natural" v="water" />
		<tag k="ssr:stedsnr" v="315786" />
	</node>
	<node id="-831411" lat="63.4479888875" lon="9.42199722782">
		<tag k="name" v="Tvillingvatna" />
		<tag k="natural" v="water" />
		<tag k="ssr:stedsnr" v="376821" />
	</node>
	<node id="-829362" lat="63.4219694446" lon="9.57795833228">
		<tag k="name" v="Bårdsvollbekken" />
		<tag k="ssr:stedsnr" v="518080" />
		<tag k="waterway" v="stream" />
	</node>
	<node id="-831409" lat="63.4450111102" lon="9.44208333042">
		<tag k="name" v="Kvernvatnet" />
		<tag k="natural" v="water" />
		<tag k="ssr:stedsnr" v="376820" />
	</node>
	<node id="-831408" lat="63.3874166672" lon="9.44264723096">
		<tag k="name" v="Gjerdabekken" />
		<tag k="ssr:stedsnr" v="700483" />
		<tag k="waterway" v="stream" />
	</node>
	<node id="-831407" lat="63.5068388929" lon="9.43223889525">
		<tag k="name" v="Imsterelva" />
		<tag k="ssr:stedsnr" v="458045" />
		<tag k="waterway" v="river" />
	</node>
	<node id="-829353" lat="63.3053138872" lon="9.33491666584">
		<tag k="alt_name" v="Gråurdtjørna, nedre" />
		<tag k="name" v="Nedre Gråurdtjørna" />
		<tag k="natural" v="water" />
		<tag k="ssr:stedsnr" v="134228" />
	</node>
	<node id="-829352" lat="63.542444442" lon="9.50208889754">
		<tag k="name" v="Kleppskardbekken" />
		<tag k="ssr:stedsnr" v="93023" />
		<tag k="waterway" v="stream" />
	</node>
	<node id="-829348" lat="63.395508334" lon="9.41368334075">
		<tag k="name" v="Langvatna" />
		<tag k="natural" v="water" />
		<tag k="ssr:stedsnr" v="761505" />
		<tag k="water" v="lake" />
	</node>
	<node id="-831395" lat="63.3534527799" lon="9.45264721229">
		<tag k="alt_name" v="Litlvatnet" />
		<tag k="name" v="Litlevatnet" />
		<tag k="natural" v="water" />
		<tag k="ssr:stedsnr" v="681122" />
	</node>
	<node id="-831394" lat="63.3415583304" lon="9.28998056046">
		<tag k="name" v="Løntjørna" />
		<tag k="natural" v="water" />
		<tag k="ssr:stedsnr" v="275998" />
	</node>
	<node id="-829343" lat="63.4179083374" lon="9.34079721854">
		<tag k="name" v="Kvernstadlivatnet" />
		<tag k="natural" v="water" />
		<tag k="ssr:stedsnr" v="862794" />
		<tag k="water" v="lake" />
	</node>
	<node id="-831388" lat="63.459744448" lon="9.35159721405">
		<tag k="name" v="Stålbekken" />
		<tag k="ssr:stedsnr" v="336275" />
		<tag k="waterway" v="stream" />
	</node>
	<node id="-831378" lat="63.3098361069" lon="9.29444165777">
		<tag k="name" v="Drakevatnet" />
		<tag k="natural" v="water" />
		<tag k="ssr:stedsnr" v="74159" />
	</node>
	<node id="-831376" lat="63.3145583326" lon="9.43101943654">
		<tag k="name" v="Tverrelva" />
		<tag k="ssr:stedsnr" v="276433" />
		<tag k="waterway" v="river" />
	</node>
	<node id="-831370" lat="63.4922499974" lon="9.49311667197">
		<tag k="name" v="Åstviktjørna" />
		<tag k="natural" v="water" />
		<tag k="ssr:stedsnr" v="801858" />
	</node>
	<node id="-829319" lat="63.4845805519" lon="9.56799167647">
		<tag k="name" v="Oldertjørna" />
		<tag k="natural" v="water" />
		<tag k="ssr:stedsnr" v="215475" />
	</node>
	<node id="-831363" lat="63.3653805543" lon="9.46680834067">
		<tag k="alt_name" v="Fiskeløysvatnet" />
		<tag k="fixme" v="multiple name tags, choose one and add the other to alt_name" />
		<tag k="name" v="Fiskløysa;Fiskløysvatnet" />
		<tag k="natural" v="water" />
		<tag k="ssr:stedsnr" v="680864" />
	</node>
	<node id="-829312" lat="63.3459611106" lon="9.50503611988">
		<tag k="name" v="Tverrelvtjørna" />
		<tag k="natural" v="water" />
		<tag k="ssr:stedsnr" v="13158" />
	</node>
	<node id="-829309" lat="63.5147527765" lon="9.51008333525">
		<tag k="name" v="Attmuskråa" />
		<tag k="natural" v="bay" />
		<tag k="ssr:stedsnr" v="93025" />
	</node>
	<node id="-831355" lat="63.4029555526" lon="9.31808888076">
		<tag k="name" v="Drukntjørna" />
		<tag k="natural" v="water" />
		<tag k="ssr:stedsnr" v="822934" />
	</node>
	<node id="-829306" lat="63.482152781" lon="9.19568611739">
		<tag k="name" v="Nord Vassdalsbekken" />
		<tag k="ssr:stedsnr" v="943217" />
		<tag k="waterway" v="stream" />
	</node>
	<node id="-831353" lat="63.3281638907" lon="9.30301112054">
		<tag k="name" v="Vassbotnelva" />
		<tag k="ssr:stedsnr" v="93692" />
		<tag k="waterway" v="river" />
	</node>
	<node id="-831352" lat="63.4924055578" lon="9.55175833907">
		<tag k="alt_name" v="Setervatnet" />
		<tag k="name" v="Sætervatnet" />
		<tag k="natural" v="water" />
		<tag k="ssr:stedsnr" v="801861" />
	</node>
	<node id="-831351" lat="63.5246499986" lon="9.26506388298">
		<tag k="name" v="Jurdalsbekken" />
		<tag k="ssr:stedsnr" v="457180" />
		<tag k="waterway" v="stream" />
	</node>
	<node id="-831342" lat="63.4005277739" lon="9.31836666316">
		<tag k="name" v="Hjorttjørna" />
		<tag k="natural" v="water" />
		<tag k="ssr:stedsnr" v="822924" />
	</node>
	<node id="-831340" lat="63.3203527786" lon="9.43244721299">
		<tag k="name" v="Seterbekken" />
		<tag k="ssr:stedsnr" v="458465" />
		<tag k="waterway" v="stream" />
	</node>
	<node id="-831339" lat="63.4069611085" lon="9.2701499993">
		<tag k="name" v="Norddalsbukta" />
		<tag k="natural" v="bay" />
		<tag k="ssr:stedsnr" v="882130" />
	</node>
	<node id="-829414" lat="63.5338277806" lon="9.46139444072">
		<tag k="name" v="Saratjørna" />
		<tag k="natural" v="water" />
		<tag k="ssr:stedsnr" v="680154" />
	</node>
	<node id="-831317" lat="63.2971055568" lon="9.32113888341">
		<tag k="name" v="Skaftskåla" />
		<tag k="natural" v="water" />
		<tag k="ssr:stedsnr" v="559190" />
	</node>
	<node id="-831314" lat="63.4033249978" lon="9.34533055829">
		<tag k="name" v="Svartholtjørna" />
		<tag k="natural" v="water" />
		<tag k="ssr:stedsnr" v="33299" />
	</node>
	<node id="-831299" lat="63.4218361069" lon="9.2936277744">
		<tag k="name" v="Stengvatnet" />
		<tag k="natural" v="water" />
		<tag k="ssr:stedsnr" v="680840" />
	</node>
	<node id="-831294" lat="63.3901388907" lon="9.42528611198">
		<tag k="name" v="Seterbekken" />
		<tag k="ssr:stedsnr" v="397494" />
		<tag k="waterway" v="stream" />
	</node>
	<node id="-831292" lat="63.4021722224" lon="9.61322499971">
		<tag k="name" v="Myrtjørna" />
		<tag k="natural" v="water" />
		<tag k="ssr:stedsnr" v="801831" />
	</node>
	<node id="-831291" lat="63.4352027735" lon="9.48133333542">
		<tag k="fixme" v="multiple name tags, choose one and add the other to alt_name" />
		<tag k="name" v="Slørdalsvatnet;Storvatnet" />
		<tag k="natural" v="water" />
		<tag k="ssr:stedsnr" v="255822" />
		<tag k="water" v="lake" />
	</node>
	<node id="-831276" lat="63.5093333348" lon="9.29958056446">
		<tag k="name" v="Skutbekken" />
		<tag k="ssr:stedsnr" v="275548" />
		<tag k="waterway" v="stream" />
	</node>
	<node id="-831274" lat="63.3363833336" lon="9.41714167005">
		<tag k="name" v="Andersbakk bekken" />
		<tag k="ssr:stedsnr" v="822456" />
		<tag k="waterway" v="stream" />
	</node>
	<node id="-831270" lat="63.438372219" lon="9.56414721807">
		<tag k="alt_name" v="Gjøafjelltjørnane" />
		<tag k="name" v="Gjøafjelltjørnan" />
		<tag k="natural" v="water" />
		<tag k="ssr:stedsnr" v="255824" />
	</node>
	<node id="-831250" lat="63.5258273206" lon="9.26911262184">
		<tag k="name" v="Stordalsbekken" />
		<tag k="ssr:stedsnr" v="457174" />
		<tag k="waterway" v="stream" />
	</node>
	<node id="-831249" lat="63.4031666675" lon="9.32549166276">
		<tag k="name" v="Storåstjørna" />
		<tag k="natural" v="water" />
		<tag k="ssr:stedsnr" v="397927" />
	</node>
	<node id="-831233" lat="63.4884888893" lon="9.18431388592">
		<tag k="name" v="Litlneset" />
		<tag k="natural" v="cape" />
		<tag k="ssr:stedsnr" v="215219" />
	</node>
	<node id="-831227" lat="63.4735277791" lon="9.57358610251">
		<tag k="name" v="Myrengtjørna" />
		<tag k="natural" v="water" />
		<tag k="ssr:stedsnr" v="822468" />
	</node>
	<node id="-831224" lat="63.4553805567" lon="9.44295278304">
		<tag k="name" v="Aundalsbekken" />
		<tag k="ssr:stedsnr" v="943002" />
		<tag k="waterway" v="stream" />
	</node>
	<node id="-831221" lat="63.3598833325" lon="9.30069167076">
		<tag k="name" v="Plassabekken" />
		<tag k="ssr:stedsnr" v="275955" />
		<tag k="waterway" v="stream" />
	</node>
	<node id="-831219" lat="63.402230552" lon="9.4971194348">
		<tag k="name" v="Kaldbekken" />
		<tag k="ssr:stedsnr" v="822007" />
		<tag k="waterway" v="stream" />
	</node>
	<node id="-831210" lat="63.4072444484" lon="9.40648333178">
		<tag k="name" v="Langtjørna" />
		<tag k="natural" v="water" />
		<tag k="ssr:stedsnr" v="376788" />
	</node>
	<node id="-831202" lat="63.3648444421" lon="9.59222500959">
		<tag k="name" v="Øylibekken" />
		<tag k="ssr:stedsnr" v="275102" />
		<tag k="waterway" v="stream" />
	</node>
	<node id="-831197" lat="63.4404944419" lon="9.33154999722">
		<tag k="name" v="Bugabekken" />
		<tag k="ssr:stedsnr" v="700908" />
		<tag k="waterway" v="stream" />
	</node>
	<node id="-831193" lat="63.346352778" lon="9.40130555604">
		<tag k="name" v="Sagdalsbekken" />
		<tag k="ssr:stedsnr" v="701338" />
		<tag k="waterway" v="stream" />
	</node>
	<node id="-831179" lat="63.553266669" lon="9.38830555509">
		<tag k="name" v="Isdammen" />
		<tag k="natural" v="water" />
		<tag k="ssr:stedsnr" v="33726" />
	</node>
	<node id="-831171" lat="63.4445888906" lon="9.3805305604">
		<tag k="name" v="Engvikbekken" />
		<tag k="ssr:stedsnr" v="283091" />
		<tag k="waterway" v="stream" />
	</node>
	<node id="-831165" lat="63.2977583295" lon="9.41424166627">
		<tag k="name" v="Styggdalsbekken" />
		<tag k="ssr:stedsnr" v="154301" />
		<tag k="waterway" v="stream" />
	</node>
	<node id="-831162" lat="63.2974944469" lon="9.28588055975">
		<tag k="name" v="Grønlivatnet" />
		<tag k="natural" v="water" />
		<tag k="ssr:stedsnr" v="559172" />
	</node>
	<node id="-831155" lat="63.4831583308" lon="9.32539445116">
		<tag k="name" v="Fossdalselva" />
		<tag k="ssr:stedsnr" v="275541" />
		<tag k="waterway" v="stream" />
	</node>
	<node id="-831151" lat="63.4948777755" lon="9.22917222105">
		<tag k="name" v="Trefallneset" />
		<tag k="natural" v="cape" />
		<tag k="ssr:stedsnr" v="33268" />
	</node>
	<node id="-831149" lat="63.3735944467" lon="9.60626110748">
		<tag k="name" v="Djupdalsbekken" />
		<tag k="ssr:stedsnr" v="275092" />
		<tag k="waterway" v="stream" />
	</node>
	<node id="-831146" lat="63.3981555524" lon="9.45585277862">
		<tag k="name" v="Merralitjørna" />
		<tag k="natural" v="water" />
		<tag k="ssr:stedsnr" v="558895" />
	</node>
	<node id="-829452" lat="63.4606999964" lon="9.25049443533">
		<tag k="name" v="Osen" />
		<tag k="natural" v="bay" />
		<tag k="ssr:stedsnr" v="943142" />
	</node>
	<node id="-831128" lat="63.4046444441" lon="9.53776388453">
		<tag k="name" v="Selfossen" />
		<tag k="natural" v="waterfall" />
		<tag k="ssr:stedsnr" v="519148" />
	</node>
	<node id="-831124" lat="63.4976138858" lon="9.45631110659">
		<tag k="name" v="Imstervatnet" />
		<tag k="natural" v="water" />
		<tag k="ssr:stedsnr" v="497898" />
	</node>
	<node id="-831118" lat="63.4937583359" lon="9.18118056321">
		<tag k="name" v="Sundelva" />
		<tag k="ssr:stedsnr" v="761241" />
		<tag k="waterway" v="river" />
	</node>
	<node id="-831105" lat="63.5044055524" lon="9.21534167229">
		<tag k="name" v="Aunelva" />
		<tag k="ssr:stedsnr" v="154282" />
		<tag k="waterway" v="river" />
	</node>
	<node id="-831103" lat="63.3686166629" lon="9.4285138956">
		<tag k="name" v="Jevnungbekken" />
		<tag k="ssr:stedsnr" v="701294" />
		<tag k="waterway" v="stream" />
	</node>
	<node id="-831102" lat="63.304088892" lon="9.44011944431">
		<tag k="name" v="Omndalsbekken" />
		<tag k="ssr:stedsnr" v="822419" />
		<tag k="waterway" v="stream" />
	</node>
	<node id="-829717" lat="63.4113138918" lon="9.54535277145">
		<tag k="name" v="Lomtjørna" />
		<tag k="natural" v="water" />
		<tag k="ssr:stedsnr" v="497755" />
	</node>
	<node id="-831099" lat="63.4063499971" lon="9.59307221348">
		<tag k="name" v="Hestfjelltjørna" />
		<tag k="natural" v="water" />
		<tag k="ssr:stedsnr" v="316810" />
	</node>
	<node id="-831098" lat="63.3763972207" lon="9.31608332471">
		<tag k="name" v="Oterbekken" />
		<tag k="ssr:stedsnr" v="579951" />
		<tag k="waterway" v="stream" />
	</node>
	<node id="-831084" lat="63.5271333342" lon="9.37681110445">
		<tag k="name" v="Nordalstjørna" />
		<tag k="natural" v="water" />
		<tag k="ssr:stedsnr" v="761690" />
	</node>
	<node id="-831083" lat="63.4772777794" lon="9.46153889655">
		<tag k="name" v="Kuppåa" />
		<tag k="ssr:stedsnr" v="397016" />
		<tag k="waterway" v="stream" />
	</node>
	<node id="-831082" lat="63.4063583353" lon="9.34030000243">
		<tag k="name" v="Svartholtjørna" />
		<tag k="natural" v="water" />
		<tag k="ssr:stedsnr" v="376784" />
	</node>
	<node id="-831077" lat="63.5251222261" lon="9.32696111252">
		<tag k="name" v="Halsaelva" />
		<tag k="ssr:stedsnr" v="33710" />
		<tag k="waterway" v="river" />
	</node>
	<node id="-829371" lat="63.5174305564" lon="9.46684721693">
		<tag k="alt_name" v="Hesthol-litjørna" />
		<tag k="name" v="Hesthollitjørna" />
		<tag k="natural" v="water" />
		<tag k="ssr:stedsnr" v="215006" />
	</node>
	<node id="-831072" lat="63.4031583323" lon="9.23676110698">
		<tag k="name" v="Brekkskardbekken" />
		<tag k="ssr:stedsnr" v="215201" />
		<tag k="waterway" v="stream" />
	</node>
	<node id="-831071" lat="63.5063194456" lon="9.30896110694">
		<tag k="name" v="Nedre Vingvatnet" />
		<tag k="natural" v="water" />
		<tag k="ssr:stedsnr" v="863192" />
	</node>
	<node id="-831067" lat="63.4243388897" lon="9.51326666846">
		<tag k="name" v="Glashylltjørna" />
		<tag k="natural" v="water" />
		<tag k="ssr:stedsnr" v="680830" />
	</node>
	<node id="-831065" lat="63.4686249985" lon="9.58898333033">
		<tag k="name" v="Remmavatnet" />
		<tag k="natural" v="water" />
		<tag k="ssr:stedsnr" v="618970" />
		<tag k="water" v="lake" />
	</node>
	<node id="-831038" lat="63.5228194431" lon="9.3772499983">
		<tag k="name" v="Nordalstjørna" />
		<tag k="natural" v="water" />
		<tag k="ssr:stedsnr" v="93639" />
	</node>
	<node id="-831035" lat="63.5110333291" lon="9.30340555624">
		<tag k="name" v="Vingelva" />
		<tag k="ssr:stedsnr" v="863193" />
		<tag k="waterway" v="stream" />
	</node>
	<node id="-831026" lat="63.4267222251" lon="9.51997500056">
		<tag k="name" v="Gortjørna" />
		<tag k="natural" v="water" />
		<tag k="ssr:stedsnr" v="275084" />
	</node>
	<node id="-829363" lat="63.4881638924" lon="9.57621388459">
		<tag k="name" v="Selstaddalstjørna" />
		<tag k="natural" v="water" />
		<tag k="ssr:stedsnr" v="618862" />
	</node>
	<node id="-831018" lat="63.4887388857" lon="9.5667666595">
		<tag k="name" v="Stubbtjørna" />
		<tag k="natural" v="water" />
		<tag k="ssr:stedsnr" v="397452" />
	</node>
	<node id="-829361" lat="63.48630556" lon="9.32651944131">
		<tag k="name" v="Tverrbekken" />
		<tag k="ssr:stedsnr" v="214574" />
		<tag k="waterway" v="stream" />
	</node>
	<node id="-831012" lat="63.3234333326" lon="9.33862222042">
		<tag k="name" v="Langtjørna" />
		<tag k="natural" v="water" />
		<tag k="ssr:stedsnr" v="863190" />
	</node>
	<node id="-831003" lat="63.4534611099" lon="9.42196667126">
		<tag k="name" v="Sørbekken" />
		<tag k="ssr:stedsnr" v="397004" />
		<tag k="waterway" v="stream" />
	</node>
	<node id="-831000" lat="63.4517527736" lon="9.5230750015">
		<tag k="name" v="Storlitjørna" />
		<tag k="natural" v="water" />
		<tag k="ssr:stedsnr" v="882078" />
	</node>
	<node id="-830992" lat="63.4168527777" lon="9.29411944051">
		<tag k="name" v="Fjellslættjørna" />
		<tag k="natural" v="water" />
		<tag k="ssr:stedsnr" v="94921" />
	</node>
	<node id="-830988" lat="63.4837555551" lon="9.19244721961">
		<tag k="name" v="Vassbotn" />
		<tag k="natural" v="bay" />
		<tag k="ssr:stedsnr" v="154260" />
	</node>
	<node id="-830987" lat="63.5225055584" lon="9.43736944084">
		<tag k="name" v="Rønnesvatnet" />
		<tag k="natural" v="water" />
		<tag k="ssr:stedsnr" v="863163" />
	</node>
	<node id="-830983" lat="63.3375194482" lon="9.41055832373">
		<tag k="name" v="Urdlibekken" />
		<tag k="ssr:stedsnr" v="397436" />
		<tag k="waterway" v="stream" />
	</node>
	<node id="-830982" lat="63.3978750027" lon="9.65211389297">
		<tag k="name" v="Saglibekken" />
		<tag k="ssr:stedsnr" v="457110" />
		<tag k="waterway" v="stream" />
	</node>
	<node id="-830974" lat="63.3895388866" lon="9.32991389189">
		<tag k="name" v="Litldalstjørna" />
		<tag k="natural" v="water" />
		<tag k="ssr:stedsnr" v="154258" />
	</node>
	<node id="-830969" lat="63.4376666635" lon="9.3462833403">
		<tag k="alt_name" v="Kvennstadelva" />
		<tag k="name" v="Kvernstadbekken" />
		<tag k="ssr:stedsnr" v="133796" />
		<tag k="waterway" v="stream" />
	</node>
	<node id="-830956" lat="63.3812277742" lon="9.57104722942">
		<tag k="alt_name" v="Nonsskardtjørna" />
		<tag k="name" v="Nonskardtjørna" />
		<tag k="natural" v="water" />
		<tag k="ssr:stedsnr" v="377827" />
	</node>
	<node id="-830955" lat="63.4904666642" lon="9.35356944075">
		<tag k="alt_name" v="Fossdalstjørna" />
		<tag k="name" v="Fossdalsvatnet" />
		<tag k="natural" v="water" />
		<tag k="ssr:stedsnr" v="497881" />
	</node>
	<node id="-829514" lat="63.4314777734" lon="9.45496112012">
		<tag k="name" v="Seterelva" />
		<tag k="ssr:stedsnr" v="639516" />
		<tag k="waterway" v="river" />
	</node>
	<node id="-830950" lat="63.5209499985" lon="9.49546389333">
		<tag k="name" v="Storvassholmen" />
		<tag k="place" v="islet" />
		<tag k="ssr:stedsnr" v="387855" />
	</node>
	<node id="-830949" lat="63.5584444472" lon="9.52006388621">
		<tag k="name" v="Krokelva" />
		<tag k="ssr:stedsnr" v="195136" />
		<tag k="waterway" v="stream" />
	</node>
	<node id="-830947" lat="63.3803500021" lon="9.38901665993">
		<tag k="name" v="Seterbekken" />
		<tag k="ssr:stedsnr" v="276357" />
		<tag k="waterway" v="stream" />
	</node>
	<node id="-830941" lat="63.3849027822" lon="9.32620277857">
		<tag k="name" v="Ytter Klungervikelva" />
		<tag k="ssr:stedsnr" v="275926" />
		<tag k="waterway" v="river" />
	</node>
	<node id="-830936" lat="63.4492555573" lon="9.51738056178">
		<tag k="name" v="Svartdalstjørna" />
		<tag k="natural" v="water" />
		<tag k="ssr:stedsnr" v="133788" />
	</node>
	<node id="-830932" lat="63.3660611104" lon="9.57206667513">
		<tag k="name" v="Hullubekken" />
		<tag k="ssr:stedsnr" v="397444" />
		<tag k="waterway" v="stream" />
	</node>
	<node id="-830927" lat="63.3971000043" lon="9.39777221912">
		<tag k="alt_name" v="Sverrivatnet" />
		<tag k="name" v="Sværivatnet" />
		<tag k="natural" v="water" />
		<tag k="ssr:stedsnr" v="437847" />
	</node>
	<node id="-830916" lat="63.4982777741" lon="9.52741944226">
		<tag k="name" v="Merratjørna" />
		<tag k="natural" v="water" />
		<tag k="ssr:stedsnr" v="275065" />
	</node>
	<node id="-830914" lat="63.3050222264" lon="9.44551666118">
		<tag k="name" v="Slættesbekken" />
		<tag k="ssr:stedsnr" v="701266" />
		<tag k="waterway" v="stream" />
	</node>
	<node id="-830906" lat="63.5446666638" lon="9.35894444007">
		<tag k="name" v="Gammelbudalsbekken" />
		<tag k="ssr:stedsnr" v="518673" />
		<tag k="waterway" v="stream" />
	</node>
	<node id="-830905" lat="63.3455111126" lon="9.56091110662">
		<tag k="alt_name" v="Setergardstjørnan" />
		<tag k="name" v="Sætergardstjørna" />
		<tag k="natural" v="water" />
		<tag k="ssr:stedsnr" v="559134" />
	</node>
	<node id="-830898" lat="63.4769472245" lon="9.33066666158">
		<tag k="name" v="Storvikbekken" />
		<tag k="ssr:stedsnr" v="640629" />
		<tag k="waterway" v="stream" />
	</node>
	<node id="-830881" lat="63.4161805536" lon="9.25197500848">
		<tag k="name" v="Bjørvikberget" />
		<tag k="natural" v="cape" />
		<tag k="ssr:stedsnr" v="336164" />
	</node>
	<node id="-830875" lat="63.4680666675" lon="9.21377222851">
		<tag k="name" v="Migaren" />
		<tag k="ssr:stedsnr" v="275044" />
		<tag k="waterway" v="river" />
	</node>
	<node id="-830874" lat="63.420969448" lon="9.54904167606">
		<tag k="name" v="Kvernbekken" />
		<tag k="ssr:stedsnr" v="215162" />
		<tag k="waterway" v="stream" />
	</node>
	<node id="-830870" lat="63.3999500016" lon="9.603686117">
		<tag k="name" v="Turrukallbekken" />
		<tag k="ssr:stedsnr" v="882057" />
		<tag k="waterway" v="stream" />
	</node>
	<node id="-830860" lat="63.5239722241" lon="9.49679999501">
		<tag k="name" v="Terningsvatnet" />
		<tag k="natural" v="water" />
		<tag k="ssr:stedsnr" v="863168" />
		<tag k="water" v="lake" />
	</node>
	<node id="-830850" lat="63.4448555528" lon="9.61110832952">
		<tag k="name" v="Langtjørna" />
		<tag k="natural" v="water" />
		<tag k="ssr:stedsnr" v="679779" />
	</node>
	<node id="-830842" lat="63.4223083344" lon="9.70598889652">
		<tag k="name" v="Fjellbekke" />
		<tag k="ssr:stedsnr" v="457101" />
		<tag k="waterway" v="stream" />
	</node>
	<node id="-830841" lat="63.3996111091" lon="9.20473889082">
		<tag k="name" v="Snigeldalsbekken" />
		<tag k="ssr:stedsnr" v="882045" />
		<tag k="waterway" v="stream" />
	</node>
	<node id="-830840" lat="63.5464888859" lon="9.48161943588">
		<tag k="name" v="Langvatnet" />
		<tag k="natural" v="water" />
		<tag k="ssr:stedsnr" v="559139" />
	</node>
	<node id="-829673" lat="63.4004722235" lon="9.32999722214">
		<tag k="name" v="Kvitsteinlitjørna" />
		<tag k="natural" v="water" />
		<tag k="ssr:stedsnr" v="701904" />
	</node>
	<node id="-830821" lat="63.3166999988" lon="9.24799443896">
		<tag k="name" v="Middagsbekken" />
		<tag k="ssr:stedsnr" v="458825" />
		<tag k="waterway" v="stream" />
	</node>
	<node id="-830810" lat="63.3962277766" lon="9.44397499866">
		<tag k="alt_name" v="Stengvatnet" />
		<tag k="name" v="Stengvasstjørna" />
		<tag k="natural" v="water" />
		<tag k="ssr:stedsnr" v="497863" />
	</node>
	<node id="-830802" lat="63.398380558" lon="9.49922221886">
		<tag k="name" v="Bergselva" />
		<tag k="ssr:stedsnr" v="215143" />
		<tag k="waterway" v="river" />
	</node>
	<node id="-830788" lat="63.3944972207" lon="9.38430834138">
		<tag k="name" v="Storvatnet" />
		<tag k="natural" v="water" />
		<tag k="ssr:stedsnr" v="498878" />
	</node>
	<node id="-829322" lat="63.3291388891" lon="9.54058333458">
		<tag k="name" v="Våvatnet" />
		<tag k="natural" v="water" />
		<tag k="ssr:stedsnr" v="255172" />
		<tag k="water" v="lake" />
	</node>
	<node id="-830769" lat="63.4183750023" lon="9.5912166684">
		<tag k="name" v="Bergselva" />
		<tag k="ssr:stedsnr" v="740751" />
		<tag k="waterway" v="river" />
	</node>
	<node id="-830766" lat="63.3456027814" lon="9.51538889883">
		<tag k="name" v="Tverrelva" />
		<tag k="ssr:stedsnr" v="215136" />
		<tag k="waterway" v="river" />
	</node>
	<node id="-830728" lat="63.4867861142" lon="9.35186666592">
		<tag k="name" v="Langhaugbekken" />
		<tag k="ssr:stedsnr" v="944248" />
		<tag k="waterway" v="stream" />
	</node>
	<node id="-830718" lat="63.3914166674" lon="9.2695972185">
		<tag k="name" v="Innerelva" />
		<tag k="ssr:stedsnr" v="761204" />
		<tag k="waterway" v="river" />
	</node>
	<node id="-830705" lat="63.4868111122" lon="9.39195834105">
		<tag k="name" v="Elvaelva" />
		<tag k="ssr:stedsnr" v="336604" />
		<tag k="waterway" v="stream" />
	</node>
	<node id="-830704" lat="63.4873500019" lon="9.52722776955">
		<tag k="name" v="Storfossen" />
		<tag k="natural" v="waterfall" />
		<tag k="ssr:stedsnr" v="822824" />
	</node>
	<node id="-830691" lat="63.3541000002" lon="9.36840000634">
		<tag k="name" v="Svarttjørna" />
		<tag k="natural" v="water" />
		<tag k="ssr:stedsnr" v="559122" />
	</node>
	<node id="-830689" lat="63.3453722245" lon="9.26521111243">
		<tag k="name" v="Litlbekken" />
		<tag k="ssr:stedsnr" v="761197" />
		<tag k="waterway" v="stream" />
	</node>
	<node id="-830679" lat="63.4190499975" lon="9.26346667662">
		<tag k="name" v="Klokkbekken" />
		<tag k="ssr:stedsnr" v="761190" />
		<tag k="waterway" v="stream" />
	</node>
	<node id="-830666" lat="63.5034882627" lon="9.34815572031">
		<tag k="name" v="Djupåvatnet" />
		<tag k="natural" v="water" />
		<tag k="ssr:stedsnr" v="979931" />
		<tag k="water" v="lake" />
	</node>
	<node id="-830665" lat="63.5063249997" lon="9.21832777363">
		<tag k="name" v="Trolldalsbekken" />
		<tag k="ssr:stedsnr" v="518202" />
		<tag k="waterway" v="stream" />
	</node>
	<node id="-830664" lat="63.3851500031" lon="9.50714443805">
		<tag k="name" v="Aunelva" />
		<tag k="ssr:stedsnr" v="498861" />
		<tag k="waterway" v="stream" />
	</node>
	<node id="-830663" lat="63.438941667" lon="9.43531945256">
		<tag k="alt_name" v="Høttslett-tjørna" />
		<tag k="name" v="Høttslettjørna" />
		<tag k="natural" v="water" />
		<tag k="ssr:stedsnr" v="275445" />
	</node>
	<node id="-830661" lat="63.3853194483" lon="9.35977221794">
		<tag k="name" v="Inner Klungervik elva" />
		<tag k="ssr:stedsnr" v="883274" />
		<tag k="waterway" v="river" />
	</node>
	<node id="-830659" lat="63.4272138867" lon="9.50939999833">
		<tag k="name" v="Glashyllbekken" />
		<tag k="ssr:stedsnr" v="215113" />
		<tag k="waterway" v="stream" />
	</node>
	<node id="-830656" lat="63.4760722254" lon="9.25024999984">
		<tag k="name" v="Mellomskardtjørna" />
		<tag k="natural" v="water" />
		<tag k="ssr:stedsnr" v="761159" />
	</node>
	<node id="-830639" lat="63.3060333331" lon="9.52051389145">
		<tag k="name" v="Bondkroktjørna" />
		<tag k="natural" v="water" />
		<tag k="ssr:stedsnr" v="640149" />
	</node>
	<node id="-830635" lat="63.4954527792" lon="9.24544166727">
		<tag k="name" v="Lauvvikbekken" />
		<tag k="ssr:stedsnr" v="639259" />
		<tag k="waterway" v="stream" />
	</node>
	<node id="-830634" lat="63.4824805551" lon="9.47856943923">
		<tag k="name" v="Åstvikbekken" />
		<tag k="ssr:stedsnr" v="397815" />
		<tag k="waterway" v="stream" />
	</node>
	<node id="-830615" lat="63.3126472233" lon="9.25493610841">
		<tag k="name" v="Ristjørna" />
		<tag k="natural" v="water" />
		<tag k="ssr:stedsnr" v="943768" />
	</node>
	<node id="-830607" lat="63.4018111107" lon="9.65827777562">
		<tag k="name" v="Gammelsagfossen" />
		<tag k="natural" v="waterfall" />
		<tag k="ssr:stedsnr" v="275012" />
	</node>
	<node id="-830594" lat="63.3799861067" lon="9.58478334255">
		<tag k="name" v="Ørfossan" />
		<tag k="natural" v="waterfall" />
		<tag k="ssr:stedsnr" v="215110" />
	</node>
	<node id="-830588" lat="63.316791669" lon="9.45486111585">
		<tag k="name" v="Seterbekken" />
		<tag k="ssr:stedsnr" v="94442" />
		<tag k="waterway" v="stream" />
	</node>
	<node id="-830586" lat="63.3952388923" lon="9.66908888945">
		<tag k="name" v="Trollskardbekken" />
		<tag k="ssr:stedsnr" v="336128" />
		<tag k="waterway" v="stream" />
	</node>
	<node id="-830584" lat="63.3967222206" lon="9.28689445381">
		<tag k="name" v="Vasslibekken" />
		<tag k="natural" v="water" />
		<tag k="ssr:stedsnr" v="155922" />
	</node>
	<node id="-830577" lat="63.4293666669" lon="9.47570554866">
		<tag k="name" v="Fagerdalselva" />
		<tag k="ssr:stedsnr" v="215111" />
		<tag k="waterway" v="river" />
	</node>
	<node id="-830575" lat="63.4635222218" lon="9.24409445264">
		<tag k="name" v="Tenorlibekken" />
		<tag k="ssr:stedsnr" v="761150" />
		<tag k="waterway" v="stream" />
	</node>
	<node id="-830573" lat="63.4452083376" lon="9.59171111069">
		<tag k="name" v="Gabrieltjørna" />
		<tag k="natural" v="water" />
		<tag k="ssr:stedsnr" v="801771" />
	</node>
	<node id="-830557" lat="63.3473833332" lon="9.56924444615">
		<tag k="name" v="Kverndammen" />
		<tag k="natural" v="water" />
		<tag k="ssr:stedsnr" v="215100" />
		<tag k="water" v="pond" />
	</node>
	<node id="-829500" lat="63.335688891" lon="9.40470277606">
		<tag k="name" v="Olibekken" />
		<tag k="ssr:stedsnr" v="215390" />
		<tag k="waterway" v="stream" />
	</node>
	<node id="-830523" lat="63.4248861119" lon="9.34989722926">
		<tag k="name" v="Botntjørna" />
		<tag k="natural" v="water" />
		<tag k="ssr:stedsnr" v="73796" />
	</node>
	<node id="-830522" lat="63.3130750014" lon="9.53291666845">
		<tag k="name" v="Trollbekken" />
		<tag k="ssr:stedsnr" v="13213" />
		<tag k="waterway" v="stream" />
	</node>
	<node id="-830517" lat="63.5280416628" lon="9.37098888445">
		<tag k="name" v="Steintjørna" />
		<tag k="natural" v="water" />
		<tag k="ssr:stedsnr" v="944216" />
	</node>
	<node id="-830514" lat="63.4798166659" lon="9.23237778445">
		<tag k="alt_name" v="Rottemstjørnan" />
		<tag k="name" v="Rottemtjørna" />
		<tag k="natural" v="water" />
		<tag k="ssr:stedsnr" v="740998" />
	</node>
	<node id="-830511" lat="63.4509055518" lon="9.25125000163">
		<tag k="name" v="Klubb-bekken" />
		<tag k="ssr:stedsnr" v="33159" />
		<tag k="waterway" v="stream" />
	</node>
	<node id="-830505" lat="63.4623694434" lon="9.22267499679">
		<tag k="name" v="Brannbekken" />
		<tag k="ssr:stedsnr" v="33161" />
		<tag k="waterway" v="stream" />
	</node>
	<node id="-830494" lat="63.3144555579" lon="9.41427499894">
		<tag k="name" v="Fjellbekken" />
		<tag k="ssr:stedsnr" v="13210" />
		<tag k="waterway" v="stream" />
	</node>
	<node id="-830483" lat="63.3352972188" lon="9.25548611281">
		<tag k="name" v="Vikabekken" />
		<tag k="ssr:stedsnr" v="579837" />
		<tag k="waterway" v="stream" />
	</node>
	<node id="-830473" lat="63.5399527779" lon="9.38993333683">
		<tag k="name" v="Råbekken" />
		<tag k="ssr:stedsnr" v="883249" />
		<tag k="waterway" v="stream" />
	</node>
	<node id="-830469" lat="63.4782194487" lon="9.2808250082">
		<tag k="name" v="Ljøsdalen" />
		<tag k="ssr:stedsnr" v="33152" />
		<tag k="waterway" v="stream" />
	</node>
	<node id="-830466" lat="63.309097225" lon="9.36938055442">
		<tag k="name" v="Damvatnet" />
		<tag k="natural" v="water" />
		<tag k="ssr:stedsnr" v="13208" />
	</node>
	<node id="-830463" lat="63.3122749979" lon="9.29935554894">
		<tag k="name" v="Grastjørna" />
		<tag k="natural" v="water" />
		<tag k="ssr:stedsnr" v="741242" />
	</node>
	<node id="-830460" lat="63.4747666678" lon="9.19685832854">
		<tag k="name" v="Sør Vassdalsbekken" />
		<tag k="ssr:stedsnr" v="639225" />
		<tag k="waterway" v="stream" />
	</node>
	<node id="-830459" lat="63.4237249961" lon="9.62035556116">
		<tag k="name" v="Kleivbekken" />
		<tag k="ssr:stedsnr" v="215076" />
		<tag k="waterway" v="stream" />
	</node>
	<node id="-830454" lat="63.4718722232" lon="9.48917499915">
		<tag k="name" v="Sagøra" />
		<tag k="natural" v="cape" />
		<tag k="ssr:stedsnr" v="740974" />
	</node>
	<node id="-830452" lat="63.3356305542" lon="9.53513332768">
		<tag k="name" v="Tynsetodden" />
		<tag k="natural" v="cape" />
		<tag k="ssr:stedsnr" v="821440" />
	</node>
	<node id="-830447" lat="63.4275416663" lon="9.49964444896">
		<tag k="name" v="Aureneset" />
		<tag k="natural" v="cape" />
		<tag k="ssr:stedsnr" v="761126" />
	</node>
	<node id="-830435" lat="63.4285611072" lon="9.50191943916">
		<tag k="name" v="Melvatnet" />
		<tag k="natural" v="water" />
		<tag k="ssr:stedsnr" v="801747" />
	</node>
	<node id="-830433" lat="63.3631138928" lon="9.3863249994">
		<tag k="name" v="Vørferdalsbekken" />
		<tag k="ssr:stedsnr" v="276281" />
		<tag k="waterway" v="stream" />
	</node>
	<node id="-830431" lat="63.2998305567" lon="9.29727221852">
		<tag k="name" v="Blåbærvatnet" />
		<tag k="natural" v="water" />
		<tag k="ssr:stedsnr" v="13203" />
	</node>
	<node id="-830428" lat="63.435286107" lon="9.47744444907">
		<tag k="name" v="Steinsneset" />
		<tag k="natural" v="cape" />
		<tag k="ssr:stedsnr" v="761122" />
	</node>
	<node id="-830426" lat="63.4691916658" lon="9.3754777871">
		<tag k="alt_name" v="Gråknubbtjørna" />
		<tag k="name" v="Gråknubbvatnet" />
		<tag k="natural" v="water" />
		<tag k="ssr:stedsnr" v="679981" />
	</node>
	<node id="-830418" lat="63.4090861073" lon="9.34019166127">
		<tag k="name" v="Ryplitjørna" />
		<tag k="natural" v="water" />
		<tag k="ssr:stedsnr" v="133742" />
	</node>
	<node id="-830413" lat="63.3065472221" lon="9.43047221923">
		<tag k="name" v="Kudalsbekken" />
		<tag k="ssr:stedsnr" v="579381" />
		<tag k="waterway" v="stream" />
	</node>
	<node id="-830405" lat="63.3306083366" lon="9.3352527817">
		<tag k="name" v="Blåheidalstjørna" />
		<tag k="natural" v="water" />
		<tag k="ssr:stedsnr" v="700775" />
	</node>
	<node id="-830403" lat="63.4198388847" lon="9.53382777693">
		<tag k="name" v="Skardshaugbekken" />
		<tag k="ssr:stedsnr" v="93094" />
		<tag k="waterway" v="stream" />
	</node>
	<node id="-830392" lat="63.3928194428" lon="9.43319443675">
		<tag k="name" v="Setervatnet" />
		<tag k="natural" v="water" />
		<tag k="ssr:stedsnr" v="882406" />
	</node>
	<node id="-830389" lat="63.4763305596" lon="9.50721665782">
		<tag k="alt_name" v="Kobbukt-tjørna" />
		<tag k="name" v="Kobbukttjørna" />
		<tag k="natural" v="water" />
		<tag k="ssr:stedsnr" v="579825" />
	</node>
	<node id="-830375" lat="63.3881805535" lon="9.59200834288">
		<tag k="name" v="Fossan" />
		<tag k="ssr:stedsnr" v="578089" />
		<tag k="waterway" v="rapids" />
	</node>
	<node id="-830370" lat="63.4775861146" lon="9.40461112106">
		<tag k="alt_name" v="Lomstjørna" />
		<tag k="name" v="Lomtjørna" />
		<tag k="natural" v="water" />
		<tag k="ssr:stedsnr" v="133993" />
	</node>
	<node id="-829595" lat="63.3915722267" lon="9.42381110622">
		<tag k="name" v="Skardbekken" />
		<tag k="ssr:stedsnr" v="93399" />
		<tag k="waterway" v="stream" />
	</node>
	<node id="-830365" lat="63.4658305537" lon="9.25125276965">
		<tag k="name" v="Tverdalsbekken" />
		<tag k="ssr:stedsnr" v="154153" />
		<tag k="waterway" v="stream" />
	</node>
	<node id="-830358" lat="63.5180555531" lon="9.31972499605">
		<tag k="alt_name" v="Djupå" />
		<tag k="name" v="Djupåelva" />
		<tag k="ssr:stedsnr" v="578523" />
		<tag k="waterway" v="stream" />
	</node>
	<node id="-830346" lat="63.5274833345" lon="9.50691388878">
		<tag k="name" v="Almvika" />
		<tag k="natural" v="bay" />
		<tag k="ssr:stedsnr" v="457021" />
	</node>
	<node id="-830345" lat="63.4667388899" lon="9.38799443675">
		<tag k="name" v="Tollvikbekken" />
		<tag k="ssr:stedsnr" v="822319" />
		<tag k="waterway" v="stream" />
	</node>
	<node id="-830339" lat="63.3932638848" lon="9.46549999428">
		<tag k="name" v="Kroknesbekken" />
		<tag k="ssr:stedsnr" v="275390" />
		<tag k="waterway" v="stream" />
	</node>
	<node id="-830334" lat="63.3793416694" lon="9.32164166511">
		<tag k="name" v="Ytter Klungervikelva" />
		<tag k="ssr:stedsnr" v="93946" />
		<tag k="waterway" v="river" />
	</node>
	<node id="-830320" lat="63.3778499976" lon="9.57509166339">
		<tag k="name" v="Ørbekken" />
		<tag k="ssr:stedsnr" v="93079" />
		<tag k="waterway" v="stream" />
	</node>
	<node id="-830303" lat="63.3967750031" lon="9.32374166899">
		<tag k="name" v="Langtjørna" />
		<tag k="natural" v="water" />
		<tag k="ssr:stedsnr" v="883221" />
	</node>
	<node id="-830288" lat="63.4073583347" lon="9.49946111797">
		<tag k="name" v="Ellingsbekken" />
		<tag k="ssr:stedsnr" v="154147" />
		<tag k="waterway" v="stream" />
	</node>
	<node id="-830278" lat="63.3226472241" lon="9.44288055254">
		<tag k="name" v="Kjørylldals-bekken" />
		<tag k="ssr:stedsnr" v="337398" />
		<tag k="waterway" v="stream" />
	</node>
	<node id="-830267" lat="63.4623805526" lon="9.50814723098">
		<tag k="name" v="Hundholstjørna" />
		<tag k="natural" v="water" />
		<tag k="ssr:stedsnr" v="579816" />
	</node>
	<node id="-830265" lat="63.4871194466" lon="9.52909444289">
		<tag k="name" v="Tinnfossen" />
		<tag k="natural" v="waterfall" />
		<tag k="ssr:stedsnr" v="578076" />
	</node>
	<node id="-830264" lat="63.3835277782" lon="9.63829445339">
		<tag k="alt_name" v="Trollskarddalstjørna" />
		<tag k="name" v="Trollskarddaltjørna" />
		<tag k="natural" v="water" />
		<tag k="ssr:stedsnr" v="195838" />
	</node>
	<node id="-830263" lat="63.3595944433" lon="9.45704723153">
		<tag k="name" v="Fiskløysbekken" />
		<tag k="ssr:stedsnr" v="458292" />
		<tag k="waterway" v="stream" />
	</node>
	<node id="-830253" lat="63.499633334" lon="9.31121111829">
		<tag k="name" v="Tømmerdalsbekken" />
		<tag k="ssr:stedsnr" v="93513" />
		<tag k="waterway" v="stream" />
	</node>
	<node id="-830250" lat="63.3343777782" lon="9.33447777715">
		<tag k="name" v="Tverrlitjørna" />
		<tag k="natural" v="water" />
		<tag k="ssr:stedsnr" v="94815" />
	</node>
	<node id="-830249" lat="63.4217166677" lon="9.42627777613">
		<tag k="name" v="Grøndalstjørna" />
		<tag k="natural" v="water" />
		<tag k="ssr:stedsnr" v="437775" />
	</node>
	<node id="-830244" lat="63.4081777781" lon="9.6400666704">
		<tag k="name" v="Kallhaugtjørna" />
		<tag k="natural" v="water" />
		<tag k="ssr:stedsnr" v="518125" />
	</node>
	<node id="-830242" lat="63.3117333322" lon="9.46385556359">
		<tag k="name" v="Mannholbekken" />
		<tag k="ssr:stedsnr" v="94389" />
		<tag k="waterway" v="stream" />
	</node>
	<node id="-830240" lat="63.4142999965" lon="9.44473333613">
		<tag k="name" v="Elvtjørna" />
		<tag k="natural" v="water" />
		<tag k="ssr:stedsnr" v="437774" />
	</node>
	<node id="-830235" lat="63.4872111138" lon="9.54918889226">
		<tag k="name" v="Sagholtjørna" />
		<tag k="natural" v="water" />
		<tag k="ssr:stedsnr" v="701184" />
	</node>
	<node id="-830234" lat="63.3752388883" lon="9.29293888105">
		<tag k="name" v="Lauvbudalsbekken" />
		<tag k="ssr:stedsnr" v="640939" />
		<tag k="waterway" v="stream" />
	</node>
	<node id="-829572" lat="63.4821472231" lon="9.35250277358">
		<tag k="name" v="Kvernavatnet" />
		<tag k="natural" v="water" />
		<tag k="ssr:stedsnr" v="559000" />
	</node>
	<node id="-830220" lat="63.5474555599" lon="9.39327499521">
		<tag k="name" v="Storvikbekken" />
		<tag k="ssr:stedsnr" v="397747" />
		<tag k="waterway" v="stream" />
	</node>
	<node id="-830213" lat="63.4190555584" lon="9.65120278041">
		<tag k="name" v="Kvernhusbekken" />
		<tag k="ssr:stedsnr" v="518105" />
		<tag k="waterway" v="stream" />
	</node>
	<node id="-830206" lat="63.4690611076" lon="9.5635694413">
		<tag k="alt_name" v="Remmasunda" />
		<tag k="name" v="Remmasundet" />
		<tag k="natural" v="strait" />
		<tag k="ssr:stedsnr" v="679975" />
	</node>
	<node id="-830204" lat="63.4162527818" lon="9.70836110179">
		<tag k="name" v="Granlitjørna" />
		<tag k="natural" v="water" />
		<tag k="ssr:stedsnr" v="437760" />
	</node>
	<node id="-829489" lat="63.3817583312" lon="9.52030556477">
		<tag k="name" v="Rotbekken" />
		<tag k="ssr:stedsnr" v="822133" />
		<tag k="waterway" v="stream" />
	</node>
	<node id="-830201" lat="63.3817027788" lon="9.34870832778">
		<tag k="name" v="Inner Klunger vikelva" />
		<tag k="ssr:stedsnr" v="94381" />
		<tag k="waterway" v="river" />
	</node>
	<node id="-830200" lat="63.5633916679" lon="9.52226389332">
		<tag k="name" v="Springarbekken" />
		<tag k="ssr:stedsnr" v="701178" />
		<tag k="waterway" v="stream" />
	</node>
	<node id="-830191" lat="63.47035" lon="9.40906389542">
		<tag k="name" v="Kverndalsbekken" />
		<tag k="ssr:stedsnr" v="176377" />
		<tag k="waterway" v="stream" />
	</node>
	<node id="-830185" lat="63.502900001" lon="9.45116665762">
		<tag k="name" v="Litlvatnet" />
		<tag k="natural" v="water" />
		<tag k="ssr:stedsnr" v="215033" />
	</node>
	<node id="-830180" lat="63.4943416692" lon="9.44816666925">
		<tag k="name" v="Toreholtjørna" />
		<tag k="natural" v="water" />
		<tag k="ssr:stedsnr" v="215032" />
	</node>
	<node id="-830176" lat="63.408761113" lon="9.45143610115">
		<tag k="alt_name" v="Krokstadsetervatnet;Krokstadseter-vatnet" />
		<tag k="name" v="Krokstadtjørna" />
		<tag k="natural" v="water" />
		<tag k="ssr:stedsnr" v="73767" />
	</node>
	<node id="-830157" lat="63.4288777763" lon="9.48813334164">
		<tag k="name" v="Seterbukta" />
		<tag k="natural" v="bay" />
		<tag k="ssr:stedsnr" v="579804" />
	</node>
	<node id="-830155" lat="63.3038361104" lon="9.26489721279">
		<tag k="alt_name" v="Knubbtjørna;Dyrbeinlivatn, øvre" />
		<tag k="fixme" v="multiple name tags, choose one and add the other to alt_name" />
		<tag k="name" v="Øvre Dyrbeinlivatn;Knubbtjønna" />
		<tag k="natural" v="water" />
		<tag k="ssr:stedsnr" v="741234" />
	</node>
	<node id="-830153" lat="63.433577775" lon="9.46040277988">
		<tag k="name" v="Seterneset" />
		<tag k="natural" v="cape" />
		<tag k="ssr:stedsnr" v="458282" />
	</node>
	<node id="-830152" lat="63.4834333308" lon="9.22090556044">
		<tag k="name" v="Stordalsvatnet" />
		<tag k="natural" v="water" />
		<tag k="ssr:stedsnr" v="802000" />
	</node>
	<node id="-829557" lat="63.3953833291" lon="9.35029722643">
		<tag k="alt_name" v="Lomtjørna" />
		<tag k="name" v="Longtjørna" />
		<tag k="natural" v="water" />
		<tag k="ssr:stedsnr" v="923865" />
	</node>
	<node id="-830131" lat="63.4072583346" lon="9.41951944679">
		<tag k="name" v="Sverrivatnet" />
		<tag k="natural" v="water" />
		<tag k="ssr:stedsnr" v="215504" />
		<tag k="water" v="lake" />
	</node>
	<node id="-830127" lat="63.4344638849" lon="9.38356110424">
		<tag k="alt_name" v="Lomstjørna" />
		<tag k="name" v="Lomtjørna" />
		<tag k="natural" v="water" />
		<tag k="ssr:stedsnr" v="862809" />
	</node>
	<node id="-830126" lat="63.4935833355" lon="9.54114167644">
		<tag k="name" v="Finnbekken" />
		<tag k="ssr:stedsnr" v="883192" />
		<tag k="waterway" v="stream" />
	</node>
	<node id="-830117" lat="63.5142805581" lon="9.46435556426">
		<tag k="name" v="Korsvatnet" />
		<tag k="natural" v="water" />
		<tag k="ssr:stedsnr" v="13173" />
	</node>
	<node id="-830105" lat="63.4594555601" lon="9.25271388506">
		<tag k="name" v="Rundvatnet" />
		<tag k="natural" v="water" />
		<tag k="ssr:stedsnr" v="740947" />
	</node>
	<node id="-830103" lat="63.4714305584" lon="9.52341945179">
		<tag k="name" v="Granholtjørna" />
		<tag k="natural" v="water" />
		<tag k="ssr:stedsnr" v="801980" />
	</node>
	<node id="-830101" lat="63.4617000005" lon="9.49559721324">
		<tag k="name" v="Nervatnet" />
		<tag k="natural" v="water" />
		<tag k="ssr:stedsnr" v="255965" />
	</node>
	<node id="-830096" lat="63.4387194488" lon="9.65170832903">
		<tag k="name" v="Ramnåstjørna" />
		<tag k="natural" v="water" />
		<tag k="ssr:stedsnr" v="862812" />
	</node>
	<node id="-830092" lat="63.3315416701" lon="9.43354999122">
		<tag k="name" v="Vuttudalselva" />
		<tag k="ssr:stedsnr" v="13174" />
		<tag k="waterway" v="river" />
	</node>
	<node id="-830089" lat="63.4653944444" lon="9.51466388447">
		<tag k="name" v="Skardtjørna" />
		<tag k="natural" v="water" />
		<tag k="ssr:stedsnr" v="679950" />
	</node>
	<node id="-830084" lat="63.4960638848" lon="9.51317221296">
		<tag k="name" v="Kvernavatnet" />
		<tag k="natural" v="water" />
		<tag k="ssr:stedsnr" v="33093" />
		<tag k="water" v="lake" />
	</node>
	<node id="-830082" lat="63.5020222231" lon="9.42847776849">
		<tag k="name" v="Løftabekken" />
		<tag k="ssr:stedsnr" v="336045" />
		<tag k="waterway" v="stream" />
	</node>
	<node id="-830079" lat="63.375566664" lon="9.55227499882">
		<tag k="name" v="Storfjelltjørna" />
		<tag k="natural" v="water" />
		<tag k="ssr:stedsnr" v="256774" />
	</node>
	<node id="-830075" lat="63.503441663" lon="9.52480000353">
		<tag k="name" v="Svartdalsbekken" />
		<tag k="ssr:stedsnr" v="33095" />
		<tag k="waterway" v="stream" />
	</node>
	<node id="-830068" lat="63.3630222263" lon="9.39904999097">
		<tag k="name" v="Skottstødalsbekken" />
		<tag k="ssr:stedsnr" v="458264" />
		<tag k="waterway" v="stream" />
	</node>
	<node id="-830067" lat="63.484227782" lon="9.4518916633">
		<tag k="name" v="Botnan" />
		<tag k="natural" v="water" />
		<tag k="ssr:stedsnr" v="215018" />
	</node>
	<node id="-830062" lat="63.514919444" lon="9.30821665839">
		<tag k="name" v="Skjerabekken" />
		<tag k="ssr:stedsnr" v="336506" />
		<tag k="waterway" v="stream" />
	</node>
	<node id="-830047" lat="63.556319444" lon="9.5566361029">
		<tag k="name" v="Nonsbekken" />
		<tag k="ssr:stedsnr" v="215500" />
		<tag k="waterway" v="stream" />
	</node>
	<node id="-830043" lat="63.4180222189" lon="9.58654722014">
		<tag k="name" v="Pinnsylfossen" />
		<tag k="natural" v="waterfall" />
		<tag k="ssr:stedsnr" v="33091" />
	</node>
	<node id="-830040" lat="63.4666333301" lon="9.39952222194">
		<tag k="name" v="Kverndalsbekken" />
		<tag k="ssr:stedsnr" v="883204" />
		<tag k="waterway" v="stream" />
	</node>
	<node id="-830037" lat="63.3390972198" lon="9.43735277509">
		<tag k="name" v="Jutulsbekken" />
		<tag k="ssr:stedsnr" v="519398" />
		<tag k="waterway" v="stream" />
	</node>
	<node id="-830022" lat="63.4742361077" lon="9.40189444553">
		<tag k="name" v="Lomstjørnbekken" />
		<tag k="ssr:stedsnr" v="822708" />
		<tag k="waterway" v="stream" />
	</node>
	<node id="-830020" lat="63.3184611098" lon="9.25706389346">
		<tag k="name" v="Berdalselva" />
		<tag k="ssr:stedsnr" v="437205" />
		<tag k="waterway" v="stream" />
	</node>
	<node id="-830008" lat="63.3687555591" lon="9.41740277762">
		<tag k="name" v="Trobekken" />
		<tag k="ssr:stedsnr" v="457397" />
		<tag k="waterway" v="stream" />
	</node>
	<node id="-830005" lat="63.4816944432" lon="9.46696943463">
		<tag k="name" v="Migaren" />
		<tag k="ssr:stedsnr" v="215015" />
		<tag k="waterway" v="stream" />
	</node>
	<node id="-830004" lat="63.3567250026" lon="9.40207223">
		<tag k="name" v="Neverdalsbekken" />
		<tag k="ssr:stedsnr" v="94352" />
		<tag k="waterway" v="stream" />
	</node>
	<node id="-830001" lat="63.3558305593" lon="9.43874721735">
		<tag k="name" v="Vollbekken" />
		<tag k="ssr:stedsnr" v="519400" />
		<tag k="waterway" v="stream" />
	</node>
	<node id="-829997" lat="63.5173527758" lon="9.38267776776">
		<tag k="name" v="Halsaelva" />
		<tag k="ssr:stedsnr" v="458247" />
		<tag k="waterway" v="river" />
	</node>
	<node id="-829968" lat="63.4867861136" lon="9.55507777038">
		<tag k="name" v="Herdalselva" />
		<tag k="ssr:stedsnr" v="215464" />
		<tag k="waterway" v="river" />
	</node>
	<node id="-829958" lat="63.4159916707" lon="9.52203611737">
		<tag k="name" v="Byrbekken" />
		<tag k="ssr:stedsnr" v="639135" />
		<tag k="waterway" v="stream" />
	</node>
	<node id="-829954" lat="63.3793583371" lon="9.45726944203">
		<tag k="name" v="Oksdalsbekken" />
		<tag k="ssr:stedsnr" v="397269" />
		<tag k="waterway" v="stream" />
	</node>
	<node id="-829931" lat="63.4150861084" lon="9.26688888641">
		<tag k="name" v="Øverelva" />
		<tag k="ssr:stedsnr" v="276198" />
		<tag k="waterway" v="river" />
	</node>
	<node id="-829925" lat="63.2992611129" lon="9.34677500828">
		<tag k="name" v="Litlegråurdtjørna" />
		<tag k="natural" v="water" />
		<tag k="ssr:stedsnr" v="802225" />
	</node>
	<node id="-829924" lat="63.4213444481" lon="9.55754999605">
		<tag k="name" v="Reitbekken" />
		<tag k="ssr:stedsnr" v="215470" />
		<tag k="waterway" v="stream" />
	</node>
	<node id="-829923" lat="63.4329972213" lon="9.65244165719">
		<tag k="name" v="Steinvasstjørna" />
		<tag k="natural" v="water" />
		<tag k="ssr:stedsnr" v="194770" />
	</node>
	<node id="-829913" lat="63.4958194467" lon="9.22708610608">
		<tag k="alt_name" v="Køysa" />
		<tag k="name" v="Kjøsvatnet" />
		<tag k="natural" v="water" />
		<tag k="ssr:stedsnr" v="315898" />
	</node>
	<node id="-829906" lat="63.3988472229" lon="9.60763611661">
		<tag k="name" v="Litlbekken" />
		<tag k="ssr:stedsnr" v="154072" />
		<tag k="waterway" v="stream" />
	</node>
	<node id="-831950" lat="63.4269805559" lon="9.42427500444">
		<tag k="name" v="Botnbekken" />
		<tag k="ssr:stedsnr" v="458558" />
		<tag k="waterway" v="stream" />
	</node>
	<node id="-829900" lat="63.5462277762" lon="9.3606444432">
		<tag k="name" v="Storhammarbekken" />
		<tag k="ssr:stedsnr" v="700696" />
		<tag k="waterway" v="stream" />
	</node>
	<node id="-829899" lat="63.4198638894" lon="9.28020554969">
		<tag k="alt_name" v="Tjørnskardslætt-tjørna" />
		<tag k="name" v="Tjørnskardslættjørna" />
		<tag k="natural" v="water" />
		<tag k="ssr:stedsnr" v="883179" />
	</node>
	<node id="-829896" lat="63.4124249985" lon="9.6785805506">
		<tag k="name" v="Granåsbekken" />
		<tag k="ssr:stedsnr" v="93012" />
		<tag k="waterway" v="stream" />
	</node>
	<node id="-831938" lat="63.3994305584" lon="9.59328611388">
		<tag k="name" v="Stokkbrubekken" />
		<tag k="ssr:stedsnr" v="700113" />
		<tag k="waterway" v="stream" />
	</node>
	<node id="-831931" lat="63.315777776" lon="9.46741944869">
		<tag k="name" v="Brekkholbekken" />
		<tag k="ssr:stedsnr" v="155308" />
		<tag k="waterway" v="stream" />
	</node>
	<node id="-831924" lat="63.3027194447" lon="9.44606666186">
		<tag k="name" v="Storslettbekken" />
		<tag k="ssr:stedsnr" v="438200" />
		<tag k="waterway" v="stream" />
	</node>
	<node id="-831923" lat="63.4608472183" lon="9.24700832899">
		<tag k="name" v="Damvatnet" />
		<tag k="natural" v="water" />
		<tag k="ssr:stedsnr" v="558976" />
	</node>
	<node id="-831918" lat="63.3999138934" lon="9.238577773">
		<tag k="alt_name" v="Tannvik-elva" />
		<tag k="name" v="Tannvikelva" />
		<tag k="ssr:stedsnr" v="376869" />
		<tag k="waterway" v="stream" />
	</node>
	<node id="-831913" lat="63.3761694487" lon="9.45175556159">
		<tag k="name" v="Jevikdalsbekken" />
		<tag k="ssr:stedsnr" v="518418" />
		<tag k="waterway" v="stream" />
	</node>
	<node id="-829861" lat="63.4762555566" lon="9.27947778643">
		<tag k="name" v="Sagbekken" />
		<tag k="ssr:stedsnr" v="639146" />
		<tag k="waterway" v="stream" />
	</node>
	<node id="-829614" lat="63.5147805523" lon="9.29150555634">
		<tag k="name" v="Skutbekken" />
		<tag k="ssr:stedsnr" v="639534" />
		<tag k="waterway" v="stream" />
	</node>
	<node id="-829858" lat="63.4142277759" lon="9.25471667596">
		<tag k="alt_name" v="Heggstadsætervatnet, nedre;Ner Heggstadsetervatnet" />
		<tag k="name" v="Nedre Heggstadsætervatnet" />
		<tag k="natural" v="water" />
		<tag k="ssr:stedsnr" v="194760" />
		<tag k="water" v="lake" />
	</node>
	<node id="-831905" lat="63.4740694464" lon="9.38750276866">
		<tag k="alt_name" v="Gortjørna" />
		<tag k="name" v="Gardviktjørna" />
		<tag k="natural" v="water" />
		<tag k="ssr:stedsnr" v="497981" />
	</node>
	<node id="-831904" lat="63.3026916672" lon="9.44633610974">
		<tag k="name" v="Grønlibekken" />
		<tag k="ssr:stedsnr" v="701424" />
		<tag k="waterway" v="stream" />
	</node>
	<node id="-831902" lat="63.3268166639" lon="9.24140555667">
		<tag k="name" v="Berdalsvatnet" />
		<tag k="natural" v="water" />
		<tag k="ssr:stedsnr" v="862192" />
		<tag k="water" v="lake" />
	</node>
	<node id="-829850" lat="63.4057194433" lon="9.59158055733">
		<tag k="name" v="Skjerakelitjørna" />
		<tag k="natural" v="water" />
		<tag k="ssr:stedsnr" v="578015" />
	</node>
	<node id="-831896" lat="63.3273555541" lon="9.24492223177">
		<tag k="name" v="Storneset" />
		<tag k="natural" v="cape" />
		<tag k="ssr:stedsnr" v="33849" />
	</node>
	<node id="-831894" lat="63.3938916665" lon="9.4712277773">
		<tag k="name" v="Raudberg-bekken" />
		<tag k="ssr:stedsnr" v="518419" />
		<tag k="waterway" v="stream" />
	</node>
	<node id="-829843" lat="63.4221277785" lon="9.6352916587">
		<tag k="name" v="Kleivtjørna" />
		<tag k="natural" v="water" />
		<tag k="ssr:stedsnr" v="639113" />
	</node>
	<node id="-829842" lat="63.4827694405" lon="9.38930555558">
		<tag k="alt_name" v="Nessavatnet" />
		<tag k="name" v="Nesavatnet" />
		<tag k="natural" v="water" />
		<tag k="ssr:stedsnr" v="73994" />
	</node>
	<node id="-831889" lat="63.3140888913" lon="9.51597221845">
		<tag k="name" v="Ytre Våddåa" />
		<tag k="ssr:stedsnr" v="498213" />
		<tag k="waterway" v="stream" />
	</node>
	<node id="-831888" lat="63.5405194465" lon="9.39240000688">
		<tag k="name" v="Råa" />
		<tag k="ssr:stedsnr" v="882648" />
		<tag k="waterway" v="stream" />
	</node>
	<node id="-829848" lat="63.4926861122" lon="9.21185277014">
		<tag k="name" v="Stordalsbekken" />
		<tag k="ssr:stedsnr" v="437476" />
		<tag k="waterway" v="stream" />
	</node>
	<node id="-831885" lat="63.4189972213" lon="9.52117221824">
		<tag k="name" v="Sandbekken" />
		<tag k="ssr:stedsnr" v="822127" />
		<tag k="waterway" v="stream" />
	</node>
	<node id="-829835" lat="63.3977777787" lon="9.44314999059">
		<tag k="name" v="Hestbergtjørna" />
		<tag k="natural" v="water" />
		<tag k="ssr:stedsnr" v="578425" />
	</node>
	<node id="-829833" lat="63.4745388856" lon="9.41863610985">
		<tag k="alt_name" v="Kvernvatnet" />
		<tag k="name" v="Kvernavatnet" />
		<tag k="natural" v="water" />
		<tag k="ssr:stedsnr" v="437977" />
	</node>
	<node id="-831878" lat="63.2921722204" lon="9.41723611044">
		<tag k="name" v="Nyslættdalsbekken" />
		<tag k="ssr:stedsnr" v="155295" />
		<tag k="waterway" v="stream" />
	</node>
	<node id="-829829" lat="63.307094447" lon="9.41056389799">
		<tag k="name" v="Damvassbekken" />
		<tag k="ssr:stedsnr" v="519355" />
		<tag k="waterway" v="stream" />
	</node>
	<node id="-831874" lat="63.3246833311" lon="9.25299722984">
		<tag k="name" v="Kvernbekkfossen" />
		<tag k="natural" v="waterfall" />
		<tag k="ssr:stedsnr" v="93769" />
	</node>
	<node id="-831872" lat="63.4989250027" lon="9.46844721247">
		<tag k="name" v="Stakkholtjørna" />
		<tag k="natural" v="water" />
		<tag k="ssr:stedsnr" v="639038" />
	</node>
	<node id="-829822" lat="63.4875944459" lon="9.5352416753">
		<tag k="name" v="Åstelva" />
		<tag k="ssr:stedsnr" v="315888" />
		<tag k="waterway" v="river" />
	</node>
	<node id="-831867" lat="63.406680554" lon="9.69618055728">
		<tag k="name" v="Stølsbekken" />
		<tag k="ssr:stedsnr" v="397133" />
		<tag k="waterway" v="stream" />
	</node>
	<node id="-831863" lat="63.4025916702" lon="9.56136389521">
		<tag k="name" v="Liatjørna" />
		<tag k="natural" v="water" />
		<tag k="ssr:stedsnr" v="376853" />
	</node>
	<node id="-831862" lat="63.3592666691" lon="9.48058333247">
		<tag k="name" v="Langvatnet" />
		<tag k="natural" v="water" />
		<tag k="ssr:stedsnr" v="134158" />
	</node>
	<node id="-829813" lat="63.5210222255" lon="9.50384166513">
		<tag k="name" v="Almvikneset" />
		<tag k="natural" v="cape" />
		<tag k="ssr:stedsnr" v="33042" />
	</node>
	<node id="-831852" lat="63.4654944471" lon="9.49852222227">
		<tag k="name" v="Hattvatnet" />
		<tag k="natural" v="water" />
		<tag k="ssr:stedsnr" v="458113" />
		<tag k="water" v="lake" />
	</node>
	<node id="-829803" lat="63.3230027816" lon="9.27601111241">
		<tag k="alt_name" v="Berdalssetertjørna" />
		<tag k="name" v="Berdalsætertjørna" />
		<tag k="natural" v="water" />
		<tag k="ssr:stedsnr" v="134213" />
	</node>
	<node id="-829799" lat="63.4908944459" lon="9.3367555513">
		<tag k="name" v="Fossdalstjørna" />
		<tag k="natural" v="water" />
		<tag k="ssr:stedsnr" v="822633" />
	</node>
	<node id="-831845" lat="63.4296583354" lon="9.5018361193">
		<tag k="name" v="Langneset" />
		<tag k="natural" v="cape" />
		<tag k="ssr:stedsnr" v="822119" />
	</node>
	<node id="-831842" lat="63.4813555539" lon="9.55137777461">
		<tag k="name" v="Gammelseterbekken" />
		<tag k="ssr:stedsnr" v="883512" />
		<tag k="waterway" v="stream" />
	</node>
	<node id="-829789" lat="63.481455558" lon="9.41391110988">
		<tag k="name" v="Lomtjørnbekken" />
		<tag k="ssr:stedsnr" v="518033" />
		<tag k="waterway" v="stream" />
	</node>
	<node id="-829787" lat="63.3219638905" lon="9.53180554754">
		<tag k="name" v="Våddåosen" />
		<tag k="natural" v="bay" />
		<tag k="ssr:stedsnr" v="134208" />
	</node>
	<node id="-829786" lat="63.4209250024" lon="9.22252223113">
		<tag k="name" v="Slurven" />
		<tag k="ssr:stedsnr" v="943178" />
		<tag k="waterway" v="stream" />
	</node>
	<node id="-829839" lat="63.4796722198" lon="9.34876111316">
		<tag k="name" v="Kvernabekken" />
		<tag k="ssr:stedsnr" v="700651" />
		<tag k="waterway" v="stream" />
	</node>
	<node id="-829784" lat="63.3740472199" lon="9.59324444312">
		<tag k="name" v="Djupdalstjørna" />
		<tag k="natural" v="water" />
		<tag k="ssr:stedsnr" v="74796" />
	</node>
	<node id="-829781" lat="63.4821833337" lon="9.38706667288">
		<tag k="name" v="Vass - stranda" />
		<tag k="natural" v="beach" />
		<tag k="ssr:stedsnr" v="943626" />
	</node>
	<node id="-829779" lat="63.4787388859" lon="9.5710777827">
		<tag k="name" v="Kamtjørna" />
		<tag k="natural" v="water" />
		<tag k="ssr:stedsnr" v="761473" />
	</node>
	<node id="-829770" lat="63.4328833318" lon="9.54732777887">
		<tag k="alt_name" v="Lamdalsheitjørnan" />
		<tag k="name" v="Lamdalstjørnane" />
		<tag k="natural" v="water" />
		<tag k="ssr:stedsnr" v="862781" />
	</node>
	<node id="-829769" lat="63.4677833325" lon="9.57572778427">
		<tag k="name" v="Holmneset" />
		<tag k="natural" v="cape" />
		<tag k="ssr:stedsnr" v="761466" />
	</node>
	<node id="-831808" lat="63.3200861077" lon="9.31446944858">
		<tag k="alt_name" v="Litletjørna" />
		<tag k="name" v="Litltjørna" />
		<tag k="natural" v="water" />
		<tag k="ssr:stedsnr" v="498216" />
	</node>
	<node id="-829758" lat="63.3552805532" lon="9.57125277242">
		<tag k="name" v="Kvernbekken" />
		<tag k="ssr:stedsnr" v="13139" />
		<tag k="waterway" v="stream" />
	</node>
	<node id="-829757" lat="63.4269333302" lon="9.63799722857">
		<tag k="name" v="Kleivtjørna" />
		<tag k="natural" v="water" />
		<tag k="ssr:stedsnr" v="497767" />
	</node>
	<node id="-829752" lat="63.4746361152" lon="9.56472778681">
		<tag k="name" v="Bubekken" />
		<tag k="ssr:stedsnr" v="761469" />
		<tag k="waterway" v="stream" />
	</node>
	<node id="-829749" lat="63.3317111077" lon="9.41957222704">
		<tag k="name" v="Medagsbekken" />
		<tag k="ssr:stedsnr" v="155382" />
		<tag k="waterway" v="stream" />
	</node>
	<node id="-829742" lat="63.410811112" lon="9.43279722452">
		<tag k="name" v="Langtjørna" />
		<tag k="natural" v="water" />
		<tag k="ssr:stedsnr" v="154511" />
	</node>
	<node id="-829737" lat="63.4856027805" lon="9.18181389127">
		<tag k="name" v="Lomvågen" />
		<tag k="natural" v="bay" />
		<tag k="ssr:stedsnr" v="700219" />
	</node>
	<node id="-831781" lat="63.5473916637" lon="9.50066943503">
		<tag k="name" v="Terningselva" />
		<tag k="ssr:stedsnr" v="377117" />
		<tag k="waterway" v="stream" />
	</node>
	<node id="-831774" lat="63.3507416704" lon="9.42305554787">
		<tag k="name" v="Fossli- bekken" />
		<tag k="ssr:stedsnr" v="883478" />
		<tag k="waterway" v="stream" />
	</node>
	<node id="-831772" lat="63.3753361074" lon="9.35656388402">
		<tag k="name" v="Storvikbekken" />
		<tag k="ssr:stedsnr" v="155285" />
		<tag k="waterway" v="stream" />
	</node>
	<node id="-829723" lat="63.3594666686" lon="9.42386667288">
		<tag k="name" v="Svarttjørna" />
		<tag k="natural" v="water" />
		<tag k="ssr:stedsnr" v="215434" />
	</node>
	<node id="-829719" lat="63.3533111142" lon="9.38708889251">
		<tag k="name" v="Småbrudals bekken" />
		<tag k="ssr:stedsnr" v="337295" />
		<tag k="waterway" v="stream" />
	</node>
	<node id="-829718" lat="63.3886555596" lon="9.32369167655">
		<tag k="name" v="Krobekken" />
		<tag k="ssr:stedsnr" v="33923" />
		<tag k="waterway" v="stream" />
	</node>
	<node id="-831765" lat="63.5089305512" lon="9.54409443919">
		<tag k="name" v="Stengvatnet" />
		<tag k="natural" v="water" />
		<tag k="ssr:stedsnr" v="94196" />
		<tag k="water" v="lake" />
	</node>
	<node id="-829713" lat="63.4620277741" lon="9.1942861155">
		<tag k="name" v="Rottemselva" />
		<tag k="ssr:stedsnr" v="700214" />
		<tag k="waterway" v="river" />
	</node>
	<node id="-829712" lat="63.451350001" lon="9.40028887984">
		<tag k="name" v="Kuvikbekken" />
		<tag k="ssr:stedsnr" v="397666" />
		<tag k="waterway" v="stream" />
	</node>
	<node id="-831758" lat="63.4895527752" lon="9.54181943739">
		<tag k="name" v="Seterbekken" />
		<tag k="ssr:stedsnr" v="579174" />
		<tag k="waterway" v="stream" />
	</node>
	<node id="-829705" lat="63.3346388857" lon="9.31253055069">
		<tag k="name" v="Gåstjørna" />
		<tag k="natural" v="water" />
		<tag k="ssr:stedsnr" v="275728" />
	</node>
	<node id="-831751" lat="63.4119638911" lon="9.57130554768">
		<tag k="name" v="Råbekken" />
		<tag k="ssr:stedsnr" v="700079" />
		<tag k="waterway" v="stream" />
	</node>
	<node id="-829702" lat="63.4778083363" lon="9.58084722666">
		<tag k="name" v="Damtjørna" />
		<tag k="natural" v="water" />
		<tag k="ssr:stedsnr" v="33477" />
	</node>
	<node id="-829699" lat="63.3818138917" lon="9.27087222155">
		<tag k="name" v="Seterbekken" />
		<tag k="ssr:stedsnr" v="215882" />
		<tag k="waterway" v="stream" />
	</node>
	<node id="-831745" lat="63.4150833347" lon="9.71634445183">
		<tag k="name" v="Stølstjørna" />
		<tag k="natural" v="water" />
		<tag k="ssr:stedsnr" v="397130" />
	</node>
	<node id="-829695" lat="63.3946472203" lon="9.32921111547">
		<tag k="name" v="Granholtjørna" />
		<tag k="natural" v="water" />
		<tag k="ssr:stedsnr" v="944926" />
	</node>
	<node id="-829694" lat="63.3950583317" lon="9.30461944883">
		<tag k="name" v="Gåstjørna" />
		<tag k="natural" v="water" />
		<tag k="ssr:stedsnr" v="944927" />
	</node>
	<node id="-831740" lat="63.3450305553" lon="9.24539167487">
		<tag k="name" v="Forratjørna" />
		<tag k="natural" v="water" />
		<tag k="ssr:stedsnr" v="94187" />
	</node>
	<node id="-829690" lat="63.3999500042" lon="9.32081667043">
		<tag k="name" v="Segltjørna" />
		<tag k="natural" v="water" />
		<tag k="ssr:stedsnr" v="761930" />
	</node>
	<node id="-829686" lat="63.4767305525" lon="9.27707221921">
		<tag k="name" v="Mellombekken" />
		<tag k="ssr:stedsnr" v="276155" />
		<tag k="waterway" v="stream" />
	</node>
	<node id="-831731" lat="63.3894666622" lon="9.34083889589">
		<tag k="name" v="Grønlibekken" />
		<tag k="ssr:stedsnr" v="376848" />
		<tag k="waterway" v="stream" />
	</node>
	<node id="-829682" lat="63.499116667" lon="9.41304999856">
		<tag k="name" v="Myrabekken" />
		<tag k="ssr:stedsnr" v="154038" />
		<tag k="waterway" v="stream" />
	</node>
	<node id="-829681" lat="63.4109083333" lon="9.55976388062">
		<tag k="name" v="Råholtjørna" />
		<tag k="natural" v="water" />
		<tag k="ssr:stedsnr" v="194743" />
	</node>
	<node id="-829680" lat="63.5509944427" lon="9.47889722624">
		<tag k="name" v="Litlvatnet" />
		<tag k="natural" v="water" />
		<tag k="ssr:stedsnr" v="316155" />
	</node>
	<node id="-829678" lat="63.4001666652" lon="9.31053332807">
		<tag k="name" v="Kveldsknubbtjørna" />
		<tag k="natural" v="water" />
		<tag k="ssr:stedsnr" v="397225" />
	</node>
	<node id="-831721" lat="63.3251805554" lon="9.24478054729">
		<tag k="name" v="Bukta" />
		<tag k="natural" v="bay" />
		<tag k="ssr:stedsnr" v="154850" />
	</node>
	<node id="-829669" lat="63.4684472234" lon="9.54174167282">
		<tag k="name" v="Remmaelva" />
		<tag k="ssr:stedsnr" v="397206" />
		<tag k="waterway" v="river" />
	</node>
	<node id="-829668" lat="63.3066916675" lon="9.34770277836">
		<tag k="alt_name" v="Gråurdtjørna, øvre" />
		<tag k="name" v="Øvre Gråurdtjørna" />
		<tag k="natural" v="water" />
		<tag k="ssr:stedsnr" v="377174" />
	</node>
	<node id="-829665" lat="63.3471750045" lon="9.41748332805">
		<tag k="name" v="Framgards-elva" />
		<tag k="ssr:stedsnr" v="579258" />
		<tag k="waterway" v="river" />
	</node>
	<node id="-831710" lat="63.415624996" lon="9.22726110326">
		<tag k="name" v="Vikaelva" />
		<tag k="ssr:stedsnr" v="579153" />
		<tag k="waterway" v="river" />
	</node>
	<node id="-831709" lat="63.4122249969" lon="9.5201722296">
		<tag k="name" v="Hyllbekken" />
		<tag k="ssr:stedsnr" v="397128" />
		<tag k="waterway" v="stream" />
	</node>
	<node id="-829650" lat="63.3777611077" lon="9.36716388886">
		<tag k="name" v="Villvangbekken" />
		<tag k="ssr:stedsnr" v="94272" />
		<tag k="waterway" v="stream" />
	</node>
	<node id="-829648" lat="63.4889194474" lon="9.18652777239">
		<tag k="name" v="Sundvatnet" />
		<tag k="natural" v="water" />
		<tag k="ssr:stedsnr" v="133400" />
	</node>
	<node id="-831692" lat="63.3392055538" lon="9.5368972141">
		<tag k="alt_name" v="Setergardsbukta" />
		<tag k="name" v="Sætergardsbukta" />
		<tag k="natural" v="bay" />
		<tag k="ssr:stedsnr" v="498199" />
	</node>
	<node id="-829643" lat="63.3150166702" lon="9.31463334187">
		<tag k="name" v="Vassbotnvatnet" />
		<tag k="natural" v="water" />
		<tag k="ssr:stedsnr" v="377176" />
	</node>
	<node id="-829630" lat="63.352527775" lon="9.47991112063">
		<tag k="name" v="Kaldvatnet" />
		<tag k="natural" v="water" />
		<tag k="ssr:stedsnr" v="316146" />
	</node>
	<node id="-829628" lat="63.5464222188" lon="9.45201389337">
		<tag k="name" v="Slavikbekken" />
		<tag k="ssr:stedsnr" v="33004" />
		<tag k="waterway" v="stream" />
	</node>
	<node id="-831675" lat="63.4379833304" lon="9.3369861096">
		<tag k="name" v="Berfjelltjørna" />
		<tag k="natural" v="water" />
		<tag k="ssr:stedsnr" v="315809" />
	</node>
	<node id="-831673" lat="63.4108888896" lon="9.61816110726">
		<tag k="name" v="Kregdalsbekken" />
		<tag k="ssr:stedsnr" v="458085" />
		<tag k="waterway" v="stream" />
	</node>
	<node id="-831672" lat="63.3515416625" lon="9.32679722168">
		<tag k="name" v="Gråtarbekken" />
		<tag k="ssr:stedsnr" v="700992" />
		<tag k="waterway" v="stream" />
	</node>
	<node id="-831671" lat="63.4597861077" lon="9.52146389373">
		<tag k="alt_name" v="Knubuldalstjørna" />
		<tag k="name" v="Knubbedalstjørna" />
		<tag k="natural" v="water" />
		<tag k="ssr:stedsnr" v="558951" />
	</node>
	<node id="-831662" lat="63.3423138911" lon="9.25621667207">
		<tag k="name" v="Storbekken" />
		<tag k="ssr:stedsnr" v="579161" />
		<tag k="waterway" v="stream" />
	</node>
	<node id="-831659" lat="63.4115361077" lon="9.42754721919">
		<tag k="name" v="Lomstjørna" />
		<tag k="natural" v="water" />
		<tag k="ssr:stedsnr" v="639468" />
	</node>
	<node id="-831655" lat="63.4483055523" lon="9.49081111471">
		<tag k="name" v="Tjørnbukta" />
		<tag k="natural" v="bay" />
		<tag k="ssr:stedsnr" v="154833" />
	</node>
	<node id="-831653" lat="63.4953833359" lon="9.49626943698">
		<tag k="name" v="Rørlitjørna" />
		<tag k="natural" v="water" />
		<tag k="ssr:stedsnr" v="700095" />
	</node>
	<node id="-829601" lat="63.4131944414" lon="9.25236945035">
		<tag k="name" v="Rotneset" />
		<tag k="natural" v="cape" />
		<tag k="ssr:stedsnr" v="700188" />
	</node>
	<node id="-831643" lat="63.4736277813" lon="9.50616112019">
		<tag k="name" v="Nertjørna" />
		<tag k="natural" v="water" />
		<tag k="ssr:stedsnr" v="862983" />
	</node>
	<node id="-829592" lat="63.453002778" lon="9.44085556111">
		<tag k="name" v="Kvernbekken" />
		<tag k="ssr:stedsnr" v="761003" />
		<tag k="waterway" v="stream" />
	</node>
	<node id="-831639" lat="63.3270166678" lon="9.24481389093">
		<tag k="name" v="Litlnesbukta" />
		<tag k="natural" v="bay" />
		<tag k="ssr:stedsnr" v="518826" />
	</node>
	<node id="-829590" lat="63.4877305582" lon="9.30654721608">
		<tag k="name" v="Springaren" />
		<tag k="ssr:stedsnr" v="517570" />
		<tag k="waterway" v="stream" />
	</node>
	<node id="-829589" lat="63.5146249987" lon="9.43767221276">
		<tag k="name" v="Norddalsvatnet" />
		<tag k="natural" v="water" />
		<tag k="ssr:stedsnr" v="680177" />
	</node>
	<node id="-829587" lat="63.3337027782" lon="9.29688333044">
		<tag k="alt_name" v="Setervatnet" />
		<tag k="name" v="Sætervatnet" />
		<tag k="natural" v="water" />
		<tag k="ssr:stedsnr" v="134189" />
	</node>
	<node id="-831634" lat="63.42375833" lon="9.33764167009">
		<tag k="name" v="Damtjørna" />
		<tag k="natural" v="water" />
		<tag k="ssr:stedsnr" v="12789" />
	</node>
	<node id="-829584" lat="63.4038361126" lon="9.45572222657">
		<tag k="alt_name" v="Litlslett-tjørna" />
		<tag k="fixme" v="multiple name tags, choose one and add the other to alt_name" />
		<tag k="name" v="Lykkjeslettjørna;Litlslættjørna" />
		<tag k="natural" v="water" />
		<tag k="ssr:stedsnr" v="619902" />
	</node>
	<node id="-831630" lat="63.4585472228" lon="9.20593610299">
		<tag k="name" v="Migaren" />
		<tag k="ssr:stedsnr" v="863495" />
		<tag k="waterway" v="stream" />
	</node>
	<node id="-829577" lat="63.393805557" lon="9.3916444436">
		<tag k="alt_name" v="Bjørnholtjørna" />
		<tag k="name" v="Bjørnholvatnet" />
		<tag k="natural" v="water" />
		<tag k="ssr:stedsnr" v="923870" />
	</node>
	<node id="-829804" lat="63.4286583346" lon="9.29784445358">
		<tag k="name" v="Svarttjørna" />
		<tag k="natural" v="water" />
		<tag k="ssr:stedsnr" v="761926" />
	</node>
	<node id="-831620" lat="63.3700694489" lon="9.57202778531">
		<tag k="name" v="Slåttalibekken" />
		<tag k="ssr:stedsnr" v="276476" />
		<tag k="waterway" v="stream" />
	</node>
	<node id="-831615" lat="63.4250138861" lon="9.50495276803">
		<tag k="name" v="Aurenessbekken" />
		<tag k="ssr:stedsnr" v="944789" />
		<tag k="waterway" v="stream" />
	</node>
	<node id="-829566" lat="63.4125111111" lon="9.46008611129">
		<tag k="alt_name" v="Gudbrandslettjørna;Gullbrandslætt-tjørna" />
		<tag k="name" v="Gullbrandslættjørna" />
		<tag k="natural" v="water" />
		<tag k="ssr:stedsnr" v="862771" />
	</node>
	<node id="-831605" lat="63.4493888914" lon="9.48722500085">
		<tag k="name" v="Tjørna" />
		<tag k="natural" v="water" />
		<tag k="ssr:stedsnr" v="376827" />
	</node>
	<node id="-831603" lat="63.4402361085" lon="9.48487777496">
		<tag k="name" v="Storvassbukta" />
		<tag k="natural" v="bay" />
		<tag k="ssr:stedsnr" v="944791" />
	</node>
	<node id="-829552" lat="63.508174996" lon="9.37687222771">
		<tag k="name" v="Halsavatnet" />
		<tag k="natural" v="water" />
		<tag k="ssr:stedsnr" v="256178" />
	</node>
	<node id="-829550" lat="63.4023944469" lon="9.36775833734">
		<tag k="alt_name" v="Storfjelltjørnen" />
		<tag k="name" v="Storfjelltjørna" />
		<tag k="natural" v="water" />
		<tag k="ssr:stedsnr" v="12845" />
	</node>
	<node id="-829544" lat="63.4624555561" lon="9.53525277404">
		<tag k="alt_name" v="Remmabekken" />
		<tag k="name" v="Remmadalsbekken" />
		<tag k="ssr:stedsnr" v="73962" />
		<tag k="waterway" v="stream" />
	</node>
	<node id="-831590" lat="63.3245500019" lon="9.24987500227">
		<tag k="name" v="Kvernbekken" />
		<tag k="ssr:stedsnr" v="458510" />
		<tag k="waterway" v="stream" />
	</node>
	<node id="-831584" lat="63.4346166653" lon="9.49749721347">
		<tag k="alt_name" v="Polltjørna" />
		<tag k="name" v="Pullvatnet" />
		<tag k="natural" v="water" />
		<tag k="ssr:stedsnr" v="12783" />
	</node>
	<node id="-831582" lat="63.4052444486" lon="9.27399723037">
		<tag k="alt_name" v="Heggstadsætervatnet, øvre;Øver Heggstadsetervatnet" />
		<tag k="name" v="Øvre Heggstadsætervatnet" />
		<tag k="natural" v="water" />
		<tag k="ssr:stedsnr" v="922739" />
		<tag k="water" v="lake" />
	</node>
	<node id="-829797" lat="63.4273277802" lon="9.42872777333">
		<tag k="name" v="Botntjørna" />
		<tag k="natural" v="water" />
		<tag k="ssr:stedsnr" v="497766" />
	</node>
	<node id="-831576" lat="63.3953805569" lon="9.56192222793">
		<tag k="name" v="Snilldalselva" />
		<tag k="ssr:stedsnr" v="740833" />
		<tag k="waterway" v="river" />
	</node>
	<node id="-829525" lat="63.4571472263" lon="9.24461389579">
		<tag k="name" v="Grøndalstjørna" />
		<tag k="natural" v="water" />
		<tag k="ssr:stedsnr" v="458150" />
	</node>
	<node id="-831571" lat="63.4096722203" lon="9.57497778272">
		<tag k="name" v="Råtjørna" />
		<tag k="natural" v="water" />
		<tag k="ssr:stedsnr" v="923790" />
	</node>
	<node id="-829521" lat="63.532822225" lon="9.38030000471">
		<tag k="name" v="Kvernaviktjørna" />
		<tag k="natural" v="water" />
		<tag k="ssr:stedsnr" v="94250" />
	</node>
	<node id="-831562" lat="63.5071527817" lon="9.4734888853">
		<tag k="name" v="Korsvasslitjørna" />
		<tag k="natural" v="water" />
		<tag k="ssr:stedsnr" v="943039" />
	</node>
	<node id="-831559" lat="63.4739666626" lon="9.24276944605">
		<tag k="name" v="Lomtjørna" />
		<tag k="natural" v="water" />
		<tag k="ssr:stedsnr" v="215293" />
	</node>
	<node id="-831553" lat="63.3852499977" lon="9.4846388886">
		<tag k="name" v="Løyftbekken" />
		<tag k="ssr:stedsnr" v="154822" />
		<tag k="waterway" v="stream" />
	</node>
	<node id="-831551" lat="63.3463083378" lon="9.25401944119">
		<tag k="name" v="Hommelbekken" />
		<tag k="ssr:stedsnr" v="337185" />
		<tag k="waterway" v="stream" />
	</node>
	<node id="-831548" lat="63.3856888869" lon="9.26838888541">
		<tag k="name" v="Sæterbekken" />
		<tag k="ssr:stedsnr" v="255854" />
		<tag k="waterway" v="stream" />
	</node>
	<node id="-831547" lat="63.535075002" lon="9.44258889122">
		<tag k="name" v="Ramvikbekken" />
		<tag k="ssr:stedsnr" v="700072" />
		<tag k="waterway" v="stream" />
	</node>
	<node id="-831544" lat="63.3193222214" lon="9.23272222003">
		<tag k="name" v="Hundtjønna" />
		<tag k="natural" v="water" />
		<tag k="ssr:stedsnr" v="519212" />
	</node>
	<node id="-829492" lat="63.4890833361" lon="9.31741110765">
		<tag k="name" v="Rattjørna" />
		<tag k="natural" v="water" />
		<tag k="ssr:stedsnr" v="517563" />
	</node>
	<node id="-831537" lat="63.401236114" lon="9.32023888713">
		<tag k="name" v="Laugartjørna" />
		<tag k="natural" v="water" />
		<tag k="ssr:stedsnr" v="458924" />
	</node>
	<node id="-829477" lat="63.3638611142" lon="9.56442777569">
		<tag k="name" v="Merkesbekken" />
		<tag k="ssr:stedsnr" v="700134" />
		<tag k="waterway" v="stream" />
	</node>
	<node id="-831521" lat="63.3640611087" lon="9.38244443832">
		<tag k="name" v="Skårillelva" />
		<tag k="ssr:stedsnr" v="51105" />
		<tag k="waterway" v="stream" />
	</node>
	<node id="-829469" lat="63.5308111147" lon="9.49244722158">
		<tag k="name" v="Halvarneset" />
		<tag k="natural" v="cape" />
		<tag k="ssr:stedsnr" v="639042" />
	</node>
	<node id="-831514" lat="63.5011083346" lon="9.19968056466">
		<tag k="name" v="Stordalselva" />
		<tag k="ssr:stedsnr" v="882169" />
		<tag k="waterway" v="river" />
	</node>
	<node id="-831513" lat="63.5482694449" lon="9.42329721602">
		<tag k="name" v="Sundabekken" />
		<tag k="ssr:stedsnr" v="397078" />
		<tag k="waterway" v="stream" />
	</node>
	<node id="-831511" lat="63.4222111145" lon="9.60438054707">
		<tag k="name" v="Merkesbekken" />
		<tag k="ssr:stedsnr" v="822071" />
		<tag k="waterway" v="stream" />
	</node>
	<node id="-829785" lat="63.3921472204" lon="9.29411112001">
		<tag k="name" v="Indreslibekken" />
		<tag k="ssr:stedsnr" v="33931" />
		<tag k="waterway" v="stream" />
	</node>
	<node id="-829459" lat="63.3440638928" lon="9.28676110423">
		<tag k="alt_name" v="Vennaelva" />
		<tag k="name" v="Venelva" />
		<tag k="ssr:stedsnr" v="134172" />
		<tag k="waterway" v="stream" />
	</node>
	<node id="-831505" lat="63.4527777799" lon="9.46750833848">
		<tag k="name" v="Litlbulitjørna" />
		<tag k="natural" v="water" />
		<tag k="ssr:stedsnr" v="822522" />
	</node>
	<node id="-831501" lat="63.5031388887" lon="9.53430277154">
		<tag k="name" v="Holmtjørna" />
		<tag k="natural" v="water" />
		<tag k="ssr:stedsnr" v="822062" />
	</node>
	<node id="-831500" lat="63.5159777803" lon="9.34706944708">
		<tag k="name" v="Litlvatnet" />
		<tag k="natural" v="water" />
		<tag k="ssr:stedsnr" v="498185" />
	</node>
	<node id="-829448" lat="63.4069305553" lon="9.63136666347">
		<tag k="name" v="Svinhaugtjørna" />
		<tag k="natural" v="water" />
		<tag k="ssr:stedsnr" v="376875" />
	</node>
	<node id="-829446" lat="63.4783083344" lon="9.27887777217">
		<tag k="name" v="Ytterbekken" />
		<tag k="ssr:stedsnr" v="943143" />
		<tag k="waterway" v="stream" />
	</node>
	<node id="-831493" lat="63.3320249968" lon="9.29516111625">
		<tag k="name" v="Vassendan" />
		<tag k="natural" v="water" />
		<tag k="ssr:stedsnr" v="33782" />
		<tag k="water" v="lake" />
	</node>
	<node id="-829441" lat="63.4158916706" lon="9.66971666428">
		<tag k="alt_name" v="Larsslettjørna;Larsslætt-tjørna" />
		<tag k="name" v="Larsslættjørna" />
		<tag k="natural" v="water" />
		<tag k="ssr:stedsnr" v="862762" />
	</node>
</osm>
