<?xml version="1.0" encoding="UTF-8"?>
<osm generator="osmapis" version="0.6">
	<node id="-824366" lat="63.3580250007" lon="9.38058056264">
		<tag k="name" v="Lykkja" />
		<tag k="place" v="locality" />
		<tag k="ssr:stedsnr" v="519342" />
	</node>
	<node id="-825854" lat="63.3953888908" lon="9.59626110713">
		<tag k="historic" v="shieling" />
		<tag k="name" v="Vollen" />
		<tag k="place" v="locality" />
		<tag k="ssr:stedsnr" v="882072" />
	</node>
	<node id="-824315" lat="63.5293777776" lon="9.32104721715">
		<tag k="name" v="Hestholet" />
		<tag k="place" v="locality" />
		<tag k="ssr:stedsnr" v="458602" />
	</node>
	<node id="-825337" lat="63.4298777753" lon="9.26492777727">
		<tag k="name" v="Stormyra" />
		<tag k="natural" v="wetland" />
		<tag k="ssr:stedsnr" v="33176" />
	</node>
	<node id="-826207" lat="63.4848833378" lon="9.41968055516">
		<tag k="name" v="Erikslættet" />
		<tag k="place" v="locality" />
		<tag k="ssr:stedsnr" v="822024" />
	</node>
	<node id="-825333" lat="63.4407638874" lon="9.3196388952">
		<tag k="name" v="Bugamyra" />
		<tag k="natural" v="wetland" />
		<tag k="ssr:stedsnr" v="944201" />
	</node>
	<node id="-825329" lat="63.4302722261" lon="9.28739722976">
		<tag k="name" v="Høgmyran" />
		<tag k="natural" v="wetland" />
		<tag k="ssr:stedsnr" v="519905" />
	</node>
	<node id="-824815" lat="63.5004444452" lon="9.42803611675">
		<tag k="name" v="Myran" />
		<tag k="natural" v="wetland" />
		<tag k="ssr:stedsnr" v="336043" />
	</node>
	<node id="-825838" lat="63.4223888847" lon="9.53863332769">
		<tag k="name" v="Mjølkholmyra" />
		<tag k="natural" v="wetland" />
		<tag k="ssr:stedsnr" v="519154" />
	</node>
	<node id="-824809" lat="63.3622138896" lon="9.37222499882">
		<tag k="name" v="Storrønningan" />
		<tag k="place" v="locality" />
		<tag k="ssr:stedsnr" v="94361" />
	</node>
	<node id="-826341" lat="63.3535277747" lon="9.39727221911">
		<tag k="name" v="Neverdalsnesa" />
		<tag k="place" v="locality" />
		<tag k="ssr:stedsnr" v="761332" />
	</node>
	<node id="-825315" lat="63.393341667" lon="9.56839443957">
		<tag k="name" v="Antonrommet" />
		<tag k="place" v="locality" />
		<tag k="ssr:stedsnr" v="215099" />
	</node>
	<node id="-824802" lat="63.5148416704" lon="9.32737221965">
		<tag k="historic" v="shieling" />
		<tag k="name" v="Setra" />
		<tag k="place" v="locality" />
		<tag k="ssr:stedsnr" v="93487" />
	</node>
	<node id="-825821" lat="63.3514999976" lon="9.4001638951">
		<tag k="name" v="Myran" />
		<tag k="natural" v="wetland" />
		<tag k="ssr:stedsnr" v="883357" />
	</node>
	<node id="-824796" lat="63.3502055529" lon="9.56877222118">
		<tag k="name" v="Revurda" />
		<tag k="natural" v="scree" />
		<tag k="ssr:stedsnr" v="154112" />
	</node>
	<node id="-824794" lat="63.5259888872" lon="9.41476111479">
		<tag k="name" v="Regnholet" />
		<tag k="place" v="locality" />
		<tag k="ssr:stedsnr" v="761064" />
	</node>
	<node id="-825813" lat="63.3204194418" lon="9.24906111998">
		<tag k="name" v="Myran" />
		<tag k="place" v="locality" />
		<tag k="ssr:stedsnr" v="154274" />
	</node>
	<node id="-824272" lat="63.4056583335" lon="9.50395554774">
		<tag k="name" v="Djupmyra" />
		<tag k="natural" v="wetland" />
		<tag k="ssr:stedsnr" v="700146" />
	</node>
	<node id="-824782" lat="63.3487222267" lon="9.32468889067">
		<tag k="name" v="Kjølåmyra" />
		<tag k="natural" v="wetland" />
		<tag k="ssr:stedsnr" v="761996" />
	</node>
	<node id="-824141" lat="63.3245527752" lon="9.24237499472">
		<tag k="name" v="Elvaøran" />
		<tag k="place" v="locality" />
		<tag k="ssr:stedsnr" v="336822" />
	</node>
	<node id="-825288" lat="63.4328194464" lon="9.26596111694">
		<tag k="name" v="Vollan" />
		<tag k="place" v="locality" />
		<tag k="ssr:stedsnr" v="154193" />
	</node>
	<node id="-826309" lat="63.5515027769" lon="9.49464999315">
		<tag k="landuse" v="peat_cutting" />
		<tag k="name" v="Torvuttak" />
		<tag k="ssr:stedsnr" v="943038" />
	</node>
	<node id="-826307" lat="63.3544333294" lon="9.34758333128">
		<tag k="historic" v="shieling" />
		<tag k="name" v="Buvollen" />
		<tag k="place" v="locality" />
		<tag k="ssr:stedsnr" v="944367" />
	</node>
	<node id="-824257" lat="63.4056444429" lon="9.48753610291">
		<tag k="name" v="Bjørnurda" />
		<tag k="natural" v="scree" />
		<tag k="ssr:stedsnr" v="700147" />
	</node>
	<node id="-826303" lat="63.5376555581" lon="9.33593055809">
		<tag k="name" v="Bølmyra" />
		<tag k="natural" v="wetland" />
		<tag k="ssr:stedsnr" v="397552" />
	</node>
	<node id="-824565" lat="63.3361416661" lon="9.53063055507">
		<tag k="name" v="Snilldalsslættet" />
		<tag k="natural" v="wetland" />
		<tag k="ssr:stedsnr" v="883139" />
	</node>
	<node id="-824249" lat="63.3966444473" lon="9.50249444304">
		<tag k="name" v="Bordøran" />
		<tag k="place" v="locality" />
		<tag k="ssr:stedsnr" v="397175" />
	</node>
	<node id="-825271" lat="63.3329888888" lon="9.29925278143">
		<tag k="name" v="Øyan" />
		<tag k="place" v="locality" />
		<tag k="ssr:stedsnr" v="458768" />
	</node>
	<node id="-824758" lat="63.3636805549" lon="9.42747222524">
		<tag k="historic" v="shieling" />
		<tag k="name" v="Sandviksetra" />
		<tag k="place" v="locality" />
		<tag k="ssr:stedsnr" v="457398" />
	</node>
	<node id="-825269" lat="63.510897222" lon="9.39271666333">
		<tag k="name" v="Vargurda" />
		<tag k="natural" v="scree" />
		<tag k="ssr:stedsnr" v="944215" />
	</node>
	<node id="-824734" lat="63.4994111079" lon="9.45393610957">
		<tag k="name" v="Damslættet" />
		<tag k="place" v="locality" />
		<tag k="ssr:stedsnr" v="93031" />
	</node>
	<node id="-825773" lat="63.4557638888" lon="9.29040556449">
		<tag k="name" v="Haugen" />
		<tag k="place" v="locality" />
		<tag k="ssr:stedsnr" v="761251" />
	</node>
	<node id="-825260" lat="63.3261638865" lon="9.31097221823">
		<tag k="historic" v="shieling" />
		<tag k="name" v="Kleivsetra" />
		<tag k="place" v="locality" />
		<tag k="ssr:stedsnr" v="397809" />
	</node>
	<node id="-825771" lat="63.3223666683" lon="9.2413138924">
		<tag k="name" v="Øran" />
		<tag k="place" v="locality" />
		<tag k="ssr:stedsnr" v="822870" />
	</node>
	<node id="-824234" lat="63.3312944408" lon="9.23190278146">
		<tag k="name" v="Øran" />
		<tag k="place" v="locality" />
		<tag k="ssr:stedsnr" v="215841" />
	</node>
	<node id="-824744" lat="63.3871416695" lon="9.57419721615">
		<tag k="name" v="Hestmyra" />
		<tag k="natural" v="wetland" />
		<tag k="ssr:stedsnr" v="154104" />
	</node>
	<node id="-825744" lat="63.3196250003" lon="9.24935834303">
		<tag k="name" v="Skogrølen" />
		<tag k="place" v="locality" />
		<tag k="ssr:stedsnr" v="458854" />
	</node>
	<node id="-826277" lat="63.549249996" lon="9.42743888828">
		<tag k="name" v="Sundet" />
		<tag k="place" v="locality" />
		<tag k="ssr:stedsnr" v="822068" />
	</node>
	<node id="-825764" lat="63.3945611123" lon="9.59387500463">
		<tag k="name" v="Ausetkleiva" />
		<tag k="place" v="locality" />
		<tag k="ssr:stedsnr" v="882074" />
	</node>
	<node id="-826153" lat="63.4293749963" lon="9.45275832888">
		<tag k="name" v="Foss-slætt-myra" />
		<tag k="natural" v="wetland" />
		<tag k="ssr:stedsnr" v="397529" />
	</node>
	<node id="-825246" lat="63.5079638912" lon="9.31451944345">
		<tag k="name" v="Jutulsteinan" />
		<tag k="natural" v="stone" />
		<tag k="ssr:stedsnr" v="761621" />
	</node>
	<node id="-826267" lat="63.3275777751" lon="9.30614166632">
		<tag k="name" v="Skeftmyra" />
		<tag k="natural" v="wetland" />
		<tag k="ssr:stedsnr" v="93715" />
	</node>
	<node id="-825753" lat="63.3202833307" lon="9.24653889166">
		<tag k="name" v="Rabban" />
		<tag k="place" v="locality" />
		<tag k="ssr:stedsnr" v="458856" />
	</node>
	<node id="-824726" lat="63.5426388848" lon="9.44828611835">
		<tag k="name" v="Gammelgården" />
		<tag k="place" v="locality" />
		<tag k="ssr:stedsnr" v="215002" />
	</node>
	<node id="-825748" lat="63.3938527776" lon="9.25091389564">
		<tag k="name" v="Spondalsmyran" />
		<tag k="natural" v="wetland" />
		<tag k="ssr:stedsnr" v="801819" />
	</node>
	<node id="-826259" lat="63.5397166676" lon="9.44586110383">
		<tag k="name" v="Slavikurda" />
		<tag k="natural" v="scree" />
		<tag k="ssr:stedsnr" v="944802" />
	</node>
	<node id="-824210" lat="63.4080166628" lon="9.45762221926">
		<tag k="historic" v="shieling" />
		<tag k="name" v="Blautsetra" />
		<tag k="place" v="locality" />
		<tag k="ssr:stedsnr" v="93380" />
	</node>
	<node id="-825233" lat="63.3541250015" lon="9.33870278036">
		<tag k="name" v="Tiurleiken" />
		<tag k="place" v="locality" />
		<tag k="ssr:stedsnr" v="336997" />
	</node>
	<node id="-824208" lat="63.3526472192" lon="9.41908888641">
		<tag k="name" v="Almlimyran" />
		<tag k="natural" v="wetland" />
		<tag k="ssr:stedsnr" v="154453" />
	</node>
	<node id="-824714" lat="63.328947218" lon="9.2546361112">
		<tag k="name" v="Eshaugmyran" />
		<tag k="natural" v="wetland" />
		<tag k="ssr:stedsnr" v="882732" />
	</node>
	<node id="-825223" lat="63.425413885" lon="9.51609166566">
		<tag k="name" v="Glashyllhalsen" />
		<tag k="place" v="locality" />
		<tag k="ssr:stedsnr" v="578099" />
	</node>
	<node id="-825153" lat="63.3442861148" lon="9.38119445082">
		<tag k="name" v="Skårillsvartholet" />
		<tag k="place" v="locality" />
		<tag k="ssr:stedsnr" v="94409" />
	</node>
	<node id="-825723" lat="63.4775944467" lon="9.38703054918">
		<tag k="name" v="Nessamyran" />
		<tag k="natural" v="wetland" />
		<tag k="ssr:stedsnr" v="761673" />
	</node>
	<node id="-824696" lat="63.5215305555" lon="9.29089166476">
		<tag k="name" v="Vikan" />
		<tag k="place" v="locality" />
		<tag k="ssr:stedsnr" v="93459" />
	</node>
	<node id="-825577" lat="63.3788583363" lon="9.2747111137">
		<tag k="name" v="Grønmyra" />
		<tag k="natural" v="wetland" />
		<tag k="ssr:stedsnr" v="943843" />
	</node>
	<node id="-824126" lat="63.5512305597" lon="9.36661110844">
		<tag k="name" v="Aune" />
		<tag k="place" v="locality" />
		<tag k="ssr:stedsnr" v="458251" />
	</node>
	<node id="-824690" lat="63.4788027783" lon="9.46761943831">
		<tag k="name" v="Løyfta" />
		<tag k="place" v="locality" />
		<tag k="ssr:stedsnr" v="336015" />
	</node>
	<node id="-824687" lat="63.5280388845" lon="9.34303610219">
		<tag k="name" v="Fremmermyra" />
		<tag k="natural" v="wetland" />
		<tag k="ssr:stedsnr" v="518529" />
	</node>
	<node id="-825709" lat="63.4892666685" lon="9.24909999733">
		<tag k="name" v="Sørmarka" />
		<tag k="place" v="locality" />
		<tag k="ssr:stedsnr" v="194870" />
	</node>
	<node id="-826214" lat="63.4244305545" lon="9.62422221717">
		<tag k="name" v="Kleiva" />
		<tag k="place" v="locality" />
		<tag k="ssr:stedsnr" v="397085" />
	</node>
	<node id="-825186" lat="63.2977861079" lon="9.49162777125">
		<tag k="name" v="Omnfjelløya" />
		<tag k="natural" v="wetland" />
		<tag k="ssr:stedsnr" v="33151" />
	</node>
	<node id="-825696" lat="63.3580833327" lon="9.2980694454">
		<tag k="landuse" v="meadow" />
		<tag k="name" v="Plassen" />
		<tag k="ssr:stedsnr" v="457959" />
	</node>
	<node id="-824671" lat="63.4208583372" lon="9.58983333453">
		<tag k="name" v="Byresenget" />
		<tag k="place" v="locality" />
		<tag k="ssr:stedsnr" v="336013" />
	</node>
	<node id="-825362" lat="63.3074555514" lon="9.42826666319">
		<tag k="name" v="Åslættet" />
		<tag k="place" v="locality" />
		<tag k="ssr:stedsnr" v="397385" />
	</node>
	<node id="-826710" lat="63.3214502449" lon="9.22942201136">
		<tag k="name" v="Stormyra" />
		<tag k="natural" v="wetland" />
		<tag k="ssr:stedsnr" v="30888" />
	</node>
	<node id="-825685" lat="63.4886583325" lon="9.39523055237">
		<tag k="alt_name" v="Nessamyran" />
		<tag k="name" v="Nesamyran" />
		<tag k="natural" v="wetland" />
		<tag k="ssr:stedsnr" v="497884" />
	</node>
	<node id="-825683" lat="63.3810194403" lon="9.32785277555">
		<tag k="name" v="Kutrøa" />
		<tag k="place" v="locality" />
		<tag k="ssr:stedsnr" v="457965" />
	</node>
	<node id="-825682" lat="63.5262972229" lon="9.38561111388">
		<tag k="name" v="Karrevika" />
		<tag k="place" v="locality" />
		<tag k="ssr:stedsnr" v="33235" />
	</node>
	<node id="-824656" lat="63.3102055575" lon="9.45230554663">
		<tag k="name" v="Grova" />
		<tag k="place" v="locality" />
		<tag k="ssr:stedsnr" v="397245" />
	</node>
	<node id="-824655" lat="63.5170638876" lon="9.27646388848">
		<tag k="name" v="Stormyra" />
		<tag k="natural" v="wetland" />
		<tag k="ssr:stedsnr" v="517194" />
	</node>
	<node id="-824142" lat="63.3531555538" lon="9.39160555637">
		<tag k="name" v="Høgbrumana" />
		<tag k="place" v="locality" />
		<tag k="ssr:stedsnr" v="519299" />
	</node>
	<node id="-826189" lat="63.3328583311" lon="9.30797777534">
		<tag k="name" v="Latræva" />
		<tag k="place" v="locality" />
		<tag k="ssr:stedsnr" v="33776" />
	</node>
	<node id="-825076" lat="63.3686416693" lon="9.59277777097">
		<tag k="name" v="Rasmusenget" />
		<tag k="natural" v="wetland" />
		<tag k="ssr:stedsnr" v="93080" />
	</node>
	<node id="-826697" lat="63.4746555549" lon="9.42450554974">
		<tag k="name" v="Kvernvassurda" />
		<tag k="natural" v="scree" />
		<tag k="ssr:stedsnr" v="639025" />
	</node>
	<node id="-825569" lat="63.4111666646" lon="9.6436249952">
		<tag k="name" v="Storgjelet" />
		<tag k="place" v="locality" />
		<tag k="ssr:stedsnr" v="457106" />
	</node>
	<node id="-824131" lat="63.5254055574" lon="9.3231527827">
		<tag k="name" v="Fætta" />
		<tag k="place" v="locality" />
		<tag k="ssr:stedsnr" v="458252" />
	</node>
	<node id="-825154" lat="63.3984944482" lon="9.50712222136">
		<tag k="name" v="Staurøra" />
		<tag k="place" v="locality" />
		<tag k="ssr:stedsnr" v="761145" />
	</node>
	<node id="-825665" lat="63.3217361132" lon="9.2595333292">
		<tag k="name" v="Stigmyra" />
		<tag k="natural" v="wetland" />
		<tag k="ssr:stedsnr" v="33230" />
	</node>
	<node id="-824638" lat="63.5237250012" lon="9.27429443487">
		<tag k="name" v="Stordalsmyra" />
		<tag k="natural" v="wetland" />
		<tag k="ssr:stedsnr" v="943230" />
	</node>
	<node id="-824970" lat="63.4519388881" lon="9.49778888901">
		<tag k="name" v="Storlimyra" />
		<tag k="natural" v="wetland" />
		<tag k="ssr:stedsnr" v="518098" />
	</node>
	<node id="-825144" lat="63.421177774" lon="9.57177499282">
		<tag k="historic" v="shieling" />
		<tag k="name" v="Bårdsvollen" />
		<tag k="place" v="locality" />
		<tag k="ssr:stedsnr" v="336078" />
	</node>
	<node id="-826678" lat="63.4154888925" lon="9.60965000592">
		<tag k="name" v="Jørnengmarka" />
		<tag k="place" v="locality" />
		<tag k="ssr:stedsnr" v="458129" />
	</node>
	<node id="-825140" lat="63.3297305556" lon="9.23542499034">
		<tag k="name" v="Rølen" />
		<tag k="place" v="locality" />
		<tag k="ssr:stedsnr" v="579824" />
	</node>
	<node id="-825650" lat="63.528913887" lon="9.3406361172">
		<tag k="historic" v="shieling" />
		<tag k="name" v="Melkvollen" />
		<tag k="place" v="locality" />
		<tag k="ssr:stedsnr" v="882487" />
	</node>
	<node id="-826161" lat="63.3325805567" lon="9.31256665778">
		<tag k="name" v="Røte" />
		<tag k="natural" v="wetland" />
		<tag k="ssr:stedsnr" v="93696" />
	</node>
	<node id="-825135" lat="63.393538889" lon="9.59195834213">
		<tag k="name" v="Trøa" />
		<tag k="place" v="locality" />
		<tag k="ssr:stedsnr" v="215071" />
	</node>
	<node id="-824622" lat="63.475683333" lon="9.21148888221">
		<tag k="name" v="Engslættet" />
		<tag k="place" v="locality" />
		<tag k="ssr:stedsnr" v="943219" />
	</node>
	<node id="-825309" lat="63.3592638926" lon="9.38208611866">
		<tag k="name" v="Tømmeråstrøa" />
		<tag k="place" v="locality" />
		<tag k="ssr:stedsnr" v="397363" />
	</node>
	<node id="-826155" lat="63.478397223" lon="9.33514167468">
		<tag k="historic" v="shieling" />
		<tag k="name" v="Storvikvollen" />
		<tag k="place" v="locality" />
		<tag k="ssr:stedsnr" v="882548" />
	</node>
	<node id="-825129" lat="63.4853638888" lon="9.51194166708">
		<tag k="name" v="Åststranda" />
		<tag k="place" v="locality" />
		<tag k="ssr:stedsnr" v="215074" />
	</node>
	<node id="-826664" lat="63.3246222193" lon="9.23869445209">
		<tag k="name" v="Øyan" />
		<tag k="place" v="locality" />
		<tag k="ssr:stedsnr" v="33851" />
	</node>
	<node id="-824103" lat="63.5123777755" lon="9.45553333204">
		<tag k="historic" v="shieling" />
		<tag k="name" v="Gammelsetra" />
		<tag k="place" v="locality" />
		<tag k="ssr:stedsnr" v="518054" />
	</node>
	<node id="-824614" lat="63.5274472243" lon="9.45498055647">
		<tag k="historic" v="shieling" />
		<tag k="name" v="Setra" />
		<tag k="place" v="locality" />
		<tag k="ssr:stedsnr" v="761056" />
	</node>
	<node id="-826149" lat="63.3744027778" lon="9.45796944651">
		<tag k="name" v="Aunslættet" />
		<tag k="place" v="locality" />
		<tag k="ssr:stedsnr" v="822473" />
	</node>
	<node id="-825634" lat="63.5180611069" lon="9.237797223">
		<tag k="name" v="Stranda" />
		<tag k="place" v="locality" />
		<tag k="ssr:stedsnr" v="93180" />
	</node>
	<node id="-826145" lat="63.4117805559" lon="9.59364165779">
		<tag k="name" v="Toreslættet" />
		<tag k="place" v="locality" />
		<tag k="ssr:stedsnr" v="700022" />
	</node>
	<node id="-826654" lat="63.3918777823" lon="9.56679721497">
		<tag k="name" v="Slættet" />
		<tag k="place" v="locality" />
		<tag k="ssr:stedsnr" v="700111" />
	</node>
	<node id="-825279" lat="63.321236115" lon="9.25000000717">
		<tag k="name" v="Bakkan" />
		<tag k="place" v="locality" />
		<tag k="ssr:stedsnr" v="944212" />
	</node>
	<node id="-825112" lat="63.4145805531" lon="9.52423610246">
		<tag k="historic" v="shieling" />
		<tag k="name" v="Byrvollan" />
		<tag k="place" v="locality" />
		<tag k="ssr:stedsnr" v="33134" />
	</node>
	<node id="-824599" lat="63.3631027761" lon="9.5887750055">
		<tag k="name" v="Holet" />
		<tag k="place" v="locality" />
		<tag k="ssr:stedsnr" v="578014" />
	</node>
	<node id="-825902" lat="63.3000305579" lon="9.42381943775">
		<tag k="name" v="Meslættet" />
		<tag k="place" v="locality" />
		<tag k="ssr:stedsnr" v="154302" />
	</node>
	<node id="-825023" lat="63.3468416669" lon="9.26383610358">
		<tag k="name" v="Stranda" />
		<tag k="place" v="locality" />
		<tag k="ssr:stedsnr" v="883210" />
	</node>
	<node id="-826640" lat="63.322308336" lon="9.32155278273">
		<tag k="name" v="Rolimyran" />
		<tag k="natural" v="wetland" />
		<tag k="ssr:stedsnr" v="215814" />
	</node>
	<node id="-824589" lat="63.5138361096" lon="9.2888361091">
		<tag k="name" v="Vingmyran" />
		<tag k="natural" v="wetland" />
		<tag k="ssr:stedsnr" v="518494" />
	</node>
	<node id="-824076" lat="63.5020333363" lon="9.37479443825">
		<tag k="historic" v="shieling" />
		<tag k="name" v="Halsasetra" />
		<tag k="place" v="locality" />
		<tag k="ssr:stedsnr" v="700677" />
	</node>
	<node id="-826635" lat="63.3912722267" lon="9.58996389845">
		<tag k="name" v="Kleiva" />
		<tag k="place" v="locality" />
		<tag k="ssr:stedsnr" v="700107" />
	</node>
	<node id="-824070" lat="63.5091833378" lon="9.22808889428">
		<tag k="name" v="Storbanken" />
		<tag k="place" v="locality" />
		<tag k="ssr:stedsnr" v="517207" />
	</node>
	<node id="-824064" lat="63.358508332" lon="9.30862778161">
		<tag k="name" v="Rubbesmyra" />
		<tag k="natural" v="wetland" />
		<tag k="ssr:stedsnr" v="518975" />
	</node>
	<node id="-825598" lat="63.4045611069" lon="9.20985277819">
		<tag k="name" v="Langmyran" />
		<tag k="natural" v="wetland" />
		<tag k="ssr:stedsnr" v="882044" />
	</node>
	<node id="-825082" lat="63.3576527753" lon="9.33168889751">
		<tag k="name" v="Seterkleiva" />
		<tag k="place" v="locality" />
		<tag k="ssr:stedsnr" v="336970" />
	</node>
	<node id="-826105" lat="63.3197777755" lon="9.25450278491">
		<tag k="name" v="Rølen" />
		<tag k="place" v="locality" />
		<tag k="ssr:stedsnr" v="276866" />
	</node>
	<node id="-825079" lat="63.3618083308" lon="9.57333888396">
		<tag k="name" v="Stormelen" />
		<tag k="place" v="locality" />
		<tag k="ssr:stedsnr" v="33128" />
	</node>
	<node id="-824053" lat="63.3895444464" lon="9.57614999192">
		<tag k="historic" v="shieling" />
		<tag k="name" v="Digerpervollen" />
		<tag k="place" v="locality" />
		<tag k="ssr:stedsnr" v="154089" />
	</node>
	<node id="-825588" lat="63.3808055544" lon="9.26863055395">
		<tag k="name" v="Setermyran" />
		<tag k="natural" v="wetland" />
		<tag k="ssr:stedsnr" v="700850" />
	</node>
	<node id="-824563" lat="63.3060361078" lon="9.42433333811">
		<tag k="name" v="Gabrielmyran" />
		<tag k="natural" v="wetland" />
		<tag k="ssr:stedsnr" v="519360" />
	</node>
	<node id="-826610" lat="63.4351388895" lon="9.50593889186">
		<tag k="name" v="Pollen" />
		<tag k="place" v="locality" />
		<tag k="ssr:stedsnr" v="700127" />
	</node>
	<node id="-824050" lat="63.4935666648" lon="9.13833889633">
		<tag k="name" v="Hamnabuktmyran" />
		<tag k="natural" v="wetland" />
		<tag k="ssr:stedsnr" v="820631" />
	</node>
	<node id="-825068" lat="63.5271666655" lon="9.34274444771">
		<tag k="name" v="Hjortskardmyra" />
		<tag k="natural" v="wetland" />
		<tag k="ssr:stedsnr" v="578503" />
	</node>
	<node id="-826091" lat="63.4464083333" lon="9.3480861093">
		<tag k="name" v="Løyftmyra" />
		<tag k="natural" v="wetland" />
		<tag k="ssr:stedsnr" v="33310" />
	</node>
	<node id="-826601" lat="63.3584194403" lon="9.32355832443">
		<tag k="name" v="Grønholet" />
		<tag k="place" v="locality" />
		<tag k="ssr:stedsnr" v="458982" />
	</node>
	<node id="-826599" lat="63.4377277781" lon="9.47956945177">
		<tag k="name" v="Storurda" />
		<tag k="natural" v="scree" />
		<tag k="ssr:stedsnr" v="397136" />
	</node>
	<node id="-826081" lat="63.4745222182" lon="9.38852222261">
		<tag k="name" v="Gortjørnmyra" />
		<tag k="natural" v="wetland" />
		<tag k="ssr:stedsnr" v="882560" />
	</node>
	<node id="-825056" lat="63.3492194484" lon="9.53544445379">
		<tag k="name" v="Tobuen" />
		<tag k="place" v="locality" />
		<tag k="ssr:stedsnr" v="944155" />
	</node>
	<node id="-826590" lat="63.3938250032" lon="9.56618055516">
		<tag k="name" v="Myra" />
		<tag k="place" v="locality" />
		<tag k="ssr:stedsnr" v="943103" />
	</node>
	<node id="-826074" lat="63.3920166651" lon="9.25408055794">
		<tag k="name" v="Tannvikmyran" />
		<tag k="natural" v="wetland" />
		<tag k="ssr:stedsnr" v="133831" />
	</node>
	<node id="-824536" lat="63.3916861109" lon="9.43778332816">
		<tag k="historic" v="shieling" />
		<tag k="name" v="Gammelsetra" />
		<tag k="place" v="locality" />
		<tag k="ssr:stedsnr" v="94300" />
	</node>
	<node id="-825559" lat="63.3226500037" lon="9.2521583421">
		<tag k="name" v="Reitan" />
		<tag k="place" v="locality" />
		<tag k="ssr:stedsnr" v="397845" />
	</node>
	<node id="-826581" lat="63.362438891" lon="9.57680000654">
		<tag k="name" v="Meslættet" />
		<tag k="place" v="locality" />
		<tag k="ssr:stedsnr" v="822118" />
	</node>
	<node id="-826577" lat="63.3561916667" lon="9.36489444378">
		<tag k="name" v="Åsmyra" />
		<tag k="natural" v="wetland" />
		<tag k="ssr:stedsnr" v="761401" />
	</node>
	<node id="-825535" lat="63.555222222" lon="9.3907749954">
		<tag k="name" v="Hesthagen" />
		<tag k="place" v="locality" />
		<tag k="ssr:stedsnr" v="639737" />
	</node>
	<node id="-826056" lat="63.4785138881" lon="9.22210556478">
		<tag k="name" v="Trolltjørnmyran" />
		<tag k="natural" v="wetland" />
		<tag k="ssr:stedsnr" v="154332" />
	</node>
	<node id="-826053" lat="63.3624972208" lon="9.32169445008">
		<tag k="name" v="Presthusvika" />
		<tag k="place" v="locality" />
		<tag k="ssr:stedsnr" v="700930" />
	</node>
	<node id="-826563" lat="63.3568722202" lon="9.35123611414">
		<tag k="name" v="Velte" />
		<tag k="place" v="locality" />
		<tag k="ssr:stedsnr" v="154419" />
	</node>
	<node id="-825538" lat="63.400008332" lon="9.54937777174">
		<tag k="name" v="Stolekra" />
		<tag k="place" v="locality" />
		<tag k="ssr:stedsnr" v="822806" />
	</node>
	<node id="-825536" lat="63.4858416696" lon="9.41903332923">
		<tag k="name" v="Merratollan" />
		<tag k="place" v="locality" />
		<tag k="ssr:stedsnr" v="882013" />
	</node>
	<node id="-826559" lat="63.4089944459" lon="9.50639167406">
		<tag k="name" v="Maurbakkmyra" />
		<tag k="natural" v="wetland" />
		<tag k="ssr:stedsnr" v="822122" />
	</node>
	<node id="-826558" lat="63.3645833348" lon="9.58354166302">
		<tag k="name" v="Langøya" />
		<tag k="place" v="locality" />
		<tag k="ssr:stedsnr" v="458120" />
	</node>
	<node id="-824509" lat="63.3309388892" lon="9.30751111608">
		<tag k="name" v="Skala" />
		<tag k="natural" v="wetland" />
		<tag k="ssr:stedsnr" v="275737" />
	</node>
	<node id="-826556" lat="63.3583166703" lon="9.57451943768">
		<tag k="name" v="Litlmyra" />
		<tag k="natural" v="wetland" />
		<tag k="ssr:stedsnr" v="943109" />
	</node>
	<node id="-824506" lat="63.485175" lon="9.49450555138">
		<tag k="name" v="Vikamyra" />
		<tag k="natural" v="wetland" />
		<tag k="ssr:stedsnr" v="639101" />
	</node>
	<node id="-825527" lat="63.411925002" lon="9.23126666178">
		<tag k="name" v="Flesvikmyran" />
		<tag k="natural" v="wetland" />
		<tag k="ssr:stedsnr" v="740753" />
	</node>
	<node id="-825526" lat="63.5525277788" lon="9.36311388361">
		<tag k="name" v="Småvikan" />
		<tag k="place" v="locality" />
		<tag k="ssr:stedsnr" v="518665" />
	</node>
	<node id="-824501" lat="63.5462138859" lon="9.50051944907">
		<tag k="name" v="Koiøyhalsen" />
		<tag k="place" v="locality" />
		<tag k="ssr:stedsnr" v="33037" />
	</node>
	<node id="-826033" lat="63.3761805564" lon="9.2846805541">
		<tag k="name" v="Migarmyran" />
		<tag k="natural" v="wetland" />
		<tag k="ssr:stedsnr" v="741851" />
	</node>
	<node id="-825003" lat="63.4221388924" lon="9.61029722404">
		<tag k="name" v="Storslætter" />
		<tag k="place" v="locality" />
		<tag k="ssr:stedsnr" v="761092" />
	</node>
	<node id="-826538" lat="63.2939638909" lon="9.41957222073">
		<tag k="name" v="Nyslættet" />
		<tag k="place" v="locality" />
		<tag k="ssr:stedsnr" v="761363" />
	</node>
	<node id="-824488" lat="63.4146527768" lon="9.51533889686">
		<tag k="historic" v="shieling" />
		<tag k="name" v="Lodvigsetra" />
		<tag k="place" v="locality" />
		<tag k="ssr:stedsnr" v="639127" />
	</node>
	<node id="-825372" lat="63.4965888897" lon="9.40178887889">
		<tag k="name" v="Trøa" />
		<tag k="place" v="locality" />
		<tag k="ssr:stedsnr" v="518636" />
	</node>
	<node id="-826533" lat="63.5060361103" lon="9.29445555029">
		<tag k="name" v="Storfjellmyra" />
		<tag k="natural" v="wetland" />
		<tag k="ssr:stedsnr" v="397574" />
	</node>
	<node id="-826015" lat="63.466025002" lon="9.44489167348">
		<tag k="name" v="Storvikhalsen" />
		<tag k="place" v="locality" />
		<tag k="ssr:stedsnr" v="761272" />
	</node>
	<node id="-826014" lat="63.4174138915" lon="9.62178332517">
		<tag k="name" v="Myrslættet" />
		<tag k="natural" v="wetland" />
		<tag k="ssr:stedsnr" v="882100" />
	</node>
	<node id="-824477" lat="63.3490583325" lon="9.37744722492">
		<tag k="alt_name" v="Gransletta" />
		<tag k="landuse" v="meadow" />
		<tag k="name" v="Granslættet" />
		<tag k="ssr:stedsnr" v="741189" />
	</node>
	<node id="-825497" lat="63.5387527782" lon="9.33594167545">
		<tag k="name" v="Bølet" />
		<tag k="place" v="locality" />
		<tag k="ssr:stedsnr" v="639731" />
	</node>
	<node id="-825070" lat="63.545136107" lon="9.38501667057">
		<tag k="name" v="Storvikmyran" />
		<tag k="natural" v="wetland" />
		<tag k="ssr:stedsnr" v="943720" />
	</node>
	<node id="-826002" lat="63.4872611144" lon="9.55264443971">
		<tag k="name" v="Sagslettan" />
		<tag k="place" v="locality" />
		<tag k="ssr:stedsnr" v="943435" />
	</node>
	<node id="-824856" lat="63.5415305527" lon="9.34671389312">
		<tag k="name" v="Moen" />
		<tag k="place" v="locality" />
		<tag k="ssr:stedsnr" v="397734" />
	</node>
	<node id="-826506" lat="63.464438893" lon="9.49029445377">
		<tag k="name" v="Gangstømyra" />
		<tag k="natural" v="wetland" />
		<tag k="ssr:stedsnr" v="397121" />
	</node>
	<node id="-825481" lat="63.2910083371" lon="9.40609722626">
		<tag k="name" v="Stormyra" />
		<tag k="natural" v="wetland" />
		<tag k="ssr:stedsnr" v="458376" />
	</node>
	<node id="-825979" lat="63.4041444476" lon="9.50781111889">
		<tag k="name" v="Brekka" />
		<tag k="place" v="locality" />
		<tag k="ssr:stedsnr" v="882092" />
	</node>
	<node id="-826490" lat="63.516244447" lon="9.30891111039">
		<tag k="name" v="Stormyra" />
		<tag k="natural" v="wetland" />
		<tag k="ssr:stedsnr" v="700538" />
	</node>
	<node id="-824953" lat="63.3558472249" lon="9.57347499617">
		<tag k="name" v="Stormyra" />
		<tag k="natural" v="wetland" />
		<tag k="ssr:stedsnr" v="518102" />
	</node>
	<node id="-826488" lat="63.4961666695" lon="9.37042777106">
		<tag k="name" v="Fossmyra" />
		<tag k="natural" v="wetland" />
		<tag k="ssr:stedsnr" v="882600" />
	</node>
	<node id="-824387" lat="63.3149972263" lon="9.50851667338">
		<tag k="historic" v="shieling" />
		<tag k="name" v="Setersetra" />
		<tag k="place" v="locality" />
		<tag k="ssr:stedsnr" v="822162" />
	</node>
	<node id="-826484" lat="63.3506638902" lon="9.37858888083">
		<tag k="name" v="Sagbruholet" />
		<tag k="place" v="locality" />
		<tag k="ssr:stedsnr" v="33376" />
	</node>
	<node id="-825453" lat="63.4633305601" lon="9.43356944345">
		<tag k="name" v="Søraunet" />
		<tag k="place" v="locality" />
		<tag k="ssr:stedsnr" v="944253" />
	</node>
	<node id="-825963" lat="63.5521138887" lon="9.38353611132">
		<tag k="name" v="Myran" />
		<tag k="natural" v="wetland" />
		<tag k="ssr:stedsnr" v="518728" />
	</node>
	<node id="-826474" lat="63.4269944484" lon="9.51188611918">
		<tag k="name" v="Melvassmyran" />
		<tag k="natural" v="wetland" />
		<tag k="ssr:stedsnr" v="397126" />
	</node>
	<node id="-825446" lat="63.4477027747" lon="9.37363333253">
		<tag k="name" v="Strandurda" />
		<tag k="natural" v="scree" />
		<tag k="ssr:stedsnr" v="944240" />
	</node>
	<node id="-826467" lat="63.4663027808" lon="9.4424277692">
		<tag k="name" v="Bjørnastein" />
		<tag k="natural" v="stone" />
		<tag k="ssr:stedsnr" v="458541" />
	</node>
	<node id="-826465" lat="63.5170611084" lon="9.30491667313">
		<tag k="name" v="Engslættet" />
		<tag k="place" v="locality" />
		<tag k="ssr:stedsnr" v="943522" />
	</node>
	<node id="-825000" lat="63.3476555574" lon="9.32734444166">
		<tag k="historic" v="shieling" />
		<tag k="name" v="Gammelsetra" />
		<tag k="place" v="locality" />
		<tag k="ssr:stedsnr" v="762000" />
	</node>
	<node id="-824617" lat="63.5066944434" lon="9.42379166843">
		<tag k="name" v="Myra" />
		<tag k="place" v="locality" />
		<tag k="ssr:stedsnr" v="33055" />
	</node>
	<node id="-826459" lat="63.5272722218" lon="9.4176527733">
		<tag k="name" v="Ringen" />
		<tag k="place" v="locality" />
		<tag k="ssr:stedsnr" v="943068" />
	</node>
	<node id="-825939" lat="63.3579277789" lon="9.33592499181">
		<tag k="historic" v="shieling" />
		<tag k="name" v="Setra" />
		<tag k="place" v="locality" />
		<tag k="ssr:stedsnr" v="882967" />
	</node>
	<node id="-824401" lat="63.463633329" lon="9.47050277603">
		<tag k="name" v="Hyllan" />
		<tag k="place" v="locality" />
		<tag k="ssr:stedsnr" v="93414" />
	</node>
	<node id="-826448" lat="63.4776972193" lon="9.45598056134">
		<tag k="name" v="Torvmyra" />
		<tag k="natural" v="wetland" />
		<tag k="ssr:stedsnr" v="33818" />
	</node>
	<node id="-826447" lat="63.4765972201" lon="9.52883611699">
		<tag k="name" v="Remmaurda" />
		<tag k="natural" v="scree" />
		<tag k="ssr:stedsnr" v="943082" />
	</node>
	<node id="-825931" lat="63.4211527821" lon="9.60209445126">
		<tag k="name" v="Litlslættet" />
		<tag k="place" v="locality" />
		<tag k="ssr:stedsnr" v="579079" />
	</node>
	<node id="-824393" lat="63.4600138893" lon="9.44104444341">
		<tag k="name" v="Gråurda" />
		<tag k="natural" v="scree" />
		<tag k="ssr:stedsnr" v="518004" />
	</node>
	<node id="-824904" lat="63.4699888874" lon="9.5659666647">
		<tag k="name" v="Øver-Remma" />
		<tag k="place" v="locality" />
		<tag k="ssr:stedsnr" v="882371" />
	</node>
	<node id="-825923" lat="63.5339555576" lon="9.38471666638">
		<tag k="historic" v="shieling" />
		<tag k="name" v="Gammelsetra" />
		<tag k="place" v="locality" />
		<tag k="ssr:stedsnr" v="518738" />
	</node>
	<node id="-824378" lat="63.3145111069" lon="9.54329166684">
		<tag k="name" v="Bakksetermyran" />
		<tag k="natural" v="wetland" />
		<tag k="ssr:stedsnr" v="458181" />
	</node>
	<node id="-824889" lat="63.3901833322" lon="9.58126943545">
		<tag k="name" v="Storøra" />
		<tag k="place" v="locality" />
		<tag k="ssr:stedsnr" v="93060" />
	</node>
	<node id="-824569" lat="63.5497777814" lon="9.36863888884">
		<tag k="name" v="Sommarfjøsmyra" />
		<tag k="natural" v="wetland" />
		<tag k="ssr:stedsnr" v="397233" />
	</node>
	<node id="-825391" lat="63.3948361105" lon="9.25991388824">
		<tag k="historic" v="shieling" />
		<tag k="name" v="Tannviksetra" />
		<tag k="place" v="locality" />
		<tag k="ssr:stedsnr" v="93138" />
	</node>
	<node id="-824878" lat="63.4147166678" lon="9.53200832997">
		<tag k="name" v="Innlegget" />
		<tag k="place" v="locality" />
		<tag k="ssr:stedsnr" v="337775" />
	</node>
	<node id="-824839" lat="63.5179444485" lon="9.31002777757">
		<tag k="name" v="Hylla" />
		<tag k="place" v="locality" />
		<tag k="ssr:stedsnr" v="154581" />
	</node>
	<node id="-824872" lat="63.2952388857" lon="9.38970554623">
		<tag k="name" v="Langmyran" />
		<tag k="natural" v="wetland" />
		<tag k="ssr:stedsnr" v="134244" />
	</node>
	<node id="-825521" lat="63.3467805583" lon="9.39849443688">
		<tag k="name" v="Høgklumpmyra" />
		<tag k="natural" v="wetland" />
		<tag k="ssr:stedsnr" v="276329" />
	</node>
	<node id="-824867" lat="63.5039083364" lon="9.42929444795">
		<tag k="name" v="Vika" />
		<tag k="place" v="locality" />
		<tag k="ssr:stedsnr" v="336036" />
	</node>
	<node id="-826399" lat="63.4794583315" lon="9.4687222181">
		<tag k="name" v="Migarmyra" />
		<tag k="natural" v="wetland" />
		<tag k="ssr:stedsnr" v="761822" />
	</node>
	<node id="-826396" lat="63.4736138866" lon="9.40658889518">
		<tag k="name" v="Stormyra" />
		<tag k="natural" v="wetland" />
		<tag k="ssr:stedsnr" v="519243" />
	</node>
	<node id="-825882" lat="63.3903138857" lon="9.57566945391">
		<tag k="name" v="Jonsøra" />
		<tag k="place" v="locality" />
		<tag k="ssr:stedsnr" v="882068" />
	</node>
	<node id="-824345" lat="63.3895250006" lon="9.23767222839">
		<tag k="name" v="Hammarvika" />
		<tag k="place" v="locality" />
		<tag k="ssr:stedsnr" v="822185" />
	</node>
	<node id="-825880" lat="63.4941722206" lon="9.36837221902">
		<tag k="name" v="Småslen" />
		<tag k="place" v="locality" />
		<tag k="ssr:stedsnr" v="154742" />
	</node>
	<node id="-824854" lat="63.3988638846" lon="9.509547223">
		<tag k="name" v="Hundtjørnmoen" />
		<tag k="place" v="locality" />
		<tag k="ssr:stedsnr" v="337771" />
	</node>
	<node id="-824851" lat="63.3463861149" lon="9.2706583293">
		<tag k="name" v="Myran" />
		<tag k="natural" v="wetland" />
		<tag k="ssr:stedsnr" v="276217" />
	</node>
	<node id="-826386" lat="63.3832555547" lon="9.58406665993">
		<tag k="name" v="Øran" />
		<tag k="place" v="locality" />
		<tag k="ssr:stedsnr" v="458094" />
	</node>
	<node id="-824842" lat="63.5393555582" lon="9.42131667553">
		<tag k="name" v="Melkvika" />
		<tag k="place" v="locality" />
		<tag k="ssr:stedsnr" v="93054" />
	</node>
	<node id="-825772" lat="63.5098666672" lon="9.49623611578">
		<tag k="name" v="Mensen" />
		<tag k="place" v="locality" />
		<tag k="ssr:stedsnr" v="397005" />
	</node>
	<node id="-825348" lat="63.3584111138" lon="9.34257222405">
		<tag k="alt_name" v="Hartinnmyra" />
		<tag k="name" v="Hardtindmyra" />
		<tag k="natural" v="wetland" />
		<tag k="ssr:stedsnr" v="101103" />
	</node>
	<node id="-825857" lat="63.3790999962" lon="9.29798055442">
		<tag k="name" v="Svortmyra" />
		<tag k="natural" v="wetland" />
		<tag k="ssr:stedsnr" v="94952" />
	</node>
</osm>
