<?xml version="1.0" encoding="UTF-8"?>
<osm version="0.6" generator="osmapis">
	<node lat="59.88367766342207" lon="8.056351586189415" id="-19023">
		<tag k="name" v="Galar" />
		<tag k="ssr:date" v="2019-12-27" />
		<tag k="ssr:gruppe" v="veg" />
		<tag k="ssr:hovedgruppe" v="infrastruktur" />
		<tag k="ssr:stedsnr" v="986309" />
		<tag k="ssr:type" v="adressenavn" />
	</node>
	<node lat="59.96978836107818" lon="7.9957387016701515" id="-19024">
		<tag k="name" v="Juve" />
		<tag k="ssr:date" v="2019-12-27" />
		<tag k="ssr:gruppe" v="veg" />
		<tag k="ssr:hovedgruppe" v="infrastruktur" />
		<tag k="ssr:stedsnr" v="986373" />
		<tag k="ssr:type" v="adressenavn" />
	</node>
	<node lat="59.96095947903358" lon="8.014594997424261" id="-19025">
		<tag k="name" v="Juvik" />
		<tag k="ssr:date" v="2019-12-27" />
		<tag k="ssr:gruppe" v="veg" />
		<tag k="ssr:hovedgruppe" v="infrastruktur" />
		<tag k="ssr:stedsnr" v="986374" />
		<tag k="ssr:type" v="adressenavn" />
	</node>
	<node lat="59.616490323410325" lon="7.878593588046528" id="-19026">
		<tag k="name" v="Nestestogvegen" />
		<tag k="ssr:date" v="2019-12-27" />
		<tag k="ssr:gruppe" v="veg" />
		<tag k="ssr:hovedgruppe" v="infrastruktur" />
		<tag k="ssr:stedsnr" v="986518" />
		<tag k="ssr:type" v="adressenavn" />
	</node>
	<node lat="59.874037937820276" lon="8.107298126213871" id="-19027">
		<tag k="name" v="Nord Vågen" />
		<tag k="ssr:date" v="2019-12-27" />
		<tag k="ssr:gruppe" v="veg" />
		<tag k="ssr:hovedgruppe" v="infrastruktur" />
		<tag k="ssr:stedsnr" v="986519" />
		<tag k="ssr:type" v="adressenavn" />
	</node>
	<node lat="59.92109312735979" lon="8.043305278871733" id="-19028">
		<tag k="name" v="Nordli" />
		<tag k="ssr:date" v="2019-12-27" />
		<tag k="ssr:gruppe" v="veg" />
		<tag k="ssr:hovedgruppe" v="infrastruktur" />
		<tag k="ssr:stedsnr" v="986520" />
		<tag k="ssr:type" v="adressenavn" />
	</node>
	<node lat="59.72315219073175" lon="8.128320136153082" id="-19029">
		<tag k="name" v="Nordre Krossbakkveg" />
		<tag k="old_name" v="Nordre Krossbakk" />
		<tag k="ssr:date" v="2020-05-28" />
		<tag k="ssr:gruppe" v="veg" />
		<tag k="ssr:hovedgruppe" v="infrastruktur" />
		<tag k="ssr:stedsnr" v="986521" />
		<tag k="ssr:type" v="adressenavn" />
	</node>
	<node lat="59.73646763713833" lon="8.138895410434948" id="-19030">
		<tag k="name" v="Vesle Kjelingnuten" />
		<tag k="ssr:date" v="2019-12-27" />
		<tag k="ssr:gruppe" v="veg" />
		<tag k="ssr:hovedgruppe" v="infrastruktur" />
		<tag k="ssr:stedsnr" v="990233" />
		<tag k="ssr:type" v="adressenavn" />
	</node>
	<node lat="59.93646917490985" lon="8.072550647998545" id="-19031">
		<tag k="name" v="Vårli" />
		<tag k="ssr:date" v="2019-12-27" />
		<tag k="ssr:gruppe" v="veg" />
		<tag k="ssr:hovedgruppe" v="infrastruktur" />
		<tag k="ssr:stedsnr" v="990246" />
		<tag k="ssr:type" v="adressenavn" />
	</node>
	<node lat="59.56925277615419" lon="7.988986113600116" id="-20782">
		<tag k="name" v="Vinje kommune" />
		<tag k="ssr:date" v="2019-12-27" />
		<tag k="ssr:gruppe" v="administrativeIndelinger" />
		<tag k="ssr:hovedgruppe" v="offentligAdministrasjon" />
		<tag k="ssr:stedsnr" v="631035" />
		<tag k="ssr:type" v="kommune" />
	</node>
	<node lat="59.82419566368598" lon="8.296305820501125" id="-21628">
		<tag k="name" v="Holvik austre" />
		<tag k="ssr:date" v="2019-12-27" />
		<tag k="ssr:gruppe" v="veg" />
		<tag k="ssr:hovedgruppe" v="infrastruktur" />
		<tag k="ssr:stedsnr" v="986349" />
		<tag k="ssr:type" v="adressenavn" />
	</node>
	<node lat="59.82509049298559" lon="8.29403974881041" id="-21629">
		<tag k="name" v="Holvik vestre" />
		<tag k="ssr:date" v="2019-12-27" />
		<tag k="ssr:gruppe" v="veg" />
		<tag k="ssr:hovedgruppe" v="infrastruktur" />
		<tag k="ssr:stedsnr" v="986350" />
		<tag k="ssr:type" v="adressenavn" />
	</node>
	<node lat="59.92369490892521" lon="8.047935027977148" id="-21630">
		<tag k="name" v="Kovesand" />
		<tag k="ssr:date" v="2019-12-27" />
		<tag k="ssr:gruppe" v="veg" />
		<tag k="ssr:hovedgruppe" v="infrastruktur" />
		<tag k="ssr:stedsnr" v="986393" />
		<tag k="ssr:type" v="adressenavn" />
	</node>
	<node lat="59.8005640642398" lon="8.054690762731795" id="-21631">
		<tag k="name" v="Russbu" />
		<tag k="ssr:date" v="2019-12-27" />
		<tag k="ssr:gruppe" v="veg" />
		<tag k="ssr:hovedgruppe" v="infrastruktur" />
		<tag k="ssr:stedsnr" v="990052" />
		<tag k="ssr:type" v="adressenavn" />
	</node>
	<node lat="59.66419822116103" lon="7.997684861046987" id="-21632">
		<tag k="name" v="Kjerrevegen" />
		<tag k="ssr:date" v="2019-12-27" />
		<tag k="ssr:gruppe" v="veg" />
		<tag k="ssr:hovedgruppe" v="infrastruktur" />
		<tag k="ssr:stedsnr" v="990287" />
		<tag k="ssr:type" v="adressenavn" />
	</node>
	<node lat="59.663785675816236" lon="8.00011115537985" id="-21633">
		<tag k="name" v="Nedre Briskeveg" />
		<tag k="old_name" v="Nedre Briskevegen" />
		<tag k="ssr:date" v="2019-12-27" />
		<tag k="ssr:gruppe" v="veg" />
		<tag k="ssr:hovedgruppe" v="infrastruktur" />
		<tag k="ssr:stedsnr" v="990288" />
		<tag k="ssr:type" v="adressenavn" />
	</node>
	<node lat="59.6642489940618" lon="7.99610358533326" id="-21634">
		<tag k="name" v="Nedre Kloppemyrvegen" />
		<tag k="ssr:date" v="2019-12-27" />
		<tag k="ssr:gruppe" v="veg" />
		<tag k="ssr:hovedgruppe" v="infrastruktur" />
		<tag k="ssr:stedsnr" v="990289" />
		<tag k="ssr:type" v="adressenavn" />
	</node>
	<node lat="59.664004401571205" lon="8.000530642687114" id="-21635">
		<tag k="name" v="Øvre Briskeveg" />
		<tag k="old_name" v="Øvre Briskevegen" />
		<tag k="ssr:date" v="2019-12-27" />
		<tag k="ssr:gruppe" v="veg" />
		<tag k="ssr:hovedgruppe" v="infrastruktur" />
		<tag k="ssr:stedsnr" v="990291" />
		<tag k="ssr:type" v="adressenavn" />
	</node>
	<node lat="59.663923199371624" lon="7.993433081743692" id="-21636">
		<tag k="name" v="Øvre Kloppemyrvegen" />
		<tag k="ssr:date" v="2019-12-27" />
		<tag k="ssr:gruppe" v="veg" />
		<tag k="ssr:hovedgruppe" v="infrastruktur" />
		<tag k="ssr:stedsnr" v="990280" />
		<tag k="ssr:type" v="adressenavn" />
	</node>
	<node lat="59.66307188024779" lon="7.996014524732886" id="-21637">
		<tag k="name" v="Tømmervegen" />
		<tag k="ssr:date" v="2019-12-27" />
		<tag k="ssr:gruppe" v="veg" />
		<tag k="ssr:hovedgruppe" v="infrastruktur" />
		<tag k="ssr:stedsnr" v="990281" />
		<tag k="ssr:type" v="adressenavn" />
	</node>
	<node lat="59.589621140658615" lon="8.206869917922301" id="-21638">
		<tag k="name" v="Sosåsvegen" />
		<tag k="ssr:date" v="2019-12-27" />
		<tag k="ssr:gruppe" v="veg" />
		<tag k="ssr:hovedgruppe" v="infrastruktur" />
		<tag k="ssr:stedsnr" v="990283" />
		<tag k="ssr:type" v="adressenavn" />
	</node>
	<node lat="59.74050275127176" lon="8.206411809463049" id="-21639">
		<tag k="name" v="Sigrids veg" />
		<tag k="ssr:date" v="2019-12-27" />
		<tag k="ssr:gruppe" v="veg" />
		<tag k="ssr:hovedgruppe" v="infrastruktur" />
		<tag k="ssr:stedsnr" v="990286" />
		<tag k="ssr:type" v="adressenavn" />
	</node>
	<node lat="59.21614767841852" lon="9.611103016923492" id="-21641">
		<tag k="name" v="Vestfold og Telemark fylke" />
		<tag k="ssr:date" v="2021-06-08" />
		<tag k="ssr:gruppe" v="administrativeIndelinger" />
		<tag k="ssr:hovedgruppe" v="offentligAdministrasjon" />
		<tag k="ssr:stedsnr" v="1073927" />
		<tag k="ssr:type" v="fylke" />
	</node>
	<node lat="59.735417603860796" lon="8.133715766062016" id="-21642">
		<tag k="name" v="Thorsvegen" />
		<tag k="ssr:date" v="2019-12-27" />
		<tag k="ssr:gruppe" v="veg" />
		<tag k="ssr:hovedgruppe" v="infrastruktur" />
		<tag k="ssr:stedsnr" v="1074282" />
		<tag k="ssr:type" v="adressenavn" />
	</node>
	<node lat="59.76581307460694" lon="7.367869163981921" id="-21645">
		<tag k="name" v="Øvre Lomtjønnhaugen" />
		<tag k="ssr:date" v="2020-03-02" />
		<tag k="ssr:gruppe" v="veg" />
		<tag k="ssr:hovedgruppe" v="infrastruktur" />
		<tag k="ssr:stedsnr" v="1075744" />
		<tag k="ssr:type" v="adressenavn" />
	</node>
	<node lat="59.720274368380494" lon="8.14683227802543" id="-21646">
		<tag k="name" v="Vesle Leirbekkvegen" />
		<tag k="ssr:date" v="2020-03-02" />
		<tag k="ssr:gruppe" v="veg" />
		<tag k="ssr:hovedgruppe" v="infrastruktur" />
		<tag k="ssr:stedsnr" v="1075743" />
		<tag k="ssr:type" v="adressenavn" />
	</node>
	<node lat="59.764817544028396" lon="7.36725894075582" id="-21647">
		<tag k="name" v="Nedre Lomtjønnhaugen" />
		<tag k="ssr:date" v="2020-03-02" />
		<tag k="ssr:gruppe" v="veg" />
		<tag k="ssr:hovedgruppe" v="infrastruktur" />
		<tag k="ssr:stedsnr" v="1075745" />
		<tag k="ssr:type" v="adressenavn" />
	</node>
	<node lat="59.71694877631105" lon="7.5625920542759495" id="-21650">
		<tag k="name" v="Nonnutvegen" />
		<tag k="ssr:date" v="2020-04-14" />
		<tag k="ssr:gruppe" v="veg" />
		<tag k="ssr:hovedgruppe" v="infrastruktur" />
		<tag k="ssr:stedsnr" v="1076447" />
		<tag k="ssr:type" v="adressenavn" />
	</node>
	<node lat="59.71727492841046" lon="7.5603911711338245" id="-21651">
		<tag k="name" v="Myrmalmvegen" />
		<tag k="ssr:date" v="2020-04-14" />
		<tag k="ssr:gruppe" v="veg" />
		<tag k="ssr:hovedgruppe" v="infrastruktur" />
		<tag k="ssr:stedsnr" v="1076448" />
		<tag k="ssr:type" v="adressenavn" />
	</node>
	<node lat="59.71420433987253" lon="8.037769046462872" id="-21658">
		<tag k="name" v="Landsbyen" />
		<tag k="ssr:date" v="2021-08-31" />
		<tag k="ssr:gruppe" v="veg" />
		<tag k="ssr:hovedgruppe" v="infrastruktur" />
		<tag k="ssr:stedsnr" v="1082067" />
		<tag k="ssr:type" v="adressenavn" />
	</node>
	<node lat="59.761574217066965" lon="7.327180141137047" id="-21659">
		<tag k="name" v="Øvre Arbuneset" />
		<tag k="ssr:date" v="2021-08-31" />
		<tag k="ssr:gruppe" v="veg" />
		<tag k="ssr:hovedgruppe" v="infrastruktur" />
		<tag k="ssr:stedsnr" v="1082068" />
		<tag k="ssr:type" v="adressenavn" />
	</node>
	<node lat="59.76092695912337" lon="7.416301672441446" id="-21662">
		<tag k="name" v="Øvre Skrubbesida" />
		<tag k="ssr:date" v="2021-09-06" />
		<tag k="ssr:gruppe" v="veg" />
		<tag k="ssr:hovedgruppe" v="infrastruktur" />
		<tag k="ssr:stedsnr" v="1082108" />
		<tag k="ssr:type" v="adressenavn" />
	</node>
	<node lat="59.72282294547941" lon="8.150714712507499" id="-21663">
		<tag k="name" v="Nedre Fugleleiken" />
		<tag k="ssr:date" v="2021-09-06" />
		<tag k="ssr:gruppe" v="veg" />
		<tag k="ssr:hovedgruppe" v="infrastruktur" />
		<tag k="ssr:stedsnr" v="1082109" />
		<tag k="ssr:type" v="adressenavn" />
	</node>
	<node lat="59.76062265632203" lon="7.444213657538726" id="-21669">
		<tag k="name" v="Vestre Finnroi" />
		<tag k="ssr:date" v="2021-11-05" />
		<tag k="ssr:gruppe" v="veg" />
		<tag k="ssr:hovedgruppe" v="infrastruktur" />
		<tag k="ssr:stedsnr" v="1082832" />
		<tag k="ssr:type" v="adressenavn" />
	</node>
	<node lat="59.75678249681205" lon="7.446813195483539" id="-21670">
		<tag k="name" v="Øvre Finnroi" />
		<tag k="ssr:date" v="2021-11-05" />
		<tag k="ssr:gruppe" v="veg" />
		<tag k="ssr:hovedgruppe" v="infrastruktur" />
		<tag k="ssr:stedsnr" v="1082829" />
		<tag k="ssr:type" v="adressenavn" />
	</node>
	<node lat="59.76023535527639" lon="7.445638101549477" id="-21671">
		<tag k="name" v="Austre Finnroi" />
		<tag k="ssr:date" v="2021-11-05" />
		<tag k="ssr:gruppe" v="veg" />
		<tag k="ssr:hovedgruppe" v="infrastruktur" />
		<tag k="ssr:stedsnr" v="1082830" />
		<tag k="ssr:type" v="adressenavn" />
	</node>
	<node lat="59.756325198371165" lon="7.445356958271423" id="-21672">
		<tag k="name" v="Nedre Finnroi" />
		<tag k="ssr:date" v="2021-11-05" />
		<tag k="ssr:gruppe" v="veg" />
		<tag k="ssr:hovedgruppe" v="infrastruktur" />
		<tag k="ssr:stedsnr" v="1082831" />
		<tag k="ssr:type" v="adressenavn" />
	</node>
	<node lat="59.75890510737645" lon="7.447070683615694" id="-21673">
		<tag k="name" v="Finnrolii" />
		<tag k="ssr:date" v="2021-11-05" />
		<tag k="ssr:gruppe" v="veg" />
		<tag k="ssr:hovedgruppe" v="infrastruktur" />
		<tag k="ssr:stedsnr" v="1082833" />
		<tag k="ssr:type" v="adressenavn" />
	</node>
	<node lat="59.78084753329747" lon="7.341999051639146" id="-21674">
		<tag k="name" v="Simlesjå" />
		<tag k="ssr:date" v="2021-11-05" />
		<tag k="ssr:gruppe" v="veg" />
		<tag k="ssr:hovedgruppe" v="infrastruktur" />
		<tag k="ssr:stedsnr" v="1082834" />
		<tag k="ssr:type" v="adressenavn" />
	</node>
	<node lat="59.78002121540323" lon="7.337729080821876" id="-21675">
		<tag k="name" v="Kjelatind" />
		<tag k="ssr:date" v="2021-11-05" />
		<tag k="ssr:gruppe" v="veg" />
		<tag k="ssr:hovedgruppe" v="infrastruktur" />
		<tag k="ssr:stedsnr" v="1082835" />
		<tag k="ssr:type" v="adressenavn" />
	</node>
	<node lat="59.72371983177983" lon="8.151652164391294" id="-21678">
		<tag k="name" v="Gaupevegen" />
		<tag k="ssr:date" v="2021-12-09" />
		<tag k="ssr:gruppe" v="veg" />
		<tag k="ssr:hovedgruppe" v="infrastruktur" />
		<tag k="ssr:stedsnr" v="1083137" />
		<tag k="ssr:type" v="adressenavn" />
	</node>
	<node lat="59.724229650919874" lon="8.15258700933241" id="-21679">
		<tag k="name" v="Mårvegen" />
		<tag k="ssr:date" v="2021-12-09" />
		<tag k="ssr:gruppe" v="veg" />
		<tag k="ssr:hovedgruppe" v="infrastruktur" />
		<tag k="ssr:stedsnr" v="1083138" />
		<tag k="ssr:type" v="adressenavn" />
	</node>
	<node lat="59.72401531584503" lon="8.14985231790254" id="-21680">
		<tag k="name" v="Elgtrakket" />
		<tag k="ssr:date" v="2021-12-09" />
		<tag k="ssr:gruppe" v="veg" />
		<tag k="ssr:hovedgruppe" v="infrastruktur" />
		<tag k="ssr:stedsnr" v="1083139" />
		<tag k="ssr:type" v="adressenavn" />
	</node>
	<node lat="59.723877776562006" lon="8.150663079946684" id="-21681">
		<tag k="name" v="Jasalabben" />
		<tag k="ssr:date" v="2021-12-09" />
		<tag k="ssr:gruppe" v="veg" />
		<tag k="ssr:hovedgruppe" v="infrastruktur" />
		<tag k="ssr:stedsnr" v="1083140" />
		<tag k="ssr:type" v="adressenavn" />
	</node>
</osm>
