<?xml version="1.0" encoding="UTF-8"?>
<osm generator="osmapis" version="0.6">
	<node id="-450075" lat="60.3379802273" lon="6.34434536399">
		<tag k="name" v="Herandsholmen" />
		<tag k="ssr:date" v="2019-05-30" />
		<tag k="ssr:gruppe" v="veg" />
		<tag k="ssr:hovedgruppe" v="infrastruktur" />
		<tag k="ssr:stedsnr" v="1038088" />
		<tag k="ssr:type" v="adressenavn" />
	</node>
	<node id="-450074" lat="60.3583615997" lon="6.35322317145">
		<tag k="name" v="Samlen" />
		<tag k="ssr:date" v="2019-05-30" />
		<tag k="ssr:gruppe" v="veg" />
		<tag k="ssr:hovedgruppe" v="infrastruktur" />
		<tag k="ssr:stedsnr" v="1038084" />
		<tag k="ssr:type" v="adressenavn" />
	</node>
	<node id="-450073" lat="60.3061137146" lon="6.29367832319">
		<tag k="name" v="Tømmervikvegen" />
		<tag k="ssr:date" v="2019-05-30" />
		<tag k="ssr:gruppe" v="veg" />
		<tag k="ssr:hovedgruppe" v="infrastruktur" />
		<tag k="ssr:stedsnr" v="1038020" />
		<tag k="ssr:type" v="adressenavn" />
	</node>
	<node id="-450072" lat="60.3507118593" lon="6.35978580064">
		<tag k="name" v="Mulen" />
		<tag k="ssr:date" v="2019-05-30" />
		<tag k="ssr:gruppe" v="veg" />
		<tag k="ssr:hovedgruppe" v="infrastruktur" />
		<tag k="ssr:stedsnr" v="1037794" />
		<tag k="ssr:type" v="adressenavn" />
	</node>
	<node id="-450071" lat="60.2793461526" lon="6.25309307333">
		<tag k="name" v="Flåten" />
		<tag k="ssr:date" v="2019-05-30" />
		<tag k="ssr:gruppe" v="veg" />
		<tag k="ssr:hovedgruppe" v="infrastruktur" />
		<tag k="ssr:stedsnr" v="1037754" />
		<tag k="ssr:type" v="adressenavn" />
	</node>
	<node id="-450162" lat="60.276197223" lon="6.25257777282">
		<tag k="alt_name" v="Jondal" />
		<tag k="name" v="Jondal kommune" />
		<tag k="ssr:date" v="2019-02-26" />
		<tag k="ssr:gruppe" v="administrativeIndelinger" />
		<tag k="ssr:hovedgruppe" v="offentligAdministrasjon" />
		<tag k="ssr:stedsnr" v="327394" />
		<tag k="ssr:type" v="kommune" />
	</node>
	<node id="-451410" lat="60.8816104596" lon="6.30047518531">
		<tag k="name" v="Vestlandet" />
		<tag k="ssr:date" v="2019-01-06" />
		<tag k="ssr:gruppe" v="administrativeIndelinger" />
		<tag k="ssr:hovedgruppe" v="offentligAdministrasjon" />
		<tag k="ssr:stedsnr" v="974777" />
		<tag k="ssr:type" v="annenAdministrativInndeling" />
	</node>
	<node id="-451050" lat="60.203502777" lon="6.11319722877">
		<tag k="name" v="Kysnesstrand" />
		<tag k="ssr:date" v="2016-05-10" />
		<tag k="ssr:gruppe" v="administrativeIndelinger" />
		<tag k="ssr:hovedgruppe" v="offentligAdministrasjon" />
		<tag k="ssr:stedsnr" v="648917" />
		<tag k="ssr:type" v="poststed" />
	</node>
	<node id="-450727" lat="60.1914388865" lon="6.08340834166">
		<tag k="alt_name" v="Hamaren" />
		<tag k="name" v="Hammaren" />
		<tag k="ssr:date" v="2016-05-10" />
		<tag k="ssr:gruppe" v="navigasjon" />
		<tag k="ssr:hovedgruppe" v="infrastruktur" />
		<tag k="ssr:stedsnr" v="248570" />
		<tag k="ssr:type" v="fyrlykt" />
	</node>
	<node id="-450214" lat="60.2938861132" lon="6.2225500073">
		<tag k="alt_name" v="Jonanes" />
		<tag k="name" v="Jonanes lykt" />
		<tag k="old_name" v="Joanes" />
		<tag k="ssr:date" v="2016-05-10" />
		<tag k="ssr:gruppe" v="navigasjon" />
		<tag k="ssr:hovedgruppe" v="infrastruktur" />
		<tag k="ssr:stedsnr" v="369024" />
		<tag k="ssr:type" v="fyrlykt" />
	</node>
</osm>
