<?xml version="1.0" encoding="UTF-8"?>
<<<<<<< HEAD
<osm version="0.6" generator="osmapis">
	<node lat="67.24818888643546" lon="15.42574443306849" id="-5162">
		<tag k="name" v="Finneidstraumen" />
		<tag k="natural" v="strait" />
		<tag k="ssr:stedsnr" v="16918" />
	</node>
	<node lat="67.23124444837062" lon="15.288577779304482" id="-5164">
		<tag k="name" v="Bjørkvika" />
		<tag k="natural" v="bay" />
		<tag k="ssr:stedsnr" v="16923" />
	</node>
	<node lat="67.23036388963067" lon="15.426841658942468" id="-5165">
		<tag k="name" v="Båtsvika" />
		<tag k="natural" v="bay" />
		<tag k="ssr:stedsnr" v="16929" />
	</node>
	<node lat="67.24354166276399" lon="15.268200000936659" id="-5208">
		<tag k="name" v="Brynesodden" />
=======
<osm generator="osmapis" version="0.6">
	<node id="-175092" lat="67.259349999" lon="15.4237499961">
		<tag k="alt_name" v="Fauskevika, inner" />
		<tag k="name" v="Indre Fauskevika" />
		<tag k="natural" v="bay" />
		<tag k="ssr:stedsnr" v="137731" />
	</node>
	<node id="-174064" lat="67.2750333347" lon="15.0367666595">
		<tag k="fixme" v="consider seamark:type=rock or natural=shoal" />
		<tag k="name" v="Kreklingen" />
		<tag k="place" v="islet" />
		<tag k="ssr:stedsnr" v="480735" />
	</node>
	<node id="-174063" lat="67.2722944432" lon="15.0908055651">
		<tag k="name" v="Storvika" />
		<tag k="natural" v="bay" />
		<tag k="ssr:stedsnr" v="480724" />
	</node>
	<node id="-174057" lat="67.2428583316" lon="15.264947217">
		<tag k="name" v="Brynsnesfjæra" />
		<tag k="natural" v="beach" />
		<tag k="place" v="locality" />
		<tag k="ssr:stedsnr" v="480669" />
	</node>
	<node id="-174549" lat="67.2827416687" lon="15.1078694408">
		<tag k="name" v="Kongensøyra" />
		<tag k="natural" v="cape" />
		<tag k="ssr:stedsnr" v="692605" />
	</node>
	<node id="-175565" lat="67.2710305586" lon="15.1091305561">
		<tag k="fixme" v="consider seamark:type=rock or natural=shoal" />
		<tag k="name" v="Hestekkerskjæret" />
		<tag k="place" v="islet" />
		<tag k="ssr:stedsnr" v="570648" />
	</node>
	<node id="-175563" lat="67.2619916704" lon="15.1446222266">
		<tag k="name" v="Naustholmen" />
		<tag k="natural" v="cape" />
		<tag k="ssr:stedsnr" v="570688" />
	</node>
	<node id="-174534" lat="67.2411611085" lon="14.7449861079">
		<tag k="bay" v="fjord" />
		<tag k="name" v="Skjerstadfjorden" />
		<tag k="natural" v="bay" />
		<tag k="ssr:stedsnr" v="683607" />
	</node>
	<node id="-175350" lat="67.2742805543" lon="15.0344916702">
		<tag k="fixme" v="consider seamark:type=rock or natural=shoal" />
		<tag k="name" v="Løktskjæret" />
		<tag k="place" v="islet" />
		<tag k="ssr:stedsnr" v="359727" />
	</node>
	<node id="-174014" lat="67.3218277756" lon="15.1044055477">
		<tag k="name" v="Langbergodden" />
		<tag k="natural" v="cape" />
		<tag k="ssr:stedsnr" v="269716" />
	</node>
	<node id="-174524" lat="67.2410888884" lon="15.2546194433">
		<tag k="name" v="Rognan" />
		<tag k="natural" v="shoal" />
		<tag k="place" v="locality" />
		<tag k="ssr:stedsnr" v="662682" />
	</node>
	<node id="-174523" lat="67.2332861152" lon="15.2802888979">
		<tag k="name" v="Munnisvika" />
		<tag k="natural" v="bay" />
		<tag k="ssr:stedsnr" v="662680" />
	</node>
	<node id="-175033" lat="67.2963833336" lon="15.1239583421">
		<tag k="name" v="Skarvgrunnen" />
		<tag k="natural" v="shoal" />
		<tag k="place" v="locality" />
		<tag k="ssr:stedsnr" v="104554" />
	</node>
	<node id="-174516" lat="67.2756861144" lon="15.0420805504">
		<tag k="name" v="Hestvikoddan" />
		<tag k="natural" v="cape" />
		<tag k="ssr:stedsnr" v="662734" />
	</node>
	<node id="-174515" lat="67.27275833" lon="15.0743166582">
		<tag k="name" v="Ungsmalvikfjæra" />
		<tag k="natural" v="beach" />
		<tag k="place" v="locality" />
		<tag k="ssr:stedsnr" v="662721" />
	</node>
	<node id="-175536" lat="67.2810583315" lon="15.0889833425">
		<tag k="alt_name" v="Mosnesvika;Måsnesbukta" />
		<tag k="name" v="Mosnesbukta" />
		<tag k="natural" v="bay" />
		<tag k="ssr:stedsnr" v="566667" />
	</node>
	<node id="-175535" lat="67.2786361078" lon="15.0583805638">
		<tag k="name" v="Utfall" />
		<tag k="natural" v="cape" />
		<tag k="ssr:stedsnr" v="566665" />
	</node>
	<node id="-175534" lat="67.2755166652" lon="15.0138305537">
		<tag k="name" v="Alvenesgrunnen" />
		<tag k="natural" v="shoal" />
		<tag k="place" v="locality" />
		<tag k="ssr:stedsnr" v="566659" />
	</node>
	<node id="-175018" lat="67.2478722259" lon="15.4239166764">
		<tag k="name" v="Straumøyra" />
		<tag k="natural" v="cape" />
		<tag k="ssr:stedsnr" v="87900" />
	</node>
	<node id="-173984" lat="67.3226333306" lon="15.110852773">
		<tag k="fixme" v="consider seamark:type=rock or natural=shoal" />
		<tag k="name" v="Høgskjæret" />
		<tag k="place" v="islet" />
		<tag k="ssr:stedsnr" v="451698" />
	</node>
	<node id="-173979" lat="67.2947083317" lon="15.151458336">
		<tag k="fixme" v="multiple name tags, choose one and add the other to alt_name" />
		<tag k="name" v="Øyra;Førrnesøyra" />
		<tag k="natural" v="cape" />
		<tag k="ssr:stedsnr" v="450298" />
	</node>
	<node id="-176023" lat="67.2912631886" lon="15.1471606846">
		<tag k="name" v="Kaldneset" />
		<tag k="natural" v="cape" />
		<tag k="ssr:stedsnr" v="974917" />
	</node>
	<node id="-174997" lat="67.2859250031" lon="15.1126444526">
		<tag k="name" v="Peder-Jansoøyra" />
		<tag k="natural" v="beach" />
		<tag k="place" v="locality" />
		<tag k="ssr:stedsnr" v="85550" />
	</node>
	<node id="-174478" lat="67.3013083291" lon="15.1522583357">
		<tag k="fixme" v="consider seamark:type=rock or natural=shoal" />
		<tag k="name" v="Kobbskjæret" />
		<tag k="place" v="islet" />
		<tag k="ssr:stedsnr" v="630310" />
	</node>
	<node id="-176013" lat="67.275938887" lon="15.036700004">
		<tag k="fixme" v="consider seamark:type=rock or natural=shoal" />
		<tag k="name" v="Oksen" />
		<tag k="place" v="islet" />
		<tag k="ssr:stedsnr" v="966740" />
	</node>
	<node id="-176012" lat="67.2729444473" lon="15.0795361139">
		<tag k="name" v="Holmen" />
		<tag k="natural" v="cape" />
		<tag k="ssr:stedsnr" v="966723" />
	</node>
	<node id="-174983" lat="67.2987638917" lon="15.1519972122">
		<tag k="name" v="Skaftvika" />
		<tag k="natural" v="bay" />
		<tag k="ssr:stedsnr" v="81708" />
	</node>
	<node id="-174982" lat="67.2833305545" lon="15.0813333436">
		<tag k="alt_name" v="Måsnes" />
		<tag k="name" v="Mosneset" />
		<tag k="natural" v="cape" />
		<tag k="ssr:stedsnr" v="81688" />
	</node>
	<node id="-174978" lat="67.3287555572" lon="15.1470027798">
		<tag k="name" v="Kobbskjærodden" />
		<tag k="natural" v="cape" />
		<tag k="ssr:stedsnr" v="80754" />
	</node>
	<node id="-173951" lat="67.3108944435" lon="15.077144434">
		<tag k="name" v="Måsøya" />
		<tag k="place" v="islet" />
		<tag k="ssr:stedsnr" v="445676" />
	</node>
	<node id="-173950" lat="67.254374997" lon="15.1724138915">
		<tag k="alt_name" v="Mjeldneset" />
		<tag k="name" v="Mjellnesodden" />
		<tag k="natural" v="cape" />
		<tag k="ssr:stedsnr" v="445442" />
	</node>
	<node id="-175988" lat="67.2410250029" lon="15.414013878">
		<tag k="name" v="Skysselvika" />
		<tag k="natural" v="bay" />
		<tag k="ssr:stedsnr" v="950739" />
	</node>
	<node id="-175984" lat="67.2650305554" lon="15.3050722185">
		<tag k="name" v="Skjåberget" />
		<tag k="natural" v="cape" />
		<tag k="ssr:stedsnr" v="875370" />
	</node>
	<node id="-175978" lat="67.2890944478" lon="15.15571945">
		<tag k="name" v="Osen" />
		<tag k="natural" v="bay" />
		<tag k="ssr:stedsnr" v="874681" />
	</node>
	<node id="-175977" lat="67.2895472187" lon="15.1609777663">
		<tag k="name" v="Raudvollosen" />
		<tag k="natural" v="bay" />
		<tag k="ssr:stedsnr" v="874680" />
	</node>
	<node id="-175973" lat="67.2908805564" lon="15.1360444493">
		<tag k="loc_name" v="Storøyra" />
		<tag k="name" v="Storøya" />
		<tag k="natural" v="cape" />
		<tag k="ssr:stedsnr" v="874625" />
	</node>
	<node id="-174429" lat="67.2543111101" lon="15.4279388912">
		<tag k="name" v="Kleivhammarodden" />
		<tag k="natural" v="cape" />
		<tag k="ssr:stedsnr" v="571869" />
	</node>
	<node id="-174428" lat="67.3279777819" lon="15.1458388955">
		<tag k="fixme" v="consider seamark:type=rock or natural=shoal" />
		<tag k="name" v="Kobbskjæret" />
		<tag k="place" v="islet" />
		<tag k="ssr:stedsnr" v="570662" />
	</node>
	<node id="-173706" lat="67.3283666643" lon="15.1402305498">
		<tag k="name" v="Sandvikodden" />
		<tag k="natural" v="cape" />
		<tag k="ssr:stedsnr" v="85657" />
	</node>
	<node id="-174422" lat="67.2351527755" lon="15.2483499934">
		<tag k="alt_name" v="Gavveln" />
		<tag k="name" v="Gavlen" />
		<tag k="natural" v="cape" />
		<tag k="ssr:stedsnr" v="562924" />
	</node>
	<node id="-174932" lat="67.2439527764" lon="15.2748277817">
		<tag k="name" v="Langstranda" />
		<tag k="natural" v="beach" />
		<tag k="place" v="locality" />
		<tag k="ssr:stedsnr" v="56674" />
	</node>
	<node id="-174418" lat="67.2360944462" lon="15.3526249907">
		<tag k="name" v="Fauskevika" />
		<tag k="natural" v="bay" />
		<tag k="ssr:stedsnr" v="562908" />
	</node>
	<node id="-173904" lat="67.2493416656" lon="15.3582638895">
		<tag k="name" v="Rognan" />
		<tag k="natural" v="shoal" />
		<tag k="place" v="locality" />
		<tag k="ssr:stedsnr" v="298622" />
	</node>
	<node id="-175945" lat="67.2289805575" lon="15.295602779">
		<tag k="name" v="Skjelbakkodden" />
		<tag k="natural" v="cape" />
		<tag k="ssr:stedsnr" v="866934" />
	</node>
	<node id="-175942" lat="67.2430805587" lon="15.3126611129">
		<tag k="name" v="Hamnvika" />
		<tag k="natural" v="bay" />
		<tag k="ssr:stedsnr" v="866928" />
	</node>
	<node id="-175424" lat="67.2181444418" lon="15.3913861049">
		<tag k="name" v="Stornesodden" />
		<tag k="natural" v="cape" />
		<tag k="ssr:stedsnr" v="392887" />
	</node>
	<node id="-174395" lat="67.291069443" lon="15.1400694555">
		<tag k="name" v="Skykkjebukta" />
		<tag k="natural" v="bay" />
		<tag k="ssr:stedsnr" v="692646" />
	</node>
	<node id="-175416" lat="67.2552055592" lon="15.1679416733">
		<tag k="name" v="Knubben" />
		<tag k="natural" v="cape" />
		<tag k="ssr:stedsnr" v="388692" />
	</node>
	<node id="-174390" lat="67.2895444473" lon="15.1344249976">
		<tag k="name" v="Stemlandsosen" />
		<tag k="natural" v="bay" />
		<tag k="ssr:stedsnr" v="692593" />
	</node>
	<node id="-174382" lat="67.3132888897" lon="15.1603333305">
		<tag k="fixme" v="consider seamark:type=rock or natural=shoal" />
		<tag k="name" v="Brattåsskjæret" />
		<tag k="place" v="islet" />
		<tag k="ssr:stedsnr" v="692290" />
	</node>
	<node id="-174889" lat="67.2900833352" lon="15.1634916659">
		<tag k="name" v="Stoklandsjøen" />
		<tag k="natural" v="beach" />
		<tag k="place" v="locality" />
		<tag k="ssr:stedsnr" v="24662" />
	</node>
	<node id="-174885" lat="67.3299138903" lon="15.1597166587">
		<tag k="name" v="Tippen" />
>>>>>>> e1d4bc35ff8a6074a6f2e91616a996b547c36f15
		<tag k="natural" v="cape" />
		<tag k="ssr:stedsnr" v="237661" />
	</node>
<<<<<<< HEAD
	<node lat="67.27247500381787" lon="15.084566663324173" id="-5226">
		<tag k="name" v="Rekvika" />
		<tag k="natural" v="bay" />
		<tag k="ssr:stedsnr" v="238714" />
	</node>
	<node lat="67.28202777600214" lon="15.07109444653827" id="-5227">
		<tag k="name" v="Utfallstranda" />
		<tag k="natural" v="beach" />
		<tag k="ssr:stedsnr" v="238720" />
	</node>
	<node lat="67.24395277644021" lon="15.27482778172381" id="-5240">
		<tag k="name" v="Langstranda" />
		<tag k="natural" v="beach" />
		<tag k="ssr:stedsnr" v="56674" />
	</node>
	<node lat="67.21587499795619" lon="15.39604165746406" id="-5253">
		<tag k="name" v="Storneset" />
=======
	<node id="-175905" lat="67.2745583359" lon="15.0359777803">
		<tag k="fixme" v="consider seamark:type=rock or natural=shoal" />
		<tag k="name" v="Langskjæret" />
		<tag k="place" v="islet" />
		<tag k="ssr:stedsnr" v="845757" />
	</node>
	<node id="-175390" lat="67.3204500037" lon="15.0816333335">
		<tag k="name" v="Nesodden" />
		<tag k="natural" v="cape" />
		<tag k="ssr:stedsnr" v="384424" />
	</node>
	<node id="-174356" lat="67.2819027806" lon="15.0673833445">
		<tag k="fixme" v="consider seamark:type=rock or natural=shoal" />
		<tag k="name" v="Utfallskjæret" />
		<tag k="place" v="islet" />
		<tag k="ssr:stedsnr" v="688679" />
	</node>
	<node id="-174355" lat="67.270497226" lon="15.1075888974">
		<tag k="fixme" v="multiple name tags, choose one and add the other to alt_name; consider seamark:type=rock or natural=shoal" />
		<tag k="name" v="Kvitingen;Neskvitingen" />
		<tag k="place" v="islet" />
		<tag k="ssr:stedsnr" v="688444" />
	</node>
	<node id="-174865" lat="67.3197194422" lon="15.0864750056">
		<tag k="name" v="Holmen" />
		<tag k="place" v="islet" />
		<tag k="ssr:stedsnr" v="20757" />
	</node>
	<node id="-174862" lat="67.3036333337" lon="15.0703361217">
		<tag k="bay" v="fjord" />
		<tag k="name" v="Valnesfjorden" />
		<tag k="natural" v="bay" />
		<tag k="ssr:stedsnr" v="20670" />
	</node>
	<node id="-174860" lat="67.2642638908" lon="15.1425722138">
		<tag k="fixme" v="multiple name tags, choose one and add the other to alt_name" />
		<tag k="name" v="Hundholmen;Hundholmneset" />
>>>>>>> e1d4bc35ff8a6074a6f2e91616a996b547c36f15
		<tag k="natural" v="cape" />
		<tag k="ssr:stedsnr" v="77149" />
	</node>
<<<<<<< HEAD
	<node lat="67.29526389257454" lon="15.148936102751165" id="-5330">
		<tag k="name" v="Leira" />
		<tag k="natural" v="shoal" />
		<tag k="place" v="locality" />
		<tag k="ssr:stedsnr" v="145282" />
	</node>
	<node lat="67.32469444070657" lon="15.126133343165717" id="-5341">
		<tag k="name" v="Lille Sandvika" />
=======
	<node id="-175368" lat="67.2646861147" lon="15.2462916699">
		<tag k="name" v="Røvika - Ruddaluokta" />
		<tag k="name:no" v="Røvika" />
		<tag k="name:smj" v="Ruddaluokta" />
		<tag k="natural" v="bay" />
		<tag k="ssr:stedsnr" v="380781" />
	</node>
	<node id="-175874" lat="67.2229305516" lon="15.3975916726">
		<tag k="name" v="Holmen" />
		<tag k="natural" v="cape" />
		<tag k="ssr:stedsnr" v="817890" />
	</node>
	<node id="-174847" lat="67.2303638896" lon="15.4268416589">
		<tag k="name" v="Båtsvika" />
>>>>>>> e1d4bc35ff8a6074a6f2e91616a996b547c36f15
		<tag k="natural" v="bay" />
		<tag k="ssr:stedsnr" v="147651" />
	</node>
<<<<<<< HEAD
	<node lat="67.32766666344199" lon="15.140113881565036" id="-5382">
		<tag k="name" v="Sandvika" />
		<tag k="natural" v="bay" />
		<tag k="ssr:stedsnr" v="262771" />
	</node>
	<node lat="67.29061666283177" lon="15.166216663441888" id="-5422">
=======
	<node id="-174334" lat="67.2360722187" lon="15.441719444">
		<tag k="name" v="Halsen" />
		<tag k="natural" v="cape" />
		<tag k="ssr:stedsnr" v="684948" />
	</node>
	<node id="-175862" lat="67.3216388875" lon="15.0889666613">
		<tag k="name" v="Tjønnberget" />
		<tag k="natural" v="cape" />
		<tag k="ssr:stedsnr" v="814348" />
	</node>
	<node id="-175858" lat="67.2575472188" lon="15.1581083251">
		<tag k="name" v="Bogen" />
		<tag k="natural" v="bay" />
		<tag k="ssr:stedsnr" v="813733" />
	</node>
	<node id="-175855" lat="67.2823861084" lon="15.1049694397">
		<tag k="name" v="Engøyra" />
		<tag k="natural" v="cape" />
		<tag k="ssr:stedsnr" v="813607" />
	</node>
	<node id="-175846" lat="67.3283999969" lon="15.164263894">
		<tag k="name" v="Kvannesodden" />
		<tag k="natural" v="cape" />
		<tag k="ssr:stedsnr" v="813246" />
	</node>
	<node id="-173795" lat="67.2906166628" lon="15.1662166634">
>>>>>>> e1d4bc35ff8a6074a6f2e91616a996b547c36f15
		<tag k="name" v="Haugosen" />
		<tag k="natural" v="bay" />
		<tag k="ssr:stedsnr" v="267649" />
	</node>
<<<<<<< HEAD
	<node lat="67.27409444380667" lon="15.104636118789404" id="-5424">
=======
	<node id="-173793" lat="67.2740944438" lon="15.1046361188">
>>>>>>> e1d4bc35ff8a6074a6f2e91616a996b547c36f15
		<tag k="name" v="Straumen" />
		<tag k="natural" v="strait" />
		<tag k="ssr:stedsnr" v="267698" />
	</node>
<<<<<<< HEAD
	<node lat="67.29470833165898" lon="15.151458336008552" id="-5466">
		<tag k="fixme" v="multiple name tags, choose one and add the other to alt_name" />
		<tag k="name" v="Øyra;Førrnesøyra" />
		<tag k="natural" v="cape" />
		<tag k="ssr:stedsnr" v="450298" />
	</node>
	<node lat="67.3226333306176" lon="15.110852773022975" id="-5488">
=======
	<node id="-175324" lat="67.214991665" lon="15.3947277781">
		<tag k="name" v="Indre Stornesodden" />
		<tag k="natural" v="cape" />
		<tag k="ssr:stedsnr" v="331884" />
	</node>
	<node id="-175323" lat="67.2172388887" lon="15.3943805614">
		<tag k="name" v="Beritvika" />
		<tag k="natural" v="bay" />
		<tag k="ssr:stedsnr" v="331881" />
	</node>
	<node id="-175652" lat="67.3236555516" lon="15.1179388882">
		<tag k="name" v="Dinesodden" />
		<tag k="natural" v="cape" />
		<tag k="ssr:stedsnr" v="626749" />
	</node>
	<node id="-175828" lat="67.2219972239" lon="15.3515861003">
		<tag k="name" v="Ytterleivsetodden" />
		<tag k="natural" v="cape" />
		<tag k="ssr:stedsnr" v="805942" />
	</node>
	<node id="-175827" lat="67.2178972257" lon="15.3681416624">
		<tag k="name" v="Innerleivsetodden" />
		<tag k="natural" v="cape" />
		<tag k="ssr:stedsnr" v="805940" />
	</node>
	<node id="-174797" lat="67.2947388853" lon="15.1584444418">
		<tag k="name" v="Førrnessjøen" />
		<tag k="natural" v="beach" />
		<tag k="place" v="locality" />
		<tag k="ssr:stedsnr" v="934311" />
	</node>
	<node id="-174796" lat="67.2950361093" lon="15.1261333392">
>>>>>>> e1d4bc35ff8a6074a6f2e91616a996b547c36f15
		<tag k="fixme" v="consider seamark:type=rock or natural=shoal" />
		<tag k="name" v="Høgskjæret" />
		<tag k="place" v="islet" />
		<tag k="ssr:stedsnr" v="451698" />
	</node>
<<<<<<< HEAD
	<node lat="67.25411388852415" lon="15.276011101443283" id="-5509">
		<tag k="name" v="Klungsetvika" />
		<tag k="natural" v="bay" />
		<tag k="ssr:stedsnr" v="259914" />
	</node>
	<node lat="67.229647218628" lon="15.368275008663137" id="-5514">
		<tag k="name" v="Pinvika" />
		<tag k="natural" v="bay" />
		<tag k="ssr:stedsnr" v="259929" />
	</node>
	<node lat="67.29223409778815" lon="15.148885375830064" id="-5523">
		<tag k="name" v="Kaldnesøyra" />
		<tag k="natural" v="cape" />
		<tag k="ssr:stedsnr" v="263696" />
	</node>
	<node lat="67.29216667068208" lon="15.12618889094449" id="-5525">
=======
	<node id="-173762" lat="67.2921666707" lon="15.1261888909">
>>>>>>> e1d4bc35ff8a6074a6f2e91616a996b547c36f15
		<tag k="fixme" v="consider seamark:type=rock or natural=shoal" />
		<tag k="name" v="Storskjæret" />
		<tag k="place" v="islet" />
		<tag k="ssr:stedsnr" v="263700" />
	</node>
<<<<<<< HEAD
	<node lat="67.32182777557094" lon="15.104405547656304" id="-5553">
		<tag k="name" v="Langbergodden" />
=======
	<node id="-173760" lat="67.2922340978" lon="15.1488853758">
		<tag k="name" v="Kaldnesøyra" />
>>>>>>> e1d4bc35ff8a6074a6f2e91616a996b547c36f15
		<tag k="natural" v="cape" />
		<tag k="ssr:stedsnr" v="269716" />
	</node>
<<<<<<< HEAD
	<node lat="67.24934166560749" lon="15.358263889528724" id="-5572">
		<tag k="name" v="Rognan" />
		<tag k="natural" v="shoal" />
		<tag k="place" v="locality" />
		<tag k="ssr:stedsnr" v="298622" />
	</node>
	<node lat="67.24359166767822" lon="15.30561388536739" id="-5623">
		<tag k="name" v="Hannvika" />
=======
	<node id="-173757" lat="67.3276666634" lon="15.1401138816">
		<tag k="name" v="Sandvika" />
>>>>>>> e1d4bc35ff8a6074a6f2e91616a996b547c36f15
		<tag k="natural" v="bay" />
		<tag k="ssr:stedsnr" v="359661" />
	</node>
<<<<<<< HEAD
	<node lat="67.27503333468309" lon="15.036766659509983" id="-5648">
		<tag k="fixme" v="consider seamark:type=rock or natural=shoal" />
		<tag k="name" v="Kreklingen" />
		<tag k="place" v="islet" />
		<tag k="ssr:stedsnr" v="480735" />
	</node>
	<node lat="67.26468611474051" lon="15.246291669924853" id="-5670">
		<tag k="name" v="Røvika - Ruddaluokta" />
		<tag k="name:no" v="Røvika" />
		<tag k="name:smj" v="Ruddaluokta" />
=======
	<node id="-175279" lat="67.2216027785" lon="15.3864139003">
		<tag k="name" v="Børstø" />
		<tag k="natural" v="beach" />
		<tag k="place" v="locality" />
		<tag k="ssr:stedsnr" v="320952" />
	</node>
	<node id="-173741" lat="67.2296472186" lon="15.3682750087">
		<tag k="name" v="Pinvika" />
>>>>>>> e1d4bc35ff8a6074a6f2e91616a996b547c36f15
		<tag k="natural" v="bay" />
		<tag k="ssr:stedsnr" v="380781" />
	</node>
<<<<<<< HEAD
	<node lat="67.30517222387842" lon="15.155683322989452" id="-5686">
		<tag k="name" v="Skinnbrokvika" />
=======
	<node id="-173682" lat="67.282027776" lon="15.0710944465">
		<tag k="name" v="Utfallstranda" />
		<tag k="natural" v="beach" />
		<tag k="place" v="locality" />
		<tag k="ssr:stedsnr" v="238720" />
	</node>
	<node id="-173736" lat="67.2541138885" lon="15.2760111014">
		<tag k="name" v="Klungsetvika" />
>>>>>>> e1d4bc35ff8a6074a6f2e91616a996b547c36f15
		<tag k="natural" v="bay" />
		<tag k="ssr:stedsnr" v="388315" />
	</node>
<<<<<<< HEAD
	<node lat="67.25520555916754" lon="15.167941673303117" id="-5690">
		<tag k="name" v="Knubben" />
		<tag k="natural" v="cape" />
		<tag k="ssr:stedsnr" v="388692" />
	</node>
	<node lat="67.2479722211418" lon="15.422080551115158" id="-5698">
		<tag k="name" v="Rognan" />
		<tag k="natural" v="cape" />
		<tag k="ssr:stedsnr" v="390888" />
	</node>
	<node lat="67.3108944434742" lon="15.077144434037997" id="-5732">
		<tag k="name" v="Måsøya" />
		<tag k="place" v="islet" />
		<tag k="ssr:stedsnr" v="445676" />
	</node>
	<node lat="67.28701667000871" lon="15.114000011051376" id="-5749">
		<tag k="name" v="Naustvika" />
		<tag k="natural" v="bay" />
		<tag k="ssr:stedsnr" v="449612" />
	</node>
	<node lat="67.28931111515315" lon="15.127874992150398" id="-5750">
=======
	<node id="-174240" lat="67.2893111152" lon="15.1278749922">
>>>>>>> e1d4bc35ff8a6074a6f2e91616a996b547c36f15
		<tag k="fixme" v="consider seamark:type=rock or natural=shoal" />
		<tag k="name" v="Buberget" />
		<tag k="place" v="islet" />
		<tag k="ssr:stedsnr" v="449614" />
	</node>
<<<<<<< HEAD
	<node lat="67.27229444318975" lon="15.090805565058453" id="-5765">
		<tag k="name" v="Storvika" />
=======
	<node id="-174239" lat="67.28701667" lon="15.1140000111">
		<tag k="name" v="Naustvika" />
>>>>>>> e1d4bc35ff8a6074a6f2e91616a996b547c36f15
		<tag k="natural" v="bay" />
		<tag k="ssr:stedsnr" v="480724" />
	</node>
<<<<<<< HEAD
	<node lat="67.24285833164161" lon="15.264947217017667" id="-5767">
		<tag k="name" v="Brynsnesfjæra" />
		<tag k="natural" v="beach" />
		<tag k="ssr:stedsnr" v="480669" />
	</node>
	<node lat="67.26578055824724" lon="15.27343332399458" id="-5776">
		<tag k="alt_name" v="Tørresvik" />
		<tag k="name" v="Tørresvika" />
=======
	<node id="-174748" lat="67.2216222198" lon="15.3494694525">
		<tag k="name" v="Bukkvika" />
>>>>>>> e1d4bc35ff8a6074a6f2e91616a996b547c36f15
		<tag k="natural" v="bay" />
		<tag k="ssr:stedsnr" v="501729" />
	</node>
<<<<<<< HEAD
	<node lat="67.23607221872645" lon="15.441719444049943" id="-5836">
		<tag k="name" v="Halsen" />
=======
	<node id="-174730" lat="67.2885222185" lon="15.1220610999">
		<tag k="name" v="Skjåbergodden" />
>>>>>>> e1d4bc35ff8a6074a6f2e91616a996b547c36f15
		<tag k="natural" v="cape" />
		<tag k="ssr:stedsnr" v="684948" />
	</node>
<<<<<<< HEAD
	<node lat="67.28190278055808" lon="15.067383344482105" id="-5865">
		<tag k="fixme" v="consider seamark:type=rock or natural=shoal" />
		<tag k="name" v="Utfallskjæret" />
		<tag k="place" v="islet" />
		<tag k="ssr:stedsnr" v="688679" />
	</node>
	<node lat="67.28954444728286" lon="15.134424997559586" id="-5874">
		<tag k="name" v="Stemlandsosen" />
		<tag k="natural" v="bay" />
		<tag k="ssr:stedsnr" v="692593" />
	</node>
	<node lat="67.3132888896556" lon="15.160333330492314" id="-5878">
		<tag k="fixme" v="consider seamark:type=rock or natural=shoal" />
		<tag k="name" v="Brattåsskjæret" />
		<tag k="place" v="islet" />
		<tag k="ssr:stedsnr" v="692290" />
	</node>
	<node lat="67.2910694429779" lon="15.140069455478123" id="-5889">
		<tag k="name" v="Skykkjebukta" />
		<tag k="natural" v="bay" />
		<tag k="ssr:stedsnr" v="692646" />
	</node>
	<node lat="67.27551666521295" lon="15.013830553717527" id="-5891">
		<tag k="name" v="Alvenesgrunnen" />
		<tag k="natural" v="shoal" />
=======
	<node id="-174729" lat="67.2821166694" lon="15.1072888874">
		<tag k="name" v="Nordsjøen" />
		<tag k="natural" v="beach" />
>>>>>>> e1d4bc35ff8a6074a6f2e91616a996b547c36f15
		<tag k="place" v="locality" />
		<tag k="ssr:stedsnr" v="566659" />
	</node>
<<<<<<< HEAD
	<node lat="67.32797778190556" lon="15.145838895499224" id="-5903">
		<tag k="fixme" v="consider seamark:type=rock or natural=shoal" />
		<tag k="name" v="Kobbskjæret" />
		<tag k="place" v="islet" />
		<tag k="ssr:stedsnr" v="570662" />
	</node>
	<node lat="67.32365555158445" lon="15.117938888185364" id="-5945">
		<tag k="name" v="Dinesodden" />
		<tag k="natural" v="cape" />
		<tag k="ssr:stedsnr" v="626749" />
	</node>
	<node lat="67.3013083291429" lon="15.152258335682594" id="-5948">
		<tag k="fixme" v="consider seamark:type=rock or natural=shoal" />
		<tag k="name" v="Kobbskjæret" />
		<tag k="place" v="islet" />
		<tag k="ssr:stedsnr" v="630310" />
	</node>
	<node lat="67.2215361143991" lon="15.39934999153619" id="-5962">
		<tag k="name" v="Hamnvika" />
=======
	<node id="-175737" lat="67.2892944413" lon="15.1230472293">
		<tag k="fixme" v="consider seamark:type=rock or natural=shoal" />
		<tag k="name" v="Buskjæret" />
		<tag k="place" v="islet" />
		<tag k="ssr:stedsnr" v="752599" />
	</node>
	<node id="-174200" lat="67.3221638899" lon="15.1008722272">
		<tag k="name" v="Langbergvika" />
>>>>>>> e1d4bc35ff8a6074a6f2e91616a996b547c36f15
		<tag k="natural" v="bay" />
		<tag k="ssr:stedsnr" v="634896" />
	</node>
	<node lat="67.21466944092163" lon="15.40057777029512" id="-5963">
		<tag k="name" v="Oksøvika" />
		<tag k="natural" v="bay" />
		<tag k="ssr:stedsnr" v="634899" />
	</node>
	<node lat="67.27275832996831" lon="15.07431665816402" id="-5984">
		<tag k="name" v="Ungsmalvikfjæra" />
		<tag k="natural" v="beach" />
		<tag k="ssr:stedsnr" v="662721" />
	</node>
	<node lat="67.24116110847675" lon="14.744986107940386" id="-5996">
		<tag k="bay" v="fjord" />
		<tag k="name" v="Skjerstadfjorden" />
		<tag k="natural" v="bay" />
		<tag k="ssr:stedsnr" v="683607" />
	</node>
	<node lat="67.25646944052482" lon="15.18649721018167" id="-6009">
		<tag k="fixme" v="multiple name tags, choose one and add the other to alt_name" />
		<tag k="name" v="Djupvika;Juvika" />
		<tag k="natural" v="bay" />
		<tag k="ssr:stedsnr" v="688423" />
	</node>
	<node lat="67.27049722604394" lon="15.107588897364735" id="-6011">
		<tag k="fixme" v="multiple name tags, choose one and add the other to alt_name; consider seamark:type=rock or natural=shoal" />
		<tag k="name" v="Kvitingen;Neskvitingen" />
		<tag k="place" v="islet" />
		<tag k="ssr:stedsnr" v="688444" />
	</node>
<<<<<<< HEAD
	<node lat="67.28274166867708" lon="15.107869440815646" id="-6024">
		<tag k="name" v="Kongensøyra" />
		<tag k="natural" v="cape" />
		<tag k="ssr:stedsnr" v="692605" />
	</node>
	<node lat="67.28238610838076" lon="15.104969439740218" id="-6142">
		<tag k="name" v="Engøyra" />
		<tag k="natural" v="cape" />
		<tag k="ssr:stedsnr" v="813607" />
	</node>
	<node lat="67.29473888525213" lon="15.158444441808834" id="-6196">
		<tag k="name" v="Førrnessjøen" />
		<tag k="natural" v="beach" />
		<tag k="ssr:stedsnr" v="934311" />
	</node>
	<node lat="67.29503610928684" lon="15.126133339230405" id="-6259">
		<tag k="fixme" v="consider seamark:type=rock or natural=shoal" />
		<tag k="name" v="Skarven" />
		<tag k="place" v="islet" />
		<tag k="ssr:stedsnr" v="930703" />
	</node>
	<node lat="67.27294444729375" lon="15.079536113943426" id="-6293">
		<tag k="name" v="Holmen" />
		<tag k="natural" v="cape" />
		<tag k="ssr:stedsnr" v="966723" />
	</node>
	<node lat="67.26426389083336" lon="15.142572213766373" id="-6339">
		<tag k="fixme" v="multiple name tags, choose one and add the other to alt_name" />
		<tag k="name" v="Hundholmen;Hundholmneset" />
		<tag k="natural" v="cape" />
		<tag k="ssr:stedsnr" v="20423" />
	</node>
	<node lat="67.30363333365077" lon="15.070336121668324" id="-6340">
		<tag k="bay" v="fjord" />
		<tag k="name" v="Valnesfjorden" />
		<tag k="natural" v="bay" />
		<tag k="ssr:stedsnr" v="20670" />
	</node>
	<node lat="67.31971944221867" lon="15.086475005649303" id="-6341">
=======
	<node id="-175223" lat="67.2660388875" lon="15.3237638818">
		<tag k="name" v="Sjømannes" />
		<tag k="natural" v="cape" />
		<tag k="ssr:stedsnr" v="206975" />
	</node>
	<node id="-175209" lat="67.2992166684" lon="15.1788083282">
		<tag k="name" v="Straumen" />
		<tag k="natural" v="strait" />
		<tag k="ssr:stedsnr" v="206191" />
	</node>
	<node id="-174195" lat="67.2626944469" lon="15.142205563">
>>>>>>> e1d4bc35ff8a6074a6f2e91616a996b547c36f15
		<tag k="name" v="Holmen" />
		<tag k="place" v="islet" />
		<tag k="ssr:stedsnr" v="20757" />
	</node>
<<<<<<< HEAD
	<node lat="67.32991389026422" lon="15.159716658702532" id="-6359">
		<tag k="name" v="Tippen" />
		<tag k="natural" v="cape" />
		<tag k="ssr:stedsnr" v="24267" />
	</node>
	<node lat="67.29008333524584" lon="15.163491665876235" id="-6366">
		<tag k="name" v="Stoklandsjøen" />
=======
	<node id="-174194" lat="67.2747722239" lon="15.1074611157">
		<tag k="name" v="Sørsjøen" />
>>>>>>> e1d4bc35ff8a6074a6f2e91616a996b547c36f15
		<tag k="natural" v="beach" />
		<tag k="ssr:stedsnr" v="24662" />
	</node>
	<node lat="67.32027222528637" lon="15.091252785894158" id="-6370">
		<tag k="fixme" v="consider seamark:type=rock or natural=shoal" />
		<tag k="name" v="Skjæret" />
		<tag k="place" v="islet" />
		<tag k="ssr:stedsnr" v="25314" />
	</node>
	<node lat="67.3287555572225" lon="15.147002779825822" id="-6435">
		<tag k="name" v="Kobbskjærodden" />
		<tag k="natural" v="cape" />
		<tag k="ssr:stedsnr" v="80754" />
	</node>
	<node lat="67.28333055450413" lon="15.08133334357486" id="-6439">
		<tag k="alt_name" v="Måsnes" />
		<tag k="name" v="Mosneset" />
		<tag k="natural" v="cape" />
		<tag k="ssr:stedsnr" v="81688" />
	</node>
	<node lat="67.29876389172833" lon="15.151997212169311" id="-6440">
		<tag k="name" v="Skaftvika" />
		<tag k="natural" v="bay" />
		<tag k="ssr:stedsnr" v="81708" />
	</node>
	<node lat="67.28592500310876" lon="15.112644452576845" id="-6460">
		<tag k="name" v="Peder-Jansoøyra" />
		<tag k="natural" v="beach" />
		<tag k="ssr:stedsnr" v="85550" />
	</node>
	<node lat="67.32836666432301" lon="15.140230549832328" id="-6462">
		<tag k="name" v="Sandvikodden" />
		<tag k="natural" v="cape" />
		<tag k="ssr:stedsnr" v="85657" />
	</node>
	<node lat="67.24787222588188" lon="15.423916676350142" id="-6478">
		<tag k="name" v="Straumøyra" />
		<tag k="natural" v="cape" />
		<tag k="ssr:stedsnr" v="87900" />
	</node>
	<node lat="67.29638333363467" lon="15.123958342076527" id="-6491">
		<tag k="name" v="Skarvgrunnen" />
		<tag k="natural" v="shoal" />
		<tag k="place" v="locality" />
<<<<<<< HEAD
		<tag k="ssr:stedsnr" v="104554" />
	</node>
	<node lat="67.25934999901483" lon="15.423749996135577" id="-6550">
		<tag k="alt_name" v="Fauskevika, inner" />
		<tag k="name" v="Indre Fauskevika" />
=======
		<tag k="ssr:stedsnr" v="510735" />
	</node>
	<node id="-173681" lat="67.2724750038" lon="15.0845666633">
		<tag k="name" v="Rekvika" />
>>>>>>> e1d4bc35ff8a6074a6f2e91616a996b547c36f15
		<tag k="natural" v="bay" />
		<tag k="ssr:stedsnr" v="137731" />
	</node>
<<<<<<< HEAD
	<node lat="67.32060277421391" lon="15.076005552281917" id="-6558">
		<tag k="alt_name" v="Ytstneset" />
		<tag k="name" v="Ytstnes" />
		<tag k="natural" v="cape" />
		<tag k="ssr:stedsnr" v="141700" />
	</node>
	<node lat="67.32082500332724" lon="15.16787777914384" id="-6563">
		<tag k="name" v="Nordviksjøen" />
		<tag k="natural" v="beach" />
		<tag k="ssr:stedsnr" v="145261" />
	</node>
	<node lat="67.29217777891304" lon="15.122650001602773" id="-6573">
		<tag k="name" v="Mo-Annahella" />
		<tag k="natural" v="beach" />
		<tag k="ssr:stedsnr" v="145623" />
	</node>
	<node lat="67.31648889252088" lon="15.076355544755561" id="-6631">
=======
	<node id="-175216" lat="67.2828777802" lon="15.1113611039">
		<tag k="name" v="Tømmerosen" />
		<tag k="natural" v="bay" />
		<tag k="ssr:stedsnr" v="206600" />
	</node>
	<node id="-174191" lat="67.2937361106" lon="15.1241138903">
		<tag k="fixme" v="consider seamark:type=rock or natural=shoal" />
		<tag k="name" v="Bortiskjæret" />
		<tag k="place" v="islet" />
		<tag k="ssr:stedsnr" v="510636" />
	</node>
	<node id="-175721" lat="67.295652775" lon="15.1642527724">
		<tag k="name" v="Åkervika" />
		<tag k="natural" v="bay" />
		<tag k="ssr:stedsnr" v="752267" />
	</node>
	<node id="-174526" lat="67.219736111" lon="15.3793250067">
		<tag k="name" v="Rekvika" />
		<tag k="natural" v="bay" />
		<tag k="ssr:stedsnr" v="878785" />
	</node>
	<node id="-174353" lat="67.2564694405" lon="15.1864972102">
		<tag k="fixme" v="multiple name tags, choose one and add the other to alt_name" />
		<tag k="name" v="Djupvika;Juvika" />
		<tag k="natural" v="bay" />
		<tag k="ssr:stedsnr" v="688423" />
	</node>
	<node id="-175200" lat="67.3164888925" lon="15.0763555448">
>>>>>>> e1d4bc35ff8a6074a6f2e91616a996b547c36f15
		<tag k="name" v="Risøya" />
		<tag k="place" v="islet" />
		<tag k="ssr:stedsnr" v="202675" />
	</node>
<<<<<<< HEAD
	<node lat="67.29921666841442" lon="15.178808328203385" id="-6642">
		<tag k="name" v="Straumen" />
		<tag k="natural" v="strait" />
		<tag k="ssr:stedsnr" v="206191" />
	</node>
	<node lat="67.28287778021057" lon="15.111361103880556" id="-6649">
		<tag k="name" v="Tømmerosen" />
		<tag k="natural" v="bay" />
		<tag k="ssr:stedsnr" v="206600" />
	</node>
	<node lat="67.2660388874919" lon="15.323763881802995" id="-6655">
		<tag k="name" v="Sjømannes" />
=======
	<node id="-174949" lat="67.215874998" lon="15.3960416575">
		<tag k="name" v="Storneset" />
		<tag k="natural" v="cape" />
		<tag k="ssr:stedsnr" v="77149" />
	</node>
	<node id="-174162" lat="67.3220888893" lon="15.1536249962">
		<tag k="name" v="Nordvika" />
		<tag k="natural" v="bay" />
		<tag k="ssr:stedsnr" v="505745" />
	</node>
	<node id="-174161" lat="67.2927916647" lon="15.1275611074">
		<tag k="fixme" v="consider seamark:type=rock or natural=shoal" />
		<tag k="name" v="Gammelreiten" />
		<tag k="place" v="islet" />
		<tag k="ssr:stedsnr" v="505701" />
	</node>
	<node id="-173647" lat="67.2435416628" lon="15.2682000009">
		<tag k="name" v="Brynesodden" />
>>>>>>> e1d4bc35ff8a6074a6f2e91616a996b547c36f15
		<tag k="natural" v="cape" />
		<tag k="ssr:stedsnr" v="206975" />
	</node>
<<<<<<< HEAD
	<node lat="67.22160277846051" lon="15.386413900298185" id="-6728">
		<tag k="name" v="Børstø" />
		<tag k="natural" v="beach" />
		<tag k="ssr:stedsnr" v="320952" />
	</node>
	<node lat="67.21723888865799" lon="15.394380561443286" id="-6769">
		<tag k="name" v="Beritvika" />
=======
	<node id="-174155" lat="67.2479722211" lon="15.4220805511">
		<tag k="name" v="Rognan" />
		<tag k="natural" v="cape" />
		<tag k="ssr:stedsnr" v="390888" />
	</node>
	<node id="-175686" lat="67.3261916688" lon="15.1739777693">
		<tag k="name" v="Stillvika" />
		<tag k="natural" v="bay" />
		<tag k="ssr:stedsnr" v="875542" />
	</node>
	<node id="-175684" lat="67.2146694409" lon="15.4005777703">
		<tag k="name" v="Oksøvika" />
		<tag k="natural" v="bay" />
		<tag k="ssr:stedsnr" v="634899" />
	</node>
	<node id="-175683" lat="67.2215361144" lon="15.3993499915">
		<tag k="name" v="Hamnvika" />
		<tag k="natural" v="bay" />
		<tag k="ssr:stedsnr" v="634896" />
	</node>
	<node id="-175677" lat="67.2739277745" lon="15.1074083207">
		<tag k="name" v="Storvika" />
		<tag k="natural" v="bay" />
		<tag k="ssr:stedsnr" v="631724" />
	</node>
	<node id="-174135" lat="67.3051722239" lon="15.155683323">
		<tag k="name" v="Skinnbrokvika" />
>>>>>>> e1d4bc35ff8a6074a6f2e91616a996b547c36f15
		<tag k="natural" v="bay" />
		<tag k="ssr:stedsnr" v="331881" />
	</node>
	<node lat="67.21499166504245" lon="15.394727778144176" id="-6770">
		<tag k="name" v="Indre Stornesodden" />
		<tag k="natural" v="cape" />
		<tag k="ssr:stedsnr" v="331884" />
	</node>
<<<<<<< HEAD
	<node lat="67.27428055425769" lon="15.034491670166306" id="-6790">
=======
	<node id="-173622" lat="67.3202722253" lon="15.0912527859">
>>>>>>> e1d4bc35ff8a6074a6f2e91616a996b547c36f15
		<tag k="fixme" v="consider seamark:type=rock or natural=shoal" />
		<tag k="name" v="Løktskjæret" />
		<tag k="place" v="islet" />
<<<<<<< HEAD
		<tag k="ssr:stedsnr" v="359727" />
	</node>
	<node lat="67.31221111294617" lon="15.160050005405072" id="-6809">
		<tag k="name" v="Brattåsvika" />
=======
		<tag k="ssr:stedsnr" v="25314" />
	</node>
	<node id="-174127" lat="67.3122111129" lon="15.1600500054">
		<tag k="name" v="Brattåsvika" />
		<tag k="natural" v="bay" />
		<tag k="ssr:stedsnr" v="384663" />
	</node>
	<node id="-175655" lat="67.3296138867" lon="15.1694083241">
		<tag k="name" v="Mølnvika" />
		<tag k="natural" v="bay" />
		<tag k="ssr:stedsnr" v="630282" />
	</node>
	<node id="-173605" lat="67.2312444484" lon="15.2885777793">
		<tag k="name" v="Bjørkvika" />
>>>>>>> e1d4bc35ff8a6074a6f2e91616a996b547c36f15
		<tag k="natural" v="bay" />
		<tag k="ssr:stedsnr" v="384663" />
	</node>
<<<<<<< HEAD
	<node lat="67.32045000374472" lon="15.081633333537312" id="-6814">
		<tag k="name" v="Nesodden" />
		<tag k="natural" v="cape" />
		<tag k="ssr:stedsnr" v="384424" />
	</node>
	<node lat="67.2181444418004" lon="15.391386104936213" id="-6852">
		<tag k="name" v="Stornesodden" />
		<tag k="natural" v="cape" />
		<tag k="ssr:stedsnr" v="392887" />
	</node>
	<node lat="67.25437499698992" lon="15.172413891542956" id="-6911">
		<tag k="alt_name" v="Mjeldneset" />
		<tag k="name" v="Mjellnesodden" />
		<tag k="natural" v="cape" />
		<tag k="ssr:stedsnr" v="445442" />
	</node>
	<node lat="67.27477222387384" lon="15.107461115687629" id="-6913">
		<tag k="name" v="Sørsjøen" />
=======
	<node id="-175140" lat="67.3246944407" lon="15.1261333432">
		<tag k="name" v="Lille Sandvika" />
		<tag k="natural" v="bay" />
		<tag k="ssr:stedsnr" v="147651" />
	</node>
	<node id="-173603" lat="67.2481888864" lon="15.4257444331">
		<tag k="name" v="Finneidstraumen" />
		<tag k="natural" v="strait" />
		<tag k="ssr:stedsnr" v="16918" />
	</node>
	<node id="-174624" lat="67.2997333332" lon="15.1308250109">
		<tag k="name" v="Skaftgrunnen" />
		<tag k="natural" v="shoal" />
		<tag k="place" v="locality" />
		<tag k="ssr:stedsnr" v="748656" />
	</node>
	<node id="-174618" lat="67.2088277749" lon="15.4324055491">
		<tag k="name" v="Tussvika" />
		<tag k="natural" v="bay" />
		<tag k="ssr:stedsnr" v="744959" />
	</node>
	<node id="-175128" lat="67.2921777789" lon="15.1226500016">
		<tag k="name" v="Mo-Annahella" />
>>>>>>> e1d4bc35ff8a6074a6f2e91616a996b547c36f15
		<tag k="natural" v="beach" />
		<tag k="ssr:stedsnr" v="510735" />
	</node>
<<<<<<< HEAD
	<node lat="67.26269444689082" lon="15.142205562979944" id="-6914">
		<tag k="name" v="Holmen" />
		<tag k="place" v="islet" />
		<tag k="ssr:stedsnr" v="510743" />
	</node>
	<node lat="67.20063333084765" lon="15.440791657668099" id="-6928">
=======
	<node id="-174102" lat="67.2006333308" lon="15.4407916577">
>>>>>>> e1d4bc35ff8a6074a6f2e91616a996b547c36f15
		<tag k="alt_name" v="Langrudodden" />
		<tag k="name" v="Langurodden" />
		<tag k="natural" v="cape" />
		<tag k="ssr:stedsnr" v="501954" />
	</node>
<<<<<<< HEAD
	<node lat="67.29279166472374" lon="15.127561107391614" id="-6940">
		<tag k="fixme" v="consider seamark:type=rock or natural=shoal" />
		<tag k="name" v="Gammelreiten" />
		<tag k="place" v="islet" />
		<tag k="ssr:stedsnr" v="505701" />
	</node>
	<node lat="67.32208888934393" lon="15.153624996237046" id="-6941">
		<tag k="name" v="Nordvika" />
		<tag k="natural" v="bay" />
		<tag k="ssr:stedsnr" v="505745" />
	</node>
	<node lat="67.2937361105536" lon="15.124113890251454" id="-6959">
		<tag k="fixme" v="consider seamark:type=rock or natural=shoal" />
		<tag k="name" v="Bortiskjæret" />
		<tag k="place" v="islet" />
		<tag k="ssr:stedsnr" v="510636" />
	</node>
	<node lat="67.32216388993785" lon="15.100872227174564" id="-6965">
		<tag k="name" v="Langbergvika" />
=======
	<node id="-175120" lat="67.2952638926" lon="15.1489361028">
		<tag k="name" v="Leira" />
		<tag k="natural" v="shoal" />
		<tag k="place" v="locality" />
		<tag k="ssr:stedsnr" v="145282" />
	</node>
	<node id="-175118" lat="67.3208250033" lon="15.1678777791">
		<tag k="name" v="Nordviksjøen" />
		<tag k="natural" v="beach" />
		<tag k="place" v="locality" />
		<tag k="ssr:stedsnr" v="145261" />
	</node>
	<node id="-174092" lat="67.2657805582" lon="15.273433324">
		<tag k="alt_name" v="Tørresvik" />
		<tag k="name" v="Tørresvika" />
>>>>>>> e1d4bc35ff8a6074a6f2e91616a996b547c36f15
		<tag k="natural" v="bay" />
		<tag k="ssr:stedsnr" v="511652" />
	</node>
<<<<<<< HEAD
	<node lat="67.23515277549421" lon="15.248349993422417" id="-7044">
		<tag k="alt_name" v="Gavveln" />
		<tag k="name" v="Gavlen" />
=======
	<node id="-175107" lat="67.3206027742" lon="15.0760055523">
		<tag k="alt_name" v="Ytstneset" />
		<tag k="name" v="Ytstnes" />
>>>>>>> e1d4bc35ff8a6074a6f2e91616a996b547c36f15
		<tag k="natural" v="cape" />
		<tag k="ssr:stedsnr" v="562924" />
	</node>
<<<<<<< HEAD
	<node lat="67.23609444620057" lon="15.352624990686344" id="-7052">
		<tag k="name" v="Fauskevika" />
=======
	<node id="-174081" lat="67.2435916677" lon="15.3056138854">
		<tag k="name" v="Hannvika" />
>>>>>>> e1d4bc35ff8a6074a6f2e91616a996b547c36f15
		<tag k="natural" v="bay" />
		<tag k="ssr:stedsnr" v="562908" />
	</node>
<<<<<<< HEAD
	<node lat="67.27863610780673" lon="15.058380563847145" id="-7059">
		<tag k="name" v="Utfall" />
		<tag k="natural" v="cape" />
		<tag k="ssr:stedsnr" v="566665" />
	</node>
	<node lat="67.2810583314693" lon="15.08898334245174" id="-7060">
		<tag k="alt_name" v="Mosnesvika;Måsnesbukta" />
		<tag k="name" v="Mosnesbukta" />
		<tag k="natural" v="bay" />
		<tag k="ssr:stedsnr" v="566667" />
	</node>
	<node lat="67.2619916704209" lon="15.14462222664666" id="-7083">
		<tag k="name" v="Naustholmen" />
		<tag k="natural" v="cape" />
		<tag k="ssr:stedsnr" v="570688" />
	</node>
	<node lat="67.27103055859565" lon="15.109130556106157" id="-7085">
		<tag k="fixme" v="consider seamark:type=rock or natural=shoal" />
		<tag k="name" v="Hestekkerskjæret" />
		<tag k="place" v="islet" />
		<tag k="ssr:stedsnr" v="570648" />
	</node>
	<node lat="67.2543111100654" lon="15.427938891209683" id="-7094">
		<tag k="name" v="Kleivhammarodden" />
		<tag k="natural" v="cape" />
		<tag k="ssr:stedsnr" v="571869" />
	</node>
	<node lat="67.32961388674234" lon="15.16940832408741" id="-7167">
		<tag k="name" v="Mølnvika" />
		<tag k="natural" v="bay" />
		<tag k="ssr:stedsnr" v="630282" />
	</node>
	<node lat="67.27392777449403" lon="15.10740832068122" id="-7187">
		<tag k="name" v="Storvika" />
		<tag k="natural" v="bay" />
		<tag k="ssr:stedsnr" v="631724" />
	</node>
	<node lat="67.2332861151535" lon="15.28028889790064" id="-7219">
		<tag k="name" v="Munnisvika" />
		<tag k="natural" v="bay" />
		<tag k="ssr:stedsnr" v="662680" />
	</node>
	<node lat="67.24108888844846" lon="15.254619443268576" id="-7220">
		<tag k="name" v="Rognan" />
		<tag k="natural" v="shoal" />
		<tag k="place" v="locality" />
		<tag k="ssr:stedsnr" v="662682" />
	</node>
	<node lat="67.27568611442304" lon="15.042080550430699" id="-7222">
		<tag k="name" v="Hestvikoddan" />
		<tag k="natural" v="cape" />
		<tag k="ssr:stedsnr" v="662734" />
	</node>
	<node lat="67.20882777491919" lon="15.43240554905979" id="-7275">
		<tag k="name" v="Tussvika" />
		<tag k="natural" v="bay" />
		<tag k="ssr:stedsnr" v="744959" />
	</node>
	<node lat="67.29973333322309" lon="15.130825010913526" id="-7281">
		<tag k="name" v="Skaftgrunnen" />
		<tag k="natural" v="shoal" />
		<tag k="place" v="locality" />
		<tag k="ssr:stedsnr" v="748656" />
	</node>
	<node lat="67.29565277504848" lon="15.164252772439355" id="-7297">
		<tag k="name" v="Åkervika" />
		<tag k="natural" v="bay" />
		<tag k="ssr:stedsnr" v="752267" />
	</node>
	<node lat="67.28929444129605" lon="15.123047229251123" id="-7304">
		<tag k="fixme" v="consider seamark:type=rock or natural=shoal" />
		<tag k="name" v="Buskjæret" />
		<tag k="place" v="islet" />
		<tag k="ssr:stedsnr" v="752599" />
	</node>
	<node lat="67.2178972257178" lon="15.368141662382294" id="-7379">
		<tag k="name" v="Innerleivsetodden" />
		<tag k="natural" v="cape" />
		<tag k="ssr:stedsnr" v="805940" />
	</node>
	<node lat="67.22199722386699" lon="15.351586100340544" id="-7380">
		<tag k="name" v="Ytterleivsetodden" />
		<tag k="natural" v="cape" />
		<tag k="ssr:stedsnr" v="805942" />
	</node>
	<node lat="67.3283999968894" lon="15.164263894045241" id="-7392">
		<tag k="name" v="Kvannesodden" />
		<tag k="natural" v="cape" />
		<tag k="ssr:stedsnr" v="813246" />
	</node>
	<node lat="67.25754721878099" lon="15.158108325099263" id="-7400">
		<tag k="name" v="Bogen" />
		<tag k="natural" v="bay" />
		<tag k="ssr:stedsnr" v="813733" />
	</node>
	<node lat="67.32163888748815" lon="15.088966661272346" id="-7403">
		<tag k="name" v="Tjønnberget" />
		<tag k="natural" v="cape" />
		<tag k="ssr:stedsnr" v="814348" />
	</node>
	<node lat="67.2229305515647" lon="15.397591672634928" id="-7418">
		<tag k="name" v="Holmen" />
		<tag k="natural" v="cape" />
		<tag k="ssr:stedsnr" v="817890" />
	</node>
	<node lat="67.27455833589055" lon="15.035977780308414" id="-7444">
		<tag k="fixme" v="consider seamark:type=rock or natural=shoal" />
		<tag k="name" v="Langskjæret" />
		<tag k="place" v="islet" />
		<tag k="ssr:stedsnr" v="845757" />
	</node>
	<node lat="67.22898055754212" lon="15.295602778994573" id="-7480">
		<tag k="name" v="Skjelbakkodden" />
		<tag k="natural" v="cape" />
		<tag k="ssr:stedsnr" v="866934" />
	</node>
	<node lat="67.24308055865619" lon="15.312661112914379" id="-7487">
		<tag k="name" v="Hamnvika" />
		<tag k="natural" v="bay" />
		<tag k="ssr:stedsnr" v="866928" />
	</node>
	<node lat="67.2908805563567" lon="15.136044449270345" id="-7523">
		<tag k="loc_name" v="Storøyra" />
		<tag k="name" v="Storøya" />
		<tag k="natural" v="cape" />
		<tag k="ssr:stedsnr" v="874625" />
	</node>
	<node lat="67.28954721872508" lon="15.160977766284491" id="-7528">
		<tag k="name" v="Raudvollosen" />
		<tag k="natural" v="bay" />
		<tag k="ssr:stedsnr" v="874680" />
	</node>
	<node lat="67.289094447814" lon="15.155719449974404" id="-7529">
		<tag k="name" v="Osen" />
		<tag k="natural" v="bay" />
		<tag k="ssr:stedsnr" v="874681" />
	</node>
	<node lat="67.26503055535895" lon="15.305072218467986" id="-7536">
		<tag k="name" v="Skjåberget" />
		<tag k="natural" v="cape" />
		<tag k="ssr:stedsnr" v="875370" />
	</node>
	<node lat="67.32619166877231" lon="15.173977769331053" id="-7538">
		<tag k="name" v="Stillvika" />
		<tag k="natural" v="bay" />
		<tag k="ssr:stedsnr" v="875542" />
	</node>
	<node lat="67.21973611098608" lon="15.379325006715135" id="-7546">
		<tag k="name" v="Rekvika" />
		<tag k="natural" v="bay" />
		<tag k="ssr:stedsnr" v="878785" />
	</node>
	<node lat="67.28211666941958" lon="15.107288887445758" id="-7548">
		<tag k="name" v="Nordsjøen" />
		<tag k="natural" v="beach" />
		<tag k="ssr:stedsnr" v="935633" />
	</node>
	<node lat="67.28852221851045" lon="15.122061099878737" id="-7549">
		<tag k="name" v="Skjåbergodden" />
		<tag k="natural" v="cape" />
		<tag k="ssr:stedsnr" v="935636" />
	</node>
	<node lat="67.221622219778" lon="15.349469452530267" id="-7563">
		<tag k="name" v="Bukkvika" />
		<tag k="natural" v="bay" />
		<tag k="ssr:stedsnr" v="938796" />
	</node>
	<node lat="67.24102500285942" lon="15.414013878046834" id="-7566">
		<tag k="name" v="Skysselvika" />
		<tag k="natural" v="bay" />
		<tag k="ssr:stedsnr" v="950739" />
	</node>
	<node lat="67.2759388870328" lon="15.036700003986263" id="-7572">
		<tag k="fixme" v="consider seamark:type=rock or natural=shoal" />
		<tag k="name" v="Oksen" />
		<tag k="place" v="islet" />
		<tag k="ssr:stedsnr" v="966740" />
	</node>
	<node lat="67.29126318862987" lon="15.147160684597106" id="-7594">
		<tag k="name" v="Kaldneset" />
		<tag k="natural" v="cape" />
		<tag k="ssr:stedsnr" v="974917" />
	</node>
=======
>>>>>>> e1d4bc35ff8a6074a6f2e91616a996b547c36f15
</osm>
