<?xml version="1.0" encoding="UTF-8"?>
<osm generator="osmapis" version="0.6">
	<node id="-174072" lat="67.2263166666" lon="15.5479166586">
		<tag k="name" v="Krokelva" />
		<tag k="ssr:stedsnr" v="358353" />
		<tag k="waterway" v="stream" />
	</node>
	<node id="-174067" lat="67.2295472197" lon="15.5710277784">
		<tag k="name" v="Mostiengodden" />
		<tag k="natural" v="cape" />
		<tag k="ssr:stedsnr" v="481218" />
	</node>
	<node id="-173734" lat="67.3367166695" lon="15.4919972199">
		<tag k="alt_name" v="Seljeåsosen" />
		<tag k="name" v="Seljåsosen" />
		<tag k="ssr:stedsnr" v="259911" />
		<tag k="waterway" v="stream" />
	</node>
	<node id="-174038" lat="67.3205166688" lon="15.4978472318">
		<tag k="name" v="Dalosen" />
		<tag k="ssr:stedsnr" v="480041" />
		<tag k="waterway" v="stream" />
	</node>
	<node id="-174034" lat="67.40331944" lon="15.4094555609">
		<tag k="name" v="Dalengelva" />
		<tag k="ssr:stedsnr" v="328522" />
		<tag k="waterway" v="river" />
	</node>
	<node id="-174033" lat="67.4042333373" lon="15.4290333251">
		<tag k="name" v="Husa-Pettervatnet" />
		<tag k="natural" v="water" />
		<tag k="ssr:stedsnr" v="328518" />
		<tag k="water" v="lake" />
	</node>
	<node id="-174032" lat="67.3974166655" lon="15.3937611024">
		<tag k="name" v="Fridalforsen" />
		<tag k="natural" v="waterfall" />
		<tag k="ssr:stedsnr" v="328508" />
	</node>
	<node id="-174029" lat="67.3244222193" lon="15.0909166637">
		<tag k="name" v="Gårdselva" />
		<tag k="ssr:stedsnr" v="328316" />
		<tag k="waterway" v="stream" />
	</node>
	<node id="-174027" lat="67.3433861084" lon="15.2685083207">
		<tag k="name" v="Hestvadholmen" />
		<tag k="place" v="islet" />
		<tag k="ssr:stedsnr" v="328208" />
	</node>
	<node id="-174023" lat="67.1084916661" lon="15.7874972185">
		<tag k="name" v="Hjerttjønnen" />
		<tag k="natural" v="water" />
		<tag k="ssr:stedsnr" v="299256" />
		<tag k="water" v="lake" />
	</node>
	<node id="-174018" lat="67.3952444411" lon="15.4500250079">
		<tag k="name" v="Austerdalselva" />
		<tag k="ssr:stedsnr" v="287563" />
		<tag k="waterway" v="river" />
	</node>
	<node id="-174005" lat="67.284130552" lon="15.124099992">
		<tag k="name" v="Ol-Jensodiket" />
		<tag k="ssr:stedsnr" v="267605" />
		<tag k="waterway" v="stream" />
	</node>
	<node id="-174003" lat="67.3180388851" lon="15.3033583268">
		<tag k="name" v="Rødsandbukta" />
		<tag k="natural" v="bay" />
		<tag k="ssr:stedsnr" v="267410" />
	</node>
	<node id="-174000" lat="67.3510999986" lon="15.1880527702">
		<tag k="name" v="Grytåga" />
		<tag k="ssr:stedsnr" v="263704" />
		<tag k="waterway" v="stream" />
	</node>
	<node id="-173998" lat="67.3163694415" lon="15.3494611053">
		<tag k="name" v="Nedre Tjønna" />
		<tag k="natural" v="water" />
		<tag k="ssr:stedsnr" v="259840" />
	</node>
	<node id="-173994" lat="67.1564250035" lon="15.8238500011">
		<tag k="name" v="Stor-Tjårrisvatnet - Tjåresjávrre" />
		<tag k="name:no" v="Stor-Tjårrisvatnet" />
		<tag k="name:smj" v="Tjåresjávrre" />
		<tag k="natural" v="water" />
		<tag k="old_name:smj" v="Čoresjávri" />
		<tag k="ssr:stedsnr" v="259210" />
		<tag k="water" v="lake" />
	</node>
	<node id="-173992" lat="67.2030805527" lon="15.5721138938">
		<tag k="name" v="Svartvatnet" />
		<tag k="natural" v="water" />
		<tag k="ssr:stedsnr" v="258959" />
	</node>
	<node id="-173990" lat="67.291222224" lon="15.5119416755">
		<tag k="name" v="Lomtjønna" />
		<tag k="natural" v="water" />
		<tag k="ssr:stedsnr" v="258855" />
	</node>
	<node id="-173986" lat="67.2455611128" lon="15.5075999995">
		<tag k="name" v="Renna" />
		<tag k="natural" v="strait" />
		<tag k="ssr:stedsnr" v="452539" />
	</node>
	<node id="-173980" lat="67.2690333352" lon="15.3411416644">
		<tag k="name" v="Klungsetelva" />
		<tag k="ssr:stedsnr" v="451276" />
		<tag k="waterway" v="stream" />
	</node>
	<node id="-173722" lat="67.3700138869" lon="15.4729666633">
		<tag k="name" v="Litlsørdalsvatnet" />
		<tag k="natural" v="water" />
		<tag k="ssr:stedsnr" v="258997" />
	</node>
	<node id="-173973" lat="67.3881833334" lon="15.360058326">
		<tag k="name" v="Krubbelva" />
		<tag k="ssr:stedsnr" v="449745" />
		<tag k="waterway" v="stream" />
	</node>
	<node id="-173968" lat="67.438683336" lon="15.3737694539">
		<tag k="name" v="Krubbliholmen" />
		<tag k="place" v="islet" />
		<tag k="ssr:stedsnr" v="449271" />
	</node>
	<node id="-173963" lat="67.3208611073" lon="15.312349993">
		<tag k="name" v="Kvannågosen" />
		<tag k="natural" v="bay" />
		<tag k="ssr:stedsnr" v="449349" />
	</node>
	<node id="-173960" lat="67.3439138865" lon="15.2709861082">
		<tag k="name" v="Hola" />
		<tag k="natural" v="bay" />
		<tag k="ssr:stedsnr" v="449195" />
	</node>
	<node id="-173958" lat="67.3035305547" lon="15.1888805463">
		<tag k="name" v="Tauskjerringgrunnen" />
		<tag k="natural" v="shoal" />
		<tag k="place" v="locality" />
		<tag k="ssr:stedsnr" v="449166" />
	</node>
	<node id="-176004" lat="67.1740861142" lon="15.8163194445">
		<tag k="name" v="Dråvika" />
		<tag k="natural" v="water" />
		<tag k="ssr:stedsnr" v="966229" />
		<tag k="water" v="lake" />
	</node>
	<node id="-173955" lat="67.3281583335" lon="15.2973416593">
		<tag k="name" v="Bergediket" />
		<tag k="ssr:stedsnr" v="448493" />
		<tag k="waterway" v="stream" />
	</node>
	<node id="-173953" lat="67.2823555589" lon="15.165905562">
		<tag k="alt_name" v="Stoklandselva" />
		<tag k="name" v="Stokklandselva" />
		<tag k="ssr:stedsnr" v="445696" />
		<tag k="waterway" v="stream" />
	</node>
	<node id="-173949" lat="67.3294805579" lon="15.1313833259">
		<tag k="alt_name" v="Sandvikselva" />
		<tag k="name" v="Sandvikelva" />
		<tag k="ssr:stedsnr" v="444741" />
		<tag k="waterway" v="stream" />
	</node>
	<node id="-173947" lat="67.3907277758" lon="15.2598249914">
		<tag k="name" v="Drogvasselva" />
		<tag k="ssr:stedsnr" v="441966" />
		<tag k="waterway" v="stream" />
	</node>
	<node id="-173946" lat="67.3939361125" lon="15.3708555606">
		<tag k="alt_name" v="Trolovelsvatnet" />
		<tag k="name" v="Trolovesvatnet" />
		<tag k="natural" v="water" />
		<tag k="ssr:stedsnr" v="441960" />
	</node>
	<node id="-175991" lat="67.2291194434" lon="15.5827805456">
		<tag k="alt_name" v="Beretnes" />
		<tag k="name" v="Beretneset" />
		<tag k="natural" v="cape" />
		<tag k="ssr:stedsnr" v="953434" />
	</node>
	<node id="-173942" lat="67.3360749991" lon="15.5162166568">
		<tag k="name" v="Vallvatnet" />
		<tag k="natural" v="water" />
		<tag k="ssr:stedsnr" v="441920" />
		<tag k="water" v="lake" />
	</node>
	<node id="-173941" lat="67.3387805549" lon="15.3831861118">
		<tag k="loc_name" v="Tokdalvatnet" />
		<tag k="name" v="Toktdalsvatnet" />
		<tag k="natural" v="water" />
		<tag k="ssr:stedsnr" v="441916" />
		<tag k="water" v="lake" />
	</node>
	<node id="-173936" lat="67.3195999976" lon="15.4233888776">
		<tag k="name" v="Storvatnet" />
		<tag k="natural" v="water" />
		<tag k="ssr:stedsnr" v="441838" />
	</node>
	<node id="-173935" lat="67.4061694428" lon="15.3924333282">
		<tag k="name" v="Nordelva" />
		<tag k="ssr:stedsnr" v="441314" />
		<tag k="waterway" v="river" />
	</node>
	<node id="-173932" lat="67.1513972196" lon="15.8478638765">
		<tag k="name" v="Lánjak" />
		<tag k="name:smj" v="Lánjak" />
		<tag k="natural" v="water" />
		<tag k="old_name:smj" v="Lanjak" />
		<tag k="ssr:stedsnr" v="441216" />
	</node>
	<node id="-173931" lat="67.144147224" lon="16.1307694478">
		<tag k="name" v="Gikenelva" />
		<tag k="ssr:stedsnr" v="441211" />
		<tag k="waterway" v="river" />
	</node>
	<node id="-173930" lat="67.1372250028" lon="15.8780166731">
		<tag k="name" v="Holmtjønna" />
		<tag k="natural" v="water" />
		<tag k="ssr:stedsnr" v="441209" />
	</node>
	<node id="-173928" lat="67.1048277746" lon="16.0226138865">
		<tag k="name" v="Granheibekken" />
		<tag k="ssr:stedsnr" v="441198" />
		<tag k="waterway" v="river" />
	</node>
	<node id="-173925" lat="67.2016444406" lon="15.8144999998">
		<tag k="name" v="Tverrelva" />
		<tag k="ssr:stedsnr" v="441128" />
		<tag k="waterway" v="river" />
	</node>
	<node id="-175972" lat="67.327852778" lon="15.2910166616">
		<tag k="name" v="Lappgammforsen" />
		<tag k="natural" v="waterfall" />
		<tag k="ssr:stedsnr" v="874516" />
	</node>
	<node id="-175969" lat="67.4354972221" lon="15.3506694529">
		<tag k="name" v="Gammtjønna" />
		<tag k="natural" v="water" />
		<tag k="ssr:stedsnr" v="874294" />
	</node>
	<node id="-175968" lat="67.4355055559" lon="15.3462805648">
		<tag k="name" v="Sivtjønna" />
		<tag k="natural" v="water" />
		<tag k="ssr:stedsnr" v="874292" />
	</node>
	<node id="-175966" lat="67.4280305535" lon="15.3778805538">
		<tag k="name" v="Kaffetjønna" />
		<tag k="natural" v="water" />
		<tag k="ssr:stedsnr" v="874284" />
	</node>
	<node id="-173917" lat="67.0761777758" lon="16.0441444433">
		<tag k="name" v="Daumannsholmen" />
		<tag k="natural" v="cape" />
		<tag k="ssr:stedsnr" v="298723" />
	</node>
	<node id="-173916" lat="67.0738222212" lon="16.0338972256">
		<tag k="name" v="Rundholmen" />
		<tag k="place" v="islet" />
		<tag k="ssr:stedsnr" v="298722" />
	</node>
	<node id="-175963" lat="67.3004333357" lon="15.3859638812">
		<tag k="name" v="Okstjønna" />
		<tag k="natural" v="water" />
		<tag k="ssr:stedsnr" v="874429" />
	</node>
	<node id="-175951" lat="67.3322888924" lon="15.0779749941">
		<tag k="name" v="Mølnelva" />
		<tag k="ssr:stedsnr" v="869764" />
		<tag k="waterway" v="stream" />
	</node>
	<node id="-175949" lat="67.2180361126" lon="15.6262750061">
		<tag k="name" v="Djupfest" />
		<tag k="natural" v="cape" />
		<tag k="ssr:stedsnr" v="866960" />
	</node>
	<node id="-173899" lat="67.2992027772" lon="15.4745305583">
		<tag k="name" v="Reipåga" />
		<tag k="ssr:stedsnr" v="298374" />
		<tag k="waterway" v="stream" />
	</node>
	<node id="-175946" lat="67.3352111112" lon="15.4223861145">
		<tag k="name" v="Holmvatnet" />
		<tag k="natural" v="water" />
		<tag k="ssr:stedsnr" v="866940" />
	</node>
	<node id="-173897" lat="67.2148999963" lon="15.4224500082">
		<tag k="name" v="Gylskjærbekken" />
		<tag k="ssr:stedsnr" v="298362" />
		<tag k="waterway" v="stream" />
	</node>
	<node id="-173894" lat="67.3853888913" lon="15.2979638935">
		<tag k="name" v="Leidiket" />
		<tag k="ssr:stedsnr" v="298302" />
		<tag k="waterway" v="stream" />
	</node>
	<node id="-175941" lat="67.337841665" lon="15.5613083273">
		<tag k="name" v="Rødåsbekken" />
		<tag k="ssr:stedsnr" v="866913" />
		<tag k="waterway" v="stream" />
	</node>
	<node id="-173892" lat="67.4134361116" lon="15.3840111079">
		<tag k="name" v="Hømmervassosen" />
		<tag k="natural" v="bay" />
		<tag k="ssr:stedsnr" v="298256" />
	</node>
	<node id="-173707" lat="67.3833388886" lon="15.3206694377">
		<tag k="name" v="Hestvadfossen" />
		<tag k="natural" v="waterfall" />
		<tag k="ssr:stedsnr" v="85827" />
	</node>
	<node id="-175936" lat="67.2849333296" lon="15.3465194336">
		<tag k="alt_name" v="Benkjevatnet" />
		<tag k="name" v="Benkevatnet" />
		<tag k="natural" v="water" />
		<tag k="ssr:stedsnr" v="866855" />
	</node>
	<node id="-175935" lat="67.2185611114" lon="15.7337611023">
		<tag k="name" v="Sveåga" />
		<tag k="ssr:stedsnr" v="866850" />
		<tag k="waterway" v="stream" />
	</node>
	<node id="-173885" lat="67.3088388912" lon="15.5003444432">
		<tag k="name" v="Joåga" />
		<tag k="ssr:stedsnr" v="298108" />
		<tag k="waterway" v="stream" />
	</node>
	<node id="-175930" lat="67.441261115" lon="15.361147214">
		<tag k="name" v="Nord-Krubblivatnet" />
		<tag k="natural" v="water" />
		<tag k="ssr:stedsnr" v="866525" />
	</node>
	<node id="-175928" lat="67.2637305578" lon="15.3503416723">
		<tag k="name" v="Leirelva" />
		<tag k="ssr:stedsnr" v="866307" />
		<tag k="waterway" v="river" />
	</node>
	<node id="-175927" lat="67.2613611141" lon="15.7446666624">
		<tag k="name" v="Litjtverråga" />
		<tag k="ssr:stedsnr" v="866291" />
		<tag k="waterway" v="stream" />
	</node>
	<node id="-175926" lat="67.2608277811" lon="15.8327222278">
		<tag k="name" v="Nedrevatnet" />
		<tag k="natural" v="water" />
		<tag k="ssr:stedsnr" v="866289" />
		<tag k="water" v="lake" />
	</node>
	<node id="-175922" lat="67.2078611134" lon="15.6365833246">
		<tag k="name" v="Storvikbukta" />
		<tag k="natural" v="bay" />
		<tag k="ssr:stedsnr" v="865955" />
	</node>
	<node id="-175921" lat="67.3621361105" lon="15.3892111193">
		<tag k="name" v="Tverrelvvatnan" />
		<tag k="natural" v="water" />
		<tag k="ssr:stedsnr" v="865877" />
	</node>
	<node id="-173869" lat="67.3137500023" lon="15.3319250094">
		<tag k="name" v="Langvatnet" />
		<tag k="natural" v="water" />
		<tag k="ssr:stedsnr" v="198820" />
		<tag k="water" v="lake" />
	</node>
	<node id="-175916" lat="67.0591447161" lon="15.989111854">
		<tag k="loc_name:no" v="Såkivatnet" />
		<tag k="name" v="Såki - Soahkejávrre" />
		<tag k="name:no" v="Såki" />
		<tag k="name:smj" v="Soahkejávrre" />
		<tag k="natural" v="water" />
		<tag k="old_name:smj" v="Soahkejávri" />
		<tag k="ssr:stedsnr" v="866182" />
		<tag k="water" v="lake" />
	</node>
	<node id="-175915" lat="67.0831972248" lon="15.9972416568">
		<tag k="name" v="Annavatnet" />
		<tag k="natural" v="water" />
		<tag k="ssr:stedsnr" v="866180" />
	</node>
	<node id="-175914" lat="67.0708445713" lon="16.3276401464">
		<tag k="alt_name:no" v="Eidvatnet" />
		<tag k="name" v="Eidevatnet - Muorkkejávrre" />
		<tag k="name:no" v="Eidevatnet" />
		<tag k="name:smj" v="Muorkkejávrre" />
		<tag k="natural" v="water" />
		<tag k="old_name:smj" v="Muotkejávri" />
		<tag k="ssr:stedsnr" v="866147" />
		<tag k="water" v="lake" />
	</node>
	<node id="-173865" lat="67.3153027768" lon="15.4810555523">
		<tag k="name" v="Svartosen" />
		<tag k="ssr:stedsnr" v="198812" />
		<tag k="waterway" v="river" />
	</node>
	<node id="-173863" lat="67.3088749976" lon="15.2613555455">
		<tag k="name" v="Bjørnnesdiket" />
		<tag k="ssr:stedsnr" v="198808" />
		<tag k="waterway" v="stream" />
	</node>
	<node id="-173860" lat="67.3786472205" lon="15.2960416571">
		<tag k="name" v="Jordbruelva" />
		<tag k="ssr:stedsnr" v="198302" />
		<tag k="waterway" v="river" />
	</node>
	<node id="-175907" lat="67.0723527795" lon="16.0151999942">
		<tag k="name" v="Gamvassbekken" />
		<tag k="ssr:stedsnr" v="845816" />
		<tag k="waterway" v="stream" />
	</node>
	<node id="-173701" lat="67.316049998" lon="15.258066676">
		<tag k="name" v="Djuposbukta" />
		<tag k="natural" v="bay" />
		<tag k="ssr:stedsnr" v="85267" />
	</node>
	<node id="-175896" lat="67.2968611122" lon="15.3724166629">
		<tag k="name" v="Omundik" />
		<tag k="ssr:stedsnr" v="845584" />
		<tag k="waterway" v="stream" />
	</node>
	<node id="-175895" lat="67.4137166631" lon="15.3792583303">
		<tag k="name" v="Halsvasselva" />
		<tag k="ssr:stedsnr" v="845302" />
		<tag k="waterway" v="stream" />
	</node>
	<node id="-175894" lat="67.4068138908" lon="15.3884305499">
		<tag k="name" v="Hammarlitjønna" />
		<tag k="natural" v="water" />
		<tag k="ssr:stedsnr" v="845301" />
	</node>
	<node id="-173844" lat="67.4396166691" lon="15.2914499944">
		<tag k="name" v="Nordskarvatnan" />
		<tag k="natural" v="water" />
		<tag k="ssr:stedsnr" v="161324" />
		<tag k="water" v="lake" />
	</node>
	<node id="-175887" lat="67.3165361128" lon="15.4452694358">
		<tag k="name" v="Fiskediket" />
		<tag k="ssr:stedsnr" v="845075" />
		<tag k="waterway" v="stream" />
	</node>
	<node id="-173837" lat="67.3679416706" lon="15.3078944563">
		<tag k="name" v="Bjørnbakkelva" />
		<tag k="ssr:stedsnr" v="145822" />
		<tag k="waterway" v="stream" />
	</node>
	<node id="-173835" lat="67.3202722211" lon="15.2575944481">
		<tag k="name" v="Bølsnesstranda" />
		<tag k="natural" v="beach" />
		<tag k="ssr:stedsnr" v="145466" />
	</node>
	<node id="-175882" lat="67.2177972195" lon="15.4586500072">
		<tag k="name" v="Lomsvatnet" />
		<tag k="natural" v="water" />
		<tag k="ssr:stedsnr" v="844369" />
	</node>
	<node id="-175880" lat="67.2184388861" lon="15.4840250028">
		<tag k="name" v="Kråktjønna" />
		<tag k="natural" v="water" />
		<tag k="ssr:stedsnr" v="844355" />
		<tag k="water" v="pond" />
	</node>
	<node id="-173830" lat="67.3062527813" lon="15.2123999918">
		<tag k="name" v="Leirvika" />
		<tag k="natural" v="bay" />
		<tag k="ssr:stedsnr" v="271295" />
	</node>
	<node id="-173829" lat="67.2389444464" lon="15.511072232">
		<tag k="name" v="Djupneset" />
		<tag k="natural" v="cape" />
		<tag k="ssr:stedsnr" v="270526" />
	</node>
	<node id="-173823" lat="67.2382583308" lon="15.4417083332">
		<tag k="name" v="Øver Halsbukta" />
		<tag k="natural" v="bay" />
		<tag k="ssr:stedsnr" v="268836" />
	</node>
	<node id="-175867" lat="67.3301944451" lon="15.2127250102">
		<tag k="name" v="Smøyneshalsen" />
		<tag k="natural" v="cape" />
		<tag k="ssr:stedsnr" v="814615" />
	</node>
	<node id="-173815" lat="67.2756861144" lon="15.2777666599">
		<tag k="name" v="Kleivtoppvatnet" />
		<tag k="natural" v="water" />
		<tag k="ssr:stedsnr" v="137854" />
	</node>
	<node id="-173813" lat="67.2949805587" lon="15.3066388902">
		<tag k="name" v="Rundvatnet" />
		<tag k="natural" v="water" />
		<tag k="ssr:stedsnr" v="137835" />
	</node>
	<node id="-173812" lat="67.2894194449" lon="15.3066388962">
		<tag k="name" v="Rulengvatnet" />
		<tag k="natural" v="water" />
		<tag k="ssr:stedsnr" v="137834" />
	</node>
	<node id="-173810" lat="67.2994861132" lon="15.2817333356">
		<tag k="name" v="Litlvatnet" />
		<tag k="natural" v="water" />
		<tag k="ssr:stedsnr" v="137815" />
	</node>
	<node id="-173809" lat="67.3084277819" lon="15.4005194413">
		<tag k="name" v="Utvatnet" />
		<tag k="natural" v="water" />
		<tag k="ssr:stedsnr" v="137811" />
	</node>
	<node id="-173804" lat="67.3493138872" lon="15.2621055599">
		<tag k="name" v="Lakselva" />
		<tag k="ssr:stedsnr" v="137313" />
		<tag k="waterway" v="river" />
	</node>
	<node id="-173803" lat="67.292913889" lon="15.284513879">
		<tag k="name" v="Storvatnet" />
		<tag k="natural" v="water" />
		<tag k="ssr:stedsnr" v="137309" />
		<tag k="water" v="lake" />
	</node>
	<node id="-173800" lat="67.1536111145" lon="15.802772229">
		<tag k="name" v="Stortverråga" />
		<tag k="old_name" v="Tverråelva" />
		<tag k="ssr:stedsnr" v="137203" />
		<tag k="waterway" v="river" />
	</node>
	<node id="-175845" lat="67.4288055597" lon="15.3697305551">
		<tag k="name" v="Setervassosen" />
		<tag k="natural" v="bay" />
		<tag k="ssr:stedsnr" v="813242" />
	</node>
	<node id="-173792" lat="67.4026166632" lon="15.3957416552">
		<tag k="name" v="Saugjerdtjønna" />
		<tag k="natural" v="water" />
		<tag k="ssr:stedsnr" v="267508" />
	</node>
	<node id="-173790" lat="67.3600027765" lon="15.209447227">
		<tag k="name" v="Petter-Joneset" />
		<tag k="natural" v="cape" />
		<tag k="ssr:stedsnr" v="267477" />
	</node>
	<node id="-173788" lat="67.3249361124" lon="15.2989749948">
		<tag k="name" v="Litlvatnet" />
		<tag k="natural" v="water" />
		<tag k="ssr:stedsnr" v="267441" />
		<tag k="water" v="lake" />
	</node>
	<node id="-173786" lat="67.3365750038" lon="15.2565777888">
		<tag k="name" v="Breistranda" />
		<tag k="natural" v="beach" />
		<tag k="ssr:stedsnr" v="267373" />
	</node>
	<node id="-175832" lat="67.4010027818" lon="15.2178750053">
		<tag k="name" v="Drogvatnet" />
		<tag k="natural" v="water" />
		<tag k="ssr:stedsnr" v="809557" />
	</node>
	<node id="-175829" lat="67.4070916666" lon="15.3620305589">
		<tag k="name" v="Trollvatnet" />
		<tag k="natural" v="water" />
		<tag k="ssr:stedsnr" v="805951" />
	</node>
	<node id="-173779" lat="67.3155194483" lon="15.259474994">
		<tag k="name" v="Neskjerran" />
		<tag k="natural" v="cape" />
		<tag k="ssr:stedsnr" v="267298" />
	</node>
	<node id="-175826" lat="67.4002861159" lon="15.3210249925">
		<tag k="alt_name" v="Gråurdvatnet" />
		<tag k="name" v="Graurvatnet" />
		<tag k="natural" v="water" />
		<tag k="ssr:stedsnr" v="805936" />
		<tag k="water" v="lake" />
	</node>
	<node id="-173774" lat="67.4299333373" lon="15.3395194559">
		<tag k="name" v="Hundpisstjønna" />
		<tag k="natural" v="water" />
		<tag k="ssr:stedsnr" v="267247" />
	</node>
	<node id="-175821" lat="67.3428333374" lon="15.2415027869">
		<tag k="name" v="Flaget" />
		<tag k="natural" v="bay" />
		<tag k="ssr:stedsnr" v="805908" />
	</node>
	<node id="-173772" lat="67.4372694421" lon="15.3571194545">
		<tag k="name" v="Øver-Krubblivatnet" />
		<tag k="natural" v="water" />
		<tag k="ssr:stedsnr" v="267237" />
	</node>
	<node id="-175817" lat="67.3450444476" lon="15.3194722182">
		<tag k="loc_name" v="Tokdalåga" />
		<tag k="name" v="Toktdalåga" />
		<tag k="ssr:stedsnr" v="805882" />
		<tag k="waterway" v="river" />
	</node>
	<node id="-175813" lat="67.3542111149" lon="15.4700611076">
		<tag k="name" v="Nordstelvvatnet" />
		<tag k="natural" v="water" />
		<tag k="ssr:stedsnr" v="805872" />
	</node>
	<node id="-173764" lat="67.3552944405" lon="15.226766656">
		<tag k="name" v="Storforsen" />
		<tag k="natural" v="waterfall" />
		<tag k="ssr:stedsnr" v="266030" />
	</node>
	<node id="-175811" lat="67.238416664" lon="15.9111555564">
		<tag k="name" v="Leirelva" />
		<tag k="ssr:stedsnr" v="805863" />
		<tag k="waterway" v="stream" />
	</node>
	<node id="-175810" lat="67.2381055539" lon="15.8802888809">
		<tag k="name" v="Mellomvatnet" />
		<tag k="natural" v="water" />
		<tag k="ssr:stedsnr" v="805859" />
		<tag k="water" v="lake" />
	</node>
	<node id="-175809" lat="67.1999083334" lon="15.8568555438">
		<tag k="name" v="Skoffedalsvatnet - Skåhppuljávrre" />
		<tag k="name:no" v="Skoffedalsvatnet" />
		<tag k="name:smj" v="Skåhppuljávrre" />
		<tag k="natural" v="water" />
		<tag k="old_name:smj" v="Skohppoljávri" />
		<tag k="ssr:stedsnr" v="805857" />
		<tag k="water" v="lake" />
	</node>
	<node id="-175808" lat="67.3149277788" lon="15.519927772">
		<tag k="name" v="Mølnelva" />
		<tag k="ssr:stedsnr" v="805319" />
		<tag k="waterway" v="stream" />
	</node>
	<node id="-173759" lat="67.3047694434" lon="15.1893583387">
		<tag k="name" v="Laukåsstraumen" />
		<tag k="natural" v="strait" />
		<tag k="ssr:stedsnr" v="263652" />
	</node>
	<node id="-175805" lat="67.1775111105" lon="15.8512972279">
		<tag k="alt_name" v="Bottelva" />
		<tag k="name" v="Våttelva" />
		<tag k="ssr:stedsnr" v="805202" />
		<tag k="waterway" v="stream" />
	</node>
	<node id="-173756" lat="67.3280333308" lon="15.2064444458">
		<tag k="name" v="Storbogen" />
		<tag k="natural" v="bay" />
		<tag k="ssr:stedsnr" v="262766" />
	</node>
	<node id="-175803" lat="67.4277305588" lon="15.3330222259">
		<tag k="name" v="Skiferbruddvatnet" />
		<tag k="natural" v="water" />
		<tag k="ssr:stedsnr" v="794585" />
	</node>
	<node id="-175800" lat="67.0840666634" lon="16.286833334">
		<tag k="name" v="Eidet - Muorkke" />
		<tag k="name:no" v="Eidet" />
		<tag k="name:smj" v="Muorkke" />
		<tag k="natural" v="strait" />
		<tag k="ssr:stedsnr" v="784849" />
	</node>
	<node id="-173748" lat="67.2194555556" lon="15.5342222153">
		<tag k="name" v="Ørrdalstjønna" />
		<tag k="natural" v="water" />
		<tag k="ssr:stedsnr" v="116422" />
	</node>
	<node id="-175787" lat="67.2058444446" lon="15.6009083428">
		<tag k="name" v="Smånesan" />
		<tag k="natural" v="cape" />
		<tag k="ssr:stedsnr" v="784137" />
	</node>
	<node id="-173737" lat="67.3379055553" lon="15.3701027798">
		<tag k="name" v="Knubbtjønna" />
		<tag k="natural" v="water" />
		<tag k="ssr:stedsnr" v="259918" />
	</node>
	<node id="-175784" lat="67.4090472214" lon="15.3927583298">
		<tag k="name" v="Risengelva" />
		<tag k="ssr:stedsnr" v="784117" />
		<tag k="waterway" v="stream" />
	</node>
	<node id="-173735" lat="67.3443527754" lon="15.4516722117">
		<tag k="name" v="Nordstelva" />
		<tag k="ssr:stedsnr" v="259912" />
		<tag k="waterway" v="stream" />
	</node>
	<node id="-175782" lat="67.3248472259" lon="15.4533750119">
		<tag k="name" v="Lillevatnet" />
		<tag k="natural" v="water" />
		<tag k="ssr:stedsnr" v="784033" />
		<tag k="water" v="pond" />
	</node>
	<node id="-175781" lat="67.321436111" lon="15.4662805537">
		<tag k="name" v="Anderskjosen" />
		<tag k="ssr:stedsnr" v="784025" />
		<tag k="waterway" v="stream" />
	</node>
	<node id="-173725" lat="67.4363472208" lon="15.3839388844">
		<tag k="name" v="Sætervatnet" />
		<tag k="natural" v="water" />
		<tag k="ssr:stedsnr" v="259532" />
		<tag k="water" v="lake" />
	</node>
	<node id="-173724" lat="67.4197361117" lon="15.4083388811">
		<tag k="alt_name" v="Breidelva" />
		<tag k="name" v="Breielva" />
		<tag k="ssr:stedsnr" v="259522" />
		<tag k="waterway" v="stream" />
	</node>
	<node id="-175770" lat="67.2227555585" lon="15.6008888873">
		<tag k="name" v="Skjærodden" />
		<tag k="natural" v="cape" />
		<tag k="ssr:stedsnr" v="783197" />
	</node>
	<node id="-173721" lat="67.2938722179" lon="15.3144499999">
		<tag k="name" v="Klipvatnet" />
		<tag k="natural" v="water" />
		<tag k="ssr:stedsnr" v="258850" />
	</node>
	<node id="-173720" lat="67.2970694441" lon="15.378944436">
		<tag k="name" v="Svartvatnet" />
		<tag k="natural" v="water" />
		<tag k="ssr:stedsnr" v="258849" />
	</node>
	<node id="-175767" lat="67.1300027821" lon="16.2370527724">
		<tag k="fixme" v="multiple name tags, choose one and add the other to alt_name" />
		<tag k="name" v="Otervatnet;Øver-Otervatnet - Bajep-Tjævrrájávrre;Tjævrrájávrre" />
		<tag k="name:no" v="Otervatnet;Øver-Otervatnet" />
		<tag k="name:smj" v="Bajep-Tjævrrájávrre;Tjævrrájávrre" />
		<tag k="natural" v="water" />
		<tag k="old_name:smj" v="Čeavrajávri" />
		<tag k="ssr:stedsnr" v="762164" />
		<tag k="water" v="lake" />
	</node>
	<node id="-173715" lat="67.3601916709" lon="15.4230111089">
		<tag k="name" v="Storsørdalsvatnet" />
		<tag k="natural" v="water" />
		<tag k="old_name" v="Storsørdalsvtn" />
		<tag k="ssr:stedsnr" v="258879" />
	</node>
	<node id="-173714" lat="67.1319444406" lon="16.1182527798">
		<tag k="name" v="Lomielva - Loamejåhkå" />
		<tag k="name:no" v="Lomielva" />
		<tag k="name:smj" v="Loamejåhkå" />
		<tag k="old_name:smj" v="Loamejohka" />
		<tag k="ssr:stedsnr" v="258222" />
		<tag k="waterway" v="river" />
	</node>
	<node id="-173711" lat="67.3346166687" lon="15.2333194464">
		<tag k="name" v="Låterholmen-Låtran" />
		<tag k="natural" v="cape" />
		<tag k="ssr:stedsnr" v="86608" />
	</node>
	<node id="-173710" lat="67.3316194474" lon="15.2220416728">
		<tag k="name" v="Innesnes" />
		<tag k="natural" v="cape" />
		<tag k="ssr:stedsnr" v="86607" />
	</node>
	<node id="-175757" lat="67.3053111091" lon="15.2262611131">
		<tag k="loc_name" v="Hellskogstranda" />
		<tag k="name" v="Helskogstranda" />
		<tag k="natural" v="beach" />
		<tag k="ssr:stedsnr" v="754311" />
	</node>
	<node id="-175755" lat="67.2380611149" lon="15.4447750103">
		<tag k="name" v="Ingerodden" />
		<tag k="natural" v="cape" />
		<tag k="ssr:stedsnr" v="753821" />
	</node>
	<node id="-173705" lat="67.2711944451" lon="15.2281361156">
		<tag k="name" v="Mølnelva" />
		<tag k="ssr:stedsnr" v="85653" />
		<tag k="waterway" v="stream" />
	</node>
	<node id="-175749" lat="67.3951444467" lon="15.4386805444">
		<tag k="name" v="Austerdalsforsen" />
		<tag k="natural" v="waterfall" />
		<tag k="ssr:stedsnr" v="753493" />
	</node>
	<node id="-175748" lat="67.3607416628" lon="15.2711500037">
		<tag k="name" v="Skagohølja" />
		<tag k="natural" v="water" />
		<tag k="ssr:stedsnr" v="752902" />
		<tag k="water" v="lake" />
	</node>
	<node id="-175747" lat="67.404727774" lon="15.3226027867">
		<tag k="name" v="Eidet" />
		<tag k="natural" v="strait" />
		<tag k="ssr:stedsnr" v="752823" />
	</node>
	<node id="-173697" lat="67.4330444438" lon="15.3466055652">
		<tag k="name" v="Tverrfjelltjønna" />
		<tag k="natural" v="water" />
		<tag k="ssr:stedsnr" v="85222" />
	</node>
	<node id="-175744" lat="67.3859722186" lon="15.3669805461">
		<tag k="name" v="Nordelva" />
		<tag k="ssr:stedsnr" v="752744" />
		<tag k="waterway" v="river" />
	</node>
	<node id="-173695" lat="67.4346805596" lon="15.3697083417">
		<tag k="name" v="Sigfredbukta" />
		<tag k="natural" v="bay" />
		<tag k="ssr:stedsnr" v="85218" />
	</node>
	<node id="-175738" lat="67.2854888864" lon="15.1285027765">
		<tag k="name" v="Ytterelva" />
		<tag k="ssr:stedsnr" v="752602" />
		<tag k="waterway" v="stream" />
	</node>
	<node id="-173686" lat="67.1420500028" lon="16.1162749982">
		<tag k="loc_name" v="Djeveløya" />
		<tag k="name" v="Djevleøen" />
		<tag k="place" v="islet" />
		<tag k="ssr:stedsnr" v="238850" />
	</node>
	<node id="-173685" lat="67.1267027742" lon="16.227188897">
		<tag k="name" v="Ner-Otervatnet - Vuolep-Tjævrrájávrre" />
		<tag k="name:no" v="Ner-Otervatnet" />
		<tag k="name:smj" v="Vuolep-Tjævrrájávrre" />
		<tag k="natural" v="water" />
		<tag k="ssr:stedsnr" v="238834" />
		<tag k="water" v="lake" />
	</node>
	<node id="-175731" lat="67.3361416656" lon="15.3230861155">
		<tag k="name" v="Indre Bjønndalsdiket" />
		<tag k="ssr:stedsnr" v="752351" />
		<tag k="waterway" v="stream" />
	</node>
	<node id="-175730" lat="67.3373833337" lon="15.3189361135">
		<tag k="name" v="Bjørndalsdiket" />
		<tag k="ssr:stedsnr" v="752343" />
		<tag k="waterway" v="stream" />
	</node>
	<node id="-175729" lat="67.3407972203" lon="15.3831972107">
		<tag k="loc_name" v="Tokdalkjelda" />
		<tag k="name" v="Toktdalskjelda" />
		<tag k="ssr:stedsnr" v="752296" />
		<tag k="waterway" v="stream" />
	</node>
	<node id="-175723" lat="67.3076388904" lon="15.1888694415">
		<tag k="name" v="Gavlodden" />
		<tag k="natural" v="cape" />
		<tag k="ssr:stedsnr" v="752170" />
	</node>
	<node id="-175717" lat="67.3384388845" lon="15.3871194458">
		<tag k="name" v="Senodden" />
		<tag k="natural" v="cape" />
		<tag k="ssr:stedsnr" v="751357" />
	</node>
	<node id="-175715" lat="67.3641111068" lon="15.1946583387">
		<tag k="name" v="Leiråga" />
		<tag k="ssr:stedsnr" v="748729" />
		<tag k="waterway" v="river" />
	</node>
	<node id="-173665" lat="67.4012722183" lon="15.313555562">
		<tag k="name" v="Graurvassbekken" />
		<tag k="ssr:stedsnr" v="238300" />
		<tag k="waterway" v="stream" />
	</node>
	<node id="-175710" lat="67.2224388923" lon="15.631783328">
		<tag k="name" v="Storneset" />
		<tag k="natural" v="cape" />
		<tag k="ssr:stedsnr" v="744951" />
	</node>
	<node id="-175709" lat="67.4057972232" lon="15.3390138874">
		<tag k="alt_name" v="Svartvatnet, store" />
		<tag k="fixme" v="multiple name tags, choose one and add the other to alt_name" />
		<tag k="name" v="Svartvatnet;Store Svartvatnet" />
		<tag k="natural" v="water" />
		<tag k="ssr:stedsnr" v="744939" />
	</node>
	<node id="-173659" lat="67.2050055592" lon="15.585019437">
		<tag k="name" v="Høggedalselva" />
		<tag k="ssr:stedsnr" v="238146" />
		<tag k="waterway" v="stream" />
	</node>
	<node id="-173658" lat="67.3071611139" lon="15.4258388918">
		<tag k="name" v="Fjøsmyrdiket" />
		<tag k="ssr:stedsnr" v="238078" />
		<tag k="waterway" v="stream" />
	</node>
	<node id="-173655" lat="67.061788891" lon="16.0172888877">
		<tag k="name" v="Skihyttodden" />
		<tag k="natural" v="cape" />
		<tag k="ssr:stedsnr" v="56778" />
	</node>
	<node id="-175701" lat="67.28530833" lon="15.298555549">
		<tag k="name" v="Maritvatnet" />
		<tag k="natural" v="water" />
		<tag k="ssr:stedsnr" v="744835" />
	</node>
	<node id="-175694" lat="67.1617416696" lon="15.9925638903">
		<tag k="alt_name:no" v="Ruopsielva" />
		<tag k="name" v="Rupsielva - Ruoppsisjåhkå" />
		<tag k="name:no" v="Rupsielva" />
		<tag k="name:smj" v="Ruoppsisjåhkå" />
		<tag k="old_name:smj" v="Rupsesjohka" />
		<tag k="ssr:stedsnr" v="744186" />
		<tag k="waterway" v="river" />
	</node>
	<node id="-175693" lat="67.154375" lon="16.0015249885">
		<tag k="name" v="Klarabekken" />
		<tag k="ssr:stedsnr" v="744182" />
		<tag k="waterway" v="stream" />
	</node>
	<node id="-175692" lat="67.151955559" lon="15.9058527719">
		<tag k="alt_name" v="Grovatnet" />
		<tag k="name" v="Grovvatnet" />
		<tag k="natural" v="water" />
		<tag k="ssr:stedsnr" v="744180" />
	</node>
	<node id="-175690" lat="67.0271833321" lon="16.1437138974">
		<tag k="name" v="Botnvasstjønnene" />
		<tag k="natural" v="water" />
		<tag k="ssr:stedsnr" v="744152" />
	</node>
	<node id="-175689" lat="67.0598416662" lon="16.0312555444">
		<tag k="alt_name" v="Kulstadholmen" />
		<tag k="name" v="Kullstadholmen" />
		<tag k="place" v="islet" />
		<tag k="ssr:stedsnr" v="744147" />
	</node>
	<node id="-173640" lat="67.2308805575" lon="15.5051833234">
		<tag k="name" v="Mølnelva" />
		<tag k="ssr:stedsnr" v="55360" />
		<tag k="waterway" v="stream" />
	</node>
	<node id="-173635" lat="67.4204472177" lon="15.2859416737">
		<tag k="name" v="Nedre Midtiskarvatnet" />
		<tag k="natural" v="water" />
		<tag k="ssr:stedsnr" v="237297" />
	</node>
	<node id="-173633" lat="67.0976456879" lon="16.0647202183">
		<tag k="alt_name:no" v="Daja, nedre;Dajavatnet" />
		<tag k="name" v="Nedre Daja - Vuolep Dája" />
		<tag k="name:no" v="Nedre Daja" />
		<tag k="name:smj" v="Vuolep Dája" />
		<tag k="natural" v="water" />
		<tag k="old_name:no" v="Daja" />
		<tag k="old_name:smj" v="Dája vuolit" />
		<tag k="ssr:stedsnr" v="237189" />
	</node>
	<node id="-175680" lat="67.2415055542" lon="15.4378527664">
		<tag k="name" v="Hestneset" />
		<tag k="natural" v="cape" />
		<tag k="ssr:stedsnr" v="632822" />
	</node>
	<node id="-173628" lat="67.2363583315" lon="15.5194194337">
		<tag k="alt_name" v="Byttingnes" />
		<tag k="name" v="Bytingsnesodden" />
		<tag k="natural" v="cape" />
		<tag k="ssr:stedsnr" v="28657" />
	</node>
	<node id="-175670" lat="67.3457694439" lon="15.360722217">
		<tag k="name" v="Kvanntohola" />
		<tag k="ssr:stedsnr" v="631331" />
		<tag k="waterway" v="stream" />
	</node>
	<node id="-175669" lat="67.3153388849" lon="15.313452784">
		<tag k="name" v="Langvasselva" />
		<tag k="ssr:stedsnr" v="631292" />
		<tag k="waterway" v="river" />
	</node>
	<node id="-173618" lat="67.3423388928" lon="15.296374992">
		<tag k="name" v="Falklidiket" />
		<tag k="ssr:stedsnr" v="25205" />
		<tag k="waterway" v="stream" />
	</node>
	<node id="-175661" lat="67.3677222244" lon="15.2273000081">
		<tag k="name" v="Litlelva" />
		<tag k="ssr:stedsnr" v="630485" />
		<tag k="waterway" v="stream" />
	</node>
	<node id="-175658" lat="67.4283527817" lon="15.3224916607">
		<tag k="name" v="Dansktjønna" />
		<tag k="natural" v="water" />
		<tag k="ssr:stedsnr" v="630236" />
	</node>
	<node id="-175656" lat="67.3381472254" lon="15.3737805673">
		<tag k="name" v="Knubbtjønnelva" />
		<tag k="ssr:stedsnr" v="630297" />
		<tag k="waterway" v="stream" />
	</node>
	<node id="-173604" lat="67.3308222262" lon="15.2893111115">
		<tag k="name" v="Hammaråga" />
		<tag k="ssr:stedsnr" v="16919" />
		<tag k="waterway" v="stream" />
	</node>
	<node id="-175650" lat="67.3236750015" lon="15.2318583398">
		<tag k="name" v="Valnesfjordvatnet" />
		<tag k="natural" v="water" />
		<tag k="ssr:stedsnr" v="626675" />
		<tag k="water" v="lake" />
	</node>
	<node id="-175649" lat="67.2675416689" lon="15.1975999932">
		<tag k="name" v="Veltskarvatnet" />
		<tag k="natural" v="water" />
		<tag k="ssr:stedsnr" v="626453" />
	</node>
	<node id="-173600" lat="67.3388777822" lon="15.2566611023">
		<tag k="name" v="Kosmoholmen" />
		<tag k="place" v="islet" />
		<tag k="ssr:stedsnr" v="16905" />
	</node>
	<node id="-175644" lat="67.300697226" lon="15.3373194544">
		<tag k="name" v="Regnbuvatnan" />
		<tag k="natural" v="water" />
		<tag k="ssr:stedsnr" v="623845" />
		<tag k="water" v="lake" />
	</node>
	<node id="-175643" lat="67.3081527789" lon="15.2226027711">
		<tag k="name" v="Kalvgardodden" />
		<tag k="natural" v="cape" />
		<tag k="ssr:stedsnr" v="623837" />
	</node>
	<node id="-175642" lat="67.4158083372" lon="15.249600003">
		<tag k="name" v="Sørskarvatnet" />
		<tag k="natural" v="water" />
		<tag k="ssr:stedsnr" v="623556" />
		<tag k="water" v="lake" />
	</node>
	<node id="-175635" lat="67.2009666684" lon="15.4921611064">
		<tag k="name" v="Langvatnet" />
		<tag k="natural" v="water" />
		<tag k="ssr:stedsnr" v="622962" />
	</node>
	<node id="-175628" lat="67.2270138902" lon="15.9363305495">
		<tag k="alt_name" v="Øvervatnet" />
		<tag k="name" v="Øvrevatnet" />
		<tag k="natural" v="water" />
		<tag k="ssr:stedsnr" v="622857" />
		<tag k="water" v="lake" />
	</node>
	<node id="-175623" lat="67.3056333298" lon="15.3909722303">
		<tag k="name" v="Einaelva" />
		<tag k="ssr:stedsnr" v="622806" />
		<tag k="waterway" v="stream" />
	</node>
	<node id="-175621" lat="67.4393472191" lon="15.3175444366">
		<tag k="name" v="Langvatnet" />
		<tag k="natural" v="water" />
		<tag k="ssr:stedsnr" v="622505" />
	</node>
	<node id="-175620" lat="67.1046750008" lon="16.1216388838">
		<tag k="name" v="Válfarjåhkå" />
		<tag k="name:smj" v="Válfarjåhkå" />
		<tag k="old_name:smj" v="Válffarjohka" />
		<tag k="ssr:stedsnr" v="622222" />
		<tag k="waterway" v="river" />
	</node>
	<node id="-175618" lat="67.055702777" lon="16.0740694389">
		<tag k="loc_name:smj" v="Tjálalvisjávrre" />
		<tag k="name" v="Tjálanisjávrre" />
		<tag k="name:smj" v="Tjálanisjávrre" />
		<tag k="natural" v="water" />
		<tag k="old_name:smj" v="Čallanasjávri" />
		<tag k="ssr:stedsnr" v="622202" />
		<tag k="water" v="lake" />
	</node>
	<node id="-175614" lat="67.1172805559" lon="16.0651861153">
		<tag k="loc_name" v="Kjerkgårdsbekken" />
		<tag k="name" v="Kjerrgårdsbekken" />
		<tag k="ssr:stedsnr" v="601837" />
		<tag k="waterway" v="stream" />
	</node>
	<node id="-175609" lat="67.2561722226" lon="15.4890027789">
		<tag k="name" v="Svartvatnet" />
		<tag k="natural" v="water" />
		<tag k="ssr:stedsnr" v="601489" />
	</node>
	<node id="-175607" lat="67.2610361109" lon="15.539133323">
		<tag k="name" v="Grønlivatnet" />
		<tag k="natural" v="water" />
		<tag k="ssr:stedsnr" v="601487" />
	</node>
	<node id="-175602" lat="67.231369443" lon="15.4390861193">
		<tag k="name" v="Rauneset" />
		<tag k="natural" v="cape" />
		<tag k="ssr:stedsnr" v="601311" />
	</node>
	<node id="-175601" lat="67.2128083299" lon="15.6829666554">
		<tag k="name" v="Singsvika" />
		<tag k="natural" v="bay" />
		<tag k="ssr:stedsnr" v="601130" />
	</node>
	<node id="-175600" lat="67.207663888" lon="15.6669055661">
		<tag k="name" v="Skamsjurvika" />
		<tag k="natural" v="bay" />
		<tag k="ssr:stedsnr" v="601127" />
	</node>
	<node id="-175599" lat="67.3833833331" lon="15.2916249928">
		<tag k="name" v="Skyttediket" />
		<tag k="ssr:stedsnr" v="601288" />
		<tag k="waterway" v="stream" />
	</node>
	<node id="-175588" lat="67.164008337" lon="15.9815277727">
		<tag k="name" v="Leirtakelva" />
		<tag k="name:smj" v="Leirtakelva" />
		<tag k="ssr:stedsnr" v="591787" />
		<tag k="waterway" v="stream" />
	</node>
	<node id="-175586" lat="67.0905527822" lon="16.0852388816">
		<tag k="name" v="Langtjønna" />
		<tag k="natural" v="water" />
		<tag k="ssr:stedsnr" v="576214" />
	</node>
	<node id="-175580" lat="67.2373333308" lon="15.4436833221">
		<tag k="name" v="Ner Halsbukta" />
		<tag k="natural" v="bay" />
		<tag k="ssr:stedsnr" v="571834" />
	</node>
	<node id="-175577" lat="67.3873083316" lon="15.3985416595">
		<tag k="name" v="Hansvatnet" />
		<tag k="natural" v="water" />
		<tag k="ssr:stedsnr" v="571587" />
	</node>
	<node id="-175574" lat="67.2667805539" lon="15.300805544">
		<tag k="name" v="Ytterklungsetelva" />
		<tag k="ssr:stedsnr" v="571366" />
		<tag k="waterway" v="stream" />
	</node>
	<node id="-175571" lat="67.3033499987" lon="15.2412138846">
		<tag k="name" v="Djupdiket" />
		<tag k="ssr:stedsnr" v="571283" />
		<tag k="waterway" v="stream" />
	</node>
	<node id="-175562" lat="67.3184194482" lon="15.3139749969">
		<tag k="name" v="Osen" />
		<tag k="natural" v="bay" />
		<tag k="ssr:stedsnr" v="570443" />
	</node>
	<node id="-175559" lat="67.3398777761" lon="15.3924944463">
		<tag k="name" v="Osan" />
		<tag k="natural" v="bay" />
		<tag k="ssr:stedsnr" v="570279" />
	</node>
	<node id="-175558" lat="67.437474996" lon="15.3455138929">
		<tag k="name" v="Ellatjønna" />
		<tag k="natural" v="water" />
		<tag k="ssr:stedsnr" v="570238" />
	</node>
	<node id="-175555" lat="67.3456138927" lon="15.2948166622">
		<tag k="name" v="Nervadlihola" />
		<tag k="natural" v="water" />
		<tag k="ssr:stedsnr" v="570184" />
		<tag k="water" v="lake" />
	</node>
	<node id="-175554" lat="67.3460083365" lon="15.2778222119">
		<tag k="name" v="Mølnforsen" />
		<tag k="natural" v="waterfall" />
		<tag k="ssr:stedsnr" v="570180" />
	</node>
	<node id="-175551" lat="67.305766665" lon="15.1941583396">
		<tag k="name" v="Støttstøa" />
		<tag k="natural" v="beach" />
		<tag k="ssr:stedsnr" v="570145" />
	</node>
	<node id="-175540" lat="67.2974583334" lon="15.2677138797">
		<tag k="name" v="Hagnes-Litlvatnet" />
		<tag k="natural" v="water" />
		<tag k="ssr:stedsnr" v="569320" />
	</node>
	<node id="-175533" lat="67.3095388868" lon="15.1834249968">
		<tag k="fixme" v="multiple name tags, choose one and add the other to alt_name" />
		<tag k="name" v="Olsokvika;Olsvika" />
		<tag k="natural" v="bay" />
		<tag k="ssr:stedsnr" v="566657" />
	</node>
	<node id="-175532" lat="67.3129583355" lon="15.181872222">
		<tag k="alt_name" v="Djupvik" />
		<tag k="name" v="Djupvika" />
		<tag k="natural" v="bay" />
		<tag k="ssr:stedsnr" v="566653" />
	</node>
	<node id="-175529" lat="67.2195916686" lon="15.6950555616">
		<tag k="name" v="Nakkneset" />
		<tag k="natural" v="cape" />
		<tag k="ssr:stedsnr" v="562950" />
	</node>
	<node id="-175523" lat="67.2665000015" lon="15.7649194351">
		<tag k="name" v="Stortverråga" />
		<tag k="ssr:stedsnr" v="562288" />
		<tag k="waterway" v="river" />
	</node>
	<node id="-175521" lat="67.0644833298" lon="16.029636102">
		<tag k="name" v="Kjelvatnet - Giebbnejávrre" />
		<tag k="name:no" v="Kjelvatnet" />
		<tag k="name:smj" v="Giebbnejávrre" />
		<tag k="natural" v="water" />
		<tag k="ssr:stedsnr" v="562172" />
		<tag k="water" v="lake" />
	</node>
	<node id="-175516" lat="67.1968027818" lon="16.1951138835">
		<tag k="name" v="Småsorjosvatnan" />
		<tag k="natural" v="water" />
		<tag k="ssr:stedsnr" v="562857" />
		<tag k="water" v="lake" />
	</node>
	<node id="-175513" lat="67.3471333347" lon="15.3709666765">
		<tag k="name" v="Ytre Kvanntoelva" />
		<tag k="ssr:stedsnr" v="561881" />
		<tag k="waterway" v="stream" />
	</node>
	<node id="-175512" lat="67.3499666684" lon="15.3077388983">
		<tag k="alt_name" v="Varlielva, yt" />
		<tag k="name" v="Ytre Varlielva" />
		<tag k="ssr:stedsnr" v="561880" />
		<tag k="waterway" v="stream" />
	</node>
	<node id="-175506" lat="67.1453749966" lon="15.8415611081">
		<tag k="name" v="Gamvatnet" />
		<tag k="natural" v="water" />
		<tag k="ssr:stedsnr" v="561238" />
	</node>
	<node id="-175484" lat="67.2202833306" lon="15.5256527669">
		<tag k="name" v="Lomvatnan" />
		<tag k="natural" v="water" />
		<tag k="ssr:stedsnr" v="541453" />
		<tag k="water" v="lake" />
	</node>
	<node id="-175482" lat="67.4064250033" lon="15.3254472296">
		<tag k="name" v="Møllefossen" />
		<tag k="natural" v="waterfall" />
		<tag k="ssr:stedsnr" v="541297" />
	</node>
	<node id="-175480" lat="67.4190111112" lon="15.3202055585">
		<tag k="name" v="Nordskarvatnet" />
		<tag k="natural" v="water" />
		<tag k="ssr:stedsnr" v="541291" />
	</node>
	<node id="-175477" lat="67.2137972265" lon="15.6931527798">
		<tag k="name" v="Løktodden" />
		<tag k="natural" v="cape" />
		<tag k="ssr:stedsnr" v="541251" />
	</node>
	<node id="-175473" lat="67.3051638898" lon="15.4604805445">
		<tag k="name" v="Hestdiket" />
		<tag k="ssr:stedsnr" v="541068" />
		<tag k="waterway" v="stream" />
	</node>
	<node id="-175469" lat="67.3237416652" lon="15.4666722211">
		<tag k="name" v="Storkroken" />
		<tag k="natural" v="bay" />
		<tag k="ssr:stedsnr" v="541028" />
	</node>
	<node id="-175463" lat="67.2139777777" lon="15.6736749938">
		<tag k="fixme" v="multiple name tags, choose one and add the other to alt_name" />
		<tag k="loc_name" v="Førrnes;Førrnesodden" />
		<tag k="name" v="Førrnesodden;Furnes" />
		<tag k="natural" v="cape" />
		<tag k="ssr:stedsnr" v="528453" />
	</node>
	<node id="-175455" lat="67.0741166671" lon="16.0546611046">
		<tag k="name" v="Raadebukta" />
		<tag k="natural" v="bay" />
		<tag k="ssr:stedsnr" v="420769" />
	</node>
	<node id="-175454" lat="67.0624249966" lon="16.0399416653">
		<tag k="name" v="Tjalanisodden" />
		<tag k="natural" v="cape" />
		<tag k="ssr:stedsnr" v="420764" />
	</node>
	<node id="-175449" lat="67.294944444" lon="15.4912805543">
		<tag k="name" v="Hans Olso-åga" />
		<tag k="ssr:stedsnr" v="420446" />
		<tag k="waterway" v="stream" />
	</node>
	<node id="-175438" lat="67.3873444455" lon="15.3265861066">
		<tag k="name" v="Trøelva" />
		<tag k="ssr:stedsnr" v="420336" />
		<tag k="waterway" v="stream" />
	</node>
	<node id="-175431" lat="67.4076944458" lon="15.3920361219">
		<tag k="name" v="Mølnfossen" />
		<tag k="natural" v="waterfall" />
		<tag k="ssr:stedsnr" v="420096" />
	</node>
	<node id="-175429" lat="67.3005833355" lon="15.4161555447">
		<tag k="name" v="Lilleosen" />
		<tag k="ssr:stedsnr" v="420050" />
		<tag k="waterway" v="stream" />
	</node>
	<node id="-175420" lat="67.2358722201" lon="15.4357833321">
		<tag k="name" v="Halsbukta" />
		<tag k="natural" v="bay" />
		<tag k="ssr:stedsnr" v="389840" />
	</node>
	<node id="-175418" lat="67.3959472219" lon="15.3729416643">
		<tag k="name" v="Langhølja" />
		<tag k="place" v="locality" />
		<tag k="ssr:stedsnr" v="388747" />
	</node>
	<node id="-175414" lat="67.3712749988" lon="15.2885333351">
		<tag k="name" v="Bjørnbakkhølja" />
		<tag k="ssr:stedsnr" v="388785" />
		<tag k="waterway" v="stream" />
	</node>
	<node id="-175413" lat="67.3348527772" lon="15.268063879">
		<tag k="name" v="Olakjelda" />
		<tag k="ssr:stedsnr" v="388450" />
		<tag k="waterway" v="stream" />
	</node>
	<node id="-175412" lat="67.3282222265" lon="15.2641666632">
		<tag k="name" v="Marenstuhola" />
		<tag k="natural" v="bay" />
		<tag k="ssr:stedsnr" v="388442" />
	</node>
	<node id="-175411" lat="67.3990111116" lon="15.3935444436">
		<tag k="name" v="Nerosen" />
		<tag k="ssr:stedsnr" v="388529" />
		<tag k="waterway" v="river" />
	</node>
	<node id="-175410" lat="67.334736113" lon="15.2520749898">
		<tag k="name" v="Tennholmen" />
		<tag k="natural" v="cape" />
		<tag k="ssr:stedsnr" v="388381" />
	</node>
	<node id="-175405" lat="67.4322916681" lon="15.3244277828">
		<tag k="name" v="Johanvatnet" />
		<tag k="natural" v="water" />
		<tag k="ssr:stedsnr" v="388200" />
	</node>
	<node id="-175404" lat="67.3487638898" lon="15.2733555665">
		<tag k="name" v="Lislelva" />
		<tag k="ssr:stedsnr" v="388193" />
		<tag k="waterway" v="river" />
	</node>
	<node id="-175401" lat="67.3420416671" lon="15.2255472141">
		<tag k="name" v="Stemna" />
		<tag k="natural" v="water" />
		<tag k="ssr:stedsnr" v="388039" />
	</node>
	<node id="-175395" lat="67.3505999999" lon="15.1530694555">
		<tag k="name" v="Botnåga" />
		<tag k="ssr:stedsnr" v="384698" />
		<tag k="waterway" v="river" />
	</node>
	<node id="-175391" lat="67.3063888893" lon="15.1993583243">
		<tag k="name" v="Hagneset" />
		<tag k="natural" v="cape" />
		<tag k="ssr:stedsnr" v="384633" />
	</node>
	<node id="-175389" lat="67.3394555584" lon="15.1933527873">
		<tag k="name" v="Svarttjønna" />
		<tag k="natural" v="water" />
		<tag k="ssr:stedsnr" v="383755" />
	</node>
	<node id="-175381" lat="67.2239777785" lon="15.6483972112">
		<tag k="name" v="Meneset" />
		<tag k="natural" v="cape" />
		<tag k="ssr:stedsnr" v="380943" />
	</node>
	<node id="-175380" lat="67.4075055518" lon="15.3150111189">
		<tag k="alt_name" v="Lillevatnet" />
		<tag k="name" v="Litlvatnet" />
		<tag k="natural" v="water" />
		<tag k="ssr:stedsnr" v="380942" />
	</node>
	<node id="-175378" lat="67.219149996" lon="15.5007722223">
		<tag k="name" v="Kvannmovatnet" />
		<tag k="natural" v="water" />
		<tag k="ssr:stedsnr" v="380937" />
	</node>
	<node id="-175375" lat="67.2172916682" lon="15.6554416663">
		<tag k="alt_name" v="Øvrevatnet" />
		<tag k="name" v="Øvervatnet" />
		<tag k="natural" v="water" />
		<tag k="ssr:stedsnr" v="380929" />
		<tag k="water" v="lake" />
	</node>
	<node id="-175373" lat="67.3198166634" lon="15.3081194336">
		<tag k="name" v="Storvatnet" />
		<tag k="natural" v="water" />
		<tag k="ssr:stedsnr" v="380912" />
		<tag k="water" v="lake" />
	</node>
	<node id="-175372" lat="67.3346222206" lon="15.4660472324">
		<tag k="name" v="Mølnelva" />
		<tag k="ssr:stedsnr" v="380898" />
		<tag k="waterway" v="stream" />
	</node>
	<node id="-175371" lat="67.2754999972" lon="15.4031777652">
		<tag k="name" v="Farvikbekken" />
		<tag k="ssr:stedsnr" v="380865" />
		<tag k="waterway" v="stream" />
	</node>
	<node id="-175370" lat="67.1959583348" lon="15.7687583374">
		<tag k="name" v="Elidavatnet" />
		<tag k="natural" v="water" />
		<tag k="ssr:stedsnr" v="380863" />
	</node>
	<node id="-175369" lat="67.2589305589" lon="15.6955083349">
		<tag k="name" v="Martinvatnet" />
		<tag k="natural" v="water" />
		<tag k="ssr:stedsnr" v="380785" />
	</node>
	<node id="-175366" lat="67.435969447" lon="15.4168138927">
		<tag k="name" v="Sølvelva" />
		<tag k="ssr:stedsnr" v="380581" />
		<tag k="waterway" v="stream" />
	</node>
	<node id="-175365" lat="67.4224055598" lon="15.2847277799">
		<tag k="name" v="Midtiskarvatnan" />
		<tag k="natural" v="water" />
		<tag k="ssr:stedsnr" v="380569" />
		<tag k="water" v="lake" />
	</node>
	<node id="-175362" lat="67.1652666684" lon="15.8905888774">
		<tag k="alt_name" v="Frostmovika" />
		<tag k="name" v="Frostvika" />
		<tag k="natural" v="bay" />
		<tag k="ssr:stedsnr" v="380228" />
	</node>
	<node id="-175361" lat="67.1621361083" lon="15.9143944492">
		<tag k="alt_name" v="Langholmen" />
		<tag k="name" v="Langodden" />
		<tag k="natural" v="cape" />
		<tag k="ssr:stedsnr" v="380218" />
	</node>
	<node id="-175359" lat="67.0946361122" lon="15.9268611043">
		<tag k="name" v="Lillyvatnet" />
		<tag k="natural" v="water" />
		<tag k="ssr:stedsnr" v="380203" />
	</node>
	<node id="-175358" lat="67.0854611097" lon="16.0497472109">
		<tag k="alt_name:no" v="Daja, øvre;Øver-Daja" />
		<tag k="name" v="Øvre Daja - Bajep Dája" />
		<tag k="name:no" v="Øvre Daja" />
		<tag k="name:smj" v="Bajep Dája" />
		<tag k="old_name:smj" v="Dája bajit" />
		<tag k="place" v="locality" />
		<tag k="ssr:stedsnr" v="380194" />
	</node>
	<node id="-175357" lat="67.0242388859" lon="16.1565250073">
		<tag k="name" v="Kjerrtopptjønnene" />
		<tag k="natural" v="water" />
		<tag k="ssr:stedsnr" v="380183" />
		<tag k="water" v="lake" />
	</node>
	<node id="-173610" lat="67.430491666" lon="15.3294000084">
		<tag k="name" v="Anderstjønna" />
		<tag k="natural" v="water" />
		<tag k="ssr:stedsnr" v="24216" />
	</node>
	<node id="-175353" lat="67.2972138893" lon="15.2980527833">
		<tag k="name" v="Langvatnet" />
		<tag k="natural" v="water" />
		<tag k="ssr:stedsnr" v="379823" />
	</node>
	<node id="-175352" lat="67.1401694474" lon="16.0779138867">
		<tag k="name" v="Leirelva" />
		<tag k="ssr:stedsnr" v="359849" />
		<tag k="waterway" v="stream" />
	</node>
	<node id="-175351" lat="67.059519441" lon="16.0492222278">
		<tag k="name" v="Tjalanisbukta" />
		<tag k="natural" v="bay" />
		<tag k="ssr:stedsnr" v="359754" />
	</node>
	<node id="-175341" lat="67.2250111123" lon="15.4546194559">
		<tag k="name" v="Rødelva" />
		<tag k="ssr:stedsnr" v="359415" />
		<tag k="waterway" v="stream" />
	</node>
	<node id="-175340" lat="67.2297361066" lon="15.4459333354">
		<tag k="name" v="Torbukta" />
		<tag k="natural" v="bay" />
		<tag k="ssr:stedsnr" v="359412" />
	</node>
	<node id="-175334" lat="67.2091666682" lon="15.5657333305">
		<tag k="name" v="Svartvasselva" />
		<tag k="ssr:stedsnr" v="359136" />
		<tag k="waterway" v="stream" />
	</node>
	<node id="-175330" lat="67.2206277797" lon="15.5793110998">
		<tag k="name" v="Solvikbukta" />
		<tag k="natural" v="bay" />
		<tag k="ssr:stedsnr" v="358212" />
	</node>
	<node id="-175329" lat="67.2193944473" lon="15.5699555463">
		<tag k="name" v="Vindsetlielva" />
		<tag k="ssr:stedsnr" v="358211" />
		<tag k="waterway" v="stream" />
	</node>
	<node id="-175325" lat="67.0932000042" lon="16.3842861128">
		<tag k="name" v="Lairoelva - Lájrrojåhkå" />
		<tag k="name:no" v="Lairoelva" />
		<tag k="name:smj" v="Lájrrojåhkå" />
		<tag k="old_name:smj" v="Láirujohka" />
		<tag k="ssr:stedsnr" v="337174" />
		<tag k="waterway" v="river" />
	</node>
	<node id="-175994" lat="67.2221888874" lon="15.5246305468">
		<tag k="name" v="Høgkjelivatnet" />
		<tag k="natural" v="water" />
		<tag k="ssr:stedsnr" v="965383" />
	</node>
	<node id="-175321" lat="67.3568027803" lon="15.4749361026">
		<tag k="name" v="Nordstelvtjønna" />
		<tag k="natural" v="water" />
		<tag k="ssr:stedsnr" v="331866" />
	</node>
	<node id="-175320" lat="67.2841694411" lon="15.4567805616">
		<tag k="name" v="Sør-Hundådiket" />
		<tag k="ssr:stedsnr" v="331820" />
		<tag k="waterway" v="stream" />
	</node>
	<node id="-175314" lat="67.3428888907" lon="15.538066669">
		<tag k="name" v="Stemfossen" />
		<tag k="natural" v="waterfall" />
		<tag k="ssr:stedsnr" v="330183" />
	</node>
	<node id="-175311" lat="67.3860111111" lon="15.4196166591">
		<tag k="name" v="Sørdalsneset" />
		<tag k="natural" v="cape" />
		<tag k="ssr:stedsnr" v="329585" />
	</node>
	<node id="-173943" lat="67.3226194446" lon="15.3336055466">
		<tag k="name" v="Kvannåga" />
		<tag k="ssr:stedsnr" v="441928" />
		<tag k="waterway" v="stream" />
	</node>
	<node id="-175302" lat="67.3369000027" lon="15.2880166578">
		<tag k="name" v="Rødsidtjønna" />
		<tag k="natural" v="water" />
		<tag k="ssr:stedsnr" v="328401" />
	</node>
	<node id="-175300" lat="67.3410861077" lon="15.375222224">
		<tag k="name" v="Litlvatnet" />
		<tag k="natural" v="water" />
		<tag k="ssr:stedsnr" v="328295" />
	</node>
	<node id="-175299" lat="67.4259416705" lon="15.3645694498">
		<tag k="name" v="Leontjønna" />
		<tag k="natural" v="water" />
		<tag k="ssr:stedsnr" v="328243" />
	</node>
	<node id="-175298" lat="67.3416277755" lon="15.3127277662">
		<tag k="name" v="Ytre Bjønndalsdiket" />
		<tag k="ssr:stedsnr" v="328188" />
		<tag k="waterway" v="stream" />
	</node>
	<node id="-175296" lat="67.3404194456" lon="15.298411119">
		<tag k="name" v="Lomtjønndiket" />
		<tag k="ssr:stedsnr" v="328186" />
		<tag k="waterway" v="stream" />
	</node>
	<node id="-175294" lat="67.3969722268" lon="15.3770277717">
		<tag k="name" v="Fredagsfossen" />
		<tag k="natural" v="waterfall" />
		<tag k="ssr:stedsnr" v="327730" />
	</node>
	<node id="-175293" lat="67.3235833313" lon="15.2597861215">
		<tag k="name" v="Djupdaldiket" />
		<tag k="ssr:stedsnr" v="327396" />
		<tag k="waterway" v="stream" />
	</node>
	<node id="-175291" lat="67.3262055521" lon="15.2822944428">
		<tag k="name" v="Hjortlidiket" />
		<tag k="ssr:stedsnr" v="327366" />
		<tag k="waterway" v="stream" />
	</node>
	<node id="-175280" lat="67.3871555589" lon="15.3432777833">
		<tag k="name" v="Storliforsen" />
		<tag k="natural" v="waterfall" />
		<tag k="ssr:stedsnr" v="320977" />
	</node>
	<node id="-175277" lat="67.3176416684" lon="15.3498027757">
		<tag k="name" v="Øvre Tjønna" />
		<tag k="natural" v="water" />
		<tag k="ssr:stedsnr" v="320837" />
	</node>
	<node id="-175276" lat="67.3136277814" lon="15.4303916643">
		<tag k="name" v="Storåga" />
		<tag k="ssr:stedsnr" v="320833" />
		<tag k="waterway" v="stream" />
	</node>
	<node id="-175273" lat="67.1720694435" lon="15.8850194481">
		<tag k="alt_name" v="Hellarmobukta" />
		<tag k="name" v="Hellarmovatnet" />
		<tag k="natural" v="water" />
		<tag k="ssr:stedsnr" v="320250" />
	</node>
	<node id="-175271" lat="67.3953722242" lon="15.2328138938">
		<tag k="name" v="Drogvatnet" />
		<tag k="natural" v="water" />
		<tag k="ssr:stedsnr" v="319967" />
		<tag k="water" v="lake" />
	</node>
	<node id="-175270" lat="67.2031583357" lon="15.4647305504">
		<tag k="name" v="Varglielva" />
		<tag k="ssr:stedsnr" v="319964" />
		<tag k="waterway" v="stream" />
	</node>
	<node id="-175267" lat="67.3300277779" lon="15.4767000046">
		<tag k="name" v="Kvitblikvatnet" />
		<tag k="natural" v="water" />
		<tag k="ssr:stedsnr" v="319943" />
		<tag k="water" v="lake" />
	</node>
	<node id="-175261" lat="67.3540972219" lon="15.5051777745">
		<tag k="name" v="Krokdalelva" />
		<tag k="ssr:stedsnr" v="319874" />
		<tag k="waterway" v="stream" />
	</node>
	<node id="-175258" lat="67.2783805582" lon="15.5578333356">
		<tag k="name" v="Rishaugbekken" />
		<tag k="ssr:stedsnr" v="319857" />
		<tag k="waterway" v="stream" />
	</node>
	<node id="-175255" lat="67.2994833371" lon="15.4970388998">
		<tag k="name" v="Korsåga" />
		<tag k="ssr:stedsnr" v="319821" />
		<tag k="waterway" v="stream" />
	</node>
	<node id="-175250" lat="67.2683611117" lon="15.2880999891">
		<tag k="name" v="Tørresvikelva" />
		<tag k="ssr:stedsnr" v="319751" />
		<tag k="waterway" v="stream" />
	</node>
	<node id="-175249" lat="67.1104666707" lon="15.8019111181">
		<tag k="name" v="Hjerttjønna" />
		<tag k="natural" v="water" />
		<tag k="ssr:stedsnr" v="319220" />
	</node>
	<node id="-175248" lat="67.1162858832" lon="15.8465565748">
		<tag k="loc_name:no" v="Øver-Skortavatnet" />
		<tag k="name" v="Bajep Skuorttajávrre" />
		<tag k="name:smj" v="Bajep Skuorttajávrre" />
		<tag k="natural" v="water" />
		<tag k="old_name:smj" v="Skuortajávri, bajit;Skuorttatjávrre" />
		<tag k="ssr:stedsnr" v="319218" />
		<tag k="water" v="lake" />
	</node>
	<node id="-175234" lat="67.2354194456" lon="15.4382194374">
		<tag k="name" v="Halsodden" />
		<tag k="natural" v="cape" />
		<tag k="ssr:stedsnr" v="207840" />
	</node>
	<node id="-175214" lat="67.3360944446" lon="15.2541194497">
		<tag k="name" v="Tennholmflaget" />
		<tag k="natural" v="shoal" />
		<tag k="place" v="locality" />
		<tag k="ssr:stedsnr" v="206386" />
	</node>
	<node id="-175213" lat="67.3399083298" lon="15.3860972225">
		<tag k="name" v="Revelodden" />
		<tag k="natural" v="cape" />
		<tag k="ssr:stedsnr" v="206314" />
	</node>
	<node id="-175211" lat="67.4368027763" lon="15.3487444405">
		<tag k="name" v="Rolftjønna" />
		<tag k="natural" v="water" />
		<tag k="ssr:stedsnr" v="206276" />
	</node>
	<node id="-175196" lat="67.3773611087" lon="15.2443055512">
		<tag k="name" v="Eiteråga" />
		<tag k="ssr:stedsnr" v="198998" />
		<tag k="waterway" v="river" />
	</node>
	<node id="-175195" lat="67.3983777811" lon="15.4365138867">
		<tag k="name" v="Austerdalsvatnet" />
		<tag k="natural" v="water" />
		<tag k="ssr:stedsnr" v="198970" />
	</node>
	<node id="-175194" lat="67.3886583374" lon="15.4794222144">
		<tag k="name" v="Falkflogvatnan" />
		<tag k="natural" v="water" />
		<tag k="ssr:stedsnr" v="198954" />
		<tag k="water" v="lake" />
	</node>
	<node id="-175187" lat="67.1970833325" lon="16.1479416591">
		<tag k="name" v="Vuolep Sårjåsjávrásj" />
		<tag k="name:smj" v="Vuolep Sårjåsjávrásj" />
		<tag k="natural" v="water" />
		<tag k="old_name:smj" v="Sorjosjávrraš, vuolit" />
		<tag k="ssr:stedsnr" v="198860" />
		<tag k="water" v="lake" />
	</node>
	<node id="-175186" lat="67.4301527787" lon="15.3133166565">
		<tag k="name" v="Nordskarelva" />
		<tag k="ssr:stedsnr" v="198556" />
		<tag k="waterway" v="stream" />
	</node>
	<node id="-175185" lat="67.142361111" lon="15.865083338">
		<tag k="name" v="Tvetjønna" />
		<tag k="natural" v="water" />
		<tag k="ssr:stedsnr" v="198199" />
	</node>
	<node id="-175183" lat="67.0375888887" lon="16.0627916666">
		<tag k="name" v="Syrvatnet" />
		<tag k="natural" v="water" />
		<tag k="ssr:stedsnr" v="198171" />
	</node>
	<node id="-175182" lat="67.0530583333" lon="16.3874444337">
		<tag k="alt_name:smj" v="Loame-Luoppal" />
		<tag k="loc_name:smj" v="Loameluoppal" />
		<tag k="name" v="Loppa - Luoppal" />
		<tag k="name:no" v="Loppa" />
		<tag k="name:smj" v="Luoppal" />
		<tag k="natural" v="water" />
		<tag k="ssr:stedsnr" v="198154" />
		<tag k="water" v="lake" />
	</node>
	<node id="-175181" lat="67.2823138853" lon="15.2718583426">
		<tag k="alt_name" v="Lillevatnet" />
		<tag k="name" v="Litlvatnet" />
		<tag k="natural" v="water" />
		<tag k="ssr:stedsnr" v="198298" />
	</node>
	<node id="-175180" lat="67.3083583333" lon="15.7769444491">
		<tag k="name" v="Blåfjellvatnet - Tjoalmmejávrre" />
		<tag k="name:no" v="Blåfjellvatnet" />
		<tag k="name:smj" v="Tjoalmmejávrre" />
		<tag k="natural" v="water" />
		<tag k="old_name:smj" v="Čoalbmejávri" />
		<tag k="ssr:stedsnr" v="198266" />
	</node>
	<node id="-175178" lat="67.1228503603" lon="16.2231105143">
		<tag k="name" v="Oterelva - Tjævrrájåhkå" />
		<tag k="name:no" v="Oterelva" />
		<tag k="name:smj" v="Tjævrrájåhkå" />
		<tag k="ssr:stedsnr" v="177850" />
		<tag k="waterway" v="river" />
	</node>
	<node id="-175172" lat="67.0835083321" lon="16.008786117">
		<tag k="name" v="Annabekken" />
		<tag k="ssr:stedsnr" v="177801" />
		<tag k="waterway" v="stream" />
	</node>
	<node id="-173920" lat="67.3057111135" lon="15.4137361137">
		<tag k="name" v="Tverråga" />
		<tag k="ssr:stedsnr" v="440822" />
		<tag k="waterway" v="stream" />
	</node>
	<node id="-175161" lat="67.2321500043" lon="15.5309833326">
		<tag k="name" v="Låtran" />
		<tag k="natural" v="cape" />
		<tag k="ssr:stedsnr" v="177376" />
	</node>
	<node id="-175160" lat="67.2252583293" lon="15.4298999989">
		<tag k="name" v="Svartflogelva" />
		<tag k="ssr:stedsnr" v="177358" />
		<tag k="waterway" v="stream" />
	</node>
	<node id="-173918" lat="67.0852444449" lon="16.0433138809">
		<tag k="name" v="Ihlendammen" />
		<tag k="natural" v="water" />
		<tag k="ssr:stedsnr" v="298737" />
	</node>
	<node id="-175147" lat="67.4241444406" lon="15.3957166624">
		<tag k="name" v="Konsulvatnet" />
		<tag k="natural" v="water" />
		<tag k="ssr:stedsnr" v="177010" />
	</node>
	<node id="-175146" lat="67.1512444407" lon="15.9928250053">
		<tag k="name" v="Hesjevika" />
		<tag k="natural" v="bay" />
		<tag k="ssr:stedsnr" v="166798" />
	</node>
	<node id="-175139" lat="67.3343444466" lon="15.1799500082">
		<tag k="name" v="Tronghola" />
		<tag k="place" v="locality" />
		<tag k="ssr:stedsnr" v="147531" />
	</node>
	<node id="-175137" lat="67.3314944449" lon="15.2150499889">
		<tag k="name" v="Innesnesbukta" />
		<tag k="natural" v="bay" />
		<tag k="ssr:stedsnr" v="146587" />
	</node>
	<node id="-175135" lat="67.4015305566" lon="15.4042500002">
		<tag k="name" v="Daudmannselva" />
		<tag k="ssr:stedsnr" v="146518" />
		<tag k="waterway" v="river" />
	</node>
	<node id="-175131" lat="67.2684666648" lon="15.2228777771">
		<tag k="name" v="Bjørnåga" />
		<tag k="ssr:stedsnr" v="145791" />
		<tag k="waterway" v="stream" />
	</node>
	<node id="-175125" lat="67.3215111154" lon="15.3044222142">
		<tag k="name" v="Stengvatnet" />
		<tag k="natural" v="bay" />
		<tag k="ssr:stedsnr" v="145346" />
	</node>
	<node id="-175117" lat="67.3170916625" lon="15.3503999986">
		<tag k="name" v="Pe Sjursodalstjønnene" />
		<tag k="natural" v="water" />
		<tag k="ssr:stedsnr" v="145259" />
		<tag k="water" v="lake" />
	</node>
	<node id="-175111" lat="67.3419666668" lon="15.2284833229">
		<tag k="name" v="Straumen" />
		<tag k="natural" v="bay" />
		<tag k="ssr:stedsnr" v="145041" />
	</node>
	<node id="-175103" lat="67.19398889" lon="15.6621527775">
		<tag k="name" v="Skamsjurelva" />
		<tag k="ssr:stedsnr" v="137970" />
		<tag k="waterway" v="stream" />
	</node>
	<node id="-175100" lat="67.4115277775" lon="15.3838194538">
		<tag k="name" v="Hømmervatnet" />
		<tag k="natural" v="water" />
		<tag k="ssr:stedsnr" v="137944" />
	</node>
	<node id="-175099" lat="67.2271277768" lon="15.5822555625">
		<tag k="fixme" v="multiple name tags, choose one and add the other to alt_name" />
		<tag k="name" v="Moengodden;Osengodden" />
		<tag k="natural" v="cape" />
		<tag k="ssr:stedsnr" v="137938" />
	</node>
	<node id="-175097" lat="67.2334555574" lon="15.5819138968">
		<tag k="name" v="Støytåga" />
		<tag k="ssr:stedsnr" v="137936" />
		<tag k="waterway" v="stream" />
	</node>
	<node id="-175094" lat="67.3386777776" lon="15.2439194538">
		<tag k="name" v="Flatøya" />
		<tag k="place" v="island" />
		<tag k="ssr:stedsnr" v="137912" />
	</node>
	<node id="-175091" lat="67.2666666713" lon="15.6749305537">
		<tag k="fixme" v="multiple name tags, choose one and add the other to alt_name" />
		<tag k="name" v="Kjølvikelva;Kjølåga" />
		<tag k="ssr:stedsnr" v="137723" />
		<tag k="waterway" v="river" />
	</node>
	<node id="-175085" lat="67.2765888899" lon="15.2196055566">
		<tag k="name" v="Stengvatnet" />
		<tag k="natural" v="water" />
		<tag k="ssr:stedsnr" v="137861" />
	</node>
	<node id="-175081" lat="67.1465499997" lon="15.7319499946">
		<tag k="name" v="Litjtverråga" />
		<tag k="ssr:stedsnr" v="137197" />
		<tag k="waterway" v="river" />
	</node>
	<node id="-175080" lat="67.1483916622" lon="15.9497388956">
		<tag k="name" v="Melvatnan" />
		<tag k="natural" v="water" />
		<tag k="ssr:stedsnr" v="137191" />
		<tag k="water" v="lake" />
	</node>
	<node id="-175079" lat="67.1302999996" lon="16.0509999915">
		<tag k="alt_name" v="Granheim" />
		<tag k="name" v="Granhei" />
		<tag k="natural" v="cape" />
		<tag k="ssr:stedsnr" v="137185" />
	</node>
	<node id="-175078" lat="67.1315333328" lon="16.0772972145">
		<tag k="name" v="Sandnes" />
		<tag k="natural" v="cape" />
		<tag k="ssr:stedsnr" v="137184" />
	</node>
	<node id="-175076" lat="67.1000295259" lon="16.2487681935">
		<tag k="name" v="Lomivatnet - Loamejávrre" />
		<tag k="name:no" v="Lomivatnet" />
		<tag k="name:smj" v="Loamejávrre" />
		<tag k="natural" v="water" />
		<tag k="old_name:smj" v="Loamejávri" />
		<tag k="ssr:stedsnr" v="137176" />
		<tag k="water" v="lake" />
	</node>
	<node id="-175075" lat="67.1048916659" lon="16.0741777743">
		<tag k="name" v="Balmielva" />
		<tag k="ssr:stedsnr" v="137175" />
		<tag k="waterway" v="river" />
	</node>
	<node id="-175074" lat="67.1082555597" lon="16.0627555465">
		<tag k="alt_name" v="Smolikbekkan" />
		<tag k="name" v="Smolikbekken" />
		<tag k="ssr:stedsnr" v="137174" />
		<tag k="waterway" v="stream" />
	</node>
	<node id="-175073" lat="67.069572223" lon="16.0359944531">
		<tag k="name" v="Langholmen" />
		<tag k="place" v="islet" />
		<tag k="ssr:stedsnr" v="137170" />
	</node>
	<node id="-175066" lat="67.2418833363" lon="15.5626805492">
		<tag k="name" v="Medtielva" />
		<tag k="ssr:stedsnr" v="117246" />
		<tag k="waterway" v="stream" />
	</node>
	<node id="-175065" lat="67.3125388856" lon="15.5101583311">
		<tag k="name" v="Bjørnkløftelva" />
		<tag k="ssr:stedsnr" v="117043" />
		<tag k="waterway" v="stream" />
	</node>
	<node id="-175061" lat="67.33296389" lon="15.4630388908">
		<tag k="name" v="Kvitblikosen" />
		<tag k="natural" v="bay" />
		<tag k="ssr:stedsnr" v="117014" />
	</node>
	<node id="-175060" lat="67.336766664" lon="15.4629249942">
		<tag k="name" v="Anderelva" />
		<tag k="ssr:stedsnr" v="117006" />
		<tag k="waterway" v="stream" />
	</node>
	<node id="-175053" lat="67.1540527795" lon="15.9619388868">
		<tag k="name" v="Skjærbekken" />
		<tag k="ssr:stedsnr" v="116778" />
		<tag k="waterway" v="stream" />
	</node>
	<node id="-175052" lat="67.0626000026" lon="15.9868527748">
		<tag k="loc_name" v="Såkibekken" />
		<tag k="name" v="Soahkebekken" />
		<tag k="ssr:stedsnr" v="116759" />
		<tag k="waterway" v="stream" />
	</node>
	<node id="-175038" lat="67.3107833369" lon="15.4059249998">
		<tag k="name" v="Pissvatnet" />
		<tag k="natural" v="water" />
		<tag k="ssr:stedsnr" v="116069" />
	</node>
	<node id="-175036" lat="67.2311750013" lon="15.5167222112">
		<tag k="name" v="Kikvika" />
		<tag k="natural" v="bay" />
		<tag k="ssr:stedsnr" v="116361" />
	</node>
	<node id="-175028" lat="67.3504777781" lon="15.5148611037">
		<tag k="name" v="Bjørndalselva" />
		<tag k="ssr:stedsnr" v="89839" />
		<tag k="waterway" v="stream" />
	</node>
	<node id="-175027" lat="67.2850944444" lon="15.4631999886">
		<tag k="name" v="Nord-Hundådiket" />
		<tag k="ssr:stedsnr" v="89810" />
		<tag k="waterway" v="stream" />
	</node>
	<node id="-175022" lat="67.3052055523" lon="15.2039277863">
		<tag k="name" v="Hagenesosen" />
		<tag k="natural" v="bay" />
		<tag k="ssr:stedsnr" v="89241" />
	</node>
	<node id="-175020" lat="67.2403527815" lon="15.5179944454">
		<tag k="name" v="Skertsen" />
		<tag k="natural" v="beach" />
		<tag k="ssr:stedsnr" v="88589" />
	</node>
	<node id="-175019" lat="67.2446027814" lon="15.5287361139">
		<tag k="name" v="Hjemgamelva" />
		<tag k="ssr:stedsnr" v="88580" />
		<tag k="waterway" v="stream" />
	</node>
	<node id="-175005" lat="67.3659611139" lon="15.2818333284">
		<tag k="name" v="Bjørnbakkforsen" />
		<tag k="natural" v="waterfall" />
		<tag k="ssr:stedsnr" v="85887" />
	</node>
	<node id="-175004" lat="67.3938583307" lon="15.3635194364">
		<tag k="name" v="Oleatjønna" />
		<tag k="natural" v="water" />
		<tag k="ssr:stedsnr" v="85741" />
	</node>
	<node id="-174995" lat="67.3428666651" lon="15.3620722181">
		<tag k="name" v="Røttjønna" />
		<tag k="natural" v="water" />
		<tag k="ssr:stedsnr" v="85281" />
	</node>
	<node id="-174993" lat="67.3452999985" lon="15.2992944544">
		<tag k="name" v="Øvervadlihola" />
		<tag k="natural" v="water" />
		<tag k="ssr:stedsnr" v="85181" />
		<tag k="water" v="lake" />
	</node>
	<node id="-174989" lat="67.3176583366" lon="15.3805222314">
		<tag k="name" v="Buktvatnet" />
		<tag k="natural" v="water" />
		<tag k="ssr:stedsnr" v="85232" />
	</node>
	<node id="-174980" lat="67.2741583348" lon="15.1582027678">
		<tag k="name" v="Stemlandselva" />
		<tag k="ssr:stedsnr" v="81459" />
		<tag k="waterway" v="stream" />
	</node>
	<node id="-174975" lat="67.2250361121" lon="15.5448083423">
		<tag k="name" v="Lægervatnet" />
		<tag k="natural" v="water" />
		<tag k="ssr:stedsnr" v="77953" />
	</node>
	<node id="-174972" lat="67.2352972187" lon="15.6917333291">
		<tag k="name" v="Laksåbukta" />
		<tag k="natural" v="bay" />
		<tag k="ssr:stedsnr" v="77944" />
	</node>
	<node id="-174970" lat="67.3283611089" lon="15.4381444441">
		<tag k="name" v="Skjøttarpålåga" />
		<tag k="ssr:stedsnr" v="77938" />
		<tag k="waterway" v="stream" />
	</node>
	<node id="-174963" lat="67.2298038915" lon="15.7778391997">
		<tag k="name" v="Sveåvatnet" />
		<tag k="natural" v="water" />
		<tag k="ssr:stedsnr" v="77866" />
		<tag k="water" v="lake" />
	</node>
	<node id="-174962" lat="67.2267277796" lon="16.1736305619">
		<tag k="loc_name:smj" v="Ålmåjalosjiegŋajávrre" />
		<tag k="name" v="Blåmannsisvatnet" />
		<tag k="name:no" v="Blåmannsisvatnet" />
		<tag k="natural" v="water" />
		<tag k="ssr:stedsnr" v="77859" />
		<tag k="water" v="lake" />
	</node>
	<node id="-174960" lat="67.2833972236" lon="15.3353111143">
		<tag k="alt_name" v="Beintennvatnet" />
		<tag k="name" v="Beinteinvatnet" />
		<tag k="natural" v="water" />
		<tag k="ssr:stedsnr" v="77847" />
	</node>
	<node id="-174958" lat="67.422438885" lon="15.4043000093">
		<tag k="name" v="Rundvatnet" />
		<tag k="natural" v="water" />
		<tag k="ssr:stedsnr" v="77567" />
	</node>
	<node id="-174957" lat="67.4192083355" lon="15.3788305544">
		<tag k="name" v="Djupvatnet" />
		<tag k="natural" v="water" />
		<tag k="ssr:stedsnr" v="77564" />
	</node>
	<node id="-174953" lat="67.1812888859" lon="15.8776861124">
		<tag k="name" v="Galbmielva - Gálmmejåhkå" />
		<tag k="name:no" v="Galbmielva" />
		<tag k="name:smj" v="Gálmmejåhkå" />
		<tag k="ssr:stedsnr" v="77242" />
		<tag k="waterway" v="river" />
	</node>
	<node id="-174950" lat="67.101275" lon="16.0446499941">
		<tag k="name" v="Stordalsvatnet" />
		<tag k="natural" v="water" />
		<tag k="ssr:stedsnr" v="77206" />
	</node>
	<node id="-174948" lat="67.3671166642" lon="15.3347638979">
		<tag k="name" v="Tverrelva" />
		<tag k="ssr:stedsnr" v="76868" />
		<tag k="waterway" v="stream" />
	</node>
	<node id="-174943" lat="67.1251222208" lon="16.0929916563">
		<tag k="name" v="Koksodden" />
		<tag k="natural" v="cape" />
		<tag k="ssr:stedsnr" v="56874" />
	</node>
	<node id="-173879" lat="67.2851000017" lon="15.4527111062">
		<tag k="name" v="Kviladiket" />
		<tag k="ssr:stedsnr" v="210818" />
		<tag k="waterway" v="stream" />
	</node>
	<node id="-174916" lat="67.077827782" lon="16.0317666578">
		<tag k="name" v="Rundvatnet" />
		<tag k="natural" v="bay" />
		<tag k="ssr:stedsnr" v="55730" />
	</node>
	<node id="-174909" lat="67.1959444441" lon="15.5925694509">
		<tag k="name" v="Grønnupvatnan" />
		<tag k="natural" v="water" />
		<tag k="ssr:stedsnr" v="48372" />
		<tag k="water" v="lake" />
	</node>
	<node id="-174907" lat="67.4228111081" lon="15.3915860988">
		<tag k="name" v="Steinvatnet" />
		<tag k="natural" v="water" />
		<tag k="ssr:stedsnr" v="28888" />
	</node>
	<node id="-174897" lat="67.3359972229" lon="15.244686106">
		<tag k="name" v="Øybukta" />
		<tag k="natural" v="bay" />
		<tag k="ssr:stedsnr" v="25600" />
	</node>
	<node id="-174896" lat="67.434080556" lon="15.3938888945">
		<tag k="name" v="Tennholmen" />
		<tag k="place" v="islet" />
		<tag k="ssr:stedsnr" v="25573" />
	</node>
	<node id="-174891" lat="67.3999194458" lon="15.3880999949">
		<tag k="name" v="Nordelvbukta" />
		<tag k="natural" v="bay" />
		<tag k="ssr:stedsnr" v="24798" />
	</node>
	<node id="-174884" lat="67.4302472253" lon="15.35995279">
		<tag k="name" v="Kalletjønna" />
		<tag k="natural" v="water" />
		<tag k="ssr:stedsnr" v="24259" />
	</node>
	<node id="-174883" lat="67.4368055574" lon="15.3613277664">
		<tag k="name" v="Ner-Krubblivatnet" />
		<tag k="natural" v="water" />
		<tag k="ssr:stedsnr" v="24256" />
	</node>
	<node id="-174881" lat="67.336458338" lon="15.3296361082">
		<tag k="name" v="Rønelva" />
		<tag k="ssr:stedsnr" v="24384" />
		<tag k="waterway" v="stream" />
	</node>
	<node id="-174877" lat="67.3070611152" lon="15.2791861151">
		<tag k="name" v="Tverrlidiket" />
		<tag k="ssr:stedsnr" v="24319" />
		<tag k="waterway" v="stream" />
	</node>
	<node id="-174875" lat="67.3134138858" lon="15.2555055648">
		<tag k="name" v="Bjønneset" />
		<tag k="natural" v="beach" />
		<tag k="ssr:stedsnr" v="24311" />
	</node>
	<node id="-174874" lat="67.3437166693" lon="15.271952775">
		<tag k="name" v="Nordengdiket" />
		<tag k="ssr:stedsnr" v="24173" />
		<tag k="waterway" v="stream" />
	</node>
	<node id="-174872" lat="67.3067333321" lon="15.197433325">
		<tag k="name" v="Kjølstranda" />
		<tag k="natural" v="beach" />
		<tag k="ssr:stedsnr" v="24152" />
	</node>
	<node id="-174868" lat="67.3352111109" lon="15.3920888831">
		<tag k="name" v="Osan" />
		<tag k="natural" v="bay" />
		<tag k="ssr:stedsnr" v="23383" />
	</node>
	<node id="-174859" lat="67.3462750003" lon="15.3772583253">
		<tag k="name" v="Indre Kvanntoelva" />
		<tag k="ssr:stedsnr" v="16888" />
		<tag k="waterway" v="stream" />
	</node>
	<node id="-174850" lat="67.1957416707" lon="15.6146222254">
		<tag k="name" v="Storvikelva" />
		<tag k="ssr:stedsnr" v="16965" />
		<tag k="waterway" v="stream" />
	</node>
	<node id="-174845" lat="67.4287222196" lon="15.4053666681">
		<tag k="name" v="Holmvatnet" />
		<tag k="natural" v="water" />
		<tag k="ssr:stedsnr" v="16282" />
	</node>
	<node id="-174844" lat="67.1474055533" lon="15.9857611159">
		<tag k="name" v="Klubben" />
		<tag k="natural" v="cape" />
		<tag k="ssr:stedsnr" v="16196" />
	</node>
	<node id="-174813" lat="67.3913638885" lon="15.3127249906">
		<tag k="name" v="Jakob-Olsovika" />
		<tag k="natural" v="bay" />
		<tag k="ssr:stedsnr" v="966356" />
	</node>
	<node id="-174809" lat="67.0763805539" lon="16.0392305507">
		<tag k="name" v="Naustbukta" />
		<tag k="natural" v="bay" />
		<tag k="ssr:stedsnr" v="965755" />
	</node>
	<node id="-174805" lat="67.2425416644" lon="15.4315138961">
		<tag k="name" v="Vaskarmobukta" />
		<tag k="natural" v="bay" />
		<tag k="ssr:stedsnr" v="936831" />
	</node>
	<node id="-174802" lat="67.3953861083" lon="15.463083339">
		<tag k="name" v="Falkflogelva" />
		<tag k="ssr:stedsnr" v="935544" />
		<tag k="waterway" v="river" />
	</node>
	<node id="-174799" lat="67.344947218" lon="15.3966388877">
		<tag k="name" v="Innermoelva" />
		<tag k="ssr:stedsnr" v="934343" />
		<tag k="waterway" v="stream" />
	</node>
	<node id="-174788" lat="67.289038893" lon="15.3567222248">
		<tag k="name" v="Erikstadvatnet" />
		<tag k="natural" v="water" />
		<tag k="ssr:stedsnr" v="926837" />
	</node>
	<node id="-174784" lat="67.0737361115" lon="16.1040888885">
		<tag k="name" v="Tjalpitjønnen" />
		<tag k="natural" v="water" />
		<tag k="ssr:stedsnr" v="905758" />
		<tag k="water" v="lake" />
	</node>
	<node id="-174775" lat="67.2235722201" lon="16.3601972213">
		<tag k="name" v="Vuolep Sårjåsjávrre" />
		<tag k="name:smj" v="Vuolep Sårjåsjávrre" />
		<tag k="natural" v="water" />
		<tag k="old_name:smj" v="Sorjosjávri, vuolit" />
		<tag k="ssr:stedsnr" v="884163" />
		<tag k="water" v="lake" />
	</node>
	<node id="-174764" lat="67.3462722209" lon="15.3341000042">
		<tag k="name" v="Tjuvdalselva" />
		<tag k="ssr:stedsnr" v="874353" />
		<tag k="waterway" v="stream" />
	</node>
	<node id="-174759" lat="67.4307722189" lon="15.3195472141">
		<tag k="name" v="Knivtjønna" />
		<tag k="natural" v="water" />
		<tag k="ssr:stedsnr" v="874253" />
	</node>
	<node id="-174754" lat="67.1823194441" lon="16.197219447">
		<tag k="name" v="Bajep Sårjåsjávrásj" />
		<tag k="name:smj" v="Bajep Sårjåsjávrásj" />
		<tag k="natural" v="water" />
		<tag k="old_name:smj" v="Sorjosjávrraš, bajit" />
		<tag k="ssr:stedsnr" v="866213" />
		<tag k="water" v="lake" />
	</node>
	<node id="-174745" lat="67.3072638908" lon="15.2103333375">
		<tag k="name" v="Nemnesodden" />
		<tag k="natural" v="cape" />
		<tag k="ssr:stedsnr" v="938264" />
	</node>
	<node id="-174743" lat="67.2465527737" lon="15.4454944385">
		<tag k="name" v="Kobbsteinen" />
		<tag k="place" v="islet" />
		<tag k="ssr:stedsnr" v="936891" />
	</node>
	<node id="-174741" lat="67.3333361124" lon="15.2528444357">
		<tag k="name" v="Tennholmskjæret" />
		<tag k="place" v="islet" />
		<tag k="ssr:stedsnr" v="936855" />
	</node>
	<node id="-174738" lat="67.3051138857" lon="15.2219555545">
		<tag k="name" v="Gardselva" />
		<tag k="ssr:stedsnr" v="936249" />
		<tag k="waterway" v="stream" />
	</node>
	<node id="-174731" lat="67.4386611071" lon="15.392805551">
		<tag k="name" v="Skogholmen" />
		<tag k="place" v="islet" />
		<tag k="ssr:stedsnr" v="935582" />
	</node>
	<node id="-174723" lat="67.3453694483" lon="15.3265083265">
		<tag k="name" v="Tjuvdalsforsen" />
		<tag k="natural" v="waterfall" />
		<tag k="ssr:stedsnr" v="935327" />
	</node>
	<node id="-174720" lat="67.3436222217" lon="15.2616555501">
		<tag k="name" v="Demma" />
		<tag k="place" v="locality" />
		<tag k="ssr:stedsnr" v="935196" />
	</node>
	<node id="-174719" lat="67.4318944404" lon="15.3711694359">
		<tag k="name" v="Kallebukta" />
		<tag k="natural" v="bay" />
		<tag k="ssr:stedsnr" v="935257" />
	</node>
	<node id="-174718" lat="67.3987694432" lon="15.3859833397">
		<tag k="name" v="Samkom" />
		<tag k="place" v="locality" />
		<tag k="ssr:stedsnr" v="934773" />
	</node>
	<node id="-174713" lat="67.3370611145" lon="15.3884861027">
		<tag k="name" v="Nystadosen" />
		<tag k="natural" v="bay" />
		<tag k="ssr:stedsnr" v="934290" />
	</node>
	<node id="-174711" lat="67.3070888891" lon="15.1997777865">
		<tag k="name" v="Kobbskjæret" />
		<tag k="place" v="islet" />
		<tag k="ssr:stedsnr" v="934172" />
	</node>
	<node id="-174703" lat="67.2429611108" lon="15.5059722308">
		<tag k="name" v="Moøyra" />
		<tag k="natural" v="cape" />
		<tag k="ssr:stedsnr" v="816575" />
	</node>
	<node id="-174692" lat="67.3949166643" lon="15.3978416678">
		<tag k="name" v="Fridalelva" />
		<tag k="ssr:stedsnr" v="927973" />
		<tag k="waterway" v="river" />
	</node>
	<node id="-174690" lat="67.230983331" lon="15.6022750038">
		<tag k="fixme" v="multiple name tags, choose one and add the other to alt_name" />
		<tag k="name" v="Stielva;Stiåga" />
		<tag k="ssr:stedsnr" v="927958" />
		<tag k="waterway" v="stream" />
	</node>
	<node id="-174688" lat="67.1935888904" lon="15.7748777689">
		<tag k="alt_name" v="Niermivatnet" />
		<tag k="name" v="Nermivatnet" />
		<tag k="natural" v="water" />
		<tag k="ssr:stedsnr" v="927876" />
	</node>
	<node id="-174683" lat="67.3964750034" lon="15.3607750035">
		<tag k="alt_name" v="Langvatn" />
		<tag k="name" v="Langvatnet" />
		<tag k="natural" v="water" />
		<tag k="ssr:stedsnr" v="805954" />
	</node>
	<node id="-174682" lat="67.29484167" lon="15.4465166611">
		<tag k="name" v="Gardsosen" />
		<tag k="ssr:stedsnr" v="805841" />
		<tag k="waterway" v="stream" />
	</node>
	<node id="-174678" lat="67.1491027774" lon="15.9110861037">
		<tag k="name" v="Villumelva" />
		<tag k="ssr:stedsnr" v="805189" />
		<tag k="waterway" v="river" />
	</node>
	<node id="-174677" lat="67.1576666647" lon="15.8596277795">
		<tag k="name" v="Littj-Tjårrisvatnet - Unnep Tjåresjávrre" />
		<tag k="name:no" v="Littj-Tjårrisvatnet" />
		<tag k="name:smj" v="Unnep Tjåresjávrre" />
		<tag k="natural" v="water" />
		<tag k="old_name:smj" v="Čoresjávri, unnit" />
		<tag k="ssr:stedsnr" v="805187" />
	</node>
	<node id="-174676" lat="67.1376083359" lon="16.0240055503">
		<tag k="name" v="Langvatnet" />
		<tag k="natural" v="water" />
		<tag k="ssr:stedsnr" v="805186" />
		<tag k="water" v="lake" />
	</node>
	<node id="-174675" lat="67.0981500021" lon="16.0573888919">
		<tag k="name" v="Emmavatnet" />
		<tag k="natural" v="water" />
		<tag k="ssr:stedsnr" v="805174" />
	</node>
	<node id="-174672" lat="67.4386527805" lon="15.379216664">
		<tag k="name" v="Storholmen" />
		<tag k="place" v="islet" />
		<tag k="ssr:stedsnr" v="927558" />
	</node>
	<node id="-174670" lat="67.4182138866" lon="15.365980551">
		<tag k="name" v="Halsvatnet" />
		<tag k="natural" v="water" />
		<tag k="ssr:stedsnr" v="927538" />
		<tag k="water" v="lake" />
	</node>
	<node id="-174669" lat="67.3892138911" lon="15.3466166576">
		<tag k="name" v="Storelva" />
		<tag k="ssr:stedsnr" v="927347" />
		<tag k="waterway" v="river" />
	</node>
	<node id="-174666" lat="67.1868340397" lon="15.7588770864">
		<tag k="alt_name" v="Geitstibekken" />
		<tag k="name" v="Geitstigelva" />
		<tag k="ssr:stedsnr" v="927260" />
		<tag k="waterway" v="stream" />
	</node>
	<node id="-174665" lat="67.1734583365" lon="15.7249111106">
		<tag k="name" v="Sandelva" />
		<tag k="ssr:stedsnr" v="927257" />
		<tag k="waterway" v="stream" />
	</node>
	<node id="-174662" lat="67.1835388857" lon="15.6161138824">
		<tag k="name" v="Storvikvatnet" />
		<tag k="natural" v="water" />
		<tag k="ssr:stedsnr" v="926977" />
	</node>
	<node id="-174660" lat="67.401211113" lon="15.3985777741">
		<tag k="name" v="Fridalvatnet" />
		<tag k="natural" v="water" />
		<tag k="ssr:stedsnr" v="926957" />
	</node>
	<node id="-174658" lat="67.2906722196" lon="15.4650555611">
		<tag k="name" v="Hundåga" />
		<tag k="ssr:stedsnr" v="926857" />
		<tag k="waterway" v="stream" />
	</node>
	<node id="-174657" lat="67.2874611126" lon="15.4798222119">
		<tag k="name" v="Mølnåga" />
		<tag k="ssr:stedsnr" v="926852" />
		<tag k="waterway" v="stream" />
	</node>
	<node id="-174655" lat="67.2519138909" lon="15.4363444414">
		<tag k="name" v="Finneidbukta" />
		<tag k="natural" v="bay" />
		<tag k="ssr:stedsnr" v="926773" />
	</node>
	<node id="-174646" lat="67.1031277818" lon="16.2080972225">
		<tag k="name" v="Fagerlibukta" />
		<tag k="natural" v="bay" />
		<tag k="ssr:stedsnr" v="926211" />
	</node>
	<node id="-174644" lat="67.0739527738" lon="16.0033722266">
		<tag k="name" v="Gamvatnet" />
		<tag k="natural" v="water" />
		<tag k="ssr:stedsnr" v="926204" />
	</node>
	<node id="-173832" lat="67.3485083303" lon="15.5185805606">
		<tag k="name" v="Forselva" />
		<tag k="ssr:stedsnr" v="271871" />
		<tag k="waterway" v="stream" />
	</node>
	<node id="-174635" lat="67.2457333346" lon="15.4482527832">
		<tag k="name" v="Langsanden" />
		<tag k="natural" v="beach" />
		<tag k="ssr:stedsnr" v="754907" />
	</node>
	<node id="-174631" lat="67.3166999986" lon="15.337566659">
		<tag k="name" v="Langvasstjønna" />
		<tag k="natural" v="water" />
		<tag k="ssr:stedsnr" v="752242" />
	</node>
	<node id="-174630" lat="67.4297555597" lon="15.3812027749">
		<tag k="name" v="Storsundet" />
		<tag k="natural" v="strait" />
		<tag k="ssr:stedsnr" v="752234" />
	</node>
	<node id="-174628" lat="67.3118916689" lon="15.330477779">
		<tag k="name" v="Stordalsdiket" />
		<tag k="ssr:stedsnr" v="752213" />
		<tag k="waterway" v="stream" />
	</node>
	<node id="-174627" lat="67.441272222" lon="15.3224194548">
		<tag k="name" v="Langvasstjønna" />
		<tag k="natural" v="water" />
		<tag k="ssr:stedsnr" v="752211" />
	</node>
	<node id="-174620" lat="67.2638499986" lon="15.1791111207">
		<tag k="name" v="Janslivatnet" />
		<tag k="natural" v="water" />
		<tag k="ssr:stedsnr" v="748411" />
	</node>
	<node id="-174619" lat="67.3850611148" lon="15.4242694499">
		<tag k="name" v="Sørdalselva" />
		<tag k="ssr:stedsnr" v="744973" />
		<tag k="waterway" v="stream" />
	</node>
	<node id="-174617" lat="67.3614638869" lon="15.4901777846">
		<tag k="name" v="Reipelva" />
		<tag k="ssr:stedsnr" v="744873" />
		<tag k="waterway" v="stream" />
	</node>
	<node id="-174615" lat="67.20216473" lon="15.7199495374">
		<tag k="name" v="Sjønståbukta" />
		<tag k="natural" v="bay" />
		<tag k="ssr:stedsnr" v="744853" />
	</node>
	<node id="-174610" lat="67.083586109" lon="15.9295916738">
		<tag k="alt_name:no" v="Beritvatnet, øvre" />
		<tag k="name" v="Øvre Beritvatnet - Bajep Bieritjávrre" />
		<tag k="name:no" v="Øvre Beritvatnet" />
		<tag k="name:smj" v="Bajep Bieritjávrre" />
		<tag k="natural" v="water" />
		<tag k="ssr:stedsnr" v="744154" />
	</node>
	<node id="-174607" lat="67.2401777804" lon="15.5656972116">
		<tag k="name" v="Innerelva" />
		<tag k="ssr:stedsnr" v="906202" />
		<tag k="waterway" v="stream" />
	</node>
	<node id="-174606" lat="67.1846333301" lon="16.0748166651">
		<tag k="name" v="Koppartoppvatnan" />
		<tag k="natural" v="water" />
		<tag k="ssr:stedsnr" v="905850" />
		<tag k="water" v="lake" />
	</node>
	<node id="-174604" lat="67.1393138919" lon="16.0838055504">
		<tag k="name" v="Sandnesbekken" />
		<tag k="ssr:stedsnr" v="905846" />
		<tag k="waterway" v="stream" />
	</node>
	<node id="-174594" lat="67.2614416708" lon="15.4315222177">
		<tag k="name" v="Indre Fauskeelva" />
		<tag k="ssr:stedsnr" v="905423" />
		<tag k="waterway" v="stream" />
	</node>
	<node id="-174592" lat="67.3924916689" lon="15.3129027745">
		<tag k="name" v="Båtsund" />
		<tag k="natural" v="strait" />
		<tag k="ssr:stedsnr" v="905322" />
	</node>
	<node id="-174581" lat="67.2991777778" lon="15.4553500067">
		<tag k="name" v="Kjerrosen" />
		<tag k="ssr:stedsnr" v="905081" />
		<tag k="waterway" v="stream" />
	</node>
	<node id="-174576" lat="67.1337305565" lon="16.046697227">
		<tag k="name" v="Storbukken" />
		<tag k="place" v="islet" />
		<tag k="ssr:stedsnr" v="723810" />
	</node>
	<node id="-174570" lat="67.2257249978" lon="15.5012555579">
		<tag k="name" v="Djupdalselva" />
		<tag k="ssr:stedsnr" v="723377" />
		<tag k="waterway" v="stream" />
	</node>
	<node id="-174568" lat="67.2328777809" lon="15.5061750094">
		<tag k="name" v="Movika" />
		<tag k="natural" v="bay" />
		<tag k="ssr:stedsnr" v="723374" />
	</node>
	<node id="-174545" lat="67.397847226" lon="15.459494444">
		<tag k="name" v="Gammlielva" />
		<tag k="ssr:stedsnr" v="692505" />
		<tag k="waterway" v="river" />
	</node>
	<node id="-174544" lat="67.3285527794" lon="15.2596583403">
		<tag k="name" v="Nystadøyra-Øyra" />
		<tag k="natural" v="cape" />
		<tag k="ssr:stedsnr" v="692396" />
	</node>
	<node id="-174542" lat="67.3332777752" lon="15.2738916718">
		<tag k="name" v="Gardsåga" />
		<tag k="ssr:stedsnr" v="692365" />
		<tag k="waterway" v="stream" />
	</node>
	<node id="-174540" lat="67.417050001" lon="15.2995277886">
		<tag k="name" v="Midtiskarelva" />
		<tag k="ssr:stedsnr" v="684527" />
		<tag k="waterway" v="stream" />
	</node>
	<node id="-174539" lat="67.27630833" lon="15.8468694443">
		<tag k="name" v="Heklelva" />
		<tag k="ssr:stedsnr" v="684310" />
		<tag k="waterway" v="river" />
	</node>
	<node id="-174533" lat="67.1485499983" lon="15.9428666641">
		<tag k="name" v="Lomvatnet" />
		<tag k="natural" v="water" />
		<tag k="ssr:stedsnr" v="683214" />
	</node>
	<node id="-174531" lat="67.346702779" lon="15.4786499898">
		<tag k="name" v="Gardselva" />
		<tag k="ssr:stedsnr" v="878868" />
		<tag k="waterway" v="stream" />
	</node>
	<node id="-174519" lat="67.2747194438" lon="15.2804000091">
		<tag k="name" v="Tverrelva" />
		<tag k="ssr:stedsnr" v="662663" />
		<tag k="waterway" v="stream" />
	</node>
	<node id="-173709" lat="67.3861472257" lon="15.3933944456">
		<tag k="name" v="Oksskarvatnet" />
		<tag k="natural" v="water" />
		<tag k="ssr:stedsnr" v="86604" />
		<tag k="water" v="lake" />
	</node>
	<node id="-175933" lat="67.3015444425" lon="15.3268583423">
		<tag k="name" v="Grasvatnet" />
		<tag k="natural" v="water" />
		<tag k="ssr:stedsnr" v="866828" />
	</node>
	<node id="-174508" lat="67.4034805559" lon="15.3481222202">
		<tag k="name" v="Lille Svartvatnet" />
		<tag k="natural" v="water" />
		<tag k="ssr:stedsnr" v="662263" />
	</node>
	<node id="-174505" lat="67.1529638887" lon="15.6810444495">
		<tag k="name" v="Storvikvatnet" />
		<tag k="natural" v="water" />
		<tag k="ssr:stedsnr" v="662119" />
	</node>
	<node id="-174502" lat="67.3425444471" lon="15.5259916556">
		<tag k="name" v="Nerigardsodden" />
		<tag k="natural" v="cape" />
		<tag k="ssr:stedsnr" v="634863" />
	</node>
	<node id="-174501" lat="67.3427722264" lon="15.5253055449">
		<tag k="name" v="Brukvika" />
		<tag k="natural" v="bay" />
		<tag k="ssr:stedsnr" v="634861" />
	</node>
	<node id="-174500" lat="67.2921333307" lon="15.4439583337">
		<tag k="name" v="Engdalsosen" />
		<tag k="natural" v="bay" />
		<tag k="ssr:stedsnr" v="634822" />
	</node>
	<node id="-174497" lat="67.2407250012" lon="15.4885388929">
		<tag k="name" v="Moleira" />
		<tag k="natural" v="shoal" />
		<tag k="place" v="locality" />
		<tag k="ssr:stedsnr" v="634578" />
	</node>
	<node id="-174496" lat="67.2466027772" lon="15.5050111032">
		<tag k="name" v="Heitosen" />
		<tag k="natural" v="bay" />
		<tag k="ssr:stedsnr" v="634568" />
	</node>
	<node id="-174489" lat="67.3411027744" lon="15.2609194504">
		<tag k="name" v="Hannabrukholmen" />
		<tag k="place" v="islet" />
		<tag k="ssr:stedsnr" v="631209" />
	</node>
	<node id="-174477" lat="67.3349611105" lon="15.3003777726">
		<tag k="name" v="Lomtjønna" />
		<tag k="natural" v="water" />
		<tag k="ssr:stedsnr" v="629513" />
	</node>
	<node id="-174473" lat="67.0737888909" lon="16.1412944362">
		<tag k="name" v="Kong Oscar-vatnan" />
		<tag k="natural" v="water" />
		<tag k="ssr:stedsnr" v="723740" />
		<tag k="water" v="lake" />
	</node>
	<node id="-174468" lat="67.1744416658" lon="15.8274888958">
		<tag k="name" v="Fossen" />
		<tag k="natural" v="waterfall" />
		<tag k="ssr:stedsnr" v="723771" />
	</node>
	<node id="-174464" lat="67.3895805522" lon="15.3118166697">
		<tag k="name" v="Dammen" />
		<tag k="place" v="locality" />
		<tag k="ssr:stedsnr" v="723326" />
	</node>
	<node id="-174461" lat="67.4215583332" lon="15.3345944386">
		<tag k="name" v="Domåkervatnet" />
		<tag k="natural" v="water" />
		<tag k="ssr:stedsnr" v="723281" />
	</node>
	<node id="-174456" lat="67.2124166642" lon="15.4319611099">
		<tag k="name" v="Tussvikbekken" />
		<tag k="ssr:stedsnr" v="723394" />
		<tag k="waterway" v="stream" />
	</node>
	<node id="-174453" lat="67.393538893" lon="15.4031361107">
		<tag k="name" v="Daudmannsheifossen" />
		<tag k="natural" v="waterfall" />
		<tag k="ssr:stedsnr" v="723111" />
	</node>
	<node id="-174452" lat="67.4170722222" lon="15.3980722132">
		<tag k="name" v="Breielvosen" />
		<tag k="natural" v="water" />
		<tag k="ssr:stedsnr" v="723107" />
		<tag k="water" v="lake" />
	</node>
	<node id="-174451" lat="67.2180416637" lon="15.6208611187">
		<tag k="name" v="Djupfestelva" />
		<tag k="ssr:stedsnr" v="723207" />
		<tag k="waterway" v="stream" />
	</node>
	<node id="-174447" lat="67.2603222242" lon="15.4308055562">
		<tag k="name" v="Indre Fauskeosen" />
		<tag k="natural" v="bay" />
		<tag k="ssr:stedsnr" v="601399" />
	</node>
	<node id="-174444" lat="67.4100166662" lon="15.3094694342">
		<tag k="name" v="Greinlifossen" />
		<tag k="natural" v="waterfall" />
		<tag k="ssr:stedsnr" v="601246" />
	</node>
	<node id="-174442" lat="67.3805388878" lon="15.3416388987">
		<tag k="name" v="Lilleelva" />
		<tag k="ssr:stedsnr" v="601226" />
		<tag k="waterway" v="stream" />
	</node>
	<node id="-174438" lat="67.2177638859" lon="16.2662416628">
		<tag k="name" v="Bajep Sårjåsjávrre" />
		<tag k="name:smj" v="Bajep Sårjåsjávrre" />
		<tag k="natural" v="water" />
		<tag k="old_name:smj" v="Sorjosjávri, bajit" />
		<tag k="ssr:stedsnr" v="580149" />
		<tag k="water" v="lake" />
	</node>
	<node id="-174434" lat="67.2292777786" lon="15.4839416668">
		<tag k="name" v="Middagselva" />
		<tag k="ssr:stedsnr" v="573508" />
		<tag k="waterway" v="stream" />
	</node>
	<node id="-174431" lat="67.2453999962" lon="15.4660388958">
		<tag k="name" v="Storsteinneset" />
		<tag k="natural" v="cape" />
		<tag k="ssr:stedsnr" v="572906" />
	</node>
	<node id="-174416" lat="67.2395805538" lon="15.4624361151">
		<tag k="alt_name" v="Nedrevatnet" />
		<tag k="name" v="Nervatnet" />
		<tag k="natural" v="water" />
		<tag k="ssr:stedsnr" v="562905" />
		<tag k="water" v="lake" />
	</node>
	<node id="-174412" lat="67.3213194463" lon="15.4565861146">
		<tag k="name" v="Tverråosen" />
		<tag k="ssr:stedsnr" v="562817" />
		<tag k="waterway" v="stream" />
	</node>
	<node id="-174411" lat="67.3104972183" lon="15.2449722124">
		<tag k="name" v="Hellskarnes" />
		<tag k="natural" v="cape" />
		<tag k="ssr:stedsnr" v="562815" />
	</node>
	<node id="-174410" lat="67.167319445" lon="15.7215861184">
		<tag k="name" v="Kvannelva" />
		<tag k="ssr:stedsnr" v="562204" />
		<tag k="waterway" v="stream" />
	</node>
	<node id="-174409" lat="67.0349444465" lon="16.3137694409">
		<tag k="name" v="Vássjájávrre" />
		<tag k="name:smj" v="Vássjájávrre" />
		<tag k="natural" v="water" />
		<tag k="old_name:smj" v="Vaššajávri" />
		<tag k="ssr:stedsnr" v="701183" />
		<tag k="water" v="lake" />
	</node>
	<node id="-174406" lat="67.2439722233" lon="15.4548194421">
		<tag k="name" v="Vatnneset" />
		<tag k="natural" v="cape" />
		<tag k="ssr:stedsnr" v="693898" />
	</node>
	<node id="-174401" lat="67.2403000035" lon="15.4385277706">
		<tag k="name" v="Oldervika" />
		<tag k="natural" v="bay" />
		<tag k="ssr:stedsnr" v="693836" />
	</node>
	<node id="-174398" lat="67.3041777743" lon="15.2363249942">
		<tag k="name" v="Langdalåga" />
		<tag k="ssr:stedsnr" v="693347" />
		<tag k="waterway" v="stream" />
	</node>
	<node id="-174396" lat="67.3095444472" lon="15.4027444527">
		<tag k="name" v="Mølnelva" />
		<tag k="ssr:stedsnr" v="541558" />
		<tag k="waterway" v="stream" />
	</node>
	<node id="-174384" lat="67.3489638881" lon="15.3290166668">
		<tag k="name" v="Petter-Joelva" />
		<tag k="ssr:stedsnr" v="692301" />
		<tag k="waterway" v="stream" />
	</node>
	<node id="-174381" lat="67.4340361148" lon="15.342613884">
		<tag k="name" v="Algotvatnet" />
		<tag k="natural" v="water" />
		<tag k="ssr:stedsnr" v="692258" />
	</node>
	<node id="-174380" lat="67.4354833325" lon="15.3405111222">
		<tag k="name" v="Algottjønna" />
		<tag k="natural" v="water" />
		<tag k="ssr:stedsnr" v="692256" />
	</node>
	<node id="-174376" lat="67.4349416697" lon="15.3249305588">
		<tag k="name" v="Rundvatnet" />
		<tag k="natural" v="water" />
		<tag k="ssr:stedsnr" v="692212" />
	</node>
	<node id="-174375" lat="67.3432027792" lon="15.2636138974">
		<tag k="name" v="Mebrukholmen" />
		<tag k="place" v="islet" />
		<tag k="ssr:stedsnr" v="692203" />
	</node>
	<node id="-174364" lat="67.2958611152" lon="15.2794055448">
		<tag k="name" v="Svarttjønna" />
		<tag k="natural" v="water" />
		<tag k="ssr:stedsnr" v="691351" />
	</node>
	<node id="-174361" lat="67.3025583305" lon="15.1868833244">
		<tag k="name" v="Kråkskjæret" />
		<tag k="place" v="islet" />
		<tag k="ssr:stedsnr" v="691242" />
	</node>
	<node id="-174350" lat="67.3324833314" lon="15.1054972285">
		<tag k="alt_name" v="Djupdalelva" />
		<tag k="name" v="Djupdalselva" />
		<tag k="ssr:stedsnr" v="687749" />
		<tag k="waterway" v="stream" />
	</node>
	<node id="-174349" lat="67.3189888878" lon="15.188447214">
		<tag k="name" v="Livatnet" />
		<tag k="natural" v="water" />
		<tag k="ssr:stedsnr" v="687743" />
	</node>
	<node id="-174348" lat="67.3215111071" lon="15.2021111175">
		<tag k="alt_name" v="Rotnes" />
		<tag k="name" v="Rotneset" />
		<tag k="natural" v="cape" />
		<tag k="ssr:stedsnr" v="687737" />
	</node>
	<node id="-174343" lat="67.3456583318" lon="15.5154638864">
		<tag k="name" v="Endedalosen" />
		<tag k="natural" v="bay" />
		<tag k="ssr:stedsnr" v="513861" />
	</node>
	<node id="-174337" lat="67.2144333356" lon="15.4510666653">
		<tag k="name" v="Småvatnan" />
		<tag k="natural" v="water" />
		<tag k="ssr:stedsnr" v="684955" />
	</node>
	<node id="-174332" lat="67.3018972215" lon="15.261002766">
		<tag k="name" v="Hellskaråga" />
		<tag k="ssr:stedsnr" v="684847" />
		<tag k="waterway" v="river" />
	</node>
	<node id="-174331" lat="67.3157361146" lon="15.266844446">
		<tag k="name" v="Djuposelva" />
		<tag k="ssr:stedsnr" v="684837" />
		<tag k="waterway" v="stream" />
	</node>
	<node id="-174328" lat="67.3970749979" lon="15.4163000102">
		<tag k="name" v="Daudmannstjønnene" />
		<tag k="natural" v="water" />
		<tag k="ssr:stedsnr" v="510548" />
	</node>
	<node id="-174322" lat="67.4301472201" lon="15.3363472106">
		<tag k="name" v="Arturtjønna" />
		<tag k="natural" v="water" />
		<tag k="ssr:stedsnr" v="509281" />
	</node>
	<node id="-174321" lat="67.3375805584" lon="15.2430166585">
		<tag k="name" v="Bakkøya" />
		<tag k="place" v="island" />
		<tag k="ssr:stedsnr" v="509052" />
	</node>
	<node id="-174319" lat="67.1758722196" lon="15.7749972231">
		<tag k="name" v="Litlevatnet" />
		<tag k="natural" v="water" />
		<tag k="ssr:stedsnr" v="684258" />
	</node>
	<node id="-174317" lat="67.3272999985" lon="15.2923027735">
		<tag k="name" v="Raudsteinåga" />
		<tag k="ssr:stedsnr" v="683930" />
		<tag k="waterway" v="stream" />
	</node>
	<node id="-174315" lat="67.346558331" lon="15.2381305472">
		<tag k="name" v="Skipperoselva" />
		<tag k="ssr:stedsnr" v="683890" />
		<tag k="waterway" v="stream" />
	</node>
	<node id="-174314" lat="67.3475611121" lon="15.3083361016">
		<tag k="alt_name" v="Varlielva, in" />
		<tag k="name" v="Indre Varlielva" />
		<tag k="ssr:stedsnr" v="683878" />
		<tag k="waterway" v="stream" />
	</node>
	<node id="-174309" lat="67.2530277763" lon="15.5243055661">
		<tag k="name" v="Stengvatnet" />
		<tag k="natural" v="water" />
		<tag k="ssr:stedsnr" v="683750" />
		<tag k="water" v="lake" />
	</node>
	<node id="-174308" lat="67.2585805526" lon="15.4511277707">
		<tag k="name" v="Finneidbekken" />
		<tag k="ssr:stedsnr" v="683747" />
		<tag k="waterway" v="stream" />
	</node>
	<node id="-174307" lat="67.2629805548" lon="15.2346583241">
		<tag k="name" v="Røvikleira" />
		<tag k="natural" v="beach" />
		<tag k="ssr:stedsnr" v="683735" />
	</node>
	<node id="-174306" lat="67.2821444463" lon="15.4509194489">
		<tag k="name" v="Åsåga" />
		<tag k="ssr:stedsnr" v="683837" />
		<tag k="waterway" v="stream" />
	</node>
	<node id="-174305" lat="67.0227833363" lon="15.9750388806">
		<tag k="loc_name:no" v="Ballvasselva" />
		<tag k="name" v="Balvasselva - Lájddarajåhkå" />
		<tag k="name:no" v="Balvasselva" />
		<tag k="name:smj" v="Lájddarajåhkå" />
		<tag k="old_name:smj" v="Laitarajohka" />
		<tag k="ssr:stedsnr" v="683188" />
		<tag k="waterway" v="river" />
	</node>
	<node id="-174300" lat="67.3381916683" lon="15.4326250079">
		<tag k="name" v="Holabåtvatnet" />
		<tag k="natural" v="water" />
		<tag k="ssr:stedsnr" v="501896" />
	</node>
	<node id="-174299" lat="67.3440194421" lon="15.5349805517">
		<tag k="name" v="Røyrvik" />
		<tag k="natural" v="bay" />
		<tag k="ssr:stedsnr" v="501881" />
	</node>
	<node id="-174294" lat="67.1485166681" lon="15.9841500042">
		<tag k="name" v="Klubbvika" />
		<tag k="natural" v="bay" />
		<tag k="ssr:stedsnr" v="480798" />
	</node>
	<node id="-174293" lat="67.1541472215" lon="15.9713611209">
		<tag k="name" v="Avilon" />
		<tag k="natural" v="cape" />
		<tag k="ssr:stedsnr" v="480794" />
	</node>
	<node id="-174292" lat="67.132733333" lon="15.8584416693">
		<tag k="name" v="Holmtjønnen" />
		<tag k="name:smj" v="Holmtjønnen" />
		<tag k="natural" v="water" />
		<tag k="ssr:stedsnr" v="480792" />
		<tag k="water" v="lake" />
	</node>
	<node id="-174290" lat="67.0546694471" lon="16.048552777">
		<tag k="loc_name:smj" v="Tjálalvisjåhkå" />
		<tag k="name" v="Tjálanisjåhkå" />
		<tag k="name:smj" v="Tjálanisjåhkå" />
		<tag k="natural" v="bay" />
		<tag k="ssr:stedsnr" v="480764" />
	</node>
	<node id="-173773" lat="67.4301611119" lon="15.3320833248">
		<tag k="name" v="Holmtjønna" />
		<tag k="natural" v="water" />
		<tag k="ssr:stedsnr" v="267244" />
	</node>
	<node id="-174281" lat="67.0394305545" lon="16.2710277692">
		<tag k="name" v="Vássjájåhkå" />
		<tag k="name:smj" v="Vássjájåhkå" />
		<tag k="old_name:smj" v="Vaššajohka" />
		<tag k="ssr:stedsnr" v="459160" />
		<tag k="waterway" v="river" />
	</node>
	<node id="-174272" lat="67.054741665" lon="16.2730250039">
		<tag k="loc_name:smj" v="Vássjájávrásj" />
		<tag k="name" v="Vássjájávrre" />
		<tag k="name:smj" v="Vássjájávrre" />
		<tag k="natural" v="water" />
		<tag k="ssr:stedsnr" v="662816" />
	</node>
	<node id="-174271" lat="67.2324472201" lon="15.8326333226">
		<tag k="name" v="Daumannselva" />
		<tag k="ssr:stedsnr" v="662801" />
		<tag k="waterway" v="stream" />
	</node>
	<node id="-174269" lat="67.0664000025" lon="16.0075222119">
		<tag k="name" v="Brandt-tjønna" />
		<tag k="natural" v="water" />
		<tag k="ssr:stedsnr" v="662771" />
	</node>
	<node id="-174268" lat="67.237900004" lon="15.8649722277">
		<tag k="name" v="Daumannselva" />
		<tag k="ssr:stedsnr" v="662769" />
		<tag k="waterway" v="stream" />
	</node>
	<node id="-174258" lat="67.375166665" lon="15.3246027738">
		<tag k="name" v="Bringebærdiket" />
		<tag k="ssr:stedsnr" v="662241" />
		<tag k="waterway" v="stream" />
	</node>
	<node id="-174255" lat="67.2247194455" lon="15.5938333369">
		<tag k="name" v="Bautneset" />
		<tag k="natural" v="cape" />
		<tag k="ssr:stedsnr" v="662210" />
	</node>
	<node id="-174251" lat="67.1946055563" lon="15.6961388887">
		<tag k="loc_name" v="Sjønståfossen" />
		<tag k="name" v="Storfossen" />
		<tag k="natural" v="waterfall" />
		<tag k="ssr:stedsnr" v="662142" />
	</node>
	<node id="-174249" lat="67.3112555565" lon="15.4030527864">
		<tag k="name" v="Svartelva" />
		<tag k="ssr:stedsnr" v="662052" />
		<tag k="waterway" v="stream" />
	</node>
	<node id="-173765" lat="67.344730553" lon="15.237480553">
		<tag k="name" v="Skipperosen" />
		<tag k="natural" v="bay" />
		<tag k="ssr:stedsnr" v="266063" />
	</node>
	<node id="-174228" lat="67.264225003" lon="15.5048277732">
		<tag k="name" v="Oksholelva" />
		<tag k="ssr:stedsnr" v="441770" />
		<tag k="waterway" v="stream" />
	</node>
	<node id="-174218" lat="67.3098055588" lon="15.4296027721">
		<tag k="name" v="Gammodiket" />
		<tag k="ssr:stedsnr" v="420045" />
		<tag k="waterway" v="stream" />
	</node>
	<node id="-174215" lat="67.4249833367" lon="15.3974805491">
		<tag k="name" v="Åkerbergtjønna" />
		<tag k="natural" v="water" />
		<tag k="ssr:stedsnr" v="420027" />
	</node>
	<node id="-174212" lat="67.327313885" lon="15.4626972315">
		<tag k="name" v="Gudmorkroken" />
		<tag k="natural" v="bay" />
		<tag k="ssr:stedsnr" v="420020" />
	</node>
	<node id="-174209" lat="67.3349694426" lon="15.4548916659">
		<tag k="name" v="Heitåga" />
		<tag k="ssr:stedsnr" v="420013" />
		<tag k="waterway" v="stream" />
	</node>
	<node id="-174207" lat="67.241430556" lon="15.5091555528">
		<tag k="name" v="Hjemgamstraumen" />
		<tag k="natural" v="bay" />
		<tag k="ssr:stedsnr" v="513560" />
	</node>
	<node id="-174206" lat="67.2402249998" lon="15.5117972221">
		<tag k="name" v="Reinnes" />
		<tag k="natural" v="cape" />
		<tag k="ssr:stedsnr" v="513552" />
	</node>
	<node id="-173903" lat="67.2566444409" lon="15.5134916674">
		<tag k="name" v="Nykjevatnet" />
		<tag k="natural" v="water" />
		<tag k="ssr:stedsnr" v="298490" />
	</node>
	<node id="-174197" lat="67.2602666658" lon="15.1515833401">
		<tag k="name" v="Kjelda" />
		<tag k="ssr:stedsnr" v="510757" />
		<tag k="waterway" v="drain" />
	</node>
	<node id="-173755" lat="67.2442472242" lon="15.5839361072">
		<tag k="name" v="Tverrelva" />
		<tag k="ssr:stedsnr" v="117244" />
		<tag k="waterway" v="stream" />
	</node>
	<node id="-174163" lat="67.3361166679" lon="15.1435111179">
		<tag k="alt_name" v="Nautbergelva" />
		<tag k="name" v="Notbergelva" />
		<tag k="ssr:stedsnr" v="505760" />
		<tag k="waterway" v="stream" />
	</node>
	<node id="-174153" lat="67.2917611148" lon="15.1833361156">
		<tag k="name" v="Haugelva" />
		<tag k="ssr:stedsnr" v="390653" />
		<tag k="waterway" v="stream" />
	</node>
	<node id="-174143" lat="67.3789277808" lon="15.3096611021">
		<tag k="name" v="Bringebærdikforsen" />
		<tag k="natural" v="waterfall" />
		<tag k="ssr:stedsnr" v="388808" />
	</node>
	<node id="-174139" lat="67.3059722258" lon="15.3307472201">
		<tag k="name" v="Stordalstjønna" />
		<tag k="natural" v="water" />
		<tag k="ssr:stedsnr" v="388253" />
	</node>
	<node id="-174138" lat="67.3117083297" lon="15.3675416723">
		<tag k="name" v="Olatjønna" />
		<tag k="natural" v="water" />
		<tag k="ssr:stedsnr" v="388252" />
	</node>
	<node id="-174131" lat="67.30256944" lon="15.1842305577">
		<tag k="name" v="Mosøya" />
		<tag k="natural" v="cape" />
		<tag k="ssr:stedsnr" v="388170" />
	</node>
	<node id="-174124" lat="67.409850004" lon="15.283363892">
		<tag k="name" v="Sørskarelva" />
		<tag k="ssr:stedsnr" v="502949" />
		<tag k="waterway" v="stream" />
	</node>
	<node id="-174118" lat="67.3357499983" lon="15.4291166557">
		<tag k="name" v="Reinhornvatnet" />
		<tag k="natural" v="water" />
		<tag k="ssr:stedsnr" v="299009" />
	</node>
	<node id="-174116" lat="67.1643861152" lon="16.1781583266">
		<tag k="alt_name:no" v="Storelv-vatna" />
		<tag k="name" v="Storelvvatnan - Duolldagåpjávrre" />
		<tag k="name:no" v="Storelvvatnan" />
		<tag k="name:smj" v="Duolldagåpjávrre" />
		<tag k="natural" v="water" />
		<tag k="ssr:stedsnr" v="502222" />
		<tag k="water" v="lake" />
	</node>
	<node id="-174114" lat="67.2632833353" lon="15.8849472302">
		<tag k="name" v="Fonnelva" />
		<tag k="ssr:stedsnr" v="502301" />
		<tag k="waterway" v="river" />
	</node>
	<node id="-174108" lat="67.2899416699" lon="15.5876583318">
		<tag k="name" v="Tindvatnet" />
		<tag k="natural" v="water" />
		<tag k="ssr:stedsnr" v="501826" />
	</node>
	<node id="-174106" lat="67.3064638865" lon="15.5502361024">
		<tag k="name" v="Tjønna" />
		<tag k="natural" v="water" />
		<tag k="ssr:stedsnr" v="501806" />
	</node>
	<node id="-174098" lat="67.3330222216" lon="15.4392416715">
		<tag k="name" v="Kvithammarelva" />
		<tag k="ssr:stedsnr" v="501927" />
		<tag k="waterway" v="stream" />
	</node>
	<node id="-174097" lat="67.2563527821" lon="15.753013891">
		<tag k="name" v="Laksåga" />
		<tag k="ssr:stedsnr" v="501925" />
		<tag k="waterway" v="river" />
	</node>
	<node id="-174095" lat="67.3238583323" lon="15.256583324">
		<tag k="name" v="Skytjeneset" />
		<tag k="natural" v="cape" />
		<tag k="ssr:stedsnr" v="501918" />
	</node>
	<node id="-174093" lat="67.2676388863" lon="15.3584611141">
		<tag k="name" v="Liosen" />
		<tag k="ssr:stedsnr" v="501731" />
		<tag k="waterway" v="stream" />
	</node>
	<node id="-174087" lat="67.1255933477" lon="15.8384979195">
		<tag k="loc_name:no" v="Ner-Skortavatnet" />
		<tag k="name" v="Ner-Skuortavatnet - Vuolep Skuorttajávrre" />
		<tag k="name:no" v="Ner-Skuortavatnet" />
		<tag k="name:smj" v="Vuolep Skuorttajávrre" />
		<tag k="natural" v="water" />
		<tag k="old_name:smj" v="Skuortajávri, vuolit" />
		<tag k="ssr:stedsnr" v="501199" />
		<tag k="water" v="lake" />
	</node>
	<node id="-174086" lat="67.1271388924" lon="15.9378805489">
		<tag k="name" v="Villumvatnet" />
		<tag k="natural" v="water" />
		<tag k="ssr:stedsnr" v="501198" />
		<tag k="water" v="lake" />
	</node>
</osm>
