<?xml version="1.0" encoding="UTF-8"?>
<osm generator="osmapis" version="0.6">
	<node id="-679771" lat="67.1235622176" lon="16.0800391712">
		<tag k="cemetery" v="grave" />
		<tag k="name" v="Sulitjelma gamle kirkegård" />
		<tag k="place" v="locality" />
		<tag k="ssr:stedsnr" v="1072459" />
	</node>
	<node id="-679760" lat="67.2677869508" lon="15.4248248723">
		<tag k="name" v="Foldgøta" />
		<tag k="ssr:stedsnr" v="269923" />
		<tag k="tourism" v="viewpoint" />
	</node>
	<node id="-679691" lat="67.2927138857" lon="15.1738500097">
		<tag k="amenity" v="place_of_worship" />
		<tag k="denomination" v="lutheran" />
		<tag k="name" v="Valnesfjord kirke" />
		<tag k="religion" v="christian" />
		<tag k="ssr:stedsnr" v="384687" />
	</node>
	<node id="-680163" lat="67.1356222251" lon="16.0577138901">
		<tag k="amenity" v="place_of_worship" />
		<tag k="denomination" v="lutheran" />
		<tag k="name" v="Sulitjelma  kirke" />
		<tag k="religion" v="christian" />
		<tag k="ssr:stedsnr" v="116840" />
	</node>
	<node id="-681346" lat="67.1099852967" lon="16.0146328169">
		<tag k="loc_name" v="Treabrakka" />
		<tag k="name" v="Treabakkan" />
		<tag k="place" v="locality" />
		<tag k="ssr:stedsnr" v="723826" />
	</node>
	<node id="-679777" lat="67.2578859128" lon="15.3726429339">
		<tag k="amenity" v="place_of_worship" />
		<tag k="denomination" v="lutheran" />
		<tag k="name" v="Fauske kirke" />
		<tag k="religion" v="christian" />
		<tag k="ssr:stedsnr" v="990302" />
	</node>
</osm>
