<?xml version="1.0" encoding="UTF-8"?>
<<<<<<< HEAD
<osm version="0.6" generator="osmapis">
	<node lat="67.0840916683831" lon="16.390900010007847" id="-5706">
		<tag k="historic" v="boundary_stone" />
		<tag k="man_made" v="cairn" />
		<tag k="name" v="Isbergsrøysa" />
		<tag k="old_name" v="Iisbergs Røse" />
		<tag k="place" v="locality" />
		<tag k="ssr:stedsnr" v="413596" />
	</node>
	<node lat="67.26204722358729" lon="16.329980545599856" id="-6037">
=======
<osm generator="osmapis" version="0.6">
	<node id="-174580" lat="67.2620472236" lon="16.3299805456">
>>>>>>> e1d4bc35ff8a6074a6f2e91616a996b547c36f15
		<tag k="historic" v="boundary_stone" />
		<tag k="man_made" v="cairn" />
		<tag k="name" v="Ålmajalorøysa" />
		<tag k="old_name" v="Olmajallogeikna" />
		<tag k="place" v="locality" />
		<tag k="ssr:stedsnr" v="899588" />
	</node>
<<<<<<< HEAD
	<node lat="67.20497222672337" lon="16.404097221675375" id="-6386">
=======
	<node id="-174910" lat="67.2049722267" lon="16.4040972217">
>>>>>>> e1d4bc35ff8a6074a6f2e91616a996b547c36f15
		<tag k="historic" v="boundary_stone" />
		<tag k="man_made" v="cairn" />
		<tag k="name" v="Nordre Sulitjelma-røysa" />
		<tag k="old_name" v="Nordre Sulitielma Røset" />
		<tag k="place" v="locality" />
		<tag k="ssr:stedsnr" v="49626" />
	</node>
<<<<<<< HEAD
	<node lat="67.04547375493783" lon="16.387707454487177" id="-6590">
		<tag k="historic" v="boundary_stone" />
		<tag k="man_made" v="cairn" />
		<tag k="name" v="Stendahlsrøysa" />
		<tag k="old_name" v="Steendals Røset;Stendals Røset" />
		<tag k="place" v="locality" />
		<tag k="ssr:stedsnr" v="170586" />
	</node>
	<node lat="67.26755277750064" lon="15.295180560423807" id="-7213">
=======
	<node id="-174517" lat="67.2675527775" lon="15.2951805604">
>>>>>>> e1d4bc35ff8a6074a6f2e91616a996b547c36f15
		<tag k="fixme" v="consider boundary=protected_area and relevant protect_class if not nature reserve" />
		<tag k="leisure" v="nature_reserve" />
		<tag k="name" v="Ytre Klungset naturreservat" />
		<tag k="ssr:stedsnr" v="662657" />
	</node>
<<<<<<< HEAD
	<node lat="67.01878892973176" lon="16.306394411916727" id="-7228">
		<tag k="historic" v="boundary_stone" />
		<tag k="man_made" v="cairn" />
		<tag k="name" v="Gaskavarrirøysa" />
		<tag k="old_name" v="Gaska røs;Gaskoivi Røset" />
		<tag k="place" v="locality" />
		<tag k="ssr:stedsnr" v="717596" />
=======
	<node id="-175428" lat="67.0840916684" lon="16.39090001">
		<tag k="historic" v="boundary_stone" />
		<tag k="man_made" v="cairn" />
		<tag k="name" v="Isbergsrøysa" />
		<tag k="old_name" v="Iisbergs Røse" />
		<tag k="place" v="locality" />
		<tag k="ssr:stedsnr" v="413596" />
>>>>>>> e1d4bc35ff8a6074a6f2e91616a996b547c36f15
	</node>
</osm>
