<?xml version="1.0" encoding="UTF-8"?>
<osm generator="osmapis" version="0.6">
	<node id="-174078" lat="67.2718472257" lon="15.0457388807">
		<tag k="name" v="Innerteigen" />
		<tag k="place" v="isolated_dwelling" />
		<tag k="ssr:stedsnr" v="359724" />
	</node>
	<node id="-174071" lat="67.2724066602" lon="15.3341784815">
		<tag k="fixme" v="consider place=hamlet" />
		<tag k="name" v="Inner-Klungset" />
		<tag k="place" v="farm" />
		<tag k="ssr:stedsnr" v="483943" />
	</node>
	<node id="-174066" lat="67.3228944457" lon="15.5174194452">
		<tag k="name" v="Finnskjeggmoen" />
		<tag k="place" v="farm" />
		<tag k="ssr:stedsnr" v="481034" />
	</node>
	<node id="-174062" lat="67.2884694438" lon="15.2047583306">
		<tag k="historic" v="shieling" />
		<tag k="name" v="Nordseter" />
		<tag k="place" v="locality" />
		<tag k="ssr:stedsnr" v="480707" />
	</node>
	<node id="-176104" lat="67.3043310827" lon="15.4210768701">
		<tag k="fixme" v="consider place=hamlet" />
		<tag k="name" v="Tverrå" />
		<tag k="place" v="village" />
		<tag k="ssr:stedsnr" v="1076559" />
	</node>
	<node id="-176100" lat="67.5854942175" lon="15.835020014">
		<tag k="fixme" v="consider place=hamlet" />
		<tag k="name" v="Ørnes" />
		<tag k="place" v="farm" />
		<tag k="ssr:stedsnr" v="1075700" />
	</node>
	<node id="-176099" lat="67.1390011441" lon="16.0911308545">
		<tag k="name" v="Sulitjelma" />
		<tag k="place" v="locality" />
		<tag k="ssr:stedsnr" v="1075696" />
	</node>
	<node id="-176098" lat="67.289127371" lon="15.4291339015">
		<tag k="fixme" v="consider place=hamlet" />
		<tag k="name" v="Heimås" />
		<tag k="place" v="farm" />
		<tag k="ssr:stedsnr" v="1075654" />
	</node>
	<node id="-176097" lat="67.2677330034" lon="15.3827649077">
		<tag k="name" v="Vestre Fauske" />
		<tag k="place" v="locality" />
		<tag k="ssr:stedsnr" v="1075653" />
	</node>
	<node id="-176096" lat="67.2594873096" lon="15.4350858931">
		<tag k="name" v="Østre Fauske" />
		<tag k="place" v="locality" />
		<tag k="ssr:stedsnr" v="1075649" />
	</node>
	<node id="-176095" lat="67.2558389905" lon="15.4383281675">
		<tag k="fixme" v="consider place=hamlet" />
		<tag k="name" v="Finneid" />
		<tag k="place" v="farm" />
		<tag k="ssr:stedsnr" v="1075646" />
	</node>
	<node id="-176094" lat="67.1719624214" lon="15.7903285472">
		<tag k="fixme" v="consider place=hamlet" />
		<tag k="name" v="Sjønstådalen" />
		<tag k="place" v="farm" />
		<tag k="ssr:stedsnr" v="1075157" />
	</node>
	<node id="-176093" lat="67.419211392" lon="15.3868639112">
		<tag k="name" v="Halshaugen" />
		<tag k="place" v="locality" />
		<tag k="ssr:stedsnr" v="1075130" />
	</node>
	<node id="-176092" lat="67.3836207639" lon="15.345585647">
		<tag k="name" v="Østerkløft" />
		<tag k="place" v="hamlet" />
		<tag k="ssr:stedsnr" v="1075122" />
	</node>
	<node id="-176091" lat="67.3003010249" lon="15.1851301449">
		<tag k="fixme" v="consider place=hamlet" />
		<tag k="name" v="Straumsnes" />
		<tag k="place" v="farm" />
		<tag k="ssr:stedsnr" v="1075117" />
	</node>
	<node id="-176090" lat="67.3002306689" lon="15.1631592542">
		<tag k="name" v="Lundskog" />
		<tag k="place" v="farm" />
		<tag k="ssr:stedsnr" v="1074539" />
	</node>
	<node id="-174040" lat="67.2048182885" lon="15.7151392145">
		<tag k="alt_name" v="Skjønstå" />
		<tag k="name" v="Sjønstå" />
		<tag k="place" v="farm" />
		<tag k="ssr:stedsnr" v="480194" />
	</node>
	<node id="-174036" lat="67.3659583321" lon="15.2961527781">
		<tag k="name" v="Moen" />
		<tag k="place" v="farm" />
		<tag k="ssr:stedsnr" v="328826" />
	</node>
	<node id="-174035" lat="67.2577166663" lon="15.1655611024">
		<tag k="name" v="Sjøvoll" />
		<tag k="place" v="farm" />
		<tag k="ssr:stedsnr" v="328711" />
	</node>
	<node id="-174020" lat="67.1857305598" lon="15.7208444394">
		<tag k="name" v="Kallmo" />
		<tag k="place" v="farm" />
		<tag k="ssr:stedsnr" v="466772" />
	</node>
	<node id="-174019" lat="67.2426377929" lon="15.5139299239">
		<tag k="loc_name:smj" v="Jiemgábmá" />
		<tag k="name" v="Hjemgam" />
		<tag k="name:no" v="Hjemgam" />
		<tag k="place" v="farm" />
		<tag k="ssr:stedsnr" v="465718" />
	</node>
	<node id="-174011" lat="67.261513885" lon="15.427102765">
		<tag k="fixme" v="consider place=suburb, village or hamlet" />
		<tag k="name" v="Brekke" />
		<tag k="place" v="quarter" />
		<tag k="ssr:stedsnr" v="268871" />
	</node>
	<node id="-173999" lat="67.3056638883" lon="15.218469434">
		<tag k="alt_name" v="Osphaugen" />
		<tag k="name" v="Asphaug" />
		<tag k="place" v="farm" />
		<tag k="ssr:stedsnr" v="259846" />
	</node>
	<node id="-173991" lat="67.2910916632" lon="15.4561250035">
		<tag k="name" v="Austerli" />
		<tag k="place" v="farm" />
		<tag k="ssr:stedsnr" v="258857" />
	</node>
	<node id="-173989" lat="67.2955416632" lon="15.1847805564">
		<tag k="name" v="Hammer" />
		<tag k="place" v="farm" />
		<tag k="ssr:stedsnr" v="453259" />
	</node>
	<node id="-176026" lat="67.2394958248" lon="15.4205770756">
		<tag k="name" v="Fauske camping og motell" />
		<tag k="ssr:stedsnr" v="989663" />
		<tag k="tourism" v="camp_site" />
	</node>
	<node id="-173974" lat="67.3686888912" lon="15.291802767">
		<tag k="name" v="Nygård" />
		<tag k="place" v="farm" />
		<tag k="ssr:stedsnr" v="449777" />
	</node>
	<node id="-176020" lat="67.2247469025" lon="15.3870234091">
		<tag k="fixme" v="consider place=hamlet" />
		<tag k="name" v="Inner-Leivset" />
		<tag k="place" v="farm" />
		<tag k="ssr:stedsnr" v="974805" />
	</node>
	<node id="-176019" lat="67.2228391047" lon="15.3706976194">
		<tag k="fixme" v="consider place=hamlet" />
		<tag k="name" v="Ytter-Leivset" />
		<tag k="place" v="farm" />
		<tag k="ssr:stedsnr" v="974804" />
	</node>
	<node id="-176018" lat="67.2737472265" lon="15.3431805461">
		<tag k="name" v="Inner-Klungset" />
		<tag k="place" v="farm" />
		<tag k="ssr:stedsnr" v="968937" />
	</node>
	<node id="-176011" lat="67.2605833369" lon="15.5459166694">
		<tag k="name" v="Lappgamman" />
		<tag k="place" v="locality" />
		<tag k="ssr:stedsnr" v="966535" />
	</node>
	<node id="-173959" lat="67.3434777757" lon="15.2298666558">
		<tag k="name" v="Veslegård" />
		<tag k="place" v="farm" />
		<tag k="ssr:stedsnr" v="449175" />
	</node>
	<node id="-173957" lat="67.26582222" lon="15.341236115">
		<tag k="name" v="Gåseskogan" />
		<tag k="place" v="farm" />
		<tag k="ssr:stedsnr" v="449257" />
	</node>
	<node id="-176003" lat="67.203663893" lon="15.732458331">
		<tag k="name" v="Ballstadheimen" />
		<tag k="place" v="locality" />
		<tag k="ssr:stedsnr" v="966227" />
	</node>
	<node id="-173952" lat="67.2750344427" lon="15.1202397514">
		<tag k="fixme" v="consider place=hamlet" />
		<tag k="name" v="Hestekker" />
		<tag k="place" v="farm" />
		<tag k="ssr:stedsnr" v="445685" />
	</node>
	<node id="-175999" lat="67.3174666715" lon="15.517861102">
		<tag k="name" v="Steinteigen" />
		<tag k="place" v="farm" />
		<tag k="ssr:stedsnr" v="966088" />
	</node>
	<node id="-173945" lat="67.231017781" lon="15.3953333591">
		<tag k="loc_name:smj" v="Levsæhtta" />
		<tag k="name" v="Leivset" />
		<tag k="name:no" v="Leivset" />
		<tag k="place" v="hamlet" />
		<tag k="ssr:stedsnr" v="441954" />
	</node>
	<node id="-175992" lat="67.1251027758" lon="16.0955722123">
		<tag k="name" v="Reinhagen" />
		<tag k="place" v="farm" />
		<tag k="ssr:stedsnr" v="956596" />
	</node>
	<node id="-173716" lat="67.3583777815" lon="15.2451027868">
		<tag k="name" v="Solvang" />
		<tag k="place" v="farm" />
		<tag k="ssr:stedsnr" v="258886" />
	</node>
	<node id="-175990" lat="67.2383536661" lon="15.6976196798">
		<tag k="loc_name:smj" v="Laksoavvo" />
		<tag k="name" v="Lakså" />
		<tag k="name:no" v="Lakså" />
		<tag k="place" v="hamlet" />
		<tag k="ssr:stedsnr" v="952717" />
	</node>
	<node id="-175989" lat="67.2374944448" lon="15.2528694411">
		<tag k="name" v="Øynes" />
		<tag k="place" v="farm" />
		<tag k="ssr:stedsnr" v="950922" />
	</node>
	<node id="-175987" lat="67.2230555578" lon="15.3898860999">
		<tag k="name" v="Inner-Leivset" />
		<tag k="place" v="farm" />
		<tag k="ssr:stedsnr" v="950764" />
	</node>
	<node id="-173929" lat="67.1408222199" lon="16.031916657">
		<tag k="name" v="Furulund" />
		<tag k="place" v="quarter" />
		<tag k="ssr:stedsnr" v="441208" />
	</node>
	<node id="-175976" lat="67.2642080441" lon="15.1484753346">
		<tag k="name" v="Einevoll" />
		<tag k="place" v="farm" />
		<tag k="ssr:stedsnr" v="874738" />
	</node>
	<node id="-175974" lat="67.2877805591" lon="15.1553722113">
		<tag k="name" v="Stokland" />
		<tag k="place" v="farm" />
		<tag k="ssr:stedsnr" v="874649" />
	</node>
	<node id="-173924" lat="67.2934388899" lon="15.4633666664">
		<tag k="name" v="Furutun" />
		<tag k="place" v="farm" />
		<tag k="ssr:stedsnr" v="440850" />
	</node>
	<node id="-173923" lat="67.2967176943" lon="15.4328893508">
		<tag k="fixme" v="consider place=hamlet" />
		<tag k="name" v="Medås" />
		<tag k="place" v="farm" />
		<tag k="ssr:stedsnr" v="440836" />
	</node>
	<node id="-175970" lat="67.3233666681" lon="15.3179944356">
		<tag k="name" v="Øverhytta" />
		<tag k="place" v="isolated_dwelling" />
		<tag k="ssr:stedsnr" v="874377" />
	</node>
	<node id="-173921" lat="67.3042666636" lon="15.4847583341">
		<tag k="name" v="Bjørbu" />
		<tag k="place" v="farm" />
		<tag k="ssr:stedsnr" v="440831" />
	</node>
	<node id="-175965" lat="67.2707750003" lon="15.3395888987">
		<tag k="name" v="Inner-Klungset" />
		<tag k="place" v="farm" />
		<tag k="ssr:stedsnr" v="874279" />
	</node>
	<node id="-175964" lat="67.3178666646" lon="15.2593861121">
		<tag k="name" v="Gammelgården" />
		<tag k="place" v="farm" />
		<tag k="ssr:stedsnr" v="874432" />
	</node>
	<node id="-173913" lat="67.2882138924" lon="15.1869999997">
		<tag k="name" v="Trøa" />
		<tag k="place" v="locality" />
		<tag k="ssr:stedsnr" v="298681" />
	</node>
	<node id="-173911" lat="67.2839472175" lon="15.1765250068">
		<tag k="name" v="Åsheim" />
		<tag k="place" v="isolated_dwelling" />
		<tag k="ssr:stedsnr" v="298677" />
	</node>
	<node id="-175958" lat="67.340033332" lon="15.2544111005">
		<tag k="name" v="Flatøy" />
		<tag k="place" v="farm" />
		<tag k="ssr:stedsnr" v="874146" />
	</node>
	<node id="-175954" lat="67.3010272482" lon="15.1944853152">
		<tag k="alt_name" v="Hagnes" />
		<tag k="fixme" v="consider place=hamlet" />
		<tag k="name" v="Hagenes" />
		<tag k="place" v="farm" />
		<tag k="ssr:stedsnr" v="870637" />
	</node>
	<node id="-175952" lat="67.2652666627" lon="15.1528527728">
		<tag k="name" v="Jodal" />
		<tag k="place" v="farm" />
		<tag k="ssr:stedsnr" v="870438" />
	</node>
	<node id="-175944" lat="67.2313833287" lon="15.3921500094">
		<tag k="alt_name" v="Vestgård" />
		<tag k="name" v="Westgård" />
		<tag k="place" v="farm" />
		<tag k="ssr:stedsnr" v="866931" />
	</node>
	<node id="-175943" lat="67.2480888859" lon="15.3444361063">
		<tag k="name" v="Lundeidet" />
		<tag k="place" v="farm" />
		<tag k="ssr:stedsnr" v="866930" />
	</node>
	<node id="-175940" lat="67.3522833348" lon="15.286591665">
		<tag k="name" v="Myrbakk" />
		<tag k="place" v="farm" />
		<tag k="ssr:stedsnr" v="866900" />
	</node>
	<node id="-175939" lat="67.3463083313" lon="15.4809777714">
		<tag k="name" v="Forsbakk" />
		<tag k="place" v="farm" />
		<tag k="ssr:stedsnr" v="866893" />
	</node>
	<node id="-175938" lat="67.3466666684" lon="15.4968916692">
		<tag k="name" v="Kvitblik" />
		<tag k="place" v="hamlet" />
		<tag k="ssr:stedsnr" v="866891" />
	</node>
	<node id="-175932" lat="67.2638888889" lon="15.2813360998">
		<tag k="name" v="Halsan" />
		<tag k="place" v="isolated_dwelling" />
		<tag k="ssr:stedsnr" v="866739" />
	</node>
	<node id="-175931" lat="67.2670777775" lon="15.2229861018">
		<tag k="name" v="Solbakk" />
		<tag k="place" v="farm" />
		<tag k="ssr:stedsnr" v="866735" />
	</node>
	<node id="-173880" lat="67.296213892" lon="15.433847227">
		<tag k="name" v="Heimvoll" />
		<tag k="place" v="farm" />
		<tag k="ssr:stedsnr" v="210820" />
	</node>
	<node id="-175924" lat="67.1873545159" lon="15.7178910404">
		<tag k="alt_name" v="Tveråmoen;Tverråmo" />
		<tag k="name" v="Tverråmoen" />
		<tag k="place" v="farm" />
		<tag k="ssr:stedsnr" v="865985" />
	</node>
	<node id="-175920" lat="67.3003927984" lon="15.4284996284">
		<tag k="alt_name" v="Åsbakk" />
		<tag k="fixme" v="consider place=hamlet" />
		<tag k="name" v="Åsbakken" />
		<tag k="place" v="farm" />
		<tag k="ssr:stedsnr" v="865840" />
	</node>
	<node id="-173868" lat="67.309468725" lon="15.4978442176">
		<tag k="alt_name" v="Korsåga gård" />
		<tag k="name" v="Korså" />
		<tag k="place" v="farm" />
		<tag k="ssr:stedsnr" v="198819" />
	</node>
	<node id="-175913" lat="67.0542972207" lon="16.3727777757">
		<tag k="fixme" v="consider tourism=alpine_hut or tourism=chalet" />
		<tag k="name" v="Muorkihytta" />
		<tag k="old_name" v="Muotkehytta" />
		<tag k="ssr:stedsnr" v="866146" />
		<tag k="tourism" v="wilderness_hut" />
	</node>
	<node id="-175912" lat="67.1996083312" lon="15.4541166705">
		<tag k="name" v="Kvenflogsetra" />
		<tag k="place" v="locality" />
		<tag k="ssr:stedsnr" v="849531" />
	</node>
	<node id="-175911" lat="67.3654638907" lon="15.25240555">
		<tag k="fixme" v="consider place=hamlet" />
		<tag k="name" v="Bringneslimo" />
		<tag k="place" v="farm" />
		<tag k="ssr:stedsnr" v="849466" />
	</node>
	<node id="-175910" lat="67.1297722209" lon="16.0915722096">
		<tag k="name" v="Lomi" />
		<tag k="place" v="quarter" />
		<tag k="ssr:stedsnr" v="845881" />
	</node>
	<node id="-173861" lat="67.2653055552" lon="15.295686115">
		<tag k="name" v="Raset" />
		<tag k="place" v="isolated_dwelling" />
		<tag k="ssr:stedsnr" v="198742" />
	</node>
	<node id="-173859" lat="67.2136250038" lon="15.4192805551">
		<tag k="name" v="Gylskjer" />
		<tag k="place" v="isolated_dwelling" />
		<tag k="ssr:stedsnr" v="286522" />
	</node>
	<node id="-175906" lat="67.2739194471" lon="15.0440722192">
		<tag k="name" v="Skar" />
		<tag k="place" v="isolated_dwelling" />
		<tag k="ssr:stedsnr" v="845760" />
	</node>
	<node id="-175899" lat="67.250466664" lon="15.3526500024">
		<tag k="name" v="Stranda" />
		<tag k="place" v="farm" />
		<tag k="ssr:stedsnr" v="845683" />
	</node>
	<node id="-175897" lat="67.2812222238" lon="15.3702027759">
		<tag k="name" v="Lundeng" />
		<tag k="place" v="farm" />
		<tag k="ssr:stedsnr" v="845673" />
	</node>
	<node id="-173847" lat="67.3845345905" lon="15.3118096987">
		<tag k="name" v="Gamhaugen" />
		<tag k="place" v="farm" />
		<tag k="ssr:stedsnr" v="177321" />
	</node>
	<node id="-173846" lat="67.318783337" lon="15.2638805535">
		<tag k="name" v="Hammerhøy" />
		<tag k="place" v="farm" />
		<tag k="ssr:stedsnr" v="284716" />
	</node>
	<node id="-173845" lat="67.2959868286" lon="15.1543753086">
		<tag k="fixme" v="consider place=hamlet" />
		<tag k="name" v="Førrnes" />
		<tag k="place" v="farm" />
		<tag k="ssr:stedsnr" v="161767" />
	</node>
	<node id="-175891" lat="67.2406749983" lon="15.6967527753">
		<tag k="name" v="Lakså" />
		<tag k="place" v="farm" />
		<tag k="ssr:stedsnr" v="845214" />
	</node>
	<node id="-173839" lat="67.3784555558" lon="15.2801083448">
		<tag k="name" v="Nordmo" />
		<tag k="place" v="isolated_dwelling" />
		<tag k="ssr:stedsnr" v="145910" />
	</node>
	<node id="-175886" lat="67.3221361093" lon="15.5246805541">
		<tag k="name" v="Bjørnkjerr" />
		<tag k="place" v="farm" />
		<tag k="ssr:stedsnr" v="845055" />
	</node>
	<node id="-175877" lat="67.3469000017" lon="15.2225583378">
		<tag k="name" v="Myra" />
		<tag k="place" v="farm" />
		<tag k="ssr:stedsnr" v="875880" />
	</node>
	<node id="-175875" lat="67.2847888934" lon="15.4155111075">
		<tag k="name" v="Engstad" />
		<tag k="place" v="farm" />
		<tag k="ssr:stedsnr" v="817849" />
	</node>
	<node id="-175871" lat="67.2474944484" lon="15.4677222208">
		<tag k="name" v="Melkran" />
		<tag k="place" v="isolated_dwelling" />
		<tag k="ssr:stedsnr" v="815919" />
	</node>
	<node id="-173821" lat="67.3210527779" lon="15.5074805657">
		<tag k="name" v="Solvoll" />
		<tag k="place" v="farm" />
		<tag k="ssr:stedsnr" v="137799" />
	</node>
	<node id="-175868" lat="67.3449052312" lon="15.5284054022">
		<tag k="fixme" v="consider place=hamlet" />
		<tag k="name" v="Rørvik" />
		<tag k="place" v="farm" />
		<tag k="ssr:stedsnr" v="815180" />
	</node>
	<node id="-175864" lat="67.3226198046" lon="15.0888543623">
		<tag k="fixme" v="consider place=hamlet" />
		<tag k="name" v="Kistrand" />
		<tag k="place" v="farm" />
		<tag k="ssr:stedsnr" v="814393" />
	</node>
	<node id="-173814" lat="67.2829611128" lon="15.4115416626">
		<tag k="name" v="Kjeldås" />
		<tag k="place" v="farm" />
		<tag k="ssr:stedsnr" v="137848" />
	</node>
	<node id="-173811" lat="67.3059111074" lon="15.4534333292">
		<tag k="name" v="Ny Jord" />
		<tag k="place" v="farm" />
		<tag k="ssr:stedsnr" v="137825" />
	</node>
	<node id="-173808" lat="67.3151083379" lon="15.4294138815">
		<tag k="name" v="Nymoen" />
		<tag k="place" v="farm" />
		<tag k="ssr:stedsnr" v="137808" />
	</node>
	<node id="-173806" lat="67.3104111084" lon="15.417511118">
		<tag k="name" v="Tråvollen" />
		<tag k="place" v="farm" />
		<tag k="ssr:stedsnr" v="137802" />
	</node>
	<node id="-175843" lat="67.2587805594" lon="15.3692000098">
		<tag k="name" v="Erikstad" />
		<tag k="place" v="suburb" />
		<tag k="ssr:stedsnr" v="813217" />
	</node>
	<node id="-173794" lat="67.2615277747" lon="15.1544611024">
		<tag k="name" v="Gammelgården" />
		<tag k="place" v="farm" />
		<tag k="ssr:stedsnr" v="267700" />
	</node>
	<node id="-175837" lat="67.3844888892" lon="15.3442138987">
		<tag k="name" v="Østerkløft" />
		<tag k="place" v="hamlet" />
		<tag k="ssr:stedsnr" v="809944" />
	</node>
	<node id="-175836" lat="67.3228972215" lon="15.0991555528">
		<tag k="name" v="Kistrand" />
		<tag k="place" v="neighbourhood" />
		<tag k="ssr:stedsnr" v="809743" />
	</node>
	<node id="-175834" lat="67.2781118275" lon="15.1227774073">
		<tag k="fixme" v="consider place=hamlet" />
		<tag k="name" v="Vollan" />
		<tag k="place" v="farm" />
		<tag k="ssr:stedsnr" v="809685" />
	</node>
	<node id="-175831" lat="67.2573555597" lon="15.1620972175">
		<tag k="name" v="Vensetbergan" />
		<tag k="place" v="farm" />
		<tag k="ssr:stedsnr" v="809455" />
	</node>
	<node id="-175830" lat="67.2632087188" lon="15.1510030384">
		<tag k="fixme" v="consider place=hamlet" />
		<tag k="name" v="Hundholmen" />
		<tag k="place" v="farm" />
		<tag k="ssr:stedsnr" v="809454" />
	</node>
	<node id="-175825" lat="67.2374462364" lon="15.6990907258">
		<tag k="fixme" v="consider place=hamlet" />
		<tag k="loc_name:smj" v="Laksoavvo" />
		<tag k="name" v="Lakså" />
		<tag k="name:no" v="Lakså" />
		<tag k="place" v="farm" />
		<tag k="ssr:stedsnr" v="805930" />
	</node>
	<node id="-175824" lat="67.3297277762" lon="15.2746722244">
		<tag k="name" v="Skogsvoll" />
		<tag k="place" v="farm" />
		<tag k="ssr:stedsnr" v="805923" />
	</node>
	<node id="-175823" lat="67.344505553" lon="15.2766111183">
		<tag k="name" v="Nordeng" />
		<tag k="place" v="farm" />
		<tag k="ssr:stedsnr" v="805916" />
	</node>
	<node id="-175822" lat="67.3301105411" lon="15.2694978828">
		<tag k="fixme" v="consider place=hamlet" />
		<tag k="name" v="Nystad" />
		<tag k="place" v="farm" />
		<tag k="ssr:stedsnr" v="805913" />
	</node>
	<node id="-175820" lat="67.3514141037" lon="15.2492259213">
		<tag k="alt_name" v="Bringslimoen" />
		<tag k="fixme" v="consider place=hamlet" />
		<tag k="name" v="Bringslimo" />
		<tag k="place" v="farm" />
		<tag k="ssr:stedsnr" v="805895" />
	</node>
	<node id="-175819" lat="67.352136107" lon="15.4960833269">
		<tag k="name" v="Nordeng" />
		<tag k="place" v="farm" />
		<tag k="ssr:stedsnr" v="805889" />
	</node>
	<node id="-173768" lat="67.3056694414" lon="15.1840388961">
		<tag k="name" v="Gavlen" />
		<tag k="place" v="farm" />
		<tag k="ssr:stedsnr" v="267133" />
	</node>
	<node id="-175815" lat="67.2594500041" lon="15.3933277852">
		<tag k="name" v="Fauske - Fuossko" />
		<tag k="name:no" v="Fauske" />
		<tag k="name:smj" v="Fuossko" />
		<tag k="place" v="town" />
		<tag k="ssr:stedsnr" v="805748" />
	</node>
	<node id="-173763" lat="67.3237667977" lon="15.1741884455">
		<tag k="alt_name" v="Nordvika" />
		<tag k="fixme" v="consider place=hamlet" />
		<tag k="name" v="Nordvik" />
		<tag k="place" v="farm" />
		<tag k="ssr:stedsnr" v="263740" />
	</node>
	<node id="-173761" lat="67.2972194463" lon="15.1537749951">
		<tag k="alt_name" v="Forrnes" />
		<tag k="fixme" v="consider place=suburb, village or hamlet" />
		<tag k="name" v="Furnes" />
		<tag k="place" v="quarter" />
		<tag k="ssr:stedsnr" v="263697" />
	</node>
	<node id="-175801" lat="67.2418527738" lon="15.3367249913">
		<tag k="name" v="Lund vestre" />
		<tag k="place" v="farm" />
		<tag k="ssr:stedsnr" v="786906" />
	</node>
	<node id="-175794" lat="67.288194443" lon="15.1587444525">
		<tag k="alt_name" v="Heimegarden" />
		<tag k="name" v="Stokland" />
		<tag k="place" v="farm" />
		<tag k="ssr:stedsnr" v="784266" />
	</node>
	<node id="-173743" lat="67.3914944457" lon="15.3613055584">
		<tag k="leisure" v="pitch" />
		<tag k="name" v="Valnesfjord helsesportsenter" />
		<tag k="old_name" v="Helsesportsenter" />
		<tag k="ssr:stedsnr" v="259951" />
	</node>
	<node id="-173742" lat="67.3323944423" lon="15.2774250068">
		<tag k="name" v="Storåkeren" />
		<tag k="place" v="farm" />
		<tag k="ssr:stedsnr" v="259930" />
	</node>
	<node id="-173740" lat="67.3220388923" lon="15.2552527811">
		<tag k="name" v="Bølsnes" />
		<tag k="place" v="farm" />
		<tag k="ssr:stedsnr" v="259926" />
	</node>
	<node id="-173738" lat="67.2410055582" lon="15.4289083277">
		<tag k="alt_name" v="Vaskardmoen" />
		<tag k="name" v="Vaskarmoen" />
		<tag k="place" v="farm" />
		<tag k="ssr:stedsnr" v="259922" />
	</node>
	<node id="-173732" lat="67.3444722262" lon="15.4852249899">
		<tag k="name" v="Tofte" />
		<tag k="place" v="isolated_dwelling" />
		<tag k="ssr:stedsnr" v="259895" />
	</node>
	<node id="-173731" lat="67.2846010708" lon="15.4114506726">
		<tag k="fixme" v="consider place=hamlet" />
		<tag k="name" v="Åseng" />
		<tag k="place" v="farm" />
		<tag k="ssr:stedsnr" v="259870" />
	</node>
	<node id="-173726" lat="67.2697055571" lon="15.4241333343">
		<tag k="name" v="Skjåheia" />
		<tag k="place" v="quarter" />
		<tag k="ssr:stedsnr" v="259754" />
	</node>
	<node id="-175769" lat="67.32382222" lon="15.5274833403">
		<tag k="name" v="Hestmoen" />
		<tag k="place" v="farm" />
		<tag k="ssr:stedsnr" v="783034" />
	</node>
	<node id="-175768" lat="67.2228388903" lon="15.3755083411">
		<tag k="name" v="Ytter-Leivset" />
		<tag k="place" v="farm" />
		<tag k="ssr:stedsnr" v="768817" />
	</node>
	<node id="-173719" lat="67.2972944451" lon="15.4288916665">
		<tag k="alt_name" v="Unnlendbakk" />
		<tag k="name" v="Unnlendbakken" />
		<tag k="place" v="farm" />
		<tag k="ssr:stedsnr" v="258847" />
	</node>
	<node id="-173718" lat="67.2901222202" lon="15.4267972281">
		<tag k="fixme" v="consider place=hamlet" />
		<tag k="name" v="Hjemås" />
		<tag k="place" v="village" />
		<tag k="ssr:stedsnr" v="258845" />
	</node>
	<node id="-173717" lat="67.2989583312" lon="15.4687222303">
		<tag k="name" v="Lindstad" />
		<tag k="place" v="farm" />
		<tag k="ssr:stedsnr" v="258840" />
	</node>
	<node id="-175764" lat="67.3531305584" lon="15.5073805615">
		<tag k="name" v="Høghaugen" />
		<tag k="place" v="farm" />
		<tag k="ssr:stedsnr" v="756845" />
	</node>
	<node id="-175763" lat="67.2260277749" lon="15.3894388764">
		<tag k="name" v="Nylend" />
		<tag k="place" v="isolated_dwelling" />
		<tag k="ssr:stedsnr" v="756810" />
	</node>
	<node id="-175762" lat="67.2261749968" lon="15.3860944371">
		<tag k="name" v="Haugen" />
		<tag k="place" v="isolated_dwelling" />
		<tag k="ssr:stedsnr" v="756809" />
	</node>
	<node id="-175754" lat="67.3868555582" lon="15.3972888826">
		<tag k="name" v="Hanshytta" />
		<tag k="place" v="isolated_dwelling" />
		<tag k="ssr:stedsnr" v="753567" />
	</node>
	<node id="-175745" lat="67.2589248347" lon="15.1745797485">
		<tag k="fixme" v="consider place=hamlet" />
		<tag k="name" v="Venset" />
		<tag k="place" v="farm" />
		<tag k="ssr:stedsnr" v="752777" />
	</node>
	<node id="-175739" lat="67.286933338" lon="15.1407444412">
		<tag k="name" v="Brårud" />
		<tag k="place" v="farm" />
		<tag k="ssr:stedsnr" v="752623" />
	</node>
	<node id="-173690" lat="67.2526313224" lon="15.7364798206">
		<tag k="loc_name" v="Norddalen" />
		<tag k="name" v="Norddal" />
		<tag k="place" v="farm" />
		<tag k="ssr:stedsnr" v="77336" />
	</node>
	<node id="-173689" lat="67.2355444416" lon="15.3162805546">
		<tag k="name" v="Knurvik" />
		<tag k="place" v="farm" />
		<tag k="ssr:stedsnr" v="242451" />
	</node>
	<node id="-173688" lat="67.2726361114" lon="15.2385805601">
		<tag k="fixme" v="consider place=hamlet" />
		<tag k="name" v="Røvika - Rudda" />
		<tag k="name:no" v="Røvika" />
		<tag k="name:smj" v="Rudda" />
		<tag k="place" v="farm" />
		<tag k="ssr:stedsnr" v="239818" />
	</node>
	<node id="-173683" lat="67.272455559" lon="15.0449499948">
		<tag k="name" v="Ytterteigen" />
		<tag k="place" v="isolated_dwelling" />
		<tag k="ssr:stedsnr" v="238726" />
	</node>
	<node id="-173680" lat="67.2874083347" lon="15.1760388826">
		<tag k="name" v="Brattland" />
		<tag k="place" v="farm" />
		<tag k="ssr:stedsnr" v="238710" />
	</node>
	<node id="-173671" lat="67.3949500007" lon="15.3802166631">
		<tag k="name" v="Reingjerde" />
		<tag k="place" v="locality" />
		<tag k="ssr:stedsnr" v="238340" />
	</node>
	<node id="-175708" lat="67.2470437989" lon="15.5105024918">
		<tag k="fixme" v="consider place=hamlet" />
		<tag k="name" v="Os" />
		<tag k="place" v="farm" />
		<tag k="ssr:stedsnr" v="744922" />
	</node>
	<node id="-175707" lat="67.2404444466" lon="15.4166222225">
		<tag k="name" v="Skysselvik" />
		<tag k="place" v="farm" />
		<tag k="ssr:stedsnr" v="744919" />
	</node>
	<node id="-175706" lat="67.2457833361" lon="15.4620333398">
		<tag k="name" v="Vatnvika" />
		<tag k="place" v="farm" />
		<tag k="ssr:stedsnr" v="744918" />
	</node>
	<node id="-175705" lat="67.3466555581" lon="15.2675166708">
		<tag k="alt_name" v="Kosmo" />
		<tag k="name" v="Kosmoen" />
		<tag k="place" v="farm" />
		<tag k="ssr:stedsnr" v="744898" />
	</node>
	<node id="-175698" lat="67.3836600944" lon="15.3090801692">
		<tag k="alt_name" v="Jordbru" />
		<tag k="fixme" v="consider place=hamlet" />
		<tag k="name" v="Jordbrua" />
		<tag k="place" v="farm" />
		<tag k="ssr:stedsnr" v="744983" />
	</node>
	<node id="-175697" lat="67.3853500016" lon="15.3495361072">
		<tag k="name" v="Salbakk" />
		<tag k="place" v="isolated_dwelling" />
		<tag k="ssr:stedsnr" v="744978" />
	</node>
	<node id="-175696" lat="67.2646805559" lon="15.370133323">
		<tag k="name" v="Vestmyra" />
		<tag k="place" v="isolated_dwelling" />
		<tag k="ssr:stedsnr" v="744736" />
	</node>
	<node id="-175695" lat="67.1708500013" lon="15.8930583418">
		<tag k="name" v="Hellarmo" />
		<tag k="place" v="isolated_dwelling" />
		<tag k="ssr:stedsnr" v="744189" />
	</node>
	<node id="-173643" lat="67.1399805547" lon="16.1365027842">
		<tag k="alt_name" v="Ny-Sulitjelma" />
		<tag k="fixme" v="consider tourism=alpine_hut or tourism=chalet" />
		<tag k="name" v="Ny-Sulitjelma fjellstue" />
		<tag k="ssr:stedsnr" v="55209" />
		<tag k="tourism" v="wilderness_hut" />
	</node>
	<node id="-175685" lat="67.3459527737" lon="15.2651111052">
		<tag k="name" v="Kosmo" />
		<tag k="place" v="farm" />
		<tag k="ssr:stedsnr" v="646888" />
	</node>
	<node id="-175679" lat="67.3035499998" lon="15.244916668">
		<tag k="historic" v="shieling" />
		<tag k="name" v="Rabbseteren" />
		<tag k="place" v="locality" />
		<tag k="ssr:stedsnr" v="632333" />
	</node>
	<node id="-175678" lat="67.3732305551" lon="15.3076388948">
		<tag k="name" v="Forsbakk" />
		<tag k="place" v="farm" />
		<tag k="ssr:stedsnr" v="631837" />
	</node>
	<node id="-173629" lat="67.2881249956" lon="15.4202277851">
		<tag k="name" v="Birkelund" />
		<tag k="place" v="farm" />
		<tag k="ssr:stedsnr" v="28857" />
	</node>
	<node id="-175675" lat="67.2560472265" lon="15.170499998">
		<tag k="name" v="Molandsplassen" />
		<tag k="place" v="farm" />
		<tag k="ssr:stedsnr" v="631720" />
	</node>
	<node id="-173624" lat="67.3232444472" lon="15.0922138972">
		<tag k="name" v="Utheim" />
		<tag k="place" v="isolated_dwelling" />
		<tag k="ssr:stedsnr" v="25321" />
	</node>
	<node id="-175667" lat="67.3785555575" lon="15.2839444459">
		<tag k="name" v="Korsberget" />
		<tag k="place" v="isolated_dwelling" />
		<tag k="ssr:stedsnr" v="630897" />
	</node>
	<node id="-173617" lat="67.3746416659" lon="15.2726777874">
		<tag k="name" v="Selbu" />
		<tag k="place" v="isolated_dwelling" />
		<tag k="ssr:stedsnr" v="24907" />
	</node>
	<node id="-173612" lat="67.3500555535" lon="15.2459777879">
		<tag k="name" v="Nymo" />
		<tag k="place" v="farm" />
		<tag k="ssr:stedsnr" v="24118" />
	</node>
	<node id="-175653" lat="67.3280527752" lon="15.1833805513">
		<tag k="name" v="Nordgård" />
		<tag k="place" v="farm" />
		<tag k="ssr:stedsnr" v="626760" />
	</node>
	<node id="-173602" lat="67.3177428214" lon="15.2656989391">
		<tag k="fixme" v="consider place=hamlet" />
		<tag k="name" v="Djuposen" />
		<tag k="place" v="farm" />
		<tag k="ssr:stedsnr" v="16916" />
	</node>
	<node id="-175646" lat="67.2291524314" lon="15.6105150085">
		<tag k="alt_name" v="Stigfjellet" />
		<tag k="fixme" v="consider place=hamlet" />
		<tag k="loc_name" v="Stifjell" />
		<tag k="name" v="Stifjellet" />
		<tag k="place" v="farm" />
		<tag k="ssr:stedsnr" v="623946" />
	</node>
	<node id="-175645" lat="67.3049166684" lon="15.2330694439">
		<tag k="name" v="Hagen" />
		<tag k="place" v="farm" />
		<tag k="ssr:stedsnr" v="623857" />
	</node>
	<node id="-173593" lat="67.2417722257" lon="15.5132666723">
		<tag k="fixme" v="consider place=hamlet" />
		<tag k="loc_name:no" v="Gjemgam" />
		<tag k="name" v="Hjemgam - Jiemgábmá" />
		<tag k="name:no" v="Hjemgam" />
		<tag k="name:se" v="Jiemgábmá" />
		<tag k="place" v="farm" />
		<tag k="ssr:stedsnr" v="222701" />
	</node>
	<node id="-175638" lat="67.1540583303" lon="15.9745138765">
		<tag k="name" v="Furuhaugen" />
		<tag k="place" v="isolated_dwelling" />
		<tag k="ssr:stedsnr" v="623231" />
	</node>
	<node id="-173657" lat="67.322702775" lon="15.5126055506">
		<tag k="name" v="Slettli" />
		<tag k="place" v="farm" />
		<tag k="ssr:stedsnr" v="238039" />
	</node>
	<node id="-175636" lat="67.4035120476" lon="15.4011874122">
		<tag k="alt_name" v="Fridal" />
		<tag k="fixme" v="consider place=hamlet" />
		<tag k="name" v="Fridalen" />
		<tag k="place" v="farm" />
		<tag k="ssr:stedsnr" v="622967" />
	</node>
	<node id="-175633" lat="67.3434416302" lon="15.2545127026">
		<tag k="alt_name" v="Laksåbakk" />
		<tag k="fixme" v="consider place=hamlet" />
		<tag k="name" v="Laksåbakkan" />
		<tag k="place" v="farm" />
		<tag k="ssr:stedsnr" v="622926" />
	</node>
	<node id="-175632" lat="67.3421111152" lon="15.4726555455">
		<tag k="name" v="Ytterenget" />
		<tag k="place" v="farm" />
		<tag k="ssr:stedsnr" v="622910" />
	</node>
	<node id="-175631" lat="67.3507416646" lon="15.2707027872">
		<tag k="name" v="Engerud" />
		<tag k="place" v="farm" />
		<tag k="ssr:stedsnr" v="622907" />
	</node>
	<node id="-175630" lat="67.3511861106" lon="15.5392277799">
		<tag k="alt_name" v="Seljåsen, øvre" />
		<tag k="name" v="Øvre Seljåsen" />
		<tag k="place" v="farm" />
		<tag k="ssr:stedsnr" v="622899" />
	</node>
	<node id="-175629" lat="67.3441999997" lon="15.4760749973">
		<tag k="name" v="Moan" />
		<tag k="place" v="farm" />
		<tag k="ssr:stedsnr" v="622893" />
	</node>
	<node id="-175622" lat="67.2658500039" lon="15.2997972317">
		<tag k="alt_name:no" v="Klungset, yt" />
		<tag k="loc_name:smj" v="Davve-Loaŋŋga" />
		<tag k="name" v="Klungset ytre" />
		<tag k="name:no" v="Klungset ytre" />
		<tag k="place" v="hamlet" />
		<tag k="ssr:stedsnr" v="622747" />
	</node>
	<node id="-175617" lat="67.2375138868" lon="15.2579166732">
		<tag k="fixme" v="consider place=hamlet" />
		<tag k="loc_name:smj" v="Njárggagiehtje" />
		<tag k="name" v="Øynes" />
		<tag k="name:no" v="Øynes" />
		<tag k="place" v="farm" />
		<tag k="ssr:stedsnr" v="604936" />
	</node>
	<node id="-175613" lat="67.3210111145" lon="15.5231444341">
		<tag k="name" v="Bonjord" />
		<tag k="place" v="farm" />
		<tag k="ssr:stedsnr" v="602045" />
	</node>
	<node id="-175612" lat="67.3196444478" lon="15.5213249961">
		<tag k="name" v="Nygård" />
		<tag k="place" v="farm" />
		<tag k="ssr:stedsnr" v="602043" />
	</node>
	<node id="-175570" lat="67.369386108" lon="15.2962499995">
		<tag k="name" v="Rydningen" />
		<tag k="place" v="farm" />
		<tag k="ssr:stedsnr" v="570793" />
	</node>
	<node id="-175568" lat="67.3856583305" lon="15.3602444512">
		<tag k="alt_name" v="Nordbakk" />
		<tag k="name" v="Nordbakken" />
		<tag k="place" v="farm" />
		<tag k="ssr:stedsnr" v="570751" />
	</node>
	<node id="-175566" lat="67.3717555522" lon="15.2657000027">
		<tag k="name" v="Solstad" />
		<tag k="place" v="farm" />
		<tag k="ssr:stedsnr" v="570877" />
	</node>
	<node id="-175564" lat="67.2935277812" lon="15.1726000026">
		<tag k="name" v="Kvitberget" />
		<tag k="place" v="farm" />
		<tag k="ssr:stedsnr" v="570625" />
	</node>
	<node id="-175557" lat="67.2678222199" lon="15.3263361125">
		<tag k="name" v="Engellia" />
		<tag k="place" v="isolated_dwelling" />
		<tag k="ssr:stedsnr" v="570228" />
	</node>
	<node id="-175553" lat="67.3006916643" lon="15.1925888912">
		<tag k="name" v="Tretteng" />
		<tag k="place" v="farm" />
		<tag k="ssr:stedsnr" v="570163" />
	</node>
	<node id="-175538" lat="67.2981472233" lon="15.1664166772">
		<tag k="fixme" v="consider place=hamlet" />
		<tag k="name" v="Valnesfjord" />
		<tag k="place" v="village" />
		<tag k="ssr:stedsnr" v="566687" />
	</node>
	<node id="-175537" lat="67.28549841" lon="15.1338037088">
		<tag k="fixme" v="consider place=hamlet" />
		<tag k="name" v="Stemland" />
		<tag k="place" v="farm" />
		<tag k="ssr:stedsnr" v="566670" />
	</node>
	<node id="-175527" lat="67.2520357197" lon="15.3533421958">
		<tag k="fixme" v="consider place=hamlet" />
		<tag k="loc_name:smj" v="Ærstáde" />
		<tag k="name" v="Erikstad" />
		<tag k="name:no" v="Erikstad" />
		<tag k="place" v="farm" />
		<tag k="ssr:stedsnr" v="562761" />
	</node>
	<node id="-175522" lat="67.0952749995" lon="16.0060583327">
		<tag k="name" v="Jakobsbakken" />
		<tag k="place" v="neighbourhood" />
		<tag k="ssr:stedsnr" v="562184" />
	</node>
	<node id="-175520" lat="67.336408336" lon="15.5573388884">
		<tag k="name" v="Storli" />
		<tag k="place" v="farm" />
		<tag k="ssr:stedsnr" v="562899" />
	</node>
	<node id="-175519" lat="67.3393222262" lon="15.4670472299">
		<tag k="name" v="Yttergården" />
		<tag k="place" v="farm" />
		<tag k="ssr:stedsnr" v="562897" />
	</node>
	<node id="-175511" lat="67.3611277788" lon="15.2481027786">
		<tag k="name" v="Nordli" />
		<tag k="place" v="farm" />
		<tag k="ssr:stedsnr" v="561875" />
	</node>
	<node id="-175510" lat="67.2976111097" lon="15.3958111156">
		<tag k="name" v="Rugås" />
		<tag k="place" v="farm" />
		<tag k="ssr:stedsnr" v="561847" />
	</node>
	<node id="-175509" lat="67.3065735032" lon="15.4139436027">
		<tag k="fixme" v="consider place=hamlet" />
		<tag k="name" v="Tverrå" />
		<tag k="place" v="farm" />
		<tag k="ssr:stedsnr" v="561841" />
	</node>
	<node id="-175508" lat="67.3030861099" lon="15.4056305486">
		<tag k="name" v="Valders" />
		<tag k="place" v="farm" />
		<tag k="ssr:stedsnr" v="561831" />
	</node>
	<node id="-175507" lat="67.271097223" lon="15.2578611083">
		<tag k="name" v="Frydensjø" />
		<tag k="place" v="farm" />
		<tag k="ssr:stedsnr" v="561751" />
	</node>
	<node id="-175505" lat="67.1358972224" lon="16.0529638879">
		<tag k="name" v="Charlotta" />
		<tag k="place" v="quarter" />
		<tag k="ssr:stedsnr" v="561229" />
	</node>
	<node id="-175499" lat="67.2711638881" lon="15.3348861012">
		<tag k="name" v="Inner-Klungset" />
		<tag k="place" v="farm" />
		<tag k="ssr:stedsnr" v="544939" />
	</node>
	<node id="-175498" lat="67.128099999" lon="16.0941166707">
		<tag k="name" v="Loami" />
		<tag k="place" v="isolated_dwelling" />
		<tag k="ssr:stedsnr" v="541881" />
	</node>
	<node id="-173631" lat="67.3030888905" lon="15.4887055658">
		<tag k="name" v="Sør-Holtan" />
		<tag k="place" v="farm" />
		<tag k="ssr:stedsnr" v="237091" />
	</node>
	<node id="-173972" lat="67.2771583364" lon="15.1092333443">
		<tag k="name" v="Slettnes" />
		<tag k="place" v="farm" />
		<tag k="ssr:stedsnr" v="449696" />
	</node>
	<node id="-175478" lat="67.3782638902" lon="15.3188444417">
		<tag k="name" v="Trudvang" />
		<tag k="place" v="isolated_dwelling" />
		<tag k="ssr:stedsnr" v="541267" />
	</node>
	<node id="-175471" lat="67.3234111075" lon="15.5189888928">
		<tag k="name" v="Soldal" />
		<tag k="place" v="farm" />
		<tag k="ssr:stedsnr" v="541040" />
	</node>
	<node id="-175465" lat="67.2261363328" lon="15.6960816989">
		<tag k="name" v="Nakken" />
		<tag k="old_name" v="Eldhusmark" />
		<tag k="place" v="locality" />
		<tag k="ssr:stedsnr" v="541216" />
	</node>
	<node id="-175462" lat="67.2057305526" lon="15.6285916688">
		<tag k="name" v="Storvik" />
		<tag k="place" v="farm" />
		<tag k="ssr:stedsnr" v="527948" />
	</node>
	<node id="-175461" lat="67.3488972187" lon="15.4806361138">
		<tag k="fixme" v="consider place=hamlet" />
		<tag k="name" v="Kvitblik" />
		<tag k="place" v="farm" />
		<tag k="ssr:stedsnr" v="527688" />
	</node>
	<node id="-175460" lat="67.1876573261" lon="15.7139483986">
		<tag k="alt_name" v="Tveråmoen" />
		<tag k="name" v="Tverråmoen" />
		<tag k="place" v="farm" />
		<tag k="ssr:stedsnr" v="527671" />
	</node>
	<node id="-175459" lat="67.2492833296" lon="15.7182277768">
		<tag k="alt_name" v="Lakså nordre" />
		<tag k="fixme" v="consider place=hamlet" />
		<tag k="loc_name" v="Nord-Lakså" />
		<tag k="name" v="Nordre Lakså" />
		<tag k="place" v="farm" />
		<tag k="ssr:stedsnr" v="525918" />
	</node>
	<node id="-175457" lat="67.0846444447" lon="15.9966333361">
		<tag k="name" v="Annabrakka" />
		<tag k="place" v="locality" />
		<tag k="ssr:stedsnr" v="420789" />
	</node>
	<node id="-175450" lat="67.2135138933" lon="15.5377916624">
		<tag k="name" v="Pålheimen" />
		<tag k="place" v="locality" />
		<tag k="ssr:stedsnr" v="420477" />
	</node>
	<node id="-175448" lat="67.216027777" lon="15.4030777661">
		<tag k="name" v="Sanneset" />
		<tag k="place" v="isolated_dwelling" />
		<tag k="ssr:stedsnr" v="420422" />
	</node>
	<node id="-175439" lat="67.2240694426" lon="15.4150416701">
		<tag k="amenity" v="cafe" />
		<tag k="name" v="Tuva leirsted" />
		<tag k="ssr:stedsnr" v="420354" />
	</node>
	<node id="-175423" lat="67.2230083328" lon="15.3898333443">
		<tag k="name" v="Nerigarden" />
		<tag k="place" v="farm" />
		<tag k="ssr:stedsnr" v="392880" />
	</node>
	<node id="-175419" lat="67.3211388865" lon="15.1738916732">
		<tag k="alt_name" v="Stauran" />
		<tag k="name" v="Nordvik" />
		<tag k="place" v="farm" />
		<tag k="ssr:stedsnr" v="389593" />
	</node>
	<node id="-175403" lat="67.3415972183" lon="15.2744000012">
		<tag k="name" v="Skoglund" />
		<tag k="place" v="farm" />
		<tag k="ssr:stedsnr" v="388101" />
	</node>
	<node id="-175392" lat="67.3033962679" lon="15.2147961486">
		<tag k="fixme" v="consider place=hamlet" />
		<tag k="loc_name" v="Hellskog" />
		<tag k="name" v="Helskog" />
		<tag k="place" v="farm" />
		<tag k="ssr:stedsnr" v="384636" />
	</node>
	<node id="-175387" lat="67.3764963241" lon="15.272636295">
		<tag k="alt_name" v="Bringslimark" />
		<tag k="fixme" v="consider place=hamlet" />
		<tag k="name" v="Bringslimarka" />
		<tag k="place" v="farm" />
		<tag k="ssr:stedsnr" v="380995" />
	</node>
	<node id="-175383" lat="67.2070583329" lon="15.5238388862">
		<tag k="name" v="Solvikmarka" />
		<tag k="place" v="isolated_dwelling" />
		<tag k="ssr:stedsnr" v="380953" />
	</node>
	<node id="-175379" lat="67.2209265638" lon="15.5872235121">
		<tag k="alt_name" v="Soløyvik" />
		<tag k="fixme" v="consider place=hamlet" />
		<tag k="name" v="Solvik" />
		<tag k="place" v="farm" />
		<tag k="ssr:stedsnr" v="380941" />
	</node>
	<node id="-175363" lat="67.1802842624" lon="15.7235452985">
		<tag k="alt_name" v="Stormo" />
		<tag k="fixme" v="consider place=hamlet" />
		<tag k="name" v="Stormoen" />
		<tag k="place" v="farm" />
		<tag k="ssr:stedsnr" v="380237" />
	</node>
	<node id="-175360" lat="67.1587555519" lon="15.9734638854">
		<tag k="name" v="Grønli" />
		<tag k="place" v="isolated_dwelling" />
		<tag k="ssr:stedsnr" v="380216" />
	</node>
	<node id="-175356" lat="67.2069666698" lon="16.2557305565">
		<tag k="fixme" v="consider tourism=alpine_hut or tourism=chalet" />
		<tag k="name" v="Sorjushytta" />
		<tag k="old_name" v="Sorjoshytta" />
		<tag k="ssr:stedsnr" v="380176" />
		<tag k="tourism" v="wilderness_hut" />
	</node>
	<node id="-175343" lat="67.288194443" lon="15.1587444525">
		<tag k="loc_name" v="Frivollen" />
		<tag k="name" v="Stokland" />
		<tag k="place" v="farm" />
		<tag k="ssr:stedsnr" v="359265" />
	</node>
	<node id="-175339" lat="67.2111972209" lon="15.5335749926">
		<tag k="name" v="Pålheimen" />
		<tag k="place" v="isolated_dwelling" />
		<tag k="ssr:stedsnr" v="359340" />
	</node>
	<node id="-175337" lat="67.1703249981" lon="15.7919861137">
		<tag k="name" v="Fjellmo" />
		<tag k="place" v="isolated_dwelling" />
		<tag k="ssr:stedsnr" v="359249" />
	</node>
	<node id="-175333" lat="67.3337611156" lon="15.2759277691">
		<tag k="name" v="Skjåvoll" />
		<tag k="place" v="farm" />
		<tag k="ssr:stedsnr" v="359118" />
	</node>
	<node id="-175332" lat="67.3236472227" lon="15.5235027713">
		<tag k="name" v="Gammelgården" />
		<tag k="place" v="farm" />
		<tag k="ssr:stedsnr" v="359039" />
	</node>
	<node id="-175328" lat="67.2510611123" lon="15.3551388893">
		<tag k="name" v="Erikstad" />
		<tag k="place" v="farm" />
		<tag k="ssr:stedsnr" v="345942" />
	</node>
	<node id="-175327" lat="67.2413416682" lon="15.5073500099">
		<tag k="name" v="Moen" />
		<tag k="place" v="farm" />
		<tag k="ssr:stedsnr" v="343946" />
	</node>
	<node id="-175326" lat="67.2968777803" lon="15.1868583401">
		<tag k="fixme" v="consider place=hamlet" />
		<tag k="name" v="Løkås" />
		<tag k="place" v="farm" />
		<tag k="ssr:stedsnr" v="343818" />
	</node>
	<node id="-173944" lat="67.2398389101" lon="15.4992116687">
		<tag k="fixme" v="consider place=hamlet" />
		<tag k="name" v="Moen" />
		<tag k="place" v="farm" />
		<tag k="ssr:stedsnr" v="441940" />
	</node>
	<node id="-175310" lat="67.3249111084" lon="15.1767083284">
		<tag k="barrier" v="fence" />
		<tag k="name" v="Gjerdet" />
		<tag k="ssr:stedsnr" v="329547" />
	</node>
	<node id="-175308" lat="67.2837777743" lon="15.1278861144">
		<tag k="name" v="Jensvoll" />
		<tag k="place" v="farm" />
		<tag k="ssr:stedsnr" v="328632" />
	</node>
	<node id="-175307" lat="67.27758333" lon="15.1472000014">
		<tag k="name" v="Medberget" />
		<tag k="place" v="farm" />
		<tag k="ssr:stedsnr" v="328619" />
	</node>
	<node id="-175286" lat="67.2642833296" lon="15.3545722218">
		<tag k="name" v="Skogholt" />
		<tag k="place" v="farm" />
		<tag k="ssr:stedsnr" v="327244" />
	</node>
	<node id="-175281" lat="67.385683334" lon="15.3482361044">
		<tag k="name" v="Østerkløft" />
		<tag k="place" v="farm" />
		<tag k="ssr:stedsnr" v="320979" />
	</node>
	<node id="-175278" lat="67.3246277748" lon="15.2721749912">
		<tag k="name" v="Storskogen" />
		<tag k="place" v="farm" />
		<tag k="ssr:stedsnr" v="320931" />
	</node>
	<node id="-175274" lat="67.1763235694" lon="15.8257577264">
		<tag k="name" v="Bjørnmyr" />
		<tag k="place" v="farm" />
		<tag k="ssr:stedsnr" v="320262" />
	</node>
	<node id="-175266" lat="67.3335805512" lon="15.5557222245">
		<tag k="name" v="Stormoen" />
		<tag k="place" v="farm" />
		<tag k="ssr:stedsnr" v="319937" />
	</node>
	<node id="-175265" lat="67.3394833336" lon="15.2310750006">
		<tag k="name" v="Vangen" />
		<tag k="place" v="farm" />
		<tag k="ssr:stedsnr" v="319922" />
	</node>
	<node id="-175264" lat="67.3351209091" lon="15.551510318">
		<tag k="fixme" v="consider place=hamlet" />
		<tag k="name" v="Rødås" />
		<tag k="place" v="farm" />
		<tag k="ssr:stedsnr" v="319916" />
	</node>
	<node id="-175244" lat="67.2375111132" lon="15.2549055528">
		<tag k="name" v="Øynes" />
		<tag k="place" v="farm" />
		<tag k="ssr:stedsnr" v="301943" />
	</node>
	<node id="-175241" lat="67.2988611098" lon="15.1814583262">
		<tag k="name" v="Tjeldnes" />
		<tag k="place" v="isolated_dwelling" />
		<tag k="ssr:stedsnr" v="210267" />
	</node>
	<node id="-175236" lat="67.2336333334" lon="15.5028555587">
		<tag k="leisure" v="pitch" />
		<tag k="name" v="Movika idrettsplass" />
		<tag k="ssr:stedsnr" v="210531" />
	</node>
	<node id="-175226" lat="67.2673055558" lon="15.3101166664">
		<tag k="name" v="Moen" />
		<tag k="place" v="farm" />
		<tag k="ssr:stedsnr" v="207334" />
	</node>
	<node id="-175222" lat="67.381275002" lon="15.2867666661">
		<tag k="name" v="Bjørkvang" />
		<tag k="place" v="farm" />
		<tag k="ssr:stedsnr" v="206908" />
	</node>
	<node id="-175219" lat="67.2564972175" lon="15.1756361209">
		<tag k="name" v="Vollen" />
		<tag k="place" v="farm" />
		<tag k="ssr:stedsnr" v="206700" />
	</node>
	<node id="-175210" lat="67.2698916667" lon="15.3318138985">
		<tag k="name" v="Sommerlia" />
		<tag k="place" v="isolated_dwelling" />
		<tag k="ssr:stedsnr" v="206255" />
	</node>
	<node id="-175208" lat="67.3401138855" lon="15.2606138948">
		<tag k="name" v="Holmen" />
		<tag k="place" v="farm" />
		<tag k="ssr:stedsnr" v="206151" />
	</node>
	<node id="-175204" lat="67.3313249998" lon="15.160177782">
		<tag k="name" v="Kaggstranda" />
		<tag k="place" v="farm" />
		<tag k="ssr:stedsnr" v="202750" />
	</node>
	<node id="-175201" lat="67.276075231" lon="15.1096767108">
		<tag k="fixme" v="consider place=hamlet" />
		<tag k="name" v="Nes" />
		<tag k="place" v="farm" />
		<tag k="ssr:stedsnr" v="202681" />
	</node>
	<node id="-175199" lat="67.2785044908" lon="15.1534027592">
		<tag k="name" v="Meby" />
		<tag k="place" v="farm" />
		<tag k="ssr:stedsnr" v="202438" />
	</node>
	<node id="-175193" lat="67.4105357242" lon="15.3198924936">
		<tag k="alt_name" v="Vestvatnli" />
		<tag k="fixme" v="consider place=hamlet" />
		<tag k="name" v="Hola" />
		<tag k="place" v="farm" />
		<tag k="ssr:stedsnr" v="198951" />
	</node>
	<node id="-175192" lat="67.2220722252" lon="15.6010583394">
		<tag k="alt_name" v="Møllenbukt" />
		<tag k="name" v="Mølnbukta" />
		<tag k="place" v="farm" />
		<tag k="ssr:stedsnr" v="198947" />
	</node>
	<node id="-175190" lat="67.3524111081" lon="15.2475888838">
		<tag k="fixme" v="consider place=hamlet" />
		<tag k="name" v="Bringsli" />
		<tag k="place" v="village" />
		<tag k="ssr:stedsnr" v="198887" />
	</node>
	<node id="-175188" lat="67.2852194458" lon="15.3757416648">
		<tag k="alt_name" v="Løvgavlen" />
		<tag k="fixme" v="consider place=hamlet" />
		<tag k="name" v="Lauvgavlen" />
		<tag k="place" v="village" />
		<tag k="ssr:stedsnr" v="198865" />
	</node>
	<node id="-173922" lat="67.3067222222" lon="15.4974444382">
		<tag k="loc_name:smj" v="Hoallto" />
		<tag k="name" v="Holtan" />
		<tag k="name:no" v="Holtan" />
		<tag k="place" v="farm" />
		<tag k="ssr:stedsnr" v="440833" />
	</node>
	<node id="-175173" lat="67.1215345426" lon="16.0912010716">
		<tag k="name" v="Fagermoen" />
		<tag k="place" v="farm" />
		<tag k="ssr:stedsnr" v="177871" />
	</node>
	<node id="-175168" lat="67.233602778" lon="15.3126888794">
		<tag k="name" v="Ørbansplassen" />
		<tag k="place" v="locality" />
		<tag k="ssr:stedsnr" v="177690" />
	</node>
	<node id="-175155" lat="67.1677222217" lon="15.777397225">
		<tag k="name" v="Fjellheim" />
		<tag k="place" v="isolated_dwelling" />
		<tag k="ssr:stedsnr" v="177232" />
	</node>
	<node id="-175151" lat="67.3053722221" lon="15.4560500085">
		<tag k="name" v="Eidheim" />
		<tag k="place" v="farm" />
		<tag k="ssr:stedsnr" v="177070" />
	</node>
	<node id="-175148" lat="67.327511113" lon="15.433827787">
		<tag k="name" v="Karengammen" />
		<tag k="place" v="locality" />
		<tag k="ssr:stedsnr" v="177024" />
	</node>
	<node id="-175145" lat="67.3482138906" lon="15.4854472267">
		<tag k="name" v="Rekmo" />
		<tag k="place" v="farm" />
		<tag k="ssr:stedsnr" v="149874" />
	</node>
	<node id="-175132" lat="67.3748833368" lon="15.2654888892">
		<tag k="name" v="Haugen" />
		<tag k="place" v="isolated_dwelling" />
		<tag k="ssr:stedsnr" v="145890" />
	</node>
	<node id="-175129" lat="67.2624597666" lon="15.2247382638">
		<tag k="name" v="Holstad" />
		<tag k="place" v="farm" />
		<tag k="ssr:stedsnr" v="145693" />
	</node>
	<node id="-175115" lat="67.30453611" lon="15.1958472288">
		<tag k="name" v="Nerigården" />
		<tag k="place" v="farm" />
		<tag k="ssr:stedsnr" v="145175" />
	</node>
	<node id="-175114" lat="67.3482111123" lon="15.2585972134">
		<tag k="name" v="Forsbakk" />
		<tag k="place" v="farm" />
		<tag k="ssr:stedsnr" v="145144" />
	</node>
	<node id="-175104" lat="67.3834916649" lon="15.3382499966">
		<tag k="name" v="Østerkløft" />
		<tag k="place" v="farm" />
		<tag k="ssr:stedsnr" v="137975" />
	</node>
	<node id="-175102" lat="67.2058279555" lon="15.6297231167">
		<tag k="alt_name:no" v="Storvik" />
		<tag k="fixme" v="consider place=hamlet" />
		<tag k="loc_name:smj" v="Stáhpe" />
		<tag k="name" v="Storvika" />
		<tag k="name:no" v="Storvika" />
		<tag k="place" v="farm" />
		<tag k="ssr:stedsnr" v="137963" />
	</node>
	<node id="-175095" lat="67.2434261822" lon="15.5110236881">
		<tag k="alt_name" v="Gjemgang;Gjemgam" />
		<tag k="name" v="Hjemgam" />
		<tag k="place" v="hamlet" />
		<tag k="ssr:stedsnr" v="137926" />
	</node>
	<node id="-175089" lat="67.3498361089" lon="15.2865166573">
		<tag k="name" v="Hegge" />
		<tag k="place" v="farm" />
		<tag k="ssr:stedsnr" v="137887" />
	</node>
	<node id="-175088" lat="67.3507416646" lon="15.2707027872">
		<tag k="name" v="Åsen" />
		<tag k="place" v="farm" />
		<tag k="ssr:stedsnr" v="137883" />
	</node>
	<node id="-175070" lat="67.2650111125" lon="15.3112277703">
		<tag k="fixme" v="consider place=hamlet" />
		<tag k="loc_name:smj" v="Loaŋŋga" />
		<tag k="name" v="Klungset" />
		<tag k="name:no" v="Klungset" />
		<tag k="place" v="village" />
		<tag k="ssr:stedsnr" v="119655" />
	</node>
	<node id="-175069" lat="67.269208909" lon="15.3166572131">
		<tag k="loc_name:smj" v="Loaŋŋga" />
		<tag k="name" v="Klungset" />
		<tag k="name:no" v="Klungset" />
		<tag k="place" v="hamlet" />
		<tag k="ssr:stedsnr" v="119889" />
	</node>
	<node id="-175068" lat="67.356538888" lon="15.2472583328">
		<tag k="name" v="Lien" />
		<tag k="place" v="farm" />
		<tag k="ssr:stedsnr" v="117650" />
	</node>
	<node id="-175050" lat="67.2601861121" lon="15.4092111168">
		<tag k="name" v="Ankerske Steinindustri" />
		<tag k="place" v="quarter" />
		<tag k="ssr:stedsnr" v="116392" />
	</node>
	<node id="-175044" lat="67.4031055528" lon="15.3206694387">
		<tag k="name" v="Eidet" />
		<tag k="place" v="farm" />
		<tag k="ssr:stedsnr" v="116270" />
	</node>
	<node id="-175043" lat="67.3795527763" lon="15.3249194539">
		<tag k="name" v="Stangsethaug" />
		<tag k="place" v="isolated_dwelling" />
		<tag k="ssr:stedsnr" v="116237" />
	</node>
	<node id="-175042" lat="67.3818027759" lon="15.3339666766">
		<tag k="name" v="Svingen" />
		<tag k="place" v="isolated_dwelling" />
		<tag k="ssr:stedsnr" v="116234" />
	</node>
	<node id="-175032" lat="67.2998305581" lon="15.4392472285">
		<tag k="name" v="Åsbakk" />
		<tag k="place" v="farm" />
		<tag k="ssr:stedsnr" v="101997" />
	</node>
	<node id="-175026" lat="67.222630559" lon="15.3640083276">
		<tag k="name" v="Nedre Nygård" />
		<tag k="place" v="farm" />
		<tag k="ssr:stedsnr" v="89790" />
	</node>
	<node id="-175025" lat="67.2962833295" lon="15.1888611109">
		<tag k="name" v="Øverland" />
		<tag k="place" v="farm" />
		<tag k="ssr:stedsnr" v="89251" />
	</node>
	<node id="-175024" lat="67.2971388871" lon="15.1790972194">
		<tag k="name" v="Løkås" />
		<tag k="place" v="farm" />
		<tag k="ssr:stedsnr" v="89247" />
	</node>
	<node id="-175023" lat="67.2945944481" lon="15.1839611178">
		<tag k="name" v="Vestre Løkås" />
		<tag k="place" v="farm" />
		<tag k="ssr:stedsnr" v="89243" />
	</node>
	<node id="-175014" lat="67.2616166651" lon="15.3984888961">
		<tag k="name" v="Moen" />
		<tag k="place" v="quarter" />
		<tag k="ssr:stedsnr" v="87252" />
	</node>
	<node id="-175003" lat="67.3677555568" lon="15.2927722227">
		<tag k="name" v="Bakken" />
		<tag k="place" v="farm" />
		<tag k="ssr:stedsnr" v="85792" />
	</node>
	<node id="-175002" lat="67.3790388906" lon="15.3136138909">
		<tag k="name" v="Skogmo" />
		<tag k="place" v="farm" />
		<tag k="ssr:stedsnr" v="85787" />
	</node>
	<node id="-175000" lat="67.2616944474" lon="15.1591555649">
		<tag k="name" v="Øverland" />
		<tag k="place" v="farm" />
		<tag k="ssr:stedsnr" v="85691" />
	</node>
	<node id="-174998" lat="67.25923056" lon="15.1653805477">
		<tag k="name" v="Solbakken" />
		<tag k="place" v="farm" />
		<tag k="ssr:stedsnr" v="85685" />
	</node>
	<node id="-174991" lat="67.3319750049" lon="15.2743027672">
		<tag k="name" v="Gammelgården" />
		<tag k="place" v="farm" />
		<tag k="ssr:stedsnr" v="85347" />
	</node>
	<node id="-174981" lat="67.2767333365" lon="15.1046249948">
		<tag k="alt_name" v="Lundbakkan" />
		<tag k="name" v="Lundbakk" />
		<tag k="place" v="farm" />
		<tag k="ssr:stedsnr" v="81685" />
	</node>
	<node id="-174977" lat="67.3755361131" lon="15.2703111076">
		<tag k="name" v="Lægda" />
		<tag k="place" v="farm" />
		<tag k="ssr:stedsnr" v="77999" />
	</node>
	<node id="-174976" lat="67.3937344814" lon="15.3395741606">
		<tag k="alt_name" v="Neverhaug" />
		<tag k="fixme" v="consider place=hamlet" />
		<tag k="name" v="Neverhaugen" />
		<tag k="place" v="farm" />
		<tag k="ssr:stedsnr" v="77955" />
	</node>
	<node id="-174973" lat="67.2251583352" lon="15.4069333347">
		<tag k="name" v="Vika" />
		<tag k="place" v="farm" />
		<tag k="ssr:stedsnr" v="77947" />
	</node>
	<node id="-174971" lat="67.2305884128" lon="15.672667129">
		<tag k="alt_name" v="Skones" />
		<tag k="name" v="Skognes" />
		<tag k="place" v="locality" />
		<tag k="ssr:stedsnr" v="77942" />
	</node>
	<node id="-174969" lat="67.2370166697" lon="15.2551111102">
		<tag k="name" v="Øynes" />
		<tag k="place" v="farm" />
		<tag k="ssr:stedsnr" v="77937" />
	</node>
	<node id="-174967" lat="67.2344856137" lon="15.3170035808">
		<tag k="fixme" v="consider place=hamlet" />
		<tag k="name" v="Knurvika" />
		<tag k="place" v="farm" />
		<tag k="ssr:stedsnr" v="77931" />
	</node>
	<node id="-174965" lat="67.3325972228" lon="15.5674361109">
		<tag k="name" v="Gardsmoen" />
		<tag k="place" v="farm" />
		<tag k="ssr:stedsnr" v="77920" />
	</node>
	<node id="-174959" lat="67.3112527819" lon="15.5022111024">
		<tag k="name" v="Myrvang" />
		<tag k="place" v="farm" />
		<tag k="ssr:stedsnr" v="77824" />
	</node>
	<node id="-174955" lat="67.1764611098" lon="15.7899222099">
		<tag k="name" v="Fjell" />
		<tag k="place" v="farm" />
		<tag k="ssr:stedsnr" v="77251" />
	</node>
	<node id="-174951" lat="67.1555694487" lon="15.9884972138">
		<tag k="name" v="Bursimarka" />
		<tag k="place" v="quarter" />
		<tag k="ssr:stedsnr" v="77226" />
	</node>
	<node id="-174947" lat="67.293947222" lon="15.4289472238">
		<tag k="name" v="Voll" />
		<tag k="place" v="farm" />
		<tag k="ssr:stedsnr" v="76836" />
	</node>
	<node id="-174945" lat="67.3077694457" lon="15.4154444527">
		<tag k="name" v="Labakk" />
		<tag k="place" v="farm" />
		<tag k="ssr:stedsnr" v="76815" />
	</node>
	<node id="-174944" lat="67.2591666671" lon="15.3644611129">
		<tag k="name" v="Lynghaug" />
		<tag k="place" v="farm" />
		<tag k="ssr:stedsnr" v="60615" />
	</node>
	<node id="-174942" lat="67.1291888879" lon="16.091122213">
		<tag k="name" v="Sandnes" />
		<tag k="place" v="farm" />
		<tag k="ssr:stedsnr" v="56872" />
	</node>
	<node id="-174939" lat="67.286813893" lon="15.179191676">
		<tag k="name" v="Reitsletten" />
		<tag k="place" v="isolated_dwelling" />
		<tag k="ssr:stedsnr" v="56731" />
	</node>
	<node id="-174931" lat="67.2455416681" lon="15.3358277788">
		<tag k="name" v="Lundhøgda camping og motell" />
		<tag k="ssr:stedsnr" v="56654" />
		<tag k="tourism" v="camp_site" />
	</node>
	<node id="-174919" lat="67.4051166682" lon="15.4253000055">
		<tag k="name" v="Husa-Petterheim" />
		<tag k="place" v="locality" />
		<tag k="ssr:stedsnr" v="56091" />
	</node>
	<node id="-174915" lat="67.2905083361" lon="15.4241527818">
		<tag k="name" v="Mo" />
		<tag k="place" v="isolated_dwelling" />
		<tag k="ssr:stedsnr" v="55382" />
	</node>
	<node id="-174906" lat="67.2225666623" lon="15.3667194463">
		<tag k="name" v="Bratteng" />
		<tag k="place" v="farm" />
		<tag k="ssr:stedsnr" v="28821" />
	</node>
	<node id="-174904" lat="67.3031138865" lon="15.213177766">
		<tag k="name" v="Lavik" />
		<tag k="place" v="isolated_dwelling" />
		<tag k="ssr:stedsnr" v="28269" />
	</node>
	<node id="-174901" lat="67.3310444406" lon="15.2721111145">
		<tag k="name" v="Reitan" />
		<tag k="place" v="farm" />
		<tag k="ssr:stedsnr" v="26838" />
	</node>
	<node id="-174888" lat="67.2822333304" lon="15.1458194529">
		<tag k="name" v="Bjøllstikkmoen" />
		<tag k="place" v="farm" />
		<tag k="ssr:stedsnr" v="24656" />
	</node>
	<node id="-174887" lat="67.3330476851" lon="15.264109725">
		<tag k="name" v="Liskytjemarka" />
		<tag k="place" v="farm" />
		<tag k="ssr:stedsnr" v="24489" />
	</node>
	<node id="-174873" lat="67.3426805541" lon="15.2281777818">
		<tag k="name" v="Myrvang" />
		<tag k="place" v="farm" />
		<tag k="ssr:stedsnr" v="24159" />
	</node>
	<node id="-174864" lat="67.2880773256" lon="15.1765351362">
		<tag k="fixme" v="consider place=hamlet" />
		<tag k="name" v="Haukland" />
		<tag k="place" v="farm" />
		<tag k="ssr:stedsnr" v="20699" />
	</node>
	<node id="-174856" lat="67.2706833301" lon="15.2364944509">
		<tag k="alt_name" v="Røvik" />
		<tag k="fixme" v="consider place=hamlet" />
		<tag k="name" v="Røvika" />
		<tag k="place" v="village" />
		<tag k="ssr:stedsnr" v="16866" />
	</node>
	<node id="-174852" lat="67.2548555598" lon="15.432205558">
		<tag k="loc_name:smj" v="Finnájdde" />
		<tag k="name" v="Finneid" />
		<tag k="name:no" v="Finneid" />
		<tag k="place" v="village" />
		<tag k="ssr:stedsnr" v="16747" />
	</node>
	<node id="-174851" lat="67.3820138861" lon="15.2894888945">
		<tag k="name" v="Skytteli" />
		<tag k="place" v="farm" />
		<tag k="ssr:stedsnr" v="16971" />
	</node>
	<node id="-174841" lat="67.1882803611" lon="15.7170634203">
		<tag k="fixme" v="consider place=hamlet" />
		<tag k="name" v="Tverråmoen" />
		<tag k="place" v="farm" />
		<tag k="ssr:stedsnr" v="1072352" />
	</node>
	<node id="-174820" lat="67.2683160028" lon="15.3108716406">
		<tag k="fixme" v="consider place=hamlet" />
		<tag k="name" v="Ytter-Klungset" />
		<tag k="place" v="farm" />
		<tag k="ssr:stedsnr" v="969854" />
	</node>
	<node id="-174819" lat="67.2440165347" lon="15.3384767721">
		<tag k="fixme" v="consider place=hamlet" />
		<tag k="loc_name:smj" v="Lunnda" />
		<tag k="name" v="Lund" />
		<tag k="name:no" v="Lund" />
		<tag k="place" v="farm" />
		<tag k="ssr:stedsnr" v="967861" />
	</node>
	<node id="-174803" lat="67.3740277754" lon="15.3084944448">
		<tag k="name" v="Sandmo" />
		<tag k="place" v="farm" />
		<tag k="ssr:stedsnr" v="935820" />
	</node>
	<node id="-174801" lat="67.3533250049" lon="15.26932499">
		<tag k="name" v="Nordås" />
		<tag k="place" v="farm" />
		<tag k="ssr:stedsnr" v="935114" />
	</node>
	<node id="-174800" lat="67.3557111104" lon="15.2720972196">
		<tag k="name" v="Solhaug" />
		<tag k="place" v="farm" />
		<tag k="ssr:stedsnr" v="935110" />
	</node>
	<node id="-173858" lat="67.3240305539" lon="15.5240694356">
		<tag k="name" v="Grønåsen" />
		<tag k="place" v="farm" />
		<tag k="ssr:stedsnr" v="180921" />
	</node>
	<node id="-174793" lat="67.2485093426" lon="15.4943120789">
		<tag k="fixme" v="consider place=hamlet" />
		<tag k="name" v="Mosti" />
		<tag k="place" v="farm" />
		<tag k="ssr:stedsnr" v="926924" />
	</node>
	<node id="-174792" lat="67.2432111152" lon="15.339038883">
		<tag k="fixme" v="multiple name tags, choose one and add the other to alt_name" />
		<tag k="name" v="Lund;Lund østre;Nedre Lund" />
		<tag k="place" v="farm" />
		<tag k="ssr:stedsnr" v="926920" />
	</node>
	<node id="-174791" lat="67.3355694456" lon="15.5683472323">
		<tag k="name" v="Nystad" />
		<tag k="place" v="farm" />
		<tag k="ssr:stedsnr" v="926909" />
	</node>
	<node id="-174787" lat="67.2953555533" lon="15.4320611082">
		<tag k="alt_name" v="Megården" />
		<tag k="name" v="Megård" />
		<tag k="place" v="farm" />
		<tag k="ssr:stedsnr" v="926830" />
	</node>
	<node id="-174778" lat="67.2876472269" lon="15.4201083298">
		<tag k="name" v="Solvoll" />
		<tag k="place" v="isolated_dwelling" />
		<tag k="ssr:stedsnr" v="905417" />
	</node>
	<node id="-174774" lat="67.2707666645" lon="15.3906111009">
		<tag k="name" v="Søbbesva" />
		<tag k="place" v="quarter" />
		<tag k="ssr:stedsnr" v="875274" />
	</node>
	<node id="-174773" lat="67.2638805588" lon="15.3902666751">
		<tag k="name" v="Olderen" />
		<tag k="place" v="quarter" />
		<tag k="ssr:stedsnr" v="875256" />
	</node>
	<node id="-174768" lat="67.2912055562" lon="15.1686333218">
		<tag k="name" v="Haug" />
		<tag k="place" v="farm" />
		<tag k="ssr:stedsnr" v="874663" />
	</node>
	<node id="-174752" lat="67.2723472198" lon="15.2401305545">
		<tag k="name" v="Vestre Røvika" />
		<tag k="place" v="farm" />
		<tag k="ssr:stedsnr" v="848805" />
	</node>
	<node id="-174749" lat="67.2898444417" lon="15.4238833324">
		<tag k="name" v="Solvang" />
		<tag k="place" v="farm" />
		<tag k="ssr:stedsnr" v="938828" />
	</node>
	<node id="-174742" lat="67.3405055532" lon="15.2302305601">
		<tag k="name" v="Strømhaug" />
		<tag k="place" v="farm" />
		<tag k="ssr:stedsnr" v="936871" />
	</node>
	<node id="-174734" lat="67.2589416698" lon="15.1693444411">
		<tag k="name" v="Fagerheim" />
		<tag k="place" v="farm" />
		<tag k="ssr:stedsnr" v="935730" />
	</node>
	<node id="-174726" lat="67.2682638919" lon="15.3047666786">
		<tag k="name" v="Elvebakk" />
		<tag k="place" v="farm" />
		<tag k="ssr:stedsnr" v="935343" />
	</node>
	<node id="-174714" lat="67.1240611134" lon="16.1990805475">
		<tag k="fixme" v="consider tourism=alpine_hut or tourism=chalet" />
		<tag k="name" v="Lomihytta" />
		<tag k="ssr:stedsnr" v="934444" />
		<tag k="tourism" v="wilderness_hut" />
	</node>
	<node id="-174709" lat="67.3510333373" lon="15.5308611174">
		<tag k="name" v="Djupdal" />
		<tag k="place" v="farm" />
		<tag k="ssr:stedsnr" v="934139" />
	</node>
	<node id="-174708" lat="67.3524888844" lon="15.2488361161">
		<tag k="name" v="Moan" />
		<tag k="place" v="farm" />
		<tag k="ssr:stedsnr" v="934134" />
	</node>
	<node id="-174705" lat="67.3039083343" lon="15.2146555522">
		<tag k="name" v="Berg" />
		<tag k="place" v="farm" />
		<tag k="ssr:stedsnr" v="817264" />
	</node>
	<node id="-174700" lat="67.3561499979" lon="15.2411361039">
		<tag k="name" v="Heimegård" />
		<tag k="place" v="farm" />
		<tag k="ssr:stedsnr" v="815908" />
	</node>
	<node id="-174686" lat="67.3799499991" lon="15.2915861103">
		<tag k="name" v="Asplund" />
		<tag k="place" v="farm" />
		<tag k="ssr:stedsnr" v="805995" />
	</node>
	<node id="-174685" lat="67.3742528985" lon="15.3101665855">
		<tag k="alt_name" v="Tverrelva" />
		<tag k="fixme" v="consider place=hamlet" />
		<tag k="name" v="Tverelv" />
		<tag k="place" v="farm" />
		<tag k="ssr:stedsnr" v="805994" />
	</node>
	<node id="-174681" lat="67.3037888889" lon="15.2205416643">
		<tag k="name" v="Helskog" />
		<tag k="place" v="farm" />
		<tag k="ssr:stedsnr" v="805832" />
	</node>
	<node id="-174673" lat="67.0791476266" lon="16.0212859022">
		<tag k="fixme" v="consider tourism=alpine_hut or tourism=chalet" />
		<tag k="name" v="Skihytta" />
		<tag k="ssr:stedsnr" v="805165" />
		<tag k="tourism" v="wilderness_hut" />
	</node>
	<node id="-174663" lat="67.3647416661" lon="15.255236114">
		<tag k="name" v="Hanshaugen" />
		<tag k="place" v="farm" />
		<tag k="ssr:stedsnr" v="926986" />
	</node>
	<node id="-174653" lat="67.2591419799" lon="15.2202029698">
		<tag k="fixme" v="consider place=hamlet" />
		<tag k="name" v="Holstad" />
		<tag k="place" v="farm" />
		<tag k="ssr:stedsnr" v="926764" />
	</node>
	<node id="-174652" lat="67.2553444427" lon="15.3575194467">
		<tag k="name" v="Stranda" />
		<tag k="place" v="suburb" />
		<tag k="ssr:stedsnr" v="926760" />
	</node>
	<node id="-174648" lat="67.1459445677" lon="16.0057493842">
		<tag k="name" v="Glasstunes" />
		<tag k="place" v="quarter" />
		<tag k="ssr:stedsnr" v="926225" />
	</node>
	<node id="-174641" lat="67.2601638907" lon="15.3684638784">
		<tag k="name" v="Nordbakk" />
		<tag k="place" v="farm" />
		<tag k="ssr:stedsnr" v="788613" />
	</node>
	<node id="-174629" lat="67.260608333" lon="15.3727249931">
		<tag k="building" v="commercial" />
		<tag k="name" v="Helligberget" />
		<tag k="ssr:stedsnr" v="752220" />
	</node>
	<node id="-174621" lat="67.2578027786" lon="15.1714860999">
		<tag k="name" v="Venset" />
		<tag k="place" v="farm" />
		<tag k="ssr:stedsnr" v="748418" />
	</node>
	<node id="-174614" lat="67.3073194462" lon="15.2406888952">
		<tag k="name" v="Skarpmoen" />
		<tag k="place" v="farm" />
		<tag k="ssr:stedsnr" v="744816" />
	</node>
	<node id="-174613" lat="67.3414583359" lon="15.2698083279">
		<tag k="name" v="Slettvoll" />
		<tag k="place" v="farm" />
		<tag k="ssr:stedsnr" v="744914" />
	</node>
	<node id="-174584" lat="67.3807472196" lon="15.3327638905">
		<tag k="name" v="Bjerke" />
		<tag k="place" v="isolated_dwelling" />
		<tag k="ssr:stedsnr" v="905240" />
	</node>
	<node id="-174567" lat="67.2498305563" lon="15.4263527807">
		<tag k="building" v="industrial" />
		<tag k="industrial" v="factory" />
		<tag k="name" v="Kissiloen" />
		<tag k="ssr:stedsnr" v="723364" />
	</node>
	<node id="-174561" lat="67.3442222226" lon="15.4809611141">
		<tag k="name" v="Kvitblik" />
		<tag k="place" v="farm" />
		<tag k="ssr:stedsnr" v="892674" />
	</node>
	<node id="-174559" lat="67.2961694405" lon="15.178424999">
		<tag k="name" v="Bjørkås" />
		<tag k="place" v="farm" />
		<tag k="ssr:stedsnr" v="890947" />
	</node>
	<node id="-174558" lat="67.3463250001" lon="15.2667222284">
		<tag k="fixme" v="consider place=hamlet" />
		<tag k="loc_name:smj" v="Kosmåhka" />
		<tag k="name" v="Kosmo" />
		<tag k="name:no" v="Kosmo" />
		<tag k="place" v="farm" />
		<tag k="ssr:stedsnr" v="889924" />
	</node>
	<node id="-174554" lat="67.2686666695" lon="15.4185194341">
		<tag k="name" v="Lithaugen" />
		<tag k="place" v="quarter" />
		<tag k="ssr:stedsnr" v="693916" />
	</node>
	<node id="-173816" lat="67.2729305543" lon="15.2454722217">
		<tag k="amenity" v="nursing_home" />
		<tag k="name" v="Bygdeheimen" />
		<tag k="ssr:stedsnr" v="137856" />
	</node>
	<node id="-174538" lat="67.3175361132" lon="15.2638666641">
		<tag k="fixme" v="multiple name tags, choose one and add the other to alt_name" />
		<tag k="name" v="Djuposvollen;Voll" />
		<tag k="place" v="farm" />
		<tag k="ssr:stedsnr" v="683918" />
	</node>
	<node id="-174537" lat="67.3581305523" lon="15.2872666546">
		<tag k="name" v="Granheim" />
		<tag k="place" v="farm" />
		<tag k="ssr:stedsnr" v="683861" />
	</node>
	<node id="-174535" lat="67.2906938664" lon="15.3879260453">
		<tag k="alt_name" v="Tortenli" />
		<tag k="fixme" v="consider place=hamlet" />
		<tag k="name" v="Tortenlia" />
		<tag k="place" v="farm" />
		<tag k="ssr:stedsnr" v="683816" />
	</node>
	<node id="-174528" lat="67.2871111114" lon="15.41954167">
		<tag k="name" v="Aasen" />
		<tag k="place" v="farm" />
		<tag k="ssr:stedsnr" v="878839" />
	</node>
	<node id="-174527" lat="67.292763886" lon="15.4272777869">
		<tag k="name" v="Aldersletten" />
		<tag k="place" v="farm" />
		<tag k="ssr:stedsnr" v="878833" />
	</node>
	<node id="-174522" lat="67.2447083348" lon="15.3360472269">
		<tag k="name" v="Øvre Lund" />
		<tag k="place" v="farm" />
		<tag k="ssr:stedsnr" v="662677" />
	</node>
	<node id="-174498" lat="67.2236249985" lon="15.3838722177">
		<tag k="name" v="Pederstallen" />
		<tag k="place" v="locality" />
		<tag k="ssr:stedsnr" v="634810" />
	</node>
	<node id="-174488" lat="67.3458611147" lon="15.2837416603">
		<tag k="name" v="Telegrafhytta" />
		<tag k="place" v="isolated_dwelling" />
		<tag k="ssr:stedsnr" v="631206" />
	</node>
	<node id="-174484" lat="67.3711027742" lon="15.2658861068">
		<tag k="name" v="Forsheim" />
		<tag k="place" v="farm" />
		<tag k="ssr:stedsnr" v="630875" />
	</node>
	<node id="-174474" lat="67.110525002" lon="16.2586055631">
		<tag k="name" v="Korsvikhytta" />
		<tag k="place" v="isolated_dwelling" />
		<tag k="ssr:stedsnr" v="723798" />
	</node>
	<node id="-174460" lat="67.2881555555" lon="15.1639777759">
		<tag k="loc_name" v="Raudvoll" />
		<tag k="name" v="Rugvoll" />
		<tag k="place" v="farm" />
		<tag k="ssr:stedsnr" v="723251" />
	</node>
	<node id="-174459" lat="67.3816444409" lon="15.3361999966">
		<tag k="name" v="Hopeng" />
		<tag k="place" v="isolated_dwelling" />
		<tag k="ssr:stedsnr" v="723249" />
	</node>
	<node id="-173843" lat="67.2968111132" lon="15.4374777672">
		<tag k="name" v="Vangen" />
		<tag k="place" v="farm" />
		<tag k="ssr:stedsnr" v="149815" />
	</node>
	<node id="-174443" lat="67.2864472233" lon="15.1564083431">
		<tag k="alt_name" v="Moland" />
		<tag k="name" v="Meland" />
		<tag k="place" v="farm" />
		<tag k="ssr:stedsnr" v="601231" />
	</node>
	<node id="-174441" lat="67.2873551471" lon="15.1581904472">
		<tag k="alt_name" v="Stokland" />
		<tag k="fixme" v="consider place=hamlet" />
		<tag k="name" v="Stokkland" />
		<tag k="place" v="farm" />
		<tag k="ssr:stedsnr" v="601220" />
	</node>
	<node id="-174439" lat="67.2152000009" lon="15.4036416611">
		<tag k="name" v="Sandsæte" />
		<tag k="place" v="isolated_dwelling" />
		<tag k="ssr:stedsnr" v="710552" />
	</node>
	<node id="-174437" lat="67.2239253927" lon="15.3823534553">
		<tag k="name" v="Inner-Leivset" />
		<tag k="place" v="farm" />
		<tag k="ssr:stedsnr" v="707801" />
	</node>
	<node id="-174436" lat="67.289055551" lon="15.4220055592">
		<tag k="name" v="Bjerkmo" />
		<tag k="place" v="farm" />
		<tag k="ssr:stedsnr" v="574859" />
	</node>
	<node id="-174420" lat="67.2485172632" lon="15.4792225496">
		<tag k="fixme" v="consider place=hamlet" />
		<tag k="name" v="Vatnan" />
		<tag k="place" v="farm" />
		<tag k="ssr:stedsnr" v="562914" />
	</node>
	<node id="-174419" lat="67.2460972212" lon="15.4650972319">
		<tag k="name" v="Storsteinnes" />
		<tag k="place" v="farm" />
		<tag k="ssr:stedsnr" v="562913" />
	</node>
	<node id="-174415" lat="67.3117333313" lon="15.4193222237">
		<tag k="name" v="Nordhus" />
		<tag k="place" v="farm" />
		<tag k="ssr:stedsnr" v="562827" />
	</node>
	<node id="-174413" lat="67.3247792876" lon="15.5283830379">
		<tag k="fixme" v="consider place=hamlet" />
		<tag k="name" v="Grønåsen" />
		<tag k="place" v="farm" />
		<tag k="ssr:stedsnr" v="562822" />
	</node>
	<node id="-174397" lat="67.3512705653" lon="15.2391638811">
		<tag k="alt_name" v="Bringnesli" />
		<tag k="fixme" v="consider place=hamlet" />
		<tag k="name" v="Bringsli" />
		<tag k="place" v="farm" />
		<tag k="ssr:stedsnr" v="542640" />
	</node>
	<node id="-174389" lat="67.3845083354" lon="15.3229361041">
		<tag k="name" v="Lilleli" />
		<tag k="place" v="isolated_dwelling" />
		<tag k="ssr:stedsnr" v="541354" />
	</node>
	<node id="-173789" lat="67.2823666659" lon="15.1365277836">
		<tag k="name" v="Lillestorkarsmoen" />
		<tag k="place" v="farm" />
		<tag k="ssr:stedsnr" v="267595" />
	</node>
	<node id="-174368" lat="67.3835250037" lon="15.3382555536">
		<tag k="name" v="Østerkløft" />
		<tag k="place" v="farm" />
		<tag k="ssr:stedsnr" v="691526" />
	</node>
	<node id="-174795" lat="67.4081472203" lon="15.40534166">
		<tag k="name" v="Fagermo" />
		<tag k="place" v="isolated_dwelling" />
		<tag k="ssr:stedsnr" v="926939" />
	</node>
	<node id="-174359" lat="67.3044166645" lon="15.1989222204">
		<tag k="name" v="Oppigård" />
		<tag k="place" v="farm" />
		<tag k="ssr:stedsnr" v="691219" />
	</node>
	<node id="-174357" lat="67.287124997" lon="15.1554055565">
		<tag k="alt_name" v="Stokland" />
		<tag k="name" v="Stokkland" />
		<tag k="place" v="hamlet" />
		<tag k="ssr:stedsnr" v="688682" />
	</node>
	<node id="-174347" lat="67.292026996" lon="15.1732094453">
		<tag k="fixme" v="consider place=hamlet" />
		<tag k="name" v="Haug" />
		<tag k="place" v="farm" />
		<tag k="ssr:stedsnr" v="687694" />
	</node>
	<node id="-174340" lat="67.3536166686" lon="15.2399389008">
		<tag k="name" v="Utigård" />
		<tag k="place" v="farm" />
		<tag k="ssr:stedsnr" v="511892" />
	</node>
	<node id="-174335" lat="67.2233222212" lon="15.3600305531">
		<tag k="fixme" v="multiple name tags, choose one and add the other to alt_name" />
		<tag k="name" v="Nygård;Øvre Nygård" />
		<tag k="place" v="farm" />
		<tag k="ssr:stedsnr" v="684950" />
	</node>
	<node id="-173771" lat="67.3509833319" lon="15.2847249981">
		<tag k="name" v="Hagen" />
		<tag k="place" v="farm" />
		<tag k="ssr:stedsnr" v="267194" />
	</node>
	<node id="-174323" lat="67.3419250001" lon="15.3859722223">
		<tag k="name" v="Gammplassen" />
		<tag k="place" v="locality" />
		<tag k="ssr:stedsnr" v="509312" />
	</node>
	<node id="-174312" lat="67.3662628079" lon="15.2918125625">
		<tag k="alt_name:no" v="Bjørnbakkan" />
		<tag k="fixme" v="consider place=hamlet" />
		<tag k="loc_name:smj" v="Biernnabuollda" />
		<tag k="name" v="Bjørnbakk" />
		<tag k="name:no" v="Bjørnbakk" />
		<tag k="place" v="farm" />
		<tag k="ssr:stedsnr" v="683987" />
	</node>
	<node id="-174311" lat="67.3641138923" lon="15.2855666612">
		<tag k="name" v="Åsheim" />
		<tag k="place" v="farm" />
		<tag k="ssr:stedsnr" v="683985" />
	</node>
	<node id="-174304" lat="67.2994722225" lon="15.1855500041">
		<tag k="alt_name" v="Strømsnes" />
		<tag k="fixme" v="consider place=suburb, village or hamlet" />
		<tag k="name" v="Straumsnes" />
		<tag k="place" v="quarter" />
		<tag k="ssr:stedsnr" v="505656" />
	</node>
	<node id="-174303" lat="67.3018722201" lon="15.1817638765">
		<tag k="name" v="Furnesstrand" />
		<tag k="place" v="farm" />
		<tag k="ssr:stedsnr" v="505652" />
	</node>
	<node id="-174296" lat="67.354605556" lon="15.2877138885">
		<tag k="alt_name" v="Medli" />
		<tag k="name" v="Medlia" />
		<tag k="place" v="farm" />
		<tag k="ssr:stedsnr" v="501854" />
	</node>
	<node id="-174273" lat="67.2616166687" lon="15.3984861027">
		<tag k="name" v="Moen" />
		<tag k="place" v="quarter" />
		<tag k="ssr:stedsnr" v="662631" />
	</node>
	<node id="-174238" lat="67.276325002" lon="15.1444388812">
		<tag k="name" v="Litlemedberget" />
		<tag k="place" v="farm" />
		<tag k="ssr:stedsnr" v="449604" />
	</node>
	<node id="-174237" lat="67.2808777783" lon="15.1367055445">
		<tag k="name" v="Storkarsmoen" />
		<tag k="place" v="farm" />
		<tag k="ssr:stedsnr" v="449603" />
	</node>
	<node id="-174233" lat="67.3471361099" lon="15.2695111016">
		<tag k="name" v="Utsikten" />
		<tag k="place" v="farm" />
		<tag k="ssr:stedsnr" v="449113" />
	</node>
	<node id="-174232" lat="67.3397861148" lon="15.2715666741">
		<tag k="name" v="Solbakk" />
		<tag k="place" v="farm" />
		<tag k="ssr:stedsnr" v="449111" />
	</node>
	<node id="-174227" lat="67.2680194485" lon="15.334052783">
		<tag k="alt_name:no" v="Klungset, in" />
		<tag k="loc_name:smj" v="Sisŋep-Loaŋŋga" />
		<tag k="name" v="Klungset indre" />
		<tag k="name:no" v="Klungset indre" />
		<tag k="place" v="hamlet" />
		<tag k="ssr:stedsnr" v="441765" />
	</node>
	<node id="-174226" lat="67.269280556" lon="15.226741655">
		<tag k="name" v="Granli" />
		<tag k="place" v="farm" />
		<tag k="ssr:stedsnr" v="441760" />
	</node>
	<node id="-174223" lat="67.2856583374" lon="15.1785777745">
		<tag k="name" v="Brynsmoen" />
		<tag k="place" v="isolated_dwelling" />
		<tag k="ssr:stedsnr" v="420721" />
	</node>
	<node id="-174220" lat="67.2295666694" lon="15.6976805547">
		<tag k="name" v="Lægda" />
		<tag k="place" v="isolated_dwelling" />
		<tag k="ssr:stedsnr" v="420212" />
	</node>
	<node id="-174213" lat="67.3248777756" lon="15.4448916764">
		<tag k="name" v="Brynsli" />
		<tag k="place" v="farm" />
		<tag k="ssr:stedsnr" v="420022" />
	</node>
	<node id="-174211" lat="67.3267138868" lon="15.4164944456">
		<tag k="name" v="Larshytta" />
		<tag k="place" v="isolated_dwelling" />
		<tag k="ssr:stedsnr" v="420019" />
	</node>
	<node id="-174208" lat="67.1987527813" lon="15.4617999924">
		<tag k="loc_name" v="Kvenfloget" />
		<tag k="name" v="Kvænfloget" />
		<tag k="place" v="farm" />
		<tag k="ssr:stedsnr" v="513978" />
	</node>
	<node id="-174203" lat="67.2967694442" lon="15.1899194504">
		<tag k="name" v="Gjerde" />
		<tag k="place" v="farm" />
		<tag k="ssr:stedsnr" v="513261" />
	</node>
	<node id="-174185" lat="67.2651222181" lon="15.2908750077">
		<tag k="name" v="Lilleeng" />
		<tag k="place" v="isolated_dwelling" />
		<tag k="ssr:stedsnr" v="510349" />
	</node>
	<node id="-174183" lat="67.3526500019" lon="15.334688892">
		<tag k="name" v="Petter-Joheimen" />
		<tag k="place" v="locality" />
		<tag k="ssr:stedsnr" v="510332" />
	</node>
	<node id="-174177" lat="67.0543916664" lon="16.0946750097">
		<tag k="alt_name" v="Čalalveshytta" />
		<tag k="fixme" v="consider tourism=alpine_hut or tourism=chalet" />
		<tag k="name" v="Tjalalveshytta" />
		<tag k="old_name" v="Gallanasjavrihytta" />
		<tag k="ssr:stedsnr" v="509451" />
		<tag k="tourism" v="wilderness_hut" />
	</node>
	<node id="-174174" lat="67.3028138906" lon="15.1958527741">
		<tag k="name" v="Bjønnsletta" />
		<tag k="place" v="isolated_dwelling" />
		<tag k="ssr:stedsnr" v="509195" />
	</node>
	<node id="-174160" lat="67.2732436547" lon="15.0472560732">
		<tag k="name" v="Alvenes" />
		<tag k="place" v="farm" />
		<tag k="ssr:stedsnr" v="505675" />
	</node>
	<node id="-174151" lat="67.2691277815" lon="15.4210888931">
		<tag k="fixme" v="consider place=suburb, village or hamlet" />
		<tag k="name" v="Storsteinen" />
		<tag k="place" v="quarter" />
		<tag k="ssr:stedsnr" v="390922" />
	</node>
	<node id="-174150" lat="67.3235527819" lon="15.1780944363">
		<tag k="name" v="Smiberget" />
		<tag k="place" v="farm" />
		<tag k="ssr:stedsnr" v="390514" />
	</node>
	<node id="-174122" lat="67.2304027789" lon="15.4152194437">
		<tag k="name" v="Bådsvik" />
		<tag k="place" v="farm" />
		<tag k="ssr:stedsnr" v="502940" />
	</node>
	<node id="-174117" lat="67.1826333305" lon="15.7409027667">
		<tag k="name" v="Lyngås" />
		<tag k="place" v="farm" />
		<tag k="ssr:stedsnr" v="502234" />
	</node>
	<node id="-174112" lat="67.2793611129" lon="15.3802805551">
		<tag k="name" v="Molund" />
		<tag k="place" v="farm" />
		<tag k="ssr:stedsnr" v="501848" />
	</node>
	<node id="-174109" lat="67.2859444454" lon="15.4463027724">
		<tag k="name" v="Svenning" />
		<tag k="place" v="farm" />
		<tag k="ssr:stedsnr" v="501836" />
	</node>
	<node id="-174107" lat="67.2907222239" lon="15.4175388827">
		<tag k="name" v="Lofthus" />
		<tag k="place" v="farm" />
		<tag k="ssr:stedsnr" v="501815" />
	</node>
	<node id="-174103" lat="67.2057106814" lon="15.7128250435">
		<tag k="alt_name:no" v="Sjønstå gård" />
		<tag k="fixme" v="consider place=hamlet" />
		<tag k="loc_name:no" v="Sjønstågården" />
		<tag k="loc_name:smj" v="Senståhka" />
		<tag k="name" v="Sjønstå" />
		<tag k="name:no" v="Sjønstå" />
		<tag k="place" v="farm" />
		<tag k="ssr:stedsnr" v="501960" />
	</node>
	<node id="-174090" lat="67.1330302075" lon="16.0766055909">
		<tag k="name" v="Sulitjelma - Sulisjielmmá" />
		<tag k="name:no" v="Sulitjelma" />
		<tag k="name:smj" v="Sulisjielmmá" />
		<tag k="old_name:smj" v="Sulečielbma" />
		<tag k="place" v="village" />
		<tag k="ssr:stedsnr" v="501208" />
	</node>
	<node id="-174089" lat="67.150513886" lon="15.9789694451">
		<tag k="name" v="Storli" />
		<tag k="place" v="isolated_dwelling" />
		<tag k="ssr:stedsnr" v="501207" />
	</node>
</osm>
