<?xml version="1.0" encoding="UTF-8"?>
<osm generator="osmapis" version="0.6">
	<node id="-166910" lat="67.2867194449" lon="15.1908861061">
		<tag k="name" v="Olderskogan" />
		<tag k="place" v="locality" />
		<tag k="ssr:stedsnr" v="784713" />
	</node>
	<node id="-165885" lat="67.3322027802" lon="15.2765444531">
		<tag k="name" v="Dalvadet" />
		<tag k="natural" v="wetland" />
		<tag k="ssr:stedsnr" v="24402" />
	</node>
	<node id="-166908" lat="67.2804361091" lon="15.1786777656">
		<tag k="name" v="Stoklandsmyra" />
		<tag k="natural" v="wetland" />
		<tag k="ssr:stedsnr" v="784710" />
	</node>
	<node id="-165881" lat="67.354708336" lon="15.5168999916">
		<tag k="name" v="Tverrmyra" />
		<tag k="natural" v="wetland" />
		<tag k="ssr:stedsnr" v="24114" />
	</node>
	<node id="-166972" lat="67.2544861087" lon="15.5308888974">
		<tag k="name" v="Gravmyra" />
		<tag k="natural" v="wetland" />
		<tag k="ssr:stedsnr" v="816565" />
	</node>
	<node id="-165879" lat="67.3325111089" lon="15.2715472258">
		<tag k="landuse" v="meadow" />
		<tag k="name" v="Lislmyråkeren" />
		<tag k="ssr:stedsnr" v="23524" />
	</node>
	<node id="-166398" lat="67.3362388864" lon="15.2704361196">
		<tag k="landuse" v="meadow" />
		<tag k="name" v="Bestemorenget" />
		<tag k="ssr:stedsnr" v="387465" />
	</node>
	<node id="-166312" lat="67.21083333" lon="15.5558249891">
		<tag k="name" v="Storhallarmarka" />
		<tag k="place" v="locality" />
		<tag k="ssr:stedsnr" v="480094" />
	</node>
	<node id="-167405" lat="67.3634694403" lon="15.2668444415">
		<tag k="name" v="Bakkmyran" />
		<tag k="natural" v="wetland" />
		<tag k="ssr:stedsnr" v="145898" />
	</node>
	<node id="-166880" lat="67.2548888888" lon="16.3378055559">
		<tag k="name" v="Lináisen - Linájiegŋa" />
		<tag k="name:no" v="Lináisen" />
		<tag k="name:smj" v="Linájiegŋa" />
		<tag k="natural" v="glacier" />
		<tag k="old_name:smj" v="Linájiekŋa" />
		<tag k="ssr:stedsnr" v="744256" />
	</node>
	<node id="-166366" lat="67.3267972222" lon="15.4513194388">
		<tag k="name" v="Tverråmarka" />
		<tag k="place" v="locality" />
		<tag k="ssr:stedsnr" v="501924" />
	</node>
	<node id="-166364" lat="67.2617111127" lon="15.341941671">
		<tag k="name" v="Klungsetleira" />
		<tag k="place" v="locality" />
		<tag k="ssr:stedsnr" v="501741" />
	</node>
	<node id="-166861" lat="67.2095861086" lon="15.5244027753">
		<tag k="name" v="Kvitura" />
		<tag k="natural" v="scree" />
		<tag k="ssr:stedsnr" v="905312" />
	</node>
	<node id="-167370" lat="67.2316305557" lon="15.5803638839">
		<tag k="landuse" v="meadow" />
		<tag k="loc_name" v="Gjemgamenga" />
		<tag k="name" v="Hjemgamenga" />
		<tag k="ssr:stedsnr" v="137937" />
	</node>
	<node id="-166857" lat="67.2309499974" lon="15.4878888935">
		<tag k="name" v="Limyra" />
		<tag k="natural" v="wetland" />
		<tag k="ssr:stedsnr" v="905386" />
	</node>
	<node id="-166338" lat="67.227175003" lon="15.5569416785">
		<tag k="name" v="Mostiengan" />
		<tag k="place" v="locality" />
		<tag k="ssr:stedsnr" v="481219" />
	</node>
	<node id="-166335" lat="67.3196861138" lon="15.4970611009">
		<tag k="name" v="Lilleosmyra" />
		<tag k="natural" v="wetland" />
		<tag k="ssr:stedsnr" v="481033" />
	</node>
	<node id="-166474" lat="67.3007861132" lon="15.2188666585">
		<tag k="name" v="Bekkan" />
		<tag k="place" v="locality" />
		<tag k="ssr:stedsnr" v="513280" />
	</node>
	<node id="-166330" lat="67.2848083339" lon="15.213172218">
		<tag k="name" v="Skjettmyra" />
		<tag k="natural" v="wetland" />
		<tag k="ssr:stedsnr" v="480697" />
	</node>
	<node id="-166329" lat="67.2864666686" lon="15.2201722286">
		<tag k="name" v="Haugura" />
		<tag k="natural" v="scree" />
		<tag k="ssr:stedsnr" v="480695" />
	</node>
	<node id="-166837" lat="67.2449472226" lon="15.4238333406">
		<tag k="landuse" v="quarry" />
		<tag k="name" v="Øvre grustak" />
		<tag k="ssr:stedsnr" v="723359" />
	</node>
	<node id="-166834" lat="67.3146999995" lon="15.4934277853">
		<tag k="name" v="Storosmyra" />
		<tag k="natural" v="wetland" />
		<tag k="ssr:stedsnr" v="723038" />
	</node>
	<node id="-166320" lat="67.1981944435" lon="15.4499750069">
		<tag k="name" v="Langura" />
		<tag k="natural" v="scree" />
		<tag k="ssr:stedsnr" v="480269" />
	</node>
	<node id="-167336" lat="67.3394083369" lon="15.5391999912">
		<tag k="name" v="Storgressmyra" />
		<tag k="natural" v="wetland" />
		<tag k="ssr:stedsnr" v="117035" />
	</node>
	<node id="-167331" lat="67.2841222185" lon="15.1805861023">
		<tag k="name" v="Steinmyra" />
		<tag k="natural" v="wetland" />
		<tag k="ssr:stedsnr" v="116698" />
	</node>
	<node id="-166817" lat="67.3987833324" lon="15.4494166736">
		<tag k="name" v="Gammyran" />
		<tag k="natural" v="wetland" />
		<tag k="ssr:stedsnr" v="692512" />
	</node>
	<node id="-167327" lat="67.2481333357" lon="15.3366055497">
		<tag k="name" v="Klungsetleira" />
		<tag k="place" v="locality" />
		<tag k="ssr:stedsnr" v="116652" />
	</node>
	<node id="-166814" lat="67.3363027771" lon="15.2758027886">
		<tag k="name" v="Flåmyra" />
		<tag k="natural" v="wetland" />
		<tag k="ssr:stedsnr" v="692368" />
	</node>
	<node id="-166812" lat="67.3154944426" lon="15.4516638796">
		<tag k="name" v="Vestermyra" />
		<tag k="natural" v="wetland" />
		<tag k="ssr:stedsnr" v="684832" />
	</node>
	<node id="-166298" lat="67.3234361141" lon="15.0830722117">
		<tag k="name" v="Hellmyra" />
		<tag k="natural" v="wetland" />
		<tag k="ssr:stedsnr" v="328305" />
	</node>
	<node id="-166296" lat="67.3316111145" lon="15.2676555477">
		<tag k="name" v="Bergemyra" />
		<tag k="natural" v="wetland" />
		<tag k="ssr:stedsnr" v="327402" />
	</node>
	<node id="-166807" lat="67.2772694442" lon="15.3954527681">
		<tag k="name" v="Stormyra" />
		<tag k="natural" v="wetland" />
		<tag k="ssr:stedsnr" v="683855" />
	</node>
	<node id="-166411" lat="67.3355555552" lon="15.2900138795">
		<tag k="name" v="Staupåmyra" />
		<tag k="natural" v="wetland" />
		<tag k="ssr:stedsnr" v="388420" />
	</node>
	<node id="-166803" lat="67.1499305571" lon="16.1209305446">
		<tag k="landuse" v="quarry" />
		<tag k="name" v="Fjelds gruve" />
		<tag k="ssr:stedsnr" v="683208" />
	</node>
	<node id="-166801" lat="67.3585138911" lon="15.4868916597">
		<tag k="name" v="Storlegda" />
		<tag k="place" v="locality" />
		<tag k="ssr:stedsnr" v="878862" />
	</node>
	<node id="-166800" lat="67.3475583342" lon="15.5124250053">
		<tag k="name" v="Jordkjeldmyra" />
		<tag k="natural" v="wetland" />
		<tag k="ssr:stedsnr" v="878854" />
	</node>
	<node id="-166283" lat="67.3283055583" lon="15.1045277669">
		<tag k="name" v="Lappsteinen" />
		<tag k="natural" v="stone" />
		<tag k="ssr:stedsnr" v="269708" />
	</node>
	<node id="-166277" lat="67.2583527821" lon="15.1637055535">
		<tag k="name" v="Korsveien" />
		<tag k="place" v="locality" />
		<tag k="ssr:stedsnr" v="267710" />
	</node>
	<node id="-166276" lat="67.2853916687" lon="15.1716722194">
		<tag k="name" v="Holten" />
		<tag k="place" v="locality" />
		<tag k="ssr:stedsnr" v="267653" />
	</node>
	<node id="-166272" lat="67.3510722239" lon="15.4597805463">
		<tag k="name" v="Nordstelvura" />
		<tag k="natural" v="scree" />
		<tag k="ssr:stedsnr" v="267359" />
	</node>
	<node id="-167293" lat="67.3024222205" lon="15.2011750063">
		<tag k="name" v="Tjukkskogen" />
		<tag k="place" v="locality" />
		<tag k="ssr:stedsnr" v="89239" />
	</node>
	<node id="-166777" lat="67.3111027742" lon="15.4900777765">
		<tag k="name" v="Korsågmyra" />
		<tag k="natural" v="wetland" />
		<tag k="ssr:stedsnr" v="662081" />
	</node>
	<node id="-166770" lat="67.2301944415" lon="15.384316656">
		<tag k="name" v="Nermarka" />
		<tag k="place" v="locality" />
		<tag k="ssr:stedsnr" v="634815" />
	</node>
	<node id="-167281" lat="67.3313500021" lon="15.1048833359">
		<tag k="name" v="Tjukkskogen" />
		<tag k="place" v="locality" />
		<tag k="ssr:stedsnr" v="86669" />
	</node>
	<node id="-167278" lat="67.2977694487" lon="15.1617555565">
		<tag k="name" v="Hamran" />
		<tag k="place" v="locality" />
		<tag k="ssr:stedsnr" v="86329" />
	</node>
	<node id="-166764" lat="67.3304444477" lon="15.2622250074">
		<tag k="name" v="Rydningen" />
		<tag k="place" v="locality" />
		<tag k="ssr:stedsnr" v="632854" />
	</node>
	<node id="-166763" lat="67.3346333329" lon="15.1895555639">
		<tag k="name" v="Nordskykkjebakkmyra" />
		<tag k="natural" v="wetland" />
		<tag k="ssr:stedsnr" v="631562" />
	</node>
	<node id="-167271" lat="67.2664388905" lon="15.166766676">
		<tag k="landuse" v="peat_cutting" />
		<tag k="name" v="Torvslip" />
		<tag k="ssr:stedsnr" v="85688" />
	</node>
	<node id="-166756" lat="67.3100388886" lon="15.2656999985">
		<tag k="name" v="Nerbygdteigen" />
		<tag k="place" v="locality" />
		<tag k="ssr:stedsnr" v="631306" />
	</node>
	<node id="-166241" lat="67.3300083367" lon="15.1419694355">
		<tag k="name" v="Sandvikmyra" />
		<tag k="natural" v="wetland" />
		<tag k="ssr:stedsnr" v="449677" />
	</node>
	<node id="-166752" lat="67.3431388892" lon="15.2231694435">
		<tag k="name" v="Stemnmyra" />
		<tag k="natural" v="wetland" />
		<tag k="ssr:stedsnr" v="630055" />
	</node>
	<node id="-167257" lat="67.3330611104" lon="15.3034083414">
		<tag k="name" v="Reingardmyra" />
		<tag k="natural" v="wetland" />
		<tag k="ssr:stedsnr" v="84484" />
	</node>
	<node id="-166231" lat="67.3398222245" lon="15.2762861223">
		<tag k="name" v="Toktdalmomyra" />
		<tag k="natural" v="wetland" />
		<tag k="ssr:stedsnr" v="449197" />
	</node>
	<node id="-165945" lat="67.246969442" lon="15.3476638899">
		<tag k="name" v="Leira" />
		<tag k="place" v="locality" />
		<tag k="ssr:stedsnr" v="238652" />
	</node>
	<node id="-166207" lat="67.2876916658" lon="15.4044861193">
		<tag k="name" v="Åsengmyra" />
		<tag k="natural" v="wetland" />
		<tag k="ssr:stedsnr" v="441878" />
	</node>
	<node id="-166766" lat="67.3009055538" lon="15.2146555664">
		<tag k="name" v="Hestgjerdet" />
		<tag k="place" v="locality" />
		<tag k="ssr:stedsnr" v="634269" />
	</node>
	<node id="-166623" lat="67.3369972195" lon="15.1819888877">
		<tag k="alt_name" v="Altermyra" />
		<tag k="name" v="Altersmyra" />
		<tag k="natural" v="wetland" />
		<tag k="ssr:stedsnr" v="687758" />
	</node>
	<node id="-166703" lat="67.2678277764" lon="15.4667972284">
		<tag k="name" v="Austerliholten" />
		<tag k="place" v="locality" />
		<tag k="ssr:stedsnr" v="572880" />
	</node>
	<node id="-166696" lat="67.3089138933" lon="15.2904888791">
		<tag k="name" v="Halvgått middagsstad-myra" />
		<tag k="natural" v="wetland" />
		<tag k="ssr:stedsnr" v="570268" />
	</node>
	<node id="-167205" lat="67.2783805532" lon="15.1961333339">
		<tag k="name" v="Merrmyra" />
		<tag k="natural" v="wetland" />
		<tag k="ssr:stedsnr" v="56711" />
	</node>
	<node id="-166022" lat="67.2936472206" lon="15.1813305609">
		<tag k="name" v="Løkåsmyra" />
		<tag k="natural" v="wetland" />
		<tag k="ssr:stedsnr" v="116704" />
	</node>
	<node id="-167199" lat="67.237497224" lon="15.4394305595">
		<tag k="landuse" v="meadow" />
		<tag k="name" v="Øvre Hals" />
		<tag k="ssr:stedsnr" v="56372" />
	</node>
	<node id="-167198" lat="67.20616667" lon="15.4573861064">
		<tag k="name" v="Kvenflogskogen" />
		<tag k="place" v="locality" />
		<tag k="ssr:stedsnr" v="56349" />
	</node>
	<node id="-166021" lat="67.2911611147" lon="15.181266669">
		<tag k="name" v="Vargvollmyra" />
		<tag k="natural" v="wetland" />
		<tag k="ssr:stedsnr" v="116703" />
	</node>
	<node id="-166165" lat="67.2364972259" lon="15.4409861031">
		<tag k="landuse" v="meadow" />
		<tag k="name" v="Nedre Hals" />
		<tag k="ssr:stedsnr" v="298318" />
	</node>
	<node id="-166673" lat="67.2354777806" lon="15.4290000077">
		<tag k="name" v="Uran" />
		<tag k="natural" v="scree" />
		<tag k="ssr:stedsnr" v="693839" />
	</node>
	<node id="-166158" lat="67.2091388863" lon="15.5636972156">
		<tag k="name" v="Kornmyra" />
		<tag k="natural" v="wetland" />
		<tag k="ssr:stedsnr" v="298150" />
	</node>
	<node id="-166156" lat="67.3163472244" lon="15.5060083417">
		<tag k="name" v="Bjørnkløftmyra" />
		<tag k="natural" v="wetland" />
		<tag k="ssr:stedsnr" v="298109" />
	</node>
	<node id="-167179" lat="67.2334222196" lon="15.5861277662">
		<tag k="landuse" v="meadow" />
		<tag k="name" v="Engan" />
		<tag k="ssr:stedsnr" v="43393" />
	</node>
	<node id="-166153" lat="67.3007861116" lon="15.4136972243">
		<tag k="name" v="Lilleosmyra" />
		<tag k="natural" v="wetland" />
		<tag k="ssr:stedsnr" v="298077" />
	</node>
	<node id="-166148" lat="67.2815666633" lon="15.4467277681">
		<tag k="name" v="Bradden" />
		<tag k="place" v="locality" />
		<tag k="ssr:stedsnr" v="210817" />
	</node>
	<node id="-167170" lat="67.3281833333" lon="15.1731611122">
		<tag k="name" v="Åsvollen" />
		<tag k="place" v="locality" />
		<tag k="ssr:stedsnr" v="26549" />
	</node>
	<node id="-166657" lat="67.2095388923" lon="15.5110305461">
		<tag k="name" v="Stordalmyra" />
		<tag k="natural" v="wetland" />
		<tag k="ssr:stedsnr" v="541327" />
	</node>
	<node id="-166654" lat="67.3495416686" lon="15.3331444518">
		<tag k="name" v="Petter-Jomyra" />
		<tag k="natural" v="wetland" />
		<tag k="ssr:stedsnr" v="692300" />
	</node>
	<node id="-167164" lat="67.4028861074" lon="15.3276138907">
		<tag k="name" v="Omundheim" />
		<tag k="place" v="locality" />
		<tag k="ssr:stedsnr" v="24840" />
	</node>
	<node id="-167161" lat="67.2651166692" lon="15.1489389002">
		<tag k="name" v="Torsteinland" />
		<tag k="place" v="locality" />
		<tag k="ssr:stedsnr" v="24726" />
	</node>
	<node id="-166634" lat="67.2972632304" lon="15.1546296584">
		<tag k="name" v="Gragalten" />
		<tag k="place" v="locality" />
		<tag k="ssr:stedsnr" v="691343" />
	</node>
	<node id="-167142" lat="67.3432166627" lon="15.2004833283">
		<tag k="name" v="Svarttjønnmyra" />
		<tag k="natural" v="wetland" />
		<tag k="ssr:stedsnr" v="24150" />
	</node>
	<node id="-166629" lat="67.3539805566" lon="15.2228333225">
		<tag k="name" v="Storforsmyra" />
		<tag k="natural" v="wetland" />
		<tag k="ssr:stedsnr" v="691041" />
	</node>
	<node id="-166112" lat="67.261116663" lon="15.4363888925">
		<tag k="name" v="Kleivhammarmyra" />
		<tag k="natural" v="wetland" />
		<tag k="ssr:stedsnr" v="147860" />
	</node>
	<node id="-166111" lat="67.3344611131" lon="15.1825000045">
		<tag k="landuse" v="meadow" />
		<tag k="name" v="Engan" />
		<tag k="ssr:stedsnr" v="147507" />
	</node>
	<node id="-167134" lat="67.2906499995" lon="15.2035000021">
		<tag k="name" v="Stormyra" />
		<tag k="natural" v="wetland" />
		<tag k="ssr:stedsnr" v="20695" />
	</node>
	<node id="-167489" lat="67.3307333347" lon="15.1450555629">
		<tag k="landuse" v="meadow" />
		<tag k="name" v="Lilleenget" />
		<tag k="ssr:stedsnr" v="206686" />
	</node>
	<node id="-166615" lat="67.348144443" lon="15.4775194462">
		<tag k="name" v="Nordsvaet" />
		<tag k="place" v="locality" />
		<tag k="ssr:stedsnr" v="513881" />
	</node>
	<node id="-166609" lat="67.2647694425" lon="15.4476666598">
		<tag k="name" v="Breimoholten" />
		<tag k="place" v="locality" />
		<tag k="ssr:stedsnr" v="511880" />
	</node>
	<node id="-166096" lat="67.2417694408" lon="15.5230416581">
		<tag k="name" v="Klomran" />
		<tag k="place" v="locality" />
		<tag k="ssr:stedsnr" v="270649" />
	</node>
	<node id="-166600" lat="67.4002027816" lon="15.4266916665">
		<tag k="name" v="Danieleng" />
		<tag k="place" v="locality" />
		<tag k="ssr:stedsnr" v="510549" />
	</node>
	<node id="-166598" lat="67.3800277748" lon="15.2687277788">
		<tag k="name" v="Legdmarka" />
		<tag k="place" v="locality" />
		<tag k="ssr:stedsnr" v="509854" />
	</node>
	<node id="-166068" lat="67.2972027819" lon="15.1673444416">
		<tag k="name" v="Skogan" />
		<tag k="place" v="locality" />
		<tag k="ssr:stedsnr" v="267977" />
	</node>
	<node id="-166067" lat="67.3964333317" lon="15.3808138911">
		<tag k="name" v="Reinhaugmyra" />
		<tag k="natural" v="wetland" />
		<tag k="ssr:stedsnr" v="267788" />
	</node>
	<node id="-167083" lat="67.3104472236" lon="15.4511749936">
		<tag k="name" v="Skogmyra" />
		<tag k="natural" v="wetland" />
		<tag k="ssr:stedsnr" v="966055" />
	</node>
	<node id="-167078" lat="67.3024500043" lon="15.2070944354">
		<tag k="name" v="Våtmyra" />
		<tag k="natural" v="wetland" />
		<tag k="ssr:stedsnr" v="938218" />
	</node>
	<node id="-166052" lat="67.3022500006" lon="15.2804861177">
		<tag k="name" v="Tverrlimyran" />
		<tag k="natural" v="wetland" />
		<tag k="ssr:stedsnr" v="267315" />
	</node>
	<node id="-166048" lat="67.3420305533" lon="15.3731722241">
		<tag k="name" v="Hesjemyra" />
		<tag k="place" v="locality" />
		<tag k="ssr:stedsnr" v="267294" />
	</node>
	<node id="-166046" lat="67.299811107" lon="15.1672972224">
		<tag k="name" v="Heggbærkjerran" />
		<tag k="place" v="locality" />
		<tag k="ssr:stedsnr" v="267283" />
	</node>
	<node id="-166045" lat="67.3014916688" lon="15.1659694477">
		<tag k="name" v="Holten" />
		<tag k="place" v="locality" />
		<tag k="ssr:stedsnr" v="267280" />
	</node>
	<node id="-165999" lat="67.2848305518" lon="15.4324361029">
		<tag k="name" v="Åsmyra" />
		<tag k="natural" v="wetland" />
		<tag k="ssr:stedsnr" v="259868" />
	</node>
	<node id="-166040" lat="67.3010611072" lon="15.181741666">
		<tag k="name" v="Varggillen" />
		<tag k="place" v="locality" />
		<tag k="ssr:stedsnr" v="267161" />
	</node>
	<node id="-166036" lat="67.3344083302" lon="15.274580543">
		<tag k="landuse" v="meadow" />
		<tag k="name" v="Hagåkeren" />
		<tag k="ssr:stedsnr" v="266433" />
	</node>
	<node id="-166547" lat="67.337180555" lon="15.4566083359">
		<tag k="name" v="Fjellmyra" />
		<tag k="natural" v="wetland" />
		<tag k="ssr:stedsnr" v="663013" />
	</node>
	<node id="-166999" lat="67.3954527805" lon="15.3997111199">
		<tag k="name" v="Halvardeng" />
		<tag k="place" v="locality" />
		<tag k="ssr:stedsnr" v="935554" />
	</node>
	<node id="-167051" lat="67.2671361092" lon="15.520186116">
		<tag k="name" v="Langmomyran" />
		<tag k="natural" v="wetland" />
		<tag k="ssr:stedsnr" v="905458" />
	</node>
	<node id="-166252" lat="67.3355527773" lon="15.1704694443">
		<tag k="name" v="Pålheim" />
		<tag k="place" v="locality" />
		<tag k="ssr:stedsnr" v="451759" />
	</node>
	<node id="-166534" lat="67.2139888865" lon="15.5458777876">
		<tag k="name" v="Sævmyran" />
		<tag k="natural" v="wetland" />
		<tag k="ssr:stedsnr" v="662435" />
	</node>
	<node id="-166533" lat="67.2606527795" lon="15.4249472136">
		<tag k="name" v="Indre Fauskeleira" />
		<tag k="place" v="locality" />
		<tag k="ssr:stedsnr" v="662414" />
	</node>
	<node id="-166532" lat="67.2189944481" lon="15.4243277833">
		<tag k="name" v="Tuvmyra" />
		<tag k="natural" v="wetland" />
		<tag k="ssr:stedsnr" v="662395" />
	</node>
	<node id="-166146" lat="67.3220250026" lon="15.1803889006">
		<tag k="name" v="Ospskogen" />
		<tag k="place" v="locality" />
		<tag k="ssr:stedsnr" v="207518" />
	</node>
	<node id="-166523" lat="67.2236694422" lon="15.5662138768">
		<tag k="name" v="Osengan" />
		<tag k="place" v="locality" />
		<tag k="ssr:stedsnr" v="662184" />
	</node>
	<node id="-166009" lat="67.3286416635" lon="15.4898555507">
		<tag k="name" v="Vassmyra" />
		<tag k="natural" v="wetland" />
		<tag k="ssr:stedsnr" v="259924" />
	</node>
	<node id="-166003" lat="67.3421111148" lon="15.5111833224">
		<tag k="name" v="Vassryggmyra" />
		<tag k="natural" v="wetland" />
		<tag k="ssr:stedsnr" v="259910" />
	</node>
	<node id="-166511" lat="67.2587749983" lon="15.1704916703">
		<tag k="name" v="Stadshav" />
		<tag k="place" v="locality" />
		<tag k="ssr:stedsnr" v="449705" />
	</node>
	<node id="-167021" lat="67.3468944431" lon="15.4750555452">
		<tag k="name" v="Sørsvaet" />
		<tag k="place" v="locality" />
		<tag k="ssr:stedsnr" v="938868" />
	</node>
	<node id="-166504" lat="67.3186388853" lon="15.3467694362">
		<tag k="name" v="Pe Sjursodalsmyra" />
		<tag k="natural" v="wetland" />
		<tag k="ssr:stedsnr" v="449303" />
	</node>
	<node id="-166499" lat="67.3291527809" lon="15.3071555502">
		<tag k="name" v="Høgknubbura" />
		<tag k="natural" v="scree" />
		<tag k="ssr:stedsnr" v="448506" />
	</node>
	<node id="-167006" lat="67.2578472187" lon="15.1609611157">
		<tag k="name" v="Karl Larso-stellet" />
		<tag k="place" v="locality" />
		<tag k="ssr:stedsnr" v="935738" />
	</node>
	<node id="-166491" lat="67.208374999" lon="15.5320333258">
		<tag k="name" v="Nergårdsmyra" />
		<tag k="natural" v="wetland" />
		<tag k="ssr:stedsnr" v="420314" />
	</node>
	<node id="-166489" lat="67.3082416674" lon="15.4306916659">
		<tag k="name" v="Fjøsmyra" />
		<tag k="natural" v="wetland" />
		<tag k="ssr:stedsnr" v="420046" />
	</node>
	<node id="-167512" lat="67.2955583353" lon="15.2112222189">
		<tag k="name" v="Gamdalsmyra" />
		<tag k="natural" v="wetland" />
		<tag k="ssr:stedsnr" v="210259" />
	</node>
	<node id="-167268" lat="67.3184250025" lon="15.2657833443">
		<tag k="name" v="Bakkåkeren" />
		<tag k="place" v="locality" />
		<tag k="ssr:stedsnr" v="85381" />
	</node>
	<node id="-167510" lat="67.3009472189" lon="15.2094277849">
		<tag k="landuse" v="meadow" />
		<tag k="name" v="Heienget" />
		<tag k="ssr:stedsnr" v="210252" />
	</node>
	<node id="-167509" lat="67.2525972247" lon="15.5142499901">
		<tag k="name" v="Utimarka" />
		<tag k="place" v="locality" />
		<tag k="ssr:stedsnr" v="210535" />
	</node>
	<node id="-166986" lat="67.3354777768" lon="15.2704388988">
		<tag k="name" v="Hesjemyra" />
		<tag k="natural" v="wetland" />
		<tag k="ssr:stedsnr" v="934396" />
	</node>
	<node id="-166983" lat="67.3114222223" lon="15.17572778">
		<tag k="name" v="Brattåsmyra" />
		<tag k="natural" v="wetland" />
		<tag k="ssr:stedsnr" v="934173" />
	</node>
	<node id="-166469" lat="67.3002027762" lon="15.1720750007">
		<tag k="name" v="Klømnsteinen" />
		<tag k="natural" v="stone" />
		<tag k="ssr:stedsnr" v="510850" />
	</node>
	<node id="-166977" lat="67.3610416652" lon="15.4795750078">
		<tag k="name" v="Mølnelvura" />
		<tag k="natural" v="scree" />
		<tag k="ssr:stedsnr" v="817876" />
	</node>
	<node id="-167484" lat="67.3105138932" lon="15.1649027805">
		<tag k="name" v="Skammarka" />
		<tag k="place" v="locality" />
		<tag k="ssr:stedsnr" v="206307" />
	</node>
	<node id="-166459" lat="67.4023833301" lon="15.4052249992">
		<tag k="name" v="Daleng" />
		<tag k="place" v="locality" />
		<tag k="ssr:stedsnr" v="510552" />
	</node>
	<node id="-166970" lat="67.3337722249" lon="15.1682499977">
		<tag k="name" v="Stormyra" />
		<tag k="natural" v="wetland" />
		<tag k="ssr:stedsnr" v="815725" />
	</node>
	<node id="-166457" lat="67.3311722223" lon="15.2729861132">
		<tag k="name" v="Skogan" />
		<tag k="place" v="locality" />
		<tag k="ssr:stedsnr" v="510414" />
	</node>
	<node id="-165943" lat="67.258413886" lon="15.5007083221">
		<tag k="name" v="Vomsmyra" />
		<tag k="natural" v="wetland" />
		<tag k="ssr:stedsnr" v="238544" />
	</node>
	<node id="-166965" lat="67.2741361145" lon="15.1376916727">
		<tag k="name" v="Vollamyran" />
		<tag k="natural" v="wetland" />
		<tag k="ssr:stedsnr" v="930452" />
	</node>
	<node id="-166450" lat="67.3101666635" lon="15.2829277784">
		<tag k="name" v="Langmyra" />
		<tag k="natural" v="wetland" />
		<tag k="ssr:stedsnr" v="510313" />
	</node>
	<node id="-166445" lat="67.32071667" lon="15.2680916647">
		<tag k="name" v="Moen" />
		<tag k="place" v="locality" />
		<tag k="ssr:stedsnr" v="509436" />
	</node>
	<node id="-165932" lat="67.216494442" lon="15.5632666577">
		<tag k="name" v="Uran" />
		<tag k="natural" v="scree" />
		<tag k="ssr:stedsnr" v="238217" />
	</node>
	<node id="-166443" lat="67.3407166626" lon="15.2758305588">
		<tag k="name" v="Galenskogen" />
		<tag k="place" v="locality" />
		<tag k="ssr:stedsnr" v="509189" />
	</node>
	<node id="-166439" lat="67.3216944403" lon="15.2663527771">
		<tag k="name" v="Åsengkirka" />
		<tag k="place" v="locality" />
		<tag k="ssr:stedsnr" v="509378" />
	</node>
	<node id="-167003" lat="67.404180555" lon="15.3988638938">
		<tag k="name" v="Nermyran" />
		<tag k="natural" v="wetland" />
		<tag k="ssr:stedsnr" v="935602" />
	</node>
	<node id="-165919" lat="67.2788027755" lon="15.1943749901">
		<tag k="name" v="Stoklandsura" />
		<tag k="natural" v="scree" />
		<tag k="ssr:stedsnr" v="237695" />
	</node>
	<node id="-166942" lat="67.4229527804" lon="15.4360944336">
		<tag k="name" v="Stormyra" />
		<tag k="natural" v="wetland" />
		<tag k="ssr:stedsnr" v="927544" />
	</node>
	<node id="-166424" lat="67.2644444418" lon="15.4345416754">
		<tag k="name" v="Kvarvan" />
		<tag k="place" v="locality" />
		<tag k="ssr:stedsnr" v="390869" />
	</node>
	<node id="-165909" lat="67.2940249978" lon="15.4843416713">
		<tag k="name" v="Altersteinen" />
		<tag k="natural" v="stone" />
		<tag k="ssr:stedsnr" v="237407" />
	</node>
	<node id="-166417" lat="67.3011250003" lon="15.223883343">
		<tag k="name" v="Myra" />
		<tag k="natural" v="wetland" />
		<tag k="ssr:stedsnr" v="389310" />
	</node>
	<node id="-166414" lat="67.3813027782" lon="15.3076388865">
		<tag k="name" v="Skaiti" />
		<tag k="place" v="locality" />
		<tag k="ssr:stedsnr" v="388810" />
	</node>
	<node id="-167435" lat="67.2267555545" lon="15.5156305652">
		<tag k="name" v="Svarthammarura" />
		<tag k="natural" v="scree" />
		<tag k="ssr:stedsnr" v="177391" />
	</node>
	<node id="-167511" lat="67.3031999995" lon="15.2059972296">
		<tag k="name" v="Stokkosen" />
		<tag k="place" v="locality" />
		<tag k="ssr:stedsnr" v="210255" />
	</node>
	<node id="-167169" lat="67.3826916637" lon="15.3249388924">
		<tag k="name" v="Hestvadmyra" />
		<tag k="natural" v="wetland" />
		<tag k="ssr:stedsnr" v="25862" />
	</node>
	<node id="-166403" lat="67.3470194469" lon="15.3229555471">
		<tag k="name" v="Kløvensteinen" />
		<tag k="natural" v="stone" />
		<tag k="ssr:stedsnr" v="388304" />
	</node>
	<node id="-165890" lat="67.3424833351" lon="15.266152777">
		<tag k="name" v="Strandmyra" />
		<tag k="natural" v="wetland" />
		<tag k="ssr:stedsnr" v="25215" />
	</node>
	<node id="-167425" lat="67.3018666637" lon="15.5007111205">
		<tag k="name" v="Blombekkmyra" />
		<tag k="natural" v="wetland" />
		<tag k="ssr:stedsnr" v="177080" />
	</node>
</osm>
