<?xml version="1.0" encoding="UTF-8"?>
<osm version="0.6" generator="osmapis">
	<node lat="67.33139444201319" lon="15.278363887669698" id="-18395">
		<tag k="highway" v="path" />
		<tag k="name" v="Makjenveien" />
		<tag k="ssr:stedsnr" v="145409" />
	</node>
	<node lat="67.24589722349812" lon="15.516669448894971" id="-18452">
		<tag k="highway" v="path" />
		<tag k="name" v="Hammarbuvegen" />
		<tag k="ssr:stedsnr" v="210657" />
	</node>
	<node lat="67.23071915766481" lon="15.512716916336917" id="-18509">
		<tag k="alt_name" v="Grønnlifjell" />
		<tag k="layer" v="-1" />
		<tag k="name" v="Grønnlifjelltunnelen" />
		<tag k="ssr:stedsnr" v="266761" />
		<tag k="tunnel" v="yes" />
	</node>
	<node lat="67.33084444348229" lon="15.27605278839488" id="-18516">
		<tag k="highway" v="path" />
		<tag k="name" v="Helleveien" />
		<tag k="ssr:stedsnr" v="267385" />
	</node>
	<node lat="67.22076388985862" lon="15.38099445156091" id="-18620">
		<tag k="man_made" v="quay" />
		<tag k="name" v="Kalkomnkaia" />
		<tag k="place" v="locality" />
		<tag k="ssr:stedsnr" v="331778" />
	</node>
	<node lat="67.40687560978303" lon="15.319434625199317" id="-18831">
		<tag k="bridge" v="yes" />
		<tag k="layer" v="1" />
		<tag k="name" v="Nybrua" />
		<tag k="ssr:stedsnr" v="541296" />
	</node>
	<node lat="67.17821110746333" lon="15.81160554517819" id="-18906">
		<tag k="highway" v="path" />
		<tag k="name" v="Fjellveien" />
		<tag k="ssr:stedsnr" v="601212" />
	</node>
	<node lat="67.24988333439069" lon="15.423283333301434" id="-18980">
		<tag k="man_made" v="quay" />
		<tag k="name" v="Finneidkaia" />
		<tag k="place" v="locality" />
		<tag k="ssr:stedsnr" v="693893" />
	</node>
	<node lat="67.16846040856706" lon="15.754959053245914" id="-18986">
		<tag k="layer" v="-1" />
		<tag k="name" v="Stokkviknakktunnelen" />
		<tag k="ssr:stedsnr" v="650717" />
		<tag k="tunnel" v="yes" />
	</node>
	<node lat="67.20934914999923" lon="15.43603842244418" id="-19125">
		<tag k="alt_name:no" v="Kvænflåget" />
		<tag k="layer" v="-1" />
		<tag k="name" v="Kvenflogtunnelen - Goarnnabávtetunælla" />
		<tag k="name:no" v="Kvenflogtunnelen" />
		<tag k="name:smj" v="Goarnnabávtetunælla" />
		<tag k="old_name:no" v="Kvænflågtunnelen" />
		<tag k="ssr:stedsnr" v="772308" />
		<tag k="tunnel" v="yes" />
	</node>
	<node lat="67.26395833488516" lon="15.399158323883096" id="-19141">
		<tag k="fixme" v="multiple name tags, choose one and add the other to alt_name" />
		<tag k="name" v="Fauske stasjon - Fuossko;Fuosko ruovdderahtestasjåvnnå" />
		<tag k="name:no" v="Fauske stasjon" />
		<tag k="name:smj" v="Fuossko;Fuosko ruovdderahtestasjåvnnå" />
		<tag k="railway" v="station" />
		<tag k="ssr:stedsnr" v="805741" />
		<tag k="train" v="yes" />
	</node>
	<node lat="67.0834861084628" lon="16.04333055622681" id="-19177">
		<tag k="junction" v="yes" />
		<tag k="name" v="Kjellvasskrysset" />
		<tag k="place" v="locality" />
		<tag k="ssr:stedsnr" v="905781" />
	</node>
	<node lat="67.21722471203017" lon="15.580298810247262" id="-19182">
		<tag k="alt_name" v="Hårskolten" />
		<tag k="layer" v="-1" />
		<tag k="name" v="Hårskolttunnelen" />
		<tag k="ssr:stedsnr" v="812790" />
		<tag k="tunnel" v="yes" />
	</node>
	<node lat="67.10457222015808" lon="16.01210556187132" id="-19260">
		<tag k="highway" v="path" />
		<tag k="name" v="Sagmovegen" />
		<tag k="ssr:stedsnr" v="905754" />
	</node>
	<node lat="67.28239722489491" lon="15.190272215931099" id="-19262">
		<tag k="fixme" v="consider highway=path" />
		<tag k="highway" v="track" />
		<tag k="name" v="Langlivegen" />
		<tag k="ssr:stedsnr" v="905702" />
	</node>
	<node lat="67.39859872988042" lon="15.387411162839859" id="-19659">
		<tag k="bridge" v="yes" />
		<tag k="layer" v="1" />
		<tag k="name" v="Fridalbrua" />
		<tag k="ssr:stedsnr" v="85762" />
	</node>
	<node lat="67.23612222563422" lon="15.4090944472292" id="-19664">
		<tag k="highway" v="path" />
		<tag k="name" v="Gammelvegen" />
		<tag k="ssr:stedsnr" v="86835" />
	</node>
	<node lat="67.28430277912386" lon="15.200683340121966" id="-19698">
		<tag k="highway" v="path" />
		<tag k="name" v="Vikkovegen" />
		<tag k="ssr:stedsnr" v="116693" />
	</node>
	<node lat="67.24023055636658" lon="15.314605566981362" id="-19809">
		<tag k="highway" v="path" />
		<tag k="name" v="Øynesvegen" />
		<tag k="ssr:stedsnr" v="177683" />
	</node>
	<node lat="67.33105277414883" lon="15.283594432268764" id="-19859">
		<tag k="highway" v="path" />
		<tag k="name" v="Tverrveien" />
		<tag k="ssr:stedsnr" v="207435" />
	</node>
	<node lat="67.32285278136254" lon="15.181513891178602" id="-19862">
		<tag k="highway" v="path" />
		<tag k="name" v="Troveien" />
		<tag k="ssr:stedsnr" v="207520" />
	</node>
	<node lat="67.2579833317758" lon="15.453180565898055" id="-19868">
		<tag k="highway" v="path" />
		<tag k="name" v="Haugvegen" />
		<tag k="ssr:stedsnr" v="210659" />
	</node>
	<node lat="67.20462614656486" lon="15.63690240096577" id="-19906">
		<tag k="alt_name" v="Sjønståfjell" />
		<tag k="layer" v="-1" />
		<tag k="name" v="Sjønståfjelltunnelen" />
		<tag k="ssr:stedsnr" v="266774" />
		<tag k="tunnel" v="yes" />
	</node>
	<node lat="67.33036111053724" lon="15.460686102897478" id="-19978">
		<tag k="fixme" v="verify maritime location" />
		<tag k="mooring" v="yes" />
		<tag k="name" v="Åmastøa" />
		<tag k="place" v="locality" />
		<tag k="ssr:stedsnr" v="299019" />
	</node>
	<node lat="67.3510009048774" lon="15.261837699749279" id="-20012">
		<tag k="bridge" v="yes" />
		<tag k="layer" v="1" />
		<tag k="name" v="Lakselvbrua" />
		<tag k="ssr:stedsnr" v="328106" />
	</node>
	<node lat="67.3436888863971" lon="15.306775005978105" id="-20014">
		<tag k="fixme" v="consider highway=path" />
		<tag k="highway" v="track" />
		<tag k="name" v="Kroken" />
		<tag k="ssr:stedsnr" v="328187" />
	</node>
	<node lat="67.3849611148029" lon="15.33997221562919" id="-20024">
		<tag k="ford" v="yes" />
		<tag k="name" v="Breivadet" />
		<tag k="place" v="locality" />
		<tag k="ssr:stedsnr" v="328856" />
	</node>
	<node lat="67.08498888637101" lon="16.02712221797742" id="-20147">
		<tag k="junction" v="yes" />
		<tag k="name" v="Såkikrysset" />
		<tag k="place" v="locality" />
		<tag k="ssr:stedsnr" v="420786" />
	</node>
	<node lat="67.26754166331096" lon="15.414469438529633" id="-20166">
		<tag k="highway" v="path" />
		<tag k="name" v="Grønåsvegen" />
		<tag k="ssr:stedsnr" v="480401" />
	</node>
	<node lat="67.39428333162218" lon="15.333772217161915" id="-20247">
		<tag k="highway" v="path" />
		<tag k="name" v="Stoliveien" />
		<tag k="ssr:stedsnr" v="510885" />
	</node>
	<node lat="67.25727777951933" lon="15.158730563716784" id="-20248">
		<tag k="man_made" v="quay" />
		<tag k="name" v="Bryggetomta" />
		<tag k="place" v="locality" />
		<tag k="ssr:stedsnr" v="510752" />
	</node>
	<node lat="67.15514628265015" lon="15.972157394953097" id="-20269">
		<tag k="bridge" v="yes" />
		<tag k="layer" v="1" />
		<tag k="name" v="Avilonbrua" />
		<tag k="ssr:stedsnr" v="530792" />
	</node>
	<node lat="67.33213333762319" lon="15.193080556630717" id="-20547">
		<tag k="highway" v="path" />
		<tag k="name" v="Rødsandvegen" />
		<tag k="ssr:stedsnr" v="753523" />
	</node>
	<node lat="67.35192499827744" lon="15.511347218071204" id="-20555">
		<tag k="fixme" v="consider highway=path" />
		<tag k="highway" v="track" />
		<tag k="name" v="Tømmervegan" />
		<tag k="ssr:stedsnr" v="756846" />
	</node>
	<node lat="67.36882499815549" lon="15.248366667967007" id="-20722">
		<tag k="fixme" v="consider highway=path" />
		<tag k="highway" v="track" />
		<tag k="name" v="Fløyveien" />
		<tag k="ssr:stedsnr" v="874875" />
	</node>
	<node lat="67.38286944787498" lon="15.323122219529344" id="-20788">
		<tag k="ford" v="yes" />
		<tag k="name" v="Hestvadet" />
		<tag k="place" v="locality" />
		<tag k="ssr:stedsnr" v="935870" />
	</node>
	<node lat="67.30090555249224" lon="15.456266666340209" id="-20817">
		<tag k="ford" v="yes" />
		<tag k="name" v="Skyttvadet" />
		<tag k="place" v="locality" />
		<tag k="ssr:stedsnr" v="966083" />
	</node>
	<node lat="67.29103434661366" lon="15.218191699727603" id="-20834">
		<tag k="layer" v="-1" />
		<tag k="name" v="Røviktunnelen - Ruddatunælla" />
		<tag k="name:no" v="Røviktunnelen" />
		<tag k="name:smj" v="Ruddatunælla" />
		<tag k="ssr:stedsnr" v="974651" />
		<tag k="tunnel" v="yes" />
	</node>
</osm>
