<?xml version="1.0" encoding="UTF-8"?>
<osm generator="osmapis" version="0.6">
	<node id="-165886" lat="67.3284500012" lon="15.2736111091">
		<tag k="name" v="Mølnbakken" />
		<tag k="natural" v="slope" />
		<tag k="place" v="locality" />
		<tag k="ssr:stedsnr" v="24412" />
	</node>
	<node id="-165884" lat="67.3149777757" lon="15.302166673">
		<tag k="name" v="Dugmålstuva" />
		<tag k="natural" v="hill" />
		<tag k="place" v="locality" />
		<tag k="ssr:stedsnr" v="24305" />
	</node>
	<node id="-165883" lat="67.3535222183" lon="15.5195277768">
		<tag k="name" v="Bjørndalen" />
		<tag k="natural" v="valley" />
		<tag k="place" v="locality" />
		<tag k="ssr:stedsnr" v="24119" />
	</node>
	<node id="-165878" lat="67.2908444408" lon="15.5209805584">
		<tag k="name" v="Korsådalen" />
		<tag k="natural" v="valley" />
		<tag k="place" v="locality" />
		<tag k="ssr:stedsnr" v="16851" />
	</node>
	<node id="-165877" lat="67.304166667" lon="15.5557416674">
		<tag k="name" v="Tindhola - Jávrásjgåhpe" />
		<tag k="name:no" v="Tindhola" />
		<tag k="name:smj" v="Jávrásjgåhpe" />
		<tag k="natural" v="valley" />
		<tag k="old_name:smj" v="Jávrrašgohpi" />
		<tag k="place" v="locality" />
		<tag k="ssr:stedsnr" v="16832" />
	</node>
	<node id="-165876" lat="67.3202472182" lon="15.5929888848">
		<tag k="fixme" v="consider natural=peak for the most distinct mountains in the district" />
		<tag k="loc_name:smj" v="Bålle" />
		<tag k="name" v="Harlifjellet" />
		<tag k="name:no" v="Harlifjellet" />
		<tag k="natural" v="hill" />
		<tag k="place" v="locality" />
		<tag k="ssr:stedsnr" v="16808" />
	</node>
	<node id="-165871" lat="67.3273111125" lon="15.5739666558">
		<tag k="name" v="Raudlia" />
		<tag k="natural" v="slope" />
		<tag k="place" v="locality" />
		<tag k="ssr:stedsnr" v="16907" />
	</node>
	<node id="-165869" lat="67.4279111147" lon="15.343083344">
		<tag k="fixme" v="consider natural=peak for the most distinct mountains in the district" />
		<tag k="name" v="Dommakafjellet" />
		<tag k="natural" v="hill" />
		<tag k="place" v="locality" />
		<tag k="ssr:stedsnr" v="16530" />
	</node>
	<node id="-165868" lat="67.1907916657" lon="15.8366277798">
		<tag k="alt_name" v="Niermitinden" />
		<tag k="fixme" v="consider natural=peak for the most distinct mountains in the district" />
		<tag k="name" v="Nermitinden" />
		<tag k="natural" v="hill" />
		<tag k="place" v="locality" />
		<tag k="ssr:stedsnr" v="16211" />
	</node>
	<node id="-165867" lat="67.1647305546" lon="15.9371027714">
		<tag k="fixme" v="consider natural=peak for the most distinct mountains in the district" />
		<tag k="name" v="Danielheia" />
		<tag k="natural" v="hill" />
		<tag k="place" v="locality" />
		<tag k="ssr:stedsnr" v="16209" />
	</node>
	<node id="-165866" lat="67.1596388856" lon="15.7682472226">
		<tag k="name" v="Tjåresvágge" />
		<tag k="name:smj" v="Tjåresvágge" />
		<tag k="natural" v="valley" />
		<tag k="old_name:smj" v="Čoresvággi" />
		<tag k="place" v="locality" />
		<tag k="ssr:stedsnr" v="16208" />
	</node>
	<node id="-165865" lat="67.1677944404" lon="15.760286105">
		<tag k="alt_name" v="Stokkviknakkan" />
		<tag k="name" v="Stokkviknakken" />
		<tag k="natural" v="hill" />
		<tag k="place" v="locality" />
		<tag k="ssr:stedsnr" v="16206" />
	</node>
	<node id="-165864" lat="67.1550527757" lon="16.1005083358">
		<tag k="fixme" v="consider natural=peak for the most distinct mountains in the district" />
		<tag k="name" v="Koppartoppen" />
		<tag k="natural" v="hill" />
		<tag k="place" v="locality" />
		<tag k="ssr:stedsnr" v="16203" />
	</node>
	<node id="-167507" lat="67.3236972259" lon="15.1030361128">
		<tag k="name" v="Langbergheia" />
		<tag k="natural" v="hill" />
		<tag k="place" v="locality" />
		<tag k="ssr:stedsnr" v="208693" />
	</node>
	<node id="-167505" lat="67.3999611147" lon="15.3535222154">
		<tag k="name" v="Mastuklipa" />
		<tag k="natural" v="valley" />
		<tag k="place" v="locality" />
		<tag k="ssr:stedsnr" v="207775" />
	</node>
	<node id="-167504" lat="67.384605559" lon="15.4013416559">
		<tag k="name" v="Oksskaret" />
		<tag k="natural" v="valley" />
		<tag k="place" v="locality" />
		<tag k="ssr:stedsnr" v="207569" />
	</node>
	<node id="-167503" lat="67.3235611152" lon="15.1889249916">
		<tag k="name" v="Okslia" />
		<tag k="natural" v="slope" />
		<tag k="place" v="locality" />
		<tag k="ssr:stedsnr" v="207547" />
	</node>
	<node id="-167502" lat="67.3489083358" lon="15.1679527733">
		<tag k="name" v="Litlfjellbakkan" />
		<tag k="natural" v="slope" />
		<tag k="place" v="locality" />
		<tag k="ssr:stedsnr" v="207540" />
	</node>
	<node id="-167501" lat="67.3347583302" lon="15.2846250042">
		<tag k="name" v="Storhågen" />
		<tag k="natural" v="hill" />
		<tag k="place" v="locality" />
		<tag k="ssr:stedsnr" v="207441" />
	</node>
	<node id="-167499" lat="67.3425444472" lon="15.4408694339">
		<tag k="name" v="Holabåtheia" />
		<tag k="natural" v="hill" />
		<tag k="place" v="locality" />
		<tag k="ssr:stedsnr" v="207376" />
	</node>
	<node id="-167497" lat="67.2704333364" lon="15.3237083428">
		<tag k="name" v="Engelia" />
		<tag k="natural" v="slope" />
		<tag k="place" v="locality" />
		<tag k="ssr:stedsnr" v="207333" />
	</node>
	<node id="-167496" lat="67.3420722257" lon="15.2786222323">
		<tag k="name" v="Lofthammaren" />
		<tag k="natural" v="hill" />
		<tag k="place" v="locality" />
		<tag k="ssr:stedsnr" v="207188" />
	</node>
	<node id="-167493" lat="67.3701555542" lon="15.2697916583">
		<tag k="name" v="Eiterågmoen" />
		<tag k="place" v="locality" />
		<tag k="ssr:stedsnr" v="206894" />
	</node>
	<node id="-167492" lat="67.2563527774" lon="15.1916166698">
		<tag k="name" v="Jo-Tesseberget" />
		<tag k="natural" v="hill" />
		<tag k="place" v="locality" />
		<tag k="ssr:stedsnr" v="206784" />
	</node>
	<node id="-167490" lat="67.3358861125" lon="15.1556111108">
		<tag k="name" v="Høglisletta" />
		<tag k="place" v="locality" />
		<tag k="ssr:stedsnr" v="206693" />
	</node>
	<node id="-167487" lat="67.327541665" lon="15.2635611116">
		<tag k="name" v="Nordskytjehågen" />
		<tag k="natural" v="hill" />
		<tag k="place" v="locality" />
		<tag k="ssr:stedsnr" v="206452" />
	</node>
	<node id="-167479" lat="67.3527888895" lon="15.2432055625">
		<tag k="name" v="Kalvhaugen" />
		<tag k="natural" v="hill" />
		<tag k="place" v="locality" />
		<tag k="ssr:stedsnr" v="206058" />
	</node>
	<node id="-167478" lat="67.3386249982" lon="15.2308555513">
		<tag k="name" v="Låterhaugen" />
		<tag k="natural" v="hill" />
		<tag k="place" v="locality" />
		<tag k="ssr:stedsnr" v="206049" />
	</node>
	<node id="-167477" lat="67.3339777753" lon="15.2773555652">
		<tag k="name" v="Tusshaugen" />
		<tag k="natural" v="hill" />
		<tag k="place" v="locality" />
		<tag k="ssr:stedsnr" v="205501" />
	</node>
	<node id="-167475" lat="67.335825002" lon="15.1890222202">
		<tag k="name" v="Skrykkjebakkan" />
		<tag k="natural" v="slope" />
		<tag k="place" v="locality" />
		<tag k="ssr:stedsnr" v="202746" />
	</node>
	<node id="-167474" lat="67.3170888849" lon="15.1937555598">
		<tag k="fixme" v="consider natural=peak for the most distinct mountains in the district" />
		<tag k="name" v="Blåbergan" />
		<tag k="natural" v="hill" />
		<tag k="place" v="locality" />
		<tag k="ssr:stedsnr" v="202739" />
	</node>
	<node id="-167470" lat="67.3444111073" lon="15.0390694475">
		<tag k="fixme" v="consider natural=peak for the most distinct mountains in the district" />
		<tag k="name" v="Innertinden" />
		<tag k="natural" v="hill" />
		<tag k="place" v="locality" />
		<tag k="ssr:stedsnr" v="202759" />
	</node>
	<node id="-167469" lat="67.3376333373" lon="15.0638305634">
		<tag k="fixme" v="consider natural=peak for the most distinct mountains in the district" />
		<tag k="name" v="Kistrandfjellet" />
		<tag k="natural" v="hill" />
		<tag k="place" v="locality" />
		<tag k="ssr:stedsnr" v="202758" />
	</node>
	<node id="-167463" lat="67.4069138884" lon="15.2463360999">
		<tag k="fixme" v="consider natural=peak for the most distinct mountains in the district" />
		<tag k="name" v="Drogvassfjellet" />
		<tag k="natural" v="hill" />
		<tag k="place" v="locality" />
		<tag k="ssr:stedsnr" v="198946" />
	</node>
	<node id="-167461" lat="67.3575527764" lon="15.4512250054">
		<tag k="fixme" v="consider natural=peak for the most distinct mountains in the district" />
		<tag k="name" v="Kvitblikfjellet" />
		<tag k="natural" v="hill" />
		<tag k="place" v="locality" />
		<tag k="ssr:stedsnr" v="198875" />
	</node>
	<node id="-167456" lat="67.0985472199" lon="15.889472219">
		<tag k="fixme" v="consider natural=peak for the most distinct mountains in the district" />
		<tag k="name" v="Ávvilumtjåhkkå" />
		<tag k="name:smj" v="Ávvilumtjåhkkå" />
		<tag k="natural" v="hill" />
		<tag k="old_name:smj" v="Avvelunčohkka" />
		<tag k="place" v="locality" />
		<tag k="ssr:stedsnr" v="198187" />
	</node>
	<node id="-167451" lat="67.1525166686" lon="16.1410416769">
		<tag k="name" v="Kløfta" />
		<tag k="natural" v="valley" />
		<tag k="place" v="locality" />
		<tag k="ssr:stedsnr" v="177878" />
	</node>
	<node id="-167449" lat="67.2744444447" lon="15.094083335">
		<tag k="name" v="Trollhaugen" />
		<tag k="natural" v="hill" />
		<tag k="place" v="locality" />
		<tag k="ssr:stedsnr" v="177739" />
	</node>
	<node id="-167448" lat="67.2958694446" lon="15.3462139002">
		<tag k="name" v="Middagsmo" />
		<tag k="place" v="locality" />
		<tag k="ssr:stedsnr" v="177646" />
	</node>
	<node id="-167447" lat="67.2887444436" lon="15.3468750005">
		<tag k="name" v="Juliknubben" />
		<tag k="natural" v="hill" />
		<tag k="place" v="locality" />
		<tag k="ssr:stedsnr" v="177645" />
	</node>
	<node id="-167446" lat="67.1520555572" lon="16.0915083338">
		<tag k="name" v="Koppartopplia" />
		<tag k="natural" v="slope" />
		<tag k="place" v="locality" />
		<tag k="ssr:stedsnr" v="177876" />
	</node>
	<node id="-167443" lat="67.2158722255" lon="15.9440444363">
		<tag k="fixme" v="consider natural=peak for the most distinct mountains in the district" />
		<tag k="name" v="Stormfjellet" />
		<tag k="natural" v="hill" />
		<tag k="place" v="locality" />
		<tag k="ssr:stedsnr" v="177798" />
	</node>
	<node id="-167442" lat="67.2349944435" lon="15.28389723">
		<tag k="name" v="Svarthammaren" />
		<tag k="natural" v="hill" />
		<tag k="place" v="locality" />
		<tag k="ssr:stedsnr" v="177696" />
	</node>
	<node id="-167441" lat="67.2356388915" lon="15.2685055454">
		<tag k="name" v="Høglia" />
		<tag k="natural" v="slope" />
		<tag k="place" v="locality" />
		<tag k="ssr:stedsnr" v="177694" />
	</node>
	<node id="-167438" lat="67.2447027768" lon="15.2823444535">
		<tag k="name" v="Snekkvikberg" />
		<tag k="natural" v="hill" />
		<tag k="place" v="locality" />
		<tag k="ssr:stedsnr" v="177681" />
	</node>
	<node id="-167437" lat="67.223716669" lon="15.4919777784">
		<tag k="name" v="Altershola" />
		<tag k="natural" v="valley" />
		<tag k="place" v="locality" />
		<tag k="ssr:stedsnr" v="177401" />
	</node>
	<node id="-167436" lat="67.226150004" lon="15.5173999938">
		<tag k="name" v="Svarthammarskaret" />
		<tag k="natural" v="valley" />
		<tag k="place" v="locality" />
		<tag k="ssr:stedsnr" v="177392" />
	</node>
	<node id="-167434" lat="67.2230833312" lon="15.5439305561">
		<tag k="name" v="Ørrlemman" />
		<tag k="natural" v="hill" />
		<tag k="place" v="locality" />
		<tag k="ssr:stedsnr" v="177380" />
	</node>
	<node id="-167431" lat="67.3742916662" lon="15.352402786">
		<tag k="name" v="Storsteinen" />
		<tag k="natural" v="hill" />
		<tag k="place" v="locality" />
		<tag k="ssr:stedsnr" v="177284" />
	</node>
	<node id="-167430" lat="67.2587444474" lon="15.4953138879">
		<tag k="name" v="Krestihammaren" />
		<tag k="natural" v="hill" />
		<tag k="place" v="locality" />
		<tag k="ssr:stedsnr" v="177537" />
	</node>
	<node id="-167429" lat="67.2066555582" lon="15.4714833315">
		<tag k="name" v="Mefjelldalen" />
		<tag k="natural" v="valley" />
		<tag k="place" v="locality" />
		<tag k="ssr:stedsnr" v="177341" />
	</node>
	<node id="-167428" lat="67.3825138929" lon="15.2852999901">
		<tag k="name" v="Skyttelihammaren" />
		<tag k="natural" v="hill" />
		<tag k="place" v="locality" />
		<tag k="ssr:stedsnr" v="177331" />
	</node>
	<node id="-167426" lat="67.2097888888" lon="15.5989694511">
		<tag k="name" v="Austerlia" />
		<tag k="natural" v="slope" />
		<tag k="place" v="locality" />
		<tag k="ssr:stedsnr" v="177129" />
	</node>
	<node id="-167424" lat="67.3019111085" lon="15.4527777661">
		<tag k="name" v="Leirbuveien" />
		<tag k="place" v="locality" />
		<tag k="ssr:stedsnr" v="177075" />
	</node>
	<node id="-167422" lat="67.3027055521" lon="15.3997722147">
		<tag k="name" v="Brattlia" />
		<tag k="natural" v="slope" />
		<tag k="place" v="locality" />
		<tag k="ssr:stedsnr" v="177060" />
	</node>
	<node id="-167421" lat="67.3170166674" lon="15.4097249892">
		<tag k="name" v="Lillebuvegheia" />
		<tag k="natural" v="hill" />
		<tag k="place" v="locality" />
		<tag k="ssr:stedsnr" v="177050" />
	</node>
	<node id="-167416" lat="67.2398916653" lon="15.5322277817">
		<tag k="fixme" v="consider natural=peak for the most distinct mountains in the district" />
		<tag k="name" v="Nakken" />
		<tag k="natural" v="hill" />
		<tag k="place" v="locality" />
		<tag k="ssr:stedsnr" v="149629" />
	</node>
	<node id="-167415" lat="67.3049805573" lon="15.2132111056">
		<tag k="name" v="Leirvikhaugen" />
		<tag k="natural" v="hill" />
		<tag k="place" v="locality" />
		<tag k="ssr:stedsnr" v="149238" />
	</node>
	<node id="-167414" lat="67.3033166712" lon="15.2121638824">
		<tag k="name" v="Lahaugen" />
		<tag k="natural" v="hill" />
		<tag k="place" v="locality" />
		<tag k="ssr:stedsnr" v="149234" />
	</node>
	<node id="-167413" lat="67.3015777741" lon="15.2120777802">
		<tag k="name" v="Storsletta" />
		<tag k="place" v="locality" />
		<tag k="ssr:stedsnr" v="149230" />
	</node>
	<node id="-167410" lat="67.3507388885" lon="15.535158326">
		<tag k="name" v="Høghaugen" />
		<tag k="natural" v="hill" />
		<tag k="place" v="locality" />
		<tag k="ssr:stedsnr" v="147145" />
	</node>
	<node id="-167408" lat="67.4023111069" lon="15.4024777727">
		<tag k="name" v="Dalengsletta" />
		<tag k="place" v="locality" />
		<tag k="ssr:stedsnr" v="146519" />
	</node>
	<node id="-167406" lat="67.3909527819" lon="15.3298861048">
		<tag k="name" v="Husa-Petterbakken" />
		<tag k="natural" v="slope" />
		<tag k="place" v="locality" />
		<tag k="ssr:stedsnr" v="145838" />
	</node>
	<node id="-167402" lat="67.2547388928" lon="15.1705000116">
		<tag k="name" v="Smalbergan" />
		<tag k="natural" v="hill" />
		<tag k="place" v="locality" />
		<tag k="ssr:stedsnr" v="145696" />
	</node>
	<node id="-167399" lat="67.317169446" lon="15.262080564">
		<tag k="name" v="Vargsletta" />
		<tag k="place" v="locality" />
		<tag k="ssr:stedsnr" v="145394" />
	</node>
	<node id="-167398" lat="67.3426638846" lon="15.4570500039">
		<tag k="name" v="Lia" />
		<tag k="natural" v="slope" />
		<tag k="place" v="locality" />
		<tag k="ssr:stedsnr" v="145382" />
	</node>
	<node id="-167396" lat="67.3188694475" lon="15.3194527899">
		<tag k="name" v="Pe Sjurso-dalen" />
		<tag k="natural" v="valley" />
		<tag k="place" v="locality" />
		<tag k="ssr:stedsnr" v="145337" />
	</node>
	<node id="-167395" lat="67.3165916704" lon="15.2627472294">
		<tag k="name" v="Gammsletta" />
		<tag k="place" v="locality" />
		<tag k="ssr:stedsnr" v="145317" />
	</node>
	<node id="-167394" lat="67.3098611117" lon="15.2711944543">
		<tag k="fixme" v="consider natural=peak for the most distinct mountains in the district" />
		<tag k="name" v="Middagstuva" />
		<tag k="natural" v="hill" />
		<tag k="place" v="locality" />
		<tag k="ssr:stedsnr" v="145309" />
	</node>
	<node id="-167393" lat="67.334152778" lon="15.3463527807">
		<tag k="name" v="Midtilemmen" />
		<tag k="place" v="locality" />
		<tag k="ssr:stedsnr" v="145303" />
	</node>
	<node id="-167391" lat="67.4286618316" lon="15.3508032473">
		<tag k="name" v="Oksenget" />
		<tag k="natural" v="slope" />
		<tag k="place" v="locality" />
		<tag k="ssr:stedsnr" v="145265" />
	</node>
	<node id="-167388" lat="67.3428805575" lon="15.2681472292">
		<tag k="name" v="Utfallet" />
		<tag k="natural" v="slope" />
		<tag k="place" v="locality" />
		<tag k="ssr:stedsnr" v="145188" />
	</node>
	<node id="-167385" lat="67.3544361114" lon="15.2515166774">
		<tag k="fixme" v="consider natural=peak for the most distinct mountains in the district" />
		<tag k="name" v="Rabban" />
		<tag k="natural" v="hill" />
		<tag k="place" v="locality" />
		<tag k="ssr:stedsnr" v="145139" />
	</node>
	<node id="-167384" lat="67.3459277791" lon="15.2084583441">
		<tag k="name" v="Sandbakken" />
		<tag k="natural" v="slope" />
		<tag k="place" v="locality" />
		<tag k="ssr:stedsnr" v="145045" />
	</node>
	<node id="-167381" lat="67.3334388863" lon="15.2674611126">
		<tag k="name" v="Anders Steinarso-hågen" />
		<tag k="natural" v="hill" />
		<tag k="place" v="locality" />
		<tag k="ssr:stedsnr" v="144538" />
	</node>
	<node id="-167380" lat="67.3294888847" lon="15.3048083352">
		<tag k="fixme" v="consider natural=peak for the most distinct mountains in the district" />
		<tag k="name" v="Høgknubben" />
		<tag k="natural" v="hill" />
		<tag k="place" v="locality" />
		<tag k="ssr:stedsnr" v="144496" />
	</node>
	<node id="-167378" lat="67.4159111154" lon="15.214274993">
		<tag k="fixme" v="consider natural=peak for the most distinct mountains in the district" />
		<tag k="name" v="Drogvasstinden" />
		<tag k="natural" v="hill" />
		<tag k="place" v="locality" />
		<tag k="ssr:stedsnr" v="141565" />
	</node>
	<node id="-167377" lat="67.3304111104" lon="15.106113883">
		<tag k="name" v="Djupdalen" />
		<tag k="natural" v="valley" />
		<tag k="place" v="locality" />
		<tag k="ssr:stedsnr" v="140735" />
	</node>
	<node id="-167373" lat="67.3949972201" lon="15.4284111133">
		<tag k="name" v="Austerdalen" />
		<tag k="natural" v="valley" />
		<tag k="place" v="locality" />
		<tag k="ssr:stedsnr" v="137957" />
	</node>
	<node id="-167368" lat="67.2313083338" lon="15.4825694558">
		<tag k="name" v="Lappgamhøgda" />
		<tag k="natural" v="hill" />
		<tag k="place" v="locality" />
		<tag k="ssr:stedsnr" v="137932" />
	</node>
	<node id="-167365" lat="67.1233333372" lon="15.7110250044">
		<tag k="fixme" v="consider natural=peak for the most distinct mountains in the district" />
		<tag k="name" v="Stålberget - Stállebákte" />
		<tag k="name:no" v="Stålberget" />
		<tag k="name:smj" v="Stállebákte" />
		<tag k="natural" v="hill" />
		<tag k="old_name:smj" v="Stállebákti" />
		<tag k="place" v="locality" />
		<tag k="ssr:stedsnr" v="137740" />
	</node>
	<node id="-167362" lat="67.266088893" lon="15.5081055628">
		<tag k="name" v="Melkerdalen" />
		<tag k="natural" v="valley" />
		<tag k="place" v="locality" />
		<tag k="ssr:stedsnr" v="137722" />
	</node>
	<node id="-167359" lat="67.3605861116" lon="15.3421722306">
		<tag k="fixme" v="consider natural=peak for the most distinct mountains in the district" />
		<tag k="name" v="Brennheiklumpen" />
		<tag k="natural" v="hill" />
		<tag k="place" v="locality" />
		<tag k="ssr:stedsnr" v="137869" />
	</node>
	<node id="-167358" lat="67.3564083314" lon="15.3425972103">
		<tag k="name" v="Petter-Joheimen" />
		<tag k="natural" v="hill" />
		<tag k="place" v="locality" />
		<tag k="ssr:stedsnr" v="137865" />
	</node>
	<node id="-167356" lat="67.4409888913" lon="15.2448388833">
		<tag k="fixme" v="consider natural=peak for the most distinct mountains in the district" />
		<tag k="name" v="Middagstinden" />
		<tag k="natural" v="hill" />
		<tag k="ssr:stedsnr" v="137498" />
	</node>
	<node id="-167355" lat="67.439047226" lon="15.2461333239">
		<tag k="fixme" v="consider natural=peak for the most distinct mountains in the district" />
		<tag k="name" v="Vassviktindan" />
		<tag k="natural" v="hill" />
		<tag k="place" v="locality" />
		<tag k="ssr:stedsnr" v="137486" />
	</node>
	<node id="-167354" lat="67.1490388858" lon="15.7431027666">
		<tag k="alt_name:no" v="Tverråfjellet, litle;Littj-Tverråfjellet" />
		<tag k="fixme" v="consider natural=peak for the most distinct mountains in the district" />
		<tag k="name" v="Litle Tverråfjellet - Unnavárásj" />
		<tag k="name:no" v="Litle Tverråfjellet" />
		<tag k="name:smj" v="Unnavárásj" />
		<tag k="natural" v="hill" />
		<tag k="old_name:smj" v="Unnaváraš" />
		<tag k="place" v="locality" />
		<tag k="ssr:stedsnr" v="137198" />
	</node>
	<node id="-167349" lat="67.1260583347" lon="15.9906388798">
		<tag k="fixme" v="consider natural=peak for the most distinct mountains in the district" />
		<tag k="name" v="Gjertrudfjellet" />
		<tag k="natural" v="hill" />
		<tag k="place" v="locality" />
		<tag k="ssr:stedsnr" v="137183" />
	</node>
	<node id="-167344" lat="67.2632805536" lon="16.278752773">
		<tag k="name" v="Skagmadalen" />
		<tag k="natural" v="valley" />
		<tag k="place" v="locality" />
		<tag k="ssr:stedsnr" v="137285" />
	</node>
	<node id="-167343" lat="67.2628194412" lon="15.8144166671">
		<tag k="name" v="Vassheia" />
		<tag k="natural" v="hill" />
		<tag k="place" v="locality" />
		<tag k="ssr:stedsnr" v="137283" />
	</node>
	<node id="-167339" lat="67.2130499989" lon="15.5934749884">
		<tag k="fixme" v="consider natural=peak for the most distinct mountains in the district" />
		<tag k="name" v="Middagsfloget" />
		<tag k="natural" v="hill" />
		<tag k="place" v="locality" />
		<tag k="ssr:stedsnr" v="117260" />
	</node>
	<node id="-167335" lat="67.3191333297" lon="15.4402527735">
		<tag k="name" v="Røsimohaugen" />
		<tag k="natural" v="hill" />
		<tag k="place" v="locality" />
		<tag k="ssr:stedsnr" v="117025" />
	</node>
	<node id="-167334" lat="67.3192722182" lon="15.4041166733">
		<tag k="name" v="Tjønnhaugen" />
		<tag k="natural" v="hill" />
		<tag k="place" v="locality" />
		<tag k="ssr:stedsnr" v="117017" />
	</node>
	<node id="-167329" lat="67.2780972182" lon="15.1854583238">
		<tag k="name" v="Gongskarhågen" />
		<tag k="natural" v="hill" />
		<tag k="place" v="locality" />
		<tag k="ssr:stedsnr" v="116689" />
	</node>
	<node id="-167328" lat="67.2836694408" lon="15.2264833223">
		<tag k="fixme" v="consider natural=peak for the most distinct mountains in the district" />
		<tag k="name" v="Grønlihammaren" />
		<tag k="natural" v="hill" />
		<tag k="place" v="locality" />
		<tag k="ssr:stedsnr" v="116683" />
	</node>
	<node id="-167326" lat="67.2913555578" lon="15.3712861113">
		<tag k="name" v="Stormo" />
		<tag k="place" v="locality" />
		<tag k="ssr:stedsnr" v="116641" />
	</node>
	<node id="-167323" lat="67.0953222231" lon="16.0986694344">
		<tag k="name" v="Middagshågen" />
		<tag k="natural" v="hill" />
		<tag k="place" v="locality" />
		<tag k="ssr:stedsnr" v="116751" />
	</node>
	<node id="-167321" lat="67.2140333372" lon="15.4378222304">
		<tag k="name" v="Gylskjærlia" />
		<tag k="natural" v="slope" />
		<tag k="place" v="locality" />
		<tag k="ssr:stedsnr" v="116388" />
	</node>
	<node id="-167320" lat="67.2221666672" lon="15.517547214">
		<tag k="name" v="Høgkjelia" />
		<tag k="natural" v="slope" />
		<tag k="place" v="locality" />
		<tag k="ssr:stedsnr" v="116363" />
	</node>
	<node id="-167319" lat="67.3886138877" lon="15.2697333293">
		<tag k="name" v="Legdstorhaugen" />
		<tag k="natural" v="hill" />
		<tag k="place" v="locality" />
		<tag k="ssr:stedsnr" v="116301" />
	</node>
	<node id="-167318" lat="67.202130554" lon="15.5219055457">
		<tag k="name" v="Tverrlihamran" />
		<tag k="natural" v="hill" />
		<tag k="place" v="locality" />
		<tag k="ssr:stedsnr" v="116297" />
	</node>
	<node id="-167317" lat="67.4168388916" lon="15.2985222142">
		<tag k="name" v="Midtiskaret" />
		<tag k="natural" v="valley" />
		<tag k="place" v="locality" />
		<tag k="ssr:stedsnr" v="116278" />
	</node>
	<node id="-167313" lat="67.349450001" lon="15.466569456">
		<tag k="name" v="Svartflogan" />
		<tag k="natural" v="hill" />
		<tag k="place" v="locality" />
		<tag k="ssr:stedsnr" v="116097" />
	</node>
	<node id="-167312" lat="67.3049305519" lon="15.4510472124">
		<tag k="name" v="Lilleberghaugen" />
		<tag k="natural" v="hill" />
		<tag k="place" v="locality" />
		<tag k="ssr:stedsnr" v="116095" />
	</node>
	<node id="-167311" lat="67.3175833293" lon="15.4161944388">
		<tag k="name" v="Storvasslia" />
		<tag k="natural" v="slope" />
		<tag k="place" v="locality" />
		<tag k="ssr:stedsnr" v="116073" />
	</node>
	<node id="-167309" lat="67.3296194456" lon="15.5320055626">
		<tag k="name" v="Høglia" />
		<tag k="natural" v="slope" />
		<tag k="place" v="locality" />
		<tag k="ssr:stedsnr" v="116053" />
	</node>
	<node id="-167307" lat="67.406272224" lon="15.4048666678">
		<tag k="name" v="Molund" />
		<tag k="place" v="locality" />
		<tag k="ssr:stedsnr" v="116121" />
	</node>
	<node id="-167303" lat="67.1854166707" lon="16.2844638807">
		<tag k="fixme" v="consider natural=peak for the most distinct mountains in the district" />
		<tag k="name" v="Sårjåstjåhkkå" />
		<tag k="name:smj" v="Sårjåstjåhkkå" />
		<tag k="natural" v="hill" />
		<tag k="old_name:smj" v="Sorjosčohkka" />
		<tag k="ssr:stedsnr" v="95143" />
	</node>
	<node id="-167302" lat="67.0841333365" lon="16.3577805493">
		<tag k="fixme" v="consider natural=peak for the most distinct mountains in the district" />
		<tag k="name" v="Lájrrovárre" />
		<tag k="name:smj" v="Lájrrovárre" />
		<tag k="natural" v="hill" />
		<tag k="old_name:smj" v="Láiruvárri" />
		<tag k="place" v="locality" />
		<tag k="ssr:stedsnr" v="95135" />
	</node>
	<node id="-167301" lat="67.2206833325" lon="15.3999749907">
		<tag k="name" v="Hannafloget" />
		<tag k="natural" v="hill" />
		<tag k="place" v="locality" />
		<tag k="ssr:stedsnr" v="89868" />
	</node>
	<node id="-167289" lat="67.2506583311" lon="15.4786555516">
		<tag k="name" v="Nerpålan" />
		<tag k="place" v="locality" />
		<tag k="ssr:stedsnr" v="88036" />
	</node>
	<node id="-167288" lat="67.3253333319" lon="15.1801527711">
		<tag k="name" v="Gjerdbakkan" />
		<tag k="natural" v="slope" />
		<tag k="place" v="locality" />
		<tag k="ssr:stedsnr" v="87543" />
	</node>
	<node id="-167287" lat="67.3076249987" lon="15.2472138989">
		<tag k="name" v="Sørskykkjehaugen" />
		<tag k="natural" v="hill" />
		<tag k="place" v="locality" />
		<tag k="ssr:stedsnr" v="87676" />
	</node>
	<node id="-167285" lat="67.2722611091" lon="15.4232166638">
		<tag k="name" v="Buvegheia" />
		<tag k="natural" v="hill" />
		<tag k="place" v="locality" />
		<tag k="ssr:stedsnr" v="86935" />
	</node>
	<node id="-167284" lat="67.2361138915" lon="15.4229638818">
		<tag k="fixme" v="consider natural=peak for the most distinct mountains in the district" />
		<tag k="name" v="Krytja" />
		<tag k="natural" v="hill" />
		<tag k="place" v="locality" />
		<tag k="ssr:stedsnr" v="86836" />
	</node>
	<node id="-167282" lat="67.3364972248" lon="15.164750004">
		<tag k="name" v="Gauklia" />
		<tag k="natural" v="slope" />
		<tag k="place" v="locality" />
		<tag k="ssr:stedsnr" v="86699" />
	</node>
	<node id="-167280" lat="67.3208861092" lon="15.1820249974">
		<tag k="name" v="Bukkebergan" />
		<tag k="natural" v="hill" />
		<tag k="place" v="locality" />
		<tag k="ssr:stedsnr" v="86562" />
	</node>
	<node id="-167279" lat="67.2981944427" lon="15.1637222275">
		<tag k="name" v="Hestekkerbakken" />
		<tag k="natural" v="slope" />
		<tag k="place" v="locality" />
		<tag k="ssr:stedsnr" v="86330" />
	</node>
	<node id="-167273" lat="67.3806916705" lon="15.2510694371">
		<tag k="fixme" v="consider natural=peak for the most distinct mountains in the district" />
		<tag k="name" v="Ramnfloget" />
		<tag k="natural" v="hill" />
		<tag k="place" v="locality" />
		<tag k="ssr:stedsnr" v="85777" />
	</node>
	<node id="-167266" lat="67.3540722212" lon="15.3030638886">
		<tag k="name" v="Lasshaugen" />
		<tag k="natural" v="hill" />
		<tag k="place" v="locality" />
		<tag k="ssr:stedsnr" v="85183" />
	</node>
	<node id="-167264" lat="67.3320722233" lon="15.2725527763">
		<tag k="name" v="Stongliberget" />
		<tag k="natural" v="hill" />
		<tag k="place" v="locality" />
		<tag k="ssr:stedsnr" v="85348" />
	</node>
	<node id="-167262" lat="67.2957194442" lon="15.1528250061">
		<tag k="name" v="Gråtvollen" />
		<tag k="natural" v="hill" />
		<tag k="place" v="locality" />
		<tag k="ssr:stedsnr" v="85238" />
	</node>
	<node id="-167260" lat="67.3319222207" lon="15.1672416602">
		<tag k="name" v="Storhaugen" />
		<tag k="natural" v="hill" />
		<tag k="place" v="locality" />
		<tag k="ssr:stedsnr" v="85227" />
	</node>
	<node id="-167259" lat="67.3400222263" lon="15.2745527692">
		<tag k="name" v="Tronghola" />
		<tag k="natural" v="valley" />
		<tag k="place" v="locality" />
		<tag k="ssr:stedsnr" v="85149" />
	</node>
	<node id="-167258" lat="67.3548638889" lon="15.1984055603">
		<tag k="fixme" v="consider natural=peak for the most distinct mountains in the district" />
		<tag k="name" v="Lifjellet" />
		<tag k="natural" v="hill" />
		<tag k="place" v="locality" />
		<tag k="ssr:stedsnr" v="85026" />
	</node>
	<node id="-167256" lat="67.346372224" lon="15.0429527682">
		<tag k="fixme" v="consider natural=peak for the most distinct mountains in the district" />
		<tag k="name" v="Kistrandtindan" />
		<tag k="natural" v="hill" />
		<tag k="ssr:stedsnr" v="81715" />
	</node>
	<node id="-167251" lat="67.2690694431" lon="15.1955000047">
		<tag k="name" v="Storlia" />
		<tag k="natural" v="slope" />
		<tag k="place" v="locality" />
		<tag k="ssr:stedsnr" v="81452" />
	</node>
	<node id="-167246" lat="67.4032527732" lon="15.4884138965">
		<tag k="fixme" v="consider natural=peak for the most distinct mountains in the district" />
		<tag k="name" v="Hammarfallfjellet" />
		<tag k="natural" v="hill" />
		<tag k="place" v="locality" />
		<tag k="ssr:stedsnr" v="77951" />
	</node>
	<node id="-167240" lat="67.2356861138" lon="15.2981027703">
		<tag k="fixme" v="consider natural=peak for the most distinct mountains in the district" />
		<tag k="name" v="Veten" />
		<tag k="natural" v="hill" />
		<tag k="place" v="locality" />
		<tag k="ssr:stedsnr" v="77936" />
	</node>
	<node id="-167238" lat="67.2396999979" lon="15.2877888917">
		<tag k="name" v="Øyneshøgda" />
		<tag k="natural" v="hill" />
		<tag k="place" v="locality" />
		<tag k="ssr:stedsnr" v="77922" />
	</node>
	<node id="-167236" lat="67.3428638895" lon="15.3313138946">
		<tag k="name" v="Toktdalen" />
		<tag k="natural" v="valley" />
		<tag k="place" v="locality" />
		<tag k="ssr:stedsnr" v="77910" />
	</node>
	<node id="-167233" lat="67.2851555524" lon="15.5429055443">
		<tag k="name" v="Bjørnhaugan" />
		<tag k="natural" v="hill" />
		<tag k="place" v="locality" />
		<tag k="ssr:stedsnr" v="77857" />
	</node>
	<node id="-167230" lat="67.2547888878" lon="15.6533305544">
		<tag k="fixme" v="consider natural=peak for the most distinct mountains in the district" />
		<tag k="name" v="Tverrstigfjellet" />
		<tag k="natural" v="hill" />
		<tag k="place" v="locality" />
		<tag k="ssr:stedsnr" v="77778" />
	</node>
	<node id="-167227" lat="67.4513944456" lon="15.2686277665">
		<tag k="fixme" v="consider natural=peak for the most distinct mountains in the district" />
		<tag k="name" v="Preikstoltinden" />
		<tag k="natural" v="hill" />
		<tag k="place" v="locality" />
		<tag k="ssr:stedsnr" v="77509" />
	</node>
	<node id="-167225" lat="67.1760750032" lon="15.8342666707">
		<tag k="name" v="Áhtse" />
		<tag k="name:smj" v="Áhtse" />
		<tag k="natural" v="hill" />
		<tag k="old_name:smj" v="Áhci" />
		<tag k="place" v="locality" />
		<tag k="ssr:stedsnr" v="77249" />
	</node>
	<node id="-167223" lat="67.1643000028" lon="15.8220472131">
		<tag k="name" v="Tjåres" />
		<tag k="name:smj" v="Tjåres" />
		<tag k="natural" v="hill" />
		<tag k="old_name:smj" v="Čoris" />
		<tag k="place" v="locality" />
		<tag k="ssr:stedsnr" v="77232" />
	</node>
	<node id="-167217" lat="67.2963833337" lon="15.4600333413">
		<tag k="name" v="Fauskeeidet" />
		<tag k="natural" v="valley" />
		<tag k="place" v="locality" />
		<tag k="ssr:stedsnr" v="76828" />
	</node>
	<node id="-167212" lat="67.1327527769" lon="16.1206888825">
		<tag k="name" v="Ryphola" />
		<tag k="natural" v="valley" />
		<tag k="place" v="locality" />
		<tag k="ssr:stedsnr" v="56859" />
	</node>
	<node id="-167211" lat="67.2894083357" lon="15.1847111001">
		<tag k="name" v="Heia" />
		<tag k="natural" v="hill" />
		<tag k="place" v="locality" />
		<tag k="ssr:stedsnr" v="56736" />
	</node>
	<node id="-167209" lat="67.2860361151" lon="15.1841750015">
		<tag k="name" v="Moa" />
		<tag k="place" v="locality" />
		<tag k="ssr:stedsnr" v="56728" />
	</node>
	<node id="-167208" lat="67.286858332" lon="15.2017972322">
		<tag k="name" v="Vedbrottsletta" />
		<tag k="place" v="locality" />
		<tag k="ssr:stedsnr" v="56724" />
	</node>
	<node id="-167207" lat="67.2763749979" lon="15.1836138882">
		<tag k="name" v="Furuhågen" />
		<tag k="natural" v="hill" />
		<tag k="place" v="locality" />
		<tag k="ssr:stedsnr" v="56720" />
	</node>
	<node id="-167206" lat="67.2858694454" lon="15.2177083395">
		<tag k="name" v="Tverrlia" />
		<tag k="natural" v="slope" />
		<tag k="place" v="locality" />
		<tag k="ssr:stedsnr" v="56717" />
	</node>
	<node id="-167204" lat="67.2392083319" lon="15.2752833367">
		<tag k="name" v="Mehågen" />
		<tag k="natural" v="hill" />
		<tag k="place" v="locality" />
		<tag k="ssr:stedsnr" v="56675" />
	</node>
	<node id="-167201" lat="67.263772225" lon="15.5283666652">
		<tag k="name" v="Reingarden" />
		<tag k="natural" v="valley" />
		<tag k="place" v="locality" />
		<tag k="ssr:stedsnr" v="56525" />
	</node>
	<node id="-167200" lat="67.2761055601" lon="15.538844443">
		<tag k="name" v="Bjørnhågen" />
		<tag k="natural" v="hill" />
		<tag k="place" v="locality" />
		<tag k="ssr:stedsnr" v="56480" />
	</node>
	<node id="-167197" lat="67.2088999987" lon="15.4608166661">
		<tag k="name" v="Geitbakkan" />
		<tag k="natural" v="slope" />
		<tag k="place" v="locality" />
		<tag k="ssr:stedsnr" v="56348" />
	</node>
	<node id="-167196" lat="67.389205557" lon="15.3061000084">
		<tag k="name" v="Jordbruheia" />
		<tag k="natural" v="hill" />
		<tag k="place" v="locality" />
		<tag k="ssr:stedsnr" v="56331" />
	</node>
	<node id="-167195" lat="67.4029249999" lon="15.30758334">
		<tag k="name" v="Gleinlia" />
		<tag k="natural" v="slope" />
		<tag k="place" v="locality" />
		<tag k="ssr:stedsnr" v="56290" />
	</node>
	<node id="-167194" lat="67.3975166644" lon="15.3123388987">
		<tag k="name" v="Graurvasslia" />
		<tag k="natural" v="slope" />
		<tag k="place" v="locality" />
		<tag k="ssr:stedsnr" v="56289" />
	</node>
	<node id="-167193" lat="67.2371750043" lon="15.6549611014">
		<tag k="fixme" v="consider natural=peak for the most distinct mountains in the district" />
		<tag k="name" v="Flatfjellet" />
		<tag k="natural" v="hill" />
		<tag k="place" v="locality" />
		<tag k="ssr:stedsnr" v="56192" />
	</node>
	<node id="-167192" lat="67.2523694467" lon="15.6142611054">
		<tag k="name" v="Engekjølvikdalen" />
		<tag k="natural" v="valley" />
		<tag k="place" v="locality" />
		<tag k="ssr:stedsnr" v="56148" />
	</node>
	<node id="-167191" lat="67.2069027742" lon="15.5742388809">
		<tag k="name" v="Sølliheian" />
		<tag k="natural" v="hill" />
		<tag k="place" v="locality" />
		<tag k="ssr:stedsnr" v="56135" />
	</node>
	<node id="-167189" lat="67.4230611086" lon="15.4170083338">
		<tag k="name" v="Rundvasslia" />
		<tag k="natural" v="slope" />
		<tag k="place" v="locality" />
		<tag k="ssr:stedsnr" v="56087" />
	</node>
	<node id="-167188" lat="67.0706638914" lon="16.0116111072">
		<tag k="name" v="Setsålia" />
		<tag k="natural" v="slope" />
		<tag k="place" v="locality" />
		<tag k="ssr:stedsnr" v="55746" />
	</node>
	<node id="-167185" lat="67.2903333375" lon="15.4821555478">
		<tag k="name" v="Austerli" />
		<tag k="natural" v="slope" />
		<tag k="place" v="locality" />
		<tag k="ssr:stedsnr" v="55379" />
	</node>
	<node id="-167184" lat="67.229758335" lon="15.4036083359">
		<tag k="name" v="Steinhågen" />
		<tag k="natural" v="hill" />
		<tag k="place" v="locality" />
		<tag k="ssr:stedsnr" v="55334" />
	</node>
	<node id="-167183" lat="67.2292361131" lon="15.6066777841">
		<tag k="name" v="Gaphågen" />
		<tag k="natural" v="hill" />
		<tag k="place" v="locality" />
		<tag k="ssr:stedsnr" v="55226" />
	</node>
	<node id="-167182" lat="67.2271416632" lon="15.6171138887">
		<tag k="name" v="Øverstidalen" />
		<tag k="natural" v="valley" />
		<tag k="place" v="locality" />
		<tag k="ssr:stedsnr" v="55225" />
	</node>
	<node id="-167176" lat="67.2498194456" lon="15.5216333374">
		<tag k="name" v="Sighammarhaugen" />
		<tag k="natural" v="hill" />
		<tag k="place" v="locality" />
		<tag k="ssr:stedsnr" v="28534" />
	</node>
	<node id="-167174" lat="67.295983331" lon="15.1758138859">
		<tag k="fixme" v="consider natural=peak for the most distinct mountains in the district" />
		<tag k="name" v="Løkåsåsen" />
		<tag k="natural" v="hill" />
		<tag k="place" v="locality" />
		<tag k="ssr:stedsnr" v="28256" />
	</node>
	<node id="-167173" lat="67.2391472215" lon="15.5365555543">
		<tag k="fixme" v="consider natural=peak for the most distinct mountains in the district" />
		<tag k="name" v="Heimefjellet" />
		<tag k="natural" v="hill" />
		<tag k="place" v="locality" />
		<tag k="ssr:stedsnr" v="26998" />
	</node>
	<node id="-167171" lat="67.3198416632" lon="15.1766166603">
		<tag k="name" v="Oterhola" />
		<tag k="natural" v="valley" />
		<tag k="place" v="locality" />
		<tag k="ssr:stedsnr" v="26559" />
	</node>
	<node id="-167166" lat="67.3237075037" lon="15.0903453823">
		<tag k="name" v="Johan Isaksoplassen" />
		<tag k="place" v="locality" />
		<tag k="ssr:stedsnr" v="25353" />
	</node>
	<node id="-167165" lat="67.3668694437" lon="15.2474527724">
		<tag k="name" v="Snelia" />
		<tag k="natural" v="slope" />
		<tag k="place" v="locality" />
		<tag k="ssr:stedsnr" v="24878" />
	</node>
	<node id="-167163" lat="67.3719250036" lon="15.3117305536">
		<tag k="name" v="Forsbakken" />
		<tag k="natural" v="slope" />
		<tag k="place" v="locality" />
		<tag k="ssr:stedsnr" v="24831" />
	</node>
	<node id="-167157" lat="67.3214166688" lon="15.262583328">
		<tag k="name" v="Steinbakkan" />
		<tag k="natural" v="slope" />
		<tag k="place" v="locality" />
		<tag k="ssr:stedsnr" v="24469" />
	</node>
	<node id="-167153" lat="67.3248416624" lon="15.3341694511">
		<tag k="name" v="Løyndalen" />
		<tag k="natural" v="valley" />
		<tag k="place" v="locality" />
		<tag k="ssr:stedsnr" v="24386" />
	</node>
	<node id="-167151" lat="67.3273138928" lon="15.3072777862">
		<tag k="name" v="Vakkerhågen" />
		<tag k="natural" v="hill" />
		<tag k="place" v="locality" />
		<tag k="ssr:stedsnr" v="24354" />
	</node>
	<node id="-167150" lat="67.3032472183" lon="15.2585666619">
		<tag k="name" v="Johanneslia" />
		<tag k="natural" v="slope" />
		<tag k="place" v="locality" />
		<tag k="ssr:stedsnr" v="24328" />
	</node>
	<node id="-167149" lat="67.3072972232" lon="15.2840249945">
		<tag k="name" v="Tverrlia" />
		<tag k="natural" v="slope" />
		<tag k="place" v="locality" />
		<tag k="ssr:stedsnr" v="24321" />
	</node>
	<node id="-167147" lat="67.3028083309" lon="15.3187611046">
		<tag k="name" v="Stordalen" />
		<tag k="natural" v="valley" />
		<tag k="place" v="locality" />
		<tag k="ssr:stedsnr" v="24312" />
	</node>
	<node id="-167141" lat="67.3370111091" lon="15.3763972119">
		<tag k="name" v="Olahellaren" />
		<tag k="place" v="locality" />
		<tag k="ssr:stedsnr" v="23387" />
	</node>
	<node id="-167140" lat="67.3325222265" lon="15.2941444364">
		<tag k="name" v="Blomlia" />
		<tag k="natural" v="slope" />
		<tag k="place" v="locality" />
		<tag k="ssr:stedsnr" v="23555" />
	</node>
	<node id="-167138" lat="67.3004944458" lon="15.254133331">
		<tag k="name" v="Hagneslia" />
		<tag k="natural" v="slope" />
		<tag k="place" v="locality" />
		<tag k="ssr:stedsnr" v="23377" />
	</node>
	<node id="-167137" lat="67.3456722249" lon="15.2235499917">
		<tag k="name" v="Tjønnramoen" />
		<tag k="place" v="locality" />
		<tag k="ssr:stedsnr" v="23070" />
	</node>
	<node id="-167132" lat="67.3735000041" lon="15.1997916752">
		<tag k="alt_name" v="Nattmålstuva, nordre" />
		<tag k="fixme" v="consider natural=peak for the most distinct mountains in the district" />
		<tag k="name" v="Nordre Nattmålstuva" />
		<tag k="natural" v="hill" />
		<tag k="place" v="locality" />
		<tag k="ssr:stedsnr" v="20736" />
	</node>
	<node id="-167129" lat="67.3566055586" lon="15.3848305448">
		<tag k="fixme" v="consider natural=peak for the most distinct mountains in the district" />
		<tag k="name" v="Kosmofjellet" />
		<tag k="natural" v="hill" />
		<tag k="place" v="locality" />
		<tag k="ssr:stedsnr" v="16873" />
	</node>
	<node id="-167128" lat="67.2352805547" lon="15.7792083351">
		<tag k="alt_name" v="Sveåskardet" />
		<tag k="name" v="Sveåskaret" />
		<tag k="natural" v="valley" />
		<tag k="place" v="locality" />
		<tag k="ssr:stedsnr" v="16868" />
	</node>
	<node id="-167126" lat="67.2819583324" lon="15.3542027747">
		<tag k="name" v="Esinghaugen" />
		<tag k="natural" v="hill" />
		<tag k="place" v="locality" />
		<tag k="ssr:stedsnr" v="16862" />
	</node>
	<node id="-167125" lat="67.2218555574" lon="15.7918000054">
		<tag k="fixme" v="consider natural=peak for the most distinct mountains in the district" />
		<tag k="name" v="Sveåtinden" />
		<tag k="natural" v="hill" />
		<tag k="place" v="locality" />
		<tag k="ssr:stedsnr" v="16859" />
	</node>
	<node id="-167124" lat="67.2522277778" lon="15.5001416626">
		<tag k="name" v="Mostilia" />
		<tag k="natural" v="slope" />
		<tag k="place" v="locality" />
		<tag k="ssr:stedsnr" v="16751" />
	</node>
	<node id="-167120" lat="67.3870055577" lon="15.2937666741">
		<tag k="name" v="Jordbrulian" />
		<tag k="natural" v="slope" />
		<tag k="place" v="locality" />
		<tag k="ssr:stedsnr" v="16955" />
	</node>
	<node id="-167119" lat="67.2102861143" lon="15.4895527674">
		<tag k="alt_name" v="Storhaug" />
		<tag k="name" v="Storhågen" />
		<tag k="natural" v="hill" />
		<tag k="place" v="locality" />
		<tag k="ssr:stedsnr" v="16951" />
	</node>
	<node id="-167117" lat="67.4410888936" lon="15.2448194347">
		<tag k="fixme" v="consider natural=peak for the most distinct mountains in the district" />
		<tag k="name" v="Midtiskartinden" />
		<tag k="natural" v="hill" />
		<tag k="ssr:stedsnr" v="16483" />
	</node>
	<node id="-167089" lat="67.141366666" lon="16.0368305511">
		<tag k="name" v="Mons Petter" />
		<tag k="natural" v="slope" />
		<tag k="place" v="locality" />
		<tag k="ssr:stedsnr" v="966858" />
	</node>
	<node id="-167088" lat="67.2388944414" lon="15.3004111109">
		<tag k="name" v="Trongkleiva" />
		<tag k="natural" v="valley" />
		<tag k="place" v="locality" />
		<tag k="ssr:stedsnr" v="966671" />
	</node>
	<node id="-167087" lat="67.2944999979" lon="15.3095583337">
		<tag k="name" v="Rundvasslia" />
		<tag k="natural" v="slope" />
		<tag k="place" v="locality" />
		<tag k="ssr:stedsnr" v="966656" />
	</node>
	<node id="-167086" lat="67.2866999971" lon="15.2064583413">
		<tag k="name" v="Bjørklia" />
		<tag k="natural" v="slope" />
		<tag k="place" v="locality" />
		<tag k="ssr:stedsnr" v="966712" />
	</node>
	<node id="-167085" lat="67.2772888864" lon="15.2015777767">
		<tag k="name" v="Kvitberget" />
		<tag k="natural" v="hill" />
		<tag k="place" v="locality" />
		<tag k="ssr:stedsnr" v="966706" />
	</node>
	<node id="-167082" lat="67.0765694443" lon="15.9733861177">
		<tag k="name" v="Risbakkan" />
		<tag k="natural" v="slope" />
		<tag k="place" v="locality" />
		<tag k="ssr:stedsnr" v="965774" />
	</node>
	<node id="-167081" lat="67.0820999952" lon="15.9861277874">
		<tag k="name" v="Annaskavlen" />
		<tag k="natural" v="slope" />
		<tag k="place" v="locality" />
		<tag k="ssr:stedsnr" v="965773" />
	</node>
	<node id="-167079" lat="67.2241916714" lon="15.4682833279">
		<tag k="name" v="Lappgamlægden" />
		<tag k="natural" v="slope" />
		<tag k="place" v="locality" />
		<tag k="ssr:stedsnr" v="965408" />
	</node>
	<node id="-167077" lat="67.2532027814" lon="15.4764916669">
		<tag k="name" v="Leirdalen" />
		<tag k="natural" v="valley" />
		<tag k="place" v="locality" />
		<tag k="ssr:stedsnr" v="938212" />
	</node>
	<node id="-167075" lat="67.3241055582" lon="15.1753111158">
		<tag k="name" v="Gjerdehaugen" />
		<tag k="natural" v="hill" />
		<tag k="place" v="locality" />
		<tag k="ssr:stedsnr" v="936542" />
	</node>
	<node id="-167069" lat="67.2963166686" lon="15.1558916594">
		<tag k="name" v="Melkberget" />
		<tag k="natural" v="hill" />
		<tag k="place" v="locality" />
		<tag k="ssr:stedsnr" v="934314" />
	</node>
	<node id="-167065" lat="67.2362077335" lon="15.639157558">
		<tag k="alt_name" v="Stigfjellet" />
		<tag k="fixme" v="consider natural=peak for the most distinct mountains in the district" />
		<tag k="name" v="Stifjellet" />
		<tag k="natural" v="hill" />
		<tag k="place" v="locality" />
		<tag k="ssr:stedsnr" v="926927" />
	</node>
	<node id="-167061" lat="67.2876805581" lon="15.2484083324">
		<tag k="alt_name" v="Løkåsvarden" />
		<tag k="name" v="Laukåsvarden" />
		<tag k="natural" v="hill" />
		<tag k="place" v="locality" />
		<tag k="ssr:stedsnr" v="926843" />
	</node>
	<node id="-167060" lat="67.2844333333" lon="15.231922223">
		<tag k="name" v="Sommarsetlia" />
		<tag k="natural" v="slope" />
		<tag k="place" v="locality" />
		<tag k="ssr:stedsnr" v="926841" />
	</node>
	<node id="-167057" lat="67.2151694405" lon="15.5805222226">
		<tag k="name" v="Langlia" />
		<tag k="natural" v="slope" />
		<tag k="place" v="locality" />
		<tag k="ssr:stedsnr" v="906220" />
	</node>
	<node id="-167056" lat="67.0595861081" lon="16.2226444471">
		<tag k="name" v="Kong Oscarskråningen" />
		<tag k="natural" v="ridge" />
		<tag k="place" v="locality" />
		<tag k="ssr:stedsnr" v="905824" />
	</node>
	<node id="-167053" lat="67.2559305531" lon="15.4922444404">
		<tag k="name" v="Svartvasshammaren" />
		<tag k="natural" v="hill" />
		<tag k="place" v="locality" />
		<tag k="ssr:stedsnr" v="905525" />
	</node>
	<node id="-167052" lat="67.2291083354" lon="15.5008416568">
		<tag k="name" v="Bjørnsletta" />
		<tag k="place" v="locality" />
		<tag k="ssr:stedsnr" v="905364" />
	</node>
	<node id="-167050" lat="67.2593027798" lon="15.4977388878">
		<tag k="name" v="Kristihola" />
		<tag k="natural" v="valley" />
		<tag k="place" v="locality" />
		<tag k="ssr:stedsnr" v="905454" />
	</node>
	<node id="-167048" lat="67.410122224" lon="15.4152666672">
		<tag k="name" v="Fridallia" />
		<tag k="natural" v="slope" />
		<tag k="place" v="locality" />
		<tag k="ssr:stedsnr" v="905116" />
	</node>
	<node id="-167047" lat="67.4074194435" lon="15.2981944415">
		<tag k="name" v="Sørskarhaugen" />
		<tag k="natural" v="hill" />
		<tag k="place" v="locality" />
		<tag k="ssr:stedsnr" v="905265" />
	</node>
	<node id="-167042" lat="67.364408331" lon="15.3052888886">
		<tag k="name" v="Preikstolen" />
		<tag k="natural" v="hill" />
		<tag k="place" v="locality" />
		<tag k="ssr:stedsnr" v="874817" />
	</node>
	<node id="-167041" lat="67.4026444442" lon="15.4092888775">
		<tag k="name" v="Fridallia" />
		<tag k="natural" v="slope" />
		<tag k="place" v="locality" />
		<tag k="ssr:stedsnr" v="874555" />
	</node>
	<node id="-167040" lat="67.3828722205" lon="15.3550888971">
		<tag k="name" v="Sallia" />
		<tag k="natural" v="slope" />
		<tag k="place" v="locality" />
		<tag k="ssr:stedsnr" v="874765" />
	</node>
	<node id="-167038" lat="67.3413444485" lon="15.3296083297">
		<tag k="name" v="Rønene" />
		<tag k="natural" v="slope" />
		<tag k="place" v="locality" />
		<tag k="ssr:stedsnr" v="874362" />
	</node>
	<node id="-167037" lat="67.3399833331" lon="15.3465583334">
		<tag k="name" v="Litlknubben" />
		<tag k="natural" v="ridge" />
		<tag k="place" v="locality" />
		<tag k="ssr:stedsnr" v="874361" />
	</node>
	<node id="-167036" lat="67.3009972234" lon="15.3171388801">
		<tag k="name" v="Røna" />
		<tag k="natural" v="hill" />
		<tag k="place" v="locality" />
		<tag k="ssr:stedsnr" v="874355" />
	</node>
	<node id="-167034" lat="67.2956722184" lon="15.1459583316">
		<tag k="name" v="Skaftbergan" />
		<tag k="natural" v="hill" />
		<tag k="place" v="locality" />
		<tag k="ssr:stedsnr" v="874306" />
	</node>
	<node id="-167033" lat="67.2973555566" lon="15.1489916567">
		<tag k="name" v="Risahaugen" />
		<tag k="natural" v="hill" />
		<tag k="place" v="locality" />
		<tag k="ssr:stedsnr" v="874305" />
	</node>
	<node id="-167032" lat="67.3296611138" lon="15.280713884">
		<tag k="name" v="Dalan" />
		<tag k="natural" v="valley" />
		<tag k="place" v="locality" />
		<tag k="ssr:stedsnr" v="874471" />
	</node>
	<node id="-167031" lat="67.3151222208" lon="15.3262027759">
		<tag k="name" v="Langvassheia" />
		<tag k="natural" v="hill" />
		<tag k="place" v="locality" />
		<tag k="ssr:stedsnr" v="874255" />
	</node>
	<node id="-167029" lat="67.3404416651" lon="15.2315083415">
		<tag k="name" v="Straumhågen" />
		<tag k="natural" v="hill" />
		<tag k="place" v="locality" />
		<tag k="ssr:stedsnr" v="874061" />
	</node>
	<node id="-167028" lat="67.306599999" lon="15.2493499921">
		<tag k="name" v="Sautemodalen" />
		<tag k="natural" v="valley" />
		<tag k="place" v="locality" />
		<tag k="ssr:stedsnr" v="873303" />
	</node>
	<node id="-167027" lat="67.2798833328" lon="15.0729000072">
		<tag k="alt_name" v="Russvikhalsen" />
		<tag k="fixme" v="consider natural=peak for the most distinct mountains in the district" />
		<tag k="name" v="Rusvikhalsen" />
		<tag k="natural" v="hill" />
		<tag k="place" v="locality" />
		<tag k="ssr:stedsnr" v="870665" />
	</node>
	<node id="-167026" lat="67.1845333332" lon="15.7866277884">
		<tag k="fixme" v="consider natural=peak for the most distinct mountains in the district" />
		<tag k="name" v="Gamsi" />
		<tag k="natural" v="hill" />
		<tag k="place" v="locality" />
		<tag k="ssr:stedsnr" v="866215" />
	</node>
	<node id="-167024" lat="67.1007361093" lon="16.1236861026">
		<tag k="alt_name:no" v="Valffardalen" />
		<tag k="name" v="Válfarjåkdalen - Válfarvágge" />
		<tag k="name:no" v="Válfarjåkdalen" />
		<tag k="name:smj" v="Válfarvágge" />
		<tag k="natural" v="valley" />
		<tag k="old_name:no" v="Válffarjohkdalen" />
		<tag k="old_name:smj" v="Válffarvággi" />
		<tag k="place" v="locality" />
		<tag k="ssr:stedsnr" v="865236" />
	</node>
	<node id="-167022" lat="67.201497225" lon="15.4799861169">
		<tag k="name" v="Piphammaren" />
		<tag k="natural" v="hill" />
		<tag k="place" v="locality" />
		<tag k="ssr:stedsnr" v="845325" />
	</node>
	<node id="-167018" lat="67.2915972236" lon="15.2884444368">
		<tag k="name" v="Storvasslia" />
		<tag k="natural" v="slope" />
		<tag k="place" v="locality" />
		<tag k="ssr:stedsnr" v="938788" />
	</node>
	<node id="-167017" lat="67.2475805566" lon="15.5062166682">
		<tag k="name" v="Heitosdalen" />
		<tag k="natural" v="valley" />
		<tag k="place" v="locality" />
		<tag k="ssr:stedsnr" v="938529" />
	</node>
	<node id="-167015" lat="67.3055666702" lon="15.2102194359">
		<tag k="name" v="Rundbakken" />
		<tag k="natural" v="slope" />
		<tag k="place" v="locality" />
		<tag k="ssr:stedsnr" v="938261" />
	</node>
	<node id="-167011" lat="67.3219388858" lon="15.1739111188">
		<tag k="name" v="Skavhaugen" />
		<tag k="natural" v="hill" />
		<tag k="place" v="locality" />
		<tag k="ssr:stedsnr" v="936553" />
	</node>
	<node id="-167007" lat="67.2668527788" lon="15.1484638849">
		<tag k="name" v="Stor-Jodalen" />
		<tag k="natural" v="valley" />
		<tag k="place" v="locality" />
		<tag k="ssr:stedsnr" v="935697" />
	</node>
	<node id="-167004" lat="67.2742833349" lon="15.1096555666">
		<tag k="name" v="Hamsteinarberget" />
		<tag k="natural" v="hill" />
		<tag k="place" v="locality" />
		<tag k="ssr:stedsnr" v="935716" />
	</node>
	<node id="-166998" lat="67.3220694478" lon="15.0738499981">
		<tag k="name" v="Kvalryggen" />
		<tag k="natural" v="ridge" />
		<tag k="place" v="locality" />
		<tag k="ssr:stedsnr" v="935346" />
	</node>
	<node id="-166996" lat="67.3252083356" lon="15.0907194454">
		<tag k="name" v="Moa" />
		<tag k="place" v="locality" />
		<tag k="ssr:stedsnr" v="935340" />
	</node>
	<node id="-166995" lat="67.2945527824" lon="15.1552888802">
		<tag k="name" v="Onsterbakken" />
		<tag k="natural" v="slope" />
		<tag k="place" v="locality" />
		<tag k="ssr:stedsnr" v="935331" />
	</node>
	<node id="-166993" lat="67.3158666641" lon="15.2743916651">
		<tag k="name" v="Høgbakkan" />
		<tag k="natural" v="slope" />
		<tag k="place" v="locality" />
		<tag k="ssr:stedsnr" v="935324" />
	</node>
	<node id="-166992" lat="67.3101027781" lon="15.290063887">
		<tag k="name" v="Halvgått middagsstad-lia" />
		<tag k="natural" v="hill" />
		<tag k="place" v="locality" />
		<tag k="ssr:stedsnr" v="935322" />
	</node>
	<node id="-166988" lat="67.334436108" lon="15.1433666713">
		<tag k="name" v="Høglia" />
		<tag k="natural" v="slope" />
		<tag k="place" v="locality" />
		<tag k="ssr:stedsnr" v="934662" />
	</node>
	<node id="-166987" lat="67.3731750004" lon="15.2343722245">
		<tag k="fixme" v="consider natural=peak for the most distinct mountains in the district" />
		<tag k="name" v="Svartholfloget" />
		<tag k="natural" v="hill" />
		<tag k="place" v="locality" />
		<tag k="ssr:stedsnr" v="934494" />
	</node>
	<node id="-166981" lat="67.3409750012" lon="15.1936416673">
		<tag k="name" v="Svarttjønnhaugen" />
		<tag k="natural" v="hill" />
		<tag k="place" v="locality" />
		<tag k="ssr:stedsnr" v="934161" />
	</node>
	<node id="-166978" lat="67.3572444472" lon="15.2272138806">
		<tag k="name" v="Slåttbakkheia" />
		<tag k="natural" v="hill" />
		<tag k="place" v="locality" />
		<tag k="ssr:stedsnr" v="934024" />
	</node>
	<node id="-166975" lat="67.30651389" lon="15.2175861166">
		<tag k="name" v="Storhaugen" />
		<tag k="natural" v="hill" />
		<tag k="place" v="locality" />
		<tag k="ssr:stedsnr" v="817261" />
	</node>
	<node id="-166973" lat="67.2504611104" lon="15.5362722323">
		<tag k="name" v="Moan" />
		<tag k="place" v="locality" />
		<tag k="ssr:stedsnr" v="816568" />
	</node>
	<node id="-166969" lat="67.3232249981" lon="15.1742361186">
		<tag k="name" v="Nerigårdshaugen" />
		<tag k="natural" v="hill" />
		<tag k="place" v="locality" />
		<tag k="ssr:stedsnr" v="815511" />
	</node>
	<node id="-166968" lat="67.3569499968" lon="15.1594194409">
		<tag k="fixme" v="consider natural=peak for the most distinct mountains in the district" />
		<tag k="name" v="Nattmålstuva" />
		<tag k="natural" v="hill" />
		<tag k="place" v="locality" />
		<tag k="ssr:stedsnr" v="930727" />
	</node>
	<node id="-166967" lat="67.4395805517" lon="15.2059527787">
		<tag k="fixme" v="consider natural=peak for the most distinct mountains in the district" />
		<tag k="name" v="Sørskarfjellet" />
		<tag k="natural" v="hill" />
		<tag k="place" v="locality" />
		<tag k="ssr:stedsnr" v="930560" />
	</node>
	<node id="-166964" lat="67.2795222243" lon="15.1939166612">
		<tag k="fixme" v="consider natural=peak for the most distinct mountains in the district" />
		<tag k="name" v="Memaurtuva" />
		<tag k="natural" v="hill" />
		<tag k="place" v="locality" />
		<tag k="ssr:stedsnr" v="930447" />
	</node>
	<node id="-166962" lat="67.3868055562" lon="15.4328749888">
		<tag k="fixme" v="consider natural=peak for the most distinct mountains in the district" />
		<tag k="name" v="Sørdalsheia" />
		<tag k="natural" v="hill" />
		<tag k="place" v="locality" />
		<tag k="ssr:stedsnr" v="927972" />
	</node>
	<node id="-166960" lat="67.2286194461" lon="15.3764250094">
		<tag k="fixme" v="consider natural=peak for the most distinct mountains in the district" />
		<tag k="name" v="Åsan" />
		<tag k="natural" v="hill" />
		<tag k="place" v="locality" />
		<tag k="ssr:stedsnr" v="927944" />
	</node>
	<node id="-166958" lat="67.3718333304" lon="15.2220083314">
		<tag k="fixme" v="consider natural=peak for the most distinct mountains in the district" />
		<tag k="name" v="Rundfjellet" />
		<tag k="natural" v="hill" />
		<tag k="place" v="locality" />
		<tag k="ssr:stedsnr" v="805997" />
	</node>
	<node id="-166955" lat="67.1749621774" lon="15.6369222092">
		<tag k="fixme" v="consider natural=peak for the most distinct mountains in the district" />
		<tag k="name" v="Sjønståfjellet" />
		<tag k="natural" v="hill" />
		<tag k="place" v="locality" />
		<tag k="ssr:stedsnr" v="805981" />
	</node>
	<node id="-166951" lat="67.3211333376" lon="15.5549166561">
		<tag k="name" v="Kollen" />
		<tag k="natural" v="hill" />
		<tag k="place" v="locality" />
		<tag k="ssr:stedsnr" v="805808" />
	</node>
	<node id="-166950" lat="67.4333527811" lon="15.2827083229">
		<tag k="fixme" v="consider natural=peak for the most distinct mountains in the district" />
		<tag k="name" v="Nordskarfjellet" />
		<tag k="natural" v="hill" />
		<tag k="place" v="locality" />
		<tag k="ssr:stedsnr" v="805567" />
	</node>
	<node id="-166945" lat="67.0732138864" lon="16.0859805448">
		<tag k="fixme" v="consider natural=peak for the most distinct mountains in the district" />
		<tag k="name" v="Tjalmmebielle" />
		<tag k="name:smj" v="Tjalmmebielle" />
		<tag k="natural" v="hill" />
		<tag k="old_name:smj" v="Čalbmebealli" />
		<tag k="place" v="locality" />
		<tag k="ssr:stedsnr" v="805167" />
	</node>
	<node id="-166939" lat="67.2640583352" lon="15.8850055562">
		<tag k="name" v="Fonndalen" />
		<tag k="natural" v="valley" />
		<tag k="place" v="locality" />
		<tag k="ssr:stedsnr" v="927333" />
	</node>
	<node id="-166938" lat="67.2541111151" lon="15.8343666602">
		<tag k="name" v="Nedrevassheia" />
		<tag k="natural" v="hill" />
		<tag k="place" v="locality" />
		<tag k="ssr:stedsnr" v="927329" />
	</node>
	<node id="-166935" lat="67.3688416646" lon="15.3854388901">
		<tag k="fixme" v="consider natural=peak for the most distinct mountains in the district" />
		<tag k="name" v="Østerkløftfjellet" />
		<tag k="natural" v="hill" />
		<tag k="place" v="locality" />
		<tag k="ssr:stedsnr" v="926996" />
	</node>
	<node id="-166932" lat="67.1948999983" lon="15.7166083353">
		<tag k="alt_name" v="Middagshågen" />
		<tag k="fixme" v="consider natural=peak for the most distinct mountains in the district" />
		<tag k="name" v="Middagshøgda" />
		<tag k="natural" v="hill" />
		<tag k="place" v="locality" />
		<tag k="ssr:stedsnr" v="926963" />
	</node>
	<node id="-166930" lat="67.3988000019" lon="15.4166277809">
		<tag k="fixme" v="consider natural=peak for the most distinct mountains in the district" />
		<tag k="name" v="Daudmannsheia" />
		<tag k="natural" v="hill" />
		<tag k="place" v="locality" />
		<tag k="ssr:stedsnr" v="926955" />
	</node>
	<node id="-166927" lat="67.2941555577" lon="15.5720833365">
		<tag k="alt_name:no" v="Rishaugfjellet, vestre" />
		<tag k="fixme" v="consider natural=peak for the most distinct mountains in the district" />
		<tag k="name" v="Vestre Rishaugfjellet - Skirribårre" />
		<tag k="name:no" v="Vestre Rishaugfjellet" />
		<tag k="name:smj" v="Skirribårre" />
		<tag k="natural" v="hill" />
		<tag k="old_name:smj" v="Skirreborri" />
		<tag k="place" v="locality" />
		<tag k="ssr:stedsnr" v="926851" />
	</node>
	<node id="-166925" lat="67.2567111107" lon="15.5058888811">
		<tag k="fixme" v="multiple name tags, choose one and add the other to alt_name" />
		<tag k="name" v="Skillihaugen;Skjørlihågen" />
		<tag k="natural" v="hill" />
		<tag k="place" v="locality" />
		<tag k="ssr:stedsnr" v="926767" />
	</node>
	<node id="-166922" lat="67.430344446" lon="15.2512305659">
		<tag k="name" v="Midtiskaret" />
		<tag k="natural" v="valley" />
		<tag k="place" v="locality" />
		<tag k="ssr:stedsnr" v="926542" />
	</node>
	<node id="-166921" lat="67.4409527737" lon="15.4074972256">
		<tag k="name" v="Ånsviklia" />
		<tag k="natural" v="slope" />
		<tag k="place" v="locality" />
		<tag k="ssr:stedsnr" v="926527" />
	</node>
	<node id="-166920" lat="67.4459888843" lon="15.3905305637">
		<tag k="name" v="Sæterhaugen" />
		<tag k="natural" v="hill" />
		<tag k="place" v="locality" />
		<tag k="ssr:stedsnr" v="926493" />
	</node>
	<node id="-166918" lat="67.1136222209" lon="16.178313883">
		<tag k="fixme" v="consider natural=peak for the most distinct mountains in the district" />
		<tag k="name" v="Ráhpesvárre" />
		<tag k="name:smj" v="Ráhpesvárre" />
		<tag k="natural" v="hill" />
		<tag k="old_name:smj" v="Ráhpesvárri;Ráhppesvárre" />
		<tag k="place" v="locality" />
		<tag k="ssr:stedsnr" v="926223" />
	</node>
	<node id="-166916" lat="67.1133249974" lon="15.9832500009">
		<tag k="fixme" v="consider natural=peak for the most distinct mountains in the district" />
		<tag k="name" v="Anna" />
		<tag k="natural" v="hill" />
		<tag k="place" v="locality" />
		<tag k="ssr:stedsnr" v="926210" />
	</node>
	<node id="-166914" lat="67.1675500014" lon="16.2761138855">
		<tag k="fixme" v="consider natural=peak for the most distinct mountains in the district" />
		<tag k="name" v="Kokedaltinden - Duolldagåptjåhkkå" />
		<tag k="name:no" v="Kokedaltinden" />
		<tag k="name:smj" v="Duolldagåptjåhkkå" />
		<tag k="natural" v="hill" />
		<tag k="old_name:smj" v="Duolddagohpčohkka" />
		<tag k="place" v="locality" />
		<tag k="ssr:stedsnr" v="926185" />
	</node>
	<node id="-166913" lat="67.2227861142" lon="15.4355499922">
		<tag k="fixme" v="consider natural=peak for the most distinct mountains in the district" />
		<tag k="name" v="Veten" />
		<tag k="natural" v="hill" />
		<tag k="place" v="locality" />
		<tag k="ssr:stedsnr" v="926145" />
	</node>
	<node id="-166911" lat="67.2750555577" lon="15.0489000033">
		<tag k="name" v="Gjoten" />
		<tag k="natural" v="hill" />
		<tag k="place" v="locality" />
		<tag k="ssr:stedsnr" v="784740" />
	</node>
	<node id="-166909" lat="67.2853416652" lon="15.2418138844">
		<tag k="name" v="Snøflekkaksla" />
		<tag k="place" v="locality" />
		<tag k="ssr:stedsnr" v="784711" />
	</node>
	<node id="-166907" lat="67.217936114" lon="15.4967444479">
		<tag k="name" v="Kvannmoen" />
		<tag k="place" v="locality" />
		<tag k="ssr:stedsnr" v="783420" />
	</node>
	<node id="-166905" lat="67.2884972214" lon="15.2313083383">
		<tag k="name" v="Svarthammaren" />
		<tag k="natural" v="hill" />
		<tag k="place" v="locality" />
		<tag k="ssr:stedsnr" v="909818" />
	</node>
	<node id="-166904" lat="67.3264972239" lon="15.3201138796">
		<tag k="name" v="Høglia" />
		<tag k="natural" v="slope" />
		<tag k="place" v="locality" />
		<tag k="ssr:stedsnr" v="752336" />
	</node>
	<node id="-166903" lat="67.3010777768" lon="15.294449992">
		<tag k="name" v="Gamman" />
		<tag k="natural" v="mountain_range" />
		<tag k="ssr:stedsnr" v="752320" />
	</node>
	<node id="-166897" lat="67.3592583362" lon="15.3061194485">
		<tag k="name" v="Høglia" />
		<tag k="natural" v="slope" />
		<tag k="place" v="locality" />
		<tag k="ssr:stedsnr" v="752204" />
	</node>
	<node id="-166896" lat="67.3286305533" lon="15.2888944374">
		<tag k="name" v="Langbakkan" />
		<tag k="natural" v="slope" />
		<tag k="place" v="locality" />
		<tag k="ssr:stedsnr" v="751508" />
	</node>
	<node id="-166894" lat="67.3949944416" lon="15.2015277728">
		<tag k="name" v="Drogvassdalen" />
		<tag k="natural" v="valley" />
		<tag k="place" v="locality" />
		<tag k="ssr:stedsnr" v="748554" />
	</node>
	<node id="-166893" lat="67.3909999985" lon="15.2014250026">
		<tag k="fixme" v="consider natural=peak for the most distinct mountains in the district" />
		<tag k="name" v="Blåfjell" />
		<tag k="natural" v="hill" />
		<tag k="place" v="locality" />
		<tag k="ssr:stedsnr" v="748553" />
	</node>
	<node id="-166887" lat="67.3495194421" lon="15.4607749948">
		<tag k="name" v="Kvitbliklemmen" />
		<tag k="place" v="locality" />
		<tag k="ssr:stedsnr" v="744867" />
	</node>
	<node id="-166883" lat="67.1980694463" lon="15.7041222278">
		<tag k="name" v="Trolldalen" />
		<tag k="natural" v="valley" />
		<tag k="place" v="locality" />
		<tag k="ssr:stedsnr" v="906249" />
	</node>
	<node id="-166882" lat="67.4226833318" lon="15.4551777692">
		<tag k="fixme" v="consider natural=peak for the most distinct mountains in the district" />
		<tag k="name" v="Furnesfjellet" />
		<tag k="natural" v="hill" />
		<tag k="place" v="locality" />
		<tag k="ssr:stedsnr" v="744523" />
	</node>
	<node id="-166879" lat="67.2128277814" lon="15.5803027754">
		<tag k="name" v="Lapphellaren" />
		<tag k="natural" v="hill" />
		<tag k="place" v="locality" />
		<tag k="ssr:stedsnr" v="906222" />
	</node>
	<node id="-166876" lat="67.1390194485" lon="16.1160888926">
		<tag k="loc_name:smj" v="Haŋŋkabuollda" />
		<tag k="name" v="Hankabakken" />
		<tag k="name:no" v="Hankabakken" />
		<tag k="natural" v="slope" />
		<tag k="place" v="locality" />
		<tag k="ssr:stedsnr" v="905847" />
	</node>
	<node id="-166874" lat="67.2724305533" lon="15.0698138886">
		<tag k="name" v="Skiferbruddet" />
		<tag k="natural" v="hill" />
		<tag k="place" v="locality" />
		<tag k="ssr:stedsnr" v="905727" />
	</node>
	<node id="-166873" lat="67.2787388923" lon="15.0583499899">
		<tag k="name" v="Nordheian" />
		<tag k="natural" v="hill" />
		<tag k="place" v="locality" />
		<tag k="ssr:stedsnr" v="905723" />
	</node>
	<node id="-166871" lat="67.2431249973" lon="15.3292833328">
		<tag k="fixme" v="consider natural=peak for the most distinct mountains in the district" />
		<tag k="name" v="Lauvåsen" />
		<tag k="natural" v="hill" />
		<tag k="place" v="locality" />
		<tag k="ssr:stedsnr" v="905673" />
	</node>
	<node id="-166869" lat="67.2942861114" lon="15.3528055625">
		<tag k="name" v="Ørnhamran" />
		<tag k="natural" v="hill" />
		<tag k="place" v="locality" />
		<tag k="ssr:stedsnr" v="905649" />
	</node>
	<node id="-166868" lat="67.2765361155" lon="15.3126222116">
		<tag k="name" v="Nerlia" />
		<tag k="natural" v="slope" />
		<tag k="place" v="locality" />
		<tag k="ssr:stedsnr" v="905667" />
	</node>
	<node id="-166867" lat="67.2814111121" lon="15.3322222218">
		<tag k="name" v="Vasshaugen" />
		<tag k="natural" v="hill" />
		<tag k="place" v="locality" />
		<tag k="ssr:stedsnr" v="905659" />
	</node>
	<node id="-166866" lat="67.2136194486" lon="15.5334222239">
		<tag k="name" v="Pålheimlia" />
		<tag k="natural" v="slope" />
		<tag k="place" v="locality" />
		<tag k="ssr:stedsnr" v="905449" />
	</node>
	<node id="-166864" lat="67.2236277762" lon="15.4265388984">
		<tag k="name" v="Lemman" />
		<tag k="place" v="locality" />
		<tag k="ssr:stedsnr" v="905333" />
	</node>
	<node id="-166862" lat="67.3896972222" lon="15.291352783">
		<tag k="name" v="Ytteraksla" />
		<tag k="place" v="locality" />
		<tag k="ssr:stedsnr" v="905317" />
	</node>
	<node id="-166860" lat="67.3929166668" lon="15.2924166747">
		<tag k="name" v="Storhaugen" />
		<tag k="natural" v="hill" />
		<tag k="place" v="locality" />
		<tag k="ssr:stedsnr" v="905274" />
	</node>
	<node id="-166859" lat="67.4069916636" lon="15.3710083433">
		<tag k="name" v="Hømmervasslia" />
		<tag k="natural" v="slope" />
		<tag k="place" v="locality" />
		<tag k="ssr:stedsnr" v="905269" />
	</node>
	<node id="-166858" lat="67.2267388918" lon="15.4399750074">
		<tag k="name" v="Bratthågen" />
		<tag k="natural" v="hill" />
		<tag k="place" v="locality" />
		<tag k="ssr:stedsnr" v="905388" />
	</node>
	<node id="-166856" lat="67.2307999988" lon="15.4959222301">
		<tag k="name" v="Tortenligrøva" />
		<tag k="natural" v="valley" />
		<tag k="place" v="locality" />
		<tag k="ssr:stedsnr" v="905383" />
	</node>
	<node id="-166854" lat="67.2218499981" lon="15.5607555644">
		<tag k="name" v="Øsphammaren" />
		<tag k="natural" v="hill" />
		<tag k="place" v="locality" />
		<tag k="ssr:stedsnr" v="905194" />
	</node>
	<node id="-166853" lat="67.3078000018" lon="15.457744446">
		<tag k="name" v="Storberghaugen" />
		<tag k="natural" v="hill" />
		<tag k="place" v="locality" />
		<tag k="ssr:stedsnr" v="905084" />
	</node>
	<node id="-166850" lat="67.1174805597" lon="16.091125007">
		<tag k="name" v="Geithola" />
		<tag k="natural" v="valley" />
		<tag k="place" v="locality" />
		<tag k="ssr:stedsnr" v="723836" />
	</node>
	<node id="-166848" lat="67.1361527788" lon="16.1064305512">
		<tag k="name" v="Hankenlia" />
		<tag k="natural" v="slope" />
		<tag k="place" v="locality" />
		<tag k="ssr:stedsnr" v="723819" />
	</node>
	<node id="-166846" lat="67.2907722228" lon="15.3256194383">
		<tag k="name" v="Bonlia" />
		<tag k="natural" v="slope" />
		<tag k="place" v="locality" />
		<tag k="ssr:stedsnr" v="723604" />
	</node>
	<node id="-166845" lat="67.26524722" lon="15.5014777715">
		<tag k="name" v="Stormoen" />
		<tag k="place" v="locality" />
		<tag k="ssr:stedsnr" v="723449" />
	</node>
	<node id="-166844" lat="67.2174361113" lon="15.5428777821">
		<tag k="name" v="Skolten" />
		<tag k="natural" v="ridge" />
		<tag k="place" v="locality" />
		<tag k="ssr:stedsnr" v="723445" />
	</node>
	<node id="-166843" lat="67.216163886" lon="15.5476638942">
		<tag k="name" v="Røyrlia" />
		<tag k="natural" v="slope" />
		<tag k="place" v="locality" />
		<tag k="ssr:stedsnr" v="723442" />
	</node>
	<node id="-166842" lat="67.2435861091" lon="15.5931638847">
		<tag k="fixme" v="consider natural=peak for the most distinct mountains in the district" />
		<tag k="name" v="Enganfjellet" />
		<tag k="natural" v="hill" />
		<tag k="place" v="locality" />
		<tag k="ssr:stedsnr" v="723204" />
	</node>
	<node id="-166840" lat="67.2311916705" lon="15.5029222224">
		<tag k="name" v="Dalan" />
		<tag k="natural" v="valley" />
		<tag k="place" v="locality" />
		<tag k="ssr:stedsnr" v="723375" />
	</node>
	<node id="-166836" lat="67.2465611123" lon="15.5766916567">
		<tag k="fixme" v="consider natural=peak for the most distinct mountains in the district" />
		<tag k="name" v="Tortenlifjellet" />
		<tag k="natural" v="hill" />
		<tag k="place" v="locality" />
		<tag k="ssr:stedsnr" v="723162" />
	</node>
	<node id="-166835" lat="67.211047226" lon="15.5892388992">
		<tag k="name" v="Svartdalen" />
		<tag k="natural" v="valley" />
		<tag k="place" v="locality" />
		<tag k="ssr:stedsnr" v="723153" />
	</node>
	<node id="-166833" lat="67.3194388886" lon="15.4716333233">
		<tag k="fixme" v="consider natural=peak for the most distinct mountains in the district" />
		<tag k="name" v="Vargåsen" />
		<tag k="natural" v="hill" />
		<tag k="place" v="locality" />
		<tag k="ssr:stedsnr" v="723036" />
	</node>
	<node id="-166828" lat="67.3566083293" lon="15.5123916585">
		<tag k="fixme" v="consider natural=peak for the most distinct mountains in the district" />
		<tag k="name" v="Langmyrkulen" />
		<tag k="natural" v="hill" />
		<tag k="place" v="locality" />
		<tag k="ssr:stedsnr" v="696825" />
	</node>
	<node id="-166827" lat="67.16371389" lon="16.3277500025">
		<tag k="fixme" v="consider natural=peak for the most distinct mountains in the district" />
		<tag k="name" v="Sluskhatten" />
		<tag k="natural" v="hill" />
		<tag k="place" v="locality" />
		<tag k="ssr:stedsnr" v="695507" />
	</node>
	<node id="-166826" lat="67.3483972257" lon="15.5382222312">
		<tag k="name" v="Omndalen" />
		<tag k="natural" v="valley" />
		<tag k="place" v="locality" />
		<tag k="ssr:stedsnr" v="694128" />
	</node>
	<node id="-166824" lat="67.3966194465" lon="15.332383331">
		<tag k="name" v="Graurvassheian" />
		<tag k="natural" v="hill" />
		<tag k="place" v="locality" />
		<tag k="ssr:stedsnr" v="692857" />
	</node>
	<node id="-166823" lat="67.269894444" lon="15.1264916646">
		<tag k="name" v="Jordberget" />
		<tag k="natural" v="hill" />
		<tag k="place" v="locality" />
		<tag k="ssr:stedsnr" v="692671" />
	</node>
	<node id="-166822" lat="67.3920444443" lon="15.3510249996">
		<tag k="name" v="Neverhaugheian" />
		<tag k="natural" v="hill" />
		<tag k="place" v="locality" />
		<tag k="ssr:stedsnr" v="692770" />
	</node>
	<node id="-166821" lat="67.2633694471" lon="15.1766083239">
		<tag k="name" v="Jansli" />
		<tag k="natural" v="slope" />
		<tag k="place" v="locality" />
		<tag k="ssr:stedsnr" v="692720" />
	</node>
	<node id="-166819" lat="67.2798527793" lon="15.1086638802">
		<tag k="name" v="Kjeldhaugen" />
		<tag k="natural" v="hill" />
		<tag k="place" v="locality" />
		<tag k="ssr:stedsnr" v="692603" />
	</node>
	<node id="-166818" lat="67.3338222187" lon="15.285108323">
		<tag k="name" v="Strupen" />
		<tag k="natural" v="valley" />
		<tag k="place" v="locality" />
		<tag k="ssr:stedsnr" v="692436" />
	</node>
	<node id="-166796" lat="67.2975888913" lon="15.2218527778">
		<tag k="name" v="Gamdalhaugen" />
		<tag k="natural" v="hill" />
		<tag k="place" v="locality" />
		<tag k="ssr:stedsnr" v="878272" />
	</node>
	<node id="-166792" lat="67.2376138916" lon="15.3216583434">
		<tag k="name" v="Langlia" />
		<tag k="natural" v="slope" />
		<tag k="place" v="locality" />
		<tag k="ssr:stedsnr" v="662675" />
	</node>
	<node id="-166791" lat="67.2395138909" lon="15.3174666782">
		<tag k="name" v="Tremmenvollen" />
		<tag k="place" v="locality" />
		<tag k="ssr:stedsnr" v="662673" />
	</node>
	<node id="-166789" lat="67.2778277747" lon="15.3427277747">
		<tag k="name" v="Sandbakken" />
		<tag k="natural" v="slope" />
		<tag k="place" v="locality" />
		<tag k="ssr:stedsnr" v="662660" />
	</node>
	<node id="-166785" lat="67.2875555535" lon="15.1821888775">
		<tag k="name" v="Bruåkervollen" />
		<tag k="place" v="locality" />
		<tag k="ssr:stedsnr" v="662712" />
	</node>
	<node id="-166784" lat="67.2629277746" lon="15.5389444383">
		<tag k="name" v="Grønlia" />
		<tag k="natural" v="slope" />
		<tag k="place" v="locality" />
		<tag k="ssr:stedsnr" v="662513" />
	</node>
	<node id="-166783" lat="67.203088891" lon="15.5134833246">
		<tag k="name" v="Eskildsgroven" />
		<tag k="natural" v="valley" />
		<tag k="place" v="locality" />
		<tag k="ssr:stedsnr" v="662302" />
	</node>
	<node id="-166782" lat="67.2019333352" lon="15.4477777706">
		<tag k="name" v="Kvenfloglia" />
		<tag k="natural" v="slope" />
		<tag k="place" v="locality" />
		<tag k="ssr:stedsnr" v="662291" />
	</node>
	<node id="-166781" lat="67.2090833323" lon="15.5162249988">
		<tag k="name" v="Stordalen" />
		<tag k="natural" v="valley" />
		<tag k="place" v="locality" />
		<tag k="ssr:stedsnr" v="662289" />
	</node>
	<node id="-166780" lat="67.376216664" lon="15.336986113">
		<tag k="name" v="Saudalhaugen" />
		<tag k="natural" v="hill" />
		<tag k="place" v="locality" />
		<tag k="ssr:stedsnr" v="662274" />
	</node>
	<node id="-166778" lat="67.2054361148" lon="15.4462000111">
		<tag k="name" v="Preikstolen" />
		<tag k="natural" v="hill" />
		<tag k="place" v="locality" />
		<tag k="ssr:stedsnr" v="662316" />
	</node>
	<node id="-166775" lat="67.2334944422" lon="15.4873694534">
		<tag k="name" v="Lia" />
		<tag k="natural" v="slope" />
		<tag k="place" v="locality" />
		<tag k="ssr:stedsnr" v="877556" />
	</node>
	<node id="-166765" lat="67.2583083352" lon="15.4314388798">
		<tag k="name" v="Kleiva" />
		<tag k="natural" v="slope" />
		<tag k="place" v="locality" />
		<tag k="ssr:stedsnr" v="632859" />
	</node>
	<node id="-166762" lat="67.3332500041" lon="15.2852388904">
		<tag k="name" v="Øverskillia" />
		<tag k="natural" v="slope" />
		<tag k="place" v="locality" />
		<tag k="ssr:stedsnr" v="631453" />
	</node>
	<node id="-166761" lat="67.3122861086" lon="15.3344027778">
		<tag k="name" v="Langvasslia" />
		<tag k="natural" v="slope" />
		<tag k="place" v="locality" />
		<tag k="ssr:stedsnr" v="631253" />
	</node>
	<node id="-166758" lat="67.299719441" lon="15.305613888">
		<tag k="name" v="Langvassdalen" />
		<tag k="natural" v="valley" />
		<tag k="place" v="locality" />
		<tag k="ssr:stedsnr" v="631325" />
	</node>
	<node id="-166757" lat="67.3235055579" lon="15.0884055662">
		<tag k="name" v="Ryingen" />
		<tag k="natural" v="hill" />
		<tag k="place" v="locality" />
		<tag k="ssr:stedsnr" v="631321" />
	</node>
	<node id="-166754" lat="67.3779055514" lon="15.25498611">
		<tag k="name" v="Bjørnhiet" />
		<tag k="place" v="locality" />
		<tag k="ssr:stedsnr" v="630905" />
	</node>
	<node id="-166753" lat="67.3347722196" lon="15.317827775">
		<tag k="name" v="Kvannliaksla" />
		<tag k="natural" v="hill" />
		<tag k="place" v="locality" />
		<tag k="ssr:stedsnr" v="630356" />
	</node>
	<node id="-166751" lat="67.2956638899" lon="15.1603055595">
		<tag k="name" v="Labakken" />
		<tag k="natural" v="slope" />
		<tag k="place" v="locality" />
		<tag k="ssr:stedsnr" v="630320" />
	</node>
	<node id="-166750" lat="67.3480611073" lon="15.3611583337">
		<tag k="fixme" v="consider natural=peak for the most distinct mountains in the district" />
		<tag k="name" v="Kvannto" />
		<tag k="natural" v="hill" />
		<tag k="place" v="locality" />
		<tag k="ssr:stedsnr" v="630313" />
	</node>
	<node id="-166747" lat="67.2591083312" lon="15.9850833393">
		<tag k="fixme" v="consider natural=peak for the most distinct mountains in the district" />
		<tag k="name" v="Blåmannen" />
		<tag k="natural" v="hill" />
		<tag k="place" v="locality" />
		<tag k="ssr:stedsnr" v="623318" />
	</node>
	<node id="-166746" lat="67.2620416642" lon="15.7261277674">
		<tag k="fixme" v="consider natural=peak for the most distinct mountains in the district" />
		<tag k="name" v="Litltverråfjellet" />
		<tag k="natural" v="hill" />
		<tag k="place" v="locality" />
		<tag k="ssr:stedsnr" v="623304" />
	</node>
	<node id="-166743" lat="67.2837333311" lon="15.1907944398">
		<tag k="name" v="Bjønnlihågen" />
		<tag k="natural" v="hill" />
		<tag k="place" v="locality" />
		<tag k="ssr:stedsnr" v="723690" />
	</node>
	<node id="-166742" lat="67.2883222205" lon="15.2328166759">
		<tag k="fixme" v="consider natural=peak for the most distinct mountains in the district" />
		<tag k="name" v="Svarthammaren" />
		<tag k="natural" v="hill" />
		<tag k="place" v="locality" />
		<tag k="ssr:stedsnr" v="723677" />
	</node>
	<node id="-166741" lat="67.2781055558" lon="15.1930444356">
		<tag k="name" v="Vedmoen" />
		<tag k="place" v="locality" />
		<tag k="ssr:stedsnr" v="723674" />
	</node>
	<node id="-166740" lat="67.2415749982" lon="15.2863610992">
		<tag k="name" v="Tortendalen" />
		<tag k="natural" v="valley" />
		<tag k="place" v="locality" />
		<tag k="ssr:stedsnr" v="723645" />
	</node>
	<node id="-166738" lat="67.2383111096" lon="15.3052694332">
		<tag k="fixme" v="consider natural=peak for the most distinct mountains in the district" />
		<tag k="name" v="Nattmålstuva" />
		<tag k="natural" v="hill" />
		<tag k="place" v="locality" />
		<tag k="ssr:stedsnr" v="723637" />
	</node>
	<node id="-166737" lat="67.2788444407" lon="15.2762027814">
		<tag k="name" v="Storsteinen" />
		<tag k="natural" v="hill" />
		<tag k="place" v="locality" />
		<tag k="ssr:stedsnr" v="723621" />
	</node>
	<node id="-166736" lat="67.3902805561" lon="15.271175007">
		<tag k="name" v="Djupdalen" />
		<tag k="natural" v="valley" />
		<tag k="place" v="locality" />
		<tag k="ssr:stedsnr" v="723327" />
	</node>
	<node id="-166734" lat="67.3779611111" lon="15.3352166595">
		<tag k="name" v="Blomli" />
		<tag k="natural" v="slope" />
		<tag k="place" v="locality" />
		<tag k="ssr:stedsnr" v="723293" />
	</node>
	<node id="-166733" lat="67.3731638891" lon="15.3589777805">
		<tag k="name" v="Hundhammaren" />
		<tag k="natural" v="hill" />
		<tag k="place" v="locality" />
		<tag k="ssr:stedsnr" v="723290" />
	</node>
	<node id="-166729" lat="67.1909583302" lon="15.7074750056">
		<tag k="name" v="Ågifjellet" />
		<tag k="place" v="locality" />
		<tag k="ssr:stedsnr" v="723224" />
	</node>
	<node id="-166728" lat="67.1935583324" lon="15.7037833345">
		<tag k="name" v="Sjønståmoen" />
		<tag k="place" v="locality" />
		<tag k="ssr:stedsnr" v="723222" />
	</node>
	<node id="-166726" lat="67.2247999984" lon="15.4808888772">
		<tag k="name" v="Lægden" />
		<tag k="natural" v="slope" />
		<tag k="place" v="locality" />
		<tag k="ssr:stedsnr" v="723386" />
	</node>
	<node id="-166725" lat="67.4018555597" lon="15.3948805489">
		<tag k="name" v="Hesjehaugen" />
		<tag k="natural" v="hill" />
		<tag k="place" v="locality" />
		<tag k="ssr:stedsnr" v="723112" />
	</node>
	<node id="-166721" lat="67.2377249956" lon="15.5889888978">
		<tag k="name" v="Floget" />
		<tag k="natural" v="hill" />
		<tag k="place" v="locality" />
		<tag k="ssr:stedsnr" v="723201" />
	</node>
	<node id="-166720" lat="67.2363944461" lon="15.5997250002">
		<tag k="fixme" v="consider natural=peak for the most distinct mountains in the district" />
		<tag k="name" v="Storfjellet" />
		<tag k="natural" v="hill" />
		<tag k="place" v="locality" />
		<tag k="ssr:stedsnr" v="602203" />
	</node>
	<node id="-166719" lat="67.2821666669" lon="15.3144333359">
		<tag k="name" v="Tømmermoa" />
		<tag k="place" v="locality" />
		<tag k="ssr:stedsnr" v="601625" />
	</node>
	<node id="-166717" lat="67.2577722185" lon="15.4312472157">
		<tag k="name" v="Kleivhammaren" />
		<tag k="natural" v="hill" />
		<tag k="place" v="locality" />
		<tag k="ssr:stedsnr" v="601385" />
	</node>
	<node id="-166716" lat="67.2267888903" lon="15.4633583315">
		<tag k="name" v="Moflogan" />
		<tag k="natural" v="hill" />
		<tag k="place" v="locality" />
		<tag k="ssr:stedsnr" v="601378" />
	</node>
	<node id="-166706" lat="67.3037694417" lon="15.2097888899">
		<tag k="name" v="Haugen" />
		<tag k="natural" v="hill" />
		<tag k="place" v="locality" />
		<tag k="ssr:stedsnr" v="574255" />
	</node>
	<node id="-166704" lat="67.2484750011" lon="15.5071138776">
		<tag k="name" v="Buststia" />
		<tag k="natural" v="slope" />
		<tag k="place" v="locality" />
		<tag k="ssr:stedsnr" v="573504" />
	</node>
	<node id="-166701" lat="67.2631500016" lon="15.4420611092">
		<tag k="name" v="Resmoa" />
		<tag k="place" v="locality" />
		<tag k="ssr:stedsnr" v="571876" />
	</node>
	<node id="-166698" lat="67.3641638841" lon="15.2303416748">
		<tag k="name" v="Nedre Fridallia" />
		<tag k="natural" v="slope" />
		<tag k="place" v="locality" />
		<tag k="ssr:stedsnr" v="570469" />
	</node>
	<node id="-166697" lat="67.307972224" lon="15.1571638814">
		<tag k="name" v="Skinnbrokberget" />
		<tag k="natural" v="hill" />
		<tag k="place" v="locality" />
		<tag k="ssr:stedsnr" v="570271" />
	</node>
	<node id="-166695" lat="67.335338886" lon="15.343950003">
		<tag k="name" v="Rønnene" />
		<tag k="natural" v="slope" />
		<tag k="place" v="locality" />
		<tag k="ssr:stedsnr" v="570263" />
	</node>
	<node id="-166694" lat="67.225713885" lon="15.516511121">
		<tag k="fixme" v="consider natural=peak for the most distinct mountains in the district" />
		<tag k="name" v="Svarthammar" />
		<tag k="natural" v="hill" />
		<tag k="place" v="locality" />
		<tag k="ssr:stedsnr" v="562932" />
	</node>
	<node id="-166692" lat="67.2455805534" lon="15.4291277785">
		<tag k="fixme" v="consider natural=peak for the most distinct mountains in the district" />
		<tag k="name" v="Straumnakken" />
		<tag k="natural" v="hill" />
		<tag k="place" v="locality" />
		<tag k="ssr:stedsnr" v="562915" />
	</node>
	<node id="-166688" lat="67.2376277813" lon="15.430191662">
		<tag k="fixme" v="consider natural=peak for the most distinct mountains in the district" />
		<tag k="name" v="Høgkrytja" />
		<tag k="natural" v="hill" />
		<tag k="place" v="locality" />
		<tag k="ssr:stedsnr" v="562906" />
	</node>
	<node id="-166685" lat="67.3080777738" lon="15.3163999998">
		<tag k="fixme" v="consider natural=peak for the most distinct mountains in the district" />
		<tag k="name" v="Djuposfjellet" />
		<tag k="natural" v="hill" />
		<tag k="place" v="locality" />
		<tag k="ssr:stedsnr" v="562826" />
	</node>
	<node id="-166679" lat="67.2212527772" lon="15.3700888828">
		<tag k="name" v="Gamlegårdsbakken" />
		<tag k="natural" v="slope" />
		<tag k="place" v="locality" />
		<tag k="ssr:stedsnr" v="695777" />
	</node>
	<node id="-166678" lat="67.2369194475" lon="15.5306138872">
		<tag k="name" v="Vindhammaren" />
		<tag k="natural" v="hill" />
		<tag k="place" v="locality" />
		<tag k="ssr:stedsnr" v="693996" />
	</node>
	<node id="-166675" lat="67.2672250029" lon="15.4476583449">
		<tag k="name" v="Resmohammaren" />
		<tag k="natural" v="hill" />
		<tag k="place" v="locality" />
		<tag k="ssr:stedsnr" v="693869" />
	</node>
	<node id="-166674" lat="67.2611499967" lon="15.4694638992">
		<tag k="name" v="Tyttebærheia" />
		<tag k="natural" v="hill" />
		<tag k="place" v="locality" />
		<tag k="ssr:stedsnr" v="693863" />
	</node>
	<node id="-166671" lat="67.3912555523" lon="15.436569454">
		<tag k="name" v="Austerdalshaugan" />
		<tag k="natural" v="hill" />
		<tag k="place" v="locality" />
		<tag k="ssr:stedsnr" v="693619" />
	</node>
	<node id="-166670" lat="67.3202722207" lon="15.189205546">
		<tag k="name" v="Vasslia" />
		<tag k="natural" v="slope" />
		<tag k="place" v="locality" />
		<tag k="ssr:stedsnr" v="693596" />
	</node>
	<node id="-166665" lat="67.2852583362" lon="15.1610527668">
		<tag k="name" v="Fløttvollen" />
		<tag k="natural" v="hill" />
		<tag k="place" v="locality" />
		<tag k="ssr:stedsnr" v="692642" />
	</node>
	<node id="-166664" lat="67.288222226" lon="15.3525777875">
		<tag k="name" v="Erikstadvasshaugen" />
		<tag k="natural" v="hill" />
		<tag k="place" v="locality" />
		<tag k="ssr:stedsnr" v="541638" />
	</node>
	<node id="-166663" lat="67.3298611133" lon="15.1516972256">
		<tag k="name" v="Notberget" />
		<tag k="natural" v="hill" />
		<tag k="place" v="locality" />
		<tag k="ssr:stedsnr" v="692688" />
	</node>
	<node id="-166662" lat="67.2119833334" lon="15.6280166567">
		<tag k="name" v="Djupfest" />
		<tag k="natural" v="slope" />
		<tag k="place" v="locality" />
		<tag k="ssr:stedsnr" v="541160" />
	</node>
	<node id="-166659" lat="67.3885499976" lon="15.2864916688">
		<tag k="name" v="Akselhola" />
		<tag k="natural" v="valley" />
		<tag k="place" v="locality" />
		<tag k="ssr:stedsnr" v="541347" />
	</node>
	<node id="-166658" lat="67.3898638843" lon="15.3126111196">
		<tag k="name" v="Malmvaskeri" />
		<tag k="place" v="locality" />
		<tag k="ssr:stedsnr" v="541342" />
	</node>
	<node id="-166656" lat="67.4167472262" lon="15.339636108">
		<tag k="name" v="Sivertlia" />
		<tag k="natural" v="slope" />
		<tag k="place" v="locality" />
		<tag k="ssr:stedsnr" v="541302" />
	</node>
	<node id="-166650" lat="67.4300944411" lon="15.355269439">
		<tag k="name" v="Sevastopol" />
		<tag k="place" v="locality" />
		<tag k="ssr:stedsnr" v="692254" />
	</node>
	<node id="-166649" lat="67.2613861142" lon="15.3613389005">
		<tag k="name" v="Farvikdalen" />
		<tag k="natural" v="valley" />
		<tag k="place" v="locality" />
		<tag k="ssr:stedsnr" v="692227" />
	</node>
	<node id="-166648" lat="67.3107972181" lon="15.3196333421">
		<tag k="name" v="Langvassheia" />
		<tag k="natural" v="hill" />
		<tag k="place" v="locality" />
		<tag k="ssr:stedsnr" v="692225" />
	</node>
	<node id="-166645" lat="67.3447888877" lon="15.3101916679">
		<tag k="name" v="Krokberget" />
		<tag k="natural" v="hill" />
		<tag k="place" v="locality" />
		<tag k="ssr:stedsnr" v="692179" />
	</node>
	<node id="-166644" lat="67.345847221" lon="15.291280544">
		<tag k="name" v="Einerlia" />
		<tag k="natural" v="slope" />
		<tag k="place" v="locality" />
		<tag k="ssr:stedsnr" v="692175" />
	</node>
	<node id="-166643" lat="67.3412000016" lon="15.2152111082">
		<tag k="name" v="Ytterlia" />
		<tag k="natural" v="slope" />
		<tag k="place" v="locality" />
		<tag k="ssr:stedsnr" v="692050" />
	</node>
	<node id="-166642" lat="67.3639916702" lon="15.2608277735">
		<tag k="name" v="Storhaugen" />
		<tag k="natural" v="hill" />
		<tag k="place" v="locality" />
		<tag k="ssr:stedsnr" v="691864" />
	</node>
	<node id="-166641" lat="67.265958335" lon="15.1964333352">
		<tag k="name" v="Veltskaret" />
		<tag k="natural" v="valley" />
		<tag k="place" v="locality" />
		<tag k="ssr:stedsnr" v="691776" />
	</node>
	<node id="-166640" lat="67.3852250033" lon="15.3628833329">
		<tag k="fixme" v="consider natural=peak for the most distinct mountains in the district" />
		<tag k="name" v="Seljeåsen" />
		<tag k="natural" v="hill" />
		<tag k="place" v="locality" />
		<tag k="ssr:stedsnr" v="691749" />
	</node>
	<node id="-166638" lat="67.332177782" lon="15.3046305528">
		<tag k="name" v="Storhammaren" />
		<tag k="natural" v="hill" />
		<tag k="place" v="locality" />
		<tag k="ssr:stedsnr" v="691456" />
	</node>
	<node id="-166637" lat="67.33288889" lon="15.3086527743">
		<tag k="fixme" v="consider natural=peak for the most distinct mountains in the district" />
		<tag k="name" v="Grøvene" />
		<tag k="natural" v="hill" />
		<tag k="place" v="locality" />
		<tag k="ssr:stedsnr" v="691453" />
	</node>
	<node id="-166636" lat="67.3348361083" lon="15.2754583306">
		<tag k="name" v="Gammelreitene" />
		<tag k="natural" v="slope" />
		<tag k="place" v="locality" />
		<tag k="ssr:stedsnr" v="691434" />
	</node>
	<node id="-166633" lat="67.309383338" lon="15.2496944356">
		<tag k="name" v="Nordskytjehågen" />
		<tag k="natural" v="hill" />
		<tag k="place" v="locality" />
		<tag k="ssr:stedsnr" v="691334" />
	</node>
	<node id="-166631" lat="67.3040833309" lon="15.1810166547">
		<tag k="name" v="Haugen" />
		<tag k="natural" v="hill" />
		<tag k="place" v="locality" />
		<tag k="ssr:stedsnr" v="691227" />
	</node>
	<node id="-166625" lat="67.26542222" lon="15.185361104">
		<tag k="fixme" v="consider natural=peak for the most distinct mountains in the district" />
		<tag k="name" v="Skrokken" />
		<tag k="natural" v="hill" />
		<tag k="place" v="locality" />
		<tag k="ssr:stedsnr" v="688434" />
	</node>
	<node id="-166622" lat="67.3285749989" lon="15.115569434">
		<tag k="fixme" v="consider natural=peak for the most distinct mountains in the district" />
		<tag k="name" v="Djupdalsnakken" />
		<tag k="natural" v="hill" />
		<tag k="place" v="locality" />
		<tag k="ssr:stedsnr" v="687750" />
	</node>
	<node id="-166617" lat="67.4097583372" lon="15.1686750051">
		<tag k="fixme" v="multiple name tags, choose one and add the other to alt_name; consider natural=peak for the most distinct mountains in the district" />
		<tag k="name" v="Middagstinden;Slurvpåltinden" />
		<tag k="natural" v="hill" />
		<tag k="place" v="locality" />
		<tag k="ssr:stedsnr" v="687574" />
	</node>
	<node id="-166616" lat="67.3980416637" lon="15.1923027818">
		<tag k="name" v="Storbakken" />
		<tag k="natural" v="slope" />
		<tag k="place" v="locality" />
		<tag k="ssr:stedsnr" v="687533" />
	</node>
	<node id="-166613" lat="67.3551055525" lon="15.498308335">
		<tag k="fixme" v="consider natural=peak for the most distinct mountains in the district" />
		<tag k="name" v="Holten" />
		<tag k="natural" v="hill" />
		<tag k="place" v="locality" />
		<tag k="ssr:stedsnr" v="513853" />
	</node>
	<node id="-166612" lat="67.2472250013" lon="15.5161722305">
		<tag k="name" v="Tronghammaren" />
		<tag k="natural" v="hill" />
		<tag k="place" v="locality" />
		<tag k="ssr:stedsnr" v="513663" />
	</node>
	<node id="-166610" lat="67.2568999978" lon="15.4443166637">
		<tag k="name" v="Bratthågen" />
		<tag k="natural" v="hill" />
		<tag k="place" v="locality" />
		<tag k="ssr:stedsnr" v="511881" />
	</node>
	<node id="-166607" lat="67.2204194466" lon="15.4636055642">
		<tag k="fixme" v="consider natural=peak for the most distinct mountains in the district" />
		<tag k="name" v="Storskarfjellet" />
		<tag k="natural" v="hill" />
		<tag k="place" v="locality" />
		<tag k="ssr:stedsnr" v="684951" />
	</node>
	<node id="-166604" lat="67.1928611111" lon="15.8843472309">
		<tag k="alt_name:no" v="Galbmitinden" />
		<tag k="fixme" v="consider natural=peak for the most distinct mountains in the district" />
		<tag k="name" v="Galmitind - Gálmmetjåhkkå" />
		<tag k="name:no" v="Galmitind" />
		<tag k="name:smj" v="Gálmmetjåhkkå" />
		<tag k="natural" v="hill" />
		<tag k="old_name:smj" v="Galbmečohkka" />
		<tag k="place" v="locality" />
		<tag k="ssr:stedsnr" v="684867" />
	</node>
	<node id="-166601" lat="67.2704527799" lon="15.1249666569">
		<tag k="name" v="Bulderberget" />
		<tag k="natural" v="hill" />
		<tag k="place" v="locality" />
		<tag k="ssr:stedsnr" v="510707" />
	</node>
	<node id="-166597" lat="67.335158336" lon="15.2673694411">
		<tag k="name" v="Hunddalbakkan" />
		<tag k="natural" v="slope" />
		<tag k="place" v="locality" />
		<tag k="ssr:stedsnr" v="509455" />
	</node>
	<node id="-166596" lat="67.3569166673" lon="15.3588472177">
		<tag k="name" v="Kvanntoheia" />
		<tag k="natural" v="hill" />
		<tag k="place" v="locality" />
		<tag k="ssr:stedsnr" v="509324" />
	</node>
	<node id="-166595" lat="67.2964444449" lon="15.1610388976">
		<tag k="name" v="Skjellibakken" />
		<tag k="natural" v="slope" />
		<tag k="place" v="locality" />
		<tag k="ssr:stedsnr" v="509322" />
	</node>
	<node id="-166591" lat="67.2519555557" lon="15.8994111042">
		<tag k="fixme" v="consider natural=peak for the most distinct mountains in the district" />
		<tag k="name" v="Kjerringa - Áhkká" />
		<tag k="name:no" v="Kjerringa" />
		<tag k="name:smj" v="Áhkká" />
		<tag k="natural" v="hill" />
		<tag k="place" v="locality" />
		<tag k="ssr:stedsnr" v="684322" />
	</node>
	<node id="-166589" lat="67.1634583352" lon="15.850891671">
		<tag k="name" v="Tomasvarden" />
		<tag k="natural" v="hill" />
		<tag k="place" v="locality" />
		<tag k="ssr:stedsnr" v="684244" />
	</node>
	<node id="-166587" lat="67.2440416685" lon="15.5416805646">
		<tag k="fixme" v="consider natural=peak for the most distinct mountains in the district" />
		<tag k="loc_name" v="Gjemgamenga" />
		<tag k="name" v="Hjemgamkoppen" />
		<tag k="natural" v="hill" />
		<tag k="place" v="locality" />
		<tag k="ssr:stedsnr" v="683928" />
	</node>
	<node id="-166584" lat="67.3732861079" lon="15.3442361109">
		<tag k="name" v="Saudalen" />
		<tag k="natural" v="valley" />
		<tag k="place" v="locality" />
		<tag k="ssr:stedsnr" v="683998" />
	</node>
	<node id="-166581" lat="67.2785277793" lon="15.3394666737">
		<tag k="name" v="Storhaugen" />
		<tag k="natural" v="hill" />
		<tag k="place" v="locality" />
		<tag k="ssr:stedsnr" v="683852" />
	</node>
	<node id="-166573" lat="67.2619833288" lon="15.7925333428">
		<tag k="fixme" v="multiple name tags, choose one and add the other to alt_name" />
		<tag k="name" v="Stønnjolheia;Ugleheia" />
		<tag k="natural" v="hill" />
		<tag k="place" v="locality" />
		<tag k="ssr:stedsnr" v="502288" />
	</node>
	<node id="-166572" lat="67.3891749987" lon="15.2204472301">
		<tag k="fixme" v="consider natural=peak for the most distinct mountains in the district" />
		<tag k="name" v="Blåfjellet" />
		<tag k="natural" v="hill" />
		<tag k="place" v="locality" />
		<tag k="ssr:stedsnr" v="502304" />
	</node>
	<node id="-166569" lat="67.3574833332" lon="15.5476388847">
		<tag k="alt_name" v="Seljåsen" />
		<tag k="fixme" v="consider natural=peak for the most distinct mountains in the district" />
		<tag k="name" v="Seljeåsen" />
		<tag k="natural" v="hill" />
		<tag k="place" v="locality" />
		<tag k="ssr:stedsnr" v="501864" />
	</node>
	<node id="-166568" lat="67.3642777738" lon="15.3120944335">
		<tag k="name" v="Reinlia" />
		<tag k="natural" v="slope" />
		<tag k="place" v="locality" />
		<tag k="ssr:stedsnr" v="501857" />
	</node>
	<node id="-166566" lat="67.4449305583" lon="15.2874750053">
		<tag k="name" v="Nordskaret" />
		<tag k="natural" v="valley" />
		<tag k="place" v="locality" />
		<tag k="ssr:stedsnr" v="501476" />
	</node>
	<node id="-166562" lat="67.062780559" lon="16.0039000045">
		<tag k="fixme" v="consider natural=peak for the most distinct mountains in the district" />
		<tag k="loc_name" v="Såkiåsen" />
		<tag k="name" v="Soahkeåsen" />
		<tag k="natural" v="hill" />
		<tag k="place" v="locality" />
		<tag k="ssr:stedsnr" v="480766" />
	</node>
	<node id="-166560" lat="67.2582999996" lon="15.4886527818">
		<tag k="name" v="Saulia" />
		<tag k="natural" v="slope" />
		<tag k="place" v="locality" />
		<tag k="ssr:stedsnr" v="480517" />
	</node>
	<node id="-166559" lat="67.2569111119" lon="15.4907805489">
		<tag k="name" v="Svartvassletta" />
		<tag k="place" v="locality" />
		<tag k="ssr:stedsnr" v="480515" />
	</node>
	<node id="-166558" lat="67.2564527794" lon="15.5303166711">
		<tag k="name" v="Djupdalen" />
		<tag k="natural" v="valley" />
		<tag k="place" v="locality" />
		<tag k="ssr:stedsnr" v="480505" />
	</node>
	<node id="-166557" lat="67.2218750007" lon="15.5016388885">
		<tag k="name" v="Djupdalen" />
		<tag k="natural" v="valley" />
		<tag k="place" v="locality" />
		<tag k="ssr:stedsnr" v="480359" />
	</node>
	<node id="-166556" lat="67.2293361141" lon="15.4350666764">
		<tag k="name" v="Vedhågen" />
		<tag k="natural" v="hill" />
		<tag k="place" v="locality" />
		<tag k="ssr:stedsnr" v="480310" />
	</node>
	<node id="-166555" lat="67.255024998" lon="15.6163222235">
		<tag k="name" v="Neverskaret" />
		<tag k="natural" v="valley" />
		<tag k="place" v="locality" />
		<tag k="ssr:stedsnr" v="480124" />
	</node>
	<node id="-166554" lat="67.307888887" lon="15.4448777786">
		<tag k="name" v="Rompa" />
		<tag k="natural" v="hill" />
		<tag k="place" v="locality" />
		<tag k="ssr:stedsnr" v="480073" />
	</node>
	<node id="-166553" lat="67.3120416631" lon="15.4151472282">
		<tag k="name" v="Rønna" />
		<tag k="natural" v="slope" />
		<tag k="place" v="locality" />
		<tag k="ssr:stedsnr" v="480055" />
	</node>
	<node id="-166551" lat="67.2401249986" lon="15.5520527739">
		<tag k="name" v="Førrheian" />
		<tag k="natural" v="hill" />
		<tag k="place" v="locality" />
		<tag k="ssr:stedsnr" v="663209" />
	</node>
	<node id="-166550" lat="67.2371722231" lon="15.5952499896">
		<tag k="name" v="Floget" />
		<tag k="natural" v="hill" />
		<tag k="place" v="locality" />
		<tag k="ssr:stedsnr" v="663206" />
	</node>
	<node id="-166549" lat="67.3393527759" lon="15.5346861146">
		<tag k="name" v="Stemheia" />
		<tag k="natural" v="hill" />
		<tag k="place" v="locality" />
		<tag k="ssr:stedsnr" v="663030" />
	</node>
	<node id="-166548" lat="67.3337500034" lon="15.5000750114">
		<tag k="fixme" v="consider natural=peak for the most distinct mountains in the district" />
		<tag k="name" v="Vassryggåsen" />
		<tag k="natural" v="hill" />
		<tag k="place" v="locality" />
		<tag k="ssr:stedsnr" v="663025" />
	</node>
	<node id="-166546" lat="67.1223638222" lon="16.0690991533">
		<tag k="name" v="Rydninga" />
		<tag k="place" v="locality" />
		<tag k="ssr:stedsnr" v="662842" />
	</node>
	<node id="-166545" lat="67.1372249983" lon="16.0566527799">
		<tag k="name" v="Knudsen" />
		<tag k="natural" v="slope" />
		<tag k="place" v="locality" />
		<tag k="ssr:stedsnr" v="662834" />
	</node>
	<node id="-166541" lat="67.1010055547" lon="15.9899833289">
		<tag k="fixme" v="consider natural=peak for the most distinct mountains in the district" />
		<tag k="name" v="Annaskavlen" />
		<tag k="natural" v="hill" />
		<tag k="place" v="locality" />
		<tag k="ssr:stedsnr" v="662799" />
	</node>
	<node id="-166538" lat="67.2811305563" lon="15.211888883">
		<tag k="name" v="Vasslia" />
		<tag k="natural" v="slope" />
		<tag k="place" v="locality" />
		<tag k="ssr:stedsnr" v="662702" />
	</node>
	<node id="-166537" lat="67.2697888899" lon="15.506280549">
		<tag k="name" v="Melkerdallia" />
		<tag k="natural" v="slope" />
		<tag k="place" v="locality" />
		<tag k="ssr:stedsnr" v="662452" />
	</node>
	<node id="-166536" lat="67.2604444416" lon="15.4856833407">
		<tag k="name" v="Mathågen" />
		<tag k="natural" v="hill" />
		<tag k="place" v="locality" />
		<tag k="ssr:stedsnr" v="662440" />
	</node>
	<node id="-166535" lat="67.2720555546" lon="15.5457361049">
		<tag k="name" v="Tjønnhågen" />
		<tag k="natural" v="hill" />
		<tag k="place" v="locality" />
		<tag k="ssr:stedsnr" v="662439" />
	</node>
	<node id="-166531" lat="67.2190111129" lon="15.4151166783">
		<tag k="name" v="Munnavollen" />
		<tag k="place" v="locality" />
		<tag k="ssr:stedsnr" v="662392" />
	</node>
	<node id="-166530" lat="67.2249694419" lon="15.5481888764">
		<tag k="name" v="Trollhågen" />
		<tag k="natural" v="hill" />
		<tag k="place" v="locality" />
		<tag k="ssr:stedsnr" v="662361" />
	</node>
	<node id="-166528" lat="67.3721027738" lon="15.3265638896">
		<tag k="name" v="Joahaugen" />
		<tag k="natural" v="hill" />
		<tag k="place" v="locality" />
		<tag k="ssr:stedsnr" v="662239" />
	</node>
	<node id="-166527" lat="67.381650003" lon="15.3422833442">
		<tag k="name" v="Rundtrøa" />
		<tag k="natural" v="hill" />
		<tag k="place" v="locality" />
		<tag k="ssr:stedsnr" v="662236" />
	</node>
	<node id="-166524" lat="67.2169888886" lon="15.5551805458">
		<tag k="name" v="Ågnøva" />
		<tag k="natural" v="slope" />
		<tag k="place" v="locality" />
		<tag k="ssr:stedsnr" v="662205" />
	</node>
	<node id="-166522" lat="67.2463611095" lon="15.6157527663">
		<tag k="fixme" v="consider natural=peak for the most distinct mountains in the district" />
		<tag k="name" v="Tverrfjellet" />
		<tag k="natural" v="hill" />
		<tag k="place" v="locality" />
		<tag k="ssr:stedsnr" v="662144" />
	</node>
	<node id="-166520" lat="67.2032666659" lon="15.5897638876">
		<tag k="name" v="Høggedalen" />
		<tag k="natural" v="valley" />
		<tag k="place" v="locality" />
		<tag k="ssr:stedsnr" v="662139" />
	</node>
	<node id="-166518" lat="67.2113083344" lon="15.6078000048">
		<tag k="name" v="Hårskoltlia" />
		<tag k="natural" v="slope" />
		<tag k="place" v="locality" />
		<tag k="ssr:stedsnr" v="662129" />
	</node>
	<node id="-166517" lat="67.3935750002" lon="15.4099416598">
		<tag k="name" v="Austerdalshaugen" />
		<tag k="natural" v="hill" />
		<tag k="place" v="locality" />
		<tag k="ssr:stedsnr" v="662101" />
	</node>
	<node id="-166516" lat="67.2488361133" lon="15.4872638983">
		<tag k="name" v="Trongkleivvollen" />
		<tag k="natural" v="hill" />
		<tag k="place" v="locality" />
		<tag k="ssr:stedsnr" v="452208" />
	</node>
	<node id="-166515" lat="67.38399722" lon="15.334930553">
		<tag k="name" v="Gamtufta" />
		<tag k="natural" v="hill" />
		<tag k="place" v="locality" />
		<tag k="ssr:stedsnr" v="449820" />
	</node>
	<node id="-166514" lat="67.3868749972" lon="15.3385888981">
		<tag k="name" v="Storlia" />
		<tag k="natural" v="slope" />
		<tag k="place" v="locality" />
		<tag k="ssr:stedsnr" v="449818" />
	</node>
	<node id="-166513" lat="67.3897361132" lon="15.3255166673">
		<tag k="name" v="Ryggen" />
		<tag k="natural" v="ridge" />
		<tag k="place" v="locality" />
		<tag k="ssr:stedsnr" v="449804" />
	</node>
	<node id="-166512" lat="67.2570000004" lon="15.1605361">
		<tag k="name" v="Sjøhaugen" />
		<tag k="natural" v="hill" />
		<tag k="place" v="locality" />
		<tag k="ssr:stedsnr" v="449706" />
	</node>
	<node id="-166506" lat="67.3542277743" lon="15.3543638764">
		<tag k="name" v="Raudrendlia" />
		<tag k="natural" v="slope" />
		<tag k="place" v="locality" />
		<tag k="ssr:stedsnr" v="449322" />
	</node>
	<node id="-166505" lat="67.3198166678" lon="15.347855556">
		<tag k="name" v="Gammen" />
		<tag k="place" v="locality" />
		<tag k="ssr:stedsnr" v="449307" />
	</node>
	<node id="-166501" lat="67.3581499962" lon="15.2648555515">
		<tag k="name" v="Bakkheia" />
		<tag k="natural" v="hill" />
		<tag k="place" v="locality" />
		<tag k="ssr:stedsnr" v="449110" />
	</node>
	<node id="-166500" lat="67.3326972246" lon="15.2982027767">
		<tag k="fixme" v="consider natural=peak for the most distinct mountains in the district" />
		<tag k="name" v="Blomliknubben" />
		<tag k="natural" v="hill" />
		<tag k="place" v="locality" />
		<tag k="ssr:stedsnr" v="448525" />
	</node>
	<node id="-166495" lat="67.1286888904" lon="16.2919055509">
		<tag k="fixme" v="consider natural=peak for the most distinct mountains in the district" />
		<tag k="name" v="Vágŋatjåhkkå" />
		<tag k="name:smj" v="Vágŋatjåhkkå" />
		<tag k="natural" v="hill" />
		<tag k="old_name:smj" v="Vagńatjåhkkå;Vakŋačohkka" />
		<tag k="ssr:stedsnr" v="519177" />
	</node>
	<node id="-166494" lat="67.292216667" lon="15.1921611176">
		<tag k="name" v="Løkåsheia" />
		<tag k="natural" v="hill" />
		<tag k="place" v="locality" />
		<tag k="ssr:stedsnr" v="420722" />
	</node>
	<node id="-166492" lat="67.2850527779" lon="15.2368472316">
		<tag k="name" v="Gamlia" />
		<tag k="natural" v="slope" />
		<tag k="place" v="locality" />
		<tag k="ssr:stedsnr" v="420717" />
	</node>
	<node id="-166487" lat="67.3141583356" lon="15.460794454">
		<tag k="name" v="Haugen" />
		<tag k="natural" v="hill" />
		<tag k="place" v="locality" />
		<tag k="ssr:stedsnr" v="420042" />
	</node>
	<node id="-166486" lat="67.3247944442" lon="15.5373611027">
		<tag k="name" v="Geitliskar" />
		<tag k="natural" v="valley" />
		<tag k="place" v="locality" />
		<tag k="ssr:stedsnr" v="420032" />
	</node>
	<node id="-166484" lat="67.3252916689" lon="15.4383416595">
		<tag k="name" v="Brynslia" />
		<tag k="natural" v="slope" />
		<tag k="place" v="locality" />
		<tag k="ssr:stedsnr" v="420023" />
	</node>
	<node id="-166480" lat="67.3362333313" lon="15.4459166683">
		<tag k="name" v="Svarthamran" />
		<tag k="natural" v="hill" />
		<tag k="place" v="locality" />
		<tag k="ssr:stedsnr" v="420015" />
	</node>
	<node id="-166475" lat="67.2507666675" lon="15.4948611134">
		<tag k="name" v="Langjothågen" />
		<tag k="natural" v="hill" />
		<tag k="place" v="locality" />
		<tag k="ssr:stedsnr" v="513230" />
	</node>
	<node id="-166472" lat="67.2515916682" lon="15.4776749956">
		<tag k="name" v="Øverpålan" />
		<tag k="place" v="locality" />
		<tag k="ssr:stedsnr" v="513045" />
	</node>
	<node id="-166471" lat="67.2709749977" lon="15.4200944521">
		<tag k="name" v="Lilleskjåheia" />
		<tag k="natural" v="hill" />
		<tag k="place" v="locality" />
		<tag k="ssr:stedsnr" v="511921" />
	</node>
	<node id="-166468" lat="67.3836972255" lon="15.3520749954">
		<tag k="name" v="Kjellarhaugen" />
		<tag k="natural" v="hill" />
		<tag k="place" v="locality" />
		<tag k="ssr:stedsnr" v="510799" />
	</node>
	<node id="-166463" lat="67.2771111073" lon="15.1195361216">
		<tag k="name" v="Bytbakken" />
		<tag k="natural" v="slope" />
		<tag k="place" v="locality" />
		<tag k="ssr:stedsnr" v="510647" />
	</node>
	<node id="-166462" lat="67.2769500044" lon="15.1540888926">
		<tag k="name" v="Trollmoen" />
		<tag k="place" v="locality" />
		<tag k="ssr:stedsnr" v="510645" />
	</node>
	<node id="-166460" lat="67.3340055588" lon="15.1842999912">
		<tag k="name" v="Skykkjenakken" />
		<tag k="natural" v="hill" />
		<tag k="place" v="locality" />
		<tag k="ssr:stedsnr" v="510587" />
	</node>
	<node id="-166456" lat="67.3306083299" lon="15.2686777709">
		<tag k="name" v="Moen" />
		<tag k="place" v="locality" />
		<tag k="ssr:stedsnr" v="510412" />
	</node>
	<node id="-166454" lat="67.3222527813" lon="15.0805527842">
		<tag k="name" v="Nesheia" />
		<tag k="natural" v="hill" />
		<tag k="place" v="locality" />
		<tag k="ssr:stedsnr" v="510348" />
	</node>
	<node id="-166452" lat="67.3150333366" lon="15.2672916677">
		<tag k="name" v="Geitbakkan" />
		<tag k="natural" v="slope" />
		<tag k="place" v="locality" />
		<tag k="ssr:stedsnr" v="510321" />
	</node>
	<node id="-166451" lat="67.3595111086" lon="15.2890388853">
		<tag k="name" v="Dalsletta" />
		<tag k="place" v="locality" />
		<tag k="ssr:stedsnr" v="510225" />
	</node>
	<node id="-166449" lat="67.366047221" lon="15.2236888937">
		<tag k="fixme" v="consider natural=peak for the most distinct mountains in the district" />
		<tag k="name" v="Pe Nilsa-varden" />
		<tag k="natural" v="hill" />
		<tag k="place" v="locality" />
		<tag k="ssr:stedsnr" v="509491" />
	</node>
	<node id="-166448" lat="67.3774805599" lon="15.238733335">
		<tag k="name" v="Svarthola" />
		<tag k="natural" v="valley" />
		<tag k="place" v="locality" />
		<tag k="ssr:stedsnr" v="509485" />
	</node>
	<node id="-166446" lat="67.3197333374" lon="15.2629305626">
		<tag k="name" v="Djuposhamran" />
		<tag k="natural" v="hill" />
		<tag k="place" v="locality" />
		<tag k="ssr:stedsnr" v="509438" />
	</node>
	<node id="-166442" lat="67.3308194412" lon="15.3048194519">
		<tag k="name" v="Høgknubbsletta" />
		<tag k="place" v="locality" />
		<tag k="ssr:stedsnr" v="509421" />
	</node>
	<node id="-166441" lat="67.3296749991" lon="15.3011916647">
		<tag k="name" v="Mathågen" />
		<tag k="natural" v="hill" />
		<tag k="place" v="locality" />
		<tag k="ssr:stedsnr" v="509416" />
	</node>
	<node id="-166440" lat="67.3342861135" lon="15.2749166707">
		<tag k="name" v="Marithågen" />
		<tag k="natural" v="hill" />
		<tag k="place" v="locality" />
		<tag k="ssr:stedsnr" v="509406" />
	</node>
	<node id="-166438" lat="67.3301222211" lon="15.3360138925">
		<tag k="fixme" v="consider natural=peak for the most distinct mountains in the district" />
		<tag k="name" v="Varden" />
		<tag k="natural" v="hill" />
		<tag k="place" v="locality" />
		<tag k="ssr:stedsnr" v="509368" />
	</node>
	<node id="-166437" lat="67.346705558" lon="15.408141669">
		<tag k="fixme" v="consider natural=peak for the most distinct mountains in the district" />
		<tag k="name" v="Gammfjellet" />
		<tag k="natural" v="hill" />
		<tag k="place" v="locality" />
		<tag k="ssr:stedsnr" v="509356" />
	</node>
	<node id="-166436" lat="67.3484416709" lon="15.1848999971">
		<tag k="fixme" v="consider natural=peak for the most distinct mountains in the district" />
		<tag k="name" v="Nordvikfjellet" />
		<tag k="natural" v="hill" />
		<tag k="place" v="locality" />
		<tag k="ssr:stedsnr" v="509040" />
	</node>
	<node id="-166435" lat="67.1660138865" lon="15.7908527762">
		<tag k="name" v="Tjårris" />
		<tag k="natural" v="hill" />
		<tag k="place" v="locality" />
		<tag k="ssr:stedsnr" v="299249" />
	</node>
	<node id="-166434" lat="67.2421972264" lon="15.5650055589">
		<tag k="name" v="Tortenlia" />
		<tag k="natural" v="slope" />
		<tag k="place" v="locality" />
		<tag k="ssr:stedsnr" v="299227" />
	</node>
	<node id="-166429" lat="67.3465694461" lon="15.4940361069">
		<tag k="fixme" v="consider natural=peak for the most distinct mountains in the district" />
		<tag k="name" v="Kvitblikåsen" />
		<tag k="natural" v="hill" />
		<tag k="place" v="locality" />
		<tag k="ssr:stedsnr" v="392860" />
	</node>
	<node id="-166428" lat="67.2923166621" lon="15.4255194489">
		<tag k="name" v="Brøndal" />
		<tag k="natural" v="valley" />
		<tag k="place" v="locality" />
		<tag k="ssr:stedsnr" v="392852" />
	</node>
	<node id="-166427" lat="67.2474666686" lon="15.5028916776">
		<tag k="name" v="Mostohågen" />
		<tag k="natural" v="hill" />
		<tag k="place" v="locality" />
		<tag k="ssr:stedsnr" v="391554" />
	</node>
	<node id="-166426" lat="67.2486888897" lon="15.4720527798">
		<tag k="name" v="Katterhaugen" />
		<tag k="natural" v="hill" />
		<tag k="place" v="locality" />
		<tag k="ssr:stedsnr" v="390895" />
	</node>
	<node id="-166422" lat="67.268941664" lon="15.4104805533">
		<tag k="name" v="Tistelhaugen" />
		<tag k="natural" v="hill" />
		<tag k="place" v="locality" />
		<tag k="ssr:stedsnr" v="390925" />
	</node>
	<node id="-166419" lat="67.3372055586" lon="15.1739166707">
		<tag k="name" v="Nordimarklia" />
		<tag k="natural" v="slope" />
		<tag k="place" v="locality" />
		<tag k="ssr:stedsnr" v="390502" />
	</node>
	<node id="-166418" lat="67.3532444419" lon="15.5239416593">
		<tag k="name" v="Bjørndalhaugen" />
		<tag k="natural" v="hill" />
		<tag k="place" v="locality" />
		<tag k="ssr:stedsnr" v="390166" />
	</node>
	<node id="-166416" lat="67.3025361151" lon="15.2302861125">
		<tag k="name" v="Hjelmhaugen" />
		<tag k="natural" v="hill" />
		<tag k="place" v="locality" />
		<tag k="ssr:stedsnr" v="389309" />
	</node>
	<node id="-166415" lat="67.3858249994" lon="15.3235583392">
		<tag k="name" v="Lillelihammaren" />
		<tag k="natural" v="hill" />
		<tag k="place" v="locality" />
		<tag k="ssr:stedsnr" v="388821" />
	</node>
	<node id="-166412" lat="67.4001222227" lon="15.4328999995">
		<tag k="name" v="Austerdalslia" />
		<tag k="natural" v="slope" />
		<tag k="place" v="locality" />
		<tag k="ssr:stedsnr" v="388517" />
	</node>
	<node id="-166410" lat="67.3048861077" lon="15.2600805525">
		<tag k="name" v="Hellskarlia" />
		<tag k="natural" v="slope" />
		<tag k="place" v="locality" />
		<tag k="ssr:stedsnr" v="388256" />
	</node>
	<node id="-166407" lat="67.3399277752" lon="15.3602249973">
		<tag k="fixme" v="consider natural=peak for the most distinct mountains in the district" />
		<tag k="name" v="Storknubben" />
		<tag k="natural" v="hill" />
		<tag k="place" v="locality" />
		<tag k="ssr:stedsnr" v="388324" />
	</node>
	<node id="-166406" lat="67.3029027784" lon="15.2948166647">
		<tag k="fixme" v="consider natural=peak for the most distinct mountains in the district" />
		<tag k="name" v="Grønflekken" />
		<tag k="natural" v="hill" />
		<tag k="place" v="locality" />
		<tag k="ssr:stedsnr" v="388320" />
	</node>
	<node id="-166404" lat="67.3484083315" lon="15.3460138998">
		<tag k="name" v="Kisthågen" />
		<tag k="natural" v="hill" />
		<tag k="place" v="locality" />
		<tag k="ssr:stedsnr" v="388310" />
	</node>
	<node id="-166402" lat="67.3032250014" lon="15.1973805469">
		<tag k="name" v="Rabben" />
		<tag k="natural" v="slope" />
		<tag k="place" v="locality" />
		<tag k="ssr:stedsnr" v="388173" />
	</node>
	<node id="-166400" lat="67.3093027786" lon="15.1774999977">
		<tag k="name" v="Halsbakk" />
		<tag k="natural" v="slope" />
		<tag k="place" v="locality" />
		<tag k="ssr:stedsnr" v="388156" />
	</node>
	<node id="-166399" lat="67.3564611112" lon="15.2549638966">
		<tag k="name" v="Moeng" />
		<tag k="place" v="locality" />
		<tag k="ssr:stedsnr" v="388109" />
	</node>
	<node id="-166396" lat="67.3095194456" lon="15.1695583378">
		<tag k="fixme" v="consider natural=peak for the most distinct mountains in the district" />
		<tag k="name" v="Brattåsen" />
		<tag k="natural" v="hill" />
		<tag k="place" v="locality" />
		<tag k="ssr:stedsnr" v="384659" />
	</node>
	<node id="-166395" lat="67.383230557" lon="15.4003055599">
		<tag k="fixme" v="consider natural=peak for the most distinct mountains in the district" />
		<tag k="name" v="Oksskarfjellet" />
		<tag k="natural" v="hill" />
		<tag k="place" v="locality" />
		<tag k="ssr:stedsnr" v="502973" />
	</node>
	<node id="-166393" lat="67.2276277792" lon="15.5285472164">
		<tag k="fixme" v="consider natural=peak for the most distinct mountains in the district" />
		<tag k="name" v="Grønlifjellet" />
		<tag k="natural" v="hill" />
		<tag k="place" v="locality" />
		<tag k="ssr:stedsnr" v="502943" />
	</node>
	<node id="-166391" lat="67.3184027785" lon="15.5652333243">
		<tag k="name" v="Sneivegdalen" />
		<tag k="natural" v="valley" />
		<tag k="place" v="locality" />
		<tag k="ssr:stedsnr" v="502822" />
	</node>
	<node id="-166389" lat="67.3361861126" lon="15.4556583427">
		<tag k="name" v="Fjellmyrhaugen" />
		<tag k="natural" v="hill" />
		<tag k="place" v="locality" />
		<tag k="ssr:stedsnr" v="299013" />
	</node>
	<node id="-166385" lat="67.163197219" lon="15.8787583253">
		<tag k="name" v="Frostmodalen" />
		<tag k="natural" v="valley" />
		<tag k="place" v="locality" />
		<tag k="ssr:stedsnr" v="502215" />
	</node>
	<node id="-166383" lat="67.2768027746" lon="15.6911888938">
		<tag k="fixme" v="consider natural=peak for the most distinct mountains in the district" />
		<tag k="name" v="Røyrvassfjellet" />
		<tag k="natural" v="hill" />
		<tag k="place" v="locality" />
		<tag k="ssr:stedsnr" v="501851" />
	</node>
	<node id="-166381" lat="67.2492083319" lon="15.9634194401">
		<tag k="fixme" v="consider natural=peak for the most distinct mountains in the district" />
		<tag k="name" v="Kjerringa - Áhkká" />
		<tag k="name:no" v="Kjerringa" />
		<tag k="name:smj" v="Áhkká" />
		<tag k="natural" v="hill" />
		<tag k="old_name:smj" v="Áhkka" />
		<tag k="place" v="locality" />
		<tag k="ssr:stedsnr" v="501846" />
	</node>
	<node id="-166380" lat="67.2200000041" lon="15.8175916636">
		<tag k="fixme" v="consider natural=peak for the most distinct mountains in the district" />
		<tag k="name" v="Skoffedalsfjellet - Skåhppulvárre" />
		<tag k="name:no" v="Skoffedalsfjellet" />
		<tag k="name:smj" v="Skåhppulvárre" />
		<tag k="natural" v="hill" />
		<tag k="old_name:smj" v="Skohppolvárri;Skåhpulvárre" />
		<tag k="place" v="locality" />
		<tag k="ssr:stedsnr" v="501837" />
	</node>
	<node id="-166375" lat="67.1971749988" lon="15.5989416555">
		<tag k="fixme" v="consider natural=peak for the most distinct mountains in the district" />
		<tag k="name" v="Grønnubben" />
		<tag k="natural" v="hill" />
		<tag k="place" v="locality" />
		<tag k="ssr:stedsnr" v="501972" />
	</node>
	<node id="-166374" lat="67.4016555597" lon="15.4779499951">
		<tag k="fixme" v="consider natural=peak for the most distinct mountains in the district" />
		<tag k="name" v="Falkfloget" />
		<tag k="natural" v="hill" />
		<tag k="place" v="locality" />
		<tag k="ssr:stedsnr" v="501970" />
	</node>
	<node id="-166371" lat="67.4145444413" lon="15.1968166648">
		<tag k="name" v="Drogvasskaret" />
		<tag k="natural" v="valley" />
		<tag k="place" v="locality" />
		<tag k="ssr:stedsnr" v="501935" />
	</node>
	<node id="-166370" lat="67.3300499986" lon="15.352983337">
		<tag k="fixme" v="consider natural=peak for the most distinct mountains in the district" />
		<tag k="name" v="Nystadfjellet" />
		<tag k="natural" v="hill" />
		<tag k="place" v="locality" />
		<tag k="ssr:stedsnr" v="501929" />
	</node>
	<node id="-166369" lat="67.242297219" lon="15.5762749884">
		<tag k="fixme" v="consider natural=peak for the most distinct mountains in the district" />
		<tag k="name" v="Hohammar" />
		<tag k="natural" v="hill" />
		<tag k="place" v="locality" />
		<tag k="ssr:stedsnr" v="501928" />
	</node>
	<node id="-166361" lat="67.1361500035" lon="16.0952416732">
		<tag k="name" v="Giken" />
		<tag k="natural" v="hill" />
		<tag k="place" v="locality" />
		<tag k="ssr:stedsnr" v="501209" />
	</node>
	<node id="-166358" lat="67.1304000031" lon="16.0121472265">
		<tag k="name" v="Sagmolia" />
		<tag k="natural" v="slope" />
		<tag k="place" v="locality" />
		<tag k="ssr:stedsnr" v="501200" />
	</node>
	<node id="-166355" lat="67.1431055516" lon="16.2682638924">
		<tag k="fixme" v="consider natural=peak for the most distinct mountains in the district" />
		<tag k="name" v="Stortoppen" />
		<tag k="natural" v="hill" />
		<tag k="place" v="locality" />
		<tag k="ssr:stedsnr" v="501168" />
	</node>
	<node id="-166354" lat="67.1468055575" lon="16.377305562">
		<tag k="fixme" v="consider natural=peak for the most distinct mountains in the district" />
		<tag k="name" v="Suliskongen" />
		<tag k="natural" v="hill" />
		<tag k="place" v="locality" />
		<tag k="ssr:stedsnr" v="501167" />
	</node>
	<node id="-166353" lat="67.1551388908" lon="16.0446694461">
		<tag k="fixme" v="consider natural=peak for the most distinct mountains in the district" />
		<tag k="name" v="Tuva" />
		<tag k="natural" v="hill" />
		<tag k="place" v="locality" />
		<tag k="ssr:stedsnr" v="359871" />
	</node>
	<node id="-166352" lat="67.1129694413" lon="16.0604555489">
		<tag k="name" v="Stordalen" />
		<tag k="natural" v="valley" />
		<tag k="place" v="locality" />
		<tag k="ssr:stedsnr" v="359859" />
	</node>
	<node id="-166350" lat="67.2637027797" lon="15.5187888796">
		<tag k="name" v="Nordhammaren" />
		<tag k="natural" v="hill" />
		<tag k="place" v="locality" />
		<tag k="ssr:stedsnr" v="359470" />
	</node>
	<node id="-166349" lat="67.2167555583" lon="15.4531916591">
		<tag k="name" v="Småvassheian" />
		<tag k="natural" v="hill" />
		<tag k="place" v="locality" />
		<tag k="ssr:stedsnr" v="359402" />
	</node>
	<node id="-166347" lat="67.2209305566" lon="15.4042722215">
		<tag k="name" v="Hannafloget" />
		<tag k="natural" v="hill" />
		<tag k="place" v="locality" />
		<tag k="ssr:stedsnr" v="359366" />
	</node>
	<node id="-166346" lat="67.1976361079" lon="15.4503805487">
		<tag k="name" v="Røvlemman" />
		<tag k="natural" v="hill" />
		<tag k="place" v="locality" />
		<tag k="ssr:stedsnr" v="359325" />
	</node>
	<node id="-166345" lat="67.1774693423" lon="15.7354312519">
		<tag k="loc_name" v="Bergshola" />
		<tag k="name" v="Bærshola" />
		<tag k="natural" v="valley" />
		<tag k="place" v="locality" />
		<tag k="ssr:stedsnr" v="359226" />
	</node>
	<node id="-166344" lat="67.2141555585" lon="15.5756166733">
		<tag k="name" v="Isflogen" />
		<tag k="natural" v="hill" />
		<tag k="place" v="locality" />
		<tag k="ssr:stedsnr" v="359208" />
	</node>
	<node id="-166343" lat="67.3014249972" lon="15.4101555551">
		<tag k="name" v="Klumsteinhaugen" />
		<tag k="natural" v="hill" />
		<tag k="place" v="locality" />
		<tag k="ssr:stedsnr" v="359062" />
	</node>
	<node id="-166340" lat="67.2996305516" lon="15.1873916714">
		<tag k="name" v="Straumsnessletta" />
		<tag k="place" v="locality" />
		<tag k="ssr:stedsnr" v="483933" />
	</node>
	<node id="-166339" lat="67.2398972219" lon="15.5716000009">
		<tag k="name" v="Hovhammaren" />
		<tag k="natural" v="hill" />
		<tag k="place" v="locality" />
		<tag k="ssr:stedsnr" v="481224" />
	</node>
	<node id="-166331" lat="67.2864861093" lon="15.2441472287">
		<tag k="fixme" v="consider natural=peak for the most distinct mountains in the district" />
		<tag k="name" v="Snøflekkan" />
		<tag k="natural" v="hill" />
		<tag k="place" v="locality" />
		<tag k="ssr:stedsnr" v="480701" />
	</node>
	<node id="-166328" lat="67.2644527783" lon="15.200680547">
		<tag k="name" v="Aksla" />
		<tag k="place" v="locality" />
		<tag k="ssr:stedsnr" v="480693" />
	</node>
	<node id="-166326" lat="67.2898194439" lon="15.3132361193">
		<tag k="name" v="Kasperlia" />
		<tag k="natural" v="slope" />
		<tag k="place" v="locality" />
		<tag k="ssr:stedsnr" v="480651" />
	</node>
	<node id="-166325" lat="67.2801694461" lon="15.2517638917">
		<tag k="name" v="Sommarsetlia" />
		<tag k="natural" v="slope" />
		<tag k="place" v="locality" />
		<tag k="ssr:stedsnr" v="480650" />
	</node>
	<node id="-166324" lat="67.2422833333" lon="15.3197750031">
		<tag k="name" v="Klett" />
		<tag k="natural" v="hill" />
		<tag k="place" v="locality" />
		<tag k="ssr:stedsnr" v="480662" />
	</node>
	<node id="-166323" lat="67.304780556" lon="15.3801361031">
		<tag k="fixme" v="consider natural=peak for the most distinct mountains in the district" />
		<tag k="name" v="Eindafjell" />
		<tag k="natural" v="hill" />
		<tag k="place" v="locality" />
		<tag k="ssr:stedsnr" v="480545" />
	</node>
	<node id="-166322" lat="67.20994167" lon="15.4387416563">
		<tag k="name" v="Svaan" />
		<tag k="natural" v="slope" />
		<tag k="place" v="locality" />
		<tag k="ssr:stedsnr" v="480288" />
	</node>
	<node id="-166321" lat="67.2104222206" lon="15.5396888985">
		<tag k="name" v="Moan" />
		<tag k="place" v="locality" />
		<tag k="ssr:stedsnr" v="480274" />
	</node>
	<node id="-166319" lat="67.3811222237" lon="15.385311114">
		<tag k="fixme" v="consider natural=peak for the most distinct mountains in the district" />
		<tag k="name" v="Tjæsarvarden" />
		<tag k="natural" v="hill" />
		<tag k="place" v="locality" />
		<tag k="ssr:stedsnr" v="480255" />
	</node>
	<node id="-166318" lat="67.217966667" lon="15.506997222">
		<tag k="name" v="Køvdalen" />
		<tag k="natural" v="valley" />
		<tag k="place" v="locality" />
		<tag k="ssr:stedsnr" v="480432" />
	</node>
	<node id="-166317" lat="67.2141833311" lon="15.5175138941">
		<tag k="fixme" v="consider natural=peak for the most distinct mountains in the district" />
		<tag k="name" v="Kaurkvannen" />
		<tag k="natural" v="hill" />
		<tag k="place" v="locality" />
		<tag k="ssr:stedsnr" v="480431" />
	</node>
	<node id="-166315" lat="67.2318388857" lon="15.4910805534">
		<tag k="name" v="Geitliskaret" />
		<tag k="natural" v="valley" />
		<tag k="place" v="locality" />
		<tag k="ssr:stedsnr" v="480386" />
	</node>
	<node id="-166314" lat="67.2200888903" lon="15.4604499994">
		<tag k="name" v="Storskaret" />
		<tag k="natural" v="valley" />
		<tag k="place" v="locality" />
		<tag k="ssr:stedsnr" v="480368" />
	</node>
	<node id="-166313" lat="67.2291499985" lon="15.5270055467">
		<tag k="name" v="Grønlia" />
		<tag k="natural" v="slope" />
		<tag k="place" v="locality" />
		<tag k="ssr:stedsnr" v="480367" />
	</node>
	<node id="-166311" lat="67.4033166647" lon="15.3141166667">
		<tag k="name" v="Middagshaugen" />
		<tag k="natural" v="hill" />
		<tag k="place" v="locality" />
		<tag k="ssr:stedsnr" v="480248" />
	</node>
	<node id="-166309" lat="67.1728499988" lon="15.7382000086">
		<tag k="name" v="Bjørkmoen" />
		<tag k="place" v="locality" />
		<tag k="ssr:stedsnr" v="480187" />
	</node>
	<node id="-166307" lat="67.2985805569" lon="15.232672212">
		<tag k="name" v="Sør- og Nordjarbærhaugen" />
		<tag k="natural" v="hill" />
		<tag k="place" v="locality" />
		<tag k="ssr:stedsnr" v="329310" />
	</node>
	<node id="-166301" lat="67.3230694422" lon="15.0553194352">
		<tag k="name" v="Ytterkleiva" />
		<tag k="natural" v="slope" />
		<tag k="place" v="locality" />
		<tag k="ssr:stedsnr" v="328319" />
	</node>
	<node id="-166300" lat="67.2699055574" lon="15.3100389004">
		<tag k="name" v="Moan" />
		<tag k="place" v="locality" />
		<tag k="ssr:stedsnr" v="328318" />
	</node>
	<node id="-166295" lat="67.3508583365" lon="15.2192583258">
		<tag k="name" v="Kvassteinnakken" />
		<tag k="natural" v="hill" />
		<tag k="place" v="locality" />
		<tag k="ssr:stedsnr" v="327030" />
	</node>
	<node id="-166294" lat="67.2037611156" lon="15.4877333246">
		<tag k="name" v="Mortenlia" />
		<tag k="natural" v="slope" />
		<tag k="place" v="locality" />
		<tag k="ssr:stedsnr" v="472651" />
	</node>
	<node id="-166292" lat="67.2554416697" lon="15.6710583296">
		<tag k="fixme" v="consider natural=peak for the most distinct mountains in the district" />
		<tag k="name" v="Tverrstifjellet" />
		<tag k="natural" v="hill" />
		<tag k="place" v="locality" />
		<tag k="ssr:stedsnr" v="299215" />
	</node>
	<node id="-166291" lat="67.2373000016" lon="15.6764361099">
		<tag k="name" v="Skogneslia" />
		<tag k="natural" v="slope" />
		<tag k="place" v="locality" />
		<tag k="ssr:stedsnr" v="299212" />
	</node>
	<node id="-166287" lat="67.2990250046" lon="15.2072888805">
		<tag k="name" v="Sankthanshaugen" />
		<tag k="natural" v="hill" />
		<tag k="place" v="locality" />
		<tag k="ssr:stedsnr" v="271267" />
	</node>
	<node id="-166285" lat="67.2496972225" lon="15.4621944543">
		<tag k="name" v="Djupkarisletta" />
		<tag k="place" v="locality" />
		<tag k="ssr:stedsnr" v="269903" />
	</node>
	<node id="-166282" lat="67.3273305586" lon="15.1071805459">
		<tag k="name" v="Skuggelia" />
		<tag k="natural" v="slope" />
		<tag k="place" v="locality" />
		<tag k="ssr:stedsnr" v="269707" />
	</node>
	<node id="-166280" lat="67.2988277788" lon="15.1607499938">
		<tag k="name" v="Leitbakken" />
		<tag k="natural" v="slope" />
		<tag k="place" v="locality" />
		<tag k="ssr:stedsnr" v="268310" />
	</node>
	<node id="-166279" lat="67.3242527824" lon="15.0957194373">
		<tag k="name" v="Stormoheia" />
		<tag k="natural" v="hill" />
		<tag k="place" v="locality" />
		<tag k="ssr:stedsnr" v="268305" />
	</node>
	<node id="-166278" lat="67.2984638931" lon="15.1711777675">
		<tag k="name" v="Einvollen" />
		<tag k="natural" v="hill" />
		<tag k="place" v="locality" />
		<tag k="ssr:stedsnr" v="267973" />
	</node>
	<node id="-166274" lat="67.3182000039" lon="15.2746972147">
		<tag k="name" v="Storheia" />
		<tag k="natural" v="hill" />
		<tag k="place" v="locality" />
		<tag k="ssr:stedsnr" v="267413" />
	</node>
	<node id="-166271" lat="67.3324944471" lon="15.3371583279">
		<tag k="name" v="Heimilemmen" />
		<tag k="place" v="locality" />
		<tag k="ssr:stedsnr" v="267358" />
	</node>
	<node id="-166267" lat="67.1539277785" lon="16.3553749985">
		<tag k="fixme" v="consider natural=peak for the most distinct mountains in the district" />
		<tag k="name" v="Dama" />
		<tag k="natural" v="hill" />
		<tag k="place" v="locality" />
		<tag k="ssr:stedsnr" v="259160" />
	</node>
	<node id="-166266" lat="67.125397226" lon="16.2726388829">
		<tag k="alt_name:no" v="Otertoppen" />
		<tag k="fixme" v="consider natural=peak for the most distinct mountains in the district" />
		<tag k="name" v="Otertinden - Tjævrrátjåhkkå" />
		<tag k="name:no" v="Otertinden" />
		<tag k="name:smj" v="Tjævrrátjåhkkå" />
		<tag k="natural" v="hill" />
		<tag k="old_name:smj" v="Čeavračohkka" />
		<tag k="place" v="locality" />
		<tag k="ssr:stedsnr" v="259156" />
	</node>
	<node id="-166265" lat="67.1724666685" lon="15.8667611134">
		<tag k="name" v="Osbakk" />
		<tag k="natural" v="slope" />
		<tag k="place" v="locality" />
		<tag k="ssr:stedsnr" v="259224" />
	</node>
	<node id="-166263" lat="67.1537138912" lon="15.9939888816">
		<tag k="name" v="Bursi" />
		<tag k="place" v="locality" />
		<tag k="ssr:stedsnr" v="259206" />
	</node>
	<node id="-166258" lat="67.3015333329" lon="15.2060666573">
		<tag k="name" v="Trammoen" />
		<tag k="place" v="locality" />
		<tag k="ssr:stedsnr" v="453255" />
	</node>
	<node id="-166257" lat="67.2351361113" lon="15.4994527826">
		<tag k="name" v="Rabben" />
		<tag k="natural" v="hill" />
		<tag k="place" v="locality" />
		<tag k="ssr:stedsnr" v="452556" />
	</node>
	<node id="-166255" lat="67.2385777821" lon="15.546683325">
		<tag k="name" v="Førrheian" />
		<tag k="natural" v="hill" />
		<tag k="place" v="locality" />
		<tag k="ssr:stedsnr" v="451997" />
	</node>
	<node id="-166253" lat="67.3243694489" lon="15.1234388807">
		<tag k="name" v="Kleiva" />
		<tag k="natural" v="hill" />
		<tag k="place" v="locality" />
		<tag k="ssr:stedsnr" v="451691" />
	</node>
	<node id="-166251" lat="67.3239833332" lon="15.1789944516">
		<tag k="name" v="Lekkerheia" />
		<tag k="natural" v="hill" />
		<tag k="place" v="locality" />
		<tag k="ssr:stedsnr" v="451556" />
	</node>
	<node id="-166248" lat="67.3237416696" lon="15.0941527754">
		<tag k="name" v="Leite" />
		<tag k="natural" v="slope" />
		<tag k="place" v="locality" />
		<tag k="ssr:stedsnr" v="450296" />
	</node>
	<node id="-166247" lat="67.2672249965" lon="15.2653722129">
		<tag k="name" v="Røvikkleiva" />
		<tag k="natural" v="hill" />
		<tag k="place" v="locality" />
		<tag k="ssr:stedsnr" v="450357" />
	</node>
	<node id="-166246" lat="67.3239305531" lon="15.0789833381">
		<tag k="name" v="Hellmyra" />
		<tag k="natural" v="hill" />
		<tag k="place" v="locality" />
		<tag k="ssr:stedsnr" v="450355" />
	</node>
	<node id="-166245" lat="67.3790361072" lon="15.2797833331">
		<tag k="name" v="Tverrlia" />
		<tag k="natural" v="slope" />
		<tag k="place" v="locality" />
		<tag k="ssr:stedsnr" v="449801" />
	</node>
	<node id="-166240" lat="67.3612749999" lon="15.2241388844">
		<tag k="name" v="Fridalen" />
		<tag k="natural" v="valley" />
		<tag k="place" v="locality" />
		<tag k="ssr:stedsnr" v="449493" />
	</node>
	<node id="-166239" lat="67.4402277781" lon="15.3551777751">
		<tag k="fixme" v="consider natural=peak for the most distinct mountains in the district" />
		<tag k="name" v="Krubblihaugen" />
		<tag k="natural" v="hill" />
		<tag k="place" v="locality" />
		<tag k="ssr:stedsnr" v="449276" />
	</node>
	<node id="-166237" lat="67.3359222197" lon="15.2781055613">
		<tag k="name" v="Flåmyrengan" />
		<tag k="natural" v="slope" />
		<tag k="place" v="locality" />
		<tag k="ssr:stedsnr" v="449400" />
	</node>
	<node id="-166236" lat="67.2995333305" lon="15.3727388769">
		<tag k="name" v="Holbenkan" />
		<tag k="place" v="locality" />
		<tag k="ssr:stedsnr" v="449387" />
	</node>
	<node id="-166235" lat="67.3152317823" lon="15.3030016982">
		<tag k="name" v="Varden" />
		<tag k="natural" v="hill" />
		<tag k="place" v="locality" />
		<tag k="ssr:stedsnr" v="449375" />
	</node>
	<node id="-166234" lat="67.3227499991" lon="15.3081583277">
		<tag k="name" v="Storvassheia" />
		<tag k="natural" v="hill" />
		<tag k="place" v="locality" />
		<tag k="ssr:stedsnr" v="449350" />
	</node>
	<node id="-166232" lat="67.3323138866" lon="15.3139666652">
		<tag k="fixme" v="consider natural=peak for the most distinct mountains in the district" />
		<tag k="name" v="Kvannliknubben" />
		<tag k="natural" v="hill" />
		<tag k="place" v="locality" />
		<tag k="ssr:stedsnr" v="449336" />
	</node>
	<node id="-166226" lat="67.3443750027" lon="15.1735583345">
		<tag k="name" v="Svarthammaren" />
		<tag k="natural" v="hill" />
		<tag k="place" v="locality" />
		<tag k="ssr:stedsnr" v="449036" />
	</node>
	<node id="-166224" lat="67.2821472205" lon="15.204286102">
		<tag k="name" v="Yttervasslia" />
		<tag k="natural" v="slope" />
		<tag k="place" v="locality" />
		<tag k="ssr:stedsnr" v="445697" />
	</node>
	<node id="-166210" lat="67.2790055533" lon="15.2258361011">
		<tag k="name" v="Åsen" />
		<tag k="natural" v="hill" />
		<tag k="place" v="locality" />
		<tag k="ssr:stedsnr" v="441885" />
	</node>
	<node id="-166209" lat="67.2811222217" lon="15.2815416773">
		<tag k="alt_name" v="Lillesteinfjellet" />
		<tag k="fixme" v="consider natural=peak for the most distinct mountains in the district" />
		<tag k="name" v="Litlsteinfjellet" />
		<tag k="natural" v="hill" />
		<tag k="place" v="locality" />
		<tag k="ssr:stedsnr" v="441884" />
	</node>
	<node id="-166208" lat="67.2814194421" lon="15.4993805605">
		<tag k="fixme" v="consider natural=peak for the most distinct mountains in the district" />
		<tag k="name" v="Finneidfjellet" />
		<tag k="natural" v="hill" />
		<tag k="place" v="locality" />
		<tag k="ssr:stedsnr" v="441880" />
	</node>
	<node id="-166204" lat="67.2752249991" lon="15.8424805529">
		<tag k="name" v="Hekldalen" />
		<tag k="natural" v="valley" />
		<tag k="place" v="locality" />
		<tag k="ssr:stedsnr" v="441298" />
	</node>
	<node id="-166203" lat="67.2756222235" lon="15.81816112">
		<tag k="fixme" v="consider natural=peak for the most distinct mountains in the district" />
		<tag k="name" v="Raudtinden" />
		<tag k="natural" v="hill" />
		<tag k="place" v="locality" />
		<tag k="ssr:stedsnr" v="441296" />
	</node>
	<node id="-166197" lat="67.072477774" lon="16.1351583227">
		<tag k="name" v="Kong Oscar" />
		<tag k="place" v="locality" />
		<tag k="ssr:stedsnr" v="441192" />
	</node>
	<node id="-166196" lat="67.2040888878" lon="16.3975611126">
		<tag k="fixme" v="consider natural=peak for the most distinct mountains in the district" />
		<tag k="name" v="Svarthammaren" />
		<tag k="natural" v="hill" />
		<tag k="place" v="locality" />
		<tag k="ssr:stedsnr" v="441169" />
	</node>
	<node id="-166189" lat="67.1402083368" lon="16.0906277719">
		<tag k="name" v="Lapphelleren" />
		<tag k="place" v="locality" />
		<tag k="ssr:stedsnr" v="298802" />
	</node>
	<node id="-166185" lat="67.1052416652" lon="16.0024805628">
		<tag k="name" v="Storsnyskavlen" />
		<tag k="natural" v="slope" />
		<tag k="place" v="locality" />
		<tag k="ssr:stedsnr" v="298717" />
	</node>
	<node id="-166184" lat="67.2883194414" lon="15.1796888872">
		<tag k="name" v="Sankthanshågen" />
		<tag k="natural" v="hill" />
		<tag k="place" v="locality" />
		<tag k="ssr:stedsnr" v="298682" />
	</node>
	<node id="-166182" lat="67.2894222229" lon="15.1796499914">
		<tag k="name" v="Vargvollen" />
		<tag k="place" v="locality" />
		<tag k="ssr:stedsnr" v="298679" />
	</node>
	<node id="-166180" lat="67.2913749996" lon="15.2062222254">
		<tag k="name" v="Stormyrhågen" />
		<tag k="natural" v="hill" />
		<tag k="place" v="locality" />
		<tag k="ssr:stedsnr" v="298673" />
	</node>
	<node id="-166179" lat="67.2784583309" lon="15.2123749969">
		<tag k="name" v="Nakken" />
		<tag k="natural" v="ridge" />
		<tag k="place" v="locality" />
		<tag k="ssr:stedsnr" v="298667" />
	</node>
	<node id="-166178" lat="67.2821361093" lon="15.2250055526">
		<tag k="name" v="Grønlia" />
		<tag k="natural" v="slope" />
		<tag k="place" v="locality" />
		<tag k="ssr:stedsnr" v="298664" />
	</node>
	<node id="-166177" lat="67.2425805518" lon="15.2954777739">
		<tag k="name" v="Kleiva" />
		<tag k="natural" v="slope" />
		<tag k="place" v="locality" />
		<tag k="ssr:stedsnr" v="298647" />
	</node>
	<node id="-166176" lat="67.2332722224" lon="15.2992305478">
		<tag k="name" v="Skjellbakklia" />
		<tag k="natural" v="slope" />
		<tag k="place" v="locality" />
		<tag k="ssr:stedsnr" v="298632" />
	</node>
	<node id="-166175" lat="67.2418750022" lon="15.3389027762">
		<tag k="name" v="Naustberg" />
		<tag k="natural" v="hill" />
		<tag k="place" v="locality" />
		<tag k="ssr:stedsnr" v="298627" />
	</node>
	<node id="-166172" lat="67.2736722246" lon="15.5238055468">
		<tag k="name" v="Tverrheian" />
		<tag k="natural" v="hill" />
		<tag k="place" v="locality" />
		<tag k="ssr:stedsnr" v="298400" />
	</node>
	<node id="-166171" lat="67.2552083371" lon="15.4786694393">
		<tag k="name" v="Kvitsteinlia" />
		<tag k="natural" v="slope" />
		<tag k="place" v="locality" />
		<tag k="ssr:stedsnr" v="298394" />
	</node>
	<node id="-166170" lat="67.2619638883" lon="15.4204944356">
		<tag k="name" v="Prestberget" />
		<tag k="natural" v="hill" />
		<tag k="place" v="locality" />
		<tag k="ssr:stedsnr" v="298378" />
	</node>
	<node id="-166168" lat="67.2624916635" lon="15.4147083296">
		<tag k="name" v="Lillehusberget" />
		<tag k="natural" v="hill" />
		<tag k="place" v="locality" />
		<tag k="ssr:stedsnr" v="298366" />
	</node>
	<node id="-166166" lat="67.2273083371" lon="15.4911944521">
		<tag k="name" v="Lihågan" />
		<tag k="natural" v="hill" />
		<tag k="place" v="locality" />
		<tag k="ssr:stedsnr" v="298343" />
	</node>
	<node id="-166163" lat="67.407369446" lon="15.3666083289">
		<tag k="name" v="Trollvasshaugen" />
		<tag k="natural" v="hill" />
		<tag k="place" v="locality" />
		<tag k="ssr:stedsnr" v="298264" />
	</node>
	<node id="-166161" lat="67.4133666629" lon="15.3131305557">
		<tag k="fixme" v="consider natural=peak for the most distinct mountains in the district" />
		<tag k="name" v="Kollen" />
		<tag k="natural" v="hill" />
		<tag k="place" v="locality" />
		<tag k="ssr:stedsnr" v="298252" />
	</node>
	<node id="-166160" lat="67.2293194407" lon="15.6037861171">
		<tag k="name" v="Stibakkan" />
		<tag k="natural" v="slope" />
		<tag k="place" v="locality" />
		<tag k="ssr:stedsnr" v="298207" />
	</node>
	<node id="-166159" lat="67.2304416694" lon="15.5934166662">
		<tag k="name" v="Okshammaren" />
		<tag k="natural" v="hill" />
		<tag k="place" v="locality" />
		<tag k="ssr:stedsnr" v="298190" />
	</node>
	<node id="-166157" lat="67.4055027783" lon="15.4001194534">
		<tag k="name" v="Hesjehaugen" />
		<tag k="natural" v="hill" />
		<tag k="place" v="locality" />
		<tag k="ssr:stedsnr" v="298126" />
	</node>
	<node id="-166154" lat="67.3053611087" lon="15.3994000065">
		<tag k="name" v="Merafteslia" />
		<tag k="natural" v="slope" />
		<tag k="place" v="locality" />
		<tag k="ssr:stedsnr" v="298081" />
	</node>
	<node id="-166152" lat="67.3115777743" lon="15.4204805592">
		<tag k="name" v="Sandhaugen" />
		<tag k="natural" v="hill" />
		<tag k="place" v="locality" />
		<tag k="ssr:stedsnr" v="298074" />
	</node>
	<node id="-166151" lat="67.3143666642" lon="15.4070777776">
		<tag k="loc_name" v="Benkjen" />
		<tag k="name" v="Benken" />
		<tag k="place" v="locality" />
		<tag k="ssr:stedsnr" v="298059" />
	</node>
	<node id="-166145" lat="67.3056749976" lon="15.1990194543">
		<tag k="name" v="Hageneshaugen" />
		<tag k="natural" v="hill" />
		<tag k="place" v="locality" />
		<tag k="ssr:stedsnr" v="206186" />
	</node>
	<node id="-166144" lat="67.3009611132" lon="15.18500001">
		<tag k="name" v="Straumberget" />
		<tag k="natural" v="hill" />
		<tag k="place" v="locality" />
		<tag k="ssr:stedsnr" v="206204" />
	</node>
	<node id="-166143" lat="67.3415500011" lon="15.2030444355">
		<tag k="fixme" v="consider natural=peak for the most distinct mountains in the district" />
		<tag k="name" v="Vargnakken" />
		<tag k="natural" v="hill" />
		<tag k="place" v="locality" />
		<tag k="ssr:stedsnr" v="202755" />
	</node>
	<node id="-166142" lat="67.3233027763" lon="15.3206166686">
		<tag k="alt_name" v="Tokdalen, litle" />
		<tag k="fixme" v="multiple name tags, choose one and add the other to alt_name" />
		<tag k="loc_name" v="Per Sjurso-dalen;Lille-Tokdalen" />
		<tag k="name" v="Per Sjursodalen;Litle Toktdalen" />
		<tag k="natural" v="valley" />
		<tag k="place" v="locality" />
		<tag k="ssr:stedsnr" v="198926" />
	</node>
	<node id="-166141" lat="67.2920527801" lon="15.2944833416">
		<tag k="loc_name" v="Hellskaret" />
		<tag k="name" v="Helskaret" />
		<tag k="natural" v="valley" />
		<tag k="place" v="locality" />
		<tag k="ssr:stedsnr" v="198849" />
	</node>
	<node id="-166140" lat="67.3002833323" lon="15.3815972153">
		<tag k="name" v="Svartvasshaugen" />
		<tag k="natural" v="hill" />
		<tag k="place" v="locality" />
		<tag k="ssr:stedsnr" v="198826" />
	</node>
	<node id="-166137" lat="67.3100277817" lon="15.5490194387">
		<tag k="fixme" v="consider natural=peak for the most distinct mountains in the district" />
		<tag k="name" v="Litltuva" />
		<tag k="natural" v="hill" />
		<tag k="place" v="locality" />
		<tag k="ssr:stedsnr" v="198816" />
	</node>
	<node id="-166136" lat="67.312891664" lon="15.4586083323">
		<tag k="fixme" v="consider natural=peak for the most distinct mountains in the district" />
		<tag k="name" v="Vargåsen" />
		<tag k="natural" v="hill" />
		<tag k="place" v="locality" />
		<tag k="ssr:stedsnr" v="198814" />
	</node>
	<node id="-166134" lat="67.3149722246" lon="15.2638805566">
		<tag k="name" v="Kvithågen" />
		<tag k="natural" v="hill" />
		<tag k="place" v="locality" />
		<tag k="ssr:stedsnr" v="198809" />
	</node>
	<node id="-166132" lat="67.270130558" lon="15.4224222169">
		<tag k="name" v="Skjåheia" />
		<tag k="natural" v="hill" />
		<tag k="place" v="locality" />
		<tag k="ssr:stedsnr" v="198745" />
	</node>
	<node id="-166127" lat="67.1324876628" lon="16.0879099527">
		<tag k="name" v="Grunnstollen" />
		<tag k="place" v="locality" />
		<tag k="ssr:stedsnr" v="177863" />
	</node>
	<node id="-166125" lat="67.2806611141" lon="15.2898666617">
		<tag k="name" v="Hammarlia" />
		<tag k="natural" v="slope" />
		<tag k="place" v="locality" />
		<tag k="ssr:stedsnr" v="177667" />
	</node>
	<node id="-166124" lat="67.2857277782" lon="15.2096305607">
		<tag k="name" v="Halsen" />
		<tag k="natural" v="valley" />
		<tag k="place" v="locality" />
		<tag k="ssr:stedsnr" v="177721" />
	</node>
	<node id="-166123" lat="67.2601500025" lon="15.1744944399">
		<tag k="name" v="Skrokken" />
		<tag k="natural" v="slope" />
		<tag k="place" v="locality" />
		<tag k="ssr:stedsnr" v="177720" />
	</node>
	<node id="-166122" lat="67.2976416645" lon="15.3874055617">
		<tag k="name" v="Høglien" />
		<tag k="natural" v="slope" />
		<tag k="place" v="locality" />
		<tag k="ssr:stedsnr" v="177565" />
	</node>
	<node id="-166121" lat="67.2180888921" lon="15.5489333251">
		<tag k="name" v="Pettermoen" />
		<tag k="place" v="locality" />
		<tag k="ssr:stedsnr" v="177455" />
	</node>
	<node id="-166120" lat="67.2617694433" lon="15.4092944398">
		<tag k="name" v="Storhusberg" />
		<tag k="natural" v="hill" />
		<tag k="place" v="locality" />
		<tag k="ssr:stedsnr" v="177415" />
	</node>
	<node id="-166119" lat="67.2289361154" lon="15.4398749904">
		<tag k="name" v="Svahågen" />
		<tag k="natural" v="hill" />
		<tag k="place" v="locality" />
		<tag k="ssr:stedsnr" v="177409" />
	</node>
	<node id="-166118" lat="67.4043472242" lon="15.3664194348">
		<tag k="name" v="Storskaret" />
		<tag k="natural" v="valley" />
		<tag k="place" v="locality" />
		<tag k="ssr:stedsnr" v="177275" />
	</node>
	<node id="-166110" lat="67.4126222263" lon="15.3711444356">
		<tag k="name" v="Skrømthaugen" />
		<tag k="natural" v="hill" />
		<tag k="place" v="locality" />
		<tag k="ssr:stedsnr" v="146762" />
	</node>
	<node id="-166108" lat="67.389358338" lon="15.3740833273">
		<tag k="name" v="Kvannlia" />
		<tag k="natural" v="slope" />
		<tag k="place" v="locality" />
		<tag k="ssr:stedsnr" v="145763" />
	</node>
	<node id="-166106" lat="67.2872611131" lon="15.1730000087">
		<tag k="name" v="Kalvmoen" />
		<tag k="place" v="locality" />
		<tag k="ssr:stedsnr" v="145655" />
	</node>
	<node id="-166104" lat="67.3376499962" lon="15.2867111126">
		<tag k="name" v="Skølihågen" />
		<tag k="natural" v="hill" />
		<tag k="place" v="locality" />
		<tag k="ssr:stedsnr" v="145417" />
	</node>
	<node id="-166101" lat="67.228008332" lon="15.3674388961">
		<tag k="name" v="Pinvikhammaren" />
		<tag k="natural" v="hill" />
		<tag k="place" v="locality" />
		<tag k="ssr:stedsnr" v="271830" />
	</node>
	<node id="-166098" lat="67.2519000017" lon="15.5341638919">
		<tag k="name" v="Lusbakken" />
		<tag k="natural" v="slope" />
		<tag k="place" v="locality" />
		<tag k="ssr:stedsnr" v="270522" />
	</node>
	<node id="-166097" lat="67.2503361072" lon="15.5257166709">
		<tag k="name" v="Tronghola" />
		<tag k="natural" v="valley" />
		<tag k="place" v="locality" />
		<tag k="ssr:stedsnr" v="270521" />
	</node>
	<node id="-166095" lat="67.3259444484" lon="15.1321555454">
		<tag k="name" v="Julgeitberget" />
		<tag k="natural" v="hill" />
		<tag k="place" v="locality" />
		<tag k="ssr:stedsnr" v="269695" />
	</node>
	<node id="-166094" lat="67.3415083317" lon="15.5371444552">
		<tag k="name" v="Stemheia" />
		<tag k="natural" v="hill" />
		<tag k="place" v="locality" />
		<tag k="ssr:stedsnr" v="269157" />
	</node>
	<node id="-166092" lat="67.2723694489" lon="15.4293555486">
		<tag k="name" v="Larsoheia" />
		<tag k="natural" v="hill" />
		<tag k="place" v="locality" />
		<tag k="ssr:stedsnr" v="268905" />
	</node>
	<node id="-166090" lat="67.3935944472" lon="15.3955611126">
		<tag k="name" v="Tømmerskaret" />
		<tag k="natural" v="valley" />
		<tag k="place" v="locality" />
		<tag k="ssr:stedsnr" v="268598" />
	</node>
	<node id="-166089" lat="67.3292694479" lon="15.1997250012">
		<tag k="name" v="Storboglia" />
		<tag k="natural" v="slope" />
		<tag k="place" v="locality" />
		<tag k="ssr:stedsnr" v="268586" />
	</node>
	<node id="-166088" lat="67.334822219" lon="15.1871555536">
		<tag k="name" v="Nordskykkjebakken" />
		<tag k="natural" v="slope" />
		<tag k="place" v="locality" />
		<tag k="ssr:stedsnr" v="268574" />
	</node>
	<node id="-166087" lat="67.2540379508" lon="15.8207707674">
		<tag k="name" v="Norddalen - Luossavuobme" />
		<tag k="name:no" v="Norddalen" />
		<tag k="name:smj" v="Luossavuobme" />
		<tag k="natural" v="valley" />
		<tag k="old_name:smj" v="Luossavuopmi" />
		<tag k="place" v="locality" />
		<tag k="ssr:stedsnr" v="137857" />
	</node>
	<node id="-166077" lat="67.3136138914" lon="15.5646638913">
		<tag k="name" v="Gamstø" />
		<tag k="place" v="locality" />
		<tag k="ssr:stedsnr" v="137804" />
	</node>
	<node id="-166075" lat="67.4216166627" lon="15.2520888956">
		<tag k="name" v="Sørskaret" />
		<tag k="natural" v="valley" />
		<tag k="place" v="locality" />
		<tag k="ssr:stedsnr" v="137520" />
	</node>
	<node id="-166072" lat="67.2745611092" lon="15.7969250031">
		<tag k="fixme" v="consider natural=peak for the most distinct mountains in the district" />
		<tag k="name" v="Raudtindaksla" />
		<tag k="natural" v="hill" />
		<tag k="place" v="locality" />
		<tag k="ssr:stedsnr" v="137277" />
	</node>
	<node id="-166071" lat="67.2858750034" lon="15.9205222139">
		<tag k="fixme" v="consider natural=peak for the most distinct mountains in the district" />
		<tag k="name" v="Sisovasstinden" />
		<tag k="natural" v="hill" />
		<tag k="place" v="locality" />
		<tag k="ssr:stedsnr" v="137275" />
	</node>
	<node id="-166069" lat="67.1440750042" lon="16.2581611169">
		<tag k="fixme" v="consider natural=peak for the most distinct mountains in the district" />
		<tag k="name" v="Vardetoppen" />
		<tag k="natural" v="hill" />
		<tag k="place" v="locality" />
		<tag k="ssr:stedsnr" v="137136" />
	</node>
	<node id="-166066" lat="67.2699111096" lon="15.1944611026">
		<tag k="fixme" v="consider natural=peak for the most distinct mountains in the district" />
		<tag k="name" v="Storlivarden" />
		<tag k="natural" v="hill" />
		<tag k="place" v="locality" />
		<tag k="ssr:stedsnr" v="267780" />
	</node>
	<node id="-166061" lat="67.3600611121" lon="15.2236416658">
		<tag k="name" v="Vølhammaren" />
		<tag k="natural" v="hill" />
		<tag k="place" v="locality" />
		<tag k="ssr:stedsnr" v="267478" />
	</node>
	<node id="-166055" lat="67.335944443" lon="15.2678055583">
		<tag k="name" v="Skykkjebakken" />
		<tag k="natural" v="slope" />
		<tag k="place" v="locality" />
		<tag k="ssr:stedsnr" v="267347" />
	</node>
	<node id="-166054" lat="67.3336583371" lon="15.3138333339">
		<tag k="name" v="Kvannlia" />
		<tag k="natural" v="slope" />
		<tag k="place" v="locality" />
		<tag k="ssr:stedsnr" v="267338" />
	</node>
	<node id="-166053" lat="67.3362999986" lon="15.3136583236">
		<tag k="name" v="Bjønndalen" />
		<tag k="natural" v="valley" />
		<tag k="place" v="locality" />
		<tag k="ssr:stedsnr" v="267332" />
	</node>
	<node id="-166051" lat="67.2964444449" lon="15.1610388976">
		<tag k="name" v="Labakkhola" />
		<tag k="natural" v="valley" />
		<tag k="place" v="locality" />
		<tag k="ssr:stedsnr" v="267310" />
	</node>
	<node id="-166050" lat="67.3401388887" lon="15.3780222238">
		<tag k="name" v="Strandværshellaren" />
		<tag k="natural" v="hill" />
		<tag k="place" v="locality" />
		<tag k="ssr:stedsnr" v="267302" />
	</node>
	<node id="-166047" lat="67.313588891" lon="15.2788194411">
		<tag k="name" v="Grønlinakkan" />
		<tag k="natural" v="slope" />
		<tag k="place" v="locality" />
		<tag k="ssr:stedsnr" v="267292" />
	</node>
	<node id="-166039" lat="67.3412833351" lon="15.278816664">
		<tag k="loc_name" v="Tokdalmoen" />
		<tag k="name" v="Toktdalmoen" />
		<tag k="natural" v="slope" />
		<tag k="place" v="locality" />
		<tag k="ssr:stedsnr" v="267157" />
	</node>
	<node id="-166037" lat="67.3346083331" lon="15.3009833233">
		<tag k="name" v="Lomtjønnlia" />
		<tag k="natural" v="slope" />
		<tag k="place" v="locality" />
		<tag k="ssr:stedsnr" v="266484" />
	</node>
	<node id="-166028" lat="67.3049999991" lon="15.1577972198">
		<tag k="name" v="Brattflogan" />
		<tag k="natural" v="hill" />
		<tag k="place" v="locality" />
		<tag k="ssr:stedsnr" v="263651" />
	</node>
	<node id="-166024" lat="67.2398694479" lon="15.5984916727">
		<tag k="name" v="Engedalen" />
		<tag k="natural" v="valley" />
		<tag k="place" v="locality" />
		<tag k="ssr:stedsnr" v="117239" />
	</node>
	<node id="-166020" lat="67.2576444483" lon="15.4828916634">
		<tag k="name" v="Kvitsteinslia" />
		<tag k="natural" v="slope" />
		<tag k="place" v="locality" />
		<tag k="ssr:stedsnr" v="116511" />
	</node>
	<node id="-166019" lat="67.2187277786" lon="15.5423750079">
		<tag k="name" v="Ørrdalen" />
		<tag k="natural" v="valley" />
		<tag k="place" v="locality" />
		<tag k="ssr:stedsnr" v="116423" />
	</node>
	<node id="-166017" lat="67.2257861097" lon="15.430649991">
		<tag k="name" v="Brattbakkan" />
		<tag k="natural" v="slope" />
		<tag k="place" v="locality" />
		<tag k="ssr:stedsnr" v="116319" />
	</node>
	<node id="-166016" lat="67.4058194413" lon="15.4177111088">
		<tag k="name" v="Dalen" />
		<tag k="natural" v="valley" />
		<tag k="place" v="locality" />
		<tag k="ssr:stedsnr" v="116116" />
	</node>
	<node id="-166015" lat="67.4201472219" lon="15.401902772">
		<tag k="name" v="Jettegryte" />
		<tag k="natural" v="valley" />
		<tag k="place" v="locality" />
		<tag k="ssr:stedsnr" v="116112" />
	</node>
	<node id="-166014" lat="67.2188055518" lon="15.5620722188">
		<tag k="name" v="Vindsetlia" />
		<tag k="natural" v="slope" />
		<tag k="place" v="locality" />
		<tag k="ssr:stedsnr" v="116215" />
	</node>
	<node id="-166000" lat="67.2824249959" lon="15.4567277719">
		<tag k="name" v="Furlemman" />
		<tag k="natural" v="slope" />
		<tag k="place" v="locality" />
		<tag k="ssr:stedsnr" v="259869" />
	</node>
	<node id="-165998" lat="67.2573861144" lon="15.5723611059">
		<tag k="alt_name" v="Resmålstuva" />
		<tag k="fixme" v="consider natural=peak for the most distinct mountains in the district" />
		<tag k="name" v="Rismålstuva" />
		<tag k="natural" v="hill" />
		<tag k="place" v="locality" />
		<tag k="ssr:stedsnr" v="259774" />
	</node>
	<node id="-165997" lat="67.2619055562" lon="15.5142361024">
		<tag k="name" v="Låkthaugen" />
		<tag k="natural" v="hill" />
		<tag k="place" v="locality" />
		<tag k="ssr:stedsnr" v="259771" />
	</node>
	<node id="-165993" lat="67.2753833366" lon="15.8614555468">
		<tag k="alt_name" v="Hekltinden, l" />
		<tag k="fixme" v="consider natural=peak for the most distinct mountains in the district" />
		<tag k="name" v="Litle Hekltinden" />
		<tag k="natural" v="hill" />
		<tag k="place" v="locality" />
		<tag k="ssr:stedsnr" v="259287" />
	</node>
	<node id="-165983" lat="67.2295249975" lon="15.3920666718">
		<tag k="name" v="Saltbakken" />
		<tag k="natural" v="slope" />
		<tag k="place" v="locality" />
		<tag k="ssr:stedsnr" v="89805" />
	</node>
	<node id="-165982" lat="67.2616166672" lon="15.4223833392">
		<tag k="name" v="Bryggeberget" />
		<tag k="natural" v="hill" />
		<tag k="place" v="locality" />
		<tag k="ssr:stedsnr" v="86876" />
	</node>
	<node id="-165978" lat="67.3699388852" lon="15.2449833284">
		<tag k="name" v="Krypanakken" />
		<tag k="natural" v="ridge" />
		<tag k="place" v="locality" />
		<tag k="ssr:stedsnr" v="85855" />
	</node>
	<node id="-165974" lat="67.2868749969" lon="15.1746527762">
		<tag k="name" v="Brattenghaugen" />
		<tag k="natural" v="hill" />
		<tag k="place" v="locality" />
		<tag k="ssr:stedsnr" v="85611" />
	</node>
	<node id="-165973" lat="67.3976111111" lon="15.4436583426">
		<tag k="fixme" v="consider natural=peak for the most distinct mountains in the district" />
		<tag k="name" v="Storskogåsen" />
		<tag k="natural" v="hill" />
		<tag k="place" v="locality" />
		<tag k="ssr:stedsnr" v="85462" />
	</node>
	<node id="-165972" lat="67.3304694464" lon="15.2782638954">
		<tag k="name" v="Nerskilheia" />
		<tag k="natural" v="hill" />
		<tag k="place" v="locality" />
		<tag k="ssr:stedsnr" v="85352" />
	</node>
	<node id="-165970" lat="67.3136805574" lon="15.3116611127">
		<tag k="name" v="Dugmålshaugen" />
		<tag k="natural" v="hill" />
		<tag k="place" v="locality" />
		<tag k="ssr:stedsnr" v="85262" />
	</node>
	<node id="-165969" lat="67.3087416667" lon="15.1660750036">
		<tag k="name" v="Skammarkberget" />
		<tag k="natural" v="hill" />
		<tag k="place" v="locality" />
		<tag k="ssr:stedsnr" v="85259" />
	</node>
	<node id="-165968" lat="67.3007666708" lon="15.1686222238">
		<tag k="name" v="Breiskykkbakken" />
		<tag k="natural" v="slope" />
		<tag k="place" v="locality" />
		<tag k="ssr:stedsnr" v="85258" />
	</node>
	<node id="-165966" lat="67.3156638858" lon="15.3359249874">
		<tag k="fixme" v="consider natural=peak for the most distinct mountains in the district" />
		<tag k="name" v="Langvassknubben" />
		<tag k="natural" v="hill" />
		<tag k="place" v="locality" />
		<tag k="ssr:stedsnr" v="85220" />
	</node>
	<node id="-165964" lat="67.3410638867" lon="15.2872277665">
		<tag k="name" v="Hesthågen" />
		<tag k="natural" v="hill" />
		<tag k="place" v="locality" />
		<tag k="ssr:stedsnr" v="85156" />
	</node>
	<node id="-165963" lat="67.3392166637" lon="15.2694194398">
		<tag k="name" v="Skytjehågen" />
		<tag k="natural" v="hill" />
		<tag k="place" v="locality" />
		<tag k="ssr:stedsnr" v="85152" />
	</node>
	<node id="-165962" lat="67.3350944421" lon="15.32773611">
		<tag k="name" v="Langhågen" />
		<tag k="natural" v="hill" />
		<tag k="place" v="locality" />
		<tag k="ssr:stedsnr" v="85323" />
	</node>
	<node id="-165961" lat="67.3570694471" lon="15.4613527845">
		<tag k="fixme" v="consider natural=peak for the most distinct mountains in the district" />
		<tag k="name" v="Kvitblikvarden" />
		<tag k="natural" v="hill" />
		<tag k="ssr:stedsnr" v="85316" />
	</node>
	<node id="-165957" lat="67.1288249996" lon="16.1137500079">
		<tag k="name" v="Loamebakkan" />
		<tag k="natural" v="slope" />
		<tag k="place" v="locality" />
		<tag k="ssr:stedsnr" v="238859" />
	</node>
	<node id="-165954" lat="67.181241665" lon="15.8362500013">
		<tag k="name" v="Oakki" />
		<tag k="name:smj" v="Oakki" />
		<tag k="natural" v="slope" />
		<tag k="place" v="locality" />
		<tag k="ssr:stedsnr" v="238807" />
	</node>
	<node id="-165949" lat="67.2866416636" lon="15.1968749891">
		<tag k="name" v="Hauggroven" />
		<tag k="natural" v="hill" />
		<tag k="place" v="locality" />
		<tag k="ssr:stedsnr" v="238700" />
	</node>
	<node id="-165948" lat="67.2841472244" lon="15.1965750111">
		<tag k="name" v="Langlia" />
		<tag k="natural" v="slope" />
		<tag k="place" v="locality" />
		<tag k="ssr:stedsnr" v="238697" />
	</node>
	<node id="-165947" lat="67.2854916699" lon="15.2314888891">
		<tag k="name" v="Marthågen" />
		<tag k="natural" v="hill" />
		<tag k="place" v="locality" />
		<tag k="ssr:stedsnr" v="238694" />
	</node>
	<node id="-165946" lat="67.2815777821" lon="15.1933527777">
		<tag k="name" v="Kløftheia" />
		<tag k="natural" v="hill" />
		<tag k="place" v="locality" />
		<tag k="ssr:stedsnr" v="238685" />
	</node>
	<node id="-165944" lat="67.3079055521" lon="15.393983324">
		<tag k="name" v="Utvasslia" />
		<tag k="natural" v="slope" />
		<tag k="place" v="locality" />
		<tag k="ssr:stedsnr" v="238575" />
	</node>
	<node id="-165942" lat="67.2684444476" lon="15.5370277885">
		<tag k="name" v="Littjløkshågen" />
		<tag k="natural" v="hill" />
		<tag k="place" v="locality" />
		<tag k="ssr:stedsnr" v="238470" />
	</node>
	<node id="-165940" lat="67.2061638931" lon="15.5417000063">
		<tag k="name" v="Skjevellia" />
		<tag k="natural" v="slope" />
		<tag k="place" v="locality" />
		<tag k="ssr:stedsnr" v="238332" />
	</node>
	<node id="-165939" lat="67.2009611068" lon="15.4856416643">
		<tag k="name" v="Kattdalen" />
		<tag k="natural" v="valley" />
		<tag k="place" v="locality" />
		<tag k="ssr:stedsnr" v="238324" />
	</node>
	<node id="-165938" lat="67.2031944473" lon="15.4458111014">
		<tag k="name" v="Kvenfloget - Goarnnabákte" />
		<tag k="name:no" v="Kvenfloget" />
		<tag k="name:smj" v="Goarnnabákte" />
		<tag k="natural" v="hill" />
		<tag k="old_name:smj" v="Goardnabákti" />
		<tag k="place" v="locality" />
		<tag k="ssr:stedsnr" v="238323" />
	</node>
	<node id="-165937" lat="67.3698305569" lon="15.3191277774">
		<tag k="name" v="Syllhaugen" />
		<tag k="natural" v="hill" />
		<tag k="place" v="locality" />
		<tag k="ssr:stedsnr" v="238313" />
	</node>
	<node id="-165936" lat="67.3763638908" lon="15.3441416777">
		<tag k="fixme" v="consider natural=peak for the most distinct mountains in the district" />
		<tag k="name" v="Ellevtuva" />
		<tag k="natural" v="hill" />
		<tag k="place" v="locality" />
		<tag k="ssr:stedsnr" v="238305" />
	</node>
	<node id="-165934" lat="67.376886114" lon="15.3260694539">
		<tag k="name" v="Skavveghaugen" />
		<tag k="natural" v="hill" />
		<tag k="place" v="locality" />
		<tag k="ssr:stedsnr" v="238265" />
	</node>
	<node id="-165933" lat="67.3790166702" lon="15.3319472176">
		<tag k="name" v="Pållia" />
		<tag k="natural" v="slope" />
		<tag k="place" v="locality" />
		<tag k="ssr:stedsnr" v="238258" />
	</node>
	<node id="-165931" lat="67.2175166706" lon="15.5662527814">
		<tag k="name" v="Urknubben" />
		<tag k="natural" v="hill" />
		<tag k="place" v="locality" />
		<tag k="ssr:stedsnr" v="238216" />
	</node>
	<node id="-165930" lat="67.2166333329" lon="15.6044166733">
		<tag k="fixme" v="consider natural=peak for the most distinct mountains in the district" />
		<tag k="name" v="Dugmålslia" />
		<tag k="natural" v="hill" />
		<tag k="place" v="locality" />
		<tag k="ssr:stedsnr" v="238213" />
	</node>
	<node id="-165926" lat="67.1006527789" lon="16.0090611142">
		<tag k="name" v="Utsikten" />
		<tag k="natural" v="hill" />
		<tag k="place" v="locality" />
		<tag k="ssr:stedsnr" v="56786" />
	</node>
	<node id="-165924" lat="67.0508000034" lon="16.041030564">
		<tag k="name" v="Ydalen" />
		<tag k="natural" v="valley" />
		<tag k="place" v="locality" />
		<tag k="ssr:stedsnr" v="56775" />
	</node>
	<node id="-165923" lat="67.1769527819" lon="15.8847361038">
		<tag k="name" v="Hellarmofloget" />
		<tag k="natural" v="hill" />
		<tag k="place" v="locality" />
		<tag k="ssr:stedsnr" v="56809" />
	</node>
	<node id="-165922" lat="67.4168388886" lon="15.3121027784">
		<tag k="name" v="Nordskarlia" />
		<tag k="natural" v="slope" />
		<tag k="place" v="locality" />
		<tag k="ssr:stedsnr" v="56282" />
	</node>
	<node id="-165921" lat="67.2295166653" lon="15.9080638794">
		<tag k="name" v="Gamhågen" />
		<tag k="natural" v="hill" />
		<tag k="place" v="locality" />
		<tag k="ssr:stedsnr" v="237769" />
	</node>
	<node id="-165920" lat="67.2815250026" lon="15.197783344">
		<tag k="name" v="Lillegrøva" />
		<tag k="natural" v="valley" />
		<tag k="place" v="locality" />
		<tag k="ssr:stedsnr" v="237697" />
	</node>
	<node id="-165918" lat="67.2793027793" lon="15.1980194446">
		<tag k="name" v="Munnagrøva" />
		<tag k="natural" v="valley" />
		<tag k="place" v="locality" />
		<tag k="ssr:stedsnr" v="237692" />
	</node>
	<node id="-165916" lat="67.3101083303" lon="15.4130444363">
		<tag k="name" v="Storhaugen" />
		<tag k="natural" v="hill" />
		<tag k="place" v="locality" />
		<tag k="ssr:stedsnr" v="56056" />
	</node>
	<node id="-165915" lat="67.3152972202" lon="15.4351861032">
		<tag k="name" v="Småmoan" />
		<tag k="place" v="locality" />
		<tag k="ssr:stedsnr" v="56055" />
	</node>
	<node id="-165914" lat="67.3185055514" lon="15.4685472157">
		<tag k="name" v="Vargåshalsen" />
		<tag k="natural" v="valley" />
		<tag k="place" v="locality" />
		<tag k="ssr:stedsnr" v="56053" />
	</node>
	<node id="-165912" lat="67.2259361117" lon="15.4478305442">
		<tag k="name" v="Heimflogan" />
		<tag k="natural" v="hill" />
		<tag k="place" v="locality" />
		<tag k="ssr:stedsnr" v="55369" />
	</node>
	<node id="-165911" lat="67.2191944469" lon="15.443377771">
		<tag k="name" v="Danskerlægda" />
		<tag k="natural" v="slope" />
		<tag k="place" v="locality" />
		<tag k="ssr:stedsnr" v="55363" />
	</node>
	<node id="-165908" lat="67.2609666639" lon="15.4284055608">
		<tag k="name" v="Sjøsjyberg" />
		<tag k="natural" v="hill" />
		<tag k="place" v="locality" />
		<tag k="ssr:stedsnr" v="237401" />
	</node>
	<node id="-165907" lat="67.2274333316" lon="15.5388916642">
		<tag k="name" v="Grønlibakkan" />
		<tag k="natural" v="slope" />
		<tag k="place" v="locality" />
		<tag k="ssr:stedsnr" v="237371" />
	</node>
	<node id="-165906" lat="67.2261444466" lon="15.410122223">
		<tag k="name" v="Remskaret" />
		<tag k="natural" v="valley" />
		<tag k="place" v="locality" />
		<tag k="ssr:stedsnr" v="237351" />
	</node>
	<node id="-165904" lat="67.2243055538" lon="15.5916916716">
		<tag k="name" v="Hågen" />
		<tag k="natural" v="hill" />
		<tag k="place" v="locality" />
		<tag k="ssr:stedsnr" v="237226" />
	</node>
	<node id="-165902" lat="67.4048555573" lon="15.4050527704">
		<tag k="name" v="Kvartssteinhaugen" />
		<tag k="natural" v="hill" />
		<tag k="place" v="locality" />
		<tag k="ssr:stedsnr" v="237124" />
	</node>
	<node id="-165900" lat="67.3045861124" lon="15.4360138994">
		<tag k="fixme" v="consider natural=peak for the most distinct mountains in the district" />
		<tag k="name" v="Lillevargåsen" />
		<tag k="natural" v="hill" />
		<tag k="place" v="locality" />
		<tag k="ssr:stedsnr" v="237082" />
	</node>
	<node id="-165897" lat="67.3366861128" lon="15.1698305476">
		<tag k="name" v="Brattbakken" />
		<tag k="natural" v="slope" />
		<tag k="place" v="locality" />
		<tag k="ssr:stedsnr" v="26704" />
	</node>
	<node id="-165896" lat="67.3276083323" lon="15.176688885">
		<tag k="name" v="Åskleiva" />
		<tag k="natural" v="slope" />
		<tag k="place" v="locality" />
		<tag k="ssr:stedsnr" v="26548" />
	</node>
	<node id="-165895" lat="67.3267138873" lon="15.1785194474">
		<tag k="fixme" v="consider natural=peak for the most distinct mountains in the district" />
		<tag k="name" v="Skykkjevollen" />
		<tag k="natural" v="hill" />
		<tag k="place" v="locality" />
		<tag k="ssr:stedsnr" v="26546" />
	</node>
	<node id="-165893" lat="67.3221999999" lon="15.0960583292">
		<tag k="name" v="Kløftervollen" />
		<tag k="natural" v="hill" />
		<tag k="place" v="locality" />
		<tag k="ssr:stedsnr" v="25316" />
	</node>
	<node id="-165891" lat="67.3424833348" lon="15.2642666692">
		<tag k="name" v="Hestvaddalen" />
		<tag k="natural" v="valley" />
		<tag k="place" v="locality" />
		<tag k="ssr:stedsnr" v="25217" />
	</node>
	<node id="-165889" lat="67.340799997" lon="15.2924305434">
		<tag k="name" v="Falkliheia" />
		<tag k="natural" v="hill" />
		<tag k="place" v="locality" />
		<tag k="ssr:stedsnr" v="25206" />
	</node>
</osm>
