<?xml version="1.0" encoding="UTF-8"?>
<osm version="0.6" generator="osmapis">
	<node lat="61.77277499626781" lon="9.534149997459215" id="-43230">
		<tag k="name" v="Sel kommune" />
		<tag k="ssr:date" v="2019-12-27" />
		<tag k="ssr:gruppe" v="administrativeIndelinger" />
		<tag k="ssr:hovedgruppe" v="offentligAdministrasjon" />
		<tag k="ssr:stedsnr" v="450182" />
		<tag k="ssr:type" v="kommune" />
	</node>
	<node lat="62.11059999692353" lon="9.109394452187335" id="-43751">
		<tag k="name" v="Dovrebanen" />
		<tag k="ssr:date" v="2019-12-27" />
		<tag k="ssr:gruppe" v="bane" />
		<tag k="ssr:hovedgruppe" v="infrastruktur" />
		<tag k="ssr:stedsnr" v="900962" />
		<tag k="ssr:type" v="banestrekning" />
	</node>
	<node lat="61.76656226351752" lon="9.54817524118221" id="-43818">
		<tag k="name" v="Blekastad" />
		<tag k="ssr:date" v="2019-12-27" />
		<tag k="ssr:gruppe" v="veg" />
		<tag k="ssr:hovedgruppe" v="infrastruktur" />
		<tag k="ssr:stedsnr" v="1012433" />
		<tag k="ssr:type" v="adressenavn" />
	</node>
	<node lat="61.766393101076396" lon="9.538506977037324" id="-43819">
		<tag k="name" v="Brugeilen" />
		<tag k="ssr:date" v="2019-12-27" />
		<tag k="ssr:gruppe" v="veg" />
		<tag k="ssr:hovedgruppe" v="infrastruktur" />
		<tag k="ssr:stedsnr" v="1012781" />
		<tag k="ssr:type" v="adressenavn" />
	</node>
	<node lat="61.77538754235074" lon="9.545956131543976" id="-43820">
		<tag k="name" v="Brattråket" />
		<tag k="ssr:date" v="2019-12-27" />
		<tag k="ssr:gruppe" v="veg" />
		<tag k="ssr:hovedgruppe" v="infrastruktur" />
		<tag k="ssr:stedsnr" v="1012796" />
		<tag k="ssr:type" v="adressenavn" />
	</node>
	<node lat="61.76841986870902" lon="9.533678262066804" id="-43821">
		<tag k="name" v="Iver Taugs gate" />
		<tag k="ssr:date" v="2019-12-27" />
		<tag k="ssr:gruppe" v="veg" />
		<tag k="ssr:hovedgruppe" v="infrastruktur" />
		<tag k="ssr:stedsnr" v="1013377" />
		<tag k="ssr:type" v="adressenavn" />
	</node>
	<node lat="61.7730464756536" lon="9.532714514271456" id="-43822">
		<tag k="name" v="Kleivrudvegen" />
		<tag k="ssr:date" v="2019-12-27" />
		<tag k="ssr:gruppe" v="veg" />
		<tag k="ssr:hovedgruppe" v="infrastruktur" />
		<tag k="ssr:stedsnr" v="1013572" />
		<tag k="ssr:type" v="adressenavn" />
	</node>
	<node lat="61.773983532522685" lon="9.545533868111974" id="-43823">
		<tag k="name" v="Kneiken" />
		<tag k="ssr:date" v="2019-12-27" />
		<tag k="ssr:gruppe" v="veg" />
		<tag k="ssr:hovedgruppe" v="infrastruktur" />
		<tag k="ssr:stedsnr" v="1013585" />
		<tag k="ssr:type" v="adressenavn" />
	</node>
	<node lat="61.767701720239835" lon="9.527859918952148" id="-43824">
		<tag k="name" v="Fjellvegen" />
		<tag k="ssr:date" v="2019-12-27" />
		<tag k="ssr:gruppe" v="veg" />
		<tag k="ssr:hovedgruppe" v="infrastruktur" />
		<tag k="ssr:stedsnr" v="1013619" />
		<tag k="ssr:type" v="adressenavn" />
	</node>
	<node lat="61.77508940880665" lon="9.494546481217807" id="-43825">
		<tag k="name" v="Dahleflata" />
		<tag k="ssr:date" v="2019-12-27" />
		<tag k="ssr:gruppe" v="veg" />
		<tag k="ssr:hovedgruppe" v="infrastruktur" />
		<tag k="ssr:stedsnr" v="1013633" />
		<tag k="ssr:type" v="adressenavn" />
	</node>
	<node lat="61.77452990774217" lon="9.50561104971164" id="-43826">
		<tag k="name" v="Heggelund" />
		<tag k="ssr:date" v="2019-12-27" />
		<tag k="ssr:gruppe" v="veg" />
		<tag k="ssr:hovedgruppe" v="infrastruktur" />
		<tag k="ssr:stedsnr" v="1013698" />
		<tag k="ssr:type" v="adressenavn" />
	</node>
	<node lat="61.798360336466686" lon="9.548895564223892" id="-43827">
		<tag k="name" v="Fyruvegen" />
		<tag k="ssr:date" v="2019-12-27" />
		<tag k="ssr:gruppe" v="veg" />
		<tag k="ssr:hovedgruppe" v="infrastruktur" />
		<tag k="ssr:stedsnr" v="1013886" />
		<tag k="ssr:type" v="adressenavn" />
	</node>
	<node lat="61.727208422803464" lon="9.545868075386409" id="-43828">
		<tag k="name" v="Haugavegen" />
		<tag k="ssr:date" v="2019-12-27" />
		<tag k="ssr:gruppe" v="veg" />
		<tag k="ssr:hovedgruppe" v="infrastruktur" />
		<tag k="ssr:stedsnr" v="1013914" />
		<tag k="ssr:type" v="adressenavn" />
	</node>
	<node lat="61.76935949498288" lon="9.542183342357884" id="-43829">
		<tag k="name" v="Olav Bismos gate" />
		<tag k="ssr:date" v="2019-12-27" />
		<tag k="ssr:gruppe" v="veg" />
		<tag k="ssr:hovedgruppe" v="infrastruktur" />
		<tag k="ssr:stedsnr" v="1013981" />
		<tag k="ssr:type" v="adressenavn" />
	</node>
	<node lat="61.7748232450536" lon="9.531752147634483" id="-43830">
		<tag k="name" v="Nyhusvegen" />
		<tag k="ssr:date" v="2019-12-27" />
		<tag k="ssr:gruppe" v="veg" />
		<tag k="ssr:hovedgruppe" v="infrastruktur" />
		<tag k="ssr:stedsnr" v="1013995" />
		<tag k="ssr:type" v="adressenavn" />
	</node>
	<node lat="61.76653019774147" lon="9.53524143334085" id="-43831">
		<tag k="name" v="Pillargurivegen" />
		<tag k="ssr:date" v="2019-12-27" />
		<tag k="ssr:gruppe" v="veg" />
		<tag k="ssr:hovedgruppe" v="infrastruktur" />
		<tag k="ssr:stedsnr" v="1014226" />
		<tag k="ssr:type" v="adressenavn" />
	</node>
	<node lat="61.77700765360029" lon="9.4922984722089" id="-43832">
		<tag k="name" v="Kroken" />
		<tag k="ssr:date" v="2019-12-27" />
		<tag k="ssr:gruppe" v="veg" />
		<tag k="ssr:hovedgruppe" v="infrastruktur" />
		<tag k="ssr:stedsnr" v="1014283" />
		<tag k="ssr:type" v="adressenavn" />
	</node>
	<node lat="61.771505462679485" lon="9.531265691949814" id="-43833">
		<tag k="name" v="Liavegen" />
		<tag k="ssr:date" v="2019-12-27" />
		<tag k="ssr:gruppe" v="veg" />
		<tag k="ssr:hovedgruppe" v="infrastruktur" />
		<tag k="ssr:stedsnr" v="1014289" />
		<tag k="ssr:type" v="adressenavn" />
	</node>
	<node lat="61.727152630100335" lon="9.55221798155027" id="-43834">
		<tag k="name" v="Myrvegen" />
		<tag k="ssr:date" v="2019-12-27" />
		<tag k="ssr:gruppe" v="veg" />
		<tag k="ssr:hovedgruppe" v="infrastruktur" />
		<tag k="ssr:stedsnr" v="1014431" />
		<tag k="ssr:type" v="adressenavn" />
	</node>
	<node lat="61.773455095959356" lon="9.532003561140638" id="-43835">
		<tag k="name" v="Kringsjåvegen" />
		<tag k="ssr:date" v="2019-12-27" />
		<tag k="ssr:gruppe" v="veg" />
		<tag k="ssr:hovedgruppe" v="infrastruktur" />
		<tag k="ssr:stedsnr" v="1014332" />
		<tag k="ssr:type" v="adressenavn" />
	</node>
	<node lat="61.769176089281615" lon="9.539376856894112" id="-43836">
		<tag k="name" v="Mostugugata" />
		<tag k="ssr:date" v="2019-12-27" />
		<tag k="ssr:gruppe" v="veg" />
		<tag k="ssr:hovedgruppe" v="infrastruktur" />
		<tag k="ssr:stedsnr" v="1014389" />
		<tag k="ssr:type" v="adressenavn" />
	</node>
	<node lat="61.76984379527785" lon="9.548174661057494" id="-43837">
		<tag k="name" v="Steindalsvegen" />
		<tag k="ssr:date" v="2019-12-27" />
		<tag k="ssr:gruppe" v="veg" />
		<tag k="ssr:hovedgruppe" v="infrastruktur" />
		<tag k="ssr:stedsnr" v="1014755" />
		<tag k="ssr:type" v="adressenavn" />
	</node>
	<node lat="61.77722904210413" lon="9.479954847740512" id="-43838">
		<tag k="name" v="Tømmerholet" />
		<tag k="ssr:date" v="2019-12-27" />
		<tag k="ssr:gruppe" v="veg" />
		<tag k="ssr:hovedgruppe" v="infrastruktur" />
		<tag k="ssr:stedsnr" v="1015090" />
		<tag k="ssr:type" v="adressenavn" />
	</node>
	<node lat="61.800978638347424" lon="9.549029269412928" id="-43839">
		<tag k="name" v="Ulavegen" />
		<tag k="ssr:date" v="2019-12-27" />
		<tag k="ssr:gruppe" v="veg" />
		<tag k="ssr:hovedgruppe" v="infrastruktur" />
		<tag k="ssr:stedsnr" v="1015239" />
		<tag k="ssr:type" v="adressenavn" />
	</node>
	<node lat="61.728274394383256" lon="9.55198501652598" id="-43840">
		<tag k="name" v="Tytingvegen" />
		<tag k="ssr:date" v="2019-12-27" />
		<tag k="ssr:gruppe" v="veg" />
		<tag k="ssr:hovedgruppe" v="infrastruktur" />
		<tag k="ssr:stedsnr" v="1015431" />
		<tag k="ssr:type" v="adressenavn" />
	</node>
	<node lat="61.772567794047916" lon="9.542390403124104" id="-43841">
		<tag k="name" v="Skansen" />
		<tag k="ssr:date" v="2019-12-27" />
		<tag k="ssr:gruppe" v="veg" />
		<tag k="ssr:hovedgruppe" v="infrastruktur" />
		<tag k="ssr:stedsnr" v="1017035" />
		<tag k="ssr:type" v="adressenavn" />
	</node>
	<node lat="61.754839372027824" lon="9.303387831505674" id="-43842">
		<tag k="name" v="Sjovegen" />
		<tag k="ssr:date" v="2019-12-27" />
		<tag k="ssr:gruppe" v="veg" />
		<tag k="ssr:hovedgruppe" v="infrastruktur" />
		<tag k="ssr:stedsnr" v="1017299" />
		<tag k="ssr:type" v="adressenavn" />
	</node>
	<node lat="61.78552201010771" lon="9.552045303832749" id="-43843">
		<tag k="name" v="Svelstad" />
		<tag k="ssr:date" v="2019-12-27" />
		<tag k="ssr:gruppe" v="veg" />
		<tag k="ssr:hovedgruppe" v="infrastruktur" />
		<tag k="ssr:stedsnr" v="1017672" />
		<tag k="ssr:type" v="adressenavn" />
	</node>
	<node lat="61.754963737263154" lon="9.302310699848528" id="-43844">
		<tag k="name" v="Steinvegen" />
		<tag k="ssr:date" v="2019-12-27" />
		<tag k="ssr:gruppe" v="veg" />
		<tag k="ssr:hovedgruppe" v="infrastruktur" />
		<tag k="ssr:stedsnr" v="1017674" />
		<tag k="ssr:type" v="adressenavn" />
	</node>
	<node lat="61.84286782402135" lon="9.412722788676929" id="-43845">
		<tag k="name" v="Ulsvoldsvegen" />
		<tag k="ssr:date" v="2019-12-27" />
		<tag k="ssr:gruppe" v="veg" />
		<tag k="ssr:hovedgruppe" v="infrastruktur" />
		<tag k="ssr:stedsnr" v="1017675" />
		<tag k="ssr:type" v="adressenavn" />
	</node>
	<node lat="61.84303359405958" lon="9.411571932942204" id="-43846">
		<tag k="name" v="Turtumvegen" />
		<tag k="ssr:date" v="2019-12-27" />
		<tag k="ssr:gruppe" v="veg" />
		<tag k="ssr:hovedgruppe" v="infrastruktur" />
		<tag k="ssr:stedsnr" v="1017676" />
		<tag k="ssr:type" v="adressenavn" />
	</node>
	<node lat="61.85047750235836" lon="9.415977910148486" id="-43847">
		<tag k="name" v="Skulevegen" />
		<tag k="ssr:date" v="2019-12-27" />
		<tag k="ssr:gruppe" v="veg" />
		<tag k="ssr:hovedgruppe" v="infrastruktur" />
		<tag k="ssr:stedsnr" v="1017677" />
		<tag k="ssr:type" v="adressenavn" />
	</node>
	<node lat="61.77151190909702" lon="9.53388252877055" id="-43848">
		<tag k="name" v="Wildenveys gate" />
		<tag k="ssr:date" v="2019-12-27" />
		<tag k="ssr:gruppe" v="veg" />
		<tag k="ssr:hovedgruppe" v="infrastruktur" />
		<tag k="ssr:stedsnr" v="1017832" />
		<tag k="ssr:type" v="adressenavn" />
	</node>
	<node lat="61.70358301123467" lon="9.31830648817132" id="-43849">
		<tag k="name" v="Øvre Bjønnråket" />
		<tag k="ssr:date" v="2019-12-27" />
		<tag k="ssr:gruppe" v="veg" />
		<tag k="ssr:hovedgruppe" v="infrastruktur" />
		<tag k="ssr:stedsnr" v="1017842" />
		<tag k="ssr:type" v="adressenavn" />
	</node>
	<node lat="61.702784986473176" lon="9.319352809998247" id="-43850">
		<tag k="name" v="Nedre Bjønnråket" />
		<tag k="ssr:date" v="2019-12-27" />
		<tag k="ssr:gruppe" v="veg" />
		<tag k="ssr:hovedgruppe" v="infrastruktur" />
		<tag k="ssr:stedsnr" v="1017845" />
		<tag k="ssr:type" v="adressenavn" />
	</node>
	<node lat="61.71403779925291" lon="9.346777004379481" id="-43851">
		<tag k="name" v="Skitjønnvegen" />
		<tag k="ssr:date" v="2019-12-27" />
		<tag k="ssr:gruppe" v="veg" />
		<tag k="ssr:hovedgruppe" v="infrastruktur" />
		<tag k="ssr:stedsnr" v="1017714" />
		<tag k="ssr:type" v="adressenavn" />
	</node>
	<node lat="61.64618387426164" lon="9.239314547850832" id="-43852">
		<tag k="name" v="Sundtjønnråket" />
		<tag k="ssr:date" v="2019-12-27" />
		<tag k="ssr:gruppe" v="veg" />
		<tag k="ssr:hovedgruppe" v="infrastruktur" />
		<tag k="ssr:stedsnr" v="1017715" />
		<tag k="ssr:type" v="adressenavn" />
	</node>
	<node lat="61.70559757402956" lon="9.323134161382065" id="-43853">
		<tag k="name" v="Nordigardsgeilen" />
		<tag k="ssr:date" v="2019-12-27" />
		<tag k="ssr:gruppe" v="veg" />
		<tag k="ssr:hovedgruppe" v="infrastruktur" />
		<tag k="ssr:stedsnr" v="1017716" />
		<tag k="ssr:type" v="adressenavn" />
	</node>
	<node lat="61.70687708953094" lon="9.327871245071675" id="-43854">
		<tag k="name" v="Skardokkvegen" />
		<tag k="ssr:date" v="2019-12-27" />
		<tag k="ssr:gruppe" v="veg" />
		<tag k="ssr:hovedgruppe" v="infrastruktur" />
		<tag k="ssr:stedsnr" v="1017717" />
		<tag k="ssr:type" v="adressenavn" />
	</node>
	<node lat="61.748209047167286" lon="9.156151645797838" id="-43855">
		<tag k="name" v="Johansråket" />
		<tag k="ssr:date" v="2019-12-27" />
		<tag k="ssr:gruppe" v="veg" />
		<tag k="ssr:hovedgruppe" v="infrastruktur" />
		<tag k="ssr:stedsnr" v="1017718" />
		<tag k="ssr:type" v="adressenavn" />
	</node>
	<node lat="61.74763617924206" lon="9.15724867111979" id="-43856">
		<tag k="name" v="Steinhaugen" />
		<tag k="ssr:date" v="2019-12-27" />
		<tag k="ssr:gruppe" v="veg" />
		<tag k="ssr:hovedgruppe" v="infrastruktur" />
		<tag k="ssr:stedsnr" v="1017719" />
		<tag k="ssr:type" v="adressenavn" />
	</node>
	<node lat="61.68141694616877" lon="9.234024724553619" id="-43857">
		<tag k="name" v="Sundtjønnhaugen" />
		<tag k="ssr:date" v="2019-12-27" />
		<tag k="ssr:gruppe" v="veg" />
		<tag k="ssr:hovedgruppe" v="infrastruktur" />
		<tag k="ssr:stedsnr" v="1017722" />
		<tag k="ssr:type" v="adressenavn" />
	</node>
	<node lat="61.74733582812758" lon="9.148690608334435" id="-43858">
		<tag k="name" v="Eiriksråket" />
		<tag k="ssr:date" v="2019-12-27" />
		<tag k="ssr:gruppe" v="veg" />
		<tag k="ssr:hovedgruppe" v="infrastruktur" />
		<tag k="ssr:stedsnr" v="1017723" />
		<tag k="ssr:type" v="adressenavn" />
	</node>
	<node lat="61.7941324198332" lon="9.553690963707025" id="-43859">
		<tag k="name" v="Ulvollsjordet" />
		<tag k="ssr:date" v="2019-12-27" />
		<tag k="ssr:gruppe" v="veg" />
		<tag k="ssr:hovedgruppe" v="infrastruktur" />
		<tag k="ssr:stedsnr" v="1017724" />
		<tag k="ssr:type" v="adressenavn" />
	</node>
	<node lat="61.84116901058083" lon="9.403438115245933" id="-43860">
		<tag k="name" v="Haugageilen" />
		<tag k="ssr:date" v="2019-12-27" />
		<tag k="ssr:gruppe" v="veg" />
		<tag k="ssr:hovedgruppe" v="infrastruktur" />
		<tag k="ssr:stedsnr" v="1017725" />
		<tag k="ssr:type" v="adressenavn" />
	</node>
	<node lat="61.74585447360787" lon="9.15663660866963" id="-43861">
		<tag k="name" v="Storbekken" />
		<tag k="ssr:date" v="2019-12-27" />
		<tag k="ssr:gruppe" v="veg" />
		<tag k="ssr:hovedgruppe" v="infrastruktur" />
		<tag k="ssr:stedsnr" v="1017726" />
		<tag k="ssr:type" v="adressenavn" />
	</node>
	<node lat="61.74209632748438" lon="9.166401052449919" id="-43862">
		<tag k="name" v="Nyborghaugen" />
		<tag k="ssr:date" v="2019-12-27" />
		<tag k="ssr:gruppe" v="veg" />
		<tag k="ssr:hovedgruppe" v="infrastruktur" />
		<tag k="ssr:stedsnr" v="1017727" />
		<tag k="ssr:type" v="adressenavn" />
	</node>
	<node lat="61.734353378792854" lon="9.172262649622578" id="-43863">
		<tag k="name" v="Lusetervegen" />
		<tag k="ssr:date" v="2019-12-27" />
		<tag k="ssr:gruppe" v="veg" />
		<tag k="ssr:hovedgruppe" v="infrastruktur" />
		<tag k="ssr:stedsnr" v="1017728" />
		<tag k="ssr:type" v="adressenavn" />
	</node>
	<node lat="61.71137210878673" lon="9.451234912666099" id="-43864">
		<tag k="name" v="Espesetervegen" />
		<tag k="ssr:date" v="2019-12-27" />
		<tag k="ssr:gruppe" v="veg" />
		<tag k="ssr:hovedgruppe" v="infrastruktur" />
		<tag k="ssr:stedsnr" v="1017729" />
		<tag k="ssr:type" v="adressenavn" />
	</node>
	<node lat="61.84130486741067" lon="9.40101678655681" id="-43865">
		<tag k="name" v="Brekkevegen" />
		<tag k="ssr:date" v="2019-12-27" />
		<tag k="ssr:gruppe" v="veg" />
		<tag k="ssr:hovedgruppe" v="infrastruktur" />
		<tag k="ssr:stedsnr" v="1017730" />
		<tag k="ssr:type" v="adressenavn" />
	</node>
	<node lat="61.74456088163512" lon="9.318433378907443" id="-43866">
		<tag k="name" v="Prestgardsbruvegen" />
		<tag k="ssr:date" v="2019-12-27" />
		<tag k="ssr:gruppe" v="veg" />
		<tag k="ssr:hovedgruppe" v="infrastruktur" />
		<tag k="ssr:stedsnr" v="1017772" />
		<tag k="ssr:type" v="adressenavn" />
	</node>
	<node lat="61.77112258891411" lon="9.53517396077147" id="-43867">
		<tag k="name" v="Selsvegen" />
		<tag k="ssr:date" v="2019-12-27" />
		<tag k="ssr:gruppe" v="veg" />
		<tag k="ssr:hovedgruppe" v="infrastruktur" />
		<tag k="ssr:stedsnr" v="1017731" />
		<tag k="ssr:type" v="adressenavn" />
	</node>
	<node lat="61.68198523602173" lon="9.532490966424081" id="-43868">
		<tag k="name" v="Ressetvegen" />
		<tag k="ssr:date" v="2019-12-27" />
		<tag k="ssr:gruppe" v="veg" />
		<tag k="ssr:hovedgruppe" v="infrastruktur" />
		<tag k="ssr:stedsnr" v="1017773" />
		<tag k="ssr:type" v="adressenavn" />
	</node>
	<node lat="61.71044876457927" lon="9.196452564497717" id="-43869">
		<tag k="name" v="Stålsetervegen" />
		<tag k="ssr:date" v="2019-12-27" />
		<tag k="ssr:gruppe" v="veg" />
		<tag k="ssr:hovedgruppe" v="infrastruktur" />
		<tag k="ssr:stedsnr" v="1017732" />
		<tag k="ssr:type" v="adressenavn" />
	</node>
	<node lat="61.738274358952985" lon="9.535475233567366" id="-43870">
		<tag k="name" v="Bulivegen" />
		<tag k="ssr:date" v="2019-12-27" />
		<tag k="ssr:gruppe" v="veg" />
		<tag k="ssr:hovedgruppe" v="infrastruktur" />
		<tag k="ssr:stedsnr" v="1017774" />
		<tag k="ssr:type" v="adressenavn" />
	</node>
	<node lat="61.73142748864535" lon="9.356028613638717" id="-43871">
		<tag k="name" v="Harlaug bru" />
		<tag k="ssr:date" v="2019-12-27" />
		<tag k="ssr:gruppe" v="veg" />
		<tag k="ssr:hovedgruppe" v="infrastruktur" />
		<tag k="ssr:stedsnr" v="1017733" />
		<tag k="ssr:type" v="adressenavn" />
	</node>
	<node lat="61.71273461156726" lon="9.405782183547723" id="-43872">
		<tag k="name" v="Høgsetervegen" />
		<tag k="ssr:date" v="2019-12-27" />
		<tag k="ssr:gruppe" v="veg" />
		<tag k="ssr:hovedgruppe" v="infrastruktur" />
		<tag k="ssr:stedsnr" v="1017734" />
		<tag k="ssr:type" v="adressenavn" />
	</node>
	<node lat="61.728418615954624" lon="9.365433016407076" id="-43873">
		<tag k="name" v="Kvernbruvegen" />
		<tag k="ssr:date" v="2019-12-27" />
		<tag k="ssr:gruppe" v="veg" />
		<tag k="ssr:hovedgruppe" v="infrastruktur" />
		<tag k="ssr:stedsnr" v="1017735" />
		<tag k="ssr:type" v="adressenavn" />
	</node>
	<node lat="61.780553644787815" lon="9.500386550607503" id="-43874">
		<tag k="name" v="Kleivrudåsen" />
		<tag k="ssr:date" v="2019-12-27" />
		<tag k="ssr:gruppe" v="veg" />
		<tag k="ssr:hovedgruppe" v="infrastruktur" />
		<tag k="ssr:stedsnr" v="1017972" />
		<tag k="ssr:type" v="adressenavn" />
	</node>
	<node lat="61.80864038929322" lon="9.68347900795827" id="-43875">
		<tag k="name" v="Tjønnbakkvegen" />
		<tag k="ssr:date" v="2019-12-27" />
		<tag k="ssr:gruppe" v="veg" />
		<tag k="ssr:hovedgruppe" v="infrastruktur" />
		<tag k="ssr:stedsnr" v="1018116" />
		<tag k="ssr:type" v="adressenavn" />
	</node>
	<node lat="61.80744682453534" lon="9.656667033082568" id="-43876">
		<tag k="name" v="Ultungvegen" />
		<tag k="ssr:date" v="2019-12-27" />
		<tag k="ssr:gruppe" v="veg" />
		<tag k="ssr:hovedgruppe" v="infrastruktur" />
		<tag k="ssr:stedsnr" v="1018120" />
		<tag k="ssr:type" v="adressenavn" />
	</node>
	<node lat="61.780160041010255" lon="9.688421992683903" id="-43877">
		<tag k="name" v="Elgsvika" />
		<tag k="ssr:date" v="2019-12-27" />
		<tag k="ssr:gruppe" v="veg" />
		<tag k="ssr:hovedgruppe" v="infrastruktur" />
		<tag k="ssr:stedsnr" v="1018124" />
		<tag k="ssr:type" v="adressenavn" />
	</node>
	<node lat="61.80864038929322" lon="9.68347900795827" id="-43878">
		<tag k="name" v="Furusjøvegen" />
		<tag k="ssr:date" v="2019-12-27" />
		<tag k="ssr:gruppe" v="veg" />
		<tag k="ssr:hovedgruppe" v="infrastruktur" />
		<tag k="ssr:stedsnr" v="1018128" />
		<tag k="ssr:type" v="adressenavn" />
	</node>
	<node lat="61.63346506492762" lon="9.242179163606728" id="-43879">
		<tag k="name" v="Mugsetervegen" />
		<tag k="ssr:date" v="2019-12-27" />
		<tag k="ssr:gruppe" v="veg" />
		<tag k="ssr:hovedgruppe" v="infrastruktur" />
		<tag k="ssr:stedsnr" v="1018132" />
		<tag k="ssr:type" v="adressenavn" />
	</node>
	<node lat="61.74752850711859" lon="9.212320395250142" id="-43880">
		<tag k="name" v="Runningsvegen" />
		<tag k="ssr:date" v="2019-12-27" />
		<tag k="ssr:gruppe" v="veg" />
		<tag k="ssr:hovedgruppe" v="infrastruktur" />
		<tag k="ssr:stedsnr" v="1018135" />
		<tag k="ssr:type" v="adressenavn" />
	</node>
	<node lat="61.800213252688515" lon="9.56276746387261" id="-43881">
		<tag k="name" v="Mysusetervegen" />
		<tag k="ssr:date" v="2019-12-27" />
		<tag k="ssr:gruppe" v="veg" />
		<tag k="ssr:hovedgruppe" v="infrastruktur" />
		<tag k="ssr:stedsnr" v="1018138" />
		<tag k="ssr:type" v="adressenavn" />
	</node>
	<node lat="61.689868636571845" lon="9.229213215477003" id="-43882">
		<tag k="name" v="Rustputtvegen" />
		<tag k="ssr:date" v="2019-12-27" />
		<tag k="ssr:gruppe" v="veg" />
		<tag k="ssr:hovedgruppe" v="infrastruktur" />
		<tag k="ssr:stedsnr" v="1018140" />
		<tag k="ssr:type" v="adressenavn" />
	</node>
	<node lat="61.89182805573594" lon="9.469174370586403" id="-43883">
		<tag k="name" v="Gamlesetervegen" />
		<tag k="ssr:date" v="2019-12-27" />
		<tag k="ssr:gruppe" v="veg" />
		<tag k="ssr:hovedgruppe" v="infrastruktur" />
		<tag k="ssr:stedsnr" v="1018016" />
		<tag k="ssr:type" v="adressenavn" />
	</node>
	<node lat="61.89182805573594" lon="9.469174370586403" id="-43884">
		<tag k="name" v="Brennsetervegen" />
		<tag k="ssr:date" v="2019-12-27" />
		<tag k="ssr:gruppe" v="veg" />
		<tag k="ssr:hovedgruppe" v="infrastruktur" />
		<tag k="ssr:stedsnr" v="1018019" />
		<tag k="ssr:type" v="adressenavn" />
	</node>
	<node lat="61.88761477555168" lon="9.46533795600461" id="-43885">
		<tag k="name" v="Fevoldsetervegen" />
		<tag k="ssr:date" v="2019-12-27" />
		<tag k="ssr:gruppe" v="veg" />
		<tag k="ssr:hovedgruppe" v="infrastruktur" />
		<tag k="ssr:stedsnr" v="1018022" />
		<tag k="ssr:type" v="adressenavn" />
	</node>
	<node lat="61.88785112874307" lon="9.459891482059493" id="-43886">
		<tag k="name" v="Anaripiggvegen" />
		<tag k="ssr:date" v="2019-12-27" />
		<tag k="ssr:gruppe" v="veg" />
		<tag k="ssr:hovedgruppe" v="infrastruktur" />
		<tag k="ssr:stedsnr" v="1018025" />
		<tag k="ssr:type" v="adressenavn" />
	</node>
	<node lat="61.89071827951313" lon="9.485178623023954" id="-43887">
		<tag k="name" v="Hauklisetervegen" />
		<tag k="ssr:date" v="2019-12-27" />
		<tag k="ssr:gruppe" v="veg" />
		<tag k="ssr:hovedgruppe" v="infrastruktur" />
		<tag k="ssr:stedsnr" v="1018029" />
		<tag k="ssr:type" v="adressenavn" />
	</node>
	<node lat="61.88715149417684" lon="9.469017611888946" id="-43888">
		<tag k="name" v="Puttenvegen" />
		<tag k="ssr:date" v="2019-12-27" />
		<tag k="ssr:gruppe" v="veg" />
		<tag k="ssr:hovedgruppe" v="infrastruktur" />
		<tag k="ssr:stedsnr" v="1018032" />
		<tag k="ssr:type" v="adressenavn" />
	</node>
	<node lat="61.76266636992704" lon="9.477922785035979" id="-43889">
		<tag k="name" v="Thosetervegen" />
		<tag k="ssr:date" v="2019-12-27" />
		<tag k="ssr:gruppe" v="veg" />
		<tag k="ssr:hovedgruppe" v="infrastruktur" />
		<tag k="ssr:stedsnr" v="1018036" />
		<tag k="ssr:type" v="adressenavn" />
	</node>
	<node lat="61.79455493231952" lon="9.59306977365479" id="-43890">
		<tag k="name" v="Botthaugvegen" />
		<tag k="ssr:date" v="2019-12-27" />
		<tag k="ssr:gruppe" v="veg" />
		<tag k="ssr:hovedgruppe" v="infrastruktur" />
		<tag k="ssr:stedsnr" v="1018039" />
		<tag k="ssr:type" v="adressenavn" />
	</node>
	<node lat="61.88827307347278" lon="9.462911183211599" id="-43891">
		<tag k="name" v="Roavegen" />
		<tag k="ssr:date" v="2019-12-27" />
		<tag k="ssr:gruppe" v="veg" />
		<tag k="ssr:hovedgruppe" v="infrastruktur" />
		<tag k="ssr:stedsnr" v="1018044" />
		<tag k="ssr:type" v="adressenavn" />
	</node>
	<node lat="61.750448579649046" lon="9.573709816476269" id="-43892">
		<tag k="name" v="Kringsetervegen" />
		<tag k="ssr:date" v="2019-12-27" />
		<tag k="ssr:gruppe" v="veg" />
		<tag k="ssr:hovedgruppe" v="infrastruktur" />
		<tag k="ssr:stedsnr" v="1018047" />
		<tag k="ssr:type" v="adressenavn" />
	</node>
	<node lat="61.80544401684754" lon="9.642720966178986" id="-43893">
		<tag k="name" v="Skjerdinghø" />
		<tag k="ssr:date" v="2019-12-27" />
		<tag k="ssr:gruppe" v="veg" />
		<tag k="ssr:hovedgruppe" v="infrastruktur" />
		<tag k="ssr:stedsnr" v="1018050" />
		<tag k="ssr:type" v="adressenavn" />
	</node>
	<node lat="61.80942449733131" lon="9.677536671325738" id="-43894">
		<tag k="name" v="Ulafossvegen" />
		<tag k="ssr:date" v="2019-12-27" />
		<tag k="ssr:gruppe" v="veg" />
		<tag k="ssr:hovedgruppe" v="infrastruktur" />
		<tag k="ssr:stedsnr" v="1018074" />
		<tag k="ssr:type" v="adressenavn" />
	</node>
	<node lat="61.8158556496004" lon="9.678422061482514" id="-43895">
		<tag k="name" v="Peer Gynt Stigen" />
		<tag k="ssr:date" v="2019-12-27" />
		<tag k="ssr:gruppe" v="veg" />
		<tag k="ssr:hovedgruppe" v="infrastruktur" />
		<tag k="ssr:stedsnr" v="1018077" />
		<tag k="ssr:type" v="adressenavn" />
	</node>
	<node lat="61.82403894524917" lon="9.704266395152423" id="-43896">
		<tag k="name" v="Bergetjønnlia" />
		<tag k="ssr:date" v="2019-12-27" />
		<tag k="ssr:gruppe" v="veg" />
		<tag k="ssr:hovedgruppe" v="infrastruktur" />
		<tag k="ssr:stedsnr" v="1018080" />
		<tag k="ssr:type" v="adressenavn" />
	</node>
	<node lat="61.823276987566246" lon="9.708089386201895" id="-43897">
		<tag k="name" v="Storulvegen" />
		<tag k="ssr:date" v="2019-12-27" />
		<tag k="ssr:gruppe" v="veg" />
		<tag k="ssr:hovedgruppe" v="infrastruktur" />
		<tag k="ssr:stedsnr" v="1018083" />
		<tag k="ssr:type" v="adressenavn" />
	</node>
	<node lat="61.81032826727984" lon="9.693617012082088" id="-43898">
		<tag k="name" v="Peillen" />
		<tag k="ssr:date" v="2019-12-27" />
		<tag k="ssr:gruppe" v="veg" />
		<tag k="ssr:hovedgruppe" v="infrastruktur" />
		<tag k="ssr:stedsnr" v="1018086" />
		<tag k="ssr:type" v="adressenavn" />
	</node>
	<node lat="61.810371274624714" lon="9.687623684109807" id="-43899">
		<tag k="name" v="Havnsetervegen" />
		<tag k="ssr:date" v="2019-12-27" />
		<tag k="ssr:gruppe" v="veg" />
		<tag k="ssr:hovedgruppe" v="infrastruktur" />
		<tag k="ssr:stedsnr" v="1018089" />
		<tag k="ssr:type" v="adressenavn" />
	</node>
	<node lat="61.81285689890636" lon="9.682632298321286" id="-43900">
		<tag k="name" v="Holesetervegen" />
		<tag k="ssr:date" v="2019-12-27" />
		<tag k="ssr:gruppe" v="veg" />
		<tag k="ssr:hovedgruppe" v="infrastruktur" />
		<tag k="ssr:stedsnr" v="1018093" />
		<tag k="ssr:type" v="adressenavn" />
	</node>
	<node lat="61.810193471464366" lon="9.687482158294724" id="-43901">
		<tag k="name" v="Ulvangsvegen" />
		<tag k="ssr:date" v="2019-12-27" />
		<tag k="ssr:gruppe" v="veg" />
		<tag k="ssr:hovedgruppe" v="infrastruktur" />
		<tag k="ssr:stedsnr" v="1018096" />
		<tag k="ssr:type" v="adressenavn" />
	</node>
	<node lat="61.80422572785598" lon="9.697576449429514" id="-43902">
		<tag k="name" v="Hjellen" />
		<tag k="ssr:date" v="2019-12-27" />
		<tag k="ssr:gruppe" v="veg" />
		<tag k="ssr:hovedgruppe" v="infrastruktur" />
		<tag k="ssr:stedsnr" v="1018099" />
		<tag k="ssr:type" v="adressenavn" />
	</node>
	<node lat="61.72714561580607" lon="9.547944181818023" id="-45053">
		<tag k="name" v="Blåbærvegen" />
		<tag k="ssr:date" v="2019-12-27" />
		<tag k="ssr:gruppe" v="veg" />
		<tag k="ssr:hovedgruppe" v="infrastruktur" />
		<tag k="ssr:stedsnr" v="1012548" />
		<tag k="ssr:type" v="adressenavn" />
	</node>
	<node lat="61.76852492065433" lon="9.548321356721898" id="-45054">
		<tag k="name" v="Blekalia" />
		<tag k="ssr:date" v="2019-12-27" />
		<tag k="ssr:gruppe" v="veg" />
		<tag k="ssr:hovedgruppe" v="infrastruktur" />
		<tag k="ssr:stedsnr" v="1012504" />
		<tag k="ssr:type" v="adressenavn" />
	</node>
	<node lat="61.75469214039469" lon="9.304672389982207" id="-45055">
		<tag k="name" v="Bruvegen" />
		<tag k="ssr:date" v="2019-12-27" />
		<tag k="ssr:gruppe" v="veg" />
		<tag k="ssr:hovedgruppe" v="infrastruktur" />
		<tag k="ssr:stedsnr" v="1012743" />
		<tag k="ssr:type" v="adressenavn" />
	</node>
	<node lat="61.772152154119745" lon="9.53124724354062" id="-45056">
		<tag k="name" v="Botten Hansens gate" />
		<tag k="ssr:date" v="2019-12-27" />
		<tag k="ssr:gruppe" v="veg" />
		<tag k="ssr:hovedgruppe" v="infrastruktur" />
		<tag k="ssr:stedsnr" v="1012760" />
		<tag k="ssr:type" v="adressenavn" />
	</node>
	<node lat="61.76846707627304" lon="9.528101406424241" id="-45057">
		<tag k="name" v="Klebervegen" />
		<tag k="ssr:date" v="2019-12-27" />
		<tag k="ssr:gruppe" v="veg" />
		<tag k="ssr:hovedgruppe" v="infrastruktur" />
		<tag k="ssr:stedsnr" v="1013364" />
		<tag k="ssr:type" v="adressenavn" />
	</node>
	<node lat="61.768467425689124" lon="9.536656419495934" id="-45058">
		<tag k="name" v="Elvegata" />
		<tag k="ssr:date" v="2019-12-27" />
		<tag k="ssr:gruppe" v="veg" />
		<tag k="ssr:hovedgruppe" v="infrastruktur" />
		<tag k="ssr:stedsnr" v="1013601" />
		<tag k="ssr:type" v="adressenavn" />
	</node>
	<node lat="61.77605565279297" lon="9.496946083746979" id="-45059">
		<tag k="name" v="Jostvegen" />
		<tag k="ssr:date" v="2019-12-27" />
		<tag k="ssr:gruppe" v="veg" />
		<tag k="ssr:hovedgruppe" v="infrastruktur" />
		<tag k="ssr:stedsnr" v="1013303" />
		<tag k="ssr:type" v="adressenavn" />
	</node>
	<node lat="61.76926590099634" lon="9.540888235746436" id="-45060">
		<tag k="name" v="Johan Nygårds gate" />
		<tag k="ssr:date" v="2019-12-27" />
		<tag k="ssr:gruppe" v="veg" />
		<tag k="ssr:hovedgruppe" v="infrastruktur" />
		<tag k="ssr:stedsnr" v="1013502" />
		<tag k="ssr:type" v="adressenavn" />
	</node>
	<node lat="61.75535587561938" lon="9.298852926154522" id="-45061">
		<tag k="name" v="Elgtråkket" />
		<tag k="ssr:date" v="2019-12-27" />
		<tag k="ssr:gruppe" v="veg" />
		<tag k="ssr:hovedgruppe" v="infrastruktur" />
		<tag k="ssr:stedsnr" v="1013640" />
		<tag k="ssr:type" v="adressenavn" />
	</node>
	<node lat="61.770492024755505" lon="9.535945767511038" id="-45062">
		<tag k="name" v="Engebret Hougens gate" />
		<tag k="ssr:date" v="2019-12-27" />
		<tag k="ssr:gruppe" v="veg" />
		<tag k="ssr:hovedgruppe" v="infrastruktur" />
		<tag k="ssr:stedsnr" v="1013468" />
		<tag k="ssr:type" v="adressenavn" />
	</node>
	<node lat="61.77742297664729" lon="9.48631370823325" id="-45063">
		<tag k="name" v="Koldalen" />
		<tag k="ssr:date" v="2019-12-27" />
		<tag k="ssr:gruppe" v="veg" />
		<tag k="ssr:hovedgruppe" v="infrastruktur" />
		<tag k="ssr:stedsnr" v="1013537" />
		<tag k="ssr:type" v="adressenavn" />
	</node>
	<node lat="61.77083736703296" lon="9.545950511651956" id="-45064">
		<tag k="name" v="Kongsvegen" />
		<tag k="ssr:date" v="2019-12-27" />
		<tag k="ssr:gruppe" v="veg" />
		<tag k="ssr:hovedgruppe" v="infrastruktur" />
		<tag k="ssr:stedsnr" v="1013543" />
		<tag k="ssr:type" v="adressenavn" />
	</node>
	<node lat="61.76873146093724" lon="9.531944443393504" id="-45065">
		<tag k="name" v="Klyphaugvegen" />
		<tag k="ssr:date" v="2019-12-27" />
		<tag k="ssr:gruppe" v="veg" />
		<tag k="ssr:hovedgruppe" v="infrastruktur" />
		<tag k="ssr:stedsnr" v="1013565" />
		<tag k="ssr:type" v="adressenavn" />
	</node>
	<node lat="61.768257801211654" lon="9.530237038906881" id="-45066">
		<tag k="name" v="Hjellumvegen" />
		<tag k="ssr:date" v="2019-12-27" />
		<tag k="ssr:gruppe" v="veg" />
		<tag k="ssr:hovedgruppe" v="infrastruktur" />
		<tag k="ssr:stedsnr" v="1013797" />
		<tag k="ssr:type" v="adressenavn" />
	</node>
	<node lat="61.756261954276084" lon="9.300818095392245" id="-45067">
		<tag k="name" v="Krokstigen" />
		<tag k="ssr:date" v="2019-12-27" />
		<tag k="ssr:gruppe" v="veg" />
		<tag k="ssr:hovedgruppe" v="infrastruktur" />
		<tag k="ssr:stedsnr" v="1014301" />
		<tag k="ssr:type" v="adressenavn" />
	</node>
	<node lat="61.75583859073136" lon="9.299776433377753" id="-45068">
		<tag k="name" v="Kremarstigen" />
		<tag k="ssr:date" v="2019-12-27" />
		<tag k="ssr:gruppe" v="veg" />
		<tag k="ssr:hovedgruppe" v="infrastruktur" />
		<tag k="ssr:stedsnr" v="1014308" />
		<tag k="ssr:type" v="adressenavn" />
	</node>
	<node lat="61.77358573049245" lon="9.50918764942631" id="-45069">
		<tag k="name" v="Dahlevegen" />
		<tag k="ssr:date" v="2019-12-27" />
		<tag k="ssr:gruppe" v="veg" />
		<tag k="ssr:hovedgruppe" v="infrastruktur" />
		<tag k="ssr:stedsnr" v="1013654" />
		<tag k="ssr:type" v="adressenavn" />
	</node>
	<node lat="61.777022026031446" lon="9.492208290155666" id="-45070">
		<tag k="name" v="Granfeltet" />
		<tag k="ssr:date" v="2019-12-27" />
		<tag k="ssr:gruppe" v="veg" />
		<tag k="ssr:hovedgruppe" v="infrastruktur" />
		<tag k="ssr:stedsnr" v="1013831" />
		<tag k="ssr:type" v="adressenavn" />
	</node>
	<node lat="61.7715115134758" lon="9.542762591687229" id="-45071">
		<tag k="name" v="Nordmogata" />
		<tag k="ssr:date" v="2019-12-27" />
		<tag k="ssr:gruppe" v="veg" />
		<tag k="ssr:hovedgruppe" v="infrastruktur" />
		<tag k="ssr:stedsnr" v="1014059" />
		<tag k="ssr:type" v="adressenavn" />
	</node>
	<node lat="61.728037990905655" lon="9.550025230683218" id="-45072">
		<tag k="name" v="Ormbakkvegen" />
		<tag k="ssr:date" v="2019-12-27" />
		<tag k="ssr:gruppe" v="veg" />
		<tag k="ssr:hovedgruppe" v="infrastruktur" />
		<tag k="ssr:stedsnr" v="1014244" />
		<tag k="ssr:type" v="adressenavn" />
	</node>
	<node lat="61.77144222574192" lon="9.532656240787865" id="-45073">
		<tag k="name" v="Ottekra" />
		<tag k="ssr:date" v="2019-12-27" />
		<tag k="ssr:gruppe" v="veg" />
		<tag k="ssr:hovedgruppe" v="infrastruktur" />
		<tag k="ssr:stedsnr" v="1014251" />
		<tag k="ssr:type" v="adressenavn" />
	</node>
	<node lat="61.76559248883577" lon="9.548724398712407" id="-45074">
		<tag k="name" v="Olav Kringens veg" />
		<tag k="ssr:date" v="2019-12-27" />
		<tag k="ssr:gruppe" v="veg" />
		<tag k="ssr:hovedgruppe" v="infrastruktur" />
		<tag k="ssr:stedsnr" v="1014009" />
		<tag k="ssr:type" v="adressenavn" />
	</node>
	<node lat="61.76788087065408" lon="9.538194955767459" id="-45075">
		<tag k="name" v="Ottheimsalleen" />
		<tag k="ssr:date" v="2019-12-27" />
		<tag k="ssr:gruppe" v="veg" />
		<tag k="ssr:hovedgruppe" v="infrastruktur" />
		<tag k="ssr:stedsnr" v="1014192" />
		<tag k="ssr:type" v="adressenavn" />
	</node>
	<node lat="61.7722247336072" lon="9.531275159864894" id="-45076">
		<tag k="name" v="Loftsgårdsvegen" />
		<tag k="ssr:date" v="2019-12-27" />
		<tag k="ssr:gruppe" v="veg" />
		<tag k="ssr:hovedgruppe" v="infrastruktur" />
		<tag k="ssr:stedsnr" v="1014511" />
		<tag k="ssr:type" v="adressenavn" />
	</node>
	<node lat="61.768467425689124" lon="9.536656419495934" id="-45077">
		<tag k="name" v="Ottbragdgata" />
		<tag k="ssr:date" v="2019-12-27" />
		<tag k="ssr:gruppe" v="veg" />
		<tag k="ssr:hovedgruppe" v="infrastruktur" />
		<tag k="ssr:stedsnr" v="1014271" />
		<tag k="ssr:type" v="adressenavn" />
	</node>
	<node lat="61.768347284200644" lon="9.543809752462026" id="-45078">
		<tag k="name" v="Mullersgate" />
		<tag k="ssr:date" v="2019-12-27" />
		<tag k="ssr:gruppe" v="veg" />
		<tag k="ssr:hovedgruppe" v="infrastruktur" />
		<tag k="ssr:stedsnr" v="1014350" />
		<tag k="ssr:type" v="adressenavn" />
	</node>
	<node lat="61.776626122742975" lon="9.494505804223847" id="-45079">
		<tag k="name" v="Snippen" />
		<tag k="ssr:date" v="2019-12-27" />
		<tag k="ssr:gruppe" v="veg" />
		<tag k="ssr:hovedgruppe" v="infrastruktur" />
		<tag k="ssr:stedsnr" v="1014666" />
		<tag k="ssr:type" v="adressenavn" />
	</node>
	<node lat="61.76632814908741" lon="9.535437329444381" id="-45080">
		<tag k="name" v="Sliperigata" />
		<tag k="ssr:date" v="2019-12-27" />
		<tag k="ssr:gruppe" v="veg" />
		<tag k="ssr:hovedgruppe" v="infrastruktur" />
		<tag k="ssr:stedsnr" v="1014812" />
		<tag k="ssr:type" v="adressenavn" />
	</node>
	<node lat="61.77591285143497" lon="9.495765056445324" id="-45081">
		<tag k="name" v="Slåvegen" />
		<tag k="ssr:date" v="2019-12-27" />
		<tag k="ssr:gruppe" v="veg" />
		<tag k="ssr:hovedgruppe" v="infrastruktur" />
		<tag k="ssr:stedsnr" v="1014994" />
		<tag k="ssr:type" v="adressenavn" />
	</node>
	<node lat="61.72581773944226" lon="9.544826146088694" id="-45082">
		<tag k="name" v="Vangsvegen" />
		<tag k="ssr:date" v="2019-12-27" />
		<tag k="ssr:gruppe" v="veg" />
		<tag k="ssr:hovedgruppe" v="infrastruktur" />
		<tag k="ssr:stedsnr" v="1015145" />
		<tag k="ssr:type" v="adressenavn" />
	</node>
	<node lat="61.769452292170605" lon="9.543447611802224" id="-45083">
		<tag k="name" v="Skulegata" />
		<tag k="ssr:date" v="2019-12-27" />
		<tag k="ssr:gruppe" v="veg" />
		<tag k="ssr:hovedgruppe" v="infrastruktur" />
		<tag k="ssr:stedsnr" v="1014948" />
		<tag k="ssr:type" v="adressenavn" />
	</node>
	<node lat="61.77608494363276" lon="9.495125201988618" id="-45084">
		<tag k="name" v="Storrustvegen" />
		<tag k="ssr:date" v="2019-12-27" />
		<tag k="ssr:gruppe" v="veg" />
		<tag k="ssr:hovedgruppe" v="infrastruktur" />
		<tag k="ssr:stedsnr" v="1015268" />
		<tag k="ssr:type" v="adressenavn" />
	</node>
	<node lat="61.76896360617036" lon="9.534876697203234" id="-45085">
		<tag k="name" v="Selsrogata" />
		<tag k="ssr:date" v="2019-12-27" />
		<tag k="ssr:gruppe" v="veg" />
		<tag k="ssr:hovedgruppe" v="infrastruktur" />
		<tag k="ssr:stedsnr" v="1015803" />
		<tag k="ssr:type" v="adressenavn" />
	</node>
	<node lat="61.770841233543386" lon="9.542986185246525" id="-45086">
		<tag k="name" v="Storgata" />
		<tag k="ssr:date" v="2019-12-27" />
		<tag k="ssr:gruppe" v="veg" />
		<tag k="ssr:hovedgruppe" v="infrastruktur" />
		<tag k="ssr:stedsnr" v="1015368" />
		<tag k="ssr:type" v="adressenavn" />
	</node>
	<node lat="61.75548104688697" lon="9.29778091807993" id="-45087">
		<tag k="name" v="Rådyrstigen" />
		<tag k="ssr:date" v="2019-12-27" />
		<tag k="ssr:gruppe" v="veg" />
		<tag k="ssr:hovedgruppe" v="infrastruktur" />
		<tag k="ssr:stedsnr" v="1015571" />
		<tag k="ssr:type" v="adressenavn" />
	</node>
	<node lat="61.76836023595943" lon="9.527018630202077" id="-45088">
		<tag k="name" v="Raubergvegen" />
		<tag k="ssr:date" v="2019-12-27" />
		<tag k="ssr:gruppe" v="veg" />
		<tag k="ssr:hovedgruppe" v="infrastruktur" />
		<tag k="ssr:stedsnr" v="1016047" />
		<tag k="ssr:type" v="adressenavn" />
	</node>
	<node lat="61.765330901679434" lon="9.547279377329366" id="-45089">
		<tag k="name" v="Rondanevegen" />
		<tag k="ssr:date" v="2019-12-27" />
		<tag k="ssr:gruppe" v="veg" />
		<tag k="ssr:hovedgruppe" v="infrastruktur" />
		<tag k="ssr:stedsnr" v="1015968" />
		<tag k="ssr:type" v="adressenavn" />
	</node>
	<node lat="61.76659910186118" lon="9.548180671489952" id="-45090">
		<tag k="name" v="Sinclairvegen" />
		<tag k="ssr:date" v="2019-12-27" />
		<tag k="ssr:gruppe" v="veg" />
		<tag k="ssr:hovedgruppe" v="infrastruktur" />
		<tag k="ssr:stedsnr" v="1016880" />
		<tag k="ssr:type" v="adressenavn" />
	</node>
	<node lat="61.84159547606855" lon="9.399617211966234" id="-45091">
		<tag k="name" v="Råket" />
		<tag k="ssr:date" v="2019-12-27" />
		<tag k="ssr:gruppe" v="veg" />
		<tag k="ssr:hovedgruppe" v="infrastruktur" />
		<tag k="ssr:stedsnr" v="1017647" />
		<tag k="ssr:type" v="adressenavn" />
	</node>
	<node lat="61.84851623434652" lon="9.421017018407248" id="-45092">
		<tag k="name" v="Romundgardsgeilen" />
		<tag k="ssr:date" v="2019-12-27" />
		<tag k="ssr:gruppe" v="veg" />
		<tag k="ssr:hovedgruppe" v="infrastruktur" />
		<tag k="ssr:stedsnr" v="1017648" />
		<tag k="ssr:type" v="adressenavn" />
	</node>
	<node lat="61.76992541860412" lon="9.540652082523236" id="-45093">
		<tag k="name" v="Vognmannsgata" />
		<tag k="ssr:date" v="2019-12-27" />
		<tag k="ssr:gruppe" v="veg" />
		<tag k="ssr:hovedgruppe" v="infrastruktur" />
		<tag k="ssr:stedsnr" v="1017781" />
		<tag k="ssr:type" v="adressenavn" />
	</node>
	<node lat="61.88546166807095" lon="10.009923701594532" id="-45094">
		<tag k="name" v="Bjørnhollivegen" />
		<tag k="ssr:date" v="2019-12-27" />
		<tag k="ssr:gruppe" v="veg" />
		<tag k="ssr:hovedgruppe" v="infrastruktur" />
		<tag k="ssr:stedsnr" v="1017462" />
		<tag k="ssr:type" v="adressenavn" />
	</node>
	<node lat="61.75678208476017" lon="9.301118754669234" id="-45095">
		<tag k="name" v="Skogvegen" />
		<tag k="ssr:date" v="2019-12-27" />
		<tag k="ssr:gruppe" v="veg" />
		<tag k="ssr:hovedgruppe" v="infrastruktur" />
		<tag k="ssr:stedsnr" v="1017678" />
		<tag k="ssr:type" v="adressenavn" />
	</node>
	<node lat="61.702451210913615" lon="9.455728663623178" id="-45096">
		<tag k="name" v="Slettmorken" />
		<tag k="ssr:date" v="2019-12-27" />
		<tag k="ssr:gruppe" v="veg" />
		<tag k="ssr:hovedgruppe" v="infrastruktur" />
		<tag k="ssr:stedsnr" v="1017679" />
		<tag k="ssr:type" v="adressenavn" />
	</node>
	<node lat="61.84614356271301" lon="9.414170905932295" id="-45097">
		<tag k="name" v="Skåråvegen" />
		<tag k="ssr:date" v="2019-12-27" />
		<tag k="ssr:gruppe" v="veg" />
		<tag k="ssr:hovedgruppe" v="infrastruktur" />
		<tag k="ssr:stedsnr" v="1017680" />
		<tag k="ssr:type" v="adressenavn" />
	</node>
	<node lat="61.722220893107846" lon="9.546988734547629" id="-45098">
		<tag k="name" v="Røysvegen" />
		<tag k="ssr:date" v="2019-12-27" />
		<tag k="ssr:gruppe" v="veg" />
		<tag k="ssr:hovedgruppe" v="infrastruktur" />
		<tag k="ssr:stedsnr" v="1017681" />
		<tag k="ssr:type" v="adressenavn" />
	</node>
	<node lat="61.783615205066845" lon="9.55064756774193" id="-45099">
		<tag k="name" v="Ringvegen" />
		<tag k="ssr:date" v="2019-12-27" />
		<tag k="ssr:gruppe" v="veg" />
		<tag k="ssr:hovedgruppe" v="infrastruktur" />
		<tag k="ssr:stedsnr" v="1017682" />
		<tag k="ssr:type" v="adressenavn" />
	</node>
	<node lat="61.84890742413501" lon="9.421871463980242" id="-45100">
		<tag k="name" v="Sigrid Undsets veg" />
		<tag k="ssr:date" v="2019-12-27" />
		<tag k="ssr:gruppe" v="veg" />
		<tag k="ssr:hovedgruppe" v="infrastruktur" />
		<tag k="ssr:stedsnr" v="1017683" />
		<tag k="ssr:type" v="adressenavn" />
	</node>
	<node lat="61.722220893107846" lon="9.546988734547629" id="-45101">
		<tag k="name" v="Seterråket" />
		<tag k="ssr:date" v="2019-12-27" />
		<tag k="ssr:gruppe" v="veg" />
		<tag k="ssr:hovedgruppe" v="infrastruktur" />
		<tag k="ssr:stedsnr" v="1017685" />
		<tag k="ssr:type" v="adressenavn" />
	</node>
	<node lat="61.72673065083744" lon="9.54698286403152" id="-45102">
		<tag k="name" v="Hamnlykkja" />
		<tag k="ssr:date" v="2019-12-27" />
		<tag k="ssr:gruppe" v="veg" />
		<tag k="ssr:hovedgruppe" v="infrastruktur" />
		<tag k="ssr:stedsnr" v="1017686" />
		<tag k="ssr:type" v="adressenavn" />
	</node>
	<node lat="61.72571017628185" lon="9.544640525598032" id="-45103">
		<tag k="name" v="Moavegen" />
		<tag k="ssr:date" v="2019-12-27" />
		<tag k="ssr:gruppe" v="veg" />
		<tag k="ssr:hovedgruppe" v="infrastruktur" />
		<tag k="ssr:stedsnr" v="1017687" />
		<tag k="ssr:type" v="adressenavn" />
	</node>
	<node lat="61.77438186132436" lon="9.500475048217494" id="-45104">
		<tag k="name" v="Dahlevelta" />
		<tag k="ssr:date" v="2019-12-27" />
		<tag k="ssr:gruppe" v="veg" />
		<tag k="ssr:hovedgruppe" v="infrastruktur" />
		<tag k="ssr:stedsnr" v="1017689" />
		<tag k="ssr:type" v="adressenavn" />
	</node>
	<node lat="61.78275078701101" lon="9.548558419582262" id="-45105">
		<tag k="name" v="Gamlevegen" />
		<tag k="ssr:date" v="2019-12-27" />
		<tag k="ssr:gruppe" v="veg" />
		<tag k="ssr:hovedgruppe" v="infrastruktur" />
		<tag k="ssr:stedsnr" v="1017690" />
		<tag k="ssr:type" v="adressenavn" />
	</node>
	<node lat="61.755096301109596" lon="9.301171249568707" id="-45106">
		<tag k="name" v="Furuvegen" />
		<tag k="ssr:date" v="2019-12-27" />
		<tag k="ssr:gruppe" v="veg" />
		<tag k="ssr:hovedgruppe" v="infrastruktur" />
		<tag k="ssr:stedsnr" v="1017691" />
		<tag k="ssr:type" v="adressenavn" />
	</node>
	<node lat="61.77536062339811" lon="9.5015397685867" id="-45107">
		<tag k="name" v="Nyseterjordet" />
		<tag k="ssr:date" v="2019-12-27" />
		<tag k="ssr:gruppe" v="veg" />
		<tag k="ssr:hovedgruppe" v="infrastruktur" />
		<tag k="ssr:stedsnr" v="1017693" />
		<tag k="ssr:type" v="adressenavn" />
	</node>
	<node lat="61.77542364972778" lon="9.490799687697068" id="-45108">
		<tag k="name" v="Ådalsvegen" />
		<tag k="ssr:date" v="2019-12-27" />
		<tag k="ssr:gruppe" v="veg" />
		<tag k="ssr:hovedgruppe" v="infrastruktur" />
		<tag k="ssr:stedsnr" v="1017694" />
		<tag k="ssr:type" v="adressenavn" />
	</node>
	<node lat="61.70556682311904" lon="9.323269331111858" id="-45109">
		<tag k="name" v="Krokstubben" />
		<tag k="ssr:date" v="2019-12-27" />
		<tag k="ssr:gruppe" v="veg" />
		<tag k="ssr:hovedgruppe" v="infrastruktur" />
		<tag k="ssr:stedsnr" v="1017709" />
		<tag k="ssr:type" v="adressenavn" />
	</node>
	<node lat="61.70624345624517" lon="9.325440464864732" id="-45110">
		<tag k="name" v="Øvre Gjelrustvegen" />
		<tag k="ssr:date" v="2019-12-27" />
		<tag k="ssr:gruppe" v="veg" />
		<tag k="ssr:hovedgruppe" v="infrastruktur" />
		<tag k="ssr:stedsnr" v="1017711" />
		<tag k="ssr:type" v="adressenavn" />
	</node>
	<node lat="61.7545657672889" lon="9.304540851280667" id="-45111">
		<tag k="name" v="Harildstadmoen" />
		<tag k="ssr:date" v="2019-12-27" />
		<tag k="ssr:gruppe" v="veg" />
		<tag k="ssr:hovedgruppe" v="infrastruktur" />
		<tag k="ssr:stedsnr" v="1017649" />
		<tag k="ssr:type" v="adressenavn" />
	</node>
	<node lat="61.75289690442906" lon="9.315186162384467" id="-45112">
		<tag k="name" v="Resvollvegen" />
		<tag k="ssr:date" v="2019-12-27" />
		<tag k="ssr:gruppe" v="veg" />
		<tag k="ssr:hovedgruppe" v="infrastruktur" />
		<tag k="ssr:stedsnr" v="1017650" />
		<tag k="ssr:type" v="adressenavn" />
	</node>
	<node lat="61.850048970610835" lon="9.418041783556827" id="-45113">
		<tag k="name" v="Mogeilen" />
		<tag k="ssr:date" v="2019-12-27" />
		<tag k="ssr:gruppe" v="veg" />
		<tag k="ssr:hovedgruppe" v="infrastruktur" />
		<tag k="ssr:stedsnr" v="1017651" />
		<tag k="ssr:type" v="adressenavn" />
	</node>
	<node lat="61.849257381082026" lon="9.42390303816571" id="-45114">
		<tag k="name" v="Jørundgardvegen" />
		<tag k="ssr:date" v="2019-12-27" />
		<tag k="ssr:gruppe" v="veg" />
		<tag k="ssr:hovedgruppe" v="infrastruktur" />
		<tag k="ssr:stedsnr" v="1017652" />
		<tag k="ssr:type" v="adressenavn" />
	</node>
	<node lat="61.8481737008609" lon="9.4329070496947" id="-45115">
		<tag k="name" v="Strand" />
		<tag k="ssr:date" v="2019-12-27" />
		<tag k="ssr:gruppe" v="veg" />
		<tag k="ssr:hovedgruppe" v="infrastruktur" />
		<tag k="ssr:stedsnr" v="1017653" />
		<tag k="ssr:type" v="adressenavn" />
	</node>
	<node lat="61.7221300669592" lon="9.544779920150015" id="-45116">
		<tag k="name" v="Morenevegen" />
		<tag k="ssr:date" v="2019-12-27" />
		<tag k="ssr:gruppe" v="veg" />
		<tag k="ssr:hovedgruppe" v="infrastruktur" />
		<tag k="ssr:stedsnr" v="1017654" />
		<tag k="ssr:type" v="adressenavn" />
	</node>
	<node lat="61.79418596700621" lon="9.553116417394254" id="-45117">
		<tag k="name" v="Ulvollsvegen" />
		<tag k="ssr:date" v="2019-12-27" />
		<tag k="ssr:gruppe" v="veg" />
		<tag k="ssr:hovedgruppe" v="infrastruktur" />
		<tag k="ssr:stedsnr" v="1017655" />
		<tag k="ssr:type" v="adressenavn" />
	</node>
	<node lat="61.771562038448074" lon="9.529366606715396" id="-45118">
		<tag k="name" v="Ottekreberget" />
		<tag k="ssr:date" v="2019-12-27" />
		<tag k="ssr:gruppe" v="veg" />
		<tag k="ssr:hovedgruppe" v="infrastruktur" />
		<tag k="ssr:stedsnr" v="1017656" />
		<tag k="ssr:type" v="adressenavn" />
	</node>
	<node lat="61.75478466466581" lon="9.296135340572977" id="-45119">
		<tag k="name" v="Movegen" />
		<tag k="ssr:date" v="2019-12-27" />
		<tag k="ssr:gruppe" v="veg" />
		<tag k="ssr:hovedgruppe" v="infrastruktur" />
		<tag k="ssr:stedsnr" v="1017657" />
		<tag k="ssr:type" v="adressenavn" />
	</node>
	<node lat="61.77614780658053" lon="9.53546357548894" id="-45120">
		<tag k="name" v="Sygardsvegen" />
		<tag k="ssr:date" v="2019-12-27" />
		<tag k="ssr:gruppe" v="veg" />
		<tag k="ssr:hovedgruppe" v="infrastruktur" />
		<tag k="ssr:stedsnr" v="1017658" />
		<tag k="ssr:type" v="adressenavn" />
	</node>
	<node lat="61.770766608837796" lon="9.536944648991545" id="-45121">
		<tag k="name" v="Ola Dahls gate" />
		<tag k="ssr:date" v="2019-12-27" />
		<tag k="ssr:gruppe" v="veg" />
		<tag k="ssr:hovedgruppe" v="infrastruktur" />
		<tag k="ssr:stedsnr" v="1017659" />
		<tag k="ssr:type" v="adressenavn" />
	</node>
	<node lat="61.7741390973191" lon="9.534981051518809" id="-45122">
		<tag k="name" v="Loftsgårdsbakken" />
		<tag k="ssr:date" v="2019-12-27" />
		<tag k="ssr:gruppe" v="veg" />
		<tag k="ssr:hovedgruppe" v="infrastruktur" />
		<tag k="ssr:stedsnr" v="1017660" />
		<tag k="ssr:type" v="adressenavn" />
	</node>
	<node lat="61.77509148902068" lon="9.487190697130892" id="-45123">
		<tag k="name" v="Dahlemoen" />
		<tag k="ssr:date" v="2019-12-27" />
		<tag k="ssr:gruppe" v="veg" />
		<tag k="ssr:hovedgruppe" v="infrastruktur" />
		<tag k="ssr:stedsnr" v="1017662" />
		<tag k="ssr:type" v="adressenavn" />
	</node>
	<node lat="61.679512085432734" lon="9.54774994947026" id="-45124">
		<tag k="name" v="Kapellvegen" />
		<tag k="ssr:date" v="2019-12-27" />
		<tag k="ssr:gruppe" v="veg" />
		<tag k="ssr:hovedgruppe" v="infrastruktur" />
		<tag k="ssr:stedsnr" v="1017663" />
		<tag k="ssr:type" v="adressenavn" />
	</node>
	<node lat="61.680443265092606" lon="9.545588423085121" id="-45125">
		<tag k="name" v="Furustubben" />
		<tag k="ssr:date" v="2019-12-27" />
		<tag k="ssr:gruppe" v="veg" />
		<tag k="ssr:hovedgruppe" v="infrastruktur" />
		<tag k="ssr:stedsnr" v="1017664" />
		<tag k="ssr:type" v="adressenavn" />
	</node>
	<node lat="61.68130169405212" lon="9.541668099958933" id="-45126">
		<tag k="name" v="Skulebakken" />
		<tag k="ssr:date" v="2019-12-27" />
		<tag k="ssr:gruppe" v="veg" />
		<tag k="ssr:hovedgruppe" v="infrastruktur" />
		<tag k="ssr:stedsnr" v="1017665" />
		<tag k="ssr:type" v="adressenavn" />
	</node>
	<node lat="61.681741097870294" lon="9.543004765338088" id="-45127">
		<tag k="name" v="Grendevegen" />
		<tag k="ssr:date" v="2019-12-27" />
		<tag k="ssr:gruppe" v="veg" />
		<tag k="ssr:hovedgruppe" v="infrastruktur" />
		<tag k="ssr:stedsnr" v="1017666" />
		<tag k="ssr:type" v="adressenavn" />
	</node>
	<node lat="61.756796178254206" lon="9.299514995554672" id="-45128">
		<tag k="name" v="Nymovegen" />
		<tag k="ssr:date" v="2019-12-27" />
		<tag k="ssr:gruppe" v="veg" />
		<tag k="ssr:hovedgruppe" v="infrastruktur" />
		<tag k="ssr:stedsnr" v="1017668" />
		<tag k="ssr:type" v="adressenavn" />
	</node>
	<node lat="61.78420868553749" lon="9.552354045172091" id="-45129">
		<tag k="name" v="Øvre Bekken" />
		<tag k="ssr:date" v="2019-12-27" />
		<tag k="ssr:gruppe" v="veg" />
		<tag k="ssr:hovedgruppe" v="infrastruktur" />
		<tag k="ssr:stedsnr" v="1017669" />
		<tag k="ssr:type" v="adressenavn" />
	</node>
	<node lat="61.68109629138452" lon="9.546202164445182" id="-45130">
		<tag k="name" v="Kolomovegen" />
		<tag k="ssr:date" v="2019-12-27" />
		<tag k="ssr:gruppe" v="veg" />
		<tag k="ssr:hovedgruppe" v="infrastruktur" />
		<tag k="ssr:stedsnr" v="1017670" />
		<tag k="ssr:type" v="adressenavn" />
	</node>
	<node lat="61.77401336012229" lon="9.508711223371458" id="-45131">
		<tag k="name" v="Grønnvegen" />
		<tag k="ssr:date" v="2019-12-27" />
		<tag k="ssr:gruppe" v="veg" />
		<tag k="ssr:hovedgruppe" v="infrastruktur" />
		<tag k="ssr:stedsnr" v="1017671" />
		<tag k="ssr:type" v="adressenavn" />
	</node>
	<node lat="61.68820495744209" lon="9.167092537846067" id="-45132">
		<tag k="name" v="Nysetervegen" />
		<tag k="ssr:date" v="2019-12-27" />
		<tag k="ssr:gruppe" v="veg" />
		<tag k="ssr:hovedgruppe" v="infrastruktur" />
		<tag k="ssr:stedsnr" v="1017736" />
		<tag k="ssr:type" v="adressenavn" />
	</node>
	<node lat="61.7276760592813" lon="9.1528753353989" id="-45133">
		<tag k="name" v="Murudalsvegen" />
		<tag k="ssr:date" v="2019-12-27" />
		<tag k="ssr:gruppe" v="veg" />
		<tag k="ssr:hovedgruppe" v="infrastruktur" />
		<tag k="ssr:stedsnr" v="1017737" />
		<tag k="ssr:type" v="adressenavn" />
	</node>
	<node lat="61.69478481511891" lon="9.472083495567588" id="-45134">
		<tag k="name" v="Sjolivegen" />
		<tag k="ssr:date" v="2019-12-27" />
		<tag k="ssr:gruppe" v="veg" />
		<tag k="ssr:hovedgruppe" v="infrastruktur" />
		<tag k="ssr:stedsnr" v="1017738" />
		<tag k="ssr:type" v="adressenavn" />
	</node>
	<node lat="61.75810598938197" lon="9.284395893996352" id="-45135">
		<tag k="name" v="Heidalsskogen" />
		<tag k="ssr:date" v="2019-12-27" />
		<tag k="ssr:gruppe" v="veg" />
		<tag k="ssr:hovedgruppe" v="infrastruktur" />
		<tag k="ssr:stedsnr" v="1017739" />
		<tag k="ssr:type" v="adressenavn" />
	</node>
	<node lat="61.70864447264995" lon="9.552318706933782" id="-45136">
		<tag k="name" v="Holsetervegen" />
		<tag k="ssr:date" v="2019-12-27" />
		<tag k="ssr:gruppe" v="veg" />
		<tag k="ssr:hovedgruppe" v="infrastruktur" />
		<tag k="ssr:stedsnr" v="1017740" />
		<tag k="ssr:type" v="adressenavn" />
	</node>
	<node lat="61.68133798806432" lon="9.535124189544725" id="-45137">
		<tag k="name" v="Åmotsvegen" />
		<tag k="ssr:date" v="2019-12-27" />
		<tag k="ssr:gruppe" v="veg" />
		<tag k="ssr:hovedgruppe" v="infrastruktur" />
		<tag k="ssr:stedsnr" v="1017741" />
		<tag k="ssr:type" v="adressenavn" />
	</node>
	<node lat="61.67879326656767" lon="9.549248387101057" id="-45138">
		<tag k="name" v="Heidalsvegen" />
		<tag k="ssr:date" v="2019-12-27" />
		<tag k="ssr:gruppe" v="veg" />
		<tag k="ssr:hovedgruppe" v="infrastruktur" />
		<tag k="ssr:stedsnr" v="1017743" />
		<tag k="ssr:type" v="adressenavn" />
	</node>
	<node lat="61.70741215047939" lon="9.553548336253911" id="-45139">
		<tag k="name" v="Randageilen" />
		<tag k="ssr:date" v="2019-12-27" />
		<tag k="ssr:gruppe" v="veg" />
		<tag k="ssr:hovedgruppe" v="infrastruktur" />
		<tag k="ssr:stedsnr" v="1017744" />
		<tag k="ssr:type" v="adressenavn" />
	</node>
	<node lat="61.68058393652764" lon="9.531765672630662" id="-45140">
		<tag k="name" v="Sjoavegen" />
		<tag k="ssr:date" v="2019-12-27" />
		<tag k="ssr:gruppe" v="veg" />
		<tag k="ssr:hovedgruppe" v="infrastruktur" />
		<tag k="ssr:stedsnr" v="1017745" />
		<tag k="ssr:type" v="adressenavn" />
	</node>
	<node lat="61.668874496152405" lon="9.545513621299861" id="-45141">
		<tag k="name" v="Kvamsvegen" />
		<tag k="ssr:date" v="2019-12-27" />
		<tag k="ssr:gruppe" v="veg" />
		<tag k="ssr:hovedgruppe" v="infrastruktur" />
		<tag k="ssr:stedsnr" v="1017746" />
		<tag k="ssr:type" v="adressenavn" />
	</node>
	<node lat="61.68619880503621" lon="9.535717381079884" id="-45142">
		<tag k="name" v="Slåfjellvegen" />
		<tag k="ssr:date" v="2019-12-27" />
		<tag k="ssr:gruppe" v="veg" />
		<tag k="ssr:hovedgruppe" v="infrastruktur" />
		<tag k="ssr:stedsnr" v="1017748" />
		<tag k="ssr:type" v="adressenavn" />
	</node>
	<node lat="61.67879326656767" lon="9.549248387101057" id="-45143">
		<tag k="name" v="Stasjonsvegen" />
		<tag k="ssr:date" v="2019-12-27" />
		<tag k="ssr:gruppe" v="veg" />
		<tag k="ssr:hovedgruppe" v="infrastruktur" />
		<tag k="ssr:stedsnr" v="1017749" />
		<tag k="ssr:type" v="adressenavn" />
	</node>
	<node lat="61.841520192421406" lon="9.400938171034813" id="-45144">
		<tag k="name" v="Sagdalsvegen" />
		<tag k="ssr:date" v="2019-12-27" />
		<tag k="ssr:gruppe" v="veg" />
		<tag k="ssr:hovedgruppe" v="infrastruktur" />
		<tag k="ssr:stedsnr" v="1017750" />
		<tag k="ssr:type" v="adressenavn" />
	</node>
	<node lat="61.87633225951178" lon="9.42034715105445" id="-45145">
		<tag k="name" v="Høvringsvegen" />
		<tag k="ssr:date" v="2019-12-27" />
		<tag k="ssr:gruppe" v="veg" />
		<tag k="ssr:hovedgruppe" v="infrastruktur" />
		<tag k="ssr:stedsnr" v="1017751" />
		<tag k="ssr:type" v="adressenavn" />
	</node>
	<node lat="61.8003358602348" lon="9.554516450582547" id="-45146">
		<tag k="name" v="Verkensbakkein" />
		<tag k="ssr:date" v="2019-12-27" />
		<tag k="ssr:gruppe" v="veg" />
		<tag k="ssr:hovedgruppe" v="infrastruktur" />
		<tag k="ssr:stedsnr" v="1017752" />
		<tag k="ssr:type" v="adressenavn" />
	</node>
	<node lat="61.84004229485958" lon="9.401311085145133" id="-45147">
		<tag k="name" v="Grindstugugrenda" />
		<tag k="ssr:date" v="2019-12-27" />
		<tag k="ssr:gruppe" v="veg" />
		<tag k="ssr:hovedgruppe" v="infrastruktur" />
		<tag k="ssr:stedsnr" v="1017753" />
		<tag k="ssr:type" v="adressenavn" />
	</node>
	<node lat="61.67252170822837" lon="9.559070727127827" id="-45148">
		<tag k="name" v="Gudbrandsdalsvegen" />
		<tag k="ssr:date" v="2019-12-27" />
		<tag k="ssr:gruppe" v="veg" />
		<tag k="ssr:hovedgruppe" v="infrastruktur" />
		<tag k="ssr:stedsnr" v="1017754" />
		<tag k="ssr:type" v="adressenavn" />
	</node>
	<node lat="61.80420255279268" lon="9.542139879939745" id="-45149">
		<tag k="name" v="Selsvollene" />
		<tag k="ssr:date" v="2019-12-27" />
		<tag k="ssr:gruppe" v="veg" />
		<tag k="ssr:hovedgruppe" v="infrastruktur" />
		<tag k="ssr:stedsnr" v="1017755" />
		<tag k="ssr:type" v="adressenavn" />
	</node>
	<node lat="61.896493789144714" lon="9.392259770816922" id="-45150">
		<tag k="name" v="Rostgrenda" />
		<tag k="ssr:date" v="2019-12-27" />
		<tag k="ssr:gruppe" v="veg" />
		<tag k="ssr:hovedgruppe" v="infrastruktur" />
		<tag k="ssr:stedsnr" v="1017756" />
		<tag k="ssr:type" v="adressenavn" />
	</node>
	<node lat="61.84154181214016" lon="9.412646544616807" id="-45151">
		<tag k="name" v="Rustvegen" />
		<tag k="ssr:date" v="2019-12-27" />
		<tag k="ssr:gruppe" v="veg" />
		<tag k="ssr:hovedgruppe" v="infrastruktur" />
		<tag k="ssr:stedsnr" v="1017757" />
		<tag k="ssr:type" v="adressenavn" />
	</node>
	<node lat="61.7288088333155" lon="9.551857561082128" id="-45152">
		<tag k="name" v="Åstelykkja" />
		<tag k="ssr:date" v="2019-12-27" />
		<tag k="ssr:gruppe" v="veg" />
		<tag k="ssr:hovedgruppe" v="infrastruktur" />
		<tag k="ssr:stedsnr" v="1017759" />
		<tag k="ssr:type" v="adressenavn" />
	</node>
	<node lat="61.75588057229362" lon="9.291937650899182" id="-45153">
		<tag k="name" v="Ysterivegen" />
		<tag k="ssr:date" v="2019-12-27" />
		<tag k="ssr:gruppe" v="veg" />
		<tag k="ssr:hovedgruppe" v="infrastruktur" />
		<tag k="ssr:stedsnr" v="1017761" />
		<tag k="ssr:type" v="adressenavn" />
	</node>
	<node lat="61.79346299728095" lon="9.358133700478625" id="-45154">
		<tag k="name" v="Veggumsvegen" />
		<tag k="ssr:date" v="2019-12-27" />
		<tag k="ssr:gruppe" v="veg" />
		<tag k="ssr:hovedgruppe" v="infrastruktur" />
		<tag k="ssr:stedsnr" v="1017762" />
		<tag k="ssr:type" v="adressenavn" />
	</node>
	<node lat="61.770706558484825" lon="9.533655587159647" id="-45155">
		<tag k="name" v="Ottadalsvegen" />
		<tag k="ssr:date" v="2019-12-27" />
		<tag k="ssr:gruppe" v="veg" />
		<tag k="ssr:hovedgruppe" v="infrastruktur" />
		<tag k="ssr:stedsnr" v="1017764" />
		<tag k="ssr:type" v="adressenavn" />
	</node>
	<node lat="61.801240952951424" lon="9.551996211140107" id="-45156">
		<tag k="name" v="Kyrkjevegen" />
		<tag k="ssr:date" v="2019-12-27" />
		<tag k="ssr:gruppe" v="veg" />
		<tag k="ssr:hovedgruppe" v="infrastruktur" />
		<tag k="ssr:stedsnr" v="1017765" />
		<tag k="ssr:type" v="adressenavn" />
	</node>
	<node lat="61.69538033429984" lon="9.471177803268825" id="-45157">
		<tag k="name" v="Øverbygdsvegen" />
		<tag k="ssr:date" v="2019-12-27" />
		<tag k="ssr:gruppe" v="veg" />
		<tag k="ssr:hovedgruppe" v="infrastruktur" />
		<tag k="ssr:stedsnr" v="1017766" />
		<tag k="ssr:type" v="adressenavn" />
	</node>
	<node lat="61.84047436774379" lon="9.412801737891861" id="-45158">
		<tag k="name" v="Nerøygardsvegen" />
		<tag k="ssr:date" v="2019-12-27" />
		<tag k="ssr:gruppe" v="veg" />
		<tag k="ssr:hovedgruppe" v="infrastruktur" />
		<tag k="ssr:stedsnr" v="1017768" />
		<tag k="ssr:type" v="adressenavn" />
	</node>
	<node lat="61.77613589998727" lon="9.53561162495621" id="-45159">
		<tag k="name" v="Nordigard" />
		<tag k="ssr:date" v="2019-12-27" />
		<tag k="ssr:gruppe" v="veg" />
		<tag k="ssr:hovedgruppe" v="infrastruktur" />
		<tag k="ssr:stedsnr" v="1017770" />
		<tag k="ssr:type" v="adressenavn" />
	</node>
	<node lat="61.744448238418116" lon="9.55832605583347" id="-45160">
		<tag k="name" v="Solhjemslivegen" />
		<tag k="ssr:date" v="2019-12-27" />
		<tag k="ssr:gruppe" v="veg" />
		<tag k="ssr:hovedgruppe" v="infrastruktur" />
		<tag k="ssr:stedsnr" v="1017771" />
		<tag k="ssr:type" v="adressenavn" />
	</node>
	<node lat="61.78690747096142" lon="9.462464722963915" id="-45161">
		<tag k="name" v="Åsårlivegen" />
		<tag k="ssr:date" v="2019-12-27" />
		<tag k="ssr:gruppe" v="veg" />
		<tag k="ssr:hovedgruppe" v="infrastruktur" />
		<tag k="ssr:stedsnr" v="1017976" />
		<tag k="ssr:type" v="adressenavn" />
	</node>
	<node lat="61.80995647084978" lon="9.575104797782922" id="-45162">
		<tag k="name" v="Kampevegen" />
		<tag k="ssr:date" v="2019-12-27" />
		<tag k="ssr:gruppe" v="veg" />
		<tag k="ssr:hovedgruppe" v="infrastruktur" />
		<tag k="ssr:stedsnr" v="1017980" />
		<tag k="ssr:type" v="adressenavn" />
	</node>
	<node lat="61.61124103759492" lon="9.279047266495265" id="-45163">
		<tag k="name" v="Bumorkvegen" />
		<tag k="ssr:date" v="2019-12-27" />
		<tag k="ssr:gruppe" v="veg" />
		<tag k="ssr:hovedgruppe" v="infrastruktur" />
		<tag k="ssr:stedsnr" v="1017982" />
		<tag k="ssr:type" v="adressenavn" />
	</node>
	<node lat="61.875720593006726" lon="9.397630454135639" id="-45164">
		<tag k="name" v="Horgevegen" />
		<tag k="ssr:date" v="2019-12-27" />
		<tag k="ssr:gruppe" v="veg" />
		<tag k="ssr:hovedgruppe" v="infrastruktur" />
		<tag k="ssr:stedsnr" v="1017985" />
		<tag k="ssr:type" v="adressenavn" />
	</node>
	<node lat="61.84230575994671" lon="9.517416188516709" id="-45165">
		<tag k="name" v="Skarsetervegen" />
		<tag k="ssr:date" v="2019-12-27" />
		<tag k="ssr:gruppe" v="veg" />
		<tag k="ssr:hovedgruppe" v="infrastruktur" />
		<tag k="ssr:stedsnr" v="1017988" />
		<tag k="ssr:type" v="adressenavn" />
	</node>
	<node lat="61.771685105206195" lon="9.427542129647001" id="-45166">
		<tag k="name" v="Flåtlivegen" />
		<tag k="ssr:date" v="2019-12-27" />
		<tag k="ssr:gruppe" v="veg" />
		<tag k="ssr:hovedgruppe" v="infrastruktur" />
		<tag k="ssr:stedsnr" v="1017991" />
		<tag k="ssr:type" v="adressenavn" />
	</node>
	<node lat="61.86950152461872" lon="9.364833918910664" id="-45167">
		<tag k="name" v="Rostbakkvegen" />
		<tag k="ssr:date" v="2019-12-27" />
		<tag k="ssr:gruppe" v="veg" />
		<tag k="ssr:hovedgruppe" v="infrastruktur" />
		<tag k="ssr:stedsnr" v="1017994" />
		<tag k="ssr:type" v="adressenavn" />
	</node>
	<node lat="61.89595315386288" lon="9.455413346797162" id="-45168">
		<tag k="name" v="Ljosmyrvegen" />
		<tag k="ssr:date" v="2019-12-27" />
		<tag k="ssr:gruppe" v="veg" />
		<tag k="ssr:hovedgruppe" v="infrastruktur" />
		<tag k="ssr:stedsnr" v="1017998" />
		<tag k="ssr:type" v="adressenavn" />
	</node>
	<node lat="61.895864513322145" lon="9.457385598365262" id="-45169">
		<tag k="name" v="Weidemannvegen" />
		<tag k="ssr:date" v="2019-12-27" />
		<tag k="ssr:gruppe" v="veg" />
		<tag k="ssr:hovedgruppe" v="infrastruktur" />
		<tag k="ssr:stedsnr" v="1018001" />
		<tag k="ssr:type" v="adressenavn" />
	</node>
	<node lat="61.89822624294897" lon="9.455849731054732" id="-45170">
		<tag k="name" v="Juvsholsetervegen" />
		<tag k="ssr:date" v="2019-12-27" />
		<tag k="ssr:gruppe" v="veg" />
		<tag k="ssr:hovedgruppe" v="infrastruktur" />
		<tag k="ssr:stedsnr" v="1018004" />
		<tag k="ssr:type" v="adressenavn" />
	</node>
	<node lat="61.80177322984295" lon="9.70678205951201" id="-45171">
		<tag k="name" v="Punghaugen" />
		<tag k="ssr:date" v="2019-12-27" />
		<tag k="ssr:gruppe" v="veg" />
		<tag k="ssr:hovedgruppe" v="infrastruktur" />
		<tag k="ssr:stedsnr" v="1018103" />
		<tag k="ssr:type" v="adressenavn" />
	</node>
	<node lat="61.797426817278485" lon="9.218123400516072" id="-45172">
		<tag k="name" v="Brennstadvegen" />
		<tag k="ssr:date" v="2019-12-27" />
		<tag k="ssr:gruppe" v="veg" />
		<tag k="ssr:hovedgruppe" v="infrastruktur" />
		<tag k="ssr:stedsnr" v="1018108" />
		<tag k="ssr:type" v="adressenavn" />
	</node>
	<node lat="61.8062144776204" lon="9.688342327020461" id="-45173">
		<tag k="name" v="Nyhuslia" />
		<tag k="ssr:date" v="2019-12-27" />
		<tag k="ssr:gruppe" v="veg" />
		<tag k="ssr:hovedgruppe" v="infrastruktur" />
		<tag k="ssr:stedsnr" v="1018112" />
		<tag k="ssr:type" v="adressenavn" />
	</node>
	<node lat="61.89436821322262" lon="9.459302205126487" id="-45174">
		<tag k="name" v="Vardamorkvegen" />
		<tag k="ssr:date" v="2019-12-27" />
		<tag k="ssr:gruppe" v="veg" />
		<tag k="ssr:hovedgruppe" v="infrastruktur" />
		<tag k="ssr:stedsnr" v="1018007" />
		<tag k="ssr:type" v="adressenavn" />
	</node>
	<node lat="61.89248871501247" lon="9.478476149635755" id="-45175">
		<tag k="name" v="Brekkesetervegen" />
		<tag k="ssr:date" v="2019-12-27" />
		<tag k="ssr:gruppe" v="veg" />
		<tag k="ssr:hovedgruppe" v="infrastruktur" />
		<tag k="ssr:stedsnr" v="1018010" />
		<tag k="ssr:type" v="adressenavn" />
	</node>
	<node lat="61.890285002107994" lon="9.48617042351173" id="-45176">
		<tag k="name" v="Smuksjøsetervegen" />
		<tag k="ssr:date" v="2019-12-27" />
		<tag k="ssr:gruppe" v="veg" />
		<tag k="ssr:hovedgruppe" v="infrastruktur" />
		<tag k="ssr:stedsnr" v="1018013" />
		<tag k="ssr:type" v="adressenavn" />
	</node>
	<node lat="61.804122198747464" lon="9.655252516443904" id="-45177">
		<tag k="name" v="Vestre Gråhaugen" />
		<tag k="ssr:date" v="2019-12-27" />
		<tag k="ssr:gruppe" v="veg" />
		<tag k="ssr:hovedgruppe" v="infrastruktur" />
		<tag k="ssr:stedsnr" v="1018053" />
		<tag k="ssr:type" v="adressenavn" />
	</node>
	<node lat="61.7931893602153" lon="9.595279719716757" id="-45178">
		<tag k="name" v="Drogasetervegen" />
		<tag k="ssr:date" v="2019-12-27" />
		<tag k="ssr:gruppe" v="veg" />
		<tag k="ssr:hovedgruppe" v="infrastruktur" />
		<tag k="ssr:stedsnr" v="1018056" />
		<tag k="ssr:type" v="adressenavn" />
	</node>
	<node lat="61.794480724398376" lon="9.580842559538636" id="-45179">
		<tag k="name" v="Raphamnvegen" />
		<tag k="ssr:date" v="2019-12-27" />
		<tag k="ssr:gruppe" v="veg" />
		<tag k="ssr:hovedgruppe" v="infrastruktur" />
		<tag k="ssr:stedsnr" v="1018059" />
		<tag k="ssr:type" v="adressenavn" />
	</node>
	<node lat="61.80940945806981" lon="9.676857809761847" id="-45180">
		<tag k="name" v="Gråhøvegen" />
		<tag k="ssr:date" v="2019-12-27" />
		<tag k="ssr:gruppe" v="veg" />
		<tag k="ssr:hovedgruppe" v="infrastruktur" />
		<tag k="ssr:stedsnr" v="1018062" />
		<tag k="ssr:type" v="adressenavn" />
	</node>
	<node lat="61.821807138062525" lon="9.70804499116415" id="-45181">
		<tag k="name" v="Bergetjønnvegen" />
		<tag k="ssr:date" v="2019-12-27" />
		<tag k="ssr:gruppe" v="veg" />
		<tag k="ssr:hovedgruppe" v="infrastruktur" />
		<tag k="ssr:stedsnr" v="1018065" />
		<tag k="ssr:type" v="adressenavn" />
	</node>
	<node lat="61.80443555848863" lon="9.655848273798041" id="-45182">
		<tag k="name" v="Østre Gråhaugen" />
		<tag k="ssr:date" v="2019-12-27" />
		<tag k="ssr:gruppe" v="veg" />
		<tag k="ssr:hovedgruppe" v="infrastruktur" />
		<tag k="ssr:stedsnr" v="1018068" />
		<tag k="ssr:type" v="adressenavn" />
	</node>
	<node lat="61.80813972036068" lon="9.66608407506065" id="-45183">
		<tag k="name" v="Kleivmillomsetervegen" />
		<tag k="ssr:date" v="2019-12-27" />
		<tag k="ssr:gruppe" v="veg" />
		<tag k="ssr:hovedgruppe" v="infrastruktur" />
		<tag k="ssr:stedsnr" v="1018071" />
		<tag k="ssr:type" v="adressenavn" />
	</node>
	<node lat="61.72920863485719" lon="9.552235829757416" id="-45184">
		<tag k="name" v="Haredalsvegen" />
		<tag k="ssr:date" v="2019-12-27" />
		<tag k="ssr:gruppe" v="veg" />
		<tag k="ssr:hovedgruppe" v="infrastruktur" />
		<tag k="ssr:stedsnr" v="1017949" />
		<tag k="ssr:type" v="adressenavn" />
	</node>
	<node lat="61.774581763577324" lon="9.20328898151886" id="-45185">
		<tag k="name" v="Øversætervegen" />
		<tag k="ssr:date" v="2019-12-27" />
		<tag k="ssr:gruppe" v="veg" />
		<tag k="ssr:hovedgruppe" v="infrastruktur" />
		<tag k="ssr:stedsnr" v="1017951" />
		<tag k="ssr:type" v="adressenavn" />
	</node>
	<node lat="61.75416133901128" lon="9.306435037725503" id="-45186">
		<tag k="name" v="Sjobakkvegen" />
		<tag k="ssr:date" v="2019-12-27" />
		<tag k="ssr:gruppe" v="veg" />
		<tag k="ssr:hovedgruppe" v="infrastruktur" />
		<tag k="ssr:stedsnr" v="1017953" />
		<tag k="ssr:type" v="adressenavn" />
	</node>
	<node lat="61.797206175647894" lon="9.225078192346501" id="-45187">
		<tag k="name" v="Bringsvegen" />
		<tag k="ssr:date" v="2019-12-27" />
		<tag k="ssr:gruppe" v="veg" />
		<tag k="ssr:hovedgruppe" v="infrastruktur" />
		<tag k="ssr:stedsnr" v="1017956" />
		<tag k="ssr:type" v="adressenavn" />
	</node>
	<node lat="61.82575857997391" lon="9.40857387961722" id="-45188">
		<tag k="name" v="Råsdalsvegen" />
		<tag k="ssr:date" v="2019-12-27" />
		<tag k="ssr:gruppe" v="veg" />
		<tag k="ssr:hovedgruppe" v="infrastruktur" />
		<tag k="ssr:stedsnr" v="1017958" />
		<tag k="ssr:type" v="adressenavn" />
	</node>
	<node lat="61.79451696234907" lon="9.205765451185295" id="-45189">
		<tag k="name" v="Bøneslivegen" />
		<tag k="ssr:date" v="2019-12-27" />
		<tag k="ssr:gruppe" v="veg" />
		<tag k="ssr:hovedgruppe" v="infrastruktur" />
		<tag k="ssr:stedsnr" v="1017960" />
		<tag k="ssr:type" v="adressenavn" />
	</node>
	<node lat="61.58877665827269" lon="9.14153616253929" id="-45190">
		<tag k="name" v="Refjellet" />
		<tag k="ssr:date" v="2019-12-27" />
		<tag k="ssr:gruppe" v="veg" />
		<tag k="ssr:hovedgruppe" v="infrastruktur" />
		<tag k="ssr:stedsnr" v="1017963" />
		<tag k="ssr:type" v="adressenavn" />
	</node>
	<node lat="61.89430700070187" lon="9.461808265853389" id="-45191">
		<tag k="name" v="Lomsetervegen" />
		<tag k="ssr:date" v="2019-12-27" />
		<tag k="ssr:gruppe" v="veg" />
		<tag k="ssr:hovedgruppe" v="infrastruktur" />
		<tag k="ssr:stedsnr" v="1017966" />
		<tag k="ssr:type" v="adressenavn" />
	</node>
	<node lat="61.68056383829678" lon="9.509575281560304" id="-45192">
		<tag k="name" v="Kulivegen" />
		<tag k="ssr:date" v="2019-12-27" />
		<tag k="ssr:gruppe" v="veg" />
		<tag k="ssr:hovedgruppe" v="infrastruktur" />
		<tag k="ssr:stedsnr" v="1017968" />
		<tag k="ssr:type" v="adressenavn" />
	</node>
	<node lat="61.68010477278157" lon="9.566906434533056" id="-45193">
		<tag k="name" v="Dalumsvegen" />
		<tag k="ssr:date" v="2019-12-27" />
		<tag k="ssr:gruppe" v="veg" />
		<tag k="ssr:hovedgruppe" v="infrastruktur" />
		<tag k="ssr:stedsnr" v="1017970" />
		<tag k="ssr:type" v="adressenavn" />
	</node>
	<node lat="60.795248707246294" lon="11.082591224285064" id="-45196">
		<tag k="name" v="Innlandet fylke" />
		<tag k="ssr:date" v="2022-01-03" />
		<tag k="ssr:gruppe" v="administrativeIndelinger" />
		<tag k="ssr:hovedgruppe" v="offentligAdministrasjon" />
		<tag k="ssr:stedsnr" v="1074406" />
		<tag k="ssr:type" v="fylke" />
	</node>
</osm>
