<?xml version="1.0" encoding="UTF-8"?>
<osm generator="osmapis" version="0.6">
	<node id="-519679" lat="61.1016805566" lon="7.47506945138">
		<tag k="bridge" v="yes" />
		<tag k="layer" v="1" />
		<tag k="name" v="Hedlerbrui" />
		<tag k="ssr:stedsnr" v="450256" />
	</node>
	<node id="-519805" lat="61.0795361149" lon="7.84786388315">
		<tag k="bridge" v="yes" />
		<tag k="layer" v="1" />
		<tag k="name" v="Bergsbrui" />
		<tag k="ssr:stedsnr" v="529461" />
	</node>
	<node id="-519804" lat="61.0902583304" lon="7.9816388937">
		<tag k="layer" v="-1" />
		<tag k="name" v="Borlaugstunnelen" />
		<tag k="ssr:stedsnr" v="525934" />
		<tag k="tunnel" v="yes" />
	</node>
	<node id="-520057" lat="61.0445472213" lon="8.00666666066">
		<tag k="bridge" v="yes" />
		<tag k="layer" v="1" />
		<tag k="name" v="Galdestøl" />
		<tag k="ssr:stedsnr" v="652271" />
	</node>
	<node id="-520182" lat="61.1602888903" lon="7.43575832829">
		<tag k="bridge" v="yes" />
		<tag k="layer" v="1" />
		<tag k="name" v="Kvernagrovi" />
		<tag k="ssr:stedsnr" v="713302" />
	</node>
	<node id="-520181" lat="61.116200002" lon="8.0289388899">
		<tag k="bridge" v="yes" />
		<tag k="layer" v="1" />
		<tag k="name" v="Timre" />
		<tag k="ssr:stedsnr" v="713297" />
	</node>
	<node id="-519796" lat="61.1046083291" lon="7.45509444798">
		<tag k="layer" v="-1" />
		<tag k="name" v="Raudbergtunnelen" />
		<tag k="ssr:stedsnr" v="506503" />
		<tag k="tunnel" v="yes" />
	</node>
	<node id="-519933" lat="60.9584053983" lon="7.72190142188">
		<tag k="amenity" v="parking" />
		<tag k="name" v="Skogens plass" />
		<tag k="ssr:stedsnr" v="566085" />
	</node>
	<node id="-519147" lat="61.0518752503" lon="7.73610275054">
		<tag k="layer" v="-1" />
		<tag k="name" v="Seltatunnelen" />
		<tag k="ssr:stedsnr" v="21518" />
		<tag k="tunnel" v="yes" />
	</node>
	<node id="-519272" lat="61.0961749969" lon="8.00123054956">
		<tag k="bridge" v="yes" />
		<tag k="layer" v="1" />
		<tag k="name" v="Gram" />
		<tag k="ssr:stedsnr" v="107297" />
	</node>
	<node id="-519676" lat="61.1028694427" lon="7.47683889472">
		<tag k="layer" v="-1" />
		<tag k="name" v="Fodnestunnelen" />
		<tag k="ssr:stedsnr" v="446482" />
		<tag k="tunnel" v="yes" />
	</node>
	<node id="-520163" lat="61.1009194449" lon="7.46412776862">
		<tag k="man_made" v="quay" />
		<tag k="name" v="Havnen" />
		<tag k="place" v="locality" />
		<tag k="ssr:stedsnr" v="689640" />
	</node>
	<node id="-520161" lat="61.0519361128" lon="7.74923889151">
		<tag k="layer" v="-1" />
		<tag k="name" v="Kvamsbergtunnelen" />
		<tag k="ssr:stedsnr" v="688504" />
		<tag k="tunnel" v="yes" />
	</node>
	<node id="-519512" lat="61.0732361106" lon="7.95552221443">
		<tag k="bridge" v="yes" />
		<tag k="layer" v="1" />
		<tag k="name" v="Borlaug" />
		<tag k="ssr:stedsnr" v="228329" />
	</node>
	<node id="-519511" lat="61.0946472179" lon="8.00097222361">
		<tag k="bridge" v="yes" />
		<tag k="layer" v="1" />
		<tag k="name" v="Gram Halvviadukt" />
		<tag k="ssr:stedsnr" v="228320" />
	</node>
	<node id="-519381" lat="61.0482888879" lon="7.76520833442">
		<tag k="layer" v="-1" />
		<tag k="name" v="Borgundstunnelen" />
		<tag k="ssr:stedsnr" v="145171" />
		<tag k="tunnel" v="yes" />
	</node>
	<node id="-520531" lat="61.0258166703" lon="7.46827778682">
		<tag k="alt_name" v="Lærdal" />
		<tag k="layer" v="-1" />
		<tag k="name" v="Lærdalstunnelen" />
		<tag k="ssr:stedsnr" v="874913" />
		<tag k="tunnel" v="yes" />
	</node>
	<node id="-518992" lat="61.1663277789" lon="8.03340555713">
		<tag k="bridge" v="yes" />
		<tag k="layer" v="1" />
		<tag k="name" v="Smedal Øvre" />
		<tag k="ssr:stedsnr" v="410307" />
	</node>
	<node id="-518991" lat="61.093811112" lon="7.86940556104">
		<tag k="bridge" v="yes" />
		<tag k="layer" v="1" />
		<tag k="name" v="Voldfla" />
		<tag k="ssr:stedsnr" v="410303" />
	</node>
	<node id="-519693" lat="61.0578972198" lon="7.66573611066">
		<tag k="bridge" v="yes" />
		<tag k="layer" v="1" />
		<tag k="name" v="Bjørkum Vest" />
		<tag k="ssr:stedsnr" v="470279" />
	</node>
	<node id="-518856" lat="61.0111388875" lon="8.07809444557">
		<tag k="bridge" v="yes" />
		<tag k="layer" v="1" />
		<tag k="name" v="Draugheller" />
		<tag k="ssr:stedsnr" v="349366" />
	</node>
	<node id="-518725" lat="61.0292759528" lon="7.28418644816">
		<tag k="ford" v="yes" />
		<tag k="name" v="Breiavad" />
		<tag k="place" v="locality" />
		<tag k="ssr:stedsnr" v="269363" />
	</node>
	<node id="-519167" lat="61.08810833" lon="7.40374722233">
		<tag k="bridge" v="yes" />
		<tag k="layer" v="1" />
		<tag k="name" v="Glipsgrovi" />
		<tag k="ssr:stedsnr" v="46312" />
	</node>
	<node id="-519689" lat="61.0937416681" lon="7.86895556053">
		<tag k="bridge" v="yes" />
		<tag k="layer" v="1" />
		<tag k="name" v="Kvamme Øvre" />
		<tag k="ssr:stedsnr" v="470267" />
	</node>
	<node id="-519603" lat="61.0369222202" lon="7.80172221483">
		<tag k="highway" v="path" />
		<tag k="name" v="Sverrestigen" />
		<tag k="ssr:stedsnr" v="264833" />
	</node>
	<node id="-519983" lat="61.0580138864" lon="7.81708055698">
		<tag k="aeroway" v="airstrip" />
		<tag k="name" v="Borgund helikopterplass, Lo" />
		<tag k="old_name" v="Steinklepp helikopterplass, Lo" />
		<tag k="ssr:stedsnr" v="606030" />
	</node>
	<node id="-520045" lat="61.0767027777" lon="7.8710638858">
		<tag k="layer" v="-1" />
		<tag k="name" v="Tuftåstunnelen" />
		<tag k="ssr:stedsnr" v="645775" />
		<tag k="tunnel" v="yes" />
	</node>
	<node id="-520609" lat="61.0739472185" lon="7.95605000689">
		<tag k="bridge" v="yes" />
		<tag k="layer" v="1" />
		<tag k="name" v="Borlaugskulverten" />
		<tag k="ssr:stedsnr" v="956344" />
	</node>
	<node id="-520606" lat="61.050447222" lon="7.53459721459">
		<tag k="bridge" v="yes" />
		<tag k="layer" v="1" />
		<tag k="name" v="Grøthe" />
		<tag k="ssr:stedsnr" v="956322" />
	</node>
	<node id="-519708" lat="61.1016722228" lon="8.00981943553">
		<tag k="bridge" v="yes" />
		<tag k="layer" v="1" />
		<tag k="name" v="Honingbrui" />
		<tag k="ssr:stedsnr" v="471504" />
	</node>
	<node id="-519215" lat="61.0591122056" lon="7.81867479382">
		<tag k="landuse" v="industrial" />
		<tag k="name" v="Lo" />
		<tag k="power" v="plant" />
		<tag k="ssr:stedsnr" v="70527" />
	</node>
	<node id="-519956" lat="61.1020999972" lon="8.01950554909">
		<tag k="bridge" v="yes" />
		<tag k="layer" v="1" />
		<tag k="name" v="Ellefstøl" />
		<tag k="ssr:stedsnr" v="592314" />
	</node>
	<node id="-519955" lat="61.0535472257" lon="7.53637500541">
		<tag k="bridge" v="yes" />
		<tag k="layer" v="1" />
		<tag k="name" v="Volls" />
		<tag k="ssr:stedsnr" v="592302" />
	</node>
	<node id="-519384" lat="61.073511112" lon="7.95567499179">
		<tag k="bridge" v="yes" />
		<tag k="layer" v="1" />
		<tag k="name" v="Borlaugsbrui" />
		<tag k="ssr:stedsnr" v="161925" />
	</node>
	<node id="-520301" lat="61.1106750037" lon="7.07081111772">
		<tag k="amenity" v="ferry_terminal" />
		<tag k="name" v="Frønningen ferjekai" />
		<tag k="ssr:stedsnr" v="774338" />
	</node>
	<node id="-519692" lat="61.1010333295" lon="7.41823888793">
		<tag k="bridge" v="yes" />
		<tag k="layer" v="1" />
		<tag k="name" v="Erdal" />
		<tag k="ssr:stedsnr" v="470274" />
	</node>
	<node id="-519691" lat="61.1487018656" lon="7.38336300513">
		<tag k="amenity" v="ferry_terminal" />
		<tag k="name" v="Fodnes ferjekai" />
		<tag k="ssr:stedsnr" v="470273" />
	</node>
	<node id="-519690" lat="61.1002833373" lon="7.52126110679">
		<tag k="bridge" v="yes" />
		<tag k="layer" v="1" />
		<tag k="name" v="Ofta" />
		<tag k="ssr:stedsnr" v="470270" />
	</node>
	<node id="-519817" lat="61.1077222228" lon="8.03532222604">
		<tag k="bridge" v="yes" />
		<tag k="layer" v="1" />
		<tag k="name" v="Odde" />
		<tag k="ssr:stedsnr" v="531319" />
	</node>
	<node id="-519688" lat="61.0637777797" lon="7.5082333391">
		<tag k="bridge" v="yes" />
		<tag k="layer" v="1" />
		<tag k="name" v="Kjerringgjel Kulvert" />
		<tag k="ssr:stedsnr" v="470266" />
	</node>
	<node id="-519687" lat="61.1027888892" lon="7.51444166557">
		<tag k="bridge" v="yes" />
		<tag k="layer" v="1" />
		<tag k="name" v="Øye" />
		<tag k="ssr:stedsnr" v="470263" />
	</node>
</osm>
