<?xml version="1.0" encoding="UTF-8"?>
<osm generator="osmapis" version="0.6">
	<node id="-518143" lat="61.0460666677" lon="7.76847222484">
		<tag k="name" v="Haugen" />
		<tag k="place" v="farm" />
		<tag k="ssr:stedsnr" v="349776" />
	</node>
	<node id="-518133" lat="61.1168583347" lon="7.33225555024">
		<tag k="name" v="Sva" />
		<tag k="place" v="farm" />
		<tag k="ssr:stedsnr" v="349381" />
	</node>
	<node id="-518127" lat="61.0949805568" lon="7.10147222235">
		<tag k="name" v="Kilen" />
		<tag k="place" v="locality" />
		<tag k="ssr:stedsnr" v="349315" />
	</node>
	<node id="-518124" lat="61.146491664" lon="7.410619438">
		<tag k="name" v="Vetlevårstølen" />
		<tag k="place" v="locality" />
		<tag k="ssr:stedsnr" v="349288" />
	</node>
	<node id="-518117" lat="61.0499999958" lon="7.59035278317">
		<tag k="name" v="Ljøsne" />
		<tag k="place" v="hamlet" />
		<tag k="ssr:stedsnr" v="324824" />
	</node>
	<node id="-518116" lat="60.9279833378" lon="7.86069999778">
		<tag k="name" v="Bukkesteinshytta" />
		<tag k="place" v="isolated_dwelling" />
		<tag k="ssr:stedsnr" v="324015" />
	</node>
	<node id="-518114" lat="61.1057305575" lon="7.56658610775">
		<tag k="alt_name" v="Oftedalsstølen, nedre;Oftedalen" />
		<tag k="historic" v="shieling" />
		<tag k="name" v="Nedre Oftedalsstølen" />
		<tag k="place" v="locality" />
		<tag k="ssr:stedsnr" v="314804" />
	</node>
	<node id="-518105" lat="61.0462999959" lon="7.6313499959">
		<tag k="name" v="Saltkjelen" />
		<tag k="place" v="isolated_dwelling" />
		<tag k="ssr:stedsnr" v="313879" />
	</node>
	<node id="-518098" lat="61.0885322079" lon="7.40880251925">
		<tag k="alt_name" v="Sæl" />
		<tag k="fixme" v="consider place=hamlet" />
		<tag k="name" v="Sel" />
		<tag k="place" v="farm" />
		<tag k="ssr:stedsnr" v="313794" />
	</node>
	<node id="-518097" lat="61.0791500038" lon="7.39860278452">
		<tag k="historic" v="shieling" />
		<tag k="name" v="Mork" />
		<tag k="place" v="locality" />
		<tag k="ssr:stedsnr" v="313784" />
	</node>
	<node id="-518094" lat="61.0621111134" lon="7.84236667243">
		<tag k="name" v="Røsli" />
		<tag k="place" v="isolated_dwelling" />
		<tag k="ssr:stedsnr" v="313543" />
	</node>
	<node id="-518093" lat="61.0712888867" lon="7.83415555669">
		<tag k="name" v="Fjellstad" />
		<tag k="place" v="farm" />
		<tag k="ssr:stedsnr" v="313529" />
	</node>
	<node id="-518092" lat="61.0864277801" lon="7.98885833221">
		<tag k="name" v="Kleivi" />
		<tag k="place" v="locality" />
		<tag k="ssr:stedsnr" v="313525" />
	</node>
	<node id="-518091" lat="61.0198611111" lon="8.03649444518">
		<tag k="historic" v="shieling" />
		<tag k="name" v="Stardalen" />
		<tag k="place" v="locality" />
		<tag k="ssr:stedsnr" v="313521" />
	</node>
	<node id="-518090" lat="61.0393295919" lon="7.81143824288">
		<tag k="alt_name" v="Trove" />
		<tag k="name" v="Tråo" />
		<tag k="place" v="hamlet" />
		<tag k="ssr:stedsnr" v="313508" />
	</node>
	<node id="-518082" lat="61.1466429538" lon="7.37495715973">
		<tag k="fixme" v="consider place=hamlet" />
		<tag k="name" v="Fodnes" />
		<tag k="place" v="farm" />
		<tag k="ssr:stedsnr" v="313274" />
	</node>
	<node id="-518081" lat="61.1130750029" lon="7.48078889684">
		<tag k="historic" v="shieling" />
		<tag k="name" v="Åsen" />
		<tag k="place" v="locality" />
		<tag k="ssr:stedsnr" v="313259" />
	</node>
	<node id="-518073" lat="61.120247225" lon="7.32981111617">
		<tag k="name" v="Teigen" />
		<tag k="place" v="farm" />
		<tag k="ssr:stedsnr" v="312450" />
	</node>
	<node id="-518069" lat="60.9277694407" lon="7.59726666817">
		<tag k="name" v="Perbakk" />
		<tag k="place" v="locality" />
		<tag k="ssr:stedsnr" v="312359" />
	</node>
	<node id="-518063" lat="61.073852822" lon="7.95318074454">
		<tag k="fixme" v="consider place=hamlet" />
		<tag k="name" v="Borlaug" />
		<tag k="place" v="farm" />
		<tag k="ssr:stedsnr" v="313955" />
	</node>
	<node id="-518062" lat="61.0783388893" lon="7.85287500809">
		<tag k="alt_name" v="Midtun" />
		<tag k="name" v="Midttun" />
		<tag k="place" v="farm" />
		<tag k="ssr:stedsnr" v="313952" />
	</node>
	<node id="-518061" lat="61.0161861099" lon="7.59836389044">
		<tag k="historic" v="shieling" />
		<tag k="name" v="Senddalen" />
		<tag k="place" v="locality" />
		<tag k="ssr:stedsnr" v="313936" />
	</node>
	<node id="-518054" lat="61.0364500027" lon="7.30246945122">
		<tag k="historic" v="shieling" />
		<tag k="name" v="Vardahaug" />
		<tag k="place" v="locality" />
		<tag k="ssr:stedsnr" v="289888" />
	</node>
	<node id="-518041" lat="61.0522750042" lon="7.52827500009">
		<tag k="name" v="Haugo" />
		<tag k="place" v="farm" />
		<tag k="ssr:stedsnr" v="289710" />
	</node>
	<node id="-518027" lat="61.0235055537" lon="8.01988054996">
		<tag k="name" v="Øystølane" />
		<tag k="place" v="locality" />
		<tag k="ssr:stedsnr" v="289330" />
	</node>
	<node id="-518001" lat="61.0434055525" lon="7.61251388464">
		<tag k="name" v="Dokken" />
		<tag k="place" v="farm" />
		<tag k="ssr:stedsnr" v="287065" />
	</node>
	<node id="-518000" lat="61.0515972194" lon="7.57905832423">
		<tag k="name" v="Blåflat" />
		<tag k="place" v="farm" />
		<tag k="ssr:stedsnr" v="289071" />
	</node>
	<node id="-519932" lat="61.0222419897" lon="8.04158007491">
		<tag k="fixme" v="consider tourism=alpine_hut or tourism=chalet" />
		<tag k="name" v="Skarvheim" />
		<tag k="old_name" v="Breistølbu" />
		<tag k="ssr:stedsnr" v="979886" />
		<tag k="tourism" v="wilderness_hut" />
	</node>
	<node id="-519931" lat="61.1109597256" lon="8.03523212095">
		<tag k="fixme" v="consider place=hamlet" />
		<tag k="name" v="Maristova" />
		<tag k="place" v="farm" />
		<tag k="ssr:stedsnr" v="979337" />
	</node>
	<node id="-519930" lat="61.0714686229" lon="7.90552866358">
		<tag k="name" v="Tungeteigen" />
		<tag k="place" v="locality" />
		<tag k="ssr:stedsnr" v="979335" />
	</node>
	<node id="-519929" lat="61.0590379716" lon="7.81720597569">
		<tag k="fixme" v="consider place=hamlet" />
		<tag k="name" v="Lo" />
		<tag k="place" v="farm" />
		<tag k="ssr:stedsnr" v="979334" />
	</node>
	<node id="-519928" lat="61.1005384751" lon="7.42345280145">
		<tag k="fixme" v="consider place=hamlet" />
		<tag k="name" v="Haugane" />
		<tag k="place" v="farm" />
		<tag k="ssr:stedsnr" v="979331" />
	</node>
	<node id="-519927" lat="61.1008346927" lon="7.49660426418">
		<tag k="name" v="Einemoen" />
		<tag k="place" v="locality" />
		<tag k="ssr:stedsnr" v="979330" />
	</node>
	<node id="-519923" lat="61.0760368743" lon="7.8430817427">
		<tag k="fixme" v="consider place=hamlet" />
		<tag k="name" v="Hillestad" />
		<tag k="place" v="farm" />
		<tag k="ssr:stedsnr" v="958840" />
	</node>
	<node id="-519919" lat="61.0786555547" lon="7.89353610803">
		<tag k="name" v="Smeby" />
		<tag k="place" v="farm" />
		<tag k="ssr:stedsnr" v="957822" />
	</node>
	<node id="-519915" lat="61.0364777782" lon="7.62879444562">
		<tag k="name" v="Øvre Rå" />
		<tag k="place" v="farm" />
		<tag k="ssr:stedsnr" v="957530" />
	</node>
	<node id="-519865" lat="61.0772555542" lon="7.83699444032">
		<tag k="alt_name" v="Hellelo" />
		<tag k="name" v="Sletti" />
		<tag k="place" v="farm" />
		<tag k="ssr:stedsnr" v="920948" />
	</node>
	<node id="-519861" lat="61.0665750018" lon="7.68845833154">
		<tag k="historic" v="shieling" />
		<tag k="name" v="Øvre Seltastølen" />
		<tag k="place" v="locality" />
		<tag k="ssr:stedsnr" v="920842" />
	</node>
	<node id="-519855" lat="61.0834611122" lon="7.36771945274">
		<tag k="alt_name" v="Glipstølen, øvre" />
		<tag k="historic" v="shieling" />
		<tag k="name" v="Øvre Glipstølen" />
		<tag k="place" v="locality" />
		<tag k="ssr:stedsnr" v="920743" />
	</node>
	<node id="-519854" lat="61.0483666655" lon="7.81599445301">
		<tag k="name" v="Bergheim" />
		<tag k="place" v="farm" />
		<tag k="ssr:stedsnr" v="920544" />
	</node>
	<node id="-519853" lat="61.0472444461" lon="7.77016388215">
		<tag k="alt_name" v="Øygarden, fremre" />
		<tag k="name" v="Fremre Øygarden" />
		<tag k="place" v="farm" />
		<tag k="ssr:stedsnr" v="920533" />
	</node>
	<node id="-519852" lat="61.0715365511" lon="7.92646248354">
		<tag k="fixme" v="consider place=hamlet" />
		<tag k="name" v="Bjoråk" />
		<tag k="place" v="farm" />
		<tag k="ssr:stedsnr" v="920526" />
	</node>
	<node id="-519851" lat="61.0721249955" lon="7.9541416633">
		<tag k="name" v="Svingen" />
		<tag k="place" v="isolated_dwelling" />
		<tag k="ssr:stedsnr" v="920521" />
	</node>
	<node id="-519850" lat="61.0655489935" lon="7.81833019967">
		<tag k="fixme" v="consider place=hamlet" />
		<tag k="name" v="Voldum" />
		<tag k="place" v="farm" />
		<tag k="ssr:stedsnr" v="920519" />
	</node>
	<node id="-519849" lat="61.0784569832" lon="7.88839676596">
		<tag k="fixme" v="consider place=hamlet" />
		<tag k="name" v="Haugen" />
		<tag k="place" v="farm" />
		<tag k="ssr:stedsnr" v="920513" />
	</node>
	<node id="-519848" lat="61.0129472185" lon="7.83670278559">
		<tag k="historic" v="shieling" />
		<tag k="name" v="Areberg" />
		<tag k="place" v="locality" />
		<tag k="ssr:stedsnr" v="920508" />
	</node>
	<node id="-519832" lat="61.0564413932" lon="7.67116979568">
		<tag k="fixme" v="consider place=hamlet" />
		<tag k="name" v="Søre Bjørkum" />
		<tag k="place" v="farm" />
		<tag k="ssr:stedsnr" v="919836" />
	</node>
	<node id="-519827" lat="61.0444749978" lon="7.58720277819">
		<tag k="alt_name" v="Øvre Bø" />
		<tag k="name" v="Øvstabø" />
		<tag k="place" v="farm" />
		<tag k="ssr:stedsnr" v="919806" />
	</node>
	<node id="-519825" lat="61.024586111" lon="7.49509165965">
		<tag k="name" v="Tynjadalen" />
		<tag k="place" v="locality" />
		<tag k="ssr:stedsnr" v="919802" />
	</node>
	<node id="-519824" lat="61.0049555558" lon="7.50018611527">
		<tag k="name" v="Trollelii" />
		<tag k="place" v="isolated_dwelling" />
		<tag k="ssr:stedsnr" v="919797" />
	</node>
	<node id="-519816" lat="61.0958416159" lon="7.11863540408">
		<tag k="alt_name" v="Lagmannsås" />
		<tag k="fixme" v="consider place=hamlet" />
		<tag k="name" v="Åsen" />
		<tag k="place" v="farm" />
		<tag k="ssr:stedsnr" v="919457" />
	</node>
	<node id="-519814" lat="61.0362527753" lon="7.30257221603">
		<tag k="historic" v="shieling" />
		<tag k="name" v="Vardahaug" />
		<tag k="place" v="locality" />
		<tag k="ssr:stedsnr" v="919411" />
	</node>
	<node id="-519813" lat="60.9223750027" lon="7.68289444186">
		<tag k="name" v="Bettebu" />
		<tag k="place" v="locality" />
		<tag k="ssr:stedsnr" v="919367" />
	</node>
	<node id="-519809" lat="60.9853611074" lon="8.15535833156">
		<tag k="historic" v="shieling" />
		<tag k="name" v="Eldrehaugen" />
		<tag k="place" v="locality" />
		<tag k="ssr:stedsnr" v="918617" />
	</node>
	<node id="-519801" lat="61.050458331" lon="7.75289167338">
		<tag k="name" v="Sjurhaugen" />
		<tag k="place" v="farm" />
		<tag k="ssr:stedsnr" v="871788" />
	</node>
	<node id="-519800" lat="61.0952166629" lon="8.00598055444">
		<tag k="name" v="Skredbakken" />
		<tag k="place" v="locality" />
		<tag k="ssr:stedsnr" v="871328" />
	</node>
	<node id="-519799" lat="60.974438892" lon="7.86362500516">
		<tag k="name" v="Fossehytta" />
		<tag k="place" v="isolated_dwelling" />
		<tag k="ssr:stedsnr" v="870018" />
	</node>
	<node id="-519794" lat="61.0585888907" lon="7.65582500598">
		<tag k="alt_name" v="Saude" />
		<tag k="name" v="Saue" />
		<tag k="place" v="isolated_dwelling" />
		<tag k="ssr:stedsnr" v="860877" />
	</node>
	<node id="-519793" lat="61.0505096894" lon="7.52830728105">
		<tag k="fixme" v="consider place=hamlet" />
		<tag k="name" v="Øvrevoll" />
		<tag k="place" v="farm" />
		<tag k="ssr:stedsnr" v="860868" />
	</node>
	<node id="-519785" lat="61.0437388853" lon="7.83900000099">
		<tag k="name" v="Kyrkjevollstølen" />
		<tag k="place" v="locality" />
		<tag k="ssr:stedsnr" v="860532" />
	</node>
	<node id="-519772" lat="61.0796829233" lon="7.85519410097">
		<tag k="fixme" v="consider place=hamlet" />
		<tag k="name" v="Nygard" />
		<tag k="place" v="farm" />
		<tag k="ssr:stedsnr" v="859924" />
	</node>
	<node id="-519769" lat="61.0470578211" lon="7.53287731247">
		<tag k="fixme" v="consider place=hamlet" />
		<tag k="name" v="Grøte" />
		<tag k="place" v="farm" />
		<tag k="ssr:stedsnr" v="859802" />
	</node>
	<node id="-519767" lat="61.0164333366" lon="7.67783055323">
		<tag k="name" v="Spavang" />
		<tag k="place" v="locality" />
		<tag k="ssr:stedsnr" v="859795" />
	</node>
	<node id="-519763" lat="61.1054249986" lon="7.44841110414">
		<tag k="name" v="Fleskheller" />
		<tag k="place" v="farm" />
		<tag k="ssr:stedsnr" v="859772" />
	</node>
	<node id="-519762" lat="61.0956055573" lon="7.41623055972">
		<tag k="name" v="Hjellen" />
		<tag k="place" v="farm" />
		<tag k="ssr:stedsnr" v="859753" />
	</node>
	<node id="-519761" lat="61.0750194459" lon="7.90605833415">
		<tag k="name" v="Kruhaug" />
		<tag k="place" v="farm" />
		<tag k="ssr:stedsnr" v="859500" />
	</node>
	<node id="-519760" lat="61.0753351277" lon="7.89649409926">
		<tag k="fixme" v="consider place=hamlet" />
		<tag k="name" v="Skårheim" />
		<tag k="place" v="farm" />
		<tag k="ssr:stedsnr" v="859497" />
	</node>
	<node id="-519755" lat="61.071919444" lon="7.91115277423">
		<tag k="name" v="Brøyni" />
		<tag k="place" v="isolated_dwelling" />
		<tag k="ssr:stedsnr" v="859510" />
	</node>
	<node id="-519754" lat="60.9269777735" lon="7.99816389061">
		<tag k="fixme" v="consider tourism=alpine_hut or tourism=chalet" />
		<tag k="name" v="Bjordalsbu" />
		<tag k="ssr:stedsnr" v="858710" />
		<tag k="tourism" v="wilderness_hut" />
	</node>
	<node id="-519742" lat="60.9440055514" lon="7.59387499647">
		<tag k="name" v="Steinsengi" />
		<tag k="place" v="locality" />
		<tag k="ssr:stedsnr" v="858410" />
	</node>
	<node id="-519741" lat="60.9426583325" lon="7.6975416726">
		<tag k="name" v="Øysteinsgard" />
		<tag k="place" v="locality" />
		<tag k="ssr:stedsnr" v="858399" />
	</node>
	<node id="-519740" lat="60.8839361122" lon="7.68960000745">
		<tag k="name" v="Liatangane" />
		<tag k="place" v="locality" />
		<tag k="ssr:stedsnr" v="858341" />
	</node>
	<node id="-519738" lat="61.0358916689" lon="7.63977500408">
		<tag k="name" v="Mo" />
		<tag k="place" v="farm" />
		<tag k="ssr:stedsnr" v="857469" />
	</node>
	<node id="-519724" lat="61.0438361112" lon="7.97194444773">
		<tag k="name" v="Nilsegjerdet" />
		<tag k="place" v="locality" />
		<tag k="ssr:stedsnr" v="836298" />
	</node>
	<node id="-519716" lat="61.0853305545" lon="7.88857499613">
		<tag k="name" v="Nyborg" />
		<tag k="place" v="farm" />
		<tag k="ssr:stedsnr" v="835778" />
	</node>
	<node id="-519698" lat="61.0377555582" lon="7.63884722804">
		<tag k="name" v="Øystad" />
		<tag k="place" v="farm" />
		<tag k="ssr:stedsnr" v="835158" />
	</node>
	<node id="-519692" lat="61.063894444" lon="7.5080027721">
		<tag k="name" v="Lærdalstunnelen næringspark" />
		<tag k="place" v="quarter" />
		<tag k="ssr:stedsnr" v="814319" />
	</node>
	<node id="-519691" lat="61.0477320599" lon="7.7693245899">
		<tag k="fixme" v="consider place=hamlet" />
		<tag k="name" v="Lille Husum" />
		<tag k="place" v="farm" />
		<tag k="ssr:stedsnr" v="810839" />
	</node>
	<node id="-519690" lat="60.9675277745" lon="7.79790277373">
		<tag k="name" v="Grånoshytta" />
		<tag k="place" v="isolated_dwelling" />
		<tag k="ssr:stedsnr" v="809077" />
	</node>
	<node id="-519682" lat="61.0534110738" lon="7.52880026212">
		<tag k="fixme" v="consider place=hamlet" />
		<tag k="name" v="Voll" />
		<tag k="place" v="farm" />
		<tag k="ssr:stedsnr" v="799871" />
	</node>
	<node id="-519678" lat="61.100975004" lon="7.56739166308">
		<tag k="historic" v="shieling" />
		<tag k="name" v="Liastølen" />
		<tag k="place" v="locality" />
		<tag k="ssr:stedsnr" v="799823" />
	</node>
	<node id="-519675" lat="61.0895111115" lon="7.38200000008">
		<tag k="alt_name" v="Glep" />
		<tag k="historic" v="shieling" />
		<tag k="name" v="Glipstølen" />
		<tag k="place" v="locality" />
		<tag k="ssr:stedsnr" v="799794" />
	</node>
	<node id="-519670" lat="61.0203916695" lon="7.74135278479">
		<tag k="name" v="Myrsete" />
		<tag k="place" v="isolated_dwelling" />
		<tag k="ssr:stedsnr" v="799539" />
	</node>
	<node id="-519667" lat="61.0436750014" lon="8.00727500124">
		<tag k="historic" v="shieling" />
		<tag k="name" v="Galdestølen" />
		<tag k="place" v="locality" />
		<tag k="ssr:stedsnr" v="799517" />
	</node>
	<node id="-519663" lat="61.1663833308" lon="7.44319166165">
		<tag k="alt_name" v="Årerusti" />
		<tag k="name" v="Offerdalsgjerdet" />
		<tag k="place" v="locality" />
		<tag k="ssr:stedsnr" v="799289" />
	</node>
	<node id="-519656" lat="61.0966694479" lon="8.02125000887">
		<tag k="name" v="Kolsmork" />
		<tag k="place" v="isolated_dwelling" />
		<tag k="ssr:stedsnr" v="798945" />
	</node>
	<node id="-519655" lat="61.092391667" lon="7.88181389192">
		<tag k="name" v="Vettei" />
		<tag k="place" v="isolated_dwelling" />
		<tag k="ssr:stedsnr" v="798939" />
	</node>
	<node id="-519654" lat="61.0884031372" lon="7.99668225054">
		<tag k="fixme" v="consider place=hamlet" />
		<tag k="name" v="Gram" />
		<tag k="place" v="farm" />
		<tag k="ssr:stedsnr" v="798935" />
	</node>
	<node id="-519651" lat="61.0111888919" lon="7.64185278504">
		<tag k="historic" v="shieling" />
		<tag k="name" v="Skjær" />
		<tag k="place" v="locality" />
		<tag k="ssr:stedsnr" v="798919" />
	</node>
	<node id="-519649" lat="61.0439000032" lon="7.6150027746">
		<tag k="name" v="Ytri" />
		<tag k="place" v="farm" />
		<tag k="ssr:stedsnr" v="798785" />
	</node>
	<node id="-519648" lat="61.0480641377" lon="7.57676122395">
		<tag k="fixme" v="consider place=hamlet" />
		<tag k="name" v="Bø" />
		<tag k="place" v="farm" />
		<tag k="ssr:stedsnr" v="798784" />
	</node>
	<node id="-519639" lat="60.9964583353" lon="7.50603611244">
		<tag k="alt_name" v="Øvredalen" />
		<tag k="name" v="Øvredal" />
		<tag k="place" v="locality" />
		<tag k="ssr:stedsnr" v="798457" />
	</node>
	<node id="-519638" lat="60.9856888909" lon="7.6766694382">
		<tag k="name" v="Hola" />
		<tag k="place" v="locality" />
		<tag k="ssr:stedsnr" v="798451" />
	</node>
	<node id="-519636" lat="61.1069916678" lon="7.08894443822">
		<tag k="name" v="Sagi" />
		<tag k="place" v="isolated_dwelling" />
		<tag k="ssr:stedsnr" v="798434" />
	</node>
	<node id="-519627" lat="60.960324996" lon="7.72785000225">
		<tag k="name" v="Nystølen" />
		<tag k="place" v="isolated_dwelling" />
		<tag k="ssr:stedsnr" v="797679" />
	</node>
	<node id="-519616" lat="61.0743861137" lon="7.83939722677">
		<tag k="name" v="Hovdheim" />
		<tag k="place" v="farm" />
		<tag k="ssr:stedsnr" v="775826" />
	</node>
	<node id="-519606" lat="61.0597888856" lon="7.95154999594">
		<tag k="name" v="Rundtuppstølen" />
		<tag k="place" v="locality" />
		<tag k="ssr:stedsnr" v="775326" />
	</node>
	<node id="-519600" lat="61.0448444488" lon="7.58924722871">
		<tag k="name" v="Senstad" />
		<tag k="place" v="farm" />
		<tag k="ssr:stedsnr" v="775106" />
	</node>
	<node id="-519594" lat="61.0244388861" lon="7.80970833065">
		<tag k="name" v="Engjånstølane" />
		<tag k="place" v="locality" />
		<tag k="ssr:stedsnr" v="774887" />
	</node>
	<node id="-519591" lat="61.0933388908" lon="7.87004722791">
		<tag k="name" v="Steinklepp Camping" />
		<tag k="ssr:stedsnr" v="774789" />
		<tag k="tourism" v="camp_site" />
	</node>
	<node id="-519590" lat="61.0914833314" lon="7.88218332451">
		<tag k="name" v="Olsrud" />
		<tag k="place" v="farm" />
		<tag k="ssr:stedsnr" v="774784" />
	</node>
	<node id="-519588" lat="61.0465444403" lon="7.77938055558">
		<tag k="name" v="Sletthagen" />
		<tag k="place" v="farm" />
		<tag k="ssr:stedsnr" v="774766" />
	</node>
	<node id="-519574" lat="61.1194327406" lon="7.33311370184">
		<tag k="fixme" v="consider place=hamlet" />
		<tag k="name" v="Vindedal" />
		<tag k="place" v="farm" />
		<tag k="ssr:stedsnr" v="774371" />
	</node>
	<node id="-519557" lat="61.1022861124" lon="7.47929166159">
		<tag k="name" v="Heller" />
		<tag k="place" v="isolated_dwelling" />
		<tag k="ssr:stedsnr" v="774130" />
	</node>
	<node id="-519545" lat="61.0524388924" lon="7.5609361168">
		<tag k="name" v="Øystad" />
		<tag k="place" v="farm" />
		<tag k="ssr:stedsnr" v="738880" />
	</node>
	<node id="-519539" lat="61.0686888903" lon="7.41086110501">
		<tag k="historic" v="shieling" />
		<tag k="name" v="Nyborg" />
		<tag k="place" v="locality" />
		<tag k="ssr:stedsnr" v="738780" />
	</node>
	<node id="-519533" lat="61.0636333298" lon="7.80749166266">
		<tag k="name" v="Voldastølen" />
		<tag k="place" v="locality" />
		<tag k="ssr:stedsnr" v="738533" />
	</node>
	<node id="-519531" lat="61.0825777744" lon="7.89486111836">
		<tag k="name" v="Heggset" />
		<tag k="place" v="farm" />
		<tag k="ssr:stedsnr" v="738520" />
	</node>
	<node id="-519529" lat="61.0266777748" lon="7.84267499296">
		<tag k="name" v="Øystølen" />
		<tag k="place" v="locality" />
		<tag k="ssr:stedsnr" v="738512" />
	</node>
	<node id="-519528" lat="61.0357283193" lon="7.81189365158">
		<tag k="fixme" v="consider place=hamlet" />
		<tag k="name" v="Nese" />
		<tag k="place" v="farm" />
		<tag k="ssr:stedsnr" v="738506" />
	</node>
	<node id="-519525" lat="61.1515924851" lon="7.40870038549">
		<tag k="fixme" v="consider place=hamlet" />
		<tag k="name" v="Aspvikane" />
		<tag k="place" v="farm" />
		<tag k="ssr:stedsnr" v="738283" />
	</node>
	<node id="-519524" lat="61.1574062651" lon="7.42925362833">
		<tag k="fixme" v="consider place=hamlet" />
		<tag k="name" v="Åretun" />
		<tag k="place" v="farm" />
		<tag k="ssr:stedsnr" v="738281" />
	</node>
	<node id="-519509" lat="60.9996388905" lon="7.52051945057">
		<tag k="historic" v="shieling" />
		<tag k="name" v="Nukane" />
		<tag k="place" v="locality" />
		<tag k="ssr:stedsnr" v="737933" />
	</node>
	<node id="-519506" lat="61.1656335644" lon="8.05241783187">
		<tag k="historic" v="shieling" />
		<tag k="name" v="Fillestølen" />
		<tag k="place" v="locality" />
		<tag k="ssr:stedsnr" v="737885" />
	</node>
	<node id="-519505" lat="61.0534916699" lon="7.71322499636">
		<tag k="alt_name" v="Seltøyni" />
		<tag k="name" v="Fjellheim" />
		<tag k="place" v="farm" />
		<tag k="ssr:stedsnr" v="737849" />
	</node>
	<node id="-519504" lat="61.041566666" lon="7.67413611226">
		<tag k="name" v="Byrkjastølen" />
		<tag k="place" v="isolated_dwelling" />
		<tag k="ssr:stedsnr" v="737842" />
	</node>
	<node id="-519503" lat="61.0426499968" lon="7.60093055408">
		<tag k="name" v="Blåstad" />
		<tag k="place" v="farm" />
		<tag k="ssr:stedsnr" v="737830" />
	</node>
	<node id="-519497" lat="60.9775638872" lon="7.64956665804">
		<tag k="name" v="Vindhella" />
		<tag k="place" v="locality" />
		<tag k="ssr:stedsnr" v="737457" />
	</node>
	<node id="-519495" lat="61.109169441" lon="7.32351110475">
		<tag k="historic" v="shieling" />
		<tag k="name" v="Stølen" />
		<tag k="place" v="locality" />
		<tag k="ssr:stedsnr" v="737430" />
	</node>
	<node id="-519477" lat="61.0936472222" lon="7.86617778562">
		<tag k="name" v="Lunden" />
		<tag k="place" v="farm" />
		<tag k="ssr:stedsnr" v="714758" />
	</node>
	<node id="-519468" lat="61.0401861071" lon="7.6190444381">
		<tag k="name" v="Haugen" />
		<tag k="place" v="farm" />
		<tag k="ssr:stedsnr" v="714101" />
	</node>
	<node id="-519466" lat="61.0465527781" lon="7.79545277418">
		<tag k="name" v="Hjollo" />
		<tag k="place" v="locality" />
		<tag k="ssr:stedsnr" v="713960" />
	</node>
	<node id="-519462" lat="61.0614777809" lon="7.51591666959">
		<tag k="name" v="Rutle" />
		<tag k="place" v="farm" />
		<tag k="ssr:stedsnr" v="713532" />
	</node>
	<node id="-519431" lat="60.9795388923" lon="8.01942499898">
		<tag k="name" v="Starbu" />
		<tag k="place" v="isolated_dwelling" />
		<tag k="ssr:stedsnr" v="688067" />
	</node>
	<node id="-519430" lat="60.9599138928" lon="7.72690834029">
		<tag k="name" v="Finnebuhytta" />
		<tag k="place" v="isolated_dwelling" />
		<tag k="ssr:stedsnr" v="688061" />
	</node>
	<node id="-519429" lat="61.0502388883" lon="7.5752027859">
		<tag k="name" v="Bøtun" />
		<tag k="place" v="farm" />
		<tag k="ssr:stedsnr" v="678842" />
	</node>
	<node id="-519428" lat="61.0548787018" lon="7.52501265766">
		<tag k="fixme" v="consider place=hamlet" />
		<tag k="name" v="Tønjum" />
		<tag k="place" v="farm" />
		<tag k="ssr:stedsnr" v="678834" />
	</node>
	<node id="-519425" lat="61.0126305572" lon="8.06670000171">
		<tag k="name" v="Draughellerøyni" />
		<tag k="place" v="isolated_dwelling" />
		<tag k="ssr:stedsnr" v="678587" />
	</node>
	<node id="-519421" lat="61.0850741493" lon="7.85871303648">
		<tag k="fixme" v="consider place=hamlet" />
		<tag k="name" v="Eggjo" />
		<tag k="place" v="farm" />
		<tag k="ssr:stedsnr" v="677962" />
	</node>
	<node id="-519419" lat="61.0767000015" lon="7.84996666569">
		<tag k="name" v="Hillestad" />
		<tag k="place" v="farm" />
		<tag k="ssr:stedsnr" v="677954" />
	</node>
	<node id="-519418" lat="61.0850333374" lon="7.8899749966">
		<tag k="name" v="Oddheim" />
		<tag k="place" v="farm" />
		<tag k="ssr:stedsnr" v="677953" />
	</node>
	<node id="-519412" lat="61.0660777767" lon="7.51473611448">
		<tag k="name" v="Molde" />
		<tag k="place" v="farm" />
		<tag k="ssr:stedsnr" v="677823" />
	</node>
	<node id="-519407" lat="61.0824416655" lon="7.51872777451">
		<tag k="name" v="Haugshagen" />
		<tag k="place" v="farm" />
		<tag k="ssr:stedsnr" v="677796" />
	</node>
	<node id="-519405" lat="61.0578176073" lon="7.81245662804">
		<tag k="fixme" v="consider place=hamlet" />
		<tag k="name" v="Li" />
		<tag k="place" v="farm" />
		<tag k="ssr:stedsnr" v="677543" />
	</node>
	<node id="-519403" lat="61.0692433074" lon="7.91484899932">
		<tag k="fixme" v="consider place=hamlet" />
		<tag k="name" v="Kvenshagen" />
		<tag k="place" v="farm" />
		<tag k="ssr:stedsnr" v="677523" />
	</node>
	<node id="-519401" lat="61.0247280991" lon="8.03542139829">
		<tag k="historic" v="shieling" />
		<tag k="name" v="Breistølen" />
		<tag k="place" v="locality" />
		<tag k="ssr:stedsnr" v="677507" />
	</node>
	<node id="-519393" lat="61.0386750033" lon="7.64476110197">
		<tag k="fixme" v="consider place=hamlet" />
		<tag k="name" v="Mo" />
		<tag k="place" v="farm" />
		<tag k="ssr:stedsnr" v="676807" />
	</node>
	<node id="-519387" lat="61.1155166676" lon="7.33058055447">
		<tag k="name" v="Oldrebø" />
		<tag k="place" v="farm" />
		<tag k="ssr:stedsnr" v="676460" />
	</node>
	<node id="-519381" lat="60.9466166647" lon="7.66534166156">
		<tag k="name" v="Dyrkoll" />
		<tag k="place" v="locality" />
		<tag k="ssr:stedsnr" v="675419" />
	</node>
	<node id="-519379" lat="61.021899998" lon="8.12088056028">
		<tag k="name" v="Ulvehaugen" />
		<tag k="place" v="isolated_dwelling" />
		<tag k="ssr:stedsnr" v="674649" />
	</node>
	<node id="-519372" lat="61.0767666696" lon="7.83541945346">
		<tag k="name" v="Dalheim" />
		<tag k="place" v="farm" />
		<tag k="ssr:stedsnr" v="653854" />
	</node>
	<node id="-519371" lat="61.0802783147" lon="7.8886492105">
		<tag k="alt_name" v="Lai" />
		<tag k="fixme" v="consider place=hamlet" />
		<tag k="name" v="Låi" />
		<tag k="place" v="farm" />
		<tag k="ssr:stedsnr" v="653836" />
	</node>
	<node id="-519368" lat="61.1312361143" lon="7.27159166133">
		<tag k="name" v="Vårstølen" />
		<tag k="place" v="locality" />
		<tag k="ssr:stedsnr" v="653810" />
	</node>
	<node id="-519365" lat="61.0552666668" lon="7.48626944087">
		<tag k="name" v="Gjeris-løa" />
		<tag k="place" v="locality" />
		<tag k="ssr:stedsnr" v="653740" />
	</node>
	<node id="-519358" lat="61.10330556" lon="8.0209361183">
		<tag k="name" v="Elastølane" />
		<tag k="place" v="locality" />
		<tag k="ssr:stedsnr" v="653480" />
	</node>
	<node id="-519341" lat="61.0965305571" lon="7.1248777836">
		<tag k="barrier" v="fence" />
		<tag k="name" v="Aslakgjerde" />
		<tag k="ssr:stedsnr" v="652967" />
	</node>
	<node id="-519332" lat="61.102055554" lon="7.51917222114">
		<tag k="amenity" v="hospital" />
		<tag k="name" v="Fylkessjukehuset" />
		<tag k="ssr:stedsnr" v="652300" />
	</node>
	<node id="-519331" lat="61.1153805512" lon="7.33107222347">
		<tag k="name" v="Solstad" />
		<tag k="place" v="farm" />
		<tag k="ssr:stedsnr" v="652286" />
	</node>
	<node id="-519312" lat="60.9756416668" lon="7.72913889408">
		<tag k="name" v="Øydalshytta" />
		<tag k="place" v="isolated_dwelling" />
		<tag k="ssr:stedsnr" v="627077" />
	</node>
	<node id="-519310" lat="61.0548305551" lon="7.62788888276">
		<tag k="alt_name" v="Gjeldstøet" />
		<tag k="historic" v="shieling" />
		<tag k="name" v="Gjeldstølen" />
		<tag k="place" v="locality" />
		<tag k="ssr:stedsnr" v="617858" />
	</node>
	<node id="-519308" lat="61.0971749999" lon="7.57771111921">
		<tag k="alt_name" v="Visæter" />
		<tag k="name" v="Visete" />
		<tag k="place" v="isolated_dwelling" />
		<tag k="ssr:stedsnr" v="617824" />
	</node>
	<node id="-519307" lat="61.1055138869" lon="7.5765999954">
		<tag k="alt_name" v="Oftedalsstølen, øvre" />
		<tag k="fixme" v="multiple name tags, choose one and add the other to alt_name" />
		<tag k="name" v="Øvrestølen;Øvre Oftedalsstølen" />
		<tag k="place" v="isolated_dwelling" />
		<tag k="ssr:stedsnr" v="617822" />
	</node>
	<node id="-519300" lat="61.0921888894" lon="7.87338611844">
		<tag k="name" v="Tufte" />
		<tag k="place" v="farm" />
		<tag k="ssr:stedsnr" v="616968" />
	</node>
	<node id="-519299" lat="61.0887250031" lon="8.00035555849">
		<tag k="name" v="Holken" />
		<tag k="place" v="isolated_dwelling" />
		<tag k="ssr:stedsnr" v="616961" />
	</node>
	<node id="-519297" lat="61.0826333291" lon="7.85474443683">
		<tag k="fixme" v="consider place=suburb, village or hamlet" />
		<tag k="name" v="Steinklepp" />
		<tag k="place" v="quarter" />
		<tag k="ssr:stedsnr" v="616957" />
	</node>
	<node id="-519291" lat="61.0437027772" lon="7.35959999678">
		<tag k="historic" v="shieling" />
		<tag k="name" v="Breisete" />
		<tag k="place" v="locality" />
		<tag k="ssr:stedsnr" v="616770" />
	</node>
	<node id="-519290" lat="61.0583527784" lon="7.38962778524">
		<tag k="historic" v="shieling" />
		<tag k="name" v="Håvardsete" />
		<tag k="place" v="locality" />
		<tag k="ssr:stedsnr" v="616764" />
	</node>
	<node id="-519288" lat="61.0610916678" lon="7.35188056154">
		<tag k="historic" v="shieling" />
		<tag k="name" v="Kvignadalen" />
		<tag k="place" v="locality" />
		<tag k="ssr:stedsnr" v="616757" />
	</node>
	<node id="-519287" lat="61.0463055546" lon="7.79036666754">
		<tag k="name" v="Husum" />
		<tag k="ssr:stedsnr" v="616546" />
		<tag k="tourism" v="hotel" />
	</node>
	<node id="-519286" lat="61.0487171012" lon="7.81100560792">
		<tag k="fixme" v="consider place=hamlet" />
		<tag k="name" v="Kyrkjevoll" />
		<tag k="place" v="farm" />
		<tag k="ssr:stedsnr" v="616538" />
	</node>
	<node id="-519285" lat="61.0539250015" lon="7.7448249986">
		<tag k="name" v="Bruknappen" />
		<tag k="place" v="isolated_dwelling" />
		<tag k="ssr:stedsnr" v="616537" />
	</node>
	<node id="-519284" lat="61.0698555574" lon="7.95588333548">
		<tag k="name" v="Vetlegjerdet" />
		<tag k="place" v="farm" />
		<tag k="ssr:stedsnr" v="616526" />
	</node>
	<node id="-519279" lat="61.0328500037" lon="7.80255832696">
		<tag k="name" v="Neshagen" />
		<tag k="place" v="isolated_dwelling" />
		<tag k="ssr:stedsnr" v="616502" />
	</node>
	<node id="-519272" lat="61.160177775" lon="7.43434999358">
		<tag k="name" v="Kvernasvadet" />
		<tag k="place" v="isolated_dwelling" />
		<tag k="ssr:stedsnr" v="616256" />
	</node>
	<node id="-519265" lat="61.0362250221" lon="7.63389034794">
		<tag k="fixme" v="consider place=hamlet" />
		<tag k="name" v="Rå" />
		<tag k="place" v="farm" />
		<tag k="ssr:stedsnr" v="615794" />
	</node>
	<node id="-519237" lat="61.0467777747" lon="7.5837555594">
		<tag k="name" v="Bønes" />
		<tag k="place" v="farm" />
		<tag k="ssr:stedsnr" v="593002" />
	</node>
	<node id="-519224" lat="61.1448777768" lon="7.41526944236">
		<tag k="name" v="Vårstølen" />
		<tag k="place" v="locality" />
		<tag k="ssr:stedsnr" v="592270" />
	</node>
	<node id="-519209" lat="61.0482361155" lon="7.33758610469">
		<tag k="historic" v="shieling" />
		<tag k="name" v="Fureset" />
		<tag k="place" v="locality" />
		<tag k="ssr:stedsnr" v="567907" />
	</node>
	<node id="-519208" lat="61.0460668771" lon="7.7907305329">
		<tag k="fixme" v="consider place=hamlet" />
		<tag k="name" v="Store Husum" />
		<tag k="old_name" v="Husum" />
		<tag k="place" v="farm" />
		<tag k="ssr:stedsnr" v="567815" />
	</node>
	<node id="-519207" lat="61.0409361071" lon="7.47999167222">
		<tag k="historic" v="shieling" />
		<tag k="name" v="Skigrov" />
		<tag k="place" v="locality" />
		<tag k="ssr:stedsnr" v="567814" />
	</node>
	<node id="-519206" lat="61.0583555562" lon="7.51839165997">
		<tag k="name" v="Tønjum" />
		<tag k="place" v="hamlet" />
		<tag k="ssr:stedsnr" v="567789" />
	</node>
	<node id="-519203" lat="60.9701000007" lon="8.07970833708">
		<tag k="name" v="Øljusjøhytta" />
		<tag k="place" v="isolated_dwelling" />
		<tag k="ssr:stedsnr" v="566075" />
	</node>
	<node id="-519200" lat="61.1041612678" lon="7.51522121397">
		<tag k="fixme" v="consider place=hamlet" />
		<tag k="name" v="Mjelde" />
		<tag k="place" v="farm" />
		<tag k="ssr:stedsnr" v="556808" />
	</node>
	<node id="-519198" lat="61.0466999963" lon="7.99573610228">
		<tag k="name" v="Hola" />
		<tag k="place" v="locality" />
		<tag k="ssr:stedsnr" v="556544" />
	</node>
	<node id="-519197" lat="61.0482083294" lon="7.84681388218">
		<tag k="alt_name" v="Leikvoll" />
		<tag k="historic" v="shieling" />
		<tag k="name" v="Leikvollen" />
		<tag k="place" v="locality" />
		<tag k="ssr:stedsnr" v="556537" />
	</node>
	<node id="-519192" lat="61.145841663" lon="7.99894166308">
		<tag k="historic" v="shieling" />
		<tag k="name" v="Smeddalen" />
		<tag k="place" v="locality" />
		<tag k="ssr:stedsnr" v="555985" />
	</node>
	<node id="-519191" lat="61.1103113545" lon="8.03438899986">
		<tag k="name" v="Maristova" />
		<tag k="ssr:stedsnr" v="555951" />
		<tag k="tourism" v="hotel" />
	</node>
	<node id="-519189" lat="61.0956711405" lon="7.86463512254">
		<tag k="fixme" v="consider place=hamlet" />
		<tag k="name" v="Øvre Kvame" />
		<tag k="place" v="farm" />
		<tag k="ssr:stedsnr" v="555939" />
	</node>
	<node id="-519185" lat="61.0861822704" lon="7.88958286208">
		<tag k="fixme" v="consider place=hamlet" />
		<tag k="name" v="Hegg" />
		<tag k="place" v="farm" />
		<tag k="ssr:stedsnr" v="555924" />
	</node>
	<node id="-519176" lat="61.0862111143" lon="7.44794167122">
		<tag k="historic" v="shieling" />
		<tag k="name" v="Hognåsen" />
		<tag k="place" v="locality" />
		<tag k="ssr:stedsnr" v="555774" />
	</node>
	<node id="-519174" lat="61.1000138927" lon="7.47374444482">
		<tag k="name" v="Lærdalsøyri" />
		<tag k="place" v="village" />
		<tag k="ssr:stedsnr" v="555769" />
	</node>
	<node id="-519173" lat="61.0917845972" lon="7.52320995639">
		<tag k="fixme" v="consider place=hamlet" />
		<tag k="name" v="Skjær" />
		<tag k="place" v="farm" />
		<tag k="ssr:stedsnr" v="555766" />
	</node>
	<node id="-519170" lat="61.068643999" lon="7.36308993955">
		<tag k="alt_name" v="Kvigne" />
		<tag k="fixme" v="consider place=hamlet" />
		<tag k="name" v="Kvigno" />
		<tag k="place" v="farm" />
		<tag k="ssr:stedsnr" v="555728" />
	</node>
	<node id="-519169" lat="61.0408966707" lon="7.81641417432">
		<tag k="fixme" v="consider place=hamlet" />
		<tag k="name" v="Nevlo" />
		<tag k="place" v="farm" />
		<tag k="ssr:stedsnr" v="555508" />
	</node>
	<node id="-519168" lat="61.0501491883" lon="7.81594164536">
		<tag k="fixme" v="consider place=hamlet" />
		<tag k="name" v="Hatleberg" />
		<tag k="place" v="farm" />
		<tag k="ssr:stedsnr" v="555507" />
	</node>
	<node id="-519167" lat="61.0486972244" lon="7.81350277571">
		<tag k="fixme" v="consider place=hamlet" />
		<tag k="name" v="Borgund" />
		<tag k="place" v="village" />
		<tag k="ssr:stedsnr" v="555501" />
	</node>
	<node id="-519166" lat="61.0478027778" lon="7.75658611959">
		<tag k="name" v="Hagen" />
		<tag k="place" v="isolated_dwelling" />
		<tag k="ssr:stedsnr" v="555497" />
	</node>
	<node id="-519164" lat="61.0739777795" lon="7.961713897">
		<tag k="name" v="Hagen" />
		<tag k="place" v="isolated_dwelling" />
		<tag k="ssr:stedsnr" v="555481" />
	</node>
	<node id="-519163" lat="61.1136861918" lon="7.32628483783">
		<tag k="name" v="Storeteigen" />
		<tag k="place" v="farm" />
		<tag k="ssr:stedsnr" v="555414" />
	</node>
	<node id="-519162" lat="61.1172833322" lon="7.33256667185">
		<tag k="name" v="Hjellene" />
		<tag k="place" v="farm" />
		<tag k="ssr:stedsnr" v="555408" />
	</node>
	<node id="-519159" lat="61.0853583362" lon="7.09349444146">
		<tag k="historic" v="shieling" />
		<tag k="name" v="Lyngsete" />
		<tag k="place" v="locality" />
		<tag k="ssr:stedsnr" v="555386" />
	</node>
	<node id="-519144" lat="61.1114138916" lon="7.30535277268">
		<tag k="fixme" v="multiple name tags, choose one and add the other to alt_name" />
		<tag k="historic" v="shieling" />
		<tag k="name" v="Hovdungane;Vindedalsstølen" />
		<tag k="place" v="locality" />
		<tag k="ssr:stedsnr" v="554496" />
	</node>
	<node id="-519143" lat="61.1134055561" lon="7.16103612034">
		<tag k="alt_name" v="Vetlestølen" />
		<tag k="historic" v="shieling" />
		<tag k="name" v="Veslestølen" />
		<tag k="place" v="locality" />
		<tag k="ssr:stedsnr" v="554492" />
	</node>
	<node id="-519132" lat="61.0846750032" lon="7.86043611588">
		<tag k="name" v="Nedre Eggum" />
		<tag k="place" v="farm" />
		<tag k="ssr:stedsnr" v="532808" />
	</node>
	<node id="-519130" lat="61.0549611079" lon="7.52036944406">
		<tag k="name" v="Huldahaugen" />
		<tag k="place" v="farm" />
		<tag k="ssr:stedsnr" v="532640" />
	</node>
	<node id="-519114" lat="61.0485138921" lon="8.00159166442">
		<tag k="name" v="Liastølgjerdet" />
		<tag k="place" v="locality" />
		<tag k="ssr:stedsnr" v="532324" />
	</node>
	<node id="-519113" lat="61.0341527741" lon="8.00959444118">
		<tag k="name" v="Teigastølane" />
		<tag k="place" v="locality" />
		<tag k="ssr:stedsnr" v="532313" />
	</node>
	<node id="-519110" lat="61.0489499993" lon="7.69224166285">
		<tag k="name" v="Bergaløa" />
		<tag k="place" v="locality" />
		<tag k="ssr:stedsnr" v="532192" />
	</node>
	<node id="-519098" lat="61.0936888848" lon="7.52364443663">
		<tag k="fixme" v="consider place=hamlet" />
		<tag k="name" v="Stebole" />
		<tag k="place" v="farm" />
		<tag k="ssr:stedsnr" v="531509" />
	</node>
	<node id="-519090" lat="61.0962305585" lon="7.07650555726">
		<tag k="amenity" v="school" />
		<tag k="name" v="Frønningen skule" />
		<tag k="ssr:stedsnr" v="531326" />
	</node>
	<node id="-519082" lat="61.1036527744" lon="7.41621944051">
		<tag k="name" v="Hola" />
		<tag k="place" v="farm" />
		<tag k="ssr:stedsnr" v="531179" />
	</node>
	<node id="-519072" lat="61.0573361149" lon="7.50143332859">
		<tag k="name" v="Kropp" />
		<tag k="place" v="locality" />
		<tag k="ssr:stedsnr" v="507811" />
	</node>
	<node id="-519066" lat="60.8673083292" lon="7.72094722372">
		<tag k="name" v="Flågrunnshytta" />
		<tag k="place" v="isolated_dwelling" />
		<tag k="ssr:stedsnr" v="506135" />
	</node>
	<node id="-519065" lat="60.987222218" lon="7.77383889765">
		<tag k="name" v="Stavedalshytta" />
		<tag k="place" v="isolated_dwelling" />
		<tag k="ssr:stedsnr" v="506076" />
	</node>
	<node id="-519064" lat="60.9397666667" lon="7.80248055315">
		<tag k="name" v="Fleskebu" />
		<tag k="place" v="isolated_dwelling" />
		<tag k="ssr:stedsnr" v="506075" />
	</node>
	<node id="-519063" lat="61.1047055578" lon="8.01825833386">
		<tag k="historic" v="shieling" />
		<tag k="name" v="Honingane" />
		<tag k="place" v="locality" />
		<tag k="ssr:stedsnr" v="495965" />
	</node>
	<node id="-519062" lat="61.0830138914" lon="7.82313333913">
		<tag k="name" v="Horgestølen" />
		<tag k="place" v="locality" />
		<tag k="ssr:stedsnr" v="495948" />
	</node>
	<node id="-519061" lat="61.0811604117" lon="7.84977818908">
		<tag k="fixme" v="consider place=hamlet" />
		<tag k="name" v="Berge" />
		<tag k="place" v="farm" />
		<tag k="ssr:stedsnr" v="495945" />
	</node>
	<node id="-519058" lat="61.0346611156" lon="7.50561110552">
		<tag k="historic" v="shieling" />
		<tag k="name" v="Gamlestøl" />
		<tag k="place" v="locality" />
		<tag k="ssr:stedsnr" v="495896" />
	</node>
	<node id="-519055" lat="61.0186166661" lon="7.34463054732">
		<tag k="historic" v="shieling" />
		<tag k="name" v="Horndal" />
		<tag k="place" v="locality" />
		<tag k="ssr:stedsnr" v="495885" />
	</node>
	<node id="-519053" lat="61.0474963128" lon="7.61334828281">
		<tag k="fixme" v="consider place=hamlet" />
		<tag k="name" v="Øvre Ljøsne" />
		<tag k="place" v="farm" />
		<tag k="ssr:stedsnr" v="495877" />
	</node>
	<node id="-519050" lat="61.0750916648" lon="7.50016666271">
		<tag k="alt_name" v="Eri, nedre" />
		<tag k="name" v="Nedre Eri" />
		<tag k="place" v="farm" />
		<tag k="ssr:stedsnr" v="495864" />
	</node>
	<node id="-519049" lat="61.0669374305" lon="7.51520411747">
		<tag k="fixme" v="consider place=hamlet" />
		<tag k="name" v="Molde" />
		<tag k="place" v="farm" />
		<tag k="ssr:stedsnr" v="495834" />
	</node>
	<node id="-519045" lat="61.0976444464" lon="7.51344165885">
		<tag k="name" v="Hagusane" />
		<tag k="place" v="farm" />
		<tag k="ssr:stedsnr" v="495795" />
	</node>
	<node id="-519044" lat="61.0960372096" lon="7.41175866257">
		<tag k="alt_name" v="Bjørkum" />
		<tag k="fixme" v="consider place=hamlet" />
		<tag k="name" v="Bjørko" />
		<tag k="place" v="farm" />
		<tag k="ssr:stedsnr" v="495786" />
	</node>
	<node id="-519043" lat="61.0815249977" lon="7.42723888156">
		<tag k="historic" v="shieling" />
		<tag k="name" v="Selslii" />
		<tag k="place" v="locality" />
		<tag k="ssr:stedsnr" v="495784" />
	</node>
	<node id="-519038" lat="61.0559583312" lon="7.81415832695">
		<tag k="alt_name" v="Liøyni" />
		<tag k="name" v="Gjesdal" />
		<tag k="place" v="farm" />
		<tag k="ssr:stedsnr" v="495548" />
	</node>
	<node id="-519034" lat="61.0286777811" lon="7.83828888337">
		<tag k="historic" v="shieling" />
		<tag k="name" v="Brattegaldane" />
		<tag k="place" v="locality" />
		<tag k="ssr:stedsnr" v="495505" />
	</node>
	<node id="-519032" lat="61.0333749986" lon="7.80583610266">
		<tag k="name" v="Grimsøyn" />
		<tag k="place" v="farm" />
		<tag k="ssr:stedsnr" v="495501" />
	</node>
	<node id="-519031" lat="61.0518722195" lon="7.97083056398">
		<tag k="historic" v="shieling" />
		<tag k="name" v="Eggjestølen" />
		<tag k="place" v="locality" />
		<tag k="ssr:stedsnr" v="495496" />
	</node>
	<node id="-519023" lat="61.1767375771" lon="7.45865850684">
		<tag k="fixme" v="consider place=hamlet" />
		<tag k="name" v="Bermål" />
		<tag k="place" v="farm" />
		<tag k="ssr:stedsnr" v="495276" />
	</node>
	<node id="-519022" lat="61.1271416657" lon="7.52532500378">
		<tag k="alt_name" v="Berdalslii" />
		<tag k="name" v="Berdalen" />
		<tag k="place" v="locality" />
		<tag k="ssr:stedsnr" v="495272" />
	</node>
	<node id="-519018" lat="61.1207916635" lon="7.86026389407">
		<tag k="name" v="Fosse" />
		<tag k="place" v="isolated_dwelling" />
		<tag k="ssr:stedsnr" v="494980" />
	</node>
	<node id="-519016" lat="61.05736378" lon="7.6617666734">
		<tag k="fixme" v="consider place=hamlet" />
		<tag k="name" v="Hønjum" />
		<tag k="place" v="farm" />
		<tag k="ssr:stedsnr" v="494830" />
	</node>
	<node id="-519015" lat="61.0396312978" lon="7.62217294884">
		<tag k="fixme" v="consider place=hamlet" />
		<tag k="name" v="Rikheim" />
		<tag k="place" v="farm" />
		<tag k="ssr:stedsnr" v="494789" />
	</node>
	<node id="-518971" lat="61.0422305595" lon="7.61976944426">
		<tag k="name" v="Nygard" />
		<tag k="place" v="farm" />
		<tag k="ssr:stedsnr" v="471111" />
	</node>
	<node id="-518968" lat="61.0694416682" lon="7.50935278199">
		<tag k="name" v="Moldebo" />
		<tag k="place" v="farm" />
		<tag k="ssr:stedsnr" v="470526" />
	</node>
	<node id="-518944" lat="61.0540000027" lon="7.64366389687">
		<tag k="name" v="Stuvane" />
		<tag k="place" v="farm" />
		<tag k="ssr:stedsnr" v="435875" />
	</node>
	<node id="-518943" lat="61.0815663636" lon="7.51125269758">
		<tag k="alt_name" v="Eri, nedre" />
		<tag k="fixme" v="consider place=hamlet" />
		<tag k="name" v="Nedre Eri" />
		<tag k="place" v="farm" />
		<tag k="ssr:stedsnr" v="435872" />
	</node>
	<node id="-518941" lat="61.068958512" lon="7.49941935423">
		<tag k="alt_name" v="Eri, øvre;Eri" />
		<tag k="fixme" v="consider place=hamlet" />
		<tag k="name" v="Øvre Eri" />
		<tag k="place" v="farm" />
		<tag k="ssr:stedsnr" v="435871" />
	</node>
	<node id="-518938" lat="61.0539611142" lon="7.55566667516">
		<tag k="name" v="Øygard" />
		<tag k="place" v="farm" />
		<tag k="ssr:stedsnr" v="435865" />
	</node>
	<node id="-518935" lat="61.0751638846" lon="7.3900027861">
		<tag k="historic" v="shieling" />
		<tag k="name" v="Hestevollen" />
		<tag k="place" v="locality" />
		<tag k="ssr:stedsnr" v="435771" />
	</node>
	<node id="-518933" lat="61.0111027765" lon="7.72321389205">
		<tag k="name" v="Visetstølen" />
		<tag k="place" v="locality" />
		<tag k="ssr:stedsnr" v="435552" />
	</node>
	<node id="-518932" lat="61.0270499982" lon="7.81600832775">
		<tag k="historic" v="shieling" />
		<tag k="name" v="Engi" />
		<tag k="place" v="locality" />
		<tag k="ssr:stedsnr" v="435547" />
	</node>
	<node id="-518931" lat="61.0321805596" lon="7.82153888113">
		<tag k="name" v="Leikhaug" />
		<tag k="place" v="locality" />
		<tag k="ssr:stedsnr" v="435538" />
	</node>
	<node id="-518929" lat="61.1460249965" lon="7.40840555716">
		<tag k="name" v="Dokki" />
		<tag k="place" v="locality" />
		<tag k="ssr:stedsnr" v="435303" />
	</node>
	<node id="-518922" lat="61.0936750035" lon="7.79861110978">
		<tag k="name" v="Fagersete" />
		<tag k="place" v="locality" />
		<tag k="ssr:stedsnr" v="434958" />
	</node>
	<node id="-518919" lat="61.091815842" lon="7.8719263491">
		<tag k="fixme" v="consider place=hamlet" />
		<tag k="name" v="Tufte" />
		<tag k="place" v="farm" />
		<tag k="ssr:stedsnr" v="434945" />
	</node>
	<node id="-518918" lat="61.0898111084" lon="8.00308611378">
		<tag k="name" v="Enden" />
		<tag k="place" v="isolated_dwelling" />
		<tag k="ssr:stedsnr" v="434942" />
	</node>
	<node id="-518917" lat="61.0302138876" lon="7.55348889173">
		<tag k="name" v="Bøastølen" />
		<tag k="place" v="isolated_dwelling" />
		<tag k="ssr:stedsnr" v="434931" />
	</node>
	<node id="-518912" lat="61.0446444428" lon="7.5951805536">
		<tag k="name" v="Hundsteigane" />
		<tag k="place" v="farm" />
		<tag k="ssr:stedsnr" v="434785" />
	</node>
	<node id="-518908" lat="61.1734241999" lon="8.0189202376">
		<tag k="historic" v="shieling" />
		<tag k="name" v="Osen" />
		<tag k="place" v="locality" />
		<tag k="ssr:stedsnr" v="434866" />
	</node>
	<node id="-518906" lat="61.0728800982" lon="7.82820922815">
		<tag k="fixme" v="consider place=hamlet" />
		<tag k="name" v="Horge" />
		<tag k="place" v="farm" />
		<tag k="ssr:stedsnr" v="434500" />
	</node>
	<node id="-518901" lat="61.1097277771" lon="7.1330972315">
		<tag k="alt_name" v="Vetlefrønningen" />
		<tag k="name" v="Veslefrønningen" />
		<tag k="place" v="farm" />
		<tag k="ssr:stedsnr" v="434431" />
	</node>
	<node id="-518879" lat="61.1021111133" lon="7.42249443808">
		<tag k="name" v="Viki" />
		<tag k="place" v="isolated_dwelling" />
		<tag k="ssr:stedsnr" v="419815" />
	</node>
	<node id="-518872" lat="61.0560249977" lon="7.75176666214">
		<tag k="historic" v="shieling" />
		<tag k="name" v="Skori" />
		<tag k="place" v="locality" />
		<tag k="ssr:stedsnr" v="264346" />
	</node>
	<node id="-518869" lat="60.953586113" lon="7.77077500387">
		<tag k="name" v="Nilsehytta" />
		<tag k="place" v="isolated_dwelling" />
		<tag k="ssr:stedsnr" v="263087" />
	</node>
	<node id="-518865" lat="61.1056103273" lon="7.5111946607">
		<tag k="fixme" v="consider place=hamlet" />
		<tag k="name" v="Øye" />
		<tag k="place" v="farm" />
		<tag k="ssr:stedsnr" v="253817" />
	</node>
	<node id="-518860" lat="61.0335555548" lon="7.77445000415">
		<tag k="name" v="Reset" />
		<tag k="place" v="isolated_dwelling" />
		<tag k="ssr:stedsnr" v="253540" />
	</node>
	<node id="-518859" lat="61.0452083309" lon="8.00576388458">
		<tag k="name" v="Listølen" />
		<tag k="place" v="locality" />
		<tag k="ssr:stedsnr" v="253536" />
	</node>
	<node id="-518857" lat="61.1558157095" lon="7.43839609322">
		<tag k="name" v="Skori" />
		<tag k="place" v="farm" />
		<tag k="ssr:stedsnr" v="253320" />
	</node>
	<node id="-518856" lat="61.1527388884" lon="7.41481388705">
		<tag k="name" v="Sandnes" />
		<tag k="place" v="farm" />
		<tag k="ssr:stedsnr" v="253314" />
	</node>
	<node id="-518851" lat="61.1069999983" lon="7.85986944791">
		<tag k="name" v="Igdeset" />
		<tag k="place" v="locality" />
		<tag k="ssr:stedsnr" v="252956" />
	</node>
	<node id="-518846" lat="61.0867474439" lon="7.86032697949">
		<tag k="fixme" v="consider place=hamlet" />
		<tag k="name" v="Hovland" />
		<tag k="place" v="farm" />
		<tag k="ssr:stedsnr" v="252930" />
	</node>
	<node id="-518838" lat="61.0452380042" lon="7.77442219293">
		<tag k="fixme" v="consider place=hamlet" />
		<tag k="name" v="Nedre Kvame" />
		<tag k="place" v="farm" />
		<tag k="ssr:stedsnr" v="252502" />
	</node>
	<node id="-518837" lat="61.0707019346" lon="7.93619522649">
		<tag k="fixme" v="consider place=hamlet" />
		<tag k="name" v="Eråk" />
		<tag k="place" v="farm" />
		<tag k="ssr:stedsnr" v="252490" />
	</node>
	<node id="-518825" lat="61.1172494385" lon="7.16945872912">
		<tag k="fixme" v="consider place=hamlet" />
		<tag k="name" v="Indre Frønningen" />
		<tag k="place" v="farm" />
		<tag k="ssr:stedsnr" v="251495" />
	</node>
	<node id="-518806" lat="61.0789527733" lon="7.97323332951">
		<tag k="name" v="Hagastølen" />
		<tag k="place" v="locality" />
		<tag k="ssr:stedsnr" v="229395" />
	</node>
	<node id="-518777" lat="61.0454499983" lon="7.58294444286">
		<tag k="barrier" v="fence" />
		<tag k="name" v="Sandgjerdet" />
		<tag k="ssr:stedsnr" v="228100" />
	</node>
	<node id="-518771" lat="61.0206000024" lon="7.59198610618">
		<tag k="name" v="Bøahytta" />
		<tag k="place" v="isolated_dwelling" />
		<tag k="ssr:stedsnr" v="204795" />
	</node>
	<node id="-518764" lat="61.0488611612" lon="7.60287908835">
		<tag k="fixme" v="consider place=hamlet" />
		<tag k="name" v="Midt-Ljøsne" />
		<tag k="place" v="farm" />
		<tag k="ssr:stedsnr" v="192885" />
	</node>
	<node id="-518763" lat="61.0564241039" lon="7.51752798505">
		<tag k="fixme" v="consider place=hamlet" />
		<tag k="name" v="Øvregard" />
		<tag k="place" v="farm" />
		<tag k="ssr:stedsnr" v="192877" />
	</node>
	<node id="-518762" lat="61.0751527783" lon="7.67129166447">
		<tag k="historic" v="shieling" />
		<tag k="name" v="Horndal" />
		<tag k="place" v="locality" />
		<tag k="ssr:stedsnr" v="192861" />
	</node>
	<node id="-518759" lat="61.10293487" lon="7.41957125921">
		<tag k="fixme" v="consider place=hamlet" />
		<tag k="name" v="Sanden" />
		<tag k="place" v="farm" />
		<tag k="ssr:stedsnr" v="192802" />
	</node>
	<node id="-518755" lat="61.0420416656" lon="7.81887499862">
		<tag k="name" v="Kallevang" />
		<tag k="place" v="locality" />
		<tag k="ssr:stedsnr" v="192582" />
	</node>
	<node id="-518753" lat="61.0504166632" lon="7.75263055579">
		<tag k="alt_name" v="Hegg, nedre" />
		<tag k="name" v="Nedre Hegg" />
		<tag k="place" v="isolated_dwelling" />
		<tag k="ssr:stedsnr" v="192575" />
	</node>
	<node id="-518749" lat="61.0563750004" lon="7.96090555">
		<tag k="historic" v="shieling" />
		<tag k="name" v="Eråksdalen" />
		<tag k="place" v="locality" />
		<tag k="ssr:stedsnr" v="192538" />
	</node>
	<node id="-518746" lat="61.1348916672" lon="7.25751667418">
		<tag k="name" v="Hausestølen" />
		<tag k="place" v="locality" />
		<tag k="ssr:stedsnr" v="192502" />
	</node>
	<node id="-518731" lat="61.0584305517" lon="7.71328055471">
		<tag k="name" v="Dragesete" />
		<tag k="place" v="locality" />
		<tag k="ssr:stedsnr" v="191809" />
	</node>
	<node id="-518728" lat="61.0504583344" lon="7.54973055715">
		<tag k="name" v="Grøte" />
		<tag k="place" v="farm" />
		<tag k="ssr:stedsnr" v="191785" />
	</node>
	<node id="-518727" lat="61.0192555544" lon="7.49863610481">
		<tag k="name" v="Grøtadalen" />
		<tag k="place" v="locality" />
		<tag k="ssr:stedsnr" v="191784" />
	</node>
	<node id="-518719" lat="61.1048749971" lon="7.15563056099">
		<tag k="alt_name" v="Frenningen" />
		<tag k="historic" v="shieling" />
		<tag k="name" v="Frønningsstølen" />
		<tag k="place" v="locality" />
		<tag k="ssr:stedsnr" v="191428" />
	</node>
	<node id="-518705" lat="61.0771944416" lon="7.83721944961">
		<tag k="name" v="Nesheim" />
		<tag k="place" v="farm" />
		<tag k="ssr:stedsnr" v="169824" />
	</node>
	<node id="-518703" lat="61.079941665" lon="7.84553333671">
		<tag k="name" v="Hjelle" />
		<tag k="place" v="farm" />
		<tag k="ssr:stedsnr" v="169814" />
	</node>
	<node id="-518699" lat="61.0565999964" lon="7.52488888257">
		<tag k="name" v="Vollheim" />
		<tag k="place" v="farm" />
		<tag k="ssr:stedsnr" v="168733" />
	</node>
	<node id="-518682" lat="61.0820749991" lon="7.4070277847">
		<tag k="name" v="Sælshagen" />
		<tag k="place" v="locality" />
		<tag k="ssr:stedsnr" v="167852" />
	</node>
	<node id="-518680" lat="61.04593333" lon="7.75392222668">
		<tag k="name" v="Ytre Haugen" />
		<tag k="place" v="locality" />
		<tag k="ssr:stedsnr" v="167760" />
	</node>
	<node id="-518679" lat="61.0540333352" lon="7.74238055406">
		<tag k="name" v="Steine" />
		<tag k="place" v="locality" />
		<tag k="ssr:stedsnr" v="167747" />
	</node>
	<node id="-518651" lat="61.0909833361" lon="7.30882221304">
		<tag k="historic" v="shieling" />
		<tag k="name" v="Li" />
		<tag k="place" v="locality" />
		<tag k="ssr:stedsnr" v="143881" />
	</node>
	<node id="-518646" lat="60.9002277812" lon="7.72209999192">
		<tag k="name" v="Eivindbu" />
		<tag k="place" v="isolated_dwelling" />
		<tag k="ssr:stedsnr" v="142078" />
	</node>
	<node id="-518645" lat="60.9333250015" lon="7.76445277282">
		<tag k="name" v="Erakerhytta" />
		<tag k="place" v="isolated_dwelling" />
		<tag k="ssr:stedsnr" v="142076" />
	</node>
	<node id="-518641" lat="61.0790500001" lon="7.54988610862">
		<tag k="historic" v="shieling" />
		<tag k="name" v="Freibotnen" />
		<tag k="place" v="locality" />
		<tag k="ssr:stedsnr" v="131853" />
	</node>
	<node id="-518640" lat="61.1076777727" lon="7.50169160448">
		<tag k="alt_name" v="Stødnum" />
		<tag k="fixme" v="consider place=hamlet" />
		<tag k="name" v="Stødno" />
		<tag k="place" v="farm" />
		<tag k="ssr:stedsnr" v="131833" />
	</node>
	<node id="-518638" lat="61.0963555575" lon="7.46306944973">
		<tag k="historic" v="shieling" />
		<tag k="name" v="Ekrestølen" />
		<tag k="place" v="locality" />
		<tag k="ssr:stedsnr" v="131820" />
	</node>
	<node id="-518636" lat="61.0957450613" lon="7.52444702891">
		<tag k="fixme" v="consider place=hamlet" />
		<tag k="name" v="Hunderi" />
		<tag k="place" v="farm" />
		<tag k="ssr:stedsnr" v="131812" />
	</node>
	<node id="-518634" lat="61.0892500041" lon="7.40984999927">
		<tag k="name" v="Brattli" />
		<tag k="place" v="farm" />
		<tag k="ssr:stedsnr" v="131791" />
	</node>
	<node id="-518629" lat="61.0607506326" lon="7.72837403426">
		<tag k="fixme" v="consider place=hamlet" />
		<tag k="name" v="Galdane" />
		<tag k="place" v="farm" />
		<tag k="ssr:stedsnr" v="131522" />
	</node>
	<node id="-518628" lat="61.0710499994" lon="7.73463611974">
		<tag k="alt_name" v="Ljøsndalen, heimre" />
		<tag k="name" v="Heimre Ljøsndalen" />
		<tag k="place" v="isolated_dwelling" />
		<tag k="ssr:stedsnr" v="131509" />
	</node>
	<node id="-518615" lat="61.1193833294" lon="8.03964444576">
		<tag k="historic" v="shieling" />
		<tag k="name" v="Stovestølen" />
		<tag k="place" v="locality" />
		<tag k="ssr:stedsnr" v="130972" />
	</node>
	<node id="-518613" lat="61.1086416705" lon="8.04674444539">
		<tag k="name" v="Gramstølen" />
		<tag k="place" v="isolated_dwelling" />
		<tag k="ssr:stedsnr" v="130967" />
	</node>
	<node id="-518611" lat="61.0948694406" lon="7.87692777656">
		<tag k="name" v="Solum" />
		<tag k="place" v="farm" />
		<tag k="ssr:stedsnr" v="130958" />
	</node>
	<node id="-518607" lat="61.0521907859" lon="7.70180757075">
		<tag k="fixme" v="consider place=hamlet" />
		<tag k="name" v="Seltun" />
		<tag k="place" v="farm" />
		<tag k="ssr:stedsnr" v="130809" />
	</node>
	<node id="-518599" lat="61.1104029543" lon="7.06976396122">
		<tag k="fixme" v="consider place=hamlet" />
		<tag k="name" v="Frønningen" />
		<tag k="place" v="farm" />
		<tag k="ssr:stedsnr" v="130427" />
	</node>
	<node id="-518584" lat="61.012650003" lon="8.13430556123">
		<tag k="name" v="Elvetot" />
		<tag k="place" v="isolated_dwelling" />
		<tag k="ssr:stedsnr" v="128724" />
	</node>
	<node id="-518578" lat="61.0768916663" lon="7.85003888037">
		<tag k="name" v="Flintegård" />
		<tag k="place" v="farm" />
		<tag k="ssr:stedsnr" v="108797" />
	</node>
	<node id="-518576" lat="61.0506861144" lon="7.81111388637">
		<tag k="name" v="Bakken" />
		<tag k="place" v="farm" />
		<tag k="ssr:stedsnr" v="107933" />
	</node>
	<node id="-518572" lat="61.0867055568" lon="7.8885833277">
		<tag k="name" v="Lunde" />
		<tag k="place" v="farm" />
		<tag k="ssr:stedsnr" v="107786" />
	</node>
	<node id="-518559" lat="61.009266666" lon="7.68990000116">
		<tag k="name" v="Kollesæte" />
		<tag k="place" v="isolated_dwelling" />
		<tag k="ssr:stedsnr" v="107675" />
	</node>
	<node id="-518529" lat="61.0399527806" lon="7.60772222658">
		<tag k="barrier" v="fence" />
		<tag k="name" v="Ingridgjerdet" />
		<tag k="ssr:stedsnr" v="105049" />
	</node>
	<node id="-518528" lat="61.0244527816" lon="8.03602222245">
		<tag k="fixme" v="consider tourism=alpine_hut or tourism=chalet" />
		<tag k="name" v="Breistølen Fjellstue" />
		<tag k="old_name" v="Breistølen" />
		<tag k="ssr:stedsnr" v="87121" />
		<tag k="tourism" v="wilderness_hut" />
	</node>
	<node id="-518526" lat="60.956661111" lon="7.77865000737">
		<tag k="name" v="Veidemannsbu" />
		<tag k="place" v="isolated_dwelling" />
		<tag k="ssr:stedsnr" v="82017" />
	</node>
	<node id="-518523" lat="61.0540222182" lon="7.62703611874">
		<tag k="historic" v="shieling" />
		<tag k="name" v="Øyestølane" />
		<tag k="place" v="locality" />
		<tag k="ssr:stedsnr" v="71871" />
	</node>
	<node id="-518520" lat="61.0605861077" lon="7.68755554782">
		<tag k="historic" v="shieling" />
		<tag k="name" v="Nedre Seltastølen" />
		<tag k="place" v="locality" />
		<tag k="ssr:stedsnr" v="71846" />
	</node>
	<node id="-518513" lat="61.0493919826" lon="7.75709717465">
		<tag k="alt_name" v="Øygarden, nedre" />
		<tag k="fixme" v="consider place=hamlet" />
		<tag k="name" v="Nedre Øygarden" />
		<tag k="place" v="farm" />
		<tag k="ssr:stedsnr" v="71595" />
	</node>
	<node id="-518512" lat="61.0622250031" lon="7.96072776912">
		<tag k="alt_name" v="Bergstøl" />
		<tag k="historic" v="shieling" />
		<tag k="name" v="Bergstølen" />
		<tag k="place" v="locality" />
		<tag k="ssr:stedsnr" v="71590" />
	</node>
	<node id="-518511" lat="61.0197333359" lon="7.86007777161">
		<tag k="historic" v="shieling" />
		<tag k="name" v="Skori" />
		<tag k="place" v="locality" />
		<tag k="ssr:stedsnr" v="71569" />
	</node>
	<node id="-518507" lat="61.0502638852" lon="7.82668333769">
		<tag k="name" v="Dekkene" />
		<tag k="place" v="locality" />
		<tag k="ssr:stedsnr" v="71531" />
	</node>
	<node id="-518504" lat="61.1448527786" lon="7.4450500072">
		<tag k="alt_name" v="Fagerset" />
		<tag k="historic" v="shieling" />
		<tag k="name" v="Aspvikstølen" />
		<tag k="place" v="locality" />
		<tag k="ssr:stedsnr" v="71306" />
	</node>
	<node id="-518498" lat="61.1640666708" lon="8.0017888805">
		<tag k="name" v="Sluten" />
		<tag k="place" v="isolated_dwelling" />
		<tag k="ssr:stedsnr" v="70851" />
	</node>
	<node id="-518493" lat="61.05256944" lon="7.64121110884">
		<tag k="name" v="Sletten" />
		<tag k="place" v="farm" />
		<tag k="ssr:stedsnr" v="70804" />
	</node>
	<node id="-518488" lat="61.0948611087" lon="7.87381111514">
		<tag k="alt_name" v="Nedre Sprakehaug" />
		<tag k="name" v="Sprakehaugen" />
		<tag k="place" v="farm" />
		<tag k="ssr:stedsnr" v="70959" />
	</node>
	<node id="-518485" lat="61.0763696418" lon="7.97776680567">
		<tag k="alt_name" v="Ulviksbakken" />
		<tag k="fixme" v="consider place=hamlet" />
		<tag k="name" v="Ulvisbakken" />
		<tag k="place" v="farm" />
		<tag k="ssr:stedsnr" v="70516" />
	</node>
	<node id="-518484" lat="61.073150212" lon="7.90456131205">
		<tag k="fixme" v="consider place=hamlet" />
		<tag k="name" v="Teigum" />
		<tag k="place" v="farm" />
		<tag k="ssr:stedsnr" v="70510" />
	</node>
	<node id="-518483" lat="61.0992828107" lon="7.0781516991">
		<tag k="fixme" v="consider place=hamlet" />
		<tag k="name" v="Nyborg" />
		<tag k="place" v="farm" />
		<tag k="ssr:stedsnr" v="70447" />
	</node>
	<node id="-518482" lat="61.0965075146" lon="7.07347221491">
		<tag k="fixme" v="consider place=hamlet" />
		<tag k="name" v="Stølen" />
		<tag k="place" v="farm" />
		<tag k="ssr:stedsnr" v="70445" />
	</node>
	<node id="-518480" lat="61.0775331738" lon="7.04248638807">
		<tag k="name" v="Buene" />
		<tag k="place" v="hamlet" />
		<tag k="ssr:stedsnr" v="70426" />
	</node>
	<node id="-518477" lat="61.1127388901" lon="7.32586666254">
		<tag k="name" v="Åreflaten" />
		<tag k="place" v="locality" />
		<tag k="ssr:stedsnr" v="70454" />
	</node>
	<node id="-518476" lat="61.1077888891" lon="7.32280555277">
		<tag k="historic" v="shieling" />
		<tag k="name" v="Vårstølen" />
		<tag k="place" v="locality" />
		<tag k="ssr:stedsnr" v="70452" />
	</node>
	<node id="-518465" lat="60.9256805537" lon="7.68297778587">
		<tag k="name" v="Hansehytta" />
		<tag k="place" v="locality" />
		<tag k="ssr:stedsnr" v="69388" />
	</node>
	<node id="-518461" lat="60.9789250042" lon="7.53162499745">
		<tag k="name" v="Skorstøl" />
		<tag k="place" v="locality" />
		<tag k="ssr:stedsnr" v="69514" />
	</node>
	<node id="-518453" lat="61.049141666" lon="7.54012500769">
		<tag k="name" v="Lund" />
		<tag k="place" v="farm" />
		<tag k="ssr:stedsnr" v="47733" />
	</node>
	<node id="-518431" lat="61.0491527745" lon="7.55597778324">
		<tag k="name" v="Grøttebø" />
		<tag k="place" v="farm" />
		<tag k="ssr:stedsnr" v="46084" />
	</node>
	<node id="-518419" lat="61.0546999441" lon="7.67959885431">
		<tag k="fixme" v="consider place=hamlet" />
		<tag k="name" v="Nordre Bjørkum" />
		<tag k="place" v="farm" />
		<tag k="ssr:stedsnr" v="21803" />
	</node>
	<node id="-518417" lat="60.8951749986" lon="7.72056943866">
		<tag k="name" v="Kvevasshytta" />
		<tag k="place" v="isolated_dwelling" />
		<tag k="ssr:stedsnr" v="21148" />
	</node>
	<node id="-518415" lat="61.0534510064" lon="7.5715380265">
		<tag k="fixme" v="consider place=hamlet" />
		<tag k="name" v="Nedre Ljøsne" />
		<tag k="place" v="farm" />
		<tag k="ssr:stedsnr" v="10868" />
	</node>
	<node id="-518414" lat="61.0752286749" lon="7.51486126245">
		<tag k="fixme" v="consider place=hamlet" />
		<tag k="name" v="Færestad" />
		<tag k="place" v="farm" />
		<tag k="ssr:stedsnr" v="10798" />
	</node>
	<node id="-518412" lat="61.091139695" lon="7.41226501445">
		<tag k="fixme" v="consider place=hamlet" />
		<tag k="name" v="Tøri" />
		<tag k="place" v="farm" />
		<tag k="ssr:stedsnr" v="10786" />
	</node>
	<node id="-518404" lat="61.0619583315" lon="7.52313611123">
		<tag k="name" v="Øvergardsøyni" />
		<tag k="place" v="locality" />
		<tag k="ssr:stedsnr" v="10849" />
	</node>
	<node id="-518403" lat="61.0988250001" lon="7.60286389574">
		<tag k="historic" v="shieling" />
		<tag k="name" v="Katteleinstølen" />
		<tag k="place" v="locality" />
		<tag k="ssr:stedsnr" v="10817" />
	</node>
	<node id="-518400" lat="61.1031000021" lon="7.43310556366">
		<tag k="name" v="Røyrnes" />
		<tag k="place" v="isolated_dwelling" />
		<tag k="ssr:stedsnr" v="10809" />
	</node>
	<node id="-518396" lat="61.0631583348" lon="7.72641666024">
		<tag k="historic" v="shieling" />
		<tag k="name" v="Fureset" />
		<tag k="place" v="locality" />
		<tag k="ssr:stedsnr" v="10536" />
	</node>
	<node id="-518392" lat="61.0384194464" lon="8.00877500832">
		<tag k="historic" v="shieling" />
		<tag k="name" v="Eråksstølen" />
		<tag k="place" v="locality" />
		<tag k="ssr:stedsnr" v="10503" />
	</node>
	<node id="-518385" lat="61.0998694435" lon="8.08195278072">
		<tag k="name" v="Oddedalen" />
		<tag k="place" v="isolated_dwelling" />
		<tag k="ssr:stedsnr" v="9953" />
	</node>
	<node id="-518381" lat="60.9951750011" lon="7.68590833427">
		<tag k="name" v="Nysætri" />
		<tag k="place" v="locality" />
		<tag k="ssr:stedsnr" v="9488" />
	</node>
	<node id="-518362" lat="61.0536166692" lon="7.81233610714">
		<tag k="name" v="Vetlestølen" />
		<tag k="place" v="farm" />
		<tag k="ssr:stedsnr" v="896930" />
	</node>
	<node id="-518358" lat="61.0336805567" lon="7.81015833865">
		<tag k="name" v="Troni" />
		<tag k="place" v="locality" />
		<tag k="ssr:stedsnr" v="896899" />
	</node>
	<node id="-518334" lat="61.0397916683" lon="8.01702777826">
		<tag k="name" v="Gamle Galdestølen" />
		<tag k="place" v="locality" />
		<tag k="ssr:stedsnr" v="896357" />
	</node>
	<node id="-518327" lat="61.0716777798" lon="7.91336944408">
		<tag k="name" v="Fjellborg" />
		<tag k="place" v="farm" />
		<tag k="ssr:stedsnr" v="896252" />
	</node>
	<node id="-518316" lat="61.0976138908" lon="7.12078888567">
		<tag k="barrier" v="fence" />
		<tag k="name" v="Furegjerde" />
		<tag k="ssr:stedsnr" v="895957" />
	</node>
	<node id="-518310" lat="61.0945666683" lon="7.50290278267">
		<tag k="name" v="Janstølen" />
		<tag k="place" v="locality" />
		<tag k="ssr:stedsnr" v="896527" />
	</node>
	<node id="-518304" lat="61.0429500016" lon="7.60496110619">
		<tag k="name" v="Sande" />
		<tag k="place" v="farm" />
		<tag k="ssr:stedsnr" v="894038" />
	</node>
	<node id="-518301" lat="61.1324361132" lon="8.01509722268">
		<tag k="name" v="Torvmo" />
		<tag k="place" v="locality" />
		<tag k="ssr:stedsnr" v="412000" />
	</node>
	<node id="-518297" lat="61.0510777753" lon="7.53401665924">
		<tag k="name" v="Bruvoll" />
		<tag k="place" v="farm" />
		<tag k="ssr:stedsnr" v="411717" />
	</node>
	<node id="-518292" lat="61.0802777772" lon="7.98440556044">
		<tag k="name" v="Vetleøyni" />
		<tag k="place" v="locality" />
		<tag k="ssr:stedsnr" v="411402" />
	</node>
	<node id="-518287" lat="61.0729388845" lon="7.95602776946">
		<tag k="name" v="Hansegjerdet" />
		<tag k="place" v="farm" />
		<tag k="ssr:stedsnr" v="411335" />
	</node>
	<node id="-518286" lat="61.074188892" lon="7.9162305601">
		<tag k="name" v="Soleistølane" />
		<tag k="place" v="locality" />
		<tag k="ssr:stedsnr" v="411253" />
	</node>
	<node id="-518281" lat="61.0828166683" lon="7.3991277773">
		<tag k="name" v="Grindheim" />
		<tag k="place" v="farm" />
		<tag k="ssr:stedsnr" v="410843" />
	</node>
	<node id="-518278" lat="61.0907722237" lon="7.86253332598">
		<tag k="name" v="Bergsøyni" />
		<tag k="place" v="farm" />
		<tag k="ssr:stedsnr" v="410776" />
	</node>
	<node id="-518231" lat="61.0878582654" lon="7.40283680109">
		<tag k="fixme" v="consider place=hamlet" />
		<tag k="name" v="Helland" />
		<tag k="place" v="farm" />
		<tag k="ssr:stedsnr" v="374792" />
	</node>
	<node id="-518230" lat="61.0844250017" lon="7.4047749939">
		<tag k="name" v="Sætre" />
		<tag k="place" v="farm" />
		<tag k="ssr:stedsnr" v="374785" />
	</node>
	<node id="-518229" lat="61.1005846089" lon="7.42205496441">
		<tag k="fixme" v="consider place=hamlet" />
		<tag k="name" v="Sæbø" />
		<tag k="place" v="farm" />
		<tag k="ssr:stedsnr" v="374784" />
	</node>
	<node id="-518227" lat="61.0619777805" lon="7.3428333417">
		<tag k="historic" v="shieling" />
		<tag k="name" v="Hammarsete" />
		<tag k="place" v="locality" />
		<tag k="ssr:stedsnr" v="374767" />
	</node>
	<node id="-518224" lat="61.0374527792" lon="7.7883333293">
		<tag k="name" v="Morki" />
		<tag k="place" v="isolated_dwelling" />
		<tag k="ssr:stedsnr" v="374496" />
	</node>
	<node id="-518222" lat="61.1708833315" lon="7.44774165967">
		<tag k="name" v="Luggenes" />
		<tag k="place" v="isolated_dwelling" />
		<tag k="ssr:stedsnr" v="374288" />
	</node>
	<node id="-518218" lat="61.1441833295" lon="8.01383611862">
		<tag k="historic" v="shieling" />
		<tag k="name" v="Brusestølen" />
		<tag k="place" v="locality" />
		<tag k="ssr:stedsnr" v="373997" />
	</node>
	<node id="-518214" lat="61.0803138918" lon="7.89810833353">
		<tag k="name" v="Hegg" />
		<tag k="place" v="farm" />
		<tag k="ssr:stedsnr" v="373947" />
	</node>
	<node id="-518213" lat="61.0159416659" lon="7.52669999825">
		<tag k="historic" v="shieling" />
		<tag k="name" v="Lauvane" />
		<tag k="place" v="locality" />
		<tag k="ssr:stedsnr" v="373940" />
	</node>
	<node id="-518207" lat="61.089044441" lon="7.52392159216">
		<tag k="fixme" v="consider place=hamlet" />
		<tag k="name" v="Hauge" />
		<tag k="place" v="farm" />
		<tag k="ssr:stedsnr" v="373780" />
	</node>
	<node id="-518199" lat="61.1132182703" lon="7.32603150468">
		<tag k="name" v="Grindateig" />
		<tag k="place" v="farm" />
		<tag k="ssr:stedsnr" v="373466" />
	</node>
	<node id="-518183" lat="61.0091444457" lon="8.12125000275">
		<tag k="name" v="Osen" />
		<tag k="place" v="isolated_dwelling" />
		<tag k="ssr:stedsnr" v="371638" />
	</node>
	<node id="-518175" lat="61.0607500018" lon="7.81581110358">
		<tag k="name" v="Liheim" />
		<tag k="place" v="farm" />
		<tag k="ssr:stedsnr" v="350834" />
	</node>
	<node id="-518173" lat="61.0853555548" lon="7.86028056262">
		<tag k="name" v="Øvre Eggum" />
		<tag k="place" v="farm" />
		<tag k="ssr:stedsnr" v="350798" />
	</node>
	<node id="-518169" lat="61.0485888889" lon="7.55463332487">
		<tag k="name" v="Kjørnes" />
		<tag k="place" v="farm" />
		<tag k="ssr:stedsnr" v="350714" />
	</node>
</osm>
