<?xml version="1.0" encoding="UTF-8"?>
<osm version="0.6" generator="osmapis">
	<node lat="60.24882499813616" lon="12.379355551353724" id="-17630">
		<tag k="name" v="Kavalasmyra" />
		<tag k="natural" v="wetland" />
		<tag k="ssr:stedsnr" v="5803" />
	</node>
	<node lat="60.30214722316309" lon="12.357802786917878" id="-17646">
		<tag k="name" v="Bruntjennsmyra" />
		<tag k="natural" v="wetland" />
		<tag k="ssr:stedsnr" v="6163" />
	</node>
	<node lat="60.25902500162985" lon="12.496133338442736" id="-17657">
		<tag k="alt_name" v="Søndre Slåttmyra" />
		<tag k="name" v="Slåttmyra" />
		<tag k="natural" v="wetland" />
		<tag k="ssr:stedsnr" v="6873" />
	</node>
	<node lat="60.267652776064075" lon="12.218069442359205" id="-17661">
		<tag k="name" v="Bureistjennsmyra" />
		<tag k="natural" v="wetland" />
		<tag k="ssr:stedsnr" v="39502" />
	</node>
	<node lat="60.14374166527704" lon="12.380969444413195" id="-17662">
		<tag k="name" v="Multehullet" />
		<tag k="natural" v="wetland" />
		<tag k="ssr:stedsnr" v="39769" />
	</node>
	<node lat="60.13253333226353" lon="12.330638893216275" id="-17663">
		<tag k="name" v="Klakadalmyra" />
		<tag k="natural" v="wetland" />
		<tag k="ssr:stedsnr" v="39922" />
	</node>
	<node lat="60.10245277340416" lon="11.904266667571019" id="-17665">
		<tag k="name" v="Svartmyra" />
		<tag k="natural" v="wetland" />
		<tag k="ssr:stedsnr" v="40268" />
	</node>
	<node lat="60.21076944475918" lon="12.134527775513625" id="-17670">
		<tag k="name" v="Ringmyra" />
		<tag k="natural" v="wetland" />
		<tag k="ssr:stedsnr" v="237155" />
	</node>
	<node lat="60.19997777599334" lon="12.220825008740558" id="-17679">
		<tag k="name" v="Lusmyra" />
		<tag k="natural" v="wetland" />
		<tag k="ssr:stedsnr" v="237425" />
	</node>
	<node lat="60.258108337763375" lon="12.002286103201888" id="-17685">
		<tag k="name" v="Fuglleikmyra" />
		<tag k="natural" v="wetland" />
		<tag k="ssr:stedsnr" v="42976" />
	</node>
	<node lat="60.26930833573491" lon="11.992111115710035" id="-17686">
		<tag k="name" v="Brenna" />
		<tag k="place" v="locality" />
		<tag k="ssr:stedsnr" v="42978" />
	</node>
	<node lat="60.31160555841158" lon="11.940566661724377" id="-17687">
		<tag k="name" v="Koiemyra" />
		<tag k="natural" v="wetland" />
		<tag k="ssr:stedsnr" v="237552" />
	</node>
	<node lat="60.19060277406495" lon="12.13706944946646" id="-17691">
		<tag k="name" v="Lysholtet" />
		<tag k="place" v="locality" />
		<tag k="ssr:stedsnr" v="237834" />
	</node>
	<node lat="60.092105553970434" lon="12.341149998991789" id="-17692">
		<tag k="name" v="Raumyra" />
		<tag k="natural" v="wetland" />
		<tag k="ssr:stedsnr" v="237836" />
	</node>
	<node lat="60.16456944858368" lon="12.30304166176215" id="-17695">
		<tag k="name" v="Kullbråtamyra" />
		<tag k="natural" v="wetland" />
		<tag k="ssr:stedsnr" v="237945" />
	</node>
	<node lat="60.27326111523255" lon="12.317761113913342" id="-17696">
		<tag k="name" v="Raddiso" />
		<tag k="natural" v="wetland" />
		<tag k="ssr:stedsnr" v="237916" />
	</node>
	<node lat="60.22792222231703" lon="11.98869723013198" id="-17697">
		<tag k="name" v="Furuholen" />
		<tag k="place" v="locality" />
		<tag k="ssr:stedsnr" v="237917" />
	</node>
	<node lat="60.228052776420824" lon="11.970952779788952" id="-17698">
		<tag k="name" v="Fløytmyra" />
		<tag k="natural" v="wetland" />
		<tag k="ssr:stedsnr" v="237921" />
	</node>
	<node lat="60.16868888976259" lon="12.39980556311911" id="-17699">
		<tag k="name" v="Varaldskogen" />
		<tag k="place" v="locality" />
		<tag k="ssr:stedsnr" v="237949" />
	</node>
	<node lat="60.24504999584687" lon="11.998383333423508" id="-17700">
		<tag k="name" v="Sagholtet" />
		<tag k="place" v="locality" />
		<tag k="ssr:stedsnr" v="237950" />
	</node>
	<node lat="60.23836388501799" lon="11.984983324837172" id="-17701">
		<tag k="name" v="Motjennslia" />
		<tag k="place" v="locality" />
		<tag k="ssr:stedsnr" v="237955" />
	</node>
	<node lat="60.247230554912626" lon="11.951916666241884" id="-17705">
		<tag k="name" v="Steinbitmyra" />
		<tag k="natural" v="wetland" />
		<tag k="ssr:stedsnr" v="239150" />
	</node>
	<node lat="60.286747225606824" lon="12.177566661914408" id="-17710">
		<tag k="name" v="Sandbakka" />
		<tag k="place" v="locality" />
		<tag k="ssr:stedsnr" v="239722" />
	</node>
	<node lat="60.213591668774924" lon="11.92803611216542" id="-17714">
		<tag k="name" v="Reisen" />
		<tag k="place" v="locality" />
		<tag k="ssr:stedsnr" v="55176" />
	</node>
	<node lat="60.16552500225047" lon="12.425533337779102" id="-17717">
		<tag k="name" v="Kirkosido" />
		<tag k="natural" v="wetland" />
		<tag k="ssr:stedsnr" v="55197" />
	</node>
	<node lat="60.36448888709398" lon="12.288777773556344" id="-17724">
		<tag k="name" v="Hekkemyra" />
		<tag k="natural" v="wetland" />
		<tag k="ssr:stedsnr" v="55668" />
	</node>
	<node lat="60.26542500240854" lon="12.318972217407872" id="-17726">
		<tag k="name" v="Korahåll" />
		<tag k="natural" v="wetland" />
		<tag k="ssr:stedsnr" v="55917" />
	</node>
	<node lat="60.26720833068294" lon="12.080563887617819" id="-17729">
		<tag k="name" v="Bergermyra" />
		<tag k="natural" v="wetland" />
		<tag k="ssr:stedsnr" v="57114" />
	</node>
	<node lat="60.111988890414935" lon="12.40159722417059" id="-17734">
		<tag k="name" v="Svenskemyra" />
		<tag k="natural" v="wetland" />
		<tag k="ssr:stedsnr" v="57773" />
	</node>
	<node lat="60.14840277880207" lon="12.477452780246237" id="-17744">
		<tag k="name" v="Hokkamænsuo" />
		<tag k="natural" v="wetland" />
		<tag k="ssr:stedsnr" v="59194" />
	</node>
	<node lat="60.21955277742728" lon="12.462997228075382" id="-17745">
		<tag k="name" v="Brenna" />
		<tag k="place" v="locality" />
		<tag k="ssr:stedsnr" v="59380" />
	</node>
	<node lat="60.08781388993824" lon="12.271038885417205" id="-17747">
		<tag k="name" v="Gråstjennmyra" />
		<tag k="natural" v="wetland" />
		<tag k="ssr:stedsnr" v="59704" />
	</node>
	<node lat="60.30430833124804" lon="12.406513896386874" id="-17755">
		<tag k="name" v="Rognbråtamyra" />
		<tag k="natural" v="wetland" />
		<tag k="ssr:stedsnr" v="241092" />
	</node>
	<node lat="60.297486110614514" lon="12.363677779838163" id="-17756">
		<tag k="name" v="Hukbråtemyra" />
		<tag k="natural" v="wetland" />
		<tag k="ssr:stedsnr" v="241099" />
	</node>
	<node lat="60.239222224102264" lon="12.449508329708072" id="-17760">
		<tag k="name" v="Sirismyra" />
		<tag k="natural" v="wetland" />
		<tag k="ssr:stedsnr" v="241125" />
	</node>
	<node lat="60.09186666979023" lon="12.419547219374449" id="-17762">
		<tag k="name" v="Prammyra" />
		<tag k="natural" v="wetland" />
		<tag k="ssr:stedsnr" v="241246" />
	</node>
	<node lat="60.2954249959773" lon="12.448724992852608" id="-17763">
		<tag k="name" v="Sårinårrå" />
		<tag k="natural" v="wetland" />
		<tag k="ssr:stedsnr" v="241353" />
	</node>
	<node lat="60.280841670940205" lon="12.340250001498237" id="-17767">
		<tag k="name" v="Tullreismyrene" />
		<tag k="natural" v="wetland" />
		<tag k="ssr:stedsnr" v="66147" />
	</node>
	<node lat="60.26665555790076" lon="12.27026388912032" id="-17770">
		<tag k="name" v="Hansmyrene" />
		<tag k="natural" v="wetland" />
		<tag k="ssr:stedsnr" v="241523" />
	</node>
	<node lat="60.21430000450631" lon="12.296750000592978" id="-17779">
		<tag k="name" v="Orremyra" />
		<tag k="natural" v="wetland" />
		<tag k="ssr:stedsnr" v="66796" />
	</node>
	<node lat="60.09600555897951" lon="12.453649999868308" id="-17788">
		<tag k="name" v="Ulvemyra" />
		<tag k="natural" v="wetland" />
		<tag k="ssr:stedsnr" v="66894" />
	</node>
	<node lat="60.281236109331545" lon="12.238763886921609" id="-17802">
		<tag k="name" v="Kråkmyra" />
		<tag k="natural" v="wetland" />
		<tag k="ssr:stedsnr" v="67191" />
	</node>
	<node lat="60.274938885122836" lon="12.281208340339933" id="-17817">
		<tag k="historic" v="shieling" />
		<tag k="name" v="Mjølnerstuvollen" />
		<tag k="place" v="locality" />
		<tag k="ssr:stedsnr" v="100511" />
	</node>
	<node lat="60.334794441987384" lon="12.410261116314627" id="-17822">
		<tag k="name" v="Rundhaugmyra" />
		<tag k="natural" v="wetland" />
		<tag k="ssr:stedsnr" v="101181" />
	</node>
	<node lat="60.15463055370135" lon="11.92737222831147" id="-17825">
		<tag k="name" v="Bjørnholen" />
		<tag k="place" v="locality" />
		<tag k="ssr:stedsnr" v="248577" />
	</node>
	<node lat="60.14864444137375" lon="12.112905557214974" id="-17831">
		<tag k="name" v="Tjennsmyra" />
		<tag k="natural" v="wetland" />
		<tag k="ssr:stedsnr" v="101819" />
	</node>
	<node lat="60.23398610897942" lon="12.149300001671364" id="-17838">
		<tag k="name" v="Langmyrberget" />
		<tag k="place" v="locality" />
		<tag k="ssr:stedsnr" v="102225" />
	</node>
	<node lat="60.186530456334324" lon="12.175533291967156" id="-17839">
		<tag k="fixme" v="multiple name tags, choose one and add the other to alt_name" />
		<tag k="name" v="Stormyra;Langtjennmyra" />
		<tag k="natural" v="wetland" />
		<tag k="ssr:stedsnr" v="248635" />
	</node>
	<node lat="60.29471944252071" lon="12.471561116298036" id="-17840">
		<tag k="name" v="Raki" />
		<tag k="place" v="locality" />
		<tag k="ssr:stedsnr" v="102313" />
	</node>
	<node lat="60.153841664576696" lon="11.990755548032727" id="-17843">
		<tag k="name" v="Lundmyra" />
		<tag k="natural" v="wetland" />
		<tag k="ssr:stedsnr" v="102682" />
	</node>
	<node lat="60.33086667019037" lon="12.03248333977205" id="-17846">
		<tag k="name" v="Fjøserberget" />
		<tag k="place" v="locality" />
		<tag k="ssr:stedsnr" v="102809" />
	</node>
	<node lat="60.336899996728896" lon="12.052780551004991" id="-17847">
		<tag k="landuse" v="meadow" />
		<tag k="name" v="Starenga" />
		<tag k="ssr:stedsnr" v="102811" />
	</node>
	<node lat="60.16637500205315" lon="12.236175002249402" id="-17848">
		<tag k="historic" v="shieling" />
		<tag k="name" v="Skansgårdsætra" />
		<tag k="place" v="locality" />
		<tag k="ssr:stedsnr" v="248770" />
	</node>
	<node lat="60.17516111403589" lon="12.317252770943924" id="-17851">
		<tag k="name" v="Husmyra" />
		<tag k="natural" v="wetland" />
		<tag k="ssr:stedsnr" v="102976" />
	</node>
	<node lat="60.24694166868785" lon="12.211572215936656" id="-17861">
		<tag k="name" v="Langbråtan" />
		<tag k="place" v="locality" />
		<tag k="ssr:stedsnr" v="103495" />
	</node>
	<node lat="60.15627681724408" lon="12.47590714163528" id="-17863">
		<tag k="fixme" v="multiple name tags, choose one and add the other to alt_name" />
		<tag k="name" v="Smalmyra;Torpasuo" />
		<tag k="natural" v="wetland" />
		<tag k="ssr:stedsnr" v="248979" />
	</node>
	<node lat="60.32168888803006" lon="12.171855550110237" id="-17871">
		<tag k="name" v="Numyra" />
		<tag k="natural" v="wetland" />
		<tag k="ssr:stedsnr" v="249469" />
	</node>
	<node lat="60.2660611085269" lon="12.156988882561816" id="-17878">
		<tag k="name" v="Fuglemyra" />
		<tag k="natural" v="wetland" />
		<tag k="ssr:stedsnr" v="249438" />
	</node>
	<node lat="60.10208611041731" lon="12.478319443026729" id="-17880">
		<tag k="name" v="Josefstorpmyra" />
		<tag k="natural" v="wetland" />
		<tag k="ssr:stedsnr" v="116004" />
	</node>
	<node lat="60.07451666442914" lon="12.444866673021423" id="-17881">
		<tag k="name" v="Høymyra" />
		<tag k="natural" v="wetland" />
		<tag k="ssr:stedsnr" v="116008" />
	</node>
	<node lat="60.1692944434261" lon="12.209813897350397" id="-17882">
		<tag k="name" v="Øvre Ursmyra" />
		<tag k="natural" v="wetland" />
		<tag k="ssr:stedsnr" v="116102" />
	</node>
	<node lat="60.37240000340178" lon="12.282858339172954" id="-17885">
		<tag k="name" v="Blåbærdalen" />
		<tag k="place" v="locality" />
		<tag k="ssr:stedsnr" v="116524" />
	</node>
	<node lat="60.23499444113293" lon="12.01601388866625" id="-17889">
		<tag k="name" v="Hansbråtamyra" />
		<tag k="natural" v="wetland" />
		<tag k="ssr:stedsnr" v="116907" />
	</node>
	<node lat="60.29459721830224" lon="12.32021111074534" id="-17890">
		<tag k="name" v="Kjerkeholen" />
		<tag k="place" v="locality" />
		<tag k="ssr:stedsnr" v="116914" />
	</node>
	<node lat="60.14210000322531" lon="12.20323333062084" id="-17891">
		<tag k="name" v="Nystellmyra" />
		<tag k="natural" v="wetland" />
		<tag k="ssr:stedsnr" v="118080" />
	</node>
	<node lat="60.30435277410392" lon="12.12895833219356" id="-17894">
		<tag k="name" v="Hempemyra" />
		<tag k="natural" v="wetland" />
		<tag k="ssr:stedsnr" v="118226" />
	</node>
	<node lat="60.23511666789924" lon="12.480397227337159" id="-17905">
		<tag k="name" v="Ljamyra" />
		<tag k="natural" v="wetland" />
		<tag k="ssr:stedsnr" v="119143" />
	</node>
	<node lat="60.05146944108427" lon="12.386694452157178" id="-17906">
		<tag k="name" v="Veamyra" />
		<tag k="natural" v="wetland" />
		<tag k="ssr:stedsnr" v="120633" />
	</node>
	<node lat="60.107325000863796" lon="11.916724998360241" id="-17925">
		<tag k="name" v="Vindvålmyra" />
		<tag k="natural" v="wetland" />
		<tag k="ssr:stedsnr" v="126502" />
	</node>
	<node lat="60.192602781427404" lon="12.228402785349799" id="-17927">
		<tag k="alt_name" v="Seiensuo" />
		<tag k="name" v="Seienso" />
		<tag k="natural" v="wetland" />
		<tag k="ssr:stedsnr" v="126760" />
	</node>
	<node lat="60.12317500306029" lon="12.475077769296737" id="-17932">
		<tag k="name" v="Kansinso" />
		<tag k="natural" v="wetland" />
		<tag k="ssr:stedsnr" v="126924" />
	</node>
	<node lat="60.12452500109137" lon="12.275250002092593" id="-17945">
		<tag k="alt_name" v="Skimyra, store" />
		<tag k="name" v="Store Skimyra" />
		<tag k="natural" v="wetland" />
		<tag k="ssr:stedsnr" v="126941" />
	</node>
	<node lat="60.27464444397444" lon="12.07226111198308" id="-17952">
		<tag k="name" v="Linnmyra" />
		<tag k="natural" v="wetland" />
		<tag k="ssr:stedsnr" v="127406" />
	</node>
	<node lat="60.319599998080534" lon="12.104613883634938" id="-17956">
		<tag k="name" v="Tollmyra" />
		<tag k="natural" v="wetland" />
		<tag k="ssr:stedsnr" v="127500" />
	</node>
	<node lat="60.31439444914321" lon="12.10399999196312" id="-17960">
		<tag k="name" v="Tollknuvelen" />
		<tag k="place" v="locality" />
		<tag k="ssr:stedsnr" v="127502" />
	</node>
	<node lat="60.29869167051341" lon="12.018936104555532" id="-17963">
		<tag k="name" v="Dalermyra" />
		<tag k="natural" v="wetland" />
		<tag k="ssr:stedsnr" v="127539" />
	</node>
	<node lat="60.22577499727683" lon="12.308683334624948" id="-17966">
		<tag k="alt_name" v="Hvitamækkmyra" />
		<tag k="name" v="Vitamæg" />
		<tag k="natural" v="wetland" />
		<tag k="ssr:stedsnr" v="127839" />
	</node>
	<node lat="60.33008333792657" lon="12.183133325193186" id="-17969">
		<tag k="name" v="Bakkusmyra" />
		<tag k="natural" v="wetland" />
		<tag k="ssr:stedsnr" v="161644" />
	</node>
	<node lat="60.34072221970953" lon="12.366380561562249" id="-17974">
		<tag k="name" v="Tumyra" />
		<tag k="natural" v="wetland" />
		<tag k="ssr:stedsnr" v="163056" />
	</node>
	<node lat="60.33782499710958" lon="12.383333329098559" id="-17975">
		<tag k="name" v="Myrteppmyra" />
		<tag k="natural" v="wetland" />
		<tag k="ssr:stedsnr" v="163058" />
	</node>
	<node lat="60.20276666893884" lon="12.168388881196604" id="-17991">
		<tag k="name" v="Sulamittmyra" />
		<tag k="natural" v="wetland" />
		<tag k="ssr:stedsnr" v="176822" />
	</node>
	<node lat="60.27114166680142" lon="12.313463888742428" id="-17996">
		<tag k="name" v="Bjørnbråtan" />
		<tag k="place" v="locality" />
		<tag k="ssr:stedsnr" v="176919" />
	</node>
	<node lat="60.388341670584396" lon="12.28042222977868" id="-17998">
		<tag k="name" v="Luftarholtet" />
		<tag k="place" v="locality" />
		<tag k="ssr:stedsnr" v="177559" />
	</node>
	<node lat="60.3412305578939" lon="12.159363891906192" id="-18003">
		<tag k="name" v="Krokmyra" />
		<tag k="natural" v="wetland" />
		<tag k="ssr:stedsnr" v="179209" />
	</node>
	<node lat="60.243816666164065" lon="11.96381389157376" id="-18004">
		<tag k="name" v="Brennmyra" />
		<tag k="natural" v="wetland" />
		<tag k="ssr:stedsnr" v="179156" />
	</node>
	<node lat="60.29755000232175" lon="12.424313895734294" id="-18008">
		<tag k="name" v="Gampeskrottmyra" />
		<tag k="natural" v="wetland" />
		<tag k="ssr:stedsnr" v="180365" />
	</node>
	<node lat="60.24128611093597" lon="12.475780550017717" id="-18009">
		<tag k="name" v="Merratjennmyra" />
		<tag k="natural" v="wetland" />
		<tag k="ssr:stedsnr" v="180370" />
	</node>
	<node lat="60.264502779152195" lon="12.25558332717934" id="-18010">
		<tag k="name" v="Kappbråtan" />
		<tag k="place" v="locality" />
		<tag k="ssr:stedsnr" v="180603" />
	</node>
	<node lat="60.05001110711041" lon="12.326925001090828" id="-18011">
		<tag k="name" v="Snikerudmyra" />
		<tag k="natural" v="wetland" />
		<tag k="ssr:stedsnr" v="180659" />
	</node>
	<node lat="60.023594446599084" lon="12.330016674843979" id="-18021">
		<tag k="name" v="Kaldkjellmyra" />
		<tag k="natural" v="wetland" />
		<tag k="ssr:stedsnr" v="187022" />
	</node>
	<node lat="60.08619721967843" lon="12.41070834104535" id="-18026">
		<tag k="name" v="Bjørnholmyra" />
		<tag k="natural" v="wetland" />
		<tag k="ssr:stedsnr" v="187091" />
	</node>
	<node lat="60.34401388968404" lon="11.997819440717064" id="-18048">
		<tag k="name" v="Fåfenga" />
		<tag k="place" v="locality" />
		<tag k="ssr:stedsnr" v="188319" />
	</node>
	<node lat="60.143194440576764" lon="12.392180547332357" id="-18067">
		<tag k="name" v="Tumyra" />
		<tag k="natural" v="wetland" />
		<tag k="ssr:stedsnr" v="221771" />
	</node>
	<node lat="60.247599997970205" lon="12.424122218317304" id="-18069">
		<tag k="name" v="Idosinso" />
		<tag k="natural" v="wetland" />
		<tag k="ssr:stedsnr" v="222325" />
	</node>
	<node lat="60.1158472246217" lon="11.943544448978521" id="-18070">
		<tag k="name" v="Stormyra" />
		<tag k="natural" v="wetland" />
		<tag k="ssr:stedsnr" v="222712" />
	</node>
	<node lat="60.06788610688421" lon="12.370977773805281" id="-18079">
		<tag k="name" v="Skrumyra" />
		<tag k="natural" v="wetland" />
		<tag k="ssr:stedsnr" v="224810" />
	</node>
	<node lat="60.086083335891345" lon="12.452230547964772" id="-18082">
		<tag k="historic" v="shieling" />
		<tag k="name" v="Vestsætra" />
		<tag k="place" v="locality" />
		<tag k="ssr:stedsnr" v="237013" />
	</node>
	<node lat="60.361499998279896" lon="12.30801388900587" id="-18083">
		<tag k="name" v="Slåttmyra" />
		<tag k="natural" v="wetland" />
		<tag k="ssr:stedsnr" v="237030" />
	</node>
	<node lat="60.09423333266102" lon="12.46431389092516" id="-18086">
		<tag k="name" v="Morttjennsmyra" />
		<tag k="natural" v="wetland" />
		<tag k="ssr:stedsnr" v="237229" />
	</node>
	<node lat="60.313516666262984" lon="12.422747229209962" id="-18088">
		<tag k="name" v="Johannesmyra" />
		<tag k="natural" v="wetland" />
		<tag k="ssr:stedsnr" v="237199" />
	</node>
	<node lat="60.25299999657378" lon="12.297766660290714" id="-18091">
		<tag k="name" v="Langmyra" />
		<tag k="natural" v="wetland" />
		<tag k="ssr:stedsnr" v="237992" />
	</node>
	<node lat="60.30581666927857" lon="12.14220556262539" id="-18098">
		<tag k="name" v="Gaupåsmyra" />
		<tag k="natural" v="wetland" />
		<tag k="ssr:stedsnr" v="239180" />
	</node>
	<node lat="60.126400001550664" lon="12.020063887944959" id="-18101">
		<tag k="name" v="Kallåsmyra" />
		<tag k="natural" v="wetland" />
		<tag k="ssr:stedsnr" v="239583" />
	</node>
	<node lat="60.119105559250016" lon="12.037488892707085" id="-18102">
		<tag k="name" v="Nesimyra" />
		<tag k="natural" v="wetland" />
		<tag k="ssr:stedsnr" v="239584" />
	</node>
	<node lat="60.22551388974063" lon="12.461522214946708" id="-18105">
		<tag k="name" v="Bolnesmyra" />
		<tag k="natural" v="wetland" />
		<tag k="ssr:stedsnr" v="241128" />
	</node>
	<node lat="60.272091666312114" lon="12.448083338611323" id="-18106">
		<tag k="name" v="Bennalabbanso" />
		<tag k="natural" v="wetland" />
		<tag k="ssr:stedsnr" v="241378" />
	</node>
	<node lat="60.26453333440216" lon="12.394297222993494" id="-18109">
		<tag k="name" v="Anderslågmyra" />
		<tag k="natural" v="wetland" />
		<tag k="ssr:stedsnr" v="241922" />
	</node>
	<node lat="60.09215833690927" lon="12.448872219121657" id="-18116">
		<tag k="name" v="Persbråtamyra" />
		<tag k="natural" v="wetland" />
		<tag k="ssr:stedsnr" v="248071" />
	</node>
	<node lat="60.09798611275881" lon="11.920752775482772" id="-18130">
		<tag k="name" v="Furukollmyrene" />
		<tag k="natural" v="wetland" />
		<tag k="ssr:stedsnr" v="248521" />
	</node>
	<node lat="60.13842500321614" lon="12.356824998806" id="-18141">
		<tag k="name" v="Klingemyra" />
		<tag k="natural" v="wetland" />
		<tag k="ssr:stedsnr" v="248966" />
	</node>
	<node lat="60.1411861154172" lon="12.405766670634845" id="-18151">
		<tag k="name" v="Stjernhullmyra" />
		<tag k="natural" v="wetland" />
		<tag k="ssr:stedsnr" v="282782" />
	</node>
	<node lat="60.28348055164164" lon="11.945686108283391" id="-18154">
		<tag k="name" v="Gunhildmyra" />
		<tag k="natural" v="wetland" />
		<tag k="ssr:stedsnr" v="284532" />
	</node>
	<node lat="59.98454444365573" lon="12.354738886636815" id="-18155">
		<tag k="name" v="Linnerudmyra" />
		<tag k="natural" v="wetland" />
		<tag k="ssr:stedsnr" v="284805" />
	</node>
	<node lat="60.17061388562782" lon="12.467258339598734" id="-18166">
		<tag k="name" v="Hennasuo" />
		<tag k="natural" v="wetland" />
		<tag k="ssr:stedsnr" v="298181" />
	</node>
	<node lat="60.183752777183024" lon="12.220163892425441" id="-18172">
		<tag k="name" v="Skymyra" />
		<tag k="natural" v="wetland" />
		<tag k="ssr:stedsnr" v="298383" />
	</node>
	<node lat="60.20841944079552" lon="12.201538893238476" id="-18173">
		<tag k="name" v="Østre Bjørnmyra" />
		<tag k="natural" v="wetland" />
		<tag k="ssr:stedsnr" v="298385" />
	</node>
	<node lat="60.241227775165825" lon="12.33369999821626" id="-18182">
		<tag k="name" v="Kumyra" />
		<tag k="natural" v="wetland" />
		<tag k="ssr:stedsnr" v="298985" />
	</node>
	<node lat="60.2539833303705" lon="12.294416669799599" id="-18183">
		<tag k="name" v="Klemmetsmyra" />
		<tag k="natural" v="wetland" />
		<tag k="ssr:stedsnr" v="298989" />
	</node>
	<node lat="60.34102777765064" lon="12.14504444326955" id="-18187">
		<tag k="landuse" v="quarry" />
		<tag k="name" v="Pukkverket" />
		<tag k="ssr:stedsnr" v="300211" />
	</node>
	<node lat="60.14220555984429" lon="12.510855556021696" id="-18193">
		<tag k="name" v="Koddasuo" />
		<tag k="natural" v="wetland" />
		<tag k="ssr:stedsnr" v="301204" />
	</node>
	<node lat="60.223269440478255" lon="12.369858337527516" id="-18195">
		<tag k="name" v="Borthusbråten" />
		<tag k="place" v="locality" />
		<tag k="ssr:stedsnr" v="300972" />
	</node>
	<node lat="60.27594721938739" lon="12.275558340362057" id="-18200">
		<tag k="name" v="Gortjennsmyra" />
		<tag k="natural" v="wetland" />
		<tag k="ssr:stedsnr" v="464533" />
	</node>
	<node lat="60.11706666422801" lon="12.35330556025848" id="-18201">
		<tag k="name" v="Abbortjennmyra" />
		<tag k="natural" v="wetland" />
		<tag k="ssr:stedsnr" v="464751" />
	</node>
	<node lat="60.1905333311033" lon="12.034611110566878" id="-18209">
		<tag k="landuse" v="meadow" />
		<tag k="name" v="Engene" />
		<tag k="ssr:stedsnr" v="466129" />
	</node>
	<node lat="60.23503610722515" lon="11.973447227385309" id="-18222">
		<tag k="name" v="Aksalmyrene" />
		<tag k="natural" v="wetland" />
		<tag k="ssr:stedsnr" v="309013" />
	</node>
	<node lat="60.03296111532001" lon="12.342436105620111" id="-18223">
		<tag k="name" v="Eikåsmyra" />
		<tag k="natural" v="wetland" />
		<tag k="ssr:stedsnr" v="309016" />
	</node>
	<node lat="60.22237500303613" lon="12.340805557736191" id="-18233">
		<tag k="name" v="Femostormyra" />
		<tag k="natural" v="wetland" />
		<tag k="ssr:stedsnr" v="309805" />
	</node>
	<node lat="60.24800277804173" lon="12.312599999549722" id="-18236">
		<tag k="alt_name" v="Kvåomyra" />
		<tag k="name" v="Kvao" />
		<tag k="natural" v="wetland" />
		<tag k="ssr:stedsnr" v="309844" />
	</node>
	<node lat="60.12408611120143" lon="11.914219439945793" id="-18239">
		<tag k="name" v="Rallerudmyra" />
		<tag k="natural" v="wetland" />
		<tag k="ssr:stedsnr" v="309597" />
	</node>
	<node lat="60.31923888985089" lon="11.888166674221143" id="-18249">
		<tag k="name" v="Furukongmyra" />
		<tag k="natural" v="wetland" />
		<tag k="ssr:stedsnr" v="466290" />
	</node>
	<node lat="60.23388055416741" lon="12.139775000241475" id="-18251">
		<tag k="name" v="Liaslotten" />
		<tag k="natural" v="wetland" />
		<tag k="ssr:stedsnr" v="466197" />
	</node>
	<node lat="60.09980000089195" lon="12.333519439009446" id="-18256">
		<tag k="name" v="Brennamyra" />
		<tag k="natural" v="wetland" />
		<tag k="ssr:stedsnr" v="466795" />
	</node>
	<node lat="60.26168889286003" lon="11.994219448432483" id="-18262">
		<tag k="name" v="Skrømtholen" />
		<tag k="place" v="locality" />
		<tag k="ssr:stedsnr" v="466987" />
	</node>
	<node lat="60.27460555783406" lon="11.994313885368937" id="-18265">
		<tag k="name" v="Blåkollmyra" />
		<tag k="natural" v="wetland" />
		<tag k="ssr:stedsnr" v="466998" />
	</node>
	<node lat="60.20681389199257" lon="12.406608339540298" id="-18272">
		<tag k="name" v="Jossimyra" />
		<tag k="natural" v="wetland" />
		<tag k="ssr:stedsnr" v="342948" />
	</node>
	<node lat="60.084825003395316" lon="12.47234721931476" id="-18273">
		<tag k="name" v="Lunnmyra" />
		<tag k="natural" v="wetland" />
		<tag k="ssr:stedsnr" v="343002" />
	</node>
	<node lat="60.11320833709733" lon="11.99691110635228" id="-18277">
		<tag k="name" v="Svartbekkmyra" />
		<tag k="natural" v="wetland" />
		<tag k="ssr:stedsnr" v="345116" />
	</node>
	<node lat="60.387347224513626" lon="12.297280553219167" id="-18281">
		<tag k="name" v="Lemmisslåtten" />
		<tag k="natural" v="wetland" />
		<tag k="ssr:stedsnr" v="345458" />
	</node>
	<node lat="60.07996111125261" lon="12.322644451986974" id="-18285">
		<tag k="name" v="Heia" />
		<tag k="place" v="locality" />
		<tag k="ssr:stedsnr" v="345820" />
	</node>
	<node lat="60.25806389090272" lon="11.991358331197553" id="-18290">
		<tag k="name" v="Nordre Totjennsmyra" />
		<tag k="natural" v="wetland" />
		<tag k="ssr:stedsnr" v="345978" />
	</node>
	<node lat="60.104988892791056" lon="12.455816658313639" id="-18295">
		<tag k="name" v="Maurmyra" />
		<tag k="natural" v="wetland" />
		<tag k="ssr:stedsnr" v="358221" />
	</node>
	<node lat="60.189758330203325" lon="12.207199992154775" id="-18297">
		<tag k="name" v="Storsteinmyra" />
		<tag k="natural" v="wetland" />
		<tag k="ssr:stedsnr" v="358398" />
	</node>
	<node lat="60.214669446584644" lon="12.195825008783904" id="-18298">
		<tag k="name" v="Vestre Orrmyra" />
		<tag k="natural" v="wetland" />
		<tag k="ssr:stedsnr" v="358402" />
	</node>
	<node lat="60.29756944500523" lon="11.949972224004105" id="-18299">
		<tag k="name" v="Gorromyra" />
		<tag k="natural" v="wetland" />
		<tag k="ssr:stedsnr" v="358556" />
	</node>
	<node lat="60.16190833132642" lon="12.037750008500513" id="-18300">
		<tag k="name" v="Olbergmyra" />
		<tag k="natural" v="wetland" />
		<tag k="ssr:stedsnr" v="358613" />
	</node>
	<node lat="60.33264721784862" lon="12.254219452983817" id="-18301">
		<tag k="name" v="Bonnemyra" />
		<tag k="natural" v="wetland" />
		<tag k="ssr:stedsnr" v="358660" />
	</node>
	<node lat="60.35201944164566" lon="12.13865278499183" id="-18306">
		<tag k="name" v="Smedtorpholen" />
		<tag k="place" v="locality" />
		<tag k="ssr:stedsnr" v="358966" />
	</node>
	<node lat="60.3637194428209" lon="12.304399993517741" id="-18309">
		<tag k="name" v="Kolhukholtet" />
		<tag k="place" v="locality" />
		<tag k="ssr:stedsnr" v="479021" />
	</node>
	<node lat="60.02767500008398" lon="12.42306111096712" id="-18311">
		<tag k="name" v="Raumyra" />
		<tag k="natural" v="wetland" />
		<tag k="ssr:stedsnr" v="369022" />
	</node>
	<node lat="60.31921666998915" lon="12.397550006305751" id="-18342">
		<tag k="name" v="Slåttmyra" />
		<tag k="natural" v="wetland" />
		<tag k="ssr:stedsnr" v="370278" />
	</node>
	<node lat="60.25548888880282" lon="11.991958327235931" id="-18345">
		<tag k="name" v="Totjennsmyra" />
		<tag k="natural" v="wetland" />
		<tag k="ssr:stedsnr" v="370460" />
	</node>
	<node lat="60.255405554281005" lon="11.943077785006347" id="-18348">
		<tag k="name" v="Vangmyra" />
		<tag k="natural" v="wetland" />
		<tag k="ssr:stedsnr" v="370468" />
	</node>
	<node lat="60.04103888969758" lon="12.330377778240038" id="-18352">
		<tag k="name" v="Grasbråten" />
		<tag k="place" v="locality" />
		<tag k="ssr:stedsnr" v="479656" />
	</node>
	<node lat="60.291102779573386" lon="12.302713896793836" id="-18353">
		<tag k="name" v="Damholen" />
		<tag k="place" v="locality" />
		<tag k="ssr:stedsnr" v="479932" />
	</node>
	<node lat="60.17290833536929" lon="12.223466673499404" id="-18356">
		<tag k="name" v="Fuglmyra" />
		<tag k="natural" v="wetland" />
		<tag k="ssr:stedsnr" v="480074" />
	</node>
	<node lat="60.22011388994205" lon="12.183944453388296" id="-18358">
		<tag k="name" v="Skjørmyrene" />
		<tag k="natural" v="wetland" />
		<tag k="ssr:stedsnr" v="480400" />
	</node>
	<node lat="60.36975278115284" lon="12.281502781367312" id="-18359">
		<tag k="name" v="Blekkemyra" />
		<tag k="natural" v="wetland" />
		<tag k="ssr:stedsnr" v="480534" />
	</node>
	<node lat="60.38990277579513" lon="12.28551111382557" id="-18360">
		<tag k="name" v="Porroso" />
		<tag k="natural" v="wetland" />
		<tag k="ssr:stedsnr" v="480541" />
	</node>
	<node lat="60.239219444562615" lon="12.294833337430628" id="-18361">
		<tag k="name" v="Steinmyra" />
		<tag k="natural" v="wetland" />
		<tag k="ssr:stedsnr" v="480992" />
	</node>
	<node lat="60.223838891862954" lon="12.134744442667532" id="-18373">
		<tag k="name" v="Åkremyra" />
		<tag k="natural" v="wetland" />
		<tag k="ssr:stedsnr" v="387196" />
	</node>
	<node lat="60.32494722354365" lon="12.392513892548306" id="-18378">
		<tag k="name" v="Orrmyra" />
		<tag k="natural" v="wetland" />
		<tag k="ssr:stedsnr" v="483112" />
	</node>
	<node lat="60.317269448215896" lon="12.378883339581813" id="-18379">
		<tag k="name" v="Raggestadmyra" />
		<tag k="natural" v="wetland" />
		<tag k="ssr:stedsnr" v="483117" />
	</node>
	<node lat="60.29323055923318" lon="12.051827777037461" id="-18384">
		<tag k="name" v="Blokkemyra" />
		<tag k="natural" v="wetland" />
		<tag k="ssr:stedsnr" v="483984" />
	</node>
	<node lat="60.120763890945135" lon="12.324661112872388" id="-18387">
		<tag k="name" v="Kalvbråtamyra" />
		<tag k="natural" v="wetland" />
		<tag k="ssr:stedsnr" v="403769" />
	</node>
	<node lat="60.10121388802862" lon="12.32749443556104" id="-18395">
		<tag k="name" v="Marnstumyra" />
		<tag k="natural" v="wetland" />
		<tag k="ssr:stedsnr" v="405805" />
	</node>
	<node lat="60.375344444974864" lon="12.30204444481091" id="-18397">
		<tag k="name" v="Bakkebråtan" />
		<tag k="place" v="locality" />
		<tag k="ssr:stedsnr" v="406495" />
	</node>
	<node lat="60.37420833000216" lon="12.315708324965607" id="-18398">
		<tag k="name" v="Konsulmyra" />
		<tag k="natural" v="wetland" />
		<tag k="ssr:stedsnr" v="406496" />
	</node>
	<node lat="60.163100000106326" lon="11.993075005213482" id="-18400">
		<tag k="name" v="Torkesmyra" />
		<tag k="natural" v="wetland" />
		<tag k="ssr:stedsnr" v="406617" />
	</node>
	<node lat="60.16254444815969" lon="12.185380558205608" id="-18405">
		<tag k="name" v="Tekstebakkmyra" />
		<tag k="natural" v="wetland" />
		<tag k="ssr:stedsnr" v="419109" />
	</node>
	<node lat="60.15517499936647" lon="12.479533327405472" id="-18406">
		<tag k="name" v="Thaursuo" />
		<tag k="natural" v="wetland" />
		<tag k="ssr:stedsnr" v="419195" />
	</node>
	<node lat="60.210566666261364" lon="12.162655559034421" id="-18410">
		<tag k="name" v="Lunnemyra" />
		<tag k="natural" v="wetland" />
		<tag k="ssr:stedsnr" v="419820" />
	</node>
	<node lat="60.17357222186631" lon="12.405988880350707" id="-18415">
		<tag k="name" v="Rønningsmyra" />
		<tag k="natural" v="wetland" />
		<tag k="ssr:stedsnr" v="419938" />
	</node>
	<node lat="60.25411110714146" lon="12.301494441608769" id="-18418">
		<tag k="name" v="Næverkrøllmyra" />
		<tag k="natural" v="wetland" />
		<tag k="ssr:stedsnr" v="419987" />
	</node>
	<node lat="60.25906388848818" lon="12.314216658876196" id="-18419">
		<tag k="name" v="Smørbråtan" />
		<tag k="place" v="locality" />
		<tag k="ssr:stedsnr" v="419988" />
	</node>
	<node lat="60.21229999824347" lon="11.937658324580543" id="-18426">
		<tag k="name" v="Grønnerudsanden" />
		<tag k="place" v="locality" />
		<tag k="ssr:stedsnr" v="422746" />
	</node>
	<node lat="60.301102776736066" lon="12.35086945250112" id="-18429">
		<tag k="name" v="Fallmyra" />
		<tag k="natural" v="wetland" />
		<tag k="ssr:stedsnr" v="423098" />
	</node>
	<node lat="60.29101944245988" lon="12.429211105414918" id="-18431">
		<tag k="name" v="Snøplogmyra" />
		<tag k="natural" v="wetland" />
		<tag k="ssr:stedsnr" v="423358" />
	</node>
	<node lat="60.146419442904744" lon="12.343963893001293" id="-18432">
		<tag k="name" v="Libråten" />
		<tag k="place" v="locality" />
		<tag k="ssr:stedsnr" v="423957" />
	</node>
	<node lat="60.1963833343983" lon="12.399858325218945" id="-18447">
		<tag k="name" v="Smalmyra" />
		<tag k="natural" v="wetland" />
		<tag k="ssr:stedsnr" v="490783" />
	</node>
	<node lat="60.20747500248306" lon="12.50465000284988" id="-18452">
		<tag k="name" v="Stormyra" />
		<tag k="natural" v="wetland" />
		<tag k="ssr:stedsnr" v="490793" />
	</node>
	<node lat="60.187905558463044" lon="12.4596444456056" id="-18454">
		<tag k="name" v="Varaldskogen" />
		<tag k="place" v="locality" />
		<tag k="ssr:stedsnr" v="490774" />
	</node>
	<node lat="60.09802500316336" lon="12.439800006263457" id="-18456">
		<tag k="name" v="Høymyra" />
		<tag k="natural" v="wetland" />
		<tag k="ssr:stedsnr" v="490894" />
	</node>
	<node lat="60.249322221362775" lon="12.070161104466449" id="-18466">
		<tag k="name" v="Steinsbølsmyra" />
		<tag k="natural" v="wetland" />
		<tag k="ssr:stedsnr" v="430053" />
	</node>
	<node lat="60.20055277705031" lon="12.194647218731744" id="-18467">
		<tag k="name" v="Hienso" />
		<tag k="natural" v="wetland" />
		<tag k="ssr:stedsnr" v="430058" />
	</node>
	<node lat="60.07086388879207" lon="12.401030562728987" id="-18468">
		<tag k="name" v="Hattholmyra" />
		<tag k="natural" v="wetland" />
		<tag k="ssr:stedsnr" v="430098" />
	</node>
	<node lat="60.2334999969396" lon="12.459975006151698" id="-18480">
		<tag k="name" v="Bergmyra" />
		<tag k="natural" v="wetland" />
		<tag k="ssr:stedsnr" v="430802" />
	</node>
	<node lat="60.38786719184916" lon="12.26949925148501" id="-18488">
		<tag k="alt_name" v="Råmyra, s;Råmyra, Søndre;Østre Skasdammyra;Råmyra" />
		<tag k="fixme" v="multiple name tags, choose one and add the other to alt_name" />
		<tag k="name" v="Søndre Råmyra;Skasdammyra" />
		<tag k="natural" v="wetland" />
		<tag k="ssr:stedsnr" v="431056" />
	</node>
	<node lat="60.26237499748853" lon="12.279763890813575" id="-18489">
		<tag k="name" v="Kubergskogen" />
		<tag k="place" v="locality" />
		<tag k="ssr:stedsnr" v="431207" />
	</node>
	<node lat="60.256169440109126" lon="12.105116665290717" id="-18501">
		<tag k="name" v="Kringermyra" />
		<tag k="natural" v="wetland" />
		<tag k="ssr:stedsnr" v="431447" />
	</node>
	<node lat="60.22340277530454" lon="12.471825004906187" id="-18516">
		<tag k="name" v="Kroklangmyra" />
		<tag k="natural" v="wetland" />
		<tag k="ssr:stedsnr" v="491798" />
	</node>
	<node lat="60.309130552719765" lon="12.447130548615997" id="-18523">
		<tag k="alt_name" v="Ormbergsstormyra" />
		<tag k="name" v="Stormyra" />
		<tag k="natural" v="wetland" />
		<tag k="ssr:stedsnr" v="492039" />
	</node>
	<node lat="60.19082499965509" lon="12.224575005274652" id="-18541">
		<tag k="name" v="Karvasso" />
		<tag k="natural" v="wetland" />
		<tag k="ssr:stedsnr" v="672789" />
	</node>
	<node lat="60.08710000360154" lon="12.35220278415654" id="-18546">
		<tag k="name" v="Raudmyra" />
		<tag k="natural" v="wetland" />
		<tag k="ssr:stedsnr" v="672898" />
	</node>
	<node lat="60.12380277703065" lon="12.409655560151597" id="-18551">
		<tag k="name" v="Lemyra" />
		<tag k="natural" v="wetland" />
		<tag k="ssr:stedsnr" v="672952" />
	</node>
	<node lat="60.12233611164554" lon="12.350169442454765" id="-18552">
		<tag k="alt_name" v="Snurrumyra" />
		<tag k="name" v="Snurumyrane" />
		<tag k="natural" v="wetland" />
		<tag k="ssr:stedsnr" v="672954" />
	</node>
	<node lat="60.34991666636245" lon="11.859283336054547" id="-18565">
		<tag k="name" v="Johannesmyra" />
		<tag k="natural" v="wetland" />
		<tag k="ssr:stedsnr" v="673287" />
	</node>
	<node lat="60.14280000450069" lon="12.148627774459944" id="-18579">
		<tag k="name" v="Hellerudmyra" />
		<tag k="natural" v="wetland" />
		<tag k="ssr:stedsnr" v="673596" />
	</node>
	<node lat="60.248705559700284" lon="12.328674996605995" id="-18582">
		<tag k="alt_name" v="Vedabråtastormyra" />
		<tag k="name" v="Stormyra" />
		<tag k="natural" v="wetland" />
		<tag k="ssr:stedsnr" v="673847" />
	</node>
	<node lat="60.21162500356807" lon="12.402399994584814" id="-18587">
		<tag k="name" v="Såiåmyra" />
		<tag k="natural" v="wetland" />
		<tag k="ssr:stedsnr" v="673800" />
	</node>
	<node lat="60.37254721789912" lon="12.058908333545409" id="-18598">
		<tag k="name" v="Tjennsmyra" />
		<tag k="natural" v="wetland" />
		<tag k="ssr:stedsnr" v="674341" />
	</node>
	<node lat="60.29499444219768" lon="12.265280558100425" id="-18600">
		<tag k="name" v="Lomtjennsmyra" />
		<tag k="natural" v="wetland" />
		<tag k="ssr:stedsnr" v="464522" />
	</node>
	<node lat="60.16640277375031" lon="11.99226666294866" id="-18607">
		<tag k="name" v="Fuglemyra" />
		<tag k="natural" v="wetland" />
		<tag k="ssr:stedsnr" v="466646" />
	</node>
	<node lat="60.20640832958548" lon="12.442236111105611" id="-18614">
		<tag k="name" v="Smalmyra" />
		<tag k="natural" v="wetland" />
		<tag k="ssr:stedsnr" v="479163" />
	</node>
	<node lat="60.20856944259198" lon="12.446149999962666" id="-18615">
		<tag k="name" v="Dammyra" />
		<tag k="natural" v="wetland" />
		<tag k="ssr:stedsnr" v="479171" />
	</node>
	<node lat="60.063455558247384" lon="12.453636104422202" id="-18616">
		<tag k="name" v="Dulpemyra" />
		<tag k="natural" v="wetland" />
		<tag k="ssr:stedsnr" v="479011" />
	</node>
	<node lat="60.20829721767549" lon="12.149563895688539" id="-18619">
		<tag k="name" v="Sæterberget" />
		<tag k="place" v="locality" />
		<tag k="ssr:stedsnr" v="480126" />
	</node>
	<node lat="60.22194444726952" lon="12.224719445867212" id="-18620">
		<tag k="name" v="Hengoppmyra" />
		<tag k="natural" v="wetland" />
		<tag k="ssr:stedsnr" v="480414" />
	</node>
	<node lat="60.1564194405873" lon="12.053380548275317" id="-18621">
		<tag k="name" v="Sjølimoen" />
		<tag k="place" v="locality" />
		<tag k="ssr:stedsnr" v="480610" />
	</node>
	<node lat="60.232380555962436" lon="11.973891662697728" id="-18623">
		<tag k="name" v="Søndre Aksalmyra" />
		<tag k="natural" v="wetland" />
		<tag k="ssr:stedsnr" v="480925" />
	</node>
	<node lat="60.250838886610566" lon="11.971419447694018" id="-18624">
		<tag k="name" v="Sæterbakka" />
		<tag k="place" v="locality" />
		<tag k="ssr:stedsnr" v="480959" />
	</node>
	<node lat="60.28975555374595" lon="12.132791665846595" id="-18629">
		<tag k="name" v="Brattåsmyra" />
		<tag k="natural" v="wetland" />
		<tag k="ssr:stedsnr" v="482205" />
	</node>
	<node lat="60.281719447032465" lon="12.066699993597227" id="-18633">
		<tag k="name" v="Fuglmyra" />
		<tag k="natural" v="wetland" />
		<tag k="ssr:stedsnr" v="483261" />
	</node>
	<node lat="60.285172221437264" lon="12.410805562559124" id="-18634">
		<tag k="name" v="Noppistormyra" />
		<tag k="natural" v="wetland" />
		<tag k="ssr:stedsnr" v="483359" />
	</node>
	<node lat="60.2851472250883" lon="12.445694453699444" id="-18635">
		<tag k="name" v="Skjæramyra" />
		<tag k="natural" v="wetland" />
		<tag k="ssr:stedsnr" v="483360" />
	</node>
	<node lat="60.21232777988403" lon="12.156250002685" id="-18644">
		<tag k="name" v="Stormyra" />
		<tag k="natural" v="wetland" />
		<tag k="ssr:stedsnr" v="490110" />
	</node>
	<node lat="60.12523611158368" lon="12.275394445108255" id="-18662">
		<tag k="name" v="Skimyra" />
		<tag k="natural" v="wetland" />
		<tag k="ssr:stedsnr" v="490946" />
	</node>
	<node lat="60.33777500206878" lon="12.146191675651783" id="-18665">
		<tag k="name" v="Rafjellmyra" />
		<tag k="natural" v="wetland" />
		<tag k="ssr:stedsnr" v="491308" />
	</node>
	<node lat="60.12827221829335" lon="11.977094447470007" id="-18675">
		<tag k="name" v="Holerfuglmyra" />
		<tag k="natural" v="wetland" />
		<tag k="ssr:stedsnr" v="491586" />
	</node>
	<node lat="60.16462499978328" lon="12.295974999412564" id="-18682">
		<tag k="name" v="Tobakmyra" />
		<tag k="natural" v="wetland" />
		<tag k="ssr:stedsnr" v="491993" />
	</node>
	<node lat="60.12477500270891" lon="11.951863892562475" id="-18690">
		<tag k="name" v="Gørrtjennet" />
		<tag k="place" v="locality" />
		<tag k="ssr:stedsnr" v="525713" />
	</node>
	<node lat="60.14580278056084" lon="12.374761114691669" id="-18693">
		<tag k="name" v="Stormyrhalsen" />
		<tag k="natural" v="wetland" />
		<tag k="ssr:stedsnr" v="525781" />
	</node>
	<node lat="60.218947221207124" lon="12.164550006849183" id="-18694">
		<tag k="name" v="Blokktjennsmyra" />
		<tag k="natural" v="wetland" />
		<tag k="ssr:stedsnr" v="527209" />
	</node>
	<node lat="60.16282777555464" lon="11.997713887708215" id="-18702">
		<tag k="name" v="Heimyra" />
		<tag k="natural" v="wetland" />
		<tag k="ssr:stedsnr" v="527629" />
	</node>
	<node lat="60.31110833048871" lon="12.187897215756482" id="-18703">
		<tag k="name" v="Lauvåsberget" />
		<tag k="place" v="locality" />
		<tag k="ssr:stedsnr" v="527641" />
	</node>
	<node lat="60.19833889275479" lon="12.437647224602571" id="-18710">
		<tag k="name" v="Torpa" />
		<tag k="place" v="locality" />
		<tag k="ssr:stedsnr" v="540171" />
	</node>
	<node lat="60.21084444132692" lon="12.46420832602153" id="-18711">
		<tag k="name" v="Høymyra" />
		<tag k="natural" v="wetland" />
		<tag k="ssr:stedsnr" v="540174" />
	</node>
	<node lat="60.16440833018719" lon="12.480836105451848" id="-18712">
		<tag k="name" v="Karpasuo" />
		<tag k="natural" v="wetland" />
		<tag k="ssr:stedsnr" v="540177" />
	</node>
	<node lat="60.173472222571796" lon="12.523258340785368" id="-18714">
		<tag k="name" v="Langmyra" />
		<tag k="natural" v="wetland" />
		<tag k="ssr:stedsnr" v="540186" />
	</node>
	<node lat="60.30484722588823" lon="12.440849993416347" id="-18718">
		<tag k="name" v="Børkebråtåstormyra" />
		<tag k="natural" v="wetland" />
		<tag k="ssr:stedsnr" v="540205" />
	</node>
	<node lat="60.29642499899359" lon="11.94367222706307" id="-18720">
		<tag k="name" v="Kaldhøla" />
		<tag k="natural" v="wetland" />
		<tag k="ssr:stedsnr" v="540522" />
	</node>
	<node lat="60.22998889117601" lon="12.014411110182929" id="-18725">
		<tag k="name" v="Krokengmyra" />
		<tag k="natural" v="wetland" />
		<tag k="ssr:stedsnr" v="540912" />
	</node>
	<node lat="60.289077776642756" lon="12.341894446465568" id="-18726">
		<tag k="name" v="Bruntjennsholen" />
		<tag k="place" v="locality" />
		<tag k="ssr:stedsnr" v="540920" />
	</node>
	<node lat="60.134369440306386" lon="12.473236117909481" id="-18742">
		<tag k="name" v="Aransuo" />
		<tag k="natural" v="wetland" />
		<tag k="ssr:stedsnr" v="544225" />
	</node>
	<node lat="60.045758334726486" lon="12.323324997725928" id="-18747">
		<tag k="name" v="Dolpa" />
		<tag k="natural" v="wetland" />
		<tag k="ssr:stedsnr" v="544678" />
	</node>
	<node lat="60.197249998422635" lon="12.423358341724358" id="-18779">
		<tag k="name" v="Møkkermyra" />
		<tag k="natural" v="wetland" />
		<tag k="ssr:stedsnr" v="551810" />
	</node>
	<node lat="60.215649999069406" lon="12.311624992033355" id="-18783">
		<tag k="name" v="Kopparsmyra" />
		<tag k="natural" v="wetland" />
		<tag k="ssr:stedsnr" v="551824" />
	</node>
	<node lat="60.25575555338036" lon="12.288200004904654" id="-18787">
		<tag k="name" v="Blåmyra" />
		<tag k="natural" v="wetland" />
		<tag k="ssr:stedsnr" v="552194" />
	</node>
	<node lat="60.259633329157246" lon="12.211416669407356" id="-18790">
		<tag k="name" v="Gudmundsmyrene" />
		<tag k="natural" v="wetland" />
		<tag k="ssr:stedsnr" v="552449" />
	</node>
	<node lat="60.293780553410066" lon="11.933408337286862" id="-18797">
		<tag k="name" v="Stormyra" />
		<tag k="natural" v="wetland" />
		<tag k="ssr:stedsnr" v="552556" />
	</node>
	<node lat="60.29907499741408" lon="12.176775002534022" id="-18798">
		<tag k="name" v="Røymyra" />
		<tag k="natural" v="wetland" />
		<tag k="ssr:stedsnr" v="688014" />
	</node>
	<node lat="60.345161114974964" lon="12.410147220790295" id="-18806">
		<tag k="name" v="Krokmyra" />
		<tag k="natural" v="wetland" />
		<tag k="ssr:stedsnr" v="586197" />
	</node>
	<node lat="60.14494722211029" lon="12.106694450015324" id="-18807">
		<tag k="name" v="Negardsmyra" />
		<tag k="natural" v="wetland" />
		<tag k="ssr:stedsnr" v="586811" />
	</node>
	<node lat="60.30642222212799" lon="12.300111104337553" id="-18809">
		<tag k="name" v="Langåsbrenna" />
		<tag k="place" v="locality" />
		<tag k="ssr:stedsnr" v="587106" />
	</node>
	<node lat="60.01335278201347" lon="12.342994453247096" id="-18818">
		<tag k="name" v="Fjørhanamyra" />
		<tag k="natural" v="wetland" />
		<tag k="ssr:stedsnr" v="587754" />
	</node>
	<node lat="60.107022220323685" lon="12.497950004005741" id="-18826">
		<tag k="name" v="Lystjennemyra" />
		<tag k="natural" v="wetland" />
		<tag k="ssr:stedsnr" v="600006" />
	</node>
	<node lat="60.32219444717922" lon="12.423749993951361" id="-18827">
		<tag k="name" v="Volla" />
		<tag k="place" v="locality" />
		<tag k="ssr:stedsnr" v="600197" />
	</node>
	<node lat="60.16683611474677" lon="12.497913887185689" id="-18829">
		<tag k="name" v="Mosemyra" />
		<tag k="natural" v="wetland" />
		<tag k="ssr:stedsnr" v="601148" />
	</node>
	<node lat="60.18894444888041" lon="12.456274991732778" id="-18830">
		<tag k="name" v="Ketton" />
		<tag k="place" v="locality" />
		<tag k="ssr:stedsnr" v="601163" />
	</node>
	<node lat="60.18592222397566" lon="12.471197225738825" id="-18832">
		<tag k="name" v="Thaursuo" />
		<tag k="natural" v="wetland" />
		<tag k="ssr:stedsnr" v="601166" />
	</node>
	<node lat="60.289766665645075" lon="11.94718611787495" id="-18834">
		<tag k="name" v="Åsmyra" />
		<tag k="natural" v="wetland" />
		<tag k="ssr:stedsnr" v="601508" />
	</node>
	<node lat="60.164113888528" lon="11.953297221858096" id="-18839">
		<tag k="name" v="Aurtjennmyra" />
		<tag k="natural" v="wetland" />
		<tag k="ssr:stedsnr" v="602752" />
	</node>
	<node lat="60.286294446361175" lon="12.404936115655758" id="-18846">
		<tag k="name" v="Slenghuskmyra" />
		<tag k="natural" v="wetland" />
		<tag k="ssr:stedsnr" v="604117" />
	</node>
	<node lat="60.26273333740283" lon="12.239519445758049" id="-18848">
		<tag k="name" v="Røyliholen" />
		<tag k="place" v="locality" />
		<tag k="ssr:stedsnr" v="605606" />
	</node>
	<node lat="60.23452499624838" lon="12.12385277914095" id="-18853">
		<tag k="name" v="Lemmyra" />
		<tag k="natural" v="wetland" />
		<tag k="ssr:stedsnr" v="612006" />
	</node>
	<node lat="60.20537499590192" lon="12.20052500654921" id="-18861">
		<tag k="alt_name" v="Langmyra" />
		<tag k="name" v="Langemyra" />
		<tag k="natural" v="wetland" />
		<tag k="ssr:stedsnr" v="612081" />
	</node>
	<node lat="60.17139999741702" lon="11.98425555222215" id="-18873">
		<tag k="name" v="Holtmyra" />
		<tag k="natural" v="wetland" />
		<tag k="ssr:stedsnr" v="612630" />
	</node>
	<node lat="60.244650000200245" lon="12.447230551730053" id="-18877">
		<tag k="name" v="Rakkaso" />
		<tag k="natural" v="wetland" />
		<tag k="ssr:stedsnr" v="612827" />
	</node>
	<node lat="60.35166388508155" lon="12.157199994583014" id="-18880">
		<tag k="name" v="Krokmyra" />
		<tag k="natural" v="wetland" />
		<tag k="ssr:stedsnr" v="613066" />
	</node>
	<node lat="60.307430555949715" lon="12.27861110710011" id="-18881">
		<tag k="name" v="Bjørnmyra" />
		<tag k="natural" v="wetland" />
		<tag k="ssr:stedsnr" v="613127" />
	</node>
	<node lat="60.30187777482562" lon="12.110144438719672" id="-18883">
		<tag k="name" v="Ulvmyra" />
		<tag k="natural" v="wetland" />
		<tag k="ssr:stedsnr" v="613501" />
	</node>
	<node lat="60.14664444413464" lon="12.357586112838897" id="-18890">
		<tag k="name" v="Ormrudsmyra" />
		<tag k="natural" v="wetland" />
		<tag k="ssr:stedsnr" v="646779" />
	</node>
	<node lat="60.13828888563966" lon="12.380047220465212" id="-18891">
		<tag k="name" v="Østre Brenna" />
		<tag k="place" v="locality" />
		<tag k="ssr:stedsnr" v="646782" />
	</node>
	<node lat="60.13261666833531" lon="12.398961117159846" id="-18893">
		<tag k="name" v="Fjørhanamyra" />
		<tag k="natural" v="wetland" />
		<tag k="ssr:stedsnr" v="646785" />
	</node>
	<node lat="60.33489722183463" lon="12.176677784997642" id="-18895">
		<tag k="name" v="Søndre Rogndalsmyra" />
		<tag k="natural" v="wetland" />
		<tag k="ssr:stedsnr" v="647682" />
	</node>
	<node lat="60.31181666646957" lon="12.29862222768006" id="-18896">
		<tag k="name" v="Vellmyra" />
		<tag k="natural" v="wetland" />
		<tag k="ssr:stedsnr" v="648106" />
	</node>
	<node lat="60.312733335413824" lon="11.915150000930323" id="-18901">
		<tag k="name" v="Veltberget" />
		<tag k="place" v="locality" />
		<tag k="ssr:stedsnr" v="648291" />
	</node>
	<node lat="60.36060555783569" lon="12.40229721628427" id="-18902">
		<tag k="name" v="Øvre Kalvbergsmyra" />
		<tag k="natural" v="wetland" />
		<tag k="ssr:stedsnr" v="707041" />
	</node>
	<node lat="60.09789722030792" lon="11.942233332250108" id="-18904">
		<tag k="name" v="Kølamilmyra" />
		<tag k="natural" v="wetland" />
		<tag k="ssr:stedsnr" v="648714" />
	</node>
	<node lat="60.07299721808151" lon="12.395883324119563" id="-18906">
		<tag k="name" v="Åkrokmyra" />
		<tag k="natural" v="wetland" />
		<tag k="ssr:stedsnr" v="648801" />
	</node>
	<node lat="60.27802499601018" lon="12.278608334340202" id="-18911">
		<tag k="historic" v="shieling" />
		<tag k="name" v="Halvardstuvollen" />
		<tag k="place" v="locality" />
		<tag k="ssr:stedsnr" v="707530" />
	</node>
	<node lat="60.32693888579445" lon="12.347355560317565" id="-18916">
		<tag k="name" v="Dulpemyra" />
		<tag k="natural" v="wetland" />
		<tag k="ssr:stedsnr" v="709080" />
	</node>
	<node lat="60.21349444542243" lon="12.50803333735634" id="-18917">
		<tag k="name" v="Silmakensuo" />
		<tag k="natural" v="wetland" />
		<tag k="ssr:stedsnr" v="661132" />
	</node>
	<node lat="60.16011110713429" lon="12.433174998093088" id="-18919">
		<tag k="name" v="Fjørsjømyra" />
		<tag k="natural" v="wetland" />
		<tag k="ssr:stedsnr" v="661191" />
	</node>
	<node lat="60.26878333029242" lon="12.471830548406341" id="-18922">
		<tag k="name" v="Rundmyrene" />
		<tag k="natural" v="wetland" />
		<tag k="ssr:stedsnr" v="661331" />
	</node>
	<node lat="60.10771666475355" lon="12.325430560187316" id="-18929">
		<tag k="name" v="Skullerudmyra" />
		<tag k="natural" v="wetland" />
		<tag k="ssr:stedsnr" v="661732" />
	</node>
	<node lat="60.34707777812197" lon="11.880338883664054" id="-18937">
		<tag k="name" v="Nilsmyra" />
		<tag k="natural" v="wetland" />
		<tag k="ssr:stedsnr" v="664042" />
	</node>
	<node lat="60.24601111162062" lon="12.23948054988933" id="-18939">
		<tag k="historic" v="shieling" />
		<tag k="name" v="Grobølsætra" />
		<tag k="place" v="locality" />
		<tag k="ssr:stedsnr" v="709459" />
	</node>
	<node lat="60.38020277761098" lon="12.303919453256235" id="-18946">
		<tag k="name" v="Krokmyra" />
		<tag k="natural" v="wetland" />
		<tag k="ssr:stedsnr" v="709477" />
	</node>
	<node lat="60.24539722191766" lon="12.198655547210768" id="-18949">
		<tag k="name" v="Ormbakkmyra" />
		<tag k="natural" v="wetland" />
		<tag k="ssr:stedsnr" v="709488" />
	</node>
	<node lat="60.117408329206484" lon="12.053522227576346" id="-18951">
		<tag k="name" v="Kallenga" />
		<tag k="place" v="locality" />
		<tag k="ssr:stedsnr" v="664554" />
	</node>
	<node lat="60.23027222017811" lon="12.310500006727464" id="-18962">
		<tag k="name" v="Trøskogen" />
		<tag k="place" v="locality" />
		<tag k="ssr:stedsnr" v="664985" />
	</node>
	<node lat="60.09726389235102" lon="12.34207222902392" id="-18969">
		<tag k="name" v="Vesledamtjennmyra" />
		<tag k="natural" v="wetland" />
		<tag k="ssr:stedsnr" v="709758" />
	</node>
	<node lat="60.19193611481345" lon="12.342694443173556" id="-18972">
		<tag k="name" v="Versetmyra" />
		<tag k="natural" v="wetland" />
		<tag k="ssr:stedsnr" v="709952" />
	</node>
	<node lat="60.09432500431855" lon="12.33035833419962" id="-18985">
		<tag k="name" v="Torvmyra" />
		<tag k="natural" v="wetland" />
		<tag k="ssr:stedsnr" v="672904" />
	</node>
	<node lat="60.2342472199759" lon="11.98890000703081" id="-18989">
		<tag k="name" v="Motjennsmyra" />
		<tag k="natural" v="wetland" />
		<tag k="ssr:stedsnr" v="673012" />
	</node>
	<node lat="60.281638885155" lon="12.356002777032344" id="-18997">
		<tag k="name" v="Lealsmyra" />
		<tag k="natural" v="wetland" />
		<tag k="ssr:stedsnr" v="673179" />
	</node>
	<node lat="60.13490000294215" lon="11.949991658996437" id="-19002">
		<tag k="name" v="Manmyrene" />
		<tag k="natural" v="wetland" />
		<tag k="ssr:stedsnr" v="673556" />
	</node>
	<node lat="60.13448889166064" lon="11.969844452329086" id="-19003">
		<tag k="name" v="Lierfuglmyra" />
		<tag k="natural" v="wetland" />
		<tag k="ssr:stedsnr" v="673557" />
	</node>
	<node lat="60.39140000433446" lon="12.29766666357168" id="-19005">
		<tag k="name" v="Mattesslåtten" />
		<tag k="natural" v="wetland" />
		<tag k="ssr:stedsnr" v="674035" />
	</node>
	<node lat="60.14393333446636" lon="12.388024998769088" id="-19006">
		<tag k="name" v="Smalmyra" />
		<tag k="natural" v="wetland" />
		<tag k="ssr:stedsnr" v="673957" />
	</node>
	<node lat="59.996341670345195" lon="12.368911119450956" id="-19012">
		<tag k="name" v="Hopholtet" />
		<tag k="place" v="locality" />
		<tag k="ssr:stedsnr" v="891781" />
	</node>
	<node lat="60.34615555751266" lon="12.385019449021756" id="-19013">
		<tag k="name" v="Teppa" />
		<tag k="place" v="locality" />
		<tag k="ssr:stedsnr" v="891078" />
	</node>
	<node lat="60.32663333220249" lon="12.36658610466229" id="-19014">
		<tag k="name" v="Brenna" />
		<tag k="place" v="locality" />
		<tag k="ssr:stedsnr" v="891086" />
	</node>
	<node lat="60.332661107269324" lon="12.33320833974931" id="-19017">
		<tag k="name" v="Sætermyra" />
		<tag k="natural" v="wetland" />
		<tag k="ssr:stedsnr" v="891095" />
	</node>
	<node lat="60.335374996352485" lon="12.29951110404432" id="-19019">
		<tag k="historic" v="shieling" />
		<tag k="name" v="Gammelvollen" />
		<tag k="place" v="locality" />
		<tag k="ssr:stedsnr" v="891098" />
	</node>
	<node lat="60.27855277566559" lon="12.152630553491194" id="-19021">
		<tag k="name" v="Ruslemyra" />
		<tag k="natural" v="wetland" />
		<tag k="ssr:stedsnr" v="891168" />
	</node>
	<node lat="60.25976944285834" lon="12.155302773579367" id="-19022">
		<tag k="name" v="Skrøvlingsmyra" />
		<tag k="natural" v="wetland" />
		<tag k="ssr:stedsnr" v="891172" />
	</node>
	<node lat="60.30560555618101" lon="12.297402783854466" id="-19024">
		<tag k="name" v="Folamyrholtet" />
		<tag k="place" v="locality" />
		<tag k="ssr:stedsnr" v="891120" />
	</node>
	<node lat="60.25896944764635" lon="12.20458889384385" id="-19027">
		<tag k="name" v="Gudmundsmyrene" />
		<tag k="natural" v="wetland" />
		<tag k="ssr:stedsnr" v="891473" />
	</node>
	<node lat="60.24199444610328" lon="12.187963883428134" id="-19028">
		<tag k="name" v="Kamillabråtan" />
		<tag k="place" v="locality" />
		<tag k="ssr:stedsnr" v="891487" />
	</node>
	<node lat="60.28610277765251" lon="11.952219445143468" id="-19030">
		<tag k="name" v="Merraholtet" />
		<tag k="place" v="locality" />
		<tag k="ssr:stedsnr" v="891542" />
	</node>
	<node lat="60.01413611083732" lon="12.344874992025524" id="-19031">
		<tag k="name" v="Fuglemyra" />
		<tag k="natural" v="wetland" />
		<tag k="ssr:stedsnr" v="891754" />
	</node>
	<node lat="60.19398889204161" lon="12.329930558434842" id="-19037">
		<tag k="name" v="Torvmyra" />
		<tag k="natural" v="wetland" />
		<tag k="ssr:stedsnr" v="891968" />
	</node>
	<node lat="60.125183333443346" lon="12.447772225113447" id="-19039">
		<tag k="name" v="Syvershogget" />
		<tag k="place" v="locality" />
		<tag k="ssr:stedsnr" v="892233" />
	</node>
	<node lat="60.12784166577381" lon="12.44492222412467" id="-19040">
		<tag k="name" v="Øster" />
		<tag k="place" v="locality" />
		<tag k="ssr:stedsnr" v="892234" />
	</node>
	<node lat="60.249791662703814" lon="12.278083330388501" id="-19042">
		<tag k="name" v="Moamyra" />
		<tag k="natural" v="wetland" />
		<tag k="ssr:stedsnr" v="892458" />
	</node>
	<node lat="60.25326666234508" lon="12.263083338994225" id="-19044">
		<tag k="name" v="Fjellsjøhøgda" />
		<tag k="place" v="locality" />
		<tag k="ssr:stedsnr" v="892452" />
	</node>
	<node lat="60.11915833221016" lon="11.932011114502084" id="-19053">
		<tag k="name" v="Kvenholtet" />
		<tag k="place" v="locality" />
		<tag k="ssr:stedsnr" v="707704" />
	</node>
	<node lat="60.208305557467405" lon="12.395099999975274" id="-19057">
		<tag k="name" v="Nedre Soyamyra" />
		<tag k="natural" v="wetland" />
		<tag k="ssr:stedsnr" v="707962" />
	</node>
	<node lat="60.1788805551342" lon="12.421102772083627" id="-19066">
		<tag k="name" v="Østre Pjelesuo" />
		<tag k="natural" v="wetland" />
		<tag k="ssr:stedsnr" v="722173" />
	</node>
	<node lat="60.26415555686824" lon="12.484147218439142" id="-19068">
		<tag k="name" v="Gårgiamænnikemyra" />
		<tag k="natural" v="wetland" />
		<tag k="ssr:stedsnr" v="722367" />
	</node>
	<node lat="60.147786106834154" lon="12.206100004787139" id="-19077">
		<tag k="name" v="Ulvemyra" />
		<tag k="natural" v="wetland" />
		<tag k="ssr:stedsnr" v="724077" />
	</node>
	<node lat="60.30465555539649" lon="12.1209722311774" id="-19078">
		<tag k="name" v="Brenna" />
		<tag k="place" v="locality" />
		<tag k="ssr:stedsnr" v="724210" />
	</node>
	<node lat="60.24897221812587" lon="12.088405563972202" id="-19080">
		<tag k="name" v="Prestegardsmyra" />
		<tag k="natural" v="wetland" />
		<tag k="ssr:stedsnr" v="725120" />
	</node>
	<node lat="60.2973250012256" lon="12.12020555810248" id="-19082">
		<tag k="name" v="Sotbråten" />
		<tag k="place" v="locality" />
		<tag k="ssr:stedsnr" v="725208" />
	</node>
	<node lat="60.29664167072657" lon="12.2091694520439" id="-19083">
		<tag k="historic" v="shieling" />
		<tag k="name" v="Brennsætra" />
		<tag k="place" v="locality" />
		<tag k="ssr:stedsnr" v="725674" />
	</node>
	<node lat="60.24437222047384" lon="11.92779445161484" id="-19084">
		<tag k="name" v="Øysætermyra" />
		<tag k="natural" v="wetland" />
		<tag k="ssr:stedsnr" v="726121" />
	</node>
	<node lat="60.10088610916058" lon="12.450825000383754" id="-19085">
		<tag k="name" v="Veslehøymyra" />
		<tag k="natural" v="wetland" />
		<tag k="ssr:stedsnr" v="726277" />
	</node>
	<node lat="60.337519441140884" lon="11.893672220445712" id="-19086">
		<tag k="name" v="Sætermarka" />
		<tag k="place" v="locality" />
		<tag k="ssr:stedsnr" v="726575" />
	</node>
	<node lat="60.224366664878154" lon="11.908636108743043" id="-19088">
		<tag k="name" v="Kvislermyra" />
		<tag k="natural" v="wetland" />
		<tag k="ssr:stedsnr" v="727200" />
	</node>
	<node lat="60.06103611385516" lon="12.309100003832226" id="-19091">
		<tag k="name" v="Romskog" />
		<tag k="place" v="locality" />
		<tag k="ssr:stedsnr" v="727640" />
	</node>
	<node lat="60.040074997479074" lon="12.31207500113362" id="-19094">
		<tag k="name" v="Deilemyra" />
		<tag k="natural" v="wetland" />
		<tag k="ssr:stedsnr" v="733012" />
	</node>
	<node lat="60.221466662759866" lon="12.036830549569382" id="-19098">
		<tag k="name" v="Raudstadmyra" />
		<tag k="natural" v="wetland" />
		<tag k="ssr:stedsnr" v="733124" />
	</node>
	<node lat="60.346083335661866" lon="12.331330548238448" id="-19112">
		<tag k="name" v="Litjennmyra" />
		<tag k="natural" v="wetland" />
		<tag k="ssr:stedsnr" v="734229" />
	</node>
	<node lat="60.28563055168549" lon="12.377619452682127" id="-19115">
		<tag k="name" v="Skjortehalsmyra" />
		<tag k="natural" v="wetland" />
		<tag k="ssr:stedsnr" v="734189" />
	</node>
	<node lat="60.31663889017324" lon="12.16085833178664" id="-19119">
		<tag k="name" v="Bikkjemyra" />
		<tag k="natural" v="wetland" />
		<tag k="ssr:stedsnr" v="734493" />
	</node>
	<node lat="60.31708055427097" lon="12.452988883471741" id="-19125">
		<tag k="name" v="Skarabokkmyra" />
		<tag k="natural" v="wetland" />
		<tag k="ssr:stedsnr" v="904207" />
	</node>
	<node lat="60.32719444115755" lon="12.10891666091438" id="-19131">
		<tag k="name" v="Bjerkerotmyra" />
		<tag k="natural" v="wetland" />
		<tag k="ssr:stedsnr" v="905047" />
	</node>
	<node lat="60.21508610831776" lon="12.522194444465558" id="-19135">
		<tag k="name" v="Harravamyrene" />
		<tag k="natural" v="wetland" />
		<tag k="ssr:stedsnr" v="905143" />
	</node>
	<node lat="60.21500832940196" lon="12.457833331835818" id="-19137">
		<tag k="name" v="Gammeltorpet" />
		<tag k="place" v="locality" />
		<tag k="ssr:stedsnr" v="905167" />
	</node>
	<node lat="60.225741662969284" lon="12.194322229856253" id="-19139">
		<tag k="name" v="Furukongmyra" />
		<tag k="natural" v="wetland" />
		<tag k="ssr:stedsnr" v="905425" />
	</node>
	<node lat="60.299544440208734" lon="11.943263893091538" id="-19142">
		<tag k="name" v="Sjutjennsmyra" />
		<tag k="natural" v="wetland" />
		<tag k="ssr:stedsnr" v="905559" />
	</node>
	<node lat="60.21486388592189" lon="12.174838894477967" id="-19144">
		<tag k="name" v="Hesthaugmyra" />
		<tag k="natural" v="wetland" />
		<tag k="ssr:stedsnr" v="905835" />
	</node>
	<node lat="60.193236114776134" lon="12.151713882854398" id="-19145">
		<tag k="name" v="Ballrossmyra" />
		<tag k="natural" v="wetland" />
		<tag k="ssr:stedsnr" v="905842" />
	</node>
	<node lat="60.15616666436372" lon="12.345361102735197" id="-19146">
		<tag k="name" v="Møkeråsen" />
		<tag k="place" v="locality" />
		<tag k="ssr:stedsnr" v="905941" />
	</node>
	<node lat="60.16892777903202" lon="12.320736112459715" id="-19147">
		<tag k="name" v="Geitmyra" />
		<tag k="natural" v="wetland" />
		<tag k="ssr:stedsnr" v="905946" />
	</node>
	<node lat="60.262741666654364" lon="11.954811117721427" id="-19155">
		<tag k="name" v="Rundmyra" />
		<tag k="natural" v="wetland" />
		<tag k="ssr:stedsnr" v="907142" />
	</node>
	<node lat="60.147408330642456" lon="12.094080551936425" id="-19156">
		<tag k="name" v="Bjørnholtet" />
		<tag k="place" v="locality" />
		<tag k="ssr:stedsnr" v="768820" />
	</node>
	<node lat="60.304158332673076" lon="11.91143611231564" id="-19160">
		<tag k="name" v="Solbergsholen" />
		<tag k="place" v="locality" />
		<tag k="ssr:stedsnr" v="770256" />
	</node>
	<node lat="60.230133331679106" lon="12.131505549754738" id="-19161">
		<tag k="name" v="Haugermyra" />
		<tag k="natural" v="wetland" />
		<tag k="ssr:stedsnr" v="770168" />
	</node>
	<node lat="60.25048333576505" lon="12.195644442364847" id="-19162">
		<tag k="name" v="Ilberget" />
		<tag k="place" v="locality" />
		<tag k="ssr:stedsnr" v="770467" />
	</node>
	<node lat="60.130813890035334" lon="12.374786111801939" id="-19166">
		<tag k="name" v="Grønntjennmyra" />
		<tag k="natural" v="wetland" />
		<tag k="ssr:stedsnr" v="907730" />
	</node>
	<node lat="60.32942777553172" lon="11.97049444230849" id="-19167">
		<tag k="name" v="Rudskjærene" />
		<tag k="place" v="locality" />
		<tag k="ssr:stedsnr" v="907739" />
	</node>
	<node lat="60.20477222075679" lon="11.933269450705257" id="-19169">
		<tag k="name" v="Åsumbrenna" />
		<tag k="place" v="locality" />
		<tag k="ssr:stedsnr" v="907693" />
	</node>
	<node lat="60.100594444056995" lon="12.437708336339094" id="-19172">
		<tag k="name" v="Høymyrhalsen" />
		<tag k="natural" v="wetland" />
		<tag k="ssr:stedsnr" v="908273" />
	</node>
	<node lat="60.139372218766994" lon="12.485019451464293" id="-19173">
		<tag k="name" v="Siggasuo" />
		<tag k="natural" v="wetland" />
		<tag k="ssr:stedsnr" v="908228" />
	</node>
	<node lat="60.14303333141205" lon="12.502972229392624" id="-19174">
		<tag k="name" v="Mæksuo" />
		<tag k="natural" v="wetland" />
		<tag k="ssr:stedsnr" v="908229" />
	</node>
	<node lat="60.331030558461805" lon="11.929522225424728" id="-19178">
		<tag k="name" v="Kringelsberget" />
		<tag k="place" v="locality" />
		<tag k="ssr:stedsnr" v="908583" />
	</node>
	<node lat="60.348161108359236" lon="11.865272225573726" id="-19182">
		<tag k="name" v="Stormyra" />
		<tag k="natural" v="wetland" />
		<tag k="ssr:stedsnr" v="909325" />
	</node>
	<node lat="60.3465166642996" lon="11.845180548090266" id="-19183">
		<tag k="name" v="Aurdulpberget" />
		<tag k="place" v="locality" />
		<tag k="ssr:stedsnr" v="909326" />
	</node>
	<node lat="60.14607777528327" lon="12.351891661366533" id="-19184">
		<tag k="name" v="Ospelia" />
		<tag k="place" v="locality" />
		<tag k="ssr:stedsnr" v="909939" />
	</node>
	<node lat="60.15838055287655" lon="12.50587777105078" id="-19186">
		<tag k="name" v="Kverndalsmyra" />
		<tag k="natural" v="wetland" />
		<tag k="ssr:stedsnr" v="783148" />
	</node>
	<node lat="60.37673889081109" lon="12.28222500263982" id="-19189">
		<tag k="name" v="Bendiken" />
		<tag k="place" v="locality" />
		<tag k="ssr:stedsnr" v="783507" />
	</node>
	<node lat="60.185750001573886" lon="12.25474444307865" id="-19190">
		<tag k="name" v="Vaismyra" />
		<tag k="natural" v="wetland" />
		<tag k="ssr:stedsnr" v="783408" />
	</node>
	<node lat="60.21533611148942" lon="12.181300001302573" id="-19191">
		<tag k="name" v="Tungamyra" />
		<tag k="natural" v="wetland" />
		<tag k="ssr:stedsnr" v="783414" />
	</node>
	<node lat="60.21162222375615" lon="12.182608329812886" id="-19192">
		<tag k="name" v="Furukongen" />
		<tag k="place" v="locality" />
		<tag k="ssr:stedsnr" v="783418" />
	</node>
	<node lat="60.23544999726254" lon="11.98164722727767" id="-19196">
		<tag k="name" v="Hyllsteinsdøssene" />
		<tag k="natural" v="wetland" />
		<tag k="ssr:stedsnr" v="783918" />
	</node>
	<node lat="60.27396111472368" lon="12.321700007465262" id="-19197">
		<tag k="name" v="Saltbekkmyrene" />
		<tag k="natural" v="wetland" />
		<tag k="ssr:stedsnr" v="783922" />
	</node>
	<node lat="60.1125999985469" lon="11.991394450981263" id="-19203">
		<tag k="name" v="Meksemyra" />
		<tag k="natural" v="wetland" />
		<tag k="ssr:stedsnr" v="785563" />
	</node>
	<node lat="60.354297221988475" lon="12.056197218217193" id="-19206">
		<tag k="name" v="Vålermyra" />
		<tag k="natural" v="wetland" />
		<tag k="ssr:stedsnr" v="785822" />
	</node>
	<node lat="60.16190833342191" lon="12.178647217353696" id="-19207">
		<tag k="name" v="Solandsmyra" />
		<tag k="natural" v="wetland" />
		<tag k="ssr:stedsnr" v="785789" />
	</node>
	<node lat="60.29122499585937" lon="12.386786113254898" id="-19208">
		<tag k="name" v="Merramyra" />
		<tag k="natural" v="wetland" />
		<tag k="ssr:stedsnr" v="787105" />
	</node>
	<node lat="60.28696388675515" lon="12.39857499557309" id="-19209">
		<tag k="name" v="Langsmalemyra" />
		<tag k="natural" v="wetland" />
		<tag k="ssr:stedsnr" v="787107" />
	</node>
	<node lat="60.14151666346882" lon="12.473486104219024" id="-19210">
		<tag k="name" v="Rensansuo" />
		<tag k="natural" v="wetland" />
		<tag k="ssr:stedsnr" v="787199" />
	</node>
	<node lat="60.149294448493485" lon="12.497361116503058" id="-19211">
		<tag k="name" v="Førstermyrene" />
		<tag k="natural" v="wetland" />
		<tag k="ssr:stedsnr" v="787201" />
	</node>
	<node lat="60.23432500117889" lon="12.403433334658361" id="-19212">
		<tag k="name" v="Løvtjennmyra" />
		<tag k="natural" v="wetland" />
		<tag k="ssr:stedsnr" v="787314" />
	</node>
	<node lat="60.22399999834984" lon="12.242783326696768" id="-19245">
		<tag k="name" v="Holmyra" />
		<tag k="natural" v="wetland" />
		<tag k="ssr:stedsnr" v="794811" />
	</node>
	<node lat="60.092786109520084" lon="12.3724500009031" id="-19250">
		<tag k="name" v="Klettmyra" />
		<tag k="natural" v="wetland" />
		<tag k="ssr:stedsnr" v="794880" />
	</node>
	<node lat="60.08490000433706" lon="12.358405547316508" id="-19251">
		<tag k="name" v="Fuglemyra" />
		<tag k="natural" v="wetland" />
		<tag k="ssr:stedsnr" v="794883" />
	</node>
	<node lat="60.08975000138558" lon="12.344174991404929" id="-19252">
		<tag k="name" v="Bringmyra" />
		<tag k="natural" v="wetland" />
		<tag k="ssr:stedsnr" v="794885" />
	</node>
	<node lat="60.28809166684079" lon="12.423952772912923" id="-19263">
		<tag k="name" v="Kvåvomyra" />
		<tag k="natural" v="wetland" />
		<tag k="ssr:stedsnr" v="795207" />
	</node>
	<node lat="60.3349944404992" lon="12.366888897269993" id="-19267">
		<tag k="name" v="Steinsvatnemyra" />
		<tag k="natural" v="wetland" />
		<tag k="ssr:stedsnr" v="795280" />
	</node>
	<node lat="60.07557500012114" lon="12.308450004880957" id="-19278">
		<tag k="name" v="Fuglemyrene" />
		<tag k="natural" v="wetland" />
		<tag k="ssr:stedsnr" v="915064" />
	</node>
	<node lat="60.09305000289689" lon="12.3479527860537" id="-19284">
		<tag k="name" v="Barbakkmyra" />
		<tag k="natural" v="wetland" />
		<tag k="ssr:stedsnr" v="915888" />
	</node>
	<node lat="60.16665000136957" lon="12.321705552152505" id="-19289">
		<tag k="name" v="Geitholtmyrene" />
		<tag k="natural" v="wetland" />
		<tag k="ssr:stedsnr" v="915746" />
	</node>
	<node lat="60.270000001231466" lon="12.30345000595798" id="-19306">
		<tag k="name" v="Grasbergmyra" />
		<tag k="natural" v="wetland" />
		<tag k="ssr:stedsnr" v="916199" />
	</node>
	<node lat="60.243980556866" lon="12.510199999503183" id="-19308">
		<tag k="name" v="Kvåomyra" />
		<tag k="natural" v="wetland" />
		<tag k="ssr:stedsnr" v="916849" />
	</node>
	<node lat="60.31428055825316" lon="12.344102781312069" id="-19338">
		<tag k="alt_name" v="Nybråtastormyra" />
		<tag k="name" v="Stormyra" />
		<tag k="natural" v="wetland" />
		<tag k="ssr:stedsnr" v="917044" />
	</node>
	<node lat="60.30354166882207" lon="12.30666944966262" id="-19344">
		<tag k="name" v="Skjærmyra" />
		<tag k="natural" v="wetland" />
		<tag k="ssr:stedsnr" v="831111" />
	</node>
	<node lat="60.17092222349528" lon="12.002386119347488" id="-19347">
		<tag k="name" v="Rognfloet" />
		<tag k="place" v="locality" />
		<tag k="ssr:stedsnr" v="831579" />
	</node>
	<node lat="60.22241111085606" lon="12.266097213854938" id="-19358">
		<tag k="name" v="Kvernberget" />
		<tag k="place" v="locality" />
		<tag k="ssr:stedsnr" v="844373" />
	</node>
	<node lat="60.22069166629827" lon="12.203972229843108" id="-19359">
		<tag k="name" v="Mengebergsmyra" />
		<tag k="natural" v="wetland" />
		<tag k="ssr:stedsnr" v="844383" />
	</node>
	<node lat="60.23105277389265" lon="12.196213884679079" id="-19360">
		<tag k="name" v="Surumyra" />
		<tag k="natural" v="wetland" />
		<tag k="ssr:stedsnr" v="844388" />
	</node>
	<node lat="60.228002775607365" lon="12.200044453178348" id="-19361">
		<tag k="name" v="Moltemyra" />
		<tag k="natural" v="wetland" />
		<tag k="ssr:stedsnr" v="844397" />
	</node>
	<node lat="60.199658335370465" lon="12.225088882055434" id="-19365">
		<tag k="name" v="Stormyra" />
		<tag k="natural" v="wetland" />
		<tag k="ssr:stedsnr" v="844415" />
	</node>
	<node lat="60.32601111561797" lon="12.242669439729175" id="-19368">
		<tag k="name" v="Smalmyra" />
		<tag k="natural" v="wetland" />
		<tag k="ssr:stedsnr" v="844673" />
	</node>
	<node lat="60.099502774474026" lon="11.975147217589404" id="-19376">
		<tag k="name" v="Kultarkjerret" />
		<tag k="place" v="locality" />
		<tag k="ssr:stedsnr" v="846580" />
	</node>
	<node lat="60.24410833133231" lon="12.353972228971918" id="-19381">
		<tag k="name" v="Sveinstorpmyra" />
		<tag k="natural" v="wetland" />
		<tag k="ssr:stedsnr" v="846985" />
	</node>
	<node lat="60.237263884787204" lon="12.097599992638632" id="-19382">
		<tag k="name" v="Peisholtet" />
		<tag k="place" v="locality" />
		<tag k="ssr:stedsnr" v="847210" />
	</node>
	<node lat="60.324580555520676" lon="12.38714722801331" id="-19383">
		<tag k="name" v="Dulpemyra" />
		<tag k="natural" v="wetland" />
		<tag k="ssr:stedsnr" v="848096" />
	</node>
	<node lat="60.2999333356474" lon="12.414688884890445" id="-19384">
		<tag k="name" v="Tekstebakkmyra" />
		<tag k="natural" v="wetland" />
		<tag k="ssr:stedsnr" v="848383" />
	</node>
	<node lat="60.08072499857247" lon="12.286638891012888" id="-19387">
		<tag k="name" v="Raudmyr" />
		<tag k="natural" v="wetland" />
		<tag k="ssr:stedsnr" v="848723" />
	</node>
	<node lat="60.25734167084647" lon="12.402352771235645" id="-19388">
		<tag k="name" v="Moranso" />
		<tag k="natural" v="wetland" />
		<tag k="ssr:stedsnr" v="848913" />
	</node>
	<node lat="60.101036106842656" lon="11.979005552780091" id="-19398">
		<tag k="name" v="Trettmyra" />
		<tag k="natural" v="wetland" />
		<tag k="ssr:stedsnr" v="855496" />
	</node>
	<node lat="60.19973055089747" lon="12.476952786033559" id="-19411">
		<tag k="name" v="Kottermyra" />
		<tag k="natural" v="wetland" />
		<tag k="ssr:stedsnr" v="855807" />
	</node>
	<node lat="60.15931388546745" lon="12.239833331550383" id="-19415">
		<tag k="name" v="Velandsmyra" />
		<tag k="natural" v="wetland" />
		<tag k="ssr:stedsnr" v="855991" />
	</node>
	<node lat="60.3030293032385" lon="12.396777650100507" id="-19418">
		<tag k="fixme" v="multiple name tags, choose one and add the other to alt_name" />
		<tag k="name" v="Stormyra;Tutjennsmyra" />
		<tag k="natural" v="wetland" />
		<tag k="ssr:stedsnr" v="856148" />
	</node>
	<node lat="60.351044443048146" lon="12.263763894040709" id="-19421">
		<tag k="alt_name" v="Gullhola" />
		<tag k="name" v="Gullholen" />
		<tag k="place" v="locality" />
		<tag k="ssr:stedsnr" v="856214" />
	</node>
	<node lat="60.33919166387516" lon="12.326983329956137" id="-19423">
		<tag k="name" v="Fallmyra" />
		<tag k="natural" v="wetland" />
		<tag k="ssr:stedsnr" v="856238" />
	</node>
	<node lat="60.14011389223901" lon="12.394938887200158" id="-19434">
		<tag k="name" v="Mosemyra" />
		<tag k="natural" v="wetland" />
		<tag k="ssr:stedsnr" v="889801" />
	</node>
	<node lat="60.13497222388423" lon="12.357208333908746" id="-19435">
		<tag k="name" v="Vestre Brenna" />
		<tag k="place" v="locality" />
		<tag k="ssr:stedsnr" v="889812" />
	</node>
	<node lat="60.24961944467063" lon="12.431783336760352" id="-19437">
		<tag k="name" v="Øvre Norinso" />
		<tag k="natural" v="wetland" />
		<tag k="ssr:stedsnr" v="890348" />
	</node>
	<node lat="60.01262777562736" lon="12.355777773011456" id="-19438">
		<tag k="name" v="Møllerenga" />
		<tag k="place" v="locality" />
		<tag k="ssr:stedsnr" v="891758" />
	</node>
	<node lat="60.341958336320346" lon="12.249741661571067" id="-19446">
		<tag k="name" v="Skybergbråtamyra" />
		<tag k="natural" v="wetland" />
		<tag k="ssr:stedsnr" v="892627" />
	</node>
	<node lat="60.07907222016069" lon="12.379922229450974" id="-19447">
		<tag k="name" v="Smalmyra" />
		<tag k="natural" v="wetland" />
		<tag k="ssr:stedsnr" v="892803" />
	</node>
	<node lat="60.09357777996077" lon="12.4580388889199" id="-19451">
		<tag k="name" v="Hattemyra" />
		<tag k="natural" v="wetland" />
		<tag k="ssr:stedsnr" v="905007" />
	</node>
	<node lat="60.189877782137906" lon="12.433397227200278" id="-19454">
		<tag k="name" v="Rotkaljo" />
		<tag k="place" v="locality" />
		<tag k="ssr:stedsnr" v="905151" />
	</node>
	<node lat="60.20296666244018" lon="12.216261108128283" id="-19455">
		<tag k="name" v="Halvvegstensmyra" />
		<tag k="natural" v="wetland" />
		<tag k="ssr:stedsnr" v="905450" />
	</node>
	<node lat="60.105716662803786" lon="12.351088883371316" id="-19458">
		<tag k="name" v="Lomtjennmyra" />
		<tag k="natural" v="wetland" />
		<tag k="ssr:stedsnr" v="905756" />
	</node>
	<node lat="60.16676111016677" lon="12.410661104137954" id="-19460">
		<tag k="name" v="Bjørnmyra" />
		<tag k="natural" v="wetland" />
		<tag k="ssr:stedsnr" v="905955" />
	</node>
	<node lat="60.369849996925424" lon="12.419955551394354" id="-19463">
		<tag k="name" v="Rajmyra" />
		<tag k="natural" v="wetland" />
		<tag k="ssr:stedsnr" v="907105" />
	</node>
	<node lat="60.089930552378874" lon="11.971069436965092" id="-19466">
		<tag k="name" v="Dølpemyra" />
		<tag k="natural" v="wetland" />
		<tag k="ssr:stedsnr" v="907550" />
	</node>
	<node lat="60.148636113957444" lon="12.002580563741272" id="-19468">
		<tag k="name" v="Kletta" />
		<tag k="place" v="locality" />
		<tag k="ssr:stedsnr" v="907567" />
	</node>
	<node lat="60.126838885517216" lon="12.403350007393172" id="-19470">
		<tag k="name" v="Basmoen" />
		<tag k="place" v="locality" />
		<tag k="ssr:stedsnr" v="907722" />
	</node>
	<node lat="60.12240277522817" lon="12.373330557456427" id="-19471">
		<tag k="name" v="Øverbymyra" />
		<tag k="natural" v="wetland" />
		<tag k="ssr:stedsnr" v="907726" />
	</node>
	<node lat="60.2191083347221" lon="12.37454999310189" id="-19475">
		<tag k="name" v="Vangen" />
		<tag k="place" v="locality" />
		<tag k="ssr:stedsnr" v="907971" />
	</node>
	<node lat="60.28919444893631" lon="11.931272219921665" id="-19482">
		<tag k="name" v="Stormyrhalsen" />
		<tag k="natural" v="wetland" />
		<tag k="ssr:stedsnr" v="909266" />
	</node>
	<node lat="60.08254999750742" lon="12.437150003751366" id="-19485">
		<tag k="name" v="Stormyra" />
		<tag k="natural" v="wetland" />
		<tag k="ssr:stedsnr" v="915097" />
	</node>
</osm>
