<?xml version="1.0" encoding="UTF-8"?>
<<<<<<< HEAD
<osm version="0.6" generator="osmapis">
	<node lat="60.19327500327632" lon="12.023105552455139" id="-13549">
		<tag k="name" v="Tråstad skanse" />
		<tag k="place" v="locality" />
		<tag k="ssr:stedsnr" v="176854" />
	</node>
	<node lat="60.271058329528366" lon="12.381194436557793" id="-13570">
		<tag k="name" v="Vatnartroa" />
		<tag k="place" v="locality" />
		<tag k="ssr:stedsnr" v="180908" />
	</node>
	<node lat="60.27052500001203" lon="12.382002779142203" id="-13571">
=======
<osm generator="osmapis" version="0.6">
	<node id="-299071" lat="60.270525" lon="12.3820027791">
>>>>>>> e1d4bc35ff8a6074a6f2e91616a996b547c36f15
		<tag k="name" v="Hokåssætersvingen" />
		<tag k="place" v="locality" />
		<tag k="ssr:stedsnr" v="180909" />
	</node>
<<<<<<< HEAD
	<node lat="60.34346388735135" lon="11.975083335529654" id="-14154">
		<tag k="amenity" v="community_centre" />
		<tag k="name" v="Breidablikk" />
		<tag k="ssr:stedsnr" v="464077" />
	</node>
	<node lat="60.31548055206826" lon="12.013788890926659" id="-14159">
		<tag k="amenity" v="place_of_worship" />
		<tag k="denomination" v="lutheran" />
		<tag k="name" v="Brandval kirke" />
		<tag k="religion" v="christian" />
		<tag k="ssr:stedsnr" v="674441" />
	</node>
	<node lat="60.110411113756975" lon="12.038736117621385" id="-14292">
		<tag k="name" v="Essen" />
		<tag k="place" v="locality" />
		<tag k="ssr:stedsnr" v="543578" />
	</node>
	<node lat="60.35552222141606" lon="12.344163882622134" id="-14472">
		<tag k="amenity" v="community_centre" />
		<tag k="name" v="Grendehuset" />
		<tag k="ssr:stedsnr" v="661038" />
	</node>
	<node lat="60.30016944368634" lon="12.275472214283871" id="-14567">
=======
	<node id="-299070" lat="60.2710583295" lon="12.3811944366">
		<tag k="name" v="Vatnartroa" />
		<tag k="place" v="locality" />
		<tag k="ssr:stedsnr" v="180908" />
	</node>
	<node id="-301013" lat="60.0460750029" lon="12.3724194457">
		<tag k="amenity" v="place_of_worship" />
		<tag k="fixme" v="specify religion=*, denomination=*, building=* etc" />
		<tag k="name" v="Brødbøl bedehus" />
		<tag k="ssr:stedsnr" v="180633" />
	</node>
	<node id="-300026" lat="60.2517722203" lon="12.4530416678">
		<tag k="amenity" v="community_centre" />
		<tag k="name" v="Finnheim" />
		<tag k="ssr:stedsnr" v="890347" />
	</node>
	<node id="-302393" lat="60.3080166668" lon="11.9480138822">
		<tag k="name" v="Saga" />
		<tag k="place" v="locality" />
		<tag k="ssr:stedsnr" v="965548" />
	</node>
	<node id="-299655" lat="60.3001694437" lon="12.2754722143">
		<tag k="amenity" v="place_of_worship" />
		<tag k="denomination" v="lutheran" />
		<tag k="name" v="Lundersæter kirke" />
		<tag k="religion" v="christian" />
		<tag k="ssr:stedsnr" v="674130" />
	</node>
	<node id="-301461" lat="60.2668250023" lon="12.4667805505">
		<tag k="name" v="Låntahåbakken" />
		<tag k="place" v="locality" />
		<tag k="ssr:stedsnr" v="419353" />
	</node>
	<node id="-301236" lat="60.199508329" lon="12.011605552">
		<tag k="name" v="Kongsvinger festning" />
		<tag k="ssr:stedsnr" v="327284" />
		<tag k="tourism" v="attraction" />
	</node>
	<node id="-299663" lat="60.3154805521" lon="12.0137888909">
>>>>>>> e1d4bc35ff8a6074a6f2e91616a996b547c36f15
		<tag k="amenity" v="place_of_worship" />
		<tag k="denomination" v="lutheran" />
		<tag k="name" v="Lundersæter kirke" />
		<tag k="religion" v="christian" />
		<tag k="ssr:stedsnr" v="674130" />
	</node>
<<<<<<< HEAD
	<node lat="60.19487500126917" lon="12.010494443340406" id="-14667">
=======
	<node id="-299950" lat="60.1948750013" lon="12.0104944433">
>>>>>>> e1d4bc35ff8a6074a6f2e91616a996b547c36f15
		<tag k="amenity" v="place_of_worship" />
		<tag k="denomination" v="lutheran" />
		<tag k="name" v="Vinger kirke" />
		<tag k="religion" v="christian" />
		<tag k="ssr:stedsnr" v="734092" />
	</node>
<<<<<<< HEAD
	<node lat="60.09461666885335" lon="12.30400278126715" id="-14907">
		<tag k="amenity" v="community_centre" />
		<tag k="name" v="Skytterhuset" />
		<tag k="ssr:stedsnr" v="831714" />
	</node>
	<node lat="60.25177222025045" lon="12.453041667783962" id="-14993">
		<tag k="amenity" v="community_centre" />
		<tag k="name" v="Finnheim" />
		<tag k="ssr:stedsnr" v="890347" />
	</node>
	<node lat="60.25346666809543" lon="12.056447229563585" id="-15007">
=======
	<node id="-300332" lat="60.2534666681" lon="12.0564472296">
>>>>>>> e1d4bc35ff8a6074a6f2e91616a996b547c36f15
		<tag k="amenity" v="place_of_worship" />
		<tag k="denomination" v="lutheran" />
		<tag k="name" v="Roverud kirke" />
		<tag k="religion" v="christian" />
		<tag k="ssr:stedsnr" v="904412" />
<<<<<<< HEAD
=======
	</node>
	<node id="-300972" lat="60.1932750033" lon="12.0231055525">
		<tag k="name" v="Tråstad skanse" />
		<tag k="place" v="locality" />
		<tag k="ssr:stedsnr" v="176854" />
	</node>
	<node id="-299467" lat="60.3555222214" lon="12.3441638826">
		<tag k="amenity" v="community_centre" />
		<tag k="name" v="Grendehuset" />
		<tag k="ssr:stedsnr" v="661038" />
	</node>
	<node id="-301417" lat="60.1016361153" lon="12.3249583382">
		<tag k="amenity" v="place_of_worship" />
		<tag k="denomination" v="lutheran" />
		<tag k="name" v="Austmarka kirke" />
		<tag k="religion" v="christian" />
		<tag k="ssr:stedsnr" v="394673" />
	</node>
	<node id="-301639" lat="60.1104111138" lon="12.0387361176">
		<tag k="name" v="Essen" />
		<tag k="place" v="locality" />
		<tag k="ssr:stedsnr" v="543578" />
	</node>
	<node id="-302188" lat="60.0946166689" lon="12.3040027813">
		<tag k="amenity" v="community_centre" />
		<tag k="name" v="Skytterhuset" />
		<tag k="ssr:stedsnr" v="831714" />
	</node>
	<node id="-299141" lat="60.3434638874" lon="11.9750833355">
		<tag k="amenity" v="community_centre" />
		<tag k="name" v="Breidablikk" />
		<tag k="ssr:stedsnr" v="464077" />
	</node>
	<node id="-300806" lat="60.198100001" lon="12.0045083379">
		<tag k="name" v="Rolighet" />
		<tag k="ssr:stedsnr" v="116857" />
		<tag k="tourism" v="museum" />
	</node>
	<node id="-300770" lat="60.1170500035" lon="12.452261117">
		<tag k="amenity" v="community_centre" />
		<tag k="name" v="Varald Samfunnshus" />
		<tag k="ssr:stedsnr" v="103249" />
	</node>
	<node id="-300769" lat="60.1196444413" lon="12.4491611047">
		<tag k="amenity" v="place_of_worship" />
		<tag k="fixme" v="specify religion=*, denomination=*, building=* etc" />
		<tag k="name" v="Varald bedehus" />
		<tag k="ssr:stedsnr" v="103247" />
>>>>>>> e1d4bc35ff8a6074a6f2e91616a996b547c36f15
	</node>
</osm>
