<?xml version="1.0" encoding="UTF-8"?>
<osm version="0.6" generator="osmapis">
	<node lat="60.20879166331927" lon="11.926227775442456" id="-13168">
		<tag k="name" v="Nedre Åssum" />
		<tag k="place" v="farm" />
		<tag k="ssr:stedsnr" v="229648" />
	</node>
	<node lat="60.10067778093821" lon="12.05875555314531" id="-13169">
		<tag k="name" v="Sjøstrand Camping" />
		<tag k="ssr:stedsnr" v="229655" />
		<tag k="tourism" v="camp_site" />
	</node>
	<node lat="60.0392888918761" lon="12.36121666367082" id="-13170">
		<tag k="name" v="Elvebakken" />
		<tag k="place" v="farm" />
		<tag k="ssr:stedsnr" v="5011" />
	</node>
	<node lat="60.07787777413053" lon="12.29889999703212" id="-13172">
		<tag k="name" v="Myrer" />
		<tag k="place" v="farm" />
		<tag k="ssr:stedsnr" v="5059" />
	</node>
	<node lat="60.19849166714052" lon="11.905205556368221" id="-13174">
		<tag k="name" v="Huvnes" />
		<tag k="place" v="farm" />
		<tag k="ssr:stedsnr" v="5064" />
	</node>
	<node lat="60.202546057097635" lon="11.987891243389123" id="-13175">
		<tag k="name" v="Langeland" />
		<tag k="place" v="hamlet" />
		<tag k="ssr:stedsnr" v="5067" />
	</node>
	<node lat="60.01166389040827" lon="12.373105547698302" id="-13177">
		<tag k="name" v="Nordre Halteigen" />
		<tag k="place" v="farm" />
		<tag k="ssr:stedsnr" v="5201" />
	</node>
	<node lat="60.05135278015082" lon="12.339649998824417" id="-13178">
		<tag k="name" v="Fallet" />
		<tag k="place" v="isolated_dwelling" />
		<tag k="ssr:stedsnr" v="5104" />
	</node>
	<node lat="60.17155277570579" lon="12.065652778168761" id="-13180">
		<tag k="alt_name" v="Overudsberget" />
		<tag k="name" v="Ovraberget" />
		<tag k="place" v="isolated_dwelling" />
		<tag k="ssr:stedsnr" v="5601" />
	</node>
	<node lat="60.11146667099438" lon="12.027602773010786" id="-13181">
		<tag k="alt_name" v="Holen" />
		<tag k="name" v="Nedre Sigernesholen" />
		<tag k="place" v="farm" />
		<tag k="ssr:stedsnr" v="5508" />
	</node>
	<node lat="60.14976874714663" lon="12.043588609228749" id="-13183">
		<tag k="fixme" v="consider place=hamlet" />
		<tag k="name" v="Lier" />
		<tag k="place" v="farm" />
		<tag k="ssr:stedsnr" v="5558" />
	</node>
	<node lat="60.17103142985563" lon="12.071579926092705" id="-13185">
		<tag k="alt_name" v="Nordre Kabberud" />
		<tag k="fixme" v="consider place=hamlet" />
		<tag k="name" v="Kabberud" />
		<tag k="place" v="farm" />
		<tag k="ssr:stedsnr" v="5569" />
	</node>
	<node lat="60.148366670658554" lon="11.941380556477474" id="-13186">
		<tag k="alt_name" v="Gravlia, nedre" />
		<tag k="name" v="Nedre Gravlia" />
		<tag k="place" v="isolated_dwelling" />
		<tag k="ssr:stedsnr" v="5580" />
	</node>
	<node lat="60.239297222352654" lon="12.115186102268135" id="-13190">
		<tag k="name" v="Kolemo" />
		<tag k="place" v="farm" />
		<tag k="ssr:stedsnr" v="6008" />
	</node>
	<node lat="60.227884104061886" lon="12.03287304381704" id="-13191">
		<tag k="fixme" v="consider place=hamlet" />
		<tag k="name" v="Søndre Raudstad" />
		<tag k="place" v="farm" />
		<tag k="ssr:stedsnr" v="6015" />
	</node>
	<node lat="60.186208334919634" lon="12.307583331436682" id="-13195">
		<tag k="name" v="Mengåa" />
		<tag k="place" v="farm" />
		<tag k="ssr:stedsnr" v="5761" />
	</node>
	<node lat="60.12059999728764" lon="12.45111944549863" id="-13199">
		<tag k="name" v="Varaldbakken" />
		<tag k="place" v="farm" />
		<tag k="ssr:stedsnr" v="5921" />
	</node>
	<node lat="60.14527500055193" lon="12.332199996151013" id="-13200">
		<tag k="name" v="Sætra" />
		<tag k="place" v="farm" />
		<tag k="ssr:stedsnr" v="5979" />
	</node>
	<node lat="60.302641662723005" lon="12.328608331001055" id="-13202">
		<tag k="name" v="Åberg" />
		<tag k="place" v="farm" />
		<tag k="ssr:stedsnr" v="6159" />
	</node>
	<node lat="60.330975003797796" lon="12.291619445238567" id="-13207">
		<tag k="name" v="Myrvang" />
		<tag k="place" v="isolated_dwelling" />
		<tag k="ssr:stedsnr" v="6259" />
	</node>
	<node lat="60.343761115106894" lon="11.899366658861316" id="-13209">
		<tag k="name" v="Kålhagen" />
		<tag k="place" v="locality" />
		<tag k="ssr:stedsnr" v="6268" />
	</node>
	<node lat="60.250502776285124" lon="12.356094441584931" id="-13212">
		<tag k="alt_name" v="Smedtorpet, s" />
		<tag k="name" v="Øvre Smedtorpet" />
		<tag k="place" v="farm" />
		<tag k="ssr:stedsnr" v="6868" />
	</node>
	<node lat="60.13752221805025" lon="12.083027785918155" id="-13221">
		<tag k="name" v="Kleivbakken" />
		<tag k="place" v="isolated_dwelling" />
		<tag k="ssr:stedsnr" v="237077" />
	</node>
	<node lat="60.13663888925678" lon="12.094322224628838" id="-13223">
		<tag k="name" v="Rinna" />
		<tag k="place" v="farm" />
		<tag k="ssr:stedsnr" v="237075" />
	</node>
	<node lat="60.2109694434182" lon="12.090980554473726" id="-13225">
		<tag k="name" v="Sønsterudbråten" />
		<tag k="place" v="farm" />
		<tag k="ssr:stedsnr" v="237152" />
	</node>
	<node lat="60.213919442582934" lon="12.092572228633284" id="-13226">
		<tag k="name" v="Østli" />
		<tag k="place" v="farm" />
		<tag k="ssr:stedsnr" v="237153" />
	</node>
	<node lat="60.204058330295574" lon="12.44395000311253" id="-13228">
		<tag k="name" v="Viker" />
		<tag k="place" v="isolated_dwelling" />
		<tag k="ssr:stedsnr" v="237156" />
	</node>
	<node lat="60.20139167024974" lon="12.43456388656709" id="-13230">
		<tag k="name" v="Nedre Aronstorp" />
		<tag k="place" v="farm" />
		<tag k="ssr:stedsnr" v="237158" />
	</node>
	<node lat="60.18391110835926" lon="12.008894439925584" id="-13234">
		<tag k="amenity" v="nursing_home" />
		<tag k="name" v="Holt aktivitetessenter" />
		<tag k="ssr:stedsnr" v="42116" />
	</node>
	<node lat="60.35311111329475" lon="12.022777773645117" id="-13237">
		<tag k="name" v="Engen" />
		<tag k="place" v="isolated_dwelling" />
		<tag k="ssr:stedsnr" v="42713" />
	</node>
	<node lat="60.35093333109929" lon="12.025086103882463" id="-13238">
		<tag k="name" v="Engen" />
		<tag k="place" v="farm" />
		<tag k="ssr:stedsnr" v="42723" />
	</node>
	<node lat="60.07468055122105" lon="12.368072218928917" id="-13239">
		<tag k="name" v="Engebråten" />
		<tag k="place" v="locality" />
		<tag k="ssr:stedsnr" v="42783" />
	</node>
	<node lat="60.08393055797717" lon="12.314775007106435" id="-13241">
		<tag k="name" v="Bråtan" />
		<tag k="place" v="farm" />
		<tag k="ssr:stedsnr" v="42795" />
	</node>
	<node lat="60.04246110759732" lon="12.356361116317723" id="-13246">
		<tag k="name" v="Bruket" />
		<tag k="place" v="farm" />
		<tag k="ssr:stedsnr" v="237669" />
	</node>
	<node lat="60.09395833684862" lon="12.31909999565202" id="-13250">
		<tag k="building" v="industrial" />
		<tag k="name" v="Holmen sag" />
		<tag k="ssr:stedsnr" v="237850" />
	</node>
	<node lat="60.19903888887739" lon="11.99918056333195" id="-13251">
		<tag k="name" v="Hexumløkka" />
		<tag k="place" v="quarter" />
		<tag k="ssr:stedsnr" v="237855" />
	</node>
	<node lat="60.24105277861692" lon="12.088244444057173" id="-13265">
		<tag k="name" v="Skjæret" />
		<tag k="place" v="farm" />
		<tag k="ssr:stedsnr" v="239174" />
	</node>
	<node lat="60.29738611337527" lon="12.200919453376294" id="-13268">
		<tag k="name" v="Bjørstutorpet" />
		<tag k="place" v="locality" />
		<tag k="ssr:stedsnr" v="239724" />
	</node>
	<node lat="60.34887777821541" lon="12.055466661422583" id="-13279">
		<tag k="name" v="Nordre Nor" />
		<tag k="place" v="farm" />
		<tag k="ssr:stedsnr" v="239846" />
	</node>
	<node lat="60.35341388580912" lon="12.052786116414675" id="-13282">
		<tag k="name" v="Haukerud" />
		<tag k="place" v="locality" />
		<tag k="ssr:stedsnr" v="239849" />
	</node>
	<node lat="60.2124277755721" lon="12.054905560891086" id="-13284">
		<tag k="name" v="Granerud" />
		<tag k="place" v="farm" />
		<tag k="ssr:stedsnr" v="55918" />
	</node>
	<node lat="60.16445277472384" lon="12.069738884143371" id="-13285">
		<tag k="name" v="Bergemellom" />
		<tag k="place" v="isolated_dwelling" />
		<tag k="ssr:stedsnr" v="239871" />
	</node>
	<node lat="60.143275000440056" lon="12.056313884318799" id="-13287">
		<tag k="name" v="Askehuset" />
		<tag k="place" v="farm" />
		<tag k="ssr:stedsnr" v="57570" />
	</node>
	<node lat="60.34412500317467" lon="12.016513881716724" id="-13290">
		<tag k="name" v="Bergli" />
		<tag k="place" v="isolated_dwelling" />
		<tag k="ssr:stedsnr" v="57770" />
	</node>
	<node lat="60.24031111313704" lon="11.897099999494865" id="-13295">
		<tag k="name" v="Gruhaugen" />
		<tag k="place" v="isolated_dwelling" />
		<tag k="ssr:stedsnr" v="240167" />
	</node>
	<node lat="60.357013889398566" lon="12.055844447071843" id="-13296">
		<tag k="name" v="Nedre Våler" />
		<tag k="place" v="farm" />
		<tag k="ssr:stedsnr" v="57820" />
	</node>
	<node lat="60.10924444727181" lon="12.046194438498393" id="-13300">
		<tag k="name" v="Nordre Bøslungen" />
		<tag k="place" v="farm" />
		<tag k="ssr:stedsnr" v="58824" />
	</node>
	<node lat="60.27635277804534" lon="12.371208341221683" id="-13310">
		<tag k="name" v="Søndre Ronkanstorpet" />
		<tag k="place" v="isolated_dwelling" />
		<tag k="ssr:stedsnr" v="59928" />
	</node>
	<node lat="60.291274999620654" lon="12.035838885153236" id="-13311">
		<tag k="name" v="Enga" />
		<tag k="place" v="locality" />
		<tag k="ssr:stedsnr" v="59971" />
	</node>
	<node lat="60.23620833385943" lon="11.932224995125962" id="-13322">
		<tag k="alt_name" v="Kalmyra" />
		<tag k="name" v="Kalmyr" />
		<tag k="place" v="farm" />
		<tag k="ssr:stedsnr" v="66014" />
	</node>
	<node lat="60.05905555826486" lon="12.34231666253326" id="-13329">
		<tag k="name" v="Nylende" />
		<tag k="place" v="farm" />
		<tag k="ssr:stedsnr" v="66098" />
	</node>
	<node lat="60.139491666950725" lon="12.084144441786655" id="-13331">
		<tag k="name" v="Oppgarden" />
		<tag k="place" v="farm" />
		<tag k="ssr:stedsnr" v="66511" />
	</node>
	<node lat="60.15688888776671" lon="12.14489166489578" id="-13332">
		<tag k="name" v="Gammelvangen" />
		<tag k="place" v="isolated_dwelling" />
		<tag k="ssr:stedsnr" v="66567" />
	</node>
	<node lat="60.10004780064911" lon="12.060106069327363" id="-13335">
		<tag k="fixme" v="consider place=hamlet" />
		<tag k="name" v="Ellingsrud" />
		<tag k="place" v="farm" />
		<tag k="ssr:stedsnr" v="66712" />
	</node>
	<node lat="60.10710000027068" lon="12.471499995006306" id="-13337">
		<tag k="name" v="Hagan" />
		<tag k="place" v="locality" />
		<tag k="ssr:stedsnr" v="66906" />
	</node>
	<node lat="60.147358331794074" lon="12.248416665112611" id="-13338">
		<tag k="fixme" v="multiple name tags, choose one and add the other to alt_name" />
		<tag k="name" v="Tråstadsætra;Kalvesæter" />
		<tag k="place" v="farm" />
		<tag k="ssr:stedsnr" v="66995" />
	</node>
	<node lat="60.190875002457894" lon="12.004133339631812" id="-13339">
		<tag k="amenity" v="school" />
		<tag k="name" v="Sentrum videregående skole" />
		<tag k="ssr:stedsnr" v="241626" />
	</node>
	<node lat="60.09411666706122" lon="12.326736104222837" id="-13340">
		<tag k="name" v="Jensmoen" />
		<tag k="place" v="farm" />
		<tag k="ssr:stedsnr" v="66866" />
	</node>
	<node lat="60.08724444864001" lon="12.323058339698344" id="-13341">
		<tag k="name" v="Hamar" />
		<tag k="place" v="farm" />
		<tag k="ssr:stedsnr" v="66869" />
	</node>
	<node lat="60.0845777797148" lon="12.320902775506395" id="-13342">
		<tag k="name" v="Fjell" />
		<tag k="place" v="isolated_dwelling" />
		<tag k="ssr:stedsnr" v="66870" />
	</node>
	<node lat="60.087036112393996" lon="12.31249721363564" id="-13343">
		<tag k="name" v="Hauger" />
		<tag k="place" v="isolated_dwelling" />
		<tag k="ssr:stedsnr" v="66873" />
	</node>
	<node lat="60.10808333762669" lon="12.292533332580895" id="-13347">
		<tag k="fixme" v="multiple name tags, choose one and add the other to alt_name" />
		<tag k="name" v="Vestli;Bakken" />
		<tag k="place" v="isolated_dwelling" />
		<tag k="ssr:stedsnr" v="66899" />
	</node>
	<node lat="60.109775003375795" lon="12.30493332543155" id="-13348">
		<tag k="name" v="Lundhaug" />
		<tag k="place" v="isolated_dwelling" />
		<tag k="ssr:stedsnr" v="66900" />
	</node>
	<node lat="60.339897226845274" lon="11.952486103394797" id="-13351">
		<tag k="name" v="Teigen" />
		<tag k="place" v="farm" />
		<tag k="ssr:stedsnr" v="67292" />
	</node>
	<node lat="60.27509444376335" lon="12.121802783077227" id="-13353">
		<tag k="alt_name" v="Hokåsmoen" />
		<tag k="name" v="Hokkåsmoen" />
		<tag k="place" v="farm" />
		<tag k="ssr:stedsnr" v="67406" />
	</node>
	<node lat="60.268458337509806" lon="11.999280561063326" id="-13354">
		<tag k="name" v="Myrvang" />
		<tag k="place" v="farm" />
		<tag k="ssr:stedsnr" v="67415" />
	</node>
	<node lat="60.26723611252986" lon="11.99048333979763" id="-13355">
		<tag k="name" v="Slettholen" />
		<tag k="place" v="locality" />
		<tag k="ssr:stedsnr" v="67417" />
	</node>
	<node lat="60.27661110666863" lon="12.13899444927457" id="-13356">
		<tag k="name" v="Hofoss" />
		<tag k="place" v="farm" />
		<tag k="ssr:stedsnr" v="67422" />
	</node>
	<node lat="60.25686389240715" lon="12.129136106312494" id="-13357">
		<tag k="name" v="Trangsrud" />
		<tag k="place" v="farm" />
		<tag k="ssr:stedsnr" v="67435" />
	</node>
	<node lat="60.256447221520034" lon="12.064338896155737" id="-13358">
		<tag k="alt_name" v="Tronbøl, vestre;Vestre Tronbøl" />
		<tag k="name" v="Søndre Tronbøl" />
		<tag k="place" v="farm" />
		<tag k="ssr:stedsnr" v="67445" />
	</node>
	<node lat="60.303777776283276" lon="12.199725000684765" id="-13361">
		<tag k="name" v="Østvoll" />
		<tag k="place" v="farm" />
		<tag k="ssr:stedsnr" v="67520" />
	</node>
	<node lat="60.03386944132201" lon="12.435111108775006" id="-13363">
		<tag k="name" v="Håkerudtomta" />
		<tag k="place" v="farm" />
		<tag k="ssr:stedsnr" v="248040" />
	</node>
	<node lat="60.01484444823934" lon="12.378902773167324" id="-13364">
		<tag k="name" v="Tangen" />
		<tag k="place" v="farm" />
		<tag k="ssr:stedsnr" v="248043" />
	</node>
	<node lat="60.082700004053116" lon="12.458183336634429" id="-13365">
		<tag k="name" v="Svartbekken" />
		<tag k="place" v="locality" />
		<tag k="ssr:stedsnr" v="248084" />
	</node>
	<node lat="60.07746110972799" lon="12.419288890771373" id="-13366">
		<tag k="name" v="Lindberget" />
		<tag k="place" v="farm" />
		<tag k="ssr:stedsnr" v="248086" />
	</node>
	<node lat="60.05574166832761" lon="12.34757500613368" id="-13367">
		<tag k="name" v="Ellefsrud" />
		<tag k="place" v="farm" />
		<tag k="ssr:stedsnr" v="248115" />
	</node>
	<node lat="60.348411110961905" lon="11.962497215832581" id="-13370">
		<tag k="name" v="Vestlund" />
		<tag k="place" v="farm" />
		<tag k="ssr:stedsnr" v="100018" />
	</node>
	<node lat="60.34960711896778" lon="11.995413018263221" id="-13373">
		<tag k="fixme" v="consider place=hamlet" />
		<tag k="name" v="Fjell" />
		<tag k="place" v="farm" />
		<tag k="ssr:stedsnr" v="248251" />
	</node>
	<node lat="60.30471388816192" lon="12.258952786157352" id="-13375">
		<tag k="name" v="Østli" />
		<tag k="place" v="isolated_dwelling" />
		<tag k="ssr:stedsnr" v="100602" />
	</node>
	<node lat="60.3173055602433" lon="12.328227770818245" id="-13377">
		<tag k="name" v="Nybråtan" />
		<tag k="place" v="farm" />
		<tag k="ssr:stedsnr" v="249129" />
	</node>
	<node lat="60.27984166897802" lon="12.00436667083101" id="-13378">
		<tag k="name" v="Bånerud" />
		<tag k="place" v="farm" />
		<tag k="ssr:stedsnr" v="248381" />
	</node>
	<node lat="60.15678055762163" lon="12.062983335472259" id="-13383">
		<tag k="name" v="Sjølimyra" />
		<tag k="place" v="farm" />
		<tag k="ssr:stedsnr" v="248581" />
	</node>
	<node lat="60.15850555925851" lon="12.011722224683488" id="-13384">
		<tag k="name" v="Tråstadrønningen" />
		<tag k="place" v="farm" />
		<tag k="ssr:stedsnr" v="248584" />
	</node>
	<node lat="60.16237499718924" lon="12.189080556469738" id="-13385">
		<tag k="name" v="Tekstebakken" />
		<tag k="place" v="farm" />
		<tag k="ssr:stedsnr" v="248588" />
	</node>
	<node lat="60.1433555537789" lon="12.172213888718776" id="-13387">
		<tag k="name" v="Gåsvika" />
		<tag k="place" v="isolated_dwelling" />
		<tag k="ssr:stedsnr" v="248597" />
	</node>
	<node lat="60.10452222113581" lon="12.026824999931238" id="-13389">
		<tag k="name" v="Bøslungsætra" />
		<tag k="place" v="farm" />
		<tag k="ssr:stedsnr" v="248533" />
	</node>
	<node lat="60.13700000212472" lon="12.06293334081859" id="-13390">
		<tag k="name" v="Vrangsaga" />
		<tag k="place" v="farm" />
		<tag k="ssr:stedsnr" v="248545" />
	</node>
	<node lat="60.13131111287148" lon="12.017186105422013" id="-13391">
		<tag k="name" v="Kroksrud" />
		<tag k="place" v="farm" />
		<tag k="ssr:stedsnr" v="248547" />
	</node>
	<node lat="60.18060555912682" lon="11.951174992933115" id="-13392">
		<tag k="name" v="Stømnerhøgda" />
		<tag k="place" v="farm" />
		<tag k="ssr:stedsnr" v="248622" />
	</node>
	<node lat="60.17005000295754" lon="12.149602770359968" id="-13394">
		<tag k="alt_name" v="Øvre Brakalsvålet" />
		<tag k="name" v="Brakalsvåla" />
		<tag k="place" v="farm" />
		<tag k="ssr:stedsnr" v="248630" />
	</node>
	<node lat="60.34259722303593" lon="12.05759166798369" id="-13401">
		<tag k="name" v="Østre Nor" />
		<tag k="place" v="farm" />
		<tag k="ssr:stedsnr" v="102802" />
	</node>
	<node lat="60.18938611503643" lon="12.022808326843428" id="-13410">
		<tag k="name" v="Norsenga" />
		<tag k="place" v="quarter" />
		<tag k="ssr:stedsnr" v="103105" />
	</node>
	<node lat="60.192702779116566" lon="12.016558338868624" id="-13411">
		<tag k="name" v="Søndre Tråstad" />
		<tag k="place" v="locality" />
		<tag k="ssr:stedsnr" v="103129" />
	</node>
	<node lat="60.10891389056735" lon="12.463997219478308" id="-13417">
		<tag k="name" v="Engelsrud" />
		<tag k="place" v="farm" />
		<tag k="ssr:stedsnr" v="248929" />
	</node>
	<node lat="60.139436111160585" lon="12.247519448216865" id="-13421">
		<tag k="alt_name" v="Nordre Sørli" />
		<tag k="name" v="Sørli" />
		<tag k="place" v="farm" />
		<tag k="ssr:stedsnr" v="248981" />
	</node>
	<node lat="60.156461111178416" lon="12.303719444295876" id="-13422">
		<tag k="name" v="Velta" />
		<tag k="place" v="farm" />
		<tag k="ssr:stedsnr" v="248992" />
	</node>
	<node lat="60.275127774904554" lon="12.143574995625144" id="-13425">
		<tag k="name" v="Ruslebakken" />
		<tag k="place" v="locality" />
		<tag k="ssr:stedsnr" v="249378" />
	</node>
	<node lat="60.31374444193859" lon="12.20125833199884" id="-13427">
		<tag k="name" v="Buberget" />
		<tag k="place" v="farm" />
		<tag k="ssr:stedsnr" v="249456" />
	</node>
	<node lat="60.31863305361379" lon="11.987075709553089" id="-13429">
		<tag k="fixme" v="consider place=hamlet" />
		<tag k="name" v="Solberg" />
		<tag k="place" v="farm" />
		<tag k="ssr:stedsnr" v="249477" />
	</node>
	<node lat="60.30044861729772" lon="12.079622746400764" id="-13430">
		<tag k="fixme" v="consider place=hamlet" />
		<tag k="name" v="Melby" />
		<tag k="place" v="farm" />
		<tag k="ssr:stedsnr" v="249500" />
	</node>
	<node lat="60.293639286941605" lon="12.009872926853053" id="-13431">
		<tag k="fixme" v="consider place=hamlet" />
		<tag k="name" v="Daler" />
		<tag k="place" v="farm" />
		<tag k="ssr:stedsnr" v="249503" />
	</node>
	<node lat="60.2792499960645" lon="12.104361104353575" id="-13432">
		<tag k="alt_name" v="Hokåsen" />
		<tag k="name" v="Hokkåsen" />
		<tag k="place" v="farm" />
		<tag k="ssr:stedsnr" v="249405" />
	</node>
	<node lat="60.2660833342645" lon="12.5080638902447" id="-13436">
		<tag k="name" v="Lindalen" />
		<tag k="place" v="farm" />
		<tag k="ssr:stedsnr" v="249865" />
	</node>
	<node lat="60.22826389300177" lon="12.022200003820927" id="-13444">
		<tag k="name" v="Sætersundet" />
		<tag k="place" v="farm" />
		<tag k="ssr:stedsnr" v="116902" />
	</node>
	<node lat="60.21240832890313" lon="12.051966673017045" id="-13445">
		<tag k="name" v="Engelsrud" />
		<tag k="place" v="isolated_dwelling" />
		<tag k="ssr:stedsnr" v="116905" />
	</node>
	<node lat="60.2938472254527" lon="12.126183335180203" id="-13449">
		<tag k="name" v="Kvernhusbakken" />
		<tag k="place" v="locality" />
		<tag k="ssr:stedsnr" v="118204" />
	</node>
	<node lat="60.336361108686376" lon="12.11908888214189" id="-13450">
		<tag k="name" v="Liastua" />
		<tag k="place" v="isolated_dwelling" />
		<tag k="ssr:stedsnr" v="118170" />
	</node>
	<node lat="60.3279111079053" lon="11.999661117546886" id="-13454">
		<tag k="name" v="Strandli" />
		<tag k="place" v="isolated_dwelling" />
		<tag k="ssr:stedsnr" v="118771" />
	</node>
	<node lat="60.34728610996122" lon="11.945447227743177" id="-13456">
		<tag k="name" v="Nedre Hytjan" />
		<tag k="place" v="farm" />
		<tag k="ssr:stedsnr" v="119008" />
	</node>
	<node lat="60.123552776094655" lon="12.09864444153916" id="-13464">
		<tag k="name" v="Snare" />
		<tag k="place" v="farm" />
		<tag k="ssr:stedsnr" v="120803" />
	</node>
	<node lat="60.06116388684972" lon="12.287300002129088" id="-13467">
		<tag k="name" v="Grorud" />
		<tag k="place" v="farm" />
		<tag k="ssr:stedsnr" v="126103" />
	</node>
	<node lat="60.21630000152335" lon="12.046308335746932" id="-13470">
		<tag k="name" v="Slåtten" />
		<tag k="place" v="farm" />
		<tag k="ssr:stedsnr" v="126108" />
	</node>
	<node lat="60.074474999542794" lon="12.434449992765025" id="-13471">
		<tag k="name" v="Høymyrbråtan" />
		<tag k="place" v="locality" />
		<tag k="ssr:stedsnr" v="126109" />
	</node>
	<node lat="60.20506111084403" lon="12.09790276999183" id="-13472">
		<tag k="name" v="Tjernsby" />
		<tag k="place" v="farm" />
		<tag k="ssr:stedsnr" v="126110" />
	</node>
	<node lat="60.016077777778975" lon="12.367252774512052" id="-13475">
		<tag k="name" v="Sandhalla" />
		<tag k="place" v="farm" />
		<tag k="ssr:stedsnr" v="126045" />
	</node>
	<node lat="60.20228055293156" lon="11.93966945249249" id="-13476">
		<tag k="name" v="Mårud" />
		<tag k="place" v="farm" />
		<tag k="ssr:stedsnr" v="126068" />
	</node>
	<node lat="60.071283333272376" lon="12.336244445217561" id="-13477">
		<tag k="name" v="Solås" />
		<tag k="place" v="isolated_dwelling" />
		<tag k="ssr:stedsnr" v="126077" />
	</node>
	<node lat="60.080313888146975" lon="12.467941658457706" id="-13479">
		<tag k="alt_name" v="Søndre Karterudsætra" />
		<tag k="name" v="Karterudsætra" />
		<tag k="place" v="farm" />
		<tag k="ssr:stedsnr" v="126087" />
	</node>
	<node lat="60.22014444455102" lon="12.09937778624606" id="-13480">
		<tag k="name" v="Rudsmoen" />
		<tag k="place" v="farm" />
		<tag k="ssr:stedsnr" v="126092" />
	</node>
	<node lat="60.217125003797165" lon="12.095783324873889" id="-13481">
		<tag k="name" v="Engelstad" />
		<tag k="place" v="farm" />
		<tag k="ssr:stedsnr" v="126093" />
	</node>
	<node lat="60.188813892821976" lon="12.27859167379562" id="-13483">
		<tag k="name" v="Tjernsli" />
		<tag k="place" v="farm" />
		<tag k="ssr:stedsnr" v="126750" />
	</node>
	<node lat="60.191105554615035" lon="12.239963896719715" id="-13485">
		<tag k="name" v="Raiski" />
		<tag k="place" v="locality" />
		<tag k="ssr:stedsnr" v="126762" />
	</node>
	<node lat="60.10414721935296" lon="12.31414722210459" id="-13487">
		<tag k="name" v="Lund" />
		<tag k="place" v="farm" />
		<tag k="ssr:stedsnr" v="126903" />
	</node>
	<node lat="60.10756110663152" lon="12.39955000723704" id="-13488">
		<tag k="name" v="Jansrudvangen" />
		<tag k="place" v="isolated_dwelling" />
		<tag k="ssr:stedsnr" v="126908" />
	</node>
	<node lat="60.09443333357333" lon="12.401747217324152" id="-13491">
		<tag k="name" v="Neset" />
		<tag k="place" v="isolated_dwelling" />
		<tag k="ssr:stedsnr" v="126896" />
	</node>
	<node lat="60.235225000106325" lon="11.900074995827223" id="-13492">
		<tag k="name" v="Hellerud" />
		<tag k="place" v="farm" />
		<tag k="ssr:stedsnr" v="127049" />
	</node>
	<node lat="60.247399999549714" lon="12.108286105446135" id="-13493">
		<tag k="name" v="Solbakken" />
		<tag k="place" v="farm" />
		<tag k="ssr:stedsnr" v="127050" />
	</node>
	<node lat="60.23919699558577" lon="12.084033613898114" id="-13495">
		<tag k="fixme" v="consider place=hamlet" />
		<tag k="name" v="Brøderud" />
		<tag k="place" v="farm" />
		<tag k="ssr:stedsnr" v="127055" />
	</node>
	<node lat="60.24618850337468" lon="12.100722240602819" id="-13496">
		<tag k="fixme" v="consider place=hamlet" />
		<tag k="name" v="Lystad" />
		<tag k="place" v="farm" />
		<tag k="ssr:stedsnr" v="127057" />
	</node>
	<node lat="60.356386107971225" lon="12.341783325150649" id="-13500">
		<tag k="name" v="Finnbakk" />
		<tag k="place" v="farm" />
		<tag k="ssr:stedsnr" v="127242" />
	</node>
	<node lat="60.34036666606899" lon="12.266505550992399" id="-13501">
		<tag k="historic" v="shieling" />
		<tag k="name" v="Skybergsætra" />
		<tag k="place" v="isolated_dwelling" />
		<tag k="ssr:stedsnr" v="127250" />
	</node>
	<node lat="60.25184722233627" lon="12.273849991697318" id="-13503">
		<tag k="name" v="Fjellsjøsætra" />
		<tag k="place" v="farm" />
		<tag k="ssr:stedsnr" v="127193" />
	</node>
	<node lat="60.278700003603575" lon="12.477933342355508" id="-13505">
		<tag k="fixme" v="consider tourism=alpine_hut or tourism=chalet" />
		<tag k="name" v="Vålet" />
		<tag k="ssr:stedsnr" v="127198" />
		<tag k="tourism" v="wilderness_hut" />
	</node>
	<node lat="60.35234166849754" lon="11.962591675708833" id="-13506">
		<tag k="name" v="Vestfjell" />
		<tag k="place" v="farm" />
		<tag k="ssr:stedsnr" v="127308" />
	</node>
	<node lat="60.34297778194767" lon="11.980697229953684" id="-13507">
		<tag k="name" v="Tuskinn" />
		<tag k="place" v="farm" />
		<tag k="ssr:stedsnr" v="127293" />
	</node>
	<node lat="60.30772011776203" lon="11.996926593006217" id="-13511">
		<tag k="fixme" v="consider place=hamlet" />
		<tag k="name" v="Bjørnstad" />
		<tag k="place" v="farm" />
		<tag k="ssr:stedsnr" v="127491" />
	</node>
	<node lat="60.1794600446612" lon="12.066575115002633" id="-13516">
		<tag k="alt_name" v="Overud" />
		<tag k="fixme" v="consider place=hamlet" />
		<tag k="name" v="Ovra" />
		<tag k="place" v="farm" />
		<tag k="ssr:stedsnr" v="127642" />
	</node>
	<node lat="60.33105555785273" lon="12.147327780740286" id="-13518">
		<tag k="name" v="Fjellklang" />
		<tag k="place" v="isolated_dwelling" />
		<tag k="ssr:stedsnr" v="127514" />
	</node>
	<node lat="60.2366222230713" lon="12.497530562696838" id="-13522">
		<tag k="alt_name" v="Eriksbråten" />
		<tag k="name" v="Bråten" />
		<tag k="place" v="farm" />
		<tag k="ssr:stedsnr" v="127838" />
	</node>
	<node lat="60.33650833393105" lon="11.988180559365421" id="-13529">
		<tag k="name" v="Midtre Moen" />
		<tag k="old_name" v="Breenmoen" />
		<tag k="place" v="farm" />
		<tag k="ssr:stedsnr" v="161756" />
	</node>
	<node lat="60.03040277806967" lon="12.386488892572478" id="-13537">
		<tag k="name" v="Nordistua" />
		<tag k="place" v="farm" />
		<tag k="ssr:stedsnr" v="163729" />
	</node>
	<node lat="60.101330553109484" lon="12.310761107256177" id="-13538">
		<tag k="name" v="Holmenlia" />
		<tag k="place" v="quarter" />
		<tag k="ssr:stedsnr" v="163761" />
	</node>
	<node lat="60.22797033788411" lon="12.141284105443997" id="-13540">
		<tag k="name" v="Østre Hauger" />
		<tag k="place" v="farm" />
		<tag k="ssr:stedsnr" v="167726" />
	</node>
	<node lat="60.26016944087394" lon="12.077127771845111" id="-13542">
		<tag k="name" v="Bergerud" />
		<tag k="place" v="hamlet" />
		<tag k="ssr:stedsnr" v="176154" />
	</node>
	<node lat="60.2125833318731" lon="12.099077785083905" id="-13544">
		<tag k="name" v="Mellom" />
		<tag k="place" v="isolated_dwelling" />
		<tag k="ssr:stedsnr" v="176172" />
	</node>
	<node lat="60.204577776941356" lon="12.043211114931895" id="-13550">
		<tag k="name" v="Bakken" />
		<tag k="place" v="farm" />
		<tag k="ssr:stedsnr" v="176857" />
	</node>
	<node lat="60.26032499980893" lon="12.050888887050782" id="-13554">
		<tag k="name" v="Søndre Helgeneset" />
		<tag k="place" v="farm" />
		<tag k="ssr:stedsnr" v="176923" />
	</node>
	<node lat="60.347394442064314" lon="12.061261113126307" id="-13556">
		<tag k="name" v="Billitmoen" />
		<tag k="place" v="locality" />
		<tag k="ssr:stedsnr" v="178066" />
	</node>
	<node lat="60.33414999894438" lon="11.987080557657473" id="-13557">
		<tag k="name" v="Rud" />
		<tag k="place" v="farm" />
		<tag k="ssr:stedsnr" v="178772" />
	</node>
	<node lat="60.34120555934785" lon="11.97065833326602" id="-13558">
		<tag k="name" v="Holt" />
		<tag k="place" v="farm" />
		<tag k="ssr:stedsnr" v="178774" />
	</node>
	<node lat="60.321238889085144" lon="12.006191658758775" id="-13572">
		<tag k="amenity" v="school" />
		<tag k="name" v="Brandval skole" />
		<tag k="old_name" v="Brandval sentralskole" />
		<tag k="ssr:stedsnr" v="180980" />
	</node>
	<node lat="60.20838055581065" lon="11.92162221811559" id="-13573">
		<tag k="name" v="Nedre Åssum" />
		<tag k="place" v="farm" />
		<tag k="ssr:stedsnr" v="187123" />
	</node>
	<node lat="60.20420555347866" lon="11.979686116557026" id="-13574">
		<tag k="name" v="Solbakken" />
		<tag k="place" v="locality" />
		<tag k="ssr:stedsnr" v="187125" />
	</node>
	<node lat="60.05802499912195" lon="12.356475002041376" id="-13576">
		<tag k="name" v="Sørum" />
		<tag k="place" v="farm" />
		<tag k="ssr:stedsnr" v="187111" />
	</node>
	<node lat="60.05572777596323" lon="12.371613894593809" id="-13577">
		<tag k="name" v="Larsmoen" />
		<tag k="place" v="farm" />
		<tag k="ssr:stedsnr" v="187113" />
	</node>
	<node lat="60.19434722116885" lon="12.10599166971635" id="-13581">
		<tag k="name" v="Brenna" />
		<tag k="place" v="farm" />
		<tag k="ssr:stedsnr" v="187076" />
	</node>
	<node lat="60.18817447623953" lon="12.0664289417288" id="-13582">
		<tag k="fixme" v="consider place=hamlet" />
		<tag k="name" v="Skansgarden" />
		<tag k="place" v="farm" />
		<tag k="ssr:stedsnr" v="187078" />
	</node>
	<node lat="59.9988777780969" lon="12.358719446522862" id="-13585">
		<tag k="alt_name" v="Badstubråten" />
		<tag k="name" v="Bråtan" />
		<tag k="place" v="farm" />
		<tag k="ssr:stedsnr" v="187233" />
	</node>
	<node lat="60.11449166763651" lon="12.039416668880156" id="-13586">
		<tag k="alt_name" v="Haugen" />
		<tag k="name" v="Sigerneshaugen" />
		<tag k="place" v="farm" />
		<tag k="ssr:stedsnr" v="187478" />
	</node>
	<node lat="60.09999722373681" lon="12.066038882248343" id="-13587">
		<tag k="name" v="Sjøenden" />
		<tag k="place" v="farm" />
		<tag k="ssr:stedsnr" v="187691" />
	</node>
	<node lat="60.17841388879941" lon="12.096116663030784" id="-13589">
		<tag k="alt_name" v="Søndre Mobekk" />
		<tag k="name" v="Mobekk" />
		<tag k="place" v="farm" />
		<tag k="ssr:stedsnr" v="187575" />
	</node>
	<node lat="60.19992777640542" lon="12.230886117772583" id="-13591">
		<tag k="name" v="Lystadberget" />
		<tag k="place" v="farm" />
		<tag k="ssr:stedsnr" v="187771" />
	</node>
	<node lat="60.204622221024714" lon="12.261547219487634" id="-13592">
		<tag k="name" v="Mengkroken" />
		<tag k="place" v="farm" />
		<tag k="ssr:stedsnr" v="187773" />
	</node>
	<node lat="60.120388888846264" lon="12.445799991723867" id="-13596">
		<tag k="name" v="Malmtorpet" />
		<tag k="place" v="farm" />
		<tag k="ssr:stedsnr" v="187923" />
	</node>
	<node lat="60.13955833597027" lon="12.460500007595398" id="-13597">
		<tag k="loc_name" v="Kask" />
		<tag k="name" v="Kaski" />
		<tag k="place" v="isolated_dwelling" />
		<tag k="ssr:stedsnr" v="187925" />
	</node>
	<node lat="60.19223333180467" lon="12.177091672761213" id="-13598">
		<tag k="alt_name" v="Langtjernet" />
		<tag k="name" v="Langtjern" />
		<tag k="place" v="farm" />
		<tag k="ssr:stedsnr" v="188096" />
	</node>
	<node lat="60.282680554769705" lon="12.328730550579124" id="-13599">
		<tag k="alt_name" v="Sjøenden, vestre" />
		<tag k="name" v="Sjøenden" />
		<tag k="place" v="farm" />
		<tag k="ssr:stedsnr" v="188202" />
	</node>
	<node lat="60.36859722555843" lon="12.309808327049986" id="-13600">
		<tag k="name" v="Nordgarden" />
		<tag k="old_name" v="Nordre Skasdammen" />
		<tag k="place" v="isolated_dwelling" />
		<tag k="ssr:stedsnr" v="188228" />
	</node>
	<node lat="60.34378047226291" lon="11.983026215620134" id="-13606">
		<tag k="fixme" v="consider place=hamlet" />
		<tag k="name" v="Hynni" />
		<tag k="place" v="farm" />
		<tag k="ssr:stedsnr" v="188320" />
	</node>
	<node lat="60.27197777764351" lon="12.108516661219642" id="-13609">
		<tag k="alt_name" v="Kampen" />
		<tag k="name" v="Kamphaug" />
		<tag k="place" v="farm" />
		<tag k="ssr:stedsnr" v="188429" />
	</node>
	<node lat="60.26246111241971" lon="11.988463896144763" id="-13610">
		<tag k="name" v="Brattberget" />
		<tag k="place" v="farm" />
		<tag k="ssr:stedsnr" v="188483" />
	</node>
	<node lat="60.26494166789886" lon="12.1152249946682" id="-13611">
		<tag k="name" v="Nordli" />
		<tag k="place" v="farm" />
		<tag k="ssr:stedsnr" v="188486" />
	</node>
	<node lat="60.329338887782356" lon="12.167941661563503" id="-13613">
		<tag k="historic" v="shieling" />
		<tag k="name" v="Norsætra" />
		<tag k="place" v="isolated_dwelling" />
		<tag k="ssr:stedsnr" v="188512" />
	</node>
	<node lat="60.27941944357613" lon="11.997405548020343" id="-13614">
		<tag k="name" v="Rønningen" />
		<tag k="place" v="farm" />
		<tag k="ssr:stedsnr" v="188518" />
	</node>
	<node lat="60.18635555519471" lon="11.896897219155896" id="-13617">
		<tag k="alt_name" v="Skyrudhaugen, nordre" />
		<tag k="name" v="Nordre Skyrudhaugen" />
		<tag k="place" v="farm" />
		<tag k="ssr:stedsnr" v="188647" />
	</node>
	<node lat="60.257227778989325" lon="12.457663888502548" id="-13618">
		<tag k="fixme" v="consider tourism=alpine_hut or tourism=chalet" />
		<tag k="name" v="Nedre Øyeren" />
		<tag k="old_name" v="Øyeren, nedre" />
		<tag k="ssr:stedsnr" v="188877" />
		<tag k="tourism" v="wilderness_hut" />
	</node>
	<node lat="60.350930559930966" lon="11.945238893408789" id="-13619">
		<tag k="name" v="Vestby" />
		<tag k="place" v="farm" />
		<tag k="ssr:stedsnr" v="203018" />
	</node>
	<node lat="60.31119444081043" lon="11.922655548374927" id="-13620">
		<tag k="name" v="Norlyshytta" />
		<tag k="place" v="isolated_dwelling" />
		<tag k="ssr:stedsnr" v="203020" />
	</node>
	<node lat="60.30823333258886" lon="11.921886119696186" id="-13621">
		<tag k="historic" v="shieling" />
		<tag k="name" v="Bjørnstadsætra" />
		<tag k="place" v="isolated_dwelling" />
		<tag k="ssr:stedsnr" v="203021" />
	</node>
	<node lat="60.29805000302896" lon="12.275922220051942" id="-13622">
		<tag k="fixme" v="consider place=suburb, village or hamlet" />
		<tag k="name" v="Lundersæter" />
		<tag k="place" v="quarter" />
		<tag k="ssr:stedsnr" v="269652" />
	</node>
	<node lat="60.1417972255399" lon="12.29786388708848" id="-13625">
		<tag k="name" v="Høgmoen" />
		<tag k="place" v="isolated_dwelling" />
		<tag k="ssr:stedsnr" v="221910" />
	</node>
	<node lat="60.30615000087891" lon="12.26026944978121" id="-13628">
		<tag k="name" v="Toppen" />
		<tag k="place" v="isolated_dwelling" />
		<tag k="ssr:stedsnr" v="222607" />
	</node>
	<node lat="60.11955555193464" lon="12.417363891636244" id="-13630">
		<tag k="name" v="Myrsletta" />
		<tag k="place" v="isolated_dwelling" />
		<tag k="ssr:stedsnr" v="224243" />
	</node>
	<node lat="59.99079722499284" lon="12.366577772152816" id="-13633">
		<tag k="name" v="Nedre Østby" />
		<tag k="place" v="farm" />
		<tag k="ssr:stedsnr" v="224736" />
	</node>
	<node lat="59.99661944566773" lon="12.350858330527682" id="-13634">
		<tag k="name" v="Sæterlund" />
		<tag k="place" v="locality" />
		<tag k="ssr:stedsnr" v="224745" />
	</node>
	<node lat="60.167036115151404" lon="12.182522225874546" id="-13642">
		<tag k="name" v="Stenmyren" />
		<tag k="place" v="isolated_dwelling" />
		<tag k="ssr:stedsnr" v="237094" />
	</node>
	<node lat="60.26971666836541" lon="12.012097224297445" id="-13647">
		<tag k="name" v="Lervadet" />
		<tag k="place" v="isolated_dwelling" />
		<tag k="ssr:stedsnr" v="237932" />
	</node>
	<node lat="60.34555555284094" lon="11.984566671358706" id="-13649">
		<tag k="name" v="Østgård" />
		<tag k="place" v="farm" />
		<tag k="ssr:stedsnr" v="237877" />
	</node>
	<node lat="60.19465277696729" lon="11.994274993923138" id="-13650">
		<tag k="amenity" v="hospital" />
		<tag k="name" v="Sykehuset Innlandet Kongsvinger" />
		<tag k="old_name" v="Kongsvinger sjukehus" />
		<tag k="ssr:stedsnr" v="237890" />
	</node>
	<node lat="60.35448889177091" lon="11.978319449724065" id="-13652">
		<tag k="name" v="Bråten" />
		<tag k="place" v="farm" />
		<tag k="ssr:stedsnr" v="237893" />
	</node>
	<node lat="60.34680555231644" lon="11.889838890250715" id="-13653">
		<tag k="name" v="Nilsbråten" />
		<tag k="place" v="isolated_dwelling" />
		<tag k="ssr:stedsnr" v="239042" />
	</node>
	<node lat="60.13403333681916" lon="12.065727778973166" id="-13657">
		<tag k="name" v="Flaen" />
		<tag k="place" v="locality" />
		<tag k="ssr:stedsnr" v="239604" />
	</node>
	<node lat="60.29678611162555" lon="11.989269447859886" id="-13660">
		<tag k="name" v="Øvre Li" />
		<tag k="place" v="farm" />
		<tag k="ssr:stedsnr" v="239982" />
	</node>
	<node lat="60.2340888925068" lon="11.935233331510094" id="-13665">
		<tag k="name" v="Nordli" />
		<tag k="place" v="locality" />
		<tag k="ssr:stedsnr" v="241734" />
	</node>
	<node lat="60.13738055327471" lon="12.091688887670275" id="-13668">
		<tag k="name" v="Nedre Gjermshus" />
		<tag k="place" v="farm" />
		<tag k="ssr:stedsnr" v="480067" />
	</node>
	<node lat="60.237483337187676" lon="12.083349999216273" id="-13669">
		<tag k="name" v="Jonsrud" />
		<tag k="place" v="farm" />
		<tag k="ssr:stedsnr" v="248011" />
	</node>
	<node lat="60.245894440639596" lon="12.002541669159994" id="-13670">
		<tag k="alt_name" v="Sagen" />
		<tag k="name" v="Saga" />
		<tag k="place" v="farm" />
		<tag k="ssr:stedsnr" v="248055" />
	</node>
	<node lat="60.02145833562205" lon="12.335138882947899" id="-13671">
		<tag k="name" v="Storfallet" />
		<tag k="place" v="isolated_dwelling" />
		<tag k="ssr:stedsnr" v="248057" />
	</node>
	<node lat="60.067136114236" lon="12.363166672094655" id="-13674">
		<tag k="name" v="Bjerke" />
		<tag k="place" v="farm" />
		<tag k="ssr:stedsnr" v="248074" />
	</node>
	<node lat="60.068458329233614" lon="12.290758341727338" id="-13675">
		<tag k="name" v="Teigen" />
		<tag k="place" v="farm" />
		<tag k="ssr:stedsnr" v="248078" />
	</node>
	<node lat="60.214458330852594" lon="11.961336117478126" id="-13678">
		<tag k="name" v="Sollia" />
		<tag k="place" v="farm" />
		<tag k="ssr:stedsnr" v="248102" />
	</node>
	<node lat="60.10559722559907" lon="11.995811104322161" id="-13682">
		<tag k="name" v="Vestaberg" />
		<tag k="place" v="locality" />
		<tag k="ssr:stedsnr" v="248499" />
	</node>
	<node lat="60.1435694459514" lon="11.941238896665132" id="-13683">
		<tag k="alt_name" v="Gravlia, øvre;Gravlia" />
		<tag k="name" v="Øvre Gravlia" />
		<tag k="place" v="isolated_dwelling" />
		<tag k="ssr:stedsnr" v="248612" />
	</node>
	<node lat="60.120616665878494" lon="11.957627769195962" id="-13686">
		<tag k="loc_name" v="Bråtan" />
		<tag k="name" v="Tjernsli" />
		<tag k="old_name" v="Bråten" />
		<tag k="place" v="isolated_dwelling" />
		<tag k="ssr:stedsnr" v="248512" />
	</node>
	<node lat="60.20116388620125" lon="12.306055554470463" id="-13688">
		<tag k="alt_name" v="Lindberget, øvre" />
		<tag k="name" v="Øvre Lindberget" />
		<tag k="place" v="farm" />
		<tag k="ssr:stedsnr" v="248810" />
	</node>
	<node lat="60.22865833018495" lon="12.455802780491927" id="-13690">
		<tag k="name" v="Bolneset" />
		<tag k="place" v="farm" />
		<tag k="ssr:stedsnr" v="248823" />
	</node>
	<node lat="60.208913889594676" lon="12.328441661843794" id="-13692">
		<tag k="name" v="Oppkjølen" />
		<tag k="place" v="farm" />
		<tag k="ssr:stedsnr" v="248797" />
	</node>
	<node lat="60.09529444595409" lon="12.311138884650079" id="-13694">
		<tag k="name" v="Bakken" />
		<tag k="place" v="isolated_dwelling" />
		<tag k="ssr:stedsnr" v="248908" />
	</node>
	<node lat="60.107433334388" lon="12.308752771419039" id="-13696">
		<tag k="name" v="Bråtan" />
		<tag k="place" v="isolated_dwelling" />
		<tag k="ssr:stedsnr" v="248918" />
	</node>
	<node lat="60.12659166577292" lon="12.481850004431314" id="-13697">
		<tag k="alt_name" v="Søndre Svartberget" />
		<tag k="name" v="Svartberget" />
		<tag k="place" v="farm" />
		<tag k="ssr:stedsnr" v="248963" />
	</node>
	<node lat="60.331444441105425" lon="12.342777780598523" id="-13701">
		<tag k="name" v="Okseskjula" />
		<tag k="place" v="isolated_dwelling" />
		<tag k="ssr:stedsnr" v="249225" />
	</node>
	<node lat="60.32354166418411" lon="12.082430555943379" id="-13702">
		<tag k="name" v="Sjåtil" />
		<tag k="place" v="farm" />
		<tag k="ssr:stedsnr" v="249296" />
	</node>
	<node lat="60.34384444271301" lon="12.05072778645768" id="-13703">
		<tag k="alt_name" v="Vestre Nor" />
		<tag k="name" v="Nor" />
		<tag k="place" v="farm" />
		<tag k="ssr:stedsnr" v="249297" />
	</node>
	<node lat="60.188131165930756" lon="11.894578042474668" id="-13705">
		<tag k="alt_name" v="Nedre Skyrud" />
		<tag k="fixme" v="consider place=hamlet" />
		<tag k="name" v="Skyrud" />
		<tag k="place" v="farm" />
		<tag k="ssr:stedsnr" v="265989" />
	</node>
	<node lat="60.34983611364231" lon="11.963838882726137" id="-13706">
		<tag k="name" v="Granlund" />
		<tag k="place" v="farm" />
		<tag k="ssr:stedsnr" v="282023" />
	</node>
	<node lat="60.13347777989994" lon="12.08572222603755" id="-13709">
		<tag k="name" v="Snoka" />
		<tag k="place" v="isolated_dwelling" />
		<tag k="ssr:stedsnr" v="283808" />
	</node>
	<node lat="60.29246666630117" lon="11.984349996646708" id="-13713">
		<tag k="name" v="Nordhaugen" />
		<tag k="place" v="locality" />
		<tag k="ssr:stedsnr" v="284995" />
	</node>
	<node lat="60.23423333625332" lon="12.087272217148717" id="-13716">
		<tag k="name" v="Smedteppen" />
		<tag k="place" v="locality" />
		<tag k="ssr:stedsnr" v="285206" />
	</node>
	<node lat="60.19270555686488" lon="11.89653333362458" id="-13717">
		<tag k="name" v="Spetalen" />
		<tag k="place" v="farm" />
		<tag k="ssr:stedsnr" v="285183" />
	</node>
	<node lat="60.27641944538406" lon="11.990397213506327" id="-13718">
		<tag k="name" v="Slåtten" />
		<tag k="place" v="locality" />
		<tag k="ssr:stedsnr" v="285995" />
	</node>
	<node lat="60.20070000258046" lon="11.895419446446896" id="-13721">
		<tag k="name" v="Huvnes" />
		<tag k="place" v="farm" />
		<tag k="ssr:stedsnr" v="289705" />
	</node>
	<node lat="60.24795277495701" lon="12.475611107808735" id="-13724">
		<tag k="name" v="Hanskoia" />
		<tag k="place" v="isolated_dwelling" />
		<tag k="ssr:stedsnr" v="298315" />
	</node>
	<node lat="60.19447777681762" lon="11.999672220892188" id="-13732">
		<tag k="amenity" v="prison" />
		<tag k="name" v="Kongsvinger kretsfengsel" />
		<tag k="ssr:stedsnr" v="298874" />
	</node>
	<node lat="60.27011110889761" lon="12.019980563689336" id="-13736">
		<tag k="name" v="Tryland" />
		<tag k="place" v="isolated_dwelling" />
		<tag k="ssr:stedsnr" v="298914" />
	</node>
	<node lat="60.27372500108018" lon="12.016722216849361" id="-13738">
		<tag k="name" v="Vangsnes" />
		<tag k="place" v="isolated_dwelling" />
		<tag k="ssr:stedsnr" v="298934" />
	</node>
	<node lat="60.24136110770966" lon="12.104249998956167" id="-13741">
		<tag k="name" v="Dammen" />
		<tag k="place" v="isolated_dwelling" />
		<tag k="ssr:stedsnr" v="300136" />
	</node>
	<node lat="60.187255555807766" lon="12.004844450959583" id="-13749">
		<tag k="name" v="Jernbaneplassen" />
		<tag k="place" v="square" />
		<tag k="ssr:stedsnr" v="301087" />
	</node>
	<node lat="60.12454166809764" lon="12.096286107906657" id="-13755">
		<tag k="name" v="Snare" />
		<tag k="place" v="farm" />
		<tag k="ssr:stedsnr" v="302791" />
	</node>
	<node lat="60.30658333388854" lon="12.091961108403245" id="-13759">
		<tag k="name" v="Sjølihagen" />
		<tag k="place" v="locality" />
		<tag k="ssr:stedsnr" v="465241" />
	</node>
	<node lat="60.0819861079096" lon="12.320505561326875" id="-13761">
		<tag k="name" v="Nerli" />
		<tag k="place" v="isolated_dwelling" />
		<tag k="ssr:stedsnr" v="308054" />
	</node>
	<node lat="60.23046944563679" lon="12.188041671547902" id="-13762">
		<tag k="historic" v="shieling" />
		<tag k="name" v="Myrersætra" />
		<tag k="place" v="isolated_dwelling" />
		<tag k="ssr:stedsnr" v="308010" />
	</node>
	<node lat="60.224858329066414" lon="12.128494440142216" id="-13763">
		<tag k="name" v="Åkre" />
		<tag k="place" v="locality" />
		<tag k="ssr:stedsnr" v="308012" />
	</node>
	<node lat="60.231133331470865" lon="12.073516662110316" id="-13764">
		<tag k="name" v="Gottenborg" />
		<tag k="place" v="farm" />
		<tag k="ssr:stedsnr" v="308016" />
	</node>
	<node lat="60.1902055511508" lon="12.02431111308016" id="-13765">
		<tag k="name" v="Sundstua" />
		<tag k="place" v="isolated_dwelling" />
		<tag k="ssr:stedsnr" v="466126" />
	</node>
	<node lat="60.176472219806264" lon="12.3238277846202" id="-13769">
		<tag k="name" v="Nabben" />
		<tag k="place" v="farm" />
		<tag k="ssr:stedsnr" v="308756" />
	</node>
	<node lat="60.17779444648207" lon="12.313991663031555" id="-13770">
		<tag k="alt_name" v="Åslie" />
		<tag k="name" v="Asli" />
		<tag k="place" v="locality" />
		<tag k="ssr:stedsnr" v="308758" />
	</node>
	<node lat="60.19590833474359" lon="12.36462499371683" id="-13771">
		<tag k="name" v="Dragonmoen" />
		<tag k="place" v="farm" />
		<tag k="ssr:stedsnr" v="308780" />
	</node>
	<node lat="60.108665347987504" lon="12.0468533797212" id="-13772">
		<tag k="name" v="Bøslungen" />
		<tag k="place" v="hamlet" />
		<tag k="ssr:stedsnr" v="308490" />
	</node>
	<node lat="60.10450277905344" lon="12.2979027708256" id="-13773">
		<tag k="name" v="Øverby" />
		<tag k="place" v="isolated_dwelling" />
		<tag k="ssr:stedsnr" v="308909" />
	</node>
	<node lat="60.11791944385763" lon="12.402402774260462" id="-13774">
		<tag k="name" v="Skullerudsæter" />
		<tag k="place" v="isolated_dwelling" />
		<tag k="ssr:stedsnr" v="308937" />
	</node>
	<node lat="60.12213332911945" lon="12.390944441773936" id="-13775">
		<tag k="fixme" v="multiple name tags, choose one and add the other to alt_name" />
		<tag k="name" v="Solheim;Hærsjøvika" />
		<tag k="place" v="farm" />
		<tag k="ssr:stedsnr" v="308945" />
	</node>
	<node lat="60.20954722662022" lon="12.057191660929988" id="-13776">
		<tag k="name" v="Monsrud" />
		<tag k="place" v="farm" />
		<tag k="ssr:stedsnr" v="309137" />
	</node>
	<node lat="60.23665753925205" lon="12.061884437874212" id="-13777">
		<tag k="name" v="Villmyr" />
		<tag k="place" v="locality" />
		<tag k="ssr:stedsnr" v="309009" />
	</node>
	<node lat="60.04977499812925" lon="12.37592499497251" id="-13778">
		<tag k="fixme" v="multiple name tags, choose one and add the other to alt_name" />
		<tag k="name" v="Røsmoen;Snekkermoen" />
		<tag k="place" v="farm" />
		<tag k="ssr:stedsnr" v="309010" />
	</node>
	<node lat="60.03653888795017" lon="12.365252785323628" id="-13781">
		<tag k="name" v="Larsbråtan" />
		<tag k="place" v="farm" />
		<tag k="ssr:stedsnr" v="309017" />
	</node>
	<node lat="60.34029999869376" lon="12.020358340775227" id="-13783">
		<tag k="name" v="Koppmoen" />
		<tag k="place" v="farm" />
		<tag k="ssr:stedsnr" v="309334" />
	</node>
	<node lat="60.340599998533655" lon="12.016897219787932" id="-13784">
		<tag k="name" v="Foss" />
		<tag k="place" v="farm" />
		<tag k="ssr:stedsnr" v="309335" />
	</node>
	<node lat="60.27181111423013" lon="11.992974994531988" id="-13786">
		<tag k="name" v="Vestli" />
		<tag k="place" v="farm" />
		<tag k="ssr:stedsnr" v="309437" />
	</node>
	<node lat="60.25489722506679" lon="12.124866663247099" id="-13787">
		<tag k="alt_name" v="Fladberg" />
		<tag k="name" v="Flaberg" />
		<tag k="place" v="farm" />
		<tag k="ssr:stedsnr" v="309460" />
	</node>
	<node lat="60.26077500342139" lon="12.119263885884688" id="-13788">
		<tag k="name" v="Vestby" />
		<tag k="place" v="farm" />
		<tag k="ssr:stedsnr" v="309482" />
	</node>
	<node lat="60.183258333975864" lon="11.980316664175318" id="-13789">
		<tag k="name" v="Granlia" />
		<tag k="place" v="farm" />
		<tag k="ssr:stedsnr" v="309634" />
	</node>
	<node lat="60.23363055179544" lon="12.520463887010731" id="-13791">
		<tag k="name" v="Hagen" />
		<tag k="place" v="farm" />
		<tag k="ssr:stedsnr" v="309810" />
	</node>
	<node lat="60.13138610745075" lon="12.075322230218974" id="-13794">
		<tag k="name" v="Rundberget" />
		<tag k="place" v="farm" />
		<tag k="ssr:stedsnr" v="309593" />
	</node>
	<node lat="60.13011666647068" lon="11.997780550755152" id="-13795">
		<tag k="name" v="Verhaug" />
		<tag k="place" v="farm" />
		<tag k="ssr:stedsnr" v="309595" />
	</node>
	<node lat="60.17380555165345" lon="12.447575006066163" id="-13797">
		<tag k="name" v="Søndre Fløytberget" />
		<tag k="place" v="locality" />
		<tag k="ssr:stedsnr" v="309739" />
	</node>
	<node lat="60.15697499692734" lon="12.282383327302519" id="-13801">
		<tag k="name" v="Vangen" />
		<tag k="place" v="farm" />
		<tag k="ssr:stedsnr" v="309994" />
	</node>
	<node lat="60.30422499659667" lon="12.197430559281191" id="-13812">
		<tag k="historic" v="shieling" />
		<tag k="name" v="Botnersætra" />
		<tag k="place" v="isolated_dwelling" />
		<tag k="ssr:stedsnr" v="466656" />
	</node>
	<node lat="60.324569441992935" lon="12.00523611548174" id="-13814">
		<tag k="name" v="Framnes" />
		<tag k="place" v="farm" />
		<tag k="ssr:stedsnr" v="466805" />
	</node>
	<node lat="60.03587777812597" lon="12.370863887081805" id="-13816">
		<tag k="name" v="Utgården" />
		<tag k="place" v="hamlet" />
		<tag k="ssr:stedsnr" v="466759" />
	</node>
	<node lat="60.2651666655301" lon="11.980305548873323" id="-13820">
		<tag k="name" v="Koiaberget" />
		<tag k="place" v="locality" />
		<tag k="ssr:stedsnr" v="466990" />
	</node>
	<node lat="60.23217222238307" lon="12.03182222769842" id="-13827">
		<tag k="name" v="Søndre Raudstad" />
		<tag k="place" v="farm" />
		<tag k="ssr:stedsnr" v="470692" />
	</node>
	<node lat="60.328313886677336" lon="12.435311111792974" id="-13831">
		<tag k="name" v="Olianna" />
		<tag k="place" v="locality" />
		<tag k="ssr:stedsnr" v="343193" />
	</node>
	<node lat="60.07288610667246" lon="12.337272225119817" id="-13841">
		<tag k="name" v="Kolbjørnsrud" />
		<tag k="place" v="hamlet" />
		<tag k="ssr:stedsnr" v="345815" />
	</node>
	<node lat="60.32669166868168" lon="12.02230000560171" id="-13843">
		<tag k="building" v="industrial" />
		<tag k="industrial" v="factory" />
		<tag k="name" v="Brandval sag" />
		<tag k="ssr:stedsnr" v="345757" />
	</node>
	<node lat="60.323533333962644" lon="12.05374722603379" id="-13845">
		<tag k="name" v="Bjerke" />
		<tag k="place" v="farm" />
		<tag k="ssr:stedsnr" v="345760" />
	</node>
	<node lat="60.23868333792209" lon="12.021747213651883" id="-13862">
		<tag k="name" v="Urmakerenget" />
		<tag k="place" v="isolated_dwelling" />
		<tag k="ssr:stedsnr" v="358962" />
	</node>
	<node lat="60.26999167106764" lon="12.110427769724124" id="-13864">
		<tag k="name" v="Øverby" />
		<tag k="place" v="farm" />
		<tag k="ssr:stedsnr" v="360116" />
	</node>
	<node lat="60.08307499939104" lon="12.415683333692346" id="-13865">
		<tag k="name" v="Bjørnhullet" />
		<tag k="place" v="locality" />
		<tag k="ssr:stedsnr" v="479012" />
	</node>
	<node lat="60.02802876943401" lon="12.387485016271196" id="-13867">
		<tag k="fixme" v="consider place=hamlet" />
		<tag k="name" v="Håkerud" />
		<tag k="place" v="farm" />
		<tag k="ssr:stedsnr" v="369021" />
	</node>
	<node lat="60.20341666532142" lon="12.052297231115586" id="-13871">
		<tag k="name" v="Linnås" />
		<tag k="place" v="farm" />
		<tag k="ssr:stedsnr" v="369104" />
	</node>
	<node lat="60.20804721913557" lon="12.107149996276938" id="-13872">
		<tag k="name" v="Sagli" />
		<tag k="place" v="farm" />
		<tag k="ssr:stedsnr" v="369106" />
	</node>
	<node lat="60.005338885756395" lon="12.367750003840566" id="-13873">
		<tag k="name" v="Kjerret" />
		<tag k="place" v="hamlet" />
		<tag k="ssr:stedsnr" v="369185" />
	</node>
	<node lat="60.1896833369286" lon="12.104058338847135" id="-13874">
		<tag k="alt_name" v="Nordre Nytorpet" />
		<tag k="name" v="Nytorpet" />
		<tag k="place" v="farm" />
		<tag k="ssr:stedsnr" v="369067" />
	</node>
	<node lat="60.318763891140996" lon="12.328755556371245" id="-13881">
		<tag k="name" v="Øvre Nybråtan" />
		<tag k="place" v="farm" />
		<tag k="ssr:stedsnr" v="479098" />
	</node>
	<node lat="60.15915833672911" lon="12.51698888789836" id="-13882">
		<tag k="name" v="Lindaho" />
		<tag k="place" v="locality" />
		<tag k="ssr:stedsnr" v="479180" />
	</node>
	<node lat="60.10565000115089" lon="12.308624998813894" id="-13885">
		<tag k="name" v="Lia" />
		<tag k="place" v="isolated_dwelling" />
		<tag k="ssr:stedsnr" v="369909" />
	</node>
	<node lat="60.16344999848656" lon="12.272599998651895" id="-13887">
		<tag k="name" v="Hammar" />
		<tag k="place" v="farm" />
		<tag k="ssr:stedsnr" v="369986" />
	</node>
	<node lat="60.15358055310592" lon="12.305097228043522" id="-13888">
		<tag k="name" v="Rundhaugen" />
		<tag k="place" v="farm" />
		<tag k="ssr:stedsnr" v="370000" />
	</node>
	<node lat="60.23323333549121" lon="12.021927775183713" id="-13889">
		<tag k="name" v="Sæterenga" />
		<tag k="place" v="locality" />
		<tag k="ssr:stedsnr" v="370014" />
	</node>
	<node lat="60.23105555856047" lon="11.90747499307203" id="-13892">
		<tag k="alt_name" v="Nedre Edsberg;Esper, nedre" />
		<tag k="name" v="Nedre Esper" />
		<tag k="place" v="hamlet" />
		<tag k="ssr:stedsnr" v="370039" />
	</node>
	<node lat="60.29135832972953" lon="12.224238895086787" id="-13897">
		<tag k="name" v="Bergersætra" />
		<tag k="place" v="farm" />
		<tag k="ssr:stedsnr" v="370186" />
	</node>
	<node lat="60.33360851850485" lon="11.979567648952738" id="-13898">
		<tag k="fixme" v="consider place=hamlet" />
		<tag k="name" v="Rud" />
		<tag k="place" v="farm" />
		<tag k="ssr:stedsnr" v="370364" />
	</node>
	<node lat="60.26205833206691" lon="12.124480559936687" id="-13906">
		<tag k="name" v="Steinbekk" />
		<tag k="place" v="farm" />
		<tag k="ssr:stedsnr" v="370479" />
	</node>
	<node lat="60.18300897570392" lon="12.078236282245937" id="-13908">
		<tag k="fixme" v="consider place=hamlet" />
		<tag k="name" v="Skinnarbøl" />
		<tag k="place" v="farm" />
		<tag k="ssr:stedsnr" v="370614" />
	</node>
	<node lat="60.18340833610654" lon="12.165494452250933" id="-13920">
		<tag k="name" v="Pynten" />
		<tag k="place" v="isolated_dwelling" />
		<tag k="ssr:stedsnr" v="480851" />
	</node>
	<node lat="60.270144446798305" lon="12.018641659164771" id="-13921">
		<tag k="name" v="Løken" />
		<tag k="place" v="farm" />
		<tag k="ssr:stedsnr" v="480937" />
	</node>
	<node lat="60.265025002271415" lon="12.019372229294353" id="-13922">
		<tag k="name" v="Snekkerhaugen" />
		<tag k="place" v="isolated_dwelling" />
		<tag k="ssr:stedsnr" v="480944" />
	</node>
	<node lat="60.34384444644367" lon="12.395908341774252" id="-13923">
		<tag k="name" v="Tjennbrakka" />
		<tag k="place" v="isolated_dwelling" />
		<tag k="ssr:stedsnr" v="482047" />
	</node>
	<node lat="60.270213885817654" lon="12.114502771473735" id="-13924">
		<tag k="name" v="Vestre Løvberget" />
		<tag k="place" v="isolated_dwelling" />
		<tag k="ssr:stedsnr" v="482133" />
	</node>
	<node lat="60.25709444839786" lon="11.95185277471087" id="-13925">
		<tag k="name" v="Lysholm" />
		<tag k="place" v="locality" />
		<tag k="ssr:stedsnr" v="482151" />
	</node>
	<node lat="60.23517134470552" lon="11.9116384243517" id="-13926">
		<tag k="fixme" v="consider place=hamlet" />
		<tag k="name" v="Kvisler" />
		<tag k="place" v="farm" />
		<tag k="ssr:stedsnr" v="482199" />
	</node>
	<node lat="60.03459999638856" lon="12.400502784203852" id="-13927">
		<tag k="name" v="Vråna" />
		<tag k="place" v="farm" />
		<tag k="ssr:stedsnr" v="384048" />
	</node>
	<node lat="60.21125192142358" lon="11.954011356024738" id="-13928">
		<tag k="fixme" v="consider place=hamlet" />
		<tag k="name" v="Ytre Greåker" />
		<tag k="place" v="farm" />
		<tag k="ssr:stedsnr" v="482737" />
	</node>
	<node lat="60.201755559660974" lon="11.999030550964973" id="-13929">
		<tag k="name" v="Skriverskogen" />
		<tag k="place" v="quarter" />
		<tag k="ssr:stedsnr" v="387192" />
	</node>
	<node lat="60.29474166441232" lon="11.991677782291475" id="-13931">
		<tag k="name" v="Kvernhaugen" />
		<tag k="place" v="farm" />
		<tag k="ssr:stedsnr" v="482975" />
	</node>
	<node lat="60.32128055582951" lon="11.996036108421393" id="-13932">
		<tag k="name" v="Langbråten" />
		<tag k="place" v="farm" />
		<tag k="ssr:stedsnr" v="482979" />
	</node>
	<node lat="60.31634722548787" lon="11.99146388846529" id="-13933">
		<tag k="name" v="Guldhaugen" />
		<tag k="place" v="isolated_dwelling" />
		<tag k="ssr:stedsnr" v="482980" />
	</node>
	<node lat="60.30254721867476" lon="11.991130563570863" id="-13934">
		<tag k="name" v="Brauterhagen" />
		<tag k="place" v="isolated_dwelling" />
		<tag k="ssr:stedsnr" v="482984" />
	</node>
	<node lat="60.27349722216369" lon="12.461294438078543" id="-13938">
		<tag k="name" v="Vestli" />
		<tag k="place" v="isolated_dwelling" />
		<tag k="ssr:stedsnr" v="483426" />
	</node>
	<node lat="60.342574996841435" lon="11.965627773568011" id="-13940">
		<tag k="name" v="Kolsrud" />
		<tag k="place" v="farm" />
		<tag k="ssr:stedsnr" v="483589" />
	</node>
	<node lat="60.239374996364816" lon="12.085330559071307" id="-13942">
		<tag k="name" v="Brøderud" />
		<tag k="place" v="hamlet" />
		<tag k="ssr:stedsnr" v="394882" />
	</node>
	<node lat="60.28007778033629" lon="12.268247215224445" id="-13943">
		<tag k="name" v="Gortjennsbråtan" />
		<tag k="place" v="isolated_dwelling" />
		<tag k="ssr:stedsnr" v="403495" />
	</node>
	<node lat="60.19639999806437" lon="12.006247214619481" id="-13947">
		<tag k="name" v="Øvrebyen" />
		<tag k="place" v="suburb" />
		<tag k="ssr:stedsnr" v="404074" />
	</node>
	<node lat="60.192666670404826" lon="12.011500002715788" id="-13948">
		<tag k="name" v="Sør-Tråstad" />
		<tag k="place" v="quarter" />
		<tag k="ssr:stedsnr" v="404075" />
	</node>
	<node lat="60.28785000267901" lon="12.110888888658044" id="-13950">
		<tag k="name" v="Henriksmoen" />
		<tag k="place" v="farm" />
		<tag k="ssr:stedsnr" v="404229" />
	</node>
	<node lat="60.287700003835056" lon="12.101672223821584" id="-13951">
		<tag k="name" v="Nordre Botner" />
		<tag k="place" v="farm" />
		<tag k="ssr:stedsnr" v="404237" />
	</node>
	<node lat="60.17604166997992" lon="12.026213880569363" id="-13953">
		<tag k="amenity" v="school" />
		<tag k="name" v="Vennersberg skole" />
		<tag k="ssr:stedsnr" v="406104" />
	</node>
	<node lat="60.28710833175963" lon="12.000027773706066" id="-13959">
		<tag k="name" v="Glomstad" />
		<tag k="place" v="farm" />
		<tag k="ssr:stedsnr" v="406998" />
	</node>
	<node lat="60.10006111304126" lon="12.482299993952989" id="-13960">
		<tag k="name" v="Vestby" />
		<tag k="place" v="isolated_dwelling" />
		<tag k="ssr:stedsnr" v="419002" />
	</node>
	<node lat="60.17044722296581" lon="12.272272222011964" id="-13961">
		<tag k="name" v="Nordre Tomteberget" />
		<tag k="place" v="farm" />
		<tag k="ssr:stedsnr" v="419092" />
	</node>
	<node lat="60.27007499872977" lon="12.015086111536583" id="-13969">
		<tag k="name" v="Vold" />
		<tag k="place" v="farm" />
		<tag k="ssr:stedsnr" v="419920" />
	</node>
	<node lat="60.2782777821511" lon="12.004208333492405" id="-13970">
		<tag k="name" v="Goløkka" />
		<tag k="place" v="farm" />
		<tag k="ssr:stedsnr" v="419923" />
	</node>
	<node lat="60.27879167117512" lon="12.051113881224094" id="-13971">
		<tag k="name" v="Nordre Eik" />
		<tag k="place" v="farm" />
		<tag k="ssr:stedsnr" v="419933" />
	</node>
	<node lat="60.2444944418624" lon="12.053152779212542" id="-13974">
		<tag k="name" v="Roverud Sør" />
		<tag k="place" v="quarter" />
		<tag k="ssr:stedsnr" v="419947" />
	</node>
	<node lat="60.32436425713914" lon="11.993324217272038" id="-13978">
		<tag k="fixme" v="consider place=hamlet" />
		<tag k="name" v="Pålsrud" />
		<tag k="place" v="farm" />
		<tag k="ssr:stedsnr" v="421800" />
	</node>
	<node lat="60.27582222657542" lon="12.089680553368119" id="-13979">
		<tag k="name" v="Hokåsbroen" />
		<tag k="place" v="farm" />
		<tag k="ssr:stedsnr" v="422139" />
	</node>
	<node lat="60.314025000910796" lon="12.038649992204805" id="-13980">
		<tag k="name" v="Søndre Bukkåsen" />
		<tag k="place" v="farm" />
		<tag k="ssr:stedsnr" v="422140" />
	</node>
	<node lat="60.27718611014376" lon="12.098272214236173" id="-13981">
		<tag k="name" v="Hokåsen" />
		<tag k="place" v="farm" />
		<tag k="ssr:stedsnr" v="422141" />
	</node>
	<node lat="60.272963886134775" lon="11.942183330024545" id="-13987">
		<tag k="name" v="Sølvtjennhytta" />
		<tag k="place" v="isolated_dwelling" />
		<tag k="ssr:stedsnr" v="423154" />
	</node>
	<node lat="60.0562222263786" lon="12.39289167598193" id="-13990">
		<tag k="name" v="Vestby" />
		<tag k="place" v="farm" />
		<tag k="ssr:stedsnr" v="490013" />
	</node>
	<node lat="60.03267500271875" lon="12.38237777470478" id="-13993">
		<tag k="fixme" v="multiple name tags, choose one and add the other to alt_name" />
		<tag k="name" v="Knarten;Hauger" />
		<tag k="place" v="isolated_dwelling" />
		<tag k="ssr:stedsnr" v="490028" />
	</node>
	<node lat="60.08414166804446" lon="12.343519439341843" id="-13995">
		<tag k="name" v="Åserudhaget" />
		<tag k="place" v="farm" />
		<tag k="ssr:stedsnr" v="490072" />
	</node>
	<node lat="60.08228055922105" lon="12.343172217441797" id="-13996">
		<tag k="fixme" v="multiple name tags, choose one and add the other to alt_name" />
		<tag k="name" v="Stenberg;Teppa" />
		<tag k="place" v="farm" />
		<tag k="ssr:stedsnr" v="490073" />
	</node>
	<node lat="60.20053611483874" lon="11.942111120180263" id="-13997">
		<tag k="name" v="Bogerplassen" />
		<tag k="place" v="farm" />
		<tag k="ssr:stedsnr" v="490075" />
	</node>
	<node lat="60.024791668513885" lon="12.398002769550443" id="-13999">
		<tag k="alt_name" v="Rønning" />
		<tag k="name" v="Rønningen" />
		<tag k="place" v="farm" />
		<tag k="ssr:stedsnr" v="491038" />
	</node>
	<node lat="60.1594472229487" lon="12.081530561547149" id="-14000">
		<tag k="name" v="Kabberudbråten" />
		<tag k="place" v="isolated_dwelling" />
		<tag k="ssr:stedsnr" v="490553" />
	</node>
	<node lat="60.203388885164166" lon="12.355950001908544" id="-14005">
		<tag k="name" v="Bukkebakken" />
		<tag k="place" v="farm" />
		<tag k="ssr:stedsnr" v="490787" />
	</node>
	<node lat="60.178883334521906" lon="12.302608326574232" id="-14010">
		<tag k="name" v="Mengen" />
		<tag k="place" v="farm" />
		<tag k="ssr:stedsnr" v="490770" />
	</node>
	<node lat="60.096824997803694" lon="12.472677784320673" id="-14012">
		<tag k="alt_name" v="Gunnarsbråten" />
		<tag k="name" v="Gunnarsbråtan" />
		<tag k="place" v="locality" />
		<tag k="ssr:stedsnr" v="490893" />
	</node>
	<node lat="60.127530557283386" lon="12.436113897865797" id="-14015">
		<tag k="name" v="Vangen" />
		<tag k="place" v="farm" />
		<tag k="ssr:stedsnr" v="490955" />
	</node>
	<node lat="60.0575666635121" lon="12.39402500827783" id="-14016">
		<tag k="name" v="Aurstad" />
		<tag k="place" v="farm" />
		<tag k="ssr:stedsnr" v="430006" />
	</node>
	<node lat="60.03958610980359" lon="12.37963610749468" id="-14018">
		<tag k="name" v="Åsli" />
		<tag k="place" v="isolated_dwelling" />
		<tag k="ssr:stedsnr" v="430013" />
	</node>
	<node lat="60.03228611192919" lon="12.366547213523113" id="-14019">
		<tag k="name" v="Fossteppa" />
		<tag k="place" v="isolated_dwelling" />
		<tag k="ssr:stedsnr" v="430016" />
	</node>
	<node lat="60.030413887800336" lon="12.328130546695364" id="-14021">
		<tag k="name" v="Deilet" />
		<tag k="place" v="farm" />
		<tag k="ssr:stedsnr" v="430023" />
	</node>
	<node lat="60.02681388625331" lon="12.368769450196687" id="-14022">
		<tag k="name" v="Brattli" />
		<tag k="place" v="farm" />
		<tag k="ssr:stedsnr" v="430024" />
	</node>
	<node lat="60.20918889053007" lon="12.109583330571706" id="-14027">
		<tag k="name" v="Sagmoen" />
		<tag k="place" v="isolated_dwelling" />
		<tag k="ssr:stedsnr" v="430106" />
	</node>
	<node lat="60.187672222627214" lon="11.976436103617074" id="-14028">
		<tag k="name" v="Badstua" />
		<tag k="place" v="farm" />
		<tag k="ssr:stedsnr" v="491098" />
	</node>
	<node lat="60.09916388507112" lon="12.036697217708435" id="-14030">
		<tag k="name" v="Holmen" />
		<tag k="place" v="farm" />
		<tag k="ssr:stedsnr" v="430502" />
	</node>
	<node lat="60.09595833629433" lon="12.02683333520612" id="-14031">
		<tag k="name" v="Sørli" />
		<tag k="place" v="farm" />
		<tag k="ssr:stedsnr" v="430505" />
	</node>
	<node lat="60.13222778025645" lon="12.1042638960882" id="-14032">
		<tag k="name" v="Jonsrud" />
		<tag k="place" v="farm" />
		<tag k="ssr:stedsnr" v="430558" />
	</node>
	<node lat="60.128634191839325" lon="12.079438012179725" id="-14033">
		<tag k="fixme" v="consider place=hamlet" />
		<tag k="name" v="Tollevsrud" />
		<tag k="place" v="farm" />
		<tag k="ssr:stedsnr" v="430559" />
	</node>
	<node lat="60.154338887448155" lon="12.148455548488974" id="-14034">
		<tag k="name" v="Hestbekken" />
		<tag k="place" v="isolated_dwelling" />
		<tag k="ssr:stedsnr" v="430599" />
	</node>
	<node lat="60.24288333089674" lon="12.01966111693839" id="-14036">
		<tag k="name" v="Leiråsen" />
		<tag k="place" v="farm" />
		<tag k="ssr:stedsnr" v="491063" />
	</node>
	<node lat="60.3399166640147" lon="12.295491662700774" id="-14039">
		<tag k="name" v="Lystad" />
		<tag k="place" v="farm" />
		<tag k="ssr:stedsnr" v="491234" />
	</node>
	<node lat="60.236977777126846" lon="12.51862222399842" id="-14040">
		<tag k="alt_name" v="Østre Mosevannet" />
		<tag k="name" v="Mosevatn" />
		<tag k="old_name" v="Mosvatn" />
		<tag k="place" v="farm" />
		<tag k="ssr:stedsnr" v="430800" />
	</node>
	<node lat="60.30324444557751" lon="12.258038889650926" id="-14043">
		<tag k="name" v="Berg" />
		<tag k="place" v="farm" />
		<tag k="ssr:stedsnr" v="491138" />
	</node>
	<node lat="60.355547222259325" lon="12.372713893256467" id="-14048">
		<tag k="name" v="Bilitt" />
		<tag k="place" v="farm" />
		<tag k="ssr:stedsnr" v="431242" />
	</node>
	<node lat="60.36015635087973" lon="12.050667533692074" id="-14051">
		<tag k="fixme" v="consider place=hamlet" />
		<tag k="name" v="Skyberg" />
		<tag k="place" v="farm" />
		<tag k="ssr:stedsnr" v="431302" />
	</node>
	<node lat="60.32410642513135" lon="12.002351945635942" id="-14053">
		<tag k="name" v="Skitnebb" />
		<tag k="place" v="farm" />
		<tag k="ssr:stedsnr" v="431323" />
	</node>
	<node lat="60.319616669594105" lon="12.052197213880522" id="-14054">
		<tag k="alt_name" v="Søndre Viker;Vestre Viker" />
		<tag k="name" v="Nordre Viker" />
		<tag k="place" v="farm" />
		<tag k="ssr:stedsnr" v="431325" />
	</node>
	<node lat="60.25103055470575" lon="12.097861112717746" id="-14059">
		<tag k="name" v="Mellom" />
		<tag k="place" v="farm" />
		<tag k="ssr:stedsnr" v="431448" />
	</node>
	<node lat="60.18492222225541" lon="12.165030549263294" id="-14061">
		<tag k="name" v="Øyungen" />
		<tag k="place" v="farm" />
		<tag k="ssr:stedsnr" v="431616" />
	</node>
	<node lat="60.17727222009167" lon="11.94463610845133" id="-14062">
		<tag k="name" v="Kollia" />
		<tag k="place" v="farm" />
		<tag k="ssr:stedsnr" v="431637" />
	</node>
	<node lat="60.25177197488611" lon="12.047938617877923" id="-14065">
		<tag k="fixme" v="consider place=hamlet" />
		<tag k="name" v="Roverud" />
		<tag k="place" v="farm" />
		<tag k="ssr:stedsnr" v="491433" />
	</node>
	<node lat="60.26026388638743" lon="12.065377775160956" id="-14067">
		<tag k="alt_name" v="Tronbøl, nordre" />
		<tag k="name" v="Nordre Tronbøl" />
		<tag k="place" v="farm" />
		<tag k="ssr:stedsnr" v="491454" />
	</node>
	<node lat="60.261474999533895" lon="12.080855559638609" id="-14068">
		<tag k="name" v="Holtbakk" />
		<tag k="place" v="farm" />
		<tag k="ssr:stedsnr" v="491460" />
	</node>
	<node lat="60.302325000152216" lon="12.188355556269869" id="-14070">
		<tag k="name" v="Sæterbakken" />
		<tag k="place" v="farm" />
		<tag k="ssr:stedsnr" v="491519" />
	</node>
	<node lat="60.22388610866826" lon="12.519572217992382" id="-14074">
		<tag k="name" v="Kvernmoen" />
		<tag k="place" v="farm" />
		<tag k="ssr:stedsnr" v="491800" />
	</node>
	<node lat="60.147933332706735" lon="12.23641111219713" id="-14078">
		<tag k="alt_name" v="Lønnhøgda, nordre;Nordre Lønhøgda" />
		<tag k="name" v="Nordre Lønnhøgda" />
		<tag k="place" v="farm" />
		<tag k="ssr:stedsnr" v="491998" />
	</node>
	<node lat="60.13570000254623" lon="12.318372226120458" id="-14079">
		<tag k="name" v="Solvang" />
		<tag k="place" v="farm" />
		<tag k="ssr:stedsnr" v="491962" />
	</node>
	<node lat="60.35724166897511" lon="11.969147229905015" id="-14081">
		<tag k="name" v="Nordset" />
		<tag k="place" v="farm" />
		<tag k="ssr:stedsnr" v="492239" />
	</node>
	<node lat="60.360513890695564" lon="12.02054444772958" id="-14082">
		<tag k="name" v="Ramsøya" />
		<tag k="place" v="hamlet" />
		<tag k="ssr:stedsnr" v="492240" />
	</node>
	<node lat="60.36633611427485" lon="12.0543527764399" id="-14084">
		<tag k="name" v="Skybergsteppa" />
		<tag k="place" v="farm" />
		<tag k="ssr:stedsnr" v="492338" />
	</node>
	<node lat="60.331938886748304" lon="12.323963892982418" id="-14087">
		<tag k="alt_name" v="Øvre Sætaberget" />
		<tag k="name" v="Sætaberget" />
		<tag k="place" v="farm" />
		<tag k="ssr:stedsnr" v="448990" />
	</node>
	<node lat="60.216416662242395" lon="12.100027779286327" id="-14088">
		<tag k="name" v="Sønsterud" />
		<tag k="place" v="farm" />
		<tag k="ssr:stedsnr" v="672091" />
	</node>
	<node lat="60.15194722052591" lon="11.967227784347065" id="-14089">
		<tag k="name" v="Rålia" />
		<tag k="place" v="isolated_dwelling" />
		<tag k="ssr:stedsnr" v="672527" />
	</node>
	<node lat="60.16817221809656" lon="12.020511104988861" id="-14093">
		<tag k="name" v="Nylenda" />
		<tag k="place" v="isolated_dwelling" />
		<tag k="ssr:stedsnr" v="672598" />
	</node>
	<node lat="60.03400833293633" lon="12.38265000048443" id="-14094">
		<tag k="name" v="Granbu" />
		<tag k="place" v="isolated_dwelling" />
		<tag k="ssr:stedsnr" v="673024" />
	</node>
	<node lat="60.0430916649149" lon="12.396219436119152" id="-14095">
		<tag k="name" v="Åberg" />
		<tag k="place" v="farm" />
		<tag k="ssr:stedsnr" v="673026" />
	</node>
	<node lat="60.199575004176715" lon="12.32973056387751" id="-14097">
		<tag k="name" v="Grasbråtan" />
		<tag k="place" v="isolated_dwelling" />
		<tag k="ssr:stedsnr" v="672777" />
	</node>
	<node lat="60.09867222380545" lon="12.484650000607253" id="-14101">
		<tag k="name" v="Vestby" />
		<tag k="place" v="farm" />
		<tag k="ssr:stedsnr" v="672909" />
	</node>
	<node lat="60.24743333155426" lon="12.016586116620834" id="-14105">
		<tag k="name" v="Hansrud" />
		<tag k="place" v="farm" />
		<tag k="ssr:stedsnr" v="673074" />
	</node>
	<node lat="60.110027777505124" lon="12.45927777891599" id="-14106">
		<tag k="name" v="Østberg" />
		<tag k="place" v="farm" />
		<tag k="ssr:stedsnr" v="672920" />
	</node>
	<node lat="60.08176388764079" lon="12.316936114586552" id="-14111">
		<tag k="name" v="Haget" />
		<tag k="place" v="isolated_dwelling" />
		<tag k="ssr:stedsnr" v="673081" />
	</node>
	<node lat="60.20259444033513" lon="11.920911116176159" id="-14112">
		<tag k="name" v="Øvre Åssum" />
		<tag k="place" v="farm" />
		<tag k="ssr:stedsnr" v="673086" />
	</node>
	<node lat="60.05685555239042" lon="12.369788885704287" id="-14113">
		<tag k="alt_name" v="Høgemoen;Moen" />
		<tag k="name" v="Høgmoen" />
		<tag k="place" v="isolated_dwelling" />
		<tag k="ssr:stedsnr" v="673126" />
	</node>
	<node lat="60.312775004090746" lon="12.284355558621794" id="-14115">
		<tag k="alt_name" v="Veslberget" />
		<tag k="name" v="Lilleberget" />
		<tag k="place" v="farm" />
		<tag k="ssr:stedsnr" v="673151" />
	</node>
	<node lat="60.281072226806124" lon="12.47702499249839" id="-14119">
		<tag k="name" v="Rotnelia" />
		<tag k="place" v="isolated_dwelling" />
		<tag k="ssr:stedsnr" v="673197" />
	</node>
	<node lat="60.3441388889038" lon="11.865238886740222" id="-14123">
		<tag k="name" v="Aurdulpkoia" />
		<tag k="place" v="isolated_dwelling" />
		<tag k="ssr:stedsnr" v="673288" />
	</node>
	<node lat="60.3415472218523" lon="11.916019452397617" id="-14124">
		<tag k="name" v="Einarsrud" />
		<tag k="place" v="farm" />
		<tag k="ssr:stedsnr" v="673289" />
	</node>
	<node lat="60.33164407771445" lon="12.074540282876697" id="-14125">
		<tag k="fixme" v="consider place=hamlet" />
		<tag k="name" v="Hanestad" />
		<tag k="place" v="farm" />
		<tag k="ssr:stedsnr" v="673305" />
	</node>
	<node lat="60.28551944854352" lon="12.196633342030138" id="-14126">
		<tag k="name" v="Kakkneset" />
		<tag k="place" v="farm" />
		<tag k="ssr:stedsnr" v="673406" />
	</node>
	<node lat="60.28066666270403" lon="12.030108332835352" id="-14127">
		<tag k="name" v="Rymoen" />
		<tag k="place" v="hamlet" />
		<tag k="ssr:stedsnr" v="673416" />
	</node>
	<node lat="60.28333332961378" lon="12.156922225052389" id="-14128">
		<tag k="name" v="Strand" />
		<tag k="place" v="farm" />
		<tag k="ssr:stedsnr" v="673424" />
	</node>
	<node lat="60.26804166917215" lon="12.067977778766222" id="-14130">
		<tag k="alt_name" v="Berger, vestre" />
		<tag k="name" v="Vestre Berger" />
		<tag k="place" v="farm" />
		<tag k="ssr:stedsnr" v="673394" />
	</node>
	<node lat="60.284794448345025" lon="12.013005554218438" id="-14131">
		<tag k="name" v="Dalermoen" />
		<tag k="place" v="farm" />
		<tag k="ssr:stedsnr" v="673494" />
	</node>
	<node lat="60.10003889190877" lon="12.006311113157906" id="-14135">
		<tag k="name" v="Gubbevangen" />
		<tag k="place" v="locality" />
		<tag k="ssr:stedsnr" v="673536" />
	</node>
	<node lat="60.24544999742354" lon="12.482149996979718" id="-14137">
		<tag k="name" v="Øyeråsen" />
		<tag k="place" v="farm" />
		<tag k="ssr:stedsnr" v="673842" />
	</node>
	<node lat="60.26180277756693" lon="12.408311103996436" id="-14140">
		<tag k="name" v="Gubbetjennsbrakka" />
		<tag k="place" v="isolated_dwelling" />
		<tag k="ssr:stedsnr" v="673866" />
	</node>
	<node lat="60.256886108485" lon="12.479524991974824" id="-14142">
		<tag k="name" v="Viberget" />
		<tag k="place" v="farm" />
		<tag k="ssr:stedsnr" v="673873" />
	</node>
	<node lat="60.16052777921449" lon="12.332927775517875" id="-14148">
		<tag k="fixme" v="multiple name tags, choose one and add the other to alt_name" />
		<tag k="name" v="Nordgarden;Nordre Tangen" />
		<tag k="place" v="farm" />
		<tag k="ssr:stedsnr" v="673993" />
	</node>
	<node lat="60.161344440638786" lon="12.470513893366457" id="-14149">
		<tag k="name" v="Sørli" />
		<tag k="place" v="farm" />
		<tag k="ssr:stedsnr" v="673996" />
	</node>
	<node lat="60.146063891588305" lon="12.235980551146065" id="-14150">
		<tag k="alt_name" v="Lønnhøgda, midtre" />
		<tag k="name" v="Midtre Lønnhøgda" />
		<tag k="place" v="farm" />
		<tag k="ssr:stedsnr" v="673997" />
	</node>
	<node lat="60.29772500080518" lon="12.339891660962424" id="-14151">
		<tag k="name" v="Bruntjernsberget" />
		<tag k="place" v="farm" />
		<tag k="ssr:stedsnr" v="674143" />
	</node>
	<node lat="60.29910000146203" lon="12.30415277097306" id="-14152">
		<tag k="name" v="Langset" />
		<tag k="place" v="farm" />
		<tag k="ssr:stedsnr" v="674145" />
	</node>
	<node lat="60.18702499812247" lon="11.974158335422498" id="-14153">
		<tag k="name" v="Øvre Hyttebakken" />
		<tag k="place" v="quarter" />
		<tag k="ssr:stedsnr" v="464073" />
	</node>
	<node lat="60.31323611067673" lon="12.085272218726775" id="-14156">
		<tag k="name" v="Søndre Sjøli" />
		<tag k="place" v="farm" />
		<tag k="ssr:stedsnr" v="674434" />
	</node>
	<node lat="60.13496666782093" lon="12.10028333498333" id="-14161">
		<tag k="name" v="Søndre Gjermshus" />
		<tag k="place" v="farm" />
		<tag k="ssr:stedsnr" v="464820" />
	</node>
	<node lat="60.303827774827134" lon="12.107758336252894" id="-14162">
		<tag k="name" v="Skårebråten" />
		<tag k="place" v="farm" />
		<tag k="ssr:stedsnr" v="674485" />
	</node>
	<node lat="59.99308333314815" lon="12.360375007554628" id="-14165">
		<tag k="name" v="Solli" />
		<tag k="place" v="isolated_dwelling" />
		<tag k="ssr:stedsnr" v="466782" />
	</node>
	<node lat="60.228508329414844" lon="12.032891669519435" id="-14168">
		<tag k="name" v="Søndre Raudstad" />
		<tag k="place" v="farm" />
		<tag k="ssr:stedsnr" v="470687" />
	</node>
	<node lat="60.20277691614156" lon="11.921249390728645" id="-14170">
		<tag k="fixme" v="consider place=hamlet" />
		<tag k="name" v="Åssum" />
		<tag k="place" v="farm" />
		<tag k="ssr:stedsnr" v="471662" />
	</node>
	<node lat="60.237577776945294" lon="12.278472220725492" id="-14175">
		<tag k="name" v="Nedre Trøen" />
		<tag k="place" v="isolated_dwelling" />
		<tag k="ssr:stedsnr" v="479374" />
	</node>
	<node lat="60.24206666796614" lon="11.980619436302735" id="-14182">
		<tag k="name" v="Kabberud" />
		<tag k="place" v="locality" />
		<tag k="ssr:stedsnr" v="480962" />
	</node>
	<node lat="60.2410833370744" lon="11.995605553101539" id="-14183">
		<tag k="name" v="Koia" />
		<tag k="place" v="isolated_dwelling" />
		<tag k="ssr:stedsnr" v="480966" />
	</node>
	<node lat="60.24799444645598" lon="12.045025004963406" id="-14184">
		<tag k="name" v="Roverud industriområde" />
		<tag k="place" v="quarter" />
		<tag k="ssr:stedsnr" v="480968" />
	</node>
	<node lat="60.19885555252489" lon="11.991594436993347" id="-14185">
		<tag k="amenity" v="school" />
		<tag k="name" v="Langeland skole" />
		<tag k="ssr:stedsnr" v="480875" />
	</node>
	<node lat="60.35112777940502" lon="12.01475277367273" id="-14187">
		<tag k="name" v="Eid" />
		<tag k="place" v="isolated_dwelling" />
		<tag k="ssr:stedsnr" v="482768" />
	</node>
	<node lat="60.30707500071661" lon="12.030961109145332" id="-14194">
		<tag k="name" v="Nygård" />
		<tag k="place" v="farm" />
		<tag k="ssr:stedsnr" v="483982" />
	</node>
	<node lat="60.069316669371936" lon="12.338830547322317" id="-14197">
		<tag k="name" v="Hagen" />
		<tag k="place" v="isolated_dwelling" />
		<tag k="ssr:stedsnr" v="490082" />
	</node>
	<node lat="60.219880554320724" lon="12.093650002486624" id="-14198">
		<tag k="name" v="Nordset" />
		<tag k="place" v="farm" />
		<tag k="ssr:stedsnr" v="490093" />
	</node>
	<node lat="60.06129444829883" lon="12.348524994512609" id="-14199">
		<tag k="name" v="Sundheim" />
		<tag k="place" v="farm" />
		<tag k="ssr:stedsnr" v="490094" />
	</node>
	<node lat="60.059288885232704" lon="12.346674993234277" id="-14200">
		<tag k="alt_name" v="Nordgarden" />
		<tag k="name" v="Nordgard" />
		<tag k="place" v="farm" />
		<tag k="ssr:stedsnr" v="490095" />
	</node>
	<node lat="60.0643888859901" lon="12.412427773677697" id="-14202">
		<tag k="name" v="Sandbakken" />
		<tag k="place" v="locality" />
		<tag k="ssr:stedsnr" v="490121" />
	</node>
	<node lat="60.123777775841745" lon="12.11402777626486" id="-14204">
		<tag k="name" v="Gjermshusenga" />
		<tag k="place" v="farm" />
		<tag k="ssr:stedsnr" v="490497" />
	</node>
	<node lat="60.17467499783383" lon="12.109233336145746" id="-14205">
		<tag k="name" v="Åberget" />
		<tag k="place" v="farm" />
		<tag k="ssr:stedsnr" v="490603" />
	</node>
	<node lat="60.16940277640476" lon="12.03007221347621" id="-14206">
		<tag k="name" v="Søndre Rasta" />
		<tag k="place" v="isolated_dwelling" />
		<tag k="ssr:stedsnr" v="490606" />
	</node>
	<node lat="60.23240277315335" lon="12.097911118884562" id="-14211">
		<tag k="name" v="Rudshagen" />
		<tag k="place" v="farm" />
		<tag k="ssr:stedsnr" v="491009" />
	</node>
	<node lat="60.23503190703716" lon="12.034110743737157" id="-14212">
		<tag k="fixme" v="consider place=hamlet" />
		<tag k="name" v="Nordre Raudstad" />
		<tag k="place" v="farm" />
		<tag k="ssr:stedsnr" v="491014" />
	</node>
	<node lat="60.24831389344264" lon="11.945402775276778" id="-14213">
		<tag k="name" v="Tjernsli" />
		<tag k="place" v="isolated_dwelling" />
		<tag k="ssr:stedsnr" v="491033" />
	</node>
	<node lat="60.11820029294228" lon="12.322282415551639" id="-14216">
		<tag k="alt_name" v="Nordre Solberg" />
		<tag k="fixme" v="consider place=hamlet" />
		<tag k="name" v="Solberg" />
		<tag k="place" v="farm" />
		<tag k="ssr:stedsnr" v="490912" />
	</node>
	<node lat="60.12295833728211" lon="12.292461107409755" id="-14218">
		<tag k="name" v="Oppset" />
		<tag k="place" v="isolated_dwelling" />
		<tag k="ssr:stedsnr" v="490942" />
	</node>
	<node lat="60.34017499590716" lon="12.070100000968527" id="-14223">
		<tag k="name" v="Pinn" />
		<tag k="place" v="farm" />
		<tag k="ssr:stedsnr" v="491321" />
	</node>
	<node lat="60.35215833390535" lon="11.872113895786732" id="-14227">
		<tag k="name" v="Torkilsrud" />
		<tag k="place" v="farm" />
		<tag k="ssr:stedsnr" v="491288" />
	</node>
	<node lat="60.351136114065355" lon="11.877855560759187" id="-14228">
		<tag k="name" v="Bjørklund" />
		<tag k="place" v="isolated_dwelling" />
		<tag k="ssr:stedsnr" v="491290" />
	</node>
	<node lat="60.28737222514759" lon="12.065541671070065" id="-14229">
		<tag k="alt_name" v="Kjennsmo" />
		<tag k="name" v="Tjernsmo" />
		<tag k="place" v="isolated_dwelling" />
		<tag k="ssr:stedsnr" v="491503" />
	</node>
	<node lat="60.283563885806295" lon="11.99143055985782" id="-14230">
		<tag k="alt_name" v="Gjeslerud" />
		<tag k="name" v="Gislerud" />
		<tag k="place" v="farm" />
		<tag k="ssr:stedsnr" v="491506" />
	</node>
	<node lat="60.29131697997176" lon="11.989459398998656" id="-14231">
		<tag k="fixme" v="consider place=hamlet" />
		<tag k="name" v="Furderud" />
		<tag k="place" v="farm" />
		<tag k="ssr:stedsnr" v="491513" />
	</node>
	<node lat="60.09397499929236" lon="12.00532499678913" id="-14234">
		<tag k="name" v="Ellingsrudvangen" />
		<tag k="place" v="isolated_dwelling" />
		<tag k="ssr:stedsnr" v="491722" />
	</node>
	<node lat="60.18468889218607" lon="12.025594435745543" id="-14236">
		<tag k="name" v="Vennersberg" />
		<tag k="place" v="farm" />
		<tag k="ssr:stedsnr" v="491617" />
	</node>
	<node lat="60.2109472208368" lon="12.276061106272182" id="-14237">
		<tag k="name" v="Arvetorpet" />
		<tag k="place" v="farm" />
		<tag k="ssr:stedsnr" v="491785" />
	</node>
	<node lat="60.237408331017896" lon="12.346711110108822" id="-14241">
		<tag k="name" v="Sveinstorpet" />
		<tag k="place" v="farm" />
		<tag k="ssr:stedsnr" v="491825" />
	</node>
	<node lat="60.30343055121108" lon="12.05728610968822" id="-14242">
		<tag k="name" v="Digernesholtet" />
		<tag k="place" v="farm" />
		<tag k="ssr:stedsnr" v="492412" />
	</node>
	<node lat="60.30944999922027" lon="12.0694444442613" id="-14243">
		<tag k="name" v="Digernesenga" />
		<tag k="place" v="farm" />
		<tag k="ssr:stedsnr" v="492416" />
	</node>
	<node lat="60.30651110915479" lon="11.946908337932342" id="-14244">
		<tag k="name" v="Saga" />
		<tag k="place" v="isolated_dwelling" />
		<tag k="ssr:stedsnr" v="492419" />
	</node>
	<node lat="60.19204999965861" lon="11.888488896256344" id="-14253">
		<tag k="building" v="industrial" />
		<tag k="name" v="Galterud Teglverk" />
		<tag k="ssr:stedsnr" v="527182" />
	</node>
	<node lat="60.02809444212528" lon="12.38644166765952" id="-14258">
		<tag k="name" v="Sø-Håkerud" />
		<tag k="place" v="farm" />
		<tag k="ssr:stedsnr" v="527736" />
	</node>
	<node lat="60.08004999825689" lon="12.33439167315648" id="-14261">
		<tag k="name" v="Nersvensrud" />
		<tag k="place" v="farm" />
		<tag k="ssr:stedsnr" v="527803" />
	</node>
	<node lat="60.33416389185548" lon="12.024686108338354" id="-14262">
		<tag k="name" v="Fossheim" />
		<tag k="place" v="farm" />
		<tag k="ssr:stedsnr" v="527772" />
	</node>
	<node lat="60.218791664834804" lon="11.926272213047625" id="-14263">
		<tag k="name" v="Nedre Øyset" />
		<tag k="place" v="farm" />
		<tag k="ssr:stedsnr" v="527984" />
	</node>
	<node lat="60.2085916691577" lon="11.925108333404433" id="-14265">
		<tag k="name" v="Åssum" />
		<tag k="place" v="hamlet" />
		<tag k="ssr:stedsnr" v="531856" />
	</node>
	<node lat="60.27743055465419" lon="12.01071110555136" id="-14284">
		<tag k="name" v="Fossum" />
		<tag k="place" v="farm" />
		<tag k="ssr:stedsnr" v="540928" />
	</node>
	<node lat="60.151558334764694" lon="12.446863895337689" id="-14287">
		<tag k="name" v="Skogli" />
		<tag k="place" v="isolated_dwelling" />
		<tag k="ssr:stedsnr" v="542169" />
	</node>
	<node lat="60.130425003000994" lon="12.058566663899342" id="-14290">
		<tag k="name" v="Øvre Bergimellom" />
		<tag k="place" v="isolated_dwelling" />
		<tag k="ssr:stedsnr" v="543602" />
	</node>
	<node lat="60.351030513418905" lon="11.950258119492835" id="-14294">
		<tag k="name" v="Haugom" />
		<tag k="place" v="farm" />
		<tag k="ssr:stedsnr" v="544013" />
	</node>
	<node lat="60.290338886938834" lon="12.364444439914827" id="-14298">
		<tag k="name" v="Vollen" />
		<tag k="place" v="locality" />
		<tag k="ssr:stedsnr" v="544103" />
	</node>
	<node lat="60.225541662940095" lon="11.918694446337692" id="-14301">
		<tag k="name" v="Edsbergløkken" />
		<tag k="place" v="isolated_dwelling" />
		<tag k="ssr:stedsnr" v="544182" />
	</node>
	<node lat="60.36615277775298" lon="12.05704166352163" id="-14307">
		<tag k="name" v="Bråten" />
		<tag k="place" v="locality" />
		<tag k="ssr:stedsnr" v="544882" />
	</node>
	<node lat="60.220204320402985" lon="12.212770848071234" id="-14309">
		<tag k="name" v="Mengeberget" />
		<tag k="place" v="locality" />
		<tag k="ssr:stedsnr" v="551106" />
	</node>
	<node lat="60.060441662392094" lon="12.344616668774533" id="-14310">
		<tag k="name" v="Gylterud" />
		<tag k="place" v="hamlet" />
		<tag k="ssr:stedsnr" v="551108" />
	</node>
	<node lat="60.21651856074764" lon="11.944142868072227" id="-14311">
		<tag k="fixme" v="consider place=hamlet" />
		<tag k="name" v="Grønnerud" />
		<tag k="place" v="farm" />
		<tag k="ssr:stedsnr" v="551114" />
	</node>
	<node lat="60.06274999856828" lon="12.284616669763997" id="-14312">
		<tag k="name" v="Bråtan" />
		<tag k="old_name" v="Bråten" />
		<tag k="place" v="farm" />
		<tag k="ssr:stedsnr" v="551115" />
	</node>
	<node lat="60.21997222062119" lon="11.983247214779569" id="-14313">
		<tag k="name" v="Trettbråtan" />
		<tag k="place" v="locality" />
		<tag k="ssr:stedsnr" v="551116" />
	</node>
	<node lat="60.21032777617258" lon="12.188238888064033" id="-14315">
		<tag k="name" v="Storkoia" />
		<tag k="place" v="isolated_dwelling" />
		<tag k="ssr:stedsnr" v="551121" />
	</node>
	<node lat="60.232147220733864" lon="11.936605564239061" id="-14317">
		<tag k="name" v="Aur" />
		<tag k="place" v="isolated_dwelling" />
		<tag k="ssr:stedsnr" v="551011" />
	</node>
	<node lat="60.03869483971289" lon="12.375302678612494" id="-14318">
		<tag k="fixme" v="consider place=hamlet" />
		<tag k="name" v="Austgarden" />
		<tag k="place" v="farm" />
		<tag k="ssr:stedsnr" v="551015" />
	</node>
	<node lat="60.032199995848856" lon="12.364074997806167" id="-14319">
		<tag k="name" v="Bråtan" />
		<tag k="place" v="isolated_dwelling" />
		<tag k="ssr:stedsnr" v="551017" />
	</node>
	<node lat="60.013888532917456" lon="12.324707396023943" id="-14321">
		<tag k="alt_name" v="Flaen, s;Flaen søndre" />
		<tag k="name" v="Søndre Flaen" />
		<tag k="place" v="locality" />
		<tag k="ssr:stedsnr" v="551057" />
	</node>
	<node lat="60.19149722625529" lon="12.015088893982345" id="-14323">
		<tag k="alt_name" v="Tråstad" />
		<tag k="amenity" v="school" />
		<tag k="name" v="Tråstad ungdomsskole" />
		<tag k="ssr:stedsnr" v="551099" />
	</node>
	<node lat="60.12086389219684" lon="11.992938885633714" id="-14324">
		<tag k="name" v="Pustut" />
		<tag k="place" v="isolated_dwelling" />
		<tag k="ssr:stedsnr" v="551503" />
	</node>
	<node lat="60.12987500433085" lon="11.900349994442891" id="-14325">
		<tag k="historic" v="shieling" />
		<tag k="name" v="Rallerudsætra" />
		<tag k="place" v="isolated_dwelling" />
		<tag k="ssr:stedsnr" v="551520" />
	</node>
	<node lat="60.13735278141744" lon="12.093763893436309" id="-14326">
		<tag k="name" v="Gjermshus" />
		<tag k="place" v="hamlet" />
		<tag k="ssr:stedsnr" v="551526" />
	</node>
	<node lat="60.13342777722389" lon="12.033986109185902" id="-14327">
		<tag k="name" v="Åsberget" />
		<tag k="place" v="isolated_dwelling" />
		<tag k="ssr:stedsnr" v="551532" />
	</node>
	<node lat="60.12998055795294" lon="12.111716670911644" id="-14328">
		<tag k="name" v="Libekk" />
		<tag k="place" v="locality" />
		<tag k="ssr:stedsnr" v="551547" />
	</node>
	<node lat="60.17479166558695" lon="12.289169446804404" id="-14331">
		<tag k="historic" v="shieling" />
		<tag k="name" v="Nygårdssætra" />
		<tag k="place" v="isolated_dwelling" />
		<tag k="ssr:stedsnr" v="551787" />
	</node>
	<node lat="60.13270277881838" lon="12.428827777862695" id="-14334">
		<tag k="name" v="Holmby" />
		<tag k="place" v="farm" />
		<tag k="ssr:stedsnr" v="551943" />
	</node>
	<node lat="60.12562777427701" lon="12.328577770317196" id="-14335">
		<tag k="name" v="Sjøvika" />
		<tag k="place" v="farm" />
		<tag k="ssr:stedsnr" v="551944" />
	</node>
	<node lat="60.197205555782034" lon="12.286774995132758" id="-14337">
		<tag k="name" v="Hokkåssætra" />
		<tag k="place" v="farm" />
		<tag k="ssr:stedsnr" v="551816" />
	</node>
	<node lat="60.150572217839965" lon="12.282169452904657" id="-14343">
		<tag k="alt_name" v="Ramtjernåsen;Ramtjernsåsen" />
		<tag k="name" v="Ramtjennåsen" />
		<tag k="place" v="farm" />
		<tag k="ssr:stedsnr" v="551998" />
	</node>
	<node lat="60.35824664971194" lon="12.056667047442978" id="-14345">
		<tag k="alt_name" v="Øvre Våler" />
		<tag k="fixme" v="consider place=hamlet" />
		<tag k="name" v="Våler" />
		<tag k="place" v="farm" />
		<tag k="ssr:stedsnr" v="552306" />
	</node>
	<node lat="60.28708888660239" lon="12.17068611807072" id="-14351">
		<tag k="name" v="Sagerud" />
		<tag k="place" v="isolated_dwelling" />
		<tag k="ssr:stedsnr" v="552545" />
	</node>
	<node lat="60.28886666806929" lon="12.114325007658575" id="-14352">
		<tag k="alt_name" v="Nedre Seigerud" />
		<tag k="name" v="Seigerud" />
		<tag k="place" v="farm" />
		<tag k="ssr:stedsnr" v="552547" />
	</node>
	<node lat="60.364716668761844" lon="12.314038884991824" id="-14356">
		<tag k="alt_name" v="Skasdamma" />
		<tag k="name" v="Skasdammen" />
		<tag k="place" v="farm" />
		<tag k="ssr:stedsnr" v="690992" />
	</node>
	<node lat="60.251308328866095" lon="12.353713896237608" id="-14357">
		<tag k="alt_name" v="Nedre Smedtorpet" />
		<tag k="name" v="Smedtorpet" />
		<tag k="place" v="farm" />
		<tag k="ssr:stedsnr" v="690994" />
	</node>
	<node lat="60.27046993662954" lon="12.129079871954955" id="-14358">
		<tag k="fixme" v="consider place=hamlet" />
		<tag k="name" v="Tørrmoen" />
		<tag k="place" v="farm" />
		<tag k="ssr:stedsnr" v="694652" />
	</node>
	<node lat="60.28321666791868" lon="12.111986102398644" id="-14360">
		<tag k="name" v="Østli" />
		<tag k="place" v="farm" />
		<tag k="ssr:stedsnr" v="586238" />
	</node>
	<node lat="60.13389444894433" lon="12.100966663044098" id="-14365">
		<tag k="name" v="Stein" />
		<tag k="place" v="farm" />
		<tag k="ssr:stedsnr" v="586814" />
	</node>
	<node lat="60.20205555410176" lon="11.918805556090486" id="-14381">
		<tag k="name" v="Øvre Åssum" />
		<tag k="place" v="farm" />
		<tag k="ssr:stedsnr" v="592703" />
	</node>
	<node lat="60.10499444206138" lon="12.472105560037733" id="-14382">
		<tag k="name" v="Nesheim" />
		<tag k="place" v="isolated_dwelling" />
		<tag k="ssr:stedsnr" v="600004" />
	</node>
	<node lat="60.10437222654394" lon="12.468594439860032" id="-14390">
		<tag k="name" v="Nesabråten" />
		<tag k="place" v="locality" />
		<tag k="ssr:stedsnr" v="601213" />
	</node>
	<node lat="60.22952777487245" lon="12.020819438814778" id="-14392">
		<tag k="name" v="Nordre Sæter" />
		<tag k="place" v="isolated_dwelling" />
		<tag k="ssr:stedsnr" v="601905" />
	</node>
	<node lat="60.25217221859339" lon="12.054119452488129" id="-14393">
		<tag k="name" v="Myggelia" />
		<tag k="place" v="quarter" />
		<tag k="ssr:stedsnr" v="601954" />
	</node>
	<node lat="60.19339444625861" lon="11.999875001921923" id="-14394">
		<tag k="name" v="Midtbyen" />
		<tag k="place" v="suburb" />
		<tag k="ssr:stedsnr" v="601849" />
	</node>
	<node lat="60.19634166325237" lon="11.994483326533471" id="-14395">
		<tag k="amenity" v="nursing_home" />
		<tag k="name" v="Heberheimen" />
		<tag k="ssr:stedsnr" v="601852" />
	</node>
	<node lat="60.245730553625826" lon="12.11171945244009" id="-14397">
		<tag k="name" v="Teppen" />
		<tag k="place" v="farm" />
		<tag k="ssr:stedsnr" v="603104" />
	</node>
	<node lat="60.120722221821" lon="12.031494449271612" id="-14399">
		<tag k="name" v="Teppa" />
		<tag k="place" v="isolated_dwelling" />
		<tag k="ssr:stedsnr" v="603564" />
	</node>
	<node lat="60.12323889051673" lon="12.104100003374676" id="-14407">
		<tag k="name" v="Posteringen" />
		<tag k="place" v="farm" />
		<tag k="ssr:stedsnr" v="611506" />
	</node>
	<node lat="60.041080553813714" lon="12.378827785899155" id="-14408">
		<tag k="fixme" v="multiple name tags, choose one and add the other to alt_name" />
		<tag k="name" v="Lyngås;Vestli" />
		<tag k="place" v="farm" />
		<tag k="ssr:stedsnr" v="612004" />
	</node>
	<node lat="60.04486092840199" lon="12.375944704475517" id="-14409">
		<tag k="fixme" v="consider place=hamlet" />
		<tag k="name" v="Ingelsrud" />
		<tag k="place" v="farm" />
		<tag k="ssr:stedsnr" v="612005" />
	</node>
	<node lat="60.04114722168461" lon="12.359966667514842" id="-14411">
		<tag k="name" v="Fosshaug" />
		<tag k="place" v="farm" />
		<tag k="ssr:stedsnr" v="612008" />
	</node>
	<node lat="60.045347220777764" lon="12.350380555622227" id="-14412">
		<tag k="name" v="Ødegarden" />
		<tag k="place" v="farm" />
		<tag k="ssr:stedsnr" v="612009" />
	</node>
	<node lat="60.05245555750969" lon="12.426699993655484" id="-14413">
		<tag k="name" v="Tjærebråtan" />
		<tag k="place" v="isolated_dwelling" />
		<tag k="ssr:stedsnr" v="612020" />
	</node>
	<node lat="60.033561111124676" lon="12.365544445274308" id="-14414">
		<tag k="name" v="Ås" />
		<tag k="place" v="farm" />
		<tag k="ssr:stedsnr" v="612027" />
	</node>
	<node lat="60.24184722647816" lon="11.991058330061762" id="-14415">
		<tag k="name" v="Mellom" />
		<tag k="place" v="farm" />
		<tag k="ssr:stedsnr" v="612068" />
	</node>
	<node lat="60.07896111357741" lon="12.410969442523108" id="-14416">
		<tag k="alt_name" v="Gammelsætra" />
		<tag k="name" v="Gammelsæter" />
		<tag k="place" v="isolated_dwelling" />
		<tag k="ssr:stedsnr" v="612072" />
	</node>
	<node lat="60.19792778056402" lon="12.103688894893343" id="-14417">
		<tag k="name" v="Enger" />
		<tag k="place" v="farm" />
		<tag k="ssr:stedsnr" v="612073" />
	</node>
	<node lat="60.35045833097824" lon="12.352177780696934" id="-14420">
		<tag k="alt_name" v="Bråtan" />
		<tag k="name" v="Bråten" />
		<tag k="place" v="farm" />
		<tag k="ssr:stedsnr" v="612220" />
	</node>
	<node lat="60.267933330902046" lon="12.072119445209067" id="-14421">
		<tag k="alt_name" v="Berger, østre" />
		<tag k="name" v="Østre Berger" />
		<tag k="place" v="farm" />
		<tag k="ssr:stedsnr" v="612406" />
	</node>
	<node lat="60.27531388806122" lon="12.083716660987506" id="-14422">
		<tag k="name" v="Torp" />
		<tag k="place" v="farm" />
		<tag k="ssr:stedsnr" v="612410" />
	</node>
	<node lat="60.28511944647304" lon="12.127955547891373" id="-14423">
		<tag k="name" v="Lunder" />
		<tag k="place" v="farm" />
		<tag k="ssr:stedsnr" v="612421" />
	</node>
	<node lat="60.344235261163455" lon="12.037375741476275" id="-14426">
		<tag k="fixme" v="consider place=hamlet" />
		<tag k="name" v="Fosseid" />
		<tag k="place" v="farm" />
		<tag k="ssr:stedsnr" v="612318" />
	</node>
	<node lat="60.18168332989836" lon="11.963633333418846" id="-14428">
		<tag k="name" v="Stormyra" />
		<tag k="place" v="farm" />
		<tag k="ssr:stedsnr" v="612619" />
	</node>
	<node lat="60.17967163306427" lon="11.990318972520077" id="-14429">
		<tag k="alt_name" v="Digerrud" />
		<tag k="fixme" v="consider place=hamlet" />
		<tag k="name" v="Digerud" />
		<tag k="place" v="farm" />
		<tag k="ssr:stedsnr" v="612622" />
	</node>
	<node lat="60.17228888697818" lon="12.020563897617748" id="-14431">
		<tag k="alt_name" v="Holt, s" />
		<tag k="name" v="Søndre Holt" />
		<tag k="place" v="farm" />
		<tag k="ssr:stedsnr" v="612631" />
	</node>
	<node lat="60.234580558502" lon="12.508494440869471" id="-14432">
		<tag k="name" v="Moshaug" />
		<tag k="place" v="farm" />
		<tag k="ssr:stedsnr" v="612810" />
	</node>
	<node lat="60.18418610719498" lon="12.319113889063683" id="-14435">
		<tag k="name" v="Jammerdal" />
		<tag k="place" v="farm" />
		<tag k="ssr:stedsnr" v="612772" />
	</node>
	<node lat="60.09777500251822" lon="12.489452782592789" id="-14436">
		<tag k="name" v="Maurbakken" />
		<tag k="place" v="farm" />
		<tag k="ssr:stedsnr" v="612909" />
	</node>
	<node lat="60.29007778144842" lon="12.368169442430993" id="-14439">
		<tag k="name" v="Eikesætra" />
		<tag k="place" v="farm" />
		<tag k="ssr:stedsnr" v="613157" />
	</node>
	<node lat="60.30190283695377" lon="12.035744742380835" id="-14441">
		<tag k="fixme" v="consider place=hamlet" />
		<tag k="name" v="Myrer" />
		<tag k="place" v="farm" />
		<tag k="ssr:stedsnr" v="613503" />
	</node>
	<node lat="60.29773333173637" lon="11.974419439834124" id="-14442">
		<tag k="name" v="Slettholen" />
		<tag k="place" v="farm" />
		<tag k="ssr:stedsnr" v="613504" />
	</node>
	<node lat="60.31088055282827" lon="12.06438611635297" id="-14443">
		<tag k="name" v="Lundhaug" />
		<tag k="place" v="farm" />
		<tag k="ssr:stedsnr" v="707266" />
	</node>
	<node lat="60.2856944413814" lon="12.110961108927766" id="-14444">
		<tag k="name" v="Lundby" />
		<tag k="place" v="isolated_dwelling" />
		<tag k="ssr:stedsnr" v="646234" />
	</node>
	<node lat="60.13489444895943" lon="12.09715555425159" id="-14445">
		<tag k="name" v="Veststua" />
		<tag k="place" v="isolated_dwelling" />
		<tag k="ssr:stedsnr" v="646777" />
	</node>
	<node lat="60.132786109604886" lon="12.07619167329071" id="-14446">
		<tag k="name" v="Åbråten" />
		<tag k="place" v="isolated_dwelling" />
		<tag k="ssr:stedsnr" v="646778" />
	</node>
	<node lat="60.337119442638375" lon="12.296041659392987" id="-14454">
		<tag k="name" v="Solhaug" />
		<tag k="place" v="farm" />
		<tag k="ssr:stedsnr" v="648088" />
	</node>
	<node lat="60.12071110868038" lon="12.434980551949872" id="-14457">
		<tag k="name" v="Vangli" />
		<tag k="place" v="isolated_dwelling" />
		<tag k="ssr:stedsnr" v="648290" />
	</node>
	<node lat="60.35798055674158" lon="12.356472220059338" id="-14460">
		<tag k="name" v="Ria" />
		<tag k="place" v="farm" />
		<tag k="ssr:stedsnr" v="707050" />
	</node>
	<node lat="60.299591667357966" lon="11.9871361044342" id="-14464">
		<tag k="name" v="Bråten" />
		<tag k="place" v="isolated_dwelling" />
		<tag k="ssr:stedsnr" v="648987" />
	</node>
	<node lat="60.28796388679037" lon="11.9807222302933" id="-14465">
		<tag k="name" v="Kojen" />
		<tag k="place" v="locality" />
		<tag k="ssr:stedsnr" v="648997" />
	</node>
	<node lat="60.12616389012474" lon="11.911758326485048" id="-14467">
		<tag k="name" v="Rallerud" />
		<tag k="place" v="isolated_dwelling" />
		<tag k="ssr:stedsnr" v="707279" />
	</node>
	<node lat="60.25214444068026" lon="12.477033332763595" id="-14480">
		<tag k="name" v="Larsheimet" />
		<tag k="place" v="locality" />
		<tag k="ssr:stedsnr" v="661340" />
	</node>
	<node lat="60.26131944732293" lon="12.136411107442422" id="-14484">
		<tag k="name" v="Hofossmoen" />
		<tag k="place" v="farm" />
		<tag k="ssr:stedsnr" v="709163" />
	</node>
	<node lat="60.1945250024376" lon="11.909038889229631" id="-14485">
		<tag k="name" v="Juvmoen" />
		<tag k="place" v="isolated_dwelling" />
		<tag k="ssr:stedsnr" v="709172" />
	</node>
	<node lat="60.193308331713965" lon="12.264636115238012" id="-14488">
		<tag k="name" v="Kongetorpet" />
		<tag k="place" v="locality" />
		<tag k="ssr:stedsnr" v="662071" />
	</node>
	<node lat="60.12273332918426" lon="12.452238883733472" id="-14489">
		<tag k="name" v="Sjøheim" />
		<tag k="place" v="isolated_dwelling" />
		<tag k="ssr:stedsnr" v="709286" />
	</node>
	<node lat="60.25831388891326" lon="12.062088895694966" id="-14499">
		<tag k="amenity" v="school" />
		<tag k="name" v="Roverud barne- og ungdomsskole" />
		<tag k="ssr:stedsnr" v="664107" />
	</node>
	<node lat="60.17636389192718" lon="12.092547213749507" id="-14509">
		<tag k="name" v="Åsen" />
		<tag k="place" v="isolated_dwelling" />
		<tag k="ssr:stedsnr" v="664838" />
	</node>
	<node lat="60.34118333025364" lon="11.981833330831746" id="-14512">
		<tag k="name" v="Tørmoen" />
		<tag k="place" v="isolated_dwelling" />
		<tag k="ssr:stedsnr" v="664784" />
	</node>
	<node lat="60.339644443533366" lon="11.975608333931715" id="-14513">
		<tag k="name" v="Østli" />
		<tag k="place" v="farm" />
		<tag k="ssr:stedsnr" v="664785" />
	</node>
	<node lat="60.338777773453344" lon="11.974916670647742" id="-14514">
		<tag k="name" v="Solheim" />
		<tag k="place" v="locality" />
		<tag k="ssr:stedsnr" v="664786" />
	</node>
	<node lat="60.34287222649961" lon="11.972369452127431" id="-14515">
		<tag k="name" v="Nordli" />
		<tag k="place" v="isolated_dwelling" />
		<tag k="ssr:stedsnr" v="664787" />
	</node>
	<node lat="60.1412694454019" lon="12.154874996028013" id="-14516">
		<tag k="name" v="Hellerud" />
		<tag k="place" v="isolated_dwelling" />
		<tag k="ssr:stedsnr" v="664790" />
	</node>
	<node lat="60.34743333758802" lon="11.961500005402723" id="-14517">
		<tag k="name" v="Stenberg" />
		<tag k="place" v="farm" />
		<tag k="ssr:stedsnr" v="665010" />
	</node>
	<node lat="60.29250277945215" lon="12.44506944715" id="-14522">
		<tag k="name" v="Rugbråtan" />
		<tag k="place" v="isolated_dwelling" />
		<tag k="ssr:stedsnr" v="665382" />
	</node>
	<node lat="60.06323889165024" lon="12.272480557820694" id="-14524">
		<tag k="name" v="Billingbo" />
		<tag k="place" v="isolated_dwelling" />
		<tag k="ssr:stedsnr" v="709735" />
	</node>
	<node lat="60.094655556510325" lon="12.311011113813366" id="-14525">
		<tag k="name" v="Bakkebråten" />
		<tag k="place" v="isolated_dwelling" />
		<tag k="ssr:stedsnr" v="709753" />
	</node>
	<node lat="60.33901898647904" lon="12.047017736075246" id="-14527">
		<tag k="fixme" v="consider place=hamlet" />
		<tag k="name" v="Stollsnor" />
		<tag k="place" v="farm" />
		<tag k="ssr:stedsnr" v="709765" />
	</node>
	<node lat="60.18466666591963" lon="11.990705555386883" id="-14531">
		<tag k="name" v="Lia" />
		<tag k="place" v="suburb" />
		<tag k="ssr:stedsnr" v="890081" />
	</node>
	<node lat="60.287552779763146" lon="12.111947225367166" id="-14533">
		<tag k="name" v="Bekkevoll" />
		<tag k="place" v="farm" />
		<tag k="ssr:stedsnr" v="890246" />
	</node>
	<node lat="60.28499166786662" lon="12.115866668400676" id="-14534">
		<tag k="name" v="Grinder" />
		<tag k="place" v="farm" />
		<tag k="ssr:stedsnr" v="890248" />
	</node>
	<node lat="60.22524444872308" lon="12.110338881754707" id="-14537">
		<tag k="name" v="Sørli" />
		<tag k="place" v="farm" />
		<tag k="ssr:stedsnr" v="672026" />
	</node>
	<node lat="60.093480555101316" lon="12.493974995931943" id="-14538">
		<tag k="name" v="Samuelsbråtan" />
		<tag k="place" v="farm" />
		<tag k="ssr:stedsnr" v="672077" />
	</node>
	<node lat="60.09591666514611" lon="12.327333335436299" id="-14541">
		<tag k="name" v="Svensmoen" />
		<tag k="place" v="farm" />
		<tag k="ssr:stedsnr" v="672903" />
	</node>
	<node lat="60.20027222423035" lon="12.044555546935454" id="-14547">
		<tag k="name" v="Skau" />
		<tag k="place" v="farm" />
		<tag k="ssr:stedsnr" v="673090" />
	</node>
	<node lat="60.073252782186444" lon="12.337897219586344" id="-14548">
		<tag k="name" v="Nystuen" />
		<tag k="place" v="farm" />
		<tag k="ssr:stedsnr" v="673100" />
	</node>
	<node lat="60.32336944836133" lon="12.282836114663553" id="-14549">
		<tag k="name" v="Jersjøvika" />
		<tag k="place" v="isolated_dwelling" />
		<tag k="ssr:stedsnr" v="673261" />
	</node>
	<node lat="60.27570277470439" lon="12.229572215655972" id="-14553">
		<tag k="name" v="Vestbergsætra" />
		<tag k="place" v="farm" />
		<tag k="ssr:stedsnr" v="673176" />
	</node>
	<node lat="60.336677655953096" lon="12.03238191553835" id="-14556">
		<tag k="fixme" v="consider place=hamlet" />
		<tag k="name" v="Snappholt" />
		<tag k="place" v="farm" />
		<tag k="ssr:stedsnr" v="673306" />
	</node>
	<node lat="60.18353611094278" lon="11.901269442545884" id="-14558">
		<tag k="name" v="Ramstad" />
		<tag k="place" v="farm" />
		<tag k="ssr:stedsnr" v="673623" />
	</node>
	<node lat="60.22944722449094" lon="12.248836111031597" id="-14561">
		<tag k="name" v="Trøsberget" />
		<tag k="place" v="farm" />
		<tag k="ssr:stedsnr" v="673824" />
	</node>
	<node lat="60.00057499765242" lon="12.37510833158678" id="-14589">
		<tag k="name" v="Sørjordet" />
		<tag k="place" v="isolated_dwelling" />
		<tag k="ssr:stedsnr" v="891783" />
	</node>
	<node lat="60.11795555312088" lon="12.451702774806959" id="-14598">
		<tag k="name" v="Skoger" />
		<tag k="place" v="isolated_dwelling" />
		<tag k="ssr:stedsnr" v="892256" />
	</node>
	<node lat="60.325272221088746" lon="12.051511105738488" id="-14604">
		<tag k="name" v="Opset" />
		<tag k="place" v="farm" />
		<tag k="ssr:stedsnr" v="896295" />
	</node>
	<node lat="60.35162644738101" lon="11.882929501857795" id="-14605">
		<tag k="fixme" v="consider place=hamlet" />
		<tag k="name" v="Overåsberget" />
		<tag k="place" v="farm" />
		<tag k="ssr:stedsnr" v="703466" />
	</node>
	<node lat="60.24424909858414" lon="12.076387115415445" id="-14606">
		<tag k="fixme" v="consider place=hamlet" />
		<tag k="name" v="Steinsbøl" />
		<tag k="place" v="farm" />
		<tag k="ssr:stedsnr" v="896737" />
	</node>
	<node lat="60.30550555513946" lon="12.261952777089913" id="-14607">
		<tag k="name" v="Holt" />
		<tag k="place" v="isolated_dwelling" />
		<tag k="ssr:stedsnr" v="707637" />
	</node>
	<node lat="60.053833329941085" lon="12.417383328450537" id="-14622">
		<tag k="name" v="Skreddarn" />
		<tag k="place" v="locality" />
		<tag k="ssr:stedsnr" v="722023" />
	</node>
	<node lat="60.201166663602784" lon="11.892958340822934" id="-14624">
		<tag k="name" v="Nedre Gulli" />
		<tag k="place" v="farm" />
		<tag k="ssr:stedsnr" v="722174" />
	</node>
	<node lat="60.102575002364446" lon="12.32452777521999" id="-14628">
		<tag k="name" v="Sørmoen" />
		<tag k="place" v="farm" />
		<tag k="ssr:stedsnr" v="722772" />
	</node>
	<node lat="60.270888890526855" lon="12.117861115342693" id="-14631">
		<tag k="name" v="Østre Løvberget" />
		<tag k="place" v="isolated_dwelling" />
		<tag k="ssr:stedsnr" v="724117" />
	</node>
	<node lat="60.27408611295585" lon="12.110541662958685" id="-14632">
		<tag k="name" v="Kamphaug" />
		<tag k="place" v="farm" />
		<tag k="ssr:stedsnr" v="724119" />
	</node>
	<node lat="60.13796944660337" lon="12.250872224905866" id="-14633">
		<tag k="name" v="Sørli" />
		<tag k="place" v="farm" />
		<tag k="ssr:stedsnr" v="724076" />
	</node>
	<node lat="60.11748889046149" lon="12.031341669271237" id="-14636">
		<tag k="name" v="Lie" />
		<tag k="place" v="isolated_dwelling" />
		<tag k="ssr:stedsnr" v="724573" />
	</node>
	<node lat="60.28733055729566" lon="12.11963888438722" id="-14638">
		<tag k="name" v="Mellem" />
		<tag k="place" v="isolated_dwelling" />
		<tag k="ssr:stedsnr" v="725206" />
	</node>
	<node lat="60.358691665612184" lon="12.024474991871235" id="-14644">
		<tag k="name" v="Ramsøyen" />
		<tag k="place" v="isolated_dwelling" />
		<tag k="ssr:stedsnr" v="726775" />
	</node>
	<node lat="60.0663638896374" lon="12.362055552175642" id="-14646">
		<tag k="name" v="Karterud" />
		<tag k="place" v="farm" />
		<tag k="ssr:stedsnr" v="727632" />
	</node>
	<node lat="60.04856389164698" lon="12.371600002079527" id="-14647">
		<tag k="name" v="Kuskemoen" />
		<tag k="place" v="isolated_dwelling" />
		<tag k="ssr:stedsnr" v="727639" />
	</node>
	<node lat="60.03846698629261" lon="12.371031240123008" id="-14650">
		<tag k="fixme" v="consider place=hamlet" />
		<tag k="name" v="Brødbøl" />
		<tag k="place" v="farm" />
		<tag k="ssr:stedsnr" v="733010" />
	</node>
	<node lat="60.049941668661916" lon="12.399027785556537" id="-14652">
		<tag k="name" v="Åsmoen" />
		<tag k="place" v="isolated_dwelling" />
		<tag k="ssr:stedsnr" v="733021" />
	</node>
	<node lat="60.03840000400034" lon="12.40083889629418" id="-14653">
		<tag k="name" v="Valåsmoen" />
		<tag k="place" v="isolated_dwelling" />
		<tag k="ssr:stedsnr" v="733050" />
	</node>
	<node lat="60.20924970119659" lon="11.969316349124043" id="-14656">
		<tag k="fixme" v="consider place=hamlet" />
		<tag k="name" v="Boger" />
		<tag k="place" v="farm" />
		<tag k="ssr:stedsnr" v="733139" />
	</node>
	<node lat="60.148877778878564" lon="12.185830548787367" id="-14658">
		<tag k="name" v="Ladderud" />
		<tag k="place" v="isolated_dwelling" />
		<tag k="ssr:stedsnr" v="733549" />
	</node>
	<node lat="60.17258888758329" lon="12.104302774440944" id="-14659">
		<tag k="name" v="Øgarden" />
		<tag k="place" v="locality" />
		<tag k="ssr:stedsnr" v="733574" />
	</node>
	<node lat="60.104916665497456" lon="12.41345833164013" id="-14664">
		<tag k="name" v="Åberg" />
		<tag k="place" v="isolated_dwelling" />
		<tag k="ssr:stedsnr" v="733909" />
	</node>
	<node lat="60.08519721931144" lon="12.332350005043331" id="-14665">
		<tag k="name" v="Åsheim" />
		<tag k="place" v="isolated_dwelling" />
		<tag k="ssr:stedsnr" v="733883" />
	</node>
	<node lat="60.091763892274386" lon="12.329116673230716" id="-14666">
		<tag k="name" v="Larsmoen" />
		<tag k="place" v="farm" />
		<tag k="ssr:stedsnr" v="733884" />
	</node>
	<node lat="60.19048332980415" lon="11.99771944168931" id="-14668">
		<tag k="name" v="Kongsvinger" />
		<tag k="place" v="town" />
		<tag k="ssr:stedsnr" v="734093" />
	</node>
	<node lat="60.33980397987609" lon="11.972227094180115" id="-14673">
		<tag k="alt_name" v="Søndre Holt" />
		<tag k="fixme" v="consider place=hamlet" />
		<tag k="name" v="Holt" />
		<tag k="place" v="farm" />
		<tag k="ssr:stedsnr" v="734304" />
	</node>
	<node lat="60.29539426890592" lon="12.080628914631026" id="-14678">
		<tag k="fixme" v="consider place=hamlet" />
		<tag k="name" v="Sander" />
		<tag k="place" v="farm" />
		<tag k="ssr:stedsnr" v="734539" />
	</node>
	<node lat="60.14973889160752" lon="12.458494437972467" id="-14679">
		<tag k="name" v="Varaldskogberget" />
		<tag k="place" v="locality" />
		<tag k="ssr:stedsnr" v="734985" />
	</node>
	<node lat="60.137477779026206" lon="12.260930554749974" id="-14680">
		<tag k="name" v="Skjæret" />
		<tag k="place" v="farm" />
		<tag k="ssr:stedsnr" v="734989" />
	</node>
	<node lat="60.2671166660489" lon="12.119461111898794" id="-14681">
		<tag k="fixme" v="consider place=hamlet" />
		<tag k="name" v="Sørroa" />
		<tag k="place" v="village" />
		<tag k="ssr:stedsnr" v="749007" />
	</node>
	<node lat="60.011672222657175" lon="12.367438896126165" id="-14683">
		<tag k="alt_name" v="Søndre Haget" />
		<tag k="name" v="Haget" />
		<tag k="place" v="farm" />
		<tag k="ssr:stedsnr" v="750982" />
	</node>
	<node lat="60.31691121328493" lon="12.084597110105102" id="-14686">
		<tag k="name" v="Sjøli" />
		<tag k="place" v="hamlet" />
		<tag k="ssr:stedsnr" v="754652" />
	</node>
	<node lat="60.26086111415634" lon="12.075311107376345" id="-14689">
		<tag k="name" v="Bergli" />
		<tag k="place" v="farm" />
		<tag k="ssr:stedsnr" v="905133" />
	</node>
	<node lat="60.20268611374407" lon="12.488105554947182" id="-14693">
		<tag k="name" v="Aspetjennsbrakka" />
		<tag k="place" v="isolated_dwelling" />
		<tag k="ssr:stedsnr" v="905166" />
	</node>
	<node lat="60.193483332396426" lon="12.463866669790297" id="-14695">
		<tag k="name" v="Ampiansbråten" />
		<tag k="place" v="locality" />
		<tag k="ssr:stedsnr" v="905178" />
	</node>
	<node lat="60.315922223825325" lon="12.018377781863546" id="-14700">
		<tag k="fixme" v="consider place=suburb, village or hamlet" />
		<tag k="name" v="Brandval" />
		<tag k="place" v="quarter" />
		<tag k="ssr:stedsnr" v="758252" />
	</node>
	<node lat="60.34817030814962" lon="11.953841777671329" id="-14706">
		<tag k="fixme" v="consider place=hamlet" />
		<tag k="name" v="Geiterud" />
		<tag k="place" v="farm" />
		<tag k="ssr:stedsnr" v="764410" />
	</node>
	<node lat="60.26334444180429" lon="12.221544440328314" id="-14707">
		<tag k="name" v="Renntuten" />
		<tag k="place" v="locality" />
		<tag k="ssr:stedsnr" v="767549" />
	</node>
	<node lat="60.08629999920231" lon="12.490425000319634" id="-14710">
		<tag k="name" v="Grensen" />
		<tag k="place" v="isolated_dwelling" />
		<tag k="ssr:stedsnr" v="768005" />
	</node>
	<node lat="60.34354721933957" lon="11.967150008773467" id="-14711">
		<tag k="name" v="Kolsrud" />
		<tag k="place" v="farm" />
		<tag k="ssr:stedsnr" v="768030" />
	</node>
	<node lat="60.13313333234413" lon="12.067558331325317" id="-14714">
		<tag k="name" v="Hill-Waak" />
		<tag k="place" v="farm" />
		<tag k="ssr:stedsnr" v="768827" />
	</node>
	<node lat="60.144838886220526" lon="12.074044444575915" id="-14715">
		<tag k="name" v="Bjørkeli" />
		<tag k="place" v="farm" />
		<tag k="ssr:stedsnr" v="768829" />
	</node>
	<node lat="60.11885833628061" lon="12.445097227408725" id="-14716">
		<tag k="name" v="Berger" />
		<tag k="place" v="isolated_dwelling" />
		<tag k="ssr:stedsnr" v="770248" />
	</node>
	<node lat="60.28424803119807" lon="12.00237209973363" id="-14734">
		<tag k="fixme" v="consider place=hamlet" />
		<tag k="name" v="Unum" />
		<tag k="place" v="farm" />
		<tag k="ssr:stedsnr" v="775310" />
	</node>
	<node lat="60.34239444670454" lon="11.916738891630548" id="-14736">
		<tag k="historic" v="shieling" />
		<tag k="name" v="Hynnesætra" />
		<tag k="place" v="isolated_dwelling" />
		<tag k="ssr:stedsnr" v="908588" />
	</node>
	<node lat="60.36330277658791" lon="12.026969442876947" id="-14738">
		<tag k="name" v="Elverhøy" />
		<tag k="place" v="locality" />
		<tag k="ssr:stedsnr" v="908840" />
	</node>
	<node lat="60.10538333603996" lon="12.46479722528925" id="-14742">
		<tag k="name" v="Haug" />
		<tag k="place" v="isolated_dwelling" />
		<tag k="ssr:stedsnr" v="783206" />
	</node>
	<node lat="60.1065083326057" lon="12.311583329661145" id="-14751">
		<tag k="name" v="Lia" />
		<tag k="place" v="farm" />
		<tag k="ssr:stedsnr" v="783757" />
	</node>
	<node lat="60.08901388946058" lon="12.303511109037212" id="-14757">
		<tag k="name" v="Østbekken" />
		<tag k="place" v="farm" />
		<tag k="ssr:stedsnr" v="783863" />
	</node>
	<node lat="60.215250000071975" lon="11.941049991270667" id="-14762">
		<tag k="name" v="Ulvestuhaugen" />
		<tag k="place" v="locality" />
		<tag k="ssr:stedsnr" v="785748" />
	</node>
	<node lat="60.18413055219819" lon="11.981744441325047" id="-14771">
		<tag k="name" v="Kurudlia" />
		<tag k="place" v="quarter" />
		<tag k="ssr:stedsnr" v="787644" />
	</node>
	<node lat="60.25301111027855" lon="12.049280553218255" id="-14773">
		<tag k="amenity" v="nursing_home" />
		<tag k="name" v="Roverudhjemmet" />
		<tag k="ssr:stedsnr" v="787706" />
	</node>
	<node lat="60.363163886040816" lon="12.054755549836196" id="-14774">
		<tag k="name" v="Skybergsrønningen" />
		<tag k="place" v="farm" />
		<tag k="ssr:stedsnr" v="787785" />
	</node>
	<node lat="60.12454166809764" lon="12.096286107906657" id="-14775">
		<tag k="name" v="Snare" />
		<tag k="place" v="farm" />
		<tag k="ssr:stedsnr" v="787800" />
	</node>
	<node lat="60.2308888846768" lon="12.090924995992301" id="-14778">
		<tag k="name" v="Skogen" />
		<tag k="place" v="farm" />
		<tag k="ssr:stedsnr" v="794025" />
	</node>
	<node lat="60.06267499756842" lon="12.291513897210722" id="-14779">
		<tag k="name" v="Sørli" />
		<tag k="place" v="farm" />
		<tag k="ssr:stedsnr" v="794101" />
	</node>
	<node lat="60.21518889190019" lon="12.04647222605361" id="-14780">
		<tag k="name" v="Bjerke" />
		<tag k="place" v="farm" />
		<tag k="ssr:stedsnr" v="794108" />
	</node>
	<node lat="60.108005554391966" lon="11.966288889148837" id="-14784">
		<tag k="name" v="Olstad" />
		<tag k="place" v="isolated_dwelling" />
		<tag k="ssr:stedsnr" v="794485" />
	</node>
	<node lat="60.174488891174434" lon="12.079888890932159" id="-14785">
		<tag k="name" v="Åmot" />
		<tag k="place" v="isolated_dwelling" />
		<tag k="ssr:stedsnr" v="794622" />
	</node>
	<node lat="60.190150002971485" lon="12.30411388907277" id="-14788">
		<tag k="name" v="Slettmoen" />
		<tag k="place" v="farm" />
		<tag k="ssr:stedsnr" v="794769" />
	</node>
	<node lat="60.11064444201335" lon="12.422475000461759" id="-14790">
		<tag k="name" v="Åserudsætra" />
		<tag k="place" v="farm" />
		<tag k="ssr:stedsnr" v="794920" />
	</node>
	<node lat="60.10696666475709" lon="12.409041664191005" id="-14791">
		<tag k="name" v="Bråtan" />
		<tag k="old_name" v="Bråten" />
		<tag k="place" v="isolated_dwelling" />
		<tag k="ssr:stedsnr" v="794923" />
	</node>
	<node lat="60.114197220958395" lon="12.311530546444128" id="-14792">
		<tag k="alt_name" v="Nord-Tomta" />
		<tag k="name" v="Fagernestomta" />
		<tag k="place" v="farm" />
		<tag k="ssr:stedsnr" v="794926" />
	</node>
	<node lat="60.124969445883025" lon="12.434033337188906" id="-14793">
		<tag k="name" v="Skullerudvangen" />
		<tag k="place" v="farm" />
		<tag k="ssr:stedsnr" v="794963" />
	</node>
	<node lat="60.14588889049955" lon="12.452205553650849" id="-14794">
		<tag k="alt_name" v="Varaldskog, søndre;Varaldskogen, søndre;Søndre Varaldskog" />
		<tag k="name" v="Søndre Varaldskogen" />
		<tag k="place" v="farm" />
		<tag k="ssr:stedsnr" v="794964" />
	</node>
	<node lat="60.13509444562035" lon="12.420636114886406" id="-14796">
		<tag k="name" v="Bjørndalen" />
		<tag k="place" v="farm" />
		<tag k="ssr:stedsnr" v="794974" />
	</node>
	<node lat="60.13124722111196" lon="12.327327785286236" id="-14797">
		<tag k="name" v="Klakadalen" />
		<tag k="place" v="farm" />
		<tag k="ssr:stedsnr" v="794975" />
	</node>
	<node lat="60.15225000344574" lon="12.448377775339168" id="-14798">
		<tag k="alt_name" v="Varaldskog, nordre;Varaldskogen, nordre" />
		<tag k="name" v="Nordre Varaldskogen" />
		<tag k="place" v="farm" />
		<tag k="ssr:stedsnr" v="794981" />
	</node>
	<node lat="60.09097499724298" lon="12.31310832661878" id="-14805">
		<tag k="alt_name" v="Storstad" />
		<tag k="name" v="Vangen" />
		<tag k="place" v="farm" />
		<tag k="ssr:stedsnr" v="794873" />
	</node>
	<node lat="60.09441666744627" lon="12.428400001338373" id="-14806">
		<tag k="name" v="Tålloa" />
		<tag k="place" v="farm" />
		<tag k="ssr:stedsnr" v="794878" />
	</node>
	<node lat="60.235231866937305" lon="11.905307132982212" id="-14810">
		<tag k="alt_name" v="Øvre Edsberg;Esper, øvre" />
		<tag k="fixme" v="multiple name tags, choose one and add the other to alt_name" />
		<tag k="name" v="Esper;Øvre Esper" />
		<tag k="place" v="hamlet" />
		<tag k="ssr:stedsnr" v="795022" />
	</node>
	<node lat="60.30767499553135" lon="12.427105563861954" id="-14815">
		<tag k="name" v="Lauvåsen" />
		<tag k="place" v="farm" />
		<tag k="ssr:stedsnr" v="795188" />
	</node>
	<node lat="60.35910277508356" lon="12.008730562428315" id="-14816">
		<tag k="name" v="Ramsli" />
		<tag k="place" v="farm" />
		<tag k="ssr:stedsnr" v="795305" />
	</node>
	<node lat="60.35301388931154" lon="11.950374997748966" id="-14817">
		<tag k="name" v="Velta" />
		<tag k="place" v="farm" />
		<tag k="ssr:stedsnr" v="795316" />
	</node>
	<node lat="60.34831666676906" lon="11.949861107667024" id="-14818">
		<tag k="name" v="Geiterud" />
		<tag k="place" v="farm" />
		<tag k="ssr:stedsnr" v="795317" />
	</node>
	<node lat="60.32866944808034" lon="11.989313886971546" id="-14819">
		<tag k="name" v="Onsrud" />
		<tag k="place" v="farm" />
		<tag k="ssr:stedsnr" v="795327" />
	</node>
	<node lat="60.32129166690096" lon="12.268763896065563" id="-14822">
		<tag k="name" v="Jersjøberget" />
		<tag k="place" v="farm" />
		<tag k="ssr:stedsnr" v="795275" />
	</node>
	<node lat="60.33342500359483" lon="12.328027783087524" id="-14823">
		<tag k="alt_name" v="Sætaberget, nedre" />
		<tag k="name" v="Nedre Sætaberget" />
		<tag k="place" v="farm" />
		<tag k="ssr:stedsnr" v="795278" />
	</node>
	<node lat="60.33429166814705" lon="12.323497227573803" id="-14826">
		<tag k="alt_name" v="Sætra" />
		<tag k="name" v="Sætasæter" />
		<tag k="place" v="farm" />
		<tag k="ssr:stedsnr" v="795288" />
	</node>
	<node lat="60.349121180796786" lon="11.983263530418043" id="-14827">
		<tag k="fixme" v="consider place=hamlet" />
		<tag k="name" v="Bingen" />
		<tag k="place" v="farm" />
		<tag k="ssr:stedsnr" v="795290" />
	</node>
	<node lat="60.30767132286098" lon="12.057760105953253" id="-14828">
		<tag k="alt_name" v="Søndre Lunder" />
		<tag k="fixme" v="consider place=hamlet" />
		<tag k="name" v="Lunder" />
		<tag k="place" v="farm" />
		<tag k="ssr:stedsnr" v="795504" />
	</node>
	<node lat="60.318513892520166" lon="12.084491666593868" id="-14829">
		<tag k="alt_name" v="Sjøli" />
		<tag k="name" v="Nordre Sjøli" />
		<tag k="place" v="farm" />
		<tag k="ssr:stedsnr" v="795515" />
	</node>
	<node lat="60.25199721995879" lon="12.458786102461056" id="-14832">
		<tag k="fixme" v="consider place=hamlet" />
		<tag k="name" v="Øyermoen" />
		<tag k="place" v="village" />
		<tag k="ssr:stedsnr" v="795873" />
	</node>
	<node lat="60.22407777817738" lon="12.090238897882923" id="-14833">
		<tag k="name" v="Olsrud" />
		<tag k="place" v="farm" />
		<tag k="ssr:stedsnr" v="915019" />
	</node>
	<node lat="60.08728055481952" lon="12.485624992866542" id="-14836">
		<tag k="alt_name" v="Linnheim" />
		<tag k="name" v="Lindheim" />
		<tag k="place" v="isolated_dwelling" />
		<tag k="ssr:stedsnr" v="915068" />
	</node>
	<node lat="60.05951666990696" lon="12.37602222056709" id="-14838">
		<tag k="name" v="Mobekk" />
		<tag k="place" v="farm" />
		<tag k="ssr:stedsnr" v="915118" />
	</node>
	<node lat="60.098919448914366" lon="12.326550001776651" id="-14842">
		<tag k="name" v="Jansrud" />
		<tag k="place" v="farm" />
		<tag k="ssr:stedsnr" v="915892" />
	</node>
	<node lat="60.189275000291964" lon="12.239624999389996" id="-14843">
		<tag k="name" v="Vais" />
		<tag k="place" v="locality" />
		<tag k="ssr:stedsnr" v="915771" />
	</node>
	<node lat="60.11570555611953" lon="11.976099991163126" id="-14844">
		<tag k="name" v="Haukelia" />
		<tag k="place" v="isolated_dwelling" />
		<tag k="ssr:stedsnr" v="915496" />
	</node>
	<node lat="60.12121111197609" lon="12.379244444161039" id="-14848">
		<tag k="name" v="Solbergsvangen" />
		<tag k="place" v="farm" />
		<tag k="ssr:stedsnr" v="915931" />
	</node>
	<node lat="60.12443333644005" lon="12.373583336097289" id="-14850">
		<tag k="name" v="Øverby" />
		<tag k="place" v="farm" />
		<tag k="ssr:stedsnr" v="915944" />
	</node>
	<node lat="60.122513885610985" lon="12.422688897184113" id="-14851">
		<tag k="alt_name" v="Nedre Bekken" />
		<tag k="name" v="Bekken" />
		<tag k="place" v="farm" />
		<tag k="ssr:stedsnr" v="915953" />
	</node>
	<node lat="60.13109444156992" lon="12.424494444674975" id="-14852">
		<tag k="name" v="Steinbråtan" />
		<tag k="place" v="isolated_dwelling" />
		<tag k="ssr:stedsnr" v="915966" />
	</node>
	<node lat="60.038644444549846" lon="12.39559443975238" id="-14853">
		<tag k="name" v="Nyholt" />
		<tag k="place" v="isolated_dwelling" />
		<tag k="ssr:stedsnr" v="916043" />
	</node>
	<node lat="60.19104722346703" lon="11.896788887904167" id="-14857">
		<tag k="amenity" v="nursing_home" />
		<tag k="name" v="Skyrud demenssenter" />
		<tag k="old_name" v="Skyrud, øvre;Øvre Skyrud" />
		<tag k="ssr:stedsnr" v="916098" />
	</node>
	<node lat="60.267288889870265" lon="12.453850004707718" id="-14859">
		<tag k="name" v="Lia" />
		<tag k="place" v="farm" />
		<tag k="ssr:stedsnr" v="916182" />
	</node>
	<node lat="60.25554444142062" lon="12.334161105155484" id="-14860">
		<tag k="name" v="Vedabråtan" />
		<tag k="place" v="locality" />
		<tag k="ssr:stedsnr" v="916188" />
	</node>
	<node lat="60.254752781076846" lon="12.353724994391309" id="-14861">
		<tag k="alt_name" v="Smedtorpet, nordre" />
		<tag k="name" v="Nordre Smedtorpet" />
		<tag k="place" v="farm" />
		<tag k="ssr:stedsnr" v="916192" />
	</node>
	<node lat="60.23877777666424" lon="12.232366660399592" id="-14867">
		<tag k="alt_name" v="Nybråtån" />
		<tag k="name" v="Nybråtan" />
		<tag k="place" v="farm" />
		<tag k="ssr:stedsnr" v="916856" />
	</node>
	<node lat="60.24946110935658" lon="12.19005834147443" id="-14868">
		<tag k="name" v="Ormbakken" />
		<tag k="place" v="isolated_dwelling" />
		<tag k="ssr:stedsnr" v="916057" />
	</node>
	<node lat="60.2410901962411" lon="12.027399154712585" id="-14869">
		<tag k="fixme" v="consider place=hamlet" />
		<tag k="name" v="Leirrud" />
		<tag k="place" v="farm" />
		<tag k="ssr:stedsnr" v="916058" />
	</node>
	<node lat="60.243413889511395" lon="12.007055551856443" id="-14870">
		<tag k="name" v="Nordli" />
		<tag k="place" v="locality" />
		<tag k="ssr:stedsnr" v="916062" />
	</node>
	<node lat="60.01888610993361" lon="12.32902222300694" id="-14871">
		<tag k="alt_name" v="Flaen, nordre" />
		<tag k="name" v="Nordre Flaen" />
		<tag k="place" v="farm" />
		<tag k="ssr:stedsnr" v="916063" />
	</node>
	<node lat="60.20639444873978" lon="11.993963881932613" id="-14872">
		<tag k="name" v="Oppset" />
		<tag k="place" v="farm" />
		<tag k="ssr:stedsnr" v="916133" />
	</node>
	<node lat="60.21247777422046" lon="12.047374996666337" id="-14873">
		<tag k="name" v="Mensrud" />
		<tag k="place" v="farm" />
		<tag k="ssr:stedsnr" v="916134" />
	</node>
	<node lat="60.35486111087516" lon="12.329669447315492" id="-14874">
		<tag k="name" v="Nyheim" />
		<tag k="place" v="farm" />
		<tag k="ssr:stedsnr" v="916234" />
	</node>
	<node lat="60.3347305534279" lon="12.070836111399231" id="-14877">
		<tag k="name" v="Hanestadmoen" />
		<tag k="place" v="farm" />
		<tag k="ssr:stedsnr" v="916296" />
	</node>
	<node lat="60.2846888898044" lon="12.044194443069651" id="-14879">
		<tag k="name" v="Haug" />
		<tag k="place" v="farm" />
		<tag k="ssr:stedsnr" v="916503" />
	</node>
	<node lat="60.300966668120225" lon="12.198419438955273" id="-14882">
		<tag k="name" v="Sæterlia" />
		<tag k="place" v="farm" />
		<tag k="ssr:stedsnr" v="916512" />
	</node>
	<node lat="60.1821583327817" lon="12.103719439262184" id="-14883">
		<tag k="name" v="Olsrud" />
		<tag k="place" v="farm" />
		<tag k="ssr:stedsnr" v="916622" />
	</node>
	<node lat="60.17998888805817" lon="12.107397215204074" id="-14884">
		<tag k="name" v="Fransbråten" />
		<tag k="place" v="farm" />
		<tag k="ssr:stedsnr" v="916623" />
	</node>
	<node lat="60.25911761274875" lon="12.032956643005848" id="-14885">
		<tag k="alt_name" v="Rolstad, nordre" />
		<tag k="fixme" v="consider place=hamlet" />
		<tag k="name" v="Rolstad" />
		<tag k="place" v="farm" />
		<tag k="ssr:stedsnr" v="916459" />
	</node>
	<node lat="60.139855551614005" lon="12.15325000597933" id="-14886">
		<tag k="name" v="Grønkjølen" />
		<tag k="place" v="farm" />
		<tag k="ssr:stedsnr" v="916554" />
	</node>
	<node lat="60.13701111538173" lon="12.10911666873575" id="-14887">
		<tag k="name" v="Øverby" />
		<tag k="place" v="farm" />
		<tag k="ssr:stedsnr" v="916557" />
	</node>
	<node lat="60.1247722182475" lon="12.09488610352635" id="-14888">
		<tag k="name" v="Snare" />
		<tag k="old_name" v="Snåre" />
		<tag k="place" v="hamlet" />
		<tag k="ssr:stedsnr" v="916576" />
	</node>
	<node lat="60.13243889299544" lon="12.059161118497634" id="-14889">
		<tag k="alt_name" v="Nedre Bergimellom" />
		<tag k="name" v="Bergimellom" />
		<tag k="place" v="locality" />
		<tag k="ssr:stedsnr" v="916584" />
	</node>
	<node lat="60.14375277391423" lon="12.01230277285274" id="-14890">
		<tag k="name" v="Koia" />
		<tag k="place" v="farm" />
		<tag k="ssr:stedsnr" v="916608" />
	</node>
	<node lat="60.14452777529165" lon="12.069066665523263" id="-14891">
		<tag k="name" v="Gropa" />
		<tag k="place" v="locality" />
		<tag k="ssr:stedsnr" v="916610" />
	</node>
	<node lat="60.16139166633089" lon="12.34523889345511" id="-14893">
		<tag k="name" v="Sletta" />
		<tag k="place" v="isolated_dwelling" />
		<tag k="ssr:stedsnr" v="916993" />
	</node>
	<node lat="60.14683055900512" lon="12.297525007115373" id="-14894">
		<tag k="alt_name" v="Masterud, øvre" />
		<tag k="name" v="Øvre Masterud" />
		<tag k="place" v="farm" />
		<tag k="ssr:stedsnr" v="916999" />
	</node>
	<node lat="60.14858289700539" lon="12.450961901482552" id="-14897">
		<tag k="fixme" v="consider place=hamlet" />
		<tag k="name" v="Varaldskogen" />
		<tag k="place" v="farm" />
		<tag k="ssr:stedsnr" v="810731" />
	</node>
	<node lat="60.27748071307656" lon="12.141705021144636" id="-14898">
		<tag k="name" v="Hofoss" />
		<tag k="place" v="hamlet" />
		<tag k="ssr:stedsnr" v="819871" />
	</node>
	<node lat="60.33785833024397" lon="12.29654445217536" id="-14902">
		<tag k="name" v="Østhaug" />
		<tag k="place" v="isolated_dwelling" />
		<tag k="ssr:stedsnr" v="831087" />
	</node>
	<node lat="59.995205551350395" lon="12.360947227800143" id="-14905">
		<tag k="name" v="Øvre Berger" />
		<tag k="place" v="farm" />
		<tag k="ssr:stedsnr" v="831706" />
	</node>
	<node lat="60.0285111129949" lon="12.388583329788391" id="-14908">
		<tag k="name" v="Oppistua" />
		<tag k="place" v="farm" />
		<tag k="ssr:stedsnr" v="831692" />
	</node>
	<node lat="60.198572226553566" lon="11.905608336622942" id="-14910">
		<tag k="name" v="Kroken" />
		<tag k="place" v="farm" />
		<tag k="ssr:stedsnr" v="836597" />
	</node>
	<node lat="60.35357499578195" lon="11.973627768753891" id="-14924">
		<tag k="name" v="Vestli" />
		<tag k="place" v="farm" />
		<tag k="ssr:stedsnr" v="844905" />
	</node>
	<node lat="60.34493333582615" lon="11.981475004219282" id="-14929">
		<tag k="name" v="Nordgård" />
		<tag k="place" v="isolated_dwelling" />
		<tag k="ssr:stedsnr" v="844895" />
	</node>
	<node lat="60.13908055975918" lon="12.08322222114423" id="-14931">
		<tag k="name" v="Øvre Gjermshus" />
		<tag k="place" v="farm" />
		<tag k="ssr:stedsnr" v="846214" />
	</node>
	<node lat="60.191374997604456" lon="11.971666664132282" id="-14934">
		<tag k="amenity" v="school" />
		<tag k="name" v="Marikollen skole" />
		<tag k="ssr:stedsnr" v="846706" />
	</node>
	<node lat="60.34212222009976" lon="11.97741666747212" id="-14936">
		<tag k="name" v="Østli" />
		<tag k="place" v="isolated_dwelling" />
		<tag k="ssr:stedsnr" v="846787" />
	</node>
	<node lat="60.060005552846775" lon="12.283419437755477" id="-14946">
		<tag k="name" v="Monsrud" />
		<tag k="place" v="farm" />
		<tag k="ssr:stedsnr" v="855104" />
	</node>
	<node lat="60.20818333572161" lon="12.061255558850572" id="-14948">
		<tag k="name" v="Svensrud" />
		<tag k="place" v="farm" />
		<tag k="ssr:stedsnr" v="855126" />
	</node>
	<node lat="60.18778446897483" lon="11.98505050347185" id="-14949">
		<tag k="fixme" v="consider place=hamlet" />
		<tag k="name" v="Kurud" />
		<tag k="place" v="farm" />
		<tag k="ssr:stedsnr" v="855092" />
	</node>
	<node lat="60.0605944470275" lon="12.341575001826982" id="-14950">
		<tag k="name" v="Aspelund" />
		<tag k="place" v="farm" />
		<tag k="ssr:stedsnr" v="855096" />
	</node>
	<node lat="60.103230555722426" lon="11.932433341104177" id="-14953">
		<tag k="name" v="Steinbråtan" />
		<tag k="place" v="isolated_dwelling" />
		<tag k="ssr:stedsnr" v="855506" />
	</node>
	<node lat="60.10460000139662" lon="11.966583326332874" id="-14956">
		<tag k="name" v="Tobakksbråten" />
		<tag k="place" v="farm" />
		<tag k="ssr:stedsnr" v="855497" />
	</node>
	<node lat="60.14497499912896" lon="12.078141667939294" id="-14960">
		<tag k="alt_name" v="Rønningen" />
		<tag k="name" v="Gjermshusrønningen" />
		<tag k="place" v="farm" />
		<tag k="ssr:stedsnr" v="855585" />
	</node>
	<node lat="60.14528333259087" lon="11.947211114102899" id="-14961">
		<tag k="alt_name" v="Råliberget" />
		<tag k="name" v="Berget" />
		<tag k="place" v="isolated_dwelling" />
		<tag k="ssr:stedsnr" v="855595" />
	</node>
	<node lat="60.10371595536456" lon="12.325212663352694" id="-14964">
		<tag k="name" v="Skullerud" />
		<tag k="place" v="hamlet" />
		<tag k="ssr:stedsnr" v="855912" />
	</node>
	<node lat="60.10100833174172" lon="12.343752786511557" id="-14971">
		<tag k="name" v="Tjernsli" />
		<tag k="place" v="farm" />
		<tag k="ssr:stedsnr" v="855894" />
	</node>
	<node lat="60.15770833255092" lon="12.332549998277107" id="-14973">
		<tag k="name" v="Mellomgarden" />
		<tag k="place" v="farm" />
		<tag k="ssr:stedsnr" v="855997" />
	</node>
	<node lat="60.3246500013703" lon="12.02193888372524" id="-14977">
		<tag k="alt_name" v="Skau" />
		<tag k="name" v="Skog" />
		<tag k="place" v="farm" />
		<tag k="ssr:stedsnr" v="856311" />
	</node>
	<node lat="60.342580555354104" lon="12.068077774711487" id="-14984">
		<tag k="name" v="Hetta" />
		<tag k="place" v="farm" />
		<tag k="ssr:stedsnr" v="856335" />
	</node>
	<node lat="60.306672220896644" lon="12.105616675066067" id="-14985">
		<tag k="name" v="Bekk" />
		<tag k="place" v="farm" />
		<tag k="ssr:stedsnr" v="856504" />
	</node>
	<node lat="60.31030555977718" lon="11.985719451822337" id="-14986">
		<tag k="name" v="Bjørnstadbråten" />
		<tag k="place" v="farm" />
		<tag k="ssr:stedsnr" v="856508" />
	</node>
	<node lat="60.29477222129075" lon="12.16859444191596" id="-14987">
		<tag k="name" v="Slettkjølen" />
		<tag k="place" v="locality" />
		<tag k="ssr:stedsnr" v="856530" />
	</node>
	<node lat="60.20304722440337" lon="12.01147776986731" id="-14988">
		<tag k="name" v="Glåmlia" />
		<tag k="place" v="suburb" />
		<tag k="ssr:stedsnr" v="933179" />
	</node>
	<node lat="60.057599997585584" lon="12.346558339819255" id="-14989">
		<tag k="loc_name" v="Slettmoen;Oppistua" />
		<tag k="name" v="Sletmoen" />
		<tag k="place" v="farm" />
		<tag k="ssr:stedsnr" v="889622" />
	</node>
	<node lat="60.06537222267604" lon="12.268216667705017" id="-14997">
		<tag k="fixme" v="consider natural=beach + surface=sand" />
		<tag k="leisure" v="swimming_area" />
		<tag k="name" v="Enderud bad" />
		<tag k="place" v="locality" />
		<tag k="ssr:stedsnr" v="891777" />
	</node>
	<node lat="60.199591663874884" lon="11.911511108857765" id="-14999">
		<tag k="name" v="Magnusplassen" />
		<tag k="place" v="locality" />
		<tag k="ssr:stedsnr" v="892171" />
	</node>
	<node lat="60.10758889292662" lon="12.048991668810203" id="-15005">
		<tag k="name" v="Søndre Bøslungen" />
		<tag k="place" v="farm" />
		<tag k="ssr:stedsnr" v="896708" />
	</node>
	<node lat="60.27941388496453" lon="12.038402785395519" id="-15016">
		<tag k="name" v="Rystad" />
		<tag k="place" v="isolated_dwelling" />
		<tag k="ssr:stedsnr" v="905952" />
	</node>
	<node lat="60.150394447339586" lon="12.058455553226898" id="-15024">
		<tag k="name" v="Sjøli" />
		<tag k="place" v="farm" />
		<tag k="ssr:stedsnr" v="907561" />
	</node>
	<node lat="60.19928888629178" lon="12.330102778062992" id="-15026">
		<tag k="fixme" v="consider tourism=alpine_hut or tourism=chalet" />
		<tag k="name" v="Grasbråtan" />
		<tag k="ssr:stedsnr" v="907719" />
		<tag k="tourism" v="wilderness_hut" />
	</node>
	<node lat="60.039044447068925" lon="12.363950000187122" id="-15030">
		<tag k="name" v="Vestgården" />
		<tag k="place" v="farm" />
		<tag k="ssr:stedsnr" v="907700" />
	</node>
	<node lat="60.03846389056129" lon="12.365797224891876" id="-15031">
		<tag k="name" v="Fossheim" />
		<tag k="place" v="farm" />
		<tag k="ssr:stedsnr" v="907701" />
	</node>
	<node lat="60.34734167078148" lon="11.963544439681431" id="-15033">
		<tag k="name" v="Åvang" />
		<tag k="place" v="farm" />
		<tag k="ssr:stedsnr" v="908009" />
	</node>
	<node lat="60.36145555631153" lon="12.024566669186765" id="-15036">
		<tag k="name" v="Øyset" />
		<tag k="place" v="farm" />
		<tag k="ssr:stedsnr" v="908808" />
	</node>
	<node lat="60.357566667832685" lon="12.003261113471616" id="-15037">
		<tag k="name" v="Fredheim" />
		<tag k="place" v="farm" />
		<tag k="ssr:stedsnr" v="908809" />
	</node>
	<node lat="60.36148611537061" lon="12.001955554094367" id="-15038">
		<tag k="name" v="Åsli" />
		<tag k="place" v="farm" />
		<tag k="ssr:stedsnr" v="908810" />
	</node>
	<node lat="60.05714166763698" lon="12.346102786248693" id="-15040">
		<tag k="name" v="Søstua" />
		<tag k="place" v="locality" />
		<tag k="ssr:stedsnr" v="909654" />
	</node>
	<node lat="60.08595277546812" lon="12.455791666125295" id="-15041">
		<tag k="name" v="Karterudsætra" />
		<tag k="place" v="farm" />
		<tag k="ssr:stedsnr" v="915088" />
	</node>
	<node lat="60.06553055145639" lon="12.338786105058354" id="-15043">
		<tag k="name" v="Gylterudlia" />
		<tag k="place" v="farm" />
		<tag k="ssr:stedsnr" v="915102" />
	</node>
</osm>
