<?xml version="1.0" encoding="UTF-8"?>
<osm version="0.6" generator="osmapis">
	<node lat="60.3273833330749" lon="12.24371388404041" id="-14105">
		<tag k="fixme" v="consider highway=path" />
		<tag k="highway" v="track" />
		<tag k="name" v="Gamle Åsavegen" />
		<tag k="ssr:stedsnr" v="237671" />
	</node>
	<node lat="60.351155555391806" lon="11.954483330237188" id="-14118">
		<tag k="bridge" v="yes" />
		<tag k="layer" v="1" />
		<tag k="name" v="Haugom" />
		<tag k="ssr:stedsnr" v="46586" />
	</node>
	<node lat="60.31438889052952" lon="12.122561108507318" id="-14417">
		<tag k="ford" v="yes" />
		<tag k="name" v="Steinvadet" />
		<tag k="place" v="locality" />
		<tag k="ssr:stedsnr" v="179206" />
	</node>
	<node lat="60.1874661688564" lon="12.00359478733565" id="-14442">
		<tag k="name" v="Kongsvinger stasjon" />
		<tag k="railway" v="station" />
		<tag k="ssr:stedsnr" v="187092" />
		<tag k="train" v="yes" />
	</node>
	<node lat="60.25667222356578" lon="12.252636114152757" id="-14489">
		<tag k="highway" v="path" />
		<tag k="name" v="Styggdalsvegen" />
		<tag k="ssr:stedsnr" v="224440" />
	</node>
	<node lat="60.237452775726986" lon="12.023672225606017" id="-14496">
		<tag k="bridge" v="yes" />
		<tag k="layer" v="1" />
		<tag k="name" v="Leirud" />
		<tag k="ssr:stedsnr" v="228604" />
	</node>
	<node lat="60.194855552535714" lon="11.978491666370799" id="-14509">
		<tag k="landuse" v="industrial" />
		<tag k="name" v="Kongsvinger trafostasjon" />
		<tag k="power" v="plant" />
		<tag k="ssr:stedsnr" v="237892" />
	</node>
	<node lat="60.23234721891594" lon="12.45742222348456" id="-14562">
		<tag k="highway" v="path" />
		<tag k="name" v="Finnskogleden" />
		<tag k="ssr:stedsnr" v="265983" />
	</node>
	<node lat="60.14620555423349" lon="12.056091666290037" id="-14577">
		<tag k="bridge" v="yes" />
		<tag k="layer" v="1" />
		<tag k="name" v="Tarven bru" />
		<tag k="ssr:stedsnr" v="289611" />
	</node>
	<node lat="60.29742777833546" lon="12.237072214250512" id="-14578">
		<tag k="bridge" v="yes" />
		<tag k="layer" v="1" />
		<tag k="name" v="Aurå bru" />
		<tag k="ssr:stedsnr" v="289593" />
	</node>
	<node lat="60.24140000365766" lon="12.373666664556785" id="-14606">
		<tag k="bridge" v="yes" />
		<tag k="layer" v="1" />
		<tag k="name" v="Pjøsambrua" />
		<tag k="ssr:stedsnr" v="300914" />
	</node>
	<node lat="60.36252778054484" lon="12.411127782099404" id="-14663">
		<tag k="junction" v="yes" />
		<tag k="name" v="Siggastjennbakken" />
		<tag k="place" v="locality" />
		<tag k="ssr:stedsnr" v="466143" />
	</node>
	<node lat="60.10058333062434" lon="12.376227782445754" id="-14675">
		<tag k="bridge" v="yes" />
		<tag k="layer" v="1" />
		<tag k="name" v="Sundbrua" />
		<tag k="ssr:stedsnr" v="466859" />
	</node>
	<node lat="60.189027774611326" lon="11.995166668555818" id="-14686">
		<tag k="bridge" v="yes" />
		<tag k="layer" v="1" />
		<tag k="name" v="Elvebredden bru" />
		<tag k="ssr:stedsnr" v="471547" />
	</node>
	<node lat="60.325799997204605" lon="12.21552499220574" id="-14690">
		<tag k="bridge" v="yes" />
		<tag k="layer" v="1" />
		<tag k="name" v="Fischerbrua" />
		<tag k="ssr:stedsnr" v="343705" />
	</node>
	<node lat="60.255962944490626" lon="12.052736975658988" id="-14991">
		<tag k="name" v="Roverud stasjon" />
		<tag k="railway" v="station" />
		<tag k="ssr:stedsnr" v="673431" />
		<tag k="train" v="yes" />
	</node>
	<node lat="60.123338893268226" lon="12.049600003488493" id="-15027">
		<tag k="bridge" v="yes" />
		<tag k="layer" v="1" />
		<tag k="name" v="Strengelsrud" />
		<tag k="ssr:stedsnr" v="471564" />
	</node>
	<node lat="60.27311944677713" lon="12.090569440385373" id="-15147">
		<tag k="junction" v="yes" />
		<tag k="name" v="Årbogan" />
		<tag k="place" v="locality" />
		<tag k="ssr:stedsnr" v="543182" />
	</node>
	<node lat="60.20294444503146" lon="11.89302222238064" id="-15246">
		<tag k="landuse" v="industrial" />
		<tag k="name" v="Kongsvinger kraftverk" />
		<tag k="power" v="plant" />
		<tag k="ssr:stedsnr" v="601164" />
	</node>
	<node lat="60.305941665244696" lon="12.426966670192495" id="-15335">
		<tag k="highway" v="path" />
		<tag k="name" v="Eikersætervegen" />
		<tag k="ssr:stedsnr" v="661192" />
	</node>
	<node lat="60.22061111514064" lon="12.13718056370312" id="-15438">
		<tag k="junction" v="yes" />
		<tag k="name" v="Mastbrua" />
		<tag k="place" v="locality" />
		<tag k="ssr:stedsnr" v="891232" />
	</node>
	<node lat="60.28628055329531" lon="12.485458333756466" id="-15441">
		<tag k="fixme" v="consider highway=path" />
		<tag k="highway" v="track" />
		<tag k="name" v="Snusvegen" />
		<tag k="ssr:stedsnr" v="891298" />
	</node>
	<node lat="60.19303055204701" lon="11.8878916592279" id="-15591">
		<tag k="bridge" v="yes" />
		<tag k="layer" v="1" />
		<tag k="name" v="Skyrud" />
		<tag k="ssr:stedsnr" v="774621" />
	</node>
	<node lat="60.17959444705198" lon="12.321927777884033" id="-15767">
		<tag k="bridge" v="yes" />
		<tag k="layer" v="1" />
		<tag k="name" v="Smalsundet" />
		<tag k="ssr:stedsnr" v="835599" />
	</node>
	<node lat="60.35427777915608" lon="12.298380550180324" id="-15771">
		<tag k="bridge" v="yes" />
		<tag k="layer" v="1" />
		<tag k="name" v="Steinbrua" />
		<tag k="ssr:stedsnr" v="844031" />
	</node>
	<node lat="60.03335833628065" lon="12.371363892279595" id="-15854">
		<tag k="landuse" v="industrial" />
		<tag k="name" v="Brødbølfoss kraftverk" />
		<tag k="power" v="plant" />
		<tag k="ssr:stedsnr" v="891763" />
	</node>
</osm>
