<?xml version="1.0" encoding="UTF-8"?>
<osm version="0.6" generator="osmapis">
	<node lat="60.08042777920999" lon="12.24742500806658" id="-22397">
		<tag k="fixme" v="multiple name tags, choose one and add the other to alt_name" />
		<tag k="name" v="Gunnarsengbekken;Kjellerhullbekken" />
		<tag k="ssr:stedsnr" v="5061" />
		<tag k="waterway" v="stream" />
	</node>
	<node lat="60.073724998511324" lon="12.31275000216197" id="-22400">
		<tag k="alt_name" v="Fuglemyrtjennet" />
		<tag k="name" v="Fuglemyrdolpa" />
		<tag k="natural" v="water" />
		<tag k="ssr:stedsnr" v="5075" />
	</node>
	<node lat="60.14334722249732" lon="12.214800000916444" id="-22406">
		<tag k="name" v="Kalvbergtjennet" />
		<tag k="natural" v="water" />
		<tag k="ssr:stedsnr" v="5513" />
	</node>
	<node lat="60.15876944324102" lon="12.051411117305117" id="-22408">
		<tag k="alt_name" v="Vingersjøen, vesle" />
		<tag k="name" v="Vesle Vingersjøen" />
		<tag k="natural" v="water" />
		<tag k="ssr:stedsnr" v="5563" />
	</node>
	<node lat="60.24207500237243" lon="12.355850008563598" id="-22412">
		<tag k="name" v="Kvernbekken" />
		<tag k="ssr:stedsnr" v="5814" />
		<tag k="waterway" v="stream" />
	</node>
	<node lat="60.08915700590953" lon="12.400504777348672" id="-22413">
		<tag k="alt_name" v="Hærsjøen, s;Hærsjøen" />
		<tag k="name" v="Søndre Hærsjøen" />
		<tag k="natural" v="water" />
		<tag k="ssr:stedsnr" v="5866" />
		<tag k="water" v="lake" />
	</node>
	<node lat="60.187399998963095" lon="12.377724999991475" id="-22418">
		<tag k="alt_name" v="Nordre Sandvika" />
		<tag k="name" v="Sandvika" />
		<tag k="natural" v="bay" />
		<tag k="ssr:stedsnr" v="5758" />
	</node>
	<node lat="60.199724997396245" lon="12.450274995248934" id="-22420">
		<tag k="name" v="Vikeråa" />
		<tag k="ssr:stedsnr" v="5764" />
		<tag k="waterway" v="river" />
	</node>
	<node lat="60.21332500376767" lon="12.526475003978721" id="-22421">
		<tag k="name" v="Søndre Mosevatnet" />
		<tag k="natural" v="water" />
		<tag k="ssr:stedsnr" v="5769" />
		<tag k="water" v="lake" />
	</node>
	<node lat="60.1081555534054" lon="12.378583328480925" id="-22422">
		<tag k="name" v="Sauholmen" />
		<tag k="place" v="islet" />
		<tag k="ssr:stedsnr" v="5908" />
	</node>
	<node lat="60.145627774120136" lon="12.319350002970571" id="-22425">
		<tag k="name" v="Sæterholmen" />
		<tag k="place" v="islet" />
		<tag k="ssr:stedsnr" v="5981" />
	</node>
	<node lat="60.27345555398533" lon="12.290880559691068" id="-22428">
		<tag k="name" v="Vebjørnstjennet" />
		<tag k="natural" v="water" />
		<tag k="ssr:stedsnr" v="6169" />
	</node>
	<node lat="60.35230831206838" lon="11.841249720041452" id="-22439">
		<tag k="name" v="Balsjøen" />
		<tag k="natural" v="water" />
		<tag k="ssr:stedsnr" v="6889" />
		<tag k="water" v="lake" />
	</node>
	<node lat="60.32143332948267" lon="12.279961111995046" id="-22448">
		<tag k="name" v="Jersjøvika" />
		<tag k="natural" v="bay" />
		<tag k="ssr:stedsnr" v="40684" />
	</node>
	<node lat="60.205169443542566" lon="12.139005564496939" id="-22453">
		<tag k="name" v="Åkervika" />
		<tag k="natural" v="bay" />
		<tag k="ssr:stedsnr" v="237157" />
	</node>
	<node lat="60.094958330508" lon="12.30776666733426" id="-22455">
		<tag k="name" v="Bakkebekken" />
		<tag k="ssr:stedsnr" v="41775" />
		<tag k="waterway" v="stream" />
	</node>
	<node lat="60.190172224008464" lon="12.047566664424828" id="-22457">
		<tag k="name" v="Norstangen" />
		<tag k="natural" v="cape" />
		<tag k="ssr:stedsnr" v="42113" />
	</node>
	<node lat="60.34550555554264" lon="12.297741662609726" id="-22459">
		<tag k="name" v="Storholmen" />
		<tag k="place" v="islet" />
		<tag k="ssr:stedsnr" v="42072" />
	</node>
	<node lat="60.07541666945341" lon="12.34214999954109" id="-22464">
		<tag k="name" v="Stortangen" />
		<tag k="natural" v="cape" />
		<tag k="ssr:stedsnr" v="42791" />
	</node>
	<node lat="60.25665833129116" lon="12.058733340712163" id="-22483">
		<tag k="name" v="Roverudåa" />
		<tag k="ssr:stedsnr" v="237960" />
		<tag k="waterway" v="river" />
	</node>
	<node lat="60.24938332945847" lon="11.9616777688121" id="-22485">
		<tag k="name" v="Kalvbekken" />
		<tag k="ssr:stedsnr" v="239149" />
		<tag k="waterway" v="stream" />
	</node>
	<node lat="60.26296111273423" lon="12.449111119471763" id="-22490">
		<tag k="name" v="Vestjordbekken" />
		<tag k="ssr:stedsnr" v="239324" />
		<tag k="waterway" v="stream" />
	</node>
	<node lat="60.10872500099518" lon="12.490808325098467" id="-22493">
		<tag k="name" v="Sandodden" />
		<tag k="natural" v="cape" />
		<tag k="ssr:stedsnr" v="55008" />
	</node>
	<node lat="60.17395277981314" lon="12.52288889437589" id="-22494">
		<tag k="name" v="Langmyrtjennet" />
		<tag k="natural" v="water" />
		<tag k="ssr:stedsnr" v="55172" />
	</node>
	<node lat="60.20449444598593" lon="11.941138892801838" id="-22500">
		<tag k="name" v="Fjølabrubekken" />
		<tag k="ssr:stedsnr" v="239756" />
		<tag k="waterway" v="stream" />
	</node>
	<node lat="60.16279999814736" lon="12.052272217229149" id="-22501">
		<tag k="name" v="Fiskegarden" />
		<tag k="natural" v="strait" />
		<tag k="ssr:stedsnr" v="55567" />
	</node>
	<node lat="60.32670555382878" lon="12.265455551869703" id="-22504">
		<tag k="name" v="Bergevika" />
		<tag k="natural" v="bay" />
		<tag k="ssr:stedsnr" v="55609" />
	</node>
	<node lat="60.135180555660966" lon="12.060486102968289" id="-22512">
		<tag k="name" v="Lierdemningen" />
		<tag k="old_name" v="Lierdammen" />
		<tag k="ssr:stedsnr" v="57574" />
		<tag k="waterway" v="dam" />
	</node>
	<node lat="60.11843889116219" lon="12.355877769915065" id="-22516">
		<tag k="alt_name" v="Vesle Stuphulltjernet" />
		<tag k="name" v="Vesle Stupholtjennet" />
		<tag k="natural" v="water" />
		<tag k="ssr:stedsnr" v="57776" />
	</node>
	<node lat="60.11645555578853" lon="12.373716661260568" id="-22517">
		<tag k="name" v="Langtangen" />
		<tag k="natural" v="cape" />
		<tag k="ssr:stedsnr" v="57778" />
	</node>
	<node lat="60.30997778149619" lon="11.995880561624386" id="-22521">
		<tag k="name" v="Skredbekken" />
		<tag k="ssr:stedsnr" v="57968" />
		<tag k="waterway" v="stream" />
	</node>
	<node lat="60.256102779142466" lon="11.95450833524443" id="-22523">
		<tag k="name" v="Lysbekken" />
		<tag k="ssr:stedsnr" v="58183" />
		<tag k="waterway" v="stream" />
	</node>
	<node lat="60.01411111457441" lon="12.383583334440848" id="-22529">
		<tag k="name" v="Tangevika" />
		<tag k="natural" v="bay" />
		<tag k="ssr:stedsnr" v="59716" />
	</node>
	<node lat="60.18609721795988" lon="11.977866670815628" id="-22531">
		<tag k="name" v="Hyttebakkdammen" />
		<tag k="natural" v="water" />
		<tag k="ssr:stedsnr" v="59617" />
	</node>
	<node lat="60.284286113253145" lon="12.400794439919784" id="-22538">
		<tag k="name" v="Bikkjedulpa" />
		<tag k="natural" v="water" />
		<tag k="ssr:stedsnr" v="241103" />
		<tag k="water" v="pond" />
	</node>
	<node lat="60.15033611544311" lon="12.490858333786836" id="-22539">
		<tag k="name" v="Sårsalampi" />
		<tag k="natural" v="water" />
		<tag k="ssr:stedsnr" v="241199" />
	</node>
	<node lat="60.24303888894846" lon="11.899327768821044" id="-22547">
		<tag k="name" v="Svarttjennet" />
		<tag k="natural" v="water" />
		<tag k="ssr:stedsnr" v="66023" />
	</node>
	<node lat="60.26620833261738" lon="12.397750000466905" id="-22549">
		<tag k="name" v="Sanatjenna" />
		<tag k="natural" v="water" />
		<tag k="ssr:stedsnr" v="66165" />
		<tag k="water" v="lake" />
	</node>
	<node lat="60.07993332998711" lon="12.4391277691707" id="-22552">
		<tag k="name" v="Stormyrtjenn" />
		<tag k="natural" v="water" />
		<tag k="ssr:stedsnr" v="66096" />
	</node>
	<node lat="60.14198611224184" lon="11.991386119841245" id="-22557">
		<tag k="name" v="Holerfløyta" />
		<tag k="natural" v="water" />
		<tag k="ssr:stedsnr" v="66573" />
	</node>
	<node lat="60.18223611335681" lon="11.976644447784592" id="-22558">
		<tag k="name" v="Bjørnmyrdammen" />
		<tag k="natural" v="water" />
		<tag k="ssr:stedsnr" v="66578" />
	</node>
	<node lat="60.27222499685719" lon="12.476644447423242" id="-22573">
		<tag k="name" v="Paskobekken" />
		<tag k="ssr:stedsnr" v="67201" />
		<tag k="waterway" v="stream" />
	</node>
	<node lat="60.274091666713275" lon="12.508091668725724" id="-22574">
		<tag k="name" v="Ingervadsjøen" />
		<tag k="natural" v="water" />
		<tag k="ssr:stedsnr" v="67202" />
	</node>
	<node lat="60.27537221879891" lon="12.098275000664543" id="-22576">
		<tag k="name" v="Skasåa" />
		<tag k="ssr:stedsnr" v="67404" />
		<tag k="waterway" v="river" />
	</node>
	<node lat="60.32228889129358" lon="11.93870276942816" id="-22584">
		<tag k="name" v="Rudsætertjennet" />
		<tag k="natural" v="water" />
		<tag k="ssr:stedsnr" v="67314" />
	</node>
	<node lat="60.26368611334453" lon="12.06129722357621" id="-22586">
		<tag k="name" v="Gjølstadsætertjennet" />
		<tag k="natural" v="water" />
		<tag k="ssr:stedsnr" v="82014" />
	</node>
	<node lat="60.05991389039212" lon="12.447236105760696" id="-22592">
		<tag k="name" v="Sætertjenn" />
		<tag k="natural" v="water" />
		<tag k="ssr:stedsnr" v="248125" />
	</node>
	<node lat="60.065280559200865" lon="12.32596666297976" id="-22593">
		<tag k="name" v="Finnlitjenn" />
		<tag k="natural" v="water" />
		<tag k="ssr:stedsnr" v="248096" />
	</node>
	<node lat="59.99409444690161" lon="12.346602769233803" id="-22595">
		<tag k="name" v="Sætertjennet" />
		<tag k="natural" v="water" />
		<tag k="ssr:stedsnr" v="248243" />
	</node>
	<node lat="60.156819443830976" lon="11.916736111235199" id="-22605">
		<tag k="name" v="Klomma" />
		<tag k="ssr:stedsnr" v="248576" />
		<tag k="waterway" v="stream" />
	</node>
	<node lat="60.14729722171237" lon="11.99657221948554" id="-22610">
		<tag k="name" v="Aurtjennet" />
		<tag k="natural" v="water" />
		<tag k="ssr:stedsnr" v="248591" />
	</node>
	<node lat="60.1781513268937" lon="12.054611616436839" id="-22617">
		<tag k="name" v="Vingersjøen" />
		<tag k="natural" v="water" />
		<tag k="ssr:stedsnr" v="248623" />
		<tag k="water" v="lake" />
	</node>
	<node lat="60.19614722329256" lon="12.53941667210273" id="-22622">
		<tag k="name" v="Råbergstjennet" />
		<tag k="natural" v="water" />
		<tag k="ssr:stedsnr" v="102407" />
	</node>
	<node lat="60.17197222013588" lon="12.34113889325025" id="-22623">
		<tag k="name" v="Boksholmen" />
		<tag k="place" v="islet" />
		<tag k="ssr:stedsnr" v="248762" />
	</node>
	<node lat="60.18355000201464" lon="12.341655559434551" id="-22630">
		<tag k="name" v="Kvernvika" />
		<tag k="natural" v="bay" />
		<tag k="ssr:stedsnr" v="248775" />
	</node>
	<node lat="60.17388333268823" lon="12.260272223561785" id="-22631">
		<tag k="name" v="Svarttjenn" />
		<tag k="natural" v="water" />
		<tag k="ssr:stedsnr" v="248778" />
	</node>
	<node lat="60.18137499986776" lon="12.22987777725683" id="-22636">
		<tag k="name" v="Raustadbekken" />
		<tag k="ssr:stedsnr" v="248792" />
		<tag k="waterway" v="stream" />
	</node>
	<node lat="60.24080555310754" lon="12.453825003830001" id="-22640">
		<tag k="alt_name" v="Øyersjøen, nordre" />
		<tag k="name" v="Nordre Øyersjøen" />
		<tag k="natural" v="water" />
		<tag k="ssr:stedsnr" v="248842" />
		<tag k="water" v="lake" />
	</node>
	<node lat="60.39160000090693" lon="12.301822217474236" id="-22643">
		<tag k="name" v="Langbrenna" />
		<tag k="natural" v="cape" />
		<tag k="ssr:stedsnr" v="249035" />
	</node>
	<node lat="60.262094447045" lon="12.040936109415702" id="-22650">
		<tag k="name" v="Øyersand" />
		<tag k="place" v="islet" />
		<tag k="ssr:stedsnr" v="249446" />
	</node>
	<node lat="60.25632499562837" lon="12.045355562394295" id="-22658">
		<tag k="name" v="Lysand" />
		<tag k="natural" v="cape" />
		<tag k="ssr:stedsnr" v="249429" />
	</node>
	<node lat="60.22367222131718" lon="12.28569167522962" id="-22665">
		<tag k="name" v="Rundvatjennet" />
		<tag k="natural" v="water" />
		<tag k="ssr:stedsnr" v="116370" />
	</node>
	<node lat="60.167761113921465" lon="12.139572221822077" id="-22679">
		<tag k="name" v="Digerdammen" />
		<tag k="ssr:stedsnr" v="118781" />
		<tag k="waterway" v="dam" />
	</node>
	<node lat="60.227997226039264" lon="12.325866667087368" id="-22683">
		<tag k="name" v="Hvitamækktjennet" />
		<tag k="natural" v="water" />
		<tag k="ssr:stedsnr" v="118976" />
	</node>
	<node lat="60.311869449024734" lon="12.350491659876393" id="-22684">
		<tag k="name" v="Kartnagatjenna" />
		<tag k="natural" v="water" />
		<tag k="ssr:stedsnr" v="119106" />
	</node>
	<node lat="60.21222222462383" lon="12.20617500696459" id="-22697">
		<tag k="name" v="Lystadsætertjennet" />
		<tag k="natural" v="water" />
		<tag k="ssr:stedsnr" v="126114" />
	</node>
	<node lat="60.06139999624525" lon="12.396150005773343" id="-22698">
		<tag k="fixme" v="multiple name tags, choose one and add the other to alt_name" />
		<tag k="name" v="Karterudåa;Østgårdsåa" />
		<tag k="ssr:stedsnr" v="126120" />
		<tag k="waterway" v="stream" />
	</node>
	<node lat="60.07206111079695" lon="12.300683325385144" id="-22702">
		<tag k="name" v="Sætertjennet" />
		<tag k="natural" v="water" />
		<tag k="ssr:stedsnr" v="126081" />
	</node>
	<node lat="60.1998833290741" lon="12.265330550063092" id="-22710">
		<tag k="name" v="Mengåa" />
		<tag k="ssr:stedsnr" v="126764" />
		<tag k="waterway" v="river" />
	</node>
	<node lat="60.24705555789236" lon="12.489866672552514" id="-22714">
		<tag k="name" v="Vidtjennet" />
		<tag k="natural" v="water" />
		<tag k="ssr:stedsnr" v="126824" />
	</node>
	<node lat="60.252121757076104" lon="12.077913081210811" id="-22718">
		<tag k="name" v="Prestegardstjennet" />
		<tag k="natural" v="water" />
		<tag k="ssr:stedsnr" v="127054" />
	</node>
	<node lat="60.26639444154655" lon="12.321266664172802" id="-22721">
		<tag k="name" v="Brennatjennet" />
		<tag k="natural" v="water" />
		<tag k="ssr:stedsnr" v="127203" />
	</node>
	<node lat="60.345855553816" lon="12.302255562002317" id="-22723">
		<tag k="name" v="Gravsjøen" />
		<tag k="natural" v="water" />
		<tag k="ssr:stedsnr" v="127227" />
	</node>
	<node lat="60.27808333581414" lon="12.503172227471149" id="-22728">
		<tag k="name" v="Lillfløyta" />
		<tag k="place" v="locality" />
		<tag k="ssr:stedsnr" v="127197" />
	</node>
	<node lat="60.26286110848977" lon="11.940477783181876" id="-22732">
		<tag k="name" v="Gjølstadsætertjenn" />
		<tag k="natural" v="water" />
		<tag k="ssr:stedsnr" v="127403" />
	</node>
	<node lat="60.12064420621002" lon="12.04229667783744" id="-22738">
		<tag k="name" v="Sigernessjøen" />
		<tag k="natural" v="water" />
		<tag k="ssr:stedsnr" v="127604" />
		<tag k="water" v="lake" />
	</node>
	<node lat="60.13646111348667" lon="12.073475005513753" id="-22745">
		<tag k="name" v="Flyginnsjøen" />
		<tag k="natural" v="water" />
		<tag k="ssr:stedsnr" v="127589" />
	</node>
	<node lat="60.237372222614816" lon="12.440902782981645" id="-22748">
		<tag k="name" v="Svarttjenn" />
		<tag k="natural" v="water" />
		<tag k="ssr:stedsnr" v="127841" />
	</node>
	<node lat="60.394563888479475" lon="12.259905553760316" id="-22749">
		<tag k="name" v="Rådelsbekken" />
		<tag k="ssr:stedsnr" v="128046" />
		<tag k="waterway" v="stream" />
	</node>
	<node lat="60.13182500349441" lon="11.93276388710766" id="-22751">
		<tag k="name" v="Opptjennsbrennene" />
		<tag k="ssr:stedsnr" v="161697" />
		<tag k="waterway" v="stream" />
	</node>
	<node lat="60.13067777810851" lon="12.320163895428257" id="-22752">
		<tag k="name" v="Lomvika" />
		<tag k="natural" v="bay" />
		<tag k="ssr:stedsnr" v="161754" />
	</node>
	<node lat="60.11740555986591" lon="12.319430554622175" id="-22754">
		<tag k="name" v="Solbergåa" />
		<tag k="ssr:stedsnr" v="161759" />
		<tag k="waterway" v="river" />
	</node>
	<node lat="60.21053055586759" lon="12.526261108953141" id="-22759">
		<tag k="name" v="Norska Viken" />
		<tag k="natural" v="bay" />
		<tag k="ssr:stedsnr" v="163308" />
	</node>
	<node lat="60.01192222581288" lon="12.371322225448818" id="-22760">
		<tag k="name" v="Halteigvika" />
		<tag k="natural" v="bay" />
		<tag k="ssr:stedsnr" v="163716" />
	</node>
	<node lat="60.09978333243517" lon="12.317863880543438" id="-22763">
		<tag k="name" v="Bukkholmen" />
		<tag k="place" v="islet" />
		<tag k="ssr:stedsnr" v="163765" />
	</node>
	<node lat="60.10953333383998" lon="12.475022220626581" id="-22765">
		<tag k="name" v="Tobakkvika" />
		<tag k="natural" v="bay" />
		<tag k="ssr:stedsnr" v="176008" />
	</node>
	<node lat="60.22091389178932" lon="12.282919444599171" id="-22769">
		<tag k="name" v="Hanoatjennet" />
		<tag k="natural" v="water" />
		<tag k="ssr:stedsnr" v="176359" />
	</node>
	<node lat="60.290166663574006" lon="12.323405561385146" id="-22775">
		<tag k="name" v="Djevelodden" />
		<tag k="natural" v="cape" />
		<tag k="ssr:stedsnr" v="176916" />
	</node>
	<node lat="60.12727221959849" lon="12.392580560107634" id="-22787">
		<tag k="name" v="Kappusbekken" />
		<tag k="ssr:stedsnr" v="179768" />
		<tag k="waterway" v="stream" />
	</node>
	<node lat="60.00651388452918" lon="12.379008333056545" id="-22793">
		<tag k="name" v="Sundstrandfossen" />
		<tag k="natural" v="waterfall" />
		<tag k="ssr:stedsnr" v="180724" />
	</node>
	<node lat="60.0724083354764" lon="12.368424999006736" id="-22799">
		<tag k="name" v="Eintjenn" />
		<tag k="natural" v="water" />
		<tag k="ssr:stedsnr" v="187104" />
	</node>
	<node lat="60.17183055537088" lon="12.429175004777093" id="-22814">
		<tag k="name" v="Fjørsjøen" />
		<tag k="natural" v="water" />
		<tag k="ssr:stedsnr" v="187729" />
	</node>
	<node lat="60.10198611561826" lon="12.340019443927636" id="-22818">
		<tag k="name" v="Damtjenn" />
		<tag k="natural" v="water" />
		<tag k="ssr:stedsnr" v="187905" />
	</node>
	<node lat="60.15200277463132" lon="12.404116663669896" id="-22825">
		<tag k="alt_name" v="Silkåa" />
		<tag k="name" v="Sikåa" />
		<tag k="ssr:stedsnr" v="187970" />
		<tag k="waterway" v="river" />
	</node>
	<node lat="60.29281388667523" lon="12.280661104830617" id="-22827">
		<tag k="name" v="Hornet" />
		<tag k="place" v="locality" />
		<tag k="ssr:stedsnr" v="188190" />
	</node>
	<node lat="60.25935277572992" lon="11.94824444116532" id="-22832">
		<tag k="name" v="Lysen" />
		<tag k="natural" v="water" />
		<tag k="ssr:stedsnr" v="188422" />
		<tag k="water" v="lake" />
	</node>
	<node lat="60.29002500093768" lon="12.063680561497007" id="-22839">
		<tag k="name" v="Midtre Rytjennet" />
		<tag k="natural" v="water" />
		<tag k="ssr:stedsnr" v="188527" />
	</node>
	<node lat="60.27530833614075" lon="12.21178055858628" id="-22847">
		<tag k="name" v="Rundgravvika" />
		<tag k="natural" v="bay" />
		<tag k="ssr:stedsnr" v="221571" />
	</node>
	<node lat="60.3094972218259" lon="12.424149996433778" id="-22868">
		<tag k="name" v="Kvernbekken" />
		<tag k="ssr:stedsnr" v="237198" />
		<tag k="waterway" v="stream" />
	</node>
	<node lat="60.23100000193788" lon="12.29243055640337" id="-22870">
		<tag k="name" v="Einahodulpa" />
		<tag k="natural" v="water" />
		<tag k="ssr:stedsnr" v="237386" />
		<tag k="water" v="pond" />
	</node>
	<node lat="60.19756389189929" lon="12.15647500221854" id="-22888">
		<tag k="name" v="Mariholmen" />
		<tag k="place" v="islet" />
		<tag k="ssr:stedsnr" v="241835" />
	</node>
	<node lat="60.35889444680916" lon="12.38279166938347" id="-22900">
		<tag k="name" v="Gjeddetjennet" />
		<tag k="natural" v="water" />
		<tag k="ssr:stedsnr" v="248212" />
	</node>
	<node lat="60.3522249987357" lon="12.039808340320077" id="-22905">
		<tag k="name" v="Lauta" />
		<tag k="natural" v="cape" />
		<tag k="ssr:stedsnr" v="248254" />
	</node>
	<node lat="60.11911944691499" lon="12.108291675290944" id="-22908">
		<tag k="name" v="Holmtjennet" />
		<tag k="natural" v="water" />
		<tag k="ssr:stedsnr" v="248506" />
	</node>
	<node lat="60.11780833189538" lon="11.962616674469922" id="-22909">
		<tag k="name" v="Speismarktjennet" />
		<tag k="natural" v="water" />
		<tag k="ssr:stedsnr" v="248510" />
	</node>
	<node lat="60.21530277773031" lon="12.374558333530645" id="-22913">
		<tag k="name" v="Fløyta" />
		<tag k="natural" v="water" />
		<tag k="ssr:stedsnr" v="248812" />
	</node>
	<node lat="60.23349166510103" lon="12.228936110685694" id="-22915">
		<tag k="name" v="Høgbergstjennet" />
		<tag k="natural" v="water" />
		<tag k="ssr:stedsnr" v="248850" />
	</node>
	<node lat="60.09346388885721" lon="12.299316665568846" id="-22917">
		<tag k="name" v="Ampianstjenn" />
		<tag k="natural" v="water" />
		<tag k="ssr:stedsnr" v="248906" />
	</node>
	<node lat="60.30842222300944" lon="12.244002783146634" id="-22923">
		<tag k="name" v="Vestre Nysætertjennet" />
		<tag k="natural" v="water" />
		<tag k="ssr:stedsnr" v="249124" />
	</node>
	<node lat="60.28168055959819" lon="11.944116673239078" id="-22934">
		<tag k="name" v="Grasbergtjennet" />
		<tag k="natural" v="water" />
		<tag k="ssr:stedsnr" v="284531" />
	</node>
	<node lat="60.28500278116769" lon="11.984938893290979" id="-22938">
		<tag k="name" v="Dambråtebekken" />
		<tag k="ssr:stedsnr" v="284998" />
		<tag k="waterway" v="stream" />
	</node>
	<node lat="60.367402777669355" lon="12.320880548397263" id="-22949">
		<tag k="name" v="Vesleholmen" />
		<tag k="place" v="islet" />
		<tag k="ssr:stedsnr" v="298037" />
	</node>
	<node lat="60.32899444582109" lon="12.267977770181467" id="-22952">
		<tag k="name" v="Åsaholmen" />
		<tag k="place" v="islet" />
		<tag k="ssr:stedsnr" v="298630" />
	</node>
	<node lat="60.232383333828935" lon="11.995497221782076" id="-22958">
		<tag k="name" v="Steinbekken" />
		<tag k="ssr:stedsnr" v="298898" />
		<tag k="waterway" v="stream" />
	</node>
	<node lat="60.152555557368466" lon="12.438091666312488" id="-22967">
		<tag k="name" v="Osvika" />
		<tag k="natural" v="bay" />
		<tag k="ssr:stedsnr" v="300207" />
	</node>
	<node lat="60.122894440220556" lon="12.04949721444042" id="-22969">
		<tag k="name" v="Strengelsruddemningen" />
		<tag k="old_name" v="Strengelsruddammen" />
		<tag k="ssr:stedsnr" v="300588" />
		<tag k="waterway" v="dam" />
	</node>
	<node lat="60.28964722142624" lon="12.226636102619924" id="-22970">
		<tag k="name" v="Steinreisdammen" />
		<tag k="ssr:stedsnr" v="300713" />
		<tag k="waterway" v="dam" />
	</node>
	<node lat="60.13242500245616" lon="12.485227781410277" id="-22975">
		<tag k="name" v="Kerrolampi" />
		<tag k="natural" v="water" />
		<tag k="ssr:stedsnr" v="301212" />
	</node>
	<node lat="60.23023888914203" lon="12.50925834132309" id="-22977">
		<tag k="name" v="Kosk" />
		<tag k="natural" v="waterfall" />
		<tag k="ssr:stedsnr" v="301126" />
	</node>
	<node lat="60.35672222570589" lon="12.365872224969676" id="-22978">
		<tag k="name" v="Vibekken" />
		<tag k="ssr:stedsnr" v="464044" />
		<tag k="waterway" v="stream" />
	</node>
	<node lat="60.246827775571404" lon="12.449852781996874" id="-22980">
		<tag k="name" v="Kjerringbekken" />
		<tag k="ssr:stedsnr" v="464350" />
		<tag k="waterway" v="stream" />
	</node>
	<node lat="60.25505555359711" lon="12.41936943795011" id="-22984">
		<tag k="name" v="Kjerketjennsbekken" />
		<tag k="ssr:stedsnr" v="465343" />
		<tag k="waterway" v="stream" />
	</node>
	<node lat="60.28105000253575" lon="12.345555560696608" id="-23006">
		<tag k="name" v="Tullreisbekken" />
		<tag k="ssr:stedsnr" v="309194" />
		<tag k="waterway" v="stream" />
	</node>
	<node lat="60.29578333004648" lon="12.144741666715783" id="-23009">
		<tag k="name" v="Borketjennet" />
		<tag k="natural" v="water" />
		<tag k="ssr:stedsnr" v="309507" />
	</node>
	<node lat="60.174725000513895" lon="12.391575003824554" id="-23022">
		<tag k="name" v="Tråssholma" />
		<tag k="place" v="islet" />
		<tag k="ssr:stedsnr" v="309743" />
	</node>
	<node lat="60.170733332432114" lon="12.370425000042982" id="-23023">
		<tag k="name" v="Møkeren" />
		<tag k="natural" v="water" />
		<tag k="ssr:stedsnr" v="309744" />
		<tag k="water" v="lake" />
	</node>
	<node lat="60.17321944824572" lon="12.49073610880811" id="-23024">
		<tag k="name" v="Svarttjennet" />
		<tag k="natural" v="water" />
		<tag k="ssr:stedsnr" v="309992" />
	</node>
	<node lat="60.34597777462082" lon="12.308830546228695" id="-23026">
		<tag k="name" v="Gravsjøfallet" />
		<tag k="natural" v="waterfall" />
		<tag k="ssr:stedsnr" v="466067" />
	</node>
	<node lat="60.11118610876344" lon="12.467288881309745" id="-23031">
		<tag k="name" v="Pynteodden" />
		<tag k="natural" v="cape" />
		<tag k="ssr:stedsnr" v="466292" />
	</node>
	<node lat="60.35347500097012" lon="12.434413886682023" id="-23033">
		<tag k="name" v="Raiskroken" />
		<tag k="place" v="locality" />
		<tag k="ssr:stedsnr" v="466204" />
	</node>
	<node lat="60.240150001767915" lon="12.28807499448338" id="-23035">
		<tag k="name" v="Revtjennet" />
		<tag k="natural" v="water" />
		<tag k="ssr:stedsnr" v="466475" />
	</node>
	<node lat="60.28360833003683" lon="11.998008335133667" id="-23045">
		<tag k="name" v="Unumsåa" />
		<tag k="ssr:stedsnr" v="466994" />
		<tag k="waterway" v="stream" />
	</node>
	<node lat="60.27216111533394" lon="11.969827780856322" id="-23047">
		<tag k="name" v="Sølvtjennbekken" />
		<tag k="ssr:stedsnr" v="466999" />
		<tag k="waterway" v="stream" />
	</node>
	<node lat="60.180463892687996" lon="12.475719451490404" id="-23048">
		<tag k="name" v="Thaursuotjennet" />
		<tag k="natural" v="water" />
		<tag k="ssr:stedsnr" v="467196" />
	</node>
	<node lat="60.3924249968218" lon="12.300691667573327" id="-23049">
		<tag k="name" v="Furua" />
		<tag k="place" v="islet" />
		<tag k="ssr:stedsnr" v="467430" />
	</node>
	<node lat="60.372230556819424" lon="12.355822231024403" id="-23050">
		<tag k="name" v="Kringla" />
		<tag k="natural" v="shoal" />
		<tag k="place" v="locality" />
		<tag k="ssr:stedsnr" v="467491" />
	</node>
	<node lat="60.14386666992799" lon="12.122211109829712" id="-23057">
		<tag k="name" v="Deilbekken" />
		<tag k="ssr:stedsnr" v="343833" />
		<tag k="waterway" v="stream" />
	</node>
	<node lat="60.19302778193916" lon="12.052711103164626" id="-23059">
		<tag k="name" v="Nestebyvika" />
		<tag k="natural" v="bay" />
		<tag k="ssr:stedsnr" v="345117" />
	</node>
	<node lat="60.25954444153385" lon="12.142141668184246" id="-23060">
		<tag k="name" v="Moabekken" />
		<tag k="ssr:stedsnr" v="345170" />
		<tag k="waterway" v="stream" />
	</node>
	<node lat="60.388897220118366" lon="12.303202780843296" id="-23061">
		<tag k="name" v="Matteslåtthaugen" />
		<tag k="natural" v="cape" />
		<tag k="ssr:stedsnr" v="345455" />
	</node>
	<node lat="60.31462499775526" lon="12.20736389444794" id="-23064">
		<tag k="name" v="Skåltjennet" />
		<tag k="natural" v="water" />
		<tag k="ssr:stedsnr" v="345610" />
	</node>
	<node lat="60.27439166517911" lon="11.99932778397855" id="-23070">
		<tag k="name" v="Delbekken" />
		<tag k="ssr:stedsnr" v="345976" />
		<tag k="waterway" v="stream" />
	</node>
	<node lat="60.30838333405442" lon="12.334791668387759" id="-23073">
		<tag k="name" v="Grautsjødammen" />
		<tag k="ssr:stedsnr" v="358109" />
		<tag k="waterway" v="dam" />
	</node>
	<node lat="60.34679999681921" lon="12.304713886476495" id="-23074">
		<tag k="name" v="Ørda" />
		<tag k="natural" v="cape" />
		<tag k="ssr:stedsnr" v="358047" />
	</node>
	<node lat="60.29097777534937" lon="12.327886109623321" id="-23083">
		<tag k="name" v="Ormtjennet" />
		<tag k="natural" v="water" />
		<tag k="ssr:stedsnr" v="358916" />
	</node>
	<node lat="60.18178055739884" lon="12.339147218806257" id="-23085">
		<tag k="name" v="Buvika" />
		<tag k="natural" v="bay" />
		<tag k="ssr:stedsnr" v="358947" />
	</node>
	<node lat="60.36535833282385" lon="12.343825006721374" id="-23093">
		<tag k="name" v="Gøsiholmen" />
		<tag k="place" v="islet" />
		<tag k="ssr:stedsnr" v="479023" />
	</node>
	<node lat="60.34723888702979" lon="12.296441672232675" id="-23094">
		<tag k="name" v="Morttjennsbekken" />
		<tag k="ssr:stedsnr" v="479029" />
		<tag k="waterway" v="stream" />
	</node>
	<node lat="60.12659444279139" lon="11.931619436864336" id="-23099">
		<tag k="name" v="Opptjennet" />
		<tag k="natural" v="water" />
		<tag k="ssr:stedsnr" v="369503" />
	</node>
	<node lat="60.15030555463114" lon="12.028575002966466" id="-23100">
		<tag k="name" v="Føskersjøen" />
		<tag k="natural" v="water" />
		<tag k="old_name" v="Frøkensjøen" />
		<tag k="ssr:stedsnr" v="369509" />
		<tag k="water" v="lake" />
	</node>
	<node lat="60.16833888927162" lon="12.12422500624501" id="-23101">
		<tag k="name" v="Skinnarbølåa" />
		<tag k="ssr:stedsnr" v="369514" />
		<tag k="waterway" v="stream" />
	</node>
	<node lat="60.095877777497705" lon="11.929391672306966" id="-23104">
		<tag k="name" v="Furukolltjenna" />
		<tag k="natural" v="water" />
		<tag k="ssr:stedsnr" v="369682" />
		<tag k="water" v="lake" />
	</node>
	<node lat="60.16045555478786" lon="12.492255559499405" id="-23110">
		<tag k="name" v="Larbekken" />
		<tag k="ssr:stedsnr" v="369974" />
		<tag k="waterway" v="stream" />
	</node>
	<node lat="60.31045000346911" lon="11.922863891056023" id="-23115">
		<tag k="fixme" v="multiple name tags, choose one and add the other to alt_name" />
		<tag k="name" v="Bjørnstadsætertjennet;Heimsætertjernet" />
		<tag k="natural" v="water" />
		<tag k="ssr:stedsnr" v="370024" />
	</node>
	<node lat="60.29958055509235" lon="12.232994449004519" id="-23117">
		<tag k="name" v="Auråtjennet" />
		<tag k="natural" v="water" />
		<tag k="ssr:stedsnr" v="370168" />
	</node>
	<node lat="60.30391944724322" lon="12.317577778396336" id="-23118">
		<tag k="name" v="Skjuldalsbekken" />
		<tag k="ssr:stedsnr" v="370173" />
		<tag k="waterway" v="stream" />
	</node>
	<node lat="60.28560000378688" lon="12.239719452380644" id="-23119">
		<tag k="name" v="Steinvika" />
		<tag k="natural" v="bay" />
		<tag k="ssr:stedsnr" v="370182" />
	</node>
	<node lat="60.3011000022277" lon="12.458663885686386" id="-23120">
		<tag k="name" v="Svullbekken" />
		<tag k="ssr:stedsnr" v="370183" />
		<tag k="waterway" v="stream" />
	</node>
	<node lat="60.272733349752095" lon="12.211501801988348" id="-23125">
		<tag k="name" v="Bureien" />
		<tag k="natural" v="water" />
		<tag k="ssr:stedsnr" v="370425" />
		<tag k="water" v="lake" />
	</node>
	<node lat="60.264694446886296" lon="12.21660000734135" id="-23128">
		<tag k="name" v="Bureistjennet" />
		<tag k="natural" v="water" />
		<tag k="ssr:stedsnr" v="370467" />
	</node>
	<node lat="60.16557777527438" lon="12.344533338813205" id="-23136">
		<tag k="name" v="Svartølen" />
		<tag k="natural" v="shoal" />
		<tag k="place" v="locality" />
		<tag k="ssr:stedsnr" v="479952" />
	</node>
	<node lat="60.254627780057454" lon="12.338919451231945" id="-23143">
		<tag k="name" v="Pottislampbekken" />
		<tag k="ssr:stedsnr" v="480997" />
		<tag k="waterway" v="stream" />
	</node>
	<node lat="60.243677776278886" lon="11.914372230937081" id="-23161">
		<tag k="name" v="Øysetfallet" />
		<tag k="natural" v="waterfall" />
		<tag k="ssr:stedsnr" v="483149" />
	</node>
	<node lat="60.168708334156" lon="12.159030556270167" id="-23208">
		<tag k="name" v="Butjenna" />
		<tag k="natural" v="water" />
		<tag k="ssr:stedsnr" v="422800" />
	</node>
	<node lat="60.05112778190561" lon="12.454999993573354" id="-23215">
		<tag k="name" v="Holmtjenn" />
		<tag k="natural" v="water" />
		<tag k="ssr:stedsnr" v="490020" />
	</node>
	<node lat="60.07360367572961" lon="12.345158492707593" id="-23218">
		<tag k="name" v="Kolbjørnsrudsjøen" />
		<tag k="natural" v="water" />
		<tag k="ssr:stedsnr" v="490069" />
		<tag k="water" v="lake" />
	</node>
	<node lat="60.09220278022131" lon="12.463819442342958" id="-23222">
		<tag k="name" v="Nordre Morttjennet" />
		<tag k="natural" v="water" />
		<tag k="ssr:stedsnr" v="490079" />
	</node>
	<node lat="60.19804999760547" lon="12.48798333070353" id="-23226">
		<tag k="alt_name" v="Emten, l" />
		<tag k="name" v="Lille Emten" />
		<tag k="natural" v="water" />
		<tag k="ssr:stedsnr" v="490777" />
	</node>
	<node lat="60.19937500181045" lon="12.496549991537572" id="-23227">
		<tag k="name" v="Aspetjennet" />
		<tag k="natural" v="water" />
		<tag k="ssr:stedsnr" v="490778" />
	</node>
	<node lat="60.20880833584435" lon="12.36833332461993" id="-23230">
		<tag k="fixme" v="multiple name tags, choose one and add the other to alt_name" />
		<tag k="name" v="Femoåa;Fensjøåa" />
		<tag k="ssr:stedsnr" v="490789" />
		<tag k="waterway" v="stream" />
	</node>
	<node lat="60.20881111505535" lon="12.407136119966859" id="-23231">
		<tag k="name" v="Jossimyrtjennet" />
		<tag k="natural" v="water" />
		<tag k="ssr:stedsnr" v="490790" />
	</node>
	<node lat="60.211699997524676" lon="12.485049990797823" id="-23232">
		<tag k="alt_name" v="Emten, store" />
		<tag k="name" v="Store Emten" />
		<tag k="natural" v="water" />
		<tag k="ssr:stedsnr" v="490792" />
		<tag k="water" v="lake" />
	</node>
	<node lat="60.09650555573829" lon="12.381508337849292" id="-23238">
		<tag k="name" v="Smørholmen" />
		<tag k="place" v="islet" />
		<tag k="ssr:stedsnr" v="490896" />
	</node>
	<node lat="60.06749999680463" lon="12.380049992468429" id="-23250">
		<tag k="name" v="Jerntjennet" />
		<tag k="natural" v="water" />
		<tag k="ssr:stedsnr" v="430099" />
	</node>
	<node lat="60.17609765551262" lon="12.17072216648696" id="-23253">
		<tag k="alt_name" v="Øyungen, nordre" />
		<tag k="name" v="Nordre Øyungen" />
		<tag k="natural" v="water" />
		<tag k="ssr:stedsnr" v="430613" />
		<tag k="water" v="lake" />
	</node>
	<node lat="60.23110000186549" lon="12.272425003928452" id="-23262">
		<tag k="name" v="Trøsjøen" />
		<tag k="natural" v="water" />
		<tag k="ssr:stedsnr" v="430812" />
		<tag k="water" v="lake" />
	</node>
	<node lat="60.15685000394653" lon="12.33235000067922" id="-23265">
		<tag k="name" v="Tangen" />
		<tag k="natural" v="cape" />
		<tag k="ssr:stedsnr" v="430995" />
	</node>
	<node lat="60.15482500418998" lon="12.297425005360365" id="-23266">
		<tag k="name" v="Lebekken" />
		<tag k="ssr:stedsnr" v="430999" />
		<tag k="waterway" v="stream" />
	</node>
	<node lat="60.29473611290906" lon="12.338180562456223" id="-23268">
		<tag k="name" v="Bruntjennet" />
		<tag k="natural" v="water" />
		<tag k="ssr:stedsnr" v="491157" />
	</node>
	<node lat="60.26908055353218" lon="12.36588056086268" id="-23271">
		<tag k="name" v="Fisketjenna" />
		<tag k="natural" v="water" />
		<tag k="ssr:stedsnr" v="431211" />
		<tag k="water" v="lake" />
	</node>
	<node lat="60.264974998177216" lon="12.417099993935702" id="-23274">
		<tag k="name" v="Kæværæinen" />
		<tag k="natural" v="water" />
		<tag k="ssr:stedsnr" v="431194" />
	</node>
	<node lat="60.32332778094558" lon="12.151002784326689" id="-23279">
		<tag k="name" v="Talatjennet" />
		<tag k="natural" v="water" />
		<tag k="ssr:stedsnr" v="431509" />
	</node>
	<node lat="60.32578055323289" lon="12.16752500597851" id="-23280">
		<tag k="name" v="Norsætertjennet" />
		<tag k="natural" v="water" />
		<tag k="ssr:stedsnr" v="431511" />
	</node>
	<node lat="60.33224626394496" lon="12.37874105617245" id="-23281">
		<tag k="name" v="Steinsvatnet" />
		<tag k="natural" v="water" />
		<tag k="ssr:stedsnr" v="491247" />
		<tag k="water" v="lake" />
	</node>
	<node lat="60.31948889036422" lon="12.164594445406353" id="-23284">
		<tag k="name" v="Tekeltjennet" />
		<tag k="natural" v="water" />
		<tag k="ssr:stedsnr" v="431493" />
	</node>
	<node lat="60.35527500275653" lon="12.109936116285823" id="-23287">
		<tag k="name" v="Gardbutjennet" />
		<tag k="natural" v="water" />
		<tag k="ssr:stedsnr" v="491260" />
	</node>
	<node lat="60.31515556018428" lon="12.07177777007442" id="-23293">
		<tag k="name" v="Nugguren" />
		<tag k="natural" v="water" />
		<tag k="ssr:stedsnr" v="491477" />
		<tag k="water" v="lake" />
	</node>
	<node lat="60.10486389319293" lon="11.939169440086543" id="-23295">
		<tag k="name" v="Steinbråtatjennet" />
		<tag k="natural" v="water" />
		<tag k="ssr:stedsnr" v="491545" />
	</node>
	<node lat="60.22740555889226" lon="12.33287499427895" id="-23299">
		<tag k="name" v="Svarttjennet" />
		<tag k="natural" v="water" />
		<tag k="ssr:stedsnr" v="491807" />
	</node>
	<node lat="60.23457499601659" lon="12.300586115557909" id="-23300">
		<tag k="name" v="Tretjenna" />
		<tag k="natural" v="water" />
		<tag k="ssr:stedsnr" v="491808" />
		<tag k="water" v="lake" />
	</node>
	<node lat="60.23407500216531" lon="12.333424997904183" id="-23301">
		<tag k="fixme" v="multiple name tags, choose one and add the other to alt_name" />
		<tag k="name" v="Hundbekken;Leotjennbekken" />
		<tag k="ssr:stedsnr" v="491815" />
		<tag k="waterway" v="stream" />
	</node>
	<node lat="60.368691668291774" lon="12.081844447038325" id="-23307">
		<tag k="name" v="Ulvbergstjennet" />
		<tag k="natural" v="water" />
		<tag k="ssr:stedsnr" v="492337" />
	</node>
	<node lat="60.241286113068035" lon="11.90841945192729" id="-23310">
		<tag k="name" v="Småtjenna" />
		<tag k="natural" v="water" />
		<tag k="ssr:stedsnr" v="447029" />
		<tag k="water" v="lake" />
	</node>
	<node lat="60.16201667058846" lon="11.97342777904194" id="-23316">
		<tag k="name" v="Holtvika" />
		<tag k="natural" v="bay" />
		<tag k="ssr:stedsnr" v="672588" />
	</node>
	<node lat="60.206722219814225" lon="12.334113897238021" id="-23323">
		<tag k="name" v="Oppkjøltjennet" />
		<tag k="natural" v="water" />
		<tag k="ssr:stedsnr" v="672790" />
	</node>
	<node lat="60.205475003337426" lon="12.327600003019304" id="-23324">
		<tag k="name" v="Oppkjølbekken" />
		<tag k="ssr:stedsnr" v="672799" />
		<tag k="waterway" v="stream" />
	</node>
	<node lat="60.102399999186225" lon="12.371750000768962" id="-23326">
		<tag k="name" v="Sunda" />
		<tag k="natural" v="strait" />
		<tag k="ssr:stedsnr" v="672913" />
	</node>
	<node lat="60.24372499819748" lon="12.124327775557296" id="-23328">
		<tag k="name" v="Morttjennet" />
		<tag k="natural" v="water" />
		<tag k="ssr:stedsnr" v="673063" />
	</node>
	<node lat="60.12501944262662" lon="12.497950000850702" id="-23331">
		<tag k="name" v="Abbortjenn" />
		<tag k="natural" v="water" />
		<tag k="ssr:stedsnr" v="672939" />
	</node>
	<node lat="60.24563333734414" lon="11.953247220789239" id="-23334">
		<tag k="name" v="Steinbitbergtjennet" />
		<tag k="natural" v="water" />
		<tag k="ssr:stedsnr" v="673036" />
	</node>
	<node lat="60.31679999724922" lon="12.356841668873948" id="-23338">
		<tag k="name" v="Eikebekken" />
		<tag k="ssr:stedsnr" v="673143" />
		<tag k="waterway" v="stream" />
	</node>
	<node lat="60.34160833373299" lon="12.26540278243834" id="-23341">
		<tag k="name" v="Umundstjennet" />
		<tag k="natural" v="water" />
		<tag k="ssr:stedsnr" v="673249" />
	</node>
	<node lat="60.32578055954345" lon="12.359055564797966" id="-23342">
		<tag k="name" v="Grevlingtjenna" />
		<tag k="natural" v="water" />
		<tag k="ssr:stedsnr" v="673255" />
		<tag k="water" v="lake" />
	</node>
	<node lat="60.2643944402094" lon="12.332438891071224" id="-23344">
		<tag k="name" v="Pottislamp" />
		<tag k="natural" v="water" />
		<tag k="ssr:stedsnr" v="673201" />
	</node>
	<node lat="60.33290277696031" lon="12.305624996894124" id="-23345">
		<tag k="name" v="Gammelvollbekken" />
		<tag k="ssr:stedsnr" v="673270" />
		<tag k="waterway" v="stream" />
	</node>
	<node lat="60.237408332442136" lon="12.2488027829271" id="-23362">
		<tag k="name" v="Egletjenn" />
		<tag k="natural" v="water" />
		<tag k="ssr:stedsnr" v="673846" />
	</node>
	<node lat="60.21723055570665" lon="12.340474992810584" id="-23367">
		<tag k="name" v="Revtjenn" />
		<tag k="natural" v="water" />
		<tag k="ssr:stedsnr" v="673794" />
	</node>
	<node lat="60.30924444274922" lon="12.256216674342376" id="-23370">
		<tag k="name" v="Østre Nysætertjennet" />
		<tag k="natural" v="water" />
		<tag k="ssr:stedsnr" v="674132" />
	</node>
	<node lat="60.125880553576756" lon="12.321013885543877" id="-23384">
		<tag k="name" v="Høgneset" />
		<tag k="natural" v="cape" />
		<tag k="ssr:stedsnr" v="464802" />
	</node>
	<node lat="60.185797224853786" lon="12.061349995855497" id="-23387">
		<tag k="name" v="Gullhammaren" />
		<tag k="natural" v="cape" />
		<tag k="ssr:stedsnr" v="466110" />
	</node>
	<node lat="60.17966388878365" lon="12.321974994736262" id="-23390">
		<tag k="name" v="Smalsundet" />
		<tag k="natural" v="shoal" />
		<tag k="place" v="locality" />
		<tag k="ssr:stedsnr" v="466968" />
	</node>
	<node lat="60.31548888848244" lon="12.423477773153921" id="-23398">
		<tag k="name" v="Rådelsbekken" />
		<tag k="ssr:stedsnr" v="479205" />
		<tag k="waterway" v="stream" />
	</node>
	<node lat="60.152636112950965" lon="12.178636116561787" id="-23412">
		<tag k="name" v="Ladderudtangen" />
		<tag k="natural" v="cape" />
		<tag k="ssr:stedsnr" v="482776" />
	</node>
	<node lat="60.16572778028226" lon="11.946674992535245" id="-23433">
		<tag k="name" v="Aurtjennet" />
		<tag k="natural" v="water" />
		<tag k="ssr:stedsnr" v="490591" />
	</node>
	<node lat="60.105180557494684" lon="12.351233336270772" id="-23439">
		<tag k="name" v="Lomtjenn" />
		<tag k="natural" v="water" />
		<tag k="ssr:stedsnr" v="490906" />
	</node>
	<node lat="60.117600001980136" lon="12.47607499663283" id="-23441">
		<tag k="name" v="Rakkaso" />
		<tag k="natural" v="bay" />
		<tag k="ssr:stedsnr" v="490925" />
	</node>
	<node lat="60.12743055732625" lon="12.337900008568582" id="-23444">
		<tag k="name" v="Stupholbekken" />
		<tag k="ssr:stedsnr" v="490952" />
		<tag k="waterway" v="stream" />
	</node>
	<node lat="60.26981666922886" lon="12.375075001335677" id="-23445">
		<tag k="name" v="Svintjennet" />
		<tag k="natural" v="water" />
		<tag k="ssr:stedsnr" v="491192" />
	</node>
	<node lat="60.36052777401617" lon="12.354050005729396" id="-23449">
		<tag k="name" v="Merratjennet" />
		<tag k="natural" v="water" />
		<tag k="ssr:stedsnr" v="491217" />
	</node>
	<node lat="60.09912499611242" lon="12.414699992020498" id="-23457">
		<tag k="alt_name" v="Østre Sandvika" />
		<tag k="name" v="Sandvika" />
		<tag k="natural" v="bay" />
		<tag k="ssr:stedsnr" v="491595" />
	</node>
	<node lat="60.156749996987145" lon="12.25552499433937" id="-23462">
		<tag k="name" v="Svartbekken" />
		<tag k="ssr:stedsnr" v="491988" />
		<tag k="waterway" v="stream" />
	</node>
	<node lat="60.24355833729139" lon="12.289674991709944" id="-23464">
		<tag k="name" v="Abbortjennet" />
		<tag k="natural" v="water" />
		<tag k="ssr:stedsnr" v="491824" />
	</node>
	<node lat="60.30580000034813" lon="11.951380560531584" id="-23469">
		<tag k="name" v="Sagbekken" />
		<tag k="ssr:stedsnr" v="492421" />
		<tag k="waterway" v="stream" />
	</node>
	<node lat="60.33311666403134" lon="12.435575001796806" id="-23470">
		<tag k="name" v="Ormtjennsbekken" />
		<tag k="ssr:stedsnr" v="525217" />
		<tag k="waterway" v="stream" />
	</node>
	<node lat="60.15066666586092" lon="12.112027771562483" id="-23472">
		<tag k="name" v="Nordre Kabberudtjennet" />
		<tag k="ssr:stedsnr" v="525767" />
		<tag k="waterway" v="stream" />
	</node>
	<node lat="60.18833888788358" lon="12.538030551746019" id="-23478">
		<tag k="name" v="Vesle Særkilampi" />
		<tag k="natural" v="water" />
		<tag k="ssr:stedsnr" v="527341" />
	</node>
	<node lat="60.09486388856873" lon="11.958763883872406" id="-23480">
		<tag k="name" v="Huldretjennet" />
		<tag k="natural" v="water" />
		<tag k="ssr:stedsnr" v="527711" />
	</node>
	<node lat="60.08811666524941" lon="11.927205557898432" id="-23481">
		<tag k="name" v="Pullåa" />
		<tag k="ssr:stedsnr" v="527712" />
		<tag k="waterway" v="stream" />
	</node>
	<node lat="60.283272225118864" lon="12.453402770785322" id="-23496">
		<tag k="name" v="Veslesjøen" />
		<tag k="natural" v="water" />
		<tag k="ssr:stedsnr" v="540305" />
	</node>
	<node lat="60.26260277694351" lon="12.4114361042701" id="-23497">
		<tag k="name" v="Susarbekken" />
		<tag k="ssr:stedsnr" v="540310" />
		<tag k="waterway" v="stream" />
	</node>
	<node lat="60.163955554809704" lon="12.436594442544427" id="-23498">
		<tag k="name" v="Låsa" />
		<tag k="natural" v="water" />
		<tag k="ssr:stedsnr" v="540204" />
		<tag k="water" v="lake" />
	</node>
	<node lat="60.28976388961568" lon="11.955230554577966" id="-23502">
		<tag k="name" v="Furderudsgørrtjennet" />
		<tag k="natural" v="water" />
		<tag k="ssr:stedsnr" v="540526" />
		<tag k="water" v="pond" />
	</node>
	<node lat="60.16251944461162" lon="12.335302785570462" id="-23509">
		<tag k="name" v="Østre Tangevika" />
		<tag k="natural" v="bay" />
		<tag k="ssr:stedsnr" v="540935" />
	</node>
	<node lat="60.29508055240982" lon="12.188349998011752" id="-23517">
		<tag k="name" v="Kakknesbekken" />
		<tag k="ssr:stedsnr" v="543704" />
		<tag k="waterway" v="stream" />
	</node>
	<node lat="60.34609999953673" lon="11.863622224072158" id="-23526">
		<tag k="name" v="Aurdulpen" />
		<tag k="natural" v="water" />
		<tag k="ssr:stedsnr" v="544313" />
	</node>
	<node lat="60.27838610932009" lon="12.451402775141078" id="-23527">
		<tag k="name" v="Baskobekken" />
		<tag k="ssr:stedsnr" v="544386" />
		<tag k="waterway" v="stream" />
	</node>
	<node lat="60.22063055793601" lon="12.199400008858564" id="-23532">
		<tag k="name" v="Surtjennet" />
		<tag k="natural" v="water" />
		<tag k="ssr:stedsnr" v="551104" />
	</node>
	<node lat="60.21108333750646" lon="12.102444438136333" id="-23538">
		<tag k="name" v="Mellomtjennet" />
		<tag k="natural" v="water" />
		<tag k="ssr:stedsnr" v="551117" />
	</node>
	<node lat="60.056933329473736" lon="12.458519441687091" id="-23540">
		<tag k="name" v="Store Svarttjennet" />
		<tag k="natural" v="water" />
		<tag k="ssr:stedsnr" v="551010" />
	</node>
	<node lat="60.01613333660287" lon="12.395200006512365" id="-23544">
		<tag k="name" v="Storøya" />
		<tag k="place" v="islet" />
		<tag k="ssr:stedsnr" v="551047" />
	</node>
	<node lat="60.20540000086003" lon="12.179958332007892" id="-23546">
		<tag k="name" v="Grasbekken" />
		<tag k="ssr:stedsnr" v="551058" />
		<tag k="waterway" v="stream" />
	</node>
	<node lat="60.175775004344814" lon="12.456105548344615" id="-23554">
		<tag k="name" v="Abbortjennet" />
		<tag k="natural" v="water" />
		<tag k="ssr:stedsnr" v="551757" />
	</node>
	<node lat="60.17897499878167" lon="12.26823333367166" id="-23556">
		<tag k="name" v="Harpetjennet" />
		<tag k="natural" v="water" />
		<tag k="ssr:stedsnr" v="551789" />
	</node>
	<node lat="60.19232777697647" lon="12.355905561104715" id="-23557">
		<tag k="name" v="Femovika" />
		<tag k="natural" v="bay" />
		<tag k="ssr:stedsnr" v="551796" />
	</node>
	<node lat="60.34154166692373" lon="12.281766663070414" id="-23566">
		<tag k="name" v="Gardsjøen" />
		<tag k="natural" v="water" />
		<tag k="ssr:stedsnr" v="552251" />
	</node>
	<node lat="60.25579166992844" lon="12.167119437850403" id="-23570">
		<tag k="name" v="Skrøvlingen" />
		<tag k="natural" v="water" />
		<tag k="ssr:stedsnr" v="552447" />
	</node>
	<node lat="60.04186944603551" lon="12.445172229386307" id="-23573">
		<tag k="name" v="Lystjenn" />
		<tag k="natural" v="water" />
		<tag k="ssr:stedsnr" v="552633" />
	</node>
	<node lat="60.32811944587358" lon="12.191419447436736" id="-23574">
		<tag k="name" v="Steinbekken" />
		<tag k="ssr:stedsnr" v="552536" />
		<tag k="waterway" v="stream" />
	</node>
	<node lat="60.29444722236504" lon="12.056888888235244" id="-23577">
		<tag k="name" v="Nordre Rytjennet" />
		<tag k="natural" v="water" />
		<tag k="ssr:stedsnr" v="552554" />
	</node>
	<node lat="60.29105833378677" lon="12.116819445877738" id="-23585">
		<tag k="name" v="Hellbekken" />
		<tag k="ssr:stedsnr" v="586246" />
		<tag k="waterway" v="stream" />
	</node>
	<node lat="60.18146944443774" lon="12.062313881058968" id="-23591">
		<tag k="name" v="Madstangen" />
		<tag k="natural" v="cape" />
		<tag k="ssr:stedsnr" v="587111" />
	</node>
	<node lat="60.255447219977164" lon="12.157197216190497" id="-23593">
		<tag k="name" v="Mellemsjøen" />
		<tag k="natural" v="water" />
		<tag k="ssr:stedsnr" v="587158" />
	</node>
	<node lat="60.25110833065615" lon="12.221302785767548" id="-23597">
		<tag k="name" v="Baldrudtjennet" />
		<tag k="natural" v="water" />
		<tag k="ssr:stedsnr" v="587507" />
	</node>
	<node lat="60.15206944462695" lon="11.974166662627102" id="-23598">
		<tag k="name" v="Råliholmen" />
		<tag k="place" v="islet" />
		<tag k="ssr:stedsnr" v="587654" />
	</node>
	<node lat="60.10318332909047" lon="12.38277777386112" id="-23600">
		<tag k="name" v="Lomvika" />
		<tag k="natural" v="bay" />
		<tag k="ssr:stedsnr" v="587853" />
	</node>
	<node lat="60.112069445013695" lon="12.501686116760462" id="-23601">
		<tag k="name" v="Larbekktjennet" />
		<tag k="natural" v="water" />
		<tag k="ssr:stedsnr" v="588202" />
	</node>
	<node lat="60.37074722329805" lon="12.35696666363326" id="-23602">
		<tag k="name" v="Stallvika" />
		<tag k="natural" v="bay" />
		<tag k="ssr:stedsnr" v="588460" />
	</node>
	<node lat="60.383002774952246" lon="12.309116663323392" id="-23603">
		<tag k="name" v="Kutangen" />
		<tag k="natural" v="cape" />
		<tag k="ssr:stedsnr" v="588467" />
	</node>
	<node lat="60.1070944420933" lon="12.480183326081457" id="-23609">
		<tag k="name" v="Delvika" />
		<tag k="natural" v="bay" />
		<tag k="ssr:stedsnr" v="601007" />
	</node>
	<node lat="60.2960055591547" lon="12.156563883869763" id="-23622">
		<tag k="name" v="Borketjennsbekken" />
		<tag k="ssr:stedsnr" v="603203" />
		<tag k="waterway" v="stream" />
	</node>
	<node lat="60.06371944864908" lon="12.344849992061185" id="-23630">
		<tag k="alt_name" v="Ferjegaren" />
		<tag k="name" v="Ferjegarden" />
		<tag k="natural" v="water" />
		<tag k="ssr:stedsnr" v="605659" />
		<tag k="water" v="lake" />
	</node>
	<node lat="60.0566166624987" lon="12.352311105519398" id="-23643">
		<tag k="name" v="Gylterudsjøen" />
		<tag k="natural" v="water" />
		<tag k="ssr:stedsnr" v="612132" />
	</node>
	<node lat="60.28447500370724" lon="12.112725007077593" id="-23648">
		<tag k="name" v="Tussen" />
		<tag k="natural" v="water" />
		<tag k="ssr:stedsnr" v="612422" />
	</node>
	<node lat="60.33962221997333" lon="12.033902784337197" id="-23649">
		<tag k="name" v="Norsfossen" />
		<tag k="natural" v="waterfall" />
		<tag k="ssr:stedsnr" v="612306" />
	</node>
	<node lat="60.21987500275508" lon="12.29414167252133" id="-23657">
		<tag k="name" v="Langtjennet" />
		<tag k="natural" v="water" />
		<tag k="ssr:stedsnr" v="612811" />
	</node>
	<node lat="60.15171944248698" lon="12.506022230313782" id="-23679">
		<tag k="name" v="Kverndambekken" />
		<tag k="ssr:stedsnr" v="648247" />
		<tag k="waterway" v="stream" />
	</node>
	<node lat="60.08196944033692" lon="12.396738884276537" id="-23686">
		<tag k="name" v="Hagaholmen" />
		<tag k="place" v="islet" />
		<tag k="ssr:stedsnr" v="648799" />
	</node>
	<node lat="60.10485833792035" lon="12.486347218280697" id="-23694">
		<tag k="name" v="Korrisovika" />
		<tag k="natural" v="bay" />
		<tag k="ssr:stedsnr" v="661003" />
	</node>
	<node lat="60.317816664165825" lon="12.413577778792213" id="-23699">
		<tag k="name" v="Rådelsbekken" />
		<tag k="ssr:stedsnr" v="661185" />
		<tag k="waterway" v="stream" />
	</node>
	<node lat="60.18496944622965" lon="12.042994445525645" id="-23702">
		<tag k="name" v="Norsengneset" />
		<tag k="natural" v="cape" />
		<tag k="ssr:stedsnr" v="709115" />
	</node>
	<node lat="60.2593222255235" lon="12.174916666109027" id="-23707">
		<tag k="name" v="Frautjennet" />
		<tag k="natural" v="water" />
		<tag k="ssr:stedsnr" v="709161" />
		<tag k="water" v="pond" />
	</node>
	<node lat="60.16194722178859" lon="12.369844439641795" id="-23715">
		<tag k="name" v="Grunnvika" />
		<tag k="natural" v="bay" />
		<tag k="ssr:stedsnr" v="662937" />
	</node>
	<node lat="60.171269442837996" lon="12.333627782748975" id="-23716">
		<tag k="name" v="Sandvika" />
		<tag k="natural" v="bay" />
		<tag k="ssr:stedsnr" v="662938" />
	</node>
	<node lat="60.39510555569827" lon="12.301830552786079" id="-23717">
		<tag k="name" v="Nødens Tilflukt" />
		<tag k="place" v="islet" />
		<tag k="ssr:stedsnr" v="709413" />
	</node>
	<node lat="60.25418333043476" lon="12.226736104358531" id="-23719">
		<tag k="name" v="Homsjøbekken" />
		<tag k="ssr:stedsnr" v="709453" />
		<tag k="waterway" v="stream" />
	</node>
	<node lat="60.24451944523365" lon="12.272566674893337" id="-23722">
		<tag k="name" v="Finnvika" />
		<tag k="natural" v="bay" />
		<tag k="ssr:stedsnr" v="709464" />
	</node>
	<node lat="60.24746110739894" lon="11.955158336143842" id="-23725">
		<tag k="name" v="Vesletjennet" />
		<tag k="natural" v="water" />
		<tag k="ssr:stedsnr" v="664138" />
	</node>
	<node lat="60.239899999032914" lon="11.93694722427254" id="-23726">
		<tag k="name" v="Tomilsbekken" />
		<tag k="ssr:stedsnr" v="664140" />
		<tag k="waterway" v="stream" />
	</node>
	<node lat="60.24314166843361" lon="12.225266660329172" id="-23729">
		<tag k="name" v="Mobrovika" />
		<tag k="natural" v="bay" />
		<tag k="ssr:stedsnr" v="709486" />
	</node>
	<node lat="60.14496944188561" lon="12.417858326587993" id="-23731">
		<tag k="name" v="Kutjennet" />
		<tag k="natural" v="water" />
		<tag k="ssr:stedsnr" v="664183" />
	</node>
	<node lat="60.04250833606771" lon="12.35806388641111" id="-23734">
		<tag k="name" v="Brødbøldammen" />
		<tag k="ssr:stedsnr" v="664737" />
		<tag k="waterway" v="dam" />
	</node>
	<node lat="60.332572220378324" lon="11.985347223307523" id="-23735">
		<tag k="name" v="Rolighaugbekken" />
		<tag k="ssr:stedsnr" v="664782" />
		<tag k="waterway" v="stream" />
	</node>
	<node lat="60.10286944480948" lon="12.420611106102836" id="-23745">
		<tag k="name" v="Strandsætervika" />
		<tag k="natural" v="bay" />
		<tag k="ssr:stedsnr" v="665282" />
	</node>
	<node lat="60.33767499816382" lon="12.051138886817615" id="-23752">
		<tag k="name" v="Dauvatnet" />
		<tag k="natural" v="water" />
		<tag k="ssr:stedsnr" v="709766" />
	</node>
	<node lat="60.28383611097204" lon="12.104352774900944" id="-23756">
		<tag k="name" v="Botnerbekken" />
		<tag k="ssr:stedsnr" v="890242" />
		<tag k="waterway" v="stream" />
	</node>
	<node lat="60.09546944430494" lon="11.915252778007725" id="-23759">
		<tag k="name" v="Kanalen" />
		<tag k="ssr:stedsnr" v="890268" />
		<tag k="waterway" v="drain" />
	</node>
	<node lat="60.095731929829086" lon="12.468899353510587" id="-23763">
		<tag k="name" v="Sautjenn" />
		<tag k="natural" v="water" />
		<tag k="ssr:stedsnr" v="672080" />
	</node>
	<node lat="60.13774167085954" lon="12.391508332379235" id="-23767">
		<tag k="name" v="Dolpene" />
		<tag k="natural" v="water" />
		<tag k="ssr:stedsnr" v="672968" />
	</node>
	<node lat="60.215900002882385" lon="12.445249993644392" id="-23768">
		<tag k="alt_name" v="Øyersjøen, s" />
		<tag k="name" v="Søndre Øyersjøen" />
		<tag k="natural" v="water" />
		<tag k="ssr:stedsnr" v="672805" />
		<tag k="water" v="lake" />
	</node>
	<node lat="60.06239999708477" lon="12.363052784156963" id="-23774">
		<tag k="name" v="Karterudtjennet" />
		<tag k="natural" v="water" />
		<tag k="ssr:stedsnr" v="673112" />
	</node>
	<node lat="60.06152499879078" lon="12.384374992871567" id="-23775">
		<tag k="name" v="Aurtjennet" />
		<tag k="natural" v="water" />
		<tag k="ssr:stedsnr" v="673113" />
	</node>
	<node lat="60.060225003667995" lon="12.31431388217769" id="-23776">
		<tag k="name" v="Hanatjenn" />
		<tag k="natural" v="water" />
		<tag k="ssr:stedsnr" v="673115" />
	</node>
	<node lat="60.28035277812146" lon="12.447322223318787" id="-23779">
		<tag k="name" v="Aurtjennet" />
		<tag k="natural" v="water" />
		<tag k="ssr:stedsnr" v="673184" />
	</node>
	<node lat="60.2794027818248" lon="12.191227780173667" id="-23781">
		<tag k="name" v="Damvika" />
		<tag k="natural" v="bay" />
		<tag k="ssr:stedsnr" v="673403" />
	</node>
	<node lat="60.14489722653702" lon="12.49488610716918" id="-23788">
		<tag k="name" v="Holmtjenn" />
		<tag k="natural" v="water" />
		<tag k="ssr:stedsnr" v="673962" />
	</node>
	<node lat="60.138288891923956" lon="12.288566669219922" id="-23789">
		<tag k="name" v="Ramtjennbekken" />
		<tag k="ssr:stedsnr" v="673978" />
		<tag k="waterway" v="stream" />
	</node>
	<node lat="60.14525277324507" lon="12.283152784016002" id="-23790">
		<tag k="name" v="Ramtjenna" />
		<tag k="natural" v="water" />
		<tag k="ssr:stedsnr" v="673981" />
		<tag k="water" v="lake" />
	</node>
	<node lat="60.34341111025014" lon="12.29461389685632" id="-23796">
		<tag k="name" v="Gravsjødammen" />
		<tag k="ssr:stedsnr" v="891089" />
		<tag k="waterway" v="dam" />
	</node>
	<node lat="60.345225000103035" lon="12.335547223741706" id="-23797">
		<tag k="name" v="Litjenndammen" />
		<tag k="ssr:stedsnr" v="891092" />
		<tag k="waterway" v="dam" />
	</node>
	<node lat="60.33050833242212" lon="12.348291671731308" id="-23799">
		<tag k="name" v="Merratjennet" />
		<tag k="natural" v="water" />
		<tag k="ssr:stedsnr" v="891096" />
	</node>
	<node lat="60.27796666864214" lon="12.15026389671982" id="-23801">
		<tag k="name" v="Åflodammen" />
		<tag k="ssr:stedsnr" v="891167" />
		<tag k="waterway" v="dam" />
	</node>
	<node lat="60.244452774623774" lon="12.22782777495813" id="-23810">
		<tag k="name" v="Homsjøholmen" />
		<tag k="place" v="islet" />
		<tag k="ssr:stedsnr" v="891495" />
	</node>
	<node lat="60.10216388480903" lon="12.38630832803224" id="-23814">
		<tag k="name" v="Vestre Sandvika" />
		<tag k="natural" v="bay" />
		<tag k="ssr:stedsnr" v="891850" />
	</node>
	<node lat="60.10666667097815" lon="12.367300002341633" id="-23816">
		<tag k="name" v="Sundammen" />
		<tag k="ssr:stedsnr" v="891853" />
		<tag k="waterway" v="dam" />
	</node>
	<node lat="60.10224721848829" lon="12.368455562352384" id="-23817">
		<tag k="name" v="Sundkroken" />
		<tag k="natural" v="water" />
		<tag k="ssr:stedsnr" v="891854" />
		<tag k="water" v="lake" />
	</node>
	<node lat="60.130588892375805" lon="12.465277770940075" id="-23819">
		<tag k="name" v="Sleppvika" />
		<tag k="natural" v="bay" />
		<tag k="ssr:stedsnr" v="892228" />
	</node>
	<node lat="60.34575833115146" lon="12.277522219474319" id="-23826">
		<tag k="name" v="Rundtjennet" />
		<tag k="natural" v="water" />
		<tag k="ssr:stedsnr" v="892642" />
	</node>
	<node lat="60.27290000296366" lon="12.197508334137101" id="-23832">
		<tag k="name" v="Nordre Sundnæbben" />
		<tag k="natural" v="cape" />
		<tag k="ssr:stedsnr" v="707580" />
	</node>
	<node lat="60.214605558365136" lon="12.379411105700594" id="-23839">
		<tag k="name" v="Stampetjennsbekken" />
		<tag k="ssr:stedsnr" v="707967" />
		<tag k="waterway" v="stream" />
	</node>
	<node lat="60.09661666905142" lon="11.935119443256571" id="-23840">
		<tag k="name" v="Østre Furukolltjennet" />
		<tag k="natural" v="water" />
		<tag k="ssr:stedsnr" v="709704" />
	</node>
	<node lat="60.08678333192967" lon="12.405602770597143" id="-23842">
		<tag k="name" v="Bukkholmen" />
		<tag k="place" v="islet" />
		<tag k="ssr:stedsnr" v="709805" />
	</node>
	<node lat="60.07866110981785" lon="12.387227776802838" id="-23844">
		<tag k="name" v="Båthusvika" />
		<tag k="natural" v="bay" />
		<tag k="ssr:stedsnr" v="709801" />
	</node>
	<node lat="60.06153611031679" lon="12.26894721660437" id="-23878">
		<tag k="name" v="Nordre Billingen" />
		<tag k="natural" v="water" />
		<tag k="ssr:stedsnr" v="733114" />
		<tag k="water" v="lake" />
	</node>
	<node lat="60.24893055962994" lon="12.403674999794159" id="-23885">
		<tag k="name" v="Sammakolamp" />
		<tag k="natural" v="water" />
		<tag k="ssr:stedsnr" v="733817" />
	</node>
	<node lat="60.24649999593814" lon="12.369725004087513" id="-23886">
		<tag k="fixme" v="multiple name tags, choose one and add the other to alt_name" />
		<tag k="name" v="Pjøsambekken;Koimyrbekken" />
		<tag k="ssr:stedsnr" v="733818" />
		<tag k="waterway" v="stream" />
	</node>
	<node lat="60.29918055230438" lon="12.399452778516107" id="-23894">
		<tag k="name" v="Nordre Blekketjennet" />
		<tag k="natural" v="water" />
		<tag k="ssr:stedsnr" v="734152" />
	</node>
	<node lat="60.2765861108075" lon="12.40134167072604" id="-23895">
		<tag k="name" v="Gubbetjennet" />
		<tag k="natural" v="water" />
		<tag k="ssr:stedsnr" v="734180" />
	</node>
	<node lat="60.3276111090435" lon="12.133272229901316" id="-23898">
		<tag k="name" v="Rafjelltjenna" />
		<tag k="natural" v="water" />
		<tag k="ssr:stedsnr" v="734335" />
		<tag k="water" v="lake" />
	</node>
	<node lat="60.34757222333324" lon="12.08857222430441" id="-23899">
		<tag k="name" v="Velttjennbekken" />
		<tag k="ssr:stedsnr" v="734291" />
		<tag k="waterway" v="stream" />
	</node>
	<node lat="60.31993611307568" lon="11.934705556985993" id="-23901">
		<tag k="name" v="Langgardstjennet" />
		<tag k="natural" v="water" />
		<tag k="ssr:stedsnr" v="734502" />
	</node>
	<node lat="60.28959722555289" lon="12.299411108883053" id="-23908">
		<tag k="name" v="Veslsjøen" />
		<tag k="natural" v="water" />
		<tag k="ssr:stedsnr" v="904938" />
		<tag k="water" v="lake" />
	</node>
	<node lat="60.28907500273404" lon="12.304344443152598" id="-23909">
		<tag k="name" v="Dammen" />
		<tag k="ssr:stedsnr" v="904939" />
		<tag k="waterway" v="dam" />
	</node>
	<node lat="60.1745416654542" lon="12.23680555332501" id="-23922">
		<tag k="name" v="Lorttjennet" />
		<tag k="natural" v="water" />
		<tag k="ssr:stedsnr" v="905438" />
	</node>
	<node lat="60.2714194482129" lon="12.179050003611701" id="-23932">
		<tag k="name" v="Veslejelltjennet" />
		<tag k="natural" v="water" />
		<tag k="ssr:stedsnr" v="767551" />
	</node>
	<node lat="60.27940833063581" lon="12.192783339386843" id="-23933">
		<tag k="name" v="Smellopp" />
		<tag k="natural" v="cape" />
		<tag k="ssr:stedsnr" v="767553" />
	</node>
	<node lat="60.119744444168994" lon="12.036655558460442" id="-23945">
		<tag k="name" v="Nesitjennet" />
		<tag k="natural" v="bay" />
		<tag k="ssr:stedsnr" v="907543" />
	</node>
	<node lat="60.10840833552612" lon="12.02676110599876" id="-23946">
		<tag k="name" v="Holenfloet" />
		<tag k="natural" v="water" />
		<tag k="ssr:stedsnr" v="907548" />
		<tag k="water" v="pond" />
	</node>
	<node lat="60.180002774474815" lon="12.316524993695934" id="-23949">
		<tag k="name" v="Mengetjennet" />
		<tag k="natural" v="water" />
		<tag k="ssr:stedsnr" v="770954" />
	</node>
	<node lat="60.16093055634292" lon="12.137580546651034" id="-23951">
		<tag k="name" v="Frauviken" />
		<tag k="natural" v="bay" />
		<tag k="ssr:stedsnr" v="907744" />
	</node>
	<node lat="60.22955833407899" lon="12.49290277892245" id="-23952">
		<tag k="name" v="Gørrfoss" />
		<tag k="natural" v="waterfall" />
		<tag k="ssr:stedsnr" v="908144" />
	</node>
	<node lat="60.13762499785208" lon="12.484158340565903" id="-23956">
		<tag k="name" v="Mærrabekken" />
		<tag k="ssr:stedsnr" v="908237" />
		<tag k="waterway" v="stream" />
	</node>
	<node lat="60.22804999708434" lon="11.966069449946819" id="-23961">
		<tag k="name" v="Tomilbekken" />
		<tag k="ssr:stedsnr" v="908788" />
		<tag k="waterway" v="stream" />
	</node>
	<node lat="60.22018610775909" lon="12.223797215742712" id="-23969">
		<tag k="name" v="Mengebergsbekken" />
		<tag k="ssr:stedsnr" v="783400" />
		<tag k="waterway" v="stream" />
	</node>
	<node lat="60.09536944517472" lon="12.320858330711626" id="-23976">
		<tag k="name" v="Sagåa" />
		<tag k="ssr:stedsnr" v="783758" />
		<tag k="waterway" v="river" />
	</node>
	<node lat="60.15984444301753" lon="12.376399998035824" id="-23979">
		<tag k="name" v="Sætervikene" />
		<tag k="natural" v="bay" />
		<tag k="ssr:stedsnr" v="783952" />
	</node>
	<node lat="60.33423611102757" lon="12.395047229459378" id="-23982">
		<tag k="name" v="Kverndammen" />
		<tag k="ssr:stedsnr" v="785052" />
		<tag k="waterway" v="dam" />
	</node>
	<node lat="60.352125000957315" lon="11.85281944902475" id="-23994">
		<tag k="name" v="Balsjøbekken" />
		<tag k="ssr:stedsnr" v="787322" />
		<tag k="waterway" v="stream" />
	</node>
	<node lat="60.05478055812585" lon="12.374930562936749" id="-24001">
		<tag k="name" v="Motjennet" />
		<tag k="natural" v="water" />
		<tag k="ssr:stedsnr" v="794009" />
	</node>
	<node lat="60.06284722366582" lon="12.462625006117605" id="-24005">
		<tag k="name" v="Grastjenn" />
		<tag k="natural" v="water" />
		<tag k="ssr:stedsnr" v="794117" />
	</node>
	<node lat="60.211450003819394" lon="11.92845556010627" id="-24006">
		<tag k="name" v="Svartholmen" />
		<tag k="place" v="islet" />
		<tag k="ssr:stedsnr" v="794120" />
	</node>
	<node lat="60.11142777489633" lon="11.97906111264215" id="-24007">
		<tag k="name" v="Hauksjøen" />
		<tag k="natural" v="water" />
		<tag k="ssr:stedsnr" v="794483" />
	</node>
	<node lat="60.10581388579953" lon="12.078686109604167" id="-24011">
		<tag k="name" v="Dulptjennet" />
		<tag k="natural" v="water" />
		<tag k="ssr:stedsnr" v="794516" />
	</node>
	<node lat="60.10592222455689" lon="12.50121111277544" id="-24013">
		<tag k="name" v="Lystjenn" />
		<tag k="natural" v="water" />
		<tag k="ssr:stedsnr" v="794917" />
	</node>
	<node lat="60.227205554338504" lon="12.352169437373128" id="-24023">
		<tag k="name" v="Aurtjennbekken" />
		<tag k="ssr:stedsnr" v="794804" />
		<tag k="waterway" v="stream" />
	</node>
	<node lat="60.227908332127114" lon="12.41734999860712" id="-24024">
		<tag k="name" v="Lauvtjennet" />
		<tag k="natural" v="water" />
		<tag k="ssr:stedsnr" v="794805" />
	</node>
	<node lat="60.22139999974489" lon="12.298625001911653" id="-24025">
		<tag k="name" v="Skjærtjennet" />
		<tag k="natural" v="water" />
		<tag k="ssr:stedsnr" v="794809" />
	</node>
	<node lat="60.24396388679448" lon="12.329547216854785" id="-24027">
		<tag k="name" v="Bråtåtjennet" />
		<tag k="natural" v="water" />
		<tag k="ssr:stedsnr" v="794828" />
	</node>
	<node lat="60.24130833752589" lon="12.303975002807597" id="-24028">
		<tag k="name" v="Navarskaftet" />
		<tag k="natural" v="water" />
		<tag k="ssr:stedsnr" v="794829" />
	</node>
	<node lat="60.23889444047302" lon="11.908927770201933" id="-24035">
		<tag k="name" v="Gututjennet" />
		<tag k="natural" v="water" />
		<tag k="ssr:stedsnr" v="795023" />
		<tag k="water" v="pond" />
	</node>
	<node lat="60.31148055168861" lon="12.395480562855202" id="-24036">
		<tag k="name" v="Norstjennet" />
		<tag k="natural" v="water" />
		<tag k="ssr:stedsnr" v="795162" />
	</node>
	<node lat="60.345341663127876" lon="12.39724443775685" id="-24045">
		<tag k="name" v="Grasbergtjenna" />
		<tag k="natural" v="water" />
		<tag k="ssr:stedsnr" v="795265" />
		<tag k="water" v="lake" />
	</node>
	<node lat="60.33186944725764" lon="12.251377774380932" id="-24049">
		<tag k="name" v="Åsabekken" />
		<tag k="ssr:stedsnr" v="795285" />
		<tag k="waterway" v="stream" />
	</node>
	<node lat="60.317149996358616" lon="11.910163893521412" id="-24054">
		<tag k="name" v="Unumsætertjennet" />
		<tag k="natural" v="water" />
		<tag k="ssr:stedsnr" v="795519" />
	</node>
	<node lat="60.25218888698003" lon="12.129330560100787" id="-24055">
		<tag k="name" v="Ormtjennet" />
		<tag k="natural" v="water" />
		<tag k="ssr:stedsnr" v="795478" />
	</node>
	<node lat="60.07613888736057" lon="12.391538892014399" id="-24058">
		<tag k="name" v="Søndre Åkroktjenn" />
		<tag k="natural" v="water" />
		<tag k="ssr:stedsnr" v="915062" />
	</node>
	<node lat="60.06954987397047" lon="12.471553755926932" id="-24061">
		<tag k="alt_name" v="Skålseside" />
		<tag k="name" v="Skålsjøside" />
		<tag k="natural" v="water" />
		<tag k="ssr:stedsnr" v="915106" />
	</node>
	<node lat="60.08255555320775" lon="12.272988886395527" id="-24063">
		<tag k="name" v="Gråtjenna" />
		<tag k="natural" v="water" />
		<tag k="ssr:stedsnr" v="915879" />
		<tag k="water" v="lake" />
	</node>
	<node lat="60.08695555925231" lon="12.274650006963808" id="-24064">
		<tag k="name" v="Lorthola" />
		<tag k="natural" v="water" />
		<tag k="ssr:stedsnr" v="915880" />
	</node>
	<node lat="60.03863055941846" lon="12.42144443648309" id="-24078">
		<tag k="name" v="Svarttjenn" />
		<tag k="natural" v="water" />
		<tag k="ssr:stedsnr" v="916044" />
	</node>
	<node lat="60.01495277347722" lon="12.373755559067558" id="-24079">
		<tag k="name" v="Vesleøya" />
		<tag k="place" v="islet" />
		<tag k="ssr:stedsnr" v="916053" />
	</node>
	<node lat="60.293477781818034" lon="12.475952786946564" id="-24082">
		<tag k="name" v="Vinterfløyta" />
		<tag k="natural" v="water" />
		<tag k="ssr:stedsnr" v="916175" />
	</node>
	<node lat="60.279438892402624" lon="12.459550000640842" id="-24086">
		<tag k="name" v="Fiskelaussjøen" />
		<tag k="natural" v="water" />
		<tag k="ssr:stedsnr" v="916195" />
	</node>
	<node lat="60.231616670085785" lon="12.250830564027428" id="-24088">
		<tag k="name" v="Sølvtjenn" />
		<tag k="natural" v="water" />
		<tag k="ssr:stedsnr" v="916837" />
	</node>
	<node lat="60.24067499583209" lon="12.476702771989311" id="-24090">
		<tag k="name" v="Merratjennet" />
		<tag k="natural" v="water" />
		<tag k="ssr:stedsnr" v="916852" />
	</node>
	<node lat="60.33623332963783" lon="12.33826665842226" id="-24099">
		<tag k="name" v="Søndre Litjennet" />
		<tag k="natural" v="water" />
		<tag k="ssr:stedsnr" v="916239" />
	</node>
	<node lat="60.28727778082809" lon="12.07008333987195" id="-24102">
		<tag k="name" v="Søndre Rytjennet" />
		<tag k="natural" v="water" />
		<tag k="ssr:stedsnr" v="916499" />
	</node>
	<node lat="60.28673333658073" lon="11.91897222209366" id="-24104">
		<tag k="name" v="Elgstjennet" />
		<tag k="natural" v="water" />
		<tag k="ssr:stedsnr" v="916506" />
	</node>
	<node lat="60.1725555601337" lon="12.49932499501897" id="-24116">
		<tag k="name" v="Sarabodako" />
		<tag k="natural" v="water" />
		<tag k="ssr:stedsnr" v="916986" />
	</node>
	<node lat="60.30708055317575" lon="12.1255638872575" id="-24120">
		<tag k="name" v="Aseltjennet" />
		<tag k="natural" v="water" />
		<tag k="ssr:stedsnr" v="917400" />
	</node>
	<node lat="60.34691944796687" lon="12.040811114890248" id="-24130">
		<tag k="name" v="Fosseidvika" />
		<tag k="natural" v="bay" />
		<tag k="ssr:stedsnr" v="831710" />
	</node>
	<node lat="60.307747222378005" lon="12.347219436846322" id="-24135">
		<tag k="name" v="Brattfossen" />
		<tag k="natural" v="waterfall" />
		<tag k="ssr:stedsnr" v="844105" />
	</node>
	<node lat="60.11158611043808" lon="12.465102776018758" id="-24138">
		<tag k="name" v="Pyntevika" />
		<tag k="natural" v="bay" />
		<tag k="ssr:stedsnr" v="844230" />
	</node>
	<node lat="60.21227499956892" lon="11.969316659338192" id="-24151">
		<tag k="name" v="Bogerbekken" />
		<tag k="ssr:stedsnr" v="844877" />
		<tag k="waterway" v="stream" />
	</node>
	<node lat="60.20575277450598" lon="12.051355559561728" id="-24152">
		<tag k="name" v="Nordbybekken" />
		<tag k="ssr:stedsnr" v="844891" />
		<tag k="waterway" v="stream" />
	</node>
	<node lat="60.120563889964" lon="11.991494452859627" id="-24156">
		<tag k="name" v="Pustuttjennet" />
		<tag k="natural" v="water" />
		<tag k="ssr:stedsnr" v="846573" />
	</node>
	<node lat="60.25442222190329" lon="12.361158325321837" id="-24161">
		<tag k="name" v="Ligolamp" />
		<tag k="natural" v="water" />
		<tag k="ssr:stedsnr" v="846907" />
	</node>
	<node lat="60.058461107141504" lon="12.41914999377905" id="-24171">
		<tag k="name" v="Aurlitjenn" />
		<tag k="natural" v="water" />
		<tag k="ssr:stedsnr" v="855124" />
	</node>
	<node lat="60.3614805540216" lon="12.258666657547451" id="-24176">
		<tag k="name" v="Gullbekken" />
		<tag k="ssr:stedsnr" v="855221" />
		<tag k="waterway" v="stream" />
	</node>
	<node lat="60.110644448334924" lon="12.066844441170808" id="-24178">
		<tag k="name" v="Strengelsrudtjenna" />
		<tag k="natural" v="water" />
		<tag k="ssr:stedsnr" v="855516" />
		<tag k="water" v="lake" />
	</node>
	<node lat="60.1842416695115" lon="12.188388884773383" id="-24181">
		<tag k="name" v="Urstjennet" />
		<tag k="natural" v="water" />
		<tag k="ssr:stedsnr" v="855607" />
	</node>
	<node lat="60.184188891871415" lon="12.485477777198774" id="-24186">
		<tag k="name" v="Tobakktjennet" />
		<tag k="natural" v="water" />
		<tag k="ssr:stedsnr" v="855781" />
	</node>
	<node lat="60.183924999199256" lon="12.37045000083044" id="-24187">
		<tag k="name" v="Orrholma" />
		<tag k="place" v="islet" />
		<tag k="ssr:stedsnr" v="855789" />
	</node>
	<node lat="60.22912222138292" lon="12.482808340937876" id="-24189">
		<tag k="name" v="Bråtetjenn" />
		<tag k="natural" v="water" />
		<tag k="ssr:stedsnr" v="855834" />
	</node>
	<node lat="60.18438888709678" lon="12.280891662248532" id="-24191">
		<tag k="name" v="Nygardstjennet" />
		<tag k="natural" v="water" />
		<tag k="ssr:stedsnr" v="855803" />
	</node>
	<node lat="60.08838055640144" lon="12.408424992372458" id="-24193">
		<tag k="name" v="Storholmen" />
		<tag k="place" v="islet" />
		<tag k="ssr:stedsnr" v="855890" />
	</node>
	<node lat="60.09147499808769" lon="12.400480550755594" id="-24194">
		<tag k="name" v="Nesodden" />
		<tag k="natural" v="cape" />
		<tag k="ssr:stedsnr" v="855891" />
	</node>
	<node lat="60.30712499570602" lon="12.270325003643297" id="-24198">
		<tag k="alt_name" v="Digernessjøen, nedre" />
		<tag k="name" v="Nedre Digernessjøen" />
		<tag k="natural" v="water" />
		<tag k="ssr:stedsnr" v="856140" />
	</node>
	<node lat="60.3347527796125" lon="12.11119165971692" id="-24200">
		<tag k="name" v="Damtjenn" />
		<tag k="natural" v="water" />
		<tag k="ssr:stedsnr" v="856304" />
	</node>
	<node lat="60.34009721804484" lon="12.054561112580782" id="-24207">
		<tag k="name" v="Noret" />
		<tag k="natural" v="strait" />
		<tag k="ssr:stedsnr" v="856334" />
	</node>
	<node lat="60.31801666511662" lon="12.271644440106208" id="-24214">
		<tag k="name" v="Jersjøtrangen" />
		<tag k="natural" v="strait" />
		<tag k="ssr:stedsnr" v="889631" />
	</node>
	<node lat="60.37991389137074" lon="12.316836114608567" id="-24225">
		<tag k="name" v="Stor-Per Ørda" />
		<tag k="natural" v="shoal" />
		<tag k="place" v="locality" />
		<tag k="ssr:stedsnr" v="892475" />
	</node>
	<node lat="60.304447223686275" lon="12.225372229528467" id="-24226">
		<tag k="name" v="Lonkans kjelder" />
		<tag k="natural" v="spring" />
		<tag k="ssr:stedsnr" v="892609" />
	</node>
	<node lat="60.0882083329396" lon="12.450130549589135" id="-24233">
		<tag k="name" v="Vestsætertjennet" />
		<tag k="natural" v="water" />
		<tag k="ssr:stedsnr" v="905012" />
	</node>
	<node lat="60.27606944302845" lon="12.128799995791155" id="-24234">
		<tag k="name" v="Dalabekken" />
		<tag k="ssr:stedsnr" v="905150" />
		<tag k="waterway" v="stream" />
	</node>
	<node lat="60.36298889262896" lon="12.287441667201826" id="-24238">
		<tag k="name" v="Morttjennsbekken" />
		<tag k="ssr:stedsnr" v="905717" />
		<tag k="waterway" v="stream" />
	</node>
	<node lat="60.19055555329727" lon="12.353672225824134" id="-24242">
		<tag k="name" v="Kjerringholmene" />
		<tag k="place" v="islet" />
		<tag k="ssr:stedsnr" v="905959" />
	</node>
	<node lat="60.18074444371867" lon="12.334613891906995" id="-24243">
		<tag k="name" v="Haukholmen" />
		<tag k="place" v="islet" />
		<tag k="ssr:stedsnr" v="905960" />
	</node>
	<node lat="60.28020555633078" lon="12.440027777479115" id="-24246">
		<tag k="name" v="Vesle Aurtjennet" />
		<tag k="natural" v="water" />
		<tag k="ssr:stedsnr" v="907305" />
	</node>
	<node lat="60.28889999970043" lon="12.225138882584877" id="-24253">
		<tag k="name" v="Steinreisåa" />
		<tag k="ssr:stedsnr" v="907663" />
		<tag k="waterway" v="river" />
	</node>
	<node lat="60.13043333294122" lon="12.482122219973814" id="-24258">
		<tag k="name" v="Kvakkolampi" />
		<tag k="natural" v="water" />
		<tag k="ssr:stedsnr" v="908214" />
	</node>
	<node lat="60.064175000010714" lon="12.415730547683102" id="-24268">
		<tag k="name" v="Sandbakktjenn" />
		<tag k="natural" v="water" />
		<tag k="ssr:stedsnr" v="915120" />
	</node>
	<node lat="60.1779861092821" lon="12.16888332498353" id="-24269">
		<tag k="name" v="Langholmen" />
		<tag k="place" v="islet" />
		<tag k="ssr:stedsnr" v="915587" />
	</node>
	<node lat="60.1666305545175" lon="11.92249722114088" id="-24270">
		<tag k="name" v="Skitjennet" />
		<tag k="natural" v="water" />
		<tag k="ssr:stedsnr" v="915592" />
	</node>
	<node lat="60.12110833765147" lon="12.500824993248708" id="-24273">
		<tag k="name" v="Kavalainen" />
		<tag k="natural" v="water" />
		<tag k="ssr:stedsnr" v="915930" />
	</node>
	<node lat="60.132585449352106" lon="12.381996232087328" id="-24274">
		<tag k="name" v="Morttjenna" />
		<tag k="natural" v="water" />
		<tag k="ssr:stedsnr" v="915968" />
		<tag k="water" v="lake" />
	</node>
	<node lat="60.36982777692777" lon="12.297505561848244" id="-24285">
		<tag k="name" v="Morttjennet" />
		<tag k="natural" v="water" />
		<tag k="ssr:stedsnr" v="916209" />
	</node>
	<node lat="60.20963333551284" lon="12.26900000479643" id="-24297">
		<tag k="name" v="Trøsbekken" />
		<tag k="ssr:stedsnr" v="916813" />
		<tag k="waterway" v="stream" />
	</node>
	<node lat="60.19029444653793" lon="12.03320832931218" id="-24305">
		<tag k="name" v="Noret" />
		<tag k="ssr:stedsnr" v="944493" />
		<tag k="waterway" v="river" />
	</node>
	<node lat="60.19189166767053" lon="12.041122224561068" id="-24312">
		<tag k="name" v="Langerudvika" />
		<tag k="natural" v="bay" />
		<tag k="ssr:stedsnr" v="952122" />
	</node>
	<node lat="60.13367222185966" lon="11.952499999392636" id="-24317">
		<tag k="name" v="Manmyrtjennet" />
		<tag k="natural" v="water" />
		<tag k="ssr:stedsnr" v="956025" />
	</node>
	<node lat="60.10988888607003" lon="12.491755557875171" id="-24323">
		<tag k="name" v="Larbekkvika" />
		<tag k="natural" v="bay" />
		<tag k="ssr:stedsnr" v="965005" />
	</node>
	<node lat="60.117897222117044" lon="12.391847223240472" id="-24339">
		<tag k="name" v="Persvangen" />
		<tag k="ssr:stedsnr" v="967742" />
		<tag k="waterway" v="stream" />
	</node>
	<node lat="60.32470277647084" lon="12.361208341306119" id="-24340">
		<tag k="name" v="Søndre Grevlingtjennet" />
		<tag k="natural" v="water" />
		<tag k="ssr:stedsnr" v="969093" />
	</node>
	<node lat="60.12238333303615" lon="12.503224994802155" id="-24342">
		<tag k="name" v="Kongotunen" />
		<tag k="natural" v="water" />
		<tag k="ssr:stedsnr" v="969241" />
	</node>
	<node lat="60.22464166764497" lon="12.442488893097398" id="-24349">
		<tag k="name" v="Rimbila" />
		<tag k="natural" v="bay" />
		<tag k="ssr:stedsnr" v="969394" />
	</node>
	<node lat="60.266350001271995" lon="12.37217222130698" id="-24352">
		<tag k="name" v="Busktjennet" />
		<tag k="natural" v="water" />
		<tag k="ssr:stedsnr" v="969908" />
	</node>
	<node lat="60.219116669589596" lon="12.160222231074792" id="-24357">
		<tag k="name" v="Blokktjennet" />
		<tag k="natural" v="water" />
		<tag k="ssr:stedsnr" v="5087" />
	</node>
	<node lat="60.224388885783036" lon="12.2026027856644" id="-24359">
		<tag k="name" v="Svarttjennet" />
		<tag k="natural" v="water" />
		<tag k="ssr:stedsnr" v="5092" />
	</node>
	<node lat="60.13410000240218" lon="11.914322222268163" id="-24363">
		<tag k="name" v="Stubbekjølen" />
		<tag k="natural" v="water" />
		<tag k="ssr:stedsnr" v="5533" />
	</node>
	<node lat="60.22304722646715" lon="12.36023334152662" id="-24367">
		<tag k="name" v="Nedre Aurtjennet" />
		<tag k="natural" v="water" />
		<tag k="ssr:stedsnr" v="5784" />
	</node>
	<node lat="60.18087500426851" lon="12.352208326849576" id="-24369">
		<tag k="name" v="Langtangen" />
		<tag k="natural" v="cape" />
		<tag k="ssr:stedsnr" v="5752" />
	</node>
	<node lat="60.122133331095554" lon="12.357952777349087" id="-24370">
		<tag k="name" v="Stupholtjennet" />
		<tag k="natural" v="water" />
		<tag k="ssr:stedsnr" v="5934" />
	</node>
	<node lat="60.14953055795809" lon="12.48422222802766" id="-24373">
		<tag k="name" v="Bjørntjennet" />
		<tag k="natural" v="water" />
		<tag k="ssr:stedsnr" v="5948" />
	</node>
	<node lat="60.16867499820334" lon="12.517927771518028" id="-24380">
		<tag k="name" v="Ridalampi" />
		<tag k="natural" v="water" />
		<tag k="ssr:stedsnr" v="5984" />
	</node>
	<node lat="60.161374998184606" lon="12.263633337497017" id="-24381">
		<tag k="name" v="Delbekken" />
		<tag k="ssr:stedsnr" v="5986" />
		<tag k="waterway" v="stream" />
	</node>
	<node lat="60.19121111241507" lon="12.173275001452993" id="-24383">
		<tag k="name" v="Langtjennet" />
		<tag k="natural" v="water" />
		<tag k="ssr:stedsnr" v="6098" />
	</node>
	<node lat="60.26488888895767" lon="12.261908330008474" id="-24385">
		<tag k="name" v="Fjellsjøbekken" />
		<tag k="ssr:stedsnr" v="6199" />
		<tag k="waterway" v="stream" />
	</node>
	<node lat="60.37429444092938" lon="12.427736112353548" id="-24389">
		<tag k="name" v="Merraskjulfløyta" />
		<tag k="place" v="locality" />
		<tag k="ssr:stedsnr" v="6211" />
	</node>
	<node lat="60.3541555585316" lon="12.403908337001667" id="-24390">
		<tag k="name" v="Kalvbekken" />
		<tag k="ssr:stedsnr" v="6221" />
		<tag k="waterway" v="stream" />
	</node>
	<node lat="60.2691694456337" lon="12.205700006195716" id="-24393">
		<tag k="name" v="Lepengneset" />
		<tag k="natural" v="cape" />
		<tag k="ssr:stedsnr" v="6459" />
	</node>
	<node lat="60.28143055321438" lon="12.161080563762809" id="-24397">
		<tag k="alt_name" v="Åfloen" />
		<tag k="name" v="Store Åfloen" />
		<tag k="natural" v="water" />
		<tag k="ssr:stedsnr" v="6426" />
	</node>
	<node lat="60.274266663021685" lon="12.209536117361619" id="-24409">
		<tag k="name" v="Rundgrava" />
		<tag k="natural" v="cape" />
		<tag k="ssr:stedsnr" v="39544" />
	</node>
	<node lat="60.32903333585873" lon="12.44796388623657" id="-24414">
		<tag k="name" v="Svartholet" />
		<tag k="place" v="locality" />
		<tag k="ssr:stedsnr" v="40227" />
	</node>
	<node lat="60.19222777945781" lon="12.534830551413304" id="-24419">
		<tag k="name" v="Bukkilampi" />
		<tag k="natural" v="water" />
		<tag k="ssr:stedsnr" v="41348" />
	</node>
	<node lat="60.38640277444581" lon="12.307608338423268" id="-24432">
		<tag k="name" v="Klomma" />
		<tag k="natural" v="shoal" />
		<tag k="place" v="locality" />
		<tag k="ssr:stedsnr" v="42471" />
	</node>
	<node lat="60.0686833344813" lon="12.269486116893633" id="-24433">
		<tag k="name" v="Gåsbekken" />
		<tag k="ssr:stedsnr" v="42673" />
		<tag k="waterway" v="stream" />
	</node>
	<node lat="60.346558336679486" lon="12.31120555619469" id="-24441">
		<tag k="name" v="Kålhagafløyta" />
		<tag k="natural" v="water" />
		<tag k="ssr:stedsnr" v="55047" />
		<tag k="water" v="lake" />
	</node>
	<node lat="60.2984277795258" lon="12.326597225752819" id="-24442">
		<tag k="name" v="Grautåa" />
		<tag k="ssr:stedsnr" v="55132" />
		<tag k="waterway" v="stream" />
	</node>
	<node lat="60.18029444766637" lon="12.429194437170048" id="-24444">
		<tag k="name" v="Keigle" />
		<tag k="natural" v="water" />
		<tag k="ssr:stedsnr" v="55160" />
	</node>
	<node lat="60.10900555310632" lon="12.323400006081082" id="-24457">
		<tag k="name" v="Skullerudvika" />
		<tag k="natural" v="bay" />
		<tag k="ssr:stedsnr" v="55729" />
	</node>
	<node lat="60.09361111008394" lon="12.330288891986408" id="-24458">
		<tag k="name" v="Kattjennet" />
		<tag k="natural" v="water" />
		<tag k="ssr:stedsnr" v="55841" />
	</node>
	<node lat="60.285247221199945" lon="12.31692500151229" id="-24460">
		<tag k="name" v="Svarttjennbekken" />
		<tag k="ssr:stedsnr" v="55927" />
		<tag k="waterway" v="stream" />
	</node>
	<node lat="60.267249997696105" lon="12.049538883644235" id="-24461">
		<tag k="name" v="Karrustjennet" />
		<tag k="natural" v="water" />
		<tag k="ssr:stedsnr" v="55937" />
	</node>
	<node lat="60.11179999699512" lon="12.06386389485682" id="-24475">
		<tag k="name" v="Strengelsrudtjennet" />
		<tag k="natural" v="water" />
		<tag k="ssr:stedsnr" v="57560" />
	</node>
	<node lat="60.28394166963808" lon="12.189605554894516" id="-24476">
		<tag k="name" v="Bureisdammen" />
		<tag k="ssr:stedsnr" v="57694" />
		<tag k="waterway" v="dam" />
	</node>
	<node lat="60.171858331594976" lon="12.164477783497233" id="-24479">
		<tag k="name" v="Øyungsdammen" />
		<tag k="ssr:stedsnr" v="57851" />
		<tag k="waterway" v="dam" />
	</node>
	<node lat="60.31240555188324" lon="12.135691660685628" id="-24484">
		<tag k="name" v="Rafjellbekken" />
		<tag k="ssr:stedsnr" v="58227" />
		<tag k="waterway" v="stream" />
	</node>
	<node lat="60.26683333181926" lon="12.43311944038101" id="-24485">
		<tag k="name" v="Kårplamp" />
		<tag k="natural" v="water" />
		<tag k="ssr:stedsnr" v="58358" />
	</node>
	<node lat="60.133736114710636" lon="12.515158324921403" id="-24488">
		<tag k="name" v="Langtjennet" />
		<tag k="natural" v="water" />
		<tag k="ssr:stedsnr" v="59229" />
	</node>
	<node lat="60.109019440258095" lon="12.419436119404937" id="-24489">
		<tag k="name" v="Sætervangen" />
		<tag k="natural" v="bay" />
		<tag k="ssr:stedsnr" v="59251" />
	</node>
	<node lat="60.29284444273637" lon="12.42665277356014" id="-24490">
		<tag k="name" v="Halvvegastjennet" />
		<tag k="natural" v="water" />
		<tag k="ssr:stedsnr" v="59329" />
	</node>
	<node lat="60.293777780737095" lon="12.414802781230197" id="-24491">
		<tag k="name" v="Damtjenna" />
		<tag k="natural" v="water" />
		<tag k="ssr:stedsnr" v="59330" />
		<tag k="water" v="lake" />
	</node>
	<node lat="60.36313888619589" lon="12.323419443979311" id="-24495">
		<tag k="name" v="Storholmen" />
		<tag k="place" v="islet" />
		<tag k="ssr:stedsnr" v="66188" />
	</node>
	<node lat="60.063441667690675" lon="12.32076666076991" id="-24499">
		<tag k="name" v="Svintjenn" />
		<tag k="natural" v="water" />
		<tag k="ssr:stedsnr" v="66104" />
	</node>
	<node lat="60.20532500246539" lon="12.119577770125506" id="-24501">
		<tag k="name" v="Sagbekken" />
		<tag k="ssr:stedsnr" v="66065" />
		<tag k="waterway" v="stream" />
	</node>
	<node lat="60.29672499592692" lon="12.404122214910608" id="-24510">
		<tag k="name" v="Midtre Blekketjennet" />
		<tag k="natural" v="water" />
		<tag k="ssr:stedsnr" v="67162" />
	</node>
	<node lat="60.16885555957386" lon="12.182725008780718" id="-24511">
		<tag k="name" v="Ringhavet" />
		<tag k="natural" v="water" />
		<tag k="ssr:stedsnr" v="66551" />
	</node>
	<node lat="60.18571388768994" lon="12.50974999885432" id="-24513">
		<tag k="name" v="Smaltjennet" />
		<tag k="natural" v="water" />
		<tag k="ssr:stedsnr" v="66747" />
	</node>
	<node lat="60.192660033334455" lon="12.52563567372171" id="-24514">
		<tag k="name" v="Særgilamp" />
		<tag k="natural" v="water" />
		<tag k="ssr:stedsnr" v="66767" />
		<tag k="water" v="lake" />
	</node>
	<node lat="60.139752774466935" lon="11.91985000153864" id="-24517">
		<tag k="name" v="Blokka" />
		<tag k="natural" v="water" />
		<tag k="ssr:stedsnr" v="66520" />
	</node>
	<node lat="60.130511012658914" lon="12.050098309851846" id="-24519">
		<tag k="alt_name" v="Berimellomfløyta;Lierfløyta" />
		<tag k="loc_name" v="Lierfløyta" />
		<tag k="name" v="Fløyta" />
		<tag k="natural" v="water" />
		<tag k="ssr:stedsnr" v="66535" />
	</node>
	<node lat="60.231187757622685" lon="12.372655831156294" id="-24525">
		<tag k="name" v="Fensjøen" />
		<tag k="natural" v="water" />
		<tag k="ssr:stedsnr" v="66816" />
		<tag k="water" v="lake" />
	</node>
	<node lat="60.234277781431814" lon="12.32119444851483" id="-24526">
		<tag k="name" v="Øltjennet" />
		<tag k="natural" v="water" />
		<tag k="ssr:stedsnr" v="66818" />
	</node>
	<node lat="60.22914722566809" lon="12.346911112445548" id="-24527">
		<tag k="name" v="Øvre Aurtjennet" />
		<tag k="natural" v="water" />
		<tag k="ssr:stedsnr" v="66821" />
	</node>
	<node lat="60.14960277726263" lon="12.405491674774506" id="-24531">
		<tag k="name" v="Merratjenn" />
		<tag k="natural" v="water" />
		<tag k="ssr:stedsnr" v="66966" />
	</node>
	<node lat="60.15934484879707" lon="12.526414501882734" id="-24532">
		<tag k="fixme" v="multiple name tags, choose one and add the other to alt_name" />
		<tag k="name" v="Kissalampi;Kattjennet" />
		<tag k="natural" v="water" />
		<tag k="ssr:stedsnr" v="66971" />
	</node>
	<node lat="60.30122499591692" lon="11.925566669980713" id="-24547">
		<tag k="name" v="Ringshelletjennet" />
		<tag k="natural" v="water" />
		<tag k="ssr:stedsnr" v="67535" />
	</node>
	<node lat="60.3069833304617" lon="11.910744452257156" id="-24566">
		<tag k="name" v="Tutjenna" />
		<tag k="natural" v="water" />
		<tag k="ssr:stedsnr" v="103256" />
		<tag k="water" v="lake" />
	</node>
	<node lat="60.25285336557876" lon="12.422491656411609" id="-24572">
		<tag k="name" v="Nedre Kjerketjennet" />
		<tag k="natural" v="water" />
		<tag k="ssr:stedsnr" v="108856" />
	</node>
	<node lat="60.217027775045956" lon="12.448225002107852" id="-24583">
		<tag k="name" v="Løvskogholmen" />
		<tag k="place" v="islet" />
		<tag k="ssr:stedsnr" v="116150" />
	</node>
	<node lat="60.19506111562394" lon="12.480722221584752" id="-24584">
		<tag k="name" v="Kottermyrtjennet" />
		<tag k="natural" v="water" />
		<tag k="ssr:stedsnr" v="116159" />
	</node>
	<node lat="60.259269442853515" lon="12.508030552569553" id="-24587">
		<tag k="name" v="Maisobekken" />
		<tag k="ssr:stedsnr" v="116339" />
		<tag k="waterway" v="stream" />
	</node>
	<node lat="60.326402775312985" lon="12.276941661123164" id="-24593">
		<tag k="name" v="Nordre Lensenebben" />
		<tag k="natural" v="cape" />
		<tag k="ssr:stedsnr" v="116655" />
	</node>
	<node lat="60.214483330407624" lon="12.167597223157506" id="-24594">
		<tag k="name" v="Dulpa" />
		<tag k="natural" v="water" />
		<tag k="ssr:stedsnr" v="116833" />
		<tag k="water" v="pond" />
	</node>
	<node lat="60.15639444590236" lon="12.321405551309116" id="-24598">
		<tag k="name" v="Maurbakkholmen" />
		<tag k="place" v="islet" />
		<tag k="ssr:stedsnr" v="116932" />
	</node>
	<node lat="60.177827779527995" lon="12.395722230216627" id="-24603">
		<tag k="name" v="Trosholmvika" />
		<tag k="natural" v="bay" />
		<tag k="ssr:stedsnr" v="116952" />
	</node>
	<node lat="60.239130554011254" lon="12.306661116696032" id="-24608">
		<tag k="name" v="Navarskaftbekken" />
		<tag k="ssr:stedsnr" v="116980" />
		<tag k="waterway" v="stream" />
	</node>
	<node lat="60.26642499685358" lon="12.459797213948917" id="-24617">
		<tag k="name" v="Liabekken" />
		<tag k="ssr:stedsnr" v="118330" />
		<tag k="waterway" v="stream" />
	</node>
	<node lat="60.25354443998712" lon="12.36838611891122" id="-24624">
		<tag k="name" v="Baggetjennet" />
		<tag k="natural" v="water" />
		<tag k="ssr:stedsnr" v="118915" />
	</node>
	<node lat="60.28251944702499" lon="12.42189722314549" id="-24628">
		<tag k="name" v="Bjørketjennet" />
		<tag k="natural" v="water" />
		<tag k="ssr:stedsnr" v="119346" />
	</node>
	<node lat="60.09304722072882" lon="12.28504166806775" id="-24636">
		<tag k="name" v="Tryggtjennet" />
		<tag k="natural" v="water" />
		<tag k="ssr:stedsnr" v="126886" />
	</node>
	<node lat="60.05282500333163" lon="12.395450009255555" id="-24638">
		<tag k="alt_name" v="Østgårdåa" />
		<tag k="name" v="Austgardsåa" />
		<tag k="ssr:stedsnr" v="126003" />
		<tag k="waterway" v="stream" />
	</node>
	<node lat="60.05489722138825" lon="12.449102774309301" id="-24640">
		<tag k="name" v="Høltjenn" />
		<tag k="natural" v="water" />
		<tag k="ssr:stedsnr" v="126009" />
	</node>
	<node lat="60.14713610872642" lon="12.1193888877806" id="-24643">
		<tag k="name" v="Kabberudtjennet" />
		<tag k="natural" v="water" />
		<tag k="ssr:stedsnr" v="126579" />
	</node>
	<node lat="60.137774996526446" lon="12.007602770171875" id="-24644">
		<tag k="name" v="Holeråa" />
		<tag k="ssr:stedsnr" v="126538" />
		<tag k="waterway" v="stream" />
	</node>
	<node lat="60.09586944102868" lon="12.067808339961838" id="-24645">
		<tag k="name" v="Motjennet" />
		<tag k="natural" v="water" />
		<tag k="ssr:stedsnr" v="126702" />
	</node>
	<node lat="60.2436000042701" lon="12.465949997761118" id="-24648">
		<tag k="alt_name" v="Øyerfløyta" />
		<tag k="name" v="Fløyta" />
		<tag k="ssr:stedsnr" v="126828" />
		<tag k="waterway" v="stream" />
	</node>
	<node lat="60.15937500260321" lon="12.32147499873288" id="-24650">
		<tag k="name" v="Steintangen" />
		<tag k="natural" v="cape" />
		<tag k="ssr:stedsnr" v="126987" />
	</node>
	<node lat="60.291294442802084" lon="12.241319437301279" id="-24652">
		<tag k="name" v="Steinreien" />
		<tag k="natural" v="water" />
		<tag k="ssr:stedsnr" v="127167" />
		<tag k="water" v="lake" />
	</node>
	<node lat="60.32306388583905" lon="12.314286112212828" id="-24655">
		<tag k="fixme" v="multiple name tags, choose one and add the other to alt_name" />
		<tag k="name" v="Oksauget;Langåsdulpene" />
		<tag k="natural" v="water" />
		<tag k="ssr:stedsnr" v="127262" />
	</node>
	<node lat="60.308455552279746" lon="12.339249997234692" id="-24657">
		<tag k="name" v="Grautsjøen" />
		<tag k="natural" v="water" />
		<tag k="ssr:stedsnr" v="127132" />
	</node>
	<node lat="60.335377775205274" lon="11.848336104543868" id="-24659">
		<tag k="alt_name" v="Mjøgsjøbekken" />
		<tag k="name" v="Mjogsjøbekken" />
		<tag k="ssr:stedsnr" v="127330" />
		<tag k="waterway" v="stream" />
	</node>
	<node lat="60.254349998919174" lon="12.146150007357422" id="-24661">
		<tag k="name" v="Damsjøen" />
		<tag k="natural" v="water" />
		<tag k="ssr:stedsnr" v="127437" />
	</node>
	<node lat="60.146341667367565" lon="12.405997228094026" id="-24666">
		<tag k="fixme" v="multiple name tags, choose one and add the other to alt_name" />
		<tag k="name" v="Damfløyta;Frautjennet" />
		<tag k="natural" v="water" />
		<tag k="ssr:stedsnr" v="127960" />
	</node>
	<node lat="60.21686389283856" lon="12.235697216595465" id="-24669">
		<tag k="name" v="Mengetjennet" />
		<tag k="natural" v="water" />
		<tag k="ssr:stedsnr" v="127829" />
	</node>
	<node lat="60.125916667244326" lon="12.10711388455461" id="-24671">
		<tag k="name" v="Langtjennet" />
		<tag k="natural" v="water" />
		<tag k="ssr:stedsnr" v="144200" />
	</node>
	<node lat="60.248224995611594" lon="12.455688886197738" id="-24678">
		<tag k="name" v="Langnabben" />
		<tag k="natural" v="cape" />
		<tag k="ssr:stedsnr" v="161344" />
	</node>
	<node lat="60.337838891332005" lon="12.267266675203267" id="-24693">
		<tag k="name" v="Kjerringbekken" />
		<tag k="ssr:stedsnr" v="163633" />
		<tag k="waterway" v="stream" />
	</node>
	<node lat="60.343027776946045" lon="12.286330560557055" id="-24694">
		<tag k="name" v="Gravsjøåa" />
		<tag k="ssr:stedsnr" v="163650" />
		<tag k="waterway" v="stream" />
	</node>
	<node lat="60.09569166939969" lon="12.381908342050757" id="-24697">
		<tag k="name" v="Smørholmvika" />
		<tag k="natural" v="bay" />
		<tag k="ssr:stedsnr" v="163818" />
	</node>
	<node lat="60.222205558469845" lon="12.431325004653766" id="-24700">
		<tag k="name" v="Vesle Øyeren" />
		<tag k="natural" v="bay" />
		<tag k="ssr:stedsnr" v="180390" />
	</node>
	<node lat="60.273555551896365" lon="11.999108327782723" id="-24701">
		<tag k="name" v="Bånerudbekken" />
		<tag k="ssr:stedsnr" v="163987" />
		<tag k="waterway" v="stream" />
	</node>
	<node lat="60.358552778978094" lon="12.338155554683128" id="-24708">
		<tag k="name" v="Finnveltholmen" />
		<tag k="place" v="islet" />
		<tag k="ssr:stedsnr" v="176024" />
	</node>
	<node lat="60.35871111272456" lon="12.32450834167889" id="-24709">
		<tag k="name" v="Sæternabben" />
		<tag k="natural" v="cape" />
		<tag k="ssr:stedsnr" v="176026" />
	</node>
	<node lat="60.324430559439044" lon="12.112413895846801" id="-24710">
		<tag k="name" v="Blakktjenna" />
		<tag k="natural" v="water" />
		<tag k="ssr:stedsnr" v="176047" />
		<tag k="water" v="pond" />
	</node>
	<node lat="60.34845555651244" lon="12.322327778430571" id="-24711">
		<tag k="name" v="Libekken" />
		<tag k="ssr:stedsnr" v="176048" />
		<tag k="waterway" v="stream" />
	</node>
	<node lat="60.216358329305635" lon="12.424736104259518" id="-24713">
		<tag k="name" v="Kosiaslamp" />
		<tag k="natural" v="water" />
		<tag k="ssr:stedsnr" v="176178" />
		<tag k="water" v="pond" />
	</node>
	<node lat="60.29787499781942" lon="11.962411119249854" id="-24715">
		<tag k="name" v="Kvernbekken" />
		<tag k="ssr:stedsnr" v="176498" />
		<tag k="waterway" v="stream" />
	</node>
	<node lat="60.330008332297695" lon="12.23599721650215" id="-24719">
		<tag k="name" v="Rådelsbekken" />
		<tag k="ssr:stedsnr" v="176636" />
		<tag k="waterway" v="stream" />
	</node>
	<node lat="60.24351388705132" lon="11.981088894153485" id="-24724">
		<tag k="name" v="Kabberudbekken" />
		<tag k="ssr:stedsnr" v="176942" />
		<tag k="waterway" v="stream" />
	</node>
	<node lat="60.20005555136611" lon="12.276699999959787" id="-24727">
		<tag k="name" v="Hokåssætertjennet" />
		<tag k="natural" v="water" />
		<tag k="ssr:stedsnr" v="177422" />
	</node>
	<node lat="60.2232722184596" lon="12.422150001532481" id="-24738">
		<tag k="name" v="Løvtjennbekken" />
		<tag k="ssr:stedsnr" v="179370" />
		<tag k="waterway" v="stream" />
	</node>
	<node lat="60.12714722595741" lon="12.378280560534352" id="-24744">
		<tag k="name" v="Morttjennbekken" />
		<tag k="ssr:stedsnr" v="179773" />
		<tag k="waterway" v="stream" />
	</node>
	<node lat="60.13088199626129" lon="12.382406051970511" id="-24745">
		<tag k="name" v="Søndre Morttjennet" />
		<tag k="natural" v="water" />
		<tag k="ssr:stedsnr" v="179775" />
	</node>
	<node lat="60.11602500319355" lon="12.371122225837901" id="-24746">
		<tag k="name" v="Engemyrvika" />
		<tag k="natural" v="bay" />
		<tag k="ssr:stedsnr" v="179778" />
	</node>
	<node lat="60.227780557882106" lon="12.105049998334493" id="-24758">
		<tag k="name" v="Motjennet" />
		<tag k="natural" v="water" />
		<tag k="ssr:stedsnr" v="187014" />
	</node>
	<node lat="60.23124435004825" lon="11.956207736554093" id="-24759">
		<tag k="name" v="Bogersjøen" />
		<tag k="natural" v="water" />
		<tag k="ssr:stedsnr" v="187019" />
		<tag k="water" v="lake" />
	</node>
	<node lat="60.0875888852012" lon="12.459538891769895" id="-24765">
		<tag k="name" v="Søndre Morttjennet" />
		<tag k="natural" v="water" />
		<tag k="ssr:stedsnr" v="187070" />
	</node>
	<node lat="60.23440000382649" lon="12.430199995684346" id="-24770">
		<tag k="name" v="Abbortjenn" />
		<tag k="natural" v="water" />
		<tag k="ssr:stedsnr" v="187801" />
	</node>
	<node lat="60.34998055638902" lon="12.016936117354687" id="-24776">
		<tag k="name" v="Eidstjennet" />
		<tag k="natural" v="water" />
		<tag k="ssr:stedsnr" v="188277" />
	</node>
	<node lat="60.14807500167284" lon="12.052300007618198" id="-24780">
		<tag k="name" v="Tarven" />
		<tag k="natural" v="water" />
		<tag k="ssr:stedsnr" v="187544" />
	</node>
	<node lat="60.166147221231675" lon="12.329511107615005" id="-24785">
		<tag k="name" v="Skreddartjenn" />
		<tag k="natural" v="water" />
		<tag k="ssr:stedsnr" v="187737" />
	</node>
	<node lat="60.18709999664753" lon="12.338049990654213" id="-24791">
		<tag k="name" v="Kvernholmen" />
		<tag k="place" v="islet" />
		<tag k="ssr:stedsnr" v="187758" />
	</node>
	<node lat="60.21186944500302" lon="12.3751694394978" id="-24792">
		<tag k="name" v="Knetjenn" />
		<tag k="natural" v="water" />
		<tag k="ssr:stedsnr" v="188822" />
	</node>
	<node lat="60.23022499802996" lon="12.497300006103972" id="-24793">
		<tag k="alt_name" v="Søndre Veneren" />
		<tag k="name" v="Venern" />
		<tag k="natural" v="water" />
		<tag k="ssr:stedsnr" v="188826" />
	</node>
	<node lat="60.18900832959107" lon="12.249425002826941" id="-24796">
		<tag k="name" v="Raiabekken" />
		<tag k="ssr:stedsnr" v="187766" />
		<tag k="waterway" v="stream" />
	</node>
	<node lat="60.131155551390464" lon="12.363649998648134" id="-24798">
		<tag k="name" v="Aurkyttjennet" />
		<tag k="natural" v="water" />
		<tag k="ssr:stedsnr" v="187961" />
	</node>
	<node lat="60.386388889750656" lon="12.322686103048678" id="-24800">
		<tag k="name" v="Skasen" />
		<tag k="natural" v="water" />
		<tag k="ssr:stedsnr" v="188045" />
		<tag k="water" v="lake" />
	</node>
	<node lat="60.30731111388652" lon="12.250247228481244" id="-24802">
		<tag k="name" v="Midtre Nysætertjennet" />
		<tag k="natural" v="water" />
		<tag k="ssr:stedsnr" v="188156" />
	</node>
	<node lat="60.342138889873176" lon="12.336130562454741" id="-24806">
		<tag k="name" v="Nordre Litjennet" />
		<tag k="natural" v="water" />
		<tag k="ssr:stedsnr" v="188252" />
	</node>
	<node lat="60.33854721885739" lon="12.422536103782999" id="-24807">
		<tag k="name" v="Ormtjennet" />
		<tag k="natural" v="water" />
		<tag k="ssr:stedsnr" v="188254" />
	</node>
	<node lat="60.36354722245727" lon="12.105972218378906" id="-24814">
		<tag k="name" v="Blakketjennet" />
		<tag k="natural" v="water" />
		<tag k="ssr:stedsnr" v="188298" />
	</node>
	<node lat="60.26760277505348" lon="11.975394436398549" id="-24817">
		<tag k="name" v="Leira" />
		<tag k="ssr:stedsnr" v="188439" />
		<tag k="waterway" v="stream" />
	</node>
	<node lat="60.353302782030184" lon="12.37829721543515" id="-24826">
		<tag k="name" v="Bilittdulpa" />
		<tag k="natural" v="water" />
		<tag k="ssr:stedsnr" v="221033" />
		<tag k="water" v="pond" />
	</node>
	<node lat="60.36807499802819" lon="12.34333611163726" id="-24834">
		<tag k="name" v="Dusken" />
		<tag k="natural" v="cape" />
		<tag k="ssr:stedsnr" v="224461" />
	</node>
	<node lat="60.16071111306963" lon="11.972919446031948" id="-24839">
		<tag k="name" v="Holtnabben" />
		<tag k="natural" v="cape" />
		<tag k="ssr:stedsnr" v="224594" />
	</node>
	<node lat="60.345183337322275" lon="12.263555552219682" id="-24840">
		<tag k="name" v="Rotbekken" />
		<tag k="ssr:stedsnr" v="224632" />
		<tag k="waterway" v="stream" />
	</node>
	<node lat="60.081208332165204" lon="12.331972216835991" id="-24842">
		<tag k="name" v="Svensrudvika" />
		<tag k="natural" v="bay" />
		<tag k="ssr:stedsnr" v="224824" />
	</node>
	<node lat="60.18521666343852" lon="12.330852783373286" id="-24843">
		<tag k="name" v="Kålsengnabben" />
		<tag k="natural" v="cape" />
		<tag k="ssr:stedsnr" v="224961" />
	</node>
	<node lat="60.17925000322181" lon="12.325897216226073" id="-24844">
		<tag k="name" v="Kjerringholmen" />
		<tag k="place" v="islet" />
		<tag k="ssr:stedsnr" v="224964" />
	</node>
	<node lat="60.364830556707396" lon="12.348369442292174" id="-24847">
		<tag k="name" v="Sagavika" />
		<tag k="natural" v="bay" />
		<tag k="ssr:stedsnr" v="282052" />
	</node>
	<node lat="60.27153333174243" lon="12.231413894033633" id="-24851">
		<tag k="name" v="Kamphaugsætervika" />
		<tag k="natural" v="bay" />
		<tag k="ssr:stedsnr" v="282559" />
	</node>
	<node lat="60.050169440480396" lon="12.441363889848953" id="-24873">
		<tag k="name" v="Tempeltjennet" />
		<tag k="natural" v="water" />
		<tag k="ssr:stedsnr" v="298027" />
	</node>
	<node lat="60.20610555962726" lon="12.480005555580561" id="-24876">
		<tag k="name" v="Okseøyet" />
		<tag k="natural" v="water" />
		<tag k="ssr:stedsnr" v="298159" />
		<tag k="water" v="pond" />
	</node>
	<node lat="60.2010944474761" lon="12.037347214779558" id="-24882">
		<tag k="name" v="Evja" />
		<tag k="ssr:stedsnr" v="298850" />
		<tag k="waterway" v="stream" />
	</node>
	<node lat="60.2023416646532" lon="12.139063881687242" id="-24909">
		<tag k="name" v="Mortholmen" />
		<tag k="place" v="islet" />
		<tag k="ssr:stedsnr" v="301858" />
	</node>
	<node lat="60.113049997796956" lon="12.356577769706377" id="-24918">
		<tag k="name" v="Åbbortjennet" />
		<tag k="natural" v="water" />
		<tag k="ssr:stedsnr" v="308924" />
	</node>
	<node lat="60.059399996009674" lon="12.03288610292874" id="-24920">
		<tag k="name" v="Haukåa" />
		<tag k="ssr:stedsnr" v="308676" />
		<tag k="waterway" v="river" />
	</node>
	<node lat="60.38200000322967" lon="12.314213887559758" id="-24921">
		<tag k="name" v="Nattneset" />
		<tag k="natural" v="cape" />
		<tag k="ssr:stedsnr" v="309052" />
	</node>
	<node lat="60.20066294728804" lon="12.143170090189376" id="-24923">
		<tag k="name" v="Lysen" />
		<tag k="natural" v="water" />
		<tag k="ssr:stedsnr" v="309060" />
		<tag k="water" v="lake" />
	</node>
	<node lat="60.0475194436883" lon="12.453202775688583" id="-24926">
		<tag k="name" v="Åstjenn" />
		<tag k="natural" v="water" />
		<tag k="ssr:stedsnr" v="309026" />
	</node>
	<node lat="60.44350278020745" lon="12.375066665884649" id="-24932">
		<tag k="name" v="Rotna" />
		<tag k="ssr:stedsnr" v="309132" />
		<tag k="waterway" v="river" />
	</node>
	<node lat="60.321183336896105" lon="12.424099992467877" id="-24933">
		<tag k="name" v="Ormbergsbekken" />
		<tag k="ssr:stedsnr" v="309155" />
		<tag k="waterway" v="stream" />
	</node>
	<node lat="60.315101731642464" lon="12.269389025156341" id="-24934">
		<tag k="alt_name" v="Digernessjøen, øvre" />
		<tag k="name" v="Øvre Digernessjøen" />
		<tag k="natural" v="water" />
		<tag k="ssr:stedsnr" v="309161" />
		<tag k="water" v="lake" />
	</node>
	<node lat="60.29235000369455" lon="12.287838893712838" id="-24935">
		<tag k="name" v="Tullreisåa" />
		<tag k="ssr:stedsnr" v="309166" />
		<tag k="waterway" v="stream" />
	</node>
	<node lat="60.29350000066372" lon="12.402941662540456" id="-24937">
		<tag k="name" v="Søndre Blekketjennet" />
		<tag k="natural" v="water" />
		<tag k="ssr:stedsnr" v="309175" />
	</node>
	<node lat="60.304461107917604" lon="12.38618333765444" id="-24938">
		<tag k="name" v="Tutjenna" />
		<tag k="natural" v="water" />
		<tag k="ssr:stedsnr" v="309181" />
		<tag k="water" v="lake" />
	</node>
	<node lat="60.28678333137957" lon="12.49236389533266" id="-24941">
		<tag k="name" v="Pøndønen" />
		<tag k="natural" v="water" />
		<tag k="ssr:stedsnr" v="309201" />
	</node>
	<node lat="60.276208334331855" lon="12.199291674870711" id="-24944">
		<tag k="name" v="Kakneset" />
		<tag k="natural" v="cape" />
		<tag k="ssr:stedsnr" v="309410" />
	</node>
	<node lat="60.34827777481278" lon="11.973558325798539" id="-24948">
		<tag k="name" v="Bingsfløyta" />
		<tag k="natural" v="water" />
		<tag k="ssr:stedsnr" v="309286" />
	</node>
	<node lat="60.30578888802528" lon="12.218052770444269" id="-24952">
		<tag k="name" v="Skriktjennet" />
		<tag k="natural" v="water" />
		<tag k="ssr:stedsnr" v="309524" />
	</node>
	<node lat="60.227602780280506" lon="12.228338896625012" id="-24954">
		<tag k="name" v="Mellomtjennet" />
		<tag k="natural" v="water" />
		<tag k="ssr:stedsnr" v="309824" />
	</node>
	<node lat="60.13444444581174" lon="12.25281666648928" id="-24957">
		<tag k="name" v="Sørlitjenn" />
		<tag k="natural" v="water" />
		<tag k="ssr:stedsnr" v="309961" />
	</node>
	<node lat="60.14892500447374" lon="12.328849996653155" id="-24959">
		<tag k="name" v="Brunsholmen" />
		<tag k="place" v="islet" />
		<tag k="ssr:stedsnr" v="309973" />
	</node>
	<node lat="60.29021944178644" lon="12.409711103358417" id="-24962">
		<tag k="name" v="Kontetjennet" />
		<tag k="natural" v="water" />
		<tag k="ssr:stedsnr" v="310153" />
	</node>
	<node lat="60.28541666271309" lon="12.25427777524651" id="-24969">
		<tag k="name" v="Baståstjennet" />
		<tag k="natural" v="water" />
		<tag k="ssr:stedsnr" v="342452" />
	</node>
	<node lat="60.13035555534739" lon="12.32153888707358" id="-24970">
		<tag k="name" v="Kvitsandtangen" />
		<tag k="natural" v="cape" />
		<tag k="ssr:stedsnr" v="342728" />
	</node>
	<node lat="60.25458610834981" lon="12.460000003391086" id="-24973">
		<tag k="name" v="Østjordbekken" />
		<tag k="ssr:stedsnr" v="343309" />
		<tag k="waterway" v="stream" />
	</node>
	<node lat="60.34581388978757" lon="12.335133328452695" id="-24980">
		<tag k="name" v="Libekken" />
		<tag k="ssr:stedsnr" v="345089" />
		<tag k="waterway" v="stream" />
	</node>
	<node lat="60.23485833396322" lon="12.097483328332206" id="-24981">
		<tag k="name" v="Skjæråa" />
		<tag k="ssr:stedsnr" v="345195" />
		<tag k="waterway" v="stream" />
	</node>
	<node lat="60.394386108641754" lon="12.298802769929846" id="-24983">
		<tag k="name" v="Langneset" />
		<tag k="natural" v="cape" />
		<tag k="ssr:stedsnr" v="345393" />
	</node>
	<node lat="60.390458335690624" lon="12.304411104275934" id="-24984">
		<tag k="name" v="Dusken" />
		<tag k="place" v="islet" />
		<tag k="ssr:stedsnr" v="345394" />
	</node>
	<node lat="60.084677775633075" lon="11.931194449221719" id="-24987">
		<tag k="name" v="Vestre Pulltjennet" />
		<tag k="natural" v="water" />
		<tag k="ssr:stedsnr" v="345687" />
	</node>
	<node lat="60.09719444679002" lon="11.929891667538312" id="-24988">
		<tag k="name" v="Vestre Furukolltjennet" />
		<tag k="natural" v="water" />
		<tag k="ssr:stedsnr" v="345698" />
	</node>
	<node lat="60.24586774545898" lon="12.230929159329873" id="-24994">
		<tag k="name" v="Homsjøen" />
		<tag k="natural" v="water" />
		<tag k="ssr:stedsnr" v="369824" />
		<tag k="water" v="lake" />
	</node>
	<node lat="60.056769447107825" lon="12.443038884242911" id="-24997">
		<tag k="name" v="Vesle Sætertjennet" />
		<tag k="natural" v="water" />
		<tag k="ssr:stedsnr" v="358023" />
	</node>
	<node lat="60.36678611548387" lon="12.344186108243052" id="-24998">
		<tag k="name" v="Hammarholmen" />
		<tag k="place" v="islet" />
		<tag k="ssr:stedsnr" v="358038" />
	</node>
	<node lat="60.36211666713372" lon="12.346450005206412" id="-24999">
		<tag k="name" v="Bredevika" />
		<tag k="natural" v="bay" />
		<tag k="ssr:stedsnr" v="358042" />
	</node>
	<node lat="60.20899444543219" lon="12.448322227633183" id="-25001">
		<tag k="name" v="Vikerdammen" />
		<tag k="ssr:stedsnr" v="358153" />
		<tag k="waterway" v="dam" />
	</node>
	<node lat="60.21592777938579" lon="12.29123333416955" id="-25005">
		<tag k="name" v="Kalvdolpene" />
		<tag k="natural" v="water" />
		<tag k="ssr:stedsnr" v="358376" />
		<tag k="water" v="pond" />
	</node>
	<node lat="60.21772222288771" lon="12.206463884102792" id="-25006">
		<tag k="name" v="Mengebergsdulpa" />
		<tag k="natural" v="water" />
		<tag k="ssr:stedsnr" v="358378" />
		<tag k="water" v="pond" />
	</node>
	<node lat="60.29632500395196" lon="11.956508332093225" id="-25011">
		<tag k="name" v="Ligørtjennet" />
		<tag k="natural" v="water" />
		<tag k="ssr:stedsnr" v="358532" />
	</node>
	<node lat="60.343400002683865" lon="12.398183335412565" id="-25023">
		<tag k="name" v="Tjennbekken" />
		<tag k="ssr:stedsnr" v="360037" />
		<tag k="waterway" v="stream" />
	</node>
	<node lat="60.35293055323481" lon="12.10282221370667" id="-25024">
		<tag k="name" v="Velttjennet" />
		<tag k="natural" v="water" />
		<tag k="ssr:stedsnr" v="360041" />
	</node>
	<node lat="60.14092500079458" lon="12.019227780891002" id="-25027">
		<tag k="name" v="Myrvollbekken" />
		<tag k="ssr:stedsnr" v="360579" />
		<tag k="waterway" v="stream" />
	</node>
	<node lat="60.27374721919098" lon="12.42570555075948" id="-25043">
		<tag k="name" v="Påiganlamp" />
		<tag k="natural" v="water" />
		<tag k="ssr:stedsnr" v="361380" />
	</node>
	<node lat="60.21905555730058" lon="12.440708330359081" id="-25049">
		<tag k="name" v="Furuholmen" />
		<tag k="place" v="islet" />
		<tag k="ssr:stedsnr" v="362399" />
	</node>
	<node lat="60.05329166826042" lon="12.350513897781497" id="-25052">
		<tag k="name" v="Øktartangen" />
		<tag k="natural" v="cape" />
		<tag k="ssr:stedsnr" v="362680" />
	</node>
	<node lat="60.26336388658426" lon="12.403811109819365" id="-25061">
		<tag k="name" v="Riatjenna" />
		<tag k="natural" v="water" />
		<tag k="ssr:stedsnr" v="362910" />
		<tag k="water" v="lake" />
	</node>
	<node lat="60.07097221932767" lon="12.311094439067503" id="-25069">
		<tag k="name" v="Elgemyrtjennet" />
		<tag k="natural" v="water" />
		<tag k="ssr:stedsnr" v="369072" />
	</node>
	<node lat="60.05839444252607" lon="12.31782778202862" id="-25072">
		<tag k="name" v="Hundetjenn" />
		<tag k="natural" v="water" />
		<tag k="ssr:stedsnr" v="369089" />
	</node>
	<node lat="60.15977154651369" lon="12.163028344528701" id="-25076">
		<tag k="name" v="Digeren" />
		<tag k="natural" v="water" />
		<tag k="ssr:stedsnr" v="369534" />
		<tag k="water" v="lake" />
	</node>
	<node lat="60.160627776882045" lon="12.202008339183196" id="-25077">
		<tag k="name" v="Veslevatnet" />
		<tag k="natural" v="water" />
		<tag k="ssr:stedsnr" v="369535" />
	</node>
	<node lat="60.09864999848498" lon="11.89943611537064" id="-25079">
		<tag k="name" v="Storbørja" />
		<tag k="natural" v="water" />
		<tag k="ssr:stedsnr" v="369455" />
		<tag k="water" v="lake" />
	</node>
	<node lat="60.40790000268691" lon="12.058883338572599" id="-25082">
		<tag k="alt_name" v="Koksåa;Hvebergåa" />
		<tag k="name" v="Kveia" />
		<tag k="ssr:stedsnr" v="370392" />
		<tag k="waterway" v="river" />
	</node>
	<node lat="60.216950000332425" lon="12.251533326689497" id="-25084">
		<tag k="name" v="Eggeltjennet" />
		<tag k="natural" v="water" />
		<tag k="ssr:stedsnr" v="369786" />
	</node>
	<node lat="60.14049721870034" lon="12.432625004650967" id="-25091">
		<tag k="loc_name" v="Varalden" />
		<tag k="name" v="Varaldsjøen" />
		<tag k="natural" v="water" />
		<tag k="ssr:stedsnr" v="369943" />
		<tag k="water" v="lake" />
	</node>
	<node lat="60.13585833344294" lon="12.36317500273124" id="-25092">
		<tag k="name" v="Engetjennet" />
		<tag k="natural" v="water" />
		<tag k="ssr:stedsnr" v="369959" />
	</node>
	<node lat="60.3251999983971" lon="12.273511106749027" id="-25098">
		<tag k="name" v="Jersjøen" />
		<tag k="natural" v="water" />
		<tag k="ssr:stedsnr" v="370293" />
		<tag k="water" v="lake" />
	</node>
	<node lat="60.27367499997007" lon="12.091422223402502" id="-25101">
		<tag k="name" v="Årbogan" />
		<tag k="ssr:stedsnr" v="370434" />
		<tag k="waterway" v="river" />
	</node>
	<node lat="60.29752499751811" lon="12.097863893751207" id="-25116">
		<tag k="name" v="Nordstøa" />
		<tag k="natural" v="bay" />
		<tag k="ssr:stedsnr" v="404240" />
	</node>
	<node lat="60.36653333566698" lon="12.43259445285109" id="-25121">
		<tag k="name" v="Merraskjulfossen" />
		<tag k="natural" v="waterfall" />
		<tag k="ssr:stedsnr" v="405116" />
	</node>
	<node lat="60.11632222376371" lon="12.462855557323868" id="-25129">
		<tag k="name" v="Rintholmen" />
		<tag k="place" v="islet" />
		<tag k="ssr:stedsnr" v="406281" />
	</node>
	<node lat="60.25929703080107" lon="12.41388974715226" id="-25141">
		<tag k="name" v="Øvre Kjerketjennet" />
		<tag k="natural" v="water" />
		<tag k="ssr:stedsnr" v="411880" />
	</node>
	<node lat="60.27449444688435" lon="12.136083336025909" id="-25145">
		<tag k="name" v="Mjølnerudfallet" />
		<tag k="natural" v="waterfall" />
		<tag k="ssr:stedsnr" v="419158" />
	</node>
	<node lat="60.045786113206944" lon="12.454549995941447" id="-25148">
		<tag k="name" v="Linnetjennet" />
		<tag k="natural" v="water" />
		<tag k="ssr:stedsnr" v="419021" />
	</node>
	<node lat="60.27288055999223" lon="12.498913888084239" id="-25155">
		<tag k="name" v="Gjertrudsbekken" />
		<tag k="ssr:stedsnr" v="419358" />
		<tag k="waterway" v="stream" />
	</node>
	<node lat="60.20532222146077" lon="12.02134445334682" id="-25159">
		<tag k="name" v="Gråsanden" />
		<tag k="place" v="islet" />
		<tag k="ssr:stedsnr" v="419861" />
	</node>
	<node lat="60.14349721944262" lon="12.43146666703818" id="-25165">
		<tag k="name" v="Ropartangen" />
		<tag k="natural" v="cape" />
		<tag k="ssr:stedsnr" v="421166" />
	</node>
	<node lat="60.265155552395605" lon="12.442194439798113" id="-25175">
		<tag k="name" v="Kårplampbekken" />
		<tag k="ssr:stedsnr" v="422335" />
		<tag k="waterway" v="stream" />
	</node>
	<node lat="60.1453027815771" lon="12.06115556409988" id="-25176">
		<tag k="name" v="Gropatjennet" />
		<tag k="natural" v="water" />
		<tag k="ssr:stedsnr" v="422608" />
	</node>
	<node lat="60.11331389092963" lon="12.388005547507687" id="-25177">
		<tag k="name" v="Lomholmen" />
		<tag k="place" v="islet" />
		<tag k="ssr:stedsnr" v="422773" />
	</node>
	<node lat="60.09698056007148" lon="12.441586104378297" id="-25183">
		<tag k="name" v="Høymyrtjenna" />
		<tag k="natural" v="water" />
		<tag k="ssr:stedsnr" v="423265" />
		<tag k="water" v="lake" />
	</node>
	<node lat="60.058366662648105" lon="12.350899998490119" id="-25185">
		<tag k="name" v="Gylterudholmen" />
		<tag k="place" v="islet" />
		<tag k="ssr:stedsnr" v="423698" />
	</node>
	<node lat="60.338577781131185" lon="11.894797216121873" id="-25188">
		<tag k="name" v="Svarttjennsbekken" />
		<tag k="ssr:stedsnr" v="423586" />
		<tag k="waterway" v="stream" />
	</node>
	<node lat="60.93943888528743" lon="11.516244438964907" id="-25197">
		<tag k="fixme" v="multiple name tags, choose one and add the other to alt_name" />
		<tag k="name" v="Glåma;Glomma" />
		<tag k="ssr:stedsnr" v="426301" />
		<tag k="waterway" v="river" />
	</node>
	<node lat="60.06159167106246" lon="12.468644439469976" id="-25208">
		<tag k="name" v="Kroktjenn" />
		<tag k="natural" v="water" />
		<tag k="ssr:stedsnr" v="430113" />
	</node>
	<node lat="60.112358329547256" lon="12.316875003090471" id="-25216">
		<tag k="name" v="Fagernessjøen" />
		<tag k="natural" v="water" />
		<tag k="ssr:stedsnr" v="430930" />
	</node>
	<node lat="60.11297500056608" lon="12.37467499877819" id="-25217">
		<tag k="name" v="Storøya" />
		<tag k="place" v="islet" />
		<tag k="ssr:stedsnr" v="430935" />
	</node>
	<node lat="60.13393333147248" lon="12.443299991157277" id="-25218">
		<tag k="name" v="Rundholmen" />
		<tag k="place" v="islet" />
		<tag k="ssr:stedsnr" v="430939" />
	</node>
	<node lat="60.091502777470076" lon="12.409675006847031" id="-25223">
		<tag k="name" v="Fiskarholmen" />
		<tag k="place" v="islet" />
		<tag k="ssr:stedsnr" v="430876" />
	</node>
	<node lat="60.2760805581805" lon="12.022225005378026" id="-25232">
		<tag k="name" v="Gjølstadfossen" />
		<tag k="natural" v="waterfall" />
		<tag k="ssr:stedsnr" v="431430" />
	</node>
	<node lat="60.27831666567855" lon="12.425916662038086" id="-25240">
		<tag k="name" v="Smaltjennet" />
		<tag k="natural" v="water" />
		<tag k="ssr:stedsnr" v="431188" />
	</node>
	<node lat="60.20563889316492" lon="12.396283336972505" id="-25246">
		<tag k="name" v="Nydambekken" />
		<tag k="ssr:stedsnr" v="525959" />
		<tag k="waterway" v="stream" />
	</node>
	<node lat="60.23040000302945" lon="12.428400002839519" id="-25259">
		<tag k="name" v="Abbortjennbekken" />
		<tag k="ssr:stedsnr" v="527301" />
		<tag k="waterway" v="stream" />
	</node>
	<node lat="60.247569445530814" lon="12.262438886292564" id="-25267">
		<tag k="name" v="Fjellsjøholmen" />
		<tag k="place" v="islet" />
		<tag k="ssr:stedsnr" v="527460" />
	</node>
	<node lat="60.054702778237974" lon="12.423161118773704" id="-25277">
		<tag k="name" v="Husletjennet" />
		<tag k="natural" v="water" />
		<tag k="ssr:stedsnr" v="540023" />
	</node>
	<node lat="60.35580278003351" lon="12.322902776956953" id="-25278">
		<tag k="name" v="Dammen" />
		<tag k="ssr:stedsnr" v="540037" />
		<tag k="waterway" v="dam" />
	</node>
	<node lat="60.185519445975594" lon="12.178008340912932" id="-25280">
		<tag k="name" v="Urstjennbekken" />
		<tag k="ssr:stedsnr" v="540825" />
		<tag k="waterway" v="stream" />
	</node>
	<node lat="60.271936115353874" lon="12.134991667409405" id="-25296">
		<tag k="name" v="Tørrmobekken" />
		<tag k="ssr:stedsnr" v="541142" />
		<tag k="waterway" v="stream" />
	</node>
	<node lat="60.15193888585721" lon="11.919369446032912" id="-25308">
		<tag k="name" v="Klomtjennet" />
		<tag k="natural" v="water" />
		<tag k="ssr:stedsnr" v="542327" />
	</node>
	<node lat="60.33292222050515" lon="12.394736111300881" id="-25311">
		<tag k="name" v="Kvernbekken" />
		<tag k="ssr:stedsnr" v="543052" />
		<tag k="waterway" v="stream" />
	</node>
	<node lat="60.232474995814854" lon="12.497477785000305" id="-25326">
		<tag k="name" v="Nordre Veneren" />
		<tag k="natural" v="water" />
		<tag k="ssr:stedsnr" v="544122" />
	</node>
	<node lat="60.27667222370613" lon="11.943261108807079" id="-25327">
		<tag k="name" v="Nordre Sølvtjennet" />
		<tag k="natural" v="water" />
		<tag k="ssr:stedsnr" v="544135" />
	</node>
	<node lat="60.05876389067853" lon="12.373402785403114" id="-25339">
		<tag k="name" v="Mobekken" />
		<tag k="ssr:stedsnr" v="544643" />
		<tag k="waterway" v="stream" />
	</node>
	<node lat="60.065494447804795" lon="12.334766666368667" id="-25342">
		<tag k="name" v="Delbekken" />
		<tag k="ssr:stedsnr" v="544649" />
		<tag k="waterway" v="stream" />
	</node>
	<node lat="60.23267500464217" lon="11.951283326576908" id="-25347">
		<tag k="name" v="Aurvika" />
		<tag k="natural" v="bay" />
		<tag k="ssr:stedsnr" v="544749" />
	</node>
	<node lat="60.22293611324004" lon="11.970483340093788" id="-25351">
		<tag k="name" v="Bogerfløyta" />
		<tag k="natural" v="water" />
		<tag k="ssr:stedsnr" v="551024" />
	</node>
	<node lat="60.06449444515667" lon="12.469649996984222" id="-25354">
		<tag k="name" v="Huktjenn" />
		<tag k="natural" v="water" />
		<tag k="ssr:stedsnr" v="551129" />
	</node>
	<node lat="60.175675002519895" lon="12.342966669910949" id="-25374">
		<tag k="alt_name" v="Hjerpholmen" />
		<tag k="name" v="Jerpholmen" />
		<tag k="place" v="islet" />
		<tag k="ssr:stedsnr" v="551777" />
	</node>
	<node lat="60.295216669919206" lon="12.24527499415692" id="-25381">
		<tag k="name" v="Nordre Orrenabben" />
		<tag k="natural" v="cape" />
		<tag k="ssr:stedsnr" v="552165" />
	</node>
	<node lat="60.347277773617215" lon="12.125369437596088" id="-25388">
		<tag k="name" v="Klemmettjennet" />
		<tag k="natural" v="water" />
		<tag k="ssr:stedsnr" v="552346" />
	</node>
	<node lat="60.27368333231551" lon="11.943133339865179" id="-25393">
		<tag k="name" v="Sølvtjennet" />
		<tag k="natural" v="water" />
		<tag k="ssr:stedsnr" v="552432" />
	</node>
	<node lat="60.27604444568231" lon="12.226108333672498" id="-25400">
		<tag k="name" v="Olderbråtåvika" />
		<tag k="natural" v="bay" />
		<tag k="ssr:stedsnr" v="585580" />
	</node>
	<node lat="60.14066666868718" lon="12.329447221079677" id="-25401">
		<tag k="name" v="Fiskevika" />
		<tag k="natural" v="bay" />
		<tag k="ssr:stedsnr" v="585922" />
	</node>
	<node lat="60.192449996921354" lon="12.028177772443485" id="-25405">
		<tag k="name" v="Nor skanse" />
		<tag k="natural" v="cape" />
		<tag k="ssr:stedsnr" v="587130" />
	</node>
	<node lat="60.17429444815998" lon="12.325761104545416" id="-25407">
		<tag k="name" v="Petolamp" />
		<tag k="natural" v="water" />
		<tag k="ssr:stedsnr" v="587964" />
	</node>
	<node lat="60.23848055754363" lon="12.194394451816466" id="-25411">
		<tag k="name" v="Øveråsbergsdulpa" />
		<tag k="natural" v="water" />
		<tag k="ssr:stedsnr" v="587494" />
		<tag k="water" v="pond" />
	</node>
	<node lat="60.07930278081117" lon="12.399266660414604" id="-25416">
		<tag k="name" v="Nesbekkvika" />
		<tag k="natural" v="bay" />
		<tag k="ssr:stedsnr" v="588843" />
	</node>
	<node lat="60.05060000058564" lon="12.447438893753176" id="-25430">
		<tag k="name" v="Snekkertjennet" />
		<tag k="natural" v="water" />
		<tag k="ssr:stedsnr" v="600017" />
	</node>
	<node lat="60.263783330797956" lon="12.422677771697236" id="-25435">
		<tag k="name" v="Laddolamp" />
		<tag k="natural" v="water" />
		<tag k="ssr:stedsnr" v="601278" />
	</node>
	<node lat="60.184927773775684" lon="12.242908340923664" id="-25437">
		<tag k="name" v="Vaisbekken" />
		<tag k="ssr:stedsnr" v="601084" />
		<tag k="waterway" v="stream" />
	</node>
	<node lat="60.16392221827121" lon="12.490338894794954" id="-25440">
		<tag k="name" v="Hammerstjennet" />
		<tag k="natural" v="water" />
		<tag k="ssr:stedsnr" v="601146" />
	</node>
	<node lat="60.16182222412615" lon="12.343713885434969" id="-25448">
		<tag k="name" v="Fjørsundet" />
		<tag k="natural" v="strait" />
		<tag k="ssr:stedsnr" v="601932" />
	</node>
	<node lat="60.1573861092213" lon="12.32072777398966" id="-25449">
		<tag k="name" v="Vestre Tangevika" />
		<tag k="natural" v="bay" />
		<tag k="ssr:stedsnr" v="601935" />
	</node>
	<node lat="60.34763610838127" lon="11.975827776688845" id="-25453">
		<tag k="name" v="Tangen" />
		<tag k="natural" v="cape" />
		<tag k="ssr:stedsnr" v="601875" />
	</node>
	<node lat="60.14343333000247" lon="12.414783341113445" id="-25459">
		<tag k="name" v="Varalddammen" />
		<tag k="ssr:stedsnr" v="603175" />
		<tag k="waterway" v="dam" />
	</node>
	<node lat="60.32591111227546" lon="12.129813889721408" id="-25460">
		<tag k="name" v="Søndre Rafjelltjennet" />
		<tag k="natural" v="water" />
		<tag k="ssr:stedsnr" v="603177" />
	</node>
	<node lat="60.23813888849216" lon="11.952822227383896" id="-25462">
		<tag k="name" v="Hestebråtetjennet" />
		<tag k="natural" v="water" />
		<tag k="ssr:stedsnr" v="603127" />
	</node>
	<node lat="60.26768610722266" lon="11.964591658812978" id="-25465">
		<tag k="name" v="Grisbekken" />
		<tag k="ssr:stedsnr" v="603135" />
		<tag k="waterway" v="stream" />
	</node>
	<node lat="60.14036111093568" lon="12.173750007366143" id="-25477">
		<tag k="name" v="Gåsviksundet" />
		<tag k="natural" v="bay" />
		<tag k="ssr:stedsnr" v="603758" />
	</node>
	<node lat="60.16562500065321" lon="12.164102776445471" id="-25478">
		<tag k="name" v="Mortåa" />
		<tag k="ssr:stedsnr" v="603760" />
		<tag k="waterway" v="stream" />
	</node>
	<node lat="60.166688890283204" lon="12.17946944518421" id="-25479">
		<tag k="name" v="Stenmyrbekken" />
		<tag k="ssr:stedsnr" v="603762" />
		<tag k="waterway" v="stream" />
	</node>
	<node lat="60.247422217988934" lon="12.3780805576053" id="-25481">
		<tag k="name" v="Kavalastjennet" />
		<tag k="natural" v="water" />
		<tag k="ssr:stedsnr" v="603920" />
	</node>
	<node lat="60.225247222856" lon="12.48107222745307" id="-25486">
		<tag k="name" v="Entbekken" />
		<tag k="ssr:stedsnr" v="604146" />
		<tag k="waterway" v="stream" />
	</node>
	<node lat="60.130822221413" lon="12.4924250009805" id="-25488">
		<tag k="name" v="Kilbonen" />
		<tag k="natural" v="water" />
		<tag k="ssr:stedsnr" v="604236" />
	</node>
	<node lat="60.285524997214466" lon="12.417177777984838" id="-25490">
		<tag k="name" v="Igletjennet" />
		<tag k="natural" v="water" />
		<tag k="ssr:stedsnr" v="604341" />
	</node>
	<node lat="60.014150001739345" lon="12.392133340825954" id="-25503">
		<tag k="name" v="Langvika" />
		<tag k="natural" v="bay" />
		<tag k="ssr:stedsnr" v="612061" />
	</node>
	<node lat="60.068575002794425" lon="12.439130562264292" id="-25507">
		<tag k="name" v="Hetjenn" />
		<tag k="natural" v="water" />
		<tag k="ssr:stedsnr" v="612148" />
	</node>
	<node lat="60.25378888938173" lon="12.306966662737386" id="-25510">
		<tag k="name" v="Huldertjennet" />
		<tag k="natural" v="water" />
		<tag k="ssr:stedsnr" v="612196" />
	</node>
	<node lat="60.157669212663606" lon="11.968446825055521" id="-25511">
		<tag k="name" v="Bæreia" />
		<tag k="natural" v="water" />
		<tag k="ssr:stedsnr" v="611567" />
		<tag k="water" v="lake" />
	</node>
	<node lat="60.26412777705511" lon="12.197516674271261" id="-25515">
		<tag k="name" v="Baldrusvika" />
		<tag k="natural" v="bay" />
		<tag k="ssr:stedsnr" v="612449" />
	</node>
	<node lat="60.10090277717564" lon="12.294849994566695" id="-25517">
		<tag k="name" v="Holvassbekken" />
		<tag k="ssr:stedsnr" v="611927" />
		<tag k="waterway" v="stream" />
	</node>
	<node lat="60.10381770686868" lon="12.283010532059537" id="-25518">
		<tag k="name" v="Østre Holvatnet" />
		<tag k="natural" v="water" />
		<tag k="ssr:stedsnr" v="611929" />
		<tag k="water" v="lake" />
	</node>
	<node lat="60.11419380325903" lon="12.379320351877949" id="-25519">
		<tag k="alt_name" v="Hærsjøen, nordre" />
		<tag k="name" v="Nordre Hærsjøen" />
		<tag k="natural" v="water" />
		<tag k="ssr:stedsnr" v="611941" />
		<tag k="water" v="lake" />
	</node>
	<node lat="60.19421388754159" lon="12.10025278117647" id="-25524">
		<tag k="name" v="Smestadtjennet" />
		<tag k="natural" v="water" />
		<tag k="ssr:stedsnr" v="612094" />
	</node>
	<node lat="60.2714138904614" lon="12.171583336171462" id="-25530">
		<tag k="name" v="Geittjennet" />
		<tag k="natural" v="water" />
		<tag k="ssr:stedsnr" v="612396" />
	</node>
	<node lat="60.16685000229418" lon="12.359958326877386" id="-25542">
		<tag k="alt_name" v="Dragalodden" />
		<tag k="name" v="Dragalen" />
		<tag k="natural" v="cape" />
		<tag k="ssr:stedsnr" v="612751" />
	</node>
	<node lat="60.22998532135514" lon="12.517329108635236" id="-25544">
		<tag k="alt_name" v="Mosevatnet, nordre" />
		<tag k="name" v="Nordre Mosevatnet" />
		<tag k="natural" v="water" />
		<tag k="ssr:stedsnr" v="612800" />
		<tag k="water" v="lake" />
	</node>
	<node lat="60.16307500230506" lon="12.433174998491287" id="-25551">
		<tag k="name" v="Kirkåsildå" />
		<tag k="natural" v="bay" />
		<tag k="ssr:stedsnr" v="612995" />
	</node>
	<node lat="60.27065555471644" lon="12.200738881542582" id="-25557">
		<tag k="name" v="Søndre Sundnæbben" />
		<tag k="natural" v="cape" />
		<tag k="ssr:stedsnr" v="646570" />
	</node>
	<node lat="60.19249722498003" lon="12.037533333929646" id="-25566">
		<tag k="name" v="Kanalen" />
		<tag k="natural" v="strait" />
		<tag k="ssr:stedsnr" v="648144" />
	</node>
	<node lat="60.24790833310769" lon="12.16274999217393" id="-25568">
		<tag k="name" v="Grautbekken" />
		<tag k="ssr:stedsnr" v="648171" />
		<tag k="waterway" v="stream" />
	</node>
	<node lat="60.0947499997672" lon="12.31663333260982" id="-25569">
		<tag k="name" v="Holmenvika" />
		<tag k="natural" v="bay" />
		<tag k="ssr:stedsnr" v="648749" />
	</node>
	<node lat="60.09819166664494" lon="12.342477776707943" id="-25570">
		<tag k="name" v="Vesledamtjennet" />
		<tag k="natural" v="water" />
		<tag k="ssr:stedsnr" v="648751" />
	</node>
	<node lat="60.382072220410436" lon="12.30139999364938" id="-25573">
		<tag k="name" v="Langholmbekken" />
		<tag k="ssr:stedsnr" v="648463" />
		<tag k="waterway" v="stream" />
	</node>
	<node lat="60.153833330913" lon="12.324986104777986" id="-25580">
		<tag k="name" v="Kattesundet" />
		<tag k="natural" v="strait" />
		<tag k="ssr:stedsnr" v="661946" />
	</node>
	<node lat="60.19875833724734" lon="12.411586115419553" id="-25583">
		<tag k="name" v="Stormyrtjennet" />
		<tag k="natural" v="water" />
		<tag k="ssr:stedsnr" v="661148" />
	</node>
	<node lat="60.2040638880199" lon="12.426619439684522" id="-25584">
		<tag k="name" v="Ligolamp" />
		<tag k="natural" v="water" />
		<tag k="ssr:stedsnr" v="661154" />
	</node>
	<node lat="60.15584444671135" lon="12.38836944396015" id="-25601">
		<tag k="name" v="Possvika" />
		<tag k="natural" v="bay" />
		<tag k="ssr:stedsnr" v="662939" />
	</node>
	<node lat="60.187038885106574" lon="12.385991668219948" id="-25603">
		<tag k="name" v="Østre Sandvika" />
		<tag k="natural" v="bay" />
		<tag k="ssr:stedsnr" v="662948" />
	</node>
	<node lat="60.329027774977526" lon="12.135430549434547" id="-25608">
		<tag k="name" v="Nordre Rafjelltjennet" />
		<tag k="natural" v="water" />
		<tag k="ssr:stedsnr" v="664172" />
	</node>
	<node lat="60.28161944707207" lon="12.414091665221829" id="-25609">
		<tag k="name" v="Okseauget" />
		<tag k="natural" v="water" />
		<tag k="ssr:stedsnr" v="664319" />
	</node>
	<node lat="60.11865277593679" lon="12.041066658708372" id="-25611">
		<tag k="name" v="Tangen" />
		<tag k="natural" v="cape" />
		<tag k="ssr:stedsnr" v="664558" />
	</node>
	<node lat="60.2742944460839" lon="12.356950008802418" id="-25624">
		<tag k="name" v="Posalamp" />
		<tag k="natural" v="water" />
		<tag k="ssr:stedsnr" v="666919" />
	</node>
	<node lat="60.18906111207016" lon="12.443908334697158" id="-25627">
		<tag k="name" v="Brattfossen" />
		<tag k="natural" v="waterfall" />
		<tag k="ssr:stedsnr" v="722196" />
	</node>
	<node lat="60.16914999898713" lon="12.33226111312688" id="-25638">
		<tag k="name" v="Nordre Skreddartjennet" />
		<tag k="natural" v="water" />
		<tag k="ssr:stedsnr" v="722957" />
	</node>
	<node lat="60.166713892950206" lon="12.354930552649662" id="-25639">
		<tag k="name" v="Veavika" />
		<tag k="natural" v="bay" />
		<tag k="ssr:stedsnr" v="722962" />
	</node>
	<node lat="60.328969445507425" lon="12.000383332646736" id="-25652">
		<tag k="name" v="Brudalsbekken" />
		<tag k="ssr:stedsnr" v="724777" />
		<tag k="waterway" v="stream" />
	</node>
	<node lat="60.15472222184554" lon="12.175833329600136" id="-25660">
		<tag k="name" v="Pissutholmen" />
		<tag k="place" v="islet" />
		<tag k="ssr:stedsnr" v="725754" />
	</node>
	<node lat="60.16309444108949" lon="12.143019439772136" id="-25661">
		<tag k="name" v="Frauvikholmen" />
		<tag k="place" v="islet" />
		<tag k="ssr:stedsnr" v="725762" />
	</node>
	<node lat="60.230894441517925" lon="12.505633330503393" id="-25663">
		<tag k="name" v="Mosevannsbekken" />
		<tag k="ssr:stedsnr" v="726129" />
		<tag k="waterway" v="stream" />
	</node>
	<node lat="60.13479166329408" lon="12.505833333161567" id="-25666">
		<tag k="name" v="Paskalampi" />
		<tag k="natural" v="water" />
		<tag k="ssr:stedsnr" v="726249" />
	</node>
	<node lat="60.05946944735638" lon="12.353475006641295" id="-25675">
		<tag k="name" v="Ropartangen" />
		<tag k="natural" v="cape" />
		<tag k="ssr:stedsnr" v="727661" />
	</node>
	<node lat="60.05489444157927" lon="12.35544166678314" id="-25676">
		<tag k="name" v="Dortevika" />
		<tag k="natural" v="bay" />
		<tag k="ssr:stedsnr" v="727663" />
	</node>
	<node lat="60.046186108411526" lon="12.445388881662124" id="-25680">
		<tag k="name" v="Lystjenn" />
		<tag k="natural" v="water" />
		<tag k="ssr:stedsnr" v="733036" />
	</node>
	<node lat="60.02201181038132" lon="12.384242247086542" id="-25684">
		<tag k="alt_name" v="Utgårdsjøen" />
		<tag k="name" v="Utgardsjøen" />
		<tag k="natural" v="water" />
		<tag k="ssr:stedsnr" v="733061" />
		<tag k="water" v="lake" />
	</node>
	<node lat="60.180458334347584" lon="12.497008327017731" id="-25689">
		<tag k="name" v="Snustjennet" />
		<tag k="natural" v="water" />
		<tag k="ssr:stedsnr" v="733746" />
	</node>
	<node lat="60.194413891192966" lon="12.340083333630417" id="-25691">
		<tag k="name" v="Kverntjennet" />
		<tag k="natural" v="water" />
		<tag k="ssr:stedsnr" v="733761" />
	</node>
	<node lat="60.24717777821982" lon="12.267777777221728" id="-25694">
		<tag k="name" v="Fjellsjøen" />
		<tag k="natural" v="water" />
		<tag k="ssr:stedsnr" v="733829" />
		<tag k="water" v="lake" />
	</node>
	<node lat="60.13655000016281" lon="12.429799993445437" id="-25698">
		<tag k="name" v="Kappusholmen" />
		<tag k="place" v="islet" />
		<tag k="ssr:stedsnr" v="733927" />
	</node>
	<node lat="60.136524996396254" lon="12.397874993321098" id="-25702">
		<tag k="name" v="Kåtjennet" />
		<tag k="natural" v="water" />
		<tag k="ssr:stedsnr" v="733955" />
	</node>
	<node lat="60.28669722450893" lon="12.17507222813882" id="-25714">
		<tag k="alt_name" v="Åfloen, l" />
		<tag k="name" v="Vesle Åfloen" />
		<tag k="place" v="locality" />
		<tag k="ssr:stedsnr" v="734433" />
	</node>
	<node lat="60.1061250019267" lon="12.381049993403447" id="-25716">
		<tag k="name" v="Åbbortjenn" />
		<tag k="natural" v="water" />
		<tag k="ssr:stedsnr" v="734650" />
	</node>
	<node lat="60.2977583356751" lon="12.046041668681374" id="-25720">
		<tag k="name" v="Rya" />
		<tag k="ssr:stedsnr" v="734547" />
		<tag k="waterway" v="stream" />
	</node>
	<node lat="60.10411132728232" lon="11.910653570963651" id="-25721">
		<tag k="name" v="Svartbørja" />
		<tag k="natural" v="water" />
		<tag k="ssr:stedsnr" v="734574" />
		<tag k="water" v="lake" />
	</node>
	<node lat="60.21410555407136" lon="12.384261106384969" id="-25722">
		<tag k="name" v="Stampetjenn" />
		<tag k="natural" v="water" />
		<tag k="ssr:stedsnr" v="734798" />
	</node>
	<node lat="60.14625833191461" lon="12.469491673067225" id="-25724">
		<tag k="name" v="Nøkketjennet" />
		<tag k="natural" v="water" />
		<tag k="ssr:stedsnr" v="734961" />
	</node>
	<node lat="60.130880552210684" lon="12.310649990852067" id="-25725">
		<tag k="name" v="Åbbortjenn" />
		<tag k="natural" v="water" />
		<tag k="ssr:stedsnr" v="734973" />
	</node>
	<node lat="60.162316668913796" lon="11.934658331714688" id="-25727">
		<tag k="name" v="Gørtjennet" />
		<tag k="natural" v="water" />
		<tag k="ssr:stedsnr" v="751188" />
	</node>
	<node lat="60.31640000007014" lon="12.27284999553571" id="-25733">
		<tag k="name" v="Finnsætertjennet" />
		<tag k="natural" v="water" />
		<tag k="ssr:stedsnr" v="768669" />
	</node>
	<node lat="60.08432221917081" lon="11.945377781800653" id="-25740">
		<tag k="name" v="Furukollbekken" />
		<tag k="ssr:stedsnr" v="770694" />
		<tag k="waterway" v="stream" />
	</node>
	<node lat="60.39288888657778" lon="12.299080562995302" id="-25746">
		<tag k="name" v="Kuphaugen" />
		<tag k="place" v="islet" />
		<tag k="ssr:stedsnr" v="770391" />
	</node>
	<node lat="60.1087277776013" lon="11.938766666833365" id="-25749">
		<tag k="name" v="Dolpebekken" />
		<tag k="ssr:stedsnr" v="770705" />
		<tag k="waterway" v="stream" />
	</node>
	<node lat="60.36792222299036" lon="12.343466666084938" id="-25758">
		<tag k="name" v="Kvalosholmen" />
		<tag k="place" v="islet" />
		<tag k="ssr:stedsnr" v="783022" />
	</node>
	<node lat="60.361827774818295" lon="12.34082221458437" id="-25759">
		<tag k="name" v="Orrnabben" />
		<tag k="natural" v="cape" />
		<tag k="ssr:stedsnr" v="783025" />
	</node>
	<node lat="60.16153055915565" lon="12.462188891106505" id="-25762">
		<tag k="name" v="Otertjennet" />
		<tag k="natural" v="water" />
		<tag k="ssr:stedsnr" v="783168" />
	</node>
	<node lat="60.22701666816971" lon="12.210758333586156" id="-25764">
		<tag k="name" v="Erikstjennet" />
		<tag k="natural" v="water" />
		<tag k="ssr:stedsnr" v="783395" />
	</node>
	<node lat="60.133711111199105" lon="12.380063889880372" id="-25777">
		<tag k="name" v="Nordre Morttjennet" />
		<tag k="natural" v="water" />
		<tag k="ssr:stedsnr" v="785579" />
	</node>
	<node lat="60.23215555635711" lon="12.326186104144572" id="-25782">
		<tag k="name" v="Snekkertjennet" />
		<tag k="natural" v="water" />
		<tag k="ssr:stedsnr" v="785984" />
	</node>
	<node lat="60.31384166397786" lon="12.167961114253664" id="-25784">
		<tag k="name" v="Brattbergtjennet" />
		<tag k="natural" v="water" />
		<tag k="ssr:stedsnr" v="786188" />
	</node>
	<node lat="60.26144722497861" lon="12.440366660469694" id="-25786">
		<tag k="name" v="Kattjennet" />
		<tag k="natural" v="water" />
		<tag k="ssr:stedsnr" v="786333" />
	</node>
	<node lat="60.077438888313885" lon="12.393074997012386" id="-25798">
		<tag k="name" v="Nordre Åkroktjenn" />
		<tag k="natural" v="water" />
		<tag k="ssr:stedsnr" v="794053" />
	</node>
	<node lat="60.0816166664579" lon="12.284713881636193" id="-25801">
		<tag k="name" v="Raudmyrtjenn" />
		<tag k="natural" v="water" />
		<tag k="ssr:stedsnr" v="794064" />
	</node>
	<node lat="60.06809166212631" lon="12.31273055927944" id="-25804">
		<tag k="name" v="Oksauga" />
		<tag k="natural" v="water" />
		<tag k="ssr:stedsnr" v="794076" />
	</node>
	<node lat="60.372583332784004" lon="12.352077776614115" id="-25807">
		<tag k="name" v="Grånåsen" />
		<tag k="natural" v="cape" />
		<tag k="ssr:stedsnr" v="795094" />
	</node>
	<node lat="59.96208055592997" lon="12.17103055616128" id="-25808">
		<tag k="name" v="Vrangselva" />
		<tag k="ssr:stedsnr" v="794271" />
		<tag k="waterway" v="stream" />
	</node>
	<node lat="60.14487499665739" lon="11.926722224676142" id="-25809">
		<tag k="name" v="Lyssjøen" />
		<tag k="natural" v="water" />
		<tag k="ssr:stedsnr" v="794590" />
	</node>
	<node lat="60.13684999881556" lon="11.928638897087907" id="-25813">
		<tag k="name" v="Letjenn" />
		<tag k="natural" v="water" />
		<tag k="ssr:stedsnr" v="794536" />
	</node>
	<node lat="60.169077775327594" lon="12.33779999554084" id="-25818">
		<tag k="name" v="Fjørsundtangen" />
		<tag k="natural" v="cape" />
		<tag k="ssr:stedsnr" v="794752" />
	</node>
	<node lat="60.09786944510779" lon="12.359577784888977" id="-25820">
		<tag k="name" v="Igletjenn" />
		<tag k="natural" v="water" />
		<tag k="ssr:stedsnr" v="794890" />
	</node>
	<node lat="60.27519999862041" lon="12.309422219862595" id="-25824">
		<tag k="name" v="Svarttjennet" />
		<tag k="natural" v="water" />
		<tag k="ssr:stedsnr" v="795196" />
	</node>
	<node lat="60.2901353819542" lon="12.319102555591513" id="-25825">
		<tag k="name" v="Tullreien" />
		<tag k="natural" v="water" />
		<tag k="ssr:stedsnr" v="795200" />
		<tag k="water" v="lake" />
	</node>
	<node lat="60.341733335885465" lon="12.097808327251899" id="-25831">
		<tag k="name" v="Damtjennbekken" />
		<tag k="ssr:stedsnr" v="795338" />
		<tag k="waterway" v="stream" />
	</node>
	<node lat="60.45723889184774" lon="11.875408332019122" id="-25833">
		<tag k="name" v="Agnåa" />
		<tag k="ssr:stedsnr" v="795418" />
		<tag k="waterway" v="river" />
	</node>
	<node lat="60.277316663155425" lon="12.22120833266232" id="-25845">
		<tag k="name" v="Vålvika" />
		<tag k="natural" v="bay" />
		<tag k="ssr:stedsnr" v="828572" />
	</node>
	<node lat="60.3038055512104" lon="12.100866668146999" id="-25851">
		<tag k="name" v="Skårebekken" />
		<tag k="ssr:stedsnr" v="829242" />
		<tag k="waterway" v="stream" />
	</node>
	<node lat="60.115091662728815" lon="11.915313885601241" id="-25852">
		<tag k="name" v="Opptjennsbekken" />
		<tag k="ssr:stedsnr" v="829257" />
		<tag k="waterway" v="stream" />
	</node>
	<node lat="60.1816277754178" lon="12.531230558846778" id="-25859">
		<tag k="name" v="Særkilampsbekken" />
		<tag k="ssr:stedsnr" v="831192" />
		<tag k="waterway" v="stream" />
	</node>
	<node lat="60.368577782063376" lon="12.361227770497576" id="-25867">
		<tag k="name" v="Svarttjennet" />
		<tag k="natural" v="water" />
		<tag k="ssr:stedsnr" v="831461" />
	</node>
	<node lat="60.369636109886684" lon="12.350088896324714" id="-25869">
		<tag k="name" v="Sandvika" />
		<tag k="natural" v="bay" />
		<tag k="ssr:stedsnr" v="831468" />
	</node>
	<node lat="60.24433333421582" lon="12.232216674060329" id="-25870">
		<tag k="name" v="Homsjønebben" />
		<tag k="natural" v="cape" />
		<tag k="ssr:stedsnr" v="831470" />
	</node>
	<node lat="60.07680000422044" lon="12.277102780467002" id="-25873">
		<tag k="name" v="Gomyrtjennet" />
		<tag k="natural" v="water" />
		<tag k="ssr:stedsnr" v="831676" />
	</node>
	<node lat="60.119908330128055" lon="12.340461110507121" id="-25875">
		<tag k="name" v="Raudfjelldulpa" />
		<tag k="natural" v="water" />
		<tag k="ssr:stedsnr" v="889742" />
		<tag k="water" v="pond" />
	</node>
	<node lat="60.24310833343223" lon="12.108216672363058" id="-25884">
		<tag k="name" v="Lystadtjennet" />
		<tag k="natural" v="water" />
		<tag k="ssr:stedsnr" v="855044" />
	</node>
	<node lat="60.07533333366908" lon="12.382319452836516" id="-25890">
		<tag k="name" v="Hærsmyrtjenn" />
		<tag k="natural" v="water" />
		<tag k="ssr:stedsnr" v="855071" />
	</node>
	<node lat="60.161680553464926" lon="12.449363893262099" id="-25905">
		<tag k="name" v="Pekkaporro" />
		<tag k="ssr:stedsnr" v="844195" />
		<tag k="waterway" v="stream" />
	</node>
	<node lat="60.08910555442932" lon="12.322341666278364" id="-25915">
		<tag k="name" v="Sunda" />
		<tag k="natural" v="bay" />
		<tag k="ssr:stedsnr" v="844853" />
	</node>
	<node lat="60.15983888845438" lon="12.33591666690205" id="-25919">
		<tag k="name" v="Haratangen" />
		<tag k="natural" v="cape" />
		<tag k="ssr:stedsnr" v="844944" />
	</node>
	<node lat="60.167927781601776" lon="12.354936106963905" id="-25921">
		<tag k="name" v="Nisseølen" />
		<tag k="natural" v="shoal" />
		<tag k="place" v="locality" />
		<tag k="ssr:stedsnr" v="844953" />
	</node>
	<node lat="60.286438890621675" lon="12.229877786922408" id="-25922">
		<tag k="name" v="Nydammen" />
		<tag k="natural" v="bay" />
		<tag k="ssr:stedsnr" v="846698" />
	</node>
	<node lat="60.34160833505618" lon="12.060561102746936" id="-25925">
		<tag k="name" v="Hestbekken" />
		<tag k="ssr:stedsnr" v="846049" />
		<tag k="waterway" v="stream" />
	</node>
	<node lat="60.1034583320078" lon="12.006677770741774" id="-25930">
		<tag k="name" v="Svartbekken" />
		<tag k="ssr:stedsnr" v="846584" />
		<tag k="waterway" v="stream" />
	</node>
	<node lat="60.23043055540095" lon="12.315369452181676" id="-25932">
		<tag k="name" v="Bukketjennet" />
		<tag k="natural" v="water" />
		<tag k="ssr:stedsnr" v="846980" />
	</node>
	<node lat="60.29579999859461" lon="12.125736108973896" id="-25938">
		<tag k="name" v="Aseltjennsbekken" />
		<tag k="ssr:stedsnr" v="847256" />
		<tag k="waterway" v="stream" />
	</node>
	<node lat="60.26180277694609" lon="11.934866666863664" id="-25944">
		<tag k="name" v="Delbekken" />
		<tag k="ssr:stedsnr" v="847168" />
		<tag k="waterway" v="stream" />
	</node>
	<node lat="60.218358329815445" lon="12.447363885393948" id="-25948">
		<tag k="name" v="Løvskogholmen" />
		<tag k="place" v="islet" />
		<tag k="ssr:stedsnr" v="848144" />
	</node>
	<node lat="60.27565555823727" lon="11.957900008927679" id="-25949">
		<tag k="name" v="Sølvtjennbekken" />
		<tag k="ssr:stedsnr" v="848156" />
		<tag k="waterway" v="stream" />
	</node>
	<node lat="60.12738610964404" lon="12.486275007545641" id="-25950">
		<tag k="name" v="Bostakatjennet" />
		<tag k="natural" v="water" />
		<tag k="ssr:stedsnr" v="848239" />
	</node>
	<node lat="60.36904444303555" lon="12.355725004712413" id="-25961">
		<tag k="name" v="Stallviktjennet" />
		<tag k="natural" v="water" />
		<tag k="ssr:stedsnr" v="855194" />
	</node>
	<node lat="60.350963891402955" lon="11.931277784262942" id="-25964">
		<tag k="name" v="Geittjennet" />
		<tag k="natural" v="water" />
		<tag k="ssr:stedsnr" v="856302" />
	</node>
	<node lat="60.132050000472354" lon="12.091500006964624" id="-25966">
		<tag k="name" v="Stråtjennet" />
		<tag k="natural" v="water" />
		<tag k="ssr:stedsnr" v="855555" />
	</node>
	<node lat="60.092088885957274" lon="12.024691662381056" id="-25971">
		<tag k="name" v="Butjennet" />
		<tag k="natural" v="water" />
		<tag k="ssr:stedsnr" v="855749" />
	</node>
	<node lat="60.23927500072936" lon="12.323983325337272" id="-25975">
		<tag k="fixme" v="multiple name tags, choose one and add the other to alt_name" />
		<tag k="name" v="Leo;Einahodølpa" />
		<tag k="natural" v="water" />
		<tag k="ssr:stedsnr" v="855861" />
	</node>
	<node lat="60.13150277890774" lon="12.449494438634982" id="-25976">
		<tag k="name" v="Storholmen" />
		<tag k="place" v="islet" />
		<tag k="ssr:stedsnr" v="855951" />
	</node>
	<node lat="60.301052776076084" lon="11.946319449198386" id="-25984">
		<tag k="name" v="Gjeddetjennet" />
		<tag k="natural" v="water" />
		<tag k="ssr:stedsnr" v="856550" />
	</node>
	<node lat="60.15657500071976" lon="12.39138055375913" id="-25985">
		<tag k="name" v="Påssvikholmen" />
		<tag k="place" v="islet" />
		<tag k="ssr:stedsnr" v="855975" />
	</node>
	<node lat="60.1526194419769" lon="12.472308328031728" id="-25986">
		<tag k="name" v="Heimtjennet" />
		<tag k="natural" v="water" />
		<tag k="ssr:stedsnr" v="855978" />
	</node>
	<node lat="60.30515833715565" lon="12.369177783823188" id="-25988">
		<tag k="name" v="Karttjennet" />
		<tag k="natural" v="water" />
		<tag k="ssr:stedsnr" v="856153" />
	</node>
	<node lat="60.29776111084141" lon="12.264538893652604" id="-25989">
		<tag k="name" v="Lomtjennet" />
		<tag k="natural" v="water" />
		<tag k="ssr:stedsnr" v="856155" />
	</node>
	<node lat="60.29098055493327" lon="12.249472217866039" id="-25990">
		<tag k="name" v="Søndre Orrenabben" />
		<tag k="natural" v="cape" />
		<tag k="ssr:stedsnr" v="856156" />
	</node>
	<node lat="60.328452773531595" lon="12.210555548492609" id="-25996">
		<tag k="name" v="Auråa" />
		<tag k="old_name" v="Åuråa" />
		<tag k="ssr:stedsnr" v="856526" />
		<tag k="waterway" v="stream" />
	</node>
	<node lat="60.2551500023332" lon="12.417577771838838" id="-25997">
		<tag k="name" v="Kjerketjenna" />
		<tag k="natural" v="water" />
		<tag k="ssr:stedsnr" v="856877" />
		<tag k="water" v="lake" />
	</node>
	<node lat="60.271066669452836" lon="12.220569437658341" id="-26001">
		<tag k="name" v="Orrenabben" />
		<tag k="natural" v="cape" />
		<tag k="ssr:stedsnr" v="889543" />
	</node>
	<node lat="60.349908332068765" lon="11.952688897126631" id="-26004">
		<tag k="name" v="Geitåa" />
		<tag k="ssr:stedsnr" v="946370" />
		<tag k="waterway" v="river" />
	</node>
	<node lat="60.27922222110134" lon="12.189627770332779" id="-26010">
		<tag k="name" v="Smelloppholmen" />
		<tag k="place" v="islet" />
		<tag k="ssr:stedsnr" v="950552" />
	</node>
	<node lat="60.27147500399968" lon="12.203605550177103" id="-26011">
		<tag k="name" v="Sletthella" />
		<tag k="place" v="islet" />
		<tag k="ssr:stedsnr" v="950553" />
	</node>
	<node lat="60.24040555237564" lon="12.2660250028953" id="-26024">
		<tag k="name" v="Tronbølsvika" />
		<tag k="natural" v="bay" />
		<tag k="ssr:stedsnr" v="952469" />
	</node>
	<node lat="60.05955000408852" lon="12.458000002713833" id="-26034">
		<tag k="name" v="Vesle Svarttjennet" />
		<tag k="natural" v="water" />
		<tag k="ssr:stedsnr" v="965012" />
	</node>
	<node lat="60.1755222178789" lon="12.44056945086546" id="-26038">
		<tag k="name" v="Fløyta" />
		<tag k="natural" v="water" />
		<tag k="ssr:stedsnr" v="965151" />
	</node>
	<node lat="60.213247218837964" lon="12.451291666649311" id="-26044">
		<tag k="name" v="Kampholmen" />
		<tag k="place" v="islet" />
		<tag k="ssr:stedsnr" v="965162" />
	</node>
	<node lat="60.24510555840277" lon="12.46271111972847" id="-26049">
		<tag k="fixme" v="multiple name tags, choose one and add the other to alt_name" />
		<tag k="name" v="Kvernåa;Haraborro" />
		<tag k="ssr:stedsnr" v="965366" />
		<tag k="waterway" v="stream" />
	</node>
	<node lat="60.16442222633285" lon="12.361208329743816" id="-26062">
		<tag k="name" v="Dragalvika" />
		<tag k="natural" v="bay" />
		<tag k="ssr:stedsnr" v="965955" />
	</node>
	<node lat="60.177202780849385" lon="12.332711116889868" id="-26063">
		<tag k="name" v="Likholmen" />
		<tag k="place" v="islet" />
		<tag k="ssr:stedsnr" v="965958" />
	</node>
	<node lat="60.29503055688318" lon="12.162472214225435" id="-26070">
		<tag k="name" v="Grimskjølbekken" />
		<tag k="ssr:stedsnr" v="967171" />
		<tag k="waterway" v="stream" />
	</node>
	<node lat="60.227891666464025" lon="12.298475005371037" id="-26074">
		<tag k="name" v="Haretjennet" />
		<tag k="natural" v="water" />
		<tag k="ssr:stedsnr" v="967982" />
	</node>
	<node lat="60.33761666236633" lon="11.91185555805069" id="-26080">
		<tag k="name" v="Digerbekken" />
		<tag k="ssr:stedsnr" v="969557" />
		<tag k="waterway" v="stream" />
	</node>
	<node lat="60.019211115222966" lon="12.401027770837358" id="-26083">
		<tag k="name" v="Hunseneset" />
		<tag k="place" v="islet" />
		<tag k="ssr:stedsnr" v="969725" />
	</node>
	<node lat="60.345361108994595" lon="11.872236110644252" id="-26089">
		<tag k="name" v="Aurdulpbekken" />
		<tag k="ssr:stedsnr" v="969302" />
		<tag k="waterway" v="stream" />
	</node>
	<node lat="60.2973999989159" lon="12.439724999385406" id="-26090">
		<tag k="name" v="Elgetjennet" />
		<tag k="natural" v="water" />
		<tag k="ssr:stedsnr" v="969371" />
	</node>
	<node lat="60.13429413062763" lon="12.059302096143023" id="-26103">
		<tag k="name" v="Lierdammen" />
		<tag k="ssr:stedsnr" v="1072223" />
		<tag k="waterway" v="dam" />
	</node>
</osm>
