<?xml version="1.0" encoding="UTF-8"?>
<osm version="0.6" generator="osmapis">
	<node lat="60.02110000267732" lon="12.343724996084639" id="-13171">
		<tag k="name" v="Storfallhøgda" />
		<tag k="natural" v="hill" />
		<tag k="place" v="locality" />
		<tag k="ssr:stedsnr" v="5021" />
	</node>
	<node lat="60.11666111007102" lon="12.076180547911752" id="-13179">
		<tag k="name" v="Raudberget" />
		<tag k="natural" v="hill" />
		<tag k="place" v="locality" />
		<tag k="ssr:stedsnr" v="5483" />
	</node>
	<node lat="60.17163333599725" lon="12.238405564746127" id="-13192">
		<tag k="name" v="Lorttjennhøgda" />
		<tag k="natural" v="hill" />
		<tag k="place" v="locality" />
		<tag k="ssr:stedsnr" v="5755" />
	</node>
	<node lat="60.190350003917295" lon="12.40790000846621" id="-13193">
		<tag k="fixme" v="consider natural=peak for the most distinct mountains in the district" />
		<tag k="name" v="Storholtåsen" />
		<tag k="natural" v="hill" />
		<tag k="place" v="locality" />
		<tag k="ssr:stedsnr" v="5757" />
	</node>
	<node lat="60.3377361083004" lon="12.170369436985347" id="-13205">
		<tag k="name" v="Vestre Vassåsen" />
		<tag k="natural" v="hill" />
		<tag k="place" v="locality" />
		<tag k="ssr:stedsnr" v="6307" />
	</node>
	<node lat="60.34762500206326" lon="12.15252499304705" id="-13206">
		<tag k="name" v="Krokberget" />
		<tag k="natural" v="hill" />
		<tag k="place" v="locality" />
		<tag k="ssr:stedsnr" v="6327" />
	</node>
	<node lat="60.35191388832518" lon="12.12488610828319" id="-13208">
		<tag k="fixme" v="consider natural=peak for the most distinct mountains in the district" />
		<tag k="name" v="Grasåsen" />
		<tag k="natural" v="hill" />
		<tag k="place" v="locality" />
		<tag k="ssr:stedsnr" v="6263" />
	</node>
	<node lat="60.319538889324505" lon="12.18657777297938" id="-13210">
		<tag k="name" v="Brattfallet" />
		<tag k="natural" v="hill" />
		<tag k="place" v="locality" />
		<tag k="ssr:stedsnr" v="6485" />
	</node>
	<node lat="60.09040833163345" lon="11.94553055789006" id="-13211">
		<tag k="name" v="Åberget" />
		<tag k="natural" v="hill" />
		<tag k="place" v="locality" />
		<tag k="ssr:stedsnr" v="6733" />
	</node>
	<node lat="60.26098889255751" lon="12.400294441749098" id="-13213">
		<tag k="name" v="Raisberget" />
		<tag k="natural" v="hill" />
		<tag k="place" v="locality" />
		<tag k="ssr:stedsnr" v="6870" />
	</node>
	<node lat="60.20715555415395" lon="12.206302779857843" id="-13232">
		<tag k="fixme" v="consider natural=peak for the most distinct mountains in the district" />
		<tag k="name" v="Lystadberget" />
		<tag k="natural" v="hill" />
		<tag k="place" v="locality" />
		<tag k="ssr:stedsnr" v="237422" />
	</node>
	<node lat="60.32483055642372" lon="12.258036103115446" id="-13245">
		<tag k="name" v="Styggberget" />
		<tag k="natural" v="hill" />
		<tag k="place" v="locality" />
		<tag k="ssr:stedsnr" v="237651" />
	</node>
	<node lat="60.24633055714374" lon="11.96078610679861" id="-13263">
		<tag k="name" v="Brennberget" />
		<tag k="natural" v="hill" />
		<tag k="place" v="locality" />
		<tag k="ssr:stedsnr" v="239157" />
	</node>
	<node lat="60.2340416640825" lon="11.921819452208068" id="-13264">
		<tag k="name" v="Krokadalen" />
		<tag k="natural" v="valley" />
		<tag k="place" v="locality" />
		<tag k="ssr:stedsnr" v="239171" />
	</node>
	<node lat="60.17000555192657" lon="12.454805548548258" id="-13272">
		<tag k="fixme" v="consider natural=peak for the most distinct mountains in the district" />
		<tag k="name" v="Vatsuoberget" />
		<tag k="natural" v="hill" />
		<tag k="place" v="locality" />
		<tag k="ssr:stedsnr" v="55185" />
	</node>
	<node lat="60.324038884867335" lon="12.425766666242778" id="-13273">
		<tag k="name" v="Slæppen" />
		<tag k="natural" v="slope" />
		<tag k="place" v="locality" />
		<tag k="ssr:stedsnr" v="55186" />
	</node>
	<node lat="60.26162222017441" lon="12.467313883783069" id="-13275">
		<tag k="name" v="Låntahådalen" />
		<tag k="natural" v="valley" />
		<tag k="place" v="locality" />
		<tag k="ssr:stedsnr" v="55346" />
	</node>
	<node lat="60.12811666920737" lon="12.068922227709836" id="-13278">
		<tag k="fixme" v="consider natural=peak for the most distinct mountains in the district" />
		<tag k="name" v="Tollerudkollen" />
		<tag k="natural" v="hill" />
		<tag k="place" v="locality" />
		<tag k="ssr:stedsnr" v="239844" />
	</node>
	<node lat="60.20044444707553" lon="11.956694441440531" id="-13289">
		<tag k="name" v="Stømnerliene" />
		<tag k="natural" v="slope" />
		<tag k="place" v="locality" />
		<tag k="ssr:stedsnr" v="57724" />
	</node>
	<node lat="60.12942222394586" lon="12.356813881815496" id="-13294">
		<tag k="name" v="Djupdalen" />
		<tag k="natural" v="valley" />
		<tag k="place" v="locality" />
		<tag k="ssr:stedsnr" v="57781" />
	</node>
	<node lat="60.24666944673501" lon="11.944599996902502" id="-13298">
		<tag k="name" v="Skogerberget" />
		<tag k="natural" v="slope" />
		<tag k="place" v="locality" />
		<tag k="ssr:stedsnr" v="58172" />
	</node>
	<node lat="60.08335555209797" lon="12.279125004713787" id="-13303">
		<tag k="name" v="Østre Gråtjennberget" />
		<tag k="natural" v="hill" />
		<tag k="place" v="locality" />
		<tag k="ssr:stedsnr" v="59703" />
	</node>
	<node lat="60.26865278237586" lon="12.392927770075309" id="-13308">
		<tag k="name" v="Snøploga" />
		<tag k="place" v="locality" />
		<tag k="ssr:stedsnr" v="59911" />
	</node>
	<node lat="60.27025833180446" lon="12.341080562388571" id="-13309">
		<tag k="name" v="Brunhaugen" />
		<tag k="natural" v="hill" />
		<tag k="place" v="locality" />
		<tag k="ssr:stedsnr" v="59927" />
	</node>
	<node lat="60.12446111048179" lon="12.489561102500709" id="-13316">
		<tag k="fixme" v="consider natural=peak for the most distinct mountains in the district" />
		<tag k="name" v="Bostakaberget" />
		<tag k="natural" v="hill" />
		<tag k="place" v="locality" />
		<tag k="ssr:stedsnr" v="241203" />
	</node>
	<node lat="60.103550003288994" lon="12.430716670972576" id="-13318">
		<tag k="name" v="Strandsæterberget" />
		<tag k="natural" v="hill" />
		<tag k="place" v="locality" />
		<tag k="ssr:stedsnr" v="241244" />
	</node>
	<node lat="60.046000002033544" lon="12.314250000160328" id="-13321">
		<tag k="name" v="Krenkedalsberget" />
		<tag k="natural" v="hill" />
		<tag k="place" v="locality" />
		<tag k="ssr:stedsnr" v="66001" />
	</node>
	<node lat="60.266277781109835" lon="12.25029166260771" id="-13326">
		<tag k="name" v="Postmyrberget" />
		<tag k="natural" v="hill" />
		<tag k="place" v="locality" />
		<tag k="ssr:stedsnr" v="241522" />
	</node>
	<node lat="60.216244447258276" lon="12.18610555624636" id="-13330">
		<tag k="name" v="Lushaugen" />
		<tag k="natural" v="hill" />
		<tag k="place" v="locality" />
		<tag k="ssr:stedsnr" v="66100" />
	</node>
	<node lat="60.08796111333457" lon="12.337088897610341" id="-13344">
		<tag k="fixme" v="consider natural=peak for the most distinct mountains in the district" />
		<tag k="name" v="Åserudkollen" />
		<tag k="natural" v="hill" />
		<tag k="place" v="locality" />
		<tag k="ssr:stedsnr" v="66878" />
	</node>
	<node lat="60.103600000324725" lon="12.378350008638654" id="-13346">
		<tag k="fixme" v="consider natural=peak for the most distinct mountains in the district" />
		<tag k="name" v="Høgåsen" />
		<tag k="natural" v="hill" />
		<tag k="place" v="locality" />
		<tag k="ssr:stedsnr" v="66897" />
	</node>
	<node lat="60.35144999969042" lon="12.008038886773326" id="-13372">
		<tag k="fixme" v="consider natural=peak for the most distinct mountains in the district" />
		<tag k="name" v="Gruvåsen" />
		<tag k="natural" v="hill" />
		<tag k="place" v="locality" />
		<tag k="ssr:stedsnr" v="248250" />
	</node>
	<node lat="60.30346388879688" lon="12.290011116334465" id="-13376">
		<tag k="name" v="Katthauga" />
		<tag k="natural" v="hill" />
		<tag k="place" v="locality" />
		<tag k="ssr:stedsnr" v="100618" />
	</node>
	<node lat="60.34445000178635" lon="12.430430559234168" id="-13380">
		<tag k="name" v="Djupdalen" />
		<tag k="natural" v="valley" />
		<tag k="place" v="locality" />
		<tag k="ssr:stedsnr" v="101182" />
	</node>
	<node lat="60.34332221845247" lon="12.00939167311692" id="-13402">
		<tag k="fixme" v="consider natural=peak for the most distinct mountains in the district" />
		<tag k="name" v="Fossberget" />
		<tag k="natural" v="hill" />
		<tag k="place" v="locality" />
		<tag k="ssr:stedsnr" v="102807" />
	</node>
	<node lat="60.222286106998986" lon="12.329305557312756" id="-13409">
		<tag k="name" v="Tørrmyrøktaren" />
		<tag k="place" v="locality" />
		<tag k="ssr:stedsnr" v="102988" />
	</node>
	<node lat="60.233127774966455" lon="12.444705548608173" id="-13413">
		<tag k="fixme" v="consider natural=peak for the most distinct mountains in the district" />
		<tag k="name" v="Svarttjennsberget" />
		<tag k="natural" v="hill" />
		<tag k="place" v="locality" />
		<tag k="ssr:stedsnr" v="103376" />
	</node>
	<node lat="60.23017777867454" lon="12.255483341228183" id="-13414">
		<tag k="name" v="Trøsberget" />
		<tag k="natural" v="hill" />
		<tag k="place" v="locality" />
		<tag k="ssr:stedsnr" v="248837" />
	</node>
	<node lat="60.23160000083521" lon="12.363483329130203" id="-13415">
		<tag k="name" v="Fensjøberget" />
		<tag k="natural" v="hill" />
		<tag k="place" v="locality" />
		<tag k="ssr:stedsnr" v="248840" />
	</node>
	<node lat="60.328266667808954" lon="11.919627786520303" id="-13423">
		<tag k="name" v="Pisshella" />
		<tag k="natural" v="cliff" />
		<tag k="ssr:stedsnr" v="249293" />
	</node>
	<node lat="60.23252222512268" lon="12.19313333296581" id="-13424">
		<tag k="name" v="Myrersæterberget" />
		<tag k="natural" v="hill" />
		<tag k="place" v="locality" />
		<tag k="ssr:stedsnr" v="106077" />
	</node>
	<node lat="60.254674996109436" lon="11.984430553254962" id="-13433">
		<tag k="fixme" v="consider natural=peak for the most distinct mountains in the district" />
		<tag k="name" v="Lauvåsen" />
		<tag k="natural" v="hill" />
		<tag k="place" v="locality" />
		<tag k="ssr:stedsnr" v="249427" />
	</node>
	<node lat="60.305083333936714" lon="12.344647225968775" id="-13440">
		<tag k="name" v="Hvitmåsaskjæra" />
		<tag k="natural" v="hill" />
		<tag k="place" v="locality" />
		<tag k="ssr:stedsnr" v="116106" />
	</node>
	<node lat="60.37094166536557" lon="12.283352779498072" id="-13443">
		<tag k="name" v="Grevlinghiet" />
		<tag k="place" v="locality" />
		<tag k="ssr:stedsnr" v="116525" />
	</node>
	<node lat="60.291361107544596" lon="12.229077781203186" id="-13452">
		<tag k="name" v="Lushaugen" />
		<tag k="natural" v="hill" />
		<tag k="place" v="locality" />
		<tag k="ssr:stedsnr" v="118683" />
	</node>
	<node lat="60.287344441155334" lon="12.203527776546984" id="-13453">
		<tag k="name" v="Kakkneshøgda" />
		<tag k="natural" v="hill" />
		<tag k="place" v="locality" />
		<tag k="ssr:stedsnr" v="118691" />
	</node>
	<node lat="60.2376861094364" lon="12.39268055624689" id="-13457">
		<tag k="fixme" v="consider natural=peak for the most distinct mountains in the district" />
		<tag k="name" v="Rissoberget" />
		<tag k="natural" v="hill" />
		<tag k="place" v="locality" />
		<tag k="ssr:stedsnr" v="118972" />
	</node>
	<node lat="60.225755552267294" lon="12.396880546907315" id="-13458">
		<tag k="fixme" v="consider natural=peak for the most distinct mountains in the district" />
		<tag k="name" v="Nordbråtaberget" />
		<tag k="natural" v="hill" />
		<tag k="place" v="locality" />
		<tag k="ssr:stedsnr" v="118975" />
	</node>
	<node lat="60.24216388788292" lon="11.91796389711169" id="-13461">
		<tag k="name" v="Krakadalen" />
		<tag k="natural" v="valley" />
		<tag k="place" v="locality" />
		<tag k="ssr:stedsnr" v="119138" />
	</node>
	<node lat="60.265741667372566" lon="12.37086945132336" id="-13466">
		<tag k="name" v="Rembærskjæra" />
		<tag k="natural" v="hill" />
		<tag k="place" v="locality" />
		<tag k="ssr:stedsnr" v="120922" />
	</node>
	<node lat="60.210508337167006" lon="11.992627786747857" id="-13468">
		<tag k="name" v="Vardåsen" />
		<tag k="natural" v="hill" />
		<tag k="place" v="locality" />
		<tag k="ssr:stedsnr" v="126105" />
	</node>
	<node lat="60.069650000496274" lon="12.387900006274275" id="-13469">
		<tag k="fixme" v="consider natural=peak for the most distinct mountains in the district" />
		<tag k="name" v="Åkroken" />
		<tag k="natural" v="hill" />
		<tag k="place" v="locality" />
		<tag k="ssr:stedsnr" v="126106" />
	</node>
	<node lat="60.01049999674019" lon="12.388075006076976" id="-13498">
		<tag k="fixme" v="consider natural=peak for the most distinct mountains in the district" />
		<tag k="name" v="Tangeåsen" />
		<tag k="natural" v="hill" />
		<tag k="place" v="locality" />
		<tag k="ssr:stedsnr" v="127218" />
	</node>
	<node lat="60.263466666031476" lon="12.140261117445512" id="-13510">
		<tag k="name" v="Moaberget" />
		<tag k="natural" v="hill" />
		<tag k="place" v="locality" />
		<tag k="ssr:stedsnr" v="127457" />
	</node>
	<node lat="60.317761115414434" lon="12.14296388274636" id="-13512">
		<tag k="name" v="Vesle Rafjellet" />
		<tag k="natural" v="hill" />
		<tag k="place" v="locality" />
		<tag k="ssr:stedsnr" v="127499" />
	</node>
	<node lat="60.184247221878366" lon="12.146130563923538" id="-13515">
		<tag k="name" v="Verkasoåsen" />
		<tag k="natural" v="hill" />
		<tag k="place" v="locality" />
		<tag k="ssr:stedsnr" v="127639" />
	</node>
	<node lat="60.277230553612405" lon="11.974927773688593" id="-13519">
		<tag k="name" v="Spelmannsberget" />
		<tag k="natural" v="hill" />
		<tag k="place" v="locality" />
		<tag k="ssr:stedsnr" v="127518" />
	</node>
	<node lat="60.25461111163029" lon="12.217802769098263" id="-13533">
		<tag k="name" v="Krakadalsberget" />
		<tag k="natural" v="hill" />
		<tag k="place" v="locality" />
		<tag k="ssr:stedsnr" v="163407" />
	</node>
	<node lat="60.258236115189575" lon="12.251505555341573" id="-13534">
		<tag k="name" v="Styggdalen" />
		<tag k="natural" v="valley" />
		<tag k="place" v="locality" />
		<tag k="ssr:stedsnr" v="163411" />
	</node>
	<node lat="60.20346111083295" lon="12.51695833268259" id="-13543">
		<tag k="fixme" v="consider natural=peak for the most distinct mountains in the district" />
		<tag k="name" v="Særkilampsberget" />
		<tag k="natural" v="hill" />
		<tag k="place" v="locality" />
		<tag k="ssr:stedsnr" v="176159" />
	</node>
	<node lat="60.170249999249" lon="12.039144441311437" id="-13546">
		<tag k="name" v="Djupdalen" />
		<tag k="natural" v="valley" />
		<tag k="place" v="locality" />
		<tag k="ssr:stedsnr" v="176604" />
	</node>
	<node lat="60.028463893042314" lon="12.355866659513708" id="-13547">
		<tag k="name" v="Gruvberget" />
		<tag k="natural" v="hill" />
		<tag k="place" v="locality" />
		<tag k="ssr:stedsnr" v="176621" />
	</node>
	<node lat="60.293636107498976" lon="12.331013884331016" id="-13552">
		<tag k="name" v="Filifrostberget" />
		<tag k="natural" v="hill" />
		<tag k="place" v="locality" />
		<tag k="ssr:stedsnr" v="176918" />
	</node>
	<node lat="60.26275555597734" lon="12.46477777446351" id="-13562">
		<tag k="name" v="Ballogask" />
		<tag k="natural" v="hill" />
		<tag k="place" v="locality" />
		<tag k="ssr:stedsnr" v="179341" />
	</node>
	<node lat="60.3030888878961" lon="12.3736972147975" id="-13564">
		<tag k="name" v="Karttjennsbakken" />
		<tag k="natural" v="slope" />
		<tag k="place" v="locality" />
		<tag k="ssr:stedsnr" v="180103" />
	</node>
	<node lat="60.25093055835838" lon="11.928055552891" id="-13579">
		<tag k="name" v="Steinbitberget" />
		<tag k="natural" v="hill" />
		<tag k="place" v="locality" />
		<tag k="ssr:stedsnr" v="187026" />
	</node>
	<node lat="60.08932500029653" lon="12.436949994155574" id="-13580">
		<tag k="name" v="Tålloberget" />
		<tag k="natural" v="hill" />
		<tag k="place" v="locality" />
		<tag k="ssr:stedsnr" v="187072" />
	</node>
	<node lat="60.24773055700084" lon="12.338500006941501" id="-13588">
		<tag k="name" v="Styggberget" />
		<tag k="natural" v="hill" />
		<tag k="place" v="locality" />
		<tag k="ssr:stedsnr" v="187828" />
	</node>
	<node lat="60.22726110796947" lon="12.3918444474686" id="-13593">
		<tag k="name" v="Nollaberget" />
		<tag k="natural" v="hill" />
		<tag k="place" v="locality" />
		<tag k="ssr:stedsnr" v="187789" />
	</node>
	<node lat="60.10512500005567" lon="12.398299994968083" id="-13595">
		<tag k="name" v="Heimvangberget" />
		<tag k="natural" v="hill" />
		<tag k="place" v="locality" />
		<tag k="ssr:stedsnr" v="187906" />
	</node>
	<node lat="60.29200555830254" lon="12.356849994871418" id="-13602">
		<tag k="name" v="Olderbrudalen" />
		<tag k="natural" v="valley" />
		<tag k="place" v="locality" />
		<tag k="ssr:stedsnr" v="188169" />
	</node>
	<node lat="60.32900555319643" lon="12.046327776322327" id="-13604">
		<tag k="name" v="Bråteberget" />
		<tag k="natural" v="hill" />
		<tag k="place" v="locality" />
		<tag k="ssr:stedsnr" v="188306" />
	</node>
	<node lat="60.33957777851521" lon="12.124919448829006" id="-13607">
		<tag k="name" v="Liaberget" />
		<tag k="natural" v="hill" />
		<tag k="place" v="locality" />
		<tag k="ssr:stedsnr" v="188323" />
	</node>
	<node lat="60.31278055363208" lon="12.119277779829176" id="-13612">
		<tag k="name" v="Persberget" />
		<tag k="natural" v="hill" />
		<tag k="place" v="locality" />
		<tag k="ssr:stedsnr" v="188489" />
	</node>
	<node lat="60.18466666993074" lon="11.944502770323949" id="-13616">
		<tag k="fixme" v="consider natural=peak for the most distinct mountains in the district" />
		<tag k="name" v="Marikollen" />
		<tag k="natural" v="hill" />
		<tag k="place" v="locality" />
		<tag k="ssr:stedsnr" v="188644" />
	</node>
	<node lat="60.146719441420075" lon="12.06834165873063" id="-13629">
		<tag k="name" v="Dypdalen" />
		<tag k="natural" v="valley" />
		<tag k="place" v="locality" />
		<tag k="ssr:stedsnr" v="222778" />
	</node>
	<node lat="60.00134166222673" lon="12.344405560332325" id="-13632">
		<tag k="name" v="Helne" />
		<tag k="natural" v="slope" />
		<tag k="place" v="locality" />
		<tag k="ssr:stedsnr" v="224703" />
	</node>
	<node lat="60.07092777871858" lon="12.267105559635633" id="-13635">
		<tag k="fixme" v="consider natural=peak for the most distinct mountains in the district" />
		<tag k="name" v="Merraberget" />
		<tag k="natural" v="hill" />
		<tag k="place" v="locality" />
		<tag k="ssr:stedsnr" v="224701" />
	</node>
	<node lat="60.102494442421865" lon="12.362247222738151" id="-13637">
		<tag k="name" v="Barkåsen" />
		<tag k="natural" v="hill" />
		<tag k="place" v="locality" />
		<tag k="ssr:stedsnr" v="224837" />
	</node>
	<node lat="60.271005557742825" lon="12.072280548948353" id="-13654">
		<tag k="name" v="Hansbråtadalen" />
		<tag k="natural" v="valley" />
		<tag k="place" v="locality" />
		<tag k="ssr:stedsnr" v="239132" />
	</node>
	<node lat="60.136808333321774" lon="12.037500002649367" id="-13656">
		<tag k="fixme" v="consider natural=peak for the most distinct mountains in the district" />
		<tag k="name" v="Åsberghøgda" />
		<tag k="natural" v="hill" />
		<tag k="place" v="locality" />
		<tag k="ssr:stedsnr" v="239602" />
	</node>
	<node lat="60.27222500302439" lon="11.931802775073779" id="-13661">
		<tag k="name" v="Lysenvegen" />
		<tag k="natural" v="valley" />
		<tag k="place" v="locality" />
		<tag k="ssr:stedsnr" v="240251" />
	</node>
	<node lat="60.319430551334534" lon="12.043594442694273" id="-13667">
		<tag k="fixme" v="consider natural=peak for the most distinct mountains in the district" />
		<tag k="name" v="Skråkkarberget" />
		<tag k="natural" v="hill" />
		<tag k="place" v="locality" />
		<tag k="ssr:stedsnr" v="241981" />
	</node>
	<node lat="60.07684999980378" lon="12.262225004690464" id="-13672">
		<tag k="name" v="Liahøgda" />
		<tag k="natural" v="hill" />
		<tag k="place" v="locality" />
		<tag k="ssr:stedsnr" v="248064" />
	</node>
	<node lat="60.345808336545126" lon="12.422786110517245" id="-13677">
		<tag k="name" v="Barskjulberget" />
		<tag k="natural" v="hill" />
		<tag k="place" v="locality" />
		<tag k="ssr:stedsnr" v="248223" />
	</node>
	<node lat="60.07307499795367" lon="12.427775002994816" id="-13679">
		<tag k="name" v="Aurliberget" />
		<tag k="natural" v="hill" />
		<tag k="place" v="locality" />
		<tag k="ssr:stedsnr" v="248105" />
	</node>
	<node lat="60.25854444546079" lon="12.273177785195974" id="-13680">
		<tag k="name" v="Kuberget" />
		<tag k="natural" v="hill" />
		<tag k="place" v="locality" />
		<tag k="ssr:stedsnr" v="248170" />
	</node>
	<node lat="60.09126388824972" lon="12.371561118182555" id="-13695">
		<tag k="name" v="Risberget" />
		<tag k="natural" v="hill" />
		<tag k="place" v="locality" />
		<tag k="ssr:stedsnr" v="248917" />
	</node>
	<node lat="60.32366110793501" lon="12.34488055702217" id="-13700">
		<tag k="alt_name" v="Dreiergrasberget" />
		<tag k="name" v="Grasberget" />
		<tag k="natural" v="hill" />
		<tag k="place" v="locality" />
		<tag k="ssr:stedsnr" v="249218" />
	</node>
	<node lat="60.14638333352922" lon="12.389597225457688" id="-13707">
		<tag k="name" v="Smalmyrberget" />
		<tag k="natural" v="hill" />
		<tag k="place" v="locality" />
		<tag k="ssr:stedsnr" v="282778" />
	</node>
	<node lat="60.31985555235364" lon="12.314972223695339" id="-13715">
		<tag k="name" v="Dulpberget" />
		<tag k="natural" v="hill" />
		<tag k="place" v="locality" />
		<tag k="ssr:stedsnr" v="285104" />
	</node>
	<node lat="60.30614444441991" lon="12.339716675363688" id="-13722">
		<tag k="name" v="Maurhaugen" />
		<tag k="natural" v="hill" />
		<tag k="place" v="locality" />
		<tag k="ssr:stedsnr" v="298110" />
	</node>
	<node lat="60.16870278153248" lon="12.227863892428932" id="-13726">
		<tag k="fixme" v="consider natural=peak for the most distinct mountains in the district" />
		<tag k="name" v="Knartberget" />
		<tag k="natural" v="hill" />
		<tag k="place" v="locality" />
		<tag k="ssr:stedsnr" v="298086" />
	</node>
	<node lat="60.18156388648699" lon="12.238269436201833" id="-13727">
		<tag k="name" v="Peisbakberget" />
		<tag k="natural" v="hill" />
		<tag k="place" v="locality" />
		<tag k="ssr:stedsnr" v="298092" />
	</node>
	<node lat="60.30697222143649" lon="11.936883336665725" id="-13731">
		<tag k="name" v="Koiemyrberget" />
		<tag k="natural" v="hill" />
		<tag k="place" v="locality" />
		<tag k="ssr:stedsnr" v="298527" />
	</node>
	<node lat="60.23095833477557" lon="12.003619451723146" id="-13733">
		<tag k="name" v="Høgfjellet" />
		<tag k="natural" v="hill" />
		<tag k="place" v="locality" />
		<tag k="ssr:stedsnr" v="298897" />
	</node>
	<node lat="60.27361944191416" lon="12.304630562210688" id="-13735">
		<tag k="name" v="Tusseskjæra" />
		<tag k="natural" v="hill" />
		<tag k="place" v="locality" />
		<tag k="ssr:stedsnr" v="298907" />
	</node>
	<node lat="60.15510277927817" lon="12.359380557871381" id="-13737">
		<tag k="name" v="Pengedråga" />
		<tag k="natural" v="valley" />
		<tag k="place" v="locality" />
		<tag k="ssr:stedsnr" v="298932" />
	</node>
	<node lat="60.29608611230598" lon="12.174611104749182" id="-13742">
		<tag k="fixme" v="consider natural=peak for the most distinct mountains in the district" />
		<tag k="name" v="Slettkjølberget" />
		<tag k="natural" v="hill" />
		<tag k="place" v="locality" />
		<tag k="ssr:stedsnr" v="300224" />
	</node>
	<node lat="60.16496110985718" lon="12.136527784788662" id="-13747">
		<tag k="fixme" v="consider natural=peak for the most distinct mountains in the district" />
		<tag k="name" v="Frauvikberget" />
		<tag k="natural" v="hill" />
		<tag k="place" v="locality" />
		<tag k="ssr:stedsnr" v="300794" />
	</node>
	<node lat="60.172674999679444" lon="12.289124996893898" id="-13767">
		<tag k="name" v="Nygardssæterberget" />
		<tag k="natural" v="hill" />
		<tag k="place" v="locality" />
		<tag k="ssr:stedsnr" v="308743" />
	</node>
	<node lat="60.18012499619553" lon="12.480225003513674" id="-13768">
		<tag k="name" v="Taursåberget" />
		<tag k="natural" v="hill" />
		<tag k="place" v="locality" />
		<tag k="ssr:stedsnr" v="308750" />
	</node>
	<node lat="60.2309027798237" lon="12.461650005448645" id="-13792">
		<tag k="fixme" v="consider natural=peak for the most distinct mountains in the district" />
		<tag k="name" v="Bolnesberget" />
		<tag k="natural" v="hill" />
		<tag k="place" v="locality" />
		<tag k="ssr:stedsnr" v="309811" />
	</node>
	<node lat="60.257263890569924" lon="12.13988611736033" id="-13803">
		<tag k="name" v="Hestberget" />
		<tag k="natural" v="hill" />
		<tag k="place" v="locality" />
		<tag k="ssr:stedsnr" v="466134" />
	</node>
	<node lat="60.355955552527966" lon="12.418483329150247" id="-13804">
		<tag k="fixme" v="consider natural=peak for the most distinct mountains in the district" />
		<tag k="name" v="Sæterberget" />
		<tag k="natural" v="hill" />
		<tag k="place" v="locality" />
		<tag k="ssr:stedsnr" v="466140" />
	</node>
	<node lat="60.257097226018516" lon="12.236980561463277" id="-13810">
		<tag k="name" v="Ryaberget" />
		<tag k="natural" v="hill" />
		<tag k="place" v="locality" />
		<tag k="ssr:stedsnr" v="466466" />
	</node>
	<node lat="60.0030361123453" lon="12.345150005215944" id="-13815">
		<tag k="fixme" v="consider natural=peak for the most distinct mountains in the district" />
		<tag k="name" v="Sæteråsen" />
		<tag k="natural" v="hill" />
		<tag k="place" v="locality" />
		<tag k="ssr:stedsnr" v="466755" />
	</node>
	<node lat="60.26371111514399" lon="11.997397218791386" id="-13818">
		<tag k="name" v="Merkebråtedalen" />
		<tag k="natural" v="valley" />
		<tag k="place" v="locality" />
		<tag k="ssr:stedsnr" v="466986" />
	</node>
	<node lat="60.31719444530473" lon="12.211066673353024" id="-13839">
		<tag k="name" v="Skåltjennshaugen" />
		<tag k="natural" v="hill" />
		<tag k="place" v="locality" />
		<tag k="ssr:stedsnr" v="345609" />
	</node>
	<node lat="60.33114999605033" lon="12.044294449473032" id="-13844">
		<tag k="fixme" v="consider natural=peak for the most distinct mountains in the district" />
		<tag k="name" v="Stollsnorberget" />
		<tag k="natural" v="hill" />
		<tag k="place" v="locality" />
		<tag k="ssr:stedsnr" v="345758" />
	</node>
	<node lat="60.16228055837791" lon="12.182580559994603" id="-13851">
		<tag k="fixme" v="consider natural=peak for the most distinct mountains in the district" />
		<tag k="name" v="Tekstebakkåsen" />
		<tag k="natural" v="hill" />
		<tag k="place" v="locality" />
		<tag k="ssr:stedsnr" v="358101" />
	</node>
	<node lat="60.27798333625083" lon="12.132497221298062" id="-13853">
		<tag k="name" v="Magnhildhaugen" />
		<tag k="natural" v="hill" />
		<tag k="place" v="locality" />
		<tag k="ssr:stedsnr" v="358147" />
	</node>
	<node lat="60.269463890249654" lon="12.005258324637973" id="-13860">
		<tag k="name" v="Kleiva" />
		<tag k="natural" v="hill" />
		<tag k="place" v="locality" />
		<tag k="ssr:stedsnr" v="358924" />
	</node>
	<node lat="60.14732499877875" lon="12.15412500799591" id="-13878">
		<tag k="alt_name" v="Hellerudhøgda" />
		<tag k="name" v="Hellerudhaug" />
		<tag k="natural" v="hill" />
		<tag k="place" v="locality" />
		<tag k="ssr:stedsnr" v="369528" />
	</node>
	<node lat="60.13886666704609" lon="12.200533333795393" id="-13879">
		<tag k="name" v="Rælinghøgda" />
		<tag k="natural" v="hill" />
		<tag k="place" v="locality" />
		<tag k="ssr:stedsnr" v="369473" />
	</node>
	<node lat="60.18968611219717" lon="12.510675001498258" id="-13883">
		<tag k="name" v="Smaltjennsberget" />
		<tag k="natural" v="hill" />
		<tag k="place" v="locality" />
		<tag k="ssr:stedsnr" v="479192" />
	</node>
	<node lat="60.18073333488206" lon="12.261258342113287" id="-13884">
		<tag k="alt_name" v="Vastadberget" />
		<tag k="name" v="Vastaberget" />
		<tag k="natural" v="hill" />
		<tag k="place" v="locality" />
		<tag k="ssr:stedsnr" v="369763" />
	</node>
	<node lat="60.23445000241243" lon="11.964280550946087" id="-13890">
		<tag k="fixme" v="consider natural=peak for the most distinct mountains in the district" />
		<tag k="name" v="Bogersjøåsen" />
		<tag k="natural" v="hill" />
		<tag k="place" v="locality" />
		<tag k="ssr:stedsnr" v="370018" />
	</node>
	<node lat="60.32583055510523" lon="12.323974993163562" id="-13900">
		<tag k="name" v="Snauberget" />
		<tag k="natural" v="hill" />
		<tag k="place" v="locality" />
		<tag k="ssr:stedsnr" v="370286" />
	</node>
	<node lat="60.25262500347831" lon="12.11718333997932" id="-13903">
		<tag k="name" v="Mellomberget" />
		<tag k="natural" v="hill" />
		<tag k="place" v="locality" />
		<tag k="ssr:stedsnr" v="370463" />
	</node>
	<node lat="60.30570000252106" lon="11.924916674496737" id="-13907">
		<tag k="name" v="Ringshella" />
		<tag k="natural" v="hill" />
		<tag k="place" v="locality" />
		<tag k="ssr:stedsnr" v="370502" />
	</node>
	<node lat="60.271536111936676" lon="12.326500001913047" id="-13911">
		<tag k="name" v="Lettgangas" />
		<tag k="natural" v="hill" />
		<tag k="place" v="locality" />
		<tag k="ssr:stedsnr" v="479938" />
	</node>
	<node lat="60.16551944206008" lon="12.194113881726848" id="-13914">
		<tag k="fixme" v="consider natural=peak for the most distinct mountains in the district" />
		<tag k="name" v="Skolehusberget" />
		<tag k="natural" v="hill" />
		<tag k="place" v="locality" />
		<tag k="ssr:stedsnr" v="480082" />
	</node>
	<node lat="60.27094722500378" lon="12.453258341269837" id="-13939">
		<tag k="fixme" v="consider natural=peak for the most distinct mountains in the district" />
		<tag k="name" v="Kivahå" />
		<tag k="natural" v="hill" />
		<tag k="place" v="locality" />
		<tag k="ssr:stedsnr" v="483430" />
	</node>
	<node lat="60.1300166647769" lon="12.301144449047204" id="-13945">
		<tag k="name" v="Nissefatberget" />
		<tag k="natural" v="hill" />
		<tag k="place" v="locality" />
		<tag k="ssr:stedsnr" v="403770" />
	</node>
	<node lat="60.13554166972666" lon="12.380208332974458" id="-13946">
		<tag k="name" v="Morttjennenga" />
		<tag k="natural" v="slope" />
		<tag k="place" v="locality" />
		<tag k="ssr:stedsnr" v="403800" />
	</node>
	<node lat="60.33299444566572" lon="12.407877777505812" id="-13949">
		<tag k="name" v="Rundhaugen" />
		<tag k="natural" v="hill" />
		<tag k="place" v="locality" />
		<tag k="ssr:stedsnr" v="404202" />
	</node>
	<node lat="60.37398611434824" lon="12.297841663558389" id="-13956">
		<tag k="name" v="Lisbetbrenna" />
		<tag k="natural" v="slope" />
		<tag k="place" v="locality" />
		<tag k="ssr:stedsnr" v="406497" />
	</node>
	<node lat="60.24011666618783" lon="12.215700001485247" id="-13958">
		<tag k="fixme" v="consider natural=peak for the most distinct mountains in the district" />
		<tag k="name" v="Slipsteindalsberget" />
		<tag k="natural" v="hill" />
		<tag k="place" v="locality" />
		<tag k="ssr:stedsnr" v="406505" />
	</node>
	<node lat="60.19446944172168" lon="12.255227778649948" id="-13964">
		<tag k="name" v="Jupet" />
		<tag k="natural" v="slope" />
		<tag k="place" v="locality" />
		<tag k="ssr:stedsnr" v="419405" />
	</node>
	<node lat="60.22578055330334" lon="12.191219442706863" id="-13965">
		<tag k="fixme" v="consider natural=peak for the most distinct mountains in the district" />
		<tag k="name" v="Glomberget" />
		<tag k="natural" v="hill" />
		<tag k="place" v="locality" />
		<tag k="ssr:stedsnr" v="419395" />
	</node>
	<node lat="60.37885832983969" lon="12.28113055110339" id="-13966">
		<tag k="name" v="Skasdamberget" />
		<tag k="natural" v="hill" />
		<tag k="place" v="locality" />
		<tag k="ssr:stedsnr" v="419508" />
	</node>
	<node lat="60.17406388887383" lon="12.149597222191487" id="-13968">
		<tag k="fixme" v="consider natural=peak for the most distinct mountains in the district" />
		<tag k="name" v="Brakalsåsen" />
		<tag k="natural" v="hill" />
		<tag k="place" v="locality" />
		<tag k="ssr:stedsnr" v="419834" />
	</node>
	<node lat="60.236813884372225" lon="12.003727784706996" id="-13973">
		<tag k="name" v="Engaberget" />
		<tag k="natural" v="hill" />
		<tag k="place" v="locality" />
		<tag k="ssr:stedsnr" v="419941" />
	</node>
	<node lat="60.14191110707567" lon="11.982938882656743" id="-13977">
		<tag k="name" v="Fløytlia" />
		<tag k="natural" v="slope" />
		<tag k="place" v="locality" />
		<tag k="ssr:stedsnr" v="421603" />
	</node>
	<node lat="60.15689166605771" lon="12.073569440899176" id="-13982">
		<tag k="name" v="Varddalen" />
		<tag k="natural" v="valley" />
		<tag k="place" v="locality" />
		<tag k="ssr:stedsnr" v="422854" />
	</node>
	<node lat="60.29862500022152" lon="12.354986105204377" id="-13985">
		<tag k="name" v="Fallet" />
		<tag k="natural" v="slope" />
		<tag k="place" v="locality" />
		<tag k="ssr:stedsnr" v="423097" />
	</node>
	<node lat="60.03647499603822" lon="12.327383335859512" id="-13992">
		<tag k="name" v="Kaldbråtahøgda" />
		<tag k="natural" v="hill" />
		<tag k="place" v="locality" />
		<tag k="ssr:stedsnr" v="490026" />
	</node>
	<node lat="60.158136113642705" lon="12.195155556009185" id="-14001">
		<tag k="fixme" v="consider natural=peak for the most distinct mountains in the district" />
		<tag k="name" v="Bukkåsen" />
		<tag k="natural" v="hill" />
		<tag k="place" v="locality" />
		<tag k="ssr:stedsnr" v="490569" />
	</node>
	<node lat="60.2331388864495" lon="12.200047230501662" id="-14017">
		<tag k="fixme" v="consider natural=peak for the most distinct mountains in the district" />
		<tag k="name" v="Tørrgransletta" />
		<tag k="natural" v="hill" />
		<tag k="place" v="locality" />
		<tag k="ssr:stedsnr" v="430010" />
	</node>
	<node lat="60.22600555255139" lon="12.066911118149724" id="-14020">
		<tag k="fixme" v="consider natural=peak for the most distinct mountains in the district" />
		<tag k="name" v="Fageråsen" />
		<tag k="natural" v="hill" />
		<tag k="place" v="locality" />
		<tag k="ssr:stedsnr" v="430017" />
	</node>
	<node lat="60.0141000019388" lon="12.338924992428906" id="-14035">
		<tag k="fixme" v="consider natural=peak for the most distinct mountains in the district" />
		<tag k="name" v="Lannalåsen" />
		<tag k="natural" v="hill" />
		<tag k="place" v="locality" />
		<tag k="ssr:stedsnr" v="491052" />
	</node>
	<node lat="60.3216055518339" lon="12.377958324076186" id="-14049">
		<tag k="name" v="Hannakaberget" />
		<tag k="natural" v="hill" />
		<tag k="place" v="locality" />
		<tag k="ssr:stedsnr" v="431261" />
	</node>
	<node lat="60.323136110728285" lon="11.90263334093043" id="-14052">
		<tag k="name" v="Breihøgda" />
		<tag k="natural" v="hill" />
		<tag k="place" v="locality" />
		<tag k="ssr:stedsnr" v="431316" />
	</node>
	<node lat="60.26750555696254" lon="11.958238888454861" id="-14064">
		<tag k="name" v="Lysberget" />
		<tag k="natural" v="hill" />
		<tag k="place" v="locality" />
		<tag k="ssr:stedsnr" v="491419" />
	</node>
	<node lat="60.18642500090672" lon="12.499355551632666" id="-14066">
		<tag k="name" v="Taroberget" />
		<tag k="natural" v="hill" />
		<tag k="place" v="locality" />
		<tag k="ssr:stedsnr" v="432532" />
	</node>
	<node lat="60.21377499890398" lon="12.301477780354293" id="-14072">
		<tag k="fixme" v="consider natural=peak for the most distinct mountains in the district" />
		<tag k="name" v="Orremyråsen" />
		<tag k="natural" v="hill" />
		<tag k="place" v="locality" />
		<tag k="ssr:stedsnr" v="491792" />
	</node>
	<node lat="60.37107777402279" lon="12.051855561372632" id="-14085">
		<tag k="name" v="Brattåsberget" />
		<tag k="natural" v="hill" />
		<tag k="place" v="locality" />
		<tag k="ssr:stedsnr" v="492339" />
	</node>
	<node lat="60.16306111495988" lon="12.095474991443893" id="-14090">
		<tag k="alt_name" v="Kalpetterhøgda" />
		<tag k="name" v="Kalpetterhaugen" />
		<tag k="natural" v="hill" />
		<tag k="place" v="locality" />
		<tag k="ssr:stedsnr" v="672536" />
	</node>
	<node lat="60.16710833086429" lon="12.208552770832325" id="-14091">
		<tag k="name" v="Veslevassberget" />
		<tag k="natural" v="hill" />
		<tag k="place" v="locality" />
		<tag k="ssr:stedsnr" v="672539" />
	</node>
	<node lat="60.04515833138737" lon="12.424858330696274" id="-14096">
		<tag k="fixme" v="consider natural=peak for the most distinct mountains in the district" />
		<tag k="name" v="Lauvkjølhøgda" />
		<tag k="natural" v="hill" />
		<tag k="place" v="locality" />
		<tag k="ssr:stedsnr" v="673028" />
	</node>
	<node lat="60.356655558156305" lon="12.303750009090074" id="-14116">
		<tag k="name" v="Gravsjøberget" />
		<tag k="natural" v="hill" />
		<tag k="place" v="locality" />
		<tag k="ssr:stedsnr" v="673242" />
	</node>
	<node lat="60.25198611309922" lon="12.206850008149507" id="-14129">
		<tag k="name" v="Galtryggen" />
		<tag k="natural" v="hill" />
		<tag k="place" v="locality" />
		<tag k="ssr:stedsnr" v="673426" />
	</node>
	<node lat="60.29429166537012" lon="11.951191660897937" id="-14132">
		<tag k="name" v="Fugleleikberget" />
		<tag k="natural" v="hill" />
		<tag k="place" v="locality" />
		<tag k="ssr:stedsnr" v="673498" />
	</node>
	<node lat="60.25745277610195" lon="12.097480562586352" id="-14134">
		<tag k="name" v="Tittfuruknappen" />
		<tag k="natural" v="hill" />
		<tag k="place" v="locality" />
		<tag k="ssr:stedsnr" v="673433" />
	</node>
	<node lat="60.25623055452654" lon="12.473488882330425" id="-14141">
		<tag k="name" v="Viberget" />
		<tag k="natural" v="hill" />
		<tag k="place" v="locality" />
		<tag k="ssr:stedsnr" v="673872" />
	</node>
	<node lat="60.326925002875086" lon="12.103886111757733" id="-14145">
		<tag k="name" v="Tollberget" />
		<tag k="natural" v="hill" />
		<tag k="place" v="locality" />
		<tag k="ssr:stedsnr" v="674284" />
	</node>
	<node lat="60.142941670435036" lon="12.354208342029688" id="-14147">
		<tag k="fixme" v="consider natural=peak for the most distinct mountains in the district" />
		<tag k="name" v="Møkeråsen" />
		<tag k="natural" v="hill" />
		<tag k="place" v="locality" />
		<tag k="ssr:stedsnr" v="673984" />
	</node>
	<node lat="60.28273055555361" lon="12.282827770872437" id="-14158">
		<tag k="name" v="Dumhansberget" />
		<tag k="natural" v="hill" />
		<tag k="place" v="locality" />
		<tag k="ssr:stedsnr" v="464527" />
	</node>
	<node lat="60.28716111156554" lon="12.437294436769859" id="-14167">
		<tag k="name" v="Aurtjennsbråteberget" />
		<tag k="natural" v="hill" />
		<tag k="place" v="locality" />
		<tag k="ssr:stedsnr" v="467311" />
	</node>
	<node lat="60.358713888157055" lon="11.990463882267695" id="-14179">
		<tag k="fixme" v="consider natural=peak for the most distinct mountains in the district" />
		<tag k="name" v="Kalvåsen" />
		<tag k="natural" v="hill" />
		<tag k="place" v="locality" />
		<tag k="ssr:stedsnr" v="480903" />
	</node>
	<node lat="60.14574444253388" lon="12.47222221327018" id="-14189">
		<tag k="fixme" v="consider natural=peak for the most distinct mountains in the district" />
		<tag k="name" v="Nøkketjennsberget" />
		<tag k="natural" v="hill" />
		<tag k="place" v="locality" />
		<tag k="ssr:stedsnr" v="483227" />
	</node>
	<node lat="60.0277194449499" lon="12.412458331996499" id="-14193">
		<tag k="fixme" v="consider natural=peak for the most distinct mountains in the district" />
		<tag k="name" v="Håkerudberget" />
		<tag k="natural" v="hill" />
		<tag k="place" v="locality" />
		<tag k="ssr:stedsnr" v="483771" />
	</node>
	<node lat="60.26228889186871" lon="12.343844451978669" id="-14195">
		<tag k="name" v="Noppi" />
		<tag k="natural" v="hill" />
		<tag k="place" v="locality" />
		<tag k="ssr:stedsnr" v="484918" />
	</node>
	<node lat="60.231866663044094" lon="11.999777773887127" id="-14196">
		<tag k="name" v="Djupdalen" />
		<tag k="natural" v="valley" />
		<tag k="place" v="locality" />
		<tag k="ssr:stedsnr" v="490037" />
	</node>
	<node lat="60.10910000033336" lon="12.001186107659722" id="-14203">
		<tag k="name" v="Haukberget" />
		<tag k="natural" v="hill" />
		<tag k="place" v="locality" />
		<tag k="ssr:stedsnr" v="490488" />
	</node>
	<node lat="60.170974997727924" lon="12.040672215098073" id="-14207">
		<tag k="alt_name" v="Djupdalsberget" />
		<tag k="name" v="Rastaberget" />
		<tag k="natural" v="hill" />
		<tag k="place" v="locality" />
		<tag k="ssr:stedsnr" v="490612" />
	</node>
	<node lat="60.17540555974042" lon="12.203680561961017" id="-14208">
		<tag k="name" v="Ursberget" />
		<tag k="natural" v="hill" />
		<tag k="place" v="locality" />
		<tag k="ssr:stedsnr" v="490584" />
	</node>
	<node lat="60.16117777455734" lon="11.95016943861576" id="-14210">
		<tag k="name" v="Gørtjennberget" />
		<tag k="natural" v="hill" />
		<tag k="place" v="locality" />
		<tag k="ssr:stedsnr" v="490593" />
	</node>
	<node lat="60.02842500227006" lon="12.349955560815772" id="-14214">
		<tag k="fixme" v="consider natural=peak for the most distinct mountains in the district" />
		<tag k="name" v="Eikåsen" />
		<tag k="natural" v="hill" />
		<tag k="place" v="locality" />
		<tag k="ssr:stedsnr" v="491034" />
	</node>
	<node lat="60.36236110834291" lon="12.421027768532845" id="-14224">
		<tag k="name" v="Nordbergskjæra" />
		<tag k="natural" v="cliff" />
		<tag k="ssr:stedsnr" v="491213" />
	</node>
	<node lat="60.339066666999805" lon="12.376844437687593" id="-14226">
		<tag k="name" v="Fautberget" />
		<tag k="natural" v="hill" />
		<tag k="place" v="locality" />
		<tag k="ssr:stedsnr" v="491229" />
	</node>
	<node lat="60.31740277353242" lon="11.965649996741801" id="-14235">
		<tag k="name" v="Solbergsberget" />
		<tag k="natural" v="hill" />
		<tag k="place" v="locality" />
		<tag k="ssr:stedsnr" v="491479" />
	</node>
	<node lat="60.14862777396548" lon="12.385419453050053" id="-14249">
		<tag k="name" v="Smalmyrdalen" />
		<tag k="natural" v="valley" />
		<tag k="place" v="locality" />
		<tag k="ssr:stedsnr" v="525779" />
	</node>
	<node lat="60.09772222321852" lon="11.958080550934204" id="-14255">
		<tag k="name" v="Slabørlia" />
		<tag k="natural" v="slope" />
		<tag k="place" v="locality" />
		<tag k="ssr:stedsnr" v="527708" />
	</node>
	<node lat="60.14960833371824" lon="12.200050005437847" id="-14264">
		<tag k="name" v="Ladderudberget" />
		<tag k="natural" v="hill" />
		<tag k="place" v="locality" />
		<tag k="ssr:stedsnr" v="530610" />
	</node>
	<node lat="60.27138055260572" lon="12.139311108496578" id="-14266">
		<tag k="name" v="Geitberget" />
		<tag k="natural" v="hill" />
		<tag k="place" v="locality" />
		<tag k="ssr:stedsnr" v="540169" />
	</node>
	<node lat="60.16392222536583" lon="12.51316110817053" id="-14270">
		<tag k="name" v="Lindaholmen" />
		<tag k="natural" v="hill" />
		<tag k="place" v="locality" />
		<tag k="ssr:stedsnr" v="540178" />
	</node>
	<node lat="60.29286666217024" lon="11.953758338351742" id="-14276">
		<tag k="name" v="Kristigrav" />
		<tag k="natural" v="valley" />
		<tag k="place" v="locality" />
		<tag k="ssr:stedsnr" v="540521" />
	</node>
	<node lat="60.34332222541537" lon="12.09603332617409" id="-14279">
		<tag k="name" v="Harabrudalen" />
		<tag k="natural" v="valley" />
		<tag k="place" v="locality" />
		<tag k="ssr:stedsnr" v="541036" />
	</node>
	<node lat="60.17696111174746" lon="12.239902774719047" id="-14280">
		<tag k="fixme" v="consider natural=peak for the most distinct mountains in the district" />
		<tag k="name" v="Bendikstorpberget" />
		<tag k="natural" v="hill" />
		<tag k="place" v="locality" />
		<tag k="ssr:stedsnr" v="541073" />
	</node>
	<node lat="60.26411111352121" lon="12.314311105678126" id="-14281">
		<tag k="fixme" v="consider natural=peak for the most distinct mountains in the district" />
		<tag k="name" v="Ronkaberget" />
		<tag k="natural" v="hill" />
		<tag k="place" v="locality" />
		<tag k="ssr:stedsnr" v="540911" />
	</node>
	<node lat="60.324588884949954" lon="12.267924999750036" id="-14286">
		<tag k="name" v="Jersjøberget" />
		<tag k="natural" v="hill" />
		<tag k="place" v="locality" />
		<tag k="ssr:stedsnr" v="541672" />
	</node>
	<node lat="60.26435277632321" lon="11.96504444959004" id="-14288">
		<tag k="name" v="Grisbekkskjæret" />
		<tag k="natural" v="hill" />
		<tag k="place" v="locality" />
		<tag k="ssr:stedsnr" v="543180" />
	</node>
	<node lat="60.11779444363707" lon="12.064713882998115" id="-14291">
		<tag k="name" v="Strengelsrudberget" />
		<tag k="natural" v="hill" />
		<tag k="place" v="locality" />
		<tag k="ssr:stedsnr" v="543576" />
	</node>
	<node lat="60.23401388635925" lon="12.386944450603442" id="-14295">
		<tag k="fixme" v="consider natural=peak for the most distinct mountains in the district" />
		<tag k="name" v="Rokkiporro" />
		<tag k="natural" v="hill" />
		<tag k="place" v="locality" />
		<tag k="ssr:stedsnr" v="543973" />
	</node>
	<node lat="60.22980832954852" lon="12.33068888416846" id="-14296">
		<tag k="name" v="Bjørnklomma" />
		<tag k="natural" v="valley" />
		<tag k="place" v="locality" />
		<tag k="ssr:stedsnr" v="543978" />
	</node>
	<node lat="60.23582222551205" lon="12.325363887599336" id="-14297">
		<tag k="name" v="Kroknesberget" />
		<tag k="natural" v="hill" />
		<tag k="place" v="locality" />
		<tag k="ssr:stedsnr" v="543979" />
	</node>
	<node lat="60.34547222668862" lon="12.03004722268936" id="-14300">
		<tag k="name" v="Fosseidberget" />
		<tag k="natural" v="hill" />
		<tag k="place" v="locality" />
		<tag k="ssr:stedsnr" v="544426" />
	</node>
	<node lat="60.2684722265967" lon="12.38828888766768" id="-14305">
		<tag k="name" v="Blåskjæra" />
		<tag k="natural" v="hill" />
		<tag k="place" v="locality" />
		<tag k="ssr:stedsnr" v="544921" />
	</node>
	<node lat="60.173183333230085" lon="11.980127773162046" id="-14329">
		<tag k="fixme" v="consider natural=peak for the most distinct mountains in the district" />
		<tag k="name" v="Kurudåsen" />
		<tag k="natural" v="hill" />
		<tag k="place" v="locality" />
		<tag k="ssr:stedsnr" v="551612" />
	</node>
	<node lat="60.20622777915847" lon="12.320327772336762" id="-14338">
		<tag k="name" v="Oppkjølberget" />
		<tag k="natural" v="hill" />
		<tag k="place" v="locality" />
		<tag k="ssr:stedsnr" v="551819" />
	</node>
	<node lat="60.218730557204566" lon="12.35488332663521" id="-14339">
		<tag k="name" v="Naimaberget" />
		<tag k="natural" v="hill" />
		<tag k="place" v="locality" />
		<tag k="ssr:stedsnr" v="551820" />
	</node>
	<node lat="60.22723055586088" lon="12.411797230737692" id="-14341">
		<tag k="name" v="Lauvtjennberget" />
		<tag k="natural" v="hill" />
		<tag k="place" v="locality" />
		<tag k="ssr:stedsnr" v="551829" />
	</node>
	<node lat="60.30853332890152" lon="12.172625000266601" id="-14348">
		<tag k="name" v="Brattberget" />
		<tag k="natural" v="hill" />
		<tag k="place" v="locality" />
		<tag k="ssr:stedsnr" v="552501" />
	</node>
	<node lat="60.20897222627558" lon="12.391169441691863" id="-14359">
		<tag k="fixme" v="consider natural=peak for the most distinct mountains in the district" />
		<tag k="name" v="Stampetjennberget" />
		<tag k="natural" v="hill" />
		<tag k="place" v="locality" />
		<tag k="ssr:stedsnr" v="585953" />
	</node>
	<node lat="60.30801110728731" lon="12.089905546906147" id="-14362">
		<tag k="name" v="Løeslåttskjæret" />
		<tag k="natural" v="hill" />
		<tag k="place" v="locality" />
		<tag k="ssr:stedsnr" v="586252" />
	</node>
	<node lat="60.30971666558255" lon="12.314274992254777" id="-14368">
		<tag k="name" v="Skjuldalen" />
		<tag k="natural" v="valley" />
		<tag k="place" v="locality" />
		<tag k="ssr:stedsnr" v="587113" />
	</node>
	<node lat="60.22787777897281" lon="12.156519438678949" id="-14370">
		<tag k="name" v="Svettlia" />
		<tag k="natural" v="slope" />
		<tag k="place" v="locality" />
		<tag k="ssr:stedsnr" v="587208" />
	</node>
	<node lat="60.22085555209292" lon="12.165066670929589" id="-14371">
		<tag k="name" v="Blokktjennshaugen" />
		<tag k="natural" v="hill" />
		<tag k="place" v="locality" />
		<tag k="ssr:stedsnr" v="587209" />
	</node>
	<node lat="60.22070833403273" lon="12.076063893813453" id="-14372">
		<tag k="fixme" v="consider natural=peak for the most distinct mountains in the district" />
		<tag k="loc_name" v="Røysene" />
		<tag k="name" v="Reisenberget" />
		<tag k="natural" v="hill" />
		<tag k="place" v="locality" />
		<tag k="ssr:stedsnr" v="587200" />
	</node>
	<node lat="60.146144445096674" lon="11.948249999811663" id="-14380">
		<tag k="name" v="Rålimana" />
		<tag k="natural" v="hill" />
		<tag k="place" v="locality" />
		<tag k="ssr:stedsnr" v="591018" />
	</node>
	<node lat="60.315883333448824" lon="12.382519442146675" id="-14400">
		<tag k="name" v="Vinkelposten" />
		<tag k="place" v="locality" />
		<tag k="ssr:stedsnr" v="604107" />
	</node>
	<node lat="60.30751944016587" lon="12.356522219189804" id="-14401">
		<tag k="name" v="Fjørhanadalen" />
		<tag k="natural" v="valley" />
		<tag k="place" v="locality" />
		<tag k="ssr:stedsnr" v="604112" />
	</node>
	<node lat="60.28276111272334" lon="12.39242499942847" id="-14402">
		<tag k="fixme" v="consider natural=peak for the most distinct mountains in the district" />
		<tag k="name" v="Gubbetjennsåsen" />
		<tag k="natural" v="hill" />
		<tag k="place" v="locality" />
		<tag k="ssr:stedsnr" v="604115" />
	</node>
	<node lat="60.13223333259591" lon="12.466913879978634" id="-14404">
		<tag k="name" v="Granaberget" />
		<tag k="natural" v="hill" />
		<tag k="place" v="locality" />
		<tag k="ssr:stedsnr" v="604207" />
	</node>
	<node lat="60.30449999568786" lon="12.137030552868305" id="-14427">
		<tag k="fixme" v="consider natural=peak for the most distinct mountains in the district" />
		<tag k="name" v="Gaupåsen" />
		<tag k="natural" v="hill" />
		<tag k="place" v="locality" />
		<tag k="ssr:stedsnr" v="612517" />
	</node>
	<node lat="60.140130559379" lon="12.404694447631545" id="-14449">
		<tag k="name" v="Stjernhullberget" />
		<tag k="natural" v="hill" />
		<tag k="place" v="locality" />
		<tag k="ssr:stedsnr" v="646784" />
	</node>
	<node lat="60.137499998306964" lon="12.34704443769521" id="-14451">
		<tag k="name" v="Kistberget" />
		<tag k="natural" v="hill" />
		<tag k="place" v="locality" />
		<tag k="ssr:stedsnr" v="646926" />
	</node>
	<node lat="60.32096111382162" lon="11.91351388705321" id="-14456">
		<tag k="name" v="Hushaugene" />
		<tag k="natural" v="hill" />
		<tag k="place" v="locality" />
		<tag k="ssr:stedsnr" v="648289" />
	</node>
	<node lat="60.293252779540616" lon="12.100108329656273" id="-14466">
		<tag k="name" v="Okseskjær" />
		<tag k="natural" v="hill" />
		<tag k="place" v="locality" />
		<tag k="ssr:stedsnr" v="707254" />
	</node>
	<node lat="60.34428611207287" lon="12.380341661362484" id="-14469">
		<tag k="name" v="Golanhøyden" />
		<tag k="natural" v="hill" />
		<tag k="place" v="locality" />
		<tag k="ssr:stedsnr" v="709068" />
	</node>
	<node lat="60.09205000090791" lon="12.467475006963125" id="-14471">
		<tag k="fixme" v="consider natural=peak for the most distinct mountains in the district" />
		<tag k="name" v="Morttjennsberget" />
		<tag k="natural" v="hill" />
		<tag k="place" v="locality" />
		<tag k="ssr:stedsnr" v="661004" />
	</node>
	<node lat="60.25300277498915" lon="12.13558333768529" id="-14481">
		<tag k="name" v="Mektordalen" />
		<tag k="natural" v="valley" />
		<tag k="place" v="locality" />
		<tag k="ssr:stedsnr" v="709141" />
	</node>
	<node lat="60.25513611209823" lon="12.154063881364994" id="-14482">
		<tag k="fixme" v="consider natural=peak for the most distinct mountains in the district" />
		<tag k="name" v="Melsåsberget" />
		<tag k="natural" v="hill" />
		<tag k="place" v="locality" />
		<tag k="ssr:stedsnr" v="709148" />
	</node>
	<node lat="60.2711916700789" lon="12.30121110953739" id="-14487">
		<tag k="name" v="Tørrgransletta" />
		<tag k="place" v="locality" />
		<tag k="ssr:stedsnr" v="661935" />
	</node>
	<node lat="60.2558027751862" lon="12.320230557693018" id="-14490">
		<tag k="fixme" v="consider natural=peak for the most distinct mountains in the district" />
		<tag k="name" v="Brennåsen" />
		<tag k="natural" v="hill" />
		<tag k="place" v="locality" />
		<tag k="ssr:stedsnr" v="662989" />
	</node>
	<node lat="60.2436638874772" lon="12.250980549923398" id="-14497">
		<tag k="name" v="Styggdalen" />
		<tag k="natural" v="valley" />
		<tag k="place" v="locality" />
		<tag k="ssr:stedsnr" v="709462" />
	</node>
	<node lat="60.260311110915055" lon="11.942961113529083" id="-14500">
		<tag k="name" v="Pralerhaugen" />
		<tag k="natural" v="hill" />
		<tag k="place" v="locality" />
		<tag k="ssr:stedsnr" v="664134" />
	</node>
	<node lat="60.37775833751473" lon="12.295450006533095" id="-14504">
		<tag k="fixme" v="consider natural=peak for the most distinct mountains in the district" />
		<tag k="name" v="Skasdamberget" />
		<tag k="natural" v="hill" />
		<tag k="place" v="locality" />
		<tag k="ssr:stedsnr" v="709478" />
	</node>
	<node lat="60.23138055506566" lon="12.30350277293859" id="-14518">
		<tag k="name" v="Klonken" />
		<tag k="place" v="locality" />
		<tag k="ssr:stedsnr" v="664983" />
	</node>
	<node lat="60.224899997263215" lon="12.48445276954139" id="-14520">
		<tag k="name" v="Ormberget" />
		<tag k="natural" v="hill" />
		<tag k="place" v="locality" />
		<tag k="ssr:stedsnr" v="665132" />
	</node>
	<node lat="60.33634444872321" lon="11.902738889040352" id="-14523">
		<tag k="name" v="Bjønnbakken" />
		<tag k="natural" v="slope" />
		<tag k="place" v="locality" />
		<tag k="ssr:stedsnr" v="665599" />
	</node>
	<node lat="60.19317777567939" lon="12.333702785060284" id="-14530">
		<tag k="fixme" v="consider natural=peak for the most distinct mountains in the district" />
		<tag k="name" v="Kvernberget" />
		<tag k="natural" v="hill" />
		<tag k="place" v="locality" />
		<tag k="ssr:stedsnr" v="709954" />
	</node>
	<node lat="60.25969166224037" lon="12.441238894715822" id="-14536">
		<tag k="name" v="Storbråtåberget" />
		<tag k="natural" v="hill" />
		<tag k="place" v="locality" />
		<tag k="ssr:stedsnr" v="890350" />
	</node>
	<node lat="60.08674999905382" lon="11.937824999539194" id="-14540">
		<tag k="name" v="Småhelvete" />
		<tag k="natural" v="hill" />
		<tag k="place" v="locality" />
		<tag k="ssr:stedsnr" v="672738" />
	</node>
	<node lat="60.04645000421803" lon="12.383700007570765" id="-14545">
		<tag k="fixme" v="consider natural=peak for the most distinct mountains in the district" />
		<tag k="name" v="Svea" />
		<tag k="natural" v="hill" />
		<tag k="place" v="locality" />
		<tag k="ssr:stedsnr" v="673006" />
	</node>
	<node lat="60.36321388504924" lon="12.091338882622734" id="-14568">
		<tag k="name" v="Ulvberget" />
		<tag k="natural" v="hill" />
		<tag k="place" v="locality" />
		<tag k="ssr:stedsnr" v="674261" />
	</node>
	<node lat="60.31603889116382" lon="12.324052784552608" id="-14582">
		<tag k="fixme" v="consider natural=peak for the most distinct mountains in the district" />
		<tag k="name" v="Hagabråtaberget" />
		<tag k="natural" v="hill" />
		<tag k="place" v="locality" />
		<tag k="ssr:stedsnr" v="891126" />
	</node>
	<node lat="60.099811108372876" lon="12.39769444835938" id="-14591">
		<tag k="name" v="Gravlia" />
		<tag k="natural" v="slope" />
		<tag k="place" v="locality" />
		<tag k="ssr:stedsnr" v="891852" />
	</node>
	<node lat="60.25824166245138" lon="12.273561116623169" id="-14600">
		<tag k="fixme" v="consider natural=peak for the most distinct mountains in the district" />
		<tag k="name" v="Kubergstoppen" />
		<tag k="natural" v="hill" />
		<tag k="place" v="locality" />
		<tag k="ssr:stedsnr" v="892450" />
	</node>
	<node lat="60.10957222066996" lon="11.949461118662265" id="-14603">
		<tag k="name" v="Steinbråtadalen" />
		<tag k="natural" v="valley" />
		<tag k="place" v="locality" />
		<tag k="ssr:stedsnr" v="894046" />
	</node>
	<node lat="60.27074999813845" lon="12.207333329402308" id="-14609">
		<tag k="name" v="Bratthella" />
		<tag k="natural" v="hill" />
		<tag k="place" v="locality" />
		<tag k="ssr:stedsnr" v="707582" />
	</node>
	<node lat="60.0081861105344" lon="12.376474994523967" id="-14611">
		<tag k="name" v="Sæteråsen" />
		<tag k="natural" v="hill" />
		<tag k="place" v="locality" />
		<tag k="ssr:stedsnr" v="707723" />
	</node>
	<node lat="60.207125004329065" lon="12.301602780344199" id="-14612">
		<tag k="fixme" v="consider natural=peak for the most distinct mountains in the district" />
		<tag k="name" v="Styggberget" />
		<tag k="natural" v="hill" />
		<tag k="place" v="locality" />
		<tag k="ssr:stedsnr" v="707958" />
	</node>
	<node lat="60.198933329985955" lon="12.38781666067837" id="-14613">
		<tag k="fixme" v="consider natural=peak for the most distinct mountains in the district" />
		<tag k="name" v="Merramyrberget" />
		<tag k="natural" v="hill" />
		<tag k="place" v="locality" />
		<tag k="ssr:stedsnr" v="707960" />
	</node>
	<node lat="60.07485833356495" lon="12.379133338927245" id="-14617">
		<tag k="name" v="Karterudberget" />
		<tag k="natural" v="hill" />
		<tag k="place" v="locality" />
		<tag k="ssr:stedsnr" v="709803" />
	</node>
	<node lat="60.095119444555685" lon="12.370961107792528" id="-14619">
		<tag k="name" v="Kletta" />
		<tag k="natural" v="hill" />
		<tag k="place" v="locality" />
		<tag k="ssr:stedsnr" v="709806" />
	</node>
	<node lat="60.2679444448204" lon="12.490602783848646" id="-14626">
		<tag k="name" v="Kevalaisbråtan" />
		<tag k="place" v="locality" />
		<tag k="ssr:stedsnr" v="722369" />
	</node>
	<node lat="60.1059833371482" lon="12.333227769475528" id="-14627">
		<tag k="fixme" v="consider natural=peak for the most distinct mountains in the district" />
		<tag k="name" v="Skullerudberget" />
		<tag k="natural" v="hill" />
		<tag k="place" v="locality" />
		<tag k="ssr:stedsnr" v="722771" />
	</node>
	<node lat="60.21238055331707" lon="12.218063885865984" id="-14629">
		<tag k="name" v="Aksvalldråga" />
		<tag k="natural" v="valley" />
		<tag k="place" v="locality" />
		<tag k="ssr:stedsnr" v="723403" />
	</node>
	<node lat="60.18935000374392" lon="12.233836103390463" id="-14630">
		<tag k="name" v="Vaisberget" />
		<tag k="natural" v="hill" />
		<tag k="place" v="locality" />
		<tag k="ssr:stedsnr" v="723415" />
	</node>
	<node lat="60.26781388677227" lon="12.403844440565102" id="-14649">
		<tag k="name" v="Vestriberget" />
		<tag k="natural" v="hill" />
		<tag k="place" v="locality" />
		<tag k="ssr:stedsnr" v="727915" />
	</node>
	<node lat="60.166850000733525" lon="12.170680553312623" id="-14657">
		<tag k="fixme" v="consider natural=peak for the most distinct mountains in the district" />
		<tag k="name" v="Vassåsen" />
		<tag k="natural" v="hill" />
		<tag k="place" v="locality" />
		<tag k="ssr:stedsnr" v="733544" />
	</node>
	<node lat="60.24611389134526" lon="12.404025000247305" id="-14660">
		<tag k="name" v="Åfallhaugen" />
		<tag k="natural" v="hill" />
		<tag k="place" v="locality" />
		<tag k="ssr:stedsnr" v="733814" />
	</node>
	<node lat="60.127430558598775" lon="12.307850002160059" id="-14663">
		<tag k="name" v="Jonsrudberget" />
		<tag k="natural" v="hill" />
		<tag k="place" v="locality" />
		<tag k="ssr:stedsnr" v="733932" />
	</node>
	<node lat="60.3682361125036" lon="12.042405562462301" id="-14687">
		<tag k="name" v="Føttaskjæra" />
		<tag k="natural" v="hill" />
		<tag k="place" v="locality" />
		<tag k="ssr:stedsnr" v="754754" />
	</node>
	<node lat="60.20766389136847" lon="12.480888893112915" id="-14690">
		<tag k="fixme" v="consider natural=peak for the most distinct mountains in the district" />
		<tag k="name" v="Emtberget" />
		<tag k="natural" v="hill" />
		<tag k="place" v="locality" />
		<tag k="ssr:stedsnr" v="905140" />
	</node>
	<node lat="60.20379722577818" lon="12.52268610876985" id="-14691">
		<tag k="fixme" v="consider natural=peak for the most distinct mountains in the district" />
		<tag k="name" v="Råberget" />
		<tag k="natural" v="hill" />
		<tag k="place" v="locality" />
		<tag k="ssr:stedsnr" v="905141" />
	</node>
	<node lat="60.191363886303726" lon="12.21899444974528" id="-14697">
		<tag k="name" v="Leipikoberget" />
		<tag k="natural" v="hill" />
		<tag k="place" v="locality" />
		<tag k="ssr:stedsnr" v="905430" />
	</node>
	<node lat="60.25040832922254" lon="12.348494441169434" id="-14705">
		<tag k="name" v="Lyskanokkå" />
		<tag k="natural" v="slope" />
		<tag k="place" v="locality" />
		<tag k="ssr:stedsnr" v="905988" />
	</node>
	<node lat="60.320941666127354" lon="12.188508325676167" id="-14720">
		<tag k="name" v="Brattfalltoppen" />
		<tag k="natural" v="hill" />
		<tag k="place" v="locality" />
		<tag k="ssr:stedsnr" v="770606" />
	</node>
	<node lat="60.228272224527956" lon="12.222236114918202" id="-14744">
		<tag k="name" v="Spjuthaugen" />
		<tag k="natural" v="hill" />
		<tag k="place" v="locality" />
		<tag k="ssr:stedsnr" v="783397" />
	</node>
	<node lat="60.11301111350003" lon="12.322516666915407" id="-14750">
		<tag k="name" v="Tajehaugen" />
		<tag k="natural" v="hill" />
		<tag k="place" v="locality" />
		<tag k="ssr:stedsnr" v="783751" />
	</node>
	<node lat="60.18795833729084" lon="12.346261106957718" id="-14756">
		<tag k="fixme" v="consider natural=peak for the most distinct mountains in the district" />
		<tag k="name" v="Nøkkevikberget" />
		<tag k="natural" v="hill" />
		<tag k="place" v="locality" />
		<tag k="ssr:stedsnr" v="783955" />
	</node>
	<node lat="60.33001388780543" lon="12.373141672842523" id="-14759">
		<tag k="fixme" v="consider natural=peak for the most distinct mountains in the district" />
		<tag k="name" v="Steinsvatneberget" />
		<tag k="natural" v="hill" />
		<tag k="place" v="locality" />
		<tag k="ssr:stedsnr" v="785059" />
	</node>
	<node lat="60.10524721982653" lon="12.006827777098703" id="-14761">
		<tag k="name" v="Svartbekkdalen" />
		<tag k="natural" v="valley" />
		<tag k="place" v="locality" />
		<tag k="ssr:stedsnr" v="785568" />
	</node>
	<node lat="60.26683889313291" lon="12.259561106151589" id="-14772">
		<tag k="name" v="Maurberget" />
		<tag k="natural" v="hill" />
		<tag k="place" v="locality" />
		<tag k="ssr:stedsnr" v="787562" />
	</node>
	<node lat="60.04442500199944" lon="12.335958339921076" id="-14776">
		<tag k="name" v="Sandberget" />
		<tag k="natural" v="hill" />
		<tag k="place" v="locality" />
		<tag k="ssr:stedsnr" v="794005" />
	</node>
	<node lat="60.15410000229097" lon="12.117333335717479" id="-14786">
		<tag k="fixme" v="consider natural=peak for the most distinct mountains in the district" />
		<tag k="name" v="Musbakken" />
		<tag k="natural" v="hill" />
		<tag k="place" v="locality" />
		<tag k="ssr:stedsnr" v="794564" />
	</node>
	<node lat="60.13922982060767" lon="12.474186041370498" id="-14795">
		<tag k="alt_name" v="Nopa" />
		<tag k="fixme" v="consider natural=peak for the most distinct mountains in the district" />
		<tag k="name" v="Kokkåsen" />
		<tag k="natural" v="hill" />
		<tag k="place" v="locality" />
		<tag k="ssr:stedsnr" v="794965" />
	</node>
	<node lat="60.32601389111042" lon="12.427852786949003" id="-14813">
		<tag k="alt_name" v="Ormbergsberget" />
		<tag k="name" v="Ormberget" />
		<tag k="natural" v="hill" />
		<tag k="place" v="locality" />
		<tag k="ssr:stedsnr" v="795173" />
	</node>
	<node lat="60.32090832888901" lon="12.305186111399292" id="-14814">
		<tag k="name" v="Åtterberget" />
		<tag k="natural" v="hill" />
		<tag k="place" v="locality" />
		<tag k="ssr:stedsnr" v="795177" />
	</node>
	<node lat="60.15331388916302" lon="12.082319435593101" id="-14845">
		<tag k="fixme" v="consider natural=peak for the most distinct mountains in the district" />
		<tag k="name" v="Granlivarden" />
		<tag k="natural" v="hill" />
		<tag k="place" v="locality" />
		<tag k="ssr:stedsnr" v="915550" />
	</node>
	<node lat="60.19082500163824" lon="12.47310277483908" id="-14847">
		<tag k="name" v="Grisberget" />
		<tag k="natural" v="hill" />
		<tag k="place" v="locality" />
		<tag k="ssr:stedsnr" v="915758" />
	</node>
	<node lat="60.123950000468376" lon="12.281549997383612" id="-14849">
		<tag k="name" v="Skibakkberget" />
		<tag k="natural" v="hill" />
		<tag k="place" v="locality" />
		<tag k="ssr:stedsnr" v="915937" />
	</node>
	<node lat="60.18932499674934" lon="11.925122214077847" id="-14856">
		<tag k="name" v="Krakelihøgda" />
		<tag k="natural" v="hill" />
		<tag k="place" v="locality" />
		<tag k="ssr:stedsnr" v="916096" />
	</node>
	<node lat="60.354502778606914" lon="11.996099995996651" id="-14876">
		<tag k="fixme" v="consider natural=peak for the most distinct mountains in the district" />
		<tag k="name" v="Kollåsen" />
		<tag k="natural" v="hill" />
		<tag k="place" v="locality" />
		<tag k="ssr:stedsnr" v="916262" />
	</node>
	<node lat="60.30275556016702" lon="12.217011107324426" id="-14881">
		<tag k="name" v="Gravvelberget" />
		<tag k="natural" v="hill" />
		<tag k="place" v="locality" />
		<tag k="ssr:stedsnr" v="916509" />
	</node>
	<node lat="60.29907499838074" lon="12.276463887663052" id="-14899">
		<tag k="name" v="Kjerkehaugen" />
		<tag k="natural" v="hill" />
		<tag k="place" v="locality" />
		<tag k="ssr:stedsnr" v="828479" />
	</node>
	<node lat="60.13652777791951" lon="12.405702779577533" id="-14900">
		<tag k="name" v="Roparberget" />
		<tag k="natural" v="hill" />
		<tag k="place" v="locality" />
		<tag k="ssr:stedsnr" v="828773" />
	</node>
	<node lat="60.333311107533575" lon="12.32051665948283" id="-14903">
		<tag k="name" v="Sætabergsknappen" />
		<tag k="natural" v="hill" />
		<tag k="place" v="locality" />
		<tag k="ssr:stedsnr" v="831088" />
	</node>
	<node lat="60.05927778190066" lon="12.419927777522869" id="-14912">
		<tag k="name" v="Søndre Aurlia" />
		<tag k="natural" v="slope" />
		<tag k="place" v="locality" />
		<tag k="ssr:stedsnr" v="844025" />
	</node>
	<node lat="60.38648333326798" lon="12.273875007294071" id="-14919">
		<tag k="name" v="Oksaven" />
		<tag k="natural" v="valley" />
		<tag k="place" v="locality" />
		<tag k="ssr:stedsnr" v="844509" />
	</node>
	<node lat="60.20285833118472" lon="12.18697778097139" id="-14920">
		<tag k="name" v="Grasberglia" />
		<tag k="natural" v="slope" />
		<tag k="place" v="locality" />
		<tag k="ssr:stedsnr" v="844412" />
	</node>
	<node lat="60.20525000329671" lon="12.230708330015666" id="-14921">
		<tag k="name" v="Menglandslia" />
		<tag k="natural" v="slope" />
		<tag k="place" v="locality" />
		<tag k="ssr:stedsnr" v="844413" />
	</node>
	<node lat="60.16327500260051" lon="12.042150005485768" id="-14923">
		<tag k="fixme" v="consider natural=peak for the most distinct mountains in the district" />
		<tag k="name" v="Strandberget" />
		<tag k="natural" v="hill" />
		<tag k="place" v="locality" />
		<tag k="ssr:stedsnr" v="844617" />
	</node>
	<node lat="60.04420278045076" lon="12.324211105703172" id="-14926">
		<tag k="alt_name" v="Kjerkelihøgda" />
		<tag k="fixme" v="consider natural=peak for the most distinct mountains in the district" />
		<tag k="name" v="Kirkelihøgda" />
		<tag k="natural" v="hill" />
		<tag k="place" v="locality" />
		<tag k="ssr:stedsnr" v="844677" />
	</node>
	<node lat="60.24835833199941" lon="12.010791669236156" id="-14930">
		<tag k="name" v="Djupdalen" />
		<tag k="natural" v="valley" />
		<tag k="place" v="locality" />
		<tag k="ssr:stedsnr" v="844976" />
	</node>
	<node lat="60.122230551635454" lon="12.089941674382494" id="-14935">
		<tag k="fixme" v="consider natural=peak for the most distinct mountains in the district" />
		<tag k="name" v="Snarekollen" />
		<tag k="natural" v="hill" />
		<tag k="place" v="locality" />
		<tag k="ssr:stedsnr" v="846819" />
	</node>
	<node lat="60.26249722512553" lon="12.25864166461438" id="-14942">
		<tag k="name" v="Tussberget" />
		<tag k="natural" v="hill" />
		<tag k="place" v="locality" />
		<tag k="ssr:stedsnr" v="848622" />
	</node>
	<node lat="60.18207777990078" lon="12.00490833052171" id="-14943">
		<tag k="name" v="Puttara" />
		<tag k="place" v="locality" />
		<tag k="ssr:stedsnr" v="848630" />
	</node>
	<node lat="60.00452500130196" lon="12.343974997234351" id="-14951">
		<tag k="alt_name" v="Høgmyråsen" />
		<tag k="fixme" v="consider natural=peak for the most distinct mountains in the district" />
		<tag k="name" v="Høgmyråsane" />
		<tag k="natural" v="hill" />
		<tag k="place" v="locality" />
		<tag k="ssr:stedsnr" v="855203" />
	</node>
	<node lat="60.16729722485162" lon="11.995622220138271" id="-14958">
		<tag k="name" v="Holtberget" />
		<tag k="natural" v="hill" />
		<tag k="place" v="locality" />
		<tag k="ssr:stedsnr" v="855621" />
	</node>
	<node lat="60.16361944124808" lon="11.938777774589594" id="-14959">
		<tag k="fixme" v="consider natural=peak for the most distinct mountains in the district" />
		<tag k="name" v="Rimyrtangen" />
		<tag k="natural" v="hill" />
		<tag k="place" v="locality" />
		<tag k="ssr:stedsnr" v="855624" />
	</node>
	<node lat="60.22153055383291" lon="12.364574992089944" id="-14966">
		<tag k="name" v="Vangeberget" />
		<tag k="natural" v="hill" />
		<tag k="place" v="locality" />
		<tag k="ssr:stedsnr" v="855838" />
	</node>
	<node lat="60.33511389335625" lon="12.317158330088722" id="-14979">
		<tag k="name" v="Sætaberget" />
		<tag k="natural" v="hill" />
		<tag k="place" v="locality" />
		<tag k="ssr:stedsnr" v="856237" />
	</node>
	<node lat="60.269716664368055" lon="12.164938888263848" id="-14981">
		<tag k="fixme" v="consider natural=peak for the most distinct mountains in the district" />
		<tag k="name" v="Bursåsen" />
		<tag k="natural" v="hill" />
		<tag k="place" v="locality" />
		<tag k="ssr:stedsnr" v="856482" />
	</node>
	<node lat="60.34060833238597" lon="11.995458332768923" id="-14982">
		<tag k="fixme" v="consider natural=peak for the most distinct mountains in the district" />
		<tag k="name" v="Bræiåsen" />
		<tag k="natural" v="hill" />
		<tag k="place" v="locality" />
		<tag k="ssr:stedsnr" v="856330" />
	</node>
	<node lat="60.152608328898026" lon="11.988586119267294" id="-14998">
		<tag k="name" v="Lundmyrberget" />
		<tag k="natural" v="hill" />
		<tag k="place" v="locality" />
		<tag k="ssr:stedsnr" v="891655" />
	</node>
	<node lat="60.373411107445854" lon="12.302769440031653" id="-15000">
		<tag k="name" v="Skaslibrenna" />
		<tag k="natural" v="slope" />
		<tag k="place" v="locality" />
		<tag k="ssr:stedsnr" v="892469" />
	</node>
	<node lat="60.22377222266179" lon="12.500091672100085" id="-15006">
		<tag k="name" v="Silkisberget" />
		<tag k="natural" v="hill" />
		<tag k="place" v="locality" />
		<tag k="ssr:stedsnr" v="904165" />
	</node>
	<node lat="60.21728889220049" lon="12.195725007585159" id="-15013">
		<tag k="name" v="Mengberget" />
		<tag k="natural" v="hill" />
		<tag k="place" v="locality" />
		<tag k="ssr:stedsnr" v="905405" />
	</node>
	<node lat="60.31664721921272" lon="12.15277777048397" id="-15021">
		<tag k="name" v="Galtryggen" />
		<tag k="natural" v="ridge" />
		<tag k="place" v="locality" />
		<tag k="ssr:stedsnr" v="907172" />
	</node>
	<node lat="60.13143610955807" lon="11.922366665666916" id="-15035">
		<tag k="fixme" v="multiple name tags, choose one and add the other to alt_name; consider natural=peak for the most distinct mountains in the district" />
		<tag k="name" v="Stubbekjølberget;Opptjennberget" />
		<tag k="natural" v="hill" />
		<tag k="place" v="locality" />
		<tag k="ssr:stedsnr" v="908364" />
	</node>
</osm>
