<?xml version="1.0" encoding="UTF-8"?>
<osm generator="osmapis" version="0.6">
	<node id="-552958" lat="62.7212305512" lon="7.42836666076">
		<tag k="name" v="Brubakken" />
		<tag k="place" v="farm" />
		<tag k="ssr:stedsnr" v="762871" />
	</node>
	<node id="-552941" lat="62.7376722258" lon="7.00201389489">
		<tag k="historic" v="shieling" />
		<tag k="name" v="Julbøsetra" />
		<tag k="place" v="locality" />
		<tag k="ssr:stedsnr" v="762620" />
	</node>
	<node id="-552925" lat="62.7427500031" lon="7.22705555062">
		<tag k="name" v="Kviltorp" />
		<tag k="place" v="farm" />
		<tag k="ssr:stedsnr" v="740769" />
	</node>
	<node id="-552924" lat="62.7892509947" lon="7.58787624605">
		<tag k="fixme" v="consider place=hamlet" />
		<tag k="name" v="Røsberg" />
		<tag k="place" v="farm" />
		<tag k="ssr:stedsnr" v="740760" />
	</node>
	<node id="-552922" lat="62.7917383153" lon="7.60565124063">
		<tag k="fixme" v="consider place=hamlet" />
		<tag k="name" v="Stokke" />
		<tag k="place" v="farm" />
		<tag k="ssr:stedsnr" v="740750" />
	</node>
	<node id="-552921" lat="62.8057731155" lon="7.56154960464">
		<tag k="fixme" v="consider place=hamlet" />
		<tag k="name" v="Roaldsetlia" />
		<tag k="place" v="farm" />
		<tag k="ssr:stedsnr" v="740730" />
	</node>
	<node id="-552919" lat="62.8084888916" lon="7.74933612007">
		<tag k="name" v="Langholen" />
		<tag k="place" v="farm" />
		<tag k="ssr:stedsnr" v="740540" />
	</node>
	<node id="-552916" lat="62.768913893" lon="7.44076666685">
		<tag k="building" v="industrial" />
		<tag k="industrial" v="factory" />
		<tag k="name" v="Molde Verft" />
		<tag k="ssr:stedsnr" v="739846" />
	</node>
	<node id="-552914" lat="62.7548666672" lon="7.52242222928">
		<tag k="alt_name" v="Kvernhusligjerdet" />
		<tag k="name" v="Solemsbøen" />
		<tag k="place" v="farm" />
		<tag k="ssr:stedsnr" v="739834" />
	</node>
	<node id="-552913" lat="62.7840861103" lon="7.45062778286">
		<tag k="historic" v="shieling" />
		<tag k="name" v="Hjellsetsetra" />
		<tag k="place" v="locality" />
		<tag k="ssr:stedsnr" v="739818" />
	</node>
	<node id="-552912" lat="62.7241794208" lon="7.29381218902">
		<tag k="name" v="Draget" />
		<tag k="place" v="farm" />
		<tag k="ssr:stedsnr" v="739815" />
	</node>
	<node id="-552911" lat="62.7868472195" lon="7.5634777847">
		<tag k="name" v="Råkmyra" />
		<tag k="place" v="farm" />
		<tag k="ssr:stedsnr" v="739806" />
	</node>
	<node id="-552907" lat="62.7778973316" lon="7.6077379726">
		<tag k="fixme" v="consider place=hamlet" />
		<tag k="name" v="Risan" />
		<tag k="place" v="farm" />
		<tag k="ssr:stedsnr" v="739798" />
	</node>
	<node id="-552906" lat="62.774578292" lon="7.45868627695">
		<tag k="fixme" v="consider place=hamlet" />
		<tag k="name" v="Hjellset" />
		<tag k="place" v="farm" />
		<tag k="ssr:stedsnr" v="739793" />
	</node>
	<node id="-552899" lat="62.7283083312" lon="7.2938999982">
		<tag k="name" v="Heimdal" />
		<tag k="place" v="farm" />
		<tag k="ssr:stedsnr" v="739754" />
	</node>
	<node id="-552898" lat="62.7298555581" lon="7.29423888316">
		<tag k="name" v="Haugen" />
		<tag k="place" v="farm" />
		<tag k="ssr:stedsnr" v="739751" />
	</node>
	<node id="-552897" lat="62.7284071627" lon="7.28823089117">
		<tag k="fixme" v="consider place=hamlet" />
		<tag k="name" v="Litlebostad" />
		<tag k="place" v="farm" />
		<tag k="ssr:stedsnr" v="739750" />
	</node>
	<node id="-552894" lat="62.7016758604" lon="7.55916461998">
		<tag k="fixme" v="consider place=hamlet" />
		<tag k="name" v="Årset" />
		<tag k="place" v="farm" />
		<tag k="ssr:stedsnr" v="739695" />
	</node>
	<node id="-552892" lat="62.6976111074" lon="7.3546944471">
		<tag k="name" v="Bukta" />
		<tag k="place" v="farm" />
		<tag k="ssr:stedsnr" v="739690" />
	</node>
	<node id="-552889" lat="62.7138111089" lon="7.42636388089">
		<tag k="name" v="Skåran" />
		<tag k="place" v="farm" />
		<tag k="ssr:stedsnr" v="739679" />
	</node>
	<node id="-552887" lat="62.7358722182" lon="7.12808332973">
		<tag k="name" v="Bjørset" />
		<tag k="place" v="suburb" />
		<tag k="ssr:stedsnr" v="739066" />
	</node>
	<node id="-552886" lat="62.8006277821" lon="7.65125832683">
		<tag k="name" v="Indre Romold" />
		<tag k="place" v="farm" />
		<tag k="ssr:stedsnr" v="727857" />
	</node>
	<node id="-552849" lat="62.7479509492" lon="7.14337661784">
		<tag k="name" v="Storlihytta" />
		<tag k="place" v="farm" />
		<tag k="ssr:stedsnr" v="702642" />
	</node>
	<node id="-552848" lat="62.7396638927" lon="7.14409721716">
		<tag k="amenity" v="school" />
		<tag k="name" v="Sellanrå" />
		<tag k="ssr:stedsnr" v="702630" />
	</node>
	<node id="-552825" lat="62.8470138868" lon="7.72360277174">
		<tag k="name" v="Slåssbakken" />
		<tag k="place" v="isolated_dwelling" />
		<tag k="ssr:stedsnr" v="702252" />
	</node>
	<node id="-552824" lat="62.7789444452" lon="7.47548056472">
		<tag k="name" v="Åsen" />
		<tag k="place" v="farm" />
		<tag k="ssr:stedsnr" v="702250" />
	</node>
	<node id="-552823" lat="62.7756083366" lon="7.6252666683">
		<tag k="name" v="Brautin" />
		<tag k="place" v="farm" />
		<tag k="ssr:stedsnr" v="702243" />
	</node>
	<node id="-552822" lat="62.753711113" lon="7.56806666016">
		<tag k="name" v="Øyelivollen" />
		<tag k="place" v="isolated_dwelling" />
		<tag k="ssr:stedsnr" v="702242" />
	</node>
	<node id="-552821" lat="62.7611027805" lon="7.49221665786">
		<tag k="name" v="Kvistsetra" />
		<tag k="place" v="locality" />
		<tag k="ssr:stedsnr" v="702239" />
	</node>
	<node id="-552820" lat="62.6871055568" lon="7.4870555573">
		<tag k="name" v="Maloneset" />
		<tag k="place" v="farm" />
		<tag k="ssr:stedsnr" v="702223" />
	</node>
	<node id="-552819" lat="62.6958477912" lon="7.45128083885">
		<tag k="fixme" v="consider place=hamlet" />
		<tag k="name" v="Bergsvika" />
		<tag k="place" v="farm" />
		<tag k="ssr:stedsnr" v="702222" />
	</node>
	<node id="-552756" lat="62.7586333304" lon="7.51528054657">
		<tag k="name" v="Bakken" />
		<tag k="place" v="farm" />
		<tag k="ssr:stedsnr" v="679808" />
	</node>
	<node id="-552755" lat="62.7498638886" lon="7.49773056061">
		<tag k="name" v="Geilen" />
		<tag k="place" v="farm" />
		<tag k="ssr:stedsnr" v="679799" />
	</node>
	<node id="-552752" lat="62.7850999973" lon="7.54637223167">
		<tag k="name" v="Reitan" />
		<tag k="place" v="farm" />
		<tag k="ssr:stedsnr" v="679762" />
	</node>
	<node id="-552748" lat="62.6971194448" lon="7.43178889651">
		<tag k="name" v="Nesjestranda" />
		<tag k="place" v="village" />
		<tag k="ssr:stedsnr" v="679687" />
	</node>
	<node id="-552747" lat="62.7078202382" lon="7.58205180585">
		<tag k="fixme" v="consider place=hamlet" />
		<tag k="name" v="Grebbestad" />
		<tag k="place" v="farm" />
		<tag k="ssr:stedsnr" v="679676" />
	</node>
	<node id="-552745" lat="62.7783145648" lon="7.77973902779">
		<tag k="fixme" v="consider place=hamlet" />
		<tag k="name" v="Sotnakken" />
		<tag k="place" v="farm" />
		<tag k="ssr:stedsnr" v="679557" />
	</node>
	<node id="-552742" lat="62.7418499961" lon="6.99078889541">
		<tag k="name" v="Gausetvika" />
		<tag k="place" v="farm" />
		<tag k="ssr:stedsnr" v="679110" />
	</node>
	<node id="-552740" lat="62.7275826029" lon="7.01018256809">
		<tag k="fixme" v="consider place=hamlet" />
		<tag k="name" v="Baret" />
		<tag k="place" v="farm" />
		<tag k="ssr:stedsnr" v="679073" />
	</node>
	<node id="-552738" lat="62.7325444489" lon="7.38421666286">
		<tag k="alt_name" v="Skjevika" />
		<tag k="fixme" v="consider place=hamlet" />
		<tag k="name" v="Skjevik" />
		<tag k="place" v="farm" />
		<tag k="ssr:stedsnr" v="678751" />
	</node>
	<node id="-552736" lat="62.8010805549" lon="7.65457221416">
		<tag k="name" v="Indre Romold" />
		<tag k="place" v="farm" />
		<tag k="ssr:stedsnr" v="666850" />
	</node>
	<node id="-552735" lat="62.7317777765" lon="7.27139167062">
		<tag k="name" v="Torhus" />
		<tag k="place" v="isolated_dwelling" />
		<tag k="ssr:stedsnr" v="666670" />
	</node>
	<node id="-552734" lat="62.7353222261" lon="7.11770832927">
		<tag k="name" v="Strandheim" />
		<tag k="place" v="isolated_dwelling" />
		<tag k="ssr:stedsnr" v="664600" />
	</node>
	<node id="-552732" lat="62.7862527822" lon="7.70842778138">
		<tag k="name" v="Saltbunes" />
		<tag k="place" v="farm" />
		<tag k="ssr:stedsnr" v="658447" />
	</node>
	<node id="-552727" lat="62.7952277776" lon="7.63390834207">
		<tag k="fixme" v="consider place=suburb, village or hamlet" />
		<tag k="name" v="Nes" />
		<tag k="place" v="quarter" />
		<tag k="ssr:stedsnr" v="644885" />
	</node>
	<node id="-552713" lat="62.6922305546" lon="7.36608610546">
		<tag k="name" v="Tjørnholet" />
		<tag k="place" v="farm" />
		<tag k="ssr:stedsnr" v="641891" />
	</node>
	<node id="-552688" lat="62.7600277781" lon="7.20940833716">
		<tag k="historic" v="shieling" />
		<tag k="name" v="Tøndergårdsetra" />
		<tag k="place" v="locality" />
		<tag k="ssr:stedsnr" v="641626" />
	</node>
	<node id="-552662" lat="62.8082944462" lon="7.56162777707">
		<tag k="historic" v="shieling" />
		<tag k="name" v="Hugnessetra" />
		<tag k="place" v="locality" />
		<tag k="ssr:stedsnr" v="641242" />
	</node>
	<node id="-552661" lat="62.7726138893" lon="7.4593416736">
		<tag k="name" v="Hjellsethagen" />
		<tag k="place" v="farm" />
		<tag k="ssr:stedsnr" v="641238" />
	</node>
	<node id="-552660" lat="62.7791382963" lon="7.48569735924">
		<tag k="fixme" v="consider place=hamlet" />
		<tag k="name" v="Nerhagen" />
		<tag k="place" v="farm" />
		<tag k="ssr:stedsnr" v="641237" />
	</node>
	<node id="-552659" lat="62.7776833364" lon="7.22702777461">
		<tag k="historic" v="shieling" />
		<tag k="name" v="Leirgrovviksetra" />
		<tag k="place" v="locality" />
		<tag k="ssr:stedsnr" v="641231" />
	</node>
	<node id="-552658" lat="62.7696944557" lon="7.43348335177">
		<tag k="fixme" v="consider place=hamlet" />
		<tag k="name" v="Øygarden" />
		<tag k="place" v="farm" />
		<tag k="ssr:stedsnr" v="641223" />
	</node>
	<node id="-552657" lat="62.7129416664" lon="7.44348611328">
		<tag k="historic" v="shieling" />
		<tag k="name" v="Gammelsetra" />
		<tag k="place" v="locality" />
		<tag k="ssr:stedsnr" v="641209" />
	</node>
	<node id="-552640" lat="62.7678166649" lon="7.51725833125">
		<tag k="name" v="Solemdalsnausta" />
		<tag k="place" v="locality" />
		<tag k="ssr:stedsnr" v="640978" />
	</node>
	<node id="-552626" lat="62.7057694454" lon="7.5741444403">
		<tag k="name" v="Teigen" />
		<tag k="place" v="farm" />
		<tag k="ssr:stedsnr" v="637536" />
	</node>
	<node id="-552618" lat="62.7683981534" lon="7.42250159094">
		<tag k="fixme" v="consider place=hamlet" />
		<tag k="name" v="Hatlen" />
		<tag k="place" v="farm" />
		<tag k="ssr:stedsnr" v="619588" />
	</node>
	<node id="-552617" lat="62.7813556369" lon="7.48944604868">
		<tag k="fixme" v="consider place=hamlet" />
		<tag k="name" v="Hjelset" />
		<tag k="place" v="farm" />
		<tag k="ssr:stedsnr" v="618780" />
	</node>
	<node id="-552616" lat="62.7806027809" lon="7.47924999379">
		<tag k="name" v="Hagen" />
		<tag k="place" v="farm" />
		<tag k="ssr:stedsnr" v="618779" />
	</node>
	<node id="-552614" lat="62.7838424748" lon="7.70474511502">
		<tag k="fixme" v="consider place=hamlet" />
		<tag k="name" v="Sotåa" />
		<tag k="place" v="farm" />
		<tag k="ssr:stedsnr" v="618772" />
	</node>
	<node id="-552607" lat="62.8028388898" lon="7.67357500423">
		<tag k="name" v="Skallbøen" />
		<tag k="place" v="farm" />
		<tag k="ssr:stedsnr" v="618737" />
	</node>
	<node id="-552606" lat="62.8050553403" lon="7.67759165012">
		<tag k="fixme" v="consider place=hamlet" />
		<tag k="name" v="Lykkja" />
		<tag k="place" v="farm" />
		<tag k="ssr:stedsnr" v="618736" />
	</node>
	<node id="-552600" lat="62.6883084453" lon="7.4993317783">
		<tag k="fixme" v="consider place=hamlet" />
		<tag k="name" v="Malo" />
		<tag k="place" v="farm" />
		<tag k="ssr:stedsnr" v="618684" />
	</node>
	<node id="-552589" lat="62.7836083304" lon="7.54252778359">
		<tag k="name" v="Hungnes" />
		<tag k="place" v="isolated_dwelling" />
		<tag k="ssr:stedsnr" v="596828" />
	</node>
	<node id="-552559" lat="62.7774388888" lon="7.60373055927">
		<tag k="amenity" v="school" />
		<tag k="name" v="Risan skule" />
		<tag k="ssr:stedsnr" v="580752" />
	</node>
	<node id="-552551" lat="62.740552782" lon="7.15563333611">
		<tag k="leisure" v="pitch" />
		<tag k="name" v="Molde stadion" />
		<tag k="ssr:stedsnr" v="580699" />
	</node>
	<node id="-552544" lat="62.7409333369" lon="7.13369165823">
		<tag k="name" v="Cecilienfryd" />
		<tag k="place" v="farm" />
		<tag k="ssr:stedsnr" v="580602" />
	</node>
	<node id="-552526" lat="62.7512276647" lon="7.44498506453">
		<tag k="fixme" v="consider place=hamlet" />
		<tag k="name" v="Øvre Brokstad" />
		<tag k="place" v="farm" />
		<tag k="ssr:stedsnr" v="580221" />
	</node>
	<node id="-551174" lat="62.8045533008" lon="7.57171001176">
		<tag k="fixme" v="consider place=hamlet" />
		<tag k="name" v="Eidssetra" />
		<tag k="place" v="farm" />
		<tag k="ssr:stedsnr" v="315772" />
	</node>
	<node id="-552481" lat="62.7917722218" lon="7.62054722282">
		<tag k="name" v="Nesbøen" />
		<tag k="place" v="farm" />
		<tag k="ssr:stedsnr" v="558794" />
	</node>
	<node id="-552478" lat="62.8069166635" lon="7.58182221731">
		<tag k="name" v="Setra" />
		<tag k="place" v="farm" />
		<tag k="ssr:stedsnr" v="558766" />
	</node>
	<node id="-552474" lat="62.8205359914" lon="7.75626078633">
		<tag k="fixme" v="consider place=hamlet" />
		<tag k="name" v="Steinløysa" />
		<tag k="place" v="farm" />
		<tag k="ssr:stedsnr" v="558584" />
	</node>
	<node id="-552472" lat="62.7627694409" lon="7.60611389825">
		<tag k="historic" v="shieling" />
		<tag k="name" v="Kortgardsetra" />
		<tag k="place" v="locality" />
		<tag k="ssr:stedsnr" v="557818" />
	</node>
	<node id="-552471" lat="62.7552444474" lon="7.28535277307">
		<tag k="name" v="Myre" />
		<tag k="place" v="farm" />
		<tag k="ssr:stedsnr" v="557814" />
	</node>
	<node id="-552470" lat="62.7537972188" lon="7.2799527722">
		<tag k="name" v="Myrset" />
		<tag k="place" v="farm" />
		<tag k="ssr:stedsnr" v="557813" />
	</node>
	<node id="-552467" lat="62.7323888883" lon="7.39265833026">
		<tag k="name" v="Røvikhagen" />
		<tag k="place" v="farm" />
		<tag k="ssr:stedsnr" v="557788" />
	</node>
	<node id="-552465" lat="62.7175777742" lon="7.47977222231">
		<tag k="name" v="Nysetra" />
		<tag k="place" v="isolated_dwelling" />
		<tag k="ssr:stedsnr" v="557774" />
	</node>
	<node id="-552460" lat="62.6748333312" lon="7.29670556226">
		<tag k="name" v="Sollibygget" />
		<tag k="place" v="farm" />
		<tag k="ssr:stedsnr" v="557694" />
	</node>
	<node id="-552459" lat="62.6910222185" lon="7.41256943959">
		<tag k="name" v="Flovikhaugen" />
		<tag k="place" v="farm" />
		<tag k="ssr:stedsnr" v="557672" />
	</node>
	<node id="-552458" lat="62.693733337" lon="7.36319721539">
		<tag k="name" v="Øygarden" />
		<tag k="place" v="farm" />
		<tag k="ssr:stedsnr" v="557668" />
	</node>
	<node id="-552455" lat="62.7446541547" lon="7.20780588775">
		<tag k="fixme" v="consider place=hamlet" />
		<tag k="name" v="Øverland" />
		<tag k="place" v="farm" />
		<tag k="ssr:stedsnr" v="557107" />
	</node>
	<node id="-552454" lat="62.7460666622" lon="7.06605833062">
		<tag k="historic" v="shieling" />
		<tag k="name" v="Kringstadsetra" />
		<tag k="place" v="locality" />
		<tag k="ssr:stedsnr" v="557098" />
	</node>
	<node id="-552453" lat="62.7451388901" lon="6.99563610933">
		<tag k="name" v="Gauset" />
		<tag k="place" v="farm" />
		<tag k="ssr:stedsnr" v="557097" />
	</node>
	<node id="-551168" lat="62.7306000022" lon="7.42073610207">
		<tag k="name" v="Borvik" />
		<tag k="place" v="farm" />
		<tag k="ssr:stedsnr" v="315807" />
	</node>
	<node id="-552423" lat="62.757991663" lon="7.15249723109">
		<tag k="historic" v="shieling" />
		<tag k="name" v="Reknesstølen" />
		<tag k="place" v="locality" />
		<tag k="ssr:stedsnr" v="520730" />
	</node>
	<node id="-552420" lat="62.7401222195" lon="7.20824999461">
		<tag k="name" v="Tøndergård" />
		<tag k="place" v="suburb" />
		<tag k="ssr:stedsnr" v="520707" />
	</node>
	<node id="-552418" lat="62.7281972226" lon="7.03574999719">
		<tag k="name" v="Sagstøa" />
		<tag k="place" v="locality" />
		<tag k="ssr:stedsnr" v="520700" />
	</node>
	<node id="-551163" lat="62.6601558536" lon="7.24034357355">
		<tag k="fixme" v="consider place=hamlet" />
		<tag k="name" v="Skogvika" />
		<tag k="place" v="farm" />
		<tag k="ssr:stedsnr" v="315740" />
	</node>
	<node id="-552415" lat="62.7597249978" lon="7.19847778517">
		<tag k="historic" v="shieling" />
		<tag k="name" v="Øverlandsetra" />
		<tag k="place" v="locality" />
		<tag k="ssr:stedsnr" v="520660" />
	</node>
	<node id="-552409" lat="62.7287277797" lon="7.04020000047">
		<tag k="name" v="Nesaplassen" />
		<tag k="place" v="locality" />
		<tag k="ssr:stedsnr" v="520500" />
	</node>
	<node id="-552398" lat="62.8171388914" lon="7.65145277481">
		<tag k="historic" v="shieling" />
		<tag k="name" v="Romoldsetra" />
		<tag k="place" v="locality" />
		<tag k="ssr:stedsnr" v="520277" />
	</node>
	<node id="-552397" lat="62.8228166647" lon="7.73284167126">
		<tag k="name" v="Åbakken" />
		<tag k="place" v="isolated_dwelling" />
		<tag k="ssr:stedsnr" v="520278" />
	</node>
	<node id="-552396" lat="62.7443999989" lon="7.43028610731">
		<tag k="historic" v="shieling" />
		<tag k="name" v="Setra" />
		<tag k="place" v="locality" />
		<tag k="ssr:stedsnr" v="520262" />
	</node>
	<node id="-552395" lat="62.6681777757" lon="7.24173889001">
		<tag k="name" v="Melvik" />
		<tag k="place" v="farm" />
		<tag k="ssr:stedsnr" v="520250" />
	</node>
	<node id="-551159" lat="62.7603022363" lon="7.47083610042">
		<tag k="fixme" v="consider place=hamlet" />
		<tag k="name" v="Stranda" />
		<tag k="place" v="farm" />
		<tag k="ssr:stedsnr" v="314837" />
	</node>
	<node id="-551157" lat="62.7295944473" lon="7.33532500058">
		<tag k="alt_name" v="Neset, søre" />
		<tag k="name" v="Søre Neset" />
		<tag k="place" v="farm" />
		<tag k="ssr:stedsnr" v="314814" />
	</node>
	<node id="-552349" lat="62.810578976" lon="7.70114534593">
		<tag k="fixme" v="consider place=hamlet" />
		<tag k="name" v="Amundsgarden" />
		<tag k="place" v="farm" />
		<tag k="ssr:stedsnr" v="498754" />
	</node>
	<node id="-552343" lat="62.7250111154" lon="7.41653611315">
		<tag k="name" v="Geitneshaugen" />
		<tag k="place" v="farm" />
		<tag k="ssr:stedsnr" v="497800" />
	</node>
	<node id="-552337" lat="62.7489333348" lon="7.4971888811">
		<tag k="name" v="Gjerdebø" />
		<tag k="place" v="farm" />
		<tag k="ssr:stedsnr" v="497773" />
	</node>
	<node id="-552334" lat="62.7913210507" lon="7.51353646541">
		<tag k="fixme" v="consider place=hamlet" />
		<tag k="name" v="Berg" />
		<tag k="place" v="farm" />
		<tag k="ssr:stedsnr" v="497758" />
	</node>
	<node id="-552332" lat="62.662950001" lon="7.37432222596">
		<tag k="name" v="Skaret" />
		<tag k="place" v="isolated_dwelling" />
		<tag k="ssr:stedsnr" v="497733" />
	</node>
	<node id="-552330" lat="62.672969445" lon="7.30436944747">
		<tag k="name" v="Seterbø" />
		<tag k="place" v="farm" />
		<tag k="ssr:stedsnr" v="497715" />
	</node>
	<node id="-552324" lat="62.7298702122" lon="7.03501439731">
		<tag k="fixme" v="consider place=hamlet" />
		<tag k="name" v="Haukabøen" />
		<tag k="place" v="farm" />
		<tag k="ssr:stedsnr" v="497059" />
	</node>
	<node id="-552323" lat="62.7302148182" lon="7.32708103696">
		<tag k="fixme" v="consider place=hamlet" />
		<tag k="loc_name" v="Bolsøya" />
		<tag k="name" v="Bolsøy" />
		<tag k="place" v="farm" />
		<tag k="ssr:stedsnr" v="496813" />
	</node>
	<node id="-552322" lat="62.7386565327" lon="7.37511514177">
		<tag k="fixme" v="consider place=hamlet" />
		<tag k="name" v="Dvergsneset" />
		<tag k="place" v="farm" />
		<tag k="ssr:stedsnr" v="496769" />
	</node>
	<node id="-552320" lat="62.6979472251" lon="7.45302777194">
		<tag k="name" v="Bergsvik" />
		<tag k="place" v="farm" />
		<tag k="ssr:stedsnr" v="496702" />
	</node>
	<node id="-552318" lat="62.7341166753" lon="7.06995502868">
		<tag k="fixme" v="consider place=hamlet" />
		<tag k="name" v="Kringstad" />
		<tag k="place" v="farm" />
		<tag k="ssr:stedsnr" v="496065" />
	</node>
	<node id="-552307" lat="62.7850161898" lon="7.53207851884">
		<tag k="fixme" v="consider place=hamlet" />
		<tag k="name" v="Skjevik" />
		<tag k="place" v="farm" />
		<tag k="ssr:stedsnr" v="460349" />
	</node>
	<node id="-552306" lat="62.7428888911" lon="7.45886666799">
		<tag k="historic" v="shieling" />
		<tag k="name" v="Gamle Røviksetra" />
		<tag k="place" v="locality" />
		<tag k="ssr:stedsnr" v="460334" />
	</node>
	<node id="-552303" lat="62.7221361151" lon="7.41056389808">
		<tag k="name" v="Skaget" />
		<tag k="place" v="farm" />
		<tag k="ssr:stedsnr" v="460309" />
	</node>
	<node id="-552295" lat="62.6597305531" lon="7.25168610667">
		<tag k="historic" v="shieling" />
		<tag k="name" v="Skoviksetra" />
		<tag k="place" v="locality" />
		<tag k="ssr:stedsnr" v="459950" />
	</node>
	<node id="-552260" lat="62.73283611" lon="7.01043610826">
		<tag k="name" v="Bjerkalia" />
		<tag k="place" v="farm" />
		<tag k="ssr:stedsnr" v="459640" />
	</node>
	<node id="-552259" lat="62.7282083332" lon="7.02071943897">
		<tag k="name" v="Gjerdet" />
		<tag k="place" v="farm" />
		<tag k="ssr:stedsnr" v="459641" />
	</node>
	<node id="-552258" lat="62.739841665" lon="7.12796111942">
		<tag k="name" v="Glomstua" />
		<tag k="place" v="farm" />
		<tag k="ssr:stedsnr" v="459637" />
	</node>
	<node id="-552248" lat="62.7728277807" lon="7.45652778576">
		<tag k="name" v="Mjelvehagen" />
		<tag k="place" v="farm" />
		<tag k="ssr:stedsnr" v="459254" />
	</node>
	<node id="-552193" lat="62.7933444427" lon="7.70382222091">
		<tag k="name" v="Plassen" />
		<tag k="place" v="farm" />
		<tag k="ssr:stedsnr" v="437762" />
	</node>
	<node id="-552192" lat="62.7905361106" lon="7.60633333203">
		<tag k="name" v="Einen" />
		<tag k="place" v="farm" />
		<tag k="ssr:stedsnr" v="437754" />
	</node>
	<node id="-552188" lat="62.6540767303" lon="7.34514740371">
		<tag k="fixme" v="consider place=hamlet" />
		<tag k="name" v="Eik" />
		<tag k="place" v="farm" />
		<tag k="ssr:stedsnr" v="437626" />
	</node>
	<node id="-552182" lat="62.7507737703" lon="7.43567014803">
		<tag k="fixme" v="consider place=hamlet" />
		<tag k="name" v="Brokstad" />
		<tag k="place" v="farm" />
		<tag k="ssr:stedsnr" v="436822" />
	</node>
	<node id="-552177" lat="62.7742422983" lon="7.46649922835">
		<tag k="name" v="Ura" />
		<tag k="place" v="hamlet" />
		<tag k="ssr:stedsnr" v="436789" />
	</node>
	<node id="-552171" lat="62.6744944402" lon="7.30270277401">
		<tag k="name" v="Seterneset" />
		<tag k="place" v="farm" />
		<tag k="ssr:stedsnr" v="436721" />
	</node>
	<node id="-552170" lat="62.6783098528" lon="7.26622723241">
		<tag k="fixme" v="consider place=hamlet" />
		<tag k="name" v="Vedalshaugen" />
		<tag k="place" v="farm" />
		<tag k="ssr:stedsnr" v="436707" />
	</node>
	<node id="-552169" lat="62.6907527818" lon="7.44935833069">
		<tag k="name" v="Skogtun" />
		<tag k="place" v="farm" />
		<tag k="ssr:stedsnr" v="436699" />
	</node>
	<node id="-552162" lat="62.7542083369" lon="7.30109999173">
		<tag k="name" v="Røbekk" />
		<tag k="place" v="farm" />
		<tag k="ssr:stedsnr" v="424848" />
	</node>
	<node id="-552161" lat="62.7380138932" lon="7.15879721573">
		<tag k="amenity" v="townhall" />
		<tag k="name" v="Molde rådhus" />
		<tag k="ssr:stedsnr" v="422621" />
	</node>
	<node id="-552156" lat="62.8011222241" lon="7.54265833554">
		<tag k="name" v="Lunde" />
		<tag k="place" v="farm" />
		<tag k="ssr:stedsnr" v="255821" />
	</node>
	<node id="-552154" lat="62.8077388919" lon="7.70423056416">
		<tag k="name" v="Saglia" />
		<tag k="place" v="farm" />
		<tag k="ssr:stedsnr" v="255803" />
	</node>
	<node id="-552153" lat="62.8011545772" lon="7.66167161494">
		<tag k="fixme" v="consider place=hamlet" />
		<tag k="name" v="Skalle" />
		<tag k="place" v="farm" />
		<tag k="ssr:stedsnr" v="255801" />
	</node>
	<node id="-552150" lat="62.793313888" lon="7.52640000197">
		<tag k="name" v="Flatmark" />
		<tag k="place" v="farm" />
		<tag k="ssr:stedsnr" v="255791" />
	</node>
	<node id="-552149" lat="62.7882388908" lon="7.33915277888">
		<tag k="historic" v="shieling" />
		<tag k="name" v="Elsåssetra" />
		<tag k="place" v="locality" />
		<tag k="ssr:stedsnr" v="255787" />
	</node>
	<node id="-552148" lat="62.7953722201" lon="7.62514445394">
		<tag k="name" v="Geilen" />
		<tag k="place" v="farm" />
		<tag k="ssr:stedsnr" v="255780" />
	</node>
	<node id="-552146" lat="62.8079999983" lon="7.58408333884">
		<tag k="name" v="Seterlia" />
		<tag k="place" v="farm" />
		<tag k="ssr:stedsnr" v="255748" />
	</node>
	<node id="-552483" lat="62.7951611137" lon="7.52709167108">
		<tag k="name" v="Nakken" />
		<tag k="place" v="farm" />
		<tag k="ssr:stedsnr" v="558806" />
	</node>
	<node id="-552144" lat="62.7562076022" lon="7.32618012327">
		<tag k="fixme" v="consider place=hamlet" />
		<tag k="name" v="Strande" />
		<tag k="place" v="farm" />
		<tag k="ssr:stedsnr" v="254828" />
	</node>
	<node id="-552143" lat="62.7664488169" lon="7.40681771868">
		<tag k="fixme" v="consider place=hamlet" />
		<tag k="name" v="Sigerset" />
		<tag k="place" v="farm" />
		<tag k="ssr:stedsnr" v="254827" />
	</node>
	<node id="-552142" lat="62.7620666674" lon="7.62224721624">
		<tag k="name" v="Tjørhjellhaugen" />
		<tag k="place" v="isolated_dwelling" />
		<tag k="ssr:stedsnr" v="254818" />
	</node>
	<node id="-552141" lat="62.7512500032" lon="7.29047777406">
		<tag k="name" v="Nyhagen" />
		<tag k="place" v="farm" />
		<tag k="ssr:stedsnr" v="254814" />
	</node>
	<node id="-552140" lat="62.726058329" lon="7.30390834271">
		<tag k="name" v="Hals" />
		<tag k="place" v="farm" />
		<tag k="ssr:stedsnr" v="254792" />
	</node>
	<node id="-552137" lat="62.7848316366" lon="7.53176044713">
		<tag k="name" v="Vika" />
		<tag k="place" v="farm" />
		<tag k="ssr:stedsnr" v="254774" />
	</node>
	<node id="-552136" lat="62.7773875384" lon="7.61880505748">
		<tag k="fixme" v="consider place=hamlet" />
		<tag k="name" v="Kortgarden" />
		<tag k="place" v="farm" />
		<tag k="ssr:stedsnr" v="254772" />
	</node>
	<node id="-552135" lat="62.7761791034" lon="7.47214215858">
		<tag k="fixme" v="consider place=hamlet" />
		<tag k="name" v="Mork" />
		<tag k="place" v="farm" />
		<tag k="ssr:stedsnr" v="254770" />
	</node>
	<node id="-552134" lat="62.7718138175" lon="7.4463339425">
		<tag k="fixme" v="consider place=hamlet" />
		<tag k="name" v="Mjelve" />
		<tag k="place" v="farm" />
		<tag k="ssr:stedsnr" v="254766" />
	</node>
	<node id="-552131" lat="62.7452916666" lon="7.25698888885">
		<tag k="name" v="Årø" />
		<tag k="place" v="suburb" />
		<tag k="ssr:stedsnr" v="254748" />
	</node>
	<node id="-552130" lat="62.7418136728" lon="7.39592579034">
		<tag k="fixme" v="consider place=hamlet" />
		<tag k="name" v="Grønneset" />
		<tag k="place" v="farm" />
		<tag k="ssr:stedsnr" v="254747" />
	</node>
	<node id="-552129" lat="62.7454027801" lon="7.54636667599">
		<tag k="name" v="Bakkesetra" />
		<tag k="place" v="isolated_dwelling" />
		<tag k="ssr:stedsnr" v="254743" />
	</node>
	<node id="-552125" lat="62.6947899248" lon="7.52520107833">
		<tag k="alt_name" v="Hegneset" />
		<tag k="fixme" v="consider place=hamlet" />
		<tag k="name" v="Heggenes" />
		<tag k="place" v="farm" />
		<tag k="ssr:stedsnr" v="254688" />
	</node>
	<node id="-552124" lat="62.6965111126" lon="7.47110277961">
		<tag k="name" v="Granli" />
		<tag k="place" v="isolated_dwelling" />
		<tag k="ssr:stedsnr" v="254683" />
	</node>
	<node id="-552117" lat="62.7353812326" lon="7.10932698419">
		<tag k="name" v="Stenrud" />
		<tag k="place" v="farm" />
		<tag k="ssr:stedsnr" v="254052" />
	</node>
	<node id="-552094" lat="62.6972333339" lon="7.42433333898">
		<tag k="name" v="Saksegjerdet" />
		<tag k="place" v="quarter" />
		<tag k="ssr:stedsnr" v="217831" />
	</node>
	<node id="-552072" lat="62.7311555542" lon="7.05618889341">
		<tag k="name" v="Hatlevika" />
		<tag k="place" v="isolated_dwelling" />
		<tag k="ssr:stedsnr" v="217636" />
	</node>
	<node id="-552061" lat="62.8276111083" lon="7.78316944942">
		<tag k="name" v="Forhaugen" />
		<tag k="place" v="farm" />
		<tag k="ssr:stedsnr" v="217287" />
	</node>
	<node id="-552060" lat="62.7421388873" lon="7.22379722893">
		<tag k="alt_name" v="Nøysomhet" />
		<tag k="name" v="Nøisomhed" />
		<tag k="place" v="farm" />
		<tag k="ssr:stedsnr" v="217277" />
	</node>
	<node id="-552059" lat="62.7544222211" lon="7.51324445046">
		<tag k="name" v="Solstad" />
		<tag k="place" v="farm" />
		<tag k="ssr:stedsnr" v="217269" />
	</node>
	<node id="-552058" lat="62.7475175651" lon="7.49133889862">
		<tag k="fixme" v="consider place=hamlet" />
		<tag k="name" v="Solemdalsgjerdet" />
		<tag k="place" v="farm" />
		<tag k="ssr:stedsnr" v="217267" />
	</node>
	<node id="-552057" lat="62.7182944467" lon="7.42883055094">
		<tag k="name" v="Vågen" />
		<tag k="place" v="farm" />
		<tag k="ssr:stedsnr" v="217266" />
	</node>
	<node id="-552022" lat="62.7456972253" lon="7.22854999818">
		<tag k="name" v="Kviltorp" />
		<tag k="place" v="suburb" />
		<tag k="ssr:stedsnr" v="203048" />
	</node>
	<node id="-552020" lat="62.8132030198" lon="7.71591464881">
		<tag k="fixme" v="consider place=hamlet" />
		<tag k="name" v="Istad" />
		<tag k="place" v="farm" />
		<tag k="ssr:stedsnr" v="195736" />
	</node>
	<node id="-552019" lat="62.7915628453" lon="7.72514582955">
		<tag k="fixme" v="consider place=hamlet" />
		<tag k="name" v="Øyra" />
		<tag k="place" v="farm" />
		<tag k="ssr:stedsnr" v="195600" />
	</node>
	<node id="-552017" lat="62.7991915454" lon="7.54376127225">
		<tag k="fixme" v="consider place=hamlet" />
		<tag k="name" v="Roaldset" />
		<tag k="place" v="farm" />
		<tag k="ssr:stedsnr" v="194766" />
	</node>
	<node id="-552014" lat="62.7971656144" lon="7.64273789435">
		<tag k="fixme" v="consider place=hamlet" />
		<tag k="name" v="Grovan" />
		<tag k="place" v="farm" />
		<tag k="ssr:stedsnr" v="194734" />
	</node>
	<node id="-552013" lat="62.7951833355" lon="7.63691943936">
		<tag k="fixme" v="consider place=hamlet" />
		<tag k="name" v="Kleive" />
		<tag k="place" v="village" />
		<tag k="ssr:stedsnr" v="194732" />
	</node>
	<node id="-552009" lat="62.8226555554" lon="7.73248333941">
		<tag k="historic" v="shieling" />
		<tag k="name" v="Gammelsetra" />
		<tag k="place" v="locality" />
		<tag k="ssr:stedsnr" v="194507" />
	</node>
	<node id="-552007" lat="62.7675500005" lon="7.41917223065">
		<tag k="name" v="Hatlen" />
		<tag k="place" v="farm" />
		<tag k="ssr:stedsnr" v="193851" />
	</node>
	<node id="-552005" lat="62.7529361136" lon="7.28221388209">
		<tag k="name" v="Berglund" />
		<tag k="place" v="farm" />
		<tag k="ssr:stedsnr" v="193835" />
	</node>
	<node id="-552004" lat="62.7613223303" lon="7.52853382373">
		<tag k="fixme" v="consider place=hamlet" />
		<tag k="name" v="Tollåsen" />
		<tag k="place" v="farm" />
		<tag k="ssr:stedsnr" v="193833" />
	</node>
	<node id="-552003" lat="62.7550027737" lon="7.51399444695">
		<tag k="name" v="Nørdbøen" />
		<tag k="place" v="farm" />
		<tag k="ssr:stedsnr" v="193831" />
	</node>
	<node id="-552002" lat="62.7509813275" lon="7.50708842452">
		<tag k="fixme" v="consider place=hamlet" />
		<tag k="name" v="Solemdalen" />
		<tag k="place" v="farm" />
		<tag k="ssr:stedsnr" v="193829" />
	</node>
	<node id="-552001" lat="62.7288055547" lon="7.3323750084">
		<tag k="name" v="Bergly" />
		<tag k="place" v="farm" />
		<tag k="ssr:stedsnr" v="193814" />
	</node>
	<node id="-552000" lat="62.7262518043" lon="7.42115453226">
		<tag k="fixme" v="consider place=hamlet" />
		<tag k="name" v="Geitnes" />
		<tag k="place" v="farm" />
		<tag k="ssr:stedsnr" v="193805" />
	</node>
	<node id="-551998" lat="62.7237166684" lon="7.41398333367">
		<tag k="name" v="Båtneset" />
		<tag k="place" v="farm" />
		<tag k="ssr:stedsnr" v="193802" />
	</node>
	<node id="-551994" lat="62.7215638864" lon="7.40922778518">
		<tag k="name" v="Geitnesskaget" />
		<tag k="place" v="farm" />
		<tag k="ssr:stedsnr" v="193790" />
	</node>
	<node id="-551992" lat="62.7759843999" lon="7.57926317579">
		<tag k="fixme" v="consider place=hamlet" />
		<tag k="name" v="Mauset" />
		<tag k="place" v="farm" />
		<tag k="ssr:stedsnr" v="193781" />
	</node>
	<node id="-551991" lat="62.7727888858" lon="7.4582555545">
		<tag k="name" v="Hagen" />
		<tag k="place" v="farm" />
		<tag k="ssr:stedsnr" v="193776" />
	</node>
	<node id="-551990" lat="62.7592222212" lon="7.31873056437">
		<tag k="name" v="Frydenlund" />
		<tag k="place" v="farm" />
		<tag k="ssr:stedsnr" v="193772" />
	</node>
	<node id="-551987" lat="62.7307027819" lon="7.34013610784">
		<tag k="name" v="Nygjerdet" />
		<tag k="place" v="farm" />
		<tag k="ssr:stedsnr" v="193745" />
	</node>
	<node id="-551984" lat="62.7402222205" lon="7.52646389031">
		<tag k="name" v="Solemdalssetra" />
		<tag k="place" v="isolated_dwelling" />
		<tag k="ssr:stedsnr" v="193739" />
	</node>
	<node id="-551983" lat="62.6951903135" lon="7.3793057141">
		<tag k="fixme" v="consider place=hamlet" />
		<tag k="name" v="Sørnesje" />
		<tag k="place" v="farm" />
		<tag k="ssr:stedsnr" v="193679" />
	</node>
	<node id="-551978" lat="62.7360120845" lon="6.98134071454">
		<tag k="fixme" v="consider place=hamlet" />
		<tag k="name" v="Julbøen" />
		<tag k="place" v="farm" />
		<tag k="ssr:stedsnr" v="193070" />
	</node>
	<node id="-551977" lat="62.7377432598" lon="7.17971339649">
		<tag k="fixme" v="consider place=hamlet" />
		<tag k="name" v="Moldegård" />
		<tag k="place" v="farm" />
		<tag k="ssr:stedsnr" v="193065" />
	</node>
	<node id="-551973" lat="62.7553638888" lon="7.30469443727">
		<tag k="name" v="Røbekk" />
		<tag k="place" v="farm" />
		<tag k="ssr:stedsnr" v="181863" />
	</node>
	<node id="-551968" lat="62.7310305538" lon="7.28294165787">
		<tag k="name" v="Torhus" />
		<tag k="place" v="farm" />
		<tag k="ssr:stedsnr" v="159016" />
	</node>
	<node id="-551948" lat="62.6967447911" lon="7.43229595466">
		<tag k="fixme" v="consider place=hamlet" />
		<tag k="name" v="Hamnavika" />
		<tag k="place" v="farm" />
		<tag k="ssr:stedsnr" v="156844" />
	</node>
	<node id="-551938" lat="62.7381472192" lon="7.14825278412">
		<tag k="leisure" v="park" />
		<tag k="name" v="Reknesparken" />
		<tag k="ssr:stedsnr" v="156720" />
	</node>
	<node id="-551926" lat="62.7532166709" lon="7.11518333718">
		<tag k="historic" v="shieling" />
		<tag k="name" v="Preuthunsetra" />
		<tag k="place" v="locality" />
		<tag k="ssr:stedsnr" v="156636" />
	</node>
	<node id="-551907" lat="62.7918472221" lon="7.73567777459">
		<tag k="name" v="Røra" />
		<tag k="place" v="farm" />
		<tag k="ssr:stedsnr" v="156245" />
	</node>
	<node id="-551905" lat="62.7131333304" lon="7.49116944362">
		<tag k="historic" v="shieling" />
		<tag k="name" v="Gammelseterstølen" />
		<tag k="place" v="locality" />
		<tag k="ssr:stedsnr" v="156222" />
	</node>
	<node id="-551900" lat="62.7493694435" lon="7.23488333181">
		<tag k="name" v="Indre Fanbostad" />
		<tag k="place" v="village" />
		<tag k="ssr:stedsnr" v="156168" />
	</node>
	<node id="-551866" lat="62.7509578989" lon="7.25279432238">
		<tag k="fixme" v="consider place=hamlet" />
		<tag k="name" v="Eikrem" />
		<tag k="place" v="farm" />
		<tag k="ssr:stedsnr" v="133765" />
	</node>
	<node id="-551862" lat="62.7918611796" lon="7.61643134334">
		<tag k="alt_name" v="Ytre Nes;Nes, ytre" />
		<tag k="fixme" v="consider place=hamlet" />
		<tag k="name" v="Nes" />
		<tag k="place" v="farm" />
		<tag k="ssr:stedsnr" v="133735" />
	</node>
	<node id="-551861" lat="62.8243638898" lon="7.68393055374">
		<tag k="historic" v="shieling" />
		<tag k="name" v="Øverlisetra" />
		<tag k="place" v="locality" />
		<tag k="ssr:stedsnr" v="133728" />
	</node>
	<node id="-551860" lat="62.796166805" lon="7.71924370306">
		<tag k="fixme" v="consider place=hamlet" />
		<tag k="name" v="Midthaugan" />
		<tag k="place" v="farm" />
		<tag k="ssr:stedsnr" v="133562" />
	</node>
	<node id="-551859" lat="62.8028072957" lon="7.75793747452">
		<tag k="fixme" v="consider place=hamlet" />
		<tag k="name" v="Aspholen" />
		<tag k="place" v="farm" />
		<tag k="ssr:stedsnr" v="133536" />
	</node>
	<node id="-551858" lat="62.8008567231" lon="7.7353779241">
		<tag k="fixme" v="consider place=hamlet" />
		<tag k="name" v="Nordhaugan" />
		<tag k="place" v="farm" />
		<tag k="ssr:stedsnr" v="133535" />
	</node>
	<node id="-551857" lat="62.8160090458" lon="7.73825480664">
		<tag k="fixme" v="consider place=hamlet" />
		<tag k="name" v="Øygarden" />
		<tag k="place" v="farm" />
		<tag k="ssr:stedsnr" v="133524" />
	</node>
	<node id="-551854" lat="62.730244446" lon="7.3220222153">
		<tag k="name" v="Torhaug" />
		<tag k="place" v="farm" />
		<tag k="ssr:stedsnr" v="132809" />
	</node>
	<node id="-551853" lat="62.7289416659" lon="7.42082222425">
		<tag k="fixme" v="consider place=hamlet" />
		<tag k="loc_name" v="Røvik" />
		<tag k="name" v="Røvika" />
		<tag k="place" v="village" />
		<tag k="ssr:stedsnr" v="132804" />
	</node>
	<node id="-551852" lat="62.730652779" lon="7.42466666398">
		<tag k="name" v="Lauvåsen" />
		<tag k="place" v="farm" />
		<tag k="ssr:stedsnr" v="132805" />
	</node>
	<node id="-551849" lat="62.7713174522" lon="7.53704865462">
		<tag k="fixme" v="consider place=hamlet" />
		<tag k="name" v="Talset" />
		<tag k="place" v="farm" />
		<tag k="ssr:stedsnr" v="132788" />
	</node>
	<node id="-551848" lat="62.7660027806" lon="7.27450277226">
		<tag k="name" v="Slemmestad" />
		<tag k="place" v="locality" />
		<tag k="ssr:stedsnr" v="132781" />
	</node>
	<node id="-551847" lat="62.7772280559" lon="7.64521109272">
		<tag k="fixme" v="consider place=hamlet" />
		<tag k="name" v="Ullaland" />
		<tag k="place" v="farm" />
		<tag k="ssr:stedsnr" v="132773" />
	</node>
	<node id="-551844" lat="62.6916260563" lon="7.41597978799">
		<tag k="fixme" v="consider place=hamlet" />
		<tag k="name" v="Flovikholmen" />
		<tag k="place" v="farm" />
		<tag k="ssr:stedsnr" v="132705" />
	</node>
	<node id="-551843" lat="62.7445550793" lon="6.99497229901">
		<tag k="fixme" v="consider place=hamlet" />
		<tag k="name" v="Gauset" />
		<tag k="place" v="farm" />
		<tag k="ssr:stedsnr" v="132096" />
	</node>
	<node id="-551842" lat="62.7441550619" lon="7.19853570752">
		<tag k="name" v="Fuglset" />
		<tag k="place" v="suburb" />
		<tag k="ssr:stedsnr" v="132093" />
	</node>
	<node id="-551840" lat="62.7483027811" lon="7.06199721719">
		<tag k="historic" v="shieling" />
		<tag k="name" v="Haukabøsetra" />
		<tag k="place" v="locality" />
		<tag k="ssr:stedsnr" v="132080" />
	</node>
	<node id="-551837" lat="62.8018472223" lon="7.65390832367">
		<tag k="name" v="Indre Romold" />
		<tag k="old_name" v="Raumold indre" />
		<tag k="place" v="farm" />
		<tag k="ssr:stedsnr" v="120856" />
	</node>
	<node id="-551836" lat="62.7538861095" lon="7.3034861126">
		<tag k="name" v="Røbekk" />
		<tag k="place" v="farm" />
		<tag k="ssr:stedsnr" v="120853" />
	</node>
	<node id="-551796" lat="62.7467055525" lon="7.12668887971">
		<tag k="historic" v="shieling" />
		<tag k="name" v="Hjertsetra" />
		<tag k="place" v="locality" />
		<tag k="ssr:stedsnr" v="95704" />
	</node>
	<node id="-551786" lat="62.7608777791" lon="7.15137500191">
		<tag k="name" v="Skihytta" />
		<tag k="place" v="isolated_dwelling" />
		<tag k="ssr:stedsnr" v="95614" />
	</node>
	<node id="-551779" lat="62.7427000002" lon="6.99305554619">
		<tag k="name" v="Gausetgjerdet" />
		<tag k="place" v="farm" />
		<tag k="ssr:stedsnr" v="95422" />
	</node>
	<node id="-551767" lat="62.8298972246" lon="7.78405555385">
		<tag k="name" v="Solligjerdet" />
		<tag k="place" v="farm" />
		<tag k="ssr:stedsnr" v="95164" />
	</node>
	<node id="-551763" lat="62.7503833326" lon="7.23415833591">
		<tag k="name" v="Ytre Fanbostad" />
		<tag k="place" v="village" />
		<tag k="ssr:stedsnr" v="95158" />
	</node>
	<node id="-551731" lat="62.7980694438" lon="7.67799722791">
		<tag k="name" v="Solheim" />
		<tag k="place" v="farm" />
		<tag k="ssr:stedsnr" v="95236" />
	</node>
	<node id="-551727" lat="62.690705861" lon="7.45700333632">
		<tag k="fixme" v="consider place=hamlet" />
		<tag k="name" v="Vik" />
		<tag k="place" v="farm" />
		<tag k="ssr:stedsnr" v="95208" />
	</node>
	<node id="-551726" lat="62.6877388877" lon="7.46504444166">
		<tag k="name" v="Gjerdet" />
		<tag k="place" v="farm" />
		<tag k="ssr:stedsnr" v="95206" />
	</node>
	<node id="-551725" lat="62.685722225" lon="7.470644447">
		<tag k="name" v="Breivika" />
		<tag k="place" v="farm" />
		<tag k="ssr:stedsnr" v="95207" />
	</node>
	<node id="-551722" lat="62.7091861152" lon="7.59763610877">
		<tag k="name" v="Stranda" />
		<tag k="place" v="farm" />
		<tag k="ssr:stedsnr" v="92484" />
	</node>
	<node id="-551720" lat="62.6855666685" lon="7.45482777266">
		<tag k="name" v="Sølsnes" />
		<tag k="place" v="hamlet" />
		<tag k="ssr:stedsnr" v="83297" />
	</node>
	<node id="-551713" lat="62.7868555512" lon="7.33468055368">
		<tag k="historic" v="shieling" />
		<tag k="name" v="Røbekksetra" />
		<tag k="place" v="locality" />
		<tag k="ssr:stedsnr" v="73765" />
	</node>
	<node id="-551710" lat="62.8305277774" lon="7.69596388446">
		<tag k="historic" v="shieling" />
		<tag k="name" v="Langlia" />
		<tag k="place" v="locality" />
		<tag k="ssr:stedsnr" v="73746" />
	</node>
	<node id="-551707" lat="62.6599868752" lon="7.38144340045">
		<tag k="fixme" v="consider place=hamlet" />
		<tag k="name" v="Sekkenes" />
		<tag k="place" v="farm" />
		<tag k="ssr:stedsnr" v="73639" />
	</node>
	<node id="-551705" lat="62.7606947669" lon="7.37043239451">
		<tag k="fixme" v="consider place=hamlet" />
		<tag k="name" v="Lønset" />
		<tag k="place" v="farm" />
		<tag k="ssr:stedsnr" v="72816" />
	</node>
	<node id="-551704" lat="62.7543614575" lon="7.3085422019">
		<tag k="alt_name" v="Elgsås" />
		<tag k="fixme" v="consider place=hamlet" />
		<tag k="name" v="Elsås" />
		<tag k="place" v="farm" />
		<tag k="ssr:stedsnr" v="72805" />
	</node>
	<node id="-551702" lat="62.753280227" lon="7.29867983318">
		<tag k="fixme" v="consider place=hamlet" />
		<tag k="name" v="Røbekk" />
		<tag k="place" v="farm" />
		<tag k="ssr:stedsnr" v="72804" />
	</node>
	<node id="-551700" lat="62.7804999965" lon="7.49277222894">
		<tag k="name" v="Hjelset" />
		<tag k="place" v="village" />
		<tag k="ssr:stedsnr" v="72784" />
	</node>
	<node id="-551698" lat="62.7803027751" lon="7.51250556331">
		<tag k="amenity" v="hospital" />
		<tag k="name" v="Oppdøl sjukehus" />
		<tag k="old_name" v="Oppdøl" />
		<tag k="ssr:stedsnr" v="72775" />
	</node>
	<node id="-551694" lat="62.7479416637" lon="7.23651388069">
		<tag k="name" v="Solvang" />
		<tag k="place" v="farm" />
		<tag k="ssr:stedsnr" v="72759" />
	</node>
	<node id="-551693" lat="62.7482111096" lon="7.49090278521">
		<tag k="name" v="Gjerdet" />
		<tag k="place" v="farm" />
		<tag k="ssr:stedsnr" v="72752" />
	</node>
	<node id="-551688" lat="62.6943055551" lon="7.39099443891">
		<tag k="name" v="Nytun" />
		<tag k="place" v="farm" />
		<tag k="ssr:stedsnr" v="72681" />
	</node>
	<node id="-551687" lat="62.7048862495" lon="7.56852380614">
		<tag k="fixme" v="consider place=hamlet" />
		<tag k="name" v="Reitan" />
		<tag k="place" v="farm" />
		<tag k="ssr:stedsnr" v="72677" />
	</node>
	<node id="-551685" lat="62.698583331" lon="7.37723612038">
		<tag k="fixme" v="consider place=hamlet" />
		<tag k="name" v="Nordnesje" />
		<tag k="place" v="farm" />
		<tag k="ssr:stedsnr" v="72670" />
	</node>
	<node id="-551684" lat="62.7536555547" lon="7.29948888771">
		<tag k="name" v="Røbekk" />
		<tag k="place" v="farm" />
		<tag k="ssr:stedsnr" v="60876" />
	</node>
	<node id="-551683" lat="62.7409000033" lon="7.19449721923">
		<tag k="name" v="Nedre Fuglset" />
		<tag k="place" v="isolated_dwelling" />
		<tag k="ssr:stedsnr" v="58825" />
	</node>
	<node id="-551681" lat="62.7625055539" lon="6.99974721938">
		<tag k="name" v="Nordgard" />
		<tag k="place" v="farm" />
		<tag k="ssr:stedsnr" v="51132" />
	</node>
	<node id="-551663" lat="62.6627083335" lon="7.37488888542">
		<tag k="name" v="Skaret" />
		<tag k="place" v="farm" />
		<tag k="ssr:stedsnr" v="35313" />
	</node>
	<node id="-551661" lat="62.7374722241" lon="7.38888611016">
		<tag k="name" v="Reiten" />
		<tag k="place" v="farm" />
		<tag k="ssr:stedsnr" v="35298" />
	</node>
	<node id="-551608" lat="62.7883861101" lon="7.71218055607">
		<tag k="name" v="Malmen" />
		<tag k="place" v="isolated_dwelling" />
		<tag k="ssr:stedsnr" v="34134" />
	</node>
	<node id="-551590" lat="62.7461732262" lon="7.24122121206">
		<tag k="fixme" v="consider place=hamlet" />
		<tag k="name" v="Leirgrovvik" />
		<tag k="place" v="farm" />
		<tag k="ssr:stedsnr" v="12774" />
	</node>
	<node id="-551589" lat="62.7470440913" lon="7.26521341791">
		<tag k="fixme" v="consider place=hamlet" />
		<tag k="name" v="Indre Årø" />
		<tag k="place" v="farm" />
		<tag k="ssr:stedsnr" v="12772" />
	</node>
	<node id="-551588" lat="62.7469611078" lon="7.48656112001">
		<tag k="name" v="Gjerdeplassen" />
		<tag k="place" v="farm" />
		<tag k="ssr:stedsnr" v="12769" />
	</node>
	<node id="-551587" lat="62.734975" lon="7.2995611115">
		<tag k="name" v="Vardholmbukta" />
		<tag k="place" v="farm" />
		<tag k="ssr:stedsnr" v="12765" />
	</node>
	<node id="-551586" lat="62.800981044" lon="7.64939395681">
		<tag k="name" v="Romold" />
		<tag k="old_name" v="Raudmold" />
		<tag k="place" v="hamlet" />
		<tag k="ssr:stedsnr" v="12761" />
	</node>
	<node id="-551585" lat="62.7912611123" lon="7.58345833318">
		<tag k="name" v="Haugslættet" />
		<tag k="place" v="farm" />
		<tag k="ssr:stedsnr" v="12759" />
	</node>
	<node id="-551584" lat="62.7953166639" lon="7.53074999281">
		<tag k="name" v="Furulund" />
		<tag k="place" v="farm" />
		<tag k="ssr:stedsnr" v="12757" />
	</node>
	<node id="-551577" lat="62.815100002" lon="7.7316722261">
		<tag k="fixme" v="consider place=hamlet" />
		<tag k="name" v="Istadlia" />
		<tag k="place" v="village" />
		<tag k="ssr:stedsnr" v="12554" />
	</node>
	<node id="-551576" lat="62.8364388863" lon="7.72097221451">
		<tag k="historic" v="shieling" />
		<tag k="name" v="Slåsetra" />
		<tag k="place" v="locality" />
		<tag k="ssr:stedsnr" v="12541" />
	</node>
	<node id="-551574" lat="62.7638401958" lon="7.49713784489">
		<tag k="name" v="Fransgjerdet" />
		<tag k="place" v="farm" />
		<tag k="ssr:stedsnr" v="11853" />
	</node>
	<node id="-551572" lat="62.7881755156" lon="7.50649450174">
		<tag k="fixme" v="consider place=hamlet" />
		<tag k="name" v="Gujorda" />
		<tag k="place" v="farm" />
		<tag k="ssr:stedsnr" v="11821" />
	</node>
	<node id="-551570" lat="62.7275138923" lon="7.31810833738">
		<tag k="name" v="Sandvikbøen" />
		<tag k="place" v="farm" />
		<tag k="ssr:stedsnr" v="11820" />
	</node>
	<node id="-551567" lat="62.7733401259" lon="7.55246359979">
		<tag k="fixme" v="consider place=hamlet" />
		<tag k="name" v="Talsethagen" />
		<tag k="place" v="farm" />
		<tag k="ssr:stedsnr" v="11798" />
	</node>
	<node id="-551565" lat="62.7160934072" lon="7.62469598274">
		<tag k="name" v="Horsgård" />
		<tag k="place" v="hamlet" />
		<tag k="ssr:stedsnr" v="11788" />
	</node>
	<node id="-551562" lat="62.734331111" lon="7.41140017559">
		<tag k="fixme" v="consider place=hamlet" />
		<tag k="name" v="Røvik" />
		<tag k="place" v="farm" />
		<tag k="ssr:stedsnr" v="11765" />
	</node>
	<node id="-551561" lat="62.7356999958" lon="7.41926945323">
		<tag k="name" v="Nygjerdet" />
		<tag k="place" v="farm" />
		<tag k="ssr:stedsnr" v="11763" />
	</node>
	<node id="-551559" lat="62.7272527756" lon="7.29485277384">
		<tag k="name" v="Geilen" />
		<tag k="old_name" v="Geiten" />
		<tag k="place" v="farm" />
		<tag k="ssr:stedsnr" v="11750" />
	</node>
	<node id="-551558" lat="62.6692742872" lon="7.30370575394">
		<tag k="fixme" v="consider place=hamlet" />
		<tag k="name" v="Sekkesetra" />
		<tag k="place" v="farm" />
		<tag k="ssr:stedsnr" v="11727" />
	</node>
	<node id="-551557" lat="62.6790914827" lon="7.28189476445">
		<tag k="alt_name" v="Storvik" />
		<tag k="fixme" v="consider place=hamlet" />
		<tag k="name" v="Storvika" />
		<tag k="place" v="farm" />
		<tag k="ssr:stedsnr" v="11717" />
	</node>
	<node id="-551556" lat="62.6942295631" lon="7.40595091193">
		<tag k="fixme" v="consider place=hamlet" />
		<tag k="name" v="Flovik" />
		<tag k="place" v="farm" />
		<tag k="ssr:stedsnr" v="11708" />
	</node>
	<node id="-551552" lat="62.7350527801" lon="7.08570554823">
		<tag k="name" v="Mek" />
		<tag k="place" v="suburb" />
		<tag k="ssr:stedsnr" v="11060" />
	</node>
	<node id="-551549" lat="62.8021087032" lon="7.66487516298">
		<tag k="name" v="Skalle" />
		<tag k="place" v="farm" />
		<tag k="ssr:stedsnr" v="983207" />
	</node>
	<node id="-551548" lat="62.6955657399" lon="7.4648929006">
		<tag k="name" v="Åsen" />
		<tag k="place" v="locality" />
		<tag k="ssr:stedsnr" v="981547" />
	</node>
	<node id="-551546" lat="62.8236916732" lon="7.77037619548">
		<tag k="fixme" v="consider place=hamlet" />
		<tag k="name" v="Hatlen" />
		<tag k="place" v="farm" />
		<tag k="ssr:stedsnr" v="981523" />
	</node>
	<node id="-551544" lat="62.797915711" lon="7.65646334065">
		<tag k="fixme" v="consider place=hamlet" />
		<tag k="name" v="Kleive" />
		<tag k="place" v="farm" />
		<tag k="ssr:stedsnr" v="981514" />
	</node>
	<node id="-551543" lat="62.7912025915" lon="7.61369003783">
		<tag k="name" v="Ytre Nes" />
		<tag k="place" v="farm" />
		<tag k="ssr:stedsnr" v="981512" />
	</node>
	<node id="-551541" lat="62.7412003656" lon="7.21195953902">
		<tag k="fixme" v="consider place=hamlet" />
		<tag k="name" v="Tøndergård" />
		<tag k="place" v="farm" />
		<tag k="ssr:stedsnr" v="981473" />
	</node>
	<node id="-551540" lat="62.7432494373" lon="7.19572855186">
		<tag k="fixme" v="consider place=hamlet" />
		<tag k="name" v="Fuglset" />
		<tag k="place" v="farm" />
		<tag k="ssr:stedsnr" v="981465" />
	</node>
	<node id="-551539" lat="62.7402918154" lon="7.1320193039">
		<tag k="fixme" v="consider place=hamlet" />
		<tag k="name" v="Bjørset" />
		<tag k="place" v="farm" />
		<tag k="ssr:stedsnr" v="981463" />
	</node>
	<node id="-551538" lat="62.7365708369" lon="7.09795812819">
		<tag k="fixme" v="consider place=hamlet" />
		<tag k="name" v="Mek" />
		<tag k="place" v="farm" />
		<tag k="ssr:stedsnr" v="981462" />
	</node>
	<node id="-551512" lat="62.7315694467" lon="7.41958333087">
		<tag k="name" v="Sendingan" />
		<tag k="place" v="farm" />
		<tag k="ssr:stedsnr" v="884818" />
	</node>
	<node id="-551476" lat="62.747972224" lon="7.00483333337">
		<tag k="historic" v="shieling" />
		<tag k="name" v="Gausetsetra" />
		<tag k="place" v="locality" />
		<tag k="ssr:stedsnr" v="884442" />
	</node>
	<node id="-551470" lat="62.700286109" lon="7.44379165948">
		<tag k="name" v="Kvila" />
		<tag k="place" v="isolated_dwelling" />
		<tag k="ssr:stedsnr" v="884204" />
	</node>
	<node id="-551459" lat="62.6718972221" lon="7.30956111067">
		<tag k="name" v="Bjørga" />
		<tag k="place" v="farm" />
		<tag k="ssr:stedsnr" v="884158" />
	</node>
	<node id="-551418" lat="62.6925777734" lon="7.36892221683">
		<tag k="name" v="Teigan" />
		<tag k="place" v="farm" />
		<tag k="ssr:stedsnr" v="399295" />
	</node>
	<node id="-551397" lat="62.7400750015" lon="7.15319444319">
		<tag k="leisure" v="pitch" />
		<tag k="name" v="Tennisbane" />
		<tag k="ssr:stedsnr" v="398690" />
	</node>
	<node id="-551389" lat="62.7413333352" lon="7.21662778308">
		<tag k="name" v="Retiro" />
		<tag k="place" v="farm" />
		<tag k="ssr:stedsnr" v="398640" />
	</node>
	<node id="-551387" lat="62.7362277782" lon="7.08296666908">
		<tag k="name" v="Sole" />
		<tag k="place" v="farm" />
		<tag k="ssr:stedsnr" v="398624" />
	</node>
	<node id="-551352" lat="62.8005228995" lon="7.65354870625">
		<tag k="fixme" v="consider place=hamlet" />
		<tag k="name" v="Indre Romold" />
		<tag k="old_name" v="Indre Raumold" />
		<tag k="place" v="farm" />
		<tag k="ssr:stedsnr" v="398090" />
	</node>
	<node id="-551339" lat="62.7157361133" lon="7.61845277687">
		<tag k="name" v="Ytterhorsgora" />
		<tag k="place" v="farm" />
		<tag k="ssr:stedsnr" v="395401" />
	</node>
	<node id="-553385" lat="62.7464611091" lon="7.19825000884">
		<tag k="name" v="Øvre Fuglset" />
		<tag k="place" v="isolated_dwelling" />
		<tag k="ssr:stedsnr" v="949809" />
	</node>
	<node id="-551332" lat="62.794485358" lon="7.67923220998">
		<tag k="name" v="Holsbøvågen" />
		<tag k="place" v="farm" />
		<tag k="ssr:stedsnr" v="376779" />
	</node>
	<node id="-551331" lat="62.8063808983" lon="7.68570701045">
		<tag k="fixme" v="consider place=hamlet" />
		<tag k="name" v="Brattset" />
		<tag k="place" v="farm" />
		<tag k="ssr:stedsnr" v="376756" />
	</node>
	<node id="-551329" lat="62.6490055517" lon="7.32458888711">
		<tag k="alt_name" v="Vestahagen" />
		<tag k="name" v="Vestadhagen" />
		<tag k="place" v="farm" />
		<tag k="ssr:stedsnr" v="376637" />
	</node>
	<node id="-551327" lat="62.815627781" lon="7.79824166758">
		<tag k="name" v="Fossbakken" />
		<tag k="place" v="farm" />
		<tag k="ssr:stedsnr" v="376591" />
	</node>
	<node id="-551323" lat="62.7639580181" lon="7.39439992235">
		<tag k="fixme" v="consider place=hamlet" />
		<tag k="name" v="Ellingsgarden" />
		<tag k="place" v="farm" />
		<tag k="ssr:stedsnr" v="375827" />
	</node>
	<node id="-553369" lat="62.7563805511" lon="7.31736943941">
		<tag k="name" v="Hesthagen" />
		<tag k="place" v="quarter" />
		<tag k="ssr:stedsnr" v="945891" />
	</node>
	<node id="-551320" lat="62.7620750042" lon="7.5061583293">
		<tag k="name" v="Midthaug" />
		<tag k="place" v="farm" />
		<tag k="ssr:stedsnr" v="375813" />
	</node>
	<node id="-551319" lat="62.7653777782" lon="7.50771389697">
		<tag k="name" v="Vikan" />
		<tag k="place" v="farm" />
		<tag k="ssr:stedsnr" v="375814" />
	</node>
	<node id="-551318" lat="62.757705558" lon="7.34388611815">
		<tag k="name" v="Bøen" />
		<tag k="place" v="farm" />
		<tag k="ssr:stedsnr" v="375803" />
	</node>
	<node id="-551321" lat="62.7630235786" lon="7.49163456382">
		<tag k="fixme" v="consider place=hamlet" />
		<tag k="name" v="Hammaren" />
		<tag k="place" v="farm" />
		<tag k="ssr:stedsnr" v="375818" />
	</node>
	<node id="-551311" lat="62.7254472263" lon="7.42578610615">
		<tag k="name" v="Nygard" />
		<tag k="place" v="farm" />
		<tag k="ssr:stedsnr" v="375782" />
	</node>
	<node id="-551310" lat="62.7180305551" lon="7.43044444926">
		<tag k="name" v="Flatheim" />
		<tag k="place" v="farm" />
		<tag k="ssr:stedsnr" v="375769" />
	</node>
	<node id="-551308" lat="62.7755397893" lon="7.62751748585">
		<tag k="fixme" v="consider place=hamlet" />
		<tag k="name" v="Nakken" />
		<tag k="place" v="farm" />
		<tag k="ssr:stedsnr" v="375758" />
	</node>
	<node id="-551307" lat="62.7347222189" lon="7.32411667584">
		<tag k="name" v="Øyum" />
		<tag k="place" v="farm" />
		<tag k="ssr:stedsnr" v="375749" />
	</node>
	<node id="-551306" lat="62.7930530644" lon="7.70903495375">
		<tag k="fixme" v="consider place=hamlet" />
		<tag k="name" v="Ytterhaugan" />
		<tag k="place" v="farm" />
		<tag k="ssr:stedsnr" v="375734" />
	</node>
	<node id="-553350" lat="62.736849311" lon="7.13876098945">
		<tag k="amenity" v="hospital" />
		<tag k="name" v="Molde sjukehus" />
		<tag k="old_name" v="Fylkesjukehuset" />
		<tag k="ssr:stedsnr" v="945708" />
	</node>
	<node id="-551301" lat="62.6963765634" lon="7.41808119432">
		<tag k="fixme" v="consider place=hamlet" />
		<tag k="name" v="Stenså" />
		<tag k="place" v="farm" />
		<tag k="ssr:stedsnr" v="375680" />
	</node>
	<node id="-551300" lat="62.7130038958" lon="7.5087339107">
		<tag k="alt_name" v="Bergsetra" />
		<tag k="historic" v="shieling" />
		<tag k="name" v="Bergssetra" />
		<tag k="place" v="locality" />
		<tag k="ssr:stedsnr" v="375668" />
	</node>
	<node id="-551299" lat="62.7130099017" lon="7.42974187585">
		<tag k="fixme" v="consider place=hamlet" />
		<tag k="name" v="Vågseter" />
		<tag k="place" v="farm" />
		<tag k="ssr:stedsnr" v="375662" />
	</node>
	<node id="-551297" lat="62.6523204352" lon="7.2606168822">
		<tag k="fixme" v="consider place=hamlet" />
		<tag k="name" v="Romdalvika" />
		<tag k="place" v="farm" />
		<tag k="ssr:stedsnr" v="375603" />
	</node>
	<node id="-551294" lat="62.7312666656" lon="7.05196665888">
		<tag k="name" v="Djupdalen" />
		<tag k="place" v="quarter" />
		<tag k="ssr:stedsnr" v="375060" />
	</node>
	<node id="-551293" lat="62.7375166697" lon="7.15912499073">
		<tag k="name" v="Molde" />
		<tag k="place" v="town" />
		<tag k="ssr:stedsnr" v="375055" />
	</node>
	<node id="-553338" lat="62.7671333347" lon="7.21188611555">
		<tag k="historic" v="shieling" />
		<tag k="name" v="Nøisomhedseter" />
		<tag k="place" v="locality" />
		<tag k="ssr:stedsnr" v="945620" />
	</node>
	<node id="-553337" lat="62.7403500028" lon="7.01813888888">
		<tag k="historic" v="shieling" />
		<tag k="name" v="Mordalssetra" />
		<tag k="place" v="locality" />
		<tag k="ssr:stedsnr" v="945609" />
	</node>
	<node id="-553336" lat="62.732241671" lon="7.0623861046">
		<tag k="alt_name" v="Kringstadvorpa" />
		<tag k="name" v="Kringstadvorpen" />
		<tag k="place" v="farm" />
		<tag k="ssr:stedsnr" v="945606" />
	</node>
	<node id="-551287" lat="62.7318361104" lon="7.27984166484">
		<tag k="name" v="Turhus" />
		<tag k="place" v="farm" />
		<tag k="ssr:stedsnr" v="341019" />
	</node>
	<node id="-553321" lat="62.7999903844" lon="7.64621193658">
		<tag k="fixme" v="consider place=hamlet" />
		<tag k="name" v="Ytre Romold" />
		<tag k="old_name" v="Romuld ytre;Ytre Romuld;Ytre Raumold" />
		<tag k="place" v="farm" />
		<tag k="ssr:stedsnr" v="945264" />
	</node>
	<node id="-553319" lat="62.7075222223" lon="7.44824721617">
		<tag k="historic" v="shieling" />
		<tag k="name" v="Kamsetra" />
		<tag k="place" v="locality" />
		<tag k="ssr:stedsnr" v="945249" />
	</node>
	<node id="-551243" lat="62.7347916673" lon="7.08474999435">
		<tag k="name" v="Knatten" />
		<tag k="place" v="farm" />
		<tag k="ssr:stedsnr" v="338596" />
	</node>
	<node id="-551225" lat="62.7551805572" lon="7.25375833565">
		<tag k="name" v="Huslia" />
		<tag k="place" v="farm" />
		<tag k="ssr:stedsnr" v="338226" />
	</node>
	<node id="-551224" lat="62.7309333329" lon="7.39272777194">
		<tag k="name" v="Røvikneset" />
		<tag k="place" v="farm" />
		<tag k="ssr:stedsnr" v="338220" />
	</node>
	<node id="-551223" lat="62.7651622619" lon="7.40071789036">
		<tag k="fixme" v="consider place=hamlet" />
		<tag k="name" v="Ekra" />
		<tag k="place" v="farm" />
		<tag k="ssr:stedsnr" v="338219" />
	</node>
	<node id="-551222" lat="62.7781277794" lon="7.41326111994">
		<tag k="historic" v="shieling" />
		<tag k="name" v="Setra" />
		<tag k="place" v="locality" />
		<tag k="ssr:stedsnr" v="338218" />
	</node>
	<node id="-551221" lat="62.7296249999" lon="7.33481388791">
		<tag k="name" v="Bolsneset" />
		<tag k="place" v="farm" />
		<tag k="ssr:stedsnr" v="338217" />
	</node>
	<node id="-551220" lat="62.7344416647" lon="7.32466111854">
		<tag k="name" v="Naustneset" />
		<tag k="place" v="farm" />
		<tag k="ssr:stedsnr" v="338213" />
	</node>
	<node id="-553266" lat="62.8224083318" lon="7.6839972278">
		<tag k="historic" v="shieling" />
		<tag k="name" v="Liasetra" />
		<tag k="place" v="locality" />
		<tag k="ssr:stedsnr" v="923765" />
	</node>
	<node id="-553265" lat="62.8247972233" lon="7.68693332581">
		<tag k="historic" v="shieling" />
		<tag k="name" v="Amundsgardsetra" />
		<tag k="place" v="locality" />
		<tag k="ssr:stedsnr" v="923763" />
	</node>
	<node id="-553264" lat="62.8097464586" lon="7.69396961151">
		<tag k="fixme" v="consider place=hamlet" />
		<tag k="name" v="Øverlia" />
		<tag k="place" v="farm" />
		<tag k="ssr:stedsnr" v="923747" />
	</node>
	<node id="-553262" lat="62.8080623093" lon="7.78014747042">
		<tag k="fixme" v="consider place=hamlet" />
		<tag k="name" v="Aspelunden" />
		<tag k="place" v="farm" />
		<tag k="ssr:stedsnr" v="923602" />
	</node>
	<node id="-553261" lat="62.7593333304" lon="7.60629722683">
		<tag k="historic" v="shieling" />
		<tag k="name" v="Mausetsetra" />
		<tag k="place" v="locality" />
		<tag k="ssr:stedsnr" v="922794" />
	</node>
	<node id="-553259" lat="62.7831649105" lon="7.54386531544">
		<tag k="fixme" v="consider place=hamlet" />
		<tag k="name" v="Hungnes" />
		<tag k="place" v="farm" />
		<tag k="ssr:stedsnr" v="922760" />
	</node>
	<node id="-553258" lat="62.7771894379" lon="7.47672621269">
		<tag k="fixme" v="consider place=hamlet" />
		<tag k="name" v="Hamna" />
		<tag k="place" v="farm" />
		<tag k="ssr:stedsnr" v="922757" />
	</node>
	<node id="-553257" lat="62.7708787798" lon="7.42600376768">
		<tag k="fixme" v="consider place=hamlet" />
		<tag k="name" v="Skjerslia" />
		<tag k="place" v="farm" />
		<tag k="ssr:stedsnr" v="922750" />
	</node>
	<node id="-553255" lat="62.7165500038" lon="7.53945277123">
		<tag k="historic" v="shieling" />
		<tag k="name" v="Skålsetra" />
		<tag k="place" v="locality" />
		<tag k="ssr:stedsnr" v="922746" />
	</node>
	<node id="-553253" lat="62.7315001981" lon="7.28153646386">
		<tag k="fixme" v="consider place=hamlet" />
		<tag k="name" v="Torhus" />
		<tag k="place" v="farm" />
		<tag k="ssr:stedsnr" v="922735" />
	</node>
	<node id="-553252" lat="62.8055583327" lon="7.68684722922">
		<tag k="name" v="Brattsetgjerdet" />
		<tag k="place" v="farm" />
		<tag k="ssr:stedsnr" v="922736" />
	</node>
	<node id="-553250" lat="62.6858492036" lon="7.45811320006">
		<tag k="fixme" v="consider place=hamlet" />
		<tag k="name" v="Sølsnes" />
		<tag k="place" v="farm" />
		<tag k="ssr:stedsnr" v="922707" />
	</node>
	<node id="-553249" lat="62.6488027765" lon="7.32112777064">
		<tag k="name" v="Solheim" />
		<tag k="place" v="farm" />
		<tag k="ssr:stedsnr" v="922605" />
	</node>
	<node id="-553247" lat="62.8361429758" lon="7.80411280182">
		<tag k="fixme" v="consider place=hamlet" />
		<tag k="name" v="Botterlia" />
		<tag k="place" v="farm" />
		<tag k="ssr:stedsnr" v="922506" />
	</node>
	<node id="-553246" lat="62.7241482501" lon="7.29439387523">
		<tag k="fixme" v="consider place=hamlet" />
		<tag k="name" v="Draget" />
		<tag k="place" v="farm" />
		<tag k="ssr:stedsnr" v="922253" />
	</node>
	<node id="-553245" lat="62.7322733005" lon="7.00335138857">
		<tag k="fixme" v="consider place=hamlet" />
		<tag k="name" v="Mordal" />
		<tag k="place" v="farm" />
		<tag k="ssr:stedsnr" v="922076" />
	</node>
	<node id="-553240" lat="62.7000539138" lon="7.46780257679">
		<tag k="fixme" v="consider place=hamlet" />
		<tag k="name" v="Berg" />
		<tag k="place" v="farm" />
		<tag k="ssr:stedsnr" v="921711" />
	</node>
	<node id="-553238" lat="62.7479781882" lon="7.1432148219">
		<tag k="alt_name" v="Storlia" />
		<tag k="fixme" v="consider tourism=alpine_hut or tourism=chalet" />
		<tag k="name" v="Storlihytta" />
		<tag k="ssr:stedsnr" v="921085" />
		<tag k="tourism" v="wilderness_hut" />
	</node>
	<node id="-551189" lat="62.7343838146" lon="7.14819513352">
		<tag k="fixme" v="consider place=hamlet" />
		<tag k="name" v="Reknes" />
		<tag k="place" v="farm" />
		<tag k="ssr:stedsnr" v="330718" />
	</node>
	<node id="-551185" lat="62.8248750015" lon="7.66865555985">
		<tag k="historic" v="shieling" />
		<tag k="name" v="Kleivsetra" />
		<tag k="place" v="locality" />
		<tag k="ssr:stedsnr" v="316783" />
	</node>
	<node id="-551183" lat="62.8339864908" lon="7.79595309362">
		<tag k="fixme" v="consider place=hamlet" />
		<tag k="name" v="Sollia" />
		<tag k="place" v="farm" />
		<tag k="ssr:stedsnr" v="316589" />
	</node>
	<node id="-551182" lat="62.7242805539" lon="7.4265305592">
		<tag k="name" v="Steinbakken" />
		<tag k="place" v="farm" />
		<tag k="ssr:stedsnr" v="315796" />
	</node>
	<node id="-551181" lat="62.7261500012" lon="7.43306388313">
		<tag k="name" v="Nordheim" />
		<tag k="place" v="farm" />
		<tag k="ssr:stedsnr" v="315794" />
	</node>
	<node id="-551180" lat="62.7264611118" lon="7.65256665831">
		<tag k="name" v="Horsgardsetra" />
		<tag k="place" v="isolated_dwelling" />
		<tag k="ssr:stedsnr" v="315792" />
	</node>
	<node id="-551179" lat="62.7854299122" lon="7.56538946894">
		<tag k="fixme" v="consider place=hamlet" />
		<tag k="name" v="Eide" />
		<tag k="place" v="farm" />
		<tag k="ssr:stedsnr" v="315789" />
	</node>
	<node id="-551176" lat="62.7212670831" lon="7.44899734622">
		<tag k="fixme" v="consider place=hamlet" />
		<tag k="name" v="Hovdenakken" />
		<tag k="place" v="farm" />
		<tag k="ssr:stedsnr" v="315778" />
	</node>
	<node id="-553222" lat="62.7874027763" lon="7.32106388408">
		<tag k="historic" v="shieling" />
		<tag k="name" v="Årøynessetra" />
		<tag k="place" v="locality" />
		<tag k="ssr:stedsnr" v="862790" />
	</node>
	<node id="-551172" lat="62.7570055555" lon="7.31965833545">
		<tag k="name" v="Elsåshagen" />
		<tag k="place" v="farm" />
		<tag k="ssr:stedsnr" v="315830" />
	</node>
	<node id="-553219" lat="62.7986305554" lon="7.64360278465">
		<tag k="name" v="Gjerdet" />
		<tag k="place" v="farm" />
		<tag k="ssr:stedsnr" v="862776" />
	</node>
	<node id="-553216" lat="62.8149630008" lon="7.70352330756">
		<tag k="fixme" v="consider place=hamlet" />
		<tag k="name" v="Høystakklia" />
		<tag k="place" v="farm" />
		<tag k="ssr:stedsnr" v="862725" />
	</node>
	<node id="-551167" lat="62.7315416651" lon="7.42868888865">
		<tag k="name" v="Vonheim" />
		<tag k="place" v="farm" />
		<tag k="ssr:stedsnr" v="315806" />
	</node>
	<node id="-551165" lat="62.7100694412" lon="7.51210833894">
		<tag k="historic" v="shieling" />
		<tag k="name" v="Bergsviksetra" />
		<tag k="place" v="locality" />
		<tag k="ssr:stedsnr" v="315694" />
	</node>
	<node id="-553212" lat="62.7644722259" lon="7.51737778428">
		<tag k="name" v="Brauta" />
		<tag k="place" v="farm" />
		<tag k="ssr:stedsnr" v="861845" />
	</node>
	<node id="-553211" lat="62.7675722213" lon="7.52435555856">
		<tag k="name" v="Talsetbøen" />
		<tag k="place" v="farm" />
		<tag k="ssr:stedsnr" v="861846" />
	</node>
	<node id="-553210" lat="62.783902777" lon="7.48980278613">
		<tag k="name" v="Trøa" />
		<tag k="place" v="farm" />
		<tag k="ssr:stedsnr" v="861809" />
	</node>
	<node id="-553207" lat="62.7756055512" lon="7.65028333112">
		<tag k="name" v="Ullalandsmyran" />
		<tag k="place" v="farm" />
		<tag k="ssr:stedsnr" v="861774" />
	</node>
	<node id="-553205" lat="62.7342166683" lon="7.31259999227">
		<tag k="name" v="Orvika" />
		<tag k="place" v="farm" />
		<tag k="ssr:stedsnr" v="861750" />
	</node>
	<node id="-553200" lat="62.6659138878" lon="7.35198333378">
		<tag k="name" v="Engvik" />
		<tag k="place" v="farm" />
		<tag k="ssr:stedsnr" v="861722" />
	</node>
	<node id="-551151" lat="62.7366361078" lon="7.11331666922">
		<tag k="name" v="Rotvoll" />
		<tag k="place" v="farm" />
		<tag k="ssr:stedsnr" v="314065" />
	</node>
	<node id="-551150" lat="62.7997777743" lon="7.64620832442">
		<tag k="name" v="Ytre Romold" />
		<tag k="old_name" v="Raumold ytre" />
		<tag k="place" v="farm" />
		<tag k="ssr:stedsnr" v="302844" />
	</node>
	<node id="-553197" lat="62.6506239658" lon="7.32614548362">
		<tag k="fixme" v="consider place=hamlet" />
		<tag k="name" v="Vestad" />
		<tag k="place" v="farm" />
		<tag k="ssr:stedsnr" v="861596" />
	</node>
	<node id="-553196" lat="62.7408749978" lon="7.20309166919">
		<tag k="name" v="Einen" />
		<tag k="place" v="farm" />
		<tag k="ssr:stedsnr" v="861110" />
	</node>
	<node id="-553193" lat="62.7366194465" lon="7.09670276894">
		<tag k="name" v="Kvam" />
		<tag k="place" v="farm" />
		<tag k="ssr:stedsnr" v="861071" />
	</node>
	<node id="-553192" lat="62.7334111096" lon="7.14812500514">
		<tag k="leisure" v="pitch" />
		<tag k="name" v="Aker Stadion" />
		<tag k="ssr:stedsnr" v="847622" />
	</node>
	<node id="-551143" lat="62.7709833291" lon="7.53358889005">
		<tag k="name" v="Talset" />
		<tag k="place" v="farm" />
		<tag k="ssr:stedsnr" v="281018" />
	</node>
	<node id="-551138" lat="62.7688805521" lon="7.52092499774">
		<tag k="name" v="Tolåsnausta" />
		<tag k="place" v="locality" />
		<tag k="ssr:stedsnr" v="277980" />
	</node>
	<node id="-551120" lat="62.7418555564" lon="7.22149166054">
		<tag k="name" v="Lubbenes" />
		<tag k="place" v="isolated_dwelling" />
		<tag k="ssr:stedsnr" v="277819" />
	</node>
	<node id="-551164" lat="62.7917292213" lon="7.60239992301">
		<tag k="name" v="Stokke" />
		<tag k="place" v="farm" />
		<tag k="ssr:stedsnr" v="315752" />
	</node>
	<node id="-551105" lat="62.7620750014" lon="7.18686388813">
		<tag k="historic" v="shieling" />
		<tag k="name" v="Moldegårdstølen" />
		<tag k="place" v="locality" />
		<tag k="ssr:stedsnr" v="277703" />
	</node>
	<node id="-553151" lat="62.7346083358" lon="7.14115554786">
		<tag k="name" v="Røysan" />
		<tag k="place" v="suburb" />
		<tag k="ssr:stedsnr" v="824657" />
	</node>
	<node id="-551100" lat="62.7426138928" lon="7.14318889625">
		<tag k="name" v="Kringsjå" />
		<tag k="place" v="suburb" />
		<tag k="ssr:stedsnr" v="277667" />
	</node>
	<node id="-551099" lat="62.7607805535" lon="7.19499721347">
		<tag k="historic" v="shieling" />
		<tag k="name" v="Fuglsetsetra" />
		<tag k="place" v="locality" />
		<tag k="ssr:stedsnr" v="277659" />
	</node>
	<node id="-551081" lat="62.8328583321" lon="7.79550277873">
		<tag k="name" v="Nersollia" />
		<tag k="place" v="farm" />
		<tag k="ssr:stedsnr" v="277254" />
	</node>
	<node id="-551080" lat="62.7258305537" lon="7.47921111816">
		<tag k="historic" v="shieling" />
		<tag k="name" v="Setra" />
		<tag k="place" v="locality" />
		<tag k="ssr:stedsnr" v="277228" />
	</node>
	<node id="-551079" lat="62.6539333372" lon="7.31770000479">
		<tag k="name" v="Oppsal" />
		<tag k="place" v="farm" />
		<tag k="ssr:stedsnr" v="277222" />
	</node>
	<node id="-551078" lat="62.7358638895" lon="7.42373611247">
		<tag k="name" v="Myran" />
		<tag k="place" v="farm" />
		<tag k="ssr:stedsnr" v="277217" />
	</node>
	<node id="-553125" lat="62.7805783367" lon="7.48053495697">
		<tag k="fixme" v="consider place=hamlet" />
		<tag k="name" v="Øverhagen" />
		<tag k="place" v="farm" />
		<tag k="ssr:stedsnr" v="824317" />
	</node>
	<node id="-553124" lat="62.7679353051" lon="7.51971397927">
		<tag k="fixme" v="consider place=hamlet" />
		<tag k="name" v="Franssetet" />
		<tag k="place" v="farm" />
		<tag k="ssr:stedsnr" v="824311" />
	</node>
	<node id="-553123" lat="62.7706833355" lon="7.43813332938">
		<tag k="name" v="Mjelve" />
		<tag k="place" v="farm" />
		<tag k="ssr:stedsnr" v="824305" />
	</node>
	<node id="-553122" lat="62.7740249974" lon="7.27021388579">
		<tag k="historic" v="shieling" />
		<tag k="name" v="Eikremssetra" />
		<tag k="place" v="locality" />
		<tag k="ssr:stedsnr" v="824304" />
	</node>
	<node id="-553121" lat="62.7759999987" lon="7.29970554897">
		<tag k="historic" v="shieling" />
		<tag k="name" v="Årøsetra" />
		<tag k="place" v="locality" />
		<tag k="ssr:stedsnr" v="824303" />
	</node>
	<node id="-553120" lat="62.7495503344" lon="7.2822874987">
		<tag k="fixme" v="consider place=hamlet" />
		<tag k="name" v="Årøneset" />
		<tag k="place" v="farm" />
		<tag k="ssr:stedsnr" v="824302" />
	</node>
	<node id="-553119" lat="62.6506472237" lon="7.32091388447">
		<tag k="name" v="Vestad" />
		<tag k="place" v="farm" />
		<tag k="ssr:stedsnr" v="824301" />
	</node>
	<node id="-553118" lat="62.688025001" lon="7.47852222656">
		<tag k="name" v="Myran" />
		<tag k="place" v="farm" />
		<tag k="ssr:stedsnr" v="824293" />
	</node>
	<node id="-553075" lat="62.6926972201" lon="7.52950556391">
		<tag k="name" v="Nesløvollen" />
		<tag k="place" v="isolated_dwelling" />
		<tag k="ssr:stedsnr" v="820439" />
	</node>
	<node id="-551271" lat="62.7521944432" lon="7.29815000603">
		<tag k="name" v="Røbekkhagen" />
		<tag k="place" v="farm" />
		<tag k="ssr:stedsnr" v="338878" />
	</node>
	<node id="-553064" lat="62.787232456" lon="7.67836432498">
		<tag k="fixme" v="consider place=hamlet" />
		<tag k="name" v="Holsbøen" />
		<tag k="place" v="farm" />
		<tag k="ssr:stedsnr" v="800779" />
	</node>
	<node id="-553057" lat="62.6706501182" lon="7.29301625299">
		<tag k="fixme" v="consider place=hamlet" />
		<tag k="name" v="Sollibøen" />
		<tag k="place" v="farm" />
		<tag k="ssr:stedsnr" v="800699" />
	</node>
	<node id="-553054" lat="62.7147444467" lon="7.48754445169">
		<tag k="name" v="Floviksetra" />
		<tag k="place" v="locality" />
		<tag k="ssr:stedsnr" v="800672" />
	</node>
	<node id="-553053" lat="62.7473083314" lon="7.09440832391">
		<tag k="historic" v="shieling" />
		<tag k="name" v="Meksetra" />
		<tag k="place" v="locality" />
		<tag k="ssr:stedsnr" v="800086" />
	</node>
	<node id="-553022" lat="62.7405055537" lon="7.14093333601">
		<tag k="amenity" v="school" />
		<tag k="name" v="Bekkevoll" />
		<tag k="ssr:stedsnr" v="763746" />
	</node>
	<node id="-552998" lat="62.8265666682" lon="7.77784167332">
		<tag k="name" v="Hatlelia" />
		<tag k="place" v="farm" />
		<tag k="ssr:stedsnr" v="763305" />
	</node>
	<node id="-552997" lat="62.8312638862" lon="7.78815000131">
		<tag k="name" v="Øverbøen" />
		<tag k="place" v="farm" />
		<tag k="ssr:stedsnr" v="763303" />
	</node>
	<node id="-552996" lat="62.8314000027" lon="7.79097221861">
		<tag k="name" v="Nerbøen" />
		<tag k="place" v="farm" />
		<tag k="ssr:stedsnr" v="763302" />
	</node>
	<node id="-552995" lat="62.7734444484" lon="7.55822500607">
		<tag k="name" v="Bøplassen" />
		<tag k="place" v="farm" />
		<tag k="ssr:stedsnr" v="763295" />
	</node>
	<node id="-552994" lat="62.7741777755" lon="7.56185555808">
		<tag k="name" v="Mausetbøen" />
		<tag k="place" v="farm" />
		<tag k="ssr:stedsnr" v="763294" />
	</node>
	<node id="-552993" lat="62.7765166696" lon="7.33428333004">
		<tag k="historic" v="shieling" />
		<tag k="name" v="Strandsetra" />
		<tag k="place" v="locality" />
		<tag k="ssr:stedsnr" v="763288" />
	</node>
	<node id="-552990" lat="62.7235222219" lon="7.4169861124">
		<tag k="name" v="Geilen" />
		<tag k="place" v="farm" />
		<tag k="ssr:stedsnr" v="763277" />
	</node>
</osm>
