<?xml version="1.0" encoding="UTF-8"?>
<osm generator="osmapis" version="0.6">
	<node id="-551422" lat="62.6901611097" lon="7.36511111599">
		<tag k="name" v="Tjørnholneset" />
		<tag k="natural" v="cape" />
		<tag k="ssr:stedsnr" v="399898" />
	</node>
	<node id="-552444" lat="62.6908055575" lon="7.37409166842">
		<tag k="name" v="Naustnesbukta" />
		<tag k="natural" v="bay" />
		<tag k="ssr:stedsnr" v="520927" />
	</node>
	<node id="-551931" lat="62.7370027752" lon="7.18856111976">
		<tag k="name" v="Moldegårdneset" />
		<tag k="natural" v="cape" />
		<tag k="ssr:stedsnr" v="156677" />
	</node>
	<node id="-552532" lat="62.7347222211" lon="7.13403332415">
		<tag k="alt_name" v="Litlevika" />
		<tag k="name" v="Lillevika" />
		<tag k="natural" v="bay" />
		<tag k="ssr:stedsnr" v="580431" />
	</node>
	<node id="-551413" lat="62.7171277812" lon="7.41869445354">
		<tag k="name" v="Sponneset" />
		<tag k="natural" v="cape" />
		<tag k="ssr:stedsnr" v="398868" />
	</node>
	<node id="-551924" lat="62.7745194467" lon="7.55879443644">
		<tag k="name" v="Bøplassneset" />
		<tag k="natural" v="cape" />
		<tag k="ssr:stedsnr" v="156621" />
	</node>
	<node id="-551411" lat="62.7528361099" lon="7.43228888752">
		<tag k="name" v="Brokstadflua" />
		<tag k="natural" v="shoal" />
		<tag k="place" v="locality" />
		<tag k="ssr:stedsnr" v="398830" />
	</node>
	<node id="-552946" lat="62.7978250011" lon="7.74864722423">
		<tag k="name" v="Lappvikbukta" />
		<tag k="natural" v="bay" />
		<tag k="ssr:stedsnr" v="762766" />
	</node>
	<node id="-552945" lat="62.7918666649" lon="7.72156666748">
		<tag k="name" v="Bordneset" />
		<tag k="natural" v="cape" />
		<tag k="ssr:stedsnr" v="762763" />
	</node>
	<node id="-552943" lat="62.7216472263" lon="7.20178611283">
		<tag k="name" v="Jektøya" />
		<tag k="place" v="island" />
		<tag k="ssr:stedsnr" v="762653" />
	</node>
	<node id="-552316" lat="62.716852782" lon="7.18311388098">
		<tag k="name" v="Aurikkelholmen" />
		<tag k="place" v="islet" />
		<tag k="ssr:stedsnr" v="496041" />
	</node>
	<node id="-552940" lat="62.6723638919" lon="7.41844443762">
		<tag k="name" v="Bispeneset" />
		<tag k="natural" v="cape" />
		<tag k="ssr:stedsnr" v="762608" />
	</node>
	<node id="-552939" lat="62.6773361139" lon="7.45770277187">
		<tag k="name" v="Nørdre Holmen" />
		<tag k="place" v="islet" />
		<tag k="ssr:stedsnr" v="762605" />
	</node>
	<node id="-552935" lat="62.7771972261" lon="7.64937776905">
		<tag k="name" v="Hamna" />
		<tag k="natural" v="bay" />
		<tag k="ssr:stedsnr" v="762162" />
	</node>
	<node id="-552416" lat="62.7332888932" lon="7.08978610451">
		<tag k="name" v="Mekverpa" />
		<tag k="natural" v="cape" />
		<tag k="ssr:stedsnr" v="520668" />
	</node>
	<node id="-552414" lat="62.6702888879" lon="7.43399999913">
		<tag k="name" v="Hatlevika" />
		<tag k="natural" v="bay" />
		<tag k="ssr:stedsnr" v="520632" />
	</node>
	<node id="-553381" lat="62.6521777782" lon="7.23623333028">
		<tag k="alt_name" v="Horkarneset" />
		<tag k="name" v="Ytter Hårkallneset" />
		<tag k="natural" v="cape" />
		<tag k="ssr:stedsnr" v="945954" />
	</node>
	<node id="-551388" lat="62.6940833333" lon="7.42456943618">
		<tag k="name" v="Leirholmen" />
		<tag k="place" v="islet" />
		<tag k="ssr:stedsnr" v="398637" />
	</node>
	<node id="-551386" lat="62.7368083339" lon="7.28920278151">
		<tag k="alt_name" v="Vardholman" />
		<tag k="name" v="Vardholmen" />
		<tag k="place" v="islet" />
		<tag k="ssr:stedsnr" v="398613" />
	</node>
	<node id="-551385" lat="62.6673083344" lon="7.4262666718">
		<tag k="alt_name" v="Skitnevikneset" />
		<tag k="name" v="Skjetnevikneset" />
		<tag k="natural" v="cape" />
		<tag k="ssr:stedsnr" v="398604" />
	</node>
	<node id="-552408" lat="62.7498250034" lon="6.98896110125">
		<tag k="alt_name" v="Litle Gausetholmen" />
		<tag k="name" v="Litleholmen" />
		<tag k="place" v="islet" />
		<tag k="ssr:stedsnr" v="520489" />
	</node>
	<node id="-552407" lat="62.7406361144" lon="6.9869472197">
		<tag k="fixme" v="consider seamark:type=rock or natural=shoal" />
		<tag k="name" v="Håskjeret" />
		<tag k="place" v="islet" />
		<tag k="ssr:stedsnr" v="520486" />
	</node>
	<node id="-551382" lat="62.7287694486" lon="7.04672222379">
		<tag k="name" v="Kroppungsvika" />
		<tag k="natural" v="bay" />
		<tag k="ssr:stedsnr" v="398475" />
	</node>
	<node id="-551380" lat="62.7312166648" lon="6.98291110627">
		<tag k="name" v="Svartholet" />
		<tag k="natural" v="bay" />
		<tag k="ssr:stedsnr" v="398470" />
	</node>
	<node id="-551379" lat="62.7331888849" lon="6.97871667077">
		<tag k="name" v="Engjavikneset" />
		<tag k="natural" v="cape" />
		<tag k="ssr:stedsnr" v="398468" />
	</node>
	<node id="-551888" lat="62.7579500005" lon="7.3617749933">
		<tag k="name" v="Hommelneset" />
		<tag k="natural" v="cape" />
		<tag k="ssr:stedsnr" v="156079" />
	</node>
	<node id="-552910" lat="62.7195777744" lon="7.23697221865">
		<tag k="fixme" v="consider seamark:type=rock or natural=shoal" />
		<tag k="name" v="Midtfjordskjeret" />
		<tag k="place" v="islet" />
		<tag k="ssr:stedsnr" v="739802" />
	</node>
	<node id="-552109" lat="62.6545638848" lon="7.23521111654">
		<tag k="name" v="Svartnesbukta" />
		<tag k="natural" v="bay" />
		<tag k="ssr:stedsnr" v="217951" />
	</node>
	<node id="-551372" lat="62.6906166669" lon="7.33837499509">
		<tag k="name" v="Håkåflua" />
		<tag k="natural" v="shoal" />
		<tag k="place" v="locality" />
		<tag k="ssr:stedsnr" v="398283" />
	</node>
	<node id="-551883" lat="62.7817361119" lon="7.54245555214">
		<tag k="name" v="Haugneset" />
		<tag k="natural" v="cape" />
		<tag k="ssr:stedsnr" v="156043" />
	</node>
	<node id="-552903" lat="62.7121416629" lon="7.24324443806">
		<tag k="name" v="Kolholman" />
		<tag k="place" v="islet" />
		<tag k="ssr:stedsnr" v="739784" />
	</node>
	<node id="-552902" lat="62.7293305582" lon="7.27167221572">
		<tag k="name" v="Bolsøya" />
		<tag k="place" v="island" />
		<tag k="ssr:stedsnr" v="739775" />
	</node>
	<node id="-552901" lat="62.7359166625" lon="7.36923611019">
		<tag k="name" v="Smoltnes" />
		<tag k="natural" v="cape" />
		<tag k="ssr:stedsnr" v="739773" />
	</node>
	<node id="-552900" lat="62.7349861098" lon="7.37181388288">
		<tag k="name" v="Juvika" />
		<tag k="natural" v="bay" />
		<tag k="ssr:stedsnr" v="739770" />
	</node>
	<node id="-552896" lat="62.6754388867" lon="7.4261555586">
		<tag k="name" v="Katteneset" />
		<tag k="natural" v="cape" />
		<tag k="ssr:stedsnr" v="739723" />
	</node>
	<node id="-551328" lat="62.6437540991" lon="7.30068376716">
		<tag k="alt_name" v="Vestaholmen, store" />
		<tag k="name" v="Store Vestadholmen" />
		<tag k="place" v="islet" />
		<tag k="ssr:stedsnr" v="376635" />
	</node>
	<node id="-552178" lat="62.7209666634" lon="7.39402222762">
		<tag k="name" v="Skagodden" />
		<tag k="natural" v="cape" />
		<tag k="ssr:stedsnr" v="436790" />
	</node>
	<node id="-551869" lat="62.7859138891" lon="7.69209721274">
		<tag k="bay" v="fjord" />
		<tag k="name" v="Osen" />
		<tag k="natural" v="bay" />
		<tag k="ssr:stedsnr" v="142843" />
	</node>
	<node id="-551865" lat="62.7305916673" lon="7.247527786">
		<tag k="fixme" v="consider seamark:type=rock or natural=shoal" />
		<tag k="name" v="Grønningan" />
		<tag k="place" v="islet" />
		<tag k="ssr:stedsnr" v="133755" />
	</node>
	<node id="-552888" lat="62.7200638891" lon="7.11940278136">
		<tag k="fixme" v="consider seamark:type=rock or natural=shoal" />
		<tag k="name" v="Kløvningan" />
		<tag k="place" v="islet" />
		<tag k="ssr:stedsnr" v="739077" />
	</node>
	<node id="-551564" lat="62.7359083322" lon="7.3462611171">
		<tag k="fixme" v="consider seamark:type=rock or natural=shoal" />
		<tag k="name" v="Rogna" />
		<tag k="place" v="islet" />
		<tag k="ssr:stedsnr" v="11768" />
	</node>
	<node id="-552885" lat="62.7156638923" lon="7.22334165889">
		<tag k="name" v="Klaveråsa" />
		<tag k="place" v="locality" />
		<tag k="ssr:stedsnr" v="725851" />
	</node>
	<node id="-552884" lat="62.7413666693" lon="7.31951389134">
		<tag k="name" v="Gulhaugflua" />
		<tag k="natural" v="shoal" />
		<tag k="place" v="locality" />
		<tag k="ssr:stedsnr" v="718891" />
	</node>
	<node id="-552883" lat="62.7153250015" lon="7.39734166951">
		<tag k="name" v="Ranesgrunnen" />
		<tag k="natural" v="shoal" />
		<tag k="place" v="locality" />
		<tag k="ssr:stedsnr" v="718889" />
	</node>
	<node id="-552882" lat="62.6930000022" lon="7.5286972172">
		<tag k="name" v="Heggeneset" />
		<tag k="natural" v="cape" />
		<tag k="ssr:stedsnr" v="718963" />
	</node>
	<node id="-552881" lat="62.6672166706" lon="7.35646111131">
		<tag k="name" v="Engvika" />
		<tag k="natural" v="bay" />
		<tag k="ssr:stedsnr" v="718953" />
	</node>
	<node id="-551649" lat="62.7217694486" lon="7.4154722167">
		<tag k="name" v="Båtnesleira" />
		<tag k="natural" v="bay" />
		<tag k="ssr:stedsnr" v="34843" />
	</node>
	<node id="-551240" lat="62.6920027787" lon="7.38982221918">
		<tag k="name" v="Rogneneset" />
		<tag k="natural" v="cape" />
		<tag k="ssr:stedsnr" v="338571" />
	</node>
	<node id="-553389" lat="62.7298055521" lon="7.36706944643">
		<tag k="name" v="Teinskagbåen" />
		<tag k="natural" v="shoal" />
		<tag k="place" v="locality" />
		<tag k="ssr:stedsnr" v="961911" />
	</node>
	<node id="-552875" lat="62.6902527744" lon="7.37201944808">
		<tag k="name" v="Naustneset" />
		<tag k="natural" v="cape" />
		<tag k="ssr:stedsnr" v="702912" />
	</node>
	<node id="-552263" lat="62.7341972244" lon="6.97455000114">
		<tag k="fixme" v="consider seamark:type=rock or natural=shoal" />
		<tag k="name" v="Skjeret" />
		<tag k="place" v="islet" />
		<tag k="ssr:stedsnr" v="459678" />
	</node>
	<node id="-552872" lat="62.725508329" lon="7.29605277175">
		<tag k="name" v="Dragvågen" />
		<tag k="natural" v="bay" />
		<tag k="ssr:stedsnr" v="702890" />
	</node>
	<node id="-552871" lat="62.7492527776" lon="7.28882222421">
		<tag k="name" v="Årønesbukta" />
		<tag k="natural" v="bay" />
		<tag k="ssr:stedsnr" v="702888" />
	</node>
	<node id="-553382" lat="62.6786277789" lon="7.29165277312">
		<tag k="name" v="Kleivneset" />
		<tag k="natural" v="cape" />
		<tag k="ssr:stedsnr" v="945969" />
	</node>
	<node id="-552869" lat="62.7309527742" lon="7.38463888676">
		<tag k="alt_name" v="Skjevika" />
		<tag k="name" v="Skjevikbukta" />
		<tag k="natural" v="bay" />
		<tag k="ssr:stedsnr" v="702879" />
	</node>
	<node id="-552356" lat="62.7123250019" lon="7.61799444854">
		<tag k="name" v="Skineset" />
		<tag k="natural" v="cape" />
		<tag k="ssr:stedsnr" v="516379" />
	</node>
	<node id="-553377" lat="62.7014416632" lon="7.35914999893">
		<tag k="name" v="Tjørnvika" />
		<tag k="natural" v="bay" />
		<tag k="ssr:stedsnr" v="945934" />
	</node>
	<node id="-552864" lat="62.7546305573" lon="7.44131945283">
		<tag k="name" v="Merrabukta" />
		<tag k="natural" v="bay" />
		<tag k="ssr:stedsnr" v="702828" />
	</node>
	<node id="-551839" lat="62.7280749972" lon="7.180369442">
		<tag k="name" v="Moldeholmen" />
		<tag k="place" v="islet" />
		<tag k="ssr:stedsnr" v="132073" />
	</node>
	<node id="-551838" lat="62.7303055578" lon="6.9796166731">
		<tag k="alt_name" v="Klarneset" />
		<tag k="name" v="Klorneset" />
		<tag k="natural" v="cape" />
		<tag k="ssr:stedsnr" v="132061" />
	</node>
	<node id="-551237" lat="62.7258277749" lon="6.99600556095">
		<tag k="name" v="Gjølbukta" />
		<tag k="natural" v="bay" />
		<tag k="ssr:stedsnr" v="338454" />
	</node>
	<node id="-551066" lat="62.6594333306" lon="7.23227221958">
		<tag k="alt_name" v="Skogvika" />
		<tag k="name" v="Skovika" />
		<tag k="natural" v="bay" />
		<tag k="ssr:stedsnr" v="277142" />
	</node>
	<node id="-551833" lat="62.7395777769" lon="7.3104138802">
		<tag k="name" v="Orvikholmflua" />
		<tag k="natural" v="shoal" />
		<tag k="place" v="locality" />
		<tag k="ssr:stedsnr" v="111882" />
	</node>
	<node id="-553367" lat="62.7191944407" lon="7.65388610497">
		<tag k="name" v="Litlegodsommaren" />
		<tag k="natural" v="beach" />
		<tag k="place" v="locality" />
		<tag k="ssr:stedsnr" v="945885" />
	</node>
	<node id="-553366" lat="62.7303472186" lon="7.38746389209">
		<tag k="name" v="Nesberget" />
		<tag k="natural" v="cape" />
		<tag k="ssr:stedsnr" v="945874" />
	</node>
	<node id="-552857" lat="62.7060055518" lon="7.19056666702">
		<tag k="name" v="Forøytangen" />
		<tag k="natural" v="cape" />
		<tag k="ssr:stedsnr" v="702686" />
	</node>
	<node id="-551828" lat="62.7401999963" lon="7.37510556522">
		<tag k="name" v="Brattstøa" />
		<tag k="natural" v="bay" />
		<tag k="ssr:stedsnr" v="95932" />
	</node>
	<node id="-552850" lat="62.7324222222" lon="7.09205554786">
		<tag k="name" v="Valen" />
		<tag k="place" v="islet" />
		<tag k="ssr:stedsnr" v="702648" />
	</node>
	<node id="-551825" lat="62.6907333351" lon="7.35348611224">
		<tag k="name" v="Klokkarbryggja" />
		<tag k="natural" v="cape" />
		<tag k="ssr:stedsnr" v="95907" />
	</node>
	<node id="-551312" lat="62.7803083362" lon="7.65646111308">
		<tag k="name" v="Holmen" />
		<tag k="place" v="islet" />
		<tag k="ssr:stedsnr" v="375783" />
	</node>
	<node id="-552335" lat="62.737069446" lon="7.29161110573">
		<tag k="name" v="Turhusholmen" />
		<tag k="place" v="islet" />
		<tag k="ssr:stedsnr" v="497770" />
	</node>
	<node id="-552173" lat="62.6646333346" lon="7.41372777426">
		<tag k="name" v="Storsandvika" />
		<tag k="natural" v="bay" />
		<tag k="ssr:stedsnr" v="436739" />
	</node>
	<node id="-552331" lat="62.6751472223" lon="7.43308610713">
		<tag k="name" v="Nørvågen" />
		<tag k="natural" v="bay" />
		<tag k="ssr:stedsnr" v="497724" />
	</node>
	<node id="-552842" lat="62.7328527803" lon="6.98138611922">
		<tag k="name" v="Hatlevika" />
		<tag k="natural" v="bay" />
		<tag k="ssr:stedsnr" v="702485" />
	</node>
	<node id="-552841" lat="62.7394722211" lon="6.98626111367">
		<tag k="name" v="Håskjervika" />
		<tag k="natural" v="bay" />
		<tag k="ssr:stedsnr" v="702477" />
	</node>
	<node id="-552840" lat="62.7305972226" lon="7.05644999874">
		<tag k="name" v="Hatlevikbukta" />
		<tag k="natural" v="bay" />
		<tag k="ssr:stedsnr" v="702462" />
	</node>
	<node id="-551303" lat="62.7275666674" lon="7.26705833408">
		<tag k="name" v="Vikan" />
		<tag k="natural" v="bay" />
		<tag k="ssr:stedsnr" v="375726" />
	</node>
	<node id="-551085" lat="62.727169441" lon="7.26809444483">
		<tag k="name" v="Bollen" />
		<tag k="natural" v="cape" />
		<tag k="ssr:stedsnr" v="277279" />
	</node>
	<node id="-552837" lat="62.7196305512" lon="7.17638610442">
		<tag k="name" v="Litle Hjertøya" />
		<tag k="place" v="island" />
		<tag k="ssr:stedsnr" v="702446" />
	</node>
	<node id="-551811" lat="62.7973472194" lon="7.74850278279">
		<tag k="name" v="Lappvikneset" />
		<tag k="natural" v="cape" />
		<tag k="ssr:stedsnr" v="95756" />
	</node>
	<node id="-551915" lat="62.7471694483" lon="6.99102222512">
		<tag k="alt_name" v="Gausetvika" />
		<tag k="name" v="Gausetbukta" />
		<tag k="natural" v="bay" />
		<tag k="ssr:stedsnr" v="156474" />
	</node>
	<node id="-552319" lat="62.722755553" lon="7.19795276989">
		<tag k="name" v="Brentøya" />
		<tag k="place" v="islet" />
		<tag k="ssr:stedsnr" v="496082" />
	</node>
	<node id="-552317" lat="62.7197722205" lon="7.1777111087">
		<tag k="name" v="Hjertholmen" />
		<tag k="place" v="islet" />
		<tag k="ssr:stedsnr" v="496042" />
	</node>
	<node id="-551292" lat="62.7382694413" lon="7.19790556401">
		<tag k="name" v="Bolsøynes" />
		<tag k="natural" v="cape" />
		<tag k="ssr:stedsnr" v="375054" />
	</node>
	<node id="-551291" lat="62.7311583317" lon="7.15920556364">
		<tag k="name" v="Løkkeskallen" />
		<tag k="natural" v="shoal" />
		<tag k="place" v="locality" />
		<tag k="ssr:stedsnr" v="354159" />
	</node>
	<node id="-551290" lat="62.6767194409" lon="7.29825833104">
		<tag k="name" v="Reitaberget" />
		<tag k="natural" v="cape" />
		<tag k="ssr:stedsnr" v="353169" />
	</node>
	<node id="-551289" lat="62.7234555549" lon="7.27154721341">
		<tag k="name" v="Måsholman" />
		<tag k="place" v="islet" />
		<tag k="ssr:stedsnr" v="353165" />
	</node>
	<node id="-551800" lat="62.7190944472" lon="7.1855027692">
		<tag k="name" v="Hjertøysundet" />
		<tag k="natural" v="strait" />
		<tag k="ssr:stedsnr" v="95680" />
	</node>
	<node id="-553335" lat="62.7380333301" lon="7.3008916607">
		<tag k="fixme" v="consider seamark:type=rock or natural=shoal" />
		<tag k="name" v="Ytste Skjeret" />
		<tag k="place" v="islet" />
		<tag k="ssr:stedsnr" v="945591" />
	</node>
	<node id="-551286" lat="62.7183638928" lon="7.64964721262">
		<tag k="name" v="Brenslevika" />
		<tag k="natural" v="bay" />
		<tag k="ssr:stedsnr" v="338992" />
	</node>
	<node id="-552817" lat="62.7436222208" lon="7.24915556067">
		<tag k="name" v="Leirgrovvikneset" />
		<tag k="natural" v="cape" />
		<tag k="ssr:stedsnr" v="702210" />
	</node>
	<node id="-553328" lat="62.7256527802" lon="6.9832499971">
		<tag k="name" v="Hamballbukta" />
		<tag k="natural" v="bay" />
		<tag k="ssr:stedsnr" v="945449" />
	</node>
	<node id="-551790" lat="62.7273527785" lon="7.02909165777">
		<tag k="name" v="Haukabøbukta" />
		<tag k="natural" v="bay" />
		<tag k="ssr:stedsnr" v="95452" />
	</node>
	<node id="-551277" lat="62.7247083314" lon="7.28574166594">
		<tag k="name" v="Skomakarneset" />
		<tag k="natural" v="cape" />
		<tag k="ssr:stedsnr" v="338908" />
	</node>
	<node id="-551787" lat="62.7340694454" lon="7.09941388713">
		<tag k="name" v="Mekbukta" />
		<tag k="natural" v="bay" />
		<tag k="ssr:stedsnr" v="95619" />
	</node>
	<node id="-551784" lat="62.7273638877" lon="6.9806388804">
		<tag k="alt_name" v="Frihamnneset" />
		<tag k="name" v="Frihamnsnagen" />
		<tag k="natural" v="cape" />
		<tag k="ssr:stedsnr" v="95445" />
	</node>
	<node id="-551579" lat="62.6624138862" lon="7.38915277786">
		<tag k="alt_name" v="Sekkensundet" />
		<tag k="name" v="Sekkesundet" />
		<tag k="natural" v="strait" />
		<tag k="ssr:stedsnr" v="12732" />
	</node>
	<node id="-551057" lat="62.7682583297" lon="7.43805833224">
		<tag k="fixme" v="consider seamark:type=rock or natural=shoal" />
		<tag k="name" v="Øygardsflua" />
		<tag k="place" v="islet" />
		<tag k="ssr:stedsnr" v="277061" />
	</node>
	<node id="-552291" lat="62.6959305585" lon="7.33784443614">
		<tag k="alt_name" v="Litle Kalvsøya" />
		<tag k="name" v="Litle Kalvsøyna" />
		<tag k="place" v="islet" />
		<tag k="ssr:stedsnr" v="459926" />
	</node>
	<node id="-551266" lat="62.7498111075" lon="7.42932500732">
		<tag k="name" v="Brokstadbukta" />
		<tag k="natural" v="bay" />
		<tag k="ssr:stedsnr" v="338827" />
	</node>
	<node id="-552289" lat="62.7246194407" lon="7.26556944437">
		<tag k="fixme" v="consider seamark:type=rock or natural=shoal" />
		<tag k="name" v="Kobbeflua" />
		<tag k="place" v="islet" />
		<tag k="ssr:stedsnr" v="459920" />
	</node>
	<node id="-552591" lat="62.7230944403" lon="7.09833610788">
		<tag k="name" v="Mekgrunna" />
		<tag k="natural" v="shoal" />
		<tag k="place" v="locality" />
		<tag k="ssr:stedsnr" v="597138" />
	</node>
	<node id="-552283" lat="62.7529166651" lon="7.41843888931">
		<tag k="fixme" v="consider seamark:type=rock or natural=shoal" />
		<tag k="name" v="Brokstadskjeret" />
		<tag k="place" v="islet" />
		<tag k="ssr:stedsnr" v="459837" />
	</node>
	<node id="-552281" lat="62.7437361119" lon="7.2459666658">
		<tag k="name" v="Leirgrovvika" />
		<tag k="natural" v="bay" />
		<tag k="ssr:stedsnr" v="459810" />
	</node>
	<node id="-551768" lat="62.6799333292" lon="7.45495277981">
		<tag k="name" v="Skjeret" />
		<tag k="place" v="islet" />
		<tag k="ssr:stedsnr" v="95173" />
	</node>
	<node id="-552676" lat="62.7323055514" lon="7.0854444371">
		<tag k="fixme" v="consider seamark:type=rock or natural=shoal" />
		<tag k="name" v="Pinskjeret" />
		<tag k="place" v="islet" />
		<tag k="ssr:stedsnr" v="641431" />
	</node>
	<node id="-551305" lat="62.7301722189" lon="7.26432222379">
		<tag k="name" v="Turhusneset" />
		<tag k="natural" v="cape" />
		<tag k="ssr:stedsnr" v="375732" />
	</node>
	<node id="-552163" lat="62.7177416674" lon="7.26166944501">
		<tag k="name" v="Forøya" />
		<tag k="place" v="island" />
		<tag k="ssr:stedsnr" v="436032" />
	</node>
	<node id="-551248" lat="62.72605833" lon="7.00982778337">
		<tag k="name" v="Barbukta" />
		<tag k="natural" v="bay" />
		<tag k="ssr:stedsnr" v="338646" />
	</node>
	<node id="-553362" lat="62.7280805547" lon="7.41426666278">
		<tag k="name" v="Geitnesvågen" />
		<tag k="natural" v="bay" />
		<tag k="ssr:stedsnr" v="945840" />
	</node>
	<node id="-552123" lat="62.6956361145" lon="7.34704444149">
		<tag k="name" v="Vevarneset" />
		<tag k="natural" v="cape" />
		<tag k="ssr:stedsnr" v="254675" />
	</node>
	<node id="-551241" lat="62.6611388927" lon="7.38824444424">
		<tag k="name" v="Sekkeneset" />
		<tag k="natural" v="cape" />
		<tag k="ssr:stedsnr" v="338579" />
	</node>
	<node id="-551752" lat="62.7307055592" lon="7.40711667273">
		<tag k="name" v="Klipra" />
		<tag k="natural" v="cape" />
		<tag k="ssr:stedsnr" v="95115" />
	</node>
	<node id="-552775" lat="62.6478249997" lon="7.27415833424">
		<tag k="name" v="Bytneset" />
		<tag k="natural" v="cape" />
		<tag k="ssr:stedsnr" v="701387" />
	</node>
	<node id="-552774" lat="62.7339527804" lon="7.37164721631">
		<tag k="name" v="Båtbukta" />
		<tag k="natural" v="bay" />
		<tag k="ssr:stedsnr" v="701380" />
	</node>
	<node id="-553285" lat="62.791977782" lon="7.67217223112">
		<tag k="name" v="Lønesvågen" />
		<tag k="natural" v="bay" />
		<tag k="ssr:stedsnr" v="945023" />
	</node>
	<node id="-551235" lat="62.7429277758" lon="6.98891389629">
		<tag k="name" v="Vikaneset" />
		<tag k="natural" v="cape" />
		<tag k="ssr:stedsnr" v="338435" />
	</node>
	<node id="-552257" lat="62.6779722186" lon="7.44999444607">
		<tag k="name" v="Fyrholmen" />
		<tag k="place" v="islet" />
		<tag k="ssr:stedsnr" v="459624" />
	</node>
	<node id="-552768" lat="62.7006638893" lon="7.5629611054">
		<tag k="name" v="Neråkerneset" />
		<tag k="natural" v="cape" />
		<tag k="ssr:stedsnr" v="702723" />
	</node>
	<node id="-551392" lat="62.7248805512" lon="7.01104722082">
		<tag k="name" v="Gullstabben" />
		<tag k="natural" v="cape" />
		<tag k="ssr:stedsnr" v="398653" />
	</node>
	<node id="-551135" lat="62.6685166659" lon="7.33878610202">
		<tag k="name" v="Seterneset" />
		<tag k="natural" v="cape" />
		<tag k="ssr:stedsnr" v="277961" />
	</node>
	<node id="-553276" lat="62.7767583311" lon="7.57826389132">
		<tag k="name" v="Mausetneset" />
		<tag k="natural" v="cape" />
		<tag k="ssr:stedsnr" v="944767" />
	</node>
	<node id="-553275" lat="62.6977916664" lon="7.34194166702">
		<tag k="name" v="Holmen" />
		<tag k="place" v="islet" />
		<tag k="ssr:stedsnr" v="944344" />
	</node>
	<node id="-553274" lat="62.7203555583" lon="7.2842222294">
		<tag k="name" v="Selvika" />
		<tag k="natural" v="bay" />
		<tag k="ssr:stedsnr" v="944343" />
	</node>
	<node id="-553273" lat="62.6942166624" lon="7.34983611758">
		<tag k="name" v="Sandvika" />
		<tag k="natural" v="bay" />
		<tag k="ssr:stedsnr" v="944337" />
	</node>
	<node id="-553270" lat="62.689702774" lon="7.51254444239">
		<tag k="name" v="Vikan" />
		<tag k="natural" v="beach" />
		<tag k="place" v="locality" />
		<tag k="ssr:stedsnr" v="941445" />
	</node>
	<node id="-552329" lat="62.6735472189" lon="7.23547499314">
		<tag k="name" v="Kvalen" />
		<tag k="natural" v="cape" />
		<tag k="ssr:stedsnr" v="497713" />
	</node>
	<node id="-551390" lat="62.7175222253" lon="7.1900222318">
		<tag k="name" v="Ramsøya" />
		<tag k="place" v="island" />
		<tag k="ssr:stedsnr" v="398647" />
	</node>
	<node id="-552243" lat="62.6927416702" lon="7.39125277832">
		<tag k="name" v="Rogna" />
		<tag k="natural" v="cape" />
		<tag k="ssr:stedsnr" v="459209" />
	</node>
	<node id="-551216" lat="62.6869749976" lon="7.45399721362">
		<tag k="name" v="Pershola" />
		<tag k="natural" v="bay" />
		<tag k="ssr:stedsnr" v="338177" />
	</node>
	<node id="-551304" lat="62.7238694409" lon="7.25571389086">
		<tag k="fixme" v="consider seamark:type=rock or natural=shoal" />
		<tag k="name" v="Mauringan" />
		<tag k="place" v="islet" />
		<tag k="ssr:stedsnr" v="375727" />
	</node>
	<node id="-552749" lat="62.6713583378" lon="7.41948055423">
		<tag k="name" v="Bondvika" />
		<tag k="natural" v="bay" />
		<tag k="ssr:stedsnr" v="679707" />
	</node>
	<node id="-552071" lat="62.6771444448" lon="7.43335555017">
		<tag k="alt_name" v="Grønneset" />
		<tag k="name" v="Grønvikneset" />
		<tag k="natural" v="cape" />
		<tag k="ssr:stedsnr" v="217634" />
	</node>
	<node id="-553256" lat="62.7164222202" lon="7.42305833911">
		<tag k="name" v="Hovdenakkvågen" />
		<tag k="natural" v="bay" />
		<tag k="ssr:stedsnr" v="922749" />
	</node>
	<node id="-552753" lat="62.7827472224" lon="7.52971111399">
		<tag k="name" v="Skjevika" />
		<tag k="natural" v="bay" />
		<tag k="ssr:stedsnr" v="679764" />
	</node>
	<node id="-553251" lat="62.66763889" lon="7.42692500332">
		<tag k="alt_name" v="Skitnevika" />
		<tag k="name" v="Skjetnevika" />
		<tag k="natural" v="bay" />
		<tag k="ssr:stedsnr" v="922724" />
	</node>
	<node id="-551712" lat="62.793180558" lon="7.66681389194">
		<tag k="name" v="Oltervågen" />
		<tag k="natural" v="bay" />
		<tag k="ssr:stedsnr" v="73761" />
	</node>
	<node id="-552733" lat="62.7217666645" lon="7.20214166834">
		<tag k="name" v="Ospholmen" />
		<tag k="place" v="islet" />
		<tag k="ssr:stedsnr" v="663865" />
	</node>
	<node id="-553244" lat="62.7246083321" lon="7.30358055346">
		<tag k="name" v="Sandvika" />
		<tag k="natural" v="bay" />
		<tag k="ssr:stedsnr" v="921814" />
	</node>
	<node id="-552731" lat="62.6922194456" lon="7.42710277392">
		<tag k="name" v="Hamnavika" />
		<tag k="natural" v="bay" />
		<tag k="ssr:stedsnr" v="657957" />
	</node>
	<node id="-553242" lat="62.7261527819" lon="7.2300861145">
		<tag k="name" v="Gåsøya" />
		<tag k="place" v="islet" />
		<tag k="ssr:stedsnr" v="921766" />
	</node>
	<node id="-551193" lat="62.6954305598" lon="7.33793054688">
		<tag k="fixme" v="consider seamark:type=rock or natural=shoal" />
		<tag k="name" v="Juten" />
		<tag k="place" v="islet" />
		<tag k="ssr:stedsnr" v="337318" />
	</node>
	<node id="-551192" lat="62.7121944432" lon="7.6142472258">
		<tag k="name" v="Horsgorsjøen" />
		<tag k="natural" v="beach" />
		<tag k="place" v="locality" />
		<tag k="ssr:stedsnr" v="334451" />
	</node>
	<node id="-552580" lat="62.6642083371" lon="7.37691666636">
		<tag k="name" v="Skarbukta" />
		<tag k="natural" v="bay" />
		<tag k="ssr:stedsnr" v="580945" />
	</node>
	<node id="-553237" lat="62.7212111141" lon="7.18278888676">
		<tag k="name" v="Kongerholmen" />
		<tag k="place" v="islet" />
		<tag k="ssr:stedsnr" v="921074" />
	</node>
	<node id="-553236" lat="62.7057083329" lon="7.19529723171">
		<tag k="name" v="Risholmen" />
		<tag k="natural" v="shoal" />
		<tag k="place" v="locality" />
		<tag k="ssr:stedsnr" v="908888" />
	</node>
	<node id="-553234" lat="62.7075111071" lon="7.3876777755">
		<tag k="fixme" v="consider seamark:type=rock or natural=shoal" />
		<tag k="name" v="Røsteskjera" />
		<tag k="place" v="islet" />
		<tag k="ssr:stedsnr" v="900891" />
	</node>
	<node id="-551555" lat="62.6986666649" lon="7.33839445111">
		<tag k="alt_name" v="Store Karlsøya" />
		<tag k="name" v="Karlsøya" />
		<tag k="place" v="islet" />
		<tag k="ssr:stedsnr" v="11696" />
	</node>
	<node id="-551696" lat="62.7067805584" lon="7.40636666656">
		<tag k="name" v="Vågsetervågen" />
		<tag k="natural" v="bay" />
		<tag k="ssr:stedsnr" v="72763" />
	</node>
	<node id="-551695" lat="62.7102888871" lon="7.40156389865">
		<tag k="name" v="Grasholmen" />
		<tag k="place" v="islet" />
		<tag k="ssr:stedsnr" v="72762" />
	</node>
	<node id="-552718" lat="62.7070916688" lon="7.3820888863">
		<tag k="name" v="Geitholmen" />
		<tag k="place" v="islet" />
		<tag k="ssr:stedsnr" v="641920" />
	</node>
	<node id="-551178" lat="62.7138944468" lon="7.22907777056">
		<tag k="name" v="Islandsvågen" />
		<tag k="natural" v="bay" />
		<tag k="ssr:stedsnr" v="315785" />
	</node>
	<node id="-551895" lat="62.7496472249" lon="7.40789166664">
		<tag k="name" v="Skallen" />
		<tag k="natural" v="shoal" />
		<tag k="place" v="locality" />
		<tag k="ssr:stedsnr" v="156140" />
	</node>
	<node id="-552712" lat="62.6914305577" lon="7.34994722758">
		<tag k="fixme" v="consider seamark:type=rock or natural=shoal" />
		<tag k="name" v="Langskjeret" />
		<tag k="place" v="islet" />
		<tag k="ssr:stedsnr" v="641886" />
	</node>
	<node id="-551166" lat="62.7151222191" lon="7.6313194503">
		<tag k="name" v="Gammelstøneset" />
		<tag k="natural" v="cape" />
		<tag k="ssr:stedsnr" v="315698" />
	</node>
	<node id="-552709" lat="62.7031388911" lon="7.3687444456">
		<tag k="name" v="Saltkjelen" />
		<tag k="natural" v="bay" />
		<tag k="ssr:stedsnr" v="641870" />
	</node>
	<node id="-551441" lat="62.7865611114" lon="7.66726944837">
		<tag k="name" v="Langneset" />
		<tag k="natural" v="cape" />
		<tag k="ssr:stedsnr" v="475835" />
	</node>
	<node id="-551217" lat="62.7053972265" lon="7.39933056163">
		<tag k="name" v="Vikneset" />
		<tag k="natural" v="cape" />
		<tag k="ssr:stedsnr" v="338181" />
	</node>
	<node id="-551680" lat="62.6491999978" lon="7.25996944728">
		<tag k="name" v="Kvitneset" />
		<tag k="natural" v="cape" />
		<tag k="ssr:stedsnr" v="51130" />
	</node>
	<node id="-551679" lat="62.7227000014" lon="7.30151944358">
		<tag k="name" v="Dragfluan" />
		<tag k="natural" v="shoal" />
		<tag k="place" v="locality" />
		<tag k="ssr:stedsnr" v="50134" />
	</node>
	<node id="-551678" lat="62.6440305558" lon="7.30120555949">
		<tag k="name" v="Vestadholmane" />
		<tag k="place" v="islet" />
		<tag k="ssr:stedsnr" v="36547" />
	</node>
	<node id="-552325" lat="62.7002694478" lon="7.02547777804">
		<tag k="bay" v="fjord" />
		<tag k="name" v="Moldefjorden" />
		<tag k="natural" v="bay" />
		<tag k="ssr:stedsnr" v="497264" />
	</node>
	<node id="-552699" lat="62.761980558" lon="7.4772638793">
		<tag k="name" v="Dingeneset" />
		<tag k="natural" v="cape" />
		<tag k="ssr:stedsnr" v="641763" />
	</node>
	<node id="-551940" lat="62.7827416689" lon="7.69627222198">
		<tag k="name" v="Saltbøbukta" />
		<tag k="natural" v="bay" />
		<tag k="ssr:stedsnr" v="156775" />
	</node>
	<node id="-552751" lat="62.7174833331" lon="7.24902778401">
		<tag k="alt_name" v="Storvika" />
		<tag k="name" v="Storvikbukta" />
		<tag k="natural" v="bay" />
		<tag k="ssr:stedsnr" v="679756" />
	</node>
	<node id="-551619" lat="62.6848777749" lon="7.44477499316">
		<tag k="name" v="Sundet" />
		<tag k="natural" v="strait" />
		<tag k="ssr:stedsnr" v="34212" />
	</node>
	<node id="-551156" lat="62.7371861125" lon="7.29833889791">
		<tag k="name" v="Vardholmneset" />
		<tag k="natural" v="cape" />
		<tag k="ssr:stedsnr" v="314769" />
	</node>
	<node id="-551155" lat="62.7332638878" lon="7.33353332903">
		<tag k="name" v="Bolsøybukta" />
		<tag k="natural" v="bay" />
		<tag k="ssr:stedsnr" v="314766" />
	</node>
	<node id="-552690" lat="62.7383833315" lon="6.98122222242">
		<tag k="name" v="Bårstauå" />
		<tag k="natural" v="bay" />
		<tag k="ssr:stedsnr" v="641661" />
	</node>
	<node id="-551153" lat="62.6486683981" lon="7.29875950342">
		<tag k="alt_name" v="Vestastranda" />
		<tag k="name" v="Vestadstranda" />
		<tag k="natural" v="beach" />
		<tag k="place" v="locality" />
		<tag k="ssr:stedsnr" v="315612" />
	</node>
	<node id="-552175" lat="62.7122805518" lon="7.40859166119">
		<tag k="name" v="Kuholmen" />
		<tag k="place" v="islet" />
		<tag k="ssr:stedsnr" v="436775" />
	</node>
	<node id="-552685" lat="62.6741861069" lon="7.41557499312">
		<tag k="alt_name" v="Katnesgrunna" />
		<tag k="name" v="Kattenesgrunnen" />
		<tag k="natural" v="shoal" />
		<tag k="place" v="locality" />
		<tag k="ssr:stedsnr" v="641601" />
	</node>
	<node id="-552172" lat="62.6783555552" lon="7.44938054713">
		<tag k="name" v="Sølsnesholmane" />
		<tag k="old_name" v="Solsnesholmane" />
		<tag k="place" v="islet" />
		<tag k="ssr:stedsnr" v="436724" />
	</node>
	<node id="-552683" lat="62.6849833315" lon="7.4500722151">
		<tag k="name" v="Labergneset" />
		<tag k="natural" v="cape" />
		<tag k="ssr:stedsnr" v="641592" />
	</node>
	<node id="-552682" lat="62.6648916647" lon="7.40718888337">
		<tag k="name" v="Hangholmsundet" />
		<tag k="natural" v="strait" />
		<tag k="ssr:stedsnr" v="641587" />
	</node>
	<node id="-551145" lat="62.7231055573" lon="7.23531667513">
		<tag k="name" v="Einarvika" />
		<tag k="natural" v="bay" />
		<tag k="ssr:stedsnr" v="293174" />
	</node>
	<node id="-551144" lat="62.7125555577" lon="7.11776945145">
		<tag k="name" v="Hjertøytangen" />
		<tag k="natural" v="cape" />
		<tag k="ssr:stedsnr" v="293172" />
	</node>
	<node id="-553191" lat="62.7140694467" lon="7.24651388842">
		<tag k="name" v="Midtbukta" />
		<tag k="natural" v="bay" />
		<tag k="ssr:stedsnr" v="847868" />
	</node>
	<node id="-553189" lat="62.7897833308" lon="7.67102499447">
		<tag k="name" v="Lønesbukta" />
		<tag k="natural" v="bay" />
		<tag k="ssr:stedsnr" v="840804" />
	</node>
	<node id="-553188" lat="62.7394750017" lon="6.96914445331">
		<tag k="name" v="Gausetflua" />
		<tag k="natural" v="shoal" />
		<tag k="place" v="locality" />
		<tag k="ssr:stedsnr" v="840133" />
	</node>
	<node id="-552675" lat="62.732358335" lon="7.08643056497">
		<tag k="name" v="Geitapina" />
		<tag k="place" v="islet" />
		<tag k="ssr:stedsnr" v="641429" />
	</node>
	<node id="-552290" lat="62.7257444431" lon="7.29254722869">
		<tag k="name" v="Nothusbukta" />
		<tag k="natural" v="bay" />
		<tag k="ssr:stedsnr" v="459923" />
	</node>
	<node id="-552315" lat="62.7347194425" lon="7.10160000781">
		<tag k="name" v="Mekstranda" />
		<tag k="natural" v="beach" />
		<tag k="place" v="locality" />
		<tag k="ssr:stedsnr" v="482615" />
	</node>
	<node id="-552160" lat="62.685119442" lon="7.46684723081">
		<tag k="name" v="Breidvika" />
		<tag k="natural" v="bay" />
		<tag k="ssr:stedsnr" v="415974" />
	</node>
	<node id="-551647" lat="62.6955361074" lon="7.44240277513">
		<tag k="name" v="Bergsvikbukta" />
		<tag k="natural" v="bay" />
		<tag k="ssr:stedsnr" v="34827" />
	</node>
	<node id="-553182" lat="62.6795388896" lon="7.28524445309">
		<tag k="name" v="Storvikbukta" />
		<tag k="natural" v="bay" />
		<tag k="ssr:stedsnr" v="824958" />
	</node>
	<node id="-552741" lat="62.7259388906" lon="7.02411665687">
		<tag k="name" v="Haukabøholmen" />
		<tag k="place" v="islet" />
		<tag k="ssr:stedsnr" v="679094" />
	</node>
	<node id="-553180" lat="62.7471333349" lon="7.38063055033">
		<tag k="alt_name" v="Austre Grønnesfluin" />
		<tag k="name" v="Grønnesfluin" />
		<tag k="place" v="locality" />
		<tag k="seamark:type" v="rock" />
		<tag k="ssr:stedsnr" v="824945" />
	</node>
	<node id="-553177" lat="62.7336555514" lon="7.34291388388">
		<tag k="name" v="Tingneset" />
		<tag k="natural" v="cape" />
		<tag k="ssr:stedsnr" v="824936" />
	</node>
	<node id="-553176" lat="62.7320305536" lon="7.36654999786">
		<tag k="name" v="Teinskaget" />
		<tag k="natural" v="cape" />
		<tag k="ssr:stedsnr" v="824937" />
	</node>
	<node id="-552068" lat="62.7295749973" lon="6.983569449">
		<tag k="name" v="Mordalsvågen" />
		<tag k="natural" v="bay" />
		<tag k="ssr:stedsnr" v="217503" />
	</node>
	<node id="-551125" lat="62.7291111128" lon="7.41389999085">
		<tag k="name" v="Revsneset" />
		<tag k="natural" v="cape" />
		<tag k="ssr:stedsnr" v="277854" />
	</node>
	<node id="-551123" lat="62.7301694426" lon="7.41082499213">
		<tag k="name" v="Røvikvågen" />
		<tag k="natural" v="bay" />
		<tag k="ssr:stedsnr" v="277853" />
	</node>
	<node id="-551122" lat="62.7542861136" lon="7.44157500371">
		<tag k="name" v="Merrabuktneset" />
		<tag k="natural" v="cape" />
		<tag k="ssr:stedsnr" v="277839" />
	</node>
	<node id="-552568" lat="62.7501666696" lon="7.42897777498">
		<tag k="name" v="Brokstadneset" />
		<tag k="natural" v="cape" />
		<tag k="ssr:stedsnr" v="580838" />
	</node>
	<node id="-552328" lat="62.6460111138" lon="7.31055277175">
		<tag k="alt_name" v="Vestaholmen, l;Litle Vestaholmen" />
		<tag k="name" v="Litle Vestadholmen" />
		<tag k="place" v="islet" />
		<tag k="ssr:stedsnr" v="497613" />
	</node>
	<node id="-551829" lat="62.6521888867" lon="7.23778611753">
		<tag k="name" v="Hårskallvika" />
		<tag k="natural" v="bay" />
		<tag k="ssr:stedsnr" v="95947" />
	</node>
	<node id="-551116" lat="62.7418055598" lon="7.39115555534">
		<tag k="name" v="Ytste Grønnesbukta" />
		<tag k="natural" v="bay" />
		<tag k="ssr:stedsnr" v="277800" />
	</node>
	<node id="-551522" lat="62.729355555" lon="7.2654888873">
		<tag k="name" v="Storbukta" />
		<tag k="natural" v="bay" />
		<tag k="ssr:stedsnr" v="884903" />
	</node>
	<node id="-551623" lat="62.7242805548" lon="7.27075833191">
		<tag k="name" v="Vikneset" />
		<tag k="natural" v="cape" />
		<tag k="ssr:stedsnr" v="34278" />
	</node>
	<node id="-552255" lat="62.6866805524" lon="7.49226945391">
		<tag k="name" v="Malonesbukta" />
		<tag k="natural" v="bay" />
		<tag k="ssr:stedsnr" v="459597" />
	</node>
	<node id="-552133" lat="62.7179805535" lon="7.41407499287">
		<tag k="name" v="Raneset" />
		<tag k="natural" v="cape" />
		<tag k="ssr:stedsnr" v="254763" />
	</node>
	<node id="-553156" lat="62.7425666626" lon="6.98882778455">
		<tag k="name" v="Matholet" />
		<tag k="natural" v="bay" />
		<tag k="ssr:stedsnr" v="824695" />
	</node>
	<node id="-553334" lat="62.7111777751" lon="7.41503332778">
		<tag k="name" v="Vågseterneset" />
		<tag k="natural" v="cape" />
		<tag k="ssr:stedsnr" v="945578" />
	</node>
	<node id="-551104" lat="62.7382805544" lon="7.19905000394">
		<tag k="name" v="Fuglsetneset" />
		<tag k="natural" v="cape" />
		<tag k="ssr:stedsnr" v="277693" />
	</node>
	<node id="-551103" lat="62.7392972207" lon="7.19041943832">
		<tag k="name" v="Moldegårdsleira" />
		<tag k="natural" v="beach" />
		<tag k="place" v="locality" />
		<tag k="ssr:stedsnr" v="277691" />
	</node>
	<node id="-553147" lat="62.66852778" lon="7.41196666449">
		<tag k="name" v="Litlesandvika" />
		<tag k="natural" v="bay" />
		<tag k="ssr:stedsnr" v="824625" />
	</node>
	<node id="-551097" lat="62.7378027738" lon="7.30708333437">
		<tag k="fixme" v="consider seamark:type=rock or natural=shoal" />
		<tag k="name" v="Inste Skjeret" />
		<tag k="place" v="islet" />
		<tag k="ssr:stedsnr" v="277630" />
	</node>
	<node id="-552120" lat="62.7440222247" lon="6.98508054744">
		<tag k="alt_name" v="Store Gausetholmen" />
		<tag k="name" v="Storholmen" />
		<tag k="place" v="islet" />
		<tag k="ssr:stedsnr" v="254088" />
	</node>
	<node id="-553141" lat="62.7414416622" lon="6.98836388624">
		<tag k="name" v="Skippervika" />
		<tag k="natural" v="bay" />
		<tag k="ssr:stedsnr" v="824508" />
	</node>
	<node id="-552627" lat="62.6939972246" lon="7.53353055377">
		<tag k="name" v="Apalneset" />
		<tag k="natural" v="cape" />
		<tag k="ssr:stedsnr" v="637547" />
	</node>
	<node id="-552114" lat="62.6458777821" lon="7.31040833032">
		<tag k="name" v="Litleholmen" />
		<tag k="place" v="islet" />
		<tag k="ssr:stedsnr" v="218572" />
	</node>
	<node id="-551845" lat="62.6743749983" lon="7.44037221593">
		<tag k="name" v="Galtevika" />
		<tag k="natural" v="bay" />
		<tag k="ssr:stedsnr" v="132722" />
	</node>
	<node id="-552221" lat="62.7928083288" lon="7.65157499409">
		<tag k="name" v="Kleivvågen" />
		<tag k="natural" v="bay" />
		<tag k="ssr:stedsnr" v="459108" />
	</node>
	<node id="-552108" lat="62.7367472199" lon="7.36736110959">
		<tag k="name" v="Dvergsnesbukta" />
		<tag k="natural" v="bay" />
		<tag k="ssr:stedsnr" v="217938" />
	</node>
	<node id="-552107" lat="62.6983833308" lon="7.34996389348">
		<tag k="name" v="Andersbukta" />
		<tag k="natural" v="bay" />
		<tag k="ssr:stedsnr" v="217928" />
	</node>
	<node id="-552105" lat="62.7347749977" lon="7.3322222307">
		<tag k="name" v="Naustnesenden" />
		<tag k="natural" v="cape" />
		<tag k="ssr:stedsnr" v="217918" />
	</node>
	<node id="-552615" lat="62.783419441" lon="7.66203888006">
		<tag k="name" v="Nesa" />
		<tag k="natural" v="cape" />
		<tag k="ssr:stedsnr" v="618774" />
	</node>
	<node id="-551077" lat="62.6767388874" lon="7.43342776916">
		<tag k="name" v="Grønvika" />
		<tag k="natural" v="bay" />
		<tag k="ssr:stedsnr" v="277198" />
	</node>
	<node id="-551076" lat="62.6734611093" lon="7.44343888183">
		<tag k="name" v="Øyaneset" />
		<tag k="natural" v="cape" />
		<tag k="ssr:stedsnr" v="277196" />
	</node>
	<node id="-551110" lat="62.6963166633" lon="7.54188332843">
		<tag k="name" v="Haganeset" />
		<tag k="natural" v="cape" />
		<tag k="ssr:stedsnr" v="277762" />
	</node>
	<node id="-552610" lat="62.7410388848" lon="7.30363610537">
		<tag k="bay" v="fjord" />
		<tag k="name" v="Fannefjorden" />
		<tag k="natural" v="bay" />
		<tag k="old_name" v="Fannen" />
		<tag k="ssr:stedsnr" v="618746" />
	</node>
	<node id="-552816" lat="62.6882472209" lon="7.44960555004">
		<tag k="name" v="Vikbukta" />
		<tag k="natural" v="bay" />
		<tag k="ssr:stedsnr" v="702204" />
	</node>
	<node id="-552164" lat="62.7159472263" lon="7.15150555565">
		<tag k="name" v="Hjertøya" />
		<tag k="place" v="island" />
		<tag k="ssr:stedsnr" v="436039" />
	</node>
	<node id="-551580" lat="62.6635527766" lon="7.40009999156">
		<tag k="name" v="Hangholmen" />
		<tag k="place" v="islet" />
		<tag k="ssr:stedsnr" v="12733" />
	</node>
	<node id="-552603" lat="62.7235444424" lon="7.27153888861">
		<tag k="alt_name" v="Måsholmen, store" />
		<tag k="name" v="Store Måsholmen" />
		<tag k="place" v="islet" />
		<tag k="ssr:stedsnr" v="618724" />
	</node>
	<node id="-552602" lat="62.6705583367" lon="7.42483332675">
		<tag k="name" v="Veøya" />
		<tag k="place" v="island" />
		<tag k="ssr:stedsnr" v="618703" />
	</node>
	<node id="-552601" lat="62.6710083293" lon="7.23492223146">
		<tag k="alt_name" v="Melvika, store" />
		<tag k="name" v="Store Melvika" />
		<tag k="natural" v="bay" />
		<tag k="ssr:stedsnr" v="618691" />
	</node>
	<node id="-552087" lat="62.7865666637" lon="7.70677222958">
		<tag k="name" v="Skipneset" />
		<tag k="natural" v="cape" />
		<tag k="ssr:stedsnr" v="217764" />
	</node>
	<node id="-552730" lat="62.6933083291" lon="7.41690276867">
		<tag k="name" v="Holmaleira" />
		<tag k="natural" v="bay" />
		<tag k="ssr:stedsnr" v="657953" />
	</node>
	<node id="-552085" lat="62.6984638933" lon="7.55026388229">
		<tag k="name" v="Hagaknubben" />
		<tag k="natural" v="cape" />
		<tag k="ssr:stedsnr" v="217749" />
	</node>
	<node id="-552595" lat="62.7324888889" lon="7.09346389331">
		<tag k="name" v="Cap Clara" />
		<tag k="natural" v="cape" />
		<tag k="ssr:stedsnr" v="618055" />
	</node>
	<node id="-553105" lat="62.6946250011" lon="7.42213888664">
		<tag k="name" v="Valen" />
		<tag k="natural" v="bay" />
		<tag k="ssr:stedsnr" v="824167" />
	</node>
	<node id="-552256" lat="62.6913222268" lon="7.39840278434">
		<tag k="name" v="Kjerringneset" />
		<tag k="natural" v="cape" />
		<tag k="ssr:stedsnr" v="459619" />
	</node>
	<node id="-552590" lat="62.7883333315" lon="7.64905555331">
		<tag k="name" v="Kobbesteingrunnen" />
		<tag k="natural" v="shoal" />
		<tag k="place" v="locality" />
		<tag k="ssr:stedsnr" v="596839" />
	</node>
	<node id="-552077" lat="62.7303694403" lon="6.98452221403">
		<tag k="name" v="Grønvika" />
		<tag k="natural" v="bay" />
		<tag k="ssr:stedsnr" v="217666" />
	</node>
	<node id="-552076" lat="62.726258332" lon="7.02624999532">
		<tag k="fixme" v="consider seamark:type=rock or natural=shoal" />
		<tag k="name" v="Skjeret" />
		<tag k="place" v="islet" />
		<tag k="ssr:stedsnr" v="217661" />
	</node>
	<node id="-552075" lat="62.7346527751" lon="7.12671388149">
		<tag k="name" v="Storvika" />
		<tag k="natural" v="bay" />
		<tag k="ssr:stedsnr" v="217650" />
	</node>
	<node id="-552586" lat="62.7168277799" lon="7.64307778329">
		<tag k="name" v="Staurvika" />
		<tag k="natural" v="bay" />
		<tag k="ssr:stedsnr" v="580993" />
	</node>
	<node id="-551233" lat="62.721258336" lon="7.16518888756">
		<tag k="fixme" v="consider seamark:type=rock or natural=shoal" />
		<tag k="name" v="Hyseskjeret" />
		<tag k="place" v="islet" />
		<tag k="ssr:stedsnr" v="338407" />
	</node>
	<node id="-551560" lat="62.7897000034" lon="7.71051388819">
		<tag k="name" v="Haugneset" />
		<tag k="natural" v="cape" />
		<tag k="ssr:stedsnr" v="11758" />
	</node>
	<node id="-552583" lat="62.6694611084" lon="7.31564167442">
		<tag k="name" v="Reitabukta" />
		<tag k="natural" v="bay" />
		<tag k="ssr:stedsnr" v="580955" />
	</node>
	<node id="-552070" lat="62.690463889" lon="7.39673888265">
		<tag k="name" v="Kjerringa" />
		<tag k="natural" v="shoal" />
		<tag k="place" v="locality" />
		<tag k="ssr:stedsnr" v="217621" />
	</node>
	<node id="-551044" lat="62.7943972245" lon="7.66717778618">
		<tag k="name" v="Øyrtjønna" />
		<tag k="natural" v="bay" />
		<tag k="ssr:stedsnr" v="277019" />
	</node>
	<node id="-552579" lat="62.6765416649" lon="7.25721110214">
		<tag k="name" v="Kvernavika" />
		<tag k="natural" v="bay" />
		<tag k="ssr:stedsnr" v="580939" />
	</node>
	<node id="-552065" lat="62.7335277762" lon="7.08214445062">
		<tag k="name" v="Kringstadbukta" />
		<tag k="natural" v="bay" />
		<tag k="ssr:stedsnr" v="217474" />
	</node>
	<node id="-551360" lat="62.7220416636" lon="7.66789444938">
		<tag k="name" v="Hoåneset" />
		<tag k="natural" v="cape" />
		<tag k="ssr:stedsnr" v="398157" />
	</node>
	<node id="-551267" lat="62.7239083354" lon="7.39705277936">
		<tag k="name" v="Storurgrunna" />
		<tag k="natural" v="shoal" />
		<tag k="place" v="locality" />
		<tag k="ssr:stedsnr" v="338835" />
	</node>
	<node id="-553080" lat="62.7309833343" lon="7.37461666013">
		<tag k="fixme" v="consider seamark:type=rock or natural=shoal" />
		<tag k="name" v="Skeia" />
		<tag k="place" v="islet" />
		<tag k="ssr:stedsnr" v="823265" />
	</node>
	<node id="-552054" lat="62.7572999985" lon="7.35282222661">
		<tag k="name" v="Myraneset" />
		<tag k="natural" v="cape" />
		<tag k="ssr:stedsnr" v="217238" />
	</node>
	<node id="-551134" lat="62.7782972222" lon="7.66811667189">
		<tag k="name" v="Otergrovbukta" />
		<tag k="natural" v="bay" />
		<tag k="ssr:stedsnr" v="277943" />
	</node>
	<node id="-551553" lat="62.7246416699" lon="6.98162778247">
		<tag k="name" v="Julneset" />
		<tag k="natural" v="cape" />
		<tag k="ssr:stedsnr" v="11066" />
	</node>
	<node id="-553051" lat="62.716025002" lon="7.11551111895">
		<tag k="name" v="Orholmen" />
		<tag k="place" v="islet" />
		<tag k="ssr:stedsnr" v="800045" />
	</node>
	<node id="-551925" lat="62.6910055546" lon="7.44337778297">
		<tag k="name" v="Haganeset" />
		<tag k="natural" v="cape" />
		<tag k="ssr:stedsnr" v="156633" />
	</node>
	<node id="-551792" lat="62.7241638871" lon="6.98731111318">
		<tag k="name" v="Kjerringøyrå" />
		<tag k="natural" v="shoal" />
		<tag k="place" v="locality" />
		<tag k="ssr:stedsnr" v="95455" />
	</node>
	<node id="-551527" lat="62.6679361115" lon="7.33153333719">
		<tag k="name" v="Byttollbukta" />
		<tag k="natural" v="bay" />
		<tag k="ssr:stedsnr" v="884936" />
	</node>
	<node id="-553062" lat="62.70905833" lon="7.39582221961">
		<tag k="name" v="Langholmen" />
		<tag k="place" v="islet" />
		<tag k="ssr:stedsnr" v="800760" />
	</node>
	<node id="-553061" lat="62.7060194404" lon="7.37528332587">
		<tag k="name" v="Notholmen" />
		<tag k="place" v="islet" />
		<tag k="ssr:stedsnr" v="800759" />
	</node>
	<node id="-553060" lat="62.7059527805" lon="7.30646945275">
		<tag k="bay" v="fjord" />
		<tag k="name" v="Karlsøyfjorden" />
		<tag k="natural" v="bay" />
		<tag k="ssr:stedsnr" v="800757" />
	</node>
	<node id="-552547" lat="62.7275277769" lon="7.21316388965">
		<tag k="name" v="Bollan" />
		<tag k="place" v="island" />
		<tag k="ssr:stedsnr" v="580639" />
	</node>
	<node id="-553058" lat="62.733086109" lon="7.34129166041">
		<tag k="name" v="Bolsøyneset" />
		<tag k="natural" v="cape" />
		<tag k="ssr:stedsnr" v="800735" />
	</node>
	<node id="-552729" lat="62.7166861146" lon="7.40665555792">
		<tag k="name" v="Flua" />
		<tag k="natural" v="shoal" />
		<tag k="place" v="locality" />
		<tag k="ssr:stedsnr" v="657862" />
	</node>
	<node id="-552450" lat="62.7129250041" lon="7.41291944109">
		<tag k="name" v="Skårantangen" />
		<tag k="natural" v="cape" />
		<tag k="ssr:stedsnr" v="536903" />
	</node>
	<node id="-553155" lat="62.7281722187" lon="7.03766389683">
		<tag k="name" v="Sagneset" />
		<tag k="natural" v="cape" />
		<tag k="ssr:stedsnr" v="824690" />
	</node>
	<node id="-552115" lat="62.6795972255" lon="7.34133888052">
		<tag k="bay" v="fjord" />
		<tag k="name" v="Veøyfjorden" />
		<tag k="natural" v="bay" />
		<tag k="ssr:stedsnr" v="232144" />
	</node>
	<node id="-552719" lat="62.7789611117" lon="7.6756305492">
		<tag k="name" v="Bordalsbukta" />
		<tag k="natural" v="bay" />
		<tag k="ssr:stedsnr" v="641929" />
	</node>
	<node id="-552536" lat="62.7301472195" lon="6.99036111549">
		<tag k="name" v="Mordalsvågen" />
		<tag k="natural" v="bay" />
		<tag k="ssr:stedsnr" v="580464" />
	</node>
	<node id="-553047" lat="62.7155972232" lon="7.13034722918">
		<tag k="name" v="Rennsteinen" />
		<tag k="natural" v="shoal" />
		<tag k="place" v="locality" />
		<tag k="ssr:stedsnr" v="784872" />
	</node>
	<node id="-553046" lat="62.6689416663" lon="7.35821943808">
		<tag k="name" v="Engvikflua" />
		<tag k="natural" v="shoal" />
		<tag k="place" v="locality" />
		<tag k="ssr:stedsnr" v="779957" />
	</node>
	<node id="-553045" lat="62.7848083342" lon="7.65684167262">
		<tag k="name" v="Haugneset" />
		<tag k="natural" v="cape" />
		<tag k="ssr:stedsnr" v="779842" />
	</node>
	<node id="-553044" lat="62.6479861105" lon="7.28472499483">
		<tag k="name" v="Sagneset" />
		<tag k="natural" v="cape" />
		<tag k="ssr:stedsnr" v="779117" />
	</node>
	<node id="-553043" lat="62.7270555512" lon="7.39793888141">
		<tag k="name" v="Røvika" />
		<tag k="natural" v="bay" />
		<tag k="ssr:stedsnr" v="765814" />
	</node>
	<node id="-553042" lat="62.6345166629" lon="7.30966944179">
		<tag k="name" v="Vestadgrunna" />
		<tag k="natural" v="shoal" />
		<tag k="place" v="locality" />
		<tag k="ssr:stedsnr" v="765652" />
	</node>
	<node id="-552529" lat="62.7588499962" lon="7.36791110991">
		<tag k="name" v="Bukta" />
		<tag k="natural" v="bay" />
		<tag k="ssr:stedsnr" v="580258" />
	</node>
	<node id="-551194" lat="62.7248499963" lon="7.28371388737">
		<tag k="name" v="Mekvika" />
		<tag k="natural" v="bay" />
		<tag k="ssr:stedsnr" v="337326" />
	</node>
	<node id="-551500" lat="62.6982805595" lon="7.54840277564">
		<tag k="name" v="Storråbukta" />
		<tag k="natural" v="bay" />
		<tag k="ssr:stedsnr" v="884714" />
	</node>
	<node id="-553035" lat="62.650302777" lon="7.25465000791">
		<tag k="name" v="Kvitnesbukta" />
		<tag k="natural" v="bay" />
		<tag k="ssr:stedsnr" v="763943" />
	</node>
	<node id="-553033" lat="62.7788222235" lon="7.6403666708">
		<tag k="name" v="Håsteinsbukta" />
		<tag k="natural" v="bay" />
		<tag k="ssr:stedsnr" v="763937" />
	</node>
	<node id="-553032" lat="62.7785944459" lon="7.65757777935">
		<tag k="name" v="Langneset" />
		<tag k="natural" v="cape" />
		<tag k="ssr:stedsnr" v="763936" />
	</node>
	<node id="-551777" lat="62.7168000017" lon="7.17280555342">
		<tag k="name" v="Båtsundet" />
		<tag k="natural" v="strait" />
		<tag k="ssr:stedsnr" v="95409" />
	</node>
	<node id="-552516" lat="62.6671805514" lon="7.37046110942">
		<tag k="name" v="Følfoten" />
		<tag k="natural" v="cape" />
		<tag k="ssr:stedsnr" v="580140" />
	</node>
	<node id="-553027" lat="62.6488666679" lon="7.31138611905">
		<tag k="name" v="Vestadbukta" />
		<tag k="natural" v="bay" />
		<tag k="ssr:stedsnr" v="763911" />
	</node>
	<node id="-553026" lat="62.6485638927" lon="7.26332500299">
		<tag k="name" v="Litlevikan" />
		<tag k="natural" v="bay" />
		<tag k="ssr:stedsnr" v="763910" />
	</node>
	<node id="-551463" lat="62.6736527792" lon="7.42031944583">
		<tag k="name" v="Sørvågen" />
		<tag k="natural" v="bay" />
		<tag k="ssr:stedsnr" v="884189" />
	</node>
	<node id="-551487" lat="62.7340749989" lon="7.08208054956">
		<tag k="fixme" v="consider seamark:type=rock or natural=shoal" />
		<tag k="name" v="Joflua" />
		<tag k="place" v="islet" />
		<tag k="ssr:stedsnr" v="884625" />
	</node>
	<node id="-551486" lat="62.7167250037" lon="7.17386943585">
		<tag k="name" v="Buholmen" />
		<tag k="place" v="islet" />
		<tag k="ssr:stedsnr" v="884620" />
	</node>
	<node id="-551485" lat="62.6888138849" lon="7.40603055892">
		<tag k="name" v="Flovikgrunna" />
		<tag k="natural" v="shoal" />
		<tag k="place" v="locality" />
		<tag k="ssr:stedsnr" v="884593" />
	</node>
	<node id="-553016" lat="62.7272416667" lon="6.98094167362">
		<tag k="name" v="Frihamna" />
		<tag k="natural" v="bay" />
		<tag k="ssr:stedsnr" v="763686" />
	</node>
	<node id="-552535" lat="62.7264888888" lon="6.98272221695">
		<tag k="name" v="Steinvika" />
		<tag k="natural" v="bay" />
		<tag k="ssr:stedsnr" v="580453" />
	</node>
	<node id="-551689" lat="62.6684972236" lon="7.23249443852">
		<tag k="alt_name" v="Melvika, litle" />
		<tag k="name" v="Litle Melvika" />
		<tag k="natural" v="bay" />
		<tag k="ssr:stedsnr" v="72699" />
	</node>
	<node id="-553012" lat="62.7342472225" lon="6.97858055458">
		<tag k="alt_name" v="Engavika" />
		<tag k="name" v="Engjavika" />
		<tag k="natural" v="bay" />
		<tag k="ssr:stedsnr" v="763544" />
	</node>
	<node id="-551986" lat="62.7359583293" lon="7.3520722209">
		<tag k="name" v="Bolsøysundet" />
		<tag k="natural" v="strait" />
		<tag k="ssr:stedsnr" v="193743" />
	</node>
	<node id="-553009" lat="62.7243055589" lon="7.12498334031">
		<tag k="name" v="Bjørsetholmen" />
		<tag k="place" v="islet" />
		<tag k="ssr:stedsnr" v="763508" />
	</node>
	<node id="-551154" lat="62.7234101226" lon="7.27527225636">
		<tag k="alt_name" v="Måsholmen, l" />
		<tag k="name" v="Litle Måsholmen" />
		<tag k="place" v="islet" />
		<tag k="ssr:stedsnr" v="314751" />
	</node>
	<node id="-553050" lat="62.7147749974" lon="7.25628888058">
		<tag k="name" v="Instebukta" />
		<tag k="natural" v="bay" />
		<tag k="ssr:stedsnr" v="786855" />
	</node>
	<node id="-551980" lat="62.7254527822" lon="7.14247777141">
		<tag k="name" v="Reknesholmen" />
		<tag k="place" v="islet" />
		<tag k="ssr:stedsnr" v="193085" />
	</node>
	<node id="-551979" lat="62.7350111103" lon="6.96841389092">
		<tag k="name" v="Julholmen" />
		<tag k="natural" v="cape" />
		<tag k="ssr:stedsnr" v="193071" />
	</node>
	<node id="-552490" lat="62.6908555537" lon="7.12043887981">
		<tag k="name" v="Storfjorden" />
		<tag k="place" v="sea" />
		<tag k="ssr:stedsnr" v="568919" />
	</node>
	<node id="-551465" lat="62.7118222233" lon="7.41142222583">
		<tag k="name" v="Vikan" />
		<tag k="natural" v="bay" />
		<tag k="ssr:stedsnr" v="884194" />
	</node>
	<node id="-551976" lat="62.72421944" lon="7.23196388182">
		<tag k="name" v="Seterøya" />
		<tag k="place" v="island" />
		<tag k="ssr:stedsnr" v="193042" />
	</node>
	<node id="-551975" lat="62.7173611108" lon="7.13620000401">
		<tag k="name" v="Langholmen" />
		<tag k="place" v="islet" />
		<tag k="ssr:stedsnr" v="193038" />
	</node>
	<node id="-551974" lat="62.7081027771" lon="7.21216110623">
		<tag k="name" v="Svartneset" />
		<tag k="natural" v="cape" />
		<tag k="ssr:stedsnr" v="193031" />
	</node>
	<node id="-551972" lat="62.7464472184" lon="7.37746667333">
		<tag k="name" v="Vestre Grønnesfluin" />
		<tag k="natural" v="shoal" />
		<tag k="place" v="locality" />
		<tag k="ssr:stedsnr" v="172908" />
	</node>
	<node id="-551971" lat="62.7816833337" lon="7.64553888131">
		<tag k="name" v="Ullalandsgrunna" />
		<tag k="natural" v="shoal" />
		<tag k="place" v="locality" />
		<tag k="ssr:stedsnr" v="172867" />
	</node>
	<node id="-552482" lat="62.7907250004" lon="7.65694443957">
		<tag k="name" v="Kleivneset" />
		<tag k="natural" v="cape" />
		<tag k="ssr:stedsnr" v="558797" />
	</node>
	<node id="-551457" lat="62.7209888879" lon="7.41159999724">
		<tag k="name" v="Litlvika" />
		<tag k="natural" v="bay" />
		<tag k="ssr:stedsnr" v="884139" />
	</node>
	<node id="-553094" lat="62.7831527814" lon="7.55611666975">
		<tag k="name" v="Eidsneset" />
		<tag k="natural" v="cape" />
		<tag k="ssr:stedsnr" v="824077" />
	</node>
	<node id="-552986" lat="62.7065722197" lon="7.38818611784">
		<tag k="name" v="Røsta" />
		<tag k="natural" v="cape" />
		<tag k="ssr:stedsnr" v="763247" />
	</node>
	<node id="-551960" lat="62.6788749995" lon="7.26090000715">
		<tag k="name" v="Steinbukta" />
		<tag k="natural" v="bay" />
		<tag k="ssr:stedsnr" v="156952" />
	</node>
	<node id="-553374" lat="62.6903194428" lon="7.35996388129">
		<tag k="name" v="Hjellneset" />
		<tag k="natural" v="cape" />
		<tag k="ssr:stedsnr" v="945919" />
	</node>
	<node id="-551147" lat="62.732463893" lon="7.17321388086">
		<tag k="name" v="Moldegrunna" />
		<tag k="natural" v="shoal" />
		<tag k="place" v="locality" />
		<tag k="ssr:stedsnr" v="293206" />
	</node>
	<node id="-552537" lat="62.7267805599" lon="7.02420555823">
		<tag k="name" v="Supabenken" />
		<tag k="natural" v="cape" />
		<tag k="ssr:stedsnr" v="580465" />
	</node>
	<node id="-552622" lat="62.724841664" lon="6.99066945162">
		<tag k="name" v="Prestvika" />
		<tag k="natural" v="bay" />
		<tag k="ssr:stedsnr" v="633704" />
	</node>
	<node id="-551629" lat="62.6760333322" lon="7.4273000032">
		<tag k="name" v="Futgarden" />
		<tag k="natural" v="bay" />
		<tag k="ssr:stedsnr" v="34617" />
	</node>
	<node id="-551440" lat="62.7388361076" lon="7.27377777891">
		<tag k="name" v="Årøgrunna" />
		<tag k="natural" v="shoal" />
		<tag k="place" v="locality" />
		<tag k="ssr:stedsnr" v="475141" />
	</node>
	<node id="-551439" lat="62.714158331" lon="7.19128056502">
		<tag k="name" v="Ramsøyflua" />
		<tag k="natural" v="shoal" />
		<tag k="place" v="locality" />
		<tag k="ssr:stedsnr" v="475139" />
	</node>
	<node id="-551950" lat="62.7178138896" lon="7.4185583274">
		<tag k="name" v="Hegervika" />
		<tag k="natural" v="bay" />
		<tag k="ssr:stedsnr" v="156870" />
	</node>
	<node id="-552461" lat="62.6619555537" lon="7.27518887956">
		<tag k="name" v="Sekken" />
		<tag k="place" v="island" />
		<tag k="ssr:stedsnr" v="557711" />
	</node>
	<node id="-551436" lat="62.7175472214" lon="7.64573332443">
		<tag k="name" v="Oksebåsen" />
		<tag k="natural" v="bay" />
		<tag k="ssr:stedsnr" v="399991" />
	</node>
	<node id="-551682" lat="62.7083916627" lon="7.41134444595">
		<tag k="name" v="Mjeltnesgrunnen" />
		<tag k="natural" v="shoal" />
		<tag k="place" v="locality" />
		<tag k="ssr:stedsnr" v="51900" />
	</node>
	<node id="-552546" lat="62.7267055534" lon="7.17486110266">
		<tag k="fixme" v="consider seamark:type=rock or natural=shoal" />
		<tag k="name" v="Kvalen" />
		<tag k="place" v="islet" />
		<tag k="ssr:stedsnr" v="580628" />
	</node>
	<node id="-553203" lat="62.7271333314" lon="7.2387722128">
		<tag k="name" v="Gåsøyvalen" />
		<tag k="natural" v="bay" />
		<tag k="ssr:stedsnr" v="861736" />
	</node>
	<node id="-551430" lat="62.6541027737" lon="7.36228611771">
		<tag k="name" v="Hagabukta" />
		<tag k="natural" v="bay" />
		<tag k="ssr:stedsnr" v="399961" />
	</node>
	<node id="-551425" lat="62.6506388872" lon="7.25029722565">
		<tag k="alt_name" v="Romdalvika" />
		<tag k="name" v="Romdalvikbukta" />
		<tag k="natural" v="bay" />
		<tag k="ssr:stedsnr" v="399941" />
	</node>
	<node id="-552452" lat="62.7216694413" lon="7.1435777701">
		<tag k="fixme" v="consider seamark:type=rock or natural=shoal" />
		<tag k="name" v="Bleikeskjeret" />
		<tag k="place" v="islet" />
		<tag k="ssr:stedsnr" v="557091" />
	</node>
	<node id="-552451" lat="62.6890222232" lon="7.44372499714">
		<tag k="name" v="Hagaflua" />
		<tag k="natural" v="shoal" />
		<tag k="place" v="locality" />
		<tag k="ssr:stedsnr" v="536975" />
	</node>
	<node id="-552521" lat="62.6840472259" lon="7.44862778046">
		<tag k="alt_name" v="Sølja" />
		<tag k="fixme" v="consider seamark:type=rock or natural=shoal" />
		<tag k="name" v="Søljå" />
		<tag k="place" v="islet" />
		<tag k="ssr:stedsnr" v="580184" />
	</node>
	<node id="-552449" lat="62.7102000012" lon="7.16774444363">
		<tag k="name" v="Hjertøyflua" />
		<tag k="natural" v="shoal" />
		<tag k="place" v="locality" />
		<tag k="ssr:stedsnr" v="536148" />
	</node>
</osm>
