<?xml version="1.0" encoding="UTF-8"?>
<osm generator="osmapis" version="0.6">
	<node id="-552959" lat="62.76195278" lon="7.51200556244">
		<tag k="name" v="Guriannaplassen" />
		<tag k="place" v="locality" />
		<tag k="ssr:stedsnr" v="762978" />
	</node>
	<node id="-552956" lat="62.6992722231" lon="7.43607778544">
		<tag k="name" v="Hamnavikmyra" />
		<tag k="natural" v="wetland" />
		<tag k="ssr:stedsnr" v="762852" />
	</node>
	<node id="-551419" lat="62.7662055593" lon="7.34402500349">
		<tag k="name" v="Nakkmyra" />
		<tag k="natural" v="wetland" />
		<tag k="ssr:stedsnr" v="399358" />
	</node>
	<node id="-552441" lat="62.7314722267" lon="7.4696000068">
		<tag k="name" v="Setermyra" />
		<tag k="natural" v="wetland" />
		<tag k="ssr:stedsnr" v="520885" />
	</node>
	<node id="-551764" lat="62.8576222252" lon="7.77821667186">
		<tag k="historic" v="shieling" />
		<tag k="name" v="Botterlisetra" />
		<tag k="place" v="locality" />
		<tag k="ssr:stedsnr" v="95160" />
	</node>
	<node id="-552948" lat="62.7562972212" lon="7.46823888361">
		<tag k="name" v="Blokkemyra" />
		<tag k="natural" v="wetland" />
		<tag k="ssr:stedsnr" v="762799" />
	</node>
	<node id="-552434" lat="62.7750472207" lon="7.76911111868">
		<tag k="name" v="Kvernamyra" />
		<tag k="natural" v="wetland" />
		<tag k="ssr:stedsnr" v="520809" />
	</node>
	<node id="-551919" lat="62.7314361112" lon="7.02809721887">
		<tag k="name" v="Bjønnamyra" />
		<tag k="natural" v="wetland" />
		<tag k="ssr:stedsnr" v="156497" />
	</node>
	<node id="-552430" lat="62.7597944486" lon="7.48736111287">
		<tag k="name" v="Hamnateigen" />
		<tag k="place" v="locality" />
		<tag k="ssr:stedsnr" v="520799" />
	</node>
	<node id="-551404" lat="62.7554388928" lon="7.56409166459">
		<tag k="name" v="Liljeroshola" />
		<tag k="natural" v="wetland" />
		<tag k="ssr:stedsnr" v="398749" />
	</node>
	<node id="-551403" lat="62.7545555539" lon="7.57522222856">
		<tag k="name" v="Grønlimyra" />
		<tag k="natural" v="wetland" />
		<tag k="ssr:stedsnr" v="398744" />
	</node>
	<node id="-552426" lat="62.7168472179" lon="7.56882499876">
		<tag k="name" v="Nøkktjørna" />
		<tag k="natural" v="wetland" />
		<tag k="ssr:stedsnr" v="520765" />
	</node>
	<node id="-552937" lat="62.7161527771" lon="7.5218472319">
		<tag k="name" v="Alteret" />
		<tag k="natural" v="stone" />
		<tag k="ssr:stedsnr" v="762170" />
	</node>
	<node id="-552936" lat="62.7022555532" lon="7.55486666435">
		<tag k="name" v="Urin" />
		<tag k="natural" v="scree" />
		<tag k="ssr:stedsnr" v="762165" />
	</node>
	<node id="-551911" lat="62.7922333306" lon="7.50113888128">
		<tag k="name" v="Gjermyra" />
		<tag k="natural" v="wetland" />
		<tag k="ssr:stedsnr" v="156313" />
	</node>
	<node id="-551910" lat="62.8022138901" lon="7.71752500922">
		<tag k="name" v="Stormyra" />
		<tag k="natural" v="wetland" />
		<tag k="ssr:stedsnr" v="156308" />
	</node>
	<node id="-552931" lat="62.6931083353" lon="7.53060554933">
		<tag k="name" v="Mortensteinen" />
		<tag k="natural" v="stone" />
		<tag k="ssr:stedsnr" v="759407" />
	</node>
	<node id="-551393" lat="62.7278527777" lon="6.99281389495">
		<tag k="name" v="Stormyra" />
		<tag k="natural" v="wetland" />
		<tag k="ssr:stedsnr" v="398660" />
	</node>
	<node id="-551902" lat="62.8335138862" lon="7.7000888851">
		<tag k="name" v="Brattsetøyna" />
		<tag k="natural" v="wetland" />
		<tag k="ssr:stedsnr" v="156188" />
	</node>
	<node id="-552411" lat="62.6878027778" lon="7.49135278383">
		<tag k="name" v="Sjølaupet" />
		<tag k="place" v="locality" />
		<tag k="ssr:stedsnr" v="520609" />
	</node>
	<node id="-551384" lat="62.7023833347" lon="7.49675556235">
		<tag k="name" v="Skjenstøet" />
		<tag k="natural" v="wetland" />
		<tag k="ssr:stedsnr" v="398598" />
	</node>
	<node id="-553380" lat="62.7743361076" lon="7.6485305644">
		<tag k="name" v="Bleikmyra" />
		<tag k="natural" v="wetland" />
		<tag k="ssr:stedsnr" v="945953" />
	</node>
	<node id="-551894" lat="62.7016138847" lon="7.56145278365">
		<tag k="name" v="Nerbøen" />
		<tag k="place" v="locality" />
		<tag k="ssr:stedsnr" v="156128" />
	</node>
	<node id="-551893" lat="62.7763277737" lon="7.77382222721">
		<tag k="name" v="Krokøyan" />
		<tag k="natural" v="wetland" />
		<tag k="ssr:stedsnr" v="156123" />
	</node>
	<node id="-551892" lat="62.779616666" lon="7.38290277628">
		<tag k="name" v="Gråsteinen" />
		<tag k="natural" v="stone" />
		<tag k="ssr:stedsnr" v="156108" />
	</node>
	<node id="-552403" lat="62.7629861144" lon="7.29816388114">
		<tag k="name" v="Langmyra" />
		<tag k="natural" v="wetland" />
		<tag k="ssr:stedsnr" v="520319" />
	</node>
	<node id="-552715" lat="62.7292472234" lon="7.30591388529">
		<tag k="name" v="Vågaplassen" />
		<tag k="place" v="locality" />
		<tag k="ssr:stedsnr" v="641905" />
	</node>
	<node id="-551882" lat="62.815036112" lon="7.53404721919">
		<tag k="name" v="Resmyrane" />
		<tag k="natural" v="wetland" />
		<tag k="ssr:stedsnr" v="156040" />
	</node>
	<node id="-551369" lat="62.833722221" lon="7.67912500339">
		<tag k="historic" v="shieling" />
		<tag k="name" v="Skallesetra" />
		<tag k="place" v="locality" />
		<tag k="ssr:stedsnr" v="398214" />
	</node>
	<node id="-551876" lat="62.7496527799" lon="7.53333610564">
		<tag k="name" v="Rødtjeldmyra" />
		<tag k="natural" v="wetland" />
		<tag k="ssr:stedsnr" v="155751" />
	</node>
	<node id="-551361" lat="62.7442555598" lon="7.64753056359">
		<tag k="name" v="Storbrea" />
		<tag k="natural" v="glacier" />
		<tag k="ssr:stedsnr" v="398159" />
	</node>
	<node id="-552382" lat="62.7740305545" lon="7.60396389037">
		<tag k="name" v="Myrhola" />
		<tag k="natural" v="wetland" />
		<tag k="ssr:stedsnr" v="520160" />
	</node>
	<node id="-551356" lat="62.7742333326" lon="7.78025278712">
		<tag k="name" v="Engan" />
		<tag k="place" v="locality" />
		<tag k="ssr:stedsnr" v="398127" />
	</node>
	<node id="-551355" lat="62.7864583361" lon="7.45338332453">
		<tag k="name" v="Nedre myrane" />
		<tag k="natural" v="wetland" />
		<tag k="ssr:stedsnr" v="398117" />
	</node>
	<node id="-552372" lat="62.8315138848" lon="7.46234167456">
		<tag k="name" v="Hjelsetsletta" />
		<tag k="natural" v="wetland" />
		<tag k="ssr:stedsnr" v="520081" />
	</node>
	<node id="-551343" lat="62.8019250003" lon="7.62808612005">
		<tag k="name" v="Trettaneset" />
		<tag k="natural" v="wetland" />
		<tag k="ssr:stedsnr" v="398008" />
	</node>
	<node id="-551410" lat="62.742447224" lon="7.49189721911">
		<tag k="name" v="Råkgjerdet" />
		<tag k="place" v="locality" />
		<tag k="ssr:stedsnr" v="398800" />
	</node>
	<node id="-552874" lat="62.765469441" lon="7.29886388242">
		<tag k="name" v="Gammelsetermyra" />
		<tag k="natural" v="wetland" />
		<tag k="ssr:stedsnr" v="702906" />
	</node>
	<node id="-551068" lat="62.7398305553" lon="7.55960278235">
		<tag k="name" v="Seilmyra" />
		<tag k="natural" v="wetland" />
		<tag k="ssr:stedsnr" v="277151" />
	</node>
	<node id="-552868" lat="62.7190444416" lon="7.49614166429">
		<tag k="name" v="Svortesvaet" />
		<tag k="place" v="locality" />
		<tag k="ssr:stedsnr" v="702867" />
	</node>
	<node id="-552867" lat="62.6999472198" lon="7.40895832618">
		<tag k="name" v="Haslelisteinen" />
		<tag k="natural" v="stone" />
		<tag k="ssr:stedsnr" v="702848" />
	</node>
	<node id="-552863" lat="62.7380416699" lon="7.43509166602">
		<tag k="name" v="Nakketeigen" />
		<tag k="place" v="locality" />
		<tag k="ssr:stedsnr" v="702818" />
	</node>
	<node id="-551326" lat="62.8136861095" lon="7.76669443769">
		<tag k="alt_name" v="Ny-Jord" />
		<tag k="name" v="Ny Jord" />
		<tag k="place" v="locality" />
		<tag k="ssr:stedsnr" v="376559" />
	</node>
	<node id="-551749" lat="62.7086833364" lon="7.54735555409">
		<tag k="name" v="Løkmyra" />
		<tag k="natural" v="wetland" />
		<tag k="ssr:stedsnr" v="95106" />
	</node>
	<node id="-552856" lat="62.7496861114" lon="7.18377499518">
		<tag k="name" v="Gjeldmyra" />
		<tag k="natural" v="wetland" />
		<tag k="ssr:stedsnr" v="702685" />
	</node>
	<node id="-552855" lat="62.7513472239" lon="7.14801666429">
		<tag k="name" v="Olaringarmyra" />
		<tag k="natural" v="wetland" />
		<tag k="ssr:stedsnr" v="702677" />
	</node>
	<node id="-551918" lat="62.7355111111" lon="6.97397777369">
		<tag k="name" v="Skjerskogen" />
		<tag k="place" v="locality" />
		<tag k="ssr:stedsnr" v="156492" />
	</node>
	<node id="-551826" lat="62.7321666687" lon="7.33106665884">
		<tag k="name" v="Rusketeigkråna" />
		<tag k="place" v="locality" />
		<tag k="ssr:stedsnr" v="95913" />
	</node>
	<node id="-551715" lat="62.7328472219" lon="7.2966305508">
		<tag k="name" v="Stormyra" />
		<tag k="natural" v="wetland" />
		<tag k="ssr:stedsnr" v="73774" />
	</node>
	<node id="-552847" lat="62.7628305569" lon="7.18898056217">
		<tag k="name" v="Krokan" />
		<tag k="natural" v="wetland" />
		<tag k="ssr:stedsnr" v="702629" />
	</node>
	<node id="-552722" lat="62.6728500028" lon="7.24469722305">
		<tag k="name" v="Kvalmyran" />
		<tag k="natural" v="wetland" />
		<tag k="ssr:stedsnr" v="641940" />
	</node>
	<node id="-552843" lat="62.6947999962" lon="7.45855277585">
		<tag k="name" v="Brennsteinen" />
		<tag k="natural" v="stone" />
		<tag k="ssr:stedsnr" v="702593" />
	</node>
	<node id="-551750" lat="62.6945555582" lon="7.53237500925">
		<tag k="name" v="Urin" />
		<tag k="natural" v="scree" />
		<tag k="ssr:stedsnr" v="95109" />
	</node>
	<node id="-552839" lat="62.7356083359" lon="7.05568056281">
		<tag k="name" v="Ødegårdsmyra" />
		<tag k="natural" v="wetland" />
		<tag k="ssr:stedsnr" v="702459" />
	</node>
	<node id="-552836" lat="62.8228500006" lon="7.58503334008">
		<tag k="name" v="Hestelia" />
		<tag k="natural" v="wetland" />
		<tag k="ssr:stedsnr" v="702320" />
	</node>
	<node id="-551810" lat="62.7490194456" lon="7.51947500149">
		<tag k="name" v="PePlassamyra" />
		<tag k="natural" v="wetland" />
		<tag k="ssr:stedsnr" v="95741" />
	</node>
	<node id="-553345" lat="62.7350111106" lon="7.03536388804">
		<tag k="name" v="Løypmyra" />
		<tag k="natural" v="wetland" />
		<tag k="ssr:stedsnr" v="945661" />
	</node>
	<node id="-551232" lat="62.7858611127" lon="7.51593056106">
		<tag k="name" v="Løkane" />
		<tag k="natural" v="wetland" />
		<tag k="ssr:stedsnr" v="338287" />
	</node>
	<node id="-551402" lat="62.7784833337" lon="7.60535556106">
		<tag k="name" v="Risamunken" />
		<tag k="natural" v="stone" />
		<tag k="ssr:stedsnr" v="398735" />
	</node>
	<node id="-551743" lat="62.8263722202" lon="7.42999999801">
		<tag k="name" v="Langvassmyran" />
		<tag k="natural" v="wetland" />
		<tag k="ssr:stedsnr" v="95074" />
	</node>
	<node id="-552312" lat="62.8118750035" lon="7.5764388795">
		<tag k="name" v="Ljøsmyra" />
		<tag k="natural" v="wetland" />
		<tag k="ssr:stedsnr" v="460413" />
	</node>
	<node id="-553333" lat="62.7101805551" lon="7.49340555834">
		<tag k="name" v="Horgamyra" />
		<tag k="natural" v="wetland" />
		<tag k="ssr:stedsnr" v="945575" />
	</node>
	<node id="-552814" lat="62.8339416668" lon="7.70535000951">
		<tag k="name" v="Lykkjeøyna" />
		<tag k="natural" v="wetland" />
		<tag k="ssr:stedsnr" v="702195" />
	</node>
	<node id="-551229" lat="62.8069388857" lon="7.64280555681">
		<tag k="name" v="Løkmyra" />
		<tag k="natural" v="wetland" />
		<tag k="ssr:stedsnr" v="338270" />
	</node>
	<node id="-553323" lat="62.8093750022" lon="7.62076944509">
		<tag k="name" v="Slåløken" />
		<tag k="natural" v="wetland" />
		<tag k="ssr:stedsnr" v="945321" />
	</node>
	<node id="-551785" lat="62.6969194408" lon="7.38860277332">
		<tag k="name" v="Dansarholen" />
		<tag k="natural" v="wetland" />
		<tag k="ssr:stedsnr" v="95608" />
	</node>
	<node id="-553320" lat="62.8424500011" lon="7.73929722768">
		<tag k="name" v="Øyamyra" />
		<tag k="natural" v="wetland" />
		<tag k="ssr:stedsnr" v="945252" />
	</node>
	<node id="-552804" lat="62.7766277794" lon="7.76597777009">
		<tag k="name" v="Isakøyna" />
		<tag k="natural" v="wetland" />
		<tag k="ssr:stedsnr" v="702132" />
	</node>
	<node id="-551778" lat="62.7304916668" lon="7.0600277823">
		<tag k="name" v="Pålsteinen" />
		<tag k="natural" v="stone" />
		<tag k="ssr:stedsnr" v="95413" />
	</node>
	<node id="-553311" lat="62.835205554" lon="7.66138055095">
		<tag k="name" v="Hjellimyra" />
		<tag k="natural" v="wetland" />
		<tag k="ssr:stedsnr" v="945189" />
	</node>
	<node id="-553309" lat="62.8127916702" lon="7.7785500011">
		<tag k="name" v="Skiljarmyra" />
		<tag k="natural" v="wetland" />
		<tag k="ssr:stedsnr" v="945174" />
	</node>
	<node id="-551772" lat="62.7708972181" lon="7.34643055323">
		<tag k="name" v="Torvet" />
		<tag k="natural" v="wetland" />
		<tag k="ssr:stedsnr" v="95271" />
	</node>
	<node id="-553306" lat="62.742599997" lon="7.43559443868">
		<tag k="name" v="Korsmyra" />
		<tag k="natural" v="wetland" />
		<tag k="ssr:stedsnr" v="945137" />
	</node>
	<node id="-553359" lat="62.7445722191" lon="7.44322499661">
		<tag k="name" v="Storskarsmyra" />
		<tag k="natural" v="wetland" />
		<tag k="ssr:stedsnr" v="945798" />
	</node>
	<node id="-553303" lat="62.7225583325" lon="7.40214443733">
		<tag k="name" v="Storura" />
		<tag k="natural" v="scree" />
		<tag k="ssr:stedsnr" v="945122" />
	</node>
	<node id="-553302" lat="62.7882583365" lon="7.76235000843">
		<tag k="name" v="Rundmyra" />
		<tag k="natural" v="wetland" />
		<tag k="ssr:stedsnr" v="945104" />
	</node>
	<node id="-553017" lat="62.7295083312" lon="7.03416666392">
		<tag k="name" v="Almevåtå" />
		<tag k="place" v="locality" />
		<tag k="ssr:stedsnr" v="763687" />
	</node>
	<node id="-552276" lat="62.7900055548" lon="7.76091387981">
		<tag k="historic" v="shieling" />
		<tag k="name" v="Gamle Nordhaugsetra" />
		<tag k="place" v="locality" />
		<tag k="ssr:stedsnr" v="459792" />
	</node>
	<node id="-551760" lat="62.6608166633" lon="7.3616249931">
		<tag k="name" v="Skarmyra" />
		<tag k="natural" v="wetland" />
		<tag k="ssr:stedsnr" v="95140" />
	</node>
	<node id="-552271" lat="62.7175333374" lon="7.5169944494">
		<tag k="name" v="Skjenstømyra" />
		<tag k="natural" v="wetland" />
		<tag k="ssr:stedsnr" v="459734" />
	</node>
	<node id="-553294" lat="62.7967333314" lon="7.42057221737">
		<tag k="historic" v="shieling" />
		<tag k="name" v="Indre Mjelvesetra" />
		<tag k="place" v="locality" />
		<tag k="ssr:stedsnr" v="945050" />
	</node>
	<node id="-551245" lat="62.7426277779" lon="7.06129166866">
		<tag k="name" v="Krokan" />
		<tag k="natural" v="wetland" />
		<tag k="ssr:stedsnr" v="338635" />
	</node>
	<node id="-551754" lat="62.7484944434" lon="7.48458610606">
		<tag k="name" v="Dalamyra" />
		<tag k="natural" v="wetland" />
		<tag k="ssr:stedsnr" v="95124" />
	</node>
	<node id="-552777" lat="62.7548972187" lon="7.56308888641">
		<tag k="name" v="Røsslimyra" />
		<tag k="natural" v="wetland" />
		<tag k="ssr:stedsnr" v="701791" />
	</node>
	<node id="-552776" lat="62.6568722203" lon="7.31128332596">
		<tag k="name" v="Løkan" />
		<tag k="natural" v="wetland" />
		<tag k="ssr:stedsnr" v="701388" />
	</node>
	<node id="-553287" lat="62.8138222214" lon="7.51728888998">
		<tag k="name" v="Fonnavarden" />
		<tag k="natural" v="stone" />
		<tag k="ssr:stedsnr" v="945028" />
	</node>
	<node id="-552262" lat="62.7281694473" lon="6.99606944782">
		<tag k="name" v="Oterura" />
		<tag k="natural" v="scree" />
		<tag k="ssr:stedsnr" v="459672" />
	</node>
	<node id="-552773" lat="62.7269694421" lon="7.3178583333">
		<tag k="name" v="Bøen" />
		<tag k="place" v="locality" />
		<tag k="ssr:stedsnr" v="701381" />
	</node>
	<node id="-551236" lat="62.7262638926" lon="6.98783333253">
		<tag k="landuse" v="meadow" />
		<tag k="name" v="Sveinplassen" />
		<tag k="ssr:stedsnr" v="338439" />
	</node>
	<node id="-553281" lat="62.7993472259" lon="7.57491110138">
		<tag k="name" v="Baklimyrane" />
		<tag k="natural" v="wetland" />
		<tag k="ssr:stedsnr" v="945010" />
	</node>
	<node id="-551744" lat="62.8080305536" lon="7.46514445338">
		<tag k="name" v="Poppelskjeta" />
		<tag k="natural" v="wetland" />
		<tag k="ssr:stedsnr" v="95079" />
	</node>
	<node id="-553279" lat="62.7637750035" lon="7.6157111118">
		<tag k="name" v="Tjørhjellmyra" />
		<tag k="natural" v="wetland" />
		<tag k="ssr:stedsnr" v="944971" />
	</node>
	<node id="-551230" lat="62.8057138876" lon="7.74088333234">
		<tag k="name" v="Stormyra" />
		<tag k="natural" v="wetland" />
		<tag k="ssr:stedsnr" v="338271" />
	</node>
	<node id="-553277" lat="62.7531694455" lon="7.57939999876">
		<tag k="name" v="Skålmyran" />
		<tag k="natural" v="wetland" />
		<tag k="ssr:stedsnr" v="944773" />
	</node>
	<node id="-551935" lat="62.7467611101" lon="7.16174443919">
		<tag k="name" v="Storsteinen" />
		<tag k="natural" v="stone" />
		<tag k="ssr:stedsnr" v="156703" />
	</node>
	<node id="-551227" lat="62.7636499984" lon="7.28496944362">
		<tag k="name" v="Halsmyra" />
		<tag k="natural" v="wetland" />
		<tag k="ssr:stedsnr" v="338262" />
	</node>
	<node id="-551737" lat="62.786180556" lon="7.54258333582">
		<tag k="name" v="Hungnestrøa" />
		<tag k="place" v="locality" />
		<tag k="ssr:stedsnr" v="95032" />
	</node>
	<node id="-551734" lat="62.81067222" lon="7.67385555558">
		<tag k="name" v="Skalleløken" />
		<tag k="natural" v="wetland" />
		<tag k="ssr:stedsnr" v="95012" />
	</node>
	<node id="-552245" lat="62.6959833377" lon="7.50364444563">
		<tag k="name" v="Langmyra" />
		<tag k="natural" v="wetland" />
		<tag k="ssr:stedsnr" v="459218" />
	</node>
	<node id="-552244" lat="62.7009194407" lon="7.42818334205">
		<tag k="name" v="Glåmå" />
		<tag k="natural" v="wetland" />
		<tag k="ssr:stedsnr" v="459213" />
	</node>
	<node id="-552239" lat="62.8409472202" lon="7.73208055603">
		<tag k="name" v="Myrslettløken" />
		<tag k="natural" v="wetland" />
		<tag k="ssr:stedsnr" v="459205" />
	</node>
	<node id="-551406" lat="62.784486113" lon="7.71577777835">
		<tag k="name" v="Teppingsmyra" />
		<tag k="natural" v="wetland" />
		<tag k="ssr:stedsnr" v="398763" />
	</node>
	<node id="-552746" lat="62.6570805565" lon="7.34675554929">
		<tag k="name" v="Eikamyra" />
		<tag k="natural" v="wetland" />
		<tag k="ssr:stedsnr" v="679581" />
	</node>
	<node id="-552739" lat="62.7354111149" lon="7.03514721613">
		<tag k="name" v="Bjørnamyra" />
		<tag k="natural" v="wetland" />
		<tag k="ssr:stedsnr" v="679070" />
	</node>
	<node id="-551201" lat="62.8337333289" lon="7.50034165784">
		<tag k="name" v="Resmyrane" />
		<tag k="natural" v="wetland" />
		<tag k="ssr:stedsnr" v="338075" />
	</node>
	<node id="-552223" lat="62.7974055558" lon="7.48911388951">
		<tag k="name" v="Hjelsetmyrane" />
		<tag k="natural" v="wetland" />
		<tag k="ssr:stedsnr" v="459118" />
	</node>
	<node id="-552222" lat="62.805052774" lon="7.50006666888">
		<tag k="name" v="Godtgongarmyra" />
		<tag k="natural" v="wetland" />
		<tag k="ssr:stedsnr" v="459116" />
	</node>
	<node id="-552219" lat="62.7669083367" lon="7.3519111103">
		<tag k="name" v="Brøtlimyra" />
		<tag k="natural" v="wetland" />
		<tag k="ssr:stedsnr" v="459094" />
	</node>
	<node id="-552215" lat="62.7880333298" lon="7.52992222123">
		<tag k="name" v="Ytste Vikamyra" />
		<tag k="natural" v="wetland" />
		<tag k="ssr:stedsnr" v="459064" />
	</node>
	<node id="-552238" lat="62.8432555571" lon="7.75218054852">
		<tag k="historic" v="shieling" />
		<tag k="name" v="Øygardsetra" />
		<tag k="place" v="locality" />
		<tag k="ssr:stedsnr" v="459203" />
	</node>
	<node id="-551186" lat="62.8198527818" lon="7.60510277809">
		<tag k="name" v="Stangarmyra" />
		<tag k="natural" v="wetland" />
		<tag k="ssr:stedsnr" v="316790" />
	</node>
	<node id="-552721" lat="62.7741388894" lon="7.63973333714">
		<tag k="name" v="Kvernhusmyra" />
		<tag k="natural" v="wetland" />
		<tag k="ssr:stedsnr" v="641937" />
	</node>
	<node id="-552208" lat="62.8151305555" lon="7.74719722383">
		<tag k="name" v="Løvollmyra" />
		<tag k="natural" v="wetland" />
		<tag k="ssr:stedsnr" v="459009" />
	</node>
	<node id="-552203" lat="62.7127250002" lon="7.59492221771">
		<tag k="name" v="Haukmyra" />
		<tag k="natural" v="wetland" />
		<tag k="ssr:stedsnr" v="456472" />
	</node>
	<node id="-551171" lat="62.7557638856" lon="7.5559611151">
		<tag k="name" v="Sagmyra" />
		<tag k="natural" v="wetland" />
		<tag k="ssr:stedsnr" v="315828" />
	</node>
	<node id="-551169" lat="62.7505055564" lon="7.55717778377">
		<tag k="name" v="Trollåsstormyra" />
		<tag k="natural" v="wetland" />
		<tag k="ssr:stedsnr" v="315814" />
	</node>
	<node id="-552703" lat="62.7280777743" lon="7.46976388197">
		<tag k="name" v="Steinkleivmyra" />
		<tag k="natural" v="wetland" />
		<tag k="ssr:stedsnr" v="641837" />
	</node>
	<node id="-552190" lat="62.8151222232" lon="7.67945555276">
		<tag k="name" v="Bolletehaugmyra" />
		<tag k="natural" v="wetland" />
		<tag k="ssr:stedsnr" v="437743" />
	</node>
	<node id="-552700" lat="62.7410777783" lon="7.48521110274">
		<tag k="name" v="Potifarøyan" />
		<tag k="natural" v="wetland" />
		<tag k="ssr:stedsnr" v="641787" />
	</node>
	<node id="-551675" lat="62.7328583302" lon="7.30745277031">
		<tag k="name" v="Johjellmyra" />
		<tag k="natural" v="wetland" />
		<tag k="ssr:stedsnr" v="35927" />
	</node>
	<node id="-551674" lat="62.7625166646" lon="7.28633888963">
		<tag k="name" v="Leikplassen" />
		<tag k="natural" v="wetland" />
		<tag k="ssr:stedsnr" v="35906" />
	</node>
	<node id="-552697" lat="62.7924444466" lon="7.74728055609">
		<tag k="name" v="Vasshaugmyra" />
		<tag k="natural" v="wetland" />
		<tag k="ssr:stedsnr" v="641752" />
	</node>
	<node id="-552181" lat="62.75161389" lon="7.53159166204">
		<tag k="name" v="Mikkelmyra" />
		<tag k="natural" v="wetland" />
		<tag k="ssr:stedsnr" v="436820" />
	</node>
	<node id="-551667" lat="62.7606611092" lon="7.32226944956">
		<tag k="name" v="Liamyra" />
		<tag k="natural" v="wetland" />
		<tag k="ssr:stedsnr" v="35385" />
	</node>
	<node id="-551152" lat="62.7481416658" lon="7.16094444465">
		<tag k="name" v="Nonsmyra" />
		<tag k="natural" v="wetland" />
		<tag k="old_name" v="Lonsmyra" />
		<tag k="ssr:stedsnr" v="314127" />
	</node>
	<node id="-552168" lat="62.7037027779" lon="7.37994445242">
		<tag k="name" v="Røstemyra" />
		<tag k="natural" v="wetland" />
		<tag k="ssr:stedsnr" v="436685" />
	</node>
	<node id="-551651" lat="62.7745194413" lon="7.68154445276">
		<tag k="historic" v="shieling" />
		<tag k="name" v="Kleivsetra" />
		<tag k="place" v="locality" />
		<tag k="ssr:stedsnr" v="34925" />
	</node>
	<node id="-553185" lat="62.7742972216" lon="7.69874722733">
		<tag k="historic" v="shieling" />
		<tag k="name" v="Kleivsetra" />
		<tag k="place" v="locality" />
		<tag k="ssr:stedsnr" v="824997" />
	</node>
	<node id="-551648" lat="62.7255000042" lon="7.41121944394">
		<tag k="name" v="Gardsteinen" />
		<tag k="natural" v="stone" />
		<tag k="ssr:stedsnr" v="34841" />
	</node>
	<node id="-553179" lat="62.7370888928" lon="7.36510000499">
		<tag k="name" v="Nothusvollen" />
		<tag k="place" v="locality" />
		<tag k="ssr:stedsnr" v="824944" />
	</node>
	<node id="-551130" lat="62.7727999999" lon="7.29237499812">
		<tag k="name" v="Stillegjerdet" />
		<tag k="natural" v="wetland" />
		<tag k="ssr:stedsnr" v="277917" />
	</node>
	<node id="-552664" lat="62.7683999958" lon="7.36106944156">
		<tag k="name" v="Teramyra" />
		<tag k="natural" v="wetland" />
		<tag k="ssr:stedsnr" v="641256" />
	</node>
	<node id="-551126" lat="62.7202416623" lon="7.39817221563">
		<tag k="name" v="Geitasteinan" />
		<tag k="natural" v="stone" />
		<tag k="ssr:stedsnr" v="277877" />
	</node>
	<node id="-551121" lat="62.7392944448" lon="7.4156111118">
		<tag k="name" v="Marigardsmyra" />
		<tag k="natural" v="wetland" />
		<tag k="ssr:stedsnr" v="277835" />
	</node>
	<node id="-553168" lat="62.7542111135" lon="7.48333333985">
		<tag k="name" v="Langåsmyra" />
		<tag k="natural" v="wetland" />
		<tag k="ssr:stedsnr" v="824842" />
	</node>
	<node id="-551631" lat="62.7264444409" lon="7.02144443775">
		<tag k="name" v="Vorpå" />
		<tag k="place" v="locality" />
		<tag k="ssr:stedsnr" v="34656" />
	</node>
	<node id="-551114" lat="62.7599333363" lon="7.47354444458">
		<tag k="name" v="Slåttamyra" />
		<tag k="natural" v="wetland" />
		<tag k="ssr:stedsnr" v="277793" />
	</node>
	<node id="-552649" lat="62.7702611084" lon="7.32476110717">
		<tag k="name" v="Svarthammarmyra" />
		<tag k="natural" v="wetland" />
		<tag k="ssr:stedsnr" v="641072" />
	</node>
	<node id="-553159" lat="62.7525222247" lon="7.18375278607">
		<tag k="name" v="Myrsletta" />
		<tag k="natural" v="wetland" />
		<tag k="ssr:stedsnr" v="824731" />
	</node>
	<node id="-552643" lat="62.7757111084" lon="7.41223611899">
		<tag k="name" v="Storhaugmyra" />
		<tag k="natural" v="wetland" />
		<tag k="ssr:stedsnr" v="641049" />
	</node>
	<node id="-552642" lat="62.7763222222" lon="7.46303611785">
		<tag k="name" v="Hjellsetflata" />
		<tag k="place" v="locality" />
		<tag k="ssr:stedsnr" v="641048" />
	</node>
	<node id="-553153" lat="62.7543333362" lon="7.08809999637">
		<tag k="name" v="Hyttemyra" />
		<tag k="natural" v="wetland" />
		<tag k="ssr:stedsnr" v="824680" />
	</node>
	<node id="-551616" lat="62.8386583377" lon="7.73649445257">
		<tag k="name" v="Svartholen" />
		<tag k="place" v="locality" />
		<tag k="ssr:stedsnr" v="34189" />
	</node>
	<node id="-551615" lat="62.8205805527" lon="7.78485277653">
		<tag k="name" v="Gnarrmyra" />
		<tag k="natural" v="wetland" />
		<tag k="ssr:stedsnr" v="34188" />
	</node>
	<node id="-552126" lat="62.6677249963" lon="7.2626472198">
		<tag k="name" v="Roligmyra" />
		<tag k="natural" v="wetland" />
		<tag k="ssr:stedsnr" v="254712" />
	</node>
	<node id="-551613" lat="62.7022305551" lon="7.54011943681">
		<tag k="name" v="Kringla" />
		<tag k="natural" v="wetland" />
		<tag k="ssr:stedsnr" v="34150" />
	</node>
	<node id="-553148" lat="62.6754083338" lon="7.42420278152">
		<tag k="name" v="Mortensteinen" />
		<tag k="natural" v="stone" />
		<tag k="ssr:stedsnr" v="824641" />
	</node>
	<node id="-551611" lat="62.7063361091" lon="7.55019721363">
		<tag k="name" v="Bekkholå" />
		<tag k="natural" v="wetland" />
		<tag k="ssr:stedsnr" v="34143" />
	</node>
	<node id="-551199" lat="62.7788527765" lon="7.48894444696">
		<tag k="name" v="Kråkøyran" />
		<tag k="place" v="locality" />
		<tag k="ssr:stedsnr" v="338058" />
	</node>
	<node id="-552632" lat="62.7521305535" lon="7.60319443957">
		<tag k="historic" v="shieling" />
		<tag k="name" v="Gammelstølan" />
		<tag k="place" v="locality" />
		<tag k="ssr:stedsnr" v="640766" />
	</node>
	<node id="-552631" lat="62.756758336" lon="7.60892777923">
		<tag k="name" v="Skålmyran" />
		<tag k="natural" v="wetland" />
		<tag k="ssr:stedsnr" v="640765" />
	</node>
	<node id="-551605" lat="62.7655638909" lon="7.33877776888">
		<tag k="name" v="Smigjerdsmyra" />
		<tag k="natural" v="wetland" />
		<tag k="ssr:stedsnr" v="34095" />
	</node>
	<node id="-552628" lat="62.6657361131" lon="7.33071667322">
		<tag k="name" v="Stormyra" />
		<tag k="natural" v="wetland" />
		<tag k="ssr:stedsnr" v="640185" />
	</node>
	<node id="-551090" lat="62.7855611124" lon="7.49844165905">
		<tag k="name" v="Langmyra" />
		<tag k="natural" v="wetland" />
		<tag k="ssr:stedsnr" v="277299" />
	</node>
	<node id="-552112" lat="62.7631361119" lon="7.52388056474">
		<tag k="name" v="Skitnemyra" />
		<tag k="natural" v="wetland" />
		<tag k="ssr:stedsnr" v="217977" />
	</node>
	<node id="-551087" lat="62.7577222187" lon="7.26983889008">
		<tag k="name" v="Kvilaren" />
		<tag k="natural" v="stone" />
		<tag k="ssr:stedsnr" v="277285" />
	</node>
	<node id="-551598" lat="62.8131166662" lon="7.74853888656">
		<tag k="name" v="Løbakkmyra" />
		<tag k="natural" v="wetland" />
		<tag k="ssr:stedsnr" v="34010" />
	</node>
	<node id="-553133" lat="62.8287416634" lon="7.51428333454">
		<tag k="name" v="Løken" />
		<tag k="natural" v="wetland" />
		<tag k="ssr:stedsnr" v="824369" />
	</node>
	<node id="-551084" lat="62.6673194468" lon="7.28142777355">
		<tag k="name" v="Langmyra" />
		<tag k="natural" v="wetland" />
		<tag k="ssr:stedsnr" v="277278" />
	</node>
	<node id="-551083" lat="62.69666111" lon="7.36891666135">
		<tag k="name" v="Glåmå" />
		<tag k="natural" v="wetland" />
		<tag k="ssr:stedsnr" v="277270" />
	</node>
	<node id="-553126" lat="62.730713891" lon="7.51313889655">
		<tag k="name" v="Langmyra" />
		<tag k="natural" v="wetland" />
		<tag k="ssr:stedsnr" v="824338" />
	</node>
	<node id="-551075" lat="62.6845750018" lon="7.45626111821">
		<tag k="name" v="Skaget" />
		<tag k="place" v="locality" />
		<tag k="ssr:stedsnr" v="277184" />
	</node>
	<node id="-552098" lat="62.7170805595" lon="7.43728054876">
		<tag k="name" v="Kårstykket" />
		<tag k="place" v="locality" />
		<tag k="ssr:stedsnr" v="217848" />
	</node>
	<node id="-551963" lat="62.7591861067" lon="7.53169721956">
		<tag k="name" v="Langgjerda" />
		<tag k="natural" v="wetland" />
		<tag k="ssr:stedsnr" v="156976" />
	</node>
	<node id="-551070" lat="62.8184027782" lon="7.78992778117">
		<tag k="name" v="Litlemyra" />
		<tag k="natural" v="wetland" />
		<tag k="ssr:stedsnr" v="277160" />
	</node>
	<node id="-552092" lat="62.7338305525" lon="7.42144721858">
		<tag k="name" v="Larsplassen" />
		<tag k="place" v="locality" />
		<tag k="ssr:stedsnr" v="217824" />
	</node>
	<node id="-552091" lat="62.7351805596" lon="7.43213332383">
		<tag k="name" v="Erikhjellmyra" />
		<tag k="natural" v="wetland" />
		<tag k="ssr:stedsnr" v="217819" />
	</node>
	<node id="-552089" lat="62.7450722209" lon="7.47335833145">
		<tag k="name" v="Hansgjerdet" />
		<tag k="place" v="locality" />
		<tag k="ssr:stedsnr" v="217788" />
	</node>
	<node id="-553112" lat="62.825061111" lon="7.63222778466">
		<tag k="historic" v="shieling" />
		<tag k="name" v="Gamle Romoldsetra" />
		<tag k="place" v="locality" />
		<tag k="ssr:stedsnr" v="824239" />
	</node>
	<node id="-553110" lat="62.7711972213" lon="7.57940278146">
		<tag k="name" v="Torvmyra" />
		<tag k="natural" v="wetland" />
		<tag k="ssr:stedsnr" v="824216" />
	</node>
	<node id="-553106" lat="62.7356416687" lon="7.4808499995">
		<tag k="name" v="Stormyra" />
		<tag k="natural" v="wetland" />
		<tag k="ssr:stedsnr" v="824172" />
	</node>
	<node id="-551566" lat="62.7256861099" lon="7.65598610358">
		<tag k="name" v="Gjeldmyra" />
		<tag k="natural" v="wetland" />
		<tag k="ssr:stedsnr" v="11789" />
	</node>
	<node id="-552588" lat="62.7212694474" lon="7.64299999052">
		<tag k="name" v="Hjellmyra" />
		<tag k="natural" v="wetland" />
		<tag k="ssr:stedsnr" v="580998" />
	</node>
	<node id="-551050" lat="62.7887777747" lon="7.5355666664">
		<tag k="name" v="Nøre Vikamyra" />
		<tag k="natural" v="wetland" />
		<tag k="ssr:stedsnr" v="277050" />
	</node>
	<node id="-551049" lat="62.8132500043" lon="7.57884445372">
		<tag k="name" v="Heimholene" />
		<tag k="natural" v="wetland" />
		<tag k="ssr:stedsnr" v="277045" />
	</node>
	<node id="-551048" lat="62.8216194482" lon="7.60877499568">
		<tag k="name" v="Stangarkrokane" />
		<tag k="natural" v="wetland" />
		<tag k="ssr:stedsnr" v="277042" />
	</node>
	<node id="-551047" lat="62.8105638908" lon="7.56119444816">
		<tag k="name" v="Seterhaugmyrane" />
		<tag k="natural" v="wetland" />
		<tag k="ssr:stedsnr" v="277026" />
	</node>
	<node id="-553091" lat="62.8026166628" lon="7.58152500414">
		<tag k="name" v="Ola Hauaskogen" />
		<tag k="place" v="locality" />
		<tag k="ssr:stedsnr" v="824056" />
	</node>
	<node id="-553089" lat="62.8021583373" lon="7.69518888003">
		<tag k="name" v="Litleøyna" />
		<tag k="natural" v="wetland" />
		<tag k="ssr:stedsnr" v="824027" />
	</node>
	<node id="-553084" lat="62.7127916654" lon="7.55533889438">
		<tag k="historic" v="shieling" />
		<tag k="name" v="Årsetsetra" />
		<tag k="place" v="locality" />
		<tag k="ssr:stedsnr" v="823747" />
	</node>
	<node id="-552056" lat="62.7501083377" lon="7.52221388713">
		<tag k="name" v="Monsmyra" />
		<tag k="natural" v="wetland" />
		<tag k="ssr:stedsnr" v="217252" />
	</node>
	<node id="-552055" lat="62.7640749976" lon="7.23340277057">
		<tag k="name" v="Fanbostadmyra" />
		<tag k="natural" v="wetland" />
		<tag k="ssr:stedsnr" v="217246" />
	</node>
	<node id="-552562" lat="62.7613250008" lon="7.4796111023">
		<tag k="name" v="Hestehagen" />
		<tag k="place" v="locality" />
		<tag k="ssr:stedsnr" v="580772" />
	</node>
	<node id="-552561" lat="62.7573222196" lon="7.57638611587">
		<tag k="historic" v="shieling" />
		<tag k="name" v="Tollåssetra" />
		<tag k="place" v="locality" />
		<tag k="ssr:stedsnr" v="580760" />
	</node>
	<node id="-551161" lat="62.697550003" lon="7.39355278333">
		<tag k="name" v="Stormyra" />
		<tag k="natural" v="wetland" />
		<tag k="ssr:stedsnr" v="315703" />
	</node>
	<node id="-552757" lat="62.8350722188" lon="7.65325277537">
		<tag k="name" v="Raudliløken" />
		<tag k="natural" v="wetland" />
		<tag k="ssr:stedsnr" v="680733" />
	</node>
	<node id="-551531" lat="62.7583194408" lon="7.64311112066">
		<tag k="name" v="Skålmyran" />
		<tag k="natural" v="wetland" />
		<tag k="ssr:stedsnr" v="884995" />
	</node>
	<node id="-552041" lat="62.7476638898" lon="7.51020278131">
		<tag k="name" v="Fåkjeldmyra" />
		<tag k="natural" v="wetland" />
		<tag k="ssr:stedsnr" v="216739" />
	</node>
	<node id="-552039" lat="62.7107499995" lon="7.52676666151">
		<tag k="name" v="Løkan" />
		<tag k="natural" v="wetland" />
		<tag k="ssr:stedsnr" v="217141" />
	</node>
	<node id="-551525" lat="62.7784249987" lon="7.64285833327">
		<tag k="name" v="Håsteinen" />
		<tag k="natural" v="stone" />
		<tag k="ssr:stedsnr" v="884926" />
	</node>
	<node id="-552035" lat="62.7825166684" lon="7.70484167474">
		<tag k="name" v="Vollan" />
		<tag k="place" v="locality" />
		<tag k="ssr:stedsnr" v="217121" />
	</node>
	<node id="-552545" lat="62.7405250017" lon="7.51012500535">
		<tag k="name" v="Breiskarmyran" />
		<tag k="natural" v="wetland" />
		<tag k="ssr:stedsnr" v="580614" />
	</node>
	<node id="-552542" lat="62.6917861076" lon="7.49693610436">
		<tag k="name" v="Kvitsteinmyra" />
		<tag k="natural" v="wetland" />
		<tag k="ssr:stedsnr" v="580573" />
	</node>
	<node id="-552540" lat="62.6997972261" lon="7.47211665918">
		<tag k="name" v="Bergsmyra" />
		<tag k="natural" v="wetland" />
		<tag k="ssr:stedsnr" v="580566" />
	</node>
	<node id="-551058" lat="62.7629999989" lon="7.33537500771">
		<tag k="name" v="Smigjerdet" />
		<tag k="place" v="locality" />
		<tag k="ssr:stedsnr" v="277074" />
	</node>
	<node id="-551450" lat="62.8156805563" lon="7.5297277734">
		<tag k="name" v="Fonnasteinen" />
		<tag k="natural" v="stone" />
		<tag k="ssr:stedsnr" v="884052" />
	</node>
	<node id="-552633" lat="62.7549833334" lon="7.59850555337">
		<tag k="historic" v="shieling" />
		<tag k="name" v="Gamle Mausetsetra" />
		<tag k="place" v="locality" />
		<tag k="ssr:stedsnr" v="640767" />
	</node>
	<node id="-552528" lat="62.7178694441" lon="7.26893611117">
		<tag k="historic" v="shieling" />
		<tag k="name" v="Setran" />
		<tag k="place" v="locality" />
		<tag k="ssr:stedsnr" v="580250" />
	</node>
	<node id="-553144" lat="62.7352916671" lon="7.03221666286">
		<tag k="name" v="Samsemyra" />
		<tag k="natural" v="wetland" />
		<tag k="ssr:stedsnr" v="824522" />
	</node>
	<node id="-552525" lat="62.8106416709" lon="7.77084166345">
		<tag k="name" v="Torvmyra" />
		<tag k="natural" v="wetland" />
		<tag k="ssr:stedsnr" v="580213" />
	</node>
	<node id="-551499" lat="62.7003833339" lon="7.53689721714">
		<tag k="name" v="Gjerdmyra" />
		<tag k="natural" v="wetland" />
		<tag k="ssr:stedsnr" v="884709" />
	</node>
	<node id="-551498" lat="62.7356583292" lon="7.51814999737">
		<tag k="historic" v="shieling" />
		<tag k="name" v="Gjerdsetra" />
		<tag k="place" v="locality" />
		<tag k="ssr:stedsnr" v="884706" />
	</node>
	<node id="-552513" lat="62.7771361136" lon="7.75164444898">
		<tag k="name" v="Storøyan" />
		<tag k="natural" v="wetland" />
		<tag k="ssr:stedsnr" v="580136" />
	</node>
	<node id="-552509" lat="62.7079249973" lon="7.55740556133">
		<tag k="name" v="Kvamyra" />
		<tag k="natural" v="wetland" />
		<tag k="ssr:stedsnr" v="580119" />
	</node>
	<node id="-552073" lat="62.7188194402" lon="7.41326110394">
		<tag k="name" v="Kobbesteinen" />
		<tag k="natural" v="stone" />
		<tag k="ssr:stedsnr" v="217641" />
	</node>
	<node id="-551993" lat="62.7236444424" lon="7.28693055728">
		<tag k="name" v="Forøyura" />
		<tag k="natural" v="scree" />
		<tag k="ssr:stedsnr" v="193789" />
	</node>
	<node id="-552504" lat="62.7906916635" lon="7.65325555964">
		<tag k="name" v="Kobbesteinen" />
		<tag k="natural" v="stone" />
		<tag k="ssr:stedsnr" v="580081" />
	</node>
	<node id="-551475" lat="62.7906027786" lon="7.53056665695">
		<tag k="name" v="Storøya" />
		<tag k="place" v="locality" />
		<tag k="ssr:stedsnr" v="884309" />
	</node>
	<node id="-551473" lat="62.6499083317" lon="7.27776945188">
		<tag k="name" v="Gråura" />
		<tag k="natural" v="scree" />
		<tag k="ssr:stedsnr" v="884275" />
	</node>
	<node id="-551472" lat="62.820241671" lon="7.79419443887">
		<tag k="name" v="Lømyra" />
		<tag k="natural" v="wetland" />
		<tag k="ssr:stedsnr" v="884209" />
	</node>
	<node id="-551471" lat="62.8442555561" lon="7.7379055469">
		<tag k="historic" v="shieling" />
		<tag k="name" v="Øyasetra" />
		<tag k="place" v="locality" />
		<tag k="ssr:stedsnr" v="884206" />
	</node>
	<node id="-552211" lat="62.8081916697" lon="7.54448054907">
		<tag k="name" v="Nakkmyrane" />
		<tag k="natural" v="wetland" />
		<tag k="ssr:stedsnr" v="459044" />
	</node>
	<node id="-552999" lat="62.75428889" lon="7.27863612038">
		<tag k="name" v="Årømyran" />
		<tag k="natural" v="wetland" />
		<tag k="ssr:stedsnr" v="763318" />
	</node>
	<node id="-551462" lat="62.6856750017" lon="7.45130554698">
		<tag k="name" v="Rompa" />
		<tag k="place" v="locality" />
		<tag k="ssr:stedsnr" v="884186" />
	</node>
	<node id="-551812" lat="62.7373805553" lon="7.40516111172">
		<tag k="name" v="Liaskarsmyra" />
		<tag k="natural" v="wetland" />
		<tag k="ssr:stedsnr" v="95761" />
	</node>
	<node id="-551088" lat="62.7689944487" lon="7.31261665907">
		<tag k="name" v="Dyrmyra" />
		<tag k="natural" v="wetland" />
		<tag k="ssr:stedsnr" v="277289" />
	</node>
	<node id="-551966" lat="62.723452774" lon="7.6623777848">
		<tag k="name" v="Hoåteigen" />
		<tag k="place" v="locality" />
		<tag k="ssr:stedsnr" v="156987" />
	</node>
	<node id="-551453" lat="62.7936861097" lon="7.42517221594">
		<tag k="historic" v="shieling" />
		<tag k="name" v="Ytre Mjelvesetra" />
		<tag k="place" v="locality" />
		<tag k="ssr:stedsnr" v="884071" />
	</node>
	<node id="-551452" lat="62.7880916638" lon="7.56596389226">
		<tag k="name" v="Skjøljaren" />
		<tag k="natural" v="wetland" />
		<tag k="ssr:stedsnr" v="884070" />
	</node>
	<node id="-552987" lat="62.7570138894" lon="7.34644167151">
		<tag k="name" v="Strandhagen" />
		<tag k="place" v="locality" />
		<tag k="ssr:stedsnr" v="763253" />
	</node>
	<node id="-552505" lat="62.8328111082" lon="7.48427222134">
		<tag k="name" v="Stokksletta" />
		<tag k="natural" v="wetland" />
		<tag k="ssr:stedsnr" v="580087" />
	</node>
	<node id="-552983" lat="62.8290722211" lon="7.64446943496">
		<tag k="name" v="Smålimyrane" />
		<tag k="natural" v="wetland" />
		<tag k="ssr:stedsnr" v="763222" />
	</node>
	<node id="-551444" lat="62.7873083364" lon="7.58118332826">
		<tag k="name" v="Røsbergura" />
		<tag k="natural" v="scree" />
		<tag k="ssr:stedsnr" v="884006" />
	</node>
	<node id="-551954" lat="62.7836333325" lon="7.39424722257">
		<tag k="name" v="Klumpesteinen" />
		<tag k="natural" v="stone" />
		<tag k="ssr:stedsnr" v="156896" />
	</node>
	<node id="-552462" lat="62.6615805582" lon="7.27401944642">
		<tag k="name" v="Stormyra" />
		<tag k="natural" v="wetland" />
		<tag k="ssr:stedsnr" v="557709" />
	</node>
	<node id="-551959" lat="62.6758249971" lon="7.25295556312">
		<tag k="name" v="Eikasteinen" />
		<tag k="natural" v="stone" />
		<tag k="ssr:stedsnr" v="156947" />
	</node>
	<node id="-551946" lat="62.7491638859" lon="7.43873888537">
		<tag k="name" v="Ospateigen" />
		<tag k="place" v="locality" />
		<tag k="ssr:stedsnr" v="156841" />
	</node>
	<node id="-551431" lat="62.6754388848" lon="7.27573611665">
		<tag k="name" v="Storvikmyra" />
		<tag k="natural" v="wetland" />
		<tag k="ssr:stedsnr" v="399963" />
	</node>
	<node id="-551941" lat="62.7611750018" lon="7.49541945135">
		<tag k="name" v="Seterbøen" />
		<tag k="natural" v="wetland" />
		<tag k="ssr:stedsnr" v="156780" />
	</node>
	<node id="-551428" lat="62.6609666642" lon="7.33681388021">
		<tag k="name" v="Ørnehaugmyra" />
		<tag k="natural" v="wetland" />
		<tag k="ssr:stedsnr" v="399956" />
	</node>
	<node id="-551766" lat="62.7553138915" lon="7.21942777963">
		<tag k="name" v="Skjøljarmyra" />
		<tag k="natural" v="wetland" />
		<tag k="ssr:stedsnr" v="95162" />
	</node>
</osm>
