<?xml version="1.0" encoding="UTF-8"?>
<osm generator="osmapis" version="0.6">
	<node id="-553982" lat="62.7961249976" lon="7.74605834115">
		<tag k="name" v="Vassenden" />
		<tag k="natural" v="bay" />
		<tag k="ssr:stedsnr" v="824798" />
	</node>
	<node id="-553981" lat="62.7837305569" lon="7.7378611023">
		<tag k="name" v="Øyratjørna" />
		<tag k="natural" v="water" />
		<tag k="ssr:stedsnr" v="824797" />
	</node>
	<node id="-552956" lat="62.7316055535" lon="7.45895554772">
		<tag k="name" v="Kroken" />
		<tag k="place" v="locality" />
		<tag k="ssr:stedsnr" v="254780" />
	</node>
	<node id="-551931" lat="62.7731777807" lon="7.77488610772">
		<tag k="name" v="Skarbekken" />
		<tag k="ssr:stedsnr" v="277805" />
		<tag k="waterway" v="stream" />
	</node>
	<node id="-553975" lat="62.7559361154" lon="7.16336389222">
		<tag k="name" v="Andersbekken" />
		<tag k="ssr:stedsnr" v="824721" />
		<tag k="waterway" v="stream" />
	</node>
	<node id="-552949" lat="62.7635916647" lon="7.31327222489">
		<tag k="name" v="Elsåselva" />
		<tag k="ssr:stedsnr" v="254760" />
		<tag k="waterway" v="stream" />
	</node>
	<node id="-553470" lat="62.7652583335" lon="7.5947027861">
		<tag k="name" v="Løkan" />
		<tag k="ssr:stedsnr" v="641149" />
		<tag k="waterway" v="stream" />
	</node>
	<node id="-553458" lat="62.7766944404" lon="7.4690638889">
		<tag k="name" v="Morkagrova" />
		<tag k="ssr:stedsnr" v="641047" />
		<tag k="waterway" v="stream" />
	</node>
	<node id="-552945" lat="62.7744722211" lon="7.22371945311">
		<tag k="name" v="Bårdsdalsvatnet" />
		<tag k="natural" v="water" />
		<tag k="ssr:stedsnr" v="254729" />
	</node>
	<node id="-553967" lat="62.7457472178" lon="7.55373333146">
		<tag k="name" v="Seilgrova" />
		<tag k="ssr:stedsnr" v="824649" />
		<tag k="waterway" v="stream" />
	</node>
	<node id="-551933" lat="62.748752777" lon="7.480813883">
		<tag k="name" v="Djupgrova" />
		<tag k="ssr:stedsnr" v="277818" />
		<tag k="waterway" v="stream" />
	</node>
	<node id="-552426" lat="62.7956722259" lon="7.74117778463">
		<tag k="name" v="Holmen" />
		<tag k="place" v="islet" />
		<tag k="ssr:stedsnr" v="34135" />
	</node>
	<node id="-551912" lat="62.7690388905" lon="7.78753610152">
		<tag k="name" v="Svabekken" />
		<tag k="ssr:stedsnr" v="277655" />
		<tag k="waterway" v="stream" />
	</node>
	<node id="-551932" lat="62.7971944409" lon="7.76397777936">
		<tag k="name" v="Vasshaugbukta" />
		<tag k="natural" v="bay" />
		<tag k="ssr:stedsnr" v="277812" />
	</node>
	<node id="-552420" lat="62.7985222254" lon="7.56111945171">
		<tag k="name" v="Eidssetergrova" />
		<tag k="ssr:stedsnr" v="34054" />
		<tag k="waterway" v="stream" />
	</node>
	<node id="-552418" lat="62.809180559" lon="7.65568055936">
		<tag k="name" v="Lomtjønna" />
		<tag k="natural" v="water" />
		<tag k="ssr:stedsnr" v="34022" />
	</node>
	<node id="-553979" lat="62.740808329" lon="7.1476611075">
		<tag k="name" v="Reknesbekken" />
		<tag k="ssr:stedsnr" v="824755" />
		<tag k="waterway" v="stream" />
	</node>
	<node id="-551903" lat="62.7752138846" lon="7.28169167466">
		<tag k="name" v="Hausåa" />
		<tag k="ssr:stedsnr" v="277288" />
		<tag k="waterway" v="stream" />
	</node>
	<node id="-553949" lat="62.7914055541" lon="7.458230557">
		<tag k="name" v="Tverelva" />
		<tag k="ssr:stedsnr" v="824365" />
		<tag k="waterway" v="stream" />
	</node>
	<node id="-552536" lat="62.8289111143" lon="7.76764722925">
		<tag k="name" v="Haltabekken" />
		<tag k="ssr:stedsnr" v="81127" />
		<tag k="waterway" v="stream" />
	</node>
	<node id="-553946" lat="62.7607444414" lon="7.26660834277">
		<tag k="name" v="Saggrova" />
		<tag k="ssr:stedsnr" v="824354" />
		<tag k="waterway" v="stream" />
	</node>
	<node id="-553945" lat="62.7726388861" lon="7.3336861187">
		<tag k="name" v="Løkan" />
		<tag k="ssr:stedsnr" v="824352" />
		<tag k="waterway" v="stream" />
	</node>
	<node id="-553209" lat="62.7921500026" lon="7.38111111505">
		<tag k="name" v="Tjønnene" />
		<tag k="natural" v="water" />
		<tag k="ssr:stedsnr" v="520232" />
	</node>
	<node id="-552916" lat="62.6980416667" lon="7.4657805581">
		<tag k="name" v="Bergsvikgrova" />
		<tag k="ssr:stedsnr" v="217855" />
		<tag k="waterway" v="stream" />
	</node>
	<node id="-553425" lat="62.7469638923" lon="7.62833610657">
		<tag k="name" v="Trollvatnet" />
		<tag k="natural" v="water" />
		<tag k="ssr:stedsnr" v="618742" />
	</node>
	<node id="-552400" lat="62.7913611083" lon="7.3421138842">
		<tag k="alt_name" v="Løkan" />
		<tag k="name" v="Løken" />
		<tag k="natural" v="water" />
		<tag k="ssr:stedsnr" v="12753" />
	</node>
	<node id="-552910" lat="62.7013361087" lon="7.43963055028">
		<tag k="name" v="Steinsåelva" />
		<tag k="ssr:stedsnr" v="217830" />
		<tag k="waterway" v="stream" />
	</node>
	<node id="-551885" lat="62.8561027777" lon="7.73939444121">
		<tag k="name" v="Skeistubekken" />
		<tag k="ssr:stedsnr" v="277162" />
		<tag k="waterway" v="stream" />
	</node>
	<node id="-551883" lat="62.8065666653" lon="7.78094445242">
		<tag k="name" v="Aspelundrøysa" />
		<tag k="natural" v="beach" />
		<tag k="ssr:stedsnr" v="277158" />
	</node>
	<node id="-551881" lat="62.7485944425" lon="7.63093888149">
		<tag k="name" v="Fonna" />
		<tag k="ssr:stedsnr" v="277152" />
		<tag k="waterway" v="stream" />
	</node>
	<node id="-553928" lat="62.8287638905" lon="7.76488332609">
		<tag k="name" v="Hatlatjørna" />
		<tag k="natural" v="water" />
		<tag k="ssr:stedsnr" v="824217" />
	</node>
	<node id="-553415" lat="62.708852777" lon="7.53897499744">
		<tag k="name" v="Årsetvatnet" />
		<tag k="natural" v="water" />
		<tag k="ssr:stedsnr" v="618664" />
	</node>
	<node id="-553413" lat="62.8589444486" lon="7.76216388731">
		<tag k="name" v="Trollåa" />
		<tag k="ssr:stedsnr" v="618491" />
		<tag k="waterway" v="stream" />
	</node>
	<node id="-552900" lat="62.7558833309" lon="7.1583694441">
		<tag k="name" v="Botnabekken" />
		<tag k="ssr:stedsnr" v="217696" />
		<tag k="waterway" v="stream" />
	</node>
	<node id="-554058" lat="62.7030277741" lon="7.49430000396">
		<tag k="name" v="Vikvatnet" />
		<tag k="natural" v="water" />
		<tag k="ssr:stedsnr" v="921709" />
	</node>
	<node id="-552897" lat="62.7761861102" lon="7.21498332763">
		<tag k="name" v="Gangskargrova" />
		<tag k="ssr:stedsnr" v="217687" />
		<tag k="waterway" v="stream" />
	</node>
	<node id="-552896" lat="62.7495583359" lon="7.21031111366">
		<tag k="name" v="Tøndergårdbekken" />
		<tag k="ssr:stedsnr" v="217679" />
		<tag k="waterway" v="stream" />
	</node>
	<node id="-552608" lat="62.7338111073" lon="7.01543888843">
		<tag k="name" v="Mordalselva" />
		<tag k="ssr:stedsnr" v="95454" />
		<tag k="waterway" v="stream" />
	</node>
	<node id="-551870" lat="62.7741472202" lon="7.43275833827">
		<tag k="name" v="Øygardselva" />
		<tag k="ssr:stedsnr" v="277058" />
		<tag k="waterway" v="river" />
	</node>
	<node id="-552437" lat="62.7012583342" lon="7.4859972289">
		<tag k="name" v="Teppa" />
		<tag k="ssr:stedsnr" v="34217" />
		<tag k="waterway" v="dam" />
	</node>
	<node id="-552891" lat="62.6998111077" lon="7.45993332787">
		<tag k="name" v="Tømmerløypet" />
		<tag k="place" v="locality" />
		<tag k="ssr:stedsnr" v="217644" />
	</node>
	<node id="-551866" lat="62.7798888867" lon="7.48636110675">
		<tag k="name" v="Hagagrova" />
		<tag k="ssr:stedsnr" v="277052" />
		<tag k="waterway" v="stream" />
	</node>
	<node id="-552587" lat="62.7443000011" lon="7.50244166629">
		<tag k="name" v="Øystilla" />
		<tag k="natural" v="water" />
		<tag k="ssr:stedsnr" v="95257" />
		<tag k="water" v="lake" />
	</node>
	<node id="-553398" lat="62.6731805531" lon="7.29804999291">
		<tag k="name" v="Sollibøelva" />
		<tag k="ssr:stedsnr" v="580948" />
		<tag k="waterway" v="stream" />
	</node>
	<node id="-551991" lat="62.7231527776" lon="7.52860554661">
		<tag k="name" v="Skålvatna" />
		<tag k="natural" v="water" />
		<tag k="ssr:stedsnr" v="315780" />
	</node>
	<node id="-551860" lat="62.819980553" lon="7.65795555921">
		<tag k="name" v="Litle Kleivevatnet" />
		<tag k="natural" v="water" />
		<tag k="ssr:stedsnr" v="277021" />
		<tag k="water" v="lake" />
	</node>
	<node id="-553395" lat="62.6479388899" lon="7.29667500463">
		<tag k="name" v="Hatleneset" />
		<tag k="natural" v="cape" />
		<tag k="ssr:stedsnr" v="580911" />
	</node>
	<node id="-552880" lat="62.8166555581" lon="7.52853889003">
		<tag k="name" v="Løken" />
		<tag k="ssr:stedsnr" v="217351" />
		<tag k="waterway" v="stream" />
	</node>
	<node id="-552367" lat="62.8279083355" lon="7.42918610427">
		<tag k="name" v="Langvassosen" />
		<tag k="natural" v="bay" />
		<tag k="ssr:stedsnr" v="35842" />
	</node>
	<node id="-553390" lat="62.7338194474" lon="7.45667776809">
		<tag k="name" v="Lauvåsgrova" />
		<tag k="ssr:stedsnr" v="580871" />
		<tag k="waterway" v="stream" />
	</node>
	<node id="-552605" lat="62.7351833316" lon="7.08891666884">
		<tag k="name" v="Mekelva" />
		<tag k="ssr:stedsnr" v="95621" />
		<tag k="waterway" v="river" />
	</node>
	<node id="-553900" lat="62.7570555574" lon="7.59463056406">
		<tag k="name" v="Grønliløken" />
		<tag k="ssr:stedsnr" v="823725" />
		<tag k="waterway" v="stream" />
	</node>
	<node id="-552434" lat="62.8434249966" lon="7.78676944813">
		<tag k="name" v="Årslibekken" />
		<tag k="ssr:stedsnr" v="34197" />
		<tag k="waterway" v="stream" />
	</node>
	<node id="-553898" lat="62.7320916662" lon="7.37406944916">
		<tag k="name" v="Keilå" />
		<tag k="ssr:stedsnr" v="823267" />
		<tag k="waterway" v="stream" />
	</node>
	<node id="-552263" lat="62.8163333312" lon="7.53629444576">
		<tag k="name" v="Tverligrova" />
		<tag k="ssr:stedsnr" v="884049" />
		<tag k="waterway" v="stream" />
	</node>
	<node id="-553384" lat="62.7569138926" lon="7.47132777102">
		<tag k="name" v="Strandselva" />
		<tag k="ssr:stedsnr" v="580830" />
		<tag k="waterway" v="stream" />
	</node>
	<node id="-553382" lat="62.7976888934" lon="7.76351944822">
		<tag k="name" v="Vasshaugneset" />
		<tag k="natural" v="cape" />
		<tag k="ssr:stedsnr" v="580795" />
	</node>
	<node id="-553083" lat="62.7436472238" lon="7.13578056433">
		<tag k="name" v="Bjørsetelva" />
		<tag k="ssr:stedsnr" v="459700" />
		<tag k="waterway" v="stream" />
	</node>
	<node id="-552867" lat="62.8609444472" lon="7.74742778403">
		<tag k="name" v="Trollvasstjørna" />
		<tag k="natural" v="water" />
		<tag k="ssr:stedsnr" v="217188" />
	</node>
	<node id="-553887" lat="62.7394500008" lon="7.16765278382">
		<tag k="name" v="Moldeelva" />
		<tag k="ssr:stedsnr" v="801866" />
		<tag k="waterway" v="stream" />
	</node>
	<node id="-553455" lat="62.7687916698" lon="7.59092500432">
		<tag k="name" v="Bjerkalitjønna" />
		<tag k="natural" v="water" />
		<tag k="ssr:stedsnr" v="640969" />
	</node>
	<node id="-553880" lat="62.7721222182" lon="7.65305000361">
		<tag k="name" v="Otergrova" />
		<tag k="ssr:stedsnr" v="800761" />
		<tag k="waterway" v="stream" />
	</node>
	<node id="-553367" lat="62.7610916663" lon="7.20414444624">
		<tag k="name" v="Bergsvasselva" />
		<tag k="ssr:stedsnr" v="580689" />
		<tag k="waterway" v="river" />
	</node>
	<node id="-552342" lat="62.676255556" lon="7.25948611704">
		<tag k="name" v="Kvernavikelva" />
		<tag k="ssr:stedsnr" v="884938" />
		<tag k="waterway" v="stream" />
	</node>
	<node id="-552851" lat="62.792333331" lon="7.41493055039">
		<tag k="name" v="Fjellrevvatnet" />
		<tag k="natural" v="water" />
		<tag k="ssr:stedsnr" v="217116" />
	</node>
	<node id="-552849" lat="62.8083999992" lon="7.48746943989">
		<tag k="name" v="Kloppavassteppinga" />
		<tag k="ssr:stedsnr" v="217106" />
		<tag k="waterway" v="dam" />
	</node>
	<node id="-553360" lat="62.7086805569" lon="7.4942916691">
		<tag k="name" v="Horgagrova" />
		<tag k="ssr:stedsnr" v="580577" />
		<tag k="waterway" v="stream" />
	</node>
	<node id="-552344" lat="62.7665138922" lon="7.61941943527">
		<tag k="name" v="Lars-skovatnet" />
		<tag k="natural" v="water" />
		<tag k="ssr:stedsnr" v="884961" />
	</node>
	<node id="-552845" lat="62.7108361081" lon="7.59085000038">
		<tag k="name" v="Seglå" />
		<tag k="ssr:stedsnr" v="213517" />
		<tag k="waterway" v="stream" />
	</node>
	<node id="-553356" lat="62.6981138899" lon="7.45198611347">
		<tag k="name" v="Storløypet" />
		<tag k="place" v="locality" />
		<tag k="ssr:stedsnr" v="580562" />
	</node>
	<node id="-552330" lat="62.7588555577" lon="7.67023611967">
		<tag k="name" v="Vinkjellargrova" />
		<tag k="ssr:stedsnr" v="884858" />
		<tag k="waterway" v="stream" />
	</node>
	<node id="-552343" lat="62.6544361095" lon="7.26664721582">
		<tag k="name" v="Hjellgrova" />
		<tag k="ssr:stedsnr" v="884951" />
		<tag k="waterway" v="stream" />
	</node>
	<node id="-552172" lat="62.7207277821" lon="7.41796111472">
		<tag k="name" v="Osen" />
		<tag k="natural" v="bay" />
		<tag k="ssr:stedsnr" v="398142" />
	</node>
	<node id="-552001" lat="62.7956000036" lon="7.46992777122">
		<tag k="name" v="Hagaelva" />
		<tag k="ssr:stedsnr" v="316819" />
		<tag k="waterway" v="stream" />
	</node>
	<node id="-552835" lat="62.7656472267" lon="7.14794445317">
		<tag k="name" v="Bjørsettjørna" />
		<tag k="natural" v="water" />
		<tag k="ssr:stedsnr" v="194851" />
	</node>
	<node id="-553344" lat="62.7202555555" lon="7.54054445226">
		<tag k="name" v="Åna" />
		<tag k="ssr:stedsnr" v="580243" />
		<tag k="waterway" v="stream" />
	</node>
	<node id="-551869" lat="62.7711944461" lon="7.43981945347">
		<tag k="name" v="Kjerringgrova" />
		<tag k="ssr:stedsnr" v="277056" />
		<tag k="waterway" v="stream" />
	</node>
	<node id="-553853" lat="62.6595388878" lon="7.24426111574">
		<tag k="name" v="Kvernagrova" />
		<tag k="ssr:stedsnr" v="763946" />
		<tag k="waterway" v="stream" />
	</node>
	<node id="-553339" lat="62.7129944441" lon="7.41777499403">
		<tag k="name" v="Isdammen" />
		<tag k="ssr:stedsnr" v="580195" />
		<tag k="waterway" v="dam" />
	</node>
	<node id="-553676" lat="62.7372055514" lon="7.45973055197">
		<tag k="name" v="Svartløken" />
		<tag k="ssr:stedsnr" v="702801" />
		<tag k="waterway" v="stream" />
	</node>
	<node id="-553336" lat="62.8240166671" lon="7.51088610135">
		<tag k="name" v="Dalagrova" />
		<tag k="ssr:stedsnr" v="580174" />
		<tag k="waterway" v="stream" />
	</node>
	<node id="-553847" lat="62.7779888874" lon="7.71701944767">
		<tag k="name" v="Vadbakkløken" />
		<tag k="ssr:stedsnr" v="763925" />
		<tag k="waterway" v="stream" />
	</node>
	<node id="-552310" lat="62.7240888869" lon="7.52761666993">
		<tag k="name" v="Storvatnet" />
		<tag k="natural" v="water" />
		<tag k="ssr:stedsnr" v="884701" />
		<tag k="water" v="lake" />
	</node>
	<node id="-552309" lat="62.7235555567" lon="7.53055277699">
		<tag k="name" v="Kaffikokarneset" />
		<tag k="natural" v="cape" />
		<tag k="ssr:stedsnr" v="884702" />
	</node>
	<node id="-552766" lat="62.7367972218" lon="7.49643332496">
		<tag k="name" v="Tverrelvkroken" />
		<tag k="natural" v="water" />
		<tag k="ssr:stedsnr" v="156858" />
		<tag k="water" v="lake" />
	</node>
	<node id="-552816" lat="62.779024998" lon="7.31636665993">
		<tag k="name" v="Kordalselva" />
		<tag k="ssr:stedsnr" v="193803" />
		<tag k="waterway" v="stream" />
	</node>
	<node id="-552812" lat="62.7290972195" lon="7.51253888894">
		<tag k="name" v="Lomtjerna" />
		<tag k="natural" v="water" />
		<tag k="ssr:stedsnr" v="193794" />
	</node>
	<node id="-553318" lat="62.7819500001" lon="7.26601388209">
		<tag k="name" v="Botnegrova" />
		<tag k="ssr:stedsnr" v="580063" />
		<tag k="waterway" v="stream" />
	</node>
	<node id="-553617" lat="62.8052333302" lon="7.502705561">
		<tag k="name" v="Steinsdalselva" />
		<tag k="ssr:stedsnr" v="702113" />
		<tag k="waterway" v="stream" />
	</node>
	<node id="-552848" lat="62.6571777769" lon="7.35579722395">
		<tag k="name" v="Hagaelva" />
		<tag k="ssr:stedsnr" v="216156" />
		<tag k="waterway" v="stream" />
	</node>
	<node id="-552798" lat="62.7388333365" lon="7.05396667623">
		<tag k="name" v="Haukabøelva" />
		<tag k="ssr:stedsnr" v="193111" />
		<tag k="waterway" v="river" />
	</node>
	<node id="-552260" lat="62.8094416706" lon="7.73463332658">
		<tag k="name" v="Øygardsbekken" />
		<tag k="ssr:stedsnr" v="884019" />
		<tag k="waterway" v="stream" />
	</node>
	<node id="-553306" lat="62.7660444405" lon="7.16030000103">
		<tag k="name" v="Audunstjørnan" />
		<tag k="natural" v="water" />
		<tag k="ssr:stedsnr" v="558899" />
	</node>
	<node id="-553817" lat="62.7535666664" lon="7.2628999997">
		<tag k="name" v="Årøelva" />
		<tag k="ssr:stedsnr" v="763335" />
		<tag k="waterway" v="river" />
	</node>
	<node id="-553304" lat="62.8291861069" lon="7.82497499454">
		<tag k="name" v="Storelva" />
		<tag k="ssr:stedsnr" v="558877" />
		<tag k="waterway" v="river" />
	</node>
	<node id="-553303" lat="62.775813889" lon="7.17146945374">
		<tag k="name" v="Holstjørna" />
		<tag k="natural" v="water" />
		<tag k="ssr:stedsnr" v="558871" />
	</node>
	<node id="-553302" lat="62.7933416683" lon="7.54282777992">
		<tag k="name" v="Oppdølselva" />
		<tag k="ssr:stedsnr" v="558811" />
		<tag k="waterway" v="river" />
	</node>
	<node id="-552274" lat="62.7425416663" lon="7.22569444726">
		<tag k="name" v="Nøisomhedbekken" />
		<tag k="ssr:stedsnr" v="884175" />
		<tag k="waterway" v="stream" />
	</node>
	<node id="-553808" lat="62.747719444" lon="7.23197500353">
		<tag k="name" v="Katthola" />
		<tag k="natural" v="water" />
		<tag k="ssr:stedsnr" v="763283" />
	</node>
	<node id="-553293" lat="62.8191472196" lon="7.69642778373">
		<tag k="name" v="Høljan" />
		<tag k="natural" v="water" />
		<tag k="ssr:stedsnr" v="558755" />
	</node>
	<node id="-553292" lat="62.8095916622" lon="7.50445555252">
		<tag k="name" v="Steinsdalsvatnet" />
		<tag k="natural" v="water" />
		<tag k="ssr:stedsnr" v="558749" />
	</node>
	<node id="-552162" lat="62.8204722229" lon="7.52336388226">
		<tag k="name" v="Fiskarneset" />
		<tag k="natural" v="cape" />
		<tag k="ssr:stedsnr" v="398047" />
	</node>
	<node id="-553290" lat="62.7680666681" lon="7.56421667537">
		<tag k="name" v="Teppinga" />
		<tag k="place" v="locality" />
		<tag k="ssr:stedsnr" v="557821" />
	</node>
	<node id="-553801" lat="62.830852782" lon="7.5286388921">
		<tag k="name" v="Stordalsgrova" />
		<tag k="ssr:stedsnr" v="763224" />
		<tag k="waterway" v="stream" />
	</node>
	<node id="-552332" lat="62.7583638859" lon="7.53350833139">
		<tag k="name" v="Langgjerdløken" />
		<tag k="ssr:stedsnr" v="884864" />
		<tag k="waterway" v="stream" />
	</node>
	<node id="-552774" lat="62.7772111134" lon="7.31441112051">
		<tag k="name" v="Tjønnseterløken" />
		<tag k="ssr:stedsnr" v="156904" />
		<tag k="waterway" v="stream" />
	</node>
	<node id="-552673" lat="62.8301499966" lon="7.81164722974">
		<tag k="name" v="Dyrlielva" />
		<tag k="ssr:stedsnr" v="133486" />
		<tag k="waterway" v="stream" />
	</node>
	<node id="-553796" lat="62.7582888924" lon="7.61214166541">
		<tag k="name" v="Storelva" />
		<tag k="ssr:stedsnr" v="763193" />
		<tag k="waterway" v="river" />
	</node>
	<node id="-552472" lat="62.7728249988" lon="7.4475361105">
		<tag k="name" v="Steffåhølen" />
		<tag k="place" v="locality" />
		<tag k="ssr:stedsnr" v="35076" />
	</node>
	<node id="-553793" lat="62.7053222239" lon="7.56410278067">
		<tag k="name" v="Åsgrova" />
		<tag k="ssr:stedsnr" v="763146" />
		<tag k="waterway" v="stream" />
	</node>
	<node id="-552672" lat="62.8291305595" lon="7.73092777857">
		<tag k="name" v="Olteråa" />
		<tag k="ssr:stedsnr" v="133485" />
		<tag k="waterway" v="river" />
	</node>
	<node id="-553790" lat="62.7673083374" lon="7.61387499008">
		<tag k="name" v="Vasslivatnet" />
		<tag k="natural" v="water" />
		<tag k="ssr:stedsnr" v="763095" />
	</node>
	<node id="-553013" lat="62.7537194437" lon="7.02364721413">
		<tag k="name" v="Lomtjørna" />
		<tag k="natural" v="water" />
		<tag k="ssr:stedsnr" v="437862" />
	</node>
	<node id="-553788" lat="62.7704999962" lon="7.4174472298">
		<tag k="name" v="Hatlaelva" />
		<tag k="ssr:stedsnr" v="763071" />
		<tag k="waterway" v="stream" />
	</node>
	<node id="-553274" lat="62.7125694447" lon="7.52871944709">
		<tag k="name" v="Kringla" />
		<tag k="natural" v="water" />
		<tag k="ssr:stedsnr" v="557658" />
	</node>
	<node id="-553273" lat="62.7756749976" lon="7.76013056271">
		<tag k="name" v="Ytste Sotnakkvatnet" />
		<tag k="natural" v="water" />
		<tag k="ssr:stedsnr" v="557562" />
	</node>
	<node id="-552760" lat="62.738752782" lon="7.48174723084">
		<tag k="name" v="Djuphølen" />
		<tag k="place" v="locality" />
		<tag k="ssr:stedsnr" v="156810" />
	</node>
	<node id="-552329" lat="62.7281055596" lon="7.45495554661">
		<tag k="name" v="Breineset" />
		<tag k="natural" v="cape" />
		<tag k="ssr:stedsnr" v="884841" />
	</node>
	<node id="-552243" lat="62.6800416694" lon="7.27911944243">
		<tag k="name" v="Storvikneset" />
		<tag k="natural" v="cape" />
		<tag k="ssr:stedsnr" v="399958" />
	</node>
	<node id="-552753" lat="62.7458083311" lon="7.19289445403">
		<tag k="name" v="Fuglsetbekken" />
		<tag k="ssr:stedsnr" v="156707" />
		<tag k="waterway" v="stream" />
	</node>
	<node id="-553262" lat="62.7761805586" lon="7.64269443787">
		<tag k="name" v="Ullalandselva" />
		<tag k="ssr:stedsnr" v="520952" />
		<tag k="waterway" v="stream" />
	</node>
	<node id="-552237" lat="62.7244027742" lon="7.29640555406">
		<tag k="name" v="Draghalsen" />
		<tag k="natural" v="strait" />
		<tag k="ssr:stedsnr" v="399913" />
	</node>
	<node id="-553260" lat="62.7649333354" lon="7.27155555645">
		<tag k="name" v="Styggedalsgrova" />
		<tag k="ssr:stedsnr" v="520925" />
		<tag k="waterway" v="stream" />
	</node>
	<node id="-553770" lat="62.7295611152" lon="7.42652500237">
		<tag k="name" v="Bordvikløken" />
		<tag k="ssr:stedsnr" v="762837" />
		<tag k="waterway" v="stream" />
	</node>
	<node id="-552173" lat="62.7322527809" lon="7.45988889719">
		<tag k="name" v="Fossen" />
		<tag k="natural" v="waterfall" />
		<tag k="ssr:stedsnr" v="398143" />
	</node>
	<node id="-552231" lat="62.7730249983" lon="7.57088889688">
		<tag k="name" v="Slettagrova" />
		<tag k="ssr:stedsnr" v="398921" />
		<tag k="waterway" v="stream" />
	</node>
	<node id="-552070" lat="62.7565722242" lon="7.55806666859">
		<tag k="name" v="Oksegrova" />
		<tag k="ssr:stedsnr" v="338757" />
		<tag k="waterway" v="stream" />
	</node>
	<node id="-552155" lat="62.7892166693" lon="7.56977500884">
		<tag k="name" v="Eidsgrova" />
		<tag k="ssr:stedsnr" v="398001" />
		<tag k="waterway" v="stream" />
	</node>
	<node id="-553245" lat="62.7947611084" lon="7.73493889316">
		<tag k="name" v="Nordhaughølen" />
		<tag k="place" v="locality" />
		<tag k="ssr:stedsnr" v="520793" />
	</node>
	<node id="-553244" lat="62.7070499966" lon="7.55489444592">
		<tag k="name" v="Årsetelva" />
		<tag k="ssr:stedsnr" v="520772" />
		<tag k="waterway" v="stream" />
	</node>
	<node id="-552219" lat="62.7905555557" lon="7.7438666638">
		<tag k="name" v="Vasshaugløken" />
		<tag k="ssr:stedsnr" v="398762" />
		<tag k="waterway" v="stream" />
	</node>
	<node id="-552215" lat="62.7325166634" lon="7.52363611319">
		<tag k="name" v="Tverrelvfossen" />
		<tag k="natural" v="waterfall" />
		<tag k="ssr:stedsnr" v="398723" />
	</node>
	<node id="-553743" lat="62.7999916687" lon="7.77240555091">
		<tag k="name" v="Osvatnet" />
		<tag k="natural" v="water" />
		<tag k="ssr:stedsnr" v="741648" />
		<tag k="water" v="lake" />
	</node>
	<node id="-552462" lat="62.7381027747" lon="7.47930000101">
		<tag k="name" v="Torehølen" />
		<tag k="place" v="locality" />
		<tag k="ssr:stedsnr" v="34785" />
	</node>
	<node id="-553740" lat="62.8161444472" lon="7.50604721698">
		<tag k="name" v="Kringla" />
		<tag k="natural" v="water" />
		<tag k="ssr:stedsnr" v="740749" />
	</node>
	<node id="-552715" lat="62.8091499972" lon="7.79860555156">
		<tag k="name" v="Aspelundøyan" />
		<tag k="natural" v="bay" />
		<tag k="ssr:stedsnr" v="156163" />
	</node>
	<node id="-553798" lat="62.8381194423" lon="7.76124165829">
		<tag k="name" v="Åsløbekken" />
		<tag k="ssr:stedsnr" v="763203" />
		<tag k="waterway" v="stream" />
	</node>
	<node id="-553223" lat="62.8249583371" lon="7.65408611136">
		<tag k="name" v="Storelva" />
		<tag k="ssr:stedsnr" v="520335" />
		<tag k="waterway" v="river" />
	</node>
	<node id="-553734" lat="62.8534027765" lon="7.77235832967">
		<tag k="name" v="Oltervatnet" />
		<tag k="natural" v="water" />
		<tag k="ssr:stedsnr" v="740476" />
	</node>
	<node id="-552832" lat="62.7927555583" lon="7.38325277613">
		<tag k="name" v="Tjørnin" />
		<tag k="natural" v="water" />
		<tag k="ssr:stedsnr" v="194738" />
	</node>
	<node id="-552190" lat="62.7458833323" lon="7.02489166225">
		<tag k="name" v="Starratjønna" />
		<tag k="natural" v="water" />
		<tag k="ssr:stedsnr" v="398450" />
	</node>
	<node id="-553211" lat="62.8081888862" lon="7.80900832855">
		<tag k="name" v="Øyan" />
		<tag k="place" v="island" />
		<tag k="ssr:stedsnr" v="520248" />
	</node>
	<node id="-552698" lat="62.8049555546" lon="7.58027222101">
		<tag k="name" v="Stakkøyna" />
		<tag k="place" v="island" />
		<tag k="ssr:stedsnr" v="156035" />
	</node>
	<node id="-552697" lat="62.8062944446" lon="7.51656944586">
		<tag k="name" v="Lomtjønnan" />
		<tag k="natural" v="water" />
		<tag k="ssr:stedsnr" v="156031" />
	</node>
	<node id="-552184" lat="62.7633416682" lon="7.22065555975">
		<tag k="name" v="Bergstjønna" />
		<tag k="natural" v="water" />
		<tag k="ssr:stedsnr" v="398228" />
	</node>
	<node id="-552180" lat="62.83173889" lon="7.76626666504">
		<tag k="name" v="Svarttjørna" />
		<tag k="natural" v="water" />
		<tag k="ssr:stedsnr" v="398184" />
	</node>
	<node id="-552179" lat="62.7689805522" lon="7.57171388647">
		<tag k="name" v="Teppinga" />
		<tag k="ssr:stedsnr" v="398182" />
		<tag k="waterway" v="dam" />
	</node>
	<node id="-553201" lat="62.8353888904" lon="7.75142223195">
		<tag k="name" v="Årstøbekken" />
		<tag k="ssr:stedsnr" v="520192" />
		<tag k="waterway" v="stream" />
	</node>
	<node id="-553163" lat="62.7760777797" lon="7.18411388124">
		<tag k="name" v="Moldevatnet" />
		<tag k="natural" v="water" />
		<tag k="ssr:stedsnr" v="497849" />
	</node>
	<node id="-553198" lat="62.7556916703" lon="7.54097778608">
		<tag k="name" v="Orøyra" />
		<tag k="natural" v="cape" />
		<tag k="ssr:stedsnr" v="520156" />
	</node>
	<node id="-553197" lat="62.7604583354" lon="7.48691388109">
		<tag k="name" v="Bytgrova" />
		<tag k="ssr:stedsnr" v="520133" />
		<tag k="waterway" v="stream" />
	</node>
	<node id="-553196" lat="62.7279583367" lon="7.45558889707">
		<tag k="name" v="Kroken" />
		<tag k="place" v="locality" />
		<tag k="ssr:stedsnr" v="520125" />
	</node>
	<node id="-552167" lat="62.832080556" lon="7.47984721414">
		<tag k="name" v="Middagsbekken" />
		<tag k="ssr:stedsnr" v="398098" />
		<tag k="waterway" v="stream" />
	</node>
	<node id="-553188" lat="62.7681750014" lon="7.32272777896">
		<tag k="name" v="Svarthammargrova" />
		<tag k="ssr:stedsnr" v="520077" />
		<tag k="waterway" v="stream" />
	</node>
	<node id="-551974" lat="62.7703888902" lon="7.73116110379">
		<tag k="name" v="Sotådalen" />
		<tag k="ssr:stedsnr" v="315587" />
		<tag k="waterway" v="stream" />
	</node>
	<node id="-553186" lat="62.7845361101" lon="7.28853889667">
		<tag k="name" v="Brekkeelva" />
		<tag k="ssr:stedsnr" v="520063" />
		<tag k="waterway" v="stream" />
	</node>
	<node id="-552315" lat="62.7527944476" lon="7.62892500487">
		<tag k="name" v="Tverrelva" />
		<tag k="ssr:stedsnr" v="884719" />
		<tag k="waterway" v="stream" />
	</node>
	<node id="-553184" lat="62.79127222" lon="7.31791110627">
		<tag k="name" v="Løkan" />
		<tag k="ssr:stedsnr" v="520055" />
		<tag k="waterway" v="stream" />
	</node>
	<node id="-553183" lat="62.7950555592" lon="7.54484445339">
		<tag k="name" v="Roaldsetøyna" />
		<tag k="place" v="island" />
		<tag k="ssr:stedsnr" v="520050" />
	</node>
	<node id="-553694" lat="62.6655777791" lon="7.24053333893">
		<tag k="name" v="Melvikbekken" />
		<tag k="ssr:stedsnr" v="702948" />
		<tag k="waterway" v="stream" />
	</node>
	<node id="-553693" lat="62.7637083345" lon="7.63666111607">
		<tag k="name" v="Skjenvassløken" />
		<tag k="ssr:stedsnr" v="702937" />
		<tag k="waterway" v="stream" />
	</node>
	<node id="-552668" lat="62.7372388866" lon="7.51762776832">
		<tag k="name" v="Tverrelva" />
		<tag k="ssr:stedsnr" v="132799" />
		<tag k="waterway" v="stream" />
	</node>
	<node id="-553179" lat="62.8051777744" lon="7.72197222193">
		<tag k="name" v="Istadløken" />
		<tag k="ssr:stedsnr" v="520018" />
		<tag k="waterway" v="stream" />
	</node>
	<node id="-553177" lat="62.762608336" lon="7.51870554696">
		<tag k="name" v="Finnelgrova" />
		<tag k="ssr:stedsnr" v="519985" />
		<tag k="waterway" v="stream" />
	</node>
	<node id="-551945" lat="62.6436861117" lon="7.3002694448">
		<tag k="name" v="Storholmen" />
		<tag k="place" v="islet" />
		<tag k="ssr:stedsnr" v="277919" />
	</node>
	<node id="-553687" lat="62.7683361146" lon="7.54788054973">
		<tag k="name" v="Sjurs-Ingeborgtjørna" />
		<tag k="natural" v="water" />
		<tag k="ssr:stedsnr" v="702884" />
	</node>
	<node id="-554196" lat="62.7712416697" lon="7.73790833189">
		<tag k="name" v="Sotådalselva" />
		<tag k="ssr:stedsnr" v="945946" />
		<tag k="waterway" v="river" />
	</node>
	<node id="-552147" lat="62.791197226" lon="7.71922777548">
		<tag k="name" v="Osen" />
		<tag k="natural" v="water" />
		<tag k="ssr:stedsnr" v="384150" />
		<tag k="water" v="lake" />
	</node>
	<node id="-554192" lat="62.6566222258" lon="7.31580277282">
		<tag k="name" v="Inste vestadelva" />
		<tag k="ssr:stedsnr" v="945926" />
		<tag k="waterway" v="stream" />
	</node>
	<node id="-553677" lat="62.7441277793" lon="7.44702499904">
		<tag k="name" v="Merraløken" />
		<tag k="ssr:stedsnr" v="702804" />
		<tag k="waterway" v="stream" />
	</node>
	<node id="-554188" lat="62.6513916643" lon="7.28892500747">
		<tag k="name" v="Ytste Vestadelva" />
		<tag k="ssr:stedsnr" v="945895" />
		<tag k="waterway" v="stream" />
	</node>
	<node id="-552139" lat="62.8308583339" lon="7.80519721253">
		<tag k="name" v="Botterlielva" />
		<tag k="ssr:stedsnr" v="376539" />
		<tag k="waterway" v="stream" />
	</node>
	<node id="-553162" lat="62.8180805512" lon="7.63464444333">
		<tag k="name" v="Skallelva" />
		<tag k="ssr:stedsnr" v="497844" />
		<tag k="waterway" v="river" />
	</node>
	<node id="-553335" lat="62.8105250014" lon="7.77751666563">
		<tag k="name" v="Heimbekken" />
		<tag k="ssr:stedsnr" v="580161" />
		<tag k="waterway" v="stream" />
	</node>
	<node id="-553671" lat="62.7562944432" lon="7.18535278527">
		<tag k="name" v="Seterelva" />
		<tag k="ssr:stedsnr" v="702666" />
		<tag k="waterway" v="river" />
	</node>
	<node id="-553157" lat="62.7673972268" lon="7.3788027864">
		<tag k="name" v="Lønsetelva" />
		<tag k="ssr:stedsnr" v="497787" />
		<tag k="waterway" v="stream" />
	</node>
	<node id="-552130" lat="62.7503944483" lon="7.67259999295">
		<tag k="name" v="Bordalsvatnet" />
		<tag k="natural" v="water" />
		<tag k="ssr:stedsnr" v="375793" />
	</node>
	<node id="-553675" lat="62.753166671" lon="7.44678611052">
		<tag k="name" v="Plassagrova" />
		<tag k="ssr:stedsnr" v="702799" />
		<tag k="waterway" v="stream" />
	</node>
	<node id="-553721" lat="62.765830557" lon="7.33310555843">
		<tag k="name" v="Strandelva" />
		<tag k="ssr:stedsnr" v="739787" />
		<tag k="waterway" v="stream" />
	</node>
	<node id="-553150" lat="62.830611111" lon="7.65436111502">
		<tag k="name" v="Trollåa" />
		<tag k="ssr:stedsnr" v="497736" />
		<tag k="waterway" v="stream" />
	</node>
	<node id="-554172" lat="62.7953916655" lon="7.76974722084">
		<tag k="name" v="Midtbukta" />
		<tag k="natural" v="bay" />
		<tag k="ssr:stedsnr" v="945779" />
	</node>
	<node id="-552635" lat="62.7379722256" lon="7.44953055429">
		<tag k="name" v="Lauvåsgrova" />
		<tag k="ssr:stedsnr" v="95795" />
		<tag k="waterway" v="stream" />
	</node>
	<node id="-553144" lat="62.6562861135" lon="7.28803055281">
		<tag k="alt_name" v="Vestavatnet" />
		<tag k="name" v="Vestadvatnet" />
		<tag k="natural" v="water" />
		<tag k="ssr:stedsnr" v="497609" />
	</node>
	<node id="-553143" lat="62.8691333376" lon="7.76126111654">
		<tag k="name" v="Trollvatnet" />
		<tag k="natural" v="water" />
		<tag k="ssr:stedsnr" v="497492" />
		<tag k="water" v="lake" />
	</node>
	<node id="-553161" lat="62.7770694405" lon="7.3560666707">
		<tag k="name" v="Hommelelva" />
		<tag k="ssr:stedsnr" v="497803" />
		<tag k="waterway" v="stream" />
	</node>
	<node id="-552733" lat="62.7483916684" lon="7.00945555683">
		<tag k="name" v="Gausetelva" />
		<tag k="ssr:stedsnr" v="156481" />
		<tag k="waterway" v="stream" />
	</node>
	<node id="-552618" lat="62.7644861151" lon="7.57785833385">
		<tag k="name" v="Bjerkaligrova" />
		<tag k="ssr:stedsnr" v="95975" />
		<tag k="waterway" v="stream" />
	</node>
	<node id="-552647" lat="62.745147225" lon="7.24181110432">
		<tag k="name" v="Leirgrovvikbekken" />
		<tag k="ssr:stedsnr" v="98847" />
		<tag k="waterway" v="stream" />
	</node>
	<node id="-553122" lat="62.7707861144" lon="7.24858889459">
		<tag k="name" v="Tusselva" />
		<tag k="ssr:stedsnr" v="460319" />
		<tag k="waterway" v="stream" />
	</node>
	<node id="-554144" lat="62.7422972263" lon="7.02317778067">
		<tag k="name" v="Tverrelva" />
		<tag k="ssr:stedsnr" v="945442" />
		<tag k="waterway" v="stream" />
	</node>
	<node id="-552095" lat="62.6690861132" lon="7.23309444481">
		<tag k="name" v="Kobbeneset" />
		<tag k="natural" v="cape" />
		<tag k="ssr:stedsnr" v="338936" />
	</node>
	<node id="-552094" lat="62.7618222189" lon="7.62721388195">
		<tag k="name" v="Skjenvassløken" />
		<tag k="ssr:stedsnr" v="338928" />
		<tag k="waterway" v="stream" />
	</node>
	<node id="-553117" lat="62.7665638916" lon="7.5199611078">
		<tag k="name" v="Sagfossen" />
		<tag k="natural" v="waterfall" />
		<tag k="ssr:stedsnr" v="459980" />
	</node>
	<node id="-554139" lat="62.7647944453" lon="7.27689444783">
		<tag k="name" v="Krokan" />
		<tag k="ssr:stedsnr" v="945300" />
		<tag k="waterway" v="river" />
	</node>
	<node id="-552088" lat="62.7764805534" lon="7.32115832711">
		<tag k="name" v="Tjønnseterløken" />
		<tag k="ssr:stedsnr" v="338884" />
		<tag k="waterway" v="stream" />
	</node>
	<node id="-552599" lat="62.7513972216" lon="7.01436111495">
		<tag k="name" v="Litletjønna" />
		<tag k="natural" v="water" />
		<tag k="ssr:stedsnr" v="95431" />
	</node>
	<node id="-553109" lat="62.7707833374" lon="7.68919167172">
		<tag k="name" v="Vadbekkløken" />
		<tag k="ssr:stedsnr" v="459933" />
		<tag k="waterway" v="stream" />
	</node>
	<node id="-553620" lat="62.7867250002" lon="7.31221666529">
		<tag k="name" v="Løkelva" />
		<tag k="ssr:stedsnr" v="702129" />
		<tag k="waterway" v="stream" />
	</node>
	<node id="-552083" lat="62.7576194432" lon="7.48761110634">
		<tag k="name" v="Strandsgrova" />
		<tag k="ssr:stedsnr" v="338863" />
		<tag k="waterway" v="stream" />
	</node>
	<node id="-554129" lat="62.6921194457" lon="7.46382776801">
		<tag k="name" v="Vikelva" />
		<tag k="ssr:stedsnr" v="945203" />
		<tag k="waterway" v="stream" />
	</node>
	<node id="-553103" lat="62.6995722189" lon="7.41313054812">
		<tag k="name" v="Strandagrova" />
		<tag k="ssr:stedsnr" v="459890" />
		<tag k="waterway" v="stream" />
	</node>
	<node id="-552076" lat="62.7965444426" lon="7.76905555014">
		<tag k="name" v="Fjøsneset" />
		<tag k="natural" v="cape" />
		<tag k="ssr:stedsnr" v="338798" />
	</node>
	<node id="-552075" lat="62.7944138854" lon="7.76507221516">
		<tag k="name" v="Vasshaugløken" />
		<tag k="ssr:stedsnr" v="338794" />
		<tag k="waterway" v="stream" />
	</node>
	<node id="-553606" lat="62.7733583312" lon="7.40841388951">
		<tag k="name" v="Sigersetelva" />
		<tag k="ssr:stedsnr" v="702070" />
		<tag k="waterway" v="stream" />
	</node>
	<node id="-553153" lat="62.7447305573" lon="7.50705278294">
		<tag k="name" v="Røa" />
		<tag k="ssr:stedsnr" v="497772" />
		<tag k="waterway" v="river" />
	</node>
	<node id="-553603" lat="62.8226305537" lon="7.60535276834">
		<tag k="name" v="Stangarelva" />
		<tag k="ssr:stedsnr" v="702045" />
		<tag k="waterway" v="river" />
	</node>
	<node id="-553090" lat="62.7540583331" lon="7.54425277127">
		<tag k="name" v="Tollåsfossen" />
		<tag k="natural" v="waterfall" />
		<tag k="ssr:stedsnr" v="459759" />
	</node>
	<node id="-552555" lat="62.7999722267" lon="7.50755000057">
		<tag k="name" v="Teppingsgrova" />
		<tag k="ssr:stedsnr" v="95034" />
		<tag k="waterway" v="stream" />
	</node>
	<node id="-553599" lat="62.7995361117" lon="7.55229721653">
		<tag k="name" v="Storgrova" />
		<tag k="ssr:stedsnr" v="702008" />
		<tag k="waterway" v="stream" />
	</node>
	<node id="-552573" lat="62.7544250043" lon="7.4453416667">
		<tag k="name" v="Bytgrova" />
		<tag k="ssr:stedsnr" v="95125" />
		<tag k="waterway" v="stream" />
	</node>
	<node id="-553595" lat="62.7625638922" lon="7.57494999115">
		<tag k="name" v="Langåsløken" />
		<tag k="ssr:stedsnr" v="701968" />
		<tag k="waterway" v="stream" />
	</node>
	<node id="-552570" lat="62.7293555549" lon="7.46295277569">
		<tag k="name" v="Sandøya" />
		<tag k="place" v="islet" />
		<tag k="ssr:stedsnr" v="95121" />
	</node>
	<node id="-553081" lat="62.7708805536" lon="7.20806944016">
		<tag k="name" v="Grastjønna" />
		<tag k="natural" v="water" />
		<tag k="ssr:stedsnr" v="459691" />
	</node>
	<node id="-554099" lat="62.7994416652" lon="7.61293610342">
		<tag k="name" v="Lapptjønna" />
		<tag k="natural" v="water" />
		<tag k="ssr:stedsnr" v="945015" />
	</node>
	<node id="-554003" lat="62.76921667" lon="7.69669166564">
		<tag k="name" v="Bytbekken" />
		<tag k="ssr:stedsnr" v="824999" />
		<tag k="waterway" v="stream" />
	</node>
	<node id="-552557" lat="62.7966416699" lon="7.55509166414">
		<tag k="name" v="Hungnesøyna" />
		<tag k="place" v="island" />
		<tag k="ssr:stedsnr" v="95041" />
	</node>
	<node id="-553580" lat="62.7515222259" lon="7.02700555256">
		<tag k="name" v="Skartjørna" />
		<tag k="natural" v="water" />
		<tag k="ssr:stedsnr" v="680911" />
	</node>
	<node id="-553067" lat="62.8075361118" lon="7.53475554786">
		<tag k="name" v="Kamgrova" />
		<tag k="ssr:stedsnr" v="459326" />
		<tag k="waterway" v="stream" />
	</node>
	<node id="-554089" lat="62.7616166676" lon="7.56339167459">
		<tag k="name" v="Kregrova" />
		<tag k="ssr:stedsnr" v="944335" />
		<tag k="waterway" v="stream" />
	</node>
	<node id="-553576" lat="62.8155222243" lon="7.66016944503">
		<tag k="name" v="Kleivvatnet" />
		<tag k="natural" v="water" />
		<tag k="ssr:stedsnr" v="680791" />
	</node>
	<node id="-553063" lat="62.7749277756" lon="7.29737778579">
		<tag k="name" v="Kordalselva" />
		<tag k="ssr:stedsnr" v="459226" />
		<tag k="waterway" v="river" />
	</node>
	<node id="-552550" lat="62.7956972184" lon="7.615422218">
		<tag k="name" v="Stokkeelva" />
		<tag k="ssr:stedsnr" v="95009" />
		<tag k="waterway" v="stream" />
	</node>
	<node id="-553571" lat="62.7301055586" lon="7.48259166206">
		<tag k="name" v="Horjagrova" />
		<tag k="ssr:stedsnr" v="679767" />
		<tag k="waterway" v="stream" />
	</node>
	<node id="-553058" lat="62.8390111081" lon="7.71769166955">
		<tag k="name" v="Myrslættløken" />
		<tag k="ssr:stedsnr" v="459206" />
		<tag k="waterway" v="stream" />
	</node>
	<node id="-554080" lat="62.8254388927" lon="7.47206666751">
		<tag k="name" v="Ol Anderså-tjørnin" />
		<tag k="natural" v="water" />
		<tag k="ssr:stedsnr" v="923723" />
	</node>
	<node id="-552976" lat="62.7653583346" lon="7.66556388827">
		<tag k="name" v="Bordalselva" />
		<tag k="ssr:stedsnr" v="263837" />
		<tag k="waterway" v="river" />
	</node>
	<node id="-553054" lat="62.8309138887" lon="7.50890277445">
		<tag k="name" v="Lunddalselva" />
		<tag k="ssr:stedsnr" v="459201" />
		<tag k="waterway" v="river" />
	</node>
	<node id="-551951" lat="62.7622611099" lon="7.59126388163">
		<tag k="name" v="Livgjordtjørna" />
		<tag k="natural" v="water" />
		<tag k="ssr:stedsnr" v="277976" />
	</node>
	<node id="-552026" lat="62.8191333337" lon="7.77747499813">
		<tag k="name" v="Rundsteinbekken" />
		<tag k="ssr:stedsnr" v="338146" />
		<tag k="waterway" v="stream" />
	</node>
	<node id="-553561" lat="62.7792888856" lon="7.73154443487">
		<tag k="name" v="Sotåa" />
		<tag k="ssr:stedsnr" v="679553" />
		<tag k="waterway" v="river" />
	</node>
	<node id="-552024" lat="62.8314000006" lon="7.76255277098">
		<tag k="name" v="Steinløystjørna" />
		<tag k="natural" v="water" />
		<tag k="ssr:stedsnr" v="338142" />
	</node>
	<node id="-552535" lat="62.7527305529" lon="7.04788055461">
		<tag k="name" v="Kryssvatnet" />
		<tag k="natural" v="water" />
		<tag k="ssr:stedsnr" v="73881" />
	</node>
	<node id="-552600" lat="62.7463555539" lon="7.0303472146">
		<tag k="name" v="Storheitjønna" />
		<tag k="natural" v="water" />
		<tag k="ssr:stedsnr" v="95435" />
	</node>
	<node id="-553045" lat="62.7347472184" lon="7.4589083379">
		<tag k="name" v="Evja" />
		<tag k="natural" v="water" />
		<tag k="ssr:stedsnr" v="459144" />
		<tag k="water" v="lake" />
	</node>
	<node id="-553044" lat="62.7937972251" lon="7.72478611364">
		<tag k="name" v="Oselva" />
		<tag k="ssr:stedsnr" v="459132" />
		<tag k="waterway" v="river" />
	</node>
	<node id="-552531" lat="62.7909055543" lon="7.43548610527">
		<tag k="name" v="Mjelveelva" />
		<tag k="ssr:stedsnr" v="73768" />
		<tag k="waterway" v="stream" />
	</node>
	<node id="-552016" lat="62.8293111104" lon="7.45096111078">
		<tag k="name" v="Litlvassgrova" />
		<tag k="ssr:stedsnr" v="338082" />
		<tag k="waterway" v="river" />
	</node>
	<node id="-552632" lat="62.7924388887" lon="7.77310554645">
		<tag k="name" v="Seterløken" />
		<tag k="ssr:stedsnr" v="95778" />
		<tag k="waterway" v="stream" />
	</node>
	<node id="-552526" lat="62.8125444416" lon="7.48001667015">
		<tag k="name" v="Kloppavatnet" />
		<tag k="natural" v="water" />
		<tag k="ssr:stedsnr" v="73730" />
		<tag k="water" v="lake" />
	</node>
	<node id="-552461" lat="62.7392333309" lon="7.48299167301">
		<tag k="name" v="Kattarumpa" />
		<tag k="place" v="locality" />
		<tag k="ssr:stedsnr" v="34774" />
	</node>
	<node id="-553034" lat="62.7646416695" lon="7.32035834185">
		<tag k="name" v="Hundehaugløken" />
		<tag k="ssr:stedsnr" v="459088" />
		<tag k="waterway" v="stream" />
	</node>
	<node id="-552009" lat="62.7995083343" lon="7.6531805594">
		<tag k="name" v="Kleiveelva" />
		<tag k="ssr:stedsnr" v="338021" />
		<tag k="waterway" v="stream" />
	</node>
	<node id="-552010" lat="62.8001805567" lon="7.68448056165">
		<tag k="name" v="Istadelva" />
		<tag k="ssr:stedsnr" v="338023" />
		<tag k="waterway" v="river" />
	</node>
	<node id="-553540" lat="62.7643388863" lon="7.52655832504">
		<tag k="name" v="Fransetgrova" />
		<tag k="ssr:stedsnr" v="641966" />
		<tag k="waterway" v="stream" />
	</node>
	<node id="-553537" lat="62.7794277765" lon="7.655124991">
		<tag k="name" v="Søre Holmesundet" />
		<tag k="natural" v="strait" />
		<tag k="ssr:stedsnr" v="641931" />
	</node>
	<node id="-554046" lat="62.8440583345" lon="7.6959555569">
		<tag k="name" v="Skallelva" />
		<tag k="ssr:stedsnr" v="870840" />
		<tag k="waterway" v="river" />
	</node>
	<node id="-554044" lat="62.8288944422" lon="7.76763055427">
		<tag k="name" v="Hatlabekken" />
		<tag k="ssr:stedsnr" v="870654" />
		<tag k="waterway" v="stream" />
	</node>
	<node id="-552507" lat="62.6661000036" lon="7.27121944968">
		<tag k="name" v="Sollibøvatnet" />
		<tag k="natural" v="water" />
		<tag k="ssr:stedsnr" v="72714" />
	</node>
	<node id="-554042" lat="62.7636166704" lon="7.211599998">
		<tag k="name" v="Bergsvatnet" />
		<tag k="natural" v="water" />
		<tag k="ssr:stedsnr" v="862885" />
	</node>
	<node id="-552799" lat="62.7073305549" lon="7.52071110764">
		<tag k="name" v="Langvatnet" />
		<tag k="natural" v="water" />
		<tag k="ssr:stedsnr" v="193678" />
	</node>
	<node id="-554040" lat="62.8031166658" lon="7.42285555812">
		<tag k="name" v="Vasslivatnet" />
		<tag k="natural" v="water" />
		<tag k="ssr:stedsnr" v="862793" />
	</node>
	<node id="-552503" lat="62.7030944483" lon="7.51830278257">
		<tag k="name" v="Brekkevatnet" />
		<tag k="natural" v="water" />
		<tag k="ssr:stedsnr" v="72676" />
	</node>
	<node id="-554037" lat="62.7964583306" lon="7.67456944931">
		<tag k="name" v="Olteråa" />
		<tag k="ssr:stedsnr" v="862783" />
		<tag k="waterway" v="stream" />
	</node>
	<node id="-553012" lat="62.7581388932" lon="7.11925000463">
		<tag k="name" v="Arsdalselva" />
		<tag k="ssr:stedsnr" v="437850" />
		<tag k="waterway" v="stream" />
	</node>
	<node id="-554034" lat="62.8096444404" lon="7.62498889533">
		<tag k="name" v="Nesvatnet" />
		<tag k="natural" v="water" />
		<tag k="ssr:stedsnr" v="862728" />
	</node>
	<node id="-551859" lat="62.7991777782" lon="7.64433610247">
		<tag k="name" v="Grovanelva" />
		<tag k="ssr:stedsnr" v="277018" />
		<tag k="waterway" v="stream" />
	</node>
	<node id="-554032" lat="62.8122055558" lon="7.53963889853">
		<tag k="name" v="Roaldsetelva" />
		<tag k="ssr:stedsnr" v="862716" />
		<tag k="waterway" v="stream" />
	</node>
	<node id="-554031" lat="62.822791663" lon="7.52270554713">
		<tag k="name" v="Lunddalsvatnet" />
		<tag k="natural" v="water" />
		<tag k="ssr:stedsnr" v="862693" />
		<tag k="water" v="lake" />
	</node>
	<node id="-553006" lat="62.8042444465" lon="7.44853055137">
		<tag k="name" v="Måsvatnet" />
		<tag k="natural" v="water" />
		<tag k="ssr:stedsnr" v="437720" />
	</node>
	<node id="-553004" lat="62.8147249994" lon="7.78495555483">
		<tag k="name" v="Nilsbekken" />
		<tag k="ssr:stedsnr" v="437562" />
		<tag k="waterway" v="stream" />
	</node>
	<node id="-553002" lat="62.8270777816" lon="7.79457500964">
		<tag k="name" v="Bøbekken" />
		<tag k="ssr:stedsnr" v="437545" />
		<tag k="waterway" v="stream" />
	</node>
	<node id="-553000" lat="62.7669833346" lon="7.61298888662">
		<tag k="name" v="Varsslivatnet" />
		<tag k="natural" v="water" />
		<tag k="ssr:stedsnr" v="436825" />
	</node>
	<node id="-552487" lat="62.7994999993" lon="7.57095556404">
		<tag k="name" v="Saghølen" />
		<tag k="place" v="locality" />
		<tag k="ssr:stedsnr" v="35407" />
	</node>
	<node id="-553510" lat="62.76730833" lon="7.17278611445">
		<tag k="name" v="Amundtjønna" />
		<tag k="natural" v="water" />
		<tag k="ssr:stedsnr" v="641685" />
	</node>
	<node id="-552996" lat="62.7349305549" lon="7.66421666247">
		<tag k="alt_name" v="Hoåna" />
		<tag k="name" v="Hoaelva" />
		<tag k="ssr:stedsnr" v="436793" />
		<tag k="waterway" v="stream" />
	</node>
	<node id="-552483" lat="62.7583333359" lon="7.54635833487">
		<tag k="name" v="Kregrova" />
		<tag k="ssr:stedsnr" v="35375" />
		<tag k="waterway" v="stream" />
	</node>
	<node id="-552993" lat="62.7717388847" lon="7.36923611985">
		<tag k="name" v="Lomtjørna" />
		<tag k="natural" v="water" />
		<tag k="ssr:stedsnr" v="436783" />
	</node>
	<node id="-552829" lat="62.8201972211" lon="7.46813888629">
		<tag k="name" v="Litlevatnet" />
		<tag k="natural" v="water" />
		<tag k="ssr:stedsnr" v="194730" />
	</node>
	<node id="-554011" lat="62.7459222213" lon="7.08689999889">
		<tag k="name" v="Mekvatnet" />
		<tag k="natural" v="water" />
		<tag k="ssr:stedsnr" v="861112" />
	</node>
	<node id="-552474" lat="62.7811694404" lon="7.28858055053">
		<tag k="name" v="Lomtjønna" />
		<tag k="natural" v="water" />
		<tag k="ssr:stedsnr" v="35082" />
	</node>
	<node id="-553496" lat="62.7374333305" lon="7.03601388498">
		<tag k="name" v="Mordalselva" />
		<tag k="ssr:stedsnr" v="641459" />
		<tag k="waterway" v="stream" />
	</node>
	<node id="-552470" lat="62.7705861133" lon="7.62291944622">
		<tag k="name" v="Ullalandselva" />
		<tag k="ssr:stedsnr" v="34967" />
		<tag k="waterway" v="stream" />
	</node>
	<node id="-553902" lat="62.8012722211" lon="7.53251667065">
		<tag k="name" v="Kallsgrova" />
		<tag k="ssr:stedsnr" v="824010" />
		<tag k="waterway" v="stream" />
	</node>
	<node id="-554001" lat="62.7655055535" lon="7.56720277928">
		<tag k="name" v="Almelivatnet" />
		<tag k="natural" v="water" />
		<tag k="ssr:stedsnr" v="824981" />
	</node>
	<node id="-554000" lat="62.7645611137" lon="7.54942221974">
		<tag k="name" v="Teppingsgrova" />
		<tag k="ssr:stedsnr" v="824980" />
		<tag k="waterway" v="stream" />
	</node>
	<node id="-552975" lat="62.75925833" lon="7.20424444514">
		<tag k="name" v="Øverlandsvatnet" />
		<tag k="natural" v="water" />
		<tag k="ssr:stedsnr" v="255904" />
	</node>
	<node id="-553998" lat="62.653627782" lon="7.2344111098">
		<tag k="name" v="Svartneset" />
		<tag k="natural" v="cape" />
		<tag k="ssr:stedsnr" v="824952" />
	</node>
	<node id="-553485" lat="62.8024027758" lon="7.455733332">
		<tag k="name" v="Hagaelva" />
		<tag k="ssr:stedsnr" v="641285" />
		<tag k="waterway" v="stream" />
	</node>
	<node id="-552460" lat="62.7391083292" lon="7.49227500089">
		<tag k="name" v="Tverrelva" />
		<tag k="ssr:stedsnr" v="34772" />
		<tag k="waterway" v="river" />
	</node>
	<node id="-552459" lat="62.7940055517" lon="7.77719445173">
		<tag k="name" v="Storbukta" />
		<tag k="natural" v="bay" />
		<tag k="ssr:stedsnr" v="34768" />
	</node>
	<node id="-552969" lat="62.8044527818" lon="7.61736388928">
		<tag k="name" v="Stokkevatnet" />
		<tag k="natural" v="water" />
		<tag k="ssr:stedsnr" v="255796" />
	</node>
	<node id="-552968" lat="62.7980861133" lon="7.59981667292">
		<tag k="name" v="Røsbergelva" />
		<tag k="ssr:stedsnr" v="255794" />
		<tag k="waterway" v="stream" />
	</node>
	<node id="-553696" lat="62.6564333376" lon="7.2778222271">
		<tag k="name" v="Lomtjørna" />
		<tag k="natural" v="water" />
		<tag k="ssr:stedsnr" v="702970" />
	</node>
	<node id="-552452" lat="62.7543722263" lon="7.08212500681">
		<tag k="name" v="Ørnehammarneset" />
		<tag k="natural" v="cape" />
		<tag k="ssr:stedsnr" v="34707" />
	</node>
	<node id="-552451" lat="62.7516472199" lon="7.19306667459">
		<tag k="name" v="Fuglsettjønna" />
		<tag k="natural" v="water" />
		<tag k="ssr:stedsnr" v="34700" />
	</node>
	<node id="-552962" lat="62.8061277774" lon="7.49125277952">
		<tag k="name" v="Gujordselva" />
		<tag k="ssr:stedsnr" v="255735" />
		<tag k="waterway" v="stream" />
	</node>
	<node id="-553611" lat="62.7731472231" lon="7.33883055237">
		<tag k="name" v="Tverrelva" />
		<tag k="ssr:stedsnr" v="702094" />
		<tag k="waterway" v="stream" />
	</node>
</osm>
