<?xml version="1.0" encoding="UTF-8"?>
<osm generator="osmapis" version="0.6">
	<node id="-552448" lat="62.6981277759" lon="7.42559721855">
		<tag k="bridge" v="yes" />
		<tag k="layer" v="1" />
		<tag k="name" v="Åsledbrua" />
		<tag k="ssr:stedsnr" v="528884" />
	</node>
	<node id="-551420" lat="62.7623972203" lon="7.33624166293">
		<tag k="highway" v="path" />
		<tag k="name" v="Råket" />
		<tag k="ssr:stedsnr" v="399359" />
	</node>
	<node id="-551927" lat="62.7345083326" lon="7.15584999842">
		<tag k="man_made" v="quay" />
		<tag k="name" v="Storkaia" />
		<tag k="place" v="locality" />
		<tag k="ssr:stedsnr" v="156648" />
	</node>
	<node id="-552433" lat="62.7152083289" lon="7.52850832626">
		<tag k="ford" v="yes" />
		<tag k="name" v="Skålvadet" />
		<tag k="place" v="locality" />
		<tag k="ssr:stedsnr" v="520805" />
	</node>
	<node id="-551912" lat="62.7935999986" lon="7.48451945397">
		<tag k="highway" v="path" />
		<tag k="name" v="Myrvegen" />
		<tag k="ssr:stedsnr" v="156315" />
	</node>
	<node id="-552930" lat="62.7909666676" lon="7.60594167447">
		<tag k="bridge" v="yes" />
		<tag k="layer" v="1" />
		<tag k="name" v="Stokkebrua" />
		<tag k="ssr:stedsnr" v="757324" />
	</node>
	<node id="-552929" lat="62.7346666631" lon="7.0950083416">
		<tag k="layer" v="-1" />
		<tag k="name" v="Cap Claraundergangen" />
		<tag k="ssr:stedsnr" v="757309" />
		<tag k="tunnel" v="yes" />
	</node>
	<node id="-552928" lat="62.8065055516" lon="7.58007778178">
		<tag k="bridge" v="yes" />
		<tag k="layer" v="1" />
		<tag k="name" v="Eidsseterbrua" />
		<tag k="ssr:stedsnr" v="756308" />
	</node>
	<node id="-552927" lat="62.7710416685" lon="7.45123610305">
		<tag k="bridge" v="yes" />
		<tag k="layer" v="1" />
		<tag k="name" v="Mjelvebrua" />
		<tag k="ssr:stedsnr" v="756258" />
	</node>
	<node id="-551896" lat="62.7648111155" lon="7.51878334153">
		<tag k="highway" v="path" />
		<tag k="name" v="Sjøvegen" />
		<tag k="ssr:stedsnr" v="156141" />
	</node>
	<node id="-551373" lat="62.7493444487" lon="7.06611666827">
		<tag k="highway" v="path" />
		<tag k="name" v="Trongstien" />
		<tag k="ssr:stedsnr" v="398422" />
	</node>
	<node id="-551874" lat="62.7380916624" lon="7.16405833581">
		<tag k="bridge" v="yes" />
		<tag k="layer" v="1" />
		<tag k="name" v="Fossbrua" />
		<tag k="ssr:stedsnr" v="149477" />
	</node>
	<node id="-551873" lat="62.7827055515" lon="7.70331111086">
		<tag k="bridge" v="yes" />
		<tag k="layer" v="1" />
		<tag k="name" v="Sotåbrua" />
		<tag k="ssr:stedsnr" v="149447" />
	</node>
	<node id="-551872" lat="62.7397222242" lon="7.18803333959">
		<tag k="bridge" v="yes" />
		<tag k="layer" v="1" />
		<tag k="name" v="Glamoxbrua" />
		<tag k="ssr:stedsnr" v="149253" />
	</node>
	<node id="-551871" lat="62.7451027773" lon="7.26423054835">
		<tag k="aeroway" v="aerodrome" />
		<tag k="alt_name" v="Årø" />
		<tag k="name" v="Molde lufthavn, Årø" />
		<tag k="old_name" v="Molde lufthavn" />
		<tag k="ssr:stedsnr" v="146836" />
	</node>
	<node id="-552880" lat="62.7327222218" lon="7.04493611103">
		<tag k="layer" v="-1" />
		<tag k="name" v="Nakktunnelen" />
		<tag k="ssr:stedsnr" v="717007" />
		<tag k="tunnel" v="yes" />
	</node>
	<node id="-553391" lat="62.7339277795" lon="7.15253611865">
		<tag k="man_made" v="quay" />
		<tag k="name" v="Rekneskaia" />
		<tag k="place" v="locality" />
		<tag k="ssr:stedsnr" v="968651" />
	</node>
	<node id="-553387" lat="62.7592499958" lon="7.35758889326">
		<tag k="bridge" v="yes" />
		<tag k="layer" v="1" />
		<tag k="name" v="Hommelbrua" />
		<tag k="ssr:stedsnr" v="953885" />
	</node>
	<node id="-551338" lat="62.7227805551" lon="7.43038889123">
		<tag k="bridge" v="yes" />
		<tag k="layer" v="1" />
		<tag k="name" v="Geitnesbrua" />
		<tag k="ssr:stedsnr" v="392419" />
	</node>
	<node id="-551337" lat="62.7593944429" lon="7.26560278532">
		<tag k="bridge" v="yes" />
		<tag k="layer" v="1" />
		<tag k="name" v="Hjellrørbrua" />
		<tag k="ssr:stedsnr" v="392389" />
	</node>
	<node id="-551336" lat="62.7351972217" lon="7.08706666052">
		<tag k="layer" v="-1" />
		<tag k="name" v="Mekundergangen" />
		<tag k="ssr:stedsnr" v="392340" />
		<tag k="tunnel" v="yes" />
	</node>
	<node id="-551335" lat="62.7482499995" lon="7.26030554905">
		<tag k="bridge" v="yes" />
		<tag k="layer" v="1" />
		<tag k="name" v="Årøgangbrua" />
		<tag k="ssr:stedsnr" v="392295" />
	</node>
	<node id="-552357" lat="62.6909777801" lon="7.51123610984">
		<tag k="highway" v="path" />
		<tag k="name" v="Myrvegen" />
		<tag k="ssr:stedsnr" v="516441" />
	</node>
	<node id="-552355" lat="62.7777138932" lon="7.64340833046">
		<tag k="bridge" v="yes" />
		<tag k="layer" v="1" />
		<tag k="name" v="Ullalandsbrua" />
		<tag k="ssr:stedsnr" v="514451" />
	</node>
	<node id="-552354" lat="62.7938083354" lon="7.72386110308">
		<tag k="bridge" v="yes" />
		<tag k="layer" v="1" />
		<tag k="name" v="Osbrua" />
		<tag k="ssr:stedsnr" v="514449" />
	</node>
	<node id="-552353" lat="62.6897944472" lon="7.4568333404">
		<tag k="bridge" v="yes" />
		<tag k="layer" v="1" />
		<tag k="name" v="Vikelvbrua" />
		<tag k="ssr:stedsnr" v="514407" />
	</node>
	<node id="-552352" lat="62.7790444406" lon="7.48871944197">
		<tag k="bridge" v="yes" />
		<tag k="layer" v="1" />
		<tag k="name" v="Hagabrua" />
		<tag k="ssr:stedsnr" v="514337" />
	</node>
	<node id="-552351" lat="62.7643222223" lon="7.37534722449">
		<tag k="bridge" v="yes" />
		<tag k="layer" v="1" />
		<tag k="name" v="Sigersetbrua" />
		<tag k="ssr:stedsnr" v="514292" />
	</node>
	<node id="-552862" lat="62.7410944415" lon="7.42584999913">
		<tag k="highway" v="path" />
		<tag k="name" v="Mørkedalsvegen" />
		<tag k="ssr:stedsnr" v="702812" />
	</node>
	<node id="-551834" lat="62.7362750042" lon="7.16458055903">
		<tag k="man_made" v="breakwater" />
		<tag k="name" v="Elvemoloen" />
		<tag k="place" v="locality" />
		<tag k="ssr:stedsnr" v="118576" />
	</node>
	<node id="-553365" lat="62.7263777811" lon="7.44558332679">
		<tag k="ford" v="yes" />
		<tag k="name" v="Gammelsagvadet" />
		<tag k="place" v="locality" />
		<tag k="ssr:stedsnr" v="945872" />
	</node>
	<node id="-551816" lat="62.7429166662" lon="7.49171944797">
		<tag k="bridge" v="yes" />
		<tag k="layer" v="1" />
		<tag k="name" v="Gjerdbrua" />
		<tag k="ssr:stedsnr" v="95784" />
	</node>
	<node id="-551809" lat="62.7520277761" lon="7.54780833445">
		<tag k="ford" v="yes" />
		<tag k="name" v="Kvernhusvadet" />
		<tag k="place" v="locality" />
		<tag k="ssr:stedsnr" v="95739" />
	</node>
	<node id="-552828" lat="62.7370055519" lon="7.1682555641">
		<tag k="amenity" v="ferry_terminal" />
		<tag k="name" v="Molde ferjekaier" />
		<tag k="ssr:stedsnr" v="702289" />
	</node>
	<node id="-552314" lat="62.7365527772" lon="7.15892778663">
		<tag k="man_made" v="breakwater" />
		<tag k="name" v="Torgpiren" />
		<tag k="place" v="locality" />
		<tag k="ssr:stedsnr" v="482533" />
	</node>
	<node id="-551798" lat="62.7765388847" lon="7.18816666407">
		<tag k="highway" v="path" />
		<tag k="name" v="Trongstien" />
		<tag k="ssr:stedsnr" v="95664" />
	</node>
	<node id="-552309" lat="62.7596166655" lon="7.33166944242">
		<tag k="highway" v="path" />
		<tag k="name" v="Vadet" />
		<tag k="ssr:stedsnr" v="460385" />
	</node>
	<node id="-553332" lat="62.6932000007" lon="7.50579999222">
		<tag k="highway" v="path" />
		<tag k="name" v="Hjellvegen" />
		<tag k="ssr:stedsnr" v="945568" />
	</node>
	<node id="-553278" lat="62.754019445" lon="7.52853888611">
		<tag k="ford" v="yes" />
		<tag k="name" v="Talsetvadet" />
		<tag k="place" v="locality" />
		<tag k="ssr:stedsnr" v="944780" />
	</node>
	<node id="-551270" lat="62.7050805548" lon="7.43487777075">
		<tag k="fixme" v="consider highway=path" />
		<tag k="highway" v="track" />
		<tag k="name" v="Kamsetervegen" />
		<tag k="ssr:stedsnr" v="338874" />
	</node>
	<node id="-551268" lat="62.7363388866" lon="7.46683055986">
		<tag k="ford" v="yes" />
		<tag k="name" v="Steinvadet" />
		<tag k="place" v="locality" />
		<tag k="ssr:stedsnr" v="338856" />
	</node>
	<node id="-552769" lat="62.7942972182" lon="7.72810832893">
		<tag k="highway" v="path" />
		<tag k="name" v="Hardvegen" />
		<tag k="ssr:stedsnr" v="702751" />
	</node>
	<node id="-552767" lat="62.7783083372" lon="7.67369723011">
		<tag k="bridge" v="yes" />
		<tag k="layer" v="1" />
		<tag k="name" v="Bordalsbrua" />
		<tag k="ssr:stedsnr" v="696462" />
	</node>
	<node id="-552766" lat="62.7307083352" lon="7.36038888345">
		<tag k="bridge" v="yes" />
		<tag k="layer" v="1" />
		<tag k="name" v="Bolsøybrua" />
		<tag k="ssr:stedsnr" v="696407" />
	</node>
	<node id="-552765" lat="62.7430500021" lon="7.16911388328">
		<tag k="bridge" v="yes" />
		<tag k="layer" v="1" />
		<tag k="name" v="Kveldrobrua" />
		<tag k="ssr:stedsnr" v="696378" />
	</node>
	<node id="-552764" lat="62.7693194426" lon="7.43831665984">
		<tag k="bridge" v="yes" />
		<tag k="layer" v="1" />
		<tag k="name" v="Skjærsåbrua" />
		<tag k="ssr:stedsnr" v="696257" />
	</node>
	<node id="-553269" lat="62.7465472195" lon="7.25627500834">
		<tag k="bridge" v="yes" />
		<tag k="layer" v="1" />
		<tag k="name" v="Flyplassbrua" />
		<tag k="ssr:stedsnr" v="939340" />
	</node>
	<node id="-553268" lat="62.7397694465" lon="7.26861388976">
		<tag k="layer" v="-1" />
		<tag k="name" v="Fannefjordtunnelen" />
		<tag k="ssr:stedsnr" v="937580" />
		<tag k="tunnel" v="yes" />
	</node>
	<node id="-552240" lat="62.8408638871" lon="7.70195555654">
		<tag k="landuse" v="industrial" />
		<tag k="name" v="Grøndal kraftstasjon" />
		<tag k="power" v="plant" />
		<tag k="ssr:stedsnr" v="459207" />
	</node>
	<node id="-551721" lat="62.7951361085" lon="7.64790277155">
		<tag k="bridge" v="yes" />
		<tag k="layer" v="1" />
		<tag k="name" v="Grovabøbrua" />
		<tag k="ssr:stedsnr" v="89463" />
	</node>
	<node id="-552224" lat="62.7843222202" lon="7.47894721489">
		<tag k="highway" v="path" />
		<tag k="name" v="Gjervegen" />
		<tag k="ssr:stedsnr" v="459122" />
	</node>
	<node id="-551191" lat="62.7324222215" lon="7.04278333643">
		<tag k="bridge" v="yes" />
		<tag k="layer" v="1" />
		<tag k="name" v="Haukabøbrua" />
		<tag k="ssr:stedsnr" v="332375" />
	</node>
	<node id="-551190" lat="62.735047225" lon="7.08789999756">
		<tag k="bridge" v="yes" />
		<tag k="layer" v="1" />
		<tag k="name" v="Mekbrua" />
		<tag k="ssr:stedsnr" v="332373" />
	</node>
	<node id="-553232" lat="62.7980416649" lon="7.65031665839">
		<tag k="bridge" v="yes" />
		<tag k="layer" v="1" />
		<tag k="name" v="Kleivbrua" />
		<tag k="ssr:stedsnr" v="878385" />
	</node>
	<node id="-553231" lat="62.8120277752" lon="7.70388611638">
		<tag k="bridge" v="yes" />
		<tag k="layer" v="1" />
		<tag k="name" v="Istadbrua" />
		<tag k="ssr:stedsnr" v="878381" />
	</node>
	<node id="-553230" lat="62.7288305538" lon="6.98590832423">
		<tag k="amenity" v="ferry_terminal" />
		<tag k="name" v="Mordalsvågen ferjekai" />
		<tag k="ssr:stedsnr" v="876690" />
	</node>
	<node id="-552201" lat="62.7503055575" lon="7.26102777511">
		<tag k="bridge" v="yes" />
		<tag k="layer" v="1" />
		<tag k="name" v="Reitaplassbrua" />
		<tag k="ssr:stedsnr" v="453396" />
	</node>
	<node id="-552200" lat="62.7388527794" lon="7.1660666726">
		<tag k="bridge" v="yes" />
		<tag k="layer" v="1" />
		<tag k="name" v="Øvre bru" />
		<tag k="ssr:stedsnr" v="453382" />
	</node>
	<node id="-552199" lat="62.8096583372" lon="7.69798610131">
		<tag k="bridge" v="yes" />
		<tag k="layer" v="1" />
		<tag k="name" v="Røyrgatebrua" />
		<tag k="ssr:stedsnr" v="453347" />
	</node>
	<node id="-552198" lat="62.7607333336" lon="7.37554722794">
		<tag k="bridge" v="yes" />
		<tag k="layer" v="1" />
		<tag k="name" v="Lønsetbrua" />
		<tag k="ssr:stedsnr" v="453290" />
	</node>
	<node id="-552197" lat="62.6849083348" lon="7.46474721328">
		<tag k="amenity" v="ferry_terminal" />
		<tag k="name" v="Sølsnes ferjekai" />
		<tag k="ssr:stedsnr" v="450489" />
	</node>
	<node id="-552233" lat="62.7687833321" lon="7.52913333712">
		<tag k="highway" v="path" />
		<tag k="name" v="Bustien" />
		<tag k="ssr:stedsnr" v="459178" />
	</node>
	<node id="-551149" lat="62.7332999997" lon="7.04204167286">
		<tag k="layer" v="-1" />
		<tag k="name" v="Haukabøtunnelen" />
		<tag k="ssr:stedsnr" v="294641" />
		<tag k="tunnel" v="yes" />
	</node>
	<node id="-553190" lat="62.733058335" lon="7.04399443866">
		<tag k="bridge" v="yes" />
		<tag k="layer" v="1" />
		<tag k="name" v="Øvre Haukabøbrua" />
		<tag k="ssr:stedsnr" v="841743" />
	</node>
	<node id="-551128" lat="62.7435638891" lon="7.42045555653">
		<tag k="highway" v="path" />
		<tag k="name" v="Midtlivegen" />
		<tag k="ssr:stedsnr" v="277889" />
	</node>
	<node id="-551115" lat="62.7388166689" lon="7.40756110167">
		<tag k="highway" v="path" />
		<tag k="name" v="Låkestien" />
		<tag k="ssr:stedsnr" v="277796" />
	</node>
	<node id="-551111" lat="62.7535083333" lon="7.56563054713">
		<tag k="ford" v="yes" />
		<tag k="name" v="Ytre Skålvadet" />
		<tag k="place" v="locality" />
		<tag k="ssr:stedsnr" v="277777" />
	</node>
	<node id="-551618" lat="62.8254972217" lon="7.70546667004">
		<tag k="landuse" v="industrial" />
		<tag k="name" v="Langli kraftstasjon" />
		<tag k="power" v="plant" />
		<tag k="ssr:stedsnr" v="34209" />
	</node>
	<node id="-552116" lat="62.7793166664" lon="7.67590555739">
		<tag k="landuse" v="harbour" />
		<tag k="name" v="Sunnmørshamna" />
		<tag k="seamark:type" v="harbour" />
		<tag k="ssr:stedsnr" v="233484" />
	</node>
	<node id="-552625" lat="62.7728055518" lon="7.28597778191">
		<tag k="bridge" v="yes" />
		<tag k="layer" v="1" />
		<tag k="name" v="Hausåbrua" />
		<tag k="ssr:stedsnr" v="635390" />
	</node>
	<node id="-552624" lat="62.794777774" lon="7.542758343">
		<tag k="bridge" v="yes" />
		<tag k="layer" v="1" />
		<tag k="name" v="Nedre Roaldsetbrua" />
		<tag k="ssr:stedsnr" v="635307" />
	</node>
	<node id="-552623" lat="62.7790444406" lon="7.48871944197">
		<tag k="bridge" v="yes" />
		<tag k="layer" v="1" />
		<tag k="name" v="Nedre Gujordbrua" />
		<tag k="ssr:stedsnr" v="635303" />
	</node>
	<node id="-551596" lat="62.7146388928" lon="7.62778610465">
		<tag k="fixme" v="verify maritime location" />
		<tag k="mooring" v="yes" />
		<tag k="name" v="Gammelstøa" />
		<tag k="place" v="locality" />
		<tag k="ssr:stedsnr" v="31371" />
	</node>
	<node id="-551595" lat="62.7951944443" lon="7.67197778157">
		<tag k="bridge" v="yes" />
		<tag k="layer" v="1" />
		<tag k="name" v="Oltervågbrua" />
		<tag k="ssr:stedsnr" v="28458" />
	</node>
	<node id="-551594" lat="62.7376055559" lon="7.16396945031">
		<tag k="bridge" v="yes" />
		<tag k="layer" v="1" />
		<tag k="name" v="Strandgatebrua" />
		<tag k="ssr:stedsnr" v="28390" />
	</node>
	<node id="-551593" lat="62.7865583301" lon="7.53705000986">
		<tag k="bridge" v="yes" />
		<tag k="layer" v="1" />
		<tag k="name" v="Skjevikåsbrua" />
		<tag k="ssr:stedsnr" v="28343" />
	</node>
	<node id="-552593" lat="62.7369694425" lon="7.15933332572">
		<tag k="man_made" v="quay" />
		<tag k="name" v="Honnørbrygga" />
		<tag k="place" v="locality" />
		<tag k="ssr:stedsnr" v="603517" />
	</node>
	<node id="-551039" lat="62.7884111079" lon="7.52437221276">
		<tag k="bridge" v="yes" />
		<tag k="layer" v="1" />
		<tag k="name" v="Krokhølbrua" />
		<tag k="ssr:stedsnr" v="271391" />
	</node>
	<node id="-551038" lat="62.7873388897" lon="7.52152221253">
		<tag k="layer" v="-1" />
		<tag k="name" v="Oppdølsundergangen" />
		<tag k="ssr:stedsnr" v="271376" />
		<tag k="tunnel" v="yes" />
	</node>
	<node id="-551037" lat="62.7410194466" lon="7.22140556251">
		<tag k="layer" v="-1" />
		<tag k="name" v="Lubbenesundergangen" />
		<tag k="ssr:stedsnr" v="271377" />
		<tag k="tunnel" v="yes" />
	</node>
	<node id="-551036" lat="62.837974997" lon="7.25523888669">
		<tag k="layer" v="-1" />
		<tag k="name" v="Årøundergangen" />
		<tag k="ssr:stedsnr" v="271318" />
		<tag k="tunnel" v="yes" />
	</node>
	<node id="-553074" lat="62.7615138862" lon="7.27452776856">
		<tag k="bridge" v="yes" />
		<tag k="layer" v="1" />
		<tag k="name" v="Årødalsbrua" />
		<tag k="ssr:stedsnr" v="817387" />
	</node>
	<node id="-553073" lat="62.7513611078" lon="7.28702777233">
		<tag k="layer" v="-1" />
		<tag k="name" v="Røbekkundergangen" />
		<tag k="ssr:stedsnr" v="817323" />
		<tag k="tunnel" v="yes" />
	</node>
	<node id="-553072" lat="62.8344277737" lon="7.80044166045">
		<tag k="layer" v="-1" />
		<tag k="name" v="Botterliundergangen" />
		<tag k="ssr:stedsnr" v="817318" />
		<tag k="tunnel" v="yes" />
	</node>
	<node id="-552554" lat="62.7469138907" lon="7.09522222672">
		<tag k="highway" v="path" />
		<tag k="name" v="Pederstien" />
		<tag k="ssr:stedsnr" v="580720" />
	</node>
	<node id="-552038" lat="62.6753777745" lon="7.30295278475">
		<tag k="amenity" v="ferry_terminal" />
		<tag k="name" v="Sekken ferjekai" />
		<tag k="ssr:stedsnr" v="217137" />
	</node>
	<node id="-552024" lat="62.691527779" lon="7.45119443749">
		<tag k="layer" v="-1" />
		<tag k="name" v="Viktunnelen" />
		<tag k="ssr:stedsnr" v="211324" />
		<tag k="tunnel" v="yes" />
	</node>
	<node id="-552531" lat="62.7326666625" lon="7.15146944542">
		<tag k="man_made" v="breakwater" />
		<tag k="name" v="Reknesmoloen" />
		<tag k="place" v="locality" />
		<tag k="ssr:stedsnr" v="580430" />
	</node>
	<node id="-552206" lat="62.8173472203" lon="7.73088056393">
		<tag k="fixme" v="consider highway=path" />
		<tag k="highway" v="track" />
		<tag k="name" v="Åbakkvegen" />
		<tag k="ssr:stedsnr" v="459003" />
	</node>
	<node id="-553020" lat="62.7536944452" lon="7.17150833236">
		<tag k="bridge" v="yes" />
		<tag k="layer" v="1" />
		<tag k="name" v="Fjellbrua" />
		<tag k="ssr:stedsnr" v="763713" />
	</node>
	<node id="-552494" lat="62.6962388867" lon="7.4219249963">
		<tag k="bridge" v="yes" />
		<tag k="layer" v="1" />
		<tag k="name" v="Stensåbrua" />
		<tag k="ssr:stedsnr" v="574509" />
	</node>
	<node id="-552493" lat="62.7020083372" lon="7.55766666064">
		<tag k="bridge" v="yes" />
		<tag k="layer" v="1" />
		<tag k="name" v="Årsetbrua" />
		<tag k="ssr:stedsnr" v="574418" />
	</node>
	<node id="-552492" lat="62.7346416656" lon="7.06941111056">
		<tag k="layer" v="-1" />
		<tag k="name" v="Kringstadundergangen" />
		<tag k="ssr:stedsnr" v="574348" />
		<tag k="tunnel" v="yes" />
	</node>
	<node id="-552491" lat="62.7480833331" lon="7.26064722882">
		<tag k="bridge" v="yes" />
		<tag k="layer" v="1" />
		<tag k="name" v="Årøbrua" />
		<tag k="ssr:stedsnr" v="574293" />
	</node>
	<node id="-551970" lat="62.7370604393" lon="7.13553327228">
		<tag k="aeroway" v="airstrip" />
		<tag k="name" v="Molde helikopterplass, Molde sykehus" />
		<tag k="ssr:stedsnr" v="162514" />
	</node>
	<node id="-551958" lat="62.730613893" lon="7.35513888496">
		<tag k="bridge" v="yes" />
		<tag k="layer" v="1" />
		<tag k="name" v="Bolsøybrua" />
		<tag k="ssr:stedsnr" v="156921" />
	</node>
</osm>
