<?xml version="1.0" encoding="UTF-8"?>
<osm generator="osmapis" version="0.6">
	<node id="-553087" lat="62.7483444402" lon="7.12630832969">
		<tag k="name" v="Litlevarden" />
		<tag k="ssr:stedsnr" v="459728" />
		<tag k="tourism" v="viewpoint" />
	</node>
	<node id="-552093" lat="62.7310916701" lon="7.3276972257">
		<tag k="name" v="Trollpila" />
		<tag k="place" v="locality" />
		<tag k="ssr:stedsnr" v="338921" />
	</node>
	<node id="-552508" lat="62.6606527817" lon="7.38216110126">
		<tag k="amenity" v="place_of_worship" />
		<tag k="denomination" v="lutheran" />
		<tag k="name" v="Sekken kapell" />
		<tag k="religion" v="christian" />
		<tag k="ssr:stedsnr" v="72720" />
	</node>
	<node id="-553865" lat="62.7382666681" lon="7.16034722873">
		<tag k="amenity" v="place_of_worship" />
		<tag k="denomination" v="lutheran" />
		<tag k="name" v="Molde" />
		<tag k="religion" v="christian" />
		<tag k="ssr:stedsnr" v="786648" />
	</node>
	<node id="-553011" lat="62.7990472251" lon="7.65509444105">
		<tag k="amenity" v="place_of_worship" />
		<tag k="denomination" v="lutheran" />
		<tag k="name" v="Kleive" />
		<tag k="religion" v="christian" />
		<tag k="ssr:stedsnr" v="437771" />
	</node>
	<node id="-551976" lat="62.6857277756" lon="7.45368332586">
		<tag k="amenity" v="place_of_worship" />
		<tag k="denomination" v="lutheran" />
		<tag k="name" v="Veøy" />
		<tag k="religion" v="christian" />
		<tag k="ssr:stedsnr" v="315722" />
	</node>
	<node id="-554060" lat="62.7324472266" lon="7.42461110777">
		<tag k="amenity" v="place_of_worship" />
		<tag k="denomination" v="lutheran" />
		<tag k="name" v="Røvik" />
		<tag k="religion" v="christian" />
		<tag k="ssr:stedsnr" v="921772" />
	</node>
	<node id="-553513" lat="62.7394861107" lon="7.15058056">
		<tag k="name" v="Romsdalsmuseet" />
		<tag k="ssr:stedsnr" v="641705" />
		<tag k="tourism" v="attraction" />
	</node>
	<node id="-552520" lat="62.7525583301" lon="7.29324166447">
		<tag k="amenity" v="place_of_worship" />
		<tag k="denomination" v="lutheran" />
		<tag k="name" v="Bolsøy" />
		<tag k="religion" v="christian" />
		<tag k="ssr:stedsnr" v="72806" />
	</node>
	<node id="-553954" lat="62.7167194419" lon="7.16811389121">
		<tag k="name" v="Fiskerimuseet" />
		<tag k="ssr:stedsnr" v="824489" />
		<tag k="tourism" v="attraction" />
	</node>
</osm>
