<?xml version="1.0" encoding="UTF-8"?>
<osm version="0.6" generator="osmapis">
	<node lat="68.34706110917631" lon="15.506877773423001" id="-20569">
		<tag k="name" v="Vestbygd" />
		<tag k="ssr:date" v="2021-06-08" />
		<tag k="ssr:gruppe" v="administrativeIndelinger" />
		<tag k="ssr:hovedgruppe" v="offentligAdministrasjon" />
		<tag k="ssr:stedsnr" v="82832" />
		<tag k="ssr:type" v="poststed" />
	</node>
	<node lat="68.33798873606251" lon="15.95480333777686" id="-20745">
		<tag k="name" v="Ofoten - Ufuohttá" />
		<tag k="name:no" v="Ofoten" />
		<tag k="name:se" v="Ufuohttá" />
		<tag k="ssr:date" v="2021-06-15" />
		<tag k="ssr:gruppe" v="terrengområder" />
		<tag k="ssr:hovedgruppe" v="terreng" />
		<tag k="ssr:stedsnr" v="450830" />
		<tag k="ssr:type" v="landskapsområde" />
	</node>
	<node lat="68.48765833543048" lon="16.096477766907466" id="-20975">
		<tag k="name" v="Jektsteinen" />
		<tag k="ssr:date" v="2021-06-08" />
		<tag k="ssr:gruppe" v="sjøbunn" />
		<tag k="ssr:hovedgruppe" v="sjø" />
		<tag k="ssr:stedsnr" v="450912" />
		<tag k="ssr:type" v="søkkISjø" />
	</node>
	<node lat="68.37743102892709" lon="15.75895237056083" id="-21064">
		<tag k="name" v="Rinøy" />
		<tag k="old_name" v="Rinøya" />
		<tag k="ssr:date" v="2020-09-15" />
		<tag k="ssr:gruppe" v="navigasjon" />
		<tag k="ssr:hovedgruppe" v="infrastruktur" />
		<tag k="ssr:stedsnr" v="684289" />
		<tag k="ssr:type" v="fyrlykt" />
	</node>
	<node lat="68.29355550824448" lon="15.357554087357753" id="-21154">
		<tag k="name" v="Lysøskjæret" />
		<tag k="old_name" v="Lysøyskjeret;Lysøyskjæret" />
		<tag k="ssr:date" v="2020-09-15" />
		<tag k="ssr:gruppe" v="navigasjon" />
		<tag k="ssr:hovedgruppe" v="infrastruktur" />
		<tag k="ssr:stedsnr" v="623086" />
		<tag k="ssr:type" v="fyrlykt" />
	</node>
	<node lat="68.3232118042572" lon="15.663514940108698" id="-21246">
		<tag k="name" v="Kjeøy" />
		<tag k="old_name" v="Kjeøya" />
		<tag k="ssr:date" v="2020-09-15" />
		<tag k="ssr:gruppe" v="navigasjon" />
		<tag k="ssr:hovedgruppe" v="infrastruktur" />
		<tag k="ssr:stedsnr" v="684356" />
		<tag k="ssr:type" v="fyrlykt" />
	</node>
	<node lat="68.4887388924322" lon="16.099541674276114" id="-21329">
		<tag k="name" v="Hyshola" />
		<tag k="ssr:date" v="2021-06-08" />
		<tag k="ssr:gruppe" v="sjøbunn" />
		<tag k="ssr:hovedgruppe" v="sjø" />
		<tag k="ssr:stedsnr" v="753912" />
		<tag k="ssr:type" v="søkkISjø" />
	</node>
	<node lat="68.23201666768998" lon="15.589725007638936" id="-21346">
		<tag k="name" v="Hammerøygrunnen" />
		<tag k="old_name" v="Hammerøygrunnen Lysbøye" />
		<tag k="ssr:date" v="2016-05-11" />
		<tag k="ssr:gruppe" v="navigasjon" />
		<tag k="ssr:hovedgruppe" v="infrastruktur" />
		<tag k="ssr:stedsnr" v="764405" />
		<tag k="ssr:type" v="fyrlykt" />
	</node>
	<node lat="68.34166060649507" lon="15.295148037700297" id="-21419">
		<tag k="name" v="Håkjerringholmen" />
		<tag k="ssr:date" v="2020-09-17" />
		<tag k="ssr:gruppe" v="navigasjon" />
		<tag k="ssr:hovedgruppe" v="infrastruktur" />
		<tag k="ssr:stedsnr" v="867972" />
		<tag k="ssr:type" v="fyrlykt" />
	</node>
	<node lat="68.36778737038217" lon="15.944839885368207" id="-21474">
		<tag k="name" v="Rotvær" />
		<tag k="old_name" v="Rotvær fyr" />
		<tag k="ssr:date" v="2020-09-17" />
		<tag k="ssr:gruppe" v="navigasjon" />
		<tag k="ssr:hovedgruppe" v="infrastruktur" />
		<tag k="ssr:stedsnr" v="927354" />
		<tag k="ssr:type" v="fyrlykt" />
	</node>
	<node lat="68.41716890270163" lon="15.985016836269658" id="-21509">
		<tag k="name" v="Ternevegen" />
		<tag k="ssr:date" v="2019-05-30" />
		<tag k="ssr:gruppe" v="veg" />
		<tag k="ssr:hovedgruppe" v="infrastruktur" />
		<tag k="ssr:stedsnr" v="1000876" />
		<tag k="ssr:type" v="adressenavn" />
	</node>
	<node lat="68.40824988838004" lon="15.993530707938643" id="-21510">
		<tag k="name" v="Vidjevegen" />
		<tag k="ssr:date" v="2019-05-30" />
		<tag k="ssr:gruppe" v="veg" />
		<tag k="ssr:hovedgruppe" v="infrastruktur" />
		<tag k="ssr:stedsnr" v="1000883" />
		<tag k="ssr:type" v="adressenavn" />
	</node>
	<node lat="68.4010551634208" lon="15.968791956314826" id="-21511">
		<tag k="name" v="Øvre Kalvollen" />
		<tag k="ssr:date" v="2019-05-30" />
		<tag k="ssr:gruppe" v="veg" />
		<tag k="ssr:hovedgruppe" v="infrastruktur" />
		<tag k="ssr:stedsnr" v="1000931" />
		<tag k="ssr:type" v="adressenavn" />
	</node>
	<node lat="68.41343739690927" lon="15.998312923374716" id="-21512">
		<tag k="name" v="Snekkevegen" />
		<tag k="ssr:date" v="2019-05-30" />
		<tag k="ssr:gruppe" v="veg" />
		<tag k="ssr:hovedgruppe" v="infrastruktur" />
		<tag k="ssr:stedsnr" v="1000935" />
		<tag k="ssr:type" v="adressenavn" />
	</node>
	<node lat="68.40922669833968" lon="15.981252771723675" id="-21513">
		<tag k="name" v="Steinvegen" />
		<tag k="ssr:date" v="2019-05-30" />
		<tag k="ssr:gruppe" v="veg" />
		<tag k="ssr:hovedgruppe" v="infrastruktur" />
		<tag k="ssr:stedsnr" v="1000964" />
		<tag k="ssr:type" v="adressenavn" />
	</node>
	<node lat="68.41216630285223" lon="15.996532750364945" id="-21514">
		<tag k="name" v="Stakevegen" />
		<tag k="ssr:date" v="2019-05-30" />
		<tag k="ssr:gruppe" v="veg" />
		<tag k="ssr:hovedgruppe" v="infrastruktur" />
		<tag k="ssr:stedsnr" v="1000967" />
		<tag k="ssr:type" v="adressenavn" />
	</node>
	<node lat="68.41035384875107" lon="15.987867681654967" id="-21515">
		<tag k="name" v="Televegen" />
		<tag k="ssr:date" v="2019-05-30" />
		<tag k="ssr:gruppe" v="veg" />
		<tag k="ssr:hovedgruppe" v="infrastruktur" />
		<tag k="ssr:stedsnr" v="1000973" />
		<tag k="ssr:type" v="adressenavn" />
	</node>
	<node lat="68.41403956209457" lon="15.998835881632614" id="-21516">
		<tag k="name" v="Strandvegen" />
		<tag k="ssr:date" v="2019-05-30" />
		<tag k="ssr:gruppe" v="veg" />
		<tag k="ssr:hovedgruppe" v="infrastruktur" />
		<tag k="ssr:stedsnr" v="1000980" />
		<tag k="ssr:type" v="adressenavn" />
	</node>
	<node lat="68.42123565248468" lon="15.989030519268479" id="-21517">
		<tag k="name" v="Sjøvegen" />
		<tag k="ssr:date" v="2019-05-30" />
		<tag k="ssr:gruppe" v="veg" />
		<tag k="ssr:hovedgruppe" v="infrastruktur" />
		<tag k="ssr:stedsnr" v="1001014" />
		<tag k="ssr:type" v="adressenavn" />
	</node>
	<node lat="68.41076141635133" lon="15.991132030691045" id="-21518">
		<tag k="name" v="Signalvegen" />
		<tag k="ssr:date" v="2019-05-30" />
		<tag k="ssr:gruppe" v="veg" />
		<tag k="ssr:hovedgruppe" v="infrastruktur" />
		<tag k="ssr:stedsnr" v="1001022" />
		<tag k="ssr:type" v="adressenavn" />
	</node>
	<node lat="68.41305079496341" lon="15.996205982434988" id="-21519">
		<tag k="name" v="Losvegen" />
		<tag k="ssr:date" v="2019-05-30" />
		<tag k="ssr:gruppe" v="veg" />
		<tag k="ssr:hovedgruppe" v="infrastruktur" />
		<tag k="ssr:stedsnr" v="1001064" />
		<tag k="ssr:type" v="adressenavn" />
	</node>
	<node lat="68.4055291716155" lon="15.987710279477943" id="-21520">
		<tag k="name" v="Mosevegen" />
		<tag k="ssr:date" v="2019-05-30" />
		<tag k="ssr:gruppe" v="veg" />
		<tag k="ssr:hovedgruppe" v="infrastruktur" />
		<tag k="ssr:stedsnr" v="1001069" />
		<tag k="ssr:type" v="adressenavn" />
	</node>
	<node lat="68.41077884946944" lon="15.996471095657606" id="-21521">
		<tag k="name" v="Løktvegen" />
		<tag k="ssr:date" v="2019-05-30" />
		<tag k="ssr:gruppe" v="veg" />
		<tag k="ssr:hovedgruppe" v="infrastruktur" />
		<tag k="ssr:stedsnr" v="1001077" />
		<tag k="ssr:type" v="adressenavn" />
	</node>
	<node lat="68.40095407619981" lon="15.961019382167644" id="-21522">
		<tag k="name" v="Mikkel Revs veg" />
		<tag k="ssr:date" v="2019-05-30" />
		<tag k="ssr:gruppe" v="veg" />
		<tag k="ssr:hovedgruppe" v="infrastruktur" />
		<tag k="ssr:stedsnr" v="1001080" />
		<tag k="ssr:type" v="adressenavn" />
	</node>
	<node lat="68.41181424117559" lon="16.00078412702283" id="-21523">
		<tag k="name" v="Molovegen" />
		<tag k="ssr:date" v="2019-05-30" />
		<tag k="ssr:gruppe" v="veg" />
		<tag k="ssr:hovedgruppe" v="infrastruktur" />
		<tag k="ssr:stedsnr" v="1001082" />
		<tag k="ssr:type" v="adressenavn" />
	</node>
	<node lat="68.40986951914823" lon="15.988225309510756" id="-21524">
		<tag k="name" v="Kirkevegen" />
		<tag k="ssr:date" v="2019-05-30" />
		<tag k="ssr:gruppe" v="veg" />
		<tag k="ssr:hovedgruppe" v="infrastruktur" />
		<tag k="ssr:stedsnr" v="1001315" />
		<tag k="ssr:type" v="adressenavn" />
	</node>
	<node lat="68.41176723137013" lon="15.989885058998066" id="-21525">
		<tag k="name" v="Krystallvegen" />
		<tag k="ssr:date" v="2019-05-30" />
		<tag k="ssr:gruppe" v="veg" />
		<tag k="ssr:hovedgruppe" v="infrastruktur" />
		<tag k="ssr:stedsnr" v="1001332" />
		<tag k="ssr:type" v="adressenavn" />
	</node>
	<node lat="68.41209662916266" lon="15.990593615829262" id="-21526">
		<tag k="name" v="Glimmervegen" />
		<tag k="ssr:date" v="2019-05-30" />
		<tag k="ssr:gruppe" v="veg" />
		<tag k="ssr:hovedgruppe" v="infrastruktur" />
		<tag k="ssr:stedsnr" v="1001366" />
		<tag k="ssr:type" v="adressenavn" />
	</node>
	<node lat="68.41557331778935" lon="15.988170477705005" id="-21527">
		<tag k="name" v="Hamndalsvegen" />
		<tag k="ssr:date" v="2019-05-30" />
		<tag k="ssr:gruppe" v="veg" />
		<tag k="ssr:hovedgruppe" v="infrastruktur" />
		<tag k="ssr:stedsnr" v="1001374" />
		<tag k="ssr:type" v="adressenavn" />
	</node>
	<node lat="68.40015560161856" lon="15.962544114921018" id="-21528">
		<tag k="name" v="Harestien" />
		<tag k="ssr:date" v="2019-05-30" />
		<tag k="ssr:gruppe" v="veg" />
		<tag k="ssr:hovedgruppe" v="infrastruktur" />
		<tag k="ssr:stedsnr" v="1001377" />
		<tag k="ssr:type" v="adressenavn" />
	</node>
	<node lat="68.4077930094594" lon="15.982635356352352" id="-21529">
		<tag k="name" v="Idrettsvegen" />
		<tag k="ssr:date" v="2019-05-30" />
		<tag k="ssr:gruppe" v="veg" />
		<tag k="ssr:hovedgruppe" v="infrastruktur" />
		<tag k="ssr:stedsnr" v="1001423" />
		<tag k="ssr:type" v="adressenavn" />
	</node>
	<node lat="68.41853339350529" lon="15.994344398573826" id="-21530">
		<tag k="name" v="Industrivegen" />
		<tag k="ssr:date" v="2019-05-30" />
		<tag k="ssr:gruppe" v="veg" />
		<tag k="ssr:hovedgruppe" v="infrastruktur" />
		<tag k="ssr:stedsnr" v="1001425" />
		<tag k="ssr:type" v="adressenavn" />
	</node>
	<node lat="68.40699383081167" lon="15.9881402786557" id="-21531">
		<tag k="name" v="Heggevegen" />
		<tag k="ssr:date" v="2019-05-30" />
		<tag k="ssr:gruppe" v="veg" />
		<tag k="ssr:hovedgruppe" v="infrastruktur" />
		<tag k="ssr:stedsnr" v="1001431" />
		<tag k="ssr:type" v="adressenavn" />
	</node>
	<node lat="68.40052376881208" lon="15.951280637344995" id="-21532">
		<tag k="name" v="Energivegen" />
		<tag k="ssr:date" v="2019-05-30" />
		<tag k="ssr:gruppe" v="veg" />
		<tag k="ssr:hovedgruppe" v="infrastruktur" />
		<tag k="ssr:stedsnr" v="1001464" />
		<tag k="ssr:type" v="adressenavn" />
	</node>
	<node lat="68.40750418438577" lon="15.982374216055222" id="-21533">
		<tag k="name" v="Fiolvegen" />
		<tag k="ssr:date" v="2019-05-30" />
		<tag k="ssr:gruppe" v="veg" />
		<tag k="ssr:hovedgruppe" v="infrastruktur" />
		<tag k="ssr:stedsnr" v="1001475" />
		<tag k="ssr:type" v="adressenavn" />
	</node>
	<node lat="68.39570226878791" lon="15.959687750913728" id="-21534">
		<tag k="name" v="Fenesvegen" />
		<tag k="ssr:date" v="2019-05-30" />
		<tag k="ssr:gruppe" v="veg" />
		<tag k="ssr:hovedgruppe" v="infrastruktur" />
		<tag k="ssr:stedsnr" v="1001476" />
		<tag k="ssr:type" v="adressenavn" />
	</node>
	<node lat="68.4052632315413" lon="15.981047335287787" id="-21535">
		<tag k="name" v="Flagghaugen" />
		<tag k="ssr:date" v="2019-05-30" />
		<tag k="ssr:gruppe" v="veg" />
		<tag k="ssr:hovedgruppe" v="infrastruktur" />
		<tag k="ssr:stedsnr" v="1001485" />
		<tag k="ssr:type" v="adressenavn" />
	</node>
	<node lat="68.40953994303487" lon="15.990927691149214" id="-21536">
		<tag k="name" v="Aspvegen" />
		<tag k="ssr:date" v="2019-05-30" />
		<tag k="ssr:gruppe" v="veg" />
		<tag k="ssr:hovedgruppe" v="infrastruktur" />
		<tag k="ssr:stedsnr" v="1001519" />
		<tag k="ssr:type" v="adressenavn" />
	</node>
	<node lat="68.41336074249728" lon="16.002941098897924" id="-21537">
		<tag k="name" v="Ankervegen" />
		<tag k="ssr:date" v="2019-05-30" />
		<tag k="ssr:gruppe" v="veg" />
		<tag k="ssr:hovedgruppe" v="infrastruktur" />
		<tag k="ssr:stedsnr" v="1001520" />
		<tag k="ssr:type" v="adressenavn" />
	</node>
	<node lat="68.40998607506276" lon="15.993307156156767" id="-21538">
		<tag k="name" v="Bjørkveien" />
		<tag k="ssr:date" v="2019-05-30" />
		<tag k="ssr:gruppe" v="veg" />
		<tag k="ssr:hovedgruppe" v="infrastruktur" />
		<tag k="ssr:stedsnr" v="1001523" />
		<tag k="ssr:type" v="adressenavn" />
	</node>
	<node lat="68.40932555543915" lon="15.98259652538376" id="-21539">
		<tag k="name" v="Bergvegen" />
		<tag k="ssr:date" v="2019-05-30" />
		<tag k="ssr:gruppe" v="veg" />
		<tag k="ssr:hovedgruppe" v="infrastruktur" />
		<tag k="ssr:stedsnr" v="1001524" />
		<tag k="ssr:type" v="adressenavn" />
	</node>
	<node lat="68.40096766779483" lon="15.960854182009893" id="-21540">
		<tag k="name" v="Dådyrvegen" />
		<tag k="ssr:date" v="2019-05-30" />
		<tag k="ssr:gruppe" v="veg" />
		<tag k="ssr:hovedgruppe" v="infrastruktur" />
		<tag k="ssr:stedsnr" v="1001525" />
		<tag k="ssr:type" v="adressenavn" />
	</node>
	<node lat="68.40638400802388" lon="15.974496676108332" id="-21541">
		<tag k="name" v="Bufjellvegen" />
		<tag k="ssr:date" v="2019-05-30" />
		<tag k="ssr:gruppe" v="veg" />
		<tag k="ssr:hovedgruppe" v="infrastruktur" />
		<tag k="ssr:stedsnr" v="1001526" />
		<tag k="ssr:type" v="adressenavn" />
	</node>
	<node lat="68.32019732565817" lon="15.50380966673187" id="-21546">
		<tag k="name" v="Smitskjær" />
		<tag k="old_name" v="Smitskjer" />
		<tag k="ssr:date" v="2020-09-15" />
		<tag k="ssr:gruppe" v="navigasjon" />
		<tag k="ssr:hovedgruppe" v="infrastruktur" />
		<tag k="ssr:stedsnr" v="17022" />
		<tag k="ssr:type" v="fyrlykt" />
	</node>
	<node lat="68.31131142317" lon="15.509852514144077" id="-21831">
		<tag k="name" v="Seingen" />
		<tag k="ssr:date" v="2020-09-15" />
		<tag k="ssr:gruppe" v="navigasjon" />
		<tag k="ssr:hovedgruppe" v="infrastruktur" />
		<tag k="ssr:stedsnr" v="199050" />
		<tag k="ssr:type" v="fyrlykt" />
	</node>
	<node lat="68.35603968952229" lon="15.50451089311203" id="-21863">
		<tag k="name" v="Bresja - Bráššá" />
		<tag k="name:no" v="Bresja" />
		<tag k="name:se" v="Bráššá" />
		<tag k="ssr:date" v="2021-10-20" />
		<tag k="ssr:gruppe" v="terrengområder" />
		<tag k="ssr:hovedgruppe" v="terreng" />
		<tag k="ssr:stedsnr" v="204617" />
		<tag k="ssr:type" v="landskapsområde" />
	</node>
	<node lat="68.40997500061407" lon="15.990125006432683" id="-21953">
		<tag k="alt_name:no" v="Lødingen" />
		<tag k="loc_name:se" v="Lodegiid Suohkan" />
		<tag k="name" v="Lødingen kommune" />
		<tag k="name:no" v="Lødingen kommune" />
		<tag k="ssr:date" v="2021-10-13" />
		<tag k="ssr:gruppe" v="administrativeIndelinger" />
		<tag k="ssr:hovedgruppe" v="offentligAdministrasjon" />
		<tag k="ssr:stedsnr" v="329645" />
		<tag k="ssr:type" v="kommune" />
	</node>
	<node lat="68.30201121547208" lon="15.66114794837105" id="-22125">
		<tag k="name" v="Skarvhausen" />
		<tag k="ssr:date" v="2020-09-15" />
		<tag k="ssr:gruppe" v="navigasjon" />
		<tag k="ssr:hovedgruppe" v="infrastruktur" />
		<tag k="ssr:stedsnr" v="442364" />
		<tag k="ssr:type" v="fyrlykt" />
	</node>
	<node lat="67.2804027758844" lon="14.376388898255625" id="-22193">
		<tag k="alt_name:no" v="Nordland" />
		<tag k="loc_name:se" v="Nordlándda fylka" />
		<tag k="loc_name:sma" v="Nordlaanten fylhke" />
		<tag k="name" v="Nordland fylke - Nordlánda fylkka" />
		<tag k="name:no" v="Nordland fylke" />
		<tag k="name:smj" v="Nordlánda fylkka" />
		<tag k="ssr:date" v="2021-02-03" />
		<tag k="ssr:gruppe" v="administrativeIndelinger" />
		<tag k="ssr:hovedgruppe" v="offentligAdministrasjon" />
		<tag k="ssr:stedsnr" v="511766" />
		<tag k="ssr:type" v="fylke" />
	</node>
	<node lat="68.41206944597056" lon="16.009383334843562" id="-22255">
		<tag k="name" v="Lødingen" />
		<tag k="ssr:date" v="2016-05-10" />
		<tag k="ssr:gruppe" v="navigasjon" />
		<tag k="ssr:hovedgruppe" v="infrastruktur" />
		<tag k="ssr:stedsnr" v="562251" />
		<tag k="ssr:type" v="fyrlykt" />
	</node>
	<node lat="68.39723891631346" lon="15.399315930578226" id="-22376">
		<tag k="name" v="Forneset" />
		<tag k="ssr:date" v="2020-09-15" />
		<tag k="ssr:gruppe" v="navigasjon" />
		<tag k="ssr:hovedgruppe" v="infrastruktur" />
		<tag k="ssr:stedsnr" v="624827" />
		<tag k="ssr:type" v="fyrlykt" />
	</node>
	<node lat="68.40858786579082" lon="15.781256447365482" id="-22428">
		<tag k="name" v="Svendsgam" />
		<tag k="old_name" v="Svensgam" />
		<tag k="ssr:date" v="2020-09-15" />
		<tag k="ssr:gruppe" v="navigasjon" />
		<tag k="ssr:hovedgruppe" v="infrastruktur" />
		<tag k="ssr:stedsnr" v="745300" />
		<tag k="ssr:type" v="fyrlykt" />
	</node>
	<node lat="68.5281333318172" lon="16.10988609938439" id="-22658">
		<tag k="name" v="Voran" />
		<tag k="ssr:date" v="2021-06-08" />
		<tag k="ssr:gruppe" v="sjøbunn" />
		<tag k="ssr:hovedgruppe" v="sjø" />
		<tag k="ssr:stedsnr" v="867782" />
		<tag k="ssr:type" v="ryggISjø" />
	</node>
	<node lat="68.34726944753241" lon="15.510188882703716" id="-22662">
		<tag k="loc_name:se" v="Vuogak;Voagak" />
		<tag k="name" v="Vestbygda" />
		<tag k="name:no" v="Vestbygda" />
		<tag k="ssr:date" v="2021-11-22" />
		<tag k="ssr:gruppe" v="terrengområder" />
		<tag k="ssr:hovedgruppe" v="terreng" />
		<tag k="ssr:stedsnr" v="870562" />
		<tag k="ssr:type" v="landskapsområde" />
	</node>
	<node lat="68.41139166817281" lon="15.852475008708025" id="-22703">
		<tag k="name" v="Kvaløyskjæret" />
		<tag k="ssr:date" v="2016-05-11" />
		<tag k="ssr:gruppe" v="navigasjon" />
		<tag k="ssr:hovedgruppe" v="infrastruktur" />
		<tag k="ssr:stedsnr" v="886440" />
		<tag k="ssr:type" v="fyrlykt" />
	</node>
	<node lat="68.4137382200077" lon="15.996240302785818" id="-22747">
		<tag k="name" v="Rådhusvegen" />
		<tag k="ssr:date" v="2019-05-30" />
		<tag k="ssr:gruppe" v="veg" />
		<tag k="ssr:hovedgruppe" v="infrastruktur" />
		<tag k="ssr:stedsnr" v="1000994" />
		<tag k="ssr:type" v="adressenavn" />
	</node>
	<node lat="68.40126876122038" lon="15.961123267125554" id="-22748">
		<tag k="name" v="Røyskattvegen" />
		<tag k="ssr:date" v="2019-05-30" />
		<tag k="ssr:gruppe" v="veg" />
		<tag k="ssr:hovedgruppe" v="infrastruktur" />
		<tag k="ssr:stedsnr" v="1000996" />
		<tag k="ssr:type" v="adressenavn" />
	</node>
	<node lat="68.41994705606521" lon="15.986779709836005" id="-22749">
		<tag k="name" v="Tjeldvegen" />
		<tag k="ssr:date" v="2019-05-30" />
		<tag k="ssr:gruppe" v="veg" />
		<tag k="ssr:hovedgruppe" v="infrastruktur" />
		<tag k="ssr:stedsnr" v="1000903" />
		<tag k="ssr:type" v="adressenavn" />
	</node>
	<node lat="68.41475601145883" lon="15.97966979702547" id="-22750">
		<tag k="name" v="Ørnvegen" />
		<tag k="ssr:date" v="2019-05-30" />
		<tag k="ssr:gruppe" v="veg" />
		<tag k="ssr:hovedgruppe" v="infrastruktur" />
		<tag k="ssr:stedsnr" v="1000913" />
		<tag k="ssr:type" v="adressenavn" />
	</node>
	<node lat="68.40847119573479" lon="15.983980785402844" id="-22751">
		<tag k="name" v="Skolevegen" />
		<tag k="ssr:date" v="2019-05-30" />
		<tag k="ssr:gruppe" v="veg" />
		<tag k="ssr:hovedgruppe" v="infrastruktur" />
		<tag k="ssr:stedsnr" v="1000943" />
		<tag k="ssr:type" v="adressenavn" />
	</node>
	<node lat="68.41046932839303" lon="15.99520101044201" id="-22752">
		<tag k="name" v="Solvegen" />
		<tag k="ssr:date" v="2019-05-30" />
		<tag k="ssr:gruppe" v="veg" />
		<tag k="ssr:hovedgruppe" v="infrastruktur" />
		<tag k="ssr:stedsnr" v="1000954" />
		<tag k="ssr:type" v="adressenavn" />
	</node>
	<node lat="68.41076141635133" lon="15.991132030691045" id="-22753">
		<tag k="name" v="Skarvegen" />
		<tag k="ssr:date" v="2019-05-30" />
		<tag k="ssr:gruppe" v="veg" />
		<tag k="ssr:hovedgruppe" v="infrastruktur" />
		<tag k="ssr:stedsnr" v="1001035" />
		<tag k="ssr:type" v="adressenavn" />
	</node>
	<node lat="68.40492747231184" lon="15.984897068119919" id="-22754">
		<tag k="name" v="Lyngvegen" />
		<tag k="ssr:date" v="2019-05-30" />
		<tag k="ssr:gruppe" v="veg" />
		<tag k="ssr:hovedgruppe" v="infrastruktur" />
		<tag k="ssr:stedsnr" v="1001060" />
		<tag k="ssr:type" v="adressenavn" />
	</node>
	<node lat="68.41009621887572" lon="15.988978266465773" id="-22755">
		<tag k="name" v="Ringvegen" />
		<tag k="ssr:date" v="2019-05-30" />
		<tag k="ssr:gruppe" v="veg" />
		<tag k="ssr:hovedgruppe" v="infrastruktur" />
		<tag k="ssr:stedsnr" v="1001121" />
		<tag k="ssr:type" v="adressenavn" />
	</node>
	<node lat="68.39919588572658" lon="15.96239386822245" id="-22756">
		<tag k="name" v="Reinvegen" />
		<tag k="ssr:date" v="2019-05-30" />
		<tag k="ssr:gruppe" v="veg" />
		<tag k="ssr:hovedgruppe" v="infrastruktur" />
		<tag k="ssr:stedsnr" v="1001124" />
		<tag k="ssr:type" v="adressenavn" />
	</node>
	<node lat="68.40896718751345" lon="15.992824203394942" id="-22757">
		<tag k="name" v="Oldervegen" />
		<tag k="ssr:date" v="2019-05-30" />
		<tag k="ssr:gruppe" v="veg" />
		<tag k="ssr:hovedgruppe" v="infrastruktur" />
		<tag k="ssr:stedsnr" v="1001136" />
		<tag k="ssr:type" v="adressenavn" />
	</node>
	<node lat="68.39570226878791" lon="15.959687750913728" id="-22758">
		<tag k="name" v="Otervegen" />
		<tag k="ssr:date" v="2019-05-30" />
		<tag k="ssr:gruppe" v="veg" />
		<tag k="ssr:hovedgruppe" v="infrastruktur" />
		<tag k="ssr:stedsnr" v="1001138" />
		<tag k="ssr:type" v="adressenavn" />
	</node>
	<node lat="68.40986951914823" lon="15.988225309510756" id="-22759">
		<tag k="name" v="Seljevegen" />
		<tag k="ssr:date" v="2019-05-30" />
		<tag k="ssr:gruppe" v="veg" />
		<tag k="ssr:hovedgruppe" v="infrastruktur" />
		<tag k="ssr:stedsnr" v="1001005" />
		<tag k="ssr:type" v="adressenavn" />
	</node>
	<node lat="68.41770924876595" lon="15.989788674170283" id="-22760">
		<tag k="name" v="Rypevegen" />
		<tag k="ssr:date" v="2019-05-30" />
		<tag k="ssr:gruppe" v="veg" />
		<tag k="ssr:hovedgruppe" v="infrastruktur" />
		<tag k="ssr:stedsnr" v="1001009" />
		<tag k="ssr:type" v="adressenavn" />
	</node>
	<node lat="68.4153921381619" lon="15.985141861887065" id="-22761">
		<tag k="name" v="Måkevegen" />
		<tag k="ssr:date" v="2019-05-30" />
		<tag k="ssr:gruppe" v="veg" />
		<tag k="ssr:hovedgruppe" v="infrastruktur" />
		<tag k="ssr:stedsnr" v="1001103" />
		<tag k="ssr:type" v="adressenavn" />
	</node>
	<node lat="68.40747288910119" lon="15.989040248126623" id="-22762">
		<tag k="name" v="Kløvervegen" />
		<tag k="ssr:date" v="2019-05-30" />
		<tag k="ssr:gruppe" v="veg" />
		<tag k="ssr:hovedgruppe" v="infrastruktur" />
		<tag k="ssr:stedsnr" v="1001306" />
		<tag k="ssr:type" v="adressenavn" />
	</node>
	<node lat="68.41205479569778" lon="15.979416759169629" id="-22763">
		<tag k="name" v="Granittvegen" />
		<tag k="ssr:date" v="2019-05-30" />
		<tag k="ssr:gruppe" v="veg" />
		<tag k="ssr:hovedgruppe" v="infrastruktur" />
		<tag k="ssr:stedsnr" v="1001386" />
		<tag k="ssr:type" v="adressenavn" />
	</node>
	<node lat="68.40807533460195" lon="15.981771385658082" id="-22764">
		<tag k="name" v="Langbakken" />
		<tag k="ssr:date" v="2019-05-30" />
		<tag k="ssr:gruppe" v="veg" />
		<tag k="ssr:hovedgruppe" v="infrastruktur" />
		<tag k="ssr:stedsnr" v="1001347" />
		<tag k="ssr:type" v="adressenavn" />
	</node>
	<node lat="68.41272763013936" lon="15.992050967964296" id="-22765">
		<tag k="name" v="Kvartsvegen" />
		<tag k="ssr:date" v="2019-05-30" />
		<tag k="ssr:gruppe" v="veg" />
		<tag k="ssr:hovedgruppe" v="infrastruktur" />
		<tag k="ssr:stedsnr" v="1001356" />
		<tag k="ssr:type" v="adressenavn" />
	</node>
	<node lat="68.42023519984586" lon="15.988507618274745" id="-22766">
		<tag k="name" v="Lerkevegen" />
		<tag k="ssr:date" v="2019-05-30" />
		<tag k="ssr:gruppe" v="veg" />
		<tag k="ssr:hovedgruppe" v="infrastruktur" />
		<tag k="ssr:stedsnr" v="1001362" />
		<tag k="ssr:type" v="adressenavn" />
	</node>
	<node lat="68.41778213949105" lon="15.982458520292546" id="-22767">
		<tag k="name" v="Lomvegen" />
		<tag k="ssr:date" v="2019-05-30" />
		<tag k="ssr:gruppe" v="veg" />
		<tag k="ssr:hovedgruppe" v="infrastruktur" />
		<tag k="ssr:stedsnr" v="1001363" />
		<tag k="ssr:type" v="adressenavn" />
	</node>
	<node lat="68.41506107899303" lon="15.987709675773443" id="-22768">
		<tag k="name" v="Elvebakken" />
		<tag k="ssr:date" v="2019-05-30" />
		<tag k="ssr:gruppe" v="veg" />
		<tag k="ssr:hovedgruppe" v="infrastruktur" />
		<tag k="ssr:stedsnr" v="1001438" />
		<tag k="ssr:type" v="adressenavn" />
	</node>
	<node lat="68.39750461662317" lon="15.960133893280101" id="-22769">
		<tag k="name" v="Elgvegen" />
		<tag k="ssr:date" v="2019-05-30" />
		<tag k="ssr:gruppe" v="veg" />
		<tag k="ssr:hovedgruppe" v="infrastruktur" />
		<tag k="ssr:stedsnr" v="1001442" />
		<tag k="ssr:type" v="adressenavn" />
	</node>
	<node lat="68.4064478052075" lon="15.985530416219667" id="-22770">
		<tag k="name" v="Einervegen" />
		<tag k="ssr:date" v="2019-05-30" />
		<tag k="ssr:gruppe" v="veg" />
		<tag k="ssr:hovedgruppe" v="infrastruktur" />
		<tag k="ssr:stedsnr" v="1001461" />
		<tag k="ssr:type" v="adressenavn" />
	</node>
	<node lat="68.41009601277196" lon="15.981994211835739" id="-22771">
		<tag k="name" v="Hatten" />
		<tag k="ssr:date" v="2019-05-30" />
		<tag k="ssr:gruppe" v="veg" />
		<tag k="ssr:hovedgruppe" v="infrastruktur" />
		<tag k="ssr:stedsnr" v="1001409" />
		<tag k="ssr:type" v="adressenavn" />
	</node>
	<node lat="68.40885991820132" lon="15.983300867904294" id="-22772">
		<tag k="name" v="Fjellvegen" />
		<tag k="ssr:date" v="2019-05-30" />
		<tag k="ssr:gruppe" v="veg" />
		<tag k="ssr:hovedgruppe" v="infrastruktur" />
		<tag k="ssr:stedsnr" v="1001489" />
		<tag k="ssr:type" v="adressenavn" />
	</node>
	<node lat="68.41213315665931" lon="15.997759145399405" id="-22773">
		<tag k="name" v="Fyrvegen" />
		<tag k="ssr:date" v="2019-05-30" />
		<tag k="ssr:gruppe" v="veg" />
		<tag k="ssr:hovedgruppe" v="infrastruktur" />
		<tag k="ssr:stedsnr" v="1001497" />
		<tag k="ssr:type" v="adressenavn" />
	</node>
	<node lat="68.40889210351023" lon="15.98584821578443" id="-22774">
		<tag k="name" v="Furuvegen" />
		<tag k="ssr:date" v="2019-05-30" />
		<tag k="ssr:gruppe" v="veg" />
		<tag k="ssr:hovedgruppe" v="infrastruktur" />
		<tag k="ssr:stedsnr" v="1001505" />
		<tag k="ssr:type" v="adressenavn" />
	</node>
	<node lat="68.46817188619055" lon="15.89361520707453" id="-22775">
		<tag k="name" v="Vestbygdvegen" />
		<tag k="ssr:date" v="2019-05-30" />
		<tag k="ssr:gruppe" v="veg" />
		<tag k="ssr:hovedgruppe" v="infrastruktur" />
		<tag k="ssr:stedsnr" v="1026797" />
		<tag k="ssr:type" v="adressenavn" />
	</node>
	<node lat="68.46493087380883" lon="15.438128888491839" id="-22776">
		<tag k="name" v="Lofotvegen" />
		<tag k="ssr:date" v="2019-05-30" />
		<tag k="ssr:gruppe" v="veg" />
		<tag k="ssr:hovedgruppe" v="infrastruktur" />
		<tag k="ssr:stedsnr" v="1026799" />
		<tag k="ssr:type" v="adressenavn" />
	</node>
	<node lat="68.4248416050853" lon="15.833284354638797" id="-22777">
		<tag k="name" v="Erikstadvegen" />
		<tag k="ssr:date" v="2019-05-30" />
		<tag k="ssr:gruppe" v="veg" />
		<tag k="ssr:hovedgruppe" v="infrastruktur" />
		<tag k="ssr:stedsnr" v="1026801" />
		<tag k="ssr:type" v="adressenavn" />
	</node>
	<node lat="68.46673477103286" lon="15.899769495736633" id="-22778">
		<tag k="name" v="Austre Kanstad-vegen" />
		<tag k="ssr:date" v="2019-05-30" />
		<tag k="ssr:gruppe" v="veg" />
		<tag k="ssr:hovedgruppe" v="infrastruktur" />
		<tag k="ssr:stedsnr" v="1026802" />
		<tag k="ssr:type" v="adressenavn" />
	</node>
	<node lat="68.39904620452832" lon="15.9411451650844" id="-22779">
		<tag k="name" v="Nesvegen" />
		<tag k="ssr:date" v="2019-05-30" />
		<tag k="ssr:gruppe" v="veg" />
		<tag k="ssr:hovedgruppe" v="infrastruktur" />
		<tag k="ssr:stedsnr" v="1026805" />
		<tag k="ssr:type" v="adressenavn" />
	</node>
	<node lat="68.52806353477891" lon="15.82118115247851" id="-22780">
		<tag k="name" v="Kanstadvegen" />
		<tag k="ssr:date" v="2019-05-30" />
		<tag k="ssr:gruppe" v="veg" />
		<tag k="ssr:hovedgruppe" v="infrastruktur" />
		<tag k="ssr:stedsnr" v="1026806" />
		<tag k="ssr:type" v="adressenavn" />
	</node>
	<node lat="68.4417749766814" lon="16.006253656216902" id="-22781">
		<tag k="name" v="Kåringsvegen" />
		<tag k="ssr:date" v="2019-05-30" />
		<tag k="ssr:gruppe" v="veg" />
		<tag k="ssr:hovedgruppe" v="infrastruktur" />
		<tag k="ssr:stedsnr" v="1026807" />
		<tag k="ssr:type" v="adressenavn" />
	</node>
	<node lat="68.42005585045129" lon="15.993724768053852" id="-22782">
		<tag k="name" v="Strandtindvegen" />
		<tag k="ssr:date" v="2019-05-30" />
		<tag k="ssr:gruppe" v="veg" />
		<tag k="ssr:hovedgruppe" v="infrastruktur" />
		<tag k="ssr:stedsnr" v="1026809" />
		<tag k="ssr:type" v="adressenavn" />
	</node>
	<node lat="68.42313186902842" lon="15.389393465852947" id="-22783">
		<tag k="name" v="Limskjelvika" />
		<tag k="ssr:date" v="2019-05-30" />
		<tag k="ssr:gruppe" v="veg" />
		<tag k="ssr:hovedgruppe" v="infrastruktur" />
		<tag k="ssr:stedsnr" v="1026815" />
		<tag k="ssr:type" v="adressenavn" />
	</node>
	<node lat="68.39636191713205" lon="15.32567690444178" id="-22784">
		<tag k="name" v="Svartskardet" />
		<tag k="ssr:date" v="2019-05-30" />
		<tag k="ssr:gruppe" v="veg" />
		<tag k="ssr:hovedgruppe" v="infrastruktur" />
		<tag k="ssr:stedsnr" v="1026816" />
		<tag k="ssr:type" v="adressenavn" />
	</node>
	<node lat="68.46532564458397" lon="15.471216174074804" id="-22785">
		<tag k="name" v="Sommarset" />
		<tag k="ssr:date" v="2019-05-30" />
		<tag k="ssr:gruppe" v="veg" />
		<tag k="ssr:hovedgruppe" v="infrastruktur" />
		<tag k="ssr:stedsnr" v="1026817" />
		<tag k="ssr:type" v="adressenavn" />
	</node>
	<node lat="68.42732578018936" lon="15.431398481537048" id="-22786">
		<tag k="name" v="Bjerknes" />
		<tag k="ssr:date" v="2019-05-30" />
		<tag k="ssr:gruppe" v="veg" />
		<tag k="ssr:hovedgruppe" v="infrastruktur" />
		<tag k="ssr:stedsnr" v="1026819" />
		<tag k="ssr:type" v="adressenavn" />
	</node>
	<node lat="68.50772079665325" lon="15.882795522534837" id="-22787">
		<tag k="name" v="Kanstadbotnen" />
		<tag k="ssr:date" v="2019-05-30" />
		<tag k="ssr:gruppe" v="veg" />
		<tag k="ssr:hovedgruppe" v="infrastruktur" />
		<tag k="ssr:stedsnr" v="1026820" />
		<tag k="ssr:type" v="adressenavn" />
	</node>
	<node lat="68.36122730888061" lon="15.41364332219985" id="-22788">
		<tag k="name" v="Forrnesvegen" />
		<tag k="ssr:date" v="2019-05-30" />
		<tag k="ssr:gruppe" v="veg" />
		<tag k="ssr:hovedgruppe" v="infrastruktur" />
		<tag k="ssr:stedsnr" v="1026822" />
		<tag k="ssr:type" v="adressenavn" />
	</node>
	<node lat="68.36860159273076" lon="15.245250190713517" id="-22789">
		<tag k="name" v="Kvannkjosen" />
		<tag k="ssr:date" v="2019-05-30" />
		<tag k="ssr:gruppe" v="veg" />
		<tag k="ssr:hovedgruppe" v="infrastruktur" />
		<tag k="ssr:stedsnr" v="1026824" />
		<tag k="ssr:type" v="adressenavn" />
	</node>
	<node lat="68.43137732418664" lon="15.821785845748408" id="-22790">
		<tag k="name" v="Erikstadfjorden" />
		<tag k="ssr:date" v="2019-05-30" />
		<tag k="ssr:gruppe" v="veg" />
		<tag k="ssr:hovedgruppe" v="infrastruktur" />
		<tag k="ssr:stedsnr" v="1026826" />
		<tag k="ssr:type" v="adressenavn" />
	</node>
	<node lat="68.34726044669614" lon="15.510249347186214" id="-22791">
		<tag k="name" v="Vågevegen" />
		<tag k="ssr:date" v="2019-05-30" />
		<tag k="ssr:gruppe" v="veg" />
		<tag k="ssr:hovedgruppe" v="infrastruktur" />
		<tag k="ssr:stedsnr" v="1026827" />
		<tag k="ssr:type" v="adressenavn" />
	</node>
	<node lat="68.32346749311593" lon="15.623698675101922" id="-22792">
		<tag k="name" v="Vestøyvegen" />
		<tag k="ssr:date" v="2019-05-30" />
		<tag k="ssr:gruppe" v="veg" />
		<tag k="ssr:hovedgruppe" v="infrastruktur" />
		<tag k="ssr:stedsnr" v="1026828" />
		<tag k="ssr:type" v="adressenavn" />
	</node>
	<node lat="68.33799015524062" lon="15.65852137603232" id="-22793">
		<tag k="name" v="Ytterstadvegen" />
		<tag k="ssr:date" v="2019-05-30" />
		<tag k="ssr:gruppe" v="veg" />
		<tag k="ssr:hovedgruppe" v="infrastruktur" />
		<tag k="ssr:stedsnr" v="1026836" />
		<tag k="ssr:type" v="adressenavn" />
	</node>
	<node lat="68.43449402461576" lon="15.499362553703124" id="-22794">
		<tag k="name" v="Husjorda" />
		<tag k="ssr:date" v="2019-05-30" />
		<tag k="ssr:gruppe" v="veg" />
		<tag k="ssr:hovedgruppe" v="infrastruktur" />
		<tag k="ssr:stedsnr" v="1026849" />
		<tag k="ssr:type" v="adressenavn" />
	</node>
	<node lat="68.35530579270214" lon="15.435832649684375" id="-22795">
		<tag k="name" v="Annfinnslettvegen" />
		<tag k="ssr:date" v="2019-05-30" />
		<tag k="ssr:gruppe" v="veg" />
		<tag k="ssr:hovedgruppe" v="infrastruktur" />
		<tag k="ssr:stedsnr" v="1026830" />
		<tag k="ssr:type" v="adressenavn" />
	</node>
	<node lat="68.35592186479627" lon="15.504776740047049" id="-22796">
		<tag k="name" v="Bresjevegen" />
		<tag k="ssr:date" v="2019-05-30" />
		<tag k="ssr:gruppe" v="veg" />
		<tag k="ssr:hovedgruppe" v="infrastruktur" />
		<tag k="ssr:stedsnr" v="1026831" />
		<tag k="ssr:type" v="adressenavn" />
	</node>
	<node lat="68.36862553375047" lon="15.71476359732758" id="-22797">
		<tag k="name" v="Rinøyvegen" />
		<tag k="ssr:date" v="2019-05-30" />
		<tag k="ssr:gruppe" v="veg" />
		<tag k="ssr:hovedgruppe" v="infrastruktur" />
		<tag k="ssr:stedsnr" v="1026832" />
		<tag k="ssr:type" v="adressenavn" />
	</node>
	<node lat="68.40923336315613" lon="15.834585667571874" id="-22798">
		<tag k="name" v="Svensgamvegen" />
		<tag k="ssr:date" v="2019-05-30" />
		<tag k="ssr:gruppe" v="veg" />
		<tag k="ssr:hovedgruppe" v="infrastruktur" />
		<tag k="ssr:stedsnr" v="1026833" />
		<tag k="ssr:type" v="adressenavn" />
	</node>
	<node lat="68.3279945394313" lon="15.619889372070302" id="-22799">
		<tag k="name" v="Offersøyvegen" />
		<tag k="ssr:date" v="2019-05-30" />
		<tag k="ssr:gruppe" v="veg" />
		<tag k="ssr:hovedgruppe" v="infrastruktur" />
		<tag k="ssr:stedsnr" v="1026835" />
		<tag k="ssr:type" v="adressenavn" />
	</node>
	<node lat="68.41752252862769" lon="16.015250860199938" id="-22809">
		<tag k="name" v="Hamnskallen lysbøye" />
		<tag k="ssr:date" v="2020-03-24" />
		<tag k="ssr:gruppe" v="navigasjon" />
		<tag k="ssr:hovedgruppe" v="infrastruktur" />
		<tag k="ssr:stedsnr" v="1076166" />
		<tag k="ssr:type" v="lysbøye" />
	</node>
	<node lat="68.41315531353521" lon="15.982229184513825" id="-22816">
		<tag k="name" v="Nygårdsfjellet" />
		<tag k="ssr:date" v="2021-02-26" />
		<tag k="ssr:gruppe" v="veg" />
		<tag k="ssr:hovedgruppe" v="infrastruktur" />
		<tag k="ssr:stedsnr" v="1080151" />
		<tag k="ssr:type" v="adressenavn" />
	</node>
	<node lat="68.38371187394195" lon="15.882153150038281" id="-22817">
		<tag k="name" v="Moen" />
		<tag k="ssr:date" v="2021-02-26" />
		<tag k="ssr:gruppe" v="veg" />
		<tag k="ssr:hovedgruppe" v="infrastruktur" />
		<tag k="ssr:stedsnr" v="1080152" />
		<tag k="ssr:type" v="adressenavn" />
	</node>
	<node lat="68.3841701025122" lon="15.889738949480742" id="-22818">
		<tag k="name" v="Korsvikvegen" />
		<tag k="ssr:date" v="2021-02-26" />
		<tag k="ssr:gruppe" v="veg" />
		<tag k="ssr:hovedgruppe" v="infrastruktur" />
		<tag k="ssr:stedsnr" v="1080156" />
		<tag k="ssr:type" v="adressenavn" />
	</node>
	<node lat="68.39966797335538" lon="15.875111768733118" id="-22819">
		<tag k="name" v="Inner Neshamn-vegen" />
		<tag k="ssr:date" v="2021-02-26" />
		<tag k="ssr:gruppe" v="veg" />
		<tag k="ssr:hovedgruppe" v="infrastruktur" />
		<tag k="ssr:stedsnr" v="1080154" />
		<tag k="ssr:type" v="adressenavn" />
	</node>
	<node lat="68.39095228046084" lon="15.895566144881936" id="-22820">
		<tag k="name" v="Stormyra" />
		<tag k="ssr:date" v="2021-02-26" />
		<tag k="ssr:gruppe" v="veg" />
		<tag k="ssr:hovedgruppe" v="infrastruktur" />
		<tag k="ssr:stedsnr" v="1080155" />
		<tag k="ssr:type" v="adressenavn" />
	</node>
	<node lat="68.4036782676911" lon="15.879854663275214" id="-22821">
		<tag k="name" v="Ytter Neshamn-vegen" />
		<tag k="ssr:date" v="2021-02-26" />
		<tag k="ssr:gruppe" v="veg" />
		<tag k="ssr:hovedgruppe" v="infrastruktur" />
		<tag k="ssr:stedsnr" v="1080158" />
		<tag k="ssr:type" v="adressenavn" />
	</node>
	<node lat="68.3956512441911" lon="15.868269867612664" id="-22822">
		<tag k="name" v="Rødberghaugen" />
		<tag k="ssr:date" v="2021-02-26" />
		<tag k="ssr:gruppe" v="veg" />
		<tag k="ssr:hovedgruppe" v="infrastruktur" />
		<tag k="ssr:stedsnr" v="1080157" />
		<tag k="ssr:type" v="adressenavn" />
	</node>
</osm>
