<?xml version="1.0" encoding="UTF-8"?>
<osm generator="osmapis" version="0.6">
	<node id="-483601" lat="60.610516669" lon="4.94607778188">
		<tag k="alt_name" v="Skjeljanger" />
		<tag k="name" v="Skjeljanger fyr" />
		<tag k="ssr:date" v="2016-05-10" />
		<tag k="ssr:gruppe" v="navigasjon" />
		<tag k="ssr:hovedgruppe" v="infrastruktur" />
		<tag k="ssr:stedsnr" v="673946" />
		<tag k="ssr:type" v="fyrlykt" />
	</node>
	<node id="-483195" lat="60.5961833341" lon="4.96905000653">
		<tag k="alt_name" v="Ringholmsundet" />
		<tag k="name" v="Ringholmsundet lykt" />
		<tag k="ssr:date" v="2016-05-10" />
		<tag k="ssr:gruppe" v="navigasjon" />
		<tag k="ssr:hovedgruppe" v="infrastruktur" />
		<tag k="ssr:stedsnr" v="85627" />
		<tag k="ssr:type" v="fyrlykt" />
	</node>
	<node id="-483641" lat="60.591536112" lon="5.14999444464">
		<tag k="alt_name" v="Vardneset" />
		<tag k="name" v="Vardneset lykt" />
		<tag k="ssr:date" v="2016-05-11" />
		<tag k="ssr:gruppe" v="navigasjon" />
		<tag k="ssr:hovedgruppe" v="infrastruktur" />
		<tag k="ssr:stedsnr" v="721120" />
		<tag k="ssr:type" v="fyrlykt" />
	</node>
	<node id="-483768" lat="60.6056805588" lon="4.94749166607">
		<tag k="name" v="Storskjeret" />
		<tag k="ssr:date" v="2016-05-11" />
		<tag k="ssr:gruppe" v="navigasjon" />
		<tag k="ssr:hovedgruppe" v="infrastruktur" />
		<tag k="ssr:stedsnr" v="856957" />
		<tag k="ssr:type" v="fyrlykt" />
	</node>
	<node id="-483369" lat="60.5415594733" lon="5.27780600017">
		<tag k="alt_name" v="Hagelsund" />
		<tag k="name" v="Hagelsund lykt" />
		<tag k="ssr:date" v="2019-04-01" />
		<tag k="ssr:gruppe" v="navigasjon" />
		<tag k="ssr:hovedgruppe" v="infrastruktur" />
		<tag k="ssr:stedsnr" v="419333" />
		<tag k="ssr:type" v="fyrlykt" />
	</node>
	<node id="-483819" lat="60.8816104596" lon="6.30047518531">
		<tag k="name" v="Vestlandet" />
		<tag k="ssr:date" v="2019-01-06" />
		<tag k="ssr:gruppe" v="administrativeIndelinger" />
		<tag k="ssr:hovedgruppe" v="offentligAdministrasjon" />
		<tag k="ssr:stedsnr" v="974777" />
		<tag k="ssr:type" v="annenAdministrativInndeling" />
	</node>
	<node id="-482994" lat="60.5512188724" lon="5.23780952652">
		<tag k="name" v="Ospholmen" />
		<tag k="ssr:date" v="2019-05-31" />
		<tag k="ssr:gruppe" v="veg" />
		<tag k="ssr:hovedgruppe" v="infrastruktur" />
		<tag k="ssr:stedsnr" v="1041268" />
		<tag k="ssr:type" v="adressenavn" />
	</node>
	<node id="-482993" lat="60.5425881657" lon="5.26323564468">
		<tag k="name" v="Osterfjordvegen" />
		<tag k="ssr:date" v="2019-05-31" />
		<tag k="ssr:gruppe" v="veg" />
		<tag k="ssr:hovedgruppe" v="infrastruktur" />
		<tag k="ssr:stedsnr" v="1041037" />
		<tag k="ssr:type" v="adressenavn" />
	</node>
	<node id="-482992" lat="60.5841432721" lon="4.99491358776">
		<tag k="name" v="Skorpo" />
		<tag k="ssr:date" v="2019-05-31" />
		<tag k="ssr:gruppe" v="veg" />
		<tag k="ssr:hovedgruppe" v="infrastruktur" />
		<tag k="ssr:stedsnr" v="1040707" />
		<tag k="ssr:type" v="adressenavn" />
	</node>
	<node id="-482991" lat="60.5902772719" lon="5.13221622666">
		<tag k="name" v="Ådlandsvågen" />
		<tag k="ssr:date" v="2019-05-31" />
		<tag k="ssr:gruppe" v="veg" />
		<tag k="ssr:hovedgruppe" v="infrastruktur" />
		<tag k="ssr:stedsnr" v="1040705" />
		<tag k="ssr:type" v="adressenavn" />
	</node>
	<node id="-482990" lat="60.5463222395" lon="5.26186644847">
		<tag k="name" v="Skjeljevikane" />
		<tag k="ssr:date" v="2019-05-31" />
		<tag k="ssr:gruppe" v="veg" />
		<tag k="ssr:hovedgruppe" v="infrastruktur" />
		<tag k="ssr:stedsnr" v="1040702" />
		<tag k="ssr:type" v="adressenavn" />
	</node>
	<node id="-482989" lat="60.5300741403" lon="5.12777115529">
		<tag k="name" v="Laksevika" />
		<tag k="ssr:date" v="2019-05-31" />
		<tag k="ssr:gruppe" v="veg" />
		<tag k="ssr:hovedgruppe" v="infrastruktur" />
		<tag k="ssr:stedsnr" v="1040687" />
		<tag k="ssr:type" v="adressenavn" />
	</node>
	<node id="-482988" lat="60.5958209602" lon="4.99640842103">
		<tag k="name" v="Sætreviksmarka" />
		<tag k="ssr:date" v="2019-05-31" />
		<tag k="ssr:gruppe" v="veg" />
		<tag k="ssr:hovedgruppe" v="infrastruktur" />
		<tag k="ssr:stedsnr" v="1040662" />
		<tag k="ssr:type" v="adressenavn" />
	</node>
	<node id="-483307" lat="60.5651277787" lon="4.9871138932">
		<tag k="name" v="Det naua" />
		<tag k="ssr:date" v="2016-05-10" />
		<tag k="ssr:gruppe" v="navigasjon" />
		<tag k="ssr:hovedgruppe" v="infrastruktur" />
		<tag k="ssr:stedsnr" v="268997" />
		<tag k="ssr:type" v="fyrlykt" />
	</node>
	<node id="-482986" lat="60.5552075202" lon="5.01060205838">
		<tag k="name" v="Øpso" />
		<tag k="ssr:date" v="2019-05-31" />
		<tag k="ssr:gruppe" v="veg" />
		<tag k="ssr:hovedgruppe" v="infrastruktur" />
		<tag k="ssr:stedsnr" v="1040657" />
		<tag k="ssr:type" v="adressenavn" />
	</node>
	<node id="-483561" lat="60.610513892" lon="4.94608610505">
		<tag k="alt_name" v="Skjeljanger" />
		<tag k="name" v="Skjeljanger lykt" />
		<tag k="ssr:date" v="2016-05-10" />
		<tag k="ssr:gruppe" v="navigasjon" />
		<tag k="ssr:hovedgruppe" v="infrastruktur" />
		<tag k="ssr:stedsnr" v="651119" />
		<tag k="ssr:type" v="fyrlykt" />
	</node>
	<node id="-483238" lat="60.5946333344" lon="4.96280555286">
		<tag k="alt_name" v="Ringholmen" />
		<tag k="name" v="Ringholmen lykt" />
		<tag k="ssr:date" v="2016-05-10" />
		<tag k="ssr:gruppe" v="navigasjon" />
		<tag k="ssr:hovedgruppe" v="infrastruktur" />
		<tag k="ssr:stedsnr" v="127939" />
		<tag k="ssr:type" v="fyrlykt" />
	</node>
	<node id="-483301" lat="60.5177722245" lon="5.24065555848">
		<tag k="alt_name" v="Meland" />
		<tag k="name" v="Meland kommune" />
		<tag k="ssr:date" v="2019-05-07" />
		<tag k="ssr:gruppe" v="administrativeIndelinger" />
		<tag k="ssr:hovedgruppe" v="offentligAdministrasjon" />
		<tag k="ssr:stedsnr" v="206148" />
		<tag k="ssr:type" v="kommune" />
	</node>
	<node id="-483779" lat="60.5992277753" lon="5.13745000308">
		<tag k="name" v="Sæbøfluna" />
		<tag k="ssr:date" v="2016-05-11" />
		<tag k="ssr:gruppe" v="navigasjon" />
		<tag k="ssr:hovedgruppe" v="infrastruktur" />
		<tag k="ssr:stedsnr" v="935663" />
		<tag k="ssr:type" v="fyrlykt" />
	</node>
	<node id="-482987" lat="60.5990072125" lon="5.08415108624">
		<tag k="name" v="Havrevågen" />
		<tag k="ssr:date" v="2019-05-31" />
		<tag k="ssr:gruppe" v="veg" />
		<tag k="ssr:hovedgruppe" v="infrastruktur" />
		<tag k="ssr:stedsnr" v="1040659" />
		<tag k="ssr:type" v="adressenavn" />
	</node>
</osm>
