<?xml version="1.0" encoding="UTF-8"?>
<osm version="0.6" generator="osmapis">
	<node lat="69.95485171076882" lon="23.20941068446918" id="-95239">
		<tag k="name" v="Kongsvikveien" />
		<tag k="ssr:date" v="2019-12-27" />
		<tag k="ssr:gruppe" v="veg" />
		<tag k="ssr:hovedgruppe" v="infrastruktur" />
		<tag k="ssr:stedsnr" v="25579" />
		<tag k="ssr:type" v="adressenavn" />
	</node>
	<node lat="69.96716217992198" lon="23.331531719139722" id="-95248">
		<tag k="name" v="Krøkebærveien" />
		<tag k="ssr:date" v="2019-12-27" />
		<tag k="ssr:gruppe" v="veg" />
		<tag k="ssr:hovedgruppe" v="infrastruktur" />
		<tag k="ssr:stedsnr" v="26202" />
		<tag k="ssr:type" v="adressenavn" />
	</node>
	<node lat="69.97412875123301" lon="23.366453353800427" id="-95249">
		<tag k="name" v="Skipper Wirkolas vei" />
		<tag k="ssr:date" v="2019-12-27" />
		<tag k="ssr:gruppe" v="veg" />
		<tag k="ssr:hovedgruppe" v="infrastruktur" />
		<tag k="ssr:stedsnr" v="26216" />
		<tag k="ssr:type" v="adressenavn" />
	</node>
	<node lat="69.97207036869221" lon="23.261214329182092" id="-95250">
		<tag k="name" v="Balders vei" />
		<tag k="ssr:date" v="2019-12-27" />
		<tag k="ssr:gruppe" v="veg" />
		<tag k="ssr:hovedgruppe" v="infrastruktur" />
		<tag k="ssr:stedsnr" v="26222" />
		<tag k="ssr:type" v="adressenavn" />
	</node>
	<node lat="69.93881732519836" lon="23.182519874180482" id="-95253">
		<tag k="name" v="Skogstadveien" />
		<tag k="ssr:date" v="2019-12-27" />
		<tag k="ssr:gruppe" v="veg" />
		<tag k="ssr:hovedgruppe" v="infrastruktur" />
		<tag k="ssr:stedsnr" v="26491" />
		<tag k="ssr:type" v="adressenavn" />
	</node>
	<node lat="69.96111621410316" lon="23.408857133543943" id="-95257">
		<tag k="name" v="Tørrfossbakken" />
		<tag k="ssr:date" v="2019-12-27" />
		<tag k="ssr:gruppe" v="veg" />
		<tag k="ssr:hovedgruppe" v="infrastruktur" />
		<tag k="ssr:stedsnr" v="33164" />
		<tag k="ssr:type" v="adressenavn" />
	</node>
	<node lat="69.96670446285856" lon="23.36183006265588" id="-95258">
		<tag k="name" v="Knottveien" />
		<tag k="ssr:date" v="2019-12-27" />
		<tag k="ssr:gruppe" v="veg" />
		<tag k="ssr:hovedgruppe" v="infrastruktur" />
		<tag k="ssr:stedsnr" v="33169" />
		<tag k="ssr:type" v="adressenavn" />
	</node>
	<node lat="69.9729336742917" lon="23.266238560135108" id="-95324">
		<tag k="name" v="Breidablikk" />
		<tag k="ssr:date" v="2019-12-27" />
		<tag k="ssr:gruppe" v="veg" />
		<tag k="ssr:hovedgruppe" v="infrastruktur" />
		<tag k="ssr:stedsnr" v="86187" />
		<tag k="ssr:type" v="adressenavn" />
	</node>
	<node lat="69.96441616969133" lon="23.27106671767371" id="-95326">
		<tag k="name" v="Bjørn Wirkolas vei" />
		<tag k="ssr:date" v="2019-12-27" />
		<tag k="ssr:gruppe" v="veg" />
		<tag k="ssr:hovedgruppe" v="infrastruktur" />
		<tag k="ssr:stedsnr" v="86606" />
		<tag k="ssr:type" v="adressenavn" />
	</node>
	<node lat="69.97746119773684" lon="23.297705904736894" id="-95384">
		<tag k="name" v="Fjellveien" />
		<tag k="ssr:date" v="2019-12-27" />
		<tag k="ssr:gruppe" v="veg" />
		<tag k="ssr:hovedgruppe" v="infrastruktur" />
		<tag k="ssr:stedsnr" v="146177" />
		<tag k="ssr:type" v="adressenavn" />
	</node>
	<node lat="69.96097330632655" lon="23.375788336893415" id="-95397">
		<tag k="name" v="Heggveien" />
		<tag k="ssr:date" v="2019-12-27" />
		<tag k="ssr:gruppe" v="veg" />
		<tag k="ssr:hovedgruppe" v="infrastruktur" />
		<tag k="ssr:stedsnr" v="147073" />
		<tag k="ssr:type" v="adressenavn" />
	</node>
	<node lat="69.96795459074448" lon="23.25850186730209" id="-95398">
		<tag k="name" v="Nordre Ringvei" />
		<tag k="ssr:date" v="2019-12-27" />
		<tag k="ssr:gruppe" v="veg" />
		<tag k="ssr:hovedgruppe" v="infrastruktur" />
		<tag k="ssr:stedsnr" v="147213" />
		<tag k="ssr:type" v="adressenavn" />
	</node>
	<node lat="69.96615023705772" lon="23.25656480588671" id="-95399">
		<tag k="name" v="Myrsethveien" />
		<tag k="ssr:date" v="2019-12-27" />
		<tag k="ssr:gruppe" v="veg" />
		<tag k="ssr:hovedgruppe" v="infrastruktur" />
		<tag k="ssr:stedsnr" v="147215" />
		<tag k="ssr:type" v="adressenavn" />
	</node>
	<node lat="69.96052356811197" lon="23.239442050291824" id="-95406">
		<tag k="name" v="Idrettsveien" />
		<tag k="ssr:date" v="2019-12-27" />
		<tag k="ssr:gruppe" v="veg" />
		<tag k="ssr:hovedgruppe" v="infrastruktur" />
		<tag k="ssr:stedsnr" v="147565" />
		<tag k="ssr:type" v="adressenavn" />
	</node>
	<node lat="69.93016002357672" lon="23.257943055253204" id="-95408">
		<tag k="name" v="Kautokeinoveien" />
		<tag k="ssr:date" v="2019-12-27" />
		<tag k="ssr:gruppe" v="veg" />
		<tag k="ssr:hovedgruppe" v="infrastruktur" />
		<tag k="ssr:stedsnr" v="147575" />
		<tag k="ssr:type" v="adressenavn" />
	</node>
	<node lat="70.33150738991412" lon="23.446663713094033" id="-95415">
		<tag k="name" v="Vargsundet" />
		<tag k="old_name" v="Vargnes Lykt" />
		<tag k="ssr:date" v="2021-01-05" />
		<tag k="ssr:gruppe" v="navigasjon" />
		<tag k="ssr:hovedgruppe" v="infrastruktur" />
		<tag k="ssr:stedsnr" v="151418" />
		<tag k="ssr:type" v="fyrlykt" />
	</node>
	<node lat="69.9676273760226" lon="23.244413096584132" id="-95575">
		<tag k="name" v="Bergstien" />
		<tag k="ssr:date" v="2019-12-27" />
		<tag k="ssr:gruppe" v="veg" />
		<tag k="ssr:hovedgruppe" v="infrastruktur" />
		<tag k="ssr:stedsnr" v="268176" />
		<tag k="ssr:type" v="adressenavn" />
	</node>
	<node lat="69.96287386396682" lon="23.24883464339447" id="-95582">
		<tag k="name" v="Kirkeveien" />
		<tag k="ssr:date" v="2019-12-27" />
		<tag k="ssr:gruppe" v="veg" />
		<tag k="ssr:hovedgruppe" v="infrastruktur" />
		<tag k="ssr:stedsnr" v="268563" />
		<tag k="ssr:type" v="adressenavn" />
	</node>
	<node lat="69.95987668224774" lon="23.228600314214557" id="-95583">
		<tag k="name" v="Skiferveien" />
		<tag k="ssr:date" v="2019-12-27" />
		<tag k="ssr:gruppe" v="veg" />
		<tag k="ssr:hovedgruppe" v="infrastruktur" />
		<tag k="ssr:stedsnr" v="268564" />
		<tag k="ssr:type" v="adressenavn" />
	</node>
	<node lat="69.95932446918226" lon="23.22705483307554" id="-95584">
		<tag k="name" v="Vesterhaugveien" />
		<tag k="ssr:date" v="2019-12-27" />
		<tag k="ssr:gruppe" v="veg" />
		<tag k="ssr:hovedgruppe" v="infrastruktur" />
		<tag k="ssr:stedsnr" v="268565" />
		<tag k="ssr:type" v="adressenavn" />
	</node>
	<node lat="69.95278366664424" lon="23.24095586508472" id="-95585">
		<tag k="name" v="Knausen" />
		<tag k="ssr:date" v="2019-12-27" />
		<tag k="ssr:gruppe" v="veg" />
		<tag k="ssr:hovedgruppe" v="infrastruktur" />
		<tag k="ssr:stedsnr" v="268607" />
		<tag k="ssr:type" v="adressenavn" />
	</node>
	<node lat="70.03654004878256" lon="22.945832042988968" id="-95587">
		<tag k="name" v="Storvannsveien" />
		<tag k="ssr:date" v="2019-12-27" />
		<tag k="ssr:gruppe" v="veg" />
		<tag k="ssr:hovedgruppe" v="infrastruktur" />
		<tag k="ssr:stedsnr" v="207187" />
		<tag k="ssr:type" v="adressenavn" />
	</node>
	<node lat="69.97207850333494" lon="23.272304080422504" id="-95619">
		<tag k="name" v="Odins vei" />
		<tag k="ssr:date" v="2019-12-27" />
		<tag k="ssr:gruppe" v="veg" />
		<tag k="ssr:hovedgruppe" v="infrastruktur" />
		<tag k="ssr:stedsnr" v="208196" />
		<tag k="ssr:type" v="adressenavn" />
	</node>
	<node lat="69.96124913464091" lon="23.231814061789223" id="-95646">
		<tag k="name" v="Alma Halses vei" />
		<tag k="ssr:date" v="2019-12-27" />
		<tag k="ssr:gruppe" v="veg" />
		<tag k="ssr:hovedgruppe" v="infrastruktur" />
		<tag k="ssr:stedsnr" v="269592" />
		<tag k="ssr:type" v="adressenavn" />
	</node>
	<node lat="69.97043380645596" lon="23.279692293983608" id="-95679">
		<tag k="name" v="Åsen" />
		<tag k="ssr:date" v="2019-12-27" />
		<tag k="ssr:gruppe" v="veg" />
		<tag k="ssr:hovedgruppe" v="infrastruktur" />
		<tag k="ssr:stedsnr" v="450160" />
		<tag k="ssr:type" v="adressenavn" />
	</node>
	<node lat="69.95337496610234" lon="23.211136016536102" id="-95683">
		<tag k="name" v="Apanesveien" />
		<tag k="ssr:date" v="2019-12-27" />
		<tag k="ssr:gruppe" v="veg" />
		<tag k="ssr:hovedgruppe" v="infrastruktur" />
		<tag k="ssr:stedsnr" v="450490" />
		<tag k="ssr:type" v="adressenavn" />
	</node>
	<node lat="69.9723062750999" lon="23.297657175033407" id="-95698">
		<tag k="name" v="Gymnasveien" />
		<tag k="ssr:date" v="2019-12-27" />
		<tag k="ssr:gruppe" v="veg" />
		<tag k="ssr:hovedgruppe" v="infrastruktur" />
		<tag k="ssr:stedsnr" v="451184" />
		<tag k="ssr:type" v="adressenavn" />
	</node>
	<node lat="69.97427853337759" lon="23.361627950704413" id="-95701">
		<tag k="name" v="General Dahls vei" />
		<tag k="ssr:date" v="2019-12-27" />
		<tag k="ssr:gruppe" v="veg" />
		<tag k="ssr:hovedgruppe" v="infrastruktur" />
		<tag k="ssr:stedsnr" v="451209" />
		<tag k="ssr:type" v="adressenavn" />
	</node>
	<node lat="69.94931868797251" lon="23.252992310581334" id="-95761">
		<tag k="name" v="Thomasjordet" />
		<tag k="ssr:date" v="2019-12-27" />
		<tag k="ssr:gruppe" v="veg" />
		<tag k="ssr:hovedgruppe" v="infrastruktur" />
		<tag k="ssr:stedsnr" v="458180" />
		<tag k="ssr:type" v="adressenavn" />
	</node>
	<node lat="69.96268482052412" lon="23.391865186859892" id="-95765">
		<tag k="name" v="Tømmerveien" />
		<tag k="ssr:date" v="2019-12-27" />
		<tag k="ssr:gruppe" v="veg" />
		<tag k="ssr:hovedgruppe" v="infrastruktur" />
		<tag k="ssr:stedsnr" v="268110" />
		<tag k="ssr:type" v="adressenavn" />
	</node>
	<node lat="69.95968060170956" lon="23.235882239901148" id="-95779">
		<tag k="name" v="Breverud" />
		<tag k="ssr:date" v="2019-12-27" />
		<tag k="ssr:gruppe" v="veg" />
		<tag k="ssr:hovedgruppe" v="infrastruktur" />
		<tag k="ssr:stedsnr" v="268591" />
		<tag k="ssr:type" v="adressenavn" />
	</node>
	<node lat="69.95140225754533" lon="23.250210324593795" id="-95795">
		<tag k="name" v="Reistadsvingen" />
		<tag k="ssr:date" v="2019-12-27" />
		<tag k="ssr:gruppe" v="veg" />
		<tag k="ssr:hovedgruppe" v="infrastruktur" />
		<tag k="ssr:stedsnr" v="276192" />
		<tag k="ssr:type" v="adressenavn" />
	</node>
	<node lat="69.96506886879334" lon="23.38015254985644" id="-95856">
		<tag k="name" v="Storengveien" />
		<tag k="ssr:date" v="2019-12-27" />
		<tag k="ssr:gruppe" v="veg" />
		<tag k="ssr:hovedgruppe" v="infrastruktur" />
		<tag k="ssr:stedsnr" v="329119" />
		<tag k="ssr:type" v="adressenavn" />
	</node>
	<node lat="70.04323905395867" lon="22.938180389927744" id="-95859">
		<tag k="name" v="Grønnlia" />
		<tag k="ssr:date" v="2019-12-27" />
		<tag k="ssr:gruppe" v="veg" />
		<tag k="ssr:hovedgruppe" v="infrastruktur" />
		<tag k="ssr:stedsnr" v="329203" />
		<tag k="ssr:type" v="adressenavn" />
	</node>
	<node lat="69.9727939175854" lon="23.26879658478143" id="-95860">
		<tag k="name" v="Frøyas vei" />
		<tag k="ssr:date" v="2019-12-27" />
		<tag k="ssr:gruppe" v="veg" />
		<tag k="ssr:hovedgruppe" v="infrastruktur" />
		<tag k="ssr:stedsnr" v="329205" />
		<tag k="ssr:type" v="adressenavn" />
	</node>
	<node lat="69.96979370475272" lon="23.279474430082086" id="-95861">
		<tag k="name" v="Harebakken" />
		<tag k="ssr:date" v="2019-12-27" />
		<tag k="ssr:gruppe" v="veg" />
		<tag k="ssr:hovedgruppe" v="infrastruktur" />
		<tag k="ssr:stedsnr" v="329210" />
		<tag k="ssr:type" v="adressenavn" />
	</node>
	<node lat="69.97303911978437" lon="23.259177957493737" id="-95862">
		<tag k="name" v="Øvre Tollevikveien" />
		<tag k="ssr:date" v="2019-12-27" />
		<tag k="ssr:gruppe" v="veg" />
		<tag k="ssr:hovedgruppe" v="infrastruktur" />
		<tag k="ssr:stedsnr" v="329254" />
		<tag k="ssr:type" v="adressenavn" />
	</node>
	<node lat="69.96529145105761" lon="23.36940711381338" id="-95873">
		<tag k="name" v="Kjosveien" />
		<tag k="ssr:date" v="2019-12-27" />
		<tag k="ssr:gruppe" v="veg" />
		<tag k="ssr:hovedgruppe" v="infrastruktur" />
		<tag k="ssr:stedsnr" v="330216" />
		<tag k="ssr:type" v="adressenavn" />
	</node>
	<node lat="69.95499194485899" lon="23.21859231128432" id="-95884">
		<tag k="name" v="Spurveveien" />
		<tag k="ssr:date" v="2019-12-27" />
		<tag k="ssr:gruppe" v="veg" />
		<tag k="ssr:hovedgruppe" v="infrastruktur" />
		<tag k="ssr:stedsnr" v="336107" />
		<tag k="ssr:type" v="adressenavn" />
	</node>
	<node lat="69.95685708166567" lon="23.37207472308259" id="-95888">
		<tag k="name" v="Gulaksveien" />
		<tag k="ssr:date" v="2019-12-27" />
		<tag k="ssr:gruppe" v="veg" />
		<tag k="ssr:hovedgruppe" v="infrastruktur" />
		<tag k="ssr:stedsnr" v="337113" />
		<tag k="ssr:type" v="adressenavn" />
	</node>
	<node lat="69.9636071062728" lon="23.38251923999531" id="-95959">
		<tag k="name" v="Leirbakkveien" />
		<tag k="ssr:date" v="2019-12-27" />
		<tag k="ssr:gruppe" v="veg" />
		<tag k="ssr:hovedgruppe" v="infrastruktur" />
		<tag k="ssr:stedsnr" v="389103" />
		<tag k="ssr:type" v="adressenavn" />
	</node>
	<node lat="69.94937935288645" lon="23.22623674154066" id="-95968">
		<tag k="name" v="Gakoriveien" />
		<tag k="ssr:date" v="2019-12-27" />
		<tag k="ssr:gruppe" v="veg" />
		<tag k="ssr:hovedgruppe" v="infrastruktur" />
		<tag k="ssr:stedsnr" v="389618" />
		<tag k="ssr:type" v="adressenavn" />
	</node>
	<node lat="69.97674999830963" lon="23.296330474436065" id="-95970">
		<tag k="loc_name:se" v="Álttá suohkan;Álaheaju suohkan" />
		<tag k="name" v="Alta kommune" />
		<tag k="name:no" v="Alta kommune" />
		<tag k="ssr:date" v="2020-09-01" />
		<tag k="ssr:gruppe" v="administrativeIndelinger" />
		<tag k="ssr:hovedgruppe" v="offentligAdministrasjon" />
		<tag k="ssr:stedsnr" v="389799" />
		<tag k="ssr:type" v="kommune" />
	</node>
	<node lat="69.96312147903248" lon="23.382652765958092" id="-95988">
		<tag k="name" v="Gamleveien" />
		<tag k="ssr:date" v="2019-12-27" />
		<tag k="ssr:gruppe" v="veg" />
		<tag k="ssr:hovedgruppe" v="infrastruktur" />
		<tag k="ssr:stedsnr" v="394411" />
		<tag k="ssr:type" v="adressenavn" />
	</node>
	<node lat="69.9571830896146" lon="23.369640005640832" id="-95990">
		<tag k="name" v="Rødsvingelveien" />
		<tag k="ssr:date" v="2019-12-27" />
		<tag k="ssr:gruppe" v="veg" />
		<tag k="ssr:hovedgruppe" v="infrastruktur" />
		<tag k="ssr:stedsnr" v="397127" />
		<tag k="ssr:type" v="adressenavn" />
	</node>
	<node lat="69.96670446285856" lon="23.36183006265588" id="-95991">
		<tag k="name" v="Myggveien" />
		<tag k="ssr:date" v="2019-12-27" />
		<tag k="ssr:gruppe" v="veg" />
		<tag k="ssr:hovedgruppe" v="infrastruktur" />
		<tag k="ssr:stedsnr" v="397190" />
		<tag k="ssr:type" v="adressenavn" />
	</node>
	<node lat="69.90026777216455" lon="23.014134666460347" id="-96045">
		<tag k="name" v="Stokstadbakken" />
		<tag k="ssr:date" v="2019-12-27" />
		<tag k="ssr:gruppe" v="veg" />
		<tag k="ssr:hovedgruppe" v="infrastruktur" />
		<tag k="ssr:stedsnr" v="450209" />
		<tag k="ssr:type" v="adressenavn" />
	</node>
	<node lat="69.94512946670405" lon="23.19706175244131" id="-96053">
		<tag k="name" v="Øverbygdveien" />
		<tag k="ssr:date" v="2019-12-27" />
		<tag k="ssr:gruppe" v="veg" />
		<tag k="ssr:hovedgruppe" v="infrastruktur" />
		<tag k="ssr:stedsnr" v="450486" />
		<tag k="ssr:type" v="adressenavn" />
	</node>
	<node lat="69.96188260600952" lon="23.24263581644448" id="-96055">
		<tag k="name" v="Fogdeveien" />
		<tag k="ssr:date" v="2019-12-27" />
		<tag k="ssr:gruppe" v="veg" />
		<tag k="ssr:hovedgruppe" v="infrastruktur" />
		<tag k="ssr:stedsnr" v="450586" />
		<tag k="ssr:type" v="adressenavn" />
	</node>
	<node lat="70.24251944211287" lon="23.340888815190226" id="-96062">
		<tag k="name" v="Prontaroggi" />
		<tag k="name:se" v="Prontaroggi" />
		<tag k="ssr:date" v="2019-12-27" />
		<tag k="ssr:gruppe" v="sjøbunn" />
		<tag k="ssr:hovedgruppe" v="sjø" />
		<tag k="ssr:stedsnr" v="450916" />
		<tag k="ssr:type" v="søkkISjø" />
	</node>
	<node lat="69.95249425022836" lon="23.230746002677062" id="-96071">
		<tag k="name" v="Rypeveien" />
		<tag k="ssr:date" v="2019-12-27" />
		<tag k="ssr:gruppe" v="veg" />
		<tag k="ssr:hovedgruppe" v="infrastruktur" />
		<tag k="ssr:stedsnr" v="458114" />
		<tag k="ssr:type" v="adressenavn" />
	</node>
	<node lat="69.9582144666615" lon="23.41740891235932" id="-96072">
		<tag k="name" v="Sagabrinken" />
		<tag k="ssr:date" v="2019-12-27" />
		<tag k="ssr:gruppe" v="veg" />
		<tag k="ssr:hovedgruppe" v="infrastruktur" />
		<tag k="ssr:stedsnr" v="458167" />
		<tag k="ssr:type" v="adressenavn" />
	</node>
	<node lat="69.96233246411975" lon="23.415783879420992" id="-96073">
		<tag k="name" v="Utsikten" />
		<tag k="ssr:date" v="2019-12-27" />
		<tag k="ssr:gruppe" v="veg" />
		<tag k="ssr:hovedgruppe" v="infrastruktur" />
		<tag k="ssr:stedsnr" v="458169" />
		<tag k="ssr:type" v="adressenavn" />
	</node>
	<node lat="69.96708017402318" lon="23.377111687743334" id="-96074">
		<tag k="name" v="Bruflaten" />
		<tag k="ssr:date" v="2019-12-27" />
		<tag k="ssr:gruppe" v="veg" />
		<tag k="ssr:hovedgruppe" v="infrastruktur" />
		<tag k="ssr:stedsnr" v="458171" />
		<tag k="ssr:type" v="adressenavn" />
	</node>
	<node lat="69.9676206923868" lon="23.363242953161006" id="-96075">
		<tag k="name" v="Humleveien" />
		<tag k="ssr:date" v="2019-12-27" />
		<tag k="ssr:gruppe" v="veg" />
		<tag k="ssr:hovedgruppe" v="infrastruktur" />
		<tag k="ssr:stedsnr" v="458172" />
		<tag k="ssr:type" v="adressenavn" />
	</node>
	<node lat="69.96900849492924" lon="23.248227010235702" id="-96133">
		<tag k="name" v="Kjeldsbergveien" />
		<tag k="ssr:date" v="2019-12-27" />
		<tag k="ssr:gruppe" v="veg" />
		<tag k="ssr:hovedgruppe" v="infrastruktur" />
		<tag k="ssr:stedsnr" v="511194" />
		<tag k="ssr:type" v="adressenavn" />
	</node>
	<node lat="69.96719274240597" lon="23.244344129342856" id="-96135">
		<tag k="name" v="Malmveien" />
		<tag k="ssr:date" v="2019-12-27" />
		<tag k="ssr:gruppe" v="veg" />
		<tag k="ssr:hovedgruppe" v="infrastruktur" />
		<tag k="ssr:stedsnr" v="511198" />
		<tag k="ssr:type" v="adressenavn" />
	</node>
	<node lat="70.04247528797961" lon="22.94998477567085" id="-96136">
		<tag k="name" v="Mellomgjerdet" />
		<tag k="ssr:date" v="2019-12-27" />
		<tag k="ssr:gruppe" v="veg" />
		<tag k="ssr:hovedgruppe" v="infrastruktur" />
		<tag k="ssr:stedsnr" v="511199" />
		<tag k="ssr:type" v="adressenavn" />
	</node>
	<node lat="69.97041772847821" lon="23.2621127883545" id="-96137">
		<tag k="name" v="Brønnveien" />
		<tag k="ssr:date" v="2019-12-27" />
		<tag k="ssr:gruppe" v="veg" />
		<tag k="ssr:hovedgruppe" v="infrastruktur" />
		<tag k="ssr:stedsnr" v="511200" />
		<tag k="ssr:type" v="adressenavn" />
	</node>
	<node lat="69.97653900421547" lon="23.293211769182147" id="-96148">
		<tag k="name" v="Meieriveien" />
		<tag k="ssr:date" v="2019-12-27" />
		<tag k="ssr:gruppe" v="veg" />
		<tag k="ssr:hovedgruppe" v="infrastruktur" />
		<tag k="ssr:stedsnr" v="512173" />
		<tag k="ssr:type" v="adressenavn" />
	</node>
	<node lat="69.95796572258406" lon="23.22482039349655" id="-96163">
		<tag k="name" v="Vertshushagen" />
		<tag k="ssr:date" v="2019-12-27" />
		<tag k="ssr:gruppe" v="veg" />
		<tag k="ssr:hovedgruppe" v="infrastruktur" />
		<tag k="ssr:stedsnr" v="519117" />
		<tag k="ssr:type" v="adressenavn" />
	</node>
	<node lat="70.05565555783933" lon="22.395519380271654" id="-96196">
		<tag k="name" v="Vaddekeip" />
		<tag k="ssr:date" v="2019-12-27" />
		<tag k="ssr:gruppe" v="navigasjon" />
		<tag k="ssr:hovedgruppe" v="infrastruktur" />
		<tag k="ssr:stedsnr" v="686515" />
		<tag k="ssr:type" v="fyrlykt" />
	</node>
	<node lat="70.21618611268184" lon="23.191524919467955" id="-96227">
		<tag k="name" v="Storekorsnes molo" />
		<tag k="ssr:date" v="2019-12-27" />
		<tag k="ssr:gruppe" v="navigasjon" />
		<tag k="ssr:hovedgruppe" v="infrastruktur" />
		<tag k="ssr:stedsnr" v="541584" />
		<tag k="ssr:type" v="lanterne" />
	</node>
	<node lat="69.96988118228931" lon="23.376804962588025" id="-96317">
		<tag k="name" v="Øyra" />
		<tag k="ssr:date" v="2019-12-27" />
		<tag k="ssr:gruppe" v="veg" />
		<tag k="ssr:hovedgruppe" v="infrastruktur" />
		<tag k="ssr:stedsnr" v="693036" />
		<tag k="ssr:type" v="adressenavn" />
	</node>
	<node lat="69.97184926464935" lon="23.262250590007866" id="-96326">
		<tag k="name" v="Tors vei" />
		<tag k="ssr:date" v="2019-12-27" />
		<tag k="ssr:gruppe" v="veg" />
		<tag k="ssr:hovedgruppe" v="infrastruktur" />
		<tag k="ssr:stedsnr" v="693230" />
		<tag k="ssr:type" v="adressenavn" />
	</node>
	<node lat="69.96546812898595" lon="23.25148500393973" id="-96327">
		<tag k="name" v="Marienlund" />
		<tag k="ssr:date" v="2019-12-27" />
		<tag k="ssr:gruppe" v="veg" />
		<tag k="ssr:hovedgruppe" v="infrastruktur" />
		<tag k="ssr:stedsnr" v="693237" />
		<tag k="ssr:type" v="adressenavn" />
	</node>
	<node lat="69.96858126632571" lon="23.261846797983274" id="-96328">
		<tag k="name" v="Skiveien" />
		<tag k="ssr:date" v="2019-12-27" />
		<tag k="ssr:gruppe" v="veg" />
		<tag k="ssr:hovedgruppe" v="infrastruktur" />
		<tag k="ssr:stedsnr" v="693239" />
		<tag k="ssr:type" v="adressenavn" />
	</node>
	<node lat="69.96242227999537" lon="23.395282849571423" id="-96335">
		<tag k="name" v="Hammarijordet" />
		<tag k="ssr:date" v="2019-12-27" />
		<tag k="ssr:gruppe" v="veg" />
		<tag k="ssr:hovedgruppe" v="infrastruktur" />
		<tag k="ssr:stedsnr" v="571104" />
		<tag k="ssr:type" v="adressenavn" />
	</node>
	<node lat="69.96053145563918" lon="23.333256609499248" id="-96349">
		<tag k="name" v="Nygjerdet" />
		<tag k="ssr:date" v="2019-12-27" />
		<tag k="ssr:gruppe" v="veg" />
		<tag k="ssr:hovedgruppe" v="infrastruktur" />
		<tag k="ssr:stedsnr" v="693798" />
		<tag k="ssr:type" v="adressenavn" />
	</node>
	<node lat="69.9678632697626" lon="23.33804808433012" id="-96356">
		<tag k="name" v="Tyttebærveien" />
		<tag k="ssr:date" v="2019-12-27" />
		<tag k="ssr:gruppe" v="veg" />
		<tag k="ssr:hovedgruppe" v="infrastruktur" />
		<tag k="ssr:stedsnr" v="572205" />
		<tag k="ssr:type" v="adressenavn" />
	</node>
	<node lat="69.96874480592966" lon="23.316370052721005" id="-96357">
		<tag k="name" v="Blåbærveien" />
		<tag k="ssr:date" v="2019-12-27" />
		<tag k="ssr:gruppe" v="veg" />
		<tag k="ssr:hovedgruppe" v="infrastruktur" />
		<tag k="ssr:stedsnr" v="572207" />
		<tag k="ssr:type" v="adressenavn" />
	</node>
	<node lat="69.97411976437809" lon="23.364111050578042" id="-96358">
		<tag k="name" v="Trekanten" />
		<tag k="ssr:date" v="2019-12-27" />
		<tag k="ssr:gruppe" v="veg" />
		<tag k="ssr:hovedgruppe" v="infrastruktur" />
		<tag k="ssr:stedsnr" v="572221" />
		<tag k="ssr:type" v="adressenavn" />
	</node>
	<node lat="69.97266778391725" lon="23.349184824296156" id="-96373">
		<tag k="name" v="Altagårdsbakken" />
		<tag k="ssr:date" v="2019-12-27" />
		<tag k="ssr:gruppe" v="veg" />
		<tag k="ssr:hovedgruppe" v="infrastruktur" />
		<tag k="ssr:stedsnr" v="694154" />
		<tag k="ssr:type" v="adressenavn" />
	</node>
	<node lat="69.97030604154875" lon="23.373044206421806" id="-96376">
		<tag k="name" v="Flåten" />
		<tag k="ssr:date" v="2019-12-27" />
		<tag k="ssr:gruppe" v="veg" />
		<tag k="ssr:hovedgruppe" v="infrastruktur" />
		<tag k="ssr:stedsnr" v="694164" />
		<tag k="ssr:type" v="adressenavn" />
	</node>
	<node lat="69.96377992644719" lon="23.36689454885657" id="-96389">
		<tag k="name" v="Patosletta" />
		<tag k="ssr:date" v="2019-12-27" />
		<tag k="ssr:gruppe" v="veg" />
		<tag k="ssr:hovedgruppe" v="infrastruktur" />
		<tag k="ssr:stedsnr" v="579111" />
		<tag k="ssr:type" v="adressenavn" />
	</node>
	<node lat="69.94762562038912" lon="23.25008100077146" id="-96408">
		<tag k="name" v="Thomaskroken" />
		<tag k="ssr:date" v="2019-12-27" />
		<tag k="ssr:gruppe" v="veg" />
		<tag k="ssr:hovedgruppe" v="infrastruktur" />
		<tag k="ssr:stedsnr" v="701131" />
		<tag k="ssr:type" v="adressenavn" />
	</node>
	<node lat="69.96093072403512" lon="23.390826993057775" id="-96451">
		<tag k="name" v="Skogveien" />
		<tag k="ssr:date" v="2019-12-27" />
		<tag k="ssr:gruppe" v="veg" />
		<tag k="ssr:hovedgruppe" v="infrastruktur" />
		<tag k="ssr:stedsnr" v="632138" />
		<tag k="ssr:type" v="adressenavn" />
	</node>
	<node lat="69.94981846671624" lon="23.21507157518491" id="-96457">
		<tag k="name" v="Svaneveien" />
		<tag k="ssr:date" v="2019-12-27" />
		<tag k="ssr:gruppe" v="veg" />
		<tag k="ssr:hovedgruppe" v="infrastruktur" />
		<tag k="ssr:stedsnr" v="632727" />
		<tag k="ssr:type" v="adressenavn" />
	</node>
	<node lat="69.9521979715702" lon="23.228318096196734" id="-96477">
		<tag k="name" v="Ugleveien" />
		<tag k="ssr:date" v="2019-12-27" />
		<tag k="ssr:gruppe" v="veg" />
		<tag k="ssr:hovedgruppe" v="infrastruktur" />
		<tag k="ssr:stedsnr" v="639116" />
		<tag k="ssr:type" v="adressenavn" />
	</node>
	<node lat="69.9581660446723" lon="23.24637850762949" id="-96592">
		<tag k="name" v="Holtet" />
		<tag k="ssr:date" v="2019-12-27" />
		<tag k="ssr:gruppe" v="veg" />
		<tag k="ssr:hovedgruppe" v="infrastruktur" />
		<tag k="ssr:stedsnr" v="693611" />
		<tag k="ssr:type" v="adressenavn" />
	</node>
	<node lat="69.96021634665374" lon="23.234963161584584" id="-96593">
		<tag k="name" v="Bossekopveien" />
		<tag k="ssr:date" v="2019-12-27" />
		<tag k="ssr:gruppe" v="veg" />
		<tag k="ssr:hovedgruppe" v="infrastruktur" />
		<tag k="ssr:stedsnr" v="693508" />
		<tag k="ssr:type" v="adressenavn" />
	</node>
	<node lat="69.95809681857097" lon="23.296077839479373" id="-96600">
		<tag k="name" v="Aronnesveien" />
		<tag k="ssr:date" v="2019-12-27" />
		<tag k="ssr:gruppe" v="veg" />
		<tag k="ssr:hovedgruppe" v="infrastruktur" />
		<tag k="ssr:stedsnr" v="693776" />
		<tag k="ssr:type" v="adressenavn" />
	</node>
	<node lat="69.97238602251649" lon="23.37611036007889" id="-96603">
		<tag k="name" v="Smibakken" />
		<tag k="ssr:date" v="2019-12-27" />
		<tag k="ssr:gruppe" v="veg" />
		<tag k="ssr:hovedgruppe" v="infrastruktur" />
		<tag k="ssr:stedsnr" v="694170" />
		<tag k="ssr:type" v="adressenavn" />
	</node>
	<node lat="69.94386036389085" lon="23.181161260941867" id="-96605">
		<tag k="name" v="Saraveien" />
		<tag k="ssr:date" v="2019-12-27" />
		<tag k="ssr:gruppe" v="veg" />
		<tag k="ssr:hovedgruppe" v="infrastruktur" />
		<tag k="ssr:stedsnr" v="694486" />
		<tag k="ssr:type" v="adressenavn" />
	</node>
	<node lat="69.95509863495397" lon="23.367236880795154" id="-96619">
		<tag k="name" v="Raigressveien" />
		<tag k="ssr:date" v="2019-12-27" />
		<tag k="ssr:gruppe" v="veg" />
		<tag k="ssr:hovedgruppe" v="infrastruktur" />
		<tag k="ssr:stedsnr" v="701110" />
		<tag k="ssr:type" v="adressenavn" />
	</node>
	<node lat="69.95852795435066" lon="23.385406225188273" id="-96683">
		<tag k="name" v="Bregneveien" />
		<tag k="ssr:date" v="2019-12-27" />
		<tag k="ssr:gruppe" v="veg" />
		<tag k="ssr:hovedgruppe" v="infrastruktur" />
		<tag k="ssr:stedsnr" v="753770" />
		<tag k="ssr:type" v="adressenavn" />
	</node>
	<node lat="69.96469214376863" lon="23.320218424745796" id="-96692">
		<tag k="name" v="Grepplyngveien" />
		<tag k="ssr:date" v="2019-12-27" />
		<tag k="ssr:gruppe" v="veg" />
		<tag k="ssr:hovedgruppe" v="infrastruktur" />
		<tag k="ssr:stedsnr" v="754203" />
		<tag k="ssr:type" v="adressenavn" />
	</node>
	<node lat="69.97388722942937" lon="23.369576795205685" id="-96694">
		<tag k="name" v="Moveien" />
		<tag k="ssr:date" v="2019-12-27" />
		<tag k="ssr:gruppe" v="veg" />
		<tag k="ssr:hovedgruppe" v="infrastruktur" />
		<tag k="ssr:stedsnr" v="754215" />
		<tag k="ssr:type" v="adressenavn" />
	</node>
	<node lat="70.24690833949427" lon="22.74267771531041" id="-96709">
		<tag k="name" v="Stjernsund" />
		<tag k="ssr:date" v="2019-12-27" />
		<tag k="ssr:gruppe" v="navigasjon" />
		<tag k="ssr:hovedgruppe" v="infrastruktur" />
		<tag k="ssr:stedsnr" v="758354" />
		<tag k="ssr:type" v="fyrlykt" />
	</node>
	<node lat="69.95872056663336" lon="23.39427016221485" id="-96771">
		<tag k="name" v="Skogsnelleveien" />
		<tag k="ssr:date" v="2019-12-27" />
		<tag k="ssr:gruppe" v="veg" />
		<tag k="ssr:hovedgruppe" v="infrastruktur" />
		<tag k="ssr:stedsnr" v="814074" />
		<tag k="ssr:type" v="adressenavn" />
	</node>
	<node lat="69.96126679869883" lon="23.32381063358296" id="-96776">
		<tag k="name" v="Knut Kvens vei" />
		<tag k="ssr:date" v="2019-12-27" />
		<tag k="ssr:gruppe" v="veg" />
		<tag k="ssr:hovedgruppe" v="infrastruktur" />
		<tag k="ssr:stedsnr" v="814803" />
		<tag k="ssr:type" v="adressenavn" />
	</node>
	<node lat="69.95528853053686" lon="23.369252234859072" id="-96787">
		<tag k="name" v="Sølvbunkeveien" />
		<tag k="ssr:date" v="2019-12-27" />
		<tag k="ssr:gruppe" v="veg" />
		<tag k="ssr:hovedgruppe" v="infrastruktur" />
		<tag k="ssr:stedsnr" v="822112" />
		<tag k="ssr:type" v="adressenavn" />
	</node>
	<node lat="69.95809162998688" lon="23.36837757358042" id="-96788">
		<tag k="name" v="Engsvingelveien" />
		<tag k="ssr:date" v="2019-12-27" />
		<tag k="ssr:gruppe" v="veg" />
		<tag k="ssr:hovedgruppe" v="infrastruktur" />
		<tag k="ssr:stedsnr" v="822117" />
		<tag k="ssr:type" v="adressenavn" />
	</node>
	<node lat="69.95802586798057" lon="23.239032756457476" id="-96950">
		<tag k="name" v="Holtenveien" />
		<tag k="ssr:date" v="2019-12-27" />
		<tag k="ssr:gruppe" v="veg" />
		<tag k="ssr:hovedgruppe" v="infrastruktur" />
		<tag k="ssr:stedsnr" v="875575" />
		<tag k="ssr:type" v="adressenavn" />
	</node>
	<node lat="69.96433534316006" lon="23.272319748363397" id="-96951">
		<tag k="name" v="Dalebakken" />
		<tag k="ssr:date" v="2019-12-27" />
		<tag k="ssr:gruppe" v="veg" />
		<tag k="ssr:hovedgruppe" v="infrastruktur" />
		<tag k="ssr:stedsnr" v="875584" />
		<tag k="ssr:type" v="adressenavn" />
	</node>
	<node lat="69.95252045556725" lon="23.225391178770952" id="-96976">
		<tag k="name" v="Myrsnipeveien" />
		<tag k="ssr:date" v="2019-12-27" />
		<tag k="ssr:gruppe" v="veg" />
		<tag k="ssr:hovedgruppe" v="infrastruktur" />
		<tag k="ssr:stedsnr" v="883107" />
		<tag k="ssr:type" v="adressenavn" />
	</node>
	<node lat="70.24697778212618" lon="23.422030478544226" id="-97001">
		<tag k="name" v="Goppi" />
		<tag k="ssr:date" v="2019-12-27" />
		<tag k="ssr:gruppe" v="navigasjon" />
		<tag k="ssr:hovedgruppe" v="infrastruktur" />
		<tag k="ssr:stedsnr" v="895914" />
		<tag k="ssr:type" v="fyrlykt" />
	</node>
	<node lat="69.99261111501812" lon="23.300624928150906" id="-97060">
		<tag k="name" v="Amtmannsnes" />
		<tag k="old_name" v="Amtmannsnes lykt" />
		<tag k="ssr:date" v="2019-12-27" />
		<tag k="ssr:gruppe" v="navigasjon" />
		<tag k="ssr:hovedgruppe" v="infrastruktur" />
		<tag k="ssr:stedsnr" v="936210" />
		<tag k="ssr:type" v="fyrlykt" />
	</node>
	<node lat="70.03648241332007" lon="22.94092930276618" id="-97061">
		<tag k="name" v="Kløyva" />
		<tag k="ssr:date" v="2019-12-27" />
		<tag k="ssr:gruppe" v="veg" />
		<tag k="ssr:hovedgruppe" v="infrastruktur" />
		<tag k="ssr:stedsnr" v="936187" />
		<tag k="ssr:type" v="adressenavn" />
	</node>
	<node lat="69.95416321228055" lon="23.205582796337573" id="-97071">
		<tag k="name" v="Furuåsen" />
		<tag k="ssr:date" v="2019-12-27" />
		<tag k="ssr:gruppe" v="veg" />
		<tag k="ssr:hovedgruppe" v="infrastruktur" />
		<tag k="ssr:stedsnr" v="936493" />
		<tag k="ssr:type" v="adressenavn" />
	</node>
	<node lat="69.9563906634628" lon="23.220778826320227" id="-97084">
		<tag k="name" v="Strandveien" />
		<tag k="ssr:date" v="2019-12-27" />
		<tag k="ssr:gruppe" v="veg" />
		<tag k="ssr:hovedgruppe" v="infrastruktur" />
		<tag k="ssr:stedsnr" v="937626" />
		<tag k="ssr:type" v="adressenavn" />
	</node>
	<node lat="69.96047900725992" lon="23.2237684620768" id="-97085">
		<tag k="name" v="Sorenskriverveien" />
		<tag k="ssr:date" v="2019-12-27" />
		<tag k="ssr:gruppe" v="veg" />
		<tag k="ssr:hovedgruppe" v="infrastruktur" />
		<tag k="ssr:stedsnr" v="937627" />
		<tag k="ssr:type" v="adressenavn" />
	</node>
	<node lat="69.95584941067844" lon="23.22166454647238" id="-97092">
		<tag k="name" v="Spurvekroken" />
		<tag k="ssr:date" v="2019-12-27" />
		<tag k="ssr:gruppe" v="veg" />
		<tag k="ssr:hovedgruppe" v="infrastruktur" />
		<tag k="ssr:stedsnr" v="944141" />
		<tag k="ssr:type" v="adressenavn" />
	</node>
	<node lat="69.97793070847335" lon="23.291142472050097" id="-97220">
		<tag k="name" v="Komsa Terasse" />
		<tag k="ssr:date" v="2019-12-27" />
		<tag k="ssr:gruppe" v="veg" />
		<tag k="ssr:hovedgruppe" v="infrastruktur" />
		<tag k="ssr:stedsnr" v="25198" />
		<tag k="ssr:type" v="adressenavn" />
	</node>
	<node lat="69.97499321732326" lon="23.34093615605026" id="-97221">
		<tag k="name" v="Betongveien" />
		<tag k="ssr:date" v="2019-12-27" />
		<tag k="ssr:gruppe" v="veg" />
		<tag k="ssr:hovedgruppe" v="infrastruktur" />
		<tag k="ssr:stedsnr" v="26195" />
		<tag k="ssr:type" v="adressenavn" />
	</node>
	<node lat="70.04323905395867" lon="22.938180389927744" id="-97222">
		<tag k="name" v="Blåberget" />
		<tag k="ssr:date" v="2019-12-27" />
		<tag k="ssr:gruppe" v="veg" />
		<tag k="ssr:hovedgruppe" v="infrastruktur" />
		<tag k="ssr:stedsnr" v="25169" />
		<tag k="ssr:type" v="adressenavn" />
	</node>
	<node lat="69.96185990374691" lon="23.37644785053599" id="-97228">
		<tag k="name" v="Baddoveien" />
		<tag k="ssr:date" v="2019-12-27" />
		<tag k="ssr:gruppe" v="veg" />
		<tag k="ssr:hovedgruppe" v="infrastruktur" />
		<tag k="ssr:stedsnr" v="25798" />
		<tag k="ssr:type" v="adressenavn" />
	</node>
	<node lat="70.03842802223073" lon="22.95878366248" id="-97237">
		<tag k="name" v="Skrivarjordet" />
		<tag k="ssr:date" v="2019-12-27" />
		<tag k="ssr:gruppe" v="veg" />
		<tag k="ssr:hovedgruppe" v="infrastruktur" />
		<tag k="ssr:stedsnr" v="26071" />
		<tag k="ssr:type" v="adressenavn" />
	</node>
	<node lat="69.9770306226969" lon="23.291587181828607" id="-97244">
		<tag k="name" v="Komsaveien" />
		<tag k="ssr:date" v="2019-12-27" />
		<tag k="ssr:gruppe" v="veg" />
		<tag k="ssr:hovedgruppe" v="infrastruktur" />
		<tag k="ssr:stedsnr" v="26241" />
		<tag k="ssr:type" v="adressenavn" />
	</node>
	<node lat="69.96447457278572" lon="23.371816483285386" id="-97282">
		<tag k="name" v="Patoskogen" />
		<tag k="ssr:date" v="2019-12-27" />
		<tag k="ssr:gruppe" v="veg" />
		<tag k="ssr:hovedgruppe" v="infrastruktur" />
		<tag k="ssr:stedsnr" v="33130" />
		<tag k="ssr:type" v="adressenavn" />
	</node>
	<node lat="70.03963108965807" lon="22.954490539081778" id="-97413">
		<tag k="name" v="Ressebakken" />
		<tag k="ssr:date" v="2019-12-27" />
		<tag k="ssr:gruppe" v="veg" />
		<tag k="ssr:hovedgruppe" v="infrastruktur" />
		<tag k="ssr:stedsnr" v="86056" />
		<tag k="ssr:type" v="adressenavn" />
	</node>
	<node lat="69.96353076091731" lon="23.415589533571975" id="-97418">
		<tag k="name" v="Sagatun" />
		<tag k="ssr:date" v="2019-12-27" />
		<tag k="ssr:gruppe" v="veg" />
		<tag k="ssr:hovedgruppe" v="infrastruktur" />
		<tag k="ssr:stedsnr" v="86111" />
		<tag k="ssr:type" v="adressenavn" />
	</node>
	<node lat="69.965153739398" lon="23.278072492955886" id="-97419">
		<tag k="name" v="Markveien" />
		<tag k="ssr:date" v="2019-12-27" />
		<tag k="ssr:gruppe" v="veg" />
		<tag k="ssr:hovedgruppe" v="infrastruktur" />
		<tag k="ssr:stedsnr" v="86204" />
		<tag k="ssr:type" v="adressenavn" />
	</node>
	<node lat="69.95197013381862" lon="23.212886657574444" id="-97430">
		<tag k="name" v="Måsesvingen" />
		<tag k="ssr:date" v="2019-12-27" />
		<tag k="ssr:gruppe" v="veg" />
		<tag k="ssr:hovedgruppe" v="infrastruktur" />
		<tag k="ssr:stedsnr" v="86737" />
		<tag k="ssr:type" v="adressenavn" />
	</node>
	<node lat="69.9226199683528" lon="23.49821610501344" id="-97437">
		<tag k="name" v="Seterveien" />
		<tag k="ssr:date" v="2019-12-27" />
		<tag k="ssr:gruppe" v="veg" />
		<tag k="ssr:hovedgruppe" v="infrastruktur" />
		<tag k="ssr:stedsnr" v="87094" />
		<tag k="ssr:type" v="adressenavn" />
	</node>
	<node lat="69.97448891533914" lon="23.305787793482626" id="-97444">
		<tag k="name" v="Holstbakkveien" />
		<tag k="ssr:date" v="2019-12-27" />
		<tag k="ssr:gruppe" v="veg" />
		<tag k="ssr:hovedgruppe" v="infrastruktur" />
		<tag k="ssr:stedsnr" v="87148" />
		<tag k="ssr:type" v="adressenavn" />
	</node>
	<node lat="69.97415286344615" lon="23.3574719373665" id="-97447">
		<tag k="name" v="Nordahl Griegsvei" />
		<tag k="ssr:date" v="2019-12-27" />
		<tag k="ssr:gruppe" v="veg" />
		<tag k="ssr:hovedgruppe" v="infrastruktur" />
		<tag k="ssr:stedsnr" v="87161" />
		<tag k="ssr:type" v="adressenavn" />
	</node>
	<node lat="69.96660285112567" lon="23.3293424552385" id="-97448">
		<tag k="name" v="Geitramsveien" />
		<tag k="ssr:date" v="2019-12-27" />
		<tag k="ssr:gruppe" v="veg" />
		<tag k="ssr:hovedgruppe" v="infrastruktur" />
		<tag k="ssr:stedsnr" v="87163" />
		<tag k="ssr:type" v="adressenavn" />
	</node>
	<node lat="69.97589069448063" lon="23.30856798712436" id="-97449">
		<tag k="name" v="Storbakken" />
		<tag k="ssr:date" v="2019-12-27" />
		<tag k="ssr:gruppe" v="veg" />
		<tag k="ssr:hovedgruppe" v="infrastruktur" />
		<tag k="ssr:stedsnr" v="87168" />
		<tag k="ssr:type" v="adressenavn" />
	</node>
	<node lat="70.08941111194116" lon="22.74292494470877" id="-97464">
		<tag k="name" v="Eidsnes" />
		<tag k="ssr:date" v="2019-12-27" />
		<tag k="ssr:gruppe" v="navigasjon" />
		<tag k="ssr:hovedgruppe" v="infrastruktur" />
		<tag k="ssr:stedsnr" v="91186" />
		<tag k="ssr:type" v="fyrlykt" />
	</node>
	<node lat="69.947458255303" lon="23.247526923655318" id="-97465">
		<tag k="name" v="Thomasbakken" />
		<tag k="ssr:date" v="2019-12-27" />
		<tag k="ssr:gruppe" v="veg" />
		<tag k="ssr:hovedgruppe" v="infrastruktur" />
		<tag k="ssr:stedsnr" v="94154" />
		<tag k="ssr:type" v="adressenavn" />
	</node>
	<node lat="69.9517480392498" lon="23.26483507611657" id="-97607">
		<tag k="name" v="Elvestrand" />
		<tag k="ssr:date" v="2019-12-27" />
		<tag k="ssr:gruppe" v="veg" />
		<tag k="ssr:hovedgruppe" v="infrastruktur" />
		<tag k="ssr:stedsnr" v="146727" />
		<tag k="ssr:type" v="adressenavn" />
	</node>
	<node lat="69.94990237658537" lon="23.245981779444183" id="-97608">
		<tag k="name" v="Reistadhaugen" />
		<tag k="ssr:date" v="2019-12-27" />
		<tag k="ssr:gruppe" v="veg" />
		<tag k="ssr:hovedgruppe" v="infrastruktur" />
		<tag k="ssr:stedsnr" v="146729" />
		<tag k="ssr:type" v="adressenavn" />
	</node>
	<node lat="69.9307610131722" lon="23.258321910816857" id="-97609">
		<tag k="name" v="Raipasveien" />
		<tag k="ssr:date" v="2019-12-27" />
		<tag k="ssr:gruppe" v="veg" />
		<tag k="ssr:hovedgruppe" v="infrastruktur" />
		<tag k="ssr:stedsnr" v="146765" />
		<tag k="ssr:type" v="adressenavn" />
	</node>
	<node lat="69.96408009990267" lon="23.261031925615423" id="-97613">
		<tag k="name" v="Myrbakken" />
		<tag k="ssr:date" v="2019-12-27" />
		<tag k="ssr:gruppe" v="veg" />
		<tag k="ssr:hovedgruppe" v="infrastruktur" />
		<tag k="ssr:stedsnr" v="146592" />
		<tag k="ssr:type" v="adressenavn" />
	</node>
	<node lat="69.96869148462804" lon="23.331272856403096" id="-97616">
		<tag k="name" v="Blålyngveien" />
		<tag k="ssr:date" v="2019-12-27" />
		<tag k="ssr:gruppe" v="veg" />
		<tag k="ssr:hovedgruppe" v="infrastruktur" />
		<tag k="ssr:stedsnr" v="147183" />
		<tag k="ssr:type" v="adressenavn" />
	</node>
	<node lat="70.122430049035" lon="23.403204661036884" id="-97646">
		<tag k="name" v="Ole Andreasveien" />
		<tag k="ssr:date" v="2019-12-27" />
		<tag k="ssr:gruppe" v="veg" />
		<tag k="ssr:hovedgruppe" v="infrastruktur" />
		<tag k="ssr:stedsnr" v="147470" />
		<tag k="ssr:type" v="adressenavn" />
	</node>
	<node lat="69.96284813977417" lon="23.378795323655545" id="-97661">
		<tag k="name" v="Spireaveien" />
		<tag k="ssr:date" v="2019-12-27" />
		<tag k="ssr:gruppe" v="veg" />
		<tag k="ssr:hovedgruppe" v="infrastruktur" />
		<tag k="ssr:stedsnr" v="154118" />
		<tag k="ssr:type" v="adressenavn" />
	</node>
	<node lat="69.95168453775518" lon="23.22712788969327" id="-97662">
		<tag k="name" v="Falkeveien" />
		<tag k="ssr:date" v="2019-12-27" />
		<tag k="ssr:gruppe" v="veg" />
		<tag k="ssr:hovedgruppe" v="infrastruktur" />
		<tag k="ssr:stedsnr" v="154183" />
		<tag k="ssr:type" v="adressenavn" />
	</node>
	<node lat="69.9628096156495" lon="23.42589911054908" id="-97663">
		<tag k="name" v="Høysletta" />
		<tag k="ssr:date" v="2019-12-27" />
		<tag k="ssr:gruppe" v="veg" />
		<tag k="ssr:hovedgruppe" v="infrastruktur" />
		<tag k="ssr:stedsnr" v="154185" />
		<tag k="ssr:type" v="adressenavn" />
	</node>
	<node lat="69.97721881423195" lon="23.29058180634733" id="-97664">
		<tag k="name" v="Komsahøyden" />
		<tag k="ssr:date" v="2019-12-27" />
		<tag k="ssr:gruppe" v="veg" />
		<tag k="ssr:hovedgruppe" v="infrastruktur" />
		<tag k="ssr:stedsnr" v="154190" />
		<tag k="ssr:type" v="adressenavn" />
	</node>
	<node lat="69.96455778988444" lon="23.257643911576896" id="-97823">
		<tag k="name" v="Kirkebakken" />
		<tag k="ssr:date" v="2019-12-27" />
		<tag k="ssr:gruppe" v="veg" />
		<tag k="ssr:hovedgruppe" v="infrastruktur" />
		<tag k="ssr:stedsnr" v="207167" />
		<tag k="ssr:type" v="adressenavn" />
	</node>
	<node lat="70.04430401562668" lon="22.95054129370568" id="-97824">
		<tag k="name" v="Åsbakken" />
		<tag k="ssr:date" v="2019-12-27" />
		<tag k="ssr:gruppe" v="veg" />
		<tag k="ssr:hovedgruppe" v="infrastruktur" />
		<tag k="ssr:stedsnr" v="207169" />
		<tag k="ssr:type" v="adressenavn" />
	</node>
	<node lat="69.95351984765995" lon="23.215362158111994" id="-97826">
		<tag k="name" v="Alkeveien" />
		<tag k="ssr:date" v="2019-12-27" />
		<tag k="ssr:gruppe" v="veg" />
		<tag k="ssr:hovedgruppe" v="infrastruktur" />
		<tag k="ssr:stedsnr" v="207582" />
		<tag k="ssr:type" v="adressenavn" />
	</node>
	<node lat="69.96785274810537" lon="23.337901198954903" id="-97832">
		<tag k="name" v="Einegjerdet" />
		<tag k="ssr:date" v="2019-12-27" />
		<tag k="ssr:gruppe" v="veg" />
		<tag k="ssr:hovedgruppe" v="infrastruktur" />
		<tag k="ssr:stedsnr" v="207780" />
		<tag k="ssr:type" v="adressenavn" />
	</node>
	<node lat="69.95884053006104" lon="23.392804369666127" id="-97836">
		<tag k="name" v="Sisselrotveien" />
		<tag k="ssr:date" v="2019-12-27" />
		<tag k="ssr:gruppe" v="veg" />
		<tag k="ssr:hovedgruppe" v="infrastruktur" />
		<tag k="ssr:stedsnr" v="208070" />
		<tag k="ssr:type" v="adressenavn" />
	</node>
	<node lat="69.9725381797829" lon="23.349472943847204" id="-97840">
		<tag k="name" v="Furubakken" />
		<tag k="ssr:date" v="2019-12-27" />
		<tag k="ssr:gruppe" v="veg" />
		<tag k="ssr:hovedgruppe" v="infrastruktur" />
		<tag k="ssr:stedsnr" v="208162" />
		<tag k="ssr:type" v="adressenavn" />
	</node>
	<node lat="69.96247511253486" lon="23.247048769374924" id="-97842">
		<tag k="name" v="Vannveien" />
		<tag k="ssr:date" v="2019-12-27" />
		<tag k="ssr:gruppe" v="veg" />
		<tag k="ssr:hovedgruppe" v="infrastruktur" />
		<tag k="ssr:stedsnr" v="208565" />
		<tag k="ssr:type" v="adressenavn" />
	</node>
	<node lat="69.96136262232896" lon="23.238280136714366" id="-97843">
		<tag k="name" v="Fogdebakken" />
		<tag k="ssr:date" v="2019-12-27" />
		<tag k="ssr:gruppe" v="veg" />
		<tag k="ssr:hovedgruppe" v="infrastruktur" />
		<tag k="ssr:stedsnr" v="208568" />
		<tag k="ssr:type" v="adressenavn" />
	</node>
	<node lat="70.11977293777244" lon="23.40468922137775" id="-97850">
		<tag k="name" v="Mellomveien" />
		<tag k="ssr:date" v="2019-12-27" />
		<tag k="ssr:gruppe" v="veg" />
		<tag k="ssr:hovedgruppe" v="infrastruktur" />
		<tag k="ssr:stedsnr" v="208489" />
		<tag k="ssr:type" v="adressenavn" />
	</node>
	<node lat="69.96194605679581" lon="23.382080166469567" id="-97865">
		<tag k="name" v="Seljeveien" />
		<tag k="ssr:date" v="2019-12-27" />
		<tag k="ssr:gruppe" v="veg" />
		<tag k="ssr:hovedgruppe" v="infrastruktur" />
		<tag k="ssr:stedsnr" v="212399" />
		<tag k="ssr:type" v="adressenavn" />
	</node>
	<node lat="69.94931868797251" lon="23.252992310581334" id="-97890">
		<tag k="name" v="Thomasbrinken" />
		<tag k="ssr:date" v="2019-12-27" />
		<tag k="ssr:gruppe" v="veg" />
		<tag k="ssr:hovedgruppe" v="infrastruktur" />
		<tag k="ssr:stedsnr" v="276194" />
		<tag k="ssr:type" v="adressenavn" />
	</node>
	<node lat="69.96111509301811" lon="23.242087960689403" id="-97913">
		<tag k="name" v="Skoleåsen" />
		<tag k="ssr:date" v="2019-12-27" />
		<tag k="ssr:gruppe" v="veg" />
		<tag k="ssr:hovedgruppe" v="infrastruktur" />
		<tag k="ssr:stedsnr" v="337131" />
		<tag k="ssr:type" v="adressenavn" />
	</node>
	<node lat="69.96997120752181" lon="23.37945703566083" id="-98011">
		<tag k="name" v="Flomfaret" />
		<tag k="ssr:date" v="2019-12-27" />
		<tag k="ssr:gruppe" v="veg" />
		<tag k="ssr:hovedgruppe" v="infrastruktur" />
		<tag k="ssr:stedsnr" v="329038" />
		<tag k="ssr:type" v="adressenavn" />
	</node>
	<node lat="69.96097837580719" lon="23.386843701110365" id="-98013">
		<tag k="name" v="Bjørkeveien" />
		<tag k="ssr:date" v="2019-12-27" />
		<tag k="ssr:gruppe" v="veg" />
		<tag k="ssr:hovedgruppe" v="infrastruktur" />
		<tag k="ssr:stedsnr" v="329127" />
		<tag k="ssr:type" v="adressenavn" />
	</node>
	<node lat="69.9717808730639" lon="23.25918524745826" id="-98025">
		<tag k="name" v="Tollevikveien" />
		<tag k="ssr:date" v="2019-12-27" />
		<tag k="ssr:gruppe" v="veg" />
		<tag k="ssr:hovedgruppe" v="infrastruktur" />
		<tag k="ssr:stedsnr" v="329197" />
		<tag k="ssr:type" v="adressenavn" />
	</node>
	<node lat="69.96489873027225" lon="23.25388848411067" id="-98026">
		<tag k="name" v="Midtbakkveien" />
		<tag k="ssr:date" v="2019-12-27" />
		<tag k="ssr:gruppe" v="veg" />
		<tag k="ssr:hovedgruppe" v="infrastruktur" />
		<tag k="ssr:stedsnr" v="329201" />
		<tag k="ssr:type" v="adressenavn" />
	</node>
	<node lat="69.95159762587754" lon="23.19951832325546" id="-98031">
		<tag k="name" v="Kobbeveien" />
		<tag k="ssr:date" v="2019-12-27" />
		<tag k="ssr:gruppe" v="veg" />
		<tag k="ssr:hovedgruppe" v="infrastruktur" />
		<tag k="ssr:stedsnr" v="329480" />
		<tag k="ssr:type" v="adressenavn" />
	</node>
	<node lat="69.96414148655948" lon="23.25897895425198" id="-98034">
		<tag k="name" v="Prestegårdsveien" />
		<tag k="ssr:date" v="2019-12-27" />
		<tag k="ssr:gruppe" v="veg" />
		<tag k="ssr:hovedgruppe" v="infrastruktur" />
		<tag k="ssr:stedsnr" v="329725" />
		<tag k="ssr:type" v="adressenavn" />
	</node>
	<node lat="69.97465687580981" lon="23.339195718280028" id="-98049">
		<tag k="name" v="Øvreveien" />
		<tag k="ssr:date" v="2019-12-27" />
		<tag k="ssr:gruppe" v="veg" />
		<tag k="ssr:hovedgruppe" v="infrastruktur" />
		<tag k="ssr:stedsnr" v="330193" />
		<tag k="ssr:type" v="adressenavn" />
	</node>
	<node lat="69.97553625073216" lon="23.3288684654744" id="-98050">
		<tag k="name" v="Buktaveien" />
		<tag k="ssr:date" v="2019-12-27" />
		<tag k="ssr:gruppe" v="veg" />
		<tag k="ssr:hovedgruppe" v="infrastruktur" />
		<tag k="ssr:stedsnr" v="330197" />
		<tag k="ssr:type" v="adressenavn" />
	</node>
	<node lat="69.97596013592259" lon="23.295134839733176" id="-98051">
		<tag k="name" v="Kinoveien" />
		<tag k="ssr:date" v="2019-12-27" />
		<tag k="ssr:gruppe" v="veg" />
		<tag k="ssr:hovedgruppe" v="infrastruktur" />
		<tag k="ssr:stedsnr" v="330201" />
		<tag k="ssr:type" v="adressenavn" />
	</node>
	<node lat="70.13736944811004" lon="23.012747155969297" id="-98065">
		<tag k="name" v="Langnesholmen" />
		<tag k="ssr:date" v="2019-12-27" />
		<tag k="ssr:gruppe" v="navigasjon" />
		<tag k="ssr:hovedgruppe" v="infrastruktur" />
		<tag k="ssr:stedsnr" v="333484" />
		<tag k="ssr:type" v="fyrlykt" />
	</node>
	<node lat="69.95138875592353" lon="23.2488241664572" id="-98067">
		<tag k="name" v="Reistadberget" />
		<tag k="ssr:date" v="2019-12-27" />
		<tag k="ssr:gruppe" v="veg" />
		<tag k="ssr:hovedgruppe" v="infrastruktur" />
		<tag k="ssr:stedsnr" v="337154" />
		<tag k="ssr:type" v="adressenavn" />
	</node>
	<node lat="69.94935907802547" lon="23.24788107788285" id="-98068">
		<tag k="name" v="Reistadskogen" />
		<tag k="ssr:date" v="2019-12-27" />
		<tag k="ssr:gruppe" v="veg" />
		<tag k="ssr:hovedgruppe" v="infrastruktur" />
		<tag k="ssr:stedsnr" v="337156" />
		<tag k="ssr:type" v="adressenavn" />
	</node>
	<node lat="69.94788142193555" lon="23.24939069981612" id="-98069">
		<tag k="name" v="Thomassletta" />
		<tag k="ssr:date" v="2019-12-27" />
		<tag k="ssr:gruppe" v="veg" />
		<tag k="ssr:hovedgruppe" v="infrastruktur" />
		<tag k="ssr:stedsnr" v="337158" />
		<tag k="ssr:type" v="adressenavn" />
	</node>
	<node lat="69.95552076551606" lon="23.377417095217133" id="-98201">
		<tag k="name" v="Sildreveien" />
		<tag k="ssr:date" v="2019-12-27" />
		<tag k="ssr:gruppe" v="veg" />
		<tag k="ssr:hovedgruppe" v="infrastruktur" />
		<tag k="ssr:stedsnr" v="389058" />
		<tag k="ssr:type" v="adressenavn" />
	</node>
	<node lat="69.96428416339432" lon="23.429473635694205" id="-98202">
		<tag k="name" v="Aspemyra" />
		<tag k="ssr:date" v="2019-12-27" />
		<tag k="ssr:gruppe" v="veg" />
		<tag k="ssr:hovedgruppe" v="infrastruktur" />
		<tag k="ssr:stedsnr" v="389062" />
		<tag k="ssr:type" v="adressenavn" />
	</node>
	<node lat="69.93158812017533" lon="23.438649648310083" id="-98203">
		<tag k="name" v="Bælgiouda" />
		<tag k="ssr:date" v="2019-12-27" />
		<tag k="ssr:gruppe" v="veg" />
		<tag k="ssr:hovedgruppe" v="infrastruktur" />
		<tag k="ssr:stedsnr" v="389065" />
		<tag k="ssr:type" v="adressenavn" />
	</node>
	<node lat="69.93831413677484" lon="23.408542001779292" id="-98204">
		<tag k="name" v="Isbergveien" />
		<tag k="ssr:date" v="2019-12-27" />
		<tag k="ssr:gruppe" v="veg" />
		<tag k="ssr:hovedgruppe" v="infrastruktur" />
		<tag k="ssr:stedsnr" v="389072" />
		<tag k="ssr:type" v="adressenavn" />
	</node>
	<node lat="69.97631768564752" lon="23.30760219977044" id="-98209">
		<tag k="name" v="Amtmannsnesveien" />
		<tag k="ssr:date" v="2019-12-27" />
		<tag k="ssr:gruppe" v="veg" />
		<tag k="ssr:hovedgruppe" v="infrastruktur" />
		<tag k="ssr:stedsnr" v="389224" />
		<tag k="ssr:type" v="adressenavn" />
	</node>
	<node lat="69.9729336742917" lon="23.266238560135108" id="-98213">
		<tag k="name" v="Valhallveien" />
		<tag k="ssr:date" v="2019-12-27" />
		<tag k="ssr:gruppe" v="veg" />
		<tag k="ssr:hovedgruppe" v="infrastruktur" />
		<tag k="ssr:stedsnr" v="389180" />
		<tag k="ssr:type" v="adressenavn" />
	</node>
	<node lat="69.96632624407034" lon="23.265160389505475" id="-98215">
		<tag k="name" v="Karl Johnsens vei" />
		<tag k="ssr:date" v="2019-12-27" />
		<tag k="ssr:gruppe" v="veg" />
		<tag k="ssr:hovedgruppe" v="infrastruktur" />
		<tag k="ssr:stedsnr" v="389187" />
		<tag k="ssr:type" v="adressenavn" />
	</node>
	<node lat="69.9581638193609" lon="23.243584046394723" id="-98219">
		<tag k="name" v="Holtenalleen" />
		<tag k="ssr:date" v="2019-12-27" />
		<tag k="ssr:gruppe" v="veg" />
		<tag k="ssr:hovedgruppe" v="infrastruktur" />
		<tag k="ssr:stedsnr" v="389603" />
		<tag k="ssr:type" v="adressenavn" />
	</node>
	<node lat="70.21554167064589" lon="23.181258264135444" id="-98336">
		<tag k="loc_name" v="Løkta" />
		<tag k="name" v="Korsnes" />
		<tag k="ssr:date" v="2019-12-27" />
		<tag k="ssr:gruppe" v="navigasjon" />
		<tag k="ssr:hovedgruppe" v="infrastruktur" />
		<tag k="ssr:stedsnr" v="444553" />
		<tag k="ssr:type" v="fyrlykt" />
	</node>
	<node lat="69.95911689403171" lon="23.385711255100354" id="-98497">
		<tag k="name" v="Kråkefotveien" />
		<tag k="ssr:date" v="2019-12-27" />
		<tag k="ssr:gruppe" v="veg" />
		<tag k="ssr:hovedgruppe" v="infrastruktur" />
		<tag k="ssr:stedsnr" v="511070" />
		<tag k="ssr:type" v="adressenavn" />
	</node>
	<node lat="69.95922444607278" lon="23.419538877647472" id="-98498">
		<tag k="name" v="Sagahøyden" />
		<tag k="ssr:date" v="2019-12-27" />
		<tag k="ssr:gruppe" v="veg" />
		<tag k="ssr:hovedgruppe" v="infrastruktur" />
		<tag k="ssr:stedsnr" v="511076" />
		<tag k="ssr:type" v="adressenavn" />
	</node>
	<node lat="69.95974573121826" lon="23.412679575513078" id="-98499">
		<tag k="name" v="Saga" />
		<tag k="ssr:date" v="2019-12-27" />
		<tag k="ssr:gruppe" v="veg" />
		<tag k="ssr:hovedgruppe" v="infrastruktur" />
		<tag k="ssr:stedsnr" v="511077" />
		<tag k="ssr:type" v="adressenavn" />
	</node>
	<node lat="69.95495430834593" lon="23.381413743264353" id="-98500">
		<tag k="name" v="Myrullveien" />
		<tag k="ssr:date" v="2019-12-27" />
		<tag k="ssr:gruppe" v="veg" />
		<tag k="ssr:hovedgruppe" v="infrastruktur" />
		<tag k="ssr:stedsnr" v="511079" />
		<tag k="ssr:type" v="adressenavn" />
	</node>
	<node lat="69.95835589387842" lon="23.233487732594686" id="-98525">
		<tag k="name" v="Breverudsvingen" />
		<tag k="ssr:date" v="2019-12-27" />
		<tag k="ssr:gruppe" v="veg" />
		<tag k="ssr:hovedgruppe" v="infrastruktur" />
		<tag k="ssr:stedsnr" v="511575" />
		<tag k="ssr:type" v="adressenavn" />
	</node>
	<node lat="69.95582708449108" lon="23.265519903972095" id="-98528">
		<tag k="name" v="Spikergjerdet" />
		<tag k="ssr:date" v="2019-12-27" />
		<tag k="ssr:gruppe" v="veg" />
		<tag k="ssr:hovedgruppe" v="infrastruktur" />
		<tag k="ssr:stedsnr" v="511722" />
		<tag k="ssr:type" v="adressenavn" />
	</node>
	<node lat="69.97137519167097" lon="23.37267761332791" id="-98538">
		<tag k="name" v="Ishavsveien" />
		<tag k="ssr:date" v="2019-12-27" />
		<tag k="ssr:gruppe" v="veg" />
		<tag k="ssr:hovedgruppe" v="infrastruktur" />
		<tag k="ssr:stedsnr" v="512192" />
		<tag k="ssr:type" v="adressenavn" />
	</node>
	<node lat="70.11268611119263" lon="23.36877491360824" id="-98578">
		<tag k="name" v="Landgudnes" />
		<tag k="ssr:date" v="2019-12-27" />
		<tag k="ssr:gruppe" v="navigasjon" />
		<tag k="ssr:hovedgruppe" v="infrastruktur" />
		<tag k="ssr:stedsnr" v="530992" />
		<tag k="ssr:type" v="fyrlykt" />
	</node>
	<node lat="70.32949444498226" lon="22.956194372685562" id="-98679">
		<tag k="name" v="Mjånes" />
		<tag k="ssr:date" v="2019-12-27" />
		<tag k="ssr:gruppe" v="navigasjon" />
		<tag k="ssr:hovedgruppe" v="infrastruktur" />
		<tag k="ssr:stedsnr" v="565880" />
		<tag k="ssr:type" v="fyrlykt" />
	</node>
	<node lat="69.9650846224586" lon="23.375669363413785" id="-98703">
		<tag k="name" v="Risveien" />
		<tag k="ssr:date" v="2019-12-27" />
		<tag k="ssr:gruppe" v="veg" />
		<tag k="ssr:hovedgruppe" v="infrastruktur" />
		<tag k="ssr:stedsnr" v="571098" />
		<tag k="ssr:type" v="adressenavn" />
	</node>
	<node lat="69.96052356811197" lon="23.239442050291824" id="-98707">
		<tag k="name" v="Skogforvalterveien" />
		<tag k="ssr:date" v="2019-12-27" />
		<tag k="ssr:gruppe" v="veg" />
		<tag k="ssr:hovedgruppe" v="infrastruktur" />
		<tag k="ssr:stedsnr" v="571577" />
		<tag k="ssr:type" v="adressenavn" />
	</node>
	<node lat="69.9515294962582" lon="23.224449404881245" id="-98711">
		<tag k="name" v="Ørneveien" />
		<tag k="ssr:date" v="2019-12-27" />
		<tag k="ssr:gruppe" v="veg" />
		<tag k="ssr:hovedgruppe" v="infrastruktur" />
		<tag k="ssr:stedsnr" v="571710" />
		<tag k="ssr:type" v="adressenavn" />
	</node>
	<node lat="69.95236052602328" lon="23.21612655860277" id="-98712">
		<tag k="name" v="Ternesvingen" />
		<tag k="ssr:date" v="2019-12-27" />
		<tag k="ssr:gruppe" v="veg" />
		<tag k="ssr:hovedgruppe" v="infrastruktur" />
		<tag k="ssr:stedsnr" v="571713" />
		<tag k="ssr:type" v="adressenavn" />
	</node>
	<node lat="69.96576590905828" lon="23.247799215636395" id="-98726">
		<tag k="name" v="Bakkeveien" />
		<tag k="ssr:date" v="2019-12-27" />
		<tag k="ssr:gruppe" v="veg" />
		<tag k="ssr:hovedgruppe" v="infrastruktur" />
		<tag k="ssr:stedsnr" v="572586" />
		<tag k="ssr:type" v="adressenavn" />
	</node>
	<node lat="69.95098447246768" lon="23.254172585627032" id="-98739">
		<tag k="name" v="Reistadstien" />
		<tag k="ssr:date" v="2019-12-27" />
		<tag k="ssr:gruppe" v="veg" />
		<tag k="ssr:hovedgruppe" v="infrastruktur" />
		<tag k="ssr:stedsnr" v="579160" />
		<tag k="ssr:type" v="adressenavn" />
	</node>
	<node lat="70.04065963981516" lon="22.951110736575586" id="-98896">
		<tag k="name" v="Handelstranda" />
		<tag k="ssr:date" v="2019-12-27" />
		<tag k="ssr:gruppe" v="veg" />
		<tag k="ssr:hovedgruppe" v="infrastruktur" />
		<tag k="ssr:stedsnr" v="632072" />
		<tag k="ssr:type" v="adressenavn" />
	</node>
	<node lat="69.95850623233801" lon="23.377333052853967" id="-98900">
		<tag k="name" v="Engrappveien" />
		<tag k="ssr:date" v="2019-12-27" />
		<tag k="ssr:gruppe" v="veg" />
		<tag k="ssr:hovedgruppe" v="infrastruktur" />
		<tag k="ssr:stedsnr" v="632095" />
		<tag k="ssr:type" v="adressenavn" />
	</node>
	<node lat="69.9598025905969" lon="23.230248504613918" id="-98907">
		<tag k="name" v="Bekkefaret" />
		<tag k="ssr:date" v="2019-12-27" />
		<tag k="ssr:gruppe" v="veg" />
		<tag k="ssr:hovedgruppe" v="infrastruktur" />
		<tag k="ssr:stedsnr" v="632585" />
		<tag k="ssr:type" v="adressenavn" />
	</node>
	<node lat="69.95678686336697" lon="23.366060511457647" id="-98919">
		<tag k="name" v="Kvekeveien" />
		<tag k="ssr:date" v="2019-12-27" />
		<tag k="ssr:gruppe" v="veg" />
		<tag k="ssr:hovedgruppe" v="infrastruktur" />
		<tag k="ssr:stedsnr" v="632760" />
		<tag k="ssr:type" v="adressenavn" />
	</node>
	<node lat="69.95674998641543" lon="23.377755244876305" id="-98920">
		<tag k="name" v="Blåtoppveien" />
		<tag k="ssr:date" v="2019-12-27" />
		<tag k="ssr:gruppe" v="veg" />
		<tag k="ssr:hovedgruppe" v="infrastruktur" />
		<tag k="ssr:stedsnr" v="632765" />
		<tag k="ssr:type" v="adressenavn" />
	</node>
	<node lat="69.95558156129762" lon="23.36692721455143" id="-98921">
		<tag k="name" v="Møllebakken" />
		<tag k="ssr:date" v="2019-12-27" />
		<tag k="ssr:gruppe" v="veg" />
		<tag k="ssr:hovedgruppe" v="infrastruktur" />
		<tag k="ssr:stedsnr" v="632768" />
		<tag k="ssr:type" v="adressenavn" />
	</node>
	<node lat="69.95345793157692" lon="23.24425599148052" id="-98937">
		<tag k="name" v="Elgknausen" />
		<tag k="ssr:date" v="2019-12-27" />
		<tag k="ssr:gruppe" v="veg" />
		<tag k="ssr:hovedgruppe" v="infrastruktur" />
		<tag k="ssr:stedsnr" v="640165" />
		<tag k="ssr:type" v="adressenavn" />
	</node>
	<node lat="69.95363801296934" lon="23.210157632957515" id="-99067">
		<tag k="name" v="Furuly" />
		<tag k="ssr:date" v="2019-12-27" />
		<tag k="ssr:gruppe" v="veg" />
		<tag k="ssr:hovedgruppe" v="infrastruktur" />
		<tag k="ssr:stedsnr" v="753540" />
		<tag k="ssr:type" v="adressenavn" />
	</node>
	<node lat="69.95898922868031" lon="23.38737486288521" id="-99082">
		<tag k="name" v="Kjerringrokkveien" />
		<tag k="ssr:date" v="2019-12-27" />
		<tag k="ssr:gruppe" v="veg" />
		<tag k="ssr:hovedgruppe" v="infrastruktur" />
		<tag k="ssr:stedsnr" v="754090" />
		<tag k="ssr:type" v="adressenavn" />
	</node>
	<node lat="69.97631768564752" lon="23.30760219977044" id="-99085">
		<tag k="name" v="Bullveien" />
		<tag k="ssr:date" v="2019-12-27" />
		<tag k="ssr:gruppe" v="veg" />
		<tag k="ssr:hovedgruppe" v="infrastruktur" />
		<tag k="ssr:stedsnr" v="754192" />
		<tag k="ssr:type" v="adressenavn" />
	</node>
	<node lat="69.9674906961926" lon="23.325014717093026" id="-99086">
		<tag k="name" v="Røsslyngveien" />
		<tag k="ssr:date" v="2019-12-27" />
		<tag k="ssr:gruppe" v="veg" />
		<tag k="ssr:hovedgruppe" v="infrastruktur" />
		<tag k="ssr:stedsnr" v="754197" />
		<tag k="ssr:type" v="adressenavn" />
	</node>
	<node lat="69.96368965205485" lon="23.383305924866058" id="-99087">
		<tag k="name" v="Kronstadbakken" />
		<tag k="ssr:date" v="2019-12-27" />
		<tag k="ssr:gruppe" v="veg" />
		<tag k="ssr:hovedgruppe" v="infrastruktur" />
		<tag k="ssr:stedsnr" v="754147" />
		<tag k="ssr:type" v="adressenavn" />
	</node>
	<node lat="69.96728633942807" lon="23.256751328900236" id="-99090">
		<tag k="name" v="Myrveien" />
		<tag k="ssr:date" v="2019-12-27" />
		<tag k="ssr:gruppe" v="veg" />
		<tag k="ssr:hovedgruppe" v="infrastruktur" />
		<tag k="ssr:stedsnr" v="754240" />
		<tag k="ssr:type" v="adressenavn" />
	</node>
	<node lat="69.95183873070074" lon="23.2283771277314" id="-99109">
		<tag k="name" v="Fjellvåkveien" />
		<tag k="ssr:date" v="2019-12-27" />
		<tag k="ssr:gruppe" v="veg" />
		<tag k="ssr:hovedgruppe" v="infrastruktur" />
		<tag k="ssr:stedsnr" v="761117" />
		<tag k="ssr:type" v="adressenavn" />
	</node>
	<node lat="69.95583514790168" lon="23.225570905173893" id="-99110">
		<tag k="name" v="Granåsbakken" />
		<tag k="ssr:date" v="2019-12-27" />
		<tag k="ssr:gruppe" v="veg" />
		<tag k="ssr:hovedgruppe" v="infrastruktur" />
		<tag k="ssr:stedsnr" v="761118" />
		<tag k="ssr:type" v="adressenavn" />
	</node>
	<node lat="69.95515393840654" lon="23.22840836790206" id="-99111">
		<tag k="name" v="Breverudmyra" />
		<tag k="ssr:date" v="2019-12-27" />
		<tag k="ssr:gruppe" v="veg" />
		<tag k="ssr:hovedgruppe" v="infrastruktur" />
		<tag k="ssr:stedsnr" v="761124" />
		<tag k="ssr:type" v="adressenavn" />
	</node>
	<node lat="69.95735368329856" lon="23.369512623441942" id="-99112">
		<tag k="name" v="Svartaksveien" />
		<tag k="ssr:date" v="2019-12-27" />
		<tag k="ssr:gruppe" v="veg" />
		<tag k="ssr:hovedgruppe" v="infrastruktur" />
		<tag k="ssr:stedsnr" v="761132" />
		<tag k="ssr:type" v="adressenavn" />
	</node>
	<node lat="69.96154466603481" lon="23.408176341128225" id="-99113">
		<tag k="name" v="Tørrfossmoen" />
		<tag k="ssr:date" v="2019-12-27" />
		<tag k="ssr:gruppe" v="veg" />
		<tag k="ssr:hovedgruppe" v="infrastruktur" />
		<tag k="ssr:stedsnr" v="761174" />
		<tag k="ssr:type" v="adressenavn" />
	</node>
	<node lat="69.97513453494648" lon="23.296800120538844" id="-99250">
		<tag k="name" v="Yrkesskoleveien" />
		<tag k="ssr:date" v="2019-12-27" />
		<tag k="ssr:gruppe" v="veg" />
		<tag k="ssr:hovedgruppe" v="infrastruktur" />
		<tag k="ssr:stedsnr" v="815174" />
		<tag k="ssr:type" v="adressenavn" />
	</node>
	<node lat="69.96884310543214" lon="23.314239574476048" id="-99252">
		<tag k="name" v="Blokkebærveien" />
		<tag k="ssr:date" v="2019-12-27" />
		<tag k="ssr:gruppe" v="veg" />
		<tag k="ssr:hovedgruppe" v="infrastruktur" />
		<tag k="ssr:stedsnr" v="815185" />
		<tag k="ssr:type" v="adressenavn" />
	</node>
	<node lat="69.97088013027596" lon="23.36833800633931" id="-99253">
		<tag k="name" v="Kirkegårdsveien" />
		<tag k="ssr:date" v="2019-12-27" />
		<tag k="ssr:gruppe" v="veg" />
		<tag k="ssr:hovedgruppe" v="infrastruktur" />
		<tag k="ssr:stedsnr" v="815188" />
		<tag k="ssr:type" v="adressenavn" />
	</node>
	<node lat="69.96947288188302" lon="23.374499540556357" id="-99254">
		<tag k="name" v="Ringveien" />
		<tag k="ssr:date" v="2019-12-27" />
		<tag k="ssr:gruppe" v="veg" />
		<tag k="ssr:hovedgruppe" v="infrastruktur" />
		<tag k="ssr:stedsnr" v="815189" />
		<tag k="ssr:type" v="adressenavn" />
	</node>
	<node lat="69.97328714895337" lon="23.364178286737726" id="-99255">
		<tag k="name" v="Rishaugveien" />
		<tag k="ssr:date" v="2019-12-27" />
		<tag k="ssr:gruppe" v="veg" />
		<tag k="ssr:hovedgruppe" v="infrastruktur" />
		<tag k="ssr:stedsnr" v="815190" />
		<tag k="ssr:type" v="adressenavn" />
	</node>
	<node lat="69.96181319658827" lon="23.38730403089478" id="-99261">
		<tag k="name" v="Oldersvingen" />
		<tag k="ssr:date" v="2019-12-27" />
		<tag k="ssr:gruppe" v="veg" />
		<tag k="ssr:hovedgruppe" v="infrastruktur" />
		<tag k="ssr:stedsnr" v="814120" />
		<tag k="ssr:type" v="adressenavn" />
	</node>
	<node lat="69.97331006228488" lon="23.2665575289967" id="-99264">
		<tag k="name" v="Gimle" />
		<tag k="ssr:date" v="2019-12-27" />
		<tag k="ssr:gruppe" v="veg" />
		<tag k="ssr:hovedgruppe" v="infrastruktur" />
		<tag k="ssr:stedsnr" v="814225" />
		<tag k="ssr:type" v="adressenavn" />
	</node>
	<node lat="69.971057741615" lon="23.284134977037244" id="-99265">
		<tag k="name" v="Ekornsvingen" />
		<tag k="ssr:date" v="2019-12-27" />
		<tag k="ssr:gruppe" v="veg" />
		<tag k="ssr:hovedgruppe" v="infrastruktur" />
		<tag k="ssr:stedsnr" v="814226" />
		<tag k="ssr:type" v="adressenavn" />
	</node>
	<node lat="69.97248851117" lon="23.29572654502977" id="-99266">
		<tag k="name" v="Skoleveien" />
		<tag k="ssr:date" v="2019-12-27" />
		<tag k="ssr:gruppe" v="veg" />
		<tag k="ssr:hovedgruppe" v="infrastruktur" />
		<tag k="ssr:stedsnr" v="814227" />
		<tag k="ssr:type" v="adressenavn" />
	</node>
	<node lat="69.96435838007403" lon="23.267205690307424" id="-99267">
		<tag k="name" v="Løkkeveien" />
		<tag k="ssr:date" v="2019-12-27" />
		<tag k="ssr:gruppe" v="veg" />
		<tag k="ssr:hovedgruppe" v="infrastruktur" />
		<tag k="ssr:stedsnr" v="814234" />
		<tag k="ssr:type" v="adressenavn" />
	</node>
	<node lat="69.96894149866955" lon="23.270389303744782" id="-99268">
		<tag k="name" v="Maskinsvingen" />
		<tag k="ssr:date" v="2019-12-27" />
		<tag k="ssr:gruppe" v="veg" />
		<tag k="ssr:hovedgruppe" v="infrastruktur" />
		<tag k="ssr:stedsnr" v="814236" />
		<tag k="ssr:type" v="adressenavn" />
	</node>
	<node lat="69.96706205244466" lon="23.276091922077033" id="-99269">
		<tag k="name" v="Follumsvei" />
		<tag k="ssr:date" v="2019-12-27" />
		<tag k="ssr:gruppe" v="veg" />
		<tag k="ssr:hovedgruppe" v="infrastruktur" />
		<tag k="ssr:stedsnr" v="814238" />
		<tag k="ssr:type" v="adressenavn" />
	</node>
	<node lat="69.95543581182804" lon="23.22476985397682" id="-99278">
		<tag k="name" v="Granåsveien" />
		<tag k="ssr:date" v="2019-12-27" />
		<tag k="ssr:gruppe" v="veg" />
		<tag k="ssr:hovedgruppe" v="infrastruktur" />
		<tag k="ssr:stedsnr" v="814618" />
		<tag k="ssr:type" v="adressenavn" />
	</node>
	<node lat="69.96353806967849" lon="23.376072254341803" id="-99283">
		<tag k="name" v="Krattstien" />
		<tag k="ssr:date" v="2019-12-27" />
		<tag k="ssr:gruppe" v="veg" />
		<tag k="ssr:hovedgruppe" v="infrastruktur" />
		<tag k="ssr:stedsnr" v="814791" />
		<tag k="ssr:type" v="adressenavn" />
	</node>
	<node lat="69.961753036735" lon="23.236128358633582" id="-99295">
		<tag k="name" v="Moreneveien" />
		<tag k="ssr:date" v="2019-12-27" />
		<tag k="ssr:gruppe" v="veg" />
		<tag k="ssr:hovedgruppe" v="infrastruktur" />
		<tag k="ssr:stedsnr" v="815539" />
		<tag k="ssr:type" v="adressenavn" />
	</node>
	<node lat="70.21135222591235" lon="23.207298839537263" id="-99318">
		<tag k="name" v="Motkleppveien" />
		<tag k="ssr:date" v="2019-12-27" />
		<tag k="ssr:gruppe" v="veg" />
		<tag k="ssr:hovedgruppe" v="infrastruktur" />
		<tag k="ssr:stedsnr" v="817343" />
		<tag k="ssr:type" v="adressenavn" />
	</node>
	<node lat="70.0324241084614" lon="23.074775831172182" id="-99345">
		<tag k="name" v="Krokneset" />
		<tag k="ssr:date" v="2020-09-01" />
		<tag k="ssr:gruppe" v="navigasjon" />
		<tag k="ssr:hovedgruppe" v="infrastruktur" />
		<tag k="ssr:stedsnr" v="847385" />
		<tag k="ssr:type" v="lanterne" />
	</node>
	<node lat="69.96825745972909" lon="23.26201142414104" id="-99446">
		<tag k="name" v="Lunden" />
		<tag k="ssr:date" v="2019-12-27" />
		<tag k="ssr:gruppe" v="veg" />
		<tag k="ssr:hovedgruppe" v="infrastruktur" />
		<tag k="ssr:stedsnr" v="875205" />
		<tag k="ssr:type" v="adressenavn" />
	</node>
	<node lat="70.03369927975625" lon="22.938605897300146" id="-99447">
		<tag k="name" v="Vassbotnveien" />
		<tag k="ssr:date" v="2019-12-27" />
		<tag k="ssr:gruppe" v="veg" />
		<tag k="ssr:hovedgruppe" v="infrastruktur" />
		<tag k="ssr:stedsnr" v="875209" />
		<tag k="ssr:type" v="adressenavn" />
	</node>
	<node lat="69.97492372533526" lon="23.288717684277604" id="-99452">
		<tag k="name" v="Kongleveien" />
		<tag k="ssr:date" v="2019-12-27" />
		<tag k="ssr:gruppe" v="veg" />
		<tag k="ssr:hovedgruppe" v="infrastruktur" />
		<tag k="ssr:stedsnr" v="875202" />
		<tag k="ssr:type" v="adressenavn" />
	</node>
	<node lat="69.97141001915884" lon="23.293008364800073" id="-99475">
		<tag k="name" v="Åslia" />
		<tag k="ssr:date" v="2019-12-27" />
		<tag k="ssr:gruppe" v="veg" />
		<tag k="ssr:hovedgruppe" v="infrastruktur" />
		<tag k="ssr:stedsnr" v="876180" />
		<tag k="ssr:type" v="adressenavn" />
	</node>
	<node lat="69.97502376150342" lon="23.310512971160165" id="-99476">
		<tag k="name" v="Sandfallveien" />
		<tag k="ssr:date" v="2019-12-27" />
		<tag k="ssr:gruppe" v="veg" />
		<tag k="ssr:hovedgruppe" v="infrastruktur" />
		<tag k="ssr:stedsnr" v="876182" />
		<tag k="ssr:type" v="adressenavn" />
	</node>
	<node lat="69.97491908755008" lon="23.357881057365994" id="-99477">
		<tag k="name" v="Lensmannsveien" />
		<tag k="ssr:date" v="2019-12-27" />
		<tag k="ssr:gruppe" v="veg" />
		<tag k="ssr:hovedgruppe" v="infrastruktur" />
		<tag k="ssr:stedsnr" v="876187" />
		<tag k="ssr:type" v="adressenavn" />
	</node>
	<node lat="69.96644258266137" lon="23.37807989828756" id="-99494">
		<tag k="name" v="Ole Østlyngens vei" />
		<tag k="ssr:date" v="2019-12-27" />
		<tag k="ssr:gruppe" v="veg" />
		<tag k="ssr:hovedgruppe" v="infrastruktur" />
		<tag k="ssr:stedsnr" v="883170" />
		<tag k="ssr:type" v="adressenavn" />
	</node>
	<node lat="69.95299277000022" lon="23.24208032660362" id="-99495">
		<tag k="name" v="Elgfaret" />
		<tag k="ssr:date" v="2019-12-27" />
		<tag k="ssr:gruppe" v="veg" />
		<tag k="ssr:hovedgruppe" v="infrastruktur" />
		<tag k="ssr:stedsnr" v="883173" />
		<tag k="ssr:type" v="adressenavn" />
	</node>
	<node lat="69.97141056803551" lon="23.27162464671312" id="-99506">
		<tag k="name" v="Talviksvingen" />
		<tag k="ssr:date" v="2019-12-27" />
		<tag k="ssr:gruppe" v="veg" />
		<tag k="ssr:hovedgruppe" v="infrastruktur" />
		<tag k="ssr:stedsnr" v="936171" />
		<tag k="ssr:type" v="adressenavn" />
	</node>
	<node lat="69.97233070208507" lon="23.27610699938115" id="-99507">
		<tag k="name" v="Trudvang" />
		<tag k="ssr:date" v="2019-12-27" />
		<tag k="ssr:gruppe" v="veg" />
		<tag k="ssr:hovedgruppe" v="infrastruktur" />
		<tag k="ssr:stedsnr" v="936172" />
		<tag k="ssr:type" v="adressenavn" />
	</node>
	<node lat="69.9692759758158" lon="23.273910319912808" id="-99508">
		<tag k="name" v="Åsveien" />
		<tag k="ssr:date" v="2019-12-27" />
		<tag k="ssr:gruppe" v="veg" />
		<tag k="ssr:hovedgruppe" v="infrastruktur" />
		<tag k="ssr:stedsnr" v="936177" />
		<tag k="ssr:type" v="adressenavn" />
	</node>
	<node lat="69.95735707476018" lon="23.380114507100533" id="-99510">
		<tag k="name" v="Timoteiveien" />
		<tag k="ssr:date" v="2019-12-27" />
		<tag k="ssr:gruppe" v="veg" />
		<tag k="ssr:hovedgruppe" v="infrastruktur" />
		<tag k="ssr:stedsnr" v="936070" />
		<tag k="ssr:type" v="adressenavn" />
	</node>
	<node lat="69.95674227782207" lon="23.240208152045444" id="-99519">
		<tag k="name" v="Holtenjordet" />
		<tag k="ssr:date" v="2019-12-27" />
		<tag k="ssr:gruppe" v="veg" />
		<tag k="ssr:hovedgruppe" v="infrastruktur" />
		<tag k="ssr:stedsnr" v="936579" />
		<tag k="ssr:type" v="adressenavn" />
	</node>
	<node lat="70.17887778229313" lon="23.373505475861396" id="-99521">
		<tag k="name" v="Kjosryggen" />
		<tag k="ssr:date" v="2019-12-27" />
		<tag k="ssr:gruppe" v="sjøbunn" />
		<tag k="ssr:hovedgruppe" v="sjø" />
		<tag k="ssr:stedsnr" v="936951" />
		<tag k="ssr:type" v="ryggISjø" />
	</node>
	<node lat="69.95227562407094" lon="23.223758813585544" id="-99543">
		<tag k="name" v="Hubroveien" />
		<tag k="ssr:date" v="2019-12-27" />
		<tag k="ssr:gruppe" v="veg" />
		<tag k="ssr:hovedgruppe" v="infrastruktur" />
		<tag k="ssr:stedsnr" v="944097" />
		<tag k="ssr:type" v="adressenavn" />
	</node>
	<node lat="69.9527276555345" lon="23.222283680068575" id="-99544">
		<tag k="name" v="Trosteveien" />
		<tag k="ssr:date" v="2019-12-27" />
		<tag k="ssr:gruppe" v="veg" />
		<tag k="ssr:hovedgruppe" v="infrastruktur" />
		<tag k="ssr:stedsnr" v="944099" />
		<tag k="ssr:type" v="adressenavn" />
	</node>
	<node lat="69.95704121878114" lon="23.371011525477734" id="-99545">
		<tag k="name" v="Gråstarrveien" />
		<tag k="ssr:date" v="2019-12-27" />
		<tag k="ssr:gruppe" v="veg" />
		<tag k="ssr:hovedgruppe" v="infrastruktur" />
		<tag k="ssr:stedsnr" v="944102" />
		<tag k="ssr:type" v="adressenavn" />
	</node>
	<node lat="69.95410510625533" lon="23.23679035848509" id="-99639">
		<tag k="name" v="Borchgrevinkhøyden" />
		<tag k="ssr:date" v="2019-12-27" />
		<tag k="ssr:gruppe" v="veg" />
		<tag k="ssr:hovedgruppe" v="infrastruktur" />
		<tag k="ssr:stedsnr" v="1055987" />
		<tag k="ssr:type" v="adressenavn" />
	</node>
	<node lat="69.97275564022023" lon="23.37615613852076" id="-99640">
		<tag k="name" v="Naustneset" />
		<tag k="ssr:date" v="2019-12-27" />
		<tag k="ssr:gruppe" v="veg" />
		<tag k="ssr:hovedgruppe" v="infrastruktur" />
		<tag k="ssr:stedsnr" v="1055988" />
		<tag k="ssr:type" v="adressenavn" />
	</node>
	<node lat="70.0458917761751" lon="22.956885188086687" id="-99641">
		<tag k="name" v="Stuhrsvei" />
		<tag k="ssr:date" v="2019-12-27" />
		<tag k="ssr:gruppe" v="veg" />
		<tag k="ssr:hovedgruppe" v="infrastruktur" />
		<tag k="ssr:stedsnr" v="1055989" />
		<tag k="ssr:type" v="adressenavn" />
	</node>
	<node lat="69.92466825440141" lon="23.102690180955364" id="-99642">
		<tag k="name" v="Kvenvikbakken" />
		<tag k="ssr:date" v="2019-12-27" />
		<tag k="ssr:gruppe" v="veg" />
		<tag k="ssr:hovedgruppe" v="infrastruktur" />
		<tag k="ssr:stedsnr" v="1055789" />
		<tag k="ssr:type" v="adressenavn" />
	</node>
	<node lat="69.9704388890163" lon="23.293086667322168" id="-99643">
		<tag k="name" v="Nøkkelstien" />
		<tag k="ssr:date" v="2019-12-27" />
		<tag k="ssr:gruppe" v="veg" />
		<tag k="ssr:hovedgruppe" v="infrastruktur" />
		<tag k="ssr:stedsnr" v="1055790" />
		<tag k="ssr:type" v="adressenavn" />
	</node>
	<node lat="69.92188337206866" lon="23.270815915462446" id="-99644">
		<tag k="name" v="Lille Rusten" />
		<tag k="ssr:date" v="2019-12-27" />
		<tag k="ssr:gruppe" v="veg" />
		<tag k="ssr:hovedgruppe" v="infrastruktur" />
		<tag k="ssr:stedsnr" v="1055791" />
		<tag k="ssr:type" v="adressenavn" />
	</node>
	<node lat="69.92090014594929" lon="23.267360246974572" id="-99645">
		<tag k="name" v="Lærer Rustens vei" />
		<tag k="ssr:date" v="2019-12-27" />
		<tag k="ssr:gruppe" v="veg" />
		<tag k="ssr:hovedgruppe" v="infrastruktur" />
		<tag k="ssr:stedsnr" v="1055792" />
		<tag k="ssr:type" v="adressenavn" />
	</node>
	<node lat="70.02185888289141" lon="23.526781272593492" id="-99647">
		<tag k="name" v="Saunaveien" />
		<tag k="ssr:date" v="2019-12-27" />
		<tag k="ssr:gruppe" v="veg" />
		<tag k="ssr:hovedgruppe" v="infrastruktur" />
		<tag k="ssr:stedsnr" v="1055795" />
		<tag k="ssr:type" v="adressenavn" />
	</node>
	<node lat="70.01923163104611" lon="23.53344217106336" id="-99648">
		<tag k="name" v="Lærer Lilands vei" />
		<tag k="ssr:date" v="2019-12-27" />
		<tag k="ssr:gruppe" v="veg" />
		<tag k="ssr:hovedgruppe" v="infrastruktur" />
		<tag k="ssr:stedsnr" v="1055796" />
		<tag k="ssr:type" v="adressenavn" />
	</node>
	<node lat="70.02285270330901" lon="23.531168104587877" id="-99649">
		<tag k="name" v="Solbakkveien" />
		<tag k="ssr:date" v="2019-12-27" />
		<tag k="ssr:gruppe" v="veg" />
		<tag k="ssr:hovedgruppe" v="infrastruktur" />
		<tag k="ssr:stedsnr" v="1055798" />
		<tag k="ssr:type" v="adressenavn" />
	</node>
	<node lat="70.0223958817812" lon="23.529987810875678" id="-99650">
		<tag k="name" v="Sisuveien" />
		<tag k="ssr:date" v="2019-12-27" />
		<tag k="ssr:gruppe" v="veg" />
		<tag k="ssr:hovedgruppe" v="infrastruktur" />
		<tag k="ssr:stedsnr" v="1055799" />
		<tag k="ssr:type" v="adressenavn" />
	</node>
	<node lat="69.92923942843092" lon="23.25872568933259" id="-99651">
		<tag k="name" v="Steinfossveien" />
		<tag k="ssr:date" v="2019-12-27" />
		<tag k="ssr:gruppe" v="veg" />
		<tag k="ssr:hovedgruppe" v="infrastruktur" />
		<tag k="ssr:stedsnr" v="1055800" />
		<tag k="ssr:type" v="adressenavn" />
	</node>
	<node lat="69.90128868051202" lon="23.24723864541389" id="-99652">
		<tag k="name" v="Sagbruksveien" />
		<tag k="ssr:date" v="2019-12-27" />
		<tag k="ssr:gruppe" v="veg" />
		<tag k="ssr:hovedgruppe" v="infrastruktur" />
		<tag k="ssr:stedsnr" v="1055801" />
		<tag k="ssr:type" v="adressenavn" />
	</node>
	<node lat="69.90171315989276" lon="23.247361971685613" id="-99653">
		<tag k="name" v="Lunneveien" />
		<tag k="ssr:date" v="2019-12-27" />
		<tag k="ssr:gruppe" v="veg" />
		<tag k="ssr:hovedgruppe" v="infrastruktur" />
		<tag k="ssr:stedsnr" v="1055802" />
		<tag k="ssr:type" v="adressenavn" />
	</node>
	<node lat="70.0364430902402" lon="22.9462416190469" id="-99654">
		<tag k="name" v="Klokkarhøyden" />
		<tag k="ssr:date" v="2019-12-27" />
		<tag k="ssr:gruppe" v="veg" />
		<tag k="ssr:hovedgruppe" v="infrastruktur" />
		<tag k="ssr:stedsnr" v="1055804" />
		<tag k="ssr:type" v="adressenavn" />
	</node>
	<node lat="70.03742747932641" lon="22.951053662182982" id="-99655">
		<tag k="name" v="Klokkarsvingen" />
		<tag k="ssr:date" v="2019-12-27" />
		<tag k="ssr:gruppe" v="veg" />
		<tag k="ssr:hovedgruppe" v="infrastruktur" />
		<tag k="ssr:stedsnr" v="1055805" />
		<tag k="ssr:type" v="adressenavn" />
	</node>
	<node lat="69.95761054235231" lon="23.248864569741713" id="-99656">
		<tag k="name" v="Holtenbakken" />
		<tag k="ssr:date" v="2019-12-27" />
		<tag k="ssr:gruppe" v="veg" />
		<tag k="ssr:hovedgruppe" v="infrastruktur" />
		<tag k="ssr:stedsnr" v="1055806" />
		<tag k="ssr:type" v="adressenavn" />
	</node>
	<node lat="69.95681986557481" lon="23.241125438602428" id="-99657">
		<tag k="name" v="Monsbakken" />
		<tag k="ssr:date" v="2019-12-27" />
		<tag k="ssr:gruppe" v="veg" />
		<tag k="ssr:hovedgruppe" v="infrastruktur" />
		<tag k="ssr:stedsnr" v="1055807" />
		<tag k="ssr:type" v="adressenavn" />
	</node>
	<node lat="69.92374157336623" lon="23.271072869231855" id="-99697">
		<tag k="name" v="Steinfosstien" />
		<tag k="ssr:date" v="2019-12-27" />
		<tag k="ssr:gruppe" v="veg" />
		<tag k="ssr:hovedgruppe" v="infrastruktur" />
		<tag k="ssr:stedsnr" v="1055808" />
		<tag k="ssr:type" v="adressenavn" />
	</node>
	<node lat="69.92577276344" lon="23.263953700939535" id="-99698">
		<tag k="name" v="Tøllefsvei" />
		<tag k="ssr:date" v="2019-12-27" />
		<tag k="ssr:gruppe" v="veg" />
		<tag k="ssr:hovedgruppe" v="infrastruktur" />
		<tag k="ssr:stedsnr" v="1055809" />
		<tag k="ssr:type" v="adressenavn" />
	</node>
	<node lat="69.92068393232364" lon="23.502770484551423" id="-99762">
		<tag k="name" v="Mobrinken" />
		<tag k="ssr:date" v="2019-12-27" />
		<tag k="ssr:gruppe" v="veg" />
		<tag k="ssr:hovedgruppe" v="infrastruktur" />
		<tag k="ssr:stedsnr" v="1055975" />
		<tag k="ssr:type" v="adressenavn" />
	</node>
	<node lat="69.9636045832983" lon="23.242688996226196" id="-99763">
		<tag k="name" v="Grensebakken" />
		<tag k="ssr:date" v="2019-12-27" />
		<tag k="ssr:gruppe" v="veg" />
		<tag k="ssr:hovedgruppe" v="infrastruktur" />
		<tag k="ssr:stedsnr" v="1055978" />
		<tag k="ssr:type" v="adressenavn" />
	</node>
	<node lat="69.96540869561461" lon="23.276314329831223" id="-99764">
		<tag k="name" v="Hesteskoen" />
		<tag k="ssr:date" v="2019-12-27" />
		<tag k="ssr:gruppe" v="veg" />
		<tag k="ssr:hovedgruppe" v="infrastruktur" />
		<tag k="ssr:stedsnr" v="1055979" />
		<tag k="ssr:type" v="adressenavn" />
	</node>
	<node lat="69.97526627713249" lon="23.33623243080008" id="-99766">
		<tag k="name" v="Rurveien" />
		<tag k="ssr:date" v="2019-12-27" />
		<tag k="ssr:gruppe" v="veg" />
		<tag k="ssr:hovedgruppe" v="infrastruktur" />
		<tag k="ssr:stedsnr" v="1055981" />
		<tag k="ssr:type" v="adressenavn" />
	</node>
	<node lat="69.9785971816441" lon="23.337120396407087" id="-99767">
		<tag k="name" v="Blåskjellveien" />
		<tag k="ssr:date" v="2019-12-27" />
		<tag k="ssr:gruppe" v="veg" />
		<tag k="ssr:hovedgruppe" v="infrastruktur" />
		<tag k="ssr:stedsnr" v="1055982" />
		<tag k="ssr:type" v="adressenavn" />
	</node>
	<node lat="69.97685076781835" lon="23.33199955627105" id="-99768">
		<tag k="name" v="Havneveien" />
		<tag k="ssr:date" v="2019-12-27" />
		<tag k="ssr:gruppe" v="veg" />
		<tag k="ssr:hovedgruppe" v="infrastruktur" />
		<tag k="ssr:stedsnr" v="1055983" />
		<tag k="ssr:type" v="adressenavn" />
	</node>
	<node lat="69.9194392722234" lon="23.506934302443565" id="-99769">
		<tag k="name" v="Skomakerholtet" />
		<tag k="ssr:date" v="2019-12-27" />
		<tag k="ssr:gruppe" v="veg" />
		<tag k="ssr:hovedgruppe" v="infrastruktur" />
		<tag k="ssr:stedsnr" v="1055984" />
		<tag k="ssr:type" v="adressenavn" />
	</node>
	<node lat="69.92035913746723" lon="23.504418832584644" id="-99770">
		<tag k="name" v="Skomakerberget" />
		<tag k="ssr:date" v="2019-12-27" />
		<tag k="ssr:gruppe" v="veg" />
		<tag k="ssr:hovedgruppe" v="infrastruktur" />
		<tag k="ssr:stedsnr" v="1055985" />
		<tag k="ssr:type" v="adressenavn" />
	</node>
	<node lat="70.03998534530456" lon="22.952943316064644" id="-99771">
		<tag k="name" v="Storelvveien" />
		<tag k="ssr:date" v="2019-12-27" />
		<tag k="ssr:gruppe" v="veg" />
		<tag k="ssr:hovedgruppe" v="infrastruktur" />
		<tag k="ssr:stedsnr" v="1055991" />
		<tag k="ssr:type" v="adressenavn" />
	</node>
	<node lat="69.92545412214766" lon="23.264204501227006" id="-99773">
		<tag k="name" v="Killiveien" />
		<tag k="ssr:date" v="2019-12-27" />
		<tag k="ssr:gruppe" v="veg" />
		<tag k="ssr:hovedgruppe" v="infrastruktur" />
		<tag k="ssr:stedsnr" v="1055993" />
		<tag k="ssr:type" v="adressenavn" />
	</node>
	<node lat="69.91707257029887" lon="23.23141095720626" id="-99774">
		<tag k="name" v="Lampemyra" />
		<tag k="ssr:date" v="2019-12-27" />
		<tag k="ssr:gruppe" v="veg" />
		<tag k="ssr:hovedgruppe" v="infrastruktur" />
		<tag k="ssr:stedsnr" v="1055994" />
		<tag k="ssr:type" v="adressenavn" />
	</node>
	<node lat="69.93008984732808" lon="23.25724089377657" id="-99775">
		<tag k="name" v="Øytunveien" />
		<tag k="ssr:date" v="2019-12-27" />
		<tag k="ssr:gruppe" v="veg" />
		<tag k="ssr:hovedgruppe" v="infrastruktur" />
		<tag k="ssr:stedsnr" v="1055995" />
		<tag k="ssr:type" v="adressenavn" />
	</node>
	<node lat="69.9450016293943" lon="23.24092438079623" id="-99776">
		<tag k="name" v="Skoddevarre" />
		<tag k="ssr:date" v="2019-12-27" />
		<tag k="ssr:gruppe" v="veg" />
		<tag k="ssr:hovedgruppe" v="infrastruktur" />
		<tag k="ssr:stedsnr" v="1055996" />
		<tag k="ssr:type" v="adressenavn" />
	</node>
	<node lat="69.97331739119655" lon="23.364232686194097" id="-99777">
		<tag k="name" v="Rishaugmoen" />
		<tag k="ssr:date" v="2019-12-27" />
		<tag k="ssr:gruppe" v="veg" />
		<tag k="ssr:hovedgruppe" v="infrastruktur" />
		<tag k="ssr:stedsnr" v="1055997" />
		<tag k="ssr:type" v="adressenavn" />
	</node>
	<node lat="70.11991574857156" lon="23.39329546989059" id="-99778">
		<tag k="name" v="Moa" />
		<tag k="ssr:date" v="2019-12-27" />
		<tag k="ssr:gruppe" v="veg" />
		<tag k="ssr:hovedgruppe" v="infrastruktur" />
		<tag k="ssr:stedsnr" v="1055998" />
		<tag k="ssr:type" v="adressenavn" />
	</node>
	<node lat="69.96688229443298" lon="23.273831665797207" id="-99779">
		<tag k="name" v="Sentrumsparken" />
		<tag k="ssr:date" v="2019-12-27" />
		<tag k="ssr:gruppe" v="veg" />
		<tag k="ssr:hovedgruppe" v="infrastruktur" />
		<tag k="ssr:stedsnr" v="1055999" />
		<tag k="ssr:type" v="adressenavn" />
	</node>
	<node lat="69.95148684675421" lon="23.198875308418902" id="-99780">
		<tag k="name" v="Selbakken" />
		<tag k="ssr:date" v="2019-12-27" />
		<tag k="ssr:gruppe" v="veg" />
		<tag k="ssr:hovedgruppe" v="infrastruktur" />
		<tag k="ssr:stedsnr" v="1056000" />
		<tag k="ssr:type" v="adressenavn" />
	</node>
	<node lat="69.95156575105155" lon="23.19841802320145" id="-99781">
		<tag k="name" v="Veidebakken" />
		<tag k="ssr:date" v="2019-12-27" />
		<tag k="ssr:gruppe" v="veg" />
		<tag k="ssr:hovedgruppe" v="infrastruktur" />
		<tag k="ssr:stedsnr" v="1056001" />
		<tag k="ssr:type" v="adressenavn" />
	</node>
	<node lat="69.93999191276795" lon="23.418420261541605" id="-99782">
		<tag k="name" v="Borrasveien" />
		<tag k="ssr:date" v="2019-12-27" />
		<tag k="ssr:gruppe" v="veg" />
		<tag k="ssr:hovedgruppe" v="infrastruktur" />
		<tag k="ssr:stedsnr" v="1056002" />
		<tag k="ssr:type" v="adressenavn" />
	</node>
	<node lat="69.96160772114399" lon="23.404521548270868" id="-99783">
		<tag k="name" v="Teglbakken" />
		<tag k="ssr:date" v="2019-12-27" />
		<tag k="ssr:gruppe" v="veg" />
		<tag k="ssr:hovedgruppe" v="infrastruktur" />
		<tag k="ssr:stedsnr" v="1056003" />
		<tag k="ssr:type" v="adressenavn" />
	</node>
	<node lat="69.98060798141394" lon="23.45199044037889" id="-99784">
		<tag k="name" v="Lathari" />
		<tag k="ssr:date" v="2019-12-27" />
		<tag k="ssr:gruppe" v="veg" />
		<tag k="ssr:hovedgruppe" v="infrastruktur" />
		<tag k="ssr:stedsnr" v="1056004" />
		<tag k="ssr:type" v="adressenavn" />
	</node>
	<node lat="69.98060798141394" lon="23.45199044037889" id="-99785">
		<tag k="name" v="Latharimoen" />
		<tag k="ssr:date" v="2019-12-27" />
		<tag k="ssr:gruppe" v="veg" />
		<tag k="ssr:hovedgruppe" v="infrastruktur" />
		<tag k="ssr:stedsnr" v="1056005" />
		<tag k="ssr:type" v="adressenavn" />
	</node>
	<node lat="70.24713892926664" lon="23.376906639098735" id="-99786">
		<tag k="name" v="Jenshaugen" />
		<tag k="ssr:date" v="2019-12-27" />
		<tag k="ssr:gruppe" v="veg" />
		<tag k="ssr:hovedgruppe" v="infrastruktur" />
		<tag k="ssr:stedsnr" v="1056006" />
		<tag k="ssr:type" v="adressenavn" />
	</node>
	<node lat="70.11306605567897" lon="23.37622348530692" id="-99787">
		<tag k="name" v="Landgudnesbakken" />
		<tag k="ssr:date" v="2019-12-27" />
		<tag k="ssr:gruppe" v="veg" />
		<tag k="ssr:hovedgruppe" v="infrastruktur" />
		<tag k="ssr:stedsnr" v="1056007" />
		<tag k="ssr:type" v="adressenavn" />
	</node>
	<node lat="70.1210451602905" lon="23.392747890832077" id="-99788">
		<tag k="name" v="Kobbenes" />
		<tag k="ssr:date" v="2019-12-27" />
		<tag k="ssr:gruppe" v="veg" />
		<tag k="ssr:hovedgruppe" v="infrastruktur" />
		<tag k="ssr:stedsnr" v="1056008" />
		<tag k="ssr:type" v="adressenavn" />
	</node>
	<node lat="70.12360683584784" lon="23.393122561716588" id="-99789">
		<tag k="name" v="Hesjebakken" />
		<tag k="ssr:date" v="2019-12-27" />
		<tag k="ssr:gruppe" v="veg" />
		<tag k="ssr:hovedgruppe" v="infrastruktur" />
		<tag k="ssr:stedsnr" v="1056009" />
		<tag k="ssr:type" v="adressenavn" />
	</node>
	<node lat="70.25736741162574" lon="22.676144454300083" id="-99865">
		<tag k="name" v="Sommerbukta" />
		<tag k="ssr:date" v="2021-03-29" />
		<tag k="ssr:gruppe" v="veg" />
		<tag k="ssr:hovedgruppe" v="infrastruktur" />
		<tag k="ssr:stedsnr" v="1080685" />
		<tag k="ssr:type" v="adressenavn" />
	</node>
	<node lat="70.26372389851278" lon="23.00213285069359" id="-99867">
		<tag k="name" v="Stjernodden" />
		<tag k="ssr:date" v="2021-05-03" />
		<tag k="ssr:gruppe" v="veg" />
		<tag k="ssr:hovedgruppe" v="infrastruktur" />
		<tag k="ssr:stedsnr" v="1080653" />
		<tag k="ssr:type" v="adressenavn" />
	</node>
	<node lat="70.25627927703445" lon="22.708997213085766" id="-99868">
		<tag k="name" v="Indre Simavik" />
		<tag k="ssr:date" v="2021-03-29" />
		<tag k="ssr:gruppe" v="veg" />
		<tag k="ssr:hovedgruppe" v="infrastruktur" />
		<tag k="ssr:stedsnr" v="1080652" />
		<tag k="ssr:type" v="adressenavn" />
	</node>
	<node lat="70.30157791144738" lon="22.94667110287765" id="-99869">
		<tag k="name" v="Torbenes" />
		<tag k="ssr:date" v="2021-03-29" />
		<tag k="ssr:gruppe" v="veg" />
		<tag k="ssr:hovedgruppe" v="infrastruktur" />
		<tag k="ssr:stedsnr" v="1080654" />
		<tag k="ssr:type" v="adressenavn" />
	</node>
	<node lat="70.24304513672901" lon="22.968190032076677" id="-99870">
		<tag k="name" v="Hallvardvika" />
		<tag k="ssr:date" v="2021-03-29" />
		<tag k="ssr:gruppe" v="veg" />
		<tag k="ssr:hovedgruppe" v="infrastruktur" />
		<tag k="ssr:stedsnr" v="1080655" />
		<tag k="ssr:type" v="adressenavn" />
	</node>
	<node lat="70.29016741194965" lon="22.971666735757385" id="-99872">
		<tag k="name" v="Tudvik" />
		<tag k="ssr:date" v="2021-03-29" />
		<tag k="ssr:gruppe" v="veg" />
		<tag k="ssr:hovedgruppe" v="infrastruktur" />
		<tag k="ssr:stedsnr" v="1080656" />
		<tag k="ssr:type" v="adressenavn" />
	</node>
	<node lat="70.32385193255706" lon="22.929811790964965" id="-99873">
		<tag k="name" v="Maggaluft" />
		<tag k="ssr:date" v="2021-03-29" />
		<tag k="ssr:gruppe" v="veg" />
		<tag k="ssr:hovedgruppe" v="infrastruktur" />
		<tag k="ssr:stedsnr" v="1080657" />
		<tag k="ssr:type" v="adressenavn" />
	</node>
	<node lat="70.31694651102202" lon="22.891365098216564" id="-99874">
		<tag k="name" v="Bia" />
		<tag k="ssr:date" v="2021-03-29" />
		<tag k="ssr:gruppe" v="veg" />
		<tag k="ssr:hovedgruppe" v="infrastruktur" />
		<tag k="ssr:stedsnr" v="1080658" />
		<tag k="ssr:type" v="adressenavn" />
	</node>
	<node lat="70.32173130505781" lon="22.920259754296524" id="-99876">
		<tag k="name" v="Båtbukta" />
		<tag k="ssr:date" v="2021-03-29" />
		<tag k="ssr:gruppe" v="veg" />
		<tag k="ssr:hovedgruppe" v="infrastruktur" />
		<tag k="ssr:stedsnr" v="1080662" />
		<tag k="ssr:type" v="adressenavn" />
	</node>
	<node lat="70.3378996073481" lon="22.849050167000698" id="-99878">
		<tag k="name" v="Vinterset" />
		<tag k="ssr:date" v="2021-03-29" />
		<tag k="ssr:gruppe" v="veg" />
		<tag k="ssr:hovedgruppe" v="infrastruktur" />
		<tag k="ssr:stedsnr" v="1080663" />
		<tag k="ssr:type" v="adressenavn" />
	</node>
	<node lat="70.33541975312008" lon="22.825383474930877" id="-99880">
		<tag k="name" v="Pollholmen" />
		<tag k="ssr:date" v="2021-03-29" />
		<tag k="ssr:gruppe" v="veg" />
		<tag k="ssr:hovedgruppe" v="infrastruktur" />
		<tag k="ssr:stedsnr" v="1080665" />
		<tag k="ssr:type" v="adressenavn" />
	</node>
	<node lat="70.33001397526874" lon="22.830578222340634" id="-99881">
		<tag k="name" v="Gambukta" />
		<tag k="ssr:date" v="2021-03-29" />
		<tag k="ssr:gruppe" v="veg" />
		<tag k="ssr:hovedgruppe" v="infrastruktur" />
		<tag k="ssr:stedsnr" v="1080666" />
		<tag k="ssr:type" v="adressenavn" />
	</node>
	<node lat="70.21353979573273" lon="22.71655265446062" id="-99882">
		<tag k="name" v="Vortebukta" />
		<tag k="ssr:date" v="2021-03-29" />
		<tag k="ssr:gruppe" v="veg" />
		<tag k="ssr:hovedgruppe" v="infrastruktur" />
		<tag k="ssr:stedsnr" v="1080668" />
		<tag k="ssr:type" v="adressenavn" />
	</node>
	<node lat="70.24783820445127" lon="22.85131727486981" id="-99886">
		<tag k="name" v="Davatluft" />
		<tag k="old_name" v="Davaluft" />
		<tag k="ssr:date" v="2021-05-04" />
		<tag k="ssr:gruppe" v="veg" />
		<tag k="ssr:hovedgruppe" v="infrastruktur" />
		<tag k="ssr:stedsnr" v="1081146" />
		<tag k="ssr:type" v="adressenavn" />
	</node>
</osm>
