<?xml version="1.0" encoding="UTF-8"?>
<osm version="0.6" generator="osmapis">
	<node lat="60.72739846191867" lon="5.66446195912683" id="-35517">
		<tag k="alt_name" v="Åsnes;Åsnes lykt" />
		<tag k="name" v="Åsneset lykt" />
		<tag k="old_name" v="Åsneset" />
		<tag k="ssr:date" v="2019-12-27" />
		<tag k="ssr:gruppe" v="navigasjon" />
		<tag k="ssr:hovedgruppe" v="infrastruktur" />
		<tag k="ssr:stedsnr" v="67312" />
		<tag k="ssr:type" v="fyrlykt" />
	</node>
	<node lat="60.59618333406483" lon="4.969050006534794" id="-35549">
		<tag k="alt_name" v="Ringholmsundet" />
		<tag k="name" v="Ringholmsundet lykt" />
		<tag k="ssr:date" v="2019-12-27" />
		<tag k="ssr:gruppe" v="navigasjon" />
		<tag k="ssr:hovedgruppe" v="infrastruktur" />
		<tag k="ssr:stedsnr" v="85627" />
		<tag k="ssr:type" v="fyrlykt" />
	</node>
	<node lat="60.71375606554951" lon="4.865357041818211" id="-35722">
		<tag k="alt_name" v="Onglesundet" />
		<tag k="name" v="Onglesundet lykt" />
		<tag k="ssr:date" v="2020-09-08" />
		<tag k="ssr:gruppe" v="navigasjon" />
		<tag k="ssr:hovedgruppe" v="infrastruktur" />
		<tag k="ssr:stedsnr" v="249838" />
		<tag k="ssr:type" v="fyrlykt" />
	</node>
	<node lat="60.5955605188583" lon="4.963039194519789" id="-35766">
		<tag k="alt_name" v="Ringholmen" />
		<tag k="name" v="Ringholmen lykt" />
		<tag k="ssr:date" v="2020-09-08" />
		<tag k="ssr:gruppe" v="navigasjon" />
		<tag k="ssr:hovedgruppe" v="infrastruktur" />
		<tag k="ssr:stedsnr" v="127939" />
		<tag k="ssr:type" v="fyrlykt" />
	</node>
	<node lat="60.61143611214029" lon="5.0797888826553805" id="-35946">
		<tag k="alt_name" v="Bongnesstraumen;Bongnesstraumen lykt" />
		<tag k="name" v="Bognestraumen lykt" />
		<tag k="ssr:date" v="2019-12-27" />
		<tag k="ssr:gruppe" v="navigasjon" />
		<tag k="ssr:hovedgruppe" v="infrastruktur" />
		<tag k="ssr:stedsnr" v="206943" />
		<tag k="ssr:type" v="fyrlykt" />
	</node>
	<node lat="60.56512777872324" lon="4.987113893202709" id="-35952">
		<tag k="name" v="Det naua" />
		<tag k="ssr:date" v="2021-06-08" />
		<tag k="ssr:gruppe" v="navigasjon" />
		<tag k="ssr:hovedgruppe" v="infrastruktur" />
		<tag k="ssr:stedsnr" v="268997" />
		<tag k="ssr:type" v="fyrlykt" />
	</node>
	<node lat="60.75196944833146" lon="5.035316658150076" id="-36463">
		<tag k="alt_name" v="Ådnøyskjer" />
		<tag k="name" v="Ådnøyskjeret" />
		<tag k="ssr:date" v="2019-12-27" />
		<tag k="ssr:gruppe" v="navigasjon" />
		<tag k="ssr:hovedgruppe" v="infrastruktur" />
		<tag k="ssr:stedsnr" v="479227" />
		<tag k="ssr:type" v="lanterne" />
	</node>
</osm>
