<?xml version="1.0" encoding="UTF-8"?>
<osm generator="osmapis" version="0.6">
	<node id="-308061" lat="58.3113166692" lon="7.97013611033">
		<tag k="name" v="Snøplogene" />
		<tag k="place" v="locality" />
		<tag k="ssr:stedsnr" v="636118" />
	</node>
	<node id="-307580" lat="58.4586500037" lon="8.02386389117">
		<tag k="name" v="Engestøl sag" />
		<tag k="place" v="locality" />
		<tag k="ssr:stedsnr" v="212587" />
	</node>
	<node id="-307547" lat="58.3572361105" lon="7.9201444375">
		<tag k="name" v="Middagsgrana" />
		<tag k="place" v="locality" />
		<tag k="ssr:stedsnr" v="212239" />
	</node>
	<node id="-307291" lat="58.4347999981" lon="8.00685277945">
		<tag k="amenity" v="community_centre" />
		<tag k="name" v="Samklang" />
		<tag k="ssr:stedsnr" v="91632" />
	</node>
	<node id="-306898" lat="58.4561555553" lon="7.91886943737">
		<tag k="alt_name" v="Iveland kyrkje" />
		<tag k="amenity" v="place_of_worship" />
		<tag k="denomination" v="lutheran" />
		<tag k="name" v="Iveland" />
		<tag k="religion" v="christian" />
		<tag k="ssr:stedsnr" v="333401" />
	</node>
	<node id="-308081" lat="58.3570444425" lon="7.91331667301">
		<tag k="name" v="Selehøvre" />
		<tag k="place" v="locality" />
		<tag k="ssr:stedsnr" v="636244" />
	</node>
	<node id="-308079" lat="58.4165000027" lon="7.86085000438">
		<tag k="name" v="Skrubbehiet" />
		<tag k="place" v="locality" />
		<tag k="ssr:stedsnr" v="636238" />
	</node>
	<node id="-308198" lat="58.4198805552" lon="7.88958610727">
		<tag k="name" v="Halvfar" />
		<tag k="place" v="locality" />
		<tag k="ssr:stedsnr" v="697256" />
	</node>
	<node id="-307212" lat="58.3460777736" lon="7.98598333616">
		<tag k="name" v="Standaren" />
		<tag k="place" v="locality" />
		<tag k="ssr:stedsnr" v="30897" />
	</node>
	<node id="-306826" lat="58.3588777815" lon="7.95352221862">
		<tag k="name" v="Nippontrepp" />
		<tag k="place" v="locality" />
		<tag k="ssr:stedsnr" v="273896" />
	</node>
	<node id="-307018" lat="58.351880554" lon="7.92428889609">
		<tag k="name" v="Femmeteren" />
		<tag k="place" v="locality" />
		<tag k="ssr:stedsnr" v="394246" />
	</node>
	<node id="-308808" lat="58.3639166637" lon="8.00932222574">
		<tag k="name" v="Ulsgrenane" />
		<tag k="place" v="locality" />
		<tag k="ssr:stedsnr" v="940925" />
	</node>
	<node id="-307660" lat="58.4169416696" lon="8.06329165891">
		<tag k="amenity" v="community_centre" />
		<tag k="name" v="Vatnestrøm" />
		<tag k="ssr:stedsnr" v="425124" />
	</node>
	<node id="-307324" lat="58.3659388926" lon="7.95480833199">
		<tag k="name" v="Slyngen" />
		<tag k="place" v="locality" />
		<tag k="ssr:stedsnr" v="91887" />
	</node>
	<node id="-308451" lat="58.3377083358" lon="7.93914722895">
		<tag k="name" v="Telten" />
		<tag k="place" v="locality" />
		<tag k="ssr:stedsnr" v="819183" />
	</node>
	<node id="-308673" lat="58.3465944458" lon="7.97781665985">
		<tag k="name" v="Sagen" />
		<tag k="place" v="locality" />
		<tag k="ssr:stedsnr" v="880904" />
	</node>
</osm>
