<?xml version="1.0" encoding="UTF-8"?>
<osm version="0.6" generator="osmapis">
	<node lat="69.7400444420961" lon="19.004469442777932" id="-48267">
		<tag k="name" v="Finneshausen" />
		<tag k="natural" v="slope" />
		<tag k="place" v="locality" />
		<tag k="ssr:stedsnr" v="230323" />
	</node>
	<node lat="69.92240000255026" lon="18.709433342789126" id="-48271">
		<tag k="name" v="Trollbåthaugen" />
		<tag k="natural" v="hill" />
		<tag k="place" v="locality" />
		<tag k="ssr:stedsnr" v="231044" />
	</node>
	<node lat="70.0054194417959" lon="18.675038877965466" id="-48274">
		<tag k="fixme" v="consider natural=peak for the most distinct mountains in the district" />
		<tag k="name" v="Vetefjellet" />
		<tag k="natural" v="hill" />
		<tag k="place" v="locality" />
		<tag k="ssr:stedsnr" v="231065" />
	</node>
	<node lat="69.96827777828888" lon="18.508586108179195" id="-48277">
		<tag k="name" v="Skorpholla" />
		<tag k="natural" v="valley" />
		<tag k="place" v="locality" />
		<tag k="ssr:stedsnr" v="231159" />
	</node>
	<node lat="69.8624638855666" lon="18.938144438879537" id="-48278">
		<tag k="fixme" v="consider natural=peak for the most distinct mountains in the district" />
		<tag k="name" v="Stortuva" />
		<tag k="natural" v="hill" />
		<tag k="place" v="locality" />
		<tag k="ssr:stedsnr" v="231235" />
	</node>
	<node lat="69.82132499795344" lon="18.46385278208972" id="-48282">
		<tag k="name" v="Kvitbergan" />
		<tag k="natural" v="hill" />
		<tag k="place" v="locality" />
		<tag k="ssr:stedsnr" v="231222" />
	</node>
	<node lat="69.8700500032321" lon="18.90718333824823" id="-48283">
		<tag k="name" v="Klauvryggen" />
		<tag k="natural" v="ridge" />
		<tag k="place" v="locality" />
		<tag k="ssr:stedsnr" v="231223" />
	</node>
	<node lat="69.8745305585559" lon="18.922683320535644" id="-48285">
		<tag k="name" v="Storhaughøgda" />
		<tag k="natural" v="hill" />
		<tag k="place" v="locality" />
		<tag k="ssr:stedsnr" v="231227" />
	</node>
	<node lat="69.81390278135324" lon="19.04660278284881" id="-48288">
		<tag k="name" v="Rødbergaksla" />
		<tag k="place" v="locality" />
		<tag k="ssr:stedsnr" v="231328" />
	</node>
	<node lat="69.79807500114585" lon="19.00139444803084" id="-48290">
		<tag k="name" v="Nattmålsberget" />
		<tag k="natural" v="hill" />
		<tag k="place" v="locality" />
		<tag k="ssr:stedsnr" v="231327" />
	</node>
	<node lat="69.80501666886921" lon="18.75751111954869" id="-48294">
		<tag k="name" v="Krøkebærhaugen" />
		<tag k="natural" v="hill" />
		<tag k="place" v="locality" />
		<tag k="ssr:stedsnr" v="231397" />
	</node>
	<node lat="70.03590832985826" lon="18.708188882237472" id="-48297">
		<tag k="name" v="Skavdalen" />
		<tag k="natural" v="valley" />
		<tag k="place" v="locality" />
		<tag k="ssr:stedsnr" v="231541" />
	</node>
	<node lat="69.80213055180221" lon="19.140277761856677" id="-48301">
		<tag k="name" v="Bruna" />
		<tag k="natural" v="slope" />
		<tag k="place" v="locality" />
		<tag k="ssr:stedsnr" v="232065" />
	</node>
	<node lat="69.4126416677725" lon="19.48767775847301" id="-48305">
		<tag k="fixme" v="consider natural=peak for the most distinct mountains in the district" />
		<tag k="name" v="Sieidi" />
		<tag k="name:se" v="Sieidi" />
		<tag k="natural" v="hill" />
		<tag k="place" v="locality" />
		<tag k="ssr:stedsnr" v="18214" />
	</node>
	<node lat="69.5433555569649" lon="18.336477777238677" id="-48312">
		<tag k="alt_name" v="Bakklandvarden" />
		<tag k="name" v="Bakklandsvarden" />
		<tag k="natural" v="hill" />
		<tag k="place" v="locality" />
		<tag k="ssr:stedsnr" v="18414" />
	</node>
	<node lat="69.63521944788516" lon="18.517308332367115" id="-48315">
		<tag k="fixme" v="consider natural=peak for the most distinct mountains in the district" />
		<tag k="name" v="Straumsaksla" />
		<tag k="natural" v="hill" />
		<tag k="place" v="locality" />
		<tag k="ssr:stedsnr" v="18504" />
	</node>
	<node lat="69.61458610767407" lon="18.05645554817711" id="-48318">
		<tag k="fixme" v="consider natural=peak for the most distinct mountains in the district" />
		<tag k="name" v="Ørnfløya" />
		<tag k="natural" v="hill" />
		<tag k="place" v="locality" />
		<tag k="ssr:stedsnr" v="18497" />
	</node>
	<node lat="69.66700000127058" lon="18.32749442963135" id="-48320">
		<tag k="name" v="Blåskreen" />
		<tag k="natural" v="valley" />
		<tag k="place" v="locality" />
		<tag k="ssr:stedsnr" v="18647" />
	</node>
	<node lat="69.87382500300572" lon="18.754880550711032" id="-48328">
		<tag k="fixme" v="consider natural=peak for the most distinct mountains in the district" />
		<tag k="name" v="Skjoldtinden" />
		<tag k="natural" v="hill" />
		<tag k="place" v="locality" />
		<tag k="ssr:stedsnr" v="18707" />
	</node>
	<node lat="69.85010277725232" lon="18.7543305579667" id="-48330">
		<tag k="name" v="Sørfjordhøgda" />
		<tag k="natural" v="hill" />
		<tag k="place" v="locality" />
		<tag k="ssr:stedsnr" v="18995" />
	</node>
	<node lat="69.85355555287762" lon="19.070066646407458" id="-48331">
		<tag k="alt_name" v="Finngamgjota" />
		<tag k="name" v="Finngamjota" />
		<tag k="natural" v="slope" />
		<tag k="place" v="locality" />
		<tag k="ssr:stedsnr" v="18998" />
	</node>
	<node lat="69.84561944811907" lon="19.123519428958605" id="-48332">
		<tag k="fixme" v="consider natural=peak for the most distinct mountains in the district" />
		<tag k="name" v="Breitinden" />
		<tag k="natural" v="hill" />
		<tag k="place" v="locality" />
		<tag k="ssr:stedsnr" v="18999" />
	</node>
	<node lat="69.75385000122874" lon="18.52465556434026" id="-48333">
		<tag k="alt_name" v="Bonslettdalen" />
		<tag k="name" v="Bondslettdalen" />
		<tag k="natural" v="valley" />
		<tag k="place" v="locality" />
		<tag k="ssr:stedsnr" v="19145" />
	</node>
	<node lat="69.52725000106739" lon="19.760961091468815" id="-48336">
		<tag k="name" v="Harje - Hárji" />
		<tag k="name:no" v="Harje" />
		<tag k="name:se" v="Hárji" />
		<tag k="natural" v="hill" />
		<tag k="place" v="locality" />
		<tag k="ssr:stedsnr" v="19103" />
	</node>
	<node lat="69.9308194475638" lon="19.025697217915955" id="-48353">
		<tag k="fixme" v="consider natural=peak for the most distinct mountains in the district" />
		<tag k="name" v="Jakobtippen" />
		<tag k="natural" v="hill" />
		<tag k="place" v="locality" />
		<tag k="ssr:stedsnr" v="19803" />
	</node>
	<node lat="69.5947249982845" lon="19.822752753275065" id="-48356">
		<tag k="fixme" v="consider natural=peak for the most distinct mountains in the district" />
		<tag k="name" v="Jøviktinden" />
		<tag k="natural" v="hill" />
		<tag k="place" v="locality" />
		<tag k="ssr:stedsnr" v="19995" />
	</node>
	<node lat="69.65731666811342" lon="19.069436100584124" id="-48357">
		<tag k="fixme" v="consider natural=peak for the most distinct mountains in the district" />
		<tag k="name" v="Nordfjellet - Biežavárri" />
		<tag k="name:no" v="Nordfjellet" />
		<tag k="name:se" v="Biežavárri" />
		<tag k="natural" v="hill" />
		<tag k="place" v="locality" />
		<tag k="ssr:stedsnr" v="21349" />
	</node>
	<node lat="69.60715833142645" lon="19.145805534785563" id="-48358">
		<tag k="fixme" v="multiple name tags, choose one and add the other to alt_name; consider natural=peak for the most distinct mountains in the district" />
		<tag k="name" v="Tromsdalstinden - Sálašoaivi;Sálaščohkka" />
		<tag k="name:no" v="Tromsdalstinden" />
		<tag k="name:se" v="Sálašoaivi;Sálaščohkka" />
		<tag k="natural" v="hill" />
		<tag k="place" v="locality" />
		<tag k="ssr:stedsnr" v="21384" />
	</node>
	<node lat="69.63801666780807" lon="19.001086113042962" id="-48366">
		<tag k="fixme" v="consider natural=peak for the most distinct mountains in the district" />
		<tag k="name" v="Storaksla" />
		<tag k="natural" v="hill" />
		<tag k="place" v="locality" />
		<tag k="ssr:stedsnr" v="234670" />
	</node>
	<node lat="69.79588333445213" lon="19.536316665218113" id="-48367">
		<tag k="name" v="Øvre Rishaugen" />
		<tag k="natural" v="hill" />
		<tag k="place" v="locality" />
		<tag k="ssr:stedsnr" v="235021" />
	</node>
	<node lat="69.5738750028862" lon="19.18773609237755" id="-48368">
		<tag k="name" v="Grønnålflaten" />
		<tag k="place" v="locality" />
		<tag k="ssr:stedsnr" v="235344" />
	</node>
	<node lat="69.46957222667541" lon="19.692138879087256" id="-48370">
		<tag k="name" v="Arneberget" />
		<tag k="natural" v="hill" />
		<tag k="place" v="locality" />
		<tag k="ssr:stedsnr" v="235321" />
	</node>
	<node lat="69.54602777687477" lon="19.12219720769015" id="-48372">
		<tag k="name" v="Middagshaugen" />
		<tag k="natural" v="hill" />
		<tag k="place" v="locality" />
		<tag k="ssr:stedsnr" v="235359" />
	</node>
	<node lat="69.6343333354729" lon="18.007613876734137" id="-48377">
		<tag k="name" v="Varden" />
		<tag k="natural" v="hill" />
		<tag k="place" v="locality" />
		<tag k="ssr:stedsnr" v="235474" />
	</node>
	<node lat="69.63004166416023" lon="18.030738879528208" id="-48378">
		<tag k="name" v="Steinsviknova" />
		<tag k="natural" v="hill" />
		<tag k="place" v="locality" />
		<tag k="ssr:stedsnr" v="235476" />
	</node>
	<node lat="69.59181666260126" lon="19.316327779045984" id="-48381">
		<tag k="name" v="Høgbakken" />
		<tag k="natural" v="slope" />
		<tag k="place" v="locality" />
		<tag k="ssr:stedsnr" v="235628" />
	</node>
	<node lat="69.45802778048841" lon="19.237183329085653" id="-48383">
		<tag k="name" v="Reinsvollan" />
		<tag k="place" v="locality" />
		<tag k="ssr:stedsnr" v="235525" />
	</node>
	<node lat="69.75470277420642" lon="19.63227777787111" id="-48384">
		<tag k="name" v="Sæterlia" />
		<tag k="natural" v="slope" />
		<tag k="place" v="locality" />
		<tag k="ssr:stedsnr" v="235590" />
	</node>
	<node lat="69.59604166889098" lon="19.32178053798018" id="-48385">
		<tag k="name" v="Lillehaugen" />
		<tag k="natural" v="hill" />
		<tag k="place" v="locality" />
		<tag k="ssr:stedsnr" v="235609" />
	</node>
	<node lat="69.61453888767723" lon="19.353002759675135" id="-48386">
		<tag k="name" v="Kroksteinhollen" />
		<tag k="natural" v="valley" />
		<tag k="place" v="locality" />
		<tag k="ssr:stedsnr" v="235655" />
	</node>
	<node lat="69.60137500524456" lon="19.31665553771254" id="-48389">
		<tag k="name" v="Telgebakken" />
		<tag k="natural" v="slope" />
		<tag k="place" v="locality" />
		<tag k="ssr:stedsnr" v="235671" />
	</node>
	<node lat="69.57672499973921" lon="18.26038054928627" id="-48390">
		<tag k="name" v="Kvannknausen" />
		<tag k="natural" v="hill" />
		<tag k="place" v="locality" />
		<tag k="ssr:stedsnr" v="235675" />
	</node>
	<node lat="69.65391944569444" lon="18.138841668108107" id="-48392">
		<tag k="name" v="Mølnelvdalen" />
		<tag k="natural" v="valley" />
		<tag k="place" v="locality" />
		<tag k="ssr:stedsnr" v="235736" />
	</node>
	<node lat="69.53183055261358" lon="18.23656109467415" id="-48393">
		<tag k="name" v="Botnan" />
		<tag k="natural" v="valley" />
		<tag k="place" v="locality" />
		<tag k="ssr:stedsnr" v="235715" />
	</node>
	<node lat="69.59411944476248" lon="19.693191653516553" id="-48394">
		<tag k="fixme" v="consider natural=peak for the most distinct mountains in the district" />
		<tag k="name" v="Vađđas" />
		<tag k="name:se" v="Vađđas" />
		<tag k="natural" v="hill" />
		<tag k="place" v="locality" />
		<tag k="ssr:stedsnr" v="235719" />
	</node>
	<node lat="69.5321527786181" lon="18.34051389210969" id="-48397">
		<tag k="name" v="Sagstolbakken" />
		<tag k="natural" v="slope" />
		<tag k="place" v="locality" />
		<tag k="ssr:stedsnr" v="235724" />
	</node>
	<node lat="69.5458972206731" lon="18.278319447112633" id="-48399">
		<tag k="name" v="Storelvskaret" />
		<tag k="natural" v="valley" />
		<tag k="place" v="locality" />
		<tag k="ssr:stedsnr" v="235889" />
	</node>
	<node lat="69.40686944810551" lon="19.516049990590034" id="-48400">
		<tag k="name" v="Risnesjorda" />
		<tag k="place" v="locality" />
		<tag k="ssr:stedsnr" v="235899" />
	</node>
	<node lat="69.39056666380004" lon="19.424158329266895" id="-48402">
		<tag k="loc_name:se" v="Čohkkobákti" />
		<tag k="name" v="Knoppberget" />
		<tag k="name:no" v="Knoppberget" />
		<tag k="natural" v="hill" />
		<tag k="place" v="locality" />
		<tag k="ssr:stedsnr" v="235916" />
	</node>
	<node lat="69.77007222427306" lon="19.368149998274955" id="-48404">
		<tag k="name" v="Bjørnbakkdalen" />
		<tag k="natural" v="valley" />
		<tag k="place" v="locality" />
		<tag k="ssr:stedsnr" v="235954" />
	</node>
	<node lat="69.53244444522993" lon="18.620041658120847" id="-48405">
		<tag k="name" v="Mellarabben" />
		<tag k="natural" v="hill" />
		<tag k="place" v="locality" />
		<tag k="ssr:stedsnr" v="236120" />
	</node>
	<node lat="69.51674444733132" lon="18.55406389325298" id="-48406">
		<tag k="name" v="Heggelia" />
		<tag k="natural" v="slope" />
		<tag k="place" v="locality" />
		<tag k="ssr:stedsnr" v="236121" />
	</node>
	<node lat="69.56286388467602" lon="18.577491664804086" id="-48407">
		<tag k="name" v="Lilleknausen" />
		<tag k="natural" v="hill" />
		<tag k="place" v="locality" />
		<tag k="ssr:stedsnr" v="236147" />
	</node>
	<node lat="69.57987499961881" lon="18.6270861115855" id="-48409">
		<tag k="name" v="Leirholla" />
		<tag k="natural" v="valley" />
		<tag k="place" v="locality" />
		<tag k="ssr:stedsnr" v="236212" />
	</node>
	<node lat="69.58716388675178" lon="18.6300277833019" id="-48411">
		<tag k="name" v="Hansmyrbakken" />
		<tag k="natural" v="slope" />
		<tag k="place" v="locality" />
		<tag k="ssr:stedsnr" v="236215" />
	</node>
	<node lat="69.39924999977755" lon="19.632599984095897" id="-48421">
		<tag k="name" v="Berghaugen - Váráš" />
		<tag k="name:no" v="Berghaugen" />
		<tag k="name:se" v="Váráš" />
		<tag k="natural" v="hill" />
		<tag k="place" v="locality" />
		<tag k="ssr:stedsnr" v="236373" />
	</node>
	<node lat="69.63601666383191" lon="18.017791667981925" id="-48423">
		<tag k="name" v="Kreviksletta" />
		<tag k="place" v="locality" />
		<tag k="ssr:stedsnr" v="236430" />
	</node>
	<node lat="69.60476389244731" lon="19.800572201654298" id="-48431">
		<tag k="name" v="Vikabakken" />
		<tag k="natural" v="slope" />
		<tag k="place" v="locality" />
		<tag k="ssr:stedsnr" v="236545" />
	</node>
	<node lat="69.60858611087261" lon="18.308994445088906" id="-48434">
		<tag k="name" v="Finnes" />
		<tag k="natural" v="hill" />
		<tag k="place" v="locality" />
		<tag k="ssr:stedsnr" v="236743" />
	</node>
	<node lat="69.58738055853098" lon="18.26577221512032" id="-48435">
		<tag k="name" v="Lausknausen" />
		<tag k="natural" v="hill" />
		<tag k="place" v="locality" />
		<tag k="ssr:stedsnr" v="236745" />
	</node>
	<node lat="69.52359166345128" lon="19.26272499392805" id="-48443">
		<tag k="name" v="Vierdaorda" />
		<tag k="name:se" v="Vierdaorda" />
		<tag k="natural" v="slope" />
		<tag k="place" v="locality" />
		<tag k="ssr:stedsnr" v="237041" />
	</node>
	<node lat="69.72234808271378" lon="18.914069317034627" id="-48445">
		<tag k="fixme" v="consider natural=peak for the most distinct mountains in the district" />
		<tag k="name" v="Brattåsen" />
		<tag k="natural" v="hill" />
		<tag k="place" v="locality" />
		<tag k="ssr:stedsnr" v="43522" />
	</node>
	<node lat="69.54788055933642" lon="19.64577220449543" id="-48448">
		<tag k="name" v="Skredbakken" />
		<tag k="natural" v="slope" />
		<tag k="place" v="locality" />
		<tag k="ssr:stedsnr" v="47510" />
	</node>
	<node lat="69.84837500333194" lon="18.9922722140669" id="-48449">
		<tag k="fixme" v="consider natural=peak for the most distinct mountains in the district" />
		<tag k="name" v="Tennvasshøgda" />
		<tag k="natural" v="hill" />
		<tag k="place" v="locality" />
		<tag k="ssr:stedsnr" v="48108" />
	</node>
	<node lat="69.60368055838079" lon="18.94048887202549" id="-48465">
		<tag k="name" v="Gjothammaren" />
		<tag k="natural" v="hill" />
		<tag k="place" v="locality" />
		<tag k="ssr:stedsnr" v="53003" />
	</node>
	<node lat="69.53603055136006" lon="19.026772220419147" id="-48466">
		<tag k="name" v="Lian" />
		<tag k="natural" v="slope" />
		<tag k="place" v="locality" />
		<tag k="ssr:stedsnr" v="53021" />
	</node>
	<node lat="69.78193333718752" lon="19.439747205844785" id="-48468">
		<tag k="name" v="Møllesbakken" />
		<tag k="natural" v="slope" />
		<tag k="place" v="locality" />
		<tag k="ssr:stedsnr" v="53202" />
	</node>
	<node lat="69.78583611486054" lon="19.483011097822374" id="-48469">
		<tag k="name" v="Steinhaugen" />
		<tag k="natural" v="hill" />
		<tag k="place" v="locality" />
		<tag k="ssr:stedsnr" v="53207" />
	</node>
	<node lat="69.45389999708145" lon="19.69796943088354" id="-48474">
		<tag k="fixme" v="consider natural=peak for the most distinct mountains in the district" />
		<tag k="name" v="Ruskeliåsen" />
		<tag k="natural" v="hill" />
		<tag k="place" v="locality" />
		<tag k="ssr:stedsnr" v="53321" />
	</node>
	<node lat="69.5966944460793" lon="19.126838877484893" id="-48475">
		<tag k="name" v="Salen" />
		<tag k="natural" v="ridge" />
		<tag k="place" v="locality" />
		<tag k="ssr:stedsnr" v="53371" />
	</node>
	<node lat="69.61575000163333" lon="19.707019446832692" id="-48476">
		<tag k="name" v="Steinrabben" />
		<tag k="place" v="locality" />
		<tag k="ssr:stedsnr" v="53387" />
	</node>
	<node lat="69.6439361150583" lon="18.716311107120063" id="-48477">
		<tag k="name" v="Skjellhaugen" />
		<tag k="natural" v="hill" />
		<tag k="place" v="locality" />
		<tag k="ssr:stedsnr" v="53503" />
	</node>
	<node lat="69.65979444894893" lon="18.705474995659365" id="-48478">
		<tag k="fixme" v="consider natural=peak for the most distinct mountains in the district" />
		<tag k="name" v="Gløsaren" />
		<tag k="natural" v="hill" />
		<tag k="place" v="locality" />
		<tag k="ssr:stedsnr" v="53505" />
	</node>
	<node lat="69.7599083344832" lon="19.62810832205037" id="-48482">
		<tag k="name" v="Rundhaugen" />
		<tag k="natural" v="hill" />
		<tag k="place" v="locality" />
		<tag k="ssr:stedsnr" v="53574" />
	</node>
	<node lat="69.76063611009229" lon="19.616869445306172" id="-48483">
		<tag k="name" v="Rundmoen" />
		<tag k="place" v="locality" />
		<tag k="ssr:stedsnr" v="53577" />
	</node>
	<node lat="69.60156110920025" lon="18.04309998540151" id="-48486">
		<tag k="name" v="Gunnellhaugen" />
		<tag k="natural" v="hill" />
		<tag k="place" v="locality" />
		<tag k="ssr:stedsnr" v="53767" />
	</node>
	<node lat="69.60125555905779" lon="19.259652776888128" id="-48488">
		<tag k="name" v="Storlidalen" />
		<tag k="natural" v="valley" />
		<tag k="place" v="locality" />
		<tag k="ssr:stedsnr" v="53673" />
	</node>
	<node lat="69.56718333050377" lon="19.268588875718343" id="-48489">
		<tag k="name" v="Nedre Stillbakken" />
		<tag k="natural" v="slope" />
		<tag k="place" v="locality" />
		<tag k="ssr:stedsnr" v="53676" />
	</node>
	<node lat="69.41393889130161" lon="19.52382220527534" id="-48490">
		<tag k="name" v="Urlandet" />
		<tag k="place" v="locality" />
		<tag k="ssr:stedsnr" v="53817" />
	</node>
	<node lat="69.52357778235435" lon="18.641966662020554" id="-48492">
		<tag k="name" v="Svarthammaren" />
		<tag k="natural" v="hill" />
		<tag k="place" v="locality" />
		<tag k="ssr:stedsnr" v="54114" />
	</node>
	<node lat="69.60732500373149" lon="18.032027774293955" id="-48493">
		<tag k="name" v="Lenaklubben" />
		<tag k="natural" v="hill" />
		<tag k="place" v="locality" />
		<tag k="ssr:stedsnr" v="54175" />
	</node>
	<node lat="69.7589444459953" lon="18.47636945016593" id="-48495">
		<tag k="name" v="Kaldfjordsletta" />
		<tag k="place" v="locality" />
		<tag k="ssr:stedsnr" v="54081" />
	</node>
	<node lat="69.59400833724695" lon="19.871988874481172" id="-48497">
		<tag k="name" v="Hammaren" />
		<tag k="natural" v="hill" />
		<tag k="place" v="locality" />
		<tag k="ssr:stedsnr" v="54212" />
	</node>
	<node lat="69.53323333719459" lon="18.26292499400438" id="-48503">
		<tag k="name" v="Skjævelbakken" />
		<tag k="natural" v="slope" />
		<tag k="place" v="locality" />
		<tag k="ssr:stedsnr" v="54671" />
	</node>
	<node lat="69.55611944454452" lon="18.116538893066796" id="-48505">
		<tag k="name" v="Vollelvdalen" />
		<tag k="natural" v="valley" />
		<tag k="place" v="locality" />
		<tag k="ssr:stedsnr" v="54501" />
	</node>
	<node lat="69.60457777766156" lon="19.78165553580185" id="-48506">
		<tag k="name" v="Lillejord" />
		<tag k="place" v="locality" />
		<tag k="ssr:stedsnr" v="54578" />
	</node>
	<node lat="69.5977583313139" lon="19.844747213852695" id="-48509">
		<tag k="name" v="Vikalia" />
		<tag k="natural" v="slope" />
		<tag k="place" v="locality" />
		<tag k="ssr:stedsnr" v="54926" />
	</node>
	<node lat="69.5359972218858" lon="18.35493888367114" id="-48510">
		<tag k="name" v="Fjellbakkan" />
		<tag k="natural" v="slope" />
		<tag k="place" v="locality" />
		<tag k="ssr:stedsnr" v="54880" />
	</node>
	<node lat="69.37734722281515" lon="19.63103610639563" id="-48518">
		<tag k="name" v="Ganešgieddi" />
		<tag k="name:se" v="Ganešgieddi" />
		<tag k="place" v="locality" />
		<tag k="ssr:stedsnr" v="241497" />
	</node>
	<node lat="69.61113055846857" lon="19.682438881585167" id="-48529">
		<tag k="name" v="Storelvdalen" />
		<tag k="natural" v="valley" />
		<tag k="place" v="locality" />
		<tag k="ssr:stedsnr" v="79148" />
	</node>
	<node lat="69.65961944175253" lon="18.63628887132055" id="-48536">
		<tag k="fixme" v="consider natural=peak for the most distinct mountains in the district" />
		<tag k="name" v="Litjefjellet" />
		<tag k="natural" v="hill" />
		<tag k="place" v="locality" />
		<tag k="ssr:stedsnr" v="79304" />
	</node>
	<node lat="69.60257777984675" lon="18.671286117230505" id="-48537">
		<tag k="name" v="Forrhaugen" />
		<tag k="natural" v="hill" />
		<tag k="place" v="locality" />
		<tag k="ssr:stedsnr" v="79342" />
	</node>
	<node lat="69.50706110825799" lon="18.72136665213724" id="-48539">
		<tag k="fixme" v="consider natural=peak for the most distinct mountains in the district" />
		<tag k="name" v="Bakaromntinden - Rávdnjenjárgáisi" />
		<tag k="name:no" v="Bakaromntinden" />
		<tag k="name:se" v="Rávdnjenjárgáisi" />
		<tag k="natural" v="hill" />
		<tag k="old_name:no" v="Bakaromnstinden" />
		<tag k="place" v="locality" />
		<tag k="ssr:stedsnr" v="79295" />
	</node>
	<node lat="69.52909721755539" lon="18.23570834050353" id="-48541">
		<tag k="name" v="Tuva" />
		<tag k="natural" v="hill" />
		<tag k="place" v="locality" />
		<tag k="ssr:stedsnr" v="79446" />
	</node>
	<node lat="69.60686388574489" lon="18.099297230379904" id="-48543">
		<tag k="name" v="Vardaksla" />
		<tag k="natural" v="hill" />
		<tag k="place" v="locality" />
		<tag k="ssr:stedsnr" v="79493" />
	</node>
	<node lat="69.62199722206692" lon="18.38301943669061" id="-48546">
		<tag k="alt_name" v="Skorelvdalen" />
		<tag k="name" v="Skårelvdalen" />
		<tag k="natural" v="valley" />
		<tag k="place" v="locality" />
		<tag k="ssr:stedsnr" v="79501" />
	</node>
	<node lat="69.69366899366767" lon="18.148902114641015" id="-48548">
		<tag k="fixme" v="consider natural=peak for the most distinct mountains in the district" />
		<tag k="name" v="Høgøya" />
		<tag k="natural" v="hill" />
		<tag k="place" v="locality" />
		<tag k="ssr:stedsnr" v="79609" />
	</node>
	<node lat="69.55015277553754" lon="18.410163893959464" id="-48551">
		<tag k="name" v="Skarhaugen" />
		<tag k="natural" v="hill" />
		<tag k="place" v="locality" />
		<tag k="ssr:stedsnr" v="79546" />
	</node>
	<node lat="69.55441110973265" lon="18.200119434278292" id="-48552">
		<tag k="name" v="Sløykdalen" />
		<tag k="natural" v="valley" />
		<tag k="place" v="locality" />
		<tag k="ssr:stedsnr" v="79550" />
	</node>
	<node lat="69.71848333634522" lon="18.467594441372263" id="-48553">
		<tag k="fixme" v="consider natural=peak for the most distinct mountains in the district" />
		<tag k="name" v="Revbergtinden" />
		<tag k="natural" v="hill" />
		<tag k="place" v="locality" />
		<tag k="ssr:stedsnr" v="79591" />
	</node>
	<node lat="69.87269289187876" lon="19.02209175040079" id="-48554">
		<tag k="fixme" v="multiple name tags, choose one and add the other to alt_name; consider natural=peak for the most distinct mountains in the district" />
		<tag k="name" v="Maken - Eljorvárri;Eljor" />
		<tag k="name:no" v="Maken" />
		<tag k="name:se" v="Eljorvárri;Eljor" />
		<tag k="natural" v="hill" />
		<tag k="place" v="locality" />
		<tag k="ssr:stedsnr" v="79740" />
	</node>
	<node lat="69.49930278032616" lon="18.761611117366616" id="-48558">
		<tag k="fixme" v="consider natural=peak for the most distinct mountains in the district" />
		<tag k="name" v="Kvitfjellet" />
		<tag k="natural" v="hill" />
		<tag k="place" v="locality" />
		<tag k="ssr:stedsnr" v="79845" />
	</node>
	<node lat="69.77229444488479" lon="18.861802782373914" id="-48559">
		<tag k="alt_name" v="Kjeiptuva" />
		<tag k="fixme" v="consider natural=peak for the most distinct mountains in the district" />
		<tag k="name" v="Keiptuva" />
		<tag k="natural" v="hill" />
		<tag k="place" v="locality" />
		<tag k="ssr:stedsnr" v="79895" />
	</node>
	<node lat="69.75240000460444" lon="19.234786101632835" id="-48566">
		<tag k="alt_name" v="Skjellsmissen" />
		<tag k="fixme" v="consider natural=peak for the most distinct mountains in the district" />
		<tag k="name" v="Skilsmissen" />
		<tag k="natural" v="hill" />
		<tag k="place" v="locality" />
		<tag k="ssr:stedsnr" v="80640" />
	</node>
	<node lat="70.05237500076092" lon="18.692480540993966" id="-48568">
		<tag k="fixme" v="consider natural=peak for the most distinct mountains in the district" />
		<tag k="name" v="Leituvfjellet" />
		<tag k="natural" v="hill" />
		<tag k="place" v="locality" />
		<tag k="ssr:stedsnr" v="80737" />
	</node>
	<node lat="69.94051666315812" lon="19.030677780456028" id="-48569">
		<tag k="fixme" v="consider natural=peak for the most distinct mountains in the district" />
		<tag k="name" v="Svartvasstinden - Ádjetgáisi" />
		<tag k="name:no" v="Svartvasstinden" />
		<tag k="name:se" v="Ádjetgáisi" />
		<tag k="natural" v="hill" />
		<tag k="place" v="locality" />
		<tag k="ssr:stedsnr" v="81836" />
	</node>
	<node lat="69.37988333592821" lon="19.570561106501373" id="-48570">
		<tag k="fixme" v="consider natural=peak for the most distinct mountains in the district" />
		<tag k="name" v="Skulvatindane - Skulvagáissát" />
		<tag k="name:no" v="Skulvatindane" />
		<tag k="name:se" v="Skulvagáissát" />
		<tag k="natural" v="hill" />
		<tag k="place" v="locality" />
		<tag k="ssr:stedsnr" v="82200" />
	</node>
	<node lat="69.4910555536043" lon="19.295297219157938" id="-48571">
		<tag k="fixme" v="multiple name tags, choose one and add the other to alt_name; consider natural=peak for the most distinct mountains in the district" />
		<tag k="name" v="Henrikstinden;Durmålstinden - Gáisi" />
		<tag k="name:no" v="Henrikstinden;Durmålstinden" />
		<tag k="name:se" v="Gáisi" />
		<tag k="natural" v="hill" />
		<tag k="place" v="locality" />
		<tag k="ssr:stedsnr" v="83030" />
	</node>
	<node lat="69.71976666960947" lon="18.91383331874794" id="-48582">
		<tag k="fixme" v="consider natural=peak for the most distinct mountains in the district" />
		<tag k="name" v="Lanesåsan" />
		<tag k="natural" v="hill" />
		<tag k="place" v="locality" />
		<tag k="ssr:stedsnr" v="104511" />
	</node>
	<node lat="69.50502777768932" lon="19.70410276014023" id="-48586">
		<tag k="name" v="Rødstrandberget" />
		<tag k="natural" v="hill" />
		<tag k="place" v="locality" />
		<tag k="ssr:stedsnr" v="108512" />
	</node>
	<node lat="69.84686666766399" lon="19.032249982382133" id="-48588">
		<tag k="name" v="Makdalen" />
		<tag k="natural" v="valley" />
		<tag k="place" v="locality" />
		<tag k="ssr:stedsnr" v="109123" />
	</node>
	<node lat="69.99252222675692" lon="18.500161106212612" id="-48596">
		<tag k="name" v="Engelvarden" />
		<tag k="natural" v="hill" />
		<tag k="place" v="locality" />
		<tag k="ssr:stedsnr" v="110225" />
	</node>
	<node lat="69.8979555560413" lon="18.848111116927452" id="-48597">
		<tag k="alt_name" v="Lilleskarhompen" />
		<tag k="name" v="Lilleskarhumpen" />
		<tag k="natural" v="hill" />
		<tag k="place" v="locality" />
		<tag k="ssr:stedsnr" v="110270" />
	</node>
	<node lat="69.79695278069177" lon="19.014038894010703" id="-48599">
		<tag k="name" v="Rennarbakken" />
		<tag k="natural" v="slope" />
		<tag k="place" v="locality" />
		<tag k="ssr:stedsnr" v="110280" />
	</node>
	<node lat="69.79690555572701" lon="18.776080554895483" id="-48600">
		<tag k="name" v="Storberget" />
		<tag k="natural" v="hill" />
		<tag k="place" v="locality" />
		<tag k="ssr:stedsnr" v="110376" />
	</node>
	<node lat="69.47589166935262" lon="18.845494446456076" id="-48607">
		<tag k="fixme" v="consider natural=peak for the most distinct mountains in the district" />
		<tag k="name" v="Likollen" />
		<tag k="natural" v="hill" />
		<tag k="place" v="locality" />
		<tag k="ssr:stedsnr" v="113179" />
	</node>
	<node lat="69.50733055797441" lon="19.01963609787811" id="-48611">
		<tag k="name" v="Lillemoen" />
		<tag k="place" v="locality" />
		<tag k="ssr:stedsnr" v="113215" />
	</node>
	<node lat="69.63568333251928" lon="19.060811097890753" id="-48613">
		<tag k="fixme" v="consider natural=peak for the most distinct mountains in the district" />
		<tag k="name" v="Storskarsfjellet" />
		<tag k="natural" v="hill" />
		<tag k="place" v="locality" />
		<tag k="ssr:stedsnr" v="113638" />
	</node>
	<node lat="69.5591249987994" lon="18.01964722351551" id="-48614">
		<tag k="name" v="Haugen" />
		<tag k="natural" v="hill" />
		<tag k="place" v="locality" />
		<tag k="ssr:stedsnr" v="114118" />
	</node>
	<node lat="69.56946944059501" lon="18.018691668846706" id="-48615">
		<tag k="name" v="Torsnesaksla" />
		<tag k="place" v="locality" />
		<tag k="ssr:stedsnr" v="114120" />
	</node>
	<node lat="69.781869448252" lon="19.448933315055765" id="-48617">
		<tag k="name" v="Svartbergan" />
		<tag k="natural" v="hill" />
		<tag k="place" v="locality" />
		<tag k="ssr:stedsnr" v="114175" />
	</node>
	<node lat="69.5968666655423" lon="19.871655555531262" id="-48618">
		<tag k="name" v="Berget" />
		<tag k="natural" v="hill" />
		<tag k="place" v="locality" />
		<tag k="ssr:stedsnr" v="114178" />
	</node>
	<node lat="69.57833889193957" lon="18.677852768524414" id="-48620">
		<tag k="name" v="Storlihaugen" />
		<tag k="natural" v="hill" />
		<tag k="place" v="locality" />
		<tag k="ssr:stedsnr" v="114185" />
	</node>
	<node lat="69.63869166414402" lon="17.958277782516426" id="-48624">
		<tag k="name" v="Lillekrykjehaugen" />
		<tag k="natural" v="hill" />
		<tag k="place" v="locality" />
		<tag k="ssr:stedsnr" v="114331" />
	</node>
	<node lat="69.79531111459059" lon="19.72391665517773" id="-48625">
		<tag k="fixme" v="consider natural=peak for the most distinct mountains in the district" />
		<tag k="name" v="Skredsteinåsen" />
		<tag k="natural" v="hill" />
		<tag k="place" v="locality" />
		<tag k="ssr:stedsnr" v="114205" />
	</node>
	<node lat="69.8039333305528" lon="19.730663888738146" id="-48626">
		<tag k="name" v="Yttervollen" />
		<tag k="place" v="locality" />
		<tag k="ssr:stedsnr" v="114220" />
	</node>
	<node lat="69.6838499992857" lon="18.647819444240245" id="-48627">
		<tag k="name" v="Kattfjorddalen" />
		<tag k="natural" v="valley" />
		<tag k="place" v="locality" />
		<tag k="ssr:stedsnr" v="114221" />
	</node>
	<node lat="69.57524722023716" lon="18.70886389511944" id="-48628">
		<tag k="name" v="Reinlia" />
		<tag k="natural" v="slope" />
		<tag k="place" v="locality" />
		<tag k="ssr:stedsnr" v="114417" />
	</node>
	<node lat="69.40524722515322" lon="19.609494444281257" id="-48630">
		<tag k="name" v="Jápminlátnjá" />
		<tag k="name:se" v="Jápminlátnjá" />
		<tag k="natural" v="slope" />
		<tag k="place" v="locality" />
		<tag k="ssr:stedsnr" v="114424" />
	</node>
	<node lat="69.46440277690662" lon="19.087966650495893" id="-48631">
		<tag k="name" v="Gambakken" />
		<tag k="natural" v="slope" />
		<tag k="place" v="locality" />
		<tag k="ssr:stedsnr" v="114518" />
	</node>
	<node lat="69.57573611403376" lon="18.0511499983256" id="-48632">
		<tag k="name" v="Finnbyrabben" />
		<tag k="natural" v="hill" />
		<tag k="place" v="locality" />
		<tag k="ssr:stedsnr" v="114526" />
	</node>
	<node lat="69.74142500325065" lon="19.352058314827353" id="-48633">
		<tag k="fixme" v="consider natural=peak for the most distinct mountains in the district" />
		<tag k="name" v="Vassåsan" />
		<tag k="natural" v="hill" />
		<tag k="place" v="locality" />
		<tag k="ssr:stedsnr" v="114567" />
	</node>
	<node lat="69.76902777823324" lon="19.680772200737774" id="-48634">
		<tag k="name" v="Flaten" />
		<tag k="place" v="locality" />
		<tag k="ssr:stedsnr" v="114568" />
	</node>
	<node lat="69.62615833221972" lon="19.343786099776704" id="-48635">
		<tag k="name" v="Skaralia" />
		<tag k="natural" v="slope" />
		<tag k="place" v="locality" />
		<tag k="ssr:stedsnr" v="114572" />
	</node>
	<node lat="69.76001666739121" lon="19.565174999665032" id="-48636">
		<tag k="name" v="Flatberget" />
		<tag k="natural" v="hill" />
		<tag k="place" v="locality" />
		<tag k="ssr:stedsnr" v="114574" />
	</node>
	<node lat="69.64496389243928" lon="18.110447223406688" id="-48639">
		<tag k="name" v="Stanghaugen" />
		<tag k="natural" v="hill" />
		<tag k="place" v="locality" />
		<tag k="ssr:stedsnr" v="114710" />
	</node>
	<node lat="69.56197222220864" lon="19.274788890102553" id="-48645">
		<tag k="name" v="Øvre Stillbakken" />
		<tag k="natural" v="slope" />
		<tag k="place" v="locality" />
		<tag k="ssr:stedsnr" v="114667" />
	</node>
	<node lat="69.40754444404737" lon="19.550455542106306" id="-48648">
		<tag k="name" v="Skjellbakken" />
		<tag k="natural" v="slope" />
		<tag k="place" v="locality" />
		<tag k="ssr:stedsnr" v="114804" />
	</node>
	<node lat="69.55055555399069" lon="18.41617223012123" id="-48649">
		<tag k="name" v="Skaret" />
		<tag k="natural" v="valley" />
		<tag k="place" v="locality" />
		<tag k="ssr:stedsnr" v="114906" />
	</node>
	<node lat="69.54146666449648" lon="18.416886105554628" id="-48650">
		<tag k="name" v="Rundheia" />
		<tag k="natural" v="hill" />
		<tag k="place" v="locality" />
		<tag k="ssr:stedsnr" v="114910" />
	</node>
	<node lat="69.41321944655009" lon="19.662861106374745" id="-48655">
		<tag k="name" v="Davvegieddi" />
		<tag k="name:se" v="Davvegieddi" />
		<tag k="place" v="locality" />
		<tag k="ssr:stedsnr" v="118492" />
	</node>
	<node lat="69.43006666665104" lon="19.61774164479747" id="-48656">
		<tag k="name" v="Čáhppesbávttit" />
		<tag k="name:se" v="Čáhppesbávttit" />
		<tag k="natural" v="hill" />
		<tag k="place" v="locality" />
		<tag k="ssr:stedsnr" v="120024" />
	</node>
	<node lat="69.40710000354088" lon="19.593588882370756" id="-48670">
		<tag k="fixme" v="consider natural=peak for the most distinct mountains in the district" />
		<tag k="name" v="Lakselvnesåsen" />
		<tag k="natural" v="hill" />
		<tag k="place" v="locality" />
		<tag k="ssr:stedsnr" v="139204" />
	</node>
	<node lat="69.63492222526338" lon="18.265977786984504" id="-48676">
		<tag k="name" v="Gilberg" />
		<tag k="natural" v="hill" />
		<tag k="place" v="locality" />
		<tag k="ssr:stedsnr" v="139556" />
	</node>
	<node lat="69.69108611081256" lon="18.50028889185957" id="-48678">
		<tag k="name" v="Storsteindalen" />
		<tag k="natural" v="valley" />
		<tag k="place" v="locality" />
		<tag k="ssr:stedsnr" v="139704" />
	</node>
	<node lat="69.86366111073303" lon="18.6824361153615" id="-48681">
		<tag k="fixme" v="consider natural=peak for the most distinct mountains in the district" />
		<tag k="name" v="Tverrlandstinden" />
		<tag k="natural" v="hill" />
		<tag k="place" v="locality" />
		<tag k="ssr:stedsnr" v="139742" />
	</node>
	<node lat="69.4898277733215" lon="18.596038886272165" id="-48683">
		<tag k="name" v="Brokskaret" />
		<tag k="natural" v="valley" />
		<tag k="place" v="locality" />
		<tag k="ssr:stedsnr" v="139637" />
	</node>
	<node lat="69.72731111136848" lon="18.533491662557573" id="-48684">
		<tag k="fixme" v="consider natural=peak for the most distinct mountains in the district" />
		<tag k="name" v="Styrmannstinden" />
		<tag k="natural" v="hill" />
		<tag k="place" v="locality" />
		<tag k="ssr:stedsnr" v="139641" />
	</node>
	<node lat="69.68248056026869" lon="18.28951944001107" id="-48685">
		<tag k="name" v="Litleskaret" />
		<tag k="natural" v="valley" />
		<tag k="place" v="locality" />
		<tag k="ssr:stedsnr" v="139690" />
	</node>
	<node lat="69.67519266572815" lon="18.317738262072353" id="-48686">
		<tag k="fixme" v="consider natural=peak for the most distinct mountains in the district" />
		<tag k="name" v="Styrmannen - Oaggulangáisi" />
		<tag k="name:no" v="Styrmannen" />
		<tag k="name:se" v="Oaggulangáisi" />
		<tag k="natural" v="hill" />
		<tag k="place" v="locality" />
		<tag k="ssr:stedsnr" v="139691" />
	</node>
	<node lat="69.7995277778685" lon="19.07474999551022" id="-48696">
		<tag k="name" v="Stighøgda" />
		<tag k="natural" v="hill" />
		<tag k="place" v="locality" />
		<tag k="ssr:stedsnr" v="139894" />
	</node>
</osm>
