<?xml version="1.0" encoding="UTF-8"?>
<osm generator="osmapis" version="0.6">
	<node id="-839294" lat="69.900508336" lon="17.9173833298">
		<tag k="name" v="Havbåleia" />
		<tag k="place" v="locality" />
		<tag k="ssr:stedsnr" v="593774" />
	</node>
	<node id="-834821" lat="69.6270361089" lon="18.947277781">
		<tag k="man_made" v="quay" />
		<tag k="name" v="Solstrand" />
		<tag k="place" v="locality" />
		<tag k="ssr:stedsnr" v="454143" />
	</node>
	<node id="-835060" lat="69.9657027758" lon="18.1202194348">
		<tag k="name" v="Storleia" />
		<tag k="place" v="locality" />
		<tag k="ssr:stedsnr" v="349706" />
	</node>
	<node id="-835411" lat="69.5191583354" lon="18.8565138914">
		<tag k="highway" v="path" />
		<tag k="name" v="Burmaveien" />
		<tag k="ssr:stedsnr" v="660607" />
	</node>
	<node id="-834415" lat="70.0356805572" lon="18.6535944486">
		<tag k="highway" v="path" />
		<tag k="name" v="Brattvegen" />
		<tag k="ssr:stedsnr" v="292469" />
	</node>
	<node id="-835816" lat="69.6554055513" lon="18.971422222">
		<tag k="landuse" v="harbour" />
		<tag k="name" v="Pølsehamna" />
		<tag k="seamark:type" v="harbour" />
		<tag k="ssr:stedsnr" v="709195" />
	</node>
	<node id="-836711" lat="69.6517750001" lon="18.5121527639">
		<tag k="ford" v="yes" />
		<tag k="name" v="Vadet" />
		<tag k="place" v="locality" />
		<tag k="ssr:stedsnr" v="903005" />
	</node>
	<node id="-836326" lat="69.619749997" lon="18.2954527787">
		<tag k="highway" v="path" />
		<tag k="name" v="Stien" />
		<tag k="ssr:stedsnr" v="903769" />
	</node>
	<node id="-834019" lat="69.6501972232" lon="18.9687750025">
		<tag k="alt_name" v="Nordjeteen" />
		<tag k="man_made" v="breakwater" />
		<tag k="name" v="Nordsjeteen" />
		<tag k="place" v="locality" />
		<tag k="ssr:stedsnr" v="92641" />
	</node>
	<node id="-834529" lat="69.5927361082" lon="19.2250527664">
		<tag k="ford" v="yes" />
		<tag k="name" v="Berntvaet" />
		<tag k="place" v="locality" />
		<tag k="ssr:stedsnr" v="296322" />
	</node>
	<node id="-836317" lat="69.5930250018" lon="19.2564416502">
		<tag k="highway" v="path" />
		<tag k="name" v="Moveien" />
		<tag k="ssr:stedsnr" v="903586" />
	</node>
	<node id="-834776" lat="70.0082166656" lon="18.1117861124">
		<tag k="name" v="Simabakkleia" />
		<tag k="place" v="locality" />
		<tag k="ssr:stedsnr" v="444297" />
	</node>
	<node id="-834901" lat="70.0271111152" lon="18.5352027764">
		<tag k="fixme" v="verify maritime location" />
		<tag k="mooring" v="yes" />
		<tag k="name" v="Støen" />
		<tag k="place" v="locality" />
		<tag k="ssr:stedsnr" v="473113" />
	</node>
	<node id="-837459" lat="69.6244027737" lon="19.046749992">
		<tag k="highway" v="path" />
		<tag k="name" v="Turistveien" />
		<tag k="ssr:stedsnr" v="113634" />
	</node>
	<node id="-835280" lat="69.3722944465" lon="19.6438749965">
		<tag k="highway" v="path" />
		<tag k="name" v="Velaveien" />
		<tag k="ssr:stedsnr" v="418445" />
	</node>
	<node id="-835791" lat="69.544255557" lon="18.7684444314">
		<tag k="amenity" v="ferry_terminal" />
		<tag k="name" v="Vikran" />
		<tag k="ssr:stedsnr" v="699677" />
	</node>
	<node id="-836300" lat="69.6351305524" lon="17.9687111043">
		<tag k="highway" v="path" />
		<tag k="name" v="Stien" />
		<tag k="ssr:stedsnr" v="903284" />
	</node>
	<node id="-838346" lat="69.8338999998" lon="18.8252500075">
		<tag k="man_made" v="cairn" />
		<tag k="name" v="Varden" />
		<tag k="place" v="locality" />
		<tag k="ssr:stedsnr" v="352229" />
	</node>
	<node id="-833863" lat="69.5329416624" lon="18.3081527825">
		<tag k="highway" v="path" />
		<tag k="name" v="Skomakervegen" />
		<tag k="ssr:stedsnr" v="235720" />
	</node>
	<node id="-834022" lat="69.8323444486" lon="18.0309861131">
		<tag k="name" v="Matskjærleia" />
		<tag k="place" v="locality" />
		<tag k="ssr:stedsnr" v="108806" />
	</node>
	<node id="-836028" lat="69.671463887" lon="19.6540472226">
		<tag k="fixme" v="verify maritime location" />
		<tag k="loc_name:se" v="Stáffu" />
		<tag k="mooring" v="yes" />
		<tag k="name" v="Støa" />
		<tag k="name:no" v="Støa" />
		<tag k="place" v="locality" />
		<tag k="ssr:stedsnr" v="648655" />
	</node>
	<node id="-836411" lat="69.7369472267" lon="18.9900083202">
		<tag k="highway" v="path" />
		<tag k="name" v="Jotveien" />
		<tag k="ssr:stedsnr" v="776307" />
	</node>
	<node id="-838968" lat="69.991616665" lon="18.6851722037">
		<tag k="fixme" v="verify maritime location" />
		<tag k="mooring" v="yes" />
		<tag k="name" v="Finnstøa" />
		<tag k="place" v="locality" />
		<tag k="ssr:stedsnr" v="535471" />
	</node>
	<node id="-838326" lat="69.9347222252" lon="18.0107388923">
		<tag k="name" v="Arholmleia" />
		<tag k="place" v="locality" />
		<tag k="ssr:stedsnr" v="349771" />
	</node>
	<node id="-838706" lat="69.6509111147" lon="18.9645805514">
		<tag k="landuse" v="harbour" />
		<tag k="name" v="Indrehamna" />
		<tag k="seamark:type" v="harbour" />
		<tag k="ssr:stedsnr" v="406191" />
	</node>
	<node id="-836784" lat="70.0308166669" lon="18.3992361203">
		<tag k="name" v="Orholmsveet" />
		<tag k="place" v="locality" />
		<tag k="ssr:stedsnr" v="930304" />
	</node>
	<node id="-835057" lat="69.6721973659" lon="18.911367166">
		<tag k="layer" v="-1" />
		<tag k="name" v="Langneskulverten" />
		<tag k="old_name" v="Flyplasstunnelen" />
		<tag k="ssr:stedsnr" v="347416" />
		<tag k="tunnel" v="yes" />
	</node>
	<node id="-835619" lat="69.5700833366" lon="18.7710111141">
		<tag k="amenity" v="ferry_terminal" />
		<tag k="name" v="Larseng" />
		<tag k="ssr:stedsnr" v="517716" />
	</node>
	<node id="-837531" lat="69.5048777819" lon="18.8547166628">
		<tag k="highway" v="path" />
		<tag k="name" v="Moveien" />
		<tag k="ssr:stedsnr" v="114641" />
	</node>
	<node id="-835743" lat="69.68267778" lon="18.9115500003">
		<tag k="aeroway" v="aerodrome" />
		<tag k="alt_name" v="Langnes" />
		<tag k="name" v="Tromsø lufthavn, Langnes" />
		<tag k="ssr:stedsnr" v="691534" />
	</node>
	<node id="-833821" lat="69.4195166704" lon="19.6727444431">
		<tag k="highway" v="path" />
		<tag k="name" v="Vedhøggaveien" />
		<tag k="ssr:stedsnr" v="235283" />
	</node>
	<node id="-833691" lat="69.677744443" lon="18.9853694463">
		<tag k="man_made" v="quay" />
		<tag k="name" v="Breivika havneterminal" />
		<tag k="place" v="locality" />
		<tag k="ssr:stedsnr" v="224199" />
	</node>
	<node id="-835472" lat="69.5704555595" lon="19.2040749818">
		<tag k="highway" v="path" />
		<tag k="name" v="Finnveien" />
		<tag k="ssr:stedsnr" v="478321" />
	</node>
	<node id="-835982" lat="69.5228583358" lon="19.7385305423">
		<tag k="highway" v="path" />
		<tag k="name" v="Tømmerveien" />
		<tag k="ssr:stedsnr" v="721583" />
	</node>
	<node id="-834186" lat="69.6134111097" lon="18.0495888935">
		<tag k="highway" v="path" />
		<tag k="name" v="Stian" />
		<tag k="ssr:stedsnr" v="114752" />
	</node>
	<node id="-836104" lat="69.6482500015" lon="18.9606944456">
		<tag k="landuse" v="harbour" />
		<tag k="name" v="Prostneset" />
		<tag k="seamark:type" v="harbour" />
		<tag k="ssr:stedsnr" v="881471" />
	</node>
	<node id="-839302" lat="69.3806583362" lon="19.4027638729">
		<tag k="highway" v="path" />
		<tag k="name" v="Russeveien" />
		<tag k="ssr:stedsnr" v="594405" />
	</node>
	<node id="-834565" lat="69.7182472236" lon="19.1288944409">
		<tag k="man_made" v="tower" />
		<tag k="name" v="Linken" />
		<tag k="ssr:stedsnr" v="296701" />
		<tag k="tower:type" v="communications" />
	</node>
	<node id="-836227" lat="70.0528750008" lon="18.552097222">
		<tag k="fixme" v="verify maritime location" />
		<tag k="mooring" v="yes" />
		<tag k="name" v="Naustet" />
		<tag k="place" v="locality" />
		<tag k="ssr:stedsnr" v="899090" />
	</node>
</osm>
