<?xml version="1.0" encoding="UTF-8"?>
<osm version="0.6" generator="osmapis">
	<node lat="69.46213888901083" lon="19.08939442510734" id="-91503">
		<tag k="name" v="Allmenningen" />
		<tag k="place" v="locality" />
		<tag k="ssr:stedsnr" v="963546" />
	</node>
	<node lat="69.57099672277552" lon="18.649780490060454" id="-96533">
		<tag k="fixme" v="consider boundary=protected_area and relevant protect_class if not nature reserve" />
		<tag k="leisure" v="nature_reserve" />
		<tag k="name" v="Rystraumen marine verneområde - Rávnnji mearrasuodjalanguovlu" />
		<tag k="name:no" v="Rystraumen marine verneområde" />
		<tag k="name:se" v="Rávnnji mearrasuodjalanguovlu" />
		<tag k="ssr:stedsnr" v="1080493" />
	</node>
	<node lat="70.06257903213496" lon="18.668407648276002" id="-96534">
		<tag k="fixme" v="consider boundary=protected_area and relevant protect_class if not nature reserve" />
		<tag k="leisure" v="nature_reserve" />
		<tag k="name" v="Ytre Karlsøy marine verneområde - Olggut Gálssá mearrasuodjalanguovlu" />
		<tag k="name:no" v="Ytre Karlsøy marine verneområde" />
		<tag k="name:se" v="Olggut Gálssá mearrasuodjalanguovlu" />
		<tag k="ssr:stedsnr" v="1080499" />
	</node>
</osm>
