<?xml version="1.0" encoding="UTF-8"?>
<osm version="0.6" generator="osmapis">
	<node lat="69.88361388599854" lon="18.891886095917087" id="-36145">
		<tag k="name" v="Nedre Hollvann" />
		<tag k="natural" v="water" />
		<tag k="ssr:stedsnr" v="230156" />
	</node>
	<node lat="69.83423332942878" lon="18.686755545488193" id="-36149">
		<tag k="name" v="Laukvikelva" />
		<tag k="ssr:stedsnr" v="231021" />
		<tag k="waterway" v="stream" />
	</node>
	<node lat="69.79073333191938" lon="19.166322225022814" id="-36151">
		<tag k="name" v="Storelva" />
		<tag k="ssr:stedsnr" v="231199" />
		<tag k="waterway" v="stream" />
	</node>
	<node lat="69.86396389230262" lon="18.959116669334243" id="-36160">
		<tag k="name" v="Tindvannet" />
		<tag k="natural" v="water" />
		<tag k="ssr:stedsnr" v="231221" />
	</node>
	<node lat="69.89849167072835" lon="18.84732499168622" id="-36168">
		<tag k="name" v="Lilleskarvannet" />
		<tag k="natural" v="water" />
		<tag k="ssr:stedsnr" v="231324" />
	</node>
	<node lat="69.92629166478119" lon="18.82247498489597" id="-36172">
		<tag k="name" v="Øvre Laksvann" />
		<tag k="natural" v="water" />
		<tag k="ssr:stedsnr" v="231445" />
	</node>
	<node lat="69.89155277514146" lon="18.866994438847705" id="-36175">
		<tag k="name" v="Skognes" />
		<tag k="natural" v="cape" />
		<tag k="ssr:stedsnr" v="231506" />
	</node>
	<node lat="69.80032500494899" lon="19.155491651568063" id="-36181">
		<tag k="name" v="Storelva" />
		<tag k="ssr:stedsnr" v="232069" />
		<tag k="waterway" v="stream" />
	</node>
	<node lat="69.46369999902655" lon="19.492858334746284" id="-36182">
		<tag k="name" v="Sennedalelva - Suoidnevággejohka" />
		<tag k="name:no" v="Sennedalelva" />
		<tag k="name:se" v="Suoidnevággejohka" />
		<tag k="ssr:stedsnr" v="18017" />
		<tag k="waterway" v="river" />
	</node>
	<node lat="69.52871110820787" lon="18.82789722287874" id="-36185">
		<tag k="name" v="Storvatnet" />
		<tag k="natural" v="water" />
		<tag k="ssr:stedsnr" v="18272" />
	</node>
	<node lat="69.5134361088037" lon="18.66785554335394" id="-36186">
		<tag k="name" v="Bentsjordelva" />
		<tag k="ssr:stedsnr" v="18281" />
		<tag k="waterway" v="river" />
	</node>
	<node lat="69.6305861098248" lon="19.037338893013178" id="-36189">
		<tag k="name" v="Tromsdalselva - Romssaváhjohka" />
		<tag k="name:no" v="Tromsdalselva" />
		<tag k="name:se" v="Romssaváhjohka" />
		<tag k="ssr:stedsnr" v="18299" />
		<tag k="waterway" v="river" />
	</node>
	<node lat="69.54085555175313" lon="18.364572213436652" id="-36190">
		<tag k="name" v="Tverrelva" />
		<tag k="ssr:stedsnr" v="18412" />
		<tag k="waterway" v="stream" />
	</node>
	<node lat="69.66933888976531" lon="18.16020276210701" id="-36202">
		<tag k="name" v="Skaghalsvatnet" />
		<tag k="place" v="locality" />
		<tag k="ssr:stedsnr" v="18656" />
	</node>
	<node lat="69.6722722260213" lon="18.235516674296697" id="-36203">
		<tag k="alt_name" v="Litlevatnet" />
		<tag k="name" v="Lillevatn" />
		<tag k="natural" v="water" />
		<tag k="ssr:stedsnr" v="18657" />
	</node>
</osm>
