<?xml version="1.0" encoding="UTF-8"?>
<osm version="0.6" generator="osmapis">
	<node lat="69.85148332949865" lon="18.673758337944637" id="-56201">
		<tag k="name" v="Vasskogan" />
		<tag k="place" v="locality" />
		<tag k="ssr:stedsnr" v="18699" />
	</node>
	<node lat="69.65466110755972" lon="18.932147217366726" id="-56234">
		<tag k="name" v="Bymyra" />
		<tag k="natural" v="wetland" />
		<tag k="ssr:stedsnr" v="234044" />
	</node>
	<node lat="69.35422222080196" lon="19.66608053940354" id="-56244">
		<tag k="name" v="Rypdalsmyren" />
		<tag k="natural" v="wetland" />
		<tag k="ssr:stedsnr" v="235067" />
	</node>
	<node lat="69.60002222458705" lon="19.585872222895972" id="-56251">
		<tag k="name" v="Nakkedalmyren" />
		<tag k="natural" v="wetland" />
		<tag k="ssr:stedsnr" v="235372" />
	</node>
	<node lat="69.77419166855834" lon="19.276988880262262" id="-56254">
		<tag k="name" v="Kulimyra" />
		<tag k="natural" v="wetland" />
		<tag k="ssr:stedsnr" v="235535" />
	</node>
	<node lat="69.6052277789924" lon="19.297702762732538" id="-56263">
		<tag k="name" v="Stormyra" />
		<tag k="natural" v="wetland" />
		<tag k="ssr:stedsnr" v="235664" />
	</node>
	<node lat="69.6181611100979" lon="18.01460277011501" id="-56288">
		<tag k="name" v="Storuran" />
		<tag k="natural" v="scree" />
		<tag k="ssr:stedsnr" v="236175" />
	</node>
	<node lat="69.39959999887817" lon="19.659247213910504" id="-56297">
		<tag k="name" v="Langmyra" />
		<tag k="natural" v="wetland" />
		<tag k="ssr:stedsnr" v="236376" />
	</node>
	<node lat="69.36946388683332" lon="19.599258331693566" id="-56302">
		<tag k="name" v="Storskogen" />
		<tag k="place" v="locality" />
		<tag k="ssr:stedsnr" v="236414" />
	</node>
	<node lat="69.61771666936316" lon="18.25989445101627" id="-56311">
		<tag k="name" v="Oterura" />
		<tag k="natural" v="scree" />
		<tag k="ssr:stedsnr" v="236766" />
	</node>
	<node lat="69.70231666571954" lon="18.801608318648753" id="-56321">
		<tag k="name" v="Løva" />
		<tag k="natural" v="stone" />
		<tag k="ssr:stedsnr" v="43938" />
	</node>
	<node lat="69.85003055530649" lon="18.782252779097348" id="-56333">
		<tag k="name" v="Stakkedalsmyren" />
		<tag k="natural" v="wetland" />
		<tag k="ssr:stedsnr" v="49315" />
	</node>
	<node lat="70.03991944719715" lon="18.570641664424965" id="-56338">
		<tag k="name" v="Bassøysanda" />
		<tag k="natural" v="beach" />
		<tag k="ssr:stedsnr" v="50420" />
		<tag k="surface" v="sand" />
	</node>
	<node lat="69.81559166481352" lon="19.706847209421763" id="-56354">
		<tag k="name" v="Øra" />
		<tag k="place" v="locality" />
		<tag k="ssr:stedsnr" v="53523" />
	</node>
	<node lat="69.59077777622362" lon="19.266777775623673" id="-56355">
		<tag k="name" v="Styggehollan" />
		<tag k="natural" v="wetland" />
		<tag k="ssr:stedsnr" v="53615" />
	</node>
	<node lat="69.76064999987254" lon="19.609433324276768" id="-56356">
		<tag k="name" v="Rødmyra" />
		<tag k="natural" v="wetland" />
		<tag k="ssr:stedsnr" v="53569" />
	</node>
	<node lat="69.5864416698861" lon="18.655711119960035" id="-56373">
		<tag k="name" v="Rundmyra" />
		<tag k="natural" v="wetland" />
		<tag k="ssr:stedsnr" v="54213" />
	</node>
	<node lat="69.5920861096225" lon="19.74038331914363" id="-56383">
		<tag k="name" v="Mekkersteinen - Meahkirgeargi" />
		<tag k="name:no" v="Mekkersteinen" />
		<tag k="name:se" v="Meahkirgeargi" />
		<tag k="natural" v="stone" />
		<tag k="ssr:stedsnr" v="54922" />
	</node>
	<node lat="69.41298888902699" lon="19.52582499518887" id="-56402">
		<tag k="loc_name:se" v="Stuorajuovva" />
		<tag k="name" v="Storura" />
		<tag k="name:no" v="Storura" />
		<tag k="natural" v="scree" />
		<tag k="ssr:stedsnr" v="79208" />
	</node>
	<node lat="69.81275833103305" lon="18.9172138807104" id="-56435">
		<tag k="alt_name" v="Rakkfjordmyra" />
		<tag k="name" v="Rakkfjordmyren" />
		<tag k="natural" v="wetland" />
		<tag k="ssr:stedsnr" v="79939" />
	</node>
	<node lat="69.55567222155395" lon="19.730333332708195" id="-56467">
		<tag k="name" v="Rornesmyra" />
		<tag k="natural" v="wetland" />
		<tag k="ssr:stedsnr" v="109484" />
	</node>
	<node lat="69.49330277788106" lon="19.036769444341143" id="-56484">
		<tag k="name" v="Klubbmyra" />
		<tag k="natural" v="wetland" />
		<tag k="ssr:stedsnr" v="113203" />
	</node>
	<node lat="69.50601388904481" lon="19.041263884374562" id="-56485">
		<tag k="name" v="Blåskreda" />
		<tag k="natural" v="scree" />
		<tag k="place" v="locality" />
		<tag k="ssr:stedsnr" v="113207" />
	</node>
	<node lat="69.772727776713" lon="19.418263877096535" id="-56494">
		<tag k="name" v="Løssmyra" />
		<tag k="natural" v="wetland" />
		<tag k="ssr:stedsnr" v="114180" />
	</node>
	<node lat="69.52726388637565" lon="19.237122204836385" id="-56504">
		<tag k="name" v="Storsteinen" />
		<tag k="natural" v="stone" />
		<tag k="ssr:stedsnr" v="114419" />
	</node>
	<node lat="69.77031388582833" lon="19.57948331651625" id="-56515">
		<tag k="name" v="Kvernsteinen" />
		<tag k="natural" v="stone" />
		<tag k="ssr:stedsnr" v="114719" />
	</node>
	<node lat="69.57719167157246" lon="19.768247209226963" id="-56516">
		<tag k="name" v="Skreda" />
		<tag k="natural" v="scree" />
		<tag k="place" v="locality" />
		<tag k="ssr:stedsnr" v="114609" />
	</node>
	<node lat="69.55623889329888" lon="18.838752765759423" id="-56527">
		<tag k="name" v="Skjærmyran" />
		<tag k="natural" v="wetland" />
		<tag k="ssr:stedsnr" v="115312" />
	</node>
	<node lat="69.64458610725418" lon="18.977608331154" id="-56602">
		<tag k="name" v="Hungerøyra" />
		<tag k="place" v="locality" />
		<tag k="ssr:stedsnr" v="162156" />
	</node>
	<node lat="69.62262221873668" lon="19.707322215523998" id="-56692">
		<tag k="name" v="Hamnura" />
		<tag k="natural" v="scree" />
		<tag k="ssr:stedsnr" v="174417" />
	</node>
	<node lat="69.52311389207222" lon="18.596088874340246" id="-56725">
		<tag k="name" v="Skreda" />
		<tag k="natural" v="scree" />
		<tag k="place" v="locality" />
		<tag k="ssr:stedsnr" v="175103" />
	</node>
	<node lat="69.38381666320517" lon="19.62899998381588" id="-56782">
		<tag k="name" v="Juhpajeaggi" />
		<tag k="name:se" v="Juhpajeaggi" />
		<tag k="natural" v="wetland" />
		<tag k="ssr:stedsnr" v="178508" />
	</node>
	<node lat="69.65506110701024" lon="18.13167222297086" id="-56867">
		<tag k="name" v="Bondalsmyran" />
		<tag k="natural" v="wetland" />
		<tag k="ssr:stedsnr" v="200687" />
	</node>
	<node lat="69.60001666850378" lon="18.944699992613977" id="-56960">
		<tag k="name" v="Eineholten" />
		<tag k="place" v="locality" />
		<tag k="ssr:stedsnr" v="234004" />
	</node>
	<node lat="69.73849444483781" lon="19.11025278185342" id="-56974">
		<tag k="name" v="Øra" />
		<tag k="place" v="locality" />
		<tag k="ssr:stedsnr" v="235312" />
	</node>
	<node lat="69.78994722669222" lon="19.560727769422925" id="-56988">
		<tag k="name" v="Bjørnbåsmyra" />
		<tag k="natural" v="wetland" />
		<tag k="ssr:stedsnr" v="235757" />
	</node>
	<node lat="69.5786527813499" lon="18.277019441174602" id="-56996">
		<tag k="name" v="Slåttemyra" />
		<tag k="natural" v="wetland" />
		<tag k="ssr:stedsnr" v="235677" />
	</node>
	<node lat="69.54054444529278" lon="18.746516654267925" id="-57016">
		<tag k="name" v="Blautmyra" />
		<tag k="natural" v="wetland" />
		<tag k="ssr:stedsnr" v="236338" />
	</node>
	<node lat="69.54057778070938" lon="18.437055547965638" id="-57020">
		<tag k="name" v="Mjeldøyra" />
		<tag k="place" v="locality" />
		<tag k="ssr:stedsnr" v="236889" />
	</node>
	<node lat="69.5833611119979" lon="18.287086120443075" id="-57066">
		<tag k="name" v="Stormyra" />
		<tag k="natural" v="wetland" />
		<tag k="ssr:stedsnr" v="261598" />
	</node>
	<node lat="69.70803611291063" lon="18.937583319173335" id="-57101">
		<tag k="name" v="Langøyra" />
		<tag k="place" v="locality" />
		<tag k="ssr:stedsnr" v="279523" />
	</node>
	<node lat="69.72211111430894" lon="18.935588879869428" id="-57107">
		<tag k="name" v="Myran" />
		<tag k="natural" v="wetland" />
		<tag k="ssr:stedsnr" v="286544" />
	</node>
	<node lat="69.48755277432738" lon="19.22682777718485" id="-57135">
		<tag k="name" v="Johansenskreda" />
		<tag k="natural" v="scree" />
		<tag k="place" v="locality" />
		<tag k="ssr:stedsnr" v="295472" />
	</node>
	<node lat="69.55505277905782" lon="18.577888873573595" id="-57145">
		<tag k="name" v="Dampen" />
		<tag k="natural" v="wetland" />
		<tag k="ssr:stedsnr" v="296121" />
	</node>
	<node lat="69.40698610828085" lon="19.67514720881141" id="-57157">
		<tag k="name" v="Skoggårdura" />
		<tag k="natural" v="scree" />
		<tag k="ssr:stedsnr" v="296380" />
	</node>
	<node lat="69.73666944068718" lon="18.33915832620989" id="-57170">
		<tag k="name" v="Kjerringrokken" />
		<tag k="place" v="locality" />
		<tag k="ssr:stedsnr" v="296925" />
	</node>
	<node lat="69.47228055491658" lon="19.084069437244334" id="-57234">
		<tag k="historic" v="shieling" />
		<tag k="name" v="Sennbakken" />
		<tag k="place" v="locality" />
		<tag k="ssr:stedsnr" v="324226" />
	</node>
	<node lat="69.87134722326353" lon="18.957616668859114" id="-57279">
		<tag k="name" v="Storskogen" />
		<tag k="place" v="locality" />
		<tag k="ssr:stedsnr" v="474207" />
	</node>
	<node lat="69.80556666509781" lon="18.77485555982775" id="-57290">
		<tag k="name" v="Melkarsteinen" />
		<tag k="natural" v="stone" />
		<tag k="ssr:stedsnr" v="352352" />
	</node>
	<node lat="69.98281666460392" lon="18.695680548831326" id="-57312">
		<tag k="name" v="Myran" />
		<tag k="natural" v="wetland" />
		<tag k="ssr:stedsnr" v="353464" />
	</node>
	<node lat="69.80037222447268" lon="19.545480538782982" id="-57320">
		<tag k="name" v="Nordøra" />
		<tag k="place" v="locality" />
		<tag k="ssr:stedsnr" v="356025" />
	</node>
	<node lat="69.5877027790949" lon="19.694947215802593" id="-57329">
		<tag k="name" v="Geitmyra" />
		<tag k="natural" v="wetland" />
		<tag k="ssr:stedsnr" v="356699" />
	</node>
	<node lat="69.55079722198295" lon="19.735830532329075" id="-57349">
		<tag k="name" v="Stakkenesmyra" />
		<tag k="natural" v="wetland" />
		<tag k="ssr:stedsnr" v="357556" />
	</node>
	<node lat="69.49721389251044" lon="19.033366651235735" id="-57354">
		<tag k="name" v="Bramannsmyra" />
		<tag k="natural" v="wetland" />
		<tag k="ssr:stedsnr" v="476199" />
	</node>
	<node lat="69.48572777530576" lon="19.733836106919732" id="-57359">
		<tag k="name" v="Storura" />
		<tag k="natural" v="scree" />
		<tag k="ssr:stedsnr" v="477299" />
	</node>
	<node lat="69.5611222178274" lon="19.009105556840286" id="-57361">
		<tag k="name" v="Stakkevalget" />
		<tag k="place" v="locality" />
		<tag k="ssr:stedsnr" v="477250" />
	</node>
	<node lat="69.411691664982" lon="19.52535277485782" id="-57363">
		<tag k="name" v="Skipet" />
		<tag k="natural" v="stone" />
		<tag k="ssr:stedsnr" v="477848" />
	</node>
	<node lat="69.67903888952242" lon="18.602602763408562" id="-57391">
		<tag k="name" v="Storskogen" />
		<tag k="place" v="locality" />
		<tag k="ssr:stedsnr" v="478233" />
	</node>
	<node lat="69.57771388928371" lon="18.27425833147329" id="-57418">
		<tag k="name" v="Øverslåttet" />
		<tag k="natural" v="wetland" />
		<tag k="ssr:stedsnr" v="478652" />
	</node>
	<node lat="69.561505559249" lon="18.39874722469405" id="-57424">
		<tag k="name" v="Åsesteinen" />
		<tag k="natural" v="stone" />
		<tag k="ssr:stedsnr" v="478909" />
	</node>
	<node lat="69.64638611379408" lon="19.59376664709441" id="-57437">
		<tag k="name" v="Stormyra" />
		<tag k="natural" v="wetland" />
		<tag k="ssr:stedsnr" v="382213" />
	</node>
	<node lat="69.58378056019401" lon="18.63263888360401" id="-57440">
		<tag k="name" v="Hansmyra" />
		<tag k="natural" v="wetland" />
		<tag k="ssr:stedsnr" v="382360" />
	</node>
	<node lat="69.47428888727416" lon="19.70516666250657" id="-57485">
		<tag k="alt_name" v="Rislovollen" />
		<tag k="historic" v="shieling" />
		<tag k="name" v="Rislavollen" />
		<tag k="place" v="locality" />
		<tag k="ssr:stedsnr" v="388301" />
	</node>
	<node lat="69.9522999998718" lon="18.75888333987767" id="-57525">
		<tag k="name" v="Langmyra" />
		<tag k="natural" v="wetland" />
		<tag k="ssr:stedsnr" v="413485" />
	</node>
	<node lat="69.5276916681443" lon="19.248516652986574" id="-57556">
		<tag k="name" v="Ivarskreda" />
		<tag k="natural" v="scree" />
		<tag k="place" v="locality" />
		<tag k="ssr:stedsnr" v="417710" />
	</node>
	<node lat="69.37421666512165" lon="19.6273194320065" id="-57566">
		<tag k="name" v="Suodnjomyran - Suotnjojeaggi" />
		<tag k="name:no" v="Suodnjomyran" />
		<tag k="name:se" v="Suotnjojeaggi" />
		<tag k="natural" v="wetland" />
		<tag k="ssr:stedsnr" v="418437" />
	</node>
	<node lat="69.49686666658538" lon="18.820119427260416" id="-57569">
		<tag k="name" v="Fjellmyran" />
		<tag k="natural" v="wetland" />
		<tag k="ssr:stedsnr" v="418305" />
	</node>
	<node lat="69.68795555517298" lon="18.794505537024737" id="-57641">
		<tag k="name" v="Storelvmyra" />
		<tag k="natural" v="wetland" />
		<tag k="ssr:stedsnr" v="468879" />
	</node>
	<node lat="69.77701666536589" lon="19.719552760649922" id="-57682">
		<tag k="name" v="Kjerringa" />
		<tag k="natural" v="stone" />
		<tag k="ssr:stedsnr" v="477741" />
	</node>
	<node lat="69.573983332181" lon="19.264058318593396" id="-57685">
		<tag k="name" v="Knutsenskogen" />
		<tag k="place" v="locality" />
		<tag k="ssr:stedsnr" v="477677" />
	</node>
	<node lat="69.56522222212146" lon="19.54551109578674" id="-57687">
		<tag k="name" v="Namdalmyren" />
		<tag k="natural" v="wetland" />
		<tag k="ssr:stedsnr" v="477802" />
	</node>
	<node lat="69.57428610964767" lon="19.56564442450249" id="-57688">
		<tag k="name" v="Storura" />
		<tag k="natural" v="scree" />
		<tag k="ssr:stedsnr" v="477804" />
	</node>
	<node lat="69.47656388536531" lon="18.889561114197335" id="-57690">
		<tag k="name" v="Sandbakkmyran" />
		<tag k="natural" v="wetland" />
		<tag k="ssr:stedsnr" v="478110" />
	</node>
	<node lat="69.56009722243368" lon="18.828016667150393" id="-57695">
		<tag k="name" v="Oddemyran" />
		<tag k="natural" v="wetland" />
		<tag k="ssr:stedsnr" v="478309" />
	</node>
	<node lat="69.55224166382934" lon="18.231533319271772" id="-57707">
		<tag k="name" v="Reinkalvsteinen" />
		<tag k="natural" v="stone" />
		<tag k="ssr:stedsnr" v="478666" />
	</node>
	<node lat="69.68373888775727" lon="18.769611094312594" id="-57823">
		<tag k="name" v="Mikkelmyra" />
		<tag k="natural" v="wetland" />
		<tag k="ssr:stedsnr" v="529926" />
	</node>
	<node lat="70.00395000359653" lon="18.700844451599526" id="-57898">
		<tag k="name" v="Langmyra" />
		<tag k="natural" v="wetland" />
		<tag k="ssr:stedsnr" v="535476" />
	</node>
	<node lat="69.50376388621923" lon="19.249830541280975" id="-57925">
		<tag k="name" v="Gorrdiken" />
		<tag k="natural" v="wetland" />
		<tag k="ssr:stedsnr" v="538668" />
	</node>
	<node lat="69.58748888482786" lon="19.94689721324397" id="-57941">
		<tag k="name" v="Innersteinen" />
		<tag k="natural" v="stone" />
		<tag k="ssr:stedsnr" v="539109" />
	</node>
	<node lat="69.79420000394641" lon="19.73026386849851" id="-58009">
		<tag k="name" v="Skredsteinen" />
		<tag k="natural" v="stone" />
		<tag k="ssr:stedsnr" v="687676" />
	</node>
	<node lat="69.39448889203163" lon="19.879197219253435" id="-58034">
		<tag k="name" v="Steindalsbreen" />
		<tag k="natural" v="glacier" />
		<tag k="ssr:stedsnr" v="564503" />
	</node>
	<node lat="69.50361389330509" lon="19.016291649251148" id="-58114">
		<tag k="name" v="Stormyra" />
		<tag k="natural" v="wetland" />
		<tag k="ssr:stedsnr" v="598206" />
	</node>
	<node lat="69.8007249976465" lon="19.543872223329508" id="-58123">
		<tag k="name" v="Snarbyøra" />
		<tag k="place" v="locality" />
		<tag k="ssr:stedsnr" v="599015" />
	</node>
	<node lat="69.59839167135874" lon="19.303055539124085" id="-58144">
		<tag k="name" v="Stormelen" />
		<tag k="place" v="locality" />
		<tag k="ssr:stedsnr" v="599600" />
	</node>
	<node lat="69.60568611477386" lon="19.3115805537931" id="-58147">
		<tag k="name" v="Storsandmelen" />
		<tag k="place" v="locality" />
		<tag k="ssr:stedsnr" v="599649" />
	</node>
	<node lat="69.60575555880594" lon="19.71549443046201" id="-58218">
		<tag k="name" v="Melen - Mielli" />
		<tag k="name:no" v="Melen" />
		<tag k="name:se" v="Mielli" />
		<tag k="place" v="locality" />
		<tag k="ssr:stedsnr" v="633037" />
	</node>
	<node lat="69.7895750046761" lon="19.10682220629479" id="-58244">
		<tag k="name" v="Stormyra" />
		<tag k="natural" v="wetland" />
		<tag k="ssr:stedsnr" v="655185" />
	</node>
	<node lat="69.9661833345134" lon="18.531449990084113" id="-58250">
		<tag k="name" v="Melkerplassen" />
		<tag k="place" v="locality" />
		<tag k="ssr:stedsnr" v="656215" />
	</node>
	<node lat="69.9930916668223" lon="18.51115277389139" id="-58251">
		<tag k="name" v="Mellomjorda" />
		<tag k="place" v="locality" />
		<tag k="ssr:stedsnr" v="656220" />
	</node>
	<node lat="69.4830583298614" lon="19.722077772210195" id="-58265">
		<tag k="name" v="Finnkjerka" />
		<tag k="natural" v="stone" />
		<tag k="ssr:stedsnr" v="659308" />
	</node>
	<node lat="69.76481389162514" lon="19.69681665414688" id="-58267">
		<tag k="name" v="Storskreda" />
		<tag k="natural" v="scree" />
		<tag k="place" v="locality" />
		<tag k="ssr:stedsnr" v="659540" />
	</node>
	<node lat="69.58969444686366" lon="19.27801943283315" id="-58268">
		<tag k="name" v="Skjelldalmyra" />
		<tag k="natural" v="wetland" />
		<tag k="ssr:stedsnr" v="659591" />
	</node>
	<node lat="69.36169166799746" lon="19.634674981891276" id="-58273">
		<tag k="name" v="Forramomyren" />
		<tag k="natural" v="wetland" />
		<tag k="ssr:stedsnr" v="660038" />
	</node>
	<node lat="69.5778888898023" lon="18.3030472274296" id="-58301">
		<tag k="name" v="Fjellsteinen" />
		<tag k="natural" v="stone" />
		<tag k="ssr:stedsnr" v="660648" />
	</node>
	<node lat="69.48342221894202" lon="19.19871666601533" id="-58322">
		<tag k="name" v="Doaresjietnja" />
		<tag k="name:se" v="Doaresjietnja" />
		<tag k="place" v="locality" />
		<tag k="ssr:stedsnr" v="890054" />
	</node>
	<node lat="69.99398611428472" lon="18.511702778126896" id="-58425">
		<tag k="name" v="Kirkevollen" />
		<tag k="place" v="locality" />
		<tag k="ssr:stedsnr" v="717238" />
	</node>
	<node lat="69.47617777554792" lon="18.90719164775528" id="-58494">
		<tag k="name" v="Sandbakkøyra" />
		<tag k="place" v="locality" />
		<tag k="ssr:stedsnr" v="721108" />
	</node>
	<node lat="69.79203888593509" lon="19.50793886571594" id="-58542">
		<tag k="name" v="Slåtten" />
		<tag k="place" v="locality" />
		<tag k="ssr:stedsnr" v="903228" />
	</node>
	<node lat="69.5355472209584" lon="18.78573888364563" id="-58556">
		<tag k="name" v="Kjørveimyra" />
		<tag k="natural" v="wetland" />
		<tag k="ssr:stedsnr" v="903364" />
	</node>
	<node lat="69.38252222622191" lon="19.60034444381506" id="-58568">
		<tag k="name" v="Lamoskreda" />
		<tag k="natural" v="scree" />
		<tag k="place" v="locality" />
		<tag k="ssr:stedsnr" v="903417" />
	</node>
	<node lat="69.68807222256173" lon="18.783674988232658" id="-58653">
		<tag k="name" v="Langmyra" />
		<tag k="natural" v="wetland" />
		<tag k="ssr:stedsnr" v="771913" />
	</node>
	<node lat="69.86611111464737" lon="18.93221388735413" id="-58675">
		<tag k="name" v="Melen" />
		<tag k="place" v="locality" />
		<tag k="ssr:stedsnr" v="778208" />
	</node>
	<node lat="69.3626499988092" lon="19.663247221806845" id="-58679">
		<tag k="name" v="Skreda" />
		<tag k="natural" v="scree" />
		<tag k="place" v="locality" />
		<tag k="ssr:stedsnr" v="781104" />
	</node>
	<node lat="69.53018888768376" lon="18.318833317825703" id="-58713">
		<tag k="name" v="Storøra" />
		<tag k="place" v="locality" />
		<tag k="ssr:stedsnr" v="782648" />
	</node>
	<node lat="69.57918889085063" lon="18.280883337016594" id="-58719">
		<tag k="name" v="Labakkmyra" />
		<tag k="natural" v="wetland" />
		<tag k="ssr:stedsnr" v="782999" />
	</node>
	<node lat="69.99151666846255" lon="18.509558327353528" id="-58773">
		<tag k="name" v="Sørjorda" />
		<tag k="place" v="locality" />
		<tag k="ssr:stedsnr" v="839243" />
	</node>
	<node lat="69.56055278124072" lon="19.186941656048692" id="-58787">
		<tag k="name" v="Holandskogen" />
		<tag k="place" v="locality" />
		<tag k="ssr:stedsnr" v="842310" />
	</node>
	<node lat="69.7680222235666" lon="19.221894430567026" id="-58797">
		<tag k="name" v="Bertelsteinen" />
		<tag k="natural" v="stone" />
		<tag k="ssr:stedsnr" v="842708" />
	</node>
	<node lat="69.4574194438559" lon="19.244641658730337" id="-58798">
		<tag k="name" v="Reinsvollskreda" />
		<tag k="natural" v="scree" />
		<tag k="place" v="locality" />
		<tag k="ssr:stedsnr" v="842495" />
	</node>
	<node lat="69.53415555179578" lon="18.21107220950699" id="-58824">
		<tag k="name" v="Reinholtan" />
		<tag k="place" v="locality" />
		<tag k="ssr:stedsnr" v="843690" />
	</node>
	<node lat="69.59293333614663" lon="18.059600000591722" id="-58908">
		<tag k="name" v="Borghildmyran" />
		<tag k="natural" v="wetland" />
		<tag k="ssr:stedsnr" v="929486" />
	</node>
	<node lat="69.70467777538383" lon="19.671755554286367" id="-59006">
		<tag k="name" v="Jekteseglet - Jávttaborjjas" />
		<tag k="name:no" v="Jekteseglet" />
		<tag k="name:se" v="Jávttaborjjas" />
		<tag k="natural" v="stone" />
		<tag k="ssr:stedsnr" v="935217" />
	</node>
	<node lat="69.57163055218605" lon="19.255466648340754" id="-59064">
		<tag k="name" v="Bjørnskarmyran" />
		<tag k="natural" v="wetland" />
		<tag k="ssr:stedsnr" v="903633" />
	</node>
	<node lat="69.56063611028337" lon="19.279388886988045" id="-59065">
		<tag k="name" v="Stillmyran" />
		<tag k="natural" v="wetland" />
		<tag k="ssr:stedsnr" v="903636" />
	</node>
	<node lat="69.68981666689132" lon="18.607119428574304" id="-59117">
		<tag k="name" v="Elvøyra" />
		<tag k="place" v="locality" />
		<tag k="ssr:stedsnr" v="929716" />
	</node>
	<node lat="69.73650833093261" lon="18.97990554491155" id="-59152">
		<tag k="name" v="Lomvassmyra" />
		<tag k="natural" v="wetland" />
		<tag k="ssr:stedsnr" v="958337" />
	</node>
	<node lat="69.73558333540923" lon="19.124025000571397" id="-59172">
		<tag k="name" v="Dotten" />
		<tag k="place" v="locality" />
		<tag k="ssr:stedsnr" v="963309" />
	</node>
	<node lat="69.40248333711753" lon="19.531002771614123" id="-59194">
		<tag k="name" v="Leirmyra" />
		<tag k="natural" v="wetland" />
		<tag k="ssr:stedsnr" v="963939" />
	</node>
	<node lat="69.7239750042724" lon="18.322186096539422" id="-59228">
		<tag k="name" v="Brosmora" />
		<tag k="natural" v="scree" />
		<tag k="ssr:stedsnr" v="970663" />
	</node>
	<node lat="69.52500000067086" lon="19.85026109945697" id="-59315">
		<tag k="name" v="Fornesbreen" />
		<tag k="natural" v="glacier" />
		<tag k="ssr:stedsnr" v="18913" />
	</node>
	<node lat="69.81387777801415" lon="18.801869435858976" id="-59318">
		<tag k="alt_name" v="Kalvåsmyra" />
		<tag k="name" v="Kalvåsmyran" />
		<tag k="natural" v="wetland" />
		<tag k="ssr:stedsnr" v="18929" />
	</node>
	<node lat="69.73484166349989" lon="19.110036094109844" id="-59464">
		<tag k="name" v="Blautmyra" />
		<tag k="natural" v="wetland" />
		<tag k="ssr:stedsnr" v="53293" />
	</node>
	<node lat="69.73316389269368" lon="19.212505561455114" id="-59490">
		<tag k="name" v="Grasbakkmyra" />
		<tag k="natural" v="wetland" />
		<tag k="ssr:stedsnr" v="53762" />
	</node>
	<node lat="69.46140891611736" lon="19.792640061417835" id="-59563">
		<tag k="name" v="Blåisen" />
		<tag k="natural" v="glacier" />
		<tag k="ssr:stedsnr" v="79109" />
	</node>
	<node lat="69.58896111272375" lon="18.04724444215233" id="-59614">
		<tag k="alt_name" v="Brennsholmmyran" />
		<tag k="name" v="Brensholmmyran" />
		<tag k="natural" v="wetland" />
		<tag k="ssr:stedsnr" v="79487" />
	</node>
	<node lat="69.57235833642788" lon="18.035041655018563" id="-59620">
		<tag k="name" v="Vettmarka" />
		<tag k="place" v="locality" />
		<tag k="ssr:stedsnr" v="79573" />
	</node>
	<node lat="69.56301666783936" lon="19.650974981286677" id="-59721">
		<tag k="name" v="Storsteinen" />
		<tag k="natural" v="stone" />
		<tag k="ssr:stedsnr" v="108589" />
	</node>
	<node lat="69.97423333628542" lon="18.94339998292647" id="-59738">
		<tag k="name" v="Nordkjosvasskogen" />
		<tag k="place" v="locality" />
		<tag k="ssr:stedsnr" v="110147" />
	</node>
	<node lat="69.89224721966885" lon="18.8545888785929" id="-59755">
		<tag k="name" v="Storbakkmyra" />
		<tag k="natural" v="wetland" />
		<tag k="ssr:stedsnr" v="110485" />
	</node>
	<node lat="69.77995277888743" lon="18.777088876279226" id="-59767">
		<tag k="name" v="Petterholla" />
		<tag k="natural" v="wetland" />
		<tag k="ssr:stedsnr" v="110452" />
	</node>
	<node lat="69.5631999981629" lon="18.94832222340095" id="-59771">
		<tag k="name" v="Stormyra" />
		<tag k="natural" v="wetland" />
		<tag k="ssr:stedsnr" v="113422" />
	</node>
	<node lat="69.54949722396749" lon="18.56422498619515" id="-59779">
		<tag k="name" v="Skognesøyra" />
		<tag k="place" v="locality" />
		<tag k="ssr:stedsnr" v="114145" />
	</node>
	<node lat="69.7808472217422" lon="19.721836109121167" id="-59786">
		<tag k="name" v="Nakkøra" />
		<tag k="place" v="locality" />
		<tag k="ssr:stedsnr" v="114210" />
	</node>
	<node lat="69.42211111562362" lon="19.676433316777906" id="-59790">
		<tag k="name" v="Heasttarohtu" />
		<tag k="name:se" v="Heasttarohtu" />
		<tag k="place" v="locality" />
		<tag k="ssr:stedsnr" v="114281" />
	</node>
	<node lat="69.61930555599669" lon="19.3970805424151" id="-59807">
		<tag k="name" v="Holmboemyren" />
		<tag k="natural" v="wetland" />
		<tag k="ssr:stedsnr" v="114651" />
	</node>
	<node lat="69.78818333278267" lon="19.512233329133423" id="-59815">
		<tag k="name" v="Skarvatnet" />
		<tag k="natural" v="wetland" />
		<tag k="ssr:stedsnr" v="114247" />
	</node>
	<node lat="69.39896388773667" lon="19.62614997960324" id="-59824">
		<tag k="name" v="Várášmyra - Várášjeaggi" />
		<tag k="name:no" v="Várášmyra" />
		<tag k="name:se" v="Várášjeaggi" />
		<tag k="natural" v="wetland" />
		<tag k="ssr:stedsnr" v="114442" />
	</node>
	<node lat="69.4336499989153" lon="19.610158311849382" id="-59833">
		<tag k="loc_name:se" v="Reašši" />
		<tag k="name" v="Jonasleira" />
		<tag k="name:no" v="Jonasleira" />
		<tag k="place" v="locality" />
		<tag k="ssr:stedsnr" v="114494" />
	</node>
	<node lat="69.48392500318816" lon="19.236283324403292" id="-59836">
		<tag k="name" v="Hundsteinen" />
		<tag k="natural" v="stone" />
		<tag k="ssr:stedsnr" v="114507" />
	</node>
	<node lat="69.81504722635057" lon="19.655661106950973" id="-59839">
		<tag k="name" v="Magasinsteinen" />
		<tag k="natural" v="stone" />
		<tag k="ssr:stedsnr" v="114535" />
	</node>
	<node lat="69.77457500259091" lon="19.714100001669077" id="-59843">
		<tag k="name" v="Trautnesskogen" />
		<tag k="place" v="locality" />
		<tag k="ssr:stedsnr" v="114736" />
	</node>
	<node lat="69.50307777593467" lon="18.824580557072082" id="-59856">
		<tag k="name" v="Blomskogen" />
		<tag k="place" v="locality" />
		<tag k="ssr:stedsnr" v="115332" />
	</node>
	<node lat="69.603924996764" lon="18.816991650054224" id="-59858">
		<tag k="name" v="Banmyra" />
		<tag k="natural" v="wetland" />
		<tag k="ssr:stedsnr" v="115359" />
	</node>
	<node lat="69.54747500197735" lon="18.238799997360644" id="-59935">
		<tag k="name" v="Stormyra" />
		<tag k="natural" v="wetland" />
		<tag k="ssr:stedsnr" v="139569" />
	</node>
	<node lat="69.71945723318467" lon="18.909500765824923" id="-60020">
		<tag k="name" v="Langmyra" />
		<tag k="natural" v="wetland" />
		<tag k="ssr:stedsnr" v="158546" />
	</node>
	<node lat="69.50327500238494" lon="19.723302761936882" id="-60036">
		<tag k="name" v="Torvemyra" />
		<tag k="natural" v="wetland" />
		<tag k="ssr:stedsnr" v="168497" />
	</node>
	<node lat="69.78259999858498" lon="18.752447224120072" id="-60067">
		<tag k="name" v="Olajordet" />
		<tag k="place" v="locality" />
		<tag k="ssr:stedsnr" v="171431" />
	</node>
	<node lat="69.58968610964675" lon="18.960630554687295" id="-60078">
		<tag k="name" v="Skredan" />
		<tag k="natural" v="scree" />
		<tag k="place" v="locality" />
		<tag k="ssr:stedsnr" v="174073" />
	</node>
	<node lat="69.34536667097343" lon="19.626966661980724" id="-60079">
		<tag k="name" v="Trollskogen - Ruollameahcci" />
		<tag k="name:no" v="Trollskogen" />
		<tag k="name:se" v="Ruollameahcci" />
		<tag k="place" v="locality" />
		<tag k="ssr:stedsnr" v="174087" />
	</node>
	<node lat="69.77222499909077" lon="19.250238891208003" id="-60099">
		<tag k="name" v="Vågneskjerringa" />
		<tag k="natural" v="stone" />
		<tag k="ssr:stedsnr" v="174569" />
	</node>
	<node lat="69.78136389279072" lon="19.70684165744607" id="-60114">
		<tag k="name" v="Ragnerura" />
		<tag k="natural" v="scree" />
		<tag k="ssr:stedsnr" v="174746" />
	</node>
	<node lat="69.50604167031481" lon="18.79334722504276" id="-60140">
		<tag k="name" v="Bjørnuren" />
		<tag k="natural" v="scree" />
		<tag k="ssr:stedsnr" v="175284" />
	</node>
	<node lat="69.577224997162" lon="18.277508339670977" id="-60158">
		<tag k="name" v="Nerslåttet" />
		<tag k="natural" v="wetland" />
		<tag k="ssr:stedsnr" v="175634" />
	</node>
	<node lat="69.51332499648177" lon="19.92427499115916" id="-60234">
		<tag k="name" v="Rypdalsbreen" />
		<tag k="natural" v="glacier" />
		<tag k="ssr:stedsnr" v="200873" />
	</node>
	<node lat="69.4959361116508" lon="19.452202757320013" id="-60247">
		<tag k="name" v="Blåisen - Olmmáijietnja" />
		<tag k="name:no" v="Blåisen" />
		<tag k="name:se" v="Olmmáijietnja" />
		<tag k="natural" v="glacier" />
		<tag k="ssr:stedsnr" v="201077" />
	</node>
	<node lat="70.00272222233416" lon="18.678799990174486" id="-60317">
		<tag k="alt_name" v="Storvoll" />
		<tag k="name" v="Storvollen" />
		<tag k="place" v="locality" />
		<tag k="ssr:stedsnr" v="227404" />
	</node>
	<node lat="69.67381111334353" lon="19.655961107043797" id="-60329">
		<tag k="name" v="Snybelen - Snuibal" />
		<tag k="name:no" v="Snybelen" />
		<tag k="name:se" v="Snuibal" />
		<tag k="natural" v="scree" />
		<tag k="ssr:stedsnr" v="284665" />
	</node>
	<node lat="69.96586110965248" lon="18.914705550709886" id="-60363">
		<tag k="name" v="Myra" />
		<tag k="natural" v="wetland" />
		<tag k="ssr:stedsnr" v="292148" />
	</node>
	<node lat="69.45435555752297" lon="19.71824442438885" id="-60388">
		<tag k="name" v="Trollskreden" />
		<tag k="natural" v="scree" />
		<tag k="place" v="locality" />
		<tag k="ssr:stedsnr" v="295312" />
	</node>
	<node lat="69.47272777981152" lon="19.713899996097105" id="-60391">
		<tag k="name" v="Langmyra" />
		<tag k="natural" v="wetland" />
		<tag k="ssr:stedsnr" v="295320" />
	</node>
	<node lat="69.46403888562685" lon="19.718891643516137" id="-60392">
		<tag k="name" v="Tverrelvmyren" />
		<tag k="natural" v="wetland" />
		<tag k="ssr:stedsnr" v="295321" />
	</node>
	<node lat="69.8004194428985" lon="19.53735277542998" id="-60405">
		<tag k="name" v="Skjelløra" />
		<tag k="place" v="locality" />
		<tag k="ssr:stedsnr" v="296014" />
	</node>
	<node lat="69.79433888954178" lon="19.493661104939836" id="-60406">
		<tag k="name" v="Svarvarøra" />
		<tag k="place" v="locality" />
		<tag k="ssr:stedsnr" v="296016" />
	</node>
	<node lat="69.63338055984961" lon="18.375686098125787" id="-60413">
		<tag k="name" v="Rødsteinen" />
		<tag k="natural" v="stone" />
		<tag k="ssr:stedsnr" v="296042" />
	</node>
	<node lat="69.52666388824782" lon="18.70724720622163" id="-60424">
		<tag k="name" v="Rishaugmyra" />
		<tag k="natural" v="wetland" />
		<tag k="ssr:stedsnr" v="296245" />
	</node>
	<node lat="69.54835833046374" lon="19.083999993189288" id="-60433">
		<tag k="name" v="Sandøyra" />
		<tag k="place" v="locality" />
		<tag k="ssr:stedsnr" v="296299" />
	</node>
	<node lat="69.76252777392146" lon="19.37378610377299" id="-60441">
		<tag k="name" v="Steinslåtten" />
		<tag k="place" v="locality" />
		<tag k="ssr:stedsnr" v="296481" />
	</node>
	<node lat="69.77836111518154" lon="19.382705536863195" id="-60442">
		<tag k="name" v="Elvøra" />
		<tag k="place" v="locality" />
		<tag k="ssr:stedsnr" v="296484" />
	</node>
	<node lat="69.60236388824231" lon="18.046436116102196" id="-60452">
		<tag k="name" v="Valmyra" />
		<tag k="natural" v="wetland" />
		<tag k="ssr:stedsnr" v="296589" />
	</node>
	<node lat="69.58132499706704" lon="18.301636112225435" id="-60470">
		<tag k="name" v="Geitsteinen" />
		<tag k="natural" v="stone" />
		<tag k="ssr:stedsnr" v="296998" />
	</node>
	<node lat="69.49829721895388" lon="19.03628887086455" id="-60492">
		<tag k="landuse" v="meadow" />
		<tag k="name" v="Fjellfinnheimen" />
		<tag k="old_name" v="Myreng" />
		<tag k="ssr:stedsnr" v="321838" />
	</node>
	<node lat="69.42511111509954" lon="19.385897226705957" id="-60544">
		<tag k="loc_name:se" v="Durejohjiehkki" />
		<tag k="name" v="Gjømmerdalsbreen" />
		<tag k="name:no" v="Gjømmerdalsbreen" />
		<tag k="natural" v="glacier" />
		<tag k="ssr:stedsnr" v="322221" />
	</node>
	<node lat="69.78997221972455" lon="18.14625832126346" id="-60631">
		<tag k="name" v="Brosmora" />
		<tag k="natural" v="scree" />
		<tag k="ssr:stedsnr" v="343742" />
	</node>
	<node lat="69.76825833036666" lon="18.82581388679706" id="-60667">
		<tag k="name" v="Per-Prost-heimen" />
		<tag k="place" v="locality" />
		<tag k="ssr:stedsnr" v="353424" />
	</node>
	<node lat="69.77539721897648" lon="18.821938881254617" id="-60668">
		<tag k="name" v="Skjelhollet" />
		<tag k="place" v="locality" />
		<tag k="ssr:stedsnr" v="353426" />
	</node>
	<node lat="69.74210277920628" lon="18.971627778374735" id="-60669">
		<tag k="name" v="Storskogen" />
		<tag k="place" v="locality" />
		<tag k="ssr:stedsnr" v="353434" />
	</node>
	<node lat="69.9575916683755" lon="18.869494432556642" id="-60673">
		<tag k="name" v="Roparsteinen" />
		<tag k="natural" v="stone" />
		<tag k="ssr:stedsnr" v="353499" />
	</node>
	<node lat="69.47915277436158" lon="19.734863874043217" id="-60696">
		<tag k="name" v="Gammelura" />
		<tag k="natural" v="scree" />
		<tag k="ssr:stedsnr" v="356290" />
	</node>
	<node lat="69.616088888041" lon="19.352752765303844" id="-60713">
		<tag k="name" v="Larsmyra" />
		<tag k="natural" v="wetland" />
		<tag k="ssr:stedsnr" v="356627" />
	</node>
	<node lat="69.60388056004062" lon="19.28649443813207" id="-60716">
		<tag k="name" v="Karlmyra" />
		<tag k="natural" v="wetland" />
		<tag k="ssr:stedsnr" v="356645" />
	</node>
	<node lat="69.6313138903511" lon="19.40155831685133" id="-60720">
		<tag k="name" v="Skansmyra" />
		<tag k="natural" v="wetland" />
		<tag k="ssr:stedsnr" v="356569" />
	</node>
	<node lat="69.51562777577242" lon="19.266611091055335" id="-60726">
		<tag k="name" v="Stormyra" />
		<tag k="natural" v="wetland" />
		<tag k="ssr:stedsnr" v="356677" />
	</node>
	<node lat="69.59800555293852" lon="19.704238877994403" id="-60729">
		<tag k="name" v="Bønnesteinen" />
		<tag k="natural" v="stone" />
		<tag k="ssr:stedsnr" v="356693" />
	</node>
</osm>
