<?xml version="1.0" encoding="UTF-8"?>
<osm version="0.6" generator="osmapis">
	<node lat="69.82121388720981" lon="19.0223555595909" id="-55612">
		<tag k="name" v="Solvang" />
		<tag k="place" v="isolated_dwelling" />
		<tag k="ssr:stedsnr" v="231331" />
	</node>
	<node lat="69.51061666979449" lon="18.868175006333452" id="-55629">
		<tag k="name" v="Kuvika" />
		<tag k="place" v="farm" />
		<tag k="ssr:stedsnr" v="18282" />
	</node>
	<node lat="69.65125800135932" lon="18.809716453982382" id="-55630">
		<tag k="alt_name" v="Håkøy" />
		<tag k="fixme" v="consider place=hamlet" />
		<tag k="name" v="Håkøya" />
		<tag k="place" v="farm" />
		<tag k="ssr:stedsnr" v="18285" />
	</node>
	<node lat="69.64362038260285" lon="19.53013987198919" id="-55634">
		<tag k="name" v="Nygard" />
		<tag k="place" v="farm" />
		<tag k="ssr:stedsnr" v="18147" />
	</node>
	<node lat="69.53601110843071" lon="18.374916650162728" id="-55635">
		<tag k="name" v="Skoglund" />
		<tag k="place" v="isolated_dwelling" />
		<tag k="ssr:stedsnr" v="18399" />
	</node>
	<node lat="69.69427777743007" lon="18.620549993420724" id="-55643">
		<tag k="fixme" v="consider place=hamlet" />
		<tag k="name" v="Ersfjordbotn" />
		<tag k="old_name" v="Ersfjord" />
		<tag k="place" v="village" />
		<tag k="ssr:stedsnr" v="18652" />
	</node>
	<node lat="69.57190277696886" lon="19.219838869684423" id="-55655">
		<tag k="name" v="Fuglemo" />
		<tag k="place" v="farm" />
		<tag k="ssr:stedsnr" v="19153" />
	</node>
	<node lat="69.68402499844589" lon="18.654280543598073" id="-55667">
		<tag k="name" v="Henrikvik" />
		<tag k="place" v="farm" />
		<tag k="ssr:stedsnr" v="19409" />
	</node>
	<node lat="69.37905833785561" lon="19.6338805355775" id="-55668">
		<tag k="alt_name" v="Jupen" />
		<tag k="name" v="Djupen" />
		<tag k="place" v="farm" />
		<tag k="ssr:stedsnr" v="19192" />
	</node>
	<node lat="69.69093610986165" lon="18.709949997930323" id="-55669">
		<tag k="name" v="Sinkaren" />
		<tag k="place" v="farm" />
		<tag k="ssr:stedsnr" v="19391" />
	</node>
	<node lat="69.80243332949483" lon="19.730338884695335" id="-55672">
		<tag k="loc_name:se" v="Skáideváhki" />
		<tag k="name" v="Skeivåg" />
		<tag k="name:no" v="Skeivåg" />
		<tag k="place" v="farm" />
		<tag k="ssr:stedsnr" v="19642" />
	</node>
	<node lat="69.62056111389879" lon="18.94362778519949" id="-55683">
		<tag k="name" v="Hansvoll" />
		<tag k="place" v="locality" />
		<tag k="ssr:stedsnr" v="25372" />
	</node>
	<node lat="69.53384748266005" lon="18.997906419090963" id="-55684">
		<tag k="name" v="Ramfjordnes" />
		<tag k="place" v="farm" />
		<tag k="ssr:stedsnr" v="234221" />
	</node>
	<node lat="69.6152305535017" lon="19.590755550076064" id="-55696">
		<tag k="name" v="Estengammen" />
		<tag k="place" v="locality" />
		<tag k="ssr:stedsnr" v="235370" />
	</node>
	<node lat="69.60608055540126" lon="19.305144436463088" id="-55712">
		<tag k="name" v="Heim" />
		<tag k="place" v="farm" />
		<tag k="ssr:stedsnr" v="235676" />
	</node>
	<node lat="69.6519972258633" lon="19.014594427411733" id="-55719">
		<tag k="amenity" v="school" />
		<tag k="name" v="Tromsdalen videregående skole" />
		<tag k="ssr:stedsnr" v="235821" />
	</node>
	<node lat="69.59368889194552" lon="18.630099992040165" id="-55733">
		<tag k="name" v="Steinhytta" />
		<tag k="place" v="isolated_dwelling" />
		<tag k="ssr:stedsnr" v="236216" />
	</node>
	<node lat="69.68602777728285" lon="18.680738881389416" id="-55737">
		<tag k="name" v="Steinheim" />
		<tag k="place" v="farm" />
		<tag k="ssr:stedsnr" v="236254" />
	</node>
	<node lat="69.57308888788299" lon="18.77724721617999" id="-55739">
		<tag k="name" v="Paulseng" />
		<tag k="place" v="farm" />
		<tag k="ssr:stedsnr" v="236301" />
	</node>
	<node lat="69.71517778197293" lon="19.09356387978856" id="-55759">
		<tag k="name" v="Myrvoll" />
		<tag k="place" v="farm" />
		<tag k="ssr:stedsnr" v="40066" />
	</node>
	<node lat="69.60117777385359" lon="19.86258332632043" id="-55817">
		<tag k="name" v="Vindnes" />
		<tag k="place" v="farm" />
		<tag k="ssr:stedsnr" v="54208" />
	</node>
	<node lat="69.68751111521239" lon="18.859733318212438" id="-55832">
		<tag k="fixme" v="consider place=hamlet" />
		<tag k="name" v="Selnes - Sálljnjárga" />
		<tag k="name:no" v="Selnes" />
		<tag k="name:se" v="Sálljnjárga" />
		<tag k="place" v="farm" />
		<tag k="ssr:stedsnr" v="57024" />
	</node>
	<node lat="69.49578611086844" lon="18.829666656183846" id="-55843">
		<tag k="name" v="Midtre Kobbevågen" />
		<tag k="place" v="farm" />
		<tag k="ssr:stedsnr" v="242906" />
	</node>
	<node lat="69.48324722210154" lon="18.886430548050654" id="-55844">
		<tag k="name" v="Kobbevågneset" />
		<tag k="place" v="farm" />
		<tag k="ssr:stedsnr" v="242933" />
	</node>
	<node lat="69.44751666981168" lon="19.594236103186166" id="-55846">
		<tag k="name" v="Brennesodden" />
		<tag k="old_name" v="Bremnesodden" />
		<tag k="place" v="farm" />
		<tag k="ssr:stedsnr" v="79002" />
	</node>
	<node lat="69.56272411332529" lon="19.677540631503042" id="-55847">
		<tag k="fixme" v="consider place=hamlet" />
		<tag k="name" v="Bergenes" />
		<tag k="place" v="farm" />
		<tag k="ssr:stedsnr" v="79093" />
	</node>
	<node lat="69.65133055751436" lon="19.576816653923423" id="-55849">
		<tag k="name" v="Slettmo" />
		<tag k="old_name" v="Flalmo;Flatmo" />
		<tag k="place" v="farm" />
		<tag k="ssr:stedsnr" v="79211" />
	</node>
	<node lat="69.61587777715012" lon="19.395872219166588" id="-55851">
		<tag k="name" v="Solli" />
		<tag k="place" v="farm" />
		<tag k="ssr:stedsnr" v="79152" />
	</node>
	<node lat="69.65404444923148" lon="18.775508320649738" id="-55856">
		<tag k="name" v="Einåsen" />
		<tag k="place" v="isolated_dwelling" />
		<tag k="ssr:stedsnr" v="79302" />
	</node>
	<node lat="69.53229166493438" lon="18.60162221696645" id="-55861">
		<tag k="name" v="Gamnes" />
		<tag k="place" v="farm" />
		<tag k="ssr:stedsnr" v="79442" />
	</node>
	<node lat="69.60812222129954" lon="18.310666660680855" id="-55866">
		<tag k="name" v="Steinsland" />
		<tag k="place" v="farm" />
		<tag k="ssr:stedsnr" v="79496" />
	</node>
	<node lat="69.77700502989524" lon="18.539769371768944" id="-55883">
		<tag k="alt_name" v="Grøtfjord" />
		<tag k="fixme" v="consider place=hamlet" />
		<tag k="name" v="Grøtfjorden" />
		<tag k="place" v="farm" />
		<tag k="ssr:stedsnr" v="80139" />
	</node>
	<node lat="69.77457777645384" lon="19.30820276388975" id="-55888">
		<tag k="name" v="Solbakken" />
		<tag k="place" v="farm" />
		<tag k="ssr:stedsnr" v="80687" />
	</node>
	<node lat="69.673236150666" lon="18.974179742341796" id="-55893">
		<tag k="name" v="Nordhaug" />
		<tag k="place" v="farm" />
		<tag k="ssr:stedsnr" v="85594" />
	</node>
	<node lat="69.54873611139841" lon="18.5255111095832" id="-55895">
		<tag k="name" v="Bildvik" />
		<tag k="place" v="farm" />
		<tag k="ssr:stedsnr" v="86575" />
	</node>
	<node lat="69.6601361114067" lon="18.968308322183972" id="-55901">
		<tag k="building" v="civic" />
		<tag k="name" v="Troms politidistrikt" />
		<tag k="ssr:stedsnr" v="102213" />
	</node>
	<node lat="69.67444999704385" lon="18.97737222633404" id="-55902">
		<tag k="name" v="Nordheim" />
		<tag k="place" v="quarter" />
		<tag k="ssr:stedsnr" v="102220" />
	</node>
	<node lat="69.95508610818543" lon="18.79083609696248" id="-55906">
		<tag k="name" v="Solvang" />
		<tag k="place" v="farm" />
		<tag k="ssr:stedsnr" v="107573" />
	</node>
	<node lat="69.84357500181763" lon="18.9827666541217" id="-55910">
		<tag k="name" v="Elvejord" />
		<tag k="place" v="farm" />
		<tag k="ssr:stedsnr" v="109133" />
	</node>
	<node lat="69.71213055145056" lon="18.94171666856241" id="-55911">
		<tag k="name" v="Solbakken" />
		<tag k="place" v="farm" />
		<tag k="ssr:stedsnr" v="109322" />
	</node>
	<node lat="69.55314722597123" lon="19.72227497922755" id="-55912">
		<tag k="amenity" v="school" />
		<tag k="name" v="Olderbakken skole" />
		<tag k="ssr:stedsnr" v="109482" />
	</node>
	<node lat="69.66190832897281" lon="18.94119166663674" id="-55926">
		<tag k="amenity" v="university" />
		<tag k="name" v="Nordlysobservatoriet" />
		<tag k="ssr:stedsnr" v="113125" />
	</node>
	<node lat="69.7578750006981" lon="19.19453610460746" id="-55959">
		<tag k="name" v="Mellomås" />
		<tag k="place" v="farm" />
		<tag k="ssr:stedsnr" v="114705" />
	</node>
	<node lat="69.57498888532943" lon="19.75486665950185" id="-55963">
		<tag k="name" v="Olderbakken" />
		<tag k="place" v="farm" />
		<tag k="ssr:stedsnr" v="114610" />
	</node>
	<node lat="69.52466666621399" lon="18.86536666583675" id="-55965">
		<tag k="name" v="Myrvold" />
		<tag k="place" v="farm" />
		<tag k="ssr:stedsnr" v="114620" />
	</node>
	<node lat="69.55620278116288" lon="18.197797207669094" id="-55967">
		<tag k="name" v="Gammen" />
		<tag k="place" v="locality" />
		<tag k="ssr:stedsnr" v="114675" />
	</node>
	<node lat="69.68399722349972" lon="18.80475277649595" id="-55975">
		<tag k="name" v="Nymoen" />
		<tag k="place" v="farm" />
		<tag k="ssr:stedsnr" v="117029" />
	</node>
	<node lat="69.63293889278597" lon="19.42263055207673" id="-55982">
		<tag k="name" v="Bakkelund" />
		<tag k="place" v="farm" />
		<tag k="ssr:stedsnr" v="139149" />
	</node>
	<node lat="69.38922500381025" lon="19.4657749943493" id="-55984">
		<tag k="name" v="Bjørkås" />
		<tag k="place" v="farm" />
		<tag k="ssr:stedsnr" v="139191" />
	</node>
	<node lat="69.39651546564548" lon="19.485415121937876" id="-55985">
		<tag k="alt_name:no" v="Nordstraum;Nordstrømmen" />
		<tag k="fixme" v="consider place=hamlet" />
		<tag k="loc_name:se" v="Nuorttašbealrávdnji" />
		<tag k="name" v="Nordstraumen" />
		<tag k="name:no" v="Nordstraumen" />
		<tag k="place" v="farm" />
		<tag k="ssr:stedsnr" v="139200" />
	</node>
	<node lat="69.39629186708034" lon="19.470318207605093" id="-55990">
		<tag k="fixme" v="consider place=hamlet" />
		<tag k="loc_name:se" v="Stuorageargenjárga" />
		<tag k="name" v="Storsteinnes" />
		<tag k="name:no" v="Storsteinnes" />
		<tag k="place" v="farm" />
		<tag k="ssr:stedsnr" v="139202" />
	</node>
	<node lat="69.4451194482416" lon="19.65089720211384" id="-55992">
		<tag k="alt_name:no" v="Stakkevold" />
		<tag k="loc_name:se" v="Stáhkkágieddi" />
		<tag k="name" v="Stakkvoll" />
		<tag k="name:no" v="Stakkvoll" />
		<tag k="place" v="farm" />
		<tag k="ssr:stedsnr" v="139240" />
	</node>
	<node lat="69.43479999985841" lon="19.64524999560506" id="-55993">
		<tag k="name" v="Naustvoll" />
		<tag k="place" v="locality" />
		<tag k="ssr:stedsnr" v="139245" />
	</node>
	<node lat="69.54942222495859" lon="19.028952763259785" id="-55994">
		<tag k="fixme" v="consider place=hamlet" />
		<tag k="name" v="Hundbergan - Čuoikavárri" />
		<tag k="name:no" v="Hundbergan" />
		<tag k="name:se" v="Čuoikavárri" />
		<tag k="place" v="village" />
		<tag k="ssr:stedsnr" v="139296" />
	</node>
	<node lat="69.54146199782583" lon="19.174518703116583" id="-55995">
		<tag k="alt_name" v="Mellomjord" />
		<tag k="fixme" v="consider place=hamlet" />
		<tag k="loc_name" v="Mellajorda;Mellajord" />
		<tag k="name" v="Mellomjorda" />
		<tag k="place" v="farm" />
		<tag k="ssr:stedsnr" v="139300" />
	</node>
	<node lat="69.62043055768709" lon="18.215738884795666" id="-55996">
		<tag k="name" v="Myreng" />
		<tag k="place" v="farm" />
		<tag k="ssr:stedsnr" v="139552" />
	</node>
	<node lat="69.55832222470382" lon="18.096263881147845" id="-55998">
		<tag k="name" v="Berg" />
		<tag k="place" v="farm" />
		<tag k="ssr:stedsnr" v="139592" />
	</node>
	<node lat="69.87314444643322" lon="18.88846111140336" id="-56001">
		<tag k="name" v="Sandvik" />
		<tag k="place" v="farm" />
		<tag k="ssr:stedsnr" v="139741" />
	</node>
	<node lat="69.74471667135096" lon="19.135697205106947" id="-56003">
		<tag k="landuse" v="military" />
		<tag k="name" v="Grøtsund" />
		<tag k="ssr:stedsnr" v="139497" />
	</node>
	<node lat="69.80179791268375" lon="19.05768395695395" id="-56010">
		<tag k="name" v="Solstad" />
		<tag k="place" v="farm" />
		<tag k="ssr:stedsnr" v="139906" />
	</node>
	<node lat="69.68827777610066" lon="18.761749981032" id="-56033">
		<tag k="name" v="Kjoselv" />
		<tag k="place" v="farm" />
		<tag k="ssr:stedsnr" v="140403" />
	</node>
	<node lat="69.63837499695272" lon="18.404211097807778" id="-56040">
		<tag k="name" v="Liland" />
		<tag k="place" v="isolated_dwelling" />
		<tag k="ssr:stedsnr" v="141390" />
	</node>
	<node lat="69.68092428904404" lon="19.208763366658488" id="-56043">
		<tag k="fixme" v="consider tourism=alpine_hut or tourism=chalet" />
		<tag k="name" v="Blåkollkoia" />
		<tag k="ssr:stedsnr" v="142410" />
		<tag k="tourism" v="wilderness_hut" />
	</node>
	<node lat="69.65318055352655" lon="18.966786099692012" id="-56049">
		<tag k="building" v="industrial" />
		<tag k="industrial" v="factory" />
		<tag k="name" v="Tromsø Skipsverft AS" />
		<tag k="ssr:stedsnr" v="163167" />
	</node>
	<node lat="69.55695833604193" lon="19.668036107256043" id="-56061">
		<tag k="name" v="Bergenes" />
		<tag k="place" v="farm" />
		<tag k="ssr:stedsnr" v="168576" />
	</node>
	<node lat="69.84301666733458" lon="18.577316654398118" id="-56062">
		<tag k="name" v="Sandnes med Puskevik" />
		<tag k="place" v="farm" />
		<tag k="ssr:stedsnr" v="170014" />
	</node>
	<node lat="69.95385555597453" lon="18.723249991878063" id="-56071">
		<tag k="name" v="Brorstad" />
		<tag k="place" v="locality" />
		<tag k="ssr:stedsnr" v="170463" />
	</node>
	<node lat="69.96770555621144" lon="18.868199985767284" id="-56087">
		<tag k="name" v="Myrvoll" />
		<tag k="place" v="farm" />
		<tag k="ssr:stedsnr" v="171367" />
	</node>
	<node lat="69.49993888919532" lon="19.71254999750638" id="-56092">
		<tag k="alt_name" v="Holmbukta, yt;Ytre Holmebukt" />
		<tag k="fixme" v="multiple name tags, choose one and add the other to alt_name" />
		<tag k="name" v="Holmebukt;Ytre Holmbukta" />
		<tag k="place" v="farm" />
		<tag k="ssr:stedsnr" v="261031" />
	</node>
	<node lat="69.49947222258302" lon="19.24700833239608" id="-56094">
		<tag k="name" v="Langmoen" />
		<tag k="place" v="farm" />
		<tag k="ssr:stedsnr" v="261041" />
	</node>
	<node lat="69.52115277414283" lon="19.24878610031517" id="-56101">
		<tag k="name" v="Steinnes" />
		<tag k="place" v="farm" />
		<tag k="ssr:stedsnr" v="261073" />
	</node>
	<node lat="69.56177500067892" lon="19.73358331052898" id="-56102">
		<tag k="name" v="Heggeli" />
		<tag k="place" v="farm" />
		<tag k="ssr:stedsnr" v="261080" />
	</node>
	<node lat="69.5526805543876" lon="19.659280540496248" id="-56105">
		<tag k="name" v="Bergmo" />
		<tag k="place" v="farm" />
		<tag k="ssr:stedsnr" v="261094" />
	</node>
	<node lat="69.6148083348864" lon="19.389852771036214" id="-56109">
		<tag k="alt_name" v="Aspelund" />
		<tag k="name" v="Asplund" />
		<tag k="place" v="farm" />
		<tag k="ssr:stedsnr" v="261131" />
	</node>
	<node lat="69.59949722106639" lon="19.320094443068736" id="-56110">
		<tag k="name" v="Berglund" />
		<tag k="place" v="farm" />
		<tag k="ssr:stedsnr" v="261133" />
	</node>
	<node lat="69.57170833683273" lon="19.74999443872541" id="-56118">
		<tag k="name" v="Olderbakken - Leaibedievvá" />
		<tag k="name:no" v="Olderbakken" />
		<tag k="name:se" v="Leaibedievvá" />
		<tag k="place" v="hamlet" />
		<tag k="ssr:stedsnr" v="261165" />
	</node>
	<node lat="69.5807166628232" lon="19.690463873986417" id="-56119">
		<tag k="name" v="Elvebakken" />
		<tag k="place" v="farm" />
		<tag k="ssr:stedsnr" v="261167" />
	</node>
	<node lat="69.60353182422328" lon="19.81652278092988" id="-56120">
		<tag k="name" v="Jøvik" />
		<tag k="place" v="farm" />
		<tag k="ssr:stedsnr" v="261169" />
	</node>
	<node lat="69.35885555448547" lon="19.617730532301298" id="-56121">
		<tag k="name" v="Lundberg" />
		<tag k="place" v="farm" />
		<tag k="ssr:stedsnr" v="261172" />
	</node>
	<node lat="69.64813611343845" lon="19.57235277212013" id="-56124">
		<tag k="name" v="Nymark" />
		<tag k="place" v="farm" />
		<tag k="ssr:stedsnr" v="261211" />
	</node>
	<node lat="69.3784722261742" lon="19.6165111111782" id="-56127">
		<tag k="alt_name:no" v="Lamo" />
		<tag k="loc_name:se" v="Burnjárga" />
		<tag k="name" v="Lamoen" />
		<tag k="name:no" v="Lamoen" />
		<tag k="place" v="farm" />
		<tag k="ssr:stedsnr" v="261193" />
	</node>
	<node lat="69.35510000431032" lon="19.69190275680838" id="-56132">
		<tag k="name" v="Fjellfinngamplassen" />
		<tag k="place" v="locality" />
		<tag k="ssr:stedsnr" v="174111" />
	</node>
	<node lat="69.6765388891875" lon="18.964833339555533" id="-56133">
		<tag k="amenity" v="school" />
		<tag k="name" v="Grønnåsen skole" />
		<tag k="ssr:stedsnr" v="174140" />
	</node>
	<node lat="69.42086944866463" lon="19.66437498539329" id="-56147">
		<tag k="alt_name" v="Olderbukt" />
		<tag k="name" v="Olderbukta" />
		<tag k="place" v="isolated_dwelling" />
		<tag k="ssr:stedsnr" v="261214" />
	</node>
	<node lat="69.655611107306" lon="19.563227767221427" id="-56148">
		<tag k="name" v="Haugli" />
		<tag k="place" v="farm" />
		<tag k="ssr:stedsnr" v="261218" />
	</node>
	<node lat="69.41084999763024" lon="19.551599987574967" id="-56149">
		<tag k="name" v="Mellemjord" />
		<tag k="place" v="farm" />
		<tag k="ssr:stedsnr" v="261219" />
	</node>
	<node lat="69.43264796159747" lon="19.551668660610158" id="-56168">
		<tag k="alt_name:no" v="Stordal" />
		<tag k="loc_name:se" v="Siskkit Suortu" />
		<tag k="name" v="Stordalen" />
		<tag k="name:no" v="Stordalen" />
		<tag k="place" v="hamlet" />
		<tag k="ssr:stedsnr" v="261235" />
	</node>
	<node lat="69.53406666819147" lon="18.61734721849953" id="-56174">
		<tag k="name" v="Nyborg" />
		<tag k="place" v="farm" />
		<tag k="ssr:stedsnr" v="175170" />
	</node>
	<node lat="69.64834444099111" lon="18.79505553572424" id="-56178">
		<tag k="name" v="Nyrud" />
		<tag k="place" v="farm" />
		<tag k="ssr:stedsnr" v="261334" />
	</node>
	<node lat="69.66381388806141" lon="18.91796388494184" id="-56186">
		<tag k="alt_name" v="Nordrøna;Norrønna" />
		<tag k="name" v="Norrøna" />
		<tag k="place" v="quarter" />
		<tag k="ssr:stedsnr" v="261337" />
	</node>
	<node lat="69.67973055198642" lon="18.775891670975984" id="-56202">
		<tag k="name" v="Midtgard" />
		<tag k="place" v="farm" />
		<tag k="ssr:stedsnr" v="261441" />
	</node>
	<node lat="69.55017978452544" lon="18.54038136222682" id="-56204">
		<tag k="alt_name" v="Storelv" />
		<tag k="fixme" v="consider place=hamlet" />
		<tag k="name" v="Storelva" />
		<tag k="place" v="farm" />
		<tag k="ssr:stedsnr" v="261462" />
	</node>
	<node lat="69.62009444879823" lon="18.208719446219455" id="-56210">
		<tag k="fixme" v="consider place=hamlet" />
		<tag k="name" v="Bogen" />
		<tag k="place" v="village" />
		<tag k="ssr:stedsnr" v="261548" />
	</node>
	<node lat="69.62799444364263" lon="18.344613879995023" id="-56218">
		<tag k="alt_name" v="Lauvdal" />
		<tag k="name" v="Løvdal" />
		<tag k="place" v="farm" />
		<tag k="ssr:stedsnr" v="261539" />
	</node>
	<node lat="69.73516971820007" lon="18.242955867275306" id="-56222">
		<tag k="fixme" v="consider place=hamlet" />
		<tag k="loc_name" v="Sæsøya" />
		<tag k="name" v="Sessøya" />
		<tag k="place" v="farm" />
		<tag k="ssr:stedsnr" v="261652" />
	</node>
	<node lat="69.64813998625915" lon="18.11801121257095" id="-56227">
		<tag k="alt_name" v="Tussøy" />
		<tag k="fixme" v="consider place=hamlet" />
		<tag k="name" v="Tussøya" />
		<tag k="place" v="farm" />
		<tag k="ssr:stedsnr" v="261666" />
	</node>
	<node lat="69.698875053358" lon="18.417541737481812" id="-56237">
		<tag k="alt_name" v="Sandholm" />
		<tag k="name" v="Sandholmen" />
		<tag k="place" v="farm" />
		<tag k="ssr:stedsnr" v="261711" />
	</node>
	<node lat="69.78911473835599" lon="19.092707478907116" id="-56243">
		<tag k="alt_name" v="Skullgammen" />
		<tag k="fixme" v="consider place=hamlet" />
		<tag k="name" v="Skulgammen" />
		<tag k="place" v="farm" />
		<tag k="ssr:stedsnr" v="261888" />
	</node>
	<node lat="69.4853750012961" lon="18.843505550841385" id="-56244">
		<tag k="name" v="Indre Kobbevågen" />
		<tag k="place" v="farm" />
		<tag k="ssr:stedsnr" v="261823" />
	</node>
	<node lat="69.841905560092" lon="18.81491387360614" id="-56263">
		<tag k="name" v="Kjosvoll" />
		<tag k="place" v="farm" />
		<tag k="ssr:stedsnr" v="261971" />
	</node>
	<node lat="69.99823888684554" lon="18.72640276941791" id="-56265">
		<tag k="name" v="Solheim" />
		<tag k="place" v="farm" />
		<tag k="ssr:stedsnr" v="262160" />
	</node>
	<node lat="69.98340833646715" lon="18.69981665854013" id="-56268">
		<tag k="name" v="Skagøy" />
		<tag k="place" v="farm" />
		<tag k="ssr:stedsnr" v="262184" />
	</node>
	<node lat="69.63170277547157" lon="18.922433334364058" id="-56276">
		<tag k="name" v="Lanes" />
		<tag k="place" v="quarter" />
		<tag k="ssr:stedsnr" v="262321" />
	</node>
	<node lat="69.77533333513361" lon="19.343008317747085" id="-56290">
		<tag k="name" v="Lier" />
		<tag k="place" v="farm" />
		<tag k="ssr:stedsnr" v="262681" />
	</node>
	<node lat="69.67367777748419" lon="18.94103055037579" id="-56299">
		<tag k="name" v="Olsgård" />
		<tag k="place" v="quarter" />
		<tag k="ssr:stedsnr" v="267471" />
	</node>
	<node lat="69.69774444635195" lon="19.082286097860393" id="-56300">
		<tag k="name" v="Skjelnan" />
		<tag k="place" v="suburb" />
		<tag k="ssr:stedsnr" v="266522" />
	</node>
	<node lat="69.88350000188159" lon="18.575763876457888" id="-56333">
		<tag k="name" v="Musvær" />
		<tag k="place" v="farm" />
		<tag k="ssr:stedsnr" v="201001" />
	</node>
	<node lat="69.67586388890439" lon="18.96933887158962" id="-56341">
		<tag k="name" v="Breivang" />
		<tag k="place" v="farm" />
		<tag k="ssr:stedsnr" v="267486" />
	</node>
	<node lat="69.8987722258386" lon="18.797975001289554" id="-56343">
		<tag k="name" v="Litjevika" />
		<tag k="place" v="farm" />
		<tag k="ssr:stedsnr" v="201786" />
	</node>
	<node lat="69.35455000046083" lon="19.630119436172897" id="-56347">
		<tag k="name" v="Åsmo" />
		<tag k="place" v="farm" />
		<tag k="ssr:stedsnr" v="202541" />
	</node>
	<node lat="69.63491944097736" lon="18.720627777038736" id="-56349">
		<tag k="name" v="Holemark" />
		<tag k="place" v="farm" />
		<tag k="ssr:stedsnr" v="268470" />
	</node>
	<node lat="69.53812802789506" lon="18.41591297817778" id="-56351">
		<tag k="alt_name" v="Mjelde Søndre" />
		<tag k="fixme" v="consider place=hamlet" />
		<tag k="name" v="Søndre Mjelde" />
		<tag k="place" v="farm" />
		<tag k="ssr:stedsnr" v="268568" />
	</node>
	<node lat="69.63591111499957" lon="18.99576944977513" id="-56357">
		<tag k="fixme" v="consider tourism=alpine_hut or tourism=chalet" />
		<tag k="name" v="Fjellstua" />
		<tag k="ssr:stedsnr" v="208524" />
		<tag k="tourism" v="wilderness_hut" />
	</node>
	<node lat="69.48952221871643" lon="19.655436104584776" id="-56358">
		<tag k="name" v="Litleng" />
		<tag k="place" v="farm" />
		<tag k="ssr:stedsnr" v="209041" />
	</node>
	<node lat="69.77447222684391" lon="19.367524982084944" id="-56361">
		<tag k="name" v="Skittenelv" />
		<tag k="place" v="farm" />
		<tag k="ssr:stedsnr" v="213429" />
	</node>
	<node lat="69.7296222216328" lon="19.695799986630764" id="-56372">
		<tag k="name" v="Ytterskjær" />
		<tag k="place" v="farm" />
		<tag k="ssr:stedsnr" v="224743" />
	</node>
	<node lat="69.5124444478924" lon="19.625455550060426" id="-56380">
		<tag k="name" v="Sommerbukt" />
		<tag k="place" v="farm" />
		<tag k="ssr:stedsnr" v="229483" />
	</node>
	<node lat="69.788411109291" lon="19.12734444812307" id="-56391">
		<tag k="name" v="Nygård" />
		<tag k="place" v="isolated_dwelling" />
		<tag k="ssr:stedsnr" v="231190" />
	</node>
	<node lat="69.61639722576678" lon="18.941447225311457" id="-56405">
		<tag k="name" v="Tresletta" />
		<tag k="place" v="farm" />
		<tag k="ssr:stedsnr" v="449763" />
	</node>
	<node lat="69.64229444060567" lon="18.982027778248696" id="-56407">
		<tag k="name" v="Venset" />
		<tag k="place" v="quarter" />
		<tag k="ssr:stedsnr" v="234038" />
	</node>
	<node lat="69.66369444184261" lon="18.952308338086883" id="-56414">
		<tag k="name" v="Laurdal" />
		<tag k="place" v="quarter" />
		<tag k="ssr:stedsnr" v="235206" />
	</node>
	<node lat="69.60429999997753" lon="18.04256387867067" id="-56436">
		<tag k="name" v="Klubban" />
		<tag k="place" v="farm" />
		<tag k="ssr:stedsnr" v="235764" />
	</node>
	<node lat="69.55644166382075" lon="19.541388876377756" id="-56437">
		<tag k="name" v="Bukkheiman" />
		<tag k="place" v="locality" />
		<tag k="ssr:stedsnr" v="235777" />
	</node>
	<node lat="69.44397500075351" lon="19.58470554861182" id="-56452">
		<tag k="alt_name" v="Stordal" />
		<tag k="fixme" v="consider place=hamlet" />
		<tag k="name" v="Stordalen" />
		<tag k="place" v="village" />
		<tag k="ssr:stedsnr" v="450331" />
	</node>
	<node lat="69.51758889227507" lon="18.533852786426596" id="-56455">
		<tag k="name" v="Elveslett" />
		<tag k="place" v="farm" />
		<tag k="ssr:stedsnr" v="236112" />
	</node>
	<node lat="69.53377222388363" lon="18.63727776825668" id="-56458">
		<tag k="name" v="Gjerdrum" />
		<tag k="place" v="farm" />
		<tag k="ssr:stedsnr" v="236199" />
	</node>
	<node lat="69.54818610661023" lon="18.798233335878155" id="-56461">
		<tag k="name" v="Ingeborgheimen" />
		<tag k="place" v="locality" />
		<tag k="ssr:stedsnr" v="236335" />
	</node>
</osm>
