<?xml version="1.0" encoding="UTF-8"?>
<osm version="0.6" generator="osmapis">
	<node lat="69.8888333295964" lon="17.932297227618662" id="-55586">
		<tag k="name" v="Hundbåen" />
		<tag k="natural" v="shoal" />
		<tag k="place" v="locality" />
		<tag k="ssr:stedsnr" v="229840" />
	</node>
	<node lat="69.74612778133701" lon="19.023422208408558" id="-55589">
		<tag k="name" v="Røyrneset" />
		<tag k="natural" v="cape" />
		<tag k="ssr:stedsnr" v="230327" />
	</node>
	<node lat="69.8500722194936" lon="18.64532221950766" id="-55590">
		<tag k="name" v="Storsteinvika" />
		<tag k="natural" v="bay" />
		<tag k="ssr:stedsnr" v="231014" />
	</node>
	<node lat="69.98947778107218" lon="18.67728610047693" id="-55594">
		<tag k="fixme" v="consider seamark:type=rock or natural=shoal" />
		<tag k="name" v="Sløykskjæran" />
		<tag k="place" v="islet" />
		<tag k="ssr:stedsnr" v="231062" />
	</node>
	<node lat="69.99000555774961" lon="18.71543056296456" id="-55596">
		<tag k="name" v="Kristikjosen" />
		<tag k="natural" v="bay" />
		<tag k="ssr:stedsnr" v="231075" />
	</node>
	<node lat="69.96504722505209" lon="18.515619442986065" id="-55597">
		<tag k="name" v="Misjonsholmen" />
		<tag k="place" v="islet" />
		<tag k="ssr:stedsnr" v="231156" />
	</node>
	<node lat="69.8514027791882" lon="18.94055556294996" id="-55600">
		<tag k="name" v="Hestevika" />
		<tag k="natural" v="bay" />
		<tag k="ssr:stedsnr" v="231248" />
	</node>
	<node lat="69.83691944475815" lon="18.904186117346455" id="-55601">
		<tag k="name" v="Risnes" />
		<tag k="natural" v="cape" />
		<tag k="ssr:stedsnr" v="231250" />
	</node>
	<node lat="69.86942222068863" lon="18.891877764754888" id="-55605">
		<tag k="name" v="Per-Olsabukta" />
		<tag k="natural" v="bay" />
		<tag k="ssr:stedsnr" v="231226" />
	</node>
	<node lat="69.9754138874361" lon="18.510091655455135" id="-55607">
		<tag k="name" v="Saukjeila" />
		<tag k="natural" v="bay" />
		<tag k="ssr:stedsnr" v="231262" />
	</node>
	<node lat="69.98398888623268" lon="18.525886115260324" id="-55608">
		<tag k="name" v="Beretholmen" />
		<tag k="place" v="islet" />
		<tag k="ssr:stedsnr" v="231268" />
	</node>
	<node lat="69.9511638844514" lon="18.850691670939018" id="-55613">
		<tag k="name" v="Øyhamnklubben" />
		<tag k="place" v="islet" />
		<tag k="ssr:stedsnr" v="231438" />
	</node>
	<node lat="69.96562222404233" lon="18.811363873329398" id="-55616">
		<tag k="name" v="Båan" />
		<tag k="place" v="locality" />
		<tag k="seamark:type" v="rock" />
		<tag k="ssr:stedsnr" v="231414" />
	</node>
	<node lat="69.95484722095769" lon="18.82308609374406" id="-55619">
		<tag k="fixme" v="consider seamark:type=rock or natural=shoal" />
		<tag k="name" v="Skarvskjæret" />
		<tag k="place" v="islet" />
		<tag k="ssr:stedsnr" v="231544" />
	</node>
	<node lat="70.03176389049158" lon="18.69937499854598" id="-55620">
		<tag k="fixme" v="consider seamark:type=rock or natural=shoal" />
		<tag k="name" v="Kobbesteinen" />
		<tag k="place" v="islet" />
		<tag k="ssr:stedsnr" v="231565" />
	</node>
	<node lat="70.02982500149679" lon="18.642833323930816" id="-55621">
		<tag k="name" v="Styret" />
		<tag k="place" v="islet" />
		<tag k="ssr:stedsnr" v="231571" />
	</node>
	<node lat="69.65816666793047" lon="19.684202764711216" id="-55625">
		<tag k="name" v="Breivikneset - Guohcamohnjárga" />
		<tag k="name:no" v="Breivikneset" />
		<tag k="name:se" v="Guohcamohnjárga" />
		<tag k="natural" v="cape" />
		<tag k="ssr:stedsnr" v="18203" />
	</node>
	<node lat="69.63165277886148" lon="18.153202780085408" id="-55637">
		<tag k="name" v="Otervika" />
		<tag k="natural" v="bay" />
		<tag k="ssr:stedsnr" v="18513" />
	</node>
	<node lat="69.63371111189433" lon="18.154497224835016" id="-55638">
		<tag k="name" v="Oterneset" />
		<tag k="natural" v="cape" />
		<tag k="ssr:stedsnr" v="18514" />
	</node>
	<node lat="69.70819721912648" lon="18.197858330230527" id="-55640">
		<tag k="name" v="Keilneset" />
		<tag k="natural" v="cape" />
		<tag k="ssr:stedsnr" v="18608" />
	</node>
	<node lat="69.65553332902115" lon="18.165763896525302" id="-55642">
		<tag k="name" v="Bøneset" />
		<tag k="natural" v="cape" />
		<tag k="ssr:stedsnr" v="18649" />
	</node>
	<node lat="69.68101666772918" lon="18.027494453863206" id="-55646">
		<tag k="name" v="Skagnesgrunnan" />
		<tag k="natural" v="shoal" />
		<tag k="place" v="locality" />
		<tag k="ssr:stedsnr" v="18662" />
	</node>
	<node lat="69.86672778132997" lon="18.72795277606371" id="-55648">
		<tag k="name" v="Oterstranda" />
		<tag k="natural" v="beach" />
		<tag k="ssr:stedsnr" v="18705" />
	</node>
	<node lat="69.60910277877997" lon="17.919761109555363" id="-55650">
		<tag k="fixme" v="consider seamark:type=rock or natural=shoal" />
		<tag k="name" v="Rotskjæret" />
		<tag k="place" v="islet" />
		<tag k="ssr:stedsnr" v="18747" />
	</node>
	<node lat="69.56439722026296" lon="19.68376664267145" id="-55656">
		<tag k="name" v="Kvalneset - Davit Bossonjárga" />
		<tag k="name:no" v="Kvalneset" />
		<tag k="name:se" v="Davit Bossonjárga" />
		<tag k="natural" v="cape" />
		<tag k="ssr:stedsnr" v="19159" />
	</node>
	<node lat="69.89131388893408" lon="18.539291649900935" id="-55659">
		<tag k="name" v="Skagodden" />
		<tag k="natural" v="cape" />
		<tag k="ssr:stedsnr" v="19008" />
	</node>
	<node lat="69.97724166829647" lon="18.301869436434906" id="-55660">
		<tag k="name" v="Steingrunnen" />
		<tag k="natural" v="shoal" />
		<tag k="place" v="locality" />
		<tag k="ssr:stedsnr" v="19051" />
	</node>
	<node lat="69.93102778066373" lon="18.15211945098217" id="-55661">
		<tag k="alt_name" v="Mulflua, yt" />
		<tag k="name" v="Ytre Mulflua" />
		<tag k="natural" v="shoal" />
		<tag k="place" v="locality" />
		<tag k="ssr:stedsnr" v="19092" />
	</node>
	<node lat="69.92286667002081" lon="18.02389165769723" id="-55662">
		<tag k="name" v="Seitåga" />
		<tag k="natural" v="shoal" />
		<tag k="place" v="locality" />
		<tag k="ssr:stedsnr" v="19093" />
	</node>
	<node lat="69.89265555266046" lon="18.443133327852284" id="-55663">
		<tag k="name" v="Kjerringholmen" />
		<tag k="place" v="islet" />
		<tag k="ssr:stedsnr" v="19096" />
	</node>
	<node lat="69.89836111066735" lon="18.531169433730323" id="-55664">
		<tag k="name" v="Storgrunnen" />
		<tag k="natural" v="shoal" />
		<tag k="place" v="locality" />
		<tag k="ssr:stedsnr" v="19097" />
	</node>
	<node lat="69.84109444741001" lon="17.932266669685927" id="-55665">
		<tag k="name" v="Bringskjærskallan" />
		<tag k="natural" v="shoal" />
		<tag k="place" v="locality" />
		<tag k="ssr:stedsnr" v="19403" />
	</node>
	<node lat="69.83373611203207" lon="18.613391657381097" id="-55666">
		<tag k="name" v="Storvika" />
		<tag k="natural" v="bay" />
		<tag k="ssr:stedsnr" v="19408" />
	</node>
	<node lat="69.74005555841082" lon="18.488280562478497" id="-55670">
		<tag k="name" v="Vågbotn" />
		<tag k="natural" v="bay" />
		<tag k="ssr:stedsnr" v="19639" />
	</node>
	<node lat="69.77716388791202" lon="19.292847217803565" id="-55673">
		<tag k="name" v="Vågnesbukta - Skearranluokta" />
		<tag k="name:no" v="Vågnesbukta" />
		<tag k="name:se" v="Skearranluokta" />
		<tag k="natural" v="bay" />
		<tag k="ssr:stedsnr" v="19644" />
	</node>
	<node lat="69.9548888878486" lon="18.71691387866816" id="-55675">
		<tag k="fixme" v="multiple name tags, choose one and add the other to alt_name" />
		<tag k="name" v="Klokkarholmen;Lausholmen" />
		<tag k="place" v="islet" />
		<tag k="ssr:stedsnr" v="19849" />
	</node>
	<node lat="69.8120722231478" lon="19.557994441339357" id="-55685">
		<tag k="name" v="Seihauggrunnen" />
		<tag k="natural" v="shoal" />
		<tag k="place" v="locality" />
		<tag k="ssr:stedsnr" v="25521" />
	</node>
	<node lat="69.88699166622409" lon="18.680916665575413" id="-55686">
		<tag k="name" v="Storflua" />
		<tag k="natural" v="shoal" />
		<tag k="place" v="locality" />
		<tag k="ssr:stedsnr" v="25713" />
	</node>
	<node lat="69.6205277767889" lon="18.813744430989825" id="-55701">
		<tag k="name" v="Neset" />
		<tag k="natural" v="cape" />
		<tag k="ssr:stedsnr" v="235570" />
	</node>
	<node lat="69.64383611221083" lon="18.73490554286475" id="-55703">
		<tag k="name" v="Skavelvneset" />
		<tag k="natural" v="cape" />
		<tag k="ssr:stedsnr" v="235521" />
	</node>
	<node lat="69.62661388812226" lon="18.18308889501908" id="-55716">
		<tag k="name" v="Andersvika" />
		<tag k="natural" v="bay" />
		<tag k="ssr:stedsnr" v="235746" />
	</node>
	<node lat="69.43461111549625" lon="19.558583315292243" id="-55722">
		<tag k="name" v="Sortebukta" />
		<tag k="natural" v="bay" />
		<tag k="ssr:stedsnr" v="235857" />
	</node>
	<node lat="69.58362222403842" lon="19.972674981028185" id="-55729">
		<tag k="name" v="Forholtbukta" />
		<tag k="natural" v="bay" />
		<tag k="ssr:stedsnr" v="236124" />
	</node>
	<node lat="69.69214444370424" lon="18.562316672173363" id="-55735">
		<tag k="name" v="Eliasgamkroken" />
		<tag k="natural" v="bay" />
		<tag k="ssr:stedsnr" v="236221" />
	</node>
	<node lat="69.63444444321132" lon="19.73341387045971" id="-55736">
		<tag k="name" v="Olderhollet" />
		<tag k="natural" v="bay" />
		<tag k="ssr:stedsnr" v="236224" />
	</node>
	<node lat="69.62840000258794" lon="18.00489443784767" id="-55738">
		<tag k="name" v="Steingarden Store" />
		<tag k="place" v="islet" />
		<tag k="ssr:stedsnr" v="236299" />
	</node>
	<node lat="69.59088055932816" lon="18.010347222200114" id="-55740">
		<tag k="fixme" v="consider seamark:type=rock or natural=shoal" />
		<tag k="name" v="Brensholmskjæret" />
		<tag k="place" v="islet" />
		<tag k="ssr:stedsnr" v="236313" />
	</node>
	<node lat="69.52103333510775" lon="18.18876389569707" id="-55745">
		<tag k="name" v="Smånessan" />
		<tag k="natural" v="cape" />
		<tag k="ssr:stedsnr" v="236455" />
	</node>
	<node lat="69.6263111140897" lon="17.968574991782454" id="-55746">
		<tag k="name" v="Sve" />
		<tag k="natural" v="shoal" />
		<tag k="place" v="locality" />
		<tag k="ssr:stedsnr" v="236399" />
	</node>
	<node lat="69.63350555294649" lon="17.969355559948315" id="-55747">
		<tag k="name" v="Vikran" />
		<tag k="natural" v="bay" />
		<tag k="ssr:stedsnr" v="236401" />
	</node>
	<node lat="69.5983944469383" lon="19.745477777918012" id="-55750">
		<tag k="name" v="Eineneset" />
		<tag k="natural" v="cape" />
		<tag k="ssr:stedsnr" v="236539" />
	</node>
	<node lat="69.61150555374098" lon="19.77305555235383" id="-55753">
		<tag k="name" v="Slåssbergbukta" />
		<tag k="natural" v="bay" />
		<tag k="ssr:stedsnr" v="236549" />
	</node>
	<node lat="69.73995833393133" lon="18.24535833392765" id="-55758">
		<tag k="name" v="Elvefarneset" />
		<tag k="natural" v="cape" />
		<tag k="ssr:stedsnr" v="236923" />
	</node>
	<node lat="69.65005000336554" lon="18.239583333096434" id="-55761">
		<tag k="name" v="Ytterstien" />
		<tag k="natural" v="cape" />
		<tag k="ssr:stedsnr" v="236976" />
	</node>
	<node lat="69.74377500321992" lon="19.01923887737131" id="-55771">
		<tag k="name" v="Krabbeneset" />
		<tag k="natural" v="cape" />
		<tag k="ssr:stedsnr" v="48312" />
	</node>
	<node lat="69.7866999974164" lon="19.038172227644218" id="-55772">
		<tag k="name" v="Lille Stefanes" />
		<tag k="natural" v="cape" />
		<tag k="ssr:stedsnr" v="48332" />
	</node>
	<node lat="70.03002778170523" lon="18.559247206728806" id="-55774">
		<tag k="name" v="Langsandan" />
		<tag k="natural" v="beach" />
		<tag k="ssr:stedsnr" v="49104" />
	</node>
	<node lat="69.85461666408479" lon="18.644291655190134" id="-55776">
		<tag k="name" v="Nautnesvika" />
		<tag k="natural" v="bay" />
		<tag k="ssr:stedsnr" v="49014" />
	</node>
	<node lat="69.8425472259473" lon="18.58179165132809" id="-55777">
		<tag k="name" v="Morholmen" />
		<tag k="place" v="islet" />
		<tag k="ssr:stedsnr" v="49019" />
	</node>
	<node lat="69.95389444470268" lon="18.54160277630526" id="-55780">
		<tag k="fixme" v="consider seamark:type=rock or natural=shoal" />
		<tag k="name" v="Langholmbaren" />
		<tag k="place" v="islet" />
		<tag k="ssr:stedsnr" v="49269" />
	</node>
	<node lat="69.85072500412498" lon="18.94468333509391" id="-55782">
		<tag k="name" v="Møljebukta" />
		<tag k="natural" v="bay" />
		<tag k="ssr:stedsnr" v="50208" />
	</node>
	<node lat="69.97225000282255" lon="18.833836116764832" id="-55783">
		<tag k="name" v="Stornes" />
		<tag k="natural" v="cape" />
		<tag k="ssr:stedsnr" v="50372" />
	</node>
	<node lat="70.0221444437205" lon="18.523899982999925" id="-55785">
		<tag k="fixme" v="consider seamark:type=rock or natural=shoal" />
		<tag k="name" v="Leiskjæran" />
		<tag k="place" v="islet" />
		<tag k="ssr:stedsnr" v="52292" />
	</node>
	<node lat="69.53213611175737" lon="19.021799991622878" id="-55788">
		<tag k="name" v="Hysholla" />
		<tag k="natural" v="bay" />
		<tag k="ssr:stedsnr" v="53022" />
	</node>
	<node lat="69.60155832990942" lon="19.713099993177863" id="-55805">
		<tag k="name" v="Feitelvneset - Vuoidinnjárga" />
		<tag k="name:no" v="Feitelvneset" />
		<tag k="name:se" v="Vuoidinnjárga" />
		<tag k="natural" v="cape" />
		<tag k="ssr:stedsnr" v="53704" />
	</node>
	<node lat="69.41460277995057" lon="19.55666110350908" id="-55812">
		<tag k="name" v="Naustneset" />
		<tag k="natural" v="cape" />
		<tag k="ssr:stedsnr" v="53822" />
	</node>
	<node lat="69.60827222112471" lon="18.024405561305958" id="-55815">
		<tag k="fixme" v="consider seamark:type=rock or natural=shoal" />
		<tag k="name" v="Værskanken" />
		<tag k="place" v="islet" />
		<tag k="ssr:stedsnr" v="54185" />
	</node>
	<node lat="69.70578611016259" lon="18.681911106369025" id="-55820">
		<tag k="name" v="Vikkerneset" />
		<tag k="natural" v="cape" />
		<tag k="ssr:stedsnr" v="54275" />
	</node>
	<node lat="69.63633055628702" lon="18.016227777238907" id="-55821">
		<tag k="name" v="Krevika" />
		<tag k="natural" v="bay" />
		<tag k="ssr:stedsnr" v="54472" />
	</node>
	<node lat="69.63081389346956" lon="17.976669431184856" id="-55822">
		<tag k="fixme" v="consider seamark:type=rock or natural=shoal" />
		<tag k="name" v="Kuntå" />
		<tag k="place" v="islet" />
		<tag k="ssr:stedsnr" v="54480" />
	</node>
	<node lat="69.55793888829582" lon="18.726586113760607" id="-55825">
		<tag k="name" v="Andstraumneset" />
		<tag k="natural" v="cape" />
		<tag k="ssr:stedsnr" v="54317" />
	</node>
	<node lat="69.60390833071806" lon="18.30353609349203" id="-55828">
		<tag k="name" v="Stornes" />
		<tag k="natural" v="cape" />
		<tag k="ssr:stedsnr" v="54777" />
	</node>
	<node lat="69.71278055775382" lon="18.328269446965663" id="-55845">
		<tag k="name" v="Innerskamtindvika" />
		<tag k="natural" v="bay" />
		<tag k="ssr:stedsnr" v="242938" />
	</node>
	<node lat="69.60720556022206" lon="18.308002773829127" id="-55865">
		<tag k="name" v="Skilneset" />
		<tag k="natural" v="cape" />
		<tag k="ssr:stedsnr" v="79495" />
	</node>
	<node lat="69.69955278174498" lon="18.05153611063646" id="-55868">
		<tag k="name" v="Eskallen" />
		<tag k="natural" v="shoal" />
		<tag k="place" v="locality" />
		<tag k="ssr:stedsnr" v="79605" />
	</node>
	<node lat="69.64250277389245" lon="18.244274991467545" id="-55870">
		<tag k="name" v="Elvkrakneset" />
		<tag k="natural" v="cape" />
		<tag k="ssr:stedsnr" v="79541" />
	</node>
	<node lat="69.69626111381454" lon="18.613291664024718" id="-55876">
		<tag k="name" v="Naustbukta" />
		<tag k="natural" v="bay" />
		<tag k="ssr:stedsnr" v="79691" />
	</node>
	<node lat="69.68204722667853" lon="18.10565555241045" id="-55877">
		<tag k="alt_name" v="Veggeneset" />
		<tag k="name" v="Veggneset" />
		<tag k="natural" v="cape" />
		<tag k="ssr:stedsnr" v="79695" />
	</node>
	<node lat="69.49431111356796" lon="18.84026389521161" id="-55878">
		<tag k="alt_name" v="Djupvåg" />
		<tag k="name" v="Djupvågen" />
		<tag k="natural" v="bay" />
		<tag k="ssr:stedsnr" v="79844" />
	</node>
	<node lat="69.77475000112699" lon="18.30404443788835" id="-55882">
		<tag k="fixme" v="multiple name tags, choose one and add the other to alt_name" />
		<tag k="name" v="Madsengodden;Odden" />
		<tag k="natural" v="cape" />
		<tag k="ssr:stedsnr" v="80128" />
	</node>
	<node lat="69.84939722262" lon="18.094291653883417" id="-55884">
		<tag k="fixme" v="consider seamark:type=rock or natural=shoal" />
		<tag k="name" v="Kobbeklakkskjæret" />
		<tag k="place" v="islet" />
		<tag k="ssr:stedsnr" v="80040" />
	</node>
	<node lat="69.86233611169492" lon="18.499036105100856" id="-55885">
		<tag k="name" v="Rekvikneset" />
		<tag k="natural" v="cape" />
		<tag k="ssr:stedsnr" v="80041" />
	</node>
	<node lat="69.99837499988325" lon="18.4925444385662" id="-55886">
		<tag k="alt_name" v="Blåmåsholman" />
		<tag k="name" v="Blåmåsholmen" />
		<tag k="place" v="islet" />
		<tag k="ssr:stedsnr" v="80338" />
	</node>
	<node lat="69.69669722057516" lon="18.93242222279158" id="-55894">
		<tag k="name" v="Sandneset" />
		<tag k="natural" v="cape" />
		<tag k="ssr:stedsnr" v="86390" />
	</node>
	<node lat="69.5517972205098" lon="18.69621109550827" id="-55896">
		<tag k="name" v="Skallen" />
		<tag k="natural" v="shoal" />
		<tag k="place" v="locality" />
		<tag k="ssr:stedsnr" v="86578" />
	</node>
	<node lat="69.91546110953595" lon="18.720372209479397" id="-55898">
		<tag k="name" v="Molvika" />
		<tag k="natural" v="bay" />
		<tag k="ssr:stedsnr" v="86704" />
	</node>
	<node lat="69.49630555618063" lon="18.958361108455787" id="-55899">
		<tag k="name" v="Halvaren" />
		<tag k="natural" v="shoal" />
		<tag k="place" v="locality" />
		<tag k="ssr:stedsnr" v="86974" />
	</node>
	<node lat="69.67700556050549" lon="18.77520554278627" id="-55904">
		<tag k="fixme" v="consider seamark:type=rock or natural=shoal" />
		<tag k="name" v="Kobbøyrskjæret" />
		<tag k="place" v="islet" />
		<tag k="ssr:stedsnr" v="104909" />
	</node>
	<node lat="69.83817222178641" lon="18.6783694491278" id="-55905">
		<tag k="name" v="Strand" />
		<tag k="natural" v="beach" />
		<tag k="ssr:stedsnr" v="107323" />
	</node>
	<node lat="69.9576777752347" lon="18.53566944845977" id="-55914">
		<tag k="name" v="Buskholmen" />
		<tag k="place" v="islet" />
		<tag k="ssr:stedsnr" v="110204" />
	</node>
	<node lat="69.95850555693441" lon="18.551338891684384" id="-55915">
		<tag k="name" v="Kleppholmbåen" />
		<tag k="place" v="locality" />
		<tag k="seamark:type" v="rock" />
		<tag k="ssr:stedsnr" v="110208" />
	</node>
	<node lat="69.98905832938469" lon="18.508988877640427" id="-55916">
		<tag k="name" v="Avløsningsspira" />
		<tag k="natural" v="cape" />
		<tag k="ssr:stedsnr" v="110223" />
	</node>
	<node lat="70.02726110687455" lon="18.704336112768555" id="-55922">
		<tag k="name" v="Spiskenes" />
		<tag k="natural" v="cape" />
		<tag k="ssr:stedsnr" v="110519" />
	</node>
	<node lat="69.97991944555285" lon="18.696630555290785" id="-55923">
		<tag k="name" v="Smånessan" />
		<tag k="natural" v="cape" />
		<tag k="ssr:stedsnr" v="110481" />
	</node>
	<node lat="69.53951944771026" lon="19.065224994788224" id="-55925">
		<tag k="name" v="Karlbukta" />
		<tag k="natural" v="bay" />
		<tag k="ssr:stedsnr" v="113019" />
	</node>
	<node lat="69.47759722335095" lon="19.70634721786964" id="-55942">
		<tag k="name" v="Mølnelvbukta" />
		<tag k="natural" v="bay" />
		<tag k="ssr:stedsnr" v="114321" />
	</node>
	<node lat="69.62844444574276" lon="18.000249990088605" id="-55944">
		<tag k="name" v="Steingarden Vestre" />
		<tag k="place" v="islet" />
		<tag k="ssr:stedsnr" v="114324" />
	</node>
	<node lat="69.40458888582353" lon="19.510705544835158" id="-55972">
		<tag k="name" v="Risenesbukta - Jiehtanasluokta" />
		<tag k="name:no" v="Risenesbukta" />
		<tag k="name:se" v="Jiehtanasluokta" />
		<tag k="natural" v="bay" />
		<tag k="ssr:stedsnr" v="114911" />
	</node>
	<node lat="69.55865000292656" lon="18.8437722216206" id="-55974">
		<tag k="name" v="Sandbukta" />
		<tag k="natural" v="bay" />
		<tag k="ssr:stedsnr" v="115315" />
	</node>
	<node lat="69.53006111078973" lon="18.861299981246606" id="-55986">
		<tag k="name" v="Elvenes" />
		<tag k="natural" v="cape" />
		<tag k="ssr:stedsnr" v="139303" />
	</node>
	<node lat="69.5201805540032" lon="19.238422210216072" id="-55988">
		<tag k="bay" v="fjord" />
		<tag k="name" v="Sørbotn - Oarjeluokta" />
		<tag k="name:no" v="Sørbotn" />
		<tag k="name:se" v="Oarjeluokta" />
		<tag k="natural" v="bay" />
		<tag k="ssr:stedsnr" v="139093" />
	</node>
	<node lat="69.96830278052718" lon="18.49238610343226" id="-55989">
		<tag k="name" v="Bukkøya" />
		<tag k="place" v="island" />
		<tag k="ssr:stedsnr" v="139094" />
	</node>
	<node lat="69.69949721980956" lon="18.431586095384056" id="-56008">
		<tag k="name" v="Hesjeneset" />
		<tag k="natural" v="cape" />
		<tag k="ssr:stedsnr" v="139698" />
	</node>
	<node lat="69.698127780827" lon="18.469127769340847" id="-56009">
		<tag k="name" v="Gammelgårdsholmen" />
		<tag k="natural" v="cape" />
		<tag k="ssr:stedsnr" v="139699" />
	</node>
	<node lat="69.70186388792025" lon="17.905949993941835" id="-56011">
		<tag k="name" v="Hammaren" />
		<tag k="natural" v="shoal" />
		<tag k="place" v="locality" />
		<tag k="ssr:stedsnr" v="139942" />
	</node>
	<node lat="69.69997222401082" lon="17.94349444613785" id="-56012">
		<tag k="alt_name" v="Skulbarden, l" />
		<tag k="fixme" v="consider seamark:type=rock or natural=shoal" />
		<tag k="name" v="Litle Skulbarden" />
		<tag k="place" v="islet" />
		<tag k="ssr:stedsnr" v="139946" />
	</node>
	<node lat="69.68759722257033" lon="17.892905562745437" id="-56013">
		<tag k="name" v="Hundungskoltan" />
		<tag k="natural" v="shoal" />
		<tag k="place" v="locality" />
		<tag k="ssr:stedsnr" v="139948" />
	</node>
	<node lat="69.84494444268702" lon="18.859650002677245" id="-56014">
		<tag k="alt_name" v="Matkjosneset" />
		<tag k="name" v="Makkjosneset" />
		<tag k="natural" v="cape" />
		<tag k="ssr:stedsnr" v="139994" />
	</node>
	<node lat="69.84898888691174" lon="18.878338886778565" id="-56015">
		<tag k="name" v="Trondjordgrunnen" />
		<tag k="natural" v="shoal" />
		<tag k="place" v="locality" />
		<tag k="ssr:stedsnr" v="139995" />
	</node>
	<node lat="69.9265972226627" lon="18.48573888337828" id="-56016">
		<tag k="alt_name" v="Lyngøya, store;Lyngøy" />
		<tag k="fixme" v="multiple name tags, choose one and add the other to alt_name" />
		<tag k="name" v="Lyngøya;Store Lyngøya" />
		<tag k="old_name" v="Lyngøya" />
		<tag k="place" v="island" />
		<tag k="ssr:stedsnr" v="140104" />
	</node>
	<node lat="69.87087499888018" lon="18.017361095506768" id="-56018">
		<tag k="name" v="Skrivarholmen" />
		<tag k="place" v="islet" />
		<tag k="ssr:stedsnr" v="140003" />
	</node>
	<node lat="69.87195555761105" lon="18.015513890419182" id="-56019">
		<tag k="name" v="Purkholmen" />
		<tag k="place" v="islet" />
		<tag k="ssr:stedsnr" v="140004" />
	</node>
	<node lat="69.85980833621814" lon="18.399086107411687" id="-56020">
		<tag k="name" v="Øybåen" />
		<tag k="natural" v="shoal" />
		<tag k="place" v="locality" />
		<tag k="ssr:stedsnr" v="140039" />
	</node>
	<node lat="69.83310833461812" lon="18.254602779787522" id="-56021">
		<tag k="fixme" v="consider seamark:type=rock or natural=shoal" />
		<tag k="name" v="Dragan" />
		<tag k="place" v="islet" />
		<tag k="ssr:stedsnr" v="140186" />
	</node>
	<node lat="69.77590277523272" lon="18.007269444352595" id="-56024">
		<tag k="name" v="Andersjuskallen" />
		<tag k="natural" v="shoal" />
		<tag k="place" v="locality" />
		<tag k="ssr:stedsnr" v="140237" />
	</node>
	<node lat="70.05196388701032" lon="18.560430547954958" id="-56029">
		<tag k="name" v="Kvalvikan" />
		<tag k="natural" v="bay" />
		<tag k="ssr:stedsnr" v="140291" />
	</node>
	<node lat="70.03834444516984" lon="18.41526110288931" id="-56030">
		<tag k="name" v="Bjørnnakkbåen" />
		<tag k="natural" v="shoal" />
		<tag k="place" v="locality" />
		<tag k="ssr:stedsnr" v="140293" />
	</node>
	<node lat="70.04045000408567" lon="18.52306388843637" id="-56031">
		<tag k="name" v="Brennvika" />
		<tag k="natural" v="bay" />
		<tag k="ssr:stedsnr" v="140295" />
	</node>
	<node lat="70.03726944339503" lon="18.514408338809726" id="-56032">
		<tag k="fixme" v="consider seamark:type=rock or natural=shoal" />
		<tag k="name" v="Sloppeskjæret" />
		<tag k="place" v="islet" />
		<tag k="ssr:stedsnr" v="140296" />
	</node>
	<node lat="69.59720555961823" lon="19.902152765215938" id="-56039">
		<tag k="alt_name" v="Darvvasnjárga" />
		<tag k="name" v="Forneset" />
		<tag k="natural" v="cape" />
		<tag k="ssr:stedsnr" v="140985" />
	</node>
	<node lat="69.63402777739908" lon="18.73973611360378" id="-56045">
		<tag k="name" v="Storelvneset" />
		<tag k="natural" v="cape" />
		<tag k="ssr:stedsnr" v="146397" />
	</node>
	<node lat="69.6847749981735" lon="18.705183321583718" id="-56052">
		<tag k="name" v="Ørnneset" />
		<tag k="natural" v="cape" />
		<tag k="ssr:stedsnr" v="164908" />
	</node>
	<node lat="69.68460278086921" lon="18.730330548521387" id="-56053">
		<tag k="name" v="Eidneset" />
		<tag k="natural" v="cape" />
		<tag k="ssr:stedsnr" v="164912" />
	</node>
	<node lat="69.89121666973061" lon="18.555233339164246" id="-56054">
		<tag k="name" v="Nordre Skaga" />
		<tag k="natural" v="cape" />
		<tag k="ssr:stedsnr" v="167271" />
	</node>
	<node lat="69.9540444479918" lon="18.864858328750614" id="-56055">
		<tag k="alt_name" v="Komagvik" />
		<tag k="name" v="Komagvika" />
		<tag k="natural" v="bay" />
		<tag k="ssr:stedsnr" v="167604" />
	</node>
	<node lat="69.74963333566437" lon="18.161919431088485" id="-56056">
		<tag k="name" v="Nordre Portneset" />
		<tag k="natural" v="cape" />
		<tag k="ssr:stedsnr" v="167802" />
	</node>
	<node lat="70.01966388935065" lon="18.548127779382366" id="-56063">
		<tag k="name" v="Småholman" />
		<tag k="place" v="islet" />
		<tag k="ssr:stedsnr" v="170102" />
	</node>
	<node lat="70.02571111350372" lon="18.532533334735376" id="-56064">
		<tag k="name" v="Skjåholmen" />
		<tag k="place" v="islet" />
		<tag k="ssr:stedsnr" v="170103" />
	</node>
	<node lat="69.90374166656154" lon="18.760316662308508" id="-56068">
		<tag k="name" v="Fokkevikneset" />
		<tag k="natural" v="cape" />
		<tag k="ssr:stedsnr" v="170317" />
	</node>
	<node lat="69.88728055717512" lon="18.842322225044708" id="-56072">
		<tag k="fixme" v="consider seamark:type=rock or natural=shoal" />
		<tag k="name" v="Skjåbergskjæret" />
		<tag k="old_name" v="Sjåbergskjæret" />
		<tag k="place" v="islet" />
		<tag k="ssr:stedsnr" v="170472" />
	</node>
	<node lat="69.82033055831687" lon="18.680977781862243" id="-56073">
		<tag k="fixme" v="consider seamark:type=rock or natural=shoal" />
		<tag k="name" v="Kvalen" />
		<tag k="place" v="islet" />
		<tag k="ssr:stedsnr" v="171007" />
	</node>
	<node lat="69.79663055495082" lon="19.20333887747188" id="-56074">
		<tag k="name" v="Svenskerøsnes" />
		<tag k="natural" v="cape" />
		<tag k="ssr:stedsnr" v="171061" />
	</node>
	<node lat="69.48407222186869" lon="19.671741646794246" id="-56077">
		<tag k="name" v="Skognesodden" />
		<tag k="natural" v="cape" />
		<tag k="ssr:stedsnr" v="261016" />
	</node>
	<node lat="69.97010000269911" lon="18.53313331729573" id="-56078">
		<tag k="name" v="Gallerkolla" />
		<tag k="natural" v="bay" />
		<tag k="ssr:stedsnr" v="171117" />
	</node>
	<node lat="69.97117221846769" lon="18.5282166532682" id="-56079">
		<tag k="name" v="Hjellspira" />
		<tag k="natural" v="cape" />
		<tag k="ssr:stedsnr" v="171208" />
	</node>
	<node lat="69.8048861073197" lon="19.047255558161808" id="-56081">
		<tag k="fixme" v="consider seamark:type=rock or natural=shoal" />
		<tag k="name" v="Sandvikskjæret" />
		<tag k="place" v="islet" />
		<tag k="ssr:stedsnr" v="171258" />
	</node>
	<node lat="69.81021111280059" lon="19.041258327316942" id="-56082">
		<tag k="name" v="Johannes-Jones" />
		<tag k="natural" v="cape" />
		<tag k="ssr:stedsnr" v="171260" />
	</node>
	<node lat="70.02189721849705" lon="18.610874994903273" id="-56088">
		<tag k="name" v="Lysgrunnen" />
		<tag k="natural" v="shoal" />
		<tag k="place" v="locality" />
		<tag k="ssr:stedsnr" v="171503" />
	</node>
	<node lat="69.95037777571639" lon="18.858486094924707" id="-56089">
		<tag k="name" v="Okseneset" />
		<tag k="natural" v="cape" />
		<tag k="ssr:stedsnr" v="171504" />
	</node>
	<node lat="69.51554166322579" lon="19.683547222416173" id="-56095">
		<tag k="alt_name" v="Litle Holmegrunnen" />
		<tag k="name" v="Litleholmgrunnen" />
		<tag k="natural" v="shoal" />
		<tag k="place" v="locality" />
		<tag k="ssr:stedsnr" v="261115" />
	</node>
	<node lat="69.90345277426135" lon="18.419394447490667" id="-56096">
		<tag k="fixme" v="consider seamark:type=rock or natural=shoal" />
		<tag k="name" v="Svartoksen" />
		<tag k="place" v="islet" />
		<tag k="ssr:stedsnr" v="261118" />
	</node>
	<node lat="69.97252777433809" lon="18.213755558262974" id="-56097">
		<tag k="name" v="Breibåen" />
		<tag k="natural" v="shoal" />
		<tag k="place" v="locality" />
		<tag k="ssr:stedsnr" v="261061" />
	</node>
	<node lat="69.96796666703335" lon="18.53624999480308" id="-56104">
		<tag k="name" v="Silvågen" />
		<tag k="natural" v="bay" />
		<tag k="ssr:stedsnr" v="261086" />
	</node>
	<node lat="69.91110833492057" lon="18.03603889128496" id="-56108">
		<tag k="alt_name" v="Runda, l" />
		<tag k="name" v="Lille Runda" />
		<tag k="place" v="islet" />
		<tag k="ssr:stedsnr" v="261124" />
	</node>
	<node lat="69.51344166377892" lon="19.0031638733815" id="-56122">
		<tag k="name" v="Åkerneset" />
		<tag k="natural" v="cape" />
		<tag k="ssr:stedsnr" v="173158" />
	</node>
	<node lat="69.76612222058422" lon="18.12163609483449" id="-56130">
		<tag k="name" v="Hersøysundet" />
		<tag k="natural" v="strait" />
		<tag k="ssr:stedsnr" v="262124" />
	</node>
	<node lat="69.54906667047094" lon="19.077444427581227" id="-56131">
		<tag k="name" v="Holman" />
		<tag k="place" v="islet" />
		<tag k="ssr:stedsnr" v="261275" />
	</node>
	<node lat="69.53398889143172" lon="19.223441655911646" id="-56139">
		<tag k="name" v="Eidneset" />
		<tag k="natural" v="cape" />
		<tag k="ssr:stedsnr" v="174425" />
	</node>
	<node lat="69.58550555347054" lon="18.015855556656255" id="-56146">
		<tag k="name" v="Sørvikneset" />
		<tag k="natural" v="cape" />
		<tag k="ssr:stedsnr" v="174372" />
	</node>
	<node lat="69.42169166788734" lon="19.54208332837052" id="-56157">
		<tag k="name" v="Hallineset" />
		<tag k="natural" v="cape" />
		<tag k="ssr:stedsnr" v="174822" />
	</node>
	<node lat="69.58369166956703" lon="19.69259721282284" id="-56161">
		<tag k="name" v="Olderneset" />
		<tag k="natural" v="cape" />
		<tag k="ssr:stedsnr" v="174721" />
	</node>
	<node lat="69.39480555873067" lon="19.499691659058648" id="-56165">
		<tag k="loc_name:se" v="Návsteluokta" />
		<tag k="name" v="Naustbukta" />
		<tag k="name:no" v="Naustbukta" />
		<tag k="natural" v="bay" />
		<tag k="ssr:stedsnr" v="174915" />
	</node>
	<node lat="69.6337861133295" lon="18.02387777538153" id="-56183">
		<tag k="name" v="Guraholmen" />
		<tag k="place" v="islet" />
		<tag k="ssr:stedsnr" v="175444" />
	</node>
	<node lat="69.81965833730351" lon="17.968488888811567" id="-56187">
		<tag k="name" v="Dragbåen" />
		<tag k="natural" v="shoal" />
		<tag k="place" v="locality" />
		<tag k="ssr:stedsnr" v="261419" />
	</node>
	<node lat="69.80942500223296" lon="17.979036107039907" id="-56190">
		<tag k="name" v="Hårbåen" />
		<tag k="natural" v="shoal" />
		<tag k="place" v="locality" />
		<tag k="ssr:stedsnr" v="261423" />
	</node>
	<node lat="69.67233333366651" lon="18.907716649423104" id="-56203">
		<tag k="name" v="Giæverneset" />
		<tag k="natural" v="cape" />
		<tag k="ssr:stedsnr" v="261443" />
	</node>
	<node lat="69.52421666467194" lon="18.26146388823638" id="-56207">
		<tag k="name" v="Engenesodden" />
		<tag k="natural" v="cape" />
		<tag k="ssr:stedsnr" v="261474" />
	</node>
	<node lat="69.73442499735188" lon="18.7043444336438" id="-56208">
		<tag k="name" v="Perneset" />
		<tag k="natural" v="cape" />
		<tag k="ssr:stedsnr" v="261489" />
	</node>
	<node lat="69.73445000071537" lon="18.64108333205044" id="-56209">
		<tag k="name" v="Gårdelvneset" />
		<tag k="natural" v="cape" />
		<tag k="ssr:stedsnr" v="261491" />
	</node>
	<node lat="69.72801388536345" lon="18.952022215494765" id="-56220">
		<tag k="name" v="Finnvikleira" />
		<tag k="natural" v="shoal" />
		<tag k="place" v="locality" />
		<tag k="ssr:stedsnr" v="178006" />
	</node>
	<node lat="69.70299971106101" lon="18.1562666824118" id="-56224">
		<tag k="name" v="Trollbåten" />
		<tag k="natural" v="cape" />
		<tag k="ssr:stedsnr" v="261621" />
	</node>
	<node lat="69.69668055283466" lon="18.06291667126629" id="-56225">
		<tag k="name" v="Eggløysa" />
		<tag k="place" v="island" />
		<tag k="ssr:stedsnr" v="261625" />
	</node>
	<node lat="69.69366035103704" lon="18.359787894490484" id="-56226">
		<tag k="alt_name" v="Trehørningneset, yt" />
		<tag k="name" v="Ytre Trehørningneset" />
		<tag k="natural" v="cape" />
		<tag k="ssr:stedsnr" v="261628" />
	</node>
	<node lat="69.7247249979543" lon="18.21439443031294" id="-56230">
		<tag k="name" v="Skjåvikneset" />
		<tag k="natural" v="cape" />
		<tag k="ssr:stedsnr" v="261635" />
	</node>
	<node lat="69.71234166355539" lon="18.191086100191463" id="-56231">
		<tag k="name" v="Bremnesgrunnen" />
		<tag k="natural" v="shoal" />
		<tag k="place" v="locality" />
		<tag k="ssr:stedsnr" v="261643" />
	</node>
	<node lat="69.64779166737466" lon="18.085538890307067" id="-56232">
		<tag k="name" v="Klubbvika" />
		<tag k="natural" v="bay" />
		<tag k="ssr:stedsnr" v="261670" />
	</node>
	<node lat="69.61739166917693" lon="17.92912777274413" id="-56234">
		<tag k="name" v="Gardsholmen" />
		<tag k="place" v="islet" />
		<tag k="ssr:stedsnr" v="261775" />
	</node>
	<node lat="69.66193055647513" lon="18.08767499743513" id="-56236">
		<tag k="alt_name" v="Røgnesset" />
		<tag k="loc_name" v="Røgneset" />
		<tag k="name" v="Røkneset" />
		<tag k="natural" v="cape" />
		<tag k="ssr:stedsnr" v="261708" />
	</node>
	<node lat="69.7856138932495" lon="18.645016656754844" id="-56241">
		<tag k="name" v="Skjærvika" />
		<tag k="natural" v="bay" />
		<tag k="ssr:stedsnr" v="261879" />
	</node>
	<node lat="69.7471472261639" lon="17.891513875595017" id="-56247">
		<tag k="name" v="Skammelen" />
		<tag k="natural" v="shoal" />
		<tag k="place" v="locality" />
		<tag k="ssr:stedsnr" v="261951" />
	</node>
	<node lat="69.69993332894937" lon="17.846200002187707" id="-56248">
		<tag k="alt_name" v="Årsbåen, yt" />
		<tag k="name" v="Ytre Årsbåen" />
		<tag k="natural" v="shoal" />
		<tag k="place" v="locality" />
		<tag k="ssr:stedsnr" v="261954" />
	</node>
	<node lat="69.69109166350958" lon="17.97224166556756" id="-56255">
		<tag k="name" v="Holmebåan" />
		<tag k="natural" v="shoal" />
		<tag k="place" v="locality" />
		<tag k="ssr:stedsnr" v="261942" />
	</node>
	<node lat="69.858686111605" lon="18.584005552613228" id="-56256">
		<tag k="name" v="Mefjordskallen" />
		<tag k="natural" v="shoal" />
		<tag k="place" v="locality" />
		<tag k="ssr:stedsnr" v="262025" />
	</node>
	<node lat="69.84823889249697" lon="18.309341666365576" id="-56257">
		<tag k="fixme" v="consider seamark:type=rock or natural=shoal" />
		<tag k="name" v="Småseiskjæran" />
		<tag k="place" v="islet" />
		<tag k="ssr:stedsnr" v="262027" />
	</node>
	<node lat="69.85574721973116" lon="18.31295555997081" id="-56258">
		<tag k="name" v="Holmetaren" />
		<tag k="natural" v="shoal" />
		<tag k="place" v="locality" />
		<tag k="ssr:stedsnr" v="262034" />
	</node>
	<node lat="69.85759166583607" lon="18.524536103789384" id="-56259">
		<tag k="name" v="Sandvika" />
		<tag k="natural" v="bay" />
		<tag k="ssr:stedsnr" v="262041" />
	</node>
	<node lat="69.82336944243485" lon="18.062766665198673" id="-56269">
		<tag k="name" v="Nottaren" />
		<tag k="natural" v="shoal" />
		<tag k="place" v="locality" />
		<tag k="ssr:stedsnr" v="262191" />
	</node>
	<node lat="69.83344057266925" lon="18.592103548971775" id="-56270">
		<tag k="name" v="Sandnes" />
		<tag k="natural" v="cape" />
		<tag k="ssr:stedsnr" v="262197" />
	</node>
	<node lat="69.81107499940052" lon="18.067633322440425" id="-56271">
		<tag k="name" v="Leitbakken" />
		<tag k="natural" v="shoal" />
		<tag k="place" v="locality" />
		<tag k="ssr:stedsnr" v="262213" />
	</node>
	<node lat="69.79459444407469" lon="18.144813886882197" id="-56273">
		<tag k="name" v="Korsholmen" />
		<tag k="place" v="islet" />
		<tag k="ssr:stedsnr" v="262228" />
	</node>
	<node lat="69.78525555455121" lon="18.44641387817282" id="-56274">
		<tag k="name" v="Borgan" />
		<tag k="place" v="islet" />
		<tag k="ssr:stedsnr" v="262241" />
	</node>
	<node lat="70.02235832881796" lon="18.354424999689954" id="-56277">
		<tag k="alt_name" v="Rebbåen, nordre;Nord Rebbåan" />
		<tag k="name" v="Nordre Rebbåen" />
		<tag k="natural" v="shoal" />
		<tag k="place" v="locality" />
		<tag k="ssr:stedsnr" v="262323" />
	</node>
	<node lat="70.00246388596526" lon="18.309449989505524" id="-56278">
		<tag k="alt_name" v="Burskjerflua, vestre" />
		<tag k="name" v="Vestre Burskjærflua" />
		<tag k="natural" v="shoal" />
		<tag k="place" v="locality" />
		<tag k="ssr:stedsnr" v="262328" />
	</node>
	<node lat="70.01222499847786" lon="18.589661118611303" id="-56279">
		<tag k="alt_name" v="Vilhelmholmen" />
		<tag k="name" v="Villomsholmen" />
		<tag k="place" v="islet" />
		<tag k="ssr:stedsnr" v="262331" />
	</node>
	<node lat="70.01151111106462" lon="18.563538885061334" id="-56280">
		<tag k="name" v="Hysholmen" />
		<tag k="place" v="islet" />
		<tag k="ssr:stedsnr" v="262333" />
	</node>
	<node lat="69.88122777545645" lon="17.932825001404186" id="-56281">
		<tag k="name" v="Saltbåen" />
		<tag k="natural" v="shoal" />
		<tag k="place" v="locality" />
		<tag k="ssr:stedsnr" v="262419" />
	</node>
	<node lat="69.80743333412305" lon="18.73195832811605" id="-56282">
		<tag k="name" v="Rekvika" />
		<tag k="natural" v="bay" />
		<tag k="ssr:stedsnr" v="262423" />
	</node>
	<node lat="69.85682777773613" lon="17.907774986511647" id="-56283">
		<tag k="name" v="Eistebåtåga" />
		<tag k="natural" v="shoal" />
		<tag k="place" v="locality" />
		<tag k="ssr:stedsnr" v="262424" />
	</node>
	<node lat="69.93362499557864" lon="18.142925005525893" id="-56285">
		<tag k="name" v="Leitaren" />
		<tag k="natural" v="shoal" />
		<tag k="place" v="locality" />
		<tag k="ssr:stedsnr" v="262430" />
	</node>
	<node lat="70.0103055554085" lon="18.746722220997096" id="-56287">
		<tag k="name" v="Skogvika" />
		<tag k="natural" v="bay" />
		<tag k="ssr:stedsnr" v="262663" />
	</node>
	<node lat="70.00359444012344" lon="18.741102777009303" id="-56288">
		<tag k="name" v="Vedvika" />
		<tag k="natural" v="bay" />
		<tag k="ssr:stedsnr" v="262666" />
	</node>
	<node lat="69.77576389354982" lon="19.353061098340007" id="-56292">
		<tag k="alt_name" v="Limonesset" />
		<tag k="name" v="Limonnes" />
		<tag k="natural" v="cape" />
		<tag k="ssr:stedsnr" v="262705" />
	</node>
	<node lat="70.00847499747506" lon="18.627338872579045" id="-56294">
		<tag k="fixme" v="consider seamark:type=rock or natural=shoal" />
		<tag k="name" v="Gåsholmsteinan" />
		<tag k="place" v="islet" />
		<tag k="ssr:stedsnr" v="262688" />
	</node>
	<node lat="69.95549999752816" lon="18.53159721669966" id="-56302">
		<tag k="name" v="Langholmen" />
		<tag k="place" v="islet" />
		<tag k="ssr:stedsnr" v="200103" />
	</node>
	<node lat="69.97819166784562" lon="18.492872211891743" id="-56304">
		<tag k="name" v="Hansholmen" />
		<tag k="place" v="islet" />
		<tag k="ssr:stedsnr" v="200066" />
	</node>
	<node lat="69.54956944086348" lon="18.728269438956946" id="-56305">
		<tag k="name" v="Ryøya - Rávdnjesuolu" />
		<tag k="name:no" v="Ryøya" />
		<tag k="name:se" v="Rávdnjesuolu" />
		<tag k="place" v="island" />
		<tag k="ssr:stedsnr" v="200263" />
	</node>
	<node lat="69.53755833358552" lon="18.9813472242758" id="-56308">
		<tag k="name" v="Sandvika - Čuoikaluokta" />
		<tag k="name:no" v="Sandvika" />
		<tag k="name:se" v="Čuoikaluokta" />
		<tag k="natural" v="bay" />
		<tag k="ssr:stedsnr" v="200305" />
	</node>
	<node lat="69.89573611026542" lon="18.808277779713283" id="-56311">
		<tag k="fixme" v="consider seamark:type=rock or natural=shoal" />
		<tag k="name" v="Skjellsteinen" />
		<tag k="place" v="islet" />
		<tag k="ssr:stedsnr" v="267162" />
	</node>
	<node lat="69.43534166687522" lon="19.610838871522407" id="-56315">
		<tag k="fixme" v="consider seamark:type=rock or natural=shoal" />
		<tag k="name" v="Lakselvnesskjæret" />
		<tag k="place" v="islet" />
		<tag k="ssr:stedsnr" v="267281" />
	</node>
	<node lat="69.44713055498177" lon="19.59549997720737" id="-56316">
		<tag k="name" v="Brenneset - Buollannjárga" />
		<tag k="name:no" v="Brenneset" />
		<tag k="name:se" v="Buollannjárga" />
		<tag k="natural" v="cape" />
		<tag k="ssr:stedsnr" v="267285" />
	</node>
	<node lat="69.48858889261565" lon="19.705863871420423" id="-56317">
		<tag k="name" v="Storgrunnen" />
		<tag k="natural" v="shoal" />
		<tag k="place" v="locality" />
		<tag k="ssr:stedsnr" v="267289" />
	</node>
	<node lat="69.87833055602313" lon="18.733113873523497" id="-56319">
		<tag k="fixme" v="consider seamark:type=rock or natural=shoal" />
		<tag k="name" v="Skjoldholmen" />
		<tag k="place" v="islet" />
		<tag k="ssr:stedsnr" v="200761" />
	</node>
	<node lat="69.78293055238095" lon="19.04378889375179" id="-56321">
		<tag k="alt_name" v="Stefanes, store" />
		<tag k="fixme" v="multiple name tags, choose one and add the other to alt_name" />
		<tag k="name" v="Indre Steffaneset;Store Stefanes" />
		<tag k="natural" v="cape" />
		<tag k="ssr:stedsnr" v="200909" />
	</node>
	<node lat="69.77951111589407" lon="18.641827771348982" id="-56323">
		<tag k="fixme" v="multiple name tags, choose one and add the other to alt_name" />
		<tag k="name" v="Bårdsvikneset, yt;Bårdsvikneset" />
		<tag k="natural" v="cape" />
		<tag k="ssr:stedsnr" v="200900" />
	</node>
	<node lat="69.88901666560253" lon="18.576327764755902" id="-56324">
		<tag k="fixme" v="consider seamark:type=rock or natural=shoal" />
		<tag k="name" v="Kobbeskinnskjæret" />
		<tag k="place" v="islet" />
		<tag k="ssr:stedsnr" v="201002" />
	</node>
	<node lat="69.87574722230345" lon="18.53099998658074" id="-56325">
		<tag k="fixme" v="multiple name tags, choose one and add the other to alt_name; consider seamark:type=rock or natural=shoal" />
		<tag k="name" v="Bededagskjæret;Bedagskjeret" />
		<tag k="place" v="islet" />
		<tag k="ssr:stedsnr" v="201007" />
	</node>
	<node lat="69.83883055760364" lon="18.35065832806965" id="-56326">
		<tag k="fixme" v="consider seamark:type=rock or natural=shoal" />
		<tag k="name" v="Langskjæran" />
		<tag k="place" v="islet" />
		<tag k="ssr:stedsnr" v="201046" />
	</node>
	<node lat="69.83870555647722" lon="18.247419439132457" id="-56327">
		<tag k="name" v="Dragtaren" />
		<tag k="natural" v="shoal" />
		<tag k="place" v="locality" />
		<tag k="ssr:stedsnr" v="201050" />
	</node>
	<node lat="69.98569722117215" lon="18.507044439165714" id="-56328">
		<tag k="name" v="Gjøssøysundet" />
		<tag k="natural" v="strait" />
		<tag k="ssr:stedsnr" v="201054" />
	</node>
	<node lat="69.51806666858653" lon="19.635441649213348" id="-56329">
		<tag k="name" v="Klubben" />
		<tag k="natural" v="cape" />
		<tag k="ssr:stedsnr" v="201097" />
	</node>
	<node lat="69.91361944438763" lon="18.55813056289628" id="-56334">
		<tag k="name" v="Stabben" />
		<tag k="natural" v="shoal" />
		<tag k="place" v="locality" />
		<tag k="ssr:stedsnr" v="201104" />
	</node>
	<node lat="69.98795277348839" lon="18.71198055184941" id="-56335">
		<tag k="alt_name" v="Havnebukt" />
		<tag k="name" v="Hamnebukta" />
		<tag k="natural" v="bay" />
		<tag k="ssr:stedsnr" v="201153" />
	</node>
	<node lat="69.62175277965194" lon="17.887230540873045" id="-56336">
		<tag k="name" v="Storspira" />
		<tag k="natural" v="cape" />
		<tag k="ssr:stedsnr" v="267272" />
	</node>
	<node lat="69.62661388495576" lon="17.997544441890803" id="-56337">
		<tag k="name" v="Hundholmen" />
		<tag k="place" v="islet" />
		<tag k="ssr:stedsnr" v="267276" />
	</node>
	<node lat="70.00118888580865" lon="18.732477778498737" id="-56339">
		<tag k="name" v="Bjørnvika" />
		<tag k="natural" v="bay" />
		<tag k="ssr:stedsnr" v="201617" />
	</node>
	<node lat="69.81158611053823" lon="19.639261099345877" id="-56342">
		<tag k="name" v="Stallvika - Stállesluokta" />
		<tag k="name:no" v="Stallvika" />
		<tag k="name:se" v="Stállesluokta" />
		<tag k="natural" v="bay" />
		<tag k="ssr:stedsnr" v="201702" />
	</node>
	<node lat="69.82497222314463" lon="18.40054443671132" id="-56345">
		<tag k="name" v="Kjeøya" />
		<tag k="place" v="island" />
		<tag k="ssr:stedsnr" v="202205" />
	</node>
	<node lat="69.82824444747439" lon="18.607058327206893" id="-56346">
		<tag k="alt_name" v="Litlesundskjeret;Lillesundskjær" />
		<tag k="fixme" v="consider seamark:type=rock or natural=shoal" />
		<tag k="name" v="Litlesundskjæret" />
		<tag k="place" v="islet" />
		<tag k="ssr:stedsnr" v="202213" />
	</node>
	<node lat="69.74440556006695" lon="19.096961100775655" id="-56348">
		<tag k="name" v="Lauvvollsgrunnen" />
		<tag k="natural" v="shoal" />
		<tag k="place" v="locality" />
		<tag k="ssr:stedsnr" v="267686" />
	</node>
	<node lat="69.78111110841763" lon="19.235522214090704" id="-56350">
		<tag k="name" v="Slaggrunnen" />
		<tag k="natural" v="shoal" />
		<tag k="place" v="locality" />
		<tag k="ssr:stedsnr" v="268542" />
	</node>
	<node lat="69.52031111507404" lon="19.684991664424963" id="-56352">
		<tag k="name" v="Lysgrunnen" />
		<tag k="natural" v="shoal" />
		<tag k="place" v="locality" />
		<tag k="ssr:stedsnr" v="207332" />
	</node>
	<node lat="69.61953055500474" lon="19.78440276539993" id="-56353">
		<tag k="name" v="Hjellnesgrunnen" />
		<tag k="natural" v="bay" />
		<tag k="ssr:stedsnr" v="207341" />
	</node>
	<node lat="69.68259999837903" lon="18.855841662259188" id="-56354">
		<tag k="fixme" v="multiple name tags, choose one and add the other to alt_name; consider seamark:type=rock or natural=shoal" />
		<tag k="name" v="Storskjæret;Selnesskjæret" />
		<tag k="place" v="islet" />
		<tag k="ssr:stedsnr" v="207631" />
	</node>
	<node lat="69.51207777646171" lon="18.994661109407808" id="-56355">
		<tag k="name" v="Øyra" />
		<tag k="natural" v="shoal" />
		<tag k="place" v="locality" />
		<tag k="ssr:stedsnr" v="207958" />
	</node>
	<node lat="69.78953610779125" lon="19.721569432690785" id="-56356">
		<tag k="name" v="Nakkegrunnlandet" />
		<tag k="natural" v="beach" />
		<tag k="ssr:stedsnr" v="208518" />
	</node>
	<node lat="69.51373888552683" lon="19.71401387213617" id="-56359">
		<tag k="name" v="Vågen - Váhki" />
		<tag k="name:no" v="Vågen" />
		<tag k="name:se" v="Váhki" />
		<tag k="natural" v="bay" />
		<tag k="ssr:stedsnr" v="209042" />
	</node>
	<node lat="69.67229444621341" lon="19.034963871070378" id="-56362">
		<tag k="name" v="Lille-Steinneset" />
		<tag k="natural" v="cape" />
		<tag k="ssr:stedsnr" v="213609" />
	</node>
	<node lat="69.72551666949137" lon="19.094727774648955" id="-56363">
		<tag k="name" v="Lilleneset" />
		<tag k="natural" v="cape" />
		<tag k="ssr:stedsnr" v="213610" />
	</node>
	<node lat="69.6839277740406" lon="18.708980559825964" id="-56373">
		<tag k="name" v="Ørnnesbukta" />
		<tag k="natural" v="bay" />
		<tag k="ssr:stedsnr" v="225886" />
	</node>
	<node lat="69.89812777753463" lon="18.638180563855204" id="-56377">
		<tag k="name" v="Yttertaren" />
		<tag k="natural" v="shoal" />
		<tag k="place" v="locality" />
		<tag k="ssr:stedsnr" v="228401" />
	</node>
	<node lat="69.87359836513603" lon="18.47123277096138" id="-56378">
		<tag k="name" v="Rognholmen" />
		<tag k="place" v="islet" />
		<tag k="ssr:stedsnr" v="228884" />
	</node>
	<node lat="69.56636666847265" lon="19.687086095361497" id="-56379">
		<tag k="name" v="Røyskattneset" />
		<tag k="natural" v="cape" />
		<tag k="ssr:stedsnr" v="229580" />
	</node>
	<node lat="69.50662499705055" lon="19.699297213984703" id="-56381">
		<tag k="name" v="Valen" />
		<tag k="natural" v="strait" />
		<tag k="ssr:stedsnr" v="229491" />
	</node>
	<node lat="69.93215833756041" lon="18.683541663808906" id="-56383">
		<tag k="bay" v="fjord" />
		<tag k="name" v="Skarsteinfjorden" />
		<tag k="natural" v="bay" />
		<tag k="ssr:stedsnr" v="231043" />
	</node>
	<node lat="69.98700277442889" lon="18.517408327223993" id="-56393">
		<tag k="name" v="Johnsholmen" />
		<tag k="place" v="islet" />
		<tag k="ssr:stedsnr" v="231278" />
	</node>
	<node lat="69.98341666662266" lon="18.49834444722366" id="-56394">
		<tag k="name" v="Tennholman" />
		<tag k="place" v="islet" />
		<tag k="ssr:stedsnr" v="231279" />
	</node>
	<node lat="69.98405277883863" lon="18.50086111724669" id="-56395">
		<tag k="fixme" v="consider seamark:type=rock or natural=shoal" />
		<tag k="name" v="Gjøssøyskjæret" />
		<tag k="place" v="islet" />
		<tag k="ssr:stedsnr" v="231280" />
	</node>
	<node lat="69.94480555443126" lon="18.82663888496383" id="-56396">
		<tag k="fixme" v="consider seamark:type=rock or natural=shoal" />
		<tag k="name" v="Storsteinen" />
		<tag k="place" v="islet" />
		<tag k="ssr:stedsnr" v="231433" />
	</node>
	<node lat="69.78688611212613" lon="18.76133333953148" id="-56397">
		<tag k="name" v="Sommargamneset" />
		<tag k="natural" v="cape" />
		<tag k="ssr:stedsnr" v="231475" />
	</node>
	<node lat="69.96006111209864" lon="18.763780540039185" id="-56398">
		<tag k="fixme" v="consider seamark:type=rock or natural=shoal" />
		<tag k="name" v="Moltebærskjæret" />
		<tag k="place" v="islet" />
		<tag k="ssr:stedsnr" v="231490" />
	</node>
	<node lat="70.01852777788555" lon="18.67837777533955" id="-56402">
		<tag k="name" v="Lillesandvika" />
		<tag k="natural" v="bay" />
		<tag k="ssr:stedsnr" v="231530" />
	</node>
	<node lat="70.00358055289814" lon="18.665594430893215" id="-56403">
		<tag k="name" v="Vedvika" />
		<tag k="natural" v="bay" />
		<tag k="ssr:stedsnr" v="231517" />
	</node>
	<node lat="69.55893055765667" lon="18.94613888470133" id="-56408">
		<tag k="name" v="Bergneset" />
		<tag k="natural" v="cape" />
		<tag k="ssr:stedsnr" v="234191" />
	</node>
	<node lat="69.56087500369412" lon="18.942691653434522" id="-56411">
		<tag k="fixme" v="consider seamark:type=rock or natural=shoal" />
		<tag k="name" v="Skjæret" />
		<tag k="place" v="islet" />
		<tag k="ssr:stedsnr" v="234437" />
	</node>
	<node lat="69.79037500112663" lon="19.474822202278087" id="-56421">
		<tag k="name" v="Buskeneset" />
		<tag k="natural" v="cape" />
		<tag k="ssr:stedsnr" v="235251" />
	</node>
	<node lat="69.64061666971007" lon="18.027511107293066" id="-56428">
		<tag k="fixme" v="consider seamark:type=rock or natural=shoal" />
		<tag k="name" v="Klubben Nordre" />
		<tag k="place" v="islet" />
		<tag k="ssr:stedsnr" v="235300" />
	</node>
	<node lat="69.6356833351232" lon="18.02830276487374" id="-56429">
		<tag k="name" v="Treholmen Nordre" />
		<tag k="place" v="islet" />
		<tag k="ssr:stedsnr" v="235489" />
	</node>
	<node lat="69.42148055156504" lon="19.569483320912884" id="-56439">
		<tag k="name" v="Hans-Hansaneset" />
		<tag k="natural" v="cape" />
		<tag k="ssr:stedsnr" v="235797" />
	</node>
	<node lat="69.64068888903624" lon="19.738502769873584" id="-56449">
		<tag k="name" v="Likhellarneset" />
		<tag k="natural" v="cape" />
		<tag k="ssr:stedsnr" v="236209" />
	</node>
	<node lat="69.53138611506581" lon="19.7381833161087" id="-56453">
		<tag k="name" v="Steinholmen - Geargelásis" />
		<tag k="name:no" v="Steinholmen" />
		<tag k="name:se" v="Geargelásis" />
		<tag k="place" v="islet" />
		<tag k="ssr:stedsnr" v="450336" />
	</node>
	<node lat="69.49076111067285" lon="18.841363878763676" id="-56459">
		<tag k="name" v="Nesodden" />
		<tag k="natural" v="cape" />
		<tag k="ssr:stedsnr" v="236310" />
	</node>
</osm>
