<?xml version="1.0" encoding="UTF-8"?>
<osm version="0.6" generator="osmapis">
	<node lat="69.8888333295964" lon="17.932297227618662" id="-36144">
		<tag k="name" v="Hundbåen" />
		<tag k="natural" v="shoal" />
		<tag k="place" v="locality" />
		<tag k="ssr:stedsnr" v="229840" />
	</node>
	<node lat="69.88361388599854" lon="18.891886095917087" id="-36145">
		<tag k="name" v="Nedre Hollvann" />
		<tag k="natural" v="water" />
		<tag k="ssr:stedsnr" v="230156" />
	</node>
	<node lat="69.7400444420961" lon="19.004469442777932" id="-36146">
		<tag k="name" v="Finneshausen" />
		<tag k="natural" v="slope" />
		<tag k="place" v="locality" />
		<tag k="ssr:stedsnr" v="230323" />
	</node>
	<node lat="69.74612778133701" lon="19.023422208408558" id="-36147">
		<tag k="name" v="Røyrneset" />
		<tag k="natural" v="cape" />
		<tag k="ssr:stedsnr" v="230327" />
	</node>
	<node lat="69.8500722194936" lon="18.64532221950766" id="-36148">
		<tag k="name" v="Storsteinvika" />
		<tag k="natural" v="bay" />
		<tag k="ssr:stedsnr" v="231014" />
	</node>
	<node lat="69.83423332942878" lon="18.686755545488193" id="-36149">
		<tag k="name" v="Laukvikelva" />
		<tag k="ssr:stedsnr" v="231021" />
		<tag k="waterway" v="stream" />
	</node>
	<node lat="69.92240000255026" lon="18.709433342789126" id="-36150">
		<tag k="name" v="Trollbåthaugen" />
		<tag k="natural" v="hill" />
		<tag k="place" v="locality" />
		<tag k="ssr:stedsnr" v="231044" />
	</node>
	<node lat="69.79073333191938" lon="19.166322225022814" id="-36151">
		<tag k="name" v="Storelva" />
		<tag k="ssr:stedsnr" v="231199" />
		<tag k="waterway" v="stream" />
	</node>
	<node lat="69.98947778107218" lon="18.67728610047693" id="-36152">
		<tag k="fixme" v="consider seamark:type=rock or natural=shoal" />
		<tag k="name" v="Sløykskjæran" />
		<tag k="place" v="islet" />
		<tag k="ssr:stedsnr" v="231062" />
	</node>
	<node lat="70.0054194417959" lon="18.675038877965466" id="-36153">
		<tag k="fixme" v="consider natural=peak for the most distinct mountains in the district" />
		<tag k="name" v="Vetefjellet" />
		<tag k="natural" v="hill" />
		<tag k="place" v="locality" />
		<tag k="ssr:stedsnr" v="231065" />
	</node>
	<node lat="69.99000555774961" lon="18.71543056296456" id="-36154">
		<tag k="name" v="Kristikjosen" />
		<tag k="natural" v="bay" />
		<tag k="ssr:stedsnr" v="231075" />
	</node>
	<node lat="69.96504722505209" lon="18.515619442986065" id="-36155">
		<tag k="name" v="Misjonsholmen" />
		<tag k="place" v="islet" />
		<tag k="ssr:stedsnr" v="231156" />
	</node>
	<node lat="69.96827777828888" lon="18.508586108179195" id="-36156">
		<tag k="name" v="Skorpholla" />
		<tag k="natural" v="valley" />
		<tag k="place" v="locality" />
		<tag k="ssr:stedsnr" v="231159" />
	</node>
	<node lat="69.8624638855666" lon="18.938144438879537" id="-36157">
		<tag k="fixme" v="consider natural=peak for the most distinct mountains in the district" />
		<tag k="name" v="Stortuva" />
		<tag k="natural" v="hill" />
		<tag k="place" v="locality" />
		<tag k="ssr:stedsnr" v="231235" />
	</node>
	<node lat="69.8514027791882" lon="18.94055556294996" id="-36158">
		<tag k="name" v="Hestevika" />
		<tag k="natural" v="bay" />
		<tag k="ssr:stedsnr" v="231248" />
	</node>
	<node lat="69.83691944475815" lon="18.904186117346455" id="-36159">
		<tag k="name" v="Risnes" />
		<tag k="natural" v="cape" />
		<tag k="ssr:stedsnr" v="231250" />
	</node>
	<node lat="69.86396389230262" lon="18.959116669334243" id="-36160">
		<tag k="name" v="Tindvannet" />
		<tag k="natural" v="water" />
		<tag k="ssr:stedsnr" v="231221" />
	</node>
	<node lat="69.82132499795344" lon="18.46385278208972" id="-36161">
		<tag k="name" v="Kvitbergan" />
		<tag k="natural" v="hill" />
		<tag k="place" v="locality" />
		<tag k="ssr:stedsnr" v="231222" />
	</node>
	<node lat="69.8700500032321" lon="18.90718333824823" id="-36162">
		<tag k="name" v="Klauvryggen" />
		<tag k="natural" v="ridge" />
		<tag k="place" v="locality" />
		<tag k="ssr:stedsnr" v="231223" />
	</node>
	<node lat="69.86942222068863" lon="18.891877764754888" id="-36163">
		<tag k="name" v="Per-Olsabukta" />
		<tag k="natural" v="bay" />
		<tag k="ssr:stedsnr" v="231226" />
	</node>
	<node lat="69.8745305585559" lon="18.922683320535644" id="-36164">
		<tag k="name" v="Storhaughøgda" />
		<tag k="natural" v="hill" />
		<tag k="place" v="locality" />
		<tag k="ssr:stedsnr" v="231227" />
	</node>
	<node lat="69.9754138874361" lon="18.510091655455135" id="-36165">
		<tag k="name" v="Saukjeila" />
		<tag k="natural" v="bay" />
		<tag k="ssr:stedsnr" v="231262" />
	</node>
	<node lat="69.98398888623268" lon="18.525886115260324" id="-36166">
		<tag k="name" v="Beretholmen" />
		<tag k="place" v="islet" />
		<tag k="ssr:stedsnr" v="231268" />
	</node>
	<node lat="69.81390278135324" lon="19.04660278284881" id="-36167">
		<tag k="name" v="Rødbergaksla" />
		<tag k="place" v="locality" />
		<tag k="ssr:stedsnr" v="231328" />
	</node>
	<node lat="69.89849167072835" lon="18.84732499168622" id="-36168">
		<tag k="name" v="Lilleskarvannet" />
		<tag k="natural" v="water" />
		<tag k="ssr:stedsnr" v="231324" />
	</node>
	<node lat="69.79807500114585" lon="19.00139444803084" id="-36169">
		<tag k="name" v="Nattmålsberget" />
		<tag k="natural" v="hill" />
		<tag k="place" v="locality" />
		<tag k="ssr:stedsnr" v="231327" />
	</node>
	<node lat="69.82121388720981" lon="19.0223555595909" id="-36170">
		<tag k="name" v="Solvang" />
		<tag k="place" v="isolated_dwelling" />
		<tag k="ssr:stedsnr" v="231331" />
	</node>
	<node lat="69.9511638844514" lon="18.850691670939018" id="-36171">
		<tag k="name" v="Øyhamnklubben" />
		<tag k="place" v="islet" />
		<tag k="ssr:stedsnr" v="231438" />
	</node>
	<node lat="69.92629166478119" lon="18.82247498489597" id="-36172">
		<tag k="name" v="Øvre Laksvann" />
		<tag k="natural" v="water" />
		<tag k="ssr:stedsnr" v="231445" />
	</node>
	<node lat="69.80501666886921" lon="18.75751111954869" id="-36173">
		<tag k="name" v="Krøkebærhaugen" />
		<tag k="natural" v="hill" />
		<tag k="place" v="locality" />
		<tag k="ssr:stedsnr" v="231397" />
	</node>
	<node lat="69.96562222404233" lon="18.811363873329398" id="-36174">
		<tag k="name" v="Båan" />
		<tag k="place" v="locality" />
		<tag k="seamark:type" v="rock" />
		<tag k="ssr:stedsnr" v="231414" />
	</node>
	<node lat="69.89155277514146" lon="18.866994438847705" id="-36175">
		<tag k="name" v="Skognes" />
		<tag k="natural" v="cape" />
		<tag k="ssr:stedsnr" v="231506" />
	</node>
	<node lat="70.03590832985826" lon="18.708188882237472" id="-36176">
		<tag k="name" v="Skavdalen" />
		<tag k="natural" v="valley" />
		<tag k="place" v="locality" />
		<tag k="ssr:stedsnr" v="231541" />
	</node>
	<node lat="69.95484722095769" lon="18.82308609374406" id="-36177">
		<tag k="fixme" v="consider seamark:type=rock or natural=shoal" />
		<tag k="name" v="Skarvskjæret" />
		<tag k="place" v="islet" />
		<tag k="ssr:stedsnr" v="231544" />
	</node>
	<node lat="70.03176389049158" lon="18.69937499854598" id="-36178">
		<tag k="fixme" v="consider seamark:type=rock or natural=shoal" />
		<tag k="name" v="Kobbesteinen" />
		<tag k="place" v="islet" />
		<tag k="ssr:stedsnr" v="231565" />
	</node>
	<node lat="70.02982500149679" lon="18.642833323930816" id="-36179">
		<tag k="name" v="Styret" />
		<tag k="place" v="islet" />
		<tag k="ssr:stedsnr" v="231571" />
	</node>
	<node lat="69.80213055180221" lon="19.140277761856677" id="-36180">
		<tag k="name" v="Bruna" />
		<tag k="natural" v="slope" />
		<tag k="place" v="locality" />
		<tag k="ssr:stedsnr" v="232065" />
	</node>
	<node lat="69.80032500494899" lon="19.155491651568063" id="-36181">
		<tag k="name" v="Storelva" />
		<tag k="ssr:stedsnr" v="232069" />
		<tag k="waterway" v="stream" />
	</node>
	<node lat="69.46369999902655" lon="19.492858334746284" id="-36182">
		<tag k="name" v="Sennedalelva - Suoidnevággejohka" />
		<tag k="name:no" v="Sennedalelva" />
		<tag k="name:se" v="Suoidnevággejohka" />
		<tag k="ssr:stedsnr" v="18017" />
		<tag k="waterway" v="river" />
	</node>
	<node lat="69.65816666793047" lon="19.684202764711216" id="-36183">
		<tag k="name" v="Breivikneset - Guohcamohnjárga" />
		<tag k="name:no" v="Breivikneset" />
		<tag k="name:se" v="Guohcamohnjárga" />
		<tag k="natural" v="cape" />
		<tag k="ssr:stedsnr" v="18203" />
	</node>
	<node lat="69.4126416677725" lon="19.48767775847301" id="-36184">
		<tag k="fixme" v="consider natural=peak for the most distinct mountains in the district" />
		<tag k="name" v="Sieidi" />
		<tag k="name:se" v="Sieidi" />
		<tag k="natural" v="hill" />
		<tag k="place" v="locality" />
		<tag k="ssr:stedsnr" v="18214" />
	</node>
	<node lat="69.52871110820787" lon="18.82789722287874" id="-36185">
		<tag k="name" v="Storvatnet" />
		<tag k="natural" v="water" />
		<tag k="ssr:stedsnr" v="18272" />
	</node>
	<node lat="69.5134361088037" lon="18.66785554335394" id="-36186">
		<tag k="name" v="Bentsjordelva" />
		<tag k="ssr:stedsnr" v="18281" />
		<tag k="waterway" v="river" />
	</node>
	<node lat="69.51061666979449" lon="18.868175006333452" id="-36187">
		<tag k="name" v="Kuvika" />
		<tag k="place" v="farm" />
		<tag k="ssr:stedsnr" v="18282" />
	</node>
	<node lat="69.65125800135932" lon="18.809716453982382" id="-36188">
		<tag k="alt_name" v="Håkøy" />
		<tag k="fixme" v="consider place=hamlet" />
		<tag k="name" v="Håkøya" />
		<tag k="place" v="farm" />
		<tag k="ssr:stedsnr" v="18285" />
	</node>
	<node lat="69.6305861098248" lon="19.037338893013178" id="-36189">
		<tag k="name" v="Tromsdalselva - Romssaváhjohka" />
		<tag k="name:no" v="Tromsdalselva" />
		<tag k="name:se" v="Romssaváhjohka" />
		<tag k="ssr:stedsnr" v="18299" />
		<tag k="waterway" v="river" />
	</node>
	<node lat="69.54085555175313" lon="18.364572213436652" id="-36190">
		<tag k="name" v="Tverrelva" />
		<tag k="ssr:stedsnr" v="18412" />
		<tag k="waterway" v="stream" />
	</node>
	<node lat="69.5433555569649" lon="18.336477777238677" id="-36191">
		<tag k="alt_name" v="Bakklandvarden" />
		<tag k="name" v="Bakklandsvarden" />
		<tag k="natural" v="hill" />
		<tag k="place" v="locality" />
		<tag k="ssr:stedsnr" v="18414" />
	</node>
	<node lat="69.64362038260285" lon="19.53013987198919" id="-36192">
		<tag k="name" v="Nygard" />
		<tag k="place" v="farm" />
		<tag k="ssr:stedsnr" v="18147" />
	</node>
	<node lat="69.53601110843071" lon="18.374916650162728" id="-36193">
		<tag k="name" v="Skoglund" />
		<tag k="place" v="isolated_dwelling" />
		<tag k="ssr:stedsnr" v="18399" />
	</node>
	<node lat="69.63521944788516" lon="18.517308332367115" id="-36194">
		<tag k="fixme" v="consider natural=peak for the most distinct mountains in the district" />
		<tag k="name" v="Straumsaksla" />
		<tag k="natural" v="hill" />
		<tag k="place" v="locality" />
		<tag k="ssr:stedsnr" v="18504" />
	</node>
	<node lat="69.63165277886148" lon="18.153202780085408" id="-36195">
		<tag k="name" v="Otervika" />
		<tag k="natural" v="bay" />
		<tag k="ssr:stedsnr" v="18513" />
	</node>
	<node lat="69.63371111189433" lon="18.154497224835016" id="-36196">
		<tag k="name" v="Oterneset" />
		<tag k="natural" v="cape" />
		<tag k="ssr:stedsnr" v="18514" />
	</node>
	<node lat="69.61458610767407" lon="18.05645554817711" id="-36197">
		<tag k="fixme" v="consider natural=peak for the most distinct mountains in the district" />
		<tag k="name" v="Ørnfløya" />
		<tag k="natural" v="hill" />
		<tag k="place" v="locality" />
		<tag k="ssr:stedsnr" v="18497" />
	</node>
	<node lat="69.70819721912648" lon="18.197858330230527" id="-36198">
		<tag k="name" v="Keilneset" />
		<tag k="natural" v="cape" />
		<tag k="ssr:stedsnr" v="18608" />
	</node>
	<node lat="69.66700000127058" lon="18.32749442963135" id="-36199">
		<tag k="name" v="Blåskreen" />
		<tag k="natural" v="valley" />
		<tag k="place" v="locality" />
		<tag k="ssr:stedsnr" v="18647" />
	</node>
	<node lat="69.65553332902115" lon="18.165763896525302" id="-36200">
		<tag k="name" v="Bøneset" />
		<tag k="natural" v="cape" />
		<tag k="ssr:stedsnr" v="18649" />
	</node>
	<node lat="69.69427777743007" lon="18.620549993420724" id="-36201">
		<tag k="fixme" v="consider place=hamlet" />
		<tag k="name" v="Ersfjordbotn" />
		<tag k="old_name" v="Ersfjord" />
		<tag k="place" v="village" />
		<tag k="ssr:stedsnr" v="18652" />
	</node>
	<node lat="69.66933888976531" lon="18.16020276210701" id="-36202">
		<tag k="name" v="Skaghalsvatnet" />
		<tag k="place" v="locality" />
		<tag k="ssr:stedsnr" v="18656" />
	</node>
	<node lat="69.6722722260213" lon="18.235516674296697" id="-36203">
		<tag k="alt_name" v="Litlevatnet" />
		<tag k="name" v="Lillevatn" />
		<tag k="natural" v="water" />
		<tag k="ssr:stedsnr" v="18657" />
	</node>
	<node lat="69.68101666772918" lon="18.027494453863206" id="-36204">
		<tag k="name" v="Skagnesgrunnan" />
		<tag k="natural" v="shoal" />
		<tag k="place" v="locality" />
		<tag k="ssr:stedsnr" v="18662" />
	</node>
</osm>
