<?xml version="1.0" encoding="UTF-8"?>
<osm generator="osmapis" version="0.6">
	<node id="-593920" lat="59.8725388875" lon="5.17637499524">
		<tag k="name" v="Dyrvikholmen" />
		<tag k="place" v="islet" />
		<tag k="ssr:stedsnr" v="179658" />
	</node>
	<node id="-593917" lat="59.8572622922" lon="5.07926273119">
		<tag k="name" v="Steinavikneset" />
		<tag k="natural" v="cape" />
		<tag k="ssr:stedsnr" v="284746" />
	</node>
	<node id="-593916" lat="59.7072250014" lon="5.36224721714">
		<tag k="name" v="Grønåsvågen" />
		<tag k="natural" v="bay" />
		<tag k="ssr:stedsnr" v="284729" />
	</node>
	<node id="-593912" lat="59.7087722205" lon="5.38605833516">
		<tag k="name" v="Storningsvika" />
		<tag k="natural" v="bay" />
		<tag k="ssr:stedsnr" v="284652" />
	</node>
	<node id="-593911" lat="59.7031555574" lon="5.39326388546">
		<tag k="name" v="Skaffarsholet" />
		<tag k="natural" v="bay" />
		<tag k="ssr:stedsnr" v="284627" />
	</node>
	<node id="-593910" lat="59.7293527768" lon="5.24475556206">
		<tag k="name" v="Skutevika" />
		<tag k="natural" v="bay" />
		<tag k="ssr:stedsnr" v="284543" />
	</node>
	<node id="-593907" lat="59.7532944405" lon="5.22020556387">
		<tag k="name" v="Taravika" />
		<tag k="natural" v="bay" />
		<tag k="ssr:stedsnr" v="283910" />
	</node>
	<node id="-593902" lat="59.8941000037" lon="5.11701667247">
		<tag k="name" v="Blåbærnibbo" />
		<tag k="natural" v="bay" />
		<tag k="ssr:stedsnr" v="283527" />
	</node>
	<node id="-593901" lat="59.7578722204" lon="5.34401389611">
		<tag k="name" v="Nordavindshamnen" />
		<tag k="natural" v="bay" />
		<tag k="ssr:stedsnr" v="283508" />
	</node>
	<node id="-593899" lat="59.7328000008" lon="5.35295000672">
		<tag k="name" v="Symjingeholmen" />
		<tag k="place" v="islet" />
		<tag k="ssr:stedsnr" v="283369" />
	</node>
	<node id="-593898" lat="59.7353555546" lon="5.36281944975">
		<tag k="name" v="Skiftesvika" />
		<tag k="natural" v="bay" />
		<tag k="ssr:stedsnr" v="283298" />
	</node>
	<node id="-593896" lat="59.8403833327" lon="5.22368611382">
		<tag k="name" v="Kvernavika" />
		<tag k="natural" v="bay" />
		<tag k="ssr:stedsnr" v="283281" />
	</node>
	<node id="-593887" lat="59.8262083304" lon="5.14020278531">
		<tag k="name" v="Austra Hillesøyvika" />
		<tag k="natural" v="bay" />
		<tag k="ssr:stedsnr" v="281873" />
	</node>
	<node id="-593886" lat="59.8142361101" lon="5.12664445158">
		<tag k="name" v="Breiavika" />
		<tag k="natural" v="bay" />
		<tag k="ssr:stedsnr" v="281842" />
	</node>
	<node id="-593885" lat="59.8086638924" lon="5.13066667245">
		<tag k="name" v="Tynnevika" />
		<tag k="natural" v="bay" />
		<tag k="ssr:stedsnr" v="281839" />
	</node>
	<node id="-593883" lat="59.8059166694" lon="5.27815000096">
		<tag k="name" v="Sætravågen" />
		<tag k="natural" v="bay" />
		<tag k="ssr:stedsnr" v="281835" />
	</node>
	<node id="-593882" lat="59.8006361095" lon="5.27340834024">
		<tag k="name" v="Midtneset" />
		<tag k="natural" v="cape" />
		<tag k="ssr:stedsnr" v="281833" />
	</node>
	<node id="-593879" lat="59.7540000014" lon="5.18974722033">
		<tag k="name" v="Terna" />
		<tag k="natural" v="cape" />
		<tag k="ssr:stedsnr" v="281814" />
	</node>
	<node id="-593878" lat="59.7539361073" lon="5.19244167144">
		<tag k="name" v="Kruke" />
		<tag k="place" v="island" />
		<tag k="ssr:stedsnr" v="281812" />
	</node>
	<node id="-593876" lat="59.7506666661" lon="5.17978332743">
		<tag k="name" v="Langholmen" />
		<tag k="place" v="islet" />
		<tag k="ssr:stedsnr" v="281810" />
	</node>
	<node id="-593875" lat="59.745288885" lon="5.18931389392">
		<tag k="name" v="Ådnanesosen" />
		<tag k="natural" v="strait" />
		<tag k="ssr:stedsnr" v="281808" />
	</node>
	<node id="-593874" lat="59.7545305575" lon="5.18571111597">
		<tag k="name" v="Sponavika" />
		<tag k="natural" v="bay" />
		<tag k="ssr:stedsnr" v="281807" />
	</node>
	<node id="-593873" lat="59.7501222198" lon="5.14462778107">
		<tag k="name" v="Klungervika" />
		<tag k="natural" v="bay" />
		<tag k="ssr:stedsnr" v="281800" />
	</node>
	<node id="-593872" lat="59.7439611142" lon="5.12732778432">
		<tag k="name" v="Søra Svinøya" />
		<tag k="place" v="island" />
		<tag k="ssr:stedsnr" v="281395" />
	</node>
	<node id="-593871" lat="59.8249583353" lon="5.19979999095">
		<tag k="name" v="Ljosaneset" />
		<tag k="natural" v="cape" />
		<tag k="ssr:stedsnr" v="281173" />
	</node>
	<node id="-593870" lat="59.8173111122" lon="5.20306111329">
		<tag k="name" v="Ytra Pøyla" />
		<tag k="natural" v="bay" />
		<tag k="ssr:stedsnr" v="281165" />
	</node>
	<node id="-593869" lat="59.7576722184" lon="5.11334444175">
		<tag k="name" v="Teistasundet" />
		<tag k="natural" v="strait" />
		<tag k="ssr:stedsnr" v="281137" />
	</node>
	<node id="-593868" lat="59.7557805582" lon="5.11188055736">
		<tag k="name" v="Svartøyålen" />
		<tag k="natural" v="strait" />
		<tag k="ssr:stedsnr" v="281134" />
	</node>
	<node id="-593867" lat="59.7630527782" lon="5.13447221779">
		<tag k="name" v="Skarpaneset" />
		<tag k="natural" v="cape" />
		<tag k="ssr:stedsnr" v="281131" />
	</node>
	<node id="-593866" lat="59.7832833335" lon="5.1642055608">
		<tag k="name" v="Straumen" />
		<tag k="natural" v="strait" />
		<tag k="ssr:stedsnr" v="281123" />
	</node>
	<node id="-593865" lat="59.7294861129" lon="5.1447749977">
		<tag k="name" v="Spannsholmsbleikjene" />
		<tag k="place" v="island" />
		<tag k="ssr:stedsnr" v="281000" />
	</node>
	<node id="-593864" lat="59.7320861114" lon="5.11865833453">
		<tag k="name" v="Tverrsundet" />
		<tag k="natural" v="strait" />
		<tag k="ssr:stedsnr" v="280994" />
	</node>
	<node id="-593860" lat="59.8013888905" lon="5.24737500619">
		<tag k="name" v="Sandholmen" />
		<tag k="place" v="islet" />
		<tag k="ssr:stedsnr" v="280976" />
	</node>
	<node id="-593855" lat="59.7569361088" lon="5.21384443915">
		<tag k="fixme" v="consider seamark:type=rock or natural=shoal" />
		<tag k="name" v="Terneskjera" />
		<tag k="place" v="islet" />
		<tag k="ssr:stedsnr" v="280954" />
	</node>
	<node id="-593854" lat="59.7536027806" lon="5.2052999921">
		<tag k="name" v="Litla Knappavika" />
		<tag k="natural" v="bay" />
		<tag k="ssr:stedsnr" v="280953" />
	</node>
	<node id="-593852" lat="59.85155833" lon="5.07658888087">
		<tag k="name" v="Lyraneset" />
		<tag k="natural" v="cape" />
		<tag k="ssr:stedsnr" v="280924" />
	</node>
	<node id="-593851" lat="59.8608305531" lon="5.03980555412">
		<tag k="fixme" v="consider seamark:type=rock or natural=shoal" />
		<tag k="name" v="Vestra Goddeskjeret" />
		<tag k="place" v="islet" />
		<tag k="ssr:stedsnr" v="280912" />
	</node>
	<node id="-593850" lat="59.8640916643" lon="5.07617499247">
		<tag k="name" v="Stikkjableikja" />
		<tag k="place" v="island" />
		<tag k="ssr:stedsnr" v="280910" />
	</node>
	<node id="-593849" lat="59.8611333299" lon="5.07878611754">
		<tag k="name" v="Seigavågståa" />
		<tag k="place" v="island" />
		<tag k="ssr:stedsnr" v="280909" />
	</node>
	<node id="-593847" lat="59.8126944429" lon="5.0700500029">
		<tag k="name" v="Kubbholmen" />
		<tag k="place" v="islet" />
		<tag k="ssr:stedsnr" v="280888" />
	</node>
	<node id="-593846" lat="59.828172223" lon="5.07063610882">
		<tag k="name" v="Keilesundet" />
		<tag k="natural" v="strait" />
		<tag k="ssr:stedsnr" v="280882" />
	</node>
	<node id="-593845" lat="59.8238805585" lon="5.09495277343">
		<tag k="name" v="Kvassteinskylleren" />
		<tag k="natural" v="strait" />
		<tag k="ssr:stedsnr" v="280822" />
	</node>
	<node id="-593844" lat="59.820077774" lon="5.09893889195">
		<tag k="name" v="Galgeitosen" />
		<tag k="natural" v="strait" />
		<tag k="ssr:stedsnr" v="280819" />
	</node>
	<node id="-593841" lat="59.7148666643" lon="5.33549167128">
		<tag k="name" v="Tømmervika" />
		<tag k="natural" v="bay" />
		<tag k="ssr:stedsnr" v="163618" />
	</node>
	<node id="-593840" lat="59.715497222" lon="5.35627777677">
		<tag k="name" v="Nordra Spannevika" />
		<tag k="natural" v="bay" />
		<tag k="ssr:stedsnr" v="163616" />
	</node>
	<node id="-593839" lat="59.8698916701" lon="5.21236111945">
		<tag k="name" v="Brendøysundet" />
		<tag k="natural" v="strait" />
		<tag k="ssr:stedsnr" v="163613" />
	</node>
	<node id="-593837" lat="59.8295888908" lon="5.08757499967">
		<tag k="name" v="Teistholmen" />
		<tag k="place" v="islet" />
		<tag k="ssr:stedsnr" v="280150" />
	</node>
	<node id="-593835" lat="59.7990861081" lon="5.11692778679">
		<tag k="name" v="Lambholmsundet" />
		<tag k="natural" v="strait" />
		<tag k="ssr:stedsnr" v="280139" />
	</node>
	<node id="-593834" lat="59.8050138846" lon="5.1369500044">
		<tag k="name" v="Brekkesjøen" />
		<tag k="natural" v="bay" />
		<tag k="ssr:stedsnr" v="280138" />
	</node>
	<node id="-593833" lat="59.6940861097" lon="5.13492776969">
		<tag k="name" v="Kråkeholmen" />
		<tag k="place" v="islet" />
		<tag k="ssr:stedsnr" v="163054" />
	</node>
	<node id="-593831" lat="59.814608333" lon="5.24848610651">
		<tag k="name" v="Læsingesundet" />
		<tag k="natural" v="strait" />
		<tag k="ssr:stedsnr" v="280118" />
	</node>
	<node id="-593829" lat="59.8184055528" lon="5.272550005">
		<tag k="name" v="Straumpløya" />
		<tag k="natural" v="bay" />
		<tag k="ssr:stedsnr" v="162408" />
	</node>
	<node id="-593827" lat="59.6989861085" lon="5.32470832812">
		<tag k="name" v="Trollholmen" />
		<tag k="place" v="islet" />
		<tag k="ssr:stedsnr" v="162263" />
	</node>
	<node id="-593825" lat="59.6951138874" lon="5.37092500547">
		<tag k="name" v="Rindatangen" />
		<tag k="natural" v="cape" />
		<tag k="ssr:stedsnr" v="162323" />
	</node>
	<node id="-593824" lat="59.6576638908" lon="5.23443054799">
		<tag k="name" v="Steinavik" />
		<tag k="natural" v="bay" />
		<tag k="ssr:stedsnr" v="161807" />
	</node>
	<node id="-593823" lat="59.7178249984" lon="5.24937499331">
		<tag k="name" v="Austre Holmen" />
		<tag k="place" v="islet" />
		<tag k="ssr:stedsnr" v="161681" />
	</node>
	<node id="-593820" lat="59.7525416668" lon="5.20412222513">
		<tag k="name" v="Stora Knappavika" />
		<tag k="natural" v="bay" />
		<tag k="ssr:stedsnr" v="159962" />
	</node>
	<node id="-593819" lat="59.750113889" lon="5.20098333072">
		<tag k="name" v="Fjosvika" />
		<tag k="natural" v="bay" />
		<tag k="ssr:stedsnr" v="159961" />
	</node>
	<node id="-593818" lat="59.818227777" lon="5.09447777277">
		<tag k="name" v="Kornholmen" />
		<tag k="place" v="islet" />
		<tag k="ssr:stedsnr" v="159955" />
	</node>
	<node id="-593816" lat="59.8213777794" lon="5.16888889129">
		<tag k="name" v="Tøket" />
		<tag k="natural" v="bay" />
		<tag k="ssr:stedsnr" v="159871" />
	</node>
	<node id="-593813" lat="59.7588861092" lon="5.16681111365">
		<tag k="name" v="Kyrkjebleikja" />
		<tag k="place" v="island" />
		<tag k="ssr:stedsnr" v="159812" />
	</node>
	<node id="-593812" lat="59.758952781" lon="5.17050833474">
		<tag k="name" v="Maralsvika" />
		<tag k="natural" v="bay" />
		<tag k="ssr:stedsnr" v="159810" />
	</node>
	<node id="-593811" lat="59.8681944469" lon="5.07570555074">
		<tag k="name" v="Sirihola" />
		<tag k="natural" v="bay" />
		<tag k="ssr:stedsnr" v="159924" />
	</node>
	<node id="-593810" lat="59.7748666689" lon="5.07725833502">
		<tag k="alt_name" v="Måkesteinsosen" />
		<tag k="name" v="Måksteinsosen" />
		<tag k="natural" v="strait" />
		<tag k="ssr:stedsnr" v="159921" />
	</node>
	<node id="-593809" lat="59.7339305576" lon="5.09571389542">
		<tag k="name" v="Hiskahavet" />
		<tag k="place" v="locality" />
		<tag k="ssr:stedsnr" v="159906" />
	</node>
	<node id="-593807" lat="59.8054222214" lon="5.2717694439">
		<tag k="name" v="Hardingholmen" />
		<tag k="place" v="islet" />
		<tag k="ssr:stedsnr" v="147822" />
	</node>
	<node id="-593805" lat="59.7506666652" lon="5.17505834214">
		<tag k="name" v="Fylkesneset" />
		<tag k="natural" v="cape" />
		<tag k="ssr:stedsnr" v="147417" />
	</node>
	<node id="-593804" lat="59.7936361074" lon="5.11564165952">
		<tag k="fixme" v="consider seamark:type=rock or natural=shoal" />
		<tag k="name" v="Skipavikskjeret" />
		<tag k="place" v="islet" />
		<tag k="ssr:stedsnr" v="146970" />
	</node>
	<node id="-593803" lat="59.6095527791" lon="5.16475277269">
		<tag k="name" v="Dyrnesflua" />
		<tag k="natural" v="shoal" />
		<tag k="place" v="locality" />
		<tag k="ssr:stedsnr" v="146902" />
	</node>
	<node id="-593802" lat="59.8674166673" lon="5.1309472153">
		<tag k="name" v="Krakkholmfluene" />
		<tag k="natural" v="shoal" />
		<tag k="place" v="locality" />
		<tag k="ssr:stedsnr" v="146805" />
	</node>
	<node id="-593801" lat="59.7396083295" lon="4.99315555411">
		<tag k="name" v="Yraskallen" />
		<tag k="natural" v="shoal" />
		<tag k="place" v="locality" />
		<tag k="ssr:stedsnr" v="146707" />
	</node>
	<node id="-593800" lat="59.6937000005" lon="5.34134722311">
		<tag k="name" v="Totlandsvik" />
		<tag k="natural" v="bay" />
		<tag k="ssr:stedsnr" v="146704" />
	</node>
	<node id="-593799" lat="59.8103675069" lon="5.09103391675">
		<tag k="name" v="Rogøysundet" />
		<tag k="natural" v="strait" />
		<tag k="ssr:stedsnr" v="146507" />
	</node>
	<node id="-593798" lat="59.716786109" lon="5.38231110685">
		<tag k="name" v="Flæet" />
		<tag k="natural" v="bay" />
		<tag k="ssr:stedsnr" v="146664" />
	</node>
	<node id="-593797" lat="59.7441500006" lon="5.34093889504">
		<tag k="name" v="Laksaklubben" />
		<tag k="natural" v="cape" />
		<tag k="ssr:stedsnr" v="146656" />
	</node>
	<node id="-593795" lat="59.5886805525" lon="5.06910833907">
		<tag k="name" v="Kvaløyflua" />
		<tag k="natural" v="shoal" />
		<tag k="place" v="locality" />
		<tag k="ssr:stedsnr" v="269394" />
	</node>
	<node id="-593794" lat="59.8112694409" lon="5.2697249943">
		<tag k="alt_name" v="Fureneset" />
		<tag k="name" v="Furuneset" />
		<tag k="natural" v="cape" />
		<tag k="ssr:stedsnr" v="268830" />
	</node>
	<node id="-593793" lat="59.5980972248" lon="5.19329722022">
		<tag k="name" v="Eidesvik" />
		<tag k="natural" v="bay" />
		<tag k="ssr:stedsnr" v="268944" />
	</node>
	<node id="-593792" lat="59.8584472256" lon="5.0487916629">
		<tag k="name" v="Grunneboflua" />
		<tag k="natural" v="shoal" />
		<tag k="place" v="locality" />
		<tag k="ssr:stedsnr" v="268941" />
	</node>
	<node id="-593791" lat="59.8301594183" lon="5.1138620466">
		<tag k="name" v="Goddevågen" />
		<tag k="natural" v="strait" />
		<tag k="ssr:stedsnr" v="268901" />
	</node>
	<node id="-593790" lat="59.8388805576" lon="5.24526945082">
		<tag k="name" v="Aga" />
		<tag k="place" v="island" />
		<tag k="ssr:stedsnr" v="268738" />
	</node>
	<node id="-593789" lat="59.7366944405" lon="5.30555555382">
		<tag k="name" v="Arevik" />
		<tag k="natural" v="bay" />
		<tag k="ssr:stedsnr" v="268629" />
	</node>
	<node id="-593788" lat="59.757289176" lon="5.14089930361">
		<tag k="alt_name" v="Kastevåg" />
		<tag k="name" v="Kastevågen" />
		<tag k="natural" v="bay" />
		<tag k="ssr:stedsnr" v="268688" />
	</node>
	<node id="-593787" lat="59.7994472205" lon="5.08643611887">
		<tag k="fixme" v="consider seamark:type=rock or natural=shoal" />
		<tag k="name" v="Steinane" />
		<tag k="place" v="islet" />
		<tag k="ssr:stedsnr" v="268498" />
	</node>
	<node id="-593786" lat="59.7536472249" lon="5.21742222929">
		<tag k="name" v="Sveholmen" />
		<tag k="place" v="islet" />
		<tag k="ssr:stedsnr" v="268335" />
	</node>
	<node id="-593785" lat="59.8817861071" lon="5.07499445106">
		<tag k="name" v="Jarnnagleholmen" />
		<tag k="old_name" v="Janagelholmen" />
		<tag k="place" v="islet" />
		<tag k="ssr:stedsnr" v="268390" />
	</node>
	<node id="-593784" lat="59.8322527743" lon="5.05154443836">
		<tag k="name" v="Reimersflua" />
		<tag k="natural" v="shoal" />
		<tag k="place" v="locality" />
		<tag k="ssr:stedsnr" v="267939" />
	</node>
	<node id="-593783" lat="59.827777781" lon="5.04507500464">
		<tag k="name" v="Holmaflua" />
		<tag k="natural" v="shoal" />
		<tag k="place" v="locality" />
		<tag k="ssr:stedsnr" v="267937" />
	</node>
	<node id="-593782" lat="59.6813666628" lon="5.28696389576">
		<tag k="name" v="Ramsholmfluene" />
		<tag k="natural" v="shoal" />
		<tag k="place" v="locality" />
		<tag k="ssr:stedsnr" v="267696" />
	</node>
	<node id="-593781" lat="59.6226111106" lon="5.24276110768">
		<tag k="name" v="Langaneset" />
		<tag k="natural" v="cape" />
		<tag k="ssr:stedsnr" v="267159" />
	</node>
	<node id="-593778" lat="59.5875777767" lon="5.13923056303">
		<tag k="name" v="Svartesjøen" />
		<tag k="natural" v="strait" />
		<tag k="ssr:stedsnr" v="120312" />
	</node>
	<node id="-593777" lat="59.5897805515" lon="5.11106944981">
		<tag k="name" v="Sengane" />
		<tag k="place" v="islet" />
		<tag k="ssr:stedsnr" v="120309" />
	</node>
	<node id="-593776" lat="59.719191666" lon="5.17128888075">
		<tag k="name" v="Lyngneset" />
		<tag k="natural" v="cape" />
		<tag k="ssr:stedsnr" v="118724" />
	</node>
	<node id="-593773" lat="59.8731638868" lon="5.15157499967">
		<tag k="name" v="Torvbleikja" />
		<tag k="place" v="islet" />
		<tag k="ssr:stedsnr" v="118626" />
	</node>
	<node id="-593770" lat="59.6167500009" lon="5.23373054665">
		<tag k="name" v="Kobbholmen" />
		<tag k="place" v="islet" />
		<tag k="ssr:stedsnr" v="103952" />
	</node>
	<node id="-593769" lat="59.8116690866" lon="5.27507181175">
		<tag k="name" v="Arhaugeneset" />
		<tag k="natural" v="cape" />
		<tag k="ssr:stedsnr" v="102467" />
	</node>
	<node id="-593768" lat="59.8199388846" lon="5.25716943957">
		<tag k="name" v="Ramsosen" />
		<tag k="natural" v="bay" />
		<tag k="ssr:stedsnr" v="102463" />
	</node>
	<node id="-593766" lat="59.7605694477" lon="5.23436665965">
		<tag k="name" v="Gjerdavågstraumen" />
		<tag k="natural" v="bay" />
		<tag k="ssr:stedsnr" v="101909" />
	</node>
	<node id="-593765" lat="59.7387416647" lon="5.31665277215">
		<tag k="name" v="Søra Kallevika" />
		<tag k="natural" v="bay" />
		<tag k="ssr:stedsnr" v="100016" />
	</node>
	<node id="-593764" lat="59.8426666709" lon="5.16465556194">
		<tag k="name" v="Langøyodden" />
		<tag k="natural" v="cape" />
		<tag k="ssr:stedsnr" v="99854" />
	</node>
	<node id="-593761" lat="59.7380742221" lon="5.15392605871">
		<tag k="name" v="Terneneset" />
		<tag k="natural" v="cape" />
		<tag k="ssr:stedsnr" v="98966" />
	</node>
	<node id="-593760" lat="59.7412083326" lon="5.14846110422">
		<tag k="name" v="Kryllevika" />
		<tag k="natural" v="bay" />
		<tag k="ssr:stedsnr" v="98964" />
	</node>
	<node id="-593758" lat="59.7573555595" lon="5.16495833086">
		<tag k="name" v="Søra Bleikja" />
		<tag k="place" v="island" />
		<tag k="ssr:stedsnr" v="98763" />
	</node>
	<node id="-593757" lat="59.816930555" lon="5.10063333475">
		<tag k="fixme" v="consider seamark:type=rock or natural=shoal" />
		<tag k="name" v="Skarvaskjeret" />
		<tag k="place" v="islet" />
		<tag k="ssr:stedsnr" v="98814" />
	</node>
	<node id="-593754" lat="59.8612583301" lon="5.04828332631">
		<tag k="fixme" v="consider seamark:type=rock or natural=shoal" />
		<tag k="name" v="Stora Goddeskjeret" />
		<tag k="place" v="islet" />
		<tag k="ssr:stedsnr" v="97913" />
	</node>
	<node id="-593753" lat="59.8312000005" lon="5.07077777849">
		<tag k="alt_name" v="Lauvholmsosen" />
		<tag k="name" v="Lauvholmosen" />
		<tag k="place" v="locality" />
		<tag k="ssr:stedsnr" v="86945" />
	</node>
	<node id="-593752" lat="59.8586964776" lon="5.07703034682">
		<tag k="name" v="Steinavikosen" />
		<tag k="natural" v="strait" />
		<tag k="ssr:stedsnr" v="86922" />
	</node>
	<node id="-593751" lat="59.9034916684" lon="5.09354721719">
		<tag k="fixme" v="multiple name tags, choose one and add the other to alt_name" />
		<tag k="name" v="Teinevikneset;Utforneset" />
		<tag k="natural" v="cape" />
		<tag k="ssr:stedsnr" v="86374" />
	</node>
	<node id="-593750" lat="59.898280558" lon="5.11608055098">
		<tag k="fixme" v="consider seamark:type=rock or natural=shoal" />
		<tag k="name" v="Kaperskjeret" />
		<tag k="place" v="islet" />
		<tag k="ssr:stedsnr" v="86372" />
	</node>
	<node id="-593749" lat="59.7070055542" lon="5.12338333669">
		<tag k="name" v="Toskaboen" />
		<tag k="natural" v="shoal" />
		<tag k="place" v="locality" />
		<tag k="ssr:stedsnr" v="86269" />
	</node>
	<node id="-593748" lat="59.8063722223" lon="5.14916667286">
		<tag k="alt_name" v="Sørvollvågen" />
		<tag k="name" v="Sjøvollbogen" />
		<tag k="natural" v="bay" />
		<tag k="ssr:stedsnr" v="85964" />
	</node>
	<node id="-593747" lat="59.7038305556" lon="5.32787777521">
		<tag k="name" v="Grindheimssund" />
		<tag k="natural" v="strait" />
		<tag k="ssr:stedsnr" v="85559" />
	</node>
	<node id="-593746" lat="59.5980055579" lon="5.1316833403">
		<tag k="name" v="Osaflua" />
		<tag k="natural" v="shoal" />
		<tag k="place" v="locality" />
		<tag k="ssr:stedsnr" v="85466" />
	</node>
	<node id="-593745" lat="59.5400194435" lon="4.92050833934">
		<tag k="loc_name" v="Utsira nord" />
		<tag k="name" v="Hordalandsfeltet" />
		<tag k="place" v="sea" />
		<tag k="ssr:stedsnr" v="85457" />
	</node>
	<node id="-593744" lat="59.7495972219" lon="5.12977221878">
		<tag k="alt_name" v="Håsundet" />
		<tag k="name" v="Håsund" />
		<tag k="natural" v="strait" />
		<tag k="ssr:stedsnr" v="247548" />
	</node>
	<node id="-593743" lat="59.7898777803" lon="5.11514999256">
		<tag k="name" v="Neset" />
		<tag k="natural" v="cape" />
		<tag k="ssr:stedsnr" v="247544" />
	</node>
	<node id="-593741" lat="59.804294444" lon="5.25528055215">
		<tag k="name" v="Forenes" />
		<tag k="natural" v="cape" />
		<tag k="ssr:stedsnr" v="247531" />
	</node>
	<node id="-593737" lat="59.7747777802" lon="5.10554999956">
		<tag k="name" v="Vardnesholmen" />
		<tag k="place" v="islet" />
		<tag k="ssr:stedsnr" v="247479" />
	</node>
	<node id="-593735" lat="59.5788138879" lon="5.18195277707">
		<tag k="name" v="Sætravika" />
		<tag k="natural" v="bay" />
		<tag k="ssr:stedsnr" v="247063" />
	</node>
	<node id="-593734" lat="59.9112555544" lon="5.06984444357">
		<tag k="name" v="Jøringen" />
		<tag k="place" v="islet" />
		<tag k="ssr:stedsnr" v="247054" />
	</node>
	<node id="-593733" lat="59.6724916697" lon="5.30571944897">
		<tag k="name" v="Totsholmsundet" />
		<tag k="natural" v="strait" />
		<tag k="ssr:stedsnr" v="246993" />
	</node>
	<node id="-593732" lat="59.6705444413" lon="5.3039583425">
		<tag k="name" v="Totsholmen" />
		<tag k="place" v="islet" />
		<tag k="ssr:stedsnr" v="246992" />
	</node>
	<node id="-593730" lat="59.6596240761" lon="5.13530430635">
		<tag k="name" v="Pustaren" />
		<tag k="place" v="island" />
		<tag k="ssr:stedsnr" v="246977" />
	</node>
	<node id="-593728" lat="59.8255777784" lon="5.24075000194">
		<tag k="alt_name" v="Stangarvågen, nordre;Nordre Stangarvågen" />
		<tag k="name" v="Nordre Stongarvågen" />
		<tag k="natural" v="bay" />
		<tag k="ssr:stedsnr" v="246974" />
	</node>
	<node id="-593726" lat="59.7008027787" lon="5.39568611267">
		<tag k="alt_name" v="Fyrholmen" />
		<tag k="name" v="Midtholmen" />
		<tag k="place" v="islet" />
		<tag k="ssr:stedsnr" v="246967" />
	</node>
	<node id="-593725" lat="59.7017792343" lon="5.39215918925">
		<tag k="alt_name" v="Kylleren" />
		<tag k="name" v="Kyllaren" />
		<tag k="natural" v="bay" />
		<tag k="ssr:stedsnr" v="246956" />
	</node>
	<node id="-593724" lat="59.6944777736" lon="5.3281361077">
		<tag k="alt_name" v="Trettholmen, St" />
		<tag k="name" v="Trettholmen" />
		<tag k="place" v="islet" />
		<tag k="ssr:stedsnr" v="246949" />
	</node>
	<node id="-593723" lat="59.8701166653" lon="5.18939444174">
		<tag k="alt_name" v="Gjertrudvik" />
		<tag k="name" v="Gjertrudvika" />
		<tag k="natural" v="bay" />
		<tag k="ssr:stedsnr" v="246916" />
	</node>
	<node id="-593722" lat="59.8520583335" lon="5.15515277165">
		<tag k="name" v="Kjøpholmen" />
		<tag k="place" v="islet" />
		<tag k="ssr:stedsnr" v="246890" />
	</node>
	<node id="-593719" lat="59.8592805558" lon="5.22391389227">
		<tag k="name" v="Strilaholmsosen" />
		<tag k="natural" v="strait" />
		<tag k="ssr:stedsnr" v="246883" />
	</node>
	<node id="-593718" lat="59.8504583374" lon="5.18546389096">
		<tag k="name" v="Rolvsnes" />
		<tag k="natural" v="cape" />
		<tag k="ssr:stedsnr" v="246881" />
	</node>
	<node id="-593717" lat="59.6490611083" lon="5.23134721598">
		<tag k="name" v="Moraskårneset" />
		<tag k="natural" v="cape" />
		<tag k="ssr:stedsnr" v="246872" />
	</node>
	<node id="-593716" lat="59.6517027816" lon="5.23007221528">
		<tag k="alt_name" v="Skjeravik" />
		<tag k="name" v="Skjervika" />
		<tag k="natural" v="bay" />
		<tag k="ssr:stedsnr" v="246868" />
	</node>
	<node id="-593714" lat="59.6457722183" lon="5.113269442">
		<tag k="fixme" v="consider seamark:type=rock or natural=shoal" />
		<tag k="name" v="Ærøybleikene" />
		<tag k="place" v="islet" />
		<tag k="ssr:stedsnr" v="246860" />
	</node>
	<node id="-593708" lat="59.8790083311" lon="5.14228611935">
		<tag k="alt_name" v="Parakholmane" />
		<tag k="name" v="Parakholmen" />
		<tag k="place" v="islet" />
		<tag k="ssr:stedsnr" v="246802" />
	</node>
	<node id="-593707" lat="59.5958361142" lon="5.1112027832">
		<tag k="name" v="Kvaløykalven" />
		<tag k="place" v="islet" />
		<tag k="ssr:stedsnr" v="246742" />
	</node>
	<node id="-593705" lat="59.5985638856" lon="5.23372778495">
		<tag k="name" v="Bømlahamn" />
		<tag k="natural" v="bay" />
		<tag k="ssr:stedsnr" v="246735" />
	</node>
	<node id="-593704" lat="59.7451503874" lon="5.24950187223">
		<tag k="alt_name" v="Myntevik" />
		<tag k="name" v="Myntevika" />
		<tag k="natural" v="bay" />
		<tag k="ssr:stedsnr" v="246655" />
	</node>
	<node id="-593703" lat="59.7426444406" lon="5.18148055047">
		<tag k="name" v="Dyrøykalven" />
		<tag k="place" v="islet" />
		<tag k="ssr:stedsnr" v="246654" />
	</node>
	<node id="-593700" lat="59.726647225" lon="5.27734722334">
		<tag k="name" v="Klubbesundet" />
		<tag k="natural" v="strait" />
		<tag k="ssr:stedsnr" v="246557" />
	</node>
	<node id="-593699" lat="59.7731000025" lon="5.31915278058">
		<tag k="name" v="Tolo" />
		<tag k="natural" v="bay" />
		<tag k="ssr:stedsnr" v="246551" />
	</node>
	<node id="-593697" lat="59.6894583294" lon="5.16348334152">
		<tag k="alt_name" v="Beindalsvik" />
		<tag k="name" v="Benddalsvika" />
		<tag k="natural" v="bay" />
		<tag k="ssr:stedsnr" v="246517" />
	</node>
	<node id="-593696" lat="59.700022225" lon="5.08598333457">
		<tag k="alt_name" v="Osen, nordre" />
		<tag k="bay" v="fjord" />
		<tag k="name" v="Nordre Osen" />
		<tag k="natural" v="bay" />
		<tag k="ssr:stedsnr" v="246511" />
	</node>
	<node id="-593689" lat="59.775636115" lon="5.08473332769">
		<tag k="fixme" v="consider seamark:type=rock or natural=shoal" />
		<tag k="name" v="Klekkjesteinane" />
		<tag k="place" v="islet" />
		<tag k="ssr:stedsnr" v="246244" />
	</node>
	<node id="-593688" lat="59.7877333347" lon="5.08914722174">
		<tag k="name" v="Hansaholmen" />
		<tag k="place" v="islet" />
		<tag k="ssr:stedsnr" v="246240" />
	</node>
	<node id="-593687" lat="59.785233331" lon="5.09148889768">
		<tag k="alt_name" v="Litle Korsholmen;Krossholmen, l" />
		<tag k="name" v="Litle Krossholmen" />
		<tag k="place" v="islet" />
		<tag k="ssr:stedsnr" v="246239" />
	</node>
	<node id="-593686" lat="59.5348333359" lon="5.0588388799">
		<tag k="alt_name" v="Kobbeskjer" />
		<tag k="fixme" v="consider seamark:type=rock or natural=shoal" />
		<tag k="name" v="Kobbaskjeret" />
		<tag k="place" v="islet" />
		<tag k="ssr:stedsnr" v="246194" />
	</node>
	<node id="-593685" lat="59.5194861069" lon="5.10857777988">
		<tag k="alt_name" v="Melne" />
		<tag k="name" v="Melene" />
		<tag k="place" v="island" />
		<tag k="ssr:stedsnr" v="246152" />
	</node>
	<node id="-593684" lat="59.6780750034" lon="5.33521111194">
		<tag k="alt_name" v="Midgardsvik" />
		<tag k="name" v="Midgardsvika" />
		<tag k="natural" v="bay" />
		<tag k="ssr:stedsnr" v="245998" />
	</node>
	<node id="-593682" lat="59.6154583367" lon="5.10783333128">
		<tag k="alt_name" v="Joøy" />
		<tag k="name" v="Joøya" />
		<tag k="place" v="islet" />
		<tag k="ssr:stedsnr" v="245819" />
	</node>
	<node id="-593681" lat="59.7164694434" lon="5.12121943634">
		<tag k="alt_name" v="Skjeret, vestre" />
		<tag k="fixme" v="consider seamark:type=rock or natural=shoal" />
		<tag k="name" v="Vestra Skjeret" />
		<tag k="place" v="islet" />
		<tag k="ssr:stedsnr" v="245583" />
	</node>
	<node id="-593679" lat="59.5836649361" lon="5.12880754926">
		<tag k="alt_name" v="Hårskru" />
		<tag k="name" v="Håskru" />
		<tag k="place" v="islet" />
		<tag k="ssr:stedsnr" v="245723" />
	</node>
	<node id="-593678" lat="59.7387138909" lon="5.22393611841">
		<tag k="name" v="Steinvågen" />
		<tag k="natural" v="bay" />
		<tag k="ssr:stedsnr" v="245543" />
	</node>
	<node id="-593675" lat="59.8597972204" lon="5.07951666789">
		<tag k="name" v="Seiavågen" />
		<tag k="natural" v="cape" />
		<tag k="ssr:stedsnr" v="65211" />
	</node>
	<node id="-593673" lat="59.866391669" lon="5.21672500765">
		<tag k="alt_name" v="Bukkøy, l" />
		<tag k="name" v="Litla Bukkøy" />
		<tag k="place" v="island" />
		<tag k="ssr:stedsnr" v="64925" />
	</node>
	<node id="-593672" lat="59.6511583317" lon="5.15388611135">
		<tag k="name" v="Krekjebærklubben" />
		<tag k="natural" v="cape" />
		<tag k="ssr:stedsnr" v="64908" />
	</node>
	<node id="-593671" lat="59.6191944425" lon="5.2471361089">
		<tag k="alt_name" v="Klubben" />
		<tag k="name" v="Rundøyklubben" />
		<tag k="natural" v="cape" />
		<tag k="ssr:stedsnr" v="64840" />
	</node>
	<node id="-593670" lat="59.8707000032" lon="5.12471388686">
		<tag k="alt_name" v="Vikøytangane" />
		<tag k="name" v="Vikøytangen" />
		<tag k="natural" v="cape" />
		<tag k="ssr:stedsnr" v="64832" />
	</node>
	<node id="-593669" lat="59.873000004" lon="5.09980832463">
		<tag k="alt_name" v="Foreholmen" />
		<tag k="name" v="Fureholmen" />
		<tag k="place" v="islet" />
		<tag k="ssr:stedsnr" v="64827" />
	</node>
	<node id="-593668" lat="59.7108722236" lon="5.3807972208">
		<tag k="alt_name" v="Halvardsvik" />
		<tag k="name" v="Hallvardsvika" />
		<tag k="natural" v="bay" />
		<tag k="ssr:stedsnr" v="64513" />
	</node>
	<node id="-593667" lat="59.7265888889" lon="5.38359999397">
		<tag k="name" v="Hollendarvika" />
		<tag k="natural" v="bay" />
		<tag k="ssr:stedsnr" v="64511" />
	</node>
	<node id="-593664" lat="59.5518222196" lon="5.14591110858">
		<tag k="alt_name" v="Mortsundholmen" />
		<tag k="name" v="Mortasundholmen" />
		<tag k="place" v="islet" />
		<tag k="ssr:stedsnr" v="64217" />
	</node>
	<node id="-593663" lat="59.798244567" lon="5.0772051963">
		<tag k="alt_name" v="Svortlandsbleikja, yt;Svortlandsbleikjene" />
		<tag k="fixme" v="consider seamark:type=rock or natural=shoal" />
		<tag k="name" v="Ytra Svortlandsbleikja" />
		<tag k="place" v="islet" />
		<tag k="ssr:stedsnr" v="64215" />
	</node>
	<node id="-593662" lat="59.8080611107" lon="5.07200277658">
		<tag k="alt_name" v="Mybærosen" />
		<tag k="name" v="Myrbærosen" />
		<tag k="natural" v="strait" />
		<tag k="ssr:stedsnr" v="64213" />
	</node>
	<node id="-593661" lat="59.6425166659" lon="5.21794999352">
		<tag k="name" v="Sparungevika" />
		<tag k="natural" v="bay" />
		<tag k="ssr:stedsnr" v="241765" />
	</node>
	<node id="-593659" lat="59.6861138912" lon="5.29500833996">
		<tag k="name" v="Avløypevika" />
		<tag k="natural" v="bay" />
		<tag k="ssr:stedsnr" v="63948" />
	</node>
	<node id="-593658" lat="59.7082472188" lon="5.13436110422">
		<tag k="name" v="Toskosen" />
		<tag k="natural" v="strait" />
		<tag k="ssr:stedsnr" v="63530" />
	</node>
	<node id="-593657" lat="59.8606555588" lon="5.21902499551">
		<tag k="name" v="Kvass-steinen" />
		<tag k="natural" v="cape" />
		<tag k="ssr:stedsnr" v="241346" />
	</node>
	<node id="-593655" lat="59.5809871252" lon="5.14352091232">
		<tag k="alt_name" v="Austre Marholmane" />
		<tag k="name" v="Austre Marholmen" />
		<tag k="place" v="islet" />
		<tag k="ssr:stedsnr" v="241247" />
	</node>
	<node id="-593654" lat="59.5810861132" lon="5.1435194396">
		<tag k="name" v="Marholmane" />
		<tag k="place" v="islet" />
		<tag k="ssr:stedsnr" v="241201" />
	</node>
	<node id="-593653" lat="59.6681555564" lon="5.21829166625">
		<tag k="name" v="Saga" />
		<tag k="natural" v="bay" />
		<tag k="ssr:stedsnr" v="241082" />
	</node>
	<node id="-593650" lat="59.8765027794" lon="5.17706110949">
		<tag k="name" v="Dyrsundet" />
		<tag k="natural" v="strait" />
		<tag k="ssr:stedsnr" v="239668" />
	</node>
	<node id="-593649" lat="59.58089167" lon="5.17886667043">
		<tag k="name" v="Ramnatrevika" />
		<tag k="natural" v="bay" />
		<tag k="ssr:stedsnr" v="239578" />
	</node>
	<node id="-593648" lat="59.8103527754" lon="5.26433055358">
		<tag k="name" v="Kobbevågen" />
		<tag k="natural" v="bay" />
		<tag k="ssr:stedsnr" v="239389" />
	</node>
	<node id="-593646" lat="59.6937555569" lon="5.11067223017">
		<tag k="alt_name" v="Noravågen;Vågen, nordre;Nordre Vågen" />
		<tag k="loc_name" v="Nordra Vågen" />
		<tag k="name" v="Nordrevågen" />
		<tag k="natural" v="bay" />
		<tag k="ssr:stedsnr" v="58067" />
	</node>
	<node id="-593645" lat="59.7216277814" lon="5.26708610934">
		<tag k="alt_name" v="Eidevika, nordre" />
		<tag k="name" v="Nordra Eidevika" />
		<tag k="natural" v="bay" />
		<tag k="ssr:stedsnr" v="238561" />
	</node>
	<node id="-593644" lat="59.7194833297" lon="5.26940554785">
		<tag k="alt_name" v="Eidevika, s;Eidevik" />
		<tag k="name" v="Søra Eidevika" />
		<tag k="natural" v="bay" />
		<tag k="ssr:stedsnr" v="238559" />
	</node>
	<node id="-593641" lat="59.8464166677" lon="5.25578333949">
		<tag k="name" v="Bleikjo" />
		<tag k="natural" v="bay" />
		<tag k="ssr:stedsnr" v="42348" />
	</node>
	<node id="-593640" lat="59.6048777824" lon="5.12058611532">
		<tag k="name" v="Humrableikja" />
		<tag k="place" v="islet" />
		<tag k="ssr:stedsnr" v="41904" />
	</node>
	<node id="-593639" lat="59.8661388936" lon="5.08688611888">
		<tag k="name" v="Svidholmen" />
		<tag k="place" v="islet" />
		<tag k="ssr:stedsnr" v="41715" />
	</node>
	<node id="-593638" lat="59.8705833368" lon="5.08518332914">
		<tag k="name" v="Langaneset" />
		<tag k="natural" v="cape" />
		<tag k="ssr:stedsnr" v="41714" />
	</node>
	<node id="-593637" lat="59.7082250018" lon="5.21688056148">
		<tag k="name" v="Mjåsundet" />
		<tag k="natural" v="strait" />
		<tag k="ssr:stedsnr" v="41711" />
	</node>
	<node id="-593635" lat="59.6971305582" lon="5.38825833578">
		<tag k="name" v="Hestavika" />
		<tag k="natural" v="bay" />
		<tag k="ssr:stedsnr" v="41316" />
	</node>
	<node id="-593634" lat="59.8187972246" lon="5.27494999095">
		<tag k="name" v="Hågansholmen" />
		<tag k="place" v="islet" />
		<tag k="ssr:stedsnr" v="41407" />
	</node>
	<node id="-593632" lat="59.6968611124" lon="5.33938332752">
		<tag k="name" v="Skardholmen" />
		<tag k="place" v="islet" />
		<tag k="ssr:stedsnr" v="41272" />
	</node>
	<node id="-593631" lat="59.6980944462" lon="5.33293333331">
		<tag k="name" v="Søre Grindeimssundholmen" />
		<tag k="place" v="islet" />
		<tag k="ssr:stedsnr" v="41267" />
	</node>
	<node id="-593630" lat="59.7320333354" lon="5.30117499287">
		<tag k="name" v="Vestre Vågen" />
		<tag k="natural" v="bay" />
		<tag k="ssr:stedsnr" v="40922" />
	</node>
	<node id="-593629" lat="59.9034805545" lon="5.08343611389">
		<tag k="name" v="Steineidet sør" />
		<tag k="natural" v="bay" />
		<tag k="ssr:stedsnr" v="40913" />
	</node>
	<node id="-593628" lat="59.9039916651" lon="5.08097777268">
		<tag k="name" v="Steineidet nord" />
		<tag k="natural" v="bay" />
		<tag k="ssr:stedsnr" v="40912" />
	</node>
	<node id="-593626" lat="59.7110777785" lon="5.25990000227">
		<tag k="name" v="Børøya" />
		<tag k="place" v="island" />
		<tag k="ssr:stedsnr" v="40703" />
	</node>
	<node id="-593625" lat="59.7565361155" lon="5.34772222762">
		<tag k="name" v="Illestigneset" />
		<tag k="natural" v="cape" />
		<tag k="ssr:stedsnr" v="40565" />
	</node>
	<node id="-593624" lat="59.8323333321" lon="5.23638334183">
		<tag k="name" v="Rutlaholmsundet" />
		<tag k="natural" v="strait" />
		<tag k="ssr:stedsnr" v="40371" />
	</node>
	<node id="-593623" lat="59.8353583345" lon="5.24184722814">
		<tag k="name" v="Krabbavika" />
		<tag k="natural" v="bay" />
		<tag k="ssr:stedsnr" v="40370" />
	</node>
	<node id="-593621" lat="59.7129555526" lon="5.09671389483">
		<tag k="name" v="Austra Keila" />
		<tag k="natural" v="bay" />
		<tag k="ssr:stedsnr" v="40301" />
	</node>
	<node id="-593620" lat="59.7388805533" lon="5.14586666103">
		<tag k="name" v="Æsbleikja" />
		<tag k="place" v="island" />
		<tag k="ssr:stedsnr" v="38977" />
	</node>
	<node id="-593619" lat="59.787100002" lon="5.16757500853">
		<tag k="name" v="Grunnavågen" />
		<tag k="natural" v="bay" />
		<tag k="ssr:stedsnr" v="38970" />
	</node>
	<node id="-593617" lat="59.8462722259" lon="5.06444166371">
		<tag k="name" v="Storseihola" />
		<tag k="natural" v="bay" />
		<tag k="ssr:stedsnr" v="38921" />
	</node>
	<node id="-593616" lat="59.8811611107" lon="5.06177500726">
		<tag k="name" v="Hamnaboden" />
		<tag k="natural" v="cape" />
		<tag k="ssr:stedsnr" v="38918" />
	</node>
	<node id="-593615" lat="59.8336083309" lon="5.05815000891">
		<tag k="name" v="Reimersskjera" />
		<tag k="place" v="islet" />
		<tag k="ssr:stedsnr" v="38908" />
	</node>
	<node id="-593614" lat="59.8267027748" lon="5.06599722735">
		<tag k="name" v="Keilebleikjeene" />
		<tag k="place" v="island" />
		<tag k="ssr:stedsnr" v="38905" />
	</node>
	<node id="-593612" lat="59.8267888916" lon="5.1478138872">
		<tag k="alt_name" v="Stiganeset" />
		<tag k="name" v="Steganeset" />
		<tag k="natural" v="cape" />
		<tag k="ssr:stedsnr" v="38872" />
	</node>
	<node id="-593611" lat="59.8360499958" lon="5.19122776963">
		<tag k="name" v="Auelsneset" />
		<tag k="natural" v="cape" />
		<tag k="ssr:stedsnr" v="38865" />
	</node>
	<node id="-593605" lat="59.8318305534" lon="5.12410000055">
		<tag k="name" v="Barmaholmane" />
		<tag k="place" v="islet" />
		<tag k="ssr:stedsnr" v="37218" />
	</node>
	<node id="-593604" lat="59.8062083367" lon="5.10194165919">
		<tag k="name" v="Austre Grunnavågen" />
		<tag k="natural" v="bay" />
		<tag k="ssr:stedsnr" v="37211" />
	</node>
	<node id="-593603" lat="59.7946583298" lon="5.1216305573">
		<tag k="name" v="Skinavika" />
		<tag k="natural" v="bay" />
		<tag k="ssr:stedsnr" v="37209" />
	</node>
	<node id="-593602" lat="59.8001472247" lon="5.11228333249">
		<tag k="name" v="Brekkeholmsundet" />
		<tag k="natural" v="strait" />
		<tag k="ssr:stedsnr" v="37204" />
	</node>
	<node id="-593601" lat="59.7831861113" lon="5.10542777948">
		<tag k="fixme" v="consider seamark:type=rock or natural=shoal" />
		<tag k="name" v="Malskjeret" />
		<tag k="place" v="islet" />
		<tag k="ssr:stedsnr" v="37201" />
	</node>
	<node id="-593599" lat="59.8111416643" lon="5.04758333933">
		<tag k="name" v="Søra Sogøyflua" />
		<tag k="natural" v="shoal" />
		<tag k="place" v="locality" />
		<tag k="ssr:stedsnr" v="25929" />
	</node>
	<node id="-593598" lat="59.8292111088" lon="5.07583332812">
		<tag k="name" v="Andersbleikja" />
		<tag k="place" v="islet" />
		<tag k="ssr:stedsnr" v="25927" />
	</node>
	<node id="-593596" lat="59.6114861108" lon="5.1733833301">
		<tag k="bay" v="fjord" />
		<tag k="name" v="Sætrefjorden" />
		<tag k="natural" v="bay" />
		<tag k="ssr:stedsnr" v="25904" />
	</node>
	<node id="-593595" lat="59.5238083346" lon="5.09256388354">
		<tag k="name" v="Låtersøyboen" />
		<tag k="natural" v="shoal" />
		<tag k="place" v="locality" />
		<tag k="ssr:stedsnr" v="25332" />
	</node>
	<node id="-593594" lat="59.8279277801" lon="5.28282222296">
		<tag k="name" v="Veøyflua" />
		<tag k="natural" v="shoal" />
		<tag k="place" v="locality" />
		<tag k="ssr:stedsnr" v="25240" />
	</node>
	<node id="-593593" lat="59.7809341438" lon="5.31979361974">
		<tag k="alt_name" v="Setraneset;Stora Sætraneset" />
		<tag k="name" v="Sætraneset" />
		<tag k="natural" v="cape" />
		<tag k="ssr:stedsnr" v="25239" />
	</node>
	<node id="-593589" lat="59.6335666661" lon="5.15693056133">
		<tag k="name" v="Straumen" />
		<tag k="natural" v="strait" />
		<tag k="ssr:stedsnr" v="224976" />
	</node>
	<node id="-593587" lat="59.6089555569" lon="5.23238611811">
		<tag k="name" v="Langetangen" />
		<tag k="natural" v="cape" />
		<tag k="ssr:stedsnr" v="224881" />
	</node>
	<node id="-593585" lat="59.8341472246" lon="5.2552166638">
		<tag k="name" v="Nordre Breiavik" />
		<tag k="natural" v="bay" />
		<tag k="ssr:stedsnr" v="224359" />
	</node>
	<node id="-593584" lat="59.696533332" lon="5.30936388696">
		<tag k="name" v="Gula Bleikja" />
		<tag k="place" v="islet" />
		<tag k="ssr:stedsnr" v="224350" />
	</node>
	<node id="-593583" lat="59.6989499981" lon="5.31185278354">
		<tag k="name" v="Sørøyvågen" />
		<tag k="natural" v="bay" />
		<tag k="ssr:stedsnr" v="224347" />
	</node>
	<node id="-593582" lat="59.8215805588" lon="5.28367221393">
		<tag k="name" v="Litla Osparøya" />
		<tag k="place" v="islet" />
		<tag k="ssr:stedsnr" v="224337" />
	</node>
	<node id="-593581" lat="59.6975333319" lon="5.25712500412">
		<tag k="name" v="Krabbavika" />
		<tag k="natural" v="bay" />
		<tag k="ssr:stedsnr" v="224333" />
	</node>
	<node id="-593579" lat="59.7123805552" lon="5.11849166773">
		<tag k="name" v="Toskakeila" />
		<tag k="natural" v="bay" />
		<tag k="ssr:stedsnr" v="224295" />
	</node>
	<node id="-593578" lat="59.7038611136" lon="5.11552777768">
		<tag k="bay" v="fjord" />
		<tag k="name" v="Nordre Osen" />
		<tag k="natural" v="bay" />
		<tag k="ssr:stedsnr" v="224294" />
	</node>
	<node id="-593577" lat="59.7018833289" lon="5.1665972232">
		<tag k="name" v="Skipavika" />
		<tag k="natural" v="bay" />
		<tag k="ssr:stedsnr" v="224289" />
	</node>
	<node id="-593576" lat="59.6056694404" lon="5.10907221721">
		<tag k="name" v="Kalven" />
		<tag k="place" v="island" />
		<tag k="ssr:stedsnr" v="223937" />
	</node>
	<node id="-593575" lat="59.6143416643" lon="5.08812499341">
		<tag k="name" v="Harpeflua" />
		<tag k="place" v="island" />
		<tag k="ssr:stedsnr" v="223915" />
	</node>
	<node id="-593573" lat="59.8662166646" lon="5.08135277907">
		<tag k="name" v="Dørastokken" />
		<tag k="natural" v="strait" />
		<tag k="ssr:stedsnr" v="223750" />
	</node>
	<node id="-593568" lat="59.7179416688" lon="5.35455277537">
		<tag k="name" v="Svinurdsneset" />
		<tag k="natural" v="cape" />
		<tag k="ssr:stedsnr" v="223677" />
	</node>
	<node id="-593567" lat="59.7091111118" lon="5.3807027737">
		<tag k="fixme" v="consider seamark:type=rock or natural=shoal" />
		<tag k="name" v="Terneskjeret" />
		<tag k="place" v="islet" />
		<tag k="ssr:stedsnr" v="223664" />
	</node>
	<node id="-593561" lat="59.6875027807" lon="5.31622499837">
		<tag k="name" v="Straumane" />
		<tag k="natural" v="strait" />
		<tag k="ssr:stedsnr" v="223284" />
	</node>
	<node id="-593560" lat="59.6921750039" lon="5.32863888919">
		<tag k="name" v="Langaneset" />
		<tag k="natural" v="cape" />
		<tag k="ssr:stedsnr" v="223283" />
	</node>
	<node id="-593550" lat="59.8497388895" lon="5.24622500256">
		<tag k="name" v="Tednholmen" />
		<tag k="place" v="islet" />
		<tag k="ssr:stedsnr" v="222333" />
	</node>
	<node id="-593547" lat="59.7318138864" lon="5.14003332716">
		<tag k="name" v="Søra Gardvika" />
		<tag k="natural" v="bay" />
		<tag k="ssr:stedsnr" v="220996" />
	</node>
	<node id="-593546" lat="59.7385833317" lon="5.15044167474">
		<tag k="name" v="Tøkjebleikja" />
		<tag k="place" v="island" />
		<tag k="ssr:stedsnr" v="220972" />
	</node>
	<node id="-593545" lat="59.7888527775" lon="5.16599444363">
		<tag k="name" v="Svortlandsvågen" />
		<tag k="natural" v="bay" />
		<tag k="ssr:stedsnr" v="220970" />
	</node>
	<node id="-593544" lat="59.7579500008" lon="5.21481945216">
		<tag k="name" v="Kvernavika" />
		<tag k="natural" v="bay" />
		<tag k="ssr:stedsnr" v="220959" />
	</node>
	<node id="-593543" lat="59.8233222223" lon="5.10551388348">
		<tag k="name" v="Glodungsvågen" />
		<tag k="natural" v="bay" />
		<tag k="ssr:stedsnr" v="220952" />
	</node>
	<node id="-593541" lat="59.8524833323" lon="5.07288610974">
		<tag k="name" v="Bjørnsvågen" />
		<tag k="natural" v="bay" />
		<tag k="ssr:stedsnr" v="220922" />
	</node>
	<node id="-593540" lat="59.8425555571" lon="5.07592222413">
		<tag k="name" v="Halvardshola" />
		<tag k="natural" v="bay" />
		<tag k="ssr:stedsnr" v="220904" />
	</node>
	<node id="-593539" lat="59.8836527734" lon="5.07307222024">
		<tag k="name" v="Vestre Jernnaglevika" />
		<tag k="natural" v="bay" />
		<tag k="ssr:stedsnr" v="220898" />
	</node>
	<node id="-593538" lat="59.8050555522" lon="5.07734722047">
		<tag k="name" v="Likvika" />
		<tag k="natural" v="bay" />
		<tag k="ssr:stedsnr" v="220897" />
	</node>
	<node id="-593537" lat="59.83091667" lon="5.06635277431">
		<tag k="name" v="Laksholmetærene" />
		<tag k="place" v="island" />
		<tag k="ssr:stedsnr" v="220889" />
	</node>
	<node id="-593532" lat="59.8233888932" lon="5.14820000543">
		<tag k="name" v="Breiavika" />
		<tag k="natural" v="bay" />
		<tag k="ssr:stedsnr" v="220867" />
	</node>
	<node id="-593530" lat="59.8177982052" lon="5.11031849334">
		<tag k="name" v="Flatholmen" />
		<tag k="place" v="islet" />
		<tag k="ssr:stedsnr" v="220851" />
	</node>
	<node id="-593527" lat="59.7517833343" lon="5.18529999232">
		<tag k="name" v="Sponavikholmen" />
		<tag k="place" v="islet" />
		<tag k="ssr:stedsnr" v="220824" />
	</node>
	<node id="-593526" lat="59.7619527763" lon="5.17338332767">
		<tag k="name" v="Pøyla" />
		<tag k="natural" v="bay" />
		<tag k="ssr:stedsnr" v="220823" />
	</node>
	<node id="-593525" lat="59.7620527776" lon="5.15796943898">
		<tag k="name" v="Presthavn" />
		<tag k="natural" v="bay" />
		<tag k="ssr:stedsnr" v="220821" />
	</node>
	<node id="-593524" lat="59.7460194477" lon="5.16064722521">
		<tag k="name" v="Nordre Barmane" />
		<tag k="natural" v="bay" />
		<tag k="ssr:stedsnr" v="220268" />
	</node>
	<node id="-593523" lat="59.7549333362" lon="5.14207222747">
		<tag k="name" v="Strutsøya" />
		<tag k="natural" v="cape" />
		<tag k="ssr:stedsnr" v="220239" />
	</node>
	<node id="-593522" lat="59.7569416702" lon="5.11146110935">
		<tag k="name" v="Teistableikja" />
		<tag k="place" v="island" />
		<tag k="ssr:stedsnr" v="220171" />
	</node>
	<node id="-593521" lat="59.7550954488" lon="5.10993781695">
		<tag k="alt_name" v="Svartøya, s" />
		<tag k="name" v="Søra Svartøya" />
		<tag k="place" v="island" />
		<tag k="ssr:stedsnr" v="4576" />
	</node>
	<node id="-593520" lat="59.7552944472" lon="5.13832499192">
		<tag k="alt_name" v="Strutsøya;Strussøy" />
		<tag k="name" v="Strussøya" />
		<tag k="natural" v="cape" />
		<tag k="ssr:stedsnr" v="4571" />
	</node>
	<node id="-593519" lat="59.8841660895" lon="5.17376612427">
		<tag k="alt_name" v="Rørøy" />
		<tag k="name" v="Røyrøya" />
		<tag k="place" v="island" />
		<tag k="ssr:stedsnr" v="4557" />
	</node>
	<node id="-593517" lat="59.7987083316" lon="5.09194445292">
		<tag k="name" v="Sandsundet" />
		<tag k="natural" v="strait" />
		<tag k="ssr:stedsnr" v="219193" />
	</node>
	<node id="-593516" lat="59.7664611145" lon="5.11505000061">
		<tag k="name" v="Vadholmen" />
		<tag k="place" v="islet" />
		<tag k="ssr:stedsnr" v="219169" />
	</node>
	<node id="-593515" lat="59.7683111117" lon="5.11805832626">
		<tag k="name" v="Ingebriktsneset" />
		<tag k="natural" v="cape" />
		<tag k="ssr:stedsnr" v="219168" />
	</node>
	<node id="-595107" lat="59.7093499992" lon="5.11788056388">
		<tag k="name" v="Breidvika" />
		<tag k="natural" v="bay" />
		<tag k="ssr:stedsnr" v="3451" />
	</node>
	<node id="-595106" lat="59.8246111086" lon="5.09192500617">
		<tag k="name" v="Marlaukeholmen" />
		<tag k="place" v="islet" />
		<tag k="ssr:stedsnr" v="3205" />
	</node>
	<node id="-595105" lat="59.8224777804" lon="5.05780554838">
		<tag k="alt_name" v="Sæingsbleikja, nordre" />
		<tag k="fixme" v="consider seamark:type=rock or natural=shoal" />
		<tag k="name" v="Nordra Sæingsbleikja" />
		<tag k="place" v="islet" />
		<tag k="ssr:stedsnr" v="3199" />
	</node>
	<node id="-595104" lat="59.8495972184" lon="5.07905556407">
		<tag k="name" v="Hestavika" />
		<tag k="natural" v="bay" />
		<tag k="ssr:stedsnr" v="3189" />
	</node>
	<node id="-595103" lat="59.8537500029" lon="5.05976666432">
		<tag k="name" v="Goddeneset" />
		<tag k="natural" v="cape" />
		<tag k="ssr:stedsnr" v="3188" />
	</node>
	<node id="-595102" lat="59.8289138854" lon="5.06704721899">
		<tag k="name" v="Laksholmane" />
		<tag k="place" v="islet" />
		<tag k="ssr:stedsnr" v="3180" />
	</node>
	<node id="-595075" lat="59.7542211582" lon="5.1468256201">
		<tag k="name" v="Austra Tuvesundet" />
		<tag k="natural" v="strait" />
		<tag k="ssr:stedsnr" v="982280" />
	</node>
	<node id="-595074" lat="59.8792117894" lon="5.14006500024">
		<tag k="name" v="Parakholmane" />
		<tag k="place" v="islet" />
		<tag k="ssr:stedsnr" v="982240" />
	</node>
	<node id="-595073" lat="59.872126981" lon="5.14929171883">
		<tag k="name" v="Koløystø" />
		<tag k="natural" v="bay" />
		<tag k="ssr:stedsnr" v="982239" />
	</node>
	<node id="-595070" lat="59.7983193715" lon="5.12526365421">
		<tag k="name" v="Sjøbusundet" />
		<tag k="natural" v="strait" />
		<tag k="ssr:stedsnr" v="982232" />
	</node>
	<node id="-595069" lat="59.7681215958" lon="5.1050224489">
		<tag k="name" v="Nordre Brømsundsholmen" />
		<tag k="place" v="islet" />
		<tag k="ssr:stedsnr" v="982224" />
	</node>
	<node id="-595068" lat="59.7673913251" lon="5.10680843911">
		<tag k="name" v="Søre Brømsundsholmen" />
		<tag k="place" v="islet" />
		<tag k="ssr:stedsnr" v="982213" />
	</node>
	<node id="-595067" lat="59.5915856267" lon="5.15653415844">
		<tag k="name" v="Kjeholmsundet" />
		<tag k="natural" v="strait" />
		<tag k="ssr:stedsnr" v="981916" />
	</node>
	<node id="-595066" lat="59.7295311227" lon="5.343427399">
		<tag k="name" v="Sanden" />
		<tag k="natural" v="bay" />
		<tag k="ssr:stedsnr" v="981506" />
	</node>
	<node id="-595064" lat="59.7289487934" lon="5.34144828824">
		<tag k="name" v="Kjeringhola" />
		<tag k="natural" v="strait" />
		<tag k="ssr:stedsnr" v="981504" />
	</node>
	<node id="-595063" lat="59.7283656792" lon="5.33980558356">
		<tag k="name" v="Keisarvika" />
		<tag k="natural" v="bay" />
		<tag k="ssr:stedsnr" v="981503" />
	</node>
	<node id="-595060" lat="59.7297013259" lon="5.33261494646">
		<tag k="fixme" v="consider seamark:type=rock or natural=shoal" />
		<tag k="name" v="Bleika" />
		<tag k="place" v="islet" />
		<tag k="ssr:stedsnr" v="981430" />
	</node>
	<node id="-595059" lat="59.7316055598" lon="5.22741111265">
		<tag k="name" v="Russestraumen" />
		<tag k="natural" v="strait" />
		<tag k="ssr:stedsnr" v="969977" />
	</node>
	<node id="-595058" lat="59.7340000018" lon="5.22947222538">
		<tag k="name" v="Anskot" />
		<tag k="natural" v="cape" />
		<tag k="ssr:stedsnr" v="969974" />
	</node>
	<node id="-595056" lat="59.8870611079" lon="5.12157778584">
		<tag k="name" v="Stutabåsen" />
		<tag k="natural" v="bay" />
		<tag k="ssr:stedsnr" v="969717" />
	</node>
	<node id="-595053" lat="59.8818305516" lon="5.16702499869">
		<tag k="name" v="Stakkholmane" />
		<tag k="place" v="islet" />
		<tag k="ssr:stedsnr" v="967624" />
	</node>
	<node id="-595052" lat="59.8853805527" lon="5.161427775">
		<tag k="name" v="Gjevholmen" />
		<tag k="place" v="islet" />
		<tag k="ssr:stedsnr" v="967610" />
	</node>
	<node id="-595050" lat="59.696041668" lon="5.32776943675">
		<tag k="name" v="Kyrkjesundholmen" />
		<tag k="place" v="islet" />
		<tag k="ssr:stedsnr" v="951263" />
	</node>
	<node id="-595049" lat="59.6905000025" lon="5.31378055551">
		<tag k="name" v="Rutsøya" />
		<tag k="place" v="island" />
		<tag k="ssr:stedsnr" v="951256" />
	</node>
	<node id="-595048" lat="59.8391916671" lon="5.1516250039">
		<tag k="name" v="Erevika" />
		<tag k="natural" v="bay" />
		<tag k="ssr:stedsnr" v="951253" />
	</node>
	<node id="-595047" lat="59.7462055582" lon="5.21131666137">
		<tag k="name" v="Lambholmsundet" />
		<tag k="natural" v="strait" />
		<tag k="ssr:stedsnr" v="950112" />
	</node>
	<node id="-595044" lat="59.8121666651" lon="5.06557222373">
		<tag k="name" v="Langholmsundet" />
		<tag k="natural" v="strait" />
		<tag k="ssr:stedsnr" v="948922" />
	</node>
	<node id="-595043" lat="59.8101972196" lon="5.06416944809">
		<tag k="name" v="Sogøysundet" />
		<tag k="natural" v="strait" />
		<tag k="ssr:stedsnr" v="948921" />
	</node>
	<node id="-595042" lat="59.837961112" lon="5.16453611893">
		<tag k="name" v="Skateholmen" />
		<tag k="place" v="islet" />
		<tag k="ssr:stedsnr" v="948876" />
	</node>
	<node id="-595041" lat="59.8234638872" lon="5.13553333987">
		<tag k="name" v="Veket" />
		<tag k="natural" v="strait" />
		<tag k="ssr:stedsnr" v="948864" />
	</node>
	<node id="-595040" lat="59.6536250031" lon="5.15173888878">
		<tag k="name" v="Bekkjaneset" />
		<tag k="natural" v="cape" />
		<tag k="ssr:stedsnr" v="948863" />
	</node>
	<node id="-595039" lat="59.812138885" lon="5.13363333737">
		<tag k="name" v="Kobbavågen" />
		<tag k="natural" v="bay" />
		<tag k="ssr:stedsnr" v="948859" />
	</node>
	<node id="-595036" lat="59.7725194438" lon="5.12146666613">
		<tag k="name" v="Søre Melingsvågen" />
		<tag k="natural" v="bay" />
		<tag k="ssr:stedsnr" v="947177" />
	</node>
	<node id="-595035" lat="59.7662805527" lon="5.11004999396">
		<tag k="name" v="Hjeltaholmen" />
		<tag k="place" v="islet" />
		<tag k="ssr:stedsnr" v="947176" />
	</node>
	<node id="-595034" lat="59.7817388872" lon="5.11538611878">
		<tag k="name" v="Litlanesholmen" />
		<tag k="place" v="island" />
		<tag k="ssr:stedsnr" v="947173" />
	</node>
	<node id="-595033" lat="59.7848333322" lon="5.12581111635">
		<tag k="name" v="Krihavet" />
		<tag k="natural" v="bay" />
		<tag k="ssr:stedsnr" v="947171" />
	</node>
	<node id="-595031" lat="59.7880305535" lon="5.08311389083">
		<tag k="name" v="Langableikja" />
		<tag k="place" v="island" />
		<tag k="ssr:stedsnr" v="947214" />
	</node>
	<node id="-595029" lat="59.8611694442" lon="5.14109445327">
		<tag k="name" v="Åleflua" />
		<tag k="natural" v="shoal" />
		<tag k="place" v="locality" />
		<tag k="ssr:stedsnr" v="936835" />
	</node>
	<node id="-595026" lat="59.7356916702" lon="5.22671666315">
		<tag k="name" v="Kuleseidvågen" />
		<tag k="natural" v="bay" />
		<tag k="ssr:stedsnr" v="935836" />
	</node>
	<node id="-595024" lat="59.8427888854" lon="5.07380277175">
		<tag k="name" v="Kleppen" />
		<tag k="place" v="islet" />
		<tag k="ssr:stedsnr" v="935923" />
	</node>
	<node id="-595023" lat="59.6245954196" lon="5.17081357548">
		<tag k="name" v="Vikaflua" />
		<tag k="natural" v="shoal" />
		<tag k="place" v="locality" />
		<tag k="ssr:stedsnr" v="935918" />
	</node>
	<node id="-595022" lat="59.8285583339" lon="5.10010556107">
		<tag k="name" v="Goddestakksundet" />
		<tag k="natural" v="strait" />
		<tag k="ssr:stedsnr" v="935914" />
	</node>
	<node id="-595021" lat="59.7839545468" lon="5.16439739786">
		<tag k="name" v="Svortlandsstraumen" />
		<tag k="natural" v="strait" />
		<tag k="ssr:stedsnr" v="935703" />
	</node>
	<node id="-595020" lat="59.6016166684" lon="5.11331944292">
		<tag k="name" v="Kvaløyflua" />
		<tag k="natural" v="shoal" />
		<tag k="place" v="locality" />
		<tag k="ssr:stedsnr" v="935549" />
	</node>
	<node id="-595017" lat="59.8415000042" lon="5.27876667137">
		<tag k="alt_name" v="Bremenholm" />
		<tag k="name" v="Brømenholmen" />
		<tag k="place" v="islet" />
		<tag k="ssr:stedsnr" v="914995" />
	</node>
	<node id="-595016" lat="59.8305499998" lon="5.1467444484">
		<tag k="name" v="Blåkinn" />
		<tag k="place" v="islet" />
		<tag k="ssr:stedsnr" v="914992" />
	</node>
	<node id="-595015" lat="59.8397999958" lon="5.16718334236">
		<tag k="alt_name" v="Langøy" />
		<tag k="name" v="Langøya" />
		<tag k="place" v="islet" />
		<tag k="ssr:stedsnr" v="914988" />
	</node>
	<node id="-595014" lat="59.8301944401" lon="5.24310277042">
		<tag k="alt_name" v="Rubbestadnesklubben" />
		<tag k="name" v="Rubbestadklubben" />
		<tag k="natural" v="cape" />
		<tag k="ssr:stedsnr" v="914975" />
	</node>
	<node id="-595013" lat="59.8221138875" lon="5.26777499623">
		<tag k="alt_name" v="Lyrholmen" />
		<tag k="name" v="Lyraholmen" />
		<tag k="place" v="islet" />
		<tag k="ssr:stedsnr" v="914967" />
	</node>
	<node id="-595011" lat="59.7367250016" lon="5.15214999315">
		<tag k="name" v="Lomholmen" />
		<tag k="place" v="islet" />
		<tag k="ssr:stedsnr" v="913542" />
	</node>
	<node id="-595010" lat="59.7339055536" lon="5.19969444841">
		<tag k="name" v="Selvågen" />
		<tag k="natural" v="bay" />
		<tag k="ssr:stedsnr" v="913540" />
	</node>
	<node id="-595009" lat="59.7382277811" lon="5.21141943804">
		<tag k="name" v="Leirpollen" />
		<tag k="natural" v="bay" />
		<tag k="ssr:stedsnr" v="913538" />
	</node>
	<node id="-595008" lat="59.7102277759" lon="5.3617416748">
		<tag k="name" v="Grønåsvågen" />
		<tag k="natural" v="bay" />
		<tag k="ssr:stedsnr" v="913528" />
	</node>
	<node id="-595006" lat="59.6942861091" lon="5.16751944162">
		<tag k="alt_name" v="Keilo" />
		<tag k="name" v="Keila" />
		<tag k="natural" v="bay" />
		<tag k="ssr:stedsnr" v="913518" />
	</node>
	<node id="-595005" lat="59.6892361087" lon="5.12595555796">
		<tag k="name" v="Geitung" />
		<tag k="place" v="island" />
		<tag k="ssr:stedsnr" v="913516" />
	</node>
	<node id="-595000" lat="59.7631027803" lon="5.11448889333">
		<tag k="name" v="Komløysundet" />
		<tag k="natural" v="strait" />
		<tag k="ssr:stedsnr" v="888109" />
	</node>
	<node id="-594999" lat="59.7455027812" lon="5.12961944849">
		<tag k="name" v="Korleosen" />
		<tag k="natural" v="strait" />
		<tag k="ssr:stedsnr" v="888106" />
	</node>
	<node id="-594998" lat="59.7606861146" lon="5.19844721945">
		<tag k="name" v="Straumsvika" />
		<tag k="natural" v="bay" />
		<tag k="ssr:stedsnr" v="887965" />
	</node>
	<node id="-594997" lat="59.8158999964" lon="5.13266110286">
		<tag k="name" v="Erestraumen" />
		<tag k="natural" v="strait" />
		<tag k="ssr:stedsnr" v="887962" />
	</node>
	<node id="-594994" lat="59.8722861131" lon="5.15113888355">
		<tag k="fixme" v="multiple name tags, choose one and add the other to alt_name" />
		<tag k="name" v="Bleikja;Slåttebleikja" />
		<tag k="place" v="island" />
		<tag k="ssr:stedsnr" v="887873" />
	</node>
	<node id="-594992" lat="59.8098138893" lon="5.14947222658">
		<tag k="name" v="Søre Glipholmsstraumen" />
		<tag k="natural" v="strait" />
		<tag k="ssr:stedsnr" v="887854" />
	</node>
	<node id="-594991" lat="59.8218166707" lon="5.10488611855">
		<tag k="name" v="Årabladholmen" />
		<tag k="place" v="islet" />
		<tag k="ssr:stedsnr" v="887816" />
	</node>
	<node id="-594990" lat="59.8102694429" lon="5.09199999166">
		<tag k="name" v="Brattholmen" />
		<tag k="place" v="islet" />
		<tag k="ssr:stedsnr" v="887813" />
	</node>
	<node id="-594989" lat="59.8176583349" lon="5.12173611611">
		<tag k="name" v="Stongholmsundet" />
		<tag k="natural" v="strait" />
		<tag k="ssr:stedsnr" v="887803" />
	</node>
	<node id="-594988" lat="59.7463944473" lon="5.11619999166">
		<tag k="name" v="Nyvingosen" />
		<tag k="natural" v="strait" />
		<tag k="ssr:stedsnr" v="887157" />
	</node>
	<node id="-594987" lat="59.7632083377" lon="5.11575555444">
		<tag k="name" v="Litlaneset" />
		<tag k="natural" v="cape" />
		<tag k="ssr:stedsnr" v="887155" />
	</node>
	<node id="-594986" lat="59.7200444431" lon="5.41788888483">
		<tag k="name" v="Katleflua" />
		<tag k="natural" v="shoal" />
		<tag k="place" v="locality" />
		<tag k="ssr:stedsnr" v="875642" />
	</node>
	<node id="-594985" lat="59.7995388879" lon="5.12510000148">
		<tag k="name" v="Sjøbuholmen" />
		<tag k="place" v="islet" />
		<tag k="ssr:stedsnr" v="874957" />
	</node>
	<node id="-594984" lat="59.8465333335" lon="4.98758334062">
		<tag k="name" v="Breidgrunnen" />
		<tag k="natural" v="shoal" />
		<tag k="place" v="locality" />
		<tag k="ssr:stedsnr" v="874920" />
	</node>
	<node id="-594983" lat="59.7300166706" lon="5.33149999736">
		<tag k="name" v="Vestra Røyksundet" />
		<tag k="natural" v="strait" />
		<tag k="ssr:stedsnr" v="950369" />
	</node>
	<node id="-594982" lat="59.7228722217" lon="5.35152222321">
		<tag k="name" v="Straumsklubben" />
		<tag k="natural" v="cape" />
		<tag k="ssr:stedsnr" v="950363" />
	</node>
	<node id="-594981" lat="59.6838472224" lon="5.36492777039">
		<tag k="name" v="Flui" />
		<tag k="natural" v="shoal" />
		<tag k="place" v="locality" />
		<tag k="ssr:stedsnr" v="874724" />
	</node>
	<node id="-594979" lat="59.8436662689" lon="5.22760116952">
		<tag k="name" v="Tobakksholmane" />
		<tag k="place" v="islet" />
		<tag k="ssr:stedsnr" v="950328" />
	</node>
	<node id="-594978" lat="59.5100472243" lon="5.08724166153">
		<tag k="name" v="Reidarsnakken" />
		<tag k="natural" v="shoal" />
		<tag k="place" v="locality" />
		<tag k="ssr:stedsnr" v="874310" />
	</node>
	<node id="-594977" lat="59.7618388918" lon="5.16700834105">
		<tag k="name" v="Langøya" />
		<tag k="place" v="island" />
		<tag k="ssr:stedsnr" v="949184" />
	</node>
	<node id="-594976" lat="59.7564472251" lon="5.12816111757">
		<tag k="fixme" v="consider seamark:type=rock or natural=shoal" />
		<tag k="name" v="Kvalen" />
		<tag k="place" v="islet" />
		<tag k="ssr:stedsnr" v="949182" />
	</node>
	<node id="-594974" lat="59.7258166673" lon="5.13813610736">
		<tag k="name" v="Sandvågen" />
		<tag k="natural" v="bay" />
		<tag k="ssr:stedsnr" v="948996" />
	</node>
	<node id="-594972" lat="59.8167475709" lon="5.1732361146">
		<tag k="name" v="Sætraholmen" />
		<tag k="place" v="islet" />
		<tag k="ssr:stedsnr" v="948897" />
	</node>
	<node id="-594971" lat="59.8164749988" lon="5.14390556186">
		<tag k="name" v="Mækjervikneset" />
		<tag k="natural" v="cape" />
		<tag k="ssr:stedsnr" v="948892" />
	</node>
	<node id="-594970" lat="59.8181666621" lon="5.16850832595">
		<tag k="name" v="Litle Kattholmen" />
		<tag k="place" v="islet" />
		<tag k="ssr:stedsnr" v="948889" />
	</node>
	<node id="-594969" lat="59.8308472242" lon="5.18447777798">
		<tag k="alt_name" v="Korkneset" />
		<tag k="name" v="Krokneset" />
		<tag k="natural" v="cape" />
		<tag k="ssr:stedsnr" v="948886" />
	</node>
	<node id="-594968" lat="59.858194443" lon="5.07455555274">
		<tag k="name" v="Nordavindsholmen" />
		<tag k="place" v="islet" />
		<tag k="ssr:stedsnr" v="948944" />
	</node>
	<node id="-594967" lat="59.8648694453" lon="5.077486112">
		<tag k="name" v="Vestre Goddeploven" />
		<tag k="natural" v="bay" />
		<tag k="ssr:stedsnr" v="948936" />
	</node>
	<node id="-594963" lat="59.7549833347" lon="5.1931194435">
		<tag k="name" v="Terna" />
		<tag k="natural" v="cape" />
		<tag k="ssr:stedsnr" v="948841" />
	</node>
	<node id="-594962" lat="59.7465527738" lon="5.17789722289">
		<tag k="fixme" v="consider seamark:type=rock or natural=shoal" />
		<tag k="name" v="Dyrøyskjera" />
		<tag k="place" v="islet" />
		<tag k="ssr:stedsnr" v="948832" />
	</node>
	<node id="-594961" lat="59.7635666665" lon="5.17092222886">
		<tag k="name" v="Helgebleikja" />
		<tag k="place" v="island" />
		<tag k="ssr:stedsnr" v="948831" />
	</node>
	<node id="-594959" lat="59.7693388867" lon="5.10486110838">
		<tag k="name" v="Brømsund" />
		<tag k="natural" v="strait" />
		<tag k="ssr:stedsnr" v="947180" />
	</node>
	<node id="-594958" lat="59.8299097574" lon="5.1484594932">
		<tag k="name" v="Nautasundet" />
		<tag k="natural" v="strait" />
		<tag k="ssr:stedsnr" v="947233" />
	</node>
	<node id="-594957" lat="59.7519250023" lon="5.11834166568">
		<tag k="fixme" v="consider seamark:type=rock or natural=shoal" />
		<tag k="name" v="Høgableikja" />
		<tag k="place" v="islet" />
		<tag k="ssr:stedsnr" v="854560" />
	</node>
	<node id="-594954" lat="59.7976666712" lon="5.1026777802">
		<tag k="name" v="Kjerringholmen" />
		<tag k="place" v="islet" />
		<tag k="ssr:stedsnr" v="854516" />
	</node>
	<node id="-594952" lat="59.5883027809" lon="5.1355305591">
		<tag k="alt_name" v="Nautøy" />
		<tag k="name" v="Nautøya" />
		<tag k="place" v="island" />
		<tag k="ssr:stedsnr" v="854055" />
	</node>
	<node id="-594951" lat="59.6963555597" lon="5.24462778583">
		<tag k="alt_name" v="Dysvik" />
		<tag k="name" v="Døsvika" />
		<tag k="natural" v="bay" />
		<tag k="ssr:stedsnr" v="853959" />
	</node>
	<node id="-594950" lat="59.8104750004" lon="5.17285278282">
		<tag k="name" v="Urangsvågen" />
		<tag k="natural" v="bay" />
		<tag k="ssr:stedsnr" v="853958" />
	</node>
	<node id="-594949" lat="59.6946972255" lon="5.32443055979">
		<tag k="name" v="Kyrkjesundholmen" />
		<tag k="place" v="islet" />
		<tag k="ssr:stedsnr" v="853954" />
	</node>
	<node id="-594948" lat="59.634655556" lon="5.15944999757">
		<tag k="name" v="Vindberg" />
		<tag k="natural" v="cape" />
		<tag k="ssr:stedsnr" v="853927" />
	</node>
	<node id="-594946" lat="59.6430861105" lon="5.07355277359">
		<tag k="alt_name" v="Båaskjeret" />
		<tag k="fixme" v="consider seamark:type=rock or natural=shoal" />
		<tag k="name" v="Boaskjeret" />
		<tag k="place" v="islet" />
		<tag k="ssr:stedsnr" v="853914" />
	</node>
	<node id="-594945" lat="59.7281111105" lon="5.11913888882">
		<tag k="fixme" v="consider seamark:type=rock or natural=shoal" />
		<tag k="name" v="Skarvaskjeret" />
		<tag k="place" v="islet" />
		<tag k="ssr:stedsnr" v="853578" />
	</node>
	<node id="-594944" lat="59.7225694466" lon="5.12355555018">
		<tag k="name" v="Kubbholmen" />
		<tag k="place" v="islet" />
		<tag k="ssr:stedsnr" v="853576" />
	</node>
	<node id="-594943" lat="59.7243583341" lon="5.17738888666">
		<tag k="alt_name" v="Hellvikneset" />
		<tag k="name" v="Hellevikneset" />
		<tag k="natural" v="cape" />
		<tag k="ssr:stedsnr" v="853574" />
	</node>
	<node id="-594942" lat="59.7301499971" lon="5.26264444667">
		<tag k="alt_name" v="Ulvesøya, stora;Stora Ulvøy;Ulvesøya" />
		<tag k="name" v="Stora Ulvesøya" />
		<tag k="old_name" v="Ulvesøya, s" />
		<tag k="place" v="island" />
		<tag k="ssr:stedsnr" v="853570" />
	</node>
	<node id="-594940" lat="59.716705557" lon="5.33160554884">
		<tag k="name" v="Urdaneset" />
		<tag k="natural" v="cape" />
		<tag k="ssr:stedsnr" v="853503" />
	</node>
	<node id="-594938" lat="59.6123472178" lon="5.09057499477">
		<tag k="alt_name" v="Skardholmen, s" />
		<tag k="loc_name" v="Skarholmen, s" />
		<tag k="name" v="Søre Skardholmen" />
		<tag k="place" v="islet" />
		<tag k="ssr:stedsnr" v="853807" />
	</node>
	<node id="-594937" lat="59.5423444448" lon="5.14609445296">
		<tag k="name" v="Sengene" />
		<tag k="place" v="islet" />
		<tag k="ssr:stedsnr" v="853163" />
	</node>
	<node id="-594936" lat="59.8133916674" lon="5.00528056348">
		<tag k="name" v="Vieflua" />
		<tag k="natural" v="shoal" />
		<tag k="place" v="locality" />
		<tag k="ssr:stedsnr" v="853208" />
	</node>
	<node id="-594935" lat="59.6332083352" lon="5.24370555636">
		<tag k="alt_name" v="Fureneset" />
		<tag k="name" v="Foreneset" />
		<tag k="natural" v="cape" />
		<tag k="ssr:stedsnr" v="852910" />
	</node>
	<node id="-594934" lat="59.6159638899" lon="5.09703888664">
		<tag k="fixme" v="consider seamark:type=rock or natural=shoal" />
		<tag k="name" v="Djupvågsbleikja" />
		<tag k="place" v="islet" />
		<tag k="ssr:stedsnr" v="852815" />
	</node>
	<node id="-594933" lat="59.7343000022" lon="5.11071110435">
		<tag k="fixme" v="consider seamark:type=rock or natural=shoal" />
		<tag k="name" v="Gangvadskjeret" />
		<tag k="place" v="islet" />
		<tag k="ssr:stedsnr" v="852563" />
	</node>
	<node id="-594932" lat="59.7422833339" lon="5.20584999638">
		<tag k="name" v="Reianeset" />
		<tag k="natural" v="cape" />
		<tag k="ssr:stedsnr" v="852558" />
	</node>
	<node id="-594928" lat="59.6870555522" lon="5.10999166626">
		<tag k="name" v="Bleikjene" />
		<tag k="place" v="islet" />
		<tag k="ssr:stedsnr" v="937350" />
	</node>
	<node id="-594926" lat="59.7561999986" lon="5.3475472271">
		<tag k="name" v="Illestigtå" />
		<tag k="natural" v="cape" />
		<tag k="ssr:stedsnr" v="936660" />
	</node>
	<node id="-594924" lat="59.65816111" lon="5.11210000556">
		<tag k="name" v="Hamnøygrunnen" />
		<tag k="natural" v="shoal" />
		<tag k="place" v="locality" />
		<tag k="ssr:stedsnr" v="936557" />
	</node>
	<node id="-594923" lat="59.6681472188" lon="5.1068722162">
		<tag k="name" v="Holsøybakkane" />
		<tag k="place" v="locality" />
		<tag k="ssr:stedsnr" v="936554" />
	</node>
	<node id="-594918" lat="59.6079055551" lon="5.1159638865">
		<tag k="alt_name" v="Lyngstilla, L" />
		<tag k="name" v="Litla Lyngstilla" />
		<tag k="place" v="islet" />
		<tag k="ssr:stedsnr" v="936364" />
	</node>
	<node id="-594917" lat="59.5539666643" lon="5.13236666847">
		<tag k="name" v="Raudholmflua" />
		<tag k="natural" v="shoal" />
		<tag k="place" v="locality" />
		<tag k="ssr:stedsnr" v="936058" />
	</node>
	<node id="-594916" lat="59.7615222233" lon="5.17035278398">
		<tag k="name" v="Hillesholmen" />
		<tag k="place" v="islet" />
		<tag k="ssr:stedsnr" v="936323" />
	</node>
	<node id="-594915" lat="59.8454805584" lon="5.25508333339">
		<tag k="name" v="Austneset" />
		<tag k="natural" v="cape" />
		<tag k="ssr:stedsnr" v="935746" />
	</node>
	<node id="-594914" lat="59.7047249994" lon="5.293180549">
		<tag k="name" v="Flatholmfluene" />
		<tag k="natural" v="shoal" />
		<tag k="place" v="locality" />
		<tag k="ssr:stedsnr" v="935722" />
	</node>
	<node id="-594913" lat="59.691304539" lon="5.33323558789">
		<tag k="alt_name" v="Tjørnanesvåg" />
		<tag k="name" v="Tjørnanesvågen" />
		<tag k="natural" v="bay" />
		<tag k="ssr:stedsnr" v="935720" />
	</node>
	<node id="-594912" lat="59.6822333307" lon="5.35184166972">
		<tag k="name" v="Stryveven" />
		<tag k="place" v="islet" />
		<tag k="ssr:stedsnr" v="935718" />
	</node>
	<node id="-594911" lat="59.9062111073" lon="5.11035556001">
		<tag k="name" v="Rinalden" />
		<tag k="natural" v="cape" />
		<tag k="ssr:stedsnr" v="935360" />
	</node>
	<node id="-594910" lat="59.7449777772" lon="5.34004444966">
		<tag k="name" v="Laksavåg" />
		<tag k="natural" v="bay" />
		<tag k="ssr:stedsnr" v="829438" />
	</node>
	<node id="-594908" lat="59.8402583291" lon="5.23029167192">
		<tag k="name" v="Seiavikneset" />
		<tag k="natural" v="cape" />
		<tag k="ssr:stedsnr" v="829332" />
	</node>
	<node id="-594907" lat="59.8482000037" lon="5.22447777007">
		<tag k="name" v="Florsvika" />
		<tag k="natural" v="bay" />
		<tag k="ssr:stedsnr" v="829329" />
	</node>
	<node id="-594906" lat="59.8442222208" lon="5.23186111744">
		<tag k="name" v="Rotatjørnsvika" />
		<tag k="natural" v="bay" />
		<tag k="ssr:stedsnr" v="829326" />
	</node>
	<node id="-594905" lat="59.8509388893" lon="5.22906388885">
		<tag k="name" v="Ørneklubben" />
		<tag k="natural" v="cape" />
		<tag k="ssr:stedsnr" v="829325" />
	</node>
	<node id="-594904" lat="59.5756722222" lon="5.20214167289">
		<tag k="name" v="Barlindeflua" />
		<tag k="natural" v="shoal" />
		<tag k="place" v="locality" />
		<tag k="ssr:stedsnr" v="935044" />
	</node>
	<node id="-594903" lat="59.9046111084" lon="5.03773611515">
		<tag k="name" v="Nordre Høklo" />
		<tag k="natural" v="shoal" />
		<tag k="place" v="locality" />
		<tag k="ssr:stedsnr" v="935027" />
	</node>
	<node id="-594902" lat="59.7009250017" lon="5.13027777231">
		<tag k="name" v="Grunnarevet" />
		<tag k="natural" v="shoal" />
		<tag k="place" v="locality" />
		<tag k="ssr:stedsnr" v="815308" />
	</node>
	<node id="-594901" lat="59.5428916706" lon="5.13815276925">
		<tag k="name" v="Sundanakken" />
		<tag k="natural" v="shoal" />
		<tag k="place" v="locality" />
		<tag k="ssr:stedsnr" v="815062" />
	</node>
	<node id="-594900" lat="59.5596833369" lon="5.14508611605">
		<tag k="name" v="Skotaboen" />
		<tag k="natural" v="shoal" />
		<tag k="place" v="locality" />
		<tag k="ssr:stedsnr" v="815060" />
	</node>
	<node id="-594899" lat="59.5845916675" lon="5.13712499208">
		<tag k="name" v="Romsholmen" />
		<tag k="place" v="islet" />
		<tag k="ssr:stedsnr" v="814868" />
	</node>
	<node id="-594898" lat="59.5955611083" lon="5.15058333645">
		<tag k="name" v="Nordrevågen" />
		<tag k="natural" v="bay" />
		<tag k="ssr:stedsnr" v="814865" />
	</node>
	<node id="-594895" lat="59.8640531733" lon="5.07496118073">
		<tag k="name" v="Eriksholmen" />
		<tag k="place" v="islet" />
		<tag k="ssr:stedsnr" v="793205" />
	</node>
	<node id="-594894" lat="59.8325250026" lon="5.14481944878">
		<tag k="name" v="Kinnesundet" />
		<tag k="natural" v="strait" />
		<tag k="ssr:stedsnr" v="792993" />
	</node>
	<node id="-594893" lat="59.8282305561" lon="5.10888888159">
		<tag k="name" v="Goddestakken" />
		<tag k="natural" v="cape" />
		<tag k="ssr:stedsnr" v="792986" />
	</node>
	<node id="-594890" lat="59.8103027778" lon="5.10575277909">
		<tag k="alt_name" v="Hillesøy" />
		<tag k="name" v="Hillesøya" />
		<tag k="place" v="island" />
		<tag k="ssr:stedsnr" v="792958" />
	</node>
	<node id="-594888" lat="59.5931987372" lon="5.17530461759">
		<tag k="name" v="Eidesvika" />
		<tag k="natural" v="bay" />
		<tag k="ssr:stedsnr" v="792756" />
	</node>
	<node id="-594887" lat="59.6041916706" lon="5.21998888728">
		<tag k="name" v="Langevågen" />
		<tag k="natural" v="bay" />
		<tag k="ssr:stedsnr" v="792832" />
	</node>
	<node id="-594883" lat="59.7250916631" lon="5.38435000244">
		<tag k="name" v="Fangavika" />
		<tag k="natural" v="bay" />
		<tag k="ssr:stedsnr" v="792506" />
	</node>
	<node id="-594882" lat="59.8003583342" lon="5.08079721852">
		<tag k="alt_name" v="Svortlandsbleikja, in" />
		<tag k="fixme" v="consider seamark:type=rock or natural=shoal" />
		<tag k="name" v="Indra Svortlandsbleikja" />
		<tag k="place" v="islet" />
		<tag k="ssr:stedsnr" v="792223" />
	</node>
	<node id="-594881" lat="59.8503138929" lon="5.06569444423">
		<tag k="name" v="Goddeholmen" />
		<tag k="place" v="islet" />
		<tag k="ssr:stedsnr" v="792213" />
	</node>
	<node id="-594880" lat="59.8526333372" lon="5.07712499505">
		<tag k="name" v="Høgableikålen" />
		<tag k="natural" v="strait" />
		<tag k="ssr:stedsnr" v="792212" />
	</node>
	<node id="-594879" lat="59.5317749965" lon="5.15693056443">
		<tag k="alt_name" v="Hjartholmen, store" />
		<tag k="name" v="Store Hjartholmen" />
		<tag k="place" v="islet" />
		<tag k="ssr:stedsnr" v="792206" />
	</node>
	<node id="-594878" lat="59.6146833366" lon="5.1171305542">
		<tag k="alt_name" v="Janholmane" />
		<tag k="name" v="Jansholmane" />
		<tag k="place" v="islet" />
		<tag k="ssr:stedsnr" v="791837" />
	</node>
	<node id="-594877" lat="59.7344333367" lon="5.14994167161">
		<tag k="name" v="Bukkholmen" />
		<tag k="place" v="islet" />
		<tag k="ssr:stedsnr" v="791556" />
	</node>
	<node id="-594876" lat="59.7522722236" lon="5.24249999802">
		<tag k="name" v="Medet" />
		<tag k="natural" v="bay" />
		<tag k="ssr:stedsnr" v="787998" />
	</node>
	<node id="-594874" lat="59.7245666701" lon="5.27716943984">
		<tag k="name" v="Håsåteholmen" />
		<tag k="place" v="islet" />
		<tag k="ssr:stedsnr" v="787956" />
	</node>
	<node id="-594870" lat="59.8731111095" lon="5.14457222155">
		<tag k="alt_name" v="Koløy" />
		<tag k="name" v="Koløya" />
		<tag k="place" v="islet" />
		<tag k="ssr:stedsnr" v="914939" />
	</node>
	<node id="-594869" lat="59.866880552" lon="5.20930277316">
		<tag k="alt_name" v="Brendøyosen" />
		<tag k="name" v="Brennøyosen" />
		<tag k="natural" v="strait" />
		<tag k="ssr:stedsnr" v="914934" />
	</node>
	<node id="-594868" lat="59.8692472236" lon="5.20935833787">
		<tag k="alt_name" v="Brennøya, store;Store Brendøy" />
		<tag k="name" v="Stora Brennøy" />
		<tag k="place" v="island" />
		<tag k="ssr:stedsnr" v="914932" />
	</node>
	<node id="-594867" lat="59.6238361147" lon="5.1039333321">
		<tag k="name" v="Osen" />
		<tag k="place" v="sea" />
		<tag k="ssr:stedsnr" v="914910" />
	</node>
	<node id="-594866" lat="59.8597888906" lon="5.23392222105">
		<tag k="alt_name" v="Orrøy" />
		<tag k="name" v="Orrøya" />
		<tag k="place" v="island" />
		<tag k="ssr:stedsnr" v="914902" />
	</node>
	<node id="-594863" lat="59.8939138867" lon="5.14839721871">
		<tag k="name" v="Kobbosen" />
		<tag k="natural" v="strait" />
		<tag k="ssr:stedsnr" v="914861" />
	</node>
	<node id="-594862" lat="59.8949027812" lon="5.10714999909">
		<tag k="name" v="Karihavet" />
		<tag k="natural" v="strait" />
		<tag k="ssr:stedsnr" v="914853" />
	</node>
	<node id="-594861" lat="59.8712666696" lon="5.1144388932">
		<tag k="name" v="Klubbosen" />
		<tag k="natural" v="strait" />
		<tag k="ssr:stedsnr" v="914817" />
	</node>
	<node id="-594860" lat="59.9069833331" lon="5.09816666812">
		<tag k="alt_name" v="Skumsnes" />
		<tag k="name" v="Skumsneset" />
		<tag k="natural" v="cape" />
		<tag k="ssr:stedsnr" v="914758" />
	</node>
	<node id="-594859" lat="59.7043666707" lon="5.14763332999">
		<tag k="name" v="Krabbavikeflæet" />
		<tag k="place" v="locality" />
		<tag k="ssr:stedsnr" v="770282" />
	</node>
	<node id="-594858" lat="59.7605534256" lon="5.16699319335">
		<tag k="name" v="Langøya" />
		<tag k="place" v="islet" />
		<tag k="ssr:stedsnr" v="914637" />
	</node>
	<node id="-594857" lat="59.759963887" lon="5.15896943604">
		<tag k="name" v="Alsvågneset" />
		<tag k="natural" v="cape" />
		<tag k="ssr:stedsnr" v="914636" />
	</node>
	<node id="-594856" lat="59.7635781445" lon="5.11879984734">
		<tag k="alt_name" v="Kråkevika" />
		<tag k="name" v="Kråkevågen" />
		<tag k="natural" v="bay" />
		<tag k="ssr:stedsnr" v="914630" />
	</node>
	<node id="-594850" lat="59.6135111131" lon="5.10465277521">
		<tag k="name" v="Skitmannsbleikja" />
		<tag k="place" v="island" />
		<tag k="ssr:stedsnr" v="769874" />
	</node>
	<node id="-594847" lat="59.757613889" lon="5.34133055518">
		<tag k="alt_name" v="Rotavik" />
		<tag k="name" v="Rotavika" />
		<tag k="natural" v="bay" />
		<tag k="ssr:stedsnr" v="914575" />
	</node>
	<node id="-594846" lat="59.7846583351" lon="5.11741110793">
		<tag k="name" v="Melingsvågen" />
		<tag k="natural" v="bay" />
		<tag k="ssr:stedsnr" v="914524" />
	</node>
	<node id="-594845" lat="59.694772223" lon="5.38326666846">
		<tag k="name" v="Hamravika" />
		<tag k="natural" v="bay" />
		<tag k="ssr:stedsnr" v="769310" />
	</node>
	<node id="-594843" lat="59.682424996" lon="5.33130554788">
		<tag k="name" v="Brotet" />
		<tag k="natural" v="cape" />
		<tag k="ssr:stedsnr" v="769275" />
	</node>
	<node id="-594842" lat="59.690219441" lon="5.32392778629">
		<tag k="name" v="Tjørnaneset" />
		<tag k="natural" v="cape" />
		<tag k="ssr:stedsnr" v="769273" />
	</node>
	<node id="-594839" lat="59.7349194478" lon="5.34899722128">
		<tag k="name" v="Skjera" />
		<tag k="place" v="islet" />
		<tag k="ssr:stedsnr" v="768412" />
	</node>
	<node id="-594838" lat="59.8202055561" lon="5.04684444204">
		<tag k="fixme" v="consider seamark:type=rock or natural=shoal" />
		<tag k="name" v="Torolvskjeret" />
		<tag k="place" v="islet" />
		<tag k="ssr:stedsnr" v="914248" />
	</node>
	<node id="-594837" lat="59.8067583293" lon="5.06393055511">
		<tag k="alt_name" v="Sogøy" />
		<tag k="name" v="Sogøya" />
		<tag k="place" v="island" />
		<tag k="ssr:stedsnr" v="914244" />
	</node>
	<node id="-594836" lat="59.8422916637" lon="4.97272777525">
		<tag k="alt_name" v="Olagrunnen, vestre" />
		<tag k="name" v="Vestre Olagrunnen" />
		<tag k="natural" v="shoal" />
		<tag k="place" v="locality" />
		<tag k="ssr:stedsnr" v="914220" />
	</node>
	<node id="-594835" lat="59.8448388888" lon="5.0648666607">
		<tag k="alt_name" v="Gule Holmen" />
		<tag k="name" v="Guleholmen" />
		<tag k="place" v="islet" />
		<tag k="ssr:stedsnr" v="914217" />
	</node>
	<node id="-594834" lat="59.8886638896" lon="5.06657777259">
		<tag k="alt_name" v="Gisøyna;Gisøy" />
		<tag k="name" v="Gisøya" />
		<tag k="place" v="island" />
		<tag k="ssr:stedsnr" v="914209" />
	</node>
	<node id="-594832" lat="59.5895388926" lon="5.22369443649">
		<tag k="alt_name" v="Grottvika" />
		<tag k="name" v="Grotvik" />
		<tag k="natural" v="bay" />
		<tag k="ssr:stedsnr" v="914078" />
	</node>
	<node id="-594831" lat="59.711599999" lon="5.16594722868">
		<tag k="alt_name" v="Djupavik" />
		<tag k="name" v="Djupvika" />
		<tag k="natural" v="bay" />
		<tag k="ssr:stedsnr" v="914068" />
	</node>
	<node id="-594830" lat="59.9038638852" lon="5.07220555115">
		<tag k="alt_name" v="Frufrokkeosen" />
		<tag k="name" v="Frufokosen" />
		<tag k="natural" v="strait" />
		<tag k="ssr:stedsnr" v="914062" />
	</node>
	<node id="-594828" lat="59.6930638909" lon="5.25305276911">
		<tag k="name" v="Kubbholmen" />
		<tag k="place" v="islet" />
		<tag k="ssr:stedsnr" v="913964" />
	</node>
	<node id="-594827" lat="59.6830666671" lon="5.29438611039">
		<tag k="alt_name" v="Avløypet" />
		<tag k="name" v="Avløypeneset" />
		<tag k="natural" v="cape" />
		<tag k="ssr:stedsnr" v="913953" />
	</node>
	<node id="-594826" lat="59.6852416664" lon="5.11612222121">
		<tag k="alt_name" v="Flogsneset" />
		<tag k="name" v="Flogneset" />
		<tag k="natural" v="cape" />
		<tag k="ssr:stedsnr" v="913945" />
	</node>
	<node id="-594824" lat="59.6877277762" lon="5.26003333156">
		<tag k="alt_name" v="Lamøya, nordra;Litla Lambøy" />
		<tag k="name" v="Nordra Lamøya" />
		<tag k="place" v="islet" />
		<tag k="ssr:stedsnr" v="913942" />
	</node>
	<node id="-594823" lat="59.6847527773" lon="5.24182499723">
		<tag k="alt_name" v="Tjongspollen" />
		<tag k="name" v="Nordpollen" />
		<tag k="natural" v="bay" />
		<tag k="ssr:stedsnr" v="913941" />
	</node>
	<node id="-594819" lat="59.8650083353" lon="5.0686888832">
		<tag k="name" v="Mæleren" />
		<tag k="place" v="island" />
		<tag k="ssr:stedsnr" v="766920" />
	</node>
	<node id="-594818" lat="59.7868138863" lon="5.07984167582">
		<tag k="name" v="Hansableikjene" />
		<tag k="place" v="islet" />
		<tag k="ssr:stedsnr" v="766911" />
	</node>
	<node id="-594817" lat="59.8437638922" lon="5.06938332667">
		<tag k="name" v="Hamnaholmen" />
		<tag k="place" v="island" />
		<tag k="ssr:stedsnr" v="766908" />
	</node>
	<node id="-594815" lat="59.6468138897" lon="5.159872217">
		<tag k="alt_name" v="Bømlungen" />
		<tag k="fixme" v="multiple name tags, choose one and add the other to alt_name" />
		<tag k="name" v="Bømlaungen;Holmen" />
		<tag k="place" v="islet" />
		<tag k="ssr:stedsnr" v="913875" />
	</node>
	<node id="-594814" lat="59.8223666691" lon="5.05504443577">
		<tag k="name" v="Skorsteinsbleikja" />
		<tag k="place" v="island" />
		<tag k="ssr:stedsnr" v="766894" />
	</node>
	<node id="-594813" lat="59.8369805547" lon="5.07756111163">
		<tag k="name" v="Røyrøyknappen" />
		<tag k="place" v="island" />
		<tag k="ssr:stedsnr" v="766888" />
	</node>
	<node id="-594810" lat="59.7610111134" lon="5.1483888879">
		<tag k="name" v="Gardsvika" />
		<tag k="natural" v="bay" />
		<tag k="ssr:stedsnr" v="766876" />
	</node>
	<node id="-594809" lat="59.7606027745" lon="5.14706944303">
		<tag k="name" v="Tangane" />
		<tag k="natural" v="cape" />
		<tag k="ssr:stedsnr" v="766874" />
	</node>
	<node id="-594808" lat="59.8276722189" lon="5.19041110993">
		<tag k="name" v="Nordra Bleikja" />
		<tag k="place" v="island" />
		<tag k="ssr:stedsnr" v="766871" />
	</node>
	<node id="-594807" lat="59.8583194464" lon="5.15494999293">
		<tag k="bay" v="fjord" />
		<tag k="name" v="Kjuklingane" />
		<tag k="natural" v="bay" />
		<tag k="ssr:stedsnr" v="766868" />
	</node>
	<node id="-594804" lat="59.6053555565" lon="5.1770611071">
		<tag k="bay" v="fjord" />
		<tag k="name" v="Roaldsfjorden" />
		<tag k="natural" v="bay" />
		<tag k="ssr:stedsnr" v="913847" />
	</node>
	<node id="-594802" lat="59.6191777772" lon="5.22974722758">
		<tag k="alt_name" v="Vevik" />
		<tag k="name" v="Vedvika" />
		<tag k="natural" v="bay" />
		<tag k="ssr:stedsnr" v="913822" />
	</node>
	<node id="-594801" lat="59.6115861046" lon="5.11529954171">
		<tag k="alt_name" v="Flatholmen" />
		<tag k="name" v="Flatøya" />
		<tag k="place" v="islet" />
		<tag k="ssr:stedsnr" v="913803" />
	</node>
	<node id="-594800" lat="59.7859277737" lon="5.16558611475">
		<tag k="name" v="Litlaneset" />
		<tag k="natural" v="cape" />
		<tag k="ssr:stedsnr" v="766122" />
	</node>
	<node id="-594798" lat="59.5878361105" lon="5.19043333829">
		<tag k="name" v="Nesjaholmen" />
		<tag k="place" v="islet" />
		<tag k="ssr:stedsnr" v="913732" />
	</node>
	<node id="-594797" lat="59.5841555554" lon="5.17578333164">
		<tag k="alt_name" v="Kalavågholmen" />
		<tag k="name" v="Kalavågsholmen" />
		<tag k="place" v="islet" />
		<tag k="ssr:stedsnr" v="913729" />
	</node>
	<node id="-594796" lat="59.641063887" lon="5.14433611506">
		<tag k="name" v="Nordra Steinavika" />
		<tag k="natural" v="bay" />
		<tag k="ssr:stedsnr" v="765806" />
	</node>
	<node id="-594794" lat="59.730199998" lon="5.29261666401">
		<tag k="name" v="Håvikvika" />
		<tag k="natural" v="bay" />
		<tag k="ssr:stedsnr" v="913563" />
	</node>
	<node id="-594793" lat="59.7386222242" lon="5.11820555604">
		<tag k="alt_name" v="Stoløya;Stoløya N" />
		<tag k="name" v="Nordra Stoløy" />
		<tag k="place" v="island" />
		<tag k="ssr:stedsnr" v="913551" />
	</node>
	<node id="-594791" lat="59.7144361086" lon="5.36630277279">
		<tag k="alt_name" v="Langaneset" />
		<tag k="name" v="Langnes" />
		<tag k="natural" v="cape" />
		<tag k="ssr:stedsnr" v="913484" />
	</node>
	<node id="-594790" lat="59.7129944412" lon="5.36455555129">
		<tag k="alt_name" v="Møllevik" />
		<tag k="name" v="Møllevika" />
		<tag k="natural" v="bay" />
		<tag k="ssr:stedsnr" v="913482" />
	</node>
	<node id="-594789" lat="59.724502774" lon="5.2620277785">
		<tag k="name" v="Ulvøytåa" />
		<tag k="natural" v="cape" />
		<tag k="ssr:stedsnr" v="913480" />
	</node>
	<node id="-594788" lat="59.7104277808" lon="5.12183055016">
		<tag k="name" v="Toska" />
		<tag k="place" v="island" />
		<tag k="ssr:stedsnr" v="913469" />
	</node>
	<node id="-594786" lat="59.7372111151" lon="5.22227222735">
		<tag k="name" v="Gamlestraumen" />
		<tag k="natural" v="strait" />
		<tag k="ssr:stedsnr" v="909993" />
	</node>
	<node id="-594784" lat="59.7274277798" lon="5.25324722095">
		<tag k="name" v="Persskjeret" />
		<tag k="place" v="islet" />
		<tag k="ssr:stedsnr" v="909977" />
	</node>
	<node id="-594782" lat="59.6767666642" lon="5.32990000364">
		<tag k="name" v="Ospevika" />
		<tag k="natural" v="bay" />
		<tag k="ssr:stedsnr" v="909021" />
	</node>
	<node id="-594780" lat="59.9296416689" lon="5.0300361094">
		<tag k="name" v="Vestre Høkkelboen" />
		<tag k="natural" v="shoal" />
		<tag k="place" v="locality" />
		<tag k="ssr:stedsnr" v="753021" />
	</node>
	<node id="-594779" lat="59.7271611134" lon="5.28145555355">
		<tag k="name" v="Eidavika" />
		<tag k="natural" v="bay" />
		<tag k="ssr:stedsnr" v="908978" />
	</node>
	<node id="-594778" lat="59.7257055573" lon="5.30406388846">
		<tag k="name" v="Storvika" />
		<tag k="natural" v="bay" />
		<tag k="ssr:stedsnr" v="908976" />
	</node>
	<node id="-594775" lat="59.6046805571" lon="5.11754166234">
		<tag k="name" v="Keilebroka" />
		<tag k="place" v="island" />
		<tag k="ssr:stedsnr" v="907891" />
	</node>
	<node id="-594771" lat="59.8881583289" lon="5.16853055186">
		<tag k="name" v="Kokreøyosen" />
		<tag k="natural" v="strait" />
		<tag k="ssr:stedsnr" v="907621" />
	</node>
	<node id="-594769" lat="59.7605361082" lon="5.14167500602">
		<tag k="alt_name" v="Kråkestød" />
		<tag k="name" v="Kråkestø" />
		<tag k="natural" v="bay" />
		<tag k="ssr:stedsnr" v="732645" />
	</node>
	<node id="-594767" lat="59.7544945502" lon="5.11239348835">
		<tag k="name" v="Flatøya" />
		<tag k="place" v="islet" />
		<tag k="ssr:stedsnr" v="732608" />
	</node>
	<node id="-594766" lat="59.7695999975" lon="5.10648889169">
		<tag k="name" v="Melingsneset" />
		<tag k="natural" v="cape" />
		<tag k="ssr:stedsnr" v="732551" />
	</node>
	<node id="-594765" lat="59.7779111144" lon="5.16248333484">
		<tag k="alt_name" v="Ålforneset" />
		<tag k="name" v="Ålforeneset" />
		<tag k="natural" v="cape" />
		<tag k="ssr:stedsnr" v="732540" />
	</node>
	<node id="-594764" lat="59.6567083295" lon="5.23315277535">
		<tag k="name" v="Hjortnesvågen" />
		<tag k="natural" v="bay" />
		<tag k="ssr:stedsnr" v="727757" />
	</node>
	<node id="-594763" lat="59.6528250007" lon="5.20538333119">
		<tag k="name" v="Hagardsneset" />
		<tag k="natural" v="cape" />
		<tag k="ssr:stedsnr" v="727756" />
	</node>
	<node id="-594759" lat="59.7238638918" lon="5.2597166683">
		<tag k="name" v="Ulvesøytåa" />
		<tag k="natural" v="cape" />
		<tag k="ssr:stedsnr" v="726984" />
	</node>
	<node id="-594758" lat="59.7285305581" lon="5.25595556012">
		<tag k="name" v="Bjørnøysundet" />
		<tag k="natural" v="strait" />
		<tag k="ssr:stedsnr" v="726977" />
	</node>
	<node id="-594754" lat="59.8918611097" lon="5.11148056412">
		<tag k="name" v="Langeneset" />
		<tag k="natural" v="cape" />
		<tag k="ssr:stedsnr" v="726725" />
	</node>
	<node id="-594753" lat="59.8899916637" lon="5.11152222589">
		<tag k="name" v="Skjeljaholmen" />
		<tag k="place" v="islet" />
		<tag k="ssr:stedsnr" v="726723" />
	</node>
	<node id="-594752" lat="59.8929500031" lon="5.11060278263">
		<tag k="name" v="Holmen" />
		<tag k="place" v="islet" />
		<tag k="ssr:stedsnr" v="726721" />
	</node>
	<node id="-594750" lat="59.8880444485" lon="5.15108610904">
		<tag k="name" v="Risøyvika" />
		<tag k="natural" v="bay" />
		<tag k="ssr:stedsnr" v="725616" />
	</node>
	<node id="-594746" lat="59.6979638849" lon="5.3386027748">
		<tag k="name" v="Vestravågen" />
		<tag k="natural" v="bay" />
		<tag k="ssr:stedsnr" v="709301" />
	</node>
	<node id="-594736" lat="59.5857472181" lon="5.14369443967">
		<tag k="name" v="Danmarksundet" />
		<tag k="natural" v="strait" />
		<tag k="ssr:stedsnr" v="892267" />
	</node>
	<node id="-594735" lat="59.6934861138" lon="5.32670000582">
		<tag k="name" v="Tretteholmane" />
		<tag k="place" v="islet" />
		<tag k="ssr:stedsnr" v="892132" />
	</node>
	<node id="-594734" lat="59.6860611132" lon="5.15980277253">
		<tag k="name" v="Åravika" />
		<tag k="natural" v="bay" />
		<tag k="ssr:stedsnr" v="892048" />
	</node>
	<node id="-594733" lat="59.5924250013" lon="5.16134999445">
		<tag k="name" v="Kvalen" />
		<tag k="natural" v="cape" />
		<tag k="ssr:stedsnr" v="891902" />
	</node>
	<node id="-594732" lat="59.7103222197" lon="5.14963610975">
		<tag k="name" v="Litla Holmsundet" />
		<tag k="natural" v="strait" />
		<tag k="ssr:stedsnr" v="891717" />
	</node>
	<node id="-594728" lat="59.7055083309" lon="5.32872500538">
		<tag k="name" v="Tangaholmane" />
		<tag k="place" v="islet" />
		<tag k="ssr:stedsnr" v="891660" />
	</node>
	<node id="-594724" lat="59.8211361104" lon="5.27683055367">
		<tag k="name" v="Søre Vedøytangen" />
		<tag k="natural" v="cape" />
		<tag k="ssr:stedsnr" v="891427" />
	</node>
	<node id="-594722" lat="59.6889749973" lon="5.21949722262">
		<tag k="name" v="Litlasata" />
		<tag k="natural" v="bay" />
		<tag k="ssr:stedsnr" v="891366" />
	</node>
	<node id="-594721" lat="59.5790638933" lon="5.18247499751">
		<tag k="name" v="Sætrevika" />
		<tag k="natural" v="bay" />
		<tag k="ssr:stedsnr" v="891337" />
	</node>
	<node id="-594720" lat="59.6830472179" lon="5.3201444421">
		<tag k="name" v="Leirpollen" />
		<tag k="natural" v="bay" />
		<tag k="ssr:stedsnr" v="891329" />
	</node>
	<node id="-594718" lat="59.7584138934" lon="5.23438055717">
		<tag k="name" v="Palevika" />
		<tag k="natural" v="bay" />
		<tag k="ssr:stedsnr" v="890913" />
	</node>
	<node id="-594717" lat="59.9058777769" lon="5.07128611092">
		<tag k="name" v="Slåtterøykjeilen" />
		<tag k="natural" v="bay" />
		<tag k="ssr:stedsnr" v="890905" />
	</node>
	<node id="-594716" lat="59.6095138869" lon="5.24869723126">
		<tag k="name" v="Urdatangen" />
		<tag k="natural" v="cape" />
		<tag k="ssr:stedsnr" v="890900" />
	</node>
	<node id="-594715" lat="59.8972000016" lon="5.12681389387">
		<tag k="alt_name" v="Spannsholmen, store;Nordre Spannsholmen" />
		<tag k="name" v="Store Spannsholmen" />
		<tag k="place" v="islet" />
		<tag k="ssr:stedsnr" v="890881" />
	</node>
	<node id="-594713" lat="59.8959111125" lon="5.10132777791">
		<tag k="name" v="Kastevika" />
		<tag k="natural" v="bay" />
		<tag k="ssr:stedsnr" v="890592" />
	</node>
	<node id="-594712" lat="59.6001694458" lon="5.14987777374">
		<tag k="name" v="Lutableikjene" />
		<tag k="place" v="island" />
		<tag k="ssr:stedsnr" v="891910" />
	</node>
	<node id="-594711" lat="59.7412583376" lon="5.34326667185">
		<tag k="name" v="Kjøttvika" />
		<tag k="natural" v="bay" />
		<tag k="ssr:stedsnr" v="890359" />
	</node>
	<node id="-594706" lat="59.6612722265" lon="5.21053889588">
		<tag k="name" v="Søra Lauvvika" />
		<tag k="natural" v="bay" />
		<tag k="ssr:stedsnr" v="889847" />
	</node>
	<node id="-594703" lat="59.6344638917" lon="5.06128333434">
		<tag k="loc_name" v="Båaskjergrunna" />
		<tag k="name" v="Boaskjergrunnen" />
		<tag k="natural" v="shoal" />
		<tag k="place" v="locality" />
		<tag k="ssr:stedsnr" v="694375" />
	</node>
	<node id="-594700" lat="59.6559194419" lon="5.09018888226">
		<tag k="name" v="Svartøygrunnene" />
		<tag k="natural" v="shoal" />
		<tag k="place" v="locality" />
		<tag k="ssr:stedsnr" v="693582" />
	</node>
	<node id="-594699" lat="59.6066166693" lon="5.0920055543">
		<tag k="fixme" v="consider seamark:type=rock or natural=shoal" />
		<tag k="name" v="Svoo" />
		<tag k="place" v="islet" />
		<tag k="ssr:stedsnr" v="693580" />
	</node>
	<node id="-594698" lat="59.8932416705" lon="5.03993332676">
		<tag k="fixme" v="consider seamark:type=rock or natural=shoal" />
		<tag k="name" v="Skorholmskjeret" />
		<tag k="place" v="islet" />
		<tag k="ssr:stedsnr" v="693461" />
	</node>
	<node id="-594697" lat="59.8907694424" lon="5.03185276976">
		<tag k="name" v="Tovefluene" />
		<tag k="natural" v="shoal" />
		<tag k="place" v="locality" />
		<tag k="ssr:stedsnr" v="693457" />
	</node>
	<node id="-594696" lat="59.741958338" lon="5.23580556304">
		<tag k="name" v="Mjelkevika" />
		<tag k="natural" v="bay" />
		<tag k="ssr:stedsnr" v="693373" />
	</node>
	<node id="-594695" lat="59.549961114" lon="5.14375277483">
		<tag k="name" v="Mortsundboane" />
		<tag k="natural" v="shoal" />
		<tag k="place" v="locality" />
		<tag k="ssr:stedsnr" v="693062" />
	</node>
	<node id="-594694" lat="59.6854611114" lon="5.35828055069">
		<tag k="name" v="Røysaneset" />
		<tag k="natural" v="cape" />
		<tag k="ssr:stedsnr" v="692707" />
	</node>
	<node id="-594693" lat="59.8145277765" lon="5.07604444696">
		<tag k="alt_name" v="Gilsvågen" />
		<tag k="name" v="Gilesvågen" />
		<tag k="natural" v="bay" />
		<tag k="ssr:stedsnr" v="692474" />
	</node>
	<node id="-594692" lat="59.5880777737" lon="5.15353056158">
		<tag k="alt_name" v="Dørøya" />
		<tag k="name" v="Dørøy" />
		<tag k="place" v="island" />
		<tag k="ssr:stedsnr" v="692411" />
	</node>
	<node id="-594691" lat="59.7431583377" lon="5.31579445211">
		<tag k="name" v="Nordra Kallevika" />
		<tag k="natural" v="bay" />
		<tag k="ssr:stedsnr" v="889029" />
	</node>
	<node id="-594689" lat="59.8265361071" lon="5.15955555725">
		<tag k="name" v="Stølaneset" />
		<tag k="natural" v="cape" />
		<tag k="ssr:stedsnr" v="888837" />
	</node>
	<node id="-594688" lat="59.8379305581" lon="5.1663277691">
		<tag k="name" v="Langøysundet" />
		<tag k="natural" v="strait" />
		<tag k="ssr:stedsnr" v="888808" />
	</node>
	<node id="-594684" lat="59.7806555588" lon="5.16080000627">
		<tag k="name" v="Maratangen" />
		<tag k="natural" v="cape" />
		<tag k="ssr:stedsnr" v="888101" />
	</node>
	<node id="-594683" lat="59.7685583291" lon="5.15598056026">
		<tag k="name" v="Austra Sundet" />
		<tag k="natural" v="strait" />
		<tag k="ssr:stedsnr" v="888097" />
	</node>
	<node id="-594682" lat="59.819130554" lon="5.20127499976">
		<tag k="name" v="Ytre Straumen" />
		<tag k="natural" v="strait" />
		<tag k="ssr:stedsnr" v="888129" />
	</node>
	<node id="-594678" lat="59.7351611089" lon="5.14354445083">
		<tag k="name" v="Midtre Marlaukholmen" />
		<tag k="place" v="islet" />
		<tag k="ssr:stedsnr" v="887999" />
	</node>
	<node id="-594677" lat="59.7296194474" lon="5.13523611014">
		<tag k="name" v="Hiskahamnen" />
		<tag k="natural" v="bay" />
		<tag k="ssr:stedsnr" v="887997" />
	</node>
	<node id="-594675" lat="59.7364361119" lon="5.14471111">
		<tag k="name" v="Nordre Marlaukholmen" />
		<tag k="place" v="islet" />
		<tag k="ssr:stedsnr" v="887983" />
	</node>
	<node id="-594674" lat="59.8070444415" lon="5.07691388251">
		<tag k="name" v="Smørvika" />
		<tag k="natural" v="bay" />
		<tag k="ssr:stedsnr" v="887894" />
	</node>
	<node id="-594673" lat="59.8241222255" lon="5.07867777977">
		<tag k="name" v="Breiavika" />
		<tag k="natural" v="bay" />
		<tag k="ssr:stedsnr" v="887893" />
	</node>
	<node id="-594672" lat="59.7985833289" lon="5.26377499817">
		<tag k="name" v="Mækjerneset" />
		<tag k="natural" v="cape" />
		<tag k="ssr:stedsnr" v="887794" />
	</node>
	<node id="-594670" lat="59.5992666629" lon="5.1229555559">
		<tag k="name" v="Kjennholmane" />
		<tag k="place" v="islet" />
		<tag k="ssr:stedsnr" v="887928" />
	</node>
	<node id="-594669" lat="59.8299805523" lon="5.09708055705">
		<tag k="name" v="Goddestakksosen" />
		<tag k="natural" v="strait" />
		<tag k="ssr:stedsnr" v="887201" />
	</node>
	<node id="-594668" lat="59.7934972263" lon="5.10297499404">
		<tag k="fixme" v="consider seamark:type=rock or natural=shoal" />
		<tag k="name" v="Kjerringskjeret" />
		<tag k="place" v="islet" />
		<tag k="ssr:stedsnr" v="887199" />
	</node>
	<node id="-594667" lat="59.8043606786" lon="5.09668280517">
		<tag k="name" v="Austre Samnungsøybogen" />
		<tag k="natural" v="bay" />
		<tag k="ssr:stedsnr" v="887196" />
	</node>
	<node id="-594666" lat="59.8023861125" lon="5.09401667049">
		<tag k="name" v="Vestra Neset" />
		<tag k="natural" v="cape" />
		<tag k="ssr:stedsnr" v="887195" />
	</node>
	<node id="-594665" lat="59.767961112" lon="5.11361666597">
		<tag k="name" v="Klytterholmen" />
		<tag k="place" v="islet" />
		<tag k="ssr:stedsnr" v="887178" />
	</node>
	<node id="-594664" lat="59.7734805521" lon="5.10905555944">
		<tag k="name" v="Andarevågen" />
		<tag k="natural" v="bay" />
		<tag k="ssr:stedsnr" v="887175" />
	</node>
	<node id="-594663" lat="59.8515805587" lon="5.06141944563">
		<tag k="name" v="Geitasteinshola" />
		<tag k="natural" v="bay" />
		<tag k="ssr:stedsnr" v="886934" />
	</node>
	<node id="-594660" lat="59.8583388885" lon="5.09121667543">
		<tag k="name" v="Goddo" />
		<tag k="place" v="island" />
		<tag k="ssr:stedsnr" v="671213" />
	</node>
	<node id="-594659" lat="59.8323305563" lon="5.05992499431">
		<tag k="name" v="Reimersholmen" />
		<tag k="place" v="islet" />
		<tag k="ssr:stedsnr" v="671209" />
	</node>
	<node id="-594658" lat="59.8835722265" lon="5.05626945088">
		<tag k="alt_name" v="Drivsundholmen;Drevsundsholmen" />
		<tag k="name" v="Drevsundholmen" />
		<tag k="place" v="islet" />
		<tag k="ssr:stedsnr" v="671204" />
	</node>
	<node id="-594656" lat="59.8562361129" lon="5.22790833048">
		<tag k="name" v="Olderholmane" />
		<tag k="place" v="islet" />
		<tag k="ssr:stedsnr" v="666346" />
	</node>
	<node id="-594654" lat="59.8864305534" lon="5.16663611845">
		<tag k="name" v="Kokreøya" />
		<tag k="place" v="islet" />
		<tag k="ssr:stedsnr" v="664657" />
	</node>
	<node id="-594653" lat="59.5957277776" lon="5.15530000825">
		<tag k="name" v="Klungsholmsundet" />
		<tag k="natural" v="strait" />
		<tag k="ssr:stedsnr" v="664744" />
	</node>
	<node id="-594652" lat="59.6120444425" lon="5.18204721577">
		<tag k="name" v="Slettevika" />
		<tag k="natural" v="bay" />
		<tag k="ssr:stedsnr" v="664716" />
	</node>
	<node id="-594649" lat="59.7157055585" lon="5.31861943776">
		<tag k="alt_name" v="Onglavikbleikja L" />
		<tag k="fixme" v="consider seamark:type=rock or natural=shoal" />
		<tag k="name" v="Litla Onglavikbleikja" />
		<tag k="place" v="islet" />
		<tag k="ssr:stedsnr" v="876406" />
	</node>
	<node id="-594648" lat="59.7306555527" lon="5.16303333908">
		<tag k="alt_name" v="Haneskjæret" />
		<tag k="fixme" v="consider seamark:type=rock or natural=shoal" />
		<tag k="name" v="Hanaskjeret" />
		<tag k="place" v="islet" />
		<tag k="ssr:stedsnr" v="876404" />
	</node>
	<node id="-594642" lat="59.7039444402" lon="5.16392499765">
		<tag k="name" v="Laksaklubben" />
		<tag k="natural" v="cape" />
		<tag k="ssr:stedsnr" v="648323" />
	</node>
	<node id="-594641" lat="59.905052781" lon="5.07623611287">
		<tag k="name" v="Frufrokkeneset" />
		<tag k="natural" v="cape" />
		<tag k="ssr:stedsnr" v="647907" />
	</node>
	<node id="-594639" lat="59.8632722218" lon="5.08450833669">
		<tag k="name" v="Grønavika" />
		<tag k="natural" v="bay" />
		<tag k="ssr:stedsnr" v="647726" />
	</node>
	<node id="-594638" lat="59.8571941673" lon="5.08122749532">
		<tag k="name" v="Steinavika" />
		<tag k="natural" v="bay" />
		<tag k="ssr:stedsnr" v="647723" />
	</node>
	<node id="-594633" lat="59.7312277733" lon="5.34811944127">
		<tag k="name" v="Søravika" />
		<tag k="natural" v="bay" />
		<tag k="ssr:stedsnr" v="646416" />
	</node>
	<node id="-594631" lat="59.8227916638" lon="5.11464999442">
		<tag k="name" v="Blåbærholmen" />
		<tag k="place" v="islet" />
		<tag k="ssr:stedsnr" v="732978" />
	</node>
	<node id="-594630" lat="59.8191083306" lon="5.24590555328">
		<tag k="alt_name" v="Stangarvågen, s;Søre Stangarvågen" />
		<tag k="name" v="Søre Stongarvågen" />
		<tag k="natural" v="bay" />
		<tag k="ssr:stedsnr" v="732967" />
	</node>
	<node id="-594627" lat="59.8164361079" lon="5.1703500045">
		<tag k="name" v="Skammaneset" />
		<tag k="natural" v="cape" />
		<tag k="ssr:stedsnr" v="732962" />
	</node>
	<node id="-594626" lat="59.8174166622" lon="5.14033610734">
		<tag k="alt_name" v="Kvernaosen" />
		<tag k="name" v="Kvernosen" />
		<tag k="natural" v="strait" />
		<tag k="ssr:stedsnr" v="732957" />
	</node>
	<node id="-594625" lat="59.8110361127" lon="5.28715000403">
		<tag k="name" v="Juskenakken" />
		<tag k="natural" v="cape" />
		<tag k="ssr:stedsnr" v="732952" />
	</node>
	<node id="-594621" lat="59.8622944471" lon="5.22416388432">
		<tag k="alt_name" v="Ospøya, s;Søre Øspøyo" />
		<tag k="name" v="Søra Ospøy" />
		<tag k="place" v="island" />
		<tag k="ssr:stedsnr" v="732898" />
	</node>
	<node id="-594619" lat="59.8426015656" lon="5.22756659936">
		<tag k="name" v="Tobakksholmen" />
		<tag k="place" v="islet" />
		<tag k="ssr:stedsnr" v="732866" />
	</node>
	<node id="-594617" lat="59.8754500031" lon="5.12264444113">
		<tag k="alt_name" v="Sandvik" />
		<tag k="name" v="Sandvika" />
		<tag k="natural" v="bay" />
		<tag k="ssr:stedsnr" v="732820" />
	</node>
	<node id="-594613" lat="59.7477819964" lon="5.12650732799">
		<tag k="alt_name" v="Svinøya, nordre;Nordra Svinøya" />
		<tag k="name" v="Nordra Svinøy" />
		<tag k="place" v="island" />
		<tag k="ssr:stedsnr" v="299698" />
	</node>
	<node id="-594612" lat="59.774208336" lon="5.07031667494">
		<tag k="name" v="Tovo" />
		<tag k="place" v="islet" />
		<tag k="ssr:stedsnr" v="732260" />
	</node>
	<node id="-594611" lat="59.8166027747" lon="5.02438611936">
		<tag k="name" v="Andersflua" />
		<tag k="natural" v="shoal" />
		<tag k="place" v="locality" />
		<tag k="ssr:stedsnr" v="732250" />
	</node>
	<node id="-594609" lat="59.9075555573" lon="5.0805555534">
		<tag k="name" v="Storholmen" />
		<tag k="place" v="islet" />
		<tag k="ssr:stedsnr" v="732064" />
	</node>
	<node id="-594605" lat="59.6741166675" lon="5.31232778613">
		<tag k="alt_name" v="Breidvika, s;Søra Breidvik" />
		<tag k="name" v="Søra Breidvika" />
		<tag k="natural" v="bay" />
		<tag k="ssr:stedsnr" v="731986" />
	</node>
	<node id="-594602" lat="59.631172226" lon="5.14950000802">
		<tag k="name" v="Jonsholmneset" />
		<tag k="natural" v="cape" />
		<tag k="ssr:stedsnr" v="731904" />
	</node>
	<node id="-594601" lat="59.6515472241" lon="5.1007166606">
		<tag k="name" v="Holsøyane" />
		<tag k="place" v="island" />
		<tag k="ssr:stedsnr" v="731895" />
	</node>
	<node id="-594600" lat="59.6589583347" lon="5.20991111843">
		<tag k="name" v="Skiftesholmen" />
		<tag k="place" v="islet" />
		<tag k="ssr:stedsnr" v="731887" />
	</node>
	<node id="-594599" lat="59.6577138871" lon="5.15508889637">
		<tag k="alt_name" v="Grotvik" />
		<tag k="name" v="Grottvika" />
		<tag k="natural" v="bay" />
		<tag k="ssr:stedsnr" v="731884" />
	</node>
	<node id="-594597" lat="59.6430277789" lon="5.16385554893">
		<tag k="name" v="Svartaneset" />
		<tag k="natural" v="cape" />
		<tag k="ssr:stedsnr" v="731872" />
	</node>
	<node id="-594596" lat="59.6104638861" lon="5.17142221482">
		<tag k="name" v="Sætravika" />
		<tag k="natural" v="bay" />
		<tag k="ssr:stedsnr" v="731867" />
	</node>
	<node id="-594593" lat="59.5921111077" lon="5.17704166108">
		<tag k="alt_name" v="Eideneset" />
		<tag k="name" v="Eidesneset" />
		<tag k="natural" v="cape" />
		<tag k="ssr:stedsnr" v="731764" />
	</node>
	<node id="-594592" lat="59.5893166707" lon="5.12240000198">
		<tag k="name" v="Sønnøya" />
		<tag k="place" v="islet" />
		<tag k="ssr:stedsnr" v="731760" />
	</node>
	<node id="-594591" lat="59.7293722246" lon="5.32717222647">
		<tag k="alt_name" v="Vartungen" />
		<tag k="name" v="Vardaneset" />
		<tag k="natural" v="cape" />
		<tag k="ssr:stedsnr" v="731573" />
	</node>
	<node id="-594590" lat="59.7182842559" lon="5.1179935245">
		<tag k="bay" v="fjord" />
		<tag k="name" v="Hiskosen" />
		<tag k="natural" v="bay" />
		<tag k="ssr:stedsnr" v="731566" />
	</node>
	<node id="-594589" lat="59.7221111081" lon="5.17531388294">
		<tag k="name" v="Tverrborgvika" />
		<tag k="natural" v="bay" />
		<tag k="ssr:stedsnr" v="731563" />
	</node>
	<node id="-594588" lat="59.7141388858" lon="5.12478055429">
		<tag k="fixme" v="consider seamark:type=rock or natural=shoal" />
		<tag k="name" v="Langableikja" />
		<tag k="place" v="islet" />
		<tag k="ssr:stedsnr" v="731560" />
	</node>
	<node id="-594586" lat="59.736652778" lon="5.26309444611">
		<tag k="name" v="Askhussundet" />
		<tag k="natural" v="strait" />
		<tag k="ssr:stedsnr" v="731541" />
	</node>
	<node id="-594585" lat="59.7463611082" lon="5.26405556026">
		<tag k="alt_name" v="Åreidvågen" />
		<tag k="name" v="Åreidbukta" />
		<tag k="natural" v="bay" />
		<tag k="ssr:stedsnr" v="731530" />
	</node>
	<node id="-594584" lat="59.7382916631" lon="5.17006112038">
		<tag k="alt_name" v="Fjerebleikjene" />
		<tag k="fixme" v="consider seamark:type=rock or natural=shoal" />
		<tag k="name" v="Fjærableikene" />
		<tag k="place" v="islet" />
		<tag k="ssr:stedsnr" v="731527" />
	</node>
	<node id="-594581" lat="59.7002033383" lon="5.17071098779">
		<tag k="bay" v="fjord" />
		<tag k="name" v="Lyklingfjorden" />
		<tag k="natural" v="bay" />
		<tag k="ssr:stedsnr" v="731506" />
	</node>
	<node id="-594580" lat="59.726833335" lon="5.43257500445">
		<tag k="name" v="Otterøyvika" />
		<tag k="natural" v="bay" />
		<tag k="ssr:stedsnr" v="731499" />
	</node>
	<node id="-594579" lat="59.9089138851" lon="5.06378332795">
		<tag k="fixme" v="consider seamark:type=rock or natural=shoal" />
		<tag k="name" v="Skitaga" />
		<tag k="place" v="islet" />
		<tag k="ssr:stedsnr" v="732054" />
	</node>
	<node id="-594578" lat="59.7163666631" lon="5.32747778552">
		<tag k="alt_name" v="Onglavikholmane" />
		<tag k="loc_name" v="Onglavikbleikja St" />
		<tag k="name" v="Onglavikbleikja" />
		<tag k="place" v="islet" />
		<tag k="ssr:stedsnr" v="731488" />
	</node>
	<node id="-594577" lat="59.7061221442" lon="5.14994726169">
		<tag k="name" v="Krabbavika" />
		<tag k="natural" v="bay" />
		<tag k="ssr:stedsnr" v="731467" />
	</node>
	<node id="-594576" lat="59.707094448" lon="5.14988333979">
		<tag k="alt_name" v="Lyklingholmen, s;Lyklingholmen, Søre" />
		<tag k="name" v="Søre Lyklingholmen" />
		<tag k="place" v="island" />
		<tag k="ssr:stedsnr" v="731461" />
	</node>
	<node id="-594574" lat="59.6650472239" lon="5.16117776984">
		<tag k="alt_name" v="Indrevik" />
		<tag k="name" v="Indrevika" />
		<tag k="natural" v="bay" />
		<tag k="ssr:stedsnr" v="632563" />
	</node>
	<node id="-594571" lat="59.7267055515" lon="5.27961944407">
		<tag k="name" v="Klubben" />
		<tag k="natural" v="cape" />
		<tag k="ssr:stedsnr" v="632361" />
	</node>
	<node id="-594569" lat="59.7369194446" lon="5.12050278235">
		<tag k="alt_name" v="Stoløya S" />
		<tag k="name" v="Søra Stoløy" />
		<tag k="place" v="island" />
		<tag k="ssr:stedsnr" v="632409" />
	</node>
	<node id="-594567" lat="59.8052555577" lon="5.13805554768">
		<tag k="alt_name" v="Øyjordssjøen" />
		<tag k="name" v="Øydjordspollen" />
		<tag k="natural" v="bay" />
		<tag k="ssr:stedsnr" v="631970" />
	</node>
	<node id="-594566" lat="59.7642333305" lon="5.1499444418">
		<tag k="name" v="Grønableikja" />
		<tag k="natural" v="bay" />
		<tag k="ssr:stedsnr" v="631707" />
	</node>
	<node id="-594565" lat="59.7503916681" lon="5.09435555399">
		<tag k="name" v="Svartøygrunnen" />
		<tag k="natural" v="shoal" />
		<tag k="place" v="locality" />
		<tag k="ssr:stedsnr" v="631703" />
	</node>
	<node id="-594564" lat="59.5924000024" lon="5.15828611742">
		<tag k="name" v="Litle Kjeholmen" />
		<tag k="place" v="islet" />
		<tag k="ssr:stedsnr" v="631409" />
	</node>
	<node id="-594563" lat="59.5132589357" lon="5.05912475311">
		<tag k="name" v="Havsøygrunka" />
		<tag k="natural" v="shoal" />
		<tag k="place" v="locality" />
		<tag k="ssr:stedsnr" v="631276" />
	</node>
	<node id="-594562" lat="59.5226977133" lon="5.06611935426">
		<tag k="name" v="Hovsøyskjeret" />
		<tag k="natural" v="shoal" />
		<tag k="place" v="locality" />
		<tag k="ssr:stedsnr" v="631263" />
	</node>
	<node id="-594560" lat="59.8530583343" lon="5.22896666328">
		<tag k="name" v="Strilaholmane" />
		<tag k="place" v="islet" />
		<tag k="ssr:stedsnr" v="727350" />
	</node>
	<node id="-594553" lat="59.8597333307" lon="5.20872500711">
		<tag k="name" v="Gjøsæterstraumen" />
		<tag k="natural" v="strait" />
		<tag k="ssr:stedsnr" v="610932" />
	</node>
	<node id="-594551" lat="59.842416666" lon="5.25376388209">
		<tag k="name" v="Austnesvågen" />
		<tag k="natural" v="bay" />
		<tag k="ssr:stedsnr" v="610912" />
	</node>
	<node id="-594550" lat="59.8457611094" lon="5.23895277562">
		<tag k="name" v="Håpollen" />
		<tag k="natural" v="bay" />
		<tag k="ssr:stedsnr" v="610903" />
	</node>
	<node id="-594548" lat="59.778058333" lon="5.31803610581">
		<tag k="alt_name" v="Holevik" />
		<tag k="name" v="Holevika" />
		<tag k="natural" v="bay" />
		<tag k="ssr:stedsnr" v="610622" />
	</node>
	<node id="-594546" lat="59.7801638852" lon="5.10591667276">
		<tag k="name" v="Danemark" />
		<tag k="place" v="islet" />
		<tag k="ssr:stedsnr" v="610547" />
	</node>
	<node id="-594544" lat="59.682540233" lon="5.30508929551">
		<tag k="name" v="Trøytarosen" />
		<tag k="natural" v="bay" />
		<tag k="ssr:stedsnr" v="609958" />
	</node>
	<node id="-594543" lat="59.6846555594" lon="5.32716945153">
		<tag k="name" v="Tjørnanespollen" />
		<tag k="natural" v="bay" />
		<tag k="ssr:stedsnr" v="609957" />
	</node>
	<node id="-594542" lat="59.6104527813" lon="5.10001944463">
		<tag k="name" v="Torgersholmen" />
		<tag k="place" v="islet" />
		<tag k="ssr:stedsnr" v="609781" />
	</node>
	<node id="-594541" lat="59.7163583366" lon="5.17125554723">
		<tag k="alt_name" v="Risvik" />
		<tag k="name" v="Risvika" />
		<tag k="natural" v="bay" />
		<tag k="ssr:stedsnr" v="609572" />
	</node>
	<node id="-594540" lat="59.706942277" lon="5.2786385005">
		<tag k="alt_name" v="Flatøya;Store Flatholmen" />
		<tag k="name" v="Stora Flatøya" />
		<tag k="place" v="islet" />
		<tag k="ssr:stedsnr" v="609502" />
	</node>
	<node id="-594539" lat="59.5202583329" lon="5.09175277833">
		<tag k="alt_name" v="Låtersøy" />
		<tag k="name" v="Låtersøya" />
		<tag k="place" v="island" />
		<tag k="ssr:stedsnr" v="609162" />
	</node>
	<node id="-594537" lat="59.7439741235" lon="5.23522957357">
		<tag k="alt_name" v="Sakseidpollen" />
		<tag k="name" v="Sakseidpøyla" />
		<tag k="natural" v="bay" />
		<tag k="ssr:stedsnr" v="605966" />
	</node>
	<node id="-594535" lat="59.7262583376" lon="5.29819999092">
		<tag k="name" v="Varsteinsneset" />
		<tag k="natural" v="cape" />
		<tag k="ssr:stedsnr" v="604977" />
	</node>
	<node id="-594533" lat="59.7267888909" lon="5.26994443924">
		<tag k="name" v="Seljeholmen" />
		<tag k="place" v="islet" />
		<tag k="ssr:stedsnr" v="604968" />
	</node>
	<node id="-594531" lat="59.7103666656" lon="5.33820834114">
		<tag k="name" v="Steinavågsneset" />
		<tag k="natural" v="cape" />
		<tag k="ssr:stedsnr" v="601373" />
	</node>
	<node id="-594530" lat="59.7060805587" lon="5.16343055794">
		<tag k="name" v="Stillahola" />
		<tag k="natural" v="bay" />
		<tag k="ssr:stedsnr" v="588726" />
	</node>
	<node id="-594529" lat="59.7024055528" lon="5.17676667542">
		<tag k="name" v="Stanganeset" />
		<tag k="natural" v="cape" />
		<tag k="ssr:stedsnr" v="588276" />
	</node>
	<node id="-594528" lat="59.5808666707" lon="5.13120834021">
		<tag k="name" v="Nilsaholmen" />
		<tag k="place" v="islet" />
		<tag k="ssr:stedsnr" v="588253" />
	</node>
	<node id="-594521" lat="59.6853527821" lon="5.31711944407">
		<tag k="name" v="Skarpaneset" />
		<tag k="natural" v="cape" />
		<tag k="ssr:stedsnr" v="587311" />
	</node>
	<node id="-594520" lat="59.6955194415" lon="5.3415194485">
		<tag k="name" v="Trædsvika" />
		<tag k="natural" v="bay" />
		<tag k="ssr:stedsnr" v="587306" />
	</node>
	<node id="-594518" lat="59.7518027739" lon="5.22180000377">
		<tag k="name" v="Ovnesvågen" />
		<tag k="natural" v="bay" />
		<tag k="ssr:stedsnr" v="586903" />
	</node>
	<node id="-594515" lat="59.8133277753" lon="5.16842499724">
		<tag k="name" v="Raugurdssundet" />
		<tag k="natural" v="strait" />
		<tag k="ssr:stedsnr" v="584854" />
	</node>
	<node id="-594514" lat="59.6192305546" lon="5.16920000263">
		<tag k="name" v="Grøne Tangen" />
		<tag k="natural" v="cape" />
		<tag k="ssr:stedsnr" v="709994" />
	</node>
	<node id="-594512" lat="59.6311555542" lon="5.15559166791">
		<tag k="name" v="Vestre Gissøyvågen" />
		<tag k="natural" v="bay" />
		<tag k="ssr:stedsnr" v="709987" />
	</node>
	<node id="-594510" lat="59.6189305535" lon="5.23295278436">
		<tag k="name" v="Djupavika" />
		<tag k="natural" v="bay" />
		<tag k="ssr:stedsnr" v="709961" />
	</node>
	<node id="-594509" lat="59.8359916693" lon="5.07978333764">
		<tag k="name" v="Avløypet" />
		<tag k="place" v="island" />
		<tag k="ssr:stedsnr" v="583889" />
	</node>
	<node id="-594507" lat="59.861202777" lon="5.1382777818">
		<tag k="name" v="Ånableikja" />
		<tag k="place" v="island" />
		<tag k="ssr:stedsnr" v="583882" />
	</node>
	<node id="-594506" lat="59.7540444472" lon="5.14744444488">
		<tag k="name" v="Avløypet" />
		<tag k="natural" v="cape" />
		<tag k="ssr:stedsnr" v="583748" />
	</node>
	<node id="-594504" lat="59.8678083297" lon="5.08767499531">
		<tag k="name" v="Terneholmen" />
		<tag k="place" v="islet" />
		<tag k="ssr:stedsnr" v="709724" />
	</node>
	<node id="-594503" lat="59.7067472237" lon="5.14728888123">
		<tag k="name" v="Breiavika" />
		<tag k="natural" v="bay" />
		<tag k="ssr:stedsnr" v="709713" />
	</node>
	<node id="-594501" lat="59.8626138924" lon="5.22965278366">
		<tag k="name" v="Jørgenholmen" />
		<tag k="place" v="islet" />
		<tag k="ssr:stedsnr" v="709671" />
	</node>
	<node id="-594495" lat="59.6949277747" lon="5.16478056">
		<tag k="name" v="Keileneset" />
		<tag k="natural" v="cape" />
		<tag k="ssr:stedsnr" v="709471" />
	</node>
	<node id="-594493" lat="59.6808160756" lon="5.31408762055">
		<tag k="name" v="Sætravika" />
		<tag k="natural" v="bay" />
		<tag k="ssr:stedsnr" v="709369" />
	</node>
	<node id="-594492" lat="59.9043722201" lon="5.0823638857">
		<tag k="name" v="Daumannsnes" />
		<tag k="natural" v="cape" />
		<tag k="ssr:stedsnr" v="708884" />
	</node>
	<node id="-594491" lat="59.887902779" lon="5.08684723061">
		<tag k="name" v="Mattvika" />
		<tag k="natural" v="bay" />
		<tag k="ssr:stedsnr" v="708604" />
	</node>
	<node id="-594488" lat="59.7255222235" lon="5.34922222098">
		<tag k="name" v="Søraneset" />
		<tag k="natural" v="cape" />
		<tag k="ssr:stedsnr" v="708388" />
	</node>
	<node id="-594482" lat="59.6697222264" lon="5.16668610956">
		<tag k="name" v="Rakahopet" />
		<tag k="natural" v="bay" />
		<tag k="ssr:stedsnr" v="707844" />
	</node>
	<node id="-594481" lat="59.6494305566" lon="5.08755277">
		<tag k="name" v="Svartøya" />
		<tag k="place" v="islet" />
		<tag k="ssr:stedsnr" v="707812" />
	</node>
	<node id="-594479" lat="59.7057027755" lon="5.27030278018">
		<tag k="name" v="Grønaviksneset" />
		<tag k="natural" v="cape" />
		<tag k="ssr:stedsnr" v="707675" />
	</node>
	<node id="-594476" lat="59.6264672104" lon="5.1798295058">
		<tag k="name" v="Angasholmane" />
		<tag k="place" v="islet" />
		<tag k="ssr:stedsnr" v="571904" />
	</node>
	<node id="-594475" lat="59.8384812832" lon="5.08125753322">
		<tag k="name" v="Bismarsundet" />
		<tag k="natural" v="strait" />
		<tag k="ssr:stedsnr" v="571903" />
	</node>
	<node id="-594474" lat="59.5982972228" lon="5.15193610266">
		<tag k="fixme" v="consider seamark:type=rock or natural=shoal" />
		<tag k="name" v="Høna" />
		<tag k="place" v="islet" />
		<tag k="ssr:stedsnr" v="571857" />
	</node>
	<node id="-594473" lat="59.8847527806" lon="5.1234555631">
		<tag k="alt_name" v="Djupedalsvika" />
		<tag k="name" v="Djupdalsvik" />
		<tag k="natural" v="bay" />
		<tag k="ssr:stedsnr" v="571336" />
	</node>
	<node id="-594472" lat="59.7502750003" lon="5.19966944531">
		<tag k="name" v="Arnaneset" />
		<tag k="natural" v="cape" />
		<tag k="ssr:stedsnr" v="571325" />
	</node>
	<node id="-594471" lat="59.7115611129" lon="5.24658888914">
		<tag k="name" v="Skinnevik" />
		<tag k="natural" v="bay" />
		<tag k="ssr:stedsnr" v="571305" />
	</node>
	<node id="-594470" lat="59.8396777769" lon="4.9868555482">
		<tag k="name" v="Litle Olagrunnen" />
		<tag k="natural" v="shoal" />
		<tag k="place" v="locality" />
		<tag k="ssr:stedsnr" v="570922" />
	</node>
	<node id="-594469" lat="59.6990166676" lon="5.25843611709">
		<tag k="name" v="Børøyvik" />
		<tag k="natural" v="bay" />
		<tag k="ssr:stedsnr" v="570276" />
	</node>
	<node id="-594467" lat="59.7550527758" lon="5.170138883">
		<tag k="name" v="Seksæringsneset" />
		<tag k="natural" v="cape" />
		<tag k="ssr:stedsnr" v="706169" />
	</node>
	<node id="-594465" lat="59.7353138892" lon="5.11819722225">
		<tag k="name" v="Sildasundsholmen" />
		<tag k="place" v="islet" />
		<tag k="ssr:stedsnr" v="705994" />
	</node>
	<node id="-594464" lat="59.7321166661" lon="5.12323333562">
		<tag k="name" v="Oddøysundet" />
		<tag k="natural" v="strait" />
		<tag k="ssr:stedsnr" v="705993" />
	</node>
	<node id="-594462" lat="59.8020888922" lon="5.24916666927">
		<tag k="name" v="Rauneholmen" />
		<tag k="place" v="islet" />
		<tag k="ssr:stedsnr" v="705976" />
	</node>
	<node id="-594461" lat="59.7384555553" lon="5.14273888754">
		<tag k="name" v="Lambholet" />
		<tag k="natural" v="bay" />
		<tag k="ssr:stedsnr" v="705974" />
	</node>
	<node id="-594460" lat="59.7566583326" lon="5.21189999509">
		<tag k="name" v="Notatangen" />
		<tag k="natural" v="cape" />
		<tag k="ssr:stedsnr" v="705961" />
	</node>
	<node id="-594459" lat="59.749299999" lon="5.19861944069">
		<tag k="name" v="Ådnanesknappen" />
		<tag k="natural" v="cape" />
		<tag k="ssr:stedsnr" v="705953" />
	</node>
	<node id="-594454" lat="59.8233166702" lon="5.05862777138">
		<tag k="name" v="Sengsosen" />
		<tag k="natural" v="strait" />
		<tag k="ssr:stedsnr" v="705892" />
	</node>
	<node id="-594453" lat="59.8246111146" lon="5.06122778397">
		<tag k="name" v="Kalvasundet" />
		<tag k="natural" v="strait" />
		<tag k="ssr:stedsnr" v="705889" />
	</node>
	<node id="-594451" lat="59.8139194457" lon="5.17450555956">
		<tag k="name" v="Båsen" />
		<tag k="natural" v="bay" />
		<tag k="ssr:stedsnr" v="705869" />
	</node>
	<node id="-594450" lat="59.8197638896" lon="5.15945276887">
		<tag k="name" v="Simonsvika" />
		<tag k="natural" v="bay" />
		<tag k="ssr:stedsnr" v="705865" />
	</node>
	<node id="-594449" lat="59.8209987083" lon="5.14518781445">
		<tag k="name" v="Gåslandsholmen" />
		<tag k="place" v="island" />
		<tag k="ssr:stedsnr" v="705860" />
	</node>
	<node id="-594447" lat="59.8210055567" lon="5.09543611221">
		<tag k="name" v="Bukkøyvika" />
		<tag k="natural" v="bay" />
		<tag k="ssr:stedsnr" v="705851" />
	</node>
	<node id="-594446" lat="59.8233833303" lon="5.08790000842">
		<tag k="name" v="Rossmannsbleikja" />
		<tag k="place" v="island" />
		<tag k="ssr:stedsnr" v="705850" />
	</node>
	<node id="-594445" lat="59.6419388866" lon="5.16286389183">
		<tag k="name" v="Lakreivika" />
		<tag k="natural" v="bay" />
		<tag k="ssr:stedsnr" v="705849" />
	</node>
	<node id="-594443" lat="59.8117611076" lon="5.12810278594">
		<tag k="name" v="Øyjordsbogane" />
		<tag k="natural" v="strait" />
		<tag k="ssr:stedsnr" v="705843" />
	</node>
	<node id="-594440" lat="59.6383638876" lon="5.20644999527">
		<tag k="name" v="Mjåsundet" />
		<tag k="natural" v="strait" />
		<tag k="ssr:stedsnr" v="705833" />
	</node>
	<node id="-594437" lat="59.744397219" lon="5.14773611558">
		<tag k="name" v="Smørbergbleikja" />
		<tag k="place" v="island" />
		<tag k="ssr:stedsnr" v="705803" />
	</node>
	<node id="-594435" lat="59.8317833301" lon="5.09244167511">
		<tag k="name" v="Nordre Lauvholmen" />
		<tag k="place" v="island" />
		<tag k="ssr:stedsnr" v="705246" />
	</node>
	<node id="-594433" lat="59.8012194406" lon="5.09238332911">
		<tag k="name" v="Vestra Samnungsøybleikja" />
		<tag k="place" v="island" />
		<tag k="ssr:stedsnr" v="705226" />
	</node>
	<node id="-594432" lat="59.7971888877" lon="5.09269444132">
		<tag k="name" v="Austra Klammerøya" />
		<tag k="place" v="island" />
		<tag k="ssr:stedsnr" v="705222" />
	</node>
	<node id="-594431" lat="59.8052583325" lon="5.1269444413">
		<tag k="name" v="Djupevika" />
		<tag k="natural" v="bay" />
		<tag k="ssr:stedsnr" v="705214" />
	</node>
	<node id="-594430" lat="59.7822611151" lon="5.10188055872">
		<tag k="name" v="Aksteinsholmen" />
		<tag k="place" v="islet" />
		<tag k="ssr:stedsnr" v="705210" />
	</node>
	<node id="-594425" lat="59.7602833298" lon="5.10388889785">
		<tag k="name" v="Litla Våtahovudet" />
		<tag k="place" v="island" />
		<tag k="ssr:stedsnr" v="705156" />
	</node>
	<node id="-594424" lat="59.7749861104" lon="5.15755832798">
		<tag k="name" v="Sundet" />
		<tag k="natural" v="strait" />
		<tag k="ssr:stedsnr" v="705144" />
	</node>
	<node id="-594423" lat="59.7714027802" lon="5.1759472308">
		<tag k="name" v="Pøyla" />
		<tag k="natural" v="bay" />
		<tag k="ssr:stedsnr" v="705137" />
	</node>
	<node id="-594421" lat="59.8105944413" lon="5.25452500192">
		<tag k="name" v="Omnavika" />
		<tag k="natural" v="bay" />
		<tag k="ssr:stedsnr" v="299436" />
	</node>
	<node id="-594418" lat="59.6633388847" lon="5.21487221879">
		<tag k="name" v="Lauvøyholmane" />
		<tag k="place" v="islet" />
		<tag k="ssr:stedsnr" v="694184" />
	</node>
	<node id="-594417" lat="59.6310944478" lon="5.14647499331">
		<tag k="name" v="Jonsholmen" />
		<tag k="place" v="islet" />
		<tag k="ssr:stedsnr" v="693631" />
	</node>
	<node id="-594416" lat="59.7191916631" lon="5.43210833928">
		<tag k="name" v="Otterøygrunnen" />
		<tag k="natural" v="shoal" />
		<tag k="place" v="locality" />
		<tag k="ssr:stedsnr" v="693692" />
	</node>
	<node id="-594415" lat="59.7382277778" lon="5.36980833183">
		<tag k="name" v="Noppo" />
		<tag k="natural" v="cape" />
		<tag k="ssr:stedsnr" v="693687" />
	</node>
	<node id="-594411" lat="59.6871916624" lon="5.09850833222">
		<tag k="name" v="Søra Nova" />
		<tag k="natural" v="cape" />
		<tag k="ssr:stedsnr" v="544016" />
	</node>
	<node id="-594410" lat="59.8834166669" lon="5.16373055304">
		<tag k="name" v="Gjevholmsosen" />
		<tag k="natural" v="strait" />
		<tag k="ssr:stedsnr" v="543642" />
	</node>
	<node id="-594408" lat="59.5404111115" lon="5.12901943772">
		<tag k="name" v="Adammane" />
		<tag k="natural" v="shoal" />
		<tag k="place" v="locality" />
		<tag k="ssr:stedsnr" v="693052" />
	</node>
	<node id="-594407" lat="59.7513083348" lon="5.34285554795">
		<tag k="alt_name" v="Nordra Klungervik;Klungervika, nordre" />
		<tag k="name" v="Nordra Klungervika" />
		<tag k="natural" v="bay" />
		<tag k="ssr:stedsnr" v="542584" />
	</node>
	<node id="-594406" lat="59.825136109" lon="5.07365278418">
		<tag k="name" v="Avløypet" />
		<tag k="natural" v="cape" />
		<tag k="ssr:stedsnr" v="692923" />
	</node>
	<node id="-594405" lat="59.8515916637" lon="5.08194999775">
		<tag k="name" v="Klovasjøen" />
		<tag k="natural" v="bay" />
		<tag k="ssr:stedsnr" v="692896" />
	</node>
	<node id="-594403" lat="59.8676999964" lon="5.06837778348">
		<tag k="name" v="Nordre Mælarskallen" />
		<tag k="natural" v="shoal" />
		<tag k="place" v="locality" />
		<tag k="ssr:stedsnr" v="692798" />
	</node>
	<node id="-594402" lat="59.7141805575" lon="5.39051110747">
		<tag k="fixme" v="consider seamark:type=rock or natural=shoal" />
		<tag k="name" v="Byklumpane" />
		<tag k="place" v="islet" />
		<tag k="ssr:stedsnr" v="692648" />
	</node>
	<node id="-594398" lat="59.7099666655" lon="5.37851110337">
		<tag k="name" v="Særklauneset" />
		<tag k="natural" v="cape" />
		<tag k="ssr:stedsnr" v="527588" />
	</node>
	<node id="-594397" lat="59.7108554985" lon="5.36327812452">
		<tag k="name" v="Kobbevika" />
		<tag k="natural" v="bay" />
		<tag k="ssr:stedsnr" v="527635" />
	</node>
	<node id="-594396" lat="59.8685333294" lon="5.09815556221">
		<tag k="name" v="Pollaholmen" />
		<tag k="place" v="islet" />
		<tag k="ssr:stedsnr" v="526765" />
	</node>
	<node id="-594393" lat="59.7593638928" lon="5.21114722044">
		<tag k="name" v="Pøyla" />
		<tag k="natural" v="bay" />
		<tag k="ssr:stedsnr" v="523966" />
	</node>
	<node id="-594392" lat="59.7588083348" lon="5.21125833182">
		<tag k="name" v="Træsneset" />
		<tag k="natural" v="cape" />
		<tag k="ssr:stedsnr" v="523963" />
	</node>
	<node id="-594390" lat="59.7443481667" lon="5.14434451716">
		<tag k="name" v="Melkevika" />
		<tag k="natural" v="bay" />
		<tag k="ssr:stedsnr" v="523806" />
	</node>
	<node id="-594389" lat="59.5799973102" lon="5.13043527692">
		<tag k="alt_name" v="Utfatet" />
		<tag k="name" v="Utfadet" />
		<tag k="place" v="islet" />
		<tag k="ssr:stedsnr" v="511060" />
	</node>
	<node id="-594388" lat="59.7079944456" lon="5.33823610872">
		<tag k="name" v="Øyarvik" />
		<tag k="natural" v="bay" />
		<tag k="ssr:stedsnr" v="510654" />
	</node>
	<node id="-594387" lat="59.7971249978" lon="5.05050833859">
		<tag k="alt_name" v="Søra Flataskjeret" />
		<tag k="fixme" v="consider seamark:type=rock or natural=shoal" />
		<tag k="name" v="Søra Flataskjer" />
		<tag k="place" v="islet" />
		<tag k="ssr:stedsnr" v="510539" />
	</node>
	<node id="-594386" lat="59.8103055595" lon="5.07402500601">
		<tag k="name" v="Notholmen" />
		<tag k="place" v="islet" />
		<tag k="ssr:stedsnr" v="510515" />
	</node>
	<node id="-594385" lat="59.8008499973" lon="5.024536111">
		<tag k="name" v="Grunnenakken" />
		<tag k="natural" v="shoal" />
		<tag k="place" v="locality" />
		<tag k="ssr:stedsnr" v="489253" />
	</node>
	<node id="-594384" lat="59.8033472214" lon="5.06290555268">
		<tag k="name" v="Hovdaholmen" />
		<tag k="place" v="islet" />
		<tag k="ssr:stedsnr" v="489250" />
	</node>
	<node id="-594383" lat="59.8468888903" lon="5.04926943645">
		<tag k="alt_name" v="Fiskholmen, nordre" />
		<tag k="name" v="Nordre Fiskholmen" />
		<tag k="place" v="islet" />
		<tag k="ssr:stedsnr" v="489244" />
	</node>
	<node id="-594382" lat="59.8326805576" lon="5.08874445253">
		<tag k="name" v="Lauvholmane" />
		<tag k="place" v="islet" />
		<tag k="ssr:stedsnr" v="489240" />
	</node>
	<node id="-594381" lat="59.8372861074" lon="5.03878055543">
		<tag k="name" v="Holmagrunnen" />
		<tag k="natural" v="shoal" />
		<tag k="place" v="locality" />
		<tag k="ssr:stedsnr" v="489230" />
	</node>
	<node id="-594380" lat="59.8856777782" lon="5.08610554762">
		<tag k="alt_name" v="Osen, søre" />
		<tag k="name" v="Søre Osen" />
		<tag k="natural" v="strait" />
		<tag k="ssr:stedsnr" v="489227" />
	</node>
	<node id="-594379" lat="59.8823305547" lon="5.03823611413">
		<tag k="name" v="Kvitingen" />
		<tag k="place" v="islet" />
		<tag k="ssr:stedsnr" v="489222" />
	</node>
	<node id="-594378" lat="59.7342944448" lon="5.35793055704">
		<tag k="name" v="Kobbavågen" />
		<tag k="natural" v="bay" />
		<tag k="ssr:stedsnr" v="488602" />
	</node>
	<node id="-594377" lat="59.690833333" lon="5.12255000484">
		<tag k="name" v="Geitungsundet" />
		<tag k="natural" v="strait" />
		<tag k="ssr:stedsnr" v="488550" />
	</node>
	<node id="-594376" lat="59.6917527779" lon="5.10172776916">
		<tag k="name" v="Skotningssundet" />
		<tag k="natural" v="strait" />
		<tag k="ssr:stedsnr" v="488549" />
	</node>
	<node id="-594375" lat="59.7042277743" lon="5.39533611434">
		<tag k="alt_name" v="Revsnes" />
		<tag k="name" v="Revsneset" />
		<tag k="natural" v="cape" />
		<tag k="ssr:stedsnr" v="488548" />
	</node>
	<node id="-594374" lat="59.7036666658" lon="5.25318611018">
		<tag k="alt_name" v="Børøy" />
		<tag k="name" v="Børøya" />
		<tag k="place" v="island" />
		<tag k="ssr:stedsnr" v="488518" />
	</node>
	<node id="-594373" lat="59.7012416666" lon="5.25162500606">
		<tag k="name" v="Gardvikneset" />
		<tag k="natural" v="cape" />
		<tag k="ssr:stedsnr" v="488517" />
	</node>
	<node id="-594371" lat="59.7293277741" lon="5.27069445208">
		<tag k="name" v="Slåttebleikja" />
		<tag k="place" v="islet" />
		<tag k="ssr:stedsnr" v="483975" />
	</node>
	<node id="-594370" lat="59.7283611138" lon="5.26670833884">
		<tag k="name" v="Litla Ulvesøya" />
		<tag k="place" v="island" />
		<tag k="ssr:stedsnr" v="483969" />
	</node>
	<node id="-594369" lat="59.8758083363" lon="5.15596943828">
		<tag k="name" v="Skieneset" />
		<tag k="natural" v="cape" />
		<tag k="ssr:stedsnr" v="482654" />
	</node>
	<node id="-594365" lat="59.8274743072" lon="5.12636917133">
		<tag k="alt_name" v="Sauaneset" />
		<tag k="name" v="Sauganeset" />
		<tag k="natural" v="cape" />
		<tag k="ssr:stedsnr" v="671972" />
	</node>
	<node id="-594364" lat="59.8242083314" lon="5.25886388744">
		<tag k="alt_name" v="Langøy" />
		<tag k="name" v="Langøya" />
		<tag k="place" v="islet" />
		<tag k="ssr:stedsnr" v="671967" />
	</node>
	<node id="-594362" lat="59.6806388888" lon="5.16033611351">
		<tag k="alt_name" v="Stokkvik" />
		<tag k="name" v="Stokkvika" />
		<tag k="natural" v="bay" />
		<tag k="ssr:stedsnr" v="671941" />
	</node>
	<node id="-594360" lat="59.8599194466" lon="5.15347778633">
		<tag k="alt_name" v="Goddeosen" />
		<tag k="name" v="Goddosen" />
		<tag k="natural" v="strait" />
		<tag k="ssr:stedsnr" v="671912" />
	</node>
	<node id="-594358" lat="59.8469750021" lon="5.15843887986">
		<tag k="name" v="Kruneneset" />
		<tag k="natural" v="cape" />
		<tag k="ssr:stedsnr" v="671880" />
	</node>
	<node id="-594357" lat="59.8850083318" lon="5.14518888816">
		<tag k="alt_name" v="Risøy" />
		<tag k="name" v="Risøya" />
		<tag k="place" v="island" />
		<tag k="ssr:stedsnr" v="671840" />
	</node>
	<node id="-594356" lat="59.7639444439" lon="5.17121667154">
		<tag k="name" v="Melandsvågen" />
		<tag k="natural" v="bay" />
		<tag k="ssr:stedsnr" v="671623" />
	</node>
	<node id="-594351" lat="59.7528750034" lon="5.23973889639">
		<tag k="name" v="Sakseidvågen" />
		<tag k="natural" v="bay" />
		<tag k="ssr:stedsnr" v="671560" />
	</node>
	<node id="-594350" lat="59.7893305572" lon="5.09327500011">
		<tag k="alt_name" v="Krossholmen, store" />
		<tag k="name" v="Store Krossholmen" />
		<tag k="place" v="islet" />
		<tag k="ssr:stedsnr" v="671544" />
	</node>
	<node id="-594347" lat="59.799186114" lon="5.11987778503">
		<tag k="alt_name" v="Lambholmen" />
		<tag k="name" v="Lamholmen" />
		<tag k="place" v="islet" />
		<tag k="ssr:stedsnr" v="671535" />
	</node>
	<node id="-594343" lat="59.7836861099" lon="5.08612500614">
		<tag k="name" v="Gulo" />
		<tag k="place" v="islet" />
		<tag k="ssr:stedsnr" v="671254" />
	</node>
	<node id="-594342" lat="59.5144555579" lon="5.1488194364">
		<tag k="fixme" v="consider seamark:type=rock or natural=shoal" />
		<tag k="name" v="Oksøyskjeret" />
		<tag k="place" v="islet" />
		<tag k="ssr:stedsnr" v="671170" />
	</node>
	<node id="-594339" lat="59.6733916628" lon="5.25219722898">
		<tag k="name" v="Hakkesteinspollen" />
		<tag k="natural" v="bay" />
		<tag k="ssr:stedsnr" v="670989" />
	</node>
	<node id="-594338" lat="59.6541194459" lon="5.11066665798">
		<tag k="alt_name" v="Hamnøy" />
		<tag k="name" v="Hamnøya" />
		<tag k="place" v="island" />
		<tag k="ssr:stedsnr" v="670984" />
	</node>
	<node id="-594337" lat="59.6293361155" lon="5.24784722771">
		<tag k="name" v="Stavaneset" />
		<tag k="natural" v="cape" />
		<tag k="ssr:stedsnr" v="670927" />
	</node>
	<node id="-594335" lat="59.6849309673" lon="5.24962506395">
		<tag k="name" v="Geitastraumen" />
		<tag k="natural" v="strait" />
		<tag k="ssr:stedsnr" v="670899" />
	</node>
	<node id="-594333" lat="59.6501750019" lon="5.22264166226">
		<tag k="name" v="Skåravågbotnen" />
		<tag k="natural" v="bay" />
		<tag k="ssr:stedsnr" v="670879" />
	</node>
	<node id="-594332" lat="59.6002388854" lon="5.15009999933">
		<tag k="fixme" v="consider seamark:type=rock or natural=shoal" />
		<tag k="name" v="Lutableikene" />
		<tag k="place" v="islet" />
		<tag k="ssr:stedsnr" v="670844" />
	</node>
	<node id="-594329" lat="59.6253222189" lon="5.24583055578">
		<tag k="name" v="Hattasteinen" />
		<tag k="natural" v="cape" />
		<tag k="ssr:stedsnr" v="670814" />
	</node>
	<node id="-594328" lat="59.5748750006" lon="5.18367778186">
		<tag k="name" v="Ådnamylet" />
		<tag k="natural" v="cape" />
		<tag k="ssr:stedsnr" v="670788" />
	</node>
	<node id="-594327" lat="59.5953972229" lon="5.18920555086">
		<tag k="name" v="Træsneset" />
		<tag k="natural" v="cape" />
		<tag k="ssr:stedsnr" v="670750" />
	</node>
	<node id="-594324" lat="59.7369499986" lon="5.26533889784">
		<tag k="name" v="Askhusholmen" />
		<tag k="place" v="islet" />
		<tag k="ssr:stedsnr" v="670565" />
	</node>
	<node id="-594323" lat="59.742761107" lon="5.31286111649">
		<tag k="name" v="Håvikvågen" />
		<tag k="natural" v="bay" />
		<tag k="ssr:stedsnr" v="670564" />
	</node>
	<node id="-594322" lat="59.739202776" lon="5.36318332669">
		<tag k="alt_name" v="Nappaholmen, l" />
		<tag k="name" v="Litle Nappaholmen" />
		<tag k="place" v="islet" />
		<tag k="ssr:stedsnr" v="670555" />
	</node>
	<node id="-594321" lat="59.7348166671" lon="5.13372777551">
		<tag k="name" v="Hiskjo" />
		<tag k="place" v="island" />
		<tag k="ssr:stedsnr" v="670540" />
	</node>
	<node id="-594320" lat="59.6903749973" lon="5.09134443902">
		<tag k="name" v="Kalvasundet" />
		<tag k="natural" v="strait" />
		<tag k="ssr:stedsnr" v="670526" />
	</node>
	<node id="-594317" lat="59.7041972233" lon="5.31602500629">
		<tag k="alt_name" v="Nordøy" />
		<tag k="name" v="Nordøya" />
		<tag k="place" v="island" />
		<tag k="ssr:stedsnr" v="670495" />
	</node>
	<node id="-594316" lat="59.7235472198" lon="5.35776666944">
		<tag k="alt_name" v="Spyssøysundet, vestre;Vestresundet;Vestra Spyssøsundet;Vestra Spissøysundet;Vestra Spissøsundet" />
		<tag k="name" v="Vestra Spyssøysundet" />
		<tag k="natural" v="strait" />
		<tag k="ssr:stedsnr" v="670486" />
	</node>
	<node id="-594315" lat="59.711241669" lon="5.38991944969">
		<tag k="name" v="Austneshamn" />
		<tag k="natural" v="bay" />
		<tag k="ssr:stedsnr" v="670478" />
	</node>
	<node id="-594314" lat="59.7246111106" lon="5.2587972215">
		<tag k="alt_name" v="Vågen, vestre" />
		<tag k="name" v="Vestre Vågen" />
		<tag k="natural" v="bay" />
		<tag k="ssr:stedsnr" v="670471" />
	</node>
	<node id="-594313" lat="59.708938887" lon="5.10522499292">
		<tag k="alt_name" v="Sveinar" />
		<tag k="fixme" v="consider seamark:type=rock or natural=shoal" />
		<tag k="name" v="Sveinane" />
		<tag k="place" v="islet" />
		<tag k="ssr:stedsnr" v="670467" />
	</node>
	<node id="-594312" lat="59.7115083321" lon="5.14412499273">
		<tag k="alt_name" v="Lyklingholmen, nordre" />
		<tag k="loc_name" v="Lyklingholmen, Nordra" />
		<tag k="name" v="Nordre Lyklingholmen" />
		<tag k="place" v="island" />
		<tag k="ssr:stedsnr" v="670464" />
	</node>
	<node id="-594311" lat="59.6166194478" lon="5.24038055687">
		<tag k="name" v="Jektvika" />
		<tag k="natural" v="bay" />
		<tag k="ssr:stedsnr" v="467955" />
	</node>
	<node id="-594308" lat="59.5858027807" lon="5.18451111279">
		<tag k="name" v="Hilleren" />
		<tag k="place" v="islet" />
		<tag k="ssr:stedsnr" v="467319" />
	</node>
	<node id="-594306" lat="59.696363886" lon="5.12438333022">
		<tag k="name" v="Litle Klammerholmen" />
		<tag k="place" v="islet" />
		<tag k="ssr:stedsnr" v="467063" />
	</node>
	<node id="-594305" lat="59.5781138857" lon="5.12987777804">
		<tag k="name" v="Gulholmen" />
		<tag k="place" v="islet" />
		<tag k="ssr:stedsnr" v="467009" />
	</node>
	<node id="-594298" lat="59.7541472265" lon="5.23010278422">
		<tag k="name" v="Sakseidneset" />
		<tag k="natural" v="cape" />
		<tag k="ssr:stedsnr" v="465917" />
	</node>
	<node id="-594297" lat="59.9064888902" lon="5.08306389141">
		<tag k="name" v="Nordre Bylauparen" />
		<tag k="natural" v="cape" />
		<tag k="ssr:stedsnr" v="465914" />
	</node>
	<node id="-594296" lat="59.7568555597" lon="5.23747778393">
		<tag k="name" v="Djupavika" />
		<tag k="natural" v="bay" />
		<tag k="ssr:stedsnr" v="465905" />
	</node>
	<node id="-594295" lat="59.9103138904" lon="5.11257777134">
		<tag k="name" v="Skvetten" />
		<tag k="place" v="islet" />
		<tag k="ssr:stedsnr" v="465610" />
	</node>
	<node id="-594291" lat="59.8451861131" lon="5.23005277188">
		<tag k="name" v="Grønhellervika" />
		<tag k="natural" v="bay" />
		<tag k="ssr:stedsnr" v="464312" />
	</node>
	<node id="-594290" lat="59.8206416686" lon="5.146555562">
		<tag k="name" v="Isvika" />
		<tag k="natural" v="bay" />
		<tag k="ssr:stedsnr" v="463872" />
	</node>
	<node id="-594289" lat="59.8244020643" lon="5.15671797928">
		<tag k="name" v="Lepsholmen" />
		<tag k="place" v="island" />
		<tag k="ssr:stedsnr" v="463857" />
	</node>
	<node id="-594288" lat="59.8400888913" lon="5.16083611531">
		<tag k="name" v="Steinkrossen" />
		<tag k="place" v="island" />
		<tag k="ssr:stedsnr" v="463821" />
	</node>
	<node id="-594287" lat="59.7636333336" lon="5.10640555277">
		<tag k="name" v="Langholmen" />
		<tag k="place" v="islet" />
		<tag k="ssr:stedsnr" v="463173" />
	</node>
	<node id="-594285" lat="59.7583944442" lon="5.22068610454">
		<tag k="fixme" v="consider seamark:type=rock or natural=shoal" />
		<tag k="name" v="Måkeskjeret" />
		<tag k="place" v="islet" />
		<tag k="ssr:stedsnr" v="462963" />
	</node>
	<node id="-594283" lat="59.8886277733" lon="5.05893888178">
		<tag k="name" v="Steinavika" />
		<tag k="natural" v="bay" />
		<tag k="ssr:stedsnr" v="462919" />
	</node>
	<node id="-594282" lat="59.8692611153" lon="5.07556111555">
		<tag k="name" v="Kakobshola" />
		<tag k="natural" v="bay" />
		<tag k="ssr:stedsnr" v="462911" />
	</node>
	<node id="-594281" lat="59.8475499985" lon="5.06198611925">
		<tag k="name" v="Døra" />
		<tag k="natural" v="bay" />
		<tag k="ssr:stedsnr" v="462910" />
	</node>
	<node id="-594280" lat="59.8401472204" lon="5.08077500494">
		<tag k="name" v="Brakaklubben" />
		<tag k="natural" v="cape" />
		<tag k="ssr:stedsnr" v="462905" />
	</node>
	<node id="-594279" lat="59.747774997" lon="5.16780277867">
		<tag k="name" v="Rysteinen" />
		<tag k="place" v="islet" />
		<tag k="ssr:stedsnr" v="463028" />
	</node>
	<node id="-594276" lat="59.7569055549" lon="5.20112500878">
		<tag k="name" v="Risvika" />
		<tag k="natural" v="bay" />
		<tag k="ssr:stedsnr" v="666989" />
	</node>
	<node id="-594274" lat="59.6766694409" lon="5.26244166775">
		<tag k="name" v="Slaktingeviksneset" />
		<tag k="natural" v="cape" />
		<tag k="ssr:stedsnr" v="666130" />
	</node>
	<node id="-594272" lat="59.7406277822" lon="5.15546111598">
		<tag k="alt_name" v="Hiskjo, litle" />
		<tag k="name" v="Litlahiskjo" />
		<tag k="place" v="island" />
		<tag k="ssr:stedsnr" v="665728" />
	</node>
	<node id="-594271" lat="59.8757666674" lon="5.16779443595">
		<tag k="name" v="Ospholmsbleikja" />
		<tag k="place" v="islet" />
		<tag k="ssr:stedsnr" v="664652" />
	</node>
	<node id="-594270" lat="59.7136694474" lon="5.1469722192">
		<tag k="name" v="Fjosvika" />
		<tag k="natural" v="bay" />
		<tag k="ssr:stedsnr" v="663747" />
	</node>
	<node id="-594269" lat="59.809066663" lon="5.2699694438">
		<tag k="name" v="Luftingevika" />
		<tag k="natural" v="bay" />
		<tag k="ssr:stedsnr" v="663400" />
	</node>
	<node id="-594268" lat="59.8094611103" lon="5.26018332479">
		<tag k="name" v="Kattahola" />
		<tag k="natural" v="bay" />
		<tag k="ssr:stedsnr" v="663395" />
	</node>
	<node id="-594266" lat="59.7641345859" lon="5.17469547409">
		<tag k="name" v="Fylkesneset" />
		<tag k="natural" v="cape" />
		<tag k="ssr:stedsnr" v="451431" />
	</node>
	<node id="-594264" lat="59.7025611107" lon="5.1066083265">
		<tag k="bay" v="fjord" />
		<tag k="name" v="Nordrefjorden" />
		<tag k="natural" v="bay" />
		<tag k="ssr:stedsnr" v="451336" />
	</node>
	<node id="-594263" lat="59.8401472219" lon="5.06091389598">
		<tag k="name" v="Møllefluane" />
		<tag k="natural" v="shoal" />
		<tag k="place" v="locality" />
		<tag k="ssr:stedsnr" v="450946" />
	</node>
	<node id="-594262" lat="59.8391611072" lon="5.07062222626">
		<tag k="fixme" v="consider seamark:type=rock or natural=shoal" />
		<tag k="name" v="Svartaskjeret" />
		<tag k="place" v="islet" />
		<tag k="ssr:stedsnr" v="450945" />
	</node>
	<node id="-594261" lat="59.6158055555" lon="5.16499721416">
		<tag k="name" v="Dyrneset" />
		<tag k="natural" v="cape" />
		<tag k="ssr:stedsnr" v="450917" />
	</node>
	<node id="-594260" lat="59.6341888847" lon="5.14446944907">
		<tag k="name" v="Andersflua" />
		<tag k="natural" v="shoal" />
		<tag k="place" v="locality" />
		<tag k="ssr:stedsnr" v="450624" />
	</node>
	<node id="-594259" lat="59.7644722253" lon="5.34086944892">
		<tag k="name" v="Stokkaflua" />
		<tag k="natural" v="shoal" />
		<tag k="place" v="locality" />
		<tag k="ssr:stedsnr" v="450225" />
	</node>
	<node id="-594258" lat="59.8219916661" lon="5.04522499699">
		<tag k="name" v="Grunneboen" />
		<tag k="natural" v="shoal" />
		<tag k="place" v="locality" />
		<tag k="ssr:stedsnr" v="449903" />
	</node>
	<node id="-594256" lat="59.7927000005" lon="5.10322499816">
		<tag k="alt_name" v="Nessosen;Nesaosen" />
		<tag k="name" v="Nesosen" />
		<tag k="natural" v="strait" />
		<tag k="ssr:stedsnr" v="429514" />
	</node>
	<node id="-594253" lat="59.8589472219" lon="5.06791110762">
		<tag k="alt_name" v="Boableikja" />
		<tag k="fixme" v="consider seamark:type=rock or natural=shoal" />
		<tag k="name" v="Båableikja" />
		<tag k="place" v="islet" />
		<tag k="ssr:stedsnr" v="429202" />
	</node>
	<node id="-594252" lat="59.6331527779" lon="5.12639166807">
		<tag k="fixme" v="consider seamark:type=rock or natural=shoal" />
		<tag k="name" v="Svarteskjera" />
		<tag k="place" v="islet" />
		<tag k="ssr:stedsnr" v="428917" />
	</node>
	<node id="-594249" lat="59.8803999968" lon="5.11042499733">
		<tag k="alt_name" v="Vikøy" />
		<tag k="name" v="Vikøya" />
		<tag k="place" v="island" />
		<tag k="ssr:stedsnr" v="428821" />
	</node>
	<node id="-594248" lat="59.8740111095" lon="5.12011389716">
		<tag k="alt_name" v="Tjoavik" />
		<tag k="name" v="Tjoavika" />
		<tag k="natural" v="bay" />
		<tag k="ssr:stedsnr" v="428819" />
	</node>
	<node id="-594246" lat="59.5889000011" lon="5.17946110676">
		<tag k="alt_name" v="Osnes" />
		<tag k="name" v="Osneset" />
		<tag k="natural" v="cape" />
		<tag k="ssr:stedsnr" v="428754" />
	</node>
	<node id="-594240" lat="59.8128027816" lon="5.27048055409">
		<tag k="name" v="Ottransvika" />
		<tag k="natural" v="bay" />
		<tag k="ssr:stedsnr" v="421404" />
	</node>
	<node id="-594238" lat="59.865002774" lon="5.15721944389">
		<tag k="alt_name" v="Kvernavika" />
		<tag k="name" v="Kvernavik" />
		<tag k="natural" v="bay" />
		<tag k="ssr:stedsnr" v="511841" />
	</node>
	<node id="-594237" lat="59.8559388881" lon="5.15831945283">
		<tag k="name" v="Hamni" />
		<tag k="natural" v="bay" />
		<tag k="ssr:stedsnr" v="511838" />
	</node>
	<node id="-594236" lat="59.7127972267" lon="5.4230944505">
		<tag k="name" v="Storaflua" />
		<tag k="natural" v="shoal" />
		<tag k="place" v="locality" />
		<tag k="ssr:stedsnr" v="511640" />
	</node>
	<node id="-594234" lat="59.6603388859" lon="5.06366389269">
		<tag k="name" v="Holsflua" />
		<tag k="natural" v="shoal" />
		<tag k="place" v="locality" />
		<tag k="ssr:stedsnr" v="511545" />
	</node>
	<node id="-594233" lat="59.6305250039" lon="5.12355278485">
		<tag k="name" v="Svartskjerflua" />
		<tag k="natural" v="shoal" />
		<tag k="place" v="locality" />
		<tag k="ssr:stedsnr" v="511536" />
	</node>
	<node id="-594232" lat="59.6376916667" lon="5.10754722908">
		<tag k="name" v="Olafluene" />
		<tag k="natural" v="shoal" />
		<tag k="place" v="locality" />
		<tag k="ssr:stedsnr" v="511535" />
	</node>
	<node id="-594231" lat="59.75755556" lon="5.36795833672">
		<tag k="name" v="Sagvågsfjorden" />
		<tag k="natural" v="strait" />
		<tag k="ssr:stedsnr" v="511377" />
	</node>
	<node id="-594230" lat="59.6409972261" lon="5.07101110533">
		<tag k="loc_name" v="Båa" />
		<tag k="name" v="Boen" />
		<tag k="place" v="locality" />
		<tag k="seamark:type" v="rock" />
		<tag k="ssr:stedsnr" v="511374" />
	</node>
	<node id="-594229" lat="59.6748472195" lon="5.15165000035">
		<tag k="alt_name" v="Stutanes" />
		<tag k="name" v="Stutaneset" />
		<tag k="natural" v="cape" />
		<tag k="ssr:stedsnr" v="511366" />
	</node>
	<node id="-594228" lat="59.750391671" lon="5.22331388617">
		<tag k="name" v="Lindøysundet" />
		<tag k="natural" v="strait" />
		<tag k="ssr:stedsnr" v="511327" />
	</node>
	<node id="-594227" lat="59.8124277749" lon="5.14664722135">
		<tag k="name" v="Kastestraumen" />
		<tag k="natural" v="strait" />
		<tag k="old_name" v="Kastestredet" />
		<tag k="ssr:stedsnr" v="510975" />
	</node>
	<node id="-594226" lat="59.8664333302" lon="5.03727777163">
		<tag k="name" v="Hausabogrunnen" />
		<tag k="natural" v="shoal" />
		<tag k="place" v="locality" />
		<tag k="ssr:stedsnr" v="510832" />
	</node>
	<node id="-594225" lat="59.7536777763" lon="5.09753611488">
		<tag k="name" v="Svartøyflua" />
		<tag k="natural" v="shoal" />
		<tag k="place" v="locality" />
		<tag k="ssr:stedsnr" v="510720" />
	</node>
	<node id="-594224" lat="59.7310027779" lon="5.11317777166">
		<tag k="fixme" v="consider seamark:type=rock or natural=shoal" />
		<tag k="name" v="Guleskjeret" />
		<tag k="place" v="islet" />
		<tag k="ssr:stedsnr" v="510718" />
	</node>
	<node id="-594223" lat="59.766077775" lon="5.1672166616">
		<tag k="name" v="Slettevik" />
		<tag k="natural" v="bay" />
		<tag k="ssr:stedsnr" v="510715" />
	</node>
	<node id="-594222" lat="59.7437694471" lon="5.24694721997">
		<tag k="name" v="Kråkeneset" />
		<tag k="natural" v="cape" />
		<tag k="ssr:stedsnr" v="510892" />
	</node>
	<node id="-594221" lat="59.7085666708" lon="5.25162223019">
		<tag k="fixme" v="consider seamark:type=rock or natural=shoal" />
		<tag k="name" v="Kjerringskjeret" />
		<tag k="place" v="islet" />
		<tag k="ssr:stedsnr" v="510319" />
	</node>
	<node id="-594220" lat="59.878347224" lon="5.12760000394">
		<tag k="name" v="Midtpartetangane" />
		<tag k="natural" v="cape" />
		<tag k="ssr:stedsnr" v="510311" />
	</node>
	<node id="-594219" lat="59.5178666654" lon="5.08744999914">
		<tag k="name" v="Bonden" />
		<tag k="natural" v="shoal" />
		<tag k="place" v="locality" />
		<tag k="ssr:stedsnr" v="510295" />
	</node>
	<node id="-594218" lat="59.5335444419" lon="5.04976944637">
		<tag k="name" v="Larsaflua" />
		<tag k="natural" v="shoal" />
		<tag k="place" v="locality" />
		<tag k="ssr:stedsnr" v="510047" />
	</node>
	<node id="-594217" lat="59.549136108" lon="5.05137500885">
		<tag k="name" v="Utnøringshausen" />
		<tag k="natural" v="shoal" />
		<tag k="place" v="locality" />
		<tag k="ssr:stedsnr" v="510044" />
	</node>
	<node id="-594216" lat="59.6074194403" lon="5.24999444549">
		<tag k="name" v="Kyrholmen" />
		<tag k="place" v="islet" />
		<tag k="ssr:stedsnr" v="510199" />
	</node>
	<node id="-594215" lat="59.7060722254" lon="5.15489166579">
		<tag k="name" v="Austra Krabbavika" />
		<tag k="natural" v="bay" />
		<tag k="ssr:stedsnr" v="406715" />
	</node>
	<node id="-594214" lat="59.6885416654" lon="5.36084443701">
		<tag k="name" v="Brattestø" />
		<tag k="natural" v="bay" />
		<tag k="ssr:stedsnr" v="406374" />
	</node>
	<node id="-594213" lat="59.698511113" lon="5.25772778012">
		<tag k="name" v="Jektaneset" />
		<tag k="natural" v="cape" />
		<tag k="ssr:stedsnr" v="406369" />
	</node>
	<node id="-594212" lat="59.5915818207" lon="5.15459202769">
		<tag k="name" v="Hiljesvika" />
		<tag k="natural" v="bay" />
		<tag k="ssr:stedsnr" v="406325" />
	</node>
	<node id="-594211" lat="59.7053583296" lon="5.15291110621">
		<tag k="name" v="Stutaklampen" />
		<tag k="natural" v="cape" />
		<tag k="ssr:stedsnr" v="406309" />
	</node>
	<node id="-594210" lat="59.7012583322" lon="5.17812499773">
		<tag k="name" v="Lyngholmen" />
		<tag k="place" v="islet" />
		<tag k="ssr:stedsnr" v="406307" />
	</node>
	<node id="-594209" lat="59.6105250005" lon="5.11787778156">
		<tag k="name" v="Kilsholmen" />
		<tag k="place" v="islet" />
		<tag k="ssr:stedsnr" v="405921" />
	</node>
	<node id="-594208" lat="59.7220777771" lon="5.35242777732">
		<tag k="name" v="Straumsklubbvika" />
		<tag k="natural" v="bay" />
		<tag k="ssr:stedsnr" v="405672" />
	</node>
	<node id="-594205" lat="59.7281777768" lon="5.22888332469">
		<tag k="name" v="Austre Vågspollen" />
		<tag k="natural" v="bay" />
		<tag k="ssr:stedsnr" v="405560" />
	</node>
	<node id="-594204" lat="59.7239833332" lon="5.24592777079">
		<tag k="name" v="Jordbærholmen" />
		<tag k="place" v="islet" />
		<tag k="ssr:stedsnr" v="405553" />
	</node>
	<node id="-594202" lat="59.6946444476" lon="5.37664722172">
		<tag k="name" v="Langaneset" />
		<tag k="natural" v="cape" />
		<tag k="ssr:stedsnr" v="405319" />
	</node>
	<node id="-594198" lat="59.7433749973" lon="5.25737222325">
		<tag k="alt_name" v="Helgeneset" />
		<tag k="name" v="Helganeset" />
		<tag k="natural" v="cape" />
		<tag k="ssr:stedsnr" v="404909" />
	</node>
	<node id="-594197" lat="59.7200833341" lon="5.24689722067">
		<tag k="name" v="Bjørnavikneset" />
		<tag k="natural" v="cape" />
		<tag k="ssr:stedsnr" v="404705" />
	</node>
	<node id="-594196" lat="59.886436112" lon="5.08292221429">
		<tag k="name" v="Austre Jernaglevika" />
		<tag k="natural" v="bay" />
		<tag k="ssr:stedsnr" v="404570" />
	</node>
	<node id="-594193" lat="59.7154722189" lon="5.25641944984">
		<tag k="name" v="Knutsvika" />
		<tag k="natural" v="bay" />
		<tag k="ssr:stedsnr" v="404670" />
	</node>
	<node id="-594192" lat="59.7137861093" lon="5.26756943941">
		<tag k="name" v="Piningevika" />
		<tag k="natural" v="bay" />
		<tag k="ssr:stedsnr" v="404667" />
	</node>
	<node id="-594189" lat="59.8097722221" lon="5.17463333448">
		<tag k="name" v="Hillesvika" />
		<tag k="natural" v="bay" />
		<tag k="ssr:stedsnr" v="402871" />
	</node>
	<node id="-594188" lat="59.8095083365" lon="5.14529443741">
		<tag k="name" v="Nordre Glipholmstraumen" />
		<tag k="natural" v="strait" />
		<tag k="ssr:stedsnr" v="402860" />
	</node>
	<node id="-594184" lat="59.7618666648" lon="5.16326110454">
		<tag k="name" v="Stokkneset" />
		<tag k="natural" v="cape" />
		<tag k="ssr:stedsnr" v="402806" />
	</node>
	<node id="-594183" lat="59.8387222192" lon="5.08058888897">
		<tag k="name" v="Bismaren" />
		<tag k="place" v="island" />
		<tag k="ssr:stedsnr" v="402920" />
	</node>
	<node id="-594182" lat="59.8125083306" lon="5.06563888049">
		<tag k="name" v="Nordre Langholmen" />
		<tag k="place" v="island" />
		<tag k="ssr:stedsnr" v="402904" />
	</node>
	<node id="-594179" lat="59.8328916686" lon="5.08891945141">
		<tag k="name" v="Kjøstelsholmen" />
		<tag k="place" v="islet" />
		<tag k="ssr:stedsnr" v="401214" />
	</node>
	<node id="-594178" lat="59.7911111155" lon="5.11573611007">
		<tag k="name" v="Øklandskongen" />
		<tag k="natural" v="cape" />
		<tag k="ssr:stedsnr" v="401206" />
	</node>
	<node id="-594176" lat="59.7861583353" lon="5.10920833281">
		<tag k="name" v="Hundaneset" />
		<tag k="natural" v="cape" />
		<tag k="ssr:stedsnr" v="401202" />
	</node>
	<node id="-594173" lat="59.6847916647" lon="5.12549166788">
		<tag k="name" v="Skarvabergflua" />
		<tag k="natural" v="shoal" />
		<tag k="place" v="locality" />
		<tag k="ssr:stedsnr" v="390307" />
	</node>
	<node id="-594171" lat="59.5818666634" lon="5.13889167046">
		<tag k="alt_name" v="Hilleren" />
		<tag k="name" v="Hillerholmen" />
		<tag k="place" v="islet" />
		<tag k="ssr:stedsnr" v="389853" />
	</node>
	<node id="-594170" lat="59.6006722215" lon="5.1446250069">
		<tag k="name" v="Svartanesfluene" />
		<tag k="natural" v="shoal" />
		<tag k="place" v="locality" />
		<tag k="ssr:stedsnr" v="389852" />
	</node>
	<node id="-594169" lat="59.637569441" lon="5.16002500428">
		<tag k="name" v="Kjeholmane" />
		<tag k="place" v="islet" />
		<tag k="ssr:stedsnr" v="389621" />
	</node>
	<node id="-594168" lat="59.8965194479" lon="5.03471111785">
		<tag k="name" v="Søra Skorsholmflua" />
		<tag k="natural" v="shoal" />
		<tag k="place" v="locality" />
		<tag k="ssr:stedsnr" v="389465" />
	</node>
	<node id="-594167" lat="59.9004027762" lon="5.04274723078">
		<tag k="name" v="Olaflua" />
		<tag k="natural" v="shoal" />
		<tag k="place" v="locality" />
		<tag k="ssr:stedsnr" v="389454" />
	</node>
	<node id="-594166" lat="59.8037416659" lon="5.04399999584">
		<tag k="name" v="Storkeflua" />
		<tag k="natural" v="shoal" />
		<tag k="place" v="locality" />
		<tag k="ssr:stedsnr" v="389567" />
	</node>
	<node id="-594165" lat="59.7229194471" lon="5.11860276879">
		<tag k="name" v="Olaflua" />
		<tag k="natural" v="shoal" />
		<tag k="place" v="locality" />
		<tag k="ssr:stedsnr" v="389278" />
	</node>
	<node id="-594164" lat="59.8189833367" lon="5.08765833176">
		<tag k="alt_name" v="Bukkholmssundet" />
		<tag k="name" v="Bukkøysundet" />
		<tag k="natural" v="strait" />
		<tag k="ssr:stedsnr" v="388919" />
	</node>
	<node id="-594163" lat="59.7516944485" lon="4.99170833589">
		<tag k="name" v="Hyljaskallen" />
		<tag k="natural" v="shoal" />
		<tag k="place" v="locality" />
		<tag k="ssr:stedsnr" v="388705" />
	</node>
	<node id="-594162" lat="59.5257292284" lon="5.05260417324">
		<tag k="name" v="Vestra Hovsøyflua" />
		<tag k="natural" v="shoal" />
		<tag k="place" v="locality" />
		<tag k="ssr:stedsnr" v="388262" />
	</node>
	<node id="-594161" lat="59.8609249959" lon="5.04785278383">
		<tag k="fixme" v="consider seamark:type=rock or natural=shoal" />
		<tag k="name" v="Goddeskjera" />
		<tag k="place" v="islet" />
		<tag k="ssr:stedsnr" v="368215" />
	</node>
	<node id="-594160" lat="59.8649194473" lon="5.08636945277">
		<tag k="name" v="Vågholmen" />
		<tag k="place" v="islet" />
		<tag k="ssr:stedsnr" v="368213" />
	</node>
	<node id="-594159" lat="59.4789749982" lon="5.06682222924">
		<tag k="name" v="Sletta" />
		<tag k="place" v="sea" />
		<tag k="ssr:stedsnr" v="366289" />
	</node>
	<node id="-594158" lat="59.7300388861" lon="5.24866389659">
		<tag k="name" v="Kyrkjesundet" />
		<tag k="natural" v="strait" />
		<tag k="ssr:stedsnr" v="362986" />
	</node>
	<node id="-594157" lat="59.7423083292" lon="5.20582778312">
		<tag k="name" v="Reianeset" />
		<tag k="natural" v="cape" />
		<tag k="ssr:stedsnr" v="362977" />
	</node>
	<node id="-594152" lat="59.6542666713" lon="5.20586111769">
		<tag k="name" v="Nordra Hagardsvika" />
		<tag k="natural" v="bay" />
		<tag k="ssr:stedsnr" v="362761" />
	</node>
	<node id="-594151" lat="59.7240305521" lon="5.12764166841">
		<tag k="name" v="Flaggasundsholmen" />
		<tag k="place" v="islet" />
		<tag k="ssr:stedsnr" v="362572" />
	</node>
	<node id="-594150" lat="59.6828166636" lon="5.10591388533">
		<tag k="bay" v="fjord" />
		<tag k="name" v="Søre Osen" />
		<tag k="natural" v="bay" />
		<tag k="ssr:stedsnr" v="362002" />
	</node>
	<node id="-594149" lat="59.5740527734" lon="5.13516388896">
		<tag k="alt_name" v="Klovning, litle" />
		<tag k="name" v="Litle Klovningen" />
		<tag k="place" v="islet" />
		<tag k="ssr:stedsnr" v="361812" />
	</node>
	<node id="-594148" lat="59.5757222261" lon="5.18191667135">
		<tag k="name" v="Ådnavikane" />
		<tag k="natural" v="bay" />
		<tag k="ssr:stedsnr" v="360567" />
	</node>
	<node id="-594147" lat="59.5847138917" lon="5.17766943949">
		<tag k="name" v="Tindholmevika" />
		<tag k="natural" v="bay" />
		<tag k="ssr:stedsnr" v="360564" />
	</node>
	<node id="-594143" lat="59.8340499957" lon="5.15225000079">
		<tag k="alt_name" v="Erevikeholmane" />
		<tag k="name" v="Erevikholmane" />
		<tag k="place" v="islet" />
		<tag k="ssr:stedsnr" v="489993" />
	</node>
	<node id="-594142" lat="59.819177782" lon="5.16774722318">
		<tag k="alt_name" v="Store Kattholmen" />
		<tag k="name" v="Kattholmen" />
		<tag k="place" v="islet" />
		<tag k="ssr:stedsnr" v="489962" />
	</node>
	<node id="-594139" lat="59.8088000005" lon="5.11480000804">
		<tag k="name" v="Krabbholmen" />
		<tag k="place" v="islet" />
		<tag k="ssr:stedsnr" v="489940" />
	</node>
	<node id="-594136" lat="59.8637499995" lon="5.2129000016">
		<tag k="alt_name" v="Bukkøy, store" />
		<tag k="fixme" v="multiple name tags, choose one and add the other to alt_name" />
		<tag k="name" v="Bukkøy;Stora Bukkøy" />
		<tag k="place" v="island" />
		<tag k="ssr:stedsnr" v="489900" />
	</node>
	<node id="-594133" lat="59.8878972236" lon="5.13106665781">
		<tag k="name" v="Risøysundet" />
		<tag k="natural" v="strait" />
		<tag k="ssr:stedsnr" v="489845" />
	</node>
	<node id="-594132" lat="59.8872805568" lon="5.11272778068">
		<tag k="name" v="Lusapollen" />
		<tag k="natural" v="bay" />
		<tag k="ssr:stedsnr" v="489843" />
	</node>
	<node id="-594131" lat="59.8789083319" lon="5.09986389123">
		<tag k="alt_name" v="Vikesundet" />
		<tag k="name" v="Vikøysundet" />
		<tag k="natural" v="strait" />
		<tag k="ssr:stedsnr" v="489841" />
	</node>
	<node id="-594129" lat="59.7686194471" lon="5.19907499669">
		<tag k="alt_name" v="Giljepollen" />
		<tag k="name" v="Giljevatnet" />
		<tag k="natural" v="bay" />
		<tag k="ssr:stedsnr" v="489656" />
	</node>
	<node id="-594122" lat="59.6930972223" lon="5.11241944041">
		<tag k="alt_name" v="Nautøy" />
		<tag k="name" v="Nautøya" />
		<tag k="place" v="island" />
		<tag k="ssr:stedsnr" v="489085" />
	</node>
	<node id="-594120" lat="59.9058111152" lon="5.06821388288">
		<tag k="name" v="Slåtterøy" />
		<tag k="place" v="island" />
		<tag k="ssr:stedsnr" v="489069" />
	</node>
	<node id="-594119" lat="59.9059305555" lon="5.08307499358">
		<tag k="name" v="Bylauparen" />
		<tag k="place" v="islet" />
		<tag k="ssr:stedsnr" v="489067" />
	</node>
	<node id="-594118" lat="59.89358333" lon="5.04389721663">
		<tag k="alt_name" v="Skorholmen" />
		<tag k="name" v="Skårholmen" />
		<tag k="place" v="islet" />
		<tag k="ssr:stedsnr" v="489064" />
	</node>
	<node id="-594116" lat="59.677813893" lon="5.15569722519">
		<tag k="alt_name" v="Ovnesvik" />
		<tag k="name" v="Omnsvika" />
		<tag k="natural" v="bay" />
		<tag k="ssr:stedsnr" v="488945" />
	</node>
	<node id="-594115" lat="59.6203666707" lon="5.16048333186">
		<tag k="bay" v="fjord" />
		<tag k="name" v="Vikafjorden" />
		<tag k="natural" v="bay" />
		<tag k="ssr:stedsnr" v="488921" />
	</node>
	<node id="-594113" lat="59.6577499971" lon="5.23246666485">
		<tag k="name" v="Hjartnesvågen" />
		<tag k="natural" v="bay" />
		<tag k="ssr:stedsnr" v="488892" />
	</node>
	<node id="-594112" lat="59.6621472259" lon="5.22033611091">
		<tag k="alt_name" v="Lauvøy" />
		<tag k="name" v="Lauvøya" />
		<tag k="place" v="island" />
		<tag k="ssr:stedsnr" v="488888" />
	</node>
	<node id="-594110" lat="59.6485694467" lon="5.20101389267">
		<tag k="name" v="Skåravågen" />
		<tag k="natural" v="bay" />
		<tag k="ssr:stedsnr" v="488879" />
	</node>
	<node id="-594105" lat="59.7454083377" lon="5.17423333627">
		<tag k="name" v="Fylkesnesosen" />
		<tag k="natural" v="strait" />
		<tag k="ssr:stedsnr" v="488650" />
	</node>
	<node id="-594104" lat="59.7458388857" lon="5.13346350052">
		<tag k="name" v="Korlo" />
		<tag k="place" v="islet" />
		<tag k="ssr:stedsnr" v="488648" />
	</node>
	<node id="-594103" lat="59.7237777761" lon="5.1744472276">
		<tag k="alt_name" v="Tverrborgholmen" />
		<tag k="name" v="Tverrborgvikholmen" />
		<tag k="place" v="islet" />
		<tag k="ssr:stedsnr" v="488590" />
	</node>
	<node id="-594101" lat="59.7426444458" lon="5.34724443803">
		<tag k="alt_name" v="Risøya, stora;Stora Risøy" />
		<tag k="name" v="Stora Risøya" />
		<tag k="place" v="islet" />
		<tag k="ssr:stedsnr" v="488571" />
	</node>
	<node id="-594100" lat="59.7121277761" lon="5.38914721439">
		<tag k="name" v="Prestnes" />
		<tag k="natural" v="cape" />
		<tag k="ssr:stedsnr" v="488495" />
	</node>
	<node id="-594099" lat="59.7101777769" lon="5.32990000256">
		<tag k="alt_name" v="Eikelandssjøen" />
		<tag k="name" v="Eikelandsosen" />
		<tag k="natural" v="bay" />
		<tag k="ssr:stedsnr" v="488490" />
	</node>
	<node id="-594098" lat="59.712458333" lon="5.33941944684">
		<tag k="name" v="Færavågen" />
		<tag k="natural" v="bay" />
		<tag k="ssr:stedsnr" v="488488" />
	</node>
	<node id="-594097" lat="59.7186916629" lon="5.25171667487">
		<tag k="name" v="Storholmen" />
		<tag k="place" v="islet" />
		<tag k="ssr:stedsnr" v="488475" />
	</node>
	<node id="-594095" lat="59.5441500037" lon="5.13360000622">
		<tag k="fixme" v="consider seamark:type=rock or natural=shoal" />
		<tag k="name" v="Seiskjeret" />
		<tag k="place" v="islet" />
		<tag k="ssr:stedsnr" v="488203" />
	</node>
	<node id="-594089" lat="59.8306416628" lon="5.25550277389">
		<tag k="name" v="Grunnesundsholmen" />
		<tag k="place" v="islet" />
		<tag k="ssr:stedsnr" v="345361" />
	</node>
	<node id="-594088" lat="59.6809111135" lon="5.25901667032">
		<tag k="name" v="Kalbuneset" />
		<tag k="natural" v="cape" />
		<tag k="ssr:stedsnr" v="345356" />
	</node>
	<node id="-594086" lat="59.6934638879" lon="5.37593889557">
		<tag k="name" v="Rindaskjeret" />
		<tag k="place" v="islet" />
		<tag k="ssr:stedsnr" v="344327" />
	</node>
	<node id="-594085" lat="59.6963611074" lon="5.37891665877">
		<tag k="name" v="Stora Televika" />
		<tag k="natural" v="bay" />
		<tag k="ssr:stedsnr" v="344319" />
	</node>
	<node id="-594081" lat="59.691672219" lon="5.16385278603">
		<tag k="alt_name" v="Tresvik" />
		<tag k="name" v="Træsvika" />
		<tag k="natural" v="bay" />
		<tag k="ssr:stedsnr" v="484363" />
	</node>
	<node id="-594080" lat="59.7374944425" lon="5.15540834158">
		<tag k="alt_name" v="Barmen, s" />
		<tag k="name" v="Søre Barmen" />
		<tag k="natural" v="bay" />
		<tag k="ssr:stedsnr" v="484500" />
	</node>
	<node id="-594079" lat="59.8613555544" lon="5.21029444189">
		<tag k="alt_name" v="S. Bukkøyneset" />
		<tag k="name" v="Bukkøyneset" />
		<tag k="natural" v="cape" />
		<tag k="ssr:stedsnr" v="484333" />
	</node>
	<node id="-594078" lat="59.5888638878" lon="5.13901111168">
		<tag k="name" v="Flagdasundet" />
		<tag k="natural" v="strait" />
		<tag k="ssr:stedsnr" v="484294" />
	</node>
	<node id="-594073" lat="59.6718472204" lon="5.26457778091">
		<tag k="name" v="Ivarsvika" />
		<tag k="natural" v="bay" />
		<tag k="ssr:stedsnr" v="484096" />
	</node>
	<node id="-594071" lat="59.875102779" lon="5.1697138929">
		<tag k="name" v="Ospholmen" />
		<tag k="place" v="islet" />
		<tag k="ssr:stedsnr" v="482651" />
	</node>
	<node id="-594068" lat="59.8123722267" lon="5.2692805557">
		<tag k="name" v="Lindhellevika" />
		<tag k="natural" v="bay" />
		<tag k="ssr:stedsnr" v="481428" />
	</node>
	<node id="-594067" lat="59.6848499959" lon="5.15770278533">
		<tag k="name" v="Nappen" />
		<tag k="natural" v="cape" />
		<tag k="ssr:stedsnr" v="330404" />
	</node>
	<node id="-594066" lat="59.8345694433" lon="5.06862777636">
		<tag k="name" v="Trettholmen" />
		<tag k="place" v="islet" />
		<tag k="ssr:stedsnr" v="329943" />
	</node>
	<node id="-594065" lat="59.7959583326" lon="5.2629638943">
		<tag k="name" v="Mækjevik" />
		<tag k="natural" v="bay" />
		<tag k="ssr:stedsnr" v="329811" />
	</node>
	<node id="-594064" lat="59.7571833334" lon="5.18831666868">
		<tag k="name" v="Storavik" />
		<tag k="natural" v="bay" />
		<tag k="ssr:stedsnr" v="329350" />
	</node>
	<node id="-594062" lat="59.8563888935" lon="5.05152222852">
		<tag k="name" v="Grunneboen" />
		<tag k="natural" v="shoal" />
		<tag k="place" v="locality" />
		<tag k="ssr:stedsnr" v="328926" />
	</node>
	<node id="-594061" lat="59.8555022913" lon="5.07939260784">
		<tag k="name" v="Legøysundet" />
		<tag k="natural" v="strait" />
		<tag k="ssr:stedsnr" v="328909" />
	</node>
	<node id="-594058" lat="59.8921555597" lon="5.03907777714">
		<tag k="name" v="Sussen" />
		<tag k="natural" v="shoal" />
		<tag k="place" v="locality" />
		<tag k="ssr:stedsnr" v="328408" />
	</node>
	<node id="-594057" lat="59.6979444417" lon="5.30709166297">
		<tag k="name" v="Sørøyvågen" />
		<tag k="natural" v="bay" />
		<tag k="ssr:stedsnr" v="328708" />
	</node>
	<node id="-594056" lat="59.8005999998" lon="5.05855556351">
		<tag k="name" v="Klovskjersundet" />
		<tag k="natural" v="strait" />
		<tag k="ssr:stedsnr" v="328504" />
	</node>
	<node id="-594054" lat="59.8890138888" lon="5.15345832458">
		<tag k="name" v="Sjøbuholmen" />
		<tag k="place" v="islet" />
		<tag k="ssr:stedsnr" v="300665" />
	</node>
	<node id="-594053" lat="59.8913972259" lon="5.15447221936">
		<tag k="name" v="Kobbeholmen" />
		<tag k="place" v="islet" />
		<tag k="ssr:stedsnr" v="300657" />
	</node>
	<node id="-594047" lat="59.6051833365" lon="5.11391944411">
		<tag k="alt_name" v="Brakholmane" />
		<tag k="name" v="Brokholmane" />
		<tag k="place" v="islet" />
		<tag k="ssr:stedsnr" v="466928" />
	</node>
	<node id="-594045" lat="59.6820694425" lon="5.25764443914">
		<tag k="name" v="Midtøya" />
		<tag k="place" v="island" />
		<tag k="ssr:stedsnr" v="466395" />
	</node>
	<node id="-594044" lat="59.6955750026" lon="5.3684555473">
		<tag k="name" v="Notlandsvågen" />
		<tag k="natural" v="bay" />
		<tag k="ssr:stedsnr" v="466296" />
	</node>
	<node id="-594043" lat="59.7329583322" lon="5.23485833126">
		<tag k="name" v="Anskår" />
		<tag k="natural" v="bay" />
		<tag k="ssr:stedsnr" v="466523" />
	</node>
	<node id="-594040" lat="59.5837944401" lon="5.14510555534">
		<tag k="name" v="Kalvaholmane" />
		<tag k="place" v="islet" />
		<tag k="ssr:stedsnr" v="466332" />
	</node>
	<node id="-594039" lat="59.606436113" lon="5.24987499656">
		<tag k="name" v="Kyrholmane" />
		<tag k="place" v="islet" />
		<tag k="ssr:stedsnr" v="465895" />
	</node>
	<node id="-594035" lat="59.7468361091" lon="5.33832778444">
		<tag k="name" v="Djupahola" />
		<tag k="natural" v="bay" />
		<tag k="ssr:stedsnr" v="465423" />
	</node>
	<node id="-594034" lat="59.714947219" lon="5.09443611824">
		<tag k="name" v="Nordra Keila" />
		<tag k="natural" v="bay" />
		<tag k="ssr:stedsnr" v="465285" />
	</node>
	<node id="-594032" lat="59.7316694454" lon="5.30328054698">
		<tag k="name" v="Tungebarmen" />
		<tag k="natural" v="bay" />
		<tag k="ssr:stedsnr" v="464919" />
	</node>
	<node id="-594030" lat="59.8334722215" lon="5.24030833472">
		<tag k="name" v="Klubbosen" />
		<tag k="natural" v="strait" />
		<tag k="ssr:stedsnr" v="464376" />
	</node>
	<node id="-594029" lat="59.8357861124" lon="5.15560000094">
		<tag k="name" v="Tangane" />
		<tag k="natural" v="cape" />
		<tag k="ssr:stedsnr" v="463831" />
	</node>
	<node id="-594026" lat="59.7527583372" lon="5.1275388937">
		<tag k="name" v="Ternebleikja" />
		<tag k="place" v="island" />
		<tag k="ssr:stedsnr" v="463118" />
	</node>
	<node id="-594025" lat="59.7569305527" lon="5.13351389039">
		<tag k="name" v="Metøya" />
		<tag k="place" v="island" />
		<tag k="ssr:stedsnr" v="463115" />
	</node>
	<node id="-594023" lat="59.8234611149" lon="5.12496110714">
		<tag k="name" v="Fleskøyosen" />
		<tag k="natural" v="strait" />
		<tag k="ssr:stedsnr" v="462799" />
	</node>
	<node id="-594021" lat="59.8000611104" lon="5.30538332786">
		<tag k="name" v="Hamnasundet" />
		<tag k="natural" v="strait" />
		<tag k="ssr:stedsnr" v="462790" />
	</node>
	<node id="-594020" lat="59.7951194473" lon="5.26222499583">
		<tag k="name" v="Klenesvågen" />
		<tag k="natural" v="bay" />
		<tag k="ssr:stedsnr" v="462780" />
	</node>
	<node id="-594019" lat="59.6348750006" lon="5.14605833715">
		<tag k="name" v="Sørensvikane" />
		<tag k="natural" v="bay" />
		<tag k="ssr:stedsnr" v="285972" />
	</node>
	<node id="-594018" lat="59.6170083323" lon="5.22862778579">
		<tag k="fixme" v="consider seamark:type=rock or natural=shoal" />
		<tag k="name" v="Øyjordsskjera" />
		<tag k="place" v="islet" />
		<tag k="ssr:stedsnr" v="285960" />
	</node>
	<node id="-594017" lat="59.614974999" lon="5.23203055467">
		<tag k="name" v="Hetlandstangen" />
		<tag k="natural" v="cape" />
		<tag k="ssr:stedsnr" v="285959" />
	</node>
	<node id="-594016" lat="59.6448527799" lon="5.16192499324">
		<tag k="name" v="Gjertrudvika" />
		<tag k="natural" v="bay" />
		<tag k="ssr:stedsnr" v="462778" />
	</node>
	<node id="-594015" lat="59.7521666632" lon="5.19236110589">
		<tag k="name" v="Brendeholmen" />
		<tag k="place" v="islet" />
		<tag k="ssr:stedsnr" v="462756" />
	</node>
	<node id="-594014" lat="59.8380277788" lon="5.08204445252">
		<tag k="name" v="Migemaurholmen" />
		<tag k="place" v="islet" />
		<tag k="ssr:stedsnr" v="462184" />
	</node>
	<node id="-594011" lat="59.8324611073" lon="5.12598889607">
		<tag k="name" v="Breidavikholmen" />
		<tag k="place" v="islet" />
		<tag k="ssr:stedsnr" v="462172" />
	</node>
	<node id="-594010" lat="59.8001666641" lon="5.10635277927">
		<tag k="name" v="Austra Samnungsøybleikja" />
		<tag k="place" v="islet" />
		<tag k="ssr:stedsnr" v="462170" />
	</node>
	<node id="-594008" lat="59.7807083377" lon="5.10911110969">
		<tag k="name" v="Tussasundet" />
		<tag k="natural" v="strait" />
		<tag k="ssr:stedsnr" v="462149" />
	</node>
	<node id="-594004" lat="59.7768800405" lon="5.1624838677">
		<tag k="alt_name" v="Øygardsholmen" />
		<tag k="name" v="Fureholmen" />
		<tag k="place" v="islet" />
		<tag k="ssr:stedsnr" v="281117" />
	</node>
	<node id="-594003" lat="59.6058527793" lon="5.08985833088">
		<tag k="name" v="Ryggen" />
		<tag k="natural" v="shoal" />
		<tag k="place" v="locality" />
		<tag k="ssr:stedsnr" v="269574" />
	</node>
	<node id="-594002" lat="59.6948555518" lon="5.13597778006">
		<tag k="alt_name" v="Brattholmen, L;Brattholmen L" />
		<tag k="name" v="Litle Brattholmen" />
		<tag k="place" v="islet" />
		<tag k="ssr:stedsnr" v="269417" />
	</node>
	<node id="-594001" lat="59.5779472244" lon="5.12918610935">
		<tag k="name" v="Almenakken" />
		<tag k="place" v="islet" />
		<tag k="ssr:stedsnr" v="269054" />
	</node>
	<node id="-594000" lat="59.5941972262" lon="5.14637777145">
		<tag k="name" v="Pollen" />
		<tag k="natural" v="bay" />
		<tag k="ssr:stedsnr" v="268852" />
	</node>
	<node id="-593998" lat="59.7200166633" lon="5.35450277036">
		<tag k="name" v="Naustbleikja" />
		<tag k="place" v="islet" />
		<tag k="ssr:stedsnr" v="268609" />
	</node>
	<node id="-593997" lat="59.7145222236" lon="5.10980554952">
		<tag k="name" v="Toskaflua" />
		<tag k="natural" v="shoal" />
		<tag k="place" v="locality" />
		<tag k="ssr:stedsnr" v="268262" />
	</node>
	<node id="-593996" lat="59.678230551" lon="5.24104443983">
		<tag k="name" v="Langaneset" />
		<tag k="natural" v="cape" />
		<tag k="ssr:stedsnr" v="268257" />
	</node>
	<node id="-593994" lat="59.7554055523" lon="5.05424999962">
		<tag k="name" v="Tovenakken" />
		<tag k="natural" v="shoal" />
		<tag k="place" v="locality" />
		<tag k="ssr:stedsnr" v="267704" />
	</node>
	<node id="-593993" lat="59.7583722194" lon="5.12218334246">
		<tag k="name" v="Storneset" />
		<tag k="natural" v="cape" />
		<tag k="ssr:stedsnr" v="463178" />
	</node>
	<node id="-593992" lat="59.7349833376" lon="5.12519999449">
		<tag k="name" v="Vadøya" />
		<tag k="place" v="island" />
		<tag k="ssr:stedsnr" v="462989" />
	</node>
	<node id="-593991" lat="59.8007083334" lon="5.24966665942">
		<tag k="name" v="Ternetangen" />
		<tag k="natural" v="cape" />
		<tag k="ssr:stedsnr" v="462981" />
	</node>
	<node id="-593990" lat="59.6529166666" lon="5.09142777785">
		<tag k="name" v="Bjørnsboen" />
		<tag k="natural" v="shoal" />
		<tag k="place" v="locality" />
		<tag k="ssr:stedsnr" v="451586" />
	</node>
	<node id="-593989" lat="59.6664388916" lon="5.08274166555">
		<tag k="name" v="Nygrunnen" />
		<tag k="natural" v="shoal" />
		<tag k="place" v="locality" />
		<tag k="ssr:stedsnr" v="451585" />
	</node>
	<node id="-593988" lat="59.8210222221" lon="5.20156666668">
		<tag k="alt_name" v="Leirvika" />
		<tag k="name" v="Leirpollen" />
		<tag k="natural" v="bay" />
		<tag k="ssr:stedsnr" v="450994" />
	</node>
	<node id="-593987" lat="59.5577805575" lon="5.14183055024">
		<tag k="name" v="Raudholmane" />
		<tag k="place" v="islet" />
		<tag k="ssr:stedsnr" v="451065" />
	</node>
	<node id="-593985" lat="59.8515055547" lon="5.22499722378">
		<tag k="name" v="Notholmen" />
		<tag k="place" v="islet" />
		<tag k="ssr:stedsnr" v="450740" />
	</node>
	<node id="-593984" lat="59.591869444" lon="5.13875555487">
		<tag k="name" v="Flagdasundet" />
		<tag k="natural" v="strait" />
		<tag k="ssr:stedsnr" v="450857" />
	</node>
	<node id="-593983" lat="59.8272777806" lon="5.26177223056">
		<tag k="name" v="Lauvholmen" />
		<tag k="place" v="islet" />
		<tag k="ssr:stedsnr" v="450835" />
	</node>
	<node id="-593982" lat="59.7387249956" lon="5.22897499782">
		<tag k="name" v="Storafjøra" />
		<tag k="natural" v="bay" />
		<tag k="ssr:stedsnr" v="450829" />
	</node>
	<node id="-593981" lat="59.7543611076" lon="5.11614444006">
		<tag k="name" v="Lyngsvo" />
		<tag k="place" v="islet" />
		<tag k="ssr:stedsnr" v="450715" />
	</node>
	<node id="-593980" lat="59.7618833297" lon="5.10520833855">
		<tag k="name" v="Gulo" />
		<tag k="place" v="islet" />
		<tag k="ssr:stedsnr" v="450714" />
	</node>
	<node id="-593978" lat="59.7998583344" lon="5.04223055136">
		<tag k="alt_name" v="Vestra Terneskjeret" />
		<tag k="fixme" v="consider seamark:type=rock or natural=shoal" />
		<tag k="name" v="Søra Terneskjer" />
		<tag k="place" v="islet" />
		<tag k="ssr:stedsnr" v="450568" />
	</node>
	<node id="-593977" lat="59.8005333348" lon="5.05110554799">
		<tag k="fixme" v="consider seamark:type=rock or natural=shoal" />
		<tag k="name" v="Steinskjeret" />
		<tag k="place" v="islet" />
		<tag k="ssr:stedsnr" v="450567" />
	</node>
	<node id="-593976" lat="59.8752777756" lon="5.07829999522">
		<tag k="name" v="Kvassteinsundet" />
		<tag k="natural" v="strait" />
		<tag k="ssr:stedsnr" v="450395" />
	</node>
	<node id="-593975" lat="59.8850416657" lon="5.0330194474">
		<tag k="name" v="Hardingstallen" />
		<tag k="natural" v="shoal" />
		<tag k="place" v="locality" />
		<tag k="ssr:stedsnr" v="450392" />
	</node>
	<node id="-593974" lat="59.8990416662" lon="5.05042499325">
		<tag k="name" v="Langøyflua" />
		<tag k="natural" v="shoal" />
		<tag k="place" v="locality" />
		<tag k="ssr:stedsnr" v="450443" />
	</node>
	<node id="-593972" lat="59.5243222219" lon="5.10731388879">
		<tag k="name" v="Melneflua" />
		<tag k="natural" v="shoal" />
		<tag k="place" v="locality" />
		<tag k="ssr:stedsnr" v="450317" />
	</node>
	<node id="-593971" lat="59.519186114" lon="5.09944999657">
		<tag k="name" v="Treboen" />
		<tag k="natural" v="shoal" />
		<tag k="place" v="locality" />
		<tag k="ssr:stedsnr" v="450311" />
	</node>
	<node id="-593969" lat="59.7207805529" lon="5.12228611333">
		<tag k="name" v="Klubbholmflua" />
		<tag k="natural" v="shoal" />
		<tag k="place" v="locality" />
		<tag k="ssr:stedsnr" v="450252" />
	</node>
	<node id="-593968" lat="59.8152388913" lon="5.11267777443">
		<tag k="alt_name" v="Sveaholmane" />
		<tag k="name" v="Sveholmane" />
		<tag k="place" v="islet" />
		<tag k="ssr:stedsnr" v="449960" />
	</node>
	<node id="-593967" lat="59.9328611153" lon="5.04258332793">
		<tag k="name" v="Indre Høkkelboen" />
		<tag k="natural" v="shoal" />
		<tag k="place" v="locality" />
		<tag k="ssr:stedsnr" v="450024" />
	</node>
	<node id="-593965" lat="59.8101250005" lon="5.28108888825">
		<tag k="name" v="Tangane" />
		<tag k="natural" v="cape" />
		<tag k="ssr:stedsnr" v="247952" />
	</node>
	<node id="-593964" lat="59.5769222179" lon="5.17961666225">
		<tag k="fixme" v="consider seamark:type=rock or natural=shoal" />
		<tag k="name" v="Ådneskjeret" />
		<tag k="place" v="islet" />
		<tag k="ssr:stedsnr" v="449040" />
	</node>
	<node id="-593963" lat="59.8154722183" lon="5.08001944181">
		<tag k="alt_name" v="Rogøya" />
		<tag k="name" v="Rogøy" />
		<tag k="place" v="island" />
		<tag k="ssr:stedsnr" v="246231" />
	</node>
	<node id="-593962" lat="59.5267861126" lon="5.06779445284">
		<tag k="alt_name" v="Hovsøy" />
		<tag k="name" v="Hovsøya" />
		<tag k="place" v="islet" />
		<tag k="ssr:stedsnr" v="246212" />
	</node>
	<node id="-593961" lat="59.5241333293" lon="5.11526111995">
		<tag k="alt_name" v="Melne klubben" />
		<tag k="name" v="Meleneklubben" />
		<tag k="place" v="islet" />
		<tag k="ssr:stedsnr" v="246211" />
	</node>
	<node id="-593960" lat="59.7966055511" lon="5.07379721406">
		<tag k="fixme" v="consider seamark:type=rock or natural=shoal" />
		<tag k="name" v="Svortlandsbleikjene" />
		<tag k="place" v="islet" />
		<tag k="ssr:stedsnr" v="242954" />
	</node>
	<node id="-593959" lat="59.7375138881" lon="5.21098333707">
		<tag k="name" v="Leirpollen" />
		<tag k="natural" v="bay" />
		<tag k="ssr:stedsnr" v="241976" />
	</node>
	<node id="-593957" lat="59.7231611114" lon="5.27228888883">
		<tag k="name" v="Mortavika" />
		<tag k="natural" v="bay" />
		<tag k="ssr:stedsnr" v="241961" />
	</node>
	<node id="-593956" lat="59.7200935273" lon="5.37785526162">
		<tag k="name" v="Kvitlavika" />
		<tag k="natural" v="bay" />
		<tag k="ssr:stedsnr" v="224555" />
	</node>
	<node id="-593955" lat="59.7171027794" lon="5.25812222225">
		<tag k="name" v="Eikegardsvika" />
		<tag k="natural" v="bay" />
		<tag k="ssr:stedsnr" v="222660" />
	</node>
	<node id="-593953" lat="59.7502361136" lon="5.19427499633">
		<tag k="name" v="Ådnanesholmen" />
		<tag k="place" v="islet" />
		<tag k="ssr:stedsnr" v="220059" />
	</node>
	<node id="-593952" lat="59.8289416684" lon="5.11689166478">
		<tag k="name" v="Goddevågsklovningen" />
		<tag k="natural" v="cape" />
		<tag k="ssr:stedsnr" v="219208" />
	</node>
	<node id="-593951" lat="59.8040666707" lon="5.08632221654">
		<tag k="name" v="Droninga" />
		<tag k="natural" v="cape" />
		<tag k="ssr:stedsnr" v="219207" />
	</node>
	<node id="-593950" lat="59.829758335" lon="5.09382222463">
		<tag k="name" v="Søre Lauvholmen" />
		<tag k="place" v="islet" />
		<tag k="ssr:stedsnr" v="219206" />
	</node>
	<node id="-593949" lat="59.7621361133" lon="5.10202222676">
		<tag k="name" v="Guleboane" />
		<tag k="place" v="island" />
		<tag k="ssr:stedsnr" v="219149" />
	</node>
	<node id="-593948" lat="59.7611138851" lon="5.10568055043">
		<tag k="name" v="Guleploven" />
		<tag k="natural" v="strait" />
		<tag k="ssr:stedsnr" v="219148" />
	</node>
	<node id="-593945" lat="59.9100444488" lon="5.07654166535">
		<tag k="name" v="Svartholmsålen" />
		<tag k="natural" v="strait" />
		<tag k="ssr:stedsnr" v="298063" />
	</node>
	<node id="-593944" lat="59.6975944471" lon="5.11465554779">
		<tag k="name" v="Ytstaskaget" />
		<tag k="natural" v="cape" />
		<tag k="ssr:stedsnr" v="209335" />
	</node>
	<node id="-593943" lat="59.795316666" lon="5.04366111387">
		<tag k="name" v="Flaten" />
		<tag k="natural" v="shoal" />
		<tag k="place" v="locality" />
		<tag k="ssr:stedsnr" v="207510" />
	</node>
	<node id="-593938" lat="59.601633331" lon="5.24849444065">
		<tag k="name" v="Grøna Neset" />
		<tag k="natural" v="cape" />
		<tag k="ssr:stedsnr" v="285703" />
	</node>
	<node id="-593937" lat="59.7061916697" lon="5.15925555181">
		<tag k="name" v="Holmasundet" />
		<tag k="natural" v="strait" />
		<tag k="ssr:stedsnr" v="285700" />
	</node>
	<node id="-593930" lat="59.5831444424" lon="5.1364583294">
		<tag k="name" v="Ramsholmane" />
		<tag k="place" v="islet" />
		<tag k="ssr:stedsnr" v="285272" />
	</node>
	<node id="-593929" lat="59.7251138864" lon="5.27073611933">
		<tag k="name" v="Grøna bleikja" />
		<tag k="place" v="islet" />
		<tag k="ssr:stedsnr" v="180976" />
	</node>
	<node id="-593928" lat="59.7312305556" lon="5.27374166573">
		<tag k="name" v="Perholmen" />
		<tag k="place" v="islet" />
		<tag k="ssr:stedsnr" v="180967" />
	</node>
	<node id="-593927" lat="59.7281560202" lon="5.27776113901">
		<tag k="name" v="Klubbavika" />
		<tag k="natural" v="bay" />
		<tag k="ssr:stedsnr" v="180952" />
	</node>
	<node id="-593926" lat="59.6496250044" lon="5.2319055554">
		<tag k="name" v="Gulnakkevika" />
		<tag k="natural" v="bay" />
		<tag k="ssr:stedsnr" v="180763" />
	</node>
	<node id="-593925" lat="59.759247226" lon="5.23152221987">
		<tag k="name" v="Kargarshola" />
		<tag k="natural" v="bay" />
		<tag k="ssr:stedsnr" v="180123" />
	</node>
	<node id="-593924" lat="59.6753250032" lon="5.32136666616">
		<tag k="name" v="Urolegehamnen" />
		<tag k="natural" v="bay" />
		<tag k="ssr:stedsnr" v="180018" />
	</node>
	<node id="-593923" lat="59.6889527756" lon="5.11967500187">
		<tag k="name" v="Ospeneset" />
		<tag k="natural" v="cape" />
		<tag k="ssr:stedsnr" v="180008" />
	</node>
</osm>
