<?xml version="1.0" encoding="UTF-8"?>
<osm generator="osmapis" version="0.6">
	<node id="-597503" lat="59.8933916637" lon="5.0972750037">
		<tag k="fixme" v="consider place=hamlet" />
		<tag k="name" v="Kvarven" />
		<tag k="place" v="farm" />
		<tag k="ssr:stedsnr" v="708583" />
	</node>
	<node id="-597496" lat="59.7597305601" lon="5.20673611286">
		<tag k="name" v="Ådnanes" />
		<tag k="place" v="farm" />
		<tag k="ssr:stedsnr" v="707867" />
	</node>
	<node id="-596564" lat="59.8337444485" lon="5.23447500214">
		<tag k="name" v="Indra Klubbo" />
		<tag k="place" v="hamlet" />
		<tag k="ssr:stedsnr" v="222345" />
	</node>
	<node id="-598098" lat="59.7648933921" lon="5.28513281783">
		<tag k="fixme" v="consider place=hamlet" />
		<tag k="name" v="Sølvrusten" />
		<tag k="place" v="farm" />
		<tag k="ssr:stedsnr" v="990368" />
	</node>
	<node id="-597585" lat="59.7318750009" lon="5.19170000492">
		<tag k="name" v="Selvågseter" />
		<tag k="place" v="locality" />
		<tag k="ssr:stedsnr" v="632365" />
	</node>
	<node id="-596959" lat="59.702752782" lon="5.18403888613">
		<tag k="fixme" v="consider place=hamlet" />
		<tag k="name" v="Lykling" />
		<tag k="place" v="farm" />
		<tag k="ssr:stedsnr" v="298271" />
	</node>
	<node id="-598095" lat="59.7949043442" lon="5.2996352302">
		<tag k="fixme" v="consider place=hamlet" />
		<tag k="name" v="Folderøy" />
		<tag k="place" v="farm" />
		<tag k="ssr:stedsnr" v="990364" />
	</node>
	<node id="-596947" lat="59.6816694457" lon="5.22524722736">
		<tag k="historic" v="shieling" />
		<tag k="name" v="Barastølane" />
		<tag k="place" v="locality" />
		<tag k="ssr:stedsnr" v="285510" />
	</node>
	<node id="-597969" lat="59.7995090018" lon="5.30263890997">
		<tag k="name" v="Folderøyhamn" />
		<tag k="place" v="farm" />
		<tag k="ssr:stedsnr" v="854531" />
	</node>
	<node id="-596944" lat="59.7041583337" lon="5.17549999231">
		<tag k="historic" v="shieling" />
		<tag k="name" v="Urdastølen" />
		<tag k="place" v="locality" />
		<tag k="ssr:stedsnr" v="285294" />
	</node>
	<node id="-597966" lat="59.802945618" lon="5.21053734542">
		<tag k="fixme" v="consider place=hamlet" />
		<tag k="name" v="Rubbestad" />
		<tag k="place" v="farm" />
		<tag k="ssr:stedsnr" v="854512" />
	</node>
	<node id="-598093" lat="59.7682917649" lon="5.31635994053">
		<tag k="fixme" v="consider place=hamlet" />
		<tag k="name" v="Siggjarvågen" />
		<tag k="place" v="farm" />
		<tag k="ssr:stedsnr" v="990358" />
	</node>
	<node id="-597954" lat="59.7189305591" lon="5.33326667313">
		<tag k="alt_name" v="Onglavik" />
		<tag k="fixme" v="consider place=hamlet" />
		<tag k="name" v="Onglavika" />
		<tag k="place" v="farm" />
		<tag k="ssr:stedsnr" v="853505" />
	</node>
	<node id="-598091" lat="59.6997137281" lon="5.38173110585">
		<tag k="name" v="Mosterhamn" />
		<tag k="place" v="hamlet" />
		<tag k="ssr:stedsnr" v="990342" />
	</node>
	<node id="-597944" lat="59.7195083308" lon="5.24541388298">
		<tag k="alt_name" v="Bjørnavik" />
		<tag k="fixme" v="consider place=hamlet" />
		<tag k="name" v="Bjørnavika" />
		<tag k="place" v="farm" />
		<tag k="ssr:stedsnr" v="852507" />
	</node>
	<node id="-597943" lat="59.8826388887" lon="5.09791110401">
		<tag k="name" v="Ulversøy" />
		<tag k="place" v="hamlet" />
		<tag k="ssr:stedsnr" v="848711" />
	</node>
	<node id="-596917" lat="59.7455111083" lon="5.26928055897">
		<tag k="name" v="Solberg" />
		<tag k="place" v="hamlet" />
		<tag k="ssr:stedsnr" v="283766" />
	</node>
	<node id="-597938" lat="59.7400055591" lon="5.30499443563">
		<tag k="name" v="Dalen" />
		<tag k="place" v="farm" />
		<tag k="ssr:stedsnr" v="936625" />
	</node>
	<node id="-597934" lat="59.7261463712" lon="5.37333819756">
		<tag k="name" v="Spyssøya" />
		<tag k="place" v="hamlet" />
		<tag k="ssr:stedsnr" v="936385" />
	</node>
	<node id="-597932" lat="59.6128583326" lon="5.22098611666">
		<tag k="name" v="Vorland" />
		<tag k="place" v="farm" />
		<tag k="ssr:stedsnr" v="936367" />
	</node>
	<node id="-596902" lat="59.7904416663" lon="5.16664721696">
		<tag k="name" v="Maldivo" />
		<tag k="place" v="locality" />
		<tag k="ssr:stedsnr" v="282271" />
	</node>
	<node id="-597922" lat="59.8850833329" lon="5.0996999917">
		<tag k="name" v="Vonheim" />
		<tag k="place" v="isolated_dwelling" />
		<tag k="ssr:stedsnr" v="935316" />
	</node>
	<node id="-597404" lat="59.761408332" lon="5.17937222819">
		<tag k="name" v="Fylkesnes" />
		<tag k="place" v="farm" />
		<tag k="ssr:stedsnr" v="524163" />
	</node>
	<node id="-597595" lat="59.6934440688" lon="5.17481440599">
		<tag k="fixme" v="consider place=hamlet" />
		<tag k="name" v="Sele" />
		<tag k="place" v="farm" />
		<tag k="ssr:stedsnr" v="731507" />
	</node>
	<node id="-597902" lat="59.5896706274" lon="5.15093720032">
		<tag k="fixme" v="consider place=hamlet" />
		<tag k="name" v="Espevær" />
		<tag k="place" v="farm" />
		<tag k="ssr:stedsnr" v="792758" />
	</node>
	<node id="-597385" lat="59.7190027735" lon="5.35140832835">
		<tag k="name" v="Naustbakken" />
		<tag k="place" v="farm" />
		<tag k="ssr:stedsnr" v="488510" />
	</node>
	<node id="-597381" lat="59.5918888854" lon="5.19405277992">
		<tag k="historic" v="shieling" />
		<tag k="name" v="Alvastølen" />
		<tag k="place" v="locality" />
		<tag k="ssr:stedsnr" v="482575" />
	</node>
	<node id="-597379" lat="59.834495478" lon="5.23421478483">
		<tag k="fixme" v="consider place=hamlet" />
		<tag k="name" v="Klubben" />
		<tag k="place" v="farm" />
		<tag k="ssr:stedsnr" v="672525" />
	</node>
	<node id="-596715" lat="59.7281193706" lon="5.38096084654">
		<tag k="fixme" v="consider place=hamlet" />
		<tag k="name" v="Spyssøyhamn" />
		<tag k="place" v="farm" />
		<tag k="ssr:stedsnr" v="246590" />
	</node>
	<node id="-597888" lat="59.7338444424" lon="5.20219443839">
		<tag k="historic" v="shieling" />
		<tag k="name" v="Selvågsætre" />
		<tag k="place" v="locality" />
		<tag k="ssr:stedsnr" v="787985" />
	</node>
	<node id="-596856" lat="59.6011277773" lon="5.20887777376">
		<tag k="name" v="Langevåg" />
		<tag k="place" v="hamlet" />
		<tag k="ssr:stedsnr" v="163663" />
	</node>
	<node id="-597877" lat="59.8495408981" lon="5.21087360599">
		<tag k="fixme" v="consider place=hamlet" />
		<tag k="name" v="Gjøsætre" />
		<tag k="place" v="farm" />
		<tag k="ssr:stedsnr" v="914877" />
	</node>
	<node id="-597362" lat="59.7967277814" lon="5.23242499388">
		<tag k="name" v="Blindingestølen" />
		<tag k="place" v="farm" />
		<tag k="ssr:stedsnr" v="671541" />
	</node>
	<node id="-597361" lat="59.7897922341" lon="5.1731642424">
		<tag k="fixme" v="consider place=hamlet" />
		<tag k="name" v="Svortland" />
		<tag k="place" v="farm" />
		<tag k="ssr:stedsnr" v="671539" />
	</node>
	<node id="-597359" lat="59.7974553552" lon="5.16042272561">
		<tag k="name" v="Habbastad" />
		<tag k="place" v="hamlet" />
		<tag k="ssr:stedsnr" v="671530" />
	</node>
	<node id="-597358" lat="59.8007497198" lon="5.13941900308">
		<tag k="fixme" v="consider place=hamlet" />
		<tag k="name" v="Brekke" />
		<tag k="place" v="farm" />
		<tag k="ssr:stedsnr" v="671529" />
	</node>
	<node id="-597866" lat="59.7665160731" lon="5.23344617001">
		<tag k="fixme" v="consider place=hamlet" />
		<tag k="name" v="Tormodsætre" />
		<tag k="place" v="farm" />
		<tag k="ssr:stedsnr" v="914623" />
	</node>
	<node id="-597865" lat="59.7742872514" lon="5.18325464377">
		<tag k="alt_name" v="Mæland" />
		<tag k="name" v="Meland" />
		<tag k="place" v="hamlet" />
		<tag k="ssr:stedsnr" v="914620" />
	</node>
	<node id="-596839" lat="59.6945611117" lon="5.34135832737">
		<tag k="fixme" v="consider place=suburb, village or hamlet" />
		<tag k="name" v="Totlandssjøen" />
		<tag k="place" v="quarter" />
		<tag k="ssr:stedsnr" v="162255" />
	</node>
	<node id="-597339" lat="59.7323192466" lon="5.23982487991">
		<tag k="alt_name" v="Hille" />
		<tag k="fixme" v="consider place=hamlet" />
		<tag k="name" v="Hidle" />
		<tag k="place" v="farm" />
		<tag k="ssr:stedsnr" v="670580" />
	</node>
	<node id="-596821" lat="59.762052782" lon="5.18056389689">
		<tag k="name" v="Fylkesneset" />
		<tag k="place" v="farm" />
		<tag k="ssr:stedsnr" v="159221" />
	</node>
	<node id="-596819" lat="59.7503888867" lon="5.26467499574">
		<tag k="historic" v="shieling" />
		<tag k="name" v="Stølen" />
		<tag k="place" v="locality" />
		<tag k="ssr:stedsnr" v="147353" />
	</node>
	<node id="-597816" lat="59.600730552" lon="5.21280832792">
		<tag k="alt_name" v="Vold" />
		<tag k="fixme" v="consider place=hamlet" />
		<tag k="name" v="Voll" />
		<tag k="place" v="farm" />
		<tag k="ssr:stedsnr" v="913846" />
	</node>
	<node id="-597834" lat="59.6360315769" lon="5.23938235427">
		<tag k="fixme" v="consider place=hamlet" />
		<tag k="name" v="Andal" />
		<tag k="place" v="farm" />
		<tag k="ssr:stedsnr" v="913932" />
	</node>
	<node id="-596809" lat="59.7928444485" lon="5.17225832888">
		<tag k="name" v="Svortland" />
		<tag k="place" v="village" />
		<tag k="ssr:stedsnr" v="270575" />
	</node>
	<node id="-597316" lat="59.7119638883" lon="5.17063889663">
		<tag k="name" v="Verket" />
		<tag k="place" v="locality" />
		<tag k="ssr:stedsnr" v="466726" />
	</node>
	<node id="-596792" lat="59.7640890767" lon="5.25286574875">
		<tag k="fixme" v="consider place=hamlet" />
		<tag k="name" v="Stautland" />
		<tag k="place" v="farm" />
		<tag k="ssr:stedsnr" v="125621" />
	</node>
	<node id="-597897" lat="59.7693614411" lon="5.12965858624">
		<tag k="fixme" v="consider place=hamlet" />
		<tag k="name" v="Nordtun" />
		<tag k="place" v="farm" />
		<tag k="ssr:stedsnr" v="792507" />
	</node>
	<node id="-597812" lat="59.5964926922" lon="5.22433568177">
		<tag k="fixme" v="consider place=hamlet" />
		<tag k="name" v="Løning" />
		<tag k="place" v="farm" />
		<tag k="ssr:stedsnr" v="913751" />
	</node>
	<node id="-596841" lat="59.6957249963" lon="5.35572499737">
		<tag k="fixme" v="consider place=suburb, village or hamlet" />
		<tag k="name" v="Nedra Grindeim" />
		<tag k="place" v="quarter" />
		<tag k="ssr:stedsnr" v="162265" />
	</node>
	<node id="-597278" lat="59.6971117775" lon="5.35292568167">
		<tag k="name" v="Grindheim" />
		<tag k="place" v="hamlet" />
		<tag k="ssr:stedsnr" v="451422" />
	</node>
	<node id="-596869" lat="59.7602138919" lon="5.19968055483">
		<tag k="name" v="Metropol" />
		<tag k="place" v="isolated_dwelling" />
		<tag k="ssr:stedsnr" v="280959" />
	</node>
	<node id="-597787" lat="59.720319442" lon="5.17635833148">
		<tag k="name" v="Nedra Tverborgvika" />
		<tag k="place" v="hamlet" />
		<tag k="ssr:stedsnr" v="907691" />
	</node>
	<node id="-597783" lat="59.5888055592" lon="5.18727499652">
		<tag k="fixme" v="consider place=hamlet" />
		<tag k="name" v="Vestvik" />
		<tag k="place" v="village" />
		<tag k="ssr:stedsnr" v="907530" />
	</node>
	<node id="-597270" lat="59.6313472856" lon="5.18681581581">
		<tag k="name" v="Vestre Vika" />
		<tag k="place" v="farm" />
		<tag k="ssr:stedsnr" v="445709" />
	</node>
	<node id="-596752" lat="59.8001108318" lon="5.16863632468">
		<tag k="fixme" v="consider place=hamlet" />
		<tag k="name" v="Gåsland" />
		<tag k="place" v="farm" />
		<tag k="ssr:stedsnr" v="247514" />
	</node>
	<node id="-596751" lat="59.7909691407" lon="5.25785534686">
		<tag k="alt_name" v="Ekornsæter;Ikornesæteret" />
		<tag k="fixme" v="consider place=hamlet" />
		<tag k="name" v="Ekornsætre" />
		<tag k="place" v="farm" />
		<tag k="ssr:stedsnr" v="247493" />
	</node>
	<node id="-597258" lat="59.7236314224" lon="5.18533183659">
		<tag k="fixme" v="consider place=hamlet" />
		<tag k="name" v="Hellvika" />
		<tag k="place" v="farm" />
		<tag k="ssr:stedsnr" v="427609" />
	</node>
	<node id="-597254" lat="59.6755166668" lon="5.2598694485">
		<tag k="name" v="Slaktingevik" />
		<tag k="place" v="farm" />
		<tag k="ssr:stedsnr" v="423117" />
	</node>
	<node id="-596740" lat="59.6616356773" lon="5.23238390787">
		<tag k="fixme" v="consider place=hamlet" />
		<tag k="name" v="Hjartnes" />
		<tag k="place" v="farm" />
		<tag k="ssr:stedsnr" v="246970" />
	</node>
	<node id="-597762" lat="59.8863508419" lon="5.15109554197">
		<tag k="fixme" v="consider place=hamlet" />
		<tag k="name" v="Risøy" />
		<tag k="place" v="farm" />
		<tag k="ssr:stedsnr" v="725615" />
	</node>
	<node id="-596908" lat="59.8479916677" lon="5.21163888886">
		<tag k="name" v="Gjøsætret" />
		<tag k="place" v="farm" />
		<tag k="ssr:stedsnr" v="283279" />
	</node>
	<node id="-596728" lat="59.6430471473" lon="5.19797328249">
		<tag k="fixme" v="consider place=hamlet" />
		<tag k="name" v="Tjong" />
		<tag k="place" v="farm" />
		<tag k="ssr:stedsnr" v="246863" />
	</node>
	<node id="-596724" lat="59.6009166333" lon="5.19941493734">
		<tag k="fixme" v="consider place=hamlet" />
		<tag k="name" v="Eide" />
		<tag k="place" v="farm" />
		<tag k="ssr:stedsnr" v="246834" />
	</node>
	<node id="-596723" lat="59.6021527769" lon="5.20817777357">
		<tag k="name" v="Langevåg" />
		<tag k="place" v="village" />
		<tag k="ssr:stedsnr" v="246833" />
	</node>
	<node id="-596722" lat="59.8913138926" lon="5.1042638883">
		<tag k="alt_name" v="Kverno;Kverne" />
		<tag k="name" v="Kverna" />
		<tag k="place" v="isolated_dwelling" />
		<tag k="ssr:stedsnr" v="246818" />
	</node>
	<node id="-597740" lat="59.7019694419" lon="5.36724722684">
		<tag k="name" v="Notland" />
		<tag k="place" v="hamlet" />
		<tag k="ssr:stedsnr" v="891659" />
	</node>
	<node id="-597739" lat="59.7038361096" lon="5.37230832958">
		<tag k="name" v="Austre Grønås" />
		<tag k="place" v="farm" />
		<tag k="ssr:stedsnr" v="891628" />
	</node>
	<node id="-597732" lat="59.697041668" lon="5.36424166338">
		<tag k="fixme" v="consider place=suburb, village or hamlet" />
		<tag k="name" v="Øvra Skimmeland" />
		<tag k="place" v="quarter" />
		<tag k="ssr:stedsnr" v="891317" />
	</node>
	<node id="-597219" lat="59.7046419826" lon="5.36789342298">
		<tag k="name" v="Vestra Grønås" />
		<tag k="place" v="farm" />
		<tag k="ssr:stedsnr" v="405723" />
	</node>
	<node id="-596704" lat="59.7859611116" lon="5.31427499881">
		<tag k="name" v="Bakken" />
		<tag k="place" v="farm" />
		<tag k="ssr:stedsnr" v="246491" />
	</node>
	<node id="-597727" lat="59.895205558" lon="5.09028054879">
		<tag k="name" v="Gisøysund" />
		<tag k="place" v="hamlet" />
		<tag k="ssr:stedsnr" v="890601" />
	</node>
	<node id="-598032" lat="59.6327758775" lon="5.18728092423">
		<tag k="name" v="Vestre Vika" />
		<tag k="place" v="farm" />
		<tag k="ssr:stedsnr" v="931720" />
	</node>
	<node id="-597208" lat="59.896118184" lon="5.09741571814">
		<tag k="fixme" v="consider place=hamlet" />
		<tag k="name" v="Torget" />
		<tag k="place" v="farm" />
		<tag k="ssr:stedsnr" v="404561" />
	</node>
	<node id="-598100" lat="59.8699113299" lon="5.08292999225">
		<tag k="fixme" v="consider place=hamlet" />
		<tag k="name" v="Utslættøya" />
		<tag k="place" v="farm" />
		<tag k="ssr:stedsnr" v="990371" />
	</node>
	<node id="-597714" lat="59.6991944427" lon="5.38584722998">
		<tag k="fixme" v="consider place=suburb, village or hamlet" />
		<tag k="name" v="Mosterhamn" />
		<tag k="place" v="quarter" />
		<tag k="ssr:stedsnr" v="694369" />
	</node>
	<node id="-596689" lat="59.7943529321" lon="5.30669051253">
		<tag k="fixme" v="consider place=hamlet" />
		<tag k="name" v="Ørevika" />
		<tag k="place" v="farm" />
		<tag k="ssr:stedsnr" v="65503" />
	</node>
	<node id="-597596" lat="59.7070356326" lon="5.34979678582">
		<tag k="fixme" v="consider place=hamlet" />
		<tag k="name" v="Espeland" />
		<tag k="place" v="farm" />
		<tag k="ssr:stedsnr" v="731514" />
	</node>
	<node id="-596687" lat="59.859449998" lon="5.13694929842">
		<tag k="alt_name" v="Åno" />
		<tag k="fixme" v="consider place=hamlet" />
		<tag k="name" v="Ådnarå" />
		<tag k="place" v="farm" />
		<tag k="ssr:stedsnr" v="64927" />
	</node>
	<node id="-597190" lat="59.7976055532" lon="5.13497221847">
		<tag k="name" v="Økland" />
		<tag k="place" v="farm" />
		<tag k="ssr:stedsnr" v="401203" />
	</node>
	<node id="-597188" lat="59.5964294873" lon="5.23090223001">
		<tag k="fixme" v="consider place=hamlet" />
		<tag k="name" v="Bømlahamn" />
		<tag k="place" v="farm" />
		<tag k="ssr:stedsnr" v="506689" />
	</node>
	<node id="-597187" lat="59.6081249958" lon="5.21612500503">
		<tag k="name" v="Vorland" />
		<tag k="place" v="farm" />
		<tag k="ssr:stedsnr" v="390367" />
	</node>
	<node id="-597185" lat="59.6305111096" lon="5.18521944989">
		<tag k="name" v="Vika" />
		<tag k="place" v="farm" />
		<tag k="ssr:stedsnr" v="389875" />
	</node>
	<node id="-597365" lat="59.7751944414" lon="5.31303889805">
		<tag k="alt_name" v="Myro" />
		<tag k="name" v="Myra" />
		<tag k="place" v="farm" />
		<tag k="ssr:stedsnr" v="671589" />
	</node>
	<node id="-597167" lat="59.7281876972" lon="5.28159478825">
		<tag k="name" v="Klubben" />
		<tag k="place" v="farm" />
		<tag k="ssr:stedsnr" v="362963" />
	</node>
	<node id="-596649" lat="59.6979666626" lon="5.38434444598">
		<tag k="fixme" v="consider place=suburb, village or hamlet" />
		<tag k="name" v="Hamradalen" />
		<tag k="place" v="quarter" />
		<tag k="ssr:stedsnr" v="41317" />
	</node>
	<node id="-597159" lat="59.5912416667" lon="5.19033055533">
		<tag k="historic" v="shieling" />
		<tag k="name" v="Nesjastølen" />
		<tag k="place" v="locality" />
		<tag k="ssr:stedsnr" v="360562" />
	</node>
	<node id="-597105" lat="59.5985888862" lon="5.23168611101">
		<tag k="fixme" v="consider place=hamlet" />
		<tag k="name" v="Løningsneset" />
		<tag k="place" v="farm" />
		<tag k="ssr:stedsnr" v="345706" />
	</node>
	<node id="-597663" lat="59.7009073024" lon="5.38224171481">
		<tag k="fixme" v="consider place=hamlet" />
		<tag k="name" v="Moster" />
		<tag k="place" v="village" />
		<tag k="ssr:stedsnr" v="876441" />
	</node>
	<node id="-597137" lat="59.7941790747" lon="5.27432225941">
		<tag k="fixme" v="consider place=hamlet" />
		<tag k="name" v="Mækjebakken" />
		<tag k="place" v="farm" />
		<tag k="ssr:stedsnr" v="489532" />
	</node>
	<node id="-597648" lat="59.7634133056" lon="5.26881319265">
		<tag k="fixme" v="consider place=hamlet" />
		<tag k="name" v="Oldereid" />
		<tag k="place" v="farm" />
		<tag k="ssr:stedsnr" v="646678" />
	</node>
	<node id="-597642" lat="59.8234218413" lon="5.23993968764">
		<tag k="alt_name" v="Stangarvågen;Stongarvåg;Stangarvåg" />
		<tag k="fixme" v="consider place=hamlet" />
		<tag k="name" v="Stongarvågen" />
		<tag k="old_name" v="Stangaråvågen" />
		<tag k="place" v="farm" />
		<tag k="ssr:stedsnr" v="732965" />
	</node>
	<node id="-597637" lat="59.8032555522" lon="5.17600556223">
		<tag k="name" v="Stølo" />
		<tag k="place" v="hamlet" />
		<tag k="ssr:stedsnr" v="732951" />
	</node>
	<node id="-597636" lat="59.8037999966" lon="5.14531944974">
		<tag k="name" v="Øyjorda" />
		<tag k="place" v="isolated_dwelling" />
		<tag k="ssr:stedsnr" v="732943" />
	</node>
	<node id="-597635" lat="59.8701249968" lon="5.16327778291">
		<tag k="fixme" v="consider place=hamlet" />
		<tag k="name" v="Rolvsnes" />
		<tag k="place" v="village" />
		<tag k="ssr:stedsnr" v="732926" />
	</node>
	<node id="-597120" lat="59.5923077008" lon="5.19882633389">
		<tag k="fixme" v="consider place=hamlet" />
		<tag k="name" v="Kalavåg" />
		<tag k="place" v="farm" />
		<tag k="ssr:stedsnr" v="488774" />
	</node>
	<node id="-597631" lat="59.8770569645" lon="5.10303835152">
		<tag k="fixme" v="consider place=hamlet" />
		<tag k="name" v="Sørvik" />
		<tag k="place" v="farm" />
		<tag k="ssr:stedsnr" v="732832" />
	</node>
	<node id="-597629" lat="59.8677209819" lon="5.10888703298">
		<tag k="fixme" v="consider place=hamlet" />
		<tag k="name" v="Klubbo" />
		<tag k="place" v="farm" />
		<tag k="ssr:stedsnr" v="732819" />
	</node>
	<node id="-597432" lat="59.702981228" lon="5.17625017863">
		<tag k="fixme" v="consider place=hamlet" />
		<tag k="name" v="Urdo" />
		<tag k="place" v="farm" />
		<tag k="ssr:stedsnr" v="694228" />
	</node>
	<node id="-597621" lat="59.7982188361" lon="5.15203949584">
		<tag k="alt_name" v="Sørvoll" />
		<tag k="fixme" v="consider place=hamlet" />
		<tag k="name" v="Søvoll" />
		<tag k="place" v="farm" />
		<tag k="ssr:stedsnr" v="732574" />
	</node>
	<node id="-597620" lat="59.7886999986" lon="5.31063888986">
		<tag k="name" v="Skogadalen" />
		<tag k="place" v="farm" />
		<tag k="ssr:stedsnr" v="732562" />
	</node>
	<node id="-597106" lat="59.7074194462" lon="5.17518056388">
		<tag k="name" v="Nymark" />
		<tag k="place" v="farm" />
		<tag k="ssr:stedsnr" v="345709" />
	</node>
	<node id="-597617" lat="59.6401972187" lon="5.2339027707">
		<tag k="name" v="Tollevika" />
		<tag k="place" v="isolated_dwelling" />
		<tag k="ssr:stedsnr" v="731927" />
	</node>
	<node id="-597104" lat="59.6025999985" lon="5.2196027826">
		<tag k="name" v="Hovland" />
		<tag k="place" v="hamlet" />
		<tag k="ssr:stedsnr" v="345666" />
	</node>
	<node id="-597097" lat="59.6988249986" lon="5.38359444345">
		<tag k="name" v="Vestra Mosterhamn" />
		<tag k="place" v="village" />
		<tag k="ssr:stedsnr" v="344304" />
	</node>
	<node id="-597096" lat="59.7463527809" lon="5.32105277701">
		<tag k="historic" v="shieling" />
		<tag k="name" v="Trappestølen" />
		<tag k="place" v="locality" />
		<tag k="ssr:stedsnr" v="341509" />
	</node>
	<node id="-598114" lat="59.8822681572" lon="5.09412336626">
		<tag k="fixme" v="consider place=hamlet" />
		<tag k="name" v="Ylvesund" />
		<tag k="place" v="farm" />
		<tag k="ssr:stedsnr" v="990392" />
	</node>
	<node id="-596577" lat="59.6975444405" lon="5.37268888663">
		<tag k="name" v="Notland" />
		<tag k="place" v="hamlet" />
		<tag k="ssr:stedsnr" v="223330" />
	</node>
	<node id="-598112" lat="59.6787509288" lon="5.16057643305">
		<tag k="fixme" v="consider place=hamlet" />
		<tag k="name" v="Stokkvika" />
		<tag k="place" v="farm" />
		<tag k="ssr:stedsnr" v="990389" />
	</node>
	<node id="-598111" lat="59.6990685613" lon="5.18305797454">
		<tag k="name" v="Nese" />
		<tag k="place" v="hamlet" />
		<tag k="ssr:stedsnr" v="990388" />
	</node>
	<node id="-598110" lat="59.7072660412" lon="5.15253961105">
		<tag k="name" v="Lyklingholmen" />
		<tag k="place" v="hamlet" />
		<tag k="ssr:stedsnr" v="990387" />
	</node>
	<node id="-598109" lat="59.6924735184" lon="5.12607027252">
		<tag k="fixme" v="consider place=hamlet" />
		<tag k="name" v="Geitung" />
		<tag k="place" v="farm" />
		<tag k="ssr:stedsnr" v="990386" />
	</node>
	<node id="-596572" lat="59.6963361133" lon="5.34729999749">
		<tag k="fixme" v="consider place=suburb, village or hamlet" />
		<tag k="name" v="Øvra Grindeim" />
		<tag k="place" v="quarter" />
		<tag k="ssr:stedsnr" v="223274" />
	</node>
	<node id="-596571" lat="59.5977138869" lon="5.2235388832">
		<tag k="name" v="Løning" />
		<tag k="place" v="isolated_dwelling" />
		<tag k="ssr:stedsnr" v="222876" />
	</node>
	<node id="-598106" lat="59.799882035" lon="5.14557376338">
		<tag k="fixme" v="consider place=hamlet" />
		<tag k="name" v="Sæverud" />
		<tag k="place" v="farm" />
		<tag k="ssr:stedsnr" v="990383" />
	</node>
	<node id="-598105" lat="59.8039958653" lon="5.181451922">
		<tag k="fixme" v="consider place=hamlet" />
		<tag k="name" v="Laurhammar" />
		<tag k="place" v="farm" />
		<tag k="ssr:stedsnr" v="990381" />
	</node>
	<node id="-598104" lat="59.8050114208" lon="5.18025094898">
		<tag k="fixme" v="consider place=hamlet" />
		<tag k="name" v="Særstein" />
		<tag k="place" v="farm" />
		<tag k="ssr:stedsnr" v="990379" />
	</node>
	<node id="-598103" lat="59.8236492072" lon="5.25265844154">
		<tag k="fixme" v="consider place=hamlet" />
		<tag k="name" v="Langholmen" />
		<tag k="place" v="farm" />
		<tag k="ssr:stedsnr" v="990378" />
	</node>
	<node id="-598102" lat="59.8831788133" lon="5.17638159297">
		<tag k="fixme" v="consider place=hamlet" />
		<tag k="name" v="Røyrøya" />
		<tag k="place" v="farm" />
		<tag k="ssr:stedsnr" v="990373" />
	</node>
	<node id="-598101" lat="59.8302601464" lon="5.13680838472">
		<tag k="fixme" v="consider place=hamlet" />
		<tag k="name" v="Helgeplass" />
		<tag k="place" v="farm" />
		<tag k="ssr:stedsnr" v="990372" />
	</node>
	<node id="-597076" lat="59.7391305521" lon="5.23156388899">
		<tag k="name" v="Finnås" />
		<tag k="place" v="farm" />
		<tag k="ssr:stedsnr" v="329337" />
	</node>
	<node id="-598099" lat="59.5973008112" lon="5.23860596988">
		<tag k="fixme" v="consider place=hamlet" />
		<tag k="name" v="Luten" />
		<tag k="place" v="farm" />
		<tag k="ssr:stedsnr" v="990369" />
	</node>
	<node id="-597586" lat="59.7679777772" lon="5.19173888835">
		<tag k="name" v="Sletto" />
		<tag k="place" v="farm" />
		<tag k="ssr:stedsnr" v="632372" />
	</node>
	<node id="-598097" lat="59.8095489179" lon="5.28233248611">
		<tag k="fixme" v="consider place=hamlet" />
		<tag k="name" v="Tangane" />
		<tag k="place" v="farm" />
		<tag k="ssr:stedsnr" v="990366" />
	</node>
	<node id="-598096" lat="59.8189567355" lon="5.28567459106">
		<tag k="fixme" v="consider place=hamlet" />
		<tag k="name" v="Osparøya" />
		<tag k="place" v="farm" />
		<tag k="ssr:stedsnr" v="990365" />
	</node>
	<node id="-597583" lat="59.7443055555" lon="5.26916666257">
		<tag k="name" v="Roaldsplassen" />
		<tag k="place" v="isolated_dwelling" />
		<tag k="ssr:stedsnr" v="632359" />
	</node>
	<node id="-598094" lat="59.7987887444" lon="5.31045808029">
		<tag k="fixme" v="consider place=hamlet" />
		<tag k="name" v="Folderøyholmen" />
		<tag k="place" v="farm" />
		<tag k="ssr:stedsnr" v="990361" />
	</node>
	<node id="-597581" lat="59.7930222261" lon="5.17844443781">
		<tag k="name" v="Leirdal" />
		<tag k="place" v="farm" />
		<tag k="ssr:stedsnr" v="631974" />
	</node>
	<node id="-598092" lat="59.7242502231" lon="5.42882519321">
		<tag k="fixme" v="consider place=hamlet" />
		<tag k="name" v="Otterøya" />
		<tag k="place" v="farm" />
		<tag k="ssr:stedsnr" v="990343" />
	</node>
	<node id="-596578" lat="59.8230805518" lon="5.24005278223">
		<tag k="name" v="Stangarvåg" />
		<tag k="place" v="hamlet" />
		<tag k="ssr:stedsnr" v="223418" />
	</node>
	<node id="-598090" lat="59.6877463281" lon="5.25312763156">
		<tag k="fixme" v="consider place=hamlet" />
		<tag k="name" v="Straumøya" />
		<tag k="place" v="farm" />
		<tag k="ssr:stedsnr" v="990340" />
	</node>
	<node id="-598089" lat="59.7397198398" lon="5.20431427241">
		<tag k="fixme" v="consider place=hamlet" />
		<tag k="name" v="Vornes" />
		<tag k="place" v="farm" />
		<tag k="ssr:stedsnr" v="990338" />
	</node>
	<node id="-597062" lat="59.7024361079" lon="5.38507222608">
		<tag k="name" v="Austra Mosterhamn" />
		<tag k="place" v="village" />
		<tag k="ssr:stedsnr" v="466683" />
	</node>
	<node id="-598113" lat="59.8270237289" lon="5.27160168615">
		<tag k="fixme" v="consider place=hamlet" />
		<tag k="name" v="Veøy" />
		<tag k="place" v="farm" />
		<tag k="ssr:stedsnr" v="990390" />
	</node>
	<node id="-597568" lat="59.5888901969" lon="5.18898395863">
		<tag k="fixme" v="consider place=hamlet" />
		<tag k="name" v="Vestvik" />
		<tag k="place" v="farm" />
		<tag k="ssr:stedsnr" v="610779" />
	</node>
	<node id="-597055" lat="59.7226557206" lon="5.22162752492">
		<tag k="fixme" v="consider place=hamlet" />
		<tag k="name" v="Våge" />
		<tag k="place" v="farm" />
		<tag k="ssr:stedsnr" v="466522" />
	</node>
	<node id="-597072" lat="59.8639999996" lon="5.09594999371">
		<tag k="alt_name" v="Plassen" />
		<tag k="fixme" v="consider place=hamlet" />
		<tag k="name" v="Monsaplasset" />
		<tag k="place" v="farm" />
		<tag k="ssr:stedsnr" v="328828" />
	</node>
	<node id="-597051" lat="59.7458324529" lon="5.269669409">
		<tag k="name" v="Nedrebø" />
		<tag k="place" v="farm" />
		<tag k="ssr:stedsnr" v="465779" />
	</node>
	<node id="-597562" lat="59.8426277784" lon="5.1570111144">
		<tag k="name" v="Krossen" />
		<tag k="place" v="farm" />
		<tag k="ssr:stedsnr" v="610902" />
	</node>
	<node id="-598070" lat="59.7479694485" lon="5.24136388933">
		<tag k="name" v="Austre Sakseid" />
		<tag k="place" v="hamlet" />
		<tag k="ssr:stedsnr" v="969927" />
	</node>
	<node id="-598067" lat="59.7181472263" lon="5.17740555712">
		<tag k="fixme" v="consider place=hamlet" />
		<tag k="name" v="Øvra Tverborgvika" />
		<tag k="place" v="village" />
		<tag k="ssr:stedsnr" v="967705" />
	</node>
	<node id="-598108" lat="59.7290360662" lon="5.13978827402">
		<tag k="fixme" v="consider place=hamlet" />
		<tag k="name" v="Hiskholmen" />
		<tag k="place" v="farm" />
		<tag k="ssr:stedsnr" v="990385" />
	</node>
	<node id="-597540" lat="59.7018138847" lon="5.36066388546">
		<tag k="name" v="Nedra Skimmeland" />
		<tag k="place" v="hamlet" />
		<tag k="ssr:stedsnr" v="587659" />
	</node>
	<node id="-598107" lat="59.7551438886" lon="5.22296425626">
		<tag k="fixme" v="consider place=hamlet" />
		<tag k="name" v="Lindøya" />
		<tag k="place" v="farm" />
		<tag k="ssr:stedsnr" v="990384" />
	</node>
	<node id="-597536" lat="59.6986565078" lon="5.36236478647">
		<tag k="name" v="Killing" />
		<tag k="place" v="farm" />
		<tag k="ssr:stedsnr" v="587299" />
	</node>
	<node id="-597530" lat="59.5999852157" lon="5.20615798909">
		<tag k="fixme" v="consider place=hamlet" />
		<tag k="name" v="Vespestad" />
		<tag k="place" v="farm" />
		<tag k="ssr:stedsnr" v="586883" />
	</node>
	<node id="-598041" lat="59.7968472211" lon="5.25059167033">
		<tag k="name" v="Brotanes" />
		<tag k="place" v="farm" />
		<tag k="ssr:stedsnr" v="936815" />
	</node>
	<node id="-597012" lat="59.8704027807" lon="5.10606944192">
		<tag k="alt_name" v="Austvika" />
		<tag k="name" v="Austvik" />
		<tag k="place" v="farm" />
		<tag k="ssr:stedsnr" v="268824" />
	</node>
	<node id="-597008" lat="59.7968666633" lon="5.13249721886">
		<tag k="fixme" v="consider place=hamlet" />
		<tag k="name" v="Øklandsvåg" />
		<tag k="place" v="village" />
		<tag k="ssr:stedsnr" v="267974" />
	</node>
	<node id="-598031" lat="59.6319720566" lon="5.18277180535">
		<tag k="name" v="Vestre Vika" />
		<tag k="place" v="farm" />
		<tag k="ssr:stedsnr" v="931813" />
	</node>
	<node id="-597073" lat="59.8691416652" lon="5.15699166579">
		<tag k="name" v="Kolameiso" />
		<tag k="place" v="farm" />
		<tag k="ssr:stedsnr" v="328836" />
	</node>
	<node id="-598025" lat="59.8155989438" lon="5.26809392677">
		<tag k="name" v="Rubbestadneset" />
		<tag k="place" v="village" />
		<tag k="ssr:stedsnr" v="914957" />
	</node>
	<node id="-596999" lat="59.8576694462" lon="5.20651666331">
		<tag k="name" v="Kverno" />
		<tag k="place" v="locality" />
		<tag k="ssr:stedsnr" v="450742" />
	</node>
</osm>
