<?xml version="1.0" encoding="UTF-8"?>
<osm version="0.6" generator="osmapis">
	<node lat="59.795361755710466" lon="5.1743065867273135" id="-31522">
		<tag k="alt_name" v="Bremnes" />
		<tag k="amenity" v="place_of_worship" />
		<tag k="denomination" v="lutheran" />
		<tag k="name" v="Bremnes kyrkje" />
		<tag k="religion" v="christian" />
		<tag k="ssr:stedsnr" v="632131" />
	</node>
	<node lat="59.60888472061111" lon="5.214591681756532" id="-32098">
		<tag k="amenity" v="place_of_worship" />
		<tag k="denomination" v="lutheran" />
		<tag k="name" v="BÃ¸mlo gamle kyrkje" />
		<tag k="religion" v="christian" />
		<tag k="ssr:stedsnr" v="990730" />
	</node>
	<node lat="59.7020138878317" lon="5.1895472226819495" id="-32192">
		<tag k="name" v="Trea" />
		<tag k="ssr:stedsnr" v="42290" />
		<tag k="tourism" v="attraction" />
	</node>
	<node lat="59.706435666162996" lon="5.198606184592012" id="-32332">
		<tag k="alt_name" v="Lykling" />
		<tag k="amenity" v="place_of_worship" />
		<tag k="denomination" v="lutheran" />
		<tag k="name" v="Lykling kyrkje" />
		<tag k="religion" v="christian" />
		<tag k="ssr:stedsnr" v="124443" />
	</node>
</osm>
