<?xml version="1.0" encoding="UTF-8"?>
<osm generator="osmapis" version="0.6">
	<node id="-593919" lat="59.7202555514" lon="5.2428750024">
		<tag k="name" v="Knutsdalen" />
		<tag k="natural" v="valley" />
		<tag k="place" v="locality" />
		<tag k="ssr:stedsnr" v="284772" />
	</node>
	<node id="-593918" lat="59.7191916646" lon="5.22311389409">
		<tag k="name" v="Vedabakken" />
		<tag k="natural" v="slope" />
		<tag k="place" v="locality" />
		<tag k="ssr:stedsnr" v="284760" />
	</node>
	<node id="-594497" lat="59.7236277799" lon="5.21009999538">
		<tag k="name" v="Vardane" />
		<tag k="natural" v="hill" />
		<tag k="place" v="locality" />
		<tag k="ssr:stedsnr" v="709518" />
	</node>
	<node id="-594428" lat="59.8230388906" lon="5.21028333454">
		<tag k="name" v="Vestre Sponhaug" />
		<tag k="natural" v="hill" />
		<tag k="place" v="locality" />
		<tag k="ssr:stedsnr" v="705167" />
	</node>
	<node id="-593915" lat="59.7049111135" lon="5.35600555484">
		<tag k="name" v="Hantikkehaugen" />
		<tag k="natural" v="hill" />
		<tag k="place" v="locality" />
		<tag k="ssr:stedsnr" v="284725" />
	</node>
	<node id="-593914" lat="59.7028416642" lon="5.38189722276">
		<tag k="name" v="Vetahaugen" />
		<tag k="natural" v="hill" />
		<tag k="place" v="locality" />
		<tag k="ssr:stedsnr" v="284681" />
	</node>
	<node id="-593913" lat="59.7085611152" lon="5.35020000492">
		<tag k="fixme" v="consider natural=peak for the most distinct mountains in the district" />
		<tag k="name" v="Kubbåsen" />
		<tag k="natural" v="hill" />
		<tag k="place" v="locality" />
		<tag k="ssr:stedsnr" v="284659" />
	</node>
	<node id="-593909" lat="59.6919111139" lon="5.23092222542">
		<tag k="name" v="Nonstua" />
		<tag k="natural" v="hill" />
		<tag k="place" v="locality" />
		<tag k="ssr:stedsnr" v="284391" />
	</node>
	<node id="-594420" lat="59.7070166637" lon="5.16351944734">
		<tag k="name" v="Kloberget" />
		<tag k="natural" v="hill" />
		<tag k="place" v="locality" />
		<tag k="ssr:stedsnr" v="694229" />
	</node>
	<node id="-594929" lat="59.6830499991" lon="5.17021110596">
		<tag k="alt_name" v="Skiftesvika" />
		<tag k="name" v="Skiftesvik" />
		<tag k="natural" v="valley" />
		<tag k="place" v="locality" />
		<tag k="ssr:stedsnr" v="937288" />
	</node>
	<node id="-594927" lat="59.7053166702" lon="5.38627222909">
		<tag k="name" v="Heia" />
		<tag k="natural" v="hill" />
		<tag k="place" v="locality" />
		<tag k="ssr:stedsnr" v="831554" />
	</node>
	<node id="-594413" lat="59.67646944" lon="5.25830555027">
		<tag k="name" v="Fløyhaugen" />
		<tag k="natural" v="hill" />
		<tag k="place" v="locality" />
		<tag k="ssr:stedsnr" v="544114" />
	</node>
	<node id="-594412" lat="59.6753250032" lon="5.32136666616">
		<tag k="name" v="Ramsfura" />
		<tag k="natural" v="slope" />
		<tag k="place" v="locality" />
		<tag k="ssr:stedsnr" v="544024" />
	</node>
	<node id="-594409" lat="59.8847333315" lon="5.07850832642">
		<tag k="loc_name" v="Jarnnaglehaugen" />
		<tag k="name" v="Janagelhaugen" />
		<tag k="natural" v="hill" />
		<tag k="place" v="locality" />
		<tag k="ssr:stedsnr" v="693394" />
	</node>
	<node id="-593894" lat="59.8467666646" lon="5.21216944285">
		<tag k="name" v="Midtfjellet" />
		<tag k="natural" v="hill" />
		<tag k="place" v="locality" />
		<tag k="ssr:stedsnr" v="283276" />
	</node>
	<node id="-593893" lat="59.6231138872" lon="5.21780833516">
		<tag k="name" v="Skjenstød" />
		<tag k="natural" v="hill" />
		<tag k="place" v="locality" />
		<tag k="ssr:stedsnr" v="282961" />
	</node>
	<node id="-593892" lat="59.7425194465" lon="5.27091388402">
		<tag k="name" v="Klokkarteigen" />
		<tag k="natural" v="hill" />
		<tag k="place" v="locality" />
		<tag k="ssr:stedsnr" v="282912" />
	</node>
	<node id="-593574" lat="59.7207888894" lon="5.22987500781">
		<tag k="fixme" v="consider natural=peak for the most distinct mountains in the district" />
		<tag k="name" v="Heggebærshaugen" />
		<tag k="natural" v="hill" />
		<tag k="place" v="locality" />
		<tag k="ssr:stedsnr" v="223756" />
	</node>
	<node id="-593890" lat="59.6623750035" lon="5.23695833916">
		<tag k="name" v="Hjortaskaret" />
		<tag k="natural" v="valley" />
		<tag k="place" v="locality" />
		<tag k="ssr:stedsnr" v="282805" />
	</node>
	<node id="-594401" lat="59.6168633779" lon="5.21217136372">
		<tag k="name" v="Havåsen" />
		<tag k="natural" v="hill" />
		<tag k="place" v="locality" />
		<tag k="ssr:stedsnr" v="527996" />
	</node>
	<node id="-594400" lat="59.6323249976" lon="5.18918611979">
		<tag k="name" v="Åshaugen" />
		<tag k="natural" v="hill" />
		<tag k="place" v="locality" />
		<tag k="ssr:stedsnr" v="527988" />
	</node>
	<node id="-594399" lat="59.6175027735" lon="5.22488055341">
		<tag k="name" v="Øyjordsslettene" />
		<tag k="place" v="locality" />
		<tag k="ssr:stedsnr" v="527970" />
	</node>
	<node id="-593884" lat="59.6547055545" lon="5.17115556313">
		<tag k="name" v="Skuffefjellet" />
		<tag k="natural" v="hill" />
		<tag k="place" v="locality" />
		<tag k="ssr:stedsnr" v="281836" />
	</node>
	<node id="-594511" lat="59.6306916659" lon="5.16709443917">
		<tag k="name" v="Dronen" />
		<tag k="place" v="locality" />
		<tag k="ssr:stedsnr" v="709985" />
	</node>
	<node id="-593880" lat="59.7751777751" lon="5.19930833062">
		<tag k="name" v="Dalaskiftet" />
		<tag k="natural" v="valley" />
		<tag k="place" v="locality" />
		<tag k="ssr:stedsnr" v="281819" />
	</node>
	<node id="-593877" lat="59.7628722242" lon="5.17446667528">
		<tag k="name" v="Fylkesnestrædet" />
		<tag k="natural" v="hill" />
		<tag k="place" v="locality" />
		<tag k="ssr:stedsnr" v="281811" />
	</node>
	<node id="-595037" lat="59.6420833313" lon="5.18156111516">
		<tag k="name" v="Heiane" />
		<tag k="natural" v="hill" />
		<tag k="place" v="locality" />
		<tag k="ssr:stedsnr" v="947807" />
	</node>
	<node id="-594477" lat="59.8338222188" lon="5.20867778199">
		<tag k="name" v="Store Løkedalen" />
		<tag k="natural" v="valley" />
		<tag k="place" v="locality" />
		<tag k="ssr:stedsnr" v="707345" />
	</node>
	<node id="-594897" lat="59.8252250022" lon="5.22613332533">
		<tag k="alt_name" v="Vardafjell" />
		<tag k="fixme" v="consider natural=peak for the most distinct mountains in the district" />
		<tag k="name" v="Vardafjellet" />
		<tag k="natural" v="hill" />
		<tag k="place" v="locality" />
		<tag k="ssr:stedsnr" v="793604" />
	</node>
	<node id="-593979" lat="59.7333527812" lon="5.1354833294">
		<tag k="name" v="Storahiskjo" />
		<tag k="natural" v="hill" />
		<tag k="place" v="locality" />
		<tag k="ssr:stedsnr" v="450711" />
	</node>
	<node id="-594891" lat="59.68934722" lon="5.22311945173">
		<tag k="name" v="Askedalen" />
		<tag k="natural" v="valley" />
		<tag k="place" v="locality" />
		<tag k="ssr:stedsnr" v="792962" />
	</node>
	<node id="-593863" lat="59.7917555526" lon="5.24846665949">
		<tag k="name" v="Hesthaugen" />
		<tag k="natural" v="hill" />
		<tag k="place" v="locality" />
		<tag k="ssr:stedsnr" v="280988" />
	</node>
	<node id="-593862" lat="59.7969749985" lon="5.22767778047">
		<tag k="name" v="Raudkleiva" />
		<tag k="natural" v="hill" />
		<tag k="place" v="locality" />
		<tag k="ssr:stedsnr" v="280985" />
	</node>
	<node id="-594885" lat="59.7814666696" lon="5.22193334134">
		<tag k="fixme" v="consider natural=peak for the most distinct mountains in the district" />
		<tag k="name" v="Vardafjell" />
		<tag k="natural" v="hill" />
		<tag k="place" v="locality" />
		<tag k="ssr:stedsnr" v="792513" />
	</node>
	<node id="-593590" lat="59.6337388888" lon="5.15939722421">
		<tag k="name" v="Eide" />
		<tag k="place" v="locality" />
		<tag k="ssr:stedsnr" v="224986" />
	</node>
	<node id="-593858" lat="59.7624250022" lon="5.19878889331">
		<tag k="name" v="Vestre Straumshagen" />
		<tag k="place" v="locality" />
		<tag k="ssr:stedsnr" v="280965" />
	</node>
	<node id="-593857" lat="59.760672218" lon="5.21388888838">
		<tag k="name" v="Bukkastova" />
		<tag k="place" v="locality" />
		<tag k="ssr:stedsnr" v="280963" />
	</node>
	<node id="-594367" lat="59.5764972203" lon="5.19556388084">
		<tag k="name" v="Brakadalen" />
		<tag k="natural" v="valley" />
		<tag k="place" v="locality" />
		<tag k="ssr:stedsnr" v="482571" />
	</node>
	<node id="-593652" lat="59.8584722221" lon="5.1678027724">
		<tag k="name" v="Måsahaugen" />
		<tag k="natural" v="hill" />
		<tag k="place" v="locality" />
		<tag k="ssr:stedsnr" v="240030" />
	</node>
	<node id="-594354" lat="59.774058336" lon="5.30361111954">
		<tag k="fixme" v="consider natural=peak for the most distinct mountains in the district" />
		<tag k="name" v="Brakåsen" />
		<tag k="natural" v="hill" />
		<tag k="place" v="locality" />
		<tag k="ssr:stedsnr" v="671608" />
	</node>
	<node id="-594353" lat="59.7773777799" lon="5.25168610761">
		<tag k="name" v="Kolhaugen" />
		<tag k="natural" v="hill" />
		<tag k="place" v="locality" />
		<tag k="ssr:stedsnr" v="671605" />
	</node>
	<node id="-593832" lat="59.8093416634" lon="5.20118333504">
		<tag k="name" v="Nulten" />
		<tag k="place" v="locality" />
		<tag k="ssr:stedsnr" v="280125" />
	</node>
	<node id="-593830" lat="59.7028027782" lon="5.36032499749">
		<tag k="name" v="Skimmelandsdalen" />
		<tag k="natural" v="valley" />
		<tag k="place" v="locality" />
		<tag k="ssr:stedsnr" v="162723" />
	</node>
	<node id="-594341" lat="59.6162083307" lon="5.21177222764">
		<tag k="fixme" v="consider natural=peak for the most distinct mountains in the district" />
		<tag k="name" v="Havåsen" />
		<tag k="natural" v="hill" />
		<tag k="place" v="locality" />
		<tag k="ssr:stedsnr" v="671073" />
	</node>
	<node id="-593966" lat="59.6798055592" lon="5.34245277773">
		<tag k="name" v="Torsiden" />
		<tag k="natural" v="slope" />
		<tag k="place" v="locality" />
		<tag k="ssr:stedsnr" v="449697" />
	</node>
	<node id="-594851" lat="59.5996055525" lon="5.19883611788">
		<tag k="name" v="Eidesdalen" />
		<tag k="natural" v="valley" />
		<tag k="place" v="locality" />
		<tag k="ssr:stedsnr" v="769882" />
	</node>
	<node id="-594849" lat="59.7060222255" lon="5.24471944987">
		<tag k="name" v="Såtebakkane" />
		<tag k="natural" v="slope" />
		<tag k="place" v="locality" />
		<tag k="ssr:stedsnr" v="769724" />
	</node>
	<node id="-594069" lat="59.8111388892" lon="5.25906666192">
		<tag k="name" v="Vestre Raunhildehaugen" />
		<tag k="natural" v="hill" />
		<tag k="place" v="locality" />
		<tag k="ssr:stedsnr" v="481434" />
	</node>
	<node id="-593821" lat="59.7615027754" lon="5.26420000717">
		<tag k="name" v="Nonshaug" />
		<tag k="natural" v="hill" />
		<tag k="place" v="locality" />
		<tag k="ssr:stedsnr" v="161669" />
	</node>
	<node id="-594844" lat="59.7238333314" lon="5.22600833185">
		<tag k="name" v="Sandgota" />
		<tag k="natural" v="slope" />
		<tag k="place" v="locality" />
		<tag k="ssr:stedsnr" v="769521" />
	</node>
	<node id="-593817" lat="59.7904416654" lon="5.18835000429">
		<tag k="name" v="Olshaug" />
		<tag k="natural" v="hill" />
		<tag k="place" v="locality" />
		<tag k="ssr:stedsnr" v="159952" />
	</node>
	<node id="-594840" lat="59.7636138848" lon="5.3098861083">
		<tag k="name" v="Hestadalen" />
		<tag k="natural" v="valley" />
		<tag k="place" v="locality" />
		<tag k="ssr:stedsnr" v="768723" />
	</node>
	<node id="-593815" lat="59.8099333347" lon="5.15959722011">
		<tag k="name" v="Underbortshallene" />
		<tag k="place" v="locality" />
		<tag k="ssr:stedsnr" v="159868" />
	</node>
	<node id="-594319" lat="59.6958045847" lon="5.19998274611">
		<tag k="fixme" v="consider natural=peak for the most distinct mountains in the district" />
		<tag k="name" v="Sætrafjellet" />
		<tag k="natural" v="hill" />
		<tag k="place" v="locality" />
		<tag k="ssr:stedsnr" v="670517" />
	</node>
	<node id="-593900" lat="59.7628777793" lon="5.31445556236">
		<tag k="name" v="Brandahaugane" />
		<tag k="natural" v="hill" />
		<tag k="place" v="locality" />
		<tag k="ssr:stedsnr" v="283489" />
	</node>
	<node id="-594310" lat="59.7543361101" lon="5.26696110783">
		<tag k="name" v="Heia" />
		<tag k="natural" v="hill" />
		<tag k="place" v="locality" />
		<tag k="ssr:stedsnr" v="467712" />
	</node>
	<node id="-594309" lat="59.5886999967" lon="5.1474861137">
		<tag k="name" v="Sætehaugen" />
		<tag k="natural" v="hill" />
		<tag k="place" v="locality" />
		<tag k="ssr:stedsnr" v="467323" />
	</node>
	<node id="-594307" lat="59.7594944405" lon="5.2913472181">
		<tag k="name" v="Askåsheia" />
		<tag k="natural" v="hill" />
		<tag k="place" v="locality" />
		<tag k="ssr:stedsnr" v="466868" />
	</node>
	<node id="-594304" lat="59.7195027793" lon="5.34094444236">
		<tag k="name" v="Grøvene" />
		<tag k="natural" v="valley" />
		<tag k="place" v="locality" />
		<tag k="ssr:stedsnr" v="466679" />
	</node>
	<node id="-594302" lat="59.7017888864" lon="5.24343333175">
		<tag k="name" v="Nautsundbakkane" />
		<tag k="natural" v="slope" />
		<tag k="place" v="locality" />
		<tag k="ssr:stedsnr" v="466724" />
	</node>
	<node id="-594301" lat="59.697583332" lon="5.21345834083">
		<tag k="name" v="Vardafjella" />
		<tag k="natural" v="hill" />
		<tag k="place" v="locality" />
		<tag k="ssr:stedsnr" v="466413" />
	</node>
	<node id="-594082" lat="59.7398944416" lon="5.20692221482">
		<tag k="name" v="Storhaug" />
		<tag k="natural" v="hill" />
		<tag k="place" v="locality" />
		<tag k="ssr:stedsnr" v="484984" />
	</node>
	<node id="-594299" lat="59.5879277811" lon="5.14294722472">
		<tag k="name" v="Nesjaberget" />
		<tag k="natural" v="cliff" />
		<tag k="ssr:stedsnr" v="466308" />
	</node>
	<node id="-594294" lat="59.7491027821" lon="5.32837221674">
		<tag k="name" v="Smidjedalen" />
		<tag k="natural" v="valley" />
		<tag k="place" v="locality" />
		<tag k="ssr:stedsnr" v="465467" />
	</node>
	<node id="-593897" lat="59.8442722252" lon="5.23356944128">
		<tag k="name" v="Illedalen" />
		<tag k="natural" v="valley" />
		<tag k="place" v="locality" />
		<tag k="ssr:stedsnr" v="283282" />
	</node>
	<node id="-594292" lat="59.6633611106" lon="5.2097361188">
		<tag k="name" v="Lauvviklia" />
		<tag k="natural" v="slope" />
		<tag k="place" v="locality" />
		<tag k="ssr:stedsnr" v="464863" />
	</node>
	<node id="-594293" lat="59.6712305554" lon="5.16016945314">
		<tag k="name" v="Stokkhaugen" />
		<tag k="natural" v="hill" />
		<tag k="place" v="locality" />
		<tag k="ssr:stedsnr" v="464866" />
	</node>
	<node id="-594286" lat="59.8076861103" lon="5.22010555856">
		<tag k="name" v="Kullstød" />
		<tag k="place" v="locality" />
		<tag k="ssr:stedsnr" v="462975" />
	</node>
	<node id="-594284" lat="59.7887305588" lon="5.15484999292">
		<tag k="name" v="Stavlandskleivane" />
		<tag k="natural" v="hill" />
		<tag k="place" v="locality" />
		<tag k="ssr:stedsnr" v="462947" />
	</node>
	<node id="-593771" lat="59.6214916704" lon="5.19038055693">
		<tag k="name" v="Stampehaugen" />
		<tag k="natural" v="hill" />
		<tag k="place" v="locality" />
		<tag k="ssr:stedsnr" v="103998" />
	</node>
	<node id="-594235" lat="59.6383444423" lon="5.16497777704">
		<tag k="alt_name" v="Karlabergshaugen" />
		<tag k="name" v="Kalaberget" />
		<tag k="natural" v="hill" />
		<tag k="place" v="locality" />
		<tag k="ssr:stedsnr" v="511583" />
	</node>
	<node id="-593536" lat="59.8705777771" lon="5.15577223115">
		<tag k="name" v="Vardane" />
		<tag k="place" v="locality" />
		<tag k="ssr:stedsnr" v="220880" />
	</node>
	<node id="-594792" lat="59.7019361079" lon="5.2098166631">
		<tag k="fixme" v="consider natural=peak for the most distinct mountains in the district" />
		<tag k="name" v="Gråkufjellet" />
		<tag k="natural" v="hill" />
		<tag k="place" v="locality" />
		<tag k="ssr:stedsnr" v="913500" />
	</node>
	<node id="-593767" lat="59.8201111082" lon="5.25034722394">
		<tag k="name" v="Ramsdalen" />
		<tag k="natural" v="valley" />
		<tag k="place" v="locality" />
		<tag k="ssr:stedsnr" v="102460" />
	</node>
	<node id="-594278" lat="59.7356555603" lon="5.23297222944">
		<tag k="name" v="Ramnaberget" />
		<tag k="place" v="locality" />
		<tag k="ssr:stedsnr" v="667000" />
	</node>
	<node id="-594277" lat="59.7351722242" lon="5.21520277515">
		<tag k="name" v="Steinsvågsaksla" />
		<tag k="natural" v="hill" />
		<tag k="place" v="locality" />
		<tag k="ssr:stedsnr" v="666999" />
	</node>
	<node id="-594275" lat="59.7421777749" lon="5.23905833593">
		<tag k="name" v="Straumshaugane" />
		<tag k="natural" v="hill" />
		<tag k="place" v="locality" />
		<tag k="ssr:stedsnr" v="666967" />
	</node>
	<node id="-593762" lat="59.6414472215" lon="5.22725000757">
		<tag k="fixme" v="consider natural=peak for the most distinct mountains in the district" />
		<tag k="name" v="Søråsen" />
		<tag k="natural" v="hill" />
		<tag k="place" v="locality" />
		<tag k="ssr:stedsnr" v="99810" />
	</node>
	<node id="-594785" lat="59.757330556" lon="5.20339167114">
		<tag k="name" v="Kattanakken" />
		<tag k="natural" v="hill" />
		<tag k="place" v="locality" />
		<tag k="ssr:stedsnr" v="909989" />
	</node>
	<node id="-594783" lat="59.6773555592" lon="5.20010000219">
		<tag k="name" v="Hovda" />
		<tag k="natural" v="hill" />
		<tag k="place" v="locality" />
		<tag k="ssr:stedsnr" v="909103" />
	</node>
	<node id="-593756" lat="59.7805027802" lon="5.13145832522">
		<tag k="name" v="Kvernahaugen" />
		<tag k="natural" v="hill" />
		<tag k="place" v="locality" />
		<tag k="ssr:stedsnr" v="98159" />
	</node>
	<node id="-594267" lat="59.7398722198" lon="5.3210694403">
		<tag k="name" v="Hammaren" />
		<tag k="natural" v="hill" />
		<tag k="place" v="locality" />
		<tag k="ssr:stedsnr" v="661364" />
	</node>
	<node id="-594776" lat="59.7510972257" lon="5.28524165921">
		<tag k="fixme" v="consider natural=peak for the most distinct mountains in the district" />
		<tag k="name" v="Vardafjellet" />
		<tag k="natural" v="hill" />
		<tag k="place" v="locality" />
		<tag k="ssr:stedsnr" v="908887" />
	</node>
	<node id="-594773" lat="59.6106833306" lon="5.19518888578">
		<tag k="name" v="Spongeleberget" />
		<tag k="natural" v="hill" />
		<tag k="place" v="locality" />
		<tag k="ssr:stedsnr" v="907669" />
	</node>
	<node id="-594772" lat="59.8847805569" lon="5.17732777955">
		<tag k="name" v="Røyrøysåta" />
		<tag k="natural" v="hill" />
		<tag k="place" v="locality" />
		<tag k="ssr:stedsnr" v="907624" />
	</node>
	<node id="-593720" lat="59.6541166635" lon="5.22436666726">
		<tag k="name" v="Gardhaugane" />
		<tag k="natural" v="hill" />
		<tag k="place" v="locality" />
		<tag k="ssr:stedsnr" v="246887" />
	</node>
	<node id="-594254" lat="59.7963888846" lon="5.22347221401">
		<tag k="name" v="Såtehaugane" />
		<tag k="natural" v="hill" />
		<tag k="place" v="locality" />
		<tag k="ssr:stedsnr" v="429504" />
	</node>
	<node id="-593740" lat="59.7940805598" lon="5.2060194396">
		<tag k="name" v="Arnahamrane" />
		<tag k="natural" v="hill" />
		<tag k="place" v="locality" />
		<tag k="ssr:stedsnr" v="247518" />
	</node>
	<node id="-594251" lat="59.8584611156" lon="5.16822500745">
		<tag k="name" v="Mosahaugen" />
		<tag k="natural" v="hill" />
		<tag k="place" v="locality" />
		<tag k="ssr:stedsnr" v="428909" />
	</node>
	<node id="-594250" lat="59.6232722264" lon="5.22641667466">
		<tag k="fixme" v="consider natural=peak for the most distinct mountains in the district" />
		<tag k="name" v="Følafjellet" />
		<tag k="natural" v="hill" />
		<tag k="place" v="locality" />
		<tag k="ssr:stedsnr" v="428831" />
	</node>
	<node id="-593736" lat="59.882133333" lon="5.06577777575">
		<tag k="name" v="Hamnahaugen" />
		<tag k="natural" v="hill" />
		<tag k="place" v="locality" />
		<tag k="ssr:stedsnr" v="247195" />
	</node>
	<node id="-594247" lat="59.5940111146" lon="5.22230277539">
		<tag k="fixme" v="consider natural=peak for the most distinct mountains in the district" />
		<tag k="name" v="Kristifjellet" />
		<tag k="natural" v="hill" />
		<tag k="place" v="locality" />
		<tag k="ssr:stedsnr" v="428758" />
	</node>
	<node id="-593633" lat="59.8175861064" lon="5.26237776997">
		<tag k="name" v="Nordkulthaugen" />
		<tag k="natural" v="hill" />
		<tag k="place" v="locality" />
		<tag k="ssr:stedsnr" v="41403" />
	</node>
	<node id="-594244" lat="59.7041777749" lon="5.17313055306">
		<tag k="name" v="Varden" />
		<tag k="natural" v="hill" />
		<tag k="place" v="locality" />
		<tag k="ssr:stedsnr" v="527297" />
	</node>
	<node id="-594242" lat="59.7485166695" lon="5.28075554975">
		<tag k="name" v="Kyrdalen" />
		<tag k="natural" v="valley" />
		<tag k="place" v="locality" />
		<tag k="ssr:stedsnr" v="423809" />
	</node>
	<node id="-594751" lat="59.6059222197" lon="5.18479999964">
		<tag k="name" v="Jurhilleren" />
		<tag k="place" v="locality" />
		<tag k="ssr:stedsnr" v="725645" />
	</node>
	<node id="-594448" lat="59.6434194464" lon="5.19133610395">
		<tag k="name" v="Tjongestonga" />
		<tag k="natural" v="hill" />
		<tag k="place" v="locality" />
		<tag k="ssr:stedsnr" v="705852" />
	</node>
	<node id="-594747" lat="59.7279777807" lon="5.31394166633">
		<tag k="name" v="Søra Tunge" />
		<tag k="natural" v="hill" />
		<tag k="place" v="locality" />
		<tag k="ssr:stedsnr" v="722379" />
	</node>
	<node id="-594489" lat="59.7508527736" lon="5.31861388569">
		<tag k="name" v="Svidhaugen" />
		<tag k="natural" v="hill" />
		<tag k="place" v="locality" />
		<tag k="ssr:stedsnr" v="708490" />
	</node>
	<node id="-594745" lat="59.7002138879" lon="5.35511110591">
		<tag k="fixme" v="consider natural=peak for the most distinct mountains in the district" />
		<tag k="name" v="Åsen" />
		<tag k="natural" v="hill" />
		<tag k="place" v="locality" />
		<tag k="ssr:stedsnr" v="709298" />
	</node>
	<node id="-594744" lat="59.5748027755" lon="5.1876388819">
		<tag k="name" v="Oksabåskloven" />
		<tag k="place" v="locality" />
		<tag k="ssr:stedsnr" v="709328" />
	</node>
	<node id="-594743" lat="59.5761249985" lon="5.18615832939">
		<tag k="name" v="Vestre Skjenstød" />
		<tag k="natural" v="hill" />
		<tag k="place" v="locality" />
		<tag k="ssr:stedsnr" v="709326" />
	</node>
	<node id="-594742" lat="59.7037361146" lon="5.18236111536">
		<tag k="name" v="Naustdalen" />
		<tag k="natural" v="valley" />
		<tag k="place" v="locality" />
		<tag k="ssr:stedsnr" v="709315" />
	</node>
	<node id="-594741" lat="59.6201888894" lon="5.17280000045">
		<tag k="name" v="Oppetarshola" />
		<tag k="natural" v="valley" />
		<tag k="place" v="locality" />
		<tag k="ssr:stedsnr" v="892999" />
	</node>
	<node id="-594740" lat="59.621466666" lon="5.17343610577">
		<tag k="name" v="Håbergshaugen" />
		<tag k="natural" v="hill" />
		<tag k="place" v="locality" />
		<tag k="ssr:stedsnr" v="892995" />
	</node>
	<node id="-594739" lat="59.6068583376" lon="5.20340834154">
		<tag k="name" v="Gunhildefjellet" />
		<tag k="natural" v="hill" />
		<tag k="place" v="locality" />
		<tag k="ssr:stedsnr" v="892724" />
	</node>
	<node id="-594738" lat="59.6042138914" lon="5.23254444705">
		<tag k="name" v="Langhamrane" />
		<tag k="natural" v="hill" />
		<tag k="place" v="locality" />
		<tag k="ssr:stedsnr" v="892705" />
	</node>
	<node id="-594737" lat="59.6983083293" lon="5.19381110993">
		<tag k="name" v="Vindsmoget" />
		<tag k="natural" v="valley" />
		<tag k="place" v="locality" />
		<tag k="ssr:stedsnr" v="892485" />
	</node>
	<node id="-593712" lat="59.899083337" lon="5.1090250022">
		<tag k="name" v="Rindane" />
		<tag k="natural" v="hill" />
		<tag k="place" v="locality" />
		<tag k="ssr:stedsnr" v="246838" />
	</node>
	<node id="-594731" lat="59.7018916634" lon="5.20637222066">
		<tag k="name" v="Dyretjørnsfjellet" />
		<tag k="natural" v="hill" />
		<tag k="place" v="locality" />
		<tag k="ssr:stedsnr" v="891713" />
	</node>
	<node id="-594730" lat="59.7043055568" lon="5.35361666209">
		<tag k="name" v="Dåshaugen" />
		<tag k="natural" v="hill" />
		<tag k="place" v="locality" />
		<tag k="ssr:stedsnr" v="891711" />
	</node>
	<node id="-593701" lat="59.7696444464" lon="5.18671388813">
		<tag k="name" v="Buhamrane" />
		<tag k="natural" v="hill" />
		<tag k="place" v="locality" />
		<tag k="ssr:stedsnr" v="246588" />
	</node>
	<node id="-593627" lat="59.7571027735" lon="5.30951666879">
		<tag k="name" v="Espelikamben" />
		<tag k="natural" v="ridge" />
		<tag k="place" v="locality" />
		<tag k="ssr:stedsnr" v="40804" />
	</node>
	<node id="-593695" lat="59.7017277747" lon="5.22005000445">
		<tag k="name" v="Døsvikdalen" />
		<tag k="natural" v="valley" />
		<tag k="place" v="locality" />
		<tag k="ssr:stedsnr" v="246502" />
	</node>
	<node id="-594203" lat="59.6961861073" lon="5.35188610408">
		<tag k="name" v="Grindeimsteinshaugen" />
		<tag k="natural" v="hill" />
		<tag k="place" v="locality" />
		<tag k="ssr:stedsnr" v="405274" />
	</node>
	<node id="-594102" lat="59.7374888901" lon="5.27678055028">
		<tag k="name" v="Engjadalen" />
		<tag k="natural" v="valley" />
		<tag k="place" v="locality" />
		<tag k="ssr:stedsnr" v="488577" />
	</node>
	<node id="-594201" lat="59.660122223" lon="5.18061110464">
		<tag k="name" v="Husasåta" />
		<tag k="natural" v="hill" />
		<tag k="place" v="locality" />
		<tag k="ssr:stedsnr" v="404867" />
	</node>
	<node id="-594200" lat="59.6631416682" lon="5.19284445125">
		<tag k="name" v="Holmesyningsfjellet" />
		<tag k="natural" v="hill" />
		<tag k="place" v="locality" />
		<tag k="ssr:stedsnr" v="404866" />
	</node>
	<node id="-594710" lat="59.6239166694" lon="5.21321111726">
		<tag k="name" v="Runde Haugen" />
		<tag k="natural" v="hill" />
		<tag k="place" v="locality" />
		<tag k="ssr:stedsnr" v="889943" />
	</node>
	<node id="-594709" lat="59.6276805535" lon="5.22492499316">
		<tag k="name" v="Røytekjølshaugen" />
		<tag k="natural" v="hill" />
		<tag k="place" v="locality" />
		<tag k="ssr:stedsnr" v="889936" />
	</node>
	<node id="-593683" lat="59.6865555534" lon="5.20394445125">
		<tag k="name" v="Godalen" />
		<tag k="natural" v="valley" />
		<tag k="place" v="locality" />
		<tag k="ssr:stedsnr" v="245929" />
	</node>
	<node id="-594705" lat="59.6628722199" lon="5.22924444127">
		<tag k="name" v="Vågafjellet" />
		<tag k="natural" v="hill" />
		<tag k="place" v="locality" />
		<tag k="ssr:stedsnr" v="889833" />
	</node>
	<node id="-593680" lat="59.742083329" lon="5.32586666294">
		<tag k="alt_name" v="Langhaug" />
		<tag k="loc_name" v="Langehaug" />
		<tag k="name" v="Langehøgda" />
		<tag k="natural" v="hill" />
		<tag k="place" v="locality" />
		<tag k="ssr:stedsnr" v="245567" />
	</node>
	<node id="-594190" lat="59.7929999963" lon="5.14072500656">
		<tag k="name" v="Bjølledalen" />
		<tag k="natural" v="valley" />
		<tag k="place" v="locality" />
		<tag k="ssr:stedsnr" v="402955" />
	</node>
	<node id="-593677" lat="59.7890055541" lon="5.26031665879">
		<tag k="alt_name" v="Ikornåsen" />
		<tag k="fixme" v="consider natural=peak for the most distinct mountains in the district" />
		<tag k="name" v="Ekornåsen" />
		<tag k="natural" v="hill" />
		<tag k="place" v="locality" />
		<tag k="ssr:stedsnr" v="65505" />
	</node>
	<node id="-594187" lat="59.7918861152" lon="5.29789167387">
		<tag k="name" v="Stemmedalen" />
		<tag k="natural" v="valley" />
		<tag k="place" v="locality" />
		<tag k="ssr:stedsnr" v="402817" />
	</node>
	<node id="-594186" lat="59.7776388919" lon="5.19975556092">
		<tag k="name" v="Giljedalen" />
		<tag k="natural" v="valley" />
		<tag k="place" v="locality" />
		<tag k="ssr:stedsnr" v="402815" />
	</node>
	<node id="-594185" lat="59.7758500009" lon="5.20110833114">
		<tag k="name" v="Langhaugen" />
		<tag k="natural" v="hill" />
		<tag k="place" v="locality" />
		<tag k="ssr:stedsnr" v="402814" />
	</node>
	<node id="-594027" lat="59.775580559" lon="5.21201388141">
		<tag k="name" v="Dyrhaugen" />
		<tag k="natural" v="hill" />
		<tag k="place" v="locality" />
		<tag k="ssr:stedsnr" v="463780" />
	</node>
	<node id="-594180" lat="59.8487777824" lon="5.09579444916">
		<tag k="fixme" v="consider natural=peak for the most distinct mountains in the district" />
		<tag k="name" v="Klovasåta" />
		<tag k="natural" v="hill" />
		<tag k="place" v="locality" />
		<tag k="ssr:stedsnr" v="401220" />
	</node>
	<node id="-593622" lat="59.8394972192" lon="5.24071944105">
		<tag k="fixme" v="consider natural=peak for the most distinct mountains in the district" />
		<tag k="name" v="Krabbavikåsen" />
		<tag k="natural" v="hill" />
		<tag k="place" v="locality" />
		<tag k="ssr:stedsnr" v="40365" />
	</node>
	<node id="-594690" lat="59.812608333" lon="5.17779166958">
		<tag k="name" v="Kobbaneskrørne" />
		<tag k="place" v="locality" />
		<tag k="ssr:stedsnr" v="888839" />
	</node>
	<node id="-593665" lat="59.6558972232" lon="5.22770277096">
		<tag k="name" v="Linddalen" />
		<tag k="natural" v="valley" />
		<tag k="place" v="locality" />
		<tag k="ssr:stedsnr" v="241735" />
	</node>
	<node id="-594687" lat="59.7834916627" lon="5.17969166732">
		<tag k="name" v="Arhaugen" />
		<tag k="natural" v="hill" />
		<tag k="place" v="locality" />
		<tag k="ssr:stedsnr" v="888807" />
	</node>
	<node id="-594685" lat="59.6565638887" lon="5.19421388908">
		<tag k="name" v="Lægda" />
		<tag k="natural" v="hill" />
		<tag k="place" v="locality" />
		<tag k="ssr:stedsnr" v="888775" />
	</node>
	<node id="-594681" lat="59.7927305573" lon="5.14366110309">
		<tag k="name" v="Brekkeleitet" />
		<tag k="place" v="locality" />
		<tag k="ssr:stedsnr" v="887948" />
	</node>
	<node id="-593656" lat="59.8527374866" lon="5.20923958319">
		<tag k="name" v="Brakadalsfjellet" />
		<tag k="natural" v="hill" />
		<tag k="place" v="locality" />
		<tag k="ssr:stedsnr" v="241343" />
	</node>
	<node id="-594679" lat="59.7692333292" lon="5.17206666998">
		<tag k="name" v="Storhaug" />
		<tag k="natural" v="hill" />
		<tag k="place" v="locality" />
		<tag k="ssr:stedsnr" v="888087" />
	</node>
	<node id="-594676" lat="59.788191664" lon="5.25084166322">
		<tag k="name" v="Litlasiggjo" />
		<tag k="place" v="locality" />
		<tag k="ssr:stedsnr" v="887986" />
	</node>
	<node id="-593651" lat="59.7159722235" lon="5.18881388696">
		<tag k="name" v="Salen" />
		<tag k="natural" v="hill" />
		<tag k="place" v="locality" />
		<tag k="ssr:stedsnr" v="239746" />
	</node>
	<node id="-593647" lat="59.7499583355" lon="5.27678333024">
		<tag k="name" v="Stigahaugen" />
		<tag k="natural" v="hill" />
		<tag k="place" v="locality" />
		<tag k="ssr:stedsnr" v="59779" />
	</node>
	<node id="-593570" lat="59.7024499981" lon="5.2164472302">
		<tag k="name" v="Olasfjellet" />
		<tag k="natural" v="hill" />
		<tag k="place" v="locality" />
		<tag k="ssr:stedsnr" v="223732" />
	</node>
	<node id="-593618" lat="59.794322225" lon="5.16751944314">
		<tag k="name" v="Klæret" />
		<tag k="natural" v="hill" />
		<tag k="place" v="locality" />
		<tag k="ssr:stedsnr" v="38953" />
	</node>
	<node id="-593642" lat="59.6278194421" lon="5.19063888708">
		<tag k="name" v="Kyrkjlehaugen" />
		<tag k="natural" v="hill" />
		<tag k="place" v="locality" />
		<tag k="ssr:stedsnr" v="42975" />
	</node>
	<node id="-594662" lat="59.8911611082" lon="5.06467223047">
		<tag k="name" v="Gunnarshaugen" />
		<tag k="natural" v="hill" />
		<tag k="place" v="locality" />
		<tag k="ssr:stedsnr" v="886933" />
	</node>
	<node id="-594657" lat="59.6448833335" lon="5.20525278582">
		<tag k="name" v="Klemma" />
		<tag k="natural" v="cliff" />
		<tag k="ssr:stedsnr" v="666727" />
	</node>
	<node id="-594655" lat="59.5992888897" lon="5.1774499961">
		<tag k="name" v="Pikhaugen" />
		<tag k="natural" v="hill" />
		<tag k="place" v="locality" />
		<tag k="ssr:stedsnr" v="664693" />
	</node>
	<node id="-594140" lat="59.8094583338" lon="5.19096111684">
		<tag k="name" v="Ospardalen" />
		<tag k="natural" v="valley" />
		<tag k="place" v="locality" />
		<tag k="ssr:stedsnr" v="489948" />
	</node>
	<node id="-594651" lat="59.6119166693" lon="5.17024722177">
		<tag k="name" v="Storatræklubben" />
		<tag k="place" v="locality" />
		<tag k="ssr:stedsnr" v="664707" />
	</node>
	<node id="-594468" lat="59.7462500026" lon="5.13969166273">
		<tag k="name" v="Vardehamrane" />
		<tag k="natural" v="hill" />
		<tag k="place" v="locality" />
		<tag k="ssr:stedsnr" v="706195" />
	</node>
	<node id="-594646" lat="59.7230361128" lon="5.24266944674">
		<tag k="name" v="Risdalen" />
		<tag k="natural" v="valley" />
		<tag k="place" v="locality" />
		<tag k="ssr:stedsnr" v="648538" />
	</node>
	<node id="-594041" lat="59.8124972245" lon="5.27529721767">
		<tag k="loc_name" v="Fenahola" />
		<tag k="name" v="Fanahola" />
		<tag k="natural" v="valley" />
		<tag k="place" v="locality" />
		<tag k="ssr:stedsnr" v="466434" />
	</node>
	<node id="-594644" lat="59.7248722249" lon="5.23434445139">
		<tag k="name" v="Moane" />
		<tag k="natural" v="hill" />
		<tag k="place" v="locality" />
		<tag k="ssr:stedsnr" v="648531" />
	</node>
	<node id="-594130" lat="59.8831388905" lon="5.15499443955">
		<tag k="name" v="Risøysåta" />
		<tag k="natural" v="hill" />
		<tag k="place" v="locality" />
		<tag k="ssr:stedsnr" v="489830" />
	</node>
	<node id="-594640" lat="59.7049972227" lon="5.23083610461">
		<tag k="name" v="Nordfjella" />
		<tag k="natural" v="hill" />
		<tag k="place" v="locality" />
		<tag k="ssr:stedsnr" v="647728" />
	</node>
	<node id="-594127" lat="59.8001527733" lon="5.19452499262">
		<tag k="name" v="Busthorn" />
		<tag k="natural" v="hill" />
		<tag k="place" v="locality" />
		<tag k="ssr:stedsnr" v="489559" />
	</node>
	<node id="-594126" lat="59.7840888903" lon="5.30005556007">
		<tag k="fixme" v="consider natural=peak for the most distinct mountains in the district" />
		<tag k="name" v="Gjerdsåsen" />
		<tag k="natural" v="hill" />
		<tag k="place" v="locality" />
		<tag k="ssr:stedsnr" v="489555" />
	</node>
	<node id="-594637" lat="59.7569694464" lon="5.32490833574">
		<tag k="name" v="Tjørehjellen" />
		<tag k="natural" v="hill" />
		<tag k="place" v="locality" />
		<tag k="ssr:stedsnr" v="647479" />
	</node>
	<node id="-594636" lat="59.5806750018" lon="5.18624722299">
		<tag k="name" v="Midtparten" />
		<tag k="natural" v="valley" />
		<tag k="place" v="locality" />
		<tag k="ssr:stedsnr" v="647303" />
	</node>
	<node id="-594123" lat="59.7880861089" lon="5.2904499989">
		<tag k="name" v="Olderdalen" />
		<tag k="natural" v="valley" />
		<tag k="place" v="locality" />
		<tag k="ssr:stedsnr" v="489530" />
	</node>
	<node id="-594634" lat="59.7598583326" lon="5.25763055747">
		<tag k="name" v="Perafjellet" />
		<tag k="natural" v="hill" />
		<tag k="place" v="locality" />
		<tag k="ssr:stedsnr" v="646677" />
	</node>
	<node id="-594632" lat="59.838874997" lon="5.24137222109">
		<tag k="name" v="Krabbaviksåta" />
		<tag k="natural" v="hill" />
		<tag k="place" v="locality" />
		<tag k="ssr:stedsnr" v="732996" />
	</node>
	<node id="-593607" lat="59.6366361072" lon="5.1766416633">
		<tag k="name" v="Stemmahaugane" />
		<tag k="natural" v="hill" />
		<tag k="place" v="locality" />
		<tag k="ssr:stedsnr" v="37812" />
	</node>
	<node id="-593606" lat="59.6463833335" lon="5.16574722283">
		<tag k="name" v="Kyrfjellet" />
		<tag k="natural" v="hill" />
		<tag k="place" v="locality" />
		<tag k="ssr:stedsnr" v="37801" />
	</node>
	<node id="-594117" lat="59.694816669" lon="5.23203333468">
		<tag k="fixme" v="consider natural=peak for the most distinct mountains in the district" />
		<tag k="name" v="Kvitefjellet" />
		<tag k="natural" v="hill" />
		<tag k="place" v="locality" />
		<tag k="ssr:stedsnr" v="488957" />
	</node>
	<node id="-593600" lat="59.6065194465" lon="5.19145555093">
		<tag k="fixme" v="consider natural=peak for the most distinct mountains in the district" />
		<tag k="name" v="Havåsen" />
		<tag k="natural" v="hill" />
		<tag k="place" v="locality" />
		<tag k="ssr:stedsnr" v="26403" />
	</node>
	<node id="-594805" lat="59.7207416659" lon="5.22192500789">
		<tag k="name" v="Vardhaugen" />
		<tag k="natural" v="hill" />
		<tag k="place" v="locality" />
		<tag k="ssr:stedsnr" v="951748" />
	</node>
	<node id="-594620" lat="59.8537833325" lon="5.13566110563">
		<tag k="name" v="Ådnaråhaugen" />
		<tag k="natural" v="hill" />
		<tag k="place" v="locality" />
		<tag k="ssr:stedsnr" v="732884" />
	</node>
	<node id="-593610" lat="59.7841527774" lon="5.17537500469">
		<tag k="name" v="Pålskardet" />
		<tag k="natural" v="hill" />
		<tag k="place" v="locality" />
		<tag k="ssr:stedsnr" v="38854" />
	</node>
	<node id="-594106" lat="59.5900055599" lon="5.21966945236">
		<tag k="name" v="Stølsdalen" />
		<tag k="natural" v="valley" />
		<tag k="place" v="locality" />
		<tag k="ssr:stedsnr" v="488757" />
	</node>
	<node id="-593905" lat="59.6041194427" lon="5.18431388974">
		<tag k="name" v="Kvitefjellet" />
		<tag k="natural" v="hill" />
		<tag k="place" v="locality" />
		<tag k="ssr:stedsnr" v="283880" />
	</node>
	<node id="-593591" lat="59.6220361097" lon="5.19675832667">
		<tag k="name" v="Skutenova" />
		<tag k="natural" v="hill" />
		<tag k="place" v="locality" />
		<tag k="ssr:stedsnr" v="224991" />
	</node>
	<node id="-594614" lat="59.791391663" lon="5.24508334172">
		<tag k="name" v="Hatthaugane" />
		<tag k="natural" v="hill" />
		<tag k="place" v="locality" />
		<tag k="ssr:stedsnr" v="732587" />
	</node>
	<node id="-593588" lat="59.6144138922" lon="5.21502778015">
		<tag k="name" v="Niphaugane" />
		<tag k="natural" v="hill" />
		<tag k="place" v="locality" />
		<tag k="ssr:stedsnr" v="224975" />
	</node>
	<node id="-593586" lat="59.6083750026" lon="5.24066389036">
		<tag k="name" v="Instra Ørnasåta" />
		<tag k="natural" v="hill" />
		<tag k="place" v="locality" />
		<tag k="ssr:stedsnr" v="224714" />
	</node>
	<node id="-593608" lat="59.6432111099" lon="5.18146944999">
		<tag k="name" v="Vassåsen" />
		<tag k="natural" v="hill" />
		<tag k="place" v="locality" />
		<tag k="ssr:stedsnr" v="37821" />
	</node>
	<node id="-594606" lat="59.6729999987" lon="5.26459166267">
		<tag k="name" v="Nuten" />
		<tag k="natural" v="hill" />
		<tag k="place" v="locality" />
		<tag k="ssr:stedsnr" v="731990" />
	</node>
	<node id="-593580" lat="59.6896305556" lon="5.23985554817">
		<tag k="name" v="Straumslia" />
		<tag k="natural" v="slope" />
		<tag k="place" v="locality" />
		<tag k="ssr:stedsnr" v="224306" />
	</node>
	<node id="-594090" lat="59.6890583359" lon="5.17651110897">
		<tag k="name" v="Liarevardane" />
		<tag k="natural" v="hill" />
		<tag k="place" v="locality" />
		<tag k="ssr:stedsnr" v="345453" />
	</node>
	<node id="-594087" lat="59.7214138879" lon="5.33529166113">
		<tag k="fixme" v="consider natural=peak for the most distinct mountains in the district" />
		<tag k="name" v="Høgås" />
		<tag k="natural" v="hill" />
		<tag k="place" v="locality" />
		<tag k="ssr:stedsnr" v="344667" />
	</node>
	<node id="-594598" lat="59.6562277802" lon="5.15252500064">
		<tag k="name" v="Husveggen" />
		<tag k="natural" v="hill" />
		<tag k="place" v="locality" />
		<tag k="ssr:stedsnr" v="731882" />
	</node>
	<node id="-593572" lat="59.7090166694" lon="5.20718333447">
		<tag k="fixme" v="consider natural=peak for the most distinct mountains in the district" />
		<tag k="name" v="Tømmeråsen" />
		<tag k="natural" v="hill" />
		<tag k="place" v="locality" />
		<tag k="ssr:stedsnr" v="223743" />
	</node>
	<node id="-594595" lat="59.6023672275" lon="5.2301255847">
		<tag k="name" v="Stølssåta" />
		<tag k="natural" v="hill" />
		<tag k="place" v="locality" />
		<tag k="ssr:stedsnr" v="731848" />
	</node>
	<node id="-594594" lat="59.5770277767" lon="5.18419445274">
		<tag k="name" v="Risdalen" />
		<tag k="natural" v="valley" />
		<tag k="place" v="locality" />
		<tag k="ssr:stedsnr" v="731795" />
	</node>
	<node id="-593569" lat="59.8705805515" lon="5.09995278502">
		<tag k="name" v="Ørnavikehaugen" />
		<tag k="natural" v="hill" />
		<tag k="place" v="locality" />
		<tag k="ssr:stedsnr" v="223688" />
	</node>
	<node id="-593566" lat="59.7052694485" lon="5.37642222523">
		<tag k="fixme" v="consider natural=peak for the most distinct mountains in the district" />
		<tag k="name" v="Dyrhammar" />
		<tag k="natural" v="hill" />
		<tag k="place" v="locality" />
		<tag k="ssr:stedsnr" v="223642" />
	</node>
	<node id="-594077" lat="59.6887583321" lon="5.10769444545">
		<tag k="name" v="Nautøyhola" />
		<tag k="natural" v="cave_entrance" />
		<tag k="ssr:stedsnr" v="484022" />
	</node>
	<node id="-594075" lat="59.7550861075" lon="5.28233888756">
		<tag k="name" v="Kuhillerdalen" />
		<tag k="natural" v="valley" />
		<tag k="place" v="locality" />
		<tag k="ssr:stedsnr" v="483831" />
	</node>
	<node id="-594074" lat="59.7532500029" lon="5.28026388767">
		<tag k="name" v="Trolldalen" />
		<tag k="natural" v="valley" />
		<tag k="place" v="locality" />
		<tag k="ssr:stedsnr" v="483830" />
	</node>
	<node id="-593563" lat="59.849416667" lon="5.0817222276">
		<tag k="name" v="Hesten" />
		<tag k="natural" v="hill" />
		<tag k="place" v="locality" />
		<tag k="ssr:stedsnr" v="223292" />
	</node>
	<node id="-594072" lat="59.8863138889" lon="5.11603055679">
		<tag k="name" v="Djupedalen" />
		<tag k="natural" v="valley" />
		<tag k="place" v="locality" />
		<tag k="ssr:stedsnr" v="483740" />
	</node>
	<node id="-594070" lat="59.7213472257" lon="5.17954999734">
		<tag k="name" v="Kvernhaugane" />
		<tag k="natural" v="ridge" />
		<tag k="place" v="locality" />
		<tag k="ssr:stedsnr" v="481732" />
	</node>
	<node id="-593557" lat="59.7607472197" lon="5.30095277683">
		<tag k="name" v="Mørkedalen" />
		<tag k="natural" v="valley" />
		<tag k="place" v="locality" />
		<tag k="ssr:stedsnr" v="222698" />
	</node>
	<node id="-593556" lat="59.7592638846" lon="5.2635583327">
		<tag k="name" v="Skogahaugen" />
		<tag k="natural" v="hill" />
		<tag k="place" v="locality" />
		<tag k="ssr:stedsnr" v="222696" />
	</node>
	<node id="-593774" lat="59.5864444431" lon="5.20003888138">
		<tag k="name" v="Skjenarehaugen" />
		<tag k="natural" v="hill" />
		<tag k="place" v="locality" />
		<tag k="ssr:stedsnr" v="118528" />
	</node>
	<node id="-593554" lat="59.7629555554" lon="5.2903555572">
		<tag k="name" v="Håviktunga" />
		<tag k="natural" v="hill" />
		<tag k="place" v="locality" />
		<tag k="ssr:stedsnr" v="222690" />
	</node>
	<node id="-593553" lat="59.7549972202" lon="5.34504167247">
		<tag k="name" v="Illestighaugen" />
		<tag k="natural" v="hill" />
		<tag k="place" v="locality" />
		<tag k="ssr:stedsnr" v="222507" />
	</node>
	<node id="-593552" lat="59.755697221" lon="5.32991111681">
		<tag k="name" v="Hatlelia" />
		<tag k="natural" v="slope" />
		<tag k="place" v="locality" />
		<tag k="ssr:stedsnr" v="222439" />
	</node>
	<node id="-594575" lat="59.692974999" lon="5.21861945084">
		<tag k="name" v="Runde Døsvikåsen" />
		<tag k="natural" v="hill" />
		<tag k="place" v="locality" />
		<tag k="ssr:stedsnr" v="770345" />
	</node>
	<node id="-594046" lat="59.8569583343" lon="5.1296444355">
		<tag k="name" v="Brakabakkane" />
		<tag k="natural" v="slope" />
		<tag k="place" v="locality" />
		<tag k="ssr:stedsnr" v="466651" />
	</node>
	<node id="-593548" lat="59.8437027821" lon="5.2028027821">
		<tag k="name" v="Langafjellet" />
		<tag k="natural" v="ridge" />
		<tag k="place" v="locality" />
		<tag k="ssr:stedsnr" v="222298" />
	</node>
	<node id="-594052" lat="59.6166833313" lon="5.1935138967">
		<tag k="name" v="Revahaugen" />
		<tag k="natural" v="hill" />
		<tag k="place" v="locality" />
		<tag k="ssr:stedsnr" v="467998" />
	</node>
	<node id="-594051" lat="59.629463885" lon="5.18784167502">
		<tag k="name" v="Skipavikshaugen" />
		<tag k="natural" v="hill" />
		<tag k="place" v="locality" />
		<tag k="ssr:stedsnr" v="467989" />
	</node>
	<node id="-594050" lat="59.5913166653" lon="5.20899166262">
		<tag k="name" v="Jonane" />
		<tag k="natural" v="valley" />
		<tag k="place" v="locality" />
		<tag k="ssr:stedsnr" v="466694" />
	</node>
	<node id="-594561" lat="59.6478972245" lon="5.21588611639">
		<tag k="name" v="Oredalen" />
		<tag k="natural" v="valley" />
		<tag k="place" v="locality" />
		<tag k="ssr:stedsnr" v="727774" />
	</node>
	<node id="-594048" lat="59.8704944427" lon="5.10457499649">
		<tag k="name" v="Sokkaleggen" />
		<tag k="natural" v="hill" />
		<tag k="place" v="locality" />
		<tag k="ssr:stedsnr" v="466682" />
	</node>
	<node id="-593535" lat="59.8104083319" lon="5.19086944786">
		<tag k="name" v="Grindadalen" />
		<tag k="natural" v="valley" />
		<tag k="place" v="locality" />
		<tag k="ssr:stedsnr" v="220876" />
	</node>
	<node id="-594558" lat="59.6131388857" lon="5.19554999287">
		<tag k="name" v="Skjenareberget" />
		<tag k="natural" v="hill" />
		<tag k="place" v="locality" />
		<tag k="ssr:stedsnr" v="725683" />
	</node>
	<node id="-593533" lat="59.8078972211" lon="5.16413333735">
		<tag k="name" v="Hammaren" />
		<tag k="natural" v="hill" />
		<tag k="place" v="locality" />
		<tag k="ssr:stedsnr" v="220869" />
	</node>
	<node id="-593903" lat="59.9041027789" lon="5.10172499318">
		<tag k="name" v="Snåssdalen" />
		<tag k="natural" v="valley" />
		<tag k="place" v="locality" />
		<tag k="ssr:stedsnr" v="283589" />
	</node>
	<node id="-593514" lat="59.8100083333" lon="5.21581111793">
		<tag k="name" v="Kvarvatåa" />
		<tag k="natural" v="hill" />
		<tag k="place" v="locality" />
		<tag k="ssr:stedsnr" v="219158" />
	</node>
	<node id="-594554" lat="59.9030055553" lon="5.10061389423">
		<tag k="name" v="Nessåta" />
		<tag k="natural" v="hill" />
		<tag k="place" v="locality" />
		<tag k="ssr:stedsnr" v="610768" />
	</node>
	<node id="-593529" lat="59.653127779" lon="5.1572305564">
		<tag k="name" v="Haugemarka" />
		<tag k="natural" v="hill" />
		<tag k="place" v="locality" />
		<tag k="ssr:stedsnr" v="220844" />
	</node>
	<node id="-593528" lat="59.641427778" lon="5.2147694428">
		<tag k="name" v="Fura" />
		<tag k="natural" v="hill" />
		<tag k="place" v="locality" />
		<tag k="ssr:stedsnr" v="220830" />
	</node>
	<node id="-593613" lat="59.8612083365" lon="5.1612805555">
		<tag k="name" v="Prestkonehaugane" />
		<tag k="natural" v="hill" />
		<tag k="old_name" v="Prestekonehaugane" />
		<tag k="place" v="locality" />
		<tag k="ssr:stedsnr" v="38901" />
	</node>
	<node id="-595061" lat="59.7293020215" lon="5.33811093272">
		<tag k="name" v="Båtahaugen" />
		<tag k="natural" v="hill" />
		<tag k="place" v="locality" />
		<tag k="ssr:stedsnr" v="981431" />
	</node>
	<node id="-594036" lat="59.7151611144" lon="5.22828611712">
		<tag k="fixme" v="consider natural=peak for the most distinct mountains in the district" />
		<tag k="name" v="Store haugane" />
		<tag k="natural" v="hill" />
		<tag k="place" v="locality" />
		<tag k="ssr:stedsnr" v="465728" />
	</node>
	<node id="-594547" lat="59.7461333292" lon="5.32223333016">
		<tag k="name" v="Smiedalen" />
		<tag k="natural" v="valley" />
		<tag k="place" v="locality" />
		<tag k="ssr:stedsnr" v="610606" />
	</node>
	<node id="-594033" lat="59.6285277799" lon="5.23036945231">
		<tag k="name" v="Akstegardshaugen" />
		<tag k="natural" v="hill" />
		<tag k="place" v="locality" />
		<tag k="ssr:stedsnr" v="464829" />
	</node>
	<node id="-595055" lat="59.8141805596" lon="5.23777221601">
		<tag k="name" v="Sætradalen" />
		<tag k="natural" v="valley" />
		<tag k="place" v="locality" />
		<tag k="ssr:stedsnr" v="968516" />
	</node>
	<node id="-593597" lat="59.8496222258" lon="5.08046666623">
		<tag k="name" v="Goddehest" />
		<tag k="natural" v="hill" />
		<tag k="place" v="locality" />
		<tag k="ssr:stedsnr" v="25911" />
	</node>
	<node id="-594028" lat="59.6522108265" lon="5.19954306296">
		<tag k="name" v="Hagarsholmen" />
		<tag k="natural" v="valley" />
		<tag k="place" v="locality" />
		<tag k="ssr:stedsnr" v="463797" />
	</node>
	<node id="-595051" lat="59.7207361117" lon="5.32878055988">
		<tag k="name" v="Håberg" />
		<tag k="place" v="locality" />
		<tag k="ssr:stedsnr" v="951670" />
	</node>
	<node id="-594538" lat="59.7300750028" lon="5.22331111499">
		<tag k="name" v="Håvardshaugen" />
		<tag k="natural" v="hill" />
		<tag k="place" v="locality" />
		<tag k="ssr:stedsnr" v="605982" />
	</node>
	<node id="-594024" lat="59.6456361092" lon="5.18476389714">
		<tag k="name" v="Steinsåsen" />
		<tag k="natural" v="hill" />
		<tag k="place" v="locality" />
		<tag k="ssr:stedsnr" v="462804" />
	</node>
	<node id="-594108" lat="59.5799999998" lon="5.20533889328">
		<tag k="alt_name" v="Knorrafjellet" />
		<tag k="fixme" v="consider natural=peak for the most distinct mountains in the district" />
		<tag k="name" v="Knurrafjellet" />
		<tag k="natural" v="hill" />
		<tag k="place" v="locality" />
		<tag k="ssr:stedsnr" v="488799" />
	</node>
	<node id="-595046" lat="59.7883750002" lon="5.17203055549">
		<tag k="name" v="Draglandshaugen" />
		<tag k="natural" v="hill" />
		<tag k="place" v="locality" />
		<tag k="ssr:stedsnr" v="948960" />
	</node>
	<node id="-594022" lat="59.636736115" lon="5.18501111146">
		<tag k="name" v="Bjørkefjellet" />
		<tag k="natural" v="hill" />
		<tag k="place" v="locality" />
		<tag k="ssr:stedsnr" v="462795" />
	</node>
	<node id="-594704" lat="59.6583194444" lon="5.24009721701">
		<tag k="name" v="Dorditåa" />
		<tag k="place" v="locality" />
		<tag k="ssr:stedsnr" v="889826" />
	</node>
	<node id="-594526" lat="59.7174472202" lon="5.21553611935">
		<tag k="name" v="Båt i Brot" />
		<tag k="place" v="locality" />
		<tag k="ssr:stedsnr" v="587745" />
	</node>
	<node id="-594013" lat="59.848466668" lon="5.13068332549">
		<tag k="fixme" v="consider natural=peak for the most distinct mountains in the district" />
		<tag k="name" v="Gamlasæterfjellet" />
		<tag k="natural" v="hill" />
		<tag k="place" v="locality" />
		<tag k="ssr:stedsnr" v="462183" />
	</node>
	<node id="-594524" lat="59.704730557" lon="5.21604721915">
		<tag k="name" v="Kuleteigen" />
		<tag k="place" v="locality" />
		<tag k="ssr:stedsnr" v="587737" />
	</node>
	<node id="-593936" lat="59.7105166689" lon="5.1867111058">
		<tag k="name" v="Ardalssåta" />
		<tag k="natural" v="hill" />
		<tag k="place" v="locality" />
		<tag k="ssr:stedsnr" v="285694" />
	</node>
	<node id="-594522" lat="59.5816388891" lon="5.18778611357">
		<tag k="name" v="Kjernafjellet" />
		<tag k="natural" v="hill" />
		<tag k="place" v="locality" />
		<tag k="ssr:stedsnr" v="587316" />
	</node>
	<node id="-594009" lat="59.7936694438" lon="5.13743055327">
		<tag k="fixme" v="consider natural=peak for the most distinct mountains in the district" />
		<tag k="name" v="Bjørkåsen" />
		<tag k="natural" v="hill" />
		<tag k="place" v="locality" />
		<tag k="ssr:stedsnr" v="462166" />
	</node>
	<node id="-595032" lat="59.7653055527" lon="5.12198888892">
		<tag k="name" v="Stornesvarden" />
		<tag k="natural" v="hill" />
		<tag k="place" v="locality" />
		<tag k="ssr:stedsnr" v="947169" />
	</node>
	<node id="-594007" lat="59.771783333" lon="5.13051389394">
		<tag k="name" v="Høghaug" />
		<tag k="natural" v="hill" />
		<tag k="place" v="locality" />
		<tag k="ssr:stedsnr" v="462145" />
	</node>
	<node id="-595030" lat="59.6493805522" lon="5.23026388905">
		<tag k="name" v="Gulnakken" />
		<tag k="natural" v="slope" />
		<tag k="place" v="locality" />
		<tag k="ssr:stedsnr" v="937243" />
	</node>
	<node id="-594005" lat="59.8224583334" lon="5.18938611785">
		<tag k="name" v="Hestdalen" />
		<tag k="natural" v="valley" />
		<tag k="place" v="locality" />
		<tag k="ssr:stedsnr" v="461934" />
	</node>
	<node id="-595027" lat="59.724616663" lon="5.33059723052">
		<tag k="name" v="Bjørndalen" />
		<tag k="natural" v="valley" />
		<tag k="place" v="locality" />
		<tag k="ssr:stedsnr" v="936606" />
	</node>
	<node id="-594513" lat="59.6331750005" lon="5.18063889735">
		<tag k="name" v="Legda" />
		<tag k="natural" v="hill" />
		<tag k="place" v="locality" />
		<tag k="ssr:stedsnr" v="709989" />
	</node>
	<node id="-593592" lat="59.7060083357" lon="5.23915277967">
		<tag k="name" v="Børøysåta" />
		<tag k="natural" v="hill" />
		<tag k="place" v="locality" />
		<tag k="ssr:stedsnr" v="306504" />
	</node>
	<node id="-594508" lat="59.8691749992" lon="5.17574166064">
		<tag k="fixme" v="consider natural=peak for the most distinct mountains in the district" />
		<tag k="name" v="Slettedalsfjellet" />
		<tag k="natural" v="hill" />
		<tag k="place" v="locality" />
		<tag k="ssr:stedsnr" v="583884" />
	</node>
	<node id="-594505" lat="59.6053138897" lon="5.21679721875">
		<tag k="name" v="Kråkhilleren" />
		<tag k="natural" v="hill" />
		<tag k="place" v="locality" />
		<tag k="ssr:stedsnr" v="709737" />
	</node>
	<node id="-594557" lat="59.7209111071" lon="5.17789167536">
		<tag k="fixme" v="consider natural=peak for the most distinct mountains in the district" />
		<tag k="name" v="Nibba" />
		<tag k="natural" v="hill" />
		<tag k="place" v="locality" />
		<tag k="ssr:stedsnr" v="724725" />
	</node>
	<node id="-594500" lat="59.5803611143" lon="5.20882499372">
		<tag k="name" v="Saugadalen" />
		<tag k="natural" v="valley" />
		<tag k="place" v="locality" />
		<tag k="ssr:stedsnr" v="709661" />
	</node>
	<node id="-594499" lat="59.7133916643" lon="5.35748332917">
		<tag k="name" v="Svartaberg" />
		<tag k="natural" v="slope" />
		<tag k="place" v="locality" />
		<tag k="ssr:stedsnr" v="709632" />
	</node>
	<node id="-594498" lat="59.7233722234" lon="5.23684721984">
		<tag k="name" v="Vaskarhaugen" />
		<tag k="natural" v="hill" />
		<tag k="place" v="locality" />
		<tag k="ssr:stedsnr" v="709534" />
	</node>
	<node id="-595065" lat="59.7292986829" lon="5.34254434486">
		<tag k="name" v="Sildaberget" />
		<tag k="natural" v="hill" />
		<tag k="place" v="locality" />
		<tag k="ssr:stedsnr" v="981505" />
	</node>
	<node id="-594496" lat="59.682880553" lon="5.25428332823">
		<tag k="name" v="Geitastraumen" />
		<tag k="natural" v="valley" />
		<tag k="place" v="locality" />
		<tag k="ssr:stedsnr" v="709509" />
	</node>
	<node id="-595007" lat="59.6923555557" lon="5.19249444574">
		<tag k="name" v="Vardane" />
		<tag k="natural" v="hill" />
		<tag k="place" v="locality" />
		<tag k="ssr:stedsnr" v="913523" />
	</node>
	<node id="-594494" lat="59.7374277808" lon="5.32614722227">
		<tag k="name" v="Sætre" />
		<tag k="natural" v="hill" />
		<tag k="place" v="locality" />
		<tag k="ssr:stedsnr" v="709418" />
	</node>
	<node id="-593534" lat="59.8228138871" lon="5.18245277342">
		<tag k="fixme" v="consider natural=peak for the most distinct mountains in the district" />
		<tag k="name" v="Søljefjellet" />
		<tag k="natural" v="hill" />
		<tag k="place" v="locality" />
		<tag k="ssr:stedsnr" v="220874" />
	</node>
	<node id="-595004" lat="59.7242277789" lon="5.1976083384">
		<tag k="name" v="Steinsvågsfjella" />
		<tag k="natural" v="hill" />
		<tag k="place" v="locality" />
		<tag k="ssr:stedsnr" v="909524" />
	</node>
	<node id="-595003" lat="59.5940888918" lon="5.15337777088">
		<tag k="name" v="Hesthagen" />
		<tag k="natural" v="hill" />
		<tag k="place" v="locality" />
		<tag k="ssr:stedsnr" v="907704" />
	</node>
	<node id="-595001" lat="59.6179277764" lon="5.23555000347">
		<tag k="name" v="Krokneståa" />
		<tag k="place" v="locality" />
		<tag k="ssr:stedsnr" v="892944" />
	</node>
	<node id="-594487" lat="59.6144138922" lon="5.21502778015">
		<tag k="alt_name" v="Niphaugane2" />
		<tag k="name" v="Niphaugane" />
		<tag k="natural" v="hill" />
		<tag k="place" v="locality" />
		<tag k="ssr:stedsnr" v="707993" />
	</node>
	<node id="-594485" lat="59.7435083312" lon="5.31003889022">
		<tag k="name" v="Steinsland" />
		<tag k="natural" v="slope" />
		<tag k="place" v="locality" />
		<tag k="ssr:stedsnr" v="707913" />
	</node>
	<node id="-594037" lat="59.717069445" lon="5.26704166206">
		<tag k="name" v="Geitasteinen" />
		<tag k="natural" v="hill" />
		<tag k="place" v="locality" />
		<tag k="ssr:stedsnr" v="465687" />
	</node>
	<node id="-595038" lat="59.6503583315" lon="5.17195277112">
		<tag k="name" v="Vardahaugane" />
		<tag k="natural" v="hill" />
		<tag k="place" v="locality" />
		<tag k="ssr:stedsnr" v="948853" />
	</node>
	<node id="-593970" lat="59.5858027807" lon="5.18451111279">
		<tag k="name" v="Hilleren" />
		<tag k="natural" v="slope" />
		<tag k="place" v="locality" />
		<tag k="ssr:stedsnr" v="450195" />
	</node>
	<node id="-594993" lat="59.866580556" lon="5.16593888296">
		<tag k="name" v="Søre Storhaug" />
		<tag k="natural" v="hill" />
		<tag k="place" v="locality" />
		<tag k="ssr:stedsnr" v="887870" />
	</node>
	<node id="-594478" lat="59.7198999983" lon="5.20746111858">
		<tag k="name" v="Lyklingfjella" />
		<tag k="natural" v="hill" />
		<tag k="place" v="locality" />
		<tag k="ssr:stedsnr" v="707670" />
	</node>
	<node id="-594525" lat="59.7198055569" lon="5.23911667337">
		<tag k="fixme" v="consider natural=peak for the most distinct mountains in the district" />
		<tag k="name" v="Gardåsen" />
		<tag k="natural" v="hill" />
		<tag k="place" v="locality" />
		<tag k="ssr:stedsnr" v="587739" />
	</node>
	<node id="-593842" lat="59.5819861084" lon="5.20752500486">
		<tag k="name" v="Saugadalsfjellet" />
		<tag k="natural" v="hill" />
		<tag k="place" v="locality" />
		<tag k="ssr:stedsnr" v="163654" />
	</node>
	<node id="-594980" lat="59.8379583304" lon="5.22690832618">
		<tag k="name" v="Klubbekleiva" />
		<tag k="natural" v="hill" />
		<tag k="place" v="locality" />
		<tag k="ssr:stedsnr" v="950336" />
	</node>
	<node id="-593954" lat="59.7106361079" lon="5.20536110465">
		<tag k="name" v="Lia" />
		<tag k="natural" v="slope" />
		<tag k="place" v="locality" />
		<tag k="ssr:stedsnr" v="222714" />
	</node>
	<node id="-593755" lat="59.8087222239" lon="5.19786110397">
		<tag k="fixme" v="consider natural=peak for the most distinct mountains in the district" />
		<tag k="name" v="Fjellet" />
		<tag k="natural" v="hill" />
		<tag k="place" v="locality" />
		<tag k="ssr:stedsnr" v="98156" />
	</node>
	<node id="-594975" lat="59.7352277808" lon="5.15834167079">
		<tag k="name" v="Kvassaberg" />
		<tag k="natural" v="hill" />
		<tag k="place" v="locality" />
		<tag k="ssr:stedsnr" v="948999" />
	</node>
	<node id="-595025" lat="59.8624806156" lon="5.08880231955">
		<tag k="name" v="Skorene" />
		<tag k="place" v="locality" />
		<tag k="ssr:stedsnr" v="935825" />
	</node>
	<node id="-594458" lat="59.7878916642" lon="5.18244722647">
		<tag k="name" v="Nultane" />
		<tag k="place" v="locality" />
		<tag k="ssr:stedsnr" v="705950" />
	</node>
	<node id="-594455" lat="59.8664361119" lon="5.0753916657">
		<tag k="name" v="Lyrasundshaugen" />
		<tag k="natural" v="hill" />
		<tag k="place" v="locality" />
		<tag k="ssr:stedsnr" v="705917" />
	</node>
	<node id="-594966" lat="59.7877250036" lon="5.27676945193">
		<tag k="fixme" v="consider natural=peak for the most distinct mountains in the district" />
		<tag k="name" v="Langåsen" />
		<tag k="natural" v="hill" />
		<tag k="place" v="locality" />
		<tag k="ssr:stedsnr" v="948852" />
	</node>
	<node id="-594965" lat="59.7906916634" lon="5.28205277689">
		<tag k="fixme" v="consider natural=peak for the most distinct mountains in the district" />
		<tag k="name" v="Londiåsen" />
		<tag k="natural" v="hill" />
		<tag k="place" v="locality" />
		<tag k="ssr:stedsnr" v="948847" />
	</node>
	<node id="-594964" lat="59.6407111106" lon="5.21019721565">
		<tag k="name" v="Klubben" />
		<tag k="natural" v="hill" />
		<tag k="place" v="locality" />
		<tag k="ssr:stedsnr" v="948842" />
	</node>
	<node id="-593939" lat="59.6324750034" lon="5.18506944578">
		<tag k="name" v="Hæddene" />
		<tag k="natural" v="hill" />
		<tag k="place" v="locality" />
		<tag k="ssr:stedsnr" v="285989" />
	</node>
	<node id="-594995" lat="59.8632638855" lon="5.1905694378">
		<tag k="name" v="Bjørndalen" />
		<tag k="natural" v="valley" />
		<tag k="place" v="locality" />
		<tag k="ssr:stedsnr" v="887878" />
	</node>
	<node id="-594960" lat="59.6490194457" lon="5.19503332914">
		<tag k="name" v="Steinsfjellet" />
		<tag k="natural" v="hill" />
		<tag k="place" v="locality" />
		<tag k="ssr:stedsnr" v="947785" />
	</node>
	<node id="-593935" lat="59.7575259553" lon="5.29007343457">
		<tag k="name" v="Dromsdalen" />
		<tag k="natural" v="valley" />
		<tag k="place" v="locality" />
		<tag k="ssr:stedsnr" v="285675" />
	</node>
	<node id="-593861" lat="59.802063889" lon="5.21903888547">
		<tag k="name" v="Grøndalen" />
		<tag k="natural" v="valley" />
		<tag k="place" v="locality" />
		<tag k="ssr:stedsnr" v="280984" />
	</node>
	<node id="-593933" lat="59.6798500005" lon="5.24735000168">
		<tag k="name" v="Slottet" />
		<tag k="natural" v="hill" />
		<tag k="place" v="locality" />
		<tag k="ssr:stedsnr" v="285507" />
	</node>
	<node id="-593932" lat="59.6794833359" lon="5.23544723">
		<tag k="name" v="Brendeskogen" />
		<tag k="natural" v="slope" />
		<tag k="place" v="locality" />
		<tag k="ssr:stedsnr" v="285504" />
	</node>
	<node id="-593922" lat="59.6849166676" lon="5.17076111221">
		<tag k="name" v="Grandalsfjella" />
		<tag k="natural" v="hill" />
		<tag k="place" v="locality" />
		<tag k="ssr:stedsnr" v="285055" />
	</node>
	<node id="-594442" lat="59.6516249978" lon="5.16116943845">
		<tag k="name" v="Sethaugen" />
		<tag k="natural" v="hill" />
		<tag k="place" v="locality" />
		<tag k="ssr:stedsnr" v="705841" />
	</node>
	<node id="-594441" lat="59.6367527811" lon="5.21439167124">
		<tag k="name" v="Halmhilleren" />
		<tag k="natural" v="valley" />
		<tag k="place" v="locality" />
		<tag k="ssr:stedsnr" v="705835" />
	</node>
	<node id="-594439" lat="59.6455472266" lon="5.17303332973">
		<tag k="name" v="Geitastehaugane" />
		<tag k="natural" v="hill" />
		<tag k="place" v="locality" />
		<tag k="ssr:stedsnr" v="705832" />
	</node>
	<node id="-594436" lat="59.8000749993" lon="5.14776667348">
		<tag k="name" v="Langedalen" />
		<tag k="natural" v="valley" />
		<tag k="place" v="locality" />
		<tag k="ssr:stedsnr" v="705253" />
	</node>
	<node id="-594615" lat="59.7571472191" lon="5.17260555727">
		<tag k="alt_name" v="Ljosnarhaugen" />
		<tag k="name" v="Ljosnahaugen" />
		<tag k="natural" v="hill" />
		<tag k="place" v="locality" />
		<tag k="ssr:stedsnr" v="732597" />
	</node>
</osm>
