<?xml version="1.0" encoding="UTF-8"?>
<osm version="0.6" generator="osmapis">
	<node lat="59.64392467745819" lon="5.188393357955052" id="-30109">
		<tag k="name" v="Heiartjørna" />
		<tag k="natural" v="water" />
		<tag k="ssr:stedsnr" v="3876" />
	</node>
	<node lat="59.858144446211476" lon="5.175877782526488" id="-30110">
		<tag k="name" v="Tollaksvatnet" />
		<tag k="natural" v="water" />
		<tag k="ssr:stedsnr" v="3889" />
	</node>
	<node lat="59.79413610803861" lon="5.235836120243786" id="-30114">
		<tag k="name" v="Åsvatnet" />
		<tag k="natural" v="water" />
		<tag k="ssr:stedsnr" v="4541" />
	</node>
	<node lat="59.769982640265" lon="5.216623290754542" id="-30143">
		<tag k="name" v="Bergetjørna" />
		<tag k="natural" v="water" />
		<tag k="ssr:stedsnr" v="38819" />
	</node>
	<node lat="59.76870053927125" lon="5.221475052335992" id="-30144">
		<tag k="name" v="Tomastjørna" />
		<tag k="natural" v="water" />
		<tag k="ssr:stedsnr" v="38820" />
	</node>
	<node lat="59.65023511417973" lon="5.180240607320198" id="-30147">
		<tag k="name" v="Djuvavatnet" />
		<tag k="natural" v="water" />
		<tag k="ssr:stedsnr" v="38828" />
		<tag k="water" v="lake" />
	</node>
	<node lat="59.7734923129797" lon="5.262648857291748" id="-30207">
		<tag k="name" v="Rotavatnet" />
		<tag k="natural" v="water" />
		<tag k="ssr:stedsnr" v="64602" />
	</node>
	<node lat="59.79694057262018" lon="5.173506600628981" id="-30227">
		<tag k="name" v="Storavatnet" />
		<tag k="natural" v="water" />
		<tag k="ssr:stedsnr" v="65527" />
		<tag k="water" v="lake" />
	</node>
	<node lat="59.59184722014701" lon="5.214924996081857" id="-30245">
		<tag k="name" v="Løningsvatnet" />
		<tag k="natural" v="water" />
		<tag k="ssr:stedsnr" v="246736" />
		<tag k="water" v="lake" />
	</node>
	<node lat="59.77819722678267" lon="5.150083340488645" id="-30252">
		<tag k="name" v="Træstjørna" />
		<tag k="natural" v="water" />
		<tag k="ssr:stedsnr" v="246468" />
	</node>
	<node lat="59.78551126613949" lon="5.258802301410634" id="-30254">
		<tag k="alt_name" v="Bjørkåsvatnet, vestre" />
		<tag k="name" v="Vestre Bjørkåsvatnet" />
		<tag k="natural" v="water" />
		<tag k="ssr:stedsnr" v="246495" />
	</node>
	<node lat="59.84256717071981" lon="5.184387014329191" id="-30266">
		<tag k="name" v="Langavatnet" />
		<tag k="natural" v="water" />
		<tag k="ssr:stedsnr" v="246859" />
	</node>
	<node lat="59.65770277667767" lon="5.229561114499144" id="-30269">
		<tag k="alt_name" v="Rysseid2" />
		<tag k="name" v="Rysseid" />
		<tag k="place" v="locality" />
		<tag k="ssr:stedsnr" v="246889" />
	</node>
	<node lat="59.823444446655635" lon="5.180486116029899" id="-30272">
		<tag k="name" v="Krokavatnet" />
		<tag k="natural" v="water" />
		<tag k="ssr:stedsnr" v="246978" />
	</node>
	<node lat="59.842467221725364" lon="5.122476139195559" id="-30281">
		<tag k="alt_name" v="Tresstjørna" />
		<tag k="name" v="Træstjørna" />
		<tag k="natural" v="water" />
		<tag k="ssr:stedsnr" v="247537" />
	</node>
	<node lat="59.795172225658604" lon="5.163088881493943" id="-30292">
		<tag k="name" v="Stavlandsøya" />
		<tag k="place" v="island" />
		<tag k="ssr:stedsnr" v="98963" />
	</node>
	<node lat="59.77631103223354" lon="5.207755394861914" id="-30300">
		<tag k="name" v="Kvernavatnet" />
		<tag k="natural" v="water" />
		<tag k="ssr:stedsnr" v="99816" />
	</node>
	<node lat="59.71191388776593" lon="5.1726555548176965" id="-30312">
		<tag k="name" v="Blyttastemma" />
		<tag k="ssr:stedsnr" v="102739" />
		<tag k="waterway" v="dam" />
	</node>
	<node lat="59.63105236318854" lon="5.222906283366017" id="-30336">
		<tag k="alt_name" v="Sætradalstjørna2" />
		<tag k="name" v="Sætradalstjørna" />
		<tag k="natural" v="water" />
		<tag k="ssr:stedsnr" v="124906" />
	</node>
	<node lat="59.804931815428155" lon="5.2882165480729535" id="-30345">
		<tag k="alt_name" v="Krokvatnet" />
		<tag k="name" v="Krokavatnet" />
		<tag k="natural" v="water" />
		<tag k="ssr:stedsnr" v="125563" />
	</node>
	<node lat="59.79120907594514" lon="5.138137320322478" id="-30355">
		<tag k="alt_name" v="Morketjørna" />
		<tag k="name" v="Mørketjørna" />
		<tag k="natural" v="water" />
		<tag k="ssr:stedsnr" v="158204" />
	</node>
	<node lat="59.758386115399766" lon="5.282347216506367" id="-30362">
		<tag k="name" v="Dromsdalsvika" />
		<tag k="natural" v="bay" />
		<tag k="ssr:stedsnr" v="161671" />
	</node>
	<node lat="59.711566667911235" lon="5.176519435523415" id="-30369">
		<tag k="name" v="Styllarstemma" />
		<tag k="ssr:stedsnr" v="163713" />
		<tag k="waterway" v="dam" />
	</node>
	<node lat="59.71350555563773" lon="5.351563892364813" id="-30370">
		<tag k="name" v="Søratjørna" />
		<tag k="natural" v="water" />
		<tag k="ssr:stedsnr" v="163611" />
		<tag k="water" v="lake" />
	</node>
	<node lat="59.83635833641327" lon="5.108869440036626" id="-30409">
		<tag k="name" v="Langavatnet" />
		<tag k="natural" v="water" />
		<tag k="ssr:stedsnr" v="186983" />
	</node>
	<node lat="59.76565589145596" lon="5.294209401642731" id="-30458">
		<tag k="name" v="Kyrkjeteigstjørna" />
		<tag k="natural" v="water" />
		<tag k="ssr:stedsnr" v="222692" />
		<tag k="water" v="lake" />
	</node>
	<node lat="59.71700555211231" lon="5.208038897762049" id="-30467">
		<tag k="name" v="Kvernatjørna" />
		<tag k="natural" v="water" />
		<tag k="ssr:stedsnr" v="223740" />
	</node>
	<node lat="59.88002499950106" lon="5.116513883373291" id="-30491">
		<tag k="name" v="Larsavatnet" />
		<tag k="natural" v="water" />
		<tag k="ssr:stedsnr" v="241701" />
	</node>
	<node lat="59.69173945253439" lon="5.181144796102267" id="-30505">
		<tag k="name" v="Kristentjørna" />
		<tag k="natural" v="water" />
		<tag k="ssr:stedsnr" v="246523" />
	</node>
	<node lat="59.71316870785735" lon="5.259812635993375" id="-30506">
		<tag k="name" v="Storavatnet" />
		<tag k="natural" v="water" />
		<tag k="ssr:stedsnr" v="246496" />
	</node>
	<node lat="59.78414830471038" lon="5.266744698851171" id="-30507">
		<tag k="alt_name" v="Bjørkåsvatnet, østre;Østre Bjørkåsvatnet" />
		<tag k="name" v="Austre Bjørkåsvatnet" />
		<tag k="natural" v="water" />
		<tag k="ssr:stedsnr" v="246500" />
	</node>
	<node lat="59.8284777821871" lon="5.209925003203952" id="-30520">
		<tag k="name" v="Nilsasætervatnet" />
		<tag k="natural" v="water" />
		<tag k="ssr:stedsnr" v="246976" />
	</node>
	<node lat="59.79882499682141" lon="5.1713833378242136" id="-30542">
		<tag k="name" v="Gåslandsneset" />
		<tag k="natural" v="cape" />
		<tag k="ssr:stedsnr" v="280970" />
	</node>
	<node lat="59.7986366653728" lon="5.1562420504967" id="-30543">
		<tag k="name" v="Holetjørna" />
		<tag k="natural" v="water" />
		<tag k="ssr:stedsnr" v="280941" />
	</node>
	<node lat="59.846375003940985" lon="5.1301777697712625" id="-30576">
		<tag k="name" v="Gamlasætertjørna" />
		<tag k="natural" v="water" />
		<tag k="ssr:stedsnr" v="462182" />
	</node>
	<node lat="59.820031376155285" lon="5.224412399023265" id="-30585">
		<tag k="name" v="Midtfjellvatnet" />
		<tag k="natural" v="water" />
		<tag k="ssr:stedsnr" v="462142" />
		<tag k="water" v="lake" />
	</node>
	<node lat="59.8519499990425" lon="5.135102783947786" id="-30598">
		<tag k="name" v="Lauvkjer" />
		<tag k="place" v="islet" />
		<tag k="ssr:stedsnr" v="298623" />
	</node>
	<node lat="59.63241359531524" lon="5.238239735704068" id="-30619">
		<tag k="name" v="Andalstjørna" />
		<tag k="natural" v="water" />
		<tag k="ssr:stedsnr" v="306921" />
	</node>
	<node lat="59.77188690576753" lon="5.171918948434194" id="-30635">
		<tag k="name" v="Alsvågvatnet" />
		<tag k="natural" v="water" />
		<tag k="ssr:stedsnr" v="307618" />
	</node>
	<node lat="59.78895392111711" lon="5.208581719981535" id="-30636">
		<tag k="name" v="Raunavatnet" />
		<tag k="natural" v="water" />
		<tag k="ssr:stedsnr" v="307557" />
	</node>
	<node lat="59.80889638136079" lon="5.234939121545814" id="-30645">
		<tag k="alt_name" v="Drivildetjørna" />
		<tag k="name" v="Drivilletjørna" />
		<tag k="natural" v="water" />
		<tag k="ssr:stedsnr" v="307953" />
	</node>
	<node lat="59.82103055303031" lon="5.227450006114846" id="-30646">
		<tag k="name" v="Kråvatnet" />
		<tag k="natural" v="water" />
		<tag k="ssr:stedsnr" v="307967" />
	</node>
	<node lat="59.8422722220963" lon="5.096552778559019" id="-30673">
		<tag k="name" v="Litla Katlavatnet" />
		<tag k="natural" v="water" />
		<tag k="ssr:stedsnr" v="340223" />
		<tag k="water" v="lake" />
	</node>
	<node lat="59.80984722637443" lon="5.22926943533516" id="-30676">
		<tag k="name" v="Innværholmen" />
		<tag k="place" v="islet" />
		<tag k="ssr:stedsnr" v="340158" />
	</node>
	<node lat="59.617703011534125" lon="5.208597889471144" id="-30705">
		<tag k="name" v="Kvernavatnet" />
		<tag k="natural" v="water" />
		<tag k="ssr:stedsnr" v="345964" />
		<tag k="water" v="lake" />
	</node>
	<node lat="59.69426420099926" lon="5.115403672748689" id="-30710">
		<tag k="alt_name" v="Vatnet, nordra" />
		<tag k="name" v="Nordra Vatnet" />
		<tag k="natural" v="water" />
		<tag k="ssr:stedsnr" v="367479" />
	</node>
	<node lat="59.759722217957105" lon="5.275230557915167" id="-30766">
		<tag k="name" v="Brandaneset" />
		<tag k="natural" v="cape" />
		<tag k="ssr:stedsnr" v="404691" />
	</node>
	<node lat="59.71196772628707" lon="5.194219179168021" id="-30787">
		<tag k="alt_name" v="Krokavatnet, l;Litle Krokavatnet" />
		<tag k="name" v="Litla Krokavatnet" />
		<tag k="natural" v="water" />
		<tag k="ssr:stedsnr" v="488472" />
	</node>
	<node lat="59.62642318212213" lon="5.214821832594753" id="-30796">
		<tag k="name" v="Gåsavatnet" />
		<tag k="natural" v="water" />
		<tag k="ssr:stedsnr" v="488917" />
	</node>
	<node lat="59.64915555256741" lon="5.170099999203215" id="-30798">
		<tag k="name" v="Kattatjørna" />
		<tag k="natural" v="water" />
		<tag k="ssr:stedsnr" v="488877" />
	</node>
	<node lat="59.65315841102446" lon="5.166214939520616" id="-30800">
		<tag k="name" v="Bøtjørna" />
		<tag k="natural" v="water" />
		<tag k="ssr:stedsnr" v="488887" />
	</node>
	<node lat="59.76846356213579" lon="5.145516107535555" id="-30825">
		<tag k="name" v="Krokavatnet" />
		<tag k="natural" v="water" />
		<tag k="ssr:stedsnr" v="489630" />
	</node>
	<node lat="59.84251410056397" lon="5.208235394912921" id="-30828">
		<tag k="name" v="Mosavatnet" />
		<tag k="natural" v="water" />
		<tag k="ssr:stedsnr" v="489871" />
	</node>
	<node lat="59.84179193725046" lon="5.139341965431069" id="-30829">
		<tag k="name" v="Araskårvatnet" />
		<tag k="natural" v="water" />
		<tag k="ssr:stedsnr" v="489876" />
	</node>
	<node lat="59.81578397470258" lon="5.151970583239296" id="-30832">
		<tag k="name" v="Haldorsvatnet" />
		<tag k="natural" v="water" />
		<tag k="ssr:stedsnr" v="489959" />
	</node>
	<node lat="59.79959999645473" lon="5.232258338503404" id="-30852">
		<tag k="name" v="Stokkavatnet" />
		<tag k="natural" v="water" />
		<tag k="ssr:stedsnr" v="429507" />
	</node>
	<node lat="59.80978219046818" lon="5.081282959067504" id="-30860">
		<tag k="name" v="Hyttevikvatnet" />
		<tag k="natural" v="water" />
		<tag k="ssr:stedsnr" v="671225" />
	</node>
	<node lat="59.85200000270049" lon="5.129036112037491" id="-30882">
		<tag k="alt_name" v="Trædstjørna" />
		<tag k="name" v="Træstjørna" />
		<tag k="natural" v="water" />
		<tag k="ssr:stedsnr" v="671896" />
	</node>
	<node lat="59.695958335129546" lon="5.229130547786552" id="-30911">
		<tag k="name" v="Skjenahellertjørna" />
		<tag k="natural" v="water" />
		<tag k="ssr:stedsnr" v="466407" />
		<tag k="water" v="lake" />
	</node>
	<node lat="59.788766421843064" lon="5.240469374222692" id="-30941">
		<tag k="name" v="Kvernavatnet" />
		<tag k="natural" v="water" />
		<tag k="ssr:stedsnr" v="489538" />
	</node>
	<node lat="59.862965664559994" lon="5.19575844275718" id="-30942">
		<tag k="alt_name" v="Øykjadalsvatnet, nordre;Nordre Øykjadalsvatnet" />
		<tag k="name" v="Nordra Øykjadalsvatnet" />
		<tag k="natural" v="water" />
		<tag k="ssr:stedsnr" v="489903" />
	</node>
	<node lat="59.860534359292075" lon="5.126598125754334" id="-30943">
		<tag k="name" v="Langavatnet" />
		<tag k="natural" v="water" />
		<tag k="ssr:stedsnr" v="489907" />
	</node>
	<node lat="59.83526109076814" lon="5.222971325732019" id="-30948">
		<tag k="fixme" v="multiple name tags, choose one and add the other to alt_name" />
		<tag k="name" v="Klubbavatnet;Stora Klubbevatnet" />
		<tag k="natural" v="water" />
		<tag k="ssr:stedsnr" v="489996" />
	</node>
	<node lat="59.66024444337804" lon="5.234780560287032" id="-30969">
		<tag k="name" v="Tjørna" />
		<tag k="natural" v="water" />
		<tag k="ssr:stedsnr" v="525808" />
	</node>
	<node lat="59.659652744705674" lon="5.244716435752608" id="-30970">
		<tag k="name" v="Sønninga" />
		<tag k="natural" v="strait" />
		<tag k="ssr:stedsnr" v="525815" />
	</node>
	<node lat="59.7034611105165" lon="5.210355558228679" id="-30976">
		<tag k="name" v="Nedra Teigatjørna" />
		<tag k="natural" v="water" />
		<tag k="ssr:stedsnr" v="526723" />
		<tag k="water" v="pond" />
	</node>
	<node lat="59.70953448312207" lon="5.218092338878198" id="-31004">
		<tag k="name" v="Lyklingvatnet" />
		<tag k="natural" v="water" />
		<tag k="ssr:stedsnr" v="549498" />
		<tag k="water" v="lake" />
	</node>
	<node lat="59.864053544684836" lon="5.163735664644396" id="-31007">
		<tag k="name" v="Kvernavatnet" />
		<tag k="natural" v="water" />
		<tag k="ssr:stedsnr" v="549912" />
	</node>
	<node lat="59.6366042731005" lon="5.208047430417169" id="-31008">
		<tag k="alt_name" v="Lervika" />
		<tag k="name" v="Leirvika" />
		<tag k="natural" v="bay" />
		<tag k="ssr:stedsnr" v="549927" />
	</node>
	<node lat="59.89373168594343" lon="5.061473443145544" id="-31015">
		<tag k="alt_name" v="Langøyvatnet" />
		<tag k="name" v="Langavatnet" />
		<tag k="natural" v="water" />
		<tag k="ssr:stedsnr" v="550202" />
	</node>
	<node lat="59.89187190099198" lon="5.080554315527223" id="-31016">
		<tag k="name" v="Krokavatnet" />
		<tag k="natural" v="water" />
		<tag k="ssr:stedsnr" v="550207" />
	</node>
	<node lat="59.80288055270627" lon="5.205699996731419" id="-31018">
		<tag k="name" v="Lauvåstjørna" />
		<tag k="natural" v="water" />
		<tag k="ssr:stedsnr" v="550512" />
	</node>
	<node lat="59.76765749947569" lon="5.304192740468513" id="-31021">
		<tag k="name" v="Åstjørna" />
		<tag k="natural" v="water" />
		<tag k="ssr:stedsnr" v="550598" />
	</node>
	<node lat="59.67748333202674" lon="5.19514444349278" id="-31057">
		<tag k="name" v="Hovdatjørna" />
		<tag k="natural" v="water" />
		<tag k="ssr:stedsnr" v="585842" />
	</node>
	<node lat="59.76323889100189" lon="5.334694443495475" id="-31061">
		<tag k="name" v="Saltkarvika" />
		<tag k="natural" v="bay" />
		<tag k="ssr:stedsnr" v="586495" />
	</node>
	<node lat="59.654979380850044" lon="5.191428296425563" id="-31085">
		<tag k="name" v="Hagardsvatnet" />
		<tag k="natural" v="water" />
		<tag k="old_name" v="Hagagardsvatnet" />
		<tag k="ssr:stedsnr" v="609884" />
		<tag k="water" v="lake" />
	</node>
	<node lat="59.66981944751033" lon="5.225461102660609" id="-31089">
		<tag k="name" v="Kverneidet" />
		<tag k="place" v="locality" />
		<tag k="ssr:stedsnr" v="609981" />
	</node>
	<node lat="59.84978810170736" lon="5.143678048053319" id="-31102">
		<tag k="name" v="Jodalsvatnet" />
		<tag k="natural" v="water" />
		<tag k="ssr:stedsnr" v="610920" />
	</node>
	<node lat="59.8261609627508" lon="5.210272151230037" id="-31111">
		<tag k="name" v="Rundetjørna" />
		<tag k="natural" v="water" />
		<tag k="ssr:stedsnr" v="705185" />
	</node>
	<node lat="59.845665697469386" lon="5.119169781591058" id="-31116">
		<tag k="name" v="Mosavatnet" />
		<tag k="natural" v="water" />
		<tag k="ssr:stedsnr" v="705243" />
		<tag k="water" v="lake" />
	</node>
	<node lat="59.79633775472297" lon="5.243887216439304" id="-31135">
		<tag k="name" v="Kverntjørna" />
		<tag k="natural" v="water" />
		<tag k="ssr:stedsnr" v="705985" />
	</node>
	<node lat="59.822211113935694" lon="5.230422214447623" id="-31141">
		<tag k="name" v="Kvernavatnet" />
		<tag k="natural" v="water" />
		<tag k="ssr:stedsnr" v="643176" />
		<tag k="water" v="lake" />
	</node>
	<node lat="59.637374999357014" lon="5.239477781985228" id="-31146">
		<tag k="name" v="Stampebekken" />
		<tag k="ssr:stedsnr" v="644806" />
		<tag k="waterway" v="stream" />
	</node>
	<node lat="59.63337071939714" lon="5.197615823941094" id="-31173">
		<tag k="name" v="Bergesvatnet" />
		<tag k="natural" v="water" />
		<tag k="ssr:stedsnr" v="648995" />
		<tag k="water" v="lake" />
	</node>
	<node lat="59.75996912579829" lon="5.265539621753" id="-31178">
		<tag k="name" v="Vestra Nonshaugtjørna" />
		<tag k="natural" v="water" />
		<tag k="ssr:stedsnr" v="707696" />
		<tag k="water" v="lake" />
	</node>
	<node lat="59.63523746388339" lon="5.2229385031430065" id="-31216">
		<tag k="name" v="Andersvatnet" />
		<tag k="natural" v="water" />
		<tag k="ssr:stedsnr" v="670921" />
	</node>
	<node lat="59.67963012495258" lon="5.214275006021294" id="-31219">
		<tag k="name" v="Pikatjørna" />
		<tag k="natural" v="water" />
		<tag k="ssr:stedsnr" v="670990" />
	</node>
	<node lat="59.78080884075281" lon="5.286987854022834" id="-31225">
		<tag k="name" v="Steinsåsvatnet" />
		<tag k="natural" v="water" />
		<tag k="ssr:stedsnr" v="671522" />
	</node>
	<node lat="59.76404999985257" lon="5.271055548635997" id="-31234">
		<tag k="alt_name" v="Oldereid" />
		<tag k="name" v="Oldereidet" />
		<tag k="place" v="locality" />
		<tag k="ssr:stedsnr" v="671612" />
	</node>
	<node lat="59.68275555264795" lon="5.187913895969471" id="-31239">
		<tag k="name" v="Grutlevatnet" />
		<tag k="natural" v="water" />
		<tag k="ssr:stedsnr" v="671944" />
		<tag k="water" v="lake" />
	</node>
	<node lat="59.80877777662379" lon="5.227761104348761" id="-31262">
		<tag k="name" v="Skiftesvika" />
		<tag k="natural" v="bay" />
		<tag k="ssr:stedsnr" v="705160" />
	</node>
	<node lat="59.808663887740295" lon="5.224066657993056" id="-31263">
		<tag k="name" v="Dyrdalsvika" />
		<tag k="natural" v="bay" />
		<tag k="ssr:stedsnr" v="705161" />
	</node>
	<node lat="59.78792198335056" lon="5.2744769737990715" id="-31269">
		<tag k="name" v="Langåstjørna" />
		<tag k="natural" v="water" />
		<tag k="ssr:stedsnr" v="705827" />
	</node>
	<node lat="59.79435555793223" lon="5.170194441469875" id="-31273">
		<tag k="name" v="Kjølpa" />
		<tag k="natural" v="bay" />
		<tag k="ssr:stedsnr" v="705935" />
	</node>
	<node lat="59.79429444192794" lon="5.149180564225177" id="-31274">
		<tag k="name" v="Olatjørna" />
		<tag k="natural" v="water" />
		<tag k="ssr:stedsnr" v="705939" />
	</node>
	<node lat="59.6611555586798" lon="5.1740611157011145" id="-31280">
		<tag k="name" v="Kinnbekken" />
		<tag k="ssr:stedsnr" v="707880" />
		<tag k="waterway" v="stream" />
	</node>
	<node lat="59.85040000236158" lon="5.098172226361617" id="-31287">
		<tag k="name" v="Revurdetjørna" />
		<tag k="natural" v="water" />
		<tag k="ssr:stedsnr" v="709684" />
	</node>
	<node lat="59.748105557223106" lon="5.230088884827004" id="-31298">
		<tag k="name" v="Ingetjørna" />
		<tag k="natural" v="water" />
		<tag k="ssr:stedsnr" v="726999" />
		<tag k="water" v="lake" />
	</node>
	<node lat="59.83860277578895" lon="5.223691671443703" id="-31358">
		<tag k="name" v="Litla Klubbevatnet" />
		<tag k="natural" v="water" />
		<tag k="ssr:stedsnr" v="768315" />
	</node>
	<node lat="59.861972225412885" lon="5.0881999922291" id="-31369">
		<tag k="name" v="Brattebekken" />
		<tag k="ssr:stedsnr" v="769721" />
		<tag k="waterway" v="stream" />
	</node>
	<node lat="59.722247448072004" lon="5.192077113327473" id="-31390">
		<tag k="name" v="Forevatnet" />
		<tag k="natural" v="water" />
		<tag k="ssr:stedsnr" v="791496" />
	</node>
	<node lat="59.58470144195514" lon="5.192936602287087" id="-31395">
		<tag k="name" v="Kvernavatnet" />
		<tag k="natural" v="water" />
		<tag k="ssr:stedsnr" v="791750" />
	</node>
	<node lat="59.67641219805641" lon="5.188734491697292" id="-31397">
		<tag k="name" v="Fisketjørnane" />
		<tag k="natural" v="water" />
		<tag k="ssr:stedsnr" v="791989" />
	</node>
	<node lat="59.768159886936076" lon="5.230171327595883" id="-31402">
		<tag k="name" v="Smietjørna" />
		<tag k="natural" v="water" />
		<tag k="ssr:stedsnr" v="792586" />
	</node>
	<node lat="59.76970435961132" lon="5.292118562121416" id="-31403">
		<tag k="name" v="Holmedalsvatnet" />
		<tag k="natural" v="water" />
		<tag k="ssr:stedsnr" v="792592" />
	</node>
	<node lat="59.66899384845968" lon="5.191483110421282" id="-31405">
		<tag k="fixme" v="multiple name tags, choose one and add the other to alt_name" />
		<tag k="name" v="Fisketjørna;Syningstjørna" />
		<tag k="natural" v="water" />
		<tag k="ssr:stedsnr" v="792977" />
	</node>
	<node lat="59.84848011565624" lon="5.202477141183504" id="-31438">
		<tag k="name" v="Vindingsvatnet" />
		<tag k="natural" v="water" />
		<tag k="ssr:stedsnr" v="914889" />
	</node>
	<node lat="59.80683151625772" lon="5.158560169340271" id="-31440">
		<tag k="name" v="Pøyletjørna" />
		<tag k="natural" v="water" />
		<tag k="ssr:stedsnr" v="914952" />
	</node>
	<node lat="59.808497224848594" lon="5.208341661792066" id="-31459">
		<tag k="name" v="Rundeholmen" />
		<tag k="place" v="islet" />
		<tag k="ssr:stedsnr" v="826170" />
	</node>
	<node lat="59.77129773548938" lon="5.1473620080364295" id="-31463">
		<tag k="name" v="Raugavatnet" />
		<tag k="natural" v="water" />
		<tag k="ssr:stedsnr" v="827117" />
		<tag k="water" v="lake" />
	</node>
	<node lat="59.78307671007566" lon="5.205779027180065" id="-31471">
		<tag k="name" v="Grimstjørna" />
		<tag k="natural" v="water" />
		<tag k="ssr:stedsnr" v="827822" />
	</node>
	<node lat="59.790877470748136" lon="5.219060644537707" id="-31481">
		<tag k="name" v="Ulvavatnet" />
		<tag k="natural" v="water" />
		<tag k="ssr:stedsnr" v="827982" />
		<tag k="water" v="lake" />
	</node>
	<node lat="59.707459642791584" lon="5.224627232317952" id="-31496">
		<tag k="name" v="Mørkatjørna" />
		<tag k="natural" v="water" />
		<tag k="ssr:stedsnr" v="830732" />
	</node>
	<node lat="59.86186175210062" lon="5.1063172808316954" id="-31525">
		<tag k="name" v="Kjeravatnet" />
		<tag k="natural" v="water" />
		<tag k="ssr:stedsnr" v="853919" />
	</node>
	<node lat="59.59810555865415" lon="5.183100006870592" id="-31530">
		<tag k="name" v="Eidesvatnet" />
		<tag k="natural" v="water" />
		<tag k="ssr:stedsnr" v="853859" />
	</node>
	<node lat="59.813888889288684" lon="5.234711118691731" id="-31535">
		<tag k="alt_name" v="Vassbotnen" />
		<tag k="name" v="Vassbotn" />
		<tag k="natural" v="water" />
		<tag k="ssr:stedsnr" v="854948" />
	</node>
	<node lat="59.6239111150072" lon="5.237311105533496" id="-31558">
		<tag k="name" v="Grytene" />
		<tag k="natural" v="water" />
		<tag k="ssr:stedsnr" v="889932" />
		<tag k="water" v="lake" />
	</node>
	<node lat="59.69271944572254" lon="5.204405550436066" id="-31566">
		<tag k="name" v="Askosnvatnet" />
		<tag k="natural" v="water" />
		<tag k="ssr:stedsnr" v="891416" />
		<tag k="water" v="lake" />
	</node>
	<node lat="59.725707844753806" lon="5.23030263394261" id="-31569">
		<tag k="name" v="Fuglatjørna" />
		<tag k="natural" v="water" />
		<tag k="ssr:stedsnr" v="891554" />
	</node>
	<node lat="59.71243889016404" lon="5.359047221716838" id="-31575">
		<tag k="name" v="Ølkonebekken" />
		<tag k="ssr:stedsnr" v="891663" />
		<tag k="waterway" v="stream" />
	</node>
	<node lat="59.76434722668197" lon="5.26876388842365" id="-31580">
		<tag k="name" v="Oldereidet" />
		<tag k="place" v="locality" />
		<tag k="ssr:stedsnr" v="905854" />
	</node>
	<node lat="59.64079109893823" lon="5.178478183916948" id="-31598">
		<tag k="name" v="Vikavatnet" />
		<tag k="natural" v="water" />
		<tag k="ssr:stedsnr" v="913928" />
	</node>
	<node lat="59.68621733604881" lon="5.21087645906431" id="-31600">
		<tag k="name" v="Smikketjørnane" />
		<tag k="natural" v="water" />
		<tag k="ssr:stedsnr" v="913938" />
		<tag k="water" v="lake" />
	</node>
	<node lat="59.681471654605346" lon="5.220667362374047" id="-31603">
		<tag k="name" v="Askedalstjørna" />
		<tag k="natural" v="water" />
		<tag k="ssr:stedsnr" v="913943" />
	</node>
	<node lat="59.645275000544245" lon="5.22282222004408" id="-31605">
		<tag k="name" v="Bergeseidet" />
		<tag k="place" v="locality" />
		<tag k="ssr:stedsnr" v="913881" />
	</node>
	<node lat="59.678158332135894" lon="5.208558335555733" id="-31606">
		<tag k="alt_name" v="Mørkatjørna" />
		<tag k="name" v="Mørketjørna" />
		<tag k="natural" v="water" />
		<tag k="ssr:stedsnr" v="913991" />
	</node>
	<node lat="59.89592222015344" lon="5.073894436269978" id="-31608">
		<tag k="name" v="Såtemyrvatnet" />
		<tag k="natural" v="water" />
		<tag k="ssr:stedsnr" v="914207" />
	</node>
	<node lat="59.766778919877076" lon="5.24351305834198" id="-31613">
		<tag k="alt_name" v="Erlandsvatnet" />
		<tag k="name" v="Erslandsvatnet" />
		<tag k="natural" v="water" />
		<tag k="ssr:stedsnr" v="914626" />
		<tag k="water" v="lake" />
	</node>
	<node lat="59.76497008293234" lon="5.262359777896688" id="-31614">
		<tag k="name" v="Oldereidtjørna" />
		<tag k="natural" v="water" />
		<tag k="ssr:stedsnr" v="914628" />
	</node>
	<node lat="59.79669855240401" lon="5.205422136530844" id="-31637">
		<tag k="name" v="Stavlandstjørna" />
		<tag k="natural" v="water" />
		<tag k="ssr:stedsnr" v="948985" />
	</node>
	<node lat="59.62577777727706" lon="5.242586115566315" id="-31649">
		<tag k="name" v="Sagbekken" />
		<tag k="ssr:stedsnr" v="950931" />
		<tag k="waterway" v="stream" />
	</node>
	<node lat="59.676344448332415" lon="5.207041668130205" id="-31660">
		<tag k="name" v="Mørketjørnsbekken" />
		<tag k="ssr:stedsnr" v="969094" />
		<tag k="waterway" v="stream" />
	</node>
	<node lat="59.72847875203547" lon="5.336910300804475" id="-31667">
		<tag k="name" v="Seierstad" />
		<tag k="natural" v="cape" />
		<tag k="ssr:stedsnr" v="981432" />
	</node>
	<node lat="59.85663888946062" lon="5.133325004385084" id="-31697">
		<tag k="alt_name" v="Ånovatnet" />
		<tag k="name" v="Ånavatnet" />
		<tag k="natural" v="water" />
		<tag k="ssr:stedsnr" v="3894" />
	</node>
	<node lat="59.768424996642764" lon="5.2103444528942555" id="-31710">
		<tag k="name" v="Krokavatnet" />
		<tag k="natural" v="water" />
		<tag k="ssr:stedsnr" v="3578" />
	</node>
	<node lat="59.68303748184258" lon="5.17525078692108" id="-31715">
		<tag k="name" v="Fuglatjørna" />
		<tag k="natural" v="water" />
		<tag k="ssr:stedsnr" v="3949" />
	</node>
	<node lat="59.828027356844615" lon="5.167471842734631" id="-31725">
		<tag k="name" v="Stølavatnet" />
		<tag k="natural" v="water" />
		<tag k="ssr:stedsnr" v="4971" />
	</node>
	<node lat="59.80911666673493" lon="5.211291672988791" id="-31743">
		<tag k="name" v="Langholmen" />
		<tag k="place" v="islet" />
		<tag k="ssr:stedsnr" v="37179" />
	</node>
	<node lat="59.78020369904634" lon="5.149687690636205" id="-31749">
		<tag k="name" v="Hundatjørna" />
		<tag k="natural" v="water" />
		<tag k="ssr:stedsnr" v="38126" />
	</node>
	<node lat="59.61697500088079" lon="5.218144445727634" id="-31785">
		<tag k="name" v="Kvernabekken" />
		<tag k="ssr:stedsnr" v="42945" />
		<tag k="waterway" v="stream" />
	</node>
	<node lat="59.70993528700715" lon="5.192344209849912" id="-31798">
		<tag k="name" v="Krokavatnet" />
		<tag k="natural" v="water" />
		<tag k="ssr:stedsnr" v="64497" />
	</node>
	<node lat="59.737695897570696" lon="5.331550196915686" id="-31802">
		<tag k="name" v="Sundatjørna" />
		<tag k="natural" v="water" />
		<tag k="ssr:stedsnr" v="63597" />
	</node>
	<node lat="59.88729444014076" lon="5.074574996363487" id="-31854">
		<tag k="name" v="Lomatjørna" />
		<tag k="natural" v="water" />
		<tag k="ssr:stedsnr" v="97936" />
	</node>
	<node lat="59.65733055323384" lon="5.186861105874219" id="-31878">
		<tag k="name" v="Kolakjosen" />
		<tag k="natural" v="water" />
		<tag k="ssr:stedsnr" v="100852" />
		<tag k="water" v="lake" />
	</node>
	<node lat="59.681094440215006" lon="5.187980553145221" id="-31889">
		<tag k="name" v="Bukkholmen" />
		<tag k="place" v="islet" />
		<tag k="ssr:stedsnr" v="103058" />
	</node>
	<node lat="59.720472225528965" lon="5.183174992160627" id="-31902">
		<tag k="name" v="Visebekken" />
		<tag k="ssr:stedsnr" v="118713" />
		<tag k="waterway" v="stream" />
	</node>
	<node lat="59.69763937598523" lon="5.2101367069842315" id="-31910">
		<tag k="name" v="Sætravatnet" />
		<tag k="natural" v="water" />
		<tag k="ssr:stedsnr" v="124477" />
	</node>
	<node lat="59.62358333703501" lon="5.189661118852102" id="-31925">
		<tag k="name" v="Stampevatnet" />
		<tag k="natural" v="water" />
		<tag k="ssr:stedsnr" v="124806" />
	</node>
	<node lat="59.859909556092326" lon="5.098810287679525" id="-31945">
		<tag k="alt_name" v="Skålavikevatnet" />
		<tag k="name" v="Skålavikvatnet" />
		<tag k="natural" v="water" />
		<tag k="ssr:stedsnr" v="125921" />
		<tag k="water" v="lake" />
	</node>
	<node lat="59.81617777809612" lon="5.186900000215035" id="-31977">
		<tag k="name" v="Perabekken" />
		<tag k="ssr:stedsnr" v="158244" />
		<tag k="waterway" v="stream" />
	</node>
	<node lat="59.826173755841076" lon="5.1511777384207305" id="-31986">
		<tag k="name" v="Steganestjørna" />
		<tag k="natural" v="water" />
		<tag k="ssr:stedsnr" v="159864" />
	</node>
	<node lat="59.864124997865545" lon="5.183577776781058" id="-31991">
		<tag k="name" v="Viervatnet" />
		<tag k="natural" v="water" />
		<tag k="ssr:stedsnr" v="159890" />
		<tag k="water" v="lake" />
	</node>
	<node lat="59.79361388651358" lon="5.163986104744234" id="-31997">
		<tag k="name" v="Årosen" />
		<tag k="natural" v="bay" />
		<tag k="ssr:stedsnr" v="159973" />
	</node>
	<node lat="59.689177998666146" lon="5.170544972069459" id="-32042">
		<tag k="name" v="Svartavatnet" />
		<tag k="natural" v="water" />
		<tag k="ssr:stedsnr" v="185496" />
	</node>
	<node lat="59.669461111127816" lon="5.205011119276573" id="-32063">
		<tag k="name" v="Sagvasstangen" />
		<tag k="natural" v="cape" />
		<tag k="ssr:stedsnr" v="185965" />
	</node>
	<node lat="59.67210000223079" lon="5.210452768884194" id="-32065">
		<tag k="name" v="Sagvatnet" />
		<tag k="natural" v="water" />
		<tag k="ssr:stedsnr" v="185984" />
		<tag k="water" v="lake" />
	</node>
	<node lat="59.81302311897675" lon="5.187616232607574" id="-32072">
		<tag k="name" v="Dyrvatnet" />
		<tag k="natural" v="water" />
		<tag k="ssr:stedsnr" v="186942" />
	</node>
	<node lat="59.820794448230586" lon="5.2124777800049005" id="-32073">
		<tag k="name" v="Vadet" />
		<tag k="natural" v="water" />
		<tag k="ssr:stedsnr" v="186960" />
	</node>
	<node lat="59.77448362588922" lon="5.174820657722428" id="-32114">
		<tag k="name" v="Hopatjørna" />
		<tag k="natural" v="water" />
		<tag k="ssr:stedsnr" v="220855" />
	</node>
	<node lat="59.789444016808176" lon="5.144269160142516" id="-32118">
		<tag k="name" v="Barnartjørna" />
		<tag k="natural" v="water" />
		<tag k="ssr:stedsnr" v="220941" />
	</node>
	<node lat="59.84801666737264" lon="5.193752785334394" id="-32124">
		<tag k="name" v="Vindingsvatn" />
		<tag k="natural" v="water" />
		<tag k="ssr:stedsnr" v="222319" />
	</node>
	<node lat="59.820124413669454" lon="5.180849982063775" id="-32175">
		<tag k="name" v="Sætratjørna" />
		<tag k="natural" v="water" />
		<tag k="ssr:stedsnr" v="281892" />
	</node>
	<node lat="59.66326694930228" lon="5.1806892482094575" id="-32177">
		<tag k="alt_name" v="Stampe" />
		<tag k="name" v="Stampevatnet" />
		<tag k="natural" v="water" />
		<tag k="ssr:stedsnr" v="282841" />
		<tag k="water" v="lake" />
	</node>
	<node lat="59.60245833068888" lon="5.23777777456076" id="-32181">
		<tag k="name" v="Mekjeretjørna" />
		<tag k="natural" v="water" />
		<tag k="ssr:stedsnr" v="283892" />
	</node>
	<node lat="59.68080728031147" lon="5.180825823970664" id="-32191">
		<tag k="name" v="Vassneset" />
		<tag k="natural" v="cape" />
		<tag k="ssr:stedsnr" v="285054" />
	</node>
	<node lat="59.68016148291693" lon="5.1844448258372005" id="-32226">
		<tag k="name" v="Lindesnes" />
		<tag k="natural" v="cape" />
		<tag k="ssr:stedsnr" v="306945" />
	</node>
	<node lat="59.84991111368289" lon="5.179255548777399" id="-32239">
		<tag k="alt_name" v="Aulesvatnet" />
		<tag k="name" v="Auilsvatnet" />
		<tag k="natural" v="water" />
		<tag k="ssr:stedsnr" v="307881" />
	</node>
	<node lat="59.85505833543204" lon="5.20083889489716" id="-32240">
		<tag k="name" v="Brakadalsvatnet" />
		<tag k="natural" v="water" />
		<tag k="ssr:stedsnr" v="307882" />
	</node>
	<node lat="59.82426388962609" lon="5.2462388957079735" id="-32243">
		<tag k="alt_name" v="Litlatjørna" />
		<tag k="name" v="Litlatjørn" />
		<tag k="natural" v="water" />
		<tag k="ssr:stedsnr" v="307973" />
	</node>
	<node lat="59.85635278043678" lon="5.120236105437433" id="-32245">
		<tag k="name" v="Holmvatnet" />
		<tag k="natural" v="water" />
		<tag k="ssr:stedsnr" v="308539" />
	</node>
	<node lat="59.812038885268926" lon="5.228608342198471" id="-32263">
		<tag k="name" v="Otrastokken" />
		<tag k="natural" v="cape" />
		<tag k="ssr:stedsnr" v="340164" />
	</node>
	<node lat="59.82042194775087" lon="5.17379027398219" id="-32283">
		<tag k="name" v="Ramnaflogstjørna" />
		<tag k="natural" v="water" />
		<tag k="ssr:stedsnr" v="341882" />
	</node>
	<node lat="59.803164647085424" lon="5.2396983257852465" id="-32287">
		<tag k="name" v="Aunavatnet" />
		<tag k="natural" v="water" />
		<tag k="ssr:stedsnr" v="341986" />
		<tag k="water" v="lake" />
	</node>
	<node lat="59.69108610802895" lon="5.197724995120429" id="-32291">
		<tag k="name" v="Sæbjørnsvatnet" />
		<tag k="natural" v="water" />
		<tag k="ssr:stedsnr" v="345448" />
		<tag k="water" v="lake" />
	</node>
	<node lat="59.62090833739293" lon="5.211811104440241" id="-32296">
		<tag k="name" v="Steinloppetjørna" />
		<tag k="natural" v="water" />
		<tag k="ssr:stedsnr" v="343956" />
		<tag k="water" v="lake" />
	</node>
	<node lat="59.706322482291384" lon="5.217465230874318" id="-32305">
		<tag k="name" v="Søra Lyklingvatnet" />
		<tag k="natural" v="water" />
		<tag k="ssr:stedsnr" v="344737" />
		<tag k="water" v="lake" />
	</node>
	<node lat="59.583958335471486" lon="5.196774993240321" id="-32321">
		<tag k="name" v="Løkene" />
		<tag k="natural" v="water" />
		<tag k="ssr:stedsnr" v="360554" />
		<tag k="water" v="lake" />
	</node>
</osm>
