<?xml version="1.0" encoding="UTF-8"?>
<osm generator="osmapis" version="0.6">
	<node id="-594686" lat="59.6548027774" lon="5.16741388294">
		<tag k="name" v="Stormyra" />
		<tag k="natural" v="wetland" />
		<tag k="ssr:stedsnr" v="888783" />
	</node>
	<node id="-593562" lat="59.6803166673" lon="5.34428333021">
		<tag k="name" v="Ramnsurda" />
		<tag k="natural" v="scree" />
		<tag k="ssr:stedsnr" v="223290" />
	</node>
	<node id="-594394" lat="59.7981194439" lon="5.21852777307">
		<tag k="name" v="Blindingestølen" />
		<tag k="place" v="locality" />
		<tag k="ssr:stedsnr" v="523979" />
	</node>
	<node id="-593881" lat="59.7985277761" lon="5.25857500383">
		<tag k="historic" v="shieling" />
		<tag k="name" v="Brendeseter" />
		<tag k="place" v="locality" />
		<tag k="ssr:stedsnr" v="281829" />
	</node>
	<node id="-594806" lat="59.8212027765" lon="5.17061943919">
		<tag k="historic" v="shieling" />
		<tag k="name" v="Laurhammarsetre" />
		<tag k="place" v="locality" />
		<tag k="ssr:stedsnr" v="766856" />
	</node>
	<node id="-594452" lat="59.8162527757" lon="5.19079999535">
		<tag k="name" v="Storhaugmarka" />
		<tag k="place" v="locality" />
		<tag k="ssr:stedsnr" v="705874" />
	</node>
	<node id="-594031" lat="59.8295694456" lon="5.20432222314">
		<tag k="historic" v="shieling" />
		<tag k="name" v="Nilsasætret" />
		<tag k="place" v="locality" />
		<tag k="ssr:stedsnr" v="464333" />
	</node>
	<node id="-593518" lat="59.642702774" lon="5.17048333057">
		<tag k="name" v="Lakreimyra" />
		<tag k="natural" v="wetland" />
		<tag k="ssr:stedsnr" v="219827" />
	</node>
	<node id="-594444" lat="59.6390111084" lon="5.17054721583">
		<tag k="name" v="Stormyra" />
		<tag k="natural" v="wetland" />
		<tag k="ssr:stedsnr" v="705845" />
	</node>
	<node id="-593643" lat="59.62565" lon="5.19235833354">
		<tag k="name" v="Luddemyra" />
		<tag k="natural" v="wetland" />
		<tag k="ssr:stedsnr" v="42983" />
	</node>
	<node id="-593609" lat="59.7842250039" lon="5.18055833355">
		<tag k="historic" v="shieling" />
		<tag k="name" v="Kvernastølane" />
		<tag k="place" v="locality" />
		<tag k="ssr:stedsnr" v="38853" />
	</node>
	<node id="-594671" lat="59.8002611099" lon="5.30048055772">
		<tag k="historic" v="shieling" />
		<tag k="name" v="Høgestølen" />
		<tag k="place" v="locality" />
		<tag k="ssr:stedsnr" v="887789" />
	</node>
	<node id="-593772" lat="59.8895249966" lon="5.14180833584">
		<tag k="name" v="Jakobsjorda" />
		<tag k="place" v="locality" />
		<tag k="ssr:stedsnr" v="118616" />
	</node>
</osm>
