<?xml version="1.0" encoding="UTF-8"?>
<osm generator="osmapis" version="0.6">
	<node id="-589238" lat="62.9239444438" lon="6.67698055959">
		<tag k="name" v="Indre Stauran" />
		<tag k="natural" v="shoal" />
		<tag k="place" v="locality" />
		<tag k="ssr:stedsnr" v="960919" />
	</node>
	<node id="-589237" lat="62.8144194438" lon="6.77818332842">
		<tag k="name" v="Rognålsholmen" />
		<tag k="place" v="islet" />
		<tag k="ssr:stedsnr" v="960089" />
	</node>
	<node id="-589236" lat="62.8103194402" lon="6.73060832923">
		<tag k="name" v="Værtaren" />
		<tag k="place" v="locality" />
		<tag k="seamark:type" v="rock" />
		<tag k="ssr:stedsnr" v="960085" />
	</node>
	<node id="-589235" lat="62.8637929883" lon="6.87332515966">
		<tag k="fixme" v="consider seamark:type=rock or natural=shoal" />
		<tag k="name" v="Skarveskjæret" />
		<tag k="old_name" v="Skarveskjeret" />
		<tag k="place" v="islet" />
		<tag k="ssr:stedsnr" v="957592" />
	</node>
	<node id="-589234" lat="62.7695472209" lon="6.97981388951">
		<tag k="name" v="Seterbukta" />
		<tag k="natural" v="bay" />
		<tag k="ssr:stedsnr" v="957582" />
	</node>
	<node id="-589233" lat="62.7898277769" lon="6.72899167125">
		<tag k="fixme" v="consider seamark:type=rock or natural=shoal" />
		<tag k="name" v="Økseskaftet" />
		<tag k="place" v="islet" />
		<tag k="ssr:stedsnr" v="956632" />
	</node>
	<node id="-589232" lat="62.8944111152" lon="6.70387776804">
		<tag k="name" v="Ytre Svartskjærflua" />
		<tag k="natural" v="shoal" />
		<tag k="place" v="locality" />
		<tag k="ssr:stedsnr" v="956631" />
	</node>
	<node id="-589229" lat="62.8446472212" lon="6.92092223169">
		<tag k="name" v="Ridderskaret" />
		<tag k="natural" v="valley" />
		<tag k="place" v="locality" />
		<tag k="ssr:stedsnr" v="947843" />
	</node>
	<node id="-589228" lat="62.7834694413" lon="6.87665555734">
		<tag k="name" v="Solvik" />
		<tag k="place" v="farm" />
		<tag k="ssr:stedsnr" v="946900" />
	</node>
	<node id="-589227" lat="62.7808555558" lon="6.87235278023">
		<tag k="name" v="Steinshaugen" />
		<tag k="natural" v="hill" />
		<tag k="place" v="locality" />
		<tag k="ssr:stedsnr" v="946896" />
	</node>
	<node id="-589226" lat="62.8419166676" lon="6.89779445009">
		<tag k="name" v="Litlesporsemhaugen" />
		<tag k="natural" v="hill" />
		<tag k="place" v="locality" />
		<tag k="ssr:stedsnr" v="946834" />
	</node>
	<node id="-589225" lat="62.8318416691" lon="6.87664721575">
		<tag k="name" v="Maursethaugen" />
		<tag k="natural" v="hill" />
		<tag k="place" v="locality" />
		<tag k="ssr:stedsnr" v="946796" />
	</node>
	<node id="-589224" lat="62.8241499991" lon="6.88435832571">
		<tag k="name" v="Hestholen" />
		<tag k="place" v="farm" />
		<tag k="ssr:stedsnr" v="946791" />
	</node>
	<node id="-589223" lat="62.7999444461" lon="6.82908888765">
		<tag k="name" v="Naustneshaugan" />
		<tag k="natural" v="hill" />
		<tag k="place" v="locality" />
		<tag k="ssr:stedsnr" v="946733" />
	</node>
	<node id="-589222" lat="62.7991888891" lon="6.82606943808">
		<tag k="name" v="Fiskeberga" />
		<tag k="natural" v="hill" />
		<tag k="place" v="locality" />
		<tag k="ssr:stedsnr" v="946732" />
	</node>
	<node id="-589221" lat="62.7826472221" lon="6.86376110428">
		<tag k="name" v="Falkoren" />
		<tag k="natural" v="hill" />
		<tag k="place" v="locality" />
		<tag k="ssr:stedsnr" v="946667" />
	</node>
	<node id="-589220" lat="62.7598027822" lon="6.89582778409">
		<tag k="name" v="Forholmdjupet" />
		<tag k="place" v="locality" />
		<tag k="ssr:stedsnr" v="946397" />
	</node>
	<node id="-589219" lat="62.8538972217" lon="6.92117222818">
		<tag k="name" v="Ørnehaugen" />
		<tag k="natural" v="hill" />
		<tag k="place" v="locality" />
		<tag k="ssr:stedsnr" v="946354" />
	</node>
	<node id="-589218" lat="62.8541666646" lon="6.90774722866">
		<tag k="name" v="Kjerringholmen" />
		<tag k="place" v="islet" />
		<tag k="ssr:stedsnr" v="946348" />
	</node>
	<node id="-589217" lat="62.8583444403" lon="6.91134445441">
		<tag k="name" v="Storværbukta" />
		<tag k="place" v="islet" />
		<tag k="ssr:stedsnr" v="946343" />
	</node>
	<node id="-589216" lat="62.8586305527" lon="6.87552778227">
		<tag k="fixme" v="consider seamark:type=rock or natural=shoal" />
		<tag k="name" v="Rumpeskjeret" />
		<tag k="place" v="islet" />
		<tag k="ssr:stedsnr" v="946332" />
	</node>
	<node id="-589215" lat="62.8381944454" lon="6.78355555756">
		<tag k="fixme" v="consider seamark:type=rock or natural=shoal" />
		<tag k="name" v="Dyrholmskjeret" />
		<tag k="place" v="islet" />
		<tag k="ssr:stedsnr" v="946325" />
	</node>
	<node id="-589214" lat="62.8431944414" lon="6.83318889494">
		<tag k="name" v="Varhaugen" />
		<tag k="natural" v="hill" />
		<tag k="place" v="locality" />
		<tag k="ssr:stedsnr" v="946315" />
	</node>
	<node id="-589213" lat="62.8064444411" lon="6.83143610177">
		<tag k="name" v="Halhaugen" />
		<tag k="natural" v="hill" />
		<tag k="place" v="locality" />
		<tag k="ssr:stedsnr" v="946307" />
	</node>
	<node id="-589212" lat="62.8046416694" lon="6.86008887891">
		<tag k="name" v="Myrvang" />
		<tag k="place" v="farm" />
		<tag k="ssr:stedsnr" v="946301" />
	</node>
	<node id="-589211" lat="62.8049833305" lon="6.80794999259">
		<tag k="name" v="Bulegen" />
		<tag k="place" v="locality" />
		<tag k="ssr:stedsnr" v="946297" />
	</node>
	<node id="-589210" lat="62.8050722241" lon="6.77399723089">
		<tag k="name" v="Geitaskallen" />
		<tag k="natural" v="hill" />
		<tag k="place" v="locality" />
		<tag k="ssr:stedsnr" v="946164" />
	</node>
	<node id="-589209" lat="62.8689972213" lon="6.76388610195">
		<tag k="name" v="Kula" />
		<tag k="place" v="islet" />
		<tag k="ssr:stedsnr" v="946088" />
	</node>
	<node id="-589208" lat="62.8306527776" lon="6.79461389478">
		<tag k="fixme" v="consider seamark:type=rock or natural=shoal" />
		<tag k="name" v="Øyran" />
		<tag k="place" v="islet" />
		<tag k="ssr:stedsnr" v="946052" />
	</node>
	<node id="-589207" lat="62.8088722253" lon="6.80371666699">
		<tag k="name" v="Korsbøen" />
		<tag k="place" v="farm" />
		<tag k="ssr:stedsnr" v="946039" />
	</node>
	<node id="-589206" lat="62.8461694438" lon="6.90527777853">
		<tag k="name" v="Skallebakken" />
		<tag k="natural" v="slope" />
		<tag k="place" v="locality" />
		<tag k="ssr:stedsnr" v="946037" />
	</node>
	<node id="-589205" lat="62.7983722237" lon="6.79574721771">
		<tag k="fixme" v="consider seamark:type=rock or natural=shoal" />
		<tag k="name" v="Normørskjeret" />
		<tag k="place" v="islet" />
		<tag k="ssr:stedsnr" v="946033" />
	</node>
	<node id="-589204" lat="62.8468499997" lon="6.87981388768">
		<tag k="alt_name" v="Munkeflua" />
		<tag k="name" v="Munken" />
		<tag k="place" v="locality" />
		<tag k="seamark:type" v="rock" />
		<tag k="ssr:stedsnr" v="946030" />
	</node>
	<node id="-589203" lat="62.8037111136" lon="6.74812500226">
		<tag k="fixme" v="consider seamark:type=rock or natural=shoal" />
		<tag k="name" v="Kjølingskjera" />
		<tag k="place" v="islet" />
		<tag k="ssr:stedsnr" v="946031" />
	</node>
	<node id="-589202" lat="62.8076611114" lon="6.75521667305">
		<tag k="fixme" v="consider seamark:type=rock or natural=shoal" />
		<tag k="name" v="Lamholmskjera" />
		<tag k="place" v="islet" />
		<tag k="ssr:stedsnr" v="946029" />
	</node>
	<node id="-589201" lat="62.8477444478" lon="6.88645555329">
		<tag k="name" v="Timannholet" />
		<tag k="place" v="locality" />
		<tag k="ssr:stedsnr" v="946020" />
	</node>
	<node id="-589200" lat="62.8008000019" lon="6.80831389331">
		<tag k="name" v="Litle Leirholmen" />
		<tag k="place" v="islet" />
		<tag k="ssr:stedsnr" v="945515" />
	</node>
	<node id="-589199" lat="62.837469448" lon="6.79861110598">
		<tag k="name" v="Litle Obersthaugen" />
		<tag k="natural" v="hill" />
		<tag k="place" v="locality" />
		<tag k="ssr:stedsnr" v="945359" />
	</node>
	<node id="-589198" lat="62.7592749969" lon="7.00024721909">
		<tag k="name" v="Eiskrem" />
		<tag k="place" v="farm" />
		<tag k="ssr:stedsnr" v="945164" />
	</node>
	<node id="-589197" lat="62.8485333309" lon="6.93389444547">
		<tag k="name" v="Pikhaugen" />
		<tag k="natural" v="hill" />
		<tag k="place" v="locality" />
		<tag k="ssr:stedsnr" v="945149" />
	</node>
	<node id="-589196" lat="62.8408444469" lon="6.93678611815">
		<tag k="name" v="Tollhaugen" />
		<tag k="natural" v="hill" />
		<tag k="place" v="locality" />
		<tag k="ssr:stedsnr" v="945140" />
	</node>
	<node id="-589195" lat="62.7665138891" lon="7.01355556184">
		<tag k="name" v="Medvollelva" />
		<tag k="ssr:stedsnr" v="945131" />
		<tag k="waterway" v="stream" />
	</node>
	<node id="-589194" lat="62.833838887" lon="6.95643889113">
		<tag k="name" v="Fluvikneset" />
		<tag k="natural" v="cape" />
		<tag k="ssr:stedsnr" v="945071" />
	</node>
	<node id="-589193" lat="62.7860694423" lon="6.88356944116">
		<tag k="name" v="Gjerdet" />
		<tag k="place" v="farm" />
		<tag k="ssr:stedsnr" v="922826" />
	</node>
	<node id="-589192" lat="62.7925472251" lon="6.79032221229">
		<tag k="name" v="Søre Helløya" />
		<tag k="place" v="islet" />
		<tag k="ssr:stedsnr" v="922808" />
	</node>
	<node id="-589191" lat="62.7889342452" lon="6.78049139536">
		<tag k="name" v="Austre Risøya" />
		<tag k="place" v="islet" />
		<tag k="ssr:stedsnr" v="922806" />
	</node>
	<node id="-589190" lat="62.7935472207" lon="6.90201666824">
		<tag k="name" v="Hukkelberget" />
		<tag k="place" v="farm" />
		<tag k="ssr:stedsnr" v="922804" />
	</node>
	<node id="-589189" lat="62.7884638869" lon="6.86314167106">
		<tag k="alt_name" v="Hjertvikbukta" />
		<tag k="name" v="Hjertvika" />
		<tag k="natural" v="bay" />
		<tag k="ssr:stedsnr" v="922803" />
	</node>
	<node id="-589188" lat="62.8006194409" lon="6.93988333548">
		<tag k="name" v="Nørdholmen" />
		<tag k="place" v="islet" />
		<tag k="ssr:stedsnr" v="922764" />
	</node>
	<node id="-589187" lat="62.8055361126" lon="6.86035277385">
		<tag k="name" v="Elvebakken" />
		<tag k="place" v="farm" />
		<tag k="ssr:stedsnr" v="922753" />
	</node>
	<node id="-589186" lat="62.8132861082" lon="6.89670555265">
		<tag k="name" v="Nerbøvågen" />
		<tag k="natural" v="bay" />
		<tag k="ssr:stedsnr" v="922754" />
	</node>
	<node id="-589185" lat="62.8017888844" lon="6.74297777686">
		<tag k="name" v="Kjølingen" />
		<tag k="place" v="islet" />
		<tag k="ssr:stedsnr" v="922748" />
	</node>
	<node id="-589184" lat="62.8738555582" lon="6.67370278474">
		<tag k="fixme" v="consider seamark:type=rock or natural=shoal" />
		<tag k="name" v="Kløvningen" />
		<tag k="place" v="islet" />
		<tag k="ssr:stedsnr" v="922387" />
	</node>
	<node id="-589183" lat="62.8640916697" lon="6.71582221298">
		<tag k="fixme" v="consider seamark:type=rock or natural=shoal" />
		<tag k="name" v="Krabben" />
		<tag k="place" v="islet" />
		<tag k="ssr:stedsnr" v="922383" />
	</node>
	<node id="-589182" lat="62.8495722225" lon="6.96023056033">
		<tag k="name" v="Ørnehaugen" />
		<tag k="natural" v="hill" />
		<tag k="place" v="locality" />
		<tag k="ssr:stedsnr" v="922214" />
	</node>
	<node id="-589181" lat="62.8491277757" lon="6.91288889535">
		<tag k="name" v="Heilohaugan" />
		<tag k="place" v="farm" />
		<tag k="ssr:stedsnr" v="922209" />
	</node>
	<node id="-589180" lat="62.8372083296" lon="6.84978334242">
		<tag k="name" v="Løvikhaugen" />
		<tag k="place" v="farm" />
		<tag k="ssr:stedsnr" v="922187" />
	</node>
	<node id="-589179" lat="62.7701671072" lon="6.75275032393">
		<tag k="fixme" v="consider seamark:type=rock or natural=shoal" />
		<tag k="name" v="Bleia" />
		<tag k="place" v="islet" />
		<tag k="ssr:stedsnr" v="921835" />
	</node>
	<node id="-589178" lat="62.7790777765" lon="6.85472500513">
		<tag k="name" v="Kalvøya" />
		<tag k="place" v="islet" />
		<tag k="ssr:stedsnr" v="921833" />
	</node>
	<node id="-589177" lat="62.9185583307" lon="6.68144166773">
		<tag k="fixme" v="consider seamark:type=rock or natural=shoal" />
		<tag k="name" v="Kobbekippen" />
		<tag k="place" v="islet" />
		<tag k="ssr:stedsnr" v="921328" />
	</node>
	<node id="-589176" lat="62.8579611087" lon="6.86881388338">
		<tag k="name" v="Lyngholmen" />
		<tag k="place" v="islet" />
		<tag k="ssr:stedsnr" v="921243" />
	</node>
	<node id="-589175" lat="62.8790555546" lon="6.76754999334">
		<tag k="name" v="Orholmbogan" />
		<tag k="natural" v="shoal" />
		<tag k="place" v="locality" />
		<tag k="ssr:stedsnr" v="921178" />
	</node>
	<node id="-589174" lat="62.8629500021" lon="6.69467777049">
		<tag k="bay" v="fjord" />
		<tag k="name" v="Saltsteinsleia" />
		<tag k="natural" v="bay" />
		<tag k="ssr:stedsnr" v="921177" />
	</node>
	<node id="-589173" lat="62.863521628" lon="6.74174437224">
		<tag k="fixme" v="multiple name tags, choose one and add the other to alt_name" />
		<tag k="name" v="Litle Grøningen;Litle Orsholmen" />
		<tag k="place" v="islet" />
		<tag k="ssr:stedsnr" v="921133" />
	</node>
	<node id="-589172" lat="62.8671944472" lon="6.92817778668">
		<tag k="name" v="Sessholmen" />
		<tag k="place" v="islet" />
		<tag k="ssr:stedsnr" v="921126" />
	</node>
	<node id="-589171" lat="62.9136166652" lon="6.68508333616">
		<tag k="fixme" v="consider seamark:type=rock or natural=shoal" />
		<tag k="name" v="Klimpekippen" />
		<tag k="place" v="islet" />
		<tag k="ssr:stedsnr" v="900924" />
	</node>
	<node id="-589170" lat="62.7763305524" lon="6.74674999307">
		<tag k="name" v="Søre Langflua" />
		<tag k="natural" v="shoal" />
		<tag k="place" v="locality" />
		<tag k="ssr:stedsnr" v="900094" />
	</node>
	<node id="-589169" lat="62.7791666624" lon="6.7697638969">
		<tag k="name" v="Rørsetflua" />
		<tag k="natural" v="shoal" />
		<tag k="place" v="locality" />
		<tag k="ssr:stedsnr" v="900092" />
	</node>
	<node id="-589168" lat="62.8494944471" lon="6.76810554655">
		<tag k="name" v="Søre Jakteflua" />
		<tag k="place" v="locality" />
		<tag k="seamark:type" v="rock" />
		<tag k="ssr:stedsnr" v="900073" />
	</node>
	<node id="-589167" lat="62.8442666643" lon="6.88364722702">
		<tag k="name" v="Liksteinen" />
		<tag k="place" v="locality" />
		<tag k="seamark:type" v="rock" />
		<tag k="ssr:stedsnr" v="899846" />
	</node>
	<node id="-589166" lat="62.8450249989" lon="6.93249443895">
		<tag k="bridge" v="yes" />
		<tag k="layer" v="1" />
		<tag k="name" v="Seterelvbrua" />
		<tag k="ssr:stedsnr" v="879151" />
	</node>
	<node id="-589165" lat="62.8533083304" lon="6.89626666258">
		<tag k="fixme" v="consider seamark:type=rock or natural=shoal" />
		<tag k="name" v="Landruta" />
		<tag k="place" v="islet" />
		<tag k="ssr:stedsnr" v="870479" />
	</node>
	<node id="-589164" lat="62.8153888972" lon="6.92612586589">
		<tag k="name" v="Nerbøstranda" />
		<tag k="place" v="farm" />
		<tag k="ssr:stedsnr" v="870476" />
	</node>
	<node id="-589163" lat="62.7579990022" lon="6.99945337653">
		<tag k="fixme" v="consider place=hamlet" />
		<tag k="name" v="Eiskrem" />
		<tag k="place" v="farm" />
		<tag k="ssr:stedsnr" v="862870" />
	</node>
	<node id="-589162" lat="62.7616361125" lon="7.02078611035">
		<tag k="name" v="Storlia" />
		<tag k="natural" v="slope" />
		<tag k="place" v="locality" />
		<tag k="ssr:stedsnr" v="862869" />
	</node>
	<node id="-589161" lat="62.7768138885" lon="6.97073056446">
		<tag k="name" v="Hollingsholmen" />
		<tag k="place" v="islet" />
		<tag k="ssr:stedsnr" v="861863" />
	</node>
	<node id="-589160" lat="62.7747805517" lon="6.99858056335">
		<tag k="name" v="Bergetippen" />
		<tag k="natural" v="hill" />
		<tag k="place" v="locality" />
		<tag k="ssr:stedsnr" v="861856" />
	</node>
	<node id="-589159" lat="62.7841138886" lon="6.89253334297">
		<tag k="name" v="Halingshaugen" />
		<tag k="natural" v="hill" />
		<tag k="place" v="locality" />
		<tag k="ssr:stedsnr" v="861847" />
	</node>
	<node id="-589158" lat="62.7944388847" lon="6.84752778579">
		<tag k="name" v="Småsundet" />
		<tag k="place" v="isolated_dwelling" />
		<tag k="ssr:stedsnr" v="861829" />
	</node>
	<node id="-589157" lat="62.7997138888" lon="6.89343888622">
		<tag k="amenity" v="nursing_home" />
		<tag k="name" v="Aukraheimen" />
		<tag k="ssr:stedsnr" v="861807" />
	</node>
	<node id="-589156" lat="62.8122499981" lon="6.74472777537">
		<tag k="name" v="Bekkerholmen" />
		<tag k="place" v="islet" />
		<tag k="ssr:stedsnr" v="861786" />
	</node>
	<node id="-589155" lat="62.7957166695" lon="6.72274999801">
		<tag k="fixme" v="consider seamark:type=rock or natural=shoal" />
		<tag k="name" v="Kvitskjæra" />
		<tag k="place" v="islet" />
		<tag k="ssr:stedsnr" v="861782" />
	</node>
	<node id="-589154" lat="62.8179277743" lon="6.81473888061">
		<tag k="name" v="Solemsjøen" />
		<tag k="place" v="farm" />
		<tag k="ssr:stedsnr" v="861764" />
	</node>
	<node id="-589153" lat="62.8173777747" lon="6.80422223131">
		<tag k="fixme" v="consider place=hamlet" />
		<tag k="name" v="Røssøyvågen" />
		<tag k="place" v="village" />
		<tag k="ssr:stedsnr" v="861763" />
	</node>
	<node id="-589152" lat="62.8304277778" lon="6.9016666653">
		<tag k="name" v="Bø" />
		<tag k="place" v="farm" />
		<tag k="ssr:stedsnr" v="861744" />
	</node>
	<node id="-589151" lat="62.8463222213" lon="6.86817499086">
		<tag k="name" v="Vedaholmen" />
		<tag k="place" v="islet" />
		<tag k="ssr:stedsnr" v="861206" />
	</node>
	<node id="-589150" lat="62.8434388905" lon="6.86046665834">
		<tag k="name" v="Landholmen" />
		<tag k="place" v="islet" />
		<tag k="ssr:stedsnr" v="861205" />
	</node>
	<node id="-589149" lat="62.8389444409" lon="6.89176944711">
		<tag k="name" v="Nyheim" />
		<tag k="place" v="farm" />
		<tag k="ssr:stedsnr" v="861198" />
	</node>
	<node id="-589148" lat="62.8388999959" lon="6.88220555763">
		<tag k="name" v="Vassdalen" />
		<tag k="place" v="farm" />
		<tag k="ssr:stedsnr" v="861199" />
	</node>
	<node id="-589147" lat="62.841674997" lon="6.93359167127">
		<tag k="name" v="Skarset" />
		<tag k="place" v="farm" />
		<tag k="ssr:stedsnr" v="861170" />
	</node>
	<node id="-589146" lat="62.8542638904" lon="6.805202785">
		<tag k="name" v="Stokkholmtaren" />
		<tag k="natural" v="shoal" />
		<tag k="place" v="locality" />
		<tag k="ssr:stedsnr" v="839785" />
	</node>
	<node id="-589145" lat="62.8713111098" lon="6.66261667572">
		<tag k="fixme" v="consider seamark:type=rock or natural=shoal" />
		<tag k="name" v="Synnøvskjæret" />
		<tag k="place" v="islet" />
		<tag k="ssr:stedsnr" v="836563" />
	</node>
	<node id="-589144" lat="62.7840805593" lon="6.80015277489">
		<tag k="fixme" v="consider seamark:type=rock or natural=shoal" />
		<tag k="name" v="Orholmskjæra" />
		<tag k="place" v="islet" />
		<tag k="ssr:stedsnr" v="835623" />
	</node>
	<node id="-589143" lat="62.7811611084" lon="6.87539722192">
		<tag k="name" v="Hestberget" />
		<tag k="natural" v="hill" />
		<tag k="place" v="locality" />
		<tag k="ssr:stedsnr" v="825893" />
	</node>
	<node id="-589142" lat="62.8383111132" lon="6.89594444268">
		<tag k="name" v="Måshaugen" />
		<tag k="natural" v="hill" />
		<tag k="place" v="locality" />
		<tag k="ssr:stedsnr" v="825855" />
	</node>
	<node id="-589141" lat="62.8398583316" lon="6.90762777571">
		<tag k="name" v="Orhaugen" />
		<tag k="natural" v="hill" />
		<tag k="place" v="locality" />
		<tag k="ssr:stedsnr" v="825846" />
	</node>
	<node id="-589140" lat="62.8375972198" lon="6.90467777168">
		<tag k="name" v="Tømmerhaugen" />
		<tag k="natural" v="hill" />
		<tag k="place" v="locality" />
		<tag k="ssr:stedsnr" v="825843" />
	</node>
	<node id="-589139" lat="62.8366999965" lon="6.90141388077">
		<tag k="name" v="Pilan" />
		<tag k="natural" v="wetland" />
		<tag k="ssr:stedsnr" v="825827" />
	</node>
	<node id="-589138" lat="62.7552666653" lon="6.99714166368">
		<tag k="name" v="Reitan" />
		<tag k="ssr:stedsnr" v="825727" />
		<tag k="waterway" v="stream" />
	</node>
	<node id="-589137" lat="62.8375555553" lon="6.76813332418">
		<tag k="fixme" v="consider seamark:type=rock or natural=shoal" />
		<tag k="name" v="Lyngskjeret" />
		<tag k="place" v="islet" />
		<tag k="ssr:stedsnr" v="825411" />
	</node>
	<node id="-589136" lat="62.8568166626" lon="6.92785833534">
		<tag k="name" v="Skatsundbukta" />
		<tag k="natural" v="bay" />
		<tag k="ssr:stedsnr" v="825344" />
	</node>
	<node id="-589135" lat="62.8397638914" lon="6.77827777616">
		<tag k="fixme" v="consider seamark:type=rock or natural=shoal" />
		<tag k="name" v="Korreskjeret" />
		<tag k="place" v="islet" />
		<tag k="ssr:stedsnr" v="825330" />
	</node>
	<node id="-589134" lat="62.8316861075" lon="6.86151389381">
		<tag k="name" v="Korshaugan" />
		<tag k="natural" v="hill" />
		<tag k="place" v="locality" />
		<tag k="ssr:stedsnr" v="825323" />
	</node>
	<node id="-589133" lat="62.8056805552" lon="6.86045278567">
		<tag k="name" v="Elvestad" />
		<tag k="place" v="farm" />
		<tag k="ssr:stedsnr" v="825299" />
	</node>
	<node id="-589132" lat="62.7800111128" lon="6.87103611218">
		<tag k="name" v="Steinaholmen" />
		<tag k="place" v="islet" />
		<tag k="ssr:stedsnr" v="825231" />
	</node>
	<node id="-589131" lat="62.8062833333" lon="6.85358611107">
		<tag k="name" v="Flatset" />
		<tag k="place" v="farm" />
		<tag k="ssr:stedsnr" v="825214" />
	</node>
	<node id="-589130" lat="62.8496444458" lon="6.81719999123">
		<tag k="name" v="Røyrvikhaugen" />
		<tag k="natural" v="hill" />
		<tag k="place" v="locality" />
		<tag k="ssr:stedsnr" v="825152" />
	</node>
	<node id="-589129" lat="62.8483611096" lon="6.8899694541">
		<tag k="fixme" v="consider seamark:type=rock or natural=shoal" />
		<tag k="name" v="Knubben" />
		<tag k="place" v="islet" />
		<tag k="ssr:stedsnr" v="825026" />
	</node>
	<node id="-589128" lat="62.8473638847" lon="6.89453611182">
		<tag k="name" v="Løkvika" />
		<tag k="natural" v="bay" />
		<tag k="ssr:stedsnr" v="825020" />
	</node>
	<node id="-589126" lat="62.7944611072" lon="6.90843611387">
		<tag k="name" v="Kleiva" />
		<tag k="natural" v="valley" />
		<tag k="place" v="locality" />
		<tag k="ssr:stedsnr" v="824877" />
	</node>
	<node id="-589125" lat="62.8173166667" lon="6.91080276913">
		<tag k="name" v="Nerbøvika" />
		<tag k="natural" v="bay" />
		<tag k="ssr:stedsnr" v="824707" />
	</node>
	<node id="-589124" lat="62.8201944448" lon="6.90827777349">
		<tag k="name" v="Eindalen" />
		<tag k="place" v="farm" />
		<tag k="ssr:stedsnr" v="824708" />
	</node>
	<node id="-589123" lat="62.790302782" lon="6.85086110501">
		<tag k="name" v="Vardberga" />
		<tag k="natural" v="hill" />
		<tag k="place" v="locality" />
		<tag k="ssr:stedsnr" v="824683" />
	</node>
	<node id="-589122" lat="62.8014333329" lon="6.8091138835">
		<tag k="name" v="Store Leirholmen" />
		<tag k="place" v="islet" />
		<tag k="ssr:stedsnr" v="824573" />
	</node>
	<node id="-589121" lat="62.8325361074" lon="6.80009722267">
		<tag k="name" v="Lurvika" />
		<tag k="natural" v="bay" />
		<tag k="ssr:stedsnr" v="824424" />
	</node>
	<node id="-589120" lat="62.8471166694" lon="6.82846110422">
		<tag k="name" v="Litlerøyrvika" />
		<tag k="natural" v="bay" />
		<tag k="ssr:stedsnr" v="824269" />
	</node>
	<node id="-589119" lat="62.7581000014" lon="7.03665555893">
		<tag k="name" v="Prestseterhaugen" />
		<tag k="natural" v="hill" />
		<tag k="place" v="locality" />
		<tag k="ssr:stedsnr" v="824212" />
	</node>
	<node id="-589118" lat="62.8170194447" lon="6.79907777817">
		<tag k="name" v="Røssøyvågen" />
		<tag k="natural" v="bay" />
		<tag k="ssr:stedsnr" v="824079" />
	</node>
	<node id="-589117" lat="62.8134638883" lon="6.79410556053">
		<tag k="name" v="Grønhaugen" />
		<tag k="natural" v="hill" />
		<tag k="place" v="locality" />
		<tag k="ssr:stedsnr" v="824073" />
	</node>
	<node id="-589116" lat="62.8068250041" lon="6.76282499549">
		<tag k="fixme" v="consider seamark:type=rock or natural=shoal" />
		<tag k="name" v="Møsprømhatten" />
		<tag k="place" v="islet" />
		<tag k="ssr:stedsnr" v="824070" />
	</node>
	<node id="-589115" lat="62.7908166643" lon="6.79083612064">
		<tag k="name" v="Meøya" />
		<tag k="place" v="islet" />
		<tag k="ssr:stedsnr" v="824063" />
	</node>
	<node id="-589114" lat="62.7767805597" lon="6.97293333238">
		<tag k="amenity" v="ferry_terminal" />
		<tag k="name" v="Hollingsholmen ferjekai" />
		<tag k="ssr:stedsnr" v="823311" />
	</node>
	<node id="-589113" lat="62.775555553" lon="6.99160000478">
		<tag k="bridge" v="yes" />
		<tag k="layer" v="1" />
		<tag k="name" v="Hollingsbrua" />
		<tag k="ssr:stedsnr" v="818226" />
	</node>
	<node id="-589112" lat="62.7829249987" lon="6.87156111195">
		<tag k="name" v="Storhaugen" />
		<tag k="natural" v="hill" />
		<tag k="place" v="locality" />
		<tag k="ssr:stedsnr" v="801812" />
	</node>
	<node id="-589111" lat="62.7958166671" lon="6.80237500542">
		<tag k="name" v="Ospholmen" />
		<tag k="place" v="islet" />
		<tag k="ssr:stedsnr" v="801796" />
	</node>
	<node id="-589110" lat="62.8396166663" lon="6.95007777525">
		<tag k="name" v="Korsberget" />
		<tag k="natural" v="hill" />
		<tag k="place" v="locality" />
		<tag k="ssr:stedsnr" v="801179" />
	</node>
	<node id="-589109" lat="62.7777277736" lon="6.90390555701">
		<tag k="name" v="Aukratangen" />
		<tag k="natural" v="cape" />
		<tag k="ssr:stedsnr" v="800838" />
	</node>
	<node id="-589108" lat="62.778447223" lon="7.0020583377">
		<tag k="name" v="Åshaugen" />
		<tag k="natural" v="hill" />
		<tag k="place" v="locality" />
		<tag k="ssr:stedsnr" v="800839" />
	</node>
	<node id="-589107" lat="62.7801166638" lon="6.88946667387">
		<tag k="name" v="Breivika" />
		<tag k="place" v="farm" />
		<tag k="ssr:stedsnr" v="800820" />
	</node>
	<node id="-589106" lat="62.8038527736" lon="6.87018610948">
		<tag k="name" v="Myrbø" />
		<tag k="place" v="farm" />
		<tag k="ssr:stedsnr" v="800782" />
	</node>
	<node id="-589105" lat="62.7981333329" lon="6.84900555545">
		<tag k="name" v="Horremsbakken" />
		<tag k="place" v="farm" />
		<tag k="ssr:stedsnr" v="800783" />
	</node>
	<node id="-589104" lat="62.8100222234" lon="6.91465834063">
		<tag k="name" v="Halsan" />
		<tag k="natural" v="cape" />
		<tag k="ssr:stedsnr" v="800773" />
	</node>
	<node id="-589103" lat="62.8117972195" lon="6.90356110183">
		<tag k="name" v="Nautneset" />
		<tag k="place" v="farm" />
		<tag k="ssr:stedsnr" v="800771" />
	</node>
	<node id="-589102" lat="62.8154916636" lon="6.88581110239">
		<tag k="name" v="Bakkemyra" />
		<tag k="place" v="farm" />
		<tag k="ssr:stedsnr" v="800751" />
	</node>
	<node id="-589101" lat="62.8133499979" lon="6.77647500622">
		<tag k="name" v="Teistholmbukta" />
		<tag k="natural" v="bay" />
		<tag k="ssr:stedsnr" v="800750" />
	</node>
	<node id="-589100" lat="62.8253555552" lon="6.88314166109">
		<tag k="name" v="Hatthaugremma" />
		<tag k="place" v="farm" />
		<tag k="ssr:stedsnr" v="800732" />
	</node>
	<node id="-589099" lat="62.8243166629" lon="6.86128611028">
		<tag k="name" v="Haugland" />
		<tag k="place" v="farm" />
		<tag k="ssr:stedsnr" v="800728" />
	</node>
	<node id="-589098" lat="62.8885777768" lon="6.68493334264">
		<tag k="fixme" v="consider seamark:type=rock or natural=shoal" />
		<tag k="name" v="Måskjæra" />
		<tag k="place" v="islet" />
		<tag k="ssr:stedsnr" v="800324" />
	</node>
	<node id="-589097" lat="62.9328083376" lon="6.69237500534">
		<tag k="name" v="Ytre Kjerringfluin" />
		<tag k="natural" v="shoal" />
		<tag k="place" v="locality" />
		<tag k="ssr:stedsnr" v="800316" />
	</node>
	<node id="-589096" lat="62.9252166642" lon="6.64484166456">
		<tag k="name" v="Finnen" />
		<tag k="natural" v="shoal" />
		<tag k="place" v="locality" />
		<tag k="ssr:stedsnr" v="800317" />
	</node>
	<node id="-589095" lat="62.9058138892" lon="6.69729444419">
		<tag k="name" v="Straumskjæra" />
		<tag k="natural" v="shoal" />
		<tag k="place" v="locality" />
		<tag k="ssr:stedsnr" v="800308" />
	</node>
	<node id="-589094" lat="62.8517194451" lon="6.95916667048">
		<tag k="name" v="Kongsholmen" />
		<tag k="place" v="islet" />
		<tag k="ssr:stedsnr" v="800231" />
	</node>
	<node id="-589093" lat="62.7692472261" lon="6.87004167445">
		<tag k="fixme" v="consider seamark:type=rock or natural=shoal" />
		<tag k="name" v="Rendelen" />
		<tag k="place" v="islet" />
		<tag k="ssr:stedsnr" v="778117" />
	</node>
	<node id="-589092" lat="62.8231388853" lon="6.77028055079">
		<tag k="name" v="Stortaren" />
		<tag k="natural" v="shoal" />
		<tag k="place" v="locality" />
		<tag k="ssr:stedsnr" v="778094" />
	</node>
	<node id="-589091" lat="62.7937666705" lon="6.81843611301">
		<tag k="fixme" v="consider seamark:type=rock or natural=shoal" />
		<tag k="name" v="Landholmskjæra" />
		<tag k="place" v="islet" />
		<tag k="ssr:stedsnr" v="775494" />
	</node>
	<node id="-589090" lat="62.9191805513" lon="6.71175000791">
		<tag k="fixme" v="consider seamark:type=rock or natural=shoal" />
		<tag k="name" v="Matskjæret" />
		<tag k="place" v="islet" />
		<tag k="ssr:stedsnr" v="775479" />
	</node>
	<node id="-589089" lat="62.8520044446" lon="6.75754525142">
		<tag k="name" v="Årholmskjæret" />
		<tag k="natural" v="shoal" />
		<tag k="place" v="locality" />
		<tag k="ssr:stedsnr" v="774637" />
	</node>
	<node id="-589088" lat="62.8445666655" lon="6.85427499919">
		<tag k="fixme" v="consider seamark:type=rock or natural=shoal" />
		<tag k="name" v="Hjellskjæret" />
		<tag k="place" v="islet" />
		<tag k="ssr:stedsnr" v="773515" />
	</node>
	<node id="-589087" lat="62.8428277737" lon="6.88023333827">
		<tag k="fixme" v="consider seamark:type=rock or natural=shoal" />
		<tag k="name" v="Fiskeskjeret" />
		<tag k="place" v="islet" />
		<tag k="ssr:stedsnr" v="764810" />
	</node>
	<node id="-589086" lat="62.7749944445" lon="6.89279444555">
		<tag k="name" v="Kjerkeberget" />
		<tag k="natural" v="cape" />
		<tag k="ssr:stedsnr" v="764436" />
	</node>
	<node id="-589085" lat="62.844652776" lon="6.79944166041">
		<tag k="name" v="Rishaugvatnet" />
		<tag k="natural" v="water" />
		<tag k="ssr:stedsnr" v="764374" />
	</node>
	<node id="-589084" lat="62.8314194429" lon="6.83688056214">
		<tag k="name" v="Halingshaugen" />
		<tag k="natural" v="hill" />
		<tag k="place" v="locality" />
		<tag k="ssr:stedsnr" v="764361" />
	</node>
	<node id="-589083" lat="62.815388893" lon="6.80691943601">
		<tag k="name" v="Skomakaren" />
		<tag k="natural" v="hill" />
		<tag k="place" v="locality" />
		<tag k="ssr:stedsnr" v="764352" />
	</node>
	<node id="-589082" lat="62.8391388866" lon="6.82350278709">
		<tag k="name" v="Litlerisstølen" />
		<tag k="place" v="locality" />
		<tag k="ssr:stedsnr" v="764350" />
	</node>
	<node id="-589081" lat="62.8074361102" lon="6.85003055823">
		<tag k="name" v="Storhaugen" />
		<tag k="natural" v="hill" />
		<tag k="place" v="locality" />
		<tag k="ssr:stedsnr" v="764339" />
	</node>
	<node id="-589080" lat="62.7772166628" lon="6.88593055116">
		<tag k="alt_name" v="Degerhalsen" />
		<tag k="name" v="Digerhalsen" />
		<tag k="natural" v="cape" />
		<tag k="ssr:stedsnr" v="764249" />
	</node>
	<node id="-589079" lat="62.7800499985" lon="6.9942111102">
		<tag k="name" v="Tausahaugen" />
		<tag k="natural" v="hill" />
		<tag k="place" v="locality" />
		<tag k="ssr:stedsnr" v="764245" />
	</node>
	<node id="-589078" lat="62.7866638921" lon="6.99269722855">
		<tag k="name" v="Storelva" />
		<tag k="ssr:stedsnr" v="764243" />
		<tag k="waterway" v="stream" />
	</node>
	<node id="-589077" lat="62.78178056" lon="6.98225555464">
		<tag k="name" v="Langehaugan" />
		<tag k="natural" v="hill" />
		<tag k="place" v="locality" />
		<tag k="ssr:stedsnr" v="764233" />
	</node>
	<node id="-589076" lat="62.8481527752" lon="6.91120555595">
		<tag k="name" v="Myrhola" />
		<tag k="natural" v="valley" />
		<tag k="place" v="locality" />
		<tag k="ssr:stedsnr" v="764058" />
	</node>
	<node id="-589075" lat="62.8466500003" lon="6.90590277461">
		<tag k="name" v="Langåkerhaugen" />
		<tag k="natural" v="hill" />
		<tag k="place" v="locality" />
		<tag k="ssr:stedsnr" v="764044" />
	</node>
	<node id="-589074" lat="62.8462750009" lon="6.89091110241">
		<tag k="name" v="Jektholmen" />
		<tag k="natural" v="hill" />
		<tag k="place" v="locality" />
		<tag k="ssr:stedsnr" v="764034" />
	</node>
	<node id="-589073" lat="62.777136114" lon="6.98297222668">
		<tag k="name" v="Løken" />
		<tag k="place" v="locality" />
		<tag k="ssr:stedsnr" v="764021" />
	</node>
	<node id="-589072" lat="62.7972555572" lon="6.82831389554">
		<tag k="name" v="Landholmsundet" />
		<tag k="natural" v="strait" />
		<tag k="ssr:stedsnr" v="763739" />
	</node>
	<node id="-589071" lat="62.7990166694" lon="6.814422219">
		<tag k="name" v="Drågsundet" />
		<tag k="natural" v="strait" />
		<tag k="ssr:stedsnr" v="763580" />
	</node>
	<node id="-589070" lat="62.8049694423" lon="6.80024444247">
		<tag k="name" v="Landholmen" />
		<tag k="place" v="islet" />
		<tag k="ssr:stedsnr" v="763573" />
	</node>
	<node id="-589069" lat="62.8097777817" lon="6.80922777762">
		<tag k="name" v="Skaret" />
		<tag k="natural" v="valley" />
		<tag k="place" v="locality" />
		<tag k="ssr:stedsnr" v="763337" />
	</node>
	<node id="-589068" lat="62.7749333306" lon="7.02499443856">
		<tag k="name" v="Seterberget" />
		<tag k="natural" v="hill" />
		<tag k="place" v="locality" />
		<tag k="ssr:stedsnr" v="763241" />
	</node>
	<node id="-589067" lat="62.8564055544" lon="6.84559443658">
		<tag k="fixme" v="consider seamark:type=rock or natural=shoal" />
		<tag k="name" v="Håskjera" />
		<tag k="place" v="islet" />
		<tag k="ssr:stedsnr" v="763233" />
	</node>
	<node id="-589066" lat="62.8360638881" lon="6.94200277704">
		<tag k="name" v="Bolletehaugen" />
		<tag k="natural" v="hill" />
		<tag k="place" v="locality" />
		<tag k="ssr:stedsnr" v="763180" />
	</node>
	<node id="-589065" lat="62.846833331" lon="6.90996943526">
		<tag k="name" v="Ausphaugen" />
		<tag k="natural" v="hill" />
		<tag k="place" v="locality" />
		<tag k="ssr:stedsnr" v="763142" />
	</node>
	<node id="-589064" lat="62.8451777795" lon="6.91068889642">
		<tag k="name" v="Vommamyra" />
		<tag k="natural" v="wetland" />
		<tag k="ssr:stedsnr" v="763135" />
	</node>
	<node id="-589063" lat="62.766669446" lon="7.03159444278">
		<tag k="name" v="Urdalen" />
		<tag k="natural" v="valley" />
		<tag k="place" v="locality" />
		<tag k="ssr:stedsnr" v="763134" />
	</node>
	<node id="-589062" lat="62.8784138889" lon="6.75758610356">
		<tag k="alt_name" v="Orholmbogan" />
		<tag k="fixme" v="consider seamark:type=rock or natural=shoal" />
		<tag k="name" v="Bogane" />
		<tag k="place" v="islet" />
		<tag k="ssr:stedsnr" v="763108" />
	</node>
	<node id="-589061" lat="62.8355972265" lon="6.95478333894">
		<tag k="name" v="Eikremsbukta" />
		<tag k="natural" v="bay" />
		<tag k="ssr:stedsnr" v="763085" />
	</node>
	<node id="-589060" lat="62.8252249994" lon="6.962119443">
		<tag k="name" v="Hogsneset" />
		<tag k="natural" v="cape" />
		<tag k="ssr:stedsnr" v="763080" />
	</node>
	<node id="-589059" lat="62.79377222" lon="6.7935749997">
		<tag k="name" v="Helløysundet" />
		<tag k="natural" v="strait" />
		<tag k="ssr:stedsnr" v="763042" />
	</node>
	<node id="-589058" lat="62.8175666691" lon="6.93991666295">
		<tag k="name" v="Blom" />
		<tag k="place" v="isolated_dwelling" />
		<tag k="ssr:stedsnr" v="763006" />
	</node>
	<node id="-589057" lat="62.7976000037" lon="6.85162777651">
		<tag k="bridge" v="yes" />
		<tag k="layer" v="1" />
		<tag k="name" v="Bakkebrua" />
		<tag k="ssr:stedsnr" v="757212" />
	</node>
	<node id="-589056" lat="62.8177499982" lon="6.8065888832">
		<tag k="bridge" v="yes" />
		<tag k="layer" v="1" />
		<tag k="name" v="Røssøyvågbrua" />
		<tag k="ssr:stedsnr" v="757157" />
	</node>
	<node id="-589055" lat="62.9079305575" lon="6.72869167047">
		<tag k="name" v="Fausken" />
		<tag k="natural" v="shoal" />
		<tag k="place" v="locality" />
		<tag k="ssr:stedsnr" v="741107" />
	</node>
	<node id="-589054" lat="62.769201142" lon="6.98950591928">
		<tag k="fixme" v="consider place=hamlet" />
		<tag k="name" v="Fangholen" />
		<tag k="place" v="farm" />
		<tag k="ssr:stedsnr" v="740854" />
	</node>
	<node id="-589053" lat="62.7909944428" lon="6.91804443552">
		<tag k="name" v="Aukrasanden" />
		<tag k="place" v="village" />
		<tag k="ssr:stedsnr" v="740808" />
	</node>
	<node id="-589052" lat="62.8348166685" lon="6.9129805508">
		<tag k="name" v="Dalset" />
		<tag k="place" v="farm" />
		<tag k="ssr:stedsnr" v="740201" />
	</node>
	<node id="-589051" lat="62.8330944417" lon="6.77979722923">
		<tag k="fixme" v="consider seamark:type=rock or natural=shoal" />
		<tag k="name" v="Sandskjæret" />
		<tag k="place" v="islet" />
		<tag k="ssr:stedsnr" v="740199" />
	</node>
	<node id="-589050" lat="62.786641663" lon="6.98546389834">
		<tag k="name" v="Jendemsbukta" />
		<tag k="natural" v="bay" />
		<tag k="ssr:stedsnr" v="739843" />
	</node>
	<node id="-589049" lat="62.8046111098" lon="6.87403610241">
		<tag k="name" v="Elstad" />
		<tag k="place" v="farm" />
		<tag k="ssr:stedsnr" v="739819" />
	</node>
	<node id="-589048" lat="62.8025333352" lon="6.87722777749">
		<tag k="name" v="Bergheim" />
		<tag k="place" v="farm" />
		<tag k="ssr:stedsnr" v="739817" />
	</node>
	<node id="-589047" lat="62.831166666" lon="6.91321943898">
		<tag k="name" v="Bjørkeset" />
		<tag k="place" v="farm" />
		<tag k="ssr:stedsnr" v="739769" />
	</node>
	<node id="-589046" lat="62.8452499986" lon="6.9595555588">
		<tag k="name" v="Futvika" />
		<tag k="place" v="isolated_dwelling" />
		<tag k="ssr:stedsnr" v="739225" />
	</node>
	<node id="-589045" lat="62.8510361075" lon="6.91082777494">
		<tag k="name" v="Setervika" />
		<tag k="place" v="farm" />
		<tag k="ssr:stedsnr" v="739216" />
	</node>
	<node id="-589044" lat="62.8468912253" lon="6.78557393398">
		<tag k="name" v="Hestholmen" />
		<tag k="place" v="islet" />
		<tag k="ssr:stedsnr" v="739213" />
	</node>
	<node id="-589043" lat="62.914041669" lon="6.72491110439">
		<tag k="name" v="Guttormtaren" />
		<tag k="natural" v="shoal" />
		<tag k="place" v="locality" />
		<tag k="ssr:stedsnr" v="718875" />
	</node>
	<node id="-589042" lat="62.9863916637" lon="6.52633334306">
		<tag k="name" v="Lauvneset" />
		<tag k="natural" v="shoal" />
		<tag k="place" v="locality" />
		<tag k="ssr:stedsnr" v="717381" />
	</node>
	<node id="-589041" lat="62.7900305513" lon="6.7515472228">
		<tag k="fixme" v="consider seamark:type=rock or natural=shoal" />
		<tag k="name" v="Nørdre Økseskaftet" />
		<tag k="place" v="islet" />
		<tag k="ssr:stedsnr" v="717078" />
	</node>
	<node id="-589040" lat="62.7799777786" lon="6.75578333475">
		<tag k="name" v="Nørdre Langflua" />
		<tag k="natural" v="shoal" />
		<tag k="place" v="locality" />
		<tag k="ssr:stedsnr" v="717075" />
	</node>
	<node id="-589039" lat="62.8589472231" lon="6.94621388449">
		<tag k="fixme" v="consider seamark:type=rock or natural=shoal" />
		<tag k="name" v="Selnesskjæret" />
		<tag k="place" v="islet" />
		<tag k="ssr:stedsnr" v="714580" />
	</node>
	<node id="-589038" lat="62.8633694429" lon="6.73280556226">
		<tag k="name" v="Orsholmsundet" />
		<tag k="natural" v="strait" />
		<tag k="ssr:stedsnr" v="714538" />
	</node>
	<node id="-589037" lat="62.7717444436" lon="6.77389167102">
		<tag k="fixme" v="consider seamark:type=rock or natural=shoal" />
		<tag k="name" v="Austre Midtfjordskjæret" />
		<tag k="place" v="islet" />
		<tag k="ssr:stedsnr" v="712533" />
	</node>
	<node id="-589036" lat="62.9218250027" lon="6.68347222758">
		<tag k="fixme" v="consider seamark:type=rock or natural=shoal" />
		<tag k="name" v="Knutskjæret" />
		<tag k="place" v="islet" />
		<tag k="ssr:stedsnr" v="712513" />
	</node>
	<node id="-589034" lat="62.8175666691" lon="6.93991666295">
		<tag k="alt_name" v="Hjermstad" />
		<tag k="name" v="Hjermannstad" />
		<tag k="place" v="farm" />
		<tag k="ssr:stedsnr" v="708384" />
	</node>
	<node id="-589032" lat="62.7806361107" lon="6.88374722651">
		<tag k="name" v="Kleivahammaren" />
		<tag k="natural" v="hill" />
		<tag k="place" v="locality" />
		<tag k="ssr:stedsnr" v="703903" />
	</node>
	<node id="-589031" lat="62.7520416681" lon="6.99641388666">
		<tag k="name" v="Eiskremramnfloget" />
		<tag k="natural" v="cliff" />
		<tag k="ssr:stedsnr" v="703759" />
	</node>
	<node id="-589030" lat="62.783950003" lon="6.86475832493">
		<tag k="name" v="Likstadberget" />
		<tag k="natural" v="hill" />
		<tag k="place" v="locality" />
		<tag k="ssr:stedsnr" v="703701" />
	</node>
	<node id="-589029" lat="62.8526000013" lon="6.89994722325">
		<tag k="name" v="Landholmen" />
		<tag k="place" v="islet" />
		<tag k="ssr:stedsnr" v="703406" />
	</node>
	<node id="-589028" lat="62.8522972256" lon="6.88733055775">
		<tag k="name" v="Grøneholmen" />
		<tag k="place" v="islet" />
		<tag k="ssr:stedsnr" v="703407" />
	</node>
	<node id="-589027" lat="62.8357305525" lon="6.85876111957">
		<tag k="name" v="Buneset" />
		<tag k="natural" v="cape" />
		<tag k="ssr:stedsnr" v="703394" />
	</node>
	<node id="-589026" lat="62.8069638845" lon="6.83646943834">
		<tag k="name" v="Smågeleiren" />
		<tag k="place" v="farm" />
		<tag k="ssr:stedsnr" v="703384" />
	</node>
	<node id="-589025" lat="62.8055805531" lon="6.9034250093">
		<tag k="name" v="Varhaugvika" />
		<tag k="natural" v="bay" />
		<tag k="ssr:stedsnr" v="703379" />
	</node>
	<node id="-589024" lat="62.8034194417" lon="6.81194722387">
		<tag k="name" v="Kvalen" />
		<tag k="place" v="islet" />
		<tag k="ssr:stedsnr" v="703372" />
	</node>
	<node id="-589023" lat="62.7808666703" lon="7.01435556443">
		<tag k="name" v="Trondslia" />
		<tag k="natural" v="slope" />
		<tag k="place" v="locality" />
		<tag k="ssr:stedsnr" v="703313" />
	</node>
	<node id="-589022" lat="62.7627805548" lon="7.01257499434">
		<tag k="historic" v="shieling" />
		<tag k="name" v="Eiskremsetra" />
		<tag k="place" v="locality" />
		<tag k="ssr:stedsnr" v="703149" />
	</node>
	<node id="-589021" lat="62.8773972243" lon="6.77943610694">
		<tag k="alt_name" v="Skipsskjeret" />
		<tag k="name" v="Skipsskjæret" />
		<tag k="place" v="islet" />
		<tag k="ssr:stedsnr" v="703098" />
	</node>
	<node id="-589020" lat="62.853108336" lon="6.76880555969">
		<tag k="fixme" v="consider seamark:type=rock or natural=shoal" />
		<tag k="name" v="Jekta" />
		<tag k="place" v="islet" />
		<tag k="ssr:stedsnr" v="703062" />
	</node>
	<node id="-589019" lat="62.8494499969" lon="6.80168332704">
		<tag k="name" v="Kvalvika" />
		<tag k="natural" v="bay" />
		<tag k="ssr:stedsnr" v="703060" />
	</node>
	<node id="-589018" lat="62.8076916625" lon="6.76333611852">
		<tag k="name" v="Møyaspranget" />
		<tag k="natural" v="cape" />
		<tag k="ssr:stedsnr" v="703057" />
	</node>
	<node id="-589017" lat="62.7996500032" lon="6.80175833433">
		<tag k="name" v="Flatholmen" />
		<tag k="place" v="islet" />
		<tag k="ssr:stedsnr" v="703044" />
	</node>
	<node id="-589016" lat="62.8467305574" lon="6.89429999829">
		<tag k="name" v="Kleiva" />
		<tag k="natural" v="valley" />
		<tag k="place" v="locality" />
		<tag k="ssr:stedsnr" v="703037" />
	</node>
	<node id="-589015" lat="62.7943138898" lon="6.76170277425">
		<tag k="name" v="Lamholmen" />
		<tag k="place" v="islet" />
		<tag k="ssr:stedsnr" v="703034" />
	</node>
	<node id="-589014" lat="62.7949416674" lon="6.75093888571">
		<tag k="name" v="Litle Buøya" />
		<tag k="place" v="islet" />
		<tag k="ssr:stedsnr" v="703028" />
	</node>
	<node id="-589013" lat="62.7663111138" lon="6.94204444268">
		<tag k="alt_name" v="Kua" />
		<tag k="fixme" v="consider seamark:type=rock or natural=shoal" />
		<tag k="name" v="Kuå" />
		<tag k="place" v="islet" />
		<tag k="ssr:stedsnr" v="703029" />
	</node>
	<node id="-589012" lat="62.7710611144" lon="6.97498889044">
		<tag k="name" v="Seterneset" />
		<tag k="natural" v="cape" />
		<tag k="ssr:stedsnr" v="703019" />
	</node>
	<node id="-589011" lat="62.7973972266" lon="6.80728611015">
		<tag k="name" v="Ospøysundet" />
		<tag k="natural" v="strait" />
		<tag k="ssr:stedsnr" v="703594" />
	</node>
	<node id="-589010" lat="62.8002916671" lon="6.80943888077">
		<tag k="name" v="Hestholmen" />
		<tag k="place" v="islet" />
		<tag k="ssr:stedsnr" v="702550" />
	</node>
	<node id="-589009" lat="62.7995027749" lon="6.81449443511">
		<tag k="fixme" v="consider seamark:type=rock or natural=shoal" />
		<tag k="name" v="Drågskjeret" />
		<tag k="place" v="islet" />
		<tag k="ssr:stedsnr" v="702539" />
	</node>
	<node id="-589008" lat="62.7533611137" lon="6.98952777127">
		<tag k="name" v="Svartholet" />
		<tag k="place" v="locality" />
		<tag k="ssr:stedsnr" v="702498" />
	</node>
	<node id="-589007" lat="62.7714861073" lon="6.99478054747">
		<tag k="name" v="Råket" />
		<tag k="place" v="farm" />
		<tag k="ssr:stedsnr" v="702205" />
	</node>
	<node id="-589006" lat="62.7825250039" lon="6.91700833995">
		<tag k="amenity" v="ferry_terminal" />
		<tag k="name" v="Aukra ferjekai" />
		<tag k="ssr:stedsnr" v="702165" />
	</node>
	<node id="-589005" lat="62.8505555582" lon="6.94388889078">
		<tag k="name" v="Håsanden" />
		<tag k="natural" v="beach" />
		<tag k="place" v="locality" />
		<tag k="ssr:stedsnr" v="702160" />
	</node>
	<node id="-589004" lat="62.850772218" lon="6.96594999663">
		<tag k="name" v="Steinsneset" />
		<tag k="natural" v="cape" />
		<tag k="ssr:stedsnr" v="702155" />
	</node>
	<node id="-589003" lat="62.8409222248" lon="6.85846945033">
		<tag k="name" v="Løvika" />
		<tag k="natural" v="bay" />
		<tag k="ssr:stedsnr" v="693679" />
	</node>
	<node id="-589002" lat="62.7635611107" lon="7.03464444222">
		<tag k="name" v="Fosselva" />
		<tag k="ssr:stedsnr" v="679866" />
		<tag k="waterway" v="stream" />
	</node>
	<node id="-589001" lat="62.7721037333" lon="6.9844651948">
		<tag k="fixme" v="consider place=hamlet" />
		<tag k="name" v="Hollingsetra" />
		<tag k="place" v="farm" />
		<tag k="ssr:stedsnr" v="679861" />
	</node>
	<node id="-589000" lat="62.7666305577" lon="7.02291943717">
		<tag k="name" v="Fangholsetra" />
		<tag k="place" v="isolated_dwelling" />
		<tag k="ssr:stedsnr" v="679855" />
	</node>
	<node id="-588999" lat="62.7841527768" lon="6.8583361209">
		<tag k="name" v="Landholmen" />
		<tag k="place" v="islet" />
		<tag k="ssr:stedsnr" v="679827" />
	</node>
	<node id="-588998" lat="62.8041309095" lon="6.84101845564">
		<tag k="fixme" v="consider place=hamlet" />
		<tag k="name" v="Horrem" />
		<tag k="place" v="farm" />
		<tag k="ssr:stedsnr" v="679778" />
	</node>
	<node id="-588997" lat="62.7937222226" lon="6.76920833562">
		<tag k="name" v="Skipholmen" />
		<tag k="place" v="islet" />
		<tag k="ssr:stedsnr" v="679770" />
	</node>
	<node id="-588996" lat="62.7941611097" lon="6.74381667005">
		<tag k="name" v="Buøya" />
		<tag k="place" v="islet" />
		<tag k="ssr:stedsnr" v="679768" />
	</node>
	<node id="-588995" lat="62.8213628695" lon="6.82464532048">
		<tag k="fixme" v="consider place=hamlet" />
		<tag k="name" v="Rød" />
		<tag k="place" v="farm" />
		<tag k="ssr:stedsnr" v="679743" />
	</node>
	<node id="-588993" lat="62.8475777739" lon="6.94494443625">
		<tag k="name" v="Bergsli" />
		<tag k="place" v="farm" />
		<tag k="ssr:stedsnr" v="679200" />
	</node>
	<node id="-588992" lat="62.8459916691" lon="6.84244167357">
		<tag k="name" v="Lunheim" />
		<tag k="place" v="farm" />
		<tag k="ssr:stedsnr" v="679194" />
	</node>
	<node id="-588991" lat="62.8481972203" lon="6.82475278625">
		<tag k="name" v="Røyrvika" />
		<tag k="natural" v="bay" />
		<tag k="ssr:stedsnr" v="679193" />
	</node>
	<node id="-588989" lat="62.8367722237" lon="6.79511389165">
		<tag k="name" v="Vike" />
		<tag k="place" v="farm" />
		<tag k="ssr:stedsnr" v="679184" />
	</node>
	<node id="-588988" lat="62.8413194475" lon="6.92224166282">
		<tag k="name" v="Seterelva" />
		<tag k="ssr:stedsnr" v="679175" />
		<tag k="waterway" v="stream" />
	</node>
	<node id="-588987" lat="62.8342006542" lon="6.94669865276">
		<tag k="fixme" v="consider place=hamlet" />
		<tag k="name" v="Eikrem" />
		<tag k="place" v="farm" />
		<tag k="ssr:stedsnr" v="679173" />
	</node>
	<node id="-588986" lat="62.8680472231" lon="6.84208056285">
		<tag k="name" v="Landsholmen" />
		<tag k="place" v="islet" />
		<tag k="ssr:stedsnr" v="679127" />
	</node>
	<node id="-588985" lat="62.7768777789" lon="7.02768332944">
		<tag k="name" v="Småtjørnin" />
		<tag k="natural" v="water" />
		<tag k="ssr:stedsnr" v="678839" />
	</node>
	<node id="-588984" lat="62.7768194469" lon="6.83913055474">
		<tag k="name" v="Gullholmen" />
		<tag k="place" v="islet" />
		<tag k="ssr:stedsnr" v="678811" />
	</node>
	<node id="-588983" lat="62.7851583372" lon="6.99409443704">
		<tag k="name" v="Hollingen" />
		<tag k="place" v="farm" />
		<tag k="ssr:stedsnr" v="657128" />
	</node>
	<node id="-588982" lat="62.7700527819" lon="6.75275556125">
		<tag k="fixme" v="consider seamark:type=rock or natural=shoal" />
		<tag k="name" v="Midtfjordskjæra" />
		<tag k="place" v="islet" />
		<tag k="ssr:stedsnr" v="657087" />
	</node>
	<node id="-588981" lat="62.8104972212" lon="6.91083889604">
		<tag k="name" v="Halsabukta" />
		<tag k="natural" v="bay" />
		<tag k="ssr:stedsnr" v="657058" />
	</node>
	<node id="-588980" lat="62.8673527818" lon="6.86051667311">
		<tag k="name" v="Kristiholmflua" />
		<tag k="place" v="locality" />
		<tag k="seamark:type" v="rock" />
		<tag k="ssr:stedsnr" v="656844" />
	</node>
	<node id="-588979" lat="62.8064055511" lon="6.80019444258">
		<tag k="name" v="Smågevågen" />
		<tag k="natural" v="bay" />
		<tag k="ssr:stedsnr" v="656476" />
	</node>
	<node id="-588978" lat="62.7742305568" lon="6.96332500744">
		<tag k="name" v="Holmeflua" />
		<tag k="natural" v="shoal" />
		<tag k="place" v="locality" />
		<tag k="ssr:stedsnr" v="656087" />
	</node>
	<node id="-588977" lat="62.8235361096" lon="6.77839721791">
		<tag k="name" v="Sinkelen" />
		<tag k="place" v="locality" />
		<tag k="seamark:type" v="rock" />
		<tag k="ssr:stedsnr" v="656079" />
	</node>
	<node id="-588976" lat="62.7854666676" lon="6.7469722307">
		<tag k="fixme" v="consider seamark:type=rock or natural=shoal" />
		<tag k="name" v="Risøydroga" />
		<tag k="place" v="islet" />
		<tag k="ssr:stedsnr" v="653642" />
	</node>
	<node id="-588975" lat="62.8825833299" lon="6.78217500717">
		<tag k="fixme" v="consider seamark:type=rock or natural=shoal" />
		<tag k="name" v="Kålskjæra" />
		<tag k="place" v="islet" />
		<tag k="ssr:stedsnr" v="651566" />
	</node>
	<node id="-588974" lat="62.8419305552" lon="6.90450834268">
		<tag k="name" v="Torvehaugen" />
		<tag k="natural" v="hill" />
		<tag k="place" v="locality" />
		<tag k="ssr:stedsnr" v="643844" />
	</node>
	<node id="-588973" lat="62.7817638869" lon="6.87821389554">
		<tag k="name" v="Korsvika" />
		<tag k="natural" v="bay" />
		<tag k="ssr:stedsnr" v="642873" />
	</node>
	<node id="-588971" lat="62.8251444406" lon="6.87685277962">
		<tag k="name" v="Hatthaugen" />
		<tag k="natural" v="hill" />
		<tag k="place" v="locality" />
		<tag k="ssr:stedsnr" v="642776" />
	</node>
	<node id="-588970" lat="62.8363999971" lon="6.8730666678">
		<tag k="name" v="Skarhaugsleira" />
		<tag k="natural" v="shoal" />
		<tag k="place" v="locality" />
		<tag k="ssr:stedsnr" v="642765" />
	</node>
	<node id="-588969" lat="62.7921972241" lon="6.84105555949">
		<tag k="name" v="Småsunda" />
		<tag k="natural" v="strait" />
		<tag k="ssr:stedsnr" v="642739" />
	</node>
	<node id="-588968" lat="62.867908333" lon="6.84225000193">
		<tag k="name" v="Ånnholman" />
		<tag k="place" v="islet" />
		<tag k="ssr:stedsnr" v="642694" />
	</node>
	<node id="-588967" lat="62.8700750017" lon="6.84474444834">
		<tag k="name" v="Casabiankaholmen" />
		<tag k="place" v="islet" />
		<tag k="ssr:stedsnr" v="642692" />
	</node>
	<node id="-588966" lat="62.8136638934" lon="6.88098611811">
		<tag k="name" v="Bakkemyrgrova" />
		<tag k="ssr:stedsnr" v="642645" />
		<tag k="waterway" v="stream" />
	</node>
	<node id="-588965" lat="62.7941416701" lon="6.92669166117">
		<tag k="name" v="Jammerberget" />
		<tag k="natural" v="hill" />
		<tag k="place" v="locality" />
		<tag k="ssr:stedsnr" v="642601" />
	</node>
	<node id="-588964" lat="62.8030555581" lon="6.80284443915">
		<tag k="alt_name" v="Landholman" />
		<tag k="name" v="Landholmen" />
		<tag k="place" v="islet" />
		<tag k="ssr:stedsnr" v="642550" />
	</node>
	<node id="-588963" lat="62.8552777776" lon="6.92888888375">
		<tag k="name" v="Auspholmvika" />
		<tag k="place" v="islet" />
		<tag k="ssr:stedsnr" v="642387" />
	</node>
	<node id="-588962" lat="62.8418305597" lon="6.76896389657">
		<tag k="fixme" v="consider seamark:type=rock or natural=shoal" />
		<tag k="name" v="Yste Tjuvskjeret" />
		<tag k="place" v="islet" />
		<tag k="ssr:stedsnr" v="642386" />
	</node>
	<node id="-588961" lat="62.8612333288" lon="6.8996444351">
		<tag k="alt_name" v="Mannholmen" />
		<tag k="name" v="Ytste Mannholmen" />
		<tag k="place" v="islet" />
		<tag k="ssr:stedsnr" v="642366" />
	</node>
	<node id="-588960" lat="62.85128333" lon="6.89356665733">
		<tag k="name" v="Sæterbukta" />
		<tag k="natural" v="bay" />
		<tag k="ssr:stedsnr" v="642349" />
	</node>
	<node id="-588959" lat="62.8555138893" lon="6.91228332945">
		<tag k="name" v="Søre Langøya" />
		<tag k="place" v="islet" />
		<tag k="ssr:stedsnr" v="642325" />
	</node>
	<node id="-588958" lat="62.8111999974" lon="6.85718889157">
		<tag k="name" v="Emmershaugen" />
		<tag k="natural" v="hill" />
		<tag k="place" v="locality" />
		<tag k="ssr:stedsnr" v="642318" />
	</node>
	<node id="-588957" lat="62.8036388924" lon="6.84359443523">
		<tag k="name" v="Horremhaugen" />
		<tag k="place" v="farm" />
		<tag k="ssr:stedsnr" v="642314" />
	</node>
	<node id="-588956" lat="62.7831277739" lon="6.98071112039">
		<tag k="name" v="Sildegarnbukta" />
		<tag k="natural" v="bay" />
		<tag k="ssr:stedsnr" v="642223" />
	</node>
	<node id="-588955" lat="62.8674750037" lon="6.75265000377">
		<tag k="name" v="Storgrøningen" />
		<tag k="place" v="islet" />
		<tag k="ssr:stedsnr" v="642079" />
	</node>
	<node id="-588954" lat="62.8134000028" lon="6.79926110541">
		<tag k="name" v="Trollhammaren" />
		<tag k="natural" v="hill" />
		<tag k="place" v="locality" />
		<tag k="ssr:stedsnr" v="642061" />
	</node>
	<node id="-588953" lat="62.8189305598" lon="6.80055833496">
		<tag k="name" v="Larsholmen" />
		<tag k="place" v="islet" />
		<tag k="ssr:stedsnr" v="642056" />
	</node>
	<node id="-588952" lat="62.8481749956" lon="6.90305832544">
		<tag k="name" v="Oppigarden" />
		<tag k="place" v="farm" />
		<tag k="ssr:stedsnr" v="642054" />
	</node>
	<node id="-588951" lat="62.8503249965" lon="6.90239444101">
		<tag k="name" v="Gamlesjøen" />
		<tag k="natural" v="bay" />
		<tag k="ssr:stedsnr" v="642048" />
	</node>
	<node id="-588950" lat="62.8466722215" lon="6.89812778165">
		<tag k="name" v="Dalåkerhaugen" />
		<tag k="natural" v="hill" />
		<tag k="place" v="locality" />
		<tag k="ssr:stedsnr" v="642046" />
	</node>
	<node id="-588949" lat="62.7889972226" lon="6.78379445261">
		<tag k="name" v="Horremsrisøya" />
		<tag k="place" v="islet" />
		<tag k="ssr:stedsnr" v="642047" />
	</node>
	<node id="-588948" lat="62.7928611072" lon="6.78775000062">
		<tag k="name" v="Horremshelløya" />
		<tag k="place" v="islet" />
		<tag k="ssr:stedsnr" v="642045" />
	</node>
	<node id="-588947" lat="62.8007305537" lon="6.79245277048">
		<tag k="name" v="Krekebærholmen" />
		<tag k="place" v="islet" />
		<tag k="ssr:stedsnr" v="642025" />
	</node>
	<node id="-588946" lat="62.8013000032" lon="6.78850833747">
		<tag k="fixme" v="consider seamark:type=rock or natural=shoal" />
		<tag k="name" v="Tvenitla" />
		<tag k="place" v="islet" />
		<tag k="ssr:stedsnr" v="642023" />
	</node>
	<node id="-588945" lat="62.7793611089" lon="6.97211110563">
		<tag k="name" v="Hardbraken" />
		<tag k="place" v="locality" />
		<tag k="ssr:stedsnr" v="642018" />
	</node>
	<node id="-588944" lat="62.8011611081" lon="6.81298888494">
		<tag k="name" v="Leirvikhaugan" />
		<tag k="natural" v="hill" />
		<tag k="place" v="locality" />
		<tag k="ssr:stedsnr" v="641533" />
	</node>
	<node id="-588943" lat="62.8510027778" lon="6.95631388312">
		<tag k="name" v="Gilderholmen" />
		<tag k="place" v="islet" />
		<tag k="ssr:stedsnr" v="641136" />
	</node>
	<node id="-588942" lat="62.8574500037" lon="6.9443166716">
		<tag k="name" v="Selneshalsen" />
		<tag k="natural" v="bay" />
		<tag k="ssr:stedsnr" v="641135" />
	</node>
	<node id="-588941" lat="62.8264277804" lon="6.95781943817">
		<tag k="name" v="Hogsnesbukta" />
		<tag k="natural" v="bay" />
		<tag k="ssr:stedsnr" v="641057" />
	</node>
	<node id="-588940" lat="62.8454944429" lon="6.90720277099">
		<tag k="name" v="Vommahaugen" />
		<tag k="natural" v="hill" />
		<tag k="place" v="locality" />
		<tag k="ssr:stedsnr" v="642117" />
	</node>
	<node id="-588939" lat="62.7909222178" lon="6.93007499147">
		<tag k="name" v="Aukrabukta" />
		<tag k="natural" v="bay" />
		<tag k="ssr:stedsnr" v="627451" />
	</node>
	<node id="-588938" lat="62.7594222253" lon="6.91558887922">
		<tag k="name" v="Forholmen" />
		<tag k="place" v="islet" />
		<tag k="ssr:stedsnr" v="618840" />
	</node>
	<node id="-588937" lat="62.7759350138" lon="6.99309831719">
		<tag k="fixme" v="consider place=hamlet" />
		<tag k="name" v="Hollingen" />
		<tag k="place" v="farm" />
		<tag k="ssr:stedsnr" v="618838" />
	</node>
	<node id="-588936" lat="62.7895944408" lon="6.68811944514">
		<tag k="bay" v="fjord" />
		<tag k="name" v="Matløysdjupet" />
		<tag k="natural" v="bay" />
		<tag k="ssr:stedsnr" v="618800" />
	</node>
	<node id="-588935" lat="62.787679206" lon="6.87045618893">
		<tag k="fixme" v="consider place=hamlet" />
		<tag k="name" v="Hjertvika" />
		<tag k="place" v="farm" />
		<tag k="ssr:stedsnr" v="618796" />
	</node>
	<node id="-588934" lat="62.7862333326" lon="6.75908889262">
		<tag k="name" v="Vestre Risøya" />
		<tag k="place" v="islet" />
		<tag k="ssr:stedsnr" v="618783" />
	</node>
	<node id="-588933" lat="62.7978444474" lon="6.81669999594">
		<tag k="fixme" v="consider seamark:type=rock or natural=shoal" />
		<tag k="name" v="Litledroga" />
		<tag k="place" v="islet" />
		<tag k="ssr:stedsnr" v="618777" />
	</node>
	<node id="-588932" lat="62.8199634043" lon="6.8465712835">
		<tag k="name" v="Ulsgard" />
		<tag k="place" v="farm" />
		<tag k="ssr:stedsnr" v="618745" />
	</node>
	<node id="-588931" lat="62.8317388863" lon="6.90701110497">
		<tag k="name" v="Solbø" />
		<tag k="place" v="farm" />
		<tag k="ssr:stedsnr" v="618735" />
	</node>
	<node id="-588930" lat="62.8297888871" lon="6.95518055506">
		<tag k="name" v="Kråkneset" />
		<tag k="place" v="farm" />
		<tag k="ssr:stedsnr" v="618732" />
	</node>
	<node id="-588929" lat="62.8275138927" lon="6.8553805493">
		<tag k="name" v="Solvang" />
		<tag k="place" v="farm" />
		<tag k="ssr:stedsnr" v="618729" />
	</node>
	<node id="-588928" lat="62.835708334" lon="6.79984721813">
		<tag k="name" v="Vik" />
		<tag k="place" v="farm" />
		<tag k="ssr:stedsnr" v="618177" />
	</node>
	<node id="-588927" lat="62.8544916687" lon="6.8130055597">
		<tag k="name" v="Stokkholman" />
		<tag k="place" v="islet" />
		<tag k="ssr:stedsnr" v="618121" />
	</node>
	<node id="-588926" lat="62.7620305598" lon="6.79061111503">
		<tag k="name" v="Grunnflua" />
		<tag k="natural" v="shoal" />
		<tag k="place" v="locality" />
		<tag k="ssr:stedsnr" v="597841" />
	</node>
	<node id="-588925" lat="62.8572194426" lon="6.93725555516">
		<tag k="name" v="Selnesholman" />
		<tag k="place" v="islet" />
		<tag k="ssr:stedsnr" v="596821" />
	</node>
	<node id="-588924" lat="62.8508805573" lon="6.83905833262">
		<tag k="name" v="Purka" />
		<tag k="place" v="locality" />
		<tag k="seamark:type" v="rock" />
		<tag k="ssr:stedsnr" v="596777" />
	</node>
	<node id="-588923" lat="62.778911114" lon="6.89339444682">
		<tag k="name" v="Nybø" />
		<tag k="place" v="farm" />
		<tag k="ssr:stedsnr" v="596129" />
	</node>
	<node id="-588921" lat="62.8527861147" lon="6.76903610114">
		<tag k="name" v="Nordre Jakteflua" />
		<tag k="place" v="locality" />
		<tag k="seamark:type" v="rock" />
		<tag k="ssr:stedsnr" v="596061" />
	</node>
	<node id="-588920" lat="62.8446611104" lon="6.84861110728">
		<tag k="name" v="Løvikbukta" />
		<tag k="natural" v="bay" />
		<tag k="ssr:stedsnr" v="595030" />
	</node>
	<node id="-588919" lat="62.775311115" lon="6.86846666099">
		<tag k="fixme" v="consider seamark:type=rock or natural=shoal" />
		<tag k="name" v="Svarteskjæret" />
		<tag k="place" v="islet" />
		<tag k="ssr:stedsnr" v="593548" />
	</node>
	<node id="-588918" lat="62.7739027784" lon="6.89412499595">
		<tag k="fixme" v="consider seamark:type=rock or natural=shoal" />
		<tag k="name" v="Lefseskjærtaran" />
		<tag k="place" v="islet" />
		<tag k="ssr:stedsnr" v="593466" />
	</node>
	<node id="-588917" lat="62.7938222212" lon="6.80454444513">
		<tag k="name" v="Tjuvholmen" />
		<tag k="place" v="islet" />
		<tag k="ssr:stedsnr" v="592643" />
	</node>
	<node id="-588916" lat="62.8684694426" lon="6.770499991">
		<tag k="fixme" v="consider seamark:type=rock or natural=shoal" />
		<tag k="name" v="Orholmskjæra" />
		<tag k="place" v="islet" />
		<tag k="ssr:stedsnr" v="592631" />
	</node>
	<node id="-588915" lat="62.8683666702" lon="6.74989999037">
		<tag k="fixme" v="consider seamark:type=rock or natural=shoal" />
		<tag k="name" v="Grøningsfluin" />
		<tag k="place" v="islet" />
		<tag k="ssr:stedsnr" v="591535" />
	</node>
	<node id="-588914" lat="62.8163555545" lon="6.73412778002">
		<tag k="fixme" v="consider seamark:type=rock or natural=shoal" />
		<tag k="name" v="Hyseskjæra" />
		<tag k="place" v="islet" />
		<tag k="ssr:stedsnr" v="591526" />
	</node>
	<node id="-588913" lat="62.8366027758" lon="6.89238334036">
		<tag k="name" v="Nordigarden" />
		<tag k="place" v="farm" />
		<tag k="ssr:stedsnr" v="581855" />
	</node>
	<node id="-588912" lat="62.870119445" lon="6.84144443561">
		<tag k="name" v="Tvinnitla" />
		<tag k="place" v="islet" />
		<tag k="ssr:stedsnr" v="581698" />
	</node>
	<node id="-588911" lat="62.8699222224" lon="6.85576389811">
		<tag k="name" v="Kristiholmen" />
		<tag k="place" v="islet" />
		<tag k="ssr:stedsnr" v="581695" />
	</node>
	<node id="-588910" lat="62.787827774" lon="6.85996667246">
		<tag k="name" v="Hjertet" />
		<tag k="place" v="islet" />
		<tag k="ssr:stedsnr" v="581684" />
	</node>
	<node id="-588909" lat="62.8059055539" lon="6.88796388982">
		<tag k="amenity" v="community_centre" />
		<tag k="name" v="Soltun" />
		<tag k="ssr:stedsnr" v="581668" />
	</node>
	<node id="-588908" lat="62.7957666639" lon="6.92668056108">
		<tag k="name" v="Holmesundet" />
		<tag k="natural" v="strait" />
		<tag k="ssr:stedsnr" v="581626" />
	</node>
	<node id="-588907" lat="62.8033083371" lon="6.7974583422">
		<tag k="fixme" v="consider seamark:type=rock or natural=shoal" />
		<tag k="name" v="Landholmskjeret" />
		<tag k="place" v="islet" />
		<tag k="ssr:stedsnr" v="581595" />
	</node>
	<node id="-588906" lat="62.8389305517" lon="6.78504721428">
		<tag k="name" v="Bytingsvika" />
		<tag k="natural" v="bay" />
		<tag k="ssr:stedsnr" v="581488" />
	</node>
	<node id="-588905" lat="62.8437305595" lon="6.78701111074">
		<tag k="name" v="Sandnes" />
		<tag k="place" v="farm" />
		<tag k="ssr:stedsnr" v="581397" />
	</node>
	<node id="-588904" lat="62.842755552" lon="6.78298332974">
		<tag k="name" v="Årgårdshaugen" />
		<tag k="natural" v="hill" />
		<tag k="place" v="locality" />
		<tag k="ssr:stedsnr" v="581393" />
	</node>
	<node id="-588903" lat="62.8400833336" lon="6.78226943662">
		<tag k="name" v="Ramnhammaren" />
		<tag k="natural" v="hill" />
		<tag k="place" v="locality" />
		<tag k="ssr:stedsnr" v="581391" />
	</node>
	<node id="-588902" lat="62.8436805523" lon="6.78245555221">
		<tag k="name" v="Varden" />
		<tag k="natural" v="hill" />
		<tag k="place" v="locality" />
		<tag k="ssr:stedsnr" v="581390" />
	</node>
	<node id="-588901" lat="62.8456527787" lon="6.83028889102">
		<tag k="name" v="Kleivhaugen" />
		<tag k="natural" v="hill" />
		<tag k="place" v="locality" />
		<tag k="ssr:stedsnr" v="581262" />
	</node>
	<node id="-588900" lat="62.7786694418" lon="7.01957221894">
		<tag k="name" v="Karlia" />
		<tag k="natural" v="slope" />
		<tag k="place" v="locality" />
		<tag k="ssr:stedsnr" v="581249" />
	</node>
	<node id="-588899" lat="62.8516333331" lon="6.94066388237">
		<tag k="name" v="Håhaugen" />
		<tag k="natural" v="hill" />
		<tag k="place" v="locality" />
		<tag k="ssr:stedsnr" v="581194" />
	</node>
	<node id="-588898" lat="62.8333861143" lon="6.95838611521">
		<tag k="name" v="Kråkneset" />
		<tag k="natural" v="cape" />
		<tag k="ssr:stedsnr" v="581099" />
	</node>
	<node id="-588897" lat="62.8298999963" lon="6.78751111821">
		<tag k="name" v="Teistholman" />
		<tag k="place" v="islet" />
		<tag k="ssr:stedsnr" v="581089" />
	</node>
	<node id="-588896" lat="62.8077749985" lon="6.79409999146">
		<tag k="name" v="Jektvikremma" />
		<tag k="natural" v="hill" />
		<tag k="place" v="locality" />
		<tag k="ssr:stedsnr" v="581061" />
	</node>
	<node id="-588895" lat="62.8473777737" lon="6.90318889684">
		<tag k="name" v="Sæter" />
		<tag k="place" v="hamlet" />
		<tag k="ssr:stedsnr" v="581056" />
	</node>
	<node id="-588894" lat="62.8058916657" lon="6.75525555216">
		<tag k="name" v="Lamholmen" />
		<tag k="place" v="islet" />
		<tag k="ssr:stedsnr" v="581041" />
	</node>
	<node id="-588893" lat="62.8493027787" lon="6.88873889658">
		<tag k="fixme" v="consider seamark:type=rock or natural=shoal" />
		<tag k="name" v="Langeskjeret" />
		<tag k="place" v="islet" />
		<tag k="ssr:stedsnr" v="581042" />
	</node>
	<node id="-588892" lat="62.8475027752" lon="6.89102500629">
		<tag k="fixme" v="consider seamark:type=rock or natural=shoal" />
		<tag k="name" v="Fiskeskjera" />
		<tag k="place" v="islet" />
		<tag k="ssr:stedsnr" v="581038" />
	</node>
	<node id="-588891" lat="62.8459805574" lon="6.88438332828">
		<tag k="name" v="Midtre Flatholmen" />
		<tag k="place" v="islet" />
		<tag k="ssr:stedsnr" v="581039" />
	</node>
	<node id="-588890" lat="62.764186111" lon="7.02347499305">
		<tag k="fixme" v="consider natural=peak for the most distinct mountains in the district" />
		<tag k="name" v="Peklauva" />
		<tag k="natural" v="hill" />
		<tag k="place" v="locality" />
		<tag k="ssr:stedsnr" v="558891" />
	</node>
	<node id="-588889" lat="62.7824055519" lon="6.87431389415">
		<tag k="name" v="Hjertviksteinen" />
		<tag k="place" v="farm" />
		<tag k="ssr:stedsnr" v="557829" />
	</node>
	<node id="-588888" lat="62.7818249976" lon="6.78961666607">
		<tag k="name" v="Orholman" />
		<tag k="place" v="islet" />
		<tag k="ssr:stedsnr" v="557801" />
	</node>
	<node id="-588887" lat="62.8046694415" lon="6.85543333533">
		<tag k="name" v="Nylund" />
		<tag k="place" v="farm" />
		<tag k="ssr:stedsnr" v="557789" />
	</node>
	<node id="-588886" lat="62.8245694474" lon="6.8013472201">
		<tag k="name" v="Naustholmen" />
		<tag k="place" v="islet" />
		<tag k="ssr:stedsnr" v="557736" />
	</node>
	<node id="-588885" lat="62.7956277751" lon="6.71453611266">
		<tag k="fixme" v="consider seamark:type=rock or natural=shoal" />
		<tag k="name" v="Svartskjæret" />
		<tag k="place" v="islet" />
		<tag k="ssr:stedsnr" v="557466" />
	</node>
	<node id="-588884" lat="62.8106805551" lon="6.91832223096">
		<tag k="name" v="Stornautneset" />
		<tag k="natural" v="cape" />
		<tag k="ssr:stedsnr" v="536070" />
	</node>
	<node id="-588883" lat="62.8516666697" lon="6.94583332441">
		<tag k="name" v="Kvalbukta" />
		<tag k="natural" v="bay" />
		<tag k="ssr:stedsnr" v="535816" />
	</node>
	<node id="-588882" lat="62.8554666633" lon="6.81922500574">
		<tag k="name" v="Mikkelen" />
		<tag k="place" v="locality" />
		<tag k="seamark:type" v="rock" />
		<tag k="ssr:stedsnr" v="535782" />
	</node>
	<node id="-588881" lat="62.7736861139" lon="6.82397776918">
		<tag k="name" v="Gullholmfluin" />
		<tag k="natural" v="shoal" />
		<tag k="place" v="locality" />
		<tag k="ssr:stedsnr" v="535061" />
	</node>
	<node id="-588880" lat="62.8573555576" lon="6.75534167044">
		<tag k="name" v="Skjærflua" />
		<tag k="natural" v="shoal" />
		<tag k="place" v="locality" />
		<tag k="ssr:stedsnr" v="532610" />
	</node>
	<node id="-588879" lat="62.8588527803" lon="6.73048055621">
		<tag k="name" v="Orsholmflua" />
		<tag k="natural" v="shoal" />
		<tag k="place" v="locality" />
		<tag k="ssr:stedsnr" v="532577" />
	</node>
	<node id="-588878" lat="62.7994888847" lon="6.77314999069">
		<tag k="fixme" v="consider seamark:type=rock or natural=shoal" />
		<tag k="name" v="Grøneskjæret" />
		<tag k="place" v="islet" />
		<tag k="ssr:stedsnr" v="530573" />
	</node>
	<node id="-588877" lat="62.7813805568" lon="6.89001665708">
		<tag k="name" v="Breivikkleiva" />
		<tag k="place" v="farm" />
		<tag k="ssr:stedsnr" v="521899" />
	</node>
	<node id="-588876" lat="62.8436555538" lon="6.88920832559">
		<tag k="name" v="Juvikhaugen" />
		<tag k="natural" v="hill" />
		<tag k="place" v="locality" />
		<tag k="ssr:stedsnr" v="521843" />
	</node>
	<node id="-588875" lat="62.8323888854" lon="6.88728055521">
		<tag k="name" v="Halhaugen" />
		<tag k="natural" v="hill" />
		<tag k="place" v="locality" />
		<tag k="ssr:stedsnr" v="521834" />
	</node>
	<node id="-588874" lat="62.8412638877" lon="6.88240554996">
		<tag k="name" v="Nausthaugen" />
		<tag k="natural" v="hill" />
		<tag k="place" v="locality" />
		<tag k="ssr:stedsnr" v="521795" />
	</node>
	<node id="-588873" lat="62.8405527746" lon="6.87812776945">
		<tag k="name" v="Sporsemosen" />
		<tag k="natural" v="strait" />
		<tag k="ssr:stedsnr" v="521794" />
	</node>
	<node id="-588872" lat="62.8337805586" lon="6.8741694463">
		<tag k="name" v="Skarshaugen" />
		<tag k="place" v="hamlet" />
		<tag k="ssr:stedsnr" v="521791" />
	</node>
	<node id="-588871" lat="62.8096222264" lon="6.91149999155">
		<tag k="name" v="Nautneshalsen" />
		<tag k="natural" v="ridge" />
		<tag k="place" v="locality" />
		<tag k="ssr:stedsnr" v="521647" />
	</node>
	<node id="-588870" lat="62.8420138856" lon="6.79929722979">
		<tag k="name" v="Søre Rishaugen" />
		<tag k="natural" v="hill" />
		<tag k="place" v="locality" />
		<tag k="ssr:stedsnr" v="521383" />
	</node>
	<node id="-588869" lat="62.8242805526" lon="6.8334166741">
		<tag k="name" v="Storhaugen" />
		<tag k="natural" v="hill" />
		<tag k="place" v="locality" />
		<tag k="ssr:stedsnr" v="521367" />
	</node>
	<node id="-588868" lat="62.8356611095" lon="6.85328332981">
		<tag k="name" v="Dalelva" />
		<tag k="natural" v="hill" />
		<tag k="place" v="locality" />
		<tag k="ssr:stedsnr" v="521363" />
	</node>
	<node id="-588867" lat="62.8587722219" lon="6.9194888866">
		<tag k="name" v="Midtre Langøya" />
		<tag k="place" v="islet" />
		<tag k="ssr:stedsnr" v="521354" />
	</node>
	<node id="-588866" lat="62.8105083334" lon="6.82850278238">
		<tag k="name" v="Bekkerholen" />
		<tag k="natural" v="hill" />
		<tag k="place" v="locality" />
		<tag k="ssr:stedsnr" v="521346" />
	</node>
	<node id="-588865" lat="62.816041666" lon="6.85598888703">
		<tag k="name" v="Measteinen" />
		<tag k="natural" v="stone" />
		<tag k="ssr:stedsnr" v="521341" />
	</node>
	<node id="-588864" lat="62.8261777822" lon="6.80968611939">
		<tag k="name" v="Røabukta" />
		<tag k="natural" v="bay" />
		<tag k="ssr:stedsnr" v="521329" />
	</node>
	<node id="-588863" lat="62.7571972207" lon="6.87030832758">
		<tag k="name" v="Store Skarvholmen" />
		<tag k="place" v="islet" />
		<tag k="ssr:stedsnr" v="521301" />
	</node>
	<node id="-588862" lat="62.7748194464" lon="7.01427778109">
		<tag k="name" v="Skarhjellen" />
		<tag k="natural" v="hill" />
		<tag k="place" v="locality" />
		<tag k="ssr:stedsnr" v="521209" />
	</node>
	<node id="-588861" lat="62.8062499979" lon="6.77159445363">
		<tag k="name" v="Vetholmsvika" />
		<tag k="natural" v="bay" />
		<tag k="ssr:stedsnr" v="521184" />
	</node>
	<node id="-588860" lat="62.8067666629" lon="6.78129166392">
		<tag k="name" v="Bussvika" />
		<tag k="natural" v="bay" />
		<tag k="ssr:stedsnr" v="521178" />
	</node>
	<node id="-588859" lat="62.8159805566" lon="6.79993332348">
		<tag k="name" v="Gangstøhaugen" />
		<tag k="natural" v="hill" />
		<tag k="place" v="locality" />
		<tag k="ssr:stedsnr" v="521052" />
	</node>
	<node id="-588858" lat="62.8060277778" lon="6.80385832846">
		<tag k="name" v="Smågesjøen" />
		<tag k="place" v="farm" />
		<tag k="ssr:stedsnr" v="521045" />
	</node>
	<node id="-588857" lat="62.800377779" lon="6.81526110989">
		<tag k="name" v="Møkvika" />
		<tag k="natural" v="bay" />
		<tag k="ssr:stedsnr" v="520564" />
	</node>
	<node id="-588856" lat="62.8520972209" lon="6.95206667076">
		<tag k="name" v="Gilderneset" />
		<tag k="natural" v="cape" />
		<tag k="ssr:stedsnr" v="520149" />
	</node>
	<node id="-588855" lat="62.8355694437" lon="6.94506943733">
		<tag k="name" v="Gjelhaugen" />
		<tag k="natural" v="hill" />
		<tag k="place" v="locality" />
		<tag k="ssr:stedsnr" v="520144" />
	</node>
	<node id="-588854" lat="62.8439027772" lon="6.94549722342">
		<tag k="name" v="Søndre Steghaugen" />
		<tag k="natural" v="hill" />
		<tag k="place" v="locality" />
		<tag k="ssr:stedsnr" v="520139" />
	</node>
	<node id="-588853" lat="62.7506694431" lon="6.98942221472">
		<tag k="name" v="Kobbevikflua" />
		<tag k="natural" v="shoal" />
		<tag k="place" v="locality" />
		<tag k="ssr:stedsnr" v="519563" />
	</node>
	<node id="-588852" lat="62.7959722256" lon="6.76695555419">
		<tag k="name" v="Litle Lamholmen" />
		<tag k="place" v="islet" />
		<tag k="ssr:stedsnr" v="521022" />
	</node>
	<node id="-588851" lat="62.7786944457" lon="6.96872223173">
		<tag k="name" v="Hardbrakneset" />
		<tag k="natural" v="cape" />
		<tag k="ssr:stedsnr" v="521020" />
	</node>
	<node id="-588850" lat="62.7698166626" lon="7.01970833846">
		<tag k="fixme" v="consider natural=peak for the most distinct mountains in the district" />
		<tag k="name" v="Storklauva" />
		<tag k="natural" v="hill" />
		<tag k="place" v="locality" />
		<tag k="ssr:stedsnr" v="497864" />
	</node>
	<node id="-588849" lat="62.7906942541" lon="6.9170600671">
		<tag k="alt_name" v="Aukra" />
		<tag k="amenity" v="place_of_worship" />
		<tag k="denomination" v="lutheran" />
		<tag k="name" v="Aukra kyrkje" />
		<tag k="religion" v="christian" />
		<tag k="ssr:stedsnr" v="497830" />
	</node>
	<node id="-588848" lat="62.7823388918" lon="6.74183888163">
		<tag k="name" v="Kobbeskjæra" />
		<tag k="natural" v="shoal" />
		<tag k="place" v="locality" />
		<tag k="ssr:stedsnr" v="497812" />
	</node>
	<node id="-588847" lat="62.8512611113" lon="6.95111389092">
		<tag k="name" v="Nyhamna" />
		<tag k="natural" v="cape" />
		<tag k="ssr:stedsnr" v="497228" />
	</node>
	<node id="-588846" lat="62.853586111" lon="6.91266943503">
		<tag k="name" v="Buholmen" />
		<tag k="place" v="islet" />
		<tag k="ssr:stedsnr" v="497229" />
	</node>
	<node id="-588845" lat="62.8081249964" lon="6.77373055777">
		<tag k="name" v="Stongneset" />
		<tag k="natural" v="cape" />
		<tag k="ssr:stedsnr" v="496799" />
	</node>
	<node id="-588844" lat="62.818327777" lon="6.8677472283">
		<tag k="name" v="Gossa" />
		<tag k="place" v="island" />
		<tag k="ssr:stedsnr" v="496788" />
	</node>
	<node id="-588843" lat="62.8240249956" lon="6.95502499909">
		<tag k="name" v="Hogsneset" />
		<tag k="place" v="farm" />
		<tag k="ssr:stedsnr" v="496778" />
	</node>
	<node id="-588842" lat="62.9255833293" lon="6.68494444403">
		<tag k="fixme" v="consider seamark:type=rock or natural=shoal" />
		<tag k="name" v="Rundkippen" />
		<tag k="place" v="islet" />
		<tag k="ssr:stedsnr" v="496348" />
	</node>
	<node id="-588841" lat="62.8660611137" lon="6.85077777098">
		<tag k="name" v="Ånnholmen" />
		<tag k="place" v="islet" />
		<tag k="ssr:stedsnr" v="496124" />
	</node>
	<node id="-588840" lat="62.8656583321" lon="6.7489277717">
		<tag k="name" v="Grøningssundet" />
		<tag k="natural" v="strait" />
		<tag k="ssr:stedsnr" v="469566" />
	</node>
	<node id="-588839" lat="62.8420777752" lon="6.92612499428">
		<tag k="name" v="Nørdre Tjønnhaugen" />
		<tag k="natural" v="hill" />
		<tag k="place" v="locality" />
		<tag k="ssr:stedsnr" v="461852" />
	</node>
	<node id="-588838" lat="62.8444916648" lon="6.89621945023">
		<tag k="name" v="Løken" />
		<tag k="ssr:stedsnr" v="461843" />
		<tag k="waterway" v="stream" />
	</node>
	<node id="-588837" lat="62.8395305585" lon="6.88732499775">
		<tag k="name" v="Vassdalen" />
		<tag k="natural" v="valley" />
		<tag k="place" v="locality" />
		<tag k="ssr:stedsnr" v="461838" />
	</node>
	<node id="-588836" lat="62.8290361115" lon="6.88812778502">
		<tag k="name" v="Oddhaugen" />
		<tag k="natural" v="hill" />
		<tag k="place" v="locality" />
		<tag k="ssr:stedsnr" v="461804" />
	</node>
	<node id="-588835" lat="62.7523944476" lon="6.99309721407">
		<tag k="name" v="Storkleiva" />
		<tag k="natural" v="valley" />
		<tag k="place" v="locality" />
		<tag k="ssr:stedsnr" v="460764" />
	</node>
	<node id="-588834" lat="62.7954083358" lon="6.82626666607">
		<tag k="name" v="Landholmen" />
		<tag k="place" v="islet" />
		<tag k="ssr:stedsnr" v="460757" />
	</node>
	<node id="-588833" lat="62.7602583316" lon="6.99279999715">
		<tag k="name" v="Eiskrembukta" />
		<tag k="natural" v="bay" />
		<tag k="ssr:stedsnr" v="460742" />
	</node>
	<node id="-588832" lat="62.755900004" lon="7.0292611139">
		<tag k="name" v="Litlemannsheia" />
		<tag k="natural" v="hill" />
		<tag k="place" v="locality" />
		<tag k="ssr:stedsnr" v="460726" />
	</node>
	<node id="-588831" lat="62.8049111148" lon="6.79434165877">
		<tag k="fixme" v="consider seamark:type=rock or natural=shoal" />
		<tag k="name" v="Vomma" />
		<tag k="place" v="islet" />
		<tag k="ssr:stedsnr" v="460609" />
	</node>
	<node id="-588830" lat="62.85696389" lon="6.9219444487">
		<tag k="name" v="Skatsundneset" />
		<tag k="natural" v="cape" />
		<tag k="ssr:stedsnr" v="460439" />
	</node>
	<node id="-588829" lat="62.838644444" lon="6.76931945359">
		<tag k="fixme" v="consider seamark:type=rock or natural=shoal" />
		<tag k="name" v="Rundeskjeret" />
		<tag k="place" v="islet" />
		<tag k="ssr:stedsnr" v="460436" />
	</node>
	<node id="-588828" lat="62.8420083342" lon="6.78145278488">
		<tag k="name" v="Årgårdsvika" />
		<tag k="natural" v="bay" />
		<tag k="ssr:stedsnr" v="460427" />
	</node>
	<node id="-588827" lat="62.8358944461" lon="6.86306110193">
		<tag k="name" v="Bunesholmen" />
		<tag k="place" v="islet" />
		<tag k="ssr:stedsnr" v="460411" />
	</node>
	<node id="-588826" lat="62.8446805559" lon="6.85464444733">
		<tag k="fixme" v="consider seamark:type=rock or natural=shoal" />
		<tag k="name" v="Hjellskjeret" />
		<tag k="place" v="islet" />
		<tag k="ssr:stedsnr" v="460409" />
	</node>
	<node id="-588825" lat="62.8372361123" lon="6.85562221889">
		<tag k="name" v="Skipshaugen" />
		<tag k="natural" v="hill" />
		<tag k="place" v="locality" />
		<tag k="ssr:stedsnr" v="460410" />
	</node>
	<node id="-588824" lat="62.8409527759" lon="6.83163611991">
		<tag k="name" v="Ingridsteinen" />
		<tag k="natural" v="stone" />
		<tag k="ssr:stedsnr" v="460407" />
	</node>
	<node id="-588823" lat="62.8142805584" lon="6.81615000371">
		<tag k="name" v="Horremhaugen" />
		<tag k="natural" v="slope" />
		<tag k="place" v="locality" />
		<tag k="ssr:stedsnr" v="460405" />
	</node>
	<node id="-588822" lat="62.7719027786" lon="7.01941111393">
		<tag k="name" v="Litleklauva" />
		<tag k="natural" v="hill" />
		<tag k="place" v="locality" />
		<tag k="ssr:stedsnr" v="460273" />
	</node>
	<node id="-588821" lat="62.8475222222" lon="6.84109723135">
		<tag k="name" v="Hellarhaugan" />
		<tag k="natural" v="hill" />
		<tag k="place" v="locality" />
		<tag k="ssr:stedsnr" v="460270" />
	</node>
	<node id="-588820" lat="62.830297219" lon="6.93176388328">
		<tag k="name" v="Meraftashaugen" />
		<tag k="natural" v="hill" />
		<tag k="place" v="locality" />
		<tag k="ssr:stedsnr" v="460208" />
	</node>
	<node id="-588819" lat="62.8370527765" lon="6.94207222285">
		<tag k="name" v="Fjøshaugen" />
		<tag k="natural" v="hill" />
		<tag k="place" v="locality" />
		<tag k="ssr:stedsnr" v="460205" />
	</node>
	<node id="-588818" lat="62.8247249983" lon="6.93450000699">
		<tag k="name" v="Bratthammaren" />
		<tag k="natural" v="hill" />
		<tag k="place" v="locality" />
		<tag k="ssr:stedsnr" v="460200" />
	</node>
	<node id="-588817" lat="62.7606805596" lon="7.01001944596">
		<tag k="name" v="Eiskremelva" />
		<tag k="ssr:stedsnr" v="460184" />
		<tag k="waterway" v="stream" />
	</node>
	<node id="-588816" lat="62.8839444412" lon="6.78329165926">
		<tag k="fixme" v="consider seamark:type=rock or natural=shoal" />
		<tag k="name" v="Kåtskjeret" />
		<tag k="place" v="islet" />
		<tag k="ssr:stedsnr" v="460134" />
	</node>
	<node id="-588815" lat="62.8257666691" lon="6.95161944693">
		<tag k="name" v="Høghaugen" />
		<tag k="natural" v="hill" />
		<tag k="place" v="locality" />
		<tag k="ssr:stedsnr" v="460103" />
	</node>
	<node id="-588814" lat="62.8267750033" lon="6.95528054803">
		<tag k="name" v="Hatlebakk" />
		<tag k="place" v="farm" />
		<tag k="ssr:stedsnr" v="460100" />
	</node>
	<node id="-588813" lat="62.8263166705" lon="6.79705556191">
		<tag k="name" v="Litlebuholmen" />
		<tag k="place" v="islet" />
		<tag k="ssr:stedsnr" v="460090" />
	</node>
	<node id="-588812" lat="62.8475944443" lon="6.79427221878">
		<tag k="name" v="Komedantholmen" />
		<tag k="place" v="islet" />
		<tag k="ssr:stedsnr" v="460081" />
	</node>
	<node id="-588811" lat="62.8059500023" lon="6.78644721322">
		<tag k="name" v="Jektvika" />
		<tag k="natural" v="bay" />
		<tag k="ssr:stedsnr" v="460069" />
	</node>
	<node id="-588810" lat="62.847900001" lon="6.89828055624">
		<tag k="name" v="Kramdalen" />
		<tag k="natural" v="valley" />
		<tag k="place" v="locality" />
		<tag k="ssr:stedsnr" v="460049" />
	</node>
	<node id="-588809" lat="62.7843472204" lon="6.79949166013">
		<tag k="fixme" v="consider seamark:type=rock or natural=shoal" />
		<tag k="name" v="Orholmskjera" />
		<tag k="place" v="islet" />
		<tag k="ssr:stedsnr" v="460044" />
	</node>
	<node id="-588808" lat="62.7854944487" lon="6.78437500659">
		<tag k="alt_name" v="Kroppungskjæret" />
		<tag k="fixme" v="consider seamark:type=rock or natural=shoal" />
		<tag k="name" v="Kroppongskjeret" />
		<tag k="place" v="islet" />
		<tag k="ssr:stedsnr" v="460043" />
	</node>
	<node id="-588807" lat="62.78415556" lon="6.76559444526">
		<tag k="fixme" v="consider seamark:type=rock or natural=shoal" />
		<tag k="name" v="Risøyskjeret" />
		<tag k="place" v="islet" />
		<tag k="ssr:stedsnr" v="460036" />
	</node>
	<node id="-588806" lat="62.7675555537" lon="6.98157500552">
		<tag k="name" v="Fangholneset" />
		<tag k="natural" v="cape" />
		<tag k="ssr:stedsnr" v="460031" />
	</node>
	<node id="-588805" lat="62.7630499959" lon="6.98854166144">
		<tag k="name" v="Langneset" />
		<tag k="natural" v="cape" />
		<tag k="ssr:stedsnr" v="460032" />
	</node>
	<node id="-588804" lat="62.7555777821" lon="6.98951945049">
		<tag k="name" v="Korsberget" />
		<tag k="natural" v="hill" />
		<tag k="place" v="locality" />
		<tag k="ssr:stedsnr" v="459479" />
	</node>
	<node id="-588803" lat="62.7660684275" lon="6.99697053372">
		<tag k="fixme" v="multiple name tags, choose one and add the other to alt_name; consider place=hamlet" />
		<tag k="name" v="Medvoll;Vollan" />
		<tag k="place" v="farm" />
		<tag k="ssr:stedsnr" v="437848" />
	</node>
	<node id="-588802" lat="62.9193999972" lon="6.7254583395">
		<tag k="name" v="Katten" />
		<tag k="natural" v="shoal" />
		<tag k="place" v="locality" />
		<tag k="ssr:stedsnr" v="437119" />
	</node>
	<node id="-588801" lat="62.7733468578" lon="6.99763088046">
		<tag k="fixme" v="consider place=hamlet" />
		<tag k="name" v="Matberget" />
		<tag k="place" v="farm" />
		<tag k="ssr:stedsnr" v="436840" />
	</node>
	<node id="-588800" lat="62.7703055547" lon="7.00974167114">
		<tag k="fixme" v="consider natural=peak for the most distinct mountains in the district" />
		<tag k="name" v="Svartnakken" />
		<tag k="natural" v="hill" />
		<tag k="place" v="locality" />
		<tag k="ssr:stedsnr" v="436841" />
	</node>
	<node id="-588799" lat="62.778163886" lon="7.00546666684">
		<tag k="name" v="Lauvåsen" />
		<tag k="place" v="farm" />
		<tag k="ssr:stedsnr" v="436837" />
	</node>
	<node id="-588798" lat="62.8027888852" lon="6.87283333415">
		<tag k="name" v="Fagerheim" />
		<tag k="place" v="farm" />
		<tag k="ssr:stedsnr" v="436807" />
	</node>
	<node id="-588797" lat="62.8031277805" lon="6.81008889484">
		<tag k="name" v="Kvalvågen" />
		<tag k="natural" v="bay" />
		<tag k="ssr:stedsnr" v="436801" />
	</node>
	<node id="-588796" lat="62.8116555557" lon="6.79324443952">
		<tag k="name" v="Smågevatnet" />
		<tag k="natural" v="water" />
		<tag k="ssr:stedsnr" v="436784" />
	</node>
	<node id="-588795" lat="62.7973777766" lon="6.74333611096">
		<tag k="name" v="Smågevågen" />
		<tag k="natural" v="strait" />
		<tag k="ssr:stedsnr" v="436780" />
	</node>
	<node id="-588794" lat="62.8165333345" lon="6.91717499362">
		<tag k="name" v="Nerbøberget" />
		<tag k="place" v="farm" />
		<tag k="ssr:stedsnr" v="436768" />
	</node>
	<node id="-588793" lat="62.8180749981" lon="6.78226388841">
		<tag k="name" v="Røssøya" />
		<tag k="natural" v="cape" />
		<tag k="ssr:stedsnr" v="436762" />
	</node>
	<node id="-588792" lat="62.8553833362" lon="6.88376943937">
		<tag k="fixme" v="consider seamark:type=rock or natural=shoal" />
		<tag k="name" v="Tvenitla" />
		<tag k="place" v="islet" />
		<tag k="ssr:stedsnr" v="436219" />
	</node>
	<node id="-588791" lat="62.8466777795" lon="6.88473054704">
		<tag k="name" v="Flatholmen" />
		<tag k="place" v="islet" />
		<tag k="ssr:stedsnr" v="436211" />
	</node>
	<node id="-588790" lat="62.8766444431" lon="6.78380277206">
		<tag k="fixme" v="consider seamark:type=rock or natural=shoal" />
		<tag k="name" v="Solskjæret" />
		<tag k="place" v="islet" />
		<tag k="ssr:stedsnr" v="436123" />
	</node>
	<node id="-588789" lat="62.7538250006" lon="7.01964445375">
		<tag k="name" v="Eiskremheia" />
		<tag k="natural" v="hill" />
		<tag k="place" v="locality" />
		<tag k="ssr:stedsnr" v="255890" />
	</node>
	<node id="-588788" lat="62.7682861105" lon="6.86724722705">
		<tag k="fixme" v="consider seamark:type=rock or natural=shoal" />
		<tag k="name" v="Snella" />
		<tag k="place" v="islet" />
		<tag k="ssr:stedsnr" v="255869" />
	</node>
	<node id="-588787" lat="62.7562638858" lon="6.77507778437">
		<tag k="bay" v="fjord" />
		<tag k="name" v="Grunnefjorden" />
		<tag k="natural" v="bay" />
		<tag k="ssr:stedsnr" v="255865" />
	</node>
	<node id="-588786" lat="62.7734555521" lon="6.8992305558">
		<tag k="name" v="Krabbetjønnholmen" />
		<tag k="place" v="islet" />
		<tag k="ssr:stedsnr" v="254842" />
	</node>
	<node id="-588785" lat="62.7914666634" lon="6.73103888743">
		<tag k="fixme" v="consider seamark:type=rock or natural=shoal" />
		<tag k="name" v="Hamneskjæra" />
		<tag k="place" v="islet" />
		<tag k="ssr:stedsnr" v="254786" />
	</node>
	<node id="-588784" lat="62.8040361129" lon="6.89000832777">
		<tag k="name" v="Falkhytta" />
		<tag k="place" v="farm" />
		<tag k="ssr:stedsnr" v="254773" />
	</node>
	<node id="-588783" lat="62.9243750031" lon="6.66935832918">
		<tag k="name" v="Stauran" />
		<tag k="natural" v="shoal" />
		<tag k="place" v="locality" />
		<tag k="ssr:stedsnr" v="254299" />
	</node>
	<node id="-588782" lat="62.9151611098" lon="6.70546389424">
		<tag k="fixme" v="consider seamark:type=rock or natural=shoal" />
		<tag k="name" v="Galderskjæra" />
		<tag k="place" v="islet" />
		<tag k="ssr:stedsnr" v="254291" />
	</node>
	<node id="-588781" lat="62.8386305574" lon="6.86560833005">
		<tag k="fixme" v="consider seamark:type=rock or natural=shoal" />
		<tag k="name" v="Kalvskjæra" />
		<tag k="place" v="islet" />
		<tag k="ssr:stedsnr" v="254198" />
	</node>
	<node id="-588780" lat="62.8385694424" lon="6.89731389412">
		<tag k="name" v="Reithaugen" />
		<tag k="place" v="farm" />
		<tag k="ssr:stedsnr" v="254196" />
	</node>
	<node id="-588779" lat="62.837488887" lon="6.78060277188">
		<tag k="name" v="Dyrholmen" />
		<tag k="place" v="islet" />
		<tag k="ssr:stedsnr" v="254194" />
	</node>
	<node id="-588778" lat="62.776836113" lon="6.90069721849">
		<tag k="name" v="Reset" />
		<tag k="place" v="farm" />
		<tag k="ssr:stedsnr" v="232121" />
	</node>
	<node id="-588777" lat="62.7717749974" lon="6.93474444705">
		<tag k="name" v="Kjerringgrunnen" />
		<tag k="natural" v="shoal" />
		<tag k="place" v="locality" />
		<tag k="ssr:stedsnr" v="232100" />
	</node>
	<node id="-588776" lat="62.7987833294" lon="6.89425000475">
		<tag k="name" v="Solberg" />
		<tag k="place" v="isolated_dwelling" />
		<tag k="ssr:stedsnr" v="232053" />
	</node>
	<node id="-588775" lat="62.8665277739" lon="6.79653889203">
		<tag k="name" v="Skofta" />
		<tag k="natural" v="shoal" />
		<tag k="place" v="locality" />
		<tag k="ssr:stedsnr" v="232021" />
	</node>
	<node id="-588774" lat="62.8755666674" lon="6.7717694419">
		<tag k="name" v="Stabbetaren" />
		<tag k="natural" v="shoal" />
		<tag k="place" v="locality" />
		<tag k="ssr:stedsnr" v="232022" />
	</node>
	<node id="-588773" lat="62.884399998" lon="6.62313333186">
		<tag k="name" v="Ytre Holmeskallan" />
		<tag k="natural" v="shoal" />
		<tag k="ssr:stedsnr" v="228645" />
	</node>
	<node id="-588772" lat="62.8840194454" lon="6.78273611826">
		<tag k="fixme" v="consider seamark:type=rock or natural=shoal" />
		<tag k="name" v="Kattskjæret" />
		<tag k="place" v="islet" />
		<tag k="ssr:stedsnr" v="227545" />
	</node>
	<node id="-588771" lat="62.832911111" lon="6.88990554995">
		<tag k="name" v="Rabben" />
		<tag k="place" v="farm" />
		<tag k="ssr:stedsnr" v="218854" />
	</node>
	<node id="-588770" lat="62.8427138927" lon="6.88448888131">
		<tag k="name" v="Juvikleira" />
		<tag k="natural" v="shoal" />
		<tag k="place" v="locality" />
		<tag k="ssr:stedsnr" v="218795" />
	</node>
	<node id="-588769" lat="62.7513472208" lon="6.99551112061">
		<tag k="name" v="Geitastauå" />
		<tag k="natural" v="valley" />
		<tag k="place" v="locality" />
		<tag k="ssr:stedsnr" v="218750" />
	</node>
	<node id="-588768" lat="62.7915111079" lon="6.86069167194">
		<tag k="name" v="Hjertvikberget" />
		<tag k="place" v="quarter" />
		<tag k="ssr:stedsnr" v="218686" />
	</node>
	<node id="-588767" lat="62.8139361068" lon="6.88960277979">
		<tag k="name" v="Riksfjordleira" />
		<tag k="natural" v="shoal" />
		<tag k="place" v="locality" />
		<tag k="ssr:stedsnr" v="218641" />
	</node>
	<node id="-588766" lat="62.7992527775" lon="6.88891389331">
		<tag k="name" v="Blåsteinen" />
		<tag k="natural" v="stone" />
		<tag k="ssr:stedsnr" v="218591" />
	</node>
	<node id="-588765" lat="62.7893277747" lon="6.87536945082">
		<tag k="name" v="Hjertvikelva" />
		<tag k="ssr:stedsnr" v="218587" />
		<tag k="waterway" v="stream" />
	</node>
	<node id="-588764" lat="62.8404527819" lon="6.7627666688">
		<tag k="alt_name" v="Ytre Kjølingen" />
		<tag k="name" v="Kjølingen" />
		<tag k="place" v="islet" />
		<tag k="ssr:stedsnr" v="218393" />
	</node>
	<node id="-588763" lat="62.7809805514" lon="6.97435554778">
		<tag k="name" v="Gjølet" />
		<tag k="natural" v="gorge" />
		<tag k="ssr:stedsnr" v="218239" />
	</node>
	<node id="-588762" lat="62.8452027779" lon="6.86528055688">
		<tag k="name" v="Litlevedaholmen" />
		<tag k="place" v="islet" />
		<tag k="ssr:stedsnr" v="218233" />
	</node>
	<node id="-588761" lat="62.8487000014" lon="6.83417778723">
		<tag k="name" v="Skahammaren" />
		<tag k="natural" v="hill" />
		<tag k="place" v="locality" />
		<tag k="ssr:stedsnr" v="218213" />
	</node>
	<node id="-588760" lat="62.8483527796" lon="6.83844999058">
		<tag k="name" v="Rotvika" />
		<tag k="natural" v="bay" />
		<tag k="ssr:stedsnr" v="218211" />
	</node>
	<node id="-588759" lat="62.8430222178" lon="6.78838610678">
		<tag k="name" v="Sandvikhaugen" />
		<tag k="natural" v="hill" />
		<tag k="place" v="locality" />
		<tag k="ssr:stedsnr" v="218372" />
	</node>
	<node id="-588758" lat="62.8414611138" lon="6.85129999812">
		<tag k="name" v="Nausthaugen" />
		<tag k="natural" v="hill" />
		<tag k="place" v="locality" />
		<tag k="ssr:stedsnr" v="218355" />
	</node>
	<node id="-588757" lat="62.8424666625" lon="6.82382500146">
		<tag k="name" v="Rothaugan" />
		<tag k="natural" v="hill" />
		<tag k="place" v="locality" />
		<tag k="ssr:stedsnr" v="218352" />
	</node>
	<node id="-588756" lat="62.8215777746" lon="6.81714166992">
		<tag k="name" v="Naustberget" />
		<tag k="natural" v="hill" />
		<tag k="place" v="locality" />
		<tag k="ssr:stedsnr" v="218346" />
	</node>
	<node id="-588755" lat="62.8506138916" lon="6.77813055942">
		<tag k="fixme" v="consider seamark:type=rock or natural=shoal" />
		<tag k="name" v="Sandskjerflua" />
		<tag k="place" v="islet" />
		<tag k="ssr:stedsnr" v="218085" />
	</node>
	<node id="-588754" lat="62.8144694428" lon="6.79899443668">
		<tag k="name" v="Rundehaugen" />
		<tag k="natural" v="hill" />
		<tag k="place" v="locality" />
		<tag k="ssr:stedsnr" v="218047" />
	</node>
	<node id="-588753" lat="62.8161194467" lon="6.77879443821">
		<tag k="alt_name" v="Sørevågen" />
		<tag k="name" v="Søre Vågen" />
		<tag k="natural" v="bay" />
		<tag k="ssr:stedsnr" v="218042" />
	</node>
	<node id="-588752" lat="62.8504472207" lon="6.90599166068">
		<tag k="name" v="Gullbringen" />
		<tag k="natural" v="hill" />
		<tag k="place" v="locality" />
		<tag k="ssr:stedsnr" v="218040" />
	</node>
	<node id="-588751" lat="62.8133388878" lon="6.78043332522">
		<tag k="name" v="Rognålsvika" />
		<tag k="natural" v="bay" />
		<tag k="ssr:stedsnr" v="218038" />
	</node>
	<node id="-588750" lat="62.8474861112" lon="6.90716388239">
		<tag k="name" v="Sæterhaugen" />
		<tag k="natural" v="hill" />
		<tag k="place" v="locality" />
		<tag k="ssr:stedsnr" v="218035" />
	</node>
	<node id="-588749" lat="62.7712277772" lon="6.9863916595">
		<tag k="name" v="Bukta" />
		<tag k="place" v="farm" />
		<tag k="ssr:stedsnr" v="218021" />
	</node>
	<node id="-588748" lat="62.817566663" lon="6.93989723225">
		<tag k="name" v="Hjermannstad" />
		<tag k="place" v="locality" />
		<tag k="ssr:stedsnr" v="217399" />
	</node>
	<node id="-588747" lat="62.8337888863" lon="6.78676389713">
		<tag k="alt_name" v="Sengsholmen" />
		<tag k="name" v="Sæingsholman" />
		<tag k="place" v="islet" />
		<tag k="ssr:stedsnr" v="217396" />
	</node>
	<node id="-588746" lat="62.7729583301" lon="7.02635833732">
		<tag k="name" v="Klauvsdalen" />
		<tag k="natural" v="valley" />
		<tag k="place" v="locality" />
		<tag k="ssr:stedsnr" v="217227" />
	</node>
	<node id="-588745" lat="62.8057166708" lon="6.7829333375">
		<tag k="name" v="Kjøvneset" />
		<tag k="natural" v="cape" />
		<tag k="ssr:stedsnr" v="217187" />
	</node>
	<node id="-588744" lat="62.8541166631" lon="6.94388055448">
		<tag k="name" v="Selnesbukta" />
		<tag k="natural" v="bay" />
		<tag k="ssr:stedsnr" v="217161" />
	</node>
	<node id="-588743" lat="62.7858472202" lon="6.76248054722">
		<tag k="name" v="Smågerisøya" />
		<tag k="place" v="islet" />
		<tag k="ssr:stedsnr" v="217031" />
	</node>
	<node id="-588742" lat="62.7681372518" lon="6.9946171593">
		<tag k="fixme" v="consider place=hamlet" />
		<tag k="name" v="Hola" />
		<tag k="place" v="farm" />
		<tag k="ssr:stedsnr" v="194858" />
	</node>
	<node id="-588741" lat="62.8741222249" lon="6.9041138929">
		<tag k="bay" v="fjord" />
		<tag k="name" v="Harøyfjorden" />
		<tag k="natural" v="bay" />
		<tag k="ssr:stedsnr" v="194835" />
	</node>
	<node id="-588740" lat="62.7828583355" lon="6.88313333224">
		<tag k="name" v="Smedbakken" />
		<tag k="place" v="farm" />
		<tag k="ssr:stedsnr" v="194825" />
	</node>
	<node id="-588739" lat="62.7769055543" lon="6.89400833948">
		<tag k="name" v="Trollvika" />
		<tag k="place" v="farm" />
		<tag k="ssr:stedsnr" v="193857" />
	</node>
	<node id="-588738" lat="62.8033972233" lon="6.87973611015">
		<tag k="name" v="Bergtun" />
		<tag k="place" v="farm" />
		<tag k="ssr:stedsnr" v="193812" />
	</node>
	<node id="-588737" lat="62.7979083315" lon="6.838958338">
		<tag k="name" v="Horremsbukta" />
		<tag k="natural" v="bay" />
		<tag k="ssr:stedsnr" v="193804" />
	</node>
	<node id="-588736" lat="62.8094305581" lon="6.89046666678">
		<tag k="name" v="Nordsletta" />
		<tag k="place" v="farm" />
		<tag k="ssr:stedsnr" v="193791" />
	</node>
	<node id="-588735" lat="62.8065861071" lon="6.85124166828">
		<tag k="name" v="Tahaugen" />
		<tag k="place" v="farm" />
		<tag k="ssr:stedsnr" v="193785" />
	</node>
	<node id="-588734" lat="62.8118138887" lon="6.82017777242">
		<tag k="name" v="Smågehaugen" />
		<tag k="place" v="farm" />
		<tag k="ssr:stedsnr" v="193779" />
	</node>
	<node id="-588733" lat="62.8218972197" lon="6.86454445245">
		<tag k="name" v="Gåsvang" />
		<tag k="place" v="farm" />
		<tag k="ssr:stedsnr" v="193764" />
	</node>
	<node id="-588732" lat="62.8166352457" lon="6.82641759326">
		<tag k="fixme" v="consider place=hamlet" />
		<tag k="name" v="Solem" />
		<tag k="place" v="farm" />
		<tag k="ssr:stedsnr" v="193758" />
	</node>
	<node id="-588731" lat="62.8189916627" lon="6.92966665738">
		<tag k="name" v="Jærmannburet" />
		<tag k="natural" v="hill" />
		<tag k="place" v="locality" />
		<tag k="ssr:stedsnr" v="193751" />
	</node>
	<node id="-588730" lat="62.8322527807" lon="6.88802500559">
		<tag k="name" v="Inderhaugen" />
		<tag k="place" v="farm" />
		<tag k="ssr:stedsnr" v="193742" />
	</node>
	<node id="-588729" lat="62.8284916655" lon="6.88140277373">
		<tag k="name" v="Sporsem" />
		<tag k="place" v="farm" />
		<tag k="ssr:stedsnr" v="193737" />
	</node>
	<node id="-588728" lat="62.8202777807" lon="6.77675832726">
		<tag k="name" v="Grøholmen" />
		<tag k="place" v="islet" />
		<tag k="ssr:stedsnr" v="193731" />
	</node>
	<node id="-588727" lat="62.9204999977" lon="6.69249721324">
		<tag k="fixme" v="consider seamark:type=rock or natural=shoal" />
		<tag k="name" v="Straumskjæret" />
		<tag k="place" v="islet" />
		<tag k="ssr:stedsnr" v="193331" />
	</node>
	<node id="-588726" lat="62.9413777798" lon="6.69974444526">
		<tag k="name" v="Ufsegrunnen" />
		<tag k="natural" v="shoal" />
		<tag k="place" v="locality" />
		<tag k="ssr:stedsnr" v="193325" />
	</node>
	<node id="-588725" lat="62.8561694409" lon="6.94224166191">
		<tag k="name" v="Selneset" />
		<tag k="natural" v="cape" />
		<tag k="ssr:stedsnr" v="193226" />
	</node>
	<node id="-588724" lat="62.8782305581" lon="6.80081388047">
		<tag k="fixme" v="consider seamark:type=rock or natural=shoal" />
		<tag k="name" v="Tennskjæret" />
		<tag k="place" v="islet" />
		<tag k="ssr:stedsnr" v="193158" />
	</node>
	<node id="-588723" lat="62.8728388899" lon="6.76511111963">
		<tag k="name" v="Orholmen" />
		<tag k="place" v="islet" />
		<tag k="ssr:stedsnr" v="193131" />
	</node>
	<node id="-588722" lat="62.8607083347" lon="6.79379165976">
		<tag k="bay" v="fjord" />
		<tag k="name" v="Indreleia" />
		<tag k="natural" v="bay" />
		<tag k="ssr:stedsnr" v="193124" />
	</node>
	<node id="-588721" lat="62.8664944434" lon="6.77385277043">
		<tag k="fixme" v="consider seamark:type=rock or natural=shoal" />
		<tag k="name" v="Søre Orholmskjæret" />
		<tag k="place" v="islet" />
		<tag k="ssr:stedsnr" v="172798" />
	</node>
	<node id="-588720" lat="62.762191667" lon="6.92548332582">
		<tag k="name" v="Flatholmsundet" />
		<tag k="natural" v="strait" />
		<tag k="ssr:stedsnr" v="172128" />
	</node>
	<node id="-588719" lat="62.8637444438" lon="6.91875277307">
		<tag k="name" v="Langøytaren" />
		<tag k="place" v="locality" />
		<tag k="seamark:type" v="rock" />
		<tag k="ssr:stedsnr" v="171834" />
	</node>
	<node id="-588718" lat="62.7675861114" lon="6.76491666474">
		<tag k="name" v="Bleia" />
		<tag k="natural" v="shoal" />
		<tag k="place" v="locality" />
		<tag k="ssr:stedsnr" v="171069" />
	</node>
	<node id="-588717" lat="62.8076944442" lon="6.90220832631">
		<tag k="name" v="Varhaug" />
		<tag k="place" v="farm" />
		<tag k="ssr:stedsnr" v="171062" />
	</node>
	<node id="-588716" lat="62.8851916697" lon="6.69238333846">
		<tag k="fixme" v="consider seamark:type=rock or natural=shoal" />
		<tag k="name" v="Småskjæra" />
		<tag k="place" v="islet" />
		<tag k="ssr:stedsnr" v="168610" />
	</node>
	<node id="-588715" lat="62.8306805589" lon="6.80154166167">
		<tag k="name" v="Ura" />
		<tag k="natural" v="cape" />
		<tag k="ssr:stedsnr" v="168586" />
	</node>
	<node id="-588714" lat="62.8336638874" lon="6.89477221624">
		<tag k="name" v="Hushaugen" />
		<tag k="natural" v="hill" />
		<tag k="place" v="locality" />
		<tag k="ssr:stedsnr" v="157843" />
	</node>
	<node id="-588713" lat="62.7953000036" lon="6.84584165923">
		<tag k="name" v="Småsundhaugan" />
		<tag k="natural" v="hill" />
		<tag k="place" v="locality" />
		<tag k="ssr:stedsnr" v="157746" />
	</node>
	<node id="-588712" lat="62.8014777796" lon="6.8451444354">
		<tag k="name" v="Horremsmyra" />
		<tag k="natural" v="wetland" />
		<tag k="ssr:stedsnr" v="157739" />
	</node>
	<node id="-588711" lat="62.75610278" lon="7.01413889754">
		<tag k="name" v="Heilia" />
		<tag k="natural" v="slope" />
		<tag k="place" v="locality" />
		<tag k="ssr:stedsnr" v="157734" />
	</node>
	<node id="-588710" lat="62.7590722208" lon="7.01948054769">
		<tag k="name" v="Heilidalen" />
		<tag k="natural" v="valley" />
		<tag k="place" v="locality" />
		<tag k="ssr:stedsnr" v="157732" />
	</node>
	<node id="-588709" lat="62.800391671" lon="6.8227111088">
		<tag k="name" v="Ospavikneset" />
		<tag k="natural" v="cape" />
		<tag k="ssr:stedsnr" v="157729" />
	</node>
	<node id="-588708" lat="62.7553888879" lon="7.00298054727">
		<tag k="name" v="Hjellan" />
		<tag k="place" v="locality" />
		<tag k="ssr:stedsnr" v="157730" />
	</node>
	<node id="-588707" lat="62.8167722257" lon="6.89407777095">
		<tag k="name" v="Nausthaugen" />
		<tag k="natural" v="hill" />
		<tag k="place" v="locality" />
		<tag k="ssr:stedsnr" v="157706" />
	</node>
	<node id="-588706" lat="62.8188249971" lon="6.90447778533">
		<tag k="name" v="Aukra Industrier" />
		<tag k="place" v="quarter" />
		<tag k="ssr:stedsnr" v="157628" />
	</node>
	<node id="-588705" lat="62.7866111085" lon="6.91971111535">
		<tag k="alt_name" v="Kyrkjeberget" />
		<tag k="name" v="Kjerkjeberget" />
		<tag k="natural" v="hill" />
		<tag k="place" v="locality" />
		<tag k="ssr:stedsnr" v="157572" />
	</node>
	<node id="-588704" lat="62.8588555559" lon="6.87052778588">
		<tag k="fixme" v="consider seamark:type=rock or natural=shoal" />
		<tag k="name" v="Lyngholmskjera" />
		<tag k="place" v="islet" />
		<tag k="ssr:stedsnr" v="157341" />
	</node>
	<node id="-588703" lat="62.8446694411" lon="6.82924165995">
		<tag k="name" v="Kleivhaugen" />
		<tag k="natural" v="hill" />
		<tag k="place" v="locality" />
		<tag k="ssr:stedsnr" v="157327" />
	</node>
	<node id="-588702" lat="62.8612944454" lon="6.9160277839">
		<tag k="name" v="Storværflatholmen" />
		<tag k="place" v="islet" />
		<tag k="ssr:stedsnr" v="157322" />
	</node>
	<node id="-588701" lat="62.8077500019" lon="6.82919444103">
		<tag k="name" v="Hulderhaugen" />
		<tag k="natural" v="hill" />
		<tag k="place" v="locality" />
		<tag k="ssr:stedsnr" v="157320" />
	</node>
	<node id="-588700" lat="62.8194694418" lon="6.8139888935">
		<tag k="name" v="Solemshammaren" />
		<tag k="natural" v="hill" />
		<tag k="place" v="locality" />
		<tag k="ssr:stedsnr" v="157307" />
	</node>
	<node id="-588699" lat="62.7631527796" lon="7.02885555906">
		<tag k="name" v="Langmyra" />
		<tag k="natural" v="wetland" />
		<tag k="ssr:stedsnr" v="157104" />
	</node>
	<node id="-588698" lat="62.8821416658" lon="6.77994443894">
		<tag k="fixme" v="consider seamark:type=rock or natural=shoal" />
		<tag k="name" v="Småskjera" />
		<tag k="place" v="islet" />
		<tag k="ssr:stedsnr" v="157070" />
	</node>
	<node id="-588697" lat="62.848244442" lon="6.90182499245">
		<tag k="name" v="Reinbakkhaugen" />
		<tag k="natural" v="hill" />
		<tag k="place" v="locality" />
		<tag k="ssr:stedsnr" v="157044" />
	</node>
	<node id="-588696" lat="62.8138861083" lon="6.78740832468">
		<tag k="name" v="Brenslen" />
		<tag k="natural" v="hill" />
		<tag k="place" v="locality" />
		<tag k="ssr:stedsnr" v="157039" />
	</node>
	<node id="-588695" lat="62.8140666711" lon="6.77492222212">
		<tag k="fixme" v="consider seamark:type=rock or natural=shoal" />
		<tag k="name" v="Rognåtsskjeret" />
		<tag k="place" v="islet" />
		<tag k="ssr:stedsnr" v="157036" />
	</node>
	<node id="-588694" lat="62.7912805531" lon="6.78955276901">
		<tag k="name" v="Meøyvalen" />
		<tag k="natural" v="strait" />
		<tag k="ssr:stedsnr" v="157033" />
	</node>
	<node id="-588693" lat="62.7875444461" lon="6.76937778197">
		<tag k="name" v="Nøre Drågane" />
		<tag k="place" v="islet" />
		<tag k="ssr:stedsnr" v="157026" />
	</node>
	<node id="-588692" lat="62.8485555543" lon="6.88583054783">
		<tag k="fixme" v="consider seamark:type=rock or natural=shoal" />
		<tag k="name" v="Timannskjera" />
		<tag k="place" v="islet" />
		<tag k="ssr:stedsnr" v="157021" />
	</node>
	<node id="-588691" lat="62.7767218726" lon="6.99089449653">
		<tag k="name" v="Øvre Hollingen" />
		<tag k="place" v="farm" />
		<tag k="ssr:stedsnr" v="157016" />
	</node>
	<node id="-588690" lat="62.8479166709" lon="6.93805833071">
		<tag k="name" v="Kvalmyran" />
		<tag k="natural" v="wetland" />
		<tag k="ssr:stedsnr" v="156145" />
	</node>
	<node id="-588689" lat="62.7520638892" lon="6.98776388302">
		<tag k="name" v="Oterura" />
		<tag k="natural" v="scree" />
		<tag k="ssr:stedsnr" v="155504" />
	</node>
	<node id="-588688" lat="62.7578423308" lon="7.02807411903">
		<tag k="name" v="Elvatunga" />
		<tag k="ssr:stedsnr" v="133852" />
		<tag k="waterway" v="stream" />
	</node>
	<node id="-588687" lat="62.7816777776" lon="6.88523610163">
		<tag k="name" v="Kleiva" />
		<tag k="place" v="farm" />
		<tag k="ssr:stedsnr" v="133824" />
	</node>
	<node id="-588686" lat="62.8183082998" lon="6.88781059152">
		<tag k="fixme" v="consider place=hamlet" />
		<tag k="name" v="Riksfjord" />
		<tag k="place" v="farm" />
		<tag k="ssr:stedsnr" v="132767" />
	</node>
	<node id="-588685" lat="62.8216500035" lon="6.92311945287">
		<tag k="name" v="Furulia" />
		<tag k="place" v="farm" />
		<tag k="ssr:stedsnr" v="132766" />
	</node>
	<node id="-588684" lat="62.8174277799" lon="6.915702782">
		<tag k="name" v="Nerbøvika" />
		<tag k="place" v="farm" />
		<tag k="ssr:stedsnr" v="132765" />
	</node>
	<node id="-588683" lat="62.8222861142" lon="6.80226666366">
		<tag k="name" v="Rødabukta" />
		<tag k="natural" v="bay" />
		<tag k="ssr:stedsnr" v="132753" />
	</node>
	<node id="-588682" lat="62.886319447" lon="6.64393056227">
		<tag k="name" v="Søreggskallan" />
		<tag k="natural" v="shoal" />
		<tag k="place" v="locality" />
		<tag k="ssr:stedsnr" v="132304" />
	</node>
	<node id="-588681" lat="62.9283888893" lon="6.6867944496">
		<tag k="fixme" v="consider seamark:type=rock or natural=shoal" />
		<tag k="name" v="Kippen" />
		<tag k="place" v="islet" />
		<tag k="ssr:stedsnr" v="132302" />
	</node>
	<node id="-588680" lat="62.9195777823" lon="6.64655555785">
		<tag k="name" v="Gjøla" />
		<tag k="natural" v="shoal" />
		<tag k="place" v="locality" />
		<tag k="ssr:stedsnr" v="132299" />
	</node>
	<node id="-588679" lat="62.9441472259" lon="6.70772778668">
		<tag k="name" v="Klakken" />
		<tag k="natural" v="shoal" />
		<tag k="place" v="locality" />
		<tag k="ssr:stedsnr" v="132297" />
	</node>
	<node id="-588678" lat="62.8398033214" lon="6.84608795719">
		<tag k="name" v="Løvika" />
		<tag k="place" v="hamlet" />
		<tag k="ssr:stedsnr" v="132206" />
	</node>
	<node id="-588677" lat="62.8740111095" lon="6.79969444036">
		<tag k="fixme" v="consider seamark:type=rock or natural=shoal" />
		<tag k="name" v="Bjørnen" />
		<tag k="place" v="islet" />
		<tag k="ssr:stedsnr" v="132146" />
	</node>
	<node id="-588676" lat="62.8615611145" lon="6.9024722307">
		<tag k="name" v="Storværa" />
		<tag k="place" v="islet" />
		<tag k="ssr:stedsnr" v="132107" />
	</node>
	<node id="-588675" lat="62.7747361111" lon="6.91221389476">
		<tag k="name" v="Tangen" />
		<tag k="place" v="farm" />
		<tag k="ssr:stedsnr" v="111125" />
	</node>
	<node id="-588674" lat="62.7784583331" lon="6.86402499713">
		<tag k="name" v="Kobbeflua" />
		<tag k="natural" v="shoal" />
		<tag k="place" v="locality" />
		<tag k="ssr:stedsnr" v="111119" />
	</node>
	<node id="-588673" lat="62.8075111147" lon="6.9171916661">
		<tag k="name" v="Nautnesflua" />
		<tag k="natural" v="shoal" />
		<tag k="place" v="locality" />
		<tag k="ssr:stedsnr" v="111079" />
	</node>
	<node id="-588672" lat="62.8733500007" lon="6.796383337">
		<tag k="name" v="Bjørnaungen" />
		<tag k="natural" v="shoal" />
		<tag k="place" v="locality" />
		<tag k="ssr:stedsnr" v="110032" />
	</node>
	<node id="-588671" lat="62.8787250027" lon="6.76716388534">
		<tag k="name" v="Flaska" />
		<tag k="natural" v="shoal" />
		<tag k="place" v="locality" />
		<tag k="ssr:stedsnr" v="110031" />
	</node>
	<node id="-588670" lat="62.8901277798" lon="6.70824721994">
		<tag k="name" v="Indre Svartskjærflua" />
		<tag k="natural" v="shoal" />
		<tag k="place" v="locality" />
		<tag k="ssr:stedsnr" v="106526" />
	</node>
	<node id="-588669" lat="62.8563277787" lon="6.84651944946">
		<tag k="fixme" v="consider seamark:type=rock or natural=shoal" />
		<tag k="name" v="Håskjæret" />
		<tag k="place" v="islet" />
		<tag k="ssr:stedsnr" v="106525" />
	</node>
	<node id="-588667" lat="62.7996833374" lon="6.85289999524">
		<tag k="name" v="Bakkeelva" />
		<tag k="ssr:stedsnr" v="96738" />
		<tag k="waterway" v="river" />
	</node>
	<node id="-588666" lat="62.8384666711" lon="6.87302500004">
		<tag k="name" v="Midtre Vassdalsholmen" />
		<tag k="place" v="islet" />
		<tag k="ssr:stedsnr" v="96777" />
	</node>
	<node id="-588665" lat="62.8208444437" lon="6.8852666687">
		<tag k="name" v="Bringshaugen" />
		<tag k="natural" v="hill" />
		<tag k="place" v="locality" />
		<tag k="ssr:stedsnr" v="96651" />
	</node>
	<node id="-588664" lat="62.7956361149" lon="6.91135000902">
		<tag k="name" v="Farshaugen" />
		<tag k="natural" v="hill" />
		<tag k="place" v="locality" />
		<tag k="ssr:stedsnr" v="96612" />
	</node>
	<node id="-588663" lat="62.7946111116" lon="6.9187499944">
		<tag k="name" v="Kalvtrøbukta" />
		<tag k="natural" v="bay" />
		<tag k="ssr:stedsnr" v="96595" />
	</node>
	<node id="-588662" lat="62.80105556" lon="6.80583055304">
		<tag k="name" v="Rundholmen" />
		<tag k="place" v="islet" />
		<tag k="ssr:stedsnr" v="96580" />
	</node>
	<node id="-588661" lat="62.7755138899" lon="6.89104444633">
		<tag k="name" v="Knutholmen" />
		<tag k="place" v="islet" />
		<tag k="ssr:stedsnr" v="96440" />
	</node>
	<node id="-588660" lat="62.8686694473" lon="6.8908194359">
		<tag k="name" v="Djupsundholmfaren" />
		<tag k="place" v="islet" />
		<tag k="ssr:stedsnr" v="96709" />
	</node>
	<node id="-588659" lat="62.8363472265" lon="6.76728056258">
		<tag k="name" v="Midtkjølingen" />
		<tag k="place" v="islet" />
		<tag k="ssr:stedsnr" v="96473" />
	</node>
	<node id="-588658" lat="62.8039472251" lon="6.83205555446">
		<tag k="name" v="Halen" />
		<tag k="natural" v="hill" />
		<tag k="place" v="locality" />
		<tag k="ssr:stedsnr" v="96346" />
	</node>
	<node id="-588657" lat="62.8364111122" lon="6.78996943764">
		<tag k="name" v="Oberstvika" />
		<tag k="natural" v="bay" />
		<tag k="ssr:stedsnr" v="96411" />
	</node>
	<node id="-588656" lat="62.8540388878" lon="6.90385555809">
		<tag k="name" v="Småmåsholmen" />
		<tag k="place" v="islet" />
		<tag k="ssr:stedsnr" v="96384" />
	</node>
	<node id="-588655" lat="62.8427166691" lon="6.80056945238">
		<tag k="name" v="Midtre Rishaugen" />
		<tag k="natural" v="hill" />
		<tag k="place" v="locality" />
		<tag k="ssr:stedsnr" v="96379" />
	</node>
	<node id="-588654" lat="62.8602722256" lon="6.90299444689">
		<tag k="name" v="Midtre Mannholmen" />
		<tag k="place" v="islet" />
		<tag k="ssr:stedsnr" v="96376" />
	</node>
	<node id="-588653" lat="62.8381499973" lon="6.79168054865">
		<tag k="name" v="Obersttua" />
		<tag k="natural" v="hill" />
		<tag k="place" v="locality" />
		<tag k="ssr:stedsnr" v="96373" />
	</node>
	<node id="-588652" lat="62.8588333358" lon="6.88667223091">
		<tag k="fixme" v="consider seamark:type=rock or natural=shoal" />
		<tag k="name" v="Hetta" />
		<tag k="place" v="islet" />
		<tag k="ssr:stedsnr" v="96370" />
	</node>
	<node id="-588651" lat="62.8388027813" lon="6.93472499626">
		<tag k="name" v="Skarhaugane" />
		<tag k="natural" v="hill" />
		<tag k="place" v="locality" />
		<tag k="ssr:stedsnr" v="96172" />
	</node>
	<node id="-588650" lat="62.8473999978" lon="6.91271666134">
		<tag k="name" v="Søre Heilohaugen" />
		<tag k="natural" v="hill" />
		<tag k="place" v="locality" />
		<tag k="ssr:stedsnr" v="96144" />
	</node>
	<node id="-588649" lat="62.826391666" lon="6.95501389064">
		<tag k="name" v="Nygjerdet" />
		<tag k="place" v="farm" />
		<tag k="ssr:stedsnr" v="96103" />
	</node>
	<node id="-588648" lat="62.8483916694" lon="6.90887776809">
		<tag k="name" v="Hestholhaugen" />
		<tag k="natural" v="hill" />
		<tag k="place" v="locality" />
		<tag k="ssr:stedsnr" v="96090" />
	</node>
	<node id="-588647" lat="62.8153722239" lon="6.79999721315">
		<tag k="name" v="Gangstøa" />
		<tag k="natural" v="bay" />
		<tag k="ssr:stedsnr" v="96088" />
	</node>
	<node id="-588646" lat="62.8491805512" lon="6.91068610762">
		<tag k="name" v="Fjøsberga" />
		<tag k="natural" v="hill" />
		<tag k="place" v="locality" />
		<tag k="ssr:stedsnr" v="96082" />
	</node>
	<node id="-588645" lat="62.8500305574" lon="6.92249165814">
		<tag k="name" v="Tekkelhaugan" />
		<tag k="natural" v="hill" />
		<tag k="place" v="locality" />
		<tag k="ssr:stedsnr" v="96079" />
	</node>
	<node id="-588644" lat="62.8103666687" lon="6.78443888192">
		<tag k="name" v="Ausphaugan" />
		<tag k="natural" v="hill" />
		<tag k="place" v="locality" />
		<tag k="ssr:stedsnr" v="96067" />
	</node>
	<node id="-588643" lat="62.796386111" lon="6.80506666785">
		<tag k="name" v="Ospøya" />
		<tag k="place" v="islet" />
		<tag k="ssr:stedsnr" v="96055" />
	</node>
	<node id="-588642" lat="62.8453416669" lon="6.88146110735">
		<tag k="name" v="Søre Flatholmen" />
		<tag k="place" v="islet" />
		<tag k="ssr:stedsnr" v="96051" />
	</node>
	<node id="-588641" lat="62.845366666" lon="6.88790000815">
		<tag k="man_made" v="quay" />
		<tag k="name" v="Flatholmhamna" />
		<tag k="place" v="locality" />
		<tag k="ssr:stedsnr" v="96046" />
	</node>
	<node id="-588640" lat="62.7671027803" lon="6.98903333645">
		<tag k="alt_name" v="Hollenbukta" />
		<tag k="name" v="Holbukta" />
		<tag k="natural" v="bay" />
		<tag k="ssr:stedsnr" v="96043" />
	</node>
	<node id="-588639" lat="62.7742638922" lon="6.97933889834">
		<tag k="name" v="Hollingsbukta" />
		<tag k="natural" v="bay" />
		<tag k="ssr:stedsnr" v="96037" />
	</node>
	<node id="-588638" lat="62.7541749984" lon="6.98980832623">
		<tag k="name" v="Salttrøa" />
		<tag k="natural" v="bay" />
		<tag k="ssr:stedsnr" v="95466" />
	</node>
	<node id="-588637" lat="62.8065333336" lon="6.76679721479">
		<tag k="amenity" v="ferry_terminal" />
		<tag k="name" v="Småge ferjekai" />
		<tag k="ssr:stedsnr" v="95110" />
	</node>
	<node id="-588636" lat="62.816913887" lon="6.80358610939">
		<tag k="bridge" v="yes" />
		<tag k="layer" v="1" />
		<tag k="name" v="Nørdre Røssøyvågbrua" />
		<tag k="ssr:stedsnr" v="90183" />
	</node>
	<node id="-588635" lat="62.7780583316" lon="6.97654443831">
		<tag k="fixme" v="consider place=hamlet" />
		<tag k="name" v="Hollingsholmen" />
		<tag k="place" v="farm" />
		<tag k="ssr:stedsnr" v="86040" />
	</node>
	<node id="-588634" lat="62.7706861084" lon="6.91998611431">
		<tag k="name" v="Kjerringsundet" />
		<tag k="natural" v="strait" />
		<tag k="ssr:stedsnr" v="73862" />
	</node>
	<node id="-588633" lat="62.7638000019" lon="6.92904721945">
		<tag k="name" v="Flatholmen" />
		<tag k="place" v="islet" />
		<tag k="ssr:stedsnr" v="73860" />
	</node>
	<node id="-588632" lat="62.780349996" lon="6.97683889008">
		<tag k="name" v="Hjellvika" />
		<tag k="place" v="farm" />
		<tag k="ssr:stedsnr" v="72839" />
	</node>
	<node id="-588631" lat="62.7753499958" lon="6.84523611459">
		<tag k="name" v="Trollholmen" />
		<tag k="place" v="islet" />
		<tag k="ssr:stedsnr" v="72837" />
	</node>
	<node id="-588630" lat="62.7840000038" lon="6.87975833918">
		<tag k="name" v="Korsvika" />
		<tag k="place" v="farm" />
		<tag k="ssr:stedsnr" v="72818" />
	</node>
	<node id="-588629" lat="62.7987694409" lon="6.90032778152">
		<tag k="name" v="Blomsneset" />
		<tag k="place" v="farm" />
		<tag k="ssr:stedsnr" v="72771" />
	</node>
	<node id="-588628" lat="62.8117638864" lon="6.75695000546">
		<tag k="name" v="Teistholmen" />
		<tag k="place" v="islet" />
		<tag k="ssr:stedsnr" v="72733" />
	</node>
	<node id="-588627" lat="62.8599999981" lon="6.93916667176">
		<tag k="name" v="Selnesknubban" />
		<tag k="place" v="islet" />
		<tag k="ssr:stedsnr" v="72235" />
	</node>
	<node id="-588626" lat="62.8540972195" lon="6.89205834249">
		<tag k="fixme" v="consider seamark:type=rock or natural=shoal" />
		<tag k="name" v="Kjeholmen" />
		<tag k="place" v="islet" />
		<tag k="ssr:stedsnr" v="72234" />
	</node>
	<node id="-588625" lat="62.8467111147" lon="6.93418055474">
		<tag k="name" v="Solvoll" />
		<tag k="place" v="farm" />
		<tag k="ssr:stedsnr" v="72225" />
	</node>
	<node id="-588624" lat="62.8428972192" lon="6.90087500378">
		<tag k="name" v="Kisthaugen" />
		<tag k="place" v="farm" />
		<tag k="ssr:stedsnr" v="72224" />
	</node>
	<node id="-588623" lat="62.8454333317" lon="6.80798055957">
		<tag k="name" v="Rishaug" />
		<tag k="place" v="farm" />
		<tag k="ssr:stedsnr" v="72221" />
	</node>
	<node id="-588622" lat="62.8375500041" lon="6.86175833243">
		<tag k="name" v="Lauvvika" />
		<tag k="natural" v="bay" />
		<tag k="ssr:stedsnr" v="72218" />
	</node>
	<node id="-588621" lat="62.8701611096" lon="6.85039999415">
		<tag k="name" v="Djupsundsholman" />
		<tag k="place" v="islet" />
		<tag k="ssr:stedsnr" v="72147" />
	</node>
	<node id="-588620" lat="62.8500722263" lon="6.76324721382">
		<tag k="name" v="Årholmen" />
		<tag k="place" v="islet" />
		<tag k="ssr:stedsnr" v="72125" />
	</node>
	<node id="-588619" lat="62.9289194407" lon="6.66436943738">
		<tag k="name" v="Ytre Stauran" />
		<tag k="natural" v="shoal" />
		<tag k="place" v="locality" />
		<tag k="ssr:stedsnr" v="50918" />
	</node>
	<node id="-588618" lat="62.8343749966" lon="6.95808332942">
		<tag k="name" v="Eikremsbåen" />
		<tag k="place" v="locality" />
		<tag k="seamark:type" v="rock" />
		<tag k="ssr:stedsnr" v="50788" />
	</node>
	<node id="-588617" lat="62.8527069125" lon="6.91020314243">
		<tag k="name" v="Setervika" />
		<tag k="natural" v="bay" />
		<tag k="ssr:stedsnr" v="50443" />
	</node>
	<node id="-588616" lat="62.8285527735" lon="6.9614527843">
		<tag k="name" v="Hogsnesflua" />
		<tag k="natural" v="shoal" />
		<tag k="place" v="locality" />
		<tag k="ssr:stedsnr" v="50086" />
	</node>
	<node id="-588615" lat="62.8058083311" lon="6.79021111758">
		<tag k="name" v="Jektvikneset" />
		<tag k="natural" v="cape" />
		<tag k="ssr:stedsnr" v="50077" />
	</node>
	<node id="-588614" lat="62.7770388878" lon="6.84636945174">
		<tag k="name" v="Gullholmsundet" />
		<tag k="natural" v="strait" />
		<tag k="ssr:stedsnr" v="50059" />
	</node>
	<node id="-588613" lat="62.8258388906" lon="6.86266944199">
		<tag k="name" v="Hauglandshaugen" />
		<tag k="natural" v="hill" />
		<tag k="place" v="locality" />
		<tag k="ssr:stedsnr" v="50051" />
	</node>
	<node id="-588612" lat="62.8501999979" lon="6.77697221451">
		<tag k="name" v="Sandskjærflua" />
		<tag k="natural" v="shoal" />
		<tag k="place" v="locality" />
		<tag k="ssr:stedsnr" v="47604" />
	</node>
	<node id="-588611" lat="62.9942083341" lon="6.63298611863">
		<tag k="name" v="Tolleivan" />
		<tag k="place" v="locality" />
		<tag k="ssr:stedsnr" v="46667" />
	</node>
	<node id="-588610" lat="62.8020777755" lon="6.72522221532">
		<tag k="fixme" v="consider seamark:type=rock or natural=shoal" />
		<tag k="name" v="Vadbeinskjæra" />
		<tag k="place" v="islet" />
		<tag k="ssr:stedsnr" v="46638" />
	</node>
	<node id="-588609" lat="62.7659194473" lon="6.99606944791">
		<tag k="fixme" v="multiple name tags, choose one and add the other to alt_name" />
		<tag k="name" v="Medvoll;Vollan" />
		<tag k="place" v="farm" />
		<tag k="ssr:stedsnr" v="42592" />
	</node>
	<node id="-588608" lat="62.839261108" lon="6.8979166663">
		<tag k="name" v="Myran" />
		<tag k="place" v="farm" />
		<tag k="ssr:stedsnr" v="36870" />
	</node>
	<node id="-588607" lat="62.8392722247" lon="6.91681666974">
		<tag k="name" v="Søre Tjønnhaugen" />
		<tag k="natural" v="hill" />
		<tag k="place" v="locality" />
		<tag k="ssr:stedsnr" v="36863" />
	</node>
	<node id="-588606" lat="62.8433916697" lon="6.90331388109">
		<tag k="name" v="Kisthaugen" />
		<tag k="natural" v="hill" />
		<tag k="place" v="locality" />
		<tag k="ssr:stedsnr" v="36859" />
	</node>
	<node id="-588605" lat="62.8446666704" lon="6.89110554582">
		<tag k="name" v="Juvika" />
		<tag k="place" v="hamlet" />
		<tag k="ssr:stedsnr" v="36856" />
	</node>
	<node id="-588604" lat="62.8358194486" lon="6.88684722418">
		<tag k="name" v="Sørigarden" />
		<tag k="place" v="farm" />
		<tag k="ssr:stedsnr" v="36847" />
	</node>
	<node id="-588603" lat="62.856172222" lon="6.90411389699">
		<tag k="name" v="Høgruta" />
		<tag k="place" v="islet" />
		<tag k="ssr:stedsnr" v="36353" />
	</node>
	<node id="-588602" lat="62.8405416704" lon="6.83286388668">
		<tag k="name" v="Ingridmyra" />
		<tag k="natural" v="wetland" />
		<tag k="ssr:stedsnr" v="36333" />
	</node>
	<node id="-588601" lat="62.7656861067" lon="7.00483610447">
		<tag k="name" v="Vollnakken" />
		<tag k="natural" v="ridge" />
		<tag k="place" v="locality" />
		<tag k="ssr:stedsnr" v="36183" />
	</node>
	<node id="-588600" lat="62.8006916658" lon="6.82191389757">
		<tag k="name" v="Halvika" />
		<tag k="natural" v="bay" />
		<tag k="ssr:stedsnr" v="35750" />
	</node>
	<node id="-588599" lat="62.8675361078" lon="6.83823056261">
		<tag k="name" v="Engholman" />
		<tag k="place" v="islet" />
		<tag k="ssr:stedsnr" v="35718" />
	</node>
	<node id="-588598" lat="62.7820527752" lon="6.86533333145">
		<tag k="name" v="Falkorhaugen" />
		<tag k="place" v="islet" />
		<tag k="ssr:stedsnr" v="35714" />
	</node>
	<node id="-588597" lat="62.7917916677" lon="6.85534999405">
		<tag k="name" v="Hellegåta" />
		<tag k="natural" v="slope" />
		<tag k="place" v="locality" />
		<tag k="ssr:stedsnr" v="35710" />
	</node>
	<node id="-588596" lat="62.802088889" lon="6.81409166192">
		<tag k="name" v="Leirvika" />
		<tag k="natural" v="bay" />
		<tag k="ssr:stedsnr" v="35629" />
	</node>
	<node id="-588595" lat="62.8049555562" lon="6.78422777292">
		<tag k="fixme" v="consider seamark:type=rock or natural=shoal" />
		<tag k="name" v="England" />
		<tag k="place" v="islet" />
		<tag k="ssr:stedsnr" v="35616" />
	</node>
	<node id="-588594" lat="62.8054111149" lon="6.78835556105">
		<tag k="name" v="Jektvikhaugen" />
		<tag k="natural" v="hill" />
		<tag k="place" v="locality" />
		<tag k="ssr:stedsnr" v="35614" />
	</node>
	<node id="-588593" lat="62.8389111069" lon="6.79589999963">
		<tag k="name" v="Brenteremma" />
		<tag k="natural" v="hill" />
		<tag k="place" v="locality" />
		<tag k="ssr:stedsnr" v="35453" />
	</node>
	<node id="-588592" lat="62.861769441" lon="6.88773610321">
		<tag k="fixme" v="consider seamark:type=rock or natural=shoal" />
		<tag k="name" v="Hummarskjera" />
		<tag k="place" v="islet" />
		<tag k="ssr:stedsnr" v="35451" />
	</node>
	<node id="-588591" lat="62.8451416636" lon="6.78125554734">
		<tag k="fixme" v="consider seamark:type=rock or natural=shoal" />
		<tag k="name" v="Hurlen" />
		<tag k="place" v="islet" />
		<tag k="ssr:stedsnr" v="35444" />
	</node>
	<node id="-588590" lat="62.8027222242" lon="6.83776944779">
		<tag k="name" v="Abelhaugen" />
		<tag k="natural" v="hill" />
		<tag k="place" v="locality" />
		<tag k="ssr:stedsnr" v="35420" />
	</node>
	<node id="-588589" lat="62.8032333374" lon="6.83942777762">
		<tag k="name" v="Kongshaugen" />
		<tag k="natural" v="hill" />
		<tag k="place" v="locality" />
		<tag k="ssr:stedsnr" v="35411" />
	</node>
	<node id="-588588" lat="62.7577499982" lon="6.92626666408">
		<tag k="alt_name" v="Bollan" />
		<tag k="name" v="Storbollen" />
		<tag k="place" v="islet" />
		<tag k="ssr:stedsnr" v="35359" />
	</node>
	<node id="-588587" lat="62.7834527798" lon="6.98307221596">
		<tag k="name" v="Vikahaugen" />
		<tag k="natural" v="hill" />
		<tag k="place" v="locality" />
		<tag k="ssr:stedsnr" v="35297" />
	</node>
	<node id="-588586" lat="62.8663083337" lon="6.85875000305">
		<tag k="name" v="Grønholmen" />
		<tag k="place" v="islet" />
		<tag k="ssr:stedsnr" v="35215" />
	</node>
	<node id="-588585" lat="62.8458666689" lon="6.96255832735">
		<tag k="name" v="Futvika" />
		<tag k="natural" v="bay" />
		<tag k="ssr:stedsnr" v="35177" />
	</node>
	<node id="-588584" lat="62.845288887" lon="6.91300834055">
		<tag k="name" v="Torvehaugen" />
		<tag k="natural" v="hill" />
		<tag k="place" v="locality" />
		<tag k="ssr:stedsnr" v="35147" />
	</node>
	<node id="-588583" lat="62.8433055539" lon="6.94903333537">
		<tag k="name" v="Midtre Steghaugen" />
		<tag k="natural" v="hill" />
		<tag k="place" v="locality" />
		<tag k="ssr:stedsnr" v="35094" />
	</node>
	<node id="-588582" lat="62.8517686518" lon="6.75815893077">
		<tag k="fixme" v="consider seamark:type=rock or natural=shoal" />
		<tag k="name" v="Årholmflua" />
		<tag k="place" v="islet" />
		<tag k="ssr:stedsnr" v="35075" />
	</node>
	<node id="-588581" lat="62.7943222216" lon="6.79631111354">
		<tag k="fixme" v="consider seamark:type=rock or natural=shoal" />
		<tag k="name" v="Straumskjera" />
		<tag k="place" v="islet" />
		<tag k="ssr:stedsnr" v="35048" />
	</node>
	<node id="-588580" lat="62.7956833295" lon="6.78482221959">
		<tag k="name" v="Smågehelløya" />
		<tag k="place" v="islet" />
		<tag k="ssr:stedsnr" v="35031" />
	</node>
	<node id="-588579" lat="62.7740777754" lon="6.98579443967">
		<tag k="name" v="Nedre Hollingen" />
		<tag k="place" v="farm" />
		<tag k="ssr:stedsnr" v="35028" />
	</node>
	<node id="-588578" lat="62.7534999957" lon="6.98769167485">
		<tag k="name" v="Ramshaugen" />
		<tag k="natural" v="hill" />
		<tag k="place" v="locality" />
		<tag k="ssr:stedsnr" v="34486" />
	</node>
	<node id="-588577" lat="62.7707888889" lon="6.99309444757">
		<tag k="bridge" v="yes" />
		<tag k="layer" v="1" />
		<tag k="name" v="Fangholbrua" />
		<tag k="ssr:stedsnr" v="29217" />
	</node>
	<node id="-588575" lat="62.7827194422" lon="6.98854167481">
		<tag k="name" v="Torhaugmyra" />
		<tag k="natural" v="wetland" />
		<tag k="ssr:stedsnr" v="20452" />
	</node>
	<node id="-588574" lat="62.8346499962" lon="6.87542221957">
		<tag k="name" v="Neset" />
		<tag k="place" v="farm" />
		<tag k="ssr:stedsnr" v="12217" />
	</node>
	<node id="-588573" lat="62.8353472179" lon="6.79575000631">
		<tag k="name" v="Utheim" />
		<tag k="place" v="farm" />
		<tag k="ssr:stedsnr" v="12208" />
	</node>
	<node id="-588572" lat="62.7913249971" lon="6.83653888504">
		<tag k="name" v="Småsundholman" />
		<tag k="place" v="islet" />
		<tag k="ssr:stedsnr" v="12820" />
	</node>
	<node id="-588571" lat="62.8054333348" lon="6.8704250078">
		<tag k="name" v="Nyvoll" />
		<tag k="place" v="farm" />
		<tag k="ssr:stedsnr" v="11823" />
	</node>
	<node id="-588570" lat="62.8016777743" lon="6.90339999547">
		<tag k="name" v="Buktin" />
		<tag k="natural" v="bay" />
		<tag k="ssr:stedsnr" v="11804" />
	</node>
	<node id="-588569" lat="62.806919448" lon="6.89729721604">
		<tag k="name" v="Varhaugvika" />
		<tag k="place" v="farm" />
		<tag k="ssr:stedsnr" v="11805" />
	</node>
	<node id="-588568" lat="62.8093333376" lon="6.88758889762">
		<tag k="name" v="Hagen" />
		<tag k="place" v="farm" />
		<tag k="ssr:stedsnr" v="11799" />
	</node>
	<node id="-588567" lat="62.8199384913" lon="6.8988640643">
		<tag k="fixme" v="consider place=hamlet" />
		<tag k="name" v="Nerbøen" />
		<tag k="place" v="farm" />
		<tag k="ssr:stedsnr" v="11775" />
	</node>
	<node id="-588566" lat="62.8206594015" lon="6.84662648773">
		<tag k="name" v="Reitebø" />
		<tag k="place" v="farm" />
		<tag k="ssr:stedsnr" v="11772" />
	</node>
	<node id="-588565" lat="62.8305333378" lon="6.80891389754">
		<tag k="alt_name" v="Otterhalsen" />
		<tag k="name" v="Oterhalsen" />
		<tag k="place" v="farm" />
		<tag k="ssr:stedsnr" v="11766" />
	</node>
	<node id="-588564" lat="62.8177333367" lon="6.76691944842">
		<tag k="name" v="Trollholmen" />
		<tag k="place" v="islet" />
		<tag k="ssr:stedsnr" v="11754" />
	</node>
	<node id="-588563" lat="62.9313527799" lon="6.69016388454">
		<tag k="name" v="Kjerringflutaren" />
		<tag k="natural" v="shoal" />
		<tag k="place" v="locality" />
		<tag k="ssr:stedsnr" v="11306" />
	</node>
	<node id="-588562" lat="62.9094777811" lon="6.69285278537">
		<tag k="name" v="Stabban" />
		<tag k="natural" v="shoal" />
		<tag k="place" v="locality" />
		<tag k="ssr:stedsnr" v="11304" />
	</node>
	<node id="-588561" lat="62.9192750035" lon="6.67374444545">
		<tag k="fixme" v="consider seamark:type=rock or natural=shoal" />
		<tag k="name" v="Oddan" />
		<tag k="place" v="islet" />
		<tag k="ssr:stedsnr" v="11300" />
	</node>
	<node id="-588560" lat="62.8471394231" lon="6.90131810633">
		<tag k="fixme" v="consider place=hamlet" />
		<tag k="name" v="Seter" />
		<tag k="place" v="farm" />
		<tag k="ssr:stedsnr" v="11219" />
	</node>
	<node id="-588559" lat="62.8461361066" lon="6.77281665731">
		<tag k="name" v="Rindarøya" />
		<tag k="place" v="island" />
		<tag k="ssr:stedsnr" v="11210" />
	</node>
	<node id="-588558" lat="62.863183332" lon="6.7251499998">
		<tag k="name" v="Orsholmen" />
		<tag k="place" v="islet" />
		<tag k="ssr:stedsnr" v="11138" />
	</node>
	<node id="-588557" lat="62.7898270265" lon="6.91623942739">
		<tag k="fixme" v="consider place=hamlet" />
		<tag k="name" v="Aukra" />
		<tag k="place" v="farm" />
		<tag k="ssr:stedsnr" v="981245" />
	</node>
	<node id="-588556" lat="63.0010444475" lon="6.65953333706">
		<tag k="name" v="Hallet" />
		<tag k="natural" v="shoal" />
		<tag k="place" v="locality" />
		<tag k="ssr:stedsnr" v="899381" />
	</node>
	<node id="-588555" lat="62.770994441" lon="6.97626666696">
		<tag k="name" v="Seterneset" />
		<tag k="natural" v="cape" />
		<tag k="ssr:stedsnr" v="897560" />
	</node>
	<node id="-588554" lat="62.8899111134" lon="6.77554166384">
		<tag k="fixme" v="consider seamark:type=rock or natural=shoal" />
		<tag k="name" v="Bollfluin" />
		<tag k="place" v="islet" />
		<tag k="ssr:stedsnr" v="895530" />
	</node>
	<node id="-588552" lat="62.8393138861" lon="6.91151945058">
		<tag k="name" v="Tjønnan" />
		<tag k="natural" v="water" />
		<tag k="ssr:stedsnr" v="886853" />
	</node>
	<node id="-588551" lat="62.7940444463" lon="6.91751667599">
		<tag k="name" v="Kalvtrøa" />
		<tag k="place" v="quarter" />
		<tag k="ssr:stedsnr" v="885899" />
	</node>
	<node id="-588550" lat="62.8374111097" lon="6.88912777467">
		<tag k="name" v="Ekkerhaugen" />
		<tag k="place" v="farm" />
		<tag k="ssr:stedsnr" v="885818" />
	</node>
	<node id="-588549" lat="62.8009055531" lon="6.83176111381">
		<tag k="name" v="Strupen" />
		<tag k="natural" v="ridge" />
		<tag k="place" v="locality" />
		<tag k="ssr:stedsnr" v="885721" />
	</node>
	<node id="-588548" lat="62.781436108" lon="6.86208332633">
		<tag k="name" v="Falkorholmen" />
		<tag k="place" v="islet" />
		<tag k="ssr:stedsnr" v="885666" />
	</node>
	<node id="-588547" lat="62.7945888857" lon="6.91077223024">
		<tag k="alt_name" v="Farshaugbukta" />
		<tag k="name" v="Farshaugleira" />
		<tag k="natural" v="shoal" />
		<tag k="place" v="locality" />
		<tag k="ssr:stedsnr" v="885602" />
	</node>
	<node id="-588546" lat="62.7858000026" lon="6.87707222133">
		<tag k="alt_name" v="Remma" />
		<tag k="name" v="Hjertvikremma" />
		<tag k="place" v="farm" />
		<tag k="ssr:stedsnr" v="885582" />
	</node>
	<node id="-588545" lat="62.8055861088" lon="6.79243889799">
		<tag k="name" v="Balhamna" />
		<tag k="natural" v="bay" />
		<tag k="ssr:stedsnr" v="885565" />
	</node>
	<node id="-588544" lat="62.8580500026" lon="6.92250000895">
		<tag k="name" v="Skatsundholmen" />
		<tag k="place" v="islet" />
		<tag k="ssr:stedsnr" v="885391" />
	</node>
	<node id="-588543" lat="62.854569442" lon="6.92843888166">
		<tag k="name" v="Hasselvika" />
		<tag k="natural" v="bay" />
		<tag k="ssr:stedsnr" v="885390" />
	</node>
	<node id="-588542" lat="62.8551555515" lon="6.9048111045">
		<tag k="name" v="Stormåsholmen" />
		<tag k="place" v="islet" />
		<tag k="ssr:stedsnr" v="885381" />
	</node>
	<node id="-588541" lat="62.856611114" lon="6.90864445203">
		<tag k="fixme" v="consider seamark:type=rock or natural=shoal" />
		<tag k="name" v="Siriskjera" />
		<tag k="place" v="islet" />
		<tag k="ssr:stedsnr" v="885377" />
	</node>
	<node id="-588540" lat="62.8153722191" lon="6.82000277108">
		<tag k="name" v="Røssgardhaugan" />
		<tag k="natural" v="hill" />
		<tag k="place" v="locality" />
		<tag k="ssr:stedsnr" v="885350" />
	</node>
	<node id="-588539" lat="62.8555361095" lon="6.89378611031">
		<tag k="name" v="Tjyvholmen" />
		<tag k="place" v="islet" />
		<tag k="ssr:stedsnr" v="885349" />
	</node>
	<node id="-588538" lat="62.8119916624" lon="6.8485638974">
		<tag k="name" v="Langhaugan" />
		<tag k="natural" v="hill" />
		<tag k="place" v="locality" />
		<tag k="ssr:stedsnr" v="885344" />
	</node>
	<node id="-588537" lat="62.8152861125" lon="6.82427499779">
		<tag k="name" v="Speielen" />
		<tag k="natural" v="hill" />
		<tag k="place" v="locality" />
		<tag k="ssr:stedsnr" v="885338" />
	</node>
	<node id="-588536" lat="62.7789305523" lon="6.88549999944">
		<tag k="name" v="Breivika" />
		<tag k="natural" v="bay" />
		<tag k="ssr:stedsnr" v="885283" />
	</node>
	<node id="-588535" lat="62.7851388911" lon="6.99539165843">
		<tag k="name" v="Torhaugmyra" />
		<tag k="natural" v="wetland" />
		<tag k="ssr:stedsnr" v="885277" />
	</node>
	<node id="-588534" lat="62.7824305572" lon="6.99787221773">
		<tag k="alt_name" v="Deppelhaugen" />
		<tag k="name" v="Depelhaugen" />
		<tag k="natural" v="hill" />
		<tag k="place" v="locality" />
		<tag k="ssr:stedsnr" v="885275" />
	</node>
	<node id="-588533" lat="62.8475222222" lon="6.84109723135">
		<tag k="name" v="Rishaug" />
		<tag k="place" v="farm" />
		<tag k="ssr:stedsnr" v="885236" />
	</node>
	<node id="-588532" lat="62.7685888904" lon="7.00009165986">
		<tag k="historic" v="shieling" />
		<tag k="name" v="Gammelsetra" />
		<tag k="place" v="locality" />
		<tag k="ssr:stedsnr" v="885233" />
	</node>
	<node id="-588531" lat="62.772944448" lon="7.00508888415">
		<tag k="name" v="Fårhaugan" />
		<tag k="natural" v="hill" />
		<tag k="place" v="locality" />
		<tag k="ssr:stedsnr" v="885224" />
	</node>
	<node id="-588530" lat="62.8508138883" lon="6.81008333672">
		<tag k="name" v="Kvalvika" />
		<tag k="natural" v="bay" />
		<tag k="ssr:stedsnr" v="885219" />
	</node>
	<node id="-588529" lat="62.761875004" lon="7.017574999">
		<tag k="name" v="Eiskremdalen" />
		<tag k="natural" v="valley" />
		<tag k="place" v="locality" />
		<tag k="ssr:stedsnr" v="885154" />
	</node>
	<node id="-588528" lat="62.8385222219" lon="6.95622776957">
		<tag k="name" v="Litlegrynnvika" />
		<tag k="natural" v="bay" />
		<tag k="ssr:stedsnr" v="885071" />
	</node>
	<node id="-588527" lat="62.8626500011" lon="6.74674167251">
		<tag k="fixme" v="consider seamark:type=rock or natural=shoal" />
		<tag k="name" v="Grøningknubban" />
		<tag k="place" v="islet" />
		<tag k="ssr:stedsnr" v="885059" />
	</node>
	<node id="-588526" lat="62.8664722204" lon="6.77352778132">
		<tag k="fixme" v="consider seamark:type=rock or natural=shoal" />
		<tag k="name" v="Inste Årholmskjeret" />
		<tag k="place" v="islet" />
		<tag k="ssr:stedsnr" v="885058" />
	</node>
	<node id="-588525" lat="62.8483638929" lon="6.79625555649">
		<tag k="fixme" v="consider seamark:type=rock or natural=shoal" />
		<tag k="name" v="Komedantskjeret" />
		<tag k="place" v="islet" />
		<tag k="ssr:stedsnr" v="885056" />
	</node>
	<node id="-588524" lat="62.7975194483" lon="6.7926472264">
		<tag k="name" v="Lille Helløy" />
		<tag k="place" v="islet" />
		<tag k="ssr:stedsnr" v="885039" />
	</node>
	<node id="-588523" lat="62.8176000028" lon="6.79956388913">
		<tag k="name" v="Lyngholmen" />
		<tag k="place" v="islet" />
		<tag k="ssr:stedsnr" v="885028" />
	</node>
	<node id="-588522" lat="62.785008335" lon="6.74907778162">
		<tag k="name" v="Risøydrågane" />
		<tag k="place" v="islet" />
		<tag k="ssr:stedsnr" v="885026" />
	</node>
	<node id="-588521" lat="62.7779611127" lon="6.97091389639">
		<tag k="name" v="Holmebukta" />
		<tag k="natural" v="bay" />
		<tag k="ssr:stedsnr" v="885016" />
	</node>
	<node id="-588520" lat="62.7915972223" lon="6.76273332818">
		<tag k="fixme" v="consider seamark:type=rock or natural=shoal" />
		<tag k="name" v="Kransen" />
		<tag k="place" v="islet" />
		<tag k="ssr:stedsnr" v="885017" />
	</node>
	<node id="-588519" lat="62.77208333" lon="6.87710833245">
		<tag k="name" v="Snelletaren" />
		<tag k="natural" v="shoal" />
		<tag k="place" v="locality" />
		<tag k="ssr:stedsnr" v="474106" />
	</node>
	<node id="-588518" lat="62.7748083346" lon="6.8767944448">
		<tag k="fixme" v="consider seamark:type=rock or natural=shoal" />
		<tag k="name" v="Steinskjæret" />
		<tag k="place" v="islet" />
		<tag k="ssr:stedsnr" v="411593" />
	</node>
	<node id="-588517" lat="62.9257638847" lon="6.72015833052">
		<tag k="name" v="Søreggfluin" />
		<tag k="natural" v="shoal" />
		<tag k="place" v="locality" />
		<tag k="ssr:stedsnr" v="411575" />
	</node>
	<node id="-588516" lat="62.8523166653" lon="6.7858722205">
		<tag k="fixme" v="consider seamark:type=rock or natural=shoal" />
		<tag k="name" v="Sandskjæret" />
		<tag k="place" v="islet" />
		<tag k="ssr:stedsnr" v="254105" />
	</node>
	<node id="-588515" lat="62.7940749965" lon="6.91751389047">
		<tag k="name" v="Kalvtrøa" />
		<tag k="place" v="locality" />
		<tag k="ssr:stedsnr" v="409531" />
	</node>
	<node id="-588514" lat="62.779741665" lon="6.72318055786">
		<tag k="name" v="Kobbeskjærflua" />
		<tag k="natural" v="shoal" />
		<tag k="place" v="locality" />
		<tag k="ssr:stedsnr" v="409515" />
	</node>
	<node id="-588513" lat="62.8350555555" lon="6.83075277235">
		<tag k="aeroway" v="aerodrome" />
		<tag k="name" v="Flyplass" />
		<tag k="ssr:stedsnr" v="405236" />
	</node>
	<node id="-588512" lat="62.8389305554" lon="6.9094083273">
		<tag k="name" v="Pikhaugen" />
		<tag k="natural" v="hill" />
		<tag k="place" v="locality" />
		<tag k="ssr:stedsnr" v="400875" />
	</node>
	<node id="-588511" lat="62.8399138913" lon="6.90268332933">
		<tag k="name" v="Orhaugløken" />
		<tag k="ssr:stedsnr" v="400867" />
		<tag k="waterway" v="stream" />
	</node>
	<node id="-588510" lat="62.832097224" lon="6.89708332791">
		<tag k="name" v="Hushaugdalen" />
		<tag k="natural" v="valley" />
		<tag k="place" v="locality" />
		<tag k="ssr:stedsnr" v="400844" />
	</node>
	<node id="-588509" lat="62.8340916699" lon="6.9054805518">
		<tag k="name" v="Storsteinremma" />
		<tag k="natural" v="wetland" />
		<tag k="ssr:stedsnr" v="400841" />
	</node>
	<node id="-588508" lat="62.7941916651" lon="6.84220556025">
		<tag k="name" v="Notvika" />
		<tag k="natural" v="bay" />
		<tag k="ssr:stedsnr" v="399740" />
	</node>
	<node id="-588507" lat="62.7979333295" lon="6.85018610425">
		<tag k="name" v="Hjertvikbakken" />
		<tag k="natural" v="slope" />
		<tag k="place" v="locality" />
		<tag k="ssr:stedsnr" v="399736" />
	</node>
	<node id="-588506" lat="62.8001249989" lon="6.82544722216">
		<tag k="name" v="Ospavika" />
		<tag k="natural" v="bay" />
		<tag k="ssr:stedsnr" v="399732" />
	</node>
	<node id="-588505" lat="62.7573972251" lon="7.03598611556">
		<tag k="name" v="Prestebotnen" />
		<tag k="natural" v="valley" />
		<tag k="place" v="locality" />
		<tag k="ssr:stedsnr" v="399678" />
	</node>
	<node id="-588504" lat="62.8698722197" lon="6.85074999069">
		<tag k="name" v="Hansholmen" />
		<tag k="place" v="islet" />
		<tag k="ssr:stedsnr" v="399675" />
	</node>
	<node id="-588503" lat="62.7954888878" lon="6.91497223157">
		<tag k="name" v="Kjerkjeberget" />
		<tag k="natural" v="hill" />
		<tag k="place" v="locality" />
		<tag k="ssr:stedsnr" v="399603" />
	</node>
	<node id="-588502" lat="62.8301027744" lon="6.80180278419">
		<tag k="name" v="Urahaugen" />
		<tag k="natural" v="hill" />
		<tag k="place" v="locality" />
		<tag k="ssr:stedsnr" v="399439" />
	</node>
	<node id="-588501" lat="62.8554777813" lon="6.92229999026">
		<tag k="name" v="Skatvika" />
		<tag k="natural" v="bay" />
		<tag k="ssr:stedsnr" v="399423" />
	</node>
	<node id="-588500" lat="62.8411361113" lon="6.77644444892">
		<tag k="name" v="Karlsholmen" />
		<tag k="place" v="islet" />
		<tag k="ssr:stedsnr" v="399402" />
	</node>
	<node id="-588499" lat="62.8611194474" lon="6.92421388197">
		<tag k="name" v="Nørde Langøya" />
		<tag k="place" v="islet" />
		<tag k="ssr:stedsnr" v="399383" />
	</node>
	<node id="-588498" lat="62.8086666656" lon="6.81741666899">
		<tag k="name" v="Våthaugen" />
		<tag k="natural" v="hill" />
		<tag k="place" v="locality" />
		<tag k="ssr:stedsnr" v="399382" />
	</node>
	<node id="-588497" lat="62.8039749963" lon="6.86381666037">
		<tag k="name" v="Midtheim" />
		<tag k="place" v="farm" />
		<tag k="ssr:stedsnr" v="399371" />
	</node>
	<node id="-588496" lat="62.8559583291" lon="6.94179722393">
		<tag k="name" v="Selneshaugen" />
		<tag k="natural" v="hill" />
		<tag k="place" v="locality" />
		<tag k="ssr:stedsnr" v="399180" />
	</node>
	<node id="-588495" lat="62.7646611097" lon="7.02749444072">
		<tag k="name" v="Peskaret" />
		<tag k="natural" v="valley" />
		<tag k="place" v="locality" />
		<tag k="ssr:stedsnr" v="399168" />
	</node>
	<node id="-588494" lat="62.8405555528" lon="6.95699722534">
		<tag k="alt_name" v="Grunnvika" />
		<tag k="name" v="Grynnvika" />
		<tag k="natural" v="bay" />
		<tag k="ssr:stedsnr" v="399088" />
	</node>
	<node id="-588493" lat="62.8456944418" lon="6.78886665953">
		<tag k="name" v="Storsandvika" />
		<tag k="natural" v="bay" />
		<tag k="ssr:stedsnr" v="399072" />
	</node>
	<node id="-588492" lat="62.7945166632" lon="6.77131111588">
		<tag k="name" v="Skjepholmen" />
		<tag k="place" v="islet" />
		<tag k="ssr:stedsnr" v="399014" />
	</node>
	<node id="-588491" lat="62.8381527796" lon="6.90709167524">
		<tag k="name" v="Kisthaugmyra" />
		<tag k="natural" v="wetland" />
		<tag k="ssr:stedsnr" v="384467" />
	</node>
	<node id="-588490" lat="62.7839531031" lon="6.9162572005">
		<tag k="name" v="Sandabukta" />
		<tag k="natural" v="bay" />
		<tag k="ssr:stedsnr" v="384461" />
	</node>
	<node id="-588489" lat="62.7982361112" lon="6.81243334174">
		<tag k="fixme" v="consider seamark:type=rock or natural=shoal" />
		<tag k="name" v="Storedroga" />
		<tag k="place" v="islet" />
		<tag k="ssr:stedsnr" v="375785" />
	</node>
	<node id="-588488" lat="62.8107805542" lon="6.88411110344">
		<tag k="name" v="Dalen" />
		<tag k="place" v="farm" />
		<tag k="ssr:stedsnr" v="375774" />
	</node>
	<node id="-588487" lat="62.8278583302" lon="6.79521110673">
		<tag k="name" v="Buholman" />
		<tag k="place" v="islet" />
		<tag k="ssr:stedsnr" v="375740" />
	</node>
	<node id="-588486" lat="62.8323833369" lon="6.85144999384">
		<tag k="name" v="Skjerset" />
		<tag k="place" v="farm" />
		<tag k="ssr:stedsnr" v="375738" />
	</node>
	<node id="-588485" lat="62.8562000024" lon="6.89804723084">
		<tag k="fixme" v="consider seamark:type=rock or natural=shoal" />
		<tag k="name" v="Flatruta" />
		<tag k="place" v="islet" />
		<tag k="ssr:stedsnr" v="375194" />
	</node>
	<node id="-588484" lat="62.8588944429" lon="6.83830833827">
		<tag k="name" v="Engholman" />
		<tag k="place" v="islet" />
		<tag k="ssr:stedsnr" v="375193" />
	</node>
	<node id="-588483" lat="62.8484333327" lon="6.91205278547">
		<tag k="name" v="Myrstad" />
		<tag k="place" v="farm" />
		<tag k="ssr:stedsnr" v="375189" />
	</node>
	<node id="-588482" lat="62.8362249987" lon="6.77382500294">
		<tag k="name" v="Store Kjølingen" />
		<tag k="place" v="islet" />
		<tag k="ssr:stedsnr" v="375182" />
	</node>
	<node id="-588481" lat="62.8397305538" lon="6.78638333569">
		<tag k="name" v="Bytingsvika" />
		<tag k="place" v="farm" />
		<tag k="ssr:stedsnr" v="375175" />
	</node>
	<node id="-588480" lat="62.8363444415" lon="6.92337777971">
		<tag k="name" v="Midtbø" />
		<tag k="place" v="farm" />
		<tag k="ssr:stedsnr" v="375155" />
	</node>
	<node id="-588478" lat="62.8670277749" lon="6.75267500312">
		<tag k="name" v="Grøningen" />
		<tag k="place" v="islet" />
		<tag k="ssr:stedsnr" v="375101" />
	</node>
	<node id="-588477" lat="62.7692722197" lon="6.8517166586">
		<tag k="name" v="Trollholmflua" />
		<tag k="natural" v="shoal" />
		<tag k="place" v="locality" />
		<tag k="ssr:stedsnr" v="414120" />
	</node>
	<node id="-588476" lat="62.8266000007" lon="6.8168666606">
		<tag k="name" v="Rødsleira" />
		<tag k="natural" v="shoal" />
		<tag k="place" v="locality" />
		<tag k="ssr:stedsnr" v="414073" />
	</node>
	<node id="-588475" lat="62.8004638928" lon="6.91604166889">
		<tag k="name" v="Hukkelbergbukta" />
		<tag k="natural" v="bay" />
		<tag k="ssr:stedsnr" v="414068" />
	</node>
	<node id="-588474" lat="62.9247750001" lon="6.67005832837">
		<tag k="name" v="Midtre Stauran" />
		<tag k="natural" v="shoal" />
		<tag k="place" v="locality" />
		<tag k="ssr:stedsnr" v="353931" />
	</node>
	<node id="-588473" lat="62.8246333347" lon="6.95868055018">
		<tag k="name" v="Langneset" />
		<tag k="natural" v="cape" />
		<tag k="ssr:stedsnr" v="353482" />
	</node>
	<node id="-588472" lat="62.8734527774" lon="6.77438887929">
		<tag k="name" v="Stabben" />
		<tag k="natural" v="shoal" />
		<tag k="place" v="locality" />
		<tag k="ssr:stedsnr" v="414027" />
	</node>
	<node id="-588471" lat="62.8035444418" lon="6.91786389178">
		<tag k="name" v="Småholman" />
		<tag k="place" v="islet" />
		<tag k="ssr:stedsnr" v="350582" />
	</node>
	<node id="-588470" lat="62.8665000035" lon="6.77426667214">
		<tag k="fixme" v="consider seamark:type=rock or natural=shoal" />
		<tag k="name" v="Orholmskjæret" />
		<tag k="place" v="islet" />
		<tag k="ssr:stedsnr" v="349639" />
	</node>
	<node id="-588469" lat="62.9251194449" lon="6.705925009">
		<tag k="name" v="Galderskjærsøyla" />
		<tag k="place" v="locality" />
		<tag k="ssr:stedsnr" v="348521" />
	</node>
	<node id="-588468" lat="62.872902778" lon="6.6779499994">
		<tag k="name" v="Kløvningstaren" />
		<tag k="natural" v="shoal" />
		<tag k="place" v="locality" />
		<tag k="ssr:stedsnr" v="348507" />
	</node>
	<node id="-588467" lat="62.7922250039" lon="6.9056472242">
		<tag k="name" v="Hukkelberget" />
		<tag k="natural" v="hill" />
		<tag k="place" v="locality" />
		<tag k="ssr:stedsnr" v="339908" />
	</node>
	<node id="-588466" lat="62.8441000043" lon="6.90939999313">
		<tag k="name" v="Søre Torvhaugen" />
		<tag k="natural" v="hill" />
		<tag k="place" v="locality" />
		<tag k="ssr:stedsnr" v="339835" />
	</node>
	<node id="-588465" lat="62.8439861109" lon="6.91915554773">
		<tag k="name" v="Ridderhaugan" />
		<tag k="natural" v="hill" />
		<tag k="place" v="locality" />
		<tag k="ssr:stedsnr" v="339831" />
	</node>
	<node id="-588464" lat="62.8354944402" lon="6.89160556082">
		<tag k="name" v="Kyrkjebakken" />
		<tag k="natural" v="slope" />
		<tag k="place" v="locality" />
		<tag k="ssr:stedsnr" v="339820" />
	</node>
	<node id="-588463" lat="62.8311666673" lon="6.88614722377">
		<tag k="name" v="Sporsemelva" />
		<tag k="ssr:stedsnr" v="339784" />
		<tag k="waterway" v="stream" />
	</node>
	<node id="-588462" lat="62.8432138904" lon="6.88185278435">
		<tag k="fixme" v="consider seamark:type=rock or natural=shoal" />
		<tag k="name" v="Målar-Pederskjeret" />
		<tag k="place" v="islet" />
		<tag k="ssr:stedsnr" v="339770" />
	</node>
	<node id="-588461" lat="62.8395361107" lon="6.87270000082">
		<tag k="name" v="Ytste Vassdalsholmen" />
		<tag k="place" v="islet" />
		<tag k="ssr:stedsnr" v="339767" />
	</node>
	<node id="-588460" lat="62.8380916711" lon="6.8770972266">
		<tag k="name" v="Sporsemholmen" />
		<tag k="place" v="islet" />
		<tag k="ssr:stedsnr" v="339765" />
	</node>
	<node id="-588459" lat="62.7902861098" lon="6.84074999285">
		<tag k="name" v="Småsundhola" />
		<tag k="natural" v="bay" />
		<tag k="ssr:stedsnr" v="339745" />
	</node>
	<node id="-588458" lat="62.7930250005" lon="6.84044999043">
		<tag k="name" v="Skenneset" />
		<tag k="natural" v="cape" />
		<tag k="ssr:stedsnr" v="339743" />
	</node>
	<node id="-588457" lat="62.7957388867" lon="6.91807500242">
		<tag k="fixme" v="consider seamark:type=rock or natural=shoal" />
		<tag k="name" v="Kalvtrøskjæret" />
		<tag k="place" v="islet" />
		<tag k="ssr:stedsnr" v="339571" />
	</node>
	<node id="-588456" lat="62.7748194438" lon="6.87657223085">
		<tag k="fixme" v="consider seamark:type=rock or natural=shoal" />
		<tag k="name" v="Steinskjeret" />
		<tag k="place" v="islet" />
		<tag k="ssr:stedsnr" v="339420" />
	</node>
	<node id="-588455" lat="62.8604444475" lon="6.92751388499">
		<tag k="name" v="Klungerholmen" />
		<tag k="place" v="islet" />
		<tag k="ssr:stedsnr" v="339391" />
	</node>
	<node id="-588454" lat="62.8587694476" lon="6.93129444924">
		<tag k="name" v="Klubbholmen" />
		<tag k="place" v="islet" />
		<tag k="ssr:stedsnr" v="339390" />
	</node>
	<node id="-588453" lat="62.8560722207" lon="6.91921389653">
		<tag k="name" v="Skatsundet" />
		<tag k="natural" v="strait" />
		<tag k="ssr:stedsnr" v="339387" />
	</node>
	<node id="-588452" lat="62.8530249982" lon="6.91433334074">
		<tag k="name" v="Skitnevalen" />
		<tag k="natural" v="bay" />
		<tag k="ssr:stedsnr" v="339381" />
	</node>
	<node id="-588451" lat="62.8593000004" lon="6.90469443618">
		<tag k="name" v="Inste Mannholmen" />
		<tag k="place" v="islet" />
		<tag k="ssr:stedsnr" v="339379" />
	</node>
	<node id="-588450" lat="62.8609083353" lon="6.90741388689">
		<tag k="name" v="Urholmen" />
		<tag k="place" v="islet" />
		<tag k="ssr:stedsnr" v="339378" />
	</node>
	<node id="-588449" lat="62.8276472264" lon="6.82824722983">
		<tag k="name" v="Hellegåthaugane" />
		<tag k="natural" v="hill" />
		<tag k="place" v="locality" />
		<tag k="ssr:stedsnr" v="339361" />
	</node>
	<node id="-588448" lat="62.8203250019" lon="6.82325000841">
		<tag k="name" v="Rødaelva" />
		<tag k="ssr:stedsnr" v="339353" />
		<tag k="waterway" v="river" />
	</node>
	<node id="-588447" lat="62.8091555582" lon="6.83131111565">
		<tag k="name" v="Kviteberget" />
		<tag k="natural" v="hill" />
		<tag k="place" v="locality" />
		<tag k="ssr:stedsnr" v="339335" />
	</node>
	<node id="-588446" lat="62.780599998" lon="7.00978332511">
		<tag k="name" v="Skoppedalen" />
		<tag k="natural" v="valley" />
		<tag k="place" v="locality" />
		<tag k="ssr:stedsnr" v="339261" />
	</node>
	<node id="-588445" lat="62.7837138922" lon="6.98159166475">
		<tag k="name" v="Vikaneset" />
		<tag k="natural" v="cape" />
		<tag k="ssr:stedsnr" v="339243" />
	</node>
	<node id="-588444" lat="62.848616665" lon="6.84244167367">
		<tag k="name" v="Hellarholet" />
		<tag k="natural" v="valley" />
		<tag k="place" v="locality" />
		<tag k="ssr:stedsnr" v="339221" />
	</node>
	<node id="-588443" lat="62.7620194436" lon="7.00558056046">
		<tag k="name" v="Stornakken" />
		<tag k="natural" v="ridge" />
		<tag k="place" v="locality" />
		<tag k="ssr:stedsnr" v="339219" />
	</node>
	<node id="-588442" lat="62.8512444406" lon="6.80811110814">
		<tag k="fixme" v="consider seamark:type=rock or natural=shoal" />
		<tag k="name" v="Kvalvikskjeret" />
		<tag k="place" v="islet" />
		<tag k="ssr:stedsnr" v="339213" />
	</node>
	<node id="-588441" lat="62.8078194401" lon="6.77021944088">
		<tag k="name" v="Stengnestua" />
		<tag k="natural" v="hill" />
		<tag k="place" v="locality" />
		<tag k="ssr:stedsnr" v="339202" />
	</node>
	<node id="-588440" lat="62.826380555" lon="6.79315277404">
		<tag k="name" v="Buholmsknubban" />
		<tag k="place" v="islet" />
		<tag k="ssr:stedsnr" v="339075" />
	</node>
	<node id="-588439" lat="62.850533331" lon="6.8018861201">
		<tag k="fixme" v="consider seamark:type=rock or natural=shoal" />
		<tag k="name" v="Kvalvikskjera" />
		<tag k="place" v="islet" />
		<tag k="ssr:stedsnr" v="339074" />
	</node>
	<node id="-588438" lat="62.8072388878" lon="6.76261944477">
		<tag k="name" v="Stongnesholmen" />
		<tag k="place" v="islet" />
		<tag k="ssr:stedsnr" v="339048" />
	</node>
	<node id="-588437" lat="62.8098861119" lon="6.79556388804">
		<tag k="name" v="Sporvehaugen" />
		<tag k="natural" v="hill" />
		<tag k="place" v="locality" />
		<tag k="ssr:stedsnr" v="339045" />
	</node>
	<node id="-588436" lat="62.776138885" lon="6.98082500464">
		<tag k="name" v="Nausthaugen" />
		<tag k="natural" v="hill" />
		<tag k="place" v="locality" />
		<tag k="ssr:stedsnr" v="339016" />
	</node>
	<node id="-588435" lat="62.7981916648" lon="6.83278610278">
		<tag k="name" v="Naustneset" />
		<tag k="natural" v="cape" />
		<tag k="ssr:stedsnr" v="338511" />
	</node>
	<node id="-588434" lat="62.8474444479" lon="6.94032223119">
		<tag k="name" v="Seterelva" />
		<tag k="ssr:stedsnr" v="338127" />
		<tag k="waterway" v="river" />
	</node>
	<node id="-588433" lat="62.7608416704" lon="7.03089443536">
		<tag k="name" v="Hansseterhaugen" />
		<tag k="natural" v="hill" />
		<tag k="place" v="locality" />
		<tag k="ssr:stedsnr" v="338101" />
	</node>
	<node id="-588432" lat="62.8506805568" lon="6.89843888949">
		<tag k="fixme" v="consider seamark:type=rock or natural=shoal" />
		<tag k="name" v="Englandet" />
		<tag k="place" v="islet" />
		<tag k="ssr:stedsnr" v="338047" />
	</node>
	<node id="-588431" lat="62.8465972251" lon="6.89521943921">
		<tag k="name" v="Kvennaelva" />
		<tag k="ssr:stedsnr" v="338033" />
		<tag k="waterway" v="stream" />
	</node>
	<node id="-588430" lat="62.84114722" lon="6.7797444472">
		<tag k="bridge" v="yes" />
		<tag k="layer" v="1" />
		<tag k="name" v="Karlsholmbrua" />
		<tag k="ssr:stedsnr" v="333251" />
	</node>
	<node id="-588429" lat="62.7673694466" lon="6.92043332423">
		<tag k="name" v="Kjerringholmen" />
		<tag k="place" v="islet" />
		<tag k="ssr:stedsnr" v="315871" />
	</node>
	<node id="-588428" lat="62.8088567538" lon="6.8084420557">
		<tag k="fixme" v="consider place=hamlet" />
		<tag k="name" v="Småge" />
		<tag k="place" v="farm" />
		<tag k="ssr:stedsnr" v="315782" />
	</node>
	<node id="-588427" lat="62.8059527733" lon="6.75458888267">
		<tag k="name" v="Landholman" />
		<tag k="place" v="islet" />
		<tag k="ssr:stedsnr" v="315779" />
	</node>
	<node id="-588426" lat="62.7972972221" lon="6.93130833287">
		<tag k="name" v="Aukraholmen" />
		<tag k="place" v="islet" />
		<tag k="ssr:stedsnr" v="315823" />
	</node>
	<node id="-588425" lat="62.8044805546" lon="6.76419722235">
		<tag k="name" v="Vetholmen" />
		<tag k="place" v="islet" />
		<tag k="ssr:stedsnr" v="315803" />
	</node>
	<node id="-588424" lat="62.7951611124" lon="6.78416388297">
		<tag k="name" v="Nørdre Helløya" />
		<tag k="place" v="islet" />
		<tag k="ssr:stedsnr" v="315802" />
	</node>
	<node id="-588423" lat="62.8562277779" lon="6.91393611902">
		<tag k="name" v="Langøyan" />
		<tag k="place" v="islet" />
		<tag k="ssr:stedsnr" v="315223" />
	</node>
	<node id="-588422" lat="62.8584083332" lon="6.88192221698">
		<tag k="fixme" v="consider seamark:type=rock or natural=shoal" />
		<tag k="name" v="Sjursholmen" />
		<tag k="place" v="islet" />
		<tag k="ssr:stedsnr" v="315220" />
	</node>
	<node id="-588421" lat="62.8444972178" lon="6.92704721305">
		<tag k="name" v="Riddervoll" />
		<tag k="place" v="farm" />
		<tag k="ssr:stedsnr" v="315208" />
	</node>
	<node id="-588420" lat="62.836229355" lon="6.89237549799">
		<tag k="fixme" v="consider place=hamlet" />
		<tag k="name" v="Sporsem" />
		<tag k="place" v="farm" />
		<tag k="ssr:stedsnr" v="315197" />
	</node>
	<node id="-588419" lat="62.8654916637" lon="6.89210555262">
		<tag k="name" v="Djupsundholman" />
		<tag k="place" v="islet" />
		<tag k="ssr:stedsnr" v="315127" />
	</node>
	<node id="-588417" lat="62.9122944459" lon="6.67358889482">
		<tag k="name" v="Stortaren" />
		<tag k="natural" v="shoal" />
		<tag k="place" v="locality" />
		<tag k="ssr:stedsnr" v="314343" />
	</node>
	<node id="-588416" lat="62.9335916701" lon="6.6946416746">
		<tag k="name" v="Kjærringfluene" />
		<tag k="natural" v="shoal" />
		<tag k="place" v="locality" />
		<tag k="ssr:stedsnr" v="293936" />
	</node>
	<node id="-588415" lat="62.8702333329" lon="6.89324165708">
		<tag k="name" v="Djupsundholmtaren" />
		<tag k="natural" v="shoal" />
		<tag k="place" v="locality" />
		<tag k="ssr:stedsnr" v="293835" />
	</node>
	<node id="-588414" lat="62.8659249976" lon="6.79245555907">
		<tag k="name" v="Skofteflua" />
		<tag k="natural" v="shoal" />
		<tag k="place" v="locality" />
		<tag k="ssr:stedsnr" v="293803" />
	</node>
	<node id="-588413" lat="62.8639388855" lon="6.82993888997">
		<tag k="name" v="Engholmflua" />
		<tag k="natural" v="shoal" />
		<tag k="place" v="locality" />
		<tag k="ssr:stedsnr" v="293801" />
	</node>
	<node id="-588412" lat="62.8021472241" lon="6.69082499268">
		<tag k="name" v="Matløysfluna" />
		<tag k="natural" v="shoal" />
		<tag k="place" v="locality" />
		<tag k="ssr:stedsnr" v="293108" />
	</node>
	<node id="-588411" lat="62.8740611092" lon="6.78453056526">
		<tag k="name" v="Solskjærfluin" />
		<tag k="natural" v="shoal" />
		<tag k="place" v="locality" />
		<tag k="ssr:stedsnr" v="290530" />
	</node>
	<node id="-588410" lat="62.8750833325" lon="6.65242500748">
		<tag k="fixme" v="consider seamark:type=rock or natural=shoal" />
		<tag k="name" v="Langskjæret" />
		<tag k="place" v="islet" />
		<tag k="ssr:stedsnr" v="290441" />
	</node>
	<node id="-588409" lat="62.866495283" lon="6.83389977276">
		<tag k="name" v="Tvenitla" />
		<tag k="place" v="islet" />
		<tag k="ssr:stedsnr" v="289656" />
	</node>
	<node id="-588408" lat="62.8048416624" lon="6.73831110437">
		<tag k="fixme" v="consider seamark:type=rock or natural=shoal" />
		<tag k="name" v="Vindgjeva" />
		<tag k="place" v="islet" />
		<tag k="ssr:stedsnr" v="289638" />
	</node>
	<node id="-588407" lat="62.8417722192" lon="6.76814166645">
		<tag k="fixme" v="consider seamark:type=rock or natural=shoal" />
		<tag k="name" v="Kivskjæret" />
		<tag k="place" v="islet" />
		<tag k="ssr:stedsnr" v="288492" />
	</node>
	<node id="-588405" lat="62.8371750022" lon="6.92095556024">
		<tag k="name" v="Kvalmyran" />
		<tag k="natural" v="wetland" />
		<tag k="ssr:stedsnr" v="279853" />
	</node>
	<node id="-588404" lat="62.8300166693" lon="6.89973054646">
		<tag k="name" v="Kløfthaugan" />
		<tag k="natural" v="hill" />
		<tag k="place" v="locality" />
		<tag k="ssr:stedsnr" v="279833" />
	</node>
	<node id="-588403" lat="62.831463892" lon="6.87653889364">
		<tag k="name" v="Maurset" />
		<tag k="place" v="farm" />
		<tag k="ssr:stedsnr" v="279804" />
	</node>
	<node id="-588402" lat="62.8266583326" lon="6.89286667226">
		<tag k="name" v="Moshaugan" />
		<tag k="natural" v="hill" />
		<tag k="place" v="locality" />
		<tag k="ssr:stedsnr" v="279802" />
	</node>
	<node id="-588401" lat="62.8299361122" lon="6.88295277898">
		<tag k="name" v="Lauvhaugen" />
		<tag k="natural" v="hill" />
		<tag k="place" v="locality" />
		<tag k="ssr:stedsnr" v="279803" />
	</node>
	<node id="-588400" lat="62.8238222231" lon="6.88386111984">
		<tag k="name" v="Hestholhaugen" />
		<tag k="natural" v="hill" />
		<tag k="place" v="locality" />
		<tag k="ssr:stedsnr" v="279800" />
	</node>
	<node id="-588399" lat="62.8438305515" lon="6.88243888208">
		<tag k="fixme" v="consider seamark:type=rock or natural=shoal" />
		<tag k="name" v="Guleskjeret" />
		<tag k="place" v="islet" />
		<tag k="ssr:stedsnr" v="279794" />
	</node>
	<node id="-588398" lat="62.7812444404" lon="6.86893332493">
		<tag k="name" v="Steinabukta" />
		<tag k="natural" v="bay" />
		<tag k="ssr:stedsnr" v="278915" />
	</node>
	<node id="-588397" lat="62.7819638867" lon="6.88983611404">
		<tag k="name" v="Kleivahaugen" />
		<tag k="natural" v="hill" />
		<tag k="place" v="locality" />
		<tag k="ssr:stedsnr" v="278910" />
	</node>
	<node id="-588396" lat="62.7929333309" lon="6.8643777804">
		<tag k="name" v="Vardhaugen" />
		<tag k="natural" v="hill" />
		<tag k="place" v="locality" />
		<tag k="ssr:stedsnr" v="278703" />
	</node>
	<node id="-588395" lat="62.8068555531" lon="6.90491111209">
		<tag k="name" v="Vardhaugen" />
		<tag k="natural" v="hill" />
		<tag k="place" v="locality" />
		<tag k="ssr:stedsnr" v="278667" />
	</node>
	<node id="-588394" lat="62.7951166692" lon="6.90823888032">
		<tag k="name" v="Bergebukta" />
		<tag k="natural" v="bay" />
		<tag k="ssr:stedsnr" v="278637" />
	</node>
	<node id="-588393" lat="62.7745972195" lon="6.91696944061">
		<tag k="name" v="Tangeneset" />
		<tag k="natural" v="cape" />
		<tag k="ssr:stedsnr" v="278477" />
	</node>
	<node id="-588392" lat="62.8409583371" lon="6.81418610316">
		<tag k="name" v="Storrisstølen" />
		<tag k="place" v="locality" />
		<tag k="ssr:stedsnr" v="278390" />
	</node>
	<node id="-588391" lat="62.77864444" lon="6.84953054855">
		<tag k="fixme" v="consider seamark:type=rock or natural=shoal" />
		<tag k="name" v="Kalvøyskjæret" />
		<tag k="place" v="islet" />
		<tag k="ssr:stedsnr" v="278331" />
	</node>
	<node id="-588390" lat="62.779202774" lon="6.88795832957">
		<tag k="name" v="Breivikelva" />
		<tag k="ssr:stedsnr" v="278316" />
		<tag k="waterway" v="stream" />
	</node>
	<node id="-588389" lat="62.7845111083" lon="6.99564445165">
		<tag k="name" v="Torhaugen" />
		<tag k="natural" v="hill" />
		<tag k="place" v="locality" />
		<tag k="ssr:stedsnr" v="278307" />
	</node>
	<node id="-588388" lat="62.8543694405" lon="6.91755278708">
		<tag k="name" v="Skatsundhaugen" />
		<tag k="natural" v="hill" />
		<tag k="place" v="locality" />
		<tag k="ssr:stedsnr" v="278434" />
	</node>
	<node id="-588387" lat="62.8392972257" lon="6.80228889495">
		<tag k="name" v="Gåsatua" />
		<tag k="natural" v="hill" />
		<tag k="place" v="locality" />
		<tag k="ssr:stedsnr" v="278420" />
	</node>
	<node id="-588386" lat="62.8587777776" lon="6.89611666553">
		<tag k="name" v="Eldhusholman" />
		<tag k="place" v="islet" />
		<tag k="ssr:stedsnr" v="278416" />
	</node>
	<node id="-588385" lat="62.8403944419" lon="6.7741305489">
		<tag k="fixme" v="consider seamark:type=rock or natural=shoal" />
		<tag k="name" v="Karlsholmskjeret" />
		<tag k="place" v="islet" />
		<tag k="ssr:stedsnr" v="278407" />
	</node>
	<node id="-588384" lat="62.8531638864" lon="6.89413056316">
		<tag k="fixme" v="consider seamark:type=rock or natural=shoal" />
		<tag k="name" v="Kjeholmskjeret" />
		<tag k="place" v="islet" />
		<tag k="ssr:stedsnr" v="278406" />
	</node>
	<node id="-588383" lat="62.8508277756" lon="6.952736102">
		<tag k="name" v="Gildernessanden" />
		<tag k="natural" v="beach" />
		<tag k="place" v="locality" />
		<tag k="ssr:stedsnr" v="278188" />
	</node>
	<node id="-588382" lat="62.8482194415" lon="6.95689722134">
		<tag k="name" v="Nørde Steghaugen" />
		<tag k="natural" v="hill" />
		<tag k="place" v="locality" />
		<tag k="ssr:stedsnr" v="278185" />
	</node>
	<node id="-588381" lat="62.8540944408" lon="6.93596666797">
		<tag k="name" v="Hatlevika" />
		<tag k="natural" v="bay" />
		<tag k="ssr:stedsnr" v="278180" />
	</node>
	<node id="-588380" lat="62.8312694454" lon="6.94558610746">
		<tag k="name" v="Eikremselva" />
		<tag k="ssr:stedsnr" v="278177" />
		<tag k="waterway" v="stream" />
	</node>
	<node id="-588379" lat="62.8482166698" lon="6.91389722158">
		<tag k="name" v="Nørde Heilohaugen" />
		<tag k="natural" v="hill" />
		<tag k="place" v="locality" />
		<tag k="ssr:stedsnr" v="278163" />
	</node>
	<node id="-588378" lat="62.8685861143" lon="6.77065278645">
		<tag k="fixme" v="consider seamark:type=rock or natural=shoal" />
		<tag k="name" v="Ytre Orholmskjeret" />
		<tag k="place" v="islet" />
		<tag k="ssr:stedsnr" v="278141" />
	</node>
	<node id="-588377" lat="62.7791666688" lon="6.97610277227">
		<tag k="name" v="Holmerøra" />
		<tag k="natural" v="ridge" />
		<tag k="place" v="locality" />
		<tag k="ssr:stedsnr" v="278113" />
	</node>
	<node id="-588376" lat="62.8679333365" lon="6.75625554905">
		<tag k="name" v="Litlegrøningen" />
		<tag k="place" v="islet" />
		<tag k="ssr:stedsnr" v="278086" />
	</node>
	<node id="-588375" lat="62.8115638897" lon="6.78174444311">
		<tag k="name" v="Vassosen" />
		<tag k="natural" v="bay" />
		<tag k="ssr:stedsnr" v="278054" />
	</node>
	<node id="-588374" lat="62.8499472238" lon="6.9040138984">
		<tag k="name" v="Dalen" />
		<tag k="natural" v="valley" />
		<tag k="place" v="locality" />
		<tag k="ssr:stedsnr" v="278051" />
	</node>
	<node id="-588373" lat="62.7963388909" lon="6.79683333956">
		<tag k="name" v="Engholmen" />
		<tag k="place" v="islet" />
		<tag k="ssr:stedsnr" v="278047" />
	</node>
	<node id="-588372" lat="62.8078388855" lon="6.75557501002">
		<tag k="fixme" v="consider seamark:type=rock or natural=shoal" />
		<tag k="name" v="Lamholmskjera" />
		<tag k="place" v="islet" />
		<tag k="ssr:stedsnr" v="278041" />
	</node>
	<node id="-588371" lat="62.8474972227" lon="6.90117500601">
		<tag k="name" v="Nedigarden" />
		<tag k="place" v="farm" />
		<tag k="ssr:stedsnr" v="278042" />
	</node>
	<node id="-588370" lat="62.7700833312" lon="6.98163610195">
		<tag k="name" v="Seterbukta" />
		<tag k="natural" v="cape" />
		<tag k="ssr:stedsnr" v="278028" />
	</node>
	<node id="-588369" lat="62.7909305514" lon="6.77774722999">
		<tag k="fixme" v="consider seamark:type=rock or natural=shoal" />
		<tag k="name" v="Trettskjera" />
		<tag k="place" v="islet" />
		<tag k="ssr:stedsnr" v="278022" />
	</node>
	<node id="-588368" lat="62.7511694435" lon="7.0006750012">
		<tag k="name" v="Omnan" />
		<tag k="natural" v="gorge" />
		<tag k="ssr:stedsnr" v="277247" />
	</node>
	<node id="-588367" lat="62.8507388914" lon="6.82879166616">
		<tag k="name" v="Røyrvikholmen" />
		<tag k="place" v="islet" />
		<tag k="ssr:stedsnr" v="278250" />
	</node>
	<node id="-588366" lat="62.8470666695" lon="6.83719721303">
		<tag k="name" v="Rotvikhaugen" />
		<tag k="natural" v="hill" />
		<tag k="place" v="locality" />
		<tag k="ssr:stedsnr" v="278247" />
	</node>
	<node id="-588365" lat="62.849780552" lon="6.84449444302">
		<tag k="alt_name" v="Purkneset" />
		<tag k="name" v="Purkeneset" />
		<tag k="natural" v="cape" />
		<tag k="ssr:stedsnr" v="278242" />
	</node>
	<node id="-588364" lat="62.7770055541" lon="7.01334722703">
		<tag k="name" v="Steinskaret" />
		<tag k="natural" v="valley" />
		<tag k="place" v="locality" />
		<tag k="ssr:stedsnr" v="278241" />
	</node>
	<node id="-588363" lat="62.8527472263" lon="6.82077500855">
		<tag k="name" v="Røyrvikneset" />
		<tag k="natural" v="cape" />
		<tag k="ssr:stedsnr" v="278228" />
	</node>
	<node id="-588362" lat="62.8547472221" lon="6.81913888611">
		<tag k="name" v="Merkjelholmen" />
		<tag k="place" v="islet" />
		<tag k="ssr:stedsnr" v="278226" />
	</node>
	<node id="-588361" lat="62.8589111085" lon="6.85131943935">
		<tag k="name" v="Tjørholmen" />
		<tag k="place" v="islet" />
		<tag k="ssr:stedsnr" v="278206" />
	</node>
</osm>
