<?xml version="1.0" encoding="UTF-8"?>
<<<<<<< HEAD
<osm version="0.6" generator="osmapis">
	<node lat="62.78932777467741" lon="6.875369450817751" id="-2035">
=======
<osm generator="osmapis" version="0.6">
	<node id="-77688" lat="62.8311666673" lon="6.88614722377">
		<tag k="name" v="Sporsemelva" />
		<tag k="ssr:stedsnr" v="339784" />
		<tag k="waterway" v="stream" />
	</node>
	<node id="-77430" lat="62.7665138891" lon="7.01355556184">
		<tag k="name" v="Medvollelva" />
		<tag k="ssr:stedsnr" v="945131" />
		<tag k="waterway" v="stream" />
	</node>
	<node id="-77171" lat="62.8444916648" lon="6.89621945023">
		<tag k="name" v="Løken" />
		<tag k="ssr:stedsnr" v="461843" />
		<tag k="waterway" v="stream" />
	</node>
	<node id="-77674" lat="62.8203250019" lon="6.82325000841">
		<tag k="name" v="Rødaelva" />
		<tag k="ssr:stedsnr" v="339353" />
		<tag k="waterway" v="river" />
	</node>
	<node id="-77797" lat="62.7793222194" lon="6.63572777751">
		<tag k="name" v="Synnatjørna" />
		<tag k="natural" v="water" />
		<tag k="ssr:stedsnr" v="577870" />
	</node>
	<node id="-77152" lat="62.7606805596" lon="7.01001944596">
		<tag k="name" v="Eiskremelva" />
		<tag k="ssr:stedsnr" v="460184" />
		<tag k="waterway" v="stream" />
	</node>
	<node id="-77659" lat="62.8465972251" lon="6.89521943921">
		<tag k="name" v="Kvennaelva" />
		<tag k="ssr:stedsnr" v="338033" />
		<tag k="waterway" v="stream" />
	</node>
	<node id="-77914" lat="62.844652776" lon="6.79944166041">
		<tag k="name" v="Rishaugvatnet" />
		<tag k="natural" v="water" />
		<tag k="ssr:stedsnr" v="764374" />
	</node>
	<node id="-77944" lat="62.7552666653" lon="6.99714166368">
		<tag k="name" v="Reitan" />
		<tag k="ssr:stedsnr" v="825727" />
		<tag k="waterway" v="stream" />
	</node>
	<node id="-77581" lat="62.7996833374" lon="6.85289999524">
		<tag k="name" v="Bakkeelva" />
		<tag k="ssr:stedsnr" v="96738" />
		<tag k="waterway" v="river" />
	</node>
	<node id="-77380" lat="62.7812611121" lon="7.02011666905">
		<tag k="alt_name" v="Hundetjønna" />
		<tag k="name" v="Hundediket" />
		<tag k="natural" v="water" />
		<tag k="ssr:stedsnr" v="921857" />
	</node>
	<node id="-77751" lat="62.8116555557" lon="6.79324443952">
		<tag k="name" v="Smågevatnet" />
		<tag k="natural" v="water" />
		<tag k="ssr:stedsnr" v="436784" />
	</node>
	<node id="-76980" lat="62.7893277747" lon="6.87536945082">
>>>>>>> e1d4bc35ff8a6074a6f2e91616a996b547c36f15
		<tag k="name" v="Hjertvikelva" />
		<tag k="ssr:stedsnr" v="218587" />
		<tag k="waterway" v="stream" />
	</node>
<<<<<<< HEAD
	<node lat="62.831269445386766" lon="6.945586107459793" id="-2055">
		<tag k="name" v="Eikremselva" />
		<tag k="ssr:stedsnr" v="278177" />
		<tag k="waterway" v="stream" />
	</node>
	<node lat="62.77920277397009" lon="6.887958329568881" id="-2060">
		<tag k="name" v="Breivikelva" />
		<tag k="ssr:stedsnr" v="278316" />
		<tag k="waterway" v="stream" />
	</node>
	<node lat="62.76068055958489" lon="7.010019445964176" id="-2078">
		<tag k="name" v="Eiskremelva" />
		<tag k="ssr:stedsnr" v="460184" />
		<tag k="waterway" v="stream" />
	</node>
	<node lat="62.84449166484666" lon="6.8962194502301255" id="-2087">
		<tag k="name" v="Løken" />
		<tag k="ssr:stedsnr" v="461843" />
		<tag k="waterway" v="stream" />
	</node>
	<node lat="62.82032500191747" lon="6.8232500084053775" id="-2109">
		<tag k="name" v="Rødaelva" />
		<tag k="ssr:stedsnr" v="339353" />
		<tag k="waterway" v="river" />
	</node>
	<node lat="62.776877778914454" lon="7.027683329435449" id="-2165">
		<tag k="name" v="Småtjørnin" />
=======
	<node id="-77869" lat="62.8136638934" lon="6.88098611811">
		<tag k="name" v="Bakkemyrgrova" />
		<tag k="ssr:stedsnr" v="642645" />
		<tag k="waterway" v="stream" />
	</node>
	<node id="-77228" lat="62.7768777789" lon="7.02768332944">
		<tag k="name" v="Småtjørnin" />
		<tag k="natural" v="water" />
		<tag k="ssr:stedsnr" v="678839" />
	</node>
	<node id="-77319" lat="62.8413194475" lon="6.92224166282">
		<tag k="name" v="Seterelva" />
		<tag k="ssr:stedsnr" v="679175" />
		<tag k="waterway" v="stream" />
	</node>
	<node id="-77735" lat="62.8399138913" lon="6.90268332933">
		<tag k="name" v="Orhaugløken" />
		<tag k="ssr:stedsnr" v="400867" />
		<tag k="waterway" v="stream" />
	</node>
	<node id="-77475" lat="62.8393138861" lon="6.91151945058">
		<tag k="name" v="Tjønnan" />
>>>>>>> e1d4bc35ff8a6074a6f2e91616a996b547c36f15
		<tag k="natural" v="water" />
		<tag k="ssr:stedsnr" v="678839" />
	</node>
<<<<<<< HEAD
	<node lat="62.84131944754058" lon="6.9222416628211265" id="-2265">
		<tag k="name" v="Seterelva" />
		<tag k="ssr:stedsnr" v="679175" />
		<tag k="waterway" v="stream" />
	</node>
	<node lat="62.763561110673216" lon="7.034644442216738" id="-2272">
=======
	<node id="-77594" lat="62.7578423308" lon="7.02807411903">
		<tag k="name" v="Elvatunga" />
		<tag k="ssr:stedsnr" v="133852" />
		<tag k="waterway" v="stream" />
	</node>
	<node id="-77325" lat="62.7635611107" lon="7.03464444222">
>>>>>>> e1d4bc35ff8a6074a6f2e91616a996b547c36f15
		<tag k="name" v="Fosselva" />
		<tag k="ssr:stedsnr" v="679866" />
		<tag k="waterway" v="stream" />
	</node>
<<<<<<< HEAD
	<node lat="62.781261112074404" lon="7.020116669054285" id="-2342">
		<tag k="alt_name" v="Hundetjønna" />
		<tag k="name" v="Hundediket" />
		<tag k="natural" v="water" />
		<tag k="ssr:stedsnr" v="921857" />
	</node>
	<node lat="62.75526666533298" lon="6.997141663678222" id="-2343">
		<tag k="name" v="Reitan" />
		<tag k="ssr:stedsnr" v="825727" />
		<tag k="waterway" v="stream" />
	</node>
	<node lat="62.83931388605524" lon="6.911519450578628" id="-2369">
		<tag k="name" v="Tjønnan" />
		<tag k="natural" v="water" />
		<tag k="ssr:stedsnr" v="886853" />
	</node>
	<node lat="62.76651388905712" lon="7.013555561844892" id="-2387">
		<tag k="name" v="Medvollelva" />
		<tag k="ssr:stedsnr" v="945131" />
		<tag k="waterway" v="stream" />
	</node>
	<node lat="62.79968333737724" lon="6.852899995239102" id="-2476">
		<tag k="name" v="Bakkeelva" />
		<tag k="ssr:stedsnr" v="96738" />
		<tag k="waterway" v="river" />
	</node>
	<node lat="62.75784233075112" lon="7.028074119030711" id="-2490">
		<tag k="name" v="Elvatunga" />
		<tag k="ssr:stedsnr" v="133852" />
		<tag k="waterway" v="stream" />
	</node>
	<node lat="62.8115638897235" lon="6.781744443105601" id="-2572">
=======
	<node id="-77067" lat="62.779202774" lon="6.88795832957">
		<tag k="name" v="Breivikelva" />
		<tag k="ssr:stedsnr" v="278316" />
		<tag k="waterway" v="stream" />
	</node>
	<node id="-77191" lat="62.8474444479" lon="6.94032223119">
		<tag k="name" v="Seterelva" />
		<tag k="ssr:stedsnr" v="338127" />
		<tag k="waterway" v="river" />
	</node>
	<node id="-77062" lat="62.8312694454" lon="6.94558610746">
		<tag k="name" v="Eikremselva" />
		<tag k="ssr:stedsnr" v="278177" />
		<tag k="waterway" v="stream" />
	</node>
	<node id="-77058" lat="62.8115638897" lon="6.78174444311">
>>>>>>> e1d4bc35ff8a6074a6f2e91616a996b547c36f15
		<tag k="name" v="Vassosen" />
		<tag k="natural" v="bay" />
		<tag k="ssr:stedsnr" v="278054" />
	</node>
<<<<<<< HEAD
	<node lat="62.84659722511891" lon="6.8952194392104875" id="-2617">
		<tag k="name" v="Kvennaelva" />
		<tag k="ssr:stedsnr" v="338033" />
		<tag k="waterway" v="stream" />
	</node>
	<node lat="62.84744444787896" lon="6.94032223118672" id="-2618">
		<tag k="name" v="Seterelva" />
		<tag k="ssr:stedsnr" v="338127" />
		<tag k="waterway" v="river" />
	</node>
	<node lat="62.83116666732269" lon="6.886147223768956" id="-2641">
		<tag k="name" v="Sporsemelva" />
		<tag k="ssr:stedsnr" v="339784" />
		<tag k="waterway" v="stream" />
	</node>
	<node lat="62.83991389131012" lon="6.902683329332157" id="-2671">
		<tag k="name" v="Orhaugløken" />
		<tag k="ssr:stedsnr" v="400867" />
		<tag k="waterway" v="stream" />
	</node>
	<node lat="62.811655555707915" lon="6.793244439515908" id="-2682">
		<tag k="name" v="Smågevatnet" />
		<tag k="natural" v="water" />
		<tag k="ssr:stedsnr" v="436784" />
	</node>
	<node lat="62.7793222193679" lon="6.6357277775132255" id="-2731">
		<tag k="name" v="Synnatjørna" />
		<tag k="natural" v="water" />
		<tag k="ssr:stedsnr" v="577870" />
	</node>
	<node lat="62.81366389343712" lon="6.88098611810887" id="-2784">
		<tag k="name" v="Bakkemyrgrova" />
		<tag k="ssr:stedsnr" v="642645" />
		<tag k="waterway" v="stream" />
	</node>
	<node lat="62.8446527759508" lon="6.79944166040817" id="-2827">
		<tag k="name" v="Rishaugvatnet" />
		<tag k="natural" v="water" />
		<tag k="ssr:stedsnr" v="764374" />
	</node>
=======
>>>>>>> e1d4bc35ff8a6074a6f2e91616a996b547c36f15
</osm>
