<?xml version="1.0" encoding="UTF-8"?>
<osm version="0.6" generator="osmapis">
	<node lat="62.79925277752553" lon="6.888913893308984" id="-8538">
		<tag k="name" v="Blåsteinen" />
		<tag k="natural" v="stone" />
		<tag k="ssr:stedsnr" v="218591" />
	</node>
	<node lat="62.7520638891677" lon="6.98776388302374" id="-8627">
		<tag k="name" v="Oterura" />
		<tag k="natural" v="scree" />
		<tag k="ssr:stedsnr" v="155504" />
	</node>
	<node lat="62.84791667085951" lon="6.938058330708826" id="-8628">
		<tag k="name" v="Kvalmyran" />
		<tag k="natural" v="wetland" />
		<tag k="ssr:stedsnr" v="156145" />
	</node>
	<node lat="62.763152779592076" lon="7.028855559062772" id="-8632">
		<tag k="name" v="Langmyra" />
		<tag k="natural" v="wetland" />
		<tag k="ssr:stedsnr" v="157104" />
	</node>
	<node lat="62.84095833705766" lon="6.8141861031596385" id="-8696">
		<tag k="name" v="Storrisstølen" />
		<tag k="place" v="locality" />
		<tag k="ssr:stedsnr" v="278390" />
	</node>
	<node lat="62.83815277961495" lon="6.907091675240206" id="-8776">
		<tag k="name" v="Kisthaugmyra" />
		<tag k="natural" v="wetland" />
		<tag k="ssr:stedsnr" v="384467" />
	</node>
	<node lat="62.83409166993081" lon="6.9054805518021185" id="-8784">
		<tag k="name" v="Storsteinremma" />
		<tag k="natural" v="wetland" />
		<tag k="ssr:stedsnr" v="400841" />
	</node>
	<node lat="62.84095277586308" lon="6.831636119906878" id="-8803">
		<tag k="name" v="Ingridsteinen" />
		<tag k="natural" v="stone" />
		<tag k="ssr:stedsnr" v="460407" />
	</node>
	<node lat="62.78176388698638" lon="6.6374805647307875" id="-8882">
		<tag k="name" v="Torvmyra" />
		<tag k="natural" v="wetland" />
		<tag k="ssr:stedsnr" v="881041" />
	</node>
	<node lat="62.785138891071796" lon="6.9953916584335465" id="-8905">
		<tag k="name" v="Torhaugmyra" />
		<tag k="natural" v="wetland" />
		<tag k="ssr:stedsnr" v="885277" />
	</node>
	<node lat="62.839138886610286" lon="6.823502787091666" id="-8946">
		<tag k="name" v="Litlerisstølen" />
		<tag k="place" v="locality" />
		<tag k="ssr:stedsnr" v="764350" />
	</node>
	<node lat="62.782719442229805" lon="6.988541674809796" id="-9067">
		<tag k="name" v="Torhaugmyra" />
		<tag k="natural" v="wetland" />
		<tag k="ssr:stedsnr" v="20452" />
	</node>
	<node lat="62.8405416704206" lon="6.832863886680233" id="-9082">
		<tag k="name" v="Ingridmyra" />
		<tag k="natural" v="wetland" />
		<tag k="ssr:stedsnr" v="36333" />
	</node>
	<node lat="62.801477779556684" lon="6.8451444353968895" id="-9150">
		<tag k="name" v="Horremsmyra" />
		<tag k="natural" v="wetland" />
		<tag k="ssr:stedsnr" v="157739" />
	</node>
	<node lat="62.83717500221697" lon="6.92095556023694" id="-9200">
		<tag k="name" v="Kvalmyran" />
		<tag k="natural" v="wetland" />
		<tag k="ssr:stedsnr" v="279853" />
	</node>
	<node lat="62.794074996492924" lon="6.917513890470271" id="-9285">
		<tag k="name" v="Kalvtrøa" />
		<tag k="place" v="locality" />
		<tag k="ssr:stedsnr" v="409531" />
	</node>
	<node lat="62.81604166595168" lon="6.855988887033054" id="-9329">
		<tag k="name" v="Measteinen" />
		<tag k="natural" v="stone" />
		<tag k="ssr:stedsnr" v="521341" />
	</node>
	<node lat="62.7533611136926" lon="6.989527771266137" id="-9442">
		<tag k="name" v="Svartholet" />
		<tag k="place" v="locality" />
		<tag k="ssr:stedsnr" v="702498" />
	</node>
	<node lat="62.84517777950942" lon="6.910688896421382" id="-9484">
		<tag k="name" v="Vommamyra" />
		<tag k="natural" v="wetland" />
		<tag k="ssr:stedsnr" v="763135" />
	</node>
	<node lat="62.836699996517574" lon="6.901413880769536" id="-9527">
		<tag k="name" v="Pilan" />
		<tag k="natural" v="wetland" />
		<tag k="ssr:stedsnr" v="825827" />
	</node>
	<node lat="62.80498333050202" lon="6.807949992588899" id="-9569">
		<tag k="name" v="Bulegen" />
		<tag k="place" v="locality" />
		<tag k="ssr:stedsnr" v="946297" />
	</node>
</osm>
