<?xml version="1.0" encoding="UTF-8"?>
<osm version="0.6" generator="osmapis">
	<node lat="62.91927500346556" lon="6.673744445450007" id="-8495">
		<tag k="alt_name" v="Oddane" />
		<tag k="fixme" v="consider seamark:type=rock or natural=shoal" />
		<tag k="name" v="Oddan" />
		<tag k="place" v="islet" />
		<tag k="ssr:stedsnr" v="11300" />
	</node>
	<node lat="62.81728611444337" lon="6.715527780843681" id="-8496">
		<tag k="fixme" v="consider seamark:type=rock or natural=shoal" />
		<tag k="name" v="Tordivelen" />
		<tag k="place" v="islet" />
		<tag k="ssr:stedsnr" v="11400" />
	</node>
	<node lat="62.77100833691981" lon="6.960886112522849" id="-8502">
		<tag k="bay" v="fjord" />
		<tag k="name" v="Julsundet" />
		<tag k="natural" v="bay" />
		<tag k="ssr:stedsnr" v="11779" />
	</node>
	<node lat="62.800449998580284" lon="6.649130552162675" id="-8504">
		<tag k="name" v="Namnlausholmen" />
		<tag k="place" v="islet" />
		<tag k="ssr:stedsnr" v="232015" />
	</node>
	<node lat="62.86652777393748" lon="6.796538892034732" id="-8505">
		<tag k="name" v="Skofta" />
		<tag k="natural" v="shoal" />
		<tag k="place" v="locality" />
		<tag k="ssr:stedsnr" v="232021" />
	</node>
	<node lat="62.87556666742022" lon="6.771769441897361" id="-8506">
		<tag k="name" v="Stabbetaren" />
		<tag k="natural" v="shoal" />
		<tag k="place" v="locality" />
		<tag k="ssr:stedsnr" v="232022" />
	</node>
	<node lat="62.77177499737276" lon="6.934744447050505" id="-8507">
		<tag k="name" v="Kjerringgrunnen" />
		<tag k="natural" v="shoal" />
		<tag k="place" v="locality" />
		<tag k="ssr:stedsnr" v="232100" />
	</node>
	<node lat="62.81067777812159" lon="6.699972224376262" id="-8514">
		<tag k="name" v="Purkeneset" />
		<tag k="natural" v="cape" />
		<tag k="ssr:stedsnr" v="31703" />
	</node>
	<node lat="62.8147305518162" lon="6.704944439381268" id="-8515">
		<tag k="fixme" v="consider seamark:type=rock or natural=shoal" />
		<tag k="name" v="Kubbeskjeret" />
		<tag k="place" v="islet" />
		<tag k="ssr:stedsnr" v="31711" />
	</node>
	<node lat="62.780205559373" lon="6.630144449149823" id="-8516">
		<tag k="fixme" v="consider seamark:type=rock or natural=shoal" />
		<tag k="name" v="Marulen" />
		<tag k="place" v="islet" />
		<tag k="ssr:stedsnr" v="31873" />
	</node>
	<node lat="62.86630833373287" lon="6.858750003048289" id="-8519">
		<tag k="name" v="Grønholmen" />
		<tag k="place" v="islet" />
		<tag k="ssr:stedsnr" v="35215" />
	</node>
	<node lat="62.845866668889336" lon="6.962558327354809" id="-8520">
		<tag k="name" v="Futvika" />
		<tag k="natural" v="bay" />
		<tag k="ssr:stedsnr" v="35177" />
	</node>
	<node lat="62.804955556221024" lon="6.784227772924981" id="-8524">
		<tag k="fixme" v="consider seamark:type=rock or natural=shoal" />
		<tag k="name" v="England" />
		<tag k="place" v="islet" />
		<tag k="ssr:stedsnr" v="35616" />
	</node>
	<node lat="62.78205277519808" lon="6.865333331445639" id="-8526">
		<tag k="name" v="Falkorhaugen" />
		<tag k="place" v="islet" />
		<tag k="ssr:stedsnr" v="35714" />
	</node>
	<node lat="62.80580833111225" lon="6.7902111175827375" id="-8533">
		<tag k="name" v="Jektvikneset" />
		<tag k="natural" v="cape" />
		<tag k="ssr:stedsnr" v="50077" />
	</node>
	<node lat="62.82855277350875" lon="6.961452784302407" id="-8534">
		<tag k="name" v="Hogsnesflua" />
		<tag k="natural" v="shoal" />
		<tag k="place" v="locality" />
		<tag k="ssr:stedsnr" v="50086" />
	</node>
	<node lat="62.83437499656672" lon="6.958083329417669" id="-8535">
		<tag k="name" v="Eikremsbåen" />
		<tag k="place" v="locality" />
		<tag k="seamark:type" v="rock" />
		<tag k="ssr:stedsnr" v="50788" />
	</node>
	<node lat="62.928919440722815" lon="6.664369437375474" id="-8536">
		<tag k="name" v="Ytre Stauran" />
		<tag k="natural" v="shoal" />
		<tag k="place" v="locality" />
		<tag k="ssr:stedsnr" v="50918" />
	</node>
	<node lat="62.83755000411101" lon="6.861758332431875" id="-8539">
		<tag k="name" v="Lauvvika" />
		<tag k="natural" v="bay" />
		<tag k="ssr:stedsnr" v="72218" />
	</node>
	<node lat="62.858833335814275" lon="6.886672230911999" id="-8550">
		<tag k="fixme" v="consider seamark:type=rock or natural=shoal" />
		<tag k="name" v="Hetta" />
		<tag k="place" v="islet" />
		<tag k="ssr:stedsnr" v="96370" />
	</node>
	<node lat="62.86027222558173" lon="6.902994446886708" id="-8552">
		<tag k="name" v="Midtre Mannholmen" />
		<tag k="place" v="islet" />
		<tag k="ssr:stedsnr" v="96376" />
	</node>
	<node lat="62.854038887821595" lon="6.903855558092544" id="-8554">
		<tag k="name" v="Småmåsholmen" />
		<tag k="place" v="islet" />
		<tag k="ssr:stedsnr" v="96384" />
	</node>
	<node lat="62.8363472265081" lon="6.767280562576513" id="-8555">
		<tag k="name" v="Midtkjølingen" />
		<tag k="place" v="islet" />
		<tag k="ssr:stedsnr" v="96473" />
	</node>
	<node lat="62.80105555999283" lon="6.805830553043497" id="-8557">
		<tag k="name" v="Rundholmen" />
		<tag k="place" v="islet" />
		<tag k="ssr:stedsnr" v="96580" />
	</node>
	<node lat="62.868669447261674" lon="6.8908194359039" id="-8558">
		<tag k="name" v="Djupsundholmfaren" />
		<tag k="place" v="islet" />
		<tag k="ssr:stedsnr" v="96709" />
	</node>
	<node lat="62.83846667109728" lon="6.873025000035439" id="-8559">
		<tag k="name" v="Midtre Vassdalsholmen" />
		<tag k="place" v="islet" />
		<tag k="ssr:stedsnr" v="96777" />
	</node>
	<node lat="62.80751111468411" lon="6.917191666101331" id="-8562">
		<tag k="name" v="Nautnesflua" />
		<tag k="natural" v="shoal" />
		<tag k="place" v="locality" />
		<tag k="ssr:stedsnr" v="111079" />
	</node>
	<node lat="62.778458333147555" lon="6.86402499712736" id="-8563">
		<tag k="name" v="Kobbeflua" />
		<tag k="natural" v="shoal" />
		<tag k="place" v="locality" />
		<tag k="ssr:stedsnr" v="111119" />
	</node>
	<node lat="62.81910555742845" lon="6.715386104240765" id="-8575">
		<tag k="fixme" v="consider seamark:type=rock or natural=shoal" />
		<tag k="name" v="Hyseskjeret" />
		<tag k="place" v="islet" />
		<tag k="ssr:stedsnr" v="145533" />
	</node>
	<node lat="62.861294445436556" lon="6.916027783902806" id="-8580">
		<tag k="name" v="Storværflatholmen" />
		<tag k="place" v="islet" />
		<tag k="ssr:stedsnr" v="157322" />
	</node>
	<node lat="62.78993055276864" lon="6.641891676067475" id="-8583">
		<tag k="name" v="Ortebukta" />
		<tag k="natural" v="bay" />
		<tag k="ssr:stedsnr" v="171016" />
	</node>
	<node lat="62.76758611144784" lon="6.764916664743608" id="-8585">
		<tag k="name" v="Bleia" />
		<tag k="natural" v="shoal" />
		<tag k="place" v="locality" />
		<tag k="ssr:stedsnr" v="171069" />
	</node>
	<node lat="62.762191667006945" lon="6.925483325815116" id="-8586">
		<tag k="name" v="Flatholmsundet" />
		<tag k="natural" v="strait" />
		<tag k="ssr:stedsnr" v="172128" />
	</node>
	<node lat="62.83378888631993" lon="6.7867638971326825" id="-8588">
		<tag k="alt_name" v="Sengsholmen" />
		<tag k="name" v="Sæingsholman" />
		<tag k="place" v="islet" />
		<tag k="ssr:stedsnr" v="217396" />
	</node>
	<node lat="62.85061389164831" lon="6.77813055941787" id="-8589">
		<tag k="fixme" v="consider seamark:type=rock or natural=shoal" />
		<tag k="name" v="Sandskjerflua" />
		<tag k="place" v="islet" />
		<tag k="ssr:stedsnr" v="218085" />
	</node>
	<node lat="62.84835277964572" lon="6.838449990581496" id="-8590">
		<tag k="name" v="Rotvika" />
		<tag k="natural" v="bay" />
		<tag k="ssr:stedsnr" v="218211" />
	</node>
	<node lat="62.840452781949026" lon="6.762766668804202" id="-8593">
		<tag k="alt_name" v="Ytre Kjølingen" />
		<tag k="name" v="Kjølingen" />
		<tag k="place" v="islet" />
		<tag k="ssr:stedsnr" v="218393" />
	</node>
	<node lat="62.84271389271596" lon="6.884488881311577" id="-8596">
		<tag k="name" v="Juvikleira" />
		<tag k="natural" v="shoal" />
		<tag k="place" v="locality" />
		<tag k="ssr:stedsnr" v="218795" />
	</node>
	<node lat="62.92437500307183" lon="6.669358329182195" id="-8601">
		<tag k="alt_name" v="Staurane" />
		<tag k="name" v="Stauran" />
		<tag k="natural" v="shoal" />
		<tag k="place" v="locality" />
		<tag k="ssr:stedsnr" v="254299" />
	</node>
	<node lat="62.78564166809584" lon="6.621427774213876" id="-8602">
		<tag k="name" v="Ortehella" />
		<tag k="place" v="islet" />
		<tag k="ssr:stedsnr" v="254404" />
	</node>
	<node lat="62.75626388581998" lon="6.775077784367681" id="-8604">
		<tag k="bay" v="fjord" />
		<tag k="name" v="Grunnefjorden" />
		<tag k="natural" v="bay" />
		<tag k="ssr:stedsnr" v="255865" />
	</node>
	<node lat="62.76828611049292" lon="6.867247227053377" id="-8605">
		<tag k="fixme" v="consider seamark:type=rock or natural=shoal" />
		<tag k="name" v="Snella" />
		<tag k="place" v="islet" />
		<tag k="ssr:stedsnr" v="255869" />
	</node>
	<node lat="62.813888889532706" lon="6.690513893432078" id="-8606">
		<tag k="name" v="Ystehaugvågen" />
		<tag k="natural" v="bay" />
		<tag k="ssr:stedsnr" v="456674" />
	</node>
	<node lat="62.81156944551753" lon="6.711366669413702" id="-8609">
		<tag k="fixme" v="consider seamark:type=rock or natural=shoal" />
		<tag k="name" v="Værehunden" />
		<tag k="place" v="islet" />
		<tag k="ssr:stedsnr" v="274679" />
	</node>
	<node lat="62.79093055136329" lon="6.777747229986453" id="-8611">
		<tag k="fixme" v="consider seamark:type=rock or natural=shoal" />
		<tag k="name" v="Trettskjera" />
		<tag k="place" v="islet" />
		<tag k="ssr:stedsnr" v="278022" />
	</node>
	<node lat="62.86793333652289" lon="6.756255549052589" id="-8612">
		<tag k="name" v="Litlegrøningen" />
		<tag k="place" v="islet" />
		<tag k="ssr:stedsnr" v="278086" />
	</node>
	<node lat="62.858911108545314" lon="6.8513194393518795" id="-8613">
		<tag k="name" v="Tjørholmen" />
		<tag k="place" v="islet" />
		<tag k="ssr:stedsnr" v="278206" />
	</node>
	<node lat="62.854747222091795" lon="6.8191388861101645" id="-8614">
		<tag k="name" v="Merkjelholmen" />
		<tag k="place" v="islet" />
		<tag k="ssr:stedsnr" v="278226" />
	</node>
	<node lat="62.85409444081946" lon="6.935966667974168" id="-8616">
		<tag k="name" v="Hatlevika" />
		<tag k="natural" v="bay" />
		<tag k="ssr:stedsnr" v="278180" />
	</node>
	<node lat="62.85082777562946" lon="6.952736102002842" id="-8618">
		<tag k="name" v="Gildernessanden" />
		<tag k="natural" v="beach" />
		<tag k="ssr:stedsnr" v="278188" />
	</node>
	<node lat="62.76755555370666" lon="6.9815750055199155" id="-8622">
		<tag k="name" v="Fangholneset" />
		<tag k="natural" v="cape" />
		<tag k="ssr:stedsnr" v="460031" />
	</node>
	<node lat="62.76304999589683" lon="6.9885416614445015" id="-8623">
		<tag k="name" v="Langneset" />
		<tag k="natural" v="cape" />
		<tag k="ssr:stedsnr" v="460032" />
	</node>
	<node lat="62.784155560005345" lon="6.765594445256796" id="-8624">
		<tag k="fixme" v="consider seamark:type=rock or natural=shoal" />
		<tag k="name" v="Risøyskjeret" />
		<tag k="place" v="islet" />
		<tag k="ssr:stedsnr" v="460036" />
	</node>
	<node lat="62.7854944487022" lon="6.784375006594657" id="-8625">
		<tag k="alt_name" v="Kroppungskjæret" />
		<tag k="fixme" v="consider seamark:type=rock or natural=shoal" />
		<tag k="name" v="Kroppongskjeret" />
		<tag k="place" v="islet" />
		<tag k="ssr:stedsnr" v="460043" />
	</node>
	<node lat="62.77459721946138" lon="6.916969440610568" id="-8628">
		<tag k="name" v="Tangeneset" />
		<tag k="natural" v="cape" />
		<tag k="ssr:stedsnr" v="278477" />
	</node>
	<node lat="62.80595000233607" lon="6.786447213224105" id="-8630">
		<tag k="name" v="Jektvika" />
		<tag k="natural" v="bay" />
		<tag k="ssr:stedsnr" v="460069" />
	</node>
	<node lat="62.84759444431121" lon="6.7942722187788975" id="-8631">
		<tag k="name" v="Komedantholmen" />
		<tag k="place" v="islet" />
		<tag k="ssr:stedsnr" v="460081" />
	</node>
	<node lat="62.82631667053572" lon="6.79705556191263" id="-8632">
		<tag k="name" v="Litlebuholmen" />
		<tag k="place" v="islet" />
		<tag k="ssr:stedsnr" v="460090" />
	</node>
	<node lat="62.88394444121628" lon="6.783291659262564" id="-8633">
		<tag k="fixme" v="consider seamark:type=rock or natural=shoal" />
		<tag k="name" v="Kåtskjeret" />
		<tag k="place" v="islet" />
		<tag k="ssr:stedsnr" v="460134" />
	</node>
	<node lat="62.83864444404073" lon="6.769319453587985" id="-8641">
		<tag k="fixme" v="consider seamark:type=rock or natural=shoal" />
		<tag k="name" v="Rundeskjeret" />
		<tag k="place" v="islet" />
		<tag k="ssr:stedsnr" v="460436" />
	</node>
	<node lat="62.85696388995871" lon="6.92194444870057" id="-8642">
		<tag k="name" v="Skatsundneset" />
		<tag k="natural" v="cape" />
		<tag k="ssr:stedsnr" v="460439" />
	</node>
	<node lat="62.7602583315884" lon="6.992799997152953" id="-8643">
		<tag k="name" v="Eiskrembukta" />
		<tag k="natural" v="bay" />
		<tag k="ssr:stedsnr" v="460742" />
	</node>
	<node lat="62.79540833581244" lon="6.826266666070593" id="-8644">
		<tag k="name" v="Landholmen" />
		<tag k="place" v="islet" />
		<tag k="ssr:stedsnr" v="460757" />
	</node>
	<node lat="62.86592499762762" lon="6.792455559072795" id="-8651">
		<tag k="name" v="Skofteflua" />
		<tag k="natural" v="shoal" />
		<tag k="place" v="locality" />
		<tag k="ssr:stedsnr" v="293803" />
	</node>
	<node lat="62.80867500266738" lon="6.704458342925371" id="-8662">
		<tag k="fixme" v="consider seamark:type=rock or natural=shoal" />
		<tag k="name" v="Kuholmskjera" />
		<tag k="place" v="islet" />
		<tag k="ssr:stedsnr" v="335712" />
	</node>
	<node lat="62.85068055681823" lon="6.898438889492359" id="-8665">
		<tag k="fixme" v="consider seamark:type=rock or natural=shoal" />
		<tag k="name" v="Englandet" />
		<tag k="place" v="islet" />
		<tag k="ssr:stedsnr" v="338047" />
	</node>
	<node lat="62.78371389221742" lon="6.9815916647482785" id="-8669">
		<tag k="name" v="Vikaneset" />
		<tag k="natural" v="cape" />
		<tag k="ssr:stedsnr" v="339243" />
	</node>
	<node lat="62.774819443757835" lon="6.876572230845606" id="-8671">
		<tag k="fixme" v="consider seamark:type=rock or natural=shoal" />
		<tag k="name" v="Steinskjeret" />
		<tag k="place" v="islet" />
		<tag k="ssr:stedsnr" v="339420" />
	</node>
	<node lat="62.793025000515925" lon="6.840449990434176" id="-8674">
		<tag k="name" v="Skenneset" />
		<tag k="natural" v="cape" />
		<tag k="ssr:stedsnr" v="339743" />
	</node>
	<node lat="62.7902861098273" lon="6.840749992849196" id="-8675">
		<tag k="name" v="Småsundhola" />
		<tag k="natural" v="bay" />
		<tag k="ssr:stedsnr" v="339745" />
	</node>
	<node lat="62.810558336217" lon="6.705469450941639" id="-8684">
		<tag k="name" v="Kuholmen" />
		<tag k="place" v="islet" />
		<tag k="ssr:stedsnr" v="375435" />
	</node>
	<node lat="62.794516663161865" lon="6.771311115880518" id="-8690">
		<tag k="name" v="Skjepholmen" />
		<tag k="place" v="islet" />
		<tag k="ssr:stedsnr" v="399014" />
	</node>
	<node lat="62.84055555280879" lon="6.95699722533797" id="-8691">
		<tag k="alt_name" v="Grunnvika" />
		<tag k="name" v="Grynnvika" />
		<tag k="natural" v="bay" />
		<tag k="ssr:stedsnr" v="399088" />
	</node>
	<node lat="62.86111944741358" lon="6.9242138819683285" id="-8694">
		<tag k="name" v="Nørde Langøya" />
		<tag k="place" v="islet" />
		<tag k="ssr:stedsnr" v="399383" />
	</node>
	<node lat="62.84113611130773" lon="6.776444448919747" id="-8695">
		<tag k="name" v="Karlsholmen" />
		<tag k="place" v="islet" />
		<tag k="ssr:stedsnr" v="399402" />
	</node>
	<node lat="62.80012499888126" lon="6.8254472221632305" id="-8697">
		<tag k="name" v="Ospavika" />
		<tag k="natural" v="bay" />
		<tag k="ssr:stedsnr" v="399732" />
	</node>
	<node lat="62.91939999724321" lon="6.72545833949778" id="-8712">
		<tag k="name" v="Katten" />
		<tag k="natural" v="shoal" />
		<tag k="place" v="locality" />
		<tag k="ssr:stedsnr" v="437119" />
	</node>
	<node lat="62.81984999898828" lon="6.731950007593273" id="-8714">
		<tag k="name" v="Store Ragnhildholmen" />
		<tag k="place" v="islet" />
		<tag k="ssr:stedsnr" v="456709" />
	</node>
	<node lat="62.78651666500439" lon="6.635966659009011" id="-8715">
		<tag k="fixme" v="consider seamark:type=rock or natural=shoal" />
		<tag k="name" v="Nordfleen" />
		<tag k="place" v="islet" />
		<tag k="ssr:stedsnr" v="457040" />
	</node>
	<node lat="62.83589444612986" lon="6.863061101928677" id="-8726">
		<tag k="name" v="Bunesholmen" />
		<tag k="place" v="islet" />
		<tag k="ssr:stedsnr" v="460411" />
	</node>
	<node lat="62.80491111478893" lon="6.794341658773658" id="-8727">
		<tag k="fixme" v="consider seamark:type=rock or natural=shoal" />
		<tag k="name" v="Vomma" />
		<tag k="place" v="islet" />
		<tag k="ssr:stedsnr" v="460609" />
	</node>
	<node lat="62.79782777555732" lon="6.6527722164556735" id="-8733">
		<tag k="name" v="Oterholmen" />
		<tag k="place" v="islet" />
		<tag k="ssr:stedsnr" v="474021" />
	</node>
	<node lat="62.77208332995943" lon="6.877108332453028" id="-8734">
		<tag k="name" v="Snelletaren" />
		<tag k="natural" v="shoal" />
		<tag k="place" v="locality" />
		<tag k="ssr:stedsnr" v="474106" />
	</node>
	<node lat="62.925583329279384" lon="6.68494444402779" id="-8746">
		<tag k="fixme" v="consider seamark:type=rock or natural=shoal" />
		<tag k="name" v="Rundkippen" />
		<tag k="place" v="islet" />
		<tag k="ssr:stedsnr" v="496348" />
	</node>
	<node lat="62.80263055751899" lon="6.640008333711838" id="-8747">
		<tag k="alt_name" v="Store Skarvholmen" />
		<tag k="name" v="Skarvholmen" />
		<tag k="place" v="islet" />
		<tag k="ssr:stedsnr" v="496504" />
	</node>
	<node lat="62.81303611112756" lon="6.72141944796257" id="-8749">
		<tag k="fixme" v="consider seamark:type=rock or natural=shoal" />
		<tag k="name" v="Skredaren" />
		<tag k="place" v="islet" />
		<tag k="ssr:stedsnr" v="517709" />
	</node>
	<node lat="62.75066944305575" lon="6.989422214719643" id="-8750">
		<tag k="name" v="Kobbevikflua" />
		<tag k="natural" v="shoal" />
		<tag k="place" v="locality" />
		<tag k="ssr:stedsnr" v="519563" />
	</node>
	<node lat="62.800377779014404" lon="6.81526110989097" id="-8751">
		<tag k="name" v="Møkvika" />
		<tag k="natural" v="bay" />
		<tag k="ssr:stedsnr" v="520564" />
	</node>
	<node lat="62.77869444566921" lon="6.968722231729495" id="-8752">
		<tag k="name" v="Hardbrakneset" />
		<tag k="natural" v="cape" />
		<tag k="ssr:stedsnr" v="521020" />
	</node>
	<node lat="62.79597222559191" lon="6.766955554191957" id="-8753">
		<tag k="name" v="Litle Lamholmen" />
		<tag k="place" v="islet" />
		<tag k="ssr:stedsnr" v="521022" />
	</node>
	<node lat="62.80676666285703" lon="6.78129166392182" id="-8755">
		<tag k="name" v="Bussvika" />
		<tag k="natural" v="bay" />
		<tag k="ssr:stedsnr" v="521178" />
	</node>
	<node lat="62.82617778220905" lon="6.809686119393339" id="-8756">
		<tag k="name" v="Røabukta" />
		<tag k="natural" v="bay" />
		<tag k="ssr:stedsnr" v="521329" />
	</node>
	<node lat="62.85546666331136" lon="6.819225005737077" id="-8762">
		<tag k="name" v="Mikkelen" />
		<tag k="place" v="locality" />
		<tag k="seamark:type" v="rock" />
		<tag k="ssr:stedsnr" v="535782" />
	</node>
	<node lat="62.851666669704" lon="6.945833324407825" id="-8763">
		<tag k="name" v="Kvalbukta" />
		<tag k="natural" v="bay" />
		<tag k="ssr:stedsnr" v="535816" />
	</node>
	<node lat="62.81068055509583" lon="6.91832223096199" id="-8764">
		<tag k="name" v="Stornautneset" />
		<tag k="natural" v="cape" />
		<tag k="ssr:stedsnr" v="536070" />
	</node>
	<node lat="62.79309444131334" lon="6.661033340126619" id="-8767">
		<tag k="fixme" v="consider seamark:type=rock or natural=shoal" />
		<tag k="name" v="Bjørnen" />
		<tag k="place" v="islet" />
		<tag k="ssr:stedsnr" v="557415" />
	</node>
	<node lat="62.808852781534334" lon="6.6978333266877135" id="-8768">
		<tag k="name" v="Kalvøya" />
		<tag k="place" v="islet" />
		<tag k="ssr:stedsnr" v="557453" />
	</node>
	<node lat="62.81352500430384" lon="6.687758331442037" id="-8771">
		<tag k="name" v="Ystehaugneset" />
		<tag k="natural" v="cape" />
		<tag k="ssr:stedsnr" v="577702" />
	</node>
	<node lat="62.82224722371837" lon="6.73194443620728" id="-8772">
		<tag k="name" v="Litle Ragnhildholmen" />
		<tag k="place" v="islet" />
		<tag k="ssr:stedsnr" v="577744" />
	</node>
	<node lat="62.78449444070936" lon="6.647152770135268" id="-8773">
		<tag k="name" v="Garsvika" />
		<tag k="natural" v="bay" />
		<tag k="ssr:stedsnr" v="578042" />
	</node>
	<node lat="62.84598055737693" lon="6.884383328277096" id="-8776">
		<tag k="name" v="Midtre Flatholmen" />
		<tag k="place" v="islet" />
		<tag k="ssr:stedsnr" v="581039" />
	</node>
	<node lat="62.805891665740894" lon="6.755255552162102" id="-8777">
		<tag k="name" v="Lamholmen" />
		<tag k="place" v="islet" />
		<tag k="ssr:stedsnr" v="581041" />
	</node>
	<node lat="62.84930277872819" lon="6.888738896582622" id="-8778">
		<tag k="fixme" v="consider seamark:type=rock or natural=shoal" />
		<tag k="name" v="Langeskjeret" />
		<tag k="place" v="islet" />
		<tag k="ssr:stedsnr" v="581042" />
	</node>
	<node lat="62.829899996339165" lon="6.7875111182081165" id="-8780">
		<tag k="name" v="Teistholman" />
		<tag k="place" v="islet" />
		<tag k="ssr:stedsnr" v="581089" />
	</node>
	<node lat="62.8699222224388" lon="6.855763898107744" id="-8787">
		<tag k="name" v="Kristiholmen" />
		<tag k="place" v="islet" />
		<tag k="ssr:stedsnr" v="581695" />
	</node>
	<node lat="62.87011944501078" lon="6.841444435611917" id="-8788">
		<tag k="name" v="Tvinnitla" />
		<tag k="place" v="islet" />
		<tag k="ssr:stedsnr" v="581698" />
	</node>
	<node lat="62.803308337074654" lon="6.797458342195041" id="-8789">
		<tag k="fixme" v="consider seamark:type=rock or natural=shoal" />
		<tag k="name" v="Landholmskjeret" />
		<tag k="place" v="islet" />
		<tag k="ssr:stedsnr" v="581595" />
	</node>
	<node lat="62.85278611470305" lon="6.769036101142289" id="-8791">
		<tag k="name" v="Nordre Jakteflua" />
		<tag k="place" v="locality" />
		<tag k="seamark:type" v="rock" />
		<tag k="ssr:stedsnr" v="596061" />
	</node>
	<node lat="62.857219442598804" lon="6.937255555156438" id="-8792">
		<tag k="name" v="Selnesholman" />
		<tag k="place" v="islet" />
		<tag k="ssr:stedsnr" v="596821" />
	</node>
	<node lat="62.784241667165354" lon="6.66677778744113" id="-8794">
		<tag k="name" v="Litleærholmen" />
		<tag k="place" v="islet" />
		<tag k="ssr:stedsnr" v="699042" />
	</node>
	<node lat="62.811727776304515" lon="6.702311120611302" id="-8795">
		<tag k="name" v="Larsneset" />
		<tag k="natural" v="cape" />
		<tag k="ssr:stedsnr" v="699661" />
	</node>
	<node lat="62.850555558171266" lon="6.943888890777123" id="-8799">
		<tag k="name" v="Håsanden" />
		<tag k="natural" v="beach" />
		<tag k="ssr:stedsnr" v="702160" />
	</node>
	<node lat="62.85077221800707" lon="6.965949996628317" id="-8801">
		<tag k="name" v="Steinsneset" />
		<tag k="natural" v="cape" />
		<tag k="ssr:stedsnr" v="702155" />
	</node>
	<node lat="62.799502774876366" lon="6.814494435112807" id="-8803">
		<tag k="fixme" v="consider seamark:type=rock or natural=shoal" />
		<tag k="name" v="Drågskjeret" />
		<tag k="place" v="islet" />
		<tag k="ssr:stedsnr" v="702539" />
	</node>
	<node lat="62.800291667067306" lon="6.809438880773313" id="-8804">
		<tag k="name" v="Hestholmen" />
		<tag k="place" v="islet" />
		<tag k="ssr:stedsnr" v="702550" />
	</node>
	<node lat="62.84944999691688" lon="6.801683327040421" id="-8805">
		<tag k="name" v="Kvalvika" />
		<tag k="natural" v="bay" />
		<tag k="ssr:stedsnr" v="703060" />
	</node>
	<node lat="62.853108335984885" lon="6.76880555968757" id="-8806">
		<tag k="fixme" v="consider seamark:type=rock or natural=shoal" />
		<tag k="name" v="Jekta" />
		<tag k="place" v="islet" />
		<tag k="ssr:stedsnr" v="703062" />
	</node>
	<node lat="62.794941667402945" lon="6.750938885713109" id="-8807">
		<tag k="name" v="Litle Buøya" />
		<tag k="place" v="islet" />
		<tag k="ssr:stedsnr" v="703028" />
	</node>
	<node lat="62.76631111380996" lon="6.942044442678275" id="-8808">
		<tag k="alt_name" v="Kua" />
		<tag k="fixme" v="consider seamark:type=rock or natural=shoal" />
		<tag k="name" v="Kuå" />
		<tag k="place" v="islet" />
		<tag k="ssr:stedsnr" v="703029" />
	</node>
	<node lat="62.79431388982192" lon="6.761702774254468" id="-8809">
		<tag k="name" v="Lamholmen" />
		<tag k="place" v="islet" />
		<tag k="ssr:stedsnr" v="703034" />
	</node>
	<node lat="62.79965000317617" lon="6.80175833433366" id="-8811">
		<tag k="name" v="Flatholmen" />
		<tag k="place" v="islet" />
		<tag k="ssr:stedsnr" v="703044" />
	</node>
	<node lat="62.87739722426354" lon="6.779436106938019" id="-8812">
		<tag k="alt_name" v="Skipsskjeret" />
		<tag k="name" v="Skipsskjæret" />
		<tag k="place" v="islet" />
		<tag k="ssr:stedsnr" v="703098" />
	</node>
	<node lat="62.80769166254414" lon="6.763336118520967" id="-8813">
		<tag k="name" v="Møyaspranget" />
		<tag k="natural" v="cape" />
		<tag k="ssr:stedsnr" v="703057" />
	</node>
	<node lat="62.803419441670584" lon="6.8119472238712335" id="-8815">
		<tag k="name" v="Kvalen" />
		<tag k="place" v="islet" />
		<tag k="ssr:stedsnr" v="703372" />
	</node>
	<node lat="62.80558055308595" lon="6.903425009297829" id="-8816">
		<tag k="name" v="Varhaugvika" />
		<tag k="natural" v="bay" />
		<tag k="ssr:stedsnr" v="703379" />
	</node>
	<node lat="62.8357305525062" lon="6.858761119571411" id="-8818">
		<tag k="name" v="Buneset" />
		<tag k="natural" v="cape" />
		<tag k="ssr:stedsnr" v="703394" />
	</node>
	<node lat="62.85260000131219" lon="6.899947223247189" id="-8819">
		<tag k="name" v="Landholmen" />
		<tag k="place" v="islet" />
		<tag k="ssr:stedsnr" v="703406" />
	</node>
	<node lat="62.85229722564395" lon="6.887330557745728" id="-8820">
		<tag k="name" v="Grøneholmen" />
		<tag k="place" v="islet" />
		<tag k="ssr:stedsnr" v="703407" />
	</node>
	<node lat="62.797397226614" lon="6.807286110152328" id="-8821">
		<tag k="name" v="Ospøysundet" />
		<tag k="natural" v="strait" />
		<tag k="ssr:stedsnr" v="703594" />
	</node>
	<node lat="62.81113055203319" lon="6.691374990556024" id="-8826">
		<tag k="fixme" v="consider seamark:type=rock or natural=shoal" />
		<tag k="name" v="Litle Hamneskjeret" />
		<tag k="place" v="islet" />
		<tag k="ssr:stedsnr" v="638686" />
	</node>
	<node lat="62.80130000318418" lon="6.788508337466886" id="-8827">
		<tag k="fixme" v="consider seamark:type=rock or natural=shoal" />
		<tag k="name" v="Tvenitla" />
		<tag k="place" v="islet" />
		<tag k="ssr:stedsnr" v="642023" />
	</node>
	<node lat="62.800730553725494" lon="6.792452770475447" id="-8828">
		<tag k="name" v="Krekebærholmen" />
		<tag k="place" v="islet" />
		<tag k="ssr:stedsnr" v="642025" />
	</node>
	<node lat="62.78312777389914" lon="6.9807111203897065" id="-8830">
		<tag k="name" v="Sildegarnbukta" />
		<tag k="natural" v="bay" />
		<tag k="ssr:stedsnr" v="642223" />
	</node>
	<node lat="62.8700750017054" lon="6.844744448335766" id="-8832">
		<tag k="name" v="Casabiankaholmen" />
		<tag k="place" v="islet" />
		<tag k="ssr:stedsnr" v="642692" />
	</node>
	<node lat="62.86790833303022" lon="6.842250001931263" id="-8833">
		<tag k="name" v="Ånnholman" />
		<tag k="place" v="islet" />
		<tag k="ssr:stedsnr" v="642694" />
	</node>
	<node lat="62.781763886931095" lon="6.878213895544144" id="-8836">
		<tag k="name" v="Korsvika" />
		<tag k="natural" v="bay" />
		<tag k="ssr:stedsnr" v="642873" />
	</node>
	<node lat="62.77681944689758" lon="6.8391305547382615" id="-8840">
		<tag k="name" v="Gullholmen" />
		<tag k="place" v="islet" />
		<tag k="ssr:stedsnr" v="678811" />
	</node>
	<node lat="62.81519166466335" lon="6.697913889420687" id="-8851">
		<tag k="fixme" v="consider seamark:type=rock or natural=shoal" />
		<tag k="name" v="Ysteøyskjera" />
		<tag k="place" v="islet" />
		<tag k="ssr:stedsnr" v="699666" />
	</node>
	<node lat="62.81125277609287" lon="6.7099472310198465" id="-8852">
		<tag k="fixme" v="consider seamark:type=rock or natural=shoal" />
		<tag k="name" v="Hundeskjera" />
		<tag k="place" v="islet" />
		<tag k="ssr:stedsnr" v="699667" />
	</node>
	<node lat="62.81631389214985" lon="6.72865277305784" id="-8853">
		<tag k="fixme" v="consider seamark:type=rock or natural=shoal" />
		<tag k="name" v="Kroppongskjera" />
		<tag k="place" v="islet" />
		<tag k="ssr:stedsnr" v="699675" />
	</node>
	<node lat="62.77106111436939" lon="6.974988890436072" id="-8855">
		<tag k="name" v="Seterneset" />
		<tag k="natural" v="cape" />
		<tag k="ssr:stedsnr" v="703019" />
	</node>
	<node lat="62.7904666662022" lon="6.6767555627643675" id="-8864">
		<tag k="name" v="Hellefluna" />
		<tag k="place" v="islet" />
		<tag k="ssr:stedsnr" v="899028" />
	</node>
	<node lat="62.98639166373691" lon="6.526333343058582" id="-8865">
		<tag k="name" v="Lauvneset" />
		<tag k="natural" v="shoal" />
		<tag k="place" v="locality" />
		<tag k="ssr:stedsnr" v="717381" />
	</node>
	<node lat="62.91404166898859" lon="6.724911104392068" id="-8866">
		<tag k="name" v="Guttormtaren" />
		<tag k="natural" v="shoal" />
		<tag k="place" v="locality" />
		<tag k="ssr:stedsnr" v="718875" />
	</node>
	<node lat="63.00104444753392" lon="6.659533337062415" id="-8867">
		<tag k="name" v="Hallet" />
		<tag k="natural" v="shoal" />
		<tag k="place" v="locality" />
		<tag k="ssr:stedsnr" v="899381" />
	</node>
	<node lat="62.84426666429685" lon="6.883647227017568" id="-8868">
		<tag k="name" v="Liksteinen" />
		<tag k="place" v="locality" />
		<tag k="seamark:type" v="rock" />
		<tag k="ssr:stedsnr" v="899846" />
	</node>
	<node lat="62.84949444708662" lon="6.768105546549278" id="-8869">
		<tag k="name" v="Søre Jakteflua" />
		<tag k="place" v="locality" />
		<tag k="seamark:type" v="rock" />
		<tag k="ssr:stedsnr" v="900073" />
	</node>
	<node lat="62.77916666240197" lon="6.7697638969049185" id="-8870">
		<tag k="name" v="Rørsetflua" />
		<tag k="natural" v="shoal" />
		<tag k="place" v="locality" />
		<tag k="ssr:stedsnr" v="900092" />
	</node>
	<node lat="62.77633055236006" lon="6.746749993071423" id="-8871">
		<tag k="name" v="Søre Langflua" />
		<tag k="natural" v="shoal" />
		<tag k="place" v="locality" />
		<tag k="ssr:stedsnr" v="900094" />
	</node>
	<node lat="62.78664166302891" lon="6.985463898335691" id="-8875">
		<tag k="name" v="Jendemsbukta" />
		<tag k="natural" v="bay" />
		<tag k="ssr:stedsnr" v="739843" />
	</node>
	<node lat="62.90793055749884" lon="6.728691670470256" id="-8877">
		<tag k="name" v="Fausken" />
		<tag k="natural" v="shoal" />
		<tag k="place" v="locality" />
		<tag k="ssr:stedsnr" v="741107" />
	</node>
	<node lat="62.809527781083595" lon="6.711947231678938" id="-8880">
		<tag k="name" v="Skarvholmen" />
		<tag k="place" v="islet" />
		<tag k="ssr:stedsnr" v="759702" />
	</node>
	<node lat="62.79377221997298" lon="6.793574999699005" id="-8882">
		<tag k="name" v="Helløysundet" />
		<tag k="natural" v="strait" />
		<tag k="ssr:stedsnr" v="763042" />
	</node>
	<node lat="62.85640555437354" lon="6.84559443657748" id="-8883">
		<tag k="fixme" v="consider seamark:type=rock or natural=shoal" />
		<tag k="name" v="Håskjera" />
		<tag k="place" v="islet" />
		<tag k="ssr:stedsnr" v="763233" />
	</node>
	<node lat="62.878413888878896" lon="6.75758610355705" id="-8885">
		<tag k="alt_name" v="Orholmbogan" />
		<tag k="fixme" v="consider seamark:type=rock or natural=shoal" />
		<tag k="name" v="Bogane" />
		<tag k="place" v="islet" />
		<tag k="ssr:stedsnr" v="763108" />
	</node>
	<node lat="62.777216662809046" lon="6.885930551164164" id="-8890">
		<tag k="alt_name" v="Degerhalsen" />
		<tag k="name" v="Digerhalsen" />
		<tag k="natural" v="cape" />
		<tag k="ssr:stedsnr" v="764249" />
	</node>
	<node lat="62.905813889182255" lon="6.697294444188473" id="-8896">
		<tag k="name" v="Straumskjæra" />
		<tag k="natural" v="shoal" />
		<tag k="place" v="locality" />
		<tag k="ssr:stedsnr" v="800308" />
	</node>
	<node lat="62.9328083375648" lon="6.692375005344342" id="-8897">
		<tag k="alt_name" v="Kjerringfluene, ytre" />
		<tag k="name" v="Ytre Kjerringfluin" />
		<tag k="natural" v="shoal" />
		<tag k="place" v="locality" />
		<tag k="ssr:stedsnr" v="800316" />
	</node>
	<node lat="62.925216664179885" lon="6.644841664563501" id="-8898">
		<tag k="name" v="Finnen" />
		<tag k="natural" v="shoal" />
		<tag k="place" v="locality" />
		<tag k="ssr:stedsnr" v="800317" />
	</node>
	<node lat="62.91855833067141" lon="6.68144166772956" id="-8913">
		<tag k="fixme" v="consider seamark:type=rock or natural=shoal" />
		<tag k="name" v="Kobbekippen" />
		<tag k="place" v="islet" />
		<tag k="ssr:stedsnr" v="921328" />
	</node>
	<node lat="62.84711666940304" lon="6.828461104221054" id="-8914">
		<tag k="name" v="Litlerøyrvika" />
		<tag k="natural" v="bay" />
		<tag k="ssr:stedsnr" v="824269" />
	</node>
	<node lat="62.83253610742535" lon="6.80009722266928" id="-8915">
		<tag k="name" v="Lurvika" />
		<tag k="natural" v="bay" />
		<tag k="ssr:stedsnr" v="824424" />
	</node>
	<node lat="62.817316666705565" lon="6.91080276913488" id="-8916">
		<tag k="name" v="Nerbøvika" />
		<tag k="natural" v="bay" />
		<tag k="ssr:stedsnr" v="824707" />
	</node>
	<node lat="62.83755555525199" lon="6.768133324184434" id="-8921">
		<tag k="fixme" v="consider seamark:type=rock or natural=shoal" />
		<tag k="name" v="Lyngskjeret" />
		<tag k="place" v="islet" />
		<tag k="ssr:stedsnr" v="825411" />
	</node>
	<node lat="62.77907777654708" lon="6.8547250051298345" id="-8922">
		<tag k="name" v="Kalvøya" />
		<tag k="place" v="islet" />
		<tag k="ssr:stedsnr" v="921833" />
	</node>
	<node lat="62.770167107155814" lon="6.752750323933167" id="-8923">
		<tag k="fixme" v="consider seamark:type=rock or natural=shoal" />
		<tag k="name" v="Bleia" />
		<tag k="place" v="islet" />
		<tag k="ssr:stedsnr" v="921835" />
	</node>
	<node lat="62.7807750013682" lon="6.650799994110613" id="-8942">
		<tag k="alt_name" v="Vaulen" />
		<tag k="name" v="Valen" />
		<tag k="natural" v="bay" />
		<tag k="ssr:stedsnr" v="881617" />
	</node>
	<node lat="62.77796111268189" lon="6.970913896394461" id="-8944">
		<tag k="name" v="Holmebukta" />
		<tag k="natural" v="bay" />
		<tag k="ssr:stedsnr" v="885016" />
	</node>
	<node lat="62.79159722231013" lon="6.762733328176384" id="-8945">
		<tag k="fixme" v="consider seamark:type=rock or natural=shoal" />
		<tag k="name" v="Kransen" />
		<tag k="place" v="islet" />
		<tag k="ssr:stedsnr" v="885017" />
	</node>
	<node lat="62.85081388827159" lon="6.810083336715474" id="-8947">
		<tag k="name" v="Kvalvika" />
		<tag k="natural" v="bay" />
		<tag k="ssr:stedsnr" v="885219" />
	</node>
	<node lat="62.80558610882811" lon="6.79243889798651" id="-8949">
		<tag k="name" v="Balhamna" />
		<tag k="natural" v="bay" />
		<tag k="ssr:stedsnr" v="885565" />
	</node>
	<node lat="62.79458888572258" lon="6.9107722302438885" id="-8950">
		<tag k="alt_name" v="Farshaugbukta" />
		<tag k="name" v="Farshaugleira" />
		<tag k="natural" v="shoal" />
		<tag k="place" v="locality" />
		<tag k="ssr:stedsnr" v="885602" />
	</node>
	<node lat="62.91361666520171" lon="6.685083336155598" id="-8957">
		<tag k="fixme" v="consider seamark:type=rock or natural=shoal" />
		<tag k="name" v="Klimpekippen" />
		<tag k="place" v="islet" />
		<tag k="ssr:stedsnr" v="900924" />
	</node>
	<node lat="62.83863055298843" lon="6.689158339840782" id="-8958">
		<tag k="name" v="Flatflesa" />
		<tag k="place" v="islet" />
		<tag k="ssr:stedsnr" v="900963" />
	</node>
	<node lat="62.83727499762733" lon="6.725661112235633" id="-8964">
		<tag k="alt_name" v="Oskebogen" />
		<tag k="name" v="Oskjebogen" />
		<tag k="natural" v="shoal" />
		<tag k="place" v="locality" />
		<tag k="ssr:stedsnr" v="922185" />
	</node>
	<node lat="62.8640916697371" lon="6.715822212982923" id="-8966">
		<tag k="fixme" v="consider seamark:type=rock or natural=shoal" />
		<tag k="name" v="Krabben" />
		<tag k="place" v="islet" />
		<tag k="ssr:stedsnr" v="922383" />
	</node>
	<node lat="62.78846388689989" lon="6.863141671056278" id="-8967">
		<tag k="alt_name" v="Hjertvikbukta" />
		<tag k="name" v="Hjertvika" />
		<tag k="natural" v="bay" />
		<tag k="ssr:stedsnr" v="922803" />
	</node>
	<node lat="62.84684999974146" lon="6.879813887678068" id="-8975">
		<tag k="alt_name" v="Munkeflua" />
		<tag k="name" v="Munken" />
		<tag k="place" v="locality" />
		<tag k="seamark:type" v="rock" />
		<tag k="ssr:stedsnr" v="946030" />
	</node>
	<node lat="62.80371111360678" lon="6.748125002260658" id="-8976">
		<tag k="fixme" v="consider seamark:type=rock or natural=shoal" />
		<tag k="name" v="Kjølingskjera" />
		<tag k="place" v="islet" />
		<tag k="ssr:stedsnr" v="946031" />
	</node>
	<node lat="62.798372223664636" lon="6.7957472177121545" id="-8977">
		<tag k="fixme" v="consider seamark:type=rock or natural=shoal" />
		<tag k="name" v="Normørskjeret" />
		<tag k="place" v="islet" />
		<tag k="ssr:stedsnr" v="946033" />
	</node>
	<node lat="62.86899722125409" lon="6.763886101945601" id="-8980">
		<tag k="name" v="Kula" />
		<tag k="place" v="islet" />
		<tag k="ssr:stedsnr" v="946088" />
	</node>
	<node lat="62.85863055267902" lon="6.875527782266692" id="-8982">
		<tag k="fixme" v="consider seamark:type=rock or natural=shoal" />
		<tag k="name" v="Rumpeskjeret" />
		<tag k="place" v="islet" />
		<tag k="ssr:stedsnr" v="946332" />
	</node>
	<node lat="62.81031944018176" lon="6.730608329225103" id="-8992">
		<tag k="name" v="Værtaren" />
		<tag k="place" v="locality" />
		<tag k="seamark:type" v="rock" />
		<tag k="ssr:stedsnr" v="960085" />
	</node>
	<node lat="62.81441944379256" lon="6.778183328415618" id="-8993">
		<tag k="name" v="Rognålsholmen" />
		<tag k="place" v="islet" />
		<tag k="ssr:stedsnr" v="960089" />
	</node>
	<node lat="62.909477781061334" lon="6.692852785372378" id="-9002">
		<tag k="alt_name" v="Stabbane" />
		<tag k="name" v="Stabban" />
		<tag k="natural" v="shoal" />
		<tag k="place" v="locality" />
		<tag k="ssr:stedsnr" v="11304" />
	</node>
	<node lat="62.93135277987989" lon="6.690163884543843" id="-9003">
		<tag k="name" v="Kjerringflutaren" />
		<tag k="natural" v="shoal" />
		<tag k="place" v="locality" />
		<tag k="ssr:stedsnr" v="11306" />
	</node>
	<node lat="62.79218055799568" lon="6.650050006564118" id="-9010">
		<tag k="fixme" v="consider seamark:type=rock or natural=shoal" />
		<tag k="name" v="Hestholmrøysa" />
		<tag k="place" v="islet" />
		<tag k="ssr:stedsnr" v="32027" />
	</node>
	<node lat="62.85241746754567" lon="6.75755386477336" id="-9013">
		<tag k="name" v="Årholmflua" />
		<tag k="natural" v="shoal" />
		<tag k="place" v="locality" />
		<tag k="ssr:stedsnr" v="35075" />
	</node>
	<node lat="62.79568332953529" lon="6.784822219593427" id="-9017">
		<tag k="name" v="Smågehelløya" />
		<tag k="place" v="islet" />
		<tag k="ssr:stedsnr" v="35031" />
	</node>
	<node lat="62.79432222161113" lon="6.796311113543198" id="-9018">
		<tag k="fixme" v="consider seamark:type=rock or natural=shoal" />
		<tag k="name" v="Straumskjera" />
		<tag k="place" v="islet" />
		<tag k="ssr:stedsnr" v="35048" />
	</node>
	<node lat="62.757749998233095" lon="6.926266664083603" id="-9020">
		<tag k="alt_name" v="Bollan" />
		<tag k="name" v="Storbollen" />
		<tag k="place" v="islet" />
		<tag k="ssr:stedsnr" v="35359" />
	</node>
	<node lat="62.84514166357713" lon="6.781255547341756" id="-9021">
		<tag k="fixme" v="consider seamark:type=rock or natural=shoal" />
		<tag k="name" v="Hurlen" />
		<tag k="place" v="islet" />
		<tag k="ssr:stedsnr" v="35444" />
	</node>
	<node lat="62.86176944101076" lon="6.887736103206988" id="-9022">
		<tag k="fixme" v="consider seamark:type=rock or natural=shoal" />
		<tag k="name" v="Hummarskjera" />
		<tag k="place" v="islet" />
		<tag k="ssr:stedsnr" v="35451" />
	</node>
	<node lat="62.80208888904893" lon="6.81409166191982" id="-9024">
		<tag k="name" v="Leirvika" />
		<tag k="natural" v="bay" />
		<tag k="ssr:stedsnr" v="35629" />
	</node>
	<node lat="62.86753610783338" lon="6.838230562613432" id="-9025">
		<tag k="name" v="Engholman" />
		<tag k="place" v="islet" />
		<tag k="ssr:stedsnr" v="35718" />
	</node>
	<node lat="62.80069166578324" lon="6.821913897567573" id="-9026">
		<tag k="name" v="Halvika" />
		<tag k="natural" v="bay" />
		<tag k="ssr:stedsnr" v="35750" />
	</node>
	<node lat="62.85617222196786" lon="6.904113896990131" id="-9028">
		<tag k="name" v="Høgruta" />
		<tag k="place" v="islet" />
		<tag k="ssr:stedsnr" v="36353" />
	</node>
	<node lat="62.77703888784653" lon="6.846369451743836" id="-9034">
		<tag k="name" v="Gullholmsundet" />
		<tag k="natural" v="strait" />
		<tag k="ssr:stedsnr" v="50059" />
	</node>
	<node lat="62.85270691251351" lon="6.9102031424337795" id="-9036">
		<tag k="name" v="Setervika" />
		<tag k="natural" v="bay" />
		<tag k="ssr:stedsnr" v="50443" />
	</node>
	<node lat="62.850072226316236" lon="6.763247213816419" id="-9038">
		<tag k="name" v="Årholmen" />
		<tag k="place" v="islet" />
		<tag k="ssr:stedsnr" v="72125" />
	</node>
	<node lat="62.77534999581949" lon="6.845236114589399" id="-9045">
		<tag k="name" v="Trollholmen" />
		<tag k="place" v="islet" />
		<tag k="ssr:stedsnr" v="72837" />
	</node>
	<node lat="62.763800001878614" lon="6.929047219449862" id="-9047">
		<tag k="name" v="Flatholmen" />
		<tag k="place" v="islet" />
		<tag k="ssr:stedsnr" v="73860" />
	</node>
	<node lat="62.7706861083622" lon="6.919986114314295" id="-9048">
		<tag k="name" v="Kjerringsundet" />
		<tag k="natural" v="strait" />
		<tag k="ssr:stedsnr" v="73862" />
	</node>
	<node lat="62.79461111163955" lon="6.918749994404917" id="-9049">
		<tag k="name" v="Kalvtrøbukta" />
		<tag k="natural" v="bay" />
		<tag k="ssr:stedsnr" v="96595" />
	</node>
	<node lat="62.79689721888252" lon="6.66337499860885" id="-9052">
		<tag k="name" v="Litlsandholmen" />
		<tag k="place" v="islet" />
		<tag k="ssr:stedsnr" v="92030" />
	</node>
	<node lat="62.75417499839262" lon="6.989808326231169" id="-9054">
		<tag k="name" v="Salttrøa" />
		<tag k="natural" v="bay" />
		<tag k="ssr:stedsnr" v="95466" />
	</node>
	<node lat="62.815372223890755" lon="6.799997213153853" id="-9055">
		<tag k="name" v="Gangstøa" />
		<tag k="natural" v="bay" />
		<tag k="ssr:stedsnr" v="96088" />
	</node>
	<node lat="62.77426389223216" lon="6.979338898336832" id="-9057">
		<tag k="name" v="Hollingsbukta" />
		<tag k="natural" v="bay" />
		<tag k="ssr:stedsnr" v="96037" />
	</node>
	<node lat="62.767102780291594" lon="6.9890333364455985" id="-9058">
		<tag k="alt_name" v="Hollenbukta" />
		<tag k="name" v="Holbukta" />
		<tag k="natural" v="bay" />
		<tag k="ssr:stedsnr" v="96043" />
	</node>
	<node lat="62.845341666868165" lon="6.881461107352299" id="-9060">
		<tag k="name" v="Søre Flatholmen" />
		<tag k="place" v="islet" />
		<tag k="ssr:stedsnr" v="96051" />
	</node>
	<node lat="62.79638611097469" lon="6.80506666785454" id="-9061">
		<tag k="name" v="Ospøya" />
		<tag k="place" v="islet" />
		<tag k="ssr:stedsnr" v="96055" />
	</node>
	<node lat="62.83641111215704" lon="6.789969437643033" id="-9064">
		<tag k="name" v="Oberstvika" />
		<tag k="natural" v="bay" />
		<tag k="ssr:stedsnr" v="96411" />
	</node>
	<node lat="62.7755138899164" lon="6.891044446330489" id="-9065">
		<tag k="name" v="Knutholmen" />
		<tag k="place" v="islet" />
		<tag k="ssr:stedsnr" v="96440" />
	</node>
	<node lat="62.87872500268706" lon="6.767163885337538" id="-9070">
		<tag k="name" v="Flaska" />
		<tag k="natural" v="shoal" />
		<tag k="place" v="locality" />
		<tag k="ssr:stedsnr" v="110031" />
	</node>
	<node lat="62.8733500006622" lon="6.796383336997853" id="-9071">
		<tag k="name" v="Bjørnaungen" />
		<tag k="natural" v="shoal" />
		<tag k="place" v="locality" />
		<tag k="ssr:stedsnr" v="110032" />
	</node>
	<node lat="62.874011109470864" lon="6.799694440356914" id="-9075">
		<tag k="fixme" v="consider seamark:type=rock or natural=shoal" />
		<tag k="name" v="Bjørnen" />
		<tag k="place" v="islet" />
		<tag k="ssr:stedsnr" v="132146" />
	</node>
	<node lat="62.944147225863404" lon="6.707727786677072" id="-9076">
		<tag k="name" v="Klakken" />
		<tag k="natural" v="shoal" />
		<tag k="place" v="locality" />
		<tag k="ssr:stedsnr" v="132297" />
	</node>
	<node lat="62.91957778229026" lon="6.646555557852005" id="-9077">
		<tag k="name" v="Gjøla" />
		<tag k="natural" v="shoal" />
		<tag k="place" v="locality" />
		<tag k="ssr:stedsnr" v="132299" />
	</node>
	<node lat="62.84855555432727" lon="6.8858305478255355" id="-9087">
		<tag k="fixme" v="consider seamark:type=rock or natural=shoal" />
		<tag k="name" v="Timannskjera" />
		<tag k="place" v="islet" />
		<tag k="ssr:stedsnr" v="157021" />
	</node>
	<node lat="62.78754444608601" lon="6.769377781967725" id="-9088">
		<tag k="name" v="Nøre Drågane" />
		<tag k="place" v="islet" />
		<tag k="ssr:stedsnr" v="157026" />
	</node>
	<node lat="62.79128055313825" lon="6.789552769011989" id="-9089">
		<tag k="name" v="Meøyvalen" />
		<tag k="natural" v="strait" />
		<tag k="ssr:stedsnr" v="157033" />
	</node>
	<node lat="62.81406667110479" lon="6.774922222124072" id="-9090">
		<tag k="fixme" v="consider seamark:type=rock or natural=shoal" />
		<tag k="name" v="Rognåtsskjeret" />
		<tag k="place" v="islet" />
		<tag k="ssr:stedsnr" v="157036" />
	</node>
	<node lat="62.88214166584329" lon="6.779944438939341" id="-9093">
		<tag k="fixme" v="consider seamark:type=rock or natural=shoal" />
		<tag k="name" v="Småskjera" />
		<tag k="place" v="islet" />
		<tag k="ssr:stedsnr" v="157070" />
	</node>
	<node lat="62.85885555592031" lon="6.870527785884892" id="-9095">
		<tag k="fixme" v="consider seamark:type=rock or natural=shoal" />
		<tag k="name" v="Lyngholmskjera" />
		<tag k="place" v="islet" />
		<tag k="ssr:stedsnr" v="157341" />
	</node>
	<node lat="62.800391670955584" lon="6.822711108804061" id="-9096">
		<tag k="name" v="Ospavikneset" />
		<tag k="natural" v="cape" />
		<tag k="ssr:stedsnr" v="157729" />
	</node>
	<node lat="62.863744443772916" lon="6.918752773072423" id="-9105">
		<tag k="name" v="Langøytaren" />
		<tag k="place" v="locality" />
		<tag k="seamark:type" v="rock" />
		<tag k="ssr:stedsnr" v="171834" />
	</node>
	<node lat="62.84016389177" lon="6.7086833300198965" id="-9106">
		<tag k="name" v="Våpenskjerfluna" />
		<tag k="natural" v="shoal" />
		<tag k="place" v="locality" />
		<tag k="ssr:stedsnr" v="171971" />
	</node>
	<node lat="62.860708334734596" lon="6.79379165975778" id="-9110">
		<tag k="bay" v="fjord" />
		<tag k="name" v="Indreleia" />
		<tag k="natural" v="bay" />
		<tag k="ssr:stedsnr" v="193124" />
	</node>
	<node lat="62.941377779828095" lon="6.699744445263341" id="-9114">
		<tag k="name" v="Ufsegrunnen" />
		<tag k="natural" v="shoal" />
		<tag k="place" v="locality" />
		<tag k="ssr:stedsnr" v="193325" />
	</node>
	<node lat="62.785969440233224" lon="6.672580554578935" id="-9116">
		<tag k="name" v="Litlebukken" />
		<tag k="place" v="islet" />
		<tag k="ssr:stedsnr" v="193457" />
	</node>
	<node lat="62.79790833145957" lon="6.838958338000112" id="-9128">
		<tag k="name" v="Horremsbukta" />
		<tag k="natural" v="bay" />
		<tag k="ssr:stedsnr" v="193804" />
	</node>
	<node lat="62.831419443798374" lon="6.6941027743769626" id="-9130">
		<tag k="fixme" v="consider seamark:type=rock or natural=shoal" />
		<tag k="name" v="Litle Leikua" />
		<tag k="place" v="islet" />
		<tag k="ssr:stedsnr" v="194350" />
	</node>
	<node lat="62.7858472201865" lon="6.762480547216584" id="-9136">
		<tag k="name" v="Smågerisøya" />
		<tag k="place" v="islet" />
		<tag k="ssr:stedsnr" v="217031" />
	</node>
	<node lat="62.80571667079617" lon="6.782933337499446" id="-9137">
		<tag k="name" v="Kjøvneset" />
		<tag k="natural" v="cape" />
		<tag k="ssr:stedsnr" v="217187" />
	</node>
	<node lat="62.85411666313661" lon="6.94388055447526" id="-9138">
		<tag k="name" v="Selnesbukta" />
		<tag k="natural" v="bay" />
		<tag k="ssr:stedsnr" v="217161" />
	</node>
	<node lat="62.813338887760985" lon="6.7804333252173254" id="-9141">
		<tag k="name" v="Rognålsvika" />
		<tag k="natural" v="bay" />
		<tag k="ssr:stedsnr" v="218038" />
	</node>
	<node lat="62.81611944668534" lon="6.77879443820661" id="-9143">
		<tag k="alt_name" v="Sørevågen" />
		<tag k="name" v="Søre Vågen" />
		<tag k="natural" v="bay" />
		<tag k="ssr:stedsnr" v="218042" />
	</node>
	<node lat="62.845202777897704" lon="6.865280556882494" id="-9145">
		<tag k="name" v="Litlevedaholmen" />
		<tag k="place" v="islet" />
		<tag k="ssr:stedsnr" v="218233" />
	</node>
	<node lat="62.81393610678374" lon="6.88960277979291" id="-9150">
		<tag k="name" v="Riksfjordleira" />
		<tag k="natural" v="shoal" />
		<tag k="place" v="locality" />
		<tag k="ssr:stedsnr" v="218641" />
	</node>
	<node lat="62.78024444086592" lon="6.655099991580644" id="-9159">
		<tag k="name" v="Varhaugneset" />
		<tag k="natural" v="cape" />
		<tag k="ssr:stedsnr" v="274599" />
	</node>
	<node lat="62.812275004361275" lon="6.703950001299376" id="-9160">
		<tag k="name" v="Munken" />
		<tag k="place" v="islet" />
		<tag k="ssr:stedsnr" v="274654" />
	</node>
	<node lat="62.81257777393565" lon="6.702602773276875" id="-9161">
		<tag k="fixme" v="consider seamark:type=rock or natural=shoal" />
		<tag k="name" v="Litle Munken" />
		<tag k="place" v="islet" />
		<tag k="ssr:stedsnr" v="274656" />
	</node>
	<node lat="62.81341666546856" lon="6.7073277766126065" id="-9162">
		<tag k="name" v="Brattholmen" />
		<tag k="place" v="islet" />
		<tag k="ssr:stedsnr" v="274668" />
	</node>
	<node lat="62.77881110982744" lon="6.650566675416007" id="-9163">
		<tag k="name" v="Terneneset" />
		<tag k="natural" v="cape" />
		<tag k="ssr:stedsnr" v="274820" />
	</node>
	<node lat="62.79633889087082" lon="6.79683333956382" id="-9168">
		<tag k="name" v="Engholmen" />
		<tag k="place" v="islet" />
		<tag k="ssr:stedsnr" v="278047" />
	</node>
	<node lat="62.852747226295214" lon="6.8207750085487175" id="-9173">
		<tag k="name" v="Røyrvikneset" />
		<tag k="natural" v="cape" />
		<tag k="ssr:stedsnr" v="278228" />
	</node>
	<node lat="62.84978055200107" lon="6.844494443017081" id="-9175">
		<tag k="alt_name" v="Purkneset" />
		<tag k="name" v="Purkeneset" />
		<tag k="natural" v="cape" />
		<tag k="ssr:stedsnr" v="278242" />
	</node>
	<node lat="62.850738891438944" lon="6.828791666158005" id="-9177">
		<tag k="name" v="Røyrvikholmen" />
		<tag k="place" v="islet" />
		<tag k="ssr:stedsnr" v="278250" />
	</node>
	<node lat="62.853163886433144" lon="6.894130563164739" id="-9178">
		<tag k="fixme" v="consider seamark:type=rock or natural=shoal" />
		<tag k="name" v="Kjeholmskjeret" />
		<tag k="place" v="islet" />
		<tag k="ssr:stedsnr" v="278406" />
	</node>
	<node lat="62.8403944419344" lon="6.774130548900374" id="-9179">
		<tag k="fixme" v="consider seamark:type=rock or natural=shoal" />
		<tag k="name" v="Karlsholmskjeret" />
		<tag k="place" v="islet" />
		<tag k="ssr:stedsnr" v="278407" />
	</node>
	<node lat="62.858777777635666" lon="6.896116665531684" id="-9180">
		<tag k="name" v="Eldhusholman" />
		<tag k="place" v="islet" />
		<tag k="ssr:stedsnr" v="278416" />
	</node>
	<node lat="62.77864444004775" lon="6.849530548552994" id="-9181">
		<tag k="fixme" v="consider seamark:type=rock or natural=shoal" />
		<tag k="name" v="Kalvøyskjæret" />
		<tag k="place" v="islet" />
		<tag k="ssr:stedsnr" v="278331" />
	</node>
	<node lat="62.781244440379176" lon="6.868933324929553" id="-9183">
		<tag k="name" v="Steinabukta" />
		<tag k="natural" v="bay" />
		<tag k="ssr:stedsnr" v="278915" />
	</node>
	<node lat="62.79511666923828" lon="6.908238880323587" id="-9184">
		<tag k="name" v="Bergebukta" />
		<tag k="natural" v="bay" />
		<tag k="ssr:stedsnr" v="278637" />
	</node>
	<node lat="62.84383055150559" lon="6.882438882078905" id="-9186">
		<tag k="fixme" v="consider seamark:type=rock or natural=shoal" />
		<tag k="name" v="Guleskjeret" />
		<tag k="place" v="islet" />
		<tag k="ssr:stedsnr" v="279794" />
	</node>
	<node lat="62.80214722413945" lon="6.6908249926831145" id="-9194">
		<tag k="name" v="Matløysfluna" />
		<tag k="natural" v="shoal" />
		<tag k="place" v="locality" />
		<tag k="ssr:stedsnr" v="293108" />
	</node>
	<node lat="62.75616666655849" lon="6.918658324991901" id="-9195">
		<tag k="name" v="Bollholmsundet" />
		<tag k="natural" v="strait" />
		<tag k="ssr:stedsnr" v="293159" />
	</node>
	<node lat="62.9335916700658" lon="6.694641674598715" id="-9196">
		<tag k="name" v="Kjærringfluene" />
		<tag k="natural" v="shoal" />
		<tag k="place" v="locality" />
		<tag k="ssr:stedsnr" v="293936" />
	</node>
	<node lat="62.846038886209406" lon="6.697322224235045" id="-9197">
		<tag k="name" v="Flesefluene" />
		<tag k="natural" v="shoal" />
		<tag k="place" v="locality" />
		<tag k="ssr:stedsnr" v="293966" />
	</node>
	<node lat="62.86393888550194" lon="6.829938889970871" id="-9198">
		<tag k="name" v="Engholmflua" />
		<tag k="natural" v="shoal" />
		<tag k="place" v="locality" />
		<tag k="ssr:stedsnr" v="293801" />
	</node>
	<node lat="62.870233332856266" lon="6.8932416570844435" id="-9199">
		<tag k="name" v="Djupsundholmtaren" />
		<tag k="natural" v="shoal" />
		<tag k="place" v="locality" />
		<tag k="ssr:stedsnr" v="293835" />
	</node>
	<node lat="62.91229444590727" lon="6.67358889482022" id="-9202">
		<tag k="name" v="Stortaren" />
		<tag k="natural" v="shoal" />
		<tag k="place" v="locality" />
		<tag k="ssr:stedsnr" v="314343" />
	</node>
	<node lat="62.80462778157712" lon="6.701969436978239" id="-9204">
		<tag k="name" v="Kuholmtaren" />
		<tag k="natural" v="shoal" />
		<tag k="place" v="locality" />
		<tag k="ssr:stedsnr" v="314526" />
	</node>
	<node lat="62.79484444250854" lon="6.695788879290103" id="-9206">
		<tag k="name" v="Matløysa" />
		<tag k="place" v="islet" />
		<tag k="ssr:stedsnr" v="315418" />
	</node>
	<node lat="62.77995555230139" lon="6.628611113862347" id="-9212">
		<tag k="name" v="Morelden" />
		<tag k="natural" v="bay" />
		<tag k="ssr:stedsnr" v="328533" />
	</node>
	<node lat="62.79363611295221" lon="6.66054444721072" id="-9213">
		<tag k="fixme" v="consider seamark:type=rock or natural=shoal" />
		<tag k="name" v="Bjønnaskjeret" />
		<tag k="place" v="islet" />
		<tag k="ssr:stedsnr" v="335032" />
	</node>
	<node lat="62.78589166235354" lon="6.621927771159153" id="-9214">
		<tag k="name" v="Hella" />
		<tag k="place" v="islet" />
		<tag k="ssr:stedsnr" v="335037" />
	</node>
	<node lat="62.79491944133073" lon="6.64342223170589" id="-9215">
		<tag k="name" v="Hestholmsnagen" />
		<tag k="place" v="islet" />
		<tag k="ssr:stedsnr" v="335039" />
	</node>
	<node lat="62.820983333719326" lon="6.712791671077005" id="-9217">
		<tag k="fixme" v="consider seamark:type=rock or natural=shoal" />
		<tag k="name" v="Leikua" />
		<tag k="place" v="islet" />
		<tag k="ssr:stedsnr" v="335730" />
	</node>
	<node lat="62.798191664794714" lon="6.8327861027848105" id="-9220">
		<tag k="name" v="Naustneset" />
		<tag k="natural" v="cape" />
		<tag k="ssr:stedsnr" v="338511" />
	</node>
	<node lat="62.807238887822024" lon="6.762619444774967" id="-9222">
		<tag k="name" v="Stongnesholmen" />
		<tag k="place" v="islet" />
		<tag k="ssr:stedsnr" v="339048" />
	</node>
	<node lat="62.85053333099229" lon="6.801886120100053" id="-9223">
		<tag k="fixme" v="consider seamark:type=rock or natural=shoal" />
		<tag k="name" v="Kvalvikskjera" />
		<tag k="place" v="islet" />
		<tag k="ssr:stedsnr" v="339074" />
	</node>
	<node lat="62.82638055502413" lon="6.793152774035128" id="-9224">
		<tag k="name" v="Buholmsknubban" />
		<tag k="place" v="islet" />
		<tag k="ssr:stedsnr" v="339075" />
	</node>
	<node lat="62.85124444055866" lon="6.808111108136373" id="-9225">
		<tag k="fixme" v="consider seamark:type=rock or natural=shoal" />
		<tag k="name" v="Kvalvikskjeret" />
		<tag k="place" v="islet" />
		<tag k="ssr:stedsnr" v="339213" />
	</node>
	<node lat="62.86090833533779" lon="6.907413886889224" id="-9227">
		<tag k="name" v="Urholmen" />
		<tag k="place" v="islet" />
		<tag k="ssr:stedsnr" v="339378" />
	</node>
	<node lat="62.85930000040279" lon="6.904694436178066" id="-9228">
		<tag k="name" v="Inste Mannholmen" />
		<tag k="place" v="islet" />
		<tag k="ssr:stedsnr" v="339379" />
	</node>
	<node lat="62.85302499821661" lon="6.914333340742335" id="-9229">
		<tag k="name" v="Skitnevalen" />
		<tag k="natural" v="bay" />
		<tag k="ssr:stedsnr" v="339381" />
	</node>
	<node lat="62.85607222069249" lon="6.919213896533685" id="-9230">
		<tag k="name" v="Skatsundet" />
		<tag k="natural" v="strait" />
		<tag k="ssr:stedsnr" v="339387" />
	</node>
	<node lat="62.858769447637044" lon="6.931294449236174" id="-9231">
		<tag k="name" v="Klubbholmen" />
		<tag k="place" v="islet" />
		<tag k="ssr:stedsnr" v="339390" />
	</node>
	<node lat="62.86044444754536" lon="6.92751388499337" id="-9232">
		<tag k="name" v="Klungerholmen" />
		<tag k="place" v="islet" />
		<tag k="ssr:stedsnr" v="339391" />
	</node>
	<node lat="62.79573888674331" lon="6.918075002416929" id="-9236">
		<tag k="fixme" v="consider seamark:type=rock or natural=shoal" />
		<tag k="name" v="Kalvtrøskjæret" />
		<tag k="place" v="islet" />
		<tag k="ssr:stedsnr" v="339571" />
	</node>
	<node lat="62.83809167113086" lon="6.877097226596864" id="-9239">
		<tag k="name" v="Sporsemholmen" />
		<tag k="place" v="islet" />
		<tag k="ssr:stedsnr" v="339765" />
	</node>
	<node lat="62.83953611073464" lon="6.872700000818206" id="-9240">
		<tag k="name" v="Ytste Vassdalsholmen" />
		<tag k="place" v="islet" />
		<tag k="ssr:stedsnr" v="339767" />
	</node>
	<node lat="62.843213890422824" lon="6.881852784353749" id="-9241">
		<tag k="fixme" v="consider seamark:type=rock or natural=shoal" />
		<tag k="name" v="Målar-Pederskjeret" />
		<tag k="place" v="islet" />
		<tag k="ssr:stedsnr" v="339770" />
	</node>
	<node lat="62.84364166930896" lon="6.71440555630828" id="-9245">
		<tag k="name" v="Oskebogfluna" />
		<tag k="natural" v="shoal" />
		<tag k="place" v="locality" />
		<tag k="ssr:stedsnr" v="353094" />
	</node>
	<node lat="62.82463333471735" lon="6.958680550183846" id="-9246">
		<tag k="name" v="Langneset" />
		<tag k="natural" v="cape" />
		<tag k="ssr:stedsnr" v="353482" />
	</node>
	<node lat="62.97983889131113" lon="6.7437555533383" id="-9247">
		<tag k="name" v="Eisteinen" />
		<tag k="natural" v="shoal" />
		<tag k="place" v="locality" />
		<tag k="ssr:stedsnr" v="353879" />
	</node>
	<node lat="62.92477500008462" lon="6.670058328365349" id="-9248">
		<tag k="name" v="Midtre Stauran" />
		<tag k="natural" v="shoal" />
		<tag k="place" v="locality" />
		<tag k="ssr:stedsnr" v="353931" />
	</node>
	<node lat="62.80455277972458" lon="6.640974991305291" id="-9249">
		<tag k="name" v="Litle Skarvholmen" />
		<tag k="place" v="islet" />
		<tag k="ssr:stedsnr" v="354853" />
	</node>
	<node lat="62.867027774904486" lon="6.752675003120156" id="-9250">
		<tag k="alt_name" v="Storgrøningen" />
		<tag k="name" v="Grøningen" />
		<tag k="place" v="islet" />
		<tag k="ssr:stedsnr" v="375101" />
	</node>
	<node lat="62.76940833296644" lon="6.6422361158994025" id="-9260">
		<tag k="bay" v="fjord" />
		<tag k="name" v="Tangefjorden" />
		<tag k="natural" v="bay" />
		<tag k="ssr:stedsnr" v="388531" />
	</node>
	<node lat="62.84569444183905" lon="6.788866659532532" id="-9263">
		<tag k="name" v="Storsandvika" />
		<tag k="natural" v="bay" />
		<tag k="ssr:stedsnr" v="399072" />
	</node>
	<node lat="62.85547778129985" lon="6.922299990258129" id="-9267">
		<tag k="name" v="Skatvika" />
		<tag k="natural" v="bay" />
		<tag k="ssr:stedsnr" v="399423" />
	</node>
	<node lat="62.86987221968773" lon="6.850749990692823" id="-9268">
		<tag k="name" v="Hansholmen" />
		<tag k="place" v="islet" />
		<tag k="ssr:stedsnr" v="399675" />
	</node>
	<node lat="62.794191665104" lon="6.8422055602513066" id="-9270">
		<tag k="name" v="Notvika" />
		<tag k="natural" v="bay" />
		<tag k="ssr:stedsnr" v="399740" />
	</node>
	<node lat="62.87345277736099" lon="6.774388879294712" id="-9277">
		<tag k="name" v="Stabben" />
		<tag k="natural" v="shoal" />
		<tag k="place" v="locality" />
		<tag k="ssr:stedsnr" v="414027" />
	</node>
	<node lat="62.76927221966547" lon="6.851716658600008" id="-9278">
		<tag k="name" v="Trollholmflua" />
		<tag k="natural" v="shoal" />
		<tag k="place" v="locality" />
		<tag k="ssr:stedsnr" v="414120" />
	</node>
	<node lat="62.800463892816" lon="6.916041668892266" id="-9279">
		<tag k="name" v="Hukkelbergbukta" />
		<tag k="natural" v="bay" />
		<tag k="ssr:stedsnr" v="414068" />
	</node>
	<node lat="62.826600000674205" lon="6.816866660602748" id="-9280">
		<tag k="name" v="Rødsleira" />
		<tag k="natural" v="shoal" />
		<tag k="place" v="locality" />
		<tag k="ssr:stedsnr" v="414073" />
	</node>
	<node lat="62.80177500033468" lon="6.644022226934096" id="-9282">
		<tag k="fixme" v="consider seamark:type=rock or natural=shoal" />
		<tag k="name" v="Levra" />
		<tag k="place" v="islet" />
		<tag k="ssr:stedsnr" v="436464" />
	</node>
	<node lat="62.797377776584504" lon="6.743336110955972" id="-9284">
		<tag k="name" v="Smågevågen" />
		<tag k="natural" v="strait" />
		<tag k="ssr:stedsnr" v="436780" />
	</node>
	<node lat="62.851261111344066" lon="6.951113890917462" id="-9292">
		<tag k="name" v="Nyhamna" />
		<tag k="natural" v="cape" />
		<tag k="ssr:stedsnr" v="497228" />
	</node>
	<node lat="62.7823388917678" lon="6.7418388816257435" id="-9294">
		<tag k="name" v="Kobbeskjæra" />
		<tag k="natural" v="shoal" />
		<tag k="place" v="locality" />
		<tag k="ssr:stedsnr" v="497812" />
	</node>
	<node lat="62.7958305535758" lon="6.655141666375594" id="-9300">
		<tag k="name" v="Storsandholmen" />
		<tag k="place" v="islet" />
		<tag k="ssr:stedsnr" v="517036" />
	</node>
	<node lat="62.78539722137491" lon="6.671113897765987" id="-9301">
		<tag k="fixme" v="consider seamark:type=rock or natural=shoal" />
		<tag k="name" v="Storebukken" />
		<tag k="place" v="islet" />
		<tag k="ssr:stedsnr" v="517045" />
	</node>
	<node lat="62.78456667090689" lon="6.670174995056049" id="-9302">
		<tag k="fixme" v="consider seamark:type=rock or natural=shoal" />
		<tag k="name" v="Eggværet" />
		<tag k="place" v="islet" />
		<tag k="ssr:stedsnr" v="517046" />
	</node>
	<node lat="62.80718332907283" lon="6.708622223225641" id="-9304">
		<tag k="fixme" v="consider seamark:type=rock or natural=shoal" />
		<tag k="name" v="Ystehaugneset" />
		<tag k="place" v="islet" />
		<tag k="ssr:stedsnr" v="517700" />
	</node>
	<node lat="62.852097220928435" lon="6.952066670760938" id="-9307">
		<tag k="name" v="Gilderneset" />
		<tag k="natural" v="cape" />
		<tag k="ssr:stedsnr" v="520149" />
	</node>
	<node lat="62.80624999786547" lon="6.771594453632569" id="-9310">
		<tag k="name" v="Vetholmsvika" />
		<tag k="natural" v="bay" />
		<tag k="ssr:stedsnr" v="521184" />
	</node>
	<node lat="62.858772221891385" lon="6.91948888659675" id="-9313">
		<tag k="name" v="Midtre Langøya" />
		<tag k="place" v="islet" />
		<tag k="ssr:stedsnr" v="521354" />
	</node>
	<node lat="62.8405527746004" lon="6.8781277694524485" id="-9318">
		<tag k="name" v="Sporsemosen" />
		<tag k="natural" v="strait" />
		<tag k="ssr:stedsnr" v="521794" />
	</node>
	<node lat="62.77368611393188" lon="6.823977769183111" id="-9324">
		<tag k="name" v="Gullholmfluin" />
		<tag k="natural" v="shoal" />
		<tag k="place" v="locality" />
		<tag k="ssr:stedsnr" v="535061" />
	</node>
	<node lat="62.81636110791528" lon="6.7100638965348995" id="-9329">
		<tag k="name" v="Plomma" />
		<tag k="natural" v="shoal" />
		<tag k="place" v="locality" />
		<tag k="ssr:stedsnr" v="557393" />
	</node>
	<node lat="62.820072223514515" lon="6.730758331250833" id="-9330">
		<tag k="name" v="Ragnhildholmane" />
		<tag k="place" v="islet" />
		<tag k="ssr:stedsnr" v="557731" />
	</node>
	<node lat="62.77694722198675" lon="6.636694449155197" id="-9334">
		<tag k="fixme" v="consider seamark:type=rock or natural=shoal" />
		<tag k="name" v="Synnaskjeret" />
		<tag k="place" v="islet" />
		<tag k="ssr:stedsnr" v="570493" />
	</node>
	<node lat="62.79203888763786" lon="6.643658338138197" id="-9335">
		<tag k="fixme" v="consider seamark:type=rock or natural=shoal" />
		<tag k="name" v="Rugskjeret" />
		<tag k="place" v="islet" />
		<tag k="ssr:stedsnr" v="578039" />
	</node>
	<node lat="62.84750277521436" lon="6.891025006287603" id="-9338">
		<tag k="fixme" v="consider seamark:type=rock or natural=shoal" />
		<tag k="name" v="Fiskeskjera" />
		<tag k="place" v="islet" />
		<tag k="ssr:stedsnr" v="581038" />
	</node>
	<node lat="62.8333861143277" lon="6.958386115207904" id="-9339">
		<tag k="name" v="Kråkneset" />
		<tag k="natural" v="cape" />
		<tag k="ssr:stedsnr" v="581099" />
	</node>
	<node lat="62.83893055165559" lon="6.785047214284409" id="-9342">
		<tag k="name" v="Bytingsvika" />
		<tag k="natural" v="bay" />
		<tag k="ssr:stedsnr" v="581488" />
	</node>
	<node lat="62.78782777398466" lon="6.85996667245888" id="-9344">
		<tag k="name" v="Hjertet" />
		<tag k="place" v="islet" />
		<tag k="ssr:stedsnr" v="581684" />
	</node>
	<node lat="62.795766663909326" lon="6.926680561083458" id="-9345">
		<tag k="name" v="Holmesundet" />
		<tag k="natural" v="strait" />
		<tag k="ssr:stedsnr" v="581626" />
	</node>
	<node lat="62.844661110356384" lon="6.848611107279863" id="-9352">
		<tag k="name" v="Løvikbukta" />
		<tag k="natural" v="bay" />
		<tag k="ssr:stedsnr" v="595030" />
	</node>
	<node lat="62.85088055734528" lon="6.839058332618268" id="-9355">
		<tag k="name" v="Purka" />
		<tag k="place" v="locality" />
		<tag k="seamark:type" v="rock" />
		<tag k="ssr:stedsnr" v="596777" />
	</node>
	<node lat="62.838516667945996" lon="6.695866676016722" id="-9356">
		<tag k="fixme" v="consider seamark:type=rock or natural=shoal" />
		<tag k="name" v="Rundflesa" />
		<tag k="place" v="islet" />
		<tag k="ssr:stedsnr" v="618414" />
	</node>
	<node lat="62.828905557230186" lon="6.701880555967924" id="-9358">
		<tag k="fixme" v="consider seamark:type=rock or natural=shoal" />
		<tag k="name" v="Store Leikua" />
		<tag k="place" v="islet" />
		<tag k="ssr:stedsnr" v="618361" />
	</node>
	<node lat="62.80999721795138" lon="6.698074990713785" id="-9368">
		<tag k="fixme" v="consider seamark:type=rock or natural=shoal" />
		<tag k="name" v="Vaskjeret" />
		<tag k="place" v="islet" />
		<tag k="ssr:stedsnr" v="638685" />
	</node>
	<node lat="62.826427780385686" lon="6.9578194381729075" id="-9369">
		<tag k="name" v="Hogsnesbukta" />
		<tag k="natural" v="bay" />
		<tag k="ssr:stedsnr" v="641057" />
	</node>
	<node lat="62.857450003744255" lon="6.944316671596957" id="-9370">
		<tag k="name" v="Selneshalsen" />
		<tag k="natural" v="bay" />
		<tag k="ssr:stedsnr" v="641135" />
	</node>
	<node lat="62.851002777794626" lon="6.956313883115611" id="-9371">
		<tag k="name" v="Gilderholmen" />
		<tag k="place" v="islet" />
		<tag k="ssr:stedsnr" v="641136" />
	</node>
	<node lat="62.841830559657" lon="6.768963896572185" id="-9373">
		<tag k="fixme" v="consider seamark:type=rock or natural=shoal" />
		<tag k="name" v="Yste Tjuvskjeret" />
		<tag k="place" v="islet" />
		<tag k="ssr:stedsnr" v="642386" />
	</node>
	<node lat="62.855277777552566" lon="6.928888883750313" id="-9374">
		<tag k="name" v="Auspholmvika" />
		<tag k="place" v="islet" />
		<tag k="ssr:stedsnr" v="642387" />
	</node>
	<node lat="62.79286110718065" lon="6.787750000621255" id="-9377">
		<tag k="name" v="Horremshelløya" />
		<tag k="place" v="islet" />
		<tag k="ssr:stedsnr" v="642045" />
	</node>
	<node lat="62.788997222614356" lon="6.783794452612069" id="-9379">
		<tag k="name" v="Horremsrisøya" />
		<tag k="place" v="islet" />
		<tag k="ssr:stedsnr" v="642047" />
	</node>
	<node lat="62.85032499648994" lon="6.902394441011988" id="-9380">
		<tag k="name" v="Gamlesjøen" />
		<tag k="natural" v="bay" />
		<tag k="ssr:stedsnr" v="642048" />
	</node>
	<node lat="62.818930559847104" lon="6.8005583349579" id="-9382">
		<tag k="name" v="Larsholmen" />
		<tag k="place" v="islet" />
		<tag k="ssr:stedsnr" v="642056" />
	</node>
	<node lat="62.855513889254404" lon="6.91228332944766" id="-9384">
		<tag k="name" v="Søre Langøya" />
		<tag k="place" v="islet" />
		<tag k="ssr:stedsnr" v="642325" />
	</node>
	<node lat="62.85128333000852" lon="6.893566657332913" id="-9385">
		<tag k="name" v="Sæterbukta" />
		<tag k="natural" v="bay" />
		<tag k="ssr:stedsnr" v="642349" />
	</node>
	<node lat="62.86123332879387" lon="6.899644435096832" id="-9386">
		<tag k="alt_name" v="Mannholmen" />
		<tag k="name" v="Ytste Mannholmen" />
		<tag k="place" v="islet" />
		<tag k="ssr:stedsnr" v="642366" />
	</node>
	<node lat="62.80305555807529" lon="6.802844439154294" id="-9388">
		<tag k="alt_name" v="Landholman" />
		<tag k="name" v="Landholmen" />
		<tag k="place" v="islet" />
		<tag k="ssr:stedsnr" v="642550" />
	</node>
	<node lat="62.79219722410485" lon="6.841055559491404" id="-9390">
		<tag k="name" v="Småsunda" />
		<tag k="natural" v="strait" />
		<tag k="ssr:stedsnr" v="642739" />
	</node>
	<node lat="62.836399997145314" lon="6.873066667804782" id="-9391">
		<tag k="name" v="Skarhaugsleira" />
		<tag k="natural" v="shoal" />
		<tag k="place" v="locality" />
		<tag k="ssr:stedsnr" v="642765" />
	</node>
	<node lat="62.77423055683628" lon="6.963325007441478" id="-9397">
		<tag k="name" v="Holmeflua" />
		<tag k="natural" v="shoal" />
		<tag k="place" v="locality" />
		<tag k="ssr:stedsnr" v="656087" />
	</node>
	<node lat="62.82353610959218" lon="6.778397217914771" id="-9398">
		<tag k="name" v="Sinkelen" />
		<tag k="place" v="locality" />
		<tag k="seamark:type" v="rock" />
		<tag k="ssr:stedsnr" v="656079" />
	</node>
	<node lat="63.06292777870152" lon="6.562497219244843" id="-9399">
		<tag k="name" v="Buagrunnen" />
		<tag k="natural" v="shoal" />
		<tag k="place" v="locality" />
		<tag k="ssr:stedsnr" v="656369" />
	</node>
	<node lat="62.80640555110675" lon="6.800194442582354" id="-9400">
		<tag k="name" v="Smågevågen" />
		<tag k="natural" v="bay" />
		<tag k="ssr:stedsnr" v="656476" />
	</node>
	<node lat="62.86735278181895" lon="6.860516673107533" id="-9401">
		<tag k="name" v="Kristiholmflua" />
		<tag k="place" v="locality" />
		<tag k="seamark:type" v="rock" />
		<tag k="ssr:stedsnr" v="656844" />
	</node>
	<node lat="62.810497221225226" lon="6.910838896040002" id="-9403">
		<tag k="name" v="Halsabukta" />
		<tag k="natural" v="bay" />
		<tag k="ssr:stedsnr" v="657058" />
	</node>
	<node lat="62.969283333774285" lon="6.735533337749762" id="-9404">
		<tag k="name" v="Djupstøa" />
		<tag k="natural" v="shoal" />
		<tag k="place" v="locality" />
		<tag k="ssr:stedsnr" v="657848" />
	</node>
	<node lat="62.779977778558695" lon="6.755783334752354" id="-9411">
		<tag k="name" v="Nørdre Langflua" />
		<tag k="natural" v="shoal" />
		<tag k="place" v="locality" />
		<tag k="ssr:stedsnr" v="717075" />
	</node>
	<node lat="62.79003055134983" lon="6.751547222800687" id="-9412">
		<tag k="fixme" v="consider seamark:type=rock or natural=shoal" />
		<tag k="name" v="Nørdre Økseskaftet" />
		<tag k="place" v="islet" />
		<tag k="ssr:stedsnr" v="717078" />
	</node>
	<node lat="62.92800555954202" lon="6.648325008513725" id="-9413">
		<tag k="name" v="Finnungen" />
		<tag k="natural" v="shoal" />
		<tag k="place" v="locality" />
		<tag k="ssr:stedsnr" v="717830" />
	</node>
	<node lat="62.81269721937273" lon="6.6919777756283905" id="-9421">
		<tag k="name" v="Ørnevågen" />
		<tag k="natural" v="bay" />
		<tag k="ssr:stedsnr" v="759689" />
	</node>
	<node lat="62.83559722654253" lon="6.954783338936141" id="-9424">
		<tag k="name" v="Eikremsbukta" />
		<tag k="natural" v="bay" />
		<tag k="ssr:stedsnr" v="763085" />
	</node>
	<node lat="62.80496944232575" lon="6.800244442471749" id="-9432">
		<tag k="name" v="Landholmen" />
		<tag k="place" v="islet" />
		<tag k="ssr:stedsnr" v="763573" />
	</node>
	<node lat="62.79901666941758" lon="6.814422218999847" id="-9433">
		<tag k="name" v="Drågsundet" />
		<tag k="natural" v="strait" />
		<tag k="ssr:stedsnr" v="763580" />
	</node>
	<node lat="62.797255557246075" lon="6.828313895537018" id="-9434">
		<tag k="name" v="Landholmsundet" />
		<tag k="natural" v="strait" />
		<tag k="ssr:stedsnr" v="763739" />
	</node>
	<node lat="62.774994444453434" lon="6.892794445553709" id="-9440">
		<tag k="name" v="Kjerkeberget" />
		<tag k="natural" v="cape" />
		<tag k="ssr:stedsnr" v="764436" />
	</node>
	<node lat="62.842827773709494" lon="6.880233338272836" id="-9441">
		<tag k="fixme" v="consider seamark:type=rock or natural=shoal" />
		<tag k="name" v="Fiskeskjeret" />
		<tag k="place" v="islet" />
		<tag k="ssr:stedsnr" v="764810" />
	</node>
	<node lat="62.82313888526862" lon="6.77028055079095" id="-9446">
		<tag k="name" v="Stortaren" />
		<tag k="natural" v="shoal" />
		<tag k="place" v="locality" />
		<tag k="ssr:stedsnr" v="778094" />
	</node>
	<node lat="62.76924722606709" lon="6.870041674454405" id="-9447">
		<tag k="fixme" v="consider seamark:type=rock or natural=shoal" />
		<tag k="name" v="Rendelen" />
		<tag k="place" v="islet" />
		<tag k="ssr:stedsnr" v="778117" />
	</node>
	<node lat="62.813349997922835" lon="6.776475006215904" id="-9449">
		<tag k="name" v="Teistholmbukta" />
		<tag k="natural" v="bay" />
		<tag k="ssr:stedsnr" v="800750" />
	</node>
	<node lat="62.77772777363597" lon="6.903905557007023" id="-9454">
		<tag k="name" v="Aukratangen" />
		<tag k="natural" v="cape" />
		<tag k="ssr:stedsnr" v="800838" />
	</node>
	<node lat="62.77596666861617" lon="6.631302769211865" id="-9456">
		<tag k="name" v="Moreldtaren" />
		<tag k="natural" v="shoal" />
		<tag k="place" v="locality" />
		<tag k="ssr:stedsnr" v="801435" />
	</node>
	<node lat="62.783483330792805" lon="6.672108337941203" id="-9457">
		<tag k="fixme" v="consider seamark:type=rock or natural=shoal" />
		<tag k="name" v="Geita" />
		<tag k="place" v="islet" />
		<tag k="ssr:stedsnr" v="801439" />
	</node>
	<node lat="62.790816664332944" lon="6.790836120642043" id="-9458">
		<tag k="name" v="Meøya" />
		<tag k="place" v="islet" />
		<tag k="ssr:stedsnr" v="824063" />
	</node>
	<node lat="62.806825004079485" lon="6.76282499548951" id="-9459">
		<tag k="fixme" v="consider seamark:type=rock or natural=shoal" />
		<tag k="name" v="Møsprømhatten" />
		<tag k="place" v="islet" />
		<tag k="ssr:stedsnr" v="824070" />
	</node>
	<node lat="62.817019444743494" lon="6.799077778172962" id="-9461">
		<tag k="name" v="Røssøyvågen" />
		<tag k="natural" v="bay" />
		<tag k="ssr:stedsnr" v="824079" />
	</node>
	<node lat="62.80143333293521" lon="6.809113883498929" id="-9463">
		<tag k="name" v="Store Leirholmen" />
		<tag k="place" v="islet" />
		<tag k="ssr:stedsnr" v="824573" />
	</node>
	<node lat="62.78001111276342" lon="6.871036112175508" id="-9466">
		<tag k="name" v="Steinaholmen" />
		<tag k="place" v="islet" />
		<tag k="ssr:stedsnr" v="825231" />
	</node>
	<node lat="62.847363884735636" lon="6.894536111820878" id="-9467">
		<tag k="name" v="Løkvika" />
		<tag k="natural" v="bay" />
		<tag k="ssr:stedsnr" v="825020" />
	</node>
	<node lat="62.84836110961085" lon="6.889969454100832" id="-9468">
		<tag k="fixme" v="consider seamark:type=rock or natural=shoal" />
		<tag k="name" v="Knubben" />
		<tag k="place" v="islet" />
		<tag k="ssr:stedsnr" v="825026" />
	</node>
	<node lat="62.83976389137076" lon="6.778277776163041" id="-9471">
		<tag k="fixme" v="consider seamark:type=rock or natural=shoal" />
		<tag k="name" v="Korreskjeret" />
		<tag k="place" v="islet" />
		<tag k="ssr:stedsnr" v="825330" />
	</node>
	<node lat="62.85681666262655" lon="6.927858335340468" id="-9472">
		<tag k="name" v="Skatsundbukta" />
		<tag k="natural" v="bay" />
		<tag k="ssr:stedsnr" v="825344" />
	</node>
	<node lat="62.854263890430275" lon="6.805202784996178" id="-9479">
		<tag k="name" v="Stokkholmtaren" />
		<tag k="natural" v="shoal" />
		<tag k="place" v="locality" />
		<tag k="ssr:stedsnr" v="839785" />
	</node>
	<node lat="62.76070833370566" lon="6.605666674426249" id="-9496">
		<tag k="name" v="Ortegrunna" />
		<tag k="natural" v="shoal" />
		<tag k="place" v="locality" />
		<tag k="ssr:stedsnr" v="874386" />
	</node>
	<node lat="62.78633889314915" lon="6.631202774494879" id="-9498">
		<tag k="fixme" v="consider seamark:type=rock or natural=shoal" />
		<tag k="name" v="Sørfleen" />
		<tag k="place" v="islet" />
		<tag k="ssr:stedsnr" v="881043" />
	</node>
	<node lat="62.78518055845751" lon="6.665230555682085" id="-9499">
		<tag k="fixme" v="consider seamark:type=rock or natural=shoal" />
		<tag k="name" v="Pilsskjera" />
		<tag k="place" v="islet" />
		<tag k="ssr:stedsnr" v="881048" />
	</node>
	<node lat="62.81035832953479" lon="6.691455565311485" id="-9500">
		<tag k="fixme" v="consider seamark:type=rock or natural=shoal" />
		<tag k="name" v="Hamnskjeret" />
		<tag k="place" v="islet" />
		<tag k="ssr:stedsnr" v="881676" />
	</node>
	<node lat="62.8118638882268" lon="6.7058416689632105" id="-9501">
		<tag k="name" v="Ausa" />
		<tag k="natural" v="cape" />
		<tag k="ssr:stedsnr" v="881683" />
	</node>
	<node lat="62.81308889005923" lon="6.704594436269797" id="-9502">
		<tag k="fixme" v="consider seamark:type=rock or natural=shoal" />
		<tag k="name" v="Brattholmskjeret" />
		<tag k="place" v="islet" />
		<tag k="ssr:stedsnr" v="881692" />
	</node>
	<node lat="62.78500833496555" lon="6.74907778162391" id="-9504">
		<tag k="name" v="Risøydrågane" />
		<tag k="place" v="islet" />
		<tag k="ssr:stedsnr" v="885026" />
	</node>
	<node lat="62.817600002763186" lon="6.799563889128395" id="-9505">
		<tag k="name" v="Lyngholmen" />
		<tag k="place" v="islet" />
		<tag k="ssr:stedsnr" v="885028" />
	</node>
	<node lat="62.79751944831206" lon="6.7926472264017175" id="-9506">
		<tag k="name" v="Lille Helløy" />
		<tag k="place" v="islet" />
		<tag k="ssr:stedsnr" v="885039" />
	</node>
	<node lat="62.848363892877764" lon="6.796255556489092" id="-9507">
		<tag k="fixme" v="consider seamark:type=rock or natural=shoal" />
		<tag k="name" v="Komedantskjeret" />
		<tag k="place" v="islet" />
		<tag k="ssr:stedsnr" v="885056" />
	</node>
	<node lat="62.86265000106054" lon="6.746741672512547" id="-9508">
		<tag k="fixme" v="consider seamark:type=rock or natural=shoal" />
		<tag k="name" v="Grøningknubban" />
		<tag k="place" v="islet" />
		<tag k="ssr:stedsnr" v="885059" />
	</node>
	<node lat="62.8385222218726" lon="6.956227769574981" id="-9509">
		<tag k="name" v="Litlegrynnvika" />
		<tag k="natural" v="bay" />
		<tag k="ssr:stedsnr" v="885071" />
	</node>
	<node lat="62.778930552317256" lon="6.885499999437498" id="-9516">
		<tag k="name" v="Breivika" />
		<tag k="natural" v="bay" />
		<tag k="ssr:stedsnr" v="885283" />
	</node>
	<node lat="62.855536109456196" lon="6.893786110313845" id="-9517">
		<tag k="name" v="Tjyvholmen" />
		<tag k="place" v="islet" />
		<tag k="ssr:stedsnr" v="885349" />
	</node>
	<node lat="62.85661111398037" lon="6.908644452025104" id="-9519">
		<tag k="fixme" v="consider seamark:type=rock or natural=shoal" />
		<tag k="name" v="Siriskjera" />
		<tag k="place" v="islet" />
		<tag k="ssr:stedsnr" v="885377" />
	</node>
	<node lat="62.85515555147616" lon="6.904811104502615" id="-9520">
		<tag k="name" v="Stormåsholmen" />
		<tag k="place" v="islet" />
		<tag k="ssr:stedsnr" v="885381" />
	</node>
	<node lat="62.854569441971094" lon="6.928438881656917" id="-9521">
		<tag k="name" v="Hasselvika" />
		<tag k="natural" v="bay" />
		<tag k="ssr:stedsnr" v="885390" />
	</node>
	<node lat="62.85805000256464" lon="6.9225000089478765" id="-9522">
		<tag k="name" v="Skatsundholmen" />
		<tag k="place" v="islet" />
		<tag k="ssr:stedsnr" v="885391" />
	</node>
	<node lat="62.78143610801211" lon="6.862083326325756" id="-9524">
		<tag k="name" v="Falkorholmen" />
		<tag k="place" v="islet" />
		<tag k="ssr:stedsnr" v="885666" />
	</node>
	<node lat="62.833838887005555" lon="6.956438891128066" id="-9527">
		<tag k="name" v="Fluvikneset" />
		<tag k="natural" v="cape" />
		<tag k="ssr:stedsnr" v="945071" />
	</node>
	<node lat="62.80080000189961" lon="6.8083138933080685" id="-9531">
		<tag k="name" v="Litle Leirholmen" />
		<tag k="place" v="islet" />
		<tag k="ssr:stedsnr" v="945515" />
	</node>
	<node lat="62.80766111142236" lon="6.755216673047913" id="-9532">
		<tag k="fixme" v="consider seamark:type=rock or natural=shoal" />
		<tag k="name" v="Lamholmskjera" />
		<tag k="place" v="islet" />
		<tag k="ssr:stedsnr" v="946029" />
	</node>
	<node lat="62.83065277756332" lon="6.794613894782098" id="-9533">
		<tag k="fixme" v="consider seamark:type=rock or natural=shoal" />
		<tag k="name" v="Øyran" />
		<tag k="place" v="islet" />
		<tag k="ssr:stedsnr" v="946052" />
	</node>
	<node lat="62.83819444538983" lon="6.783555557561146" id="-9537">
		<tag k="fixme" v="consider seamark:type=rock or natural=shoal" />
		<tag k="name" v="Dyrholmskjeret" />
		<tag k="place" v="islet" />
		<tag k="ssr:stedsnr" v="946325" />
	</node>
	<node lat="62.85834444032029" lon="6.911344454411293" id="-9538">
		<tag k="name" v="Storværbukta" />
		<tag k="place" v="islet" />
		<tag k="ssr:stedsnr" v="946343" />
	</node>
	<node lat="62.85416666459922" lon="6.907747228655858" id="-9539">
		<tag k="name" v="Kjerringholmen" />
		<tag k="place" v="islet" />
		<tag k="ssr:stedsnr" v="946348" />
	</node>
	<node lat="62.92394444384525" lon="6.676980559593826" id="-9549">
		<tag k="name" v="Indre Stauran" />
		<tag k="natural" v="shoal" />
		<tag k="place" v="locality" />
		<tag k="ssr:stedsnr" v="960919" />
	</node>
	<node lat="62.90549999644999" lon="6.716025008882403" id="-9550">
		<tag k="name" v="Langfluna" />
		<tag k="natural" v="shoal" />
		<tag k="place" v="locality" />
		<tag k="ssr:stedsnr" v="960864" />
	</node>
	<node lat="62.84343857507639" lon="6.775938578445806" id="-9600">
		<tag k="name" v="Rindarøysundet" />
		<tag k="natural" v="strait" />
		<tag k="ssr:stedsnr" v="1077623" />
	</node>
	<node lat="62.84618126564629" lon="6.887349462581666" id="-9601">
		<tag k="name" v="Flatholmsundet" />
		<tag k="natural" v="strait" />
		<tag k="ssr:stedsnr" v="1077627" />
	</node>
	<node lat="62.77083951017359" lon="6.763679690615983" id="-9602">
		<tag k="fixme" v="consider seamark:type=rock or natural=shoal" />
		<tag k="name" v="Midtfjordskjæra" />
		<tag k="place" v="islet" />
		<tag k="ssr:stedsnr" v="1078734" />
	</node>
</osm>
