<?xml version="1.0" encoding="UTF-8"?>
<osm generator="osmapis" version="0.6">
	<node id="-72190" lat="62.7856916703" lon="6.65679722225">
		<tag k="name" v="Varhaugen" />
		<tag k="natural" v="hill" />
		<tag k="place" v="locality" />
		<tag k="ssr:stedsnr" v="457041" />
	</node>
	<node id="-72700" lat="62.8189916627" lon="6.92966665738">
		<tag k="name" v="Jærmannburet" />
		<tag k="natural" v="hill" />
		<tag k="place" v="locality" />
		<tag k="ssr:stedsnr" v="193751" />
	</node>
	<node id="-72186" lat="62.8133333366" lon="6.7023250074">
		<tag k="name" v="Kubben" />
		<tag k="natural" v="hill" />
		<tag k="place" v="locality" />
		<tag k="ssr:stedsnr" v="456701" />
	</node>
	<node id="-72179" lat="62.7513472208" lon="6.99551112061">
		<tag k="name" v="Geitastauå" />
		<tag k="natural" v="valley" />
		<tag k="place" v="locality" />
		<tag k="ssr:stedsnr" v="218750" />
	</node>
	<node id="-72178" lat="62.8504472207" lon="6.90599166068">
		<tag k="name" v="Gullbringen" />
		<tag k="natural" v="hill" />
		<tag k="place" v="locality" />
		<tag k="ssr:stedsnr" v="218040" />
	</node>
	<node id="-72176" lat="62.8474861112" lon="6.90716388239">
		<tag k="name" v="Sæterhaugen" />
		<tag k="natural" v="hill" />
		<tag k="place" v="locality" />
		<tag k="ssr:stedsnr" v="218035" />
	</node>
	<node id="-72174" lat="62.8215777746" lon="6.81714166992">
		<tag k="name" v="Naustberget" />
		<tag k="natural" v="hill" />
		<tag k="place" v="locality" />
		<tag k="ssr:stedsnr" v="218346" />
	</node>
	<node id="-72684" lat="62.8336638874" lon="6.89477221624">
		<tag k="name" v="Hushaugen" />
		<tag k="natural" v="hill" />
		<tag k="place" v="locality" />
		<tag k="ssr:stedsnr" v="157843" />
	</node>
	<node id="-72683" lat="62.7953000036" lon="6.84584165923">
		<tag k="name" v="Småsundhaugan" />
		<tag k="natural" v="hill" />
		<tag k="place" v="locality" />
		<tag k="ssr:stedsnr" v="157746" />
	</node>
	<node id="-72681" lat="62.75610278" lon="7.01413889754">
		<tag k="name" v="Heilia" />
		<tag k="natural" v="slope" />
		<tag k="place" v="locality" />
		<tag k="ssr:stedsnr" v="157734" />
	</node>
	<node id="-72680" lat="62.7590722208" lon="7.01948054769">
		<tag k="name" v="Heilidalen" />
		<tag k="natural" v="valley" />
		<tag k="place" v="locality" />
		<tag k="ssr:stedsnr" v="157732" />
	</node>
	<node id="-72679" lat="62.7553888879" lon="7.00298054727">
		<tag k="name" v="Hjellan" />
		<tag k="place" v="locality" />
		<tag k="ssr:stedsnr" v="157730" />
	</node>
	<node id="-72677" lat="62.8167722257" lon="6.89407777095">
		<tag k="name" v="Nausthaugen" />
		<tag k="natural" v="hill" />
		<tag k="place" v="locality" />
		<tag k="ssr:stedsnr" v="157706" />
	</node>
	<node id="-72675" lat="62.7866111085" lon="6.91971111535">
		<tag k="alt_name" v="Kyrkjeberget" />
		<tag k="name" v="Kjerkjeberget" />
		<tag k="natural" v="hill" />
		<tag k="place" v="locality" />
		<tag k="ssr:stedsnr" v="157572" />
	</node>
	<node id="-72673" lat="62.8446694411" lon="6.82924165995">
		<tag k="name" v="Kleivhaugen" />
		<tag k="natural" v="hill" />
		<tag k="place" v="locality" />
		<tag k="ssr:stedsnr" v="157327" />
	</node>
	<node id="-72671" lat="62.8077500019" lon="6.82919444103">
		<tag k="name" v="Hulderhaugen" />
		<tag k="natural" v="hill" />
		<tag k="place" v="locality" />
		<tag k="ssr:stedsnr" v="157320" />
	</node>
	<node id="-72668" lat="62.848244442" lon="6.90182499245">
		<tag k="name" v="Reinbakkhaugen" />
		<tag k="natural" v="hill" />
		<tag k="place" v="locality" />
		<tag k="ssr:stedsnr" v="157044" />
	</node>
	<node id="-72667" lat="62.8138861083" lon="6.78740832468">
		<tag k="name" v="Brenslen" />
		<tag k="natural" v="hill" />
		<tag k="place" v="locality" />
		<tag k="ssr:stedsnr" v="157039" />
	</node>
	<node id="-72149" lat="62.8300166693" lon="6.89973054646">
		<tag k="name" v="Kløfthaugan" />
		<tag k="natural" v="hill" />
		<tag k="place" v="locality" />
		<tag k="ssr:stedsnr" v="279833" />
	</node>
	<node id="-72147" lat="62.8299361122" lon="6.88295277898">
		<tag k="name" v="Lauvhaugen" />
		<tag k="natural" v="hill" />
		<tag k="place" v="locality" />
		<tag k="ssr:stedsnr" v="279803" />
	</node>
	<node id="-72146" lat="62.8266583326" lon="6.89286667226">
		<tag k="name" v="Moshaugan" />
		<tag k="natural" v="hill" />
		<tag k="place" v="locality" />
		<tag k="ssr:stedsnr" v="279802" />
	</node>
	<node id="-72145" lat="62.8238222231" lon="6.88386111984">
		<tag k="name" v="Hestholhaugen" />
		<tag k="natural" v="hill" />
		<tag k="place" v="locality" />
		<tag k="ssr:stedsnr" v="279800" />
	</node>
	<node id="-72142" lat="62.7819638867" lon="6.88983611404">
		<tag k="name" v="Kleivahaugen" />
		<tag k="natural" v="hill" />
		<tag k="place" v="locality" />
		<tag k="ssr:stedsnr" v="278910" />
	</node>
	<node id="-72141" lat="62.8194694418" lon="6.8139888935">
		<tag k="name" v="Solemshammaren" />
		<tag k="natural" v="hill" />
		<tag k="place" v="locality" />
		<tag k="ssr:stedsnr" v="157307" />
	</node>
	<node id="-72140" lat="62.7929333309" lon="6.8643777804">
		<tag k="name" v="Vardhaugen" />
		<tag k="natural" v="hill" />
		<tag k="place" v="locality" />
		<tag k="ssr:stedsnr" v="278703" />
	</node>
	<node id="-72139" lat="62.8068555531" lon="6.90491111209">
		<tag k="name" v="Vardhaugen" />
		<tag k="natural" v="hill" />
		<tag k="place" v="locality" />
		<tag k="ssr:stedsnr" v="278667" />
	</node>
	<node id="-72137" lat="62.8543694405" lon="6.91755278708">
		<tag k="name" v="Skatsundhaugen" />
		<tag k="natural" v="hill" />
		<tag k="place" v="locality" />
		<tag k="ssr:stedsnr" v="278434" />
	</node>
	<node id="-72136" lat="62.8392972257" lon="6.80228889495">
		<tag k="name" v="Gåsatua" />
		<tag k="natural" v="hill" />
		<tag k="place" v="locality" />
		<tag k="ssr:stedsnr" v="278420" />
	</node>
	<node id="-72642" lat="62.8208444437" lon="6.8852666687">
		<tag k="name" v="Bringshaugen" />
		<tag k="natural" v="hill" />
		<tag k="place" v="locality" />
		<tag k="ssr:stedsnr" v="96651" />
	</node>
	<node id="-72129" lat="62.7845111083" lon="6.99564445165">
		<tag k="name" v="Torhaugen" />
		<tag k="natural" v="hill" />
		<tag k="place" v="locality" />
		<tag k="ssr:stedsnr" v="278307" />
	</node>
	<node id="-72640" lat="62.8039472251" lon="6.83205555446">
		<tag k="name" v="Halen" />
		<tag k="natural" v="hill" />
		<tag k="place" v="locality" />
		<tag k="ssr:stedsnr" v="96346" />
	</node>
	<node id="-72127" lat="62.8482194415" lon="6.95689722134">
		<tag k="name" v="Nørde Steghaugen" />
		<tag k="natural" v="hill" />
		<tag k="place" v="locality" />
		<tag k="ssr:stedsnr" v="278185" />
	</node>
	<node id="-72637" lat="62.8427166691" lon="6.80056945238">
		<tag k="name" v="Midtre Rishaugen" />
		<tag k="natural" v="hill" />
		<tag k="place" v="locality" />
		<tag k="ssr:stedsnr" v="96379" />
	</node>
	<node id="-72124" lat="62.8482166698" lon="6.91389722158">
		<tag k="name" v="Nørde Heilohaugen" />
		<tag k="natural" v="hill" />
		<tag k="place" v="locality" />
		<tag k="ssr:stedsnr" v="278163" />
	</node>
	<node id="-72635" lat="62.8483916694" lon="6.90887776809">
		<tag k="name" v="Hestholhaugen" />
		<tag k="natural" v="hill" />
		<tag k="place" v="locality" />
		<tag k="ssr:stedsnr" v="96090" />
	</node>
	<node id="-72633" lat="62.8473999978" lon="6.91271666134">
		<tag k="name" v="Søre Heilohaugen" />
		<tag k="natural" v="hill" />
		<tag k="place" v="locality" />
		<tag k="ssr:stedsnr" v="96144" />
	</node>
	<node id="-72120" lat="62.8499472238" lon="6.9040138984">
		<tag k="name" v="Dalen" />
		<tag k="natural" v="valley" />
		<tag k="place" v="locality" />
		<tag k="ssr:stedsnr" v="278051" />
	</node>
	<node id="-72116" lat="62.7511694435" lon="7.0006750012">
		<tag k="name" v="Omnan" />
		<tag k="natural" v="gorge" />
		<tag k="ssr:stedsnr" v="277247" />
	</node>
	<node id="-72627" lat="62.7838305593" lon="6.65809165955">
		<tag k="name" v="Pilshaugen" />
		<tag k="natural" v="hill" />
		<tag k="place" v="locality" />
		<tag k="ssr:stedsnr" v="92039" />
	</node>
	<node id="-72102" lat="62.7538250006" lon="7.01964445375">
		<tag k="name" v="Eiskremheia" />
		<tag k="natural" v="hill" />
		<tag k="place" v="locality" />
		<tag k="ssr:stedsnr" v="255890" />
	</node>
	<node id="-72099" lat="62.7956361149" lon="6.91135000902">
		<tag k="name" v="Farshaugen" />
		<tag k="natural" v="hill" />
		<tag k="place" v="locality" />
		<tag k="ssr:stedsnr" v="96612" />
	</node>
	<node id="-72607" lat="62.8258388906" lon="6.86266944199">
		<tag k="name" v="Hauglandshaugen" />
		<tag k="natural" v="hill" />
		<tag k="place" v="locality" />
		<tag k="ssr:stedsnr" v="50051" />
	</node>
	<node id="-72093" lat="62.8491805512" lon="6.91068610762">
		<tag k="name" v="Fjøsberga" />
		<tag k="natural" v="hill" />
		<tag k="place" v="locality" />
		<tag k="ssr:stedsnr" v="96082" />
	</node>
	<node id="-72092" lat="62.8500305574" lon="6.92249165814">
		<tag k="name" v="Tekkelhaugan" />
		<tag k="natural" v="hill" />
		<tag k="place" v="locality" />
		<tag k="ssr:stedsnr" v="96079" />
	</node>
	<node id="-72091" lat="62.8103666687" lon="6.78443888192">
		<tag k="name" v="Ausphaugan" />
		<tag k="natural" v="hill" />
		<tag k="place" v="locality" />
		<tag k="ssr:stedsnr" v="96067" />
	</node>
	<node id="-72090" lat="62.8388027813" lon="6.93472499626">
		<tag k="name" v="Skarhaugane" />
		<tag k="natural" v="hill" />
		<tag k="place" v="locality" />
		<tag k="ssr:stedsnr" v="96172" />
	</node>
	<node id="-72596" lat="62.7656861067" lon="7.00483610447">
		<tag k="name" v="Vollnakken" />
		<tag k="natural" v="ridge" />
		<tag k="place" v="locality" />
		<tag k="ssr:stedsnr" v="36183" />
	</node>
	<node id="-72592" lat="62.7917916677" lon="6.85534999405">
		<tag k="name" v="Hellegåta" />
		<tag k="natural" v="slope" />
		<tag k="place" v="locality" />
		<tag k="ssr:stedsnr" v="35710" />
	</node>
	<node id="-72589" lat="62.8054111149" lon="6.78835556105">
		<tag k="name" v="Jektvikhaugen" />
		<tag k="natural" v="hill" />
		<tag k="place" v="locality" />
		<tag k="ssr:stedsnr" v="35614" />
	</node>
	<node id="-72588" lat="62.8389111069" lon="6.79589999963">
		<tag k="name" v="Brenteremma" />
		<tag k="natural" v="hill" />
		<tag k="place" v="locality" />
		<tag k="ssr:stedsnr" v="35453" />
	</node>
	<node id="-72584" lat="62.7834527798" lon="6.98307221596">
		<tag k="name" v="Vikahaugen" />
		<tag k="natural" v="hill" />
		<tag k="place" v="locality" />
		<tag k="ssr:stedsnr" v="35297" />
	</node>
	<node id="-72172" lat="62.7853444425" lon="6.65042222524">
		<tag k="name" v="Nausthaugen" />
		<tag k="natural" v="hill" />
		<tag k="place" v="locality" />
		<tag k="ssr:stedsnr" v="214040" />
	</node>
	<node id="-72581" lat="62.845288887" lon="6.91300834055">
		<tag k="name" v="Torvehaugen" />
		<tag k="natural" v="hill" />
		<tag k="place" v="locality" />
		<tag k="ssr:stedsnr" v="35147" />
	</node>
	<node id="-72580" lat="62.8433055539" lon="6.94903333537">
		<tag k="name" v="Midtre Steghaugen" />
		<tag k="natural" v="hill" />
		<tag k="place" v="locality" />
		<tag k="ssr:stedsnr" v="35094" />
	</node>
	<node id="-72575" lat="62.7534999957" lon="6.98769167485">
		<tag k="name" v="Ramshaugen" />
		<tag k="natural" v="hill" />
		<tag k="place" v="locality" />
		<tag k="ssr:stedsnr" v="34486" />
	</node>
	<node id="-72062" lat="62.8027222242" lon="6.83776944779">
		<tag k="name" v="Abelhaugen" />
		<tag k="natural" v="hill" />
		<tag k="place" v="locality" />
		<tag k="ssr:stedsnr" v="35420" />
	</node>
	<node id="-72061" lat="62.8032333374" lon="6.83942777762">
		<tag k="name" v="Kongshaugen" />
		<tag k="natural" v="hill" />
		<tag k="place" v="locality" />
		<tag k="ssr:stedsnr" v="35411" />
	</node>
	<node id="-72571" lat="62.7844055519" lon="6.62989166854">
		<tag k="name" v="Knappen" />
		<tag k="natural" v="hill" />
		<tag k="place" v="locality" />
		<tag k="ssr:stedsnr" v="32026" />
	</node>
	<node id="-72351" lat="62.8456527787" lon="6.83028889102">
		<tag k="name" v="Kleivhaugen" />
		<tag k="natural" v="hill" />
		<tag k="place" v="locality" />
		<tag k="ssr:stedsnr" v="581262" />
	</node>
	<node id="-72095" lat="62.8381499973" lon="6.79168054865">
		<tag k="name" v="Obersttua" />
		<tag k="natural" v="hill" />
		<tag k="place" v="locality" />
		<tag k="ssr:stedsnr" v="96373" />
	</node>
	<node id="-72040" lat="62.8430222178" lon="6.78838610678">
		<tag k="name" v="Sandvikhaugen" />
		<tag k="natural" v="hill" />
		<tag k="place" v="locality" />
		<tag k="ssr:stedsnr" v="218372" />
	</node>
	<node id="-72039" lat="62.8414611138" lon="6.85129999812">
		<tag k="name" v="Nausthaugen" />
		<tag k="natural" v="hill" />
		<tag k="place" v="locality" />
		<tag k="ssr:stedsnr" v="218355" />
	</node>
	<node id="-72550" lat="62.8419166676" lon="6.89779445009">
		<tag k="name" v="Litlesporsemhaugen" />
		<tag k="natural" v="hill" />
		<tag k="place" v="locality" />
		<tag k="ssr:stedsnr" v="946834" />
	</node>
	<node id="-72549" lat="62.8495722225" lon="6.96023056033">
		<tag k="name" v="Ørnehaugen" />
		<tag k="natural" v="hill" />
		<tag k="place" v="locality" />
		<tag k="ssr:stedsnr" v="922214" />
	</node>
	<node id="-72035" lat="62.8487000014" lon="6.83417778723">
		<tag k="name" v="Skahammaren" />
		<tag k="natural" v="hill" />
		<tag k="place" v="locality" />
		<tag k="ssr:stedsnr" v="218213" />
	</node>
	<node id="-72032" lat="62.8144694428" lon="6.79899443668">
		<tag k="name" v="Rundehaugen" />
		<tag k="natural" v="hill" />
		<tag k="place" v="locality" />
		<tag k="ssr:stedsnr" v="218047" />
	</node>
	<node id="-72543" lat="62.7729583301" lon="7.02635833732">
		<tag k="name" v="Klauvsdalen" />
		<tag k="natural" v="valley" />
		<tag k="place" v="locality" />
		<tag k="ssr:stedsnr" v="217227" />
	</node>
	<node id="-72533" lat="62.7824305572" lon="6.99787221773">
		<tag k="alt_name" v="Deppelhaugen" />
		<tag k="name" v="Depelhaugen" />
		<tag k="natural" v="hill" />
		<tag k="place" v="locality" />
		<tag k="ssr:stedsnr" v="885275" />
	</node>
	<node id="-72532" lat="62.772944448" lon="7.00508888415">
		<tag k="name" v="Fårhaugan" />
		<tag k="natural" v="hill" />
		<tag k="place" v="locality" />
		<tag k="ssr:stedsnr" v="885224" />
	</node>
	<node id="-72529" lat="62.761875004" lon="7.017574999">
		<tag k="name" v="Eiskremdalen" />
		<tag k="natural" v="valley" />
		<tag k="place" v="locality" />
		<tag k="ssr:stedsnr" v="885154" />
	</node>
	<node id="-72523" lat="62.8446472212" lon="6.92092223169">
		<tag k="name" v="Ridderskaret" />
		<tag k="natural" v="valley" />
		<tag k="place" v="locality" />
		<tag k="ssr:stedsnr" v="947843" />
	</node>
	<node id="-72521" lat="62.7808555558" lon="6.87235278023">
		<tag k="name" v="Steinshaugen" />
		<tag k="natural" v="hill" />
		<tag k="place" v="locality" />
		<tag k="ssr:stedsnr" v="946896" />
	</node>
	<node id="-72520" lat="62.7999444461" lon="6.82908888765">
		<tag k="name" v="Naustneshaugan" />
		<tag k="natural" v="hill" />
		<tag k="place" v="locality" />
		<tag k="ssr:stedsnr" v="946733" />
	</node>
	<node id="-72519" lat="62.7991888891" lon="6.82606943808">
		<tag k="name" v="Fiskeberga" />
		<tag k="natural" v="hill" />
		<tag k="place" v="locality" />
		<tag k="ssr:stedsnr" v="946732" />
	</node>
	<node id="-72518" lat="62.7826472221" lon="6.86376110428">
		<tag k="name" v="Falkoren" />
		<tag k="natural" v="hill" />
		<tag k="place" v="locality" />
		<tag k="ssr:stedsnr" v="946667" />
	</node>
	<node id="-72517" lat="62.8538972217" lon="6.92117222818">
		<tag k="name" v="Ørnehaugen" />
		<tag k="natural" v="hill" />
		<tag k="place" v="locality" />
		<tag k="ssr:stedsnr" v="946354" />
	</node>
	<node id="-72213" lat="62.8257666691" lon="6.95161944693">
		<tag k="name" v="Høghaugen" />
		<tag k="natural" v="hill" />
		<tag k="place" v="locality" />
		<tag k="ssr:stedsnr" v="460103" />
	</node>
	<node id="-72512" lat="62.8431944414" lon="6.83318889494">
		<tag k="name" v="Varhaugen" />
		<tag k="natural" v="hill" />
		<tag k="place" v="locality" />
		<tag k="ssr:stedsnr" v="946315" />
	</node>
	<node id="-72511" lat="62.8064444411" lon="6.83143610177">
		<tag k="name" v="Halhaugen" />
		<tag k="natural" v="hill" />
		<tag k="place" v="locality" />
		<tag k="ssr:stedsnr" v="946307" />
	</node>
	<node id="-73021" lat="62.7616361125" lon="7.02078611035">
		<tag k="name" v="Storlia" />
		<tag k="natural" v="slope" />
		<tag k="place" v="locality" />
		<tag k="ssr:stedsnr" v="862869" />
	</node>
	<node id="-72508" lat="62.8050722241" lon="6.77399723089">
		<tag k="name" v="Geitaskallen" />
		<tag k="natural" v="hill" />
		<tag k="place" v="locality" />
		<tag k="ssr:stedsnr" v="946164" />
	</node>
	<node id="-73019" lat="62.7747805517" lon="6.99858056335">
		<tag k="name" v="Bergetippen" />
		<tag k="natural" v="hill" />
		<tag k="place" v="locality" />
		<tag k="ssr:stedsnr" v="861856" />
	</node>
	<node id="-73018" lat="62.7841138886" lon="6.89253334297">
		<tag k="name" v="Halingshaugen" />
		<tag k="natural" v="hill" />
		<tag k="place" v="locality" />
		<tag k="ssr:stedsnr" v="861847" />
	</node>
	<node id="-72504" lat="62.8461694438" lon="6.90527777853">
		<tag k="name" v="Skallebakken" />
		<tag k="natural" v="slope" />
		<tag k="place" v="locality" />
		<tag k="ssr:stedsnr" v="946037" />
	</node>
	<node id="-72914" lat="62.8466722215" lon="6.89812778165">
		<tag k="name" v="Dalåkerhaugen" />
		<tag k="natural" v="hill" />
		<tag k="place" v="locality" />
		<tag k="ssr:stedsnr" v="642046" />
	</node>
	<node id="-72497" lat="62.837469448" lon="6.79861110598">
		<tag k="name" v="Litle Obersthaugen" />
		<tag k="natural" v="hill" />
		<tag k="place" v="locality" />
		<tag k="ssr:stedsnr" v="945359" />
	</node>
	<node id="-72495" lat="62.8485333309" lon="6.93389444547">
		<tag k="name" v="Pikhaugen" />
		<tag k="natural" v="hill" />
		<tag k="place" v="locality" />
		<tag k="ssr:stedsnr" v="945149" />
	</node>
	<node id="-73006" lat="62.7811611084" lon="6.87539722192">
		<tag k="name" v="Hestberget" />
		<tag k="natural" v="hill" />
		<tag k="place" v="locality" />
		<tag k="ssr:stedsnr" v="825893" />
	</node>
	<node id="-73005" lat="62.8383111132" lon="6.89594444268">
		<tag k="name" v="Måshaugen" />
		<tag k="natural" v="hill" />
		<tag k="place" v="locality" />
		<tag k="ssr:stedsnr" v="825855" />
	</node>
	<node id="-73004" lat="62.8398583316" lon="6.90762777571">
		<tag k="name" v="Orhaugen" />
		<tag k="natural" v="hill" />
		<tag k="place" v="locality" />
		<tag k="ssr:stedsnr" v="825846" />
	</node>
	<node id="-73003" lat="62.8375972198" lon="6.90467777168">
		<tag k="name" v="Tømmerhaugen" />
		<tag k="natural" v="hill" />
		<tag k="place" v="locality" />
		<tag k="ssr:stedsnr" v="825843" />
	</node>
	<node id="-73000" lat="62.8316861075" lon="6.86151389381">
		<tag k="name" v="Korshaugan" />
		<tag k="natural" v="hill" />
		<tag k="place" v="locality" />
		<tag k="ssr:stedsnr" v="825323" />
	</node>
	<node id="-72998" lat="62.8496444458" lon="6.81719999123">
		<tag k="name" v="Røyrvikhaugen" />
		<tag k="natural" v="hill" />
		<tag k="place" v="locality" />
		<tag k="ssr:stedsnr" v="825152" />
	</node>
	<node id="-72484" lat="62.8318416691" lon="6.87664721575">
		<tag k="name" v="Maursethaugen" />
		<tag k="natural" v="hill" />
		<tag k="place" v="locality" />
		<tag k="ssr:stedsnr" v="946796" />
	</node>
	<node id="-72995" lat="62.7944611072" lon="6.90843611387">
		<tag k="name" v="Kleiva" />
		<tag k="natural" v="valley" />
		<tag k="place" v="locality" />
		<tag k="ssr:stedsnr" v="824877" />
	</node>
	<node id="-72994" lat="62.790302782" lon="6.85086110501">
		<tag k="name" v="Vardberga" />
		<tag k="natural" v="hill" />
		<tag k="place" v="locality" />
		<tag k="ssr:stedsnr" v="824683" />
	</node>
	<node id="-72993" lat="62.7581000014" lon="7.03665555893">
		<tag k="name" v="Prestseterhaugen" />
		<tag k="natural" v="hill" />
		<tag k="place" v="locality" />
		<tag k="ssr:stedsnr" v="824212" />
	</node>
	<node id="-72325" lat="62.8467305574" lon="6.89429999829">
		<tag k="name" v="Kleiva" />
		<tag k="natural" v="valley" />
		<tag k="place" v="locality" />
		<tag k="ssr:stedsnr" v="703037" />
	</node>
	<node id="-72471" lat="62.8134638883" lon="6.79410556053">
		<tag k="name" v="Grønhaugen" />
		<tag k="natural" v="hill" />
		<tag k="place" v="locality" />
		<tag k="ssr:stedsnr" v="824073" />
	</node>
	<node id="-72494" lat="62.8408444469" lon="6.93678611815">
		<tag k="name" v="Tollhaugen" />
		<tag k="natural" v="hill" />
		<tag k="place" v="locality" />
		<tag k="ssr:stedsnr" v="945140" />
	</node>
	<node id="-72465" lat="62.7829249987" lon="6.87156111195">
		<tag k="name" v="Storhaugen" />
		<tag k="natural" v="hill" />
		<tag k="place" v="locality" />
		<tag k="ssr:stedsnr" v="801812" />
	</node>
	<node id="-72976" lat="62.8314194429" lon="6.83688056214">
		<tag k="name" v="Halingshaugen" />
		<tag k="natural" v="hill" />
		<tag k="place" v="locality" />
		<tag k="ssr:stedsnr" v="764361" />
	</node>
	<node id="-72975" lat="62.815388893" lon="6.80691943601">
		<tag k="name" v="Skomakaren" />
		<tag k="natural" v="hill" />
		<tag k="place" v="locality" />
		<tag k="ssr:stedsnr" v="764352" />
	</node>
	<node id="-72462" lat="62.8396166663" lon="6.95007777525">
		<tag k="name" v="Korsberget" />
		<tag k="natural" v="hill" />
		<tag k="place" v="locality" />
		<tag k="ssr:stedsnr" v="801179" />
	</node>
	<node id="-72973" lat="62.8074361102" lon="6.85003055823">
		<tag k="name" v="Storhaugen" />
		<tag k="natural" v="hill" />
		<tag k="place" v="locality" />
		<tag k="ssr:stedsnr" v="764339" />
	</node>
	<node id="-72971" lat="62.7800499985" lon="6.9942111102">
		<tag k="name" v="Tausahaugen" />
		<tag k="natural" v="hill" />
		<tag k="place" v="locality" />
		<tag k="ssr:stedsnr" v="764245" />
	</node>
	<node id="-72970" lat="62.78178056" lon="6.98225555464">
		<tag k="name" v="Langehaugan" />
		<tag k="natural" v="hill" />
		<tag k="place" v="locality" />
		<tag k="ssr:stedsnr" v="764233" />
	</node>
	<node id="-72969" lat="62.8466500003" lon="6.90590277461">
		<tag k="name" v="Langåkerhaugen" />
		<tag k="natural" v="hill" />
		<tag k="place" v="locality" />
		<tag k="ssr:stedsnr" v="764044" />
	</node>
	<node id="-72968" lat="62.8462750009" lon="6.89091110241">
		<tag k="name" v="Jektholmen" />
		<tag k="natural" v="hill" />
		<tag k="place" v="locality" />
		<tag k="ssr:stedsnr" v="764034" />
	</node>
	<node id="-72967" lat="62.777136114" lon="6.98297222668">
		<tag k="name" v="Løken" />
		<tag k="place" v="locality" />
		<tag k="ssr:stedsnr" v="764021" />
	</node>
	<node id="-72966" lat="62.8481527752" lon="6.91120555595">
		<tag k="name" v="Myrhola" />
		<tag k="natural" v="valley" />
		<tag k="place" v="locality" />
		<tag k="ssr:stedsnr" v="764058" />
	</node>
	<node id="-72962" lat="62.7749333306" lon="7.02499443856">
		<tag k="name" v="Seterberget" />
		<tag k="natural" v="hill" />
		<tag k="place" v="locality" />
		<tag k="ssr:stedsnr" v="763241" />
	</node>
	<node id="-72960" lat="62.8360638881" lon="6.94200277704">
		<tag k="name" v="Bolletehaugen" />
		<tag k="natural" v="hill" />
		<tag k="place" v="locality" />
		<tag k="ssr:stedsnr" v="763180" />
	</node>
	<node id="-72957" lat="62.846833331" lon="6.90996943526">
		<tag k="name" v="Ausphaugen" />
		<tag k="natural" v="hill" />
		<tag k="place" v="locality" />
		<tag k="ssr:stedsnr" v="763142" />
	</node>
	<node id="-72955" lat="62.766669446" lon="7.03159444278">
		<tag k="name" v="Urdalen" />
		<tag k="natural" v="valley" />
		<tag k="place" v="locality" />
		<tag k="ssr:stedsnr" v="763134" />
	</node>
	<node id="-72953" lat="62.7805111124" lon="6.63890556422">
		<tag k="name" v="Synnahella" />
		<tag k="natural" v="hill" />
		<tag k="place" v="locality" />
		<tag k="ssr:stedsnr" v="759837" />
	</node>
	<node id="-72432" lat="62.8097777817" lon="6.80922777762">
		<tag k="name" v="Skaret" />
		<tag k="natural" v="valley" />
		<tag k="place" v="locality" />
		<tag k="ssr:stedsnr" v="763337" />
	</node>
	<node id="-72939" lat="62.8419305552" lon="6.90450834268">
		<tag k="name" v="Torvehaugen" />
		<tag k="natural" v="hill" />
		<tag k="place" v="locality" />
		<tag k="ssr:stedsnr" v="643844" />
	</node>
	<node id="-72937" lat="62.8251444406" lon="6.87685277962">
		<tag k="name" v="Hatthaugen" />
		<tag k="natural" v="hill" />
		<tag k="place" v="locality" />
		<tag k="ssr:stedsnr" v="642776" />
	</node>
	<node id="-72931" lat="62.7941416701" lon="6.92669166117">
		<tag k="name" v="Jammerberget" />
		<tag k="natural" v="hill" />
		<tag k="place" v="locality" />
		<tag k="ssr:stedsnr" v="642601" />
	</node>
	<node id="-72413" lat="62.7808666703" lon="7.01435556443">
		<tag k="name" v="Trondslia" />
		<tag k="natural" v="slope" />
		<tag k="place" v="locality" />
		<tag k="ssr:stedsnr" v="703313" />
	</node>
	<node id="-72924" lat="62.8111999974" lon="6.85718889157">
		<tag k="name" v="Emmershaugen" />
		<tag k="natural" v="hill" />
		<tag k="place" v="locality" />
		<tag k="ssr:stedsnr" v="642318" />
	</node>
	<node id="-72921" lat="62.8454944429" lon="6.90720277099">
		<tag k="name" v="Vommahaugen" />
		<tag k="natural" v="hill" />
		<tag k="place" v="locality" />
		<tag k="ssr:stedsnr" v="642117" />
	</node>
	<node id="-72919" lat="62.8134000028" lon="6.79926110541">
		<tag k="name" v="Trollhammaren" />
		<tag k="natural" v="hill" />
		<tag k="place" v="locality" />
		<tag k="ssr:stedsnr" v="642061" />
	</node>
	<node id="-72405" lat="62.8009055531" lon="6.83176111381">
		<tag k="name" v="Strupen" />
		<tag k="natural" v="ridge" />
		<tag k="place" v="locality" />
		<tag k="ssr:stedsnr" v="885721" />
	</node>
	<node id="-72404" lat="62.8153722191" lon="6.82000277108">
		<tag k="name" v="Røssgardhaugan" />
		<tag k="natural" v="hill" />
		<tag k="place" v="locality" />
		<tag k="ssr:stedsnr" v="885350" />
	</node>
	<node id="-72402" lat="62.8119916624" lon="6.8485638974">
		<tag k="name" v="Langhaugan" />
		<tag k="natural" v="hill" />
		<tag k="place" v="locality" />
		<tag k="ssr:stedsnr" v="885344" />
	</node>
	<node id="-72401" lat="62.8152861125" lon="6.82427499779">
		<tag k="name" v="Speielen" />
		<tag k="natural" v="hill" />
		<tag k="place" v="locality" />
		<tag k="ssr:stedsnr" v="885338" />
	</node>
	<node id="-72910" lat="62.7793611089" lon="6.97211110563">
		<tag k="name" v="Hardbraken" />
		<tag k="place" v="locality" />
		<tag k="ssr:stedsnr" v="642018" />
	</node>
	<node id="-72909" lat="62.8011611081" lon="6.81298888494">
		<tag k="name" v="Leirvikhaugan" />
		<tag k="natural" v="hill" />
		<tag k="place" v="locality" />
		<tag k="ssr:stedsnr" v="641533" />
	</node>
	<node id="-72379" lat="62.7809194403" lon="6.63297778592">
		<tag k="name" v="Rambjøra" />
		<tag k="natural" v="hill" />
		<tag k="place" v="locality" />
		<tag k="ssr:stedsnr" v="881834" />
	</node>
	<node id="-72375" lat="62.8140555514" lon="6.68724166908">
		<tag k="name" v="Ysteøyberga" />
		<tag k="natural" v="hill" />
		<tag k="place" v="locality" />
		<tag k="ssr:stedsnr" v="881651" />
	</node>
	<node id="-72875" lat="62.842755552" lon="6.78298332974">
		<tag k="name" v="Årgårdshaugen" />
		<tag k="natural" v="hill" />
		<tag k="place" v="locality" />
		<tag k="ssr:stedsnr" v="581393" />
	</node>
	<node id="-72874" lat="62.8400833336" lon="6.78226943662">
		<tag k="name" v="Ramnhammaren" />
		<tag k="natural" v="hill" />
		<tag k="place" v="locality" />
		<tag k="ssr:stedsnr" v="581391" />
	</node>
	<node id="-72873" lat="62.8436805523" lon="6.78245555221">
		<tag k="name" v="Varden" />
		<tag k="natural" v="hill" />
		<tag k="place" v="locality" />
		<tag k="ssr:stedsnr" v="581390" />
	</node>
	<node id="-72871" lat="62.7786694418" lon="7.01957221894">
		<tag k="name" v="Karlia" />
		<tag k="natural" v="slope" />
		<tag k="place" v="locality" />
		<tag k="ssr:stedsnr" v="581249" />
	</node>
	<node id="-72870" lat="62.8516333331" lon="6.94066388237">
		<tag k="name" v="Håhaugen" />
		<tag k="natural" v="hill" />
		<tag k="place" v="locality" />
		<tag k="ssr:stedsnr" v="581194" />
	</node>
	<node id="-72863" lat="62.7864444454" lon="6.65908611248">
		<tag k="name" v="Morteberget" />
		<tag k="natural" v="hill" />
		<tag k="place" v="locality" />
		<tag k="ssr:stedsnr" v="578047" />
	</node>
	<node id="-72350" lat="62.8077749985" lon="6.79409999146">
		<tag k="name" v="Jektvikremma" />
		<tag k="natural" v="hill" />
		<tag k="place" v="locality" />
		<tag k="ssr:stedsnr" v="581061" />
	</node>
	<node id="-72218" lat="62.7719027786" lon="7.01941111393">
		<tag k="name" v="Litleklauva" />
		<tag k="natural" v="hill" />
		<tag k="place" v="locality" />
		<tag k="ssr:stedsnr" v="460273" />
	</node>
	<node id="-72858" lat="62.764186111" lon="7.02347499305">
		<tag k="fixme" v="consider natural=peak for the most distinct mountains in the district" />
		<tag k="name" v="Peklauva" />
		<tag k="natural" v="hill" />
		<tag k="place" v="locality" />
		<tag k="ssr:stedsnr" v="558891" />
	</node>
	<node id="-72341" lat="62.7806361107" lon="6.88374722651">
		<tag k="name" v="Kleivahammaren" />
		<tag k="natural" v="hill" />
		<tag k="place" v="locality" />
		<tag k="ssr:stedsnr" v="703903" />
	</node>
	<node id="-72340" lat="62.7520416681" lon="6.99641388666">
		<tag k="name" v="Eiskremramnfloget" />
		<tag k="natural" v="cliff" />
		<tag k="ssr:stedsnr" v="703759" />
	</node>
	<node id="-72339" lat="62.783950003" lon="6.86475832493">
		<tag k="name" v="Likstadberget" />
		<tag k="natural" v="hill" />
		<tag k="place" v="locality" />
		<tag k="ssr:stedsnr" v="703701" />
	</node>
	<node id="-72845" lat="62.8436555538" lon="6.88920832559">
		<tag k="name" v="Juvikhaugen" />
		<tag k="natural" v="hill" />
		<tag k="place" v="locality" />
		<tag k="ssr:stedsnr" v="521843" />
	</node>
	<node id="-72844" lat="62.8323888854" lon="6.88728055521">
		<tag k="name" v="Halhaugen" />
		<tag k="natural" v="hill" />
		<tag k="place" v="locality" />
		<tag k="ssr:stedsnr" v="521834" />
	</node>
	<node id="-72843" lat="62.8412638877" lon="6.88240554996">
		<tag k="name" v="Nausthaugen" />
		<tag k="natural" v="hill" />
		<tag k="place" v="locality" />
		<tag k="ssr:stedsnr" v="521795" />
	</node>
	<node id="-72840" lat="62.8096222264" lon="6.91149999155">
		<tag k="name" v="Nautneshalsen" />
		<tag k="natural" v="ridge" />
		<tag k="place" v="locality" />
		<tag k="ssr:stedsnr" v="521647" />
	</node>
	<node id="-72839" lat="62.8420138856" lon="6.79929722979">
		<tag k="name" v="Søre Rishaugen" />
		<tag k="natural" v="hill" />
		<tag k="place" v="locality" />
		<tag k="ssr:stedsnr" v="521383" />
	</node>
	<node id="-72838" lat="62.8242805526" lon="6.8334166741">
		<tag k="name" v="Storhaugen" />
		<tag k="natural" v="hill" />
		<tag k="place" v="locality" />
		<tag k="ssr:stedsnr" v="521367" />
	</node>
	<node id="-72837" lat="62.8356611095" lon="6.85328332981">
		<tag k="name" v="Dalelva" />
		<tag k="natural" v="hill" />
		<tag k="place" v="locality" />
		<tag k="ssr:stedsnr" v="521363" />
	</node>
	<node id="-72835" lat="62.8105083334" lon="6.82850278238">
		<tag k="name" v="Bekkerholen" />
		<tag k="natural" v="hill" />
		<tag k="place" v="locality" />
		<tag k="ssr:stedsnr" v="521346" />
	</node>
	<node id="-72832" lat="62.7748194464" lon="7.01427778109">
		<tag k="name" v="Skarhjellen" />
		<tag k="natural" v="hill" />
		<tag k="place" v="locality" />
		<tag k="ssr:stedsnr" v="521209" />
	</node>
	<node id="-72829" lat="62.8159805566" lon="6.79993332348">
		<tag k="name" v="Gangstøhaugen" />
		<tag k="natural" v="hill" />
		<tag k="place" v="locality" />
		<tag k="ssr:stedsnr" v="521052" />
	</node>
	<node id="-72823" lat="62.8355694437" lon="6.94506943733">
		<tag k="name" v="Gjelhaugen" />
		<tag k="natural" v="hill" />
		<tag k="place" v="locality" />
		<tag k="ssr:stedsnr" v="520144" />
	</node>
	<node id="-72822" lat="62.8439027772" lon="6.94549722342">
		<tag k="name" v="Søndre Steghaugen" />
		<tag k="natural" v="hill" />
		<tag k="place" v="locality" />
		<tag k="ssr:stedsnr" v="520139" />
	</node>
	<node id="-72309" lat="62.786061109" lon="6.65484443923">
		<tag k="name" v="Veaberget" />
		<tag k="natural" v="hill" />
		<tag k="place" v="locality" />
		<tag k="ssr:stedsnr" v="699039" />
	</node>
	<node id="-72819" lat="62.7703055547" lon="7.00974167114">
		<tag k="fixme" v="consider natural=peak for the most distinct mountains in the district" />
		<tag k="name" v="Svartnakken" />
		<tag k="natural" v="hill" />
		<tag k="place" v="locality" />
		<tag k="ssr:stedsnr" v="436841" />
	</node>
	<node id="-72038" lat="62.8424666625" lon="6.82382500146">
		<tag k="name" v="Rothaugan" />
		<tag k="natural" v="hill" />
		<tag k="place" v="locality" />
		<tag k="ssr:stedsnr" v="218352" />
	</node>
	<node id="-72290" lat="62.830297219" lon="6.93176388328">
		<tag k="name" v="Meraftashaugen" />
		<tag k="natural" v="hill" />
		<tag k="place" v="locality" />
		<tag k="ssr:stedsnr" v="460208" />
	</node>
	<node id="-72289" lat="62.8370527765" lon="6.94207222285">
		<tag k="name" v="Fjøshaugen" />
		<tag k="natural" v="hill" />
		<tag k="place" v="locality" />
		<tag k="ssr:stedsnr" v="460205" />
	</node>
	<node id="-72799" lat="62.8389305554" lon="6.9094083273">
		<tag k="name" v="Pikhaugen" />
		<tag k="natural" v="hill" />
		<tag k="place" v="locality" />
		<tag k="ssr:stedsnr" v="400875" />
	</node>
	<node id="-72037" lat="62.7809805514" lon="6.97435554778">
		<tag k="name" v="Gjølet" />
		<tag k="natural" v="gorge" />
		<tag k="ssr:stedsnr" v="218239" />
	</node>
	<node id="-72794" lat="62.7979333295" lon="6.85018610425">
		<tag k="name" v="Hjertvikbakken" />
		<tag k="natural" v="slope" />
		<tag k="place" v="locality" />
		<tag k="ssr:stedsnr" v="399736" />
	</node>
	<node id="-72792" lat="62.7573972251" lon="7.03598611556">
		<tag k="name" v="Prestebotnen" />
		<tag k="natural" v="valley" />
		<tag k="place" v="locality" />
		<tag k="ssr:stedsnr" v="399678" />
	</node>
	<node id="-72790" lat="62.7954888878" lon="6.91497223157">
		<tag k="name" v="Kjerkjeberget" />
		<tag k="natural" v="hill" />
		<tag k="place" v="locality" />
		<tag k="ssr:stedsnr" v="399603" />
	</node>
	<node id="-72789" lat="62.8301027744" lon="6.80180278419">
		<tag k="name" v="Urahaugen" />
		<tag k="natural" v="hill" />
		<tag k="place" v="locality" />
		<tag k="ssr:stedsnr" v="399439" />
	</node>
	<node id="-72785" lat="62.8086666656" lon="6.81741666899">
		<tag k="name" v="Våthaugen" />
		<tag k="natural" v="hill" />
		<tag k="place" v="locality" />
		<tag k="ssr:stedsnr" v="399382" />
	</node>
	<node id="-72783" lat="62.8559583291" lon="6.94179722393">
		<tag k="name" v="Selneshaugen" />
		<tag k="natural" v="hill" />
		<tag k="place" v="locality" />
		<tag k="ssr:stedsnr" v="399180" />
	</node>
	<node id="-72782" lat="62.7646611097" lon="7.02749444072">
		<tag k="name" v="Peskaret" />
		<tag k="natural" v="valley" />
		<tag k="place" v="locality" />
		<tag k="ssr:stedsnr" v="399168" />
	</node>
	<node id="-72779" lat="62.8119055589" lon="6.69244999818">
		<tag k="name" v="Ørnehaugen" />
		<tag k="natural" v="hill" />
		<tag k="place" v="locality" />
		<tag k="ssr:stedsnr" v="395718" />
	</node>
	<node id="-72778" lat="62.7826694433" lon="6.65889166681">
		<tag k="name" v="Bruaberget" />
		<tag k="natural" v="hill" />
		<tag k="place" v="locality" />
		<tag k="ssr:stedsnr" v="396043" />
	</node>
	<node id="-72264" lat="62.751436111" lon="7.00314166115">
		<tag k="name" v="Ramnfloget" />
		<tag k="natural" v="hill" />
		<tag k="place" v="locality" />
		<tag k="ssr:stedsnr" v="497871" />
	</node>
	<node id="-72263" lat="62.7698166626" lon="7.01970833846">
		<tag k="fixme" v="consider natural=peak for the most distinct mountains in the district" />
		<tag k="name" v="Storklauva" />
		<tag k="natural" v="hill" />
		<tag k="place" v="locality" />
		<tag k="ssr:stedsnr" v="497864" />
	</node>
	<node id="-72068" lat="62.8433916697" lon="6.90331388109">
		<tag k="name" v="Kisthaugen" />
		<tag k="natural" v="hill" />
		<tag k="place" v="locality" />
		<tag k="ssr:stedsnr" v="36859" />
	</node>
	<node id="-72252" lat="62.7608416704" lon="7.03089443536">
		<tag k="name" v="Hansseterhaugen" />
		<tag k="natural" v="hill" />
		<tag k="place" v="locality" />
		<tag k="ssr:stedsnr" v="338101" />
	</node>
	<node id="-72457" lat="62.778447223" lon="7.0020583377">
		<tag k="name" v="Åshaugen" />
		<tag k="natural" v="hill" />
		<tag k="place" v="locality" />
		<tag k="ssr:stedsnr" v="800839" />
	</node>
	<node id="-72755" lat="62.7922250039" lon="6.9056472242">
		<tag k="name" v="Hukkelberget" />
		<tag k="natural" v="hill" />
		<tag k="place" v="locality" />
		<tag k="ssr:stedsnr" v="339908" />
	</node>
	<node id="-72754" lat="62.8441000043" lon="6.90939999313">
		<tag k="name" v="Søre Torvhaugen" />
		<tag k="natural" v="hill" />
		<tag k="place" v="locality" />
		<tag k="ssr:stedsnr" v="339835" />
	</node>
	<node id="-72753" lat="62.8439861109" lon="6.91915554773">
		<tag k="name" v="Ridderhaugan" />
		<tag k="natural" v="hill" />
		<tag k="place" v="locality" />
		<tag k="ssr:stedsnr" v="339831" />
	</node>
	<node id="-72752" lat="62.8354944402" lon="6.89160556082">
		<tag k="name" v="Kyrkjebakken" />
		<tag k="natural" v="slope" />
		<tag k="place" v="locality" />
		<tag k="ssr:stedsnr" v="339820" />
	</node>
	<node id="-72797" lat="62.832097224" lon="6.89708332791">
		<tag k="name" v="Hushaugdalen" />
		<tag k="natural" v="valley" />
		<tag k="place" v="locality" />
		<tag k="ssr:stedsnr" v="400844" />
	</node>
	<node id="-72235" lat="62.8420777752" lon="6.92612499428">
		<tag k="name" v="Nørdre Tjønnhaugen" />
		<tag k="natural" v="hill" />
		<tag k="place" v="locality" />
		<tag k="ssr:stedsnr" v="461852" />
	</node>
	<node id="-72233" lat="62.8395305585" lon="6.88732499775">
		<tag k="name" v="Vassdalen" />
		<tag k="natural" v="valley" />
		<tag k="place" v="locality" />
		<tag k="ssr:stedsnr" v="461838" />
	</node>
	<node id="-72232" lat="62.8290361115" lon="6.88812778502">
		<tag k="name" v="Oddhaugen" />
		<tag k="natural" v="hill" />
		<tag k="place" v="locality" />
		<tag k="ssr:stedsnr" v="461804" />
	</node>
	<node id="-72231" lat="62.7523944476" lon="6.99309721407">
		<tag k="name" v="Storkleiva" />
		<tag k="natural" v="valley" />
		<tag k="place" v="locality" />
		<tag k="ssr:stedsnr" v="460764" />
	</node>
	<node id="-72228" lat="62.755900004" lon="7.0292611139">
		<tag k="name" v="Litlemannsheia" />
		<tag k="natural" v="hill" />
		<tag k="place" v="locality" />
		<tag k="ssr:stedsnr" v="460726" />
	</node>
	<node id="-72738" lat="62.8276472264" lon="6.82824722983">
		<tag k="name" v="Hellegåthaugane" />
		<tag k="natural" v="hill" />
		<tag k="place" v="locality" />
		<tag k="ssr:stedsnr" v="339361" />
	</node>
	<node id="-72736" lat="62.8091555582" lon="6.83131111565">
		<tag k="name" v="Kviteberget" />
		<tag k="natural" v="hill" />
		<tag k="place" v="locality" />
		<tag k="ssr:stedsnr" v="339335" />
	</node>
	<node id="-72735" lat="62.780599998" lon="7.00978332511">
		<tag k="name" v="Skoppedalen" />
		<tag k="natural" v="valley" />
		<tag k="place" v="locality" />
		<tag k="ssr:stedsnr" v="339261" />
	</node>
	<node id="-72222" lat="62.8372361123" lon="6.85562221889">
		<tag k="name" v="Skipshaugen" />
		<tag k="natural" v="hill" />
		<tag k="place" v="locality" />
		<tag k="ssr:stedsnr" v="460410" />
	</node>
	<node id="-72733" lat="62.848616665" lon="6.84244167367">
		<tag k="name" v="Hellarholet" />
		<tag k="natural" v="valley" />
		<tag k="place" v="locality" />
		<tag k="ssr:stedsnr" v="339221" />
	</node>
	<node id="-72732" lat="62.7620194436" lon="7.00558056046">
		<tag k="name" v="Stornakken" />
		<tag k="natural" v="ridge" />
		<tag k="place" v="locality" />
		<tag k="ssr:stedsnr" v="339219" />
	</node>
	<node id="-72219" lat="62.8142805584" lon="6.81615000371">
		<tag k="name" v="Horremhaugen" />
		<tag k="natural" v="slope" />
		<tag k="place" v="locality" />
		<tag k="ssr:stedsnr" v="460405" />
	</node>
	<node id="-72730" lat="62.8078194401" lon="6.77021944088">
		<tag k="name" v="Stengnestua" />
		<tag k="natural" v="hill" />
		<tag k="place" v="locality" />
		<tag k="ssr:stedsnr" v="339202" />
	</node>
	<node id="-72217" lat="62.8475222222" lon="6.84109723135">
		<tag k="name" v="Hellarhaugan" />
		<tag k="natural" v="hill" />
		<tag k="place" v="locality" />
		<tag k="ssr:stedsnr" v="460270" />
	</node>
	<node id="-72216" lat="62.8247249983" lon="6.93450000699">
		<tag k="name" v="Bratthammaren" />
		<tag k="natural" v="hill" />
		<tag k="place" v="locality" />
		<tag k="ssr:stedsnr" v="460200" />
	</node>
	<node id="-72069" lat="62.8392722247" lon="6.91681666974">
		<tag k="name" v="Søre Tjønnhaugen" />
		<tag k="natural" v="hill" />
		<tag k="place" v="locality" />
		<tag k="ssr:stedsnr" v="36863" />
	</node>
	<node id="-72726" lat="62.8098861119" lon="6.79556388804">
		<tag k="name" v="Sporvehaugen" />
		<tag k="natural" v="hill" />
		<tag k="place" v="locality" />
		<tag k="ssr:stedsnr" v="339045" />
	</node>
	<node id="-72725" lat="62.776138885" lon="6.98082500464">
		<tag k="name" v="Nausthaugen" />
		<tag k="natural" v="hill" />
		<tag k="place" v="locality" />
		<tag k="ssr:stedsnr" v="339016" />
	</node>
	<node id="-72208" lat="62.847900001" lon="6.89828055624">
		<tag k="name" v="Kramdalen" />
		<tag k="natural" v="valley" />
		<tag k="place" v="locality" />
		<tag k="ssr:stedsnr" v="460049" />
	</node>
	<node id="-72203" lat="62.7555777821" lon="6.98951945049">
		<tag k="name" v="Korsberget" />
		<tag k="natural" v="hill" />
		<tag k="place" v="locality" />
		<tag k="ssr:stedsnr" v="459479" />
	</node>
	<node id="-72200" lat="62.8470666695" lon="6.83719721303">
		<tag k="name" v="Rotvikhaugen" />
		<tag k="natural" v="hill" />
		<tag k="place" v="locality" />
		<tag k="ssr:stedsnr" v="278247" />
	</node>
	<node id="-72198" lat="62.7770055541" lon="7.01334722703">
		<tag k="name" v="Steinskaret" />
		<tag k="natural" v="valley" />
		<tag k="place" v="locality" />
		<tag k="ssr:stedsnr" v="278241" />
	</node>
	<node id="-72278" lat="62.7823666647" lon="6.65616111796">
		<tag k="name" v="Smihaugen" />
		<tag k="natural" v="hill" />
		<tag k="place" v="locality" />
		<tag k="ssr:stedsnr" v="517054" />
	</node>
	<node id="-72194" lat="62.7791666688" lon="6.97610277227">
		<tag k="name" v="Holmerøra" />
		<tag k="natural" v="ridge" />
		<tag k="place" v="locality" />
		<tag k="ssr:stedsnr" v="278113" />
	</node>
</osm>
