<?xml version="1.0" encoding="UTF-8"?>
<<<<<<< HEAD
<osm version="0.6" generator="osmapis">
	<node lat="62.806919448005885" lon="6.897297216038502" id="-1942">
		<tag k="name" v="Varhaugvika" />
		<tag k="place" v="farm" />
		<tag k="ssr:stedsnr" v="11805" />
	</node>
	<node lat="62.805433334822695" lon="6.870425007804221" id="-1943">
		<tag k="name" v="Nyvoll" />
=======
<osm generator="osmapis" version="0.6">
	<node id="-77818" lat="62.8366027758" lon="6.89238334036">
		<tag k="name" v="Nordigarden" />
		<tag k="place" v="farm" />
		<tag k="ssr:stedsnr" v="581855" />
	</node>
	<node id="-77302" lat="62.787679206" lon="6.87045618893">
		<tag k="fixme" v="consider place=hamlet" />
		<tag k="name" v="Hjertvika" />
		<tag k="place" v="farm" />
		<tag k="ssr:stedsnr" v="618796" />
	</node>
	<node id="-77813" lat="62.8437305595" lon="6.78701111074">
		<tag k="name" v="Sandnes" />
>>>>>>> e1d4bc35ff8a6074a6f2e91616a996b547c36f15
		<tag k="place" v="farm" />
		<tag k="ssr:stedsnr" v="581397" />
	</node>
<<<<<<< HEAD
	<node lat="62.82065940151682" lon="6.846626487725801" id="-1944">
		<tag k="name" v="Reitebø" />
		<tag k="place" v="farm" />
		<tag k="ssr:stedsnr" v="11772" />
	</node>
	<node lat="62.81993849134442" lon="6.898864064295645" id="-1945">
		<tag k="fixme" v="consider place=hamlet" />
		<tag k="name" v="Nerbøen" />
=======
	<node id="-77286" lat="62.8473777737" lon="6.90318889684">
		<tag k="name" v="Sæter" />
		<tag k="place" v="hamlet" />
		<tag k="ssr:stedsnr" v="581056" />
	</node>
	<node id="-77284" lat="62.8175666691" lon="6.93991666295">
		<tag k="alt_name" v="Hjermstad" />
		<tag k="name" v="Hjermannstad" />
		<tag k="place" v="farm" />
		<tag k="ssr:stedsnr" v="708384" />
	</node>
	<node id="-77283" lat="62.7819166702" lon="6.65456667182">
		<tag k="name" v="Bakken" />
>>>>>>> e1d4bc35ff8a6074a6f2e91616a996b547c36f15
		<tag k="place" v="farm" />
		<tag k="ssr:stedsnr" v="578064" />
	</node>
<<<<<<< HEAD
	<node lat="62.83534721791959" lon="6.795750006314164" id="-1947">
		<tag k="name" v="Utheim" />
		<tag k="place" v="farm" />
		<tag k="ssr:stedsnr" v="12208" />
	</node>
	<node lat="62.79878332938301" lon="6.894250004745634" id="-1952">
		<tag k="name" v="Solberg" />
		<tag k="place" v="isolated_dwelling" />
		<tag k="ssr:stedsnr" v="232053" />
	</node>
	<node lat="62.77683611304285" lon="6.900697218492971" id="-1954">
		<tag k="name" v="Reset" />
		<tag k="place" v="farm" />
		<tag k="ssr:stedsnr" v="232121" />
	</node>
	<node lat="62.83926110800271" lon="6.897916666302358" id="-1974">
		<tag k="name" v="Myran" />
		<tag k="place" v="farm" />
		<tag k="ssr:stedsnr" v="36870" />
	</node>
	<node lat="62.76591944727465" lon="6.996069447910656" id="-1975">
		<tag k="fixme" v="multiple name tags, choose one and add the other to alt_name" />
		<tag k="name" v="Vollan;Medvoll" />
		<tag k="place" v="farm" />
		<tag k="ssr:stedsnr" v="42592" />
	</node>
	<node lat="62.84543333169849" lon="6.807980559573231" id="-1982">
		<tag k="name" v="Rishaug" />
		<tag k="place" v="farm" />
		<tag k="ssr:stedsnr" v="72221" />
	</node>
	<node lat="62.84289721921448" lon="6.900875003782668" id="-1983">
		<tag k="name" v="Kisthaugen" />
		<tag k="place" v="farm" />
		<tag k="ssr:stedsnr" v="72224" />
	</node>
	<node lat="62.78400000381718" lon="6.879758339175729" id="-1985">
		<tag k="name" v="Korsvika" />
		<tag k="place" v="farm" />
		<tag k="ssr:stedsnr" v="72818" />
	</node>
	<node lat="62.826391665994855" lon="6.955013890640606" id="-1987">
		<tag k="name" v="Nygjerdet" />
		<tag k="place" v="farm" />
		<tag k="ssr:stedsnr" v="96103" />
	</node>
	<node lat="62.8398033214235" lon="6.846087957193779" id="-2006">
		<tag k="name" v="Løvika" />
		<tag k="place" v="hamlet" />
		<tag k="ssr:stedsnr" v="132206" />
	</node>
	<node lat="62.781677777629234" lon="6.885236101628384" id="-2008">
		<tag k="name" v="Kleiva" />
		<tag k="place" v="farm" />
		<tag k="ssr:stedsnr" v="133824" />
	</node>
	<node lat="62.83856944241694" lon="6.897313894115532" id="-2010">
		<tag k="name" v="Reithaugen" />
		<tag k="place" v="farm" />
		<tag k="ssr:stedsnr" v="254196" />
	</node>
	<node lat="62.80403611294584" lon="6.890008327767906" id="-2013">
		<tag k="name" v="Falkhytta" />
		<tag k="place" v="farm" />
		<tag k="ssr:stedsnr" v="254773" />
	</node>
	<node lat="62.81882499708846" lon="6.904477785330564" id="-2022">
		<tag k="name" v="Aukra Industrier" />
		<tag k="place" v="quarter" />
		<tag k="ssr:stedsnr" v="157628" />
	</node>
	<node lat="62.807694444239196" lon="6.902208326312839" id="-2025">
		<tag k="name" v="Varhaug" />
		<tag k="place" v="farm" />
		<tag k="ssr:stedsnr" v="171062" />
	</node>
	<node lat="62.780183329234504" lon="6.644863883347028" id="-2043">
		<tag k="name" v="Gjerdet" />
		<tag k="place" v="farm" />
		<tag k="ssr:stedsnr" v="254414" />
	</node>
	<node lat="62.781072223939574" lon="6.644108325809446" id="-2048">
		<tag k="name" v="Nybø" />
		<tag k="place" v="farm" />
		<tag k="ssr:stedsnr" v="456849" />
	</node>
	<node lat="62.826775003322716" lon="6.955280548027028" id="-2074">
		<tag k="name" v="Hatlebakk" />
		<tag k="place" v="farm" />
		<tag k="ssr:stedsnr" v="460100" />
	</node>
	<node lat="62.83146389202128" lon="6.8765388936352885" id="-2077">
		<tag k="name" v="Maurset" />
		<tag k="place" v="farm" />
		<tag k="ssr:stedsnr" v="279804" />
	</node>
	<node lat="62.84449721776532" lon="6.927047213050691" id="-2093">
		<tag k="name" v="Riddervoll" />
		<tag k="place" v="farm" />
		<tag k="ssr:stedsnr" v="315208" />
	</node>
	<node lat="62.832383336923876" lon="6.851449993838655" id="-2122">
		<tag k="name" v="Skjerset" />
		<tag k="place" v="farm" />
		<tag k="ssr:stedsnr" v="375738" />
	</node>
	<node lat="62.80278888518743" lon="6.872833334154249" id="-2140">
		<tag k="name" v="Fagerheim" />
		<tag k="place" v="farm" />
		<tag k="ssr:stedsnr" v="436807" />
	</node>
	<node lat="62.81653333450236" lon="6.917174993623181" id="-2142">
		<tag k="name" v="Nerbøberget" />
		<tag k="place" v="farm" />
		<tag k="ssr:stedsnr" v="436768" />
	</node>
	<node lat="62.766068427490126" lon="6.996970533717191" id="-2145">
		<tag k="fixme" v="multiple name tags, choose one and add the other to alt_name; consider place=hamlet" />
		<tag k="name" v="Vollan;Medvoll" />
		<tag k="place" v="farm" />
		<tag k="ssr:stedsnr" v="437848" />
	</node>
	<node lat="62.84757777387687" lon="6.944944436245782" id="-2167">
		<tag k="name" v="Bergsli" />
		<tag k="place" v="farm" />
		<tag k="ssr:stedsnr" v="679200" />
	</node>
	<node lat="62.821362869451406" lon="6.824645320475131" id="-2169">
		<tag k="fixme" v="consider place=hamlet" />
		<tag k="name" v="Rød" />
		<tag k="place" v="farm" />
		<tag k="ssr:stedsnr" v="679743" />
	</node>
	<node lat="62.804130909513866" lon="6.841018455637916" id="-2173">
		<tag k="fixme" v="consider place=hamlet" />
		<tag k="name" v="Horrem" />
		<tag k="place" v="farm" />
		<tag k="ssr:stedsnr" v="679778" />
	</node>
	<node lat="62.76663055774811" lon="7.022919437174317" id="-2174">
		<tag k="name" v="Fangholsetra" />
		<tag k="place" v="isolated_dwelling" />
		<tag k="ssr:stedsnr" v="679855" />
	</node>
	<node lat="62.78331111028609" lon="6.651244438373063" id="-2200">
		<tag k="name" v="Ytterbø" />
		<tag k="place" v="farm" />
		<tag k="ssr:stedsnr" v="578056" />
	</node>
	<node lat="62.84737777369903" lon="6.903188896840359" id="-2204">
		<tag k="name" v="Sæter" />
		<tag k="place" v="hamlet" />
		<tag k="ssr:stedsnr" v="581056" />
	</node>
	<node lat="62.843730559518434" lon="6.787011110744738" id="-2211">
		<tag k="name" v="Sandnes" />
		<tag k="place" v="farm" />
		<tag k="ssr:stedsnr" v="581397" />
	</node>
	<node lat="62.83570833400736" lon="6.799847218133799" id="-2221">
		<tag k="name" v="Vik" />
		<tag k="place" v="farm" />
		<tag k="ssr:stedsnr" v="618177" />
	</node>
	<node lat="62.82751389271329" lon="6.855380549302103" id="-2223">
		<tag k="name" v="Solvang" />
		<tag k="place" v="farm" />
		<tag k="ssr:stedsnr" v="618729" />
	</node>
	<node lat="62.76278055479755" lon="7.01257499433504" id="-2239">
		<tag k="historic" v="shieling" />
		<tag k="name" v="Eiskremsetra" />
		<tag k="place" v="isolated_dwelling" />
		<tag k="ssr:stedsnr" v="703149" />
	</node>
	<node lat="62.80696388447349" lon="6.836469438339969" id="-2242">
		<tag k="name" v="Smågeleiren" />
		<tag k="place" v="farm" />
		<tag k="ssr:stedsnr" v="703384" />
	</node>
	<node lat="62.80363889239724" lon="6.843594435233363" id="-2256">
		<tag k="name" v="Horremhaugen" />
		<tag k="place" v="farm" />
		<tag k="ssr:stedsnr" v="642314" />
	</node>
	<node lat="62.83420065423184" lon="6.94669865275656" id="-2264">
		<tag k="fixme" v="consider place=hamlet" />
		<tag k="name" v="Eikrem" />
		<tag k="place" v="farm" />
		<tag k="ssr:stedsnr" v="679173" />
	</node>
	<node lat="62.83677222374406" lon="6.795113891646283" id="-2266">
		<tag k="name" v="Vike" />
		<tag k="place" v="farm" />
		<tag k="ssr:stedsnr" v="679184" />
	</node>
	<node lat="62.845991669127734" lon="6.8424416735739415" id="-2269">
		<tag k="name" v="Lunheim" />
		<tag k="place" v="farm" />
		<tag k="ssr:stedsnr" v="679194" />
	</node>
	<node lat="62.77210373325438" lon="6.984465194801005" id="-2271">
		<tag k="fixme" v="consider place=hamlet" />
		<tag k="name" v="Hollingsetra" />
		<tag k="place" v="farm" />
		<tag k="ssr:stedsnr" v="679861" />
	</node>
	<node lat="62.77148610731562" lon="6.994780547469372" id="-2277">
		<tag k="name" v="Råket" />
		<tag k="place" v="farm" />
		<tag k="ssr:stedsnr" v="702205" />
	</node>
	<node lat="62.817566669110825" lon="6.939916662946481" id="-2281">
		<tag k="alt_name" v="Hjermstad" />
		<tag k="name" v="Hjermannstad" />
		<tag k="place" v="farm" />
		<tag k="ssr:stedsnr" v="708384" />
	</node>
	<node lat="62.85103610753527" lon="6.910827774935242" id="-2294">
		<tag k="name" v="Setervika" />
=======
	<node id="-77282" lat="62.7833111103" lon="6.65124443837">
		<tag k="name" v="Ytterbø" />
		<tag k="place" v="farm" />
		<tag k="ssr:stedsnr" v="578056" />
	</node>
	<node id="-77792" lat="62.7824055519" lon="6.87431389415">
		<tag k="name" v="Hjertviksteinen" />
		<tag k="place" v="farm" />
		<tag k="ssr:stedsnr" v="557829" />
	</node>
	<node id="-77790" lat="62.8046694415" lon="6.85543333533">
		<tag k="name" v="Nylund" />
		<tag k="place" v="farm" />
		<tag k="ssr:stedsnr" v="557789" />
	</node>
	<node id="-77306" lat="62.7851583372" lon="6.99409443704">
		<tag k="name" v="Hollingen" />
		<tag k="place" v="farm" />
		<tag k="ssr:stedsnr" v="657128" />
	</node>
	<node id="-77272" lat="62.8069638845" lon="6.83646943834">
		<tag k="name" v="Smågeleiren" />
		<tag k="place" v="farm" />
		<tag k="ssr:stedsnr" v="703384" />
	</node>
	<node id="-77783" lat="62.7813805568" lon="6.89001665708">
		<tag k="name" v="Breivikkleiva" />
		<tag k="place" v="farm" />
		<tag k="ssr:stedsnr" v="521899" />
	</node>
	<node id="-77269" lat="62.7627805548" lon="7.01257499434">
		<tag k="historic" v="shieling" />
		<tag k="name" v="Eiskremsetra" />
		<tag k="place" v="locality" />
		<tag k="ssr:stedsnr" v="703149" />
	</node>
	<node id="-77778" lat="62.8337805586" lon="6.8741694463">
		<tag k="name" v="Skarshaugen" />
		<tag k="place" v="hamlet" />
		<tag k="ssr:stedsnr" v="521791" />
	</node>
	<node id="-77254" lat="62.7714861073" lon="6.99478054747">
		<tag k="name" v="Råket" />
		<tag k="place" v="farm" />
		<tag k="ssr:stedsnr" v="702205" />
	</node>
	<node id="-77765" lat="62.8060277778" lon="6.80385832846">
		<tag k="name" v="Smågesjøen" />
		<tag k="place" v="farm" />
		<tag k="ssr:stedsnr" v="521045" />
	</node>
	<node id="-77758" lat="62.7660684275" lon="6.99697053372">
		<tag k="fixme" v="multiple name tags, choose one and add the other to alt_name; consider place=hamlet" />
		<tag k="name" v="Medvoll;Vollan" />
		<tag k="place" v="farm" />
		<tag k="ssr:stedsnr" v="437848" />
	</node>
	<node id="-77755" lat="62.7733468578" lon="6.99763088046">
		<tag k="fixme" v="consider place=hamlet" />
		<tag k="name" v="Matberget" />
		<tag k="place" v="farm" />
		<tag k="ssr:stedsnr" v="436840" />
	</node>
	<node id="-77754" lat="62.778163886" lon="7.00546666684">
		<tag k="name" v="Lauvåsen" />
		<tag k="place" v="farm" />
		<tag k="ssr:stedsnr" v="436837" />
	</node>
	<node id="-77753" lat="62.8027888852" lon="6.87283333415">
		<tag k="name" v="Fagerheim" />
		<tag k="place" v="farm" />
		<tag k="ssr:stedsnr" v="436807" />
	</node>
	<node id="-77749" lat="62.8165333345" lon="6.91717499362">
		<tag k="name" v="Nerbøberget" />
		<tag k="place" v="farm" />
		<tag k="ssr:stedsnr" v="436768" />
	</node>
	<node id="-77235" lat="62.8041309095" lon="6.84101845564">
		<tag k="fixme" v="consider place=hamlet" />
		<tag k="name" v="Horrem" />
		<tag k="place" v="farm" />
		<tag k="ssr:stedsnr" v="679778" />
	</node>
	<node id="-77234" lat="62.8475777739" lon="6.94494443625">
		<tag k="name" v="Bergsli" />
		<tag k="place" v="farm" />
		<tag k="ssr:stedsnr" v="679200" />
	</node>
	<node id="-77233" lat="62.8459916691" lon="6.84244167357">
		<tag k="name" v="Lunheim" />
		<tag k="place" v="farm" />
		<tag k="ssr:stedsnr" v="679194" />
	</node>
	<node id="-77229" lat="62.8367722237" lon="6.79511389165">
		<tag k="name" v="Vike" />
		<tag k="place" v="farm" />
		<tag k="ssr:stedsnr" v="679184" />
	</node>
	<node id="-77836" lat="62.8317388863" lon="6.90701110497">
		<tag k="name" v="Solbø" />
		<tag k="place" v="farm" />
		<tag k="ssr:stedsnr" v="618735" />
	</node>
	<node id="-77210" lat="62.8107805542" lon="6.88411110344">
		<tag k="name" v="Dalen" />
		<tag k="place" v="farm" />
		<tag k="ssr:stedsnr" v="375774" />
	</node>
	<node id="-77721" lat="62.8039749963" lon="6.86381666037">
		<tag k="name" v="Midtheim" />
		<tag k="place" v="farm" />
		<tag k="ssr:stedsnr" v="399371" />
	</node>
	<node id="-77207" lat="62.8397305538" lon="6.78638333569">
		<tag k="name" v="Bytingsvika" />
		<tag k="place" v="farm" />
		<tag k="ssr:stedsnr" v="375175" />
	</node>
	<node id="-77206" lat="62.8363444415" lon="6.92337777971">
		<tag k="name" v="Midtbø" />
		<tag k="place" v="farm" />
		<tag k="ssr:stedsnr" v="375155" />
	</node>
	<node id="-77199" lat="62.7842277766" lon="6.65551388332">
		<tag k="name" v="Nordbø" />
		<tag k="place" v="farm" />
		<tag k="ssr:stedsnr" v="497421" />
	</node>
	<node id="-77709" lat="62.8323833369" lon="6.85144999384">
		<tag k="name" v="Skjerset" />
		<tag k="place" v="farm" />
		<tag k="ssr:stedsnr" v="375738" />
	</node>
	<node id="-77194" lat="62.8240249956" lon="6.95502499909">
		<tag k="name" v="Hogsneset" />
		<tag k="place" v="farm" />
		<tag k="ssr:stedsnr" v="496778" />
	</node>
	<node id="-77703" lat="62.8484333327" lon="6.91205278547">
		<tag k="name" v="Myrstad" />
		<tag k="place" v="farm" />
		<tag k="ssr:stedsnr" v="375189" />
	</node>
	<node id="-77179" lat="62.8444972178" lon="6.92704721305">
		<tag k="name" v="Riddervoll" />
		<tag k="place" v="farm" />
		<tag k="ssr:stedsnr" v="315208" />
	</node>
	<node id="-77885" lat="62.8348166685" lon="6.9129805508">
		<tag k="name" v="Dalset" />
		<tag k="place" v="farm" />
		<tag k="ssr:stedsnr" v="740201" />
	</node>
	<node id="-77149" lat="62.8267750033" lon="6.95528054803">
		<tag k="name" v="Hatlebakk" />
		<tag k="place" v="farm" />
		<tag k="ssr:stedsnr" v="460100" />
	</node>
	<node id="-77658" lat="62.781411109" lon="6.65545555803">
		<tag k="name" v="Solbakken" />
		<tag k="place" v="isolated_dwelling" />
		<tag k="ssr:stedsnr" v="335676" />
	</node>
	<node id="-77652" lat="62.8088567538" lon="6.8084420557">
		<tag k="fixme" v="consider place=hamlet" />
		<tag k="name" v="Småge" />
		<tag k="place" v="farm" />
		<tag k="ssr:stedsnr" v="315782" />
	</node>
	<node id="-77647" lat="62.836229355" lon="6.89237549799">
		<tag k="fixme" v="consider place=hamlet" />
		<tag k="name" v="Sporsem" />
		<tag k="place" v="farm" />
		<tag k="ssr:stedsnr" v="315197" />
	</node>
	<node id="-77644" lat="62.7681372518" lon="6.9946171593">
		<tag k="fixme" v="consider place=hamlet" />
		<tag k="name" v="Hola" />
		<tag k="place" v="farm" />
		<tag k="ssr:stedsnr" v="194858" />
	</node>
	<node id="-77642" lat="62.8094305581" lon="6.89046666678">
		<tag k="name" v="Nordsletta" />
		<tag k="place" v="farm" />
		<tag k="ssr:stedsnr" v="193791" />
	</node>
	<node id="-77641" lat="62.8065861071" lon="6.85124166828">
		<tag k="name" v="Tahaugen" />
		<tag k="place" v="farm" />
		<tag k="ssr:stedsnr" v="193785" />
	</node>
	<node id="-77640" lat="62.8118138887" lon="6.82017777242">
		<tag k="name" v="Smågehaugen" />
		<tag k="place" v="farm" />
		<tag k="ssr:stedsnr" v="193779" />
	</node>
	<node id="-77639" lat="62.8218972197" lon="6.86454445245">
		<tag k="name" v="Gåsvang" />
>>>>>>> e1d4bc35ff8a6074a6f2e91616a996b547c36f15
		<tag k="place" v="farm" />
		<tag k="ssr:stedsnr" v="193764" />
	</node>
<<<<<<< HEAD
	<node lat="62.84524999864794" lon="6.959555558801845" id="-2295">
		<tag k="name" v="Futvika" />
		<tag k="place" v="isolated_dwelling" />
		<tag k="ssr:stedsnr" v="739225" />
	</node>
	<node lat="62.79099444283" lon="6.9180444355243305" id="-2297">
		<tag k="name" v="Aukrasanden" />
		<tag k="place" v="village" />
		<tag k="ssr:stedsnr" v="740808" />
	</node>
	<node lat="62.817566669110825" lon="6.939916662946481" id="-2302">
		<tag k="name" v="Blom" />
		<tag k="place" v="isolated_dwelling" />
		<tag k="ssr:stedsnr" v="763006" />
	</node>
	<node lat="62.8243166629287" lon="6.861286110275797" id="-2316">
		<tag k="name" v="Haugland" />
		<tag k="place" v="farm" />
		<tag k="ssr:stedsnr" v="800728" />
	</node>
	<node lat="62.82535555524054" lon="6.883141661085366" id="-2317">
		<tag k="name" v="Hatthaugremma" />
		<tag k="place" v="farm" />
		<tag k="ssr:stedsnr" v="800732" />
	</node>
	<node lat="62.803852773635654" lon="6.870186109478725" id="-2318">
		<tag k="name" v="Myrbø" />
		<tag k="place" v="farm" />
		<tag k="ssr:stedsnr" v="800782" />
	</node>
	<node lat="62.798133332871075" lon="6.849005555448944" id="-2319">
		<tag k="name" v="Horremsbakken" />
		<tag k="place" v="farm" />
		<tag k="ssr:stedsnr" v="800783" />
	</node>
	<node lat="62.82019444484611" lon="6.90827777349136" id="-2334">
		<tag k="name" v="Eindalen" />
		<tag k="place" v="farm" />
		<tag k="ssr:stedsnr" v="824708" />
	</node>
	<node lat="62.80628333328956" lon="6.853586111066303" id="-2337">
		<tag k="name" v="Flatset" />
		<tag k="place" v="farm" />
		<tag k="ssr:stedsnr" v="825214" />
	</node>
	<node lat="62.80553611262931" lon="6.860352773851632" id="-2346">
		<tag k="name" v="Elvebakken" />
		<tag k="place" v="farm" />
		<tag k="ssr:stedsnr" v="922753" />
	</node>
	<node lat="62.84167499696595" lon="6.9335916712681716" id="-2350">
		<tag k="name" v="Skarset" />
		<tag k="place" v="farm" />
		<tag k="ssr:stedsnr" v="861170" />
	</node>
	<node lat="62.79971388877998" lon="6.893438886222517" id="-2354">
		<tag k="amenity" v="nursing_home" />
		<tag k="name" v="Aukraheimen" />
		<tag k="ssr:stedsnr" v="861807" />
	</node>
	<node lat="62.79443888467626" lon="6.847527785788794" id="-2355">
		<tag k="name" v="Småsundet" />
		<tag k="place" v="isolated_dwelling" />
		<tag k="ssr:stedsnr" v="861829" />
	</node>
	<node lat="62.757999002159444" lon="6.999453376530998" id="-2357">
		<tag k="fixme" v="consider place=hamlet" />
		<tag k="name" v="Eiskrem" />
		<tag k="place" v="farm" />
		<tag k="ssr:stedsnr" v="862870" />
	</node>
	<node lat="62.84912777567313" lon="6.912888895345573" id="-2377">
		<tag k="name" v="Heilohaugan" />
		<tag k="place" v="farm" />
		<tag k="ssr:stedsnr" v="922209" />
	</node>
	<node lat="62.83720832962179" lon="6.849783342424093" id="-2380">
		<tag k="name" v="Løvikhaugen" />
		<tag k="place" v="farm" />
		<tag k="ssr:stedsnr" v="922187" />
	</node>
	<node lat="62.79354722070144" lon="6.902016668239526" id="-2383">
		<tag k="name" v="Hukkelberget" />
		<tag k="place" v="farm" />
		<tag k="ssr:stedsnr" v="922804" />
	</node>
	<node lat="62.78606944227457" lon="6.883569441158095" id="-2386">
		<tag k="name" v="Gjerdet" />
		<tag k="place" v="farm" />
		<tag k="ssr:stedsnr" v="922826" />
	</node>
	<node lat="62.808872225260515" lon="6.803716666993013" id="-2394">
		<tag k="name" v="Korsbøen" />
		<tag k="place" v="farm" />
		<tag k="ssr:stedsnr" v="946039" />
	</node>
	<node lat="62.82414999906099" lon="6.884358325706214" id="-2400">
		<tag k="name" v="Hestholen" />
		<tag k="place" v="farm" />
		<tag k="ssr:stedsnr" v="946791" />
	</node>
	<node lat="62.84713942313991" lon="6.901318106333655" id="-2410">
		<tag k="fixme" v="consider place=hamlet" />
		<tag k="name" v="Seter" />
		<tag k="place" v="farm" />
		<tag k="ssr:stedsnr" v="11219" />
	</node>
	<node lat="62.80933333763559" lon="6.8875888976151" id="-2414">
		<tag k="name" v="Hagen" />
		<tag k="place" v="farm" />
		<tag k="ssr:stedsnr" v="11799" />
	</node>
	<node lat="62.83053333777893" lon="6.808913897535167" id="-2416">
		<tag k="alt_name" v="Otterhalsen" />
		<tag k="name" v="Oterhalsen" />
		<tag k="place" v="farm" />
		<tag k="ssr:stedsnr" v="11766" />
	</node>
	<node lat="62.83464999624049" lon="6.875422219567189" id="-2417">
		<tag k="name" v="Neset" />
		<tag k="place" v="farm" />
		<tag k="ssr:stedsnr" v="12217" />
	</node>
	<node lat="62.78310000257988" lon="6.6565888862302245" id="-2420">
		<tag k="name" v="Øvretun" />
		<tag k="place" v="farm" />
		<tag k="ssr:stedsnr" v="32037" />
	</node>
	<node lat="62.78399999890934" lon="6.658524993809137" id="-2421">
		<tag k="name" v="Haugly" />
		<tag k="place" v="isolated_dwelling" />
		<tag k="ssr:stedsnr" v="32043" />
	</node>
	<node lat="62.77407777544309" lon="6.985794439672589" id="-2425">
		<tag k="name" v="Nedre Hollingen" />
		<tag k="place" v="farm" />
		<tag k="ssr:stedsnr" v="35028" />
	</node>
	<node lat="62.83581944857761" lon="6.886847224176092" id="-2438">
		<tag k="name" v="Sørigarden" />
		<tag k="place" v="farm" />
		<tag k="ssr:stedsnr" v="36847" />
	</node>
	<node lat="62.84466667040543" lon="6.891105545817794" id="-2439">
		<tag k="name" v="Juvika" />
		<tag k="place" v="hamlet" />
		<tag k="ssr:stedsnr" v="36856" />
	</node>
	<node lat="62.76250555390017" lon="6.999747219380733" id="-2444">
		<tag k="name" v="Nordgard" />
		<tag k="place" v="farm" />
		<tag k="ssr:stedsnr" v="51132" />
	</node>
	<node lat="62.79876944088144" lon="6.900327781516999" id="-2446">
		<tag k="name" v="Blomsneset" />
		<tag k="place" v="farm" />
		<tag k="ssr:stedsnr" v="72771" />
	</node>
	<node lat="62.84671111466973" lon="6.93418055474112" id="-2449">
		<tag k="name" v="Solvoll" />
		<tag k="place" v="farm" />
		<tag k="ssr:stedsnr" v="72225" />
	</node>
	<node lat="62.780349995979115" lon="6.97683889008312" id="-2455">
		<tag k="name" v="Hjellvika" />
		<tag k="place" v="farm" />
		<tag k="ssr:stedsnr" v="72839" />
	</node>
	<node lat="62.77805833155897" lon="6.976544438313628" id="-2459">
		<tag k="fixme" v="consider place=hamlet" />
		<tag k="name" v="Hollingsholmen" />
		<tag k="place" v="farm" />
		<tag k="ssr:stedsnr" v="86040" />
	</node>
	<node lat="62.774736111051254" lon="6.912213894761151" id="-2481">
		<tag k="name" v="Tangen" />
		<tag k="place" v="farm" />
		<tag k="ssr:stedsnr" v="111125" />
	</node>
	<node lat="62.7830077503344" lon="6.65779754936912" id="-2482">
		<tag k="fixme" v="consider place=hamlet" />
		<tag k="name" v="Orta" />
		<tag k="place" v="farm" />
		<tag k="ssr:stedsnr" v="133395" />
	</node>
	<node lat="62.81742777993142" lon="6.915702782004908" id="-2487">
		<tag k="name" v="Nerbøvika" />
		<tag k="place" v="farm" />
		<tag k="ssr:stedsnr" v="132765" />
	</node>
	<node lat="62.82165000349506" lon="6.923119452867351" id="-2488">
		<tag k="name" v="Furulia" />
		<tag k="place" v="farm" />
		<tag k="ssr:stedsnr" v="132766" />
	</node>
	<node lat="62.81830829977849" lon="6.88781059152384" id="-2489">
		<tag k="fixme" v="consider place=hamlet" />
		<tag k="name" v="Riksfjord" />
		<tag k="place" v="farm" />
		<tag k="ssr:stedsnr" v="132767" />
	</node>
	<node lat="62.784680553948796" lon="6.6521138930390915" id="-2492">
		<tag k="name" v="Garsvik" />
		<tag k="place" v="farm" />
		<tag k="ssr:stedsnr" v="153046" />
	</node>
	<node lat="62.77672187264252" lon="6.990894496525546" id="-2495">
		<tag k="name" v="Øvre Hollingen" />
		<tag k="place" v="farm" />
		<tag k="ssr:stedsnr" v="157016" />
	</node>
	<node lat="62.82849166553365" lon="6.881402773733397" id="-2526">
		<tag k="name" v="Sporsem" />
		<tag k="place" v="farm" />
		<tag k="ssr:stedsnr" v="193737" />
	</node>
	<node lat="62.83225278074621" lon="6.888025005586398" id="-2527">
		<tag k="name" v="Inderhaugen" />
		<tag k="place" v="farm" />
		<tag k="ssr:stedsnr" v="193742" />
	</node>
	<node lat="62.81663524572449" lon="6.826417593259718" id="-2529">
		<tag k="fixme" v="consider place=hamlet" />
		<tag k="name" v="Solem" />
		<tag k="place" v="farm" />
		<tag k="ssr:stedsnr" v="193758" />
	</node>
	<node lat="62.82189721971907" lon="6.864544452452655" id="-2530">
		<tag k="name" v="Gåsvang" />
		<tag k="place" v="farm" />
		<tag k="ssr:stedsnr" v="193764" />
	</node>
	<node lat="62.81181388866294" lon="6.820177772420987" id="-2531">
		<tag k="name" v="Smågehaugen" />
		<tag k="place" v="farm" />
		<tag k="ssr:stedsnr" v="193779" />
	</node>
	<node lat="62.806586107144796" lon="6.851241668280602" id="-2532">
		<tag k="name" v="Tahaugen" />
		<tag k="place" v="farm" />
		<tag k="ssr:stedsnr" v="193785" />
	</node>
	<node lat="62.77690555425009" lon="6.894008339484769" id="-2533">
		<tag k="name" v="Trollvika" />
		<tag k="place" v="farm" />
		<tag k="ssr:stedsnr" v="193857" />
	</node>
	<node lat="62.80943055805474" lon="6.890466666784233" id="-2534">
		<tag k="name" v="Nordsletta" />
		<tag k="place" v="farm" />
		<tag k="ssr:stedsnr" v="193791" />
	</node>
	<node lat="62.803397223306334" lon="6.879736110146499" id="-2536">
		<tag k="name" v="Bergtun" />
		<tag k="place" v="farm" />
		<tag k="ssr:stedsnr" v="193812" />
	</node>
	<node lat="62.78285833552424" lon="6.883133332238109" id="-2539">
		<tag k="name" v="Smedbakken" />
		<tag k="place" v="farm" />
		<tag k="ssr:stedsnr" v="194825" />
	</node>
	<node lat="62.76813725180333" lon="6.994617159304506" id="-2540">
		<tag k="fixme" v="consider place=hamlet" />
		<tag k="name" v="Hola" />
		<tag k="place" v="farm" />
		<tag k="ssr:stedsnr" v="194858" />
	</node>
	<node lat="62.8175666630277" lon="6.939897232249873" id="-2542">
		<tag k="name" v="Hjermannstad" />
		<tag k="place" v="locality" />
		<tag k="ssr:stedsnr" v="217399" />
	</node>
	<node lat="62.77122777721545" lon="6.986391659502072" id="-2546">
		<tag k="name" v="Bukta" />
		<tag k="place" v="farm" />
		<tag k="ssr:stedsnr" v="218021" />
	</node>
	<node lat="62.7915111078916" lon="6.86069167193973" id="-2558">
		<tag k="name" v="Hjertvikberget" />
		<tag k="place" v="quarter" />
		<tag k="ssr:stedsnr" v="218686" />
	</node>
	<node lat="62.83291111103363" lon="6.889905549950467" id="-2560">
		<tag k="name" v="Rabben" />
		<tag k="place" v="farm" />
		<tag k="ssr:stedsnr" v="218854" />
	</node>
	<node lat="62.78350833641693" lon="6.653891665700245" id="-2566">
		<tag k="name" v="Hagen" />
		<tag k="place" v="isolated_dwelling" />
		<tag k="ssr:stedsnr" v="275046" />
	</node>
	<node lat="62.84749722267076" lon="6.901175006012115" id="-2569">
		<tag k="name" v="Nedigarden" />
		<tag k="place" v="farm" />
		<tag k="ssr:stedsnr" v="278042" />
	</node>
	<node lat="62.8362293549869" lon="6.892375497988593" id="-2602">
		<tag k="fixme" v="consider place=hamlet" />
		<tag k="name" v="Sporsem" />
=======
	<node id="-77638" lat="62.8166352457" lon="6.82641759326">
		<tag k="fixme" v="consider place=hamlet" />
		<tag k="name" v="Solem" />
		<tag k="place" v="farm" />
		<tag k="ssr:stedsnr" v="193758" />
	</node>
	<node id="-77125" lat="62.7810722239" lon="6.64410832581">
		<tag k="name" v="Nybø" />
		<tag k="place" v="farm" />
		<tag k="ssr:stedsnr" v="456849" />
	</node>
	<node id="-77636" lat="62.8322527807" lon="6.88802500559">
		<tag k="name" v="Inderhaugen" />
		<tag k="place" v="farm" />
		<tag k="ssr:stedsnr" v="193742" />
	</node>
	<node id="-77635" lat="62.8284916655" lon="6.88140277373">
		<tag k="name" v="Sporsem" />
		<tag k="place" v="farm" />
		<tag k="ssr:stedsnr" v="193737" />
	</node>
	<node id="-77634" lat="62.7769055543" lon="6.89400833948">
		<tag k="name" v="Trollvika" />
		<tag k="place" v="farm" />
		<tag k="ssr:stedsnr" v="193857" />
	</node>
	<node id="-77121" lat="62.8040361129" lon="6.89000832777">
		<tag k="name" v="Falkhytta" />
		<tag k="place" v="farm" />
		<tag k="ssr:stedsnr" v="254773" />
	</node>
	<node id="-77118" lat="62.7987833294" lon="6.89425000475">
		<tag k="name" v="Solberg" />
		<tag k="place" v="isolated_dwelling" />
		<tag k="ssr:stedsnr" v="232053" />
	</node>
	<node id="-77117" lat="62.776836113" lon="6.90069721849">
		<tag k="name" v="Reset" />
		<tag k="place" v="farm" />
		<tag k="ssr:stedsnr" v="232121" />
	</node>
	<node id="-77112" lat="62.7712277772" lon="6.9863916595">
		<tag k="name" v="Bukta" />
		<tag k="place" v="farm" />
		<tag k="ssr:stedsnr" v="218021" />
	</node>
	<node id="-77623" lat="62.8076944442" lon="6.90220832631">
		<tag k="name" v="Varhaug" />
		<tag k="place" v="farm" />
		<tag k="ssr:stedsnr" v="171062" />
	</node>
	<node id="-77613" lat="62.8188249971" lon="6.90447778533">
		<tag k="name" v="Aukra Industrier" />
		<tag k="place" v="quarter" />
		<tag k="ssr:stedsnr" v="157628" />
	</node>
	<node id="-77100" lat="62.7828583355" lon="6.88313333224">
		<tag k="name" v="Smedbakken" />
		<tag k="place" v="farm" />
		<tag k="ssr:stedsnr" v="194825" />
	</node>
	<node id="-77098" lat="62.8033972233" lon="6.87973611015">
		<tag k="name" v="Bergtun" />
		<tag k="place" v="farm" />
		<tag k="ssr:stedsnr" v="193812" />
	</node>
	<node id="-77959" lat="62.7579990022" lon="6.99945337653">
		<tag k="fixme" v="consider place=hamlet" />
		<tag k="name" v="Eiskrem" />
		<tag k="place" v="farm" />
		<tag k="ssr:stedsnr" v="862870" />
	</node>
	<node id="-77599" lat="62.7767218726" lon="6.99089449653">
		<tag k="name" v="Øvre Hollingen" />
		<tag k="place" v="farm" />
		<tag k="ssr:stedsnr" v="157016" />
	</node>
	<node id="-77085" lat="62.831463892" lon="6.87653889364">
		<tag k="name" v="Maurset" />
		<tag k="place" v="farm" />
		<tag k="ssr:stedsnr" v="279804" />
	</node>
	<node id="-77596" lat="62.7846805539" lon="6.65211389304">
		<tag k="name" v="Garsvik" />
		<tag k="place" v="farm" />
		<tag k="ssr:stedsnr" v="153046" />
	</node>
	<node id="-77593" lat="62.7830077503" lon="6.65779754937">
		<tag k="fixme" v="consider place=hamlet" />
		<tag k="name" v="Orta" />
		<tag k="place" v="farm" />
		<tag k="ssr:stedsnr" v="133395" />
	</node>
	<node id="-77592" lat="62.8183082998" lon="6.88781059152">
		<tag k="fixme" v="consider place=hamlet" />
		<tag k="name" v="Riksfjord" />
		<tag k="place" v="farm" />
		<tag k="ssr:stedsnr" v="132767" />
	</node>
	<node id="-77591" lat="62.8216500035" lon="6.92311945287">
		<tag k="name" v="Furulia" />
		<tag k="place" v="farm" />
		<tag k="ssr:stedsnr" v="132766" />
	</node>
	<node id="-77590" lat="62.8174277799" lon="6.915702782">
		<tag k="name" v="Nerbøvika" />
		<tag k="place" v="farm" />
		<tag k="ssr:stedsnr" v="132765" />
	</node>
	<node id="-77586" lat="62.8398033214" lon="6.84608795719">
		<tag k="name" v="Løvika" />
		<tag k="place" v="hamlet" />
		<tag k="ssr:stedsnr" v="132206" />
	</node>
	<node id="-77954" lat="62.7944388847" lon="6.84752778579">
		<tag k="name" v="Småsundet" />
		<tag k="place" v="isolated_dwelling" />
		<tag k="ssr:stedsnr" v="861829" />
	</node>
	<node id="-77055" lat="62.8474972227" lon="6.90117500601">
		<tag k="name" v="Nedigarden" />
		<tag k="place" v="farm" />
		<tag k="ssr:stedsnr" v="278042" />
	</node>
	<node id="-77052" lat="62.7835083364" lon="6.6538916657">
		<tag k="name" v="Hagen" />
		<tag k="place" v="isolated_dwelling" />
		<tag k="ssr:stedsnr" v="275046" />
	</node>
	<node id="-77561" lat="62.7780583316" lon="6.97654443831">
		<tag k="fixme" v="consider place=hamlet" />
		<tag k="name" v="Hollingsholmen" />
		<tag k="place" v="farm" />
		<tag k="ssr:stedsnr" v="86040" />
	</node>
	<node id="-77048" lat="62.7816777776" lon="6.88523610163">
		<tag k="name" v="Kleiva" />
		<tag k="place" v="farm" />
		<tag k="ssr:stedsnr" v="133824" />
	</node>
	<node id="-77558" lat="62.7987694409" lon="6.90032778152">
		<tag k="name" v="Blomsneset" />
		<tag k="place" v="farm" />
		<tag k="ssr:stedsnr" v="72771" />
	</node>
	<node id="-77044" lat="62.7747361111" lon="6.91221389476">
		<tag k="name" v="Tangen" />
		<tag k="place" v="farm" />
		<tag k="ssr:stedsnr" v="111125" />
	</node>
	<node id="-77552" lat="62.8467111147" lon="6.93418055474">
		<tag k="name" v="Solvoll" />
		<tag k="place" v="farm" />
		<tag k="ssr:stedsnr" v="72225" />
	</node>
	<node id="-77551" lat="62.8428972192" lon="6.90087500378">
		<tag k="name" v="Kisthaugen" />
		<tag k="place" v="farm" />
		<tag k="ssr:stedsnr" v="72224" />
	</node>
	<node id="-77550" lat="62.7625055539" lon="6.99974721938">
		<tag k="name" v="Nordgard" />
		<tag k="place" v="farm" />
		<tag k="ssr:stedsnr" v="51132" />
	</node>
	<node id="-77539" lat="62.817566663" lon="6.93989723225">
		<tag k="name" v="Hjermannstad" />
		<tag k="place" v="locality" />
		<tag k="ssr:stedsnr" v="217399" />
	</node>
	<node id="-77026" lat="62.826391666" lon="6.95501389064">
		<tag k="name" v="Nygjerdet" />
		<tag k="place" v="farm" />
		<tag k="ssr:stedsnr" v="96103" />
	</node>
	<node id="-77537" lat="62.7659194473" lon="6.99606944791">
		<tag k="fixme" v="multiple name tags, choose one and add the other to alt_name" />
		<tag k="name" v="Medvoll;Vollan" />
		<tag k="place" v="farm" />
		<tag k="ssr:stedsnr" v="42592" />
	</node>
	<node id="-77536" lat="62.8358194486" lon="6.88684722418">
		<tag k="name" v="Sørigarden" />
		<tag k="place" v="farm" />
		<tag k="ssr:stedsnr" v="36847" />
	</node>
	<node id="-77018" lat="62.8385694424" lon="6.89731389412">
		<tag k="name" v="Reithaugen" />
		<tag k="place" v="farm" />
		<tag k="ssr:stedsnr" v="254196" />
	</node>
	<node id="-77016" lat="62.7801833292" lon="6.64486388335">
		<tag k="name" v="Gjerdet" />
		<tag k="place" v="farm" />
		<tag k="ssr:stedsnr" v="254414" />
	</node>
	<node id="-77014" lat="62.780349996" lon="6.97683889008">
		<tag k="name" v="Hjellvika" />
		<tag k="place" v="farm" />
		<tag k="ssr:stedsnr" v="72839" />
	</node>
	<node id="-77012" lat="62.7840000038" lon="6.87975833918">
		<tag k="name" v="Korsvika" />
		<tag k="place" v="farm" />
		<tag k="ssr:stedsnr" v="72818" />
	</node>
	<node id="-77009" lat="62.8454333317" lon="6.80798055957">
		<tag k="name" v="Rishaug" />
		<tag k="place" v="farm" />
		<tag k="ssr:stedsnr" v="72221" />
	</node>
	<node id="-77007" lat="62.839261108" lon="6.8979166663">
		<tag k="name" v="Myran" />
		<tag k="place" v="farm" />
		<tag k="ssr:stedsnr" v="36870" />
	</node>
	<node id="-77004" lat="62.8446666704" lon="6.89110554582">
		<tag k="name" v="Juvika" />
		<tag k="place" v="hamlet" />
		<tag k="ssr:stedsnr" v="36856" />
	</node>
	<node id="-77513" lat="62.7740777754" lon="6.98579443967">
		<tag k="name" v="Nedre Hollingen" />
		<tag k="place" v="farm" />
		<tag k="ssr:stedsnr" v="35028" />
	</node>
	<node id="-77511" lat="62.7839999989" lon="6.65852499381">
		<tag k="name" v="Haugly" />
		<tag k="place" v="isolated_dwelling" />
		<tag k="ssr:stedsnr" v="32043" />
	</node>
	<node id="-77510" lat="62.7831000026" lon="6.65658888623">
		<tag k="name" v="Øvretun" />
		<tag k="place" v="farm" />
		<tag k="ssr:stedsnr" v="32037" />
	</node>
	<node id="-76993" lat="62.8346499962" lon="6.87542221957">
		<tag k="name" v="Neset" />
		<tag k="place" v="farm" />
		<tag k="ssr:stedsnr" v="12217" />
	</node>
	<node id="-76992" lat="62.8353472179" lon="6.79575000631">
		<tag k="name" v="Utheim" />
		<tag k="place" v="farm" />
		<tag k="ssr:stedsnr" v="12208" />
	</node>
	<node id="-76991" lat="62.8054333348" lon="6.8704250078">
		<tag k="name" v="Nyvoll" />
		<tag k="place" v="farm" />
		<tag k="ssr:stedsnr" v="11823" />
	</node>
	<node id="-76990" lat="62.806919448" lon="6.89729721604">
		<tag k="name" v="Varhaugvika" />
		<tag k="place" v="farm" />
		<tag k="ssr:stedsnr" v="11805" />
	</node>
	<node id="-77501" lat="62.8093333376" lon="6.88758889762">
		<tag k="name" v="Hagen" />
		<tag k="place" v="farm" />
		<tag k="ssr:stedsnr" v="11799" />
	</node>
	<node id="-77499" lat="62.8199384913" lon="6.8988640643">
		<tag k="fixme" v="consider place=hamlet" />
		<tag k="name" v="Nerbøen" />
		<tag k="place" v="farm" />
		<tag k="ssr:stedsnr" v="11775" />
	</node>
	<node id="-77498" lat="62.8206594015" lon="6.84662648773">
		<tag k="name" v="Reitebø" />
		<tag k="place" v="farm" />
		<tag k="ssr:stedsnr" v="11772" />
	</node>
	<node id="-77497" lat="62.8305333378" lon="6.80891389754">
		<tag k="alt_name" v="Otterhalsen" />
		<tag k="name" v="Oterhalsen" />
		<tag k="place" v="farm" />
		<tag k="ssr:stedsnr" v="11766" />
	</node>
	<node id="-76984" lat="62.832911111" lon="6.88990554995">
		<tag k="name" v="Rabben" />
		<tag k="place" v="farm" />
		<tag k="ssr:stedsnr" v="218854" />
	</node>
	<node id="-76983" lat="62.7915111079" lon="6.86069167194">
		<tag k="name" v="Hjertvikberget" />
		<tag k="place" v="quarter" />
		<tag k="ssr:stedsnr" v="218686" />
	</node>
	<node id="-77490" lat="62.7898270265" lon="6.91623942739">
		<tag k="fixme" v="consider place=hamlet" />
		<tag k="name" v="Aukra" />
		<tag k="place" v="farm" />
		<tag k="ssr:stedsnr" v="981245" />
	</node>
	<node id="-77485" lat="62.8491277757" lon="6.91288889535">
		<tag k="name" v="Heilohaugan" />
>>>>>>> e1d4bc35ff8a6074a6f2e91616a996b547c36f15
		<tag k="place" v="farm" />
		<tag k="ssr:stedsnr" v="922209" />
	</node>
<<<<<<< HEAD
	<node lat="62.80885675384135" lon="6.808442055697163" id="-2609">
		<tag k="fixme" v="consider place=hamlet" />
		<tag k="name" v="Småge" />
		<tag k="place" v="farm" />
		<tag k="ssr:stedsnr" v="315782" />
	</node>
	<node lat="62.78141110901273" lon="6.655455558027819" id="-2615">
		<tag k="name" v="Solbakken" />
		<tag k="place" v="isolated_dwelling" />
		<tag k="ssr:stedsnr" v="335676" />
	</node>
	<node lat="62.84843333269897" lon="6.91205278546826" id="-2649">
		<tag k="name" v="Myrstad" />
		<tag k="place" v="farm" />
		<tag k="ssr:stedsnr" v="375189" />
	</node>
	<node lat="62.83634444150691" lon="6.923377779714817" id="-2652">
		<tag k="name" v="Midtbø" />
		<tag k="place" v="farm" />
		<tag k="ssr:stedsnr" v="375155" />
	</node>
	<node lat="62.83973055381126" lon="6.786383335687964" id="-2653">
		<tag k="name" v="Bytingsvika" />
		<tag k="place" v="farm" />
		<tag k="ssr:stedsnr" v="375175" />
	</node>
	<node lat="62.810780554193975" lon="6.884111103438108" id="-2654">
		<tag k="name" v="Dalen" />
		<tag k="place" v="farm" />
		<tag k="ssr:stedsnr" v="375774" />
	</node>
	<node lat="62.803974996291736" lon="6.863816660369112" id="-2663">
		<tag k="name" v="Midtheim" />
=======
	<node id="-77484" lat="62.8372083296" lon="6.84978334242">
		<tag k="name" v="Løvikhaugen" />
		<tag k="place" v="farm" />
		<tag k="ssr:stedsnr" v="922187" />
	</node>
	<node id="-77472" lat="62.8374111097" lon="6.88912777467">
		<tag k="name" v="Ekkerhaugen" />
		<tag k="place" v="farm" />
		<tag k="ssr:stedsnr" v="885818" />
	</node>
	<node id="-77459" lat="62.7834694413" lon="6.87665555734">
		<tag k="name" v="Solvik" />
		<tag k="place" v="farm" />
		<tag k="ssr:stedsnr" v="946900" />
	</node>
	<node id="-77960" lat="62.8153888972" lon="6.92612586589">
		<tag k="name" v="Nerbøstranda" />
		<tag k="place" v="farm" />
		<tag k="ssr:stedsnr" v="870476" />
	</node>
	<node id="-77447" lat="62.8046416694" lon="6.86008887891">
		<tag k="name" v="Myrvang" />
		<tag k="place" v="farm" />
		<tag k="ssr:stedsnr" v="946301" />
	</node>
	<node id="-77442" lat="62.8088722253" lon="6.80371666699">
		<tag k="name" v="Korsbøen" />
>>>>>>> e1d4bc35ff8a6074a6f2e91616a996b547c36f15
		<tag k="place" v="farm" />
		<tag k="ssr:stedsnr" v="399371" />
	</node>
<<<<<<< HEAD
	<node lat="62.778163885966016" lon="7.005466666835585" id="-2683">
		<tag k="name" v="Lauvåsen" />
		<tag k="place" v="farm" />
		<tag k="ssr:stedsnr" v="436837" />
	</node>
	<node lat="62.77334685778719" lon="6.997630880455814" id="-2684">
		<tag k="fixme" v="consider place=hamlet" />
		<tag k="name" v="Matberget" />
		<tag k="place" v="farm" />
		<tag k="ssr:stedsnr" v="436840" />
	</node>
	<node lat="62.82402499562241" lon="6.955024999086147" id="-2687">
		<tag k="name" v="Hogsneset" />
		<tag k="place" v="farm" />
		<tag k="ssr:stedsnr" v="496778" />
	</node>
	<node lat="62.78422777663411" lon="6.655513883317762" id="-2693">
		<tag k="name" v="Nordbø" />
		<tag k="place" v="farm" />
		<tag k="ssr:stedsnr" v="497421" />
	</node>
	<node lat="62.8060277777667" lon="6.803858328462702" id="-2705">
		<tag k="name" v="Smågesjøen" />
		<tag k="place" v="farm" />
		<tag k="ssr:stedsnr" v="521045" />
	</node>
	<node lat="62.833780558588565" lon="6.874169446299615" id="-2714">
		<tag k="name" v="Skarshaugen" />
		<tag k="place" v="hamlet" />
		<tag k="ssr:stedsnr" v="521791" />
	</node>
	<node lat="62.78138055680682" lon="6.8900166570847645" id="-2717">
		<tag k="name" v="Breivikkleiva" />
		<tag k="place" v="farm" />
		<tag k="ssr:stedsnr" v="521899" />
	</node>
	<node lat="62.782405551935504" lon="6.874313894149206" id="-2727">
		<tag k="name" v="Hjertviksteinen" />
		<tag k="place" v="farm" />
		<tag k="ssr:stedsnr" v="557829" />
	</node>
	<node lat="62.80466944146124" lon="6.8554333353289065" id="-2728">
		<tag k="name" v="Nylund" />
		<tag k="place" v="farm" />
		<tag k="ssr:stedsnr" v="557789" />
	</node>
	<node lat="62.78191667022431" lon="6.654566671821536" id="-2732">
		<tag k="name" v="Bakken" />
		<tag k="place" v="farm" />
		<tag k="ssr:stedsnr" v="578064" />
	</node>
	<node lat="62.836602775846885" lon="6.892383340356103" id="-2741">
		<tag k="name" v="Nordigarden" />
		<tag k="place" v="farm" />
		<tag k="ssr:stedsnr" v="581855" />
	</node>
	<node lat="62.77891111403972" lon="6.89339444682445" id="-2749">
		<tag k="name" v="Nybø" />
		<tag k="place" v="farm" />
		<tag k="ssr:stedsnr" v="596129" />
	</node>
	<node lat="62.78767920597629" lon="6.870456188926363" id="-2756">
		<tag k="fixme" v="consider place=hamlet" />
		<tag k="name" v="Hjertvika" />
		<tag k="place" v="farm" />
		<tag k="ssr:stedsnr" v="618796" />
	</node>
	<node lat="62.829788887113736" lon="6.955180555063979" id="-2758">
		<tag k="name" v="Kråkneset" />
		<tag k="place" v="farm" />
		<tag k="ssr:stedsnr" v="618732" />
	</node>
	<node lat="62.83173888634713" lon="6.907011104974236" id="-2759">
		<tag k="name" v="Solbø" />
		<tag k="place" v="farm" />
		<tag k="ssr:stedsnr" v="618735" />
	</node>
	<node lat="62.8199634043287" lon="6.84657128350051" id="-2760">
		<tag k="name" v="Ulsgard" />
		<tag k="place" v="farm" />
		<tag k="ssr:stedsnr" v="618745" />
	</node>
	<node lat="62.77593501383836" lon="6.993098317191799" id="-2761">
		<tag k="fixme" v="consider place=hamlet" />
		<tag k="name" v="Hollingen" />
		<tag k="place" v="farm" />
		<tag k="ssr:stedsnr" v="618838" />
	</node>
	<node lat="62.848174995580344" lon="6.903058325441132" id="-2776">
		<tag k="name" v="Oppigarden" />
		<tag k="place" v="farm" />
		<tag k="ssr:stedsnr" v="642054" />
	</node>
	<node lat="62.78515833724548" lon="6.994094437044117" id="-2794">
		<tag k="name" v="Hollingen" />
		<tag k="place" v="farm" />
		<tag k="ssr:stedsnr" v="657128" />
	</node>
	<node lat="62.831331877253206" lon="6.913179331539679" id="-2803">
		<tag k="name" v="Bjørkeset" />
		<tag k="place" v="farm" />
		<tag k="ssr:stedsnr" v="739769" />
	</node>
	<node lat="62.8025333351845" lon="6.877227777485742" id="-2804">
		<tag k="name" v="Bergheim" />
		<tag k="place" v="farm" />
		<tag k="ssr:stedsnr" v="739817" />
	</node>
	<node lat="62.804611109798714" lon="6.874036102407103" id="-2805">
		<tag k="name" v="Elstad" />
		<tag k="place" v="farm" />
		<tag k="ssr:stedsnr" v="739819" />
	</node>
	<node lat="62.834911843953904" lon="6.913219114231014" id="-2807">
		<tag k="name" v="Dalset" />
		<tag k="place" v="farm" />
		<tag k="ssr:stedsnr" v="740201" />
	</node>
	<node lat="62.76920114198222" lon="6.989505919276047" id="-2808">
		<tag k="fixme" v="consider place=hamlet" />
		<tag k="name" v="Fangholen" />
		<tag k="place" v="farm" />
		<tag k="ssr:stedsnr" v="740854" />
	</node>
	<node lat="62.81549166363246" lon="6.885811102390431" id="-2837">
		<tag k="name" v="Bakkemyra" />
		<tag k="place" v="farm" />
		<tag k="ssr:stedsnr" v="800751" />
	</node>
	<node lat="62.81179721949582" lon="6.903561101827733" id="-2838">
		<tag k="name" v="Nautneset" />
		<tag k="place" v="farm" />
		<tag k="ssr:stedsnr" v="800771" />
	</node>
	<node lat="62.780116663789514" lon="6.889466673871042" id="-2840">
		<tag k="name" v="Breivika" />
		<tag k="place" v="farm" />
		<tag k="ssr:stedsnr" v="800820" />
	</node>
	<node lat="62.80568055522423" lon="6.860452785665599" id="-2856">
		<tag k="name" v="Elvestad" />
		<tag k="place" v="farm" />
		<tag k="ssr:stedsnr" v="825299" />
	</node>
	<node lat="62.83894444088964" lon="6.891769447113986" id="-2867">
		<tag k="name" v="Nyheim" />
		<tag k="place" v="farm" />
		<tag k="ssr:stedsnr" v="861198" />
	</node>
	<node lat="62.8388999959146" lon="6.882205557633205" id="-2868">
		<tag k="name" v="Vassdalen" />
		<tag k="place" v="farm" />
		<tag k="ssr:stedsnr" v="861199" />
	</node>
	<node lat="62.81737777472233" lon="6.804222231307855" id="-2870">
		<tag k="fixme" v="consider place=hamlet" />
		<tag k="name" v="Røssøyvågen" />
		<tag k="place" v="village" />
		<tag k="ssr:stedsnr" v="861763" />
	</node>
	<node lat="62.81792777428092" lon="6.8147388806120315" id="-2871">
		<tag k="name" v="Solemsjøen" />
		<tag k="place" v="farm" />
		<tag k="ssr:stedsnr" v="861764" />
	</node>
	<node lat="62.83042661207524" lon="6.901666768034906" id="-2875">
		<tag k="name" v="Bø" />
		<tag k="place" v="farm" />
		<tag k="ssr:stedsnr" v="861744" />
	</node>
	<node lat="62.81538889715737" lon="6.92612586589028" id="-2878">
		<tag k="name" v="Nerbøstranda" />
		<tag k="place" v="farm" />
		<tag k="ssr:stedsnr" v="870476" />
	</node>
	<node lat="62.76858889041051" lon="7.000091659860643" id="-2894">
		<tag k="historic" v="shieling" />
		<tag k="name" v="Gammelsetra" />
		<tag k="place" v="isolated_dwelling" />
		<tag k="ssr:stedsnr" v="885233" />
	</node>
	<node lat="62.84752222221254" lon="6.841097231347457" id="-2895">
		<tag k="name" v="Rishaug" />
		<tag k="place" v="farm" />
		<tag k="ssr:stedsnr" v="885236" />
	</node>
	<node lat="62.785800002625464" lon="6.877072221333272" id="-2907">
=======
	<node id="-77951" lat="62.8179277743" lon="6.81473888061">
		<tag k="name" v="Solemsjøen" />
		<tag k="place" v="farm" />
		<tag k="ssr:stedsnr" v="861764" />
	</node>
	<node id="-77950" lat="62.8173777747" lon="6.80422223131">
		<tag k="fixme" v="consider place=hamlet" />
		<tag k="name" v="Røssøyvågen" />
		<tag k="place" v="village" />
		<tag k="ssr:stedsnr" v="861763" />
	</node>
	<node id="-77949" lat="62.8304277778" lon="6.9016666653">
		<tag k="name" v="Bø" />
		<tag k="place" v="farm" />
		<tag k="ssr:stedsnr" v="861744" />
	</node>
	<node id="-77948" lat="62.8388999959" lon="6.88220555763">
		<tag k="name" v="Vassdalen" />
		<tag k="place" v="farm" />
		<tag k="ssr:stedsnr" v="861199" />
	</node>
	<node id="-77947" lat="62.8389444409" lon="6.89176944711">
		<tag k="name" v="Nyheim" />
		<tag k="place" v="farm" />
		<tag k="ssr:stedsnr" v="861198" />
	</node>
	<node id="-77433" lat="62.7592749969" lon="7.00024721909">
		<tag k="name" v="Eiskrem" />
		<tag k="place" v="farm" />
		<tag k="ssr:stedsnr" v="945164" />
	</node>
	<node id="-77428" lat="62.7997138888" lon="6.89343888622">
		<tag k="amenity" v="nursing_home" />
		<tag k="name" v="Aukraheimen" />
		<tag k="ssr:stedsnr" v="861807" />
	</node>
	<node id="-77425" lat="62.841674997" lon="6.93359167127">
		<tag k="name" v="Skarset" />
		<tag k="place" v="farm" />
		<tag k="ssr:stedsnr" v="861170" />
	</node>
	<node id="-77936" lat="62.8056805552" lon="6.86045278567">
		<tag k="name" v="Elvestad" />
		<tag k="place" v="farm" />
		<tag k="ssr:stedsnr" v="825299" />
	</node>
	<node id="-77420" lat="62.8241499991" lon="6.88435832571">
		<tag k="name" v="Hestholen" />
		<tag k="place" v="farm" />
		<tag k="ssr:stedsnr" v="946791" />
	</node>
	<node id="-77415" lat="62.8062833333" lon="6.85358611107">
		<tag k="name" v="Flatset" />
		<tag k="place" v="farm" />
		<tag k="ssr:stedsnr" v="825214" />
	</node>
	<node id="-77926" lat="62.8154916636" lon="6.88581110239">
		<tag k="name" v="Bakkemyra" />
		<tag k="place" v="farm" />
		<tag k="ssr:stedsnr" v="800751" />
	</node>
	<node id="-77413" lat="62.8201944448" lon="6.90827777349">
		<tag k="name" v="Eindalen" />
		<tag k="place" v="farm" />
		<tag k="ssr:stedsnr" v="824708" />
	</node>
	<node id="-77924" lat="62.8253555552" lon="6.88314166109">
		<tag k="name" v="Hatthaugremma" />
		<tag k="place" v="farm" />
		<tag k="ssr:stedsnr" v="800732" />
	</node>
	<node id="-77923" lat="62.8243166629" lon="6.86128611028">
		<tag k="name" v="Haugland" />
		<tag k="place" v="farm" />
		<tag k="ssr:stedsnr" v="800728" />
	</node>
	<node id="-76986" lat="62.8471394231" lon="6.90131810633">
		<tag k="fixme" v="consider place=hamlet" />
		<tag k="name" v="Seter" />
		<tag k="place" v="farm" />
		<tag k="ssr:stedsnr" v="11219" />
	</node>
	<node id="-77398" lat="62.7981333329" lon="6.84900555545">
		<tag k="name" v="Horremsbakken" />
		<tag k="place" v="farm" />
		<tag k="ssr:stedsnr" v="800783" />
	</node>
	<node id="-77397" lat="62.8038527736" lon="6.87018610948">
		<tag k="name" v="Myrbø" />
		<tag k="place" v="farm" />
		<tag k="ssr:stedsnr" v="800782" />
	</node>
	<node id="-77395" lat="62.8117972195" lon="6.90356110183">
		<tag k="name" v="Nautneset" />
		<tag k="place" v="farm" />
		<tag k="ssr:stedsnr" v="800771" />
	</node>
	<node id="-77392" lat="62.7801166638" lon="6.88946667387">
		<tag k="name" v="Breivika" />
		<tag k="place" v="farm" />
		<tag k="ssr:stedsnr" v="800820" />
	</node>
	<node id="-77391" lat="62.7860694423" lon="6.88356944116">
		<tag k="name" v="Gjerdet" />
		<tag k="place" v="farm" />
		<tag k="ssr:stedsnr" v="922826" />
	</node>
	<node id="-77388" lat="62.7935472207" lon="6.90201666824">
		<tag k="name" v="Hukkelberget" />
		<tag k="place" v="farm" />
		<tag k="ssr:stedsnr" v="922804" />
	</node>
	<node id="-77384" lat="62.8055361126" lon="6.86035277385">
		<tag k="name" v="Elvebakken" />
		<tag k="place" v="farm" />
		<tag k="ssr:stedsnr" v="922753" />
	</node>
	<node id="-77895" lat="62.8175666691" lon="6.93991666295">
		<tag k="name" v="Blom" />
		<tag k="place" v="isolated_dwelling" />
		<tag k="ssr:stedsnr" v="763006" />
	</node>
	<node id="-77835" lat="62.8297888871" lon="6.95518055506">
		<tag k="name" v="Kråkneset" />
		<tag k="place" v="farm" />
		<tag k="ssr:stedsnr" v="618732" />
	</node>
	<node id="-77237" lat="62.8213628695" lon="6.82464532048">
		<tag k="fixme" v="consider place=hamlet" />
		<tag k="name" v="Rød" />
		<tag k="place" v="farm" />
		<tag k="ssr:stedsnr" v="679743" />
	</node>
	<node id="-77881" lat="62.8452499986" lon="6.9595555588">
		<tag k="name" v="Futvika" />
		<tag k="place" v="isolated_dwelling" />
		<tag k="ssr:stedsnr" v="739225" />
	</node>
	<node id="-77880" lat="62.8510361075" lon="6.91082777494">
		<tag k="name" v="Setervika" />
		<tag k="place" v="farm" />
		<tag k="ssr:stedsnr" v="739216" />
	</node>
	<node id="-77365" lat="62.769201142" lon="6.98950591928">
		<tag k="fixme" v="consider place=hamlet" />
		<tag k="name" v="Fangholen" />
		<tag k="place" v="farm" />
		<tag k="ssr:stedsnr" v="740854" />
	</node>
	<node id="-77364" lat="62.7909944428" lon="6.91804443552">
		<tag k="name" v="Aukrasanden" />
		<tag k="place" v="village" />
		<tag k="ssr:stedsnr" v="740808" />
	</node>
	<node id="-77363" lat="62.8046111098" lon="6.87403610241">
		<tag k="name" v="Elstad" />
		<tag k="place" v="farm" />
		<tag k="ssr:stedsnr" v="739819" />
	</node>
	<node id="-77362" lat="62.8025333352" lon="6.87722777749">
		<tag k="name" v="Bergheim" />
		<tag k="place" v="farm" />
		<tag k="ssr:stedsnr" v="739817" />
	</node>
	<node id="-77361" lat="62.831166666" lon="6.91321943898">
		<tag k="name" v="Bjørkeset" />
		<tag k="place" v="farm" />
		<tag k="ssr:stedsnr" v="739769" />
	</node>
	<node id="-77860" lat="62.8036388924" lon="6.84359443523">
		<tag k="name" v="Horremhaugen" />
		<tag k="place" v="farm" />
		<tag k="ssr:stedsnr" v="642314" />
	</node>
	<node id="-77345" lat="62.7940444463" lon="6.91751667599">
		<tag k="name" v="Kalvtrøa" />
		<tag k="place" v="quarter" />
		<tag k="ssr:stedsnr" v="885899" />
	</node>
	<node id="-77343" lat="62.7858000026" lon="6.87707222133">
>>>>>>> e1d4bc35ff8a6074a6f2e91616a996b547c36f15
		<tag k="alt_name" v="Remma" />
		<tag k="name" v="Hjertvikremma" />
		<tag k="place" v="farm" />
		<tag k="ssr:stedsnr" v="885582" />
	</node>
<<<<<<< HEAD
	<node lat="62.83741110970125" lon="6.889127774673756" id="-2909">
		<tag k="name" v="Ekkerhaugen" />
		<tag k="place" v="farm" />
		<tag k="ssr:stedsnr" v="885818" />
	</node>
	<node lat="62.79404444628131" lon="6.9175166759876285" id="-2910">
		<tag k="name" v="Kalvtrøa" />
		<tag k="place" v="quarter" />
		<tag k="ssr:stedsnr" v="885899" />
	</node>
	<node lat="62.75927499686087" lon="7.000247219085856" id="-2913">
		<tag k="name" v="Eiskrem" />
		<tag k="place" v="farm" />
		<tag k="ssr:stedsnr" v="945164" />
	</node>
	<node lat="62.80464166944139" lon="6.860088878908827" id="-2919">
		<tag k="name" v="Myrvang" />
		<tag k="place" v="farm" />
		<tag k="ssr:stedsnr" v="946301" />
	</node>
	<node lat="62.78346944127146" lon="6.876655557341559" id="-2928">
		<tag k="name" v="Solvik" />
		<tag k="place" v="farm" />
		<tag k="ssr:stedsnr" v="946900" />
	</node>
	<node lat="62.789827026543705" lon="6.916239427391316" id="-2935">
		<tag k="fixme" v="consider place=hamlet" />
		<tag k="name" v="Aukra" />
		<tag k="place" v="farm" />
		<tag k="ssr:stedsnr" v="981245" />
=======
	<node id="-77854" lat="62.8481749956" lon="6.90305832544">
		<tag k="name" v="Oppigarden" />
		<tag k="place" v="farm" />
		<tag k="ssr:stedsnr" v="642054" />
	</node>
	<node id="-77337" lat="62.8475222222" lon="6.84109723135">
		<tag k="name" v="Rishaug" />
		<tag k="place" v="farm" />
		<tag k="ssr:stedsnr" v="885236" />
	</node>
	<node id="-77336" lat="62.7685888904" lon="7.00009165986">
		<tag k="historic" v="shieling" />
		<tag k="name" v="Gammelsetra" />
		<tag k="place" v="locality" />
		<tag k="ssr:stedsnr" v="885233" />
	</node>
	<node id="-77838" lat="62.7759350138" lon="6.99309831719">
		<tag k="fixme" v="consider place=hamlet" />
		<tag k="name" v="Hollingen" />
		<tag k="place" v="farm" />
		<tag k="ssr:stedsnr" v="618838" />
	</node>
	<node id="-77837" lat="62.8199634043" lon="6.8465712835">
		<tag k="name" v="Ulsgard" />
		<tag k="place" v="farm" />
		<tag k="ssr:stedsnr" v="618745" />
	</node>
	<node id="-77324" lat="62.7721037333" lon="6.9844651948">
		<tag k="fixme" v="consider place=hamlet" />
		<tag k="name" v="Hollingsetra" />
		<tag k="place" v="farm" />
		<tag k="ssr:stedsnr" v="679861" />
	</node>
	<node id="-77323" lat="62.7666305577" lon="7.02291943717">
		<tag k="name" v="Fangholsetra" />
		<tag k="place" v="isolated_dwelling" />
		<tag k="ssr:stedsnr" v="679855" />
	</node>
	<node id="-77834" lat="62.8275138927" lon="6.8553805493">
		<tag k="name" v="Solvang" />
		<tag k="place" v="farm" />
		<tag k="ssr:stedsnr" v="618729" />
	</node>
	<node id="-77831" lat="62.835708334" lon="6.79984721813">
		<tag k="name" v="Vik" />
		<tag k="place" v="farm" />
		<tag k="ssr:stedsnr" v="618177" />
	</node>
	<node id="-77318" lat="62.8342006542" lon="6.94669865276">
		<tag k="fixme" v="consider place=hamlet" />
		<tag k="name" v="Eikrem" />
		<tag k="place" v="farm" />
		<tag k="ssr:stedsnr" v="679173" />
	</node>
	<node id="-77828" lat="62.778911114" lon="6.89339444682">
		<tag k="name" v="Nybø" />
		<tag k="place" v="farm" />
		<tag k="ssr:stedsnr" v="596129" />
>>>>>>> e1d4bc35ff8a6074a6f2e91616a996b547c36f15
	</node>
</osm>
