<?xml version="1.0" encoding="UTF-8"?>
<<<<<<< HEAD
<osm version="0.6" generator="osmapis">
	<node lat="62.770788888928735" lon="6.993094447570329" id="-1957">
		<tag k="bridge" v="yes" />
		<tag k="layer" v="1" />
		<tag k="name" v="Fangholbrua" />
		<tag k="ssr:stedsnr" v="29217" />
	</node>
	<node lat="62.8065333335598" lon="6.766797214793198" id="-1986">
=======
<osm generator="osmapis" version="0.6">
	<node id="-77568" lat="62.845366666" lon="6.88790000815">
		<tag k="man_made" v="quay" />
		<tag k="name" v="Flatholmhamna" />
		<tag k="place" v="locality" />
		<tag k="ssr:stedsnr" v="96046" />
	</node>
	<node id="-77887" lat="62.7976000037" lon="6.85162777651">
		<tag k="bridge" v="yes" />
		<tag k="layer" v="1" />
		<tag k="name" v="Bakkebrua" />
		<tag k="ssr:stedsnr" v="757212" />
	</node>
	<node id="-77886" lat="62.8177499982" lon="6.8065888832">
		<tag k="bridge" v="yes" />
		<tag k="layer" v="1" />
		<tag k="name" v="Røssøyvågbrua" />
		<tag k="ssr:stedsnr" v="757157" />
	</node>
	<node id="-77565" lat="62.8065333336" lon="6.76679721479">
>>>>>>> e1d4bc35ff8a6074a6f2e91616a996b547c36f15
		<tag k="amenity" v="ferry_terminal" />
		<tag k="name" v="Småge ferjekai" />
		<tag k="ssr:stedsnr" v="95110" />
	</node>
<<<<<<< HEAD
	<node lat="62.841147219998334" lon="6.779744447195072" id="-2098">
=======
	<node id="-77404" lat="62.775555553" lon="6.99160000478">
>>>>>>> e1d4bc35ff8a6074a6f2e91616a996b547c36f15
		<tag k="bridge" v="yes" />
		<tag k="layer" v="1" />
		<tag k="name" v="Karlsholmbrua" />
		<tag k="ssr:stedsnr" v="333251" />
	</node>
	<node lat="62.786422223473046" lon="6.653813884534401" id="-2101">
		<tag k="amenity" v="ferry_terminal" />
		<tag k="name" v="Orta ferjekai" />
		<tag k="ssr:stedsnr" v="338104" />
	</node>
	<node lat="62.83505555547942" lon="6.830752772351568" id="-2135">
		<tag k="aeroway" v="aerodrome" />
		<tag k="name" v="Flyplass" />
		<tag k="ssr:stedsnr" v="405236" />
	</node>
	<node lat="62.78252500390612" lon="6.917008339954605" id="-2225">
		<tag k="amenity" v="ferry_terminal" />
		<tag k="name" v="Aukra ferjekai" />
		<tag k="ssr:stedsnr" v="702165" />
	</node>
<<<<<<< HEAD
	<node lat="62.817749998165056" lon="6.806588883197322" id="-2299">
=======
	<node id="-77307" lat="62.8450249989" lon="6.93249443895">
>>>>>>> e1d4bc35ff8a6074a6f2e91616a996b547c36f15
		<tag k="bridge" v="yes" />
		<tag k="layer" v="1" />
		<tag k="name" v="Røssøyvågbrua" />
		<tag k="ssr:stedsnr" v="757157" />
	</node>
<<<<<<< HEAD
	<node lat="62.797600003726565" lon="6.851627776513683" id="-2300">
=======
	<node id="-77562" lat="62.816913887" lon="6.80358610939">
>>>>>>> e1d4bc35ff8a6074a6f2e91616a996b547c36f15
		<tag k="bridge" v="yes" />
		<tag k="layer" v="1" />
		<tag k="name" v="Bakkebrua" />
		<tag k="ssr:stedsnr" v="757212" />
	</node>
<<<<<<< HEAD
	<node lat="62.77555555304021" lon="6.991600004781324" id="-2325">
		<tag k="bridge" v="yes" />
		<tag k="layer" v="1" />
		<tag k="name" v="Hollingsbrua" />
		<tag k="ssr:stedsnr" v="818226" />
	</node>
	<node lat="62.77678055965578" lon="6.972933332382609" id="-2329">
=======
	<node id="-77654" lat="62.84114722" lon="6.7797444472">
		<tag k="bridge" v="yes" />
		<tag k="layer" v="1" />
		<tag k="name" v="Karlsholmbrua" />
		<tag k="ssr:stedsnr" v="333251" />
	</node>
	<node id="-77405" lat="62.7767805597" lon="6.97293333238">
>>>>>>> e1d4bc35ff8a6074a6f2e91616a996b547c36f15
		<tag k="amenity" v="ferry_terminal" />
		<tag k="name" v="Hollingsholmen ferjekai" />
		<tag k="ssr:stedsnr" v="823311" />
	</node>
<<<<<<< HEAD
	<node lat="62.84502499891938" lon="6.932494438948658" id="-2358">
		<tag k="bridge" v="yes" />
		<tag k="layer" v="1" />
		<tag k="name" v="Seterelvbrua" />
		<tag k="ssr:stedsnr" v="879151" />
	</node>
	<node lat="62.81691388703125" lon="6.803586109388328" id="-2460">
=======
	<node id="-77737" lat="62.8350555555" lon="6.83075277235">
		<tag k="aeroway" v="aerodrome" />
		<tag k="name" v="Flyplass" />
		<tag k="ssr:stedsnr" v="405236" />
	</node>
	<node id="-77190" lat="62.7864222235" lon="6.65381388453">
		<tag k="amenity" v="ferry_terminal" />
		<tag k="name" v="Orta ferjekai" />
		<tag k="ssr:stedsnr" v="338104" />
	</node>
	<node id="-77349" lat="62.7825250039" lon="6.91700833995">
		<tag k="amenity" v="ferry_terminal" />
		<tag k="name" v="Aukra ferjekai" />
		<tag k="ssr:stedsnr" v="702165" />
	</node>
	<node id="-76995" lat="62.7707888889" lon="6.99309444757">
>>>>>>> e1d4bc35ff8a6074a6f2e91616a996b547c36f15
		<tag k="bridge" v="yes" />
		<tag k="layer" v="1" />
		<tag k="name" v="Nørdre Røssøyvågbrua" />
		<tag k="ssr:stedsnr" v="90183" />
	</node>
	<node lat="62.8453666660207" lon="6.8879000081542765" id="-2468">
		<tag k="man_made" v="quay" />
		<tag k="name" v="Flatholmhamna" />
		<tag k="place" v="locality" />
		<tag k="ssr:stedsnr" v="96046" />
	</node>
</osm>
