<?xml version="1.0" encoding="UTF-8"?>
<osm generator="osmapis" version="0.6">
	<node changeset="62708821" id="5914490889" lat="60.5018528" lon="5.0901139" timestamp="2018-09-18T19:50:03Z" uid="1965308" user="FredrikLindseth" version="1">
		<tag k="name" v="Kjerrgarden" />
		<tag k="place" v="village" />
		<tag k="ssr:stedsnr" v="856698" />
	</node>
	<node changeset="62708821" id="5914490890" lat="60.5384417" lon="5.017175" timestamp="2018-09-18T19:50:03Z" uid="1965308" user="FredrikLindseth" version="1">
		<tag k="name" v="Abbedisso" />
		<tag k="place" v="hamlet" />
		<tag k="ssr:stedsnr" v="856711" />
	</node>
	<node changeset="62708821" id="5914490891" lat="60.5677639" lon="4.9538361" timestamp="2018-09-18T19:50:03Z" uid="1965308" user="FredrikLindseth" version="1">
		<tag k="fixme" v="consider place=hamlet" />
		<tag k="name" v="Herdla" />
		<tag k="place" v="village" />
		<tag k="ssr:stedsnr" v="545395" />
	</node>
	<node changeset="62708821" id="5914490892" lat="60.4324389" lon="5.1865306" timestamp="2018-09-18T19:50:04Z" uid="1965308" user="FredrikLindseth" version="1">
		<tag k="name" v="Fjellheim" />
		<tag k="place" v="hamlet" />
		<tag k="ssr:stedsnr" v="46179" />
	</node>
	<node changeset="62708821" id="5914490893" lat="60.485925" lon="5.2100389" timestamp="2018-09-18T19:50:04Z" uid="1965308" user="FredrikLindseth" version="1">
		<tag k="alt_name" v="Kirkevik" />
		<tag k="name" v="Kyrkjevik" />
		<tag k="place" v="hamlet" />
		<tag k="ssr:stedsnr" v="551365" />
	</node>
	<node changeset="62708821" id="5914490894" lat="60.4238611" lon="5.1842361" timestamp="2018-09-18T19:50:04Z" uid="1965308" user="FredrikLindseth" version="1">
		<tag k="name" v="Kråkås" />
		<tag k="place" v="hamlet" />
		<tag k="ssr:stedsnr" v="330476" />
	</node>
	<node changeset="62708821" id="5914490895" lat="60.4539333" lon="5.2262805" timestamp="2018-09-18T19:50:04Z" uid="1965308" user="FredrikLindseth" version="1">
		<tag k="name" v="Olavika" />
		<tag k="place" v="locality" />
		<tag k="ssr:stedsnr" v="551539" />
	</node>
	<node changeset="62708821" id="5914490896" lat="60.4126111" lon="5.2132972" timestamp="2018-09-18T19:50:04Z" uid="1965308" user="FredrikLindseth" version="1">
		<tag k="name" v="Solli" />
		<tag k="place" v="hamlet" />
		<tag k="ssr:stedsnr" v="874961" />
	</node>
	<node changeset="62708821" id="5914490897" lat="60.4071111" lon="5.1566917" timestamp="2018-09-18T19:50:04Z" uid="1965308" user="FredrikLindseth" version="1">
		<tag k="fixme" v="consider place=farm" />
		<tag k="name" v="Træet" />
		<tag k="place" v="hamlet" />
		<tag k="ssr:stedsnr" v="551569" />
	</node>
	<node changeset="62708821" id="5914490898" lat="60.4277389" lon="5.1700917" timestamp="2018-09-18T19:50:04Z" uid="1965308" user="FredrikLindseth" version="1">
		<tag k="name" v="Brattestigen" />
		<tag k="place" v="locality" />
		<tag k="ssr:stedsnr" v="551586" />
	</node>
	<node changeset="62708821" id="5914490899" lat="60.4198083" lon="5.1456833" timestamp="2018-09-18T19:50:05Z" uid="1965308" user="FredrikLindseth" version="1">
		<tag k="name" v="Eide" />
		<tag k="place" v="hamlet" />
		<tag k="ssr:stedsnr" v="551604" />
	</node>
	<node changeset="62708821" id="5914490900" lat="60.4250111" lon="5.2195944" timestamp="2018-09-18T19:50:05Z" uid="1965308" user="FredrikLindseth" version="1">
		<tag k="name" v="Skogadal" />
		<tag k="place" v="locality" />
		<tag k="ssr:stedsnr" v="551618" />
	</node>
	<node changeset="62708821" id="5914490901" lat="60.493725" lon="5.191875" timestamp="2018-09-18T19:50:05Z" uid="1965308" user="FredrikLindseth" version="1">
		<tag k="alt_name" v="Breidvik" />
		<tag k="name" v="Breivik" />
		<tag k="place" v="locality" />
		<tag k="ssr:stedsnr" v="66376" />
	</node>
	<node changeset="62708821" id="5914490902" lat="60.475325" lon="5.2001" timestamp="2018-09-18T19:50:05Z" uid="1965308" user="FredrikLindseth" version="1">
		<tag k="fixme" v="consider place=farm" />
		<tag k="name" v="Sørli" />
		<tag k="place" v="hamlet" />
		<tag k="ssr:stedsnr" v="66400" />
	</node>
	<node changeset="62708821" id="5914490903" lat="60.4730111" lon="5.2221083" timestamp="2018-09-18T19:50:05Z" uid="1965308" user="FredrikLindseth" version="1">
		<tag k="name" v="Bergstad" />
		<tag k="place" v="locality" />
		<tag k="ssr:stedsnr" v="66404" />
	</node>
	<node changeset="62708821" id="5914490904" lat="60.4963083" lon="5.1374306" timestamp="2018-09-18T19:50:05Z" uid="1965308" user="FredrikLindseth" version="1">
		<tag k="name" v="Stien" />
		<tag k="place" v="hamlet" />
		<tag k="ssr:stedsnr" v="66443" />
	</node>
	<node changeset="62708821" id="5914490905" lat="60.4418667" lon="5.14045" timestamp="2018-09-18T19:50:05Z" uid="1965308" user="FredrikLindseth" version="1">
		<tag k="fixme" v="consider place=farm" />
		<tag k="name" v="Holsund" />
		<tag k="place" v="locality" />
		<tag k="ssr:stedsnr" v="66539" />
	</node>
	<node changeset="62708821" id="5914490906" lat="60.4115972" lon="5.2025833" timestamp="2018-09-18T19:50:05Z" uid="1965308" user="FredrikLindseth" version="1">
		<tag k="name" v="Dyrdal" />
		<tag k="place" v="hamlet" />
		<tag k="ssr:stedsnr" v="66547" />
	</node>
	<node changeset="62708821" id="5914490907" lat="60.4644111" lon="5.220925" timestamp="2018-09-18T19:50:05Z" uid="1965308" user="FredrikLindseth" version="1">
		<tag k="name" v="Haugane" />
		<tag k="place" v="hamlet" />
		<tag k="ssr:stedsnr" v="915396" />
	</node>
	<node changeset="62708821" id="5914490908" lat="60.4623139" lon="5.1977611" timestamp="2018-09-18T19:50:05Z" uid="1965308" user="FredrikLindseth" version="1">
		<tag k="name" v="Vangen" />
		<tag k="place" v="locality" />
		<tag k="ssr:stedsnr" v="915397" />
	</node>
	<node changeset="62708821" id="5914490909" lat="60.5264861" lon="5.0029917" timestamp="2018-09-18T19:50:05Z" uid="1965308" user="FredrikLindseth" version="1">
		<tag k="fixme" v="consider place=farm" />
		<tag k="name" v="Bekken" />
		<tag k="place" v="locality" />
		<tag k="ssr:stedsnr" v="67689" />
	</node>
	<node changeset="62708821" id="5914490910" lat="60.50875" lon="5.0855278" timestamp="2018-09-18T19:50:06Z" uid="1965308" user="FredrikLindseth" version="1">
		<tag k="alt_name" v="Træet" />
		<tag k="fixme" v="consider place=suburb, village or hamlet" />
		<tag k="name" v="Trædet" />
		<tag k="place" v="neighbourhood" />
		<tag k="ssr:stedsnr" v="67699" />
	</node>
	<node changeset="62708821" id="5914490911" lat="60.4847778" lon="5.216425" timestamp="2018-09-18T19:50:06Z" uid="1965308" user="FredrikLindseth" version="1">
		<tag k="name" v="Oldervik" />
		<tag k="place" v="hamlet" />
		<tag k="ssr:stedsnr" v="916406" />
	</node>
	<node changeset="62708821" id="5914490912" lat="60.4386722" lon="5.1722333" timestamp="2018-09-18T19:50:06Z" uid="1965308" user="FredrikLindseth" version="1">
		<tag k="name" v="Øvrebø" />
		<tag k="place" v="locality" />
		<tag k="ssr:stedsnr" v="227893" />
	</node>
	<node changeset="62708821" id="5914490913" lat="60.4184889" lon="5.1766833" timestamp="2018-09-18T19:50:06Z" uid="1965308" user="FredrikLindseth" version="1">
		<tag k="name" v="Minde" />
		<tag k="place" v="hamlet" />
		<tag k="ssr:stedsnr" v="227898" />
	</node>
	<node changeset="62708821" id="5914490914" lat="60.4637667" lon="5.1155278" timestamp="2018-09-18T19:50:06Z" uid="1965308" user="FredrikLindseth" version="1">
		<tag k="amenity" v="school" />
		<tag k="name" v="Skulebøen" />
		<tag k="ssr:stedsnr" v="713718" />
	</node>
	<node changeset="62708821" id="3968712739" lat="60.4543065" lon="5.121666" timestamp="2018-09-18T19:50:15Z" uid="1965308" user="FredrikLindseth" version="2">
		<tag k="alt_name" v="Kollavågen" />
		<tag k="fixme" v="consider place=hamlet" />
		<tag k="name" v="Kollevåg" />
		<tag k="old_name" v="Kolavågen" />
		<tag k="place" v="hamlet" />
		<tag k="ssr:stedsnr" v="712301" />
	</node>
	<node changeset="62708821" id="5914490916" lat="60.4461778" lon="5.1204667" timestamp="2018-09-18T19:50:06Z" uid="1965308" user="FredrikLindseth" version="1">
		<tag k="alt_name" v="Nordre Eid" />
		<tag k="fixme" v="consider place=farm" />
		<tag k="name" v="Eide" />
		<tag k="place" v="locality" />
		<tag k="ssr:stedsnr" v="369497" />
	</node>
	<node changeset="62708821" id="5914490917" lat="60.4367" lon="5.1809667" timestamp="2018-09-18T19:50:06Z" uid="1965308" user="FredrikLindseth" version="1">
		<tag k="name" v="Lavik" />
		<tag k="place" v="hamlet" />
		<tag k="ssr:stedsnr" v="309551" />
	</node>
	<node changeset="62708821" id="5914490918" lat="60.4487056" lon="5.0915806" timestamp="2018-09-18T19:50:06Z" uid="1965308" user="FredrikLindseth" version="1">
		<tag k="name" v="Nyheim" />
		<tag k="place" v="hamlet" />
		<tag k="ssr:stedsnr" v="105351" />
	</node>
	<node changeset="62708821" id="38380071" lat="60.3924159" lon="5.1758022" timestamp="2018-09-18T19:50:14Z" uid="1965308" user="FredrikLindseth" version="4">
		<tag k="name" v="Marikoven" />
		<tag k="place" v="neighbourhood" />
		<tag k="ssr:stedsnr" v="491664" />
	</node>
	<node changeset="62708821" id="5914490920" lat="60.4848528" lon="5.2083028" timestamp="2018-09-18T19:50:06Z" uid="1965308" user="FredrikLindseth" version="1">
		<tag k="name" v="Minde" />
		<tag k="place" v="hamlet" />
		<tag k="ssr:stedsnr" v="106510" />
	</node>
	<node changeset="62708821" id="5914490921" lat="60.5017056" lon="5.15935" timestamp="2018-09-18T19:50:06Z" uid="1965308" user="FredrikLindseth" version="1">
		<tag k="name" v="Sæterstølen" />
		<tag k="place" v="hamlet" />
		<tag k="ssr:stedsnr" v="248489" />
	</node>
	<node changeset="62708821" id="5914490922" lat="60.5322861" lon="4.9974806" timestamp="2018-09-18T19:50:06Z" uid="1965308" user="FredrikLindseth" version="1">
		<tag k="alt_name" v="Nedre Skråmestø" />
		<tag k="name" v="Nedra Skråmestø" />
		<tag k="place" v="locality" />
		<tag k="ssr:stedsnr" v="874519" />
	</node>
	<node changeset="62708821" id="5914490923" lat="60.4498778" lon="5.0830694" timestamp="2018-09-18T19:50:06Z" uid="1965308" user="FredrikLindseth" version="1">
		<tag k="name" v="Boti" />
		<tag k="place" v="locality" />
		<tag k="ssr:stedsnr" v="389870" />
	</node>
	<node changeset="62708821" id="5914490924" lat="60.5086611" lon="5.077625" timestamp="2018-09-18T19:50:06Z" uid="1965308" user="FredrikLindseth" version="1">
		<tag k="name" v="Eidet" />
		<tag k="place" v="hamlet" />
		<tag k="ssr:stedsnr" v="106544" />
	</node>
	<node changeset="62708821" id="5914490925" lat="60.4430583" lon="5.2150417" timestamp="2018-09-18T19:50:06Z" uid="1965308" user="FredrikLindseth" version="1">
		<tag k="name" v="Åsen" />
		<tag k="place" v="hamlet" />
		<tag k="ssr:stedsnr" v="733461" />
	</node>
	<node changeset="62708821" id="5914490926" lat="60.4465167" lon="5.1530528" timestamp="2018-09-18T19:50:06Z" uid="1965308" user="FredrikLindseth" version="1">
		<tag k="name" v="Grønavik" />
		<tag k="place" v="hamlet" />
		<tag k="ssr:stedsnr" v="248569" />
	</node>
	<node changeset="62708821" id="5914490927" lat="60.4154444" lon="5.2414528" timestamp="2018-09-18T19:50:06Z" uid="1965308" user="FredrikLindseth" version="1">
		<tag k="name" v="Ekrene" />
		<tag k="place" v="hamlet" />
		<tag k="ssr:stedsnr" v="955383" />
	</node>
	<node changeset="62708821" id="5914490928" lat="60.47735" lon="5.1738194" timestamp="2018-09-18T19:50:07Z" uid="1965308" user="FredrikLindseth" version="1">
		<tag k="name" v="Eidet" />
		<tag k="place" v="locality" />
		<tag k="ssr:stedsnr" v="106748" />
	</node>
	<node changeset="62708821" id="5914490929" lat="60.4542583" lon="5.22105" timestamp="2018-09-18T19:50:07Z" uid="1965308" user="FredrikLindseth" version="1">
		<tag k="name" v="Lia" />
		<tag k="place" v="hamlet" />
		<tag k="ssr:stedsnr" v="733513" />
	</node>
	<node changeset="62708821" id="5914490930" lat="60.4126222" lon="5.1530833" timestamp="2018-09-18T19:50:07Z" uid="1965308" user="FredrikLindseth" version="1">
		<tag k="name" v="Åsen" />
		<tag k="place" v="hamlet" />
		<tag k="ssr:stedsnr" v="955890" />
	</node>
	<node changeset="62708821" id="5914490931" lat="60.4076889" lon="5.1699056" timestamp="2018-09-18T19:50:07Z" uid="1965308" user="FredrikLindseth" version="1">
		<tag k="fixme" v="consider place=farm" />
		<tag k="name" v="Stølen" />
		<tag k="place" v="hamlet" />
		<tag k="ssr:stedsnr" v="733547" />
	</node>
	<node changeset="62708821" id="5914490932" lat="60.4270833" lon="5.1504861" timestamp="2018-09-18T19:50:07Z" uid="1965308" user="FredrikLindseth" version="1">
		<tag k="name" v="Stegane" />
		<tag k="place" v="hamlet" />
		<tag k="ssr:stedsnr" v="955892" />
	</node>
	<node changeset="62708821" id="5914490933" lat="60.4180361" lon="5.2221139" timestamp="2018-09-18T19:50:07Z" uid="1965308" user="FredrikLindseth" version="1">
		<tag k="name" v="Myrane" />
		<tag k="place" v="hamlet" />
		<tag k="ssr:stedsnr" v="248640" />
	</node>
	<node changeset="62708821" id="5914490934" lat="60.4188028" lon="5.2345444" timestamp="2018-09-18T19:50:07Z" uid="1965308" user="FredrikLindseth" version="1">
		<tag k="name" v="Hagen" />
		<tag k="place" v="hamlet" />
		<tag k="ssr:stedsnr" v="470631" />
	</node>
	<node changeset="62708821" id="5914490935" lat="60.417975" lon="5.2176556" timestamp="2018-09-18T19:50:07Z" uid="1965308" user="FredrikLindseth" version="1">
		<tag k="name" v="Heimdal" />
		<tag k="place" v="hamlet" />
		<tag k="ssr:stedsnr" v="388698" />
	</node>
	<node changeset="79149038" id="30057528" lat="60.409041" lon="5.2262101" timestamp="2020-01-03T09:49:57Z" uid="3497659" user="NKA" version="6">
		<tag k="name" v="Kleppestø" />
		<tag k="place" v="village" />
		<tag k="population" v="22088" />
		<tag k="population:date" v="2019-01-01" />
		<tag k="ref:ssb_tettsted" v="5201" />
		<tag k="ssr:stedsnr" v="612604" />
	</node>
	<node changeset="62708821" id="5914490937" lat="60.4235778" lon="5.193175" timestamp="2018-09-18T19:50:07Z" uid="1965308" user="FredrikLindseth" version="1">
		<tag k="name" v="Vestgarden" />
		<tag k="place" v="farm" />
		<tag k="ssr:stedsnr" v="956692" />
	</node>
	<node changeset="62708821" id="5914490938" lat="60.4604222" lon="5.2313305" timestamp="2018-09-18T19:50:07Z" uid="1965308" user="FredrikLindseth" version="1">
		<tag k="name" v="Nygård" />
		<tag k="place" v="hamlet" />
		<tag k="ssr:stedsnr" v="409889" />
	</node>
	<node changeset="62708821" id="5914490939" lat="60.5095278" lon="5.1307694" timestamp="2018-09-18T19:50:07Z" uid="1965308" user="FredrikLindseth" version="1">
		<tag k="name" v="Sletteviki" />
		<tag k="place" v="locality" />
		<tag k="ssr:stedsnr" v="127549" />
	</node>
	<node changeset="62708821" id="5914490940" lat="60.5104417" lon="5.0363694" timestamp="2018-09-18T19:50:07Z" uid="1965308" user="FredrikLindseth" version="1">
		<tag k="name" v="Fauskanger" />
		<tag k="place" v="village" />
		<tag k="ssr:stedsnr" v="128635" />
	</node>
	<node changeset="62708821" id="5914490941" lat="60.426375" lon="5.1704167" timestamp="2018-09-18T19:50:07Z" uid="1965308" user="FredrikLindseth" version="1">
		<tag k="name" v="Kråkåshaugen" />
		<tag k="place" v="locality" />
		<tag k="ssr:stedsnr" v="734636" />
	</node>
	<node changeset="62708821" id="5914490942" lat="60.5038639" lon="5.1430056" timestamp="2018-09-18T19:50:07Z" uid="1965308" user="FredrikLindseth" version="1">
		<tag k="alt_name" v="Skjelviki" />
		<tag k="name" v="Skjelvika" />
		<tag k="place" v="hamlet" />
		<tag k="ssr:stedsnr" v="612528" />
	</node>
	<node changeset="62708821" id="5914490943" lat="60.4463167" lon="5.2263056" timestamp="2018-09-18T19:50:07Z" uid="1965308" user="FredrikLindseth" version="1">
		<tag k="alt_name" v="Nordre Erdal" />
		<tag k="name" v="Norderdal" />
		<tag k="place" v="hamlet" />
		<tag k="ssr:stedsnr" v="612532" />
	</node>
	<node changeset="79149038" id="5914490944" lat="60.5019222" lon="5.0771111" timestamp="2020-01-03T09:49:57Z" uid="3497659" user="NKA" version="2">
		<tag k="alt_name" v="Frommereid" />
		<tag k="name" v="Fromreide" />
		<tag k="place" v="village" />
		<tag k="population" v="830" />
		<tag k="population:date" v="2019-01-01" />
		<tag k="ref:ssb_tettsted" v="5205" />
		<tag k="ssr:stedsnr" v="734703" />
	</node>
	<node changeset="62708821" id="5914490945" lat="60.5168333" lon="5.0196861" timestamp="2018-09-18T19:50:07Z" uid="1965308" user="FredrikLindseth" version="1">
		<tag k="fixme" v="consider place=hamlet" />
		<tag k="name" v="Litle Fauskanger" />
		<tag k="old_name" v="Litla Fauskanger;Lille Fauskanger" />
		<tag k="place" v="locality" />
		<tag k="ssr:stedsnr" v="146460" />
	</node>
	<node changeset="62708821" id="5914490946" lat="60.4352333" lon="5.17485" timestamp="2018-09-18T19:50:08Z" uid="1965308" user="FredrikLindseth" version="1">
		<tag k="name" v="Kråkås" />
		<tag k="place" v="hamlet" />
		<tag k="ssr:stedsnr" v="390380" />
	</node>
	<node changeset="62708821" id="5914490947" lat="60.5249278" lon="5.0549361" timestamp="2018-09-18T19:50:08Z" uid="1965308" user="FredrikLindseth" version="1">
		<tag k="fixme" v="consider place=hamlet" />
		<tag k="name" v="Berland" />
		<tag k="place" v="village" />
		<tag k="ssr:stedsnr" v="613657" />
	</node>
	<node changeset="62708821" id="5914490948" lat="60.5389333" lon="5.0132472" timestamp="2018-09-18T19:50:08Z" uid="1965308" user="FredrikLindseth" version="1">
		<tag k="alt_name" v="Nordra Abedissa" />
		<tag k="name" v="Nordre Abbedissen" />
		<tag k="place" v="locality" />
		<tag k="ssr:stedsnr" v="753462" />
	</node>
	<node changeset="62708821" id="5914490949" lat="60.4094083" lon="5.2288833" timestamp="2018-09-18T19:50:08Z" uid="1965308" user="FredrikLindseth" version="1">
		<tag k="name" v="Løfjellet" />
		<tag k="place" v="hamlet" />
		<tag k="ssr:stedsnr" v="287932" />
	</node>
	<node changeset="62708821" id="5914490950" lat="60.4454472" lon="5.1230861" timestamp="2018-09-18T19:50:08Z" uid="1965308" user="FredrikLindseth" version="1">
		<tag k="fixme" v="consider place=farm" />
		<tag k="name" v="Søre Eid" />
		<tag k="place" v="locality" />
		<tag k="ssr:stedsnr" v="268889" />
	</node>
	<node changeset="62708821" id="5914490951" lat="60.4192917" lon="5.1994778" timestamp="2018-09-18T19:50:08Z" uid="1965308" user="FredrikLindseth" version="1">
		<tag k="name" v="Haugen" />
		<tag k="place" v="hamlet" />
		<tag k="ssr:stedsnr" v="288227" />
	</node>
	<node changeset="62708821" id="5914490952" lat="60.5172389" lon="5.0276055" timestamp="2018-09-18T19:50:08Z" uid="1965308" user="FredrikLindseth" version="1">
		<tag k="name" v="Litlestølen" />
		<tag k="old_name" v="Lillestølen" />
		<tag k="place" v="locality" />
		<tag k="ssr:stedsnr" v="421021" />
	</node>
	<node changeset="62708821" id="5914490953" lat="60.4217528" lon="5.1831111" timestamp="2018-09-18T19:50:08Z" uid="1965308" user="FredrikLindseth" version="1">
		<tag k="name" v="Indrebø" />
		<tag k="place" v="hamlet" />
		<tag k="ssr:stedsnr" v="288231" />
	</node>
	<node changeset="62708821" id="5914490954" lat="60.4112417" lon="5.1504722" timestamp="2018-09-18T19:50:08Z" uid="1965308" user="FredrikLindseth" version="1">
		<tag k="name" v="Ekrena" />
		<tag k="place" v="hamlet" />
		<tag k="ssr:stedsnr" v="288912" />
	</node>
	<node changeset="62708821" id="5914490955" lat="60.4305917" lon="5.1855972" timestamp="2018-09-18T19:50:08Z" uid="1965308" user="FredrikLindseth" version="1">
		<tag k="name" v="Kråkås" />
		<tag k="place" v="hamlet" />
		<tag k="ssr:stedsnr" v="754446" />
	</node>
	<node changeset="62708821" id="5914490956" lat="60.4711111" lon="5.202775" timestamp="2018-09-18T19:50:08Z" uid="1965308" user="FredrikLindseth" version="1">
		<tag k="name" v="Sætre" />
		<tag k="place" v="hamlet" />
		<tag k="ssr:stedsnr" v="430416" />
	</node>
	<node changeset="62708821" id="5914490957" lat="60.406525" lon="5.2205111" timestamp="2018-09-18T19:50:08Z" uid="1965308" user="FredrikLindseth" version="1">
		<tag k="alt_name" v="Holmedalen" />
		<tag k="fixme" v="consider place=farm" />
		<tag k="name" v="Holmedal" />
		<tag k="place" v="hamlet" />
		<tag k="ssr:stedsnr" v="632708" />
	</node>
	<node changeset="62708821" id="5914490958" lat="60.4178361" lon="5.2246028" timestamp="2018-09-18T19:50:08Z" uid="1965308" user="FredrikLindseth" version="1">
		<tag k="name" v="Bergheim" />
		<tag k="place" v="hamlet" />
		<tag k="ssr:stedsnr" v="166369" />
	</node>
	<node changeset="62708821" id="5914490959" lat="60.4123611" lon="5.1617222" timestamp="2018-09-18T19:50:08Z" uid="1965308" user="FredrikLindseth" version="1">
		<tag k="fixme" v="consider place=farm" />
		<tag k="name" v="Kråkestølen" />
		<tag k="place" v="hamlet" />
		<tag k="ssr:stedsnr" v="430592" />
	</node>
	<node changeset="62708821" id="5914490960" lat="60.4113417" lon="5.2151306" timestamp="2018-09-18T19:50:08Z" uid="1965308" user="FredrikLindseth" version="1">
		<tag k="name" v="Grønlid" />
		<tag k="place" v="hamlet" />
		<tag k="ssr:stedsnr" v="166377" />
	</node>
	<node changeset="62708821" id="5914490961" lat="60.4882194" lon="5.2069944" timestamp="2018-09-18T19:50:08Z" uid="1965308" user="FredrikLindseth" version="1">
		<tag k="name" v="Steinsland" />
		<tag k="place" v="hamlet" />
		<tag k="ssr:stedsnr" v="651353" />
	</node>
	<node changeset="62708821" id="5914490962" lat="60.513225" lon="5.0854778" timestamp="2018-09-18T19:50:08Z" uid="1965308" user="FredrikLindseth" version="1">
		<tag k="name" v="Haugland" />
		<tag k="place" v="hamlet" />
		<tag k="ssr:stedsnr" v="431693" />
	</node>
	<node changeset="62708821" id="5914490963" lat="60.3937639" lon="5.1689333" timestamp="2018-09-18T19:50:08Z" uid="1965308" user="FredrikLindseth" version="1">
		<tag k="name" v="Signalen" />
		<tag k="place" v="hamlet" />
		<tag k="ssr:stedsnr" v="773379" />
	</node>
	<node changeset="62708821" id="5914490964" lat="60.4508056" lon="5.1505167" timestamp="2018-09-18T19:50:09Z" uid="1965308" user="FredrikLindseth" version="1">
		<tag k="name" v="Buneset" />
		<tag k="place" v="hamlet" />
		<tag k="ssr:stedsnr" v="651369" />
	</node>
	<node changeset="62708821" id="5914490965" lat="60.5149" lon="5.0323417" timestamp="2018-09-18T19:50:09Z" uid="1965308" user="FredrikLindseth" version="1">
		<tag k="fixme" v="consider place=hamlet" />
		<tag k="name" v="Store Fauskanger" />
		<tag k="place" v="locality" />
		<tag k="ssr:stedsnr" v="449449" />
	</node>
	<node changeset="62708821" id="5914490966" lat="60.4217056" lon="5.2008861" timestamp="2018-09-18T19:50:09Z" uid="1965308" user="FredrikLindseth" version="1">
		<tag k="name" v="Berget" />
		<tag k="place" v="hamlet" />
		<tag k="ssr:stedsnr" v="651933" />
	</node>
	<node changeset="62708821" id="5914490967" lat="60.4026361" lon="5.2039083" timestamp="2018-09-18T19:50:09Z" uid="1965308" user="FredrikLindseth" version="1">
		<tag k="historic" v="shieling" />
		<tag k="name" v="Stølen" />
		<tag k="place" v="locality" />
		<tag k="ssr:stedsnr" v="651947" />
	</node>
	<node changeset="79149038" id="389920344" lat="60.4711612" lon="5.1137402" timestamp="2020-01-03T09:49:57Z" uid="3497659" user="NKA" version="3">
		<tag k="name" v="Davanger" />
		<tag k="place" v="village" />
		<tag k="population" v="324" />
		<tag k="population:date" v="2019-01-01" />
		<tag k="ref:ssb_tettsted" v="5204" />
		<tag k="ssr:stedsnr" v="916455" />
	</node>
	<node changeset="62708821" id="5914490969" lat="60.4086472" lon="5.1911389" timestamp="2018-09-18T19:50:09Z" uid="1965308" user="FredrikLindseth" version="1">
		<tag k="name" v="Storhaugen" />
		<tag k="place" v="hamlet" />
		<tag k="ssr:stedsnr" v="166876" />
	</node>
	<node changeset="62708821" id="5914490970" lat="60.4054944" lon="5.1728778" timestamp="2018-09-18T19:50:09Z" uid="1965308" user="FredrikLindseth" version="1">
		<tag k="name" v="Lindhaugen" />
		<tag k="place" v="hamlet" />
		<tag k="ssr:stedsnr" v="166883" />
	</node>
	<node changeset="62708821" id="5914490971" lat="60.4508444" lon="5.2272167" timestamp="2018-09-18T19:50:09Z" uid="1965308" user="FredrikLindseth" version="1">
		<tag k="alt_name" v="Skogvik" />
		<tag k="fixme" v="consider place=farm" />
		<tag k="name" v="Skogvika" />
		<tag k="place" v="hamlet" />
		<tag k="ssr:stedsnr" v="490489" />
	</node>
	<node changeset="62708821" id="5914490972" lat="60.4124111" lon="5.1496417" timestamp="2018-09-18T19:50:09Z" uid="1965308" user="FredrikLindseth" version="1">
		<tag k="name" v="Haugen" />
		<tag k="place" v="hamlet" />
		<tag k="ssr:stedsnr" v="166909" />
	</node>
	<node changeset="62708821" id="5914490973" lat="60.4205583" lon="5.1829444" timestamp="2018-09-18T19:50:09Z" uid="1965308" user="FredrikLindseth" version="1">
		<tag k="name" v="Ospeli" />
		<tag k="place" v="hamlet" />
		<tag k="ssr:stedsnr" v="469249" />
	</node>
	<node changeset="62708821" id="5914490974" lat="60.4606778" lon="5.1492056" timestamp="2018-09-18T19:50:09Z" uid="1965308" user="FredrikLindseth" version="1">
		<tag k="name" v="Apalen" />
		<tag k="place" v="hamlet" />
		<tag k="ssr:stedsnr" v="289734" />
	</node>
	<node changeset="62708821" id="389920351" lat="60.4650944" lon="5.0776806" timestamp="2018-09-18T19:50:14Z" uid="1965308" user="FredrikLindseth" version="2">
		<tag k="alt_name" v="Breidvik" />
		<tag k="name" v="Breivik" />
		<tag k="place" v="hamlet" />
		<tag k="ssr:stedsnr" v="915134" />
	</node>
	<node changeset="62708821" id="5914490976" lat="60.4243361" lon="5.2008333" timestamp="2018-09-18T19:50:09Z" uid="1965308" user="FredrikLindseth" version="1">
		<tag k="name" v="Træet" />
		<tag k="place" v="locality" />
		<tag k="ssr:stedsnr" v="46701" />
	</node>
	<node changeset="62708821" id="5914490977" lat="60.4448583" lon="5.1564778" timestamp="2018-09-18T19:50:09Z" uid="1965308" user="FredrikLindseth" version="1">
		<tag k="name" v="Hellehaugen" />
		<tag k="place" v="hamlet" />
		<tag k="ssr:stedsnr" v="773891" />
	</node>
	<node changeset="62708821" id="5914490978" lat="60.4428972" lon="5.175825" timestamp="2018-09-18T19:50:09Z" uid="1965308" user="FredrikLindseth" version="1">
		<tag k="name" v="Solheim" />
		<tag k="place" v="locality" />
		<tag k="ssr:stedsnr" v="652908" />
	</node>
	<node changeset="62708821" id="5914490980" lat="60.4607194" lon="5.142375" timestamp="2018-09-18T19:50:09Z" uid="1965308" user="FredrikLindseth" version="1">
		<tag k="name" v="Tveit" />
		<tag k="place" v="hamlet" />
		<tag k="ssr:stedsnr" v="672388" />
	</node>
	<node changeset="62708821" id="5914490981" lat="60.4645" lon="5.1468417" timestamp="2018-09-18T19:50:09Z" uid="1965308" user="FredrikLindseth" version="1">
		<tag k="name" v="Haugen" />
		<tag k="place" v="hamlet" />
		<tag k="ssr:stedsnr" v="672391" />
	</node>
	<node changeset="62708821" id="5914490982" lat="60.4181472" lon="5.2029583" timestamp="2018-09-18T19:50:09Z" uid="1965308" user="FredrikLindseth" version="1">
		<tag k="name" v="Nyestykket" />
		<tag k="place" v="hamlet" />
		<tag k="ssr:stedsnr" v="894287" />
	</node>
	<node changeset="62708821" id="5914490983" lat="60.4713528" lon="5.2207556" timestamp="2018-09-18T19:50:10Z" uid="1965308" user="FredrikLindseth" version="1">
		<tag k="name" v="Hop" />
		<tag k="place" v="locality" />
		<tag k="ssr:stedsnr" v="308374" />
	</node>
	<node changeset="62708821" id="5914490984" lat="60.4007417" lon="5.1817139" timestamp="2018-09-18T19:50:10Z" uid="1965308" user="FredrikLindseth" version="1">
		<tag k="alt_name" v="Skiftesvik" />
		<tag k="name" v="Skiftesvika" />
		<tag k="place" v="hamlet" />
		<tag k="ssr:stedsnr" v="672563" />
	</node>
	<node changeset="62708821" id="291977491" lat="60.4585389" lon="5.152915" timestamp="2018-09-18T19:50:14Z" uid="1965308" user="FredrikLindseth" version="2">
		<tag k="alt_name" v="Ramnanger" />
		<tag k="name" v="Ravnanger" />
		<tag k="place" v="village" />
		<tag k="ssr:stedsnr" v="794390" />
	</node>
	<node changeset="62708821" id="5914490968" lat="60.4470111" lon="5.1603417" timestamp="2018-09-18T19:50:09Z" uid="1965308" user="FredrikLindseth" version="1">
		<tag k="historic" v="shieling" />
		<tag k="name" v="Fjellheim" />
		<tag k="place" v="locality" />
		<tag k="ssr:stedsnr" v="409896" />
	</node>
	<node changeset="62708821" id="30447790" lat="60.4045289" lon="5.1923055" timestamp="2018-09-18T19:50:14Z" uid="1965308" user="FredrikLindseth" version="9">
		<tag k="fixme" v="consider place=hamlet" />
		<tag k="name" v="Strusshamn" />
		<tag k="place" v="village" />
		<tag k="ssr:stedsnr" v="248601" />
	</node>
	<node changeset="62708821" id="5914490915" lat="60.500275" lon="5.0513333" timestamp="2018-09-18T19:50:06Z" uid="1965308" user="FredrikLindseth" version="1">
		<tag k="alt_name" v="Eikvåg" />
		<tag k="name" v="Eikevågen" />
		<tag k="place" v="locality" />
		<tag k="ssr:stedsnr" v="917627" />
	</node>
	<node changeset="62708821" id="5914490975" lat="60.4271417" lon="5.1527917" timestamp="2018-09-18T19:50:09Z" uid="1965308" user="FredrikLindseth" version="1">
		<tag k="name" v="Brattalid" />
		<tag k="place" v="hamlet" />
		<tag k="ssr:stedsnr" v="773887" />
	</node>
	<node changeset="62708821" id="5914490919" lat="60.5223611" lon="5.0951361" timestamp="2018-09-18T19:50:06Z" uid="1965308" user="FredrikLindseth" version="1">
		<tag k="name" v="Hegernes" />
		<tag k="place" v="hamlet" />
		<tag k="ssr:stedsnr" v="370435" />
	</node>
	<node changeset="62708821" id="4837273867" lat="60.5664611" lon="4.9583319" timestamp="2018-09-18T19:50:15Z" uid="1965308" user="FredrikLindseth" version="2">
		<tag k="name" v="Kringla" />
		<tag k="place" v="locality" />
		<tag k="ssr:stedsnr" v="105935" />
	</node>
	<node changeset="62708821" id="5914492685" lat="60.4248139" lon="5.1508944" timestamp="2018-09-18T19:50:10Z" uid="1965308" user="FredrikLindseth" version="1">
		<tag k="name" v="Haugen" />
		<tag k="place" v="hamlet" />
		<tag k="ssr:stedsnr" v="287392" />
	</node>
	<node changeset="62708821" id="5914492686" lat="60.415025" lon="5.2329861" timestamp="2018-09-18T19:50:10Z" uid="1965308" user="FredrikLindseth" version="1">
		<tag k="name" v="Kleiven" />
		<tag k="place" v="hamlet" />
		<tag k="ssr:stedsnr" v="469924" />
	</node>
	<node changeset="62708821" id="5914492687" lat="60.45505" lon="5.1500917" timestamp="2018-09-18T19:50:10Z" uid="1965308" user="FredrikLindseth" version="1">
		<tag k="name" v="Breidablikk" />
		<tag k="place" v="hamlet" />
		<tag k="ssr:stedsnr" v="66517" />
	</node>
	<node changeset="62708821" id="5914492688" lat="60.4460889" lon="5.1554333" timestamp="2018-09-18T19:50:10Z" uid="1965308" user="FredrikLindseth" version="1">
		<tag k="fixme" v="consider place=hamlet" />
		<tag k="name" v="Hauglandshella" />
		<tag k="place" v="village" />
		<tag k="ssr:stedsnr" v="187523" />
	</node>
	<node changeset="62708821" id="5914492689" lat="60.4892228" lon="5.2011741" timestamp="2018-09-18T19:50:10Z" uid="1965308" user="FredrikLindseth" version="1">
		<tag k="alt_name" v="Lilleholten" />
		<tag k="name" v="Litleholten" />
		<tag k="place" v="hamlet" />
		<tag k="ssr:stedsnr" v="894390" />
	</node>
	<node changeset="62708821" id="5914492690" lat="60.4160111" lon="5.2142833" timestamp="2018-09-18T19:50:10Z" uid="1965308" user="FredrikLindseth" version="1">
		<tag k="name" v="Austrheim" />
		<tag k="place" v="hamlet" />
		<tag k="ssr:stedsnr" v="894417" />
	</node>
	<node changeset="62708821" id="5914492691" lat="60.4479389" lon="5.2226972" timestamp="2018-09-18T19:50:10Z" uid="1965308" user="FredrikLindseth" version="1">
		<tag k="name" v="Myrane" />
		<tag k="place" v="hamlet" />
		<tag k="ssr:stedsnr" v="309536" />
	</node>
	<node changeset="62708821" id="5914492692" lat="60.4208917" lon="5.14885" timestamp="2018-09-18T19:50:10Z" uid="1965308" user="FredrikLindseth" version="1">
		<tag k="fixme" v="consider place=farm" />
		<tag k="name" v="Skjønhaug" />
		<tag k="place" v="hamlet" />
		<tag k="ssr:stedsnr" v="308583" />
	</node>
	<node changeset="62708821" id="5914492693" lat="60.4279889" lon="5.1960639" timestamp="2018-09-18T19:50:10Z" uid="1965308" user="FredrikLindseth" version="1">
		<tag k="name" v="Norddal" />
		<tag k="place" v="locality" />
		<tag k="ssr:stedsnr" v="673631" />
	</node>
	<node changeset="62708821" id="5914492694" lat="60.5224028" lon="5.0296667" timestamp="2018-09-18T19:50:10Z" uid="1965308" user="FredrikLindseth" version="1">
		<tag k="name" v="Hestetrædet" />
		<tag k="old_name" v="Hæstetrædet" />
		<tag k="place" v="hamlet" />
		<tag k="ssr:stedsnr" v="188706" />
	</node>
	<node changeset="62708821" id="5914492695" lat="60.5462778" lon="4.9823528" timestamp="2018-09-18T19:50:10Z" uid="1965308" user="FredrikLindseth" version="1">
		<tag k="alt_name" v="Merkesviki" />
		<tag k="name" v="Merkesvik" />
		<tag k="place" v="village" />
		<tag k="ssr:stedsnr" v="310716" />
	</node>
	<node changeset="62708821" id="5914492696" lat="60.4347167" lon="5.1781139" timestamp="2018-09-18T19:50:10Z" uid="1965308" user="FredrikLindseth" version="1">
		<tag k="fixme" v="consider place=suburb, village or hamlet" />
		<tag k="name" v="Juvik" />
		<tag k="place" v="neighbourhood" />
		<tag k="ssr:stedsnr" v="206731" />
	</node>
	<node changeset="62708821" id="5914492697" lat="60.4656333" lon="5.1149056" timestamp="2018-09-18T19:50:10Z" uid="1965308" user="FredrikLindseth" version="1">
		<tag k="name" v="Kårevik" />
		<tag k="place" v="farm" />
		<tag k="ssr:stedsnr" v="794393" />
	</node>
	<node changeset="62708821" id="5914492698" lat="60.465475" lon="5.1977" timestamp="2018-09-18T19:50:10Z" uid="1965308" user="FredrikLindseth" version="1">
		<tag k="name" v="Fredheim" />
		<tag k="place" v="hamlet" />
		<tag k="ssr:stedsnr" v="794400" />
	</node>
	<node changeset="62708821" id="5914492699" lat="60.5339389" lon="4.9974222" timestamp="2018-09-18T19:50:10Z" uid="1965308" user="FredrikLindseth" version="1">
		<tag k="alt_name" v="Skråmestøi" />
		<tag k="fixme" v="consider place=hamlet" />
		<tag k="name" v="Skråmestø" />
		<tag k="place" v="village" />
		<tag k="ssr:stedsnr" v="674716" />
	</node>
	<node changeset="62708821" id="5914492700" lat="60.5369333" lon="5.0223972" timestamp="2018-09-18T19:50:11Z" uid="1965308" user="FredrikLindseth" version="1">
		<tag k="name" v="Søra Abedissa" />
		<tag k="place" v="locality" />
		<tag k="ssr:stedsnr" v="692468" />
	</node>
	<node changeset="62708821" id="5914492701" lat="60.4231778" lon="5.1754333" timestamp="2018-09-18T19:50:11Z" uid="1965308" user="FredrikLindseth" version="1">
		<tag k="fixme" v="consider place=farm" />
		<tag k="name" v="Solberg" />
		<tag k="place" v="locality" />
		<tag k="ssr:stedsnr" v="145721" />
	</node>
	<node changeset="62708821" id="5914492702" lat="60.4510917" lon="5.2086444" timestamp="2018-09-18T19:50:11Z" uid="1965308" user="FredrikLindseth" version="1">
		<tag k="name" v="Varden" />
		<tag k="place" v="hamlet" />
		<tag k="ssr:stedsnr" v="369441" />
	</node>
	<node changeset="62708821" id="5914492703" lat="60.5653556" lon="4.9571333" timestamp="2018-09-18T19:50:11Z" uid="1965308" user="FredrikLindseth" version="1">
		<tag k="name" v="Lund" />
		<tag k="place" v="hamlet" />
		<tag k="ssr:stedsnr" v="207959" />
	</node>
	<node changeset="62708821" id="5914492704" lat="60.4161528" lon="5.2067222" timestamp="2018-09-18T19:50:11Z" uid="1965308" user="FredrikLindseth" version="1">
		<tag k="alt_name" v="Kleppe, øvre" />
		<tag k="name" v="Øvre Kleppe" />
		<tag k="place" v="hamlet" />
		<tag k="ssr:stedsnr" v="5564" />
	</node>
	<node changeset="62708821" id="5914492705" lat="60.4116833" lon="5.1861389" timestamp="2018-09-18T19:50:11Z" uid="1965308" user="FredrikLindseth" version="1">
		<tag k="name" v="Sørbø" />
		<tag k="place" v="locality" />
		<tag k="ssr:stedsnr" v="348258" />
	</node>
	<node changeset="62708821" id="5914492706" lat="60.4589889" lon="5.2060139" timestamp="2018-09-18T19:50:11Z" uid="1965308" user="FredrikLindseth" version="1">
		<tag k="name" v="Svana" />
		<tag k="place" v="hamlet" />
		<tag k="ssr:stedsnr" v="794539" />
	</node>
	<node changeset="62708821" id="5914492707" lat="60.5179778" lon="5.0169667" timestamp="2018-09-18T19:50:11Z" uid="1965308" user="FredrikLindseth" version="1">
		<tag k="name" v="Bakken" />
		<tag k="place" v="locality" />
		<tag k="ssr:stedsnr" v="895550" />
	</node>
	<node changeset="62708821" id="5914492708" lat="60.5105806" lon="5.0825917" timestamp="2018-09-18T19:50:11Z" uid="1965308" user="FredrikLindseth" version="1">
		<tag k="name" v="Nordre Haugland" />
		<tag k="place" v="hamlet" />
		<tag k="ssr:stedsnr" v="348289" />
	</node>
	<node changeset="62708821" id="5914492709" lat="60.445275" lon="5.0850333" timestamp="2018-09-18T19:50:11Z" uid="1965308" user="FredrikLindseth" version="1">
		<tag k="alt_name" v="Hanøyni" />
		<tag k="name" v="Hanøy" />
		<tag k="place" v="neighbourhood" />
		<tag k="ssr:stedsnr" v="227326" />
	</node>
	<node changeset="62708821" id="5914492710" lat="60.41665" lon="5.1845028" timestamp="2018-09-18T19:50:11Z" uid="1965308" user="FredrikLindseth" version="1">
		<tag k="name" v="Nordbø" />
		<tag k="place" v="locality" />
		<tag k="ssr:stedsnr" v="66596" />
	</node>
	<node changeset="62708821" id="5914492711" lat="60.5321639" lon="5.0258306" timestamp="2018-09-18T19:50:11Z" uid="1965308" user="FredrikLindseth" version="1">
		<tag k="alt_name" v="Ådlandsviki" />
		<tag k="name" v="Ådlandsvik" />
		<tag k="place" v="hamlet" />
		<tag k="ssr:stedsnr" v="67713" />
	</node>
	<node changeset="62708821" id="5914492712" lat="60.4517972" lon="5.1327556" timestamp="2018-09-18T19:50:11Z" uid="1965308" user="FredrikLindseth" version="1">
		<tag k="name" v="Mannekleiva" />
		<tag k="place" v="hamlet" />
		<tag k="ssr:stedsnr" v="712334" />
	</node>
	<node changeset="62708821" id="5914492713" lat="60.4105889" lon="5.2289778" timestamp="2018-09-18T19:50:11Z" uid="1965308" user="FredrikLindseth" version="1">
		<tag k="name" v="Strand" />
		<tag k="place" v="hamlet" />
		<tag k="ssr:stedsnr" v="490555" />
	</node>
	<node changeset="62708821" id="5914492714" lat="60.4204944" lon="5.1965778" timestamp="2018-09-18T19:50:11Z" uid="1965308" user="FredrikLindseth" version="1">
		<tag k="name" v="Brattli" />
		<tag k="place" v="hamlet" />
		<tag k="ssr:stedsnr" v="712909" />
	</node>
	<node changeset="62708821" id="5914492715" lat="60.4341083" lon="5.1692167" timestamp="2018-09-18T19:50:11Z" uid="1965308" user="FredrikLindseth" version="1">
		<tag k="name" v="Dalamoen" />
		<tag k="place" v="hamlet" />
		<tag k="ssr:stedsnr" v="813731" />
	</node>
	<node changeset="62708821" id="5914492716" lat="60.5193306" lon="5.0213472" timestamp="2018-09-18T19:50:11Z" uid="1965308" user="FredrikLindseth" version="1">
		<tag k="name" v="Skaret" />
		<tag k="place" v="locality" />
		<tag k="ssr:stedsnr" v="469270" />
	</node>
	<node changeset="62708821" id="5914492717" lat="60.4234167" lon="5.1768222" timestamp="2018-09-18T19:50:11Z" uid="1965308" user="FredrikLindseth" version="1">
		<tag k="name" v="Myra" />
		<tag k="place" v="hamlet" />
		<tag k="ssr:stedsnr" v="348900" />
	</node>
	<node changeset="62708821" id="5914492718" lat="60.4784833" lon="5.2083472" timestamp="2018-09-18T19:50:11Z" uid="1965308" user="FredrikLindseth" version="1">
		<tag k="name" v="Frydenlund" />
		<tag k="place" v="hamlet" />
		<tag k="ssr:stedsnr" v="815498" />
	</node>
	<node changeset="62708821" id="5914492719" lat="60.5241861" lon="5.0591806" timestamp="2018-09-18T19:50:12Z" uid="1965308" user="FredrikLindseth" version="1">
		<tag k="name" v="Storhaugen" />
		<tag k="place" v="farm" />
		<tag k="ssr:stedsnr" v="469280" />
	</node>
	<node changeset="62708821" id="5914492720" lat="60.4442056" lon="5.1240861" timestamp="2018-09-18T19:50:12Z" uid="1965308" user="FredrikLindseth" version="1">
		<tag k="fixme" v="consider place=farm" />
		<tag k="name" v="Dalen" />
		<tag k="place" v="locality" />
		<tag k="ssr:stedsnr" v="369500" />
	</node>
	<node changeset="62708821" id="5914492721" lat="60.4954194" lon="5.1448361" timestamp="2018-09-18T19:50:12Z" uid="1965308" user="FredrikLindseth" version="1">
		<tag k="name" v="Ekrehaugen" />
		<tag k="place" v="hamlet" />
		<tag k="ssr:stedsnr" v="834341" />
	</node>
	<node changeset="62708821" id="5914492722" lat="60.4288639" lon="5.1484945" timestamp="2018-09-18T19:50:12Z" uid="1965308" user="FredrikLindseth" version="1">
		<tag k="name" v="Vikane" />
		<tag k="place" v="hamlet" />
		<tag k="ssr:stedsnr" v="834358" />
	</node>
	<node changeset="62708821" id="5914492723" lat="60.4211222" lon="5.2036778" timestamp="2018-09-18T19:50:12Z" uid="1965308" user="FredrikLindseth" version="1">
		<tag k="name" v="Bjørkelid" />
		<tag k="place" v="hamlet" />
		<tag k="ssr:stedsnr" v="834362" />
	</node>
	<node changeset="62708821" id="5914492724" lat="60.5021861" lon="5.1684111" timestamp="2018-09-18T19:50:12Z" uid="1965308" user="FredrikLindseth" version="1">
		<tag k="fixme" v="consider place=farm" />
		<tag k="name" v="Leirdal" />
		<tag k="place" v="hamlet" />
		<tag k="ssr:stedsnr" v="510581" />
	</node>
	<node changeset="62708821" id="5914492725" lat="60.4593306" lon="5.2318056" timestamp="2018-09-18T19:50:12Z" uid="1965308" user="FredrikLindseth" version="1">
		<tag k="name" v="Straumsnes" />
		<tag k="place" v="hamlet" />
		<tag k="ssr:stedsnr" v="5534" />
	</node>
	<node changeset="62708821" id="5914492726" lat="60.4466694" lon="5.1338945" timestamp="2018-09-18T19:50:12Z" uid="1965308" user="FredrikLindseth" version="1">
		<tag k="fixme" v="consider place=suburb, village or hamlet" />
		<tag k="name" v="Tveitevåg" />
		<tag k="place" v="hamlet" />
		<tag k="ssr:stedsnr" v="5553" />
	</node>
	<node changeset="62708821" id="5914492727" lat="60.4144139" lon="5.2256889" timestamp="2018-09-18T19:50:12Z" uid="1965308" user="FredrikLindseth" version="1">
		<tag k="name" v="Solhola" />
		<tag k="place" v="neighbourhood" />
		<tag k="ssr:stedsnr" v="530292" />
	</node>
	<node changeset="62708821" id="5914492728" lat="60.4151694" lon="5.1473139" timestamp="2018-09-18T19:50:12Z" uid="1965308" user="FredrikLindseth" version="1">
		<tag k="name" v="Knutmannshaugen" />
		<tag k="place" v="hamlet" />
		<tag k="ssr:stedsnr" v="287890" />
	</node>
	<node changeset="62708821" id="5914492729" lat="60.4268083" lon="5.2395333" timestamp="2018-09-18T19:50:12Z" uid="1965308" user="FredrikLindseth" version="1">
		<tag k="name" v="Bakarvågen" />
		<tag k="place" v="hamlet" />
		<tag k="ssr:stedsnr" v="5593" />
	</node>
	<node changeset="62708821" id="5914492730" lat="60.4207944" lon="5.1998917" timestamp="2018-09-18T19:50:12Z" uid="1965308" user="FredrikLindseth" version="1">
		<tag k="alt_name" v="Kleppe, nedre;Kleppe" />
		<tag k="name" v="Nedre Kleppe" />
		<tag k="place" v="hamlet" />
		<tag k="ssr:stedsnr" v="5599" />
	</node>
	<node changeset="62708821" id="5914492731" lat="60.4426389" lon="5.2270917" timestamp="2018-09-18T19:50:12Z" uid="1965308" user="FredrikLindseth" version="1">
		<tag k="fixme" v="consider place=hamlet" />
		<tag k="name" v="Erdal" />
		<tag k="place" v="village" />
		<tag k="ssr:stedsnr" v="881928" />
	</node>
	<node changeset="62708821" id="5914492732" lat="60.5263278" lon="5.0020833" timestamp="2018-09-18T19:50:12Z" uid="1965308" user="FredrikLindseth" version="1">
		<tag k="name" v="Bekkestø" />
		<tag k="place" v="farm" />
		<tag k="ssr:stedsnr" v="85409" />
	</node>
	<node changeset="62708821" id="5914492733" lat="60.5611278" lon="4.9648528" timestamp="2018-09-18T19:50:12Z" uid="1965308" user="FredrikLindseth" version="1">
		<tag k="name" v="Skansen" />
		<tag k="place" v="hamlet" />
		<tag k="ssr:stedsnr" v="6697" />
	</node>
	<node changeset="62708821" id="5914492734" lat="60.553769" lon="4.96746" timestamp="2018-09-18T19:50:12Z" uid="1965308" user="FredrikLindseth" version="1">
		<tag k="fixme" v="consider place=hamlet" />
		<tag k="name" v="Håpoldøy" />
		<tag k="place" v="hamlet" />
		<tag k="ssr:stedsnr" v="6714" />
	</node>
	<node changeset="62708821" id="5914492735" lat="60.4037" lon="5.219175" timestamp="2018-09-18T19:50:12Z" uid="1965308" user="FredrikLindseth" version="1">
		<tag k="name" v="Klubben" />
		<tag k="place" v="hamlet" />
		<tag k="ssr:stedsnr" v="834920" />
	</node>
	<node changeset="62708821" id="5914492736" lat="60.534575" lon="5.0012667" timestamp="2018-09-18T19:50:12Z" uid="1965308" user="FredrikLindseth" version="1">
		<tag k="name" v="Øvra Skråmestø" />
		<tag k="place" v="locality" />
		<tag k="ssr:stedsnr" v="25505" />
	</node>
	<node changeset="62708821" id="5914492737" lat="60.4400778" lon="5.2292833" timestamp="2018-09-18T19:50:12Z" uid="1965308" user="FredrikLindseth" version="1">
		<tag k="name" v="Sørerdal" />
		<tag k="place" v="hamlet" />
		<tag k="ssr:stedsnr" v="153955" />
	</node>
	<node changeset="62708821" id="5914492738" lat="60.4815861" lon="5.2083861" timestamp="2018-09-18T19:50:12Z" uid="1965308" user="FredrikLindseth" version="1">
		<tag k="name" v="Mellomgarden" />
		<tag k="place" v="locality" />
		<tag k="ssr:stedsnr" v="44919" />
	</node>
	<node changeset="62708821" id="5914492739" lat="60.420725" lon="5.2229139" timestamp="2018-09-18T19:50:13Z" uid="1965308" user="FredrikLindseth" version="1">
		<tag k="name" v="Nilsagjerdet" />
		<tag k="place" v="hamlet" />
		<tag k="ssr:stedsnr" v="45248" />
	</node>
	<node changeset="62708821" id="5914492740" lat="60.46375" lon="5.2308694" timestamp="2018-09-18T19:50:13Z" uid="1965308" user="FredrikLindseth" version="1">
		<tag k="name" v="Nyland" />
		<tag k="place" v="locality" />
		<tag k="ssr:stedsnr" v="855409" />
	</node>
	<node changeset="62708821" id="5914492741" lat="60.4391056" lon="5.1736444" timestamp="2018-09-18T19:50:13Z" uid="1965308" user="FredrikLindseth" version="1">
		<tag k="name" v="Kråvik" />
		<tag k="place" v="hamlet" />
		<tag k="ssr:stedsnr" v="855502" />
	</node>
	<node changeset="62708821" id="5914492742" lat="60.45155" lon="5.2121778" timestamp="2018-09-18T19:50:13Z" uid="1965308" user="FredrikLindseth" version="1">
		<tag k="name" v="Solheim" />
		<tag k="place" v="hamlet" />
		<tag k="ssr:stedsnr" v="855543" />
	</node>
	<node changeset="62708821" id="5914492743" lat="60.4500944" lon="5.1604139" timestamp="2018-09-18T19:50:13Z" uid="1965308" user="FredrikLindseth" version="1">
		<tag k="fixme" v="consider place=hamlet" />
		<tag k="name" v="Haugland" />
		<tag k="place" v="village" />
		<tag k="ssr:stedsnr" v="855559" />
	</node>
	<node changeset="62708821" id="5914492744" lat="60.4139056" lon="5.1572194" timestamp="2018-09-18T19:50:13Z" uid="1965308" user="FredrikLindseth" version="1">
		<tag k="fixme" v="consider place=farm" />
		<tag k="name" v="Hovestølen" />
		<tag k="place" v="hamlet" />
		<tag k="ssr:stedsnr" v="855581" />
	</node>
	<node changeset="79149038" id="4811941193" lat="60.4368704" lon="5.052127" timestamp="2020-01-03T09:49:57Z" uid="3497659" user="NKA" version="3">
		<tag k="name" v="Ramsøy" />
		<tag k="place" v="hamlet" />
		<tag k="population" v="218" />
		<tag k="population:date" v="2019-01-01" />
		<tag k="ref:ssb_tettsted" v="5203" />
		<tag k="ssr:stedsnr" v="835677" />
	</node>
	<node changeset="62708821" id="2346722103" lat="60.4088154" lon="5.1594723" timestamp="2018-09-18T19:50:15Z" uid="1965308" user="FredrikLindseth" version="3">
		<tag k="fixme" v="consider place=suburb, village or hamlet" />
		<tag k="name" v="Follese" />
		<tag k="place" v="hamlet" />
		<tag k="ssr:stedsnr" v="248587" />
	</node>
	<node changeset="62708821" id="5914490936" lat="60.4787361" lon="5.2162805" timestamp="2018-09-18T19:50:07Z" uid="1965308" user="FredrikLindseth" version="1">
		<tag k="alt_name" v="Frugård" />
		<tag k="name" v="Frugarden" />
		<tag k="place" v="hamlet" />
		<tag k="ssr:stedsnr" v="734467" />
	</node>
	<node changeset="62708821" id="3816807780" lat="60.4995837" lon="5.1510395" timestamp="2018-09-18T19:50:15Z" uid="1965308" user="FredrikLindseth" version="2">
		<tag k="fixme" v="consider place=suburb, village or hamlet" />
		<tag k="name" v="Hanevik" />
		<tag k="place" v="neighbourhood" />
		<tag k="ssr:stedsnr" v="631561" />
	</node>
	<node changeset="62708821" id="251522432" lat="60.5331295" lon="4.9830724" timestamp="2018-09-18T19:50:14Z" uid="1965308" user="FredrikLindseth" version="2">
		<tag k="fixme" v="consider place=farm" />
		<tag k="name" v="Oksneset" />
		<tag k="place" v="locality" />
		<tag k="ssr:stedsnr" v="734715" />
	</node>
	<node changeset="62708821" id="30057527" lat="60.420975" lon="5.2384861" timestamp="2018-09-18T19:50:14Z" uid="1965308" user="FredrikLindseth" version="4">
		<tag k="name" v="Florvåg" />
		<tag k="place" v="village" />
		<tag k="ssr:stedsnr" v="794619" />
	</node>
	<node changeset="62708821" id="254147487" lat="60.491446" lon="5.1383106" timestamp="2018-09-18T19:50:14Z" uid="1965308" user="FredrikLindseth" version="2">
		<tag k="alt_name" v="Åsbø" />
		<tag k="fixme" v="consider place=hamlet" />
		<tag k="name" v="Åsebø" />
		<tag k="place" v="hamlet" />
		<tag k="ssr:stedsnr" v="248378" />
	</node>
	<node changeset="62708821" id="5914492745" lat="60.4191528" lon="5.1762639" timestamp="2018-09-18T19:50:13Z" uid="1965308" user="FredrikLindseth" version="1">
		<tag k="alt_name" v="Lindaker" />
		<tag k="fixme" v="consider place=farm" />
		<tag k="name" v="Linåker" />
		<tag k="place" v="locality" />
		<tag k="ssr:stedsnr" v="855632" />
	</node>
	<node changeset="79149038" id="258190794" lat="60.4805116" lon="5.2113694" timestamp="2020-01-03T09:49:57Z" uid="3497659" user="NKA" version="4">
		<tag k="name" v="Ask" />
		<tag k="place" v="village" />
		<tag k="population" v="1562" />
		<tag k="population:date" v="2019-01-01" />
		<tag k="ref:ssb_tettsted" v="5206" />
		<tag k="ssr:stedsnr" v="5367" />
	</node>
	<node changeset="66439606" id="2052945364" lat="60.4209861" lon="5.145988" timestamp="2019-01-18T20:49:43Z" uid="3497659" user="NKA" version="3">
		<tag k="name" v="Hetlevik" />
		<tag k="place" v="village" />
		<tag k="ssr:stedsnr" v="734638" />
	</node>
</osm>
