<?xml version="1.0" encoding="UTF-8"?>
<osm generator="osmapis" version="0.6">
	<node id="-59264" lat="58.3325833378" lon="7.04150000809">
		<tag k="name" v="Lister" />
		<tag k="ssr:date" v="2019-12-27" />
		<tag k="ssr:gruppe" v="terrengområder" />
		<tag k="ssr:hovedgruppe" v="terreng" />
		<tag k="ssr:stedsnr" v="120117" />
		<tag k="ssr:type" v="landskapsområde" />
	</node>
	<node id="-61673" lat="58.9192286445" lon="6.87706479083">
		<tag k="name" v="Småtjødnene" />
		<tag k="ssr:date" v="2020-07-01" />
		<tag k="ssr:gruppe" v="veg" />
		<tag k="ssr:hovedgruppe" v="infrastruktur" />
		<tag k="ssr:stedsnr" v="1077539" />
		<tag k="ssr:type" v="adressenavn" />
	</node>
	<node id="-61672" lat="58.9221596556" lon="6.86901526378">
		<tag k="name" v="Skarlikrogen" />
		<tag k="ssr:date" v="2020-07-01" />
		<tag k="ssr:gruppe" v="veg" />
		<tag k="ssr:hovedgruppe" v="infrastruktur" />
		<tag k="ssr:stedsnr" v="1077538" />
		<tag k="ssr:type" v="adressenavn" />
	</node>
	<node id="-61671" lat="58.9079490808" lon="6.85552968072">
		<tag k="name" v="Svartevasstjødn" />
		<tag k="ssr:date" v="2020-06-29" />
		<tag k="ssr:gruppe" v="veg" />
		<tag k="ssr:hovedgruppe" v="infrastruktur" />
		<tag k="ssr:stedsnr" v="1077505" />
		<tag k="ssr:type" v="adressenavn" />
	</node>
	<node id="-61670" lat="58.9157305885" lon="6.86539915237">
		<tag k="name" v="Tjødnestølveien" />
		<tag k="ssr:date" v="2020-06-29" />
		<tag k="ssr:gruppe" v="veg" />
		<tag k="ssr:hovedgruppe" v="infrastruktur" />
		<tag k="ssr:stedsnr" v="1077504" />
		<tag k="ssr:type" v="adressenavn" />
	</node>
	<node id="-61669" lat="58.8788031608" lon="6.95737575832">
		<tag k="name" v="Sandtjødnbekken" />
		<tag k="ssr:date" v="2020-06-29" />
		<tag k="ssr:gruppe" v="veg" />
		<tag k="ssr:hovedgruppe" v="infrastruktur" />
		<tag k="ssr:stedsnr" v="1077503" />
		<tag k="ssr:type" v="adressenavn" />
	</node>
	<node id="-61668" lat="59.0222851726" lon="6.92679911652">
		<tag k="name" v="Klevetjødnveien" />
		<tag k="ssr:date" v="2020-06-29" />
		<tag k="ssr:gruppe" v="veg" />
		<tag k="ssr:hovedgruppe" v="infrastruktur" />
		<tag k="ssr:stedsnr" v="1077502" />
		<tag k="ssr:type" v="adressenavn" />
	</node>
	<node id="-61667" lat="58.9159531396" lon="6.90648038523">
		<tag k="name" v="Veg 4010" />
		<tag k="ssr:date" v="2020-06-22" />
		<tag k="ssr:gruppe" v="veg" />
		<tag k="ssr:hovedgruppe" v="infrastruktur" />
		<tag k="ssr:stedsnr" v="1077429" />
		<tag k="ssr:type" v="adressenavn" />
	</node>
	<node id="-61666" lat="58.9152832704" lon="6.90339459478">
		<tag k="name" v="Veg 4011" />
		<tag k="ssr:date" v="2020-06-22" />
		<tag k="ssr:gruppe" v="veg" />
		<tag k="ssr:hovedgruppe" v="infrastruktur" />
		<tag k="ssr:stedsnr" v="1077428" />
		<tag k="ssr:type" v="adressenavn" />
	</node>
	<node id="-61665" lat="58.9130879903" lon="6.91096090516">
		<tag k="name" v="Veg 4009" />
		<tag k="ssr:date" v="2020-06-22" />
		<tag k="ssr:gruppe" v="veg" />
		<tag k="ssr:hovedgruppe" v="infrastruktur" />
		<tag k="ssr:stedsnr" v="1077427" />
		<tag k="ssr:type" v="adressenavn" />
	</node>
	<node id="-61664" lat="58.9124959341" lon="6.91101402641">
		<tag k="name" v="Veg 4008" />
		<tag k="ssr:date" v="2020-06-22" />
		<tag k="ssr:gruppe" v="veg" />
		<tag k="ssr:hovedgruppe" v="infrastruktur" />
		<tag k="ssr:stedsnr" v="1077426" />
		<tag k="ssr:type" v="adressenavn" />
	</node>
	<node id="-61663" lat="58.9200011416" lon="6.87050322069">
		<tag k="name" v="Skarliåsveien" />
		<tag k="ssr:date" v="2020-06-22" />
		<tag k="ssr:gruppe" v="veg" />
		<tag k="ssr:hovedgruppe" v="infrastruktur" />
		<tag k="ssr:stedsnr" v="1077425" />
		<tag k="ssr:type" v="adressenavn" />
	</node>
	<node id="-61662" lat="58.9154500522" lon="6.87618511558">
		<tag k="name" v="Sinnestunet" />
		<tag k="ssr:date" v="2020-06-22" />
		<tag k="ssr:gruppe" v="veg" />
		<tag k="ssr:hovedgruppe" v="infrastruktur" />
		<tag k="ssr:stedsnr" v="1077424" />
		<tag k="ssr:type" v="adressenavn" />
	</node>
	<node id="-61659" lat="58.9151385066" lon="6.87636056265">
		<tag k="name" v="Soleiknutveien" />
		<tag k="ssr:date" v="2020-06-15" />
		<tag k="ssr:gruppe" v="veg" />
		<tag k="ssr:hovedgruppe" v="infrastruktur" />
		<tag k="ssr:stedsnr" v="1077346" />
		<tag k="ssr:type" v="adressenavn" />
	</node>
	<node id="-61658" lat="59.0172310418" lon="6.93771192526">
		<tag k="name" v="Nilsaklampen" />
		<tag k="ssr:date" v="2020-06-15" />
		<tag k="ssr:gruppe" v="veg" />
		<tag k="ssr:hovedgruppe" v="infrastruktur" />
		<tag k="ssr:stedsnr" v="1077344" />
		<tag k="ssr:type" v="adressenavn" />
	</node>
	<node id="-61648" lat="58.9553823165" lon="6.92883463788">
		<tag k="name" v="Smølåsveien" />
		<tag k="ssr:date" v="2020-03-16" />
		<tag k="ssr:gruppe" v="veg" />
		<tag k="ssr:hovedgruppe" v="infrastruktur" />
		<tag k="ssr:stedsnr" v="1076050" />
		<tag k="ssr:type" v="adressenavn" />
	</node>
	<node id="-61647" lat="58.9485991738" lon="6.94400132177">
		<tag k="name" v="Smølåsen" />
		<tag k="ssr:date" v="2020-03-16" />
		<tag k="ssr:gruppe" v="veg" />
		<tag k="ssr:hovedgruppe" v="infrastruktur" />
		<tag k="ssr:stedsnr" v="1076049" />
		<tag k="ssr:type" v="adressenavn" />
	</node>
	<node id="-61646" lat="58.9586209787" lon="6.94490018331">
		<tag k="name" v="Litle kvednhusbakken" />
		<tag k="ssr:date" v="2020-03-16" />
		<tag k="ssr:gruppe" v="veg" />
		<tag k="ssr:hovedgruppe" v="infrastruktur" />
		<tag k="ssr:stedsnr" v="1076048" />
		<tag k="ssr:type" v="adressenavn" />
	</node>
	<node id="-61645" lat="58.91471909" lon="6.85964313939">
		<tag k="name" v="Kvednhusbakken" />
		<tag k="ssr:date" v="2020-03-16" />
		<tag k="ssr:gruppe" v="veg" />
		<tag k="ssr:hovedgruppe" v="infrastruktur" />
		<tag k="ssr:stedsnr" v="1076047" />
		<tag k="ssr:type" v="adressenavn" />
	</node>
	<node id="-61644" lat="58.6490790761" lon="6.55484104394">
		<tag k="name" v="Hammarsmarkveien" />
		<tag k="ssr:date" v="2020-03-16" />
		<tag k="ssr:gruppe" v="veg" />
		<tag k="ssr:hovedgruppe" v="infrastruktur" />
		<tag k="ssr:stedsnr" v="1076046" />
		<tag k="ssr:type" v="adressenavn" />
	</node>
	<node id="-61643" lat="58.8286315672" lon="6.79632816512">
		<tag k="name" v="Ousdal" />
		<tag k="ssr:date" v="2020-02-17" />
		<tag k="ssr:gruppe" v="veg" />
		<tag k="ssr:hovedgruppe" v="infrastruktur" />
		<tag k="ssr:stedsnr" v="1075197" />
		<tag k="ssr:type" v="adressenavn" />
	</node>
	<node id="-61642" lat="58.1511039845" lon="7.99409139476">
		<tag k="name" v="Agder fylke" />
		<tag k="ssr:date" v="2020-01-13" />
		<tag k="ssr:gruppe" v="administrativeIndelinger" />
		<tag k="ssr:hovedgruppe" v="offentligAdministrasjon" />
		<tag k="ssr:stedsnr" v="1073974" />
		<tag k="ssr:type" v="fylke" />
	</node>
	<node id="-61640" lat="58.6943127169" lon="6.66972099269">
		<tag k="name" v="Bjønndalsheie" />
		<tag k="ssr:date" v="2019-12-27" />
		<tag k="ssr:gruppe" v="veg" />
		<tag k="ssr:hovedgruppe" v="infrastruktur" />
		<tag k="ssr:stedsnr" v="1009202" />
		<tag k="ssr:type" v="adressenavn" />
	</node>
	<node id="-61639" lat="58.6380099757" lon="6.50572674241">
		<tag k="name" v="Nordgardsheie" />
		<tag k="ssr:date" v="2019-12-27" />
		<tag k="ssr:gruppe" v="veg" />
		<tag k="ssr:hovedgruppe" v="infrastruktur" />
		<tag k="ssr:stedsnr" v="1009198" />
		<tag k="ssr:type" v="adressenavn" />
	</node>
	<node id="-58690" lat="58.6651000006" lon="6.71573888309">
		<tag k="name" v="Sirdal kommune" />
		<tag k="ssr:date" v="2019-12-27" />
		<tag k="ssr:gruppe" v="administrativeIndelinger" />
		<tag k="ssr:hovedgruppe" v="offentligAdministrasjon" />
		<tag k="ssr:stedsnr" v="24288" />
		<tag k="ssr:type" v="kommune" />
	</node>
	<node id="-61612" lat="58.6756237699" lon="6.72962785122">
		<tag k="name" v="Dalevegen" />
		<tag k="ssr:date" v="2019-12-27" />
		<tag k="ssr:gruppe" v="veg" />
		<tag k="ssr:hovedgruppe" v="infrastruktur" />
		<tag k="ssr:stedsnr" v="981693" />
		<tag k="ssr:type" v="adressenavn" />
	</node>
	<node id="-60451" lat="58.7473333346" lon="6.78882500646">
		<tag k="name" v="Rosstølbakken" />
		<tag k="ssr:date" v="2019-12-27" />
		<tag k="ssr:gruppe" v="veg" />
		<tag k="ssr:hovedgruppe" v="infrastruktur" />
		<tag k="ssr:stedsnr" v="589759" />
		<tag k="ssr:type" v="vegstrekning" />
	</node>
</osm>
