<?xml version="1.0" encoding="UTF-8"?>
<osm generator="osmapis" version="0.6">
	<node id="-257950" lat="59.0421583304" lon="8.5031277727">
		<tag k="name" v="Årakskleiva" />
		<tag k="ssr:date" v="2016-05-11" />
		<tag k="ssr:gruppe" v="veg" />
		<tag k="ssr:hovedgruppe" v="infrastruktur" />
		<tag k="ssr:stedsnr" v="823529" />
		<tag k="ssr:type" v="vegstrekning" />
	</node>
	<node id="-255678" lat="59.0466749982" lon="8.50263611206">
		<tag k="name" v="Nordstøkleiva" />
		<tag k="ssr:date" v="2016-05-10" />
		<tag k="ssr:gruppe" v="veg" />
		<tag k="ssr:hovedgruppe" v="infrastruktur" />
		<tag k="ssr:stedsnr" v="155549" />
		<tag k="ssr:type" v="vegstrekning" />
	</node>
	<node id="-254511" lat="59.1679759158" lon="8.60210955918">
		<tag k="name" v="Sylvtjønnrista" />
		<tag k="ssr:date" v="2019-05-31" />
		<tag k="ssr:gruppe" v="veg" />
		<tag k="ssr:hovedgruppe" v="infrastruktur" />
		<tag k="ssr:stedsnr" v="1049952" />
		<tag k="ssr:type" v="adressenavn" />
	</node>
	<node id="-257236" lat="59.1586555556" lon="8.44662222701">
		<tag k="name" v="Borstadvegen" />
		<tag k="ssr:date" v="2016-05-10" />
		<tag k="ssr:gruppe" v="veg" />
		<tag k="ssr:hovedgruppe" v="infrastruktur" />
		<tag k="ssr:stedsnr" v="653396" />
		<tag k="ssr:type" v="vegstrekning" />
	</node>
	<node id="-257299" lat="59.1616833373" lon="8.31807222498">
		<tag k="name" v="Napvegen" />
		<tag k="ssr:date" v="2016-05-10" />
		<tag k="ssr:gruppe" v="veg" />
		<tag k="ssr:hovedgruppe" v="infrastruktur" />
		<tag k="ssr:stedsnr" v="656657" />
		<tag k="ssr:type" v="vegstrekning" />
	</node>
	<node id="-255759" lat="59.1547000016" lon="8.45717222279">
		<tag k="name" v="Gamle Fjalestadvegen" />
		<tag k="ssr:date" v="2016-05-10" />
		<tag k="ssr:gruppe" v="veg" />
		<tag k="ssr:hovedgruppe" v="infrastruktur" />
		<tag k="ssr:stedsnr" v="168093" />
		<tag k="ssr:type" v="vegstrekning" />
	</node>
	<node id="-255789" lat="59.1485472233" lon="8.35615832579">
		<tag k="name" v="Vehusvegen" />
		<tag k="ssr:date" v="2016-05-10" />
		<tag k="ssr:gruppe" v="veg" />
		<tag k="ssr:hovedgruppe" v="infrastruktur" />
		<tag k="ssr:stedsnr" v="168589" />
		<tag k="ssr:type" v="vegstrekning" />
	</node>
	<node id="-255211" lat="58.9427500018" lon="8.40752222112">
		<tag k="name" v="Stavkleiv" />
		<tag k="ssr:date" v="2016-05-10" />
		<tag k="ssr:gruppe" v="veg" />
		<tag k="ssr:hovedgruppe" v="infrastruktur" />
		<tag k="ssr:stedsnr" v="45253" />
		<tag k="ssr:type" v="vegstrekning" />
	</node>
	<node id="-255390" lat="59.0195888855" lon="8.52129443922">
		<tag k="name" v="Nissedal kommune" />
		<tag k="ssr:date" v="2016-05-10" />
		<tag k="ssr:gruppe" v="administrativeIndelinger" />
		<tag k="ssr:hovedgruppe" v="offentligAdministrasjon" />
		<tag k="ssr:stedsnr" v="85432" />
		<tag k="ssr:type" v="kommune" />
	</node>
	<node id="-256360" lat="58.8792694424" lon="8.66693610394">
		<tag k="name" v="Brursvingen" />
		<tag k="ssr:date" v="2016-05-10" />
		<tag k="ssr:gruppe" v="veg" />
		<tag k="ssr:hovedgruppe" v="infrastruktur" />
		<tag k="ssr:stedsnr" v="460174" />
		<tag k="ssr:type" v="vegstrekning" />
	</node>
	<node id="-256902" lat="59.0339277817" lon="8.51180834107">
		<tag k="name" v="Ruslislepa" />
		<tag k="ssr:date" v="2016-05-10" />
		<tag k="ssr:gruppe" v="veg" />
		<tag k="ssr:hovedgruppe" v="infrastruktur" />
		<tag k="ssr:stedsnr" v="580853" />
		<tag k="ssr:type" v="vegstrekning" />
	</node>
	<node id="-256421" lat="59.1539250012" lon="8.46108333407">
		<tag k="name" v="Torsbuvegen" />
		<tag k="ssr:date" v="2016-05-10" />
		<tag k="ssr:gruppe" v="veg" />
		<tag k="ssr:hovedgruppe" v="infrastruktur" />
		<tag k="ssr:stedsnr" v="471429" />
		<tag k="ssr:type" v="vegstrekning" />
	</node>
	<node id="-255974" lat="58.9956388875" lon="8.52934444783">
		<tag k="name" v="Nausgang" />
		<tag k="ssr:date" v="2016-05-10" />
		<tag k="ssr:gruppe" v="veg" />
		<tag k="ssr:hovedgruppe" v="infrastruktur" />
		<tag k="ssr:stedsnr" v="216947" />
		<tag k="ssr:type" v="vegstrekning" />
	</node>
	<node id="-258466" lat="60.5908609473" lon="9.63819281559">
		<tag k="fixme" v="multiple name tags, choose one and add the other to alt_name" />
		<tag k="name" v="Austlandet;Østlandet" />
		<tag k="ssr:date" v="2018-01-09" />
		<tag k="ssr:gruppe" v="administrativeIndelinger" />
		<tag k="ssr:hovedgruppe" v="offentligAdministrasjon" />
		<tag k="ssr:stedsnr" v="974775" />
		<tag k="ssr:type" v="annenAdministrativInndeling" />
	</node>
	<node id="-255298" lat="59.0354222263" lon="8.37484722445">
		<tag k="name" v="Grunntjønnvegen" />
		<tag k="ssr:date" v="2016-05-10" />
		<tag k="ssr:gruppe" v="veg" />
		<tag k="ssr:hovedgruppe" v="infrastruktur" />
		<tag k="ssr:stedsnr" v="48696" />
		<tag k="ssr:type" v="vegstrekning" />
	</node>
</osm>
