<?xml version="1.0" encoding="UTF-8"?>
<osm version="0.6" generator="osmapis">
	<node id="31672099" lat="60.8631492" lon="8.5523884" version="12" timestamp="2022-03-29T05:45:12Z" changeset="119050221" uid="3497659" user="NKA">
		<tag k="name" v="Hemsedal" />
		<tag k="name:en" v="Hemsedal" />
		<tag k="place" v="village" />
		<tag k="population" v="886" />
		<tag k="population:date" v="2021-01-01" />
		<tag k="ref:ssb_tettsted" v="2071" />
		<tag k="source:population" v="SSB - befolkning i tettstedet" />
		<tag k="ssr:stedsnr" v="630842" />
	</node>
	<node id="2354963421" lat="60.9404052" lon="8.3896815" version="3" timestamp="2022-03-29T05:45:12Z" changeset="119050221" uid="3497659" user="NKA">
		<tag k="name" v="Vente" />
		<tag k="place" v="farm" />
		<tag k="ssr:stedsnr" v="676528" />
	</node>
	<node id="2354963512" lat="60.879094" lon="8.351414" version="3" timestamp="2022-03-29T05:45:12Z" changeset="119050221" uid="3497659" user="NKA">
		<tag k="alt_name" v="Hølutn" />
		<tag k="historic" v="shieling" />
		<tag k="name" v="Holun" />
		<tag k="place" v="isolated_dwelling" />
		<tag k="ssr:stedsnr" v="858600" />
	</node>
	<node id="3662787957" lat="61.0159883" lon="8.3295921" version="2" timestamp="2022-03-29T05:45:12Z" changeset="119050221" uid="3497659" user="NKA">
		<tag k="historic" v="shieling" />
		<tag k="name" v="Kyrkjebøslette" />
		<tag k="place" v="isolated_dwelling" />
		<tag k="ssr:stedsnr" v="795738" />
	</node>
	<node id="3662947957" lat="60.9862773" lon="8.3521317" version="2" timestamp="2022-03-29T05:45:12Z" changeset="119050221" uid="3497659" user="NKA">
		<tag k="alt_name" v="Mørekvamstølen" />
		<tag k="historic" v="shieling" />
		<tag k="name" v="Mørekvam" />
		<tag k="place" v="hamlet" />
		<tag k="ssr:stedsnr" v="797566" />
	</node>
	<node id="3662947958" lat="60.9967896" lon="8.328444" version="2" timestamp="2022-03-29T05:45:12Z" changeset="119050221" uid="3497659" user="NKA">
		<tag k="historic" v="shieling" />
		<tag k="name" v="Nørdre Søtelistølane" />
		<tag k="place" v="isolated_dwelling" />
		<tag k="ssr:stedsnr" v="856735" />
	</node>
	<node id="3662947959" lat="60.990927" lon="8.3333807" version="2" timestamp="2022-03-29T05:45:12Z" changeset="119050221" uid="3497659" user="NKA">
		<tag k="alt_name" v="Søtelistølane" />
		<tag k="historic" v="shieling" />
		<tag k="name" v="Søre Søtelistølane" />
		<tag k="place" v="isolated_dwelling" />
		<tag k="ssr:stedsnr" v="129553" />
	</node>
	<node id="3662947960" lat="60.9845555" lon="8.3552361" version="2" timestamp="2022-03-29T05:45:12Z" changeset="119050221" uid="3497659" user="NKA">
		<tag k="historic" v="shieling" />
		<tag k="name" v="Trøymstølen" />
		<tag k="place" v="isolated_dwelling" />
		<tag k="ssr:stedsnr" v="554594" />
	</node>
	<node id="3776376390" lat="60.7828305" lon="8.6409555" version="2" timestamp="2022-03-29T05:45:12Z" changeset="119050221" uid="3497659" user="NKA">
		<tag k="historic" v="shieling" />
		<tag k="name" v="Sireslettane" />
		<tag k="place" v="hamlet" />
		<tag k="ssr:stedsnr" v="311040" />
	</node>
	<node id="3776376391" lat="60.778475" lon="8.6363055" version="2" timestamp="2022-03-29T05:45:12Z" changeset="119050221" uid="3497659" user="NKA">
		<tag k="historic" v="shieling" />
		<tag k="name" v="Skarsvollen" />
		<tag k="place" v="isolated_dwelling" />
		<tag k="ssr:stedsnr" v="190034" />
	</node>
	<node id="4728387493" lat="60.8645816" lon="8.7990752" version="2" timestamp="2022-03-29T05:45:12Z" changeset="119050221" uid="3497659" user="NKA">
		<tag k="historic" v="shieling" />
		<tag k="name" v="Bergastølane" />
		<tag k="place" v="isolated_dwelling" />
		<tag k="ssr:stedsnr" v="797142" />
	</node>
	<node id="7149692634" lat="60.8383879" lon="8.6248547" version="4" timestamp="2022-03-29T05:45:12Z" changeset="119050221" uid="3497659" user="NKA">
		<tag k="name" v="Svøo" />
		<tag k="place" v="quarter" />
		<tag k="population" v="593" />
		<tag k="population:date" v="2021-01-01" />
		<tag k="ref:ssb_tettsted" v="2072" />
		<tag k="source:population" v="SSB - befolkning i tettstedet" />
		<tag k="ssr:stedsnr" v="24869" />
	</node>
	<node id="8493988018" lat="60.8007584" lon="8.4973806" version="2" timestamp="2022-03-29T05:45:12Z" changeset="119050221" uid="3497659" user="NKA">
		<tag k="historic" v="shieling" />
		<tag k="name" v="Hjallestølen" />
		<tag k="place" v="isolated_dwelling" />
		<tag k="ssr:stedsnr" v="919233" />
	</node>
	<node id="8509788476" lat="60.81185" lon="8.4827416" version="2" timestamp="2022-03-29T05:45:12Z" changeset="119050221" uid="3497659" user="NKA">
		<tag k="name" v="Venebotn" />
		<tag k="place" v="isolated_dwelling" />
		<tag k="ssr:stedsnr" v="554247" />
	</node>
	<node id="9576361549" lat="60.8257642" lon="8.7799644" version="2" timestamp="2022-03-29T05:45:12Z" changeset="119050221" uid="3497659" user="NKA">
		<tag k="historic" v="shieling" />
		<tag k="name" v="Heggeruste" />
		<tag k="place" v="isolated_dwelling" />
		<tag k="ssr:stedsnr" v="494185" />
	</node>
	<node id="9576361550" lat="60.855325" lon="8.7988083" version="2" timestamp="2022-03-29T05:45:12Z" changeset="119050221" uid="3497659" user="NKA">
		<tag k="historic" v="shieling" />
		<tag k="name" v="Blomeslettane" />
		<tag k="place" v="hamlet" />
		<tag k="ssr:stedsnr" v="251161" />
	</node>
	<node id="9620020478" lat="60.8878222" lon="8.4546584" version="1" timestamp="2022-03-29T05:45:12Z" changeset="119050221" uid="3497659" user="NKA">
		<tag k="name" v="Hallen" />
		<tag k="place" v="locality" />
		<tag k="ssr:stedsnr" v="942616" />
	</node>
	<node id="9620020479" lat="60.8663861" lon="8.5203556" version="1" timestamp="2022-03-29T05:45:12Z" changeset="119050221" uid="3497659" user="NKA">
		<tag k="name" v="Nørdre Holle" />
		<tag k="place" v="farm" />
		<tag k="ssr:stedsnr" v="163942" />
	</node>
	<node id="9620020480" lat="60.8435605" lon="8.6378253" version="1" timestamp="2022-03-29T05:45:12Z" changeset="119050221" uid="3497659" user="NKA">
		<tag k="name" v="Bakko" />
		<tag k="place" v="farm" />
		<tag k="ssr:stedsnr" v="614177" />
	</node>
	<node id="9620020481" lat="60.8938101" lon="8.3200027" version="1" timestamp="2022-03-29T05:45:12Z" changeset="119050221" uid="3497659" user="NKA">
		<tag k="alt_name" v="Vestre Storeskar" />
		<tag k="name" v="Vestre Storeskard" />
		<tag k="place" v="farm" />
		<tag k="ssr:stedsnr" v="760196" />
	</node>
	<node id="9620020482" lat="60.8401379" lon="8.6537603" version="1" timestamp="2022-03-29T05:45:12Z" changeset="119050221" uid="3497659" user="NKA">
		<tag k="name" v="Søre Markegard" />
		<tag k="old_name" v="Søre Markegardan" />
		<tag k="place" v="farm" />
		<tag k="ssr:stedsnr" v="57143" />
	</node>
	<node id="9620020483" lat="60.8328817" lon="8.6042332" version="1" timestamp="2022-03-29T05:45:12Z" changeset="119050221" uid="3497659" user="NKA">
		<tag k="name" v="Rudningsmyre" />
		<tag k="place" v="farm" />
		<tag k="ssr:stedsnr" v="942957" />
	</node>
	<node id="9620020484" lat="60.9596913" lon="8.3566419" version="1" timestamp="2022-03-29T05:45:12Z" changeset="119050221" uid="3497659" user="NKA">
		<tag k="historic" v="shieling" />
		<tag k="name" v="Klypestølen" />
		<tag k="place" v="isolated_dwelling" />
		<tag k="ssr:stedsnr" v="517284" />
	</node>
	<node id="9620020485" lat="60.8554167" lon="8.6049036" version="1" timestamp="2022-03-29T05:45:12Z" changeset="119050221" uid="3497659" user="NKA">
		<tag k="name" v="Grøterud" />
		<tag k="place" v="farm" />
		<tag k="ssr:stedsnr" v="821029" />
	</node>
	<node id="9620020486" lat="60.8865204" lon="8.4485545" version="1" timestamp="2022-03-29T05:45:12Z" changeset="119050221" uid="3497659" user="NKA">
		<tag k="alt_name" v="Hovde" />
		<tag k="name" v="Hovda" />
		<tag k="place" v="farm" />
		<tag k="ssr:stedsnr" v="614583" />
	</node>
	<node id="9620020487" lat="60.8697454" lon="8.5043674" version="1" timestamp="2022-03-29T05:45:12Z" changeset="119050221" uid="3497659" user="NKA">
		<tag k="name" v="Øygarden" />
		<tag k="place" v="farm" />
		<tag k="ssr:stedsnr" v="990930" />
	</node>
	<node id="9620020488" lat="60.8523447" lon="8.6161756" version="1" timestamp="2022-03-29T05:45:12Z" changeset="119050221" uid="3497659" user="NKA">
		<tag k="name" v="Nedre Ulsåker" />
		<tag k="place" v="farm" />
		<tag k="ssr:stedsnr" v="275039" />
	</node>
	<node id="9620020489" lat="60.8888778" lon="8.4585472" version="1" timestamp="2022-03-29T05:45:12Z" changeset="119050221" uid="3497659" user="NKA">
		<tag k="name" v="Brekkheim" />
		<tag k="place" v="farm" />
		<tag k="ssr:stedsnr" v="882555" />
	</node>
	<node id="9620020490" lat="60.873075" lon="8.3619389" version="1" timestamp="2022-03-29T05:45:12Z" changeset="119050221" uid="3497659" user="NKA">
		<tag k="historic" v="shieling" />
		<tag k="name" v="Fetjo" />
		<tag k="place" v="isolated_dwelling" />
		<tag k="ssr:stedsnr" v="53619" />
	</node>
	<node id="9620020491" lat="60.8395111" lon="8.7068972" version="1" timestamp="2022-03-29T05:45:12Z" changeset="119050221" uid="3497659" user="NKA">
		<tag k="name" v="Gravset" />
		<tag k="place" v="isolated_dwelling" />
		<tag k="ssr:stedsnr" v="372195" />
	</node>
	<node id="9620020492" lat="60.842475" lon="8.639475" version="1" timestamp="2022-03-29T05:45:12Z" changeset="119050221" uid="3497659" user="NKA">
		<tag k="name" v="Nordre Grøv" />
		<tag k="place" v="farm" />
		<tag k="ssr:stedsnr" v="544540" />
	</node>
	<node id="9620020493" lat="60.8695722" lon="8.3696196" version="1" timestamp="2022-03-29T05:45:12Z" changeset="119050221" uid="3497659" user="NKA">
		<tag k="historic" v="shieling" />
		<tag k="name" v="Dokk" />
		<tag k="place" v="isolated_dwelling" />
		<tag k="ssr:stedsnr" v="736924" />
	</node>
	<node id="9620020494" lat="60.86055" lon="8.5828445" version="1" timestamp="2022-03-29T05:45:12Z" changeset="119050221" uid="3497659" user="NKA">
		<tag k="name" v="Nørdre Joleim" />
		<tag k="place" v="farm" />
		<tag k="ssr:stedsnr" v="943021" />
	</node>
	<node id="9620020495" lat="60.8335655" lon="8.6015514" version="1" timestamp="2022-03-29T05:45:12Z" changeset="119050221" uid="3497659" user="NKA">
		<tag k="name" v="Stølsmyre" />
		<tag k="place" v="farm" />
		<tag k="ssr:stedsnr" v="335963" />
	</node>
	<node id="9620020496" lat="60.8773333" lon="8.7555806" version="1" timestamp="2022-03-29T05:45:12Z" changeset="119050221" uid="3497659" user="NKA">
		<tag k="alt_name" v="Langehaugstølane" />
		<tag k="historic" v="shieling" />
		<tag k="name" v="Haugestølane" />
		<tag k="place" v="hamlet" />
		<tag k="ssr:stedsnr" v="9806" />
	</node>
	<node id="9620020497" lat="60.9204972" lon="8.4317916" version="1" timestamp="2022-03-29T05:45:12Z" changeset="119050221" uid="3497659" user="NKA">
		<tag k="historic" v="shieling" />
		<tag k="name" v="Slåtta" />
		<tag k="place" v="isolated_dwelling" />
		<tag k="ssr:stedsnr" v="882514" />
	</node>
	<node id="9620020498" lat="60.9170334" lon="8.2191527" version="1" timestamp="2022-03-29T05:45:12Z" changeset="119050221" uid="3497659" user="NKA">
		<tag k="alt_name" v="Hestehaugstølane" />
		<tag k="historic" v="shieling" />
		<tag k="name" v="Hestehaugstølen" />
		<tag k="place" v="hamlet" />
		<tag k="ssr:stedsnr" v="9602" />
	</node>
	<node id="9620020499" lat="60.8696" lon="8.3981555" version="1" timestamp="2022-03-29T05:45:12Z" changeset="119050221" uid="3497659" user="NKA">
		<tag k="name" v="Lio" />
		<tag k="place" v="hamlet" />
		<tag k="ssr:stedsnr" v="372940" />
	</node>
	<node id="9620020500" lat="60.8668305" lon="8.813625" version="1" timestamp="2022-03-29T05:45:12Z" changeset="119050221" uid="3497659" user="NKA">
		<tag k="historic" v="shieling" />
		<tag k="name" v="Brøtastølen" />
		<tag k="place" v="isolated_dwelling" />
		<tag k="ssr:stedsnr" v="275562" />
	</node>
	<node id="9620020501" lat="60.8667861" lon="8.5562862" version="1" timestamp="2022-03-29T05:45:12Z" changeset="119050221" uid="3497659" user="NKA">
		<tag k="alt_name" v="Rydningen" />
		<tag k="name" v="Rudningen" />
		<tag k="place" v="farm" />
		<tag k="ssr:stedsnr" v="943079" />
	</node>
	<node id="9620020502" lat="60.8495649" lon="8.624013" version="1" timestamp="2022-03-29T05:45:12Z" changeset="119050221" uid="3497659" user="NKA">
		<tag k="name" v="Øvre Ulsåker" />
		<tag k="place" v="farm" />
		<tag k="ssr:stedsnr" v="882652" />
	</node>
	<node id="9620020503" lat="60.8638175" lon="8.8125053" version="1" timestamp="2022-03-29T05:45:12Z" changeset="119050221" uid="3497659" user="NKA">
		<tag k="historic" v="shieling" />
		<tag k="name" v="Eikrestølane" />
		<tag k="place" v="hamlet" />
		<tag k="ssr:stedsnr" v="675180" />
	</node>
	<node id="9620020504" lat="60.8447" lon="8.7161055" version="1" timestamp="2022-03-29T05:45:12Z" changeset="119050221" uid="3497659" user="NKA">
		<tag k="alt_name" v="Vanneviken" />
		<tag k="name" v="Vanneviki" />
		<tag k="place" v="farm" />
		<tag k="ssr:stedsnr" v="8200" />
	</node>
	<node id="9620020505" lat="60.8316944" lon="8.6135918" version="1" timestamp="2022-03-29T05:45:12Z" changeset="119050221" uid="3497659" user="NKA">
		<tag k="alt_name" v="Skarstølen" />
		<tag k="name" v="Skardstølen" />
		<tag k="place" v="locality" />
		<tag k="ssr:stedsnr" v="312193" />
	</node>
	<node id="9620020506" lat="60.8471777" lon="8.761425" version="1" timestamp="2022-03-29T05:45:12Z" changeset="119050221" uid="3497659" user="NKA">
		<tag k="historic" v="shieling" />
		<tag k="name" v="Myrevollen" />
		<tag k="place" v="isolated_dwelling" />
		<tag k="ssr:stedsnr" v="858176" />
	</node>
	<node id="9620020507" lat="60.8857417" lon="8.468025" version="1" timestamp="2022-03-29T05:45:12Z" changeset="119050221" uid="3497659" user="NKA">
		<tag k="name" v="Søre Vøllo" />
		<tag k="place" v="farm" />
		<tag k="ssr:stedsnr" v="942813" />
	</node>
	<node id="9620020508" lat="60.8405917" lon="8.4511917" version="1" timestamp="2022-03-29T05:45:12Z" changeset="119050221" uid="3497659" user="NKA">
		<tag k="alt_name" v="Hollestølen, nordre" />
		<tag k="historic" v="shieling" />
		<tag k="name" v="Nordrestølen" />
		<tag k="place" v="isolated_dwelling" />
		<tag k="ssr:stedsnr" v="676919" />
	</node>
	<node id="9620020509" lat="60.8914611" lon="8.3310194" version="1" timestamp="2022-03-29T05:45:12Z" changeset="119050221" uid="3497659" user="NKA">
		<tag k="alt_name" v="Fløgastølen" />
		<tag k="historic" v="shieling" />
		<tag k="name" v="Flogastølen" />
		<tag k="place" v="isolated_dwelling" />
		<tag k="ssr:stedsnr" v="69613" />
	</node>
	<node id="9620020510" lat="60.8596143" lon="8.5859932" version="1" timestamp="2022-03-29T05:45:12Z" changeset="119050221" uid="3497659" user="NKA">
		<tag k="name" v="Joleim" />
		<tag k="place" v="hamlet" />
		<tag k="ssr:stedsnr" v="479769" />
	</node>
	<node id="9620020511" lat="60.8716472" lon="8.4415917" version="1" timestamp="2022-03-29T05:45:12Z" changeset="119050221" uid="3497659" user="NKA">
		<tag k="name" v="Nordre Venåsen" />
		<tag k="place" v="farm" />
		<tag k="ssr:stedsnr" v="638721" />
	</node>
	<node id="9620020512" lat="60.8726805" lon="8.4129999" version="1" timestamp="2022-03-29T05:45:12Z" changeset="119050221" uid="3497659" user="NKA">
		<tag k="name" v="Løvehaugen" />
		<tag k="place" v="farm" />
		<tag k="ssr:stedsnr" v="129570" />
	</node>
	<node id="9620020513" lat="60.8334138" lon="8.6682639" version="1" timestamp="2022-03-29T05:45:12Z" changeset="119050221" uid="3497659" user="NKA">
		<tag k="alt_name" v="Jodok" />
		<tag k="name" v="Jodokk" />
		<tag k="place" v="farm" />
		<tag k="ssr:stedsnr" v="433191" />
	</node>
	<node id="9620020514" lat="60.9551194" lon="8.372689" version="1" timestamp="2022-03-29T05:45:12Z" changeset="119050221" uid="3497659" user="NKA">
		<tag k="alt_name" v="Torsbue" />
		<tag k="historic" v="shieling" />
		<tag k="name" v="Torsbu" />
		<tag k="place" v="hamlet" />
		<tag k="ssr:stedsnr" v="797506" />
	</node>
	<node id="9620020515" lat="60.83515" lon="8.5904277" version="1" timestamp="2022-03-29T05:45:12Z" changeset="119050221" uid="3497659" user="NKA">
		<tag k="name" v="Jegerhaugen" />
		<tag k="place" v="isolated_dwelling" />
		<tag k="ssr:stedsnr" v="615181" />
	</node>
	<node id="9620020516" lat="60.8874653" lon="8.4614783" version="1" timestamp="2022-03-29T05:45:12Z" changeset="119050221" uid="3497659" user="NKA">
		<tag k="name" v="Vollo" />
		<tag k="place" v="hamlet" />
		<tag k="ssr:stedsnr" v="1072350" />
	</node>
	<node id="9620052017" lat="60.8784944" lon="8.7328778" version="1" timestamp="2022-03-29T05:45:12Z" changeset="119050221" uid="3497659" user="NKA">
		<tag k="historic" v="shieling" />
		<tag k="name" v="Jordestølen" />
		<tag k="place" v="isolated_dwelling" />
		<tag k="ssr:stedsnr" v="943669" />
	</node>
	<node id="9620052018" lat="60.8481084" lon="8.7530611" version="1" timestamp="2022-03-29T05:45:12Z" changeset="119050221" uid="3497659" user="NKA">
		<tag k="historic" v="shieling" />
		<tag k="name" v="Grytestølane" />
		<tag k="place" v="isolated_dwelling" />
		<tag k="ssr:stedsnr" v="736181" />
	</node>
	<node id="9620052019" lat="60.8981528" lon="8.3241333" version="1" timestamp="2022-03-29T05:45:12Z" changeset="119050221" uid="3497659" user="NKA">
		<tag k="historic" v="shieling" />
		<tag k="name" v="Sjåstadstølen" />
		<tag k="place" v="isolated_dwelling" />
		<tag k="ssr:stedsnr" v="675583" />
	</node>
	<node id="9620052020" lat="60.9583476" lon="8.3574411" version="1" timestamp="2022-03-29T05:45:12Z" changeset="119050221" uid="3497659" user="NKA">
		<tag k="historic" v="shieling" />
		<tag k="name" v="Haugastølen" />
		<tag k="place" v="isolated_dwelling" />
		<tag k="ssr:stedsnr" v="275290" />
	</node>
	<node id="9620052021" lat="60.8386139" lon="8.6158501" version="1" timestamp="2022-03-29T05:45:12Z" changeset="119050221" uid="3497659" user="NKA">
		<tag k="alt_name" v="Dokken" />
		<tag k="name" v="Dokki" />
		<tag k="place" v="farm" />
		<tag k="ssr:stedsnr" v="433196" />
	</node>
	<node id="9620052022" lat="60.8340121" lon="8.7139782" version="1" timestamp="2022-03-29T05:45:12Z" changeset="119050221" uid="3497659" user="NKA">
		<tag k="historic" v="shieling" />
		<tag k="name" v="Skoltheimstølen" />
		<tag k="place" v="isolated_dwelling" />
		<tag k="ssr:stedsnr" v="638574" />
	</node>
	<node id="9620052023" lat="60.9625916" lon="8.3512333" version="1" timestamp="2022-03-29T05:45:12Z" changeset="119050221" uid="3497659" user="NKA">
		<tag k="historic" v="shieling" />
		<tag k="name" v="Stakkestøstølen" />
		<tag k="place" v="isolated_dwelling" />
		<tag k="ssr:stedsnr" v="821303" />
	</node>
	<node id="9620052024" lat="60.8176476" lon="8.6380472" version="1" timestamp="2022-03-29T05:45:12Z" changeset="119050221" uid="3497659" user="NKA">
		<tag k="alt_name" v="Hødnset" />
		<tag k="historic" v="shieling" />
		<tag k="name" v="Hornset" />
		<tag k="place" v="hamlet" />
		<tag k="ssr:stedsnr" v="372223" />
	</node>
	<node id="9620052025" lat="60.9284333" lon="8.4253834" version="1" timestamp="2022-03-29T05:45:12Z" changeset="119050221" uid="3497659" user="NKA">
		<tag k="name" v="Træet" />
		<tag k="place" v="farm" />
		<tag k="ssr:stedsnr" v="494564" />
	</node>
	<node id="9620052026" lat="60.8682823" lon="8.5312661" version="1" timestamp="2022-03-29T05:45:12Z" changeset="119050221" uid="3497659" user="NKA">
		<tag k="name" v="Fetjo" />
		<tag k="place" v="locality" />
		<tag k="ssr:stedsnr" v="251144" />
	</node>
	<node id="9620052027" lat="60.9195472" lon="8.207175" version="1" timestamp="2022-03-29T05:45:12Z" changeset="119050221" uid="3497659" user="NKA">
		<tag k="historic" v="shieling" />
		<tag k="name" v="Geitastølen" />
		<tag k="place" v="isolated_dwelling" />
		<tag k="ssr:stedsnr" v="69643" />
	</node>
	<node id="9620052028" lat="60.934621" lon="8.3972645" version="1" timestamp="2022-03-29T05:45:12Z" changeset="119050221" uid="3497659" user="NKA">
		<tag k="historic" v="shieling" />
		<tag k="name" v="Stakkestøet" />
		<tag k="place" v="isolated_dwelling" />
		<tag k="ssr:stedsnr" v="214393" />
	</node>
	<node id="9620052029" lat="60.8536556" lon="8.7814584" version="1" timestamp="2022-03-29T05:45:12Z" changeset="119050221" uid="3497659" user="NKA">
		<tag k="historic" v="shieling" />
		<tag k="name" v="Vannevikvollen" />
		<tag k="place" v="isolated_dwelling" />
		<tag k="ssr:stedsnr" v="639749" />
	</node>
	<node id="9620052030" lat="60.9357739" lon="8.4072822" version="1" timestamp="2022-03-29T05:45:12Z" changeset="119050221" uid="3497659" user="NKA">
		<tag k="historic" v="shieling" />
		<tag k="name" v="Haugastølen" />
		<tag k="place" v="isolated_dwelling" />
		<tag k="ssr:stedsnr" v="396389" />
	</node>
	<node id="9620052031" lat="60.8441694" lon="8.6237388" version="1" timestamp="2022-03-29T05:45:12Z" changeset="119050221" uid="3497659" user="NKA">
		<tag k="name" v="Søre Grøv" />
		<tag k="place" v="farm" />
		<tag k="ssr:stedsnr" v="517522" />
	</node>
	<node id="9620052032" lat="60.969625" lon="8.6214001" version="1" timestamp="2022-03-29T05:45:12Z" changeset="119050221" uid="3497659" user="NKA">
		<tag k="name" v="Vadbakkane" />
		<tag k="place" v="locality" />
		<tag k="ssr:stedsnr" v="919737" />
	</node>
	<node id="9620052033" lat="60.8851361" lon="8.4092583" version="1" timestamp="2022-03-29T05:45:12Z" changeset="119050221" uid="3497659" user="NKA">
		<tag k="name" v="Fagerset sameie" />
		<tag k="place" v="locality" />
		<tag k="ssr:stedsnr" v="699769" />
	</node>
	<node id="9620052034" lat="60.9565944" lon="8.2910528" version="1" timestamp="2022-03-29T05:45:12Z" changeset="119050221" uid="3497659" user="NKA">
		<tag k="historic" v="shieling" />
		<tag k="name" v="Ørjanshaugstølen" />
		<tag k="place" v="isolated_dwelling" />
		<tag k="ssr:stedsnr" v="153246" />
	</node>
	<node id="9620052035" lat="60.87535" lon="8.5546916" version="1" timestamp="2022-03-29T05:45:12Z" changeset="119050221" uid="3497659" user="NKA">
		<tag k="historic" v="shieling" />
		<tag k="name" v="Kyrkjebøstølane" />
		<tag k="place" v="isolated_dwelling" />
		<tag k="ssr:stedsnr" v="737816" />
	</node>
	<node id="9620052036" lat="60.87985" lon="8.4866444" version="1" timestamp="2022-03-29T05:45:12Z" changeset="119050221" uid="3497659" user="NKA">
		<tag k="name" v="Nedre Tuv" />
		<tag k="place" v="farm" />
		<tag k="ssr:stedsnr" v="882960" />
	</node>
	<node id="9620052037" lat="60.8695445" lon="8.5552499" version="1" timestamp="2022-03-29T05:45:12Z" changeset="119050221" uid="3497659" user="NKA">
		<tag k="alt_name" v="Gjuven" />
		<tag k="name" v="Juven" />
		<tag k="place" v="farm" />
		<tag k="ssr:stedsnr" v="69134" />
	</node>
	<node id="9620052038" lat="60.8514069" lon="8.5945576" version="1" timestamp="2022-03-29T05:45:12Z" changeset="119050221" uid="3497659" user="NKA">
		<tag k="name" v="Grønåsen" />
		<tag k="place" v="locality" />
		<tag k="ssr:stedsnr" v="396901" />
	</node>
	<node id="9620052039" lat="60.8769028" lon="8.3575555" version="1" timestamp="2022-03-29T05:45:12Z" changeset="119050221" uid="3497659" user="NKA">
		<tag k="historic" v="shieling" />
		<tag k="name" v="Sjåstadstølen" />
		<tag k="place" v="isolated_dwelling" />
		<tag k="ssr:stedsnr" v="493595" />
	</node>
	<node id="9620052040" lat="60.8697556" lon="8.4379445" version="1" timestamp="2022-03-29T05:45:12Z" changeset="119050221" uid="3497659" user="NKA">
		<tag k="name" v="Bakko" />
		<tag k="place" v="farm" />
		<tag k="ssr:stedsnr" v="372936" />
	</node>
	<node id="9620052041" lat="60.81435" lon="8.7238667" version="1" timestamp="2022-03-29T05:45:12Z" changeset="119050221" uid="3497659" user="NKA">
		<tag k="name" v="Høgehaug" />
		<tag k="place" v="farm" />
		<tag k="ssr:stedsnr" v="8256" />
	</node>
	<node id="9620052042" lat="60.9547916" lon="8.2960223" version="1" timestamp="2022-03-29T05:45:12Z" changeset="119050221" uid="3497659" user="NKA">
		<tag k="historic" v="shieling" />
		<tag k="name" v="Grosetstølen" />
		<tag k="place" v="isolated_dwelling" />
		<tag k="ssr:stedsnr" v="882219" />
	</node>
	<node id="9620052043" lat="60.7821889" lon="8.6704805" version="1" timestamp="2022-03-29T05:45:12Z" changeset="119050221" uid="3497659" user="NKA">
		<tag k="historic" v="shieling" />
		<tag k="name" v="Dokkvollen" />
		<tag k="place" v="isolated_dwelling" />
		<tag k="ssr:stedsnr" v="943270" />
	</node>
	<node id="9620052044" lat="60.8832464" lon="8.8260567" version="1" timestamp="2022-03-29T05:45:12Z" changeset="119050221" uid="3497659" user="NKA">
		<tag k="name" v="Lykkjaheim" />
		<tag k="place" v="farm" />
		<tag k="ssr:stedsnr" v="700623" />
	</node>
	<node id="9620052045" lat="60.8788361" lon="8.4021861" version="1" timestamp="2022-03-29T05:45:12Z" changeset="119050221" uid="3497659" user="NKA">
		<tag k="historic" v="shieling" />
		<tag k="name" v="Øystølen" />
		<tag k="place" v="isolated_dwelling" />
		<tag k="ssr:stedsnr" v="396727" />
	</node>
	<node id="9620052046" lat="60.8679806" lon="8.5240639" version="1" timestamp="2022-03-29T05:45:12Z" changeset="119050221" uid="3497659" user="NKA">
		<tag k="name" v="Søre Holle" />
		<tag k="old_name" v="Holle;Holde;Hølle" />
		<tag k="place" v="farm" />
		<tag k="ssr:stedsnr" v="943195" />
	</node>
	<node id="9620052047" lat="60.8181833" lon="8.6636333" version="1" timestamp="2022-03-29T05:45:12Z" changeset="119050221" uid="3497659" user="NKA">
		<tag k="historic" v="shieling" />
		<tag k="name" v="Mørk" />
		<tag k="place" v="isolated_dwelling" />
		<tag k="ssr:stedsnr" v="919218" />
	</node>
	<node id="9620052048" lat="60.856149" lon="8.6062312" version="1" timestamp="2022-03-29T05:45:12Z" changeset="119050221" uid="3497659" user="NKA">
		<tag k="name" v="Grøto" />
		<tag k="place" v="hamlet" />
		<tag k="ssr:stedsnr" v="1072348" />
	</node>
	<node id="9620052049" lat="60.7799056" lon="8.7019078" version="1" timestamp="2022-03-29T05:45:12Z" changeset="119050221" uid="3497659" user="NKA">
		<tag k="historic" v="shieling" />
		<tag k="name" v="Krosstølane" />
		<tag k="old_name" v="Krosstølen" />
		<tag k="place" v="hamlet" />
		<tag k="ssr:stedsnr" v="251029" />
	</node>
	<node id="9620052050" lat="60.8792755" lon="8.4811357" version="1" timestamp="2022-03-29T05:45:12Z" changeset="119050221" uid="3497659" user="NKA">
		<tag k="name" v="Tuvshagen" />
		<tag k="place" v="farm" />
		<tag k="ssr:stedsnr" v="396775" />
	</node>
	<node id="9620052051" lat="60.8862027" lon="8.4634417" version="1" timestamp="2022-03-29T05:45:12Z" changeset="119050221" uid="3497659" user="NKA">
		<tag k="name" v="Mellom-Vøllo" />
		<tag k="place" v="farm" />
		<tag k="ssr:stedsnr" v="638816" />
	</node>
	<node id="9620052052" lat="60.8911333" lon="8.4330056" version="1" timestamp="2022-03-29T05:45:12Z" changeset="119050221" uid="3497659" user="NKA">
		<tag k="historic" v="shieling" />
		<tag k="name" v="Kollevik" />
		<tag k="place" v="isolated_dwelling" />
		<tag k="ssr:stedsnr" v="251588" />
	</node>
	<node id="9620052053" lat="60.8074666" lon="8.7572473" version="1" timestamp="2022-03-29T05:45:12Z" changeset="119050221" uid="3497659" user="NKA">
		<tag k="name" v="Gjerde" />
		<tag k="place" v="farm" />
		<tag k="ssr:stedsnr" v="191214" />
	</node>
	<node id="9620052054" lat="60.8799389" lon="8.517725" version="1" timestamp="2022-03-29T05:45:12Z" changeset="119050221" uid="3497659" user="NKA">
		<tag k="name" v="Rustehaug" />
		<tag k="place" v="farm" />
		<tag k="ssr:stedsnr" v="798786" />
	</node>
	<node id="9620052055" lat="60.8343305" lon="8.3906555" version="1" timestamp="2022-03-29T05:45:12Z" changeset="119050221" uid="3497659" user="NKA">
		<tag k="name" v="Flævassdammen" />
		<tag k="place" v="isolated_dwelling" />
		<tag k="ssr:stedsnr" v="676914" />
	</node>
	<node id="9620052056" lat="60.8565027" lon="8.5550528" version="1" timestamp="2022-03-29T05:45:12Z" changeset="119050221" uid="3497659" user="NKA">
		<tag k="name" v="Skeieøygarden" />
		<tag k="place" v="farm" />
		<tag k="ssr:stedsnr" v="517104" />
	</node>
	<node id="9620052057" lat="60.9083833" lon="8.4309833" version="1" timestamp="2022-03-29T05:45:12Z" changeset="119050221" uid="3497659" user="NKA">
		<tag k="alt_name" v="Fintoppluo" />
		<tag k="name" v="Finntoppluo" />
		<tag k="place" v="locality" />
		<tag k="ssr:stedsnr" v="638622" />
	</node>
	<node id="9620052058" lat="60.8959666" lon="8.4498195" version="1" timestamp="2022-03-29T05:45:12Z" changeset="119050221" uid="3497659" user="NKA">
		<tag k="historic" v="shieling" />
		<tag k="name" v="Teigastølen" />
		<tag k="place" v="isolated_dwelling" />
		<tag k="ssr:stedsnr" v="129565" />
	</node>
	<node id="9620052059" lat="60.8824055" lon="8.4786055" version="1" timestamp="2022-03-29T05:45:12Z" changeset="119050221" uid="3497659" user="NKA">
		<tag k="name" v="Steinsrud" />
		<tag k="place" v="farm" />
		<tag k="ssr:stedsnr" v="275801" />
	</node>
	<node id="9620052060" lat="60.8871777" lon="8.4611361" version="1" timestamp="2022-03-29T05:45:12Z" changeset="119050221" uid="3497659" user="NKA">
		<tag k="name" v="Nordre Vøllo" />
		<tag k="place" v="farm" />
		<tag k="ssr:stedsnr" v="676571" />
	</node>
	<node id="9620052061" lat="60.8755333" lon="8.4997028" version="1" timestamp="2022-03-29T05:45:12Z" changeset="119050221" uid="3497659" user="NKA">
		<tag k="name" v="Sjåstad" />
		<tag k="place" v="farm" />
		<tag k="ssr:stedsnr" v="942802" />
	</node>
	<node id="9620052062" lat="60.8854498" lon="8.4759619" version="1" timestamp="2022-03-29T05:45:12Z" changeset="119050221" uid="3497659" user="NKA">
		<tag k="name" v="Berg" />
		<tag k="place" v="farm" />
		<tag k="ssr:stedsnr" v="615820" />
	</node>
	<node id="9620052063" lat="60.8711682" lon="8.4242866" version="1" timestamp="2022-03-29T05:45:12Z" changeset="119050221" uid="3497659" user="NKA">
		<tag k="name" v="Søre Tjøstelslien" />
		<tag k="place" v="locality" />
		<tag k="ssr:stedsnr" v="981353" />
	</node>
	<node id="9620052064" lat="60.9306361" lon="8.4032223" version="1" timestamp="2022-03-29T05:45:12Z" changeset="119050221" uid="3497659" user="NKA">
		<tag k="historic" v="shieling" />
		<tag k="name" v="Stølen" />
		<tag k="place" v="isolated_dwelling" />
		<tag k="ssr:stedsnr" v="457571" />
	</node>
	<node id="9620052065" lat="60.8899611" lon="8.8066389" version="1" timestamp="2022-03-29T05:45:12Z" changeset="119050221" uid="3497659" user="NKA">
		<tag k="historic" v="shieling" />
		<tag k="name" v="Bakkestølen" />
		<tag k="place" v="isolated_dwelling" />
		<tag k="ssr:stedsnr" v="639305" />
	</node>
	<node id="9620052066" lat="60.9138305" lon="8.6759251" version="1" timestamp="2022-03-29T05:45:12Z" changeset="119050221" uid="3497659" user="NKA">
		<tag k="historic" v="shieling" />
		<tag k="name" v="Kvannegrøstølen" />
		<tag k="place" v="isolated_dwelling" />
		<tag k="ssr:stedsnr" v="797854" />
	</node>
	<node id="9620052067" lat="60.9405282" lon="8.4059003" version="1" timestamp="2022-03-29T05:45:12Z" changeset="119050221" uid="3497659" user="NKA">
		<tag k="historic" v="shieling" />
		<tag k="name" v="Lie" />
		<tag k="place" v="isolated_dwelling" />
		<tag k="ssr:stedsnr" v="275377" />
	</node>
	<node id="9620052068" lat="60.9493225" lon="8.3374095" version="1" timestamp="2022-03-29T05:45:12Z" changeset="119050221" uid="3497659" user="NKA">
		<tag k="historic" v="shieling" />
		<tag k="name" v="Haugstølen" />
		<tag k="place" v="isolated_dwelling" />
		<tag k="ssr:stedsnr" v="578279" />
	</node>
	<node id="9620052069" lat="60.8575805" lon="8.5616084" version="1" timestamp="2022-03-29T05:45:12Z" changeset="119050221" uid="3497659" user="NKA">
		<tag k="name" v="Fiskum" />
		<tag k="place" v="farm" />
		<tag k="ssr:stedsnr" v="578920" />
	</node>
	<node id="9620052070" lat="60.8832333" lon="8.4765445" version="1" timestamp="2022-03-29T05:45:12Z" changeset="119050221" uid="3497659" user="NKA">
		<tag k="name" v="Bekkestad" />
		<tag k="place" v="farm" />
		<tag k="ssr:stedsnr" v="821714" />
	</node>
	<node id="9620052071" lat="60.8406082" lon="8.6482901" version="1" timestamp="2022-03-29T05:45:12Z" changeset="119050221" uid="3497659" user="NKA">
		<tag k="alt_name" v="Ålstvedt" />
		<tag k="name" v="Ålstveit" />
		<tag k="place" v="hamlet" />
		<tag k="ssr:stedsnr" v="433180" />
	</node>
	<node id="9620052072" lat="60.9321171" lon="8.4169987" version="1" timestamp="2022-03-29T05:45:12Z" changeset="119050221" uid="3497659" user="NKA">
		<tag k="name" v="Grøndalen" />
		<tag k="place" v="hamlet" />
		<tag k="ssr:stedsnr" v="615586" />
	</node>
	<node id="9620052073" lat="60.8734767" lon="8.3975641" version="1" timestamp="2022-03-29T05:45:12Z" changeset="119050221" uid="3497659" user="NKA">
		<tag k="name" v="Bjørnebergstølen" />
		<tag k="place" v="farm" />
		<tag k="ssr:stedsnr" v="372585" />
	</node>
	<node id="9620052074" lat="60.970775" lon="8.5037084" version="1" timestamp="2022-03-29T05:45:12Z" changeset="119050221" uid="3497659" user="NKA">
		<tag k="alt_name" v="Slettene" />
		<tag k="historic" v="shieling" />
		<tag k="name" v="Slettane" />
		<tag k="place" v="isolated_dwelling" />
		<tag k="ssr:stedsnr" v="69789" />
	</node>
	<node id="9620052075" lat="60.8297889" lon="8.6763778" version="1" timestamp="2022-03-29T05:45:12Z" changeset="119050221" uid="3497659" user="NKA">
		<tag k="alt_name" v="Skolt, nedre" />
		<tag k="name" v="Nedre Skolt" />
		<tag k="place" v="farm" />
		<tag k="ssr:stedsnr" v="554205" />
	</node>
	<node id="9620052076" lat="60.8849417" lon="8.8386362" version="1" timestamp="2022-03-29T05:45:12Z" changeset="119050221" uid="3497659" user="NKA">
		<tag k="name" v="Dekko" />
		<tag k="place" v="locality" />
		<tag k="ssr:stedsnr" v="336566" />
	</node>
	<node id="9620052077" lat="60.8687722" lon="8.6891694" version="1" timestamp="2022-03-29T05:45:12Z" changeset="119050221" uid="3497659" user="NKA">
		<tag k="historic" v="shieling" />
		<tag k="name" v="Sørestølen" />
		<tag k="place" v="isolated_dwelling" />
		<tag k="ssr:stedsnr" v="457662" />
	</node>
	<node id="9620052078" lat="60.8240333" lon="8.6220888" version="1" timestamp="2022-03-29T05:45:12Z" changeset="119050221" uid="3497659" user="NKA">
		<tag k="name" v="Hornet" />
		<tag k="place" v="farm" />
		<tag k="ssr:stedsnr" v="821555" />
	</node>
	<node id="9620052079" lat="60.8879583" lon="8.8698306" version="1" timestamp="2022-03-29T05:45:12Z" changeset="119050221" uid="3497659" user="NKA">
		<tag k="historic" v="shieling" />
		<tag k="name" v="Nystølen" />
		<tag k="place" v="isolated_dwelling" />
		<tag k="ssr:stedsnr" v="494405" />
	</node>
	<node id="9620052080" lat="60.8629139" lon="8.5664611" version="1" timestamp="2022-03-29T05:45:12Z" changeset="119050221" uid="3497659" user="NKA">
		<tag k="name" v="Øvre Bråten" />
		<tag k="place" v="farm" />
		<tag k="ssr:stedsnr" v="396044" />
	</node>
	<node id="9620052081" lat="60.8745887" lon="8.7413756" version="1" timestamp="2022-03-29T05:45:12Z" changeset="119050221" uid="3497659" user="NKA">
		<tag k="historic" v="shieling" />
		<tag k="name" v="Engestølen" />
		<tag k="place" v="isolated_dwelling" />
		<tag k="ssr:stedsnr" v="882741" />
	</node>
	<node id="9620052082" lat="60.8341301" lon="8.6042106" version="1" timestamp="2022-03-29T05:45:12Z" changeset="119050221" uid="3497659" user="NKA">
		<tag k="name" v="Persstronde" />
		<tag k="place" v="farm" />
		<tag k="ssr:stedsnr" v="882946" />
	</node>
	<node id="9620052083" lat="60.8384104" lon="8.4501854" version="1" timestamp="2022-03-29T05:45:12Z" changeset="119050221" uid="3497659" user="NKA">
		<tag k="alt_name" v="Fekjavollen" />
		<tag k="historic" v="shieling" />
		<tag k="name" v="Fetjavollen" />
		<tag k="place" v="isolated_dwelling" />
		<tag k="ssr:stedsnr" v="69907" />
	</node>
	<node id="9620052084" lat="60.8826695" lon="8.7598834" version="1" timestamp="2022-03-29T05:45:12Z" changeset="119050221" uid="3497659" user="NKA">
		<tag k="historic" v="shieling" />
		<tag k="name" v="Nedrestølen" />
		<tag k="place" v="isolated_dwelling" />
		<tag k="ssr:stedsnr" v="760794" />
	</node>
	<node id="9620052085" lat="60.8300194" lon="8.6732362" version="1" timestamp="2022-03-29T05:45:12Z" changeset="119050221" uid="3497659" user="NKA">
		<tag k="name" v="Ormerud" />
		<tag k="place" v="farm" />
		<tag k="ssr:stedsnr" v="190207" />
	</node>
	<node id="9620052086" lat="60.9485819" lon="8.37681" version="1" timestamp="2022-03-29T05:45:12Z" changeset="119050221" uid="3497659" user="NKA">
		<tag k="name" v="Sletto" />
		<tag k="place" v="farm" />
		<tag k="ssr:stedsnr" v="797532" />
	</node>
	<node id="9620052087" lat="60.8792476" lon="8.4852637" version="1" timestamp="2022-03-29T05:45:12Z" changeset="119050221" uid="3497659" user="NKA">
		<tag k="name" v="Tuv" />
		<tag k="place" v="village" />
		<tag k="ssr:stedsnr" v="494803" />
	</node>
	<node id="9620052088" lat="60.9253639" lon="8.4297722" version="1" timestamp="2022-03-29T05:45:12Z" changeset="119050221" uid="3497659" user="NKA">
		<tag k="name" v="Søre Grøndalen" />
		<tag k="place" v="farm" />
		<tag k="ssr:stedsnr" v="396541" />
	</node>
	<node id="9620052089" lat="60.8320832" lon="8.6483096" version="1" timestamp="2022-03-29T05:45:12Z" changeset="119050221" uid="3497659" user="NKA">
		<tag k="name" v="Myte" />
		<tag k="place" v="hamlet" />
		<tag k="ssr:stedsnr" v="32596" />
	</node>
	<node id="9620052090" lat="60.9367179" lon="8.3996259" version="1" timestamp="2022-03-29T05:45:12Z" changeset="119050221" uid="3497659" user="NKA">
		<tag k="name" v="Snikkerhuset" />
		<tag k="place" v="farm" />
		<tag k="ssr:stedsnr" v="32377" />
	</node>
	<node id="9620052091" lat="60.8696247" lon="8.7104068" version="1" timestamp="2022-03-29T05:45:12Z" changeset="119050221" uid="3497659" user="NKA">
		<tag k="alt_name" v="Ulsåkstølane" />
		<tag k="historic" v="shieling" />
		<tag k="name" v="Ullsåkstølane" />
		<tag k="place" v="isolated_dwelling" />
		<tag k="ssr:stedsnr" v="312119" />
	</node>
	<node id="9620052092" lat="60.8754611" lon="8.7299556" version="1" timestamp="2022-03-29T05:45:12Z" changeset="119050221" uid="3497659" user="NKA">
		<tag k="historic" v="shieling" />
		<tag k="name" v="Imrestølen" />
		<tag k="place" v="isolated_dwelling" />
		<tag k="ssr:stedsnr" v="275636" />
	</node>
	<node id="9620052093" lat="60.9735888" lon="8.5253081" version="1" timestamp="2022-03-29T05:45:12Z" changeset="119050221" uid="3497659" user="NKA">
		<tag k="historic" v="shieling" />
		<tag k="name" v="Sørlie" />
		<tag k="place" v="isolated_dwelling" />
		<tag k="ssr:stedsnr" v="980999" />
	</node>
	<node id="9620052094" lat="60.8715138" lon="8.4254333" version="1" timestamp="2022-03-29T05:45:12Z" changeset="119050221" uid="3497659" user="NKA">
		<tag k="name" v="Søre Lien" />
		<tag k="place" v="farm" />
		<tag k="ssr:stedsnr" v="676926" />
	</node>
	<node id="9620052095" lat="60.8367964" lon="8.6055347" version="1" timestamp="2022-03-29T05:45:12Z" changeset="119050221" uid="3497659" user="NKA">
		<tag k="name" v="Haugen" />
		<tag k="place" v="farm" />
		<tag k="ssr:stedsnr" v="638999" />
	</node>
	<node id="9620052096" lat="60.8652906" lon="8.525946" version="1" timestamp="2022-03-29T05:45:12Z" changeset="119050221" uid="3497659" user="NKA">
		<tag k="name" v="Mølnarplassen" />
		<tag k="place" v="farm" />
		<tag k="ssr:stedsnr" v="942100" />
	</node>
	<node id="9620052097" lat="60.88525" lon="8.4712556" version="1" timestamp="2022-03-29T05:45:12Z" changeset="119050221" uid="3497659" user="NKA">
		<tag k="name" v="Teigen" />
		<tag k="place" v="farm" />
		<tag k="ssr:stedsnr" v="434801" />
	</node>
	<node id="9620052098" lat="60.8693735" lon="8.5045365" version="1" timestamp="2022-03-29T05:45:12Z" changeset="119050221" uid="3497659" user="NKA">
		<tag k="name" v="Nedre Ødegården" />
		<tag k="place" v="farm" />
		<tag k="ssr:stedsnr" v="191098" />
	</node>
	<node id="9620052099" lat="60.9032528" lon="8.4245473" version="1" timestamp="2022-03-29T05:45:12Z" changeset="119050221" uid="3497659" user="NKA">
		<tag k="historic" v="shieling" />
		<tag k="name" v="Flinkestølen" />
		<tag k="place" v="isolated_dwelling" />
		<tag k="ssr:stedsnr" v="433591" />
	</node>
	<node id="9620052100" lat="60.8449472" lon="8.7816639" version="1" timestamp="2022-03-29T05:45:12Z" changeset="119050221" uid="3497659" user="NKA">
		<tag k="historic" v="shieling" />
		<tag k="name" v="Pålvollen" />
		<tag k="place" v="isolated_dwelling" />
		<tag k="ssr:stedsnr" v="615170" />
	</node>
	<node id="9620052101" lat="60.9291084" lon="8.4511112" version="1" timestamp="2022-03-29T05:45:12Z" changeset="119050221" uid="3497659" user="NKA">
		<tag k="historic" v="shieling" />
		<tag k="name" v="Fjellstølane" />
		<tag k="place" v="isolated_dwelling" />
		<tag k="ssr:stedsnr" v="69646" />
	</node>
	<node id="9620052102" lat="60.8790194" lon="8.3504111" version="1" timestamp="2022-03-29T05:45:12Z" changeset="119050221" uid="3497659" user="NKA">
		<tag k="historic" v="shieling" />
		<tag k="name" v="Liastølen" />
		<tag k="place" v="isolated_dwelling" />
		<tag k="ssr:stedsnr" v="129577" />
	</node>
	<node id="9620052103" lat="60.8806833" lon="8.7434527" version="1" timestamp="2022-03-29T05:45:12Z" changeset="119050221" uid="3497659" user="NKA">
		<tag k="alt_name" v="Nysetstølane;Nyseterstølane" />
		<tag k="historic" v="shieling" />
		<tag k="name" v="Nyset" />
		<tag k="place" v="hamlet" />
		<tag k="ssr:stedsnr" v="882305" />
	</node>
	<node id="9620052104" lat="60.9448805" lon="8.3832834" version="1" timestamp="2022-03-29T05:45:12Z" changeset="119050221" uid="3497659" user="NKA">
		<tag k="name" v="Tubba" />
		<tag k="place" v="hamlet" />
		<tag k="ssr:stedsnr" v="129519" />
	</node>
	<node id="9620052105" lat="60.8872805" lon="8.8337501" version="1" timestamp="2022-03-29T05:45:12Z" changeset="119050221" uid="3497659" user="NKA">
		<tag k="historic" v="shieling" />
		<tag k="name" v="Bergstølslåtta" />
		<tag k="place" v="isolated_dwelling" />
		<tag k="ssr:stedsnr" v="821271" />
	</node>
	<node id="9620052106" lat="60.8755" lon="8.4549112" version="1" timestamp="2022-03-29T05:45:12Z" changeset="119050221" uid="3497659" user="NKA">
		<tag k="name" v="Venåsmyre" />
		<tag k="place" v="farm" />
		<tag k="ssr:stedsnr" v="638795" />
	</node>
	<node id="9620052107" lat="60.8508027" lon="8.5540919" version="1" timestamp="2022-03-29T05:45:12Z" changeset="119050221" uid="3497659" user="NKA">
		<tag k="alt_name" v="Fløgo" />
		<tag k="name" v="Flogo" />
		<tag k="place" v="farm" />
		<tag k="ssr:stedsnr" v="8166" />
	</node>
	<node id="9620052108" lat="60.8732028" lon="8.4173556" version="1" timestamp="2022-03-29T05:45:12Z" changeset="119050221" uid="3497659" user="NKA">
		<tag k="name" v="Flaten" />
		<tag k="place" v="farm" />
		<tag k="ssr:stedsnr" v="251606" />
	</node>
	<node id="9620052109" lat="60.8424108" lon="8.5851537" version="1" timestamp="2022-03-29T05:45:12Z" changeset="119050221" uid="3497659" user="NKA">
		<tag k="name" v="Teigen" />
		<tag k="place" v="farm" />
		<tag k="ssr:stedsnr" v="493186" />
	</node>
	<node id="9620052110" lat="60.8509444" lon="8.4799666" version="1" timestamp="2022-03-29T05:45:12Z" changeset="119050221" uid="3497659" user="NKA">
		<tag k="historic" v="shieling" />
		<tag k="name" v="Heimre Holleskardet" />
		<tag k="old_name" v="Holleskardet;Hølleskardet;Holleskaret" />
		<tag k="place" v="isolated_dwelling" />
		<tag k="ssr:stedsnr" v="69166" />
	</node>
	<node id="9620052111" lat="60.8751028" lon="8.3631556" version="1" timestamp="2022-03-29T05:45:12Z" changeset="119050221" uid="3497659" user="NKA">
		<tag k="historic" v="shieling" />
		<tag k="name" v="Husestølen" />
		<tag k="place" v="isolated_dwelling" />
		<tag k="ssr:stedsnr" v="676592" />
	</node>
	<node id="9620052112" lat="60.8421639" lon="8.4004445" version="1" timestamp="2022-03-29T05:45:12Z" changeset="119050221" uid="3497659" user="NKA">
		<tag k="alt_name" v="Halso, øvre" />
		<tag k="historic" v="shieling" />
		<tag k="name" v="Øvre Halso" />
		<tag k="place" v="hamlet" />
		<tag k="ssr:stedsnr" v="858923" />
	</node>
	<node id="9620052113" lat="60.8680834" lon="8.6675556" version="1" timestamp="2022-03-29T05:45:12Z" changeset="119050221" uid="3497659" user="NKA">
		<tag k="historic" v="shieling" />
		<tag k="name" v="Nordrestølen" />
		<tag k="place" v="isolated_dwelling" />
		<tag k="ssr:stedsnr" v="943801" />
	</node>
	<node id="9620052114" lat="60.9257277" lon="8.4116639" version="1" timestamp="2022-03-29T05:45:12Z" changeset="119050221" uid="3497659" user="NKA">
		<tag k="historic" v="shieling" />
		<tag k="name" v="Storestølen" />
		<tag k="place" v="isolated_dwelling" />
		<tag k="ssr:stedsnr" v="457560" />
	</node>
	<node id="9620052115" lat="60.8726805" lon="8.8311556" version="1" timestamp="2022-03-29T05:45:12Z" changeset="119050221" uid="3497659" user="NKA">
		<tag k="alt_name" v="Søndre Bubakken" />
		<tag k="name" v="Søre Bubakken" />
		<tag k="place" v="isolated_dwelling" />
		<tag k="ssr:stedsnr" v="578602" />
	</node>
	<node id="9620052116" lat="60.8684226" lon="8.5069158" version="1" timestamp="2022-03-29T05:45:12Z" changeset="119050221" uid="3497659" user="NKA">
		<tag k="name" v="Søre Øndredal" />
		<tag k="place" v="farm" />
		<tag k="ssr:stedsnr" v="93151" />
	</node>
	<node id="9620052117" lat="60.8499028" lon="8.6188695" version="1" timestamp="2022-03-29T05:45:12Z" changeset="119050221" uid="3497659" user="NKA">
		<tag k="name" v="Teigen" />
		<tag k="place" v="farm" />
		<tag k="ssr:stedsnr" v="214038" />
	</node>
	<node id="9620052118" lat="60.8880056" lon="8.8401167" version="1" timestamp="2022-03-29T05:45:12Z" changeset="119050221" uid="3497659" user="NKA">
		<tag k="alt_name" v="Hovedstølen" />
		<tag k="historic" v="shieling" />
		<tag k="name" v="Hovdestølen" />
		<tag k="place" v="isolated_dwelling" />
		<tag k="ssr:stedsnr" v="396254" />
	</node>
	<node id="9620052119" lat="60.9226056" lon="8.496125" version="1" timestamp="2022-03-29T05:45:12Z" changeset="119050221" uid="3497659" user="NKA">
		<tag k="historic" v="shieling" />
		<tag k="name" v="Holsteinstølen" />
		<tag k="place" v="isolated_dwelling" />
		<tag k="ssr:stedsnr" v="858863" />
	</node>
	<node id="9620052120" lat="60.8737556" lon="8.4050167" version="1" timestamp="2022-03-29T05:45:12Z" changeset="119050221" uid="3497659" user="NKA">
		<tag k="name" v="Sletten" />
		<tag k="place" v="farm" />
		<tag k="ssr:stedsnr" v="821700" />
	</node>
	<node id="9620052121" lat="60.9432916" lon="8.3743916" version="1" timestamp="2022-03-29T05:45:12Z" changeset="119050221" uid="3497659" user="NKA">
		<tag k="historic" v="shieling" />
		<tag k="name" v="Høltostølen" />
		<tag k="place" v="isolated_dwelling" />
		<tag k="ssr:stedsnr" v="275281" />
	</node>
	<node id="9620052122" lat="60.8777722" lon="8.47005" version="1" timestamp="2022-03-29T05:45:12Z" changeset="119050221" uid="3497659" user="NKA">
		<tag k="name" v="Nymoen" />
		<tag k="place" v="farm" />
		<tag k="ssr:stedsnr" v="578762" />
	</node>
	<node id="9620052123" lat="60.8828472" lon="8.8314777" version="1" timestamp="2022-03-29T05:45:12Z" changeset="119050221" uid="3497659" user="NKA">
		<tag k="name" v="Veslejordet" />
		<tag k="place" v="farm" />
		<tag k="ssr:stedsnr" v="396561" />
	</node>
	<node id="9620052124" lat="60.7986944" lon="8.6738027" version="1" timestamp="2022-03-29T05:45:12Z" changeset="119050221" uid="3497659" user="NKA">
		<tag k="alt_name" v="Gjuvestølen, nedre" />
		<tag k="name" v="Nedre Gjuvestølen" />
		<tag k="place" v="locality" />
		<tag k="ssr:stedsnr" v="494018" />
	</node>
	<node id="9620052125" lat="60.8187988" lon="8.7001276" version="1" timestamp="2022-03-29T05:45:12Z" changeset="119050221" uid="3497659" user="NKA">
		<tag k="name" v="Nedre Ålrust" />
		<tag k="place" v="farm" />
		<tag k="ssr:stedsnr" v="980789" />
	</node>
	<node id="9620052126" lat="60.9269888" lon="8.4219917" version="1" timestamp="2022-03-29T05:45:12Z" changeset="119050221" uid="3497659" user="NKA">
		<tag k="name" v="Træesmoen" />
		<tag k="place" v="farm" />
		<tag k="ssr:stedsnr" v="93515" />
	</node>
	<node id="9620052127" lat="60.8540528" lon="8.7820889" version="1" timestamp="2022-03-29T05:45:12Z" changeset="119050221" uid="3497659" user="NKA">
		<tag k="alt_name" v="Urdene" />
		<tag k="name" v="Urdin" />
		<tag k="place" v="hamlet" />
		<tag k="ssr:stedsnr" v="493184" />
	</node>
	<node id="9620052128" lat="60.8361305" lon="8.6647028" version="1" timestamp="2022-03-29T05:45:12Z" changeset="119050221" uid="3497659" user="NKA">
		<tag k="alt_name" v="Båstø" />
		<tag k="name" v="Bosstø" />
		<tag k="old_name" v="Bossto;Baadstø" />
		<tag k="place" v="farm" />
		<tag k="ssr:stedsnr" v="554206" />
	</node>
	<node id="9620052129" lat="60.8828834" lon="8.8144833" version="1" timestamp="2022-03-29T05:45:12Z" changeset="119050221" uid="3497659" user="NKA">
		<tag k="historic" v="shieling" />
		<tag k="name" v="Rustberggardlie" />
		<tag k="place" v="isolated_dwelling" />
		<tag k="ssr:stedsnr" v="93532" />
	</node>
	<node id="9620052130" lat="60.9632445" lon="8.3617777" version="1" timestamp="2022-03-29T05:45:12Z" changeset="119050221" uid="3497659" user="NKA">
		<tag k="alt_name" v="Megardsstølen" />
		<tag k="historic" v="shieling" />
		<tag k="name" v="Megardstølen" />
		<tag k="place" v="isolated_dwelling" />
		<tag k="ssr:stedsnr" v="433498" />
	</node>
	<node id="9620052131" lat="60.8869055" lon="8.8747055" version="1" timestamp="2022-03-29T05:45:12Z" changeset="119050221" uid="3497659" user="NKA">
		<tag k="historic" v="shieling" />
		<tag k="name" v="Nedrevollen" />
		<tag k="place" v="isolated_dwelling" />
		<tag k="ssr:stedsnr" v="883493" />
	</node>
	<node id="9620052132" lat="60.8659305" lon="8.558875" version="1" timestamp="2022-03-29T05:45:12Z" changeset="119050221" uid="3497659" user="NKA">
		<tag k="alt_name" v="Øvre Trøim" />
		<tag k="name" v="Øvre Trøym" />
		<tag k="place" v="farm" />
		<tag k="ssr:stedsnr" v="360152" />
	</node>
	<node id="9620052133" lat="60.8733833" lon="8.4489223" version="1" timestamp="2022-03-29T05:45:12Z" changeset="119050221" uid="3497659" user="NKA">
		<tag k="name" v="Nordre Venåsen" />
		<tag k="place" v="farm" />
		<tag k="ssr:stedsnr" v="882764" />
	</node>
	<node id="9620052134" lat="60.8614756" lon="8.5724804" version="1" timestamp="2022-03-29T05:45:12Z" changeset="119050221" uid="3497659" user="NKA">
		<tag k="name" v="Imre" />
		<tag k="place" v="farm" />
		<tag k="ssr:stedsnr" v="1072349" />
	</node>
	<node id="9620052135" lat="60.9459" lon="8.4447973" version="1" timestamp="2022-03-29T05:45:12Z" changeset="119050221" uid="3497659" user="NKA">
		<tag k="name" v="Oset" />
		<tag k="place" v="hamlet" />
		<tag k="ssr:stedsnr" v="919525" />
	</node>
	<node id="9620052136" lat="60.8463313" lon="8.6269803" version="1" timestamp="2022-03-29T05:45:12Z" changeset="119050221" uid="3497659" user="NKA">
		<tag k="alt_name" v="Øvre Løken" />
		<tag k="name" v="Løken" />
		<tag k="place" v="hamlet" />
		<tag k="ssr:stedsnr" v="251189" />
	</node>
	<node id="9620052137" lat="60.8442053" lon="8.6350389" version="1" timestamp="2022-03-29T05:45:12Z" changeset="119050221" uid="3497659" user="NKA">
		<tag k="alt_name" v="Intilhus;Intelhus;Bakko" />
		<tag k="name" v="Inntilhus" />
		<tag k="old_name" v="Bakkann;Inntilhusbakko" />
		<tag k="place" v="farm" />
		<tag k="ssr:stedsnr" v="223194" />
	</node>
	<node id="9620052138" lat="60.8602305" lon="8.584975" version="1" timestamp="2022-03-29T05:45:12Z" changeset="119050221" uid="3497659" user="NKA">
		<tag k="name" v="Jordet" />
		<tag k="place" v="farm" />
		<tag k="ssr:stedsnr" v="797145" />
	</node>
	<node id="9620052139" lat="60.8703278" lon="8.5003472" version="1" timestamp="2022-03-29T05:45:12Z" changeset="119050221" uid="3497659" user="NKA">
		<tag k="name" v="Øen" />
		<tag k="place" v="farm" />
		<tag k="ssr:stedsnr" v="882733" />
	</node>
	<node id="9620052140" lat="60.883725" lon="8.829336" version="1" timestamp="2022-03-29T05:45:12Z" changeset="119050221" uid="3497659" user="NKA">
		<tag k="name" v="Hagen" />
		<tag k="place" v="farm" />
		<tag k="ssr:stedsnr" v="275581" />
	</node>
	<node id="9620052141" lat="60.9316917" lon="8.4479444" version="1" timestamp="2022-03-29T05:45:12Z" changeset="119050221" uid="3497659" user="NKA">
		<tag k="historic" v="shieling" />
		<tag k="name" v="Dekkostølen" />
		<tag k="place" v="isolated_dwelling" />
		<tag k="ssr:stedsnr" v="32378" />
	</node>
	<node id="9620052142" lat="60.861625" lon="8.5763999" version="1" timestamp="2022-03-29T05:45:12Z" changeset="119050221" uid="3497659" user="NKA">
		<tag k="name" v="Nygard" />
		<tag k="place" v="farm" />
		<tag k="ssr:stedsnr" v="736151" />
	</node>
	<node id="9620052143" lat="60.876775" lon="8.738825" version="1" timestamp="2022-03-29T05:45:12Z" changeset="119050221" uid="3497659" user="NKA">
		<tag k="historic" v="shieling" />
		<tag k="name" v="Nilsongårdstølen" />
		<tag k="place" v="isolated_dwelling" />
		<tag k="ssr:stedsnr" v="275635" />
	</node>
	<node id="9620052144" lat="60.8412556" lon="8.7687333" version="1" timestamp="2022-03-29T05:45:12Z" changeset="119050221" uid="3497659" user="NKA">
		<tag k="historic" v="shieling" />
		<tag k="name" v="Bekkestølen" />
		<tag k="place" v="isolated_dwelling" />
		<tag k="ssr:stedsnr" v="918212" />
	</node>
	<node id="9620052145" lat="60.9311302" lon="8.4207676" version="1" timestamp="2022-03-29T05:45:12Z" changeset="119050221" uid="3497659" user="NKA">
		<tag k="name" v="Sygarden" />
		<tag k="place" v="farm" />
		<tag k="ssr:stedsnr" v="699392" />
	</node>
	<node id="9620052146" lat="60.836015" lon="8.6339841" version="1" timestamp="2022-03-29T05:45:12Z" changeset="119050221" uid="3497659" user="NKA">
		<tag k="name" v="Hensrud" />
		<tag k="place" v="locality" />
		<tag k="ssr:stedsnr" v="858206" />
	</node>
	<node id="9620052147" lat="60.8088528" lon="8.7315" version="1" timestamp="2022-03-29T05:45:12Z" changeset="119050221" uid="3497659" user="NKA">
		<tag k="name" v="Hagen" />
		<tag k="place" v="farm" />
		<tag k="ssr:stedsnr" v="919226" />
	</node>
	<node id="9620052148" lat="60.8775543" lon="8.4985494" version="1" timestamp="2022-03-29T05:45:12Z" changeset="119050221" uid="3497659" user="NKA">
		<tag k="name" v="Hustad" />
		<tag k="place" v="hamlet" />
		<tag k="ssr:stedsnr" v="477357" />
	</node>
	<node id="9620052149" lat="60.9336889" lon="8.437986" version="1" timestamp="2022-03-29T05:45:12Z" changeset="119050221" uid="3497659" user="NKA">
		<tag k="historic" v="shieling" />
		<tag k="name" v="Ragnhildset" />
		<tag k="place" v="isolated_dwelling" />
		<tag k="ssr:stedsnr" v="191561" />
	</node>
	<node id="9620052150" lat="60.8693369" lon="8.5070782" version="1" timestamp="2022-03-29T05:45:12Z" changeset="119050221" uid="3497659" user="NKA">
		<tag k="loc_name" v="Ondredal" />
		<tag k="name" v="Øndredal" />
		<tag k="place" v="hamlet" />
		<tag k="ssr:stedsnr" v="9098" />
	</node>
	<node id="9620052151" lat="60.8627744" lon="8.5149379" version="1" timestamp="2022-03-29T05:45:12Z" changeset="119050221" uid="3497659" user="NKA">
		<tag k="name" v="Hollemoen" />
		<tag k="place" v="locality" />
		<tag k="ssr:stedsnr" v="93091" />
	</node>
	<node id="9620052152" lat="60.8062361" lon="8.7364694" version="1" timestamp="2022-03-29T05:45:12Z" changeset="119050221" uid="3497659" user="NKA">
		<tag k="name" v="Eikregardane" />
		<tag k="place" v="hamlet" />
		<tag k="ssr:stedsnr" v="676226" />
	</node>
	<node id="9620052153" lat="60.8705583" lon="8.3540473" version="1" timestamp="2022-03-29T05:45:12Z" changeset="119050221" uid="3497659" user="NKA">
		<tag k="historic" v="shieling" />
		<tag k="name" v="Nystølen" />
		<tag k="place" v="isolated_dwelling" />
		<tag k="ssr:stedsnr" v="699174" />
	</node>
	<node id="9620052154" lat="60.8733528" lon="8.4979834" version="1" timestamp="2022-03-29T05:45:12Z" changeset="119050221" uid="3497659" user="NKA">
		<tag k="name" v="Haugo" />
		<tag k="place" v="farm" />
		<tag k="ssr:stedsnr" v="275779" />
	</node>
	<node id="9620052155" lat="60.9178611" lon="8.4369528" version="1" timestamp="2022-03-29T05:45:12Z" changeset="119050221" uid="3497659" user="NKA">
		<tag k="historic" v="shieling" />
		<tag k="name" v="Helgeset" />
		<tag k="place" v="isolated_dwelling" />
		<tag k="ssr:stedsnr" v="554661" />
	</node>
	<node id="9620052156" lat="60.9046951" lon="8.3018499" version="1" timestamp="2022-03-29T05:45:12Z" changeset="119050221" uid="3497659" user="NKA">
		<tag k="historic" v="shieling" />
		<tag k="name" v="Rundgjerde" />
		<tag k="place" v="isolated_dwelling" />
		<tag k="ssr:stedsnr" v="760191" />
	</node>
	<node id="9620052157" lat="60.8068194" lon="8.7307862" version="1" timestamp="2022-03-29T05:45:12Z" changeset="119050221" uid="3497659" user="NKA">
		<tag k="name" v="Fjellstad" />
		<tag k="place" v="farm" />
		<tag k="ssr:stedsnr" v="214464" />
	</node>
	<node id="9620052158" lat="60.9156445" lon="8.2295889" version="1" timestamp="2022-03-29T05:45:12Z" changeset="119050221" uid="3497659" user="NKA">
		<tag k="historic" v="shieling" />
		<tag k="name" v="Resastølen" />
		<tag k="place" v="isolated_dwelling" />
		<tag k="ssr:stedsnr" v="737598" />
	</node>
	<node id="9620052159" lat="60.922375" lon="8.4281083" version="1" timestamp="2022-03-29T05:45:12Z" changeset="119050221" uid="3497659" user="NKA">
		<tag k="historic" v="shieling" />
		<tag k="name" v="Vårstølen" />
		<tag k="place" v="isolated_dwelling" />
		<tag k="ssr:stedsnr" v="882517" />
	</node>
	<node id="9620052160" lat="60.8869167" lon="8.7775389" version="1" timestamp="2022-03-29T05:45:12Z" changeset="119050221" uid="3497659" user="NKA">
		<tag k="historic" v="shieling" />
		<tag k="name" v="Grøvstølen" />
		<tag k="place" v="isolated_dwelling" />
		<tag k="ssr:stedsnr" v="858846" />
	</node>
	<node id="9620052161" lat="60.8826639" lon="8.3374528" version="1" timestamp="2022-03-29T05:45:12Z" changeset="119050221" uid="3497659" user="NKA">
		<tag k="historic" v="shieling" />
		<tag k="name" v="Sjåheimvollen" />
		<tag k="place" v="isolated_dwelling" />
		<tag k="ssr:stedsnr" v="251585" />
	</node>
	<node id="9620052162" lat="60.847306" lon="8.6259855" version="1" timestamp="2022-03-29T05:45:12Z" changeset="119050221" uid="3497659" user="NKA">
		<tag k="name" v="Øvre Løken" />
		<tag k="place" v="farm" />
		<tag k="ssr:stedsnr" v="981110" />
	</node>
	<node id="9620052163" lat="60.8685417" lon="8.5293306" version="1" timestamp="2022-03-29T05:45:12Z" changeset="119050221" uid="3497659" user="NKA">
		<tag k="alt_name" v="Fekene;Fekjene;Nordre Fekene" />
		<tag k="name" v="Nørdre Fetjo" />
		<tag k="place" v="farm" />
		<tag k="ssr:stedsnr" v="467924" />
	</node>
	<node id="9620052164" lat="60.878475" lon="8.8033056" version="1" timestamp="2022-03-29T05:45:12Z" changeset="119050221" uid="3497659" user="NKA">
		<tag k="historic" v="shieling" />
		<tag k="name" v="Bubakkstølen" />
		<tag k="place" v="isolated_dwelling" />
		<tag k="ssr:stedsnr" v="919795" />
	</node>
	<node id="9620052165" lat="60.9497305" lon="8.353425" version="1" timestamp="2022-03-29T05:45:12Z" changeset="119050221" uid="3497659" user="NKA">
		<tag k="alt_name" v="Fekjastølen" />
		<tag k="historic" v="shieling" />
		<tag k="name" v="Fetjastølen" />
		<tag k="place" v="hamlet" />
		<tag k="ssr:stedsnr" v="919536" />
	</node>
	<node id="9620052166" lat="60.8486222" lon="8.6270639" version="1" timestamp="2022-03-29T05:45:12Z" changeset="119050221" uid="3497659" user="NKA">
		<tag k="historic" v="shieling" />
		<tag k="name" v="Bakkerud" />
		<tag k="place" v="isolated_dwelling" />
		<tag k="ssr:stedsnr" v="93573" />
	</node>
	<node id="9620052167" lat="60.8541889" lon="8.5745056" version="1" timestamp="2022-03-29T05:45:12Z" changeset="119050221" uid="3497659" user="NKA">
		<tag k="name" v="Skruvedokk" />
		<tag k="place" v="isolated_dwelling" />
		<tag k="ssr:stedsnr" v="517922" />
	</node>
	<node id="9620052168" lat="60.8764625" lon="8.733532" version="1" timestamp="2022-03-29T05:45:12Z" changeset="119050221" uid="3497659" user="NKA">
		<tag k="historic" v="shieling" />
		<tag k="name" v="Joleimsstølane" />
		<tag k="old_name" v="Jolheimstølann;Jordheimstølane" />
		<tag k="place" v="isolated_dwelling" />
		<tag k="ssr:stedsnr" v="600232" />
	</node>
	<node id="9620052169" lat="60.8158583" lon="8.6965195" version="1" timestamp="2022-03-29T05:45:12Z" changeset="119050221" uid="3497659" user="NKA">
		<tag k="loc_name" v="Pålhuso" />
		<tag k="name" v="Pålhus" />
		<tag k="place" v="isolated_dwelling" />
		<tag k="ssr:stedsnr" v="312222" />
	</node>
	<node id="9620052170" lat="60.8376194" lon="8.6518806" version="1" timestamp="2022-03-29T05:45:12Z" changeset="119050221" uid="3497659" user="NKA">
		<tag k="name" v="Langehaug" />
		<tag k="place" v="farm" />
		<tag k="ssr:stedsnr" v="918225" />
	</node>
	<node id="9620052171" lat="60.8677611" lon="8.3791361" version="1" timestamp="2022-03-29T05:45:12Z" changeset="119050221" uid="3497659" user="NKA">
		<tag k="historic" v="shieling" />
		<tag k="name" v="Nordre Lauset" />
		<tag k="place" v="isolated_dwelling" />
		<tag k="ssr:stedsnr" v="457185" />
	</node>
	<node id="9620052172" lat="60.8054278" lon="8.5045833" version="1" timestamp="2022-03-29T05:45:12Z" changeset="119050221" uid="3497659" user="NKA">
		<tag k="name" v="Driftehytta" />
		<tag k="place" v="isolated_dwelling" />
		<tag k="ssr:stedsnr" v="737218" />
	</node>
	<node id="9620052173" lat="60.8408972" lon="8.4669584" version="1" timestamp="2022-03-29T05:45:12Z" changeset="119050221" uid="3497659" user="NKA">
		<tag k="historic" v="shieling" />
		<tag k="name" v="Sprikevollen" />
		<tag k="place" v="isolated_dwelling" />
		<tag k="ssr:stedsnr" v="153648" />
	</node>
	<node id="9620052174" lat="60.857053" lon="8.5581053" version="1" timestamp="2022-03-29T05:45:12Z" changeset="119050221" uid="3497659" user="NKA">
		<tag k="alt_name" v="Bråten;Nyork" />
		<tag k="name" v="Snikkarbråten" />
		<tag k="old_name" v="Snedkerbråten" />
		<tag k="place" v="hamlet" />
		<tag k="ssr:stedsnr" v="176160" />
	</node>
	<node id="9620052175" lat="60.9246" lon="8.4307111" version="1" timestamp="2022-03-29T05:45:12Z" changeset="119050221" uid="3497659" user="NKA">
		<tag k="name" v="Mellomdokken" />
		<tag k="place" v="locality" />
		<tag k="ssr:stedsnr" v="578556" />
	</node>
	<node id="9620052176" lat="60.9050084" lon="8.4252" version="1" timestamp="2022-03-29T05:45:12Z" changeset="119050221" uid="3497659" user="NKA">
		<tag k="historic" v="shieling" />
		<tag k="name" v="Bjørnebergstølen" />
		<tag k="place" v="isolated_dwelling" />
		<tag k="ssr:stedsnr" v="614620" />
	</node>
	<node id="9620052177" lat="60.9347889" lon="8.4523946" version="1" timestamp="2022-03-29T05:45:12Z" changeset="119050221" uid="3497659" user="NKA">
		<tag k="name" v="Klanten" />
		<tag k="place" v="hamlet" />
		<tag k="ssr:stedsnr" v="809135" />
	</node>
	<node id="9620052178" lat="60.8671889" lon="8.4338361" version="1" timestamp="2022-03-29T05:45:12Z" changeset="119050221" uid="3497659" user="NKA">
		<tag k="historic" v="shieling" />
		<tag k="name" v="Venåsstølane" />
		<tag k="place" v="isolated_dwelling" />
		<tag k="ssr:stedsnr" v="433927" />
	</node>
	<node id="9620052179" lat="60.887025" lon="8.8791584" version="1" timestamp="2022-03-29T05:45:12Z" changeset="119050221" uid="3497659" user="NKA">
		<tag k="historic" v="shieling" />
		<tag k="name" v="Sørevollen" />
		<tag k="place" v="isolated_dwelling" />
		<tag k="ssr:stedsnr" v="70398" />
	</node>
	<node id="9620052180" lat="60.9041349" lon="8.297836" version="1" timestamp="2022-03-29T05:45:12Z" changeset="119050221" uid="3497659" user="NKA">
		<tag k="historic" v="shieling" />
		<tag k="name" v="Øndredalstølen" />
		<tag k="place" v="isolated_dwelling" />
		<tag k="ssr:stedsnr" v="638171" />
	</node>
	<node id="9620052181" lat="60.8646111" lon="8.3792834" version="1" timestamp="2022-03-29T05:45:12Z" changeset="119050221" uid="3497659" user="NKA">
		<tag k="historic" v="shieling" />
		<tag k="name" v="Skriustølane" />
		<tag k="place" v="isolated_dwelling" />
		<tag k="ssr:stedsnr" v="129935" />
	</node>
	<node id="9620052182" lat="60.8444417" lon="8.4497695" version="1" timestamp="2022-03-29T05:45:12Z" changeset="119050221" uid="3497659" user="NKA">
		<tag k="name" v="Nybuvollen" />
		<tag k="place" v="isolated_dwelling" />
		<tag k="ssr:stedsnr" v="919899" />
	</node>
	<node id="9620052183" lat="60.8794333" lon="8.4788167" version="1" timestamp="2022-03-29T05:45:12Z" changeset="119050221" uid="3497659" user="NKA">
		<tag k="name" v="Bergheim" />
		<tag k="place" v="farm" />
		<tag k="ssr:stedsnr" v="32776" />
	</node>
	<node id="9620052184" lat="60.8769417" lon="8.7292749" version="1" timestamp="2022-03-29T05:45:12Z" changeset="119050221" uid="3497659" user="NKA">
		<tag k="historic" v="shieling" />
		<tag k="name" v="Joleimsstølen" />
		<tag k="old_name" v="Jordheim" />
		<tag k="place" v="isolated_dwelling" />
		<tag k="ssr:stedsnr" v="251855" />
	</node>
	<node id="9620052185" lat="60.8739826" lon="8.4527869" version="1" timestamp="2022-03-29T05:45:12Z" changeset="119050221" uid="3497659" user="NKA">
		<tag k="alt_name" v="Søre Venåsen" />
		<tag k="name" v="Venåsen" />
		<tag k="place" v="hamlet" />
		<tag k="ssr:stedsnr" v="433558" />
	</node>
	<node id="9620052186" lat="60.8804288" lon="8.5286128" version="1" timestamp="2022-03-29T05:45:12Z" changeset="119050221" uid="3497659" user="NKA">
		<tag k="name" v="Finnsetbotn" />
		<tag k="place" v="locality" />
		<tag k="ssr:stedsnr" v="798787" />
	</node>
	<node id="9620052187" lat="60.8961361" lon="8.4249695" version="1" timestamp="2022-03-29T05:45:12Z" changeset="119050221" uid="3497659" user="NKA">
		<tag k="historic" v="shieling" />
		<tag k="name" v="Fagerset" />
		<tag k="place" v="hamlet" />
		<tag k="ssr:stedsnr" v="797586" />
	</node>
	<node id="9620052188" lat="60.8429322" lon="8.6173164" version="1" timestamp="2022-03-29T05:45:12Z" changeset="119050221" uid="3497659" user="NKA">
		<tag k="name" v="Prestegårdshus" />
		<tag k="old_name" v="Prestegådshus" />
		<tag k="place" v="farm" />
		<tag k="ssr:stedsnr" v="275992" />
	</node>
	<node id="9620052189" lat="60.8793444" lon="8.3603778" version="1" timestamp="2022-03-29T05:45:12Z" changeset="119050221" uid="3497659" user="NKA">
		<tag k="historic" v="shieling" />
		<tag k="name" v="Fuglehaugen" />
		<tag k="place" v="isolated_dwelling" />
		<tag k="ssr:stedsnr" v="858599" />
	</node>
	<node id="9620052190" lat="60.9306611" lon="8.4222722" version="1" timestamp="2022-03-29T05:45:12Z" changeset="119050221" uid="3497659" user="NKA">
		<tag k="name" v="Søpågarden" />
		<tag k="place" v="farm" />
		<tag k="ssr:stedsnr" v="32511" />
	</node>
	<node id="9620052191" lat="60.846425" lon="8.790125" version="1" timestamp="2022-03-29T05:45:12Z" changeset="119050221" uid="3497659" user="NKA">
		<tag k="alt_name" v="Mørkenvollen" />
		<tag k="historic" v="shieling" />
		<tag k="name" v="Mørkevollen" />
		<tag k="place" v="isolated_dwelling" />
		<tag k="ssr:stedsnr" v="736202" />
	</node>
	<node id="9620052192" lat="60.9095472" lon="8.438375" version="1" timestamp="2022-03-29T05:45:12Z" changeset="119050221" uid="3497659" user="NKA">
		<tag k="historic" v="shieling" />
		<tag k="name" v="Vårstølen" />
		<tag k="place" v="isolated_dwelling" />
		<tag k="ssr:stedsnr" v="396546" />
	</node>
	<node id="9620052193" lat="60.8833668" lon="8.8297955" version="1" timestamp="2022-03-29T05:45:12Z" changeset="119050221" uid="3497659" user="NKA">
		<tag k="name" v="Lykkja" />
		<tag k="place" v="quarter" />
		<tag k="ssr:stedsnr" v="874570" />
	</node>
	<node id="9620052194" lat="60.8498195" lon="8.6214084" version="1" timestamp="2022-03-29T05:45:12Z" changeset="119050221" uid="3497659" user="NKA">
		<tag k="name" v="Nordre Ulsåker" />
		<tag k="place" v="farm" />
		<tag k="ssr:stedsnr" v="882640" />
	</node>
	<node id="9620052195" lat="60.8827528" lon="8.4995195" version="1" timestamp="2022-03-29T05:45:12Z" changeset="119050221" uid="3497659" user="NKA">
		<tag k="name" v="Søre Hulbak" />
		<tag k="place" v="farm" />
		<tag k="ssr:stedsnr" v="69854" />
	</node>
	<node id="9620052196" lat="60.7902333" lon="8.716875" version="1" timestamp="2022-03-29T05:45:12Z" changeset="119050221" uid="3497659" user="NKA">
		<tag k="name" v="Vestreengi" />
		<tag k="place" v="farm" />
		<tag k="ssr:stedsnr" v="943318" />
	</node>
	<node id="9620052197" lat="60.9062765" lon="8.2913428" version="1" timestamp="2022-03-29T05:45:12Z" changeset="119050221" uid="3497659" user="NKA">
		<tag k="historic" v="shieling" />
		<tag k="name" v="Hustadstølen" />
		<tag k="place" v="isolated_dwelling" />
		<tag k="ssr:stedsnr" v="32153" />
	</node>
	<node id="9620052198" lat="60.838497" lon="8.5966421" version="1" timestamp="2022-03-29T05:45:12Z" changeset="119050221" uid="3497659" user="NKA">
		<tag k="name" v="Nedre Torset" />
		<tag k="place" v="farm" />
		<tag k="ssr:stedsnr" v="638974" />
	</node>
	<node id="9620052199" lat="60.9796667" lon="8.5749944" version="1" timestamp="2022-03-29T05:45:12Z" changeset="119050221" uid="3497659" user="NKA">
		<tag k="historic" v="shieling" />
		<tag k="name" v="Hulbakstølen" />
		<tag k="old_name" v="Ulsåkstølen" />
		<tag k="place" v="isolated_dwelling" />
		<tag k="ssr:stedsnr" v="919742" />
	</node>
	<node id="9620052200" lat="60.8854194" lon="8.7895445" version="1" timestamp="2022-03-29T05:45:12Z" changeset="119050221" uid="3497659" user="NKA">
		<tag k="historic" v="shieling" />
		<tag k="name" v="Jonsstølane" />
		<tag k="place" v="isolated_dwelling" />
		<tag k="ssr:stedsnr" v="676822" />
	</node>
	<node id="9620052201" lat="60.867671" lon="8.52258" version="1" timestamp="2022-03-29T05:45:12Z" changeset="119050221" uid="3497659" user="NKA">
		<tag k="name" v="Holle" />
		<tag k="place" v="hamlet" />
		<tag k="ssr:stedsnr" v="103141" />
	</node>
	<node id="9620052202" lat="60.8887833" lon="8.813125" version="1" timestamp="2022-03-29T05:45:12Z" changeset="119050221" uid="3497659" user="NKA">
		<tag k="historic" v="shieling" />
		<tag k="name" v="Grøvergardstølen" />
		<tag k="place" v="isolated_dwelling" />
		<tag k="ssr:stedsnr" v="761503" />
	</node>
	<node id="9620052203" lat="60.8643333" lon="8.7193" version="1" timestamp="2022-03-29T05:45:12Z" changeset="119050221" uid="3497659" user="NKA">
		<tag k="historic" v="shieling" />
		<tag k="name" v="Grøtestølane" />
		<tag k="place" v="isolated_dwelling" />
		<tag k="ssr:stedsnr" v="311199" />
	</node>
	<node id="9620052204" lat="60.8760187" lon="8.5249764" version="1" timestamp="2022-03-29T05:45:12Z" changeset="119050221" uid="3497659" user="NKA">
		<tag k="name" v="Finnset" />
		<tag k="place" v="hamlet" />
		<tag k="ssr:stedsnr" v="676817" />
	</node>
	<node id="9620052205" lat="60.8983556" lon="8.2623527" version="1" timestamp="2022-03-29T05:45:12Z" changeset="119050221" uid="3497659" user="NKA">
		<tag k="historic" v="shieling" />
		<tag k="name" v="Støytestølen" />
		<tag k="place" v="isolated_dwelling" />
		<tag k="ssr:stedsnr" v="493614" />
	</node>
	<node id="9620052206" lat="60.9398872" lon="8.3939041" version="1" timestamp="2022-03-29T05:45:12Z" changeset="119050221" uid="3497659" user="NKA">
		<tag k="name" v="Søre Hjelmen" />
		<tag k="place" v="farm" />
		<tag k="ssr:stedsnr" v="8547" />
	</node>
	<node id="9620052207" lat="60.8766" lon="8.4523445" version="1" timestamp="2022-03-29T05:45:12Z" changeset="119050221" uid="3497659" user="NKA">
		<tag k="name" v="Sjåheim" />
		<tag k="place" v="farm" />
		<tag k="ssr:stedsnr" v="311608" />
	</node>
	<node id="9620052208" lat="60.7814639" lon="8.6694638" version="1" timestamp="2022-03-29T05:45:12Z" changeset="119050221" uid="3497659" user="NKA">
		<tag k="historic" v="shieling" />
		<tag k="name" v="Rudningsvollen" />
		<tag k="place" v="isolated_dwelling" />
		<tag k="ssr:stedsnr" v="518249" />
	</node>
	<node id="9620052209" lat="60.8415523" lon="8.5890104" version="1" timestamp="2022-03-29T05:45:12Z" changeset="119050221" uid="3497659" user="NKA">
		<tag k="alt_name" v="Torset" />
		<tag k="name" v="Nordre Torset" />
		<tag k="place" v="farm" />
		<tag k="ssr:stedsnr" v="675208" />
	</node>
	<node id="9620052210" lat="60.8647222" lon="8.6868501" version="1" timestamp="2022-03-29T05:45:12Z" changeset="119050221" uid="3497659" user="NKA">
		<tag k="historic" v="shieling" />
		<tag k="name" v="Vebjørnstølen" />
		<tag k="place" v="isolated_dwelling" />
		<tag k="ssr:stedsnr" v="578706" />
	</node>
	<node id="9620052211" lat="60.8856194" lon="8.7703222" version="1" timestamp="2022-03-29T05:45:12Z" changeset="119050221" uid="3497659" user="NKA">
		<tag k="historic" v="shieling" />
		<tag k="name" v="Storestølen" />
		<tag k="place" v="isolated_dwelling" />
		<tag k="ssr:stedsnr" v="858844" />
	</node>
	<node id="9620052212" lat="60.8544167" lon="8.411625" version="1" timestamp="2022-03-29T05:45:12Z" changeset="119050221" uid="3497659" user="NKA">
		<tag k="alt_name" v="Halso, nedre" />
		<tag k="historic" v="shieling" />
		<tag k="name" v="Nedre Halso" />
		<tag k="place" v="isolated_dwelling" />
		<tag k="ssr:stedsnr" v="433914" />
	</node>
	<node id="9620052213" lat="60.8490138" lon="8.6219191" version="1" timestamp="2022-03-29T05:45:12Z" changeset="119050221" uid="3497659" user="NKA">
		<tag k="name" v="Huso" />
		<tag k="place" v="farm" />
		<tag k="ssr:stedsnr" v="980975" />
	</node>
	<node id="9620052214" lat="60.8405972" lon="8.45355" version="1" timestamp="2022-03-29T05:45:12Z" changeset="119050221" uid="3497659" user="NKA">
		<tag k="historic" v="shieling" />
		<tag k="name" v="Dokkstølen" />
		<tag k="place" v="isolated_dwelling" />
		<tag k="ssr:stedsnr" v="129919" />
	</node>
	<node id="9620052215" lat="60.88255" lon="8.4885305" version="1" timestamp="2022-03-29T05:45:12Z" changeset="119050221" uid="3497659" user="NKA">
		<tag k="alt_name" v="Søre Brandvoll" />
		<tag k="name" v="Søre Brandvol" />
		<tag k="place" v="farm" />
		<tag k="ssr:stedsnr" v="161895" />
	</node>
	<node id="9620052216" lat="60.8833376" lon="8.8453579" version="1" timestamp="2022-03-29T05:45:12Z" changeset="119050221" uid="3497659" user="NKA">
		<tag k="alt_name" v="Løkken" />
		<tag k="name" v="Lykkja" />
		<tag k="place" v="farm" />
		<tag k="ssr:stedsnr" v="396554" />
	</node>
	<node id="9620052217" lat="60.875225" lon="8.7206779" version="1" timestamp="2022-03-29T05:45:12Z" changeset="119050221" uid="3497659" user="NKA">
		<tag k="historic" v="shieling" />
		<tag k="name" v="Høgestølen" />
		<tag k="place" v="isolated_dwelling" />
		<tag k="ssr:stedsnr" v="676804" />
	</node>
	<node id="9620052218" lat="60.8824028" lon="8.7783667" version="1" timestamp="2022-03-29T05:45:12Z" changeset="119050221" uid="3497659" user="NKA">
		<tag k="historic" v="shieling" />
		<tag k="name" v="Slettostølen" />
		<tag k="place" v="isolated_dwelling" />
		<tag k="ssr:stedsnr" v="639811" />
	</node>
	<node id="9620052219" lat="60.783625" lon="8.6483527" version="1" timestamp="2022-03-29T05:45:12Z" changeset="119050221" uid="3497659" user="NKA">
		<tag k="historic" v="shieling" />
		<tag k="name" v="Hovdestølen" />
		<tag k="place" v="isolated_dwelling" />
		<tag k="ssr:stedsnr" v="214217" />
	</node>
	<node id="9620052220" lat="60.88105" lon="8.833625" version="1" timestamp="2022-03-29T05:45:12Z" changeset="119050221" uid="3497659" user="NKA">
		<tag k="name" v="Haugen" />
		<tag k="place" v="farm" />
		<tag k="ssr:stedsnr" v="130098" />
	</node>
	<node id="9620052221" lat="60.8369534" lon="8.6009008" version="1" timestamp="2022-03-29T05:45:12Z" changeset="119050221" uid="3497659" user="NKA">
		<tag k="alt_name" v="Rydningen" />
		<tag k="name" v="Rudningen" />
		<tag k="place" v="farm" />
		<tag k="ssr:stedsnr" v="736215" />
	</node>
	<node id="9620052222" lat="60.9564944" lon="8.2910528" version="1" timestamp="2022-03-29T05:45:12Z" changeset="119050221" uid="3497659" user="NKA">
		<tag k="historic" v="shieling" />
		<tag k="name" v="Anderdalstølen" />
		<tag k="place" v="isolated_dwelling" />
		<tag k="ssr:stedsnr" v="517229" />
	</node>
	<node id="9620052223" lat="60.8757608" lon="8.5243708" version="1" timestamp="2022-03-29T05:45:12Z" changeset="119050221" uid="3497659" user="NKA">
		<tag k="alt_name" v="Søre Finset" />
		<tag k="name" v="Søre Finnset" />
		<tag k="place" v="farm" />
		<tag k="ssr:stedsnr" v="182206" />
	</node>
	<node id="9620052224" lat="60.9112528" lon="8.234139" version="1" timestamp="2022-03-29T05:45:12Z" changeset="119050221" uid="3497659" user="NKA">
		<tag k="historic" v="shieling" />
		<tag k="name" v="Viljugreinstølen" />
		<tag k="place" v="isolated_dwelling" />
		<tag k="ssr:stedsnr" v="372608" />
	</node>
	<node id="9620052225" lat="60.844925" lon="8.628011" version="1" timestamp="2022-03-29T05:45:12Z" changeset="119050221" uid="3497659" user="NKA">
		<tag k="name" v="Nedre Løken" />
		<tag k="place" v="farm" />
		<tag k="ssr:stedsnr" v="93680" />
	</node>
	<node id="9620052226" lat="60.8482139" lon="8.4388306" version="1" timestamp="2022-03-29T05:45:12Z" changeset="119050221" uid="3497659" user="NKA">
		<tag k="historic" v="shieling" />
		<tag k="name" v="Mølnarplasstølen" />
		<tag k="place" v="isolated_dwelling" />
		<tag k="ssr:stedsnr" v="554930" />
	</node>
	<node id="9620052227" lat="60.856575" lon="8.5796278" version="1" timestamp="2022-03-29T05:45:12Z" changeset="119050221" uid="3497659" user="NKA">
		<tag k="name" v="Solstad" />
		<tag k="place" v="farm" />
		<tag k="ssr:stedsnr" v="918157" />
	</node>
	<node id="9620052228" lat="61.0267" lon="8.316539" version="1" timestamp="2022-03-29T05:45:12Z" changeset="119050221" uid="3497659" user="NKA">
		<tag k="historic" v="shieling" />
		<tag k="name" v="Kljåstølen" />
		<tag k="place" v="isolated_dwelling" />
		<tag k="ssr:stedsnr" v="67659" />
	</node>
	<node id="9620052229" lat="60.8055722" lon="8.7407305" version="1" timestamp="2022-03-29T05:45:12Z" changeset="119050221" uid="3497659" user="NKA">
		<tag k="name" v="Medgarden" />
		<tag k="place" v="farm" />
		<tag k="ssr:stedsnr" v="312228" />
	</node>
	<node id="9620052230" lat="60.8806611" lon="8.8450501" version="1" timestamp="2022-03-29T05:45:12Z" changeset="119050221" uid="3497659" user="NKA">
		<tag k="name" v="Bergo" />
		<tag k="place" v="farm" />
		<tag k="ssr:stedsnr" v="373436" />
	</node>
	<node id="9620052231" lat="60.8831528" lon="8.4979222" version="1" timestamp="2022-03-29T05:45:12Z" changeset="119050221" uid="3497659" user="NKA">
		<tag k="name" v="Nordre Hulbak" />
		<tag k="place" v="farm" />
		<tag k="ssr:stedsnr" v="32908" />
	</node>
	<node id="9620052232" lat="60.8722861" lon="8.4995751" version="1" timestamp="2022-03-29T05:45:12Z" changeset="119050221" uid="3497659" user="NKA">
		<tag k="name" v="Haugen" />
		<tag k="place" v="farm" />
		<tag k="ssr:stedsnr" v="312104" />
	</node>
	<node id="9620052233" lat="60.8281055" lon="8.68015" version="1" timestamp="2022-03-29T05:45:12Z" changeset="119050221" uid="3497659" user="NKA">
		<tag k="alt_name" v="Dokken" />
		<tag k="name" v="Dokki" />
		<tag k="place" v="hamlet" />
		<tag k="ssr:stedsnr" v="312210" />
	</node>
	<node id="9620052234" lat="60.9554444" lon="8.2936779" version="1" timestamp="2022-03-29T05:45:12Z" changeset="119050221" uid="3497659" user="NKA">
		<tag k="historic" v="shieling" />
		<tag k="name" v="Træesstølen" />
		<tag k="place" v="isolated_dwelling" />
		<tag k="ssr:stedsnr" v="760254" />
	</node>
	<node id="9620052235" lat="60.8910472" lon="8.4190999" version="1" timestamp="2022-03-29T05:45:12Z" changeset="119050221" uid="3497659" user="NKA">
		<tag k="historic" v="shieling" />
		<tag k="name" v="Storestølane" />
		<tag k="place" v="isolated_dwelling" />
		<tag k="ssr:stedsnr" v="821655" />
	</node>
	<node id="9620052236" lat="60.8577631" lon="8.6006557" version="1" timestamp="2022-03-29T05:45:12Z" changeset="119050221" uid="3497659" user="NKA">
		<tag k="name" v="Nordre Grøte" />
		<tag k="place" v="farm" />
		<tag k="ssr:stedsnr" v="93034" />
	</node>
	<node id="9620052237" lat="60.8999473" lon="8.2703695" version="1" timestamp="2022-03-29T05:45:12Z" changeset="119050221" uid="3497659" user="NKA">
		<tag k="alt_name" v="Bakkestøl" />
		<tag k="historic" v="shieling" />
		<tag k="name" v="Bakkestølen" />
		<tag k="place" v="isolated_dwelling" />
		<tag k="ssr:stedsnr" v="858640" />
	</node>
	<node id="9620052238" lat="60.8671639" lon="8.5226944" version="1" timestamp="2022-03-29T05:45:12Z" changeset="119050221" uid="3497659" user="NKA">
		<tag k="name" v="Hollvin" />
		<tag k="place" v="farm" />
		<tag k="ssr:stedsnr" v="32060" />
	</node>
	<node id="9620052239" lat="60.8498" lon="8.7827528" version="1" timestamp="2022-03-29T05:45:12Z" changeset="119050221" uid="3497659" user="NKA">
		<tag k="historic" v="shieling" />
		<tag k="name" v="Hovdestølen" />
		<tag k="place" v="isolated_dwelling" />
		<tag k="ssr:stedsnr" v="797174" />
	</node>
	<node id="9620052240" lat="60.8989889" lon="8.2643862" version="1" timestamp="2022-03-29T05:45:12Z" changeset="119050221" uid="3497659" user="NKA">
		<tag k="historic" v="shieling" />
		<tag k="name" v="Hallestølen" />
		<tag k="place" v="isolated_dwelling" />
		<tag k="ssr:stedsnr" v="396233" />
	</node>
	<node id="9620052241" lat="60.877325" lon="8.4986639" version="1" timestamp="2022-03-29T05:45:12Z" changeset="119050221" uid="3497659" user="NKA">
		<tag k="name" v="Søre Hustad" />
		<tag k="place" v="farm" />
		<tag k="ssr:stedsnr" v="737823" />
	</node>
	<node id="9620052242" lat="60.8626732" lon="8.5207793" version="1" timestamp="2022-03-29T05:45:12Z" changeset="119050221" uid="3497659" user="NKA">
		<tag k="name" v="Haugen" />
		<tag k="place" v="farm" />
		<tag k="ssr:stedsnr" v="760117" />
	</node>
	<node id="9620052243" lat="60.8862639" lon="8.8067583" version="1" timestamp="2022-03-29T05:45:12Z" changeset="119050221" uid="3497659" user="NKA">
		<tag k="historic" v="shieling" />
		<tag k="name" v="Nedrestølen" />
		<tag k="place" v="isolated_dwelling" />
		<tag k="ssr:stedsnr" v="882532" />
	</node>
	<node id="9620052244" lat="60.90875" lon="8.4374833" version="1" timestamp="2022-03-29T05:45:12Z" changeset="119050221" uid="3497659" user="NKA">
		<tag k="historic" v="shieling" />
		<tag k="name" v="Bergastølen" />
		<tag k="place" v="isolated_dwelling" />
		<tag k="ssr:stedsnr" v="69660" />
	</node>
	<node id="9620052245" lat="60.8831472" lon="8.8485361" version="1" timestamp="2022-03-29T05:45:12Z" changeset="119050221" uid="3497659" user="NKA">
		<tag k="name" v="Søre Løkken" />
		<tag k="place" v="farm" />
		<tag k="ssr:stedsnr" v="93512" />
	</node>
	<node id="9620052246" lat="60.7853584" lon="8.6521667" version="1" timestamp="2022-03-29T05:45:12Z" changeset="119050221" uid="3497659" user="NKA">
		<tag k="historic" v="shieling" />
		<tag k="name" v="Leinestølen" />
		<tag k="place" v="isolated_dwelling" />
		<tag k="ssr:stedsnr" v="275217" />
	</node>
	<node id="9620052247" lat="60.8735143" lon="8.4138762" version="1" timestamp="2022-03-29T05:45:12Z" changeset="119050221" uid="3497659" user="NKA">
		<tag k="name" v="Tjøstelslien" />
		<tag k="place" v="farm" />
		<tag k="ssr:stedsnr" v="981283" />
	</node>
	<node id="9620052248" lat="60.8786889" lon="8.4947555" version="1" timestamp="2022-03-29T05:45:12Z" changeset="119050221" uid="3497659" user="NKA">
		<tag k="name" v="Rese" />
		<tag k="place" v="farm" />
		<tag k="ssr:stedsnr" v="676813" />
	</node>
	<node id="9620052249" lat="60.817925" lon="8.6347195" version="1" timestamp="2022-03-29T05:45:12Z" changeset="119050221" uid="3497659" user="NKA">
		<tag k="historic" v="shieling" />
		<tag k="name" v="Høgavollen" />
		<tag k="place" v="isolated_dwelling" />
		<tag k="ssr:stedsnr" v="335598" />
	</node>
	<node id="9620052250" lat="60.8833306" lon="8.7601862" version="1" timestamp="2022-03-29T05:45:12Z" changeset="119050221" uid="3497659" user="NKA">
		<tag k="historic" v="shieling" />
		<tag k="name" v="Steinstølen" />
		<tag k="place" v="isolated_dwelling" />
		<tag k="ssr:stedsnr" v="700800" />
	</node>
	<node id="9620052251" lat="60.8477214" lon="8.5553429" version="1" timestamp="2022-03-29T05:45:12Z" changeset="119050221" uid="3497659" user="NKA">
		<tag k="historic" v="shieling" />
		<tag k="name" v="Martestølen" />
		<tag k="place" v="isolated_dwelling" />
		<tag k="ssr:stedsnr" v="517107" />
	</node>
	<node id="9620052252" lat="60.9042028" lon="8.2961944" version="1" timestamp="2022-03-29T05:45:12Z" changeset="119050221" uid="3497659" user="NKA">
		<tag k="alt_name" v="Ershovd" />
		<tag k="historic" v="shieling" />
		<tag k="name" v="Ershovdstølane" />
		<tag k="old_name" v="Ershovdstølan" />
		<tag k="place" v="hamlet" />
		<tag k="ssr:stedsnr" v="8636" />
	</node>
	<node id="9620052253" lat="60.9316677" lon="8.3990725" version="1" timestamp="2022-03-29T05:45:12Z" changeset="119050221" uid="3497659" user="NKA">
		<tag k="historic" v="shieling" />
		<tag k="name" v="Kvelve" />
		<tag k="place" v="isolated_dwelling" />
		<tag k="ssr:stedsnr" v="396384" />
	</node>
	<node id="9620052254" lat="60.8427333" lon="8.7666501" version="1" timestamp="2022-03-29T05:45:12Z" changeset="119050221" uid="3497659" user="NKA">
		<tag k="alt_name" v="Dokki seter" />
		<tag k="historic" v="shieling" />
		<tag k="name" v="Dokki" />
		<tag k="place" v="hamlet" />
		<tag k="ssr:stedsnr" v="554200" />
	</node>
	<node id="9620052255" lat="60.9352849" lon="8.4021352" version="1" timestamp="2022-03-29T05:45:12Z" changeset="119050221" uid="3497659" user="NKA">
		<tag k="historic" v="shieling" />
		<tag k="name" v="Myrebuluo" />
		<tag k="place" v="isolated_dwelling" />
		<tag k="ssr:stedsnr" v="882370" />
	</node>
	<node id="9620052256" lat="60.808325" lon="8.7495251" version="1" timestamp="2022-03-29T05:45:12Z" changeset="119050221" uid="3497659" user="NKA">
		<tag k="name" v="Huso" />
		<tag k="place" v="farm" />
		<tag k="ssr:stedsnr" v="69240" />
	</node>
	<node id="9620052257" lat="60.9500039" lon="8.3387619" version="1" timestamp="2022-03-29T05:45:12Z" changeset="119050221" uid="3497659" user="NKA">
		<tag k="historic" v="shieling" />
		<tag k="name" v="Krossleino" />
		<tag k="place" v="isolated_dwelling" />
		<tag k="ssr:stedsnr" v="676536" />
	</node>
	<node id="9620052258" lat="60.8406722" lon="8.4491916" version="1" timestamp="2022-03-29T05:45:12Z" changeset="119050221" uid="3497659" user="NKA">
		<tag k="historic" v="shieling" />
		<tag k="name" v="Haugavollen" />
		<tag k="place" v="isolated_dwelling" />
		<tag k="ssr:stedsnr" v="275603" />
	</node>
	<node id="9620052259" lat="60.8709401" lon="8.550133" version="1" timestamp="2022-03-29T05:45:12Z" changeset="119050221" uid="3497659" user="NKA">
		<tag k="name" v="Kyrkjebøen" />
		<tag k="place" v="hamlet" />
		<tag k="ssr:stedsnr" v="434111" />
	</node>
	<node id="9620052260" lat="60.8780778" lon="8.3549417" version="1" timestamp="2022-03-29T05:45:12Z" changeset="119050221" uid="3497659" user="NKA">
		<tag k="historic" v="shieling" />
		<tag k="name" v="Øygardstølen" />
		<tag k="place" v="isolated_dwelling" />
		<tag k="ssr:stedsnr" v="676589" />
	</node>
	<node id="9620052261" lat="60.8708722" lon="8.4218779" version="1" timestamp="2022-03-29T05:45:12Z" changeset="119050221" uid="3497659" user="NKA">
		<tag k="name" v="Lien" />
		<tag k="place" v="farm" />
		<tag k="ssr:stedsnr" v="129926" />
	</node>
	<node id="9620052262" lat="60.8681417" lon="8.5340223" version="1" timestamp="2022-03-29T05:45:12Z" changeset="119050221" uid="3497659" user="NKA">
		<tag k="alt_name" v="Fekene;Fekjene;Søre Fekene" />
		<tag k="name" v="Søre Fetjo" />
		<tag k="place" v="farm" />
		<tag k="ssr:stedsnr" v="275151" />
	</node>
	<node id="9620052263" lat="60.8737086" lon="8.4074692" version="1" timestamp="2022-03-29T05:45:12Z" changeset="119050221" uid="3497659" user="NKA">
		<tag k="name" v="Nørdre Tjøstelslien" />
		<tag k="place" v="locality" />
		<tag k="ssr:stedsnr" v="554614" />
	</node>
	<node id="9620052264" lat="60.8879445" lon="8.8258584" version="1" timestamp="2022-03-29T05:45:12Z" changeset="119050221" uid="3497659" user="NKA">
		<tag k="historic" v="shieling" />
		<tag k="name" v="Natteluteigen" />
		<tag k="place" v="isolated_dwelling" />
		<tag k="ssr:stedsnr" v="518295" />
	</node>
	<node id="9620052265" lat="60.8933917" lon="8.3269693" version="1" timestamp="2022-03-29T05:45:12Z" changeset="119050221" uid="3497659" user="NKA">
		<tag k="alt_name" v="Storeskar Fjellstue" />
		<tag k="historic" v="shieling" />
		<tag k="name" v="Storeskard" />
		<tag k="place" v="isolated_dwelling" />
		<tag k="ssr:stedsnr" v="675581" />
	</node>
	<node id="9620052266" lat="60.840655" lon="8.653201" version="1" timestamp="2022-03-29T05:45:12Z" changeset="119050221" uid="3497659" user="NKA">
		<tag k="name" v="Markegard" />
		<tag k="place" v="hamlet" />
		<tag k="ssr:stedsnr" v="251197" />
	</node>
	<node id="9620052267" lat="60.8470777" lon="8.761425" version="1" timestamp="2022-03-29T05:45:12Z" changeset="119050221" uid="3497659" user="NKA">
		<tag k="historic" v="shieling" />
		<tag k="name" v="Bakkevollen" />
		<tag k="place" v="isolated_dwelling" />
		<tag k="ssr:stedsnr" v="154781" />
	</node>
	<node id="9620052268" lat="60.8546139" lon="8.66225" version="1" timestamp="2022-03-29T05:45:12Z" changeset="119050221" uid="3497659" user="NKA">
		<tag k="historic" v="shieling" />
		<tag k="name" v="Livstølen" />
		<tag k="place" v="isolated_dwelling" />
		<tag k="ssr:stedsnr" v="760720" />
	</node>
	<node id="9620052269" lat="60.925409" lon="8.435007" version="1" timestamp="2022-03-29T05:45:12Z" changeset="119050221" uid="3497659" user="NKA">
		<tag k="name" v="Groset" />
		<tag k="place" v="farm" />
		<tag k="ssr:stedsnr" v="69634" />
	</node>
	<node id="9620052270" lat="60.8477389" lon="8.4429139" version="1" timestamp="2022-03-29T05:45:12Z" changeset="119050221" uid="3497659" user="NKA">
		<tag k="historic" v="shieling" />
		<tag k="name" v="Hollestølen" />
		<tag k="place" v="hamlet" />
		<tag k="ssr:stedsnr" v="190922" />
	</node>
	<node id="9620052271" lat="60.868664" lon="8.5569752" version="1" timestamp="2022-03-29T05:45:12Z" changeset="119050221" uid="3497659" user="NKA">
		<tag k="name" v="Kven" />
		<tag k="place" v="farm" />
		<tag k="ssr:stedsnr" v="335064" />
	</node>
	<node id="9620052272" lat="60.79225" lon="8.6600278" version="1" timestamp="2022-03-29T05:45:12Z" changeset="119050221" uid="3497659" user="NKA">
		<tag k="historic" v="shieling" />
		<tag k="name" v="Gjuvestølane" />
		<tag k="place" v="isolated_dwelling" />
		<tag k="ssr:stedsnr" v="615013" />
	</node>
	<node id="9620052273" lat="60.8699194" lon="8.4300667" version="1" timestamp="2022-03-29T05:45:12Z" changeset="119050221" uid="3497659" user="NKA">
		<tag k="alt_name" v="Skjøyten" />
		<tag k="name" v="Skøyten" />
		<tag k="place" v="farm" />
		<tag k="ssr:stedsnr" v="942760" />
	</node>
	<node id="9620052274" lat="60.8863056" lon="8.5031777" version="1" timestamp="2022-03-29T05:45:12Z" changeset="119050221" uid="3497659" user="NKA">
		<tag k="alt_name" v="Hulebakstølen" />
		<tag k="historic" v="shieling" />
		<tag k="name" v="Hulbakstølen" />
		<tag k="place" v="isolated_dwelling" />
		<tag k="ssr:stedsnr" v="798791" />
	</node>
	<node id="9620052275" lat="60.8749414" lon="8.4968418" version="1" timestamp="2022-03-29T05:45:12Z" changeset="119050221" uid="3497659" user="NKA">
		<tag k="name" v="Purkestad" />
		<tag k="place" v="farm" />
		<tag k="ssr:stedsnr" v="434783" />
	</node>
	<node id="9620052276" lat="60.8823243" lon="8.853343" version="1" timestamp="2022-03-29T05:45:12Z" changeset="119050221" uid="3497659" user="NKA">
		<tag k="alt_name" v="Lykkja, s;Søre Løkken" />
		<tag k="name" v="Søre Lykkja" />
		<tag k="place" v="farm" />
		<tag k="ssr:stedsnr" v="373437" />
	</node>
	<node id="9620052277" lat="60.8392907" lon="8.6100064" version="1" timestamp="2022-03-29T05:45:12Z" changeset="119050221" uid="3497659" user="NKA">
		<tag k="name" v="Endredokk" />
		<tag k="place" v="farm" />
		<tag k="ssr:stedsnr" v="942987" />
	</node>
	<node id="9620052278" lat="60.8788131" lon="8.4589855" version="1" timestamp="2022-03-29T05:45:12Z" changeset="119050221" uid="3497659" user="NKA">
		<tag k="name" v="Reiarsletten" />
		<tag k="place" v="farm" />
		<tag k="ssr:stedsnr" v="32789" />
	</node>
	<node id="9620052279" lat="60.8820305" lon="8.7400055" version="1" timestamp="2022-03-29T05:45:12Z" changeset="119050221" uid="3497659" user="NKA">
		<tag k="historic" v="shieling" />
		<tag k="name" v="Nygardsstølen" />
		<tag k="place" v="isolated_dwelling" />
		<tag k="ssr:stedsnr" v="312790" />
	</node>
	<node id="9620052280" lat="60.7860805" lon="8.6800389" version="1" timestamp="2022-03-29T05:45:12Z" changeset="119050221" uid="3497659" user="NKA">
		<tag k="alt_name" v="Nedrestølane" />
		<tag k="name" v="Nedrestølen" />
		<tag k="place" v="locality" />
		<tag k="ssr:stedsnr" v="493011" />
	</node>
	<node id="9620052281" lat="60.8894278" lon="8.804939" version="1" timestamp="2022-03-29T05:45:12Z" changeset="119050221" uid="3497659" user="NKA">
		<tag k="historic" v="shieling" />
		<tag k="name" v="Jordevollen" />
		<tag k="place" v="isolated_dwelling" />
		<tag k="ssr:stedsnr" v="943308" />
	</node>
	<node id="9620052282" lat="60.8772222" lon="8.4580444" version="1" timestamp="2022-03-29T05:45:12Z" changeset="119050221" uid="3497659" user="NKA">
		<tag k="name" v="Sletthaug" />
		<tag k="place" v="farm" />
		<tag k="ssr:stedsnr" v="821816" />
	</node>
	<node id="9620052283" lat="60.8605521" lon="8.5894949" version="1" timestamp="2022-03-29T05:45:12Z" changeset="119050221" uid="3497659" user="NKA">
		<tag k="alt_name" v="Joleim" />
		<tag k="name" v="Vesle Joleim" />
		<tag k="place" v="farm" />
		<tag k="ssr:stedsnr" v="357206" />
	</node>
	<node id="9620052284" lat="60.8410032" lon="8.5907484" version="1" timestamp="2022-03-29T05:45:12Z" changeset="119050221" uid="3497659" user="NKA">
		<tag k="name" v="Torset" />
		<tag k="place" v="hamlet" />
		<tag k="ssr:stedsnr" v="1072346" />
	</node>
	<node id="9620052285" lat="60.77725" lon="8.7269751" version="1" timestamp="2022-03-29T05:45:12Z" changeset="119050221" uid="3497659" user="NKA">
		<tag k="name" v="Brennhovdbråten" />
		<tag k="place" v="isolated_dwelling" />
		<tag k="ssr:stedsnr" v="736038" />
	</node>
	<node id="9620052286" lat="60.8338877" lon="8.6040745" version="1" timestamp="2022-03-29T05:45:12Z" changeset="119050221" uid="3497659" user="NKA">
		<tag k="name" v="Nybuslette" />
		<tag k="place" v="farm" />
		<tag k="ssr:stedsnr" v="396953" />
	</node>
	<node id="9620052287" lat="60.8082306" lon="8.6716445" version="1" timestamp="2022-03-29T05:45:12Z" changeset="119050221" uid="3497659" user="NKA">
		<tag k="name" v="Søre Hjelmen" />
		<tag k="place" v="farm" />
		<tag k="ssr:stedsnr" v="275561" />
	</node>
	<node id="9620052288" lat="60.8092556" lon="8.6709194" version="1" timestamp="2022-03-29T05:45:12Z" changeset="119050221" uid="3497659" user="NKA">
		<tag k="name" v="Hjelmen" />
		<tag k="place" v="hamlet" />
		<tag k="ssr:stedsnr" v="9199" />
	</node>
	<node id="9620052289" lat="60.8774694" lon="8.4614861" version="1" timestamp="2022-03-29T05:45:12Z" changeset="119050221" uid="3497659" user="NKA">
		<tag k="name" v="Støyten" />
		<tag k="place" v="farm" />
		<tag k="ssr:stedsnr" v="153839" />
	</node>
	<node id="9620052290" lat="60.8798555" lon="8.7608445" version="1" timestamp="2022-03-29T05:45:12Z" changeset="119050221" uid="3497659" user="NKA">
		<tag k="alt_name" v="Båstøstølen" />
		<tag k="historic" v="shieling" />
		<tag k="name" v="Bosstøstølen" />
		<tag k="place" v="isolated_dwelling" />
		<tag k="ssr:stedsnr" v="434772" />
	</node>
	<node id="9620052291" lat="60.838706" lon="8.6050951" version="1" timestamp="2022-03-29T05:45:12Z" changeset="119050221" uid="3497659" user="NKA">
		<tag k="name" v="Skarstad" />
		<tag k="place" v="farm" />
		<tag k="ssr:stedsnr" v="760991" />
	</node>
	<node id="9620052292" lat="60.7868111" lon="8.735989" version="1" timestamp="2022-03-29T05:45:12Z" changeset="119050221" uid="3497659" user="NKA">
		<tag k="name" v="Olaugbu" />
		<tag k="place" v="isolated_dwelling" />
		<tag k="ssr:stedsnr" v="129008" />
	</node>
	<node id="9620052293" lat="60.8818611" lon="8.4856556" version="1" timestamp="2022-03-29T05:45:12Z" changeset="119050221" uid="3497659" user="NKA">
		<tag k="name" v="Nedre Bakke" />
		<tag k="place" v="farm" />
		<tag k="ssr:stedsnr" v="699806" />
	</node>
	<node id="9620052294" lat="60.8798639" lon="8.5136195" version="1" timestamp="2022-03-29T05:45:12Z" changeset="119050221" uid="3497659" user="NKA">
		<tag k="name" v="Rusto" />
		<tag k="place" v="farm" />
		<tag k="ssr:stedsnr" v="9815" />
	</node>
	<node id="9620052295" lat="60.8412543" lon="8.4502603" version="1" timestamp="2022-03-29T05:45:12Z" changeset="119050221" uid="3497659" user="NKA">
		<tag k="historic" v="shieling" />
		<tag k="name" v="Holleskardet" />
		<tag k="place" v="hamlet" />
		<tag k="ssr:stedsnr" v="981248" />
	</node>
	<node id="9620052296" lat="60.8832972" lon="8.8230334" version="1" timestamp="2022-03-29T05:45:12Z" changeset="119050221" uid="3497659" user="NKA">
		<tag k="name" v="Bakko" />
		<tag k="place" v="farm" />
		<tag k="ssr:stedsnr" v="859398" />
	</node>
	<node id="9620052297" lat="60.8667583" lon="8.6873834" version="1" timestamp="2022-03-29T05:45:12Z" changeset="119050221" uid="3497659" user="NKA">
		<tag k="historic" v="shieling" />
		<tag k="name" v="Bakkovollen" />
		<tag k="place" v="isolated_dwelling" />
		<tag k="ssr:stedsnr" v="336662" />
	</node>
	<node id="9620052298" lat="60.8193728" lon="8.7037718" version="1" timestamp="2022-03-29T05:45:12Z" changeset="119050221" uid="3497659" user="NKA">
		<tag k="name" v="Ålrust" />
		<tag k="place" v="hamlet" />
		<tag k="ssr:stedsnr" v="736240" />
	</node>
	<node id="9620052299" lat="60.9530472" lon="8.2914417" version="1" timestamp="2022-03-29T05:45:12Z" changeset="119050221" uid="3497659" user="NKA">
		<tag k="historic" v="shieling" />
		<tag k="name" v="Bulie" />
		<tag k="old_name" v="Bulia" />
		<tag k="place" v="hamlet" />
		<tag k="ssr:stedsnr" v="494482" />
	</node>
	<node id="9620052300" lat="60.8591778" lon="8.596625" version="1" timestamp="2022-03-29T05:45:12Z" changeset="119050221" uid="3497659" user="NKA">
		<tag k="name" v="Nordhagen" />
		<tag k="place" v="farm" />
		<tag k="ssr:stedsnr" v="372151" />
	</node>
	<node id="9620052301" lat="60.9117445" lon="8.4279527" version="1" timestamp="2022-03-29T05:45:12Z" changeset="119050221" uid="3497659" user="NKA">
		<tag k="historic" v="shieling" />
		<tag k="name" v="Slette" />
		<tag k="place" v="isolated_dwelling" />
		<tag k="ssr:stedsnr" v="858635" />
	</node>
	<node id="9620052302" lat="60.846725" lon="8.5802249" version="1" timestamp="2022-03-29T05:45:12Z" changeset="119050221" uid="3497659" user="NKA">
		<tag k="name" v="Åsen" />
		<tag k="place" v="farm" />
		<tag k="ssr:stedsnr" v="797162" />
	</node>
	<node id="9620052303" lat="60.9015639" lon="8.3090195" version="1" timestamp="2022-03-29T05:45:12Z" changeset="119050221" uid="3497659" user="NKA">
		<tag k="historic" v="shieling" />
		<tag k="name" v="Bakkestølen" />
		<tag k="place" v="isolated_dwelling" />
		<tag k="ssr:stedsnr" v="675638" />
	</node>
	<node id="9620052304" lat="60.9746676" lon="8.3412392" version="1" timestamp="2022-03-29T05:45:12Z" changeset="119050221" uid="3497659" user="NKA">
		<tag k="name" v="Fossen" />
		<tag k="place" v="locality" />
		<tag k="ssr:stedsnr" v="251569" />
	</node>
	<node id="9620052305" lat="60.8593723" lon="8.8025778" version="1" timestamp="2022-03-29T05:45:12Z" changeset="119050221" uid="3497659" user="NKA">
		<tag k="historic" v="shieling" />
		<tag k="name" v="Øvre Eikrestølane" />
		<tag k="place" v="isolated_dwelling" />
		<tag k="ssr:stedsnr" v="336760" />
	</node>
	<node id="9620052306" lat="60.9332972" lon="8.4116833" version="1" timestamp="2022-03-29T05:45:12Z" changeset="119050221" uid="3497659" user="NKA">
		<tag k="name" v="Haugen" />
		<tag k="place" v="farm" />
		<tag k="ssr:stedsnr" v="372610" />
	</node>
	<node id="9620052307" lat="60.9479901" lon="8.3324465" version="1" timestamp="2022-03-29T05:45:12Z" changeset="119050221" uid="3497659" user="NKA">
		<tag k="historic" v="shieling" />
		<tag k="name" v="Rustostølen" />
		<tag k="place" v="isolated_dwelling" />
		<tag k="ssr:stedsnr" v="821285" />
	</node>
	<node id="9620052308" lat="61.0799166" lon="8.2950361" version="1" timestamp="2022-03-29T05:45:12Z" changeset="119050221" uid="3497659" user="NKA">
		<tag k="name" v="Fossegrov" />
		<tag k="place" v="isolated_dwelling" />
		<tag k="ssr:stedsnr" v="917608" />
	</node>
	<node id="9620052309" lat="60.867975" lon="8.6806416" version="1" timestamp="2022-03-29T05:45:12Z" changeset="119050221" uid="3497659" user="NKA">
		<tag k="historic" v="shieling" />
		<tag k="name" v="Steinslette" />
		<tag k="place" v="isolated_dwelling" />
		<tag k="ssr:stedsnr" v="93814" />
	</node>
	<node id="9620052310" lat="60.8307" lon="8.5400639" version="1" timestamp="2022-03-29T05:45:12Z" changeset="119050221" uid="3497659" user="NKA">
		<tag k="name" v="Feten" />
		<tag k="place" v="locality" />
		<tag k="ssr:stedsnr" v="858191" />
	</node>
	<node id="9620052311" lat="60.8046361" lon="8.7487833" version="1" timestamp="2022-03-29T05:45:12Z" changeset="119050221" uid="3497659" user="NKA">
		<tag k="name" v="Søre Eikre" />
		<tag k="place" v="farm" />
		<tag k="ssr:stedsnr" v="639530" />
	</node>
	<node id="9620052312" lat="60.8456778" lon="8.6273555" version="1" timestamp="2022-03-29T05:45:12Z" changeset="119050221" uid="3497659" user="NKA">
		<tag k="name" v="Mellom-Løken" />
		<tag k="place" v="farm" />
		<tag k="ssr:stedsnr" v="335764" />
	</node>
	<node id="9620052313" lat="60.9230361" lon="8.4383416" version="1" timestamp="2022-03-29T05:45:12Z" changeset="119050221" uid="3497659" user="NKA">
		<tag k="alt_name" v="Dækko" />
		<tag k="name" v="Dekko" />
		<tag k="place" v="hamlet" />
		<tag k="ssr:stedsnr" v="858603" />
	</node>
	<node id="9620052314" lat="60.8566915" lon="8.6050989" version="1" timestamp="2022-03-29T05:45:12Z" changeset="119050221" uid="3497659" user="NKA">
		<tag k="name" v="Søre Grøto" />
		<tag k="place" v="farm" />
		<tag k="ssr:stedsnr" v="311191" />
	</node>
	<node id="9620052315" lat="60.8616889" lon="8.5705027" version="1" timestamp="2022-03-29T05:45:12Z" changeset="119050221" uid="3497659" user="NKA">
		<tag k="name" v="Nordre Imre" />
		<tag k="place" v="farm" />
		<tag k="ssr:stedsnr" v="93046" />
	</node>
	<node id="9620052316" lat="60.93235" lon="8.6601778" version="1" timestamp="2022-03-29T05:45:12Z" changeset="119050221" uid="3497659" user="NKA">
		<tag k="historic" v="shieling" />
		<tag k="name" v="Lægeret" />
		<tag k="place" v="isolated_dwelling" />
		<tag k="ssr:stedsnr" v="69878" />
	</node>
	<node id="9620052317" lat="60.8646036" lon="8.5218759" version="1" timestamp="2022-03-29T05:45:12Z" changeset="119050221" uid="3497659" user="NKA">
		<tag k="name" v="Hollebakken" />
		<tag k="place" v="locality" />
		<tag k="ssr:stedsnr" v="831928" />
	</node>
	<node id="9620052318" lat="60.7896" lon="8.646725" version="1" timestamp="2022-03-29T05:45:12Z" changeset="119050221" uid="3497659" user="NKA">
		<tag k="historic" v="shieling" />
		<tag k="name" v="Leinestølane" />
		<tag k="place" v="hamlet" />
		<tag k="ssr:stedsnr" v="614002" />
	</node>
	<node id="9620052319" lat="60.8240496" lon="8.6223005" version="1" timestamp="2022-03-29T05:45:12Z" changeset="119050221" uid="3497659" user="NKA">
		<tag k="alt_name" v="Hornet" />
		<tag k="name" v="Horn" />
		<tag k="old_name" v="Horne" />
		<tag k="place" v="farm" />
		<tag k="ssr:stedsnr" v="918232" />
	</node>
	<node id="9620052320" lat="60.8693167" lon="8.5491389" version="1" timestamp="2022-03-29T05:45:12Z" changeset="119050221" uid="3497659" user="NKA">
		<tag k="name" v="Skadengården" />
		<tag k="place" v="farm" />
		<tag k="ssr:stedsnr" v="153070" />
	</node>
	<node id="9620052321" lat="60.964975" lon="8.1670195" version="1" timestamp="2022-03-29T05:45:12Z" changeset="119050221" uid="3497659" user="NKA">
		<tag k="historic" v="shieling" />
		<tag k="name" v="Slettane" />
		<tag k="place" v="hamlet" />
		<tag k="ssr:stedsnr" v="858541" />
	</node>
	<node id="9620052322" lat="60.8701861" lon="8.7186999" version="1" timestamp="2022-03-29T05:45:12Z" changeset="119050221" uid="3497659" user="NKA">
		<tag k="historic" v="shieling" />
		<tag k="name" v="Nedrestølen" />
		<tag k="place" v="isolated_dwelling" />
		<tag k="ssr:stedsnr" v="494125" />
	</node>
	<node id="9620052323" lat="60.8703932" lon="8.5252879" version="1" timestamp="2022-03-29T05:45:12Z" changeset="119050221" uid="3497659" user="NKA">
		<tag k="name" v="Sprike" />
		<tag k="place" v="farm" />
		<tag k="ssr:stedsnr" v="335157" />
	</node>
	<node id="9620052324" lat="60.8461083" lon="8.5758499" version="1" timestamp="2022-03-29T05:45:12Z" changeset="119050221" uid="3497659" user="NKA">
		<tag k="name" v="Snertehaugen" />
		<tag k="place" v="farm" />
		<tag k="ssr:stedsnr" v="493175" />
	</node>
	<node id="9620052325" lat="60.8500069" lon="8.6158445" version="1" timestamp="2022-03-29T05:45:12Z" changeset="119050221" uid="3497659" user="NKA">
		<tag k="alt_name" v="Ulsåk" />
		<tag k="name" v="Ullsåk" />
		<tag k="place" v="village" />
		<tag k="ssr:stedsnr" v="858167" />
	</node>
	<node id="9620052326" lat="60.9731523" lon="8.5201357" version="1" timestamp="2022-03-29T05:45:12Z" changeset="119050221" uid="3497659" user="NKA">
		<tag k="historic" v="shieling" />
		<tag k="name" v="Nord-Hydalen" />
		<tag k="place" v="isolated_dwelling" />
		<tag k="ssr:stedsnr" v="312740" />
	</node>
	<node id="9620052327" lat="60.8623028" lon="8.5732751" version="1" timestamp="2022-03-29T05:45:12Z" changeset="119050221" uid="3497659" user="NKA">
		<tag k="name" v="Søre Imre" />
		<tag k="place" v="farm" />
		<tag k="ssr:stedsnr" v="554152" />
	</node>
	<node id="9620052328" lat="60.83305" lon="8.6069324" version="1" timestamp="2022-03-29T05:45:12Z" changeset="119050221" uid="3497659" user="NKA">
		<tag k="name" v="Nilsehaugstronde" />
		<tag k="place" v="farm" />
		<tag k="ssr:stedsnr" v="760958" />
	</node>
	<node id="9620052329" lat="60.8443325" lon="8.5856809" version="1" timestamp="2022-03-29T05:45:12Z" changeset="119050221" uid="3497659" user="NKA">
		<tag k="name" v="Jordet" />
		<tag k="place" v="farm" />
		<tag k="ssr:stedsnr" v="311222" />
	</node>
	<node id="9620052330" lat="60.841875" lon="8.6512167" version="1" timestamp="2022-03-29T05:45:12Z" changeset="119050221" uid="3497659" user="NKA">
		<tag k="name" v="Rundtopp" />
		<tag k="place" v="farm" />
		<tag k="ssr:stedsnr" v="190196" />
	</node>
	<node id="9620052331" lat="60.8805667" lon="8.3405528" version="1" timestamp="2022-03-29T05:45:12Z" changeset="119050221" uid="3497659" user="NKA">
		<tag k="alt_name" v="Kvelvestølane" />
		<tag k="historic" v="shieling" />
		<tag k="name" v="Kvelve" />
		<tag k="place" v="isolated_dwelling" />
		<tag k="ssr:stedsnr" v="797601" />
	</node>
	<node id="9620052332" lat="60.7834694" lon="8.6631472" version="1" timestamp="2022-03-29T05:45:12Z" changeset="119050221" uid="3497659" user="NKA">
		<tag k="historic" v="shieling" />
		<tag k="name" v="Haugavollen" />
		<tag k="place" v="isolated_dwelling" />
		<tag k="ssr:stedsnr" v="821230" />
	</node>
	<node id="9620052333" lat="60.8130834" lon="8.6419223" version="1" timestamp="2022-03-29T05:45:12Z" changeset="119050221" uid="3497659" user="NKA">
		<tag k="name" v="Langeset" />
		<tag k="place" v="isolated_dwelling" />
		<tag k="ssr:stedsnr" v="797222" />
	</node>
	<node id="9620052334" lat="60.8442694" lon="8.6237388" version="1" timestamp="2022-03-29T05:45:12Z" changeset="119050221" uid="3497659" user="NKA">
		<tag k="name" v="Grohaugen" />
		<tag k="place" v="farm" />
		<tag k="ssr:stedsnr" v="275608" />
	</node>
	<node id="9620052335" lat="60.8390039" lon="8.6090499" version="1" timestamp="2022-03-29T05:45:12Z" changeset="119050221" uid="3497659" user="NKA">
		<tag k="name" v="Skar" />
		<tag k="place" v="hamlet" />
		<tag k="ssr:stedsnr" v="882999" />
	</node>
	<node id="9620052336" lat="60.8825584" lon="8.5001636" version="1" timestamp="2022-03-29T05:45:12Z" changeset="119050221" uid="3497659" user="NKA">
		<tag k="alt_name" v="Hulebak" />
		<tag k="name" v="Hulbak" />
		<tag k="place" v="hamlet" />
		<tag k="ssr:stedsnr" v="900403" />
	</node>
	<node id="9620052337" lat="60.8663083" lon="8.5918417" version="1" timestamp="2022-03-29T05:45:12Z" changeset="119050221" uid="3497659" user="NKA">
		<tag k="historic" v="shieling" />
		<tag k="name" v="Nilsonskarstølen" />
		<tag k="place" v="isolated_dwelling" />
		<tag k="ssr:stedsnr" v="275074" />
	</node>
	<node id="9620052338" lat="60.8398311" lon="8.5979896" version="1" timestamp="2022-03-29T05:45:12Z" changeset="119050221" uid="3497659" user="NKA">
		<tag k="name" v="Søre Torset" />
		<tag k="place" v="farm" />
		<tag k="ssr:stedsnr" v="821973" />
	</node>
	<node id="9620052339" lat="60.8399078" lon="8.4646224" version="1" timestamp="2022-03-29T05:45:12Z" changeset="119050221" uid="3497659" user="NKA">
		<tag k="historic" v="shieling" />
		<tag k="name" v="Myljostølen" />
		<tag k="place" v="isolated_dwelling" />
		<tag k="ssr:stedsnr" v="578615" />
	</node>
	<node id="9620052340" lat="60.8652355" lon="8.8141704" version="1" timestamp="2022-03-29T05:45:12Z" changeset="119050221" uid="3497659" user="NKA">
		<tag k="historic" v="shieling" />
		<tag k="name" v="Nedre Eikrestølane" />
		<tag k="place" v="isolated_dwelling" />
		<tag k="ssr:stedsnr" v="518185" />
	</node>
	<node id="9620052341" lat="60.9316084" lon="8.2099584" version="1" timestamp="2022-03-29T05:45:12Z" changeset="119050221" uid="3497659" user="NKA">
		<tag k="historic" v="shieling" />
		<tag k="name" v="Stølsstølen" />
		<tag k="place" v="isolated_dwelling" />
		<tag k="ssr:stedsnr" v="312525" />
	</node>
	<node id="9620052342" lat="60.8266417" lon="8.6833139" version="1" timestamp="2022-03-29T05:45:12Z" changeset="119050221" uid="3497659" user="NKA">
		<tag k="alt_name" v="Bakken" />
		<tag k="name" v="Bakko" />
		<tag k="place" v="farm" />
		<tag k="ssr:stedsnr" v="554229" />
	</node>
	<node id="9620052343" lat="60.9438528" lon="8.1748639" version="1" timestamp="2022-03-29T05:45:12Z" changeset="119050221" uid="3497659" user="NKA">
		<tag k="historic" v="shieling" />
		<tag k="name" v="Steinbustølen" />
		<tag k="place" v="isolated_dwelling" />
		<tag k="ssr:stedsnr" v="627133" />
	</node>
	<node id="9620052344" lat="60.8569277" lon="8.6039963" version="1" timestamp="2022-03-29T05:45:12Z" changeset="119050221" uid="3497659" user="NKA">
		<tag k="name" v="Mellom-Grøte" />
		<tag k="place" v="farm" />
		<tag k="ssr:stedsnr" v="578036" />
	</node>
	<node id="9620052345" lat="60.8885278" lon="8.8200666" version="1" timestamp="2022-03-29T05:45:12Z" changeset="119050221" uid="3497659" user="NKA">
		<tag k="historic" v="shieling" />
		<tag k="name" v="Torstølen" />
		<tag k="place" v="isolated_dwelling" />
		<tag k="ssr:stedsnr" v="882248" />
	</node>
	<node id="9620052346" lat="60.7825722" lon="8.6627361" version="1" timestamp="2022-03-29T05:45:12Z" changeset="119050221" uid="3497659" user="NKA">
		<tag k="historic" v="shieling" />
		<tag k="name" v="Hagavollen" />
		<tag k="place" v="isolated_dwelling" />
		<tag k="ssr:stedsnr" v="336261" />
	</node>
	<node id="9620052347" lat="60.7903209" lon="8.7284815" version="1" timestamp="2022-03-29T05:45:12Z" changeset="119050221" uid="3497659" user="NKA">
		<tag k="name" v="Bergheim" />
		<tag k="place" v="farm" />
		<tag k="ssr:stedsnr" v="8007" />
	</node>
	<node id="9620052348" lat="60.9989306" lon="8.3336056" version="1" timestamp="2022-03-29T05:45:12Z" changeset="119050221" uid="3497659" user="NKA">
		<tag k="historic" v="shieling" />
		<tag k="name" v="Brendeslettane" />
		<tag k="place" v="isolated_dwelling" />
		<tag k="ssr:stedsnr" v="614543" />
	</node>
	<node id="9620052349" lat="60.9808396" lon="8.565821" version="1" timestamp="2022-03-29T05:45:12Z" changeset="119050221" uid="3497659" user="NKA">
		<tag k="historic" v="shieling" />
		<tag k="name" v="Sør-Hydalen" />
		<tag k="place" v="hamlet" />
		<tag k="ssr:stedsnr" v="372796" />
	</node>
	<node id="9620052350" lat="60.8816306" lon="8.8295361" version="1" timestamp="2022-03-29T05:45:12Z" changeset="119050221" uid="3497659" user="NKA">
		<tag k="name" v="Veslestølen" />
		<tag k="place" v="farm" />
		<tag k="ssr:stedsnr" v="518767" />
	</node>
	<node id="9620052351" lat="60.86001" lon="8.5254704" version="1" timestamp="2022-03-29T05:45:12Z" changeset="119050221" uid="3497659" user="NKA">
		<tag k="historic" v="shieling" />
		<tag k="name" v="Vårstølen" />
		<tag k="place" v="isolated_dwelling" />
		<tag k="ssr:stedsnr" v="214095" />
	</node>
	<node id="9620052352" lat="60.782475" lon="8.661475" version="1" timestamp="2022-03-29T05:45:12Z" changeset="119050221" uid="3497659" user="NKA">
		<tag k="historic" v="shieling" />
		<tag k="name" v="Øvrestølen" />
		<tag k="place" v="isolated_dwelling" />
		<tag k="ssr:stedsnr" v="858028" />
	</node>
	<node id="9620052353" lat="60.8806586" lon="8.4832946" version="1" timestamp="2022-03-29T05:45:12Z" changeset="119050221" uid="3497659" user="NKA">
		<tag k="alt_name" v="Fauske" />
		<tag k="name" v="Fausko" />
		<tag k="place" v="farm" />
		<tag k="ssr:stedsnr" v="312794" />
	</node>
	<node id="9620052354" lat="60.8118639" lon="8.6888556" version="1" timestamp="2022-03-29T05:45:12Z" changeset="119050221" uid="3497659" user="NKA">
		<tag k="alt_name" v="Mørken" />
		<tag k="name" v="Mørki" />
		<tag k="place" v="farm" />
		<tag k="ssr:stedsnr" v="372238" />
	</node>
	<node id="9620052355" lat="60.8708083" lon="8.5315307" version="1" timestamp="2022-03-29T05:45:12Z" changeset="119050221" uid="3497659" user="NKA">
		<tag k="alt_name" v="Hølto" />
		<tag k="name" v="Holto" />
		<tag k="place" v="farm" />
		<tag k="ssr:stedsnr" v="373109" />
	</node>
	<node id="9620052356" lat="60.9207545" lon="8.4369028" version="1" timestamp="2022-03-29T05:45:12Z" changeset="119050221" uid="3497659" user="NKA">
		<tag k="name" v="Hemsedal feriesenter" />
		<tag k="place" v="neighbourhood" />
		<tag k="ssr:stedsnr" v="638508" />
	</node>
	<node id="9620052357" lat="60.8999111" lon="8.2515166" version="1" timestamp="2022-03-29T05:45:12Z" changeset="119050221" uid="3497659" user="NKA">
		<tag k="historic" v="shieling" />
		<tag k="name" v="Sildegjerdet" />
		<tag k="place" v="isolated_dwelling" />
		<tag k="ssr:stedsnr" v="494591" />
	</node>
	<node id="9620052358" lat="60.8831856" lon="8.4884688" version="1" timestamp="2022-03-29T05:45:12Z" changeset="119050221" uid="3497659" user="NKA">
		<tag k="alt_name" v="Brandvoll" />
		<tag k="name" v="Brandvol" />
		<tag k="place" v="farm" />
		<tag k="ssr:stedsnr" v="434803" />
	</node>
	<node id="9620052359" lat="60.8441507" lon="8.6314388" version="1" timestamp="2022-03-29T05:45:12Z" changeset="119050221" uid="3497659" user="NKA">
		<tag k="alt_name" v="Halbjørhus" />
		<tag k="name" v="Hallbjørhus" />
		<tag k="place" v="farm" />
		<tag k="ssr:stedsnr" v="493189" />
	</node>
	<node id="9620052360" lat="60.9052028" lon="8.2410306" version="1" timestamp="2022-03-29T05:45:12Z" changeset="119050221" uid="3497659" user="NKA">
		<tag k="historic" v="shieling" />
		<tag k="name" v="Persstølane" />
		<tag k="place" v="isolated_dwelling" />
		<tag k="ssr:stedsnr" v="615603" />
	</node>
	<node id="9620052361" lat="60.8736985" lon="8.409555" version="1" timestamp="2022-03-29T05:45:12Z" changeset="119050221" uid="3497659" user="NKA">
		<tag k="name" v="Medlien" />
		<tag k="place" v="farm" />
		<tag k="ssr:stedsnr" v="982832" />
	</node>
	<node id="9620052362" lat="60.901025" lon="8.423825" version="1" timestamp="2022-03-29T05:45:12Z" changeset="119050221" uid="3497659" user="NKA">
		<tag k="historic" v="shieling" />
		<tag k="name" v="Resastølen" />
		<tag k="place" v="isolated_dwelling" />
		<tag k="ssr:stedsnr" v="675587" />
	</node>
	<node id="9620052363" lat="60.8056444" lon="8.6544639" version="1" timestamp="2022-03-29T05:45:12Z" changeset="119050221" uid="3497659" user="NKA">
		<tag k="alt_name" v="Dokken" />
		<tag k="historic" v="shieling" />
		<tag k="name" v="Dokki" />
		<tag k="place" v="isolated_dwelling" />
		<tag k="ssr:stedsnr" v="312225" />
	</node>
	<node id="9620052364" lat="60.8515055" lon="8.6179639" version="1" timestamp="2022-03-29T05:45:12Z" changeset="119050221" uid="3497659" user="NKA">
		<tag k="name" v="Søre Ulsåker" />
		<tag k="place" v="farm" />
		<tag k="ssr:stedsnr" v="675190" />
	</node>
	<node id="9620052365" lat="60.9027556" lon="8.4291333" version="1" timestamp="2022-03-29T05:45:12Z" changeset="119050221" uid="3497659" user="NKA">
		<tag k="name" v="Oddene" />
		<tag k="place" v="locality" />
		<tag k="ssr:stedsnr" v="93537" />
	</node>
	<node id="9620052366" lat="60.8649201" lon="8.5593011" version="1" timestamp="2022-03-29T05:45:12Z" changeset="119050221" uid="3497659" user="NKA">
		<tag k="alt_name" v="Trøim" />
		<tag k="name" v="Trøym" />
		<tag k="place" v="hamlet" />
		<tag k="ssr:stedsnr" v="178171" />
	</node>
	<node id="9620052367" lat="60.9463416" lon="8.3754417" version="1" timestamp="2022-03-29T05:45:12Z" changeset="119050221" uid="3497659" user="NKA">
		<tag k="alt_name" v="Trøimstølen" />
		<tag k="historic" v="shieling" />
		<tag k="name" v="Trøymstølen" />
		<tag k="place" v="isolated_dwelling" />
		<tag k="ssr:stedsnr" v="457276" />
	</node>
	<node id="9620052368" lat="60.887975" lon="8.8053417" version="1" timestamp="2022-03-29T05:45:12Z" changeset="119050221" uid="3497659" user="NKA">
		<tag k="historic" v="shieling" />
		<tag k="name" v="Bergstølen" />
		<tag k="place" v="isolated_dwelling" />
		<tag k="ssr:stedsnr" v="638264" />
	</node>
	<node id="9620052369" lat="60.9447528" lon="8.371439" version="1" timestamp="2022-03-29T05:45:12Z" changeset="119050221" uid="3497659" user="NKA">
		<tag k="historic" v="shieling" />
		<tag k="name" v="Træesstølen" />
		<tag k="place" v="isolated_dwelling" />
		<tag k="ssr:stedsnr" v="942269" />
	</node>
	<node id="9620052370" lat="60.8636444" lon="8.5649917" version="1" timestamp="2022-03-29T05:45:12Z" changeset="119050221" uid="3497659" user="NKA">
		<tag k="name" v="Haugen" />
		<tag k="place" v="farm" />
		<tag k="ssr:stedsnr" v="251155" />
	</node>
	<node id="9620052371" lat="60.8878555" lon="8.8724917" version="1" timestamp="2022-03-29T05:45:12Z" changeset="119050221" uid="3497659" user="NKA">
		<tag k="alt_name" v="Robølesætri" />
		<tag k="name" v="Robøle" />
		<tag k="place" v="locality" />
		<tag k="ssr:stedsnr" v="313410" />
	</node>
	<node id="9620052372" lat="60.8400685" lon="8.5957436" version="1" timestamp="2022-03-29T05:45:12Z" changeset="119050221" uid="3497659" user="NKA">
		<tag k="name" v="Mellom-Torset" />
		<tag k="place" v="farm" />
		<tag k="ssr:stedsnr" v="517984" />
	</node>
	<node id="9620052373" lat="60.941147" lon="8.3919385" version="1" timestamp="2022-03-29T05:45:12Z" changeset="119050221" uid="3497659" user="NKA">
		<tag k="name" v="Hjelmen" />
		<tag k="place" v="hamlet" />
		<tag k="ssr:stedsnr" v="1080325" />
	</node>
	<node id="9620052374" lat="60.8837444" lon="8.4413195" version="1" timestamp="2022-03-29T05:45:12Z" changeset="119050221" uid="3497659" user="NKA">
		<tag k="name" v="Stupulen" />
		<tag k="place" v="locality" />
		<tag k="ssr:stedsnr" v="190561" />
	</node>
	<node id="9620052375" lat="60.8719015" lon="8.5028989" version="1" timestamp="2022-03-29T05:45:12Z" changeset="119050221" uid="3497659" user="NKA">
		<tag k="name" v="Nordre Øndredal" />
		<tag k="place" v="farm" />
		<tag k="ssr:stedsnr" v="638799" />
	</node>
	<node id="9620052376" lat="60.8050861" lon="8.7532083" version="1" timestamp="2022-03-29T05:45:12Z" changeset="119050221" uid="3497659" user="NKA">
		<tag k="name" v="Bekkestad" />
		<tag k="place" v="farm" />
		<tag k="ssr:stedsnr" v="554263" />
	</node>
	<node id="9620052377" lat="60.8830084" lon="8.4879971" version="1" timestamp="2022-03-29T05:45:12Z" changeset="119050221" uid="3497659" user="NKA">
		<tag k="alt_name" v="Nordre Brandvoll" />
		<tag k="name" v="Nordre Brandvol" />
		<tag k="place" v="farm" />
		<tag k="ssr:stedsnr" v="760909" />
	</node>
	<node id="9620052378" lat="60.8714389" lon="8.4188222" version="1" timestamp="2022-03-29T05:45:12Z" changeset="119050221" uid="3497659" user="NKA">
		<tag k="name" v="Presthaugen" />
		<tag k="place" v="isolated_dwelling" />
		<tag k="ssr:stedsnr" v="517764" />
	</node>
	<node id="9620052379" lat="60.8718611" lon="8.5258557" version="1" timestamp="2022-03-29T05:45:12Z" changeset="119050221" uid="3497659" user="NKA">
		<tag k="name" v="Dokk" />
		<tag k="place" v="farm" />
		<tag k="ssr:stedsnr" v="9106" />
	</node>
	<node id="9620052380" lat="60.8685083" lon="8.6677805" version="1" timestamp="2022-03-29T05:45:12Z" changeset="119050221" uid="3497659" user="NKA">
		<tag k="historic" v="shieling" />
		<tag k="name" v="Løkjestølane" />
		<tag k="old_name" v="Løkjestølann" />
		<tag k="place" v="hamlet" />
		<tag k="ssr:stedsnr" v="130106" />
	</node>
	<node id="9620052381" lat="60.8792073" lon="8.4710268" version="1" timestamp="2022-03-29T05:45:12Z" changeset="119050221" uid="3497659" user="NKA">
		<tag k="name" v="Kariset" />
		<tag k="place" v="farm" />
		<tag k="ssr:stedsnr" v="1072351" />
	</node>
	<node id="9620052382" lat="60.895464" lon="8.311574" version="1" timestamp="2022-03-29T05:45:12Z" changeset="119050221" uid="3497659" user="NKA">
		<tag k="historic" v="shieling" />
		<tag k="name" v="Veslegjerde" />
		<tag k="place" v="isolated_dwelling" />
		<tag k="ssr:stedsnr" v="32156" />
	</node>
	<node id="9620052383" lat="60.8479083" lon="8.6233307" version="1" timestamp="2022-03-29T05:45:12Z" changeset="119050221" uid="3497659" user="NKA">
		<tag k="alt_name" v="Engene;Engjane" />
		<tag k="name" v="Engjo" />
		<tag k="place" v="farm" />
		<tag k="ssr:stedsnr" v="372165" />
	</node>
	<node id="9620052384" lat="60.8372442" lon="8.7655048" version="1" timestamp="2022-03-29T05:45:12Z" changeset="119050221" uid="3497659" user="NKA">
		<tag k="historic" v="shieling" />
		<tag k="name" v="Nystølane" />
		<tag k="place" v="isolated_dwelling" />
		<tag k="ssr:stedsnr" v="858213" />
	</node>
	<node id="9620052385" lat="60.9003639" lon="8.4443861" version="1" timestamp="2022-03-29T05:45:12Z" changeset="119050221" uid="3497659" user="NKA">
		<tag k="historic" v="shieling" />
		<tag k="name" v="Muren" />
		<tag k="place" v="hamlet" />
		<tag k="ssr:stedsnr" v="311656" />
	</node>
	<node id="9620052386" lat="60.8616511" lon="8.580885" version="1" timestamp="2022-03-29T05:45:12Z" changeset="119050221" uid="3497659" user="NKA">
		<tag k="name" v="Store Joleim" />
		<tag k="place" v="farm" />
		<tag k="ssr:stedsnr" v="357205" />
	</node>
	<node id="9620052387" lat="60.8426792" lon="8.6421509" version="1" timestamp="2022-03-29T05:45:12Z" changeset="119050221" uid="3497659" user="NKA">
		<tag k="name" v="Mellom-Grøv" />
		<tag k="place" v="farm" />
		<tag k="ssr:stedsnr" v="821510" />
	</node>
	<node id="9620052388" lat="60.8384278" lon="8.6069501" version="1" timestamp="2022-03-29T05:45:12Z" changeset="119050221" uid="3497659" user="NKA">
		<tag k="alt_name" v="Skard" />
		<tag k="name" v="Nordre Skar" />
		<tag k="place" v="farm" />
		<tag k="ssr:stedsnr" v="190188" />
	</node>
	<node id="9620052389" lat="60.9069014" lon="8.2875649" version="1" timestamp="2022-03-29T05:45:12Z" changeset="119050221" uid="3497659" user="NKA">
		<tag k="historic" v="shieling" />
		<tag k="name" v="Sjåheimstølen" />
		<tag k="place" v="isolated_dwelling" />
		<tag k="ssr:stedsnr" v="882162" />
	</node>
	<node id="9620052390" lat="60.8439694" lon="8.4589695" version="1" timestamp="2022-03-29T05:45:12Z" changeset="119050221" uid="3497659" user="NKA">
		<tag k="alt_name" v="Fløgastølen" />
		<tag k="historic" v="shieling" />
		<tag k="name" v="Flogastølen" />
		<tag k="place" v="isolated_dwelling" />
		<tag k="ssr:stedsnr" v="8909" />
	</node>
	<node id="9620052391" lat="60.8825958" lon="8.8325506" version="1" timestamp="2022-03-29T05:45:12Z" changeset="119050221" uid="3497659" user="NKA">
		<tag k="name" v="Jorde" />
		<tag k="place" v="farm" />
		<tag k="ssr:stedsnr" v="760614" />
	</node>
	<node id="9620052392" lat="60.8090445" lon="8.7278528" version="1" timestamp="2022-03-29T05:45:12Z" changeset="119050221" uid="3497659" user="NKA">
		<tag k="name" v="Dalo" />
		<tag k="place" v="farm" />
		<tag k="ssr:stedsnr" v="615215" />
	</node>
	<node id="9620052393" lat="60.8202417" lon="8.7068918" version="1" timestamp="2022-03-29T05:45:12Z" changeset="119050221" uid="3497659" user="NKA">
		<tag k="name" v="Øvre Ålrust" />
		<tag k="place" v="farm" />
		<tag k="ssr:stedsnr" v="821590" />
	</node>
	<node id="9620052394" lat="60.9934889" lon="8.3272306" version="1" timestamp="2022-03-29T05:45:12Z" changeset="119050221" uid="3497659" user="NKA">
		<tag k="historic" v="shieling" />
		<tag k="name" v="Søteli" />
		<tag k="place" v="isolated_dwelling" />
		<tag k="ssr:stedsnr" v="700283" />
	</node>
	<node id="9620052395" lat="60.8552994" lon="8.7831784" version="1" timestamp="2022-03-29T05:45:12Z" changeset="119050221" uid="3497659" user="NKA">
		<tag k="historic" v="shieling" />
		<tag k="name" v="Skoltevollen" />
		<tag k="place" v="isolated_dwelling" />
		<tag k="ssr:stedsnr" v="578713" />
	</node>
	<node id="9620052396" lat="60.8726389" lon="8.8296277" version="1" timestamp="2022-03-29T05:45:12Z" changeset="119050221" uid="3497659" user="NKA">
		<tag k="historic" v="shieling" />
		<tag k="name" v="Bubakken" />
		<tag k="place" v="isolated_dwelling" />
		<tag k="ssr:stedsnr" v="8158" />
	</node>
	<node id="9620052397" lat="60.8899028" lon="8.8113" version="1" timestamp="2022-03-29T05:45:12Z" changeset="119050221" uid="3497659" user="NKA">
		<tag k="alt_name" v="Nordre Lykkjestølane" />
		<tag k="historic" v="shieling" />
		<tag k="name" v="Lykkjestølane" />
		<tag k="old_name" v="Lykkjestølann" />
		<tag k="place" v="isolated_dwelling" />
		<tag k="ssr:stedsnr" v="130797" />
	</node>
	<node id="9620052398" lat="60.8636166" lon="8.64315" version="1" timestamp="2022-03-29T05:45:12Z" changeset="119050221" uid="3497659" user="NKA">
		<tag k="alt_name" v="Fetjastølane" />
		<tag k="historic" v="shieling" />
		<tag k="name" v="Fetjane" />
		<tag k="place" v="isolated_dwelling" />
		<tag k="ssr:stedsnr" v="372154" />
	</node>
	<node id="9620052399" lat="60.8520391" lon="8.5824709" version="1" timestamp="2022-03-29T05:45:12Z" changeset="119050221" uid="3497659" user="NKA">
		<tag k="name" v="Haugen" />
		<tag k="place" v="farm" />
		<tag k="ssr:stedsnr" v="942914" />
	</node>
	<node id="9620052400" lat="60.8790028" lon="8.7740555" version="1" timestamp="2022-03-29T05:45:12Z" changeset="119050221" uid="3497659" user="NKA">
		<tag k="alt_name" v="Jodokstølen" />
		<tag k="historic" v="shieling" />
		<tag k="name" v="Jodokkstølen" />
		<tag k="place" v="isolated_dwelling" />
		<tag k="ssr:stedsnr" v="191778" />
	</node>
	<node id="9620052401" lat="60.9377055" lon="8.3951945" version="1" timestamp="2022-03-29T05:45:12Z" changeset="119050221" uid="3497659" user="NKA">
		<tag k="name" v="Stunde" />
		<tag k="place" v="farm" />
		<tag k="ssr:stedsnr" v="372542" />
	</node>
	<node id="9620052402" lat="60.8377582" lon="8.609849" version="1" timestamp="2022-03-29T05:45:12Z" changeset="119050221" uid="3497659" user="NKA">
		<tag k="name" v="Ulvedokk" />
		<tag k="place" v="farm" />
		<tag k="ssr:stedsnr" v="517997" />
	</node>
	<node id="9620052403" lat="60.9295861" lon="8.3984445" version="1" timestamp="2022-03-29T05:45:12Z" changeset="119050221" uid="3497659" user="NKA">
		<tag k="name" v="Heggestad" />
		<tag k="place" v="farm" />
		<tag k="ssr:stedsnr" v="372613" />
	</node>
	<node id="9620052404" lat="60.8381889" lon="8.6022388" version="1" timestamp="2022-03-29T05:45:12Z" changeset="119050221" uid="3497659" user="NKA">
		<tag k="name" v="Hagen" />
		<tag k="place" v="farm" />
		<tag k="ssr:stedsnr" v="129196" />
	</node>
	<node id="9620052405" lat="60.8068139" lon="8.7601805" version="1" timestamp="2022-03-29T05:45:12Z" changeset="119050221" uid="3497659" user="NKA">
		<tag k="name" v="Furuhaug" />
		<tag k="place" v="farm" />
		<tag k="ssr:stedsnr" v="251267" />
	</node>
	<node id="9620052406" lat="60.8227056" lon="8.6846389" version="1" timestamp="2022-03-29T05:45:12Z" changeset="119050221" uid="3497659" user="NKA">
		<tag k="alt_name" v="Skolt, s" />
		<tag k="name" v="Søre Skolt" />
		<tag k="place" v="farm" />
		<tag k="ssr:stedsnr" v="494193" />
	</node>
	<node id="9620052407" lat="60.9731667" lon="8.4546333" version="1" timestamp="2022-03-29T05:45:12Z" changeset="119050221" uid="3497659" user="NKA">
		<tag k="alt_name" v="Vabuleinane" />
		<tag k="historic" v="shieling" />
		<tag k="name" v="Vabuleino" />
		<tag k="place" v="hamlet" />
		<tag k="ssr:stedsnr" v="858563" />
	</node>
	<node id="9620052408" lat="60.8552366" lon="8.6080289" version="1" timestamp="2022-03-29T05:45:12Z" changeset="119050221" uid="3497659" user="NKA">
		<tag k="name" v="Søre Grøte" />
		<tag k="place" v="farm" />
		<tag k="ssr:stedsnr" v="638035" />
	</node>
	<node id="9620052409" lat="60.9666583" lon="8.3561722" version="1" timestamp="2022-03-29T05:45:12Z" changeset="119050221" uid="3497659" user="NKA">
		<tag k="name" v="Klanten" />
		<tag k="place" v="hamlet" />
		<tag k="ssr:stedsnr" v="312508" />
	</node>
	<node id="9620052410" lat="60.8662861" lon="8.7013501" version="1" timestamp="2022-03-29T05:45:12Z" changeset="119050221" uid="3497659" user="NKA">
		<tag k="historic" v="shieling" />
		<tag k="name" v="Olaset" />
		<tag k="place" v="isolated_dwelling" />
		<tag k="ssr:stedsnr" v="821695" />
	</node>
	<node id="9620052411" lat="60.8875973" lon="8.4355778" version="1" timestamp="2022-03-29T05:45:12Z" changeset="119050221" uid="3497659" user="NKA">
		<tag k="historic" v="shieling" />
		<tag k="name" v="Bakkestølen" />
		<tag k="place" v="isolated_dwelling" />
		<tag k="ssr:stedsnr" v="614582" />
	</node>
	<node id="9620052412" lat="60.8830607" lon="8.4808854" version="1" timestamp="2022-03-29T05:45:12Z" changeset="119050221" uid="3497659" user="NKA">
		<tag k="alt_name" v="Bekkestad" />
		<tag k="name" v="Øvre Bakke" />
		<tag k="place" v="farm" />
		<tag k="ssr:stedsnr" v="93758" />
	</node>
	<node id="9620052413" lat="60.8422667" lon="8.6122111" version="1" timestamp="2022-03-29T05:45:12Z" changeset="119050221" uid="3497659" user="NKA">
		<tag k="alt_name" v="Svarteberg" />
		<tag k="name" v="Sorteberg" />
		<tag k="place" v="farm" />
		<tag k="ssr:stedsnr" v="69193" />
	</node>
	<node id="9620052414" lat="60.8537831" lon="8.5556213" version="1" timestamp="2022-03-29T05:45:12Z" changeset="119050221" uid="3497659" user="NKA">
		<tag k="name" v="Storøygarden" />
		<tag k="place" v="farm" />
		<tag k="ssr:stedsnr" v="554166" />
	</node>
	<node id="9620052415" lat="60.8409205" lon="8.6523432" version="1" timestamp="2022-03-29T05:45:12Z" changeset="119050221" uid="3497659" user="NKA">
		<tag k="name" v="Nørdre Markegard" />
		<tag k="place" v="farm" />
		<tag k="ssr:stedsnr" v="638475" />
	</node>
	<node id="9620052416" lat="60.8804444" lon="8.4540168" version="1" timestamp="2022-03-29T05:45:12Z" changeset="119050221" uid="3497659" user="NKA">
		<tag k="historic" v="shieling" />
		<tag k="name" v="Slettestølen" />
		<tag k="place" v="isolated_dwelling" />
		<tag k="ssr:stedsnr" v="942796" />
	</node>
	<node id="9620052417" lat="60.9043583" lon="8.4379055" version="1" timestamp="2022-03-29T05:45:12Z" changeset="119050221" uid="3497659" user="NKA">
		<tag k="alt_name" v="Brandvollstølen;Brannvolstølen" />
		<tag k="historic" v="shieling" />
		<tag k="name" v="Brandvolstølen" />
		<tag k="place" v="isolated_dwelling" />
		<tag k="ssr:stedsnr" v="251640" />
	</node>
	<node id="9620052418" lat="60.8828055" lon="8.8595805" version="1" timestamp="2022-03-29T05:45:12Z" changeset="119050221" uid="3497659" user="NKA">
		<tag k="name" v="Engebretgarden" />
		<tag k="place" v="farm" />
		<tag k="ssr:stedsnr" v="555377" />
	</node>
	<node id="9620052419" lat="60.8112111" lon="8.6441472" version="1" timestamp="2022-03-29T05:45:12Z" changeset="119050221" uid="3497659" user="NKA">
		<tag k="name" v="Hemsil I" />
		<tag k="place" v="farm" />
		<tag k="ssr:stedsnr" v="578574" />
	</node>
	<node id="9620052420" lat="60.8386638" lon="8.6144313" version="1" timestamp="2022-03-29T05:45:12Z" changeset="119050221" uid="3497659" user="NKA">
		<tag k="name" v="Solheim" />
		<tag k="place" v="farm" />
		<tag k="ssr:stedsnr" v="578982" />
	</node>
	<node id="9620052421" lat="60.8048623" lon="8.7504669" version="1" timestamp="2022-03-29T05:45:12Z" changeset="119050221" uid="3497659" user="NKA">
		<tag k="name" v="Eikre" />
		<tag k="place" v="farm" />
		<tag k="ssr:stedsnr" v="1072345" />
	</node>
	<node id="9620052422" lat="60.8749972" lon="8.3595112" version="1" timestamp="2022-03-29T05:45:12Z" changeset="119050221" uid="3497659" user="NKA">
		<tag k="historic" v="shieling" />
		<tag k="name" v="Grimsgardstølen" />
		<tag k="place" v="isolated_dwelling" />
		<tag k="ssr:stedsnr" v="676590" />
	</node>
	<node id="9620052423" lat="60.9312806" lon="8.4183806" version="1" timestamp="2022-03-29T05:45:12Z" changeset="119050221" uid="3497659" user="NKA">
		<tag k="name" v="Medgarden" />
		<tag k="place" v="farm" />
		<tag k="ssr:stedsnr" v="578376" />
	</node>
	<node id="9620052424" lat="60.78345" lon="8.638839" version="1" timestamp="2022-03-29T05:45:12Z" changeset="119050221" uid="3497659" user="NKA">
		<tag k="historic" v="shieling" />
		<tag k="name" v="Hovdestølen" />
		<tag k="place" v="isolated_dwelling" />
		<tag k="ssr:stedsnr" v="129012" />
	</node>
	<node id="9620052425" lat="60.86795" lon="8.3848972" version="1" timestamp="2022-03-29T05:45:12Z" changeset="119050221" uid="3497659" user="NKA">
		<tag k="name" v="Lauvset" />
		<tag k="place" v="isolated_dwelling" />
		<tag k="ssr:stedsnr" v="614928" />
	</node>
	<node id="9620052426" lat="60.8738278" lon="8.40215" version="1" timestamp="2022-03-29T05:45:12Z" changeset="119050221" uid="3497659" user="NKA">
		<tag k="name" v="Huso" />
		<tag k="place" v="farm" />
		<tag k="ssr:stedsnr" v="129571" />
	</node>
	<node id="9620052427" lat="60.8131278" lon="8.6651833" version="1" timestamp="2022-03-29T05:45:12Z" changeset="119050221" uid="3497659" user="NKA">
		<tag k="name" v="Harahaug" />
		<tag k="place" v="farm" />
		<tag k="ssr:stedsnr" v="130206" />
	</node>
	<node id="9620052428" lat="60.9423626" lon="8.39033" version="1" timestamp="2022-03-29T05:45:12Z" changeset="119050221" uid="3497659" user="NKA">
		<tag k="name" v="Nordre Hjelmen" />
		<tag k="place" v="farm" />
		<tag k="ssr:stedsnr" v="821409" />
	</node>
	<node id="9620052429" lat="60.8792917" lon="8.4895694" version="1" timestamp="2022-03-29T05:45:12Z" changeset="119050221" uid="3497659" user="NKA">
		<tag k="name" v="Nordre Viljugrein" />
		<tag k="place" v="farm" />
		<tag k="ssr:stedsnr" v="32928" />
	</node>
	<node id="9620052430" lat="60.86975" lon="8.6729805" version="1" timestamp="2022-03-29T05:45:12Z" changeset="119050221" uid="3497659" user="NKA">
		<tag k="historic" v="shieling" />
		<tag k="name" v="Bjødnestølen" />
		<tag k="place" v="isolated_dwelling" />
		<tag k="ssr:stedsnr" v="760814" />
	</node>
	<node id="9620052431" lat="60.868075" lon="8.3667862" version="1" timestamp="2022-03-29T05:45:12Z" changeset="119050221" uid="3497659" user="NKA">
		<tag k="historic" v="shieling" />
		<tag k="name" v="Hjelmen" />
		<tag k="place" v="hamlet" />
		<tag k="ssr:stedsnr" v="493935" />
	</node>
	<node id="9620052432" lat="60.8878473" lon="8.8029667" version="1" timestamp="2022-03-29T05:45:12Z" changeset="119050221" uid="3497659" user="NKA">
		<tag k="historic" v="shieling" />
		<tag k="name" v="Engstølen" />
		<tag k="place" v="isolated_dwelling" />
		<tag k="ssr:stedsnr" v="821274" />
	</node>
	<node id="9620052433" lat="60.8762222" lon="8.4185888" version="1" timestamp="2022-03-29T05:45:12Z" changeset="119050221" uid="3497659" user="NKA">
		<tag k="historic" v="shieling" />
		<tag k="name" v="Eilevstølen" />
		<tag k="place" v="isolated_dwelling" />
		<tag k="ssr:stedsnr" v="335788" />
	</node>
	<node id="9620052434" lat="60.8269445" lon="8.639789" version="1" timestamp="2022-03-29T05:45:12Z" changeset="119050221" uid="3497659" user="NKA">
		<tag k="alt_name" v="Myte, nedre" />
		<tag k="name" v="Nedre Myte" />
		<tag k="place" v="isolated_dwelling" />
		<tag k="ssr:stedsnr" v="8243" />
	</node>
	<node id="9620052435" lat="60.8616916" lon="8.57525" version="1" timestamp="2022-03-29T05:45:12Z" changeset="119050221" uid="3497659" user="NKA">
		<tag k="name" v="Evang" />
		<tag k="place" v="farm" />
		<tag k="ssr:stedsnr" v="760898" />
	</node>
	<node id="9620052436" lat="60.8429949" lon="8.64055" version="1" timestamp="2022-03-29T05:45:12Z" changeset="119050221" uid="3497659" user="NKA">
		<tag k="alt_name" v="Grøv" />
		<tag k="name" v="Grov" />
		<tag k="place" v="hamlet" />
		<tag k="ssr:stedsnr" v="918198" />
	</node>
	<node id="9620052437" lat="60.8368806" lon="8.6080916" version="1" timestamp="2022-03-29T05:45:12Z" changeset="119050221" uid="3497659" user="NKA">
		<tag k="name" v="Hauglund" />
		<tag k="place" v="farm" />
		<tag k="ssr:stedsnr" v="336000" />
	</node>
	<node id="9620052438" lat="60.8148056" lon="8.7486028" version="1" timestamp="2022-03-29T05:45:12Z" changeset="119050221" uid="3497659" user="NKA">
		<tag k="historic" v="shieling" />
		<tag k="name" v="Medgardsheimstølen" />
		<tag k="place" v="isolated_dwelling" />
		<tag k="ssr:stedsnr" v="883560" />
	</node>
	<node id="9620052439" lat="60.8760777" lon="8.5232694" version="1" timestamp="2022-03-29T05:45:12Z" changeset="119050221" uid="3497659" user="NKA">
		<tag k="alt_name" v="Nordre Finset" />
		<tag k="name" v="Nordre Finnset" />
		<tag k="place" v="farm" />
		<tag k="ssr:stedsnr" v="214143" />
	</node>
	<node id="9620052440" lat="60.8781861" lon="8.7576751" version="1" timestamp="2022-03-29T05:45:12Z" changeset="119050221" uid="3497659" user="NKA">
		<tag k="historic" v="shieling" />
		<tag k="name" v="Mytestølen" />
		<tag k="place" v="isolated_dwelling" />
		<tag k="ssr:stedsnr" v="882653" />
	</node>
	<node id="9620052441" lat="60.8679" lon="8.6735723" version="1" timestamp="2022-03-29T05:45:12Z" changeset="119050221" uid="3497659" user="NKA">
		<tag k="historic" v="shieling" />
		<tag k="name" v="Hensrudstølen" />
		<tag k="place" v="isolated_dwelling" />
		<tag k="ssr:stedsnr" v="578825" />
	</node>
	<node id="9620052442" lat="60.8534639" lon="8.6804528" version="1" timestamp="2022-03-29T05:45:12Z" changeset="119050221" uid="3497659" user="NKA">
		<tag k="historic" v="shieling" />
		<tag k="name" v="Helsinglie" />
		<tag k="old_name" v="Helsinglia" />
		<tag k="place" v="hamlet" />
		<tag k="ssr:stedsnr" v="8177" />
	</node>
	<node id="9620052443" lat="60.9493437" lon="8.3300882" version="1" timestamp="2022-03-29T05:45:12Z" changeset="119050221" uid="3497659" user="NKA">
		<tag k="historic" v="shieling" />
		<tag k="name" v="Rustehaugstølen" />
		<tag k="place" v="isolated_dwelling" />
		<tag k="ssr:stedsnr" v="699283" />
	</node>
	<node id="9620052444" lat="60.8787111" lon="8.4729973" version="1" timestamp="2022-03-29T05:45:12Z" changeset="119050221" uid="3497659" user="NKA">
		<tag k="name" v="Ødegarden" />
		<tag k="place" v="farm" />
		<tag k="ssr:stedsnr" v="821804" />
	</node>
	<node id="9620052445" lat="60.8736056" lon="8.7307028" version="1" timestamp="2022-03-29T05:45:12Z" changeset="119050221" uid="3497659" user="NKA">
		<tag k="historic" v="shieling" />
		<tag k="name" v="Joleimsstølen" />
		<tag k="place" v="isolated_dwelling" />
		<tag k="ssr:stedsnr" v="843233" />
	</node>
	<node id="9620052446" lat="60.9292417" lon="8.4242806" version="1" timestamp="2022-03-29T05:45:12Z" changeset="119050221" uid="3497659" user="NKA">
		<tag k="name" v="Grønheim" />
		<tag k="place" v="farm" />
		<tag k="ssr:stedsnr" v="214534" />
	</node>
	<node id="9620052447" lat="60.8485333" lon="8.7610861" version="1" timestamp="2022-03-29T05:45:12Z" changeset="119050221" uid="3497659" user="NKA">
		<tag k="historic" v="shieling" />
		<tag k="name" v="Skoltevollen" />
		<tag k="place" v="isolated_dwelling" />
		<tag k="ssr:stedsnr" v="918183" />
	</node>
	<node id="9620052448" lat="60.9503361" lon="8.3754778" version="1" timestamp="2022-03-29T05:45:12Z" changeset="119050221" uid="3497659" user="NKA">
		<tag k="historic" v="shieling" />
		<tag k="name" v="Enden" />
		<tag k="place" v="isolated_dwelling" />
		<tag k="ssr:stedsnr" v="676541" />
	</node>
	<node id="9620052449" lat="60.87775" lon="8.4980888" version="1" timestamp="2022-03-29T05:45:12Z" changeset="119050221" uid="3497659" user="NKA">
		<tag k="name" v="Nørdre Hustad" />
		<tag k="place" v="farm" />
		<tag k="ssr:stedsnr" v="396800" />
	</node>
	<node id="9620052450" lat="60.8702626" lon="8.5034964" version="1" timestamp="2022-03-29T05:45:12Z" changeset="119050221" uid="3497659" user="NKA">
		<tag k="name" v="Øvre Ødegården" />
		<tag k="place" v="farm" />
		<tag k="ssr:stedsnr" v="638152" />
	</node>
	<node id="9620052451" lat="60.8462166" lon="8.7864972" version="1" timestamp="2022-03-29T05:45:12Z" changeset="119050221" uid="3497659" user="NKA">
		<tag k="alt_name" v="Nygjerda" />
		<tag k="historic" v="shieling" />
		<tag k="name" v="Nygjerde" />
		<tag k="place" v="isolated_dwelling" />
		<tag k="ssr:stedsnr" v="797197" />
	</node>
	<node id="9620052452" lat="60.8796434" lon="8.4932532" version="1" timestamp="2022-03-29T05:45:12Z" changeset="119050221" uid="3497659" user="NKA">
		<tag k="alt_name" v="Søre Viljugrein" />
		<tag k="name" v="Viljugrein" />
		<tag k="place" v="farm" />
		<tag k="ssr:stedsnr" v="434776" />
	</node>
	<node id="9620052453" lat="60.8372861" lon="8.76215" version="1" timestamp="2022-03-29T05:45:12Z" changeset="119050221" uid="3497659" user="NKA">
		<tag k="historic" v="shieling" />
		<tag k="name" v="Høgehaugstølen" />
		<tag k="place" v="isolated_dwelling" />
		<tag k="ssr:stedsnr" v="639500" />
	</node>
	<node id="9620052454" lat="60.9004756" lon="8.3166247" version="1" timestamp="2022-03-29T05:45:12Z" changeset="119050221" uid="3497659" user="NKA">
		<tag k="historic" v="shieling" />
		<tag k="name" v="Liastølane" />
		<tag k="place" v="hamlet" />
		<tag k="ssr:stedsnr" v="858629" />
	</node>
	<node id="9620052455" lat="60.8150306" lon="8.719775" version="1" timestamp="2022-03-29T05:45:12Z" changeset="119050221" uid="3497659" user="NKA">
		<tag k="name" v="Slette" />
		<tag k="place" v="farm" />
		<tag k="ssr:stedsnr" v="615208" />
	</node>
	<node id="9620052456" lat="60.9255555" lon="8.4095805" version="1" timestamp="2022-03-29T05:45:12Z" changeset="119050221" uid="3497659" user="NKA">
		<tag k="historic" v="shieling" />
		<tag k="name" v="Sørestølen" />
		<tag k="place" v="isolated_dwelling" />
		<tag k="ssr:stedsnr" v="882518" />
	</node>
	<node id="9620052457" lat="60.8067389" lon="8.7344222" version="1" timestamp="2022-03-29T05:45:12Z" changeset="119050221" uid="3497659" user="NKA">
		<tag k="alt_name" v="Nordre Eiker" />
		<tag k="name" v="Nordre Eikre" />
		<tag k="place" v="farm" />
		<tag k="ssr:stedsnr" v="942449" />
	</node>
	<node id="9620052458" lat="60.8722905" lon="8.5418424" version="1" timestamp="2022-03-29T05:45:12Z" changeset="119050221" uid="3497659" user="NKA">
		<tag k="name" v="Haug" />
		<tag k="place" v="farm" />
		<tag k="ssr:stedsnr" v="676134" />
	</node>
	<node id="9620052459" lat="60.9511333" lon="8.316125" version="1" timestamp="2022-03-29T05:45:12Z" changeset="119050221" uid="3497659" user="NKA">
		<tag k="historic" v="shieling" />
		<tag k="name" v="Preinsrud" />
		<tag k="place" v="isolated_dwelling" />
		<tag k="ssr:stedsnr" v="129522" />
	</node>
	<node id="9620052460" lat="60.8346405" lon="8.5938718" version="1" timestamp="2022-03-29T05:45:12Z" changeset="119050221" uid="3497659" user="NKA">
		<tag k="name" v="Hovda" />
		<tag k="place" v="locality" />
		<tag k="ssr:stedsnr" v="153968" />
	</node>
	<node id="9620052461" lat="60.8650568" lon="8.5684279" version="1" timestamp="2022-03-29T05:45:12Z" changeset="119050221" uid="3497659" user="NKA">
		<tag k="name" v="Bergerud" />
		<tag k="place" v="locality" />
		<tag k="ssr:stedsnr" v="578921" />
	</node>
	<node id="9620052462" lat="60.8737139" lon="8.4954416" version="1" timestamp="2022-03-29T05:45:12Z" changeset="119050221" uid="3497659" user="NKA">
		<tag k="name" v="Strand" />
		<tag k="place" v="farm" />
		<tag k="ssr:stedsnr" v="578951" />
	</node>
	<node id="9620052463" lat="60.924075" lon="8.4330056" version="1" timestamp="2022-03-29T05:45:12Z" changeset="119050221" uid="3497659" user="NKA">
		<tag k="alt_name" v="Dokken" />
		<tag k="name" v="Dokki" />
		<tag k="place" v="farm" />
		<tag k="ssr:stedsnr" v="494555" />
	</node>
</osm>
