<?xml version="1.0" encoding="UTF-8"?>
<osm generator="osmapis" version="0.6">
	<node id="-139315" lat="60.7828694479" lon="10.1775749922">
		<tag k="name" v="Røen-Vikersætervegen" />
		<tag k="ssr:date" v="2016-05-10" />
		<tag k="ssr:gruppe" v="veg" />
		<tag k="ssr:hovedgruppe" v="infrastruktur" />
		<tag k="ssr:stedsnr" v="56258" />
		<tag k="ssr:type" v="vegstrekning" />
	</node>
	<node id="-140722" lat="60.6994333351" lon="10.3508555547">
		<tag k="name" v="Søndre Land kommune" />
		<tag k="ssr:date" v="2016-05-11" />
		<tag k="ssr:gruppe" v="administrativeIndelinger" />
		<tag k="ssr:hovedgruppe" v="offentligAdministrasjon" />
		<tag k="ssr:stedsnr" v="813221" />
		<tag k="ssr:type" v="kommune" />
	</node>
	<node id="-139313" lat="60.8338916696" lon="10.3427305578">
		<tag k="name" v="Åbjørlinja" />
		<tag k="ssr:date" v="2016-05-10" />
		<tag k="ssr:gruppe" v="energi" />
		<tag k="ssr:hovedgruppe" v="infrastruktur" />
		<tag k="ssr:stedsnr" v="56076" />
		<tag k="ssr:type" v="kraftledning" />
	</node>
	<node id="-139213" lat="60.5398576039" lon="10.1952928679">
		<tag k="name" v="Myrsætervegen" />
		<tag k="ssr:date" v="2019-05-30" />
		<tag k="ssr:gruppe" v="veg" />
		<tag k="ssr:hovedgruppe" v="infrastruktur" />
		<tag k="ssr:stedsnr" v="1019713" />
		<tag k="ssr:type" v="adressenavn" />
	</node>
	<node id="-139212" lat="60.5469876613" lon="10.1596022213">
		<tag k="name" v="Ådalsvegen" />
		<tag k="ssr:date" v="2019-05-30" />
		<tag k="ssr:gruppe" v="veg" />
		<tag k="ssr:hovedgruppe" v="infrastruktur" />
		<tag k="ssr:stedsnr" v="1019710" />
		<tag k="ssr:type" v="adressenavn" />
	</node>
	<node id="-139211" lat="60.679511795" lon="10.4096468557">
		<tag k="name" v="Vassendgrenda" />
		<tag k="ssr:date" v="2019-05-30" />
		<tag k="ssr:gruppe" v="veg" />
		<tag k="ssr:hovedgruppe" v="infrastruktur" />
		<tag k="ssr:stedsnr" v="1019698" />
		<tag k="ssr:type" v="adressenavn" />
	</node>
	<node id="-139210" lat="60.6594822853" lon="10.4077317205">
		<tag k="name" v="Kolbotnvegen" />
		<tag k="ssr:date" v="2019-05-30" />
		<tag k="ssr:gruppe" v="veg" />
		<tag k="ssr:hovedgruppe" v="infrastruktur" />
		<tag k="ssr:stedsnr" v="1019696" />
		<tag k="ssr:type" v="adressenavn" />
	</node>
	<node id="-139209" lat="60.6617169824" lon="10.4598025487">
		<tag k="name" v="Bekkvegen" />
		<tag k="ssr:date" v="2019-05-30" />
		<tag k="ssr:gruppe" v="veg" />
		<tag k="ssr:hovedgruppe" v="infrastruktur" />
		<tag k="ssr:stedsnr" v="1019683" />
		<tag k="ssr:type" v="adressenavn" />
	</node>
	<node id="-139208" lat="60.638149513" lon="10.1939939483">
		<tag k="name" v="Bredvikavegen" />
		<tag k="ssr:date" v="2019-05-30" />
		<tag k="ssr:gruppe" v="veg" />
		<tag k="ssr:hovedgruppe" v="infrastruktur" />
		<tag k="ssr:stedsnr" v="1019522" />
		<tag k="ssr:type" v="adressenavn" />
	</node>
	<node id="-139207" lat="60.5410441537" lon="10.1248463368">
		<tag k="name" v="Vassendvegen" />
		<tag k="ssr:date" v="2019-05-30" />
		<tag k="ssr:gruppe" v="veg" />
		<tag k="ssr:hovedgruppe" v="infrastruktur" />
		<tag k="ssr:stedsnr" v="1019519" />
		<tag k="ssr:type" v="adressenavn" />
	</node>
	<node id="-139206" lat="60.6815075733" lon="10.4155963475">
		<tag k="name" v="Amsrudfeltet" />
		<tag k="ssr:date" v="2019-05-30" />
		<tag k="ssr:gruppe" v="veg" />
		<tag k="ssr:hovedgruppe" v="infrastruktur" />
		<tag k="ssr:stedsnr" v="1019691" />
		<tag k="ssr:type" v="adressenavn" />
	</node>
	<node id="-139205" lat="60.6541948825" lon="10.4240275383">
		<tag k="name" v="Furusvingen" />
		<tag k="ssr:date" v="2019-05-30" />
		<tag k="ssr:gruppe" v="veg" />
		<tag k="ssr:hovedgruppe" v="infrastruktur" />
		<tag k="ssr:stedsnr" v="1019662" />
		<tag k="ssr:type" v="adressenavn" />
	</node>
	<node id="-139204" lat="60.654925964" lon="10.4233571403">
		<tag k="name" v="Ringstadvegen" />
		<tag k="ssr:date" v="2019-05-30" />
		<tag k="ssr:gruppe" v="veg" />
		<tag k="ssr:hovedgruppe" v="infrastruktur" />
		<tag k="ssr:stedsnr" v="1019661" />
		<tag k="ssr:type" v="adressenavn" />
	</node>
	<node id="-139203" lat="60.670538946" lon="10.4100142277">
		<tag k="name" v="Vassendmoen" />
		<tag k="ssr:date" v="2019-05-30" />
		<tag k="ssr:gruppe" v="veg" />
		<tag k="ssr:hovedgruppe" v="infrastruktur" />
		<tag k="ssr:stedsnr" v="1019657" />
		<tag k="ssr:type" v="adressenavn" />
	</node>
	<node id="-140994" lat="60.5908609473" lon="9.63819281559">
		<tag k="fixme" v="multiple name tags, choose one and add the other to alt_name" />
		<tag k="name" v="Austlandet;Østlandet" />
		<tag k="ssr:date" v="2018-01-09" />
		<tag k="ssr:gruppe" v="administrativeIndelinger" />
		<tag k="ssr:hovedgruppe" v="offentligAdministrasjon" />
		<tag k="ssr:stedsnr" v="974775" />
		<tag k="ssr:type" v="annenAdministrativInndeling" />
	</node>
	<node id="-140449" lat="60.7588888915" lon="10.2666666682">
		<tag k="name" v="Land" />
		<tag k="ssr:date" v="2016-05-11" />
		<tag k="ssr:gruppe" v="terrengområder" />
		<tag k="ssr:hovedgruppe" v="terreng" />
		<tag k="ssr:stedsnr" v="692700" />
		<tag k="ssr:type" v="landskapsområde" />
	</node>
</osm>
