<?xml version="1.0" encoding="UTF-8"?>
<osm version="0.6" generator="osmapis">
	<node lat="60.35583610921709" lon="9.6078027845206" id="-11623">
		<tag k="bridge" v="yes" />
		<tag k="layer" v="1" />
		<tag k="name" v="Buøen" />
		<tag k="ssr:stedsnr" v="46779" />
	</node>
	<node lat="60.43791111471084" lon="9.43221111083161" id="-11624">
		<tag k="bridge" v="yes" />
		<tag k="layer" v="1" />
		<tag k="name" v="Trøstheim" />
		<tag k="ssr:stedsnr" v="46788" />
	</node>
	<node lat="60.42233610809327" lon="9.384019448136048" id="-11726">
		<tag k="bridge" v="yes" />
		<tag k="layer" v="1" />
		<tag k="name" v="Grøsland" />
		<tag k="ssr:stedsnr" v="168759" />
	</node>
	<node lat="60.42172222027982" lon="9.474744447329021" id="-11727">
		<tag k="bridge" v="yes" />
		<tag k="layer" v="1" />
		<tag k="name" v="Rud nordre" />
		<tag k="ssr:stedsnr" v="168766" />
	</node>
	<node lat="60.418252781393306" lon="9.480941659036935" id="-11728">
		<tag k="bridge" v="yes" />
		<tag k="layer" v="1" />
		<tag k="name" v="Rud Søndre" />
		<tag k="ssr:stedsnr" v="168767" />
	</node>
	<node lat="60.37086944700852" lon="9.271377772460971" id="-11734">
		<tag k="alt_name" v="Tollefsrudvarden" />
		<tag k="man_made" v="cairn" />
		<tag k="name" v="Tollevsrudvarden" />
		<tag k="place" v="locality" />
		<tag k="ssr:stedsnr" v="180380" />
	</node>
	<node lat="60.426811114275566" lon="9.33213332691448" id="-11768">
		<tag k="bridge" v="yes" />
		<tag k="layer" v="1" />
		<tag k="name" v="Haugeå" />
		<tag k="ssr:stedsnr" v="228799" />
	</node>
	<node lat="60.43885832948485" lon="9.460499993546268" id="-11804">
		<tag k="bridge" v="yes" />
		<tag k="layer" v="1" />
		<tag k="name" v="Vesleå" />
		<tag k="ssr:stedsnr" v="289826" />
	</node>
	<node lat="60.38861110999924" lon="9.563805551144478" id="-11814">
		<tag k="junction" v="yes" />
		<tag k="name" v="Veterkrysset" />
		<tag k="place" v="locality" />
		<tag k="ssr:stedsnr" v="300491" />
	</node>
	<node lat="60.38280555666403" lon="9.6076194396406" id="-11851">
		<tag k="name" v="Gulsvik stasjon" />
		<tag k="railway" v="station" />
		<tag k="ssr:stedsnr" v="343353" />
		<tag k="train" v="yes" />
	</node>
	<node lat="60.380586107685275" lon="9.401955551586644" id="-11868">
		<tag k="ford" v="yes" />
		<tag k="name" v="Sparkoppvadet" />
		<tag k="place" v="locality" />
		<tag k="ssr:stedsnr" v="370270" />
	</node>
	<node lat="60.42839166434155" lon="9.470222215583625" id="-11989">
		<tag k="bridge" v="yes" />
		<tag k="layer" v="1" />
		<tag k="name" v="Flå" />
		<tag k="ssr:stedsnr" v="471763" />
	</node>
	<node lat="60.38631388957566" lon="9.581002780421294" id="-11990">
		<tag k="bridge" v="yes" />
		<tag k="layer" v="1" />
		<tag k="name" v="Tuve" />
		<tag k="ssr:stedsnr" v="471774" />
	</node>
	<node lat="60.43004167104788" lon="9.38661666233009" id="-12026">
		<tag k="name" v="Veltehaugen" />
		<tag k="place" v="locality" />
		<tag k="ssr:stedsnr" v="542004" />
	</node>
	<node lat="60.38178333767686" lon="9.609427773435273" id="-12076">
		<tag k="bridge" v="yes" />
		<tag k="layer" v="1" />
		<tag k="name" v="Solheimselv" />
		<tag k="ssr:stedsnr" v="592809" />
	</node>
	<node lat="60.3863416657132" lon="9.57969166516824" id="-12191">
		<tag k="bridge" v="yes" />
		<tag k="layer" v="1" />
		<tag k="name" v="Gulsvik" />
		<tag k="ssr:stedsnr" v="896797" />
	</node>
	<node lat="60.40276666589639" lon="9.787641671320944" id="-12269">
		<tag k="ford" v="yes" />
		<tag k="name" v="Elgevad" />
		<tag k="place" v="locality" />
		<tag k="ssr:stedsnr" v="785460" />
	</node>
	<node lat="60.43219444729627" lon="9.473327786303305" id="-12302">
		<tag k="alt_name" v="Flå" />
		<tag k="name" v="Flå stasjon" />
		<tag k="railway" v="station" />
		<tag k="ssr:stedsnr" v="917139" />
		<tag k="train" v="yes" />
	</node>
	<node lat="60.37120555359043" lon="9.636475001816468" id="-12345">
		<tag k="bridge" v="yes" />
		<tag k="layer" v="1" />
		<tag k="name" v="Trommald" />
		<tag k="ssr:stedsnr" v="896804" />
	</node>
	<node lat="60.43904444290657" lon="9.45866388696883" id="-12521">
		<tag k="bridge" v="yes" />
		<tag k="layer" v="1" />
		<tag k="name" v="Heje" />
		<tag k="ssr:stedsnr" v="107778" />
	</node>
	<node lat="60.427336111371126" lon="9.46626944348799" id="-12522">
		<tag k="bridge" v="yes" />
		<tag k="layer" v="1" />
		<tag k="name" v="Stasjonsvegen" />
		<tag k="ssr:stedsnr" v="107783" />
	</node>
	<node lat="60.33015555280127" lon="9.653013884232218" id="-12523">
		<tag k="bridge" v="yes" />
		<tag k="layer" v="1" />
		<tag k="name" v="Tolleskytdalen" />
		<tag k="ssr:stedsnr" v="107784" />
	</node>
	<node lat="60.41838888911272" lon="9.259552779934989" id="-12589">
		<tag k="ford" v="yes" />
		<tag k="name" v="Krossmyrvadet" />
		<tag k="place" v="locality" />
		<tag k="ssr:stedsnr" v="178045" />
	</node>
	<node lat="60.42254444883675" lon="9.385494439198323" id="-12638">
		<tag k="bridge" v="yes" />
		<tag k="layer" v="1" />
		<tag k="name" v="Brøttin" />
		<tag k="ssr:stedsnr" v="289816" />
	</node>
	<node lat="60.423238891431424" lon="9.389816658172828" id="-12639">
		<tag k="bridge" v="yes" />
		<tag k="layer" v="1" />
		<tag k="name" v="Grøsland nordre" />
		<tag k="ssr:stedsnr" v="289820" />
	</node>
	<node lat="60.32328055631987" lon="9.671813885143273" id="-12695">
		<tag k="bridge" v="yes" />
		<tag k="layer" v="1" />
		<tag k="name" v="Lindelien" />
		<tag k="ssr:stedsnr" v="350748" />
	</node>
	<node lat="60.39053333647867" lon="9.533783328952753" id="-12748">
		<tag k="bridge" v="yes" />
		<tag k="layer" v="1" />
		<tag k="name" v="Sjølingelv" />
		<tag k="ssr:stedsnr" v="410759" />
	</node>
	<node lat="60.37660832937672" lon="9.355027770691882" id="-12768">
		<tag k="bridge" v="yes" />
		<tag k="layer" v="1" />
		<tag k="name" v="Tjernmyrkloppa" />
		<tag k="ssr:stedsnr" v="423424" />
	</node>
	<node lat="60.37054444420868" lon="9.637163892329704" id="-12803">
		<tag k="fixme" v="verify maritime location" />
		<tag k="mooring" v="yes" />
		<tag k="name" v="Trommaldstøa" />
		<tag k="place" v="locality" />
		<tag k="ssr:stedsnr" v="525399" />
	</node>
	<node lat="60.450111107446645" lon="9.275927779396584" id="-12808">
		<tag k="bridge" v="yes" />
		<tag k="layer" v="1" />
		<tag k="name" v="Gislerud" />
		<tag k="ssr:stedsnr" v="532758" />
	</node>
	<node lat="60.37456666403797" lon="9.584669446585355" id="-12809">
		<tag k="bridge" v="yes" />
		<tag k="layer" v="1" />
		<tag k="name" v="Kårmo" />
		<tag k="ssr:stedsnr" v="532762" />
	</node>
	<node lat="60.37198055509684" lon="9.636930561547441" id="-12810">
		<tag k="bridge" v="yes" />
		<tag k="layer" v="1" />
		<tag k="name" v="Trommaldelv" />
		<tag k="ssr:stedsnr" v="532764" />
	</node>
	<node lat="60.43298055584047" lon="9.484533330408125" id="-12826">
		<tag k="ford" v="yes" />
		<tag k="name" v="Sætervad" />
		<tag k="place" v="locality" />
		<tag k="ssr:stedsnr" v="542989" />
	</node>
	<node lat="60.439805553749785" lon="9.678041674910704" id="-12881">
		<tag k="highway" v="path" />
		<tag k="name" v="Sørbølseterkraket" />
		<tag k="ssr:stedsnr" v="603232" />
	</node>
	<node lat="60.39541389188729" lon="9.511174998620573" id="-12921">
		<tag k="bridge" v="yes" />
		<tag k="layer" v="1" />
		<tag k="name" v="Ganderud" />
		<tag k="ssr:stedsnr" v="653778" />
	</node>
	<node lat="60.39403055206837" lon="9.366447225232756" id="-12935">
		<tag k="ford" v="yes" />
		<tag k="name" v="Klype" />
		<tag k="place" v="locality" />
		<tag k="ssr:stedsnr" v="666391" />
	</node>
	<node lat="60.40349722490366" lon="9.496838884777429" id="-12941">
		<tag k="bridge" v="yes" />
		<tag k="layer" v="1" />
		<tag k="name" v="Hellerud" />
		<tag k="ssr:stedsnr" v="714744" />
	</node>
	<node lat="60.43898333555497" lon="9.377491672856108" id="-12957">
		<tag k="fixme" v="consider highway=path" />
		<tag k="highway" v="track" />
		<tag k="name" v="Bjørkerudvegen" />
		<tag k="ssr:stedsnr" v="724766" />
	</node>
	<node lat="60.43529722640605" lon="9.405561110207897" id="-13016">
		<tag k="bridge" v="yes" />
		<tag k="layer" v="1" />
		<tag k="name" v="Gaptjern" />
		<tag k="ssr:stedsnr" v="775747" />
	</node>
	<node lat="60.40808889199146" lon="9.274644447540247" id="-13052">
		<tag k="ford" v="yes" />
		<tag k="name" v="Eggedalsvadet" />
		<tag k="place" v="locality" />
		<tag k="ssr:stedsnr" v="795251" />
	</node>
	<node lat="60.42447777792005" lon="9.3956833295552" id="-13077">
		<tag k="bridge" v="yes" />
		<tag k="layer" v="1" />
		<tag k="name" v="Vesleåen" />
		<tag k="ssr:stedsnr" v="836772" />
	</node>
	<node lat="60.41629444030475" lon="9.781938888140767" id="-13090">
		<tag k="highway" v="path" />
		<tag k="name" v="Turistslepa" />
		<tag k="ssr:stedsnr" v="846495" />
	</node>
	<node lat="60.37313055416778" lon="9.63574167098201" id="-13136">
		<tag k="bridge" v="yes" />
		<tag k="layer" v="1" />
		<tag k="name" v="Trommaldfoss" />
		<tag k="ssr:stedsnr" v="957766" />
	</node>
</osm>
