<?xml version="1.0" encoding="UTF-8"?>
<<<<<<< HEAD
<osm version="0.6" generator="osmapis">
	<node lat="60.42239999788972" lon="9.250224994075877" id="-11599">
		<tag k="alt_name" v="Gammalsætertjern" />
		<tag k="name" v="Gamalsetertjern" />
		<tag k="natural" v="water" />
		<tag k="ssr:stedsnr" v="6176" />
	</node>
	<node lat="60.33306666292204" lon="9.613994441559004" id="-11602">
		<tag k="name" v="Rikolbekken" />
		<tag k="ssr:stedsnr" v="6869" />
		<tag k="waterway" v="stream" />
	</node>
	<node lat="60.330455554533444" lon="9.771205562490016" id="-11603">
		<tag k="alt_name" v="Moltetjern" />
		<tag k="name" v="Moltetjernet" />
		<tag k="natural" v="water" />
		<tag k="ssr:stedsnr" v="6883" />
	</node>
	<node lat="60.46394365387753" lon="9.661719472662991" id="-11604">
		<tag k="name" v="Fetjernan" />
		<tag k="natural" v="water" />
		<tag k="ssr:stedsnr" v="6887" />
		<tag k="water" v="lake" />
	</node>
	<node lat="60.407674999841035" lon="9.764280560609444" id="-11605">
		<tag k="alt_name" v="Buvann" />
		<tag k="name" v="Buvatnet" />
		<tag k="natural" v="water" />
		<tag k="ssr:stedsnr" v="6964" />
		<tag k="water" v="lake" />
	</node>
	<node lat="60.380749997379084" lon="9.724255552310996" id="-11606">
		<tag k="name" v="Åstjernet" />
		<tag k="natural" v="water" />
		<tag k="ssr:stedsnr" v="6967" />
	</node>
	<node lat="60.35328332893452" lon="9.518036110512535" id="-11612">
		<tag k="name" v="Brislingtjern" />
		<tag k="natural" v="water" />
		<tag k="ssr:stedsnr" v="39529" />
	</node>
	<node lat="60.404022219192946" lon="9.778633330355207" id="-11631">
		<tag k="name" v="Buvannsdammen" />
		<tag k="ssr:stedsnr" v="239476" />
		<tag k="waterway" v="dam" />
	</node>
	<node lat="60.42235000171983" lon="9.628861106173135" id="-11638">
		<tag k="name" v="Langelitjern" />
		<tag k="natural" v="water" />
		<tag k="ssr:stedsnr" v="57473" />
	</node>
	<node lat="60.41234166700929" lon="9.749672225920323" id="-11639">
		<tag k="name" v="Kalketjern" />
		<tag k="natural" v="water" />
		<tag k="ssr:stedsnr" v="57475" />
	</node>
	<node lat="60.377772217879105" lon="9.32016388196225" id="-11642">
		<tag k="name" v="Vassenden" />
		<tag k="natural" v="bay" />
		<tag k="ssr:stedsnr" v="59382" />
	</node>
	<node lat="60.41780833571271" lon="9.276161107186951" id="-11649">
		<tag k="name" v="Elgtjern" />
		<tag k="natural" v="water" />
		<tag k="ssr:stedsnr" v="67193" />
	</node>
	<node lat="60.32419999880076" lon="9.69660278628365" id="-11652">
		<tag k="alt_name" v="Damtjern" />
		<tag k="name" v="Damtjernet" />
		<tag k="natural" v="water" />
		<tag k="ssr:stedsnr" v="67816" />
	</node>
	<node lat="60.5654880948774" lon="9.412022946692597" id="-11653">
		<tag k="alt_name" v="Suluvatn" />
		<tag k="name" v="Suluvatnet" />
		<tag k="natural" v="water" />
		<tag k="ssr:stedsnr" v="67850" />
		<tag k="water" v="lake" />
	</node>
	<node lat="60.41210277791014" lon="9.65288055413165" id="-11654">
		<tag k="alt_name" v="Vesle Veåstjern" />
		<tag k="name" v="Vesle Veåstjernet" />
		<tag k="natural" v="water" />
		<tag k="ssr:stedsnr" v="67989" />
	</node>
	<node lat="60.473525004271536" lon="9.395700003238664" id="-11655">
		<tag k="name" v="Kvitjern" />
=======
<osm generator="osmapis" version="0.6">
	<node id="-270336" lat="60.5352388861" lon="9.59414445205">
		<tag k="name" v="Prestsandodden" />
		<tag k="natural" v="cape" />
		<tag k="ssr:stedsnr" v="663269" />
	</node>
	<node id="-270332" lat="60.5461555596" lon="9.39842777375">
		<tag k="name" v="Fetjabekken" />
		<tag k="ssr:stedsnr" v="735875" />
		<tag k="waterway" v="stream" />
	</node>
	<node id="-270327" lat="60.5282722219" lon="9.51590833979">
		<tag k="name" v="Greineløken" />
		<tag k="natural" v="water" />
		<tag k="ssr:stedsnr" v="735764" />
	</node>
	<node id="-270318" lat="60.3415555564" lon="9.7262666709">
		<tag k="name" v="Svarteputt" />
		<tag k="natural" v="water" />
		<tag k="ssr:stedsnr" v="734849" />
	</node>
	<node id="-270316" lat="60.347099997" lon="9.76137778454">
		<tag k="alt_name" v="Vestre Holmetjern" />
		<tag k="name" v="Vestre Holmetjernet" />
		<tag k="natural" v="water" />
		<tag k="ssr:stedsnr" v="734775" />
	</node>
	<node id="-270314" lat="60.5116620476" lon="9.37226895539">
		<tag k="name" v="Øvre Saulivatn" />
		<tag k="natural" v="water" />
		<tag k="ssr:stedsnr" v="648705" />
		<tag k="water" v="lake" />
	</node>
	<node id="-270312" lat="60.4796249989" lon="9.31711111441">
		<tag k="name" v="Seterlitjern" />
		<tag k="natural" v="water" />
		<tag k="ssr:stedsnr" v="648510" />
	</node>
	<node id="-270311" lat="60.4579888914" lon="9.58075277067">
		<tag k="alt_name" v="Grautebekk" />
		<tag k="name" v="Grautebekken" />
		<tag k="ssr:stedsnr" v="734410" />
		<tag k="waterway" v="stream" />
	</node>
	<node id="-270309" lat="60.4631361133" lon="9.39295554769">
		<tag k="name" v="Oksetjern" />
		<tag k="natural" v="water" />
		<tag k="ssr:stedsnr" v="734398" />
	</node>
	<node id="-270307" lat="60.4727027735" lon="9.51131666618">
		<tag k="name" v="Olaseterbekken" />
		<tag k="ssr:stedsnr" v="734392" />
		<tag k="waterway" v="stream" />
	</node>
	<node id="-270302" lat="60.393955904" lon="9.29688506044">
		<tag k="name" v="Nedre Kimbetjern" />
		<tag k="natural" v="water" />
		<tag k="ssr:stedsnr" v="734275" />
	</node>
	<node id="-270301" lat="60.3742444403" lon="9.45854444256">
		<tag k="name" v="Sjølingelve" />
		<tag k="old_name" v="Sjølingelva" />
		<tag k="ssr:stedsnr" v="734266" />
		<tag k="waterway" v="river" />
	</node>
	<node id="-270300" lat="60.3843000022" lon="9.56760000816">
		<tag k="alt_name" v="Gulsviktjern" />
		<tag k="name" v="Gulsviktjernet" />
		<tag k="natural" v="water" />
		<tag k="ssr:stedsnr" v="734255" />
	</node>
	<node id="-270298" lat="60.421949998" lon="9.52687500779">
		<tag k="name" v="Dugurdsnattjern" />
		<tag k="natural" v="water" />
		<tag k="ssr:stedsnr" v="734237" />
	</node>
	<node id="-270288" lat="60.4465750017" lon="9.3945527838">
		<tag k="alt_name" v="Svarttjern" />
		<tag k="name" v="Svartetjern" />
		<tag k="natural" v="water" />
		<tag k="ssr:stedsnr" v="734148" />
	</node>
	<node id="-270283" lat="60.3006638851" lon="9.55050277743">
		<tag k="name" v="Fiskebekk" />
		<tag k="ssr:stedsnr" v="734041" />
		<tag k="waterway" v="stream" />
	</node>
	<node id="-270280" lat="60.3407500035" lon="9.37849999515">
		<tag k="name" v="Vollebekkvatni" />
		<tag k="natural" v="water" />
		<tag k="ssr:stedsnr" v="734013" />
		<tag k="water" v="lake" />
	</node>
	<node id="-270277" lat="60.5217979306" lon="9.32742621508">
		<tag k="name" v="Brennåstjern" />
		<tag k="natural" v="water" />
		<tag k="ssr:stedsnr" v="632454" />
	</node>
	<node id="-270272" lat="60.3681944472" lon="9.34826388135">
		<tag k="name" v="Nordstugubekken" />
		<tag k="ssr:stedsnr" v="727352" />
		<tag k="waterway" v="stream" />
	</node>
	<node id="-270270" lat="60.3863416629" lon="9.30341388096">
		<tag k="name" v="Steffanfoss" />
		<tag k="natural" v="waterfall" />
		<tag k="ssr:stedsnr" v="727383" />
	</node>
	<node id="-270267" lat="60.3782083347" lon="9.29436111685">
		<tag k="name" v="Liabekk" />
		<tag k="ssr:stedsnr" v="727365" />
		<tag k="waterway" v="stream" />
	</node>
	<node id="-270262" lat="60.4447027797" lon="9.43349444395">
		<tag k="name" v="Gåsøyne" />
		<tag k="place" v="islet" />
		<tag k="ssr:stedsnr" v="724989" />
	</node>
	<node id="-270259" lat="60.4059750024" lon="9.77637500245">
		<tag k="name" v="Buvannsodden" />
		<tag k="natural" v="cape" />
		<tag k="ssr:stedsnr" v="724465" />
	</node>
	<node id="-270247" lat="60.3320777769" lon="9.7022388973">
		<tag k="alt_name" v="Ingridtjern" />
		<tag k="name" v="Ingridtjernet" />
		<tag k="natural" v="water" />
		<tag k="ssr:stedsnr" v="613857" />
	</node>
	<node id="-270235" lat="60.3530999971" lon="9.42997499961">
		<tag k="name" v="Jakobslitjern" />
		<tag k="natural" v="water" />
		<tag k="ssr:stedsnr" v="613008" />
	</node>
	<node id="-270234" lat="60.3493749976" lon="9.44269999372">
		<tag k="name" v="Bjørnetjern" />
		<tag k="natural" v="water" />
		<tag k="ssr:stedsnr" v="613002" />
	</node>
	<node id="-270232" lat="60.3643527768" lon="9.73302777788">
		<tag k="alt_name" v="Langtjern" />
		<tag k="name" v="Langtjernet" />
>>>>>>> e1d4bc35ff8a6074a6f2e91616a996b547c36f15
		<tag k="natural" v="water" />
		<tag k="ssr:stedsnr" v="612805" />
	</node>
<<<<<<< HEAD
	<node lat="60.49207499795015" lon="9.322025001837842" id="-11658">
		<tag k="alt_name" v="Nysetertjern" />
		<tag k="name" v="Øvre Nysetertjern" />
=======
	<node id="-270231" lat="60.3661916644" lon="9.69331110439">
		<tag k="alt_name" v="Røvsholtjern" />
		<tag k="name" v="Revsholtjernet" />
>>>>>>> e1d4bc35ff8a6074a6f2e91616a996b547c36f15
		<tag k="natural" v="water" />
		<tag k="ssr:stedsnr" v="612802" />
	</node>
<<<<<<< HEAD
	<node lat="60.374330559014886" lon="9.6050694459633" id="-11663">
		<tag k="loc_name" v="Nobbe" />
		<tag k="name" v="Nøbbe" />
		<tag k="natural" v="cape" />
		<tag k="ssr:stedsnr" v="101375" />
	</node>
	<node lat="60.561447225000116" lon="9.353202783231918" id="-11664">
		<tag k="name" v="Hestlidalbekken" />
		<tag k="ssr:stedsnr" v="101706" />
		<tag k="waterway" v="stream" />
	</node>
	<node lat="60.46636944744498" lon="9.407761107052679" id="-11665">
		<tag k="name" v="Hellebekktjern" />
		<tag k="natural" v="water" />
		<tag k="ssr:stedsnr" v="102605" />
	</node>
	<node lat="60.371924929757284" lon="9.691404271890075" id="-11681">
		<tag k="alt_name" v="Fagertjern" />
		<tag k="name" v="Fagersitjernet" />
		<tag k="natural" v="water" />
		<tag k="ssr:stedsnr" v="249777" />
	</node>
	<node lat="60.33741111238517" lon="9.644797229385478" id="-11684">
		<tag k="name" v="Ståloddeberget" />
		<tag k="natural" v="cape" />
		<tag k="ssr:stedsnr" v="249859" />
	</node>
	<node lat="60.39974109905381" lon="9.71961298905737" id="-11685">
		<tag k="name" v="Langvatnet" />
		<tag k="natural" v="water" />
		<tag k="ssr:stedsnr" v="249946" />
		<tag k="water" v="lake" />
	</node>
	<node lat="60.38775036154564" lon="9.702030485681357" id="-11687">
		<tag k="name" v="Gørrtjernan" />
		<tag k="natural" v="water" />
		<tag k="ssr:stedsnr" v="249960" />
		<tag k="water" v="lake" />
	</node>
	<node lat="60.51871111172729" lon="9.532016662048301" id="-11688">
		<tag k="name" v="Gjermundbekken" />
		<tag k="ssr:stedsnr" v="250768" />
		<tag k="waterway" v="stream" />
	</node>
	<node lat="60.45515278109681" lon="9.296838893434126" id="-11694">
		<tag k="alt_name" v="Kvernabekken" />
		<tag k="name" v="Kvernbekken" />
		<tag k="ssr:stedsnr" v="126348" />
		<tag k="waterway" v="stream" />
	</node>
	<node lat="60.311949999454434" lon="9.4286750081471" id="-11697">
		<tag k="name" v="Fagerlibekken" />
		<tag k="ssr:stedsnr" v="127058" />
		<tag k="waterway" v="stream" />
	</node>
	<node lat="60.44048055926134" lon="9.493766673844396" id="-11698">
		<tag k="name" v="Vesbekken" />
		<tag k="ssr:stedsnr" v="127205" />
		<tag k="waterway" v="stream" />
	</node>
	<node lat="60.41337499750323" lon="9.552125001363736" id="-11702">
		<tag k="name" v="Brunåi" />
		<tag k="ssr:stedsnr" v="127243" />
		<tag k="waterway" v="stream" />
	</node>
	<node lat="60.46241389208095" lon="9.451441668602678" id="-11705">
		<tag k="alt_name" v="Heieelva" />
		<tag k="name" v="Heieelvi" />
		<tag k="ssr:stedsnr" v="127156" />
		<tag k="waterway" v="river" />
	</node>
	<node lat="60.45935832967388" lon="9.43029166788982" id="-11706">
		<tag k="name" v="Trytetjern" />
		<tag k="natural" v="water" />
		<tag k="ssr:stedsnr" v="127159" />
	</node>
	<node lat="60.51169711413668" lon="9.424841004627496" id="-11712">
		<tag k="alt_name" v="Raufjellvatn" />
		<tag k="name" v="Raudfjellvatnet" />
		<tag k="natural" v="water" />
		<tag k="ssr:stedsnr" v="128783" />
	</node>
	<node lat="60.51338288969393" lon="9.31849870768446" id="-11713">
		<tag k="name" v="Bødalsvatnet" />
		<tag k="natural" v="water" />
		<tag k="ssr:stedsnr" v="128790" />
		<tag k="water" v="lake" />
	</node>
	<node lat="60.49971111125404" lon="9.391869450746533" id="-11714">
		<tag k="alt_name" v="Saulielva" />
		<tag k="name" v="Saulielvi" />
		<tag k="ssr:stedsnr" v="128794" />
		<tag k="waterway" v="stream" />
	</node>
	<node lat="60.56256666953018" lon="9.410502775822541" id="-11722">
		<tag k="name" v="Langodden" />
		<tag k="natural" v="cape" />
		<tag k="ssr:stedsnr" v="161615" />
	</node>
	<node lat="60.416722221665445" lon="9.420811107571032" id="-11731">
		<tag k="name" v="Haugemyrhøl" />
		<tag k="natural" v="water" />
		<tag k="ssr:stedsnr" v="178025" />
		<tag k="water" v="pond" />
	</node>
	<node lat="60.474024999795354" lon="9.28769722763162" id="-11736">
		<tag k="name" v="Kleivetjern" />
		<tag k="natural" v="water" />
		<tag k="ssr:stedsnr" v="187324" />
	</node>
	<node lat="60.34324351530188" lon="9.479409453834549" id="-11737">
		<tag k="name" v="Holmetjern" />
		<tag k="natural" v="water" />
		<tag k="ssr:stedsnr" v="188008" />
	</node>
	<node lat="60.353677781763146" lon="9.335450001707896" id="-11739">
		<tag k="name" v="Flåbekken" />
		<tag k="ssr:stedsnr" v="188025" />
		<tag k="waterway" v="stream" />
	</node>
	<node lat="60.45387500056636" lon="9.492800004362556" id="-11745">
		<tag k="alt_name" v="Nedre Vesleåntjern" />
		<tag k="name" v="Nedre Vesleåtjern" />
		<tag k="natural" v="water" />
		<tag k="ssr:stedsnr" v="188180" />
	</node>
	<node lat="60.39086388805769" lon="9.30539722184682" id="-11746">
		<tag k="alt_name" v="Kimbefoss" />
		<tag k="name" v="Kimbefossen" />
		<tag k="natural" v="waterfall" />
		<tag k="ssr:stedsnr" v="188273" />
	</node>
	<node lat="60.446794440821776" lon="9.399336119442573" id="-11747">
		<tag k="alt_name" v="Raubekk" />
		<tag k="name" v="Raudbekken" />
		<tag k="ssr:stedsnr" v="188627" />
		<tag k="waterway" v="stream" />
	</node>
	<node lat="60.48227500424705" lon="9.502749991395278" id="-11749">
		<tag k="name" v="Gøffeputten" />
		<tag k="natural" v="water" />
		<tag k="ssr:stedsnr" v="188375" />
	</node>
	<node lat="60.484124997630936" lon="9.53463888929719" id="-11750">
		<tag k="alt_name" v="Svartetjern" />
		<tag k="name" v="Svarttjern" />
		<tag k="natural" v="water" />
		<tag k="ssr:stedsnr" v="188376" />
	</node>
	<node lat="60.48497778061673" lon="9.521875004575799" id="-11751">
		<tag k="alt_name" v="Nedre Kvilartjern" />
		<tag k="name" v="Olastjern" />
		<tag k="natural" v="water" />
		<tag k="ssr:stedsnr" v="188378" />
	</node>
	<node lat="60.38398855331629" lon="9.812564317146567" id="-11753">
		<tag k="alt_name" v="Frisvannet" />
		<tag k="name" v="Frisvatnet" />
		<tag k="natural" v="water" />
		<tag k="ssr:stedsnr" v="188812" />
		<tag k="water" v="lake" />
	</node>
	<node lat="60.325014082391306" lon="9.728592844159959" id="-11754">
		<tag k="alt_name" v="Svarttjern" />
		<tag k="name" v="Svarttjernet" />
		<tag k="natural" v="water" />
		<tag k="ssr:stedsnr" v="188875" />
	</node>
	<node lat="60.33141111340234" lon="9.780886106584083" id="-11755">
		<tag k="name" v="Feletjern" />
		<tag k="natural" v="water" />
		<tag k="ssr:stedsnr" v="188890" />
	</node>
	<node lat="60.37176111411496" lon="9.499472229866303" id="-11758">
		<tag k="name" v="Fjellelva" />
		<tag k="ssr:stedsnr" v="222520" />
		<tag k="waterway" v="stream" />
	</node>
	<node lat="60.5530833321021" lon="9.351852780018673" id="-11760">
		<tag k="name" v="Jutulfottjern" />
		<tag k="natural" v="water" />
		<tag k="ssr:stedsnr" v="222677" />
	</node>
	<node lat="60.460205558998645" lon="9.453738891369838" id="-11764">
		<tag k="name" v="Vøttehølen" />
		<tag k="place" v="locality" />
		<tag k="ssr:stedsnr" v="223611" />
	</node>
	<node lat="60.429363886707215" lon="9.403227771690062" id="-11770">
		<tag k="name" v="Velteøyne" />
		<tag k="place" v="islet" />
		<tag k="ssr:stedsnr" v="239008" />
	</node>
	<node lat="60.448172225290286" lon="9.397827771060484" id="-11777">
		<tag k="name" v="Høgfossen" />
		<tag k="natural" v="waterfall" />
		<tag k="ssr:stedsnr" v="239789" />
	</node>
	<node lat="60.41667777906599" lon="9.263352782426184" id="-11784">
		<tag k="alt_name" v="Brennebekk" />
		<tag k="name" v="Brennebekken" />
		<tag k="ssr:stedsnr" v="248215" />
		<tag k="waterway" v="stream" />
	</node>
	<node lat="60.382474997539596" lon="9.296699991053202" id="-11790">
		<tag k="name" v="Kimbetjern" />
		<tag k="natural" v="water" />
		<tag k="ssr:stedsnr" v="249209" />
	</node>
	<node lat="60.48759217665348" lon="9.514470428798539" id="-11793">
		<tag k="alt_name" v="Øvre Kvilartjern" />
		<tag k="name" v="Kvilartjern" />
		<tag k="natural" v="water" />
		<tag k="ssr:stedsnr" v="249327" />
	</node>
	<node lat="60.50727222091996" lon="9.3915611190863" id="-11802">
		<tag k="name" v="Rundeløk" />
		<tag k="natural" v="water" />
		<tag k="ssr:stedsnr" v="285678" />
	</node>
	<node lat="60.51386666978339" lon="9.387177783871486" id="-11803">
		<tag k="name" v="Nedre Saulivatn" />
		<tag k="natural" v="water" />
		<tag k="ssr:stedsnr" v="285682" />
		<tag k="water" v="lake" />
	</node>
	<node lat="60.395261106845325" lon="9.698925001197432" id="-11808">
		<tag k="name" v="Gørrtjern" />
		<tag k="natural" v="water" />
		<tag k="ssr:stedsnr" v="300503" />
	</node>
	<node lat="60.3222694485205" lon="9.58971111906461" id="-11820">
		<tag k="name" v="Storrløken" />
		<tag k="natural" v="water" />
		<tag k="ssr:stedsnr" v="464184" />
	</node>
	<node lat="60.45591388747769" lon="9.345494448947456" id="-11828">
		<tag k="alt_name" v="Nysæterbekken" />
		<tag k="name" v="Nyseterbekken" />
		<tag k="ssr:stedsnr" v="309140" />
		<tag k="waterway" v="stream" />
	</node>
	<node lat="60.4954833343972" lon="9.313533339056335" id="-11832">
		<tag k="name" v="Gampetjern" />
		<tag k="natural" v="water" />
		<tag k="ssr:stedsnr" v="309356" />
	</node>
	<node lat="60.48339444165413" lon="9.427952785362367" id="-11833">
		<tag k="name" v="Hangfoss" />
		<tag k="natural" v="waterfall" />
		<tag k="ssr:stedsnr" v="309383" />
	</node>
	<node lat="60.47698888926388" lon="9.448150002719508" id="-11834">
		<tag k="name" v="Erskoløken" />
		<tag k="ssr:stedsnr" v="309384" />
		<tag k="waterway" v="river" />
	</node>
	<node lat="60.44952499741157" lon="9.377761106227767" id="-11837">
		<tag k="alt_name" v="Rimeelva" />
		<tag k="name" v="Rimeelvi" />
		<tag k="ssr:stedsnr" v="309398" />
		<tag k="waterway" v="river" />
	</node>
	<node lat="60.46092499726575" lon="9.34447221961446" id="-11838">
		<tag k="alt_name" v="Nysæterputten" />
		<tag k="name" v="Nyseterputten" />
		<tag k="place" v="locality" />
		<tag k="ssr:stedsnr" v="309399" />
	</node>
	<node lat="60.417324997309585" lon="9.64836666256413" id="-11843">
		<tag k="fixme" v="multiple name tags, choose one and add the other to alt_name" />
		<tag k="name" v="Store Veåstjernet;Veåstjern" />
		<tag k="natural" v="water" />
		<tag k="ssr:stedsnr" v="310000" />
	</node>
	<node lat="60.52097777825118" lon="9.470891662429068" id="-11844">
		<tag k="alt_name" v="Venelibekk" />
		<tag k="name" v="Venelibekken" />
		<tag k="ssr:stedsnr" v="310778" />
		<tag k="waterway" v="stream" />
	</node>
	<node lat="60.52247500323272" lon="9.373613889766276" id="-11845">
		<tag k="name" v="Dagalitjern" />
		<tag k="natural" v="water" />
		<tag k="ssr:stedsnr" v="310781" />
	</node>
	<node lat="60.49880555797495" lon="9.403200007729428" id="-11847">
		<tag k="name" v="Raubekk" />
		<tag k="ssr:stedsnr" v="466740" />
		<tag k="waterway" v="stream" />
	</node>
	<node lat="60.50107777526597" lon="9.341897227627262" id="-11848">
		<tag k="name" v="Langeleinbekken" />
		<tag k="ssr:stedsnr" v="466742" />
		<tag k="waterway" v="stream" />
	</node>
	<node lat="60.43478611150922" lon="9.409200007796183" id="-11854">
		<tag k="name" v="Gaptjerntjern" />
		<tag k="natural" v="water" />
		<tag k="ssr:stedsnr" v="343863" />
	</node>
	<node lat="60.35590000162022" lon="9.330875006091572" id="-11859">
		<tag k="name" v="Toveelvi" />
		<tag k="ssr:stedsnr" v="370034" />
		<tag k="waterway" v="stream" />
	</node>
	<node lat="60.43535000332797" lon="9.320225002819063" id="-11862">
		<tag k="alt_name" v="Kråkeneshølen" />
		<tag k="name" v="Kråkneshølen" />
		<tag k="place" v="locality" />
		<tag k="ssr:stedsnr" v="370163" />
	</node>
	<node lat="60.39780000416289" lon="9.530325007614708" id="-11870">
		<tag k="name" v="Trolltjern" />
		<tag k="natural" v="water" />
		<tag k="ssr:stedsnr" v="370287" />
	</node>
	<node lat="60.39627500384295" lon="9.678525007801351" id="-11875">
		<tag k="name" v="Lomtjernet" />
		<tag k="natural" v="water" />
		<tag k="ssr:stedsnr" v="370977" />
	</node>
	<node lat="60.533523979391205" lon="9.552235829103612" id="-11876">
		<tag k="fixme" v="multiple name tags, choose one and add the other to alt_name" />
		<tag k="loc_name" v="Aurdalsvatnet" />
		<tag k="name" v="Aurdalsfjorden;Aurdalsvannet" />
		<tag k="natural" v="water" />
		<tag k="ssr:stedsnr" v="371761" />
		<tag k="water" v="lake" />
	</node>
	<node lat="60.500575003963874" lon="9.43687777557568" id="-11877">
		<tag k="alt_name" v="Styrmannstjern" />
		<tag k="name" v="Styrmanntjern" />
		<tag k="natural" v="water" />
		<tag k="ssr:stedsnr" v="371802" />
	</node>
	<node lat="60.404927774244435" lon="9.769469450253139" id="-11878">
		<tag k="name" v="Langodden" />
		<tag k="natural" v="cape" />
		<tag k="ssr:stedsnr" v="481510" />
	</node>
	<node lat="60.411977777395045" lon="9.764497222706988" id="-11879">
		<tag k="name" v="Trytebergvika" />
		<tag k="natural" v="bay" />
		<tag k="ssr:stedsnr" v="481526" />
	</node>
	<node lat="60.39110555558031" lon="9.411863885549494" id="-11885">
		<tag k="name" v="Trytetjernbekken" />
		<tag k="ssr:stedsnr" v="484120" />
		<tag k="waterway" v="stream" />
	</node>
	<node lat="60.40900833396346" lon="9.281513889315233" id="-11889">
		<tag k="name" v="Brennebekk" />
		<tag k="ssr:stedsnr" v="484351" />
		<tag k="waterway" v="stream" />
	</node>
	<node lat="60.394038886110955" lon="9.336580550676583" id="-11890">
		<tag k="name" v="Brennåstjernet" />
		<tag k="natural" v="water" />
		<tag k="ssr:stedsnr" v="484353" />
	</node>
	<node lat="60.31435555626561" lon="9.638694445996006" id="-11893">
		<tag k="name" v="Hyttebekken" />
		<tag k="ssr:stedsnr" v="404177" />
		<tag k="waterway" v="stream" />
	</node>
	<node lat="60.45938333745433" lon="9.497761114167362" id="-11895">
		<tag k="name" v="Rakafiskputten" />
		<tag k="natural" v="bay" />
		<tag k="ssr:stedsnr" v="405537" />
	</node>
	<node lat="60.47602500222799" lon="9.356527785175206" id="-11907">
		<tag k="name" v="Huldratjernan" />
		<tag k="natural" v="water" />
		<tag k="old_name" v="Hudratj(ørn)ene;Hudratjerna" />
		<tag k="ssr:stedsnr" v="430346" />
		<tag k="water" v="lake" />
	</node>
	<node lat="60.46903611484222" lon="9.326447221113751" id="-11908">
		<tag k="name" v="Jordesbekken" />
		<tag k="ssr:stedsnr" v="430353" />
		<tag k="waterway" v="stream" />
	</node>
	<node lat="60.4659500011942" lon="9.480424995086677" id="-11909">
		<tag k="name" v="Slåttemyrtjern" />
		<tag k="natural" v="water" />
		<tag k="ssr:stedsnr" v="430356" />
	</node>
	<node lat="60.33279965279165" lon="9.581834534861542" id="-11912">
		<tag k="alt_name" v="Svartetjern" />
		<tag k="name" v="Svarttjern" />
		<tag k="natural" v="water" />
		<tag k="ssr:stedsnr" v="491056" />
	</node>
	<node lat="60.47613888472632" lon="9.509569444478341" id="-11914">
		<tag k="alt_name" v="Vesleåni" />
		<tag k="name" v="Vesleåi" />
		<tag k="ssr:stedsnr" v="491143" />
		<tag k="waterway" v="stream" />
	</node>
	<node lat="60.3740027805235" lon="9.487574999550455" id="-11925">
		<tag k="alt_name" v="Lisætertjern" />
		<tag k="name" v="Lisetertjern" />
		<tag k="natural" v="water" />
		<tag k="ssr:stedsnr" v="431252" />
	</node>
	<node lat="60.45796388611484" lon="9.499444450802264" id="-11926">
		<tag k="alt_name" v="Øvre Vesleåntjern" />
		<tag k="name" v="Øvre Vesleåtjern" />
		<tag k="natural" v="water" />
		<tag k="ssr:stedsnr" v="491163" />
	</node>
	<node lat="60.44049999627042" lon="9.317252779380636" id="-11929">
		<tag k="alt_name" v="Bottentjern" />
		<tag k="name" v="Botntjern" />
		<tag k="natural" v="water" />
		<tag k="ssr:stedsnr" v="431148" />
	</node>
	<node lat="60.4348055593267" lon="9.542061109795101" id="-11930">
		<tag k="name" v="Suserudbekken" />
		<tag k="ssr:stedsnr" v="431193" />
		<tag k="waterway" v="stream" />
	</node>
	<node lat="60.4946250028843" lon="9.368974998880255" id="-11936">
		<tag k="name" v="Hellebekktjern" />
		<tag k="natural" v="water" />
		<tag k="ssr:stedsnr" v="491336" />
	</node>
	<node lat="60.48745555906662" lon="9.35660000204365" id="-11937">
		<tag k="name" v="Mosebekk" />
		<tag k="ssr:stedsnr" v="491338" />
		<tag k="waterway" v="stream" />
	</node>
	<node lat="60.32928333757797" lon="9.652833335862962" id="-11939">
		<tag k="loc_name" v="Nobbe" />
		<tag k="name" v="Nøbbe" />
		<tag k="natural" v="cape" />
		<tag k="ssr:stedsnr" v="431885" />
	</node>
	<node lat="60.47087500422743" lon="9.387083339447427" id="-11942">
		<tag k="alt_name" v="Stormyrtjern" />
		<tag k="name" v="Stormyrtjernet" />
		<tag k="natural" v="water" />
		<tag k="ssr:stedsnr" v="491375" />
	</node>
	<node lat="60.53786488665698" lon="9.463086703436574" id="-11949">
		<tag k="name" v="Nevlingen" />
		<tag k="natural" v="water" />
		<tag k="ssr:stedsnr" v="432736" />
		<tag k="water" v="lake" />
	</node>
	<node lat="60.42365555891132" lon="9.765691675110844" id="-11954">
		<tag k="alt_name" v="Fjellelva" />
		<tag k="name" v="Fjellelvi" />
		<tag k="ssr:stedsnr" v="491969" />
		<tag k="waterway" v="river" />
	</node>
	<node lat="60.412372219884354" lon="9.422316675221579" id="-11955">
		<tag k="name" v="Trøstheimbekken" />
		<tag k="ssr:stedsnr" v="492132" />
		<tag k="waterway" v="stream" />
	</node>
	<node lat="60.31212778150104" lon="9.446974998872038" id="-11959">
		<tag k="name" v="Høgvardebekken" />
		<tag k="ssr:stedsnr" v="673067" />
		<tag k="waterway" v="stream" />
	</node>
	<node lat="60.352863885233425" lon="9.797527781172613" id="-11972">
		<tag k="alt_name" v="Kollepytt" />
		<tag k="name" v="Kolleputten" />
		<tag k="natural" v="water" />
		<tag k="ssr:stedsnr" v="673752" />
	</node>
	<node lat="60.463650002348224" lon="9.710752780268058" id="-11973">
		<tag k="name" v="Stjerneskardtjern" />
		<tag k="natural" v="water" />
		<tag k="ssr:stedsnr" v="673881" />
	</node>
	<node lat="60.459913888584886" lon="9.75134999704721" id="-11974">
		<tag k="name" v="Øvre Prestgardstjernet" />
		<tag k="natural" v="water" />
		<tag k="ssr:stedsnr" v="673887" />
	</node>
	<node lat="60.378086109799156" lon="9.693244440958926" id="-11984">
		<tag k="alt_name" v="Røvshølbekken" />
		<tag k="name" v="Revsholbekken" />
		<tag k="ssr:stedsnr" v="674789" />
		<tag k="waterway" v="stream" />
	</node>
	<node lat="60.39246388458845" lon="9.716430560257296" id="-11996">
		<tag k="name" v="Fellebekktjern" />
		<tag k="natural" v="water" />
		<tag k="ssr:stedsnr" v="481507" />
	</node>
	<node lat="60.32309167084963" lon="9.56569999493976" id="-11997">
		<tag k="name" v="Fjelltjern" />
		<tag k="natural" v="water" />
		<tag k="ssr:stedsnr" v="484063" />
	</node>
	<node lat="60.371363886623236" lon="9.362041661648995" id="-11998">
		<tag k="name" v="Rolighølbekken" />
		<tag k="ssr:stedsnr" v="484322" />
		<tag k="waterway" v="stream" />
	</node>
	<node lat="60.41596389144621" lon="9.410833333358289" id="-12000">
		<tag k="name" v="Vesleåi" />
		<tag k="ssr:stedsnr" v="491602" />
		<tag k="waterway" v="stream" />
	</node>
	<node lat="60.449750002619666" lon="9.673175001172657" id="-12001">
		<tag k="loc_name" v="Fetjaløken" />
		<tag k="name" v="Fekjaløken" />
		<tag k="place" v="locality" />
		<tag k="ssr:stedsnr" v="491908" />
	</node>
	<node lat="60.316086109915574" lon="9.742219441053352" id="-12008">
		<tag k="name" v="Steinbekken" />
		<tag k="ssr:stedsnr" v="492810" />
		<tag k="waterway" v="stream" />
	</node>
	<node lat="60.51496388671838" lon="9.555083336741486" id="-12010">
		<tag k="name" v="Busandbekken" />
		<tag k="ssr:stedsnr" v="492768" />
		<tag k="waterway" v="stream" />
	</node>
	<node lat="60.31747499887339" lon="9.594125006675599" id="-12015">
		<tag k="alt_name" v="Hallingtjern" />
		<tag k="name" v="Hallingtjernet" />
		<tag k="natural" v="water" />
		<tag k="ssr:stedsnr" v="492872" />
	</node>
	<node lat="60.36726389220117" lon="9.499675006944049" id="-12020">
		<tag k="name" v="Flettetjern" />
		<tag k="natural" v="water" />
		<tag k="ssr:stedsnr" v="525572" />
	</node>
	<node lat="60.36326944692941" lon="9.695394437840106" id="-12021">
		<tag k="name" v="Granbuløken" />
		<tag k="ssr:stedsnr" v="525576" />
		<tag k="waterway" v="stream" />
	</node>
	<node lat="60.48698055454618" lon="9.50164166064339" id="-12024">
		<tag k="name" v="Uksehølun" />
		<tag k="natural" v="water" />
		<tag k="ssr:stedsnr" v="525724" />
	</node>
	<node lat="60.358900001673966" lon="9.44957499567952" id="-12043">
		<tag k="name" v="Ormetjern" />
		<tag k="natural" v="water" />
		<tag k="ssr:stedsnr" v="552041" />
	</node>
	<node lat="60.36923055693136" lon="9.58330832499731" id="-12045">
		<tag k="alt_name" v="Gulsvikelva" />
		<tag k="name" v="Gulsvikelvi" />
		<tag k="ssr:stedsnr" v="552050" />
		<tag k="waterway" v="river" />
	</node>
	<node lat="60.40563333435138" lon="9.25894166253101" id="-12047">
		<tag k="alt_name" v="Sindrebekk" />
		<tag k="name" v="Sindrebekken" />
		<tag k="ssr:stedsnr" v="552220" />
		<tag k="waterway" v="stream" />
	</node>
	<node lat="60.370880552119296" lon="9.246355554744557" id="-12050">
		<tag k="name" v="Fellebekk" />
		<tag k="ssr:stedsnr" v="552240" />
		<tag k="waterway" v="stream" />
	</node>
	<node lat="60.3451999996036" lon="9.427952775069805" id="-12054">
		<tag k="name" v="Fjellelvi" />
		<tag k="ssr:stedsnr" v="552001" />
		<tag k="waterway" v="stream" />
	</node>
	<node lat="60.450952774948995" lon="9.756155552089863" id="-12058">
		<tag k="name" v="Nedre Prestgardstjernet" />
		<tag k="natural" v="water" />
		<tag k="ssr:stedsnr" v="552918" />
	</node>
	<node lat="60.529783330001536" lon="9.611586102266028" id="-12059">
		<tag k="name" v="Fjellelva" />
		<tag k="ssr:stedsnr" v="552923" />
		<tag k="waterway" v="stream" />
	</node>
	<node lat="60.539233333315536" lon="9.346527779917663" id="-12075">
		<tag k="name" v="Lakrisputtan" />
		<tag k="natural" v="water" />
		<tag k="ssr:stedsnr" v="588714" />
		<tag k="water" v="lake" />
	</node>
	<node lat="60.464205552330704" lon="9.571680559254494" id="-12080">
		<tag k="name" v="Fjellbekken" />
		<tag k="ssr:stedsnr" v="603256" />
		<tag k="waterway" v="stream" />
	</node>
	<node lat="60.40322499819037" lon="9.45072777757358" id="-12086">
		<tag k="name" v="Nordtjern" />
		<tag k="natural" v="water" />
		<tag k="ssr:stedsnr" v="612211" />
	</node>
	<node lat="60.48554999987787" lon="9.441749998308188" id="-12088">
		<tag k="alt_name" v="Hangsbekk" />
		<tag k="name" v="Hangsbekken" />
		<tag k="ssr:stedsnr" v="612366" />
		<tag k="waterway" v="stream" />
	</node>
	<node lat="60.46772364314135" lon="9.44547554440122" id="-12091">
		<tag k="alt_name" v="Brøskapstjern" />
		<tag k="name" v="Brødskåpstjern" />
		<tag k="natural" v="water" />
		<tag k="ssr:stedsnr" v="612387" />
	</node>
	<node lat="60.36619166442992" lon="9.69331110439354" id="-12092">
		<tag k="alt_name" v="Røvsholtjern" />
		<tag k="name" v="Revsholtjernet" />
		<tag k="natural" v="water" />
		<tag k="ssr:stedsnr" v="612802" />
	</node>
	<node lat="60.36435277684354" lon="9.733027777877645" id="-12093">
		<tag k="alt_name" v="Langtjern" />
		<tag k="name" v="Langtjernet" />
		<tag k="natural" v="water" />
		<tag k="ssr:stedsnr" v="612805" />
	</node>
	<node lat="60.3510337925342" lon="9.267405281493692" id="-12096">
		<tag k="name" v="Småtjenna" />
		<tag k="natural" v="water" />
		<tag k="ssr:stedsnr" v="613012" />
		<tag k="water" v="lake" />
	</node>
	<node lat="60.3320777769279" lon="9.70223889729587" id="-12108">
		<tag k="alt_name" v="Ingridtjern" />
		<tag k="name" v="Ingridtjernet" />
		<tag k="natural" v="water" />
		<tag k="ssr:stedsnr" v="613857" />
	</node>
	<node lat="60.54699344109234" lon="9.423855721165895" id="-12109">
=======
	<node id="-270224" lat="60.3706750025" lon="9.32245277896">
		<tag k="name" v="Såte" />
		<tag k="place" v="islet" />
		<tag k="ssr:stedsnr" v="605369" />
	</node>
	<node id="-270214" lat="60.5392333333" lon="9.34652777992">
		<tag k="name" v="Lakrisputtan" />
		<tag k="natural" v="water" />
		<tag k="ssr:stedsnr" v="588714" />
		<tag k="water" v="lake" />
	</node>
	<node id="-270208" lat="60.3652805548" lon="9.65082222728">
		<tag k="name" v="Megårdsbekken" />
		<tag k="ssr:stedsnr" v="585535" />
		<tag k="waterway" v="stream" />
	</node>
	<node id="-270205" lat="60.5262444465" lon="9.36885278441">
		<tag k="name" v="Smørduppen" />
		<tag k="natural" v="water" />
		<tag k="ssr:stedsnr" v="709701" />
	</node>
	<node id="-270188" lat="60.3759277796" lon="9.59537777999">
		<tag k="name" v="Kårmoviken" />
		<tag k="natural" v="bay" />
		<tag k="ssr:stedsnr" v="707394" />
	</node>
	<node id="-270155" lat="60.4497500026" lon="9.67317500117">
		<tag k="loc_name" v="Fetjaløken" />
		<tag k="name" v="Fekjaløken" />
		<tag k="place" v="locality" />
		<tag k="ssr:stedsnr" v="491908" />
	</node>
	<node id="-270150" lat="60.3374033313" lon="9.76262244169">
		<tag k="name" v="Klemtjern" />
		<tag k="natural" v="water" />
		<tag k="ssr:stedsnr" v="674848" />
	</node>
	<node id="-270149" lat="60.5446356412" lon="9.43956445349">
		<tag k="alt_name" v="Grunntjern, nedre" />
		<tag k="name" v="Nedre Grunntjern" />
		<tag k="natural" v="water" />
		<tag k="ssr:stedsnr" v="674862" />
	</node>
	<node id="-270147" lat="60.4273500039" lon="9.24735000102">
		<tag k="name" v="Ormetjern" />
		<tag k="natural" v="water" />
		<tag k="ssr:stedsnr" v="674181" />
	</node>
	<node id="-270142" lat="60.4327166622" lon="9.61868056102">
		<tag k="alt_name" v="Vaktartjern" />
		<tag k="name" v="Vaktartjernet" />
		<tag k="natural" v="water" />
		<tag k="ssr:stedsnr" v="673971" />
	</node>
	<node id="-270138" lat="60.4599138886" lon="9.75134999705">
		<tag k="name" v="Øvre Prestgardstjernet" />
		<tag k="natural" v="water" />
		<tag k="ssr:stedsnr" v="673887" />
	</node>
	<node id="-270137" lat="60.4636500023" lon="9.71075278027">
		<tag k="name" v="Stjerneskardtjern" />
		<tag k="natural" v="water" />
		<tag k="ssr:stedsnr" v="673881" />
	</node>
	<node id="-270133" lat="60.3528638852" lon="9.79752778117">
		<tag k="alt_name" v="Kollepytt" />
		<tag k="name" v="Kolleputten" />
		<tag k="natural" v="water" />
		<tag k="ssr:stedsnr" v="673752" />
	</node>
	<node id="-270125" lat="60.3230916708" lon="9.56569999494">
		<tag k="name" v="Fjelltjern" />
		<tag k="natural" v="water" />
		<tag k="ssr:stedsnr" v="484063" />
	</node>
	<node id="-270124" lat="60.3940388861" lon="9.33658055068">
		<tag k="name" v="Brennåstjernet" />
		<tag k="natural" v="water" />
		<tag k="ssr:stedsnr" v="484353" />
	</node>
	<node id="-270123" lat="60.3713638866" lon="9.36204166165">
		<tag k="name" v="Rolighølbekken" />
		<tag k="ssr:stedsnr" v="484322" />
		<tag k="waterway" v="stream" />
	</node>
	<node id="-270115" lat="60.3121277815" lon="9.44697499887">
		<tag k="name" v="Høgvardebekken" />
		<tag k="ssr:stedsnr" v="673067" />
		<tag k="waterway" v="stream" />
	</node>
	<node id="-270099" lat="60.3794555941" lon="9.44378408668">
		<tag k="name" v="Kittelstjerna" />
		<tag k="natural" v="water" />
		<tag k="ssr:stedsnr" v="666356" />
		<tag k="water" v="lake" />
	</node>
	<node id="-270092" lat="60.4196916706" lon="9.78438333839">
		<tag k="name" v="Delesbekken" />
		<tag k="ssr:stedsnr" v="663481" />
		<tag k="waterway" v="stream" />
	</node>
	<node id="-270084" lat="60.5290055566" lon="9.53626945268">
		<tag k="name" v="Djupodden" />
		<tag k="natural" v="cape" />
		<tag k="ssr:stedsnr" v="432752" />
	</node>
	<node id="-270083" lat="60.5378648867" lon="9.46308670344">
		<tag k="name" v="Nevlingen" />
		<tag k="natural" v="water" />
		<tag k="ssr:stedsnr" v="432736" />
		<tag k="water" v="lake" />
	</node>
	<node id="-270081" lat="60.3760249977" lon="9.64907499211">
		<tag k="alt_name" v="Tromaldelvi;Trommaldelva" />
		<tag k="name" v="Trommaldelvi" />
		<tag k="ssr:stedsnr" v="431813" />
		<tag k="waterway" v="river" />
	</node>
	<node id="-270074" lat="60.342674998" lon="9.58364999355">
		<tag k="alt_name" v="Buøenelva;Buøynelva" />
		<tag k="name" v="Buøynelvi" />
		<tag k="ssr:stedsnr" v="431017" />
		<tag k="waterway" v="stream" />
	</node>
	<node id="-270073" lat="60.3534777809" lon="9.28712500161">
		<tag k="name" v="Bekkelibekken" />
		<tag k="ssr:stedsnr" v="431007" />
		<tag k="waterway" v="stream" />
	</node>
	<node id="-270072" lat="60.3452333323" lon="9.39303888811">
		<tag k="name" v="Øvre Fjelltjern" />
		<tag k="natural" v="water" />
		<tag k="ssr:stedsnr" v="431003" />
	</node>
	<node id="-270054" lat="60.500575004" lon="9.43687777558">
		<tag k="alt_name" v="Styrmannstjern" />
		<tag k="name" v="Styrmanntjern" />
		<tag k="natural" v="water" />
		<tag k="ssr:stedsnr" v="371802" />
	</node>
	<node id="-270053" lat="60.5335239794" lon="9.5522358291">
		<tag k="fixme" v="multiple name tags, choose one and add the other to alt_name" />
		<tag k="loc_name" v="Aurdalsvatnet" />
		<tag k="name" v="Aurdalsfjorden;Aurdalsvannet" />
		<tag k="natural" v="water" />
		<tag k="ssr:stedsnr" v="371761" />
		<tag k="water" v="lake" />
	</node>
	<node id="-270052" lat="60.3962750038" lon="9.6785250078">
		<tag k="name" v="Lomtjernet" />
		<tag k="natural" v="water" />
		<tag k="ssr:stedsnr" v="370977" />
	</node>
	<node id="-270049" lat="60.3174749989" lon="9.59412500668">
		<tag k="alt_name" v="Hallingtjern" />
		<tag k="name" v="Hallingtjernet" />
		<tag k="natural" v="water" />
		<tag k="ssr:stedsnr" v="492872" />
	</node>
	<node id="-270048" lat="60.3160861099" lon="9.74221944105">
		<tag k="name" v="Steinbekken" />
		<tag k="ssr:stedsnr" v="492810" />
		<tag k="waterway" v="stream" />
	</node>
	<node id="-270042" lat="60.5149638867" lon="9.55508333674">
		<tag k="name" v="Busandbekken" />
		<tag k="ssr:stedsnr" v="492768" />
		<tag k="waterway" v="stream" />
	</node>
	<node id="-270037" lat="60.4293499964" lon="9.38655277612">
		<tag k="name" v="Veltehølen" />
		<tag k="place" v="locality" />
		<tag k="ssr:stedsnr" v="360004" />
	</node>
	<node id="-270035" lat="60.4123722199" lon="9.42231667522">
		<tag k="name" v="Trøstheimbekken" />
		<tag k="ssr:stedsnr" v="492132" />
		<tag k="waterway" v="stream" />
	</node>
	<node id="-270031" lat="60.4236555589" lon="9.76569167511">
		<tag k="alt_name" v="Fjellelva" />
		<tag k="name" v="Fjellelvi" />
		<tag k="ssr:stedsnr" v="491969" />
		<tag k="waterway" v="river" />
	</node>
	<node id="-270028" lat="60.4159638914" lon="9.41083333336">
		<tag k="name" v="Vesleåi" />
		<tag k="ssr:stedsnr" v="491602" />
		<tag k="waterway" v="stream" />
	</node>
	<node id="-270021" lat="60.4708750042" lon="9.38708333945">
		<tag k="alt_name" v="Stormyrtjern" />
		<tag k="name" v="Stormyrtjernet" />
		<tag k="natural" v="water" />
		<tag k="ssr:stedsnr" v="491375" />
	</node>
	<node id="-270019" lat="60.4874555591" lon="9.35660000204">
		<tag k="name" v="Mosebekk" />
		<tag k="ssr:stedsnr" v="491338" />
		<tag k="waterway" v="stream" />
	</node>
	<node id="-270018" lat="60.4946250029" lon="9.36897499888">
		<tag k="name" v="Hellebekktjern" />
		<tag k="natural" v="water" />
		<tag k="ssr:stedsnr" v="491336" />
	</node>
	<node id="-270013" lat="60.4579638861" lon="9.4994444508">
		<tag k="alt_name" v="Øvre Vesleåntjern" />
		<tag k="name" v="Øvre Vesleåtjern" />
		<tag k="natural" v="water" />
		<tag k="ssr:stedsnr" v="491163" />
	</node>
	<node id="-270010" lat="60.4761388847" lon="9.50956944448">
		<tag k="alt_name" v="Vesleåni" />
		<tag k="name" v="Vesleåi" />
		<tag k="ssr:stedsnr" v="491143" />
		<tag k="waterway" v="stream" />
	</node>
	<node id="-270008" lat="60.3327996528" lon="9.58183453486">
		<tag k="alt_name" v="Svartetjern" />
		<tag k="name" v="Svarttjern" />
		<tag k="natural" v="water" />
		<tag k="ssr:stedsnr" v="491056" />
	</node>
	<node id="-270006" lat="60.4682888868" lon="9.39967500112">
		<tag k="name" v="Lisletjern" />
		<tag k="natural" v="water" />
		<tag k="ssr:stedsnr" v="344559" />
	</node>
	<node id="-270002" lat="60.409008334" lon="9.28151388932">
		<tag k="name" v="Brennebekk" />
		<tag k="ssr:stedsnr" v="484351" />
		<tag k="waterway" v="stream" />
	</node>
	<node id="-269998" lat="60.3911055556" lon="9.41186388555">
		<tag k="name" v="Trytetjernbekken" />
		<tag k="ssr:stedsnr" v="484120" />
		<tag k="waterway" v="stream" />
	</node>
	<node id="-269994" lat="60.4119777774" lon="9.76449722271">
		<tag k="name" v="Trytebergvika" />
		<tag k="natural" v="bay" />
		<tag k="ssr:stedsnr" v="481526" />
	</node>
	<node id="-269993" lat="60.4049277742" lon="9.76946945025">
		<tag k="name" v="Langodden" />
		<tag k="natural" v="cape" />
		<tag k="ssr:stedsnr" v="481510" />
	</node>
	<node id="-269992" lat="60.3924638846" lon="9.71643056026">
		<tag k="name" v="Fellebekktjern" />
		<tag k="natural" v="water" />
		<tag k="ssr:stedsnr" v="481507" />
	</node>
	<node id="-269983" lat="60.4447611119" lon="9.49468610548">
		<tag k="name" v="Puttane" />
		<tag k="natural" v="water" />
		<tag k="ssr:stedsnr" v="300953" />
		<tag k="water" v="pond" />
	</node>
	<node id="-269978" lat="60.3952611068" lon="9.6989250012">
		<tag k="name" v="Gørrtjern" />
		<tag k="natural" v="water" />
		<tag k="ssr:stedsnr" v="300503" />
	</node>
	<node id="-269972" lat="60.5010777753" lon="9.34189722763">
		<tag k="name" v="Langeleinbekken" />
		<tag k="ssr:stedsnr" v="466742" />
		<tag k="waterway" v="stream" />
	</node>
	<node id="-269971" lat="60.498805558" lon="9.40320000773">
		<tag k="name" v="Raubekk" />
		<tag k="ssr:stedsnr" v="466740" />
		<tag k="waterway" v="stream" />
	</node>
	<node id="-269962" lat="60.3222694485" lon="9.58971111906">
		<tag k="name" v="Storrløken" />
		<tag k="natural" v="water" />
		<tag k="ssr:stedsnr" v="464184" />
	</node>
	<node id="-269947" lat="60.5138666698" lon="9.38717778387">
		<tag k="name" v="Nedre Saulivatn" />
		<tag k="natural" v="water" />
		<tag k="ssr:stedsnr" v="285682" />
		<tag k="water" v="lake" />
	</node>
	<node id="-269946" lat="60.5072722209" lon="9.39156111909">
		<tag k="name" v="Rundeløk" />
		<tag k="natural" v="water" />
		<tag k="ssr:stedsnr" v="285678" />
	</node>
	<node id="-269931" lat="60.4343777786" lon="9.32239166399">
		<tag k="name" v="Felestryken" />
		<tag k="ssr:stedsnr" v="282830" />
		<tag k="waterway" v="rapids" />
	</node>
	<node id="-269912" lat="60.3622166653" lon="9.62103056055">
		<tag k="name" v="Stabbeholmen" />
		<tag k="place" v="islet" />
		<tag k="ssr:stedsnr" v="127827" />
	</node>
	<node id="-269908" lat="60.4133749975" lon="9.55212500136">
		<tag k="name" v="Brunåi" />
		<tag k="ssr:stedsnr" v="127243" />
		<tag k="waterway" v="stream" />
	</node>
	<node id="-269903" lat="60.4404805593" lon="9.49376667384">
		<tag k="name" v="Vesbekken" />
		<tag k="ssr:stedsnr" v="127205" />
		<tag k="waterway" v="stream" />
	</node>
	<node id="-269892" lat="60.5187111117" lon="9.53201666205">
		<tag k="name" v="Gjermundbekken" />
		<tag k="ssr:stedsnr" v="250768" />
		<tag k="waterway" v="stream" />
	</node>
	<node id="-269891" lat="60.3877503615" lon="9.70203048568">
		<tag k="name" v="Gørrtjernan" />
		<tag k="natural" v="water" />
		<tag k="ssr:stedsnr" v="249960" />
		<tag k="water" v="lake" />
	</node>
	<node id="-269889" lat="60.3997410991" lon="9.71961298906">
		<tag k="name" v="Langvatnet" />
		<tag k="natural" v="water" />
		<tag k="ssr:stedsnr" v="249946" />
		<tag k="water" v="lake" />
	</node>
	<node id="-269888" lat="60.3374111124" lon="9.64479722939">
		<tag k="name" v="Ståloddeberget" />
		<tag k="natural" v="cape" />
		<tag k="ssr:stedsnr" v="249859" />
	</node>
	<node id="-269885" lat="60.3719249298" lon="9.69140427189">
		<tag k="alt_name" v="Fagertjern" />
		<tag k="name" v="Fagersitjernet" />
		<tag k="natural" v="water" />
		<tag k="ssr:stedsnr" v="249777" />
	</node>
	<node id="-269883" lat="60.4875921767" lon="9.5144704288">
		<tag k="alt_name" v="Øvre Kvilartjern" />
		<tag k="name" v="Kvilartjern" />
		<tag k="natural" v="water" />
		<tag k="ssr:stedsnr" v="249327" />
	</node>
	<node id="-269880" lat="60.3824749975" lon="9.29669999105">
		<tag k="name" v="Kimbetjern" />
		<tag k="natural" v="water" />
		<tag k="ssr:stedsnr" v="249209" />
	</node>
	<node id="-269864" lat="60.4735250043" lon="9.39570000324">
		<tag k="name" v="Kvitjern" />
		<tag k="natural" v="water" />
		<tag k="ssr:stedsnr" v="248328" />
	</node>
	<node id="-269861" lat="60.492074998" lon="9.32202500184">
		<tag k="alt_name" v="Nysetertjern" />
		<tag k="name" v="Øvre Nysetertjern" />
		<tag k="natural" v="water" />
		<tag k="ssr:stedsnr" v="248298" />
	</node>
	<node id="-269860" lat="60.4166777791" lon="9.26335278243">
		<tag k="alt_name" v="Brennebekk" />
		<tag k="name" v="Brennebekken" />
		<tag k="ssr:stedsnr" v="248215" />
		<tag k="waterway" v="stream" />
	</node>
	<node id="-269858" lat="60.3241999988" lon="9.69660278628">
		<tag k="alt_name" v="Damtjern" />
		<tag k="name" v="Damtjernet" />
		<tag k="natural" v="water" />
		<tag k="ssr:stedsnr" v="67816" />
	</node>
	<node id="-269845" lat="60.3154666689" lon="9.64714999274">
		<tag k="alt_name" v="Hyttevika" />
		<tag k="name" v="Hytteviki" />
		<tag k="natural" v="bay" />
		<tag k="ssr:stedsnr" v="66811" />
	</node>
	<node id="-269837" lat="60.4481722253" lon="9.39782777106">
		<tag k="name" v="Høgfossen" />
		<tag k="natural" v="waterfall" />
		<tag k="ssr:stedsnr" v="239789" />
	</node>
	<node id="-269834" lat="60.4040222192" lon="9.77863333036">
		<tag k="name" v="Buvannsdammen" />
		<tag k="ssr:stedsnr" v="239476" />
		<tag k="waterway" v="dam" />
	</node>
	<node id="-269824" lat="60.4293638867" lon="9.40322777169">
		<tag k="name" v="Velteøyne" />
		<tag k="place" v="islet" />
		<tag k="ssr:stedsnr" v="239008" />
	</node>
	<node id="-269815" lat="60.3202138869" lon="9.54088333907">
		<tag k="name" v="Fiskebekkdammen" />
		<tag k="natural" v="water" />
		<tag k="ssr:stedsnr" v="40144" />
	</node>
	<node id="-269813" lat="60.4365777743" lon="9.3230305585">
		<tag k="name" v="Steinstryken" />
		<tag k="ssr:stedsnr" v="39820" />
		<tag k="waterway" v="rapids" />
	</node>
	<node id="-269805" lat="60.460205559" lon="9.45373889137">
		<tag k="name" v="Vøttehølen" />
		<tag k="place" v="locality" />
		<tag k="ssr:stedsnr" v="223611" />
	</node>
	<node id="-269796" lat="60.5530833321" lon="9.35185278002">
		<tag k="name" v="Jutulfottjern" />
		<tag k="natural" v="water" />
		<tag k="ssr:stedsnr" v="222677" />
	</node>
	<node id="-269793" lat="60.3717611141" lon="9.49947222987">
		<tag k="name" v="Fjellelva" />
		<tag k="ssr:stedsnr" v="222520" />
		<tag k="waterway" v="stream" />
	</node>
	<node id="-269787" lat="60.4639436539" lon="9.66171947266">
		<tag k="name" v="Fetjernan" />
		<tag k="natural" v="water" />
		<tag k="ssr:stedsnr" v="6887" />
		<tag k="water" v="lake" />
	</node>
	<node id="-269786" lat="60.3304555545" lon="9.77120556249">
		<tag k="alt_name" v="Moltetjern" />
		<tag k="name" v="Moltetjernet" />
		<tag k="natural" v="water" />
		<tag k="ssr:stedsnr" v="6883" />
	</node>
	<node id="-271350" lat="60.5133828897" lon="9.31849870768">
		<tag k="name" v="Bødalsvatnet" />
		<tag k="natural" v="water" />
		<tag k="ssr:stedsnr" v="128790" />
		<tag k="water" v="lake" />
	</node>
	<node id="-271348" lat="60.3510337925" lon="9.26740528149">
		<tag k="name" v="Småtjenna" />
		<tag k="natural" v="water" />
		<tag k="ssr:stedsnr" v="613012" />
		<tag k="water" v="lake" />
	</node>
	<node id="-271324" lat="60.3710472189" lon="9.31703333679">
		<tag k="name" v="Granodden" />
		<tag k="natural" v="cape" />
		<tag k="ssr:stedsnr" v="969356" />
	</node>
	<node id="-271319" lat="60.3925333343" lon="9.55948333406">
		<tag k="name" v="Gulsvikøyni" />
		<tag k="natural" v="cape" />
		<tag k="ssr:stedsnr" v="967452" />
	</node>
	<node id="-271317" lat="60.5367166675" lon="9.59654167289">
		<tag k="name" v="Lortfjord" />
		<tag k="natural" v="bay" />
		<tag k="ssr:stedsnr" v="967250" />
	</node>
	<node id="-271308" lat="60.5197694476" lon="9.41263889413">
		<tag k="name" v="Mattjern" />
		<tag k="natural" v="water" />
		<tag k="ssr:stedsnr" v="952692" />
	</node>
	<node id="-271299" lat="60.3627194402" lon="9.57305833391">
		<tag k="name" v="Valdresbråtebekken" />
		<tag k="ssr:stedsnr" v="950572" />
		<tag k="waterway" v="stream" />
	</node>
	<node id="-271296" lat="60.5072555514" lon="9.41347778199">
		<tag k="name" v="Øyvatn" />
		<tag k="natural" v="water" />
		<tag k="ssr:stedsnr" v="857784" />
	</node>
	<node id="-271286" lat="60.3907194484" lon="9.28897777903">
		<tag k="alt_name" v="Haugabekk" />
		<tag k="name" v="Haugabekken" />
		<tag k="ssr:stedsnr" v="856251" />
		<tag k="waterway" v="stream" />
	</node>
	<node id="-271276" lat="60.3724777775" lon="9.19420000489">
		<tag k="alt_name" v="Flentetjern" />
		<tag k="name" v="Flentetjernet" />
		<tag k="natural" v="water" />
		<tag k="ssr:stedsnr" v="855348" />
	</node>
	<node id="-271275" lat="60.4604305554" lon="9.46424999408">
		<tag k="name" v="Slåttemyrbekken" />
		<tag k="ssr:stedsnr" v="855345" />
		<tag k="waterway" v="stream" />
	</node>
	<node id="-271274" lat="60.4896305564" lon="9.3229944356">
		<tag k="alt_name" v="Nedre Nysætertjern" />
		<tag k="name" v="Nedre Nysetertjern" />
		<tag k="natural" v="water" />
		<tag k="ssr:stedsnr" v="855311" />
	</node>
	<node id="-271247" lat="60.468291671" lon="9.32967499851">
		<tag k="name" v="Fjøsseterbekken" />
		<tag k="ssr:stedsnr" v="830602" />
		<tag k="waterway" v="stream" />
	</node>
	<node id="-271242" lat="60.4425388868" lon="9.32274722404">
		<tag k="name" v="Steinøyri" />
		<tag k="natural" v="shoal" />
		<tag k="place" v="locality" />
		<tag k="ssr:stedsnr" v="829845" />
	</node>
	<node id="-271241" lat="60.4789611138" lon="9.44852499929">
		<tag k="name" v="Hangsløken" />
		<tag k="ssr:stedsnr" v="829733" />
		<tag k="waterway" v="river" />
	</node>
	<node id="-271240" lat="60.4884666625" lon="9.39249721654">
		<tag k="name" v="Holutjern" />
		<tag k="natural" v="water" />
		<tag k="ssr:stedsnr" v="829729" />
	</node>
	<node id="-271237" lat="60.382416666" lon="9.57795555298">
		<tag k="name" v="Kalvøyni" />
		<tag k="place" v="islet" />
		<tag k="ssr:stedsnr" v="829385" />
	</node>
	<node id="-271228" lat="60.4870962313" lon="9.61807536665">
		<tag k="name" v="Tolvtjernan" />
		<tag k="natural" v="water" />
		<tag k="old_name" v="Tolvvatna" />
		<tag k="ssr:stedsnr" v="795943" />
		<tag k="water" v="lake" />
	</node>
	<node id="-271227" lat="60.3279012438" lon="9.59907593899">
		<tag k="name" v="Svarteputt" />
		<tag k="natural" v="water" />
		<tag k="ssr:stedsnr" v="795870" />
	</node>
	<node id="-271226" lat="60.3360583322" lon="9.623522218">
		<tag k="alt_name" v="Veterskjæret" />
		<tag k="name" v="Veterskjeret" />
		<tag k="place" v="islet" />
		<tag k="ssr:stedsnr" v="795863" />
	</node>
	<node id="-271225" lat="60.5526277747" lon="9.376258325">
		<tag k="name" v="Spunsetjern" />
		<tag k="natural" v="water" />
		<tag k="ssr:stedsnr" v="795858" />
	</node>
	<node id="-271224" lat="60.4382138928" lon="9.59359444467">
		<tag k="alt_name" v="Skarselva" />
		<tag k="name" v="Skardselvi" />
		<tag k="old_name" v="Skarsellva" />
		<tag k="ssr:stedsnr" v="795993" />
		<tag k="waterway" v="river" />
	</node>
	<node id="-271222" lat="60.3266250036" lon="9.58493334126">
		<tag k="name" v="Løken" />
		<tag k="place" v="locality" />
		<tag k="ssr:stedsnr" v="795090" />
	</node>
	<node id="-271221" lat="60.3263249971" lon="9.58267499579">
		<tag k="name" v="Fisketjern" />
		<tag k="natural" v="water" />
		<tag k="ssr:stedsnr" v="795089" />
	</node>
	<node id="-271220" lat="60.319595481" lon="9.41079371157">
		<tag k="name" v="Jervolltjern" />
		<tag k="natural" v="water" />
		<tag k="ssr:stedsnr" v="795084" />
	</node>
	<node id="-271218" lat="60.3216249974" lon="9.49030277109">
		<tag k="name" v="Sauvallbekken" />
		<tag k="ssr:stedsnr" v="795075" />
		<tag k="waterway" v="stream" />
	</node>
	<node id="-271215" lat="60.3798169555" lon="9.42475646998">
		<tag k="loc_name" v="Tritjerne" />
		<tag k="name" v="Trytetjern" />
		<tag k="natural" v="water" />
		<tag k="ssr:stedsnr" v="795268" />
	</node>
	<node id="-271209" lat="60.3390499957" lon="9.45889999797">
		<tag k="name" v="Fyrisjøen" />
		<tag k="natural" v="water" />
		<tag k="ssr:stedsnr" v="795002" />
		<tag k="water" v="lake" />
	</node>
	<node id="-271208" lat="60.4442111093" lon="9.76199999098">
		<tag k="name" v="Fosstjernet" />
		<tag k="natural" v="water" />
		<tag k="ssr:stedsnr" v="794895" />
	</node>
	<node id="-271202" lat="60.3827388898" lon="9.33452500642">
		<tag k="name" v="Lauvhaugtjern" />
		<tag k="natural" v="water" />
		<tag k="ssr:stedsnr" v="787385" />
	</node>
	<node id="-271172" lat="60.3075333295" lon="9.56714999442">
		<tag k="name" v="Gråkollputten" />
		<tag k="natural" v="water" />
		<tag k="ssr:stedsnr" v="768169" />
	</node>
	<node id="-271171" lat="60.3365666699" lon="9.54041111046">
		<tag k="name" v="Hestejuvbekken" />
		<tag k="ssr:stedsnr" v="768165" />
		<tag k="waterway" v="stream" />
	</node>
	<node id="-271169" lat="60.3734444437" lon="9.50540832808">
		<tag k="name" v="Fossen" />
		<tag k="natural" v="waterfall" />
		<tag k="ssr:stedsnr" v="768343" />
	</node>
	<node id="-271157" lat="60.4499333315" lon="9.28077777272">
		<tag k="name" v="Saltøyre" />
		<tag k="place" v="islet" />
		<tag k="ssr:stedsnr" v="646824" />
	</node>
	<node id="-271143" lat="60.3991027821" lon="9.68047500808">
		<tag k="name" v="Svartlitjernan" />
		<tag k="natural" v="water" />
		<tag k="ssr:stedsnr" v="613938" />
		<tag k="water" v="lake" />
	</node>
	<node id="-271142" lat="60.5469934411" lon="9.42385572117">
>>>>>>> e1d4bc35ff8a6074a6f2e91616a996b547c36f15
		<tag k="alt_name" v="Grunntjern, øvre" />
		<tag k="name" v="Øvre Grunntjern" />
		<tag k="natural" v="water" />
		<tag k="ssr:stedsnr" v="613863" />
	</node>
<<<<<<< HEAD
	<node lat="60.39910278212475" lon="9.680475008083265" id="-12110">
		<tag k="name" v="Svartlitjernan" />
		<tag k="natural" v="water" />
		<tag k="ssr:stedsnr" v="613938" />
		<tag k="water" v="lake" />
	</node>
	<node lat="60.521797930570294" lon="9.327426215081225" id="-12114">
		<tag k="name" v="Brennåstjern" />
		<tag k="natural" v="water" />
		<tag k="ssr:stedsnr" v="632454" />
	</node>
	<node lat="60.44993333154805" lon="9.280777772717231" id="-12121">
		<tag k="name" v="Saltøyre" />
		<tag k="place" v="islet" />
		<tag k="ssr:stedsnr" v="646824" />
	</node>
	<node lat="60.47962499885827" lon="9.317111114409748" id="-12125">
		<tag k="name" v="Seterlitjern" />
		<tag k="natural" v="water" />
		<tag k="ssr:stedsnr" v="648510" />
	</node>
	<node lat="60.51166204759697" lon="9.372268955385284" id="-12128">
		<tag k="name" v="Øvre Saulivatn" />
		<tag k="natural" v="water" />
		<tag k="ssr:stedsnr" v="648705" />
		<tag k="water" v="lake" />
	</node>
	<node lat="60.37592777958893" lon="9.595377779990677" id="-12132">
		<tag k="name" v="Kårmoviken" />
		<tag k="natural" v="bay" />
		<tag k="ssr:stedsnr" v="707394" />
	</node>
	<node lat="60.370736112438586" lon="9.354219444135275" id="-12144">
		<tag k="name" v="Gryvlebekk" />
		<tag k="ssr:stedsnr" v="666352" />
		<tag k="waterway" v="stream" />
	</node>
	<node lat="60.37886944550577" lon="9.541963895494204" id="-12147">
		<tag k="name" v="Nordbråtatjern" />
		<tag k="natural" v="water" />
		<tag k="ssr:stedsnr" v="890379" />
	</node>
	<node lat="60.349027775831004" lon="9.40647500858162" id="-12158">
		<tag k="name" v="Nedre Fjelltjern" />
		<tag k="natural" v="water" />
		<tag k="ssr:stedsnr" v="674004" />
	</node>
	<node lat="60.34177500351194" lon="9.342350002651257" id="-12159">
		<tag k="name" v="Vollebekken" />
		<tag k="ssr:stedsnr" v="674010" />
		<tag k="waterway" v="stream" />
	</node>
	<node lat="60.43271666218269" lon="9.618680561020547" id="-12164">
		<tag k="alt_name" v="Vaktartjern" />
		<tag k="name" v="Vaktartjernet" />
		<tag k="natural" v="water" />
		<tag k="ssr:stedsnr" v="673971" />
	</node>
	<node lat="60.42735000387764" lon="9.247350001015455" id="-12168">
		<tag k="name" v="Ormetjern" />
		<tag k="natural" v="water" />
		<tag k="ssr:stedsnr" v="674181" />
	</node>
	<node lat="60.52747500419153" lon="9.376625003248083" id="-12169">
		<tag k="alt_name" v="Nedre Dagalitjern" />
		<tag k="name" v="Domfettjern" />
		<tag k="natural" v="water" />
		<tag k="ssr:stedsnr" v="674759" />
	</node>
	<node lat="60.5323777754542" lon="9.377244444468685" id="-12170">
		<tag k="alt_name" v="Svartetjern" />
		<tag k="name" v="Svarttjern" />
		<tag k="natural" v="water" />
		<tag k="ssr:stedsnr" v="674760" />
	</node>
	<node lat="60.380286111154774" lon="9.662013882855259" id="-12172">
		<tag k="name" v="Stormyrdammen" />
		<tag k="ssr:stedsnr" v="674953" />
		<tag k="waterway" v="dam" />
	</node>
	<node lat="60.390242239073125" lon="9.666041028680723" id="-12173">
		<tag k="name" v="Sørbøltjernet" />
		<tag k="natural" v="water" />
		<tag k="ssr:stedsnr" v="674968" />
	</node>
	<node lat="60.337403331341115" lon="9.762622441687487" id="-12174">
		<tag k="name" v="Klemtjern" />
		<tag k="natural" v="water" />
		<tag k="ssr:stedsnr" v="674848" />
	</node>
	<node lat="60.544635641218164" lon="9.439564453491474" id="-12175">
		<tag k="alt_name" v="Grunntjern, nedre" />
		<tag k="name" v="Nedre Grunntjern" />
		<tag k="natural" v="water" />
		<tag k="ssr:stedsnr" v="674862" />
	</node>
	<node lat="60.50805000124018" lon="9.455933324740645" id="-12176">
		<tag k="name" v="Damtjern" />
		<tag k="natural" v="water" />
		<tag k="ssr:stedsnr" v="675812" />
	</node>
	<node lat="60.45624721992667" lon="9.271669441414133" id="-12183">
		<tag k="name" v="Kleivodden" />
		<tag k="natural" v="cape" />
		<tag k="ssr:stedsnr" v="891602" />
	</node>
	<node lat="60.50713889048074" lon="9.397019449294419" id="-12188">
		<tag k="name" v="Daubekk" />
		<tag k="ssr:stedsnr" v="892688" />
		<tag k="waterway" v="stream" />
	</node>
	<node lat="60.52653610736638" lon="9.387074990993002" id="-12190">
		<tag k="name" v="Storrtjern" />
		<tag k="natural" v="water" />
		<tag k="ssr:stedsnr" v="892701" />
	</node>
	<node lat="60.526244446529695" lon="9.368852784406577" id="-12200">
		<tag k="name" v="Smørduppen" />
		<tag k="natural" v="water" />
		<tag k="ssr:stedsnr" v="709701" />
	</node>
	<node lat="60.44470277969194" lon="9.43349444395096" id="-12205">
		<tag k="name" v="Gåsøyne" />
		<tag k="place" v="islet" />
		<tag k="ssr:stedsnr" v="724989" />
	</node>
	<node lat="60.38634166289277" lon="9.303413880956985" id="-12211">
		<tag k="name" v="Steffanfoss" />
		<tag k="natural" v="waterfall" />
		<tag k="ssr:stedsnr" v="727383" />
	</node>
	<node lat="60.15301388953621" lon="9.74161944393337" id="-12213">
		<tag k="name" v="Krøderen" />
		<tag k="natural" v="water" />
		<tag k="ssr:stedsnr" v="733238" />
		<tag k="water" v="lake" />
	</node>
	<node lat="60.300663885100384" lon="9.550502777428717" id="-12214">
		<tag k="name" v="Fiskebekk" />
		<tag k="ssr:stedsnr" v="734041" />
		<tag k="waterway" v="stream" />
	</node>
	<node lat="60.42194999803831" lon="9.526875007785163" id="-12217">
		<tag k="name" v="Dugurdsnattjern" />
		<tag k="natural" v="water" />
		<tag k="ssr:stedsnr" v="734237" />
	</node>
	<node lat="60.446575001697994" lon="9.394552783796707" id="-12220">
		<tag k="alt_name" v="Svarttjern" />
		<tag k="name" v="Svartetjern" />
		<tag k="natural" v="water" />
		<tag k="ssr:stedsnr" v="734148" />
	</node>
	<node lat="60.45798889141297" lon="9.580752770672094" id="-12224">
		<tag k="alt_name" v="Grautebekk" />
		<tag k="name" v="Grautebekken" />
		<tag k="ssr:stedsnr" v="734410" />
		<tag k="waterway" v="stream" />
	</node>
	<node lat="60.34155555642939" lon="9.726266670898505" id="-12227">
		<tag k="name" v="Svarteputt" />
		<tag k="natural" v="water" />
		<tag k="ssr:stedsnr" v="734849" />
	</node>
	<node lat="60.54615555963094" lon="9.398427773747759" id="-12236">
		<tag k="name" v="Fetjabekken" />
		<tag k="ssr:stedsnr" v="735875" />
		<tag k="waterway" v="stream" />
	</node>
	<node lat="60.37344444372789" lon="9.50540832808432" id="-12248">
		<tag k="name" v="Fossen" />
		<tag k="natural" v="waterfall" />
		<tag k="ssr:stedsnr" v="768343" />
	</node>
	<node lat="60.52783610956249" lon="9.491286112769588" id="-12249">
		<tag k="name" v="Jagarhølen" />
		<tag k="place" v="locality" />
		<tag k="ssr:stedsnr" v="768705" />
	</node>
	<node lat="60.50294999661639" lon="9.478074998853343" id="-12250">
		<tag k="name" v="Herbrandstjern" />
		<tag k="natural" v="water" />
		<tag k="ssr:stedsnr" v="768707" />
	</node>
	<node lat="60.52856389122546" lon="9.483627780519999" id="-12252">
		<tag k="name" v="Jagerhølen" />
		<tag k="place" v="locality" />
		<tag k="ssr:stedsnr" v="768701" />
	</node>
	<node lat="60.39140278132394" lon="9.293227776320927" id="-12262">
		<tag k="name" v="Kimbebekk" />
		<tag k="ssr:stedsnr" v="909386" />
		<tag k="waterway" v="stream" />
	</node>
	<node lat="60.33694285249114" lon="9.50619660070671" id="-12271">
		<tag k="alt_name" v="Fisketjerna" />
		<tag k="name" v="Fisketjernan" />
		<tag k="natural" v="water" />
		<tag k="ssr:stedsnr" v="795013" />
		<tag k="water" v="lake" />
	</node>
	<node lat="60.37981695548693" lon="9.424756469980641" id="-12276">
		<tag k="loc_name" v="Tritjerne" />
		<tag k="name" v="Trytetjern" />
		<tag k="natural" v="water" />
		<tag k="ssr:stedsnr" v="795268" />
	</node>
	<node lat="60.55262777468592" lon="9.376258324995051" id="-12281">
		<tag k="name" v="Spunsetjern" />
		<tag k="natural" v="water" />
		<tag k="ssr:stedsnr" v="795858" />
	</node>
	<node lat="60.336058332216325" lon="9.623522217996664" id="-12282">
		<tag k="alt_name" v="Veterskjæret" />
		<tag k="name" v="Veterskjeret" />
		<tag k="place" v="islet" />
		<tag k="ssr:stedsnr" v="795863" />
	</node>
	<node lat="60.32790124382604" lon="9.599075938987669" id="-12283">
		<tag k="name" v="Svarteputt" />
		<tag k="natural" v="water" />
		<tag k="ssr:stedsnr" v="795870" />
	</node>
	<node lat="60.5398916669147" lon="9.45603889219524" id="-12284">
		<tag k="name" v="Storøya" />
		<tag k="place" v="islet" />
		<tag k="ssr:stedsnr" v="796771" />
	</node>
	<node lat="60.31482500090887" lon="9.494524998335637" id="-12287">
		<tag k="name" v="Sauvalltjernan" />
		<tag k="natural" v="water" />
		<tag k="ssr:stedsnr" v="916048" />
		<tag k="water" v="lake" />
	</node>
	<node lat="60.42842777865993" lon="9.385488886218223" id="-12290">
		<tag k="loc_name" v="Storåne" />
		<tag k="name" v="Hallingdalselve" />
		<tag k="old_name" v="Hallingdalsåni" />
		<tag k="ssr:stedsnr" v="916191" />
		<tag k="waterway" v="river" />
	</node>
	<node lat="60.441337872665734" lon="9.251136864974361" id="-12292">
		<tag k="name" v="Ryfjelltjern" />
		<tag k="natural" v="water" />
		<tag k="ssr:stedsnr" v="916140" />
	</node>
	<node lat="60.482411107580475" lon="9.30547499591256" id="-12298">
		<tag k="name" v="Kjøldalsbekken" />
		<tag k="ssr:stedsnr" v="916359" />
		<tag k="waterway" v="stream" />
	</node>
	<node lat="60.40157553420214" lon="9.646856951293746" id="-12303">
		<tag k="fixme" v="multiple name tags, choose one and add the other to alt_name" />
		<tag k="name" v="Bjørnalitjernet;Bjørnetjern" />
		<tag k="natural" v="water" />
		<tag k="ssr:stedsnr" v="916952" />
	</node>
	<node lat="60.46043055539906" lon="9.464249994076923" id="-12322">
		<tag k="name" v="Slåttemyrbekken" />
		<tag k="ssr:stedsnr" v="855345" />
		<tag k="waterway" v="stream" />
	</node>
	<node lat="60.48963055641592" lon="9.32299443559961" id="-12323">
		<tag k="alt_name" v="Nedre Nysætertjern" />
		<tag k="name" v="Nedre Nysetertjern" />
		<tag k="natural" v="water" />
		<tag k="ssr:stedsnr" v="855311" />
	</node>
	<node lat="60.338532605925984" lon="9.484869276032203" id="-12324">
		<tag k="alt_name" v="Litjernan" />
		<tag k="name" v="Eitjernan" />
		<tag k="natural" v="water" />
		<tag k="ssr:stedsnr" v="856011" />
		<tag k="water" v="lake" />
	</node>
	<node lat="60.349958333407734" lon="9.518688882709972" id="-12329">
		<tag k="name" v="Kluftebekk" />
		<tag k="ssr:stedsnr" v="856019" />
		<tag k="waterway" v="stream" />
	</node>
	<node lat="60.40622500432659" lon="9.561550004215816" id="-12331">
		<tag k="name" v="Storbråtabekken" />
		<tag k="ssr:stedsnr" v="856208" />
		<tag k="waterway" v="stream" />
	</node>
	<node lat="60.507255551382045" lon="9.413477781994395" id="-12340">
		<tag k="name" v="Øyvatn" />
		<tag k="natural" v="water" />
		<tag k="ssr:stedsnr" v="857784" />
	</node>
	<node lat="60.33187777453659" lon="9.518094438458254" id="-12341">
		<tag k="name" v="Brennåfoss" />
		<tag k="natural" v="waterfall" />
		<tag k="ssr:stedsnr" v="889162" />
	</node>
	<node lat="60.302452774548385" lon="9.558558329902773" id="-12353">
		<tag k="name" v="Dambekken" />
		<tag k="ssr:stedsnr" v="916091" />
		<tag k="waterway" v="stream" />
	</node>
	<node lat="60.4864000002388" lon="9.47685000490941" id="-12358">
		<tag k="alt_name" v="Trugadistjern" />
		<tag k="name" v="Trøgadisstjern" />
		<tag k="natural" v="water" />
		<tag k="ssr:stedsnr" v="916370" />
	</node>
	<node lat="60.512678396648965" lon="9.382778337144607" id="-12368">
		<tag k="name" v="Saulivatni" />
		<tag k="natural" v="water" />
		<tag k="ssr:stedsnr" v="917764" />
		<tag k="water" v="lake" />
	</node>
	<node lat="60.53065555633709" lon="9.595300003413051" id="-12371">
		<tag k="name" v="Rauhåkenbekken" />
		<tag k="ssr:stedsnr" v="917866" />
		<tag k="waterway" v="stream" />
	</node>
	<node lat="60.42932499778329" lon="9.391966667715948" id="-12380">
		<tag k="name" v="Hagastryken" />
		<tag k="ssr:stedsnr" v="967003" />
		<tag k="waterway" v="rapids" />
	</node>
	<node lat="60.43149166838046" lon="9.397224991009598" id="-12381">
		<tag k="name" v="Gaptjerngryta" />
		<tag k="natural" v="water" />
		<tag k="ssr:stedsnr" v="967005" />
		<tag k="water" v="lake" />
	</node>
	<node lat="60.424236106967626" lon="9.781094437590632" id="-12386">
		<tag k="name" v="Skarbekken" />
		<tag k="ssr:stedsnr" v="967211" />
		<tag k="waterway" v="stream" />
	</node>
	<node lat="60.536716667452346" lon="9.596541672893805" id="-12389">
		<tag k="name" v="Lortfjord" />
		<tag k="natural" v="bay" />
		<tag k="ssr:stedsnr" v="967250" />
	</node>
	<node lat="60.329791597341575" lon="9.789760431344186" id="-12394">
		<tag k="alt_name" v="Langtj" />
		<tag k="fixme" v="multiple name tags, choose one and add the other to alt_name" />
		<tag k="name" v="Bogetjern;Langtjern" />
		<tag k="natural" v="water" />
		<tag k="ssr:stedsnr" v="969911" />
	</node>
	<node lat="60.46110000097858" lon="9.43887499798371" id="-12409">
		<tag k="alt_name" v="Hesteortjern" />
		<tag k="name" v="Hesteorttjern" />
		<tag k="natural" v="water" />
		<tag k="ssr:stedsnr" v="5356" />
	</node>
	<node lat="60.35467499864601" lon="9.438099992972548" id="-12412">
		<tag k="name" v="Stigtjern" />
		<tag k="natural" v="water" />
		<tag k="ssr:stedsnr" v="6030" />
	</node>
	<node lat="60.35617499625556" lon="9.280950008818655" id="-12413">
		<tag k="name" v="Fiskebekken" />
		<tag k="ssr:stedsnr" v="6036" />
		<tag k="waterway" v="stream" />
	</node>
	<node lat="60.43269999855577" lon="9.311238894541493" id="-12414">
		<tag k="alt_name" v="Jeppebekk" />
		<tag k="name" v="Jeppebekken" />
		<tag k="ssr:stedsnr" v="6198" />
		<tag k="waterway" v="stream" />
	</node>
	<node lat="60.4123999959341" lon="9.316577770348935" id="-12420">
		<tag k="alt_name" v="Stavnselva" />
		<tag k="name" v="Stamnselvi" />
		<tag k="ssr:stedsnr" v="6222" />
		<tag k="waterway" v="river" />
	</node>
	<node lat="60.481816664113296" lon="9.415505551787103" id="-12427">
		<tag k="name" v="Kvitjernbekken" />
		<tag k="ssr:stedsnr" v="6365" />
		<tag k="waterway" v="stream" />
	</node>
	<node lat="60.38269056389634" lon="9.160260981178677" id="-12432">
		<tag k="alt_name" v="Piktjern" />
		<tag k="name" v="Piktjernet" />
		<tag k="natural" v="water" />
		<tag k="ssr:stedsnr" v="6405" />
	</node>
	<node lat="60.34685000205055" lon="9.733705549010171" id="-12434">
		<tag k="name" v="Elgebustjern" />
		<tag k="natural" v="water" />
		<tag k="ssr:stedsnr" v="6794" />
	</node>
	<node lat="60.40516838987978" lon="9.70203133644747" id="-12436">
		<tag k="alt_name" v="Øvstevann" />
		<tag k="name" v="Øvstevatnet" />
=======
	<node id="-271135" lat="60.4607714012" lon="9.62901056201">
		<tag k="name" v="Kalvetjernan" />
		<tag k="natural" v="water" />
		<tag k="ssr:stedsnr" v="612876" />
		<tag k="water" v="lake" />
	</node>
	<node id="-271127" lat="60.4032249982" lon="9.45072777757">
		<tag k="name" v="Nordtjern" />
		<tag k="natural" v="water" />
		<tag k="ssr:stedsnr" v="612211" />
	</node>
	<node id="-271125" lat="60.4680194436" lon="9.56125277432">
		<tag k="alt_name" v="Skarselva" />
		<tag k="name" v="Skardselvi" />
		<tag k="ssr:stedsnr" v="612392" />
		<tag k="waterway" v="stream" />
	</node>
	<node id="-271124" lat="60.4677236431" lon="9.4454755444">
		<tag k="alt_name" v="Brøskapstjern" />
		<tag k="name" v="Brødskåpstjern" />
		<tag k="natural" v="water" />
		<tag k="ssr:stedsnr" v="612387" />
	</node>
	<node id="-271121" lat="60.4855499999" lon="9.44174999831">
		<tag k="alt_name" v="Hangsbekk" />
		<tag k="name" v="Hangsbekken" />
		<tag k="ssr:stedsnr" v="612366" />
		<tag k="waterway" v="stream" />
	</node>
	<node id="-271115" lat="60.4642055523" lon="9.57168055925">
		<tag k="name" v="Fjellbekken" />
		<tag k="ssr:stedsnr" v="603256" />
		<tag k="waterway" v="stream" />
	</node>
	<node id="-271096" lat="60.368005555" lon="9.61227499631">
		<tag k="name" v="Smedodden" />
		<tag k="natural" v="cape" />
		<tag k="ssr:stedsnr" v="586389" />
	</node>
	<node id="-271092" lat="60.4237638853" lon="9.48337777208">
		<tag k="name" v="Vesevja" />
		<tag k="natural" v="bay" />
		<tag k="ssr:stedsnr" v="586229" />
	</node>
	<node id="-271082" lat="60.3974944429" lon="9.46785555117">
		<tag k="name" v="Ølbekk" />
		<tag k="ssr:stedsnr" v="581185" />
		<tag k="waterway" v="stream" />
	</node>
	<node id="-271079" lat="60.3851888875" lon="9.64515278102">
		<tag k="alt_name" v="Lielva" />
		<tag k="name" v="Lielvi" />
		<tag k="ssr:stedsnr" v="552977" />
		<tag k="waterway" v="river" />
	</node>
	<node id="-271076" lat="60.3489298189" lon="9.74492876461">
		<tag k="alt_name" v="Røytjerna" />
		<tag k="name" v="Røytjernan" />
		<tag k="natural" v="water" />
		<tag k="ssr:stedsnr" v="552800" />
		<tag k="water" v="lake" />
	</node>
	<node id="-271075" lat="60.52978333" lon="9.61158610227">
		<tag k="name" v="Fjellelva" />
		<tag k="ssr:stedsnr" v="552923" />
		<tag k="waterway" v="stream" />
	</node>
	<node id="-271074" lat="60.4509527749" lon="9.75615555209">
		<tag k="name" v="Nedre Prestgardstjernet" />
		<tag k="natural" v="water" />
		<tag k="ssr:stedsnr" v="552918" />
	</node>
	<node id="-271073" lat="60.3431055564" lon="9.6788222162">
		<tag k="name" v="Kvernbekken" />
		<tag k="ssr:stedsnr" v="552880" />
		<tag k="waterway" v="stream" />
	</node>
	<node id="-271066" lat="60.3708805521" lon="9.24635555474">
		<tag k="name" v="Fellebekk" />
		<tag k="ssr:stedsnr" v="552240" />
		<tag k="waterway" v="stream" />
	</node>
	<node id="-271065" lat="60.3934638861" lon="9.52731110873">
		<tag k="name" v="Gulsvikstryken" />
		<tag k="ssr:stedsnr" v="552258" />
		<tag k="waterway" v="rapids" />
	</node>
	<node id="-271060" lat="60.4056333344" lon="9.25894166253">
		<tag k="alt_name" v="Sindrebekk" />
		<tag k="name" v="Sindrebekken" />
		<tag k="ssr:stedsnr" v="552220" />
		<tag k="waterway" v="stream" />
	</node>
	<node id="-271057" lat="60.4221749984" lon="9.23574999797">
		<tag k="alt_name" v="Millomnattetjern" />
		<tag k="name" v="Mellomnattetjern" />
		<tag k="natural" v="water" />
		<tag k="ssr:stedsnr" v="552175" />
	</node>
	<node id="-271055" lat="60.3692305569" lon="9.583308325">
		<tag k="alt_name" v="Gulsvikelva" />
		<tag k="name" v="Gulsvikelvi" />
		<tag k="ssr:stedsnr" v="552050" />
		<tag k="waterway" v="river" />
	</node>
	<node id="-271053" lat="60.3589000017" lon="9.44957499568">
		<tag k="name" v="Ormetjern" />
		<tag k="natural" v="water" />
		<tag k="ssr:stedsnr" v="552041" />
	</node>
	<node id="-271052" lat="60.3002249977" lon="9.52755278027">
		<tag k="name" v="Vollbekken" />
		<tag k="ssr:stedsnr" v="552096" />
		<tag k="waterway" v="stream" />
	</node>
	<node id="-271050" lat="60.3451999996" lon="9.42795277507">
		<tag k="name" v="Fjellelvi" />
		<tag k="ssr:stedsnr" v="552001" />
		<tag k="waterway" v="stream" />
	</node>
	<node id="-271042" lat="60.4037250013" lon="9.3671388945">
		<tag k="name" v="Slåttemyrtjern" />
		<tag k="natural" v="water" />
		<tag k="ssr:stedsnr" v="544395" />
	</node>
	<node id="-271041" lat="60.3963249983" lon="9.31562778266">
		<tag k="name" v="Brattefoss" />
		<tag k="natural" v="waterfall" />
		<tag k="ssr:stedsnr" v="544392" />
	</node>
	<node id="-271023" lat="60.4869805545" lon="9.50164166064">
		<tag k="name" v="Uksehølun" />
		<tag k="natural" v="water" />
		<tag k="ssr:stedsnr" v="525724" />
	</node>
	<node id="-271015" lat="60.3632694469" lon="9.69539443784">
		<tag k="name" v="Granbuløken" />
		<tag k="ssr:stedsnr" v="525576" />
		<tag k="waterway" v="stream" />
	</node>
	<node id="-271014" lat="60.3672638922" lon="9.49967500694">
		<tag k="name" v="Flettetjern" />
		<tag k="natural" v="water" />
		<tag k="ssr:stedsnr" v="525572" />
	</node>
	<node id="-271007" lat="60.5132777766" lon="9.33733889092">
		<tag k="name" v="Drittjern" />
		<tag k="natural" v="water" />
		<tag k="ssr:stedsnr" v="432774" />
	</node>
	<node id="-271000" lat="60.3592138849" lon="9.61882778581">
		<tag k="alt_name" v="Sauøyre" />
		<tag k="name" v="Sauøyri" />
		<tag k="place" v="islet" />
		<tag k="ssr:stedsnr" v="431773" />
	</node>
	<node id="-270998" lat="60.3292833376" lon="9.65283333586">
		<tag k="loc_name" v="Nobbe" />
		<tag k="name" v="Nøbbe" />
		<tag k="natural" v="cape" />
		<tag k="ssr:stedsnr" v="431885" />
	</node>
	<node id="-270997" lat="60.3377500031" lon="9.72281389589">
		<tag k="alt_name" v="Øvre Svarttjern" />
		<tag k="name" v="Øvre Svarttjernet" />
		<tag k="natural" v="water" />
		<tag k="ssr:stedsnr" v="431881" />
	</node>
	<node id="-270996" lat="60.5589451337" lon="9.4136797679">
		<tag k="name" v="Dreparhølen" />
		<tag k="place" v="locality" />
		<tag k="ssr:stedsnr" v="431879" />
	</node>
	<node id="-270992" lat="60.4348055593" lon="9.5420611098">
		<tag k="name" v="Suserudbekken" />
		<tag k="ssr:stedsnr" v="431193" />
		<tag k="waterway" v="stream" />
	</node>
	<node id="-270989" lat="60.3914111111" lon="9.28069166079">
		<tag k="alt_name" v="Venelibekk" />
		<tag k="name" v="Venelibekken" />
		<tag k="ssr:stedsnr" v="431266" />
		<tag k="waterway" v="stream" />
	</node>
	<node id="-270988" lat="60.3740027805" lon="9.48757499955">
		<tag k="alt_name" v="Lisætertjern" />
		<tag k="name" v="Lisetertjern" />
		<tag k="natural" v="water" />
		<tag k="ssr:stedsnr" v="431252" />
	</node>
	<node id="-270986" lat="60.4107750025" lon="9.38150276901">
		<tag k="alt_name" v="Gyltebekk" />
		<tag k="name" v="Gyltebekken" />
		<tag k="ssr:stedsnr" v="431233" />
		<tag k="waterway" v="stream" />
	</node>
	<node id="-270985" lat="60.4108138849" lon="9.36286111391">
		<tag k="alt_name" v="Grøslandelva" />
		<tag k="name" v="Grøslandelvi" />
		<tag k="ssr:stedsnr" v="431231" />
		<tag k="waterway" v="river" />
	</node>
	<node id="-270980" lat="60.4354805518" lon="9.63529166852">
		<tag k="alt_name" v="Lauvhaugelva" />
		<tag k="name" v="Lauvhaugelvi" />
		<tag k="ssr:stedsnr" v="430977" />
		<tag k="waterway" v="stream" />
	</node>
	<node id="-270979" lat="60.43150794" lon="9.6448170161">
		<tag k="alt_name" v="Moltetjern" />
		<tag k="name" v="Moltetjernet" />
		<tag k="natural" v="water" />
		<tag k="ssr:stedsnr" v="430976" />
	</node>
	<node id="-270976" lat="60.4512638927" lon="9.59470277814">
		<tag k="alt_name" v="Svangtjern" />
		<tag k="name" v="Svangtjernet" />
		<tag k="natural" v="water" />
		<tag k="ssr:stedsnr" v="431151" />
	</node>
	<node id="-270975" lat="60.4404999963" lon="9.31725277938">
		<tag k="alt_name" v="Bottentjern" />
		<tag k="name" v="Botntjern" />
		<tag k="natural" v="water" />
		<tag k="ssr:stedsnr" v="431148" />
	</node>
	<node id="-270970" lat="60.4659500012" lon="9.48042499509">
		<tag k="name" v="Slåttemyrtjern" />
		<tag k="natural" v="water" />
		<tag k="ssr:stedsnr" v="430356" />
	</node>
	<node id="-270969" lat="60.4690361148" lon="9.32644722111">
		<tag k="name" v="Jordesbekken" />
		<tag k="ssr:stedsnr" v="430353" />
		<tag k="waterway" v="stream" />
	</node>
	<node id="-270968" lat="60.4760250022" lon="9.35652778518">
		<tag k="name" v="Huldratjernan" />
		<tag k="natural" v="water" />
		<tag k="old_name" v="Hudratj(ørn)ene;Hudratjerna" />
		<tag k="ssr:stedsnr" v="430346" />
		<tag k="water" v="lake" />
	</node>
	<node id="-270964" lat="60.4089027755" lon="9.31578611235">
		<tag k="alt_name" v="Bjørnehaugbekken" />
		<tag k="name" v="Bjørnehaugsbekken" />
		<tag k="ssr:stedsnr" v="423431" />
		<tag k="waterway" v="stream" />
	</node>
	<node id="-270950" lat="60.4154166622" lon="9.74573056358">
		<tag k="name" v="Skruibekken" />
		<tag k="ssr:stedsnr" v="421490" />
		<tag k="waterway" v="stream" />
	</node>
	<node id="-270942" lat="60.4593833375" lon="9.49776111417">
		<tag k="name" v="Rakafiskputten" />
		<tag k="natural" v="bay" />
		<tag k="ssr:stedsnr" v="405537" />
	</node>
	<node id="-270938" lat="60.3143555563" lon="9.638694446">
		<tag k="name" v="Hyttebekken" />
		<tag k="ssr:stedsnr" v="404177" />
		<tag k="waterway" v="stream" />
	</node>
	<node id="-270927" lat="60.4203388932" lon="9.69232500367">
		<tag k="alt_name" v="Øvstevannsbekken" />
		<tag k="name" v="Øvstevassbekken" />
		<tag k="ssr:stedsnr" v="370992" />
		<tag k="waterway" v="stream" />
	</node>
	<node id="-270922" lat="60.3568499967" lon="9.71005834138">
		<tag k="alt_name" v="Stortjern" />
		<tag k="name" v="Stortjernet" />
		<tag k="natural" v="water" />
		<tag k="ssr:stedsnr" v="370773" />
	</node>
	<node id="-270921" lat="60.3944166708" lon="9.79078888404">
		<tag k="alt_name" v="Buvannselva" />
		<tag k="name" v="Buvasselvi" />
		<tag k="ssr:stedsnr" v="370605" />
		<tag k="waterway" v="river" />
	</node>
	<node id="-270920" lat="60.3682225857" lon="9.15181716583">
		<tag k="name" v="Fjelløkteren" />
		<tag k="natural" v="water" />
		<tag k="ssr:stedsnr" v="370438" />
		<tag k="water" v="lake" />
	</node>
	<node id="-270918" lat="60.4036444416" lon="9.15868332534">
		<tag k="alt_name" v="Krysskobekk" />
		<tag k="name" v="Krysskotbekken" />
		<tag k="ssr:stedsnr" v="370399" />
		<tag k="waterway" v="stream" />
	</node>
	<node id="-270914" lat="60.3978000042" lon="9.53032500761">
		<tag k="name" v="Trolltjern" />
		<tag k="natural" v="water" />
		<tag k="ssr:stedsnr" v="370287" />
	</node>
	<node id="-270909" lat="60.4037499991" lon="9.46812500357">
		<tag k="name" v="Droppelbekk" />
		<tag k="ssr:stedsnr" v="370248" />
		<tag k="waterway" v="stream" />
	</node>
	<node id="-270901" lat="60.4353500033" lon="9.32022500282">
		<tag k="alt_name" v="Kråkeneshølen" />
		<tag k="name" v="Kråkneshølen" />
		<tag k="place" v="locality" />
		<tag k="ssr:stedsnr" v="370163" />
	</node>
	<node id="-270897" lat="60.3559000016" lon="9.33087500609">
		<tag k="name" v="Toveelvi" />
		<tag k="ssr:stedsnr" v="370034" />
		<tag k="waterway" v="stream" />
	</node>
	<node id="-270895" lat="60.442291665" lon="9.80320277397">
		<tag k="name" v="Fonneskardbekken" />
		<tag k="ssr:stedsnr" v="369887" />
		<tag k="waterway" v="stream" />
	</node>
	<node id="-270889" lat="60.3793709296" lon="9.42209734915">
		<tag k="name" v="Skreddervika" />
		<tag k="natural" v="bay" />
		<tag k="ssr:stedsnr" v="362376" />
	</node>
	<node id="-270886" lat="60.5450660863" lon="9.43520147972">
		<tag k="name" v="Grunntjernfossen" />
		<tag k="natural" v="waterfall" />
		<tag k="ssr:stedsnr" v="361389" />
	</node>
	<node id="-270884" lat="60.4024722253" lon="9.71737500749">
		<tag k="name" v="Øvstevannsdammen" />
		<tag k="ssr:stedsnr" v="360449" />
		<tag k="waterway" v="dam" />
	</node>
	<node id="-270878" lat="60.4648138861" lon="9.49631666929">
		<tag k="name" v="Slåttemyrbekken" />
		<tag k="ssr:stedsnr" v="344533" />
		<tag k="waterway" v="stream" />
	</node>
	<node id="-270874" lat="60.4347861115" lon="9.4092000078">
		<tag k="name" v="Gaptjerntjern" />
		<tag k="natural" v="water" />
		<tag k="ssr:stedsnr" v="343863" />
	</node>
	<node id="-270871" lat="60.5457527766" lon="9.36971111753">
		<tag k="name" v="Vesle Spunsettjern" />
>>>>>>> e1d4bc35ff8a6074a6f2e91616a996b547c36f15
		<tag k="natural" v="water" />
		<tag k="ssr:stedsnr" v="343735" />
	</node>
<<<<<<< HEAD
	<node lat="60.53383611139997" lon="9.466791665978683" id="-12437">
		<tag k="name" v="Tjuvodden" />
		<tag k="natural" v="cape" />
		<tag k="ssr:stedsnr" v="7741" />
	</node>
	<node lat="60.526413891234924" lon="9.351400001956678" id="-12438">
		<tag k="name" v="Grisetjern" />
		<tag k="natural" v="water" />
		<tag k="ssr:stedsnr" v="7745" />
	</node>
	<node lat="60.4365777742947" lon="9.323030558502872" id="-12439">
		<tag k="name" v="Steinstryken" />
		<tag k="ssr:stedsnr" v="39820" />
		<tag k="waterway" v="rapids" />
	</node>
	<node lat="60.32021388692249" lon="9.540883339069367" id="-12440">
		<tag k="name" v="Fiskebekkdammen" />
		<tag k="natural" v="water" />
		<tag k="ssr:stedsnr" v="40144" />
	</node>
	<node lat="60.33349722490506" lon="9.500680561161271" id="-12442">
		<tag k="name" v="Storekrok" />
		<tag k="place" v="locality" />
		<tag k="ssr:stedsnr" v="40190" />
	</node>
	<node lat="60.3729083347799" lon="9.606094446656252" id="-12445">
		<tag k="loc_name" v="Skalbergnobbe" />
		<tag k="name" v="Skalbergnøbbe" />
		<tag k="natural" v="cape" />
		<tag k="ssr:stedsnr" v="40392" />
	</node>
	<node lat="60.499083329176344" lon="9.418438890301674" id="-12449">
		<tag k="name" v="Halvfartjern" />
		<tag k="natural" v="water" />
		<tag k="ssr:stedsnr" v="42664" />
	</node>
	<node lat="60.455533334242205" lon="9.48250555170013" id="-12464">
		<tag k="alt_name" v="Sprenetjern" />
		<tag k="name" v="Sprentjern" />
		<tag k="natural" v="water" />
		<tag k="ssr:stedsnr" v="67171" />
	</node>
	<node lat="60.31546666894702" lon="9.647149992735528" id="-12466">
		<tag k="alt_name" v="Hyttevika" />
		<tag k="name" v="Hytteviki" />
		<tag k="natural" v="bay" />
		<tag k="ssr:stedsnr" v="66811" />
	</node>
	<node lat="60.36302499987708" lon="9.274425007264918" id="-12469">
		<tag k="name" v="Liabekk" />
		<tag k="ssr:stedsnr" v="67027" />
		<tag k="waterway" v="stream" />
	</node>
	<node lat="60.35682331286056" lon="9.383112660718448" id="-12470">
		<tag k="name" v="Steinrullartjern" />
		<tag k="natural" v="water" />
		<tag k="ssr:stedsnr" v="67038" />
	</node>
	<node lat="60.38150929333333" lon="9.347206551603467" id="-12473">
		<tag k="alt_name" v="Langlitjern" />
		<tag k="name" v="Langelitjern" />
		<tag k="natural" v="water" />
		<tag k="ssr:stedsnr" v="67258" />
	</node>
	<node lat="60.39429999582635" lon="9.56575277020143" id="-12476">
		<tag k="alt_name" v="Grøtøya" />
		<tag k="name" v="Grøtøyni" />
		<tag k="place" v="islet" />
		<tag k="ssr:stedsnr" v="67271" />
	</node>
	<node lat="60.410766665589584" lon="9.583305551536522" id="-12477">
		<tag k="name" v="Koksumbekken" />
		<tag k="ssr:stedsnr" v="67273" />
		<tag k="waterway" v="stream" />
	</node>
	<node lat="60.34869999856815" lon="9.78475277436602" id="-12490">
		<tag k="alt_name" v="Tranetjern" />
		<tag k="name" v="Tranetjernet" />
		<tag k="natural" v="water" />
		<tag k="ssr:stedsnr" v="67780" />
	</node>
	<node lat="60.48332500432304" lon="9.547675001009909" id="-12492">
		<tag k="name" v="Damtjern" />
		<tag k="natural" v="water" />
		<tag k="ssr:stedsnr" v="67365" />
	</node>
	<node lat="60.340166669172795" lon="9.619211120013233" id="-12494">
		<tag k="name" v="Steinarodden" />
		<tag k="natural" v="cape" />
		<tag k="ssr:stedsnr" v="67854" />
	</node>
	<node lat="60.54804722068059" lon="9.386855554836968" id="-12497">
		<tag k="name" v="Ormeleinbekken" />
		<tag k="ssr:stedsnr" v="67868" />
		<tag k="waterway" v="stream" />
	</node>
	<node lat="60.38999444128945" lon="9.719877784779888" id="-12498">
		<tag k="alt_name" v="Fellebekk" />
		<tag k="name" v="Fellebekken" />
		<tag k="ssr:stedsnr" v="67968" />
		<tag k="waterway" v="stream" />
	</node>
	<node lat="60.322144446681484" lon="9.74324167070063" id="-12500">
		<tag k="name" v="Moltetjern" />
		<tag k="natural" v="water" />
		<tag k="ssr:stedsnr" v="100154" />
	</node>
	<node lat="60.5297583253186" lon="9.481075613110026" id="-12511">
		<tag k="name" v="Nevlingsdammen" />
		<tag k="ssr:stedsnr" v="101697" />
		<tag k="waterway" v="dam" />
	</node>
	<node lat="60.52812778144296" lon="9.527330561214896" id="-12512">
		<tag k="name" v="Båthusodden" />
		<tag k="natural" v="cape" />
		<tag k="ssr:stedsnr" v="101698" />
	</node>
	<node lat="60.54506389300156" lon="9.362450006009889" id="-12513">
		<tag k="name" v="Hestlidaltjern" />
		<tag k="natural" v="water" />
		<tag k="ssr:stedsnr" v="101700" />
	</node>
	<node lat="60.40363055423169" lon="9.553611107215575" id="-12532">
		<tag k="name" v="Koksumbekken" />
		<tag k="ssr:stedsnr" v="118441" />
		<tag k="waterway" v="stream" />
	</node>
	<node lat="60.381588891806814" lon="9.35522500087741" id="-12545">
		<tag k="name" v="Langelibekken" />
		<tag k="ssr:stedsnr" v="120364" />
		<tag k="waterway" v="stream" />
	</node>
	<node lat="60.39557221974611" lon="9.575027786047292" id="-12554">
		<tag k="alt_name" v="Søndre Koksumbekken" />
		<tag k="name" v="Søre Koksumbekken" />
		<tag k="ssr:stedsnr" v="127272" />
		<tag k="waterway" v="stream" />
	</node>
	<node lat="60.360921703961736" lon="9.427121452058843" id="-12556">
		<tag k="name" v="Eitrytetjern" />
		<tag k="natural" v="water" />
		<tag k="ssr:stedsnr" v="127019" />
	</node>
	<node lat="60.37136666783326" lon="9.322186107965557" id="-12558">
		<tag k="name" v="Tingsjø" />
		<tag k="natural" v="water" />
		<tag k="ssr:stedsnr" v="127023" />
		<tag k="water" v="lake" />
	</node>
	<node lat="60.362825002884264" lon="9.530075002150921" id="-12560">
		<tag k="name" v="Granbakktjern" />
		<tag k="natural" v="water" />
		<tag k="ssr:stedsnr" v="127034" />
	</node>
	<node lat="60.49637500305526" lon="9.344177785723147" id="-12565">
		<tag k="alt_name" v="Kolsrudtjerna;Kolsrudtjern" />
		<tag k="name" v="Kolsrudtjernan" />
		<tag k="natural" v="water" />
		<tag k="ssr:stedsnr" v="127336" />
		<tag k="water" v="lake" />
	</node>
	<node lat="60.481525000229716" lon="9.447924995233537" id="-12567">
		<tag k="name" v="Hangstjern" />
		<tag k="natural" v="water" />
		<tag k="ssr:stedsnr" v="127364" />
	</node>
	<node lat="60.341327782074586" lon="9.76697499863433" id="-12569">
		<tag k="alt_name" v="Skjærtjern" />
		<tag k="name" v="Skjertjern" />
		<tag k="natural" v="water" />
		<tag k="ssr:stedsnr" v="127864" />
	</node>
	<node lat="60.386147220098" lon="9.659783333538167" id="-12570">
		<tag k="alt_name" v="Nevertjern" />
		<tag k="name" v="Nevertjernet" />
		<tag k="natural" v="water" />
		<tag k="ssr:stedsnr" v="127961" />
	</node>
	<node lat="60.36221666527543" lon="9.621030560545694" id="-12572">
		<tag k="name" v="Stabbeholmen" />
		<tag k="place" v="islet" />
		<tag k="ssr:stedsnr" v="127827" />
	</node>
	<node lat="60.3964027796747" lon="9.513041668874859" id="-12575">
		<tag k="name" v="Flatsjø" />
		<tag k="place" v="locality" />
		<tag k="ssr:stedsnr" v="157132" />
	</node>
	<node lat="60.49542499728343" lon="9.407888881065135" id="-12581">
		<tag k="name" v="Langebrenntjern" />
		<tag k="natural" v="water" />
		<tag k="ssr:stedsnr" v="161700" />
	</node>
	<node lat="60.47226389061007" lon="9.388755548712899" id="-12583">
		<tag k="name" v="Røtuhullputten" />
		<tag k="natural" v="water" />
		<tag k="ssr:stedsnr" v="163530" />
		<tag k="water" v="pond" />
	</node>
	<node lat="60.36702500403465" lon="9.762641665796801" id="-12601">
		<tag k="alt_name" v="Lauvskartjern" />
		<tag k="name" v="Lauvskardtjernet" />
		<tag k="natural" v="water" />
		<tag k="ssr:stedsnr" v="188835" />
	</node>
	<node lat="60.3240888860771" lon="9.630988885540036" id="-12602">
		<tag k="name" v="Storviksanden" />
		<tag k="natural" v="beach" />
		<tag k="ssr:stedsnr" v="188842" />
	</node>
	<node lat="60.335274995950485" lon="9.577449995849713" id="-12603">
		<tag k="fixme" v="multiple name tags, choose one and add the other to alt_name" />
		<tag k="name" v="Lomtjern;Moltetjern" />
		<tag k="natural" v="water" />
		<tag k="ssr:stedsnr" v="188060" />
	</node>
	<node lat="60.491150002338784" lon="9.33237500628811" id="-12608">
		<tag k="name" v="Djupetjern" />
		<tag k="natural" v="water" />
		<tag k="ssr:stedsnr" v="188343" />
	</node>
	<node lat="60.48138344625905" lon="9.331675026272944" id="-12609">
		<tag k="name" v="Svaretjern" />
		<tag k="natural" v="water" />
		<tag k="ssr:stedsnr" v="188365" />
	</node>
	<node lat="60.4343777786492" lon="9.32239166398834" id="-12630">
		<tag k="name" v="Felestryken" />
		<tag k="ssr:stedsnr" v="282830" />
		<tag k="waterway" v="rapids" />
	</node>
	<node lat="60.41822500063808" lon="9.478302772952059" id="-12642">
		<tag k="name" v="Rudstjern" />
		<tag k="natural" v="water" />
		<tag k="ssr:stedsnr" v="300248" />
	</node>
	<node lat="60.44476111194877" lon="9.49468610548211" id="-12645">
		<tag k="name" v="Puttane" />
		<tag k="natural" v="water" />
		<tag k="ssr:stedsnr" v="300953" />
		<tag k="water" v="pond" />
	</node>
	<node lat="60.40914999582938" lon="9.543227783051563" id="-12653">
		<tag k="name" v="Haramobekken" />
		<tag k="ssr:stedsnr" v="309223" />
		<tag k="waterway" v="stream" />
	</node>
	<node lat="60.389969448248344" lon="9.20531667534646" id="-12655">
		<tag k="alt_name" v="Helgevatnet" />
		<tag k="name" v="Helgesetvatnet" />
		<tag k="natural" v="water" />
		<tag k="ssr:stedsnr" v="309404" />
		<tag k="water" v="lake" />
	</node>
	<node lat="60.385950004488194" lon="9.298225003240686" id="-12659">
		<tag k="alt_name" v="Mellom-Kimbetjern" />
		<tag k="name" v="Midtre Kimbetjern" />
		<tag k="natural" v="water" />
		<tag k="ssr:stedsnr" v="309263" />
	</node>
	<node lat="60.39111666695311" lon="9.69667500536014" id="-12665">
		<tag k="alt_name" v="Trytetjern" />
		<tag k="name" v="Trytetjernan" />
		<tag k="natural" v="water" />
		<tag k="ssr:stedsnr" v="309969" />
		<tag k="water" v="lake" />
	</node>
	<node lat="60.525844442979874" lon="9.474763884956365" id="-12672">
		<tag k="name" v="Hallingtjern" />
		<tag k="natural" v="water" />
		<tag k="ssr:stedsnr" v="310772" />
	</node>
	<node lat="60.54284722304058" lon="9.351705564211027" id="-12674">
		<tag k="alt_name" v="Krøsstjernan" />
		<tag k="name" v="Krosstjernan" />
		<tag k="natural" v="water" />
		<tag k="ssr:stedsnr" v="310860" />
		<tag k="water" v="lake" />
	</node>
	<node lat="60.35129999647853" lon="9.681113884314763" id="-12683">
		<tag k="name" v="Røbbetjern" />
		<tag k="natural" v="water" />
		<tag k="ssr:stedsnr" v="343581" />
	</node>
	<node lat="60.46828888676868" lon="9.399675001124523" id="-12685">
		<tag k="name" v="Lisletjern" />
		<tag k="natural" v="water" />
		<tag k="ssr:stedsnr" v="344559" />
	</node>
	<node lat="60.545752776595855" lon="9.369711117531189" id="-12687">
		<tag k="name" v="Vesle Spunsettjern" />
		<tag k="natural" v="water" />
		<tag k="ssr:stedsnr" v="343735" />
	</node>
	<node lat="60.46481388614561" lon="9.496316669293977" id="-12691">
		<tag k="name" v="Slåttemyrbekken" />
		<tag k="ssr:stedsnr" v="344533" />
		<tag k="waterway" v="stream" />
	</node>
	<node lat="60.42934999638807" lon="9.386552776123354" id="-12696">
		<tag k="name" v="Veltehølen" />
		<tag k="place" v="locality" />
		<tag k="ssr:stedsnr" v="360004" />
	</node>
	<node lat="60.40247222527363" lon="9.717375007485835" id="-12700">
		<tag k="name" v="Øvstevannsdammen" />
		<tag k="ssr:stedsnr" v="360449" />
		<tag k="waterway" v="dam" />
	</node>
	<node lat="60.54506608634645" lon="9.435201479721536" id="-12703">
		<tag k="name" v="Grunntjernfossen" />
		<tag k="natural" v="waterfall" />
		<tag k="ssr:stedsnr" v="361389" />
	</node>
	<node lat="60.37937092956417" lon="9.422097349149771" id="-12707">
		<tag k="name" v="Skreddervika" />
		<tag k="natural" v="bay" />
		<tag k="ssr:stedsnr" v="362376" />
	</node>
	<node lat="60.403644441556075" lon="9.158683325335236" id="-12712">
		<tag k="alt_name" v="Krysskobekk" />
		<tag k="name" v="Krysskotbekken" />
		<tag k="ssr:stedsnr" v="370399" />
		<tag k="waterway" v="stream" />
	</node>
	<node lat="60.394416670803345" lon="9.790788884040284" id="-12713">
		<tag k="alt_name" v="Buvannselva" />
		<tag k="name" v="Buvasselvi" />
		<tag k="ssr:stedsnr" v="370605" />
		<tag k="waterway" v="river" />
	</node>
	<node lat="60.4422916650195" lon="9.803202773966548" id="-12715">
		<tag k="name" v="Fonneskardbekken" />
		<tag k="ssr:stedsnr" v="369887" />
		<tag k="waterway" v="stream" />
	</node>
	<node lat="60.40374999906386" lon="9.468125003567573" id="-12719">
		<tag k="name" v="Droppelbekk" />
		<tag k="ssr:stedsnr" v="370248" />
		<tag k="waterway" v="stream" />
	</node>
	<node lat="60.36822258565718" lon="9.151817165829337" id="-12723">
		<tag k="name" v="Fjelløkteren" />
		<tag k="natural" v="water" />
		<tag k="ssr:stedsnr" v="370438" />
		<tag k="water" v="lake" />
	</node>
	<node lat="60.3568499967045" lon="9.710058341381014" id="-12724">
		<tag k="alt_name" v="Stortjern" />
		<tag k="name" v="Stortjernet" />
		<tag k="natural" v="water" />
		<tag k="ssr:stedsnr" v="370773" />
	</node>
	<node lat="60.42033889321556" lon="9.692325003668143" id="-12728">
		<tag k="alt_name" v="Øvstevannsbekken" />
		<tag k="name" v="Øvstevassbekken" />
		<tag k="ssr:stedsnr" v="370992" />
		<tag k="waterway" v="stream" />
	</node>
	<node lat="60.41541666223527" lon="9.745730563578807" id="-12755">
		<tag k="name" v="Skruibekken" />
		<tag k="ssr:stedsnr" v="421490" />
		<tag k="waterway" v="stream" />
	</node>
	<node lat="60.40890277551937" lon="9.315786112349288" id="-12769">
		<tag k="alt_name" v="Bjørnehaugbekken" />
		<tag k="name" v="Bjørnehaugsbekken" />
		<tag k="ssr:stedsnr" v="423431" />
		<tag k="waterway" v="stream" />
	</node>
	<node lat="60.345233332331695" lon="9.393038888109437" id="-12771">
		<tag k="name" v="Øvre Fjelltjern" />
		<tag k="natural" v="water" />
		<tag k="ssr:stedsnr" v="431003" />
	</node>
	<node lat="60.35347778094172" lon="9.287125001612406" id="-12772">
		<tag k="name" v="Bekkelibekken" />
		<tag k="ssr:stedsnr" v="431007" />
		<tag k="waterway" v="stream" />
	</node>
	<node lat="60.342674998045354" lon="9.583649993549885" id="-12773">
		<tag k="alt_name" v="Buøenelva;Buøynelva" />
		<tag k="name" v="Buøynelvi" />
		<tag k="ssr:stedsnr" v="431017" />
		<tag k="waterway" v="stream" />
	</node>
	<node lat="60.43150793998448" lon="9.64481701610037" id="-12776">
		<tag k="alt_name" v="Moltetjern" />
		<tag k="name" v="Moltetjernet" />
		<tag k="natural" v="water" />
		<tag k="ssr:stedsnr" v="430976" />
	</node>
	<node lat="60.43548055180001" lon="9.635291668524358" id="-12777">
		<tag k="alt_name" v="Lauvhaugelva" />
		<tag k="name" v="Lauvhaugelvi" />
		<tag k="ssr:stedsnr" v="430977" />
		<tag k="waterway" v="stream" />
	</node>
	<node lat="60.451263892745835" lon="9.594702778139645" id="-12779">
		<tag k="alt_name" v="Svangtjern" />
		<tag k="name" v="Svangtjernet" />
		<tag k="natural" v="water" />
		<tag k="ssr:stedsnr" v="431151" />
	</node>
	<node lat="60.41081388494277" lon="9.362861113913114" id="-12783">
		<tag k="alt_name" v="Grøslandelva" />
		<tag k="name" v="Grøslandelvi" />
		<tag k="ssr:stedsnr" v="431231" />
		<tag k="waterway" v="river" />
	</node>
	<node lat="60.41077500250315" lon="9.381502769006135" id="-12784">
		<tag k="alt_name" v="Gyltebekk" />
		<tag k="name" v="Gyltebekken" />
		<tag k="ssr:stedsnr" v="431233" />
		<tag k="waterway" v="stream" />
	</node>
	<node lat="60.39141111112039" lon="9.280691660792296" id="-12786">
		<tag k="alt_name" v="Venelibekk" />
		<tag k="name" v="Venelibekken" />
		<tag k="ssr:stedsnr" v="431266" />
		<tag k="waterway" v="stream" />
	</node>
	<node lat="60.37602499769788" lon="9.649074992105456" id="-12789">
		<tag k="alt_name" v="Tromaldelvi;Trommaldelva" />
		<tag k="name" v="Trommaldelvi" />
		<tag k="ssr:stedsnr" v="431813" />
		<tag k="waterway" v="river" />
	</node>
	<node lat="60.35921388492901" lon="9.618827785809504" id="-12790">
		<tag k="alt_name" v="Sauøyre" />
		<tag k="name" v="Sauøyri" />
		<tag k="place" v="islet" />
		<tag k="ssr:stedsnr" v="431773" />
	</node>
	<node lat="60.55894513365872" lon="9.413679767896086" id="-12791">
		<tag k="name" v="Dreparhølen" />
		<tag k="place" v="locality" />
		<tag k="ssr:stedsnr" v="431879" />
	</node>
	<node lat="60.33775000310499" lon="9.722813895891933" id="-12792">
		<tag k="alt_name" v="Øvre Svarttjern" />
		<tag k="name" v="Øvre Svarttjernet" />
		<tag k="natural" v="water" />
		<tag k="ssr:stedsnr" v="431881" />
	</node>
	<node lat="60.52900555661899" lon="9.536269452684444" id="-12797">
		<tag k="name" v="Djupodden" />
		<tag k="natural" v="cape" />
		<tag k="ssr:stedsnr" v="432752" />
	</node>
	<node lat="60.51327777662993" lon="9.33733889092086" id="-12799">
		<tag k="name" v="Drittjern" />
		<tag k="natural" v="water" />
		<tag k="ssr:stedsnr" v="432774" />
	</node>
	<node lat="60.39632499830136" lon="9.315627782655234" id="-12831">
		<tag k="name" v="Brattefoss" />
		<tag k="natural" v="waterfall" />
		<tag k="ssr:stedsnr" v="544392" />
	</node>
	<node lat="60.40372500133091" lon="9.367138894500057" id="-12832">
		<tag k="name" v="Slåttemyrtjern" />
		<tag k="natural" v="water" />
		<tag k="ssr:stedsnr" v="544395" />
	</node>
	<node lat="60.30022499771139" lon="9.527552780272405" id="-12839">
		<tag k="name" v="Vollbekken" />
		<tag k="ssr:stedsnr" v="552096" />
		<tag k="waterway" v="stream" />
	</node>
	<node lat="60.348929818948925" lon="9.744928764607499" id="-12841">
		<tag k="alt_name" v="Røytjerna" />
		<tag k="name" v="Røytjernan" />
		<tag k="natural" v="water" />
		<tag k="ssr:stedsnr" v="552800" />
		<tag k="water" v="lake" />
	</node>
	<node lat="60.422174998372604" lon="9.235749997971112" id="-12844">
		<tag k="alt_name" v="Millomnattetjern" />
		<tag k="name" v="Mellomnattetjern" />
		<tag k="natural" v="water" />
		<tag k="ssr:stedsnr" v="552175" />
	</node>
	<node lat="60.39346388607309" lon="9.527311108734175" id="-12846">
		<tag k="name" v="Gulsvikstryken" />
		<tag k="ssr:stedsnr" v="552258" />
		<tag k="waterway" v="rapids" />
	</node>
	<node lat="60.34310555638999" lon="9.678822216197307" id="-12852">
		<tag k="name" v="Kvernbekken" />
		<tag k="ssr:stedsnr" v="552880" />
		<tag k="waterway" v="stream" />
	</node>
	<node lat="60.385188887501194" lon="9.645152781022393" id="-12853">
		<tag k="alt_name" v="Lielva" />
		<tag k="name" v="Lielvi" />
		<tag k="ssr:stedsnr" v="552977" />
		<tag k="waterway" v="river" />
	</node>
	<node lat="60.397494442924526" lon="9.467855551170535" id="-12855">
		<tag k="name" v="Ølbekk" />
		<tag k="ssr:stedsnr" v="581185" />
		<tag k="waterway" v="stream" />
	</node>
	<node lat="60.36528055484872" lon="9.650822227275759" id="-12858">
		<tag k="name" v="Megårdsbekken" />
		<tag k="ssr:stedsnr" v="585535" />
		<tag k="waterway" v="stream" />
	</node>
	<node lat="60.42376388528095" lon="9.48337777207583" id="-12864">
		<tag k="name" v="Vesevja" />
		<tag k="natural" v="bay" />
		<tag k="ssr:stedsnr" v="586229" />
	</node>
	<node lat="60.3680055549637" lon="9.612274996313198" id="-12868">
		<tag k="name" v="Smedodden" />
		<tag k="natural" v="cape" />
		<tag k="ssr:stedsnr" v="586389" />
	</node>
	<node lat="60.37067500245246" lon="9.322452778963092" id="-12889">
		<tag k="name" v="Såte" />
		<tag k="place" v="islet" />
		<tag k="ssr:stedsnr" v="605369" />
	</node>
	<node lat="60.46801944359178" lon="9.561252774320751" id="-12895">
		<tag k="alt_name" v="Skarselva" />
		<tag k="name" v="Skardselvi" />
		<tag k="ssr:stedsnr" v="612392" />
		<tag k="waterway" v="stream" />
	</node>
	<node lat="60.46077140123275" lon="9.629010562010363" id="-12898">
		<tag k="name" v="Kalvetjernan" />
		<tag k="natural" v="water" />
		<tag k="ssr:stedsnr" v="612876" />
		<tag k="water" v="lake" />
	</node>
	<node lat="60.349374997568994" lon="9.442699993717403" id="-12903">
		<tag k="name" v="Bjørnetjern" />
=======
	<node id="-270868" lat="60.3512999965" lon="9.68111388431">
		<tag k="name" v="Røbbetjern" />
		<tag k="natural" v="water" />
		<tag k="ssr:stedsnr" v="343581" />
	</node>
	<node id="-270858" lat="60.542847223" lon="9.35170556421">
		<tag k="alt_name" v="Krøsstjernan" />
		<tag k="name" v="Krosstjernan" />
		<tag k="natural" v="water" />
		<tag k="ssr:stedsnr" v="310860" />
		<tag k="water" v="lake" />
	</node>
	<node id="-270856" lat="60.5224750032" lon="9.37361388977">
		<tag k="name" v="Dagalitjern" />
		<tag k="natural" v="water" />
		<tag k="ssr:stedsnr" v="310781" />
	</node>
	<node id="-270855" lat="60.5209777783" lon="9.47089166243">
		<tag k="alt_name" v="Venelibekk" />
		<tag k="name" v="Venelibekken" />
		<tag k="ssr:stedsnr" v="310778" />
		<tag k="waterway" v="stream" />
	</node>
	<node id="-270854" lat="60.525844443" lon="9.47476388496">
		<tag k="name" v="Hallingtjern" />
		<tag k="natural" v="water" />
		<tag k="ssr:stedsnr" v="310772" />
	</node>
	<node id="-270848" lat="60.4173249973" lon="9.64836666256">
		<tag k="fixme" v="multiple name tags, choose one and add the other to alt_name" />
		<tag k="name" v="Store Veåstjernet;Veåstjern" />
		<tag k="natural" v="water" />
		<tag k="ssr:stedsnr" v="310000" />
	</node>
	<node id="-270846" lat="60.391116667" lon="9.69667500536">
		<tag k="alt_name" v="Trytetjern" />
		<tag k="name" v="Trytetjernan" />
		<tag k="natural" v="water" />
		<tag k="ssr:stedsnr" v="309969" />
		<tag k="water" v="lake" />
	</node>
	<node id="-270839" lat="60.3899694482" lon="9.20531667535">
		<tag k="alt_name" v="Helgevatnet" />
		<tag k="name" v="Helgesetvatnet" />
		<tag k="natural" v="water" />
		<tag k="ssr:stedsnr" v="309404" />
		<tag k="water" v="lake" />
	</node>
	<node id="-270837" lat="60.4609249973" lon="9.34447221961">
		<tag k="alt_name" v="Nysæterputten" />
		<tag k="name" v="Nyseterputten" />
		<tag k="place" v="locality" />
		<tag k="ssr:stedsnr" v="309399" />
	</node>
	<node id="-270836" lat="60.4495249974" lon="9.37776110623">
		<tag k="alt_name" v="Rimeelva" />
		<tag k="name" v="Rimeelvi" />
		<tag k="ssr:stedsnr" v="309398" />
		<tag k="waterway" v="river" />
	</node>
	<node id="-270833" lat="60.4769888893" lon="9.44815000272">
		<tag k="name" v="Erskoløken" />
		<tag k="ssr:stedsnr" v="309384" />
		<tag k="waterway" v="river" />
	</node>
	<node id="-270832" lat="60.4833944417" lon="9.42795278536">
		<tag k="name" v="Hangfoss" />
		<tag k="natural" v="waterfall" />
		<tag k="ssr:stedsnr" v="309383" />
	</node>
	<node id="-270830" lat="60.4954833344" lon="9.31353333906">
		<tag k="name" v="Gampetjern" />
		<tag k="natural" v="water" />
		<tag k="ssr:stedsnr" v="309356" />
	</node>
	<node id="-270828" lat="60.3859500045" lon="9.29822500324">
		<tag k="alt_name" v="Mellom-Kimbetjern" />
		<tag k="name" v="Midtre Kimbetjern" />
		<tag k="natural" v="water" />
		<tag k="ssr:stedsnr" v="309263" />
	</node>
	<node id="-270823" lat="60.4091499958" lon="9.54322778305">
		<tag k="name" v="Haramobekken" />
		<tag k="ssr:stedsnr" v="309223" />
		<tag k="waterway" v="stream" />
	</node>
	<node id="-270817" lat="60.4559138875" lon="9.34549444895">
		<tag k="alt_name" v="Nysæterbekken" />
		<tag k="name" v="Nyseterbekken" />
		<tag k="ssr:stedsnr" v="309140" />
		<tag k="waterway" v="stream" />
	</node>
	<node id="-270808" lat="60.3314111134" lon="9.78088610658">
		<tag k="name" v="Feletjern" />
		<tag k="natural" v="water" />
		<tag k="ssr:stedsnr" v="188890" />
	</node>
	<node id="-270807" lat="60.3250140824" lon="9.72859284416">
		<tag k="alt_name" v="Svarttjern" />
		<tag k="name" v="Svarttjernet" />
		<tag k="natural" v="water" />
		<tag k="ssr:stedsnr" v="188875" />
	</node>
	<node id="-270806" lat="60.3240888861" lon="9.63098888554">
		<tag k="name" v="Storviksanden" />
		<tag k="natural" v="beach" />
		<tag k="ssr:stedsnr" v="188842" />
	</node>
	<node id="-270805" lat="60.367025004" lon="9.7626416658">
		<tag k="alt_name" v="Lauvskartjern" />
		<tag k="name" v="Lauvskardtjernet" />
		<tag k="natural" v="water" />
		<tag k="ssr:stedsnr" v="188835" />
	</node>
	<node id="-270803" lat="60.3852027735" lon="9.80836945185">
		<tag k="alt_name" v="Frisvannet" />
		<tag k="name" v="Frisvatnet" />
		<tag k="natural" v="water" />
		<tag k="ssr:stedsnr" v="188812" />
		<tag k="water" v="lake" />
	</node>
	<node id="-270802" lat="60.4467944408" lon="9.39933611944">
		<tag k="alt_name" v="Raubekk" />
		<tag k="name" v="Raudbekken" />
		<tag k="ssr:stedsnr" v="188627" />
		<tag k="waterway" v="stream" />
	</node>
	<node id="-270800" lat="60.4849777806" lon="9.52187500458">
		<tag k="alt_name" v="Nedre Kvilartjern" />
		<tag k="name" v="Olastjern" />
		<tag k="natural" v="water" />
		<tag k="ssr:stedsnr" v="188378" />
	</node>
	<node id="-270799" lat="60.4841249976" lon="9.5346388893">
		<tag k="alt_name" v="Svartetjern" />
		<tag k="name" v="Svarttjern" />
		<tag k="natural" v="water" />
		<tag k="ssr:stedsnr" v="188376" />
	</node>
	<node id="-270798" lat="60.4822750042" lon="9.5027499914">
		<tag k="name" v="Gøffeputten" />
		<tag k="natural" v="water" />
		<tag k="ssr:stedsnr" v="188375" />
	</node>
	<node id="-270796" lat="60.4813834463" lon="9.33167502627">
		<tag k="name" v="Svaretjern" />
		<tag k="natural" v="water" />
		<tag k="ssr:stedsnr" v="188365" />
	</node>
	<node id="-270795" lat="60.4911500023" lon="9.33237500629">
		<tag k="name" v="Djupetjern" />
		<tag k="natural" v="water" />
		<tag k="ssr:stedsnr" v="188343" />
	</node>
	<node id="-270794" lat="60.3908638881" lon="9.30539722185">
		<tag k="alt_name" v="Kimbefoss" />
		<tag k="name" v="Kimbefossen" />
		<tag k="natural" v="waterfall" />
		<tag k="ssr:stedsnr" v="188273" />
	</node>
	<node id="-270790" lat="60.4538750006" lon="9.49280000436">
		<tag k="alt_name" v="Nedre Vesleåntjern" />
		<tag k="name" v="Nedre Vesleåtjern" />
		<tag k="natural" v="water" />
		<tag k="ssr:stedsnr" v="188180" />
	</node>
	<node id="-270784" lat="60.335274996" lon="9.57744999585">
		<tag k="fixme" v="multiple name tags, choose one and add the other to alt_name" />
		<tag k="name" v="Lomtjern;Moltetjern" />
		<tag k="natural" v="water" />
		<tag k="ssr:stedsnr" v="188060" />
	</node>
	<node id="-270783" lat="60.3536777818" lon="9.33545000171">
		<tag k="name" v="Flåbekken" />
		<tag k="ssr:stedsnr" v="188025" />
		<tag k="waterway" v="stream" />
	</node>
	<node id="-270781" lat="60.3432435153" lon="9.47940945383">
		<tag k="name" v="Holmetjern" />
		<tag k="natural" v="water" />
		<tag k="ssr:stedsnr" v="188008" />
	</node>
	<node id="-270779" lat="60.4740249998" lon="9.28769722763">
		<tag k="name" v="Kleivetjern" />
		<tag k="natural" v="water" />
		<tag k="ssr:stedsnr" v="187324" />
	</node>
	<node id="-270764" lat="60.4167222217" lon="9.42081110757">
		<tag k="name" v="Haugemyrhøl" />
		<tag k="natural" v="water" />
		<tag k="ssr:stedsnr" v="178025" />
		<tag k="water" v="pond" />
	</node>
	<node id="-270761" lat="60.4722638906" lon="9.38875554871">
		<tag k="name" v="Røtuhullputten" />
		<tag k="natural" v="water" />
		<tag k="ssr:stedsnr" v="163530" />
		<tag k="water" v="pond" />
	</node>
	<node id="-270757" lat="60.4954249973" lon="9.40788888107">
		<tag k="name" v="Langebrenntjern" />
		<tag k="natural" v="water" />
		<tag k="ssr:stedsnr" v="161700" />
	</node>
	<node id="-270754" lat="60.5625666695" lon="9.41050277582">
		<tag k="name" v="Langodden" />
		<tag k="natural" v="cape" />
		<tag k="ssr:stedsnr" v="161615" />
	</node>
	<node id="-270749" lat="60.3964027797" lon="9.51304166887">
		<tag k="name" v="Flatsjø" />
		<tag k="place" v="locality" />
		<tag k="ssr:stedsnr" v="157132" />
	</node>
	<node id="-270741" lat="60.4997111113" lon="9.39186945075">
		<tag k="alt_name" v="Saulielva" />
		<tag k="name" v="Saulielvi" />
		<tag k="ssr:stedsnr" v="128794" />
		<tag k="waterway" v="stream" />
	</node>
	<node id="-270740" lat="60.5116971141" lon="9.42484100463">
		<tag k="alt_name" v="Raufjellvatn" />
		<tag k="name" v="Raudfjellvatnet" />
		<tag k="natural" v="water" />
		<tag k="ssr:stedsnr" v="128783" />
	</node>
	<node id="-270739" lat="60.3861472201" lon="9.65978333354">
		<tag k="alt_name" v="Nevertjern" />
		<tag k="name" v="Nevertjernet" />
		<tag k="natural" v="water" />
		<tag k="ssr:stedsnr" v="127961" />
	</node>
	<node id="-270736" lat="60.3413277821" lon="9.76697499863">
		<tag k="alt_name" v="Skjærtjern" />
		<tag k="name" v="Skjertjern" />
		<tag k="natural" v="water" />
		<tag k="ssr:stedsnr" v="127864" />
	</node>
	<node id="-270734" lat="60.4815250002" lon="9.44792499523">
		<tag k="name" v="Hangstjern" />
		<tag k="natural" v="water" />
		<tag k="ssr:stedsnr" v="127364" />
	</node>
	<node id="-270730" lat="60.4963750031" lon="9.34417778572">
		<tag k="alt_name" v="Kolsrudtjerna;Kolsrudtjern" />
		<tag k="name" v="Kolsrudtjernan" />
		<tag k="natural" v="water" />
		<tag k="ssr:stedsnr" v="127336" />
		<tag k="water" v="lake" />
	</node>
	<node id="-270727" lat="60.3955722197" lon="9.57502778605">
		<tag k="alt_name" v="Søndre Koksumbekken" />
		<tag k="name" v="Søre Koksumbekken" />
		<tag k="ssr:stedsnr" v="127272" />
		<tag k="waterway" v="stream" />
	</node>
	<node id="-270722" lat="60.3119499995" lon="9.42867500815">
		<tag k="name" v="Fagerlibekken" />
		<tag k="ssr:stedsnr" v="127058" />
		<tag k="waterway" v="stream" />
	</node>
	<node id="-270719" lat="60.3628250029" lon="9.53007500215">
		<tag k="name" v="Granbakktjern" />
		<tag k="natural" v="water" />
		<tag k="ssr:stedsnr" v="127034" />
	</node>
	<node id="-270717" lat="60.3713666678" lon="9.32218610797">
		<tag k="name" v="Tingsjø" />
		<tag k="natural" v="water" />
		<tag k="ssr:stedsnr" v="127023" />
		<tag k="water" v="lake" />
	</node>
	<node id="-270715" lat="60.360921704" lon="9.42712145206">
		<tag k="name" v="Eitrytetjern" />
		<tag k="natural" v="water" />
		<tag k="ssr:stedsnr" v="127019" />
	</node>
	<node id="-270714" lat="60.4551527811" lon="9.29683889343">
		<tag k="alt_name" v="Kvernabekken" />
		<tag k="name" v="Kvernbekken" />
		<tag k="ssr:stedsnr" v="126348" />
		<tag k="waterway" v="stream" />
	</node>
	<node id="-270712" lat="60.4593583297" lon="9.43029166789">
		<tag k="name" v="Trytetjern" />
		<tag k="natural" v="water" />
		<tag k="ssr:stedsnr" v="127159" />
	</node>
	<node id="-270711" lat="60.4624138921" lon="9.4514416686">
		<tag k="alt_name" v="Heieelva" />
		<tag k="name" v="Heieelvi" />
		<tag k="ssr:stedsnr" v="127156" />
		<tag k="waterway" v="river" />
	</node>
	<node id="-270700" lat="60.3815888918" lon="9.35522500088">
		<tag k="name" v="Langelibekken" />
		<tag k="ssr:stedsnr" v="120364" />
		<tag k="waterway" v="stream" />
	</node>
	<node id="-270691" lat="60.4036305542" lon="9.55361110722">
		<tag k="name" v="Koksumbekken" />
		<tag k="ssr:stedsnr" v="118441" />
		<tag k="waterway" v="stream" />
	</node>
	<node id="-270677" lat="60.4663694474" lon="9.40776110705">
		<tag k="name" v="Hellebekktjern" />
		<tag k="natural" v="water" />
		<tag k="ssr:stedsnr" v="102605" />
	</node>
	<node id="-270671" lat="60.561447225" lon="9.35320278323">
		<tag k="name" v="Hestlidalbekken" />
		<tag k="ssr:stedsnr" v="101706" />
		<tag k="waterway" v="stream" />
	</node>
	<node id="-270670" lat="60.545063893" lon="9.36245000601">
		<tag k="name" v="Hestlidaltjern" />
		<tag k="natural" v="water" />
		<tag k="ssr:stedsnr" v="101700" />
	</node>
	<node id="-270669" lat="60.5281277814" lon="9.52733056121">
		<tag k="name" v="Båthusodden" />
		<tag k="natural" v="cape" />
		<tag k="ssr:stedsnr" v="101698" />
	</node>
	<node id="-270668" lat="60.529569443" lon="9.48070832566">
		<tag k="name" v="Nevlingsdammen" />
		<tag k="ssr:stedsnr" v="101697" />
		<tag k="waterway" v="dam" />
	</node>
	<node id="-270665" lat="60.374330559" lon="9.60506944596">
		<tag k="loc_name" v="Nobbe" />
		<tag k="name" v="Nøbbe" />
		<tag k="natural" v="cape" />
		<tag k="ssr:stedsnr" v="101375" />
	</node>
	<node id="-270654" lat="60.3221444467" lon="9.7432416707">
		<tag k="name" v="Moltetjern" />
		<tag k="natural" v="water" />
		<tag k="ssr:stedsnr" v="100154" />
	</node>
	<node id="-270652" lat="60.4182250006" lon="9.47830277295">
		<tag k="name" v="Rudstjern" />
		<tag k="natural" v="water" />
		<tag k="ssr:stedsnr" v="300248" />
	</node>
	<node id="-270651" lat="60.4121027779" lon="9.65288055413">
		<tag k="alt_name" v="Vesle Veåstjern" />
		<tag k="name" v="Vesle Veåstjernet" />
		<tag k="natural" v="water" />
		<tag k="ssr:stedsnr" v="67989" />
	</node>
	<node id="-270650" lat="60.3899944413" lon="9.71987778478">
		<tag k="alt_name" v="Fellebekk" />
		<tag k="name" v="Fellebekken" />
		<tag k="ssr:stedsnr" v="67968" />
		<tag k="waterway" v="stream" />
	</node>
	<node id="-270649" lat="60.3486999986" lon="9.78475277437">
		<tag k="alt_name" v="Tranetjern" />
		<tag k="name" v="Tranetjernet" />
		<tag k="natural" v="water" />
		<tag k="ssr:stedsnr" v="67780" />
	</node>
	<node id="-270648" lat="60.5480472207" lon="9.38685555484">
		<tag k="name" v="Ormeleinbekken" />
		<tag k="ssr:stedsnr" v="67868" />
		<tag k="waterway" v="stream" />
	</node>
	<node id="-270645" lat="60.3401666692" lon="9.61921112001">
		<tag k="name" v="Steinarodden" />
		<tag k="natural" v="cape" />
		<tag k="ssr:stedsnr" v="67854" />
	</node>
	<node id="-270644" lat="60.5654880949" lon="9.41202294669">
		<tag k="alt_name" v="Suluvatn" />
		<tag k="name" v="Suluvatnet" />
		<tag k="natural" v="water" />
		<tag k="ssr:stedsnr" v="67850" />
		<tag k="water" v="lake" />
	</node>
	<node id="-270641" lat="60.4107666656" lon="9.58330555154">
		<tag k="name" v="Koksumbekken" />
		<tag k="ssr:stedsnr" v="67273" />
		<tag k="waterway" v="stream" />
	</node>
	<node id="-270640" lat="60.3942999958" lon="9.5657527702">
		<tag k="alt_name" v="Grøtøya" />
		<tag k="name" v="Grøtøyni" />
		<tag k="place" v="islet" />
		<tag k="ssr:stedsnr" v="67271" />
	</node>
	<node id="-270637" lat="60.3815092933" lon="9.3472065516">
		<tag k="alt_name" v="Langlitjern" />
		<tag k="name" v="Langelitjern" />
		<tag k="natural" v="water" />
		<tag k="ssr:stedsnr" v="67258" />
	</node>
	<node id="-270631" lat="60.3568233129" lon="9.38311266072">
		<tag k="name" v="Steinrullartjern" />
		<tag k="natural" v="water" />
		<tag k="ssr:stedsnr" v="67038" />
	</node>
	<node id="-270630" lat="60.4833250043" lon="9.54767500101">
		<tag k="name" v="Damtjern" />
		<tag k="natural" v="water" />
		<tag k="ssr:stedsnr" v="67365" />
	</node>
	<node id="-270626" lat="60.4178083357" lon="9.27616110719">
		<tag k="name" v="Elgtjern" />
		<tag k="natural" v="water" />
		<tag k="ssr:stedsnr" v="67193" />
	</node>
	<node id="-270625" lat="60.4555333342" lon="9.4825055517">
		<tag k="alt_name" v="Sprenetjern" />
		<tag k="name" v="Sprentjern" />
		<tag k="natural" v="water" />
		<tag k="ssr:stedsnr" v="67171" />
	</node>
	<node id="-270622" lat="60.3630249999" lon="9.27442500726">
		<tag k="name" v="Liabekk" />
		<tag k="ssr:stedsnr" v="67027" />
		<tag k="waterway" v="stream" />
	</node>
	<node id="-270617" lat="60.3777722179" lon="9.32016388196">
		<tag k="name" v="Vassenden" />
		<tag k="natural" v="bay" />
		<tag k="ssr:stedsnr" v="59382" />
	</node>
	<node id="-270607" lat="60.412341667" lon="9.74967222592">
		<tag k="name" v="Kalketjern" />
		<tag k="natural" v="water" />
		<tag k="ssr:stedsnr" v="57475" />
	</node>
	<node id="-270606" lat="60.4223500017" lon="9.62886110617">
		<tag k="name" v="Langelitjern" />
		<tag k="natural" v="water" />
		<tag k="ssr:stedsnr" v="57473" />
	</node>
	<node id="-270595" lat="60.4990833292" lon="9.4184388903">
		<tag k="name" v="Halvfartjern" />
		<tag k="natural" v="water" />
		<tag k="ssr:stedsnr" v="42664" />
	</node>
	<node id="-270592" lat="60.3729083348" lon="9.60609444666">
		<tag k="loc_name" v="Skalbergnobbe" />
		<tag k="name" v="Skalbergnøbbe" />
		<tag k="natural" v="cape" />
		<tag k="ssr:stedsnr" v="40392" />
	</node>
	<node id="-270589" lat="60.3334972249" lon="9.50068056116">
		<tag k="name" v="Storekrok" />
		<tag k="place" v="locality" />
		<tag k="ssr:stedsnr" v="40190" />
	</node>
	<node id="-270584" lat="60.3532833289" lon="9.51803611051">
		<tag k="name" v="Brislingtjern" />
		<tag k="natural" v="water" />
		<tag k="ssr:stedsnr" v="39529" />
	</node>
	<node id="-270581" lat="60.5264138912" lon="9.35140000196">
		<tag k="name" v="Grisetjern" />
		<tag k="natural" v="water" />
		<tag k="ssr:stedsnr" v="7745" />
	</node>
	<node id="-270579" lat="60.5338361114" lon="9.46679166598">
		<tag k="name" v="Tjuvodden" />
		<tag k="natural" v="cape" />
		<tag k="ssr:stedsnr" v="7741" />
	</node>
	<node id="-270578" lat="60.4051683899" lon="9.70203133645">
		<tag k="alt_name" v="Øvstevann" />
		<tag k="name" v="Øvstevatnet" />
		<tag k="natural" v="water" />
		<tag k="ssr:stedsnr" v="6996" />
		<tag k="water" v="lake" />
	</node>
	<node id="-270576" lat="60.3807499974" lon="9.72425555231">
		<tag k="name" v="Åstjernet" />
		<tag k="natural" v="water" />
		<tag k="ssr:stedsnr" v="6967" />
	</node>
	<node id="-270575" lat="60.4076749998" lon="9.76428056061">
		<tag k="alt_name" v="Buvann" />
		<tag k="name" v="Buvatnet" />
>>>>>>> e1d4bc35ff8a6074a6f2e91616a996b547c36f15
		<tag k="natural" v="water" />
		<tag k="ssr:stedsnr" v="6964" />
		<tag k="water" v="lake" />
	</node>
<<<<<<< HEAD
	<node lat="60.35309999710324" lon="9.429974999607959" id="-12904">
		<tag k="name" v="Jakobslitjern" />
		<tag k="natural" v="water" />
		<tag k="ssr:stedsnr" v="613008" />
	</node>
	<node lat="60.535238886067816" lon="9.594144452054659" id="-12926">
		<tag k="name" v="Prestsandodden" />
		<tag k="natural" v="cape" />
		<tag k="ssr:stedsnr" v="663269" />
	</node>
	<node lat="60.41969167061654" lon="9.784383338394905" id="-12928">
		<tag k="name" v="Delesbekken" />
		<tag k="ssr:stedsnr" v="663481" />
		<tag k="waterway" v="stream" />
	</node>
	<node lat="60.379455594086046" lon="9.443784086683815" id="-12938">
		<tag k="name" v="Kittelstjerna" />
		<tag k="natural" v="water" />
		<tag k="ssr:stedsnr" v="666356" />
		<tag k="water" v="lake" />
	</node>
	<node lat="60.413613889157666" lon="9.544974992264516" id="-12942">
		<tag k="name" v="Brunåi" />
		<tag k="ssr:stedsnr" v="723165" />
		<tag k="waterway" v="stream" />
	</node>
	<node lat="60.40597500239695" lon="9.776375002446487" id="-12956">
		<tag k="name" v="Buvannsodden" />
		<tag k="natural" v="cape" />
		<tag k="ssr:stedsnr" v="724465" />
	</node>
	<node lat="60.368194447154835" lon="9.348263881352542" id="-12963">
		<tag k="name" v="Nordstugubekken" />
		<tag k="ssr:stedsnr" v="727352" />
		<tag k="waterway" v="stream" />
	</node>
	<node lat="60.37258611369809" lon="9.326894453338431" id="-12964">
		<tag k="name" v="Pipervika" />
		<tag k="natural" v="bay" />
		<tag k="ssr:stedsnr" v="727353" />
	</node>
	<node lat="60.37820833465076" lon="9.29436111685321" id="-12966">
		<tag k="name" v="Liabekk" />
		<tag k="ssr:stedsnr" v="727365" />
		<tag k="waterway" v="stream" />
	</node>
	<node lat="60.33730779383308" lon="9.378179740079913" id="-12972">
		<tag k="name" v="Vollebekkvatni" />
		<tag k="natural" v="water" />
		<tag k="ssr:stedsnr" v="734013" />
		<tag k="water" v="lake" />
	</node>
	<node lat="60.472702773519565" lon="9.511316666180816" id="-12976">
		<tag k="name" v="Olaseterbekken" />
		<tag k="ssr:stedsnr" v="734392" />
		<tag k="waterway" v="stream" />
	</node>
	<node lat="60.463136113321575" lon="9.392955547692212" id="-12978">
		<tag k="name" v="Oksetjern" />
		<tag k="natural" v="water" />
		<tag k="ssr:stedsnr" v="734398" />
	</node>
	<node lat="60.384300002172004" lon="9.5676000081626" id="-12983">
		<tag k="alt_name" v="Gulsviktjern" />
		<tag k="name" v="Gulsviktjernet" />
		<tag k="natural" v="water" />
		<tag k="ssr:stedsnr" v="734255" />
	</node>
	<node lat="60.374244440331715" lon="9.4585444425565" id="-12984">
		<tag k="name" v="Sjølingelve" />
		<tag k="old_name" v="Sjølingelva" />
		<tag k="ssr:stedsnr" v="734266" />
		<tag k="waterway" v="river" />
	</node>
	<node lat="60.39395590399619" lon="9.296885060438898" id="-12985">
		<tag k="name" v="Nedre Kimbetjern" />
		<tag k="natural" v="water" />
		<tag k="ssr:stedsnr" v="734275" />
	</node>
	<node lat="60.34709999699985" lon="9.761377784536169" id="-12990">
		<tag k="alt_name" v="Vestre Holmetjern" />
		<tag k="name" v="Vestre Holmetjernet" />
		<tag k="natural" v="water" />
		<tag k="ssr:stedsnr" v="734775" />
	</node>
	<node lat="60.52827222193132" lon="9.515908339790748" id="-12994">
		<tag k="name" v="Greineløken" />
		<tag k="natural" v="water" />
		<tag k="ssr:stedsnr" v="735764" />
	</node>
	<node lat="60.33656666987411" lon="9.540411110456008" id="-13004">
		<tag k="name" v="Hestejuvbekken" />
		<tag k="ssr:stedsnr" v="768165" />
		<tag k="waterway" v="stream" />
	</node>
	<node lat="60.30753332952238" lon="9.567149994418287" id="-13005">
		<tag k="name" v="Gråkollputten" />
		<tag k="natural" v="water" />
		<tag k="ssr:stedsnr" v="768169" />
	</node>
	<node lat="60.382738889831565" lon="9.33452500641641" id="-13030">
		<tag k="name" v="Lauvhaugtjern" />
		<tag k="natural" v="water" />
		<tag k="ssr:stedsnr" v="787385" />
	</node>
	<node lat="60.33904999566767" lon="9.458899997970885" id="-13034">
		<tag k="name" v="Fyrisjøen" />
		<tag k="natural" v="water" />
		<tag k="ssr:stedsnr" v="795002" />
		<tag k="water" v="lake" />
	</node>
	<node lat="60.32162499736289" lon="9.490302771092074" id="-13035">
		<tag k="name" v="Sauvallbekken" />
		<tag k="ssr:stedsnr" v="795075" />
		<tag k="waterway" v="stream" />
	</node>
	<node lat="60.31959548104177" lon="9.410793711566939" id="-13037">
		<tag k="name" v="Jervolltjern" />
		<tag k="natural" v="water" />
		<tag k="ssr:stedsnr" v="795084" />
	</node>
	<node lat="60.32632499711933" lon="9.582674995792376" id="-13038">
		<tag k="name" v="Fisketjern" />
		<tag k="natural" v="water" />
		<tag k="ssr:stedsnr" v="795089" />
	</node>
	<node lat="60.3266250036217" lon="9.584933341260744" id="-13039">
		<tag k="name" v="Løken" />
		<tag k="place" v="locality" />
		<tag k="ssr:stedsnr" v="795090" />
	</node>
	<node lat="60.44421110934097" lon="9.761999990979964" id="-13043">
		<tag k="name" v="Fosstjernet" />
		<tag k="natural" v="water" />
		<tag k="ssr:stedsnr" v="794895" />
	</node>
	<node lat="60.419580552940104" lon="9.431072221541378" id="-13047">
=======
	<node id="-270574" lat="60.3330666629" lon="9.61399444156">
		<tag k="name" v="Rikolbekken" />
		<tag k="ssr:stedsnr" v="6869" />
		<tag k="waterway" v="stream" />
	</node>
	<node id="-270572" lat="60.3468500021" lon="9.73370554901">
		<tag k="name" v="Elgebustjern" />
		<tag k="natural" v="water" />
		<tag k="ssr:stedsnr" v="6794" />
	</node>
	<node id="-270571" lat="60.3826905639" lon="9.16026098118">
		<tag k="alt_name" v="Piktjern" />
		<tag k="name" v="Piktjernet" />
		<tag k="natural" v="water" />
		<tag k="ssr:stedsnr" v="6405" />
	</node>
	<node id="-270568" lat="60.4818166641" lon="9.41550555179">
		<tag k="name" v="Kvitjernbekken" />
		<tag k="ssr:stedsnr" v="6365" />
		<tag k="waterway" v="stream" />
	</node>
	<node id="-270558" lat="60.4123999959" lon="9.31657777035">
		<tag k="alt_name" v="Stavnselva" />
		<tag k="name" v="Stamnselvi" />
		<tag k="ssr:stedsnr" v="6222" />
		<tag k="waterway" v="river" />
	</node>
	<node id="-270554" lat="60.4326999986" lon="9.31123889454">
		<tag k="alt_name" v="Jeppebekk" />
		<tag k="name" v="Jeppebekken" />
		<tag k="ssr:stedsnr" v="6198" />
		<tag k="waterway" v="stream" />
	</node>
	<node id="-270552" lat="60.4223999979" lon="9.25022499408">
		<tag k="alt_name" v="Gammalsætertjern" />
		<tag k="name" v="Gamalsetertjern" />
		<tag k="natural" v="water" />
		<tag k="ssr:stedsnr" v="6176" />
	</node>
	<node id="-270544" lat="60.3561749963" lon="9.28095000882">
		<tag k="name" v="Fiskebekken" />
		<tag k="ssr:stedsnr" v="6036" />
		<tag k="waterway" v="stream" />
	</node>
	<node id="-270543" lat="60.3546749986" lon="9.43809999297">
		<tag k="name" v="Stigtjern" />
		<tag k="natural" v="water" />
		<tag k="ssr:stedsnr" v="6030" />
	</node>
	<node id="-270537" lat="60.461100001" lon="9.43887499798">
		<tag k="alt_name" v="Hesteortjern" />
		<tag k="name" v="Hesteorttjern" />
		<tag k="natural" v="water" />
		<tag k="ssr:stedsnr" v="5356" />
	</node>
	<node id="-270535" lat="60.3297915973" lon="9.78976043134">
		<tag k="alt_name" v="Langtj" />
		<tag k="fixme" v="multiple name tags, choose one and add the other to alt_name" />
		<tag k="name" v="Bogetjern;Langtjern" />
		<tag k="natural" v="water" />
		<tag k="ssr:stedsnr" v="969911" />
	</node>
	<node id="-270528" lat="60.424236107" lon="9.78109443759">
		<tag k="name" v="Skarbekken" />
		<tag k="ssr:stedsnr" v="967211" />
		<tag k="waterway" v="stream" />
	</node>
	<node id="-270526" lat="60.4314916684" lon="9.39722499101">
		<tag k="name" v="Gaptjerngryta" />
		<tag k="natural" v="water" />
		<tag k="ssr:stedsnr" v="967005" />
		<tag k="water" v="lake" />
	</node>
	<node id="-270525" lat="60.4293249978" lon="9.39196666772">
		<tag k="name" v="Hagastryken" />
		<tag k="ssr:stedsnr" v="967003" />
		<tag k="waterway" v="rapids" />
	</node>
	<node id="-270521" lat="60.5306555563" lon="9.59530000341">
		<tag k="name" v="Rauhåkenbekken" />
		<tag k="ssr:stedsnr" v="917866" />
		<tag k="waterway" v="stream" />
	</node>
	<node id="-270519" lat="60.5126783966" lon="9.38277833714">
		<tag k="name" v="Saulivatni" />
		<tag k="natural" v="water" />
		<tag k="ssr:stedsnr" v="917764" />
		<tag k="water" v="lake" />
	</node>
	<node id="-270514" lat="60.4864000002" lon="9.47685000491">
		<tag k="alt_name" v="Trugadistjern" />
		<tag k="name" v="Trøgadisstjern" />
		<tag k="natural" v="water" />
		<tag k="ssr:stedsnr" v="916370" />
	</node>
	<node id="-270512" lat="60.4824111076" lon="9.30547499591">
		<tag k="name" v="Kjøldalsbekken" />
		<tag k="ssr:stedsnr" v="916359" />
		<tag k="waterway" v="stream" />
	</node>
	<node id="-270485" lat="60.3968777753" lon="9.62290000569">
		<tag k="alt_name" v="Solheimselva" />
		<tag k="name" v="Solheimselvi" />
		<tag k="ssr:stedsnr" v="856966" />
		<tag k="waterway" v="river" />
	</node>
	<node id="-270482" lat="60.3351888913" lon="9.69800000574">
		<tag k="alt_name" v="Kjeltjern" />
		<tag k="name" v="Kjeltjernet" />
		<tag k="natural" v="water" />
		<tag k="ssr:stedsnr" v="856871" />
	</node>
	<node id="-270477" lat="60.4229725329" lon="9.57552999326">
		<tag k="name" v="Roligholttjernan" />
		<tag k="natural" v="water" />
		<tag k="ssr:stedsnr" v="856223" />
		<tag k="water" v="lake" />
	</node>
	<node id="-270475" lat="60.4062250043" lon="9.56155000422">
		<tag k="name" v="Storbråtabekken" />
		<tag k="ssr:stedsnr" v="856208" />
		<tag k="waterway" v="stream" />
	</node>
	<node id="-270473" lat="60.3499583334" lon="9.51868888271">
		<tag k="name" v="Kluftebekk" />
		<tag k="ssr:stedsnr" v="856019" />
		<tag k="waterway" v="stream" />
	</node>
	<node id="-270472" lat="60.3385326059" lon="9.48486927603">
		<tag k="alt_name" v="Litjernan" />
		<tag k="name" v="Eitjernan" />
		<tag k="natural" v="water" />
		<tag k="ssr:stedsnr" v="856011" />
		<tag k="water" v="lake" />
	</node>
	<node id="-270468" lat="60.5212833318" lon="9.3564055468">
		<tag k="name" v="Kaggetjern" />
		<tag k="natural" v="water" />
		<tag k="ssr:stedsnr" v="796793" />
	</node>
	<node id="-270467" lat="60.5276077898" lon="9.50158735762">
		<tag k="name" v="Skrukkefylla" />
		<tag k="natural" v="water" />
		<tag k="ssr:stedsnr" v="796784" />
		<tag k="water" v="lake" />
	</node>
	<node id="-270466" lat="60.52718611" lon="9.52979166187">
		<tag k="alt_name" v="Hallingvika" />
		<tag k="name" v="Hallingviki" />
		<tag k="natural" v="bay" />
		<tag k="ssr:stedsnr" v="796779" />
	</node>
	<node id="-270464" lat="60.5398916669" lon="9.4560388922">
		<tag k="name" v="Storøya" />
		<tag k="place" v="islet" />
		<tag k="ssr:stedsnr" v="796771" />
	</node>
	<node id="-270456" lat="60.4195805529" lon="9.43107222154">
>>>>>>> e1d4bc35ff8a6074a6f2e91616a996b547c36f15
		<tag k="name" v="Tvigreinbekken" />
		<tag k="ssr:stedsnr" v="795195" />
		<tag k="waterway" v="stream" />
	</node>
<<<<<<< HEAD
	<node lat="60.487096231336814" lon="9.618075366645392" id="-13058">
		<tag k="name" v="Tolvtjernan" />
		<tag k="natural" v="water" />
		<tag k="old_name" v="Tolvvatna" />
		<tag k="ssr:stedsnr" v="795943" />
		<tag k="water" v="lake" />
	</node>
	<node lat="60.438213892761055" lon="9.59359444466679" id="-13060">
		<tag k="alt_name" v="Skarselva" />
		<tag k="name" v="Skardselvi" />
		<tag k="old_name" v="Skarsellva" />
		<tag k="ssr:stedsnr" v="795993" />
		<tag k="waterway" v="river" />
	</node>
	<node lat="60.52718610998787" lon="9.529791661872226" id="-13061">
		<tag k="alt_name" v="Hallingvika" />
		<tag k="name" v="Hallingviki" />
		<tag k="natural" v="bay" />
		<tag k="ssr:stedsnr" v="796779" />
	</node>
	<node lat="60.527607789826654" lon="9.501587357619243" id="-13062">
		<tag k="name" v="Skrukkefylla" />
		<tag k="natural" v="water" />
		<tag k="ssr:stedsnr" v="796784" />
		<tag k="water" v="lake" />
	</node>
	<node lat="60.52128333177783" lon="9.356405546800882" id="-13063">
		<tag k="name" v="Kaggetjern" />
		<tag k="natural" v="water" />
		<tag k="ssr:stedsnr" v="796793" />
	</node>
	<node lat="60.382416666037344" lon="9.577955552981692" id="-13065">
		<tag k="name" v="Kalvøyni" />
		<tag k="place" v="islet" />
		<tag k="ssr:stedsnr" v="829385" />
	</node>
	<node lat="60.48846666247021" lon="9.392497216541601" id="-13068">
		<tag k="name" v="Holutjern" />
		<tag k="natural" v="water" />
		<tag k="ssr:stedsnr" v="829729" />
	</node>
	<node lat="60.478961113819246" lon="9.44852499928901" id="-13069">
		<tag k="name" v="Hangsløken" />
		<tag k="ssr:stedsnr" v="829733" />
		<tag k="waterway" v="river" />
	</node>
	<node lat="60.44253888683997" lon="9.322747224040603" id="-13070">
		<tag k="name" v="Steinøyri" />
		<tag k="natural" v="shoal" />
		<tag k="place" v="locality" />
		<tag k="ssr:stedsnr" v="829845" />
	</node>
	<node lat="60.468291671005694" lon="9.32967499850657" id="-13075">
		<tag k="name" v="Fjøsseterbekken" />
		<tag k="ssr:stedsnr" v="830602" />
		<tag k="waterway" v="stream" />
	</node>
	<node lat="60.37247777749671" lon="9.19420000489426" id="-13096">
		<tag k="alt_name" v="Flentetjern" />
		<tag k="name" v="Flentetjernet" />
		<tag k="natural" v="water" />
		<tag k="ssr:stedsnr" v="855348" />
	</node>
	<node lat="60.422972532897376" lon="9.57552999326355" id="-13101">
		<tag k="name" v="Roligholttjernan" />
		<tag k="natural" v="water" />
		<tag k="ssr:stedsnr" v="856223" />
		<tag k="water" v="lake" />
	</node>
	<node lat="60.390719448420604" lon="9.288977779025208" id="-13105">
		<tag k="alt_name" v="Haugabekk" />
		<tag k="name" v="Haugabekken" />
		<tag k="ssr:stedsnr" v="856251" />
		<tag k="waterway" v="stream" />
	</node>
	<node lat="60.33518889128925" lon="9.69800000574355" id="-13109">
		<tag k="alt_name" v="Kjeltjern" />
		<tag k="name" v="Kjeltjernet" />
		<tag k="natural" v="water" />
		<tag k="ssr:stedsnr" v="856871" />
	</node>
	<node lat="60.39687777526047" lon="9.622900005687379" id="-13112">
		<tag k="alt_name" v="Solheimselva" />
		<tag k="name" v="Solheimselvi" />
		<tag k="ssr:stedsnr" v="856966" />
		<tag k="waterway" v="river" />
	</node>
	<node lat="60.3576916642098" lon="9.624752778467531" id="-13120">
		<tag k="name" v="Vierhalsen" />
		<tag k="place" v="locality" />
		<tag k="ssr:stedsnr" v="889557" />
	</node>
	<node lat="60.3524805528542" lon="9.623455549632075" id="-13121">
		<tag k="name" v="Halsan" />
		<tag k="place" v="islet" />
		<tag k="ssr:stedsnr" v="889564" />
	</node>
	<node lat="60.34738611065925" lon="9.639647225885337" id="-13122">
		<tag k="name" v="Leknesodden" />
		<tag k="natural" v="cape" />
		<tag k="ssr:stedsnr" v="889565" />
	</node>
	<node lat="60.36271944016547" lon="9.573058333907369" id="-13128">
		<tag k="name" v="Valdresbråtebekken" />
		<tag k="ssr:stedsnr" v="950572" />
		<tag k="waterway" v="stream" />
	</node>
	<node lat="60.5197694476126" lon="9.412638894125724" id="-13135">
		<tag k="name" v="Mattjern" />
		<tag k="natural" v="water" />
		<tag k="ssr:stedsnr" v="952692" />
	</node>
	<node lat="60.3925333342545" lon="9.559483334058509" id="-13140">
		<tag k="name" v="Gulsvikøyni" />
		<tag k="natural" v="cape" />
		<tag k="ssr:stedsnr" v="967452" />
	</node>
	<node lat="60.3710472188763" lon="9.317033336793816" id="-13145">
		<tag k="name" v="Granodden" />
		<tag k="natural" v="cape" />
		<tag k="ssr:stedsnr" v="969356" />
=======
	<node id="-270449" lat="60.3369428525" lon="9.50619660071">
		<tag k="alt_name" v="Fisketjerna" />
		<tag k="name" v="Fisketjernan" />
		<tag k="natural" v="water" />
		<tag k="ssr:stedsnr" v="795013" />
		<tag k="water" v="lake" />
	</node>
	<node id="-270439" lat="60.4015755342" lon="9.64685695129">
		<tag k="fixme" v="multiple name tags, choose one and add the other to alt_name" />
		<tag k="name" v="Bjørnalitjernet;Bjørnetjern" />
		<tag k="natural" v="water" />
		<tag k="ssr:stedsnr" v="916952" />
	</node>
	<node id="-270427" lat="60.4284277787" lon="9.38548888622">
		<tag k="loc_name" v="Storåne" />
		<tag k="name" v="Hallingdalselve" />
		<tag k="old_name" v="Hallingdalsåni" />
		<tag k="ssr:stedsnr" v="916191" />
		<tag k="waterway" v="river" />
	</node>
	<node id="-270426" lat="60.3024527745" lon="9.5585583299">
		<tag k="name" v="Dambekken" />
		<tag k="ssr:stedsnr" v="916091" />
		<tag k="waterway" v="stream" />
	</node>
	<node id="-270424" lat="60.4413999964" lon="9.25137500294">
		<tag k="name" v="Ryfjelltjern" />
		<tag k="natural" v="water" />
		<tag k="ssr:stedsnr" v="916140" />
	</node>
	<node id="-270422" lat="60.3148250009" lon="9.49452499834">
		<tag k="name" v="Sauvalltjernan" />
		<tag k="natural" v="water" />
		<tag k="ssr:stedsnr" v="916048" />
		<tag k="water" v="lake" />
	</node>
	<node id="-270420" lat="60.5285638912" lon="9.48362778052">
		<tag k="name" v="Jagerhølen" />
		<tag k="place" v="locality" />
		<tag k="ssr:stedsnr" v="768701" />
	</node>
	<node id="-270418" lat="60.5029499966" lon="9.47807499885">
		<tag k="name" v="Herbrandstjern" />
		<tag k="natural" v="water" />
		<tag k="ssr:stedsnr" v="768707" />
	</node>
	<node id="-270417" lat="60.5278361096" lon="9.49128611277">
		<tag k="name" v="Jagarhølen" />
		<tag k="place" v="locality" />
		<tag k="ssr:stedsnr" v="768705" />
	</node>
	<node id="-270413" lat="60.3914027813" lon="9.29322777632">
		<tag k="name" v="Kimbebekk" />
		<tag k="ssr:stedsnr" v="909386" />
		<tag k="waterway" v="stream" />
	</node>
	<node id="-270400" lat="60.1530138895" lon="9.74161944393">
		<tag k="name" v="Krøderen" />
		<tag k="natural" v="water" />
		<tag k="ssr:stedsnr" v="733238" />
		<tag k="water" v="lake" />
	</node>
	<node id="-270398" lat="60.3725861137" lon="9.32689445334">
		<tag k="name" v="Pipervika" />
		<tag k="natural" v="bay" />
		<tag k="ssr:stedsnr" v="727353" />
	</node>
	<node id="-270389" lat="60.4136138892" lon="9.54497499226">
		<tag k="name" v="Brunåi" />
		<tag k="ssr:stedsnr" v="723165" />
		<tag k="waterway" v="stream" />
	</node>
	<node id="-270387" lat="60.5265361074" lon="9.38707499099">
		<tag k="name" v="Storrtjern" />
		<tag k="natural" v="water" />
		<tag k="ssr:stedsnr" v="892701" />
	</node>
	<node id="-270385" lat="60.5071388905" lon="9.39701944929">
		<tag k="name" v="Daubekk" />
		<tag k="ssr:stedsnr" v="892688" />
		<tag k="waterway" v="stream" />
	</node>
	<node id="-270380" lat="60.4562472199" lon="9.27166944141">
		<tag k="name" v="Kleivodden" />
		<tag k="natural" v="cape" />
		<tag k="ssr:stedsnr" v="891602" />
	</node>
	<node id="-270371" lat="60.3788694455" lon="9.54196389549">
		<tag k="name" v="Nordbråtatjern" />
		<tag k="natural" v="water" />
		<tag k="ssr:stedsnr" v="890379" />
	</node>
	<node id="-270363" lat="60.3473861107" lon="9.63964722589">
		<tag k="name" v="Leknesodden" />
		<tag k="natural" v="cape" />
		<tag k="ssr:stedsnr" v="889565" />
	</node>
	<node id="-270362" lat="60.3524805529" lon="9.62345554963">
		<tag k="name" v="Halsan" />
		<tag k="place" v="islet" />
		<tag k="ssr:stedsnr" v="889564" />
	</node>
	<node id="-270361" lat="60.3576916642" lon="9.62475277847">
		<tag k="name" v="Vierhalsen" />
		<tag k="natural" v="strait" />
		<tag k="ssr:stedsnr" v="889557" />
	</node>
	<node id="-270355" lat="60.3318777745" lon="9.51809443846">
		<tag k="name" v="Brennåfoss" />
		<tag k="natural" v="waterfall" />
		<tag k="ssr:stedsnr" v="889162" />
	</node>
	<node id="-270353" lat="60.5080500012" lon="9.45593332474">
		<tag k="name" v="Damtjern" />
		<tag k="natural" v="water" />
		<tag k="ssr:stedsnr" v="675812" />
	</node>
	<node id="-270352" lat="60.3902422391" lon="9.66604102868">
		<tag k="name" v="Sørbøltjernet" />
		<tag k="natural" v="water" />
		<tag k="ssr:stedsnr" v="674968" />
	</node>
	<node id="-270351" lat="60.3802861112" lon="9.66201388286">
		<tag k="name" v="Stormyrdammen" />
		<tag k="ssr:stedsnr" v="674953" />
		<tag k="waterway" v="dam" />
	</node>
	<node id="-270350" lat="60.3780861098" lon="9.69324444096">
		<tag k="alt_name" v="Røvshølbekken" />
		<tag k="name" v="Revsholbekken" />
		<tag k="ssr:stedsnr" v="674789" />
		<tag k="waterway" v="stream" />
	</node>
	<node id="-270348" lat="60.5323777755" lon="9.37724444447">
		<tag k="alt_name" v="Svartetjern" />
		<tag k="name" v="Svarttjern" />
		<tag k="natural" v="water" />
		<tag k="ssr:stedsnr" v="674760" />
	</node>
	<node id="-270347" lat="60.5274750042" lon="9.37662500325">
		<tag k="alt_name" v="Nedre Dagalitjern" />
		<tag k="name" v="Domfettjern" />
		<tag k="natural" v="water" />
		<tag k="ssr:stedsnr" v="674759" />
	</node>
	<node id="-270340" lat="60.3417750035" lon="9.34235000265">
		<tag k="name" v="Vollebekken" />
		<tag k="ssr:stedsnr" v="674010" />
		<tag k="waterway" v="stream" />
	</node>
	<node id="-270339" lat="60.3490277758" lon="9.40647500858">
		<tag k="name" v="Nedre Fjelltjern" />
		<tag k="natural" v="water" />
		<tag k="ssr:stedsnr" v="674004" />
	</node>
	<node id="-270338" lat="60.3707361124" lon="9.35421944414">
		<tag k="name" v="Gryvlebekk" />
		<tag k="ssr:stedsnr" v="666352" />
		<tag k="waterway" v="stream" />
>>>>>>> e1d4bc35ff8a6074a6f2e91616a996b547c36f15
	</node>
</osm>
