<?xml version="1.0" encoding="UTF-8"?>
<<<<<<< HEAD
<osm version="0.6" generator="osmapis">
	<node lat="60.365086109461444" lon="9.655513896566312" id="-11610">
		<tag k="name" v="Kallerud" />
		<tag k="place" v="locality" />
		<tag k="ssr:stedsnr" v="39512" />
	</node>
	<node lat="60.35540556003513" lon="9.608758330040835" id="-11611">
		<tag k="name" v="Bergarrudningen" />
		<tag k="place" v="locality" />
		<tag k="ssr:stedsnr" v="39523" />
	</node>
	<node lat="60.434872219096256" lon="9.39891944443609" id="-11614">
		<tag k="name" v="Kjempa" />
		<tag k="place" v="locality" />
		<tag k="ssr:stedsnr" v="39806" />
	</node>
	<node lat="60.43785833094475" lon="9.399808336496827" id="-11615">
		<tag k="name" v="Delenden" />
		<tag k="place" v="locality" />
		<tag k="ssr:stedsnr" v="39808" />
	</node>
	<node lat="60.373113884550314" lon="9.535013894213026" id="-11618">
		<tag k="alt_name" v="Søndre Graseng" />
		<tag k="name" v="Søre Graseng" />
		<tag k="place" v="locality" />
		<tag k="ssr:stedsnr" v="40568" />
	</node>
	<node lat="60.36773611134803" lon="9.505283341902773" id="-11619">
		<tag k="name" v="Store-Stokken" />
		<tag k="place" v="locality" />
		<tag k="ssr:stedsnr" v="40571" />
	</node>
	<node lat="60.42121944338027" lon="9.42955000825615" id="-11625">
		<tag k="name" v="Vollan" />
		<tag k="place" v="locality" />
		<tag k="ssr:stedsnr" v="239019" />
	</node>
	<node lat="60.417369445576014" lon="9.365566667427553" id="-11627">
		<tag k="name" v="Bakko" />
		<tag k="place" v="locality" />
		<tag k="ssr:stedsnr" v="239059" />
	</node>
	<node lat="60.438597220482926" lon="9.47571388398696" id="-11632">
		<tag k="name" v="Hildebråten" />
		<tag k="place" v="locality" />
		<tag k="ssr:stedsnr" v="239999" />
	</node>
	<node lat="60.42993610897243" lon="9.775199993654562" id="-11637">
		<tag k="name" v="Rabbeseterrøs" />
		<tag k="place" v="locality" />
		<tag k="ssr:stedsnr" v="57207" />
	</node>
	<node lat="60.42666944260385" lon="9.382561117271267" id="-11689">
		<tag k="name" v="Benken" />
		<tag k="place" v="locality" />
		<tag k="ssr:stedsnr" v="118013" />
	</node>
	<node lat="60.443552781207224" lon="9.358736113561903" id="-11721">
		<tag k="name" v="Øvre Kleivbråten" />
		<tag k="place" v="locality" />
		<tag k="ssr:stedsnr" v="161824" />
	</node>
	<node lat="60.4234777767782" lon="9.402211117838927" id="-11730">
		<tag k="name" v="Lykkjebakken" />
=======
<osm generator="osmapis" version="0.6">
	<node id="-270334" lat="60.4197527767" lon="9.34076943568">
		<tag k="name" v="Langebråten" />
		<tag k="place" v="locality" />
		<tag k="ssr:stedsnr" v="663060" />
	</node>
	<node id="-269817" lat="60.3677361113" lon="9.5052833419">
		<tag k="name" v="Store-Stokken" />
		<tag k="place" v="locality" />
		<tag k="ssr:stedsnr" v="40571" />
	</node>
	<node id="-269816" lat="60.3731138846" lon="9.53501389421">
		<tag k="alt_name" v="Søndre Graseng" />
		<tag k="name" v="Søre Graseng" />
		<tag k="place" v="locality" />
		<tag k="ssr:stedsnr" v="40568" />
	</node>
	<node id="-270676" lat="60.4797166639" lon="9.34918610983">
		<tag k="name" v="Grøun" />
>>>>>>> e1d4bc35ff8a6074a6f2e91616a996b547c36f15
		<tag k="place" v="locality" />
		<tag k="ssr:stedsnr" v="178011" />
	</node>
<<<<<<< HEAD
	<node lat="60.461833332615946" lon="9.457888896651028" id="-11762">
		<tag k="name" v="Sjåheim" />
		<tag k="ssr:stedsnr" v="223608" />
		<tag k="tourism" v="viewpoint" />
	</node>
	<node lat="60.41922222527459" lon="9.500272215354963" id="-11772">
		<tag k="name" v="Ulen" />
		<tag k="place" v="locality" />
		<tag k="ssr:stedsnr" v="239185" />
	</node>
	<node lat="60.5288527800382" lon="9.567572225413825" id="-11773">
		<tag k="name" v="Rognerudvollen" />
=======
	<node id="-270505" lat="60.4083027774" lon="9.6312583404">
		<tag k="name" v="Elglemmen" />
>>>>>>> e1d4bc35ff8a6074a6f2e91616a996b547c36f15
		<tag k="place" v="locality" />
		<tag k="ssr:stedsnr" v="239303" />
	</node>
<<<<<<< HEAD
	<node lat="60.44437500088303" lon="9.392202772481353" id="-11776">
		<tag k="name" v="Fuglebu" />
		<tag k="place" v="locality" />
		<tag k="ssr:stedsnr" v="239785" />
	</node>
	<node lat="60.44228055421335" lon="9.418724994296895" id="-11779">
		<tag k="name" v="Underlandet" />
		<tag k="place" v="locality" />
		<tag k="ssr:stedsnr" v="239793" />
	</node>
	<node lat="60.43344444314514" lon="9.483030554225788" id="-11781">
		<tag k="name" v="Snaret" />
		<tag k="place" v="locality" />
		<tag k="ssr:stedsnr" v="239995" />
	</node>
	<node lat="60.358280552444896" lon="9.539502769278398" id="-11796">
		<tag k="name" v="Felledaltunga" />
		<tag k="place" v="locality" />
		<tag k="ssr:stedsnr" v="282578" />
	</node>
	<node lat="60.408822225664686" lon="9.505683331221466" id="-11805">
		<tag k="name" v="Koldingstue" />
		<tag k="place" v="locality" />
		<tag k="ssr:stedsnr" v="299190" />
	</node>
	<node lat="60.417494444459116" lon="9.503258339468946" id="-11807">
		<tag k="name" v="Kapralplassen" />
		<tag k="place" v="locality" />
		<tag k="ssr:stedsnr" v="300212" />
	</node>
	<node lat="60.40743610669542" lon="9.797719446635059" id="-11809">
		<tag k="name" v="Gudbrandsgård" />
		<tag k="place" v="locality" />
		<tag k="ssr:stedsnr" v="300510" />
	</node>
	<node lat="60.418049996260336" lon="9.75131110350861" id="-11812">
		<tag k="name" v="Siljubråtan" />
		<tag k="place" v="locality" />
		<tag k="ssr:stedsnr" v="300284" />
	</node>
	<node lat="60.443019443611156" lon="9.379391670925116" id="-11815">
		<tag k="name" v="Klype" />
		<tag k="place" v="locality" />
		<tag k="ssr:stedsnr" v="300771" />
	</node>
	<node lat="60.44752500130108" lon="9.459449998013636" id="-11817">
		<tag k="name" v="Juveplassen" />
		<tag k="place" v="locality" />
		<tag k="ssr:stedsnr" v="300979" />
	</node>
	<node lat="60.35908889060898" lon="9.659163887992776" id="-11821">
		<tag k="name" v="Vesleseter" />
		<tag k="place" v="locality" />
		<tag k="ssr:stedsnr" v="464578" />
	</node>
	<node lat="60.34508055588446" lon="9.598402784572995" id="-11823">
		<tag k="name" v="Stillinga" />
		<tag k="place" v="locality" />
		<tag k="ssr:stedsnr" v="464595" />
	</node>
	<node lat="60.453194443553286" lon="9.280588896457031" id="-11824">
		<tag k="name" v="Valdresmoen" />
		<tag k="place" v="locality" />
		<tag k="ssr:stedsnr" v="464868" />
	</node>
	<node lat="60.369641669124896" lon="9.662005554083752" id="-11826">
		<tag k="name" v="Blokkebråten" />
		<tag k="place" v="locality" />
		<tag k="ssr:stedsnr" v="465387" />
	</node>
	<node lat="60.42591944140051" lon="9.436605559417076" id="-11850">
		<tag k="name" v="Steinbråten" />
		<tag k="place" v="locality" />
		<tag k="ssr:stedsnr" v="343215" />
	</node>
	<node lat="60.361716663105895" lon="9.665305546566723" id="-11852">
		<tag k="name" v="Seteren" />
		<tag k="place" v="locality" />
		<tag k="ssr:stedsnr" v="343591" />
	</node>
	<node lat="60.441897226608134" lon="9.496494436511009" id="-11863">
		<tag k="name" v="Sjåheim" />
		<tag k="ssr:stedsnr" v="370166" />
		<tag k="tourism" v="viewpoint" />
	</node>
	<node lat="60.444880556494134" lon="9.378597216189771" id="-11882">
		<tag k="name" v="Flatin" />
		<tag k="place" v="locality" />
		<tag k="ssr:stedsnr" v="482756" />
	</node>
	<node lat="60.44924999837296" lon="9.43542778369333" id="-11883">
		<tag k="name" v="Masteplassen" />
		<tag k="place" v="locality" />
		<tag k="ssr:stedsnr" v="482981" />
	</node>
	<node lat="60.43028611377543" lon="9.683547230835337" id="-11900">
		<tag k="name" v="Asleseterkraket" />
		<tag k="place" v="locality" />
		<tag k="ssr:stedsnr" v="421306" />
	</node>
	<node lat="60.41063888582227" lon="9.396172221281688" id="-11981">
		<tag k="name" v="Halvbakkleggja" />
		<tag k="place" v="locality" />
		<tag k="ssr:stedsnr" v="465020" />
	</node>
	<node lat="60.41750833403674" lon="9.34381389316411" id="-11991">
		<tag k="name" v="Høgbråten" />
		<tag k="place" v="locality" />
		<tag k="ssr:stedsnr" v="481002" />
	</node>
	<node lat="60.424538892416166" lon="9.427761119724368" id="-11992">
		<tag k="name" v="Neperudlykkja" />
		<tag k="place" v="locality" />
		<tag k="ssr:stedsnr" v="481014" />
	</node>
	<node lat="60.351488887013424" lon="9.65436944161749" id="-12023">
		<tag k="name" v="Kristenhaugen" />
		<tag k="place" v="locality" />
		<tag k="ssr:stedsnr" v="525583" />
	</node>
	<node lat="60.31741388954534" lon="9.628436114792349" id="-12061">
		<tag k="name" v="Bjørnsbråten" />
		<tag k="place" v="locality" />
		<tag k="ssr:stedsnr" v="585157" />
	</node>
	<node lat="60.3575555577058" lon="9.683511105140258" id="-12062">
		<tag k="name" v="Granbureset" />
		<tag k="place" v="locality" />
		<tag k="ssr:stedsnr" v="585532" />
	</node>
	<node lat="60.45085833525073" lon="9.33244444239537" id="-12066">
		<tag k="name" v="Øvre Hugarberget" />
		<tag k="place" v="locality" />
		<tag k="ssr:stedsnr" v="585791" />
	</node>
	<node lat="60.43268888873741" lon="9.384049993558696" id="-12067">
		<tag k="name" v="Hagastøylen" />
		<tag k="place" v="locality" />
		<tag k="ssr:stedsnr" v="585797" />
	</node>
	<node lat="60.4259694428753" lon="9.40905277044425" id="-12077">
		<tag k="name" v="Gråten" />
		<tag k="place" v="locality" />
		<tag k="ssr:stedsnr" v="602010" />
	</node>
	<node lat="60.423427778329156" lon="9.639833331415366" id="-12081">
		<tag k="name" v="Lunnestaden" />
		<tag k="place" v="locality" />
		<tag k="ssr:stedsnr" v="603499" />
	</node>
	<node lat="60.437577774075045" lon="9.494447226217186" id="-12082">
		<tag k="name" v="Overen" />
		<tag k="place" v="locality" />
		<tag k="ssr:stedsnr" v="603963" />
	</node>
	<node lat="60.36819999756766" lon="9.65621111227401" id="-12116">
		<tag k="name" v="Bålsonbråten" />
		<tag k="place" v="locality" />
		<tag k="ssr:stedsnr" v="646382" />
	</node>
	<node lat="60.43125555463979" lon="9.389319438226838" id="-12119">
		<tag k="name" v="Brann" />
		<tag k="place" v="locality" />
		<tag k="ssr:stedsnr" v="646808" />
	</node>
	<node lat="60.43428333038233" lon="9.339397224569037" id="-12123">
		<tag k="loc_name" v="Skardet" />
		<tag k="name" v="Skaret" />
		<tag k="place" v="locality" />
		<tag k="ssr:stedsnr" v="646830" />
	</node>
	<node lat="60.42943889112642" lon="9.485825007118354" id="-12131">
		<tag k="name" v="Syverstadbråten" />
		<tag k="place" v="locality" />
		<tag k="ssr:stedsnr" v="707249" />
	</node>
	<node lat="60.34877777578817" lon="9.656000004472107" id="-12134">
		<tag k="name" v="Djupedal" />
		<tag k="place" v="locality" />
		<tag k="ssr:stedsnr" v="707587" />
	</node>
	<node lat="60.36330833141753" lon="9.610394450304577" id="-12135">
		<tag k="name" v="Rydningen" />
		<tag k="place" v="locality" />
		<tag k="ssr:stedsnr" v="707592" />
	</node>
	<node lat="60.45041389271315" lon="9.291141660861262" id="-12139">
		<tag k="name" v="Bårsemoen" />
		<tag k="place" v="locality" />
		<tag k="ssr:stedsnr" v="707847" />
	</node>
	<node lat="60.45696944549761" lon="9.432894438083418" id="-12143">
		<tag k="name" v="Embretsbråten" />
		<tag k="place" v="locality" />
		<tag k="ssr:stedsnr" v="709574" />
	</node>
	<node lat="60.47432499809396" lon="9.380558331981" id="-12179">
		<tag k="name" v="Grønli" />
		<tag k="place" v="locality" />
		<tag k="ssr:stedsnr" v="891594" />
	</node>
	<node lat="60.45652222327605" lon="9.438324996731902" id="-12182">
		<tag k="name" v="Gampebråten" />
=======
	<node id="-269812" lat="60.4378583309" lon="9.3998083365">
		<tag k="name" v="Delenden" />
>>>>>>> e1d4bc35ff8a6074a6f2e91616a996b547c36f15
		<tag k="place" v="locality" />
		<tag k="ssr:stedsnr" v="891597" />
	</node>
<<<<<<< HEAD
	<node lat="60.51426389024634" lon="9.367166672144656" id="-12199">
		<tag k="name" v="Harahaugvollen" />
=======
	<node id="-269811" lat="60.4348722191" lon="9.39891944444">
		<tag k="name" v="Kjempa" />
>>>>>>> e1d4bc35ff8a6074a6f2e91616a996b547c36f15
		<tag k="place" v="locality" />
		<tag k="ssr:stedsnr" v="709697" />
	</node>
<<<<<<< HEAD
	<node lat="60.35983610922541" lon="9.667733328537421" id="-12201">
		<tag k="name" v="Madseseter" />
=======
	<node id="-269810" lat="60.3650861095" lon="9.65551389657">
		<tag k="name" v="Kallerud" />
>>>>>>> e1d4bc35ff8a6074a6f2e91616a996b547c36f15
		<tag k="place" v="locality" />
		<tag k="ssr:stedsnr" v="950562" />
	</node>
<<<<<<< HEAD
	<node lat="60.43124721975886" lon="9.482091658596863" id="-12207">
		<tag k="name" v="Tranby" />
		<tag k="place" v="locality" />
		<tag k="ssr:stedsnr" v="724996" />
	</node>
	<node lat="60.32569444662375" lon="9.629463884024986" id="-12212">
		<tag k="name" v="Sputermuren" />
		<tag k="place" v="locality" />
		<tag k="ssr:stedsnr" v="727908" />
	</node>
	<node lat="60.41956388991823" lon="9.398277772590035" id="-12239">
		<tag k="name" v="Midten" />
=======
	<node id="-269794" lat="60.3511861097" lon="9.62190833175">
		<tag k="name" v="Bærenga" />
>>>>>>> e1d4bc35ff8a6074a6f2e91616a996b547c36f15
		<tag k="place" v="locality" />
		<tag k="ssr:stedsnr" v="906008" />
	</node>
<<<<<<< HEAD
	<node lat="60.42248055631469" lon="9.420069453454195" id="-12240">
		<tag k="name" v="Udalen" />
=======
	<node id="-269791" lat="60.373572225" lon="9.63136666836">
		<tag k="name" v="Kampemoen" />
>>>>>>> e1d4bc35ff8a6074a6f2e91616a996b547c36f15
		<tag k="place" v="locality" />
		<tag k="ssr:stedsnr" v="906010" />
	</node>
<<<<<<< HEAD
	<node lat="60.437788888633655" lon="9.428388894102882" id="-12244">
		<tag k="name" v="Molykkja" />
=======
	<node id="-269790" lat="60.3777250001" lon="9.62852777444">
		<tag k="name" v="Moen" />
>>>>>>> e1d4bc35ff8a6074a6f2e91616a996b547c36f15
		<tag k="place" v="locality" />
		<tag k="ssr:stedsnr" v="767813" />
	</node>
<<<<<<< HEAD
	<node lat="60.4083027774255" lon="9.63125834039801" id="-12254">
		<tag k="name" v="Elglemmen" />
		<tag k="place" v="locality" />
		<tag k="ssr:stedsnr" v="907443" />
	</node>
	<node lat="60.429138892601166" lon="9.31718055671468" id="-12264">
		<tag k="name" v="Gamle-Hefta" />
=======
	<node id="-271322" lat="60.4427055548" lon="9.38573055237">
		<tag k="name" v="Hyttebråten" />
>>>>>>> e1d4bc35ff8a6074a6f2e91616a996b547c36f15
		<tag k="place" v="locality" />
		<tag k="ssr:stedsnr" v="785048" />
	</node>
<<<<<<< HEAD
	<node lat="60.419133335076154" lon="9.367294449343063" id="-12265">
		<tag k="name" v="Gamleplassen" />
=======
	<node id="-271312" lat="60.4211027743" lon="9.31713889516">
		<tag k="name" v="Tippebråten" />
>>>>>>> e1d4bc35ff8a6074a6f2e91616a996b547c36f15
		<tag k="place" v="locality" />
		<tag k="ssr:stedsnr" v="785064" />
	</node>
<<<<<<< HEAD
	<node lat="60.417869443705996" lon="9.324988890092191" id="-12266">
		<tag k="name" v="Monsebråten" />
=======
	<node id="-271305" lat="60.4428083328" lon="9.35820277641">
		<tag k="name" v="Nedre Kleivbråten" />
>>>>>>> e1d4bc35ff8a6074a6f2e91616a996b547c36f15
		<tag k="place" v="locality" />
		<tag k="ssr:stedsnr" v="785001" />
	</node>
<<<<<<< HEAD
	<node lat="60.424905551885736" lon="9.377691673854098" id="-12314">
		<tag k="name" v="Dansarplassen" />
=======
	<node id="-271301" lat="60.3763666637" lon="9.52785000012">
		<tag k="name" v="Nordre Graseng" />
>>>>>>> e1d4bc35ff8a6074a6f2e91616a996b547c36f15
		<tag k="place" v="locality" />
		<tag k="ssr:stedsnr" v="846013" />
	</node>
<<<<<<< HEAD
	<node lat="60.35120278156874" lon="9.626366663189586" id="-12317">
		<tag k="name" v="Steinsholet" />
=======
	<node id="-270275" lat="60.3256944466" lon="9.62946388402">
		<tag k="name" v="Sputermuren" />
>>>>>>> e1d4bc35ff8a6074a6f2e91616a996b547c36f15
		<tag k="place" v="locality" />
		<tag k="ssr:stedsnr" v="846279" />
	</node>
<<<<<<< HEAD
	<node lat="60.321530559456484" lon="9.673288882663469" id="-12342">
		<tag k="name" v="Gjestebråten" />
=======
	<node id="-271297" lat="60.3598361092" lon="9.66773332854">
		<tag k="name" v="Madseseter" />
>>>>>>> e1d4bc35ff8a6074a6f2e91616a996b547c36f15
		<tag k="place" v="locality" />
		<tag k="ssr:stedsnr" v="889164" />
	</node>
<<<<<<< HEAD
	<node lat="60.43513055732244" lon="9.354666668773033" id="-12343">
		<tag k="name" v="Tomasstuen" />
=======
	<node id="-270264" lat="60.4312472198" lon="9.4820916586">
		<tag k="name" v="Tranby" />
>>>>>>> e1d4bc35ff8a6074a6f2e91616a996b547c36f15
		<tag k="place" v="locality" />
		<tag k="ssr:stedsnr" v="889850" />
	</node>
<<<<<<< HEAD
	<node lat="60.41968333647346" lon="9.317980562249584" id="-12349">
		<tag k="name" v="Snekkerbråten" />
=======
	<node id="-270261" lat="60.4421527779" lon="9.45572221978">
		<tag k="name" v="Kvernmoen" />
>>>>>>> e1d4bc35ff8a6074a6f2e91616a996b547c36f15
		<tag k="place" v="locality" />
		<tag k="ssr:stedsnr" v="907062" />
	</node>
<<<<<<< HEAD
	<node lat="60.42110277430935" lon="9.317138895155399" id="-12385">
		<tag k="name" v="Tippebråten" />
=======
	<node id="-270769" lat="60.4515499988" lon="9.45338055833">
		<tag k="name" v="Furuhaugen" />
>>>>>>> e1d4bc35ff8a6074a6f2e91616a996b547c36f15
		<tag k="place" v="locality" />
		<tag k="ssr:stedsnr" v="967052" />
	</node>
<<<<<<< HEAD
	<node lat="60.44270555476655" lon="9.385730552366518" id="-12392">
		<tag k="name" v="Hyttebråten" />
=======
	<node id="-270256" lat="60.4032055525" lon="9.63079722101">
		<tag k="name" v="Grastokk" />
>>>>>>> e1d4bc35ff8a6074a6f2e91616a996b547c36f15
		<tag k="place" v="locality" />
		<tag k="ssr:stedsnr" v="967734" />
	</node>
<<<<<<< HEAD
	<node lat="60.43020000206762" lon="9.42923333377655" id="-12451">
		<tag k="name" v="Neperud" />
=======
	<node id="-270763" lat="60.4162749987" lon="9.50323888518">
		<tag k="name" v="Lappohytta" />
>>>>>>> e1d4bc35ff8a6074a6f2e91616a996b547c36f15
		<tag k="place" v="locality" />
		<tag k="ssr:stedsnr" v="57013" />
	</node>
<<<<<<< HEAD
	<node lat="60.43605833634201" lon="9.472550007076025" id="-12455">
		<tag k="name" v="Støgutbråten" />
=======
	<node id="-270249" lat="60.4028888898" lon="9.53955000395">
		<tag k="name" v="Liudalen" />
>>>>>>> e1d4bc35ff8a6074a6f2e91616a996b547c36f15
		<tag k="place" v="locality" />
		<tag k="ssr:stedsnr" v="57987" />
	</node>
<<<<<<< HEAD
	<node lat="60.44766111345848" lon="9.324505548236289" id="-12504">
		<tag k="name" v="Nedre Hugoberget" />
=======
	<node id="-270758" lat="60.4435527812" lon="9.35873611356">
		<tag k="name" v="Øvre Kleivbråten" />
>>>>>>> e1d4bc35ff8a6074a6f2e91616a996b547c36f15
		<tag k="place" v="locality" />
		<tag k="ssr:stedsnr" v="100792" />
	</node>
<<<<<<< HEAD
	<node lat="60.43605277592474" lon="9.324244445406787" id="-12505">
		<tag k="name" v="Brøtan" />
=======
	<node id="-270753" lat="60.3852361084" lon="9.57983888925">
		<tag k="name" v="Tuve" />
>>>>>>> e1d4bc35ff8a6074a6f2e91616a996b547c36f15
		<tag k="place" v="locality" />
		<tag k="ssr:stedsnr" v="100815" />
	</node>
<<<<<<< HEAD
	<node lat="60.45109167070376" lon="9.29347500274789" id="-12507">
		<tag k="name" v="Erikmoen" />
=======
	<node id="-270750" lat="60.3097916695" lon="9.63171111724">
		<tag k="name" v="Luteren" />
>>>>>>> e1d4bc35ff8a6074a6f2e91616a996b547c36f15
		<tag k="place" v="locality" />
		<tag k="ssr:stedsnr" v="100830" />
	</node>
<<<<<<< HEAD
	<node lat="60.47971666389611" lon="9.349186109826409" id="-12515">
		<tag k="name" v="Grøun" />
=======
	<node id="-270746" lat="60.4180499963" lon="9.75131110351">
		<tag k="name" v="Siljubråtan" />
		<tag k="place" v="locality" />
		<tag k="ssr:stedsnr" v="300284" />
	</node>
	<node id="-271258" lat="60.3512027816" lon="9.62636666319">
		<tag k="name" v="Steinsholet" />
>>>>>>> e1d4bc35ff8a6074a6f2e91616a996b547c36f15
		<tag k="place" v="locality" />
		<tag k="ssr:stedsnr" v="102571" />
	</node>
<<<<<<< HEAD
	<node lat="60.40011111348745" lon="9.49396943762845" id="-12525">
		<tag k="name" v="Kjellsonplassen" />
=======
	<node id="-271251" lat="60.4217166676" lon="9.50276111273">
		<tag k="name" v="Suserud" />
>>>>>>> e1d4bc35ff8a6074a6f2e91616a996b547c36f15
		<tag k="place" v="locality" />
		<tag k="ssr:stedsnr" v="116193" />
	</node>
<<<<<<< HEAD
	<node lat="60.44585555814233" lon="9.45451943585858" id="-12534">
		<tag k="name" v="Mojuvet" />
=======
	<node id="-271248" lat="60.4249055519" lon="9.37769167385">
		<tag k="name" v="Dansarplassen" />
>>>>>>> e1d4bc35ff8a6074a6f2e91616a996b547c36f15
		<tag k="place" v="locality" />
		<tag k="ssr:stedsnr" v="118978" />
	</node>
<<<<<<< HEAD
	<node lat="60.43767222035332" lon="9.473391665484247" id="-12538">
		<tag k="name" v="Halvorsbråten" />
=======
	<node id="-270221" lat="60.4438833327" lon="9.4641416701">
		<tag k="name" v="Steinbakken" />
>>>>>>> e1d4bc35ff8a6074a6f2e91616a996b547c36f15
		<tag k="place" v="locality" />
		<tag k="ssr:stedsnr" v="119000" />
	</node>
<<<<<<< HEAD
	<node lat="60.37766111163375" lon="9.401627772484142" id="-12543">
		<tag k="name" v="Sparkopp" />
=======
	<node id="-270220" lat="60.4375777741" lon="9.49444722622">
		<tag k="name" v="Overen" />
>>>>>>> e1d4bc35ff8a6074a6f2e91616a996b547c36f15
		<tag k="place" v="locality" />
		<tag k="ssr:stedsnr" v="120358" />
	</node>
<<<<<<< HEAD
	<node lat="60.37820555812439" lon="9.422472215609973" id="-12544">
		<tag k="name" v="Linberget" />
=======
	<node id="-270658" lat="60.4476611135" lon="9.32450554824">
		<tag k="name" v="Nedre Hugoberget" />
		<tag k="place" v="locality" />
		<tag k="ssr:stedsnr" v="100792" />
	</node>
	<node id="-270217" lat="60.4259694429" lon="9.40905277044">
		<tag k="name" v="Gråten" />
>>>>>>> e1d4bc35ff8a6074a6f2e91616a996b547c36f15
		<tag k="place" v="locality" />
		<tag k="ssr:stedsnr" v="120359" />
	</node>
<<<<<<< HEAD
	<node lat="60.309791669540616" lon="9.631711117237014" id="-12576">
		<tag k="name" v="Luteren" />
=======
	<node id="-270206" lat="60.3575555577" lon="9.68351110514">
		<tag k="name" v="Granbureset" />
>>>>>>> e1d4bc35ff8a6074a6f2e91616a996b547c36f15
		<tag k="place" v="locality" />
		<tag k="ssr:stedsnr" v="161185" />
	</node>
<<<<<<< HEAD
	<node lat="60.38523610838068" lon="9.57983888924977" id="-12580">
		<tag k="name" v="Tuve" />
=======
	<node id="-270204" lat="60.5142638902" lon="9.36716667214">
		<tag k="name" v="Harahaugvollen" />
>>>>>>> e1d4bc35ff8a6074a6f2e91616a996b547c36f15
		<tag k="place" v="locality" />
		<tag k="ssr:stedsnr" v="161383" />
	</node>
<<<<<<< HEAD
	<node lat="60.41627499868301" lon="9.503238885180954" id="-12588">
		<tag k="name" v="Lappohytta" />
=======
	<node id="-270202" lat="60.4569694455" lon="9.43289443808">
		<tag k="name" v="Embretsbråten" />
>>>>>>> e1d4bc35ff8a6074a6f2e91616a996b547c36f15
		<tag k="place" v="locality" />
		<tag k="ssr:stedsnr" v="178185" />
	</node>
<<<<<<< HEAD
	<node lat="60.45154999878695" lon="9.453380558333857" id="-12593">
		<tag k="name" v="Furuhaugen" />
=======
	<node id="-270199" lat="60.4504138927" lon="9.29114166086">
		<tag k="name" v="Bårsemoen" />
>>>>>>> e1d4bc35ff8a6074a6f2e91616a996b547c36f15
		<tag k="place" v="locality" />
		<tag k="ssr:stedsnr" v="178978" />
	</node>
<<<<<<< HEAD
	<node lat="60.37772500012671" lon="9.628527774436419" id="-12615">
		<tag k="name" v="Moen" />
=======
	<node id="-270192" lat="60.3633083314" lon="9.6103944503">
		<tag k="name" v="Rydningen" />
>>>>>>> e1d4bc35ff8a6074a6f2e91616a996b547c36f15
		<tag k="place" v="locality" />
		<tag k="ssr:stedsnr" v="222383" />
	</node>
<<<<<<< HEAD
	<node lat="60.37357222503708" lon="9.63136666836216" id="-12616">
		<tag k="name" v="Kampemoen" />
=======
	<node id="-270191" lat="60.3487777758" lon="9.65600000447">
		<tag k="name" v="Djupedal" />
>>>>>>> e1d4bc35ff8a6074a6f2e91616a996b547c36f15
		<tag k="place" v="locality" />
		<tag k="ssr:stedsnr" v="222385" />
	</node>
<<<<<<< HEAD
	<node lat="60.35118610967114" lon="9.621908331746045" id="-12621">
		<tag k="name" v="Bærenga" />
		<tag k="place" v="locality" />
		<tag k="ssr:stedsnr" v="222537" />
	</node>
	<node lat="60.37722499901113" lon="9.548683331326151" id="-12634">
		<tag k="name" v="Steingrimbråten" />
=======
	<node id="-270187" lat="60.4294388911" lon="9.48582500712">
		<tag k="name" v="Syverstadbråten" />
		<tag k="place" v="locality" />
		<tag k="ssr:stedsnr" v="707249" />
	</node>
	<node id="-270695" lat="60.4458555581" lon="9.45451943586">
		<tag k="name" v="Mojuvet" />
>>>>>>> e1d4bc35ff8a6074a6f2e91616a996b547c36f15
		<tag k="place" v="locality" />
		<tag k="ssr:stedsnr" v="283312" />
	</node>
<<<<<<< HEAD
	<node lat="60.4205361079888" lon="9.317425000322256" id="-12641">
		<tag k="name" v="Annebråten" />
=======
	<node id="-271203" lat="60.36901667" lon="9.3136777749">
		<tag k="name" v="Vatnehaug" />
>>>>>>> e1d4bc35ff8a6074a6f2e91616a996b547c36f15
		<tag k="place" v="locality" />
		<tag k="ssr:stedsnr" v="300063" />
	</node>
<<<<<<< HEAD
	<node lat="60.42846667013021" lon="9.466174994617784" id="-12667">
		<tag k="alt_name" v="Flå" />
		<tag k="amenity" v="place_of_worship" />
		<tag k="denomination" v="lutheran" />
		<tag k="name" v="Flå kirke" />
		<tag k="religion" v="christian" />
		<tag k="ssr:stedsnr" v="310143" />
	</node>
	<node lat="60.413222223496355" lon="9.423163895945796" id="-12678">
		<tag k="name" v="Korssteinbrøtan" />
=======
	<node id="-270178" lat="60.404188885" lon="9.35204166379">
		<tag k="name" v="Brautet" />
>>>>>>> e1d4bc35ff8a6074a6f2e91616a996b547c36f15
		<tag k="place" v="locality" />
		<tag k="ssr:stedsnr" v="343030" />
	</node>
<<<<<<< HEAD
	<node lat="60.373958333095366" lon="9.662963891159606" id="-12681">
		<tag k="name" v="Narvehus" />
=======
	<node id="-270687" lat="60.4266694426" lon="9.38256111727">
		<tag k="name" v="Benken" />
>>>>>>> e1d4bc35ff8a6074a6f2e91616a996b547c36f15
		<tag k="place" v="locality" />
		<tag k="ssr:stedsnr" v="343371" />
	</node>
<<<<<<< HEAD
	<node lat="60.433772220886254" lon="9.293900005204833" id="-12688">
		<tag k="name" v="Grasingdokken" />
=======
	<node id="-270686" lat="60.4001111135" lon="9.49396943763">
		<tag k="name" v="Kjellsonplassen" />
>>>>>>> e1d4bc35ff8a6074a6f2e91616a996b547c36f15
		<tag k="place" v="locality" />
		<tag k="ssr:stedsnr" v="343897" />
	</node>
<<<<<<< HEAD
	<node lat="60.425219444096875" lon="9.399472221287878" id="-12698">
		<tag k="name" v="Huse" />
=======
	<node id="-271197" lat="60.419147222" lon="9.64149167099">
		<tag k="name" v="Bjønneklemmen" />
>>>>>>> e1d4bc35ff8a6074a6f2e91616a996b547c36f15
		<tag k="place" v="locality" />
		<tag k="ssr:stedsnr" v="360010" />
	</node>
<<<<<<< HEAD
	<node lat="60.42403611316125" lon="9.32245278053936" id="-12699">
		<tag k="name" v="Huset" />
=======
	<node id="-270171" lat="60.4477472185" lon="9.44171388839">
		<tag k="name" v="Kneiken" />
>>>>>>> e1d4bc35ff8a6074a6f2e91616a996b547c36f15
		<tag k="place" v="locality" />
		<tag k="ssr:stedsnr" v="360039" />
	</node>
<<<<<<< HEAD
	<node lat="60.38628889334314" lon="9.404383335372906" id="-12705">
		<tag k="name" v="Klype" />
=======
	<node id="-271193" lat="60.370383336" lon="9.32799721784">
		<tag k="name" v="Båthus" />
>>>>>>> e1d4bc35ff8a6074a6f2e91616a996b547c36f15
		<tag k="place" v="locality" />
		<tag k="ssr:stedsnr" v="362363" />
	</node>
<<<<<<< HEAD
	<node lat="60.377661112175666" lon="9.576875007367235" id="-12741">
		<tag k="name" v="Nymoen" />
=======
	<node id="-271188" lat="60.4191333351" lon="9.36729444934">
		<tag k="name" v="Gamleplassen" />
>>>>>>> e1d4bc35ff8a6074a6f2e91616a996b547c36f15
		<tag k="place" v="locality" />
		<tag k="ssr:stedsnr" v="404351" />
	</node>
<<<<<<< HEAD
	<node lat="60.419816663039576" lon="9.49731944695649" id="-12749">
		<tag k="name" v="Brøtahus" />
=======
	<node id="-271187" lat="60.4291388926" lon="9.31718055671">
		<tag k="name" v="Gamle-Hefta" />
>>>>>>> e1d4bc35ff8a6074a6f2e91616a996b547c36f15
		<tag k="place" v="locality" />
		<tag k="ssr:stedsnr" v="421177" />
	</node>
<<<<<<< HEAD
	<node lat="60.43464444104599" lon="9.434797220054696" id="-12762">
		<tag k="name" v="Kølabotn" />
=======
	<node id="-271185" lat="60.4178694437" lon="9.32498889009">
		<tag k="name" v="Monsebråten" />
>>>>>>> e1d4bc35ff8a6074a6f2e91616a996b547c36f15
		<tag k="place" v="locality" />
		<tag k="ssr:stedsnr" v="421986" />
	</node>
<<<<<<< HEAD
	<node lat="60.38812500326838" lon="9.409013885900613" id="-12766">
		<tag k="name" v="Gassgiveren" />
=======
	<node id="-271181" lat="60.5068111094" lon="9.32955832782">
		<tag k="name" v="Nøbbevollen" />
>>>>>>> e1d4bc35ff8a6074a6f2e91616a996b547c36f15
		<tag k="place" v="locality" />
		<tag k="ssr:stedsnr" v="423377" />
	</node>
<<<<<<< HEAD
	<node lat="60.430444440918315" lon="9.485911108728272" id="-12801">
		<tag k="name" v="Perbråten" />
=======
	<node id="-271180" lat="60.4555583305" lon="9.43356666365">
		<tag k="name" v="Flagbråten" />
>>>>>>> e1d4bc35ff8a6074a6f2e91616a996b547c36f15
		<tag k="place" v="locality" />
		<tag k="ssr:stedsnr" v="525248" />
	</node>
<<<<<<< HEAD
	<node lat="60.37700000400193" lon="9.559433325332746" id="-12802">
		<tag k="name" v="Gjøta" />
=======
	<node id="-271178" lat="60.4856611086" lon="9.35294166353">
		<tag k="name" v="Kloppen" />
>>>>>>> e1d4bc35ff8a6074a6f2e91616a996b547c36f15
		<tag k="place" v="locality" />
		<tag k="ssr:stedsnr" v="525396" />
	</node>
<<<<<<< HEAD
	<node lat="60.352938891660465" lon="9.545974993320856" id="-12804">
		<tag k="name" v="Pøsalilundstaden" />
=======
	<node id="-270662" lat="60.4510916707" lon="9.29347500275">
		<tag k="name" v="Erikmoen" />
>>>>>>> e1d4bc35ff8a6074a6f2e91616a996b547c36f15
		<tag k="place" v="locality" />
		<tag k="ssr:stedsnr" v="525593" />
	</node>
<<<<<<< HEAD
	<node lat="60.4171222180142" lon="9.367741675433878" id="-12820">
		<tag k="name" v="Greipeplassen" />
=======
	<node id="-270660" lat="60.4360527759" lon="9.32424444541">
		<tag k="name" v="Brøtan" />
>>>>>>> e1d4bc35ff8a6074a6f2e91616a996b547c36f15
		<tag k="place" v="locality" />
		<tag k="ssr:stedsnr" v="542061" />
	</node>
<<<<<<< HEAD
	<node lat="60.447747218473296" lon="9.441713888394688" id="-12824">
		<tag k="name" v="Kneiken" />
=======
	<node id="-271170" lat="60.3706999983" lon="9.63655000174">
		<tag k="name" v="Strandrudningen" />
>>>>>>> e1d4bc35ff8a6074a6f2e91616a996b547c36f15
		<tag k="place" v="locality" />
		<tag k="ssr:stedsnr" v="542980" />
	</node>
<<<<<<< HEAD
	<node lat="60.43779444799848" lon="9.461491662192868" id="-12828">
		<tag k="name" v="Heiene" />
=======
	<node id="-271168" lat="60.4377888886" lon="9.4283888941">
		<tag k="name" v="Molykkja" />
>>>>>>> e1d4bc35ff8a6074a6f2e91616a996b547c36f15
		<tag k="place" v="locality" />
		<tag k="ssr:stedsnr" v="542994" />
	</node>
<<<<<<< HEAD
	<node lat="60.40418888498637" lon="9.352041663785116" id="-12836">
		<tag k="name" v="Brautet" />
=======
	<node id="-271167" lat="60.347558332" lon="9.60466389053">
		<tag k="name" v="Halsbråten" />
>>>>>>> e1d4bc35ff8a6074a6f2e91616a996b547c36f15
		<tag k="place" v="locality" />
		<tag k="ssr:stedsnr" v="544142" />
	</node>
<<<<<<< HEAD
	<node lat="60.42868333580713" lon="9.431519435672095" id="-12863">
		<tag k="name" v="Granbu" />
=======
	<node id="-271161" lat="60.4526249997" lon="9.28261944268">
		<tag k="name" v="Haugen" />
>>>>>>> e1d4bc35ff8a6074a6f2e91616a996b547c36f15
		<tag k="place" v="locality" />
		<tag k="ssr:stedsnr" v="586227" />
	</node>
<<<<<<< HEAD
	<node lat="60.44769166757585" lon="9.425702769690394" id="-12882">
		<tag k="name" v="Rudningen" />
=======
	<node id="-271159" lat="60.4342833304" lon="9.33939722457">
		<tag k="loc_name" v="Skardet" />
		<tag k="name" v="Skaret" />
>>>>>>> e1d4bc35ff8a6074a6f2e91616a996b547c36f15
		<tag k="place" v="locality" />
		<tag k="ssr:stedsnr" v="603726" />
	</node>
<<<<<<< HEAD
	<node lat="60.443883332673366" lon="9.464141670103086" id="-12885">
		<tag k="name" v="Steinbakken" />
=======
	<node id="-271155" lat="60.4312555546" lon="9.38931943823">
		<tag k="name" v="Brann" />
>>>>>>> e1d4bc35ff8a6074a6f2e91616a996b547c36f15
		<tag k="place" v="locality" />
		<tag k="ssr:stedsnr" v="603975" />
	</node>
<<<<<<< HEAD
	<node lat="60.375055551525406" lon="9.627313882955981" id="-12910">
=======
	<node id="-271151" lat="60.3750555515" lon="9.62731388296">
>>>>>>> e1d4bc35ff8a6074a6f2e91616a996b547c36f15
		<tag k="amenity" v="community_centre" />
		<tag k="name" v="Folkets hus" />
		<tag k="ssr:stedsnr" v="646396" />
	</node>
<<<<<<< HEAD
	<node lat="60.45262499970411" lon="9.282619442675928" id="-12918">
		<tag k="name" v="Haugen" />
=======
	<node id="-271149" lat="60.3681999976" lon="9.65621111227">
		<tag k="name" v="Bålsonbråten" />
>>>>>>> e1d4bc35ff8a6074a6f2e91616a996b547c36f15
		<tag k="place" v="locality" />
		<tag k="ssr:stedsnr" v="646839" />
	</node>
<<<<<<< HEAD
	<node lat="60.419752776732146" lon="9.340769435677105" id="-12922">
		<tag k="name" v="Langebråten" />
		<tag k="place" v="locality" />
		<tag k="ssr:stedsnr" v="663060" />
	</node>
	<node lat="60.44977777843627" lon="9.371055554905" id="-12929">
		<tag k="name" v="Pirom" />
=======
	<node id="-270849" lat="60.4284666701" lon="9.46617499462">
		<tag k="alt_name" v="Flå" />
		<tag k="amenity" v="place_of_worship" />
		<tag k="denomination" v="lutheran" />
		<tag k="name" v="Flå kirke" />
		<tag k="religion" v="christian" />
		<tag k="ssr:stedsnr" v="310143" />
	</node>
	<node id="-270112" lat="60.4245388924" lon="9.42776111972">
		<tag k="name" v="Neperudlykkja" />
>>>>>>> e1d4bc35ff8a6074a6f2e91616a996b547c36f15
		<tag k="place" v="locality" />
		<tag k="ssr:stedsnr" v="664767" />
	</node>
<<<<<<< HEAD
	<node lat="60.4431388886842" lon="9.471180557792776" id="-12931">
		<tag k="name" v="Renslo" />
=======
	<node id="-270111" lat="60.417508334" lon="9.34381389316">
		<tag k="name" v="Høgbråten" />
>>>>>>> e1d4bc35ff8a6074a6f2e91616a996b547c36f15
		<tag k="place" v="locality" />
		<tag k="ssr:stedsnr" v="664977" />
	</node>
<<<<<<< HEAD
	<node lat="60.448919445947496" lon="9.453380562076303" id="-12932">
		<tag k="name" v="Sagbråten" />
=======
	<node id="-270106" lat="60.4531944436" lon="9.28058889646">
		<tag k="name" v="Valdresmoen" />
>>>>>>> e1d4bc35ff8a6074a6f2e91616a996b547c36f15
		<tag k="place" v="locality" />
		<tag k="ssr:stedsnr" v="664981" />
	</node>
<<<<<<< HEAD
	<node lat="60.39707777627638" lon="9.348661115160214" id="-12936">
=======
	<node id="-270104" lat="60.3970777763" lon="9.34866111516">
>>>>>>> e1d4bc35ff8a6074a6f2e91616a996b547c36f15
		<tag k="name" v="Brennåsmoen" />
		<tag k="place" v="locality" />
		<tag k="ssr:stedsnr" v="666394" />
	</node>
<<<<<<< HEAD
	<node lat="60.40288888980685" lon="9.539550003949966" id="-12943">
		<tag k="name" v="Liudalen" />
=======
	<node id="-270612" lat="60.4360583363" lon="9.47255000708">
		<tag k="name" v="Støgutbråten" />
>>>>>>> e1d4bc35ff8a6074a6f2e91616a996b547c36f15
		<tag k="place" v="locality" />
		<tag k="ssr:stedsnr" v="723198" />
	</node>
<<<<<<< HEAD
	<node lat="60.403205552469174" lon="9.63079722101359" id="-12954">
		<tag k="name" v="Grastokk" />
=======
	<node id="-270096" lat="60.4489194459" lon="9.45338056208">
		<tag k="name" v="Sagbråten" />
>>>>>>> e1d4bc35ff8a6074a6f2e91616a996b547c36f15
		<tag k="place" v="locality" />
		<tag k="ssr:stedsnr" v="724450" />
	</node>
<<<<<<< HEAD
	<node lat="60.438658330566085" lon="9.381522225368025" id="-12958">
		<tag k="name" v="Fugleleiken" />
=======
	<node id="-270095" lat="60.4431388887" lon="9.47118055779">
		<tag k="name" v="Renslo" />
>>>>>>> e1d4bc35ff8a6074a6f2e91616a996b547c36f15
		<tag k="place" v="locality" />
		<tag k="ssr:stedsnr" v="724767" />
	</node>
<<<<<<< HEAD
	<node lat="60.44215277785208" lon="9.455722219776279" id="-12959">
		<tag k="name" v="Kvernmoen" />
=======
	<node id="-270093" lat="60.4497777784" lon="9.37105555491">
		<tag k="name" v="Pirom" />
>>>>>>> e1d4bc35ff8a6074a6f2e91616a996b547c36f15
		<tag k="place" v="locality" />
		<tag k="ssr:stedsnr" v="724975" />
	</node>
<<<<<<< HEAD
	<node lat="60.37069999826907" lon="9.636550001739417" id="-12999">
		<tag k="name" v="Strandrudningen" />
=======
	<node id="-271116" lat="60.4476916676" lon="9.42570276969">
		<tag k="name" v="Rudningen" />
>>>>>>> e1d4bc35ff8a6074a6f2e91616a996b547c36f15
		<tag k="place" v="locality" />
		<tag k="ssr:stedsnr" v="768361" />
	</node>
<<<<<<< HEAD
	<node lat="60.347558331983755" lon="9.604663890534251" id="-13001">
		<tag k="name" v="Halsbråten" />
=======
	<node id="-270601" lat="60.4302000021" lon="9.42923333378">
		<tag k="name" v="Neperud" />
>>>>>>> e1d4bc35ff8a6074a6f2e91616a996b547c36f15
		<tag k="place" v="locality" />
		<tag k="ssr:stedsnr" v="767567" />
	</node>
<<<<<<< HEAD
	<node lat="60.450224997906716" lon="9.303427781903517" id="-13003">
		<tag k="name" v="Jordet" />
=======
	<node id="-270085" lat="60.4088222257" lon="9.50568333122">
		<tag k="name" v="Koldingstue" />
>>>>>>> e1d4bc35ff8a6074a6f2e91616a996b547c36f15
		<tag k="place" v="locality" />
		<tag k="ssr:stedsnr" v="767868" />
	</node>
<<<<<<< HEAD
	<node lat="60.48566110863185" lon="9.352941663525872" id="-13010">
		<tag k="name" v="Kloppen" />
		<tag k="place" v="locality" />
		<tag k="ssr:stedsnr" v="769545" />
	</node>
	<node lat="60.45555833048339" lon="9.433566663649723" id="-13012">
		<tag k="name" v="Flagbråten" />
=======
	<node id="-270583" lat="60.35540556" lon="9.60875833004">
		<tag k="name" v="Bergarrudningen" />
>>>>>>> e1d4bc35ff8a6074a6f2e91616a996b547c36f15
		<tag k="place" v="locality" />
		<tag k="ssr:stedsnr" v="769586" />
	</node>
<<<<<<< HEAD
	<node lat="60.50681110938588" lon="9.329558327819317" id="-13013">
		<tag k="name" v="Nøbbevollen" />
=======
	<node id="-270068" lat="60.4302861138" lon="9.68354723084">
		<tag k="name" v="Asleseterkraket" />
>>>>>>> e1d4bc35ff8a6074a6f2e91616a996b547c36f15
		<tag k="place" v="locality" />
		<tag k="ssr:stedsnr" v="770699" />
	</node>
<<<<<<< HEAD
	<node lat="60.37038333604394" lon="9.327997217839565" id="-13018">
		<tag k="name" v="Båthus" />
=======
	<node id="-271091" lat="60.4286833358" lon="9.43151943567">
		<tag k="name" v="Granbu" />
>>>>>>> e1d4bc35ff8a6074a6f2e91616a996b547c36f15
		<tag k="place" v="locality" />
		<tag k="ssr:stedsnr" v="785330" />
	</node>
<<<<<<< HEAD
	<node lat="60.41914722203265" lon="9.641491670993405" id="-13023">
		<tag k="name" v="Bjønneklemmen" />
=======
	<node id="-271089" lat="60.4326888887" lon="9.38404999356">
		<tag k="name" v="Hagastøylen" />
>>>>>>> e1d4bc35ff8a6074a6f2e91616a996b547c36f15
		<tag k="place" v="locality" />
		<tag k="ssr:stedsnr" v="785469" />
	</node>
<<<<<<< HEAD
	<node lat="60.43318611517578" lon="9.487697226504975" id="-13024">
		<tag k="name" v="Jammerhaugen" />
		<tag k="place" v="locality" />
		<tag k="ssr:stedsnr" v="785988" />
	</node>
	<node lat="60.40897500198178" lon="9.420402774164877" id="-13026">
		<tag k="name" v="Hyttebyggingene" />
=======
	<node id="-271088" lat="60.4508583353" lon="9.3324444424">
		<tag k="name" v="Øvre Hugarberget" />
		<tag k="place" v="locality" />
		<tag k="ssr:stedsnr" v="585791" />
	</node>
	<node id="-271083" lat="60.3174138895" lon="9.62843611479">
		<tag k="name" v="Bjørnsbråten" />
>>>>>>> e1d4bc35ff8a6074a6f2e91616a996b547c36f15
		<tag k="place" v="locality" />
		<tag k="ssr:stedsnr" v="787156" />
	</node>
<<<<<<< HEAD
	<node lat="60.36901667004825" lon="9.313677774900198" id="-13031">
		<tag k="name" v="Vatnehaug" />
		<tag k="place" v="locality" />
		<tag k="ssr:stedsnr" v="787389" />
	</node>
	<node lat="60.450572223656586" lon="9.296688897743211" id="-13076">
		<tag k="name" v="Nedremoen" />
=======
	<node id="-270039" lat="60.4252194441" lon="9.39947222129">
		<tag k="name" v="Huse" />
>>>>>>> e1d4bc35ff8a6074a6f2e91616a996b547c36f15
		<tag k="place" v="locality" />
		<tag k="ssr:stedsnr" v="889858" />
	</node>
<<<<<<< HEAD
	<node lat="60.42171666758999" lon="9.502761112731218" id="-13083">
		<tag k="name" v="Suserud" />
		<tag k="place" v="locality" />
		<tag k="ssr:stedsnr" v="846170" />
	</node>
	<node lat="60.35951388721409" lon="9.663991668092942" id="-13118">
		<tag k="name" v="Nilsebråten" />
		<tag k="place" v="locality" />
		<tag k="ssr:stedsnr" v="889554" />
	</node>
	<node lat="60.376366663694185" lon="9.527850000116606" id="-13125">
		<tag k="name" v="Nordre Graseng" />
=======
	<node id="-270863" lat="60.4259194414" lon="9.43660555942">
		<tag k="name" v="Steinbråten" />
		<tag k="place" v="locality" />
		<tag k="ssr:stedsnr" v="343215" />
	</node>
	<node id="-271033" lat="60.417122218" lon="9.36774167543">
		<tag k="name" v="Greipeplassen" />
		<tag k="place" v="locality" />
		<tag k="ssr:stedsnr" v="542061" />
	</node>
	<node id="-269996" lat="60.4492499984" lon="9.43542778369">
		<tag k="name" v="Masteplassen" />
>>>>>>> e1d4bc35ff8a6074a6f2e91616a996b547c36f15
		<tag k="place" v="locality" />
		<tag k="ssr:stedsnr" v="950547" />
	</node>
	<node lat="60.442808332806" lon="9.3582027764125" id="-13126">
		<tag k="name" v="Nedre Kleivbråten" />
		<tag k="place" v="locality" />
		<tag k="ssr:stedsnr" v="950825" />
	</node>
	<node id="-269995" lat="60.4448805565" lon="9.37859721619">
		<tag k="name" v="Flatin" />
		<tag k="place" v="locality" />
		<tag k="ssr:stedsnr" v="482756" />
	</node>
	<node id="-271018" lat="60.3529388917" lon="9.54597499332">
		<tag k="name" v="Pøsalilundstaden" />
		<tag k="place" v="locality" />
		<tag k="ssr:stedsnr" v="525593" />
	</node>
	<node id="-271017" lat="60.351488887" lon="9.65436944162">
		<tag k="name" v="Kristenhaugen" />
		<tag k="place" v="locality" />
		<tag k="ssr:stedsnr" v="525583" />
	</node>
	<node id="-271013" lat="60.377000004" lon="9.55943332533">
		<tag k="name" v="Gjøta" />
		<tag k="place" v="locality" />
		<tag k="ssr:stedsnr" v="525396" />
	</node>
	<node id="-271012" lat="60.4304444409" lon="9.48591110873">
		<tag k="name" v="Perbråten" />
		<tag k="place" v="locality" />
		<tag k="ssr:stedsnr" v="525248" />
	</node>
	<node id="-270496" lat="60.4224805563" lon="9.42006945345">
		<tag k="name" v="Udalen" />
		<tag k="place" v="locality" />
		<tag k="ssr:stedsnr" v="906010" />
	</node>
	<node id="-270495" lat="60.4195638899" lon="9.39827777259">
		<tag k="name" v="Midten" />
		<tag k="place" v="locality" />
		<tag k="ssr:stedsnr" v="906008" />
	</node>
	<node id="-269982" lat="60.4430194436" lon="9.37939167093">
		<tag k="name" v="Klype" />
		<tag k="place" v="locality" />
		<tag k="ssr:stedsnr" v="300771" />
	</node>
	<node id="-269979" lat="60.4074361067" lon="9.79771944664">
		<tag k="name" v="Gudbrandsgård" />
		<tag k="place" v="locality" />
		<tag k="ssr:stedsnr" v="300510" />
	</node>
	<node id="-269976" lat="60.4174944445" lon="9.50325833947">
		<tag k="name" v="Kapralplassen" />
		<tag k="place" v="locality" />
		<tag k="ssr:stedsnr" v="300212" />
	</node>
	<node id="-269974" lat="60.420536108" lon="9.31742500032">
		<tag k="name" v="Annebråten" />
		<tag k="place" v="locality" />
		<tag k="ssr:stedsnr" v="300063" />
	</node>
	<node id="-269968" lat="60.3696416691" lon="9.66200555408">
		<tag k="name" v="Blokkebråten" />
		<tag k="place" v="locality" />
		<tag k="ssr:stedsnr" v="465387" />
	</node>
	<node id="-269967" lat="60.4106388858" lon="9.39617222128">
		<tag k="name" v="Halvbakkleggja" />
		<tag k="place" v="locality" />
		<tag k="ssr:stedsnr" v="465020" />
	</node>
	<node id="-269965" lat="60.3450805559" lon="9.59840278457">
		<tag k="name" v="Stillinga" />
		<tag k="place" v="locality" />
		<tag k="ssr:stedsnr" v="464595" />
	</node>
	<node id="-269963" lat="60.3590888906" lon="9.65916388799">
		<tag k="name" v="Vesleseter" />
		<tag k="place" v="locality" />
		<tag k="ssr:stedsnr" v="464578" />
	</node>
	<node id="-270699" lat="60.4376722204" lon="9.47339166548">
		<tag k="name" v="Halvorsbråten" />
		<tag k="place" v="locality" />
		<tag k="ssr:stedsnr" v="119000" />
	</node>
	<node id="-269948" lat="60.4337722209" lon="9.2939000052">
		<tag k="name" v="Grasingdokken" />
		<tag k="place" v="locality" />
		<tag k="ssr:stedsnr" v="343897" />
	</node>
	<node id="-269941" lat="60.4234777768" lon="9.40221111784">
		<tag k="name" v="Lykkjebakken" />
		<tag k="place" v="locality" />
		<tag k="ssr:stedsnr" v="178011" />
	</node>
	<node id="-270860" lat="60.4132222235" lon="9.42316389595">
		<tag k="name" v="Korssteinbrøtan" />
		<tag k="place" v="locality" />
		<tag k="ssr:stedsnr" v="343030" />
	</node>
	<node id="-270867" lat="60.3739583331" lon="9.66296389116">
		<tag k="name" v="Narvehus" />
		<tag k="place" v="locality" />
		<tag k="ssr:stedsnr" v="343371" />
	</node>
	<node id="-270960" lat="60.3881250033" lon="9.4090138859">
		<tag k="name" v="Gassgiveren" />
		<tag k="place" v="locality" />
		<tag k="ssr:stedsnr" v="423377" />
	</node>
	<node id="-269935" lat="60.377224999" lon="9.54868333133">
		<tag k="name" v="Steingrimbråten" />
		<tag k="place" v="locality" />
		<tag k="ssr:stedsnr" v="283312" />
	</node>
	<node id="-270445" lat="60.408975002" lon="9.42040277416">
		<tag k="name" v="Hyttebyggingene" />
		<tag k="place" v="locality" />
		<tag k="ssr:stedsnr" v="787156" />
	</node>
	<node id="-270955" lat="60.434644441" lon="9.43479722005">
		<tag k="name" v="Kølabotn" />
		<tag k="place" v="locality" />
		<tag k="ssr:stedsnr" v="421986" />
	</node>
	<node id="-269926" lat="60.3582805524" lon="9.53950276928">
		<tag k="name" v="Felledaltunga" />
		<tag k="place" v="locality" />
		<tag k="ssr:stedsnr" v="282578" />
	</node>
	<node id="-270945" lat="60.419816663" lon="9.49731944696">
		<tag k="name" v="Brøtahus" />
		<tag k="place" v="locality" />
		<tag k="ssr:stedsnr" v="421177" />
	</node>
	<node id="-270940" lat="60.3776611122" lon="9.57687500737">
		<tag k="name" v="Nymoen" />
		<tag k="place" v="locality" />
		<tag k="ssr:stedsnr" v="404351" />
	</node>
	<node id="-271119" lat="60.4234277783" lon="9.63983333142">
		<tag k="name" v="Lunnestaden" />
		<tag k="place" v="locality" />
		<tag k="ssr:stedsnr" v="603499" />
	</node>
	<node id="-270416" lat="60.4502249979" lon="9.3034277819">
		<tag k="name" v="Jordet" />
		<tag k="place" v="locality" />
		<tag k="ssr:stedsnr" v="767868" />
	</node>
	<node id="-269901" lat="60.3782055581" lon="9.42247221561">
		<tag k="name" v="Linberget" />
		<tag k="place" v="locality" />
		<tag k="ssr:stedsnr" v="120359" />
	</node>
	<node id="-269900" lat="60.3776611116" lon="9.40162777248">
		<tag k="name" v="Sparkopp" />
		<tag k="place" v="locality" />
		<tag k="ssr:stedsnr" v="120358" />
	</node>
	<node id="-270814" lat="60.4475250013" lon="9.45944999801">
		<tag k="name" v="Juveplassen" />
		<tag k="place" v="locality" />
		<tag k="ssr:stedsnr" v="300979" />
	</node>
	<node id="-270604" lat="60.429936109" lon="9.77519999365">
		<tag k="name" v="Rabbeseterrøs" />
		<tag k="place" v="locality" />
		<tag k="ssr:stedsnr" v="57207" />
	</node>
	<node id="-270403" lat="60.4196833365" lon="9.31798056225">
		<tag k="name" v="Snekkerbråten" />
		<tag k="place" v="locality" />
		<tag k="ssr:stedsnr" v="907062" />
	</node>
	<node id="-270396" lat="60.4386583306" lon="9.38152222537">
		<tag k="name" v="Fugleleiken" />
		<tag k="place" v="locality" />
		<tag k="ssr:stedsnr" v="724767" />
	</node>
	<node id="-270175" lat="60.437794448" lon="9.46149166219">
		<tag k="name" v="Heiene" />
		<tag k="place" v="locality" />
		<tag k="ssr:stedsnr" v="542994" />
	</node>
	<node id="-271199" lat="60.4331861152" lon="9.4876972265">
		<tag k="name" v="Jammerhaugen" />
		<tag k="place" v="locality" />
		<tag k="ssr:stedsnr" v="785988" />
	</node>
	<node id="-270902" lat="60.4418972266" lon="9.49649443651">
		<tag k="name" v="Sjåheim" />
		<tag k="ssr:stedsnr" v="370166" />
		<tag k="tourism" v="viewpoint" />
	</node>
	<node id="-270379" lat="60.4565222233" lon="9.43832499673">
		<tag k="name" v="Gampebråten" />
		<tag k="place" v="locality" />
		<tag k="ssr:stedsnr" v="891597" />
	</node>
	<node id="-270378" lat="60.4743249981" lon="9.38055833198">
		<tag k="name" v="Grønli" />
		<tag k="place" v="locality" />
		<tag k="ssr:stedsnr" v="891594" />
	</node>
	<node id="-270887" lat="60.3862888933" lon="9.40438333537">
		<tag k="name" v="Klype" />
		<tag k="place" v="locality" />
		<tag k="ssr:stedsnr" v="362363" />
	</node>
	<node id="-270882" lat="60.4240361132" lon="9.32245278054">
		<tag k="name" v="Huset" />
		<tag k="place" v="locality" />
		<tag k="ssr:stedsnr" v="360039" />
	</node>
	<node id="-270368" lat="60.4505722237" lon="9.29668889774">
		<tag k="name" v="Nedremoen" />
		<tag k="place" v="locality" />
		<tag k="ssr:stedsnr" v="889858" />
	</node>
	<node id="-270367" lat="60.4351305573" lon="9.35466666877">
		<tag k="name" v="Tomasstuen" />
		<tag k="place" v="locality" />
		<tag k="ssr:stedsnr" v="889850" />
	</node>
	<node id="-270359" lat="60.3595138872" lon="9.66399166809">
		<tag k="name" v="Nilsebråten" />
		<tag k="place" v="locality" />
		<tag k="ssr:stedsnr" v="889554" />
	</node>
	<node id="-270869" lat="60.3617166631" lon="9.66530554657">
		<tag k="name" v="Seteren" />
		<tag k="place" v="locality" />
		<tag k="ssr:stedsnr" v="343591" />
	</node>
	<node id="-270356" lat="60.3215305595" lon="9.67328888266">
		<tag k="name" v="Gjestebråten" />
		<tag k="place" v="locality" />
		<tag k="ssr:stedsnr" v="889164" />
	</node>
	<node id="-269843" lat="60.4385972205" lon="9.47571388399">
		<tag k="name" v="Hildebråten" />
		<tag k="place" v="locality" />
		<tag k="ssr:stedsnr" v="239999" />
	</node>
	<node id="-269842" lat="60.4334444431" lon="9.48303055423">
		<tag k="name" v="Snaret" />
		<tag k="place" v="locality" />
		<tag k="ssr:stedsnr" v="239995" />
	</node>
	<node id="-269839" lat="60.4422805542" lon="9.4187249943">
		<tag k="name" v="Underlandet" />
		<tag k="place" v="locality" />
		<tag k="ssr:stedsnr" v="239793" />
	</node>
	<node id="-269953" lat="60.4618333326" lon="9.45788889665">
		<tag k="name" v="Sjåheim" />
		<tag k="ssr:stedsnr" v="223608" />
		<tag k="tourism" v="viewpoint" />
	</node>
	<node id="-269836" lat="60.4443750009" lon="9.39220277248">
		<tag k="name" v="Fuglebu" />
		<tag k="place" v="locality" />
		<tag k="ssr:stedsnr" v="239785" />
	</node>
	<node id="-269832" lat="60.52885278" lon="9.56757222541">
		<tag k="name" v="Rognerudvollen" />
		<tag k="place" v="locality" />
		<tag k="ssr:stedsnr" v="239303" />
	</node>
	<node id="-269829" lat="60.4192222253" lon="9.50027221535">
		<tag k="name" v="Ulen" />
		<tag k="place" v="locality" />
		<tag k="ssr:stedsnr" v="239185" />
	</node>
	<node id="-269828" lat="60.4173694456" lon="9.36556666743">
		<tag k="name" v="Bakko" />
		<tag k="place" v="locality" />
		<tag k="ssr:stedsnr" v="239059" />
	</node>
	<node id="-269825" lat="60.4212194434" lon="9.42955000826">
		<tag k="name" v="Vollan" />
		<tag k="place" v="locality" />
		<tag k="ssr:stedsnr" v="239019" />
	</node>
</osm>
