<?xml version="1.0" encoding="UTF-8"?>
<osm version="0.6" generator="osmapis">
	<node lat="60.352399997567" lon="9.447600007293962" id="-13126">
		<tag k="historic" v="shieling" />
		<tag k="name" v="Vollsetran" />
		<tag k="place" v="isolated_dwelling" />
		<tag k="ssr:stedsnr" v="6004" />
	</node>
	<node lat="60.43460833372867" lon="9.649002770332778" id="-13127">
		<tag k="historic" v="shieling" />
		<tag k="name" v="Solheimsetran" />
		<tag k="place" v="isolated_dwelling" />
		<tag k="ssr:stedsnr" v="5974" />
	</node>
	<node lat="60.44448055809337" lon="9.295469447969372" id="-13128">
		<tag k="alt_name" v="Nordre Gislerud" />
		<tag k="name" v="Øvre Gislerud" />
		<tag k="place" v="farm" />
		<tag k="ssr:stedsnr" v="6155" />
	</node>
	<node lat="60.45927499647059" lon="9.316272228890325" id="-13130">
		<tag k="name" v="Flagebu" />
		<tag k="place" v="locality" />
		<tag k="ssr:stedsnr" v="6164" />
	</node>
	<node lat="60.429949995981815" lon="9.480999999188281" id="-13134">
		<tag k="name" v="Kvernjordet" />
		<tag k="place" v="farm" />
		<tag k="ssr:stedsnr" v="6179" />
	</node>
	<node lat="60.43670000147688" lon="9.415311106660928" id="-13135">
		<tag k="alt_name" v="Gaptjern nedre" />
		<tag k="name" v="Nedre Gaptjern" />
		<tag k="old_name" v="Nedre Goptjern" />
		<tag k="place" v="farm" />
		<tag k="ssr:stedsnr" v="6202" />
	</node>
	<node lat="60.380225002568245" lon="9.632994440500488" id="-13141">
		<tag k="name" v="Myrvad" />
		<tag k="place" v="farm" />
		<tag k="ssr:stedsnr" v="6972" />
	</node>
	<node lat="60.383827776911055" lon="9.634630557703787" id="-13151">
		<tag k="name" v="Nedre Rudningen" />
		<tag k="place" v="locality" />
		<tag k="ssr:stedsnr" v="40427" />
	</node>
	<node lat="60.49161388703984" lon="9.45372222815891" id="-13155">
		<tag k="name" v="Veneknatten" />
		<tag k="place" v="isolated_dwelling" />
		<tag k="ssr:stedsnr" v="40772" />
	</node>
	<node lat="60.43707221962184" lon="9.468113892233637" id="-13174">
		<tag k="name" v="Øvre Hilde" />
		<tag k="place" v="farm" />
		<tag k="ssr:stedsnr" v="57978" />
	</node>
	<node lat="60.336319446691384" lon="9.649827770288615" id="-13178">
		<tag k="name" v="Haugen" />
		<tag k="place" v="locality" />
		<tag k="ssr:stedsnr" v="59904" />
	</node>
	<node lat="60.377508334238044" lon="9.1785249951856" id="-13179">
		<tag k="historic" v="shieling" />
		<tag k="name" v="Flenten" />
		<tag k="place" v="isolated_dwelling" />
		<tag k="ssr:stedsnr" v="66353" />
	</node>
	<node lat="60.315074997342904" lon="9.572399999557286" id="-13182">
		<tag k="historic" v="shieling" />
		<tag k="name" v="Hestgjuvsetran" />
		<tag k="place" v="isolated_dwelling" />
		<tag k="ssr:stedsnr" v="67055" />
	</node>
	<node lat="60.44668333574315" lon="9.448297226039685" id="-13193">
		<tag k="name" v="Oldebråten" />
		<tag k="place" v="isolated_dwelling" />
		<tag k="ssr:stedsnr" v="249128" />
	</node>
	<node lat="60.37481666341058" lon="9.622630547240819" id="-13194">
		<tag k="name" v="Fjellheim" />
		<tag k="place" v="farm" />
		<tag k="ssr:stedsnr" v="101406" />
	</node>
	<node lat="60.458380554455424" lon="9.379316660549808" id="-13200">
		<tag k="name" v="Larsliu" />
		<tag k="place" v="locality" />
		<tag k="ssr:stedsnr" v="102609" />
	</node>
	<node lat="60.43511776804758" lon="9.669385662817728" id="-13204">
		<tag k="historic" v="shieling" />
		<tag k="name" v="Sørbølsetran" />
		<tag k="place" v="isolated_dwelling" />
		<tag k="ssr:stedsnr" v="248982" />
	</node>
	<node lat="60.42189494790443" lon="9.391399457270438" id="-13207">
		<tag k="fixme" v="consider place=hamlet" />
		<tag k="name" v="Grøsland" />
		<tag k="place" v="farm" />
		<tag k="ssr:stedsnr" v="249149" />
	</node>
	<node lat="60.42260555626154" lon="9.315266661628725" id="-13208">
		<tag k="fixme" v="multiple name tags, choose one and add the other to alt_name" />
		<tag k="name" v="Framgardsbråten;Larsebråten" />
		<tag k="place" v="isolated_dwelling" />
		<tag k="ssr:stedsnr" v="249153" />
	</node>
	<node lat="60.42344167038159" lon="9.374497214343412" id="-13209">
		<tag k="alt_name" v="Stillingen" />
		<tag k="name" v="Stillingi" />
		<tag k="place" v="farm" />
		<tag k="ssr:stedsnr" v="249154" />
	</node>
	<node lat="60.42787777813714" lon="9.482363890565958" id="-13210">
		<tag k="name" v="Løken" />
		<tag k="place" v="farm" />
		<tag k="ssr:stedsnr" v="249159" />
	</node>
	<node lat="60.427280191243106" lon="9.468593733082667" id="-13211">
		<tag k="fixme" v="consider place=hamlet" />
		<tag k="name" v="Voll" />
		<tag k="place" v="farm" />
		<tag k="ssr:stedsnr" v="249160" />
	</node>
	<node lat="60.43811944637297" lon="9.417891674357492" id="-13212">
		<tag k="name" v="Tangen" />
		<tag k="place" v="farm" />
		<tag k="ssr:stedsnr" v="249174" />
	</node>
	<node lat="60.43253055684963" lon="9.486966658530593" id="-13213">
		<tag k="name" v="Vesbråten" />
		<tag k="place" v="isolated_dwelling" />
		<tag k="ssr:stedsnr" v="249177" />
	</node>
	<node lat="60.481277775211886" lon="9.356769444262984" id="-13214">
		<tag k="historic" v="shieling" />
		<tag k="name" v="Rimeplassetran" />
		<tag k="place" v="isolated_dwelling" />
		<tag k="ssr:stedsnr" v="249335" />
	</node>
	<node lat="60.40870000364671" lon="9.776286105950541" id="-13220">
		<tag k="alt_name" v="Buvannsvollen" />
		<tag k="name" v="Buvassvollen" />
		<tag k="place" v="isolated_dwelling" />
		<tag k="ssr:stedsnr" v="249955" />
	</node>
	<node lat="60.33510277634239" lon="9.498638883402984" id="-13229">
		<tag k="historic" v="shieling" />
		<tag k="name" v="Kroksetre" />
		<tag k="place" v="isolated_dwelling" />
		<tag k="ssr:stedsnr" v="127047" />
	</node>
	<node lat="60.34040555952694" lon="9.579822223391506" id="-13230">
		<tag k="historic" v="shieling" />
		<tag k="name" v="Buøynsetre" />
		<tag k="place" v="isolated_dwelling" />
		<tag k="ssr:stedsnr" v="127051" />
	</node>
	<node lat="60.40232222369372" lon="9.374380557372698" id="-13233">
		<tag k="alt_name" v="Brakketomta" />
		<tag k="name" v="Brakketomti" />
		<tag k="place" v="isolated_dwelling" />
		<tag k="ssr:stedsnr" v="127211" />
	</node>
	<node lat="60.40100277379709" lon="9.452877780696971" id="-13235">
		<tag k="alt_name" v="Nordsæter" />
		<tag k="historic" v="shieling" />
		<tag k="name" v="Nordseter" />
		<tag k="place" v="isolated_dwelling" />
		<tag k="ssr:stedsnr" v="127216" />
	</node>
	<node lat="60.372897223405154" lon="9.473558339724184" id="-13237">
		<tag k="name" v="Svarthaugen" />
		<tag k="place" v="isolated_dwelling" />
		<tag k="ssr:stedsnr" v="127249" />
	</node>
	<node lat="60.48903888919157" lon="9.378200008903343" id="-13242">
		<tag k="historic" v="shieling" />
		<tag k="name" v="Kuluset" />
		<tag k="place" v="isolated_dwelling" />
		<tag k="ssr:stedsnr" v="127341" />
	</node>
	<node lat="60.492697226138255" lon="9.441488887329573" id="-13243">
		<tag k="name" v="Rismyrhytta" />
		<tag k="place" v="isolated_dwelling" />
		<tag k="ssr:stedsnr" v="127345" />
	</node>
	<node lat="60.396258332385706" lon="9.783158341945043" id="-13245">
		<tag k="historic" v="shieling" />
		<tag k="name" v="Frisvassetre" />
		<tag k="place" v="isolated_dwelling" />
		<tag k="ssr:stedsnr" v="127948" />
	</node>
	<node lat="60.43979444579538" lon="9.42972222393907" id="-13250">
		<tag k="alt_name" v="Nordre Trøsteim;Trøstheim" />
		<tag k="name" v="Nordre Trøstheim" />
		<tag k="place" v="farm" />
		<tag k="ssr:stedsnr" v="145002" />
	</node>
	<node lat="60.35792221951089" lon="9.649661116505609" id="-13251">
		<tag k="alt_name" v="Søndre Sønsteby" />
		<tag k="name" v="Søre Sønsteby" />
		<tag k="place" v="farm" />
		<tag k="ssr:stedsnr" v="161548" />
	</node>
	<node lat="60.353158334815824" lon="9.618974995349943" id="-13252">
		<tag k="name" v="Ottersholet" />
		<tag k="place" v="farm" />
		<tag k="ssr:stedsnr" v="161551" />
	</node>
	<node lat="60.349016666334606" lon="9.653361113142982" id="-13253">
		<tag k="alt_name" v="Glahaugen" />
		<tag k="name" v="Gladhaug" />
		<tag k="place" v="locality" />
		<tag k="ssr:stedsnr" v="161552" />
	</node>
	<node lat="60.36354444536122" lon="9.603780552072418" id="-13254">
		<tag k="name" v="Mælingen" />
		<tag k="place" v="farm" />
		<tag k="ssr:stedsnr" v="161559" />
	</node>
	<node lat="60.40063611089467" lon="9.518805560177242" id="-13263">
		<tag k="name" v="Øvre Strømbråtan" />
		<tag k="place" v="locality" />
		<tag k="ssr:stedsnr" v="176210" />
	</node>
	<node lat="60.375877781765055" lon="9.592199992466607" id="-13272">
		<tag k="name" v="Kårmo" />
		<tag k="place" v="farm" />
		<tag k="ssr:stedsnr" v="188024" />
	</node>
	<node lat="60.431494442537556" lon="9.752786104123782" id="-13276">
		<tag k="historic" v="shieling" />
		<tag k="name" v="Steinkollsetre" />
		<tag k="place" v="isolated_dwelling" />
		<tag k="ssr:stedsnr" v="187972" />
	</node>
	<node lat="60.449558335191014" lon="9.276486116511109" id="-13277">
		<tag k="name" v="Sørsmoen" />
		<tag k="place" v="isolated_dwelling" />
		<tag k="ssr:stedsnr" v="188174" />
	</node>
	<node lat="60.38169999745782" lon="9.637502783560272" id="-13290">
		<tag k="name" v="Plassen" />
		<tag k="place" v="farm" />
		<tag k="ssr:stedsnr" v="188972" />
	</node>
	<node lat="60.43023333176138" lon="9.461986118438075" id="-13303">
		<tag k="fixme" v="consider place=suburb, village or hamlet" />
		<tag k="name" v="Flå" />
		<tag k="place" v="quarter" />
		<tag k="ssr:stedsnr" v="234929" />
	</node>
	<node lat="60.42242222402132" lon="9.572691670708169" id="-13309">
		<tag k="name" v="Steinbu" />
		<tag k="place" v="isolated_dwelling" />
		<tag k="ssr:stedsnr" v="239484" />
	</node>
	<node lat="60.44172777658809" lon="9.403308331061979" id="-13312">
		<tag k="name" v="Haugaseter" />
		<tag k="place" v="locality" />
		<tag k="ssr:stedsnr" v="239792" />
	</node>
	<node lat="60.44812778197812" lon="9.43525000912163" id="-13314">
		<tag k="name" v="Solhaug" />
		<tag k="place" v="farm" />
		<tag k="ssr:stedsnr" v="239984" />
	</node>
	<node lat="60.49075555872548" lon="9.347702781084362" id="-13319">
		<tag k="historic" v="shieling" />
		<tag k="loc_name" v="Haugeset" />
		<tag k="name" v="Haugesetsetre" />
		<tag k="place" v="isolated_dwelling" />
		<tag k="ssr:stedsnr" v="248304" />
	</node>
	<node lat="60.382336106721574" lon="9.48532221495724" id="-13325">
		<tag k="name" v="Stormyrhytta" />
		<tag k="place" v="isolated_dwelling" />
		<tag k="ssr:stedsnr" v="249213" />
	</node>
	<node lat="60.398477776237684" lon="9.512927780572394" id="-13326">
		<tag k="alt_name" v="Bårdsplass" />
		<tag k="name" v="Bårdsplassen" />
		<tag k="place" v="farm" />
		<tag k="ssr:stedsnr" v="249223" />
	</node>
	<node lat="60.38701388701616" lon="9.554744441268717" id="-13332">
		<tag k="name" v="Skogtun" />
		<tag k="place" v="isolated_dwelling" />
		<tag k="ssr:stedsnr" v="283307" />
	</node>
	<node lat="60.41616388490584" lon="9.501858329330071" id="-13340">
		<tag k="name" v="Natten" />
		<tag k="place" v="isolated_dwelling" />
		<tag k="ssr:stedsnr" v="300210" />
	</node>
	<node lat="60.422541662593346" lon="9.807861119984434" id="-13345">
		<tag k="name" v="Maribohytta" />
		<tag k="place" v="isolated_dwelling" />
		<tag k="ssr:stedsnr" v="300276" />
	</node>
	<node lat="60.46704999613205" lon="9.561327785587084" id="-13347">
		<tag k="name" v="Flagligrende" />
		<tag k="place" v="hamlet" />
		<tag k="ssr:stedsnr" v="300295" />
	</node>
	<node lat="60.443149995585756" lon="9.460533334008073" id="-13350">
		<tag k="name" v="Ormerud" />
		<tag k="place" v="farm" />
		<tag k="ssr:stedsnr" v="300977" />
	</node>
	<node lat="60.30769999836313" lon="9.588869436368055" id="-13353">
		<tag k="name" v="Stormyrhytta" />
		<tag k="place" v="isolated_dwelling" />
		<tag k="ssr:stedsnr" v="464182" />
	</node>
	<node lat="60.349091667406796" lon="9.54701666608236" id="-13356">
		<tag k="name" v="Gulsvikseter" />
		<tag k="place" v="isolated_dwelling" />
		<tag k="ssr:stedsnr" v="464594" />
	</node>
	<node lat="60.43234444253574" lon="9.352747213978477" id="-13364">
		<tag k="alt_name" v="Bråtejordet" />
		<tag k="name" v="Bråtajordet" />
		<tag k="place" v="farm" />
		<tag k="ssr:stedsnr" v="309204" />
	</node>
	<node lat="60.366016665965006" lon="9.609283333884886" id="-13375">
		<tag k="alt_name" v="Vika" />
		<tag k="name" v="Viki" />
		<tag k="place" v="farm" />
		<tag k="ssr:stedsnr" v="309799" />
	</node>
	<node lat="60.49153333602412" lon="9.32437778073595" id="-13380">
		<tag k="name" v="Øvre Nyseter" />
		<tag k="place" v="locality" />
		<tag k="ssr:stedsnr" v="466545" />
	</node>
	<node lat="60.4329916644052" lon="9.359219449902456" id="-13389">
		<tag k="name" v="Ballanby" />
		<tag k="place" v="isolated_dwelling" />
		<tag k="ssr:stedsnr" v="343877" />
	</node>
	<node lat="60.47625277707946" lon="9.517447217682557" id="-13391">
		<tag k="historic" v="shieling" />
		<tag k="name" v="Olasetran" />
		<tag k="place" v="isolated_dwelling" />
		<tag k="ssr:stedsnr" v="369326" />
	</node>
	<node lat="60.374633334424594" lon="9.502472225346898" id="-13392">
		<tag k="name" v="Høgslepa" />
		<tag k="place" v="isolated_dwelling" />
		<tag k="ssr:stedsnr" v="370031" />
	</node>
	<node lat="60.38976111068872" lon="9.253175000877148" id="-13405">
		<tag k="alt_name" v="Damhaugen;Damhaugsr" />
		<tag k="historic" v="shieling" />
		<tag k="name" v="Damhaug" />
		<tag k="place" v="isolated_dwelling" />
		<tag k="ssr:stedsnr" v="370292" />
	</node>
	<node lat="60.366011442916424" lon="9.649667769224965" id="-13407">
		<tag k="fixme" v="consider place=hamlet" />
		<tag k="name" v="Mebøen" />
		<tag k="place" v="farm" />
		<tag k="ssr:stedsnr" v="370816" />
	</node>
	<node lat="60.38750277971879" lon="9.805105561071064" id="-13415">
		<tag k="name" v="Langodden" />
		<tag k="place" v="isolated_dwelling" />
		<tag k="ssr:stedsnr" v="481501" />
	</node>
	<node lat="60.396572219709945" lon="9.508669443540022" id="-13425">
		<tag k="name" v="Gandrudhaugen" />
		<tag k="place" v="farm" />
		<tag k="ssr:stedsnr" v="403145" />
	</node>
	<node lat="60.374963885721556" lon="9.689277780883875" id="-13428">
		<tag k="name" v="Piniklo" />
		<tag k="place" v="isolated_dwelling" />
		<tag k="ssr:stedsnr" v="404385" />
	</node>
	<node lat="60.400388890490696" lon="9.498838888728889" id="-13431">
		<tag k="name" v="Skår" />
		<tag k="place" v="farm" />
		<tag k="ssr:stedsnr" v="419210" />
	</node>
	<node lat="60.422447223058015" lon="9.386016675695139" id="-13433">
		<tag k="name" v="Bråten" />
		<tag k="place" v="farm" />
		<tag k="ssr:stedsnr" v="421008" />
	</node>
	<node lat="60.433794446135664" lon="9.47566110824088" id="-13435">
		<tag k="name" v="Sølvberg" />
		<tag k="place" v="farm" />
		<tag k="ssr:stedsnr" v="421989" />
	</node>
	<node lat="60.43842777654435" lon="9.465388891626377" id="-13436">
		<tag k="name" v="Haugen" />
		<tag k="place" v="isolated_dwelling" />
		<tag k="ssr:stedsnr" v="421999" />
	</node>
	<node lat="60.401675003848005" lon="9.355172215152153" id="-13437">
		<tag k="name" v="Slåttemyrbråten" />
		<tag k="place" v="locality" />
		<tag k="ssr:stedsnr" v="423442" />
	</node>
	<node lat="60.445708334476286" lon="9.434199998854652" id="-13449">
		<tag k="name" v="Kvarve" />
		<tag k="place" v="isolated_dwelling" />
		<tag k="ssr:stedsnr" v="491149" />
	</node>
	<node lat="60.44532499826635" lon="9.30145278420973" id="-13450">
		<tag k="alt_name" v="Søndre Gislerud" />
		<tag k="name" v="Søre Gislerud" />
		<tag k="place" v="farm" />
		<tag k="ssr:stedsnr" v="491155" />
	</node>
	<node lat="60.442880559792975" lon="9.447119448350627" id="-13453">
		<tag k="alt_name" v="Nørdre Hei" />
		<tag k="name" v="Nordre Hei" />
		<tag k="place" v="farm" />
		<tag k="ssr:stedsnr" v="431210" />
	</node>
	<node lat="60.403297219059986" lon="9.424161104412793" id="-13457">
		<tag k="name" v="Trøgabekkhytta" />
		<tag k="place" v="isolated_dwelling" />
		<tag k="ssr:stedsnr" v="431221" />
	</node>
	<node lat="60.41660555909507" lon="9.496327785486617" id="-13458">
		<tag k="alt_name" v="Ves-Buøen" />
		<tag k="name" v="Vesbuøyni" />
		<tag k="place" v="farm" />
		<tag k="ssr:stedsnr" v="431240" />
	</node>
	<node lat="60.43640277613948" lon="9.406730554909176" id="-13462">
		<tag k="name" v="Øvre Gaptjern" />
		<tag k="old_name" v="Øvre Goptjern" />
		<tag k="place" v="farm" />
		<tag k="ssr:stedsnr" v="431146" />
	</node>
	<node lat="60.42545223137258" lon="9.347079259217525" id="-13465">
		<tag k="alt_name" v="Tollefsrud" />
		<tag k="name" v="Tollevsrud" />
		<tag k="place" v="hamlet" />
		<tag k="ssr:stedsnr" v="431197" />
	</node>
	<node lat="60.43060000354693" lon="9.380119441492822" id="-13466">
		<tag k="name" v="Velta" />
		<tag k="place" v="farm" />
		<tag k="ssr:stedsnr" v="431200" />
	</node>
	<node lat="60.38684444119745" lon="9.23214443873806" id="-13468">
		<tag k="historic" v="shieling" />
		<tag k="name" v="Liseter" />
		<tag k="place" v="isolated_dwelling" />
		<tag k="ssr:stedsnr" v="491241" />
	</node>
	<node lat="60.38945277558544" lon="9.391486107718384" id="-13469">
		<tag k="historic" v="shieling" />
		<tag k="name" v="Veslesetre" />
		<tag k="place" v="isolated_dwelling" />
		<tag k="ssr:stedsnr" v="491249" />
	</node>
	<node lat="60.48975278166616" lon="9.443958331219168" id="-13472">
		<tag k="name" v="Langebrennsnaret" />
		<tag k="place" v="isolated_dwelling" />
		<tag k="ssr:stedsnr" v="491341" />
	</node>
	<node lat="60.47580555571013" lon="9.550219442930153" id="-13477">
		<tag k="alt_name" v="Knutestova" />
		<tag k="name" v="Knutestua" />
		<tag k="place" v="isolated_dwelling" />
		<tag k="ssr:stedsnr" v="491379" />
	</node>
	<node lat="60.470094445374755" lon="9.368433336322626" id="-13479">
		<tag k="name" v="Haugesethytta" />
		<tag k="place" v="isolated_dwelling" />
		<tag k="ssr:stedsnr" v="491384" />
	</node>
	<node lat="60.50485833224681" lon="9.46573888416831" id="-13485">
		<tag k="alt_name" v="Veneli hyttegrend" />
		<tag k="name" v="Veneli" />
		<tag k="place" v="neighbourhood" />
		<tag k="ssr:stedsnr" v="432785" />
	</node>
	<node lat="60.35453888876169" lon="9.65131388757586" id="-13486">
		<tag k="name" v="Haugen" />
		<tag k="place" v="farm" />
		<tag k="ssr:stedsnr" v="491752" />
	</node>
	<node lat="60.38267222402821" lon="9.60908610208842" id="-13487">
		<tag k="fixme" v="consider place=suburb, village or hamlet" />
		<tag k="name" v="Gulsvik" />
		<tag k="place" v="quarter" />
		<tag k="ssr:stedsnr" v="491960" />
	</node>
	<node lat="60.44511388671712" lon="9.429138884196563" id="-13495">
		<tag k="alt_name" v="Engen" />
		<tag k="name" v="Engi" />
		<tag k="place" v="farm" />
		<tag k="ssr:stedsnr" v="673150" />
	</node>
	<node lat="60.475577774517745" lon="9.378388881858948" id="-13498">
		<tag k="historic" v="shieling" />
		<tag k="name" v="Grønlisetran" />
		<tag k="place" v="isolated_dwelling" />
		<tag k="ssr:stedsnr" v="673373" />
	</node>
	<node lat="60.36595555556986" lon="9.183327774405898" id="-13499">
		<tag k="historic" v="shieling" />
		<tag k="name" v="Bergesetre" />
		<tag k="place" v="isolated_dwelling" />
		<tag k="ssr:stedsnr" v="673402" />
	</node>
	<node lat="60.3507916670194" lon="9.6085277753569" id="-13504">
		<tag k="alt_name" v="Veteren" />
		<tag k="name" v="Nordre Veteren" />
		<tag k="place" v="farm" />
		<tag k="ssr:stedsnr" v="673761" />
	</node>
	<node lat="60.344109413659226" lon="9.64607210623753" id="-13505">
		<tag k="fixme" v="consider place=hamlet" />
		<tag k="name" v="Leknes" />
		<tag k="place" v="farm" />
		<tag k="ssr:stedsnr" v="673762" />
	</node>
	<node lat="60.421989743321646" lon="9.370738721145482" id="-13510">
		<tag k="alt_name" v="Reiarsgarden" />
		<tag k="name" v="Reiarsgard" />
		<tag k="old_name" v="Reiarskard" />
		<tag k="place" v="farm" />
		<tag k="ssr:stedsnr" v="674161" />
	</node>
	<node lat="60.42248333014245" lon="9.49247500404518" id="-13511">
		<tag k="name" v="Øystre" />
		<tag k="place" v="farm" />
		<tag k="ssr:stedsnr" v="674207" />
	</node>
	<node lat="60.43168055109679" lon="9.34273055833498" id="-13512">
		<tag k="name" v="Melbråten" />
		<tag k="place" v="farm" />
		<tag k="ssr:stedsnr" v="674175" />
	</node>
	<node lat="60.4279499994721" lon="9.376983328956191" id="-13513">
		<tag k="alt_name" v="Dokken" />
		<tag k="name" v="Dokki" />
		<tag k="place" v="farm" />
		<tag k="ssr:stedsnr" v="674176" />
	</node>
	<node lat="60.56546666497487" lon="9.407052785627801" id="-13517">
		<tag k="name" v="Arnebu" />
		<tag k="place" v="locality" />
		<tag k="ssr:stedsnr" v="674833" />
	</node>
	<node lat="60.47058888944923" lon="9.303544451500327" id="-13519">
		<tag k="name" v="Vesleseter" />
		<tag k="place" v="locality" />
		<tag k="ssr:stedsnr" v="466624" />
	</node>
	<node lat="60.42072777570012" lon="9.381311105945139" id="-13527">
		<tag k="name" v="Elverud" />
		<tag k="place" v="isolated_dwelling" />
		<tag k="ssr:stedsnr" v="481021" />
	</node>
	<node lat="60.449623471455176" lon="9.313348528268158" id="-13529">
		<tag k="name" v="Nordre Kolsrud" />
		<tag k="place" v="farm" />
		<tag k="ssr:stedsnr" v="734155" />
	</node>
	<node lat="60.4235305511164" lon="9.340919452261133" id="-13537">
		<tag k="alt_name" v="Ødegården" />
		<tag k="name" v="Øygarden" />
		<tag k="old_name" v="Øydgd" />
		<tag k="place" v="farm" />
		<tag k="ssr:stedsnr" v="492123" />
	</node>
	<node lat="60.41954999786177" lon="9.249611106470276" id="-13538">
		<tag k="alt_name" v="Gammalsæter" />
		<tag k="historic" v="shieling" />
		<tag k="name" v="Gamalseter" />
		<tag k="place" v="isolated_dwelling" />
		<tag k="ssr:stedsnr" v="492125" />
	</node>
	<node lat="60.42023888566175" lon="9.490044440729383" id="-13541">
		<tag k="alt_name" v="Vesbuøen" />
		<tag k="name" v="Vesbuøyni" />
		<tag k="old_name" v="Vestbuøyni" />
		<tag k="place" v="farm" />
		<tag k="ssr:stedsnr" v="492175" />
	</node>
	<node lat="60.37911389077473" lon="9.783472220551412" id="-13546">
		<tag k="name" v="Åshytta" />
		<tag k="place" v="isolated_dwelling" />
		<tag k="ssr:stedsnr" v="492772" />
	</node>
	<node lat="60.36825000243989" lon="9.647199993687076" id="-13547">
		<tag k="fixme" v="consider place=hamlet" />
		<tag k="name" v="Sørbygde" />
		<tag k="place" v="village" />
		<tag k="ssr:stedsnr" v="492779" />
	</node>
	<node lat="60.37305842981939" lon="9.643597555286433" id="-13548">
		<tag k="alt_name" v="Tromald" />
		<tag k="fixme" v="consider place=hamlet" />
		<tag k="name" v="Trommald" />
		<tag k="place" v="farm" />
		<tag k="ssr:stedsnr" v="492784" />
	</node>
	<node lat="60.37915833749468" lon="9.564894452839502" id="-13552">
		<tag k="fixme" v="multiple name tags, choose one and add the other to alt_name" />
		<tag k="name" v="Gandrudhaugen;Gandrudbakken" />
		<tag k="place" v="isolated_dwelling" />
		<tag k="ssr:stedsnr" v="525403" />
	</node>
	<node lat="60.43076110826359" lon="9.418830561059425" id="-13561">
		<tag k="name" v="Øvre Viskop" />
		<tag k="place" v="locality" />
		<tag k="ssr:stedsnr" v="542007" />
	</node>
	<node lat="60.425958337824746" lon="9.40384167227931" id="-13562">
		<tag k="name" v="Nordre Åvestrud" />
		<tag k="place" v="farm" />
		<tag k="ssr:stedsnr" v="542012" />
	</node>
	<node lat="60.420280559043" lon="9.428430557959981" id="-13563">
		<tag k="alt_name" v="Tvigrein" />
		<tag k="name" v="Tvigreinene" />
		<tag k="place" v="locality" />
		<tag k="ssr:stedsnr" v="542016" />
	</node>
	<node lat="60.43727222208611" lon="9.451855553963181" id="-13564">
		<tag k="name" v="Odden" />
		<tag k="place" v="locality" />
		<tag k="ssr:stedsnr" v="542224" />
	</node>
	<node lat="60.43718610854897" lon="9.776500005288886" id="-13566">
		<tag k="name" v="Brennsetre" />
		<tag k="place" v="locality" />
		<tag k="ssr:stedsnr" v="542274" />
	</node>
	<node lat="60.38291944433106" lon="9.807641664577403" id="-13567">
		<tag k="name" v="Lomsdalshytta" />
		<tag k="place" v="isolated_dwelling" />
		<tag k="ssr:stedsnr" v="542476" />
	</node>
	<node lat="60.39465832922897" lon="9.560008338194224" id="-13568">
		<tag k="name" v="Langeros" />
		<tag k="place" v="farm" />
		<tag k="ssr:stedsnr" v="542484" />
	</node>
	<node lat="60.44200555733629" lon="9.45130278218397" id="-13569">
		<tag k="amenity" v="nursing_home" />
		<tag k="name" v="Flå bygdaheim" />
		<tag k="ssr:stedsnr" v="542971" />
	</node>
	<node lat="60.474344440179294" lon="9.404313895903202" id="-13573">
		<tag k="name" v="Kvitjernhytta" />
		<tag k="place" v="isolated_dwelling" />
		<tag k="ssr:stedsnr" v="551343" />
	</node>
	<node lat="60.34867736471012" lon="9.428228625537283" id="-13576">
		<tag k="historic" v="shieling" />
		<tag k="name" v="Jakobslisetre" />
		<tag k="place" v="isolated_dwelling" />
		<tag k="ssr:stedsnr" v="552003" />
	</node>
	<node lat="60.400983333725044" lon="9.359138888939112" id="-13580">
		<tag k="historic" v="shieling" />
		<tag k="name" v="Slåttemyr" />
		<tag k="place" v="isolated_dwelling" />
		<tag k="ssr:stedsnr" v="552207" />
	</node>
	<node lat="60.4169527782052" lon="9.482533338223742" id="-13583">
		<tag k="alt_name" v="Søndre Rud" />
		<tag k="name" v="Søre Rud" />
		<tag k="place" v="farm" />
		<tag k="ssr:stedsnr" v="552230" />
	</node>
	<node lat="60.37621111397924" lon="9.46098333054518" id="-13585">
		<tag k="historic" v="shieling" />
		<tag k="name" v="Rudsheimsetre" />
		<tag k="place" v="isolated_dwelling" />
		<tag k="ssr:stedsnr" v="552244" />
	</node>
	<node lat="60.38092499976445" lon="9.468669436622832" id="-13586">
		<tag k="historic" v="shieling" />
		<tag k="name" v="Sølesetre" />
		<tag k="place" v="isolated_dwelling" />
		<tag k="ssr:stedsnr" v="552250" />
	</node>
	<node lat="60.38284999782909" lon="9.562252780730947" id="-13587">
		<tag k="name" v="Vesle Gandrud" />
		<tag k="place" v="farm" />
		<tag k="ssr:stedsnr" v="552254" />
	</node>
	<node lat="60.43879445619164" lon="9.433430981785833" id="-13589">
		<tag k="fixme" v="consider place=hamlet" />
		<tag k="name" v="Trøstheim" />
		<tag k="place" v="farm" />
		<tag k="ssr:stedsnr" v="552199" />
	</node>
	<node lat="60.37777500284838" lon="9.638975008216777" id="-13590">
		<tag k="alt_name" v="Lien" />
		<tag k="name" v="Lii" />
		<tag k="place" v="farm" />
		<tag k="ssr:stedsnr" v="552814" />
	</node>
	<node lat="60.36282499694241" lon="9.67131110325896" id="-13591">
		<tag k="name" v="Sætri" />
		<tag k="place" v="locality" />
		<tag k="ssr:stedsnr" v="552832" />
	</node>
	<node lat="60.365602774870545" lon="9.647511114207198" id="-13597">
		<tag k="name" v="Nordre Medbøen" />
		<tag k="place" v="farm" />
		<tag k="ssr:stedsnr" v="585534" />
	</node>
	<node lat="60.353105559693965" lon="9.652283341694877" id="-13598">
		<tag k="name" v="Øvre Haug" />
		<tag k="place" v="farm" />
		<tag k="ssr:stedsnr" v="585539" />
	</node>
	<node lat="60.34921944682969" lon="9.64838055006011" id="-13599">
		<tag k="name" v="Reset" />
		<tag k="place" v="locality" />
		<tag k="ssr:stedsnr" v="585543" />
	</node>
	<node lat="60.43088333319064" lon="9.461102786512923" id="-13602">
		<tag k="name" v="Grønvoll" />
		<tag k="place" v="farm" />
		<tag k="ssr:stedsnr" v="586240" />
	</node>
	<node lat="60.37239722523886" lon="9.635113890692104" id="-13604">
		<tag k="name" v="Fossmo" />
		<tag k="place" v="isolated_dwelling" />
		<tag k="ssr:stedsnr" v="586390" />
	</node>
	<node lat="60.49151111268854" lon="9.383324994476448" id="-13605">
		<tag k="alt_name" v="Veslefekjan" />
		<tag k="name" v="Veslefetjan" />
		<tag k="place" v="locality" />
		<tag k="ssr:stedsnr" v="586744" />
	</node>
	<node lat="60.54439166397756" lon="9.425950008742937" id="-13606">
		<tag k="name" v="Sundehytta" />
		<tag k="place" v="locality" />
		<tag k="ssr:stedsnr" v="586695" />
	</node>
	<node lat="60.42222222504741" lon="9.516533333276884" id="-13613">
		<tag k="name" v="Fattigset" />
		<tag k="place" v="locality" />
		<tag k="ssr:stedsnr" v="602197" />
	</node>
	<node lat="60.45602777954569" lon="9.427411102375844" id="-13617">
		<tag k="historic" v="shieling" />
		<tag k="name" v="Kviheimsetre" />
		<tag k="place" v="isolated_dwelling" />
		<tag k="ssr:stedsnr" v="612167" />
	</node>
	<node lat="60.455211115459605" lon="9.38582499222393" id="-13618">
		<tag k="historic" v="shieling" />
		<tag k="name" v="Sørstølan" />
		<tag k="place" v="isolated_dwelling" />
		<tag k="ssr:stedsnr" v="612169" />
	</node>
	<node lat="60.40357500322643" lon="9.391802772828658" id="-13619">
		<tag k="name" v="Vikhytta" />
		<tag k="place" v="isolated_dwelling" />
		<tag k="ssr:stedsnr" v="612208" />
	</node>
	<node lat="60.40702499707482" lon="9.301011107834025" id="-13621">
		<tag k="name" v="Bjørnehaug" />
		<tag k="place" v="isolated_dwelling" />
		<tag k="ssr:stedsnr" v="612218" />
	</node>
	<node lat="60.48561388669843" lon="9.446158337908793" id="-13623">
		<tag k="fixme" v="multiple name tags, choose one and add the other to alt_name" />
		<tag k="name" v="Hangstjernhytta;Hangshytta" />
		<tag k="place" v="isolated_dwelling" />
		<tag k="ssr:stedsnr" v="612368" />
	</node>
	<node lat="60.37303055158563" lon="9.182580564348266" id="-13624">
		<tag k="historic" v="shieling" />
		<tag k="name" v="Flatvollen" />
		<tag k="place" v="isolated_dwelling" />
		<tag k="ssr:stedsnr" v="612384" />
	</node>
	<node lat="60.315113887519026" lon="9.709405556874756" id="-13628">
		<tag k="historic" v="shieling" />
		<tag k="name" v="Lindelisetre" />
		<tag k="place" v="isolated_dwelling" />
		<tag k="ssr:stedsnr" v="612820" />
	</node>
	<node lat="60.37227777498018" lon="9.488961118885342" id="-13633">
		<tag k="historic" v="shieling" />
		<tag k="name" v="Gandrudsetre" />
		<tag k="place" v="isolated_dwelling" />
		<tag k="ssr:stedsnr" v="613027" />
	</node>
	<node lat="60.4158277792113" lon="9.543577778758669" id="-13635">
		<tag k="historic" v="shieling" />
		<tag k="name" v="Mosetre" />
		<tag k="place" v="isolated_dwelling" />
		<tag k="ssr:stedsnr" v="613217" />
	</node>
	<node lat="60.44544999800398" lon="9.465177769122104" id="-13636">
		<tag k="name" v="Leipa" />
		<tag k="place" v="locality" />
		<tag k="ssr:stedsnr" v="613133" />
	</node>
	<node lat="60.42750277585796" lon="9.451574991955466" id="-13638">
		<tag k="alt_name" v="Larsplass" />
		<tag k="name" v="Larsplassen" />
		<tag k="place" v="farm" />
		<tag k="ssr:stedsnr" v="613165" />
	</node>
	<node lat="60.3893361111351" lon="9.7905249962136" id="-13645">
		<tag k="alt_name" v="Myrhus" />
		<tag k="name" v="Myrehus" />
		<tag k="place" v="isolated_dwelling" />
		<tag k="ssr:stedsnr" v="613962" />
	</node>
	<node lat="60.3741833313433" lon="9.625447227832078" id="-13651">
		<tag k="name" v="Vikstrand" />
		<tag k="place" v="isolated_dwelling" />
		<tag k="ssr:stedsnr" v="646392" />
	</node>
	<node lat="60.427041663384436" lon="9.468350001467526" id="-13652">
		<tag k="alt_name" v="Søndre Voll" />
		<tag k="name" v="Søre Voll" />
		<tag k="place" v="farm" />
		<tag k="ssr:stedsnr" v="646229" />
	</node>
	<node lat="60.35417499876954" lon="9.610602777501732" id="-13670">
		<tag k="name" v="Bera" />
		<tag k="place" v="locality" />
		<tag k="ssr:stedsnr" v="707597" />
	</node>
	<node lat="60.40794444867378" lon="9.495633329171605" id="-13674">
		<tag k="name" v="Bergom" />
		<tag k="place" v="farm" />
		<tag k="ssr:stedsnr" v="662186" />
	</node>
	<node lat="60.42820277957075" lon="9.464772218119993" id="-13679">
		<tag k="name" v="Voll" />
		<tag k="place" v="farm" />
		<tag k="ssr:stedsnr" v="890240" />
	</node>
	<node lat="60.375624997603836" lon="9.56806110809365" id="-13682">
		<tag k="name" v="Vestheim" />
		<tag k="place" v="farm" />
		<tag k="ssr:stedsnr" v="890386" />
	</node>
	<node lat="60.39455277891599" lon="9.535494441039498" id="-13687">
		<tag k="name" v="Haramoen" />
		<tag k="place" v="isolated_dwelling" />
		<tag k="ssr:stedsnr" v="673258" />
	</node>
	<node lat="60.45518332892349" lon="9.573413881998107" id="-13688">
		<tag k="historic" v="shieling" />
		<tag k="name" v="Skardsetre" />
		<tag k="place" v="isolated_dwelling" />
		<tag k="ssr:stedsnr" v="673161" />
	</node>
	<node lat="60.43466666937803" lon="9.613927778129712" id="-13699">
		<tag k="name" v="Vaktartjernhytta" />
		<tag k="place" v="isolated_dwelling" />
		<tag k="ssr:stedsnr" v="673979" />
	</node>
	<node lat="60.440333333104846" lon="9.770688885174469" id="-13700">
		<tag k="name" v="Fjellandvollen" />
		<tag k="place" v="isolated_dwelling" />
		<tag k="ssr:stedsnr" v="673982" />
	</node>
	<node lat="60.43228888941429" lon="9.356725004935937" id="-13701">
		<tag k="name" v="Austvoll" />
		<tag k="place" v="isolated_dwelling" />
		<tag k="ssr:stedsnr" v="674178" />
	</node>
	<node lat="60.51670277751135" lon="9.417227770093644" id="-13705">
		<tag k="historic" v="shieling" />
		<tag k="name" v="Øvre Raudfjellsetre" />
		<tag k="place" v="isolated_dwelling" />
		<tag k="ssr:stedsnr" v="674773" />
	</node>
	<node lat="60.51276667025898" lon="9.411949992211731" id="-13711">
		<tag k="historic" v="shieling" />
		<tag k="name" v="Nedre Raudfjellsetre" />
		<tag k="place" v="isolated_dwelling" />
		<tag k="ssr:stedsnr" v="675815" />
	</node>
	<node lat="60.45806110891277" lon="9.50315832783091" id="-13715">
		<tag k="name" v="Furutangen" />
		<tag k="place" v="isolated_dwelling" />
		<tag k="ssr:stedsnr" v="891539" />
	</node>
	<node lat="60.364697224411294" lon="9.735308340994434" id="-13728">
		<tag k="name" v="Slåttohytta" />
		<tag k="place" v="isolated_dwelling" />
		<tag k="ssr:stedsnr" v="707579" />
	</node>
	<node lat="60.42743610858226" lon="9.4085444375445" id="-13736">
		<tag k="alt_name" v="Søndre Åvestrud" />
		<tag k="name" v="Søre Åvestrud" />
		<tag k="place" v="farm" />
		<tag k="ssr:stedsnr" v="724010" />
	</node>
	<node lat="60.4311194428759" lon="9.416294444693294" id="-13737">
		<tag k="name" v="Viskop" />
		<tag k="place" v="isolated_dwelling" />
		<tag k="ssr:stedsnr" v="724012" />
	</node>
	<node lat="60.43171944091159" lon="9.470833324629785" id="-13740">
		<tag k="name" v="Elvetun" />
		<tag k="place" v="isolated_dwelling" />
		<tag k="ssr:stedsnr" v="724990" />
	</node>
	<node lat="60.4391416688642" lon="9.456497218050316" id="-13742">
		<tag k="name" v="Heiland" />
		<tag k="place" v="isolated_dwelling" />
		<tag k="ssr:stedsnr" v="724998" />
	</node>
	<node lat="60.41935555425486" lon="9.490666661591563" id="-13750">
		<tag k="name" v="Buheim" />
		<tag k="place" v="farm" />
		<tag k="ssr:stedsnr" v="734235" />
	</node>
	<node lat="60.382375000036916" lon="9.518149995520442" id="-13752">
		<tag k="name" v="Li" />
		<tag k="place" v="isolated_dwelling" />
		<tag k="ssr:stedsnr" v="734252" />
	</node>
	<node lat="60.42636666866072" lon="9.460986107463992" id="-13755">
		<tag k="name" v="Evjo" />
		<tag k="place" v="farm" />
		<tag k="ssr:stedsnr" v="734192" />
	</node>
	<node lat="60.42660832980406" lon="9.45298055279007" id="-13756">
		<tag k="name" v="Svingen" />
		<tag k="place" v="farm" />
		<tag k="ssr:stedsnr" v="734195" />
	</node>
	<node lat="60.451747218462685" lon="9.293844452695666" id="-13757">
		<tag k="name" v="Vassfarmoen" />
		<tag k="place" v="farm" />
		<tag k="ssr:stedsnr" v="734406" />
	</node>
	<node lat="60.4222972185171" lon="9.382202779366045" id="-13772">
		<tag k="name" v="Brubakken" />
		<tag k="place" v="isolated_dwelling" />
		<tag k="ssr:stedsnr" v="906007" />
	</node>
	<node lat="60.388441664238925" lon="9.571441670624932" id="-13787">
		<tag k="name" v="Nedre Gulsvik" />
		<tag k="place" v="farm" />
		<tag k="ssr:stedsnr" v="907437" />
	</node>
	<node lat="60.44488055362917" lon="9.324313881759068" id="-13808">
		<tag k="alt_name" v="Søndre Kolsrud;Kolsrud søndre" />
		<tag k="name" v="Søre Kolsrud" />
		<tag k="place" v="farm" />
		<tag k="ssr:stedsnr" v="795180" />
	</node>
	<node lat="60.38909312409569" lon="9.565614335518356" id="-13811">
		<tag k="name" v="Gulsvik" />
		<tag k="place" v="hamlet" />
		<tag k="ssr:stedsnr" v="795272" />
	</node>
	<node lat="60.36955000190429" lon="9.657380555981991" id="-13814">
		<tag k="name" v="Slenta" />
		<tag k="place" v="isolated_dwelling" />
		<tag k="ssr:stedsnr" v="795806" />
	</node>
	<node lat="60.53707349093474" lon="9.373542641426061" id="-13819">
		<tag k="fixme" v="multiple name tags, choose one and add the other to alt_name" />
		<tag k="historic" v="shieling" />
		<tag k="name" v="Domfet;Domfetseter" />
		<tag k="place" v="isolated_dwelling" />
		<tag k="ssr:stedsnr" v="796773" />
	</node>
	<node lat="60.43427500036238" lon="9.40209999225431" id="-13825">
		<tag k="name" v="Nørdre Gaptjern" />
		<tag k="old_name" v="Nordre Goptjern" />
		<tag k="place" v="farm" />
		<tag k="ssr:stedsnr" v="916198" />
	</node>
	<node lat="60.45042499728889" lon="9.336099993741426" id="-13828">
		<tag k="name" v="Heiun" />
		<tag k="place" v="isolated_dwelling" />
		<tag k="ssr:stedsnr" v="916152" />
	</node>
	<node lat="60.37721944079167" lon="9.430730562607913" id="-13830">
		<tag k="name" v="Baklihytta" />
		<tag k="place" v="isolated_dwelling" />
		<tag k="ssr:stedsnr" v="916238" />
	</node>
	<node lat="60.39309999606997" lon="9.515058328756044" id="-13831">
		<tag k="name" v="Listøl" />
		<tag k="place" v="farm" />
		<tag k="ssr:stedsnr" v="916251" />
	</node>
	<node lat="60.347830557513035" lon="9.608233335227633" id="-13834">
		<tag k="alt_name" v="Søndre Veteren" />
		<tag k="name" v="Søre Veteren" />
		<tag k="place" v="farm" />
		<tag k="ssr:stedsnr" v="916798" />
	</node>
	<node lat="60.40590833641211" lon="9.68017778121257" id="-13835">
		<tag k="name" v="Strengsmyrhytta" />
		<tag k="place" v="isolated_dwelling" />
		<tag k="ssr:stedsnr" v="916987" />
	</node>
	<node lat="60.429105557787736" lon="9.46611110214041" id="-13843">
		<tag k="amenity" v="townhall" />
		<tag k="name" v="Flå kommunehus" />
		<tag k="ssr:stedsnr" v="829226" />
	</node>
	<node lat="60.34851667043268" lon="9.788777774417593" id="-13846">
		<tag k="name" v="Tranetjernhytta" />
		<tag k="place" v="isolated_dwelling" />
		<tag k="ssr:stedsnr" v="829576" />
	</node>
	<node lat="60.43820833130028" lon="9.448197216690172" id="-13852">
		<tag k="name" v="Tyttebærmoen" />
		<tag k="place" v="farm" />
		<tag k="ssr:stedsnr" v="846998" />
	</node>
	<node lat="60.33995833649103" lon="9.64946666806069" id="-13855">
		<tag k="name" v="Nyland" />
		<tag k="place" v="farm" />
		<tag k="ssr:stedsnr" v="848911" />
	</node>
	<node lat="60.42646121710364" lon="9.405631896207499" id="-13860">
		<tag k="fixme" v="consider place=hamlet" />
		<tag k="name" v="Åvestrud" />
		<tag k="place" v="farm" />
		<tag k="ssr:stedsnr" v="856182" />
	</node>
	<node lat="60.368799998919016" lon="9.343338893203311" id="-13864">
		<tag k="historic" v="shieling" />
		<tag k="name" v="Åvestrudsetre" />
		<tag k="place" v="isolated_dwelling" />
		<tag k="ssr:stedsnr" v="856026" />
	</node>
	<node lat="60.40911944665019" lon="9.485991669164768" id="-13866">
		<tag k="name" v="Bråten" />
		<tag k="place" v="farm" />
		<tag k="ssr:stedsnr" v="856212" />
	</node>
	<node lat="60.39557499857695" lon="9.498947225255705" id="-13868">
		<tag k="name" v="Strindeberg" />
		<tag k="place" v="farm" />
		<tag k="ssr:stedsnr" v="856245" />
	</node>
	<node lat="60.47907499936053" lon="9.454799993796764" id="-13869">
		<tag k="historic" v="shieling" />
		<tag k="name" v="Vesbråtenseter" />
		<tag k="place" v="isolated_dwelling" />
		<tag k="ssr:stedsnr" v="856381" />
	</node>
	<node lat="60.34987499897796" lon="9.64576111285428" id="-13870">
		<tag k="name" v="Hansbråtan" />
		<tag k="place" v="farm" />
		<tag k="ssr:stedsnr" v="856789" />
	</node>
	<node lat="60.37161944190539" lon="9.656224991411683" id="-13872">
		<tag k="name" v="Oppheim" />
		<tag k="place" v="isolated_dwelling" />
		<tag k="ssr:stedsnr" v="856802" />
	</node>
	<node lat="60.427490089796756" lon="9.313816257129897" id="-13882">
		<tag k="alt_name" v="Stavnsbråten" />
		<tag k="name" v="Nordbråten" />
		<tag k="place" v="farm" />
		<tag k="ssr:stedsnr" v="907050" />
	</node>
	<node lat="60.44087222273023" lon="9.454322227627728" id="-13885">
		<tag k="name" v="Åsheim" />
		<tag k="place" v="isolated_dwelling" />
		<tag k="ssr:stedsnr" v="907973" />
	</node>
	<node lat="60.41474444269908" lon="9.496861102405845" id="-13888">
		<tag k="alt_name" v="Engen" />
		<tag k="name" v="Engi" />
		<tag k="place" v="farm" />
		<tag k="ssr:stedsnr" v="916214" />
	</node>
	<node lat="60.41479273900581" lon="9.314549692854323" id="-13890">
		<tag k="fixme" v="consider place=hamlet" />
		<tag k="name" v="Åsen" />
		<tag k="place" v="farm" />
		<tag k="ssr:stedsnr" v="916223" />
	</node>
	<node lat="60.412822222719136" lon="9.432580562030507" id="-13891">
		<tag k="name" v="Skogbu" />
		<tag k="place" v="isolated_dwelling" />
		<tag k="ssr:stedsnr" v="916229" />
	</node>
	<node lat="60.46534444411081" lon="9.300041667823852" id="-13893">
		<tag k="name" v="Kvelven" />
		<tag k="place" v="locality" />
		<tag k="ssr:stedsnr" v="916379" />
	</node>
	<node lat="60.46270449278617" lon="9.347688512594646" id="-13895">
		<tag k="alt_name" v="Nysæter" />
		<tag k="historic" v="shieling" />
		<tag k="name" v="Nyseter" />
		<tag k="place" v="isolated_dwelling" />
		<tag k="ssr:stedsnr" v="916389" />
	</node>
	<node lat="60.35785362453765" lon="9.651085664501062" id="-13896">
		<tag k="fixme" v="consider place=hamlet" />
		<tag k="name" v="Sønsteby" />
		<tag k="place" v="farm" />
		<tag k="ssr:stedsnr" v="916778" />
	</node>
	<node lat="60.365899998638746" lon="9.599255546699002" id="-13898">
		<tag k="name" v="Slåtta" />
		<tag k="place" v="farm" />
		<tag k="ssr:stedsnr" v="916816" />
	</node>
	<node lat="60.36797499827359" lon="9.646124997784142" id="-13899">
		<tag k="name" v="Vestbøen" />
		<tag k="place" v="isolated_dwelling" />
		<tag k="ssr:stedsnr" v="916818" />
	</node>
	<node lat="60.41826111241957" lon="9.371277785921462" id="-13901">
		<tag k="name" v="Plassen" />
		<tag k="place" v="farm" />
		<tag k="ssr:stedsnr" v="917126" />
	</node>
	<node lat="60.31560832937301" lon="9.64218611798134" id="-13904">
		<tag k="name" v="Hytta" />
		<tag k="place" v="isolated_dwelling" />
		<tag k="ssr:stedsnr" v="917820" />
	</node>
	<node lat="60.428655559753" lon="9.47876389174227" id="-13908">
		<tag k="name" v="Øvre Ve" />
		<tag k="place" v="farm" />
		<tag k="ssr:stedsnr" v="950244" />
	</node>
	<node lat="60.37231510940817" lon="9.644452919950876" id="-13909">
		<tag k="alt_name" v="Østre Tromald;Østre Trommald" />
		<tag k="name" v="Austre Trommald" />
		<tag k="place" v="farm" />
		<tag k="ssr:stedsnr" v="950408" />
	</node>
	<node lat="60.49625748958306" lon="9.468183687856602" id="-13913">
		<tag k="fixme" v="consider tourism=alpine_hut or tourism=chalet" />
		<tag k="name" v="Vassfarkoia" />
		<tag k="ssr:stedsnr" v="963436" />
		<tag k="tourism" v="wilderness_hut" />
	</node>
	<node lat="60.4525583311119" lon="9.582619440992577" id="-13921">
		<tag k="name" v="Nordhei" />
		<tag k="place" v="isolated_dwelling" />
		<tag k="ssr:stedsnr" v="967235" />
	</node>
	<node lat="60.41721244870916" lon="9.483473961116015" id="-13924">
		<tag k="fixme" v="consider place=hamlet" />
		<tag k="name" v="Rud" />
		<tag k="place" v="farm" />
		<tag k="ssr:stedsnr" v="967185" />
	</node>
	<node lat="60.44586110872318" lon="9.425677785803886" id="-13925">
		<tag k="name" v="Kviheim" />
		<tag k="place" v="farm" />
		<tag k="ssr:stedsnr" v="967728" />
	</node>
	<node lat="60.47877183085836" lon="9.61140129561451" id="-13929">
		<tag k="name" v="Harehopp" />
		<tag k="place" v="locality" />
		<tag k="ssr:stedsnr" v="976227" />
	</node>
	<node lat="60.44475494962363" lon="9.454881591036015" id="-13930">
		<tag k="name" v="Heimoen" />
		<tag k="place" v="quarter" />
		<tag k="ssr:stedsnr" v="981817" />
	</node>
	<node lat="60.39355094585045" lon="9.189560864162017" id="-13931">
		<tag k="name" v="Reinsjøfjell" />
		<tag k="place" v="quarter" />
		<tag k="ssr:stedsnr" v="981819" />
	</node>
	<node lat="60.5053997178414" lon="9.468111910250057" id="-13940">
		<tag k="fixme" v="consider tourism=alpine_hut or tourism=chalet" />
		<tag k="name" v="Røde Kors-hytta på Veneli" />
		<tag k="ssr:stedsnr" v="988994" />
		<tag k="tourism" v="wilderness_hut" />
	</node>
	<node lat="60.37766388694582" lon="9.570036106975733" id="-13945">
		<tag k="alt_name" v="Sæterstøi" />
		<tag k="loc_name" v="Seterstø;Seterstøa" />
		<tag k="name" v="Sæterstøa" />
		<tag k="place" v="isolated_dwelling" />
		<tag k="ssr:stedsnr" v="6028" />
	</node>
	<node lat="60.49446389250041" lon="9.384033330920714" id="-13949">
		<tag k="alt_name" v="Fekjan" />
		<tag k="historic" v="shieling" />
		<tag k="name" v="Fetjan" />
		<tag k="place" v="isolated_dwelling" />
		<tag k="ssr:stedsnr" v="6342" />
	</node>
	<node lat="60.447506406248145" lon="9.371825969608778" id="-13951">
		<tag k="fixme" v="consider place=hamlet" />
		<tag k="name" v="Rime" />
		<tag k="place" v="farm" />
		<tag k="ssr:stedsnr" v="6149" />
	</node>
	<node lat="60.406308334637025" lon="9.569794446320614" id="-13953">
		<tag k="name" v="Turufjellkoia" />
		<tag k="place" v="isolated_dwelling" />
		<tag k="ssr:stedsnr" v="6217" />
	</node>
	<node lat="60.40873611177601" lon="9.343377783935924" id="-13955">
		<tag k="historic" v="shieling" />
		<tag k="name" v="Rakhalsen" />
		<tag k="place" v="isolated_dwelling" />
		<tag k="ssr:stedsnr" v="6223" />
	</node>
	<node lat="60.41178611013691" lon="9.247372222403508" id="-13956">
		<tag k="historic" v="shieling" />
		<tag k="name" v="Nysetre" />
		<tag k="place" v="isolated_dwelling" />
		<tag k="ssr:stedsnr" v="6228" />
	</node>
	<node lat="60.396969447978805" lon="9.502869445850461" id="-13959">
		<tag k="name" v="Strandi" />
		<tag k="place" v="farm" />
		<tag k="ssr:stedsnr" v="6245" />
	</node>
	<node lat="60.39436388752898" lon="9.551005561136046" id="-13960">
		<tag k="name" v="Roppe" />
		<tag k="place" v="farm" />
		<tag k="ssr:stedsnr" v="6248" />
	</node>
	<node lat="60.369581139281024" lon="9.652549239246632" id="-13967">
		<tag k="fixme" v="consider place=hamlet" />
		<tag k="name" v="Oppsal" />
		<tag k="place" v="farm" />
		<tag k="ssr:stedsnr" v="6819" />
	</node>
	<node lat="60.337636107370365" lon="9.657608340443637" id="-13969">
		<tag k="name" v="Rugbråtan" />
		<tag k="place" v="locality" />
		<tag k="ssr:stedsnr" v="6861" />
	</node>
	<node lat="60.33778055453241" lon="9.502847230414195" id="-13975">
		<tag k="name" v="Fjellblink" />
		<tag k="place" v="isolated_dwelling" />
		<tag k="ssr:stedsnr" v="40189" />
	</node>
	<node lat="60.34241388559969" lon="9.526016673273912" id="-13977">
		<tag k="name" v="Dollhus" />
		<tag k="place" v="isolated_dwelling" />
		<tag k="ssr:stedsnr" v="40197" />
	</node>
	<node lat="60.37590278104131" lon="9.574958329037319" id="-13978">
		<tag k="name" v="Gamlerudningen" />
		<tag k="place" v="locality" />
		<tag k="ssr:stedsnr" v="40389" />
	</node>
	<node lat="60.368780559361475" lon="9.611183342195948" id="-13980">
		<tag k="name" v="Kniveberg" />
		<tag k="place" v="isolated_dwelling" />
		<tag k="ssr:stedsnr" v="40399" />
	</node>
	<node lat="60.430266663289416" lon="9.350816665569104" id="-13986">
		<tag k="name" v="Melbråten" />
		<tag k="place" v="farm" />
		<tag k="ssr:stedsnr" v="57043" />
	</node>
	<node lat="60.390197220927114" lon="9.796211106168332" id="-13988">
		<tag k="name" v="Frivannshytta" />
		<tag k="place" v="isolated_dwelling" />
		<tag k="ssr:stedsnr" v="57463" />
	</node>
	<node lat="60.442630557000506" lon="9.462925002439771" id="-13996">
		<tag k="name" v="Padderud" />
		<tag k="place" v="farm" />
		<tag k="ssr:stedsnr" v="67154" />
	</node>
	<node lat="60.44427499817089" lon="9.375175007362168" id="-13997">
		<tag k="alt_name" v="Rimeplass" />
		<tag k="historic" v="shieling" />
		<tag k="name" v="Rimeplassen" />
		<tag k="place" v="isolated_dwelling" />
		<tag k="ssr:stedsnr" v="67161" />
	</node>
	<node lat="60.47077500329399" lon="9.333174993910498" id="-13999">
		<tag k="historic" v="shieling" />
		<tag k="loc_name" v="Fjøssetre" />
		<tag k="name" v="Fjossetre" />
		<tag k="place" v="isolated_dwelling" />
		<tag k="ssr:stedsnr" v="66345" />
	</node>
	<node lat="60.36059166384135" lon="9.513674997199635" id="-14002">
		<tag k="historic" v="shieling" />
		<tag k="name" v="Gandrudsetre" />
		<tag k="place" v="isolated_dwelling" />
		<tag k="ssr:stedsnr" v="67010" />
	</node>
	<node lat="60.66612777674898" lon="8.558519439853972" id="-14005">
		<tag k="alt_name" v="Trøstheimsætri" />
		<tag k="historic" v="shieling" />
		<tag k="name" v="Trøstheimseter" />
		<tag k="old_name" v="Trøstheimsetri" />
		<tag k="place" v="isolated_dwelling" />
		<tag k="ssr:stedsnr" v="67249" />
	</node>
	<node lat="60.394272218036164" lon="9.51090278105242" id="-14009">
		<tag k="alt_name" v="Engen" />
		<tag k="name" v="Engi" />
		<tag k="place" v="farm" />
		<tag k="ssr:stedsnr" v="67268" />
	</node>
	<node lat="60.431613892111564" lon="9.325636104015338" id="-14014">
		<tag k="alt_name" v="Engen" />
		<tag k="name" v="Engi" />
		<tag k="place" v="isolated_dwelling" />
		<tag k="ssr:stedsnr" v="67211" />
	</node>
	<node lat="60.43546284650495" lon="9.465280446438701" id="-14015">
		<tag k="fixme" v="consider place=hamlet" />
		<tag k="name" v="Hilde" />
		<tag k="place" v="farm" />
		<tag k="ssr:stedsnr" v="67214" />
	</node>
	<node lat="60.39872500324276" lon="9.412399991440923" id="-14016">
		<tag k="name" v="Kastehytta" />
		<tag k="place" v="isolated_dwelling" />
		<tag k="ssr:stedsnr" v="67215" />
	</node>
	<node lat="60.40199999818696" lon="9.402419440951103" id="-14017">
		<tag k="name" v="Lynghaughytta" />
		<tag k="place" v="isolated_dwelling" />
		<tag k="ssr:stedsnr" v="67216" />
	</node>
	<node lat="60.401713884700584" lon="9.489930550173295" id="-14018">
		<tag k="alt_name" v="Trælup" />
		<tag k="name" v="Trælopp" />
		<tag k="place" v="farm" />
		<tag k="ssr:stedsnr" v="67219" />
	</node>
	<node lat="60.41118610965222" lon="9.487930555048719" id="-14020">
		<tag k="name" v="Ytre Voll" />
		<tag k="place" v="farm" />
		<tag k="ssr:stedsnr" v="67226" />
	</node>
	<node lat="60.402716668294396" lon="9.348613889810862" id="-14022">
		<tag k="name" v="Samuelslihytta" />
		<tag k="place" v="isolated_dwelling" />
		<tag k="ssr:stedsnr" v="67229" />
	</node>
	<node lat="60.48897500282888" lon="9.43414167151692" id="-14025">
		<tag k="name" v="Hangen" />
		<tag k="place" v="locality" />
		<tag k="ssr:stedsnr" v="67341" />
	</node>
	<node lat="60.33590277340476" lon="9.720241667000053" id="-14029">
		<tag k="name" v="Svarttjernkoia" />
		<tag k="place" v="isolated_dwelling" />
		<tag k="ssr:stedsnr" v="67861" />
	</node>
	<node lat="60.44519166911969" lon="9.41840000432579" id="-14062">
		<tag k="name" v="Øvre Kvi" />
		<tag k="place" v="locality" />
		<tag k="ssr:stedsnr" v="118747" />
	</node>
	<node lat="60.438872219492595" lon="9.409577776426648" id="-14063">
		<tag k="name" v="Stillingen" />
		<tag k="place" v="locality" />
		<tag k="ssr:stedsnr" v="118762" />
	</node>
	<node lat="60.40978611231231" lon="9.494880550854525" id="-14064">
		<tag k="name" v="Roen" />
		<tag k="place" v="farm" />
		<tag k="ssr:stedsnr" v="118168" />
	</node>
	<node lat="60.408552775448015" lon="9.55503888016618" id="-14065">
		<tag k="alt_name" v="Turufjell T.k." />
		<tag k="name" v="Turufjellhytta" />
		<tag k="place" v="isolated_dwelling" />
		<tag k="ssr:stedsnr" v="118436" />
	</node>
	<node lat="60.39915833734922" lon="9.610991674169346" id="-14067">
		<tag k="name" v="Bråten" />
		<tag k="place" v="isolated_dwelling" />
		<tag k="ssr:stedsnr" v="118444" />
	</node>
	<node lat="60.439869442133855" lon="9.434938897937577" id="-14070">
		<tag k="name" v="Nedre Trøstheim" />
		<tag k="place" v="farm" />
		<tag k="ssr:stedsnr" v="118994" />
	</node>
	<node lat="60.439744440442134" lon="9.466408337895446" id="-14071">
		<tag k="name" v="Åsly" />
		<tag k="place" v="isolated_dwelling" />
		<tag k="ssr:stedsnr" v="118999" />
	</node>
	<node lat="60.34094444218671" lon="9.649486102834533" id="-14081">
		<tag k="name" v="Frydenlund" />
		<tag k="place" v="farm" />
		<tag k="ssr:stedsnr" v="120914" />
	</node>
	<node lat="60.35460000449194" lon="9.45179999811927" id="-14082">
		<tag k="historic" v="shieling" />
		<tag k="name" v="Rudsetran" />
		<tag k="place" v="isolated_dwelling" />
		<tag k="ssr:stedsnr" v="127009" />
	</node>
	<node lat="60.42796526902685" lon="9.472926887143414" id="-14085">
		<tag k="fixme" v="consider place=hamlet" />
		<tag k="name" v="Ve" />
		<tag k="place" v="farm" />
		<tag k="ssr:stedsnr" v="127179" />
	</node>
	<node lat="60.39480000076915" lon="9.50973055255788" id="-14086">
		<tag k="name" v="Lieng" />
		<tag k="place" v="farm" />
		<tag k="ssr:stedsnr" v="127263" />
	</node>
	<node lat="60.39688888478135" lon="9.519688880290737" id="-14087">
		<tag k="name" v="Hoffmannsmoen" />
		<tag k="place" v="farm" />
		<tag k="ssr:stedsnr" v="127267" />
	</node>
	<node lat="60.369738888062244" lon="9.560961102320173" id="-14093">
		<tag k="fixme" v="multiple name tags, choose one and add the other to alt_name" />
		<tag k="name" v="Bråten;Aslehusbråten" />
		<tag k="place" v="locality" />
		<tag k="ssr:stedsnr" v="127032" />
	</node>
	<node lat="60.45093333726528" lon="9.463261111580382" id="-14097">
		<tag k="name" v="Karirud" />
		<tag k="place" v="locality" />
		<tag k="ssr:stedsnr" v="127137" />
	</node>
	<node lat="60.40779166527581" lon="9.311927781457872" id="-14098">
		<tag k="historic" v="shieling" />
		<tag k="name" v="Bjørnehaugsetre" />
		<tag k="place" v="isolated_dwelling" />
		<tag k="ssr:stedsnr" v="127228" />
	</node>
	<node lat="60.48602777569263" lon="9.373180558625666" id="-14100">
		<tag k="historic" v="shieling" />
		<tag k="name" v="Ransarhaugen" />
		<tag k="place" v="isolated_dwelling" />
		<tag k="ssr:stedsnr" v="127356" />
	</node>
	<node lat="60.37303888604801" lon="9.726975006565993" id="-14105">
		<tag k="name" v="Langtjernhytta" />
		<tag k="place" v="isolated_dwelling" />
		<tag k="ssr:stedsnr" v="127816" />
	</node>
	<node lat="60.42883889317773" lon="9.459677771561356" id="-14111">
		<tag k="name" v="Øvre Voll" />
		<tag k="place" v="farm" />
		<tag k="ssr:stedsnr" v="161228" />
	</node>
	<node lat="60.4297888886702" lon="9.468480557170086" id="-14112">
		<tag k="name" v="Nedre Vik" />
		<tag k="place" v="farm" />
		<tag k="ssr:stedsnr" v="161239" />
	</node>
	<node lat="60.37333333326129" lon="9.636330555929598" id="-14113">
		<tag k="name" v="Trommald" />
		<tag k="place" v="hamlet" />
		<tag k="ssr:stedsnr" v="161403" />
	</node>
	<node lat="60.450000355148106" lon="9.314537369578819" id="-14118">
		<tag k="fixme" v="consider place=hamlet" />
		<tag k="name" v="Kolsrud" />
		<tag k="place" v="farm" />
		<tag k="ssr:stedsnr" v="163490" />
	</node>
	<node lat="60.34837500140134" lon="9.699769448438266" id="-14120">
		<tag k="name" v="Solbu" />
		<tag k="place" v="isolated_dwelling" />
		<tag k="ssr:stedsnr" v="178287" />
	</node>
	<node lat="60.42006944097269" lon="9.372788886584603" id="-14121">
		<tag k="name" v="Stensrud" />
		<tag k="place" v="isolated_dwelling" />
		<tag k="ssr:stedsnr" v="178027" />
	</node>
	<node lat="60.44145832945418" lon="9.456202774271274" id="-14126">
		<tag k="name" v="Sagadalen" />
		<tag k="place" v="isolated_dwelling" />
		<tag k="ssr:stedsnr" v="178970" />
	</node>
	<node lat="60.43357777734045" lon="9.473222219378037" id="-14128">
		<tag k="alt_name" v="Søndre Hilde" />
		<tag k="name" v="Søre Hilde" />
		<tag k="place" v="farm" />
		<tag k="ssr:stedsnr" v="178983" />
	</node>
	<node lat="60.437680556231335" lon="9.455641673848682" id="-14129">
		<tag k="name" v="Elvemo" />
		<tag k="place" v="locality" />
		<tag k="ssr:stedsnr" v="178988" />
	</node>
	<node lat="60.33671666756177" lon="9.616977786657886" id="-14133">
		<tag k="name" v="Eilev-Veteren" />
		<tag k="place" v="farm" />
		<tag k="ssr:stedsnr" v="180901" />
	</node>
	<node lat="60.44055555891424" lon="9.413252775505343" id="-14138">
		<tag k="alt_name" v="Jorde" />
		<tag k="name" v="Jordet" />
		<tag k="place" v="farm" />
		<tag k="ssr:stedsnr" v="188149" />
	</node>
	<node lat="60.44414108326437" lon="9.42314674484886" id="-14139">
		<tag k="fixme" v="consider place=hamlet" />
		<tag k="name" v="Kvi" />
		<tag k="place" v="farm" />
		<tag k="ssr:stedsnr" v="188164" />
	</node>
	<node lat="60.420777774866934" lon="9.474488885642085" id="-14140">
		<tag k="name" v="Nordre Rud" />
		<tag k="place" v="farm" />
		<tag k="ssr:stedsnr" v="188238" />
	</node>
	<node lat="60.385125000491406" lon="9.426716659607107" id="-14141">
		<tag k="historic" v="shieling" />
		<tag k="name" v="Trytetjernsetre" />
		<tag k="place" v="isolated_dwelling" />
		<tag k="ssr:stedsnr" v="188258" />
	</node>
	<node lat="60.50633056001867" lon="9.483752769158478" id="-14146">
		<tag k="alt_name" v="Veneliseter" />
		<tag k="historic" v="shieling" />
		<tag k="name" v="Veneli" />
		<tag k="place" v="isolated_dwelling" />
		<tag k="ssr:stedsnr" v="189756" />
	</node>
	<node lat="60.394788889201955" lon="9.519311103964315" id="-14147">
		<tag k="name" v="Nedre Strømbråtan" />
		<tag k="place" v="locality" />
		<tag k="ssr:stedsnr" v="218171" />
	</node>
	<node lat="60.31486666896407" lon="9.625708339158267" id="-14148">
		<tag k="name" v="Tuftehytta" />
		<tag k="place" v="isolated_dwelling" />
		<tag k="ssr:stedsnr" v="222150" />
	</node>
	<node lat="60.37454167109769" lon="9.627466669022404" id="-14151">
		<tag k="name" v="Lieng" />
		<tag k="place" v="isolated_dwelling" />
		<tag k="ssr:stedsnr" v="222388" />
	</node>
	<node lat="60.43627324459855" lon="9.407360920518713" id="-14152">
		<tag k="fixme" v="consider place=hamlet" />
		<tag k="name" v="Gaptjern" />
		<tag k="old_name" v="Gapkjenn;Gapkin" />
		<tag k="place" v="farm" />
		<tag k="ssr:stedsnr" v="222798" />
	</node>
	<node lat="60.435169447232475" lon="9.421558325125506" id="-14153">
		<tag k="name" v="Gjestemoen" />
		<tag k="place" v="isolated_dwelling" />
		<tag k="ssr:stedsnr" v="222801" />
	</node>
	<node lat="60.36417777639565" lon="9.602505562428833" id="-14156">
		<tag k="name" v="Fjordgløtt" />
		<tag k="place" v="isolated_dwelling" />
		<tag k="ssr:stedsnr" v="222541" />
	</node>
	<node lat="60.43860555735362" lon="9.32301666869381" id="-14162">
		<tag k="name" v="Kråkenes" />
		<tag k="place" v="locality" />
		<tag k="ssr:stedsnr" v="282824" />
	</node>
	<node lat="60.43200277805245" lon="9.379027772558919" id="-14166">
		<tag k="name" v="Granmo" />
		<tag k="place" v="isolated_dwelling" />
		<tag k="ssr:stedsnr" v="282813" />
	</node>
	<node lat="60.30990555403739" lon="9.54742778512691" id="-14167">
		<tag k="name" v="Fiskebekkhytta" />
		<tag k="place" v="isolated_dwelling" />
		<tag k="ssr:stedsnr" v="283101" />
	</node>
	<node lat="60.36760833161297" lon="9.64823889053621" id="-14169">
		<tag k="name" v="Nordre Medbøen" />
		<tag k="place" v="farm" />
		<tag k="ssr:stedsnr" v="283326" />
	</node>
	<node lat="60.41907500142924" lon="9.381691668138416" id="-14174">
		<tag k="name" v="Botolfshus" />
		<tag k="place" v="farm" />
		<tag k="ssr:stedsnr" v="300018" />
	</node>
	<node lat="60.43848889018157" lon="9.463374993087204" id="-14180">
		<tag k="name" v="Saramoen" />
		<tag k="place" v="isolated_dwelling" />
		<tag k="ssr:stedsnr" v="300998" />
	</node>
	<node lat="60.331797220591" lon="9.766913894439792" id="-14182">
		<tag k="name" v="Klemtjernhytta" />
		<tag k="place" v="isolated_dwelling" />
		<tag k="ssr:stedsnr" v="302923" />
	</node>
	<node lat="60.425097397314865" lon="9.33006073171331" id="-14186">
		<tag k="fixme" v="consider place=hamlet" />
		<tag k="name" v="Stavn" />
		<tag k="place" v="farm" />
		<tag k="ssr:stedsnr" v="309209" />
	</node>
	<node lat="60.41240277965468" lon="9.505777785171931" id="-14188">
		<tag k="alt_name" v="Engene" />
		<tag k="name" v="Engan" />
		<tag k="place" v="farm" />
		<tag k="ssr:stedsnr" v="309228" />
	</node>
	<node lat="60.379963890767904" lon="9.561788883825802" id="-14191">
		<tag k="alt_name" v="Gandrud" />
		<tag k="name" v="Store Gandrud" />
		<tag k="place" v="farm" />
		<tag k="ssr:stedsnr" v="309255" />
	</node>
	<node lat="60.37258888485656" lon="9.484452783750744" id="-14192">
		<tag k="historic" v="shieling" />
		<tag k="name" v="Lisetre" />
		<tag k="place" v="isolated_dwelling" />
		<tag k="ssr:stedsnr" v="309260" />
	</node>
	<node lat="60.38119721835113" lon="9.516483330217234" id="-14194">
		<tag k="name" v="Likleivi" />
		<tag k="place" v="isolated_dwelling" />
		<tag k="ssr:stedsnr" v="309271" />
	</node>
	<node lat="60.359980554997335" lon="9.700908341888374" id="-14196">
		<tag k="name" v="Granbu" />
		<tag k="place" v="isolated_dwelling" />
		<tag k="ssr:stedsnr" v="309757" />
	</node>
	<node lat="60.328194440037635" lon="9.625274998809417" id="-14198">
		<tag k="alt_name" v="Nordre Veteren" />
		<tag k="name" v="Veterhytta" />
		<tag k="place" v="isolated_dwelling" />
		<tag k="ssr:stedsnr" v="309863" />
	</node>
	<node lat="60.43025833353745" lon="9.677291661383988" id="-14200">
		<tag k="historic" v="shieling" />
		<tag k="name" v="Aslesetre" />
		<tag k="place" v="isolated_dwelling" />
		<tag k="ssr:stedsnr" v="309976" />
	</node>
	<node lat="60.42479999584354" lon="9.55475000013279" id="-14202">
		<tag k="historic" v="shieling" />
		<tag k="name" v="Mosetre" />
		<tag k="place" v="isolated_dwelling" />
		<tag k="ssr:stedsnr" v="310147" />
	</node>
	<node lat="60.425091664820236" lon="9.271975006882318" id="-14203">
		<tag k="alt_name" v="Jeppesr" />
		<tag k="fixme" v="multiple name tags, choose one and add the other to alt_name" />
		<tag k="historic" v="shieling" />
		<tag k="name" v="Jeppe;Jeppeseter" />
		<tag k="place" v="isolated_dwelling" />
		<tag k="ssr:stedsnr" v="310150" />
	</node>
	<node lat="60.43210833124365" lon="9.457361110867412" id="-14204">
		<tag k="alt_name" v="Vik" />
		<tag k="name" v="Vik gjestgiveri" />
		<tag k="place" v="farm" />
		<tag k="ssr:stedsnr" v="310162" />
	</node>
	<node lat="60.40096666770701" lon="9.175094444456104" id="-14205">
		<tag k="historic" v="shieling" />
		<tag k="name" v="Trøgaset" />
		<tag k="place" v="isolated_dwelling" />
		<tag k="ssr:stedsnr" v="310348" />
	</node>
	<node lat="60.32662813303612" lon="9.664452101697716" id="-14207">
		<tag k="alt_name" v="Lindelien" />
		<tag k="fixme" v="consider place=hamlet" />
		<tag k="loc_name" v="Lindelie" />
		<tag k="name" v="Lindelia" />
		<tag k="place" v="farm" />
		<tag k="ssr:stedsnr" v="310857" />
	</node>
	<node lat="60.37530278180793" lon="9.570158328424759" id="-14214">
		<tag k="name" v="Jonebråten" />
		<tag k="place" v="farm" />
		<tag k="ssr:stedsnr" v="343340" />
	</node>
	<node lat="60.440727773750666" lon="9.459588882415437" id="-14236">
		<tag k="name" v="Haugen" />
		<tag k="place" v="farm" />
		<tag k="ssr:stedsnr" v="360994" />
	</node>
	<node lat="60.33950832894674" lon="9.64940278280592" id="-14243">
		<tag k="name" v="Danmark" />
		<tag k="place" v="farm" />
		<tag k="ssr:stedsnr" v="362912" />
	</node>
	<node lat="60.46388055264466" lon="9.439497224989728" id="-14245">
		<tag k="alt_name" v="Hesteortjernhytta" />
		<tag k="name" v="Hesteorttjernhytta" />
		<tag k="place" v="isolated_dwelling" />
		<tag k="ssr:stedsnr" v="369337" />
	</node>
	<node lat="60.420327774155304" lon="9.465022224927267" id="-14250">
		<tag k="name" v="Myre" />
		<tag k="place" v="isolated_dwelling" />
		<tag k="ssr:stedsnr" v="370190" />
	</node>
	<node lat="60.425297222532535" lon="9.32758888090128" id="-14251">
		<tag k="name" v="Teigen" />
		<tag k="place" v="farm" />
		<tag k="ssr:stedsnr" v="370191" />
	</node>
	<node lat="60.40196110852824" lon="9.488752784616574" id="-14252">
		<tag k="name" v="Hellerud" />
		<tag k="place" v="farm" />
		<tag k="ssr:stedsnr" v="370232" />
	</node>
	<node lat="60.4140000022083" lon="9.292050005329731" id="-14255">
		<tag k="historic" v="shieling" />
		<tag k="name" v="Stavnheimsetran" />
		<tag k="place" v="isolated_dwelling" />
		<tag k="ssr:stedsnr" v="370255" />
	</node>
	<node lat="60.35076111312812" lon="9.645613891357224" id="-14259">
		<tag k="name" v="Ottersplass" />
		<tag k="place" v="farm" />
		<tag k="ssr:stedsnr" v="370788" />
	</node>
	<node lat="60.413227780159076" lon="9.751599992746879" id="-14260">
		<tag k="name" v="Kalkemoen" />
		<tag k="place" v="isolated_dwelling" />
		<tag k="ssr:stedsnr" v="370987" />
	</node>
	<node lat="60.550719442582384" lon="9.411444448223097" id="-14264">
		<tag k="name" v="Olsonheimen" />
		<tag k="place" v="isolated_dwelling" />
		<tag k="ssr:stedsnr" v="371850" />
	</node>
	<node lat="60.50457777448567" lon="9.335827778335053" id="-14265">
		<tag k="fixme" v="multiple name tags, choose one and add the other to alt_name" />
		<tag k="historic" v="shieling" />
		<tag k="name" v="Nordre Kolsrudbødalen;Kolsrudbødalen" />
		<tag k="place" v="isolated_dwelling" />
		<tag k="ssr:stedsnr" v="371800" />
	</node>
	<node lat="60.35046111135053" lon="9.543686102804932" id="-14272">
		<tag k="name" v="Seterlihytta" />
		<tag k="place" v="isolated_dwelling" />
		<tag k="ssr:stedsnr" v="403570" />
	</node>
	<node lat="60.42119166623654" lon="9.461602781808523" id="-14273">
		<tag k="name" v="Håkonsrud" />
		<tag k="place" v="locality" />
		<tag k="ssr:stedsnr" v="404221" />
	</node>
	<node lat="60.38055449003347" lon="9.562339966801424" id="-14276">
		<tag k="fixme" v="consider place=hamlet" />
		<tag k="name" v="Gandrud" />
		<tag k="place" v="farm" />
		<tag k="ssr:stedsnr" v="404373" />
	</node>
	<node lat="60.49174166876509" lon="9.414049991828435" id="-14277">
		<tag k="name" v="Langebrennsnaret" />
		<tag k="place" v="isolated_dwelling" />
		<tag k="ssr:stedsnr" v="404720" />
	</node>
	<node lat="60.396433337009185" lon="9.567136115083429" id="-14290">
		<tag k="name" v="Koksum" />
		<tag k="place" v="locality" />
		<tag k="ssr:stedsnr" v="421471" />
	</node>
	<node lat="60.395394443194014" lon="9.624658325018117" id="-14291">
		<tag k="name" v="Djupdal" />
		<tag k="place" v="locality" />
		<tag k="ssr:stedsnr" v="421474" />
	</node>
	<node lat="60.40181389204479" lon="9.722497214242336" id="-14292">
		<tag k="name" v="Oppsallegret" />
		<tag k="place" v="isolated_dwelling" />
		<tag k="ssr:stedsnr" v="421481" />
	</node>
	<node lat="60.445933175427136" lon="9.301725024648661" id="-14304">
		<tag k="fixme" v="consider place=hamlet" />
		<tag k="name" v="Gislerud" />
		<tag k="place" v="farm" />
		<tag k="ssr:stedsnr" v="423557" />
	</node>
	<node lat="60.3784361096755" lon="9.580369448985778" id="-14308">
		<tag k="fixme" v="multiple name tags, choose one and add the other to alt_name" />
		<tag k="name" v="Moen;Gamlemoen" />
		<tag k="place" v="farm" />
		<tag k="ssr:stedsnr" v="431026" />
	</node>
	<node lat="60.448605558568595" lon="9.437327774791678" id="-14314">
		<tag k="name" v="Heiplass" />
		<tag k="place" v="isolated_dwelling" />
		<tag k="ssr:stedsnr" v="431159" />
	</node>
	<node lat="60.401958329959804" lon="9.325611119476376" id="-14316">
		<tag k="historic" v="shieling" />
		<tag k="name" v="Brandenborgsetre" />
		<tag k="place" v="isolated_dwelling" />
		<tag k="ssr:stedsnr" v="431229" />
	</node>
	<node lat="60.40153611129924" lon="9.534066658121013" id="-14321">
		<tag k="alt_name" v="Trabendal" />
		<tag k="name" v="Travendal" />
		<tag k="place" v="isolated_dwelling" />
		<tag k="ssr:stedsnr" v="431267" />
	</node>
	<node lat="60.381924999006806" lon="9.706150005410635" id="-14327">
		<tag k="alt_name" v="Megårdshaugen" />
		<tag k="name" v="Megardshaugen" />
		<tag k="place" v="isolated_dwelling" />
		<tag k="ssr:stedsnr" v="431965" />
	</node>
	<node lat="60.392899998441806" lon="9.62845554946523" id="-14329">
		<tag k="alt_name" v="Bråten" />
		<tag k="name" v="Bråtan" />
		<tag k="place" v="farm" />
		<tag k="ssr:stedsnr" v="431975" />
	</node>
	<node lat="60.32298888509279" lon="9.730674996451354" id="-14330">
		<tag k="name" v="Svarttjernhytta" />
		<tag k="place" v="isolated_dwelling" />
		<tag k="ssr:stedsnr" v="431835" />
	</node>
	<node lat="60.403538892009735" lon="9.65452500148748" id="-14346">
		<tag k="name" v="Drikkarmyrhytta" />
		<tag k="place" v="isolated_dwelling" />
		<tag k="ssr:stedsnr" v="542486" />
	</node>
	<node lat="60.40605833266838" lon="9.752361114274617" id="-14347">
		<tag k="name" v="Trillegården" />
		<tag k="place" v="farm" />
		<tag k="ssr:stedsnr" v="542496" />
	</node>
	<node lat="60.39902221878531" lon="9.79506389759464" id="-14348">
		<tag k="historic" v="shieling" />
		<tag k="name" v="Fossebråtan" />
		<tag k="place" v="isolated_dwelling" />
		<tag k="ssr:stedsnr" v="542497" />
	</node>
	<node lat="60.42398055189954" lon="9.512002773199297" id="-14351">
		<tag k="name" v="Fattigset" />
		<tag k="place" v="locality" />
		<tag k="ssr:stedsnr" v="542186" />
	</node>
	<node lat="60.53783888901885" lon="9.602686114535784" id="-14352">
		<tag k="name" v="Damstua" />
		<tag k="place" v="isolated_dwelling" />
		<tag k="ssr:stedsnr" v="542285" />
	</node>
	<node lat="60.43456388729268" lon="9.465897226432686" id="-14359">
		<tag k="name" v="Nedre Hilde" />
		<tag k="place" v="farm" />
		<tag k="ssr:stedsnr" v="542985" />
	</node>
	<node lat="60.43133610888813" lon="9.472755553014954" id="-14361">
		<tag k="name" v="Fjellheim" />
		<tag k="place" v="isolated_dwelling" />
		<tag k="ssr:stedsnr" v="542992" />
	</node>
	<node lat="60.44057777452733" lon="9.456408335582639" id="-14363">
		<tag k="name" v="Elvelund" />
		<tag k="place" v="isolated_dwelling" />
		<tag k="ssr:stedsnr" v="542999" />
	</node>
	<node lat="60.326525000127425" lon="9.58944443783539" id="-14364">
		<tag k="name" v="Løken" />
		<tag k="place" v="isolated_dwelling" />
		<tag k="ssr:stedsnr" v="544033" />
	</node>
	<node lat="60.43432500247816" lon="9.449288890262281" id="-14372">
		<tag k="name" v="Bjørneparken" />
		<tag k="ssr:stedsnr" v="545460" />
		<tag k="tourism" v="theme_park" />
	</node>
	<node lat="60.44200555197226" lon="9.643916658633291" id="-14374">
		<tag k="name" v="Gamlevollen" />
		<tag k="place" v="isolated_dwelling" />
		<tag k="ssr:stedsnr" v="551901" />
	</node>
	<node lat="60.416988887664445" lon="9.398063882283331" id="-14377">
		<tag k="name" v="Liabråten" />
		<tag k="place" v="farm" />
		<tag k="ssr:stedsnr" v="552167" />
	</node>
	<node lat="60.48283055446991" lon="9.35696943747423" id="-14383">
		<tag k="historic" v="shieling" />
		<tag k="name" v="Rimesetre" />
		<tag k="place" v="isolated_dwelling" />
		<tag k="ssr:stedsnr" v="552373" />
	</node>
	<node lat="60.358971773461654" lon="9.608779550414116" id="-14384">
		<tag k="alt_name" v="Buøen" />
		<tag k="fixme" v="consider place=hamlet" />
		<tag k="loc_name" v="Buøyni" />
		<tag k="name" v="Buøyna" />
		<tag k="place" v="farm" />
		<tag k="ssr:stedsnr" v="552772" />
	</node>
	<node lat="60.380061108101565" lon="9.65092777379314" id="-14388">
		<tag k="alt_name" v="Tranumbråten" />
		<tag k="name" v="Tranebråtan" />
		<tag k="place" v="farm" />
		<tag k="ssr:stedsnr" v="552978" />
	</node>
	<node lat="60.427908331509755" lon="9.46909166604875" id="-14399">
		<tag k="name" v="Solvang" />
		<tag k="place" v="isolated_dwelling" />
		<tag k="ssr:stedsnr" v="586236" />
	</node>
	<node lat="60.427536107362826" lon="9.47311667503928" id="-14400">
		<tag k="name" v="Nedre Ve" />
		<tag k="place" v="farm" />
		<tag k="ssr:stedsnr" v="586237" />
	</node>
	<node lat="60.3821444420614" lon="9.610727770882608" id="-14403">
		<tag k="name" v="Granheim" />
		<tag k="place" v="farm" />
		<tag k="ssr:stedsnr" v="586400" />
	</node>
	<node lat="60.3734285509464" lon="9.643018720413771" id="-14404">
		<tag k="alt_name" v="Vestre Tromald" />
		<tag k="name" v="Vestre Trommald" />
		<tag k="place" v="farm" />
		<tag k="ssr:stedsnr" v="586422" />
	</node>
	<node lat="60.375877778665476" lon="9.624355552939104" id="-14405">
		<tag k="name" v="Bråten" />
		<tag k="place" v="farm" />
		<tag k="ssr:stedsnr" v="586425" />
	</node>
	<node lat="60.455352778853786" lon="9.497736120010051" id="-14408">
		<tag k="name" v="Vesleånhytta" />
		<tag k="place" v="isolated_dwelling" />
		<tag k="ssr:stedsnr" v="587552" />
	</node>
	<node lat="60.405441667133246" lon="9.491963884527292" id="-14410">
		<tag k="name" v="Kjøsenga" />
		<tag k="place" v="farm" />
		<tag k="ssr:stedsnr" v="601183" />
	</node>
	<node lat="60.38906944557583" lon="9.561074999193922" id="-14411">
		<tag k="name" v="Nordre Gulsvik" />
		<tag k="place" v="farm" />
		<tag k="ssr:stedsnr" v="602488" />
	</node>
	<node lat="60.464655554854595" lon="9.563269453198009" id="-14412">
		<tag k="loc_name" v="Skarsdalen" />
		<tag k="name" v="Skardsdalen" />
		<tag k="place" v="neighbourhood" />
		<tag k="ssr:stedsnr" v="602876" />
	</node>
	<node lat="60.41473333647258" lon="9.638772216670224" id="-14418">
		<tag k="name" v="Veåshytta" />
		<tag k="place" v="isolated_dwelling" />
		<tag k="ssr:stedsnr" v="603497" />
	</node>
	<node lat="60.43963888684274" lon="9.455505555696238" id="-14420">
		<tag k="name" v="Dalen" />
		<tag k="place" v="isolated_dwelling" />
		<tag k="ssr:stedsnr" v="603993" />
	</node>
	<node lat="60.4126888920953" lon="9.499463886139628" id="-14427">
		<tag k="name" v="Engheim" />
		<tag k="place" v="isolated_dwelling" />
		<tag k="ssr:stedsnr" v="612214" />
	</node>
	<node lat="60.41441666675918" lon="9.434236109439334" id="-14428">
		<tag k="alt_name" v="Bjønndalshytta" />
		<tag k="name" v="Bjørnedalshytta" />
		<tag k="place" v="isolated_dwelling" />
		<tag k="ssr:stedsnr" v="612225" />
	</node>
	<node lat="60.49449444199387" lon="9.459094447755964" id="-14430">
		<tag k="name" v="Nybu" />
		<tag k="place" v="isolated_dwelling" />
		<tag k="ssr:stedsnr" v="612342" />
	</node>
	<node lat="60.428574998539766" lon="9.762900000161217" id="-14433">
		<tag k="historic" v="shieling" />
		<tag k="name" v="Oppsalsetre" />
		<tag k="place" v="isolated_dwelling" />
		<tag k="ssr:stedsnr" v="612966" />
	</node>
	<node lat="60.422913887468326" lon="9.777224992125362" id="-14434">
		<tag k="name" v="Bukollplassen" />
		<tag k="place" v="isolated_dwelling" />
		<tag k="ssr:stedsnr" v="612968" />
	</node>
	<node lat="60.410280552741305" lon="9.701055552004691" id="-14435">
		<tag k="historic" v="shieling" />
		<tag k="name" v="Øvstevassetran" />
		<tag k="place" v="isolated_dwelling" />
		<tag k="ssr:stedsnr" v="612985" />
	</node>
	<node lat="60.523341665358686" lon="9.367372217599414" id="-14439">
		<tag k="alt_name" v="Dagaliseter" />
		<tag k="historic" v="shieling" />
		<tag k="name" v="Dagali" />
		<tag k="place" v="isolated_dwelling" />
		<tag k="ssr:stedsnr" v="613749" />
	</node>
	<node lat="60.532133336477926" lon="9.573113892309731" id="-14440">
		<tag k="alt_name" v="Kana" />
		<tag k="name" v="Kanan" />
		<tag k="place" v="locality" />
		<tag k="ssr:stedsnr" v="613762" />
	</node>
	<node lat="60.37533333400952" lon="9.651977768993737" id="-14441">
		<tag k="alt_name" v="Hagen" />
		<tag k="name" v="Hagan" />
		<tag k="place" v="farm" />
		<tag k="ssr:stedsnr" v="613782" />
	</node>
	<node lat="60.34613888467119" lon="9.73026944525042" id="-14447">
		<tag k="name" v="Elgebuss" />
		<tag k="place" v="isolated_dwelling" />
		<tag k="ssr:stedsnr" v="646574" />
	</node>
	<node lat="60.35084698721104" lon="9.608555190144694" id="-14448">
		<tag k="name" v="Veteren" />
		<tag k="old_name" v="Væteren" />
		<tag k="place" v="farm" />
		<tag k="ssr:stedsnr" v="646592" />
	</node>
	<node lat="60.52741111494469" lon="9.513236112241607" id="-14449">
		<tag k="name" v="Greineløkhytta" />
		<tag k="place" v="isolated_dwelling" />
		<tag k="ssr:stedsnr" v="646663" />
	</node>
	<node lat="60.44721389069806" lon="9.297675000501565" id="-14451">
		<tag k="name" v="Gamletunet" />
		<tag k="place" v="locality" />
		<tag k="ssr:stedsnr" v="646835" />
	</node>
	<node lat="60.42043888509403" lon="9.802341674335732" id="-14458">
		<tag k="name" v="Størrmyrhytta" />
		<tag k="place" v="isolated_dwelling" />
		<tag k="ssr:stedsnr" v="663246" />
	</node>
	<node lat="60.43225555916934" lon="9.752947218765035" id="-14459">
		<tag k="name" v="Steinkollvollen" />
		<tag k="place" v="isolated_dwelling" />
		<tag k="ssr:stedsnr" v="663268" />
	</node>
	<node lat="60.33166111121188" lon="9.581277769963181" id="-14468">
		<tag k="name" v="Svarttjernhytta" />
		<tag k="place" v="isolated_dwelling" />
		<tag k="ssr:stedsnr" v="666048" />
	</node>
	<node lat="60.38144999658091" lon="9.60538055456736" id="-14478">
		<tag k="building" v="industrial" />
		<tag k="name" v="Gulsvik sag &amp; høvleri" />
		<tag k="ssr:stedsnr" v="724292" />
	</node>
	<node lat="60.40969166517008" lon="9.496566673693886" id="-14480">
		<tag k="name" v="Tangen" />
		<tag k="place" v="farm" />
		<tag k="ssr:stedsnr" v="724161" />
	</node>
	<node lat="60.44613055134284" lon="9.592099992208338" id="-14481">
		<tag k="name" v="Svangtjernhytta" />
		<tag k="place" v="isolated_dwelling" />
		<tag k="ssr:stedsnr" v="724219" />
	</node>
	<node lat="60.43203888820961" lon="9.749855557020657" id="-14484">
		<tag k="name" v="Erikbu" />
		<tag k="place" v="isolated_dwelling" />
		<tag k="ssr:stedsnr" v="724253" />
	</node>
	<node lat="60.39330000013342" lon="9.552219435658" id="-14486">
		<tag k="name" v="Roppeøyni" />
		<tag k="place" v="isolated_dwelling" />
		<tag k="ssr:stedsnr" v="724444" />
	</node>
	<node lat="60.388641664651054" lon="9.569286115987765" id="-14487">
		<tag k="alt_name" v="Søndre Gulsvik" />
		<tag k="name" v="Søre Gulsvik" />
		<tag k="place" v="farm" />
		<tag k="ssr:stedsnr" v="724445" />
	</node>
	<node lat="60.396430555556634" lon="9.618508326820615" id="-14489">
		<tag k="name" v="Tunga" />
		<tag k="place" v="farm" />
		<tag k="ssr:stedsnr" v="724452" />
	</node>
	<node lat="60.44343574860854" lon="9.446891017414613" id="-14494">
		<tag k="alt_name" v="Heie" />
		<tag k="fixme" v="consider place=hamlet" />
		<tag k="name" v="Hei" />
		<tag k="place" v="farm" />
		<tag k="ssr:stedsnr" v="726548" />
	</node>
	<node lat="60.386027779473366" lon="9.42783611731344" id="-14496">
		<tag k="name" v="Frihetsstykket" />
		<tag k="place" v="locality" />
		<tag k="ssr:stedsnr" v="727345" />
	</node>
	<node lat="60.35347499789292" lon="9.53083332683604" id="-14505">
		<tag k="fixme" v="multiple name tags, choose one and add the other to alt_name" />
		<tag k="historic" v="shieling" />
		<tag k="name" v="Gulsvik heimseter;Bjørnsetre" />
		<tag k="place" v="isolated_dwelling" />
		<tag k="ssr:stedsnr" v="734012" />
	</node>
	<node lat="60.34447500344888" lon="9.531519438128692" id="-14507">
		<tag k="name" v="Solbu" />
		<tag k="place" v="isolated_dwelling" />
		<tag k="ssr:stedsnr" v="734020" />
	</node>
	<node lat="60.44153888724174" lon="9.385116675706518" id="-14509">
		<tag k="historic" v="shieling" />
		<tag k="name" v="Nylio" />
		<tag k="place" v="isolated_dwelling" />
		<tag k="ssr:stedsnr" v="734134" />
	</node>
	<node lat="60.4579472192813" lon="9.33313333729896" id="-14513">
		<tag k="name" v="Suserud" />
		<tag k="place" v="isolated_dwelling" />
		<tag k="ssr:stedsnr" v="734170" />
	</node>
	<node lat="60.423797223208204" lon="9.394713892061592" id="-14514">
		<tag k="name" v="Steinmoen" />
		<tag k="place" v="isolated_dwelling" />
		<tag k="ssr:stedsnr" v="734171" />
	</node>
	<node lat="60.39449722536989" lon="9.462169445357798" id="-14520">
		<tag k="historic" v="shieling" />
		<tag k="name" v="Sjugurdsetre" />
		<tag k="place" v="isolated_dwelling" />
		<tag k="ssr:stedsnr" v="734278" />
	</node>
	<node lat="60.35889166660035" lon="9.678644440797063" id="-14523">
		<tag k="name" v="Åsbu" />
		<tag k="place" v="isolated_dwelling" />
		<tag k="ssr:stedsnr" v="734760" />
	</node>
	<node lat="60.40684166714889" lon="9.775433329372708" id="-14526">
		<tag k="fixme" v="consider tourism=alpine_hut or tourism=chalet" />
		<tag k="name" v="Buvasskoia" />
		<tag k="ssr:stedsnr" v="734956" />
		<tag k="tourism" v="wilderness_hut" />
	</node>
	<node lat="60.52956111556461" lon="9.548744450989972" id="-14529">
		<tag k="name" v="Busand" />
		<tag k="place" v="isolated_dwelling" />
		<tag k="ssr:stedsnr" v="735765" />
	</node>
	<node lat="60.44751110777014" lon="9.32030554786674" id="-14530">
		<tag k="name" v="Alfheim" />
		<tag k="place" v="isolated_dwelling" />
		<tag k="ssr:stedsnr" v="889828" />
	</node>
	<node lat="60.31603889215276" lon="9.568744447250682" id="-14541">
		<tag k="historic" v="shieling" />
		<tag k="loc_name" v="Gamlevollen" />
		<tag k="name" v="Nybu" />
		<tag k="place" v="isolated_dwelling" />
		<tag k="ssr:stedsnr" v="768175" />
	</node>
	<node lat="60.40977777500541" lon="9.507152774135157" id="-14553">
		<tag k="name" v="Engebo" />
		<tag k="place" v="farm" />
		<tag k="ssr:stedsnr" v="785179" />
	</node>
	<node lat="60.41813888515558" lon="9.494300003983147" id="-14554">
		<tag k="name" v="Vesbuøen" />
		<tag k="place" v="farm" />
		<tag k="ssr:stedsnr" v="785187" />
	</node>
	<node lat="60.43744167081088" lon="9.435324999493195" id="-14559">
		<tag k="name" v="Øvre Trøstheim" />
		<tag k="place" v="farm" />
		<tag k="ssr:stedsnr" v="785994" />
	</node>
	<node lat="60.33915555893061" lon="9.533027773437292" id="-14570">
		<tag k="name" v="Leirvollen" />
		<tag k="place" v="isolated_dwelling" />
		<tag k="ssr:stedsnr" v="795079" />
	</node>
	<node lat="60.474649998891316" lon="9.45170277916394" id="-14575">
		<tag k="name" v="Guribu" />
		<tag k="place" v="isolated_dwelling" />
		<tag k="ssr:stedsnr" v="794336" />
	</node>
	<node lat="60.44357500125032" lon="9.831783342252525" id="-14576">
		<tag k="historic" v="shieling" />
		<tag k="name" v="Skardsetre" />
		<tag k="place" v="isolated_dwelling" />
		<tag k="ssr:stedsnr" v="794892" />
	</node>
	<node lat="60.31302500408867" lon="9.62795277306656" id="-14582">
		<tag k="name" v="Ranten" />
		<tag k="place" v="isolated_dwelling" />
		<tag k="ssr:stedsnr" v="795822" />
	</node>
	<node lat="60.42851944477779" lon="9.484247218312566" id="-14584">
		<tag k="name" v="Vesberg" />
		<tag k="place" v="farm" />
		<tag k="ssr:stedsnr" v="795210" />
	</node>
	<node lat="60.37574722607211" lon="9.290983332809652" id="-14587">
		<tag k="historic" v="shieling" />
		<tag k="name" v="Tollevsrudsetre" />
		<tag k="place" v="isolated_dwelling" />
		<tag k="ssr:stedsnr" v="795254" />
	</node>
	<node lat="60.482700000300746" lon="9.383858328949518" id="-14589">
		<tag k="historic" v="shieling" />
		<tag k="name" v="Kvisetran" />
		<tag k="place" v="isolated_dwelling" />
		<tag k="ssr:stedsnr" v="795381" />
	</node>
	<node lat="60.48028611378885" lon="9.516655552076573" id="-14590">
		<tag k="name" v="Trollbu" />
		<tag k="place" v="isolated_dwelling" />
		<tag k="ssr:stedsnr" v="795394" />
	</node>
	<node lat="60.349666669090375" lon="9.696591663068904" id="-14591">
		<tag k="name" v="Kringsjå" />
		<tag k="place" v="isolated_dwelling" />
		<tag k="ssr:stedsnr" v="795779" />
	</node>
	<node lat="60.378402780842485" lon="9.555013882095704" id="-14598">
		<tag k="name" v="Kvernhusmoen" />
		<tag k="place" v="locality" />
		<tag k="ssr:stedsnr" v="829377" />
	</node>
	<node lat="60.43380277638804" lon="9.315591669473715" id="-14605">
		<tag k="name" v="Botten" />
		<tag k="place" v="farm" />
		<tag k="ssr:stedsnr" v="829849" />
	</node>
	<node lat="60.445286113634495" lon="9.283919438449304" id="-14606">
		<tag k="name" v="Johanmoen" />
		<tag k="place" v="locality" />
		<tag k="ssr:stedsnr" v="829855" />
	</node>
	<node lat="60.41125278105722" lon="9.47966945120085" id="-14612">
		<tag k="name" v="Rudslykkja" />
		<tag k="place" v="locality" />
		<tag k="ssr:stedsnr" v="846200" />
	</node>
	<node lat="60.425644446688" lon="9.321852785513343" id="-14616">
		<tag k="name" v="Lykkja" />
		<tag k="place" v="farm" />
		<tag k="ssr:stedsnr" v="846038" />
	</node>
	<node lat="60.38740555305806" lon="9.796161117218029" id="-14619">
		<tag k="name" v="Tømmerkoia" />
		<tag k="place" v="isolated_dwelling" />
		<tag k="ssr:stedsnr" v="846456" />
	</node>
	<node lat="60.42150832892783" lon="9.596736117797564" id="-14620">
		<tag k="name" v="Stillingdalshytta" />
		<tag k="place" v="isolated_dwelling" />
		<tag k="ssr:stedsnr" v="846476" />
	</node>
	<node lat="60.38936058202208" lon="9.5686096714013" id="-14625">
		<tag k="name" v="Mellom-Gulsvik" />
		<tag k="place" v="farm" />
		<tag k="ssr:stedsnr" v="846464" />
	</node>
	<node lat="60.44455832917525" lon="9.4422527738874" id="-14626">
		<tag k="name" v="Heiengen" />
		<tag k="place" v="farm" />
		<tag k="ssr:stedsnr" v="846978" />
	</node>
	<node lat="60.39918888527131" lon="9.283680549208462" id="-14629">
		<tag k="historic" v="shieling" />
		<tag k="name" v="Tungsetre" />
		<tag k="place" v="isolated_dwelling" />
		<tag k="ssr:stedsnr" v="848419" />
	</node>
	<node lat="60.318969442101526" lon="9.470722220547996" id="-14632">
		<tag k="historic" v="shieling" />
		<tag k="name" v="Gulsviksetran" />
		<tag k="place" v="isolated_dwelling" />
		<tag k="ssr:stedsnr" v="856037" />
	</node>
	<node lat="60.389016664702545" lon="9.247127780016662" id="-14640">
		<tag k="alt_name" v="Vieranseter" />
		<tag k="historic" v="shieling" />
		<tag k="name" v="Vieran" />
		<tag k="place" v="isolated_dwelling" />
		<tag k="ssr:stedsnr" v="856255" />
	</node>
	<node lat="60.35430278030788" lon="9.625483336298478" id="-14641">
		<tag k="name" v="Halsan" />
		<tag k="place" v="farm" />
		<tag k="ssr:stedsnr" v="856766" />
	</node>
	<node lat="60.38799351945649" lon="9.597554788714774" id="-14644">
		<tag k="alt_name" v="Kittilsviken" />
		<tag k="fixme" v="consider place=hamlet" />
		<tag k="name" v="Kittilsviki" />
		<tag k="place" v="farm" />
		<tag k="ssr:stedsnr" v="856960" />
	</node>
	<node lat="60.398152872695064" lon="9.629811146839993" id="-14645">
		<tag k="name" v="Torehus" />
		<tag k="place" v="locality" />
		<tag k="ssr:stedsnr" v="856963" />
	</node>
	<node lat="60.38793434410296" lon="9.616709813356191" id="-14647">
		<tag k="fixme" v="consider place=hamlet" />
		<tag k="name" v="Solheim" />
		<tag k="place" v="farm" />
		<tag k="ssr:stedsnr" v="856972" />
	</node>
	<node lat="60.41620278217467" lon="9.739975007906947" id="-14648">
		<tag k="alt_name" v="Tjernmyrhytta" />
		<tag k="name" v="Tjernsmyrhytta" />
		<tag k="place" v="isolated_dwelling" />
		<tag k="ssr:stedsnr" v="856995" />
	</node>
	<node lat="60.36373333463266" lon="9.645877771634916" id="-14651">
		<tag k="alt_name" v="Søndre Medbøen" />
		<tag k="name" v="Søre Medbøen" />
		<tag k="place" v="farm" />
		<tag k="ssr:stedsnr" v="889551" />
	</node>
	<node lat="60.35862777701072" lon="9.64858610429934" id="-14653">
		<tag k="name" v="Nordre Sønsteby" />
		<tag k="place" v="farm" />
		<tag k="ssr:stedsnr" v="889556" />
	</node>
	<node lat="60.35200278025032" lon="9.644738887094432" id="-14661">
		<tag k="name" v="Noreng" />
		<tag k="place" v="isolated_dwelling" />
		<tag k="ssr:stedsnr" v="950564" />
	</node>
	<node lat="60.385388889372074" lon="9.635277771248623" id="-14671">
		<tag k="name" v="Øvre Rudningen" />
		<tag k="place" v="locality" />
		<tag k="ssr:stedsnr" v="967275" />
	</node>
	<node lat="60.442127779572026" lon="9.449761107460391" id="-14673">
		<tag k="name" v="Hugnadheim" />
		<tag k="place" v="isolated_dwelling" />
		<tag k="ssr:stedsnr" v="967959" />
	</node>
	<node lat="60.38757222249946" lon="9.424825001830948" id="-14678">
		<tag k="historic" v="shieling" />
		<tag k="name" v="Jonsevollen" />
		<tag k="place" v="isolated_dwelling" />
		<tag k="ssr:stedsnr" v="969353" />
	</node>
	<node lat="60.42956201296481" lon="9.46659649178381" id="-14686">
		<tag k="fixme" v="consider place=hamlet" />
		<tag k="name" v="Vik" />
		<tag k="place" v="farm" />
		<tag k="ssr:stedsnr" v="1072302" />
	</node>
	<node lat="60.49541201073298" lon="9.467624199453843" id="-14697">
		<tag k="alt_name" v="Pålsbu" />
		<tag k="name" v="Knutsbu" />
		<tag k="place" v="farm" />
		<tag k="ssr:stedsnr" v="1078332" />
	</node>
	<node lat="60.53187601265711" lon="9.573722735381157" id="-14701">
		<tag k="name" v="Kanan" />
		<tag k="place" v="farm" />
		<tag k="ssr:stedsnr" v="1081261" />
	</node>
</osm>
