<?xml version="1.0" encoding="UTF-8"?>
<osm version="0.6" generator="osmapis">
	<node lat="61.65366944237747" lon="5.83613056053005" id="-33222">
		<tag k="name" v="Fjellvatnet" />
		<tag k="natural" v="water" />
		<tag k="ssr:stedsnr" v="9704" />
	</node>
	<node lat="61.66437499726879" lon="5.79588610348172" id="-33223">
		<tag k="name" v="Øykjevika" />
		<tag k="natural" v="bay" />
		<tag k="ssr:stedsnr" v="9696" />
	</node>
	<node lat="61.710200004356714" lon="6.482116668383215" id="-33228">
		<tag k="name" v="Skorvevatnet" />
		<tag k="natural" v="water" />
		<tag k="ssr:stedsnr" v="10093" />
	</node>
	<node lat="61.68658610947102" lon="6.063538880226591" id="-33230">
		<tag k="name" v="Skartjønna" />
		<tag k="natural" v="water" />
		<tag k="ssr:stedsnr" v="10299" />
	</node>
	<node lat="61.67317222051714" lon="6.010438881509473" id="-33235">
		<tag k="name" v="Skjenstogrova" />
		<tag k="ssr:stedsnr" v="10318" />
		<tag k="waterway" v="stream" />
	</node>
	<node lat="61.79895555944884" lon="6.046791668453106" id="-33245">
		<tag k="name" v="Breielva" />
		<tag k="ssr:stedsnr" v="10736" />
		<tag k="waterway" v="stream" />
	</node>
	<node lat="61.77107777525541" lon="6.106191671023254" id="-33280">
		<tag k="name" v="Gjerdgrova" />
		<tag k="ssr:stedsnr" v="33116" />
		<tag k="waterway" v="stream" />
	</node>
	<node lat="61.76694444814985" lon="6.401286118223762" id="-33288">
		<tag k="name" v="Skjerdøla" />
		<tag k="ssr:stedsnr" v="33812" />
		<tag k="waterway" v="stream" />
	</node>
	<node lat="61.74381666648096" lon="5.960569448517737" id="-33300">
		<tag k="name" v="Kyra" />
		<tag k="ssr:stedsnr" v="69407" />
		<tag k="waterway" v="stream" />
	</node>
	<node lat="61.72991944226425" lon="5.751055559650396" id="-33302">
		<tag k="name" v="Kvannbotnelva" />
		<tag k="ssr:stedsnr" v="69678" />
		<tag k="waterway" v="stream" />
	</node>
	<node lat="61.7171388888839" lon="5.822252776918267" id="-33304">
		<tag k="name" v="Hopselva" />
		<tag k="ssr:stedsnr" v="69689" />
		<tag k="waterway" v="river" />
	</node>
	<node lat="61.849119448554426" lon="5.950091659677062" id="-33308">
		<tag k="name" v="Skjerdalssvora" />
		<tag k="ssr:stedsnr" v="70643" />
		<tag k="waterway" v="stream" />
	</node>
	<node lat="61.70823888554994" lon="5.811941664411389" id="-33320">
		<tag k="name" v="Osefossen" />
		<tag k="natural" v="waterfall" />
		<tag k="ssr:stedsnr" v="80741" />
	</node>
	<node lat="61.66625833397391" lon="5.8124361143613195" id="-33321">
		<tag k="name" v="Gytta" />
		<tag k="ssr:stedsnr" v="80744" />
		<tag k="waterway" v="stream" />
	</node>
	<node lat="61.65848889042409" lon="5.947322227942969" id="-33325">
		<tag k="name" v="Gjengedalsfossen" />
		<tag k="natural" v="waterfall" />
		<tag k="ssr:stedsnr" v="93267" />
	</node>
	<node lat="61.703388888807396" lon="6.378900001204849" id="-33348">
		<tag k="name" v="Friarvika" />
		<tag k="natural" v="bay" />
		<tag k="ssr:stedsnr" v="94173" />
	</node>
	<node lat="61.71763611041978" lon="6.618605558048635" id="-33361">
		<tag k="name" v="Yste Svoragrova" />
		<tag k="ssr:stedsnr" v="94915" />
		<tag k="waterway" v="stream" />
	</node>
	<node lat="61.73935833475204" lon="6.542183340307745" id="-33363">
		<tag k="name" v="Sameigna" />
		<tag k="ssr:stedsnr" v="94946" />
		<tag k="waterway" v="river" />
	</node>
	<node lat="61.73515555280522" lon="5.849005548178293" id="-33366">
		<tag k="name" v="Lyselva" />
		<tag k="ssr:stedsnr" v="251411" />
		<tag k="waterway" v="stream" />
	</node>
	<node lat="61.73736666450883" lon="5.9042333331233285" id="-33367">
		<tag k="name" v="Hopsvatnet" />
		<tag k="natural" v="water" />
		<tag k="ssr:stedsnr" v="251414" />
		<tag k="water" v="lake" />
	</node>
	<node lat="61.687600001419796" lon="5.788919445814251" id="-33372">
		<tag k="name" v="Slåttestøylsvatnet" />
		<tag k="natural" v="water" />
		<tag k="ssr:stedsnr" v="251702" />
	</node>
	<node lat="61.61885000365824" lon="5.731050005340732" id="-33375">
		<tag k="name" v="Bjørkeneset" />
		<tag k="natural" v="cape" />
		<tag k="ssr:stedsnr" v="251761" />
	</node>
	<node lat="61.8347000023314" lon="6.252827771628938" id="-33377">
		<tag k="name" v="Grønlielva" />
		<tag k="ssr:stedsnr" v="252093" />
		<tag k="waterway" v="stream" />
	</node>
	<node lat="61.64791944160346" lon="6.055188880741432" id="-33382">
		<tag k="name" v="Tverrelva" />
		<tag k="ssr:stedsnr" v="252270" />
		<tag k="waterway" v="stream" />
	</node>
	<node lat="61.73873055856296" lon="6.100513884788776" id="-33388">
		<tag k="name" v="Kyrrdalsvatna" />
		<tag k="natural" v="water" />
		<tag k="ssr:stedsnr" v="252329" />
		<tag k="water" v="lake" />
	</node>
	<node lat="61.73845000235901" lon="6.53058888355745" id="-33398">
		<tag k="name" v="Lonevatnet" />
		<tag k="natural" v="water" />
		<tag k="ssr:stedsnr" v="131120" />
	</node>
	<node lat="61.76457499896932" lon="6.295686105532681" id="-33402">
		<tag k="name" v="Røsskleivvatnet" />
		<tag k="natural" v="water" />
		<tag k="ssr:stedsnr" v="131173" />
	</node>
	<node lat="61.792652778252524" lon="6.714619448425241" id="-33405">
		<tag k="name" v="Blekkhuset" />
		<tag k="natural" v="water" />
		<tag k="ssr:stedsnr" v="131307" />
	</node>
	<node lat="61.78784444782055" lon="6.679619435199095" id="-33406">
		<tag k="name" v="Nørdrebotnen" />
		<tag k="natural" v="water" />
		<tag k="ssr:stedsnr" v="131314" />
	</node>
	<node lat="61.67707777413539" lon="5.901994435655725" id="-33408">
		<tag k="name" v="Vesle Rongkleivvatnet" />
		<tag k="natural" v="water" />
		<tag k="ssr:stedsnr" v="131326" />
	</node>
	<node lat="61.78858610749861" lon="6.535711102171834" id="-33413">
		<tag k="name" v="Tverrelva" />
		<tag k="ssr:stedsnr" v="131209" />
		<tag k="waterway" v="stream" />
	</node>
	<node lat="61.67840555669762" lon="6.094055555352091" id="-33415">
		<tag k="name" v="Storevika" />
		<tag k="natural" v="bay" />
		<tag k="ssr:stedsnr" v="131280" />
	</node>
	<node lat="61.75058333592772" lon="6.042427771519762" id="-33424">
		<tag k="name" v="Veslevatnet" />
		<tag k="natural" v="water" />
		<tag k="ssr:stedsnr" v="131764" />
	</node>
	<node lat="61.765886113093785" lon="5.977413885545027" id="-33425">
		<tag k="name" v="Jonsoksvora" />
		<tag k="ssr:stedsnr" v="252714" />
		<tag k="waterway" v="stream" />
	</node>
	<node lat="61.727236108439676" lon="6.616191659086999" id="-33431">
		<tag k="name" v="Joelva" />
		<tag k="ssr:stedsnr" v="252877" />
		<tag k="waterway" v="stream" />
	</node>
	<node lat="61.72027777914855" lon="6.630280547612239" id="-33432">
		<tag k="name" v="Svoragrova" />
		<tag k="ssr:stedsnr" v="252885" />
		<tag k="waterway" v="stream" />
	</node>
	<node lat="61.693286108154716" lon="6.615033329828314" id="-33433">
		<tag k="name" v="Middagselva" />
		<tag k="ssr:stedsnr" v="252897" />
		<tag k="waterway" v="stream" />
	</node>
	<node lat="61.70276110920891" lon="6.022983325909302" id="-33443">
		<tag k="name" v="Styggelivatnet" />
		<tag k="natural" v="water" />
		<tag k="ssr:stedsnr" v="253379" />
	</node>
	<node lat="61.618494448266695" lon="5.696600007815111" id="-33450">
		<tag k="name" v="Vassendeholmen" />
		<tag k="place" v="islet" />
		<tag k="ssr:stedsnr" v="141690" />
	</node>
	<node lat="61.766780554613945" lon="5.941066675969659" id="-33455">
		<tag k="name" v="Teinegrova" />
		<tag k="ssr:stedsnr" v="153502" />
		<tag k="waterway" v="stream" />
	</node>
	<node lat="61.6787000000765" lon="5.796580564194101" id="-33462">
		<tag k="name" v="Heimeelva" />
		<tag k="ssr:stedsnr" v="153706" />
		<tag k="waterway" v="river" />
	</node>
	<node lat="61.660825002295" lon="5.77745833390059" id="-33465">
		<tag k="name" v="Nordvikane" />
		<tag k="natural" v="bay" />
		<tag k="ssr:stedsnr" v="153752" />
	</node>
	<node lat="61.64219999756795" lon="5.727738885294024" id="-33466">
		<tag k="name" v="Merkeelva" />
		<tag k="ssr:stedsnr" v="153760" />
		<tag k="waterway" v="stream" />
	</node>
	<node lat="61.66787777420955" lon="6.3870777718201674" id="-33472">
		<tag k="name" v="Vetleneset" />
		<tag k="natural" v="cape" />
		<tag k="ssr:stedsnr" v="154167" />
	</node>
	<node lat="61.755288891228474" lon="6.317497225418043" id="-33478">
		<tag k="name" v="Sandvika" />
		<tag k="natural" v="bay" />
		<tag k="ssr:stedsnr" v="154203" />
	</node>
	<node lat="61.722011108774325" lon="6.4024527737202845" id="-33480">
		<tag k="name" v="Varden" />
		<tag k="natural" v="cape" />
		<tag k="ssr:stedsnr" v="154220" />
	</node>
	<node lat="61.72549722326828" lon="6.444461119297571" id="-33488">
		<tag k="name" v="Tungebakkgrova" />
		<tag k="ssr:stedsnr" v="154863" />
		<tag k="waterway" v="stream" />
	</node>
	<node lat="61.64564166250273" lon="5.945147213445991" id="-33500">
		<tag k="name" v="Nobbedalsvatnet" />
		<tag k="natural" v="water" />
		<tag k="ssr:stedsnr" v="191253" />
	</node>
	<node lat="61.653716666224064" lon="6.139166661073572" id="-33503">
		<tag k="alt_name" v="Blåvatnet, in" />
		<tag k="name" v="Inste Blåvatnet" />
		<tag k="natural" v="water" />
		<tag k="ssr:stedsnr" v="191260" />
	</node>
	<node lat="61.653300002944356" lon="6.109052772949325" id="-33504">
		<tag k="name" v="Dalelva" />
		<tag k="ssr:stedsnr" v="191262" />
		<tag k="waterway" v="stream" />
	</node>
	<node lat="61.72458888696206" lon="6.626655546879789" id="-33506">
		<tag k="name" v="Spirefossa" />
		<tag k="ssr:stedsnr" v="191864" />
		<tag k="waterway" v="river" />
	</node>
	<node lat="61.686086113959156" lon="5.83610277785789" id="-33513">
		<tag k="name" v="Fureneset" />
		<tag k="natural" v="cape" />
		<tag k="ssr:stedsnr" v="214286" />
	</node>
	<node lat="61.73018610789762" lon="6.156636110775699" id="-33525">
		<tag k="name" v="Smalekvigrova" />
		<tag k="ssr:stedsnr" v="215073" />
		<tag k="waterway" v="stream" />
	</node>
	<node lat="61.757200000907744" lon="6.177811115649481" id="-33529">
		<tag k="name" v="Nilsgjølgrova" />
		<tag k="ssr:stedsnr" v="215225" />
		<tag k="waterway" v="stream" />
	</node>
	<node lat="61.65632221788199" lon="6.092599995548546" id="-33533">
		<tag k="name" v="Risbotnelva" />
		<tag k="ssr:stedsnr" v="215498" />
		<tag k="waterway" v="river" />
	</node>
	<node lat="61.713294447943625" lon="6.505808333770114" id="-33540">
		<tag k="name" v="Svåragrova" />
		<tag k="ssr:stedsnr" v="215894" />
		<tag k="waterway" v="stream" />
	</node>
	<node lat="61.694177777094474" lon="6.522288886984757" id="-33541">
		<tag k="name" v="Gåsemyrfossen" />
		<tag k="natural" v="waterfall" />
		<tag k="ssr:stedsnr" v="215786" />
	</node>
	<node lat="61.61406666745411" lon="5.680211112494621" id="-33542">
		<tag k="name" v="Øyane" />
		<tag k="place" v="island" />
		<tag k="ssr:stedsnr" v="215905" />
	</node>
	<node lat="61.735161114633044" lon="6.585566657706371" id="-33550">
		<tag k="name" v="Sanddalsvatnet" />
		<tag k="natural" v="water" />
		<tag k="ssr:stedsnr" v="253108" />
		<tag k="water" v="lake" />
	</node>
	<node lat="61.71873611487753" lon="6.2748861167078065" id="-33551">
		<tag k="name" v="Vardevatnet" />
		<tag k="natural" v="water" />
		<tag k="ssr:stedsnr" v="253114" />
	</node>
	<node lat="61.733827782101166" lon="6.36156389033182" id="-33553">
		<tag k="name" v="Breimsvatnet" />
		<tag k="natural" v="water" />
		<tag k="ssr:stedsnr" v="253123" />
		<tag k="water" v="lake" />
	</node>
	<node lat="61.80159166552518" lon="5.926238892705977" id="-33562">
		<tag k="name" v="Skjerdalsvatnet" />
		<tag k="natural" v="water" />
		<tag k="ssr:stedsnr" v="253722" />
	</node>
	<node lat="61.64716666522288" lon="5.9688027694092085" id="-33574">
		<tag k="name" v="Storegrova" />
		<tag k="ssr:stedsnr" v="457430" />
		<tag k="waterway" v="stream" />
	</node>
	<node lat="61.696077780643265" lon="6.043644436710915" id="-33575">
		<tag k="name" v="Vistølelva" />
		<tag k="ssr:stedsnr" v="457457" />
		<tag k="waterway" v="river" />
	</node>
	<node lat="61.65872222426033" lon="5.892641658723513" id="-33595">
		<tag k="name" v="Botnagrova" />
		<tag k="ssr:stedsnr" v="457621" />
		<tag k="waterway" v="stream" />
	</node>
	<node lat="61.708113888340776" lon="5.781788897432327" id="-33602">
		<tag k="name" v="Storeneset" />
		<tag k="natural" v="cape" />
		<tag k="ssr:stedsnr" v="457655" />
	</node>
	<node lat="61.66568889101096" lon="5.776775000147707" id="-33603">
		<tag k="name" v="Grønevika" />
		<tag k="natural" v="bay" />
		<tag k="ssr:stedsnr" v="457657" />
	</node>
	<node lat="61.747136112321584" lon="6.136313881202749" id="-33608">
		<tag k="name" v="Dammen" />
		<tag k="place" v="locality" />
		<tag k="ssr:stedsnr" v="458086" />
	</node>
	<node lat="61.66381111129986" lon="6.208600007446818" id="-33610">
		<tag k="name" v="Blådalselva" />
		<tag k="ssr:stedsnr" v="458052" />
		<tag k="waterway" v="river" />
	</node>
	<node lat="61.75536666328818" lon="6.32146389212483" id="-33611">
		<tag k="name" v="Bergheimsvika" />
		<tag k="natural" v="bay" />
		<tag k="ssr:stedsnr" v="458187" />
	</node>
	<node lat="61.78363333195291" lon="6.066880564863747" id="-33613">
		<tag k="name" v="Knausegrova" />
		<tag k="ssr:stedsnr" v="458137" />
		<tag k="waterway" v="stream" />
	</node>
	<node lat="61.67259166616949" lon="6.407955555782577" id="-33614">
		<tag k="name" v="Årdalselva" />
		<tag k="ssr:stedsnr" v="458144" />
		<tag k="waterway" v="river" />
	</node>
	<node lat="61.72027222659452" lon="6.3608916724169795" id="-33617">
		<tag k="name" v="Retelgrova" />
		<tag k="ssr:stedsnr" v="458200" />
		<tag k="waterway" v="stream" />
	</node>
	<node lat="61.752469448444465" lon="6.252477769477898" id="-33618">
		<tag k="name" v="Kvitegrova" />
		<tag k="ssr:stedsnr" v="458236" />
		<tag k="waterway" v="stream" />
	</node>
	<node lat="61.742366665914595" lon="6.2758361066570165" id="-33621">
		<tag k="name" v="Sageelva" />
		<tag k="ssr:stedsnr" v="458253" />
		<tag k="waterway" v="stream" />
	</node>
	<node lat="61.792716664952636" lon="5.962352787381704" id="-33624">
		<tag k="name" v="Bøasvora" />
		<tag k="ssr:stedsnr" v="458451" />
		<tag k="waterway" v="stream" />
	</node>
	<node lat="61.72564166934194" lon="6.609247212580416" id="-33647">
		<tag k="name" v="Kobberstadneset" />
		<tag k="natural" v="cape" />
		<tag k="ssr:stedsnr" v="458904" />
	</node>
	<node lat="61.72315277672962" lon="5.837691663109605" id="-33650">
		<tag k="name" v="Brekkefossen" />
		<tag k="natural" v="waterfall" />
		<tag k="ssr:stedsnr" v="275212" />
	</node>
	<node lat="61.8525999986925" lon="5.9272194535717775" id="-33653">
		<tag k="name" v="Kvernhuselva" />
		<tag k="ssr:stedsnr" v="275276" />
		<tag k="waterway" v="stream" />
	</node>
	<node lat="61.65304166564998" lon="6.010719446174239" id="-33655">
		<tag k="name" v="Greina" />
		<tag k="place" v="islet" />
		<tag k="ssr:stedsnr" v="275409" />
	</node>
	<node lat="61.681102774520404" lon="5.8463333247674125" id="-33659">
		<tag k="name" v="Langevassgrova" />
		<tag k="ssr:stedsnr" v="275322" />
		<tag k="waterway" v="river" />
	</node>
	<node lat="61.686938891002505" lon="5.8046166669606265" id="-33672">
		<tag k="name" v="Paulvatnet" />
		<tag k="natural" v="water" />
		<tag k="ssr:stedsnr" v="275673" />
		<tag k="water" v="lake" />
	</node>
	<node lat="61.65409722363644" lon="5.799533336266692" id="-33676">
		<tag k="name" v="Svåodden" />
		<tag k="place" v="islet" />
		<tag k="ssr:stedsnr" v="275709" />
	</node>
	<node lat="61.752608331569604" lon="6.074300008899025" id="-33685">
		<tag k="name" v="Røyrvikneset" />
		<tag k="natural" v="cape" />
		<tag k="ssr:stedsnr" v="276030" />
	</node>
	<node lat="61.66420277458733" lon="6.184600008434675" id="-33686">
		<tag k="name" v="Rundetjørna" />
		<tag k="natural" v="water" />
		<tag k="ssr:stedsnr" v="276048" />
	</node>
	<node lat="61.69108333017683" lon="6.330661106778497" id="-33693">
		<tag k="name" v="Stølselva" />
		<tag k="ssr:stedsnr" v="276181" />
		<tag k="waterway" v="river" />
	</node>
	<node lat="61.70848888871931" lon="6.415399991255662" id="-33702">
		<tag k="name" v="Instegrova" />
		<tag k="ssr:stedsnr" v="276903" />
		<tag k="waterway" v="stream" />
	</node>
	<node lat="61.710500003894104" lon="6.275366670011906" id="-33708">
		<tag k="name" v="Trollevatnet" />
		<tag k="natural" v="water" />
		<tag k="ssr:stedsnr" v="313107" />
	</node>
	<node lat="61.75123611110126" lon="6.283858331028945" id="-33710">
		<tag k="name" v="Ryssdalsnes" />
		<tag k="natural" v="cape" />
		<tag k="ssr:stedsnr" v="313162" />
	</node>
	<node lat="61.690811115525385" lon="6.021258337419705" id="-33714">
		<tag k="name" v="Skvetten" />
		<tag k="natural" v="water" />
		<tag k="ssr:stedsnr" v="313312" />
	</node>
	<node lat="61.69232222358793" lon="6.10851944986452" id="-33715">
		<tag k="fixme" v="multiple name tags, choose one and add the other to alt_name" />
		<tag k="name" v="Sameignegrova;Hjellagrova" />
		<tag k="ssr:stedsnr" v="313318" />
		<tag k="waterway" v="stream" />
	</node>
	<node lat="61.718208331108634" lon="5.918858336639586" id="-33718">
		<tag k="name" v="Åvatnet" />
		<tag k="natural" v="water" />
		<tag k="ssr:stedsnr" v="313368" />
		<tag k="water" v="lake" />
	</node>
	<node lat="61.703916668662124" lon="6.4874000092600035" id="-33722">
		<tag k="name" v="Ytrevatnet" />
		<tag k="natural" v="water" />
		<tag k="ssr:stedsnr" v="314079" />
	</node>
	<node lat="61.663977775563126" lon="5.86146111073365" id="-33725">
		<tag k="name" v="Skorvatnet" />
		<tag k="natural" v="water" />
		<tag k="ssr:stedsnr" v="314320" />
	</node>
	<node lat="61.792008336380476" lon="6.072438880601745" id="-33730">
		<tag k="name" v="Geitavadgrova" />
		<tag k="ssr:stedsnr" v="336103" />
		<tag k="waterway" v="stream" />
	</node>
	<node lat="61.65241944294821" lon="5.808202774484893" id="-33764">
		<tag k="name" v="Svartegrova" />
		<tag k="ssr:stedsnr" v="336703" />
		<tag k="waterway" v="stream" />
	</node>
	<node lat="61.681911108473905" lon="6.048005558367466" id="-33778">
		<tag k="name" v="Støylselva" />
		<tag k="ssr:stedsnr" v="373719" />
		<tag k="waterway" v="stream" />
	</node>
	<node lat="61.62612500273322" lon="5.747858324983679" id="-33779">
		<tag k="name" v="Fureneset" />
		<tag k="natural" v="cape" />
		<tag k="ssr:stedsnr" v="373794" />
	</node>
	<node lat="61.68481388446737" lon="6.634627777531735" id="-33781">
		<tag k="name" v="Støylselvane" />
		<tag k="ssr:stedsnr" v="373924" />
		<tag k="waterway" v="stream" />
	</node>
	<node lat="61.70996666881754" lon="6.459863897468519" id="-33784">
		<tag k="name" v="Bøavatnet" />
		<tag k="natural" v="water" />
		<tag k="ssr:stedsnr" v="374096" />
	</node>
	<node lat="61.796819446391055" lon="6.319913880140681" id="-33785">
		<tag k="name" v="Skarshammarvatnet" />
		<tag k="natural" v="water" />
		<tag k="ssr:stedsnr" v="374100" />
	</node>
	<node lat="61.73345000443777" lon="6.278377783165613" id="-33787">
		<tag k="name" v="Tverrlielva" />
		<tag k="ssr:stedsnr" v="374140" />
		<tag k="waterway" v="stream" />
	</node>
	<node lat="61.66414166346538" lon="5.89702500677809" id="-33788">
		<tag k="name" v="Breivadelva" />
		<tag k="ssr:stedsnr" v="374315" />
		<tag k="waterway" v="stream" />
	</node>
	<node lat="61.688683336022166" lon="6.015583326201712" id="-33789">
		<tag k="name" v="Blåsevatnet" />
		<tag k="natural" v="water" />
		<tag k="ssr:stedsnr" v="374341" />
	</node>
	<node lat="61.68204444529301" lon="6.13243888147785" id="-33791">
		<tag k="name" v="Måsevasselva" />
		<tag k="ssr:stedsnr" v="374356" />
		<tag k="waterway" v="stream" />
	</node>
	<node lat="61.68325277799524" lon="5.910730551734071" id="-33804">
		<tag k="name" v="Fjellgrova" />
		<tag k="ssr:stedsnr" v="396304" />
		<tag k="waterway" v="stream" />
	</node>
	<node lat="61.831227781351515" lon="6.001300002534823" id="-33806">
		<tag k="name" v="Høgeligrova" />
		<tag k="ssr:stedsnr" v="396377" />
		<tag k="waterway" v="stream" />
	</node>
	<node lat="61.70159999786615" lon="5.913655563299018" id="-33807">
		<tag k="name" v="Rekevika" />
		<tag k="natural" v="bay" />
		<tag k="ssr:stedsnr" v="396285" />
	</node>
	<node lat="61.741519441439976" lon="6.143983332462581" id="-33819">
		<tag k="name" v="Osen" />
		<tag k="natural" v="bay" />
		<tag k="ssr:stedsnr" v="397080" />
	</node>
	<node lat="61.724566669222156" lon="6.165502782764703" id="-33821">
		<tag k="name" v="Ångsdalsneset" />
		<tag k="natural" v="cape" />
		<tag k="ssr:stedsnr" v="397094" />
	</node>
	<node lat="61.73003888510936" lon="5.792152779055522" id="-33840">
		<tag k="name" v="Langevatnet" />
		<tag k="natural" v="water" />
		<tag k="ssr:stedsnr" v="433626" />
	</node>
	<node lat="61.82511944576771" lon="6.288738883088892" id="-33844">
		<tag k="fixme" v="multiple name tags, choose one and add the other to alt_name" />
		<tag k="name" v="Svartevatnet;Demmevatnet" />
		<tag k="natural" v="water" />
		<tag k="ssr:stedsnr" v="434102" />
	</node>
	<node lat="61.6169944469795" lon="5.806549993680357" id="-33845">
		<tag k="name" v="Dyttingedalsvatnet" />
		<tag k="natural" v="water" />
		<tag k="ssr:stedsnr" v="434703" />
	</node>
	<node lat="61.72101666511774" lon="6.4809694511913065" id="-33848">
		<tag k="alt_name" v="Skarveelva" />
		<tag k="name" v="Skorva" />
		<tag k="ssr:stedsnr" v="435124" />
		<tag k="waterway" v="stream" />
	</node>
	<node lat="61.726327780619876" lon="6.528963896842965" id="-33851">
		<tag k="name" v="Fuglaskredgrova" />
		<tag k="ssr:stedsnr" v="435142" />
		<tag k="waterway" v="stream" />
	</node>
	<node lat="61.755711111484395" lon="6.24656389062411" id="-33854">
		<tag k="name" v="Eidsfossen" />
		<tag k="natural" v="waterfall" />
		<tag k="ssr:stedsnr" v="435163" />
	</node>
	<node lat="61.66389722412713" lon="5.968188897720439" id="-33855">
		<tag k="name" v="Gardsstøylgrova" />
		<tag k="ssr:stedsnr" v="435318" />
		<tag k="waterway" v="stream" />
	</node>
	<node lat="61.660055555361204" lon="5.877963883162125" id="-33856">
		<tag k="name" v="Botnagrova" />
		<tag k="ssr:stedsnr" v="435324" />
		<tag k="waterway" v="stream" />
	</node>
	<node lat="61.670216664340515" lon="5.867102770265404" id="-33859">
		<tag k="name" v="Langevatnet" />
		<tag k="natural" v="water" />
		<tag k="ssr:stedsnr" v="435379" />
	</node>
	<node lat="61.693911111282276" lon="6.118972229331359" id="-33860">
		<tag k="name" v="Fosselva" />
		<tag k="ssr:stedsnr" v="435385" />
		<tag k="waterway" v="stream" />
	</node>
	<node lat="61.69577777893882" lon="5.936811112429496" id="-33862">
		<tag k="name" v="Breidalsgrova" />
		<tag k="ssr:stedsnr" v="435411" />
		<tag k="waterway" v="stream" />
	</node>
	<node lat="61.81197500122913" lon="5.924136111123284" id="-33867">
		<tag k="name" v="Tverrelva" />
		<tag k="ssr:stedsnr" v="435722" />
		<tag k="waterway" v="stream" />
	</node>
	<node lat="61.7547527820741" lon="6.074608325214455" id="-33870">
		<tag k="name" v="Gjelsvikneset" />
		<tag k="natural" v="cape" />
		<tag k="ssr:stedsnr" v="435766" />
	</node>
	<node lat="61.70364444653308" lon="5.917788898093686" id="-33878">
		<tag k="name" v="Trollkåreneset" />
		<tag k="natural" v="cape" />
		<tag k="ssr:stedsnr" v="457310" />
	</node>
	<node lat="61.674083333489214" lon="5.804080557941538" id="-33886">
		<tag k="name" v="Bruravika" />
		<tag k="natural" v="bay" />
		<tag k="ssr:stedsnr" v="457666" />
	</node>
	<node lat="61.76697221915386" lon="6.125677780438238" id="-33890">
		<tag k="name" v="Vetleelva" />
		<tag k="ssr:stedsnr" v="458012" />
		<tag k="waterway" v="river" />
	</node>
	<node lat="61.798108334029024" lon="6.099086104981453" id="-33894">
		<tag k="name" v="Skorgeelva" />
		<tag k="ssr:stedsnr" v="458077" />
		<tag k="waterway" v="river" />
	</node>
	<node lat="61.84332778173702" lon="5.979277770579645" id="-33903">
		<tag k="name" v="Løypeelva" />
		<tag k="ssr:stedsnr" v="458475" />
		<tag k="waterway" v="stream" />
	</node>
	<node lat="61.741441663474546" lon="6.553008341127469" id="-33907">
		<tag k="name" v="Uraneset" />
		<tag k="natural" v="cape" />
		<tag k="ssr:stedsnr" v="458929" />
	</node>
	<node lat="61.65481666407645" lon="6.556002784459988" id="-33915">
		<tag k="name" v="Øvredalsvatnet" />
		<tag k="natural" v="water" />
		<tag k="ssr:stedsnr" v="677051" />
	</node>
	<node lat="61.65369444198117" lon="6.486019448101316" id="-33916">
		<tag k="name" v="Svartevatnet" />
		<tag k="natural" v="water" />
		<tag k="ssr:stedsnr" v="677056" />
	</node>
	<node lat="61.661858334965906" lon="6.344802770528445" id="-33918">
		<tag k="name" v="Blådalselva" />
		<tag k="ssr:stedsnr" v="677072" />
		<tag k="waterway" v="stream" />
	</node>
	<node lat="61.6751011680022" lon="6.283253901652357" id="-33920">
		<tag k="name" v="Sørsendalsvatna" />
		<tag k="natural" v="water" />
		<tag k="ssr:stedsnr" v="677077" />
		<tag k="water" v="lake" />
	</node>
	<node lat="61.7652388864947" lon="6.492311112318161" id="-33923">
		<tag k="name" v="Vesletjønna" />
		<tag k="natural" v="water" />
		<tag k="ssr:stedsnr" v="677152" />
	</node>
	<node lat="61.779202778982715" lon="5.940294437382177" id="-33932">
		<tag k="name" v="Selvågssvora" />
		<tag k="ssr:stedsnr" v="677746" />
		<tag k="waterway" v="stream" />
	</node>
	<node lat="61.830363892733665" lon="5.872716671524307" id="-33934">
		<tag k="name" v="Middagsvatnet" />
		<tag k="natural" v="water" />
		<tag k="ssr:stedsnr" v="677651" />
	</node>
	<node lat="61.71336388958077" lon="6.608230558114473" id="-33936">
		<tag k="name" v="Storelva" />
		<tag k="ssr:stedsnr" v="677706" />
		<tag k="waterway" v="river" />
	</node>
	<node lat="61.73224999935765" lon="6.488383342540958" id="-33937">
		<tag k="name" v="Storelva" />
		<tag k="ssr:stedsnr" v="677710" />
		<tag k="waterway" v="river" />
	</node>
	<node lat="61.81478889046548" lon="6.2044500074975515" id="-33940">
		<tag k="name" v="Lomvatnet" />
		<tag k="natural" v="water" />
		<tag k="ssr:stedsnr" v="677722" />
	</node>
	<node lat="61.65898888575434" lon="6.644252771097885" id="-33942">
		<tag k="name" v="Sandgrova" />
		<tag k="ssr:stedsnr" v="677945" />
		<tag k="waterway" v="stream" />
	</node>
</osm>
