<?xml version="1.0" encoding="UTF-8"?>
<osm version="0.6" generator="osmapis">
	<node lat="61.71443055281366" lon="6.359111102259836" id="-78990">
		<tag k="alt_name" v="Restølen" />
		<tag k="historic" v="shieling" />
		<tag k="name" v="Restøylen" />
		<tag k="place" v="isolated_dwelling" />
		<tag k="ssr:stedsnr" v="10102" />
	</node>
	<node lat="61.755327776079" lon="6.327636110461217" id="-78995">
		<tag k="name" v="Brendene" />
		<tag k="place" v="isolated_dwelling" />
		<tag k="ssr:stedsnr" v="10137" />
	</node>
	<node lat="61.7466111139021" lon="6.3761944397679065" id="-78998">
		<tag k="alt_name" v="Sagefloten" />
		<tag k="name" v="Sagerfloten" />
		<tag k="place" v="farm" />
		<tag k="ssr:stedsnr" v="10142" />
	</node>
	<node lat="61.68518333011616" lon="5.919033334285222" id="-79024">
		<tag k="name" v="Åsen" />
		<tag k="place" v="farm" />
		<tag k="ssr:stedsnr" v="32294" />
	</node>
	<node lat="61.770961114668715" lon="6.221536101496918" id="-79065">
		<tag k="name" v="Ulvesbakken" />
		<tag k="place" v="quarter" />
		<tag k="ssr:stedsnr" v="59722" />
	</node>
	<node lat="61.826105556342895" lon="6.260008335510766" id="-79071">
		<tag k="name" v="Leite" />
		<tag k="place" v="locality" />
		<tag k="ssr:stedsnr" v="70092" />
	</node>
	<node lat="61.6980750036875" lon="6.556733335172248" id="-79079">
		<tag k="name" v="Strandastøylen" />
		<tag k="place" v="locality" />
		<tag k="ssr:stedsnr" v="71071" />
	</node>
	<node lat="61.69614079789733" lon="6.529513019693651" id="-79081">
		<tag k="fixme" v="consider place=hamlet" />
		<tag k="name" v="Gåsemyr" />
		<tag k="place" v="farm" />
		<tag k="ssr:stedsnr" v="71077" />
	</node>
	<node lat="61.76204444305767" lon="6.50386944004414" id="-79082">
		<tag k="name" v="Svoda" />
		<tag k="place" v="isolated_dwelling" />
		<tag k="ssr:stedsnr" v="71180" />
	</node>
	<node lat="61.645127775808916" lon="5.699647224055024" id="-79107">
		<tag k="historic" v="shieling" />
		<tag k="name" v="Reidarognen" />
		<tag k="place" v="isolated_dwelling" />
		<tag k="ssr:stedsnr" v="93678" />
	</node>
	<node lat="61.688827774818904" lon="6.373236105770185" id="-79115">
		<tag k="name" v="Rabben" />
		<tag k="place" v="farm" />
		<tag k="ssr:stedsnr" v="94175" />
	</node>
	<node lat="61.7263972227783" lon="6.300680555350143" id="-79117">
		<tag k="historic" v="shieling" />
		<tag k="name" v="Systølen" />
		<tag k="place" v="isolated_dwelling" />
		<tag k="ssr:stedsnr" v="94205" />
	</node>
	<node lat="61.679024998753725" lon="5.792950000052993" id="-79139">
		<tag k="name" v="Skogheim" />
		<tag k="place" v="farm" />
		<tag k="ssr:stedsnr" v="251710" />
	</node>
	<node lat="61.66536111134433" lon="5.732847219752604" id="-79140">
		<tag k="alt_name" v="Storevasshogen" />
		<tag k="name" v="Storevasshaugen" />
		<tag k="place" v="isolated_dwelling" />
		<tag k="ssr:stedsnr" v="251718" />
	</node>
	<node lat="61.67034444487559" lon="6.428161104148612" id="-79145">
		<tag k="fixme" v="consider place=hamlet" />
		<tag k="name" v="Årdal" />
		<tag k="place" v="village" />
		<tag k="ssr:stedsnr" v="252061" />
	</node>
	<node lat="61.74751666429157" lon="5.945380549962575" id="-79156">
		<tag k="name" v="Fureholmen" />
		<tag k="place" v="farm" />
		<tag k="ssr:stedsnr" v="129389" />
	</node>
	<node lat="61.72578333437252" lon="6.52323332942602" id="-79160">
		<tag k="alt_name" v="Bjørkelo" />
		<tag k="name" v="Åland" />
		<tag k="place" v="farm" />
		<tag k="ssr:stedsnr" v="131111" />
	</node>
	<node lat="61.73356131614257" lon="6.422234857852333" id="-79161">
		<tag k="fixme" v="consider place=hamlet" />
		<tag k="name" v="Råd" />
		<tag k="place" v="farm" />
		<tag k="ssr:stedsnr" v="131114" />
	</node>
	<node lat="61.73921123223211" lon="6.4978846570444055" id="-79163">
		<tag k="fixme" v="consider place=hamlet" />
		<tag k="name" v="Kleppe" />
		<tag k="place" v="farm" />
		<tag k="ssr:stedsnr" v="131116" />
	</node>
	<node lat="61.74038827887846" lon="6.468034028977128" id="-79165">
		<tag k="alt_name" v="Sætre øvre;Sætre nedre" />
		<tag k="fixme" v="consider place=hamlet" />
		<tag k="name" v="Sætre" />
		<tag k="place" v="farm" />
		<tag k="ssr:stedsnr" v="131123" />
	</node>
	<node lat="61.77842777456396" lon="6.513311112503176" id="-79167">
		<tag k="name" v="Brekka" />
		<tag k="place" v="isolated_dwelling" />
		<tag k="ssr:stedsnr" v="131169" />
	</node>
	<node lat="61.66724166775782" lon="5.874077772685153" id="-79173">
		<tag k="historic" v="shieling" />
		<tag k="name" v="Rongkleivstøylen" />
		<tag k="place" v="isolated_dwelling" />
		<tag k="ssr:stedsnr" v="131319" />
	</node>
	<node lat="61.70893473755792" lon="6.521058591064195" id="-79178">
		<tag k="fixme" v="consider place=hamlet" />
		<tag k="name" v="Hjelle" />
		<tag k="place" v="farm" />
		<tag k="ssr:stedsnr" v="131090" />
	</node>
	<node lat="61.83287221836595" lon="6.186802784223462" id="-79187">
		<tag k="name" v="Indrebø" />
		<tag k="place" v="farm" />
		<tag k="ssr:stedsnr" v="252665" />
	</node>
	<node lat="61.78371388780731" lon="6.184011119963811" id="-79189">
		<tag k="name" v="Døsen" />
		<tag k="place" v="farm" />
		<tag k="ssr:stedsnr" v="252712" />
	</node>
	<node lat="61.749969445925515" lon="5.9467999907025915" id="-79194">
		<tag k="name" v="Gjerdvika" />
		<tag k="place" v="locality" />
		<tag k="ssr:stedsnr" v="252754" />
	</node>
	<node lat="61.702080551519835" lon="6.428577771124132" id="-79202">
		<tag k="alt_name" v="Rådastølen;Seimsstøylen" />
		<tag k="historic" v="shieling" />
		<tag k="name" v="Rådastøylen" />
		<tag k="place" v="isolated_dwelling" />
		<tag k="ssr:stedsnr" v="253091" />
	</node>
	<node lat="61.75902777839849" lon="6.258377785488797" id="-79204">
		<tag k="alt_name" v="Jarbrugden" />
		<tag k="name" v="Jarbu" />
		<tag k="place" v="farm" />
		<tag k="ssr:stedsnr" v="253148" />
	</node>
	<node lat="61.758955616545286" lon="6.229595591365583" id="-79205">
		<tag k="fixme" v="consider place=hamlet" />
		<tag k="name" v="Søreide" />
		<tag k="place" v="farm" />
		<tag k="ssr:stedsnr" v="253151" />
	</node>
	<node lat="61.7595138869096" lon="6.242222228405517" id="-79206">
		<tag k="name" v="Leirbakken" />
		<tag k="place" v="farm" />
		<tag k="ssr:stedsnr" v="253154" />
	</node>
	<node lat="61.74555000167869" lon="6.391874991015271" id="-79208">
		<tag k="name" v="Solheim" />
		<tag k="place" v="farm" />
		<tag k="ssr:stedsnr" v="253164" />
	</node>
	<node lat="61.79110277852716" lon="6.193413887371924" id="-79211">
		<tag k="alt_name" v="Haugeli" />
		<tag k="name" v="Haugslia" />
		<tag k="place" v="farm" />
		<tag k="ssr:stedsnr" v="253768" />
	</node>
	<node lat="61.820805554471086" lon="5.942766667748873" id="-79220">
		<tag k="historic" v="shieling" />
		<tag k="name" v="Gardstølen" />
		<tag k="place" v="isolated_dwelling" />
		<tag k="ssr:stedsnr" v="153382" />
	</node>
	<node lat="61.73491944430924" lon="5.876386104368967" id="-79263">
		<tag k="fixme" v="consider place=hamlet" />
		<tag k="name" v="Hope" />
		<tag k="place" v="village" />
		<tag k="ssr:stedsnr" v="190415" />
	</node>
	<node lat="61.73521110685335" lon="6.454452773480812" id="-79301">
		<tag k="name" v="Kapellangarden" />
		<tag k="place" v="farm" />
		<tag k="ssr:stedsnr" v="215802" />
	</node>
	<node lat="61.73851389085628" lon="6.451886106786137" id="-79323">
		<tag k="name" v="Nyland" />
		<tag k="place" v="farm" />
		<tag k="ssr:stedsnr" v="253129" />
	</node>
	<node lat="61.7454062659122" lon="6.5449085898276245" id="-79324">
		<tag k="fixme" v="consider place=hamlet" />
		<tag k="name" v="Torheim" />
		<tag k="place" v="farm" />
		<tag k="ssr:stedsnr" v="253140" />
	</node>
	<node lat="61.6847142622387" lon="6.375184628745176" id="-79326">
		<tag k="fixme" v="consider place=hamlet" />
		<tag k="name" v="Skarstein" />
		<tag k="place" v="farm" />
		<tag k="ssr:stedsnr" v="253079" />
	</node>
	<node lat="61.69670833666121" lon="6.115508328227326" id="-79328">
		<tag k="name" v="Haugen" />
		<tag k="place" v="locality" />
		<tag k="ssr:stedsnr" v="253397" />
	</node>
	<node lat="61.74380277636543" lon="6.436944453916349" id="-79403">
		<tag k="name" v="Blåteigen" />
		<tag k="place" v="farm" />
		<tag k="ssr:stedsnr" v="458789" />
	</node>
	<node lat="61.75791944874094" lon="6.163055547554101" id="-79453">
		<tag k="historic" v="shieling" />
		<tag k="name" v="Varstølen" />
		<tag k="place" v="isolated_dwelling" />
		<tag k="ssr:stedsnr" v="276014" />
	</node>
	<node lat="61.6499444414881" lon="5.923563894902104" id="-79477">
		<tag k="historic" v="shieling" />
		<tag k="name" v="Mjelleimsstøylen" />
		<tag k="place" v="isolated_dwelling" />
		<tag k="ssr:stedsnr" v="312303" />
	</node>
	<node lat="61.8253295138225" lon="6.174030069957285" id="-79491">
		<tag k="fixme" v="consider place=hamlet" />
		<tag k="name" v="Føleide" />
		<tag k="place" v="farm" />
		<tag k="ssr:stedsnr" v="313703" />
	</node>
	<node lat="61.77077838459851" lon="6.155348384980411" id="-79572">
		<tag k="alt_name" v="Arnestad ytre" />
		<tag k="name" v="Ytre Arnestad" />
		<tag k="place" v="farm" />
		<tag k="ssr:stedsnr" v="395437" />
	</node>
	<node lat="61.76040278188484" lon="6.483230562089896" id="-79612">
		<tag k="name" v="Breimslia" />
		<tag k="place" v="neighbourhood" />
		<tag k="ssr:stedsnr" v="420612" />
	</node>
	<node lat="61.696548303121894" lon="6.373077080596146" id="-79620">
		<tag k="fixme" v="consider place=hamlet" />
		<tag k="name" v="Nes" />
		<tag k="place" v="farm" />
		<tag k="ssr:stedsnr" v="435115" />
	</node>
	<node lat="61.725024995650486" lon="6.232277774440235" id="-79622">
		<tag k="alt_name" v="Mardalstølen" />
		<tag k="historic" v="shieling" />
		<tag k="name" v="Mardalsstøylen" />
		<tag k="place" v="isolated_dwelling" />
		<tag k="ssr:stedsnr" v="435135" />
	</node>
	<node lat="61.72335833038649" lon="6.508519490670798" id="-79623">
		<tag k="fixme" v="consider place=hamlet" />
		<tag k="name" v="Teita" />
		<tag k="place" v="farm" />
		<tag k="ssr:stedsnr" v="435139" />
	</node>
	<node lat="61.81889378435281" lon="6.158991395459247" id="-79639">
		<tag k="fixme" v="consider place=hamlet" />
		<tag k="name" v="Åsebø" />
		<tag k="place" v="farm" />
		<tag k="ssr:stedsnr" v="435713" />
	</node>
	<node lat="61.7389444440192" lon="6.342047214695387" id="-79671">
		<tag k="historic" v="shieling" />
		<tag k="name" v="Rimstølen" />
		<tag k="place" v="isolated_dwelling" />
		<tag k="ssr:stedsnr" v="458219" />
	</node>
	<node lat="61.79080555403767" lon="6.079330556171459" id="-79674">
		<tag k="historic" v="shieling" />
		<tag k="name" v="Gamlestølen" />
		<tag k="place" v="isolated_dwelling" />
		<tag k="ssr:stedsnr" v="458123" />
	</node>
	<node lat="61.620791668722724" lon="5.705211111085539" id="-79688">
		<tag k="name" v="Solvang" />
		<tag k="place" v="farm" />
		<tag k="ssr:stedsnr" v="676728" />
	</node>
	<node lat="61.670533687611666" lon="6.438474655489843" id="-79691">
		<tag k="fixme" v="consider place=hamlet" />
		<tag k="name" v="Frøystad" />
		<tag k="place" v="farm" />
		<tag k="ssr:stedsnr" v="677061" />
	</node>
	<node lat="61.79024721799166" lon="6.442602777332468" id="-79698">
		<tag k="name" v="Hytteranten" />
		<tag k="place" v="locality" />
		<tag k="ssr:stedsnr" v="677164" />
	</node>
	<node lat="61.83091111460011" lon="6.010255552701828" id="-79707">
		<tag k="historic" v="shieling" />
		<tag k="name" v="Eikenesstøylen" />
		<tag k="place" v="isolated_dwelling" />
		<tag k="ssr:stedsnr" v="677648" />
	</node>
	<node lat="61.68437778234433" lon="6.1938888944307715" id="-79719">
		<tag k="name" v="Bjørnasteinen" />
		<tag k="place" v="isolated_dwelling" />
		<tag k="ssr:stedsnr" v="678352" />
	</node>
	<node lat="61.66521076433264" lon="5.910245312396887" id="-79721">
		<tag k="alt_name" v="Rønnekleiv" />
		<tag k="fixme" v="consider place=hamlet" />
		<tag k="name" v="Rongkleiv" />
		<tag k="place" v="farm" />
		<tag k="ssr:stedsnr" v="678356" />
	</node>
	<node lat="61.74852755079719" lon="5.944998886292959" id="-79724">
		<tag k="fixme" v="consider place=hamlet" />
		<tag k="name" v="Holme" />
		<tag k="place" v="farm" />
		<tag k="ssr:stedsnr" v="493387" />
	</node>
	<node lat="61.65500833062073" lon="5.7853333314987045" id="-79725">
		<tag k="name" v="Nesholmen" />
		<tag k="ssr:stedsnr" v="494671" />
		<tag k="tourism" v="hotel" />
	</node>
	<node lat="61.65830358414245" lon="6.36707212049398" id="-79731">
		<tag k="fixme" v="consider place=hamlet" />
		<tag k="name" v="Mykland" />
		<tag k="place" v="farm" />
		<tag k="ssr:stedsnr" v="495080" />
	</node>
	<node lat="61.74268232783788" lon="6.504680218717681" id="-79735">
		<tag k="fixme" v="consider place=hamlet" />
		<tag k="name" v="Støyva" />
		<tag k="place" v="farm" />
		<tag k="ssr:stedsnr" v="495146" />
	</node>
	<node lat="61.81256389053323" lon="6.161752785992604" id="-79743">
		<tag k="name" v="Lidarende" />
		<tag k="place" v="farm" />
		<tag k="ssr:stedsnr" v="495714" />
	</node>
	<node lat="61.76182221783733" lon="6.190927777709524" id="-79761">
		<tag k="alt_name" v="Fitje indre" />
		<tag k="name" v="Indre Fitje" />
		<tag k="place" v="farm" />
		<tag k="ssr:stedsnr" v="518207" />
	</node>
	<node lat="61.642797226222704" lon="5.7030527814950664" id="-79782">
		<tag k="historic" v="shieling" />
		<tag k="name" v="Røsta" />
		<tag k="place" v="isolated_dwelling" />
		<tag k="ssr:stedsnr" v="518731" />
	</node>
	<node lat="61.66411388836593" lon="6.517208327376697" id="-79801">
		<tag k="historic" v="shieling" />
		<tag k="name" v="Bergheimstølen" />
		<tag k="place" v="isolated_dwelling" />
		<tag k="ssr:stedsnr" v="519778" />
	</node>
	<node lat="61.67783333371924" lon="6.454699998051982" id="-79813">
		<tag k="historic" v="shieling" />
		<tag k="name" v="Årdalsstøylen" />
		<tag k="place" v="isolated_dwelling" />
		<tag k="ssr:stedsnr" v="555066" />
	</node>
	<node lat="61.74460516138654" lon="6.403201035079334" id="-79820">
		<tag k="fixme" v="consider place=hamlet" />
		<tag k="name" v="Kvile" />
		<tag k="place" v="farm" />
		<tag k="ssr:stedsnr" v="556162" />
	</node>
	<node lat="61.71976250347143" lon="6.522568084188395" id="-79821">
		<tag k="fixme" v="consider place=hamlet" />
		<tag k="name" v="Bergheim" />
		<tag k="place" v="farm" />
		<tag k="ssr:stedsnr" v="556113" />
	</node>
	<node lat="61.74292499796385" lon="6.397736106065922" id="-79870">
		<tag k="name" v="Myrane" />
		<tag k="place" v="farm" />
		<tag k="ssr:stedsnr" v="579191" />
	</node>
	<node lat="61.726849996143336" lon="6.160544439731415" id="-79939">
		<tag k="historic" v="shieling" />
		<tag k="name" v="Rønningestølen" />
		<tag k="place" v="isolated_dwelling" />
		<tag k="ssr:stedsnr" v="701086" />
	</node>
	<node lat="61.66406944196682" lon="6.0718000062996325" id="-79955">
		<tag k="historic" v="shieling" />
		<tag k="name" v="Dalen" />
		<tag k="place" v="isolated_dwelling" />
		<tag k="ssr:stedsnr" v="615255" />
	</node>
	<node lat="61.73607674278196" lon="6.450492909140782" id="-79961">
		<tag k="fixme" v="consider place=hamlet" />
		<tag k="name" v="Flølo" />
		<tag k="place" v="farm" />
		<tag k="ssr:stedsnr" v="616108" />
	</node>
	<node lat="61.75492861919098" lon="6.366304663974271" id="-79962">
		<tag k="fixme" v="consider place=hamlet" />
		<tag k="name" v="Dale" />
		<tag k="place" v="farm" />
		<tag k="ssr:stedsnr" v="616141" />
	</node>
	<node lat="61.81529721970168" lon="6.1267527790964875" id="-79973">
		<tag k="name" v="Teigen" />
		<tag k="place" v="farm" />
		<tag k="ssr:stedsnr" v="616690" />
	</node>
	<node lat="61.76217574557897" lon="6.238577097619164" id="-79980">
		<tag k="fixme" v="consider place=hamlet" />
		<tag k="name" v="Eide" />
		<tag k="place" v="farm" />
		<tag k="ssr:stedsnr" v="617209" />
	</node>
	<node lat="61.77029722499826" lon="6.229577783588837" id="-79981">
		<tag k="name" v="Ulvesbakken" />
		<tag k="place" v="farm" />
		<tag k="ssr:stedsnr" v="617212" />
	</node>
	<node lat="61.66010148721609" lon="5.948545879236306" id="-79982">
		<tag k="alt_name" v="Gjengedal" />
		<tag k="fixme" v="consider place=hamlet" />
		<tag k="name" v="Gjengedalen" />
		<tag k="place" v="farm" />
		<tag k="ssr:stedsnr" v="617320" />
	</node>
	<node lat="61.660880551079416" lon="6.514147217017326" id="-79986">
		<tag k="historic" v="shieling" />
		<tag k="name" v="Stokkestølen" />
		<tag k="place" v="isolated_dwelling" />
		<tag k="ssr:stedsnr" v="701820" />
	</node>
	<node lat="61.74834444147195" lon="5.945847217610952" id="-80037">
		<tag k="name" v="Holme" />
		<tag k="place" v="farm" />
		<tag k="ssr:stedsnr" v="706054" />
	</node>
	<node lat="61.76928055615214" lon="6.209058340289268" id="-80039">
		<tag k="name" v="Åsen" />
		<tag k="place" v="quarter" />
		<tag k="ssr:stedsnr" v="666713" />
	</node>
	<node lat="61.730283335452036" lon="5.919624991936009" id="-80041">
		<tag k="alt_name" v="Aa" />
		<tag k="fixme" v="consider place=hamlet" />
		<tag k="name" v="Å" />
		<tag k="place" v="village" />
		<tag k="ssr:stedsnr" v="676400" />
	</node>
	<node lat="61.74483796643746" lon="6.444747104319728" id="-80045">
		<tag k="fixme" v="consider place=hamlet" />
		<tag k="name" v="Skinlo" />
		<tag k="place" v="farm" />
		<tag k="ssr:stedsnr" v="677135" />
	</node>
	<node lat="61.81318888809896" lon="6.180191667141472" id="-80056">
		<tag k="historic" v="shieling" />
		<tag k="name" v="Tystadstøylen" />
		<tag k="place" v="isolated_dwelling" />
		<tag k="ssr:stedsnr" v="677701" />
	</node>
	<node lat="61.78908142163255" lon="6.193598449878979" id="-80057">
		<tag k="name" v="Gjørane" />
		<tag k="place" v="farm" />
		<tag k="ssr:stedsnr" v="677738" />
	</node>
	<node lat="61.76154166891319" lon="6.132736105595602" id="-80059">
		<tag k="name" v="Bruna" />
		<tag k="place" v="locality" />
		<tag k="ssr:stedsnr" v="677789" />
	</node>
	<node lat="61.77860277922258" lon="6.125380549946865" id="-80064">
		<tag k="fixme" v="consider place=hamlet" />
		<tag k="name" v="Sørstranda" />
		<tag k="place" v="village" />
		<tag k="ssr:stedsnr" v="678727" />
	</node>
	<node lat="61.749933331033255" lon="5.94608333462223" id="-80080">
		<tag k="historic" v="shieling" />
		<tag k="name" v="Gardstølane" />
		<tag k="place" v="isolated_dwelling" />
		<tag k="ssr:stedsnr" v="700510" />
	</node>
	<node lat="61.67290521791385" lon="6.379872006073664" id="-80108">
		<tag k="alt_name" v="Kandal, midtre" />
		<tag k="fixme" v="consider place=hamlet" />
		<tag k="name" v="Midtre Kandal" />
		<tag k="place" v="farm" />
		<tag k="ssr:stedsnr" v="738071" />
	</node>
	<node lat="61.752669445265944" lon="6.366999993002725" id="-80111">
		<tag k="name" v="Nedreberg" />
		<tag k="place" v="farm" />
		<tag k="ssr:stedsnr" v="738154" />
	</node>
	<node lat="61.751638888029824" lon="6.606822225151469" id="-80119">
		<tag k="historic" v="shieling" />
		<tag k="name" v="Fossheimsætra" />
		<tag k="place" v="isolated_dwelling" />
		<tag k="ssr:stedsnr" v="738413" />
	</node>
	<node lat="61.82280555139243" lon="6.167455547725321" id="-80120">
		<tag k="name" v="Dalane" />
		<tag k="place" v="farm" />
		<tag k="ssr:stedsnr" v="738705" />
	</node>
	<node lat="61.81507499777799" lon="6.153550006318169" id="-80121">
		<tag k="name" v="Kvia" />
		<tag k="place" v="farm" />
		<tag k="ssr:stedsnr" v="738707" />
	</node>
	<node lat="61.663016667661175" lon="6.3697944419571195" id="-80145">
		<tag k="name" v="Nygård" />
		<tag k="place" v="farm" />
		<tag k="ssr:stedsnr" v="761158" />
	</node>
	<node lat="61.76891944756778" lon="6.210722225988261" id="-80161">
		<tag k="leisure" v="pitch" />
		<tag k="name" v="Elvebakken" />
		<tag k="ssr:stedsnr" v="767146" />
	</node>
	<node lat="61.79640382101243" lon="6.161034220278288" id="-80186">
		<tag k="fixme" v="consider place=hamlet" />
		<tag k="name" v="Slagstad" />
		<tag k="place" v="farm" />
		<tag k="ssr:stedsnr" v="799749" />
	</node>
	<node lat="61.79864957836495" lon="6.178356916728709" id="-80219">
		<tag k="fixme" v="consider place=hamlet" />
		<tag k="name" v="Alme" />
		<tag k="place" v="farm" />
		<tag k="ssr:stedsnr" v="920727" />
	</node>
	<node lat="61.77694999756116" lon="6.216405562552522" id="-80222">
		<tag k="name" v="Sandane" />
		<tag k="place" v="village" />
		<tag k="ssr:stedsnr" v="920770" />
	</node>
	<node lat="61.74499166352698" lon="6.439191663591536" id="-80253">
		<tag k="name" v="Solbakken" />
		<tag k="place" v="farm" />
		<tag k="ssr:stedsnr" v="822781" />
	</node>
	<node lat="61.70154444567801" lon="6.427930550828181" id="-80254">
		<tag k="historic" v="shieling" />
		<tag k="name" v="Seimsstølen" />
		<tag k="place" v="isolated_dwelling" />
		<tag k="ssr:stedsnr" v="822809" />
	</node>
	<node lat="61.72681701238112" lon="6.489213923652282" id="-80278">
		<tag k="fixme" v="consider place=hamlet" />
		<tag k="name" v="Stokke" />
		<tag k="place" v="farm" />
		<tag k="ssr:stedsnr" v="860124" />
	</node>
	<node lat="61.74818536072781" lon="6.2690435179915145" id="-80280">
		<tag k="fixme" v="consider place=hamlet" />
		<tag k="name" v="Ryssdal" />
		<tag k="place" v="farm" />
		<tag k="ssr:stedsnr" v="860168" />
	</node>
	<node lat="61.83658304675024" lon="6.00036406807214" id="-80293">
		<tag k="fixme" v="consider place=hamlet" />
		<tag k="name" v="Eikenes" />
		<tag k="place" v="farm" />
		<tag k="ssr:stedsnr" v="875631" />
	</node>
	<node lat="61.72562499933101" lon="5.842858328064827" id="-80297">
		<tag k="historic" v="shieling" />
		<tag k="name" v="Kårtstølhaugen" />
		<tag k="place" v="isolated_dwelling" />
		<tag k="ssr:stedsnr" v="882217" />
	</node>
	<node lat="61.66603611243839" lon="6.424469449720298" id="-80323">
		<tag k="name" v="Åsen" />
		<tag k="place" v="farm" />
		<tag k="ssr:stedsnr" v="883802" />
	</node>
	<node lat="61.81583277129268" lon="6.1263959867743285" id="-80349">
		<tag k="fixme" v="consider place=hamlet" />
		<tag k="name" v="Apalset" />
		<tag k="place" v="farm" />
		<tag k="ssr:stedsnr" v="920696" />
	</node>
	<node lat="61.72936379596264" lon="5.919161917479949" id="-80367">
		<tag k="fixme" v="consider place=hamlet" />
		<tag k="name" v="Å" />
		<tag k="place" v="farm" />
		<tag k="ssr:stedsnr" v="978472" />
	</node>
	<node lat="61.63150813851933" lon="5.715539609779086" id="-80368">
		<tag k="fixme" v="consider place=hamlet" />
		<tag k="name" v="Solheim" />
		<tag k="place" v="farm" />
		<tag k="ssr:stedsnr" v="978476" />
	</node>
	<node lat="61.733155067746765" lon="5.865677001830331" id="-80369">
		<tag k="fixme" v="consider place=hamlet" />
		<tag k="name" v="Hope" />
		<tag k="place" v="farm" />
		<tag k="ssr:stedsnr" v="978477" />
	</node>
	<node lat="61.84509541175996" lon="6.034726042564025" id="-80370">
		<tag k="fixme" v="consider place=hamlet" />
		<tag k="name" v="Kvitenes" />
		<tag k="place" v="farm" />
		<tag k="ssr:stedsnr" v="978478" />
	</node>
	<node lat="61.68671948764685" lon="6.527075469781667" id="-80371">
		<tag k="fixme" v="consider place=hamlet" />
		<tag k="name" v="Egge" />
		<tag k="place" v="farm" />
		<tag k="ssr:stedsnr" v="978522" />
	</node>
	<node lat="61.735677857010046" lon="5.914797789875544" id="-80372">
		<tag k="fixme" v="consider place=hamlet" />
		<tag k="name" v="Hyen" />
		<tag k="place" v="village" />
		<tag k="ssr:stedsnr" v="989660" />
	</node>
	<node lat="61.75452777896816" lon="6.424130557067371" id="-80379">
		<tag k="name" v="Beiterøysa" />
		<tag k="place" v="locality" />
		<tag k="ssr:stedsnr" v="10231" />
	</node>
	<node lat="61.66791700117477" lon="6.433989510838725" id="-80391">
		<tag k="fixme" v="consider place=hamlet" />
		<tag k="name" v="Bogstad" />
		<tag k="place" v="farm" />
		<tag k="ssr:stedsnr" v="10061" />
	</node>
	<node lat="61.673412974227304" lon="6.425576954786665" id="-80392">
		<tag k="fixme" v="consider place=hamlet" />
		<tag k="name" v="Årdal" />
		<tag k="place" v="farm" />
		<tag k="ssr:stedsnr" v="10065" />
	</node>
	<node lat="61.74710555465728" lon="6.29272777715646" id="-80393">
		<tag k="alt_name" v="Kjørvik" />
		<tag k="name" v="Kjørvika" />
		<tag k="place" v="farm" />
		<tag k="ssr:stedsnr" v="10145" />
	</node>
	<node lat="61.77072778106965" lon="6.484622228501437" id="-80394">
		<tag k="historic" v="shieling" />
		<tag k="name" v="Fellastøylen" />
		<tag k="place" v="isolated_dwelling" />
		<tag k="ssr:stedsnr" v="10146" />
	</node>
	<node lat="61.76336666632327" lon="6.6051916725477025" id="-80404">
		<tag k="historic" v="shieling" />
		<tag k="name" v="Sanddalsstøylen" />
		<tag k="place" v="isolated_dwelling" />
		<tag k="ssr:stedsnr" v="10418" />
	</node>
	<node lat="61.662627781975104" lon="5.9381555571245945" id="-80435">
		<tag k="name" v="Bakketun" />
		<tag k="place" v="farm" />
		<tag k="ssr:stedsnr" v="32266" />
	</node>
	<node lat="61.731208332028515" lon="6.468549997527846" id="-80494">
		<tag k="name" v="Lunde" />
		<tag k="place" v="farm" />
		<tag k="ssr:stedsnr" v="71125" />
	</node>
	<node lat="61.693112064420326" lon="6.371665380695308" id="-80503">
		<tag k="alt_name" v="Kandal, yt" />
		<tag k="fixme" v="consider place=hamlet" />
		<tag k="name" v="Ytre Kandal" />
		<tag k="place" v="farm" />
		<tag k="ssr:stedsnr" v="71088" />
	</node>
	<node lat="61.73774999760907" lon="6.409452783080298" id="-80506">
		<tag k="fixme" v="consider place=hamlet" />
		<tag k="name" v="Re" />
		<tag k="place" v="village" />
		<tag k="ssr:stedsnr" v="71115" />
	</node>
	<node lat="61.66163408567537" lon="5.927135472679842" id="-80510">
		<tag k="alt_name" v="Mjellem" />
		<tag k="fixme" v="consider place=hamlet" />
		<tag k="name" v="Mjelleim" />
		<tag k="place" v="farm" />
		<tag k="ssr:stedsnr" v="71315" />
	</node>
	<node lat="61.686619256371266" lon="5.919902378473753" id="-80511">
		<tag k="fixme" v="consider place=hamlet" />
		<tag k="name" v="Ommedal" />
		<tag k="place" v="farm" />
		<tag k="ssr:stedsnr" v="71347" />
	</node>
	<node lat="61.823432996215445" lon="6.112580355076733" id="-80515">
		<tag k="fixme" v="consider place=hamlet" />
		<tag k="name" v="Andenes" />
		<tag k="place" v="farm" />
		<tag k="ssr:stedsnr" v="71720" />
	</node>
	<node lat="61.793658335791775" lon="6.194377779858764" id="-80523">
		<tag k="name" v="Lundestad" />
		<tag k="place" v="farm" />
		<tag k="ssr:stedsnr" v="71765" />
	</node>
	<node lat="61.85547499859627" lon="5.8662444412319035" id="-80525">
		<tag k="name" v="Mettenes" />
		<tag k="place" v="farm" />
		<tag k="ssr:stedsnr" v="88290" />
	</node>
	<node lat="61.68680277839662" lon="6.627558329294466" id="-80574">
		<tag k="name" v="Stølsgarden" />
		<tag k="place" v="farm" />
		<tag k="ssr:stedsnr" v="94875" />
	</node>
	<node lat="61.78316110850114" lon="6.104638896388114" id="-80586">
		<tag k="name" v="Sande" />
		<tag k="place" v="quarter" />
		<tag k="ssr:stedsnr" v="120723" />
	</node>
	<node lat="61.74489337630974" lon="6.583479617699669" id="-80592">
		<tag k="fixme" v="consider place=hamlet" />
		<tag k="name" v="Fossheim" />
		<tag k="place" v="farm" />
		<tag k="ssr:stedsnr" v="131130" />
	</node>
	<node lat="61.765108336957525" lon="6.4333861074158065" id="-80596">
		<tag k="historic" v="shieling" />
		<tag k="name" v="Rusta" />
		<tag k="place" v="isolated_dwelling" />
		<tag k="ssr:stedsnr" v="131150" />
	</node>
	<node lat="61.646372226556586" lon="5.706461114178042" id="-80600">
		<tag k="historic" v="shieling" />
		<tag k="name" v="Haugen" />
		<tag k="place" v="isolated_dwelling" />
		<tag k="ssr:stedsnr" v="130671" />
	</node>
	<node lat="61.84167628146458" lon="6.016195046053465" id="-80619">
		<tag k="fixme" v="consider place=hamlet" />
		<tag k="name" v="Hestenes" />
		<tag k="place" v="farm" />
		<tag k="ssr:stedsnr" v="131679" />
	</node>
	<node lat="61.83353333032144" lon="6.1040472251260365" id="-80622">
		<tag k="name" v="Skogstad" />
		<tag k="place" v="farm" />
		<tag k="ssr:stedsnr" v="131699" />
	</node>
	<node lat="61.80517778081614" lon="5.9298861061112" id="-80626">
		<tag k="name" v="Vasstøylen" />
		<tag k="place" v="locality" />
		<tag k="ssr:stedsnr" v="131726" />
	</node>
	<node lat="61.80003888593045" lon="6.200511118860758" id="-80629">
		<tag k="historic" v="shieling" />
		<tag k="name" v="Haugsstøylen" />
		<tag k="place" v="isolated_dwelling" />
		<tag k="ssr:stedsnr" v="131733" />
	</node>
	<node lat="61.800176633589665" lon="6.1702017305031225" id="-80630">
		<tag k="fixme" v="consider place=hamlet" />
		<tag k="name" v="Aske" />
		<tag k="place" v="farm" />
		<tag k="ssr:stedsnr" v="131738" />
	</node>
	<node lat="61.80377500459303" lon="6.152883341367194" id="-80631">
		<tag k="name" v="Korsvika" />
		<tag k="place" v="farm" />
		<tag k="ssr:stedsnr" v="131741" />
	</node>
	<node lat="61.794075356777455" lon="6.2146469378033835" id="-80634">
		<tag k="fixme" v="consider place=hamlet" />
		<tag k="name" v="Solheim" />
		<tag k="place" v="farm" />
		<tag k="ssr:stedsnr" v="131750" />
	</node>
	<node lat="61.694758333507174" lon="5.873155558190832" id="-80653">
		<tag k="historic" v="shieling" />
		<tag k="name" v="Nipestølen" />
		<tag k="place" v="isolated_dwelling" />
		<tag k="ssr:stedsnr" v="153319" />
	</node>
	<node lat="61.7751952374072" lon="6.224457411703598" id="-80714">
		<tag k="fixme" v="consider place=hamlet" />
		<tag k="name" v="Holvik" />
		<tag k="place" v="farm" />
		<tag k="ssr:stedsnr" v="192184" />
	</node>
	<node lat="61.763466669572615" lon="6.2213388940474745" id="-80716">
		<tag k="name" v="Djupegota" />
		<tag k="place" v="farm" />
		<tag k="ssr:stedsnr" v="192195" />
	</node>
	<node lat="61.72924068398253" lon="6.475292904385526" id="-80724">
		<tag k="fixme" v="consider place=hamlet" />
		<tag k="name" v="Høylo" />
		<tag k="place" v="farm" />
		<tag k="ssr:stedsnr" v="192119" />
	</node>
	<node lat="61.73297222273208" lon="6.505277772588124" id="-80725">
		<tag k="fixme" v="consider place=hamlet" />
		<tag k="name" v="Byrkjelo" />
		<tag k="place" v="village" />
		<tag k="ssr:stedsnr" v="192130" />
	</node>
	<node lat="61.75247222230023" lon="6.445466658335554" id="-80736">
		<tag k="name" v="Rognkleiva" />
		<tag k="place" v="locality" />
		<tag k="ssr:stedsnr" v="192246" />
	</node>
	<node lat="61.81603055678711" lon="6.159822216043599" id="-80750">
		<tag k="name" v="Dalheim" />
		<tag k="place" v="farm" />
		<tag k="ssr:stedsnr" v="192731" />
	</node>
	<node lat="61.796819446572115" lon="6.189361107162386" id="-80755">
		<tag k="name" v="Solli" />
		<tag k="place" v="farm" />
		<tag k="ssr:stedsnr" v="192750" />
	</node>
	<node lat="61.78928770590928" lon="6.215739773891502" id="-80759">
		<tag k="fixme" v="consider place=hamlet" />
		<tag k="name" v="Berge" />
		<tag k="place" v="farm" />
		<tag k="ssr:stedsnr" v="192767" />
	</node>
	<node lat="61.761388884724596" lon="6.211066675132299" id="-80763">
		<tag k="name" v="Søreide" />
		<tag k="place" v="farm" />
		<tag k="ssr:stedsnr" v="192799" />
	</node>
	<node lat="61.769350001996294" lon="6.233163890000152" id="-80767">
		<tag k="name" v="Kleivedammen" />
		<tag k="place" v="quarter" />
		<tag k="ssr:stedsnr" v="210611" />
	</node>
	<node lat="61.74231666485088" lon="6.405872215923564" id="-80771">
		<tag k="name" v="Hagebakk" />
		<tag k="place" v="farm" />
		<tag k="ssr:stedsnr" v="215197" />
	</node>
	<node lat="61.68686110686698" lon="5.946116663718237" id="-80796">
		<tag k="historic" v="shieling" />
		<tag k="name" v="Gamlesetra" />
		<tag k="place" v="isolated_dwelling" />
		<tag k="ssr:stedsnr" v="214440" />
	</node>
	<node lat="61.65006111034893" lon="5.764697225008099" id="-80804">
		<tag k="historic" v="shieling" />
		<tag k="name" v="Høgestølen" />
		<tag k="place" v="isolated_dwelling" />
		<tag k="ssr:stedsnr" v="214755" />
	</node>
	<node lat="61.673544443043" lon="6.405174998293554" id="-80813">
		<tag k="name" v="Årdalsnausta" />
		<tag k="place" v="isolated_dwelling" />
		<tag k="ssr:stedsnr" v="215139" />
	</node>
	<node lat="61.66272967990821" lon="6.366605302804691" id="-80817">
		<tag k="name" v="Løvland" />
		<tag k="place" v="farm" />
		<tag k="ssr:stedsnr" v="215262" />
	</node>
	<node lat="61.74241944388988" lon="6.283727782391052" id="-80870">
		<tag k="historic" v="shieling" />
		<tag k="name" v="Vårstølen" />
		<tag k="place" v="isolated_dwelling" />
		<tag k="ssr:stedsnr" v="276266" />
	</node>
	<node lat="61.749780558547066" lon="6.530872223829231" id="-80876">
		<tag k="historic" v="shieling" />
		<tag k="name" v="Gamle Bjørnareimstølen" />
		<tag k="place" v="isolated_dwelling" />
		<tag k="ssr:stedsnr" v="276852" />
	</node>
	<node lat="61.649530259327804" lon="5.754377722366112" id="-80885">
		<tag k="historic" v="shieling" />
		<tag k="name" v="Hjortesetstøylen" />
		<tag k="place" v="isolated_dwelling" />
		<tag k="ssr:stedsnr" v="312683" />
	</node>
	<node lat="61.742675003051815" lon="6.227452778554602" id="-80899">
		<tag k="alt_name" v="Vetlestøylen" />
		<tag k="historic" v="shieling" />
		<tag k="name" v="Søreidsvårstøylen" />
		<tag k="place" v="isolated_dwelling" />
		<tag k="ssr:stedsnr" v="313157" />
	</node>
	<node lat="61.80962031891635" lon="6.142695968368857" id="-80906">
		<tag k="fixme" v="consider place=hamlet" />
		<tag k="name" v="Vereide" />
		<tag k="place" v="farm" />
		<tag k="ssr:stedsnr" v="313712" />
	</node>
	<node lat="61.76825000070225" lon="6.152358326867997" id="-80925">
		<tag k="alt_name" v="Arnestad ytre" />
		<tag k="name" v="Ytre Arnestad" />
		<tag k="place" v="farm" />
		<tag k="ssr:stedsnr" v="335442" />
	</node>
	<node lat="61.69119444589666" lon="6.519358335408795" id="-80966">
		<tag k="name" v="Sureplefjøsane" />
		<tag k="place" v="farm" />
		<tag k="ssr:stedsnr" v="336741" />
	</node>
	<node lat="61.78521944644349" lon="6.205277775958224" id="-80985">
		<tag k="name" v="Leirbrekka" />
		<tag k="place" v="quarter" />
		<tag k="ssr:stedsnr" v="362759" />
	</node>
	<node lat="61.73254166351682" lon="6.5112388901500164" id="-80986">
		<tag k="name" v="Byrkjelo Vest" />
		<tag k="place" v="quarter" />
		<tag k="ssr:stedsnr" v="362741" />
	</node>
	<node lat="61.83869166282252" lon="5.964433330450337" id="-80996">
		<tag k="historic" v="shieling" />
		<tag k="name" v="Hyenesstøylen" />
		<tag k="place" v="isolated_dwelling" />
		<tag k="ssr:stedsnr" v="373675" />
	</node>
	<node lat="61.7427562109624" lon="6.460896334775464" id="-80998">
		<tag k="fixme" v="consider place=hamlet" />
		<tag k="name" v="Øvreset" />
		<tag k="place" v="farm" />
		<tag k="ssr:stedsnr" v="374131" />
	</node>
	<node lat="61.74510555247606" lon="6.573327784070397" id="-80999">
		<tag k="alt_name" v="Sanddal" />
		<tag k="name" v="Sanddalen" />
		<tag k="place" v="hamlet" />
		<tag k="ssr:stedsnr" v="374137" />
	</node>
	<node lat="61.75855277620781" lon="6.499091659043417" id="-81000">
		<tag k="name" v="Furehaugen" />
		<tag k="place" v="isolated_dwelling" />
		<tag k="ssr:stedsnr" v="374179" />
	</node>
	<node lat="61.75185278206217" lon="6.520008340209513" id="-81023">
		<tag k="historic" v="shieling" />
		<tag k="name" v="Gamle Støyvastølen" />
		<tag k="place" v="isolated_dwelling" />
		<tag k="ssr:stedsnr" v="397819" />
	</node>
	<node lat="61.75577222519204" lon="6.504269436359898" id="-81024">
		<tag k="historic" v="shieling" />
		<tag k="name" v="Gamlestølen" />
		<tag k="place" v="isolated_dwelling" />
		<tag k="ssr:stedsnr" v="397821" />
	</node>
	<node lat="61.7783999986125" lon="5.986480563188561" id="-81043">
		<tag k="historic" v="shieling" />
		<tag k="name" v="Setra" />
		<tag k="place" v="isolated_dwelling" />
		<tag k="ssr:stedsnr" v="396459" />
	</node>
	<node lat="61.712880554316186" lon="5.803388897146417" id="-81047">
		<tag k="historic" v="shieling" />
		<tag k="name" v="Heistølen" />
		<tag k="place" v="isolated_dwelling" />
		<tag k="ssr:stedsnr" v="396644" />
	</node>
	<node lat="61.734722223504484" lon="6.506727785405041" id="-81088">
		<tag k="name" v="Byrkjelo Aust" />
		<tag k="place" v="quarter" />
		<tag k="ssr:stedsnr" v="423760" />
	</node>
	<node lat="61.83138333473671" lon="6.238222221108121" id="-81090">
		<tag k="historic" v="shieling" />
		<tag k="name" v="Dimma" />
		<tag k="place" v="isolated_dwelling" />
		<tag k="ssr:stedsnr" v="434091" />
	</node>
	<node lat="61.767638886305654" lon="6.147091671563567" id="-81092">
		<tag k="fixme" v="consider place=hamlet" />
		<tag k="name" v="Gimmestad" />
		<tag k="place" v="village" />
		<tag k="ssr:stedsnr" v="434733" />
	</node>
	<node lat="61.67051008358555" lon="6.380633071871235" id="-81093">
		<tag k="alt_name" v="Kandal, in" />
		<tag k="fixme" v="consider place=hamlet" />
		<tag k="name" v="Indre Kandal" />
		<tag k="place" v="farm" />
		<tag k="ssr:stedsnr" v="434048" />
	</node>
	<node lat="61.74130668314959" lon="6.479538410419185" id="-81101">
		<tag k="fixme" v="consider place=hamlet" />
		<tag k="name" v="Hole" />
		<tag k="place" v="farm" />
		<tag k="ssr:stedsnr" v="435151" />
	</node>
	<node lat="61.765127782120985" lon="6.383544451531386" id="-81105">
		<tag k="historic" v="shieling" />
		<tag k="name" v="Hetlastøylen" />
		<tag k="place" v="isolated_dwelling" />
		<tag k="ssr:stedsnr" v="435194" />
	</node>
	<node lat="61.77493616262936" lon="6.126423192025257" id="-81130">
		<tag k="fixme" v="consider place=hamlet" />
		<tag k="name" v="Rygg" />
		<tag k="place" v="farm" />
		<tag k="ssr:stedsnr" v="495783" />
	</node>
	<node lat="61.75951944046" lon="6.100694447860148" id="-81131">
		<tag k="fixme" v="multiple name tags, choose one and add the other to alt_name" />
		<tag k="historic" v="shieling" />
		<tag k="name" v="Ryggjastøylen;Traudalsstøylen" />
		<tag k="place" v="isolated_dwelling" />
		<tag k="ssr:stedsnr" v="495790" />
	</node>
	<node lat="61.76968604789276" lon="6.121405784877443" id="-81132">
		<tag k="fixme" v="consider place=hamlet" />
		<tag k="name" v="Grov" />
		<tag k="place" v="farm" />
		<tag k="ssr:stedsnr" v="495791" />
	</node>
	<node lat="61.76111111349658" lon="6.1810861155435415" id="-81136">
		<tag k="name" v="Fitje" />
		<tag k="place" v="farm" />
		<tag k="ssr:stedsnr" v="512696" />
	</node>
	<node lat="61.7781277754239" lon="6.127152773093154" id="-81148">
		<tag k="name" v="Ryggøyra" />
		<tag k="place" v="hamlet" />
		<tag k="ssr:stedsnr" v="518101" />
	</node>
	<node lat="61.77270064938741" lon="6.141239718570672" id="-81152">
		<tag k="fixme" v="consider place=hamlet" />
		<tag k="name" v="Gimmestad" />
		<tag k="place" v="farm" />
		<tag k="ssr:stedsnr" v="518112" />
	</node>
	<node lat="61.64588692880375" lon="5.759052496022207" id="-81217">
		<tag k="fixme" v="consider place=hamlet" />
		<tag k="name" v="Hjorteset" />
		<tag k="place" v="farm" />
		<tag k="ssr:stedsnr" v="554738" />
	</node>
	<node lat="61.66867157875562" lon="6.373535657101344" id="-81221">
		<tag k="fixme" v="consider place=hamlet" />
		<tag k="name" v="Rygg" />
		<tag k="place" v="farm" />
		<tag k="ssr:stedsnr" v="555059" />
	</node>
	<node lat="61.74574779415087" lon="6.493409837969936" id="-81226">
		<tag k="fixme" v="consider place=hamlet" />
		<tag k="name" v="Moldestad" />
		<tag k="place" v="farm" />
		<tag k="ssr:stedsnr" v="556139" />
	</node>
	<node lat="61.757472226780344" lon="6.227394449726575" id="-81227">
		<tag k="name" v="Øvrebø" />
		<tag k="place" v="farm" />
		<tag k="ssr:stedsnr" v="556150" />
	</node>
	<node lat="61.830483336441326" lon="6.120599991835618" id="-81230">
		<tag k="alt_name" v="Finnvik" />
		<tag k="name" v="Finnvika" />
		<tag k="place" v="farm" />
		<tag k="ssr:stedsnr" v="555641" />
	</node>
	<node lat="61.82795475190526" lon="6.103775559996068" id="-81231">
		<tag k="fixme" v="consider place=hamlet" />
		<tag k="name" v="Hjelmeset" />
		<tag k="place" v="farm" />
		<tag k="ssr:stedsnr" v="555643" />
	</node>
	<node lat="61.71327901944805" lon="6.617859460755442" id="-81237">
		<tag k="fixme" v="consider place=hamlet" />
		<tag k="name" v="Myklebust" />
		<tag k="place" v="farm" />
		<tag k="ssr:stedsnr" v="555881" />
	</node>
	<node lat="61.68630555690594" lon="6.5207694494698885" id="-81240">
		<tag k="name" v="Egge" />
		<tag k="place" v="hamlet" />
		<tag k="ssr:stedsnr" v="556078" />
	</node>
	<node lat="61.70340106266311" lon="6.533946768361936" id="-81241">
		<tag k="fixme" v="consider place=hamlet" />
		<tag k="name" v="Strand" />
		<tag k="place" v="farm" />
		<tag k="ssr:stedsnr" v="556086" />
	</node>
	<node lat="61.75311110686222" lon="6.3101472269452525" id="-81243">
		<tag k="name" v="Tunet" />
		<tag k="place" v="isolated_dwelling" />
		<tag k="ssr:stedsnr" v="556175" />
	</node>
	<node lat="61.753955609565075" lon="6.3756450969587375" id="-81244">
		<tag k="fixme" v="consider place=hamlet" />
		<tag k="name" v="Kåle" />
		<tag k="place" v="farm" />
		<tag k="ssr:stedsnr" v="556182" />
	</node>
	<node lat="61.75807777724527" lon="6.425347213487308" id="-81245">
		<tag k="name" v="Steinrøysa" />
		<tag k="place" v="isolated_dwelling" />
		<tag k="ssr:stedsnr" v="556184" />
	</node>
	<node lat="61.79146173514047" lon="6.171389468541879" id="-81249">
		<tag k="fixme" v="consider place=hamlet" />
		<tag k="name" v="Gloppestad" />
		<tag k="place" v="farm" />
		<tag k="ssr:stedsnr" v="556734" />
	</node>
	<node lat="61.803036108133995" lon="6.1539055556506685" id="-81250">
		<tag k="name" v="Rinde" />
		<tag k="place" v="farm" />
		<tag k="ssr:stedsnr" v="556742" />
	</node>
	<node lat="61.62224444627813" lon="5.707119437790675" id="-81254">
		<tag k="loc_name" v="Haugtun" />
		<tag k="name" v="Rognebakken" />
		<tag k="place" v="farm" />
		<tag k="ssr:stedsnr" v="573356" />
	</node>
	<node lat="61.80998333500995" lon="6.157213882418636" id="-81280">
		<tag k="name" v="Bakketun" />
		<tag k="place" v="farm" />
		<tag k="ssr:stedsnr" v="579037" />
	</node>
	<node lat="61.63185277915712" lon="5.7173333292920265" id="-81325">
		<tag k="fixme" v="consider place=hamlet" />
		<tag k="name" v="Solheim" />
		<tag k="place" v="village" />
		<tag k="ssr:stedsnr" v="615697" />
	</node>
	<node lat="61.687822224679756" lon="5.8758916597542274" id="-81335">
		<tag k="name" v="Nipa" />
		<tag k="place" v="locality" />
		<tag k="ssr:stedsnr" v="616312" />
	</node>
	<node lat="61.840444444137944" lon="6.006025005156911" id="-81341">
		<tag k="fixme" v="consider place=hamlet" />
		<tag k="name" v="Hestenesøyra" />
		<tag k="place" v="village" />
		<tag k="ssr:stedsnr" v="616661" />
	</node>
	<node lat="61.80803888551342" lon="6.1544055526351045" id="-81346">
		<tag k="name" v="Vollstad" />
		<tag k="place" v="farm" />
		<tag k="ssr:stedsnr" v="616710" />
	</node>
	<node lat="61.754458335760134" lon="6.276049993318674" id="-81348">
		<tag k="name" v="Vassenden" />
		<tag k="place" v="farm" />
		<tag k="ssr:stedsnr" v="617157" />
	</node>
	<node lat="61.800013853358735" lon="6.1567825218717775" id="-81358">
		<tag k="fixme" v="consider place=hamlet" />
		<tag k="name" v="Tystad" />
		<tag k="place" v="farm" />
		<tag k="ssr:stedsnr" v="617747" />
	</node>
	<node lat="61.78032830532121" lon="6.115638148990538" id="-81359">
		<tag k="fixme" v="consider place=hamlet" />
		<tag k="name" v="Sande" />
		<tag k="place" v="farm" />
		<tag k="ssr:stedsnr" v="617755" />
	</node>
	<node lat="61.73111733779123" lon="6.444779116535181" id="-81468">
		<tag k="fixme" v="consider place=hamlet" />
		<tag k="name" v="Bø" />
		<tag k="place" v="farm" />
		<tag k="ssr:stedsnr" v="738126" />
	</node>
	<node lat="61.7431803120721" lon="6.427978153636167" id="-81470">
		<tag k="fixme" v="consider place=hamlet" />
		<tag k="name" v="Sårheim" />
		<tag k="place" v="farm" />
		<tag k="ssr:stedsnr" v="738141" />
	</node>
	<node lat="61.65952500449933" lon="5.992394451219682" id="-81475">
		<tag k="name" v="Dalheim" />
		<tag k="place" v="farm" />
		<tag k="ssr:stedsnr" v="738296" />
	</node>
	<node lat="61.75920027286227" lon="6.194156183409794" id="-81485">
		<tag k="fixme" v="consider place=hamlet" />
		<tag k="name" v="Mardal" />
		<tag k="place" v="farm" />
		<tag k="ssr:stedsnr" v="738752" />
	</node>
	<node lat="61.67923055753578" lon="6.62847222139548" id="-81553">
		<tag k="historic" v="shieling" />
		<tag k="name" v="Gamlestølen" />
		<tag k="place" v="isolated_dwelling" />
		<tag k="ssr:stedsnr" v="761937" />
	</node>
	<node lat="61.846800477230275" lon="5.980583010642527" id="-81554">
		<tag k="fixme" v="consider place=hamlet" />
		<tag k="name" v="Hyenes" />
		<tag k="place" v="farm" />
		<tag k="ssr:stedsnr" v="762167" />
	</node>
	<node lat="61.739434914882196" lon="5.913913602752626" id="-81555">
		<tag k="fixme" v="consider place=hamlet" />
		<tag k="name" v="Straume" />
		<tag k="place" v="farm" />
		<tag k="ssr:stedsnr" v="797381" />
	</node>
	<node lat="61.6781916698345" lon="6.374308331325927" id="-81563">
		<tag k="name" v="Skarstein" />
		<tag k="place" v="farm" />
		<tag k="ssr:stedsnr" v="798069" />
	</node>
	<node lat="61.750974997850236" lon="6.3827388963110785" id="-81576">
		<tag k="name" v="Kolbotn" />
		<tag k="place" v="farm" />
		<tag k="ssr:stedsnr" v="799163" />
	</node>
	<node lat="61.660002774954044" lon="6.009830558359561" id="-81590">
		<tag k="historic" v="shieling" />
		<tag k="name" v="Høgstølen" />
		<tag k="place" v="isolated_dwelling" />
		<tag k="ssr:stedsnr" v="821443" />
	</node>
	<node lat="61.7394555536783" lon="5.931841670735346" id="-81591">
		<tag k="historic" v="shieling" />
		<tag k="name" v="Synnøvestølen" />
		<tag k="place" v="isolated_dwelling" />
		<tag k="ssr:stedsnr" v="821462" />
	</node>
	<node lat="61.771552777267" lon="6.235686108191831" id="-81665">
		<tag k="name" v="Valborgkleiva" />
		<tag k="place" v="quarter" />
		<tag k="ssr:stedsnr" v="848749" />
	</node>
	<node lat="61.82603889186376" lon="6.100230548753435" id="-81678">
		<tag k="name" v="Sandvik" />
		<tag k="place" v="farm" />
		<tag k="ssr:stedsnr" v="859646" />
	</node>
	<node lat="61.75714999899454" lon="6.0851277839228874" id="-81681">
		<tag k="name" v="Osen" />
		<tag k="place" v="isolated_dwelling" />
		<tag k="ssr:stedsnr" v="859730" />
	</node>
	<node lat="61.76536542328093" lon="6.208378651317921" id="-81684">
		<tag k="fixme" v="consider place=hamlet" />
		<tag k="name" v="Evebø" />
		<tag k="place" v="farm" />
		<tag k="ssr:stedsnr" v="859757" />
	</node>
	<node lat="61.811483330084464" lon="6.159877783905599" id="-81705">
		<tag k="name" v="Bakkeli" />
		<tag k="place" v="farm" />
		<tag k="ssr:stedsnr" v="860732" />
	</node>
	<node lat="61.806799996576316" lon="6.156894450263431" id="-81706">
		<tag k="name" v="Lund" />
		<tag k="place" v="farm" />
		<tag k="ssr:stedsnr" v="860734" />
	</node>
	<node lat="61.81064166767014" lon="6.158333338644468" id="-81711">
		<tag k="name" v="Bakketun" />
		<tag k="place" v="farm" />
		<tag k="ssr:stedsnr" v="877326" />
	</node>
	<node lat="61.81305555895903" lon="6.153708340492991" id="-81768">
		<tag k="name" v="Fredheim" />
		<tag k="place" v="farm" />
		<tag k="ssr:stedsnr" v="943048" />
	</node>
	<node lat="61.740000003653655" lon="6.458733325451274" id="-81850">
		<tag k="name" v="Løset" />
		<tag k="place" v="farm" />
		<tag k="ssr:stedsnr" v="944776" />
	</node>
	<node lat="61.66518610850342" lon="6.515358327225871" id="-81851">
		<tag k="historic" v="shieling" />
		<tag k="name" v="Hjellestølen" />
		<tag k="place" v="isolated_dwelling" />
		<tag k="ssr:stedsnr" v="944778" />
	</node>
	<node lat="61.76649999752371" lon="6.1911472214942345" id="-81855">
		<tag k="building" v="commercial" />
		<tag k="name" v="Gloppehuset" />
		<tag k="ssr:stedsnr" v="949166" />
	</node>
	<node lat="61.7746033480837" lon="6.21437968219849" id="-81859">
		<tag k="fixme" v="consider place=hamlet" />
		<tag k="name" v="Sandane" />
		<tag k="place" v="farm" />
		<tag k="ssr:stedsnr" v="978511" />
	</node>
	<node lat="61.76765310579419" lon="6.200363524563184" id="-81860">
		<tag k="fixme" v="consider place=hamlet" />
		<tag k="name" v="Elvebakken" />
		<tag k="place" v="farm" />
		<tag k="ssr:stedsnr" v="978452" />
	</node>
</osm>
