<?xml version="1.0" encoding="UTF-8"?>
<<<<<<< HEAD
<osm version="0.6" generator="osmapis">
	<node lat="61.79860000230512" lon="6.164127784968617" id="-27682">
		<tag k="bridge" v="yes" />
		<tag k="layer" v="1" />
		<tag k="name" v="Slagstad" />
		<tag k="ssr:stedsnr" v="229740" />
	</node>
	<node lat="61.812847222375495" lon="6.081083334609389" id="-27683">
		<tag k="bridge" v="yes" />
		<tag k="layer" v="1" />
		<tag k="name" v="Jupevik" />
		<tag k="ssr:stedsnr" v="229717" />
	</node>
	<node lat="61.78415277484021" lon="6.1838611042523235" id="-27684">
=======
<osm generator="osmapis" version="0.6">
	<node id="-702720" lat="61.8309333368" lon="6.19812499292">
		<tag k="highway" v="path" />
		<tag k="name" v="Langeskorvegen" />
		<tag k="ssr:stedsnr" v="458287" />
	</node>
	<node id="-705160" lat="61.8227444429" lon="6.11195555522">
		<tag k="bridge" v="yes" />
		<tag k="layer" v="1" />
		<tag k="name" v="Andenes" />
		<tag k="ssr:stedsnr" v="836695" />
	</node>
	<node id="-703485" lat="61.7780083304" lon="6.49628334185">
		<tag k="bridge" v="yes" />
		<tag k="layer" v="1" />
		<tag k="name" v="Steffåstøylen" />
		<tag k="ssr:stedsnr" v="775722" />
	</node>
	<node id="-703484" lat="61.6665777764" lon="5.91901111733">
		<tag k="bridge" v="yes" />
		<tag k="layer" v="1" />
		<tag k="name" v="Mjellem" />
		<tag k="ssr:stedsnr" v="775716" />
	</node>
	<node id="-704635" lat="61.7046861136" lon="6.37833332666">
		<tag k="bridge" v="yes" />
		<tag k="layer" v="1" />
		<tag k="name" v="Nes" />
		<tag k="ssr:stedsnr" v="533733" />
	</node>
	<node id="-704634" lat="61.774013892" lon="6.22764722063">
		<tag k="bridge" v="yes" />
		<tag k="layer" v="1" />
		<tag k="name" v="Holvik" />
		<tag k="ssr:stedsnr" v="533729" />
	</node>
	<node id="-704633" lat="61.7514833345" lon="6.30688611399">
		<tag k="layer" v="-1" />
		<tag k="name" v="Breimsfjell II" />
		<tag k="ssr:stedsnr" v="529109" />
		<tag k="tunnel" v="yes" />
	</node>
	<node id="-704757" lat="61.8053694435" lon="6.14606667395">
		<tag k="bridge" v="yes" />
		<tag k="layer" v="1" />
		<tag k="name" v="Vereide" />
		<tag k="ssr:stedsnr" v="593669" />
	</node>
	<node id="-704756" lat="61.7990361083" lon="6.10140833527">
		<tag k="bridge" v="yes" />
		<tag k="layer" v="1" />
		<tag k="name" v="Skorge" />
		<tag k="ssr:stedsnr" v="593665" />
	</node>
	<node id="-704755" lat="61.7469083346" lon="6.27239443978">
		<tag k="bridge" v="yes" />
		<tag k="layer" v="1" />
		<tag k="name" v="Ryssdal" />
		<tag k="ssr:stedsnr" v="593662" />
	</node>
	<node id="-702706" lat="61.6963694423" lon="6.33439444364">
		<tag k="fixme" v="consider highway=path" />
		<tag k="highway" v="track" />
		<tag k="name" v="Stølsvegen" />
		<tag k="ssr:stedsnr" v="458175" />
	</node>
	<node id="-702577" lat="61.6998888897" lon="6.5317583264">
>>>>>>> e1d4bc35ff8a6074a6f2e91616a996b547c36f15
		<tag k="bridge" v="yes" />
		<tag k="layer" v="1" />
		<tag k="name" v="Haugselva" />
		<tag k="ssr:stedsnr" v="229719" />
	</node>
<<<<<<< HEAD
	<node lat="61.755802773346" lon="6.320927770891646" id="-27957">
=======
	<node id="-702576" lat="61.7558027733" lon="6.32092777089">
>>>>>>> e1d4bc35ff8a6074a6f2e91616a996b547c36f15
		<tag k="layer" v="-1" />
		<tag k="name" v="Breimsfjell I" />
		<tag k="ssr:stedsnr" v="165110" />
		<tag k="tunnel" v="yes" />
	</node>
<<<<<<< HEAD
	<node lat="61.69988888968037" lon="6.531758326402245" id="-27958">
		<tag k="bridge" v="yes" />
		<tag k="layer" v="1" />
		<tag k="name" v="Gåsemyr" />
		<tag k="ssr:stedsnr" v="169708" />
	</node>
	<node lat="61.72863333788833" lon="6.483638890695439" id="-27959">
=======
	<node id="-702956" lat="61.7132833329" lon="5.81038055201">
		<tag k="highway" v="path" />
		<tag k="name" v="Rømmestien" />
		<tag k="ssr:stedsnr" v="518257" />
	</node>
	<node id="-702638" lat="61.7841527748" lon="6.18386110425">
		<tag k="bridge" v="yes" />
		<tag k="layer" v="1" />
		<tag k="name" v="Haugselva" />
		<tag k="ssr:stedsnr" v="229719" />
	</node>
	<node id="-703456" lat="61.7740666677" lon="5.97209166936">
		<tag k="bridge" v="yes" />
		<tag k="layer" v="1" />
		<tag k="name" v="Osmundsnes" />
		<tag k="ssr:stedsnr" v="897694" />
	</node>
	<node id="-703455" lat="61.7764472202" lon="6.21620833356">
		<tag k="bridge" v="yes" />
		<tag k="layer" v="1" />
		<tag k="name" v="Farger" />
		<tag k="ssr:stedsnr" v="897692" />
	</node>
	<node id="-704222" lat="61.7042166677" lon="6.53338055442">
		<tag k="bridge" v="yes" />
		<tag k="layer" v="1" />
		<tag k="name" v="Strand" />
		<tag k="ssr:stedsnr" v="169727" />
	</node>
	<node id="-704221" lat="61.7441527787" lon="6.4914583315">
		<tag k="bridge" v="yes" />
		<tag k="layer" v="1" />
		<tag k="name" v="Moldestad" />
		<tag k="ssr:stedsnr" v="169720" />
	</node>
	<node id="-704220" lat="61.7286333379" lon="6.4836388907">
>>>>>>> e1d4bc35ff8a6074a6f2e91616a996b547c36f15
		<tag k="bridge" v="yes" />
		<tag k="layer" v="1" />
		<tag k="name" v="Skarveelva" />
		<tag k="ssr:stedsnr" v="169716" />
	</node>
<<<<<<< HEAD
	<node lat="61.744152778658936" lon="6.49145833150123" id="-27960">
=======
	<node id="-704219" lat="61.7385138892" lon="5.91434166056">
		<tag k="bridge" v="yes" />
		<tag k="layer" v="1" />
		<tag k="name" v="Straume" />
		<tag k="ssr:stedsnr" v="168737" />
	</node>
	<node id="-703322" lat="61.7324277822" lon="6.50690277878">
		<tag k="bridge" v="yes" />
		<tag k="layer" v="1" />
		<tag k="name" v="Byrkjelo" />
		<tag k="ssr:stedsnr" v="654727" />
	</node>
	<node id="-703321" lat="61.7742388911" lon="6.22973888775">
>>>>>>> e1d4bc35ff8a6074a6f2e91616a996b547c36f15
		<tag k="bridge" v="yes" />
		<tag k="layer" v="1" />
		<tag k="name" v="Moldestad" />
		<tag k="ssr:stedsnr" v="169720" />
	</node>
<<<<<<< HEAD
	<node lat="61.754049997024985" lon="6.223363881305784" id="-27996">
		<tag k="fixme" v="consider highway=path" />
		<tag k="highway" v="track" />
		<tag k="name" v="Jardalsvegen" />
		<tag k="ssr:stedsnr" v="215229" />
	</node>
	<node lat="61.695208332077875" lon="6.369336111443135" id="-28012">
=======
	<node id="-703320" lat="61.7337527748" lon="6.4339194418">
		<tag k="bridge" v="yes" />
		<tag k="layer" v="1" />
		<tag k="name" v="Jordanger" />
		<tag k="ssr:stedsnr" v="654716" />
	</node>
	<node id="-704599" lat="61.7460805593" lon="6.37494443942">
		<tag k="bridge" v="yes" />
		<tag k="layer" v="1" />
		<tag k="name" v="Sageflåten" />
		<tag k="ssr:stedsnr" v="411705" />
	</node>
	<node id="-704598" lat="61.748327776" lon="5.94468333937">
>>>>>>> e1d4bc35ff8a6074a6f2e91616a996b547c36f15
		<tag k="bridge" v="yes" />
		<tag k="layer" v="1" />
		<tag k="name" v="Kandal Ytre" />
		<tag k="ssr:stedsnr" v="229729" />
	</node>
<<<<<<< HEAD
	<node lat="61.83093333676664" lon="6.198124992919925" id="-28089">
		<tag k="highway" v="path" />
		<tag k="name" v="Langeskorvegen" />
		<tag k="ssr:stedsnr" v="458287" />
	</node>
	<node lat="61.71395555678622" lon="6.418899996105164" id="-28299">
=======
	<node id="-704591" lat="61.7139555568" lon="6.41889999611">
>>>>>>> e1d4bc35ff8a6074a6f2e91616a996b547c36f15
		<tag k="highway" v="path" />
		<tag k="name" v="Gjøttestien" />
		<tag k="ssr:stedsnr" v="397891" />
	</node>
<<<<<<< HEAD
	<node lat="61.74608055933234" lon="6.3749444394165" id="-28303">
		<tag k="bridge" v="yes" />
		<tag k="layer" v="1" />
		<tag k="name" v="Sageflåten" />
		<tag k="ssr:stedsnr" v="411705" />
	</node>
	<node lat="61.78428055155601" lon="6.1152888863627215" id="-28304">
=======
	<node id="-702797" lat="61.7719111145" lon="6.10950000035">
		<tag k="bridge" v="yes" />
		<tag k="layer" v="1" />
		<tag k="name" v="Gjeregrova" />
		<tag k="ssr:stedsnr" v="290667" />
	</node>
	<node id="-702924" lat="61.614761108" lon="5.67815555563">
		<tag k="landuse" v="industrial" />
		<tag k="name" v="Sagefossen kraftverk" />
		<tag k="power" v="plant" />
		<tag k="ssr:stedsnr" v="512604" />
	</node>
	<node id="-704459" lat="61.7362027782" lon="5.92415833257">
		<tag k="bridge" v="yes" />
		<tag k="layer" v="1" />
		<tag k="name" v="Åreneset" />
		<tag k="ssr:stedsnr" v="350716" />
	</node>
	<node id="-704458" lat="61.7498166625" lon="6.27955277623">
		<tag k="bridge" v="yes" />
		<tag k="layer" v="1" />
		<tag k="name" v="Kjørvik" />
		<tag k="ssr:stedsnr" v="350709" />
	</node>
	<node id="-704457" lat="61.6832416644" lon="6.51956388175">
		<tag k="bridge" v="yes" />
		<tag k="layer" v="1" />
		<tag k="name" v="Egge Store" />
		<tag k="ssr:stedsnr" v="350702" />
	</node>
	<node id="-704456" lat="61.7641083371" lon="6.21189722364">
		<tag k="bridge" v="yes" />
		<tag k="layer" v="1" />
		<tag k="name" v="Evebøfoss" />
		<tag k="ssr:stedsnr" v="350700" />
	</node>
	<node id="-704833" lat="61.7534944447" lon="6.2102083422">
		<tag k="highway" v="path" />
		<tag k="name" v="Mardalstølsvegen" />
		<tag k="ssr:stedsnr" v="639213" />
	</node>
	<node id="-704544" lat="61.7597555577" lon="6.16952778599">
		<tag k="fixme" v="consider highway=path" />
		<tag k="highway" v="track" />
		<tag k="name" v="Snelivegen" />
		<tag k="ssr:stedsnr" v="397022" />
	</node>
	<node id="-705162" lat="61.7614888896" lon="6.25488611212">
>>>>>>> e1d4bc35ff8a6074a6f2e91616a996b547c36f15
		<tag k="bridge" v="yes" />
		<tag k="layer" v="1" />
		<tag k="name" v="Grasdalen" />
		<tag k="ssr:stedsnr" v="836709" />
	</node>
	<node id="-705161" lat="61.8399583318" lon="6.00508611462">
		<tag k="bridge" v="yes" />
		<tag k="layer" v="1" />
		<tag k="name" v="Hestenes" />
		<tag k="ssr:stedsnr" v="836706" />
	</node>
<<<<<<< HEAD
	<node lat="61.69636944229331" lon="6.334394443635318" id="-28368">
		<tag k="fixme" v="consider highway=path" />
		<tag k="highway" v="track" />
		<tag k="name" v="Stølsvegen" />
		<tag k="ssr:stedsnr" v="458175" />
=======
	<node id="-705202" lat="61.7198138845" lon="5.82437777674">
		<tag k="bridge" v="yes" />
		<tag k="layer" v="1" />
		<tag k="name" v="Listøylgrova" />
		<tag k="ssr:stedsnr" v="957736" />
	</node>
	<node id="-705201" lat="61.8464441599" lon="6.08194921367">
		<tag k="amenity" v="ferry_terminal" />
		<tag k="name" v="Anda ferjekai" />
		<tag k="ssr:stedsnr" v="957708" />
	</node>
	<node id="-703280" lat="61.7789972248" lon="6.12421110225">
		<tag k="bridge" v="yes" />
		<tag k="layer" v="1" />
		<tag k="name" v="Rygg" />
		<tag k="ssr:stedsnr" v="715722" />
	</node>
	<node id="-703279" lat="61.7445055585" lon="6.5817305582">
		<tag k="bridge" v="yes" />
		<tag k="layer" v="1" />
		<tag k="name" v="Fossheim" />
		<tag k="ssr:stedsnr" v="715718" />
	</node>
	<node id="-703918" lat="61.7545555576" lon="5.95473888675">
		<tag k="bridge" v="yes" />
		<tag k="layer" v="1" />
		<tag k="name" v="Sesselva" />
		<tag k="ssr:stedsnr" v="47730" />
	</node>
	<node id="-702637" lat="61.8128472224" lon="6.08108333461">
		<tag k="bridge" v="yes" />
		<tag k="layer" v="1" />
		<tag k="name" v="Jupevik" />
		<tag k="ssr:stedsnr" v="229717" />
	</node>
	<node id="-703916" lat="61.7947500004" lon="5.98456944835">
		<tag k="highway" v="path" />
		<tag k="name" v="Ulvestegane" />
		<tag k="ssr:stedsnr" v="39144" />
	</node>
	<node id="-703269" lat="61.7885027788" lon="6.10937499824">
		<tag k="highway" v="path" />
		<tag k="name" v="Flotevegen" />
		<tag k="ssr:stedsnr" v="579109" />
	</node>
	<node id="-702628" lat="61.754049997" lon="6.22336388131">
		<tag k="fixme" v="consider highway=path" />
		<tag k="highway" v="track" />
		<tag k="name" v="Jardalsvegen" />
		<tag k="ssr:stedsnr" v="215229" />
	</node>
	<node id="-702369" lat="61.7986000023" lon="6.16412778497">
		<tag k="bridge" v="yes" />
		<tag k="layer" v="1" />
		<tag k="name" v="Slagstad" />
		<tag k="ssr:stedsnr" v="229740" />
	</node>
	<node id="-702368" lat="61.6952083321" lon="6.36933611144">
		<tag k="bridge" v="yes" />
		<tag k="layer" v="1" />
		<tag k="name" v="Kandal Ytre" />
		<tag k="ssr:stedsnr" v="229729" />
	</node>
	<node id="-703919" lat="61.7362305516" lon="5.91454444298">
		<tag k="bridge" v="yes" />
		<tag k="layer" v="1" />
		<tag k="name" v="Løkja" />
		<tag k="ssr:stedsnr" v="47731" />
	</node>
	<node id="-703252" lat="61.8297805544" lon="6.10753888609">
		<tag k="aeroway" v="aerodrome" />
		<tag k="alt_name" v="Anda" />
		<tag k="name" v="Sandane lufthamn, Anda" />
		<tag k="old_name" v="Sandane lufthavn" />
		<tag k="ssr:stedsnr" v="570681" />
	</node>
	<node id="-703891" lat="61.8465305572" lon="5.97523610806">
		<tag k="name" v="Rotekleiva" />
		<tag k="place" v="locality" />
		<tag k="ssr:stedsnr" v="33461" />
	</node>
	<node id="-703281" lat="61.7561972241" lon="6.23314166839">
		<tag k="bridge" v="yes" />
		<tag k="layer" v="1" />
		<tag k="name" v="Søreide" />
		<tag k="ssr:stedsnr" v="715744" />
	</node>
	<node id="-704913" lat="61.749777781" lon="6.2766861108">
		<tag k="bridge" v="yes" />
		<tag k="layer" v="1" />
		<tag k="name" v="Trysilfoss" />
		<tag k="ssr:stedsnr" v="654747" />
	</node>
	<node id="-704600" lat="61.7842805516" lon="6.11528888636">
		<tag k="bridge" v="yes" />
		<tag k="layer" v="1" />
		<tag k="name" v="Kvitefella" />
		<tag k="ssr:stedsnr" v="411710" />
	</node>
	<node id="-702474" lat="61.7263166658" lon="5.92053610808">
		<tag k="bridge" v="yes" />
		<tag k="layer" v="1" />
		<tag k="name" v="Tverrelva" />
		<tag k="ssr:stedsnr" v="108733" />
	</node>
	<node id="-702473" lat="61.7308972203" lon="5.91643333041">
		<tag k="bridge" v="yes" />
		<tag k="layer" v="1" />
		<tag k="name" v="Å bru" />
		<tag k="ssr:stedsnr" v="108731" />
	</node>
	<node id="-702472" lat="61.7308638874" lon="5.91809999311">
		<tag k="bridge" v="yes" />
		<tag k="layer" v="1" />
		<tag k="name" v="Veslebrua" />
		<tag k="ssr:stedsnr" v="108730" />
	</node>
	<node id="-704900" lat="61.7196472192" lon="6.51116111279">
		<tag k="highway" v="path" />
		<tag k="name" v="Gamlevegen" />
		<tag k="ssr:stedsnr" v="639868" />
>>>>>>> e1d4bc35ff8a6074a6f2e91616a996b547c36f15
	</node>
</osm>
