<?xml version="1.0" encoding="UTF-8"?>
<osm version="0.6" generator="osmapis">
	<node lat="61.63238611403608" lon="6.066416673979755" id="-33219">
		<tag k="name" v="Vonaskaret" />
		<tag k="natural" v="valley" />
		<tag k="place" v="locality" />
		<tag k="ssr:stedsnr" v="9222" />
	</node>
	<node lat="61.626630554306715" lon="5.893733326646285" id="-33220">
		<tag k="name" v="Stordalen" />
		<tag k="natural" v="valley" />
		<tag k="place" v="locality" />
		<tag k="ssr:stedsnr" v="9225" />
	</node>
	<node lat="61.653124997476624" lon="5.671027774792964" id="-33221">
		<tag k="fixme" v="consider natural=peak for the most distinct mountains in the district" />
		<tag k="name" v="Britelia" />
		<tag k="natural" v="hill" />
		<tag k="place" v="locality" />
		<tag k="ssr:stedsnr" v="9702" />
	</node>
	<node lat="61.67294444774712" lon="6.650524993265355" id="-33224">
		<tag k="fixme" v="consider natural=peak for the most distinct mountains in the district" />
		<tag k="name" v="Veslenibba" />
		<tag k="natural" v="hill" />
		<tag k="place" v="locality" />
		<tag k="ssr:stedsnr" v="9915" />
	</node>
	<node lat="61.65424999613956" lon="6.597375007847515" id="-33225">
		<tag k="name" v="Steinbotnen" />
		<tag k="natural" v="valley" />
		<tag k="place" v="locality" />
		<tag k="ssr:stedsnr" v="9918" />
	</node>
	<node lat="61.618216669679505" lon="6.345505558609846" id="-33227">
		<tag k="name" v="Kattadalen" />
		<tag k="natural" v="valley" />
		<tag k="place" v="locality" />
		<tag k="ssr:stedsnr" v="10038" />
	</node>
	<node lat="61.79136388490313" lon="6.354827778005528" id="-33229">
		<tag k="fixme" v="consider natural=peak for the most distinct mountains in the district" />
		<tag k="name" v="Frøyseteggene" />
		<tag k="natural" v="hill" />
		<tag k="place" v="locality" />
		<tag k="ssr:stedsnr" v="10098" />
	</node>
	<node lat="61.764955554706205" lon="6.317397226767961" id="-33233">
		<tag k="name" v="Kolbakkane" />
		<tag k="natural" v="slope" />
		<tag k="place" v="locality" />
		<tag k="ssr:stedsnr" v="10186" />
	</node>
	<node lat="61.684080552168595" lon="6.067786106713946" id="-33236">
		<tag k="fixme" v="consider natural=peak for the most distinct mountains in the district" />
		<tag k="name" v="Høgeholten" />
		<tag k="natural" v="hill" />
		<tag k="place" v="locality" />
		<tag k="ssr:stedsnr" v="10324" />
	</node>
	<node lat="61.7198361095932" lon="5.94863055941369" id="-33237">
		<tag k="fixme" v="consider natural=peak for the most distinct mountains in the district" />
		<tag k="name" v="Storeskoregga" />
		<tag k="natural" v="hill" />
		<tag k="place" v="locality" />
		<tag k="ssr:stedsnr" v="10327" />
	</node>
	<node lat="61.724322226398684" lon="6.045402784702454" id="-33238">
		<tag k="name" v="Klypet" />
		<tag k="natural" v="valley" />
		<tag k="place" v="locality" />
		<tag k="ssr:stedsnr" v="10330" />
	</node>
	<node lat="61.73464166354685" lon="6.103475004759785" id="-33239">
		<tag k="name" v="Vesledalen" />
		<tag k="natural" v="valley" />
		<tag k="place" v="locality" />
		<tag k="ssr:stedsnr" v="10334" />
	</node>
	<node lat="61.71239444415673" lon="6.103613896258514" id="-33240">
		<tag k="name" v="Botnen" />
		<tag k="natural" v="valley" />
		<tag k="place" v="locality" />
		<tag k="ssr:stedsnr" v="10338" />
	</node>
	<node lat="61.70967778171943" lon="6.010183328888173" id="-33241">
		<tag k="name" v="Styggelia" />
		<tag k="natural" v="slope" />
		<tag k="place" v="locality" />
		<tag k="ssr:stedsnr" v="10340" />
	</node>
	<node lat="61.77237499596894" lon="5.995066675013733" id="-33247">
		<tag k="name" v="Skaret" />
		<tag k="natural" v="valley" />
		<tag k="place" v="locality" />
		<tag k="ssr:stedsnr" v="10744" />
	</node>
	<node lat="61.725761114707986" lon="6.162905560278733" id="-33248">
		<tag k="name" v="Langedalen" />
		<tag k="natural" v="valley" />
		<tag k="place" v="locality" />
		<tag k="ssr:stedsnr" v="21492" />
	</node>
	<node lat="61.72071666361171" lon="5.8180416748909805" id="-33249">
		<tag k="name" v="Vesleheia" />
		<tag k="natural" v="hill" />
		<tag k="place" v="locality" />
		<tag k="ssr:stedsnr" v="32207" />
	</node>
	<node lat="61.724044446342" lon="5.826991661298792" id="-33250">
		<tag k="name" v="Brekkerabben" />
		<tag k="natural" v="hill" />
		<tag k="place" v="locality" />
		<tag k="ssr:stedsnr" v="32208" />
	</node>
	<node lat="61.66713888989748" lon="5.854927771264618" id="-33252">
		<tag k="name" v="Skarholten" />
		<tag k="natural" v="hill" />
		<tag k="place" v="locality" />
		<tag k="ssr:stedsnr" v="32308" />
	</node>
	<node lat="61.681413892163256" lon="5.909349995014739" id="-33253">
		<tag k="name" v="Nonskaret" />
		<tag k="natural" v="valley" />
		<tag k="place" v="locality" />
		<tag k="ssr:stedsnr" v="32312" />
	</node>
	<node lat="61.66775555130702" lon="5.887683332950562" id="-33254">
		<tag k="name" v="Storelia" />
		<tag k="natural" v="slope" />
		<tag k="place" v="locality" />
		<tag k="ssr:stedsnr" v="32319" />
	</node>
	<node lat="61.74744444143408" lon="5.88199166406125" id="-33255">
		<tag k="name" v="Skora" />
		<tag k="place" v="locality" />
		<tag k="ssr:stedsnr" v="32343" />
	</node>
	<node lat="61.74247222356591" lon="5.909363892290785" id="-33256">
		<tag k="fixme" v="consider natural=peak for the most distinct mountains in the district" />
		<tag k="name" v="Bygnarabben" />
		<tag k="natural" v="hill" />
		<tag k="place" v="locality" />
		<tag k="ssr:stedsnr" v="32346" />
	</node>
	<node lat="61.82303610788601" lon="6.042136105113143" id="-33257">
		<tag k="name" v="Raudsteindalen" />
		<tag k="natural" v="valley" />
		<tag k="place" v="locality" />
		<tag k="ssr:stedsnr" v="32349" />
	</node>
	<node lat="61.657419441879924" lon="5.9600333420524265" id="-33261">
		<tag k="name" v="Jøsophjellen" />
		<tag k="place" v="locality" />
		<tag k="ssr:stedsnr" v="32416" />
	</node>
	<node lat="61.64890278176257" lon="6.050216671025576" id="-33262">
		<tag k="name" v="Kannarhaugen" />
		<tag k="natural" v="hill" />
		<tag k="place" v="locality" />
		<tag k="ssr:stedsnr" v="32422" />
	</node>
	<node lat="61.6400833298949" lon="6.012061110269325" id="-33263">
		<tag k="name" v="Skråberga" />
		<tag k="natural" v="hill" />
		<tag k="place" v="locality" />
		<tag k="ssr:stedsnr" v="32431" />
	</node>
	<node lat="61.7554305534392" lon="6.584105557874101" id="-33264">
		<tag k="name" v="Akslene" />
		<tag k="natural" v="hill" />
		<tag k="place" v="locality" />
		<tag k="ssr:stedsnr" v="32491" />
	</node>
	<node lat="61.63892500058958" lon="5.6771611059612095" id="-33265">
		<tag k="fixme" v="consider natural=peak for the most distinct mountains in the district" />
		<tag k="name" v="Grøneliholten" />
		<tag k="natural" v="hill" />
		<tag k="place" v="locality" />
		<tag k="ssr:stedsnr" v="32494" />
	</node>
	<node lat="61.75108055366446" lon="6.592033326776516" id="-33266">
		<tag k="name" v="Timbrevadrinden" />
		<tag k="natural" v="hill" />
		<tag k="place" v="locality" />
		<tag k="ssr:stedsnr" v="32498" />
	</node>
	<node lat="61.63237222573579" lon="5.875883328472899" id="-33268">
		<tag k="name" v="Skadhammaren" />
		<tag k="natural" v="hill" />
		<tag k="place" v="locality" />
		<tag k="ssr:stedsnr" v="32605" />
	</node>
	<node lat="61.630983330056196" lon="5.874411118418227" id="-33269">
		<tag k="name" v="Nonsskaret" />
		<tag k="natural" v="valley" />
		<tag k="place" v="locality" />
		<tag k="ssr:stedsnr" v="32606" />
	</node>
	<node lat="61.6385972209115" lon="5.838850004127808" id="-33270">
		<tag k="name" v="Storeskora" />
		<tag k="place" v="locality" />
		<tag k="ssr:stedsnr" v="32611" />
	</node>
	<node lat="61.63524166391559" lon="5.776616659657108" id="-33272">
		<tag k="name" v="Griseryggen" />
		<tag k="natural" v="ridge" />
		<tag k="place" v="locality" />
		<tag k="ssr:stedsnr" v="32675" />
	</node>
	<node lat="61.64713889040493" lon="5.877133340797521" id="-33274">
		<tag k="fixme" v="consider natural=peak for the most distinct mountains in the district" />
		<tag k="name" v="Høgefjellet" />
		<tag k="natural" v="hill" />
		<tag k="place" v="locality" />
		<tag k="ssr:stedsnr" v="32620" />
	</node>
	<node lat="61.65906944700315" lon="5.886652786679585" id="-33275">
		<tag k="name" v="Tverrlia" />
		<tag k="natural" v="slope" />
		<tag k="place" v="locality" />
		<tag k="ssr:stedsnr" v="32621" />
	</node>
	<node lat="61.65842500379295" lon="5.874408340429801" id="-33276">
		<tag k="name" v="Botnaheiane" />
		<tag k="natural" v="hill" />
		<tag k="place" v="locality" />
		<tag k="ssr:stedsnr" v="32622" />
	</node>
	<node lat="61.6611222249351" lon="5.910194442538152" id="-33277">
		<tag k="name" v="Sagelihaugen" />
		<tag k="natural" v="hill" />
		<tag k="place" v="locality" />
		<tag k="ssr:stedsnr" v="32624" />
	</node>
	<node lat="61.7695722261701" lon="6.149813885339282" id="-33278">
		<tag k="name" v="Fugledalen" />
		<tag k="natural" v="valley" />
		<tag k="place" v="locality" />
		<tag k="ssr:stedsnr" v="33013" />
	</node>
	<node lat="61.68333055580962" lon="6.140794450126629" id="-33279">
		<tag k="name" v="Gapehogane" />
		<tag k="natural" v="hill" />
		<tag k="place" v="locality" />
		<tag k="ssr:stedsnr" v="33112" />
	</node>
	<node lat="61.75408055726482" lon="6.294552781251269" id="-33281">
		<tag k="name" v="Egga" />
		<tag k="place" v="locality" />
		<tag k="ssr:stedsnr" v="33182" />
	</node>
	<node lat="61.756794442980485" lon="6.320686103213981" id="-33282">
		<tag k="name" v="Bergheimsgjølet" />
		<tag k="natural" v="gorge" />
		<tag k="ssr:stedsnr" v="33183" />
	</node>
	<node lat="61.808483329991596" lon="6.1866916665848795" id="-33284">
		<tag k="fixme" v="consider natural=peak for the most distinct mountains in the district" />
		<tag k="name" v="Almestølåsen" />
		<tag k="natural" v="hill" />
		<tag k="place" v="locality" />
		<tag k="ssr:stedsnr" v="33277" />
	</node>
	<node lat="61.75488611074317" lon="6.3862888818212165" id="-33285">
		<tag k="name" v="Tikabakken" />
		<tag k="natural" v="slope" />
		<tag k="place" v="locality" />
		<tag k="ssr:stedsnr" v="33804" />
	</node>
	<node lat="61.75656388733035" lon="6.386736120337246" id="-33286">
		<tag k="name" v="Snøføk" />
		<tag k="place" v="locality" />
		<tag k="ssr:stedsnr" v="33807" />
	</node>
	<node lat="61.76384444126051" lon="6.388566664063144" id="-33287">
		<tag k="name" v="Høgsterotevadet" />
		<tag k="place" v="locality" />
		<tag k="ssr:stedsnr" v="33808" />
	</node>
	<node lat="61.69261111119537" lon="6.518655551709135" id="-33289">
		<tag k="name" v="Svinegarden" />
		<tag k="place" v="locality" />
		<tag k="ssr:stedsnr" v="33816" />
	</node>
	<node lat="61.653933331703115" lon="6.526166661703861" id="-33290">
		<tag k="name" v="Buskregjølet" />
		<tag k="natural" v="gorge" />
		<tag k="ssr:stedsnr" v="33820" />
	</node>
	<node lat="61.69658889192908" lon="6.625613897898047" id="-33291">
		<tag k="name" v="Kvernabakkane" />
		<tag k="natural" v="slope" />
		<tag k="place" v="locality" />
		<tag k="ssr:stedsnr" v="33904" />
	</node>
	<node lat="61.67473055807351" lon="6.628786103395392" id="-33292">
		<tag k="name" v="Sjøndahaugen" />
		<tag k="natural" v="hill" />
		<tag k="place" v="locality" />
		<tag k="ssr:stedsnr" v="33914" />
	</node>
	<node lat="61.73339167030428" lon="6.581830563963795" id="-33294">
		<tag k="name" v="Småskorane" />
		<tag k="natural" v="ridge" />
		<tag k="place" v="locality" />
		<tag k="ssr:stedsnr" v="33924" />
	</node>
	<node lat="61.731244441925654" lon="6.589086105898847" id="-33295">
		<tag k="name" v="Sandkulen" />
		<tag k="natural" v="hill" />
		<tag k="place" v="locality" />
		<tag k="ssr:stedsnr" v="33926" />
	</node>
	<node lat="61.73994166373529" lon="5.844594437526446" id="-33301">
		<tag k="name" v="Kvanngrøskaret" />
		<tag k="natural" v="valley" />
		<tag k="place" v="locality" />
		<tag k="ssr:stedsnr" v="69413" />
	</node>
	<node lat="61.7355750021199" lon="5.816266665608322" id="-33303">
		<tag k="name" v="Lyselveskaret" />
		<tag k="natural" v="valley" />
		<tag k="place" v="locality" />
		<tag k="ssr:stedsnr" v="69681" />
	</node>
	<node lat="61.64809722117669" lon="5.939294438510008" id="-33306">
		<tag k="name" v="Nobbedalen" />
		<tag k="natural" v="valley" />
		<tag k="place" v="locality" />
		<tag k="ssr:stedsnr" v="70274" />
	</node>
	<node lat="61.65652777395061" lon="6.132255558640943" id="-33307">
		<tag k="fixme" v="consider natural=peak for the most distinct mountains in the district" />
		<tag k="name" v="Blåfjellet" />
		<tag k="natural" v="hill" />
		<tag k="place" v="locality" />
		<tag k="ssr:stedsnr" v="70279" />
	</node>
	<node lat="61.61180277879946" lon="6.352413894214846" id="-33309">
		<tag k="name" v="Vetledalen" />
		<tag k="natural" v="valley" />
		<tag k="place" v="locality" />
		<tag k="ssr:stedsnr" v="71029" />
	</node>
	<node lat="61.61949444427898" lon="6.390377777150239" id="-33310">
		<tag k="name" v="Raudskarnakken" />
		<tag k="natural" v="hill" />
		<tag k="place" v="locality" />
		<tag k="ssr:stedsnr" v="71031" />
	</node>
	<node lat="61.765183330128295" lon="6.278741659266616" id="-33312">
		<tag k="name" v="Røsskleivdalen" />
		<tag k="natural" v="valley" />
		<tag k="place" v="locality" />
		<tag k="ssr:stedsnr" v="71206" />
	</node>
	<node lat="61.67352500060531" lon="6.115213881801981" id="-33317">
		<tag k="alt_name" v="Smørauga" />
		<tag k="name" v="Smørauget" />
		<tag k="natural" v="hill" />
		<tag k="place" v="locality" />
		<tag k="ssr:stedsnr" v="71324" />
	</node>
	<node lat="61.7222583291166" lon="6.205266676236814" id="-33318">
		<tag k="fixme" v="consider natural=peak for the most distinct mountains in the district" />
		<tag k="name" v="Heia" />
		<tag k="natural" v="hill" />
		<tag k="place" v="locality" />
		<tag k="ssr:stedsnr" v="71407" />
	</node>
	<node lat="61.67629444276548" lon="5.694694439854909" id="-33319">
		<tag k="name" v="Storevasskaret" />
		<tag k="natural" v="valley" />
		<tag k="place" v="locality" />
		<tag k="ssr:stedsnr" v="80739" />
	</node>
	<node lat="61.72383888933202" lon="5.907369439292416" id="-33323">
		<tag k="fixme" v="consider natural=peak for the most distinct mountains in the district" />
		<tag k="name" v="Laksegardfjellet" />
		<tag k="natural" v="hill" />
		<tag k="place" v="locality" />
		<tag k="ssr:stedsnr" v="93215" />
	</node>
	<node lat="61.707786111505136" lon="5.918188880864066" id="-33324">
		<tag k="name" v="Olarinden" />
		<tag k="natural" v="cliff" />
		<tag k="ssr:stedsnr" v="93223" />
	</node>
	<node lat="61.68798055135687" lon="5.848188896901" id="-33326">
		<tag k="name" v="Øyrane" />
		<tag k="place" v="locality" />
		<tag k="ssr:stedsnr" v="93276" />
	</node>
	<node lat="61.69689166791394" lon="5.852975005573359" id="-33327">
		<tag k="name" v="Gjesdalen" />
		<tag k="natural" v="valley" />
		<tag k="place" v="locality" />
		<tag k="ssr:stedsnr" v="93281" />
	</node>
	<node lat="61.66508333723008" lon="6.006322222632295" id="-33328">
		<tag k="name" v="Bogane" />
		<tag k="natural" v="slope" />
		<tag k="place" v="locality" />
		<tag k="ssr:stedsnr" v="93416" />
	</node>
	<node lat="61.82927777477572" lon="5.977086103485819" id="-33329">
		<tag k="name" v="Svinehagen" />
		<tag k="place" v="locality" />
		<tag k="ssr:stedsnr" v="93427" />
	</node>
	<node lat="61.83228055755561" lon="6.009755551707757" id="-33330">
		<tag k="fixme" v="consider natural=peak for the most distinct mountains in the district" />
		<tag k="name" v="Stølsnakken" />
		<tag k="natural" v="hill" />
		<tag k="place" v="locality" />
		<tag k="ssr:stedsnr" v="93325" />
	</node>
	<node lat="61.642602774218794" lon="6.023466661115035" id="-33331">
		<tag k="name" v="Middagsdalen" />
		<tag k="natural" v="valley" />
		<tag k="place" v="locality" />
		<tag k="ssr:stedsnr" v="93373" />
	</node>
	<node lat="61.62374444760406" lon="5.817600005499399" id="-33332">
		<tag k="name" v="Gamle Kvanngrø" />
		<tag k="place" v="locality" />
		<tag k="ssr:stedsnr" v="93566" />
	</node>
	<node lat="61.65936111040579" lon="5.920636109641525" id="-33333">
		<tag k="name" v="Moldskarhaugen" />
		<tag k="natural" v="hill" />
		<tag k="place" v="locality" />
		<tag k="ssr:stedsnr" v="93578" />
	</node>
	<node lat="61.708430552890405" lon="5.790936105333982" id="-33334">
		<tag k="name" v="Halvrø" />
		<tag k="place" v="locality" />
		<tag k="ssr:stedsnr" v="93584" />
	</node>
	<node lat="61.71477222420664" lon="5.78705833669949" id="-33335">
		<tag k="name" v="Krokane" />
		<tag k="natural" v="hill" />
		<tag k="place" v="locality" />
		<tag k="ssr:stedsnr" v="93585" />
	</node>
	<node lat="61.71480277810199" lon="5.792802771123196" id="-33336">
		<tag k="name" v="Heilia" />
		<tag k="natural" v="slope" />
		<tag k="place" v="locality" />
		<tag k="ssr:stedsnr" v="93586" />
	</node>
	<node lat="61.73844444645345" lon="5.785044449260481" id="-33337">
		<tag k="fixme" v="consider natural=peak for the most distinct mountains in the district" />
		<tag k="name" v="Heifjellet" />
		<tag k="natural" v="hill" />
		<tag k="place" v="locality" />
		<tag k="ssr:stedsnr" v="93605" />
	</node>
	<node lat="61.67835555573747" lon="5.770219444275463" id="-33338">
		<tag k="name" v="Blåkinna" />
		<tag k="natural" v="hill" />
		<tag k="place" v="locality" />
		<tag k="ssr:stedsnr" v="93621" />
	</node>
	<node lat="61.675663893096285" lon="5.6980722261171834" id="-33339">
		<tag k="name" v="Storevasskaret" />
		<tag k="natural" v="valley" />
		<tag k="place" v="locality" />
		<tag k="ssr:stedsnr" v="93627" />
	</node>
	<node lat="61.64359722243791" lon="5.741486116078642" id="-33342">
		<tag k="name" v="Stegane" />
		<tag k="natural" v="hill" />
		<tag k="place" v="locality" />
		<tag k="ssr:stedsnr" v="93682" />
	</node>
	<node lat="61.764905553609196" lon="6.163166665317131" id="-33343">
		<tag k="name" v="Veirevalsen" />
		<tag k="place" v="locality" />
		<tag k="ssr:stedsnr" v="94006" />
	</node>
	<node lat="61.8311222178428" lon="6.104869436548317" id="-33344">
		<tag k="fixme" v="consider natural=peak for the most distinct mountains in the district" />
		<tag k="name" v="Høgeberget" />
		<tag k="natural" v="hill" />
		<tag k="place" v="locality" />
		<tag k="ssr:stedsnr" v="94014" />
	</node>
	<node lat="61.76383889024522" lon="6.122836119552527" id="-33345">
		<tag k="name" v="Kvernhushaugen" />
		<tag k="natural" v="hill" />
		<tag k="place" v="locality" />
		<tag k="ssr:stedsnr" v="94016" />
	</node>
	<node lat="61.736738888410606" lon="6.0562194368472" id="-33347">
		<tag k="name" v="Reset" />
		<tag k="place" v="locality" />
		<tag k="ssr:stedsnr" v="94119" />
	</node>
	<node lat="61.69232778185476" lon="6.365155563119023" id="-33350">
		<tag k="name" v="Kandalshaugen" />
		<tag k="natural" v="hill" />
		<tag k="place" v="locality" />
		<tag k="ssr:stedsnr" v="94176" />
	</node>
	<node lat="61.69475555714028" lon="6.116091668544602" id="-33353">
		<tag k="name" v="Berga" />
		<tag k="natural" v="hill" />
		<tag k="place" v="locality" />
		<tag k="ssr:stedsnr" v="94503" />
	</node>
	<node lat="61.84152777408439" lon="6.034319449745576" id="-33354">
		<tag k="name" v="Eikarnakken" />
		<tag k="natural" v="hill" />
		<tag k="place" v="locality" />
		<tag k="ssr:stedsnr" v="94511" />
	</node>
	<node lat="61.735511110909734" lon="6.465411119549781" id="-33355">
		<tag k="name" v="Breihaugen" />
		<tag k="natural" v="hill" />
		<tag k="place" v="locality" />
		<tag k="ssr:stedsnr" v="94804" />
	</node>
	<node lat="61.74269444850132" lon="6.4480777684532855" id="-33356">
		<tag k="name" v="Skrøppahaugen" />
		<tag k="natural" v="hill" />
		<tag k="place" v="locality" />
		<tag k="ssr:stedsnr" v="94813" />
	</node>
	<node lat="61.75691111156795" lon="6.306780558869167" id="-33357">
		<tag k="name" v="Stordagsletten" />
		<tag k="place" v="locality" />
		<tag k="ssr:stedsnr" v="94829" />
	</node>
	<node lat="61.69103611549827" lon="6.419336116963305" id="-33358">
		<tag k="name" v="Vesleandersslåttene" />
		<tag k="place" v="locality" />
		<tag k="ssr:stedsnr" v="94835" />
	</node>
	<node lat="61.654152776117996" lon="6.521955557100911" id="-33359">
		<tag k="fixme" v="consider natural=peak for the most distinct mountains in the district" />
		<tag k="name" v="Alskorane" />
		<tag k="natural" v="hill" />
		<tag k="place" v="locality" />
		<tag k="ssr:stedsnr" v="94839" />
	</node>
	<node lat="61.610116666273875" lon="5.671136112893061" id="-33360">
		<tag k="name" v="Sørevikskaret" />
		<tag k="natural" v="valley" />
		<tag k="place" v="locality" />
		<tag k="ssr:stedsnr" v="94913" />
	</node>
	<node lat="61.72418610749775" lon="6.524708338558373" id="-33364">
		<tag k="name" v="Seljeflot" />
		<tag k="place" v="locality" />
		<tag k="ssr:stedsnr" v="94902" />
	</node>
	<node lat="61.737588890738785" lon="5.930847217200529" id="-33365">
		<tag k="name" v="Synhammaren" />
		<tag k="natural" v="hill" />
		<tag k="place" v="locality" />
		<tag k="ssr:stedsnr" v="100066" />
	</node>
	<node lat="61.70698055907566" lon="5.841469434946933" id="-33369">
		<tag k="fixme" v="consider natural=peak for the most distinct mountains in the district" />
		<tag k="name" v="Blåfjellet" />
		<tag k="natural" v="hill" />
		<tag k="place" v="locality" />
		<tag k="ssr:stedsnr" v="251688" />
	</node>
	<node lat="61.71556111007816" lon="5.672183342018783" id="-33370">
		<tag k="name" v="Trongedalen" />
		<tag k="natural" v="valley" />
		<tag k="place" v="locality" />
		<tag k="ssr:stedsnr" v="251672" />
	</node>
	<node lat="61.720002775847576" lon="5.733966673132739" id="-33371">
		<tag k="name" v="Straumsbotnen" />
		<tag k="natural" v="valley" />
		<tag k="place" v="locality" />
		<tag k="ssr:stedsnr" v="251682" />
	</node>
	<node lat="61.79749722290655" lon="6.318183338325441" id="-33376">
		<tag k="fixme" v="consider natural=peak for the most distinct mountains in the district" />
		<tag k="name" v="Svinestranda" />
		<tag k="natural" v="hill" />
		<tag k="place" v="locality" />
		<tag k="ssr:stedsnr" v="252085" />
	</node>
	<node lat="61.66721110851846" lon="6.498300000207922" id="-33378">
		<tag k="name" v="Lågeskaret" />
		<tag k="natural" v="valley" />
		<tag k="place" v="locality" />
		<tag k="ssr:stedsnr" v="252060" />
	</node>
	<node lat="61.75840277498808" lon="6.292002774912408" id="-33380">
		<tag k="fixme" v="consider natural=peak for the most distinct mountains in the district" />
		<tag k="name" v="Veten" />
		<tag k="natural" v="hill" />
		<tag k="place" v="locality" />
		<tag k="ssr:stedsnr" v="252102" />
	</node>
	<node lat="61.66904444398867" lon="6.1194694356301165" id="-33381">
		<tag k="fixme" v="consider natural=peak for the most distinct mountains in the district" />
		<tag k="name" v="Rantane" />
		<tag k="natural" v="hill" />
		<tag k="place" v="locality" />
		<tag k="ssr:stedsnr" v="252260" />
	</node>
	<node lat="61.64062777414796" lon="5.917163883468344" id="-33383">
		<tag k="alt_name" v="Rauhamrane" />
		<tag k="name" v="Raudhamrane" />
		<tag k="natural" v="hill" />
		<tag k="place" v="locality" />
		<tag k="ssr:stedsnr" v="252273" />
	</node>
	<node lat="61.65290277941749" lon="6.031372225711541" id="-33384">
		<tag k="fixme" v="consider natural=peak for the most distinct mountains in the district" />
		<tag k="name" v="Slettelvehamrane" />
		<tag k="natural" v="hill" />
		<tag k="place" v="locality" />
		<tag k="ssr:stedsnr" v="252277" />
	</node>
	<node lat="61.65150833596247" lon="5.906747223371498" id="-33385">
		<tag k="fixme" v="consider natural=peak for the most distinct mountains in the district" />
		<tag k="name" v="Holtane" />
		<tag k="natural" v="hill" />
		<tag k="place" v="locality" />
		<tag k="ssr:stedsnr" v="252288" />
	</node>
	<node lat="61.72731388722017" lon="5.86693055752085" id="-33386">
		<tag k="alt_name" v="Nonstua" />
		<tag k="name" v="Nonstuva" />
		<tag k="natural" v="hill" />
		<tag k="place" v="locality" />
		<tag k="ssr:stedsnr" v="252319" />
	</node>
	<node lat="61.723716671210724" lon="6.056177779112694" id="-33387">
		<tag k="name" v="Raudeholten" />
		<tag k="place" v="locality" />
		<tag k="ssr:stedsnr" v="252321" />
	</node>
	<node lat="61.74306666380894" lon="6.087677784914963" id="-33389">
		<tag k="name" v="Botnen" />
		<tag k="natural" v="valley" />
		<tag k="place" v="locality" />
		<tag k="ssr:stedsnr" v="129402" />
	</node>
	<node lat="61.653938885780946" lon="5.930158327537238" id="-33391">
		<tag k="fixme" v="consider natural=peak for the most distinct mountains in the district" />
		<tag k="name" v="Mjelleimsegga" />
		<tag k="natural" v="hill" />
		<tag k="place" v="locality" />
		<tag k="ssr:stedsnr" v="130275" />
	</node>
	<node lat="61.69566388938879" lon="6.648244447182235" id="-33392">
		<tag k="fixme" v="consider natural=peak for the most distinct mountains in the district" />
		<tag k="name" v="Dauremålet" />
		<tag k="natural" v="hill" />
		<tag k="place" v="locality" />
		<tag k="ssr:stedsnr" v="130906" />
	</node>
	<node lat="61.71913888497477" lon="6.574950005661334" id="-33393">
		<tag k="fixme" v="consider natural=peak for the most distinct mountains in the district" />
		<tag k="name" v="Vora" />
		<tag k="natural" v="hill" />
		<tag k="place" v="locality" />
		<tag k="ssr:stedsnr" v="131105" />
	</node>
	<node lat="61.81873055106572" lon="6.22817221641464" id="-33400">
		<tag k="fixme" v="consider natural=peak for the most distinct mountains in the district" />
		<tag k="name" v="Haugsvarden" />
		<tag k="natural" v="hill" />
		<tag k="place" v="locality" />
		<tag k="ssr:stedsnr" v="131124" />
	</node>
	<node lat="61.77473611479384" lon="6.356236104413596" id="-33403">
		<tag k="name" v="Høgehaugen" />
		<tag k="natural" v="hill" />
		<tag k="place" v="locality" />
		<tag k="ssr:stedsnr" v="131174" />
	</node>
	<node lat="61.779233334428525" lon="6.348111102920805" id="-33404">
		<tag k="name" v="Fagredalen" />
		<tag k="natural" v="valley" />
		<tag k="place" v="locality" />
		<tag k="ssr:stedsnr" v="131176" />
	</node>
	<node lat="61.67888611357047" lon="6.310577775130424" id="-33409">
		<tag k="name" v="Sørsendalen" />
		<tag k="natural" v="valley" />
		<tag k="place" v="locality" />
		<tag k="ssr:stedsnr" v="131072" />
	</node>
	<node lat="61.68711666237456" lon="6.559669451618431" id="-33410">
		<tag k="fixme" v="consider natural=peak for the most distinct mountains in the district" />
		<tag k="name" v="Daurmål" />
		<tag k="natural" v="hill" />
		<tag k="place" v="locality" />
		<tag k="ssr:stedsnr" v="131076" />
	</node>
	<node lat="61.683966668688505" lon="6.219224993080749" id="-33411">
		<tag k="fixme" v="consider natural=peak for the most distinct mountains in the district" />
		<tag k="name" v="Tverrfjellet" />
		<tag k="natural" v="hill" />
		<tag k="place" v="locality" />
		<tag k="ssr:stedsnr" v="131087" />
	</node>
	<node lat="61.67646666360395" lon="6.171730550163785" id="-33414">
		<tag k="name" v="Holtalega" />
		<tag k="place" v="locality" />
		<tag k="ssr:stedsnr" v="131279" />
	</node>
	<node lat="61.838308331125205" lon="6.044794442026035" id="-33416">
		<tag k="name" v="Omnen" />
		<tag k="natural" v="valley" />
		<tag k="place" v="locality" />
		<tag k="ssr:stedsnr" v="252608" />
	</node>
	<node lat="61.84270000291095" lon="6.083358329284255" id="-33418">
		<tag k="fixme" v="consider natural=peak for the most distinct mountains in the district" />
		<tag k="name" v="Andåsen" />
		<tag k="natural" v="hill" />
		<tag k="place" v="locality" />
		<tag k="ssr:stedsnr" v="252616" />
	</node>
	<node lat="61.82877499590818" lon="6.156816657997816" id="-33420">
		<tag k="alt_name" v="Haugen" />
		<tag k="name" v="Bolberg" />
		<tag k="natural" v="hill" />
		<tag k="place" v="locality" />
		<tag k="ssr:stedsnr" v="252663" />
	</node>
	<node lat="61.81706388526802" lon="6.05194722607311" id="-33422">
		<tag k="alt_name" v="Aksla" />
		<tag k="fixme" v="multiple name tags, choose one and add the other to alt_name; consider natural=peak for the most distinct mountains in the district" />
		<tag k="name" v="Nautefjellet;Akslene" />
		<tag k="natural" v="hill" />
		<tag k="place" v="locality" />
		<tag k="ssr:stedsnr" v="252672" />
	</node>
	<node lat="61.75188797856192" lon="5.918869788626268" id="-33429">
		<tag k="name" v="Svarsåtelia" />
		<tag k="natural" v="slope" />
		<tag k="place" v="locality" />
		<tag k="ssr:stedsnr" v="252756" />
	</node>
	<node lat="61.70027500225216" lon="6.587080556986746" id="-33434">
		<tag k="fixme" v="consider natural=peak for the most distinct mountains in the district" />
		<tag k="name" v="Styggefjellet" />
		<tag k="natural" v="hill" />
		<tag k="place" v="locality" />
		<tag k="ssr:stedsnr" v="253082" />
	</node>
	<node lat="61.69709166781673" lon="6.458652786450499" id="-33435">
		<tag k="fixme" v="consider natural=peak for the most distinct mountains in the district" />
		<tag k="name" v="Blåfjellet" />
		<tag k="natural" v="hill" />
		<tag k="place" v="locality" />
		<tag k="ssr:stedsnr" v="253090" />
	</node>
	<node lat="61.69769166519386" lon="6.246724992254514" id="-33437">
		<tag k="name" v="Fagredalen" />
		<tag k="natural" v="valley" />
		<tag k="place" v="locality" />
		<tag k="ssr:stedsnr" v="253093" />
	</node>
	<node lat="61.81523055628572" lon="6.063811117462426" id="-33447">
		<tag k="name" v="Ramnegjølet" />
		<tag k="natural" v="valley" />
		<tag k="place" v="locality" />
		<tag k="ssr:stedsnr" v="141582" />
	</node>
	<node lat="61.80908888916093" lon="5.90679722424515" id="-33448">
		<tag k="name" v="Devonskaret" />
		<tag k="natural" v="valley" />
		<tag k="place" v="locality" />
		<tag k="ssr:stedsnr" v="141584" />
	</node>
	<node lat="61.70265555139997" lon="5.817950008021067" id="-33451">
		<tag k="name" v="Bjørnebotnen" />
		<tag k="natural" v="valley" />
		<tag k="place" v="locality" />
		<tag k="ssr:stedsnr" v="141694" />
	</node>
	<node lat="61.73527500070683" lon="5.860127785769263" id="-33452">
		<tag k="name" v="Slettebakkane" />
		<tag k="natural" v="slope" />
		<tag k="place" v="locality" />
		<tag k="ssr:stedsnr" v="153364" />
	</node>
	<node lat="61.73398333727318" lon="5.8720027755878474" id="-33453">
		<tag k="name" v="Øyane" />
		<tag k="place" v="locality" />
		<tag k="ssr:stedsnr" v="153372" />
	</node>
	<node lat="61.610691667284364" lon="5.735891669066979" id="-33456">
		<tag k="name" v="Vassenderyggen" />
		<tag k="natural" v="ridge" />
		<tag k="place" v="locality" />
		<tag k="ssr:stedsnr" v="153511" />
	</node>
	<node lat="61.662530555422656" lon="5.682530552427105" id="-33457">
		<tag k="name" v="Greftene" />
		<tag k="place" v="locality" />
		<tag k="ssr:stedsnr" v="153512" />
	</node>
	<node lat="61.65550555783959" lon="6.045630549815928" id="-33458">
		<tag k="name" v="Trengslene" />
		<tag k="place" v="locality" />
		<tag k="ssr:stedsnr" v="153455" />
	</node>
	<node lat="61.694261111303646" lon="5.93173889232072" id="-33459">
		<tag k="name" v="Godsvorhammaren" />
		<tag k="natural" v="hill" />
		<tag k="place" v="locality" />
		<tag k="ssr:stedsnr" v="153462" />
	</node>
	<node lat="61.67138889156169" lon="5.8001583300598725" id="-33461">
		<tag k="fixme" v="consider natural=peak for the most distinct mountains in the district" />
		<tag k="name" v="Espesetåsen" />
		<tag k="natural" v="hill" />
		<tag k="place" v="locality" />
		<tag k="ssr:stedsnr" v="153705" />
	</node>
	<node lat="61.67836944874449" lon="5.798025007021026" id="-33463">
		<tag k="name" v="Neskvia" />
		<tag k="place" v="locality" />
		<tag k="ssr:stedsnr" v="153707" />
	</node>
	<node lat="61.68054166234459" lon="5.693580553716829" id="-33464">
		<tag k="fixme" v="consider natural=peak for the most distinct mountains in the district" />
		<tag k="name" v="Hestefjellet" />
		<tag k="natural" v="hill" />
		<tag k="place" v="locality" />
		<tag k="ssr:stedsnr" v="153712" />
	</node>
	<node lat="61.611372224716966" lon="5.781852768464973" id="-33467">
		<tag k="fixme" v="consider natural=peak for the most distinct mountains in the district" />
		<tag k="name" v="Smylmedalsegga" />
		<tag k="natural" v="hill" />
		<tag k="place" v="locality" />
		<tag k="ssr:stedsnr" v="153766" />
	</node>
	<node lat="61.62072222650259" lon="5.850191660063497" id="-33468">
		<tag k="name" v="Vintragjelet" />
		<tag k="natural" v="valley" />
		<tag k="place" v="locality" />
		<tag k="ssr:stedsnr" v="153655" />
	</node>
	<node lat="61.63341944082254" lon="5.837011111903542" id="-33469">
		<tag k="name" v="Lykkjebardane" />
		<tag k="place" v="locality" />
		<tag k="ssr:stedsnr" v="153658" />
	</node>
	<node lat="61.81627499824222" lon="6.060641669236217" id="-33470">
		<tag k="name" v="Ramnegjølet" />
		<tag k="natural" v="gorge" />
		<tag k="ssr:stedsnr" v="154007" />
	</node>
	<node lat="61.84413888502743" lon="6.28176945422085" id="-33471">
		<tag k="name" v="Brattebakken" />
		<tag k="natural" v="slope" />
		<tag k="place" v="locality" />
		<tag k="ssr:stedsnr" v="154152" />
	</node>
	<node lat="61.65517499588514" lon="6.403986112843379" id="-33473">
		<tag k="fixme" v="consider natural=peak for the most distinct mountains in the district" />
		<tag k="name" v="Bjørnanakken" />
		<tag k="natural" v="hill" />
		<tag k="place" v="locality" />
		<tag k="ssr:stedsnr" v="154305" />
	</node>
	<node lat="61.8010055581368" lon="6.057994445594448" id="-33475">
		<tag k="fixme" v="consider natural=peak for the most distinct mountains in the district" />
		<tag k="name" v="Tempelen" />
		<tag k="natural" v="hill" />
		<tag k="place" v="locality" />
		<tag k="ssr:stedsnr" v="154057" />
	</node>
	<node lat="61.79665833576537" lon="6.086066657381988" id="-33476">
		<tag k="fixme" v="consider natural=peak for the most distinct mountains in the district" />
		<tag k="name" v="Skorgefjellet" />
		<tag k="natural" v="hill" />
		<tag k="place" v="locality" />
		<tag k="ssr:stedsnr" v="154060" />
	</node>
	<node lat="61.79390555409585" lon="6.100005553852913" id="-33477">
		<tag k="name" v="Frua" />
		<tag k="place" v="locality" />
		<tag k="ssr:stedsnr" v="154062" />
	</node>
	<node lat="61.758719441719926" lon="6.323074992987665" id="-33479">
		<tag k="name" v="Kyrkjeteigen" />
		<tag k="natural" v="hill" />
		<tag k="place" v="locality" />
		<tag k="ssr:stedsnr" v="154210" />
	</node>
	<node lat="61.67655277674505" lon="6.166172229617308" id="-33481">
		<tag k="name" v="Blåurbotnen" />
		<tag k="natural" v="valley" />
		<tag k="place" v="locality" />
		<tag k="ssr:stedsnr" v="154101" />
	</node>
	<node lat="61.656411109154654" lon="6.082138892821685" id="-33482">
		<tag k="fixme" v="consider natural=peak for the most distinct mountains in the district" />
		<tag k="name" v="Resholten" />
		<tag k="natural" v="hill" />
		<tag k="place" v="locality" />
		<tag k="ssr:stedsnr" v="154504" />
	</node>
	<node lat="61.8376138922991" lon="6.016758327288537" id="-33483">
		<tag k="name" v="Haugane" />
		<tag k="natural" v="hill" />
		<tag k="place" v="locality" />
		<tag k="ssr:stedsnr" v="154508" />
	</node>
	<node lat="61.76505555765247" lon="6.481352778008329" id="-33484">
		<tag k="name" v="Holeleitet" />
		<tag k="place" v="locality" />
		<tag k="ssr:stedsnr" v="154851" />
	</node>
	<node lat="61.75737221983301" lon="6.483988892047581" id="-33485">
		<tag k="name" v="Furehaugen" />
		<tag k="natural" v="hill" />
		<tag k="place" v="locality" />
		<tag k="ssr:stedsnr" v="154852" />
	</node>
	<node lat="61.750116668127944" lon="6.487166662368404" id="-33486">
		<tag k="name" v="Kviavollen" />
		<tag k="natural" v="slope" />
		<tag k="place" v="locality" />
		<tag k="ssr:stedsnr" v="154854" />
	</node>
	<node lat="61.751708330762966" lon="6.493202774368435" id="-33487">
		<tag k="name" v="Svehaugen" />
		<tag k="natural" v="slope" />
		<tag k="place" v="locality" />
		<tag k="ssr:stedsnr" v="154857" />
	</node>
	<node lat="61.73392222322385" lon="6.513322227551972" id="-33489">
		<tag k="name" v="Furehaugane" />
		<tag k="natural" v="hill" />
		<tag k="place" v="locality" />
		<tag k="ssr:stedsnr" v="154865" />
	</node>
	<node lat="61.7139583297825" lon="6.61943333005779" id="-33490">
		<tag k="name" v="Labakken" />
		<tag k="natural" v="slope" />
		<tag k="place" v="locality" />
		<tag k="ssr:stedsnr" v="154902" />
	</node>
	<node lat="61.74684167116743" lon="6.152333334742486" id="-33496">
		<tag k="fixme" v="consider natural=peak for the most distinct mountains in the district" />
		<tag k="name" v="Arnestadfjellet" />
		<tag k="natural" v="hill" />
		<tag k="place" v="locality" />
		<tag k="ssr:stedsnr" v="190412" />
	</node>
	<node lat="61.73879722605926" lon="6.049377775833524" id="-33498">
		<tag k="name" v="Traudalen" />
		<tag k="natural" v="valley" />
		<tag k="place" v="locality" />
		<tag k="ssr:stedsnr" v="190416" />
	</node>
	<node lat="61.63878055622856" lon="6.028816659521084" id="-33499">
		<tag k="fixme" v="multiple name tags, choose one and add the other to alt_name; consider natural=peak for the most distinct mountains in the district" />
		<tag k="name" v="Åstøylsfjellet;Steinbottsegga" />
		<tag k="natural" v="hill" />
		<tag k="place" v="locality" />
		<tag k="ssr:stedsnr" v="191223" />
	</node>
	<node lat="61.644811113552365" lon="5.8510722247380045" id="-33501">
		<tag k="fixme" v="consider natural=peak for the most distinct mountains in the district" />
		<tag k="name" v="Eggene" />
		<tag k="natural" v="hill" />
		<tag k="place" v="locality" />
		<tag k="ssr:stedsnr" v="191258" />
	</node>
	<node lat="61.64281944574658" lon="5.931108339808288" id="-33502">
		<tag k="name" v="Medalen" />
		<tag k="natural" v="valley" />
		<tag k="place" v="locality" />
		<tag k="ssr:stedsnr" v="191259" />
	</node>
	<node lat="61.67597778143757" lon="5.821816668131607" id="-33508">
		<tag k="name" v="Storegjølet" />
		<tag k="natural" v="valley" />
		<tag k="place" v="locality" />
		<tag k="ssr:stedsnr" v="209403" />
	</node>
	<node lat="61.67962777606661" lon="5.902136104507075" id="-33509">
		<tag k="name" v="Strupen" />
		<tag k="natural" v="ridge" />
		<tag k="place" v="locality" />
		<tag k="ssr:stedsnr" v="214329" />
	</node>
	<node lat="61.65471111128343" lon="5.977830556633052" id="-33511">
		<tag k="name" v="Høgeteinhaugen" />
		<tag k="natural" v="hill" />
		<tag k="place" v="locality" />
		<tag k="ssr:stedsnr" v="214281" />
	</node>
	<node lat="61.651047225498004" lon="5.990102780747753" id="-33514">
		<tag k="name" v="Skarhaugen" />
		<tag k="natural" v="hill" />
		<tag k="place" v="locality" />
		<tag k="ssr:stedsnr" v="214435" />
	</node>
	<node lat="61.681936114556166" lon="5.758158323709649" id="-33516">
		<tag k="name" v="Betane" />
		<tag k="natural" v="hill" />
		<tag k="place" v="locality" />
		<tag k="ssr:stedsnr" v="214726" />
	</node>
	<node lat="61.70875832913417" lon="5.793741676371928" id="-33517">
		<tag k="name" v="Neset" />
		<tag k="place" v="locality" />
		<tag k="ssr:stedsnr" v="214691" />
	</node>
	<node lat="61.716944446993125" lon="5.788130545952901" id="-33518">
		<tag k="name" v="Storestien" />
		<tag k="natural" v="slope" />
		<tag k="place" v="locality" />
		<tag k="ssr:stedsnr" v="214694" />
	</node>
	<node lat="61.76354444232601" lon="6.142166659371047" id="-33519">
		<tag k="name" v="Leitingshaugen" />
		<tag k="natural" v="hill" />
		<tag k="place" v="locality" />
		<tag k="ssr:stedsnr" v="215004" />
	</node>
	<node lat="61.76708888726135" lon="6.145852779146841" id="-33520">
		<tag k="name" v="Nygeilane" />
		<tag k="place" v="locality" />
		<tag k="ssr:stedsnr" v="215005" />
	</node>
	<node lat="61.828622220731596" lon="6.113836118086122" id="-33521">
		<tag k="name" v="Langhylla" />
		<tag k="place" v="locality" />
		<tag k="ssr:stedsnr" v="215011" />
	</node>
	<node lat="61.783941665346106" lon="6.084588884049829" id="-33523">
		<tag k="name" v="Bulegene" />
		<tag k="place" v="locality" />
		<tag k="ssr:stedsnr" v="215129" />
	</node>
	<node lat="61.78092500386382" lon="6.066044449414325" id="-33524">
		<tag k="name" v="Skinsthaugen" />
		<tag k="natural" v="hill" />
		<tag k="place" v="locality" />
		<tag k="ssr:stedsnr" v="215130" />
	</node>
	<node lat="61.66759999875865" lon="6.0839722168546135" id="-33526">
		<tag k="name" v="Strandaskaret" />
		<tag k="natural" v="valley" />
		<tag k="place" v="locality" />
		<tag k="ssr:stedsnr" v="215090" />
	</node>
	<node lat="61.673097220334455" lon="6.130263890330249" id="-33527">
		<tag k="name" v="Rantebotn" />
		<tag k="natural" v="valley" />
		<tag k="place" v="locality" />
		<tag k="ssr:stedsnr" v="215093" />
	</node>
	<node lat="61.7440777793921" lon="6.304813891357858" id="-33528">
		<tag k="name" v="Røyfloten" />
		<tag k="place" v="locality" />
		<tag k="ssr:stedsnr" v="215206" />
	</node>
	<node lat="61.82296667091292" lon="6.185350007184468" id="-33531">
		<tag k="name" v="Bjørndalen" />
		<tag k="natural" v="valley" />
		<tag k="place" v="locality" />
		<tag k="ssr:stedsnr" v="215284" />
	</node>
	<node lat="61.65214722028473" lon="6.073397215830663" id="-33532">
		<tag k="name" v="Nobbedalen" />
		<tag k="natural" v="valley" />
		<tag k="place" v="locality" />
		<tag k="ssr:stedsnr" v="215489" />
	</node>
	<node lat="61.66318889104344" lon="6.5280166738053245" id="-33535">
		<tag k="name" v="Nibbegjølet" />
		<tag k="natural" v="gorge" />
		<tag k="ssr:stedsnr" v="215806" />
	</node>
	<node lat="61.76052777851341" lon="6.406433336960485" id="-33536">
		<tag k="name" v="Tverrabakkane" />
		<tag k="natural" v="slope" />
		<tag k="place" v="locality" />
		<tag k="ssr:stedsnr" v="215824" />
	</node>
	<node lat="61.75698333328746" lon="6.313547221761502" id="-33537">
		<tag k="name" v="Nedstealteret" />
		<tag k="natural" v="hill" />
		<tag k="place" v="locality" />
		<tag k="ssr:stedsnr" v="215826" />
	</node>
	<node lat="61.72416111459769" lon="6.5045194420003485" id="-33538">
		<tag k="name" v="Teitaøya" />
		<tag k="place" v="locality" />
		<tag k="ssr:stedsnr" v="215889" />
	</node>
	<node lat="61.708524999447285" lon="6.517991668350461" id="-33539">
		<tag k="name" v="Ospehaugane" />
		<tag k="natural" v="hill" />
		<tag k="place" v="locality" />
		<tag k="ssr:stedsnr" v="215892" />
	</node>
	<node lat="61.74308055874081" lon="6.552708336192127" id="-33543">
		<tag k="name" v="Løkane" />
		<tag k="place" v="locality" />
		<tag k="ssr:stedsnr" v="215922" />
	</node>
	<node lat="61.75583888765041" lon="6.153852779379201" id="-33547">
		<tag k="fixme" v="consider natural=peak for the most distinct mountains in the district" />
		<tag k="name" v="Arnestadnakken" />
		<tag k="natural" v="hill" />
		<tag k="place" v="locality" />
		<tag k="ssr:stedsnr" v="452356" />
	</node>
	<node lat="61.750291664778416" lon="6.359941672052181" id="-33548">
		<tag k="name" v="Styggemarka" />
		<tag k="natural" v="slope" />
		<tag k="place" v="locality" />
		<tag k="ssr:stedsnr" v="452643" />
	</node>
	<node lat="61.70468888544566" lon="6.25962777222676" id="-33549">
		<tag k="name" v="Lisbetdalen" />
		<tag k="natural" v="valley" />
		<tag k="place" v="locality" />
		<tag k="ssr:stedsnr" v="253103" />
	</node>
	<node lat="61.72650277781458" lon="6.316688889553004" id="-33552">
		<tag k="fixme" v="consider natural=peak for the most distinct mountains in the district" />
		<tag k="name" v="Ryssdalshornet" />
		<tag k="natural" v="hill" />
		<tag k="place" v="locality" />
		<tag k="ssr:stedsnr" v="253122" />
	</node>
	<node lat="61.65973888664124" lon="5.846677775996126" id="-33558">
		<tag k="name" v="Blånipa" />
		<tag k="natural" v="hill" />
		<tag k="place" v="locality" />
		<tag k="ssr:stedsnr" v="253338" />
	</node>
	<node lat="61.817344447731365" lon="6.188316674177316" id="-33561">
		<tag k="fixme" v="consider natural=peak for the most distinct mountains in the district" />
		<tag k="name" v="Tystadfjellet" />
		<tag k="natural" v="hill" />
		<tag k="place" v="locality" />
		<tag k="ssr:stedsnr" v="253706" />
	</node>
	<node lat="61.789308332236565" lon="6.008250008475429" id="-33564">
		<tag k="fixme" v="consider natural=peak for the most distinct mountains in the district" />
		<tag k="name" v="Jura" />
		<tag k="natural" v="hill" />
		<tag k="place" v="locality" />
		<tag k="ssr:stedsnr" v="253734" />
	</node>
	<node lat="61.794686112540596" lon="6.08489165731142" id="-33565">
		<tag k="fixme" v="consider natural=peak for the most distinct mountains in the district" />
		<tag k="name" v="Åsvedkammen" />
		<tag k="natural" v="hill" />
		<tag k="place" v="locality" />
		<tag k="ssr:stedsnr" v="253745" />
	</node>
	<node lat="61.70675833266789" lon="5.822916670670645" id="-33566">
		<tag k="name" v="Storehaugen" />
		<tag k="natural" v="hill" />
		<tag k="place" v="locality" />
		<tag k="ssr:stedsnr" v="457242" />
	</node>
	<node lat="61.794241671130216" lon="5.917516665224215" id="-33567">
		<tag k="name" v="Botnen" />
		<tag k="natural" v="valley" />
		<tag k="place" v="locality" />
		<tag k="ssr:stedsnr" v="457255" />
	</node>
	<node lat="61.83119166886889" lon="6.020755555420721" id="-33568">
		<tag k="name" v="Høydalskvilet" />
		<tag k="place" v="locality" />
		<tag k="ssr:stedsnr" v="457385" />
	</node>
	<node lat="61.67584722431668" lon="5.864983336570379" id="-33569">
		<tag k="fixme" v="consider natural=peak for the most distinct mountains in the district" />
		<tag k="name" v="Kvitefjellet" />
		<tag k="natural" v="hill" />
		<tag k="place" v="locality" />
		<tag k="ssr:stedsnr" v="457325" />
	</node>
	<node lat="61.67697778085066" lon="5.858602769275604" id="-33570">
		<tag k="name" v="Ramsgrø" />
		<tag k="place" v="locality" />
		<tag k="ssr:stedsnr" v="457326" />
	</node>
	<node lat="61.728158332333" lon="5.851302778814002" id="-33571">
		<tag k="name" v="Tunga" />
		<tag k="place" v="locality" />
		<tag k="ssr:stedsnr" v="457347" />
	</node>
	<node lat="61.74044722557555" lon="5.9077472292008055" id="-33572">
		<tag k="name" v="Kammane" />
		<tag k="natural" v="ridge" />
		<tag k="place" v="locality" />
		<tag k="ssr:stedsnr" v="457355" />
	</node>
	<node lat="61.759308332868265" lon="5.965405562014461" id="-33576">
		<tag k="name" v="Sessabakkane" />
		<tag k="natural" v="slope" />
		<tag k="place" v="locality" />
		<tag k="ssr:stedsnr" v="457476" />
	</node>
	<node lat="61.60908889289694" lon="5.7199527689566025" id="-33577">
		<tag k="name" v="Fenene" />
		<tag k="place" v="locality" />
		<tag k="ssr:stedsnr" v="457486" />
	</node>
	<node lat="61.75403055111632" lon="6.576741660170682" id="-33578">
		<tag k="name" v="Skylhamrane" />
		<tag k="natural" v="hill" />
		<tag k="place" v="locality" />
		<tag k="ssr:stedsnr" v="457494" />
	</node>
	<node lat="61.62719722352069" lon="5.670772213376885" id="-33579">
		<tag k="fixme" v="consider natural=peak for the most distinct mountains in the district" />
		<tag k="name" v="Setråsen" />
		<tag k="natural" v="hill" />
		<tag k="place" v="locality" />
		<tag k="ssr:stedsnr" v="457501" />
	</node>
	<node lat="61.76775833180043" lon="6.261547225099346" id="-33580">
		<tag k="name" v="Sagevadet" />
		<tag k="place" v="locality" />
		<tag k="ssr:stedsnr" v="458227" />
	</node>
	<node lat="61.769341670336544" lon="6.2817555573627795" id="-33581">
		<tag k="name" v="Breimfarhjellen" />
		<tag k="place" v="locality" />
		<tag k="ssr:stedsnr" v="458232" />
	</node>
	<node lat="61.63246111293351" lon="5.763972229415487" id="-33582">
		<tag k="name" v="Støylane" />
		<tag k="natural" v="slope" />
		<tag k="place" v="locality" />
		<tag k="ssr:stedsnr" v="262750" />
	</node>
	<node lat="61.62366666712724" lon="5.6842138888128115" id="-33583">
		<tag k="fixme" v="consider natural=peak for the most distinct mountains in the district" />
		<tag k="name" v="Alliåsen" />
		<tag k="natural" v="hill" />
		<tag k="place" v="locality" />
		<tag k="ssr:stedsnr" v="262752" />
	</node>
	<node lat="61.62007222201283" lon="5.674311102667315" id="-33584">
		<tag k="fixme" v="consider natural=peak for the most distinct mountains in the district" />
		<tag k="name" v="Eikåsen" />
		<tag k="natural" v="hill" />
		<tag k="place" v="locality" />
		<tag k="ssr:stedsnr" v="262754" />
	</node>
	<node lat="61.68162777388545" lon="5.794436113485233" id="-33585">
		<tag k="name" v="Hjellbakkane" />
		<tag k="natural" v="slope" />
		<tag k="place" v="locality" />
		<tag k="ssr:stedsnr" v="457672" />
	</node>
	<node lat="61.6851833320528" lon="5.7869833412502745" id="-33586">
		<tag k="name" v="Reset" />
		<tag k="place" v="locality" />
		<tag k="ssr:stedsnr" v="457678" />
	</node>
	<node lat="61.692736114938654" lon="5.800927780514973" id="-33587">
		<tag k="name" v="Fullskjegga" />
		<tag k="place" v="locality" />
		<tag k="ssr:stedsnr" v="457679" />
	</node>
	<node lat="61.701013886696664" lon="5.806816665627134" id="-33588">
		<tag k="name" v="Sprengkleivlia" />
		<tag k="natural" v="slope" />
		<tag k="place" v="locality" />
		<tag k="ssr:stedsnr" v="457682" />
	</node>
	<node lat="61.62198611475515" lon="5.759424996378238" id="-33589">
		<tag k="name" v="Bukkeskora" />
		<tag k="place" v="locality" />
		<tag k="ssr:stedsnr" v="457690" />
	</node>
	<node lat="61.64562777878607" lon="5.744125000129308" id="-33590">
		<tag k="name" v="Blånova" />
		<tag k="natural" v="ridge" />
		<tag k="place" v="locality" />
		<tag k="ssr:stedsnr" v="457726" />
	</node>
	<node lat="61.834994445437836" lon="5.940297217368232" id="-33591">
		<tag k="name" v="Kårnyken" />
		<tag k="natural" v="hill" />
		<tag k="place" v="locality" />
		<tag k="ssr:stedsnr" v="263584" />
	</node>
	<node lat="61.80489444046429" lon="5.9603805560552185" id="-33592">
		<tag k="fixme" v="consider natural=peak for the most distinct mountains in the district" />
		<tag k="name" v="Sausafjellet" />
		<tag k="natural" v="hill" />
		<tag k="place" v="locality" />
		<tag k="ssr:stedsnr" v="263591" />
	</node>
	<node lat="61.63994444053643" lon="5.856169439731792" id="-33593">
		<tag k="name" v="Vetane" />
		<tag k="place" v="locality" />
		<tag k="ssr:stedsnr" v="457611" />
	</node>
	<node lat="61.63375277984052" lon="5.8490999980427" id="-33594">
		<tag k="name" v="Småhillene" />
		<tag k="place" v="locality" />
		<tag k="ssr:stedsnr" v="457617" />
	</node>
	<node lat="61.634477775155396" lon="5.818072220926536" id="-33596">
		<tag k="fixme" v="consider natural=peak for the most distinct mountains in the district" />
		<tag k="name" v="Høgefjellet" />
		<tag k="natural" v="hill" />
		<tag k="place" v="locality" />
		<tag k="ssr:stedsnr" v="457622" />
	</node>
	<node lat="61.654286112641515" lon="5.896025002233819" id="-33598">
		<tag k="name" v="Rombergreset" />
		<tag k="natural" v="ridge" />
		<tag k="place" v="locality" />
		<tag k="ssr:stedsnr" v="457633" />
	</node>
	<node lat="61.64377777827765" lon="5.8224777762345" id="-33599">
		<tag k="name" v="Langeberget" />
		<tag k="natural" v="hill" />
		<tag k="place" v="locality" />
		<tag k="ssr:stedsnr" v="457636" />
	</node>
	<node lat="61.64661388721391" lon="5.8300388883332825" id="-33600">
		<tag k="name" v="Fessene" />
		<tag k="place" v="locality" />
		<tag k="ssr:stedsnr" v="457640" />
	</node>
	<node lat="61.714213893088036" lon="5.769972214924604" id="-33601">
		<tag k="name" v="Hammaren" />
		<tag k="natural" v="hill" />
		<tag k="place" v="locality" />
		<tag k="ssr:stedsnr" v="457654" />
	</node>
	<node lat="61.76668610987802" lon="6.163163888816067" id="-33604">
		<tag k="name" v="Gjerdet" />
		<tag k="place" v="locality" />
		<tag k="ssr:stedsnr" v="458028" />
	</node>
	<node lat="61.75345277900674" lon="6.123647222287476" id="-33605">
		<tag k="name" v="Sælebota" />
		<tag k="place" v="locality" />
		<tag k="ssr:stedsnr" v="458033" />
	</node>
	<node lat="61.67188610969987" lon="6.174533325666647" id="-33606">
		<tag k="name" v="Holten" />
		<tag k="natural" v="hill" />
		<tag k="place" v="locality" />
		<tag k="ssr:stedsnr" v="458034" />
	</node>
	<node lat="61.74076944421975" lon="6.172936103347856" id="-33609">
		<tag k="fixme" v="consider natural=peak for the most distinct mountains in the district" />
		<tag k="name" v="Bjørnhamrane" />
		<tag k="natural" v="hill" />
		<tag k="place" v="locality" />
		<tag k="ssr:stedsnr" v="458050" />
	</node>
	<node lat="61.78521111507746" lon="6.08046944730834" id="-33612">
		<tag k="name" v="Berget" />
		<tag k="place" v="locality" />
		<tag k="ssr:stedsnr" v="458136" />
	</node>
	<node lat="61.69482221797251" lon="6.40876945378564" id="-33615">
		<tag k="name" v="Geithillaren" />
		<tag k="natural" v="hill" />
		<tag k="place" v="locality" />
		<tag k="ssr:stedsnr" v="458157" />
	</node>
	<node lat="61.7622694475666" lon="6.323938897975658" id="-33616">
		<tag k="fixme" v="consider natural=peak for the most distinct mountains in the district" />
		<tag k="name" v="Lægdahamrana" />
		<tag k="natural" v="hill" />
		<tag k="place" v="locality" />
		<tag k="ssr:stedsnr" v="458192" />
	</node>
	<node lat="61.749363885415164" lon="6.228708329449077" id="-33619">
		<tag k="name" v="Fuglehaugane" />
		<tag k="natural" v="hill" />
		<tag k="place" v="locality" />
		<tag k="ssr:stedsnr" v="458239" />
	</node>
	<node lat="61.823755555215584" lon="6.189238889833057" id="-33622">
		<tag k="name" v="Mobakkane" />
		<tag k="natural" v="slope" />
		<tag k="place" v="locality" />
		<tag k="ssr:stedsnr" v="458286" />
	</node>
	<node lat="61.812508335139874" lon="5.938519446279623" id="-33625">
		<tag k="name" v="Mellomakslene" />
		<tag k="place" v="locality" />
		<tag k="ssr:stedsnr" v="458457" />
	</node>
	<node lat="61.66510000383413" lon="6.457322215179833" id="-33629">
		<tag k="name" v="Rindane" />
		<tag k="natural" v="hill" />
		<tag k="place" v="locality" />
		<tag k="ssr:stedsnr" v="458766" />
	</node>
	<node lat="61.67650833066091" lon="6.42363056472678" id="-33631">
		<tag k="name" v="Beiteskorane" />
		<tag k="natural" v="slope" />
		<tag k="place" v="locality" />
		<tag k="ssr:stedsnr" v="458772" />
	</node>
	<node lat="61.693527776696385" lon="6.533472223155087" id="-33632">
		<tag k="name" v="Høgerinden" />
		<tag k="natural" v="hill" />
		<tag k="place" v="locality" />
		<tag k="ssr:stedsnr" v="458783" />
	</node>
	<node lat="61.69576111327912" lon="6.530805558694259" id="-33633">
		<tag k="name" v="Labakken" />
		<tag k="natural" v="slope" />
		<tag k="place" v="locality" />
		<tag k="ssr:stedsnr" v="458784" />
	</node>
	<node lat="61.668155558854295" lon="6.5253499989172195" id="-33635">
		<tag k="name" v="Breiskreda" />
		<tag k="natural" v="gorge" />
		<tag k="ssr:stedsnr" v="458791" />
	</node>
	<node lat="61.666669448220055" lon="6.525705548958846" id="-33636">
		<tag k="name" v="Langhamrane" />
		<tag k="natural" v="hill" />
		<tag k="place" v="locality" />
		<tag k="ssr:stedsnr" v="458793" />
	</node>
	<node lat="61.65852221860917" lon="6.513305563285451" id="-33637">
		<tag k="name" v="Soleiefloten" />
		<tag k="place" v="locality" />
		<tag k="ssr:stedsnr" v="458827" />
	</node>
	<node lat="61.76837777433186" lon="6.229461104959758" id="-33639">
		<tag k="name" v="Mona" />
		<tag k="place" v="locality" />
		<tag k="ssr:stedsnr" v="270608" />
	</node>
	<node lat="61.77210555757349" lon="6.509533336723492" id="-33640">
		<tag k="name" v="Klypedalen" />
		<tag k="natural" v="valley" />
		<tag k="place" v="locality" />
		<tag k="ssr:stedsnr" v="458838" />
	</node>
	<node lat="61.75981388938179" lon="6.5114138844847425" id="-33642">
		<tag k="name" v="Andershaugen" />
		<tag k="natural" v="slope" />
		<tag k="place" v="locality" />
		<tag k="ssr:stedsnr" v="458849" />
	</node>
	<node lat="61.830711108749206" lon="6.292233336680272" id="-33643">
		<tag k="name" v="Sløkjene" />
		<tag k="natural" v="valley" />
		<tag k="place" v="locality" />
		<tag k="ssr:stedsnr" v="270886" />
	</node>
	<node lat="61.743163884577896" lon="6.496591668370107" id="-33644">
		<tag k="name" v="Trollkonehola" />
		<tag k="natural" v="valley" />
		<tag k="place" v="locality" />
		<tag k="ssr:stedsnr" v="458885" />
	</node>
	<node lat="61.71519166633418" lon="6.5153861144355805" id="-33646">
		<tag k="name" v="Hanehaugane" />
		<tag k="natural" v="hill" />
		<tag k="place" v="locality" />
		<tag k="ssr:stedsnr" v="458899" />
	</node>
	<node lat="61.71272778058497" lon="6.537502781617256" id="-33648">
		<tag k="name" v="Osphammaren" />
		<tag k="natural" v="hill" />
		<tag k="place" v="locality" />
		<tag k="ssr:stedsnr" v="458906" />
	</node>
	<node lat="61.61860277637845" lon="5.6513166712719505" id="-33649">
		<tag k="name" v="Nedstededalskleivane" />
		<tag k="natural" v="slope" />
		<tag k="place" v="locality" />
		<tag k="ssr:stedsnr" v="458907" />
	</node>
	<node lat="61.72476666751953" lon="5.857849991019381" id="-33651">
		<tag k="fixme" v="consider natural=peak for the most distinct mountains in the district" />
		<tag k="name" v="Kupefjellet" />
		<tag k="natural" v="hill" />
		<tag k="place" v="locality" />
		<tag k="ssr:stedsnr" v="275216" />
	</node>
	<node lat="61.856152773748306" lon="5.896186107617051" id="-33654">
		<tag k="name" v="Langedalen" />
		<tag k="natural" v="valley" />
		<tag k="place" v="locality" />
		<tag k="ssr:stedsnr" v="275283" />
	</node>
	<node lat="61.66076666359087" lon="6.03175000797659" id="-33656">
		<tag k="name" v="Almbakkane" />
		<tag k="natural" v="slope" />
		<tag k="place" v="locality" />
		<tag k="ssr:stedsnr" v="275410" />
	</node>
	<node lat="61.69754999997332" lon="5.845077777072835" id="-33657">
		<tag k="fixme" v="consider natural=peak for the most distinct mountains in the district" />
		<tag k="name" v="Dyrkelholten" />
		<tag k="natural" v="hill" />
		<tag k="place" v="locality" />
		<tag k="ssr:stedsnr" v="275305" />
	</node>
	<node lat="61.69224166974932" lon="5.91170555092837" id="-33658">
		<tag k="name" v="Naustaksla" />
		<tag k="natural" v="hill" />
		<tag k="place" v="locality" />
		<tag k="ssr:stedsnr" v="275314" />
	</node>
	<node lat="61.82821111012454" lon="5.997475005632506" id="-33660">
		<tag k="name" v="Rabbane" />
		<tag k="natural" v="hill" />
		<tag k="place" v="locality" />
		<tag k="ssr:stedsnr" v="275373" />
	</node>
	<node lat="61.64570555602312" lon="6.038341675627795" id="-33661">
		<tag k="name" v="Rabbane" />
		<tag k="natural" v="hill" />
		<tag k="place" v="locality" />
		<tag k="ssr:stedsnr" v="275421" />
	</node>
	<node lat="61.6084305530181" lon="5.7198694499719025" id="-33662">
		<tag k="name" v="Vassendelia" />
		<tag k="natural" v="slope" />
		<tag k="place" v="locality" />
		<tag k="ssr:stedsnr" v="275469" />
	</node>
	<node lat="61.75056666511272" lon="6.586105564594465" id="-33665">
		<tag k="name" v="Sandbakken" />
		<tag k="natural" v="slope" />
		<tag k="place" v="locality" />
		<tag k="ssr:stedsnr" v="275486" />
	</node>
	<node lat="61.62255833451189" lon="5.865669438725778" id="-33666">
		<tag k="name" v="Breidalen" />
		<tag k="natural" v="valley" />
		<tag k="place" v="locality" />
		<tag k="ssr:stedsnr" v="275604" />
	</node>
	<node lat="61.656588885664824" lon="5.896455554952481" id="-33667">
		<tag k="name" v="Hyeskaret" />
		<tag k="natural" v="valley" />
		<tag k="place" v="locality" />
		<tag k="ssr:stedsnr" v="275620" />
	</node>
	<node lat="61.65730833688877" lon="5.902230553168752" id="-33668">
		<tag k="name" v="Svartegjøllia" />
		<tag k="natural" v="slope" />
		<tag k="place" v="locality" />
		<tag k="ssr:stedsnr" v="275621" />
	</node>
	<node lat="61.641391662974165" lon="5.8467611130477835" id="-33670">
		<tag k="name" v="Myrbærhaugane" />
		<tag k="natural" v="hill" />
		<tag k="place" v="locality" />
		<tag k="ssr:stedsnr" v="275628" />
	</node>
	<node lat="61.684886115184554" lon="5.796847216672752" id="-33671">
		<tag k="fixme" v="consider natural=peak for the most distinct mountains in the district" />
		<tag k="name" v="Rasmusskarholten" />
		<tag k="natural" v="hill" />
		<tag k="place" v="locality" />
		<tag k="ssr:stedsnr" v="275672" />
	</node>
	<node lat="61.63812777323553" lon="5.699719438202869" id="-33674">
		<tag k="name" v="Svoraskaret" />
		<tag k="natural" v="valley" />
		<tag k="place" v="locality" />
		<tag k="ssr:stedsnr" v="275694" />
	</node>
	<node lat="61.625466668591606" lon="5.706722225794594" id="-33675">
		<tag k="name" v="Kleiva" />
		<tag k="natural" v="slope" />
		<tag k="place" v="locality" />
		<tag k="ssr:stedsnr" v="275707" />
	</node>
	<node lat="61.65169722199837" lon="5.777547224527423" id="-33677">
		<tag k="name" v="Fureneshola" />
		<tag k="natural" v="valley" />
		<tag k="place" v="locality" />
		<tag k="ssr:stedsnr" v="275715" />
	</node>
	<node lat="61.65271944030121" lon="5.754061104920925" id="-33678">
		<tag k="name" v="Ystelkleiva" />
		<tag k="natural" v="slope" />
		<tag k="place" v="locality" />
		<tag k="ssr:stedsnr" v="275719" />
	</node>
	<node lat="61.64807221857819" lon="5.7533472166023705" id="-33679">
		<tag k="name" v="Nyken" />
		<tag k="natural" v="hill" />
		<tag k="place" v="locality" />
		<tag k="ssr:stedsnr" v="275720" />
	</node>
	<node lat="61.66233888676193" lon="5.771402779002568" id="-33680">
		<tag k="name" v="Øykegarden" />
		<tag k="place" v="locality" />
		<tag k="ssr:stedsnr" v="275722" />
	</node>
	<node lat="61.76522500140722" lon="6.153594442626198" id="-33681">
		<tag k="name" v="Fletebakkane" />
		<tag k="natural" v="slope" />
		<tag k="place" v="locality" />
		<tag k="ssr:stedsnr" v="276004" />
	</node>
	<node lat="61.817141662800346" lon="6.126111114323039" id="-33682">
		<tag k="name" v="Velte" />
		<tag k="place" v="locality" />
		<tag k="ssr:stedsnr" v="276012" />
	</node>
	<node lat="61.76217777538488" lon="6.124663883361384" id="-33684">
		<tag k="name" v="Høgehaugen" />
		<tag k="natural" v="hill" />
		<tag k="place" v="locality" />
		<tag k="ssr:stedsnr" v="276021" />
	</node>
	<node lat="61.80966944701834" lon="6.069066666358888" id="-33687">
		<tag k="name" v="Ospehaugen" />
		<tag k="natural" v="hill" />
		<tag k="place" v="locality" />
		<tag k="ssr:stedsnr" v="276072" />
	</node>
	<node lat="61.690600000593186" lon="6.112536106604789" id="-33688">
		<tag k="name" v="Hogen" />
		<tag k="natural" v="hill" />
		<tag k="place" v="locality" />
		<tag k="ssr:stedsnr" v="276103" />
	</node>
	<node lat="61.675252778445476" lon="6.113827782816361" id="-33689">
		<tag k="name" v="Storeskarvane" />
		<tag k="natural" v="hill" />
		<tag k="place" v="locality" />
		<tag k="ssr:stedsnr" v="276113" />
	</node>
	<node lat="61.76268333363561" lon="6.100638891643647" id="-33691">
		<tag k="name" v="Bliksdalen" />
		<tag k="natural" v="valley" />
		<tag k="place" v="locality" />
		<tag k="ssr:stedsnr" v="276132" />
	</node>
	<node lat="61.633194442495714" lon="6.369866668607682" id="-33694">
		<tag k="name" v="Storeleitet" />
		<tag k="place" v="locality" />
		<tag k="ssr:stedsnr" v="276184" />
	</node>
	<node lat="61.62265555456407" lon="6.371924993582063" id="-33696">
		<tag k="name" v="Storesletta" />
		<tag k="place" v="locality" />
		<tag k="ssr:stedsnr" v="276190" />
	</node>
	<node lat="61.720722220564106" lon="6.310550001640322" id="-33697">
		<tag k="name" v="Ryssdalsdalen" />
		<tag k="natural" v="valley" />
		<tag k="place" v="locality" />
		<tag k="ssr:stedsnr" v="276221" />
	</node>
	<node lat="61.83534722074226" lon="6.197611101990212" id="-33698">
		<tag k="name" v="Kviteberget" />
		<tag k="natural" v="hill" />
		<tag k="place" v="locality" />
		<tag k="ssr:stedsnr" v="276284" />
	</node>
	<node lat="61.799447222875585" lon="6.1894388919745005" id="-33699">
		<tag k="name" v="Blåbærhaugen" />
		<tag k="natural" v="hill" />
		<tag k="place" v="locality" />
		<tag k="ssr:stedsnr" v="276291" />
	</node>
	<node lat="61.74451666965001" lon="6.46369444146964" id="-33700">
		<tag k="name" v="Øvresetsvingen" />
		<tag k="place" v="locality" />
		<tag k="ssr:stedsnr" v="276809" />
	</node>
	<node lat="61.671652776103315" lon="6.44915833608489" id="-33701">
		<tag k="name" v="Brokane" />
		<tag k="natural" v="slope" />
		<tag k="place" v="locality" />
		<tag k="ssr:stedsnr" v="276787" />
	</node>
	<node lat="61.6719861099218" lon="6.1853916627495105" id="-33704">
		<tag k="name" v="Måsevassdalen" />
		<tag k="natural" v="valley" />
		<tag k="place" v="locality" />
		<tag k="ssr:stedsnr" v="312271" />
	</node>
	<node lat="61.66588055502188" lon="6.07291389748984" id="-33705">
		<tag k="name" v="Dalelia" />
		<tag k="natural" v="slope" />
		<tag k="place" v="locality" />
		<tag k="ssr:stedsnr" v="312276" />
	</node>
	<node lat="61.66588888551844" lon="6.0514999994653165" id="-33706">
		<tag k="name" v="Osalia" />
		<tag k="natural" v="slope" />
		<tag k="place" v="locality" />
		<tag k="ssr:stedsnr" v="312277" />
	</node>
	<node lat="61.712963884432696" lon="6.489441660013693" id="-33709">
		<tag k="fixme" v="consider natural=peak for the most distinct mountains in the district" />
		<tag k="name" v="Stokkefjellet" />
		<tag k="natural" v="hill" />
		<tag k="place" v="locality" />
		<tag k="ssr:stedsnr" v="313109" />
	</node>
	<node lat="61.81168055617945" lon="6.246163892499529" id="-33713">
		<tag k="fixme" v="consider natural=peak for the most distinct mountains in the district" />
		<tag k="name" v="Flatefjellet" />
		<tag k="natural" v="hill" />
		<tag k="place" v="locality" />
		<tag k="ssr:stedsnr" v="313068" />
	</node>
	<node lat="61.68280833185639" lon="5.881788883934297" id="-33716">
		<tag k="name" v="Torleivskreda" />
		<tag k="natural" v="slope" />
		<tag k="place" v="locality" />
		<tag k="ssr:stedsnr" v="313319" />
	</node>
	<node lat="61.72083888596313" lon="5.865091661459006" id="-33719">
		<tag k="fixme" v="consider natural=peak for the most distinct mountains in the district" />
		<tag k="name" v="Nibba" />
		<tag k="natural" v="hill" />
		<tag k="place" v="locality" />
		<tag k="ssr:stedsnr" v="313369" />
	</node>
	<node lat="61.682977780442684" lon="6.331549994315964" id="-33723">
		<tag k="name" v="Botnen" />
		<tag k="natural" v="valley" />
		<tag k="place" v="locality" />
		<tag k="ssr:stedsnr" v="314082" />
	</node>
	<node lat="61.66354999991546" lon="5.968738888206159" id="-33724">
		<tag k="name" v="Austredalen" />
		<tag k="natural" v="valley" />
		<tag k="place" v="locality" />
		<tag k="ssr:stedsnr" v="314317" />
	</node>
	<node lat="61.68772777967274" lon="6.1525250065293635" id="-33726">
		<tag k="alt_name" v="Langelvedalen" />
		<tag k="name" v="Langelvdalen" />
		<tag k="natural" v="valley" />
		<tag k="place" v="locality" />
		<tag k="ssr:stedsnr" v="314360" />
	</node>
	<node lat="61.688111114056376" lon="6.187702779757195" id="-33727">
		<tag k="name" v="Stoa" />
		<tag k="natural" v="valley" />
		<tag k="place" v="locality" />
		<tag k="ssr:stedsnr" v="314367" />
	</node>
	<node lat="61.71902777343667" lon="5.832572215593835" id="-33728">
		<tag k="name" v="Storebotnen" />
		<tag k="natural" v="valley" />
		<tag k="place" v="locality" />
		<tag k="ssr:stedsnr" v="323727" />
	</node>
	<node lat="61.77915000243545" lon="6.274011105791975" id="-33729">
		<tag k="name" v="Bjørndalen" />
		<tag k="natural" v="valley" />
		<tag k="place" v="locality" />
		<tag k="ssr:stedsnr" v="331223" />
	</node>
	<node lat="61.67385277659364" lon="6.368369450346303" id="-33731">
		<tag k="name" v="Høgelia" />
		<tag k="natural" v="slope" />
		<tag k="place" v="locality" />
		<tag k="ssr:stedsnr" v="336143" />
	</node>
	<node lat="61.75908332950844" lon="6.117825000534163" id="-33733">
		<tag k="name" v="Vasstøkane" />
		<tag k="place" v="locality" />
		<tag k="ssr:stedsnr" v="336019" />
	</node>
	<node lat="61.73959999938581" lon="6.178969449648509" id="-33735">
		<tag k="fixme" v="consider natural=peak for the most distinct mountains in the district" />
		<tag k="name" v="Svora" />
		<tag k="natural" v="hill" />
		<tag k="place" v="locality" />
		<tag k="ssr:stedsnr" v="336044" />
	</node>
	<node lat="61.80492222294857" lon="6.084766669251254" id="-33736">
		<tag k="name" v="Moseurskaret" />
		<tag k="natural" v="valley" />
		<tag k="place" v="locality" />
		<tag k="ssr:stedsnr" v="336052" />
	</node>
	<node lat="61.82331944740224" lon="6.124241660255151" id="-33737">
		<tag k="name" v="Hjellen" />
		<tag k="place" v="locality" />
		<tag k="ssr:stedsnr" v="336056" />
	</node>
	<node lat="61.6785611120147" lon="5.827358328830087" id="-33738">
		<tag k="name" v="Blåkinna" />
		<tag k="natural" v="hill" />
		<tag k="place" v="locality" />
		<tag k="ssr:stedsnr" v="336349" />
	</node>
	<node lat="61.67720000077951" lon="5.819569442183629" id="-33739">
		<tag k="name" v="Storeskarholten" />
		<tag k="natural" v="hill" />
		<tag k="place" v="locality" />
		<tag k="ssr:stedsnr" v="336350" />
	</node>
	<node lat="61.82992221791181" lon="6.0023222185077625" id="-33741">
		<tag k="name" v="Lia" />
		<tag k="natural" v="slope" />
		<tag k="place" v="locality" />
		<tag k="ssr:stedsnr" v="336396" />
	</node>
	<node lat="61.75684166415442" lon="6.591088892344445" id="-33745">
		<tag k="name" v="Skora" />
		<tag k="natural" v="hill" />
		<tag k="place" v="locality" />
		<tag k="ssr:stedsnr" v="336509" />
	</node>
	<node lat="61.754702777566045" lon="6.582099999238589" id="-33746">
		<tag k="name" v="Glæra" />
		<tag k="natural" v="hill" />
		<tag k="place" v="locality" />
		<tag k="ssr:stedsnr" v="336510" />
	</node>
	<node lat="61.639833332669134" lon="5.6815111154457965" id="-33747">
		<tag k="name" v="Tussehaugen" />
		<tag k="natural" v="hill" />
		<tag k="place" v="locality" />
		<tag k="ssr:stedsnr" v="336512" />
	</node>
	<node lat="61.62896111453967" lon="5.66501111032853" id="-33748">
		<tag k="name" v="Langelibotnen" />
		<tag k="natural" v="valley" />
		<tag k="place" v="locality" />
		<tag k="ssr:stedsnr" v="336515" />
	</node>
	<node lat="61.751016668083395" lon="5.886602784291515" id="-33749">
		<tag k="name" v="Nakkane" />
		<tag k="natural" v="hill" />
		<tag k="place" v="locality" />
		<tag k="ssr:stedsnr" v="336292" />
	</node>
	<node lat="61.76393055917268" lon="5.9282638923266715" id="-33750">
		<tag k="name" v="Bjønnesvorgjølet" />
		<tag k="natural" v="valley" />
		<tag k="place" v="locality" />
		<tag k="ssr:stedsnr" v="336295" />
	</node>
	<node lat="61.793986113172146" lon="5.985497217051662" id="-33752">
		<tag k="name" v="Gjølsvorgjølet" />
		<tag k="natural" v="gorge" />
		<tag k="ssr:stedsnr" v="336408" />
	</node>
	<node lat="61.659627778599386" lon="6.091652778061959" id="-33753">
		<tag k="name" v="Risbotn" />
		<tag k="natural" v="valley" />
		<tag k="place" v="locality" />
		<tag k="ssr:stedsnr" v="336421" />
	</node>
	<node lat="61.83540278045043" lon="6.0103166701750785" id="-33754">
		<tag k="name" v="Rishaugene" />
		<tag k="natural" v="hill" />
		<tag k="place" v="locality" />
		<tag k="ssr:stedsnr" v="336424" />
	</node>
	<node lat="61.74188333372117" lon="5.93643610606572" id="-33756">
		<tag k="name" v="Furuhaugen" />
		<tag k="natural" v="hill" />
		<tag k="place" v="locality" />
		<tag k="ssr:stedsnr" v="336452" />
	</node>
	<node lat="61.66320277358522" lon="5.935102784664889" id="-33757">
		<tag k="name" v="Gjengedalsgjølet" />
		<tag k="natural" v="gorge" />
		<tag k="ssr:stedsnr" v="336461" />
	</node>
	<node lat="61.64048610790759" lon="5.897311116664348" id="-33758">
		<tag k="name" v="Blåkinna" />
		<tag k="natural" v="hill" />
		<tag k="place" v="locality" />
		<tag k="ssr:stedsnr" v="336606" />
	</node>
	<node lat="61.75615555841293" lon="6.466591667539137" id="-33759">
		<tag k="name" v="Seljehammaren" />
		<tag k="natural" v="hill" />
		<tag k="place" v="locality" />
		<tag k="ssr:stedsnr" v="336808" />
	</node>
	<node lat="61.698699997742736" lon="6.54559443972978" id="-33760">
		<tag k="name" v="Kantelbakkane" />
		<tag k="natural" v="slope" />
		<tag k="place" v="locality" />
		<tag k="ssr:stedsnr" v="336813" />
	</node>
	<node lat="61.69091666674949" lon="6.54117499443918" id="-33761">
		<tag k="fixme" v="consider natural=peak for the most distinct mountains in the district" />
		<tag k="name" v="Omnsfjellet" />
		<tag k="natural" v="hill" />
		<tag k="place" v="locality" />
		<tag k="ssr:stedsnr" v="336817" />
	</node>
	<node lat="61.74426388864269" lon="6.495688896015405" id="-33762">
		<tag k="name" v="Myrahaugen" />
		<tag k="natural" v="hill" />
		<tag k="place" v="locality" />
		<tag k="ssr:stedsnr" v="336843" />
	</node>
	<node lat="61.73781110760582" lon="6.478077777053253" id="-33763">
		<tag k="name" v="Stegane" />
		<tag k="natural" v="slope" />
		<tag k="place" v="locality" />
		<tag k="ssr:stedsnr" v="336848" />
	</node>
	<node lat="61.74798055432664" lon="6.477655563638418" id="-33765">
		<tag k="name" v="Geilebakken" />
		<tag k="natural" v="slope" />
		<tag k="place" v="locality" />
		<tag k="ssr:stedsnr" v="336748" />
	</node>
	<node lat="61.74595000160126" lon="6.483997219763309" id="-33766">
		<tag k="name" v="Langehaugen" />
		<tag k="natural" v="hill" />
		<tag k="place" v="locality" />
		<tag k="ssr:stedsnr" v="336750" />
	</node>
	<node lat="61.66241388938126" lon="6.526583328543728" id="-33767">
		<tag k="name" v="Bjørkenakkane" />
		<tag k="natural" v="hill" />
		<tag k="place" v="locality" />
		<tag k="ssr:stedsnr" v="336759" />
	</node>
	<node lat="61.673286110059884" lon="6.5377166575754275" id="-33768">
		<tag k="name" v="Langhamrane" />
		<tag k="natural" v="hill" />
		<tag k="place" v="locality" />
		<tag k="ssr:stedsnr" v="336905" />
	</node>
	<node lat="61.74568610765832" lon="6.50061667609932" id="-33769">
		<tag k="name" v="Klovningane" />
		<tag k="place" v="locality" />
		<tag k="ssr:stedsnr" v="337842" />
	</node>
	<node lat="61.734772220524256" lon="5.932663881372096" id="-33770">
		<tag k="name" v="Åhammaren" />
		<tag k="natural" v="hill" />
		<tag k="place" v="locality" />
		<tag k="ssr:stedsnr" v="342054" />
	</node>
	<node lat="61.6233944486132" lon="5.827900002188629" id="-33772">
		<tag k="fixme" v="consider natural=peak for the most distinct mountains in the district" />
		<tag k="name" v="Middagsnova" />
		<tag k="natural" v="hill" />
		<tag k="place" v="locality" />
		<tag k="ssr:stedsnr" v="372750" />
	</node>
	<node lat="61.60900277372625" lon="5.729163889029869" id="-33773">
		<tag k="alt_name" v="Nova" />
		<tag k="fixme" v="consider natural=peak for the most distinct mountains in the district" />
		<tag k="name" v="Vassendenova" />
		<tag k="natural" v="hill" />
		<tag k="place" v="locality" />
		<tag k="ssr:stedsnr" v="372753" />
	</node>
	<node lat="61.6583861091574" lon="6.38470000470855" id="-33774">
		<tag k="name" v="Korset" />
		<tag k="natural" v="hill" />
		<tag k="place" v="locality" />
		<tag k="ssr:stedsnr" v="373048" />
	</node>
	<node lat="61.677763889062376" lon="6.337708330763134" id="-33775">
		<tag k="fixme" v="consider natural=peak for the most distinct mountains in the district" />
		<tag k="name" v="Eggane" />
		<tag k="natural" v="hill" />
		<tag k="place" v="locality" />
		<tag k="ssr:stedsnr" v="373059" />
	</node>
	<node lat="61.62806944519875" lon="5.8819416613676125" id="-33776">
		<tag k="name" v="Litlevassheia" />
		<tag k="natural" v="hill" />
		<tag k="place" v="locality" />
		<tag k="ssr:stedsnr" v="373254" />
	</node>
	<node lat="61.68328610956895" lon="6.59695278471652" id="-33780">
		<tag k="name" v="Middagsbotnen" />
		<tag k="natural" v="valley" />
		<tag k="place" v="locality" />
		<tag k="ssr:stedsnr" v="373923" />
	</node>
	<node lat="61.714483329831836" lon="6.243275003609571" id="-33782">
		<tag k="name" v="Jardalen" />
		<tag k="natural" v="valley" />
		<tag k="place" v="locality" />
		<tag k="ssr:stedsnr" v="374115" />
	</node>
	<node lat="61.630441670281556" lon="6.34636388283775" id="-33783">
		<tag k="fixme" v="consider natural=peak for the most distinct mountains in the district" />
		<tag k="name" v="Eggane" />
		<tag k="natural" v="hill" />
		<tag k="place" v="locality" />
		<tag k="ssr:stedsnr" v="374056" />
	</node>
	<node lat="61.783661108352156" lon="6.408222218875873" id="-33786">
		<tag k="name" v="Aksla" />
		<tag k="natural" v="hill" />
		<tag k="place" v="locality" />
		<tag k="ssr:stedsnr" v="374206" />
	</node>
	<node lat="61.70338888749103" lon="6.16398611382116" id="-33790">
		<tag k="name" v="Fitjeskaret" />
		<tag k="natural" v="valley" />
		<tag k="place" v="locality" />
		<tag k="ssr:stedsnr" v="374352" />
	</node>
	<node lat="61.77561944313716" lon="6.721344436240128" id="-33792">
		<tag k="name" v="Svartebotnen" />
		<tag k="natural" v="valley" />
		<tag k="place" v="locality" />
		<tag k="ssr:stedsnr" v="374437" />
	</node>
	<node lat="61.78583888910843" lon="5.907000002543456" id="-33796">
		<tag k="name" v="Botnen" />
		<tag k="natural" v="valley" />
		<tag k="place" v="locality" />
		<tag k="ssr:stedsnr" v="374722" />
	</node>
	<node lat="61.787086115012485" lon="6.013761113039065" id="-33797">
		<tag k="fixme" v="consider natural=peak for the most distinct mountains in the district" />
		<tag k="name" v="Steinsvornykjane" />
		<tag k="natural" v="hill" />
		<tag k="place" v="locality" />
		<tag k="ssr:stedsnr" v="374727" />
	</node>
	<node lat="61.81275000437557" lon="6.063202771578039" id="-33798">
		<tag k="name" v="Kyrkjehaugen" />
		<tag k="natural" v="hill" />
		<tag k="place" v="locality" />
		<tag k="ssr:stedsnr" v="374700" />
	</node>
	<node lat="61.725438892471054" lon="5.826975007664532" id="-33802">
		<tag k="name" v="Korbelia" />
		<tag k="natural" v="slope" />
		<tag k="place" v="locality" />
		<tag k="ssr:stedsnr" v="396208" />
	</node>
	<node lat="61.66768610754485" lon="5.848577769281532" id="-33803">
		<tag k="name" v="Anemorbotnen" />
		<tag k="natural" v="valley" />
		<tag k="place" v="locality" />
		<tag k="ssr:stedsnr" v="396302" />
	</node>
	<node lat="61.66712499920352" lon="5.925055558881578" id="-33805">
		<tag k="name" v="Storekleiva" />
		<tag k="natural" v="slope" />
		<tag k="place" v="locality" />
		<tag k="ssr:stedsnr" v="396311" />
	</node>
	<node lat="61.68603055949857" lon="6.036102785498919" id="-33809">
		<tag k="name" v="Leirbakkane" />
		<tag k="natural" v="slope" />
		<tag k="place" v="locality" />
		<tag k="ssr:stedsnr" v="396437" />
	</node>
	<node lat="61.69269444644072" lon="6.0492416574855525" id="-33810">
		<tag k="name" v="Kupane" />
		<tag k="place" v="locality" />
		<tag k="ssr:stedsnr" v="396438" />
	</node>
	<node lat="61.77743888606206" lon="5.993461113096589" id="-33811">
		<tag k="name" v="Storehelleren" />
		<tag k="place" v="locality" />
		<tag k="ssr:stedsnr" v="396477" />
	</node>
	<node lat="61.63761388989528" lon="5.683772214607762" id="-33812">
		<tag k="name" v="Grønelia" />
		<tag k="natural" v="slope" />
		<tag k="place" v="locality" />
		<tag k="ssr:stedsnr" v="396499" />
	</node>
	<node lat="61.62964444292505" lon="5.897666662421744" id="-33813">
		<tag k="name" v="Kvanngrø" />
		<tag k="place" v="locality" />
		<tag k="ssr:stedsnr" v="396603" />
	</node>
	<node lat="61.633911106871516" lon="5.898319445714073" id="-33814">
		<tag k="name" v="Kviteberga" />
		<tag k="natural" v="hill" />
		<tag k="place" v="locality" />
		<tag k="ssr:stedsnr" v="396604" />
	</node>
	<node lat="61.65721666533959" lon="5.80886111368782" id="-33816">
		<tag k="name" v="Furubotnen" />
		<tag k="natural" v="valley" />
		<tag k="place" v="locality" />
		<tag k="ssr:stedsnr" v="396702" />
	</node>
	<node lat="61.650386108861376" lon="5.7310222265215245" id="-33817">
		<tag k="fixme" v="consider natural=peak for the most distinct mountains in the district" />
		<tag k="name" v="Hjortesetfjellet" />
		<tag k="natural" v="hill" />
		<tag k="place" v="locality" />
		<tag k="ssr:stedsnr" v="396714" />
	</node>
	<node lat="61.765397221737196" lon="6.132977777455104" id="-33818">
		<tag k="name" v="Moøyane" />
		<tag k="place" v="locality" />
		<tag k="ssr:stedsnr" v="397011" />
	</node>
	<node lat="61.70740277767845" lon="6.101538896778459" id="-33820">
		<tag k="name" v="Botnane" />
		<tag k="natural" v="valley" />
		<tag k="place" v="locality" />
		<tag k="ssr:stedsnr" v="397091" />
	</node>
	<node lat="61.72199722154318" lon="6.304813880275066" id="-33823">
		<tag k="name" v="Bulegene" />
		<tag k="place" v="locality" />
		<tag k="ssr:stedsnr" v="397212" />
	</node>
	<node lat="61.847452773469506" lon="5.939930547064481" id="-33824">
		<tag k="name" v="Furenakken" />
		<tag k="natural" v="hill" />
		<tag k="place" v="locality" />
		<tag k="ssr:stedsnr" v="397443" />
	</node>
	<node lat="61.80905555371383" lon="5.986816676297615" id="-33825">
		<tag k="name" v="Nakkane" />
		<tag k="natural" v="hill" />
		<tag k="place" v="locality" />
		<tag k="ssr:stedsnr" v="397449" />
	</node>
	<node lat="61.67146689656536" lon="6.457531509342903" id="-33826">
		<tag k="name" v="Smottet" />
		<tag k="place" v="locality" />
		<tag k="ssr:stedsnr" v="397779" />
	</node>
	<node lat="61.67775277422417" lon="6.521405552122973" id="-33827">
		<tag k="name" v="Svora" />
		<tag k="natural" v="slope" />
		<tag k="place" v="locality" />
		<tag k="ssr:stedsnr" v="397783" />
	</node>
	<node lat="61.65826111450722" lon="6.44148333992244" id="-33828">
		<tag k="name" v="Sjølvskotdalen" />
		<tag k="natural" v="valley" />
		<tag k="place" v="locality" />
		<tag k="ssr:stedsnr" v="397786" />
	</node>
	<node lat="61.75138888836202" lon="6.410361107844191" id="-33829">
		<tag k="name" v="Fosseflata" />
		<tag k="place" v="locality" />
		<tag k="ssr:stedsnr" v="397795" />
	</node>
	<node lat="61.758547224379335" lon="6.313313880790387" id="-33831">
		<tag k="name" v="Knødeløypet" />
		<tag k="natural" v="hill" />
		<tag k="place" v="locality" />
		<tag k="ssr:stedsnr" v="397806" />
	</node>
	<node lat="61.75198610860165" lon="6.440238887095913" id="-33832">
		<tag k="name" v="Hellhammaren" />
		<tag k="natural" v="hill" />
		<tag k="place" v="locality" />
		<tag k="ssr:stedsnr" v="397834" />
	</node>
	<node lat="61.705405559374114" lon="6.524686111867118" id="-33834">
		<tag k="name" v="Hjellesanden" />
		<tag k="place" v="locality" />
		<tag k="ssr:stedsnr" v="397894" />
	</node>
	<node lat="61.72021666230589" lon="6.604205557468335" id="-33835">
		<tag k="name" v="Øyrane" />
		<tag k="place" v="locality" />
		<tag k="ssr:stedsnr" v="397895" />
	</node>
	<node lat="61.745605557090514" lon="5.789716662210088" id="-33842">
		<tag k="fixme" v="consider natural=peak for the most distinct mountains in the district" />
		<tag k="name" v="Gråfjellet" />
		<tag k="natural" v="hill" />
		<tag k="place" v="locality" />
		<tag k="ssr:stedsnr" v="433634" />
	</node>
	<node lat="61.617063892548614" lon="5.8635361116807365" id="-33843">
		<tag k="fixme" v="consider natural=peak for the most distinct mountains in the district" />
		<tag k="name" v="Tverrfjellet" />
		<tag k="natural" v="hill" />
		<tag k="place" v="locality" />
		<tag k="ssr:stedsnr" v="434227" />
	</node>
	<node lat="61.770080555395644" lon="6.062402774389747" id="-33846">
		<tag k="name" v="Nonssteinsskaret" />
		<tag k="natural" v="valley" />
		<tag k="place" v="locality" />
		<tag k="ssr:stedsnr" v="434724" />
	</node>
	<node lat="61.66069721818806" lon="6.436916671549084" id="-33852">
		<tag k="alt_name" v="Holtane" />
		<tag k="name" v="Hovdene" />
		<tag k="natural" v="hill" />
		<tag k="place" v="locality" />
		<tag k="ssr:stedsnr" v="435084" />
	</node>
	<node lat="61.78764722155831" lon="6.6527361062567305" id="-33857">
		<tag k="name" v="Høgemannsdalen" />
		<tag k="natural" v="valley" />
		<tag k="place" v="locality" />
		<tag k="ssr:stedsnr" v="435370" />
	</node>
	<node lat="61.74253888911031" lon="6.141077769111159" id="-33861">
		<tag k="name" v="Tungelia" />
		<tag k="natural" v="slope" />
		<tag k="place" v="locality" />
		<tag k="ssr:stedsnr" v="435405" />
	</node>
	<node lat="61.7175888928544" lon="6.0377000073224645" id="-33863">
		<tag k="name" v="Ljoren" />
		<tag k="natural" v="valley" />
		<tag k="place" v="locality" />
		<tag k="ssr:stedsnr" v="435412" />
	</node>
	<node lat="61.780691664759054" lon="6.0254222189828575" id="-33868">
		<tag k="name" v="Osmundsnesskaret" />
		<tag k="natural" v="valley" />
		<tag k="place" v="locality" />
		<tag k="ssr:stedsnr" v="435759" />
	</node>
	<node lat="61.63549999746239" lon="5.829319451028972" id="-33871">
		<tag k="name" v="Emhjelledalen" />
		<tag k="natural" v="valley" />
		<tag k="place" v="locality" />
		<tag k="ssr:stedsnr" v="494691" />
	</node>
	<node lat="61.71212499670192" lon="5.796969439937248" id="-33872">
		<tag k="name" v="Blåkollen" />
		<tag k="natural" v="hill" />
		<tag k="place" v="locality" />
		<tag k="ssr:stedsnr" v="494624" />
	</node>
	<node lat="61.688791667885006" lon="5.700344438392593" id="-33873">
		<tag k="name" v="Høgdene" />
		<tag k="natural" v="hill" />
		<tag k="place" v="locality" />
		<tag k="ssr:stedsnr" v="494635" />
	</node>
	<node lat="61.77038888874776" lon="5.943294437518635" id="-33874">
		<tag k="name" v="Røyskre" />
		<tag k="natural" v="valley" />
		<tag k="place" v="locality" />
		<tag k="ssr:stedsnr" v="457465" />
	</node>
	<node lat="61.83115833587603" lon="5.952183339524949" id="-33875">
		<tag k="name" v="Sollifonna" />
		<tag k="natural" v="slope" />
		<tag k="place" v="locality" />
		<tag k="ssr:stedsnr" v="457467" />
	</node>
	<node lat="61.69965277617209" lon="5.853713892788321" id="-33876">
		<tag k="name" v="Blåhammaren" />
		<tag k="natural" v="hill" />
		<tag k="place" v="locality" />
		<tag k="ssr:stedsnr" v="457304" />
	</node>
	<node lat="61.69092222097909" lon="5.874750009157554" id="-33877">
		<tag k="name" v="Nipedalen" />
		<tag k="natural" v="valley" />
		<tag k="place" v="locality" />
		<tag k="ssr:stedsnr" v="457305" />
	</node>
	<node lat="61.6905861110632" lon="5.915630557739688" id="-33879">
		<tag k="name" v="Breiskora" />
		<tag k="place" v="locality" />
		<tag k="ssr:stedsnr" v="457311" />
	</node>
	<node lat="61.82808610951174" lon="6.0051972270571365" id="-33881">
		<tag k="fixme" v="consider natural=peak for the most distinct mountains in the district" />
		<tag k="name" v="Høgelifjellet" />
		<tag k="natural" v="hill" />
		<tag k="place" v="locality" />
		<tag k="ssr:stedsnr" v="457381" />
	</node>
	<node lat="61.629674996862455" lon="5.674152783281719" id="-33882">
		<tag k="name" v="Langelibruna" />
		<tag k="place" v="locality" />
		<tag k="ssr:stedsnr" v="457504" />
	</node>
	<node lat="61.67326110939006" lon="5.787677775393117" id="-33883">
		<tag k="name" v="Ytsteelvholten" />
		<tag k="natural" v="hill" />
		<tag k="place" v="locality" />
		<tag k="ssr:stedsnr" v="457658" />
	</node>
	<node lat="61.7209249967761" lon="5.729333331023209" id="-33884">
		<tag k="name" v="Riset" />
		<tag k="place" v="locality" />
		<tag k="ssr:stedsnr" v="457663" />
	</node>
	<node lat="61.667074999943445" lon="5.799613882882636" id="-33885">
		<tag k="name" v="Espeset" />
		<tag k="place" v="locality" />
		<tag k="ssr:stedsnr" v="457665" />
	</node>
	<node lat="61.66260833684998" lon="5.778558324140475" id="-33887">
		<tag k="name" v="Nesjane" />
		<tag k="place" v="locality" />
		<tag k="ssr:stedsnr" v="457714" />
	</node>
	<node lat="61.64308333227561" lon="5.727997220321413" id="-33888">
		<tag k="name" v="Betnene" />
		<tag k="natural" v="valley" />
		<tag k="place" v="locality" />
		<tag k="ssr:stedsnr" v="457721" />
	</node>
	<node lat="61.64884721804968" lon="5.734216660456047" id="-33889">
		<tag k="name" v="Vardelihaugen" />
		<tag k="natural" v="hill" />
		<tag k="place" v="locality" />
		<tag k="ssr:stedsnr" v="457723" />
	</node>
	<node lat="61.76202777063521" lon="6.128019870213699" id="-33891">
		<tag k="name" v="Mogjølet" />
		<tag k="natural" v="gorge" />
		<tag k="ssr:stedsnr" v="458014" />
	</node>
	<node lat="61.82365833016148" lon="6.149055556518803" id="-33892">
		<tag k="name" v="Vinddalen" />
		<tag k="natural" v="valley" />
		<tag k="place" v="locality" />
		<tag k="ssr:stedsnr" v="458064" />
	</node>
	<node lat="61.80248333553115" lon="6.074522229426766" id="-33893">
		<tag k="name" v="Hellegota" />
		<tag k="place" v="locality" />
		<tag k="ssr:stedsnr" v="458069" />
	</node>
	<node lat="61.707766667011306" lon="6.377813896696734" id="-33895">
		<tag k="name" v="Løypet" />
		<tag k="natural" v="slope" />
		<tag k="place" v="locality" />
		<tag k="ssr:stedsnr" v="458203" />
	</node>
	<node lat="61.719033337784595" lon="6.311625002573408" id="-33896">
		<tag k="name" v="Storekvilet" />
		<tag k="place" v="locality" />
		<tag k="ssr:stedsnr" v="458209" />
	</node>
	<node lat="61.730469442085635" lon="6.412155563004601" id="-33897">
		<tag k="name" v="Seimsgeilane" />
		<tag k="place" v="locality" />
		<tag k="ssr:stedsnr" v="458212" />
	</node>
	<node lat="61.77393333123424" lon="6.13583611257468" id="-33899">
		<tag k="name" v="Sjøaråka" />
		<tag k="place" v="locality" />
		<tag k="ssr:stedsnr" v="458112" />
	</node>
	<node lat="61.774297223179275" lon="6.120699996554875" id="-33900">
		<tag k="name" v="Gamlehaugen" />
		<tag k="natural" v="hill" />
		<tag k="place" v="locality" />
		<tag k="ssr:stedsnr" v="458115" />
	</node>
	<node lat="61.73719444853079" lon="6.5073055567027644" id="-33905">
		<tag k="name" v="Maurhesjebakken" />
		<tag k="natural" v="slope" />
		<tag k="place" v="locality" />
		<tag k="ssr:stedsnr" v="458874" />
	</node>
	<node lat="61.69829167016447" lon="6.622744441680116" id="-33906">
		<tag k="name" v="Leitet" />
		<tag k="place" v="locality" />
		<tag k="ssr:stedsnr" v="458927" />
	</node>
	<node lat="61.68266666894057" lon="6.54860833034888" id="-33908">
		<tag k="name" v="Teigen" />
		<tag k="place" v="locality" />
		<tag k="ssr:stedsnr" v="458932" />
	</node>
	<node lat="61.73760555367573" lon="6.598163891741742" id="-33909">
		<tag k="name" v="Tøllen" />
		<tag k="natural" v="slope" />
		<tag k="place" v="locality" />
		<tag k="ssr:stedsnr" v="458941" />
	</node>
	<node lat="61.68365277781973" lon="5.802191664411585" id="-33913">
		<tag k="fixme" v="consider natural=peak for the most distinct mountains in the district" />
		<tag k="name" v="Åsane" />
		<tag k="natural" v="hill" />
		<tag k="place" v="locality" />
		<tag k="ssr:stedsnr" v="676656" />
	</node>
	<node lat="61.65815555506634" lon="6.248805552920055" id="-33919">
		<tag k="name" v="Steinbotnen" />
		<tag k="natural" v="valley" />
		<tag k="place" v="locality" />
		<tag k="ssr:stedsnr" v="677075" />
	</node>
	<node lat="61.76341944861835" lon="6.530616673106922" id="-33922">
		<tag k="fixme" v="consider natural=peak for the most distinct mountains in the district" />
		<tag k="name" v="Støyvafjellet" />
		<tag k="natural" v="hill" />
		<tag k="place" v="locality" />
		<tag k="ssr:stedsnr" v="677150" />
	</node>
	<node lat="61.787302775905275" lon="6.417136109038503" id="-33925">
		<tag k="fixme" v="consider natural=peak for the most distinct mountains in the district" />
		<tag k="name" v="Snøfjellet" />
		<tag k="natural" v="hill" />
		<tag k="place" v="locality" />
		<tag k="ssr:stedsnr" v="677167" />
	</node>
	<node lat="61.68583888947392" lon="5.9968305591188935" id="-33926">
		<tag k="name" v="Vasslia" />
		<tag k="natural" v="slope" />
		<tag k="place" v="locality" />
		<tag k="ssr:stedsnr" v="677292" />
	</node>
	<node lat="61.69229166962279" lon="6.061122224503866" id="-33927">
		<tag k="name" v="Kupa" />
		<tag k="natural" v="hill" />
		<tag k="place" v="locality" />
		<tag k="ssr:stedsnr" v="677294" />
	</node>
	<node lat="61.68836667115709" lon="6.061155560089902" id="-33928">
		<tag k="name" v="Skaret" />
		<tag k="natural" v="valley" />
		<tag k="place" v="locality" />
		<tag k="ssr:stedsnr" v="677296" />
	</node>
	<node lat="61.69543333659763" lon="6.154538897719275" id="-33929">
		<tag k="fixme" v="consider natural=peak for the most distinct mountains in the district" />
		<tag k="name" v="Langelvfjella" />
		<tag k="natural" v="hill" />
		<tag k="place" v="locality" />
		<tag k="ssr:stedsnr" v="677311" />
	</node>
	<node lat="61.72532500264718" lon="5.9606611106484095" id="-33930">
		<tag k="name" v="Ådalen" />
		<tag k="natural" v="valley" />
		<tag k="place" v="locality" />
		<tag k="ssr:stedsnr" v="677320" />
	</node>
	<node lat="61.76797500380796" lon="5.925786118601595" id="-33931">
		<tag k="name" v="Teineklubben" />
		<tag k="natural" v="hill" />
		<tag k="place" v="locality" />
		<tag k="ssr:stedsnr" v="677743" />
	</node>
	<node lat="61.753886112279" lon="6.02215556378656" id="-33941">
		<tag k="fixme" v="consider natural=peak for the most distinct mountains in the district" />
		<tag k="name" v="Grovanestårnet" />
		<tag k="natural" v="hill" />
		<tag k="place" v="locality" />
		<tag k="ssr:stedsnr" v="677758" />
	</node>
	<node lat="61.76641110754947" lon="6.461902782195405" id="-33943">
		<tag k="name" v="Nonssteinen" />
		<tag k="natural" v="hill" />
		<tag k="place" v="locality" />
		<tag k="ssr:stedsnr" v="678140" />
	</node>
	<node lat="61.756733336959954" lon="6.566705550810606" id="-33944">
		<tag k="fixme" v="consider natural=peak for the most distinct mountains in the district" />
		<tag k="name" v="Styggefjellet" />
		<tag k="natural" v="hill" />
		<tag k="place" v="locality" />
		<tag k="ssr:stedsnr" v="678247" />
	</node>
</osm>
