<?xml version="1.0" encoding="UTF-8"?>
<osm version="0.6" generator="osmapis">
	<node lat="61.85883611032482" lon="5.908955550497021" id="-45989">
		<tag k="name" v="Kabuneset" />
		<tag k="natural" v="cape" />
		<tag k="ssr:stedsnr" v="10643" />
	</node>
	<node lat="61.8460833304007" lon="6.080661107723351" id="-45990">
		<tag k="name" v="Anda" />
		<tag k="natural" v="cape" />
		<tag k="ssr:stedsnr" v="10681" />
	</node>
	<node lat="61.8473027805708" lon="6.251711105777787" id="-46044">
		<tag k="name" v="Gjeddegrovvika" />
		<tag k="natural" v="bay" />
		<tag k="ssr:stedsnr" v="39964" />
	</node>
	<node lat="61.739333332462515" lon="6.561741665975061" id="-46109">
		<tag k="name" v="Tjørnaholmen" />
		<tag k="natural" v="cape" />
		<tag k="ssr:stedsnr" v="94944" />
	</node>
	<node lat="61.82002499877753" lon="6.113125002547201" id="-46191">
		<tag k="name" v="Jørenvika" />
		<tag k="natural" v="bay" />
		<tag k="ssr:stedsnr" v="253698" />
	</node>
	<node lat="61.75790000039343" lon="5.9596416682370155" id="-46193">
		<tag k="name" v="Almen" />
		<tag k="natural" v="cape" />
		<tag k="ssr:stedsnr" v="253851" />
	</node>
	<node lat="61.7730972223442" lon="6.196791671148915" id="-46196">
		<tag k="name" v="Elvaneset" />
		<tag k="natural" v="cape" />
		<tag k="ssr:stedsnr" v="141587" />
	</node>
	<node lat="61.832142463624116" lon="5.995860569940434" id="-46257">
		<tag k="name" v="Langenesvika" />
		<tag k="natural" v="bay" />
		<tag k="ssr:stedsnr" v="214390" />
	</node>
	<node lat="61.67154444072415" lon="5.7922999918254865" id="-46262">
		<tag k="name" v="Sundet" />
		<tag k="natural" v="strait" />
		<tag k="ssr:stedsnr" v="214710" />
	</node>
	<node lat="61.73339722662288" lon="5.916316669182016" id="-46291">
		<tag k="name" v="Åvågen" />
		<tag k="natural" v="bay" />
		<tag k="ssr:stedsnr" v="270810" />
	</node>
	<node lat="61.79239444431386" lon="5.963483336706015" id="-46310">
		<tag k="name" v="Uraneset" />
		<tag k="natural" v="cape" />
		<tag k="ssr:stedsnr" v="253724" />
	</node>
	<node lat="61.84113055738903" lon="6.091488890674873" id="-46354">
		<tag k="name" v="Røssvika" />
		<tag k="natural" v="bay" />
		<tag k="ssr:stedsnr" v="458040" />
	</node>
	<node lat="61.83838888814999" lon="5.979452769709021" id="-46373">
		<tag k="name" v="Steinvika" />
		<tag k="natural" v="bay" />
		<tag k="ssr:stedsnr" v="458490" />
	</node>
	<node lat="61.798941670488546" lon="5.980402785946697" id="-46374">
		<tag k="name" v="Lindeneset" />
		<tag k="natural" v="cape" />
		<tag k="ssr:stedsnr" v="458493" />
	</node>
	<node lat="61.79268888912944" lon="5.9798888942509665" id="-46375">
		<tag k="name" v="Gjølsvorneset" />
		<tag k="natural" v="cape" />
		<tag k="ssr:stedsnr" v="458495" />
	</node>
	<node lat="61.848349999890814" lon="5.839636104669164" id="-46399">
		<tag k="alt_name" v="Sælebotneset" />
		<tag k="name" v="Fremsteneset" />
		<tag k="natural" v="cape" />
		<tag k="ssr:stedsnr" v="275271" />
	</node>
	<node lat="61.618249999261565" lon="5.696058335956168" id="-46410">
		<tag k="name" v="Vassendeholmen" />
		<tag k="place" v="islet" />
		<tag k="ssr:stedsnr" v="275471" />
	</node>
	<node lat="61.69259444565246" lon="6.404422220499665" id="-46439">
		<tag k="name" v="Årdalsstranda" />
		<tag k="natural" v="beach" />
		<tag k="ssr:stedsnr" v="276173" />
	</node>
	<node lat="61.61102777518419" lon="5.710474993303742" id="-46490">
		<tag k="name" v="Eimhjellevassenden" />
		<tag k="natural" v="bay" />
		<tag k="ssr:stedsnr" v="336505" />
	</node>
	<node lat="61.61424722635815" lon="5.705997218528649" id="-46491">
		<tag k="name" v="Grønevika" />
		<tag k="natural" v="bay" />
		<tag k="ssr:stedsnr" v="336507" />
	</node>
	<node lat="61.807416670675686" lon="6.085374990587353" id="-46540">
		<tag k="name" v="Sandstranda" />
		<tag k="natural" v="beach" />
		<tag k="ssr:stedsnr" v="374703" />
	</node>
	<node lat="61.8127611089832" lon="6.131808329003064" id="-46546">
		<tag k="alt_name" v="Brynesteinvika" />
		<tag k="name" v="Brynesteinsvika" />
		<tag k="natural" v="bay" />
		<tag k="ssr:stedsnr" v="374701" />
	</node>
	<node lat="61.743316668551955" lon="5.927849996600813" id="-46548">
		<tag k="name" v="Klubben" />
		<tag k="natural" v="cape" />
		<tag k="ssr:stedsnr" v="396203" />
	</node>
	<node lat="61.67557499812453" lon="6.055400007367042" id="-46569">
		<tag k="name" v="Vika" />
		<tag k="natural" v="bay" />
		<tag k="ssr:stedsnr" v="397100" />
	</node>
	<node lat="61.78055833434259" lon="6.2070694487408975" id="-46583">
		<tag k="name" v="Øyravika" />
		<tag k="natural" v="shoal" />
		<tag k="place" v="locality" />
		<tag k="ssr:stedsnr" v="403981" />
	</node>
	<node lat="61.83351666499577" lon="6.183552782817853" id="-46612">
		<tag k="name" v="Ryssfjæra" />
		<tag k="natural" v="cape" />
		<tag k="ssr:stedsnr" v="435709" />
	</node>
	<node lat="61.75210555138118" lon="5.949719441444811" id="-46657">
		<tag k="name" v="Gjærvika" />
		<tag k="natural" v="bay" />
		<tag k="ssr:stedsnr" v="464074" />
	</node>
	<node lat="61.82486388475477" lon="5.97555000123803" id="-46658">
		<tag k="name" v="Skjerdalshamrane" />
		<tag k="natural" v="cape" />
		<tag k="ssr:stedsnr" v="464158" />
	</node>
	<node lat="61.84148611531993" lon="6.09352777672605" id="-46659">
		<tag k="name" v="Verpingsvika" />
		<tag k="natural" v="bay" />
		<tag k="ssr:stedsnr" v="464957" />
	</node>
	<node lat="61.84587777757406" lon="6.036002777167184" id="-46719">
		<tag k="name" v="Kviteneset" />
		<tag k="natural" v="cape" />
		<tag k="ssr:stedsnr" v="495674" />
	</node>
	<node lat="61.61788888505181" lon="5.690122224798388" id="-46750">
		<tag k="name" v="Solheimsvassenden" />
		<tag k="natural" v="bay" />
		<tag k="ssr:stedsnr" v="518503" />
	</node>
	<node lat="61.6238472262582" lon="5.707650003852221" id="-46751">
		<tag k="name" v="Kjerevika" />
		<tag k="natural" v="bay" />
		<tag k="ssr:stedsnr" v="518710" />
	</node>
	<node lat="61.629666667235014" lon="5.71885276981605" id="-46752">
		<tag k="name" v="Øyra" />
		<tag k="natural" v="cape" />
		<tag k="ssr:stedsnr" v="518711" />
	</node>
	<node lat="61.64172222190587" lon="5.805319437254988" id="-46753">
		<tag k="name" v="Kråna" />
		<tag k="natural" v="bay" />
		<tag k="ssr:stedsnr" v="518722" />
	</node>
	<node lat="61.851424998171225" lon="5.960361106269415" id="-46788">
		<tag k="name" v="Bratteneset" />
		<tag k="natural" v="cape" />
		<tag k="ssr:stedsnr" v="555615" />
	</node>
	<node lat="61.74708332993668" lon="5.93380556373891" id="-46821">
		<tag k="name" v="Furuholmen" />
		<tag k="place" v="islet" />
		<tag k="ssr:stedsnr" v="578426" />
	</node>
	<node lat="61.7561722266798" lon="6.238127779416323" id="-46833">
		<tag k="name" v="Øyna" />
		<tag k="natural" v="cape" />
		<tag k="ssr:stedsnr" v="579204" />
	</node>
	<node lat="61.7821861120618" lon="6.2023944525835" id="-46834">
		<tag k="name" v="Øyrane" />
		<tag k="natural" v="cape" />
		<tag k="ssr:stedsnr" v="579212" />
	</node>
	<node lat="61.78730000268881" lon="6.1108222163755075" id="-46841">
		<tag k="alt_name" v="Gjeilvika" />
		<tag k="name" v="Hjellvika" />
		<tag k="natural" v="bay" />
		<tag k="ssr:stedsnr" v="579110" />
	</node>
	<node lat="61.83871110714174" lon="5.999930562211864" id="-46846">
		<tag k="alt_name" v="Flua" />
		<tag k="name" v="Fluna" />
		<tag k="natural" v="shoal" />
		<tag k="place" v="locality" />
		<tag k="ssr:stedsnr" v="579500" />
	</node>
	<node lat="61.8247083351263" lon="6.099961111855176" id="-46856">
		<tag k="name" v="Hjelmneset" />
		<tag k="natural" v="cape" />
		<tag k="ssr:stedsnr" v="586206" />
	</node>
	<node lat="61.65008889245639" lon="5.807458331049877" id="-46858">
		<tag k="name" v="Ormeneset" />
		<tag k="natural" v="cape" />
		<tag k="ssr:stedsnr" v="700733" />
	</node>
	<node lat="61.83384999962294" lon="5.995647224001931" id="-46877">
		<tag k="name" v="Langeneset" />
		<tag k="natural" v="cape" />
		<tag k="ssr:stedsnr" v="700427" />
	</node>
	<node lat="61.84254721956744" lon="5.984825001269491" id="-46884">
		<tag k="name" v="Atterekeneset" />
		<tag k="natural" v="cape" />
		<tag k="ssr:stedsnr" v="700438" />
	</node>
	<node lat="61.8041999967632" lon="6.092427780682611" id="-46906">
		<tag k="name" v="Moseurneset" />
		<tag k="natural" v="cape" />
		<tag k="ssr:stedsnr" v="701054" />
	</node>
	<node lat="61.75311111174067" lon="6.257738883067816" id="-46924">
		<tag k="name" v="Aniasvalen" />
		<tag k="natural" v="cape" />
		<tag k="ssr:stedsnr" v="701301" />
	</node>
	<node lat="61.82075277845327" lon="6.066613894456686" id="-46944">
		<tag k="name" v="Djupevika" />
		<tag k="natural" v="bay" />
		<tag k="ssr:stedsnr" v="616689" />
	</node>
	<node lat="61.790277780665214" lon="5.963199992276147" id="-46966">
		<tag k="name" v="Halvrø" />
		<tag k="natural" v="cape" />
		<tag k="ssr:stedsnr" v="617732" />
	</node>
	<node lat="61.741172223251624" lon="6.570908324848087" id="-46969">
		<tag k="name" v="Sandalsodden" />
		<tag k="natural" v="cape" />
		<tag k="ssr:stedsnr" v="701927" />
	</node>
	<node lat="61.77508889335138" lon="6.139972230585218" id="-46977">
		<tag k="fixme" v="consider seamark:type=rock or natural=shoal" />
		<tag k="name" v="Langeskjeret" />
		<tag k="place" v="islet" />
		<tag k="ssr:stedsnr" v="639114" />
	</node>
	<node lat="61.851330558834334" lon="5.849325007176767" id="-46988">
		<tag k="name" v="Hamnen" />
		<tag k="natural" v="bay" />
		<tag k="ssr:stedsnr" v="639306" />
	</node>
	<node lat="61.82817777939934" lon="5.978491673372055" id="-46998">
		<tag k="name" v="Hamreneset" />
		<tag k="natural" v="cape" />
		<tag k="ssr:stedsnr" v="639517" />
	</node>
	<node lat="61.84839333274729" lon="5.982095554660948" id="-47024">
		<tag k="name" v="Hyeneset" />
		<tag k="natural" v="cape" />
		<tag k="ssr:stedsnr" v="677640" />
	</node>
	<node lat="61.813438892417786" lon="6.0809500051662315" id="-47025">
		<tag k="name" v="Bjørga" />
		<tag k="natural" v="cape" />
		<tag k="ssr:stedsnr" v="677681" />
	</node>
	<node lat="61.810113892100844" lon="5.970144442748672" id="-47026">
		<tag k="name" v="Seieneset" />
		<tag k="natural" v="cape" />
		<tag k="ssr:stedsnr" v="677695" />
	</node>
	<node lat="61.80266111260484" lon="6.111586105456053" id="-47027">
		<tag k="bay" v="fjord" />
		<tag k="name" v="Gloppefjorden" />
		<tag k="natural" v="bay" />
		<tag k="ssr:stedsnr" v="677698" />
	</node>
	<node lat="61.823022223804934" lon="6.062519449226667" id="-47041">
		<tag k="name" v="Salbuneset" />
		<tag k="natural" v="cape" />
		<tag k="ssr:stedsnr" v="700013" />
	</node>
	<node lat="61.66747222341333" lon="6.064847220759077" id="-47042">
		<tag k="name" v="Dalestøa" />
		<tag k="natural" v="bay" />
		<tag k="ssr:stedsnr" v="700103" />
	</node>
	<node lat="61.66428055704322" lon="6.061377771494709" id="-47044">
		<tag k="name" v="Kreklingneset" />
		<tag k="natural" v="cape" />
		<tag k="ssr:stedsnr" v="700108" />
	</node>
	<node lat="61.828902779741" lon="5.994302784892609" id="-47049">
		<tag k="name" v="Rundeeikeneset" />
		<tag k="natural" v="cape" />
		<tag k="ssr:stedsnr" v="700424" />
	</node>
	<node lat="61.749094446227296" lon="6.3010666607795995" id="-47068">
		<tag k="name" v="Neset" />
		<tag k="natural" v="cape" />
		<tag k="ssr:stedsnr" v="701168" />
	</node>
	<node lat="61.855186109304604" lon="5.874113888997917" id="-47097">
		<tag k="name" v="Årevik" />
		<tag k="natural" v="bay" />
		<tag k="ssr:stedsnr" v="760304" />
	</node>
	<node lat="61.6739694487096" lon="6.058197224524999" id="-47119">
		<tag k="name" v="Neset" />
		<tag k="natural" v="cape" />
		<tag k="ssr:stedsnr" v="761096" />
	</node>
	<node lat="61.76827500267875" lon="5.969127773803656" id="-47133">
		<tag k="name" v="Jonsokberg" />
		<tag k="natural" v="cape" />
		<tag k="ssr:stedsnr" v="767160" />
	</node>
	<node lat="61.819180557693784" lon="6.072483324877984" id="-47151">
		<tag k="name" v="Digreneset" />
		<tag k="natural" v="cape" />
		<tag k="ssr:stedsnr" v="799723" />
	</node>
	<node lat="61.79218888675877" lon="6.1108805536744" id="-47158">
		<tag k="alt_name" v="Sandnesodden" />
		<tag k="name" v="Sandneset" />
		<tag k="natural" v="cape" />
		<tag k="ssr:stedsnr" v="799750" />
	</node>
	<node lat="61.85609444908564" lon="5.867511117814213" id="-47160">
		<tag k="name" v="Metteneset" />
		<tag k="natural" v="cape" />
		<tag k="ssr:stedsnr" v="799646" />
	</node>
	<node lat="61.78273889065205" lon="6.19197777850702" id="-47191">
		<tag k="name" v="Kattahamrane" />
		<tag k="natural" v="cape" />
		<tag k="ssr:stedsnr" v="920731" />
	</node>
	<node lat="61.82634999956825" lon="6.056344438346218" id="-47212">
		<tag k="name" v="Devika" />
		<tag k="natural" v="bay" />
		<tag k="ssr:stedsnr" v="822008" />
	</node>
	<node lat="61.74862777513505" lon="6.066016671680299" id="-47283">
		<tag k="name" v="Høyneset" />
		<tag k="natural" v="cape" />
		<tag k="ssr:stedsnr" v="883063" />
	</node>
	<node lat="61.782227778146456" lon="6.117316675785112" id="-47284">
		<tag k="name" v="Sandsvika" />
		<tag k="natural" v="bay" />
		<tag k="ssr:stedsnr" v="883098" />
	</node>
	<node lat="61.816308337871575" lon="6.1184888932333585" id="-47318">
		<tag k="name" v="Giljeneset" />
		<tag k="natural" v="cape" />
		<tag k="ssr:stedsnr" v="920695" />
	</node>
	<node lat="61.719455552329336" lon="6.369705547533769" id="-47329">
		<tag k="name" v="Restranda" />
		<tag k="natural" v="beach" />
		<tag k="ssr:stedsnr" v="944174" />
	</node>
	<node lat="61.824969017918534" lon="6.100218902518701" id="-47379">
		<tag k="name" v="Galten" />
		<tag k="natural" v="cape" />
		<tag k="ssr:stedsnr" v="10692" />
	</node>
	<node lat="61.84308610771401" lon="6.092383338270556" id="-47387">
		<tag k="name" v="Verpingsneset" />
		<tag k="natural" v="cape" />
		<tag k="ssr:stedsnr" v="10846" />
	</node>
	<node lat="61.71329166397574" lon="5.782425004481876" id="-47413">
		<tag k="name" v="Storevika" />
		<tag k="natural" v="bay" />
		<tag k="ssr:stedsnr" v="32645" />
	</node>
	<node lat="61.79573055162425" lon="5.980941658023853" id="-47434">
		<tag k="name" v="Vetleneset" />
		<tag k="natural" v="cape" />
		<tag k="ssr:stedsnr" v="33479" />
	</node>
	<node lat="61.83565833306736" lon="6.078986102908068" id="-47470">
		<tag k="name" v="Staveneset" />
		<tag k="natural" v="cape" />
		<tag k="ssr:stedsnr" v="70691" />
	</node>
	<node lat="61.810252776936984" lon="5.983783334669876" id="-47489">
		<tag k="name" v="Helleneset" />
		<tag k="natural" v="cape" />
		<tag k="ssr:stedsnr" v="71742" />
	</node>
	<node lat="61.85740000390646" lon="5.917588886646271" id="-47502">
		<tag k="name" v="Sauhammarvika" />
		<tag k="natural" v="bay" />
		<tag k="ssr:stedsnr" v="93235" />
	</node>
	<node lat="61.80132222572923" lon="6.097741674045137" id="-47531">
		<tag k="name" v="Fløsteinneset" />
		<tag k="natural" v="cape" />
		<tag k="ssr:stedsnr" v="94053" />
	</node>
	<node lat="61.753577780785285" lon="6.251513893024547" id="-47539">
		<tag k="name" v="Jørnholmen" />
		<tag k="place" v="islet" />
		<tag k="ssr:stedsnr" v="94237" />
	</node>
	<node lat="61.764608336613065" lon="6.181783338597988" id="-47551">
		<tag k="name" v="Fitjeleira" />
		<tag k="natural" v="beach" />
		<tag k="ssr:stedsnr" v="99184" />
	</node>
	<node lat="61.74968055345826" lon="5.944066665547571" id="-47552">
		<tag k="name" v="Holmesund" />
		<tag k="natural" v="strait" />
		<tag k="ssr:stedsnr" v="100055" />
	</node>
	<node lat="61.83383333484685" lon="6.086533326457748" id="-47593">
		<tag k="name" v="Skytbåsvika" />
		<tag k="natural" v="bay" />
		<tag k="ssr:stedsnr" v="131700" />
	</node>
	<node lat="61.79102499993922" lon="6.110880556346851" id="-47635">
		<tag k="name" v="Sandnesvika" />
		<tag k="natural" v="bay" />
		<tag k="ssr:stedsnr" v="154131" />
	</node>
	<node lat="61.671477777340776" lon="6.08020277565343" id="-47643">
		<tag k="name" v="Karisanden" />
		<tag k="natural" v="bay" />
		<tag k="ssr:stedsnr" v="154095" />
	</node>
	<node lat="61.80000277650822" lon="5.965163897694825" id="-47648">
		<tag k="name" v="Kjevika" />
		<tag k="natural" v="bay" />
		<tag k="ssr:stedsnr" v="154467" />
	</node>
	<node lat="61.839099999155486" lon="6.045133325426186" id="-47651">
		<tag k="name" v="Skreneset" />
		<tag k="natural" v="cape" />
		<tag k="ssr:stedsnr" v="154481" />
	</node>
	<node lat="61.840183330379986" lon="5.981163892632814" id="-47653">
		<tag k="name" v="Hatlen" />
		<tag k="natural" v="bay" />
		<tag k="ssr:stedsnr" v="154487" />
	</node>
	<node lat="61.811069448238015" lon="6.133355547792713" id="-47722">
		<tag k="name" v="Brynesteinen" />
		<tag k="natural" v="cape" />
		<tag k="ssr:stedsnr" v="192738" />
	</node>
	<node lat="61.805099998891485" lon="5.986591662263874" id="-47723">
		<tag k="fixme" v="consider seamark:type=rock or natural=shoal" />
		<tag k="name" v="Fløga" />
		<tag k="place" v="islet" />
		<tag k="ssr:stedsnr" v="192742" />
	</node>
	<node lat="61.75035832903836" lon="5.939958340551384" id="-47731">
		<tag k="name" v="Holmen" />
		<tag k="place" v="islet" />
		<tag k="ssr:stedsnr" v="192797" />
	</node>
	<node lat="61.81323055758848" lon="6.0813499941309574" id="-47778">
		<tag k="name" v="Bjørgasvaet" />
		<tag k="natural" v="cape" />
		<tag k="ssr:stedsnr" v="215053" />
	</node>
	<node lat="61.843749995955584" lon="6.236930547541909" id="-47785">
		<tag k="name" v="Sageneset" />
		<tag k="natural" v="cape" />
		<tag k="ssr:stedsnr" v="215260" />
	</node>
	<node lat="61.80074444412864" lon="5.98296388506158" id="-47789">
		<tag k="fixme" v="consider seamark:type=rock or natural=shoal" />
		<tag k="name" v="Vetlefløga" />
		<tag k="place" v="islet" />
		<tag k="ssr:stedsnr" v="215453" />
	</node>
	<node lat="61.73743610845641" lon="5.916086107903197" id="-47804">
		<tag k="name" v="Straumsholmen" />
		<tag k="place" v="islet" />
		<tag k="ssr:stedsnr" v="221060" />
	</node>
	<node lat="61.854997226324706" lon="5.856616664233366" id="-47809">
		<tag k="name" v="Slettebakkneset" />
		<tag k="natural" v="cape" />
		<tag k="ssr:stedsnr" v="275266" />
	</node>
	<node lat="61.66761666588858" lon="5.79399999422393" id="-47819">
		<tag k="name" v="Joholmen" />
		<tag k="place" v="islet" />
		<tag k="ssr:stedsnr" v="275661" />
	</node>
	<node lat="61.633350002445006" lon="5.724644449214359" id="-47821">
		<tag k="name" v="Bukketåa" />
		<tag k="natural" v="cape" />
		<tag k="ssr:stedsnr" v="275701" />
	</node>
	<node lat="61.8413611096863" lon="6.040997226485206" id="-47842">
		<tag k="name" v="Lavika" />
		<tag k="natural" v="bay" />
		<tag k="ssr:stedsnr" v="276496" />
	</node>
	<node lat="61.744586110270305" lon="5.9123583392438235" id="-47850">
		<tag k="name" v="Kalleklova" />
		<tag k="natural" v="bay" />
		<tag k="ssr:stedsnr" v="282082" />
	</node>
	<node lat="61.83681944112647" lon="5.996549993925191" id="-47883">
		<tag k="name" v="Eikenes" />
		<tag k="natural" v="cape" />
		<tag k="ssr:stedsnr" v="313657" />
	</node>
	<node lat="61.848083335678666" lon="5.839366659609386" id="-47886">
		<tag k="name" v="Fremsteneset" />
		<tag k="natural" v="cape" />
		<tag k="ssr:stedsnr" v="323533" />
	</node>
	<node lat="61.73691389069557" lon="5.922658338546857" id="-47909">
		<tag k="name" v="Åreneset" />
		<tag k="natural" v="cape" />
		<tag k="ssr:stedsnr" v="336250" />
	</node>
	<node lat="61.735647224929224" lon="6.344544441341916" id="-47924">
		<tag k="name" v="Restranda" />
		<tag k="natural" v="beach" />
		<tag k="ssr:stedsnr" v="336191" />
	</node>
	<node lat="61.830650002484745" lon="6.127044452562774" id="-47948">
		<tag k="name" v="Finnvika" />
		<tag k="natural" v="bay" />
		<tag k="ssr:stedsnr" v="342947" />
	</node>
	<node lat="61.87238333698827" lon="5.852183333370247" id="-47974">
		<tag k="alt_name" v="Hunvikfjorden" />
		<tag k="bay" v="fjord" />
		<tag k="name" v="Hundvikfjorden" />
		<tag k="natural" v="bay" />
		<tag k="ssr:stedsnr" v="374616" />
	</node>
	<node lat="61.84556944584786" lon="6.085022231296285" id="-48021">
		<tag k="name" v="Bondevika" />
		<tag k="natural" v="bay" />
		<tag k="ssr:stedsnr" v="397034" />
	</node>
	<node lat="61.81992499756987" lon="5.991188895472459" id="-48030">
		<tag k="alt_name" v="Vårstølneset" />
		<tag k="name" v="Vårstøylneset" />
		<tag k="natural" v="cape" />
		<tag k="ssr:stedsnr" v="397426" />
	</node>
	<node lat="61.83677222203011" lon="5.995266669377736" id="-48045">
		<tag k="name" v="Garneset" />
		<tag k="natural" v="cape" />
		<tag k="ssr:stedsnr" v="397463" />
	</node>
	<node lat="61.84328888536894" lon="6.0391055517629795" id="-48047">
		<tag k="name" v="Naustneset" />
		<tag k="natural" v="cape" />
		<tag k="ssr:stedsnr" v="397471" />
	</node>
	<node lat="61.75560278162171" lon="5.925438888667382" id="-48081">
		<tag k="name" v="Seltufta" />
		<tag k="natural" v="cape" />
		<tag k="ssr:stedsnr" v="445601" />
	</node>
	<node lat="61.77964166497823" lon="5.950336112578443" id="-48096">
		<tag k="name" v="Selvågen" />
		<tag k="natural" v="bay" />
		<tag k="ssr:stedsnr" v="495749" />
	</node>
	<node lat="61.7745361079561" lon="6.143530548702872" id="-48119">
		<tag k="name" v="Brokeneset" />
		<tag k="natural" v="cape" />
		<tag k="ssr:stedsnr" v="518111" />
	</node>
	<node lat="61.65791666661462" lon="6.411080549792522" id="-48160">
		<tag k="name" v="Langeneset" />
		<tag k="natural" v="cape" />
		<tag k="ssr:stedsnr" v="519164" />
	</node>
	<node lat="61.76516388815234" lon="6.1795138925729365" id="-48180">
		<tag k="name" v="Fitjevika" />
		<tag k="natural" v="bay" />
		<tag k="ssr:stedsnr" v="524145" />
	</node>
	<node lat="61.73217499971775" lon="5.916591661005698" id="-48224">
		<tag k="alt_name" v="Måse Øya" />
		<tag k="name" v="Måseøya" />
		<tag k="place" v="island" />
		<tag k="ssr:stedsnr" v="578223" />
	</node>
	<node lat="61.664730559062654" lon="5.781105553387134" id="-48226">
		<tag k="name" v="Høgeholmen" />
		<tag k="place" v="islet" />
		<tag k="ssr:stedsnr" v="578653" />
	</node>
	<node lat="61.853524995934315" lon="5.852224993778298" id="-48231">
		<tag k="name" v="Sælebota" />
		<tag k="natural" v="bay" />
		<tag k="ssr:stedsnr" v="578275" />
	</node>
	<node lat="61.8503055545948" lon="5.965944452272335" id="-48266">
		<tag k="name" v="Gulsteinvika" />
		<tag k="natural" v="bay" />
		<tag k="ssr:stedsnr" v="579474" />
	</node>
	<node lat="61.77223055923149" lon="6.15755277177094" id="-48280">
		<tag k="name" v="Arnestadneset" />
		<tag k="natural" v="cape" />
		<tag k="ssr:stedsnr" v="585861" />
	</node>
	<node lat="61.838741669997574" lon="6.1752055589841" id="-48306">
		<tag k="alt_name" v="Innfjorden" />
		<tag k="bay" v="fjord" />
		<tag k="name" v="Utfjorden" />
		<tag k="natural" v="bay" />
		<tag k="ssr:stedsnr" v="616657" />
	</node>
	<node lat="61.835433336857704" lon="6.2005333290115665" id="-48309">
		<tag k="name" v="Flatestranda" />
		<tag k="natural" v="beach" />
		<tag k="ssr:stedsnr" v="616677" />
	</node>
	<node lat="61.83710555142098" lon="6.1044305544351065" id="-48310">
		<tag k="name" v="Holmen" />
		<tag k="natural" v="cape" />
		<tag k="ssr:stedsnr" v="616682" />
	</node>
	<node lat="61.82688610678363" lon="6.100199995536215" id="-48338">
		<tag k="name" v="Sandvika" />
		<tag k="natural" v="bay" />
		<tag k="ssr:stedsnr" v="639021" />
	</node>
	<node lat="61.76806666881676" lon="6.194524999280766" id="-48368">
		<tag k="name" v="Fitjefjøra" />
		<tag k="natural" v="beach" />
		<tag k="ssr:stedsnr" v="639221" />
	</node>
	<node lat="61.77462499858629" lon="6.208972221216248" id="-48406">
		<tag k="name" v="Sandebukta" />
		<tag k="natural" v="bay" />
		<tag k="ssr:stedsnr" v="645146" />
	</node>
	<node lat="61.84704721968677" lon="6.255136109970384" id="-48425">
		<tag k="name" v="Jarbarneset" />
		<tag k="natural" v="cape" />
		<tag k="ssr:stedsnr" v="738025" />
	</node>
	<node lat="61.79918333069031" lon="6.101699990910523" id="-48447">
		<tag k="name" v="Skorgesaga" />
		<tag k="natural" v="cape" />
		<tag k="ssr:stedsnr" v="738742" />
	</node>
	<node lat="61.8520472179821" lon="5.84988055336934" id="-48473">
		<tag k="name" v="Vikane" />
		<tag k="natural" v="bay" />
		<tag k="ssr:stedsnr" v="760295" />
	</node>
	<node lat="61.85105277593831" lon="5.954997227608121" id="-48506">
		<tag k="name" v="Ramsevika" />
		<tag k="natural" v="bay" />
		<tag k="ssr:stedsnr" v="761472" />
	</node>
	<node lat="61.74668888701132" lon="5.924483342345587" id="-48520">
		<tag k="bay" v="fjord" />
		<tag k="name" v="Hyefjorden" />
		<tag k="natural" v="bay" />
		<tag k="ssr:stedsnr" v="797384" />
	</node>
	<node lat="61.896350004095666" lon="5.275972217222969" id="-48534">
		<tag k="alt_name" v="Nordfjorden" />
		<tag k="bay" v="fjord" />
		<tag k="name" v="Nordfjord" />
		<tag k="natural" v="bay" />
		<tag k="ssr:stedsnr" v="799219" />
	</node>
	<node lat="61.82038610726653" lon="5.970244445219677" id="-48550">
		<tag k="name" v="Breivika" />
		<tag k="natural" v="bay" />
		<tag k="ssr:stedsnr" v="809601" />
	</node>
	<node lat="61.84400000214634" lon="6.237841664094699" id="-48551">
		<tag k="name" v="Sageneset" />
		<tag k="natural" v="cape" />
		<tag k="ssr:stedsnr" v="817939" />
	</node>
	<node lat="61.83485531820948" lon="5.995479403739719" id="-48560">
		<tag k="name" v="Eikeneshamna" />
		<tag k="natural" v="bay" />
		<tag k="ssr:stedsnr" v="821402" />
	</node>
	<node lat="61.66320832993842" lon="5.793477781301151" id="-48581">
		<tag k="name" v="Øykevikholmen" />
		<tag k="place" v="islet" />
		<tag k="ssr:stedsnr" v="821698" />
	</node>
	<node lat="61.67674722424081" lon="5.797863879467926" id="-48582">
		<tag k="name" v="Elvaneset" />
		<tag k="natural" v="cape" />
		<tag k="ssr:stedsnr" v="821701" />
	</node>
	<node lat="61.77291666674575" lon="6.202319450582949" id="-48594">
		<tag k="name" v="Selvågane" />
		<tag k="natural" v="bay" />
		<tag k="ssr:stedsnr" v="822230" />
	</node>
	<node lat="61.84578055163472" lon="6.266797214251003" id="-48601">
		<tag k="name" v="Skårsvika" />
		<tag k="natural" v="bay" />
		<tag k="ssr:stedsnr" v="822257" />
	</node>
	<node lat="61.84144722476803" lon="6.23058054724765" id="-48602">
		<tag k="name" v="Djupevikane" />
		<tag k="natural" v="bay" />
		<tag k="ssr:stedsnr" v="822274" />
	</node>
	<node lat="61.73198610977017" lon="5.913430549319154" id="-48626">
		<tag k="name" v="Vika" />
		<tag k="natural" v="bay" />
		<tag k="ssr:stedsnr" v="828060" />
	</node>
	<node lat="61.77950277981211" lon="6.180950003365295" id="-48627">
		<tag k="name" v="Skallen" />
		<tag k="natural" v="shoal" />
		<tag k="place" v="locality" />
		<tag k="ssr:stedsnr" v="828971" />
	</node>
	<node lat="61.84458333510357" lon="6.022775007582955" id="-48639">
		<tag k="name" v="Horvasteinen" />
		<tag k="natural" v="cape" />
		<tag k="ssr:stedsnr" v="859633" />
	</node>
	<node lat="61.83062499918083" lon="6.091588886110895" id="-48642">
		<tag k="name" v="Kleberget" />
		<tag k="natural" v="cape" />
		<tag k="ssr:stedsnr" v="859647" />
	</node>
	<node lat="61.76256711389388" lon="5.964947056749692" id="-48645">
		<tag k="name" v="Sessabøen" />
		<tag k="natural" v="cape" />
		<tag k="ssr:stedsnr" v="859749" />
	</node>
	<node lat="61.78531944033032" lon="6.180686108814366" id="-48707">
		<tag k="name" v="Skrivarvik" />
		<tag k="natural" v="bay" />
		<tag k="ssr:stedsnr" v="883260" />
	</node>
	<node lat="61.74849999853856" lon="6.0618777708331795" id="-48735">
		<tag k="name" v="Grovaneset" />
		<tag k="natural" v="cape" />
		<tag k="ssr:stedsnr" v="943072" />
	</node>
	<node lat="61.783394442447204" lon="6.183166675063601" id="-48753">
		<tag k="name" v="Døsaneset" />
		<tag k="natural" v="cape" />
		<tag k="ssr:stedsnr" v="943223" />
	</node>
	<node lat="61.857608333097076" lon="5.895058338790654" id="-48756">
		<tag k="name" v="Joøyrastranda" />
		<tag k="natural" v="beach" />
		<tag k="ssr:stedsnr" v="943306" />
	</node>
	<node lat="61.844252779827976" lon="6.021383339195089" id="-48767">
		<tag k="name" v="Fantevika" />
		<tag k="natural" v="bay" />
		<tag k="ssr:stedsnr" v="943444" />
	</node>
	<node lat="61.76947778018943" lon="5.9457194464145955" id="-48782">
		<tag k="name" v="Svinevika" />
		<tag k="natural" v="bay" />
		<tag k="ssr:stedsnr" v="943513" />
	</node>
</osm>
