<?xml version="1.0" encoding="UTF-8"?>
<osm version="0.6" generator="osmapis">
	<node lat="61.71996666948705" lon="5.825786115937456" id="-33251">
		<tag k="name" v="Rakelsteinen" />
		<tag k="natural" v="stone" />
		<tag k="ssr:stedsnr" v="32212" />
	</node>
	<node lat="61.6899861121671" lon="5.847452778513156" id="-33258">
		<tag k="name" v="Øykjelimyra" />
		<tag k="natural" v="wetland" />
		<tag k="ssr:stedsnr" v="32283" />
	</node>
	<node lat="61.68086944762019" lon="5.810977776146304" id="-33260">
		<tag k="name" v="Einamyra" />
		<tag k="natural" v="wetland" />
		<tag k="ssr:stedsnr" v="32298" />
	</node>
	<node lat="61.64029166337211" lon="5.877452774571267" id="-33267">
		<tag k="name" v="Revaskarmyra" />
		<tag k="natural" v="wetland" />
		<tag k="ssr:stedsnr" v="32600" />
	</node>
	<node lat="61.627616665607476" lon="5.758377772846751" id="-33271">
		<tag k="name" v="Sandsteinurene" />
		<tag k="natural" v="scree" />
		<tag k="ssr:stedsnr" v="32670" />
	</node>
	<node lat="61.622116669885685" lon="5.843908337782689" id="-33273">
		<tag k="name" v="Hyskredene" />
		<tag k="natural" v="scree" />
		<tag k="place" v="locality" />
		<tag k="ssr:stedsnr" v="32615" />
	</node>
	<node lat="61.74034721991381" lon="6.30524444457322" id="-33283">
		<tag k="name" v="Kuskreda" />
		<tag k="natural" v="scree" />
		<tag k="place" v="locality" />
		<tag k="ssr:stedsnr" v="33201" />
	</node>
	<node lat="61.73695555208755" lon="6.5504416585249885" id="-33293">
		<tag k="name" v="Hattarsteinen" />
		<tag k="natural" v="stone" />
		<tag k="ssr:stedsnr" v="33921" />
	</node>
	<node lat="61.7321861151703" lon="6.477544446945869" id="-33296">
		<tag k="name" v="Høylomyrane" />
		<tag k="natural" v="wetland" />
		<tag k="ssr:stedsnr" v="33862" />
	</node>
	<node lat="61.75954999899191" lon="6.374311117326614" id="-33322">
		<tag k="name" v="Kålsmyrane" />
		<tag k="natural" v="wetland" />
		<tag k="ssr:stedsnr" v="88571" />
	</node>
	<node lat="61.65813611460284" lon="5.771494445419553" id="-33340">
		<tag k="name" v="Svoramyra" />
		<tag k="natural" v="wetland" />
		<tag k="ssr:stedsnr" v="93672" />
	</node>
	<node lat="61.68310833356392" lon="6.11517222786287" id="-33346">
		<tag k="name" v="Måsevassøyna" />
		<tag k="natural" v="wetland" />
		<tag k="ssr:stedsnr" v="94112" />
	</node>
	<node lat="61.65825000245749" lon="6.4050166708450655" id="-33352">
		<tag k="name" v="Steinskreda" />
		<tag k="natural" v="scree" />
		<tag k="ssr:stedsnr" v="94274" />
	</node>
	<node lat="61.75872222143602" lon="6.150861105586657" id="-33426">
		<tag k="name" v="Ospedalsmyra" />
		<tag k="natural" v="wetland" />
		<tag k="ssr:stedsnr" v="252729" />
	</node>
	<node lat="61.76279167004638" lon="6.074341670252586" id="-33430">
		<tag k="name" v="Hestesteinen" />
		<tag k="natural" v="stone" />
		<tag k="ssr:stedsnr" v="252761" />
	</node>
	<node lat="61.64067499876987" lon="6.011411104729066" id="-33460">
		<tag k="name" v="Maristeinen" />
		<tag k="natural" v="stone" />
		<tag k="ssr:stedsnr" v="153468" />
	</node>
	<node lat="61.805502782056436" lon="6.063786105584915" id="-33474">
		<tag k="name" v="Korsbakkmyra" />
		<tag k="natural" v="wetland" />
		<tag k="ssr:stedsnr" v="154056" />
	</node>
	<node lat="61.6548694474696" lon="5.9418361047144765" id="-33512">
		<tag k="name" v="Vesleforbakksteinen" />
		<tag k="natural" v="stone" />
		<tag k="ssr:stedsnr" v="214285" />
	</node>
	<node lat="61.755838886475274" lon="6.102611118674658" id="-33522">
		<tag k="name" v="Steffamyra" />
		<tag k="natural" v="wetland" />
		<tag k="ssr:stedsnr" v="215112" />
	</node>
	<node lat="61.67913888871137" lon="5.8812694466272895" id="-33560">
		<tag k="name" v="Pøylene" />
		<tag k="natural" v="wetland" />
		<tag k="ssr:stedsnr" v="253400" />
	</node>
	<node lat="61.65055555949214" lon="5.9528777866731" id="-33573">
		<tag k="name" v="Grønskredene" />
		<tag k="natural" v="scree" />
		<tag k="place" v="locality" />
		<tag k="ssr:stedsnr" v="457429" />
	</node>
	<node lat="61.658388886048215" lon="5.92755833059601" id="-33597">
		<tag k="name" v="Langemyra" />
		<tag k="natural" v="wetland" />
		<tag k="ssr:stedsnr" v="457629" />
	</node>
	<node lat="61.75419722145343" lon="6.185569445481018" id="-33620">
		<tag k="name" v="Sperremyra" />
		<tag k="natural" v="wetland" />
		<tag k="ssr:stedsnr" v="458243" />
	</node>
	<node lat="61.66353055644678" lon="6.441758329628079" id="-33630">
		<tag k="name" v="Storemyra" />
		<tag k="natural" v="wetland" />
		<tag k="ssr:stedsnr" v="458767" />
	</node>
	<node lat="61.721361111117105" lon="6.526458331280634" id="-33645">
		<tag k="name" v="Steinrøysa" />
		<tag k="natural" v="stone" />
		<tag k="ssr:stedsnr" v="458887" />
	</node>
	<node lat="61.75089166502556" lon="6.548941659548349" id="-33664">
		<tag k="name" v="Langemyra" />
		<tag k="natural" v="wetland" />
		<tag k="ssr:stedsnr" v="275479" />
	</node>
	<node lat="61.643097220421325" lon="5.901930561608745" id="-33669">
		<tag k="name" v="Blåura" />
		<tag k="natural" v="scree" />
		<tag k="ssr:stedsnr" v="275622" />
	</node>
	<node lat="61.640547220778274" lon="5.717144445778543" id="-33673">
		<tag k="name" v="Kristenlimyrane" />
		<tag k="natural" v="wetland" />
		<tag k="ssr:stedsnr" v="275692" />
	</node>
	<node lat="61.76499722258851" lon="6.09455000764925" id="-33690">
		<tag k="name" v="Orremyra" />
		<tag k="natural" v="wetland" />
		<tag k="ssr:stedsnr" v="276124" />
	</node>
	<node lat="61.62981666983705" lon="6.373627784649738" id="-33695">
		<tag k="name" v="Storesteinane" />
		<tag k="natural" v="scree" />
		<tag k="ssr:stedsnr" v="276186" />
	</node>
	<node lat="61.75545555212447" lon="6.435822219711198" id="-33711">
		<tag k="name" v="Futediket" />
		<tag k="natural" v="wetland" />
		<tag k="ssr:stedsnr" v="313166" />
	</node>
	<node lat="61.648552775515824" lon="6.3739333383026295" id="-33732">
		<tag k="name" v="Klypeura" />
		<tag k="natural" v="scree" />
		<tag k="ssr:stedsnr" v="336159" />
	</node>
	<node lat="61.76197221824349" lon="6.168536120411722" id="-33734">
		<tag k="name" v="Seljelimyrane" />
		<tag k="natural" v="wetland" />
		<tag k="ssr:stedsnr" v="336025" />
	</node>
	<node lat="61.68216944643845" lon="5.915980549960709" id="-33740">
		<tag k="name" v="Veslefrogden" />
		<tag k="natural" v="wetland" />
		<tag k="ssr:stedsnr" v="336360" />
	</node>
	<node lat="61.614444446663065" lon="5.762011104395525" id="-33742">
		<tag k="name" v="Storesteinane" />
		<tag k="natural" v="stone" />
		<tag k="ssr:stedsnr" v="336503" />
	</node>
	<node lat="61.691913885689175" lon="6.035730563805602" id="-33755">
		<tag k="name" v="Vamyrane" />
		<tag k="natural" v="wetland" />
		<tag k="ssr:stedsnr" v="336442" />
	</node>
	<node lat="61.80053611420591" lon="5.862772229354402" id="-33795">
		<tag k="name" v="Gjegnalundsbreen" />
		<tag k="natural" v="glacier" />
		<tag k="ssr:stedsnr" v="374708" />
	</node>
	<node lat="61.68608611463546" lon="6.043805561905449" id="-33808">
		<tag k="name" v="Storemyrane" />
		<tag k="natural" v="wetland" />
		<tag k="ssr:stedsnr" v="396435" />
	</node>
	<node lat="61.63382777860841" lon="5.830511104829059" id="-33815">
		<tag k="name" v="Tjernmyra" />
		<tag k="natural" v="wetland" />
		<tag k="ssr:stedsnr" v="396610" />
	</node>
	<node lat="61.61655555804141" lon="5.658675002398848" id="-33830">
		<tag k="name" v="Griseryggmyra" />
		<tag k="natural" v="wetland" />
		<tag k="ssr:stedsnr" v="397903" />
	</node>
	<node lat="61.741063888934306" lon="5.635530558566881" id="-33841">
		<tag k="name" v="Ålfotbreen" />
		<tag k="natural" v="glacier" />
		<tag k="ssr:stedsnr" v="433632" />
	</node>
	<node lat="61.82970555805837" lon="6.044652782436645" id="-33880">
		<tag k="name" v="Storemyra" />
		<tag k="natural" v="wetland" />
		<tag k="ssr:stedsnr" v="457364" />
	</node>
	<node lat="61.650477777131464" lon="6.512008329671198" id="-33904">
		<tag k="name" v="Blåura" />
		<tag k="natural" v="scree" />
		<tag k="ssr:stedsnr" v="458823" />
	</node>
</osm>
